{
"type": "FeatureCollection",
"features": [
	{"geometry":{"coordinates":[-4.162629,50.364884],"type":"Point"},"properties":{"osm_id":"399431475","tag":{"amenity":"recycling"}},"type":"Feature"},
	{"geometry":{"coordinates":[-4.153603,50.371468],"type":"Point"},"properties":{"osm_id":"527403392","tag":{"amenity":"waste_basket"}},"type":"Feature"},
	{"geometry":{"coordinates":[-4.155579,50.372769],"type":"Point"},"properties":{"osm_id":"529511110","tag":{"amenity":"waste_basket"}},"type":"Feature"},
	{"geometry":{"coordinates":[-4.157977,50.374458],"type":"Point"},"properties":{"osm_id":"536812742","tag":{"amenity":"waste_basket"}},"type":"Feature"},
	{"geometry":{"coordinates":[-4.164919,50.370474],"type":"Point"},"properties":{"osm_id":"1286075586","tag":{"amenity":"recycling","recycling:glass":"yes"}},"type":"Feature"},
	{"geometry":{"coordinates":[-4.198352,50.377115],"type":"Point"},"properties":{"osm_id":"1683395112","tag":{"amenity":"recycling"}},"type":"Feature"},
	{"geometry":{"coordinates":[-4.141578,50.396994],"type":"Point"},"properties":{"osm_id":"4355565361","tag":{"amenity":"recycling"}},"type":"Feature"},
	{"geometry":{"coordinates":[-4.142659,50.376024],"type":"Point"},"properties":{"osm_id":"4867696437","tag":{"amenity":"waste_basket"}},"type":"Feature"},
	{"geometry":{"coordinates":[-4.142701,50.374752],"type":"Point"},"properties":{"osm_id":"4867697566","tag":{"amenity":"waste_basket"}},"type":"Feature"},
	{"geometry":{"coordinates":[-4.143881,50.374202],"type":"Point"},"properties":{"osm_id":"4867697569","tag":{"amenity":"recycling","operator":"Oxfam","recycling:clothes":"yes","recycling:shoes":"yes","recycling_type":"container"}},"type":"Feature"},
	{"geometry":{"coordinates":[-4.14294,50.373779],"type":"Point"},"properties":{"osm_id":"4870420126","tag":{"amenity":"waste_basket"}},"type":"Feature"},
	{"geometry":{"coordinates":[-4.140511,50.375148],"type":"Point"},"properties":{"osm_id":"4870497676","tag":{"amenity":"waste_basket"}},"type":"Feature"},
	{"geometry":{"coordinates":[-4.140468,50.37468],"type":"Point"},"properties":{"osm_id":"4870498216","tag":{"amenity":"waste_basket"}},"type":"Feature"},
	{"geometry":{"coordinates":[-4.14046,50.376197],"type":"Point"},"properties":{"osm_id":"4870498218","tag":{"amenity":"waste_basket"}},"type":"Feature"},
	{"geometry":{"coordinates":[-4.135503,50.372332],"type":"Point"},"properties":{"osm_id":"4872756479","tag":{"amenity":"waste_basket"}},"type":"Feature"},
	{"geometry":{"coordinates":[-4.133755,50.37077],"type":"Point"},"properties":{"osm_id":"4872756481","tag":{"amenity":"waste_basket"}},"type":"Feature"},
	{"geometry":{"coordinates":[-4.134786,50.370735],"type":"Point"},"properties":{"osm_id":"4872756482","tag":{"amenity":"waste_basket"}},"type":"Feature"},
	{"geometry":{"coordinates":[-4.139221,50.370572],"type":"Point"},"properties":{"osm_id":"4872756488","tag":{"amenity":"waste_basket"}},"type":"Feature"},
	{"geometry":{"coordinates":[-4.139044,50.370782],"type":"Point"},"properties":{"osm_id":"4872756489","tag":{"amenity":"waste_basket"}},"type":"Feature"},
	{"geometry":{"coordinates":[-4.139101,50.371141],"type":"Point"},"properties":{"osm_id":"4872756490","tag":{"amenity":"waste_basket"}},"type":"Feature"},
	{"geometry":{"coordinates":[-4.139199,50.371319],"type":"Point"},"properties":{"osm_id":"4872756491","tag":{"amenity":"waste_basket"}},"type":"Feature"},
	{"geometry":{"coordinates":[-4.139263,50.371528],"type":"Point"},"properties":{"osm_id":"4872756492","tag":{"amenity":"waste_basket"}},"type":"Feature"},
	{"geometry":{"coordinates":[-4.134645,50.370669],"type":"Point"},"properties":{"osm_id":"4872757229","tag":{"amenity":"waste_basket"}},"type":"Feature"},
	{"geometry":{"coordinates":[-4.142641,50.369505],"type":"Point"},"properties":{"osm_id":"4874925619","tag":{"amenity":"waste_basket"}},"type":"Feature"},
	{"geometry":{"coordinates":[-4.14282,50.371377],"type":"Point"},"properties":{"osm_id":"4874934053","tag":{"amenity":"waste_basket"}},"type":"Feature"},
	{"geometry":{"coordinates":[-4.143979,50.365184],"type":"Point"},"properties":{"osm_id":"4874934075","tag":{"amenity":"waste_basket"}},"type":"Feature"},
	{"geometry":{"coordinates":[-4.142409,50.368455],"type":"Point"},"properties":{"osm_id":"4874934078","tag":{"amenity":"waste_basket"}},"type":"Feature"},
	{"geometry":{"coordinates":[-4.141995,50.368959],"type":"Point"},"properties":{"osm_id":"4874934079","tag":{"amenity":"waste_basket"}},"type":"Feature"},
	{"geometry":{"coordinates":[-4.142343,50.369879],"type":"Point"},"properties":{"osm_id":"4874934080","tag":{"amenity":"waste_basket"}},"type":"Feature"},
	{"geometry":{"coordinates":[-4.143361,50.365227],"type":"Point"},"properties":{"osm_id":"4874934197","tag":{"amenity":"waste_basket"}},"type":"Feature"},
	{"geometry":{"coordinates":[-4.142592,50.370957],"type":"Point"},"properties":{"osm_id":"4874934331","tag":{"amenity":"waste_basket"}},"type":"Feature"},
	{"geometry":{"coordinates":[-4.142965,50.370567],"type":"Point"},"properties":{"osm_id":"4874934333","tag":{"amenity":"waste_basket"}},"type":"Feature"},
	{"geometry":{"coordinates":[-4.143914,50.370182],"type":"Point"},"properties":{"osm_id":"4874934334","tag":{"amenity":"waste_basket"}},"type":"Feature"},
	{"geometry":{"coordinates":[-4.142651,50.369796],"type":"Point"},"properties":{"osm_id":"4874934335","tag":{"amenity":"waste_basket"}},"type":"Feature"},
	{"geometry":{"coordinates":[-4.142574,50.368939],"type":"Point"},"properties":{"osm_id":"4874934336","tag":{"amenity":"waste_basket"}},"type":"Feature"},
	{"geometry":{"coordinates":[-4.142283,50.36524],"type":"Point"},"properties":{"osm_id":"4874934338","tag":{"amenity":"waste_basket"}},"type":"Feature"},
	{"geometry":{"coordinates":[-4.142537,50.364877],"type":"Point"},"properties":{"osm_id":"4874934339","tag":{"amenity":"waste_basket"}},"type":"Feature"},
	{"geometry":{"coordinates":[-4.145552,50.365211],"type":"Point"},"properties":{"osm_id":"4874934342","tag":{"amenity":"waste_basket"}},"type":"Feature"},
	{"geometry":{"coordinates":[-4.143188,50.365732],"type":"Point"},"properties":{"osm_id":"4874934347","tag":{"amenity":"waste_basket"}},"type":"Feature"},
	{"geometry":{"coordinates":[-4.142748,50.36677],"type":"Point"},"properties":{"osm_id":"4874934348","tag":{"amenity":"waste_basket"}},"type":"Feature"},
	{"geometry":{"coordinates":[-4.142066,50.370496],"type":"Point"},"properties":{"osm_id":"4874934351","tag":{"amenity":"waste_basket"}},"type":"Feature"},
	{"geometry":{"coordinates":[-4.141075,50.373328],"type":"Point"},"properties":{"osm_id":"4874934355","tag":{"amenity":"waste_basket"}},"type":"Feature"},
	{"geometry":{"coordinates":[-4.1425,50.367853],"type":"Point"},"properties":{"osm_id":"4874934540","tag":{"amenity":"waste_basket"}},"type":"Feature"},
	{"geometry":{"coordinates":[-4.142311,50.370955],"type":"Point"},"properties":{"osm_id":"4874934667","tag":{"amenity":"waste_basket"}},"type":"Feature"},
	{"geometry":{"coordinates":[-4.145095,50.37036],"type":"Point"},"properties":{"osm_id":"4874934670","tag":{"amenity":"waste_basket"}},"type":"Feature"},
	{"geometry":{"coordinates":[-4.142618,50.366354],"type":"Point"},"properties":{"osm_id":"4874934673","tag":{"amenity":"waste_basket"}},"type":"Feature"},
	{"geometry":{"coordinates":[-4.145383,50.364968],"type":"Point"},"properties":{"osm_id":"4874934677","tag":{"amenity":"waste_basket"}},"type":"Feature"},
	{"geometry":{"coordinates":[-4.14218,50.369568],"type":"Point"},"properties":{"osm_id":"4874934867","tag":{"amenity":"waste_basket"}},"type":"Feature"},
	{"geometry":{"coordinates":[-4.14234,50.372018],"type":"Point"},"properties":{"osm_id":"4874934870","tag":{"amenity":"waste_basket"}},"type":"Feature"},
	{"geometry":{"coordinates":[-4.142355,50.373439],"type":"Point"},"properties":{"osm_id":"4874934871","tag":{"amenity":"waste_basket"}},"type":"Feature"},
	{"geometry":{"coordinates":[-4.141243,50.373405],"type":"Point"},"properties":{"osm_id":"4874934872","tag":{"amenity":"waste_basket"}},"type":"Feature"},
	{"geometry":{"coordinates":[-4.151134,50.376179],"type":"Point"},"properties":{"osm_id":"4900306758","tag":{"amenity":"waste_basket"}},"type":"Feature"},
	{"geometry":{"coordinates":[-4.138677,50.370692],"type":"Point"},"properties":{"osm_id":"4900313919","tag":{"amenity":"waste_basket"}},"type":"Feature"},
	{"geometry":{"coordinates":[-4.134014,50.37171],"type":"Point"},"properties":{"osm_id":"4907562211","tag":{"amenity":"waste_basket"}},"type":"Feature"},
	{"geometry":{"coordinates":[-4.147389,50.371864],"type":"Point"},"properties":{"osm_id":"4909228622","tag":{"amenity":"waste_basket"}},"type":"Feature"},
	{"geometry":{"coordinates":[-4.142498,50.373089],"type":"Point"},"properties":{"osm_id":"4909234649","tag":{"amenity":"waste_basket"}},"type":"Feature"},
	{"geometry":{"coordinates":[-4.142889,50.372394],"type":"Point"},"properties":{"osm_id":"4909239903","tag":{"amenity":"waste_basket"}},"type":"Feature"},
	{"geometry":{"coordinates":[-4.13915,50.374759],"type":"Point"},"properties":{"osm_id":"4909242691","tag":{"amenity":"waste_basket"}},"type":"Feature"},
	{"geometry":{"coordinates":[-4.139916,50.372389],"type":"Point"},"properties":{"osm_id":"4909242693","tag":{"amenity":"waste_basket"}},"type":"Feature"},
	{"geometry":{"coordinates":[-4.140971,50.372456],"type":"Point"},"properties":{"osm_id":"4909242695","tag":{"amenity":"waste_basket"}},"type":"Feature"},
	{"geometry":{"coordinates":[-4.142323,50.372155],"type":"Point"},"properties":{"osm_id":"4909242697","tag":{"amenity":"waste_basket"}},"type":"Feature"},
	{"geometry":{"coordinates":[-4.14259,50.37155],"type":"Point"},"properties":{"osm_id":"4909242698","tag":{"amenity":"waste_basket"}},"type":"Feature"},
	{"geometry":{"coordinates":[-4.139539,50.373149],"type":"Point"},"properties":{"osm_id":"4909243465","tag":{"amenity":"waste_basket"}},"type":"Feature"},
	{"geometry":{"coordinates":[-4.142819,50.371337],"type":"Point"},"properties":{"osm_id":"4909244018","tag":{"amenity":"waste_basket"}},"type":"Feature"},
	{"geometry":{"coordinates":[-4.147071,50.372345],"type":"Point"},"properties":{"osm_id":"4909244564","tag":{"amenity":"waste_basket"}},"type":"Feature"},
	{"geometry":{"coordinates":[-4.146146,50.372273],"type":"Point"},"properties":{"osm_id":"4909244595","tag":{"amenity":"waste_basket"}},"type":"Feature"},
	{"geometry":{"coordinates":[-4.145482,50.372294],"type":"Point"},"properties":{"osm_id":"4909244603","tag":{"amenity":"waste_basket"}},"type":"Feature"},
	{"geometry":{"coordinates":[-4.143463,50.37241],"type":"Point"},"properties":{"osm_id":"4909244610","tag":{"amenity":"waste_basket"}},"type":"Feature"},
	{"geometry":{"coordinates":[-4.14792,50.371797],"type":"Point"},"properties":{"osm_id":"4909244624","tag":{"amenity":"waste_basket"}},"type":"Feature"},
	{"geometry":{"coordinates":[-4.134072,50.371679],"type":"Point"},"properties":{"osm_id":"4933401755","tag":{"amenity":"waste_basket"}},"type":"Feature"},
	{"geometry":{"coordinates":[-4.137695,50.366695],"type":"Point"},"properties":{"osm_id":"4959587351","tag":{"amenity":"waste_basket"}},"type":"Feature"},
	{"geometry":{"coordinates":[-4.140017,50.368349],"type":"Point"},"properties":{"osm_id":"4959587352","tag":{"amenity":"waste_basket"}},"type":"Feature"},
	{"geometry":{"coordinates":[-4.165596,50.380596],"type":"Point"},"properties":{"osm_id":"5022920812","tag":{"amenity":"recycling","recycling:glass":"yes","recycling:paper":"yes","recycling_type":"container"}},"type":"Feature"},
	{"geometry":{"coordinates":[-4.158705,50.37366],"type":"Point"},"properties":{"osm_id":"5079456412","tag":{"amenity":"waste_basket"}},"type":"Feature"},
	{"geometry":{"coordinates":[-4.158558,50.374506],"type":"Point"},"properties":{"osm_id":"5079456996","tag":{"amenity":"waste_basket"}},"type":"Feature"},
	{"geometry":{"coordinates":[-4.154598,50.375764],"type":"Point"},"properties":{"osm_id":"5079456998","tag":{"amenity":"waste_basket"}},"type":"Feature"},
	{"geometry":{"coordinates":[-4.172832,50.375874],"type":"Point"},"properties":{"osm_id":"5211358932","tag":{"amenity":"waste_basket"}},"type":"Feature"},
	{"geometry":{"coordinates":[-4.169668,50.374816],"type":"Point"},"properties":{"osm_id":"5211358933","tag":{"amenity":"waste_basket"}},"type":"Feature"},
	{"geometry":{"coordinates":[-4.162787,50.371387],"type":"Point"},"properties":{"osm_id":"5211360227","tag":{"amenity":"waste_basket"}},"type":"Feature"},
	{"geometry":{"coordinates":[-4.145682,50.366837],"type":"Point"},"properties":{"osm_id":"5594974951","tag":{"amenity":"waste_basket"}},"type":"Feature"},
	{"geometry":{"coordinates":[-4.152132,50.386618],"type":"Point"},"properties":{"osm_id":"5659693540","tag":{"amenity":"waste_basket"}},"type":"Feature"},
	{"geometry":{"coordinates":[-4.147262,50.379485],"type":"Point"},"properties":{"osm_id":"5659693736","tag":{"amenity":"waste_basket"}},"type":"Feature"},
	{"geometry":{"coordinates":[-4.148402,50.381423],"type":"Point"},"properties":{"osm_id":"5659694030","tag":{"amenity":"waste_basket"}},"type":"Feature"},
	{"geometry":{"coordinates":[-4.152618,50.386721],"type":"Point"},"properties":{"osm_id":"5659694223","tag":{"amenity":"waste_basket"}},"type":"Feature"},
	{"geometry":{"coordinates":[-4.162264,50.396186],"type":"Point"},"properties":{"osm_id":"6016216680","tag":{"amenity":"waste_basket"}},"type":"Feature"},
	{"geometry":{"coordinates":[-4.164313,50.359749],"type":"Point"},"properties":{"osm_id":"6250698425","tag":{"amenity":"waste_basket"}},"type":"Feature"},
	{"geometry":{"coordinates":[-4.148792,50.377381],"type":"Point"},"properties":{"osm_id":"6342808034","tag":{"amenity":"waste_basket"}},"type":"Feature"},
	{"geometry":{"coordinates":[-4.197957,50.374498],"type":"Point"},"properties":{"osm_id":"6786738146","tag":{"amenity":"waste_basket","waste":"dog_excrement"}},"type":"Feature"},
	{"geometry":{"coordinates":[-4.218168,50.378987],"type":"Point"},"properties":{"osm_id":"6786748343","tag":{"amenity":"waste_basket","waste":"dog_excrement"}},"type":"Feature"},
	{"geometry":{"coordinates":[-4.213501,50.378549],"type":"Point"},"properties":{"osm_id":"6786748344","tag":{"amenity":"waste_basket"}},"type":"Feature"},
	{"geometry":{"coordinates":[-4.214367,50.375429],"type":"Point"},"properties":{"osm_id":"6786748345","tag":{"amenity":"waste_basket"}},"type":"Feature"},
	{"geometry":{"coordinates":[-4.203097,50.378536],"type":"Point"},"properties":{"osm_id":"6786767287","tag":{"amenity":"waste_basket","waste":"dog_excrement"}},"type":"Feature"}
]
}
