{
"type": "FeatureCollection",
"lastupdate": "2020-07-31T00:00:00Z",
"features": [
	{"geometry":{"coordinates":[-4.196936,47.834541],"type":"Point"},"properties":{"name":"D\u00c3\u00a9charge","osm_id":"2416754481","tag":{"amenity":"recycling","recycling:wood":"yes","recycling_type":"centre"}},"type":"Feature"},
	{"geometry":{"coordinates":[-4.211376,47.8147],"type":"Point"},"properties":{"osm_id":"4018615366","tag":{"amenity":"recycling","recycling:glass":"yes","recycling:glass_bottles":"no","recycling_type":"container"}},"type":"Feature"},
	{"geometry":{"coordinates":[-4.217261,47.816281],"type":"Point"},"properties":{"osm_id":"4018615370","tag":{"amenity":"recycling","recycling:glass":"yes","recycling_type":"container"}},"type":"Feature"},
	{"geometry":{"coordinates":[-4.170511,47.827161],"type":"Point"},"properties":{"osm_id":"4358976635","tag":{"amenity":"recycling","recycling:cardboard":"yes","recycling:glass":"yes","recycling:paper":"yes","recycling:plastic":"yes","recycling_type":"container"}},"type":"Feature"},
	{"geometry":{"coordinates":[-4.175086,47.837828],"type":"Point"},"properties":{"osm_id":"4969329663","tag":{"amenity":"recycling","recycling_type":"container"}},"type":"Feature"},
	{"geometry":{"coordinates":[-4.218381,47.866522],"type":"Point"},"properties":{"osm_id":"6637958704","tag":{"amenity":"waste_basket"}},"type":"Feature"},
	{"geometry":{"coordinates":[-4.217594,47.866677],"type":"Point"},"properties":{"osm_id":"6637959894","tag":{"amenity":"waste_basket"}},"type":"Feature"},
	{"geometry":{"coordinates":[-4.217751,47.86677],"type":"Point"},"properties":{"osm_id":"6637966175","tag":{"amenity":"waste_basket"}},"type":"Feature"},
	{"geometry":{"coordinates":[-4.217787,47.869218],"type":"Point"},"properties":{"osm_id":"6637983690","tag":{"amenity":"waste_basket"}},"type":"Feature"},
	{"geometry":{"coordinates":[-4.217161,47.866385],"type":"Point"},"properties":{"osm_id":"6637985276","tag":{"amenity":"waste_basket"}},"type":"Feature"},
	{"geometry":{"coordinates":[-4.16822,47.849072],"type":"Point"},"properties":{"osm_id":"6687182565","tag":{"amenity":"recycling","recycling:glass":"yes","recycling_type":"container"}},"type":"Feature"}
]
}
