{
"type": "FeatureCollection",
"features": [
	{"geometry":{"coordinates":[9.654077,54.730176],"type":"Point"},"properties":{"osm_id":"2536033131","tag":{"natural":"tree"}},"type":"Feature"},
	{"geometry":{"coordinates":[9.601756,54.76414],"type":"Point"},"properties":{"name":"Waldemarseiche","osm_id":"2601810464","tag":{"genus":"Quercus","genus:de":"Eiche","natural":"tree"}},"type":"Feature"},
	{"geometry":{"coordinates":[9.607377,54.736489],"type":"Point"},"properties":{"osm_id":"7685377972","tag":{"genus":"Malus","genus:de":"Apfel","leaf_cycle":"deciduous","leaf_type":"broadleaved","name:de":"Gelber Richard","natural":"tree","species":"Malus domestica","species:de":"Kulturapfel"}},"type":"Feature"},
	{"geometry":{"coordinates":[9.607413,54.736559],"type":"Point"},"properties":{"osm_id":"7685377973","tag":{"genus":"Malus","genus:de":"Apfel","leaf_cycle":"deciduous","leaf_type":"broadleaved","name:de":"Krumpeter","natural":"tree","species":"Malus domestica","species:de":"Kulturapfel"}},"type":"Feature"},
	{"geometry":{"coordinates":[9.607442,54.73664],"type":"Point"},"properties":{"osm_id":"7685377974","tag":{"genus":"Malus","genus:de":"Apfel","leaf_cycle":"deciduous","leaf_type":"broadleaved","name:de":"Gretapfel","natural":"tree","species":"Malus domestica","species:de":"Kulturapfel"}},"type":"Feature"},
	{"geometry":{"coordinates":[9.608944,54.737123],"type":"Point"},"properties":{"osm_id":"7685377975","tag":{"genus":"Malus","genus:de":"Apfel","leaf_cycle":"deciduous","leaf_type":"broadleaved","name:de":"Signe Tillisch","natural":"tree","species":"Malus domestica","species:de":"Kulturapfel"}},"type":"Feature"},
	{"geometry":{"coordinates":[9.60762,54.736763],"type":"Point"},"properties":{"osm_id":"7685377976","tag":{"genus":"Malus","genus:de":"Apfel","leaf_cycle":"deciduous","leaf_type":"broadleaved","name:de":"Holsteiner Cox","natural":"tree","species":"Malus domestica","species:de":"Kulturapfel"}},"type":"Feature"},
	{"geometry":{"coordinates":[9.60747,54.736457],"type":"Point"},"properties":{"osm_id":"7685377977","tag":{"genus":"Malus","genus:de":"Apfel","leaf_cycle":"deciduous","leaf_type":"broadleaved","name:de":"Martini","natural":"tree","species":"Malus domestica","species:de":"Kulturapfel"}},"type":"Feature"},
	{"geometry":{"coordinates":[9.607509,54.736538],"type":"Point"},"properties":{"osm_id":"7685377978","tag":{"genus":"Malus","genus:de":"Apfel","leaf_cycle":"deciduous","leaf_type":"broadleaved","name:de":"Weigelts Zinszahler","natural":"tree","species":"Malus domestica","species:de":"Kulturapfel"}},"type":"Feature"},
	{"geometry":{"coordinates":[9.607521,54.736614],"type":"Point"},"properties":{"osm_id":"7685377979","tag":{"genus":"Malus","genus:de":"Apfel","leaf_cycle":"deciduous","leaf_type":"broadleaved","name:de":"Filippas Apfel","natural":"tree","species":"Malus domestica","species:de":"Kulturapfel"}},"type":"Feature"}
]
}
