{
"type": "FeatureCollection",
"features": [
	{"geometry":{"coordinates":[-71.099857,42.36297],"type":"Point"},"properties":{"osm_id":"417050073","tag":{"amenity":"recycling","location":"overground","recycling_type":"container"}},"type":"Feature"},
	{"geometry":{"coordinates":[-71.096533,42.372153],"type":"Point"},"properties":{"osm_id":"993148082","tag":{"amenity":"recycling","recycling_type":"centre"}},"type":"Feature"},
	{"geometry":{"coordinates":[-71.081002,42.417816],"type":"Point"},"properties":{"osm_id":"1738385815","tag":{"amenity":"waste_basket"}},"type":"Feature"},
	{"geometry":{"coordinates":[-71.081008,42.417937],"type":"Point"},"properties":{"osm_id":"1738385858","tag":{"amenity":"waste_basket"}},"type":"Feature"},
	{"geometry":{"coordinates":[-71.092632,42.380935],"type":"Point"},"properties":{"osm_id":"1987879679","tag":{"amenity":"waste_basket"}},"type":"Feature"},
	{"geometry":{"coordinates":[-71.092952,42.380966],"type":"Point"},"properties":{"osm_id":"1987879690","tag":{"amenity":"waste_basket"}},"type":"Feature"},
	{"geometry":{"coordinates":[-71.092937,42.381041],"type":"Point"},"properties":{"osm_id":"1987879717","tag":{"amenity":"waste_basket"}},"type":"Feature"},
	{"geometry":{"coordinates":[-71.092696,42.381048],"type":"Point"},"properties":{"osm_id":"1987879721","tag":{"amenity":"recycling","recycling_type":"container"}},"type":"Feature"},
	{"geometry":{"coordinates":[-71.092769,42.381054],"type":"Point"},"properties":{"osm_id":"1987879723","tag":{"amenity":"waste_basket"}},"type":"Feature"},
	{"geometry":{"coordinates":[-71.093082,42.381468],"type":"Point"},"properties":{"osm_id":"1987879784","tag":{"amenity":"recycling","recycling_type":"container"}},"type":"Feature"},
	{"geometry":{"coordinates":[-71.093202,42.381595],"type":"Point"},"properties":{"osm_id":"1987879797","tag":{"amenity":"waste_basket"}},"type":"Feature"},
	{"geometry":{"coordinates":[-71.093592,42.381939],"type":"Point"},"properties":{"osm_id":"1987880033","tag":{"amenity":"waste_basket"}},"type":"Feature"},
	{"geometry":{"coordinates":[-71.093997,42.382161],"type":"Point"},"properties":{"osm_id":"1987880116","tag":{"amenity":"waste_basket"}},"type":"Feature"},
	{"geometry":{"coordinates":[-71.094767,42.380198],"type":"Point"},"properties":{"osm_id":"2268324039","tag":{"amenity":"waste_basket"}},"type":"Feature"},
	{"geometry":{"coordinates":[-71.094502,42.380356],"type":"Point"},"properties":{"osm_id":"2268324057","tag":{"amenity":"waste_basket"}},"type":"Feature"},
	{"geometry":{"coordinates":[-71.076996,42.39773],"type":"Point"},"properties":{"osm_id":"2312136712","tag":{"amenity":"waste_basket"}},"type":"Feature"},
	{"geometry":{"coordinates":[-71.076951,42.399695],"type":"Point"},"properties":{"osm_id":"2312136745","tag":{"amenity":"waste_basket"}},"type":"Feature"},
	{"geometry":{"coordinates":[-71.090306,42.390524],"type":"Point"},"properties":{"osm_id":"2546995390","tag":{"amenity":"waste_basket"}},"type":"Feature"},
	{"geometry":{"coordinates":[-71.092615,42.384454],"type":"Point"},"properties":{"osm_id":"2547125552","tag":{"amenity":"waste_basket"}},"type":"Feature"},
	{"geometry":{"coordinates":[-71.092883,42.384718],"type":"Point"},"properties":{"osm_id":"2547125566","tag":{"amenity":"waste_basket"}},"type":"Feature"},
	{"geometry":{"coordinates":[-71.09382,42.384936],"type":"Point"},"properties":{"osm_id":"2547125596","tag":{"amenity":"waste_basket"}},"type":"Feature"},
	{"geometry":{"coordinates":[-71.094016,42.385174],"type":"Point"},"properties":{"osm_id":"2547125606","tag":{"amenity":"waste_basket"}},"type":"Feature"},
	{"geometry":{"coordinates":[-71.094482,42.373922],"type":"Point"},"properties":{"name":"E&C Bottle and Can Return","osm_id":"3465461753","tag":{"addr:city":"Cambridge","addr:housenumber":"315","addr:state":"MA","addr:street":"Webster Avenue","amenity":"recycling","contact:phone":"+1 617 492-5588","opening_hours":"Mo-Sa 08:30-16:30; Su off","phone":"+1 617 492-5588","recycling:cans":"yes","recycling:glass_bottles":"yes","recycling_type":"centre"}},"type":"Feature"},
	{"geometry":{"coordinates":[-71.095692,42.360703],"type":"Point"},"properties":{"osm_id":"3499272894","tag":{"amenity":"waste_basket","description":"Solar Compactor"}},"type":"Feature"},
	{"geometry":{"coordinates":[-71.090292,42.360607],"type":"Point"},"properties":{"osm_id":"3554978219","tag":{"amenity":"recycling"}},"type":"Feature"},
	{"geometry":{"coordinates":[-71.045762,42.410073],"type":"Point"},"properties":{"osm_id":"3753840926","tag":{"amenity":"waste_basket"}},"type":"Feature"},
	{"geometry":{"coordinates":[-71.045762,42.410739],"type":"Point"},"properties":{"osm_id":"3753840962","tag":{"amenity":"waste_basket"}},"type":"Feature"},
	{"geometry":{"coordinates":[-71.071613,42.401294],"type":"Point"},"properties":{"osm_id":"4191868140","tag":{"amenity":"waste_basket"}},"type":"Feature"},
	{"geometry":{"coordinates":[-71.101217,42.363781],"type":"Point"},"properties":{"osm_id":"4360316675","tag":{"amenity":"waste_basket"}},"type":"Feature"},
	{"geometry":{"coordinates":[-71.101009,42.363934],"type":"Point"},"properties":{"osm_id":"4360316677","tag":{"amenity":"waste_basket"}},"type":"Feature"},
	{"geometry":{"coordinates":[-71.103277,42.365059],"type":"Point"},"properties":{"osm_id":"4365535131","tag":{"amenity":"waste_basket"}},"type":"Feature"},
	{"geometry":{"coordinates":[-71.098413,42.378864],"type":"Point"},"properties":{"osm_id":"4388609608","tag":{"amenity":"waste_basket"}},"type":"Feature"},
	{"geometry":{"coordinates":[-71.016162,42.383566],"type":"Point"},"properties":{"osm_id":"4456091912","tag":{"amenity":"waste_basket"}},"type":"Feature"},
	{"geometry":{"coordinates":[-71.060995,42.365221],"type":"Point"},"properties":{"osm_id":"4840062093","tag":{"amenity":"waste_basket"}},"type":"Feature"},
	{"geometry":{"coordinates":[-71.059635,42.363991],"type":"Point"},"properties":{"osm_id":"4840220313","tag":{"amenity":"waste_basket"}},"type":"Feature"},
	{"geometry":{"coordinates":[-71.062277,42.362292],"type":"Point"},"properties":{"osm_id":"4875326314","tag":{"amenity":"waste_basket"}},"type":"Feature"},
	{"geometry":{"coordinates":[-71.099729,42.363345],"type":"Point"},"properties":{"osm_id":"4888182877","tag":{"amenity":"waste_basket"}},"type":"Feature"},
	{"geometry":{"coordinates":[-71.10012,42.363402],"type":"Point"},"properties":{"osm_id":"4888182881","tag":{"amenity":"waste_basket"}},"type":"Feature"},
	{"geometry":{"coordinates":[-71.099911,42.363498],"type":"Point"},"properties":{"osm_id":"4888182889","tag":{"amenity":"waste_basket"}},"type":"Feature"},
	{"geometry":{"coordinates":[-71.100295,42.362612],"type":"Point"},"properties":{"osm_id":"4888215437","tag":{"amenity":"waste_basket"}},"type":"Feature"},
	{"geometry":{"coordinates":[-71.100149,42.36253],"type":"Point"},"properties":{"osm_id":"4888215441","tag":{"amenity":"waste_basket"}},"type":"Feature"},
	{"geometry":{"coordinates":[-71.100261,42.362703],"type":"Point"},"properties":{"osm_id":"4888215442","tag":{"amenity":"waste_basket"}},"type":"Feature"},
	{"geometry":{"coordinates":[-71.099986,42.362823],"type":"Point"},"properties":{"osm_id":"4888215443","tag":{"amenity":"waste_basket"}},"type":"Feature"},
	{"geometry":{"coordinates":[-71.101196,42.364009],"type":"Point"},"properties":{"osm_id":"4960004929","tag":{"amenity":"waste_basket"}},"type":"Feature"},
	{"geometry":{"coordinates":[-71.084644,42.371713],"type":"Point"},"properties":{"osm_id":"4987383302","tag":{"amenity":"waste_basket"}},"type":"Feature"},
	{"geometry":{"coordinates":[-71.096792,42.381928],"type":"Point"},"properties":{"osm_id":"5010449197","tag":{"amenity":"waste_basket"}},"type":"Feature"},
	{"geometry":{"coordinates":[-71.096785,42.381794],"type":"Point"},"properties":{"osm_id":"5010449200","tag":{"amenity":"waste_basket"}},"type":"Feature"},
	{"geometry":{"coordinates":[-71.103348,42.388335],"type":"Point"},"properties":{"osm_id":"5238051830","tag":{"amenity":"waste_basket"}},"type":"Feature"},
	{"geometry":{"coordinates":[-71.050185,42.35893],"type":"Point"},"properties":{"osm_id":"5305652459","tag":{"amenity":"waste_basket"}},"type":"Feature"},
	{"geometry":{"coordinates":[-71.049805,42.359171],"type":"Point"},"properties":{"osm_id":"5305652460","tag":{"amenity":"recycling","recycling_type":"container"}},"type":"Feature"},
	{"geometry":{"coordinates":[-71.049649,42.359156],"type":"Point"},"properties":{"osm_id":"5305652461","tag":{"amenity":"recycling","recycling_type":"container"}},"type":"Feature"},
	{"geometry":{"coordinates":[-71.049859,42.358897],"type":"Point"},"properties":{"osm_id":"5305652462","tag":{"amenity":"recycling","recycling_type":"container"}},"type":"Feature"},
	{"geometry":{"coordinates":[-71.050517,42.35916],"type":"Point"},"properties":{"osm_id":"5305652463","tag":{"amenity":"waste_basket"}},"type":"Feature"},
	{"geometry":{"coordinates":[-71.048738,42.359467],"type":"Point"},"properties":{"osm_id":"5305652464","tag":{"amenity":"waste_basket"}},"type":"Feature"},
	{"geometry":{"coordinates":[-71.048921,42.358902],"type":"Point"},"properties":{"osm_id":"5305652465","tag":{"amenity":"waste_basket"}},"type":"Feature"},
	{"geometry":{"coordinates":[-71.050657,42.359562],"type":"Point"},"properties":{"osm_id":"5305652479","tag":{"amenity":"waste_basket"}},"type":"Feature"},
	{"geometry":{"coordinates":[-71.050623,42.359444],"type":"Point"},"properties":{"osm_id":"5305652483","tag":{"amenity":"waste_basket"}},"type":"Feature"},
	{"geometry":{"coordinates":[-71.050696,42.359265],"type":"Point"},"properties":{"osm_id":"5305652484","tag":{"amenity":"waste_basket"}},"type":"Feature"},
	{"geometry":{"coordinates":[-71.049762,42.358925],"type":"Point"},"properties":{"osm_id":"5311102445","tag":{"amenity":"waste_basket"}},"type":"Feature"},
	{"geometry":{"coordinates":[-71.049685,42.3591],"type":"Point"},"properties":{"osm_id":"5311102446","tag":{"amenity":"waste_basket"}},"type":"Feature"},
	{"geometry":{"coordinates":[-71.050338,42.358927],"type":"Point"},"properties":{"osm_id":"5311102447","tag":{"amenity":"recycling","recycling_type":"container"}},"type":"Feature"},
	{"geometry":{"coordinates":[-71.045285,42.387188],"type":"Point"},"properties":{"osm_id":"5404614807","tag":{"amenity":"waste_basket"}},"type":"Feature"},
	{"geometry":{"coordinates":[-71.044842,42.387386],"type":"Point"},"properties":{"osm_id":"5404614808","tag":{"amenity":"waste_basket","waste":"dog_excrement"}},"type":"Feature"},
	{"geometry":{"coordinates":[-71.049871,42.358746],"type":"Point"},"properties":{"osm_id":"5411463975","tag":{"amenity":"waste_basket"}},"type":"Feature"},
	{"geometry":{"coordinates":[-71.049383,42.394026],"type":"Point"},"properties":{"osm_id":"5411521992","tag":{"amenity":"waste_basket"}},"type":"Feature"},
	{"geometry":{"coordinates":[-71.051601,42.389272],"type":"Point"},"properties":{"osm_id":"5411522015","tag":{"amenity":"waste_basket"}},"type":"Feature"},
	{"geometry":{"coordinates":[-71.051629,42.389084],"type":"Point"},"properties":{"osm_id":"5411522016","tag":{"amenity":"waste_basket"}},"type":"Feature"},
	{"geometry":{"coordinates":[-71.051612,42.388896],"type":"Point"},"properties":{"osm_id":"5411522017","tag":{"amenity":"waste_basket"}},"type":"Feature"},
	{"geometry":{"coordinates":[-71.050873,42.388184],"type":"Point"},"properties":{"osm_id":"5411522138","tag":{"amenity":"waste_basket"}},"type":"Feature"},
	{"geometry":{"coordinates":[-71.050647,42.388134],"type":"Point"},"properties":{"osm_id":"5411522139","tag":{"amenity":"waste_basket"}},"type":"Feature"},
	{"geometry":{"coordinates":[-71.050451,42.388113],"type":"Point"},"properties":{"osm_id":"5411522140","tag":{"amenity":"waste_basket"}},"type":"Feature"},
	{"geometry":{"coordinates":[-71.049911,42.388118],"type":"Point"},"properties":{"osm_id":"5411522141","tag":{"amenity":"waste_basket"}},"type":"Feature"},
	{"geometry":{"coordinates":[-71.02149,42.403541],"type":"Point"},"properties":{"osm_id":"5411669508","tag":{"amenity":"waste_basket"}},"type":"Feature"},
	{"geometry":{"coordinates":[-71.021195,42.403427],"type":"Point"},"properties":{"osm_id":"5411670427","tag":{"amenity":"waste_basket","waste":"dog_excrement"}},"type":"Feature"},
	{"geometry":{"coordinates":[-71.024539,42.379746],"type":"Point"},"properties":{"osm_id":"5427855083","tag":{"amenity":"waste_basket"}},"type":"Feature"},
	{"geometry":{"coordinates":[-71.024214,42.379481],"type":"Point"},"properties":{"osm_id":"5427855084","tag":{"amenity":"waste_basket"}},"type":"Feature"},
	{"geometry":{"coordinates":[-71.023988,42.380284],"type":"Point"},"properties":{"osm_id":"5427855085","tag":{"amenity":"waste_basket"}},"type":"Feature"},
	{"geometry":{"coordinates":[-71.041033,42.36617],"type":"Point"},"properties":{"osm_id":"5434424105","tag":{"amenity":"waste_basket"}},"type":"Feature"},
	{"geometry":{"coordinates":[-71.041558,42.366282],"type":"Point"},"properties":{"osm_id":"5434424106","tag":{"amenity":"waste_basket"}},"type":"Feature"},
	{"geometry":{"coordinates":[-71.031322,42.40955],"type":"Point"},"properties":{"osm_id":"5615442568","tag":{"amenity":"waste_basket"}},"type":"Feature"},
	{"geometry":{"coordinates":[-71.030428,42.409059],"type":"Point"},"properties":{"osm_id":"5615442579","tag":{"amenity":"waste_basket"}},"type":"Feature"},
	{"geometry":{"coordinates":[-71.030648,42.40882],"type":"Point"},"properties":{"osm_id":"5615442584","tag":{"amenity":"waste_basket"}},"type":"Feature"},
	{"geometry":{"coordinates":[-71.035528,42.405238],"type":"Point"},"properties":{"osm_id":"5615572305","tag":{"amenity":"waste_basket","colour":"Black","material":"steel","operator":"Chelsea DPW","waste":"trash;litter"}},"type":"Feature"},
	{"geometry":{"coordinates":[-71.0364,42.405323],"type":"Point"},"properties":{"osm_id":"5615572307","tag":{"amenity":"waste_basket","material":"steel","operator":"Chelsea DPW"}},"type":"Feature"},
	{"geometry":{"coordinates":[-71.035341,42.405818],"type":"Point"},"properties":{"osm_id":"5615572312","tag":{"amenity":"waste_basket","material":"steel","operator":"Chelsea DPW","waste":"litter"}},"type":"Feature"},
	{"geometry":{"coordinates":[-71.035799,42.405547],"type":"Point"},"properties":{"osm_id":"5618667814","tag":{"amenity":"waste_basket","waste":"dog_excrement"}},"type":"Feature"},
	{"geometry":{"coordinates":[-71.093761,42.362914],"type":"Point"},"properties":{"osm_id":"5633722504","tag":{"amenity":"waste_basket"}},"type":"Feature"},
	{"geometry":{"coordinates":[-71.041155,42.376166],"type":"Point"},"properties":{"osm_id":"5642883141","tag":{"amenity":"waste_basket"}},"type":"Feature"},
	{"geometry":{"coordinates":[-71.041147,42.374174],"type":"Point"},"properties":{"osm_id":"5642883144","tag":{"amenity":"waste_basket","waste":"dog_excrement"}},"type":"Feature"},
	{"geometry":{"coordinates":[-71.044364,42.371562],"type":"Point"},"properties":{"osm_id":"5642883145","tag":{"amenity":"waste_basket","waste":"dog_excrement"}},"type":"Feature"},
	{"geometry":{"coordinates":[-71.044661,42.370893],"type":"Point"},"properties":{"osm_id":"5642883149","tag":{"amenity":"waste_basket","waste":"dog_excrement"}},"type":"Feature"},
	{"geometry":{"coordinates":[-71.044664,42.370766],"type":"Point"},"properties":{"osm_id":"5642883150","tag":{"amenity":"waste_basket"}},"type":"Feature"},
	{"geometry":{"coordinates":[-71.042763,42.369817],"type":"Point"},"properties":{"osm_id":"5642883170","tag":{"amenity":"waste_basket"}},"type":"Feature"},
	{"geometry":{"coordinates":[-71.042959,42.369571],"type":"Point"},"properties":{"osm_id":"5642883171","tag":{"amenity":"waste_basket"}},"type":"Feature"},
	{"geometry":{"coordinates":[-71.042862,42.370108],"type":"Point"},"properties":{"osm_id":"5642883173","tag":{"amenity":"waste_basket"}},"type":"Feature"},
	{"geometry":{"coordinates":[-71.043322,42.370271],"type":"Point"},"properties":{"osm_id":"5642883182","tag":{"amenity":"waste_basket","waste":"dog_excrement"}},"type":"Feature"},
	{"geometry":{"coordinates":[-71.043446,42.370256],"type":"Point"},"properties":{"osm_id":"5642883183","tag":{"amenity":"waste_basket"}},"type":"Feature"},
	{"geometry":{"coordinates":[-71.04249,42.368842],"type":"Point"},"properties":{"osm_id":"5642883187","tag":{"amenity":"waste_basket"}},"type":"Feature"},
	{"geometry":{"coordinates":[-71.0424,42.368802],"type":"Point"},"properties":{"osm_id":"5642883188","tag":{"amenity":"waste_basket"}},"type":"Feature"},
	{"geometry":{"coordinates":[-71.037262,42.398962],"type":"Point"},"properties":{"osm_id":"5646171921","tag":{"amenity":"waste_basket"}},"type":"Feature"},
	{"geometry":{"coordinates":[-71.03723,42.398833],"type":"Point"},"properties":{"osm_id":"5646171922","tag":{"amenity":"waste_basket"}},"type":"Feature"},
	{"geometry":{"coordinates":[-71.103448,42.365142],"type":"Point"},"properties":{"osm_id":"5659796957","tag":{"amenity":"waste_basket"}},"type":"Feature"},
	{"geometry":{"coordinates":[-71.040171,42.372492],"type":"Point"},"properties":{"osm_id":"5674331639","tag":{"amenity":"waste_basket"}},"type":"Feature"},
	{"geometry":{"coordinates":[-71.040632,42.372381],"type":"Point"},"properties":{"osm_id":"5674331645","tag":{"amenity":"waste_basket","waste":"dog_excrement"}},"type":"Feature"},
	{"geometry":{"coordinates":[-71.040192,42.372463],"type":"Point"},"properties":{"osm_id":"5674331646","tag":{"amenity":"waste_basket","waste":"dog_excrement"}},"type":"Feature"},
	{"geometry":{"coordinates":[-71.039416,42.372415],"type":"Point"},"properties":{"osm_id":"5674331653","tag":{"amenity":"waste_basket","waste":"dog_excrement"}},"type":"Feature"},
	{"geometry":{"coordinates":[-71.034305,42.364923],"type":"Point"},"properties":{"osm_id":"5694015642","tag":{"amenity":"waste_basket"}},"type":"Feature"},
	{"geometry":{"coordinates":[-71.033973,42.36497],"type":"Point"},"properties":{"osm_id":"5694015657","tag":{"amenity":"waste_basket","waste":"dog_excrement"}},"type":"Feature"},
	{"geometry":{"coordinates":[-71.029732,42.363729],"type":"Point"},"properties":{"osm_id":"5694015659","tag":{"amenity":"waste_basket"}},"type":"Feature"},
	{"geometry":{"coordinates":[-71.029274,42.363622],"type":"Point"},"properties":{"osm_id":"5694015660","tag":{"amenity":"waste_basket"}},"type":"Feature"},
	{"geometry":{"coordinates":[-71.029301,42.363828],"type":"Point"},"properties":{"osm_id":"5694015662","tag":{"amenity":"waste_basket"}},"type":"Feature"},
	{"geometry":{"coordinates":[-71.028907,42.364083],"type":"Point"},"properties":{"osm_id":"5694015668","tag":{"amenity":"waste_basket"}},"type":"Feature"},
	{"geometry":{"coordinates":[-71.028675,42.364352],"type":"Point"},"properties":{"osm_id":"5694015675","tag":{"amenity":"waste_basket"}},"type":"Feature"},
	{"geometry":{"coordinates":[-71.02859,42.364681],"type":"Point"},"properties":{"osm_id":"5694015682","tag":{"amenity":"waste_basket","waste":"dog_excrement"}},"type":"Feature"},
	{"geometry":{"coordinates":[-71.029136,42.365227],"type":"Point"},"properties":{"osm_id":"5694015689","tag":{"amenity":"waste_basket"}},"type":"Feature"},
	{"geometry":{"coordinates":[-71.028647,42.364814],"type":"Point"},"properties":{"osm_id":"5694015690","tag":{"amenity":"waste_basket"}},"type":"Feature"},
	{"geometry":{"coordinates":[-71.039909,42.399673],"type":"Point"},"properties":{"osm_id":"5697781712","tag":{"amenity":"waste_basket"}},"type":"Feature"},
	{"geometry":{"coordinates":[-71.040323,42.399597],"type":"Point"},"properties":{"osm_id":"5697781713","tag":{"amenity":"waste_basket"}},"type":"Feature"},
	{"geometry":{"coordinates":[-71.040569,42.399558],"type":"Point"},"properties":{"osm_id":"5697781714","tag":{"amenity":"waste_basket"}},"type":"Feature"},
	{"geometry":{"coordinates":[-71.018111,42.369853],"type":"Point"},"properties":{"osm_id":"5750116121","tag":{"amenity":"recycling"}},"type":"Feature"},
	{"geometry":{"coordinates":[-71.026651,42.384941],"type":"Point"},"properties":{"osm_id":"5808065204","tag":{"amenity":"waste_basket"}},"type":"Feature"},
	{"geometry":{"coordinates":[-71.043246,42.421283],"type":"Point"},"properties":{"osm_id":"5965171942","tag":{"amenity":"waste_basket"}},"type":"Feature"},
	{"geometry":{"coordinates":[-71.043351,42.421116],"type":"Point"},"properties":{"osm_id":"5965171947","tag":{"amenity":"waste_basket"}},"type":"Feature"},
	{"geometry":{"coordinates":[-71.023148,42.379439],"type":"Point"},"properties":{"osm_id":"6015607348","tag":{"amenity":"recycling","recycling_type":"container"}},"type":"Feature"},
	{"geometry":{"coordinates":[-71.081491,42.370634],"type":"Point"},"properties":{"osm_id":"6177092603","tag":{"amenity":"waste_basket","description":"Publicly accessible garbage receptacle maintained by the City of Cambridge."}},"type":"Feature"},
	{"geometry":{"coordinates":[-71.073186,42.400424],"type":"Point"},"properties":{"osm_id":"6196909156","tag":{"amenity":"waste_basket"}},"type":"Feature"},
	{"geometry":{"coordinates":[-71.074192,42.397307],"type":"Point"},"properties":{"osm_id":"6196909159","tag":{"amenity":"waste_basket"}},"type":"Feature"},
	{"geometry":{"coordinates":[-71.03281,42.368896],"type":"Point"},"properties":{"osm_id":"6502332193","tag":{"amenity":"waste_basket"}},"type":"Feature"},
	{"geometry":{"coordinates":[-71.03304,42.3687],"type":"Point"},"properties":{"osm_id":"6502332196","tag":{"amenity":"waste_basket"}},"type":"Feature"},
	{"geometry":{"coordinates":[-71.096922,42.373299],"type":"Point"},"properties":{"osm_id":"6539440268","tag":{"amenity":"waste_basket","description":"Publicly accessible garbage receptacle"}},"type":"Feature"},
	{"geometry":{"coordinates":[-71.081892,42.366453],"type":"Point"},"properties":{"osm_id":"6546380738","tag":{"amenity":"waste_basket","description":"Publicly accessible garbage recepticle"}},"type":"Feature"},
	{"geometry":{"coordinates":[-71.066034,42.368001],"type":"Point"},"properties":{"osm_id":"6546384418","tag":{"amenity":"waste_basket","description":"Publicly accessible garbage receptacle"}},"type":"Feature"},
	{"geometry":{"coordinates":[-71.102865,42.366604],"type":"Point"},"properties":{"osm_id":"6546384459","tag":{"amenity":"waste_basket","description":"Publically accessible garbage receptacle"}},"type":"Feature"},
	{"geometry":{"coordinates":[-71.051811,42.361545],"type":"Point"},"properties":{"osm_id":"6564743213","tag":{"amenity":"waste_basket","description":"Publicly accessible garbage receptacle"}},"type":"Feature"},
	{"geometry":{"coordinates":[-71.084172,42.362743],"type":"Point"},"properties":{"osm_id":"6564767014","tag":{"amenity":"waste_basket","description":"Publicly accessible garbage receptacle"}},"type":"Feature"},
	{"geometry":{"coordinates":[-71.06742,42.394996],"type":"Point"},"properties":{"osm_id":"6570535090","tag":{"amenity":"waste_basket"}},"type":"Feature"},
	{"geometry":{"coordinates":[-71.067414,42.394851],"type":"Point"},"properties":{"osm_id":"6570535091","tag":{"amenity":"waste_basket"}},"type":"Feature"},
	{"geometry":{"coordinates":[-71.067617,42.394892],"type":"Point"},"properties":{"osm_id":"6570535092","tag":{"amenity":"waste_basket"}},"type":"Feature"},
	{"geometry":{"coordinates":[-71.068023,42.394699],"type":"Point"},"properties":{"osm_id":"6570535093","tag":{"amenity":"waste_basket"}},"type":"Feature"},
	{"geometry":{"coordinates":[-71.021429,42.404667],"type":"Point"},"properties":{"osm_id":"6592302383","tag":{"amenity":"waste_basket"}},"type":"Feature"},
	{"geometry":{"coordinates":[-71.021647,42.404479],"type":"Point"},"properties":{"osm_id":"6592302384","tag":{"amenity":"waste_basket"}},"type":"Feature"},
	{"geometry":{"coordinates":[-71.059594,42.362792],"type":"Point"},"properties":{"osm_id":"6597707231","tag":{"amenity":"waste_basket","description":"Publicly accessible garbage receptacle."}},"type":"Feature"},
	{"geometry":{"coordinates":[-71.040741,42.368215],"type":"Point"},"properties":{"osm_id":"6699174015","tag":{"amenity":"waste_basket"}},"type":"Feature"},
	{"geometry":{"coordinates":[-71.040716,42.368206],"type":"Point"},"properties":{"osm_id":"6699174016","tag":{"amenity":"recycling","recycling_type":"container"}},"type":"Feature"},
	{"geometry":{"coordinates":[-71.041184,42.368156],"type":"Point"},"properties":{"osm_id":"6699174026","tag":{"amenity":"waste_basket"}},"type":"Feature"},
	{"geometry":{"coordinates":[-71.042359,42.367536],"type":"Point"},"properties":{"osm_id":"6699174039","tag":{"amenity":"waste_basket"}},"type":"Feature"},
	{"geometry":{"coordinates":[-71.042369,42.367545],"type":"Point"},"properties":{"osm_id":"6699174040","tag":{"amenity":"recycling","recycling_type":"container"}},"type":"Feature"},
	{"geometry":{"coordinates":[-71.022502,42.40186],"type":"Point"},"properties":{"osm_id":"6742203148","tag":{"amenity":"waste_basket"}},"type":"Feature"},
	{"geometry":{"coordinates":[-71.042333,42.368111],"type":"Point"},"properties":{"osm_id":"6742204292","tag":{"amenity":"waste_basket"}},"type":"Feature"},
	{"geometry":{"coordinates":[-71.04231,42.368118],"type":"Point"},"properties":{"osm_id":"6742204293","tag":{"amenity":"recycling","recycling_type":"container"}},"type":"Feature"},
	{"geometry":{"coordinates":[-71.070923,42.360408],"type":"Point"},"properties":{"osm_id":"6766576302","tag":{"amenity":"waste_basket","description":"Publicly accessible garbage receptacle."}},"type":"Feature"},
	{"geometry":{"coordinates":[-71.069537,42.361025],"type":"Point"},"properties":{"osm_id":"6766910354","tag":{"amenity":"waste_basket","description":"Publicly accessible garbage receptacle."}},"type":"Feature"},
	{"geometry":{"coordinates":[-71.059099,42.366465],"type":"Point"},"properties":{"osm_id":"6795740702","tag":{"amenity":"waste_basket","description":"Publicly accessible garbage receptacle."}},"type":"Feature"},
	{"geometry":{"coordinates":[-71.058846,42.405786],"type":"Point"},"properties":{"osm_id":"6806723959","tag":{"amenity":"waste_basket"}},"type":"Feature"},
	{"geometry":{"coordinates":[-71.059281,42.405968],"type":"Point"},"properties":{"osm_id":"6806723966","tag":{"amenity":"waste_basket"}},"type":"Feature"},
	{"geometry":{"coordinates":[-71.059166,42.406052],"type":"Point"},"properties":{"osm_id":"6806723972","tag":{"amenity":"waste_basket"}},"type":"Feature"},
	{"geometry":{"coordinates":[-71.101923,42.3607],"type":"Point"},"properties":{"osm_id":"6821379434","tag":{"amenity":"waste_basket","description":"Publicly accessible garbage receptacle."}},"type":"Feature"},
	{"geometry":{"coordinates":[-71.095929,42.360671],"type":"Point"},"properties":{"osm_id":"6835817324","tag":{"amenity":"waste_basket","description":"Publicly accessible garbage receptacle."}},"type":"Feature"},
	{"geometry":{"coordinates":[-71.094658,42.365847],"type":"Point"},"properties":{"osm_id":"6900449256","tag":{"amenity":"waste_basket","description":"Publicly accessible garbage receptacle."}},"type":"Feature"},
	{"geometry":{"coordinates":[-71.098091,42.363378],"type":"Point"},"properties":{"osm_id":"6918714383","tag":{"amenity":"waste_basket","description":"Publicly accessible garbage receptacle."}},"type":"Feature"},
	{"geometry":{"coordinates":[-71.088475,42.36235],"type":"Point"},"properties":{"osm_id":"6918767636","tag":{"amenity":"waste_basket","description":"Publicly accessible garbage receptacle."}},"type":"Feature"},
	{"geometry":{"coordinates":[-71.070571,42.36242],"type":"Point"},"properties":{"osm_id":"6942857794","tag":{"amenity":"waste_basket","description":"Publicly accessible garbage receptacle."}},"type":"Feature"},
	{"geometry":{"coordinates":[-71.070652,42.35897],"type":"Point"},"properties":{"osm_id":"6942913498","tag":{"amenity":"waste_basket","description":"Publicly accessible garbage receptacle."}},"type":"Feature"},
	{"geometry":{"coordinates":[-71.093656,42.358776],"type":"Point"},"properties":{"osm_id":"7058392210","tag":{"amenity":"waste_basket","description":"Publicly accessible garbage receptacle."}},"type":"Feature"},
	{"geometry":{"coordinates":[-71.085037,42.362266],"type":"Point"},"properties":{"osm_id":"7058428635","tag":{"amenity":"waste_basket","description":"Publicly accessible garbage receptacle."}},"type":"Feature"},
	{"geometry":{"coordinates":[-71.086922,42.38701],"type":"Point"},"properties":{"osm_id":"7091021872","tag":{"amenity":"waste_basket","description":"Publicly accessible garbage receptacle."}},"type":"Feature"},
	{"geometry":{"coordinates":[-71.083432,42.392678],"type":"Point"},"properties":{"osm_id":"7091080527","tag":{"amenity":"waste_basket","description":"Publicly accessible garbage receptacle."}},"type":"Feature"},
	{"geometry":{"coordinates":[-71.087004,42.37187],"type":"Point"},"properties":{"osm_id":"7277126438","tag":{"amenity":"waste_basket","description":"Publicly accessible garbage receptacle"}},"type":"Feature"},
	{"geometry":{"coordinates":[-71.070746,42.36045],"type":"Point"},"properties":{"osm_id":"7317223807","tag":{"amenity":"waste_basket","description":"Publicly accessible garbage receptacle"}},"type":"Feature"},
	{"geometry":{"coordinates":[-71.076572,42.369215],"type":"Point"},"properties":{"osm_id":"7317289097","tag":{"amenity":"waste_basket","description":"Publicly accessible garbage receptacle"}},"type":"Feature"},
	{"geometry":{"coordinates":[-71.068079,42.361043],"type":"Point"},"properties":{"osm_id":"7319402264","tag":{"amenity":"waste_basket","description":"Publicly accessible garbage receptacle"}},"type":"Feature"},
	{"geometry":{"coordinates":[-71.053639,42.36575],"type":"Point"},"properties":{"osm_id":"7319841234","tag":{"amenity":"waste_basket","description":"Publicly accessible garbage receptacle"}},"type":"Feature"},
	{"geometry":{"coordinates":[-71.051234,42.366325],"type":"Point"},"properties":{"osm_id":"7319996355","tag":{"amenity":"waste_basket","description":"Publicly accessible garbage receptacle"}},"type":"Feature"},
	{"geometry":{"coordinates":[-71.049174,42.389148],"type":"Point"},"properties":{"osm_id":"7572599457","tag":{"amenity":"waste_basket","waste":"dog_excrement"}},"type":"Feature"},
	{"geometry":{"coordinates":[-71.047104,42.3888],"type":"Point"},"properties":{"osm_id":"7572599458","tag":{"amenity":"waste_basket","waste":"dog_excrement"}},"type":"Feature"},
	{"geometry":{"coordinates":[-71.047111,42.388804],"type":"Point"},"properties":{"osm_id":"7572599459","tag":{"amenity":"waste_basket"}},"type":"Feature"},
	{"geometry":{"coordinates":[-71.036337,42.392731],"type":"Point"},"properties":{"osm_id":"7659257401","tag":{"amenity":"waste_basket"}},"type":"Feature"},
	{"geometry":{"coordinates":[-71.070867,42.359536],"type":"Point"},"properties":{"osm_id":"7781519944","tag":{"amenity":"waste_basket","description":"Publically accessible garbage receptacle"}},"type":"Feature"},
	{"geometry":{"coordinates":[-71.061625,42.368902],"type":"Point"},"properties":{"osm_id":"7782888438","tag":{"amenity":"waste_basket","colour":"black","covered":"no","height":"1","indoor":"no","material":"steel","waste":"trash"}},"type":"Feature"},
	{"geometry":{"coordinates":[-71.07076,42.36074],"type":"Point"},"properties":{"man_made":"monitoring_station","osm_id":"7792954578","tag":{"amenity":"recycling","colour":"black","communication:mobile":"yes","covered":"no","generator:source":"solar","height":"1.3","indoor":"no","internet_access":"yes","lockable":"yes","manufacturer":"BigBelly, Inc.","material":"metal","monitoring:trash":"yes","operator":"City of Boston Public Works","recycling:glass":"yes","recycling:paper":"yes","recycling:plastic":"yes","recycling:waste":"yes","recycling_type":"container","waste":"trash;recycling","website":"https://www.boston.gov/trash-and-recycling","wheelchair":"yes","width":"0.6"}},"type":"Feature"},
	{"geometry":{"coordinates":[-71.070302,42.361369],"type":"Point"},"properties":{"man_made":"monitoring_station","osm_id":"7792954579","tag":{"amenity":"recycling","colour":"black","communication:mobile":"yes","covered":"no","generator:source":"solar","height":"1.3","indoor":"no","internet_access":"yes","lockable":"yes","manufacturer":"BigBelly, Inc.","material":"metal","monitoring:trash":"yes","operator":"City of Boston Public Works","recycling:glass":"yes","recycling:paper":"yes","recycling:plastic":"yes","recycling:waste":"yes","recycling_type":"container","waste":"trash;recycling","website":"https://www.boston.gov/trash-and-recycling","wheelchair":"yes","width":"0.6"}},"type":"Feature"},
	{"geometry":{"coordinates":[-71.068891,42.361033],"type":"Point"},"properties":{"man_made":"monitoring_station","osm_id":"7792998287","tag":{"amenity":"recycling","colour":"black","communication:mobile":"yes","covered":"no","generator:source":"solar","height":"1.3","indoor":"no","internet_access":"yes","lockable":"yes","manufacturer":"BigBelly, Inc.","material":"metal","monitoring:trash":"yes","operator":"City of Boston Public Works","recycling:glass":"yes","recycling:paper":"yes","recycling:plastic":"yes","recycling:waste":"yes","recycling_type":"container","waste":"trash;recycling","website":"https://www.boston.gov/trash-and-recycling","wheelchair":"yes","width":"0.6"}},"type":"Feature"},
	{"geometry":{"coordinates":[-71.068547,42.361252],"type":"Point"},"properties":{"man_made":"monitoring_station","osm_id":"7792998288","tag":{"amenity":"recycling","colour":"black","communication:mobile":"yes","covered":"no","generator:source":"solar","height":"1.3","indoor":"no","internet_access":"yes","lockable":"yes","manufacturer":"BigBelly, Inc.","material":"metal","monitoring:trash":"yes","operator":"City of Boston Public Works","recycling:glass":"yes","recycling:paper":"yes","recycling:plastic":"yes","recycling:waste":"yes","recycling_type":"container","waste":"trash;recycling","website":"https://www.boston.gov/trash-and-recycling","wheelchair":"yes","width":"0.6"}},"type":"Feature"},
	{"geometry":{"coordinates":[-71.067141,42.361077],"type":"Point"},"properties":{"man_made":"monitoring_station","osm_id":"7792998289","tag":{"amenity":"recycling","colour":"black","communication:mobile":"yes","covered":"no","generator:source":"solar","height":"1.3","indoor":"no","internet_access":"yes","lockable":"yes","manufacturer":"BigBelly, Inc.","material":"metal","monitoring:trash":"yes","operator":"City of Boston Public Works","recycling:glass":"yes","recycling:paper":"yes","recycling:plastic":"yes","recycling:waste":"yes","recycling_type":"container","waste":"trash;recycling","website":"https://www.boston.gov/trash-and-recycling","wheelchair":"yes","width":"0.6"}},"type":"Feature"},
	{"geometry":{"coordinates":[-71.066676,42.361282],"type":"Point"},"properties":{"man_made":"monitoring_station","osm_id":"7792998291","tag":{"amenity":"recycling","colour":"black","communication:mobile":"yes","covered":"no","generator:source":"solar","height":"1.3","indoor":"no","internet_access":"yes","lockable":"yes","manufacturer":"BigBelly, Inc.","material":"metal","monitoring:trash":"yes","operator":"City of Boston Public Works","recycling:glass":"yes","recycling:paper":"yes","recycling:plastic":"yes","recycling:waste":"yes","recycling_type":"container","waste":"trash;recycling","website":"https://www.boston.gov/trash-and-recycling","wheelchair":"yes","width":"0.6"}},"type":"Feature"},
	{"geometry":{"coordinates":[-71.066537,42.36109],"type":"Point"},"properties":{"man_made":"monitoring_station","osm_id":"7792998308","tag":{"amenity":"recycling","colour":"black","communication:mobile":"yes","covered":"no","generator:source":"solar","height":"1.3","indoor":"no","internet_access":"yes","lockable":"yes","manufacturer":"BigBelly, Inc.","material":"metal","monitoring:trash":"yes","operator":"City of Boston Public Works","recycling:glass":"yes","recycling:paper":"yes","recycling:plastic":"yes","recycling:waste":"yes","recycling_type":"container","waste":"trash;recycling","website":"https://www.boston.gov/trash-and-recycling","wheelchair":"yes","width":"0.6"}},"type":"Feature"},
	{"geometry":{"coordinates":[-71.067414,42.360425],"type":"Point"},"properties":{"man_made":"monitoring_station","osm_id":"7792998309","tag":{"amenity":"recycling","colour":"black","communication:mobile":"yes","covered":"no","generator:source":"solar","height":"1.3","indoor":"no","internet_access":"yes","lockable":"yes","manufacturer":"BigBelly, Inc.","material":"metal","monitoring:trash":"yes","operator":"City of Boston Public Works","recycling:glass":"yes","recycling:paper":"yes","recycling:plastic":"yes","recycling:waste":"yes","recycling_type":"container","waste":"trash;recycling","website":"https://www.boston.gov/trash-and-recycling","wheelchair":"yes","width":"0.6"}},"type":"Feature"},
	{"geometry":{"coordinates":[-71.063782,42.361116],"type":"Point"},"properties":{"man_made":"monitoring_station","osm_id":"7792998319","tag":{"amenity":"recycling","colour":"black","communication:mobile":"yes","covered":"no","generator:source":"solar","height":"1.3","indoor":"no","internet_access":"yes","lockable":"yes","manufacturer":"BigBelly, Inc.","material":"metal","monitoring:trash":"yes","operator":"City of Boston Public Works","recycling:glass":"yes","recycling:paper":"yes","recycling:plastic":"yes","recycling:waste":"yes","recycling_type":"container","waste":"trash;recycling","website":"https://www.boston.gov/trash-and-recycling","wheelchair":"yes","width":"0.6"}},"type":"Feature"},
	{"geometry":{"coordinates":[-71.061482,42.362477],"type":"Point"},"properties":{"man_made":"monitoring_station","osm_id":"7792998332","tag":{"amenity":"recycling","colour":"black","communication:mobile":"yes","covered":"no","generator:source":"solar","height":"1.3","indoor":"no","internet_access":"yes","lockable":"yes","manufacturer":"BigBelly, Inc.","material":"metal","monitoring:trash":"yes","operator":"City of Boston Public Works","recycling:glass":"yes","recycling:paper":"yes","recycling:plastic":"yes","recycling:waste":"yes","recycling_type":"container","waste":"trash;recycling","website":"https://www.boston.gov/trash-and-recycling","wheelchair":"yes","width":"0.6"}},"type":"Feature"},
	{"geometry":{"coordinates":[-71.063156,42.364312],"type":"Point"},"properties":{"man_made":"monitoring_station","osm_id":"7792998355","tag":{"amenity":"recycling","colour":"black","communication:mobile":"yes","covered":"no","generator:source":"solar","height":"1.3","indoor":"no","internet_access":"yes","lockable":"yes","manufacturer":"BigBelly, Inc.","material":"metal","monitoring:trash":"yes","operator":"City of Boston Public Works","recycling:glass":"yes","recycling:paper":"yes","recycling:plastic":"yes","recycling:waste":"yes","recycling_type":"container","waste":"trash;recycling","website":"https://www.boston.gov/trash-and-recycling","wheelchair":"yes","width":"0.6"}},"type":"Feature"},
	{"geometry":{"coordinates":[-71.062966,42.364415],"type":"Point"},"properties":{"man_made":"monitoring_station","osm_id":"7792998358","tag":{"amenity":"recycling","colour":"black","communication:mobile":"yes","covered":"no","generator:source":"solar","height":"1.3","indoor":"no","internet_access":"yes","lockable":"yes","manufacturer":"BigBelly, Inc.","material":"metal","monitoring:trash":"yes","operator":"City of Boston Public Works","recycling:glass":"yes","recycling:paper":"yes","recycling:plastic":"yes","recycling:waste":"yes","recycling_type":"container","waste":"trash;recycling","website":"https://www.boston.gov/trash-and-recycling","wheelchair":"yes","width":"0.6"}},"type":"Feature"},
	{"geometry":{"coordinates":[-71.061833,42.365016],"type":"Point"},"properties":{"man_made":"monitoring_station","osm_id":"7792998359","tag":{"amenity":"recycling","colour":"black","communication:mobile":"yes","covered":"no","generator:source":"solar","height":"1.3","indoor":"no","internet_access":"yes","lockable":"yes","manufacturer":"BigBelly, Inc.","material":"metal","monitoring:trash":"yes","operator":"City of Boston Public Works","recycling:glass":"yes","recycling:paper":"yes","recycling:plastic":"yes","recycling:waste":"yes","recycling_type":"container","waste":"trash;recycling","website":"https://www.boston.gov/trash-and-recycling","wheelchair":"yes","width":"0.6"}},"type":"Feature"},
	{"geometry":{"coordinates":[-71.061352,42.365277],"type":"Point"},"properties":{"man_made":"monitoring_station","osm_id":"7792998360","tag":{"amenity":"recycling","colour":"black","communication:mobile":"yes","covered":"no","generator:source":"solar","height":"1.3","indoor":"no","internet_access":"yes","lockable":"yes","manufacturer":"BigBelly, Inc.","material":"metal","monitoring:trash":"yes","operator":"City of Boston Public Works","recycling:glass":"yes","recycling:paper":"yes","recycling:plastic":"yes","recycling:waste":"yes","recycling_type":"container","waste":"trash;recycling","website":"https://www.boston.gov/trash-and-recycling","wheelchair":"yes","width":"0.6"}},"type":"Feature"},
	{"geometry":{"coordinates":[-71.087703,42.358593],"type":"Point"},"properties":{"man_made":"monitoring_station","osm_id":"7804005228","tag":{"amenity":"recycling","colour":"black","communication:mobile":"yes","covered":"no","generator:source":"solar","height":"1.3","indoor":"no","internet_access":"yes","lockable":"yes","manufacturer":"BigBelly, Inc.","material":"metal","monitoring:trash":"yes","opening_hours":"24/7","operator":"City of Cambridge","recycling:glass":"yes","recycling:paper":"yes","recycling:plastic":"yes","recycling:waste":"yes","recycling_type":"container","waste":"trash;recycling","website":"https://www.boston.gov/trash-and-recycling","wheelchair":"yes","width":"0.6"}},"type":"Feature"},
	{"geometry":{"coordinates":[-71.072821,42.359345],"type":"Point"},"properties":{"man_made":"monitoring_station","osm_id":"7828065689","tag":{"amenity":"recycling","colour":"black","communication:mobile":"yes","covered":"no","direction":"280","generator:source":"solar","height":"1.3","indoor":"no","internet_access":"yes","lockable":"yes","manufacturer":"BigBelly, Inc.","material":"metal","monitoring:trash":"yes","operator":"City of Boston Public Works","recycling:glass":"yes","recycling:paper":"yes","recycling:plastic":"yes","recycling:waste":"yes","recycling_type":"container","waste":"trash;recycling","website":"https://www.boston.gov/trash-and-recycling","wheelchair":"yes","width":"0.6"}},"type":"Feature"},
	{"geometry":{"coordinates":[-71.070217,42.364831],"type":"Point"},"properties":{"man_made":"monitoring_station","osm_id":"7836364065","tag":{"amenity":"recycling","colour":"black","communication:mobile":"yes","covered":"no","direction":"290","generator:source":"solar","height":"1.3","indoor":"no","internet_access":"yes","lockable":"yes","manufacturer":"BigBelly, Inc.","material":"metal","monitoring:trash":"yes","operator":"City of Boston Public Works","recycling:glass":"yes","recycling:paper":"yes","recycling:plastic":"yes","recycling:waste":"yes","recycling_type":"container","waste":"trash;recycling","website":"https://www.boston.gov/trash-and-recycling","wheelchair":"yes","width":"0.6"}},"type":"Feature"},
	{"geometry":{"coordinates":[-71.06975,42.365869],"type":"Point"},"properties":{"man_made":"monitoring_station","osm_id":"7836397990","tag":{"amenity":"recycling","colour":"black","communication:mobile":"yes","covered":"no","direction":"300","generator:source":"solar","height":"1.3","indoor":"no","internet_access":"yes","lockable":"yes","manufacturer":"BigBelly, Inc.","material":"metal","monitoring:trash":"yes","operator":"City of Boston Public Works","recycling:glass":"yes","recycling:paper":"yes","recycling:plastic":"yes","recycling:waste":"yes","recycling_type":"container","waste":"trash;recycling","website":"https://www.boston.gov/trash-and-recycling","wheelchair":"yes","width":"0.6"}},"type":"Feature"},
	{"geometry":{"coordinates":[-71.060482,42.366249],"type":"Point"},"properties":{"osm_id":"7836463386","tag":{"amenity":"waste_basket","colour":"black","covered":"no","indoor":"no","material":"steel"}},"type":"Feature"},
	{"geometry":{"coordinates":[-71.060499,42.36713],"type":"Point"},"properties":{"osm_id":"7838155884","tag":{"amenity":"waste_basket","colour":"silver","covered":"no","direction":"330","material":"metal","waste":"trash"}},"type":"Feature"},
	{"geometry":{"coordinates":[-71.032076,42.395011],"type":"Point"},"properties":{"osm_id":"7857470295","tag":{"amenity":"waste_basket"}},"type":"Feature"},
	{"geometry":{"coordinates":[-71.102354,42.383589],"type":"Point"},"properties":{"osm_id":"7881849404","tag":{"amenity":"waste_basket"}},"type":"Feature"},
	{"geometry":{"coordinates":[-71.080244,42.362065],"type":"Point"},"properties":{"osm_id":"7945483723","tag":{"amenity":"waste_basket","waste":"trash"}},"type":"Feature"}
]
}
