{
"type": "FeatureCollection",
"lastupdate": "2020-08-06T00:00:00Z",
"features": [
	{"geometry":{"coordinates":[-71.02279,42.333441],"type":"Point"},"properties":{"osm_id":"896276866","tag":{"amenity":"waste_basket"}},"type":"Feature"},
	{"geometry":{"coordinates":[-71.069613,42.35571],"type":"Point"},"properties":{"osm_id":"2480529945","tag":{"amenity":"waste_basket"}},"type":"Feature"},
	{"geometry":{"coordinates":[-71.03531,42.335779],"type":"Point"},"properties":{"osm_id":"2565718878","tag":{"amenity":"waste_basket"}},"type":"Feature"},
	{"geometry":{"coordinates":[-71.035331,42.33639],"type":"Point"},"properties":{"osm_id":"2565718879","tag":{"amenity":"waste_basket"}},"type":"Feature"},
	{"geometry":{"coordinates":[-71.098076,42.349171],"type":"Point"},"properties":{"osm_id":"3222657232","tag":{"amenity":"waste_basket"}},"type":"Feature"},
	{"geometry":{"coordinates":[-71.098092,42.349172],"type":"Point"},"properties":{"osm_id":"3222657233","tag":{"amenity":"recycling"}},"type":"Feature"},
	{"geometry":{"coordinates":[-71.088531,42.330822],"type":"Point"},"properties":{"osm_id":"3986523866","tag":{"amenity":"waste_basket"}},"type":"Feature"},
	{"geometry":{"coordinates":[-71.06538,42.353372],"type":"Point"},"properties":{"osm_id":"4454451598","tag":{"amenity":"waste_basket"}},"type":"Feature"},
	{"geometry":{"coordinates":[-71.06579,42.355951],"type":"Point"},"properties":{"osm_id":"4454451605","tag":{"amenity":"waste_basket","description":"Unaffixed waste basket"}},"type":"Feature"},
	{"geometry":{"coordinates":[-71.062873,42.355526],"type":"Point"},"properties":{"osm_id":"5273498724","tag":{"amenity":"waste_basket"}},"type":"Feature"},
	{"geometry":{"coordinates":[-71.05618,42.357166],"type":"Point"},"properties":{"osm_id":"5588825129","tag":{"amenity":"waste_basket"}},"type":"Feature"},
	{"geometry":{"coordinates":[-71.056163,42.357022],"type":"Point"},"properties":{"osm_id":"5588825130","tag":{"amenity":"waste_basket"}},"type":"Feature"},
	{"geometry":{"coordinates":[-71.056099,42.356951],"type":"Point"},"properties":{"osm_id":"5588825131","tag":{"amenity":"waste_basket"}},"type":"Feature"},
	{"geometry":{"coordinates":[-71.056061,42.356962],"type":"Point"},"properties":{"osm_id":"5588825132","tag":{"amenity":"waste_basket"}},"type":"Feature"},
	{"geometry":{"coordinates":[-71.056062,42.357047],"type":"Point"},"properties":{"osm_id":"5588825133","tag":{"amenity":"waste_basket"}},"type":"Feature"},
	{"geometry":{"coordinates":[-71.055828,42.356802],"type":"Point"},"properties":{"osm_id":"5588825134","tag":{"amenity":"waste_basket"}},"type":"Feature"},
	{"geometry":{"coordinates":[-71.056107,42.35675],"type":"Point"},"properties":{"osm_id":"5588825135","tag":{"amenity":"waste_basket"}},"type":"Feature"},
	{"geometry":{"coordinates":[-71.055036,42.356048],"type":"Point"},"properties":{"osm_id":"5588825153","tag":{"amenity":"waste_basket"}},"type":"Feature"},
	{"geometry":{"coordinates":[-71.055812,42.355887],"type":"Point"},"properties":{"osm_id":"5588825155","tag":{"amenity":"waste_basket"}},"type":"Feature"},
	{"geometry":{"coordinates":[-71.055719,42.355825],"type":"Point"},"properties":{"osm_id":"5588825156","tag":{"amenity":"waste_basket"}},"type":"Feature"},
	{"geometry":{"coordinates":[-71.055597,42.355743],"type":"Point"},"properties":{"osm_id":"5588825157","tag":{"amenity":"waste_basket"}},"type":"Feature"},
	{"geometry":{"coordinates":[-71.055405,42.355851],"type":"Point"},"properties":{"osm_id":"5588825159","tag":{"amenity":"waste_basket"}},"type":"Feature"},
	{"geometry":{"coordinates":[-71.055252,42.35594],"type":"Point"},"properties":{"osm_id":"5588825160","tag":{"amenity":"waste_basket"}},"type":"Feature"},
	{"geometry":{"coordinates":[-71.055311,42.356137],"type":"Point"},"properties":{"osm_id":"5588825163","tag":{"amenity":"waste_basket"}},"type":"Feature"},
	{"geometry":{"coordinates":[-71.0554,42.35617],"type":"Point"},"properties":{"osm_id":"5588825164","tag":{"amenity":"waste_basket"}},"type":"Feature"},
	{"geometry":{"coordinates":[-71.055614,42.35595],"type":"Point"},"properties":{"osm_id":"5588825165","tag":{"amenity":"waste_basket"}},"type":"Feature"},
	{"geometry":{"coordinates":[-71.055706,42.355942],"type":"Point"},"properties":{"osm_id":"5588825166","tag":{"amenity":"waste_basket"}},"type":"Feature"},
	{"geometry":{"coordinates":[-71.055686,42.356042],"type":"Point"},"properties":{"osm_id":"5588825167","tag":{"amenity":"waste_basket"}},"type":"Feature"},
	{"geometry":{"coordinates":[-71.055578,42.356638],"type":"Point"},"properties":{"osm_id":"5588825170","tag":{"amenity":"waste_basket"}},"type":"Feature"},
	{"geometry":{"coordinates":[-71.055696,42.356725],"type":"Point"},"properties":{"osm_id":"5588825173","tag":{"amenity":"waste_basket"}},"type":"Feature"},
	{"geometry":{"coordinates":[-71.055776,42.356616],"type":"Point"},"properties":{"osm_id":"5588825174","tag":{"amenity":"waste_basket"}},"type":"Feature"},
	{"geometry":{"coordinates":[-71.055875,42.356423],"type":"Point"},"properties":{"osm_id":"5588825175","tag":{"amenity":"waste_basket"}},"type":"Feature"},
	{"geometry":{"coordinates":[-71.056117,42.356592],"type":"Point"},"properties":{"osm_id":"5588825176","tag":{"amenity":"waste_basket"}},"type":"Feature"},
	{"geometry":{"coordinates":[-71.05611,42.356485],"type":"Point"},"properties":{"osm_id":"5588825177","tag":{"amenity":"waste_basket"}},"type":"Feature"},
	{"geometry":{"coordinates":[-71.076542,42.349605],"type":"Point"},"properties":{"osm_id":"5627239923","tag":{"amenity":"waste_basket","colour":"black","material":"steel","waste":"trash"}},"type":"Feature"},
	{"geometry":{"coordinates":[-71.062679,42.356139],"type":"Point"},"properties":{"osm_id":"6537097863","tag":{"amenity":"waste_basket","description":"Public garbage receptacle maintained by the City of Boston"}},"type":"Feature"},
	{"geometry":{"coordinates":[-71.064105,42.356818],"type":"Point"},"properties":{"osm_id":"6546368133","tag":{"amenity":"waste_basket","description":"Unaffixed waste basket"}},"type":"Feature"},
	{"geometry":{"coordinates":[-71.065261,42.353177],"type":"Point"},"properties":{"osm_id":"6546388493","tag":{"amenity":"waste_basket","description":"Publically accessible garbage recepticle"}},"type":"Feature"},
	{"geometry":{"coordinates":[-71.068565,42.355326],"type":"Point"},"properties":{"osm_id":"6546391718","tag":{"amenity":"waste_basket","description":"Unaffixed waste basket"}},"type":"Feature"},
	{"geometry":{"coordinates":[-71.067669,42.355429],"type":"Point"},"properties":{"osm_id":"6558964520","tag":{"amenity":"waste_basket","description":"Unaffixed waste basket"}},"type":"Feature"},
	{"geometry":{"coordinates":[-71.052647,42.354034],"type":"Point"},"properties":{"osm_id":"6564729262","tag":{"amenity":"waste_basket","description":"Publicly accessible garbage receptacle"}},"type":"Feature"},
	{"geometry":{"coordinates":[-71.086401,42.349643],"type":"Point"},"properties":{"osm_id":"6564758259","tag":{"amenity":"waste_basket","description":"Publicly accessible garbage receptacle"}},"type":"Feature"},
	{"geometry":{"coordinates":[-71.068619,42.355195],"type":"Point"},"properties":{"osm_id":"6564761612","tag":{"amenity":"waste_basket","description":"Unaffixed waste basket"}},"type":"Feature"},
	{"geometry":{"coordinates":[-71.065376,42.353999],"type":"Point"},"properties":{"osm_id":"6597702357","tag":{"amenity":"waste_basket","description":"Unaffixed waste basket"}},"type":"Feature"},
	{"geometry":{"coordinates":[-71.086981,42.335828],"type":"Point"},"properties":{"osm_id":"6597720769","tag":{"amenity":"waste_basket","description":"Publicly accessible garbage receptacle."}},"type":"Feature"},
	{"geometry":{"coordinates":[-71.070538,42.35839],"type":"Point"},"properties":{"osm_id":"6597742555","tag":{"amenity":"waste_basket","description":"Publicly accessible garbage receptacle."}},"type":"Feature"},
	{"geometry":{"coordinates":[-71.059394,42.351251],"type":"Point"},"properties":{"osm_id":"6597756055","tag":{"amenity":"waste_basket","description":"Publicly accessible garbage receptacle."}},"type":"Feature"},
	{"geometry":{"coordinates":[-71.067276,42.352915],"type":"Point"},"properties":{"osm_id":"6597795149","tag":{"amenity":"waste_basket","description":"Unaffixed waste basket"}},"type":"Feature"},
	{"geometry":{"coordinates":[-71.069615,42.355949],"type":"Point"},"properties":{"osm_id":"6766622889","tag":{"amenity":"waste_basket","description":"Publicly accessible garbage receptacle."}},"type":"Feature"},
	{"geometry":{"coordinates":[-71.064778,42.353556],"type":"Point"},"properties":{"osm_id":"6766811366","tag":{"amenity":"waste_basket","description":"Publicly accessible garbage receptacle."}},"type":"Feature"},
	{"geometry":{"coordinates":[-71.070456,42.357885],"type":"Point"},"properties":{"osm_id":"6766887215","tag":{"amenity":"waste_basket","description":"Publicly accessible garbage receptacle."}},"type":"Feature"},
	{"geometry":{"coordinates":[-71.064783,42.354407],"type":"Point"},"properties":{"osm_id":"6766889152","tag":{"amenity":"waste_basket","description":"Publicly accessible garbage receptacle."}},"type":"Feature"},
	{"geometry":{"coordinates":[-71.046552,42.352132],"type":"Point"},"properties":{"osm_id":"6767104413","tag":{"amenity":"waste_basket","description":"Publicly accessible garbage receptacle."}},"type":"Feature"},
	{"geometry":{"coordinates":[-71.069177,42.356069],"type":"Point"},"properties":{"osm_id":"6781732116","tag":{"amenity":"waste_basket","description":"Publicly accessible garbage receptacle."}},"type":"Feature"},
	{"geometry":{"coordinates":[-71.062702,42.35632],"type":"Point"},"properties":{"osm_id":"6821408715","tag":{"amenity":"waste_basket","description":"Publicly accessible garbage receptacle."}},"type":"Feature"},
	{"geometry":{"coordinates":[-71.069409,42.356347],"type":"Point"},"properties":{"osm_id":"6833447390","tag":{"amenity":"waste_basket","description":"Publicly accesible garbage receptacle."}},"type":"Feature"},
	{"geometry":{"coordinates":[-71.066027,42.354134],"type":"Point"},"properties":{"osm_id":"6833496558","tag":{"amenity":"waste_basket","description":"Publicly accesible garbage receptacle."}},"type":"Feature"},
	{"geometry":{"coordinates":[-71.099881,42.355679],"type":"Point"},"properties":{"osm_id":"6835783427","tag":{"amenity":"waste_basket","description":"Publicly accessible garbage receptacle."}},"type":"Feature"},
	{"geometry":{"coordinates":[-71.096966,42.355459],"type":"Point"},"properties":{"osm_id":"6900492555","tag":{"amenity":"waste_basket","description":"Publicly accessible garbage receptacle."}},"type":"Feature"},
	{"geometry":{"coordinates":[-71.070921,42.352834],"type":"Point"},"properties":{"osm_id":"6900492737","tag":{"amenity":"waste_basket","description":"Publicly accessible garbage receptacle."}},"type":"Feature"},
	{"geometry":{"coordinates":[-71.07011,42.357275],"type":"Point"},"properties":{"osm_id":"6900531818","tag":{"amenity":"waste_basket","description":"Publicly accessible garbage receptacle."}},"type":"Feature"},
	{"geometry":{"coordinates":[-71.06489,42.356247],"type":"Point"},"properties":{"osm_id":"6900563634","tag":{"amenity":"waste_basket","description":"Unaffixed waste basket"}},"type":"Feature"},
	{"geometry":{"coordinates":[-71.086633,42.349656],"type":"Point"},"properties":{"osm_id":"6918751878","tag":{"amenity":"waste_basket","colour":"black","material":"steel","waste":"trash"}},"type":"Feature"},
	{"geometry":{"coordinates":[-71.059461,42.356428],"type":"Point"},"properties":{"osm_id":"6942820998","tag":{"amenity":"waste_basket","description":"Publicly accessible garbage receptacle."}},"type":"Feature"},
	{"geometry":{"coordinates":[-71.100902,42.357384],"type":"Point"},"properties":{"osm_id":"6942844297","tag":{"amenity":"waste_basket","description":"Publicly accessible garbage receptacle."}},"type":"Feature"},
	{"geometry":{"coordinates":[-71.069826,42.356753],"type":"Point"},"properties":{"osm_id":"6942951533","tag":{"amenity":"waste_basket","description":"Publicly accessible garbage receptacle."}},"type":"Feature"},
	{"geometry":{"coordinates":[-71.064975,42.356445],"type":"Point"},"properties":{"osm_id":"6943054890","tag":{"amenity":"waste_basket","description":"Unaffixed waste basket"}},"type":"Feature"},
	{"geometry":{"coordinates":[-71.069619,42.35623],"type":"Point"},"properties":{"osm_id":"6943084147","tag":{"amenity":"waste_basket","description":"Publicly accessible garbage receptacle."}},"type":"Feature"},
	{"geometry":{"coordinates":[-71.0659,42.354555],"type":"Point"},"properties":{"osm_id":"6943941883","tag":{"amenity":"waste_basket","description":"Unaffixed waste basket."}},"type":"Feature"},
	{"geometry":{"coordinates":[-71.061281,42.35242],"type":"Point"},"properties":{"osm_id":"6960059786","tag":{"amenity":"waste_basket","survey:date":"2019-11-09"}},"type":"Feature"},
	{"geometry":{"coordinates":[-71.058416,42.352466],"type":"Point"},"properties":{"osm_id":"6969308792","tag":{"amenity":"waste_basket","survey:date":"2019-11-12"}},"type":"Feature"},
	{"geometry":{"coordinates":[-71.065029,42.354371],"type":"Point"},"properties":{"osm_id":"6983396084","tag":{"amenity":"waste_basket","description":"Unaffixed waste basket"}},"type":"Feature"},
	{"geometry":{"coordinates":[-71.077055,42.350262],"type":"Point"},"properties":{"osm_id":"7058414606","tag":{"amenity":"waste_basket","description":"Publicly accessible garbage receptacle."}},"type":"Feature"},
	{"geometry":{"coordinates":[-71.067503,42.353151],"type":"Point"},"properties":{"osm_id":"7058474453","tag":{"amenity":"waste_basket","description":"Unaffixed garbage bin."}},"type":"Feature"},
	{"geometry":{"coordinates":[-71.064614,42.355479],"type":"Point"},"properties":{"osm_id":"7075546309","tag":{"amenity":"waste_basket","description":"Unaffixed garbage bin."}},"type":"Feature"},
	{"geometry":{"coordinates":[-71.064881,42.35452],"type":"Point"},"properties":{"osm_id":"7081445890","tag":{"amenity":"waste_basket","description":"Unaffixed garbage bin."}},"type":"Feature"},
	{"geometry":{"coordinates":[-71.069905,42.356911],"type":"Point"},"properties":{"osm_id":"7091222411","tag":{"amenity":"waste_basket","description":"Publicly accessible garbage receptacle."}},"type":"Feature"},
	{"geometry":{"coordinates":[-71.065869,42.353787],"type":"Point"},"properties":{"osm_id":"7091231652","tag":{"amenity":"waste_basket","description":"Unaffixed garbage bin."}},"type":"Feature"},
	{"geometry":{"coordinates":[-71.071754,42.354824],"type":"Point"},"properties":{"osm_id":"7091380363","tag":{"amenity":"waste_basket","description":"Publicly accessible garbage receptacle."}},"type":"Feature"},
	{"geometry":{"coordinates":[-71.096842,42.356931],"type":"Point"},"properties":{"osm_id":"7091392459","tag":{"amenity":"waste_basket","description":"Publicly accessible garbage receptacle."}},"type":"Feature"},
	{"geometry":{"coordinates":[-71.103193,42.31926],"type":"Point"},"properties":{"osm_id":"7098466097","tag":{"amenity":"waste_basket","description":"Publicly accessible garbage receptable."}},"type":"Feature"},
	{"geometry":{"coordinates":[-71.062498,42.356474],"type":"Point"},"properties":{"osm_id":"7098504223","tag":{"amenity":"waste_basket","description":"Unaffixed garbage bin."}},"type":"Feature"},
	{"geometry":{"coordinates":[-71.066731,42.352636],"type":"Point"},"properties":{"osm_id":"7196009744","tag":{"amenity":"waste_basket","description":"Publicly accessible garbage receptacle."}},"type":"Feature"},
	{"geometry":{"coordinates":[-71.064414,42.35351],"type":"Point"},"properties":{"osm_id":"7196107423","tag":{"amenity":"waste_basket","description":"Unaffixed garbage bin."}},"type":"Feature"},
	{"geometry":{"coordinates":[-71.098736,42.324418],"type":"Point"},"properties":{"osm_id":"7196141196","tag":{"amenity":"waste_basket","description":"Publicly accessible garbage receptacle."}},"type":"Feature"},
	{"geometry":{"coordinates":[-71.077971,42.350892],"type":"Point"},"properties":{"osm_id":"7196153089","tag":{"amenity":"waste_basket","description":"Publicly accessible garbage receptacle."}},"type":"Feature"},
	{"geometry":{"coordinates":[-71.098619,42.324873],"type":"Point"},"properties":{"osm_id":"7196192450","tag":{"amenity":"waste_basket","description":"Publicly accessible garbage receptacle."}},"type":"Feature"},
	{"geometry":{"coordinates":[-71.063224,42.357445],"type":"Point"},"properties":{"osm_id":"7196221794","tag":{"amenity":"waste_basket","description":"Unaffixed garbage bin."}},"type":"Feature"},
	{"geometry":{"coordinates":[-71.070824,42.349302],"type":"Point"},"properties":{"osm_id":"7202274802","tag":{"amenity":"waste_basket","description":"Publicly accessible garbage receptacle."}},"type":"Feature"},
	{"geometry":{"coordinates":[-71.084898,42.338082],"type":"Point"},"properties":{"osm_id":"7202283206","tag":{"amenity":"waste_basket","description":"Publicly accessible garbage receptacle."}},"type":"Feature"},
	{"geometry":{"coordinates":[-71.09511,42.331363],"type":"Point"},"properties":{"osm_id":"7216842570","tag":{"amenity":"waste_basket","description":"Publicly accessible garbage receptacle"}},"type":"Feature"},
	{"geometry":{"coordinates":[-71.085312,42.33778],"type":"Point"},"properties":{"osm_id":"7216857867","tag":{"amenity":"waste_basket","description":"Publicly accessible garbage receptacle"}},"type":"Feature"},
	{"geometry":{"coordinates":[-71.101366,42.321417],"type":"Point"},"properties":{"osm_id":"7216862873","tag":{"amenity":"waste_basket","description":"Publicly accessible garbage receptacle"}},"type":"Feature"},
	{"geometry":{"coordinates":[-71.08197,42.340629],"type":"Point"},"properties":{"osm_id":"7216903686","tag":{"amenity":"waste_basket","description":"Publicly accessible garbage receptacle"}},"type":"Feature"},
	{"geometry":{"coordinates":[-71.068041,42.35155],"type":"Point"},"properties":{"osm_id":"7235520046","tag":{"amenity":"waste_basket","description":"Publicly accessible garbage receptacle."}},"type":"Feature"},
	{"geometry":{"coordinates":[-71.090325,42.335267],"type":"Point"},"properties":{"osm_id":"7235581442","tag":{"amenity":"waste_basket","description":"Publicly accessible garbage receptacle."}},"type":"Feature"},
	{"geometry":{"coordinates":[-71.063887,42.355536],"type":"Point"},"properties":{"osm_id":"7253662147","tag":{"amenity":"waste_basket","description":"Unaffixed garbage bin"}},"type":"Feature"},
	{"geometry":{"coordinates":[-71.071968,42.355444],"type":"Point"},"properties":{"osm_id":"7253703493","tag":{"amenity":"waste_basket","description":"Publicly accessible garbage receptacle."}},"type":"Feature"},
	{"geometry":{"coordinates":[-71.069004,42.350516],"type":"Point"},"properties":{"osm_id":"7253722837","tag":{"amenity":"waste_basket","description":"Publicly accessible garbage receptacle"}},"type":"Feature"},
	{"geometry":{"coordinates":[-71.066613,42.353263],"type":"Point"},"properties":{"osm_id":"7276736540","tag":{"amenity":"waste_basket","description":"Unaffixed garbage bin."}},"type":"Feature"},
	{"geometry":{"coordinates":[-71.065927,42.355981],"type":"Point"},"properties":{"osm_id":"7277029750","tag":{"amenity":"waste_basket","description":"Unaffixed garbage bin"}},"type":"Feature"},
	{"geometry":{"coordinates":[-71.068957,42.350777],"type":"Point"},"properties":{"osm_id":"7277231499","tag":{"amenity":"waste_basket","description":"Publicly accessible garbage receptacle"}},"type":"Feature"},
	{"geometry":{"coordinates":[-71.064872,42.354457],"type":"Point"},"properties":{"osm_id":"7277233267","tag":{"amenity":"waste_basket","description":"Unaffixed garbage bin"}},"type":"Feature"},
	{"geometry":{"coordinates":[-71.065079,42.354191],"type":"Point"},"properties":{"osm_id":"7277342865","tag":{"amenity":"waste_basket","description":"Unaffixed garbage bin"}},"type":"Feature"},
	{"geometry":{"coordinates":[-71.067925,42.354156],"type":"Point"},"properties":{"osm_id":"7316294022","tag":{"amenity":"waste_basket","description":"Unaffixed garbage bin"}},"type":"Feature"},
	{"geometry":{"coordinates":[-71.066031,42.355023],"type":"Point"},"properties":{"osm_id":"7316377941","tag":{"amenity":"waste_basket","description":"Unaffixed garbage bin"}},"type":"Feature"},
	{"geometry":{"coordinates":[-71.062906,42.356302],"type":"Point"},"properties":{"osm_id":"7316404326","tag":{"amenity":"waste_basket","description":"Publicly accessible garbage receptacle"}},"type":"Feature"},
	{"geometry":{"coordinates":[-71.033079,42.315224],"type":"Point"},"properties":{"osm_id":"7317195776","tag":{"amenity":"waste_basket","description":"Publicly accessible garbage receptacle"}},"type":"Feature"},
	{"geometry":{"coordinates":[-71.047235,42.35308],"type":"Point"},"properties":{"osm_id":"7317195903","tag":{"amenity":"waste_basket","description":"Publicly accessible garbage receptacle"}},"type":"Feature"},
	{"geometry":{"coordinates":[-71.079265,42.34279],"type":"Point"},"properties":{"osm_id":"7317222695","tag":{"amenity":"waste_basket","description":"Publicly accessible garbage receptacle"}},"type":"Feature"},
	{"geometry":{"coordinates":[-71.08305,42.341839],"type":"Point"},"properties":{"osm_id":"7317234305","tag":{"amenity":"waste_basket","description":"Publicly accessible garbage receptacle"}},"type":"Feature"},
	{"geometry":{"coordinates":[-71.10295,42.319545],"type":"Point"},"properties":{"osm_id":"7317236921","tag":{"amenity":"waste_basket","description":"Publicly accessible garbage receptacle"}},"type":"Feature"},
	{"geometry":{"coordinates":[-71.078504,42.343086],"type":"Point"},"properties":{"osm_id":"7317242299","tag":{"amenity":"waste_basket","description":"Publicly accessible garbage receptacle"}},"type":"Feature"},
	{"geometry":{"coordinates":[-71.058055,42.355542],"type":"Point"},"properties":{"osm_id":"7317243953","tag":{"amenity":"waste_basket","description":"Publicly accessible garbage receptacle"}},"type":"Feature"},
	{"geometry":{"coordinates":[-71.078305,42.34549],"type":"Point"},"properties":{"osm_id":"7317282328","tag":{"amenity":"waste_basket","description":"Publicly accessible garbage receptacle"}},"type":"Feature"},
	{"geometry":{"coordinates":[-71.063711,42.355139],"type":"Point"},"properties":{"osm_id":"7317289010","tag":{"amenity":"waste_basket","description":"Unaffixed garbage bin"}},"type":"Feature"},
	{"geometry":{"coordinates":[-71.07222,42.348478],"type":"Point"},"properties":{"osm_id":"7317292459","tag":{"amenity":"waste_basket","description":"Publicly accessible garbage receptacle"}},"type":"Feature"},
	{"geometry":{"coordinates":[-71.066415,42.355302],"type":"Point"},"properties":{"osm_id":"7317293763","tag":{"amenity":"waste_basket","description":"Unaffixed garbage bin"}},"type":"Feature"},
	{"geometry":{"coordinates":[-71.066902,42.350849],"type":"Point"},"properties":{"osm_id":"7317300682","tag":{"amenity":"waste_basket","description":"Publicly accessible garbage receptacle"}},"type":"Feature"},
	{"geometry":{"coordinates":[-71.063823,42.355314],"type":"Point"},"properties":{"osm_id":"7317350758","tag":{"amenity":"waste_basket","description":"Publicly accessible garbage receptacle"}},"type":"Feature"},
	{"geometry":{"coordinates":[-71.075202,42.346036],"type":"Point"},"properties":{"osm_id":"7319839107","tag":{"amenity":"waste_basket","description":"Publicly accessible garbage receptacle"}},"type":"Feature"},
	{"geometry":{"coordinates":[-71.074566,42.346112],"type":"Point"},"properties":{"osm_id":"7319879102","tag":{"amenity":"waste_basket","description":"Publicly accessible garbage receptacle"}},"type":"Feature"},
	{"geometry":{"coordinates":[-71.086218,42.343663],"type":"Point"},"properties":{"osm_id":"7319882795","tag":{"amenity":"waste_basket","description":"Publicly accessible garbage receptacle"}},"type":"Feature"},
	{"geometry":{"coordinates":[-71.069768,42.350107],"type":"Point"},"properties":{"osm_id":"7319906150","tag":{"amenity":"waste_basket","description":"Publicly accessible garbage receptacle"}},"type":"Feature"},
	{"geometry":{"coordinates":[-71.066713,42.349643],"type":"Point"},"properties":{"osm_id":"7319934903","tag":{"amenity":"waste_basket","description":"Publicly accessible garbage receptacle"}},"type":"Feature"},
	{"geometry":{"coordinates":[-71.078063,42.343342],"type":"Point"},"properties":{"osm_id":"7319939853","tag":{"amenity":"waste_basket","description":"Publicly accessible garbage receptacle"}},"type":"Feature"},
	{"geometry":{"coordinates":[-71.066561,42.356052],"type":"Point"},"properties":{"osm_id":"7319939943","tag":{"amenity":"waste_basket","description":"Publicly accessible garbage receptacle"}},"type":"Feature"},
	{"geometry":{"coordinates":[-71.067225,42.353238],"type":"Point"},"properties":{"osm_id":"7319950281","tag":{"amenity":"waste_basket","description":"Unaffixed garbage bin"}},"type":"Feature"},
	{"geometry":{"coordinates":[-71.095161,42.331137],"type":"Point"},"properties":{"osm_id":"7319959736","tag":{"amenity":"waste_basket","description":"Publicly accessible garbage receptacle"}},"type":"Feature"},
	{"geometry":{"coordinates":[-71.083643,42.339368],"type":"Point"},"properties":{"osm_id":"7319962056","tag":{"amenity":"waste_basket","description":"Publicly accessible garbage receptacle"}},"type":"Feature"},
	{"geometry":{"coordinates":[-71.079558,42.343023],"type":"Point"},"properties":{"osm_id":"7319975467","tag":{"amenity":"waste_basket","description":"Publicly accessible garbage receptacle"}},"type":"Feature"},
	{"geometry":{"coordinates":[-71.073222,42.348284],"type":"Point"},"properties":{"osm_id":"7320019732","tag":{"amenity":"waste_basket","description":"Publicly accessible garbage receptacle"}},"type":"Feature"},
	{"geometry":{"coordinates":[-71.079351,42.343492],"type":"Point"},"properties":{"osm_id":"7320020664","tag":{"amenity":"waste_basket","description":"Publicly accessible garbage receptacle"}},"type":"Feature"},
	{"geometry":{"coordinates":[-71.087089,42.345393],"type":"Point"},"properties":{"osm_id":"7320020938","tag":{"amenity":"waste_basket","description":"Publicly accessible garbage receptacle"}},"type":"Feature"},
	{"geometry":{"coordinates":[-71.065403,42.354421],"type":"Point"},"properties":{"osm_id":"7320034711","tag":{"amenity":"waste_basket","description":"Unaffixed garbage bin"}},"type":"Feature"},
	{"geometry":{"coordinates":[-71.101059,42.321733],"type":"Point"},"properties":{"osm_id":"7320054515","tag":{"amenity":"waste_basket","description":"Publicly accessible garbage receptacle"}},"type":"Feature"},
	{"geometry":{"coordinates":[-71.099223,42.324112],"type":"Point"},"properties":{"osm_id":"7320054970","tag":{"amenity":"waste_basket","description":"Publicly accessible garbage receptacle"}},"type":"Feature"},
	{"geometry":{"coordinates":[-71.064829,42.355378],"type":"Point"},"properties":{"osm_id":"7320067938","tag":{"amenity":"waste_basket","description":"Unaffixed garbage bin"}},"type":"Feature"},
	{"geometry":{"coordinates":[-71.081537,42.340591],"type":"Point"},"properties":{"osm_id":"7320072706","tag":{"amenity":"waste_basket","description":"Publicly accessible garbage receptacle"}},"type":"Feature"},
	{"geometry":{"coordinates":[-71.062172,42.356486],"type":"Point"},"properties":{"osm_id":"7320074471","tag":{"amenity":"waste_basket","description":"Publicly accessible garbage receptacle"}},"type":"Feature"},
	{"geometry":{"coordinates":[-71.071076,42.354811],"type":"Point"},"properties":{"osm_id":"7693303098","tag":{"amenity":"waste_basket"}},"type":"Feature"},
	{"geometry":{"coordinates":[-71.071021,42.354761],"type":"Point"},"properties":{"osm_id":"7693303099","tag":{"amenity":"waste_basket"}},"type":"Feature"},
	{"geometry":{"coordinates":[-71.070061,42.353557],"type":"Point"},"properties":{"osm_id":"7693303141","tag":{"amenity":"waste_basket"}},"type":"Feature"},
	{"geometry":{"coordinates":[-71.070209,42.353276],"type":"Point"},"properties":{"osm_id":"7693303193","tag":{"amenity":"waste_basket"}},"type":"Feature"},
	{"geometry":{"coordinates":[-71.070345,42.352694],"type":"Point"},"properties":{"osm_id":"7693303194","tag":{"amenity":"waste_basket"}},"type":"Feature"},
	{"geometry":{"coordinates":[-71.070619,42.35299],"type":"Point"},"properties":{"osm_id":"7693303197","tag":{"amenity":"waste_basket"}},"type":"Feature"},
	{"geometry":{"coordinates":[-71.070662,42.352324],"type":"Point"},"properties":{"osm_id":"7693303216","tag":{"amenity":"waste_basket"}},"type":"Feature"},
	{"geometry":{"coordinates":[-71.070478,42.352199],"type":"Point"},"properties":{"osm_id":"7695385885","tag":{"amenity":"waste_basket"}},"type":"Feature"},
	{"geometry":{"coordinates":[-71.071408,42.353754],"type":"Point"},"properties":{"osm_id":"7697395724","tag":{"amenity":"waste_basket"}},"type":"Feature"},
	{"geometry":{"coordinates":[-71.069189,42.354758],"type":"Point"},"properties":{"osm_id":"7697567072","tag":{"amenity":"waste_basket"}},"type":"Feature"},
	{"geometry":{"coordinates":[-71.069418,42.354682],"type":"Point"},"properties":{"osm_id":"7697578897","tag":{"amenity":"waste_basket"}},"type":"Feature"},
	{"geometry":{"coordinates":[-71.069384,42.355265],"type":"Point"},"properties":{"osm_id":"7697578909","tag":{"amenity":"waste_basket"}},"type":"Feature"},
	{"geometry":{"coordinates":[-71.069541,42.3559],"type":"Point"},"properties":{"osm_id":"7697578911","tag":{"amenity":"waste_basket"}},"type":"Feature"},
	{"geometry":{"coordinates":[-71.068674,42.354488],"type":"Point"},"properties":{"osm_id":"7697578913","tag":{"amenity":"waste_basket"}},"type":"Feature"},
	{"geometry":{"coordinates":[-71.069225,42.352526],"type":"Point"},"properties":{"osm_id":"7697578997","tag":{"amenity":"waste_basket","colour":"black","material":"steel","waste":"trash"}},"type":"Feature"},
	{"geometry":{"coordinates":[-71.069338,42.352496],"type":"Point"},"properties":{"osm_id":"7697578998","tag":{"amenity":"waste_basket"}},"type":"Feature"},
	{"geometry":{"coordinates":[-71.071474,42.355528],"type":"Point"},"properties":{"osm_id":"7697739499","tag":{"amenity":"waste_basket"}},"type":"Feature"},
	{"geometry":{"coordinates":[-71.069582,42.354023],"type":"Point"},"properties":{"osm_id":"7697739625","tag":{"amenity":"waste_basket"}},"type":"Feature"},
	{"geometry":{"coordinates":[-71.091127,42.34627],"type":"Point"},"properties":{"osm_id":"7711828689","tag":{"amenity":"waste_basket"}},"type":"Feature"},
	{"geometry":{"coordinates":[-71.084419,42.353963],"type":"Point"},"properties":{"osm_id":"7712030815","tag":{"amenity":"recycling","colour":"brown","opening_hours":"24/7","recycling:glass_bottles":"yes","recycling:plastic_bottles":"yes","recycling:waste":"yes","recycling_type":"container"}},"type":"Feature"},
	{"geometry":{"coordinates":[-71.081433,42.354733],"type":"Point"},"properties":{"osm_id":"7712030816","tag":{"amenity":"recycling","colour":"brown","opening_hours":"24/7","recycling:glass_bottles":"yes","recycling:plastic_bottles":"yes","recycling:waste":"yes","recycling_type":"container"}},"type":"Feature"},
	{"geometry":{"coordinates":[-71.077439,42.352057],"type":"Point"},"properties":{"osm_id":"7712234556","tag":{"amenity":"waste_basket","colour":"black","material":"steel","waste":"trash"}},"type":"Feature"},
	{"geometry":{"coordinates":[-71.076435,42.352326],"type":"Point"},"properties":{"osm_id":"7712234560","tag":{"amenity":"waste_basket","colour":"black","material":"steel","waste":"trash"}},"type":"Feature"},
	{"geometry":{"coordinates":[-71.0755,42.352585],"type":"Point"},"properties":{"osm_id":"7712234568","tag":{"amenity":"waste_basket","colour":"black","material":"steel","waste":"trash"}},"type":"Feature"},
	{"geometry":{"coordinates":[-71.074277,42.352993],"type":"Point"},"properties":{"osm_id":"7712234575","tag":{"amenity":"waste_basket","colour":"black","material":"steel","waste":"trash"}},"type":"Feature"},
	{"geometry":{"coordinates":[-71.073046,42.353241],"type":"Point"},"properties":{"osm_id":"7712234583","tag":{"amenity":"waste_basket","colour":"black","material":"steel","waste":"trash"}},"type":"Feature"},
	{"geometry":{"coordinates":[-71.072327,42.35352],"type":"Point"},"properties":{"osm_id":"7712296089","tag":{"amenity":"waste_basket","colour":"black","material":"steel","waste":"trash"}},"type":"Feature"},
	{"geometry":{"coordinates":[-71.078867,42.351754],"type":"Point"},"properties":{"osm_id":"7714068375","tag":{"amenity":"waste_basket","colour":"black","material":"steel","waste":"trash"}},"type":"Feature"},
	{"geometry":{"coordinates":[-71.079749,42.351433],"type":"Point"},"properties":{"osm_id":"7714068379","tag":{"amenity":"waste_basket","colour":"black","material":"steel","waste":"trash"}},"type":"Feature"},
	{"geometry":{"coordinates":[-71.080946,42.351113],"type":"Point"},"properties":{"osm_id":"7714071086","tag":{"amenity":"waste_basket","colour":"black","material":"steel","waste":"trash"}},"type":"Feature"},
	{"geometry":{"coordinates":[-71.08207,42.350888],"type":"Point"},"properties":{"osm_id":"7714071094","tag":{"amenity":"waste_basket","colour":"black","material":"steel","waste":"trash"}},"type":"Feature"},
	{"geometry":{"coordinates":[-71.082996,42.350639],"type":"Point"},"properties":{"osm_id":"7714071101","tag":{"amenity":"waste_basket","colour":"black","material":"steel","waste":"trash"}},"type":"Feature"},
	{"geometry":{"coordinates":[-71.083857,42.350329],"type":"Point"},"properties":{"osm_id":"7714071105","tag":{"amenity":"waste_basket","colour":"black","material":"steel","waste":"trash"}},"type":"Feature"},
	{"geometry":{"coordinates":[-71.084993,42.350101],"type":"Point"},"properties":{"osm_id":"7714071112","tag":{"amenity":"waste_basket","colour":"black","material":"steel","waste":"trash"}},"type":"Feature"},
	{"geometry":{"coordinates":[-71.085699,42.349834],"type":"Point"},"properties":{"osm_id":"7714071116","tag":{"amenity":"waste_basket","colour":"black","material":"steel","waste":"trash"}},"type":"Feature"},
	{"geometry":{"coordinates":[-71.069683,42.354495],"type":"Point"},"properties":{"osm_id":"7715052728","tag":{"amenity":"waste_basket","colour":"black","material":"steel","waste":"trash"}},"type":"Feature"},
	{"geometry":{"coordinates":[-71.087178,42.346408],"type":"Point"},"properties":{"osm_id":"7725901013","tag":{"amenity":"waste_basket","colour":"black","material":"steel","waste":"trash"}},"type":"Feature"},
	{"geometry":{"coordinates":[-71.079941,42.347218],"type":"Point"},"properties":{"osm_id":"7725901169","tag":{"amenity":"waste_basket","colour":"silver","material":"metal"}},"type":"Feature"},
	{"geometry":{"coordinates":[-71.076826,42.349557],"type":"Point"},"properties":{"osm_id":"7727890050","tag":{"amenity":"waste_basket","colour":"black","material":"metal","waste":"trash"}},"type":"Feature"},
	{"geometry":{"coordinates":[-71.076865,42.349645],"type":"Point"},"properties":{"osm_id":"7727890051","tag":{"amenity":"waste_basket","colour":"black","material":"metal","waste":"trash"}},"type":"Feature"},
	{"geometry":{"coordinates":[-71.076925,42.349766],"type":"Point"},"properties":{"osm_id":"7727890052","tag":{"amenity":"waste_basket","colour":"black","material":"metal","waste":"trash"}},"type":"Feature"},
	{"geometry":{"coordinates":[-71.076353,42.349655],"type":"Point"},"properties":{"osm_id":"7727890059","tag":{"amenity":"waste_basket","colour":"black","material":"steel","waste":"trash"}},"type":"Feature"},
	{"geometry":{"coordinates":[-71.076969,42.349857],"type":"Point"},"properties":{"osm_id":"7727931497","tag":{"amenity":"waste_basket","colour":"black","material":"metal","waste":"trash"}},"type":"Feature"},
	{"geometry":{"coordinates":[-71.076511,42.35011],"type":"Point"},"properties":{"osm_id":"7727931538","tag":{"amenity":"waste_basket","colour":"black","material":"metal","waste":"trash"}},"type":"Feature"},
	{"geometry":{"coordinates":[-71.076419,42.350135],"type":"Point"},"properties":{"osm_id":"7727931548","tag":{"amenity":"waste_basket","colour":"black","material":"metal","waste":"trash"}},"type":"Feature"},
	{"geometry":{"coordinates":[-71.076055,42.349985],"type":"Point"},"properties":{"osm_id":"7727931552","tag":{"amenity":"waste_basket","colour":"black","material":"metal","waste":"trash"}},"type":"Feature"},
	{"geometry":{"coordinates":[-71.084633,42.345643],"type":"Point"},"properties":{"osm_id":"7727942160","tag":{"amenity":"recycling","colour":"silver","covered":"no","indoor":"no","material":"metal","recycling:glass_bottles":"yes","recycling:plastic_bottles":"yes","recycling_type":"container"}},"type":"Feature"},
	{"geometry":{"coordinates":[-71.077945,42.350785],"type":"Point"},"properties":{"osm_id":"7730046948","tag":{"amenity":"waste_basket","colour":"black","material":"steel","waste":"trash"}},"type":"Feature"},
	{"geometry":{"coordinates":[-71.077984,42.350889],"type":"Point"},"properties":{"osm_id":"7730046954","tag":{"amenity":"recycling","colour":"black","recycling_type":"container"}},"type":"Feature"},
	{"geometry":{"coordinates":[-71.087507,42.348321],"type":"Point"},"properties":{"man_made":"monitoring_station","osm_id":"7745496725","tag":{"amenity":"recycling","colour":"black","communication:mobile":"yes","covered":"no","generator:source":"solar","height":"1.3","indoor":"no","internet_access":"yes","lockable":"yes","manufacturer":"BigBelly, Inc.","material":"metal","monitoring:trash":"yes","operator":"City of Boston Public Works","recycling:glass":"yes","recycling:paper":"yes","recycling:plastic":"yes","recycling:waste":"yes","recycling_type":"container","waste":"trash;recycling","wheelchair":"yes","width":"0.64"}},"type":"Feature"},
	{"geometry":{"coordinates":[-71.088057,42.348197],"type":"Point"},"properties":{"man_made":"monitoring_station","osm_id":"7745496726","tag":{"amenity":"recycling","colour":"black","communication:mobile":"yes","covered":"no","generator:source":"solar","height":"1.3","indoor":"no","internet_access":"yes","lockable":"yes","manufacturer":"BigBelly, Inc.","material":"metal","monitoring:trash":"yes","operator":"City of Boston Public Works","recycling:glass":"yes","recycling:paper":"yes","recycling:plastic":"yes","recycling:waste":"yes","recycling_type":"container","waste":"trash;recycling","website":"https://www.boston.gov/trash-and-recycling","wheelchair":"yes","width":"0.6"}},"type":"Feature"},
	{"geometry":{"coordinates":[-71.088329,42.348743],"type":"Point"},"properties":{"man_made":"monitoring_station","osm_id":"7745496727","tag":{"amenity":"recycling","colour":"black","communication:mobile":"yes","covered":"no","generator:source":"solar","height":"1.3","indoor":"no","internet_access":"yes","lockable":"yes","manufacturer":"BigBelly, Inc.","material":"metal","monitoring:trash":"yes","operator":"City of Boston Public Works","recycling:glass":"yes","recycling:paper":"yes","recycling:plastic":"yes","recycling:waste":"yes","recycling_type":"container","waste":"trash;recycling","website":"https://www.boston.gov/trash-and-recycling","wheelchair":"yes","width":"0.6"}},"type":"Feature"},
	{"geometry":{"coordinates":[-71.089167,42.349947],"type":"Point"},"properties":{"man_made":"monitoring_station","osm_id":"7745496728","tag":{"amenity":"recycling","colour":"black","communication:mobile":"yes","covered":"no","generator:source":"solar","height":"1.3","indoor":"no","internet_access":"yes","lockable":"yes","manufacturer":"BigBelly, Inc.","material":"metal","monitoring:trash":"yes","operator":"City of Boston Public Works","recycling:glass":"yes","recycling:paper":"yes","recycling:plastic":"yes","recycling:waste":"yes","recycling_type":"container","waste":"trash;recycling","website":"https://www.boston.gov/trash-and-recycling","wheelchair":"yes","width":"0.6"}},"type":"Feature"},
	{"geometry":{"coordinates":[-71.089324,42.350774],"type":"Point"},"properties":{"man_made":"monitoring_station","osm_id":"7745496729","tag":{"amenity":"recycling","colour":"black","communication:mobile":"yes","covered":"no","generator:source":"solar","height":"1.3","indoor":"no","internet_access":"yes","lockable":"yes","manufacturer":"BigBelly, Inc.","material":"metal","monitoring:trash":"yes","operator":"City of Boston Public Works","recycling:glass":"yes","recycling:paper":"yes","recycling:plastic":"yes","recycling:waste":"yes","recycling_type":"container","waste":"trash;recycling","website":"https://www.boston.gov/trash-and-recycling","wheelchair":"yes","width":"0.6"}},"type":"Feature"},
	{"geometry":{"coordinates":[-71.071639,42.351555],"type":"Point"},"properties":{"man_made":"monitoring_station","osm_id":"7745496730","tag":{"amenity":"recycling","colour":"black","communication:mobile":"yes","covered":"no","generator:source":"solar","height":"1.3","indoor":"no","internet_access":"yes","lockable":"yes","manufacturer":"BigBelly, Inc.","material":"metal","monitoring:trash":"yes","operator":"City of Boston Public Works","recycling:glass":"yes","recycling:paper":"yes","recycling:plastic":"yes","recycling:waste":"yes","recycling_type":"container","waste":"trash;recycling","website":"https://www.boston.gov/trash-and-recycling","wheelchair":"yes","width":"0.6"}},"type":"Feature"},
	{"geometry":{"coordinates":[-71.07285,42.351229],"type":"Point"},"properties":{"man_made":"monitoring_station","osm_id":"7745496731","tag":{"amenity":"recycling","colour":"black","communication:mobile":"yes","covered":"no","generator:source":"solar","height":"1.3","indoor":"no","internet_access":"yes","lockable":"yes","manufacturer":"BigBelly, Inc.","material":"metal","monitoring:trash":"yes","operator":"City of Boston Public Works","recycling:glass":"yes","recycling:paper":"yes","recycling:plastic":"yes","recycling:waste":"yes","recycling_type":"container","waste":"trash;recycling","website":"https://www.boston.gov/trash-and-recycling","wheelchair":"yes","width":"0.6"}},"type":"Feature"},
	{"geometry":{"coordinates":[-71.07544,42.350513],"type":"Point"},"properties":{"man_made":"monitoring_station","osm_id":"7745496732","tag":{"amenity":"recycling","colour":"black","communication:mobile":"yes","covered":"no","generator:source":"solar","height":"1.3","indoor":"no","internet_access":"yes","lockable":"yes","manufacturer":"BigBelly, Inc.","material":"metal","monitoring:trash":"yes","operator":"City of Boston Public Works","recycling:glass":"yes","recycling:paper":"yes","recycling:plastic":"yes","recycling:waste":"yes","recycling_type":"container","waste":"trash;recycling","website":"https://www.boston.gov/trash-and-recycling","wheelchair":"yes","width":"0.6"}},"type":"Feature"},
	{"geometry":{"coordinates":[-71.077478,42.349981],"type":"Point"},"properties":{"man_made":"monitoring_station","osm_id":"7745496733","tag":{"amenity":"recycling","colour":"black","communication:mobile":"yes","covered":"no","generator:source":"solar","height":"1.3","indoor":"no","internet_access":"yes","lockable":"yes","manufacturer":"BigBelly, Inc.","material":"metal","monitoring:trash":"yes","operator":"City of Boston Public Works","recycling:glass":"yes","recycling:paper":"yes","recycling:plastic":"yes","recycling:waste":"yes","recycling_type":"container","waste":"trash;recycling","website":"https://www.boston.gov/trash-and-recycling","wheelchair":"yes","width":"0.6"}},"type":"Feature"},
	{"geometry":{"coordinates":[-71.078075,42.349821],"type":"Point"},"properties":{"man_made":"monitoring_station","osm_id":"7745496734","tag":{"amenity":"recycling","colour":"black","communication:mobile":"yes","covered":"no","generator:source":"solar","height":"1.3","indoor":"no","internet_access":"yes","lockable":"yes","manufacturer":"BigBelly, Inc.","material":"metal","monitoring:trash":"yes","operator":"City of Boston Public Works","recycling:glass":"yes","recycling:paper":"yes","recycling:plastic":"yes","recycling:waste":"yes","recycling_type":"container","waste":"trash;recycling","website":"https://www.boston.gov/trash-and-recycling","wheelchair":"yes","width":"0.6"}},"type":"Feature"},
	{"geometry":{"coordinates":[-71.080341,42.349206],"type":"Point"},"properties":{"man_made":"monitoring_station","osm_id":"7745496735","tag":{"amenity":"recycling","colour":"black","communication:mobile":"yes","covered":"no","generator:source":"solar","height":"1.3","indoor":"no","internet_access":"yes","lockable":"yes","manufacturer":"BigBelly, Inc.","material":"metal","monitoring:trash":"yes","operator":"City of Boston Public Works","recycling:glass":"yes","recycling:paper":"yes","recycling:plastic":"yes","recycling:waste":"yes","recycling_type":"container","waste":"trash;recycling","website":"https://www.boston.gov/trash-and-recycling","wheelchair":"yes","width":"0.6"}},"type":"Feature"},
	{"geometry":{"coordinates":[-71.08079,42.349042],"type":"Point"},"properties":{"man_made":"monitoring_station","osm_id":"7745496736","tag":{"amenity":"recycling","colour":"black","communication:mobile":"yes","covered":"no","generator:source":"solar","height":"1.3","indoor":"no","internet_access":"yes","lockable":"yes","manufacturer":"BigBelly, Inc.","material":"metal","monitoring:trash":"yes","operator":"City of Boston Public Works","recycling:glass":"yes","recycling:paper":"yes","recycling:plastic":"yes","recycling:waste":"yes","recycling_type":"container","waste":"trash;recycling","website":"https://www.boston.gov/trash-and-recycling","wheelchair":"yes","width":"0.6"}},"type":"Feature"},
	{"geometry":{"coordinates":[-71.082497,42.348625],"type":"Point"},"properties":{"man_made":"monitoring_station","osm_id":"7745496737","tag":{"amenity":"recycling","colour":"black","communication:mobile":"yes","covered":"no","generator:source":"solar","height":"1.3","indoor":"no","internet_access":"yes","lockable":"yes","manufacturer":"BigBelly, Inc.","material":"metal","monitoring:trash":"yes","operator":"City of Boston Public Works","recycling:glass":"yes","recycling:paper":"yes","recycling:plastic":"yes","recycling:waste":"yes","recycling_type":"container","waste":"trash;recycling","website":"https://www.boston.gov/trash-and-recycling","wheelchair":"yes","width":"0.6"}},"type":"Feature"},
	{"geometry":{"coordinates":[-71.083975,42.349158],"type":"Point"},"properties":{"man_made":"monitoring_station","osm_id":"7745496738","tag":{"amenity":"recycling","colour":"black","communication:mobile":"yes","covered":"no","generator:source":"solar","height":"1.3","indoor":"no","internet_access":"yes","lockable":"yes","manufacturer":"BigBelly, Inc.","material":"metal","monitoring:trash":"yes","operator":"City of Boston Public Works","recycling:glass":"yes","recycling:paper":"yes","recycling:plastic":"yes","recycling:waste":"yes","recycling_type":"container","waste":"trash;recycling","website":"https://www.boston.gov/trash-and-recycling","wheelchair":"yes","width":"0.6"}},"type":"Feature"},
	{"geometry":{"coordinates":[-71.082005,42.349687],"type":"Point"},"properties":{"man_made":"monitoring_station","osm_id":"7745496739","tag":{"amenity":"recycling","colour":"black","communication:mobile":"yes","covered":"no","generator:source":"solar","height":"1.3","indoor":"no","internet_access":"yes","lockable":"yes","manufacturer":"BigBelly, Inc.","material":"metal","monitoring:trash":"yes","operator":"City of Boston Public Works","recycling:glass":"yes","recycling:paper":"yes","recycling:plastic":"yes","recycling:waste":"yes","recycling_type":"container","waste":"trash;recycling","website":"https://www.boston.gov/trash-and-recycling","wheelchair":"yes","width":"0.6"}},"type":"Feature"},
	{"geometry":{"coordinates":[-71.080088,42.350203],"type":"Point"},"properties":{"man_made":"monitoring_station","osm_id":"7745496740","tag":{"amenity":"recycling","colour":"black","communication:mobile":"yes","covered":"no","generator:source":"solar","height":"1.3","indoor":"no","internet_access":"yes","lockable":"yes","manufacturer":"BigBelly, Inc.","material":"metal","monitoring:trash":"yes","operator":"City of Boston Public Works","recycling:glass":"yes","recycling:paper":"yes","recycling:plastic":"yes","recycling:waste":"yes","recycling_type":"container","waste":"trash;recycling","website":"https://www.boston.gov/trash-and-recycling","wheelchair":"yes","width":"0.6"}},"type":"Feature"},
	{"geometry":{"coordinates":[-71.068308,42.354636],"type":"Point"},"properties":{"man_made":"monitoring_station","osm_id":"7745496741","tag":{"amenity":"recycling","colour":"black","communication:mobile":"yes","covered":"no","generator:source":"solar","height":"1.3","indoor":"no","internet_access":"yes","lockable":"yes","manufacturer":"BigBelly, Inc.","material":"metal","monitoring:trash":"yes","operator":"City of Boston Public Works","recycling:glass":"yes","recycling:paper":"yes","recycling:plastic":"yes","recycling:waste":"yes","recycling_type":"container","waste":"trash;recycling","website":"https://www.boston.gov/trash-and-recycling","wheelchair":"yes","width":"0.6"}},"type":"Feature"},
	{"geometry":{"coordinates":[-71.068245,42.354507],"type":"Point"},"properties":{"man_made":"monitoring_station","osm_id":"7745496742","tag":{"amenity":"recycling","colour":"black","communication:mobile":"yes","covered":"no","generator:source":"solar","height":"1.3","indoor":"no","internet_access":"yes","lockable":"yes","manufacturer":"BigBelly, Inc.","material":"metal","monitoring:trash":"yes","operator":"City of Boston Public Works","recycling:glass":"yes","recycling:paper":"yes","recycling:plastic":"yes","recycling:waste":"yes","recycling_type":"container","waste":"trash;recycling","website":"https://www.boston.gov/trash-and-recycling","wheelchair":"yes","width":"0.6"}},"type":"Feature"},
	{"geometry":{"coordinates":[-71.067477,42.356474],"type":"Point"},"properties":{"man_made":"monitoring_station","osm_id":"7745496743","tag":{"amenity":"recycling","colour":"black","communication:mobile":"yes","covered":"no","generator:source":"solar","height":"1.3","indoor":"no","internet_access":"yes","lockable":"yes","manufacturer":"BigBelly, Inc.","material":"metal","monitoring:trash":"yes","operator":"City of Boston Public Works","recycling:glass":"yes","recycling:paper":"yes","recycling:plastic":"yes","recycling:waste":"yes","recycling_type":"container","waste":"trash;recycling","website":"https://www.boston.gov/trash-and-recycling","wheelchair":"yes","width":"0.6"}},"type":"Feature"},
	{"geometry":{"coordinates":[-71.088887,42.34933],"type":"Point"},"properties":{"man_made":"monitoring_station","osm_id":"7745496744","tag":{"amenity":"recycling","colour":"black","communication:mobile":"yes","covered":"no","generator:source":"solar","height":"1.3","indoor":"no","internet_access":"yes","lockable":"yes","manufacturer":"BigBelly, Inc.","material":"metal","monitoring:trash":"yes","operator":"City of Boston Public Works","recycling:glass":"yes","recycling:paper":"yes","recycling:plastic":"yes","recycling:waste":"yes","recycling_type":"container","waste":"trash;recycling","website":"https://www.boston.gov/trash-and-recycling","wheelchair":"yes","width":"0.6"}},"type":"Feature"},
	{"geometry":{"coordinates":[-71.087875,42.347871],"type":"Point"},"properties":{"man_made":"monitoring_station","osm_id":"7745496745","tag":{"amenity":"recycling","colour":"black","communication:mobile":"yes","covered":"no","generator:source":"solar","height":"1.3","indoor":"no","internet_access":"yes","lockable":"yes","manufacturer":"BigBelly, Inc.","material":"metal","monitoring:trash":"yes","operator":"City of Boston Public Works","recycling:glass":"yes","recycling:paper":"yes","recycling:plastic":"yes","recycling:waste":"yes","recycling_type":"container","waste":"trash;recycling","website":"https://www.boston.gov/trash-and-recycling","wheelchair":"yes","width":"0.6"}},"type":"Feature"},
	{"geometry":{"coordinates":[-71.087553,42.347246],"type":"Point"},"properties":{"man_made":"monitoring_station","osm_id":"7745496746","tag":{"amenity":"recycling","colour":"black","communication:mobile":"yes","covered":"no","generator:source":"solar","height":"1.3","indoor":"no","internet_access":"yes","lockable":"yes","manufacturer":"BigBelly, Inc.","material":"metal","monitoring:trash":"yes","operator":"City of Boston Public Works","recycling:glass":"yes","recycling:paper":"yes","recycling:plastic":"yes","recycling:waste":"yes","recycling_type":"container","waste":"trash;recycling","website":"https://www.boston.gov/trash-and-recycling","wheelchair":"yes","width":"0.6"}},"type":"Feature"},
	{"geometry":{"coordinates":[-71.085292,42.347866],"type":"Point"},"properties":{"man_made":"monitoring_station","osm_id":"7745496747","tag":{"amenity":"recycling","colour":"black","communication:mobile":"yes","covered":"no","generator:source":"solar","height":"1.3","indoor":"no","internet_access":"yes","lockable":"yes","manufacturer":"BigBelly, Inc.","material":"metal","monitoring:trash":"yes","operator":"City of Boston Public Works","recycling:glass":"yes","recycling:paper":"yes","recycling:plastic":"yes","recycling:waste":"yes","recycling_type":"container","waste":"trash;recycling","website":"https://www.boston.gov/trash-and-recycling","wheelchair":"yes","width":"0.6"}},"type":"Feature"},
	{"geometry":{"coordinates":[-71.077649,42.349052],"type":"Point"},"properties":{"man_made":"monitoring_station","osm_id":"7745496748","tag":{"amenity":"recycling","colour":"black","communication:mobile":"yes","covered":"no","generator:source":"solar","height":"1.3","indoor":"no","internet_access":"yes","lockable":"yes","manufacturer":"BigBelly, Inc.","material":"metal","monitoring:trash":"yes","operator":"City of Boston Public Works","recycling:glass":"yes","recycling:paper":"yes","recycling:plastic":"yes","recycling:waste":"yes","recycling_type":"container","waste":"trash;recycling","website":"https://www.boston.gov/trash-and-recycling","wheelchair":"yes","width":"0.6"}},"type":"Feature"},
	{"geometry":{"coordinates":[-71.076761,42.349213],"type":"Point"},"properties":{"man_made":"monitoring_station","osm_id":"7745496749","tag":{"amenity":"recycling","colour":"black","communication:mobile":"yes","covered":"no","generator:source":"solar","height":"1.3","indoor":"no","internet_access":"yes","lockable":"yes","manufacturer":"BigBelly, Inc.","material":"metal","monitoring:trash":"yes","operator":"City of Boston Public Works","recycling:glass":"yes","recycling:paper":"yes","recycling:plastic":"yes","recycling:waste":"yes","recycling_type":"container","waste":"trash;recycling","website":"https://www.boston.gov/trash-and-recycling","wheelchair":"yes","width":"0.6"}},"type":"Feature"},
	{"geometry":{"coordinates":[-71.077065,42.349298],"type":"Point"},"properties":{"man_made":"monitoring_station","osm_id":"7745496750","tag":{"amenity":"recycling","colour":"black","communication:mobile":"yes","covered":"no","generator:source":"solar","height":"1.3","indoor":"no","internet_access":"yes","lockable":"yes","manufacturer":"BigBelly, Inc.","material":"metal","monitoring:trash":"yes","operator":"City of Boston Public Works","recycling:glass":"yes","recycling:paper":"yes","recycling:plastic":"yes","recycling:waste":"yes","recycling_type":"container","waste":"trash;recycling","website":"https://www.boston.gov/trash-and-recycling","wheelchair":"yes","width":"0.6"}},"type":"Feature"},
	{"geometry":{"coordinates":[-71.076261,42.348197],"type":"Point"},"properties":{"man_made":"monitoring_station","osm_id":"7745496751","tag":{"amenity":"recycling","colour":"black","communication:mobile":"yes","covered":"no","generator:source":"solar","height":"1.3","indoor":"no","internet_access":"yes","lockable":"yes","manufacturer":"BigBelly, Inc.","material":"metal","monitoring:trash":"yes","operator":"City of Boston Public Works","recycling:glass":"yes","recycling:paper":"yes","recycling:plastic":"yes","recycling:waste":"yes","recycling_type":"container","waste":"trash;recycling","website":"https://www.boston.gov/trash-and-recycling","wheelchair":"yes","width":"0.6"}},"type":"Feature"},
	{"geometry":{"coordinates":[-71.075868,42.347381],"type":"Point"},"properties":{"man_made":"monitoring_station","osm_id":"7745496752","tag":{"amenity":"recycling","colour":"black","communication:mobile":"yes","covered":"no","generator:source":"solar","height":"1.3","indoor":"no","internet_access":"yes","lockable":"yes","manufacturer":"BigBelly, Inc.","material":"metal","monitoring:trash":"yes","operator":"City of Boston Public Works","recycling:glass":"yes","recycling:paper":"yes","recycling:plastic":"yes","recycling:waste":"yes","recycling_type":"container","waste":"trash;recycling","website":"https://www.boston.gov/trash-and-recycling","wheelchair":"yes","width":"0.6"}},"type":"Feature"},
	{"geometry":{"coordinates":[-71.075492,42.34845],"type":"Point"},"properties":{"man_made":"monitoring_station","osm_id":"7745496753","tag":{"amenity":"recycling","colour":"black","communication:mobile":"yes","covered":"no","generator:source":"solar","height":"1.3","indoor":"no","internet_access":"yes","lockable":"yes","manufacturer":"BigBelly, Inc.","material":"metal","monitoring:trash":"yes","operator":"City of Boston Public Works","recycling:glass":"yes","recycling:paper":"yes","recycling:plastic":"yes","recycling:waste":"yes","recycling_type":"container","waste":"trash;recycling","website":"https://www.boston.gov/trash-and-recycling","wheelchair":"yes","width":"0.6"}},"type":"Feature"},
	{"geometry":{"coordinates":[-71.085779,42.348679],"type":"Point"},"properties":{"man_made":"monitoring_station","osm_id":"7745496754","tag":{"amenity":"recycling","colour":"black","communication:mobile":"yes","covered":"no","generator:source":"solar","height":"1.3","indoor":"no","internet_access":"yes","lockable":"yes","manufacturer":"BigBelly, Inc.","material":"metal","monitoring:trash":"yes","operator":"City of Boston Public Works","recycling:glass":"yes","recycling:paper":"yes","recycling:plastic":"yes","recycling:waste":"yes","recycling_type":"container","waste":"trash;recycling","website":"https://www.boston.gov/trash-and-recycling","wheelchair":"yes","width":"0.6"}},"type":"Feature"},
	{"geometry":{"coordinates":[-71.067296,42.352361],"type":"Point"},"properties":{"man_made":"monitoring_station","osm_id":"7745496755","tag":{"amenity":"recycling","colour":"black","communication:mobile":"yes","covered":"no","generator:source":"solar","height":"1.3","indoor":"no","internet_access":"yes","lockable":"yes","manufacturer":"BigBelly, Inc.","material":"metal","monitoring:trash":"yes","operator":"City of Boston Public Works","recycling:glass":"yes","recycling:paper":"yes","recycling:plastic":"yes","recycling:waste":"yes","recycling_type":"container","waste":"trash;recycling","website":"https://www.boston.gov/trash-and-recycling","wheelchair":"yes","width":"0.6"}},"type":"Feature"},
	{"geometry":{"coordinates":[-71.067661,42.352444],"type":"Point"},"properties":{"man_made":"monitoring_station","osm_id":"7745496756","tag":{"amenity":"recycling","colour":"black","communication:mobile":"yes","covered":"no","generator:source":"solar","height":"1.3","indoor":"no","internet_access":"yes","lockable":"yes","manufacturer":"BigBelly, Inc.","material":"metal","monitoring:trash":"yes","operator":"City of Boston Public Works","recycling:glass":"yes","recycling:paper":"yes","recycling:plastic":"yes","recycling:waste":"yes","recycling_type":"container","waste":"trash;recycling","website":"https://www.boston.gov/trash-and-recycling","wheelchair":"yes","width":"0.6"}},"type":"Feature"},
	{"geometry":{"coordinates":[-71.067407,42.352918],"type":"Point"},"properties":{"man_made":"monitoring_station","osm_id":"7745496757","tag":{"amenity":"recycling","colour":"black","communication:mobile":"yes","covered":"no","generator:source":"solar","height":"1.3","indoor":"no","internet_access":"yes","lockable":"yes","manufacturer":"BigBelly, Inc.","material":"metal","monitoring:trash":"yes","operator":"City of Boston Public Works","recycling:glass":"yes","recycling:paper":"yes","recycling:plastic":"yes","recycling:waste":"yes","recycling_type":"container","waste":"trash;recycling","website":"https://www.boston.gov/trash-and-recycling","wheelchair":"yes","width":"0.6"}},"type":"Feature"},
	{"geometry":{"coordinates":[-71.06888,42.352209],"type":"Point"},"properties":{"man_made":"monitoring_station","osm_id":"7747398448","tag":{"amenity":"recycling","colour":"black","communication:mobile":"yes","covered":"no","generator:source":"solar","height":"1.3","indoor":"no","internet_access":"yes","lockable":"yes","manufacturer":"BigBelly, Inc.","material":"metal","monitoring:trash":"yes","operator":"City of Boston Public Works","recycling:glass":"yes","recycling:paper":"yes","recycling:plastic":"yes","recycling:waste":"yes","recycling_type":"container","waste":"trash;recycling","website":"https://www.boston.gov/trash-and-recycling","wheelchair":"yes","width":"0.6"}},"type":"Feature"},
	{"geometry":{"coordinates":[-71.06612,42.349309],"type":"Point"},"properties":{"osm_id":"7747564572","tag":{"amenity":"waste_basket","colour":"black","material":"metal","waste":"trash"}},"type":"Feature"},
	{"geometry":{"coordinates":[-71.064821,42.345637],"type":"Point"},"properties":{"man_made":"monitoring_station","osm_id":"7747602052","tag":{"amenity":"recycling","colour":"black","communication:mobile":"yes","covered":"no","generator:source":"solar","height":"1.3","indoor":"no","internet_access":"yes","lockable":"yes","manufacturer":"BigBelly, Inc.","material":"metal","monitoring:trash":"yes","operator":"City of Boston Public Works","recycling:glass":"yes","recycling:paper":"yes","recycling:plastic":"yes","recycling:waste":"yes","recycling_type":"container","waste":"trash;recycling","website":"https://www.boston.gov/trash-and-recycling","wheelchair":"yes","width":"0.6"}},"type":"Feature"},
	{"geometry":{"coordinates":[-71.069764,42.345189],"type":"Point"},"properties":{"man_made":"monitoring_station","osm_id":"7747804888","tag":{"amenity":"recycling","colour":"black","communication:mobile":"yes","covered":"no","generator:source":"solar","height":"1.3","indoor":"no","internet_access":"yes","lockable":"yes","manufacturer":"BigBelly, Inc.","material":"metal","monitoring:trash":"yes","operator":"City of Boston Public Works","recycling:glass":"yes","recycling:paper":"yes","recycling:plastic":"yes","recycling:waste":"yes","recycling_type":"container","waste":"trash;recycling","website":"https://www.boston.gov/trash-and-recycling","wheelchair":"yes","width":"0.6"}},"type":"Feature"},
	{"geometry":{"coordinates":[-71.088123,42.347654],"type":"Point"},"properties":{"osm_id":"7757237575","tag":{"amenity":"waste_basket","colour":"silver","covered":"yes","material":"steel","waste":"trash"}},"type":"Feature"},
	{"geometry":{"coordinates":[-71.087959,42.348038],"type":"Point"},"properties":{"man_made":"monitoring_station","osm_id":"7768389612","tag":{"amenity":"recycling","colour":"black","communication:mobile":"yes","covered":"no","generator:source":"solar","height":"1.3","indoor":"no","internet_access":"yes","lockable":"yes","manufacturer":"BigBelly, Inc.","material":"metal","monitoring:trash":"yes","operator":"City of Boston Public Works","recycling:glass":"yes","recycling:paper":"yes","recycling:plastic":"yes","recycling:waste":"yes","recycling_type":"container","waste":"trash;recycling","website":"https://www.boston.gov/trash-and-recycling","wheelchair":"yes","width":"0.6"}},"type":"Feature"},
	{"geometry":{"coordinates":[-71.087385,42.346819],"type":"Point"},"properties":{"man_made":"monitoring_station","osm_id":"7768389613","tag":{"amenity":"recycling","colour":"black","communication:mobile":"yes","covered":"no","generator:source":"solar","height":"1.3","indoor":"no","internet_access":"yes","lockable":"yes","manufacturer":"BigBelly, Inc.","material":"metal","monitoring:trash":"yes","operator":"City of Boston Public Works","recycling:glass":"yes","recycling:paper":"yes","recycling:plastic":"yes","recycling:waste":"yes","recycling_type":"container","waste":"trash;recycling","website":"https://www.boston.gov/trash-and-recycling","wheelchair":"yes","width":"0.6"}},"type":"Feature"},
	{"geometry":{"coordinates":[-71.087705,42.34696],"type":"Point"},"properties":{"man_made":"monitoring_station","osm_id":"7768389614","tag":{"amenity":"recycling","colour":"black","communication:mobile":"yes","covered":"no","generator:source":"solar","height":"1.3","indoor":"no","internet_access":"yes","lockable":"yes","manufacturer":"BigBelly, Inc.","material":"metal","monitoring:trash":"yes","operator":"City of Boston Public Works","recycling:glass":"yes","recycling:paper":"yes","recycling:plastic":"yes","recycling:waste":"yes","recycling_type":"container","waste":"trash;recycling","website":"https://www.boston.gov/trash-and-recycling","wheelchair":"yes","width":"0.6"}},"type":"Feature"},
	{"geometry":{"coordinates":[-71.088881,42.346893],"type":"Point"},"properties":{"man_made":"monitoring_station","osm_id":"7768389615","tag":{"amenity":"recycling","colour":"black","communication:mobile":"yes","covered":"no","generator:source":"solar","height":"1.3","indoor":"no","internet_access":"yes","lockable":"yes","manufacturer":"BigBelly, Inc.","material":"metal","monitoring:trash":"yes","operator":"City of Boston Public Works","recycling:glass":"yes","recycling:paper":"yes","recycling:plastic":"yes","recycling:waste":"yes","recycling_type":"container","waste":"trash;recycling","website":"https://www.boston.gov/trash-and-recycling","wheelchair":"yes","width":"0.6"}},"type":"Feature"},
	{"geometry":{"coordinates":[-71.074053,42.357551],"type":"Point"},"properties":{"man_made":"monitoring_station","osm_id":"7771617348","tag":{"amenity":"recycling","colour":"black","communication:mobile":"yes","covered":"no","generator:source":"solar","height":"1.3","indoor":"no","internet_access":"yes","lockable":"yes","manufacturer":"BigBelly, Inc.","material":"metal","monitoring:trash":"yes","operator":"City of Boston Public Works","recycling:glass":"yes","recycling:paper":"yes","recycling:plastic":"yes","recycling:waste":"yes","recycling_type":"container","waste":"trash;recycling","website":"https://www.boston.gov/trash-and-recycling","wheelchair":"yes","width":"0.6"}},"type":"Feature"},
	{"geometry":{"coordinates":[-71.084632,42.345648],"type":"Point"},"properties":{"osm_id":"7777147720","tag":{"amenity":"waste_basket","colour":"silver","covered":"no","indoor":"no","material":"metal","waste":"trash"}},"type":"Feature"},
	{"geometry":{"coordinates":[-71.076964,42.355785],"type":"Point"},"properties":{"osm_id":"7785682432","tag":{"amenity":"waste_basket","colour":"blue","covered":"no","indoor":"no","material":"metal","waste":"trash"}},"type":"Feature"},
	{"geometry":{"coordinates":[-71.077341,42.355902],"type":"Point"},"properties":{"osm_id":"7785682433","tag":{"amenity":"waste_basket","colour":"blue","covered":"no","indoor":"no","material":"metal","waste":"trash"}},"type":"Feature"},
	{"geometry":{"coordinates":[-71.077022,42.355989],"type":"Point"},"properties":{"osm_id":"7785682434","tag":{"amenity":"waste_basket","colour":"blue","covered":"no","indoor":"no","material":"metal","waste":"trash"}},"type":"Feature"},
	{"geometry":{"coordinates":[-71.076998,42.355775],"type":"Point"},"properties":{"osm_id":"7785682442","tag":{"amenity":"recycling","recycling:plastic":"yes","recycling_type":"container"}},"type":"Feature"},
	{"geometry":{"coordinates":[-71.07736,42.355894],"type":"Point"},"properties":{"osm_id":"7785682443","tag":{"amenity":"recycling","recycling:plastic":"yes","recycling_type":"container"}},"type":"Feature"},
	{"geometry":{"coordinates":[-71.077016,42.355974],"type":"Point"},"properties":{"osm_id":"7785682444","tag":{"amenity":"recycling","recycling:plastic":"yes","recycling_type":"container"}},"type":"Feature"},
	{"geometry":{"coordinates":[-71.07738,42.35575],"type":"Point"},"properties":{"osm_id":"7785682445","tag":{"amenity":"recycling","recycling:plastic":"yes","recycling_type":"container"}},"type":"Feature"},
	{"geometry":{"coordinates":[-71.077372,42.355738],"type":"Point"},"properties":{"osm_id":"7785682446","tag":{"amenity":"waste_basket","colour":"blue","covered":"no","indoor":"no","material":"metal","waste":"trash"}},"type":"Feature"}
]
}
