{
"type": "FeatureCollection",
"features": [
	{"geometry":{"coordinates":[-71.028843,42.114088],"type":"Point"},"properties":{"name":"Logan Redemption Center","osm_id":"6223652671","tag":{"amenity":"recycling","recycling_type":"centre"}},"type":"Feature"},
	{"geometry":{"coordinates":[-71.042847,42.162281],"type":"Point"},"properties":{"osm_id":"6237278357","tag":{"entrance":"yes"}},"type":"Feature"},
	{"geometry":{"coordinates":[-71.040959,42.163055],"type":"Point"},"properties":{"osm_id":"7199523826","tag":{"amenity":"waste_basket"}},"type":"Feature"},
	{"geometry":{"coordinates":[-71.094178,42.122422],"type":"Point"},"properties":{"osm_id":"7207401388","tag":{"amenity":"waste_basket"}},"type":"Feature"},
	{"geometry":{"coordinates":[-71.093699,42.122682],"type":"Point"},"properties":{"osm_id":"7209326075","tag":{"amenity":"waste_basket"}},"type":"Feature"},
	{"geometry":{"coordinates":[-71.095198,42.123305],"type":"Point"},"properties":{"osm_id":"7209326076","tag":{"amenity":"waste_basket"}},"type":"Feature"},
	{"geometry":{"coordinates":[-71.096058,42.123524],"type":"Point"},"properties":{"osm_id":"7209326077","tag":{"amenity":"waste_basket"}},"type":"Feature"},
	{"geometry":{"coordinates":[-71.09513,42.123193],"type":"Point"},"properties":{"osm_id":"7209326078","tag":{"amenity":"waste_basket","waste":"dog_excrement"}},"type":"Feature"},
	{"geometry":{"coordinates":[-71.094332,42.122636],"type":"Point"},"properties":{"osm_id":"7209326079","tag":{"amenity":"waste_basket"}},"type":"Feature"},
	{"geometry":{"coordinates":[-71.095151,42.122391],"type":"Point"},"properties":{"osm_id":"7209326081","tag":{"amenity":"waste_basket"}},"type":"Feature"},
	{"geometry":{"coordinates":[-71.095061,42.123191],"type":"Point"},"properties":{"osm_id":"7634016484","tag":{"amenity":"waste_basket"}},"type":"Feature"},
	{"geometry":{"coordinates":[-71.094524,42.123128],"type":"Point"},"properties":{"osm_id":"7634027889","tag":{"amenity":"waste_basket"}},"type":"Feature"},
	{"geometry":{"coordinates":[-71.095334,42.122689],"type":"Point"},"properties":{"osm_id":"7654722825","tag":{"amenity":"waste_basket"}},"type":"Feature"}
]
}
