{
"type": "FeatureCollection",
"features": [
	{"geometry":{"coordinates":[-71.099214,-34.436227],"type":"Point"},"properties":{"name":"Planta de Reciclaje","osm_id":"3842739669","tag":{"amenity":"recycling"}},"type":"Feature"},
	{"geometry":{"coordinates":[-71.074079,-34.441637],"type":"Point"},"properties":{"osm_id":"4074397236","tag":{"amenity":"recycling","recycling:glass_bottles":"yes","recycling_type":"container"}},"type":"Feature"},
	{"geometry":{"coordinates":[-71.087168,-34.435546],"type":"Point"},"properties":{"osm_id":"4074420408","tag":{"amenity":"waste_disposal"}},"type":"Feature"},
	{"geometry":{"coordinates":[-71.074064,-34.441598],"type":"Point"},"properties":{"osm_id":"4269251311","tag":{"amenity":"waste_basket"}},"type":"Feature"},
	{"geometry":{"coordinates":[-71.081183,-34.440849],"type":"Point"},"properties":{"osm_id":"8620373138","tag":{"amenity":"recycling","opening_hours":"24/7","recycling:glass":"yes","recycling:glass_bottles":"yes","recycling:plastic_bottles":"yes","recycling_type":"container"}},"type":"Feature"},
	{"geometry":{"coordinates":[-71.073247,-34.437229],"type":"Point"},"properties":{"osm_id":"9173718288","tag":{"amenity":"recycling","recycling:glass_bottles":"yes","recycling:plastic_bottles":"yes","recycling_type":"container"}},"type":"Feature"}
]
}
