{
"type": "FeatureCollection",
"lastupdate": "2020-08-04T00:00:00Z",
"features": [
	{"geometry":{"coordinates":[-71.041174,-34.709126],"type":"Point"},"properties":{"name":"Vidrio CODEFF","osm_id":"2090471205","tag":{"addr:city":"Chimbarongo","addr:street":"Carmen Larra\u00edn","amenity":"recycling","recycling:batteries":"no","recycling:books":"no","recycling:cans":"no","recycling:electrical_appliances":"no","recycling:glass":"yes","recycling:glass_bottles":"yes","recycling:green_waste":"no","recycling:magazines":"no","recycling:newspaper":"no","recycling:paper":"no","recycling:paper_packaging":"no","recycling:plastic":"no","recycling:plastic_bottles":"no","recycling:plastic_packaging":"no","recycling:scrap_metal":"no","recycling:small_appliances":"no","recycling:waste":"no","recycling:wood":"no","recycling_type":"container"}},"type":"Feature"},
	{"geometry":{"coordinates":[-71.040695,-34.709222],"type":"Point"},"properties":{"osm_id":"6146783509","tag":{"addr:city":"Chimbarongo","addr:street":"Carmen Larra\u00edn","amenity":"waste_basket"}},"type":"Feature"},
	{"geometry":{"coordinates":[-71.040164,-34.709451],"type":"Point"},"properties":{"osm_id":"6146783513","tag":{"addr:city":"Chimbarongo","addr:street":"Carmen Larra\u00edn","amenity":"waste_basket"}},"type":"Feature"},
	{"geometry":{"coordinates":[-71.039915,-34.709127],"type":"Point"},"properties":{"osm_id":"6154624021","tag":{"amenity":"waste_basket"}},"type":"Feature"},
	{"geometry":{"coordinates":[-71.039776,-34.708819],"type":"Point"},"properties":{"osm_id":"6154693465","tag":{"addr:city":"Chimbarongo","addr:street":"Camiruaga Cortina","amenity":"waste_basket"}},"type":"Feature"},
	{"geometry":{"coordinates":[-71.041366,-34.709093],"type":"Point"},"properties":{"osm_id":"6154731586","tag":{"amenity":"waste_basket"}},"type":"Feature"},
	{"geometry":{"coordinates":[-71.040669,-34.70871],"type":"Point"},"properties":{"osm_id":"6154736659","tag":{"amenity":"waste_basket"}},"type":"Feature"},
	{"geometry":{"coordinates":[-71.03741,-34.707517],"type":"Point"},"properties":{"osm_id":"6185279611","tag":{"amenity":"waste_basket"}},"type":"Feature"},
	{"geometry":{"coordinates":[-71.041803,-34.711584],"type":"Point"},"properties":{"osm_id":"6290439000","tag":{"amenity":"waste_basket"}},"type":"Feature"},
	{"geometry":{"coordinates":[-71.041782,-34.711834],"type":"Point"},"properties":{"osm_id":"6290439707","tag":{"amenity":"waste_basket"}},"type":"Feature"},
	{"geometry":{"coordinates":[-71.047435,-34.713188],"type":"Point"},"properties":{"osm_id":"6290487871","tag":{"amenity":"waste_basket"}},"type":"Feature"},
	{"geometry":{"coordinates":[-71.047196,-34.713318],"type":"Point"},"properties":{"osm_id":"6290487878","tag":{"amenity":"waste_basket"}},"type":"Feature"},
	{"geometry":{"coordinates":[-71.039208,-34.709748],"type":"Point"},"properties":{"osm_id":"6313031551","tag":{"amenity":"waste_basket"}},"type":"Feature"},
	{"geometry":{"coordinates":[-71.041655,-34.707682],"type":"Point"},"properties":{"osm_id":"6313131057","tag":{"amenity":"waste_basket"}},"type":"Feature"},
	{"geometry":{"coordinates":[-71.041349,-34.705306],"type":"Point"},"properties":{"osm_id":"6313250748","tag":{"amenity":"waste_basket"}},"type":"Feature"},
	{"geometry":{"coordinates":[-71.034805,-34.713213],"type":"Point"},"properties":{"osm_id":"6317248508","tag":{"amenity":"waste_basket"}},"type":"Feature"},
	{"geometry":{"coordinates":[-71.038548,-34.711291],"type":"Point"},"properties":{"osm_id":"6317343023","tag":{"amenity":"waste_basket"}},"type":"Feature"},
	{"geometry":{"coordinates":[-71.032059,-34.697048],"type":"Point"},"properties":{"osm_id":"6319862116","tag":{"amenity":"waste_basket"}},"type":"Feature"},
	{"geometry":{"coordinates":[-71.032319,-34.697352],"type":"Point"},"properties":{"osm_id":"6319862117","tag":{"amenity":"waste_basket"}},"type":"Feature"},
	{"geometry":{"coordinates":[-71.032608,-34.697829],"type":"Point"},"properties":{"osm_id":"6319876425","tag":{"amenity":"waste_basket"}},"type":"Feature"},
	{"geometry":{"coordinates":[-71.032122,-34.697582],"type":"Point"},"properties":{"osm_id":"6319876431","tag":{"amenity":"waste_basket"}},"type":"Feature"},
	{"geometry":{"coordinates":[-71.032041,-34.697482],"type":"Point"},"properties":{"osm_id":"6319876432","tag":{"amenity":"waste_basket"}},"type":"Feature"},
	{"geometry":{"coordinates":[-71.031776,-34.697028],"type":"Point"},"properties":{"osm_id":"6319888291","tag":{"amenity":"waste_basket"}},"type":"Feature"},
	{"geometry":{"coordinates":[-71.03165,-34.69683],"type":"Point"},"properties":{"osm_id":"6320043732","tag":{"amenity":"waste_basket"}},"type":"Feature"},
	{"geometry":{"coordinates":[-71.048262,-34.711452],"type":"Point"},"properties":{"osm_id":"6328025799","tag":{"amenity":"waste_basket"}},"type":"Feature"},
	{"geometry":{"coordinates":[-71.048191,-34.711498],"type":"Point"},"properties":{"osm_id":"6328025800","tag":{"amenity":"waste_basket"}},"type":"Feature"},
	{"geometry":{"coordinates":[-71.03299,-34.701131],"type":"Point"},"properties":{"osm_id":"6331486673","tag":{"amenity":"waste_basket"}},"type":"Feature"},
	{"geometry":{"coordinates":[-71.032792,-34.700847],"type":"Point"},"properties":{"osm_id":"6331520850","tag":{"amenity":"waste_basket"}},"type":"Feature"},
	{"geometry":{"coordinates":[-71.032458,-34.700354],"type":"Point"},"properties":{"osm_id":"6331520854","tag":{"amenity":"waste_basket"}},"type":"Feature"},
	{"geometry":{"coordinates":[-71.031124,-34.698417],"type":"Point"},"properties":{"osm_id":"6331520864","tag":{"amenity":"waste_basket"}},"type":"Feature"},
	{"geometry":{"coordinates":[-71.035751,-34.711352],"type":"Point"},"properties":{"osm_id":"6340975891","tag":{"amenity":"waste_basket"}},"type":"Feature"},
	{"geometry":{"coordinates":[-71.040819,-34.70557],"type":"Point"},"properties":{"osm_id":"6346574785","tag":{"amenity":"waste_basket"}},"type":"Feature"},
	{"geometry":{"coordinates":[-71.039564,-34.706878],"type":"Point"},"properties":{"osm_id":"6347714384","tag":{"amenity":"waste_basket"}},"type":"Feature"},
	{"geometry":{"coordinates":[-71.030181,-34.697057],"type":"Point"},"properties":{"osm_id":"6353604060","tag":{"amenity":"waste_basket"}},"type":"Feature"},
	{"geometry":{"coordinates":[-71.030445,-34.697436],"type":"Point"},"properties":{"osm_id":"6353630200","tag":{"amenity":"waste_basket"}},"type":"Feature"},
	{"geometry":{"coordinates":[-71.039492,-34.710093],"type":"Point"},"properties":{"osm_id":"6354991192","tag":{"amenity":"waste_basket"}},"type":"Feature"},
	{"geometry":{"coordinates":[-71.038659,-34.709049],"type":"Point"},"properties":{"osm_id":"6355073241","tag":{"amenity":"waste_basket"}},"type":"Feature"},
	{"geometry":{"coordinates":[-71.038427,-34.708726],"type":"Point"},"properties":{"osm_id":"6355073249","tag":{"amenity":"waste_basket"}},"type":"Feature"},
	{"geometry":{"coordinates":[-71.038191,-34.708449],"type":"Point"},"properties":{"osm_id":"6355079692","tag":{"amenity":"waste_basket"}},"type":"Feature"},
	{"geometry":{"coordinates":[-71.037631,-34.707817],"type":"Point"},"properties":{"osm_id":"6355843359","tag":{"amenity":"waste_basket"}},"type":"Feature"},
	{"geometry":{"coordinates":[-71.040587,-34.701886],"type":"Point"},"properties":{"osm_id":"6357381100","tag":{"amenity":"waste_basket"}},"type":"Feature"},
	{"geometry":{"coordinates":[-71.04263,-34.709301],"type":"Point"},"properties":{"osm_id":"6361698772","tag":{"amenity":"waste_basket"}},"type":"Feature"},
	{"geometry":{"coordinates":[-71.043449,-34.708877],"type":"Point"},"properties":{"osm_id":"6361699192","tag":{"amenity":"waste_basket"}},"type":"Feature"},
	{"geometry":{"coordinates":[-71.041926,-34.709657],"type":"Point"},"properties":{"osm_id":"6361699197","tag":{"amenity":"waste_basket"}},"type":"Feature"},
	{"geometry":{"coordinates":[-71.042122,-34.709557],"type":"Point"},"properties":{"osm_id":"6361699201","tag":{"amenity":"waste_basket"}},"type":"Feature"},
	{"geometry":{"coordinates":[-71.030763,-34.697916],"type":"Point"},"properties":{"osm_id":"6371497647","tag":{"amenity":"waste_basket"}},"type":"Feature"},
	{"geometry":{"coordinates":[-71.031474,-34.698882],"type":"Point"},"properties":{"osm_id":"6371506082","tag":{"amenity":"waste_basket"}},"type":"Feature"},
	{"geometry":{"coordinates":[-71.05213,-34.707558],"type":"Point"},"properties":{"osm_id":"6388428366","tag":{"amenity":"waste_basket"}},"type":"Feature"},
	{"geometry":{"coordinates":[-71.041484,-34.709803],"type":"Point"},"properties":{"osm_id":"7644756836","tag":{"amenity":"waste_basket"}},"type":"Feature"}
]
}
