{
"type": "FeatureCollection",
"features": [
	{"geometry":{"coordinates":[2.624516,49.045571],"type":"Point"},"properties":{"osm_id":"4222705467","tag":{"amenity":"waste_basket"}},"type":"Feature"},
	{"geometry":{"coordinates":[2.625493,49.045819],"type":"Point"},"properties":{"osm_id":"4222705486","tag":{"amenity":"waste_basket"}},"type":"Feature"},
	{"geometry":{"coordinates":[2.576233,49.085836],"type":"Point"},"properties":{"osm_id":"8227039652","tag":{"access":"yes","amenity":"waste_disposal","waste":"glass"}},"type":"Feature"},
	{"geometry":{"coordinates":[2.55133,49.072097],"type":"Point"},"properties":{"osm_id":"8420049664","tag":{"amenity":"waste_basket","waste":"trash;recycling"}},"type":"Feature"},
	{"geometry":{"coordinates":[2.573534,49.067169],"type":"Point"},"properties":{"osm_id":"8437634004","tag":{"amenity":"waste_basket"}},"type":"Feature"},
	{"geometry":{"coordinates":[2.560292,49.088626],"type":"Point"},"properties":{"osm_id":"8449109584","tag":{"amenity":"waste_basket","indoor":"no","material":"wood","waste":"trash"}},"type":"Feature"}
]
}
