{
"type": "FeatureCollection",
"features": [
	{"geometry":{"coordinates":[2.554849,48.635293],"type":"Point"},"properties":{"osm_id":"674927026","tag":{"amenity":"recycling","opening_hours:covid19":"open","recycling:clothes":"yes","recycling:glass_bottles":"yes","recycling_type":"container","website":"http://www.lombric.com/"}},"type":"Feature"},
	{"geometry":{"coordinates":[2.576524,48.659934],"type":"Point"},"properties":{"osm_id":"1125110850","tag":{"amenity":"recycling","comment":"please confirm recycling matter","recycling:glass_bottles":"yes","recycling_type":"container"}},"type":"Feature"},
	{"geometry":{"coordinates":[2.608112,48.690642],"type":"Point"},"properties":{"osm_id":"1861994197","tag":{"amenity":"recycling","recycling:glass_bottles":"yes","recycling_type":"container"}},"type":"Feature"},
	{"geometry":{"coordinates":[2.628017,48.661179],"type":"Point"},"properties":{"osm_id":"3238483536","tag":{"amenity":"recycling"}},"type":"Feature"},
	{"geometry":{"coordinates":[2.552196,48.668967],"type":"Point"},"properties":{"osm_id":"6698976533","tag":{"amenity":"waste_basket","colour":"green","material":"plastic"}},"type":"Feature"},
	{"geometry":{"coordinates":[2.555117,48.665876],"type":"Point"},"properties":{"osm_id":"6742076320","tag":{"amenity":"recycling","colour":"yellow","material":"metal","recycling:glass_bottles":"yes","recycling_type":"container"}},"type":"Feature"},
	{"geometry":{"coordinates":[2.555114,48.665859],"type":"Point"},"properties":{"osm_id":"6742076321","tag":{"amenity":"recycling","colour":"gray","material":"metal","recycling:paper":"yes","recycling_type":"container"}},"type":"Feature"},
	{"geometry":{"coordinates":[2.55168,48.634586],"type":"Point"},"properties":{"osm_id":"7379770806","tag":{"amenity":"recycling","recycling:clothes":"yes","recycling_type":"container"}},"type":"Feature"},
	{"geometry":{"coordinates":[2.562845,48.650317],"type":"Point"},"properties":{"osm_id":"7379955721","tag":{"amenity":"recycling","covered":"no","indoor":"no","recycling:glass_bottles":"yes","recycling_type":"container"}},"type":"Feature"},
	{"geometry":{"coordinates":[2.589574,48.633394],"type":"Point"},"properties":{"osm_id":"7397738373","tag":{"amenity":"recycling","recycling:glass":"yes","recycling:glass_bottles":"yes","recycling_type":"container"}},"type":"Feature"},
	{"geometry":{"coordinates":[2.558166,48.634979],"type":"Point"},"properties":{"osm_id":"7518017615","tag":{"amenity":"waste_basket"}},"type":"Feature"},
	{"geometry":{"coordinates":[2.552167,48.637296],"type":"Point"},"properties":{"osm_id":"7518017620","tag":{"amenity":"waste_basket"}},"type":"Feature"},
	{"geometry":{"coordinates":[2.5765,48.659935],"type":"Point"},"properties":{"osm_id":"9032079458","tag":{"amenity":"recycling","comment":"please confirm recycling matter","recycling:glass_bottles":"yes","recycling_type":"container"}},"type":"Feature"},
	{"geometry":{"coordinates":[2.576472,48.659938],"type":"Point"},"properties":{"osm_id":"9032079459","tag":{"amenity":"recycling","comment":"please confirm recycling matter","recycling:glass_bottles":"yes","recycling_type":"container"}},"type":"Feature"},
	{"geometry":{"coordinates":[2.576448,48.659938],"type":"Point"},"properties":{"osm_id":"9032079460","tag":{"amenity":"recycling","comment":"please confirm recycling matter","recycling:glass_bottles":"yes","recycling_type":"container"}},"type":"Feature"},
	{"geometry":{"coordinates":[2.549064,48.666631],"type":"Point"},"properties":{"osm_id":"9064040452","tag":{"amenity":"waste_basket"}},"type":"Feature"},
	{"geometry":{"coordinates":[2.549053,48.666642],"type":"Point"},"properties":{"osm_id":"9064040453","tag":{"amenity":"waste_basket"}},"type":"Feature"},
	{"geometry":{"coordinates":[2.549706,48.665915],"type":"Point"},"properties":{"osm_id":"9064040458","tag":{"amenity":"waste_basket"}},"type":"Feature"},
	{"geometry":{"coordinates":[2.549695,48.665569],"type":"Point"},"properties":{"osm_id":"9064040459","tag":{"amenity":"waste_basket"}},"type":"Feature"},
	{"geometry":{"coordinates":[2.552451,48.665787],"type":"Point"},"properties":{"osm_id":"9064040464","tag":{"amenity":"waste_basket"}},"type":"Feature"},
	{"geometry":{"coordinates":[2.554432,48.665919],"type":"Point"},"properties":{"osm_id":"9064040472","tag":{"amenity":"waste_basket"}},"type":"Feature"},
	{"geometry":{"coordinates":[2.554434,48.666087],"type":"Point"},"properties":{"osm_id":"9064040474","tag":{"amenity":"waste_basket"}},"type":"Feature"},
	{"geometry":{"coordinates":[2.554832,48.666068],"type":"Point"},"properties":{"osm_id":"9064040476","tag":{"amenity":"waste_basket"}},"type":"Feature"},
	{"geometry":{"coordinates":[2.555105,48.666057],"type":"Point"},"properties":{"osm_id":"9064040478","tag":{"amenity":"waste_basket"}},"type":"Feature"},
	{"geometry":{"coordinates":[2.555464,48.666028],"type":"Point"},"properties":{"osm_id":"9064040480","tag":{"amenity":"waste_basket"}},"type":"Feature"},
	{"geometry":{"coordinates":[2.557794,48.666201],"type":"Point"},"properties":{"osm_id":"9064040483","tag":{"amenity":"waste_basket"}},"type":"Feature"},
	{"geometry":{"coordinates":[2.557978,48.666174],"type":"Point"},"properties":{"osm_id":"9064040484","tag":{"amenity":"waste_basket"}},"type":"Feature"},
	{"geometry":{"coordinates":[2.558635,48.666278],"type":"Point"},"properties":{"osm_id":"9064040485","tag":{"amenity":"waste_basket"}},"type":"Feature"},
	{"geometry":{"coordinates":[2.558801,48.665903],"type":"Point"},"properties":{"osm_id":"9064040486","tag":{"amenity":"waste_basket"}},"type":"Feature"},
	{"geometry":{"coordinates":[2.558606,48.666037],"type":"Point"},"properties":{"osm_id":"9064040487","tag":{"amenity":"waste_basket"}},"type":"Feature"},
	{"geometry":{"coordinates":[2.558375,48.666094],"type":"Point"},"properties":{"osm_id":"9064040488","tag":{"amenity":"recycling","recycling:glass":"no","recycling:glass_bottles":"yes","recycling_type":"container"}},"type":"Feature"},
	{"geometry":{"coordinates":[2.558343,48.666099],"type":"Point"},"properties":{"osm_id":"9064040489","tag":{"amenity":"recycling","recycling:glass":"no","recycling:glass_bottles":"yes","recycling_type":"container"}},"type":"Feature"},
	{"geometry":{"coordinates":[2.561708,48.665258],"type":"Point"},"properties":{"osm_id":"9064040491","tag":{"amenity":"waste_basket"}},"type":"Feature"},
	{"geometry":{"coordinates":[2.561957,48.665157],"type":"Point"},"properties":{"osm_id":"9064040492","tag":{"amenity":"waste_basket"}},"type":"Feature"},
	{"geometry":{"coordinates":[2.562584,48.66494],"type":"Point"},"properties":{"osm_id":"9064040495","tag":{"amenity":"waste_basket"}},"type":"Feature"},
	{"geometry":{"coordinates":[2.565648,48.664475],"type":"Point"},"properties":{"osm_id":"9064040500","tag":{"amenity":"recycling","operator":"SIVOM","recycling:glass":"yes","recycling:glass_bottles":"yes","recycling_type":"container"}},"type":"Feature"},
	{"geometry":{"coordinates":[2.564491,48.649055],"type":"Point"},"properties":{"osm_id":"9064071636","tag":{"amenity":"waste_basket"}},"type":"Feature"},
	{"geometry":{"coordinates":[2.558483,48.657532],"type":"Point"},"properties":{"osm_id":"9064071637","tag":{"amenity":"waste_basket"}},"type":"Feature"},
	{"geometry":{"coordinates":[2.549123,48.666324],"type":"Point"},"properties":{"osm_id":"9064071638","tag":{"amenity":"recycling","covered":"no","indoor":"no","recycling:glass_bottles":"yes","recycling_type":"container"}},"type":"Feature"},
	{"geometry":{"coordinates":[2.560862,48.656005],"type":"Point"},"properties":{"osm_id":"9064071639","tag":{"amenity":"waste_basket"}},"type":"Feature"},
	{"geometry":{"coordinates":[2.563898,48.649498],"type":"Point"},"properties":{"osm_id":"9064071641","tag":{"amenity":"waste_basket"}},"type":"Feature"},
	{"geometry":{"coordinates":[2.553738,48.660886],"type":"Point"},"properties":{"osm_id":"9064071642","tag":{"amenity":"waste_basket"}},"type":"Feature"},
	{"geometry":{"coordinates":[2.552494,48.666576],"type":"Point"},"properties":{"osm_id":"9064087069","tag":{"amenity":"recycling","operator":"SIVOM","recycling:glass_bottles":"yes","recycling_type":"container"}},"type":"Feature"},
	{"geometry":{"coordinates":[2.549091,48.666364],"type":"Point"},"properties":{"osm_id":"9069165961","tag":{"amenity":"waste_basket"}},"type":"Feature"},
	{"geometry":{"coordinates":[2.563188,48.648604],"type":"Point"},"properties":{"osm_id":"9080133805","tag":{"amenity":"waste_basket","colour":"gray","covered":"no","indoor":"no","material":"metal","waste":"trash"}},"type":"Feature"},
	{"geometry":{"coordinates":[2.554091,48.668932],"type":"Point"},"properties":{"osm_id":"9082030421","tag":{"amenity":"waste_basket"}},"type":"Feature"},
	{"geometry":{"coordinates":[2.54939,48.665884],"type":"Point"},"properties":{"osm_id":"9082061263","tag":{"amenity":"waste_basket"}},"type":"Feature"},
	{"geometry":{"coordinates":[2.551719,48.665878],"type":"Point"},"properties":{"osm_id":"9082061277","tag":{"amenity":"waste_basket"}},"type":"Feature"},
	{"geometry":{"coordinates":[2.551261,48.669815],"type":"Point"},"properties":{"osm_id":"9082496314","tag":{"amenity":"waste_basket","covered":"no","indoor":"no"}},"type":"Feature"},
	{"geometry":{"coordinates":[2.561412,48.665032],"type":"Point"},"properties":{"osm_id":"9083837435","tag":{"amenity":"waste_basket"}},"type":"Feature"},
	{"geometry":{"coordinates":[2.552491,48.669834],"type":"Point"},"properties":{"osm_id":"9083837440","tag":{"amenity":"waste_basket"}},"type":"Feature"},
	{"geometry":{"coordinates":[2.563681,48.659574],"type":"Point"},"properties":{"osm_id":"9083837442","tag":{"amenity":"recycling","operator":"SIVOM","recycling:glass_bottles":"yes","recycling_type":"container"}},"type":"Feature"},
	{"geometry":{"coordinates":[2.558665,48.667141],"type":"Point"},"properties":{"osm_id":"9083837446","tag":{"amenity":"recycling","recycling:glass_bottles":"yes","recycling_type":"container"}},"type":"Feature"},
	{"geometry":{"coordinates":[2.569579,48.653496],"type":"Point"},"properties":{"osm_id":"9083837453","tag":{"amenity":"recycling","recycling:clothes":"yes","recycling_type":"container"}},"type":"Feature"},
	{"geometry":{"coordinates":[2.556124,48.67043],"type":"Point"},"properties":{"osm_id":"9083837455","tag":{"amenity":"recycling","recycling:glass":"yes","recycling_type":"container"}},"type":"Feature"},
	{"geometry":{"coordinates":[2.567143,48.649895],"type":"Point"},"properties":{"osm_id":"9083837457","tag":{"amenity":"waste_basket"}},"type":"Feature"},
	{"geometry":{"coordinates":[2.563716,48.659544],"type":"Point"},"properties":{"osm_id":"9083837469","tag":{"amenity":"recycling","recycling:clothes":"yes","recycling_type":"container"}},"type":"Feature"},
	{"geometry":{"coordinates":[2.572947,48.65378],"type":"Point"},"properties":{"osm_id":"9083837475","tag":{"amenity":"recycling","recycling:clothes":"yes","recycling_type":"container"}},"type":"Feature"},
	{"geometry":{"coordinates":[2.569548,48.653516],"type":"Point"},"properties":{"osm_id":"9083837480","tag":{"amenity":"recycling","recycling:glass":"yes","recycling_type":"container"}},"type":"Feature"},
	{"geometry":{"coordinates":[2.579111,48.659795],"type":"Point"},"properties":{"osm_id":"9083837481","tag":{"amenity":"waste_basket"}},"type":"Feature"},
	{"geometry":{"coordinates":[2.558163,48.671312],"type":"Point"},"properties":{"osm_id":"9083837482","tag":{"amenity":"waste_basket"}},"type":"Feature"},
	{"geometry":{"coordinates":[2.562437,48.664999],"type":"Point"},"properties":{"osm_id":"9083837483","tag":{"amenity":"waste_basket"}},"type":"Feature"},
	{"geometry":{"coordinates":[2.569438,48.664415],"type":"Point"},"properties":{"osm_id":"9083837493","tag":{"amenity":"recycling","recycling:glass":"yes","recycling_type":"container"}},"type":"Feature"},
	{"geometry":{"coordinates":[2.57641,48.66197],"type":"Point"},"properties":{"osm_id":"9083837499","tag":{"amenity":"recycling","recycling:glass":"yes","recycling_type":"container"}},"type":"Feature"},
	{"geometry":{"coordinates":[2.560423,48.665911],"type":"Point"},"properties":{"osm_id":"9083837500","tag":{"amenity":"waste_basket"}},"type":"Feature"},
	{"geometry":{"coordinates":[2.569529,48.653531],"type":"Point"},"properties":{"osm_id":"9083837507","tag":{"amenity":"recycling","recycling:glass":"yes","recycling_type":"container"}},"type":"Feature"},
	{"geometry":{"coordinates":[2.579263,48.659813],"type":"Point"},"properties":{"osm_id":"9083837508","tag":{"amenity":"waste_basket"}},"type":"Feature"},
	{"geometry":{"coordinates":[2.556091,48.670417],"type":"Point"},"properties":{"osm_id":"9083837514","tag":{"amenity":"recycling","recycling:clothes":"yes","recycling_type":"container"}},"type":"Feature"},
	{"geometry":{"coordinates":[2.564719,48.679017],"type":"Point"},"properties":{"osm_id":"9083977627","tag":{"amenity":"recycling","operator":"SIVOM","recycling:glass":"yes","recycling_type":"container"}},"type":"Feature"},
	{"geometry":{"coordinates":[2.552603,48.660508],"type":"Point"},"properties":{"osm_id":"9084096876","tag":{"amenity":"waste_basket"}},"type":"Feature"},
	{"geometry":{"coordinates":[2.554818,48.657944],"type":"Point"},"properties":{"osm_id":"9084096877","tag":{"amenity":"waste_basket"}},"type":"Feature"},
	{"geometry":{"coordinates":[2.552927,48.661611],"type":"Point"},"properties":{"osm_id":"9084096891","tag":{"amenity":"waste_basket"}},"type":"Feature"},
	{"geometry":{"coordinates":[2.549932,48.665476],"type":"Point"},"properties":{"osm_id":"9084675846","tag":{"amenity":"waste_basket"}},"type":"Feature"},
	{"geometry":{"coordinates":[2.552947,48.656702],"type":"Point"},"properties":{"osm_id":"9091755549","tag":{"amenity":"waste_basket"}},"type":"Feature"},
	{"geometry":{"coordinates":[2.55259,48.654622],"type":"Point"},"properties":{"osm_id":"9091755551","tag":{"amenity":"waste_basket"}},"type":"Feature"},
	{"geometry":{"coordinates":[2.552132,48.654004],"type":"Point"},"properties":{"osm_id":"9091755554","tag":{"amenity":"waste_basket"}},"type":"Feature"},
	{"geometry":{"coordinates":[2.550681,48.651813],"type":"Point"},"properties":{"osm_id":"9091755564","tag":{"amenity":"waste_basket"}},"type":"Feature"},
	{"geometry":{"coordinates":[2.549573,48.650785],"type":"Point"},"properties":{"osm_id":"9091755565","tag":{"amenity":"waste_basket"}},"type":"Feature"},
	{"geometry":{"coordinates":[2.550398,48.648033],"type":"Point"},"properties":{"osm_id":"9091789944","tag":{"amenity":"waste_basket"}},"type":"Feature"},
	{"geometry":{"coordinates":[2.55054,48.648162],"type":"Point"},"properties":{"osm_id":"9091789945","tag":{"amenity":"waste_basket"}},"type":"Feature"},
	{"geometry":{"coordinates":[2.550766,48.648203],"type":"Point"},"properties":{"osm_id":"9091789946","tag":{"amenity":"waste_basket"}},"type":"Feature"},
	{"geometry":{"coordinates":[2.551359,48.648441],"type":"Point"},"properties":{"osm_id":"9092308477","tag":{"amenity":"waste_basket"}},"type":"Feature"},
	{"geometry":{"coordinates":[2.553282,48.648686],"type":"Point"},"properties":{"osm_id":"9092308479","tag":{"amenity":"waste_basket"}},"type":"Feature"},
	{"geometry":{"coordinates":[2.554471,48.648743],"type":"Point"},"properties":{"osm_id":"9092308480","tag":{"amenity":"waste_basket"}},"type":"Feature"},
	{"geometry":{"coordinates":[2.554483,48.64901],"type":"Point"},"properties":{"osm_id":"9092308481","tag":{"amenity":"waste_basket"}},"type":"Feature"},
	{"geometry":{"coordinates":[2.553557,48.649289],"type":"Point"},"properties":{"osm_id":"9092308482","tag":{"amenity":"waste_basket"}},"type":"Feature"},
	{"geometry":{"coordinates":[2.553121,48.650835],"type":"Point"},"properties":{"osm_id":"9092308483","tag":{"amenity":"waste_basket"}},"type":"Feature"},
	{"geometry":{"coordinates":[2.55274,48.651093],"type":"Point"},"properties":{"osm_id":"9092308484","tag":{"amenity":"waste_basket"}},"type":"Feature"},
	{"geometry":{"coordinates":[2.558414,48.649479],"type":"Point"},"properties":{"osm_id":"9092308490","tag":{"amenity":"waste_basket"}},"type":"Feature"},
	{"geometry":{"coordinates":[2.560527,48.647174],"type":"Point"},"properties":{"osm_id":"9092308495","tag":{"amenity":"waste_basket"}},"type":"Feature"},
	{"geometry":{"coordinates":[2.557493,48.658187],"type":"Point"},"properties":{"osm_id":"9092308499","tag":{"amenity":"recycling","operator":"Le Relais","recycling:clothes":"yes","recycling_type":"container"}},"type":"Feature"},
	{"geometry":{"coordinates":[2.558332,48.658026],"type":"Point"},"properties":{"osm_id":"9092308516","tag":{"amenity":"waste_basket"}},"type":"Feature"},
	{"geometry":{"coordinates":[2.558503,48.657942],"type":"Point"},"properties":{"osm_id":"9092381417","tag":{"amenity":"waste_basket"}},"type":"Feature"},
	{"geometry":{"coordinates":[2.555841,48.670474],"type":"Point"},"properties":{"osm_id":"9103316482","tag":{"amenity":"waste_basket"}},"type":"Feature"},
	{"geometry":{"coordinates":[2.555568,48.671446],"type":"Point"},"properties":{"osm_id":"9103316484","tag":{"amenity":"recycling","recycling:glass_bottles":"yes","recycling_type":"container"}},"type":"Feature"},
	{"geometry":{"coordinates":[2.555574,48.671424],"type":"Point"},"properties":{"osm_id":"9103316485","tag":{"amenity":"recycling","recycling:glass_bottles":"yes","recycling_type":"container"}},"type":"Feature"},
	{"geometry":{"coordinates":[2.555572,48.67147],"type":"Point"},"properties":{"osm_id":"9103316486","tag":{"amenity":"recycling","recycling:clothes":"yes","recycling_type":"container"}},"type":"Feature"},
	{"geometry":{"coordinates":[2.555838,48.671393],"type":"Point"},"properties":{"osm_id":"9103316487","tag":{"amenity":"waste_basket"}},"type":"Feature"},
	{"geometry":{"coordinates":[2.555846,48.671906],"type":"Point"},"properties":{"osm_id":"9103316490","tag":{"amenity":"waste_basket"}},"type":"Feature"},
	{"geometry":{"coordinates":[2.555916,48.672503],"type":"Point"},"properties":{"osm_id":"9103316491","tag":{"amenity":"waste_basket"}},"type":"Feature"},
	{"geometry":{"coordinates":[2.564955,48.664677],"type":"Point"},"properties":{"osm_id":"9105239649","tag":{"amenity":"waste_basket"}},"type":"Feature"},
	{"geometry":{"coordinates":[2.565518,48.66465],"type":"Point"},"properties":{"osm_id":"9105239651","tag":{"amenity":"waste_basket"}},"type":"Feature"},
	{"geometry":{"coordinates":[2.557004,48.665006],"type":"Point"},"properties":{"osm_id":"9105300024","tag":{"amenity":"recycling","operator":"SIVOM","recycling:clothes":"yes","recycling_type":"container"}},"type":"Feature"},
	{"geometry":{"coordinates":[2.557006,48.665035],"type":"Point"},"properties":{"osm_id":"9105300025","tag":{"amenity":"waste_basket"}},"type":"Feature"},
	{"geometry":{"coordinates":[2.557777,48.663496],"type":"Point"},"properties":{"osm_id":"9105360723","tag":{"amenity":"waste_basket"}},"type":"Feature"},
	{"geometry":{"coordinates":[2.558338,48.663374],"type":"Point"},"properties":{"osm_id":"9105360724","tag":{"amenity":"waste_basket"}},"type":"Feature"},
	{"geometry":{"coordinates":[2.559273,48.66474],"type":"Point"},"properties":{"osm_id":"9105360728","tag":{"amenity":"recycling","recycling:glass_bottles":"yes","recycling_type":"container"}},"type":"Feature"},
	{"geometry":{"coordinates":[2.560673,48.661969],"type":"Point"},"properties":{"osm_id":"9105360750","tag":{"amenity":"waste_basket"}},"type":"Feature"},
	{"geometry":{"coordinates":[2.566706,48.663576],"type":"Point"},"properties":{"osm_id":"9105409544","tag":{"amenity":"waste_basket"}},"type":"Feature"},
	{"geometry":{"coordinates":[2.567387,48.663229],"type":"Point"},"properties":{"osm_id":"9105415405","tag":{"amenity":"recycling","recycling_type":"container"}},"type":"Feature"},
	{"geometry":{"coordinates":[2.56741,48.663224],"type":"Point"},"properties":{"osm_id":"9105415406","tag":{"amenity":"recycling","recycling_type":"container"}},"type":"Feature"},
	{"geometry":{"coordinates":[2.573548,48.668685],"type":"Point"},"properties":{"osm_id":"9111003459","tag":{"amenity":"waste_basket"}},"type":"Feature"},
	{"geometry":{"coordinates":[2.575047,48.664408],"type":"Point"},"properties":{"osm_id":"9111003477","tag":{"amenity":"recycling","recycling:glass_bottles":"yes","recycling_type":"container"}},"type":"Feature"},
	{"geometry":{"coordinates":[2.575018,48.664408],"type":"Point"},"properties":{"osm_id":"9111003478","tag":{"amenity":"recycling","recycling:glass_bottles":"yes","recycling_type":"container"}},"type":"Feature"},
	{"geometry":{"coordinates":[2.58207,48.661707],"type":"Point"},"properties":{"osm_id":"9111474771","tag":{"amenity":"waste_basket"}},"type":"Feature"},
	{"geometry":{"coordinates":[2.578933,48.660804],"type":"Point"},"properties":{"osm_id":"9111474799","tag":{"amenity":"waste_basket"}},"type":"Feature"},
	{"geometry":{"coordinates":[2.578969,48.660402],"type":"Point"},"properties":{"osm_id":"9111474805","tag":{"amenity":"waste_basket"}},"type":"Feature"},
	{"geometry":{"coordinates":[2.57901,48.660255],"type":"Point"},"properties":{"osm_id":"9111474809","tag":{"amenity":"waste_basket"}},"type":"Feature"},
	{"geometry":{"coordinates":[2.579157,48.660268],"type":"Point"},"properties":{"osm_id":"9111474814","tag":{"amenity":"waste_basket"}},"type":"Feature"},
	{"geometry":{"coordinates":[2.57912,48.66042],"type":"Point"},"properties":{"osm_id":"9111474815","tag":{"amenity":"waste_basket"}},"type":"Feature"},
	{"geometry":{"coordinates":[2.579788,48.658237],"type":"Point"},"properties":{"osm_id":"9111654070","tag":{"amenity":"waste_basket"}},"type":"Feature"},
	{"geometry":{"coordinates":[2.577932,48.655638],"type":"Point"},"properties":{"osm_id":"9111667861","tag":{"amenity":"waste_basket"}},"type":"Feature"},
	{"geometry":{"coordinates":[2.575793,48.654479],"type":"Point"},"properties":{"osm_id":"9111816616","tag":{"amenity":"recycling","recycling:clothes":"yes","recycling_type":"container"}},"type":"Feature"},
	{"geometry":{"coordinates":[2.572931,48.65378],"type":"Point"},"properties":{"osm_id":"9111833727","tag":{"amenity":"recycling","recycling:glass_bottles":"yes","recycling_type":"container"}},"type":"Feature"},
	{"geometry":{"coordinates":[2.572913,48.65378],"type":"Point"},"properties":{"osm_id":"9111833728","tag":{"amenity":"recycling","recycling:glass_bottles":"yes","recycling_type":"container"}},"type":"Feature"},
	{"geometry":{"coordinates":[2.549278,48.666384],"type":"Point"},"properties":{"osm_id":"9112532950","tag":{"amenity":"waste_basket"}},"type":"Feature"},
	{"geometry":{"coordinates":[2.571551,48.659769],"type":"Point"},"properties":{"osm_id":"9117544580","tag":{"amenity":"waste_basket"}},"type":"Feature"},
	{"geometry":{"coordinates":[2.569014,48.657818],"type":"Point"},"properties":{"osm_id":"9118524130","tag":{"amenity":"recycling","operator":"SIVOM","recycling:glass_bottles":"yes","recycling_type":"container"}},"type":"Feature"},
	{"geometry":{"coordinates":[2.568859,48.656956],"type":"Point"},"properties":{"osm_id":"9118524146","tag":{"amenity":"waste_basket"}},"type":"Feature"},
	{"geometry":{"coordinates":[2.571031,48.655808],"type":"Point"},"properties":{"osm_id":"9119964731","tag":{"amenity":"waste_basket"}},"type":"Feature"},
	{"geometry":{"coordinates":[2.571252,48.655807],"type":"Point"},"properties":{"osm_id":"9119964732","tag":{"amenity":"waste_basket"}},"type":"Feature"},
	{"geometry":{"coordinates":[2.561722,48.652863],"type":"Point"},"properties":{"osm_id":"9120503512","tag":{"amenity":"recycling","operator":"SIVOM","recycling:glass_bottles":"yes","recycling_type":"container"}},"type":"Feature"},
	{"geometry":{"coordinates":[2.561716,48.652881],"type":"Point"},"properties":{"osm_id":"9120503513","tag":{"amenity":"recycling","operator":"SIVOM","recycling:glass_bottles":"yes","recycling_type":"container"}},"type":"Feature"},
	{"geometry":{"coordinates":[2.561708,48.652901],"type":"Point"},"properties":{"osm_id":"9120503514","tag":{"amenity":"recycling","operator":"SIVOM","recycling:glass_bottles":"yes","recycling_type":"container"}},"type":"Feature"},
	{"geometry":{"coordinates":[2.557945,48.659538],"type":"Point"},"properties":{"osm_id":"9120564319","tag":{"amenity":"waste_basket"}},"type":"Feature"},
	{"geometry":{"coordinates":[2.55834,48.660786],"type":"Point"},"properties":{"osm_id":"9120564320","tag":{"amenity":"waste_basket"}},"type":"Feature"},
	{"geometry":{"coordinates":[2.557747,48.659667],"type":"Point"},"properties":{"osm_id":"9120564325","tag":{"amenity":"waste_basket"}},"type":"Feature"},
	{"geometry":{"coordinates":[2.558271,48.657614],"type":"Point"},"properties":{"osm_id":"9120564326","tag":{"amenity":"waste_basket"}},"type":"Feature"},
	{"geometry":{"coordinates":[2.558434,48.660332],"type":"Point"},"properties":{"osm_id":"9120564333","tag":{"amenity":"waste_basket"}},"type":"Feature"},
	{"geometry":{"coordinates":[2.55848,48.660321],"type":"Point"},"properties":{"osm_id":"9120564333","tag":{"amenity":"waste_basket"}},"type":"Feature"},
	{"geometry":{"coordinates":[2.558584,48.660366],"type":"Point"},"properties":{"osm_id":"9120564335","tag":{"amenity":"waste_basket"}},"type":"Feature"},
	{"geometry":{"coordinates":[2.557651,48.657891],"type":"Point"},"properties":{"osm_id":"9120654724","tag":{"amenity":"waste_basket"}},"type":"Feature"},
	{"geometry":{"coordinates":[2.566933,48.65832],"type":"Point"},"properties":{"osm_id":"9120998237","tag":{"amenity":"waste_basket"}},"type":"Feature"},
	{"geometry":{"coordinates":[2.564909,48.659701],"type":"Point"},"properties":{"osm_id":"9120998248","tag":{"amenity":"waste_basket"}},"type":"Feature"},
	{"geometry":{"coordinates":[2.564891,48.659553],"type":"Point"},"properties":{"osm_id":"9120998249","tag":{"amenity":"waste_basket"}},"type":"Feature"},
	{"geometry":{"coordinates":[2.564855,48.659509],"type":"Point"},"properties":{"osm_id":"9120998250","tag":{"amenity":"waste_basket"}},"type":"Feature"},
	{"geometry":{"coordinates":[2.564648,48.659477],"type":"Point"},"properties":{"osm_id":"9120998252","tag":{"amenity":"waste_basket"}},"type":"Feature"},
	{"geometry":{"coordinates":[2.564242,48.659462],"type":"Point"},"properties":{"osm_id":"9120998255","tag":{"amenity":"waste_basket"}},"type":"Feature"},
	{"geometry":{"coordinates":[2.564085,48.659466],"type":"Point"},"properties":{"osm_id":"9120998256","tag":{"amenity":"waste_basket"}},"type":"Feature"},
	{"geometry":{"coordinates":[2.563704,48.659584],"type":"Point"},"properties":{"osm_id":"9120998257","tag":{"amenity":"recycling","operator":"SIVOM","recycling:glass_bottles":"yes","recycling_type":"container"}},"type":"Feature"},
	{"geometry":{"coordinates":[2.563723,48.659571],"type":"Point"},"properties":{"osm_id":"9120998258","tag":{"amenity":"recycling","operator":"SIVOM","recycling:glass_bottles":"yes","recycling_type":"container"}},"type":"Feature"},
	{"geometry":{"coordinates":[2.563695,48.659562],"type":"Point"},"properties":{"osm_id":"9120998259","tag":{"amenity":"recycling","operator":"SIVOM","recycling:glass_bottles":"yes","recycling_type":"container"}},"type":"Feature"},
	{"geometry":{"coordinates":[2.561103,48.657834],"type":"Point"},"properties":{"osm_id":"9121261757","tag":{"amenity":"waste_basket"}},"type":"Feature"},
	{"geometry":{"coordinates":[2.562748,48.65703],"type":"Point"},"properties":{"osm_id":"9121261760","tag":{"amenity":"waste_basket"}},"type":"Feature"},
	{"geometry":{"coordinates":[2.564529,48.657229],"type":"Point"},"properties":{"osm_id":"9121261776","tag":{"amenity":"waste_basket"}},"type":"Feature"},
	{"geometry":{"coordinates":[2.562364,48.659049],"type":"Point"},"properties":{"osm_id":"9121261928","tag":{"amenity":"waste_basket"}},"type":"Feature"}
]
}
