{
"type": "FeatureCollection",
"features": [
	{"geometry":{"coordinates":[2.556861,48.631999],"type":"Point"},"properties":{"osm_id":"674926771","tag":{"amenity":"recycling"}},"type":"Feature"},
	{"geometry":{"coordinates":[2.58466,48.623842],"type":"Point"},"properties":{"osm_id":"942493665","tag":{"amenity":"recycling","recycling:glass":"yes"}},"type":"Feature"},
	{"geometry":{"coordinates":[2.585229,48.621614],"type":"Point"},"properties":{"osm_id":"2124534860","tag":{"amenity":"recycling","recycling:glass_bottles":"yes","recycling_type":"container"}},"type":"Feature"},
	{"geometry":{"coordinates":[2.55302,48.627137],"type":"Point"},"properties":{"osm_id":"2547105541","tag":{"amenity":"recycling","comment":"R\u00c3\u00a9cup\u00c3\u00a9ration du verre","recycling:cans":"no","recycling:clothes":"no","recycling:glass_bottles":"yes","recycling:paper":"yes","recycling_type":"container","website":"http://www.lombric.com/"}},"type":"Feature"},
	{"geometry":{"coordinates":[2.548952,48.631263],"type":"Point"},"properties":{"name":"Point d'apport volontaire","osm_id":"2547105542","tag":{"amenity":"recycling","recycling:cans":"no","recycling:clothes":"no","recycling:glass":"yes","recycling:paper":"yes","website":"http://www.lombric.com/"}},"type":"Feature"},
	{"geometry":{"coordinates":[2.575295,48.62892],"type":"Point"},"properties":{"osm_id":"2558783334","tag":{"amenity":"recycling","recycling:glass":"yes","recycling_type":"container"}},"type":"Feature"},
	{"geometry":{"coordinates":[2.58417,48.594828],"type":"Point"},"properties":{"osm_id":"2697744174","tag":{"amenity":"waste_basket","level":"1"}},"type":"Feature"},
	{"geometry":{"coordinates":[2.584384,48.594867],"type":"Point"},"properties":{"osm_id":"2697744175","tag":{"amenity":"waste_basket","level":"1"}},"type":"Feature"},
	{"geometry":{"coordinates":[2.584283,48.595082],"type":"Point"},"properties":{"osm_id":"2697744182","tag":{"amenity":"waste_basket","level":"1"}},"type":"Feature"},
	{"geometry":{"coordinates":[2.584202,48.595248],"type":"Point"},"properties":{"osm_id":"2697744184","tag":{"amenity":"waste_basket","level":"1"}},"type":"Feature"},
	{"geometry":{"coordinates":[2.58397,48.595275],"type":"Point"},"properties":{"osm_id":"2697744185","tag":{"amenity":"waste_basket","level":"1"}},"type":"Feature"},
	{"geometry":{"coordinates":[2.584149,48.595348],"type":"Point"},"properties":{"osm_id":"2697744190","tag":{"amenity":"waste_basket","level":"1"}},"type":"Feature"},
	{"geometry":{"coordinates":[2.583608,48.595349],"type":"Point"},"properties":{"osm_id":"2697744191","tag":{"amenity":"waste_basket","level":"0"}},"type":"Feature"},
	{"geometry":{"coordinates":[2.583643,48.595397],"type":"Point"},"properties":{"osm_id":"2697744195","tag":{"amenity":"waste_basket","level":"0"}},"type":"Feature"},
	{"geometry":{"coordinates":[2.583379,48.595426],"type":"Point"},"properties":{"osm_id":"2697744205","tag":{"amenity":"waste_basket","level":"0"}},"type":"Feature"},
	{"geometry":{"coordinates":[2.583994,48.595481],"type":"Point"},"properties":{"osm_id":"2697744221","tag":{"amenity":"waste_basket","layer":"-1","level":"0"}},"type":"Feature"},
	{"geometry":{"coordinates":[2.583873,48.595486],"type":"Point"},"properties":{"osm_id":"2697744225","tag":{"amenity":"waste_basket","level":"1"}},"type":"Feature"},
	{"geometry":{"coordinates":[2.584388,48.595501],"type":"Point"},"properties":{"osm_id":"2697744230","tag":{"amenity":"waste_basket","level":"0"}},"type":"Feature"},
	{"geometry":{"coordinates":[2.584069,48.595509],"type":"Point"},"properties":{"osm_id":"2697744231","tag":{"amenity":"waste_basket","level":"1"}},"type":"Feature"},
	{"geometry":{"coordinates":[2.583833,48.595525],"type":"Point"},"properties":{"osm_id":"2697744236","tag":{"amenity":"waste_basket","layer":"-1","level":"0"}},"type":"Feature"},
	{"geometry":{"coordinates":[2.583704,48.595564],"type":"Point"},"properties":{"osm_id":"2697744242","tag":{"amenity":"waste_basket","layer":"-1","level":"0"}},"type":"Feature"},
	{"geometry":{"coordinates":[2.584305,48.595603],"type":"Point"},"properties":{"osm_id":"2697744253","tag":{"amenity":"waste_basket","level":"0"}},"type":"Feature"},
	{"geometry":{"coordinates":[2.583769,48.595734],"type":"Point"},"properties":{"osm_id":"2697744261","tag":{"amenity":"waste_basket","level":"1"}},"type":"Feature"},
	{"geometry":{"coordinates":[2.583965,48.595758],"type":"Point"},"properties":{"osm_id":"2697744263","tag":{"amenity":"waste_basket","level":"1"}},"type":"Feature"},
	{"geometry":{"coordinates":[2.583741,48.595802],"type":"Point"},"properties":{"osm_id":"2697744267","tag":{"amenity":"waste_basket","level":"1"}},"type":"Feature"},
	{"geometry":{"coordinates":[2.583697,48.595897],"type":"Point"},"properties":{"osm_id":"2697744279","tag":{"amenity":"waste_basket","level":"1"}},"type":"Feature"},
	{"geometry":{"coordinates":[2.584384,48.595909],"type":"Point"},"properties":{"osm_id":"2697744281","tag":{"amenity":"waste_basket"}},"type":"Feature"},
	{"geometry":{"coordinates":[2.583889,48.595931],"type":"Point"},"properties":{"osm_id":"2697744284","tag":{"amenity":"waste_basket","level":"1"}},"type":"Feature"},
	{"geometry":{"coordinates":[2.584493,48.596037],"type":"Point"},"properties":{"osm_id":"2697744323","tag":{"amenity":"waste_basket"}},"type":"Feature"},
	{"geometry":{"coordinates":[2.583559,48.596217],"type":"Point"},"properties":{"osm_id":"2697744335","tag":{"amenity":"waste_basket","level":"1"}},"type":"Feature"},
	{"geometry":{"coordinates":[2.583512,48.596313],"type":"Point"},"properties":{"osm_id":"2697744338","tag":{"amenity":"waste_basket","level":"1"}},"type":"Feature"},
	{"geometry":{"coordinates":[2.568866,48.627391],"type":"Point"},"properties":{"osm_id":"2697749783","tag":{"amenity":"waste_basket","layer":"1"}},"type":"Feature"},
	{"geometry":{"coordinates":[2.5692,48.627469],"type":"Point"},"properties":{"osm_id":"2697749788","tag":{"amenity":"waste_basket","layer":"1"}},"type":"Feature"},
	{"geometry":{"coordinates":[2.568818,48.627523],"type":"Point"},"properties":{"osm_id":"2697749795","tag":{"amenity":"waste_basket","layer":"1"}},"type":"Feature"},
	{"geometry":{"coordinates":[2.568794,48.627588],"type":"Point"},"properties":{"osm_id":"2697749800","tag":{"amenity":"waste_basket","layer":"1"}},"type":"Feature"},
	{"geometry":{"coordinates":[2.569134,48.627688],"type":"Point"},"properties":{"osm_id":"2697749810","tag":{"amenity":"waste_basket","layer":"1"}},"type":"Feature"},
	{"geometry":{"coordinates":[2.568737,48.627738],"type":"Point"},"properties":{"osm_id":"2697749817","tag":{"amenity":"waste_basket","layer":"1"}},"type":"Feature"},
	{"geometry":{"coordinates":[2.569691,48.62774],"type":"Point"},"properties":{"osm_id":"2697749818","tag":{"amenity":"waste_basket"}},"type":"Feature"},
	{"geometry":{"coordinates":[2.568689,48.627863],"type":"Point"},"properties":{"osm_id":"2697749840","tag":{"amenity":"waste_basket","layer":"1"}},"type":"Feature"},
	{"geometry":{"coordinates":[2.569575,48.628012],"type":"Point"},"properties":{"osm_id":"2697749856","tag":{"amenity":"waste_basket"}},"type":"Feature"},
	{"geometry":{"coordinates":[2.568999,48.628038],"type":"Point"},"properties":{"osm_id":"2697749859","tag":{"amenity":"waste_basket","layer":"1"}},"type":"Feature"},
	{"geometry":{"coordinates":[2.569564,48.628063],"type":"Point"},"properties":{"osm_id":"2697749861","tag":{"amenity":"waste_basket"}},"type":"Feature"},
	{"geometry":{"coordinates":[2.56974,48.628117],"type":"Point"},"properties":{"osm_id":"2697749873","tag":{"amenity":"waste_basket"}},"type":"Feature"},
	{"geometry":{"coordinates":[2.568913,48.628227],"type":"Point"},"properties":{"osm_id":"2697749894","tag":{"amenity":"waste_basket","layer":"1"}},"type":"Feature"},
	{"geometry":{"coordinates":[2.569475,48.6283],"type":"Point"},"properties":{"osm_id":"2697749914","tag":{"amenity":"waste_basket"}},"type":"Feature"},
	{"geometry":{"coordinates":[2.569222,48.628313],"type":"Point"},"properties":{"osm_id":"2697749918","tag":{"amenity":"waste_basket","layer":"1"}},"type":"Feature"},
	{"geometry":{"coordinates":[2.569669,48.628326],"type":"Point"},"properties":{"osm_id":"2697749924","tag":{"amenity":"waste_basket"}},"type":"Feature"},
	{"geometry":{"coordinates":[2.569103,48.628331],"type":"Point"},"properties":{"osm_id":"2697749927","tag":{"amenity":"waste_basket","layer":"1"}},"type":"Feature"},
	{"geometry":{"coordinates":[2.569295,48.628359],"type":"Point"},"properties":{"osm_id":"2697749936","tag":{"amenity":"waste_basket","layer":"1"}},"type":"Feature"},
	{"geometry":{"coordinates":[2.56954,48.628367],"type":"Point"},"properties":{"osm_id":"2697749941","tag":{"amenity":"waste_basket","layer":"1"}},"type":"Feature"},
	{"geometry":{"coordinates":[2.570442,48.628404],"type":"Point"},"properties":{"osm_id":"2697749958","tag":{"amenity":"waste_basket","layer":"1"}},"type":"Feature"},
	{"geometry":{"coordinates":[2.569914,48.628421],"type":"Point"},"properties":{"osm_id":"2697749969","tag":{"amenity":"waste_basket","layer":"1"}},"type":"Feature"},
	{"geometry":{"coordinates":[2.56974,48.62843],"type":"Point"},"properties":{"osm_id":"2697749981","tag":{"amenity":"waste_basket","layer":"1"}},"type":"Feature"},
	{"geometry":{"coordinates":[2.568934,48.628485],"type":"Point"},"properties":{"osm_id":"2697750059","tag":{"amenity":"waste_basket","layer":"1"}},"type":"Feature"},
	{"geometry":{"coordinates":[2.570285,48.628513],"type":"Point"},"properties":{"osm_id":"2697750067","tag":{"amenity":"waste_basket","layer":"1"}},"type":"Feature"},
	{"geometry":{"coordinates":[2.570424,48.628557],"type":"Point"},"properties":{"osm_id":"2697750086","tag":{"amenity":"waste_basket","layer":"1"}},"type":"Feature"},
	{"geometry":{"coordinates":[2.568071,48.628652],"type":"Point"},"properties":{"osm_id":"2697750120","tag":{"amenity":"waste_basket","layer":"1"}},"type":"Feature"},
	{"geometry":{"coordinates":[2.567895,48.62868],"type":"Point"},"properties":{"osm_id":"2697750165","tag":{"amenity":"waste_basket","layer":"1"}},"type":"Feature"},
	{"geometry":{"coordinates":[2.568032,48.628839],"type":"Point"},"properties":{"osm_id":"2697750203","tag":{"amenity":"waste_basket","layer":"1"}},"type":"Feature"},
	{"geometry":{"coordinates":[2.569497,48.628843],"type":"Point"},"properties":{"osm_id":"2697750210","tag":{"amenity":"waste_basket"}},"type":"Feature"},
	{"geometry":{"coordinates":[2.569255,48.628866],"type":"Point"},"properties":{"osm_id":"2697750226","tag":{"amenity":"waste_basket"}},"type":"Feature"},
	{"geometry":{"coordinates":[2.567797,48.628868],"type":"Point"},"properties":{"osm_id":"2697750230","tag":{"amenity":"waste_basket","layer":"1"}},"type":"Feature"},
	{"geometry":{"coordinates":[2.56943,48.62899],"type":"Point"},"properties":{"osm_id":"2697750277","tag":{"amenity":"waste_basket"}},"type":"Feature"},
	{"geometry":{"coordinates":[2.56918,48.629026],"type":"Point"},"properties":{"osm_id":"2697750305","tag":{"amenity":"waste_basket"}},"type":"Feature"},
	{"geometry":{"coordinates":[2.569135,48.629145],"type":"Point"},"properties":{"osm_id":"2697750335","tag":{"amenity":"waste_basket"}},"type":"Feature"},
	{"geometry":{"coordinates":[2.569354,48.629216],"type":"Point"},"properties":{"osm_id":"2697750348","tag":{"amenity":"waste_basket"}},"type":"Feature"},
	{"geometry":{"coordinates":[2.569069,48.629274],"type":"Point"},"properties":{"osm_id":"2697750358","tag":{"amenity":"waste_basket"}},"type":"Feature"},
	{"geometry":{"coordinates":[2.568944,48.629561],"type":"Point"},"properties":{"osm_id":"2697750416","tag":{"amenity":"waste_basket"}},"type":"Feature"},
	{"geometry":{"coordinates":[2.584792,48.627686],"type":"Point"},"properties":{"osm_id":"3544954290","tag":{"amenity":"recycling","location":"overground","recycling:cans":"no","recycling:clothes":"no","recycling:glass":"yes","recycling:paper":"no","recycling_type":"container"}},"type":"Feature"},
	{"geometry":{"coordinates":[2.589459,48.629059],"type":"Point"},"properties":{"osm_id":"7377517476","tag":{"amenity":"waste_basket"}},"type":"Feature"},
	{"geometry":{"coordinates":[2.589799,48.628987],"type":"Point"},"properties":{"osm_id":"7377517477","tag":{"amenity":"waste_basket"}},"type":"Feature"},
	{"geometry":{"coordinates":[2.589992,48.629088],"type":"Point"},"properties":{"osm_id":"7377517481","tag":{"amenity":"waste_basket"}},"type":"Feature"},
	{"geometry":{"coordinates":[2.589628,48.628606],"type":"Point"},"properties":{"osm_id":"7377546515","tag":{"amenity":"waste_basket"}},"type":"Feature"},
	{"geometry":{"coordinates":[2.589026,48.630447],"type":"Point"},"properties":{"osm_id":"7377620578","tag":{"amenity":"recycling","level":"0","recycling:clothes":"yes","recycling:glass":"yes","recycling:glass_bottles":"yes","recycling_type":"container"}},"type":"Feature"},
	{"geometry":{"coordinates":[2.588638,48.629413],"type":"Point"},"properties":{"osm_id":"7377653905","tag":{"amenity":"waste_basket","material":"metal"}},"type":"Feature"},
	{"geometry":{"coordinates":[2.589334,48.629494],"type":"Point"},"properties":{"osm_id":"7377653906","tag":{"amenity":"waste_basket"}},"type":"Feature"},
	{"geometry":{"coordinates":[2.585999,48.627327],"type":"Point"},"properties":{"osm_id":"7377993476","tag":{"amenity":"waste_basket"}},"type":"Feature"},
	{"geometry":{"coordinates":[2.588905,48.627893],"type":"Point"},"properties":{"osm_id":"7377993479","tag":{"amenity":"recycling","recycling:glass":"yes","recycling_type":"container"}},"type":"Feature"},
	{"geometry":{"coordinates":[2.594845,48.63258],"type":"Point"},"properties":{"osm_id":"7378704941","tag":{"amenity":"recycling","recycling:glass":"yes","recycling_type":"container"}},"type":"Feature"},
	{"geometry":{"coordinates":[2.6002,48.630457],"type":"Point"},"properties":{"osm_id":"7378704944","tag":{"amenity":"recycling","recycling:glass":"yes","recycling:glass_bottles":"yes","recycling_type":"container"}},"type":"Feature"},
	{"geometry":{"coordinates":[2.59651,48.627845],"type":"Point"},"properties":{"osm_id":"7378912896","tag":{"amenity":"waste_basket"}},"type":"Feature"},
	{"geometry":{"coordinates":[2.578064,48.632393],"type":"Point"},"properties":{"osm_id":"7379098257","tag":{"amenity":"recycling","recycling:glass_bottles":"yes","recycling_type":"container"}},"type":"Feature"},
	{"geometry":{"coordinates":[2.589636,48.630978],"type":"Point"},"properties":{"osm_id":"7379611307","tag":{"amenity":"waste_basket"}},"type":"Feature"},
	{"geometry":{"coordinates":[2.578209,48.63078],"type":"Point"},"properties":{"osm_id":"7385886218","tag":{"amenity":"waste_basket","material":"steel"}},"type":"Feature"},
	{"geometry":{"coordinates":[2.576164,48.628938],"type":"Point"},"properties":{"osm_id":"7385947872","tag":{"amenity":"waste_basket"}},"type":"Feature"},
	{"geometry":{"coordinates":[2.591351,48.627842],"type":"Point"},"properties":{"osm_id":"7386384092","tag":{"amenity":"recycling","recycling:glass_bottles":"yes","recycling_type":"container"}},"type":"Feature"},
	{"geometry":{"coordinates":[2.605978,48.596835],"type":"Point"},"properties":{"osm_id":"7387122180","tag":{"amenity":"recycling","recycling_type":"centre"}},"type":"Feature"},
	{"geometry":{"coordinates":[2.577898,48.63214],"type":"Point"},"properties":{"osm_id":"7397738380","tag":{"amenity":"recycling","recycling:glass":"yes","recycling:glass_bottles":"yes","recycling_type":"container"}},"type":"Feature"},
	{"geometry":{"coordinates":[2.577936,48.631234],"type":"Point"},"properties":{"osm_id":"7397738381","tag":{"amenity":"waste_basket"}},"type":"Feature"},
	{"geometry":{"coordinates":[2.582683,48.629421],"type":"Point"},"properties":{"osm_id":"7397738384","tag":{"amenity":"recycling","recycling:glass":"yes","recycling:glass_bottles":"yes","recycling_type":"container"}},"type":"Feature"},
	{"geometry":{"coordinates":[2.595654,48.630133],"type":"Point"},"properties":{"osm_id":"7402449048","tag":{"amenity":"waste_basket","material":"metal"}},"type":"Feature"},
	{"geometry":{"coordinates":[2.596083,48.631447],"type":"Point"},"properties":{"osm_id":"7402449050","tag":{"amenity":"waste_basket","material":"metal"}},"type":"Feature"},
	{"geometry":{"coordinates":[2.595534,48.632088],"type":"Point"},"properties":{"osm_id":"7402449051","tag":{"amenity":"waste_basket","material":"metal"}},"type":"Feature"},
	{"geometry":{"coordinates":[2.5952,48.632432],"type":"Point"},"properties":{"osm_id":"7402449054","tag":{"amenity":"waste_basket"}},"type":"Feature"},
	{"geometry":{"coordinates":[2.59898,48.625993],"type":"Point"},"properties":{"osm_id":"7402449060","tag":{"amenity":"waste_basket"}},"type":"Feature"},
	{"geometry":{"coordinates":[2.59622,48.625838],"type":"Point"},"properties":{"osm_id":"7402449066","tag":{"amenity":"recycling","recycling:glass":"yes","recycling:glass_bottles":"yes","recycling_type":"container"}},"type":"Feature"},
	{"geometry":{"coordinates":[2.5936,48.626237],"type":"Point"},"properties":{"osm_id":"7402449069","tag":{"amenity":"waste_basket"}},"type":"Feature"},
	{"geometry":{"coordinates":[2.587014,48.624905],"type":"Point"},"properties":{"osm_id":"7402449073","tag":{"amenity":"waste_basket"}},"type":"Feature"},
	{"geometry":{"coordinates":[2.56228,48.630712],"type":"Point"},"properties":{"osm_id":"7518017606","tag":{"amenity":"recycling","opening_hours":"24/7","opening_hours:covid19":"open","recycling:glass":"yes","recycling:glass_bottles":"yes","recycling_type":"container"}},"type":"Feature"},
	{"geometry":{"coordinates":[2.561536,48.631184],"type":"Point"},"properties":{"osm_id":"7518017609","tag":{"amenity":"waste_basket"}},"type":"Feature"},
	{"geometry":{"coordinates":[2.561881,48.631276],"type":"Point"},"properties":{"osm_id":"7518017610","tag":{"amenity":"waste_basket"}},"type":"Feature"},
	{"geometry":{"coordinates":[2.561286,48.632448],"type":"Point"},"properties":{"osm_id":"7518017611","tag":{"amenity":"waste_basket"}},"type":"Feature"}
]
}
