{
"type": "FeatureCollection",
"features": [
	{"geometry":{"coordinates":[2.635691,48.543933],"type":"Point"},"properties":{"osm_id":"670099008","tag":{"amenity":"recycling"}},"type":"Feature"},
	{"geometry":{"coordinates":[2.63631,48.543458],"type":"Point"},"properties":{"osm_id":"671766002","tag":{"amenity":"recycling"}},"type":"Feature"},
	{"geometry":{"coordinates":[2.635931,48.542974],"type":"Point"},"properties":{"osm_id":"671766003","tag":{"amenity":"recycling"}},"type":"Feature"},
	{"geometry":{"coordinates":[2.634915,48.545422],"type":"Point"},"properties":{"osm_id":"671766005","tag":{"amenity":"recycling"}},"type":"Feature"},
	{"geometry":{"coordinates":[2.613161,48.567007],"type":"Point"},"properties":{"osm_id":"1077648076","tag":{"amenity":"recycling","location":"underground","recycling:clothes":"yes","recycling:glass":"yes","recycling:paper":"yes","recycling_type":"container"}},"type":"Feature"},
	{"geometry":{"coordinates":[2.613177,48.560474],"type":"Point"},"properties":{"osm_id":"1078775437","tag":{"amenity":"recycling","location":"underground","recycling:cans":"no","recycling:clothes":"yes","recycling:glass":"yes","recycling:glass_bottles":"yes","recycling:paper":"no","recycling:plastic":"no","recycling_type":"container"}},"type":"Feature"},
	{"geometry":{"coordinates":[2.620282,48.563586],"type":"Point"},"properties":{"osm_id":"1091536358","tag":{"amenity":"recycling","location":"underground","recycling:clothes":"yes","recycling:glass":"yes","recycling:paper":"yes","recycling_type":"container"}},"type":"Feature"},
	{"geometry":{"coordinates":[2.610941,48.564185],"type":"Point"},"properties":{"osm_id":"1091536408","tag":{"amenity":"recycling","recycling:clothes":"yes","recycling:glass_bottles":"yes","recycling_type":"container"}},"type":"Feature"},
	{"geometry":{"coordinates":[2.567572,48.564498],"type":"Point"},"properties":{"osm_id":"1255947754","tag":{"amenity":"recycling","recycling:glass":"yes"}},"type":"Feature"},
	{"geometry":{"coordinates":[2.627279,48.53671],"type":"Point"},"properties":{"osm_id":"1563512462","tag":{"amenity":"recycling"}},"type":"Feature"},
	{"geometry":{"coordinates":[2.625759,48.537712],"type":"Point"},"properties":{"osm_id":"1563512534","tag":{"amenity":"recycling"}},"type":"Feature"},
	{"geometry":{"coordinates":[2.629325,48.540999],"type":"Point"},"properties":{"osm_id":"1817657761","tag":{"amenity":"recycling","recycling_type":"container"}},"type":"Feature"},
	{"geometry":{"coordinates":[2.634258,48.54417],"type":"Point"},"properties":{"osm_id":"1817838863","tag":{"amenity":"recycling","recycling_type":"container"}},"type":"Feature"},
	{"geometry":{"coordinates":[2.628364,48.538228],"type":"Point"},"properties":{"osm_id":"1836817456","tag":{"amenity":"recycling","recycling_type":"container"}},"type":"Feature"},
	{"geometry":{"coordinates":[2.627964,48.531626],"type":"Point"},"properties":{"osm_id":"2091582879","tag":{"amenity":"recycling"}},"type":"Feature"},
	{"geometry":{"coordinates":[2.572808,48.529346],"type":"Point"},"properties":{"osm_id":"2679385851","tag":{"amenity":"waste_basket"}},"type":"Feature"},
	{"geometry":{"coordinates":[2.5728,48.529382],"type":"Point"},"properties":{"osm_id":"2679385855","tag":{"amenity":"waste_basket"}},"type":"Feature"},
	{"geometry":{"coordinates":[2.572618,48.529459],"type":"Point"},"properties":{"osm_id":"2679385881","tag":{"amenity":"waste_basket"}},"type":"Feature"},
	{"geometry":{"coordinates":[2.594996,48.563372],"type":"Point"},"properties":{"osm_id":"2697589302","tag":{"amenity":"waste_basket"}},"type":"Feature"},
	{"geometry":{"coordinates":[2.595099,48.563478],"type":"Point"},"properties":{"osm_id":"2697589306","tag":{"amenity":"waste_basket"}},"type":"Feature"},
	{"geometry":{"coordinates":[2.595687,48.563583],"type":"Point"},"properties":{"osm_id":"2697589308","tag":{"amenity":"waste_basket"}},"type":"Feature"},
	{"geometry":{"coordinates":[2.595092,48.563858],"type":"Point"},"properties":{"osm_id":"2697589316","tag":{"amenity":"waste_basket"}},"type":"Feature"},
	{"geometry":{"coordinates":[2.594978,48.56405],"type":"Point"},"properties":{"osm_id":"2697589322","tag":{"amenity":"waste_basket"}},"type":"Feature"},
	{"geometry":{"coordinates":[2.594773,48.564406],"type":"Point"},"properties":{"osm_id":"2697589329","tag":{"amenity":"waste_basket"}},"type":"Feature"},
	{"geometry":{"coordinates":[2.59483,48.564645],"type":"Point"},"properties":{"osm_id":"2697589331","tag":{"amenity":"waste_basket"}},"type":"Feature"},
	{"geometry":{"coordinates":[2.594537,48.564836],"type":"Point"},"properties":{"osm_id":"2697589339","tag":{"amenity":"waste_basket"}},"type":"Feature"},
	{"geometry":{"coordinates":[2.594667,48.564996],"type":"Point"},"properties":{"osm_id":"2697589356","tag":{"amenity":"waste_basket"}},"type":"Feature"},
	{"geometry":{"coordinates":[2.594366,48.565185],"type":"Point"},"properties":{"osm_id":"2697589375","tag":{"amenity":"waste_basket"}},"type":"Feature"},
	{"geometry":{"coordinates":[2.594503,48.565333],"type":"Point"},"properties":{"osm_id":"2697589393","tag":{"amenity":"waste_basket"}},"type":"Feature"},
	{"geometry":{"coordinates":[2.594244,48.565434],"type":"Point"},"properties":{"osm_id":"2697589403","tag":{"amenity":"waste_basket"}},"type":"Feature"},
	{"geometry":{"coordinates":[2.594695,48.565451],"type":"Point"},"properties":{"osm_id":"2697589406","tag":{"amenity":"waste_basket"}},"type":"Feature"},
	{"geometry":{"coordinates":[2.594052,48.565456],"type":"Point"},"properties":{"osm_id":"2697589408","tag":{"amenity":"waste_basket"}},"type":"Feature"},
	{"geometry":{"coordinates":[2.594235,48.565458],"type":"Point"},"properties":{"osm_id":"2697589410","tag":{"amenity":"waste_basket"}},"type":"Feature"},
	{"geometry":{"coordinates":[2.594211,48.565518],"type":"Point"},"properties":{"osm_id":"2697589421","tag":{"amenity":"waste_basket"}},"type":"Feature"},
	{"geometry":{"coordinates":[2.594394,48.565561],"type":"Point"},"properties":{"osm_id":"2697589427","tag":{"amenity":"waste_basket"}},"type":"Feature"},
	{"geometry":{"coordinates":[2.593876,48.56567],"type":"Point"},"properties":{"osm_id":"2697589451","tag":{"amenity":"waste_basket"}},"type":"Feature"},
	{"geometry":{"coordinates":[2.594049,48.565919],"type":"Point"},"properties":{"osm_id":"2697589469","tag":{"amenity":"waste_basket"}},"type":"Feature"},
	{"geometry":{"coordinates":[2.627271,48.537614],"type":"Point"},"properties":{"osm_id":"2709065415","tag":{"amenity":"waste_basket"}},"type":"Feature"},
	{"geometry":{"coordinates":[2.625941,48.538395],"type":"Point"},"properties":{"osm_id":"2709065427","tag":{"amenity":"waste_basket"}},"type":"Feature"},
	{"geometry":{"coordinates":[2.625741,48.538524],"type":"Point"},"properties":{"osm_id":"2709065432","tag":{"amenity":"waste_basket"}},"type":"Feature"},
	{"geometry":{"coordinates":[2.625622,48.538598],"type":"Point"},"properties":{"osm_id":"2709065438","tag":{"amenity":"waste_basket"}},"type":"Feature"},
	{"geometry":{"coordinates":[2.625292,48.538815],"type":"Point"},"properties":{"osm_id":"2709065452","tag":{"amenity":"waste_basket"}},"type":"Feature"},
	{"geometry":{"coordinates":[2.624835,48.539118],"type":"Point"},"properties":{"osm_id":"2709065460","tag":{"amenity":"waste_basket"}},"type":"Feature"},
	{"geometry":{"coordinates":[2.624186,48.539551],"type":"Point"},"properties":{"osm_id":"2709065494","tag":{"amenity":"waste_basket"}},"type":"Feature"},
	{"geometry":{"coordinates":[2.623811,48.539941],"type":"Point"},"properties":{"osm_id":"2709065529","tag":{"amenity":"waste_basket"}},"type":"Feature"},
	{"geometry":{"coordinates":[2.623946,48.540026],"type":"Point"},"properties":{"osm_id":"2709065541","tag":{"amenity":"waste_basket"}},"type":"Feature"},
	{"geometry":{"coordinates":[2.624104,48.540183],"type":"Point"},"properties":{"osm_id":"2709065550","tag":{"amenity":"waste_basket"}},"type":"Feature"},
	{"geometry":{"coordinates":[2.623295,48.539473],"type":"Point"},"properties":{"osm_id":"2710152683","tag":{"amenity":"waste_basket"}},"type":"Feature"},
	{"geometry":{"coordinates":[2.626212,48.538413],"type":"Point"},"properties":{"osm_id":"2710163407","tag":{"amenity":"waste_basket"}},"type":"Feature"},
	{"geometry":{"coordinates":[2.625819,48.538669],"type":"Point"},"properties":{"osm_id":"2710165773","tag":{"amenity":"waste_basket"}},"type":"Feature"},
	{"geometry":{"coordinates":[2.625401,48.538944],"type":"Point"},"properties":{"osm_id":"2710165777","tag":{"amenity":"waste_basket"}},"type":"Feature"},
	{"geometry":{"coordinates":[2.624788,48.539356],"type":"Point"},"properties":{"osm_id":"2710169934","tag":{"amenity":"waste_basket"}},"type":"Feature"},
	{"geometry":{"coordinates":[2.635997,48.517803],"type":"Point"},"properties":{"osm_id":"5216254866","tag":{"amenity":"waste_basket"}},"type":"Feature"},
	{"geometry":{"coordinates":[2.631871,48.518776],"type":"Point"},"properties":{"osm_id":"5216254867","tag":{"amenity":"waste_basket"}},"type":"Feature"},
	{"geometry":{"coordinates":[2.631915,48.517536],"type":"Point"},"properties":{"osm_id":"5216254868","tag":{"amenity":"waste_basket"}},"type":"Feature"},
	{"geometry":{"coordinates":[2.632629,48.517763],"type":"Point"},"properties":{"osm_id":"5218024173","tag":{"amenity":"waste_basket"}},"type":"Feature"},
	{"geometry":{"coordinates":[2.634414,48.51778],"type":"Point"},"properties":{"osm_id":"5218024174","tag":{"amenity":"waste_basket"}},"type":"Feature"},
	{"geometry":{"coordinates":[2.633811,48.517946],"type":"Point"},"properties":{"osm_id":"5218024175","tag":{"amenity":"waste_basket"}},"type":"Feature"},
	{"geometry":{"coordinates":[2.633607,48.517389],"type":"Point"},"properties":{"osm_id":"5218024176","tag":{"amenity":"waste_basket"}},"type":"Feature"},
	{"geometry":{"coordinates":[2.633797,48.517721],"type":"Point"},"properties":{"osm_id":"5219285747","tag":{"amenity":"waste_basket"}},"type":"Feature"},
	{"geometry":{"coordinates":[2.633951,48.518187],"type":"Point"},"properties":{"osm_id":"5219285748","tag":{"amenity":"waste_basket"}},"type":"Feature"},
	{"geometry":{"coordinates":[2.633854,48.517133],"type":"Point"},"properties":{"osm_id":"5219285749","tag":{"amenity":"waste_basket"}},"type":"Feature"},
	{"geometry":{"coordinates":[2.633875,48.51677],"type":"Point"},"properties":{"osm_id":"5219285750","tag":{"amenity":"waste_basket"}},"type":"Feature"},
	{"geometry":{"coordinates":[2.63376,48.51675],"type":"Point"},"properties":{"osm_id":"5219285751","tag":{"amenity":"waste_basket"}},"type":"Feature"},
	{"geometry":{"coordinates":[2.633908,48.520128],"type":"Point"},"properties":{"osm_id":"5238517110","tag":{"amenity":"recycling","recycling:glass_bottles":"yes","recycling_type":"container"}},"type":"Feature"},
	{"geometry":{"coordinates":[2.633841,48.520111],"type":"Point"},"properties":{"osm_id":"5238517111","tag":{"amenity":"recycling","recycling:glass_bottles":"yes","recycling_type":"container"}},"type":"Feature"},
	{"geometry":{"coordinates":[2.633779,48.520095],"type":"Point"},"properties":{"osm_id":"5238517112","tag":{"amenity":"recycling","recycling:paper":"yes","recycling_type":"container"}},"type":"Feature"},
	{"geometry":{"coordinates":[2.629769,48.51663],"type":"Point"},"properties":{"osm_id":"5255386341","tag":{"amenity":"waste_disposal"}},"type":"Feature"},
	{"geometry":{"coordinates":[2.615802,48.561476],"type":"Point"},"properties":{"osm_id":"5751488328","tag":{"amenity":"recycling","recycling:glass":"yes","recycling:glass_bottles":"yes","recycling_type":"container"}},"type":"Feature"},
	{"geometry":{"coordinates":[2.614176,48.531596],"type":"Point"},"properties":{"osm_id":"7093578081","tag":{"amenity":"recycling","operator":"SMITOM-LOMBRIC","operator:type":"public","recycling_type":"centre","website":"http://www.lombric.com/traiter-recycler/installations-de-traitement/decheteries"}},"type":"Feature"},
	{"geometry":{"coordinates":[2.620237,48.571368],"type":"Point"},"properties":{"osm_id":"7416555499","tag":{"amenity":"recycling","recycling:glass":"yes","recycling:glass_bottles":"yes","recycling_type":"container"}},"type":"Feature"},
	{"geometry":{"coordinates":[2.612682,48.565223],"type":"Point"},"properties":{"osm_id":"7877795990","tag":{"amenity":"waste_basket","material":"metal","survey:date":"2020-09-05","waste":"trash"}},"type":"Feature"},
	{"geometry":{"coordinates":[2.612149,48.565466],"type":"Point"},"properties":{"osm_id":"7877797185","tag":{"amenity":"waste_basket","material":"metal","survey:date":"2020-09-05","waste":"trash"}},"type":"Feature"},
	{"geometry":{"coordinates":[2.61353,48.565219],"type":"Point"},"properties":{"osm_id":"7899400089","tag":{"amenity":"waste_basket","material":"metal","survey:date":"2020-09-12","waste":"trash"}},"type":"Feature"},
	{"geometry":{"coordinates":[2.613473,48.56547],"type":"Point"},"properties":{"osm_id":"7899400090","tag":{"amenity":"waste_basket","material":"metal","survey:date":"2020-09-12","waste":"trash"}},"type":"Feature"},
	{"geometry":{"coordinates":[2.613897,48.565382],"type":"Point"},"properties":{"osm_id":"7899403585","tag":{"amenity":"waste_basket","material":"metal","survey:date":"2020-09-12","waste":"trash"}},"type":"Feature"},
	{"geometry":{"coordinates":[2.613294,48.56516],"type":"Point"},"properties":{"osm_id":"7899403785","tag":{"amenity":"waste_basket","material":"metal","survey:date":"2020-09-12","waste":"trash"}},"type":"Feature"},
	{"geometry":{"coordinates":[2.58955,48.574773],"type":"Point"},"properties":{"osm_id":"7912140885","tag":{"amenity":"waste_basket","material":"steel","survey:date":"2020-09-16","waste":"trash"}},"type":"Feature"},
	{"geometry":{"coordinates":[2.589585,48.574672],"type":"Point"},"properties":{"osm_id":"7912140985","tag":{"amenity":"recycling","recycling:clothes":"no","recycling:glass_bottles":"yes","recycling:paper":"no","recycling:plastic":"no","recycling_type":"container","survey:date":"2020-09-16"}},"type":"Feature"},
	{"geometry":{"coordinates":[2.60901,48.569838],"type":"Point"},"properties":{"osm_id":"7922692786","tag":{"amenity":"waste_basket","survey:date":"2020-09-19","waste":"trash"}},"type":"Feature"},
	{"geometry":{"coordinates":[2.609077,48.5693],"type":"Point"},"properties":{"osm_id":"7922694585","tag":{"amenity":"waste_basket","survey:date":"2020-09-19","waste":"trash"}},"type":"Feature"},
	{"geometry":{"coordinates":[2.601328,48.570547],"type":"Point"},"properties":{"osm_id":"7922769185","tag":{"amenity":"waste_basket","material":"metal","survey:date":"2020-09-19","waste":"trash"}},"type":"Feature"}
]
}
