{
"type": "FeatureCollection",
"features": [
	{"geometry":{"coordinates":[2.627781,47.238106],"type":"Point"},"properties":{"osm_id":"2639106148","tag":{"access":"yes","amenity":"waste_disposal","operator":"Association la V.A.L.L.E d'Humblighy"}},"type":"Feature"},
	{"geometry":{"coordinates":[2.628825,47.239261],"type":"Point"},"properties":{"osm_id":"2639106180","tag":{"access":"yes","amenity":"waste_disposal","operator":"Association la V.A.L.L.E d'Humblighy"}},"type":"Feature"},
	{"geometry":{"coordinates":[2.593992,47.242743],"type":"Point"},"properties":{"osm_id":"3208278356","tag":{"amenity":"recycling","recycling:beverage_cartons":"yes","recycling:glass_bottles":"yes"}},"type":"Feature"},
	{"geometry":{"coordinates":[2.603721,47.240297],"type":"Point"},"properties":{"osm_id":"3404759023","tag":{"amenity":"waste_disposal"}},"type":"Feature"},
	{"geometry":{"coordinates":[2.603662,47.24031],"type":"Point"},"properties":{"osm_id":"3404759024","tag":{"amenity":"recycling","recycling:beverage_cartons":"yes","recycling:glass_bottles":"yes"}},"type":"Feature"},
	{"geometry":{"coordinates":[2.59565,47.242114],"type":"Point"},"properties":{"osm_id":"3404759036","tag":{"amenity":"waste_disposal"}},"type":"Feature"},
	{"geometry":{"coordinates":[2.594014,47.24276],"type":"Point"},"properties":{"osm_id":"3404759040","tag":{"amenity":"waste_disposal"}},"type":"Feature"}
]
}
