{
"type": "FeatureCollection",
"features": [
	{"geometry":{"coordinates":[2.607831,46.342655],"type":"Point"},"properties":{"osm_id":"970333212","tag":{"amenity":"recycling","recycling:glass":"yes"}},"type":"Feature"},
	{"geometry":{"coordinates":[2.604288,46.341874],"type":"Point"},"properties":{"osm_id":"1064217832","tag":{"amenity":"waste_basket"}},"type":"Feature"},
	{"geometry":{"coordinates":[2.604389,46.342143],"type":"Point"},"properties":{"osm_id":"1064217833","tag":{"amenity":"waste_basket"}},"type":"Feature"},
	{"geometry":{"coordinates":[2.609701,46.325673],"type":"Point"},"properties":{"osm_id":"1870272849","tag":{"amenity":"recycling","location":"overground","recycling_type":"container"}},"type":"Feature"},
	{"geometry":{"coordinates":[2.604797,46.331385],"type":"Point"},"properties":{"osm_id":"1871655235","tag":{"amenity":"recycling"}},"type":"Feature"},
	{"geometry":{"coordinates":[2.588887,46.330541],"type":"Point"},"properties":{"osm_id":"3157748092","tag":{"amenity":"recycling","recycling_type":"container"}},"type":"Feature"},
	{"geometry":{"coordinates":[2.608875,46.330177],"type":"Point"},"properties":{"osm_id":"3584133059","tag":{"amenity":"waste_basket"}},"type":"Feature"},
	{"geometry":{"coordinates":[2.596132,46.337967],"type":"Point"},"properties":{"osm_id":"4357275695","tag":{"amenity":"waste_basket"}},"type":"Feature"},
	{"geometry":{"coordinates":[2.607071,46.329039],"type":"Point"},"properties":{"osm_id":"4357275700","tag":{"amenity":"waste_basket"}},"type":"Feature"},
	{"geometry":{"coordinates":[2.601846,46.339704],"type":"Point"},"properties":{"osm_id":"4357298490","tag":{"amenity":"waste_basket"}},"type":"Feature"},
	{"geometry":{"coordinates":[2.602894,46.33856],"type":"Point"},"properties":{"osm_id":"4357306294","tag":{"amenity":"waste_basket"}},"type":"Feature"},
	{"geometry":{"coordinates":[2.606599,46.338444],"type":"Point"},"properties":{"osm_id":"4357306297","tag":{"amenity":"waste_basket"}},"type":"Feature"},
	{"geometry":{"coordinates":[2.606828,46.338426],"type":"Point"},"properties":{"osm_id":"4357306298","tag":{"amenity":"waste_basket"}},"type":"Feature"},
	{"geometry":{"coordinates":[2.602945,46.338509],"type":"Point"},"properties":{"osm_id":"4357329690","tag":{"amenity":"waste_basket"}},"type":"Feature"},
	{"geometry":{"coordinates":[2.608013,46.329326],"type":"Point"},"properties":{"osm_id":"4357335694","tag":{"amenity":"waste_basket"}},"type":"Feature"},
	{"geometry":{"coordinates":[2.601244,46.342441],"type":"Point"},"properties":{"osm_id":"4357343995","tag":{"amenity":"waste_basket"}},"type":"Feature"},
	{"geometry":{"coordinates":[2.601582,46.341858],"type":"Point"},"properties":{"osm_id":"4357350989","tag":{"amenity":"waste_basket"}},"type":"Feature"},
	{"geometry":{"coordinates":[2.581364,46.347738],"type":"Point"},"properties":{"osm_id":"7131405209","tag":{"amenity":"recycling","recycling:packaging":"yes","recycling_type":"container"}},"type":"Feature"},
	{"geometry":{"coordinates":[2.581378,46.347751],"type":"Point"},"properties":{"osm_id":"7131405210","tag":{"amenity":"recycling","recycling_type":"container"}},"type":"Feature"},
	{"geometry":{"coordinates":[2.581389,46.347765],"type":"Point"},"properties":{"osm_id":"7131405211","tag":{"amenity":"recycling","recycling:glass":"yes","recycling_type":"container"}},"type":"Feature"},
	{"geometry":{"coordinates":[2.601624,46.339627],"type":"Point"},"properties":{"osm_id":"7246512859","tag":{"amenity":"waste_basket"}},"type":"Feature"},
	{"geometry":{"coordinates":[2.620656,46.374205],"type":"Point"},"properties":{"osm_id":"7711505682","tag":{"amenity":"recycling","opening_hours":"24/7","recycling:glass":"yes","recycling_type":"container","wheelchair":"designated"}},"type":"Feature"}
]
}
