{
"type": "FeatureCollection",
"features": [
	{"geometry":{"coordinates":[2.594091,44.409185],"type":"Point"},"properties":{"osm_id":"2303066601","tag":{"amenity":"waste_basket"}},"type":"Feature"},
	{"geometry":{"coordinates":[2.59428,44.409151],"type":"Point"},"properties":{"osm_id":"2303066640","tag":{"amenity":"waste_basket"}},"type":"Feature"},
	{"geometry":{"coordinates":[2.561369,44.403159],"type":"Point"},"properties":{"osm_id":"2432455907","tag":{"amenity":"waste_basket"}},"type":"Feature"},
	{"geometry":{"coordinates":[2.561543,44.403042],"type":"Point"},"properties":{"osm_id":"2432455908","tag":{"amenity":"waste_basket"}},"type":"Feature"},
	{"geometry":{"coordinates":[2.56225,44.403074],"type":"Point"},"properties":{"osm_id":"2432455920","tag":{"amenity":"waste_basket"}},"type":"Feature"},
	{"geometry":{"coordinates":[2.624647,44.456555],"type":"Point"},"properties":{"osm_id":"3598557455","tag":{"amenity":"waste_basket"}},"type":"Feature"},
	{"geometry":{"coordinates":[2.601323,44.403893],"type":"Point"},"properties":{"osm_id":"3826220773","tag":{"amenity":"recycling","recycling:glass_bottles":"yes","recycling_type":"container"}},"type":"Feature"},
	{"geometry":{"coordinates":[2.601295,44.403904],"type":"Point"},"properties":{"osm_id":"3826220774","tag":{"amenity":"recycling","recycling:paper":"yes","recycling_type":"container"}},"type":"Feature"},
	{"geometry":{"coordinates":[2.596586,44.402494],"type":"Point"},"properties":{"osm_id":"4036794079","tag":{"amenity":"waste_basket"}},"type":"Feature"},
	{"geometry":{"coordinates":[2.573148,44.417263],"type":"Point"},"properties":{"osm_id":"5548566783","tag":{"amenity":"recycling","recycling_type":"container"}},"type":"Feature"},
	{"geometry":{"coordinates":[2.566625,44.459173],"type":"Point"},"properties":{"osm_id":"5562402105","tag":{"amenity":"recycling","recycling_type":"container"}},"type":"Feature"},
	{"geometry":{"coordinates":[2.63204,44.404678],"type":"Point"},"properties":{"osm_id":"5640021133","tag":{"amenity":"recycling","recycling_type":"container"}},"type":"Feature"},
	{"geometry":{"coordinates":[2.592977,44.415575],"type":"Point"},"properties":{"barrier":"yes","osm_id":"6524023027"},"type":"Feature"},
	{"geometry":{"coordinates":[2.559141,44.40478],"type":"Point"},"properties":{"osm_id":"6581110075","tag":{"amenity":"waste_basket"}},"type":"Feature"},
	{"geometry":{"coordinates":[2.561404,44.403256],"type":"Point"},"properties":{"osm_id":"6588908782","tag":{"amenity":"waste_basket"}},"type":"Feature"},
	{"geometry":{"coordinates":[2.561577,44.402888],"type":"Point"},"properties":{"osm_id":"6588908783","tag":{"amenity":"waste_basket"}},"type":"Feature"},
	{"geometry":{"coordinates":[2.561805,44.402735],"type":"Point"},"properties":{"osm_id":"6588908784","tag":{"amenity":"waste_basket"}},"type":"Feature"},
	{"geometry":{"coordinates":[2.561996,44.402516],"type":"Point"},"properties":{"osm_id":"6588922085","tag":{"amenity":"waste_basket"}},"type":"Feature"},
	{"geometry":{"coordinates":[2.561212,44.405212],"type":"Point"},"properties":{"osm_id":"6602485935","tag":{"amenity":"waste_basket"}},"type":"Feature"},
	{"geometry":{"coordinates":[2.559636,44.405425],"type":"Point"},"properties":{"osm_id":"6602485941","tag":{"amenity":"waste_basket"}},"type":"Feature"},
	{"geometry":{"coordinates":[2.559927,44.404862],"type":"Point"},"properties":{"osm_id":"6602494266","tag":{"amenity":"waste_basket"}},"type":"Feature"},
	{"geometry":{"coordinates":[2.560912,44.404771],"type":"Point"},"properties":{"osm_id":"6602494267","tag":{"amenity":"waste_basket"}},"type":"Feature"},
	{"geometry":{"coordinates":[2.5619,44.402616],"type":"Point"},"properties":{"osm_id":"6609265189","tag":{"amenity":"waste_basket"}},"type":"Feature"},
	{"geometry":{"coordinates":[2.561714,44.402835],"type":"Point"},"properties":{"osm_id":"6609265191","tag":{"amenity":"waste_basket"}},"type":"Feature"},
	{"geometry":{"coordinates":[2.561475,44.403002],"type":"Point"},"properties":{"osm_id":"6609265192","tag":{"amenity":"waste_basket"}},"type":"Feature"},
	{"geometry":{"coordinates":[2.561648,44.402794],"type":"Point"},"properties":{"osm_id":"6609265194","tag":{"amenity":"waste_basket"}},"type":"Feature"},
	{"geometry":{"coordinates":[2.561787,44.402645],"type":"Point"},"properties":{"osm_id":"6609265196","tag":{"amenity":"waste_basket"}},"type":"Feature"},
	{"geometry":{"coordinates":[2.562004,44.402424],"type":"Point"},"properties":{"osm_id":"6609265198","tag":{"amenity":"waste_basket"}},"type":"Feature"},
	{"geometry":{"coordinates":[2.594511,44.409869],"type":"Point"},"properties":{"osm_id":"6886288980","tag":{"amenity":"waste_disposal","location":"underground"}},"type":"Feature"},
	{"geometry":{"coordinates":[2.594499,44.409853],"type":"Point"},"properties":{"osm_id":"6886288981","tag":{"amenity":"waste_disposal","location":"underground"}},"type":"Feature"},
	{"geometry":{"coordinates":[2.594485,44.40984],"type":"Point"},"properties":{"osm_id":"6886288982","tag":{"amenity":"recycling","location":"underground","recycling_type":"container"}},"type":"Feature"},
	{"geometry":{"coordinates":[2.596804,44.407991],"type":"Point"},"properties":{"osm_id":"6886311198","tag":{"amenity":"recycling","location":"underground","recycling_type":"container"}},"type":"Feature"},
	{"geometry":{"coordinates":[2.596822,44.407981],"type":"Point"},"properties":{"osm_id":"6886311199","tag":{"amenity":"recycling","location":"underground","recycling_type":"container"}},"type":"Feature"},
	{"geometry":{"coordinates":[2.596861,44.407961],"type":"Point"},"properties":{"osm_id":"6886311200","tag":{"amenity":"waste_disposal","location":"underground"}},"type":"Feature"},
	{"geometry":{"coordinates":[2.596889,44.407949],"type":"Point"},"properties":{"osm_id":"6886311201","tag":{"amenity":"waste_disposal","location":"underground"}},"type":"Feature"},
	{"geometry":{"coordinates":[2.600689,44.406581],"type":"Point"},"properties":{"osm_id":"6892874595","tag":{"amenity":"waste_basket","material":"wood"}},"type":"Feature"},
	{"geometry":{"coordinates":[2.604507,44.403826],"type":"Point"},"properties":{"osm_id":"6896218705","tag":{"amenity":"waste_disposal","location":"underground"}},"type":"Feature"},
	{"geometry":{"coordinates":[2.604503,44.403843],"type":"Point"},"properties":{"osm_id":"6896218706","tag":{"amenity":"recycling","location":"underground","recycling_type":"container"}},"type":"Feature"},
	{"geometry":{"coordinates":[2.604498,44.403859],"type":"Point"},"properties":{"osm_id":"6896218707","tag":{"amenity":"recycling","location":"underground","recycling_type":"container"}},"type":"Feature"},
	{"geometry":{"coordinates":[2.628488,44.405249],"type":"Point"},"properties":{"osm_id":"7129103056","tag":{"amenity":"recycling","recycling_type":"container"}},"type":"Feature"},
	{"geometry":{"coordinates":[2.600707,44.409057],"type":"Point"},"properties":{"osm_id":"7281030354","tag":{"amenity":"waste_basket"}},"type":"Feature"}
]
}
