{
"type": "FeatureCollection",
"features": [
	{"geometry":{"coordinates":[2.555977,44.359798],"type":"Point"},"properties":{"osm_id":"816742767","tag":{"amenity":"recycling","location":"underground","recycling:glass_bottles":"yes","recycling:paper":"yes","recycling_type":"container"}},"type":"Feature"},
	{"geometry":{"coordinates":[2.584713,44.364741],"type":"Point"},"properties":{"osm_id":"860960450","tag":{"amenity":"recycling","recycling:glass_bottles":"yes","recycling_type":"container"}},"type":"Feature"},
	{"geometry":{"coordinates":[2.549757,44.364438],"type":"Point"},"properties":{"osm_id":"886247533","tag":{"amenity":"recycling","recycling:glass_bottles":"yes"}},"type":"Feature"},
	{"geometry":{"coordinates":[2.549751,44.364414],"type":"Point"},"properties":{"osm_id":"886247535","tag":{"amenity":"recycling","recycling:waste_oil":"yes"}},"type":"Feature"},
	{"geometry":{"coordinates":[2.556694,44.360565],"type":"Point"},"properties":{"osm_id":"891460241","tag":{"amenity":"waste_basket"}},"type":"Feature"},
	{"geometry":{"coordinates":[2.556176,44.359984],"type":"Point"},"properties":{"osm_id":"892374415","tag":{"amenity":"waste_basket"}},"type":"Feature"},
	{"geometry":{"coordinates":[2.556003,44.36069],"type":"Point"},"properties":{"osm_id":"892374419","tag":{"amenity":"waste_basket"}},"type":"Feature"},
	{"geometry":{"coordinates":[2.569585,44.352354],"type":"Point"},"properties":{"osm_id":"901162397","tag":{"amenity":"recycling","recycling:paper":"yes","recycling_type":"container"}},"type":"Feature"},
	{"geometry":{"coordinates":[2.569609,44.352346],"type":"Point"},"properties":{"osm_id":"901162402","tag":{"amenity":"recycling","recycling:glass_bottles":"yes","recycling_type":"container"}},"type":"Feature"},
	{"geometry":{"coordinates":[2.56858,44.35278],"type":"Point"},"properties":{"osm_id":"914041302","tag":{"amenity":"waste_basket"}},"type":"Feature"},
	{"geometry":{"coordinates":[2.564027,44.352321],"type":"Point"},"properties":{"osm_id":"914041350","tag":{"amenity":"waste_basket"}},"type":"Feature"},
	{"geometry":{"coordinates":[2.563484,44.401154],"type":"Point"},"properties":{"osm_id":"922965024","tag":{"amenity":"recycling","recycling:clothes":"yes","recycling:glass_bottles":"yes","recycling:shoes":"yes","recycling_type":"container"}},"type":"Feature"},
	{"geometry":{"coordinates":[2.577201,44.355102],"type":"Point"},"properties":{"osm_id":"1423542635","tag":{"amenity":"recycling","recycling:glass_bottles":"yes","recycling_type":"container"}},"type":"Feature"},
	{"geometry":{"coordinates":[2.555065,44.359024],"type":"Point"},"properties":{"osm_id":"1440233433","tag":{"amenity":"waste_basket"}},"type":"Feature"},
	{"geometry":{"coordinates":[2.554934,44.358658],"type":"Point"},"properties":{"osm_id":"1440233437","tag":{"amenity":"waste_basket"}},"type":"Feature"},
	{"geometry":{"coordinates":[2.55489,44.359615],"type":"Point"},"properties":{"osm_id":"1440233440","tag":{"amenity":"waste_basket"}},"type":"Feature"},
	{"geometry":{"coordinates":[2.56139,44.399057],"type":"Point"},"properties":{"osm_id":"1440943656","tag":{"amenity":"waste_basket"}},"type":"Feature"},
	{"geometry":{"coordinates":[2.575114,44.349699],"type":"Point"},"properties":{"osm_id":"1445129892","tag":{"amenity":"waste_basket"}},"type":"Feature"},
	{"geometry":{"coordinates":[2.575567,44.348962],"type":"Point"},"properties":{"osm_id":"1445130015","tag":{"amenity":"waste_basket"}},"type":"Feature"},
	{"geometry":{"coordinates":[2.556379,44.358831],"type":"Point"},"properties":{"osm_id":"1458899445","tag":{"amenity":"waste_basket"}},"type":"Feature"},
	{"geometry":{"coordinates":[2.557196,44.358324],"type":"Point"},"properties":{"osm_id":"1458899447","tag":{"amenity":"waste_basket"}},"type":"Feature"},
	{"geometry":{"coordinates":[2.562716,44.354329],"type":"Point"},"properties":{"osm_id":"1579710682","tag":{"amenity":"waste_basket"}},"type":"Feature"},
	{"geometry":{"coordinates":[2.562057,44.356097],"type":"Point"},"properties":{"osm_id":"1579710699","tag":{"amenity":"waste_basket"}},"type":"Feature"},
	{"geometry":{"coordinates":[2.562903,44.354471],"type":"Point"},"properties":{"osm_id":"1579710700","tag":{"amenity":"waste_basket"}},"type":"Feature"},
	{"geometry":{"coordinates":[2.571387,44.350104],"type":"Point"},"properties":{"osm_id":"1580166699","tag":{"amenity":"waste_basket","waste_basket":"syringe"}},"type":"Feature"},
	{"geometry":{"coordinates":[2.569453,44.352392],"type":"Point"},"properties":{"osm_id":"1580643682","tag":{"amenity":"waste_basket"}},"type":"Feature"},
	{"geometry":{"coordinates":[2.577953,44.348626],"type":"Point"},"properties":{"osm_id":"1730360976","tag":{"amenity":"recycling","recycling:glass_bottles":"yes","recycling_type":"container"}},"type":"Feature"},
	{"geometry":{"coordinates":[2.577942,44.348638],"type":"Point"},"properties":{"osm_id":"1730360977","tag":{"amenity":"recycling","recycling:paper":"yes","recycling_type":"container"}},"type":"Feature"},
	{"geometry":{"coordinates":[2.569825,44.366679],"type":"Point"},"properties":{"barrier":"gate","osm_id":"1789876880"},"type":"Feature"},
	{"geometry":{"coordinates":[2.592749,44.363885],"type":"Point"},"properties":{"name":"La Petite Recyclerie","osm_id":"1865679810","tag":{"amenity":"recycling","disused:name":"Vival","disused:shop":"convenience","operator":"Progress","recycling:books":"yes","recycling:computer":"yes","second_hand":"only"}},"type":"Feature"},
	{"geometry":{"coordinates":[2.603309,44.362343],"type":"Point"},"properties":{"osm_id":"1893390452","tag":{"amenity":"recycling","recycling:glass_bottles":"yes","recycling_type":"container"}},"type":"Feature"},
	{"geometry":{"coordinates":[2.586915,44.363469],"type":"Point"},"properties":{"osm_id":"1912510513","tag":{"amenity":"recycling","location":"overground","recycling:glass_bottles":"yes","recycling_type":"container"}},"type":"Feature"},
	{"geometry":{"coordinates":[2.583775,44.367485],"type":"Point"},"properties":{"osm_id":"2041627284","tag":{"amenity":"waste_basket"}},"type":"Feature"},
	{"geometry":{"coordinates":[2.572614,44.350894],"type":"Point"},"properties":{"osm_id":"2066815135","tag":{"amenity":"waste_basket"}},"type":"Feature"},
	{"geometry":{"coordinates":[2.568834,44.351166],"type":"Point"},"properties":{"osm_id":"2066815344","tag":{"amenity":"waste_basket"}},"type":"Feature"},
	{"geometry":{"coordinates":[2.574529,44.349004],"type":"Point"},"properties":{"osm_id":"2066815347","tag":{"amenity":"waste_basket"}},"type":"Feature"},
	{"geometry":{"coordinates":[2.576067,44.348784],"type":"Point"},"properties":{"osm_id":"2067108190","tag":{"amenity":"waste_basket","source:amenity":"survey"}},"type":"Feature"},
	{"geometry":{"coordinates":[2.575498,44.349439],"type":"Point"},"properties":{"osm_id":"2067108208","tag":{"amenity":"waste_basket","source:amenity":"survey"}},"type":"Feature"},
	{"geometry":{"coordinates":[2.575554,44.349651],"type":"Point"},"properties":{"osm_id":"2067108212","tag":{"amenity":"waste_basket","source:amenity":"survey"}},"type":"Feature"},
	{"geometry":{"coordinates":[2.576009,44.350354],"type":"Point"},"properties":{"osm_id":"2067108229","tag":{"amenity":"waste_basket","source:amenity":"survey"}},"type":"Feature"},
	{"geometry":{"coordinates":[2.570733,44.354124],"type":"Point"},"properties":{"osm_id":"2075250692","tag":{"amenity":"waste_basket"}},"type":"Feature"},
	{"geometry":{"coordinates":[2.558209,44.356912],"type":"Point"},"properties":{"osm_id":"2083521020","tag":{"amenity":"recycling","location":"underground","recycling_type":"container"}},"type":"Feature"},
	{"geometry":{"coordinates":[2.558193,44.356915],"type":"Point"},"properties":{"osm_id":"2083521041","tag":{"amenity":"recycling","location":"underground","recycling_type":"container"}},"type":"Feature"},
	{"geometry":{"coordinates":[2.55467,44.360025],"type":"Point"},"properties":{"osm_id":"2087132464","tag":{"amenity":"waste_basket"}},"type":"Feature"},
	{"geometry":{"coordinates":[2.54963,44.360939],"type":"Point"},"properties":{"osm_id":"2089239757","tag":{"amenity":"recycling"}},"type":"Feature"},
	{"geometry":{"coordinates":[2.555516,44.36385],"type":"Point"},"properties":{"osm_id":"2095710543","tag":{"amenity":"waste_basket"}},"type":"Feature"},
	{"geometry":{"coordinates":[2.555455,44.363708],"type":"Point"},"properties":{"osm_id":"2095710577","tag":{"amenity":"waste_basket"}},"type":"Feature"},
	{"geometry":{"coordinates":[2.575328,44.350435],"type":"Point"},"properties":{"osm_id":"2096733459","tag":{"amenity":"waste_basket"}},"type":"Feature"},
	{"geometry":{"coordinates":[2.574964,44.350442],"type":"Point"},"properties":{"osm_id":"2096733472","tag":{"amenity":"waste_basket"}},"type":"Feature"},
	{"geometry":{"coordinates":[2.558935,44.357457],"type":"Point"},"properties":{"osm_id":"2096752771","tag":{"amenity":"waste_basket"}},"type":"Feature"},
	{"geometry":{"coordinates":[2.57588,44.354814],"type":"Point"},"properties":{"osm_id":"2097826616","tag":{"amenity":"waste_basket"}},"type":"Feature"},
	{"geometry":{"coordinates":[2.568314,44.352999],"type":"Point"},"properties":{"osm_id":"2103314601","tag":{"amenity":"waste_basket","colour":"black"}},"type":"Feature"},
	{"geometry":{"coordinates":[2.568169,44.353045],"type":"Point"},"properties":{"osm_id":"2103314606","tag":{"amenity":"waste_basket"}},"type":"Feature"},
	{"geometry":{"coordinates":[2.568177,44.352984],"type":"Point"},"properties":{"osm_id":"2103314608","tag":{"amenity":"waste_basket","colour":"black"}},"type":"Feature"},
	{"geometry":{"coordinates":[2.568049,44.353047],"type":"Point"},"properties":{"osm_id":"2103314609","tag":{"amenity":"waste_basket"}},"type":"Feature"},
	{"geometry":{"coordinates":[2.568307,44.35305],"type":"Point"},"properties":{"osm_id":"2103314610","tag":{"amenity":"waste_basket"}},"type":"Feature"},
	{"geometry":{"coordinates":[2.581068,44.357009],"type":"Point"},"properties":{"osm_id":"2111522045","tag":{"amenity":"waste_basket","material":"metal"}},"type":"Feature"},
	{"geometry":{"coordinates":[2.594375,44.36712],"type":"Point"},"properties":{"osm_id":"2117412221","tag":{"amenity":"waste_basket"}},"type":"Feature"},
	{"geometry":{"coordinates":[2.576828,44.36424],"type":"Point"},"properties":{"osm_id":"2117412224","tag":{"amenity":"waste_basket"}},"type":"Feature"},
	{"geometry":{"coordinates":[2.577562,44.365501],"type":"Point"},"properties":{"osm_id":"2117412235","tag":{"amenity":"waste_basket"}},"type":"Feature"},
	{"geometry":{"coordinates":[2.577252,44.349228],"type":"Point"},"properties":{"osm_id":"2119477811","tag":{"amenity":"waste_basket"}},"type":"Feature"},
	{"geometry":{"coordinates":[2.595139,44.366649],"type":"Point"},"properties":{"osm_id":"2131988237","tag":{"amenity":"waste_basket"}},"type":"Feature"},
	{"geometry":{"coordinates":[2.583422,44.341508],"type":"Point"},"properties":{"osm_id":"2134636346","tag":{"amenity":"recycling","recycling:glass_bottles":"yes","recycling_type":"container"}},"type":"Feature"},
	{"geometry":{"coordinates":[2.583441,44.341491],"type":"Point"},"properties":{"osm_id":"2134636368","tag":{"amenity":"recycling","recycling:paper":"yes","recycling_type":"container"}},"type":"Feature"},
	{"geometry":{"coordinates":[2.579812,44.34372],"type":"Point"},"properties":{"osm_id":"2134636439","tag":{"amenity":"waste_basket"}},"type":"Feature"},
	{"geometry":{"coordinates":[2.581899,44.357726],"type":"Point"},"properties":{"osm_id":"2138325327","tag":{"amenity":"waste_basket"}},"type":"Feature"},
	{"geometry":{"coordinates":[2.594933,44.366952],"type":"Point"},"properties":{"osm_id":"2140562417","tag":{"amenity":"waste_basket"}},"type":"Feature"},
	{"geometry":{"coordinates":[2.592992,44.367281],"type":"Point"},"properties":{"osm_id":"2140562439","tag":{"amenity":"recycling","recycling:glass":"yes"}},"type":"Feature"},
	{"geometry":{"coordinates":[2.591541,44.36867],"type":"Point"},"properties":{"osm_id":"2140562620","tag":{"amenity":"recycling","recycling:magazines":"yes","recycling:paper":"yes","recycling_type":"container"}},"type":"Feature"},
	{"geometry":{"coordinates":[2.591525,44.368682],"type":"Point"},"properties":{"osm_id":"2140562643","tag":{"amenity":"recycling","recycling:glass_bottles":"yes","recycling_type":"container"}},"type":"Feature"},
	{"geometry":{"coordinates":[2.591511,44.368695],"type":"Point"},"properties":{"osm_id":"2140562656","tag":{"amenity":"recycling","operator":"Le Relais","recycling:clothes":"yes","recycling:shoes":"yes","recycling_type":"container"}},"type":"Feature"},
	{"geometry":{"coordinates":[2.590762,44.369649],"type":"Point"},"properties":{"osm_id":"2140562703","tag":{"amenity":"waste_basket","source:amenity":"survey"}},"type":"Feature"},
	{"geometry":{"coordinates":[2.566242,44.389382],"type":"Point"},"properties":{"osm_id":"2173133107","tag":{"amenity":"recycling","recycling:glass_bottles":"yes","recycling_type":"container"}},"type":"Feature"},
	{"geometry":{"coordinates":[2.565707,44.392532],"type":"Point"},"properties":{"osm_id":"2174808436","tag":{"amenity":"waste_basket","material":"wood"}},"type":"Feature"},
	{"geometry":{"coordinates":[2.575048,44.368883],"type":"Point"},"properties":{"osm_id":"2190994831","tag":{"amenity":"waste_basket"}},"type":"Feature"},
	{"geometry":{"coordinates":[2.56576,44.354767],"type":"Point"},"properties":{"osm_id":"2191321074","tag":{"amenity":"waste_basket"}},"type":"Feature"},
	{"geometry":{"coordinates":[2.56593,44.355054],"type":"Point"},"properties":{"osm_id":"2192384357","tag":{"amenity":"waste_basket"}},"type":"Feature"},
	{"geometry":{"coordinates":[2.565866,44.354902],"type":"Point"},"properties":{"osm_id":"2192384360","tag":{"amenity":"waste_basket"}},"type":"Feature"},
	{"geometry":{"coordinates":[2.566059,44.354743],"type":"Point"},"properties":{"osm_id":"2192384361","tag":{"amenity":"waste_basket"}},"type":"Feature"},
	{"geometry":{"coordinates":[2.566024,44.354979],"type":"Point"},"properties":{"osm_id":"2192384364","tag":{"amenity":"waste_basket"}},"type":"Feature"},
	{"geometry":{"coordinates":[2.555318,44.363874],"type":"Point"},"properties":{"osm_id":"2206562749","tag":{"amenity":"waste_basket"}},"type":"Feature"},
	{"geometry":{"coordinates":[2.555365,44.363897],"type":"Point"},"properties":{"osm_id":"2206562764","tag":{"amenity":"recycling","recycling:printer_cartridges":"yes"}},"type":"Feature"},
	{"geometry":{"coordinates":[2.555349,44.363898],"type":"Point"},"properties":{"osm_id":"2206562769","tag":{"access":"destination","amenity":"recycling","recycling:batteries":"yes"}},"type":"Feature"},
	{"geometry":{"coordinates":[2.576699,44.349617],"type":"Point"},"properties":{"osm_id":"2210270168","tag":{"amenity":"waste_basket"}},"type":"Feature"},
	{"geometry":{"coordinates":[2.558417,44.356927],"type":"Point"},"properties":{"highway":"street_lamp","osm_id":"2213325602","tag":{"amenity":"waste_basket","fee":"no","vending":"excrement_bags"}},"type":"Feature"},
	{"geometry":{"coordinates":[2.593071,44.363238],"type":"Point"},"properties":{"osm_id":"2214814589","tag":{"amenity":"waste_basket"}},"type":"Feature"},
	{"geometry":{"coordinates":[2.592349,44.364157],"type":"Point"},"properties":{"osm_id":"2214814637","tag":{"amenity":"waste_basket"}},"type":"Feature"},
	{"geometry":{"coordinates":[2.592879,44.363562],"type":"Point"},"properties":{"osm_id":"2214814769","tag":{"amenity":"waste_basket"}},"type":"Feature"},
	{"geometry":{"coordinates":[2.587905,44.361984],"type":"Point"},"properties":{"osm_id":"2214814877","tag":{"amenity":"waste_basket"}},"type":"Feature"},
	{"geometry":{"coordinates":[2.592474,44.36413],"type":"Point"},"properties":{"osm_id":"2214815096","tag":{"amenity":"waste_basket"}},"type":"Feature"},
	{"geometry":{"coordinates":[2.593205,44.363497],"type":"Point"},"properties":{"osm_id":"2214815180","tag":{"amenity":"waste_basket"}},"type":"Feature"},
	{"geometry":{"coordinates":[2.593165,44.363476],"type":"Point"},"properties":{"osm_id":"2214815340","tag":{"amenity":"recycling","recycling:glass_bottles":"yes"}},"type":"Feature"},
	{"geometry":{"coordinates":[2.592733,44.363677],"type":"Point"},"properties":{"osm_id":"2214815419","tag":{"amenity":"waste_basket"}},"type":"Feature"},
	{"geometry":{"coordinates":[2.59317,44.363492],"type":"Point"},"properties":{"osm_id":"2214815513","tag":{"amenity":"recycling","recycling:magazines":"yes","recycling:newspaper":"yes"}},"type":"Feature"},
	{"geometry":{"coordinates":[2.588077,44.361978],"type":"Point"},"properties":{"osm_id":"2214815544","tag":{"amenity":"waste_basket"}},"type":"Feature"},
	{"geometry":{"coordinates":[2.55586,44.359051],"type":"Point"},"properties":{"osm_id":"2234592984","tag":{"amenity":"waste_basket"}},"type":"Feature"},
	{"geometry":{"coordinates":[2.55813,44.357865],"type":"Point"},"properties":{"osm_id":"2279408771","tag":{"amenity":"waste_basket"}},"type":"Feature"},
	{"geometry":{"coordinates":[2.573411,44.350651],"type":"Point"},"properties":{"osm_id":"2282153513","tag":{"amenity":"waste_basket"}},"type":"Feature"},
	{"geometry":{"coordinates":[2.573108,44.35042],"type":"Point"},"properties":{"osm_id":"2282153515","tag":{"amenity":"waste_basket"}},"type":"Feature"},
	{"geometry":{"coordinates":[2.592356,44.366936],"type":"Point"},"properties":{"osm_id":"2287031829","tag":{"amenity":"waste_basket"}},"type":"Feature"},
	{"geometry":{"coordinates":[2.555047,44.358961],"type":"Point"},"properties":{"osm_id":"2288577676","tag":{"amenity":"waste_basket"}},"type":"Feature"},
	{"geometry":{"coordinates":[2.571584,44.353076],"type":"Point"},"properties":{"osm_id":"2306522543","tag":{"amenity":"waste_basket"}},"type":"Feature"},
	{"geometry":{"coordinates":[2.571626,44.353046],"type":"Point"},"properties":{"osm_id":"2306522545","tag":{"amenity":"recycling","recycling:glass_bottles":"yes","recycling_type":"container"}},"type":"Feature"},
	{"geometry":{"coordinates":[2.573571,44.353924],"type":"Point"},"properties":{"osm_id":"2327359197","tag":{"amenity":"waste_basket"}},"type":"Feature"},
	{"geometry":{"coordinates":[2.574145,44.354341],"type":"Point"},"properties":{"osm_id":"2327359206","tag":{"amenity":"waste_basket"}},"type":"Feature"},
	{"geometry":{"coordinates":[2.574408,44.3544],"type":"Point"},"properties":{"osm_id":"2327367042","tag":{"amenity":"waste_basket"}},"type":"Feature"},
	{"geometry":{"coordinates":[2.588659,44.369405],"type":"Point"},"properties":{"osm_id":"2330328816","tag":{"amenity":"waste_basket"}},"type":"Feature"},
	{"geometry":{"coordinates":[2.579389,44.372352],"type":"Point"},"properties":{"osm_id":"2343008685","tag":{"amenity":"recycling","recycling_type":"container"}},"type":"Feature"},
	{"geometry":{"coordinates":[2.579351,44.372354],"type":"Point"},"properties":{"osm_id":"2343008693","tag":{"amenity":"recycling","recycling_type":"container"}},"type":"Feature"},
	{"geometry":{"coordinates":[2.579322,44.372356],"type":"Point"},"properties":{"osm_id":"2343008695","tag":{"amenity":"recycling","recycling_type":"container"}},"type":"Feature"},
	{"geometry":{"coordinates":[2.576058,44.355035],"type":"Point"},"properties":{"osm_id":"2344339339","tag":{"amenity":"waste_basket"}},"type":"Feature"},
	{"geometry":{"coordinates":[2.57618,44.355153],"type":"Point"},"properties":{"osm_id":"2344339346","tag":{"amenity":"waste_basket"}},"type":"Feature"},
	{"geometry":{"coordinates":[2.588457,44.36928],"type":"Point"},"properties":{"osm_id":"2353246404","tag":{"amenity":"waste_basket","indoor":"yes"}},"type":"Feature"},
	{"geometry":{"coordinates":[2.588216,44.369422],"type":"Point"},"properties":{"osm_id":"2353246446","tag":{"amenity":"waste_basket","indoor":"yes"}},"type":"Feature"},
	{"geometry":{"coordinates":[2.587885,44.369627],"type":"Point"},"properties":{"osm_id":"2353246488","tag":{"amenity":"waste_basket","indoor":"yes"}},"type":"Feature"},
	{"geometry":{"coordinates":[2.587662,44.369823],"type":"Point"},"properties":{"osm_id":"2353465837","tag":{"amenity":"waste_basket","indoor":"yes"}},"type":"Feature"},
	{"geometry":{"coordinates":[2.587709,44.370081],"type":"Point"},"properties":{"osm_id":"2362222397","tag":{"amenity":"waste_basket"}},"type":"Feature"},
	{"geometry":{"coordinates":[2.587237,44.369777],"type":"Point"},"properties":{"osm_id":"2362222398","tag":{"amenity":"waste_basket"}},"type":"Feature"},
	{"geometry":{"coordinates":[2.587727,44.369957],"type":"Point"},"properties":{"osm_id":"2362222415","tag":{"amenity":"waste_basket"}},"type":"Feature"},
	{"geometry":{"coordinates":[2.587801,44.37003],"type":"Point"},"properties":{"osm_id":"2362222427","tag":{"amenity":"waste_basket"}},"type":"Feature"},
	{"geometry":{"coordinates":[2.58761,44.370062],"type":"Point"},"properties":{"osm_id":"2362222455","tag":{"amenity":"waste_basket"}},"type":"Feature"},
	{"geometry":{"coordinates":[2.588505,44.371259],"type":"Point"},"properties":{"osm_id":"2414839740","tag":{"amenity":"waste_basket"}},"type":"Feature"},
	{"geometry":{"coordinates":[2.571843,44.344604],"type":"Point"},"properties":{"osm_id":"2420876661","tag":{"amenity":"waste_basket"}},"type":"Feature"},
	{"geometry":{"coordinates":[2.57156,44.344913],"type":"Point"},"properties":{"osm_id":"2420876678","tag":{"amenity":"waste_basket","colour":"black","material":"plastic","operator":"Mairie de Rodez","waste":"trash"}},"type":"Feature"},
	{"geometry":{"coordinates":[2.573611,44.346161],"type":"Point"},"properties":{"osm_id":"2420876691","tag":{"amenity":"waste_basket","colour":"black","material":"plastic","waste":"trash"}},"type":"Feature"},
	{"geometry":{"coordinates":[2.574108,44.347216],"type":"Point"},"properties":{"osm_id":"2420876699","tag":{"amenity":"waste_basket"}},"type":"Feature"},
	{"geometry":{"coordinates":[2.573991,44.347333],"type":"Point"},"properties":{"osm_id":"2420876710","tag":{"amenity":"recycling","recycling:glass_bottles":"yes","recycling_type":"container"}},"type":"Feature"},
	{"geometry":{"coordinates":[2.574868,44.347739],"type":"Point"},"properties":{"osm_id":"2420876722","tag":{"amenity":"waste_basket"}},"type":"Feature"},
	{"geometry":{"coordinates":[2.575273,44.347796],"type":"Point"},"properties":{"osm_id":"2420876723","tag":{"amenity":"waste_basket","colour":"black"}},"type":"Feature"},
	{"geometry":{"coordinates":[2.574434,44.347827],"type":"Point"},"properties":{"osm_id":"2420876725","tag":{"amenity":"waste_basket"}},"type":"Feature"},
	{"geometry":{"coordinates":[2.562351,44.401698],"type":"Point"},"properties":{"osm_id":"2427232617","tag":{"amenity":"waste_basket"}},"type":"Feature"},
	{"geometry":{"coordinates":[2.562332,44.401869],"type":"Point"},"properties":{"osm_id":"2427232618","tag":{"amenity":"waste_basket","fee":"no","vending":"excrement_bags"}},"type":"Feature"},
	{"geometry":{"coordinates":[2.562087,44.401963],"type":"Point"},"properties":{"osm_id":"2427232622","tag":{"amenity":"waste_basket"}},"type":"Feature"},
	{"geometry":{"coordinates":[2.562115,44.4021],"type":"Point"},"properties":{"osm_id":"2432363299","tag":{"amenity":"waste_basket"}},"type":"Feature"},
	{"geometry":{"coordinates":[2.582056,44.372899],"type":"Point"},"properties":{"osm_id":"2436455605","tag":{"amenity":"waste_basket"}},"type":"Feature"},
	{"geometry":{"coordinates":[2.603088,44.362057],"type":"Point"},"properties":{"osm_id":"2438801616","tag":{"amenity":"waste_basket","colour":"blue","material":"plastic"}},"type":"Feature"},
	{"geometry":{"coordinates":[2.563524,44.402151],"type":"Point"},"properties":{"osm_id":"2440515749","tag":{"amenity":"waste_basket"}},"type":"Feature"},
	{"geometry":{"coordinates":[2.56152,44.402049],"type":"Point"},"properties":{"osm_id":"2440515768","tag":{"amenity":"waste_basket"}},"type":"Feature"},
	{"geometry":{"coordinates":[2.588372,44.363934],"type":"Point"},"properties":{"osm_id":"2440603949","tag":{"amenity":"waste_basket"}},"type":"Feature"},
	{"geometry":{"coordinates":[2.563949,44.357323],"type":"Point"},"properties":{"osm_id":"2452572636","tag":{"amenity":"waste_basket"}},"type":"Feature"},
	{"geometry":{"coordinates":[2.581889,44.358172],"type":"Point"},"properties":{"osm_id":"2457870279","tag":{"amenity":"waste_basket","colour":"green","fee":"no","material":"plastic","vending":"excrement_bags"}},"type":"Feature"},
	{"geometry":{"coordinates":[2.576283,44.351497],"type":"Point"},"properties":{"osm_id":"2539548428","tag":{"amenity":"waste_basket"}},"type":"Feature"},
	{"geometry":{"coordinates":[2.580003,44.348583],"type":"Point"},"properties":{"osm_id":"2562667160","tag":{"amenity":"recycling","recycling:paper":"yes","recycling_type":"container"}},"type":"Feature"},
	{"geometry":{"coordinates":[2.5918,44.359542],"type":"Point"},"properties":{"osm_id":"2565893570","tag":{"amenity":"recycling","recycling:glass_bottles":"yes","recycling_type":"container"}},"type":"Feature"},
	{"geometry":{"coordinates":[2.577849,44.350988],"type":"Point"},"properties":{"osm_id":"2568245352","tag":{"amenity":"recycling","recycling:glass_bottles":"yes","recycling_type":"container"}},"type":"Feature"},
	{"geometry":{"coordinates":[2.59104,44.355936],"type":"Point"},"properties":{"osm_id":"2568901730","tag":{"amenity":"waste_basket"}},"type":"Feature"},
	{"geometry":{"coordinates":[2.595385,44.350008],"type":"Point"},"properties":{"osm_id":"2568901737","tag":{"amenity":"waste_basket"}},"type":"Feature"},
	{"geometry":{"coordinates":[2.589525,44.369625],"type":"Point"},"properties":{"osm_id":"2582327323","tag":{"amenity":"recycling","recycling:glass_bottles":"yes","recycling_type":"container"}},"type":"Feature"},
	{"geometry":{"coordinates":[2.576953,44.359609],"type":"Point"},"properties":{"osm_id":"2606366065","tag":{"amenity":"recycling","recycling:paper":"yes","recycling_type":"container"}},"type":"Feature"},
	{"geometry":{"coordinates":[2.577295,44.360195],"type":"Point"},"properties":{"osm_id":"2606366103","tag":{"amenity":"waste_basket"}},"type":"Feature"},
	{"geometry":{"coordinates":[2.594751,44.365615],"type":"Point"},"properties":{"osm_id":"2630890918","tag":{"amenity":"waste_basket"}},"type":"Feature"},
	{"geometry":{"coordinates":[2.595197,44.365968],"type":"Point"},"properties":{"osm_id":"2630890920","tag":{"amenity":"waste_basket"}},"type":"Feature"},
	{"geometry":{"coordinates":[2.591765,44.359569],"type":"Point"},"properties":{"osm_id":"2681717995","tag":{"amenity":"recycling","operator":"Le Relais","recycling:clothes":"yes","recycling_type":"container"}},"type":"Feature"},
	{"geometry":{"coordinates":[2.591786,44.359554],"type":"Point"},"properties":{"osm_id":"2681717999","tag":{"amenity":"recycling","recycling:paper":"yes","recycling_type":"container"}},"type":"Feature"},
	{"geometry":{"coordinates":[2.564647,44.353921],"type":"Point"},"properties":{"osm_id":"2705271289","tag":{"amenity":"waste_basket"}},"type":"Feature"},
	{"geometry":{"coordinates":[2.577889,44.372963],"type":"Point"},"properties":{"osm_id":"2712257056","tag":{"amenity":"waste_basket"}},"type":"Feature"},
	{"geometry":{"coordinates":[2.577099,44.363871],"type":"Point"},"properties":{"osm_id":"2717288763","tag":{"amenity":"recycling","recycling:paper":"yes","recycling_type":"container"}},"type":"Feature"},
	{"geometry":{"coordinates":[2.577119,44.363863],"type":"Point"},"properties":{"osm_id":"2717288764","tag":{"amenity":"recycling","recycling:glass_bottles":"yes","recycling_type":"container"}},"type":"Feature"},
	{"geometry":{"coordinates":[2.593894,44.365134],"type":"Point"},"properties":{"osm_id":"2766451595","tag":{"amenity":"recycling","recycling:glass_bottles":"yes","recycling_type":"container"}},"type":"Feature"},
	{"geometry":{"coordinates":[2.569639,44.366915],"type":"Point"},"properties":{"barrier":"gate","osm_id":"2789851594"},"type":"Feature"},
	{"geometry":{"coordinates":[2.595584,44.365285],"type":"Point"},"properties":{"osm_id":"2794108808","tag":{"amenity":"recycling","recycling:glass":"yes"}},"type":"Feature"},
	{"geometry":{"coordinates":[2.566428,44.363157],"type":"Point"},"properties":{"osm_id":"2800747328","tag":{"amenity":"waste_basket"}},"type":"Feature"},
	{"geometry":{"coordinates":[2.566405,44.363782],"type":"Point"},"properties":{"osm_id":"2800747349","tag":{"amenity":"recycling","recycling:clothes":"yes","recycling_type":"container"}},"type":"Feature"},
	{"geometry":{"coordinates":[2.566432,44.363783],"type":"Point"},"properties":{"osm_id":"2800747350","tag":{"amenity":"recycling","recycling:glass_bottles":"yes","recycling_type":"container"}},"type":"Feature"},
	{"geometry":{"coordinates":[2.56646,44.363791],"type":"Point"},"properties":{"osm_id":"2800747351","tag":{"amenity":"recycling","recycling:paper":"yes","recycling_type":"container"}},"type":"Feature"},
	{"geometry":{"coordinates":[2.566404,44.363804],"type":"Point"},"properties":{"osm_id":"2800747352","tag":{"amenity":"recycling","recycling:engine_oil":"yes","recycling_type":"container"}},"type":"Feature"},
	{"geometry":{"coordinates":[2.566388,44.363816],"type":"Point"},"properties":{"osm_id":"2800747354","tag":{"amenity":"waste_basket"}},"type":"Feature"},
	{"geometry":{"coordinates":[2.557309,44.368153],"type":"Point"},"properties":{"osm_id":"2801400429","tag":{"amenity":"recycling","recycling:glass_bottles":"yes","recycling_type":"container"}},"type":"Feature"},
	{"geometry":{"coordinates":[2.557328,44.368155],"type":"Point"},"properties":{"osm_id":"2801400430","tag":{"amenity":"recycling","recycling:paper":"yes","recycling_type":"container"}},"type":"Feature"},
	{"geometry":{"coordinates":[2.554976,44.368902],"type":"Point"},"properties":{"osm_id":"2809029424","tag":{"amenity":"waste_basket","vending":"excrement_bags"}},"type":"Feature"},
	{"geometry":{"coordinates":[2.568905,44.356604],"type":"Point"},"properties":{"osm_id":"2833688534","tag":{"amenity":"recycling","recycling:clothes":"yes","recycling_type":"container"}},"type":"Feature"},
	{"geometry":{"coordinates":[2.568914,44.356616],"type":"Point"},"properties":{"osm_id":"2833688535","tag":{"amenity":"recycling","recycling:glass_bottles":"yes","recycling_type":"container"}},"type":"Feature"},
	{"geometry":{"coordinates":[2.568921,44.356625],"type":"Point"},"properties":{"osm_id":"2833688536","tag":{"amenity":"recycling","recycling:paper":"yes","recycling_type":"container"}},"type":"Feature"},
	{"geometry":{"coordinates":[2.580028,44.34858],"type":"Point"},"properties":{"osm_id":"2864179148","tag":{"amenity":"recycling","recycling:glass_bottles":"yes","recycling_type":"container"}},"type":"Feature"},
	{"geometry":{"coordinates":[2.580081,44.348568],"type":"Point"},"properties":{"osm_id":"2864179149","tag":{"amenity":"waste_basket"}},"type":"Feature"},
	{"geometry":{"coordinates":[2.578677,44.348575],"type":"Point"},"properties":{"osm_id":"2864179156","tag":{"amenity":"waste_basket"}},"type":"Feature"},
	{"geometry":{"coordinates":[2.574487,44.349753],"type":"Point"},"properties":{"osm_id":"2864179165","tag":{"amenity":"waste_basket"}},"type":"Feature"},
	{"geometry":{"coordinates":[2.579215,44.348483],"type":"Point"},"properties":{"osm_id":"2868819729","tag":{"access":"private","amenity":"waste_basket","position":"wall"}},"type":"Feature"},
	{"geometry":{"coordinates":[2.5777,44.348258],"type":"Point"},"properties":{"osm_id":"2870364852","tag":{"amenity":"waste_basket"}},"type":"Feature"},
	{"geometry":{"coordinates":[2.589916,44.36802],"type":"Point"},"properties":{"osm_id":"2884393449","tag":{"amenity":"waste_basket"}},"type":"Feature"},
	{"geometry":{"coordinates":[2.584685,44.364739],"type":"Point"},"properties":{"osm_id":"2895469967","tag":{"amenity":"recycling","recycling:paper":"yes","recycling_type":"container"}},"type":"Feature"},
	{"geometry":{"coordinates":[2.585132,44.364709],"type":"Point"},"properties":{"osm_id":"2895469970","tag":{"amenity":"waste_basket","vending":"excrement_bags"}},"type":"Feature"},
	{"geometry":{"coordinates":[2.586482,44.364067],"type":"Point"},"properties":{"osm_id":"2895469973","tag":{"amenity":"recycling","description":"container in the ground","recycling_type":"container"}},"type":"Feature"},
	{"geometry":{"coordinates":[2.586482,44.364058],"type":"Point"},"properties":{"osm_id":"2895469974","tag":{"amenity":"recycling","description":"container in the ground","recycling_type":"container"}},"type":"Feature"},
	{"geometry":{"coordinates":[2.574659,44.350082],"type":"Point"},"properties":{"osm_id":"2918701767","tag":{"amenity":"waste_basket"}},"type":"Feature"},
	{"geometry":{"coordinates":[2.574544,44.348577],"type":"Point"},"properties":{"osm_id":"2918790324","tag":{"amenity":"waste_basket"}},"type":"Feature"},
	{"geometry":{"coordinates":[2.575174,44.348693],"type":"Point"},"properties":{"osm_id":"2918790326","tag":{"amenity":"waste_basket"}},"type":"Feature"},
	{"geometry":{"coordinates":[2.569953,44.351309],"type":"Point"},"properties":{"osm_id":"2918857458","tag":{"amenity":"waste_basket"}},"type":"Feature"},
	{"geometry":{"coordinates":[2.570258,44.351728],"type":"Point"},"properties":{"osm_id":"2918857467","tag":{"amenity":"waste_basket"}},"type":"Feature"},
	{"geometry":{"coordinates":[2.571639,44.348595],"type":"Point"},"properties":{"osm_id":"2926193851","tag":{"amenity":"waste_basket"}},"type":"Feature"},
	{"geometry":{"coordinates":[2.571311,44.348946],"type":"Point"},"properties":{"osm_id":"2926193880","tag":{"amenity":"waste_basket"}},"type":"Feature"},
	{"geometry":{"coordinates":[2.576518,44.346802],"type":"Point"},"properties":{"osm_id":"2987797951","tag":{"amenity":"recycling","recycling:glass_bottles":"yes","recycling_type":"container"}},"type":"Feature"},
	{"geometry":{"coordinates":[2.594625,44.366541],"type":"Point"},"properties":{"osm_id":"3021924711","tag":{"amenity":"waste_basket"}},"type":"Feature"},
	{"geometry":{"coordinates":[2.5946,44.365783],"type":"Point"},"properties":{"osm_id":"3021972902","tag":{"amenity":"waste_basket"}},"type":"Feature"},
	{"geometry":{"coordinates":[2.595601,44.365303],"type":"Point"},"properties":{"osm_id":"3021972916","tag":{"amenity":"waste_basket"}},"type":"Feature"},
	{"geometry":{"coordinates":[2.587743,44.35323],"type":"Point"},"properties":{"osm_id":"3027282338","tag":{"amenity":"waste_basket"}},"type":"Feature"},
	{"geometry":{"coordinates":[2.593388,44.363185],"type":"Point"},"properties":{"osm_id":"3032144651","tag":{"amenity":"waste_basket"}},"type":"Feature"},
	{"geometry":{"coordinates":[2.586106,44.364701],"type":"Point"},"properties":{"osm_id":"3032658423","tag":{"amenity":"waste_basket"}},"type":"Feature"},
	{"geometry":{"coordinates":[2.586164,44.36443],"type":"Point"},"properties":{"osm_id":"3032776837","tag":{"amenity":"waste_basket"}},"type":"Feature"},
	{"geometry":{"coordinates":[2.549628,44.367961],"type":"Point"},"properties":{"osm_id":"3090770668","tag":{"amenity":"waste_basket"}},"type":"Feature"},
	{"geometry":{"coordinates":[2.549763,44.367746],"type":"Point"},"properties":{"osm_id":"3090770682","tag":{"amenity":"waste_basket"}},"type":"Feature"},
	{"geometry":{"coordinates":[2.588446,44.363363],"type":"Point"},"properties":{"osm_id":"3103813537","tag":{"amenity":"recycling","recycling:light_bulbs":"yes","recycling_type":"container"}},"type":"Feature"},
	{"geometry":{"coordinates":[2.575924,44.354666],"type":"Point"},"properties":{"osm_id":"3164524654","tag":{"amenity":"waste_basket"}},"type":"Feature"},
	{"geometry":{"coordinates":[2.57578,44.354713],"type":"Point"},"properties":{"osm_id":"3164524656","tag":{"amenity":"waste_basket"}},"type":"Feature"},
	{"geometry":{"coordinates":[2.57718,44.353004],"type":"Point"},"properties":{"osm_id":"3164644707","tag":{"amenity":"recycling","recycling:paper":"yes","recycling_type":"container"}},"type":"Feature"},
	{"geometry":{"coordinates":[2.577157,44.353013],"type":"Point"},"properties":{"osm_id":"3164644709","tag":{"amenity":"recycling","recycling:glass_bottles":"yes","recycling_type":"container"}},"type":"Feature"},
	{"geometry":{"coordinates":[2.597767,44.398923],"type":"Point"},"properties":{"osm_id":"3174536774","tag":{"amenity":"waste_basket"}},"type":"Feature"},
	{"geometry":{"coordinates":[2.598349,44.399192],"type":"Point"},"properties":{"osm_id":"3174536780","tag":{"amenity":"waste_basket"}},"type":"Feature"},
	{"geometry":{"coordinates":[2.571689,44.348703],"type":"Point"},"properties":{"osm_id":"3174938970","tag":{"amenity":"waste_basket"}},"type":"Feature"},
	{"geometry":{"coordinates":[2.571741,44.34883],"type":"Point"},"properties":{"osm_id":"3174939016","tag":{"amenity":"waste_basket"}},"type":"Feature"},
	{"geometry":{"coordinates":[2.571396,44.348945],"type":"Point"},"properties":{"osm_id":"3174948849","tag":{"amenity":"waste_basket"}},"type":"Feature"},
	{"geometry":{"coordinates":[2.581183,44.353602],"type":"Point"},"properties":{"osm_id":"3178847459","tag":{"amenity":"waste_basket"}},"type":"Feature"},
	{"geometry":{"coordinates":[2.575014,44.351052],"type":"Point"},"properties":{"osm_id":"3179231591","tag":{"amenity":"waste_basket"}},"type":"Feature"},
	{"geometry":{"coordinates":[2.574847,44.351896],"type":"Point"},"properties":{"osm_id":"3179231614","tag":{"amenity":"waste_basket","vending":"excrement_bags"}},"type":"Feature"},
	{"geometry":{"coordinates":[2.576142,44.352133],"type":"Point"},"properties":{"osm_id":"3179231617","tag":{"amenity":"waste_basket"}},"type":"Feature"},
	{"geometry":{"coordinates":[2.573952,44.346648],"type":"Point"},"properties":{"osm_id":"3184882481","tag":{"amenity":"waste_basket"}},"type":"Feature"},
	{"geometry":{"coordinates":[2.574679,44.348206],"type":"Point"},"properties":{"osm_id":"3186976382","tag":{"amenity":"waste_basket","support":"pole","traffic_sign":"FR:B6d,M6h","vending":"excrement_bags"}},"type":"Feature"},
	{"geometry":{"coordinates":[2.574934,44.350946],"type":"Point"},"properties":{"osm_id":"3191507463","tag":{"amenity":"waste_basket","material":"plastic"}},"type":"Feature"},
	{"geometry":{"coordinates":[2.575424,44.349516],"type":"Point"},"properties":{"osm_id":"3214200060","tag":{"amenity":"waste_basket"}},"type":"Feature"},
	{"geometry":{"coordinates":[2.574703,44.349839],"type":"Point"},"properties":{"osm_id":"3214200665","tag":{"amenity":"waste_basket"}},"type":"Feature"},
	{"geometry":{"coordinates":[2.575809,44.349912],"type":"Point"},"properties":{"osm_id":"3214200666","tag":{"amenity":"waste_basket"}},"type":"Feature"},
	{"geometry":{"coordinates":[2.573278,44.359393],"type":"Point"},"properties":{"osm_id":"3249331160","tag":{"amenity":"recycling","recycling:paper":"yes","recycling_type":"container"}},"type":"Feature"},
	{"geometry":{"coordinates":[2.573271,44.359407],"type":"Point"},"properties":{"osm_id":"3249331161","tag":{"amenity":"recycling","recycling:glass_bottles":"yes","recycling_type":"container"}},"type":"Feature"},
	{"geometry":{"coordinates":[2.573212,44.359572],"type":"Point"},"properties":{"osm_id":"3249331164","tag":{"amenity":"waste_basket"}},"type":"Feature"},
	{"geometry":{"coordinates":[2.606915,44.397223],"type":"Point"},"properties":{"osm_id":"3249520680","tag":{"amenity":"waste_basket"}},"type":"Feature"},
	{"geometry":{"coordinates":[2.607105,44.39737],"type":"Point"},"properties":{"osm_id":"3249520688","tag":{"amenity":"waste_basket"}},"type":"Feature"},
	{"geometry":{"coordinates":[2.578967,44.339696],"type":"Point"},"properties":{"osm_id":"3249785601","tag":{"amenity":"recycling","recycling:paper":"yes","recycling_type":"container"}},"type":"Feature"},
	{"geometry":{"coordinates":[2.578986,44.339721],"type":"Point"},"properties":{"osm_id":"3249785602","tag":{"amenity":"recycling","recycling:glass_bottles":"yes","recycling_type":"container"}},"type":"Feature"},
	{"geometry":{"coordinates":[2.580114,44.343627],"type":"Point"},"properties":{"osm_id":"3249785614","tag":{"amenity":"waste_basket"}},"type":"Feature"},
	{"geometry":{"coordinates":[2.580161,44.343708],"type":"Point"},"properties":{"osm_id":"3249785617","tag":{"amenity":"waste_basket"}},"type":"Feature"},
	{"geometry":{"coordinates":[2.580528,44.343795],"type":"Point"},"properties":{"osm_id":"3249785619","tag":{"amenity":"waste_basket"}},"type":"Feature"},
	{"geometry":{"coordinates":[2.580579,44.343926],"type":"Point"},"properties":{"osm_id":"3249785627","tag":{"amenity":"waste_basket"}},"type":"Feature"},
	{"geometry":{"coordinates":[2.577444,44.340746],"type":"Point"},"properties":{"osm_id":"3250981951","tag":{"amenity":"waste_basket"}},"type":"Feature"},
	{"geometry":{"coordinates":[2.586376,44.340512],"type":"Point"},"properties":{"osm_id":"3250981953","tag":{"amenity":"waste_basket"}},"type":"Feature"},
	{"geometry":{"coordinates":[2.577405,44.340827],"type":"Point"},"properties":{"osm_id":"3250981957","tag":{"amenity":"waste_basket"}},"type":"Feature"},
	{"geometry":{"coordinates":[2.55097,44.373204],"type":"Point"},"properties":{"osm_id":"3265361494","tag":{"amenity":"recycling","recycling:glass_bottles":"yes","recycling:paper":"yes","recycling_type":"container"}},"type":"Feature"},
	{"geometry":{"coordinates":[2.581399,44.357272],"type":"Point"},"properties":{"osm_id":"3280643690","tag":{"amenity":"waste_basket"}},"type":"Feature"},
	{"geometry":{"coordinates":[2.581519,44.382344],"type":"Point"},"properties":{"osm_id":"3296274164","tag":{"amenity":"waste_basket"}},"type":"Feature"},
	{"geometry":{"coordinates":[2.5972,44.362818],"type":"Point"},"properties":{"osm_id":"3302871602","tag":{"amenity":"waste_basket"}},"type":"Feature"},
	{"geometry":{"coordinates":[2.597139,44.362896],"type":"Point"},"properties":{"osm_id":"3302871615","tag":{"amenity":"waste_basket"}},"type":"Feature"},
	{"geometry":{"coordinates":[2.597284,44.362924],"type":"Point"},"properties":{"osm_id":"3302871629","tag":{"amenity":"waste_basket"}},"type":"Feature"},
	{"geometry":{"coordinates":[2.59983,44.364029],"type":"Point"},"properties":{"osm_id":"3305518461","tag":{"amenity":"waste_basket"}},"type":"Feature"},
	{"geometry":{"coordinates":[2.597959,44.363008],"type":"Point"},"properties":{"osm_id":"3306247165","tag":{"amenity":"waste_basket","description":"Pas vraiement un parc mais une boite \u00c3\u00a0 caca pour les chiens","waste":"dog_excrement"}},"type":"Feature"},
	{"geometry":{"coordinates":[2.598054,44.363874],"type":"Point"},"properties":{"osm_id":"3306247223","tag":{"amenity":"waste_basket"}},"type":"Feature"},
	{"geometry":{"coordinates":[2.596266,44.366199],"type":"Point"},"properties":{"osm_id":"3306247380","tag":{"amenity":"waste_basket"}},"type":"Feature"},
	{"geometry":{"coordinates":[2.586992,44.365237],"type":"Point"},"properties":{"osm_id":"3310226335","tag":{"amenity":"waste_basket"}},"type":"Feature"},
	{"geometry":{"coordinates":[2.589594,44.367355],"type":"Point"},"properties":{"osm_id":"3310226340","tag":{"amenity":"waste_basket"}},"type":"Feature"},
	{"geometry":{"coordinates":[2.603312,44.362325],"type":"Point"},"properties":{"osm_id":"3312373249","tag":{"amenity":"recycling","recycling:paper":"yes","recycling_type":"container"}},"type":"Feature"},
	{"geometry":{"coordinates":[2.617351,44.363002],"type":"Point"},"properties":{"osm_id":"3312373328","tag":{"amenity":"waste_basket"}},"type":"Feature"},
	{"geometry":{"coordinates":[2.603863,44.366039],"type":"Point"},"properties":{"osm_id":"3312373396","tag":{"amenity":"recycling","recycling:glass_bottles":"yes","recycling_type":"container"}},"type":"Feature"},
	{"geometry":{"coordinates":[2.603872,44.366048],"type":"Point"},"properties":{"osm_id":"3312373397","tag":{"amenity":"recycling","recycling:paper":"yes","recycling_type":"container"}},"type":"Feature"},
	{"geometry":{"coordinates":[2.603931,44.366142],"type":"Point"},"properties":{"osm_id":"3312373399","tag":{"amenity":"waste_basket"}},"type":"Feature"},
	{"geometry":{"coordinates":[2.582705,44.357261],"type":"Point"},"properties":{"osm_id":"3314408699","tag":{"amenity":"waste_basket"}},"type":"Feature"},
	{"geometry":{"coordinates":[2.584698,44.357429],"type":"Point"},"properties":{"osm_id":"3314408708","tag":{"amenity":"waste_basket"}},"type":"Feature"},
	{"geometry":{"coordinates":[2.574841,44.346994],"type":"Point"},"properties":{"osm_id":"3314831504","tag":{"amenity":"waste_basket"}},"type":"Feature"},
	{"geometry":{"coordinates":[2.576971,44.348189],"type":"Point"},"properties":{"osm_id":"3314831520","tag":{"amenity":"waste_basket","fee":"no","vending":"excrement_bags"}},"type":"Feature"},
	{"geometry":{"coordinates":[2.595,44.366104],"type":"Point"},"properties":{"osm_id":"3318199117","tag":{"amenity":"waste_basket"}},"type":"Feature"},
	{"geometry":{"coordinates":[2.595367,44.366256],"type":"Point"},"properties":{"osm_id":"3318199118","tag":{"amenity":"waste_basket"}},"type":"Feature"},
	{"geometry":{"coordinates":[2.575972,44.347645],"type":"Point"},"properties":{"osm_id":"3318666176","tag":{"amenity":"waste_basket"}},"type":"Feature"},
	{"geometry":{"coordinates":[2.581735,44.381645],"type":"Point"},"properties":{"osm_id":"3324854945","tag":{"amenity":"waste_basket"}},"type":"Feature"},
	{"geometry":{"coordinates":[2.601979,44.366934],"type":"Point"},"properties":{"osm_id":"3356664989","tag":{"amenity":"waste_basket"}},"type":"Feature"},
	{"geometry":{"coordinates":[2.580898,44.358989],"type":"Point"},"properties":{"osm_id":"3360296754","tag":{"amenity":"waste_basket","colour":"black","material":"plastic"}},"type":"Feature"},
	{"geometry":{"coordinates":[2.580758,44.359119],"type":"Point"},"properties":{"osm_id":"3360296761","tag":{"amenity":"waste_basket"}},"type":"Feature"},
	{"geometry":{"coordinates":[2.580833,44.358864],"type":"Point"},"properties":{"osm_id":"3360296779","tag":{"amenity":"waste_basket"}},"type":"Feature"},
	{"geometry":{"coordinates":[2.588157,44.36828],"type":"Point"},"properties":{"osm_id":"3372313182","tag":{"amenity":"waste_basket"}},"type":"Feature"},
	{"geometry":{"coordinates":[2.568924,44.355853],"type":"Point"},"properties":{"osm_id":"3374964129","tag":{"amenity":"waste_basket"}},"type":"Feature"},
	{"geometry":{"coordinates":[2.568853,44.355726],"type":"Point"},"properties":{"osm_id":"3374964134","tag":{"amenity":"waste_basket"}},"type":"Feature"},
	{"geometry":{"coordinates":[2.599044,44.364532],"type":"Point"},"properties":{"osm_id":"3389208721","tag":{"amenity":"waste_basket"}},"type":"Feature"},
	{"geometry":{"coordinates":[2.577731,44.349052],"type":"Point"},"properties":{"osm_id":"3402230253","tag":{"amenity":"waste_basket"}},"type":"Feature"},
	{"geometry":{"coordinates":[2.577958,44.348613],"type":"Point"},"properties":{"osm_id":"3404164478","tag":{"amenity":"recycling","recycling:clothes":"yes","recycling:shoes":"yes","recycling_type":"container"}},"type":"Feature"},
	{"geometry":{"coordinates":[2.57843,44.348692],"type":"Point"},"properties":{"osm_id":"3404164695","tag":{"amenity":"waste_basket"}},"type":"Feature"},
	{"geometry":{"coordinates":[2.578147,44.348975],"type":"Point"},"properties":{"osm_id":"3404164741","tag":{"amenity":"waste_basket"}},"type":"Feature"},
	{"geometry":{"coordinates":[2.578487,44.349035],"type":"Point"},"properties":{"osm_id":"3404164760","tag":{"amenity":"waste_basket"}},"type":"Feature"},
	{"geometry":{"coordinates":[2.576856,44.34928],"type":"Point"},"properties":{"osm_id":"3404164780","tag":{"amenity":"waste_basket","support":"wall_mounted","waste":"cigarette"}},"type":"Feature"},
	{"geometry":{"coordinates":[2.576813,44.349412],"type":"Point"},"properties":{"osm_id":"3404164783","tag":{"amenity":"waste_basket"}},"type":"Feature"},
	{"geometry":{"coordinates":[2.577319,44.350142],"type":"Point"},"properties":{"osm_id":"3404164800","tag":{"amenity":"waste_basket"}},"type":"Feature"},
	{"geometry":{"coordinates":[2.557609,44.359126],"type":"Point"},"properties":{"osm_id":"3421803076","tag":{"amenity":"waste_basket"}},"type":"Feature"},
	{"geometry":{"coordinates":[2.558068,44.359164],"type":"Point"},"properties":{"osm_id":"3421803077","tag":{"amenity":"waste_basket"}},"type":"Feature"},
	{"geometry":{"coordinates":[2.558047,44.359264],"type":"Point"},"properties":{"osm_id":"3421803078","tag":{"amenity":"waste_basket"}},"type":"Feature"},
	{"geometry":{"coordinates":[2.589782,44.370637],"type":"Point"},"properties":{"osm_id":"3428851566","tag":{"amenity":"waste_basket"}},"type":"Feature"},
	{"geometry":{"coordinates":[2.575835,44.3493],"type":"Point"},"properties":{"osm_id":"3436800965","tag":{"amenity":"waste_basket"}},"type":"Feature"},
	{"geometry":{"coordinates":[2.633173,44.371599],"type":"Point"},"properties":{"osm_id":"3446755001","tag":{"amenity":"recycling","recycling:glass":"yes"}},"type":"Feature"},
	{"geometry":{"coordinates":[2.600792,44.364192],"type":"Point"},"properties":{"osm_id":"3502975206","tag":{"amenity":"waste_basket"}},"type":"Feature"},
	{"geometry":{"coordinates":[2.579324,44.358148],"type":"Point"},"properties":{"osm_id":"3509896253","tag":{"amenity":"waste_basket"}},"type":"Feature"},
	{"geometry":{"coordinates":[2.579528,44.358116],"type":"Point"},"properties":{"osm_id":"3509896259","tag":{"amenity":"waste_basket","description":"lieu pour que son chien fasse ses dejections","waste":"dog_excrement"}},"type":"Feature"},
	{"geometry":{"coordinates":[2.606968,44.376587],"type":"Point"},"properties":{"osm_id":"3510354277","tag":{"amenity":"recycling","recycling:glass_bottles":"yes","recycling_type":"container"}},"type":"Feature"},
	{"geometry":{"coordinates":[2.606973,44.376601],"type":"Point"},"properties":{"osm_id":"3510354278","tag":{"amenity":"recycling","recycling:paper":"yes","recycling_type":"container"}},"type":"Feature"},
	{"geometry":{"coordinates":[2.582972,44.376795],"type":"Point"},"properties":{"osm_id":"3510655950","tag":{"amenity":"waste_basket"}},"type":"Feature"},
	{"geometry":{"coordinates":[2.58322,44.378498],"type":"Point"},"properties":{"osm_id":"3510655963","tag":{"amenity":"waste_basket"}},"type":"Feature"},
	{"geometry":{"coordinates":[2.582317,44.380197],"type":"Point"},"properties":{"osm_id":"3510655967","tag":{"amenity":"waste_basket"}},"type":"Feature"},
	{"geometry":{"coordinates":[2.58613,44.382086],"type":"Point"},"properties":{"osm_id":"3510656916","tag":{"amenity":"waste_basket","support":"wall_mounted"}},"type":"Feature"},
	{"geometry":{"coordinates":[2.585222,44.382388],"type":"Point"},"properties":{"osm_id":"3510656945","tag":{"amenity":"waste_basket","support":"pole"}},"type":"Feature"},
	{"geometry":{"coordinates":[2.585534,44.38241],"type":"Point"},"properties":{"osm_id":"3510656948","tag":{"amenity":"waste_basket","support":"pole"}},"type":"Feature"},
	{"geometry":{"coordinates":[2.584756,44.38243],"type":"Point"},"properties":{"osm_id":"3510656959","tag":{"amenity":"waste_basket","support":"pole"}},"type":"Feature"},
	{"geometry":{"coordinates":[2.585036,44.382454],"type":"Point"},"properties":{"osm_id":"3510656968","tag":{"amenity":"waste_basket","support":"pole"}},"type":"Feature"},
	{"geometry":{"coordinates":[2.586218,44.382468],"type":"Point"},"properties":{"osm_id":"3510656973","tag":{"amenity":"waste_basket","support":"pole"}},"type":"Feature"},
	{"geometry":{"coordinates":[2.586323,44.382556],"type":"Point"},"properties":{"osm_id":"3510656998","tag":{"amenity":"waste_basket"}},"type":"Feature"},
	{"geometry":{"coordinates":[2.588328,44.383439],"type":"Point"},"properties":{"osm_id":"3510657039","tag":{"amenity":"waste_basket"}},"type":"Feature"},
	{"geometry":{"coordinates":[2.588208,44.383457],"type":"Point"},"properties":{"osm_id":"3510657042","tag":{"amenity":"waste_basket"}},"type":"Feature"},
	{"geometry":{"coordinates":[2.575432,44.373496],"type":"Point"},"properties":{"osm_id":"3525115951","tag":{"amenity":"waste_basket","waste":"dog_excrement"}},"type":"Feature"},
	{"geometry":{"coordinates":[2.582328,44.35318],"type":"Point"},"properties":{"osm_id":"3579939894","tag":{"amenity":"waste_basket"}},"type":"Feature"},
	{"geometry":{"coordinates":[2.615526,44.368034],"type":"Point"},"properties":{"osm_id":"3616178831","tag":{"amenity":"recycling","recycling:glass_bottles":"yes","recycling_type":"container"}},"type":"Feature"},
	{"geometry":{"coordinates":[2.615544,44.368059],"type":"Point"},"properties":{"osm_id":"3616178832","tag":{"amenity":"recycling","recycling:magazines":"yes","recycling:paper":"yes","recycling_type":"container"}},"type":"Feature"},
	{"geometry":{"coordinates":[2.591228,44.366992],"type":"Point"},"properties":{"osm_id":"3616876730","tag":{"amenity":"waste_basket"}},"type":"Feature"},
	{"geometry":{"coordinates":[2.572094,44.360196],"type":"Point"},"properties":{"osm_id":"3626507898","tag":{"amenity":"recycling"}},"type":"Feature"},
	{"geometry":{"coordinates":[2.571588,44.347072],"type":"Point"},"properties":{"osm_id":"3661326700","tag":{"amenity":"waste_basket"}},"type":"Feature"},
	{"geometry":{"coordinates":[2.571289,44.347206],"type":"Point"},"properties":{"osm_id":"3661326703","tag":{"amenity":"waste_basket"}},"type":"Feature"},
	{"geometry":{"coordinates":[2.566819,44.343029],"type":"Point"},"properties":{"osm_id":"3671423651","tag":{"amenity":"recycling","recycling:paper":"yes","recycling_type":"container"}},"type":"Feature"},
	{"geometry":{"coordinates":[2.566817,44.343015],"type":"Point"},"properties":{"osm_id":"3671423652","tag":{"amenity":"recycling","recycling:glass_bottles":"yes","recycling_type":"container"}},"type":"Feature"},
	{"geometry":{"coordinates":[2.566245,44.344631],"type":"Point"},"properties":{"osm_id":"3671423654","tag":{"amenity":"waste_basket"}},"type":"Feature"},
	{"geometry":{"coordinates":[2.566498,44.344672],"type":"Point"},"properties":{"osm_id":"3671423661","tag":{"amenity":"waste_basket"}},"type":"Feature"},
	{"geometry":{"coordinates":[2.568542,44.344165],"type":"Point"},"properties":{"osm_id":"3671423682","tag":{"amenity":"waste_basket","survey:date":"2015"}},"type":"Feature"},
	{"geometry":{"coordinates":[2.564692,44.343459],"type":"Point"},"properties":{"osm_id":"3671463833","tag":{"amenity":"waste_basket"}},"type":"Feature"},
	{"geometry":{"coordinates":[2.56368,44.343031],"type":"Point"},"properties":{"osm_id":"3671469447","tag":{"amenity":"waste_basket"}},"type":"Feature"},
	{"geometry":{"coordinates":[2.560497,44.350274],"type":"Point"},"properties":{"osm_id":"3674564437","tag":{"amenity":"recycling","recycling:glass":"yes"}},"type":"Feature"},
	{"geometry":{"coordinates":[2.560504,44.350253],"type":"Point"},"properties":{"osm_id":"3674564438","tag":{"amenity":"recycling","recycling:paper":"yes"}},"type":"Feature"},
	{"geometry":{"coordinates":[2.574609,44.355934],"type":"Point"},"properties":{"osm_id":"3674960790","tag":{"amenity":"recycling","recycling:glass":"yes"}},"type":"Feature"},
	{"geometry":{"coordinates":[2.574628,44.355925],"type":"Point"},"properties":{"osm_id":"3674960791","tag":{"amenity":"recycling","recycling:paper":"yes"}},"type":"Feature"},
	{"geometry":{"coordinates":[2.574355,44.356034],"type":"Point"},"properties":{"osm_id":"3674960794","tag":{"amenity":"waste_basket"}},"type":"Feature"},
	{"geometry":{"coordinates":[2.573682,44.356353],"type":"Point"},"properties":{"osm_id":"3674960807","tag":{"amenity":"waste_basket"}},"type":"Feature"},
	{"geometry":{"coordinates":[2.570795,44.351234],"type":"Point"},"properties":{"osm_id":"3685824125","tag":{"amenity":"waste_basket"}},"type":"Feature"},
	{"geometry":{"coordinates":[2.56825,44.351358],"type":"Point"},"properties":{"osm_id":"3685824126","tag":{"amenity":"waste_basket"}},"type":"Feature"},
	{"geometry":{"coordinates":[2.567067,44.35146],"type":"Point"},"properties":{"osm_id":"3685824139","tag":{"amenity":"waste_basket"}},"type":"Feature"},
	{"geometry":{"coordinates":[2.56982,44.351482],"type":"Point"},"properties":{"osm_id":"3685824145","tag":{"amenity":"waste_basket"}},"type":"Feature"},
	{"geometry":{"coordinates":[2.568811,44.351513],"type":"Point"},"properties":{"osm_id":"3685824160","tag":{"amenity":"waste_basket"}},"type":"Feature"},
	{"geometry":{"coordinates":[2.570168,44.351536],"type":"Point"},"properties":{"osm_id":"3685824164","tag":{"amenity":"waste_basket"}},"type":"Feature"},
	{"geometry":{"coordinates":[2.567409,44.351593],"type":"Point"},"properties":{"osm_id":"3685824171","tag":{"amenity":"waste_basket"}},"type":"Feature"},
	{"geometry":{"coordinates":[2.566937,44.351763],"type":"Point"},"properties":{"osm_id":"3685824187","tag":{"amenity":"waste_basket"}},"type":"Feature"},
	{"geometry":{"coordinates":[2.569277,44.35199],"type":"Point"},"properties":{"osm_id":"3685824205","tag":{"amenity":"waste_basket"}},"type":"Feature"},
	{"geometry":{"coordinates":[2.568868,44.351963],"type":"Point"},"properties":{"osm_id":"3685824208","tag":{"amenity":"waste_basket"}},"type":"Feature"},
	{"geometry":{"coordinates":[2.567068,44.352035],"type":"Point"},"properties":{"osm_id":"3685824212","tag":{"amenity":"waste_basket"}},"type":"Feature"},
	{"geometry":{"coordinates":[2.568114,44.351227],"type":"Point"},"properties":{"osm_id":"3686794953","tag":{"amenity":"recycling","recycling:glass_bottles":"yes","recycling_type":"container"}},"type":"Feature"},
	{"geometry":{"coordinates":[2.565417,44.351266],"type":"Point"},"properties":{"osm_id":"3686794965","tag":{"amenity":"waste_basket"}},"type":"Feature"},
	{"geometry":{"coordinates":[2.564742,44.351004],"type":"Point"},"properties":{"osm_id":"3686900141","tag":{"amenity":"waste_basket"}},"type":"Feature"},
	{"geometry":{"coordinates":[2.564882,44.351123],"type":"Point"},"properties":{"osm_id":"3686900153","tag":{"amenity":"waste_basket"}},"type":"Feature"},
	{"geometry":{"coordinates":[2.564846,44.351159],"type":"Point"},"properties":{"osm_id":"3686900159","tag":{"amenity":"waste_basket"}},"type":"Feature"},
	{"geometry":{"coordinates":[2.565083,44.351214],"type":"Point"},"properties":{"osm_id":"3686900163","tag":{"amenity":"waste_basket"}},"type":"Feature"},
	{"geometry":{"coordinates":[2.575308,44.356838],"type":"Point"},"properties":{"osm_id":"3742361982","tag":{"amenity":"waste_basket"}},"type":"Feature"},
	{"geometry":{"coordinates":[2.578032,44.346527],"type":"Point"},"properties":{"osm_id":"3753035531","tag":{"amenity":"waste_basket","colour":"black","material":"plastic"}},"type":"Feature"},
	{"geometry":{"coordinates":[2.577539,44.356228],"type":"Point"},"properties":{"osm_id":"3873265430","tag":{"amenity":"waste_basket","colour":"black"}},"type":"Feature"},
	{"geometry":{"coordinates":[2.578752,44.356466],"type":"Point"},"properties":{"osm_id":"3873265770","tag":{"amenity":"waste_basket","colour":"black"}},"type":"Feature"},
	{"geometry":{"coordinates":[2.577507,44.356805],"type":"Point"},"properties":{"osm_id":"3873265805","tag":{"amenity":"recycling","operator":"Le Relais","recycling:clothes":"yes","recycling:shoes":"yes","recycling_type":"container"}},"type":"Feature"},
	{"geometry":{"coordinates":[2.577497,44.356814],"type":"Point"},"properties":{"osm_id":"3873265806","tag":{"amenity":"recycling","recycling:magazines":"yes","recycling:newspaper":"yes","recycling:paper":"yes","recycling_type":"container"}},"type":"Feature"},
	{"geometry":{"coordinates":[2.577489,44.356825],"type":"Point"},"properties":{"osm_id":"3873265807","tag":{"amenity":"recycling","recycling:glass_bottles":"yes","recycling_type":"container"}},"type":"Feature"},
	{"geometry":{"coordinates":[2.577477,44.356842],"type":"Point"},"properties":{"osm_id":"3873265811","tag":{"amenity":"recycling","recycling:engine_oil":"yes","recycling_type":"container"}},"type":"Feature"},
	{"geometry":{"coordinates":[2.578535,44.356256],"type":"Point"},"properties":{"osm_id":"3885815020","tag":{"amenity":"waste_basket"}},"type":"Feature"},
	{"geometry":{"coordinates":[2.552584,44.339971],"type":"Point"},"properties":{"osm_id":"3896611403","tag":{"amenity":"waste_basket","colour":"green"}},"type":"Feature"},
	{"geometry":{"coordinates":[2.552618,44.340253],"type":"Point"},"properties":{"osm_id":"3896611423","tag":{"amenity":"waste_basket","support":"wall_mounted","waste":"cigarette"}},"type":"Feature"},
	{"geometry":{"coordinates":[2.553398,44.340302],"type":"Point"},"properties":{"osm_id":"3896611428","tag":{"amenity":"waste_basket"}},"type":"Feature"},
	{"geometry":{"coordinates":[2.554258,44.340362],"type":"Point"},"properties":{"osm_id":"3896611441","tag":{"access":"yes","amenity":"waste_disposal","description":"conteneur enterr\u00c3\u00a9;conteneur enterre","location":"underground","operator":"Rodez Agglom\u00c3\u00a9ration","waste":"trash"}},"type":"Feature"},
	{"geometry":{"coordinates":[2.553829,44.340377],"type":"Point"},"properties":{"osm_id":"3896611442","tag":{"amenity":"waste_basket"}},"type":"Feature"},
	{"geometry":{"coordinates":[2.554263,44.340388],"type":"Point"},"properties":{"osm_id":"3896611446","tag":{"amenity":"recycling","colour":"yellow","description":"conteneur enterr\u00c3\u00a9","location":"underground","material":"metal","opening_hours:covid19":"open","operator":"Rodez Agglom\u00c3\u00a9ration","recycling:cans":"yes","recycling:cardboard":"yes","recycling:paper":"yes","recycling:plastic_bottles":"yes","recycling_type":"container"}},"type":"Feature"},
	{"geometry":{"coordinates":[2.553863,44.340549],"type":"Point"},"properties":{"osm_id":"3896837862","tag":{"amenity":"waste_basket","material":"metal","operator":"Mairie d'Olemps","support":"wall_mounted","waste":"cigarette"}},"type":"Feature"},
	{"geometry":{"coordinates":[2.553916,44.340591],"type":"Point"},"properties":{"osm_id":"3896837872","tag":{"amenity":"waste_basket","material":"metal","operator":"mairie d'Olemps"}},"type":"Feature"},
	{"geometry":{"coordinates":[2.553989,44.340822],"type":"Point"},"properties":{"osm_id":"3896837880","tag":{"amenity":"recycling","description":"conteneur enterr\u00c3\u00a9","location":"underground","material":"metal","operator":"Rodez Agglom\u00c3\u00a9ration","recycling:glass_bottles":"yes","recycling:paper":"yes","recycling_type":"container"}},"type":"Feature"},
	{"geometry":{"coordinates":[2.56228,44.36352],"type":"Point"},"properties":{"osm_id":"3896928184","tag":{"amenity":"recycling","colour":"green","recycling:glass_bottles":"yes","recycling_type":"container"}},"type":"Feature"},
	{"geometry":{"coordinates":[2.580007,44.356532],"type":"Point"},"properties":{"osm_id":"3898697621","tag":{"amenity":"waste_basket","colour":"black"}},"type":"Feature"},
	{"geometry":{"coordinates":[2.580653,44.356777],"type":"Point"},"properties":{"osm_id":"3898697657","tag":{"amenity":"waste_basket","colour":"black","material":"plastic"}},"type":"Feature"},
	{"geometry":{"coordinates":[2.580982,44.356903],"type":"Point"},"properties":{"osm_id":"3898697669","tag":{"amenity":"waste_basket","colour":"black","material":"plastic"}},"type":"Feature"},
	{"geometry":{"coordinates":[2.553984,44.341169],"type":"Point"},"properties":{"osm_id":"3902576511","tag":{"amenity":"waste_basket"}},"type":"Feature"},
	{"geometry":{"coordinates":[2.580987,44.356604],"type":"Point"},"properties":{"osm_id":"3902864269","tag":{"amenity":"waste_basket","colour":"black","material":"plastic"}},"type":"Feature"},
	{"geometry":{"coordinates":[2.573202,44.349668],"type":"Point"},"properties":{"osm_id":"3945668892","tag":{"amenity":"waste_basket","description":"place where dog do they poo","waste":"dog_excrement"}},"type":"Feature"},
	{"geometry":{"coordinates":[2.593414,44.365758],"type":"Point"},"properties":{"osm_id":"3976385787","tag":{"amenity":"waste_basket","colour":"blue"}},"type":"Feature"},
	{"geometry":{"coordinates":[2.608652,44.373153],"type":"Point"},"properties":{"osm_id":"4026431439","tag":{"amenity":"waste_basket"}},"type":"Feature"},
	{"geometry":{"coordinates":[2.574382,44.34666],"type":"Point"},"properties":{"osm_id":"4028567823","tag":{"amenity":"waste_basket","colour":"black"}},"type":"Feature"},
	{"geometry":{"coordinates":[2.573065,44.347303],"type":"Point"},"properties":{"osm_id":"4028567860","tag":{"amenity":"waste_basket","colour":"black"}},"type":"Feature"},
	{"geometry":{"coordinates":[2.572738,44.347315],"type":"Point"},"properties":{"osm_id":"4028567863","tag":{"amenity":"waste_basket","colour":"black"}},"type":"Feature"},
	{"geometry":{"coordinates":[2.572639,44.34854],"type":"Point"},"properties":{"osm_id":"4034830395","tag":{"amenity":"recycling","colour":"blue","recycling:magazines":"yes","recycling:newspaper":"yes","recycling_type":"container"}},"type":"Feature"},
	{"geometry":{"coordinates":[2.572637,44.348556],"type":"Point"},"properties":{"osm_id":"4034830396","tag":{"amenity":"recycling","colour":"green","recycling:glass_bottles":"yes","recycling_type":"container"}},"type":"Feature"},
	{"geometry":{"coordinates":[2.572739,44.348964],"type":"Point"},"properties":{"osm_id":"4034830408","tag":{"amenity":"waste_basket","colour":"black"}},"type":"Feature"},
	{"geometry":{"coordinates":[2.572761,44.348983],"type":"Point"},"properties":{"osm_id":"4034830409","tag":{"amenity":"waste_basket","waste":"chewing-gum"}},"type":"Feature"},
	{"geometry":{"coordinates":[2.582848,44.373486],"type":"Point"},"properties":{"osm_id":"4036793555","tag":{"amenity":"waste_disposal","underground":"yes"}},"type":"Feature"},
	{"geometry":{"coordinates":[2.58286,44.373497],"type":"Point"},"properties":{"osm_id":"4036793556","tag":{"amenity":"waste_disposal","underground":"yes"}},"type":"Feature"},
	{"geometry":{"coordinates":[2.582877,44.373512],"type":"Point"},"properties":{"osm_id":"4036793557","tag":{"amenity":"recycling","recycling_type":"container","underground":"yes"}},"type":"Feature"},
	{"geometry":{"coordinates":[2.582892,44.373526],"type":"Point"},"properties":{"osm_id":"4036793558","tag":{"amenity":"recycling","recycling_type":"container","underground":"yes"}},"type":"Feature"},
	{"geometry":{"coordinates":[2.581782,44.383382],"type":"Point"},"properties":{"osm_id":"4038801216","tag":{"amenity":"waste_basket"}},"type":"Feature"},
	{"geometry":{"coordinates":[2.578487,44.374972],"type":"Point"},"properties":{"osm_id":"4038801241","tag":{"amenity":"recycling","recycling_type":"container"}},"type":"Feature"},
	{"geometry":{"coordinates":[2.578516,44.375004],"type":"Point"},"properties":{"osm_id":"4038801242","tag":{"amenity":"waste_disposal"}},"type":"Feature"},
	{"geometry":{"coordinates":[2.578547,44.375031],"type":"Point"},"properties":{"osm_id":"4038801243","tag":{"amenity":"waste_disposal"}},"type":"Feature"},
	{"geometry":{"coordinates":[2.583341,44.374054],"type":"Point"},"properties":{"osm_id":"4046148631","tag":{"amenity":"waste_basket","support":"wall_mounted","waste":"cigarette"}},"type":"Feature"},
	{"geometry":{"coordinates":[2.583921,44.374361],"type":"Point"},"properties":{"osm_id":"4046148646","tag":{"amenity":"waste_basket","support":"wall_mounted","waste":"cigarette"}},"type":"Feature"},
	{"geometry":{"coordinates":[2.58426,44.374575],"type":"Point"},"properties":{"osm_id":"4046148666","tag":{"amenity":"waste_basket","support":"wall_mounted","waste":"cigarette"}},"type":"Feature"},
	{"geometry":{"coordinates":[2.587041,44.366744],"type":"Point"},"properties":{"osm_id":"4059444412","tag":{"amenity":"waste_basket"}},"type":"Feature"},
	{"geometry":{"coordinates":[2.58423,44.365354],"type":"Point"},"properties":{"osm_id":"4059444426","tag":{"amenity":"waste_basket"}},"type":"Feature"},
	{"geometry":{"coordinates":[2.56647,44.361895],"type":"Point"},"properties":{"osm_id":"4061847997","tag":{"amenity":"waste_basket"}},"type":"Feature"},
	{"geometry":{"coordinates":[2.566564,44.361879],"type":"Point"},"properties":{"osm_id":"4061847998","tag":{"amenity":"waste_basket"}},"type":"Feature"},
	{"geometry":{"coordinates":[2.566661,44.361863],"type":"Point"},"properties":{"osm_id":"4061847999","tag":{"amenity":"waste_basket"}},"type":"Feature"},
	{"geometry":{"coordinates":[2.576169,44.349295],"type":"Point"},"properties":{"osm_id":"4068403124","tag":{"amenity":"waste_basket"}},"type":"Feature"},
	{"geometry":{"coordinates":[2.576263,44.349356],"type":"Point"},"properties":{"osm_id":"4068403131","tag":{"amenity":"waste_basket"}},"type":"Feature"},
	{"geometry":{"coordinates":[2.57509,44.349534],"type":"Point"},"properties":{"osm_id":"4068403134","tag":{"amenity":"waste_basket"}},"type":"Feature"},
	{"geometry":{"coordinates":[2.593005,44.366081],"type":"Point"},"properties":{"osm_id":"4090588632","tag":{"amenity":"waste_basket"}},"type":"Feature"},
	{"geometry":{"coordinates":[2.604457,44.394588],"type":"Point"},"properties":{"osm_id":"4124008005","tag":{"amenity":"waste_basket"}},"type":"Feature"},
	{"geometry":{"coordinates":[2.607934,44.398199],"type":"Point"},"properties":{"osm_id":"4124008617","tag":{"amenity":"waste_basket"}},"type":"Feature"},
	{"geometry":{"coordinates":[2.607986,44.39824],"type":"Point"},"properties":{"osm_id":"4124008619","tag":{"amenity":"waste_basket"}},"type":"Feature"},
	{"geometry":{"coordinates":[2.559498,44.35768],"type":"Point"},"properties":{"osm_id":"4125811015","tag":{"amenity":"recycling","location":"underground","recycling_type":"container"}},"type":"Feature"},
	{"geometry":{"coordinates":[2.559509,44.357687],"type":"Point"},"properties":{"osm_id":"4125811016","tag":{"amenity":"recycling","location":"underground","recycling_type":"container"}},"type":"Feature"},
	{"geometry":{"coordinates":[2.559531,44.357709],"type":"Point"},"properties":{"osm_id":"4125811017","tag":{"amenity":"waste_basket","fee":"no","vending":"excrement_bags"}},"type":"Feature"},
	{"geometry":{"coordinates":[2.573384,44.349648],"type":"Point"},"properties":{"osm_id":"4125967922","tag":{"amenity":"waste_basket"}},"type":"Feature"},
	{"geometry":{"coordinates":[2.57552,44.350836],"type":"Point"},"properties":{"osm_id":"4126299156","tag":{"amenity":"waste_basket","colour":"black","material":"plastic"}},"type":"Feature"},
	{"geometry":{"coordinates":[2.576436,44.353442],"type":"Point"},"properties":{"osm_id":"4126440661","tag":{"amenity":"waste_basket","colour":"black","material":"plastic"}},"type":"Feature"},
	{"geometry":{"coordinates":[2.575944,44.346619],"type":"Point"},"properties":{"osm_id":"4130892454","tag":{"amenity":"waste_basket"}},"type":"Feature"},
	{"geometry":{"coordinates":[2.573223,44.350036],"type":"Point"},"properties":{"osm_id":"4133475857","tag":{"amenity":"waste_basket","colour":"grey","material":"metal"}},"type":"Feature"},
	{"geometry":{"coordinates":[2.596268,44.360385],"type":"Point"},"properties":{"osm_id":"4136089536","tag":{"amenity":"waste_basket"}},"type":"Feature"},
	{"geometry":{"coordinates":[2.584154,44.353651],"type":"Point"},"properties":{"osm_id":"4136270589","tag":{"amenity":"waste_basket","material":"wood"}},"type":"Feature"},
	{"geometry":{"coordinates":[2.584244,44.353659],"type":"Point"},"properties":{"osm_id":"4136270591","tag":{"amenity":"waste_basket","material":"wood"}},"type":"Feature"},
	{"geometry":{"coordinates":[2.585717,44.3534],"type":"Point"},"properties":{"osm_id":"4138945128","tag":{"amenity":"waste_basket","material":"wood"}},"type":"Feature"},
	{"geometry":{"coordinates":[2.585125,44.353802],"type":"Point"},"properties":{"osm_id":"4138945137","tag":{"amenity":"waste_basket","material":"wood"}},"type":"Feature"},
	{"geometry":{"coordinates":[2.585136,44.353856],"type":"Point"},"properties":{"osm_id":"4138945140","tag":{"amenity":"waste_basket","material":"wood"}},"type":"Feature"},
	{"geometry":{"coordinates":[2.584873,44.354052],"type":"Point"},"properties":{"osm_id":"4138945143","tag":{"amenity":"recycling","recycling:glass_bottles":"yes","recycling_type":"container"}},"type":"Feature"},
	{"geometry":{"coordinates":[2.593611,44.357247],"type":"Point"},"properties":{"osm_id":"4138945161","tag":{"amenity":"waste_basket"}},"type":"Feature"},
	{"geometry":{"coordinates":[2.593878,44.357398],"type":"Point"},"properties":{"osm_id":"4138945163","tag":{"amenity":"waste_basket"}},"type":"Feature"},
	{"geometry":{"coordinates":[2.594102,44.357733],"type":"Point"},"properties":{"osm_id":"4138945168","tag":{"amenity":"waste_basket"}},"type":"Feature"},
	{"geometry":{"coordinates":[2.591825,44.359524],"type":"Point"},"properties":{"osm_id":"4138949019","tag":{"amenity":"recycling","recycling:engine_oil":"yes","recycling_type":"container"}},"type":"Feature"},
	{"geometry":{"coordinates":[2.573386,44.350588],"type":"Point"},"properties":{"osm_id":"4141114133","tag":{"amenity":"waste_basket"}},"type":"Feature"},
	{"geometry":{"coordinates":[2.572478,44.351077],"type":"Point"},"properties":{"osm_id":"4141114168","tag":{"amenity":"waste_basket","material":"metal"}},"type":"Feature"},
	{"geometry":{"coordinates":[2.571503,44.35112],"type":"Point"},"properties":{"osm_id":"4141114171","tag":{"amenity":"waste_basket","material":"metal"}},"type":"Feature"},
	{"geometry":{"coordinates":[2.570337,44.352056],"type":"Point"},"properties":{"osm_id":"4141114185","tag":{"amenity":"waste_basket","colour":"black"}},"type":"Feature"},
	{"geometry":{"coordinates":[2.56788,44.353061],"type":"Point"},"properties":{"osm_id":"4141115620","tag":{"amenity":"waste_basket","colour":"black"}},"type":"Feature"},
	{"geometry":{"coordinates":[2.589986,44.369209],"type":"Point"},"properties":{"osm_id":"4178891161","tag":{"amenity":"waste_basket"}},"type":"Feature"},
	{"geometry":{"coordinates":[2.591213,44.372644],"type":"Point"},"properties":{"osm_id":"4215330835","tag":{"amenity":"waste_basket","colour":"yellow"}},"type":"Feature"},
	{"geometry":{"coordinates":[2.590999,44.372661],"type":"Point"},"properties":{"osm_id":"4215330837","tag":{"amenity":"waste_basket","colour":"yellow"}},"type":"Feature"},
	{"geometry":{"coordinates":[2.590775,44.372688],"type":"Point"},"properties":{"osm_id":"4215330839","tag":{"amenity":"waste_basket","colour":"yellow"}},"type":"Feature"},
	{"geometry":{"coordinates":[2.595842,44.365604],"type":"Point"},"properties":{"osm_id":"4235129722","tag":{"amenity":"waste_basket"}},"type":"Feature"},
	{"geometry":{"coordinates":[2.595759,44.36564],"type":"Point"},"properties":{"osm_id":"4235129723","tag":{"amenity":"waste_basket"}},"type":"Feature"},
	{"geometry":{"coordinates":[2.584204,44.352866],"type":"Point"},"properties":{"osm_id":"4333806985","tag":{"amenity":"waste_basket"}},"type":"Feature"},
	{"geometry":{"coordinates":[2.590332,44.363443],"type":"Point"},"properties":{"osm_id":"4341793015","tag":{"amenity":"waste_basket"}},"type":"Feature"},
	{"geometry":{"coordinates":[2.578735,44.348913],"type":"Point"},"properties":{"osm_id":"4414944115","tag":{"amenity":"waste_basket"}},"type":"Feature"},
	{"geometry":{"coordinates":[2.578016,44.347222],"type":"Point"},"properties":{"osm_id":"4442220361","tag":{"amenity":"waste_basket","material":"plastic","support":"wall_mounted"}},"type":"Feature"},
	{"geometry":{"coordinates":[2.577943,44.347523],"type":"Point"},"properties":{"osm_id":"4442220368","tag":{"amenity":"waste_basket","material":"metal","operator":"Ville de Rodez","vending":"excrement_bags"}},"type":"Feature"},
	{"geometry":{"coordinates":[2.563934,44.339783],"type":"Point"},"properties":{"osm_id":"4519273585","tag":{"amenity":"waste_basket","material":"wood"}},"type":"Feature"},
	{"geometry":{"coordinates":[2.563699,44.339893],"type":"Point"},"properties":{"osm_id":"4519273697","tag":{"amenity":"recycling","operator":"Rodez Agglom\u00c3\u00a9ration","recycling:cardboard":"yes","recycling:paper":"yes","recycling:papers":"yes","recycling_type":"container"}},"type":"Feature"},
	{"geometry":{"coordinates":[2.589349,44.361266],"type":"Point"},"properties":{"osm_id":"4643814761","tag":{"amenity":"recycling","indoor":"yes","recycling:light_bulbs":"yes","recycling_type":"container"}},"type":"Feature"},
	{"geometry":{"coordinates":[2.589341,44.361271],"type":"Point"},"properties":{"osm_id":"4643814762","tag":{"amenity":"waste_basket","indoor":"yes"}},"type":"Feature"},
	{"geometry":{"coordinates":[2.589322,44.361343],"type":"Point"},"properties":{"osm_id":"4643814764","tag":{"amenity":"waste_basket","colour":"black"}},"type":"Feature"},
	{"geometry":{"coordinates":[2.603452,44.393031],"type":"Point"},"properties":{"osm_id":"4711836253","tag":{"amenity":"waste_basket","colour":"white"}},"type":"Feature"},
	{"geometry":{"coordinates":[2.603497,44.393066],"type":"Point"},"properties":{"osm_id":"4711836256","tag":{"amenity":"waste_basket","colour":"white"}},"type":"Feature"},
	{"geometry":{"coordinates":[2.603731,44.393018],"type":"Point"},"properties":{"osm_id":"4711836261","tag":{"amenity":"recycling","operator":"Le Relais","recycling:clothes":"yes","recycling:shoes":"yes","recycling_type":"container"}},"type":"Feature"},
	{"geometry":{"coordinates":[2.603748,44.392977],"type":"Point"},"properties":{"osm_id":"4711836262","tag":{"amenity":"recycling","recycling:magazines":"yes","recycling:paper":"yes","recycling_type":"container"}},"type":"Feature"},
	{"geometry":{"coordinates":[2.60374,44.392999],"type":"Point"},"properties":{"osm_id":"4711836263","tag":{"amenity":"recycling","recycling:glass_bottles":"yes","recycling_type":"container"}},"type":"Feature"},
	{"geometry":{"coordinates":[2.575694,44.393351],"type":"Point"},"properties":{"osm_id":"4749274594","tag":{"amenity":"waste_disposal"}},"type":"Feature"},
	{"geometry":{"coordinates":[2.56566,44.378644],"type":"Point"},"properties":{"osm_id":"4757477070","tag":{"amenity":"waste_basket"}},"type":"Feature"},
	{"geometry":{"coordinates":[2.563722,44.393932],"type":"Point"},"properties":{"osm_id":"4757480027","tag":{"amenity":"waste_disposal"}},"type":"Feature"},
	{"geometry":{"coordinates":[2.562419,44.397132],"type":"Point"},"properties":{"osm_id":"4757480042","tag":{"amenity":"waste_disposal"}},"type":"Feature"},
	{"geometry":{"coordinates":[2.627034,44.366514],"type":"Point"},"properties":{"osm_id":"4913167019","tag":{"amenity":"waste_basket"}},"type":"Feature"},
	{"geometry":{"coordinates":[2.583045,44.353028],"type":"Point"},"properties":{"osm_id":"5329421191","tag":{"amenity":"waste_basket"}},"type":"Feature"},
	{"geometry":{"coordinates":[2.583429,44.352964],"type":"Point"},"properties":{"osm_id":"5329421198","tag":{"amenity":"waste_basket"}},"type":"Feature"},
	{"geometry":{"coordinates":[2.587823,44.352479],"type":"Point"},"properties":{"osm_id":"5329421338","tag":{"amenity":"waste_basket"}},"type":"Feature"},
	{"geometry":{"coordinates":[2.588134,44.352328],"type":"Point"},"properties":{"osm_id":"5329421340","tag":{"amenity":"waste_basket"}},"type":"Feature"},
	{"geometry":{"coordinates":[2.588799,44.351994],"type":"Point"},"properties":{"osm_id":"5329421346","tag":{"amenity":"waste_basket"}},"type":"Feature"},
	{"geometry":{"coordinates":[2.589683,44.351637],"type":"Point"},"properties":{"osm_id":"5329421349","tag":{"amenity":"waste_basket"}},"type":"Feature"},
	{"geometry":{"coordinates":[2.59008,44.351433],"type":"Point"},"properties":{"osm_id":"5329421352","tag":{"amenity":"waste_basket"}},"type":"Feature"},
	{"geometry":{"coordinates":[2.590367,44.351246],"type":"Point"},"properties":{"osm_id":"5329421355","tag":{"amenity":"waste_basket"}},"type":"Feature"},
	{"geometry":{"coordinates":[2.585968,44.353286],"type":"Point"},"properties":{"osm_id":"5329421357","tag":{"amenity":"waste_basket"}},"type":"Feature"},
	{"geometry":{"coordinates":[2.586208,44.353173],"type":"Point"},"properties":{"osm_id":"5329421358","tag":{"amenity":"waste_basket"}},"type":"Feature"},
	{"geometry":{"coordinates":[2.593951,44.349756],"type":"Point"},"properties":{"osm_id":"5329442391","tag":{"amenity":"waste_basket"}},"type":"Feature"},
	{"geometry":{"coordinates":[2.596686,44.350226],"type":"Point"},"properties":{"osm_id":"5329442396","tag":{"amenity":"waste_basket"}},"type":"Feature"},
	{"geometry":{"coordinates":[2.596796,44.350328],"type":"Point"},"properties":{"osm_id":"5329442397","tag":{"amenity":"waste_basket"}},"type":"Feature"},
	{"geometry":{"coordinates":[2.595242,44.351887],"type":"Point"},"properties":{"osm_id":"5329442403","tag":{"amenity":"waste_basket"}},"type":"Feature"},
	{"geometry":{"coordinates":[2.590895,44.355189],"type":"Point"},"properties":{"osm_id":"5329442415","tag":{"amenity":"waste_basket"}},"type":"Feature"},
	{"geometry":{"coordinates":[2.59173,44.356483],"type":"Point"},"properties":{"osm_id":"5329442417","tag":{"amenity":"waste_basket"}},"type":"Feature"},
	{"geometry":{"coordinates":[2.592227,44.356772],"type":"Point"},"properties":{"osm_id":"5329442419","tag":{"amenity":"waste_basket"}},"type":"Feature"},
	{"geometry":{"coordinates":[2.597279,44.350972],"type":"Point"},"properties":{"osm_id":"5331007326","tag":{"amenity":"waste_basket"}},"type":"Feature"},
	{"geometry":{"coordinates":[2.588478,44.350714],"type":"Point"},"properties":{"osm_id":"5333378333","tag":{"amenity":"waste_basket"}},"type":"Feature"},
	{"geometry":{"coordinates":[2.585379,44.367939],"type":"Point"},"properties":{"osm_id":"5433447274","tag":{"amenity":"waste_basket","material":"wood;metal"}},"type":"Feature"},
	{"geometry":{"coordinates":[2.585454,44.367853],"type":"Point"},"properties":{"osm_id":"5433447276","tag":{"amenity":"waste_basket","material":"wood;metal"}},"type":"Feature"},
	{"geometry":{"coordinates":[2.585561,44.367873],"type":"Point"},"properties":{"osm_id":"5433447277","tag":{"amenity":"waste_basket","material":"wood;metal"}},"type":"Feature"},
	{"geometry":{"coordinates":[2.585522,44.367767],"type":"Point"},"properties":{"osm_id":"5433447279","tag":{"amenity":"recycling","colour":"blue","recycling":"paper","recycling:paper":"yes","recycling_type":"container"}},"type":"Feature"},
	{"geometry":{"coordinates":[2.585525,44.367752],"type":"Point"},"properties":{"osm_id":"5433447280","tag":{"amenity":"recycling","colour":"green","recycling:glass_bottles":"yes","recycling_type":"container"}},"type":"Feature"},
	{"geometry":{"coordinates":[2.585519,44.368104],"type":"Point"},"properties":{"osm_id":"5433447281","tag":{"amenity":"waste_basket","material":"wood;metal"}},"type":"Feature"},
	{"geometry":{"coordinates":[2.568906,44.37016],"type":"Point"},"properties":{"osm_id":"5449158345","tag":{"amenity":"waste_basket","colour":"brown","material":"wood"}},"type":"Feature"},
	{"geometry":{"coordinates":[2.572578,44.363939],"type":"Point"},"properties":{"osm_id":"5449350482","tag":{"amenity":"recycling","operator":"Le relais","recycling:clothes":"yes","recycling:shoes":"yes","recycling_type":"container"}},"type":"Feature"},
	{"geometry":{"coordinates":[2.574045,44.364846],"type":"Point"},"properties":{"osm_id":"5449350512","tag":{"amenity":"waste_basket"}},"type":"Feature"},
	{"geometry":{"coordinates":[2.573331,44.365756],"type":"Point"},"properties":{"osm_id":"5449350926","tag":{"amenity":"recycling","recycling:paper":"yes","recycling_type":"container"}},"type":"Feature"},
	{"geometry":{"coordinates":[2.573321,44.365744],"type":"Point"},"properties":{"osm_id":"5449350927","tag":{"amenity":"recycling","recycling:glass_bottles":"yes","recycling_type":"container"}},"type":"Feature"},
	{"geometry":{"coordinates":[2.602169,44.362764],"type":"Point"},"properties":{"osm_id":"5487428918","tag":{"amenity":"waste_basket","colour":"blue","material":"plastic"}},"type":"Feature"},
	{"geometry":{"coordinates":[2.553915,44.373363],"type":"Point"},"properties":{"osm_id":"5535767600","tag":{"amenity":"waste_disposal"}},"type":"Feature"},
	{"geometry":{"coordinates":[2.560546,44.364659],"type":"Point"},"properties":{"osm_id":"5594972669","tag":{"amenity":"waste_basket"}},"type":"Feature"},
	{"geometry":{"coordinates":[2.590724,44.367351],"type":"Point"},"properties":{"osm_id":"5645865187","tag":{"amenity":"waste_basket","colour":"blue","material":"plastic"}},"type":"Feature"},
	{"geometry":{"coordinates":[2.613782,44.362367],"type":"Point"},"properties":{"osm_id":"5661462360","tag":{"amenity":"waste_basket"}},"type":"Feature"},
	{"geometry":{"coordinates":[2.593899,44.365149],"type":"Point"},"properties":{"osm_id":"5670559011","tag":{"amenity":"recycling"}},"type":"Feature"},
	{"geometry":{"coordinates":[2.553254,44.33983],"type":"Point"},"properties":{"osm_id":"5680501043","tag":{"amenity":"waste_basket"}},"type":"Feature"},
	{"geometry":{"coordinates":[2.553816,44.339576],"type":"Point"},"properties":{"osm_id":"5680501534","tag":{"amenity":"waste_basket","waste_basket":"cigarette"}},"type":"Feature"},
	{"geometry":{"coordinates":[2.576345,44.349823],"type":"Point"},"properties":{"osm_id":"5693400038","tag":{"amenity":"waste_basket","colour":"black;grey","material":"metal"}},"type":"Feature"},
	{"geometry":{"coordinates":[2.592316,44.365535],"type":"Point"},"properties":{"osm_id":"5751470379","tag":{"amenity":"waste_basket","colour":"brown","material":"wood"}},"type":"Feature"},
	{"geometry":{"coordinates":[2.554273,44.34],"type":"Point"},"properties":{"osm_id":"5763086171","tag":{"amenity":"waste_basket","material":"metal","operator":"mairie d'Olemps"}},"type":"Feature"},
	{"geometry":{"coordinates":[2.557551,44.341108],"type":"Point"},"properties":{"osm_id":"5763204522","tag":{"amenity":"waste_basket"}},"type":"Feature"},
	{"geometry":{"coordinates":[2.587971,44.368356],"type":"Point"},"properties":{"osm_id":"5841282071","tag":{"amenity":"waste_basket","waste":"cigarettes"}},"type":"Feature"},
	{"geometry":{"coordinates":[2.556557,44.357717],"type":"Point"},"properties":{"osm_id":"5955237909","tag":{"amenity":"waste_basket"}},"type":"Feature"},
	{"geometry":{"coordinates":[2.592908,44.357109],"type":"Point"},"properties":{"osm_id":"5966508979","tag":{"amenity":"waste_basket"}},"type":"Feature"},
	{"geometry":{"coordinates":[2.577039,44.372189],"type":"Point"},"properties":{"osm_id":"5996249308","tag":{"amenity":"waste_basket","start_date":"10-2018"}},"type":"Feature"},
	{"geometry":{"coordinates":[2.57388,44.35208],"type":"Point"},"properties":{"osm_id":"6073975959","tag":{"amenity":"waste_basket","colour":"black","material":"plastic"}},"type":"Feature"},
	{"geometry":{"coordinates":[2.574256,44.3527],"type":"Point"},"properties":{"osm_id":"6073975961","tag":{"amenity":"waste_disposal","waste":"dog_excrement"}},"type":"Feature"},
	{"geometry":{"coordinates":[2.629779,44.340241],"type":"Point"},"properties":{"osm_id":"6158639848","tag":{"amenity":"recycling","recycling:glass_bottles":"yes","recycling_type":"container"}},"type":"Feature"},
	{"geometry":{"coordinates":[2.625875,44.339593],"type":"Point"},"properties":{"osm_id":"6162097778","tag":{"amenity":"waste_basket"}},"type":"Feature"},
	{"geometry":{"coordinates":[2.573724,44.357532],"type":"Point"},"properties":{"osm_id":"6182113965","tag":{"amenity":"recycling","recycling:paper":"yes","recycling_type":"container"}},"type":"Feature"},
	{"geometry":{"coordinates":[2.573709,44.357539],"type":"Point"},"properties":{"osm_id":"6182161423","tag":{"amenity":"recycling","recycling:glass_bottles":"yes","recycling_type":"container"}},"type":"Feature"},
	{"geometry":{"coordinates":[2.573674,44.357531],"type":"Point"},"properties":{"osm_id":"6182161424","tag":{"amenity":"waste_disposal"}},"type":"Feature"},
	{"geometry":{"coordinates":[2.572904,44.352226],"type":"Point"},"properties":{"osm_id":"6213962572","tag":{"amenity":"waste_basket","colour":"gray","material":"plastic"}},"type":"Feature"},
	{"geometry":{"coordinates":[2.572787,44.35254],"type":"Point"},"properties":{"osm_id":"6213963394","tag":{"amenity":"waste_basket","waste":"chewing_gum"}},"type":"Feature"},
	{"geometry":{"coordinates":[2.575733,44.354484],"type":"Point"},"properties":{"osm_id":"6219678997","tag":{"amenity":"waste_basket","colour":"black","material":"plastic"}},"type":"Feature"},
	{"geometry":{"coordinates":[2.576776,44.352708],"type":"Point"},"properties":{"osm_id":"6219679017","tag":{"amenity":"waste_basket","colour":"black","material":"plastic"}},"type":"Feature"},
	{"geometry":{"coordinates":[2.561665,44.401006],"type":"Point"},"properties":{"osm_id":"6301778407","tag":{"amenity":"waste_basket","material":"wood"}},"type":"Feature"},
	{"geometry":{"coordinates":[2.553726,44.341192],"type":"Point"},"properties":{"osm_id":"6316452076","tag":{"amenity":"waste_basket"}},"type":"Feature"},
	{"geometry":{"coordinates":[2.586014,44.367188],"type":"Point"},"properties":{"osm_id":"6318625897","tag":{"amenity":"waste_basket","material":"metal","support":"wall_mounted","waste":"cigarette"}},"type":"Feature"},
	{"geometry":{"coordinates":[2.586512,44.3668],"type":"Point"},"properties":{"osm_id":"6318625920","tag":{"amenity":"waste_basket","material":"metal","support":"wall_mounted","waste":"cigarette"}},"type":"Feature"},
	{"geometry":{"coordinates":[2.565433,44.362447],"type":"Point"},"properties":{"osm_id":"6321787290","tag":{"amenity":"waste_basket","material":"metal"}},"type":"Feature"},
	{"geometry":{"coordinates":[2.623151,44.34908],"type":"Point"},"properties":{"osm_id":"6325637621","tag":{"amenity":"waste_basket"}},"type":"Feature"},
	{"geometry":{"coordinates":[2.591557,44.367264],"type":"Point"},"properties":{"osm_id":"6345631316","tag":{"amenity":"waste_basket","support":"wall_mounted"}},"type":"Feature"},
	{"geometry":{"coordinates":[2.608567,44.399827],"type":"Point"},"properties":{"osm_id":"6352132646","tag":{"amenity":"waste_basket"}},"type":"Feature"},
	{"geometry":{"coordinates":[2.593164,44.364682],"type":"Point"},"properties":{"osm_id":"6360747435","tag":{"amenity":"recycling","material":"wood","recycling:organic":"yes","recycling_type":"container"}},"type":"Feature"},
	{"geometry":{"coordinates":[2.552259,44.36281],"type":"Point"},"properties":{"osm_id":"6385256434","tag":{"amenity":"waste_basket","material":"plastic"}},"type":"Feature"},
	{"geometry":{"coordinates":[2.55034,44.360155],"type":"Point"},"properties":{"osm_id":"6405127092","tag":{"amenity":"waste_basket","layer":"1","material":"plastic"}},"type":"Feature"},
	{"geometry":{"coordinates":[2.551548,44.360116],"type":"Point"},"properties":{"osm_id":"6405127121","tag":{"amenity":"waste_basket","material":"plastic"}},"type":"Feature"},
	{"geometry":{"coordinates":[2.551961,44.360032],"type":"Point"},"properties":{"osm_id":"6405127124","tag":{"amenity":"waste_basket","material":"plastic"}},"type":"Feature"},
	{"geometry":{"coordinates":[2.551132,44.360042],"type":"Point"},"properties":{"osm_id":"6405127147","tag":{"amenity":"waste_basket","layer":"1","material":"plastic"}},"type":"Feature"},
	{"geometry":{"coordinates":[2.551306,44.360154],"type":"Point"},"properties":{"osm_id":"6405127149","tag":{"amenity":"waste_basket","material":"metal","waste":"cigarettes"}},"type":"Feature"},
	{"geometry":{"coordinates":[2.551312,44.360191],"type":"Point"},"properties":{"osm_id":"6405127150","tag":{"amenity":"waste_basket","material":"metal","waste":"cigarettes"}},"type":"Feature"},
	{"geometry":{"coordinates":[2.551302,44.360142],"type":"Point"},"properties":{"osm_id":"6405127151","tag":{"amenity":"waste_basket","material":"metal","waste":"cigarettes"}},"type":"Feature"},
	{"geometry":{"coordinates":[2.550868,44.360083],"type":"Point"},"properties":{"osm_id":"6405127158","tag":{"amenity":"waste_basket","layer":"1","material":"plastic"}},"type":"Feature"},
	{"geometry":{"coordinates":[2.550982,44.360273],"type":"Point"},"properties":{"osm_id":"6405127164","tag":{"amenity":"waste_basket","material":"plastic"}},"type":"Feature"},
	{"geometry":{"coordinates":[2.550831,44.360274],"type":"Point"},"properties":{"osm_id":"6405127166","tag":{"amenity":"waste_basket","layer":"1","material":"plastic"}},"type":"Feature"},
	{"geometry":{"coordinates":[2.551392,44.359984],"type":"Point"},"properties":{"osm_id":"6407177082","tag":{"amenity":"waste_basket","support":"wall_mounted"}},"type":"Feature"},
	{"geometry":{"coordinates":[2.585848,44.354269],"type":"Point"},"properties":{"osm_id":"6412767873","tag":{"amenity":"waste_basket"}},"type":"Feature"},
	{"geometry":{"coordinates":[2.584226,44.35456],"type":"Point"},"properties":{"osm_id":"6412768085","tag":{"amenity":"waste_basket","colour":"black","material":"plastic"}},"type":"Feature"},
	{"geometry":{"coordinates":[2.582451,44.355012],"type":"Point"},"properties":{"osm_id":"6412768092","tag":{"amenity":"recycling","location":"underground","recycling:glass_bottles":"yes","recycling_type":"container"}},"type":"Feature"},
	{"geometry":{"coordinates":[2.582449,44.355035],"type":"Point"},"properties":{"osm_id":"6412768093","tag":{"amenity":"waste_disposal","location":"underground"}},"type":"Feature"},
	{"geometry":{"coordinates":[2.582451,44.355056],"type":"Point"},"properties":{"osm_id":"6412768094","tag":{"amenity":"recycling","location":"underground","recycling_type":"container"}},"type":"Feature"},
	{"geometry":{"coordinates":[2.582415,44.355068],"type":"Point"},"properties":{"osm_id":"6412768095","tag":{"amenity":"waste_basket","colour":"black","material":"plastic"}},"type":"Feature"},
	{"geometry":{"coordinates":[2.580207,44.354611],"type":"Point"},"properties":{"osm_id":"6412768102","tag":{"amenity":"waste_basket","colour":"black","material":"plastic"}},"type":"Feature"},
	{"geometry":{"coordinates":[2.581096,44.354072],"type":"Point"},"properties":{"osm_id":"6412768106","tag":{"amenity":"recycling","location":"underground","recycling_type":"container"}},"type":"Feature"},
	{"geometry":{"coordinates":[2.581068,44.35407],"type":"Point"},"properties":{"osm_id":"6412768107","tag":{"amenity":"waste_disposal","location":"underground"}},"type":"Feature"},
	{"geometry":{"coordinates":[2.581079,44.354053],"type":"Point"},"properties":{"osm_id":"6412768108","tag":{"amenity":"waste_basket","colour":"black","material":"plastic"}},"type":"Feature"},
	{"geometry":{"coordinates":[2.556055,44.355318],"type":"Point"},"properties":{"osm_id":"6481204312","tag":{"amenity":"waste_disposal"}},"type":"Feature"},
	{"geometry":{"coordinates":[2.562025,44.359083],"type":"Point"},"properties":{"osm_id":"6545927818","tag":{"amenity":"waste_basket","colour":"grey","covered":"no","indoor":"no","material":"metal","operator":"Rodez Agglom\u00c3\u00a9ration"}},"type":"Feature"},
	{"geometry":{"coordinates":[2.562277,44.35878],"type":"Point"},"properties":{"osm_id":"6545927819","tag":{"amenity":"waste_basket","covered":"no","indoor":"no","material":"plastic","operator":"Rodez Agglm\u00c3\u00a9ration"}},"type":"Feature"},
	{"geometry":{"coordinates":[2.561966,44.358794],"type":"Point"},"properties":{"osm_id":"6545927820","tag":{"amenity":"waste_basket","covered":"no","indoor":"no","material":"plastic","operator":"Rodez Agglom\u00c3\u00a9ration"}},"type":"Feature"},
	{"geometry":{"coordinates":[2.576349,44.349913],"type":"Point"},"properties":{"osm_id":"6555855429","tag":{"amenity":"waste_basket","waste":"dog_excrement"}},"type":"Feature"},
	{"geometry":{"coordinates":[2.562131,44.402376],"type":"Point"},"properties":{"osm_id":"6588922086","tag":{"amenity":"waste_basket"}},"type":"Feature"},
	{"geometry":{"coordinates":[2.562266,44.40214],"type":"Point"},"properties":{"osm_id":"6589034047","tag":{"amenity":"waste_basket"}},"type":"Feature"},
	{"geometry":{"coordinates":[2.584762,44.340984],"type":"Point"},"properties":{"osm_id":"6600096173","tag":{"amenity":"waste_basket"}},"type":"Feature"},
	{"geometry":{"coordinates":[2.570218,44.366692],"type":"Point"},"properties":{"osm_id":"6600450821","tag":{"amenity":"recycling","material":"plastic","recycling:glass_bottles":"yes","recycling_type":"container"}},"type":"Feature"},
	{"geometry":{"coordinates":[2.570134,44.366687],"type":"Point"},"properties":{"osm_id":"6702590052","tag":{"amenity":"recycling","colour":"white","material":"metal","operator":"LE Relais","recycling:clothes":"yes","recycling:shoes":"yes","recycling_type":"container"}},"type":"Feature"},
	{"geometry":{"coordinates":[2.570148,44.366688],"type":"Point"},"properties":{"osm_id":"6702590053","tag":{"amenity":"recycling","colour":"white","material":"metal","operator":"Le Relais","recycling:clothes":"yes","recycling:shoes":"yes","recycling_type":"container"}},"type":"Feature"},
	{"geometry":{"coordinates":[2.570162,44.366687],"type":"Point"},"properties":{"osm_id":"6702590054","tag":{"amenity":"recycling","colour":"white","material":"metal","operator":"Le Relais","recycling:clothes":"yes","recycling:shoes":"yes","recycling_type":"container"}},"type":"Feature"},
	{"geometry":{"coordinates":[2.570178,44.366688],"type":"Point"},"properties":{"osm_id":"6702590055","tag":{"amenity":"recycling","material":"metal","operator":"Le Relais","recycling:clothes":"yes","recycling:shoes":"yes","recycling_type":"container"}},"type":"Feature"},
	{"geometry":{"coordinates":[2.570249,44.366695],"type":"Point"},"properties":{"osm_id":"6702590056","tag":{"amenity":"recycling","material":"plastic","recycling:glass_bottles":"yes","recycling_type":"container"}},"type":"Feature"},
	{"geometry":{"coordinates":[2.570285,44.366698],"type":"Point"},"properties":{"osm_id":"6702590057","tag":{"amenity":"recycling","material":"plastic","operator":"Le Relais","recycling:plastic":"yes","recycling_type":"container"}},"type":"Feature"},
	{"geometry":{"coordinates":[2.57032,44.366699],"type":"Point"},"properties":{"osm_id":"6702590058","tag":{"amenity":"recycling","material":"plastic","operator":"Le Relais","recycling:glass_bottles":"yes","recycling_type":"container"}},"type":"Feature"},
	{"geometry":{"coordinates":[2.576264,44.349602],"type":"Point"},"properties":{"osm_id":"6804915316","tag":{"amenity":"waste_basket"}},"type":"Feature"},
	{"geometry":{"coordinates":[2.59572,44.400263],"type":"Point"},"properties":{"osm_id":"6886311269","tag":{"amenity":"recycling","recycling_type":"container"}},"type":"Feature"},
	{"geometry":{"coordinates":[2.595716,44.40027],"type":"Point"},"properties":{"osm_id":"6886311270","tag":{"amenity":"waste_basket"}},"type":"Feature"},
	{"geometry":{"coordinates":[2.596238,44.399308],"type":"Point"},"properties":{"osm_id":"6886311362","tag":{"amenity":"waste_basket","material":"wood"}},"type":"Feature"},
	{"geometry":{"coordinates":[2.550109,44.347856],"type":"Point"},"properties":{"osm_id":"6899447931","tag":{"amenity":"waste_basket","material":"plastic","operator":"mairie"}},"type":"Feature"},
	{"geometry":{"coordinates":[2.551437,44.347425],"type":"Point"},"properties":{"osm_id":"6899483849","tag":{"amenity":"recycling","operator":"Rodez Agglom\u00c3\u00a9ration","recycling:glass_bottles":"yes","recycling_type":"container"}},"type":"Feature"},
	{"geometry":{"coordinates":[2.563682,44.339894],"type":"Point"},"properties":{"osm_id":"6899490730","tag":{"amenity":"recycling","operator":"Rodez Agglom\u00c3\u00a9ration","recycling:glass_bottles":"yes","recycling_type":"container"}},"type":"Feature"},
	{"geometry":{"coordinates":[2.550634,44.345195],"type":"Point"},"properties":{"osm_id":"6899492647","tag":{"amenity":"recycling","operator":"Rodez Agglom\u00c3\u00a9ration","recycling:glass_bottles":"yes","recycling_type":"container"}},"type":"Feature"},
	{"geometry":{"coordinates":[2.552862,44.347153],"type":"Point"},"properties":{"osm_id":"6899503993","tag":{"amenity":"recycling","operator":"Rodez Agglom\u00c3\u00a9ration","recycling:glass_bottles":"yes","recycling_type":"container"}},"type":"Feature"},
	{"geometry":{"coordinates":[2.596433,44.365447],"type":"Point"},"properties":{"osm_id":"7009016345","tag":{"amenity":"waste_basket","material":"wood","waste":"trash"}},"type":"Feature"},
	{"geometry":{"coordinates":[2.569364,44.377581],"type":"Point"},"properties":{"osm_id":"7057823992","tag":{"amenity":"recycling","operator":"Le Relais","recycling:clothes":"yes","recycling:shoes":"yes","recycling_type":"container"}},"type":"Feature"},
	{"geometry":{"coordinates":[2.56926,44.37751],"type":"Point"},"properties":{"osm_id":"7057823995","tag":{"amenity":"recycling","recycling:glass_bottles":"yes","recycling_type":"container"}},"type":"Feature"},
	{"geometry":{"coordinates":[2.569286,44.377504],"type":"Point"},"properties":{"osm_id":"7057823996","tag":{"amenity":"recycling","recycling:paper":"yes","recycling_type":"container"}},"type":"Feature"},
	{"geometry":{"coordinates":[2.571557,44.344904],"type":"Point"},"properties":{"osm_id":"7177289157","tag":{"amenity":"recycling","collection_times":"24/7","material":"wood","recycling:organic":"yes","recycling_type":"container"}},"type":"Feature"},
	{"geometry":{"coordinates":[2.571605,44.344727],"type":"Point"},"properties":{"osm_id":"7177289159","tag":{"amenity":"waste_basket","playground:theme":"frog"}},"type":"Feature"},
	{"geometry":{"coordinates":[2.574676,44.345508],"type":"Point"},"properties":{"osm_id":"7177489209","tag":{"amenity":"waste_basket","colour":"green","material":"plastic","support":"pole","vending":"excrement_bags","waste":"trash"}},"type":"Feature"},
	{"geometry":{"coordinates":[2.603298,44.402133],"type":"Point"},"properties":{"osm_id":"7180808795","tag":{"amenity":"recycling","location":"underground","recycling:cans":"yes","recycling:cardboard":"yes","recycling:magazines":"yes","recycling:newspaper":"yes","recycling:plastic_bottles":"yes","recycling_type":"container"}},"type":"Feature"},
	{"geometry":{"coordinates":[2.603289,44.402118],"type":"Point"},"properties":{"osm_id":"7180808796","tag":{"amenity":"waste_disposal","location":"underground"}},"type":"Feature"},
	{"geometry":{"coordinates":[2.568684,44.356584],"type":"Point"},"properties":{"osm_id":"7194200641","tag":{"amenity":"recycling","location":"underground","recycling_type":"container"}},"type":"Feature"},
	{"geometry":{"coordinates":[2.568685,44.3566],"type":"Point"},"properties":{"osm_id":"7194200642","tag":{"amenity":"recycling","location":"underground","recycling_type":"container"}},"type":"Feature"},
	{"geometry":{"coordinates":[2.555396,44.361308],"type":"Point"},"properties":{"osm_id":"7223069623","tag":{"amenity":"waste_basket","colour":"black","material":"plastic"}},"type":"Feature"},
	{"geometry":{"coordinates":[2.59822,44.362402],"type":"Point"},"properties":{"osm_id":"7230328023","tag":{"amenity":"waste_basket","colour":"grey","material":"metal"}},"type":"Feature"},
	{"geometry":{"coordinates":[2.58031,44.362235],"type":"Point"},"properties":{"osm_id":"7243438352","tag":{"amenity":"waste_basket"}},"type":"Feature"},
	{"geometry":{"coordinates":[2.580904,44.362188],"type":"Point"},"properties":{"osm_id":"7243438358","tag":{"amenity":"waste_basket"}},"type":"Feature"},
	{"geometry":{"coordinates":[2.583065,44.360785],"type":"Point"},"properties":{"osm_id":"7243651324","tag":{"amenity":"waste_basket","colour":"green","material":"plastic","vending":"excrement_bags"}},"type":"Feature"},
	{"geometry":{"coordinates":[2.584617,44.36065],"type":"Point"},"properties":{"osm_id":"7245183977","tag":{"amenity":"recycling","recycling:glass_bottles":"yes","recycling_type":"container"}},"type":"Feature"},
	{"geometry":{"coordinates":[2.580233,44.359851],"type":"Point"},"properties":{"osm_id":"7245770556","tag":{"amenity":"waste_basket","material":"metal"}},"type":"Feature"},
	{"geometry":{"coordinates":[2.581516,44.35858],"type":"Point"},"properties":{"osm_id":"7247159991","tag":{"amenity":"waste_basket","colour":"black","material":"plastic"}},"type":"Feature"},
	{"geometry":{"coordinates":[2.581441,44.357098],"type":"Point"},"properties":{"osm_id":"7247238250","tag":{"amenity":"waste_basket","colour":"green","fee":"no","material":"plastic","vending":"excrement_bags"}},"type":"Feature"},
	{"geometry":{"coordinates":[2.566485,44.354442],"type":"Point"},"properties":{"osm_id":"7253674636","tag":{"amenity":"recycling","recycling:glass_bottles":"yes","recycling_type":"container"}},"type":"Feature"},
	{"geometry":{"coordinates":[2.585814,44.383633],"type":"Point"},"properties":{"osm_id":"7253716161","tag":{"amenity":"waste_basket","material":"metal"}},"type":"Feature"},
	{"geometry":{"coordinates":[2.572982,44.353359],"type":"Point"},"properties":{"osm_id":"7274779112","tag":{"amenity":"waste_basket"}},"type":"Feature"},
	{"geometry":{"coordinates":[2.572854,44.352877],"type":"Point"},"properties":{"osm_id":"7274779135","tag":{"amenity":"waste_basket"}},"type":"Feature"},
	{"geometry":{"coordinates":[2.572811,44.352448],"type":"Point"},"properties":{"osm_id":"7275615331","tag":{"amenity":"waste_basket","material":"plastic"}},"type":"Feature"},
	{"geometry":{"coordinates":[2.572861,44.351529],"type":"Point"},"properties":{"osm_id":"7275683763","tag":{"amenity":"waste_basket","material":"plastic"}},"type":"Feature"},
	{"geometry":{"coordinates":[2.601246,44.400722],"type":"Point"},"properties":{"osm_id":"7278312109","tag":{"amenity":"recycling","location":"underground","recycling_type":"container"}},"type":"Feature"},
	{"geometry":{"coordinates":[2.601285,44.400714],"type":"Point"},"properties":{"osm_id":"7278312110","tag":{"amenity":"recycling","location":"underground","recycling_type":"container"}},"type":"Feature"},
	{"geometry":{"coordinates":[2.601218,44.400738],"type":"Point"},"properties":{"osm_id":"7278312111","tag":{"amenity":"waste_disposal","location":"underground"}},"type":"Feature"},
	{"geometry":{"coordinates":[2.581454,44.362015],"type":"Point"},"properties":{"osm_id":"7280124666","tag":{"amenity":"waste_basket","colour":"black","material":"plastic"}},"type":"Feature"},
	{"geometry":{"coordinates":[2.58412,44.36172],"type":"Point"},"properties":{"osm_id":"7282828569","tag":{"amenity":"recycling","recycling:glass_bottles":"yes","recycling_type":"container"}},"type":"Feature"},
	{"geometry":{"coordinates":[2.584074,44.361733],"type":"Point"},"properties":{"osm_id":"7282828570","tag":{"amenity":"recycling","recycling:paper":"yes","recycling_type":"container"}},"type":"Feature"},
	{"geometry":{"coordinates":[2.597049,44.399569],"type":"Point"},"properties":{"osm_id":"7286439634","tag":{"amenity":"waste_basket","material":"wood"}},"type":"Feature"},
	{"geometry":{"coordinates":[2.597131,44.399374],"type":"Point"},"properties":{"osm_id":"7286439636","tag":{"amenity":"waste_basket","material":"wood"}},"type":"Feature"},
	{"geometry":{"coordinates":[2.590413,44.369374],"type":"Point"},"properties":{"osm_id":"7307117605","tag":{"amenity":"waste_basket"}},"type":"Feature"},
	{"geometry":{"coordinates":[2.570168,44.353448],"type":"Point"},"properties":{"osm_id":"7328966088","tag":{"amenity":"waste_basket","direction":"285","support":"wall_mounted","waste":"cigarettes"}},"type":"Feature"},
	{"geometry":{"coordinates":[2.586796,44.382166],"type":"Point"},"properties":{"osm_id":"7350126793","tag":{"amenity":"waste_basket","material":"metal","support":"pole"}},"type":"Feature"},
	{"geometry":{"coordinates":[2.586283,44.382084],"type":"Point"},"properties":{"osm_id":"7350126802","tag":{"amenity":"waste_basket","material":"metal"}},"type":"Feature"},
	{"geometry":{"coordinates":[2.586267,44.382028],"type":"Point"},"properties":{"osm_id":"7350126803","tag":{"amenity":"waste_basket","indoor":"no","material":"metal","support":"wall_mounted"}},"type":"Feature"},
	{"geometry":{"coordinates":[2.586981,44.382259],"type":"Point"},"properties":{"osm_id":"7350126808","tag":{"amenity":"waste_basket","indoor":"no","material":"metal","support":"wall_mounted"}},"type":"Feature"},
	{"geometry":{"coordinates":[2.586753,44.382542],"type":"Point"},"properties":{"osm_id":"7350126813","tag":{"amenity":"waste_basket","colour":"green","material":"metal"}},"type":"Feature"},
	{"geometry":{"coordinates":[2.586804,44.382383],"type":"Point"},"properties":{"osm_id":"7350126824","tag":{"amenity":"waste_basket","material":"metal"}},"type":"Feature"},
	{"geometry":{"coordinates":[2.575904,44.355725],"type":"Point"},"properties":{"osm_id":"7468121952","tag":{"amenity":"waste_basket","colour":"grey","material":"plastic","waste":"trash"}},"type":"Feature"},
	{"geometry":{"coordinates":[2.594156,44.375511],"type":"Point"},"properties":{"osm_id":"7503504444","tag":{"amenity":"waste_basket","material":"plastic","support":"pole"}},"type":"Feature"},
	{"geometry":{"coordinates":[2.593814,44.375859],"type":"Point"},"properties":{"osm_id":"7503504459","tag":{"amenity":"waste_basket","material":"plastic"}},"type":"Feature"},
	{"geometry":{"coordinates":[2.593677,44.375546],"type":"Point"},"properties":{"osm_id":"7503504460","tag":{"amenity":"waste_basket","material":"plastic"}},"type":"Feature"},
	{"geometry":{"coordinates":[2.59345,44.375567],"type":"Point"},"properties":{"osm_id":"7503548936","tag":{"amenity":"waste_disposal"}},"type":"Feature"},
	{"geometry":{"coordinates":[2.60455,44.361149],"type":"Point"},"properties":{"osm_id":"7556669434","tag":{"amenity":"waste_basket"}},"type":"Feature"},
	{"geometry":{"coordinates":[2.606821,44.360554],"type":"Point"},"properties":{"osm_id":"7559201593","tag":{"amenity":"waste_basket","material":"metal"}},"type":"Feature"},
	{"geometry":{"coordinates":[2.598159,44.360572],"type":"Point"},"properties":{"osm_id":"7562008744","tag":{"amenity":"waste_basket"}},"type":"Feature"},
	{"geometry":{"coordinates":[2.598331,44.359929],"type":"Point"},"properties":{"osm_id":"7562008753","tag":{"amenity":"waste_basket"}},"type":"Feature"},
	{"geometry":{"coordinates":[2.591784,44.371165],"type":"Point"},"properties":{"osm_id":"7578834130","tag":{"amenity":"waste_disposal"}},"type":"Feature"},
	{"geometry":{"coordinates":[2.560429,44.394913],"type":"Point"},"properties":{"osm_id":"7632893350","tag":{"amenity":"recycling","recycling:glass_bottles":"yes","recycling_type":"container"}},"type":"Feature"},
	{"geometry":{"coordinates":[2.552702,44.341787],"type":"Point"},"properties":{"osm_id":"7705722878","tag":{"access":"yes","amenity":"waste_disposal","operator":"Rodez Agglom\u00c3\u00a9ration","waste":"trash"}},"type":"Feature"},
	{"geometry":{"coordinates":[2.552751,44.341777],"type":"Point"},"properties":{"osm_id":"7705722879","tag":{"amenity":"recycling","opening_hours:covid19":"open","operator":"Rodez Agglom\u00c3\u00a9ration","recycling:cans":"yes","recycling:cartons":"yes","recycling:magazines":"yes","recycling:plastic_bottles":"yes","recycling_type":"container"}},"type":"Feature"},
	{"geometry":{"coordinates":[2.552818,44.341775],"type":"Point"},"properties":{"osm_id":"7705722880","tag":{"amenity":"recycling","opening_hours:covid19":"open","operator":"Rodez Agglom\u00c3\u00a9ration","recycling:glass_bottles":"yes","recycling_type":"container"}},"type":"Feature"},
	{"geometry":{"coordinates":[2.577862,44.351275],"type":"Point"},"properties":{"osm_id":"7710013931","tag":{"amenity":"waste_basket","colour":"grey","material":"plastic"}},"type":"Feature"},
	{"geometry":{"coordinates":[2.569357,44.350062],"type":"Point"},"properties":{"osm_id":"7711059003","tag":{"amenity":"recycling","location":"underground","recycling_type":"container"}},"type":"Feature"},
	{"geometry":{"coordinates":[2.569379,44.350045],"type":"Point"},"properties":{"osm_id":"7711059004","tag":{"amenity":"recycling","location":"underground","recycling_type":"container"}},"type":"Feature"},
	{"geometry":{"coordinates":[2.569395,44.350031],"type":"Point"},"properties":{"osm_id":"7711059005","tag":{"amenity":"recycling","location":"underground","recycling_type":"container"}},"type":"Feature"},
	{"geometry":{"coordinates":[2.578288,44.373821],"type":"Point"},"properties":{"osm_id":"7881398683","tag":{"amenity":"recycling","recycling:glass_bottles":"yes","recycling_type":"container"}},"type":"Feature"},
	{"geometry":{"coordinates":[2.571234,44.375559],"type":"Point"},"properties":{"osm_id":"7881398684","tag":{"amenity":"recycling","recycling:glass_bottles":"yes","recycling_type":"container"}},"type":"Feature"},
	{"geometry":{"coordinates":[2.57206,44.37643],"type":"Point"},"properties":{"osm_id":"7881425785","tag":{"amenity":"recycling","recycling:glass_bottles":"yes","recycling_type":"container"}},"type":"Feature"},
	{"geometry":{"coordinates":[2.602121,44.344727],"type":"Point"},"properties":{"osm_id":"7899795052","tag":{"amenity":"recycling","recycling:glass_bottles":"yes","recycling_type":"container"}},"type":"Feature"},
	{"geometry":{"coordinates":[2.578373,44.368502],"type":"Point"},"properties":{"osm_id":"7937864695","tag":{"amenity":"waste_basket"}},"type":"Feature"}
]
}
