{
"type": "FeatureCollection",
"lastupdate": "2020-08-02T00:00:00Z",
"features": [
	{"geometry":{"coordinates":[2.605224,44.28615],"type":"Point"},"properties":{"osm_id":"871994324","tag":{"amenity":"recycling","recycling:glass":"yes"}},"type":"Feature"},
	{"geometry":{"coordinates":[2.558048,44.325288],"type":"Point"},"properties":{"osm_id":"1992406529","tag":{"amenity":"waste_basket"}},"type":"Feature"},
	{"geometry":{"coordinates":[2.557543,44.324941],"type":"Point"},"properties":{"osm_id":"1995310789","tag":{"amenity":"waste_basket"}},"type":"Feature"},
	{"geometry":{"coordinates":[2.557525,44.324784],"type":"Point"},"properties":{"osm_id":"1995310791","tag":{"amenity":"waste_basket"}},"type":"Feature"},
	{"geometry":{"coordinates":[2.557492,44.324447],"type":"Point"},"properties":{"osm_id":"1995310799","tag":{"amenity":"waste_basket"}},"type":"Feature"},
	{"geometry":{"coordinates":[2.558912,44.336984],"type":"Point"},"properties":{"barrier":"gate","osm_id":"2213210578","tag":{"bicycle":"yes","entrance":"main","foot":"yes","horse":"no","motor_vehicle":"yes"}},"type":"Feature"},
	{"geometry":{"coordinates":[2.605528,44.289623],"type":"Point"},"properties":{"osm_id":"2492716332","tag":{"amenity":"waste_basket"}},"type":"Feature"},
	{"geometry":{"coordinates":[2.558553,44.29488],"type":"Point"},"properties":{"osm_id":"2497384380","tag":{"amenity":"waste_basket"}},"type":"Feature"},
	{"geometry":{"coordinates":[2.557876,44.325164],"type":"Point"},"properties":{"osm_id":"2685858433","tag":{"amenity":"waste_basket"}},"type":"Feature"},
	{"geometry":{"coordinates":[2.55751,44.324615],"type":"Point"},"properties":{"osm_id":"2688561928","tag":{"amenity":"waste_basket"}},"type":"Feature"},
	{"geometry":{"coordinates":[2.556862,44.324274],"type":"Point"},"properties":{"osm_id":"2688561929","tag":{"amenity":"recycling","operator":"Rodez Agglom\u00e9ration","recycling:glass_bottles":"yes","recycling_type":"container"}},"type":"Feature"},
	{"geometry":{"coordinates":[2.556828,44.324276],"type":"Point"},"properties":{"osm_id":"2688561930","tag":{"amenity":"recycling","operator":"Rodez Agglom\u00e9ration","recycling:paper":"yes","recycling_type":"container"}},"type":"Feature"},
	{"geometry":{"coordinates":[2.556832,44.324301],"type":"Point"},"properties":{"osm_id":"2688561931","tag":{"amenity":"recycling","operator":"Rodez Agglom\u00e9ration","recycling:clothes":"yes","recycling_type":"container"}},"type":"Feature"},
	{"geometry":{"coordinates":[2.559741,44.288738],"type":"Point"},"properties":{"osm_id":"2915272018","tag":{"amenity":"waste_basket"}},"type":"Feature"},
	{"geometry":{"coordinates":[2.561031,44.292244],"type":"Point"},"properties":{"osm_id":"2915272026","tag":{"amenity":"waste_basket","vending":"excrement_bags"}},"type":"Feature"},
	{"geometry":{"coordinates":[2.576803,44.334598],"type":"Point"},"properties":{"osm_id":"3249785578","tag":{"amenity":"waste_basket"}},"type":"Feature"},
	{"geometry":{"coordinates":[2.57649,44.334755],"type":"Point"},"properties":{"osm_id":"3249785590","tag":{"amenity":"waste_basket","support":"wall_mounted"}},"type":"Feature"},
	{"geometry":{"coordinates":[2.576302,44.334756],"type":"Point"},"properties":{"osm_id":"3249785591","tag":{"amenity":"recycling","recycling:glass_bottles":"yes","recycling_type":"container"}},"type":"Feature"},
	{"geometry":{"coordinates":[2.5763,44.334777],"type":"Point"},"properties":{"osm_id":"3249785593","tag":{"amenity":"recycling","recycling:paper":"yes","recycling_type":"container"}},"type":"Feature"},
	{"geometry":{"coordinates":[2.575514,44.334458],"type":"Point"},"properties":{"osm_id":"3250901493","tag":{"amenity":"waste_basket","support":"wall_mounted"}},"type":"Feature"},
	{"geometry":{"coordinates":[2.576254,44.334474],"type":"Point"},"properties":{"osm_id":"3250901494","tag":{"amenity":"waste_basket","support":"wall_mounted"}},"type":"Feature"},
	{"geometry":{"coordinates":[2.585713,44.337709],"type":"Point"},"properties":{"osm_id":"3250981940","tag":{"amenity":"waste_basket"}},"type":"Feature"},
	{"geometry":{"coordinates":[2.584929,44.338351],"type":"Point"},"properties":{"osm_id":"3250981943","tag":{"amenity":"waste_basket"}},"type":"Feature"},
	{"geometry":{"coordinates":[2.560445,44.29332],"type":"Point"},"properties":{"osm_id":"3421695660","tag":{"amenity":"waste_basket"}},"type":"Feature"},
	{"geometry":{"coordinates":[2.560535,44.293507],"type":"Point"},"properties":{"osm_id":"3421695664","tag":{"amenity":"waste_basket"}},"type":"Feature"},
	{"geometry":{"coordinates":[2.560795,44.293539],"type":"Point"},"properties":{"osm_id":"3421695665","tag":{"amenity":"waste_basket"}},"type":"Feature"},
	{"geometry":{"coordinates":[2.56056,44.293563],"type":"Point"},"properties":{"osm_id":"3421695666","tag":{"amenity":"recycling","description":"container enterr\u00e9","recycling:glass_bottles":"yes","recycling_type":"container"}},"type":"Feature"},
	{"geometry":{"coordinates":[2.560564,44.293576],"type":"Point"},"properties":{"osm_id":"3421695668","tag":{"amenity":"recycling","description":"container enterr\u00e9","recycling:magazines":"yes","recycling:newspaper":"yes","recycling_type":"container"}},"type":"Feature"},
	{"geometry":{"coordinates":[2.559173,44.29431],"type":"Point"},"properties":{"osm_id":"3421695685","tag":{"amenity":"waste_basket"}},"type":"Feature"},
	{"geometry":{"coordinates":[2.553819,44.306939],"type":"Point"},"properties":{"osm_id":"3495582933","tag":{"amenity":"waste_basket"}},"type":"Feature"},
	{"geometry":{"coordinates":[2.55834,44.318035],"type":"Point"},"properties":{"osm_id":"3495619817","tag":{"amenity":"waste_basket"}},"type":"Feature"},
	{"geometry":{"coordinates":[2.612136,44.286529],"type":"Point"},"properties":{"osm_id":"5370739581","tag":{"amenity":"recycling","recycling_type":"container"}},"type":"Feature"},
	{"geometry":{"coordinates":[2.630462,44.335804],"type":"Point"},"properties":{"osm_id":"5557500680","tag":{"amenity":"recycling","recycling_type":"container"}},"type":"Feature"},
	{"geometry":{"coordinates":[2.553758,44.339486],"type":"Point"},"properties":{"osm_id":"5680501535","tag":{"amenity":"waste_basket","waste_basket":"cigarette"}},"type":"Feature"},
	{"geometry":{"coordinates":[2.553136,44.339477],"type":"Point"},"properties":{"osm_id":"5685096325","tag":{"amenity":"waste_basket"}},"type":"Feature"},
	{"geometry":{"coordinates":[2.554129,44.338266],"type":"Point"},"properties":{"osm_id":"5763232124","tag":{"amenity":"waste_basket","material":"metal","operator":"Mairie d'Olemps"}},"type":"Feature"},
	{"geometry":{"coordinates":[2.55287,44.339185],"type":"Point"},"properties":{"osm_id":"5776847810","tag":{"amenity":"waste_basket"}},"type":"Feature"},
	{"geometry":{"coordinates":[2.550294,44.336065],"type":"Point"},"properties":{"osm_id":"5776852060","tag":{"amenity":"recycling"}},"type":"Feature"},
	{"geometry":{"coordinates":[2.549684,44.329602],"type":"Point"},"properties":{"osm_id":"5777537472","tag":{"amenity":"waste_basket"}},"type":"Feature"},
	{"geometry":{"coordinates":[2.625501,44.339373],"type":"Point"},"properties":{"osm_id":"6162097780","tag":{"amenity":"recycling","recycling:glass_bottles":"yes","recycling:plastic":"yes","recycling:waste":"yes","recycling_type":"container"}},"type":"Feature"},
	{"geometry":{"coordinates":[2.571072,44.337168],"type":"Point"},"properties":{"osm_id":"6326882097","tag":{"amenity":"recycling","location":"underground","recycling_type":"container"}},"type":"Feature"},
	{"geometry":{"coordinates":[2.57388,44.337076],"type":"Point"},"properties":{"osm_id":"6340201073","tag":{"amenity":"waste_basket"}},"type":"Feature"},
	{"geometry":{"coordinates":[2.556937,44.313386],"type":"Point"},"properties":{"osm_id":"6389481638","tag":{"amenity":"recycling","location":"underground","recycling_type":"container"}},"type":"Feature"},
	{"geometry":{"coordinates":[2.555963,44.338447],"type":"Point"},"properties":{"osm_id":"6543599487","tag":{"amenity":"recycling","level":"0","material":"metal","operator":"Rodez Agglom\u00e9ration","recycling:aluminium":"yes","recycling:beverage_can":"yes","recycling:beverage_cartons":"yes","recycling:books":"yes","recycling:bottles":"yes","recycling:box_board":"yes","recycling:cans":"yes","recycling:cardboard":"yes","recycling:cartons":"yes","recycling:glass_bottles":"yes","recycling:magazines":"yes","recycling:newspaper":"yes","recycling:paper":"yes","recycling:paper_packaging":"yes","recycling:plastic":"yes","recycling:plastic_bottles":"yes","recycling:plastic_packaging":"yes","recycling:scrap_metal":"yes","recycling_type":"container"}},"type":"Feature"},
	{"geometry":{"coordinates":[2.557798,44.337897],"type":"Point"},"properties":{"osm_id":"6545854744","tag":{"amenity":"recycling","colour":"yellow","level":"0","material":"metal","operator":"Rodez Agglom\u00e9ration","recycling:aluminium":"yes","recycling:beverage_cartons":"yes","recycling:books":"yes","recycling:cans":"yes","recycling:cardboard":"yes","recycling:cartons":"yes","recycling:magazines":"yes","recycling:newspaper":"yes","recycling:paper":"yes","recycling:paper_packaging":"yes","recycling:plastic":"yes","recycling:plastic_bottles":"yes","recycling:plastic_packaging":"yes","recycling_type":"container"}},"type":"Feature"},
	{"geometry":{"coordinates":[2.550607,44.328112],"type":"Point"},"properties":{"osm_id":"6600626538","tag":{"amenity":"recycling","colour":"blue","material":"plastic","operator":"Rodez Agglom\u00e9ration","recycling:paper":"yes","recycling_type":"container"}},"type":"Feature"},
	{"geometry":{"coordinates":[2.550618,44.328091],"type":"Point"},"properties":{"osm_id":"6600626539","tag":{"amenity":"recycling","colour":"green","material":"plastic","operator":"Rodez Agglom\u00e9ration","recycling:glass_bottles":"yes","recycling_type":"container"}},"type":"Feature"},
	{"geometry":{"coordinates":[2.559237,44.32858],"type":"Point"},"properties":{"osm_id":"6899463552","tag":{"amenity":"recycling","operator":"Rodez Agglom\u00e9ration","recycling:glass_bottles":"yes","recycling_type":"container"}},"type":"Feature"},
	{"geometry":{"coordinates":[2.570113,44.332645],"type":"Point"},"properties":{"osm_id":"6899479445","tag":{"amenity":"recycling","operator":"Rodez Agglom\u00e9ration","recycling:glass_bottles":"yes","recycling_type":"container"}},"type":"Feature"},
	{"geometry":{"coordinates":[2.56915,44.332933],"type":"Point"},"properties":{"osm_id":"6899491039","tag":{"amenity":"recycling","operator":"Rodez Agglom\u00e9ration","recycling:glass_bottles":"yes","recycling_type":"container"}},"type":"Feature"},
	{"geometry":{"coordinates":[2.549688,44.329794],"type":"Point"},"properties":{"osm_id":"7200392471","tag":{"amenity":"recycling","operator":"Rodez Agglom\u00e9ration","recycling:glass_bottles":"yes","recycling_type":"container"}},"type":"Feature"},
	{"geometry":{"coordinates":[2.549655,44.329817],"type":"Point"},"properties":{"osm_id":"7200392472","tag":{"amenity":"recycling","operator":"Rodez Agglom\u00e9ration","recycling:beverage_cartons":"yes","recycling:cans":"yes","recycling:cartons":"yes","recycling:newspaper":"yes","recycling:paper":"yes","recycling:paper_packaging":"yes","recycling:plastic_bottles":"yes","recycling:plastic_packaging":"yes","recycling_type":"container"}},"type":"Feature"},
	{"geometry":{"coordinates":[2.549608,44.329851],"type":"Point"},"properties":{"osm_id":"7200392473","tag":{"amenity":"waste_basket","colour":"black","operator":"Rodez Agglom\u00e9ration"}},"type":"Feature"},
	{"geometry":{"coordinates":[2.561425,44.291497],"type":"Point"},"properties":{"osm_id":"7289135239","tag":{"amenity":"recycling","recycling:plastic_bottles":"yes","recycling_type":"container"}},"type":"Feature"},
	{"geometry":{"coordinates":[2.554066,44.31385],"type":"Point"},"properties":{"osm_id":"7289237957","tag":{"amenity":"recycling","recycling:glass_bottles":"yes","recycling_type":"container"}},"type":"Feature"},
	{"geometry":{"coordinates":[2.558022,44.338743],"type":"Point"},"properties":{"osm_id":"7395997145","tag":{"amenity":"recycling","operator":"Rodez agglom\u00e9ration","recycling:aluminium_cans":"yes","recycling:beverage_cartons":"yes","recycling:books":"yes","recycling:cans":"yes","recycling:cardboard":"yes","recycling:cartons":"yes","recycling:magazines":"yes","recycling:newspaper":"yes","recycling:paper":"yes","recycling:paper_packaging":"yes","recycling:plastic_bottles":"yes","recycling:plastic_packaging":"yes","recycling_type":"container"}},"type":"Feature"}
]
}
