{
"type": "FeatureCollection",
"features": [
	{"geometry":{"coordinates":[2.633865,39.568992],"type":"Point"},"properties":{"osm_id":"1407468765","tag":{"amenity":"waste_basket"}},"type":"Feature"},
	{"geometry":{"coordinates":[2.612852,39.552206],"type":"Point"},"properties":{"osm_id":"3252253735","tag":{"amenity":"waste_disposal"}},"type":"Feature"},
	{"geometry":{"coordinates":[2.591987,39.540537],"type":"Point"},"properties":{"osm_id":"3548813297","tag":{"amenity":"recycling","mapillary":"C5PppFK_e9NTqN3Q4ORUfQ","recycling:batteries":"yes","recycling:cans":"yes","recycling:clothes":"yes","recycling:glass":"yes","recycling:paper":"yes","recycling_type":"container","survey:date":"2018-10-11"}},"type":"Feature"},
	{"geometry":{"coordinates":[2.633383,39.570433],"type":"Point"},"properties":{"osm_id":"4504243825","tag":{"amenity":"waste_basket"}},"type":"Feature"},
	{"geometry":{"coordinates":[2.632406,39.570536],"type":"Point"},"properties":{"osm_id":"4504243837","tag":{"amenity":"recycling","recycling:cans":"yes","recycling:glass_bottles":"yes","recycling:paper":"yes","recycling_type":"container"}},"type":"Feature"},
	{"geometry":{"coordinates":[2.594976,39.553516],"type":"Point"},"properties":{"osm_id":"6179293869","tag":{"amenity":"waste_basket"}},"type":"Feature"},
	{"geometry":{"coordinates":[2.594995,39.553588],"type":"Point"},"properties":{"osm_id":"6179294093","tag":{"amenity":"waste_basket"}},"type":"Feature"},
	{"geometry":{"coordinates":[2.595103,39.553524],"type":"Point"},"properties":{"osm_id":"6179294094","tag":{"amenity":"waste_basket","waste":"dog_excrement"}},"type":"Feature"},
	{"geometry":{"coordinates":[2.594932,39.553412],"type":"Point"},"properties":{"osm_id":"6179294101","tag":{"amenity":"waste_basket"}},"type":"Feature"},
	{"geometry":{"coordinates":[2.59509,39.553439],"type":"Point"},"properties":{"osm_id":"6179294104","tag":{"amenity":"waste_basket"}},"type":"Feature"},
	{"geometry":{"coordinates":[2.595609,39.553831],"type":"Point"},"properties":{"osm_id":"6179294107","tag":{"amenity":"waste_basket"}},"type":"Feature"},
	{"geometry":{"coordinates":[2.595754,39.553984],"type":"Point"},"properties":{"osm_id":"6179294109","tag":{"amenity":"waste_basket"}},"type":"Feature"},
	{"geometry":{"coordinates":[2.59608,39.553951],"type":"Point"},"properties":{"osm_id":"6179294111","tag":{"amenity":"waste_basket"}},"type":"Feature"},
	{"geometry":{"coordinates":[2.595911,39.554044],"type":"Point"},"properties":{"osm_id":"6179294124","tag":{"amenity":"waste_basket","waste":"dog_excrement"}},"type":"Feature"},
	{"geometry":{"coordinates":[2.596707,39.55394],"type":"Point"},"properties":{"osm_id":"6179294135","tag":{"amenity":"waste_basket"}},"type":"Feature"},
	{"geometry":{"coordinates":[2.596774,39.553897],"type":"Point"},"properties":{"osm_id":"6179294136","tag":{"amenity":"waste_basket","waste":"dog_excrement"}},"type":"Feature"},
	{"geometry":{"coordinates":[2.598147,39.552347],"type":"Point"},"properties":{"osm_id":"7096123095","tag":{"amenity":"waste_basket"}},"type":"Feature"},
	{"geometry":{"coordinates":[2.596847,39.553924],"type":"Point"},"properties":{"osm_id":"7096258405","tag":{"amenity":"waste_basket"}},"type":"Feature"},
	{"geometry":{"coordinates":[2.594993,39.553337],"type":"Point"},"properties":{"osm_id":"7096275319","tag":{"amenity":"waste_basket"}},"type":"Feature"},
	{"geometry":{"coordinates":[2.595855,39.553897],"type":"Point"},"properties":{"osm_id":"7096275332","tag":{"amenity":"waste_basket"}},"type":"Feature"},
	{"geometry":{"coordinates":[2.595657,39.553979],"type":"Point"},"properties":{"osm_id":"7096275382","tag":{"amenity":"waste_basket"}},"type":"Feature"},
	{"geometry":{"coordinates":[2.59588,39.554148],"type":"Point"},"properties":{"osm_id":"7096275885","tag":{"amenity":"waste_basket"}},"type":"Feature"},
	{"geometry":{"coordinates":[2.595838,39.553999],"type":"Point"},"properties":{"osm_id":"7096275890","tag":{"amenity":"waste_basket"}},"type":"Feature"},
	{"geometry":{"coordinates":[2.6,39.563736],"type":"Point"},"properties":{"osm_id":"7099915030","tag":{"amenity":"waste_basket"}},"type":"Feature"},
	{"geometry":{"coordinates":[2.600002,39.56377],"type":"Point"},"properties":{"osm_id":"7100315185","tag":{"amenity":"waste_basket"}},"type":"Feature"},
	{"geometry":{"coordinates":[2.599956,39.563666],"type":"Point"},"properties":{"osm_id":"7100315186","tag":{"amenity":"waste_basket"}},"type":"Feature"},
	{"geometry":{"coordinates":[2.599909,39.563562],"type":"Point"},"properties":{"osm_id":"7100315187","tag":{"amenity":"waste_basket"}},"type":"Feature"},
	{"geometry":{"coordinates":[2.584471,39.541769],"type":"Point"},"properties":{"osm_id":"7826177080","tag":{"amenity":"waste_basket"}},"type":"Feature"}
]
}
