{
"type": "FeatureCollection",
"features": [
	{"geometry":{"coordinates":[-67.667386,-53.804281],"type":"Point"},"properties":{"name":"Ecopunto","osm_id":"8934167009","tag":{"amenity":"recycling","operator":"Subsecretaria de ambiente y espacio p\u00c3\u00bablico","recycling:sheet_metal":"yes","recycling_type":"container"}},"type":"Feature"},
	{"geometry":{"coordinates":[-67.661164,-53.802352],"type":"Point"},"properties":{"name":"Ecopunto","osm_id":"8936247462","tag":{"addr:city":"Rio Grande","addr:housenumber":"251","addr:postcode":"9420","addr:street":"Yourka","amenity":"recycling","operator":"Subsecretaria de ambiente y espacio p\u00c3\u00bablico","recycling_type":"container"}},"type":"Feature"},
	{"geometry":{"coordinates":[-67.656073,-53.801269],"type":"Point"},"properties":{"name":"Ecopunto","osm_id":"8936261943","tag":{"amenity":"recycling","operator":"Subsecretaria de ambiente y espacio p\u00c3\u00bablico","recycling_type":"container"}},"type":"Feature"},
	{"geometry":{"coordinates":[-67.675069,-53.802617],"type":"Point"},"properties":{"name":"Ecopunto Casa Municipal","osm_id":"8936290208","tag":{"addr:street":"Casa Municipal Margen Sur","amenity":"recycling","operator":"Subsecretaria de ambiente y espacio p\u00c3\u00bablico","recycling_type":"container"}},"type":"Feature"},
	{"geometry":{"coordinates":[-67.667193,-53.811887],"type":"Point"},"properties":{"name":"Ecopunto","osm_id":"8939508071","tag":{"addr:city":"Rio Grande","addr:housenumber":"652","addr:postcode":"9420","addr:street":"Infanta Isabel","amenity":"recycling","operator":"Subsecretaria de ambiente y espacio p\u00c3\u00bablico","recycling:sheet":"yes","recycling_type":"container"}},"type":"Feature"}
]
}
