{
"type": "FeatureCollection",
"features": [
	{"geometry":{"coordinates":[27.908436,43.20326],"type":"Point"},"properties":{"osm_id":"2389539832","tag":{"amenity":"waste_basket"}},"type":"Feature"},
	{"geometry":{"coordinates":[27.907277,43.203168],"type":"Point"},"properties":{"osm_id":"2389539837","tag":{"amenity":"waste_basket"}},"type":"Feature"},
	{"geometry":{"coordinates":[27.920971,43.223566],"type":"Point"},"properties":{"osm_id":"2398268713","tag":{"amenity":"waste_disposal"}},"type":"Feature"},
	{"geometry":{"coordinates":[27.920681,43.223898],"type":"Point"},"properties":{"osm_id":"2401551566","tag":{"entrance":"yes"}},"type":"Feature"},
	{"geometry":{"coordinates":[27.918589,43.222578],"type":"Point"},"properties":{"osm_id":"2402511040","tag":{"amenity":"waste_disposal"}},"type":"Feature"},
	{"geometry":{"coordinates":[27.921007,43.226502],"type":"Point"},"properties":{"osm_id":"2408110043","tag":{"amenity":"waste_disposal"}},"type":"Feature"},
	{"geometry":{"coordinates":[27.921116,43.226643],"type":"Point"},"properties":{"osm_id":"2408110052","tag":{"amenity":"waste_basket"}},"type":"Feature"},
	{"geometry":{"coordinates":[27.920858,43.226715],"type":"Point"},"properties":{"osm_id":"2408110061","tag":{"amenity":"waste_basket"}},"type":"Feature"},
	{"geometry":{"coordinates":[27.919432,43.226737],"type":"Point"},"properties":{"osm_id":"2408110072","tag":{"amenity":"waste_disposal"}},"type":"Feature"},
	{"geometry":{"coordinates":[27.921515,43.226957],"type":"Point"},"properties":{"osm_id":"2408110121","tag":{"amenity":"waste_disposal"}},"type":"Feature"},
	{"geometry":{"coordinates":[27.921472,43.226963],"type":"Point"},"properties":{"osm_id":"2408110122","tag":{"amenity":"recycling","recycling_type":"container"}},"type":"Feature"},
	{"geometry":{"coordinates":[27.920861,43.22604],"type":"Point"},"properties":{"osm_id":"2408163089","tag":{"amenity":"waste_disposal"}},"type":"Feature"},
	{"geometry":{"coordinates":[27.920773,43.226232],"type":"Point"},"properties":{"osm_id":"2408163095","tag":{"amenity":"waste_basket"}},"type":"Feature"},
	{"geometry":{"coordinates":[27.920793,43.226292],"type":"Point"},"properties":{"osm_id":"2408163107","tag":{"amenity":"waste_basket"}},"type":"Feature"},
	{"geometry":{"coordinates":[27.920572,43.226295],"type":"Point"},"properties":{"osm_id":"2408163109","tag":{"amenity":"waste_basket"}},"type":"Feature"},
	{"geometry":{"coordinates":[27.920707,43.225549],"type":"Point"},"properties":{"osm_id":"2408355248","tag":{"amenity":"waste_disposal"}},"type":"Feature"},
	{"geometry":{"coordinates":[27.91916,43.225902],"type":"Point"},"properties":{"osm_id":"2408355258","tag":{"amenity":"waste_disposal"}},"type":"Feature"},
	{"geometry":{"coordinates":[27.919217,43.226069],"type":"Point"},"properties":{"osm_id":"2408355260","tag":{"amenity":"waste_disposal"}},"type":"Feature"},
	{"geometry":{"coordinates":[27.919356,43.226406],"type":"Point"},"properties":{"osm_id":"2408355263","tag":{"amenity":"recycling","recycling_type":"container"}},"type":"Feature"},
	{"geometry":{"coordinates":[27.919229,43.224879],"type":"Point"},"properties":{"osm_id":"2410443425","tag":{"amenity":"waste_disposal"}},"type":"Feature"},
	{"geometry":{"coordinates":[27.922125,43.225364],"type":"Point"},"properties":{"osm_id":"2411334098","tag":{"amenity":"waste_disposal"}},"type":"Feature"},
	{"geometry":{"coordinates":[27.927576,43.221559],"type":"Point"},"properties":{"osm_id":"2707592967","tag":{"amenity":"waste_disposal"}},"type":"Feature"},
	{"geometry":{"coordinates":[27.924828,43.221769],"type":"Point"},"properties":{"osm_id":"2707592968","tag":{"amenity":"waste_disposal","waste":"trash"}},"type":"Feature"},
	{"geometry":{"coordinates":[27.925839,43.222025],"type":"Point"},"properties":{"osm_id":"2707592973","tag":{"amenity":"waste_disposal"}},"type":"Feature"},
	{"geometry":{"coordinates":[27.92852,43.223077],"type":"Point"},"properties":{"osm_id":"2707592975","tag":{"amenity":"waste_disposal"}},"type":"Feature"},
	{"geometry":{"coordinates":[27.926281,43.223318],"type":"Point"},"properties":{"osm_id":"2707592976","tag":{"amenity":"waste_disposal"}},"type":"Feature"},
	{"geometry":{"coordinates":[27.923022,43.221959],"type":"Point"},"properties":{"osm_id":"2708564434","tag":{"amenity":"waste_disposal"}},"type":"Feature"},
	{"geometry":{"coordinates":[27.907104,43.209161],"type":"Point"},"properties":{"osm_id":"2711498393","tag":{"amenity":"waste_disposal"}},"type":"Feature"},
	{"geometry":{"coordinates":[27.921506,43.206585],"type":"Point"},"properties":{"osm_id":"3017430466","tag":{"amenity":"waste_disposal"}},"type":"Feature"},
	{"geometry":{"coordinates":[27.913391,43.205242],"type":"Point"},"properties":{"osm_id":"3049943304","tag":{"amenity":"waste_disposal"}},"type":"Feature"},
	{"geometry":{"coordinates":[27.864806,43.231956],"type":"Point"},"properties":{"osm_id":"4331472953","tag":{"amenity":"recycling","recycling:electrical_appliances":"yes","recycling_type":"container"}},"type":"Feature"},
	{"geometry":{"coordinates":[27.925932,43.221925],"type":"Point"},"properties":{"osm_id":"4568609205","tag":{"amenity":"waste_basket"}},"type":"Feature"},
	{"geometry":{"coordinates":[27.925953,43.222606],"type":"Point"},"properties":{"osm_id":"4568609206","tag":{"amenity":"recycling","colour":"green","recycling:glass_bottles":"yes","recycling_type":"container"}},"type":"Feature"},
	{"geometry":{"coordinates":[27.928495,43.223032],"type":"Point"},"properties":{"osm_id":"4568609207","tag":{"amenity":"recycling","colour":"green","recycling:glass_bottles":"yes","recycling_type":"container"}},"type":"Feature"},
	{"geometry":{"coordinates":[27.928507,43.223053],"type":"Point"},"properties":{"osm_id":"4568609208","tag":{"amenity":"recycling","colour":"yellow","recycling:paper":"yes","recycling:plastic":"yes","recycling_type":"container"}},"type":"Feature"},
	{"geometry":{"coordinates":[27.929337,43.224538],"type":"Point"},"properties":{"osm_id":"4568609209","tag":{"amenity":"recycling","recycling:paper":"yes","recycling:plastic":"yes","recycling_type":"container"}},"type":"Feature"},
	{"geometry":{"coordinates":[27.92938,43.224585],"type":"Point"},"properties":{"osm_id":"4568609210","tag":{"amenity":"waste_disposal"}},"type":"Feature"},
	{"geometry":{"coordinates":[27.920503,43.198308],"type":"Point"},"properties":{"osm_id":"4777386589","tag":{"amenity":"waste_basket"}},"type":"Feature"},
	{"geometry":{"coordinates":[27.94085,43.219157],"type":"Point"},"properties":{"osm_id":"4793612070","tag":{"amenity":"recycling","recycling:glass_bottles":"yes","recycling_type":"container"}},"type":"Feature"},
	{"geometry":{"coordinates":[27.940783,43.219165],"type":"Point"},"properties":{"osm_id":"4793612071","tag":{"amenity":"recycling","recycling:cans":"yes","recycling:paper":"yes","recycling:plastic":"yes","recycling_type":"container"}},"type":"Feature"},
	{"geometry":{"coordinates":[27.927541,43.221544],"type":"Point"},"properties":{"osm_id":"4895888906","tag":{"amenity":"recycling","colour":"yellow","recycling:paper":"yes","recycling:plastic":"yes","recycling_type":"container"}},"type":"Feature"},
	{"geometry":{"coordinates":[27.927509,43.221536],"type":"Point"},"properties":{"osm_id":"4895888907","tag":{"amenity":"recycling","colour":"green","recycling:glass_bottles":"yes","recycling_type":"container"}},"type":"Feature"},
	{"geometry":{"coordinates":[27.925959,43.222638],"type":"Point"},"properties":{"osm_id":"4895888908","tag":{"amenity":"recycling","colour":"yellow","recycling:paper":"yes","recycling:plastic":"yes","recycling_type":"container"}},"type":"Feature"},
	{"geometry":{"coordinates":[27.925924,43.222466],"type":"Point"},"properties":{"osm_id":"4902639857","tag":{"amenity":"waste_disposal"}},"type":"Feature"},
	{"geometry":{"coordinates":[27.925919,43.22243],"type":"Point"},"properties":{"osm_id":"4902639858","tag":{"amenity":"waste_disposal"}},"type":"Feature"},
	{"geometry":{"coordinates":[27.940421,43.214094],"type":"Point"},"properties":{"osm_id":"4903136022","tag":{"amenity":"recycling","colour":"yellow","recycling:cans":"yes","recycling:cardboard":"yes","recycling:glass_bottles":"no","recycling:paper":"yes","recycling:plastic":"yes","recycling_type":"container"}},"type":"Feature"},
	{"geometry":{"coordinates":[27.940455,43.214103],"type":"Point"},"properties":{"osm_id":"4903136023","tag":{"amenity":"recycling","colour":"green","recycling:glass_bottles":"yes","recycling_type":"container"}},"type":"Feature"},
	{"geometry":{"coordinates":[27.926103,43.222632],"type":"Point"},"properties":{"osm_id":"4907135696","tag":{"amenity":"waste_basket"}},"type":"Feature"},
	{"geometry":{"coordinates":[27.926277,43.223292],"type":"Point"},"properties":{"osm_id":"4907135697","tag":{"amenity":"waste_disposal"}},"type":"Feature"},
	{"geometry":{"coordinates":[27.926489,43.225434],"type":"Point"},"properties":{"osm_id":"4922800656","tag":{"amenity":"waste_disposal"}},"type":"Feature"},
	{"geometry":{"coordinates":[27.926456,43.225462],"type":"Point"},"properties":{"osm_id":"4922800657","tag":{"amenity":"recycling","colour":"green","recycling:glass_bottles":"yes","recycling_type":"container"}},"type":"Feature"},
	{"geometry":{"coordinates":[27.926466,43.225446],"type":"Point"},"properties":{"osm_id":"4922800658","tag":{"amenity":"recycling","colour":"yellow","recycling:paper":"yes","recycling:plastic":"yes","recycling_type":"container"}},"type":"Feature"},
	{"geometry":{"coordinates":[27.928347,43.218694],"type":"Point"},"properties":{"osm_id":"5340549738","tag":{"amenity":"waste_disposal"}},"type":"Feature"},
	{"geometry":{"coordinates":[27.930579,43.212435],"type":"Point"},"properties":{"osm_id":"5562473727","tag":{"amenity":"recycling","recycling:paper":"yes","recycling_type":"container"}},"type":"Feature"},
	{"geometry":{"coordinates":[27.930565,43.21246],"type":"Point"},"properties":{"osm_id":"5562473728","tag":{"amenity":"recycling","recycling:cans":"yes","recycling:plastic":"yes","recycling:plastic_bottles":"yes","recycling:plastic_packaging":"yes","recycling_type":"container"}},"type":"Feature"},
	{"geometry":{"coordinates":[27.930524,43.212524],"type":"Point"},"properties":{"osm_id":"5562473729","tag":{"amenity":"waste_disposal","waste":"trash"}},"type":"Feature"},
	{"geometry":{"coordinates":[27.930544,43.212492],"type":"Point"},"properties":{"osm_id":"5562473730","tag":{"amenity":"waste_disposal","waste":"trash"}},"type":"Feature"},
	{"geometry":{"coordinates":[27.921491,43.208153],"type":"Point"},"properties":{"osm_id":"6066561274","tag":{"amenity":"recycling","recycling:cans":"yes","recycling:cardboard":"yes","recycling:paper":"yes","recycling:plastic_bottles":"yes","recycling:plastic_packaging":"yes","recycling_type":"container"}},"type":"Feature"},
	{"geometry":{"coordinates":[27.921521,43.208129],"type":"Point"},"properties":{"osm_id":"6066561275","tag":{"amenity":"recycling","recycling:cardboard":"no","recycling:glass_bottles":"yes","recycling_type":"container"}},"type":"Feature"},
	{"geometry":{"coordinates":[27.920117,43.200462],"type":"Point"},"properties":{"osm_id":"6070039110","tag":{"amenity":"waste_disposal","waste":"trash"}},"type":"Feature"},
	{"geometry":{"coordinates":[27.920089,43.200444],"type":"Point"},"properties":{"osm_id":"6070039111","tag":{"amenity":"waste_disposal","waste":"trash"}},"type":"Feature"},
	{"geometry":{"coordinates":[27.928933,43.216162],"type":"Point"},"properties":{"osm_id":"6127132293","tag":{"amenity":"waste_disposal"}},"type":"Feature"},
	{"geometry":{"coordinates":[27.915308,43.226559],"type":"Point"},"properties":{"osm_id":"6166837486","tag":{"amenity":"waste_disposal"}},"type":"Feature"},
	{"geometry":{"coordinates":[27.918372,43.22721],"type":"Point"},"properties":{"osm_id":"6441418276","ref":"7089","tag":{"amenity":"recycling","opening_hours":"24/7","operator":"\u00d0\u0091\u00d0\u00a7\u00d0\u009a","recycling:clothes":"yes","recycling_type":"container"}},"type":"Feature"},
	{"geometry":{"coordinates":[27.909789,43.207881],"type":"Point"},"properties":{"osm_id":"6579905627","tag":{"amenity":"waste_basket"}},"type":"Feature"},
	{"geometry":{"coordinates":[27.909494,43.208401],"type":"Point"},"properties":{"osm_id":"6579905635","tag":{"amenity":"waste_basket"}},"type":"Feature"},
	{"geometry":{"coordinates":[27.909275,43.208807],"type":"Point"},"properties":{"osm_id":"6579905636","tag":{"amenity":"waste_basket"}},"type":"Feature"},
	{"geometry":{"coordinates":[27.912738,43.201546],"type":"Point"},"properties":{"osm_id":"6582857663","tag":{"amenity":"recycling","recycling:cans":"yes","recycling:paper":"yes","recycling:plastic":"yes","recycling:plastic_packaging":"yes","recycling_type":"container"}},"type":"Feature"},
	{"geometry":{"coordinates":[27.912705,43.201544],"type":"Point"},"properties":{"osm_id":"6582857664","tag":{"amenity":"waste_disposal","waste":"trash"}},"type":"Feature"},
	{"geometry":{"coordinates":[27.929703,43.222493],"type":"Point"},"properties":{"osm_id":"6591879247","tag":{"amenity":"waste_disposal","waste":"trash"}},"type":"Feature"},
	{"geometry":{"coordinates":[27.93562,43.222564],"type":"Point"},"properties":{"osm_id":"6638129064","tag":{"amenity":"waste_disposal"}},"type":"Feature"},
	{"geometry":{"coordinates":[27.918769,43.203154],"type":"Point"},"properties":{"osm_id":"6813010366","tag":{"amenity":"waste_disposal"}},"type":"Feature"},
	{"geometry":{"coordinates":[27.920358,43.202856],"type":"Point"},"properties":{"osm_id":"6813010367","tag":{"amenity":"waste_disposal"}},"type":"Feature"},
	{"geometry":{"coordinates":[27.919975,43.204052],"type":"Point"},"properties":{"osm_id":"6813083803","tag":{"amenity":"waste_disposal"}},"type":"Feature"},
	{"geometry":{"coordinates":[27.921848,43.20236],"type":"Point"},"properties":{"osm_id":"6814706193","tag":{"amenity":"waste_disposal"}},"type":"Feature"},
	{"geometry":{"coordinates":[27.919601,43.203275],"type":"Point"},"properties":{"osm_id":"6821251332","tag":{"amenity":"waste_basket","material":"metal"}},"type":"Feature"},
	{"geometry":{"coordinates":[27.920508,43.202689],"type":"Point"},"properties":{"osm_id":"6821251335","tag":{"amenity":"waste_basket","material":"plastic"}},"type":"Feature"},
	{"geometry":{"coordinates":[27.917903,43.202233],"type":"Point"},"properties":{"osm_id":"6824937263","tag":{"amenity":"recycling","recycling:glass_bottles":"yes","recycling:paper":"yes","recycling_type":"container"}},"type":"Feature"},
	{"geometry":{"coordinates":[27.917853,43.202267],"type":"Point"},"properties":{"osm_id":"6824937264","tag":{"amenity":"waste_disposal"}},"type":"Feature"},
	{"geometry":{"coordinates":[27.917576,43.202893],"type":"Point"},"properties":{"osm_id":"6824971027","tag":{"amenity":"waste_disposal"}},"type":"Feature"},
	{"geometry":{"coordinates":[27.920415,43.202834],"type":"Point"},"properties":{"osm_id":"7242300420","tag":{"amenity":"recycling","recycling_type":"container"}},"type":"Feature"},
	{"geometry":{"coordinates":[27.888609,43.228561],"type":"Point"},"properties":{"osm_id":"7393376650","tag":{"amenity":"waste_disposal"}},"type":"Feature"},
	{"geometry":{"coordinates":[27.918989,43.203394],"type":"Point"},"properties":{"osm_id":"7429161661","tag":{"amenity":"waste_basket","material":"concrete"}},"type":"Feature"},
	{"geometry":{"coordinates":[27.91922,43.203237],"type":"Point"},"properties":{"osm_id":"7429161662","tag":{"amenity":"waste_basket","material":"concrete"}},"type":"Feature"},
	{"geometry":{"coordinates":[27.917585,43.202852],"type":"Point"},"properties":{"osm_id":"7457194249","tag":{"amenity":"recycling","recycling:cartons":"yes","recycling:glass":"yes","recycling:plastic":"yes","recycling:scrap_metal":"yes","recycling_type":"container"}},"type":"Feature"},
	{"geometry":{"coordinates":[27.91979,43.202109],"type":"Point"},"properties":{"osm_id":"7457194250","tag":{"amenity":"recycling","recycling_type":"container"}},"type":"Feature"},
	{"geometry":{"coordinates":[27.919804,43.202087],"type":"Point"},"properties":{"osm_id":"7457194251","tag":{"amenity":"waste_disposal"}},"type":"Feature"},
	{"geometry":{"coordinates":[27.924666,43.211592],"type":"Point"},"properties":{"osm_id":"7529744360","tag":{"amenity":"waste_disposal"}},"type":"Feature"},
	{"geometry":{"coordinates":[27.861745,43.232339],"type":"Point"},"properties":{"osm_id":"7589389286","ref":"7088","tag":{"amenity":"recycling","opening_hours":"24/7","operator":"\u00d0\u0091\u00d0\u00a7\u00d0\u009a","recycling:clothes":"yes","recycling_type":"container"}},"type":"Feature"},
	{"geometry":{"coordinates":[27.861717,43.232348],"type":"Point"},"properties":{"osm_id":"7589389287","ref":"7082","tag":{"amenity":"recycling","opening_hours":"24/7","operator":"\u00d0\u0091\u00d0\u00a7\u00d0\u009a","recycling:clothes":"yes","recycling_type":"container"}},"type":"Feature"},
	{"geometry":{"coordinates":[27.924446,43.215383],"type":"Point"},"properties":{"osm_id":"7590974851","tag":{"amenity":"waste_disposal"}},"type":"Feature"},
	{"geometry":{"coordinates":[27.924517,43.215332],"type":"Point"},"properties":{"osm_id":"7590974852","tag":{"amenity":"recycling","colour":"green","recycling:glass_bottles":"yes","recycling_type":"container"}},"type":"Feature"},
	{"geometry":{"coordinates":[27.924485,43.215354],"type":"Point"},"properties":{"osm_id":"7590974853","tag":{"amenity":"recycling","colour":"yellow","recycling:paper":"yes","recycling:plastic":"yes","recycling_type":"container"}},"type":"Feature"},
	{"geometry":{"coordinates":[27.918355,43.22721],"type":"Point"},"properties":{"osm_id":"7596596864","ref":"7100","tag":{"amenity":"recycling","opening_hours":"24/7","operator":"\u00d0\u0091\u00d0\u00a7\u00d0\u009a","recycling:clothes":"yes","recycling_type":"container"}},"type":"Feature"},
	{"geometry":{"coordinates":[27.900608,43.229637],"type":"Point"},"properties":{"osm_id":"7603418120","tag":{"amenity":"recycling","opening_hours":"24/7","recycling:tyres":"yes","recycling_type":"container"}},"type":"Feature"},
	{"geometry":{"coordinates":[27.924922,43.216311],"type":"Point"},"properties":{"osm_id":"7638485732","tag":{"amenity":"waste_disposal"}},"type":"Feature"},
	{"geometry":{"coordinates":[27.924949,43.216331],"type":"Point"},"properties":{"osm_id":"7638485734","tag":{"amenity":"waste_disposal"}},"type":"Feature"},
	{"geometry":{"coordinates":[27.933363,43.222071],"type":"Point"},"properties":{"osm_id":"7644284255","tag":{"amenity":"recycling","colour":"green","recycling:glass_bottles":"yes","recycling_type":"container"}},"type":"Feature"},
	{"geometry":{"coordinates":[27.933395,43.222046],"type":"Point"},"properties":{"osm_id":"7644284256","tag":{"amenity":"recycling","colour":"yellow","recycling:batteries":"no","recycling:beverage_cartons":"yes","recycling:books":"yes","recycling:cans":"yes","recycling:cardboard":"yes","recycling:clothes":"no","recycling:electrical_appliances":"no","recycling:magazines":"yes","recycling:newspaper":"yes","recycling:paper":"yes","recycling:paper_packaging":"yes","recycling:plastic":"yes","recycling:plastic_bottles":"yes","recycling:plastic_packaging":"yes","recycling:shoes":"no","recycling_type":"container"}},"type":"Feature"},
	{"geometry":{"coordinates":[27.93333,43.222089],"type":"Point"},"properties":{"osm_id":"7644284257","tag":{"amenity":"waste_disposal"}},"type":"Feature"},
	{"geometry":{"coordinates":[27.922991,43.221402],"type":"Point"},"properties":{"osm_id":"7653784795","tag":{"amenity":"waste_disposal"}},"type":"Feature"},
	{"geometry":{"coordinates":[27.900611,43.229654],"type":"Point"},"properties":{"osm_id":"7666613786","tag":{"amenity":"recycling","opening_hours":"24/7","recycling:plastic_packaging":"yes","recycling:scrap_metal":"yes","recycling_type":"container"}},"type":"Feature"},
	{"geometry":{"coordinates":[27.92357,43.214543],"type":"Point"},"properties":{"osm_id":"7689055829","tag":{"amenity":"recycling","capacity":"2","colour":"yellow","recycling:paper":"yes","recycling:plastic":"yes","recycling_type":"container"}},"type":"Feature"},
	{"geometry":{"coordinates":[27.922935,43.213638],"type":"Point"},"properties":{"osm_id":"7689055830","ref":"7090","tag":{"amenity":"recycling","opening_hours":"24/7","operator":"\u00d0\u0091\u00d0\u00a7\u00d0\u009a","recycling:clothes":"yes","recycling_type":"container"}},"type":"Feature"},
	{"geometry":{"coordinates":[27.922904,43.213666],"type":"Point"},"properties":{"osm_id":"7689055831","ref":"7026","tag":{"amenity":"recycling","opening_hours":"24/7","operator":"\u00d0\u0091\u00d0\u00a7\u00d0\u009a","recycling:clothes":"yes","recycling_type":"container"}},"type":"Feature"},
	{"geometry":{"coordinates":[27.930426,43.220255],"type":"Point"},"properties":{"osm_id":"7747234768","tag":{"amenity":"waste_basket","waste":"trash"}},"type":"Feature"},
	{"geometry":{"coordinates":[27.929813,43.220437],"type":"Point"},"properties":{"osm_id":"7747234769","tag":{"amenity":"waste_basket","waste":"trash"}},"type":"Feature"},
	{"geometry":{"coordinates":[27.929392,43.220549],"type":"Point"},"properties":{"osm_id":"7747234770","tag":{"amenity":"waste_basket","waste":"trash"}},"type":"Feature"},
	{"geometry":{"coordinates":[27.924813,43.206832],"type":"Point"},"properties":{"osm_id":"7839387582","tag":{"amenity":"waste_disposal","waste":"trash"}},"type":"Feature"},
	{"geometry":{"coordinates":[27.947795,43.214927],"type":"Point"},"properties":{"osm_id":"7862236888","tag":{"amenity":"recycling","colour":"green","recycling:glass_bottles":"yes","recycling_type":"container"}},"type":"Feature"},
	{"geometry":{"coordinates":[27.947756,43.214921],"type":"Point"},"properties":{"osm_id":"7862236889","tag":{"amenity":"recycling","colour":"yellow","recycling:paper":"yes","recycling:plastic":"yes","recycling_type":"container"}},"type":"Feature"},
	{"geometry":{"coordinates":[27.919482,43.209481],"type":"Point"},"properties":{"osm_id":"7862236899","tag":{"amenity":"recycling","colour":"green","recycling:glass_bottles":"yes","recycling_type":"container"}},"type":"Feature"},
	{"geometry":{"coordinates":[27.919453,43.209506],"type":"Point"},"properties":{"osm_id":"7862236900","tag":{"amenity":"recycling","colour":"yellow","recycling:paper":"yes","recycling:plastic":"yes","recycling_type":"container"}},"type":"Feature"},
	{"geometry":{"coordinates":[27.91951,43.209454],"type":"Point"},"properties":{"osm_id":"7862236901","tag":{"amenity":"waste_disposal"}},"type":"Feature"},
	{"geometry":{"coordinates":[27.941219,43.215433],"type":"Point"},"properties":{"osm_id":"7871560422","tag":{"amenity":"recycling","colour":"green","recycling:glass_bottles":"yes","recycling_type":"container"}},"type":"Feature"},
	{"geometry":{"coordinates":[27.941194,43.215437],"type":"Point"},"properties":{"osm_id":"7871560423","tag":{"amenity":"recycling","colour":"yellow","recycling:paper":"yes","recycling:plastic":"yes","recycling_type":"container"}},"type":"Feature"},
	{"geometry":{"coordinates":[27.941166,43.215442],"type":"Point"},"properties":{"osm_id":"7871560424","tag":{"amenity":"waste_disposal"}},"type":"Feature"},
	{"geometry":{"coordinates":[27.918146,43.227445],"type":"Point"},"properties":{"osm_id":"7890238978","tag":{"amenity":"waste_disposal"}},"type":"Feature"},
	{"geometry":{"coordinates":[27.918235,43.225019],"type":"Point"},"properties":{"osm_id":"7890238979","tag":{"amenity":"recycling","colour":"green","recycling:glass_bottles":"yes","recycling_type":"container"}},"type":"Feature"},
	{"geometry":{"coordinates":[27.918224,43.224987],"type":"Point"},"properties":{"osm_id":"7890238980","tag":{"amenity":"recycling","colour":"yellow","recycling:paper":"yes","recycling:plastic":"yes","recycling_type":"container"}},"type":"Feature"},
	{"geometry":{"coordinates":[27.918216,43.224962],"type":"Point"},"properties":{"osm_id":"7890238981","tag":{"amenity":"waste_disposal"}},"type":"Feature"},
	{"geometry":{"coordinates":[27.924153,43.219715],"type":"Point"},"properties":{"osm_id":"7906094871","tag":{"amenity":"recycling","colour":"green","recycling:glass_bottles":"yes","recycling_type":"container"}},"type":"Feature"},
	{"geometry":{"coordinates":[27.924174,43.219702],"type":"Point"},"properties":{"osm_id":"7906094872","tag":{"amenity":"recycling","colour":"yellow","recycling:paper":"yes","recycling:plastic":"yes","recycling_type":"container"}},"type":"Feature"},
	{"geometry":{"coordinates":[27.924129,43.219728],"type":"Point"},"properties":{"osm_id":"7906094873","tag":{"amenity":"waste_disposal"}},"type":"Feature"},
	{"geometry":{"coordinates":[27.913862,43.199543],"type":"Point"},"properties":{"osm_id":"7941535627","tag":{"amenity":"recycling","colour":"green","recycling:glass_bottles":"yes","recycling_type":"container"}},"type":"Feature"},
	{"geometry":{"coordinates":[27.913863,43.199514],"type":"Point"},"properties":{"osm_id":"7941535628","tag":{"amenity":"recycling","colour":"yellow","recycling:paper":"yes","recycling:plastic":"yes","recycling_type":"container"}},"type":"Feature"},
	{"geometry":{"coordinates":[27.913861,43.199567],"type":"Point"},"properties":{"osm_id":"7941535629","tag":{"amenity":"waste_disposal"}},"type":"Feature"}
]
}
