{
"type": "FeatureCollection",
"features": [
	{"geometry":{"coordinates":[27.947215,41.29576],"type":"Point"},"properties":{"osm_id":"6001915093","tag":{"amenity":"recycling","operator":"Kapakl\u00c4\u00b1 Belediyesi","recycling:glass":"yes","recycling:glass_bottles":"yes","recycling_type":"container"}},"type":"Feature"},
	{"geometry":{"coordinates":[27.945745,41.295095],"type":"Point"},"properties":{"osm_id":"6001915094","tag":{"amenity":"recycling","operator":"Kapakl\u00c4\u00b1 Belediyesi","recycling:glass":"yes","recycling:glass_bottles":"yes","recycling_type":"container"}},"type":"Feature"},
	{"geometry":{"coordinates":[27.947078,41.294365],"type":"Point"},"properties":{"osm_id":"6001915095","tag":{"amenity":"recycling","operator":"Kapakl\u00c4\u00b1 Belediyesi","recycling:glass":"yes","recycling:glass_bottles":"yes","recycling_type":"container"}},"type":"Feature"},
	{"geometry":{"coordinates":[27.947974,41.293323],"type":"Point"},"properties":{"osm_id":"6001915096","tag":{"amenity":"recycling","operator":"Kapakl\u00c4\u00b1 Belediyesi","recycling:glass":"yes","recycling:glass_bottles":"yes","recycling_type":"container"}},"type":"Feature"},
	{"geometry":{"coordinates":[27.948466,41.293297],"type":"Point"},"properties":{"osm_id":"6001915097","tag":{"amenity":"recycling","operator":"Kapakl\u00c4\u00b1 Belediyesi","recycling:glass":"yes","recycling:glass_bottles":"yes","recycling_type":"container"}},"type":"Feature"},
	{"geometry":{"coordinates":[27.90302,41.290214],"type":"Point"},"properties":{"osm_id":"6001915098","tag":{"amenity":"recycling","operator":"Kapakl\u00c4\u00b1 Belediyesi","recycling:glass":"yes","recycling:glass_bottles":"yes","recycling_type":"container"}},"type":"Feature"},
	{"geometry":{"coordinates":[27.900947,41.288347],"type":"Point"},"properties":{"osm_id":"6001915099","tag":{"amenity":"recycling","operator":"Kapakl\u00c4\u00b1 Belediyesi","recycling:glass":"yes","recycling:glass_bottles":"yes","recycling_type":"container"}},"type":"Feature"},
	{"geometry":{"coordinates":[27.908135,41.289905],"type":"Point"},"properties":{"osm_id":"6001915100","tag":{"amenity":"recycling","operator":"Kapakl\u00c4\u00b1 Belediyesi","recycling:glass":"yes","recycling:glass_bottles":"yes","recycling_type":"container"}},"type":"Feature"},
	{"geometry":{"coordinates":[27.876613,41.253036],"type":"Point"},"properties":{"osm_id":"6317276161","tag":{"amenity":"waste_disposal"}},"type":"Feature"},
	{"geometry":{"coordinates":[27.875594,41.252164],"type":"Point"},"properties":{"osm_id":"6317276292","tag":{"amenity":"waste_disposal"}},"type":"Feature"},
	{"geometry":{"coordinates":[27.874999,41.25154],"type":"Point"},"properties":{"osm_id":"6317276299","tag":{"amenity":"waste_disposal"}},"type":"Feature"},
	{"geometry":{"coordinates":[27.937227,41.266377],"type":"Point"},"properties":{"name":"Mert Demir Geri D\u00c3\u00b6n\u00c3\u00bc\u00c5\u009f\u00c3\u00bcm Ltd. \u00c5\u009eti.","osm_id":"8436099227","tag":{"amenity":"recycling","phone":"+905301006658"}},"type":"Feature"},
	{"geometry":{"coordinates":[27.938426,41.272537],"type":"Point"},"properties":{"barrier":"gate","osm_id":"8436338714"},"type":"Feature"},
	{"geometry":{"coordinates":[27.93702,41.270906],"type":"Point"},"properties":{"name":"Tekasan Plastik","osm_id":"8436360751","tag":{"amenity":"recycling","phone":"+902827477000","recycling:plastic":"yes","recycling:plastic_packaging":"no","recycling_type":"centre","website":"www.tekasan.com"}},"type":"Feature"},
	{"geometry":{"coordinates":[27.935845,41.269402],"type":"Point"},"properties":{"name":"Tehlikesiz At\u00c4\u00b1k (Metal) Toplama Ay\u00c4\u00b1rma Tesisi","osm_id":"8436360761","tag":{"amenity":"recycling","phone":"+905323853462","recycling:scrap_metal":"yes","recycling_type":"centre"}},"type":"Feature"},
	{"geometry":{"coordinates":[27.939366,41.271334],"type":"Point"},"properties":{"barrier":"gate","osm_id":"8436360794"},"type":"Feature"},
	{"geometry":{"coordinates":[27.939418,41.271193],"type":"Point"},"properties":{"barrier":"gate","osm_id":"8436360815"},"type":"Feature"},
	{"geometry":{"coordinates":[27.938456,41.268787],"type":"Point"},"properties":{"name":"\u00c3\u0087erkezk\u00c3\u00b6y Geri D\u00c3\u00b6n\u00c3\u00bc\u00c5\u009f\u00c3\u00bcm Ambalaj At\u00c4\u00b1\u00c4\u009f\u00c4\u00b1 Toplama ve Ay\u00c4\u00b1rma Tesisi","osm_id":"8436360832","tag":{"amenity":"recycling","operator":"Serdar Ceran","phone":"+905417250694","recycling_type":"centre","website":"www.cerkezkoygeridonusum.com.tr"}},"type":"Feature"},
	{"geometry":{"coordinates":[27.936515,41.268359],"type":"Point"},"properties":{"name":"Bilgi\u00c3\u00a7 Metal Tehlikesiz At\u00c4\u00b1k Toplama","osm_id":"8436360835","tag":{"amenity":"recycling","recycling_type":"centre"}},"type":"Feature"}
]
}
