{
"type": "FeatureCollection",
"lastupdate": "2020-08-04T00:00:00Z",
"features": [
	{"geometry":{"coordinates":[-8.952424,53.939707],"type":"Point"},"properties":{"name":"Recycling Bank","osm_id":"3151185968","tag":{"amenity":"recycling","recycling:cans":"yes","recycling:clothes":"yes","recycling:glass":"yes","recycling:paper":"yes","website":"https://swinfordtidytowns.com/","wheelchair":"yes"}},"type":"Feature"},
	{"geometry":{"coordinates":[-8.950281,53.942507],"type":"Point"},"properties":{"name":"Recycling Bank","osm_id":"3151193346","tag":{"addr:city":"Swinford","addr:street":"Melletts Carpark","amenity":"recycling","recycling:cans":"yes","recycling:clothes":"yes","recycling:glass":"yes","website":"https://swinfordtidytowns.com/","wheelchair":"yes"}},"type":"Feature"},
	{"geometry":{"coordinates":[-8.93816,53.942676],"type":"Point"},"properties":{"name":"Recycling Bank","osm_id":"3151226288","tag":{"addr:city":"Swinford","addr:street":"Dublin Road","amenity":"recycling","recycling:cans":"yes","recycling:clothes":"yes","recycling:glass":"yes","website":"https://swinfordtidytowns.com/"}},"type":"Feature"}
]
}
