{
"type": "FeatureCollection",
"lastupdate": "2020-08-02T00:00:00Z",
"features": [
	{"geometry":{"coordinates":[-8.957327,38.715735],"type":"Point"},"properties":{"osm_id":"4187410789","tag":{"addr:city":"Montijo","addr:street":"Rua das Naus","amenity":"recycling"}},"type":"Feature"},
	{"geometry":{"coordinates":[-8.96123,38.714735],"type":"Point"},"properties":{"osm_id":"4195511425","tag":{"amenity":"waste_basket"}},"type":"Feature"},
	{"geometry":{"coordinates":[-8.956505,38.714129],"type":"Point"},"properties":{"osm_id":"4198435105","tag":{"amenity":"recycling"}},"type":"Feature"},
	{"geometry":{"coordinates":[-8.961721,38.713349],"type":"Point"},"properties":{"osm_id":"4225510658","tag":{"amenity":"recycling"}},"type":"Feature"},
	{"geometry":{"coordinates":[-8.96419,38.713663],"type":"Point"},"properties":{"osm_id":"4226199974","tag":{"amenity":"recycling"}},"type":"Feature"},
	{"geometry":{"coordinates":[-8.963525,38.714172],"type":"Point"},"properties":{"osm_id":"4226199976","tag":{"amenity":"recycling"}},"type":"Feature"},
	{"geometry":{"coordinates":[-8.96086,38.712976],"type":"Point"},"properties":{"osm_id":"4228696416","tag":{"amenity":"recycling"}},"type":"Feature"},
	{"geometry":{"coordinates":[-8.961161,38.714274],"type":"Point"},"properties":{"osm_id":"4228754191","tag":{"amenity":"recycling"}},"type":"Feature"},
	{"geometry":{"coordinates":[-8.954519,38.714422],"type":"Point"},"properties":{"osm_id":"4232920792","tag":{"amenity":"recycling"}},"type":"Feature"},
	{"geometry":{"coordinates":[-8.962256,38.748691],"type":"Point"},"properties":{"osm_id":"4318033730","tag":{"amenity":"recycling"}},"type":"Feature"},
	{"geometry":{"coordinates":[-8.962309,38.75235],"type":"Point"},"properties":{"osm_id":"4320932117","tag":{"amenity":"recycling"}},"type":"Feature"},
	{"geometry":{"coordinates":[-8.951847,38.710899],"type":"Point"},"properties":{"osm_id":"4328184413","tag":{"amenity":"recycling"}},"type":"Feature"},
	{"geometry":{"coordinates":[-8.95143,38.711987],"type":"Point"},"properties":{"osm_id":"4328184414","tag":{"amenity":"recycling"}},"type":"Feature"},
	{"geometry":{"coordinates":[-8.963295,38.706849],"type":"Point"},"properties":{"osm_id":"4347123595","tag":{"amenity":"recycling"}},"type":"Feature"},
	{"geometry":{"coordinates":[-8.948881,38.702367],"type":"Point"},"properties":{"osm_id":"4379626361","tag":{"amenity":"recycling"}},"type":"Feature"},
	{"geometry":{"coordinates":[-8.959813,38.75286],"type":"Point"},"properties":{"osm_id":"5030385779","tag":{"amenity":"recycling","recycling_type":"container"}},"type":"Feature"},
	{"geometry":{"coordinates":[-8.961821,38.753066],"type":"Point"},"properties":{"osm_id":"5030385788","tag":{"amenity":"recycling","recycling_type":"container"}},"type":"Feature"},
	{"geometry":{"coordinates":[-8.955465,38.699673],"type":"Point"},"properties":{"osm_id":"5082082201","tag":{"amenity":"recycling","recycling:batteries":"yes","recycling:cans":"yes","recycling:glass":"yes","recycling:paper":"yes","recycling:plastic":"yes","recycling_type":"container"}},"type":"Feature"},
	{"geometry":{"coordinates":[-8.957993,38.702199],"type":"Point"},"properties":{"osm_id":"5082166788","tag":{"amenity":"recycling","recycling:batteries":"yes","recycling:cans":"yes","recycling:glass":"yes","recycling:paper":"yes","recycling:plastic":"yes","recycling_type":"container"}},"type":"Feature"},
	{"geometry":{"coordinates":[-8.956815,38.713425],"type":"Point"},"properties":{"osm_id":"5090472908","tag":{"amenity":"recycling","recycling:batteries":"yes","recycling:cans":"yes","recycling:glass":"yes","recycling:paper":"yes","recycling:plastic":"yes","recycling_type":"container"}},"type":"Feature"},
	{"geometry":{"coordinates":[-8.963545,38.703665],"type":"Point"},"properties":{"osm_id":"5093303619","tag":{"amenity":"recycling","recycling:batteries":"yes","recycling:cans":"yes","recycling:glass":"yes","recycling:paper":"yes","recycling:plastic":"yes","recycling_type":"container"}},"type":"Feature"},
	{"geometry":{"coordinates":[-8.963957,38.703962],"type":"Point"},"properties":{"osm_id":"5093303620","tag":{"amenity":"recycling","recycling:cans":"yes","recycling:glass":"yes","recycling:paper":"yes","recycling:plastic":"yes","recycling_type":"container"}},"type":"Feature"},
	{"geometry":{"coordinates":[-8.955328,38.70214],"type":"Point"},"properties":{"name":"Ecoponto","osm_id":"5101098292","tag":{"amenity":"recycling","recycling_type":"centre"}},"type":"Feature"},
	{"geometry":{"coordinates":[-8.964073,38.711084],"type":"Point"},"properties":{"osm_id":"5306656321","tag":{"amenity":"recycling","recycling:glass":"yes","recycling:paper":"yes","recycling:plastic":"yes","recycling_type":"container"}},"type":"Feature"}
]
}
