{
"type": "FeatureCollection",
"features": [
	{"geometry":{"coordinates":[7.259333,51.61057],"type":"Point"},"properties":{"osm_id":"247214031","tag":{"amenity":"recycling","recycling:glass":"yes","recycling:glass_bottles":"yes"}},"type":"Feature"},
	{"geometry":{"coordinates":[7.253131,51.612779],"type":"Point"},"properties":{"osm_id":"248487340","tag":{"amenity":"recycling","recycling:glass":"yes","recycling:glass_bottles":"yes"}},"type":"Feature"},
	{"geometry":{"coordinates":[7.260477,51.607738],"type":"Point"},"properties":{"osm_id":"248560541","tag":{"amenity":"recycling","recycling:glass":"yes","recycling:glass_bottles":"yes"}},"type":"Feature"},
	{"geometry":{"coordinates":[7.285479,51.579745],"type":"Point"},"properties":{"name":"Recyclinghof Deponie P\u00c3\u00b6ppinghausen","osm_id":"277906029","tag":{"amenity":"recycling","recycling:batteries":"yes","recycling:clothes":"yes","recycling:glass":"yes","recycling:paper":"yes","recycling_type":"centre"}},"type":"Feature"},
	{"geometry":{"coordinates":[7.294362,51.570921],"type":"Point"},"properties":{"osm_id":"282877048","tag":{"amenity":"recycling","location":"overground","recycling:clothes":"yes","recycling:glass_bottles":"yes","recycling:paper":"yes","recycling_type":"container"}},"type":"Feature"},
	{"geometry":{"coordinates":[7.265291,51.604911],"type":"Point"},"properties":{"osm_id":"320921930","tag":{"amenity":"recycling","recycling:clothes":"yes","recycling:glass":"yes"}},"type":"Feature"},
	{"geometry":{"coordinates":[7.256831,51.589165],"type":"Point"},"properties":{"osm_id":"476549810","tag":{"amenity":"recycling","recycling:glass":"yes","recycling:glass_bottles":"yes","recycling_type":"container"}},"type":"Feature"},
	{"geometry":{"coordinates":[7.287682,51.56534],"type":"Point"},"properties":{"osm_id":"536263189","tag":{"amenity":"waste_basket"}},"type":"Feature"},
	{"geometry":{"coordinates":[7.280167,51.591793],"type":"Point"},"properties":{"osm_id":"545195715","tag":{"amenity":"waste_basket"}},"type":"Feature"},
	{"geometry":{"coordinates":[7.279747,51.595354],"type":"Point"},"properties":{"osm_id":"545195738","tag":{"amenity":"waste_basket"}},"type":"Feature"},
	{"geometry":{"coordinates":[7.284537,51.593742],"type":"Point"},"properties":{"osm_id":"545195747","tag":{"amenity":"waste_basket"}},"type":"Feature"},
	{"geometry":{"coordinates":[7.220981,51.609011],"type":"Point"},"properties":{"osm_id":"1359196241","tag":{"amenity":"recycling","location":"overground","recycling:glass":"yes","recycling_type":"container"}},"type":"Feature"},
	{"geometry":{"coordinates":[7.224374,51.608967],"type":"Point"},"properties":{"osm_id":"1360240081","tag":{"amenity":"recycling","recycling:glass":"yes","recycling_type":"container"}},"type":"Feature"},
	{"geometry":{"coordinates":[7.273276,51.605757],"type":"Point"},"properties":{"osm_id":"1818166131","tag":{"amenity":"recycling"}},"type":"Feature"},
	{"geometry":{"coordinates":[7.27834,51.599806],"type":"Point"},"properties":{"osm_id":"1818166229","tag":{"amenity":"recycling"}},"type":"Feature"},
	{"geometry":{"coordinates":[7.215849,51.569793],"type":"Point"},"properties":{"osm_id":"1831443559","tag":{"amenity":"recycling","recycling:glass":"yes","recycling:glass_bottles":"yes","recycling_type":"container"}},"type":"Feature"},
	{"geometry":{"coordinates":[7.224255,51.568624],"type":"Point"},"properties":{"osm_id":"1908130800","tag":{"amenity":"recycling","recycling:glass_bottles":"yes","recycling_type":"container"}},"type":"Feature"},
	{"geometry":{"coordinates":[7.210715,51.586814],"type":"Point"},"properties":{"osm_id":"1952736666","tag":{"amenity":"recycling","recycling:glass_bottles":"yes"}},"type":"Feature"},
	{"geometry":{"coordinates":[7.210165,51.587584],"type":"Point"},"properties":{"osm_id":"1952736856","tag":{"amenity":"recycling","operator":"Der Parit\u00c3\u00a4tische Wohlfahrts Verband","recycling:clothes":"yes","recycling_type":"container"}},"type":"Feature"},
	{"geometry":{"coordinates":[7.239312,51.588957],"type":"Point"},"properties":{"osm_id":"1985664568","tag":{"amenity":"recycling","recycling:glass_bottles":"yes","recycling:paper":"yes","recycling_type":"container"}},"type":"Feature"},
	{"geometry":{"coordinates":[7.23935,51.588967],"type":"Point"},"properties":{"osm_id":"1985664572","tag":{"amenity":"recycling","recycling:glass_bottles":"yes","recycling:paper":"yes","recycling_type":"container"}},"type":"Feature"},
	{"geometry":{"coordinates":[7.217153,51.583278],"type":"Point"},"properties":{"osm_id":"1998748616","tag":{"amenity":"recycling","recycling:clothes":"yes","recycling_type":"container"}},"type":"Feature"},
	{"geometry":{"coordinates":[7.217491,51.583384],"type":"Point"},"properties":{"osm_id":"1998748623","tag":{"amenity":"recycling","recycling:glass_bottles":"yes","recycling_type":"container"}},"type":"Feature"},
	{"geometry":{"coordinates":[7.213452,51.590976],"type":"Point"},"properties":{"osm_id":"2267296241","tag":{"amenity":"recycling","recycling:clothes":"yes","recycling_type":"container"}},"type":"Feature"},
	{"geometry":{"coordinates":[7.211904,51.591208],"type":"Point"},"properties":{"osm_id":"2267296244","tag":{"amenity":"recycling","recycling:glass_bottles":"yes","recycling_type":"container"}},"type":"Feature"},
	{"geometry":{"coordinates":[7.262844,51.600879],"type":"Point"},"properties":{"osm_id":"4980474626","tag":{"amenity":"recycling","recycling:glass_bottles":"yes","recycling_type":"container"}},"type":"Feature"},
	{"geometry":{"coordinates":[7.26283,51.600818],"type":"Point"},"properties":{"osm_id":"4980474627","tag":{"amenity":"recycling","recycling:clothes":"yes","recycling_type":"container"}},"type":"Feature"},
	{"geometry":{"coordinates":[7.248269,51.594089],"type":"Point"},"properties":{"osm_id":"5000255010","tag":{"amenity":"recycling","recycling:glass_bottles":"yes","recycling_type":"container"}},"type":"Feature"},
	{"geometry":{"coordinates":[7.239363,51.573266],"type":"Point"},"properties":{"osm_id":"5000342398","tag":{"amenity":"recycling","recycling:glass_bottles":"yes","recycling_type":"container"}},"type":"Feature"},
	{"geometry":{"coordinates":[7.249483,51.580052],"type":"Point"},"properties":{"osm_id":"5003330058","tag":{"amenity":"recycling","recycling:glass_bottles":"yes","recycling_type":"container"}},"type":"Feature"},
	{"geometry":{"coordinates":[7.219404,51.573767],"type":"Point"},"properties":{"osm_id":"5433157211","tag":{"amenity":"recycling","recycling:glass_bottles":"yes","recycling_type":"container","wheelchair":"limited"}},"type":"Feature"},
	{"geometry":{"coordinates":[7.226612,51.579637],"type":"Point"},"properties":{"osm_id":"5550519328","tag":{"amenity":"recycling","operator":"ksr","recycling:glass_bottles":"yes","recycling_type":"container","wheelchair":"yes"}},"type":"Feature"},
	{"geometry":{"coordinates":[7.213974,51.594051],"type":"Point"},"properties":{"osm_id":"5584172298","tag":{"amenity":"recycling","recycling:glass_bottles":"yes","recycling_type":"container"}},"type":"Feature"},
	{"geometry":{"coordinates":[7.238468,51.598745],"type":"Point"},"properties":{"osm_id":"5758059336","tag":{"amenity":"waste_basket","waste":"trash"}},"type":"Feature"},
	{"geometry":{"coordinates":[7.246316,51.581058],"type":"Point"},"properties":{"osm_id":"5758059339","tag":{"amenity":"waste_basket","waste":"trash"}},"type":"Feature"},
	{"geometry":{"coordinates":[7.241353,51.58344],"type":"Point"},"properties":{"osm_id":"5761599022","tag":{"amenity":"waste_basket","colour":"grey","material":"metal"}},"type":"Feature"},
	{"geometry":{"coordinates":[7.259259,51.574999],"type":"Point"},"properties":{"osm_id":"5763188813","tag":{"amenity":"waste_basket","waste":"trash"}},"type":"Feature"},
	{"geometry":{"coordinates":[7.251218,51.605709],"type":"Point"},"properties":{"osm_id":"5800598550","tag":{"amenity":"waste_basket","waste":"trash"}},"type":"Feature"},
	{"geometry":{"coordinates":[7.216385,51.615391],"type":"Point"},"properties":{"osm_id":"6342500746","tag":{"amenity":"recycling","recycling:clothes":"yes","recycling_type":"container"}},"type":"Feature"},
	{"geometry":{"coordinates":[7.216367,51.615409],"type":"Point"},"properties":{"osm_id":"6342500747","tag":{"amenity":"recycling","recycling:glass_bottles":"yes","recycling_type":"container"}},"type":"Feature"},
	{"geometry":{"coordinates":[7.21635,51.615421],"type":"Point"},"properties":{"osm_id":"6342500748","tag":{"amenity":"recycling","recycling:glass_bottles":"yes","recycling_type":"container"}},"type":"Feature"},
	{"geometry":{"coordinates":[7.212795,51.613357],"type":"Point"},"properties":{"osm_id":"6558336124","tag":{"amenity":"waste_basket"}},"type":"Feature"},
	{"geometry":{"coordinates":[7.213615,51.613693],"type":"Point"},"properties":{"osm_id":"6558336125","tag":{"amenity":"waste_basket"}},"type":"Feature"},
	{"geometry":{"coordinates":[7.21415,51.613936],"type":"Point"},"properties":{"osm_id":"6558336126","tag":{"amenity":"waste_basket"}},"type":"Feature"},
	{"geometry":{"coordinates":[7.21597,51.615352],"type":"Point"},"properties":{"osm_id":"6558336127","tag":{"amenity":"waste_basket"}},"type":"Feature"},
	{"geometry":{"coordinates":[7.217006,51.615807],"type":"Point"},"properties":{"osm_id":"6558336128","tag":{"amenity":"waste_basket"}},"type":"Feature"},
	{"geometry":{"coordinates":[7.217442,51.615771],"type":"Point"},"properties":{"osm_id":"6558336129","tag":{"amenity":"waste_basket"}},"type":"Feature"},
	{"geometry":{"coordinates":[7.219715,51.61669],"type":"Point"},"properties":{"osm_id":"6558336130","tag":{"amenity":"waste_basket"}},"type":"Feature"},
	{"geometry":{"coordinates":[7.274948,51.588857],"type":"Point"},"properties":{"osm_id":"6763947743","tag":{"amenity":"waste_basket"}},"type":"Feature"},
	{"geometry":{"coordinates":[7.285597,51.592676],"type":"Point"},"properties":{"osm_id":"6885682977","tag":{"amenity":"waste_basket"}},"type":"Feature"},
	{"geometry":{"coordinates":[7.274017,51.608882],"type":"Point"},"properties":{"osm_id":"6894854498","tag":{"amenity":"waste_basket"}},"type":"Feature"},
	{"geometry":{"coordinates":[7.278776,51.593261],"type":"Point"},"properties":{"osm_id":"6894854529","tag":{"amenity":"waste_basket"}},"type":"Feature"},
	{"geometry":{"coordinates":[7.224437,51.608954],"type":"Point"},"properties":{"osm_id":"6958181229","tag":{"amenity":"recycling","recycling:clothes":"yes","recycling_type":"container"}},"type":"Feature"},
	{"geometry":{"coordinates":[7.224397,51.608964],"type":"Point"},"properties":{"osm_id":"6958181230","tag":{"amenity":"recycling","recycling:glass":"yes","recycling_type":"container"}},"type":"Feature"},
	{"geometry":{"coordinates":[7.256866,51.589193],"type":"Point"},"properties":{"osm_id":"7040147990","tag":{"amenity":"recycling","operator":"KSR","recycling:clothes":"yes","recycling:shoes":"yes","recycling_type":"container"}},"type":"Feature"},
	{"geometry":{"coordinates":[7.253806,51.584185],"type":"Point"},"properties":{"osm_id":"7178770907","tag":{"amenity":"recycling","opening_hours":"24/7","operator":"KSR","recycling:clothes":"yes","recycling:shoes":"yes","recycling_type":"container"}},"type":"Feature"},
	{"geometry":{"coordinates":[7.248261,51.594071],"type":"Point"},"properties":{"osm_id":"7345320262","tag":{"amenity":"recycling","recycling:clothes":"yes","recycling_type":"container"}},"type":"Feature"},
	{"geometry":{"coordinates":[7.248277,51.594103],"type":"Point"},"properties":{"osm_id":"7345320263","tag":{"amenity":"recycling","recycling:glass_bottles":"yes","recycling_type":"container"}},"type":"Feature"},
	{"geometry":{"coordinates":[7.260813,51.573921],"type":"Point"},"properties":{"osm_id":"7501007608","tag":{"amenity":"waste_basket","colour":"grey","material":"metal"}},"type":"Feature"},
	{"geometry":{"coordinates":[7.256143,51.576805],"type":"Point"},"properties":{"osm_id":"7501007611","tag":{"amenity":"waste_basket","colour":"grey","material":"metal"}},"type":"Feature"},
	{"geometry":{"coordinates":[7.253486,51.578169],"type":"Point"},"properties":{"osm_id":"7501007614","tag":{"amenity":"waste_basket","colour":"grey","material":"metal"}},"type":"Feature"},
	{"geometry":{"coordinates":[7.253065,51.578356],"type":"Point"},"properties":{"osm_id":"7501007617","tag":{"amenity":"waste_basket","colour":"grey","material":"metal"}},"type":"Feature"},
	{"geometry":{"coordinates":[7.230485,51.568576],"type":"Point"},"properties":{"osm_id":"7521649624","tag":{"amenity":"waste_basket","waste":"trash"}},"type":"Feature"},
	{"geometry":{"coordinates":[7.233476,51.611843],"type":"Point"},"properties":{"osm_id":"7545119551","tag":{"amenity":"waste_basket"}},"type":"Feature"},
	{"geometry":{"coordinates":[7.24746,51.612979],"type":"Point"},"properties":{"osm_id":"7545119552","tag":{"amenity":"waste_basket"}},"type":"Feature"},
	{"geometry":{"coordinates":[7.248711,51.613086],"type":"Point"},"properties":{"osm_id":"7545119553","tag":{"amenity":"waste_basket"}},"type":"Feature"},
	{"geometry":{"coordinates":[7.274211,51.608906],"type":"Point"},"properties":{"osm_id":"7545119555","tag":{"amenity":"waste_basket"}},"type":"Feature"},
	{"geometry":{"coordinates":[7.213695,51.572678],"type":"Point"},"properties":{"osm_id":"7550658988","tag":{"amenity":"waste_basket"}},"type":"Feature"},
	{"geometry":{"coordinates":[7.21372,51.572587],"type":"Point"},"properties":{"osm_id":"7550658989","tag":{"amenity":"waste_basket"}},"type":"Feature"},
	{"geometry":{"coordinates":[7.213299,51.572477],"type":"Point"},"properties":{"osm_id":"7550658997","tag":{"amenity":"waste_basket"}},"type":"Feature"},
	{"geometry":{"coordinates":[7.213572,51.572503],"type":"Point"},"properties":{"osm_id":"7550658998","tag":{"amenity":"waste_basket"}},"type":"Feature"},
	{"geometry":{"coordinates":[7.276169,51.614171],"type":"Point"},"properties":{"osm_id":"7578052820","tag":{"amenity":"waste_basket"}},"type":"Feature"},
	{"geometry":{"coordinates":[7.254673,51.603893],"type":"Point"},"properties":{"osm_id":"7588320394","tag":{"amenity":"waste_basket","waste":"trash"}},"type":"Feature"},
	{"geometry":{"coordinates":[7.229559,51.568491],"type":"Point"},"properties":{"osm_id":"7591617143","tag":{"amenity":"waste_basket","waste":"trash"}},"type":"Feature"},
	{"geometry":{"coordinates":[7.276977,51.59513],"type":"Point"},"properties":{"osm_id":"7599620925","tag":{"amenity":"waste_basket","waste":"trash"}},"type":"Feature"},
	{"geometry":{"coordinates":[7.211899,51.61212],"type":"Point"},"properties":{"osm_id":"7612925779","tag":{"amenity":"waste_basket"}},"type":"Feature"},
	{"geometry":{"coordinates":[7.212317,51.612065],"type":"Point"},"properties":{"osm_id":"7612925780","tag":{"amenity":"waste_basket"}},"type":"Feature"},
	{"geometry":{"coordinates":[7.211908,51.612178],"type":"Point"},"properties":{"osm_id":"7612925781","tag":{"amenity":"waste_basket"}},"type":"Feature"},
	{"geometry":{"coordinates":[7.269106,51.593077],"type":"Point"},"properties":{"osm_id":"7617451940","tag":{"amenity":"waste_basket","waste":"trash"}},"type":"Feature"},
	{"geometry":{"coordinates":[7.27201,51.587403],"type":"Point"},"properties":{"osm_id":"7896109105","tag":{"amenity":"waste_basket","waste":"trash"}},"type":"Feature"},
	{"geometry":{"coordinates":[7.25363,51.603872],"type":"Point"},"properties":{"osm_id":"7902449486","tag":{"amenity":"waste_basket","waste":"trash"}},"type":"Feature"},
	{"geometry":{"coordinates":[7.213367,51.572966],"type":"Point"},"properties":{"osm_id":"7947181848","tag":{"amenity":"waste_basket"}},"type":"Feature"},
	{"geometry":{"coordinates":[7.213384,51.572898],"type":"Point"},"properties":{"osm_id":"7947181849","tag":{"amenity":"waste_basket"}},"type":"Feature"},
	{"geometry":{"coordinates":[7.213401,51.572833],"type":"Point"},"properties":{"osm_id":"7947181850","tag":{"amenity":"waste_basket"}},"type":"Feature"},
	{"geometry":{"coordinates":[7.21343,51.572724],"type":"Point"},"properties":{"osm_id":"7947181851","tag":{"amenity":"waste_basket"}},"type":"Feature"}
]
}
