{
"type": "FeatureCollection",
"features": [
	{"geometry":{"coordinates":[7.273494,51.453144],"type":"Point"},"properties":{"osm_id":"30911678","tag":{"amenity":"recycling","recycling:clothes":"yes","recycling:glass_bottles":"yes","recycling:paper":"yes","recycling_type":"container"}},"type":"Feature"},
	{"geometry":{"coordinates":[7.266409,51.409764],"type":"Point"},"properties":{"osm_id":"269341493","tag":{"amenity":"recycling","colour":"silver","location":"overground","material":"metal","operator":"AHE","recycling:cardboard":"yes","recycling:clothes":"yes","recycling:glass_bottles":"yes","recycling:paper":"yes","recycling:shoes":"yes","recycling_type":"container","wheelchair":"yes"}},"type":"Feature"},
	{"geometry":{"coordinates":[7.279202,51.420713],"type":"Point"},"properties":{"osm_id":"308960016","tag":{"amenity":"recycling","colour":"silver","location":"overground","material":"metal","operator":"AHE","recycling:cardboard":"yes","recycling:glass_bottles":"yes","recycling:paper":"yes","recycling_type":"container","wheelchair":"yes"}},"type":"Feature"},
	{"geometry":{"coordinates":[7.247591,51.429597],"type":"Point"},"properties":{"osm_id":"310084402","tag":{"amenity":"recycling","recycling:clothes":"yes","recycling:glass_bottles":"yes","recycling:shoes":"yes","recycling_type":"container"}},"type":"Feature"},
	{"geometry":{"coordinates":[7.239254,51.451426],"type":"Point"},"properties":{"osm_id":"312998872","tag":{"amenity":"recycling","recycling:clothes":"yes","recycling:glass_bottles":"yes","recycling:paper":"yes","recycling_type":"container"}},"type":"Feature"},
	{"geometry":{"coordinates":[7.234176,51.453576],"type":"Point"},"properties":{"osm_id":"312998873","tag":{"amenity":"recycling","recycling:glass_bottles":"yes","recycling:paper":"yes","recycling_type":"container"}},"type":"Feature"},
	{"geometry":{"coordinates":[7.248319,51.428534],"type":"Point"},"properties":{"osm_id":"338271531","tag":{"amenity":"recycling","recycling:glass_bottles":"yes","recycling:paper":"yes","recycling_type":"container"}},"type":"Feature"},
	{"geometry":{"coordinates":[7.240676,51.449602],"type":"Point"},"properties":{"osm_id":"358483465","tag":{"amenity":"recycling","location":"overground","recycling:cardboard":"yes","recycling:clothes":"yes","recycling:glass_bottles":"yes","recycling:paper":"yes","recycling_type":"container"}},"type":"Feature"},
	{"geometry":{"coordinates":[7.233001,51.449216],"type":"Point"},"properties":{"osm_id":"428746749","tag":{"amenity":"recycling","recycling:glass_bottles":"yes","recycling_type":"container"}},"type":"Feature"},
	{"geometry":{"coordinates":[7.269202,51.415593],"type":"Point"},"properties":{"osm_id":"487068900","tag":{"amenity":"recycling","location":"overground","material":"metal","operator":"AHE;Deutsches Rotes Kreuz","recycling:cardboard":"yes","recycling:clothes":"yes","recycling:glass_bottles":"yes","recycling:paper":"yes","recycling:shoes":"yes","recycling_type":"container","wheelchair":"yes"}},"type":"Feature"},
	{"geometry":{"coordinates":[7.22028,51.40634],"type":"Point"},"properties":{"osm_id":"587675985","tag":{"amenity":"recycling","recycling:glass_bottles":"yes","recycling:paper":"yes","recycling_type":"container"}},"type":"Feature"},
	{"geometry":{"coordinates":[7.256168,51.400653],"type":"Point"},"properties":{"osm_id":"598663320","tag":{"amenity":"recycling","location":"overground","operator":"AHE","recycling:cardboard":"yes","recycling:glass_bottles":"yes","recycling:paper":"yes","recycling_type":"container","wheelchair":"yes"}},"type":"Feature"},
	{"geometry":{"coordinates":[7.279203,51.423183],"type":"Point"},"properties":{"osm_id":"620571733","tag":{"amenity":"recycling","location":"overground","material":"metal","operator":"AHE;Deutsches Rotes Kreuz","recycling:cardboard":"yes","recycling:clothes":"yes","recycling:glass_bottles":"yes","recycling:paper":"yes","recycling:shoes":"yes","recycling_type":"container","wheelchair":"yes"}},"type":"Feature"},
	{"geometry":{"coordinates":[7.28382,51.422987],"type":"Point"},"properties":{"osm_id":"620572742","tag":{"amenity":"recycling","location":"overground","material":"metal","operator":"AHE","recycling:cardboard":"yes","recycling:clothes":"yes","recycling:glass_bottles":"yes","recycling:paper":"yes","recycling:shoes":"yes","recycling_type":"container","wheelchair":"yes"}},"type":"Feature"},
	{"geometry":{"coordinates":[7.279439,51.415849],"type":"Point"},"properties":{"osm_id":"656932990","tag":{"amenity":"recycling","location":"overground","operator":"AHE","recycling:cardboard":"yes","recycling:clothes":"yes","recycling:glass_bottles":"yes","recycling:paper":"yes","recycling:shoes":"yes","recycling_type":"container","wheelchair":"yes"}},"type":"Feature"},
	{"geometry":{"coordinates":[7.289627,51.415856],"type":"Point"},"properties":{"osm_id":"656932994","tag":{"amenity":"recycling","location":"overground","material":"metal","operator":"AHE;Deutsches Rotes Kreuz","recycling:cardboard":"yes","recycling:clothes":"yes","recycling:glass_bottles":"yes","recycling:paper":"yes","recycling:shoes":"yes","recycling_type":"container","wheelchair":"yes"}},"type":"Feature"},
	{"geometry":{"coordinates":[7.253206,51.450231],"type":"Point"},"properties":{"osm_id":"660778814","tag":{"amenity":"recycling","recycling:clothes":"yes","recycling:glass_bottles":"yes","recycling_type":"container"}},"type":"Feature"},
	{"geometry":{"coordinates":[7.255655,51.448654],"type":"Point"},"properties":{"osm_id":"663307385","tag":{"amenity":"recycling","opening_hours":"Mo-Sa 07:00-20:00; PH off","recycling:glass_bottles":"yes","recycling_type":"container"}},"type":"Feature"},
	{"geometry":{"coordinates":[7.256927,51.452782],"type":"Point"},"properties":{"osm_id":"663773104","tag":{"amenity":"waste_basket"}},"type":"Feature"},
	{"geometry":{"coordinates":[7.292336,51.419079],"type":"Point"},"properties":{"osm_id":"725591350","tag":{"amenity":"recycling","location":"overground","operator":"AHE","recycling:cardboard":"yes","recycling:glass_bottles":"yes","recycling:paper":"yes","recycling_type":"container","wheelchair":"yes"}},"type":"Feature"},
	{"geometry":{"coordinates":[7.247829,51.443134],"type":"Point"},"properties":{"osm_id":"750801397","tag":{"amenity":"waste_basket"}},"type":"Feature"},
	{"geometry":{"coordinates":[7.252013,51.443331],"type":"Point"},"properties":{"osm_id":"750801405","tag":{"amenity":"waste_basket"}},"type":"Feature"},
	{"geometry":{"coordinates":[7.246819,51.45109],"type":"Point"},"properties":{"osm_id":"753074232","tag":{"amenity":"waste_basket"}},"type":"Feature"},
	{"geometry":{"coordinates":[7.249955,51.453513],"type":"Point"},"properties":{"osm_id":"826377654","tag":{"amenity":"waste_basket"}},"type":"Feature"},
	{"geometry":{"coordinates":[7.25013,51.453245],"type":"Point"},"properties":{"osm_id":"826377707","tag":{"amenity":"waste_basket"}},"type":"Feature"},
	{"geometry":{"coordinates":[7.249929,51.453566],"type":"Point"},"properties":{"osm_id":"826377720","tag":{"amenity":"waste_basket"}},"type":"Feature"},
	{"geometry":{"coordinates":[7.215426,51.405872],"type":"Point"},"properties":{"osm_id":"848697516","tag":{"amenity":"recycling","location":"overground","recycling:glass_bottles":"yes","recycling:paper":"yes","recycling_type":"container"}},"type":"Feature"},
	{"geometry":{"coordinates":[7.259679,51.449369],"type":"Point"},"properties":{"osm_id":"860620003","tag":{"amenity":"recycling","recycling:clothes":"yes","recycling:glass_bottles":"yes","recycling_type":"container"}},"type":"Feature"},
	{"geometry":{"coordinates":[7.257798,51.44981],"type":"Point"},"properties":{"osm_id":"860620015","tag":{"amenity":"waste_basket"}},"type":"Feature"},
	{"geometry":{"coordinates":[7.275192,51.405358],"type":"Point"},"properties":{"osm_id":"915446690","tag":{"amenity":"recycling","location":"overground","operator":"AHE;Deutsches Rotes Kreuz","recycling:cardboard":"yes","recycling:clothes":"yes","recycling:glass_bottles":"yes","recycling:paper":"yes","recycling:shoes":"yes","recycling_type":"container","wheelchair":"yes"}},"type":"Feature"},
	{"geometry":{"coordinates":[7.218434,51.440937],"type":"Point"},"properties":{"osm_id":"933620454","tag":{"amenity":"recycling","recycling:glass_bottles":"yes","recycling_type":"container"}},"type":"Feature"},
	{"geometry":{"coordinates":[7.209335,51.440773],"type":"Point"},"properties":{"osm_id":"935500613","tag":{"amenity":"recycling","recycling:clothes":"yes","recycling:glass_bottles":"yes","recycling:shoes":"yes","recycling_type":"container"}},"type":"Feature"},
	{"geometry":{"coordinates":[7.294867,51.437387],"type":"Point"},"properties":{"osm_id":"940255542","tag":{"amenity":"recycling","colour":"silver","location":"overground","material":"metal","operator":"AHE","recycling:cardboard":"yes","recycling:glass_bottles":"yes","recycling:paper":"yes","recycling_type":"container","wheelchair":"yes"}},"type":"Feature"},
	{"geometry":{"coordinates":[7.292018,51.429326],"type":"Point"},"properties":{"osm_id":"942918647","tag":{"amenity":"recycling","location":"overground","material":"metal","operator":"AHE;Deutsches Rotes Kreuz;Ruhrtalengel","recycling:cardboard":"yes","recycling:clothes":"yes","recycling:glass_bottles":"yes","recycling:paper":"yes","recycling:shoes":"yes","recycling_type":"container","wheelchair":"yes"}},"type":"Feature"},
	{"geometry":{"coordinates":[7.222212,51.444983],"type":"Point"},"properties":{"osm_id":"951466168","tag":{"amenity":"recycling","recycling:clothes":"yes","recycling:glass_bottles":"yes","recycling_type":"container"}},"type":"Feature"},
	{"geometry":{"coordinates":[7.215075,51.449998],"type":"Point"},"properties":{"osm_id":"997927508","tag":{"amenity":"recycling","recycling:clothes":"yes","recycling:glass_bottles":"yes","recycling_type":"container"}},"type":"Feature"},
	{"geometry":{"coordinates":[7.221252,51.451151],"type":"Point"},"properties":{"osm_id":"997927592","tag":{"amenity":"recycling","location":"overground","recycling:clothes":"yes","recycling:glass_bottles":"yes","recycling_type":"container"}},"type":"Feature"},
	{"geometry":{"coordinates":[7.211599,51.439605],"type":"Point"},"properties":{"osm_id":"1005803125","tag":{"amenity":"recycling","recycling:clothes":"yes","recycling:glass_bottles":"yes","recycling_type":"container"}},"type":"Feature"},
	{"geometry":{"coordinates":[7.245634,51.418313],"type":"Point"},"properties":{"osm_id":"1011279501","tag":{"amenity":"recycling","recycling:clothes":"yes","recycling:glass_bottles":"yes","recycling_type":"container"}},"type":"Feature"},
	{"geometry":{"coordinates":[7.238675,51.451289],"type":"Point"},"properties":{"osm_id":"1232385040","tag":{"amenity":"waste_basket"}},"type":"Feature"},
	{"geometry":{"coordinates":[7.286982,51.417277],"type":"Point"},"properties":{"osm_id":"1324701276","tag":{"amenity":"recycling","location":"overground","operator":"AHE","recycling:cardboard":"yes","recycling:clothes":"yes","recycling:glass_bottles":"yes","recycling:paper":"yes","recycling:shoes":"yes","recycling_type":"container","wheelchair":"yes"}},"type":"Feature"},
	{"geometry":{"coordinates":[7.282119,51.436366],"type":"Point"},"properties":{"osm_id":"1351665224","tag":{"amenity":"waste_basket"}},"type":"Feature"},
	{"geometry":{"coordinates":[7.282747,51.437993],"type":"Point"},"properties":{"osm_id":"1351665234","tag":{"amenity":"waste_basket"}},"type":"Feature"},
	{"geometry":{"coordinates":[7.284635,51.438937],"type":"Point"},"properties":{"osm_id":"1351665249","tag":{"amenity":"waste_basket"}},"type":"Feature"},
	{"geometry":{"coordinates":[7.289573,51.441273],"type":"Point"},"properties":{"osm_id":"1351665272","tag":{"amenity":"waste_basket"}},"type":"Feature"},
	{"geometry":{"coordinates":[7.290741,51.442929],"type":"Point"},"properties":{"osm_id":"1351665275","tag":{"amenity":"waste_basket"}},"type":"Feature"},
	{"geometry":{"coordinates":[7.287623,51.447406],"type":"Point"},"properties":{"osm_id":"1351665277","tag":{"amenity":"waste_basket"}},"type":"Feature"},
	{"geometry":{"coordinates":[7.27042,51.424015],"type":"Point"},"properties":{"osm_id":"1351687849","tag":{"amenity":"waste_basket"}},"type":"Feature"},
	{"geometry":{"coordinates":[7.216056,51.439033],"type":"Point"},"properties":{"osm_id":"1661060608","tag":{"amenity":"recycling","recycling:clothes":"yes","recycling:glass_bottles":"yes","recycling_type":"container"}},"type":"Feature"},
	{"geometry":{"coordinates":[7.246167,51.4436],"type":"Point"},"properties":{"osm_id":"1664646678","tag":{"amenity":"waste_basket"}},"type":"Feature"},
	{"geometry":{"coordinates":[7.244822,51.445318],"type":"Point"},"properties":{"osm_id":"1664646716","tag":{"amenity":"recycling","recycling:clothes":"yes","recycling:glass_bottles":"yes","recycling:paper":"yes","recycling_type":"container"}},"type":"Feature"},
	{"geometry":{"coordinates":[7.256459,51.421412],"type":"Point"},"properties":{"osm_id":"1685046659","tag":{"amenity":"waste_basket","waste":"trash"}},"type":"Feature"},
	{"geometry":{"coordinates":[7.259388,51.422464],"type":"Point"},"properties":{"osm_id":"1685046662","tag":{"amenity":"waste_basket"}},"type":"Feature"},
	{"geometry":{"coordinates":[7.261944,51.424277],"type":"Point"},"properties":{"osm_id":"1685046663","tag":{"amenity":"waste_basket","waste":"trash"}},"type":"Feature"},
	{"geometry":{"coordinates":[7.265278,51.42664],"type":"Point"},"properties":{"osm_id":"1685046666","tag":{"amenity":"waste_basket"}},"type":"Feature"},
	{"geometry":{"coordinates":[7.229713,51.433137],"type":"Point"},"properties":{"osm_id":"1685046671","tag":{"amenity":"recycling","opening_hours":"Mo-Sa 08:00-18:00","operator":"USB","recycling:clothes":"yes","recycling:glass_bottles":"yes","recycling:paper":"yes","recycling_type":"container"}},"type":"Feature"},
	{"geometry":{"coordinates":[7.27519,51.433865],"type":"Point"},"properties":{"osm_id":"1685046673","tag":{"amenity":"waste_basket"}},"type":"Feature"},
	{"geometry":{"coordinates":[7.276003,51.435921],"type":"Point"},"properties":{"osm_id":"1685046676","tag":{"amenity":"waste_basket"}},"type":"Feature"},
	{"geometry":{"coordinates":[7.277511,51.436798],"type":"Point"},"properties":{"osm_id":"1685046681","tag":{"amenity":"waste_basket","waste":"trash"}},"type":"Feature"},
	{"geometry":{"coordinates":[7.272087,51.438966],"type":"Point"},"properties":{"osm_id":"1685046682","tag":{"amenity":"waste_basket"}},"type":"Feature"},
	{"geometry":{"coordinates":[7.27477,51.439404],"type":"Point"},"properties":{"osm_id":"1685046684","tag":{"amenity":"waste_basket"}},"type":"Feature"},
	{"geometry":{"coordinates":[7.25226,51.400588],"type":"Point"},"properties":{"osm_id":"1703215494","tag":{"amenity":"recycling","location":"overground","operator":"AHE","recycling:cardboard":"yes","recycling:glass_bottles":"yes","recycling:paper":"yes","recycling_type":"container","wheelchair":"yes"}},"type":"Feature"},
	{"geometry":{"coordinates":[7.229494,51.406263],"type":"Point"},"properties":{"osm_id":"1712507827","tag":{"amenity":"recycling","recycling:glass_bottles":"yes","recycling_type":"container"}},"type":"Feature"},
	{"geometry":{"coordinates":[7.230236,51.448018],"type":"Point"},"properties":{"osm_id":"1799109446","tag":{"amenity":"recycling","recycling:clothes":"yes","recycling_type":"container"}},"type":"Feature"},
	{"geometry":{"coordinates":[7.223647,51.405601],"type":"Point"},"properties":{"osm_id":"1907039020","tag":{"amenity":"recycling","recycling:clothes":"yes","recycling:glass_bottles":"yes","recycling:paper":"yes","recycling_type":"container"}},"type":"Feature"},
	{"geometry":{"coordinates":[7.227417,51.406223],"type":"Point"},"properties":{"osm_id":"1907043103","tag":{"amenity":"waste_basket"}},"type":"Feature"},
	{"geometry":{"coordinates":[7.274182,51.418782],"type":"Point"},"properties":{"osm_id":"1907516544","tag":{"amenity":"recycling","location":"overground","material":"metal","operator":"AHE;Deutsches Rotes Kreuz;Ruhrtalengel","recycling:cardboard":"yes","recycling:clothes":"yes","recycling:glass_bottles":"yes","recycling:paper":"yes","recycling:shoes":"yes","recycling_type":"container","wheelchair":"yes"}},"type":"Feature"},
	{"geometry":{"coordinates":[7.286108,51.41962],"type":"Point"},"properties":{"osm_id":"2291721445","tag":{"amenity":"recycling","location":"overground","operator":"AHE","recycling:cardboard":"yes","recycling:clothes":"yes","recycling:glass_bottles":"yes","recycling:paper":"yes","recycling:shoes":"yes","recycling_type":"container","wheelchair":"yes"}},"type":"Feature"},
	{"geometry":{"coordinates":[7.272068,51.44718],"type":"Point"},"properties":{"osm_id":"2294894571","tag":{"access":"private","amenity":"recycling","operator":"Hochschule Bochum","recycling:paper":"yes","recycling_type":"container"}},"type":"Feature"},
	{"geometry":{"coordinates":[7.277984,51.443922],"type":"Point"},"properties":{"osm_id":"2294900680","tag":{"amenity":"waste_basket"}},"type":"Feature"},
	{"geometry":{"coordinates":[7.226933,51.407497],"type":"Point"},"properties":{"osm_id":"2431187395","tag":{"amenity":"waste_basket","historic":"memorial"}},"type":"Feature"},
	{"geometry":{"coordinates":[7.226662,51.407562],"type":"Point"},"properties":{"osm_id":"2431187396","tag":{"amenity":"waste_basket","tourism":"artwork"}},"type":"Feature"},
	{"geometry":{"coordinates":[7.227231,51.407811],"type":"Point"},"properties":{"osm_id":"2431187399","tag":{"amenity":"waste_basket"}},"type":"Feature"},
	{"geometry":{"coordinates":[7.274991,51.407055],"type":"Point"},"properties":{"osm_id":"2481549796","tag":{"amenity":"waste_basket"}},"type":"Feature"},
	{"geometry":{"coordinates":[7.280182,51.423535],"type":"Point"},"properties":{"osm_id":"2668209345","tag":{"amenity":"waste_basket","colour":"gray","material":"metal"}},"type":"Feature"},
	{"geometry":{"coordinates":[7.289669,51.416896],"type":"Point"},"properties":{"osm_id":"3003629583","tag":{"amenity":"waste_basket"}},"type":"Feature"},
	{"geometry":{"coordinates":[7.294148,51.417724],"type":"Point"},"properties":{"osm_id":"3003629595","tag":{"amenity":"waste_basket"}},"type":"Feature"},
	{"geometry":{"coordinates":[7.291983,51.417835],"type":"Point"},"properties":{"osm_id":"3003629597","tag":{"amenity":"waste_basket"}},"type":"Feature"},
	{"geometry":{"coordinates":[7.292776,51.419184],"type":"Point"},"properties":{"osm_id":"3004868887","tag":{"amenity":"waste_basket","operator":"Stadt Witten","operator:type":"public","operator:wikidata":"Q3764","waste":"trash"}},"type":"Feature"},
	{"geometry":{"coordinates":[7.292051,51.419586],"type":"Point"},"properties":{"osm_id":"3004868894","tag":{"amenity":"waste_basket","colour":"silver","operator":"Stadt Witten","operator:type":"public","operator:wikidata":"Q3764"}},"type":"Feature"},
	{"geometry":{"coordinates":[7.286716,51.417061],"type":"Point"},"properties":{"osm_id":"3044622362","tag":{"amenity":"waste_basket"}},"type":"Feature"},
	{"geometry":{"coordinates":[7.287777,51.41776],"type":"Point"},"properties":{"osm_id":"3044622389","tag":{"amenity":"waste_basket"}},"type":"Feature"},
	{"geometry":{"coordinates":[7.284088,51.417492],"type":"Point"},"properties":{"osm_id":"3063812082","tag":{"amenity":"waste_basket"}},"type":"Feature"},
	{"geometry":{"coordinates":[7.290832,51.418272],"type":"Point"},"properties":{"osm_id":"3063947815","tag":{"amenity":"waste_basket"}},"type":"Feature"},
	{"geometry":{"coordinates":[7.289917,51.418838],"type":"Point"},"properties":{"osm_id":"3063948242","tag":{"amenity":"waste_basket"}},"type":"Feature"},
	{"geometry":{"coordinates":[7.279176,51.415953],"type":"Point"},"properties":{"osm_id":"3076968602","tag":{"amenity":"waste_basket","operator":"Stadt Witten","operator:type":"public","operator:wikidata":"Q3764"}},"type":"Feature"},
	{"geometry":{"coordinates":[7.277112,51.416594],"type":"Point"},"properties":{"osm_id":"3076968740","tag":{"amenity":"waste_basket"}},"type":"Feature"},
	{"geometry":{"coordinates":[7.280111,51.423346],"type":"Point"},"properties":{"osm_id":"3087691697","tag":{"amenity":"waste_basket","colour":"silver","material":"metal","operator":"Stadt Witten","operator:type":"public","operator:wikidata":"Q3764"}},"type":"Feature"},
	{"geometry":{"coordinates":[7.280308,51.42342],"type":"Point"},"properties":{"osm_id":"3087691703","tag":{"amenity":"waste_basket","colour":"silver","material":"metal","operator":"Stadt Witten","operator:type":"public","operator:wikidata":"Q3764"}},"type":"Feature"},
	{"geometry":{"coordinates":[7.279929,51.423506],"type":"Point"},"properties":{"osm_id":"3087691709","tag":{"amenity":"waste_basket","colour":"silver","material":"metal","operator":"Stadt Witten","operator:type":"public","operator:wikidata":"Q3764"}},"type":"Feature"},
	{"geometry":{"coordinates":[7.279809,51.423542],"type":"Point"},"properties":{"osm_id":"3087691711","tag":{"amenity":"waste_basket","colour":"silver","material":"metal","operator":"Stadt Witten","operator:type":"public","operator:wikidata":"Q3764"}},"type":"Feature"},
	{"geometry":{"coordinates":[7.278332,51.424528],"type":"Point"},"properties":{"osm_id":"3087691886","tag":{"amenity":"recycling","location":"overground","operator":"AHE;Deutsches Rotes Kreuz","recycling:cardboard":"yes","recycling:clothes":"yes","recycling:glass_bottles":"yes","recycling:paper":"yes","recycling:shoes":"yes","recycling_type":"container","wheelchair":"yes"}},"type":"Feature"},
	{"geometry":{"coordinates":[7.288703,51.421488],"type":"Point"},"properties":{"osm_id":"3088289745","tag":{"amenity":"waste_basket"}},"type":"Feature"},
	{"geometry":{"coordinates":[7.281347,51.422369],"type":"Point"},"properties":{"osm_id":"3088292726","tag":{"amenity":"waste_basket","colour":"silver","image":"https://web.archive.org/web/20161226193510if_/https://d1cuyjsrcm0gby.cloudfront.net/WmM1zofp6aEmgMrdvKdsrQ/thumb-2048.jpg","mapillary":"WmM1zofp6aEmgMrdvKdsrQ","material":"metal","operator":"Stadt Witten","operator:type":"public","operator:wikidata":"Q3764","support":"pole"}},"type":"Feature"},
	{"geometry":{"coordinates":[7.280053,51.423018],"type":"Point"},"properties":{"osm_id":"3088292884","tag":{"amenity":"waste_basket"}},"type":"Feature"},
	{"geometry":{"coordinates":[7.279685,51.42309],"type":"Point"},"properties":{"osm_id":"3088292887","tag":{"amenity":"waste_basket","colour":"green","image":"https://web.archive.org/web/20161226191803if_/https://d1cuyjsrcm0gby.cloudfront.net/-GE4NhGY6ZUTbIxoEvysTg/thumb-2048.jpg","mapillary":"-GE4NhGY6ZUTbIxoEvysTg","material":"metal","operator":"Stadt Witten","operator:type":"public","operator:wikidata":"Q3764","support":"pole"}},"type":"Feature"},
	{"geometry":{"coordinates":[7.279882,51.423266],"type":"Point"},"properties":{"osm_id":"3088292894","tag":{"amenity":"waste_basket","colour":"black","image":"https://web.archive.org/web/20161226191645if_/https://d1cuyjsrcm0gby.cloudfront.net/f62H7xO9mtlLgdTyV4Mjfg/thumb-2048.jpg","mapillary":"f62H7xO9mtlLgdTyV4Mjfg","material":"metal","operator":"Stadt Witten","operator:type":"public","operator:wikidata":"Q3764","support":"pole"}},"type":"Feature"},
	{"geometry":{"coordinates":[7.282216,51.423312],"type":"Point"},"properties":{"osm_id":"3105456133","tag":{"amenity":"waste_basket"}},"type":"Feature"},
	{"geometry":{"coordinates":[7.282534,51.423569],"type":"Point"},"properties":{"osm_id":"3105456152","tag":{"amenity":"waste_basket","colour":"silver","material":"metal","operator":"Stadt Witten","operator:type":"public","operator:wikidata":"Q3764","support":"pole"}},"type":"Feature"},
	{"geometry":{"coordinates":[7.28106,51.421437],"type":"Point"},"properties":{"osm_id":"3107113434","tag":{"amenity":"waste_basket","operator":"Stadt Witten","operator:type":"public","operator:wikidata":"Q3764"}},"type":"Feature"},
	{"geometry":{"coordinates":[7.280837,51.421443],"type":"Point"},"properties":{"osm_id":"3107113435","tag":{"amenity":"waste_basket","operator":"Stadt Witten","operator:type":"public","operator:wikidata":"Q3764"}},"type":"Feature"},
	{"geometry":{"coordinates":[7.281184,51.421565],"type":"Point"},"properties":{"osm_id":"3107113439","tag":{"amenity":"waste_basket"}},"type":"Feature"},
	{"geometry":{"coordinates":[7.281188,51.421747],"type":"Point"},"properties":{"osm_id":"3107113442","tag":{"amenity":"waste_basket"}},"type":"Feature"},
	{"geometry":{"coordinates":[7.281309,51.422044],"type":"Point"},"properties":{"osm_id":"3107113452","tag":{"amenity":"waste_basket","colour":"silver","image":"https://web.archive.org/web/20161226192924if_/https://d1cuyjsrcm0gby.cloudfront.net/BVPK_hqpjHZfOvQjj1xgVQ/thumb-2048.jpg","mapillary":"BVPK_hqpjHZfOvQjj1xgVQ","material":"metal","operator":"Stadt Witten","operator:type":"public","operator:wikidata":"Q3764","support":"pole"}},"type":"Feature"},
	{"geometry":{"coordinates":[7.281338,51.422519],"type":"Point"},"properties":{"osm_id":"3107113455","tag":{"amenity":"waste_basket"}},"type":"Feature"},
	{"geometry":{"coordinates":[7.281311,51.422634],"type":"Point"},"properties":{"osm_id":"3107113458","tag":{"amenity":"waste_basket","colour":"silver","material":"metal","operator":"Stadt Witten","operator:type":"public","operator:wikidata":"Q3764","support":"pole"}},"type":"Feature"},
	{"geometry":{"coordinates":[7.281703,51.422785],"type":"Point"},"properties":{"osm_id":"3107113470","tag":{"amenity":"waste_basket","colour":"silver","image":"https://web.archive.org/web/20161226194239if_/https://d1cuyjsrcm0gby.cloudfront.net/b4fDK_G9S_6v2rCcgXHcFQ/thumb-2048.jpg","material":"metal","operator":"Stadt Witten","operator:type":"public","operator:wikidata":"Q3764","support":"pole"}},"type":"Feature"},
	{"geometry":{"coordinates":[7.282151,51.42308],"type":"Point"},"properties":{"osm_id":"3107113477","tag":{"amenity":"waste_basket","colour":"silver","material":"metal","operator":"Stadt Witten","operator:type":"public","operator:wikidata":"Q3764","support":"pole"}},"type":"Feature"},
	{"geometry":{"coordinates":[7.279676,51.420916],"type":"Point"},"properties":{"osm_id":"3107301859","tag":{"amenity":"waste_basket"}},"type":"Feature"},
	{"geometry":{"coordinates":[7.279457,51.420951],"type":"Point"},"properties":{"osm_id":"3107301863","tag":{"amenity":"waste_basket"}},"type":"Feature"},
	{"geometry":{"coordinates":[7.280222,51.421086],"type":"Point"},"properties":{"osm_id":"3107301875","tag":{"amenity":"waste_basket"}},"type":"Feature"},
	{"geometry":{"coordinates":[7.280629,51.421236],"type":"Point"},"properties":{"osm_id":"3107301887","tag":{"amenity":"waste_basket"}},"type":"Feature"},
	{"geometry":{"coordinates":[7.276484,51.417535],"type":"Point"},"properties":{"osm_id":"3108287678","tag":{"amenity":"waste_basket"}},"type":"Feature"},
	{"geometry":{"coordinates":[7.253908,51.412724],"type":"Point"},"properties":{"osm_id":"3110243245","tag":{"amenity":"waste_basket"}},"type":"Feature"},
	{"geometry":{"coordinates":[7.281628,51.425225],"type":"Point"},"properties":{"osm_id":"3137196500","tag":{"amenity":"waste_basket","colour":"silver","material":"metal","operator":"Stadt Witten","operator:type":"public","operator:wikidata":"Q3764"}},"type":"Feature"},
	{"geometry":{"coordinates":[7.284031,51.425608],"type":"Point"},"properties":{"osm_id":"3137196512","tag":{"amenity":"waste_basket"}},"type":"Feature"},
	{"geometry":{"coordinates":[7.270358,51.420519],"type":"Point"},"properties":{"osm_id":"3137223564","tag":{"amenity":"waste_basket"}},"type":"Feature"},
	{"geometry":{"coordinates":[7.269624,51.420952],"type":"Point"},"properties":{"osm_id":"3137223566","tag":{"amenity":"waste_basket"}},"type":"Feature"},
	{"geometry":{"coordinates":[7.27035,51.42182],"type":"Point"},"properties":{"osm_id":"3137223584","tag":{"amenity":"waste_basket"}},"type":"Feature"},
	{"geometry":{"coordinates":[7.270175,51.417816],"type":"Point"},"properties":{"osm_id":"3137293287","tag":{"amenity":"recycling","location":"overground","operator:type":"private","recycling:clothes":"yes","recycling:shoes":"yes","recycling_type":"container","wheelchair":"yes"}},"type":"Feature"},
	{"geometry":{"coordinates":[7.27061,51.418146],"type":"Point"},"properties":{"osm_id":"3137293288","tag":{"amenity":"recycling","location":"overground","operator":"AHE","recycling:cardboard":"yes","recycling:glass_bottles":"yes","recycling:paper":"yes","recycling_type":"container","wheelchair":"yes"}},"type":"Feature"},
	{"geometry":{"coordinates":[7.269183,51.418437],"type":"Point"},"properties":{"osm_id":"3137293290","tag":{"amenity":"waste_basket","waste":"trash"}},"type":"Feature"},
	{"geometry":{"coordinates":[7.272024,51.418433],"type":"Point"},"properties":{"osm_id":"3137467214","tag":{"amenity":"waste_basket"}},"type":"Feature"},
	{"geometry":{"coordinates":[7.276143,51.421688],"type":"Point"},"properties":{"osm_id":"3137472148","tag":{"amenity":"waste_basket"}},"type":"Feature"},
	{"geometry":{"coordinates":[7.276283,51.421774],"type":"Point"},"properties":{"osm_id":"3137472150","tag":{"amenity":"waste_basket"}},"type":"Feature"},
	{"geometry":{"coordinates":[7.277421,51.420105],"type":"Point"},"properties":{"osm_id":"3137541856","tag":{"amenity":"waste_basket"}},"type":"Feature"},
	{"geometry":{"coordinates":[7.291918,51.418891],"type":"Point"},"properties":{"osm_id":"3160377224","tag":{"amenity":"waste_basket"}},"type":"Feature"},
	{"geometry":{"coordinates":[7.292042,51.419033],"type":"Point"},"properties":{"osm_id":"3322026768","tag":{"amenity":"waste_basket"}},"type":"Feature"},
	{"geometry":{"coordinates":[7.282276,51.417537],"type":"Point"},"properties":{"osm_id":"3375698887","tag":{"amenity":"waste_basket"}},"type":"Feature"},
	{"geometry":{"coordinates":[7.294784,51.416006],"type":"Point"},"properties":{"osm_id":"3397622850","tag":{"amenity":"waste_basket"}},"type":"Feature"},
	{"geometry":{"coordinates":[7.294713,51.416071],"type":"Point"},"properties":{"osm_id":"3397622853","tag":{"amenity":"waste_basket"}},"type":"Feature"},
	{"geometry":{"coordinates":[7.294514,51.416118],"type":"Point"},"properties":{"osm_id":"3397622854","tag":{"amenity":"waste_basket"}},"type":"Feature"},
	{"geometry":{"coordinates":[7.290107,51.417906],"type":"Point"},"properties":{"osm_id":"3397622862","tag":{"amenity":"waste_basket"}},"type":"Feature"},
	{"geometry":{"coordinates":[7.283485,51.419974],"type":"Point"},"properties":{"osm_id":"3449520994","tag":{"amenity":"waste_basket"}},"type":"Feature"},
	{"geometry":{"coordinates":[7.281286,51.423217],"type":"Point"},"properties":{"osm_id":"3449521014","tag":{"amenity":"waste_basket","colour":"silver","material":"metal","operator":"Stadt Witten","operator:type":"public","operator:wikidata":"Q3764"}},"type":"Feature"},
	{"geometry":{"coordinates":[7.281151,51.423011],"type":"Point"},"properties":{"osm_id":"3450699266","tag":{"amenity":"waste_basket","operator":"Stadt Witten","operator:type":"public","operator:wikidata":"Q3764"}},"type":"Feature"},
	{"geometry":{"coordinates":[7.281092,51.423211],"type":"Point"},"properties":{"osm_id":"3450699276","tag":{"amenity":"waste_basket","operator":"Stadt Witten","operator:type":"public","operator:wikidata":"Q3764"}},"type":"Feature"},
	{"geometry":{"coordinates":[7.293286,51.426212],"type":"Point"},"properties":{"osm_id":"3454389038","tag":{"amenity":"recycling","colour":"silver","location":"overground","material":"metal","operator":"AHE","recycling:cardboard":"yes","recycling:glass_bottles":"yes","recycling:paper":"yes","recycling_type":"container","wheelchair":"yes"}},"type":"Feature"},
	{"geometry":{"coordinates":[7.290875,51.419002],"type":"Point"},"properties":{"osm_id":"3520844715","tag":{"amenity":"waste_basket"}},"type":"Feature"},
	{"geometry":{"coordinates":[7.291121,51.419135],"type":"Point"},"properties":{"osm_id":"3520844723","tag":{"amenity":"waste_basket"}},"type":"Feature"},
	{"geometry":{"coordinates":[7.290657,51.419164],"type":"Point"},"properties":{"osm_id":"3520844730","tag":{"amenity":"waste_basket"}},"type":"Feature"},
	{"geometry":{"coordinates":[7.279243,51.423284],"type":"Point"},"properties":{"osm_id":"3520844836","tag":{"amenity":"waste_basket"}},"type":"Feature"},
	{"geometry":{"coordinates":[7.213559,51.410241],"type":"Point"},"properties":{"osm_id":"3544704493","tag":{"amenity":"recycling","recycling:paper":"yes","recycling_type":"container"}},"type":"Feature"},
	{"geometry":{"coordinates":[7.215955,51.409586],"type":"Point"},"properties":{"osm_id":"3544737827","tag":{"amenity":"recycling","recycling:paper":"yes","recycling_type":"container"}},"type":"Feature"},
	{"geometry":{"coordinates":[7.215883,51.409659],"type":"Point"},"properties":{"osm_id":"3544737828","tag":{"amenity":"recycling","recycling:paper":"yes","recycling_type":"container"}},"type":"Feature"},
	{"geometry":{"coordinates":[7.27825,51.423579],"type":"Point"},"properties":{"osm_id":"3644775939","tag":{"amenity":"waste_basket","colour":"brown","material":"wood"}},"type":"Feature"},
	{"geometry":{"coordinates":[7.289817,51.418029],"type":"Point"},"properties":{"osm_id":"3739323465","tag":{"amenity":"waste_basket"}},"type":"Feature"},
	{"geometry":{"coordinates":[7.291135,51.425486],"type":"Point"},"properties":{"osm_id":"3749416802","tag":{"amenity":"waste_basket","material":"metal","operator":"Stadt Witten","operator:type":"public","operator:wikidata":"Q3764"}},"type":"Feature"},
	{"geometry":{"coordinates":[7.291777,51.429613],"type":"Point"},"properties":{"osm_id":"3789088420","tag":{"amenity":"waste_basket"}},"type":"Feature"},
	{"geometry":{"coordinates":[7.281328,51.42301],"type":"Point"},"properties":{"osm_id":"4040294782","tag":{"amenity":"waste_basket","operator":"Stadt Witten","operator:type":"public","operator:wikidata":"Q3764"}},"type":"Feature"},
	{"geometry":{"coordinates":[7.254744,51.419468],"type":"Point"},"properties":{"osm_id":"4041765494","tag":{"amenity":"waste_basket","waste":"trash"}},"type":"Feature"},
	{"geometry":{"coordinates":[7.282149,51.42358],"type":"Point"},"properties":{"osm_id":"4107846286","tag":{"amenity":"waste_basket"}},"type":"Feature"},
	{"geometry":{"coordinates":[7.282097,51.423644],"type":"Point"},"properties":{"osm_id":"4107846495","tag":{"amenity":"waste_basket","colour":"silver","image":"https://web.archive.org/web/20161226194852if_/https://d1cuyjsrcm0gby.cloudfront.net/HNVIeNq6UGtfwIDhReuv3g/thumb-2048.jpg","mapillary":"HNVIeNq6UGtfwIDhReuv3g","material":"metal","operator":"Stadt Witten","operator:type":"public","operator:wikidata":"Q3764","support":"pole"}},"type":"Feature"},
	{"geometry":{"coordinates":[7.281534,51.423931],"type":"Point"},"properties":{"osm_id":"4107846500","tag":{"amenity":"waste_basket","colour":"black","material":"metal"}},"type":"Feature"},
	{"geometry":{"coordinates":[7.285798,51.438044],"type":"Point"},"properties":{"osm_id":"4107846522","tag":{"amenity":"waste_basket","waste":"trash"}},"type":"Feature"},
	{"geometry":{"coordinates":[7.286045,51.438286],"type":"Point"},"properties":{"osm_id":"4107846526","tag":{"amenity":"waste_basket","waste":"trash"}},"type":"Feature"},
	{"geometry":{"coordinates":[7.273144,51.418298],"type":"Point"},"properties":{"osm_id":"4143451542","tag":{"amenity":"waste_basket"}},"type":"Feature"},
	{"geometry":{"coordinates":[7.289523,51.416219],"type":"Point"},"properties":{"osm_id":"4147433793","tag":{"amenity":"waste_basket"}},"type":"Feature"},
	{"geometry":{"coordinates":[7.256143,51.400592],"type":"Point"},"properties":{"osm_id":"4150203620","tag":{"amenity":"recycling","location":"overground","operator":"Deutsches Rotes Kreuz","operator:abbr":"DRK","operator:wikidata":"Q694104","recycling:clothes":"yes","recycling:shoes":"yes","recycling_type":"container","wheelchair":"yes"}},"type":"Feature"},
	{"geometry":{"coordinates":[7.265673,51.412469],"type":"Point"},"properties":{"osm_id":"4150203622","tag":{"amenity":"waste_basket","colour":"silver","material":"metal","support":"pole"}},"type":"Feature"},
	{"geometry":{"coordinates":[7.267381,51.413439],"type":"Point"},"properties":{"osm_id":"4150203623","tag":{"amenity":"waste_basket","colour":"silver","material":"metal","support":"pole"}},"type":"Feature"},
	{"geometry":{"coordinates":[7.274897,51.419338],"type":"Point"},"properties":{"osm_id":"4150203627","tag":{"amenity":"waste_basket"}},"type":"Feature"},
	{"geometry":{"coordinates":[7.276178,51.420284],"type":"Point"},"properties":{"osm_id":"4150203628","tag":{"amenity":"waste_basket"}},"type":"Feature"},
	{"geometry":{"coordinates":[7.2836,51.416744],"type":"Point"},"properties":{"osm_id":"4151342078","tag":{"amenity":"waste_basket"}},"type":"Feature"},
	{"geometry":{"coordinates":[7.284167,51.416962],"type":"Point"},"properties":{"osm_id":"4151342079","tag":{"amenity":"waste_basket"}},"type":"Feature"},
	{"geometry":{"coordinates":[7.276389,51.399961],"type":"Point"},"properties":{"osm_id":"4151905363","tag":{"amenity":"waste_basket"}},"type":"Feature"},
	{"geometry":{"coordinates":[7.275994,51.401469],"type":"Point"},"properties":{"osm_id":"4151905364","tag":{"amenity":"waste_basket"}},"type":"Feature"},
	{"geometry":{"coordinates":[7.275847,51.401526],"type":"Point"},"properties":{"osm_id":"4151905365","tag":{"amenity":"waste_basket"}},"type":"Feature"},
	{"geometry":{"coordinates":[7.274949,51.405051],"type":"Point"},"properties":{"osm_id":"4151905380","tag":{"amenity":"waste_basket","colour":"silver","material":"metal"}},"type":"Feature"},
	{"geometry":{"coordinates":[7.284466,51.424746],"type":"Point"},"properties":{"osm_id":"4156359765","tag":{"amenity":"waste_basket"}},"type":"Feature"},
	{"geometry":{"coordinates":[7.284417,51.424779],"type":"Point"},"properties":{"osm_id":"4156359769","tag":{"amenity":"waste_basket"}},"type":"Feature"},
	{"geometry":{"coordinates":[7.292402,51.428632],"type":"Point"},"properties":{"osm_id":"4156362113","tag":{"amenity":"waste_basket"}},"type":"Feature"},
	{"geometry":{"coordinates":[7.291976,51.42875],"type":"Point"},"properties":{"osm_id":"4156362114","tag":{"amenity":"waste_basket"}},"type":"Feature"},
	{"geometry":{"coordinates":[7.278382,51.435497],"type":"Point"},"properties":{"osm_id":"4158119303","tag":{"amenity":"waste_basket"}},"type":"Feature"},
	{"geometry":{"coordinates":[7.279952,51.423118],"type":"Point"},"properties":{"osm_id":"4166443140","tag":{"amenity":"waste_basket"}},"type":"Feature"},
	{"geometry":{"coordinates":[7.272463,51.417691],"type":"Point"},"properties":{"osm_id":"4173088759","tag":{"amenity":"waste_basket","colour":"silver","material":"metal","support":"pole"}},"type":"Feature"},
	{"geometry":{"coordinates":[7.289286,51.416647],"type":"Point"},"properties":{"osm_id":"4173452525","tag":{"amenity":"waste_basket"}},"type":"Feature"},
	{"geometry":{"coordinates":[7.293193,51.426208],"type":"Point"},"properties":{"osm_id":"4202263807","tag":{"amenity":"recycling","colour":"yellow","location":"overground","material":"metal","operator":"H&M","operator:type":"private","recycling:clothes":"yes","recycling:shoes":"yes","recycling_type":"container","wheelchair":"yes"}},"type":"Feature"},
	{"geometry":{"coordinates":[7.282258,51.436217],"type":"Point"},"properties":{"osm_id":"4210753693","tag":{"amenity":"waste_basket"}},"type":"Feature"},
	{"geometry":{"coordinates":[7.282057,51.436307],"type":"Point"},"properties":{"osm_id":"4210753696","tag":{"amenity":"waste_basket"}},"type":"Feature"},
	{"geometry":{"coordinates":[7.280974,51.425245],"type":"Point"},"properties":{"osm_id":"4227286852","tag":{"amenity":"waste_basket","colour":"silver","material":"metal"}},"type":"Feature"},
	{"geometry":{"coordinates":[7.284605,51.425964],"type":"Point"},"properties":{"osm_id":"4263079423","tag":{"amenity":"waste_basket"}},"type":"Feature"},
	{"geometry":{"coordinates":[7.284152,51.426037],"type":"Point"},"properties":{"osm_id":"4263079425","tag":{"amenity":"waste_basket"}},"type":"Feature"},
	{"geometry":{"coordinates":[7.22945,51.406261],"type":"Point"},"properties":{"osm_id":"4305879066","tag":{"amenity":"recycling","recycling:paper":"yes","recycling_type":"container"}},"type":"Feature"},
	{"geometry":{"coordinates":[7.293009,51.415811],"type":"Point"},"properties":{"osm_id":"4347455604","tag":{"door":"hinged","entrance":"home","foot":"private"}},"type":"Feature"},
	{"geometry":{"coordinates":[7.286927,51.438513],"type":"Point"},"properties":{"osm_id":"4368545989","tag":{"amenity":"waste_basket","colour":"black","material":"metal"}},"type":"Feature"},
	{"geometry":{"coordinates":[7.281917,51.42397],"type":"Point"},"properties":{"osm_id":"4536069721","tag":{"amenity":"waste_basket","colour":"silver","material":"metal","operator":"Stadt Witten","operator:type":"public","operator:wikidata":"Q3764","support":"pole"}},"type":"Feature"},
	{"geometry":{"coordinates":[7.20842,51.414096],"type":"Point"},"properties":{"osm_id":"5051958179","tag":{"amenity":"recycling","recycling:glass_bottles":"yes","recycling:paper":"yes","recycling_type":"container"}},"type":"Feature"},
	{"geometry":{"coordinates":[7.229099,51.432482],"type":"Point"},"properties":{"osm_id":"5240593130","tag":{"amenity":"waste_basket"}},"type":"Feature"},
	{"geometry":{"coordinates":[7.268082,51.446216],"type":"Point"},"properties":{"osm_id":"5377987008","tag":{"amenity":"recycling","recycling:clothes":"yes","recycling:glass_bottles":"yes","recycling:shoes":"yes","recycling_type":"container"}},"type":"Feature"},
	{"geometry":{"coordinates":[7.210938,51.452306],"type":"Point"},"properties":{"osm_id":"5503067167","tag":{"amenity":"waste_basket","waste":"trash"}},"type":"Feature"},
	{"geometry":{"coordinates":[7.215083,51.439968],"type":"Point"},"properties":{"osm_id":"5920886272","tag":{"amenity":"waste_basket"}},"type":"Feature"},
	{"geometry":{"coordinates":[7.212122,51.44051],"type":"Point"},"properties":{"osm_id":"5920888400","tag":{"amenity":"waste_basket"}},"type":"Feature"},
	{"geometry":{"coordinates":[7.280757,51.423216],"type":"Point"},"properties":{"osm_id":"6135019514","tag":{"amenity":"waste_basket","colour":"silver","image":"https://web.archive.org/web/20181214123739if_/https://d1cuyjsrcm0gby.cloudfront.net/YaZaQ5-8DLejQXTjx_3c7w/thumb-2048.jpg","mapillary":"YaZaQ5-8DLejQXTjx_3c7w","material":"metal","operator":"Stadt Witten","operator:type":"public","operator:wikidata":"Q3764"}},"type":"Feature"},
	{"geometry":{"coordinates":[7.233826,51.430935],"type":"Point"},"properties":{"osm_id":"6169164276","tag":{"amenity":"recycling","operator":"Umweltservice Bochum","recycling:clothes":"yes","recycling:glass_bottles":"yes","recycling:paper":"yes","recycling_type":"container"}},"type":"Feature"},
	{"geometry":{"coordinates":[7.273163,51.423072],"type":"Point"},"properties":{"osm_id":"6281823750","tag":{"amenity":"waste_basket","waste":"trash"}},"type":"Feature"},
	{"geometry":{"coordinates":[7.212328,51.440216],"type":"Point"},"properties":{"osm_id":"6426652654","tag":{"amenity":"waste_basket"}},"type":"Feature"},
	{"geometry":{"coordinates":[7.242677,51.451874],"type":"Point"},"properties":{"osm_id":"6442472146","tag":{"amenity":"recycling","recycling:bottles":"yes","recycling:paper":"yes","recycling_type":"container"}},"type":"Feature"},
	{"geometry":{"coordinates":[7.291594,51.419198],"type":"Point"},"properties":{"osm_id":"6519091588","tag":{"amenity":"waste_basket","colour":"black","material":"metal","support":"pole","waste":"trash"}},"type":"Feature"},
	{"geometry":{"coordinates":[7.292003,51.419475],"type":"Point"},"properties":{"osm_id":"6519217078","tag":{"amenity":"waste_basket","colour":"silver","operator":"Stadt Witten","operator:type":"public","operator:wikidata":"Q3764"}},"type":"Feature"},
	{"geometry":{"coordinates":[7.233065,51.430989],"type":"Point"},"properties":{"osm_id":"6579820694","tag":{"amenity":"waste_basket"}},"type":"Feature"},
	{"geometry":{"coordinates":[7.243316,51.428396],"type":"Point"},"properties":{"osm_id":"6579820708","tag":{"amenity":"waste_basket"}},"type":"Feature"},
	{"geometry":{"coordinates":[7.244441,51.42858],"type":"Point"},"properties":{"osm_id":"6579820714","tag":{"amenity":"waste_basket"}},"type":"Feature"},
	{"geometry":{"coordinates":[7.209897,51.441184],"type":"Point"},"properties":{"osm_id":"6579869925","tag":{"amenity":"waste_basket"}},"type":"Feature"},
	{"geometry":{"coordinates":[7.211863,51.440312],"type":"Point"},"properties":{"osm_id":"6579869928","tag":{"amenity":"waste_basket"}},"type":"Feature"},
	{"geometry":{"coordinates":[7.232989,51.446737],"type":"Point"},"properties":{"osm_id":"6594909464","tag":{"amenity":"waste_disposal","waste":"plastic"}},"type":"Feature"},
	{"geometry":{"coordinates":[7.233006,51.44674],"type":"Point"},"properties":{"osm_id":"6594909465","tag":{"amenity":"waste_disposal","waste":"plastic"}},"type":"Feature"},
	{"geometry":{"coordinates":[7.23303,51.446746],"type":"Point"},"properties":{"osm_id":"6594909466","tag":{"amenity":"waste_disposal","waste":"paper"}},"type":"Feature"},
	{"geometry":{"coordinates":[7.233042,51.446731],"type":"Point"},"properties":{"osm_id":"6594909467","tag":{"amenity":"waste_disposal","waste":"paper"}},"type":"Feature"},
	{"geometry":{"coordinates":[7.232978,51.446718],"type":"Point"},"properties":{"osm_id":"6594909468","tag":{"amenity":"waste_disposal","waste":"trash"}},"type":"Feature"},
	{"geometry":{"coordinates":[7.232998,51.446721],"type":"Point"},"properties":{"osm_id":"6594909469","tag":{"amenity":"waste_disposal","waste":"trash"}},"type":"Feature"},
	{"geometry":{"coordinates":[7.233025,51.446726],"type":"Point"},"properties":{"osm_id":"6594909470","tag":{"amenity":"waste_disposal","waste":"trash"}},"type":"Feature"},
	{"geometry":{"coordinates":[7.207663,51.414114],"type":"Point"},"properties":{"osm_id":"6596385521","tag":{"amenity":"waste_basket"}},"type":"Feature"},
	{"geometry":{"coordinates":[7.246734,51.453576],"type":"Point"},"properties":{"osm_id":"6779131005","tag":{"amenity":"recycling","recycling:cardboard":"yes","recycling:glass_bottles":"yes","recycling:paper":"yes","recycling_type":"container"}},"type":"Feature"},
	{"geometry":{"coordinates":[7.210348,51.440669],"type":"Point"},"properties":{"osm_id":"6779419790","tag":{"amenity":"waste_basket"}},"type":"Feature"},
	{"geometry":{"coordinates":[7.212555,51.440566],"type":"Point"},"properties":{"osm_id":"6779419800","tag":{"amenity":"waste_basket"}},"type":"Feature"},
	{"geometry":{"coordinates":[7.214496,51.441736],"type":"Point"},"properties":{"osm_id":"6779419805","tag":{"amenity":"waste_basket"}},"type":"Feature"},
	{"geometry":{"coordinates":[7.214562,51.44156],"type":"Point"},"properties":{"osm_id":"6779419807","tag":{"amenity":"waste_basket"}},"type":"Feature"},
	{"geometry":{"coordinates":[7.215283,51.442132],"type":"Point"},"properties":{"osm_id":"6779419810","tag":{"amenity":"waste_basket"}},"type":"Feature"},
	{"geometry":{"coordinates":[7.211394,51.440512],"type":"Point"},"properties":{"osm_id":"6786730923","tag":{"amenity":"waste_basket"}},"type":"Feature"},
	{"geometry":{"coordinates":[7.212557,51.440873],"type":"Point"},"properties":{"osm_id":"6786730927","tag":{"amenity":"waste_basket"}},"type":"Feature"},
	{"geometry":{"coordinates":[7.213965,51.441301],"type":"Point"},"properties":{"osm_id":"6786730929","tag":{"amenity":"waste_basket"}},"type":"Feature"},
	{"geometry":{"coordinates":[7.213676,51.441379],"type":"Point"},"properties":{"osm_id":"6786730931","tag":{"amenity":"waste_basket"}},"type":"Feature"},
	{"geometry":{"coordinates":[7.221214,51.444314],"type":"Point"},"properties":{"osm_id":"6786730949","tag":{"amenity":"recycling","recycling:clothes":"yes","recycling:shoes":"yes","recycling_type":"container"}},"type":"Feature"},
	{"geometry":{"coordinates":[7.233462,51.430966],"type":"Point"},"properties":{"osm_id":"6792094208","tag":{"amenity":"waste_basket"}},"type":"Feature"},
	{"geometry":{"coordinates":[7.242758,51.428351],"type":"Point"},"properties":{"osm_id":"6792094222","tag":{"amenity":"waste_basket"}},"type":"Feature"},
	{"geometry":{"coordinates":[7.236908,51.416922],"type":"Point"},"properties":{"osm_id":"6792094282","tag":{"amenity":"waste_basket","waste":"trash"}},"type":"Feature"},
	{"geometry":{"coordinates":[7.236494,51.416408],"type":"Point"},"properties":{"osm_id":"6792219395","tag":{"amenity":"waste_basket","waste":"trash"}},"type":"Feature"},
	{"geometry":{"coordinates":[7.236512,51.416391],"type":"Point"},"properties":{"osm_id":"6792219396","tag":{"amenity":"waste_basket","waste":"trash"}},"type":"Feature"},
	{"geometry":{"coordinates":[7.233799,51.415894],"type":"Point"},"properties":{"osm_id":"6792219403","tag":{"amenity":"waste_basket","waste":"trash"}},"type":"Feature"},
	{"geometry":{"coordinates":[7.258977,51.448753],"type":"Point"},"properties":{"osm_id":"6812622180","tag":{"amenity":"waste_basket","material":"metal"}},"type":"Feature"},
	{"geometry":{"coordinates":[7.255925,51.447678],"type":"Point"},"properties":{"osm_id":"6812635686","tag":{"amenity":"waste_basket"}},"type":"Feature"},
	{"geometry":{"coordinates":[7.270843,51.447913],"type":"Point"},"properties":{"osm_id":"6845100007","tag":{"amenity":"waste_basket","ashtray":"yes","level":"1","level:ref":"0"}},"type":"Feature"},
	{"geometry":{"coordinates":[7.271369,51.448152],"type":"Point"},"properties":{"osm_id":"6845100008","tag":{"amenity":"waste_basket"}},"type":"Feature"},
	{"geometry":{"coordinates":[7.231992,51.452421],"type":"Point"},"properties":{"osm_id":"6853829889","tag":{"amenity":"waste_basket","material":"metal"}},"type":"Feature"},
	{"geometry":{"coordinates":[7.227891,51.452255],"type":"Point"},"properties":{"osm_id":"6855251248","tag":{"amenity":"waste_basket","waste":"trash"}},"type":"Feature"},
	{"geometry":{"coordinates":[7.21467,51.413243],"type":"Point"},"properties":{"osm_id":"6875962656","tag":{"amenity":"waste_basket","waste":"trash"}},"type":"Feature"},
	{"geometry":{"coordinates":[7.214463,51.412675],"type":"Point"},"properties":{"osm_id":"6875962657","tag":{"amenity":"waste_basket","waste":"trash"}},"type":"Feature"},
	{"geometry":{"coordinates":[7.2145,51.41323],"type":"Point"},"properties":{"osm_id":"6875962658","tag":{"amenity":"waste_basket","waste":"trash"}},"type":"Feature"},
	{"geometry":{"coordinates":[7.214679,51.413107],"type":"Point"},"properties":{"osm_id":"6875962659","tag":{"amenity":"waste_basket","waste":"trash"}},"type":"Feature"},
	{"geometry":{"coordinates":[7.213747,51.412967],"type":"Point"},"properties":{"osm_id":"6875990285","tag":{"amenity":"recycling","recycling:glass_bottles":"yes","recycling:paper":"yes","recycling_type":"container"}},"type":"Feature"},
	{"geometry":{"coordinates":[7.213806,51.413],"type":"Point"},"properties":{"osm_id":"6875990286","tag":{"amenity":"recycling","recycling:clothes":"yes","recycling_type":"container"}},"type":"Feature"},
	{"geometry":{"coordinates":[7.210167,51.441061],"type":"Point"},"properties":{"osm_id":"6925749835","tag":{"amenity":"waste_basket"}},"type":"Feature"},
	{"geometry":{"coordinates":[7.21134,51.44119],"type":"Point"},"properties":{"osm_id":"6925749838","tag":{"amenity":"waste_basket"}},"type":"Feature"},
	{"geometry":{"coordinates":[7.212847,51.442004],"type":"Point"},"properties":{"osm_id":"6925749840","tag":{"amenity":"waste_basket"}},"type":"Feature"},
	{"geometry":{"coordinates":[7.21346,51.44202],"type":"Point"},"properties":{"osm_id":"6925749842","tag":{"amenity":"waste_basket"}},"type":"Feature"},
	{"geometry":{"coordinates":[7.280492,51.450989],"type":"Point"},"properties":{"osm_id":"7063439940","tag":{"amenity":"waste_basket","waste":"trash"}},"type":"Feature"},
	{"geometry":{"coordinates":[7.230218,51.450367],"type":"Point"},"properties":{"osm_id":"7158917050","tag":{"amenity":"waste_basket"}},"type":"Feature"},
	{"geometry":{"coordinates":[7.230813,51.450964],"type":"Point"},"properties":{"osm_id":"7158917051","tag":{"amenity":"waste_basket"}},"type":"Feature"},
	{"geometry":{"coordinates":[7.231544,51.45159],"type":"Point"},"properties":{"osm_id":"7158917054","tag":{"amenity":"waste_basket"}},"type":"Feature"},
	{"geometry":{"coordinates":[7.231592,51.451756],"type":"Point"},"properties":{"osm_id":"7158917056","tag":{"amenity":"waste_basket"}},"type":"Feature"},
	{"geometry":{"coordinates":[7.231391,51.452634],"type":"Point"},"properties":{"osm_id":"7158917058","tag":{"amenity":"waste_basket"}},"type":"Feature"},
	{"geometry":{"coordinates":[7.211493,51.440973],"type":"Point"},"properties":{"osm_id":"7159121812","tag":{"amenity":"waste_basket"}},"type":"Feature"},
	{"geometry":{"coordinates":[7.255756,51.448651],"type":"Point"},"properties":{"osm_id":"7216813992","tag":{"amenity":"recycling","opening_hours":"24/7","recycling:clothes":"yes","recycling:shoes":"yes","recycling_type":"container"}},"type":"Feature"},
	{"geometry":{"coordinates":[7.23418,51.444618],"type":"Point"},"properties":{"osm_id":"7431322872","tag":{"amenity":"waste_basket","waste":"trash"}},"type":"Feature"},
	{"geometry":{"coordinates":[7.235607,51.444693],"type":"Point"},"properties":{"osm_id":"7431322874","tag":{"amenity":"waste_basket","waste":"trash"}},"type":"Feature"},
	{"geometry":{"coordinates":[7.280265,51.415324],"type":"Point"},"properties":{"osm_id":"7529096466","tag":{"amenity":"waste_basket","waste":"trash"}},"type":"Feature"},
	{"geometry":{"coordinates":[7.22938,51.45267],"type":"Point"},"properties":{"osm_id":"7532119874","tag":{"amenity":"waste_basket","waste":"trash"}},"type":"Feature"},
	{"geometry":{"coordinates":[7.229339,51.452857],"type":"Point"},"properties":{"osm_id":"7532119876","tag":{"amenity":"waste_basket","waste":"trash"}},"type":"Feature"},
	{"geometry":{"coordinates":[7.24772,51.451363],"type":"Point"},"properties":{"osm_id":"7533386763","tag":{"amenity":"waste_basket","waste":"trash"}},"type":"Feature"},
	{"geometry":{"coordinates":[7.265832,51.450372],"type":"Point"},"properties":{"osm_id":"7611410703","tag":{"amenity":"waste_basket","layer":"1","level":"1"}},"type":"Feature"},
	{"geometry":{"coordinates":[7.265533,51.450229],"type":"Point"},"properties":{"osm_id":"7611410718","tag":{"amenity":"waste_basket","covered":"yes"}},"type":"Feature"},
	{"geometry":{"coordinates":[7.2654,51.450162],"type":"Point"},"properties":{"osm_id":"7611410720","tag":{"amenity":"waste_basket","covered":"yes"}},"type":"Feature"},
	{"geometry":{"coordinates":[7.246589,51.453276],"type":"Point"},"properties":{"osm_id":"7611623264","tag":{"amenity":"waste_basket"}},"type":"Feature"},
	{"geometry":{"coordinates":[7.246732,51.453104],"type":"Point"},"properties":{"osm_id":"7611623273","tag":{"amenity":"waste_basket"}},"type":"Feature"},
	{"geometry":{"coordinates":[7.246737,51.452174],"type":"Point"},"properties":{"osm_id":"7611623276","tag":{"amenity":"waste_basket"}},"type":"Feature"},
	{"geometry":{"coordinates":[7.246823,51.45202],"type":"Point"},"properties":{"osm_id":"7611697689","tag":{"amenity":"waste_basket","covered":"yes"}},"type":"Feature"},
	{"geometry":{"coordinates":[7.247002,51.451699],"type":"Point"},"properties":{"osm_id":"7611697699","tag":{"amenity":"waste_basket"}},"type":"Feature"},
	{"geometry":{"coordinates":[7.258421,51.447136],"type":"Point"},"properties":{"osm_id":"7612663322","tag":{"amenity":"waste_basket","covered":"yes"}},"type":"Feature"},
	{"geometry":{"coordinates":[7.258685,51.447203],"type":"Point"},"properties":{"osm_id":"7612680749","tag":{"amenity":"waste_basket","covered":"yes"}},"type":"Feature"},
	{"geometry":{"coordinates":[7.258542,51.447167],"type":"Point"},"properties":{"osm_id":"7612680752","tag":{"amenity":"waste_basket","covered":"yes"}},"type":"Feature"},
	{"geometry":{"coordinates":[7.258281,51.447103],"type":"Point"},"properties":{"osm_id":"7612680755","tag":{"amenity":"waste_basket","covered":"yes"}},"type":"Feature"},
	{"geometry":{"coordinates":[7.258156,51.447077],"type":"Point"},"properties":{"osm_id":"7612680758","tag":{"amenity":"waste_basket","covered":"yes"}},"type":"Feature"},
	{"geometry":{"coordinates":[7.258233,51.44693],"type":"Point"},"properties":{"osm_id":"7612680761","tag":{"amenity":"waste_basket","covered":"yes"}},"type":"Feature"},
	{"geometry":{"coordinates":[7.258368,51.446956],"type":"Point"},"properties":{"osm_id":"7612680768","tag":{"amenity":"waste_basket","covered":"yes"}},"type":"Feature"},
	{"geometry":{"coordinates":[7.25851,51.446989],"type":"Point"},"properties":{"osm_id":"7612680771","tag":{"amenity":"waste_basket","covered":"yes"}},"type":"Feature"},
	{"geometry":{"coordinates":[7.258645,51.447018],"type":"Point"},"properties":{"osm_id":"7612680774","tag":{"amenity":"waste_basket","covered":"yes"}},"type":"Feature"},
	{"geometry":{"coordinates":[7.258785,51.447054],"type":"Point"},"properties":{"osm_id":"7612680776","tag":{"amenity":"waste_basket","covered":"yes"}},"type":"Feature"},
	{"geometry":{"coordinates":[7.242788,51.451962],"type":"Point"},"properties":{"osm_id":"7775067827","tag":{"amenity":"recycling","recycling:glass_bottles":"yes","recycling_type":"container"}},"type":"Feature"},
	{"geometry":{"coordinates":[7.241388,51.425721],"type":"Point"},"properties":{"osm_id":"7917264385","tag":{"amenity":"waste_basket"}},"type":"Feature"}
]
}
