{
"type": "FeatureCollection",
"features": [
	{"geometry":{"coordinates":[7.281149,51.394632],"type":"Point"},"properties":{"osm_id":"340024515","tag":{"amenity":"recycling","location":"overground","operator":"AHE;Deutsches Rotes Kreuz","recycling:cardboard":"yes","recycling:clothes":"yes","recycling:glass_bottles":"yes","recycling:paper":"yes","recycling:shoes":"yes","recycling_type":"container","wheelchair":"yes"}},"type":"Feature"},
	{"geometry":{"coordinates":[7.234043,51.388226],"type":"Point"},"properties":{"osm_id":"621896408","tag":{"amenity":"recycling"}},"type":"Feature"},
	{"geometry":{"coordinates":[7.286491,51.388271],"type":"Point"},"properties":{"osm_id":"706710745","tag":{"amenity":"recycling","location":"overground","operator":"AHE;Deutsches Rotes Kreuz","recycling:cardboard":"yes","recycling:clothes":"yes","recycling:glass_bottles":"yes","recycling:paper":"yes","recycling:shoes":"yes","recycling_type":"container","wheelchair":"yes"}},"type":"Feature"},
	{"geometry":{"coordinates":[7.264947,51.396964],"type":"Point"},"properties":{"osm_id":"915446691","tag":{"amenity":"recycling","location":"overground","operator":"AHE","recycling:cardboard":"yes","recycling:clothes":"no","recycling:glass_bottles":"yes","recycling:paper":"yes","recycling_type":"container","wheelchair":"yes"}},"type":"Feature"},
	{"geometry":{"coordinates":[7.291295,51.350441],"type":"Point"},"properties":{"osm_id":"1432906948","tag":{"amenity":"recycling","recycling:glass_bottles":"yes","recycling_type":"container"}},"type":"Feature"},
	{"geometry":{"coordinates":[7.29011,51.351938],"type":"Point"},"properties":{"osm_id":"1432906960","tag":{"amenity":"recycling","recycling:paper":"yes","recycling_type":"container"}},"type":"Feature"},
	{"geometry":{"coordinates":[7.253115,51.366375],"type":"Point"},"properties":{"osm_id":"2314872191","tag":{"amenity":"recycling","recycling:batteries":"no","recycling:clothes":"yes","recycling:glass_bottles":"yes","recycling:shoes":"yes","recycling:waste":"no","recycling_type":"container"}},"type":"Feature"},
	{"geometry":{"coordinates":[7.251884,51.391811],"type":"Point"},"properties":{"osm_id":"2377214374","tag":{"amenity":"recycling","location":"overground","operator":"AHE","recycling:cardboard":"yes","recycling:clothes":"no","recycling:glass_bottles":"yes","recycling:paper":"yes","recycling_type":"container","wheelchair":"yes"}},"type":"Feature"},
	{"geometry":{"coordinates":[7.249494,51.398648],"type":"Point"},"properties":{"osm_id":"2377427855","tag":{"amenity":"recycling","location":"overground","material":"metal","operator":"AHE;Deutsches Rotes Kreuz","recycling:cardboard":"yes","recycling:clothes":"yes","recycling:glass_bottles":"yes","recycling:paper":"yes","recycling:shoes":"yes","recycling_type":"container","wheelchair":"yes"}},"type":"Feature"},
	{"geometry":{"coordinates":[7.288564,51.391312],"type":"Point"},"properties":{"osm_id":"2403978870","tag":{"amenity":"recycling","location":"overground","operator":"AHE;Deutsches Rotes Kreuz","recycling:cardboard":"yes","recycling:clothes":"yes","recycling:glass_bottles":"yes","recycling:paper":"yes","recycling:shoes":"yes","recycling_type":"container","wheelchair":"yes"}},"type":"Feature"},
	{"geometry":{"coordinates":[7.262199,51.392308],"type":"Point"},"properties":{"osm_id":"2430502524","tag":{"amenity":"recycling","location":"overground","operator":"AHE","recycling:cardboard":"yes","recycling:clothes":"yes","recycling:glass_bottles":"yes","recycling:paper":"yes","recycling:shoes":"yes","recycling_type":"container","wheelchair":"yes"}},"type":"Feature"},
	{"geometry":{"coordinates":[7.29011,51.351915],"type":"Point"},"properties":{"osm_id":"2493822933","tag":{"amenity":"recycling","recycling:glass_bottles":"yes","recycling_type":"container"}},"type":"Feature"},
	{"geometry":{"coordinates":[7.246577,51.362626],"type":"Point"},"properties":{"osm_id":"2505175163","tag":{"amenity":"waste_basket"}},"type":"Feature"},
	{"geometry":{"coordinates":[7.216969,51.394408],"type":"Point"},"properties":{"osm_id":"2670199134","tag":{"amenity":"waste_basket"}},"type":"Feature"},
	{"geometry":{"coordinates":[7.216602,51.394386],"type":"Point"},"properties":{"osm_id":"3424411453","tag":{"amenity":"recycling","recycling:glass_bottles":"yes","recycling:paper":"yes","recycling_type":"container"}},"type":"Feature"},
	{"geometry":{"coordinates":[7.257976,51.397614],"type":"Point"},"properties":{"osm_id":"4143451527","tag":{"amenity":"waste_basket"}},"type":"Feature"},
	{"geometry":{"coordinates":[7.29222,51.395789],"type":"Point"},"properties":{"osm_id":"4151342061","tag":{"amenity":"waste_basket"}},"type":"Feature"},
	{"geometry":{"coordinates":[7.293223,51.398563],"type":"Point"},"properties":{"osm_id":"4151342069","tag":{"amenity":"waste_basket"}},"type":"Feature"},
	{"geometry":{"coordinates":[7.281318,51.39437],"type":"Point"},"properties":{"osm_id":"4151804765","tag":{"amenity":"waste_basket"}},"type":"Feature"},
	{"geometry":{"coordinates":[7.281396,51.394406],"type":"Point"},"properties":{"osm_id":"4151804767","tag":{"amenity":"waste_basket"}},"type":"Feature"},
	{"geometry":{"coordinates":[7.286489,51.388494],"type":"Point"},"properties":{"osm_id":"4172249389","tag":{"amenity":"waste_basket","colour":"silver","material":"metal","support":"pole"}},"type":"Feature"},
	{"geometry":{"coordinates":[7.290109,51.35196],"type":"Point"},"properties":{"osm_id":"4653678274","tag":{"amenity":"recycling","recycling:clothes":"yes","recycling_type":"container"}},"type":"Feature"},
	{"geometry":{"coordinates":[7.285985,51.35363],"type":"Point"},"properties":{"osm_id":"4735965531","tag":{"amenity":"waste_basket"}},"type":"Feature"},
	{"geometry":{"coordinates":[7.291312,51.350452],"type":"Point"},"properties":{"osm_id":"4736190676","tag":{"amenity":"recycling","recycling:glass_bottles":"yes","recycling_type":"container"}},"type":"Feature"},
	{"geometry":{"coordinates":[7.291281,51.350427],"type":"Point"},"properties":{"osm_id":"4736190677","tag":{"amenity":"recycling","recycling:clothes":"yes","recycling_type":"container"}},"type":"Feature"},
	{"geometry":{"coordinates":[7.211512,51.372228],"type":"Point"},"properties":{"osm_id":"5017440056","tag":{"amenity":"recycling","recycling_type":"container"}},"type":"Feature"},
	{"geometry":{"coordinates":[7.257954,51.397254],"type":"Point"},"properties":{"osm_id":"5562751061","tag":{"amenity":"waste_basket","colour":"silver","material":"metal","operator":"Stadt Witten","operator:type":"public","operator:wikidata":"Q3764"}},"type":"Feature"},
	{"geometry":{"coordinates":[7.249974,51.370887],"type":"Point"},"properties":{"osm_id":"6207693940","tag":{"amenity":"recycling","operator":"AHE","recycling:glass_bottles":"yes","recycling_type":"container"}},"type":"Feature"},
	{"geometry":{"coordinates":[7.251225,51.371182],"type":"Point"},"properties":{"osm_id":"6579715734","tag":{"amenity":"waste_basket"}},"type":"Feature"},
	{"geometry":{"coordinates":[7.251367,51.371252],"type":"Point"},"properties":{"osm_id":"6579715735","tag":{"amenity":"waste_basket"}},"type":"Feature"},
	{"geometry":{"coordinates":[7.248334,51.368019],"type":"Point"},"properties":{"osm_id":"6579721849","tag":{"amenity":"waste_basket"}},"type":"Feature"},
	{"geometry":{"coordinates":[7.248268,51.367623],"type":"Point"},"properties":{"osm_id":"6579721850","tag":{"amenity":"waste_basket"}},"type":"Feature"},
	{"geometry":{"coordinates":[7.248012,51.367132],"type":"Point"},"properties":{"osm_id":"6579721854","tag":{"amenity":"waste_basket"}},"type":"Feature"},
	{"geometry":{"coordinates":[7.251846,51.364868],"type":"Point"},"properties":{"osm_id":"6579721878","tag":{"amenity":"waste_basket","colour":"green"}},"type":"Feature"},
	{"geometry":{"coordinates":[7.253664,51.355153],"type":"Point"},"properties":{"osm_id":"6765669936","tag":{"amenity":"waste_basket","waste":"trash"}},"type":"Feature"},
	{"geometry":{"coordinates":[7.246375,51.364818],"type":"Point"},"properties":{"osm_id":"6791658306","tag":{"amenity":"waste_basket"}},"type":"Feature"},
	{"geometry":{"coordinates":[7.246577,51.365149],"type":"Point"},"properties":{"osm_id":"6791658310","tag":{"amenity":"waste_basket"}},"type":"Feature"},
	{"geometry":{"coordinates":[7.247758,51.367147],"type":"Point"},"properties":{"osm_id":"6791658315","tag":{"amenity":"waste_basket","colour":"green","material":"metal"}},"type":"Feature"},
	{"geometry":{"coordinates":[7.24864,51.368446],"type":"Point"},"properties":{"osm_id":"6791658320","tag":{"amenity":"waste_basket"}},"type":"Feature"},
	{"geometry":{"coordinates":[7.243079,51.367552],"type":"Point"},"properties":{"osm_id":"6791658326","tag":{"amenity":"recycling","recycling:clothes":"yes","recycling:glass_bottles":"yes","recycling_type":"container"}},"type":"Feature"},
	{"geometry":{"coordinates":[7.243663,51.371146],"type":"Point"},"properties":{"osm_id":"6791658333","tag":{"amenity":"waste_basket"}},"type":"Feature"},
	{"geometry":{"coordinates":[7.249404,51.369326],"type":"Point"},"properties":{"osm_id":"6791658343","tag":{"amenity":"waste_basket"}},"type":"Feature"},
	{"geometry":{"coordinates":[7.24961,51.369454],"type":"Point"},"properties":{"osm_id":"6791658345","tag":{"amenity":"waste_basket"}},"type":"Feature"},
	{"geometry":{"coordinates":[7.249001,51.368856],"type":"Point"},"properties":{"osm_id":"6791658348","tag":{"amenity":"waste_basket"}},"type":"Feature"},
	{"geometry":{"coordinates":[7.249358,51.368665],"type":"Point"},"properties":{"osm_id":"6791658350","tag":{"amenity":"waste_basket"}},"type":"Feature"},
	{"geometry":{"coordinates":[7.249362,51.368999],"type":"Point"},"properties":{"osm_id":"6791658356","tag":{"amenity":"waste_basket"}},"type":"Feature"},
	{"geometry":{"coordinates":[7.249442,51.369018],"type":"Point"},"properties":{"osm_id":"6791658357","tag":{"amenity":"waste_basket"}},"type":"Feature"},
	{"geometry":{"coordinates":[7.251323,51.36768],"type":"Point"},"properties":{"osm_id":"6791658366","tag":{"amenity":"waste_basket"}},"type":"Feature"},
	{"geometry":{"coordinates":[7.254412,51.368727],"type":"Point"},"properties":{"osm_id":"6791658371","tag":{"amenity":"waste_basket"}},"type":"Feature"},
	{"geometry":{"coordinates":[7.251689,51.370543],"type":"Point"},"properties":{"osm_id":"6791691486","tag":{"amenity":"waste_basket"}},"type":"Feature"},
	{"geometry":{"coordinates":[7.251211,51.370481],"type":"Point"},"properties":{"osm_id":"6791691488","tag":{"amenity":"waste_basket"}},"type":"Feature"},
	{"geometry":{"coordinates":[7.250069,51.368457],"type":"Point"},"properties":{"osm_id":"6791691493","tag":{"amenity":"waste_basket"}},"type":"Feature"},
	{"geometry":{"coordinates":[7.250404,51.368408],"type":"Point"},"properties":{"osm_id":"6791691495","tag":{"amenity":"waste_basket"}},"type":"Feature"},
	{"geometry":{"coordinates":[7.24997,51.370933],"type":"Point"},"properties":{"osm_id":"6834393389","tag":{"amenity":"recycling","colour":"red","operator":"Deutsches Rotes Kreuz","recycling:clothes":"yes","recycling:shoes":"yes","recycling_type":"container"}},"type":"Feature"},
	{"geometry":{"coordinates":[7.244522,51.365559],"type":"Point"},"properties":{"osm_id":"7273075162","tag":{"amenity":"recycling","recycling:clothes":"yes","recycling:glass_bottles":"yes","recycling_type":"container"}},"type":"Feature"},
	{"geometry":{"coordinates":[7.291034,51.345086],"type":"Point"},"properties":{"osm_id":"7451435071","tag":{"amenity":"waste_basket","waste":"trash"}},"type":"Feature"},
	{"geometry":{"coordinates":[7.250973,51.351554],"type":"Point"},"properties":{"osm_id":"7451758313","tag":{"amenity":"waste_basket","waste":"trash"}},"type":"Feature"}
]
}
