{
"type": "FeatureCollection",
"features": [
	{"geometry":{"coordinates":[7.292959,51.290356],"type":"Point"},"properties":{"osm_id":"597290242","tag":{"amenity":"recycling","recycling:clothes":"yes","recycling:glass_bottles":"yes","recycling:paper":"yes","recycling_type":"container"}},"type":"Feature"},
	{"geometry":{"coordinates":[7.247794,51.312154],"type":"Point"},"properties":{"osm_id":"1179438592","tag":{"amenity":"recycling","material":"metal","operator":"Abfallwirtschaftsgesellschaft Wuppertal","operator:short":"AWG","operator:wikidata":"Q23787400","recycling:cardboard":"yes","recycling:clothes":"yes","recycling:paper":"yes","recycling:small_electrical_appliances":"yes","recycling_type":"container"}},"type":"Feature"},
	{"geometry":{"coordinates":[7.287149,51.322703],"type":"Point"},"properties":{"osm_id":"1237076169","tag":{"amenity":"recycling","recycling:clothes":"yes","recycling:glass_bottles":"yes","recycling_type":"container"}},"type":"Feature"},
	{"geometry":{"coordinates":[7.289189,51.312116],"type":"Point"},"properties":{"osm_id":"1264861769","tag":{"amenity":"recycling","operator":"AHE","recycling:paper":"yes","recycling_type":"container"}},"type":"Feature"},
	{"geometry":{"coordinates":[7.275346,51.334657],"type":"Point"},"properties":{"osm_id":"1380170884","tag":{"amenity":"recycling","recycling:glass_bottles":"yes","recycling_type":"container"}},"type":"Feature"},
	{"geometry":{"coordinates":[7.28866,51.294993],"type":"Point"},"properties":{"osm_id":"1382109710","tag":{"amenity":"recycling","recycling:glass_bottles":"yes","recycling:paper":"yes","recycling_type":"container"}},"type":"Feature"},
	{"geometry":{"coordinates":[7.286175,51.293684],"type":"Point"},"properties":{"osm_id":"1396393984","tag":{"amenity":"recycling","recycling:glass_bottles":"yes","recycling:paper":"yes","recycling_type":"container"}},"type":"Feature"},
	{"geometry":{"coordinates":[7.283582,51.335691],"type":"Point"},"properties":{"osm_id":"1432906919","tag":{"amenity":"recycling","recycling:clothes":"yes","recycling:glass_bottles":"yes","recycling_type":"container"}},"type":"Feature"},
	{"geometry":{"coordinates":[7.278556,51.290471],"type":"Point"},"properties":{"osm_id":"1512725335","tag":{"amenity":"recycling","recycling:glass_bottles":"yes","recycling:paper":"yes","recycling_type":"container"}},"type":"Feature"},
	{"geometry":{"coordinates":[7.287067,51.289668],"type":"Point"},"properties":{"osm_id":"1527021368","tag":{"amenity":"recycling","recycling:glass_bottles":"yes","recycling:paper":"yes","recycling_type":"container"}},"type":"Feature"},
	{"geometry":{"coordinates":[7.211436,51.295314],"type":"Point"},"properties":{"osm_id":"1542952757","tag":{"addr:city":"Wuppertal","addr:postcode":"42279","addr:street":"Schellenbecker Stra\u00c3\u009fe","amenity":"recycling","operator":"AWG","recycling:books":"yes","recycling:cardboard":"yes","recycling:cartons":"yes","recycling:clothes":"yes","recycling:glass_bottles":"yes","recycling:magazines":"yes","recycling:newspaper":"yes","recycling:paper":"yes","recycling:shoes":"yes","recycling:small_electrical_appliances":"yes","recycling_type":"container"}},"type":"Feature"},
	{"geometry":{"coordinates":[7.266718,51.32945],"type":"Point"},"properties":{"osm_id":"1603516234","tag":{"amenity":"recycling","operator":"AHE","recycling:glass_bottles":"yes","recycling_type":"container"}},"type":"Feature"},
	{"geometry":{"coordinates":[7.279248,51.331834],"type":"Point"},"properties":{"osm_id":"1645592835","tag":{"amenity":"recycling","recycling:glass_bottles":"yes","recycling:paper":"yes","recycling_type":"container"}},"type":"Feature"},
	{"geometry":{"coordinates":[7.240266,51.289874],"type":"Point"},"properties":{"osm_id":"1648803657","tag":{"amenity":"recycling","operator":"AWG","recycling:cardboard":"yes","recycling:cartons":"yes","recycling:glass_bottles":"yes","recycling:magazines":"yes","recycling:newspaper":"yes","recycling:paper":"yes","recycling:paper_packaging":"yes","recycling_type":"container"}},"type":"Feature"},
	{"geometry":{"coordinates":[7.216242,51.297749],"type":"Point"},"properties":{"osm_id":"1720775520","tag":{"addr:city":"Wuppertal","addr:postcode":"42279","addr:street":"Gennebrecker Stra\u00c3\u009fe","amenity":"recycling","operator":"AWG","recycling:books":"yes","recycling:cardboard":"yes","recycling:cartons":"yes","recycling:clothes":"yes","recycling:glass_bottles":"yes","recycling:magazines":"yes","recycling:newspaper":"yes","recycling:paper":"yes","recycling:shoes":"yes","recycling:small_electrical_appliances":"yes","recycling_type":"container"}},"type":"Feature"},
	{"geometry":{"coordinates":[7.216627,51.293398],"type":"Point"},"properties":{"osm_id":"1724930532","tag":{"amenity":"recycling","operator":"AWG","recycling:books":"yes","recycling:cardboard":"yes","recycling:cartons":"yes","recycling:clothes":"yes","recycling:glass_bottles":"yes","recycling:magazines":"yes","recycling:newspaper":"yes","recycling:paper":"yes","recycling:shoes":"yes","recycling:small_electrical_appliances":"yes","recycling_type":"container"}},"type":"Feature"},
	{"geometry":{"coordinates":[7.23996,51.294842],"type":"Point"},"properties":{"osm_id":"1744339974","tag":{"amenity":"recycling","operator":"AWG","recycling:books":"yes","recycling:cardboard":"yes","recycling:cartons":"yes","recycling:clothes":"yes","recycling:glass_bottles":"yes","recycling:magazines":"yes","recycling:newspaper":"yes","recycling:paper":"yes","recycling:shoes":"yes","recycling:small_electrical_appliances":"yes","recycling_type":"container"}},"type":"Feature"},
	{"geometry":{"coordinates":[7.286733,51.333813],"type":"Point"},"properties":{"osm_id":"1771902646","tag":{"amenity":"recycling","recycling:clothes":"yes","recycling:glass_bottles":"yes","recycling:shoes":"yes","recycling_type":"container"}},"type":"Feature"},
	{"geometry":{"coordinates":[7.277243,51.317743],"type":"Point"},"properties":{"name":"Eektroger\u00c3\u00a4te-Sammelstelle","osm_id":"1771911175","tag":{"amenity":"recycling","recycling:electrical_appliances":"yes","recycling:small_appliances":"yes","recycling_type":"centre"}},"type":"Feature"},
	{"geometry":{"coordinates":[7.289389,51.290569],"type":"Point"},"properties":{"osm_id":"1771932167","tag":{"amenity":"waste_basket","covered":"yes"}},"type":"Feature"},
	{"geometry":{"coordinates":[7.292814,51.289902],"type":"Point"},"properties":{"osm_id":"1771940314","tag":{"amenity":"waste_basket"}},"type":"Feature"},
	{"geometry":{"coordinates":[7.292902,51.290075],"type":"Point"},"properties":{"osm_id":"1771940917","tag":{"amenity":"waste_basket"}},"type":"Feature"},
	{"geometry":{"coordinates":[7.292194,51.290098],"type":"Point"},"properties":{"osm_id":"1771941890","tag":{"amenity":"waste_basket"}},"type":"Feature"},
	{"geometry":{"coordinates":[7.292304,51.290565],"type":"Point"},"properties":{"osm_id":"1771942634","tag":{"amenity":"waste_basket"}},"type":"Feature"},
	{"geometry":{"coordinates":[7.285904,51.332677],"type":"Point"},"properties":{"osm_id":"1784585273","tag":{"amenity":"recycling","recycling:glass_bottles":"yes","recycling_type":"container"}},"type":"Feature"},
	{"geometry":{"coordinates":[7.249657,51.3145],"type":"Point"},"properties":{"osm_id":"1983039610","tag":{"addr:city":"Wuppertal","addr:postcode":"42279","addr:street":"Schmiedestra\u00c3\u009fe","amenity":"recycling","operator":"AWG","recycling:books":"yes","recycling:cardboard":"yes","recycling:cartons":"yes","recycling:clothes":"no","recycling:glass_bottles":"yes","recycling:magazines":"yes","recycling:newspaper":"yes","recycling:paper":"yes","recycling:shoes":"no","recycling:small_electrical_appliances":"yes","recycling_type":"container"}},"type":"Feature"},
	{"geometry":{"coordinates":[7.281015,51.328451],"type":"Point"},"properties":{"osm_id":"2155928065","tag":{"amenity":"recycling","recycling:clothes":"yes","recycling:glass_bottles":"yes","recycling_type":"container"}},"type":"Feature"},
	{"geometry":{"coordinates":[7.289423,51.290448],"type":"Point"},"properties":{"osm_id":"2363027662","tag":{"amenity":"waste_basket","covered":"yes"}},"type":"Feature"},
	{"geometry":{"coordinates":[7.276132,51.300054],"type":"Point"},"properties":{"osm_id":"2374546895","tag":{"amenity":"recycling","recycling:clothes":"yes","recycling_type":"container"}},"type":"Feature"},
	{"geometry":{"coordinates":[7.236109,51.291185],"type":"Point"},"properties":{"osm_id":"2400857333","tag":{"amenity":"recycling","operator":"AWG","recycling:cardboard":"yes","recycling:cartons":"yes","recycling:clothes":"yes","recycling:glass_bottles":"yes","recycling:magazines":"yes","recycling:newspaper":"yes","recycling:paper":"yes","recycling:paper_packaging":"yes","recycling:shoes":"yes","recycling:small_electrical_appliances":"yes","recycling_type":"container"}},"type":"Feature"},
	{"geometry":{"coordinates":[7.25177,51.303511],"type":"Point"},"properties":{"osm_id":"2562425236","tag":{"amenity":"recycling","operator":"AWG","recycling:books":"yes","recycling:cartons":"yes","recycling:glass_bottles":"yes","recycling:magazines":"yes","recycling:newspaper":"yes","recycling:paper":"yes","recycling:small_electrical_appliances":"yes","recycling_type":"container"}},"type":"Feature"},
	{"geometry":{"coordinates":[7.256922,51.31099],"type":"Point"},"properties":{"osm_id":"2635700786","tag":{"amenity":"recycling","operator":"AWG","recycling:cardboard":"yes","recycling:cartons":"yes","recycling:clothes":"yes","recycling:glass_bottles":"yes","recycling:magazines":"yes","recycling:newspaper":"yes","recycling:paper":"yes","recycling:paper_packaging":"yes","recycling:shoes":"yes","recycling_type":"container"}},"type":"Feature"},
	{"geometry":{"coordinates":[7.283706,51.336003],"type":"Point"},"properties":{"osm_id":"2758259405","tag":{"amenity":"waste_basket"}},"type":"Feature"},
	{"geometry":{"coordinates":[7.290472,51.289837],"type":"Point"},"properties":{"osm_id":"3075508579","tag":{"amenity":"waste_basket"}},"type":"Feature"},
	{"geometry":{"coordinates":[7.290507,51.289609],"type":"Point"},"properties":{"osm_id":"3075508580","tag":{"amenity":"waste_basket"}},"type":"Feature"},
	{"geometry":{"coordinates":[7.289827,51.289516],"type":"Point"},"properties":{"osm_id":"3075508581","tag":{"amenity":"waste_basket"}},"type":"Feature"},
	{"geometry":{"coordinates":[7.289785,51.289656],"type":"Point"},"properties":{"osm_id":"3075508582","tag":{"amenity":"waste_basket"}},"type":"Feature"},
	{"geometry":{"coordinates":[7.289804,51.28976],"type":"Point"},"properties":{"osm_id":"3075508583","tag":{"amenity":"waste_basket"}},"type":"Feature"},
	{"geometry":{"coordinates":[7.290156,51.289499],"type":"Point"},"properties":{"osm_id":"3087232013","tag":{"amenity":"waste_basket"}},"type":"Feature"},
	{"geometry":{"coordinates":[7.290307,51.28959],"type":"Point"},"properties":{"osm_id":"3087246907","tag":{"amenity":"waste_basket"}},"type":"Feature"},
	{"geometry":{"coordinates":[7.288883,51.289858],"type":"Point"},"properties":{"osm_id":"3214264355","tag":{"amenity":"waste_basket"}},"type":"Feature"},
	{"geometry":{"coordinates":[7.238055,51.297884],"type":"Point"},"properties":{"osm_id":"3239877104","tag":{"amenity":"recycling","operator":"AWG","recycling:clothes":"yes","recycling:glass_bottles":"no","recycling:paper":"no","recycling:small_electrical_appliances":"no","recycling_type":"container"}},"type":"Feature"},
	{"geometry":{"coordinates":[7.242653,51.293908],"type":"Point"},"properties":{"osm_id":"3508912206","tag":{"amenity":"waste_basket"}},"type":"Feature"},
	{"geometry":{"coordinates":[7.238067,51.297921],"type":"Point"},"properties":{"osm_id":"3773053218","tag":{"amenity":"waste_basket"}},"type":"Feature"},
	{"geometry":{"coordinates":[7.238401,51.297673],"type":"Point"},"properties":{"osm_id":"3773053219","tag":{"amenity":"recycling","operator":"AWG","recycling:clothes":"no","recycling:glass_bottles":"yes","recycling:paper":"yes","recycling:small_electrical_appliances":"yes","recycling_type":"container"}},"type":"Feature"},
	{"geometry":{"coordinates":[7.273058,51.317913],"type":"Point"},"properties":{"osm_id":"4072302546","tag":{"amenity":"waste_basket"}},"type":"Feature"},
	{"geometry":{"coordinates":[7.293248,51.290454],"type":"Point"},"properties":{"osm_id":"4317227763","tag":{"amenity":"waste_basket"}},"type":"Feature"},
	{"geometry":{"coordinates":[7.291836,51.290506],"type":"Point"},"properties":{"osm_id":"4318532336","tag":{"amenity":"waste_basket"}},"type":"Feature"},
	{"geometry":{"coordinates":[7.231731,51.293143],"type":"Point"},"properties":{"osm_id":"4452041486","tag":{"amenity":"recycling","operator":"Abfallwirtschaftsgesellschaft Wuppertal","recycling:cardboard":"yes","recycling:cartons":"yes","recycling:clothes":"yes","recycling:glass_bottles":"yes","recycling:magazines":"yes","recycling:newspaper":"yes","recycling:paper":"yes","recycling:shoes":"yes","recycling:small_electrical_appliances":"yes","recycling_type":"container"}},"type":"Feature"},
	{"geometry":{"coordinates":[7.287172,51.342327],"type":"Point"},"properties":{"osm_id":"4839773354","tag":{"amenity":"waste_basket"}},"type":"Feature"},
	{"geometry":{"coordinates":[7.287536,51.342679],"type":"Point"},"properties":{"osm_id":"4839779222","tag":{"amenity":"waste_basket"}},"type":"Feature"},
	{"geometry":{"coordinates":[7.237967,51.298082],"type":"Point"},"properties":{"osm_id":"5268137859","tag":{"amenity":"waste_basket"}},"type":"Feature"},
	{"geometry":{"coordinates":[7.289189,51.312129],"type":"Point"},"properties":{"osm_id":"5838132595","tag":{"amenity":"recycling","operator":"AHE","recycling:clothes":"yes","recycling_type":"container"}},"type":"Feature"},
	{"geometry":{"coordinates":[7.289205,51.312135],"type":"Point"},"properties":{"osm_id":"5838132596","tag":{"amenity":"recycling","operator":"AHE","recycling:glass_bottles":"yes","recycling_type":"container"}},"type":"Feature"},
	{"geometry":{"coordinates":[7.257347,51.321752],"type":"Point"},"properties":{"osm_id":"6017893948","tag":{"amenity":"recycling","recycling:clothes":"yes","recycling:glass_bottles":"yes","recycling_type":"container"}},"type":"Feature"},
	{"geometry":{"coordinates":[7.282283,51.33494],"type":"Point"},"properties":{"osm_id":"6376172592","tag":{"amenity":"waste_basket"}},"type":"Feature"},
	{"geometry":{"coordinates":[7.279901,51.33433],"type":"Point"},"properties":{"osm_id":"6376172594","tag":{"amenity":"waste_basket"}},"type":"Feature"},
	{"geometry":{"coordinates":[7.281304,51.334629],"type":"Point"},"properties":{"highway":"street_lamp","osm_id":"6376172599","tag":{"amenity":"waste_basket","support":"pole"}},"type":"Feature"},
	{"geometry":{"coordinates":[7.281968,51.334924],"type":"Point"},"properties":{"osm_id":"6376172603","tag":{"amenity":"waste_basket"}},"type":"Feature"},
	{"geometry":{"coordinates":[7.216296,51.301305],"type":"Point"},"properties":{"osm_id":"6381285745","tag":{"amenity":"recycling","check_date":"2019-04-03","operator":"Abfallwirtschaftsgesellschaft Wuppertal","operator:abbr":"AWG","recycling:clothes":"yes","recycling:glass_bottles":"yes","recycling:paper":"yes","recycling:small_electrical_appliances":"yes","recycling_type":"container"}},"type":"Feature"},
	{"geometry":{"coordinates":[7.276543,51.333346],"type":"Point"},"properties":{"osm_id":"6759768810","tag":{"amenity":"waste_basket","support":"pole"}},"type":"Feature"},
	{"geometry":{"coordinates":[7.266644,51.32942],"type":"Point"},"properties":{"osm_id":"6828619941","tag":{"amenity":"recycling","operator":"Deutsches Rotes Kreuz","recycling:clothes":"yes","recycling_type":"container"}},"type":"Feature"},
	{"geometry":{"coordinates":[7.254837,51.319381],"type":"Point"},"properties":{"osm_id":"7190933165","tag":{"amenity":"recycling","recycling:clothes":"yes","recycling:glass":"yes","recycling:glass_bottles":"yes","recycling_type":"container"}},"type":"Feature"},
	{"geometry":{"coordinates":[7.230014,51.334297],"type":"Point"},"properties":{"osm_id":"7280866709","tag":{"amenity":"recycling","recycling_type":"container"}},"type":"Feature"},
	{"geometry":{"coordinates":[7.242038,51.341276],"type":"Point"},"properties":{"osm_id":"7280866710","tag":{"amenity":"recycling","recycling:clothes":"yes","recycling_type":"container"}},"type":"Feature"},
	{"geometry":{"coordinates":[7.255658,51.329],"type":"Point"},"properties":{"osm_id":"7451587929","tag":{"amenity":"waste_basket","waste":"trash"}},"type":"Feature"},
	{"geometry":{"coordinates":[7.273829,51.334719],"type":"Point"},"properties":{"osm_id":"7451587931","tag":{"amenity":"waste_basket","waste":"trash"}},"type":"Feature"},
	{"geometry":{"coordinates":[7.278474,51.335805],"type":"Point"},"properties":{"osm_id":"7451587933","tag":{"amenity":"waste_basket","waste":"trash"}},"type":"Feature"},
	{"geometry":{"coordinates":[7.282484,51.336797],"type":"Point"},"properties":{"osm_id":"7451587934","tag":{"amenity":"waste_basket","waste":"trash"}},"type":"Feature"},
	{"geometry":{"coordinates":[7.285468,51.338546],"type":"Point"},"properties":{"osm_id":"7451587936","tag":{"amenity":"waste_basket","waste":"trash"}},"type":"Feature"},
	{"geometry":{"coordinates":[7.247867,51.312159],"type":"Point"},"properties":{"osm_id":"7479270115","tag":{"amenity":"recycling","material":"metal","opening_hours":"Mo-Sa 07:00-20:00; Su,PH off","operator":"Abfallwirtschaftsgesellschaft Wuppertal","operator:short":"AWG","operator:wikidata":"Q23787400","recycling:glass_bottles":"yes","recycling_type":"container"}},"type":"Feature"}
]
}
