{
"type": "FeatureCollection",
"features": [
	{"geometry":{"coordinates":[7.231789,51.176875],"type":"Point"},"properties":{"osm_id":"599575710","tag":{"amenity":"recycling","recycling:books":"yes","recycling:cardboard":"yes","recycling:cartons":"yes","recycling:glass":"yes","recycling:glass_bottles":"yes","recycling:magazines":"yes","recycling:newspaper":"yes","recycling:paper":"yes","recycling:paper_packaging":"yes","recycling_type":"container"}},"type":"Feature"},
	{"geometry":{"coordinates":[7.2651,51.156507],"type":"Point"},"properties":{"osm_id":"945690278","tag":{"amenity":"recycling","material":"metal","recycling:cardboard":"yes","recycling:paper":"yes","recycling_type":"container"}},"type":"Feature"},
	{"geometry":{"coordinates":[7.265076,51.160485],"type":"Point"},"properties":{"osm_id":"945690284","tag":{"amenity":"recycling","material":"metal","operator":"Technische Betriebe Remscheid","operator:short":"TBR","recycling:cardboard":"yes","recycling:clothes":"yes","recycling:paper":"yes","recycling:shoes":"yes","recycling_type":"container"}},"type":"Feature"},
	{"geometry":{"coordinates":[7.266555,51.154198],"type":"Point"},"properties":{"osm_id":"945690285","tag":{"amenity":"recycling","location":"overground","recycling:clothes":"yes","recycling:glass":"yes","recycling:paper":"yes","recycling_type":"container"}},"type":"Feature"},
	{"geometry":{"coordinates":[7.267857,51.152788],"type":"Point"},"properties":{"osm_id":"1107616243","tag":{"amenity":"recycling","recycling:glass":"yes"}},"type":"Feature"},
	{"geometry":{"coordinates":[7.228758,51.15831],"type":"Point"},"properties":{"osm_id":"1233813429","tag":{"amenity":"waste_basket"}},"type":"Feature"},
	{"geometry":{"coordinates":[7.228374,51.157993],"type":"Point"},"properties":{"osm_id":"1233813485","tag":{"amenity":"waste_basket"}},"type":"Feature"},
	{"geometry":{"coordinates":[7.228976,51.158516],"type":"Point"},"properties":{"osm_id":"1233813557","tag":{"amenity":"waste_basket"}},"type":"Feature"},
	{"geometry":{"coordinates":[7.228136,51.157986],"type":"Point"},"properties":{"osm_id":"1233813659","tag":{"amenity":"waste_basket"}},"type":"Feature"},
	{"geometry":{"coordinates":[7.212621,51.138432],"type":"Point"},"properties":{"osm_id":"1324239045","tag":{"amenity":"waste_basket"}},"type":"Feature"},
	{"geometry":{"coordinates":[7.212981,51.13863],"type":"Point"},"properties":{"osm_id":"1324239047","tag":{"amenity":"waste_basket","source:position":"Bing Aerial Map"}},"type":"Feature"},
	{"geometry":{"coordinates":[7.213399,51.138993],"type":"Point"},"properties":{"osm_id":"1324308241","tag":{"amenity":"waste_basket"}},"type":"Feature"},
	{"geometry":{"coordinates":[7.222825,51.167187],"type":"Point"},"properties":{"osm_id":"1445042725","tag":{"amenity":"recycling","material":"metal","recycling:books":"yes","recycling:cardboard":"yes","recycling:cartons":"yes","recycling:magazines":"yes","recycling:newspaper":"yes","recycling:paper":"yes","recycling:paper_packaging":"yes","recycling_type":"container"}},"type":"Feature"},
	{"geometry":{"coordinates":[7.212725,51.167988],"type":"Point"},"properties":{"osm_id":"1445048927","ref":"Lempstra\u00c3\u009fe Ecke Falkenbergerstra\u00c3\u009fe","tag":{"amenity":"recycling","recycling:glass_bottles":"yes","recycling:paper":"yes","recycling_type":"container"}},"type":"Feature"},
	{"geometry":{"coordinates":[7.23899,51.125373],"type":"Point"},"properties":{"osm_id":"1509997937","tag":{"amenity":"recycling","recycling:glass":"yes","recycling_type":"container"}},"type":"Feature"},
	{"geometry":{"coordinates":[7.220202,51.143959],"type":"Point"},"properties":{"osm_id":"1616260328","tag":{"amenity":"recycling","recycling:clothes":"yes","recycling_type":"container"}},"type":"Feature"},
	{"geometry":{"coordinates":[7.211091,51.172997],"type":"Point"},"properties":{"osm_id":"1737208730","tag":{"amenity":"recycling","material":"metal","operator":"Technische Betriebe Remscheid","recycling:cardboard":"yes","recycling:paper":"yes","recycling_type":"container"}},"type":"Feature"},
	{"geometry":{"coordinates":[7.21724,51.141283],"type":"Point"},"properties":{"osm_id":"1838370052","tag":{"amenity":"recycling","recycling:clothes":"yes","recycling_type":"container"}},"type":"Feature"},
	{"geometry":{"coordinates":[7.212207,51.141099],"type":"Point"},"properties":{"osm_id":"2263424850","tag":{"amenity":"waste_basket"}},"type":"Feature"},
	{"geometry":{"coordinates":[7.21226,51.14118],"type":"Point"},"properties":{"osm_id":"2263424866","tag":{"amenity":"waste_basket"}},"type":"Feature"},
	{"geometry":{"coordinates":[7.212527,51.141524],"type":"Point"},"properties":{"osm_id":"2263424882","tag":{"amenity":"waste_basket"}},"type":"Feature"},
	{"geometry":{"coordinates":[7.21257,51.141568],"type":"Point"},"properties":{"osm_id":"2263424885","tag":{"amenity":"waste_basket"}},"type":"Feature"},
	{"geometry":{"coordinates":[7.212642,51.141645],"type":"Point"},"properties":{"osm_id":"2263424893","tag":{"amenity":"waste_basket"}},"type":"Feature"},
	{"geometry":{"coordinates":[7.213044,51.141678],"type":"Point"},"properties":{"osm_id":"2263424900","tag":{"amenity":"waste_basket"}},"type":"Feature"},
	{"geometry":{"coordinates":[7.213327,51.142224],"type":"Point"},"properties":{"osm_id":"2263424936","tag":{"amenity":"waste_basket"}},"type":"Feature"},
	{"geometry":{"coordinates":[7.21337,51.142256],"type":"Point"},"properties":{"osm_id":"2263424937","tag":{"amenity":"waste_basket"}},"type":"Feature"},
	{"geometry":{"coordinates":[7.213448,51.142323],"type":"Point"},"properties":{"osm_id":"2263424941","tag":{"amenity":"waste_basket"}},"type":"Feature"},
	{"geometry":{"coordinates":[7.216532,51.140066],"type":"Point"},"properties":{"osm_id":"3059690834","tag":{"amenity":"waste_basket"}},"type":"Feature"},
	{"geometry":{"coordinates":[7.26399,51.125447],"type":"Point"},"properties":{"osm_id":"3162972336","tag":{"amenity":"waste_basket"}},"type":"Feature"},
	{"geometry":{"coordinates":[7.260986,51.127798],"type":"Point"},"properties":{"osm_id":"3162972339","tag":{"amenity":"waste_basket"}},"type":"Feature"},
	{"geometry":{"coordinates":[7.216541,51.17483],"type":"Point"},"properties":{"osm_id":"3176885065","tag":{"amenity":"recycling","operator":"ReSales Textilhandels- und Erfassung GmbH","recycling:clothes":"yes","recycling:shoes":"yes","recycling_type":"container"}},"type":"Feature"},
	{"geometry":{"coordinates":[7.216524,51.174843],"type":"Point"},"properties":{"osm_id":"3176885066","tag":{"amenity":"recycling","operator":"ReSales Textilhandels- und Erfassung GmbH","recycling:clothes":"yes","recycling:shoes":"yes","recycling_type":"container"}},"type":"Feature"},
	{"geometry":{"coordinates":[7.216847,51.175147],"type":"Point"},"properties":{"osm_id":"3176885067","tag":{"amenity":"recycling","operator":"AWISTA LOGISTIK","recycling:glass":"yes","recycling_type":"container"}},"type":"Feature"},
	{"geometry":{"coordinates":[7.21688,51.175158],"type":"Point"},"properties":{"osm_id":"3176885068","tag":{"amenity":"recycling","operator":"AWISTA LOGISTIK","recycling:glass":"yes","recycling_type":"container"}},"type":"Feature"},
	{"geometry":{"coordinates":[7.216913,51.175168],"type":"Point"},"properties":{"osm_id":"3176885069","tag":{"amenity":"recycling","operator":"Technische Betriebe Remscheid","recycling:cardboard":"yes","recycling:paper":"yes","recycling_type":"container"}},"type":"Feature"},
	{"geometry":{"coordinates":[7.216857,51.175173],"type":"Point"},"properties":{"osm_id":"3176885070","tag":{"amenity":"recycling","operator":"AWISTA LOGISTIK","recycling:glass":"yes","recycling_type":"container"}},"type":"Feature"},
	{"geometry":{"coordinates":[7.216945,51.175178],"type":"Point"},"properties":{"osm_id":"3176885071","tag":{"amenity":"recycling","recycling:cardboard":"yes","recycling:paper":"yes","recycling_type":"container"}},"type":"Feature"},
	{"geometry":{"coordinates":[7.216884,51.175183],"type":"Point"},"properties":{"osm_id":"3176885072","tag":{"amenity":"recycling","operator":"Technische Betriebe Remscheid","recycling:cardboard":"yes","recycling:paper":"yes","recycling_type":"container"}},"type":"Feature"},
	{"geometry":{"coordinates":[7.216978,51.175189],"type":"Point"},"properties":{"osm_id":"3176885073","tag":{"amenity":"recycling","operator":"Technische Betriebe Remscheid","recycling:clothes":"yes","recycling:shoes":"yes","recycling_type":"container"}},"type":"Feature"},
	{"geometry":{"coordinates":[7.216911,51.175193],"type":"Point"},"properties":{"osm_id":"3176885074","tag":{"amenity":"recycling","operator":"Technische Betriebe Remscheid","recycling:cardboard":"yes","recycling:paper":"yes","recycling_type":"container"}},"type":"Feature"},
	{"geometry":{"coordinates":[7.217011,51.175199],"type":"Point"},"properties":{"osm_id":"3176885075","tag":{"amenity":"recycling","operator":"Technische Betriebe Remscheid","recycling:clothes":"yes","recycling:shoes":"yes","recycling_type":"container"}},"type":"Feature"},
	{"geometry":{"coordinates":[7.208442,51.173293],"type":"Point"},"properties":{"osm_id":"3177234266","tag":{"amenity":"recycling","material":"metal","operator":"Technische Betriebe Remscheid","recycling:cardboard":"yes","recycling:paper":"yes","recycling_type":"container"}},"type":"Feature"},
	{"geometry":{"coordinates":[7.208465,51.173295],"type":"Point"},"properties":{"osm_id":"3177234267","tag":{"amenity":"recycling","material":"metal","operator":"Technische Betriebe Remscheid","recycling:cardboard":"yes","recycling:paper":"yes","recycling_type":"container"}},"type":"Feature"},
	{"geometry":{"coordinates":[7.208488,51.173297],"type":"Point"},"properties":{"osm_id":"3177234268","tag":{"amenity":"recycling","material":"metal","operator":"Technische Betriebe Remscheid","recycling:cardboard":"yes","recycling:paper":"yes","recycling_type":"container"}},"type":"Feature"},
	{"geometry":{"coordinates":[7.208511,51.1733],"type":"Point"},"properties":{"osm_id":"3177234269","tag":{"amenity":"recycling","material":"metal","opening_hours":"Mo-Sa 07:00-20:00; Su,PH off","operator":"AWISTA LOGISTIK","recycling:glass_bottles":"yes","recycling_type":"container"}},"type":"Feature"},
	{"geometry":{"coordinates":[7.208533,51.173303],"type":"Point"},"properties":{"osm_id":"3177234270","tag":{"amenity":"recycling","material":"metal","opening_hours":"Mo-Sa 07:00-20:00; Su,PH off","operator":"AWISTA LOGISTIK","recycling:glass_bottles":"yes","recycling_type":"container"}},"type":"Feature"},
	{"geometry":{"coordinates":[7.208555,51.173305],"type":"Point"},"properties":{"osm_id":"3177234271","tag":{"amenity":"recycling","material":"metal","opening_hours":"Mo-Sa 07:00-20:00; Su,PH off","operator":"AWISTA LOGISTIK","recycling:glass_bottles":"yes","recycling_type":"container"}},"type":"Feature"},
	{"geometry":{"coordinates":[7.208578,51.173307],"type":"Point"},"properties":{"osm_id":"3177234272","tag":{"amenity":"recycling","material":"metal","opening_hours":"Mo-Sa 07:00-20:00; Su,PH off","operator":"AWISTA LOGISTIK","recycling:glass_bottles":"yes","recycling_type":"container"}},"type":"Feature"},
	{"geometry":{"coordinates":[7.22121,51.17569],"type":"Point"},"properties":{"osm_id":"3356216672","tag":{"amenity":"recycling","recycling:cardboard":"yes","recycling:glass":"no","recycling:paper":"yes","recycling_type":"container"}},"type":"Feature"},
	{"geometry":{"coordinates":[7.221229,51.175698],"type":"Point"},"properties":{"osm_id":"3356216674","tag":{"amenity":"recycling","recycling:cardboard":"yes","recycling:glass":"no","recycling:paper":"yes","recycling_type":"container"}},"type":"Feature"},
	{"geometry":{"coordinates":[7.221248,51.175707],"type":"Point"},"properties":{"osm_id":"3356216676","tag":{"amenity":"recycling","recycling:cardboard":"yes","recycling:glass":"no","recycling:paper":"yes","recycling_type":"container"}},"type":"Feature"},
	{"geometry":{"coordinates":[7.221195,51.175714],"type":"Point"},"properties":{"osm_id":"3356216678","tag":{"amenity":"recycling","recycling:glass":"yes","recycling_type":"container"}},"type":"Feature"},
	{"geometry":{"coordinates":[7.221213,51.175722],"type":"Point"},"properties":{"osm_id":"3356216680","tag":{"amenity":"recycling","recycling:glass":"yes","recycling_type":"container"}},"type":"Feature"},
	{"geometry":{"coordinates":[7.22123,51.17573],"type":"Point"},"properties":{"osm_id":"3356216681","tag":{"amenity":"recycling","recycling:glass":"yes","recycling_type":"container"}},"type":"Feature"},
	{"geometry":{"coordinates":[7.222783,51.16712],"type":"Point"},"properties":{"osm_id":"3393983987","tag":{"amenity":"recycling","material":"metal","recycling:clothes":"yes","recycling:shoes":"yes","recycling_type":"container"}},"type":"Feature"},
	{"geometry":{"coordinates":[7.222825,51.167145],"type":"Point"},"properties":{"osm_id":"3393983988","tag":{"amenity":"recycling","material":"metal","opening_hours":"Mo-Sa 07:00-20:00; Su,PH off","recycling:glass_bottles":"yes","recycling_type":"container"}},"type":"Feature"},
	{"geometry":{"coordinates":[7.216204,51.140004],"type":"Point"},"properties":{"osm_id":"4296900790","tag":{"amenity":"waste_disposal"}},"type":"Feature"},
	{"geometry":{"coordinates":[7.216338,51.140102],"type":"Point"},"properties":{"osm_id":"4296900791","tag":{"amenity":"waste_disposal"}},"type":"Feature"},
	{"geometry":{"coordinates":[7.266569,51.158355],"type":"Point"},"properties":{"osm_id":"5586559455","tag":{"amenity":"waste_basket"}},"type":"Feature"},
	{"geometry":{"coordinates":[7.208248,51.173363],"type":"Point"},"properties":{"osm_id":"6476377432","tag":{"amenity":"waste_basket","material":"metal"}},"type":"Feature"},
	{"geometry":{"coordinates":[7.258285,51.148009],"type":"Point"},"properties":{"barrier":"gate","osm_id":"6587095433","tag":{"access":"customers"}},"type":"Feature"},
	{"geometry":{"coordinates":[7.21277,51.138523],"type":"Point"},"properties":{"osm_id":"7040242397","tag":{"amenity":"waste_basket"}},"type":"Feature"},
	{"geometry":{"coordinates":[7.216794,51.140138],"type":"Point"},"properties":{"osm_id":"7101331140","tag":{"amenity":"waste_basket"}},"type":"Feature"},
	{"geometry":{"coordinates":[7.211328,51.141012],"type":"Point"},"properties":{"osm_id":"7210821484","tag":{"amenity":"recycling","opening_hours":"Mo-Fr 07:00-20:00; 09:00-17:00; PH closed","recycling:glass_bottles":"yes","recycling_type":"container"}},"type":"Feature"},
	{"geometry":{"coordinates":[7.218467,51.127332],"type":"Point"},"properties":{"osm_id":"7273810422","tag":{"amenity":"waste_basket"}},"type":"Feature"},
	{"geometry":{"coordinates":[7.216342,51.129021],"type":"Point"},"properties":{"osm_id":"7341217970","tag":{"amenity":"waste_basket"}},"type":"Feature"},
	{"geometry":{"coordinates":[7.216243,51.138161],"type":"Point"},"properties":{"osm_id":"7359720251","tag":{"amenity":"waste_basket"}},"type":"Feature"},
	{"geometry":{"coordinates":[7.217054,51.143975],"type":"Point"},"properties":{"osm_id":"7511369675","tag":{"amenity":"recycling","recycling:clothes":"yes","recycling:shoes":"yes","recycling_type":"container"}},"type":"Feature"},
	{"geometry":{"coordinates":[7.217091,51.143965],"type":"Point"},"properties":{"osm_id":"7511369676","tag":{"amenity":"recycling","recycling:glass":"yes","recycling:glass_bottles":"yes","recycling_type":"container"}},"type":"Feature"},
	{"geometry":{"coordinates":[7.217073,51.14397],"type":"Point"},"properties":{"osm_id":"7511369677","tag":{"amenity":"recycling","recycling:glass":"yes","recycling:glass_bottles":"yes","recycling_type":"container"}},"type":"Feature"},
	{"geometry":{"coordinates":[7.217037,51.143981],"type":"Point"},"properties":{"osm_id":"7511369678","tag":{"amenity":"recycling","recycling:glass":"yes","recycling:glass_bottles":"yes","recycling_type":"container"}},"type":"Feature"},
	{"geometry":{"coordinates":[7.255056,51.146859],"type":"Point"},"properties":{"osm_id":"7511379829","tag":{"amenity":"recycling","recycling:glass":"yes","recycling:glass_bottles":"yes","recycling_type":"container"}},"type":"Feature"},
	{"geometry":{"coordinates":[7.255076,51.146865],"type":"Point"},"properties":{"osm_id":"7511379830","tag":{"amenity":"recycling","recycling:glass":"yes","recycling:glass_bottles":"yes","recycling_type":"container"}},"type":"Feature"},
	{"geometry":{"coordinates":[7.255097,51.14687],"type":"Point"},"properties":{"osm_id":"7511379831","tag":{"amenity":"recycling","recycling:glass":"yes","recycling:glass_bottles":"yes","recycling_type":"container"}},"type":"Feature"},
	{"geometry":{"coordinates":[7.255117,51.146877],"type":"Point"},"properties":{"osm_id":"7511379832","tag":{"amenity":"recycling","recycling:glass":"yes","recycling:glass_bottles":"yes","recycling_type":"container"}},"type":"Feature"},
	{"geometry":{"coordinates":[7.225285,51.177884],"type":"Point"},"properties":{"osm_id":"7623537592","tag":{"amenity":"recycling","material":"metal","recycling:cardboard":"yes","recycling:paper":"yes","recycling_type":"container"}},"type":"Feature"},
	{"geometry":{"coordinates":[7.225336,51.177893],"type":"Point"},"properties":{"osm_id":"7623537593","tag":{"amenity":"recycling","material":"metal","opening_hours":"Mo-Sa 07:00-20:00; Su,PH off","recycling:glass_bottles":"yes","recycling_type":"container"}},"type":"Feature"},
	{"geometry":{"coordinates":[7.265058,51.156424],"type":"Point"},"properties":{"osm_id":"7623903205","tag":{"amenity":"recycling","material":"metal","recycling:clothes":"yes","recycling:shoes":"yes","recycling_type":"container"}},"type":"Feature"},
	{"geometry":{"coordinates":[7.265078,51.156459],"type":"Point"},"properties":{"osm_id":"7623903206","tag":{"amenity":"recycling","material":"metal","opening_hours":"Mo-Sa 07:00-20:00; Su,PH off","recycling:glass_bottles":"yes","recycling_type":"container"}},"type":"Feature"},
	{"geometry":{"coordinates":[7.265086,51.160428],"type":"Point"},"properties":{"osm_id":"7623903207","tag":{"amenity":"recycling","material":"metal","opening_hours":"Mo-Sa 07:00-20:00; Su,PH off","operator":"Technische Betriebe Remscheid","operator:short":"TBR","recycling:glass_bottles":"yes","recycling_type":"container"}},"type":"Feature"}
]
}
