{
"type": "FeatureCollection",
"features": [
	{"geometry":{"coordinates":[7.236538,50.919498],"type":"Point"},"properties":{"osm_id":"440913666","tag":{"amenity":"recycling","mapillary":"6_dVxgpVKT5XKyTVAqA7bg","recycling_type":"container","survey:date":"2018-08-02"}},"type":"Feature"},
	{"geometry":{"coordinates":[7.273396,50.939148],"type":"Point"},"properties":{"osm_id":"520753923","tag":{"amenity":"waste_basket"}},"type":"Feature"},
	{"geometry":{"coordinates":[7.276209,50.943097],"type":"Point"},"properties":{"osm_id":"717637779","tag":{"amenity":"waste_basket"}},"type":"Feature"},
	{"geometry":{"coordinates":[7.287411,50.928457],"type":"Point"},"properties":{"osm_id":"732093365","tag":{"amenity":"waste_basket"}},"type":"Feature"},
	{"geometry":{"coordinates":[7.2848,50.936122],"type":"Point"},"properties":{"osm_id":"740899001","tag":{"amenity":"recycling","contact:phone":"+49 800 4444229","contact:website":"http://www.revea.de/","description":"Altglascontainer, 3 St\u00c3\u00bcck (braun, gr\u00c3\u00bcn, wei\u00c3\u009f)","operator":"REVEA","recycling:glass_bottles":"yes","recycling_type":"container"}},"type":"Feature"},
	{"geometry":{"coordinates":[7.267381,50.945022],"type":"Point"},"properties":{"osm_id":"746659081","tag":{"amenity":"waste_basket"}},"type":"Feature"},
	{"geometry":{"coordinates":[7.281496,50.938903],"type":"Point"},"properties":{"osm_id":"747250931","tag":{"amenity":"waste_basket"}},"type":"Feature"},
	{"geometry":{"coordinates":[7.266163,50.945549],"type":"Point"},"properties":{"osm_id":"761539701","tag":{"amenity":"waste_basket"}},"type":"Feature"},
	{"geometry":{"coordinates":[7.287445,50.909638],"type":"Point"},"properties":{"osm_id":"1305138742","tag":{"amenity":"recycling","recycling:glass":"yes"}},"type":"Feature"},
	{"geometry":{"coordinates":[7.254919,50.93895],"type":"Point"},"properties":{"osm_id":"1414370483","tag":{"amenity":"recycling","operator":"Bergische Wertstoff-Sammel-GmbH","recycling:glass":"yes","recycling_type":"container"}},"type":"Feature"},
	{"geometry":{"coordinates":[7.286138,50.933695],"type":"Point"},"properties":{"osm_id":"1473626654","tag":{"amenity":"recycling","description":"Altglascontainer, 2 St\u00c3\u00bcck (wei\u00c3\u009f, gr\u00c3\u00bcn, braun)","recycling:glass_bottles":"yes","recycling_type":"container"}},"type":"Feature"},
	{"geometry":{"coordinates":[7.277509,50.933709],"type":"Point"},"properties":{"osm_id":"1473626662","tag":{"amenity":"recycling","recycling:clothes":"yes","recycling_type":"container"}},"type":"Feature"},
	{"geometry":{"coordinates":[7.25606,50.93716],"type":"Point"},"properties":{"osm_id":"1749046829","tag":{"amenity":"recycling","recycling:clothes":"yes","recycling:glass":"yes","recycling:glass_bottles":"yes","recycling_type":"container"}},"type":"Feature"},
	{"geometry":{"coordinates":[7.288697,50.921577],"type":"Point"},"properties":{"osm_id":"1867044373","tag":{"amenity":"recycling","recycling:clothes":"yes","recycling:glass":"yes","recycling_type":"container"}},"type":"Feature"},
	{"geometry":{"coordinates":[7.284125,50.931847],"type":"Point"},"properties":{"osm_id":"1867044380","tag":{"amenity":"recycling","recycling:clothes":"yes","recycling_type":"container"}},"type":"Feature"},
	{"geometry":{"coordinates":[7.265055,50.913072],"type":"Point"},"properties":{"osm_id":"2476889682","tag":{"amenity":"recycling","recycling:glass":"yes"}},"type":"Feature"},
	{"geometry":{"coordinates":[7.263943,50.906262],"type":"Point"},"properties":{"osm_id":"2476890695","tag":{"amenity":"recycling","recycling:glass":"yes","recycling_type":"container"}},"type":"Feature"},
	{"geometry":{"coordinates":[7.212601,50.906476],"type":"Point"},"properties":{"osm_id":"2505132800","tag":{"amenity":"recycling","recycling_type":"container"}},"type":"Feature"},
	{"geometry":{"coordinates":[7.251489,50.910482],"type":"Point"},"properties":{"osm_id":"2561537926","tag":{"amenity":"recycling","recycling:clothes":"yes","recycling:glass_bottles":"yes","recycling_type":"container"}},"type":"Feature"},
	{"geometry":{"coordinates":[7.265327,50.935876],"type":"Point"},"properties":{"osm_id":"2638664231","tag":{"amenity":"waste_basket"}},"type":"Feature"},
	{"geometry":{"coordinates":[7.217332,50.949776],"type":"Point"},"properties":{"osm_id":"2660097693","tag":{"amenity":"recycling"}},"type":"Feature"},
	{"geometry":{"coordinates":[7.255164,50.907861],"type":"Point"},"properties":{"osm_id":"4611456581","tag":{"amenity":"recycling","recycling:glass_bottles":"yes","recycling_type":"container"}},"type":"Feature"},
	{"geometry":{"coordinates":[7.284472,50.937177],"type":"Point"},"properties":{"osm_id":"5460584000","tag":{"amenity":"waste_basket"}},"type":"Feature"},
	{"geometry":{"coordinates":[7.249928,50.932096],"type":"Point"},"properties":{"osm_id":"5517216468","tag":{"amenity":"waste_basket"}},"type":"Feature"},
	{"geometry":{"coordinates":[7.219108,50.928071],"type":"Point"},"properties":{"osm_id":"5517246686","tag":{"amenity":"waste_basket"}},"type":"Feature"},
	{"geometry":{"coordinates":[7.28484,50.936136],"type":"Point"},"properties":{"osm_id":"5519219532","tag":{"amenity":"recycling","contact:phone":"+49 2211 792565","contact:website":"https://www.bvse.de","description":"2 Altkleidercontainer.","operator":"bvse","recycling:clothes":"yes","recycling_type":"container"}},"type":"Feature"},
	{"geometry":{"coordinates":[7.284719,50.936184],"type":"Point"},"properties":{"osm_id":"5519219534","tag":{"amenity":"waste_basket"}},"type":"Feature"},
	{"geometry":{"coordinates":[7.284493,50.936375],"type":"Point"},"properties":{"osm_id":"5519219536","tag":{"amenity":"waste_basket"}},"type":"Feature"},
	{"geometry":{"coordinates":[7.284613,50.937411],"type":"Point"},"properties":{"osm_id":"5519274051","tag":{"amenity":"waste_basket"}},"type":"Feature"},
	{"geometry":{"coordinates":[7.284424,50.937538],"type":"Point"},"properties":{"osm_id":"5519274052","tag":{"amenity":"waste_basket"}},"type":"Feature"},
	{"geometry":{"coordinates":[7.281094,50.935473],"type":"Point"},"properties":{"osm_id":"5519366934","tag":{"amenity":"waste_basket"}},"type":"Feature"},
	{"geometry":{"coordinates":[7.284122,50.938029],"type":"Point"},"properties":{"osm_id":"5519535830","tag":{"amenity":"waste_basket"}},"type":"Feature"},
	{"geometry":{"coordinates":[7.285464,50.937157],"type":"Point"},"properties":{"osm_id":"5519535831","tag":{"amenity":"waste_basket"}},"type":"Feature"},
	{"geometry":{"coordinates":[7.283687,50.936174],"type":"Point"},"properties":{"osm_id":"5521617409","tag":{"amenity":"waste_basket"}},"type":"Feature"},
	{"geometry":{"coordinates":[7.283145,50.935949],"type":"Point"},"properties":{"osm_id":"5521617411","tag":{"amenity":"waste_basket"}},"type":"Feature"},
	{"geometry":{"coordinates":[7.283051,50.935354],"type":"Point"},"properties":{"osm_id":"5521617415","tag":{"amenity":"waste_basket"}},"type":"Feature"},
	{"geometry":{"coordinates":[7.283912,50.934216],"type":"Point"},"properties":{"osm_id":"5521617416","tag":{"amenity":"recycling","operator":"BAV","operator_1":"Bergische Abfallwirtschaftsverband","recycling:clothes":"yes","recycling_type":"container"}},"type":"Feature"},
	{"geometry":{"coordinates":[7.289206,50.928472],"type":"Point"},"properties":{"osm_id":"5660094728","tag":{"amenity":"waste_basket"}},"type":"Feature"},
	{"geometry":{"coordinates":[7.284482,50.92886],"type":"Point"},"properties":{"osm_id":"5660094729","tag":{"amenity":"waste_basket"}},"type":"Feature"},
	{"geometry":{"coordinates":[7.292874,50.930402],"type":"Point"},"properties":{"osm_id":"5680095221","tag":{"amenity":"waste_basket"}},"type":"Feature"},
	{"geometry":{"coordinates":[7.290504,50.932869],"type":"Point"},"properties":{"osm_id":"5680142443","tag":{"amenity":"recycling","description:de":"Altglascontainer (braun, gr\u00c3\u00bcn)","recycling:glass_bottles":"yes","recycling_type":"container"}},"type":"Feature"},
	{"geometry":{"coordinates":[7.290539,50.932833],"type":"Point"},"properties":{"osm_id":"5680142444","tag":{"amenity":"recycling","description:de":"Altglascontainer (wei\u00c3\u009f)","recycling:glass_bottles":"yes","recycling_type":"container"}},"type":"Feature"},
	{"geometry":{"coordinates":[7.290521,50.932851],"type":"Point"},"properties":{"osm_id":"5680142445","tag":{"amenity":"recycling","description:de":"2 Altkleidercontainer","operator":"bvse","recycling:clothes":"yes","recycling:shoes":"yes","recycling_type":"container"}},"type":"Feature"},
	{"geometry":{"coordinates":[7.290543,50.932865],"type":"Point"},"properties":{"osm_id":"5680142446","tag":{"amenity":"recycling","description:de":"Elektrokleinger\u00c3\u00a4te","operator":"bav","recycling:electrical_appliances":"yes","recycling_type":"container"}},"type":"Feature"},
	{"geometry":{"coordinates":[7.291394,50.934541],"type":"Point"},"properties":{"osm_id":"5686538740","tag":{"amenity":"recycling","description:de":"2 Altkleidercontainer","recycling:clothes":"yes","recycling:shoes":"yes","recycling_type":"container"}},"type":"Feature"},
	{"geometry":{"coordinates":[7.287995,50.932409],"type":"Point"},"properties":{"osm_id":"5721462011","tag":{"amenity":"waste_basket","layer":"1"}},"type":"Feature"},
	{"geometry":{"coordinates":[7.287665,50.932429],"type":"Point"},"properties":{"osm_id":"5721462012","tag":{"amenity":"waste_basket"}},"type":"Feature"},
	{"geometry":{"coordinates":[7.218346,50.946377],"type":"Point"},"properties":{"osm_id":"5822796409","tag":{"amenity":"recycling","recycling:clothes":"yes","recycling:glass_bottles":"yes","recycling_type":"container"}},"type":"Feature"},
	{"geometry":{"coordinates":[7.22771,50.937691],"type":"Point"},"properties":{"osm_id":"5832462411","tag":{"amenity":"recycling","recycling:glass":"yes","recycling_type":"container"}},"type":"Feature"},
	{"geometry":{"coordinates":[7.286097,50.933717],"type":"Point"},"properties":{"osm_id":"6168975826","tag":{"amenity":"recycling","description":"Altkleidercontainer","recycling:clothes":"yes","recycling_type":"container"}},"type":"Feature"},
	{"geometry":{"coordinates":[7.287514,50.932595],"type":"Point"},"properties":{"osm_id":"6169454344","tag":{"amenity":"waste_basket"}},"type":"Feature"},
	{"geometry":{"coordinates":[7.279351,50.933341],"type":"Point"},"properties":{"osm_id":"6169671346","tag":{"amenity":"waste_basket"}},"type":"Feature"},
	{"geometry":{"coordinates":[7.276258,50.918894],"type":"Point"},"properties":{"osm_id":"6184690112","tag":{"amenity":"waste_basket"}},"type":"Feature"},
	{"geometry":{"coordinates":[7.278588,50.918483],"type":"Point"},"properties":{"osm_id":"6184690113","tag":{"amenity":"waste_basket"}},"type":"Feature"},
	{"geometry":{"coordinates":[7.278034,50.921136],"type":"Point"},"properties":{"osm_id":"6184690117","tag":{"amenity":"waste_basket"}},"type":"Feature"},
	{"geometry":{"coordinates":[7.277534,50.923226],"type":"Point"},"properties":{"osm_id":"6184690119","tag":{"amenity":"waste_basket"}},"type":"Feature"},
	{"geometry":{"coordinates":[7.27671,50.924732],"type":"Point"},"properties":{"osm_id":"6184690121","tag":{"amenity":"waste_basket"}},"type":"Feature"},
	{"geometry":{"coordinates":[7.214183,50.921641],"type":"Point"},"properties":{"osm_id":"7518051085","tag":{"amenity":"waste_basket"}},"type":"Feature"},
	{"geometry":{"coordinates":[7.244463,50.940378],"type":"Point"},"properties":{"osm_id":"7778304739","tag":{"amenity":"recycling","operator":"Bergische Wertstoff-Sammel-GmbH","recycling:glass_bottles":"yes","recycling_type":"container"}},"type":"Feature"},
	{"geometry":{"coordinates":[7.283771,50.931387],"type":"Point"},"properties":{"osm_id":"7778377010","tag":{"amenity":"recycling","operator":"Bergische Wertstoff-Sammel-GmbH","recycling:glass_bottles":"yes","recycling_type":"container"}},"type":"Feature"},
	{"geometry":{"coordinates":[7.251538,50.910453],"type":"Point"},"properties":{"osm_id":"7928405846","tag":{"amenity":"recycling","recycling_type":"container"}},"type":"Feature"}
]
}
