{
"type": "FeatureCollection",
"features": [
	{"geometry":{"coordinates":[7.216737,50.843483],"type":"Point"},"properties":{"osm_id":"266338256","tag":{"amenity":"recycling","recycling:glass":"yes","recycling_type":"container"}},"type":"Feature"},
	{"geometry":{"coordinates":[7.225479,50.795556],"type":"Point"},"properties":{"osm_id":"271188069","tag":{"amenity":"recycling","recycling:glass":"yes"}},"type":"Feature"},
	{"geometry":{"coordinates":[7.224247,50.793387],"type":"Point"},"properties":{"osm_id":"271189699","tag":{"amenity":"recycling","location":"overground","recycling:clothes":"yes","recycling_type":"container"}},"type":"Feature"},
	{"geometry":{"coordinates":[7.224161,50.793366],"type":"Point"},"properties":{"osm_id":"271189700","tag":{"amenity":"recycling","location":"overground","recycling:glass":"no","recycling:glass_bottles":"yes","recycling_type":"container"}},"type":"Feature"},
	{"geometry":{"coordinates":[7.222635,50.808646],"type":"Point"},"properties":{"osm_id":"275630345","tag":{"amenity":"recycling","recycling:clothes":"yes","recycling:glass":"no"}},"type":"Feature"},
	{"geometry":{"coordinates":[7.236758,50.810981],"type":"Point"},"properties":{"osm_id":"275637486","tag":{"amenity":"recycling","recycling:clothes":"yes"}},"type":"Feature"},
	{"geometry":{"coordinates":[7.294499,50.844933],"type":"Point"},"properties":{"osm_id":"275637503","tag":{"amenity":"recycling","recycling:clothes":"yes"}},"type":"Feature"},
	{"geometry":{"coordinates":[7.217493,50.798429],"type":"Point"},"properties":{"osm_id":"303962429","tag":{"amenity":"recycling","recycling:clothes":"yes","recycling_type":"container"}},"type":"Feature"},
	{"geometry":{"coordinates":[7.237076,50.807071],"type":"Point"},"properties":{"osm_id":"308501173","tag":{"amenity":"recycling","location":"overground","recycling:clothes":"yes","recycling_type":"container"}},"type":"Feature"},
	{"geometry":{"coordinates":[7.236973,50.807071],"type":"Point"},"properties":{"osm_id":"308501255","tag":{"amenity":"recycling","location":"overground","recycling:glass":"yes","recycling_type":"container"}},"type":"Feature"},
	{"geometry":{"coordinates":[7.209467,50.809977],"type":"Point"},"properties":{"osm_id":"310998558","tag":{"amenity":"recycling","recycling:glass":"no","recycling:glass_bottles":"yes","recycling_type":"container"}},"type":"Feature"},
	{"geometry":{"coordinates":[7.28102,50.826807],"type":"Point"},"properties":{"osm_id":"316929047","tag":{"amenity":"recycling","recycling:clothes":"yes","recycling:glass":"yes","recycling_type":"container"}},"type":"Feature"},
	{"geometry":{"coordinates":[7.283805,50.818505],"type":"Point"},"properties":{"osm_id":"316929051","tag":{"amenity":"recycling","recycling:clothes":"yes","recycling:glass":"yes"}},"type":"Feature"},
	{"geometry":{"coordinates":[7.258721,50.799863],"type":"Point"},"properties":{"osm_id":"552679259","tag":{"amenity":"recycling","recycling:clothes":"yes"}},"type":"Feature"},
	{"geometry":{"coordinates":[7.210581,50.797109],"type":"Point"},"properties":{"osm_id":"675802366","tag":{"amenity":"waste_basket"}},"type":"Feature"},
	{"geometry":{"coordinates":[7.210782,50.796752],"type":"Point"},"properties":{"osm_id":"675804111","tag":{"amenity":"waste_basket"}},"type":"Feature"},
	{"geometry":{"coordinates":[7.210658,50.79668],"type":"Point"},"properties":{"osm_id":"675805076","tag":{"amenity":"waste_basket"}},"type":"Feature"},
	{"geometry":{"coordinates":[7.279679,50.796953],"type":"Point"},"properties":{"osm_id":"739361007","tag":{"amenity":"recycling","recycling:glass":"yes","recycling_type":"container"}},"type":"Feature"},
	{"geometry":{"coordinates":[7.221129,50.847206],"type":"Point"},"properties":{"osm_id":"847913033","tag":{"amenity":"recycling","recycling:glass_bottles":"yes","recycling_type":"container"}},"type":"Feature"},
	{"geometry":{"coordinates":[7.241882,50.802356],"type":"Point"},"properties":{"osm_id":"1359844649","tag":{"amenity":"recycling","recycling_type":"centre"}},"type":"Feature"},
	{"geometry":{"coordinates":[7.210529,50.796286],"type":"Point"},"properties":{"osm_id":"1798566441","tag":{"amenity":"waste_basket"}},"type":"Feature"},
	{"geometry":{"coordinates":[7.211181,50.796525],"type":"Point"},"properties":{"osm_id":"1798566557","tag":{"amenity":"waste_basket"}},"type":"Feature"},
	{"geometry":{"coordinates":[7.211032,50.796679],"type":"Point"},"properties":{"osm_id":"1798566683","tag":{"amenity":"waste_basket"}},"type":"Feature"},
	{"geometry":{"coordinates":[7.211599,50.794799],"type":"Point"},"properties":{"osm_id":"1799866738","tag":{"amenity":"waste_basket"}},"type":"Feature"},
	{"geometry":{"coordinates":[7.21092,50.794929],"type":"Point"},"properties":{"osm_id":"1799866769","tag":{"amenity":"waste_basket"}},"type":"Feature"},
	{"geometry":{"coordinates":[7.209426,50.796617],"type":"Point"},"properties":{"osm_id":"1800988400","tag":{"amenity":"waste_basket"}},"type":"Feature"},
	{"geometry":{"coordinates":[7.209125,50.796758],"type":"Point"},"properties":{"osm_id":"1800988421","tag":{"amenity":"waste_basket"}},"type":"Feature"},
	{"geometry":{"coordinates":[7.209231,50.796856],"type":"Point"},"properties":{"osm_id":"1800988441","tag":{"amenity":"waste_basket"}},"type":"Feature"},
	{"geometry":{"coordinates":[7.209814,50.796858],"type":"Point"},"properties":{"osm_id":"1800988443","tag":{"amenity":"waste_basket"}},"type":"Feature"},
	{"geometry":{"coordinates":[7.209901,50.797018],"type":"Point"},"properties":{"osm_id":"1800988482","tag":{"amenity":"waste_basket"}},"type":"Feature"},
	{"geometry":{"coordinates":[7.211042,50.797048],"type":"Point"},"properties":{"osm_id":"1800988489","tag":{"amenity":"waste_basket"}},"type":"Feature"},
	{"geometry":{"coordinates":[7.210864,50.797246],"type":"Point"},"properties":{"osm_id":"1800988515","tag":{"amenity":"waste_basket"}},"type":"Feature"},
	{"geometry":{"coordinates":[7.208155,50.797428],"type":"Point"},"properties":{"osm_id":"1800988523","tag":{"amenity":"waste_basket"}},"type":"Feature"},
	{"geometry":{"coordinates":[7.20812,50.797487],"type":"Point"},"properties":{"osm_id":"1800988528","tag":{"amenity":"waste_basket"}},"type":"Feature"},
	{"geometry":{"coordinates":[7.208751,50.797831],"type":"Point"},"properties":{"osm_id":"1800988566","tag":{"amenity":"waste_basket"}},"type":"Feature"},
	{"geometry":{"coordinates":[7.210185,50.798123],"type":"Point"},"properties":{"osm_id":"1808691889","tag":{"amenity":"waste_basket"}},"type":"Feature"},
	{"geometry":{"coordinates":[7.214745,50.797906],"type":"Point"},"properties":{"osm_id":"1814256707","tag":{"amenity":"waste_basket"}},"type":"Feature"},
	{"geometry":{"coordinates":[7.213889,50.798128],"type":"Point"},"properties":{"osm_id":"1814256785","tag":{"amenity":"waste_basket"}},"type":"Feature"},
	{"geometry":{"coordinates":[7.273915,50.800818],"type":"Point"},"properties":{"osm_id":"2206934972","tag":{"amenity":"waste_basket"}},"type":"Feature"},
	{"geometry":{"coordinates":[7.277828,50.802259],"type":"Point"},"properties":{"osm_id":"2206934977","tag":{"amenity":"waste_basket"}},"type":"Feature"},
	{"geometry":{"coordinates":[7.280484,50.804489],"type":"Point"},"properties":{"osm_id":"2206934979","tag":{"amenity":"waste_basket"}},"type":"Feature"},
	{"geometry":{"coordinates":[7.270277,50.804762],"type":"Point"},"properties":{"osm_id":"2206934981","tag":{"amenity":"waste_basket"}},"type":"Feature"},
	{"geometry":{"coordinates":[7.26341,50.812051],"type":"Point"},"properties":{"osm_id":"2206934983","tag":{"amenity":"waste_basket"}},"type":"Feature"},
	{"geometry":{"coordinates":[7.274423,50.810895],"type":"Point"},"properties":{"osm_id":"2212890918","tag":{"amenity":"waste_basket"}},"type":"Feature"},
	{"geometry":{"coordinates":[7.278654,50.802352],"type":"Point"},"properties":{"osm_id":"2224886111","tag":{"amenity":"waste_basket"}},"type":"Feature"},
	{"geometry":{"coordinates":[7.207853,50.842573],"type":"Point"},"properties":{"osm_id":"2267236881","tag":{"amenity":"recycling","recycling:glass_bottles":"yes","recycling_type":"container"}},"type":"Feature"},
	{"geometry":{"coordinates":[7.26163,50.804147],"type":"Point"},"properties":{"osm_id":"3369039377","tag":{"amenity":"waste_basket"}},"type":"Feature"},
	{"geometry":{"coordinates":[7.261136,50.804225],"type":"Point"},"properties":{"osm_id":"3369039378","tag":{"amenity":"waste_basket"}},"type":"Feature"},
	{"geometry":{"coordinates":[7.219915,50.809779],"type":"Point"},"properties":{"osm_id":"3671465736","tag":{"amenity":"waste_disposal"}},"type":"Feature"},
	{"geometry":{"coordinates":[7.258193,50.81392],"type":"Point"},"properties":{"osm_id":"4200555261","tag":{"amenity":"waste_basket"}},"type":"Feature"},
	{"geometry":{"coordinates":[7.217517,50.798414],"type":"Point"},"properties":{"osm_id":"5661193349","tag":{"amenity":"recycling","recycling:glass_bottles":"yes","recycling_type":"container","wheelchair":"yes"}},"type":"Feature"},
	{"geometry":{"coordinates":[7.217498,50.798407],"type":"Point"},"properties":{"osm_id":"5661193350","tag":{"amenity":"recycling","recycling:glass_bottles":"yes","recycling_type":"container","wheelchair":"yes"}},"type":"Feature"},
	{"geometry":{"coordinates":[7.207878,50.842595],"type":"Point"},"properties":{"osm_id":"5807740221","tag":{"amenity":"recycling","recycling:glass_bottles":"yes","recycling_type":"container"}},"type":"Feature"},
	{"geometry":{"coordinates":[7.275654,50.794905],"type":"Point"},"properties":{"osm_id":"5940657182","tag":{"amenity":"waste_basket","waste":"trash"}},"type":"Feature"},
	{"geometry":{"coordinates":[7.246193,50.808001],"type":"Point"},"properties":{"osm_id":"5966562926","tag":{"access":"private","amenity":"waste_disposal","waste":"trash"}},"type":"Feature"},
	{"geometry":{"coordinates":[7.247613,50.808263],"type":"Point"},"properties":{"osm_id":"5971293945","tag":{"access":"private","amenity":"waste_disposal","waste":"trash"}},"type":"Feature"},
	{"geometry":{"coordinates":[7.24979,50.809247],"type":"Point"},"properties":{"osm_id":"5984796757","tag":{"amenity":"recycling","recycling:glass_bottles":"yes","recycling_type":"container"}},"type":"Feature"},
	{"geometry":{"coordinates":[7.249758,50.809247],"type":"Point"},"properties":{"osm_id":"5984796758","tag":{"amenity":"recycling","recycling:glass_bottles":"yes","recycling_type":"container"}},"type":"Feature"},
	{"geometry":{"coordinates":[7.249701,50.809247],"type":"Point"},"properties":{"osm_id":"5984796759","tag":{"amenity":"recycling","recycling:clothes":"yes","recycling:shoes":"yes","recycling_type":"container"}},"type":"Feature"},
	{"geometry":{"coordinates":[7.209449,50.809991],"type":"Point"},"properties":{"osm_id":"6039100439","tag":{"amenity":"recycling","recycling:clothes":"yes","recycling:shoes":"yes","recycling_type":"container"}},"type":"Feature"},
	{"geometry":{"coordinates":[7.209457,50.809963],"type":"Point"},"properties":{"osm_id":"6039100440","tag":{"amenity":"recycling","recycling:glass":"no","recycling:glass_bottles":"yes","recycling_type":"container"}},"type":"Feature"},
	{"geometry":{"coordinates":[7.209449,50.809951],"type":"Point"},"properties":{"osm_id":"6039124551","tag":{"amenity":"recycling","recycling:glass":"no","recycling:glass_bottles":"yes","recycling_type":"container"}},"type":"Feature"},
	{"geometry":{"coordinates":[7.213885,50.808009],"type":"Point"},"properties":{"osm_id":"6084553086","tag":{"access":"private","amenity":"waste_disposal","waste":"trash"}},"type":"Feature"},
	{"geometry":{"coordinates":[7.214664,50.807823],"type":"Point"},"properties":{"osm_id":"6085754985","tag":{"amenity":"recycling","recycling:clothes":"yes","recycling:shoes":"yes","recycling_type":"container"}},"type":"Feature"},
	{"geometry":{"coordinates":[7.214689,50.807842],"type":"Point"},"properties":{"osm_id":"6085754986","tag":{"amenity":"recycling","recycling:glass_bottles":"yes","recycling_type":"container"}},"type":"Feature"},
	{"geometry":{"coordinates":[7.214667,50.807844],"type":"Point"},"properties":{"osm_id":"6085754987","tag":{"amenity":"recycling","recycling:glass_bottles":"yes","recycling_type":"container"}},"type":"Feature"},
	{"geometry":{"coordinates":[7.210569,50.803533],"type":"Point"},"properties":{"osm_id":"6778919725","tag":{"amenity":"recycling","recycling:glass_bottles":"yes","recycling_type":"container"}},"type":"Feature"},
	{"geometry":{"coordinates":[7.279369,50.799194],"type":"Point"},"properties":{"osm_id":"7553416961","tag":{"amenity":"waste_basket"}},"type":"Feature"},
	{"geometry":{"coordinates":[7.2801,50.798033],"type":"Point"},"properties":{"osm_id":"7553416966","tag":{"amenity":"waste_basket"}},"type":"Feature"},
	{"geometry":{"coordinates":[7.280312,50.798048],"type":"Point"},"properties":{"osm_id":"7553416967","tag":{"amenity":"waste_basket"}},"type":"Feature"},
	{"geometry":{"coordinates":[7.294916,50.847398],"type":"Point"},"properties":{"osm_id":"7555814297","tag":{"amenity":"waste_basket"}},"type":"Feature"},
	{"geometry":{"coordinates":[7.27987,50.8343],"type":"Point"},"properties":{"osm_id":"7555814298","tag":{"amenity":"waste_basket"}},"type":"Feature"},
	{"geometry":{"coordinates":[7.285738,50.834384],"type":"Point"},"properties":{"osm_id":"7555814299","tag":{"amenity":"waste_basket"}},"type":"Feature"},
	{"geometry":{"coordinates":[7.288041,50.84084],"type":"Point"},"properties":{"osm_id":"7555876594","tag":{"amenity":"waste_basket"}},"type":"Feature"},
	{"geometry":{"coordinates":[7.288229,50.841632],"type":"Point"},"properties":{"osm_id":"7555876600","tag":{"amenity":"waste_basket"}},"type":"Feature"},
	{"geometry":{"coordinates":[7.280846,50.805235],"type":"Point"},"properties":{"osm_id":"7578077748","tag":{"amenity":"waste_basket"}},"type":"Feature"},
	{"geometry":{"coordinates":[7.283955,50.805179],"type":"Point"},"properties":{"osm_id":"7578101996","tag":{"amenity":"waste_basket"}},"type":"Feature"},
	{"geometry":{"coordinates":[7.284695,50.804336],"type":"Point"},"properties":{"osm_id":"7578104842","tag":{"amenity":"waste_basket"}},"type":"Feature"},
	{"geometry":{"coordinates":[7.283144,50.806125],"type":"Point"},"properties":{"osm_id":"7578112834","tag":{"amenity":"waste_basket"}},"type":"Feature"},
	{"geometry":{"coordinates":[7.285518,50.803426],"type":"Point"},"properties":{"osm_id":"7578115934","tag":{"amenity":"waste_basket"}},"type":"Feature"},
	{"geometry":{"coordinates":[7.282389,50.80606],"type":"Point"},"properties":{"osm_id":"7579736987","tag":{"amenity":"waste_basket"}},"type":"Feature"},
	{"geometry":{"coordinates":[7.282502,50.806015],"type":"Point"},"properties":{"osm_id":"7579746777","tag":{"amenity":"waste_basket"}},"type":"Feature"},
	{"geometry":{"coordinates":[7.281401,50.805522],"type":"Point"},"properties":{"osm_id":"7579748048","tag":{"amenity":"waste_basket"}},"type":"Feature"}
]
}
