{
"type": "FeatureCollection",
"features": [
	{"geometry":{"coordinates":[7.22477,50.783611],"type":"Point"},"properties":{"osm_id":"263925939","tag":{"amenity":"recycling","recycling:clothes":"yes","recycling_type":"container"}},"type":"Feature"},
	{"geometry":{"coordinates":[7.294625,50.770859],"type":"Point"},"properties":{"osm_id":"263966710","tag":{"amenity":"recycling","check_date:recycling":"2021-01-26","location":"overground","operator":"Baliz Textilwerke","recycling:clothes":"yes","recycling_type":"container"}},"type":"Feature"},
	{"geometry":{"coordinates":[7.209479,50.790736],"type":"Point"},"properties":{"osm_id":"282255414","tag":{"amenity":"recycling","mapillary":"l0BdrsESzaWenUOL3tddkg","recycling:clothes":"yes","recycling_type":"container","survey:date":"2018-10-04"}},"type":"Feature"},
	{"geometry":{"coordinates":[7.233189,50.783425],"type":"Point"},"properties":{"osm_id":"300710159","ref":"Oberdorfstra\u00c3\u009fe/Markt","tag":{"amenity":"recycling","contact:phone":"+49 800 1223255","containers":"6","operator":"RSAG;Remondis","recycling:glass_bottles":"yes","recycling:glass_bottles:colour":"white;green;brown","recycling_type":"container"}},"type":"Feature"},
	{"geometry":{"coordinates":[7.218046,50.788622],"type":"Point"},"properties":{"osm_id":"310990921","tag":{"amenity":"recycling","recycling:clothes":"yes"}},"type":"Feature"},
	{"geometry":{"coordinates":[7.212865,50.764779],"type":"Point"},"properties":{"osm_id":"373201504","ref":"Bussardstra\u00c3\u009fe/Am Jeuchel","tag":{"amenity":"recycling","contact:phone":"+49 800 1223255","containers":"2","operator":"RSAG;Remondis","recycling:glass_bottles":"yes","recycling:glass_bottles:colour":"white;green;brown","recycling_type":"container"}},"type":"Feature"},
	{"geometry":{"coordinates":[7.219604,50.754277],"type":"Point"},"properties":{"osm_id":"446766566","tag":{"amenity":"recycling","recycling:clothes":"yes","recycling_type":"container"}},"type":"Feature"},
	{"geometry":{"coordinates":[7.266681,50.746358],"type":"Point"},"properties":{"osm_id":"722794650","tag":{"amenity":"recycling","recycling:glass":"yes","recycling_type":"container"}},"type":"Feature"},
	{"geometry":{"coordinates":[7.213507,50.778482],"type":"Point"},"properties":{"osm_id":"727584794","ref":"Alte Marktstra\u00c3\u009fe","tag":{"amenity":"recycling","contact:phone":"+49 800 1223255","containers":"3","opening_hours":"Mo-Sa 07:00-12:30,14:30-19:00","operator":"RSAG;Remondis","recycling:glass_bottles":"yes","recycling:glass_bottles:colour":"white;green;brown","recycling_type":"container"}},"type":"Feature"},
	{"geometry":{"coordinates":[7.273499,50.748579],"type":"Point"},"properties":{"osm_id":"732960690","tag":{"amenity":"recycling","recycling_type":"container"}},"type":"Feature"},
	{"geometry":{"coordinates":[7.22129,50.747728],"type":"Point"},"properties":{"osm_id":"736977242","ref":"M\u00c3\u00bchlenweg/Schlo\u00c3\u009fstra\u00c3\u009fe","tag":{"amenity":"recycling","contact:phone":"+49 800 1223255","containers":"2","operator":"RSAG;Remondis","recycling:glass_bottles":"yes","recycling:glass_bottles:colour":"white;green;brown","recycling_type":"container"}},"type":"Feature"},
	{"geometry":{"coordinates":[7.225964,50.75123],"type":"Point"},"properties":{"osm_id":"736977254","ref":"Dambroicher Weg/H\u00c3\u00b6ldersteg","tag":{"amenity":"recycling","contact:phone":"+49 800 1223255","containers":"2","operator":"RSAG;Remondis","recycling:glass_bottles":"yes","recycling:glass_bottles:colour":"white;green;brown","recycling_type":"container"}},"type":"Feature"},
	{"geometry":{"coordinates":[7.214651,50.774942],"type":"Point"},"properties":{"osm_id":"736977261","ref":"Martinuskirchstra\u00c3\u009fe/Gemeinde-Wohnheim","tag":{"amenity":"recycling","contact:phone":"+49 800 1223255","containers":"2","opening_hours":"Mo-Sa 07:00-12:30,14:30-19:00","operator":"RSAG;Remondis","recycling:glass_bottles":"yes","recycling:glass_bottles:colour":"white;green;brown","recycling_type":"container"}},"type":"Feature"},
	{"geometry":{"coordinates":[7.227205,50.772885],"type":"Point"},"properties":{"osm_id":"822317207","ref":"Deponie/RSAG","tag":{"amenity":"recycling","contact:phone":"+49 800 1223255","containers":"2","operator":"RSAG;Remondis","recycling:glass_bottles":"yes","recycling:glass_bottles:colour":"white;green;brown","recycling_type":"container"}},"type":"Feature"},
	{"geometry":{"coordinates":[7.231246,50.783154],"type":"Point"},"properties":{"osm_id":"823813654","ref":"Rosenweg/Im Rosengarten","tag":{"amenity":"recycling","contact:phone":"+49 800 1223255","containers":"2","operator":"RSAG;Remondis","recycling:glass_bottles":"yes","recycling:glass_bottles:colour":"white;green;brown","recycling_type":"container"}},"type":"Feature"},
	{"geometry":{"coordinates":[7.268535,50.772669],"type":"Point"},"properties":{"osm_id":"847189050","tag":{"amenity":"recycling","recycling:glass":"yes","recycling_type":"container"}},"type":"Feature"},
	{"geometry":{"coordinates":[7.282069,50.750137],"type":"Point"},"properties":{"osm_id":"847904987","tag":{"amenity":"recycling"}},"type":"Feature"},
	{"geometry":{"coordinates":[7.286297,50.770062],"type":"Point"},"properties":{"osm_id":"965470732","tag":{"amenity":"recycling","recycling:clothes":"yes","recycling:glass":"yes","recycling_type":"container","wheelchair":"limited"}},"type":"Feature"},
	{"geometry":{"coordinates":[7.286173,50.773265],"type":"Point"},"properties":{"osm_id":"1449626252","tag":{"amenity":"recycling","recycling:clothes":"yes","recycling:glass":"yes","recycling:paper":"no","recycling_type":"container"}},"type":"Feature"},
	{"geometry":{"coordinates":[7.251629,50.759023],"type":"Point"},"properties":{"osm_id":"1763634476","tag":{"amenity":"waste_basket"}},"type":"Feature"},
	{"geometry":{"coordinates":[7.280938,50.769782],"type":"Point"},"properties":{"osm_id":"1905559990","tag":{"amenity":"recycling","recycling:glass":"yes","recycling_type":"container"}},"type":"Feature"},
	{"geometry":{"coordinates":[7.278455,50.77013],"type":"Point"},"properties":{"osm_id":"1905559991","tag":{"amenity":"waste_basket"}},"type":"Feature"},
	{"geometry":{"coordinates":[7.291117,50.775797],"type":"Point"},"properties":{"osm_id":"1907480557","tag":{"amenity":"waste_basket"}},"type":"Feature"},
	{"geometry":{"coordinates":[7.285583,50.777601],"type":"Point"},"properties":{"osm_id":"1907480568","tag":{"amenity":"waste_basket"}},"type":"Feature"},
	{"geometry":{"coordinates":[7.257216,50.783708],"type":"Point"},"properties":{"osm_id":"1907480634","tag":{"amenity":"recycling","recycling:clothes":"yes","recycling:glass":"yes","recycling:paper":"no","recycling_type":"container"}},"type":"Feature"},
	{"geometry":{"coordinates":[7.248509,50.765471],"type":"Point"},"properties":{"osm_id":"2481566860","tag":{"amenity":"waste_basket"}},"type":"Feature"},
	{"geometry":{"coordinates":[7.249067,50.765915],"type":"Point"},"properties":{"osm_id":"2481566866","tag":{"amenity":"waste_basket"}},"type":"Feature"},
	{"geometry":{"coordinates":[7.274425,50.770994],"type":"Point"},"properties":{"osm_id":"2754675987","tag":{"amenity":"waste_basket"}},"type":"Feature"},
	{"geometry":{"coordinates":[7.284303,50.775305],"type":"Point"},"properties":{"osm_id":"3301258471","tag":{"amenity":"waste_basket","waste":"trash"}},"type":"Feature"},
	{"geometry":{"coordinates":[7.276384,50.770348],"type":"Point"},"properties":{"osm_id":"3468347738","tag":{"amenity":"waste_basket"}},"type":"Feature"},
	{"geometry":{"coordinates":[7.252061,50.767179],"type":"Point"},"properties":{"osm_id":"3524291888","tag":{"amenity":"waste_basket"}},"type":"Feature"},
	{"geometry":{"coordinates":[7.293273,50.7718],"type":"Point"},"properties":{"osm_id":"3761511160","tag":{"amenity":"waste_basket","check_date":"2021-01-30"}},"type":"Feature"},
	{"geometry":{"coordinates":[7.286615,50.774132],"type":"Point"},"properties":{"osm_id":"3766163706","tag":{"amenity":"waste_basket"}},"type":"Feature"},
	{"geometry":{"coordinates":[7.286548,50.774232],"type":"Point"},"properties":{"osm_id":"3766163710","tag":{"amenity":"waste_basket"}},"type":"Feature"},
	{"geometry":{"coordinates":[7.285055,50.775987],"type":"Point"},"properties":{"osm_id":"3769730122","tag":{"amenity":"waste_basket"}},"type":"Feature"},
	{"geometry":{"coordinates":[7.285702,50.775999],"type":"Point"},"properties":{"osm_id":"3769730125","tag":{"amenity":"waste_basket"}},"type":"Feature"},
	{"geometry":{"coordinates":[7.253307,50.767917],"type":"Point"},"properties":{"osm_id":"3784621568","tag":{"amenity":"waste_basket"}},"type":"Feature"},
	{"geometry":{"coordinates":[7.284232,50.775159],"type":"Point"},"properties":{"osm_id":"3819140973","tag":{"amenity":"waste_basket"}},"type":"Feature"},
	{"geometry":{"coordinates":[7.27563,50.769979],"type":"Point"},"properties":{"osm_id":"3820640301","tag":{"amenity":"waste_basket"}},"type":"Feature"},
	{"geometry":{"coordinates":[7.276015,50.770257],"type":"Point"},"properties":{"osm_id":"3820640321","tag":{"amenity":"waste_basket"}},"type":"Feature"},
	{"geometry":{"coordinates":[7.275483,50.770628],"type":"Point"},"properties":{"osm_id":"3820640336","tag":{"amenity":"waste_basket"}},"type":"Feature"},
	{"geometry":{"coordinates":[7.275781,50.770677],"type":"Point"},"properties":{"osm_id":"3820640346","tag":{"amenity":"waste_basket"}},"type":"Feature"},
	{"geometry":{"coordinates":[7.275685,50.770722],"type":"Point"},"properties":{"osm_id":"3820640460","tag":{"amenity":"waste_basket"}},"type":"Feature"},
	{"geometry":{"coordinates":[7.274579,50.770358],"type":"Point"},"properties":{"osm_id":"3826472968","tag":{"amenity":"waste_basket"}},"type":"Feature"},
	{"geometry":{"coordinates":[7.274527,50.770499],"type":"Point"},"properties":{"osm_id":"3826472971","tag":{"amenity":"waste_basket"}},"type":"Feature"},
	{"geometry":{"coordinates":[7.274791,50.770504],"type":"Point"},"properties":{"osm_id":"3826472973","tag":{"amenity":"waste_basket"}},"type":"Feature"},
	{"geometry":{"coordinates":[7.27424,50.770901],"type":"Point"},"properties":{"osm_id":"3826472987","tag":{"amenity":"waste_basket"}},"type":"Feature"},
	{"geometry":{"coordinates":[7.28252,50.773177],"type":"Point"},"properties":{"osm_id":"3870840571","tag":{"amenity":"waste_basket"}},"type":"Feature"},
	{"geometry":{"coordinates":[7.28244,50.773186],"type":"Point"},"properties":{"osm_id":"3870840572","tag":{"amenity":"waste_basket"}},"type":"Feature"},
	{"geometry":{"coordinates":[7.28013,50.774062],"type":"Point"},"properties":{"osm_id":"4049016446","tag":{"amenity":"waste_basket"}},"type":"Feature"},
	{"geometry":{"coordinates":[7.29213,50.772382],"type":"Point"},"properties":{"osm_id":"4063782266","tag":{"amenity":"waste_basket","check_date":"2021-01-30"}},"type":"Feature"},
	{"geometry":{"coordinates":[7.288673,50.773494],"type":"Point"},"properties":{"osm_id":"4063782292","tag":{"amenity":"waste_basket"}},"type":"Feature"},
	{"geometry":{"coordinates":[7.288032,50.77374],"type":"Point"},"properties":{"osm_id":"4063782293","tag":{"amenity":"waste_basket"}},"type":"Feature"},
	{"geometry":{"coordinates":[7.28736,50.773984],"type":"Point"},"properties":{"osm_id":"4063782295","tag":{"amenity":"waste_basket"}},"type":"Feature"},
	{"geometry":{"coordinates":[7.286938,50.774145],"type":"Point"},"properties":{"osm_id":"4063782296","tag":{"amenity":"waste_basket"}},"type":"Feature"},
	{"geometry":{"coordinates":[7.284739,50.774564],"type":"Point"},"properties":{"osm_id":"4063782300","tag":{"amenity":"waste_basket"}},"type":"Feature"},
	{"geometry":{"coordinates":[7.284625,50.774602],"type":"Point"},"properties":{"osm_id":"4063782302","tag":{"amenity":"waste_basket"}},"type":"Feature"},
	{"geometry":{"coordinates":[7.284134,50.774719],"type":"Point"},"properties":{"osm_id":"4063782304","tag":{"amenity":"waste_basket"}},"type":"Feature"},
	{"geometry":{"coordinates":[7.283947,50.774787],"type":"Point"},"properties":{"osm_id":"4063782307","tag":{"amenity":"waste_basket"}},"type":"Feature"},
	{"geometry":{"coordinates":[7.283737,50.774862],"type":"Point"},"properties":{"osm_id":"4063782308","tag":{"amenity":"waste_basket"}},"type":"Feature"},
	{"geometry":{"coordinates":[7.22666,50.780883],"type":"Point"},"properties":{"osm_id":"4066838195","ref":"Buisdorfer Stra\u00c3\u009fe/Buschberg","tag":{"amenity":"recycling","contact:phone":"+49 800 1223255","containers":"2","operator":"RSAG;Remondis","recycling:glass_bottles":"yes","recycling:glass_bottles:colour":"white;green;brown","recycling_type":"container"}},"type":"Feature"},
	{"geometry":{"coordinates":[7.285556,50.77312],"type":"Point"},"properties":{"osm_id":"4187956915","tag":{"amenity":"waste_basket","mapillary":"-osY5y6Ykgty2BU5hGmxzw"}},"type":"Feature"},
	{"geometry":{"coordinates":[7.285239,50.773163],"type":"Point"},"properties":{"osm_id":"4187956916","tag":{"amenity":"waste_basket","mapillary":"uUOWq5M8mMsy8lLm56eEew"}},"type":"Feature"},
	{"geometry":{"coordinates":[7.284859,50.773193],"type":"Point"},"properties":{"osm_id":"4187956917","tag":{"amenity":"waste_basket"}},"type":"Feature"},
	{"geometry":{"coordinates":[7.284679,50.773243],"type":"Point"},"properties":{"osm_id":"4187956919","tag":{"amenity":"waste_basket","mapillary":"BCTzKG7NyEZEUqKleb5vJg"}},"type":"Feature"},
	{"geometry":{"coordinates":[7.284398,50.77328],"type":"Point"},"properties":{"osm_id":"4187956920","tag":{"amenity":"waste_basket","mapillary":"_qqEoAz-iGKjCXHBwqn3SA"}},"type":"Feature"},
	{"geometry":{"coordinates":[7.283969,50.773347],"type":"Point"},"properties":{"osm_id":"4187956921","tag":{"amenity":"waste_basket"}},"type":"Feature"},
	{"geometry":{"coordinates":[7.284591,50.773389],"type":"Point"},"properties":{"osm_id":"4187956922","tag":{"amenity":"waste_basket","mapillary":"yJ_GYesVBh780n3Bkpa0pQ"}},"type":"Feature"},
	{"geometry":{"coordinates":[7.283596,50.773532],"type":"Point"},"properties":{"osm_id":"4187956924","tag":{"amenity":"waste_basket","mapillary":"S5_jHYJ9BWWfoFeDJLGrKA"}},"type":"Feature"},
	{"geometry":{"coordinates":[7.281123,50.764343],"type":"Point"},"properties":{"osm_id":"4516643002","tag":{"amenity":"waste_basket"}},"type":"Feature"},
	{"geometry":{"coordinates":[7.28058,50.764733],"type":"Point"},"properties":{"osm_id":"4516650259","tag":{"amenity":"waste_basket"}},"type":"Feature"},
	{"geometry":{"coordinates":[7.276782,50.776622],"type":"Point"},"properties":{"osm_id":"4592816548","tag":{"amenity":"waste_basket","check_date":"2021-03-17"}},"type":"Feature"},
	{"geometry":{"coordinates":[7.276388,50.777],"type":"Point"},"properties":{"osm_id":"4592816549","tag":{"amenity":"waste_basket","check_date":"2021-03-17"}},"type":"Feature"},
	{"geometry":{"coordinates":[7.274645,50.777761],"type":"Point"},"properties":{"osm_id":"4592816556","tag":{"amenity":"waste_basket"}},"type":"Feature"},
	{"geometry":{"coordinates":[7.273992,50.779218],"type":"Point"},"properties":{"osm_id":"4592816557","tag":{"amenity":"waste_basket","check_date":"2021-03-24"}},"type":"Feature"},
	{"geometry":{"coordinates":[7.213472,50.778459],"type":"Point"},"properties":{"osm_id":"4826296595","tag":{"amenity":"waste_basket"}},"type":"Feature"},
	{"geometry":{"coordinates":[7.214616,50.774941],"type":"Point"},"properties":{"osm_id":"4826296596","tag":{"amenity":"waste_basket"}},"type":"Feature"},
	{"geometry":{"coordinates":[7.294471,50.78375],"type":"Point"},"properties":{"osm_id":"5571380022","tag":{"amenity":"recycling","recycling_type":"container"}},"type":"Feature"},
	{"geometry":{"coordinates":[7.284878,50.769542],"type":"Point"},"properties":{"osm_id":"6055033294","tag":{"amenity":"recycling","operator":"Bethel","recycling:clothes":"yes","recycling_type":"container"}},"type":"Feature"},
	{"geometry":{"coordinates":[7.282251,50.774494],"type":"Point"},"properties":{"osm_id":"6088765905","tag":{"amenity":"recycling","recycling:glass":"yes","recycling_type":"container","wheelchair":"yes"}},"type":"Feature"},
	{"geometry":{"coordinates":[7.291892,50.772296],"type":"Point"},"properties":{"osm_id":"6171624167","tag":{"amenity":"waste_basket"}},"type":"Feature"},
	{"geometry":{"coordinates":[7.28845,50.737333],"type":"Point"},"properties":{"osm_id":"6173039572","tag":{"amenity":"waste_basket"}},"type":"Feature"},
	{"geometry":{"coordinates":[7.289242,50.772438],"type":"Point"},"properties":{"osm_id":"6221969949","tag":{"amenity":"recycling","recycling:glass":"yes","recycling_type":"container","wheelchair":"yes"}},"type":"Feature"},
	{"geometry":{"coordinates":[7.285476,50.76986],"type":"Point"},"properties":{"osm_id":"6291497577","tag":{"amenity":"waste_basket","waste":"trash"}},"type":"Feature"},
	{"geometry":{"coordinates":[7.218999,50.785937],"type":"Point"},"properties":{"osm_id":"6312203477","tag":{"access":"private","amenity":"waste_disposal","waste":"trash"}},"type":"Feature"},
	{"geometry":{"coordinates":[7.218981,50.785943],"type":"Point"},"properties":{"osm_id":"6312203478","tag":{"access":"private","amenity":"waste_disposal","waste":"trash"}},"type":"Feature"},
	{"geometry":{"coordinates":[7.217754,50.785557],"type":"Point"},"properties":{"osm_id":"6312602929","tag":{"access":"private","amenity":"waste_disposal","waste":"trash"}},"type":"Feature"},
	{"geometry":{"coordinates":[7.218036,50.785978],"type":"Point"},"properties":{"osm_id":"6320776177","tag":{"amenity":"recycling","recycling:glass_bottles":"yes","recycling_type":"container","wheelchair":"yes"}},"type":"Feature"},
	{"geometry":{"coordinates":[7.218055,50.785973],"type":"Point"},"properties":{"osm_id":"6320776178","tag":{"amenity":"recycling","recycling:glass_bottles":"yes","recycling_type":"container","wheelchair":"yes"}},"type":"Feature"},
	{"geometry":{"coordinates":[7.218073,50.785968],"type":"Point"},"properties":{"osm_id":"6320776179","tag":{"amenity":"recycling","recycling:glass_bottles":"yes","recycling_type":"container","wheelchair":"yes"}},"type":"Feature"},
	{"geometry":{"coordinates":[7.219694,50.787129],"type":"Point"},"properties":{"osm_id":"6320861705","tag":{"access":"private","amenity":"waste_disposal","waste":"trash"}},"type":"Feature"},
	{"geometry":{"coordinates":[7.218112,50.785956],"type":"Point"},"properties":{"osm_id":"6321287400","tag":{"amenity":"recycling","recycling:clothes":"yes","recycling:shoes":"yes","recycling_type":"container"}},"type":"Feature"},
	{"geometry":{"coordinates":[7.215623,50.787279],"type":"Point"},"properties":{"osm_id":"6325274792","tag":{"access":"private","amenity":"waste_disposal","waste":"trash"}},"type":"Feature"},
	{"geometry":{"coordinates":[7.217993,50.787889],"type":"Point"},"properties":{"osm_id":"6330966608","tag":{"access":"private","amenity":"waste_disposal","waste":"trash"}},"type":"Feature"},
	{"geometry":{"coordinates":[7.217046,50.788006],"type":"Point"},"properties":{"osm_id":"6333191047","tag":{"amenity":"waste_disposal","waste":"trash"}},"type":"Feature"},
	{"geometry":{"coordinates":[7.216932,50.787834],"type":"Point"},"properties":{"osm_id":"6333191048","tag":{"amenity":"waste_disposal","waste":"trash"}},"type":"Feature"},
	{"geometry":{"coordinates":[7.219292,50.787193],"type":"Point"},"properties":{"osm_id":"6335373731","tag":{"access":"private","amenity":"waste_disposal","waste":"trash"}},"type":"Feature"},
	{"geometry":{"coordinates":[7.220552,50.786823],"type":"Point"},"properties":{"osm_id":"6335442206","tag":{"amenity":"waste_disposal","waste":"trash"}},"type":"Feature"},
	{"geometry":{"coordinates":[7.22052,50.786935],"type":"Point"},"properties":{"osm_id":"6335442207","tag":{"amenity":"waste_disposal","waste":"trash"}},"type":"Feature"},
	{"geometry":{"coordinates":[7.220238,50.786008],"type":"Point"},"properties":{"osm_id":"6335711258","tag":{"amenity":"waste_disposal","waste":"trash"}},"type":"Feature"},
	{"geometry":{"coordinates":[7.218856,50.787269],"type":"Point"},"properties":{"osm_id":"6335742162","tag":{"access":"private","amenity":"waste_disposal","waste":"trash"}},"type":"Feature"},
	{"geometry":{"coordinates":[7.220141,50.787458],"type":"Point"},"properties":{"osm_id":"6335801840","tag":{"amenity":"waste_disposal","waste":"trash"}},"type":"Feature"},
	{"geometry":{"coordinates":[7.220359,50.787252],"type":"Point"},"properties":{"osm_id":"6335801859","tag":{"amenity":"waste_disposal","waste":"trash"}},"type":"Feature"},
	{"geometry":{"coordinates":[7.219387,50.786519],"type":"Point"},"properties":{"osm_id":"6337927507","tag":{"access":"private","amenity":"waste_disposal","waste":"trash"}},"type":"Feature"},
	{"geometry":{"coordinates":[7.214109,50.78743],"type":"Point"},"properties":{"osm_id":"6352688307","tag":{"amenity":"recycling","recycling:clothes":"yes","recycling:shoes":"yes","recycling_type":"container"}},"type":"Feature"},
	{"geometry":{"coordinates":[7.29375,50.777833],"type":"Point"},"properties":{"osm_id":"6801682932","tag":{"amenity":"waste_basket"}},"type":"Feature"},
	{"geometry":{"coordinates":[7.29308,50.778084],"type":"Point"},"properties":{"osm_id":"6801682933","tag":{"amenity":"waste_basket"}},"type":"Feature"},
	{"geometry":{"coordinates":[7.292503,50.778003],"type":"Point"},"properties":{"osm_id":"6801682934","tag":{"amenity":"waste_basket"}},"type":"Feature"},
	{"geometry":{"coordinates":[7.29345,50.777783],"type":"Point"},"properties":{"osm_id":"6801682935","tag":{"amenity":"waste_basket"}},"type":"Feature"},
	{"geometry":{"coordinates":[7.29326,50.778311],"type":"Point"},"properties":{"osm_id":"6801682938","tag":{"amenity":"waste_basket"}},"type":"Feature"},
	{"geometry":{"coordinates":[7.289388,50.780317],"type":"Point"},"properties":{"osm_id":"6801682939","tag":{"amenity":"waste_basket"}},"type":"Feature"},
	{"geometry":{"coordinates":[7.293978,50.777947],"type":"Point"},"properties":{"osm_id":"6801682942","tag":{"amenity":"waste_basket"}},"type":"Feature"},
	{"geometry":{"coordinates":[7.289,50.779729],"type":"Point"},"properties":{"osm_id":"6801682945","tag":{"amenity":"waste_basket"}},"type":"Feature"},
	{"geometry":{"coordinates":[7.281577,50.786148],"type":"Point"},"properties":{"osm_id":"6837264193","tag":{"amenity":"waste_basket"}},"type":"Feature"},
	{"geometry":{"coordinates":[7.281594,50.786202],"type":"Point"},"properties":{"osm_id":"6837264194","tag":{"amenity":"waste_basket"}},"type":"Feature"},
	{"geometry":{"coordinates":[7.286185,50.779334],"type":"Point"},"properties":{"osm_id":"6837264195","tag":{"amenity":"waste_basket"}},"type":"Feature"},
	{"geometry":{"coordinates":[7.286366,50.780683],"type":"Point"},"properties":{"osm_id":"6837264197","tag":{"amenity":"waste_basket"}},"type":"Feature"},
	{"geometry":{"coordinates":[7.286075,50.782914],"type":"Point"},"properties":{"osm_id":"6837264198","tag":{"amenity":"waste_basket"}},"type":"Feature"},
	{"geometry":{"coordinates":[7.28635,50.781166],"type":"Point"},"properties":{"osm_id":"6837264199","tag":{"amenity":"waste_basket"}},"type":"Feature"},
	{"geometry":{"coordinates":[7.283483,50.785753],"type":"Point"},"properties":{"osm_id":"6837264202","tag":{"amenity":"waste_basket"}},"type":"Feature"},
	{"geometry":{"coordinates":[7.290592,50.772938],"type":"Point"},"properties":{"osm_id":"6854448494","tag":{"amenity":"waste_basket"}},"type":"Feature"},
	{"geometry":{"coordinates":[7.289867,50.773175],"type":"Point"},"properties":{"osm_id":"6854448496","tag":{"amenity":"waste_basket"}},"type":"Feature"},
	{"geometry":{"coordinates":[7.289186,50.773401],"type":"Point"},"properties":{"osm_id":"6854448498","tag":{"amenity":"waste_basket"}},"type":"Feature"},
	{"geometry":{"coordinates":[7.288302,50.773709],"type":"Point"},"properties":{"osm_id":"6854448500","tag":{"amenity":"waste_basket"}},"type":"Feature"},
	{"geometry":{"coordinates":[7.286323,50.77447],"type":"Point"},"properties":{"osm_id":"6854448513","tag":{"amenity":"waste_basket","waste":"trash"}},"type":"Feature"},
	{"geometry":{"coordinates":[7.286027,50.774463],"type":"Point"},"properties":{"osm_id":"6854448514","tag":{"amenity":"waste_basket","waste":"trash"}},"type":"Feature"},
	{"geometry":{"coordinates":[7.28476,50.775086],"type":"Point"},"properties":{"osm_id":"6854448518","tag":{"amenity":"waste_basket","waste":"trash"}},"type":"Feature"},
	{"geometry":{"coordinates":[7.283762,50.775456],"type":"Point"},"properties":{"osm_id":"6854448520","tag":{"amenity":"waste_basket","waste":"trash"}},"type":"Feature"},
	{"geometry":{"coordinates":[7.283533,50.775406],"type":"Point"},"properties":{"osm_id":"6854448521","tag":{"amenity":"waste_basket","waste":"trash"}},"type":"Feature"},
	{"geometry":{"coordinates":[7.28097,50.776418],"type":"Point"},"properties":{"osm_id":"6854448524","tag":{"amenity":"waste_basket","waste":"trash"}},"type":"Feature"},
	{"geometry":{"coordinates":[7.279904,50.777065],"type":"Point"},"properties":{"osm_id":"6854448538","tag":{"amenity":"waste_basket","waste":"trash"}},"type":"Feature"},
	{"geometry":{"coordinates":[7.27849,50.777372],"type":"Point"},"properties":{"osm_id":"6854448541","tag":{"amenity":"waste_basket","waste":"trash"}},"type":"Feature"},
	{"geometry":{"coordinates":[7.275947,50.778409],"type":"Point"},"properties":{"osm_id":"6854448542","tag":{"amenity":"waste_basket","waste":"trash"}},"type":"Feature"},
	{"geometry":{"coordinates":[7.272618,50.778361],"type":"Point"},"properties":{"osm_id":"6892634761","tag":{"amenity":"waste_basket"}},"type":"Feature"},
	{"geometry":{"coordinates":[7.256041,50.767803],"type":"Point"},"properties":{"osm_id":"7074280056","tag":{"amenity":"waste_basket"}},"type":"Feature"},
	{"geometry":{"coordinates":[7.274765,50.770105],"type":"Point"},"properties":{"osm_id":"7136028700","tag":{"amenity":"waste_basket","waste":"trash"}},"type":"Feature"},
	{"geometry":{"coordinates":[7.284919,50.772017],"type":"Point"},"properties":{"osm_id":"7557527710","tag":{"amenity":"recycling","recycling:glass":"yes","recycling:paper":"yes","recycling:plastic_packaging":"yes","recycling:waste":"yes","recycling_type":"container"}},"type":"Feature"},
	{"geometry":{"coordinates":[7.208536,50.767582],"type":"Point"},"properties":{"osm_id":"7922019574","tag":{"amenity":"recycling","recycling:clothes":"yes","recycling:shoes":"yes","recycling_type":"container"}},"type":"Feature"},
	{"geometry":{"coordinates":[7.228795,50.787851],"type":"Point"},"properties":{"osm_id":"8462589724","tag":{"amenity":"waste_basket"}},"type":"Feature"},
	{"geometry":{"coordinates":[7.281532,50.786762],"type":"Point"},"properties":{"osm_id":"8462589729","tag":{"amenity":"waste_basket"}},"type":"Feature"},
	{"geometry":{"coordinates":[7.220202,50.784473],"type":"Point"},"properties":{"osm_id":"8518693137","tag":{"amenity":"waste_basket"}},"type":"Feature"},
	{"geometry":{"coordinates":[7.224317,50.787856],"type":"Point"},"properties":{"osm_id":"8518697083","tag":{"amenity":"waste_basket"}},"type":"Feature"},
	{"geometry":{"coordinates":[7.289353,50.772422],"type":"Point"},"properties":{"osm_id":"8542721499","tag":{"amenity":"recycling","recycling:glass":"yes","recycling_type":"container","wheelchair":"yes"}},"type":"Feature"},
	{"geometry":{"coordinates":[7.222035,50.785431],"type":"Point"},"properties":{"osm_id":"8707722579","tag":{"amenity":"waste_basket"}},"type":"Feature"},
	{"geometry":{"coordinates":[7.213828,50.747295],"type":"Point"},"properties":{"osm_id":"8797556110","tag":{"amenity":"waste_basket","waste":"trash"}},"type":"Feature"},
	{"geometry":{"coordinates":[7.261611,50.749224],"type":"Point"},"properties":{"osm_id":"9017480935","tag":{"amenity":"waste_basket"}},"type":"Feature"},
	{"geometry":{"coordinates":[7.266763,50.746255],"type":"Point"},"properties":{"osm_id":"9017480989","tag":{"amenity":"waste_basket","waste":"organic"}},"type":"Feature"},
	{"geometry":{"coordinates":[7.266759,50.746263],"type":"Point"},"properties":{"osm_id":"9017480990","tag":{"amenity":"waste_basket","waste":"trash"}},"type":"Feature"},
	{"geometry":{"coordinates":[7.266368,50.745705],"type":"Point"},"properties":{"osm_id":"9017480991","tag":{"amenity":"waste_basket","waste":"organic"}},"type":"Feature"},
	{"geometry":{"coordinates":[7.266364,50.745713],"type":"Point"},"properties":{"osm_id":"9017480992","tag":{"amenity":"waste_basket","waste":"trash"}},"type":"Feature"},
	{"geometry":{"coordinates":[7.265236,50.745391],"type":"Point"},"properties":{"osm_id":"9017480993","tag":{"amenity":"waste_basket","waste":"organic"}},"type":"Feature"},
	{"geometry":{"coordinates":[7.265232,50.7454],"type":"Point"},"properties":{"osm_id":"9017480994","tag":{"amenity":"waste_basket","waste":"trash"}},"type":"Feature"},
	{"geometry":{"coordinates":[7.220745,50.786514],"type":"Point"},"properties":{"osm_id":"9124259437","tag":{"amenity":"waste_basket"}},"type":"Feature"},
	{"geometry":{"coordinates":[7.207685,50.789615],"type":"Point"},"properties":{"osm_id":"9124259993","tag":{"amenity":"waste_basket"}},"type":"Feature"}
]
}
