{
"type": "FeatureCollection",
"features": [
	{"geometry":{"coordinates":[7.220468,50.580427],"type":"Point"},"properties":{"osm_id":"254941364","tag":{"amenity":"recycling"}},"type":"Feature"},
	{"geometry":{"coordinates":[7.208016,50.61166],"type":"Point"},"properties":{"osm_id":"263569387","tag":{"amenity":"recycling","recycling:glass":"yes"}},"type":"Feature"},
	{"geometry":{"coordinates":[7.225739,50.578822],"type":"Point"},"properties":{"osm_id":"263571243","tag":{"amenity":"recycling","recycling:glass_bottles":"yes"}},"type":"Feature"},
	{"geometry":{"coordinates":[7.25528,50.621351],"type":"Point"},"properties":{"osm_id":"300381196","tag":{"amenity":"recycling","recycling:glass":"yes","recycling_type":"container"}},"type":"Feature"},
	{"geometry":{"coordinates":[7.218906,50.598169],"type":"Point"},"properties":{"osm_id":"417764262","tag":{"amenity":"recycling","recycling:glass":"yes","recycling_type":"container"}},"type":"Feature"},
	{"geometry":{"coordinates":[7.218821,50.598299],"type":"Point"},"properties":{"osm_id":"417764263","tag":{"amenity":"waste_disposal"}},"type":"Feature"},
	{"geometry":{"coordinates":[7.289718,50.573157],"type":"Point"},"properties":{"osm_id":"435503771","tag":{"amenity":"recycling","recycling:clothes":"yes","recycling:glass":"yes","recycling:paper":"yes"}},"type":"Feature"},
	{"geometry":{"coordinates":[7.286321,50.589592],"type":"Point"},"properties":{"osm_id":"440759914","tag":{"amenity":"recycling","recycling:clothes":"yes"}},"type":"Feature"},
	{"geometry":{"coordinates":[7.216682,50.624858],"type":"Point"},"properties":{"osm_id":"669643934","tag":{"amenity":"recycling","recycling:clothes":"yes"}},"type":"Feature"},
	{"geometry":{"coordinates":[7.23184,50.575141],"type":"Point"},"properties":{"osm_id":"689302685","tag":{"amenity":"recycling","recycling:glass":"yes"}},"type":"Feature"},
	{"geometry":{"coordinates":[7.227293,50.588486],"type":"Point"},"properties":{"osm_id":"802078858","tag":{"amenity":"recycling","location":"overground","recycling:clothes":"yes","recycling_type":"container"}},"type":"Feature"},
	{"geometry":{"coordinates":[7.213694,50.578456],"type":"Point"},"properties":{"osm_id":"860313028","tag":{"amenity":"recycling","recycling:glass":"yes"}},"type":"Feature"},
	{"geometry":{"coordinates":[7.256672,50.620563],"type":"Point"},"properties":{"osm_id":"918196892","tag":{"amenity":"waste_basket"}},"type":"Feature"},
	{"geometry":{"coordinates":[7.236845,50.615691],"type":"Point"},"properties":{"osm_id":"918228735","tag":{"amenity":"waste_basket"}},"type":"Feature"},
	{"geometry":{"coordinates":[7.238084,50.615492],"type":"Point"},"properties":{"osm_id":"918228740","tag":{"amenity":"recycling","mapillary":"EKvuzOxIy3IKuzVGgsOwYw","recycling:clothes":"yes","recycling_type":"container","survey:date":"2018-05-05"}},"type":"Feature"},
	{"geometry":{"coordinates":[7.238147,50.615487],"type":"Point"},"properties":{"osm_id":"918228752","tag":{"amenity":"waste_basket"}},"type":"Feature"},
	{"geometry":{"coordinates":[7.24398,50.593328],"type":"Point"},"properties":{"osm_id":"1258233118","tag":{"amenity":"waste_basket"}},"type":"Feature"},
	{"geometry":{"coordinates":[7.241709,50.589695],"type":"Point"},"properties":{"osm_id":"1258233323","tag":{"amenity":"waste_basket"}},"type":"Feature"},
	{"geometry":{"coordinates":[7.225873,50.580717],"type":"Point"},"properties":{"osm_id":"1355058163","tag":{"amenity":"waste_basket"}},"type":"Feature"},
	{"geometry":{"coordinates":[7.224246,50.581083],"type":"Point"},"properties":{"osm_id":"1355058307","tag":{"amenity":"waste_basket"}},"type":"Feature"},
	{"geometry":{"coordinates":[7.223665,50.581218],"type":"Point"},"properties":{"osm_id":"1355058365","tag":{"amenity":"waste_basket"}},"type":"Feature"},
	{"geometry":{"coordinates":[7.232476,50.576494],"type":"Point"},"properties":{"osm_id":"1359913257","tag":{"amenity":"recycling","recycling:glass":"yes","recycling:glass_bottles":"yes","recycling_type":"container"}},"type":"Feature"},
	{"geometry":{"coordinates":[7.231846,50.578405],"type":"Point"},"properties":{"osm_id":"1416181915","tag":{"amenity":"waste_basket"}},"type":"Feature"},
	{"geometry":{"coordinates":[7.250586,50.574742],"type":"Point"},"properties":{"osm_id":"1431140490","tag":{"amenity":"recycling","recycling:glass":"yes","recycling:glass_bottles":"yes","recycling_type":"container"}},"type":"Feature"},
	{"geometry":{"coordinates":[7.240452,50.571288],"type":"Point"},"properties":{"osm_id":"1476447352","tag":{"amenity":"recycling","recycling:glass":"yes"}},"type":"Feature"},
	{"geometry":{"coordinates":[7.239489,50.583149],"type":"Point"},"properties":{"osm_id":"1476447356","tag":{"amenity":"recycling","recycling:glass":"yes","recycling_type":"container"}},"type":"Feature"},
	{"geometry":{"coordinates":[7.233812,50.588007],"type":"Point"},"properties":{"osm_id":"1476447359","tag":{"amenity":"recycling","recycling:clothes":"yes"}},"type":"Feature"},
	{"geometry":{"coordinates":[7.232219,50.587687],"type":"Point"},"properties":{"osm_id":"1476447362","tag":{"amenity":"recycling","recycling:glass":"yes","recycling_type":"container"}},"type":"Feature"},
	{"geometry":{"coordinates":[7.22021,50.593041],"type":"Point"},"properties":{"osm_id":"1476447365","tag":{"amenity":"recycling","recycling:glass":"yes","recycling_type":"container"}},"type":"Feature"},
	{"geometry":{"coordinates":[7.225235,50.571931],"type":"Point"},"properties":{"osm_id":"2300999403","tag":{"amenity":"recycling","recycling:glass":"yes","recycling:glass_bottles":"yes","recycling_type":"container"}},"type":"Feature"},
	{"geometry":{"coordinates":[7.250975,50.599422],"type":"Point"},"properties":{"osm_id":"2520038530","tag":{"amenity":"recycling","recycling:clothes":"yes","recycling:glass":"yes"}},"type":"Feature"},
	{"geometry":{"coordinates":[7.211343,50.601215],"type":"Point"},"properties":{"osm_id":"2805920902","tag":{"amenity":"waste_basket"}},"type":"Feature"},
	{"geometry":{"coordinates":[7.218847,50.598225],"type":"Point"},"properties":{"osm_id":"3124374128","tag":{"amenity":"waste_disposal","waste":"grey_water"}},"type":"Feature"},
	{"geometry":{"coordinates":[7.228046,50.61695],"type":"Point"},"properties":{"osm_id":"3523413988","tag":{"amenity":"waste_basket"}},"type":"Feature"},
	{"geometry":{"coordinates":[7.213923,50.599247],"type":"Point"},"properties":{"osm_id":"3686203558","tag":{"amenity":"waste_basket"}},"type":"Feature"},
	{"geometry":{"coordinates":[7.214015,50.599402],"type":"Point"},"properties":{"osm_id":"3686203573","tag":{"amenity":"waste_basket"}},"type":"Feature"},
	{"geometry":{"coordinates":[7.222212,50.624271],"type":"Point"},"properties":{"osm_id":"4092717321","tag":{"amenity":"waste_basket"}},"type":"Feature"},
	{"geometry":{"coordinates":[7.220644,50.617276],"type":"Point"},"properties":{"osm_id":"4173326847","tag":{"amenity":"recycling","opening_hours":"24/7","recycling:clothes":"yes","recycling_type":"container"}},"type":"Feature"},
	{"geometry":{"coordinates":[7.215426,50.617288],"type":"Point"},"properties":{"osm_id":"4173326848","tag":{"amenity":"waste_basket"}},"type":"Feature"},
	{"geometry":{"coordinates":[7.222853,50.605481],"type":"Point"},"properties":{"osm_id":"4204476294","tag":{"amenity":"waste_basket"}},"type":"Feature"},
	{"geometry":{"coordinates":[7.22253,50.597731],"type":"Point"},"properties":{"osm_id":"4351267297","tag":{"amenity":"waste_basket"}},"type":"Feature"},
	{"geometry":{"coordinates":[7.245408,50.591212],"type":"Point"},"properties":{"osm_id":"4351591844","tag":{"amenity":"waste_basket"}},"type":"Feature"},
	{"geometry":{"coordinates":[7.241427,50.582017],"type":"Point"},"properties":{"osm_id":"4352618862","tag":{"amenity":"waste_basket"}},"type":"Feature"},
	{"geometry":{"coordinates":[7.237149,50.582052],"type":"Point"},"properties":{"osm_id":"4352618864","tag":{"amenity":"waste_basket"}},"type":"Feature"},
	{"geometry":{"coordinates":[7.237691,50.590202],"type":"Point"},"properties":{"osm_id":"4424608292","tag":{"amenity":"waste_basket"}},"type":"Feature"},
	{"geometry":{"coordinates":[7.255271,50.621395],"type":"Point"},"properties":{"osm_id":"4615673549","tag":{"amenity":"recycling","recycling:clothes":"yes","recycling_type":"container"}},"type":"Feature"},
	{"geometry":{"coordinates":[7.252064,50.62119],"type":"Point"},"properties":{"osm_id":"4615673550","tag":{"amenity":"waste_basket"}},"type":"Feature"},
	{"geometry":{"coordinates":[7.239236,50.588023],"type":"Point"},"properties":{"osm_id":"4687118146","tag":{"amenity":"waste_basket"}},"type":"Feature"},
	{"geometry":{"coordinates":[7.23811,50.590135],"type":"Point"},"properties":{"osm_id":"4687118148","tag":{"amenity":"waste_basket"}},"type":"Feature"},
	{"geometry":{"coordinates":[7.246508,50.580956],"type":"Point"},"properties":{"osm_id":"4692235751","tag":{"amenity":"waste_basket"}},"type":"Feature"},
	{"geometry":{"coordinates":[7.268491,50.606844],"type":"Point"},"properties":{"osm_id":"4760385237","tag":{"amenity":"waste_basket"}},"type":"Feature"},
	{"geometry":{"coordinates":[7.226739,50.620006],"type":"Point"},"properties":{"osm_id":"4767634824","tag":{"amenity":"recycling","recycling:clothes":"yes","recycling_type":"container"}},"type":"Feature"},
	{"geometry":{"coordinates":[7.252165,50.597439],"type":"Point"},"properties":{"osm_id":"4813534457","tag":{"amenity":"waste_basket"}},"type":"Feature"},
	{"geometry":{"coordinates":[7.255416,50.576602],"type":"Point"},"properties":{"osm_id":"4836819615","tag":{"amenity":"waste_basket"}},"type":"Feature"},
	{"geometry":{"coordinates":[7.249358,50.577654],"type":"Point"},"properties":{"osm_id":"4836819616","tag":{"amenity":"waste_basket"}},"type":"Feature"},
	{"geometry":{"coordinates":[7.216471,50.584831],"type":"Point"},"properties":{"osm_id":"4836820138","tag":{"amenity":"waste_basket"}},"type":"Feature"},
	{"geometry":{"coordinates":[7.210009,50.590293],"type":"Point"},"properties":{"osm_id":"4836820142","tag":{"amenity":"waste_basket"}},"type":"Feature"},
	{"geometry":{"coordinates":[7.241317,50.576603],"type":"Point"},"properties":{"osm_id":"4989757207","tag":{"amenity":"recycling","recycling:clothes":"yes","recycling_type":"container"}},"type":"Feature"},
	{"geometry":{"coordinates":[7.251237,50.575874],"type":"Point"},"properties":{"osm_id":"5779395466","tag":{"access":"customers","amenity":"waste_disposal","waste":"trash"}},"type":"Feature"},
	{"geometry":{"coordinates":[7.242826,50.615137],"type":"Point"},"properties":{"osm_id":"6105811213","tag":{"amenity":"waste_basket"}},"type":"Feature"},
	{"geometry":{"coordinates":[7.217838,50.594964],"type":"Point"},"properties":{"osm_id":"6295564497","tag":{"amenity":"waste_basket"}},"type":"Feature"},
	{"geometry":{"coordinates":[7.220698,50.606196],"type":"Point"},"properties":{"osm_id":"7249840324","tag":{"amenity":"recycling","recycling:clothes":"yes","recycling:shoes":"yes","recycling_type":"container"}},"type":"Feature"},
	{"geometry":{"coordinates":[7.220739,50.606171],"type":"Point"},"properties":{"osm_id":"7252227529","tag":{"amenity":"recycling","recycling:glass":"yes","recycling_type":"container"}},"type":"Feature"},
	{"geometry":{"coordinates":[7.220733,50.60618],"type":"Point"},"properties":{"osm_id":"7252227530","tag":{"amenity":"recycling","recycling:glass":"yes","recycling_type":"container"}},"type":"Feature"},
	{"geometry":{"coordinates":[7.220708,50.606199],"type":"Point"},"properties":{"osm_id":"7252227531","tag":{"amenity":"recycling","recycling:clothes":"yes","recycling:shoes":"yes","recycling_type":"container"}},"type":"Feature"},
	{"geometry":{"coordinates":[7.232931,50.57964],"type":"Point"},"properties":{"osm_id":"7684906085","tag":{"amenity":"waste_basket"}},"type":"Feature"},
	{"geometry":{"coordinates":[7.215494,50.602048],"type":"Point"},"properties":{"osm_id":"7796142353","tag":{"amenity":"waste_basket","waste":"dog_excrement"}},"type":"Feature"},
	{"geometry":{"coordinates":[7.215805,50.602629],"type":"Point"},"properties":{"osm_id":"7796142356","tag":{"amenity":"waste_basket"}},"type":"Feature"},
	{"geometry":{"coordinates":[7.216049,50.603479],"type":"Point"},"properties":{"osm_id":"7796142358","tag":{"amenity":"waste_basket","waste":"dog_excrement"}},"type":"Feature"}
]
}
