{
"type": "FeatureCollection",
"features": [
	{"geometry":{"coordinates":[7.218887,49.207334],"type":"Point"},"properties":{"osm_id":"347335414","tag":{"amenity":"recycling","recycling:cardboard":"yes","recycling:clothes":"yes","recycling:glass":"yes","recycling:glass_bottles":"yes","recycling:paper":"yes","recycling_type":"container"}},"type":"Feature"},
	{"geometry":{"coordinates":[7.230143,49.153728],"type":"Point"},"properties":{"osm_id":"632338789","tag":{"amenity":"recycling","recycling:clothes":"yes","recycling:glass":"yes","recycling:paper":"yes"}},"type":"Feature"},
	{"geometry":{"coordinates":[7.236295,49.155669],"type":"Point"},"properties":{"osm_id":"685514291","tag":{"amenity":"recycling","recycling:glass":"yes","recycling:paper":"yes"}},"type":"Feature"},
	{"geometry":{"coordinates":[7.268351,49.160987],"type":"Point"},"properties":{"osm_id":"3039866961","tag":{"amenity":"recycling","recycling:clothes":"yes","recycling:glass":"yes","recycling:paper":"yes","recycling_type":"container"}},"type":"Feature"},
	{"geometry":{"coordinates":[7.234935,49.177905],"type":"Point"},"properties":{"osm_id":"3439710193","tag":{"amenity":"waste_basket"}},"type":"Feature"},
	{"geometry":{"coordinates":[7.246231,49.159606],"type":"Point"},"properties":{"osm_id":"3810496872","tag":{"amenity":"recycling","recycling:cardboard":"yes","recycling:glass_bottles":"yes","recycling:paper":"yes","recycling_type":"container"}},"type":"Feature"},
	{"geometry":{"coordinates":[7.244724,49.199513],"type":"Point"},"properties":{"osm_id":"4468682995","tag":{"amenity":"recycling","recycling:clothes":"yes","recycling:glass":"yes","recycling:paper":"yes","recycling_type":"container"}},"type":"Feature"},
	{"geometry":{"coordinates":[7.244615,49.198324],"type":"Point"},"properties":{"osm_id":"5048012952","tag":{"amenity":"waste_basket"}},"type":"Feature"},
	{"geometry":{"coordinates":[7.227467,49.208167],"type":"Point"},"properties":{"osm_id":"5127827414","tag":{"amenity":"waste_basket"}},"type":"Feature"},
	{"geometry":{"coordinates":[7.234564,49.201774],"type":"Point"},"properties":{"osm_id":"5127827419","tag":{"amenity":"waste_basket"}},"type":"Feature"},
	{"geometry":{"coordinates":[7.23035,49.191701],"type":"Point"},"properties":{"osm_id":"5157688478","tag":{"amenity":"recycling","recycling:clothes":"yes","recycling:glass":"yes","recycling:paper":"yes","recycling_type":"container"}},"type":"Feature"},
	{"geometry":{"coordinates":[7.211189,49.195615],"type":"Point"},"properties":{"osm_id":"5239381064","tag":{"amenity":"waste_basket"}},"type":"Feature"},
	{"geometry":{"coordinates":[7.216323,49.199258],"type":"Point"},"properties":{"osm_id":"5239381065","tag":{"amenity":"waste_basket"}},"type":"Feature"},
	{"geometry":{"coordinates":[7.288976,49.168301],"type":"Point"},"properties":{"osm_id":"5591667736","tag":{"amenity":"recycling","recycling:glass_bottles":"yes","recycling_type":"container"}},"type":"Feature"},
	{"geometry":{"coordinates":[7.246287,49.208602],"type":"Point"},"properties":{"osm_id":"5603820119","tag":{"amenity":"waste_basket"}},"type":"Feature"},
	{"geometry":{"coordinates":[7.207277,49.198527],"type":"Point"},"properties":{"osm_id":"5609313650","tag":{"amenity":"waste_basket"}},"type":"Feature"},
	{"geometry":{"coordinates":[7.281114,49.187299],"type":"Point"},"properties":{"osm_id":"6238522387","tag":{"amenity":"waste_basket"}},"type":"Feature"},
	{"geometry":{"coordinates":[7.235095,49.16574],"type":"Point"},"properties":{"osm_id":"6300821493","tag":{"amenity":"waste_basket"}},"type":"Feature"},
	{"geometry":{"coordinates":[7.23497,49.164502],"type":"Point"},"properties":{"osm_id":"6300847724","tag":{"amenity":"waste_basket"}},"type":"Feature"},
	{"geometry":{"coordinates":[7.236042,49.177127],"type":"Point"},"properties":{"osm_id":"7416699744","tag":{"amenity":"recycling","recycling:glass_bottles":"yes","recycling:paper":"yes","recycling_type":"container"}},"type":"Feature"},
	{"geometry":{"coordinates":[7.228792,49.191593],"type":"Point"},"properties":{"osm_id":"7416705951","tag":{"amenity":"waste_basket"}},"type":"Feature"},
	{"geometry":{"coordinates":[7.24262,49.15893],"type":"Point"},"properties":{"osm_id":"7833950573","tag":{"amenity":"waste_disposal","waste":"trash"}},"type":"Feature"}
]
}
