{
"type": "FeatureCollection",
"features": [
	{"geometry":{"coordinates":[7.270723,47.155603],"type":"Point"},"properties":{"osm_id":"702340719","tag":{"amenity":"waste_basket","excrement_bags":"yes"}},"type":"Feature"},
	{"geometry":{"coordinates":[7.270948,47.155697],"type":"Point"},"properties":{"osm_id":"702340720","tag":{"amenity":"waste_basket"}},"type":"Feature"},
	{"geometry":{"coordinates":[7.277088,47.154322],"type":"Point"},"properties":{"osm_id":"702340735","tag":{"amenity":"waste_basket","excrement_bags":"yes"}},"type":"Feature"},
	{"geometry":{"coordinates":[7.275826,47.155718],"type":"Point"},"properties":{"osm_id":"702340741","tag":{"amenity":"waste_basket","excrement_bags":"yes"}},"type":"Feature"},
	{"geometry":{"coordinates":[7.282148,47.147047],"type":"Point"},"properties":{"osm_id":"711877025","tag":{"amenity":"waste_basket"}},"type":"Feature"},
	{"geometry":{"coordinates":[7.272251,47.142603],"type":"Point"},"properties":{"osm_id":"712327734","tag":{"amenity":"recycling","recycling:clothes":"yes","recycling:shoes":"yes","recycling_type":"container"}},"type":"Feature"},
	{"geometry":{"coordinates":[7.272169,47.143261],"type":"Point"},"properties":{"osm_id":"742529751","tag":{"amenity":"recycling","location":"overground","recycling:glass_bottles":"yes","recycling_type":"container"}},"type":"Feature"},
	{"geometry":{"coordinates":[7.255795,47.116945],"type":"Point"},"properties":{"osm_id":"1105986179","tag":{"amenity":"recycling"}},"type":"Feature"},
	{"geometry":{"coordinates":[7.244804,47.142208],"type":"Point"},"properties":{"osm_id":"2171048418","tag":{"amenity":"waste_basket"}},"type":"Feature"},
	{"geometry":{"coordinates":[7.244817,47.142215],"type":"Point"},"properties":{"osm_id":"2171048423","tag":{"amenity":"waste_basket"}},"type":"Feature"},
	{"geometry":{"coordinates":[7.218412,47.106153],"type":"Point"},"properties":{"osm_id":"2606035682","tag":{"amenity":"waste_basket"}},"type":"Feature"},
	{"geometry":{"coordinates":[7.232363,47.126206],"type":"Point"},"properties":{"osm_id":"2904715616","tag":{"amenity":"recycling","recycling:cans":"yes","recycling:glass_bottles":"yes","recycling_type":"container"}},"type":"Feature"},
	{"geometry":{"coordinates":[7.251054,47.133738],"type":"Point"},"properties":{"osm_id":"3244739439","tag":{"amenity":"recycling","location":"overground","recycling:cans":"yes","recycling:glass_bottles":"yes","recycling:green_waste":"yes","recycling:paper":"yes","recycling_type":"container"}},"type":"Feature"},
	{"geometry":{"coordinates":[7.233743,47.126435],"type":"Point"},"properties":{"osm_id":"3463401495","tag":{"amenity":"waste_basket"}},"type":"Feature"},
	{"geometry":{"coordinates":[7.232502,47.126839],"type":"Point"},"properties":{"osm_id":"3463401496","tag":{"amenity":"recycling","recycling:PET":"yes","recycling:glass_bottles":"yes","recycling_type":"container"}},"type":"Feature"},
	{"geometry":{"coordinates":[7.232104,47.125061],"type":"Point"},"properties":{"osm_id":"3463432495","tag":{"amenity":"waste_basket"}},"type":"Feature"},
	{"geometry":{"coordinates":[7.232683,47.12495],"type":"Point"},"properties":{"osm_id":"3463432496","tag":{"amenity":"waste_basket"}},"type":"Feature"},
	{"geometry":{"coordinates":[7.233039,47.124785],"type":"Point"},"properties":{"osm_id":"3463462997","tag":{"amenity":"recycling","location":"overground","recycling:cans":"yes","recycling:clothes":"yes","recycling:glass_bottles":"yes","recycling_type":"container"}},"type":"Feature"},
	{"geometry":{"coordinates":[7.239779,47.127264],"type":"Point"},"properties":{"osm_id":"3463598840","tag":{"amenity":"waste_basket"}},"type":"Feature"},
	{"geometry":{"coordinates":[7.239297,47.12583],"type":"Point"},"properties":{"osm_id":"3463617674","tag":{"amenity":"recycling","recycling:clothes":"yes","recycling_type":"container"}},"type":"Feature"},
	{"geometry":{"coordinates":[7.239012,47.125986],"type":"Point"},"properties":{"osm_id":"3463617677","tag":{"amenity":"waste_basket"}},"type":"Feature"},
	{"geometry":{"coordinates":[7.236715,47.125872],"type":"Point"},"properties":{"osm_id":"3465620229","tag":{"amenity":"waste_basket"}},"type":"Feature"},
	{"geometry":{"coordinates":[7.23867,47.12426],"type":"Point"},"properties":{"osm_id":"3465795594","tag":{"amenity":"waste_basket"}},"type":"Feature"},
	{"geometry":{"coordinates":[7.238753,47.124427],"type":"Point"},"properties":{"osm_id":"3465795599","tag":{"amenity":"waste_basket"}},"type":"Feature"},
	{"geometry":{"coordinates":[7.23683,47.124457],"type":"Point"},"properties":{"osm_id":"3465795602","tag":{"amenity":"waste_basket"}},"type":"Feature"},
	{"geometry":{"coordinates":[7.239454,47.124534],"type":"Point"},"properties":{"osm_id":"3465795605","tag":{"amenity":"waste_basket"}},"type":"Feature"},
	{"geometry":{"coordinates":[7.240482,47.125429],"type":"Point"},"properties":{"osm_id":"3465953191","tag":{"amenity":"waste_basket"}},"type":"Feature"},
	{"geometry":{"coordinates":[7.239058,47.127344],"type":"Point"},"properties":{"osm_id":"3465954596","tag":{"amenity":"waste_basket"}},"type":"Feature"},
	{"geometry":{"coordinates":[7.251047,47.135259],"type":"Point"},"properties":{"osm_id":"4573460930","tag":{"amenity":"recycling","fee":"no","location":"underground","recycling:aluminium":"no","recycling:cans":"no","recycling:glass_bottles":"yes","recycling:plastic_bottles":"no","recycling:waste":"yes","recycling_type":"container"}},"type":"Feature"},
	{"geometry":{"coordinates":[7.264584,47.137087],"type":"Point"},"properties":{"osm_id":"4623451066","tag":{"amenity":"recycling","operator":"Contex","recycling:clothes":"yes","recycling:shoes":"yes","recycling_type":"container"}},"type":"Feature"},
	{"geometry":{"coordinates":[7.254702,47.138044],"type":"Point"},"properties":{"osm_id":"4759834328","tag":{"amenity":"recycling","check_date:recycling":"2021-03-08","location":"outdoor","operator":"Contex","recycling:clothes":"yes","recycling_type":"container"}},"type":"Feature"},
	{"geometry":{"coordinates":[7.238786,47.137445],"type":"Point"},"properties":{"osm_id":"4823160921","tag":{"amenity":"waste_basket"}},"type":"Feature"},
	{"geometry":{"coordinates":[7.23891,47.149962],"type":"Point"},"properties":{"osm_id":"4951365253","tag":{"amenity":"waste_basket"}},"type":"Feature"},
	{"geometry":{"coordinates":[7.239573,47.150275],"type":"Point"},"properties":{"osm_id":"4951365254","tag":{"amenity":"waste_basket"}},"type":"Feature"},
	{"geometry":{"coordinates":[7.262888,47.144033],"type":"Point"},"properties":{"osm_id":"4975267641","tag":{"amenity":"waste_basket"}},"type":"Feature"},
	{"geometry":{"coordinates":[7.26172,47.143679],"type":"Point"},"properties":{"osm_id":"4975267642","tag":{"amenity":"waste_basket"}},"type":"Feature"},
	{"geometry":{"coordinates":[7.269146,47.147337],"type":"Point"},"properties":{"osm_id":"4975307821","tag":{"amenity":"waste_basket"}},"type":"Feature"},
	{"geometry":{"coordinates":[7.269132,47.147175],"type":"Point"},"properties":{"osm_id":"4975307825","tag":{"amenity":"waste_basket","vending":"excrement_bags"}},"type":"Feature"},
	{"geometry":{"coordinates":[7.277571,47.142151],"type":"Point"},"properties":{"osm_id":"5137704454","tag":{"amenity":"recycling","location":"overground","recycling:clothes":"yes","recycling_type":"container"}},"type":"Feature"},
	{"geometry":{"coordinates":[7.244759,47.106454],"type":"Point"},"properties":{"osm_id":"5154687477","tag":{"amenity":"recycling","location":"underground","recycling:cans":"yes","recycling:glass_bottles":"yes","recycling_type":"container"}},"type":"Feature"},
	{"geometry":{"coordinates":[7.262422,47.133073],"type":"Point"},"properties":{"osm_id":"5324138851","tag":{"amenity":"waste_basket"}},"type":"Feature"},
	{"geometry":{"coordinates":[7.245683,47.142352],"type":"Point"},"properties":{"osm_id":"5433919120","tag":{"amenity":"recycling","recycling:glass":"yes","recycling_type":"container"}},"type":"Feature"},
	{"geometry":{"coordinates":[7.255416,47.126504],"type":"Point"},"properties":{"osm_id":"5767863642","tag":{"amenity":"recycling","recycling:clothes":"yes","recycling_type":"container"}},"type":"Feature"},
	{"geometry":{"coordinates":[7.273947,47.1184],"type":"Point"},"properties":{"osm_id":"5775294824","tag":{"amenity":"waste_basket"}},"type":"Feature"},
	{"geometry":{"coordinates":[7.279483,47.121323],"type":"Point"},"properties":{"osm_id":"5775306128","tag":{"amenity":"waste_basket"}},"type":"Feature"},
	{"geometry":{"coordinates":[7.281295,47.122288],"type":"Point"},"properties":{"osm_id":"5775306135","tag":{"amenity":"waste_basket"}},"type":"Feature"},
	{"geometry":{"coordinates":[7.272942,47.142868],"type":"Point"},"properties":{"osm_id":"5842277797","tag":{"amenity":"recycling","recycling:clothes":"yes","recycling_type":"container"}},"type":"Feature"},
	{"geometry":{"coordinates":[7.272467,47.143325],"type":"Point"},"properties":{"osm_id":"5842277798","tag":{"amenity":"recycling","operator":"Coop","recycling:clothes":"yes","recycling:shoes":"yes","recycling_type":"container"}},"type":"Feature"},
	{"geometry":{"coordinates":[7.258151,47.108061],"type":"Point"},"properties":{"osm_id":"5858818009","tag":{"amenity":"waste_basket","waste":"trash"}},"type":"Feature"},
	{"geometry":{"coordinates":[7.268284,47.147007],"type":"Point"},"properties":{"osm_id":"5981437097","tag":{"amenity":"waste_basket"}},"type":"Feature"},
	{"geometry":{"coordinates":[7.267146,47.146193],"type":"Point"},"properties":{"osm_id":"5981454641","tag":{"amenity":"waste_basket"}},"type":"Feature"},
	{"geometry":{"coordinates":[7.267008,47.146321],"type":"Point"},"properties":{"osm_id":"5981454642","tag":{"amenity":"waste_basket"}},"type":"Feature"},
	{"geometry":{"coordinates":[7.265831,47.145463],"type":"Point"},"properties":{"osm_id":"5981463350","tag":{"amenity":"waste_basket"}},"type":"Feature"},
	{"geometry":{"coordinates":[7.263923,47.144481],"type":"Point"},"properties":{"osm_id":"5981463718","tag":{"amenity":"waste_basket"}},"type":"Feature"},
	{"geometry":{"coordinates":[7.219817,47.109946],"type":"Point"},"properties":{"osm_id":"6164212324","tag":{"amenity":"waste_basket"}},"type":"Feature"},
	{"geometry":{"coordinates":[7.275845,47.142423],"type":"Point"},"properties":{"osm_id":"6215968698","tag":{"amenity":"recycling","location":"underground","opening_hours":"24/7","recycling:cardboard":"yes","recycling:paper":"yes","recycling:waste":"yes","recycling_type":"container","wheelchair":"yes"}},"type":"Feature"},
	{"geometry":{"coordinates":[7.256377,47.144624],"type":"Point"},"properties":{"osm_id":"6277395313","tag":{"amenity":"recycling","location":"underground","recycling:cans":"yes","recycling:cardboard":"yes","recycling:glass":"yes","recycling:paper":"yes","recycling:scrap_metal":"yes","recycling:waste":"yes","recycling_type":"container"}},"type":"Feature"},
	{"geometry":{"coordinates":[7.23601,47.127138],"type":"Point"},"properties":{"osm_id":"6314382674","tag":{"amenity":"recycling","opening_hours":"24/7","recycling:cans":"yes","recycling:clothes":"yes","recycling:glass_bottles":"yes","recycling_type":"container"}},"type":"Feature"},
	{"geometry":{"coordinates":[7.24997,47.134321],"type":"Point"},"properties":{"osm_id":"6339411885","tag":{"amenity":"recycling","location":"underground","opening_hours":"24/7","recycling:glass_bottles":"yes","recycling:waste":"yes","recycling_type":"container","wheelchair":"limited"}},"type":"Feature"},
	{"geometry":{"coordinates":[7.262927,47.144049],"type":"Point"},"properties":{"osm_id":"6389453127","tag":{"amenity":"waste_basket"}},"type":"Feature"},
	{"geometry":{"coordinates":[7.264806,47.146298],"type":"Point"},"properties":{"osm_id":"6564417043","tag":{"amenity":"recycling","location":"underground","recycling:cardboard":"yes","recycling:glass_bottles":"yes","recycling:paper":"yes","recycling_type":"container"}},"type":"Feature"},
	{"geometry":{"coordinates":[7.26336,47.144988],"type":"Point"},"properties":{"osm_id":"6564417044","tag":{"amenity":"recycling","location":"underground","recycling:cardboard":"yes","recycling:glass_bottles":"yes","recycling:paper":"yes","recycling_type":"container"}},"type":"Feature"},
	{"geometry":{"coordinates":[7.259747,47.125388],"type":"Point"},"properties":{"osm_id":"6718219609","tag":{"amenity":"recycling","contact:website":"http://www.mueve.ch/","name:de":"Abfuhrwesen Stadt Biel","name:fr":"inspection de la voirie ville de Bienne","opening_hours":"Mo-Fr 07:30-11:45; 13:15-17:00; Sa 08:00-12:00","recycling:aluminium":"yes","recycling:electrical_appliances":"yes","recycling:glass":"yes","recycling:waste":"yes","recycling_type":"centre"}},"type":"Feature"},
	{"geometry":{"coordinates":[7.253984,47.138339],"type":"Point"},"properties":{"osm_id":"6858162203","tag":{"amenity":"recycling","fee":"no","location":"underground","opening_hours":"24/7","recycling:paper":"yes","recycling:waste":"yes","recycling_type":"container","wheelchair":"yes"}},"type":"Feature"},
	{"geometry":{"coordinates":[7.254835,47.150504],"type":"Point"},"properties":{"osm_id":"7104894989","tag":{"amenity":"waste_basket"}},"type":"Feature"},
	{"geometry":{"coordinates":[7.254873,47.106551],"type":"Point"},"properties":{"osm_id":"7141460820","tag":{"amenity":"waste_basket"}},"type":"Feature"},
	{"geometry":{"coordinates":[7.239667,47.144586],"type":"Point"},"properties":{"osm_id":"7174401485","tag":{"amenity":"waste_basket"}},"type":"Feature"},
	{"geometry":{"coordinates":[7.276192,47.144298],"type":"Point"},"properties":{"osm_id":"7860546830","tag":{"access":"yes","amenity":"recycling","location":"underground","opening_hours":"24/7","recycling:cardboard":"yes","recycling:glass_bottles":"yes","recycling:paper":"yes","recycling:waste":"yes","recycling_type":"container","wheelchair":"yes"}},"type":"Feature"},
	{"geometry":{"coordinates":[7.275078,47.146092],"type":"Point"},"properties":{"osm_id":"7860546836","tag":{"access":"yes","amenity":"recycling","location":"underground","opening_hours":"24/7","recycling:cardboard":"yes","recycling:glass_bottles":"yes","recycling:paper":"yes","recycling:waste":"yes","recycling_type":"container","wheelchair":"yes"}},"type":"Feature"},
	{"geometry":{"coordinates":[7.254024,47.137625],"type":"Point"},"properties":{"osm_id":"7925430673","tag":{"amenity":"recycling","location":"underground","opening_hours":"24/7","recycling:paper":"yes","recycling:waste":"yes","recycling_type":"container","wheelchair":"limited"}},"type":"Feature"},
	{"geometry":{"coordinates":[7.231659,47.12419],"type":"Point"},"properties":{"osm_id":"7969558368","tag":{"amenity":"waste_basket"}},"type":"Feature"},
	{"geometry":{"coordinates":[7.233595,47.123729],"type":"Point"},"properties":{"osm_id":"7969558375","tag":{"amenity":"waste_basket"}},"type":"Feature"},
	{"geometry":{"coordinates":[7.234628,47.123537],"type":"Point"},"properties":{"osm_id":"7969558378","tag":{"amenity":"waste_basket"}},"type":"Feature"},
	{"geometry":{"coordinates":[7.242452,47.121171],"type":"Point"},"properties":{"osm_id":"7969586002","tag":{"amenity":"waste_basket"}},"type":"Feature"},
	{"geometry":{"coordinates":[7.247387,47.120265],"type":"Point"},"properties":{"osm_id":"7969586008","tag":{"amenity":"waste_basket"}},"type":"Feature"},
	{"geometry":{"coordinates":[7.253583,47.122602],"type":"Point"},"properties":{"osm_id":"7969586020","tag":{"amenity":"waste_basket"}},"type":"Feature"},
	{"geometry":{"coordinates":[7.252076,47.123137],"type":"Point"},"properties":{"osm_id":"7969586022","tag":{"amenity":"waste_basket"}},"type":"Feature"},
	{"geometry":{"coordinates":[7.250936,47.123501],"type":"Point"},"properties":{"osm_id":"7969586023","tag":{"amenity":"waste_basket"}},"type":"Feature"},
	{"geometry":{"coordinates":[7.250347,47.123635],"type":"Point"},"properties":{"osm_id":"7969586025","tag":{"amenity":"waste_basket"}},"type":"Feature"},
	{"geometry":{"coordinates":[7.24896,47.124054],"type":"Point"},"properties":{"osm_id":"7969586031","tag":{"amenity":"waste_basket"}},"type":"Feature"},
	{"geometry":{"coordinates":[7.247858,47.124276],"type":"Point"},"properties":{"osm_id":"7969586033","tag":{"amenity":"waste_basket"}},"type":"Feature"},
	{"geometry":{"coordinates":[7.245063,47.124485],"type":"Point"},"properties":{"osm_id":"7969586035","tag":{"amenity":"waste_basket"}},"type":"Feature"},
	{"geometry":{"coordinates":[7.241369,47.124191],"type":"Point"},"properties":{"osm_id":"7969675481","tag":{"amenity":"waste_basket"}},"type":"Feature"},
	{"geometry":{"coordinates":[7.215844,47.159278],"type":"Point"},"properties":{"osm_id":"8227708614","tag":{"amenity":"waste_basket"}},"type":"Feature"},
	{"geometry":{"coordinates":[7.24783,47.127692],"type":"Point"},"properties":{"osm_id":"8251815726","tag":{"amenity":"waste_basket","waste":"mixed"}},"type":"Feature"},
	{"geometry":{"coordinates":[7.248019,47.127496],"type":"Point"},"properties":{"osm_id":"8251815737","tag":{"amenity":"waste_basket","waste":"mixed"}},"type":"Feature"},
	{"geometry":{"coordinates":[7.267173,47.146181],"type":"Point"},"properties":{"osm_id":"8318720126","tag":{"amenity":"waste_basket"}},"type":"Feature"},
	{"geometry":{"coordinates":[7.245348,47.138399],"type":"Point"},"properties":{"osm_id":"8327077950","tag":{"amenity":"waste_basket"}},"type":"Feature"},
	{"geometry":{"coordinates":[7.27088,47.148335],"type":"Point"},"properties":{"osm_id":"8522228717","tag":{"amenity":"waste_basket"}},"type":"Feature"},
	{"geometry":{"coordinates":[7.26969,47.147405],"type":"Point"},"properties":{"osm_id":"8522253618","tag":{"amenity":"waste_basket"}},"type":"Feature"},
	{"geometry":{"coordinates":[7.242445,47.130498],"type":"Point"},"properties":{"osm_id":"8880772784","tag":{"amenity":"recycling","recycling:glass":"yes","recycling:glass_bottles":"yes","recycling_type":"container"}},"type":"Feature"},
	{"geometry":{"coordinates":[7.246168,47.137194],"type":"Point"},"properties":{"osm_id":"8880772787","tag":{"amenity":"recycling","level":"-1","operator":"Manor","recycling:aluminium":"yes","recycling:batteries":"yes","recycling:cans":"yes","recycling:plastic_bottles":"yes","recycling_type":"container"}},"type":"Feature"},
	{"geometry":{"coordinates":[7.241695,47.131217],"type":"Point"},"properties":{"osm_id":"9020439457","tag":{"amenity":"waste_basket"}},"type":"Feature"},
	{"geometry":{"coordinates":[7.241621,47.13112],"type":"Point"},"properties":{"osm_id":"9020439468","tag":{"amenity":"waste_basket"}},"type":"Feature"},
	{"geometry":{"coordinates":[7.241873,47.124061],"type":"Point"},"properties":{"osm_id":"9139426196","tag":{"amenity":"recycling","recycling_type":"container"}},"type":"Feature"},
	{"geometry":{"coordinates":[7.24188,47.124071],"type":"Point"},"properties":{"osm_id":"9139426197","tag":{"amenity":"recycling","recycling_type":"container"}},"type":"Feature"}
]
}
