{
"type": "FeatureCollection",
"features": [
	{"geometry":{"coordinates":[7.240577,46.911232],"type":"Point"},"properties":{"osm_id":"588557229","tag":{"amenity":"waste_basket","waste":"dog_excrement"}},"type":"Feature"},
	{"geometry":{"coordinates":[7.234669,46.872683],"type":"Point"},"properties":{"osm_id":"920444687","tag":{"amenity":"waste_basket"}},"type":"Feature"},
	{"geometry":{"coordinates":[7.250244,46.860328],"type":"Point"},"properties":{"osm_id":"965192435","tag":{"amenity":"waste_basket"}},"type":"Feature"},
	{"geometry":{"coordinates":[7.230747,46.893666],"type":"Point"},"properties":{"osm_id":"967741945","tag":{"amenity":"waste_basket"}},"type":"Feature"},
	{"geometry":{"coordinates":[7.257732,46.87429],"type":"Point"},"properties":{"osm_id":"1187586560","tag":{"amenity":"waste_basket"}},"type":"Feature"},
	{"geometry":{"coordinates":[7.261976,46.874812],"type":"Point"},"properties":{"osm_id":"1187586582","tag":{"amenity":"waste_basket"}},"type":"Feature"},
	{"geometry":{"coordinates":[7.256636,46.873937],"type":"Point"},"properties":{"osm_id":"1187586647","tag":{"amenity":"waste_basket"}},"type":"Feature"},
	{"geometry":{"coordinates":[7.271721,46.875873],"type":"Point"},"properties":{"osm_id":"1188038259","tag":{"amenity":"recycling","recycling:batteries":"yes","recycling:cans":"yes","recycling:clothes":"yes","recycling:glass":"yes","recycling:scrap_metal":"yes"}},"type":"Feature"},
	{"geometry":{"coordinates":[7.267827,46.876584],"type":"Point"},"properties":{"osm_id":"1188038287","tag":{"amenity":"waste_basket"}},"type":"Feature"},
	{"geometry":{"coordinates":[7.22725,46.893789],"type":"Point"},"properties":{"osm_id":"1237699145","tag":{"amenity":"waste_basket"}},"type":"Feature"},
	{"geometry":{"coordinates":[7.281477,46.871512],"type":"Point"},"properties":{"osm_id":"1304096232","tag":{"amenity":"waste_basket"}},"type":"Feature"},
	{"geometry":{"coordinates":[7.234717,46.909781],"type":"Point"},"properties":{"osm_id":"3993565578","tag":{"amenity":"waste_basket","waste":"dog_excrement"}},"type":"Feature"},
	{"geometry":{"coordinates":[7.234133,46.90667],"type":"Point"},"properties":{"osm_id":"3993565579","tag":{"amenity":"waste_basket"}},"type":"Feature"},
	{"geometry":{"coordinates":[7.234091,46.906583],"type":"Point"},"properties":{"osm_id":"3993565580","tag":{"amenity":"waste_basket"}},"type":"Feature"},
	{"geometry":{"coordinates":[7.234072,46.906271],"type":"Point"},"properties":{"osm_id":"3993565581","tag":{"amenity":"waste_basket"}},"type":"Feature"},
	{"geometry":{"coordinates":[7.233718,46.905636],"type":"Point"},"properties":{"osm_id":"3993565582","tag":{"amenity":"waste_basket"}},"type":"Feature"},
	{"geometry":{"coordinates":[7.235435,46.904979],"type":"Point"},"properties":{"osm_id":"3993565583","tag":{"amenity":"waste_basket"}},"type":"Feature"},
	{"geometry":{"coordinates":[7.237047,46.902789],"type":"Point"},"properties":{"osm_id":"3993565586","tag":{"amenity":"waste_basket"}},"type":"Feature"},
	{"geometry":{"coordinates":[7.23975,46.901714],"type":"Point"},"properties":{"osm_id":"3993565587","tag":{"amenity":"waste_basket"}},"type":"Feature"},
	{"geometry":{"coordinates":[7.243952,46.904683],"type":"Point"},"properties":{"osm_id":"3993565588","tag":{"amenity":"waste_basket"}},"type":"Feature"},
	{"geometry":{"coordinates":[7.246807,46.904071],"type":"Point"},"properties":{"osm_id":"3993565589","tag":{"amenity":"waste_basket"}},"type":"Feature"},
	{"geometry":{"coordinates":[7.243842,46.908196],"type":"Point"},"properties":{"osm_id":"3993565590","tag":{"amenity":"waste_basket"}},"type":"Feature"},
	{"geometry":{"coordinates":[7.241807,46.908912],"type":"Point"},"properties":{"osm_id":"3993565591","tag":{"amenity":"waste_basket"}},"type":"Feature"},
	{"geometry":{"coordinates":[7.236269,46.906871],"type":"Point"},"properties":{"osm_id":"3993565593","tag":{"amenity":"waste_basket"}},"type":"Feature"},
	{"geometry":{"coordinates":[7.235196,46.907135],"type":"Point"},"properties":{"osm_id":"3993565594","tag":{"amenity":"waste_basket"}},"type":"Feature"},
	{"geometry":{"coordinates":[7.237595,46.912599],"type":"Point"},"properties":{"osm_id":"3993565595","tag":{"amenity":"waste_basket","waste":"dog_excrement"}},"type":"Feature"},
	{"geometry":{"coordinates":[7.238388,46.915004],"type":"Point"},"properties":{"osm_id":"3993565597","tag":{"amenity":"waste_basket","waste":"dog_excrement"}},"type":"Feature"},
	{"geometry":{"coordinates":[7.240556,46.918239],"type":"Point"},"properties":{"osm_id":"3993565600","tag":{"amenity":"waste_basket","waste":"dog_excrement"}},"type":"Feature"},
	{"geometry":{"coordinates":[7.238946,46.908564],"type":"Point"},"properties":{"osm_id":"3993565601","tag":{"amenity":"waste_basket"}},"type":"Feature"},
	{"geometry":{"coordinates":[7.237914,46.906809],"type":"Point"},"properties":{"osm_id":"3993565605","tag":{"amenity":"waste_basket"}},"type":"Feature"},
	{"geometry":{"coordinates":[7.233989,46.905659],"type":"Point"},"properties":{"osm_id":"3993622365","tag":{"amenity":"waste_basket"}},"type":"Feature"},
	{"geometry":{"coordinates":[7.25368,46.863196],"type":"Point"},"properties":{"osm_id":"4151788906","tag":{"amenity":"waste_basket"}},"type":"Feature"},
	{"geometry":{"coordinates":[7.25054,46.86051],"type":"Point"},"properties":{"osm_id":"4192887207","tag":{"amenity":"waste_basket"}},"type":"Feature"},
	{"geometry":{"coordinates":[7.252396,46.862651],"type":"Point"},"properties":{"osm_id":"4192887209","tag":{"amenity":"waste_basket"}},"type":"Feature"},
	{"geometry":{"coordinates":[7.219872,46.898994],"type":"Point"},"properties":{"osm_id":"5613245866","tag":{"amenity":"waste_basket","direction_north:1":"Laupen / Station","direction_north:2":"Flamatt","direction_south:1":"Auriedsteg","direction_south:2":"D\u00c3\u00bcdingen","direction_south:3":"Freiburg","direction_south:4":"Kleinb\u00c3\u00b6singen","direction_south:5":"Kriechenwil (R\u00c3\u00b6seli)","direction_south:6":"Murten / Morat","direction_south:7":"Gurmels","direction_southeast:1":"B\u00c3\u00b6singen","hiking":"yes","information":"guidepost","tourism":"information"}},"type":"Feature"},
	{"geometry":{"coordinates":[7.241038,46.902303],"type":"Point"},"properties":{"osm_id":"5794110744","tag":{"amenity":"waste_basket"}},"type":"Feature"},
	{"geometry":{"coordinates":[7.238396,46.917088],"type":"Point"},"properties":{"osm_id":"6985924634","tag":{"amenity":"waste_basket","operator":"Gemeinde Laupen","waste":"dog_excrement"}},"type":"Feature"},
	{"geometry":{"coordinates":[7.277808,46.873575],"type":"Point"},"properties":{"osm_id":"7167791185","tag":{"amenity":"waste_basket"}},"type":"Feature"},
	{"geometry":{"coordinates":[7.27321,46.873314],"type":"Point"},"properties":{"osm_id":"7167791285","tag":{"amenity":"waste_basket"}},"type":"Feature"},
	{"geometry":{"coordinates":[7.240771,46.911317],"type":"Point"},"properties":{"osm_id":"7318761422","tag":{"amenity":"waste_basket","waste":"dog_excrement"}},"type":"Feature"},
	{"geometry":{"coordinates":[7.243549,46.911161],"type":"Point"},"properties":{"osm_id":"7318761423","tag":{"amenity":"waste_basket","waste":"dog_excrement"}},"type":"Feature"},
	{"geometry":{"coordinates":[7.237675,46.910655],"type":"Point"},"properties":{"osm_id":"7318761424","tag":{"amenity":"waste_basket","waste":"dog_excrement"}},"type":"Feature"}
]
}
