{
"type": "FeatureCollection",
"features": [
	{"geometry":{"coordinates":[7.230474,46.801577],"type":"Point"},"properties":{"name":"K\u00c3\u00bcffer AG","osm_id":"615137265","tag":{"amenity":"recycling","old_name":"Liechti + K\u00c3\u00bcffer AG","recycling:cans":"yes","recycling:glass":"yes","recycling:paper":"yes","recycling:scrap_metal":"yes","website":"http://www.kueffer-mulden.ch/"}},"type":"Feature"},
	{"geometry":{"coordinates":[7.249084,46.857997],"type":"Point"},"properties":{"osm_id":"965192445","tag":{"amenity":"waste_basket"}},"type":"Feature"},
	{"geometry":{"coordinates":[7.249477,46.858771],"type":"Point"},"properties":{"osm_id":"965192699","tag":{"amenity":"waste_basket"}},"type":"Feature"},
	{"geometry":{"coordinates":[7.214252,46.814449],"type":"Point"},"properties":{"osm_id":"1149774222","tag":{"amenity":"waste_basket","fee":"no","operator":"Robidog AG","vending":"excrement_bags"}},"type":"Feature"},
	{"geometry":{"coordinates":[7.208831,46.849141],"type":"Point"},"properties":{"osm_id":"1977533428","tag":{"amenity":"waste_basket"}},"type":"Feature"},
	{"geometry":{"coordinates":[7.208798,46.849403],"type":"Point"},"properties":{"osm_id":"1977533430","tag":{"amenity":"waste_basket"}},"type":"Feature"},
	{"geometry":{"coordinates":[7.225593,46.818937],"type":"Point"},"properties":{"barrier":"gate","osm_id":"2468493191"},"type":"Feature"},
	{"geometry":{"coordinates":[7.261808,46.820644],"type":"Point"},"properties":{"osm_id":"3003598703","tag":{"amenity":"waste_basket"}},"type":"Feature"},
	{"geometry":{"coordinates":[7.261245,46.825207],"type":"Point"},"properties":{"osm_id":"3152312019","tag":{"amenity":"recycling","recycling:cans":"yes","recycling:clothes":"yes","recycling:glass":"yes","recycling:paper":"no","recycling_type":"centre"}},"type":"Feature"},
	{"geometry":{"coordinates":[7.249001,46.855264],"type":"Point"},"properties":{"osm_id":"4139908283","tag":{"amenity":"waste_basket"}},"type":"Feature"},
	{"geometry":{"coordinates":[7.248633,46.856844],"type":"Point"},"properties":{"osm_id":"4139908284","tag":{"amenity":"waste_basket"}},"type":"Feature"},
	{"geometry":{"coordinates":[7.248388,46.85647],"type":"Point"},"properties":{"osm_id":"4139946273","tag":{"amenity":"waste_basket"}},"type":"Feature"},
	{"geometry":{"coordinates":[7.244049,46.852272],"type":"Point"},"properties":{"osm_id":"4161119744","tag":{"amenity":"waste_basket"}},"type":"Feature"},
	{"geometry":{"coordinates":[7.245783,46.853805],"type":"Point"},"properties":{"osm_id":"4161119745","tag":{"amenity":"waste_basket"}},"type":"Feature"},
	{"geometry":{"coordinates":[7.246596,46.854421],"type":"Point"},"properties":{"osm_id":"4161119746","tag":{"amenity":"waste_basket"}},"type":"Feature"},
	{"geometry":{"coordinates":[7.248309,46.85542],"type":"Point"},"properties":{"osm_id":"4161119748","tag":{"amenity":"waste_basket"}},"type":"Feature"},
	{"geometry":{"coordinates":[7.248417,46.853821],"type":"Point"},"properties":{"osm_id":"4162461071","tag":{"amenity":"waste_basket"}},"type":"Feature"},
	{"geometry":{"coordinates":[7.246603,46.855594],"type":"Point"},"properties":{"osm_id":"4204779600","tag":{"amenity":"waste_basket"}},"type":"Feature"},
	{"geometry":{"coordinates":[7.294103,46.830386],"type":"Point"},"properties":{"name":"Pfandmatta Abfallsammelstelle","osm_id":"4740234562","tag":{"addr:city":"Heitenried","addr:postcode":"1714","addr:street":"Pfandmatta","amenity":"recycling","opening_hours":"Beachten Sommer / Winter","operator":"Gemeinde Heitenried / KEWAG","recycling:books":"yes","recycling:cartons":"yes","recycling:electrical_appliances":"yes","recycling:glass_bottles":"yes","recycling:magazines":"yes","recycling:newspaper":"yes","recycling:paper_packaging":"yes","recycling:plastic":"yes","recycling:plastic_bottles":"yes","recycling:plastic_packaging":"yes","recycling_type":"centre"}},"type":"Feature"}
]
}
