{
"type": "FeatureCollection",
"features": [
	{"geometry":{"coordinates":[7.227023,44.94451],"type":"Point"},"properties":{"osm_id":"1984304435","tag":{"amenity":"recycling"}},"type":"Feature"},
	{"geometry":{"coordinates":[7.234581,44.938841],"type":"Point"},"properties":{"osm_id":"1984368325","tag":{"amenity":"recycling"}},"type":"Feature"},
	{"geometry":{"coordinates":[7.219507,44.949905],"type":"Point"},"properties":{"osm_id":"1984369029","tag":{"amenity":"recycling"}},"type":"Feature"},
	{"geometry":{"coordinates":[7.225209,44.945522],"type":"Point"},"properties":{"osm_id":"1984442485","tag":{"amenity":"recycling"}},"type":"Feature"},
	{"geometry":{"coordinates":[7.224163,44.945787],"type":"Point"},"properties":{"osm_id":"1984442667","tag":{"amenity":"recycling"}},"type":"Feature"},
	{"geometry":{"coordinates":[7.236678,44.923102],"type":"Point"},"properties":{"name":"Ecoisola","osm_id":"2397630533","tag":{"amenity":"recycling","recycling_type":"container"}},"type":"Feature"}
]
}
