{
"type": "FeatureCollection",
"features": [
	{"geometry":{"coordinates":[7.220608,44.818687],"type":"Point"},"properties":{"osm_id":"1861218174","tag":{"amenity":"waste_disposal"}},"type":"Feature"},
	{"geometry":{"coordinates":[7.222649,44.818875],"type":"Point"},"properties":{"osm_id":"1861218184","tag":{"amenity":"waste_disposal"}},"type":"Feature"},
	{"geometry":{"coordinates":[7.220074,44.821324],"type":"Point"},"properties":{"osm_id":"5281956649","tag":{"amenity":"waste_basket"}},"type":"Feature"},
	{"geometry":{"coordinates":[7.221056,44.821535],"type":"Point"},"properties":{"osm_id":"5281956650","tag":{"amenity":"waste_disposal"}},"type":"Feature"},
	{"geometry":{"coordinates":[7.220284,44.820221],"type":"Point"},"properties":{"osm_id":"5281956651","tag":{"amenity":"waste_disposal"}},"type":"Feature"},
	{"geometry":{"coordinates":[7.219602,44.820551],"type":"Point"},"properties":{"osm_id":"5281956677","tag":{"amenity":"waste_basket"}},"type":"Feature"},
	{"geometry":{"coordinates":[7.219971,44.820558],"type":"Point"},"properties":{"osm_id":"5281956678","tag":{"amenity":"waste_basket"}},"type":"Feature"},
	{"geometry":{"coordinates":[7.225581,44.819527],"type":"Point"},"properties":{"osm_id":"5282181255","tag":{"amenity":"waste_disposal"}},"type":"Feature"},
	{"geometry":{"coordinates":[7.246021,44.81378],"type":"Point"},"properties":{"osm_id":"5400813235","tag":{"amenity":"waste_disposal"}},"type":"Feature"},
	{"geometry":{"coordinates":[7.225888,44.821993],"type":"Point"},"properties":{"osm_id":"5456591545","tag":{"amenity":"waste_disposal"}},"type":"Feature"},
	{"geometry":{"coordinates":[7.243239,44.813136],"type":"Point"},"properties":{"osm_id":"5465116659","tag":{"amenity":"waste_disposal"}},"type":"Feature"},
	{"geometry":{"coordinates":[7.221795,44.820516],"type":"Point"},"properties":{"osm_id":"5468176900","tag":{"amenity":"waste_basket"}},"type":"Feature"},
	{"geometry":{"coordinates":[7.219827,44.820494],"type":"Point"},"properties":{"osm_id":"5468176910","tag":{"amenity":"waste_basket"}},"type":"Feature"},
	{"geometry":{"coordinates":[7.219433,44.820482],"type":"Point"},"properties":{"osm_id":"5468176911","tag":{"amenity":"waste_basket"}},"type":"Feature"},
	{"geometry":{"coordinates":[7.220092,44.82541],"type":"Point"},"properties":{"osm_id":"5472858297","tag":{"amenity":"waste_disposal"}},"type":"Feature"},
	{"geometry":{"coordinates":[7.242845,44.814881],"type":"Point"},"properties":{"osm_id":"5472858303","tag":{"amenity":"waste_disposal"}},"type":"Feature"},
	{"geometry":{"coordinates":[7.239251,44.816625],"type":"Point"},"properties":{"osm_id":"5472858304","tag":{"amenity":"waste_disposal"}},"type":"Feature"},
	{"geometry":{"coordinates":[7.286207,44.821188],"type":"Point"},"properties":{"osm_id":"5505735720","tag":{"amenity":"recycling","operator":"Acea Pinerolese Industriale Spa","recycling:glass":"yes","recycling_type":"container","website":"https://www.aceapinerolese.it/"}},"type":"Feature"},
	{"geometry":{"coordinates":[7.286194,44.821188],"type":"Point"},"properties":{"osm_id":"5505736521","tag":{"amenity":"recycling","operator":"Acea Pinerolese Industriale Spa","recycling:plastic":"yes","recycling_type":"container","website":"https://www.aceapinerolese.it/"}},"type":"Feature"},
	{"geometry":{"coordinates":[7.286178,44.821189],"type":"Point"},"properties":{"osm_id":"5505736522","tag":{"amenity":"recycling","operator":"Acea Pinerolese Industriale Spa","recycling:paper":"yes","recycling_type":"container","website":"https://www.aceapinerolese.it/"}},"type":"Feature"},
	{"geometry":{"coordinates":[7.286163,44.821189],"type":"Point"},"properties":{"osm_id":"5505736523","tag":{"amenity":"recycling","operator":"Acea Pinerolese Industriale Spa","recycling:waste":"yes","recycling_type":"container","website":"https://www.aceapinerolese.it/"}},"type":"Feature"},
	{"geometry":{"coordinates":[7.228,44.820972],"type":"Point"},"properties":{"osm_id":"5529434794","tag":{"amenity":"recycling","recycling_type":"container"}},"type":"Feature"},
	{"geometry":{"coordinates":[7.223176,44.821142],"type":"Point"},"properties":{"osm_id":"7023844193","tag":{"amenity":"waste_disposal"}},"type":"Feature"}
]
}
