{
"type": "FeatureCollection",
"features": [
	{"geometry":{"coordinates":[7.272192,43.720035],"type":"Point"},"properties":{"osm_id":"276637060","tag":{"amenity":"recycling","recycling:glass":"yes","recycling:paper":"yes","recycling_type":"container"}},"type":"Feature"},
	{"geometry":{"coordinates":[7.272578,43.718361],"type":"Point"},"properties":{"osm_id":"276637803","tag":{"amenity":"recycling","recycling:glass":"yes","recycling:paper":"yes","recycling_type":"container"}},"type":"Feature"},
	{"geometry":{"coordinates":[7.274921,43.714372],"type":"Point"},"properties":{"osm_id":"276640038","tag":{"amenity":"recycling","location":"overground","recycling_type":"container"}},"type":"Feature"},
	{"geometry":{"coordinates":[7.274259,43.716857],"type":"Point"},"properties":{"osm_id":"276946989","tag":{"amenity":"recycling"}},"type":"Feature"},
	{"geometry":{"coordinates":[7.276173,43.71396],"type":"Point"},"properties":{"osm_id":"276948824","tag":{"amenity":"recycling"}},"type":"Feature"},
	{"geometry":{"coordinates":[7.278019,43.715288],"type":"Point"},"properties":{"osm_id":"276949214","tag":{"amenity":"recycling"}},"type":"Feature"},
	{"geometry":{"coordinates":[7.280302,43.714748],"type":"Point"},"properties":{"osm_id":"276949372","tag":{"amenity":"recycling"}},"type":"Feature"},
	{"geometry":{"coordinates":[7.292662,43.710616],"type":"Point"},"properties":{"osm_id":"277031572","tag":{"amenity":"recycling"}},"type":"Feature"},
	{"geometry":{"coordinates":[7.258729,43.716157],"type":"Point"},"properties":{"osm_id":"277117226","tag":{"amenity":"recycling"}},"type":"Feature"},
	{"geometry":{"coordinates":[7.257637,43.71648],"type":"Point"},"properties":{"osm_id":"277117238","tag":{"amenity":"recycling"}},"type":"Feature"},
	{"geometry":{"coordinates":[7.28592,43.723366],"type":"Point"},"properties":{"osm_id":"281464299","tag":{"amenity":"recycling","recycling_type":"container"}},"type":"Feature"},
	{"geometry":{"coordinates":[7.255262,43.725631],"type":"Point"},"properties":{"osm_id":"281944221","tag":{"amenity":"recycling"}},"type":"Feature"},
	{"geometry":{"coordinates":[7.257404,43.710565],"type":"Point"},"properties":{"osm_id":"456013587","tag":{"amenity":"recycling","recycling:glass":"yes","recycling:paper":"yes","recycling_type":"container"}},"type":"Feature"},
	{"geometry":{"coordinates":[7.252189,43.707965],"type":"Point"},"properties":{"osm_id":"588642315","tag":{"amenity":"recycling","location":"overground","recycling:glass":"yes","recycling:paper":"yes","recycling_type":"container"}},"type":"Feature"},
	{"geometry":{"coordinates":[7.290433,43.7135],"type":"Point"},"properties":{"osm_id":"798468666","tag":{"amenity":"recycling"}},"type":"Feature"},
	{"geometry":{"coordinates":[7.288068,43.711201],"type":"Point"},"properties":{"osm_id":"798468671","tag":{"amenity":"recycling"}},"type":"Feature"},
	{"geometry":{"coordinates":[7.288884,43.712729],"type":"Point"},"properties":{"osm_id":"798468675","tag":{"amenity":"recycling"}},"type":"Feature"},
	{"geometry":{"coordinates":[7.291961,43.722016],"type":"Point"},"properties":{"osm_id":"1287454577","tag":{"amenity":"recycling"}},"type":"Feature"},
	{"geometry":{"coordinates":[7.220688,43.75895],"type":"Point"},"properties":{"osm_id":"1608960418","tag":{"amenity":"recycling","recycling:cans":"yes","recycling:plastic":"yes","recycling:plastic_bottles":"yes","recycling:plastic_packaging":"yes","recycling_type":"centre"}},"type":"Feature"},
	{"geometry":{"coordinates":[7.219667,43.759271],"type":"Point"},"properties":{"osm_id":"1609015493","tag":{"amenity":"recycling","recycling:books":"yes","recycling:cans":"yes","recycling:cartons":"yes","recycling:glass":"yes","recycling:glass_bottles":"yes","recycling:magazines":"yes","recycling:newspaper":"yes","recycling:paper":"yes","recycling:paper_packaging":"yes","recycling:plastic":"yes","recycling:plastic_bottles":"yes","recycling:plastic_packaging":"yes","recycling:scrap_metal":"yes","recycling_type":"centre"}},"type":"Feature"},
	{"geometry":{"coordinates":[7.221934,43.766871],"type":"Point"},"properties":{"osm_id":"1614482593","tag":{"amenity":"recycling","recycling:cans":"yes","recycling:glass_bottles":"yes","recycling:plastic":"yes","recycling:plastic_bottles":"yes","recycling:plastic_packaging":"yes"}},"type":"Feature"},
	{"geometry":{"coordinates":[7.264267,43.709554],"type":"Point"},"properties":{"osm_id":"1669417361","tag":{"amenity":"recycling","recycling:glass":"yes","recycling:paper":"yes","recycling_type":"container"}},"type":"Feature"},
	{"geometry":{"coordinates":[7.25187,43.707667],"type":"Point"},"properties":{"osm_id":"1858725385","tag":{"amenity":"waste_basket"}},"type":"Feature"},
	{"geometry":{"coordinates":[7.252148,43.707697],"type":"Point"},"properties":{"osm_id":"1858725405","tag":{"amenity":"waste_basket"}},"type":"Feature"},
	{"geometry":{"coordinates":[7.251939,43.7077],"type":"Point"},"properties":{"osm_id":"1858725411","tag":{"amenity":"waste_basket"}},"type":"Feature"},
	{"geometry":{"coordinates":[7.251923,43.707823],"type":"Point"},"properties":{"osm_id":"1858725424","tag":{"amenity":"waste_basket"}},"type":"Feature"},
	{"geometry":{"coordinates":[7.263899,43.712543],"type":"Point"},"properties":{"osm_id":"1868418490","tag":{"amenity":"recycling","recycling:glass":"yes","recycling:paper":"yes","recycling_type":"container"}},"type":"Feature"},
	{"geometry":{"coordinates":[7.26253,43.714437],"type":"Point"},"properties":{"osm_id":"1868421231","tag":{"amenity":"recycling","recycling:glass":"yes","recycling:paper":"yes","recycling_type":"container"}},"type":"Feature"},
	{"geometry":{"coordinates":[7.265181,43.713353],"type":"Point"},"properties":{"osm_id":"1868428666","tag":{"amenity":"recycling","recycling:glass":"yes","recycling:paper":"yes","recycling_type":"container"}},"type":"Feature"},
	{"geometry":{"coordinates":[7.284022,43.715681],"type":"Point"},"properties":{"name":"Decheterie de Nice","osm_id":"2031845886","tag":{"amenity":"recycling"}},"type":"Feature"},
	{"geometry":{"coordinates":[7.290035,43.708216],"type":"Point"},"properties":{"osm_id":"2173946484","tag":{"amenity":"recycling","recycling:glass":"yes","recycling:glass_bottles":"yes","recycling:magazines":"yes","recycling:newspaper":"yes","recycling:paper":"yes","recycling_type":"container"}},"type":"Feature"},
	{"geometry":{"coordinates":[7.283987,43.722229],"type":"Point"},"properties":{"osm_id":"2805539250","tag":{"amenity":"recycling","recycling:cans":"no","recycling:clothes":"no","recycling:glass":"yes","recycling:paper":"yes"}},"type":"Feature"},
	{"geometry":{"coordinates":[7.255279,43.712385],"type":"Point"},"properties":{"osm_id":"3158177053","tag":{"amenity":"waste_basket"}},"type":"Feature"},
	{"geometry":{"coordinates":[7.262813,43.715967],"type":"Point"},"properties":{"osm_id":"3622287727","tag":{"amenity":"recycling","recycling:glass":"yes","recycling:paper":"yes","recycling_type":"container"}},"type":"Feature"},
	{"geometry":{"coordinates":[7.26298,43.719038],"type":"Point"},"properties":{"osm_id":"3622287728","tag":{"amenity":"recycling","recycling:glass":"yes","recycling:paper":"yes","recycling_type":"container"}},"type":"Feature"},
	{"geometry":{"coordinates":[7.26371,43.722207],"type":"Point"},"properties":{"osm_id":"3622287729","tag":{"amenity":"recycling","recycling:glass":"yes","recycling_type":"container"}},"type":"Feature"},
	{"geometry":{"coordinates":[7.263874,43.722391],"type":"Point"},"properties":{"osm_id":"3622287730","tag":{"amenity":"recycling","recycling:paper":"yes","recycling_type":"container"}},"type":"Feature"},
	{"geometry":{"coordinates":[7.264879,43.72266],"type":"Point"},"properties":{"osm_id":"3622287731","tag":{"amenity":"recycling","recycling:glass":"yes","recycling_type":"container"}},"type":"Feature"},
	{"geometry":{"coordinates":[7.266091,43.724032],"type":"Point"},"properties":{"osm_id":"3622287732","tag":{"amenity":"recycling","recycling:glass":"yes","recycling:paper":"yes","recycling_type":"container"}},"type":"Feature"},
	{"geometry":{"coordinates":[7.264863,43.726047],"type":"Point"},"properties":{"osm_id":"3622287739","tag":{"amenity":"recycling","recycling:glass":"yes","recycling:paper":"yes","recycling_type":"container"}},"type":"Feature"},
	{"geometry":{"coordinates":[7.266341,43.727981],"type":"Point"},"properties":{"osm_id":"3622287740","tag":{"amenity":"recycling","recycling:glass":"yes","recycling:paper":"yes","recycling_type":"container"}},"type":"Feature"},
	{"geometry":{"coordinates":[7.268634,43.711492],"type":"Point"},"properties":{"osm_id":"3650990952","tag":{"amenity":"recycling","recycling:glass":"yes","recycling:paper":"yes","recycling_type":"container"}},"type":"Feature"},
	{"geometry":{"coordinates":[7.265744,43.70941],"type":"Point"},"properties":{"osm_id":"3664900987","tag":{"amenity":"recycling","recycling:glass":"yes","recycling:paper":"yes","recycling_type":"container"}},"type":"Feature"},
	{"geometry":{"coordinates":[7.273147,43.713448],"type":"Point"},"properties":{"osm_id":"3962151535","tag":{"amenity":"recycling","recycling:glass":"yes","recycling:paper":"yes","recycling_type":"container"}},"type":"Feature"},
	{"geometry":{"coordinates":[7.275194,43.717688],"type":"Point"},"properties":{"osm_id":"3962151536","tag":{"amenity":"recycling","recycling:glass":"yes","recycling:paper":"yes","recycling_type":"container"}},"type":"Feature"},
	{"geometry":{"coordinates":[7.278531,43.720807],"type":"Point"},"properties":{"osm_id":"3962151539","tag":{"amenity":"recycling","description":"Containers enterr\u00e9s","recycling:beverage_carton":"yes","recycling:glass":"yes","recycling:paper":"yes","recycling:paper_packaging":"yes","recycling:plastic_packaging":"yes","recycling_type":"container"}},"type":"Feature"},
	{"geometry":{"coordinates":[7.277176,43.722333],"type":"Point"},"properties":{"osm_id":"3962151540","tag":{"amenity":"recycling","recycling:glass":"yes","recycling:paper":"yes","recycling_type":"container"}},"type":"Feature"},
	{"geometry":{"coordinates":[7.276593,43.728721],"type":"Point"},"properties":{"osm_id":"3962151543","tag":{"amenity":"recycling","recycling:glass":"yes","recycling:paper":"yes","recycling_type":"container"}},"type":"Feature"},
	{"geometry":{"coordinates":[7.275299,43.724988],"type":"Point"},"properties":{"osm_id":"3962201366","tag":{"amenity":"recycling","recycling:glass":"yes","recycling:paper":"yes","recycling_type":"container"}},"type":"Feature"},
	{"geometry":{"coordinates":[7.273364,43.727481],"type":"Point"},"properties":{"osm_id":"3962201367","tag":{"amenity":"recycling","recycling:glass_bottles":"yes","recycling_type":"container"}},"type":"Feature"},
	{"geometry":{"coordinates":[7.271833,43.728437],"type":"Point"},"properties":{"osm_id":"3962201368","tag":{"amenity":"recycling","recycling:glass":"yes","recycling:paper":"yes","recycling_type":"container"}},"type":"Feature"},
	{"geometry":{"coordinates":[7.27288,43.728586],"type":"Point"},"properties":{"osm_id":"3962201369","tag":{"amenity":"recycling","recycling:glass":"yes","recycling:paper":"yes","recycling_type":"container"}},"type":"Feature"},
	{"geometry":{"coordinates":[7.272986,43.708343],"type":"Point"},"properties":{"osm_id":"3962315652","tag":{"amenity":"recycling","recycling:glass":"yes","recycling:paper":"yes","recycling_type":"container"}},"type":"Feature"},
	{"geometry":{"coordinates":[7.274841,43.709762],"type":"Point"},"properties":{"osm_id":"3962315656","tag":{"amenity":"recycling","recycling:glass":"yes","recycling:paper":"yes","recycling_type":"container"}},"type":"Feature"},
	{"geometry":{"coordinates":[7.283793,43.719636],"type":"Point"},"properties":{"osm_id":"4000669173","tag":{"amenity":"recycling","recycling:cans":"no","recycling:clothes":"no","recycling:glass":"yes","recycling:paper":"yes"}},"type":"Feature"},
	{"geometry":{"coordinates":[7.272019,43.715372],"type":"Point"},"properties":{"osm_id":"4006042360","tag":{"amenity":"recycling","recycling:glass":"yes","recycling:paper":"yes","recycling_type":"container"}},"type":"Feature"},
	{"geometry":{"coordinates":[7.259825,43.708857],"type":"Point"},"properties":{"name":"Tri papier verres","osm_id":"4007176680","tag":{"addr:city":"Nice","addr:housenumber":"4bis","addr:postcode":"06000","addr:street":"Rue Alfred Binet","amenity":"waste_basket"}},"type":"Feature"},
	{"geometry":{"coordinates":[7.259477,43.709032],"type":"Point"},"properties":{"osm_id":"4007311727","tag":{"addr:city":"Nice","addr:housenumber":"4bis","addr:postcode":"06000","addr:street":"Rue Alfred Binet","amenity":"waste_basket"}},"type":"Feature"},
	{"geometry":{"coordinates":[7.259064,43.708974],"type":"Point"},"properties":{"osm_id":"4007360915","tag":{"amenity":"waste_basket"}},"type":"Feature"},
	{"geometry":{"coordinates":[7.259066,43.708877],"type":"Point"},"properties":{"osm_id":"4007360916","tag":{"amenity":"waste_basket"}},"type":"Feature"},
	{"geometry":{"coordinates":[7.258815,43.708964],"type":"Point"},"properties":{"osm_id":"4007360917","tag":{"amenity":"waste_basket"}},"type":"Feature"},
	{"geometry":{"coordinates":[7.258822,43.708871],"type":"Point"},"properties":{"osm_id":"4007360918","tag":{"amenity":"waste_basket"}},"type":"Feature"},
	{"geometry":{"coordinates":[7.231792,43.708371],"type":"Point"},"properties":{"osm_id":"4007453851","tag":{"amenity":"waste_basket"}},"type":"Feature"},
	{"geometry":{"coordinates":[7.231919,43.708389],"type":"Point"},"properties":{"osm_id":"4007453852","tag":{"amenity":"waste_basket"}},"type":"Feature"},
	{"geometry":{"coordinates":[7.272198,43.7212],"type":"Point"},"properties":{"osm_id":"4016950638","tag":{"amenity":"recycling","recycling:glass":"yes","recycling:paper":"yes","recycling_type":"container"}},"type":"Feature"},
	{"geometry":{"coordinates":[7.273535,43.724185],"type":"Point"},"properties":{"osm_id":"4016950639","tag":{"amenity":"recycling","recycling:glass":"yes","recycling:paper":"yes","recycling_type":"container"}},"type":"Feature"},
	{"geometry":{"coordinates":[7.275731,43.726505],"type":"Point"},"properties":{"osm_id":"4016950641","tag":{"amenity":"recycling","recycling:glass":"yes","recycling:paper":"yes","recycling_type":"container"}},"type":"Feature"},
	{"geometry":{"coordinates":[7.273622,43.708632],"type":"Point"},"properties":{"osm_id":"4033445678","tag":{"amenity":"recycling","recycling:glass":"yes","recycling:paper":"yes","recycling_type":"container"}},"type":"Feature"},
	{"geometry":{"coordinates":[7.279996,43.720391],"type":"Point"},"properties":{"osm_id":"4042267225","tag":{"amenity":"recycling","recycling:paper":"yes","recycling_type":"container"}},"type":"Feature"},
	{"geometry":{"coordinates":[7.280099,43.720413],"type":"Point"},"properties":{"osm_id":"4042267226","tag":{"amenity":"recycling","recycling:glass":"yes","recycling_type":"container"}},"type":"Feature"},
	{"geometry":{"coordinates":[7.271256,43.729212],"type":"Point"},"properties":{"osm_id":"4042463008","tag":{"amenity":"recycling","recycling:glass":"yes","recycling:paper":"yes","recycling_type":"container"}},"type":"Feature"},
	{"geometry":{"coordinates":[7.271256,43.70875],"type":"Point"},"properties":{"osm_id":"4058085294","tag":{"amenity":"recycling","recycling:glass":"yes","recycling:paper":"yes","recycling_type":"container"}},"type":"Feature"},
	{"geometry":{"coordinates":[7.271071,43.710725],"type":"Point"},"properties":{"osm_id":"4058085295","tag":{"amenity":"recycling","recycling:glass":"yes","recycling:paper":"yes","recycling_type":"container"}},"type":"Feature"},
	{"geometry":{"coordinates":[7.271402,43.712482],"type":"Point"},"properties":{"osm_id":"4058085296","tag":{"amenity":"recycling","recycling:glass":"yes","recycling:paper":"yes","recycling_type":"container"}},"type":"Feature"},
	{"geometry":{"coordinates":[7.279483,43.722485],"type":"Point"},"properties":{"osm_id":"4058107056","tag":{"amenity":"recycling","recycling:glass":"yes","recycling:paper":"yes","recycling_type":"container"}},"type":"Feature"},
	{"geometry":{"coordinates":[7.271511,43.724377],"type":"Point"},"properties":{"osm_id":"4058200709","tag":{"amenity":"recycling","recycling:glass":"yes","recycling:paper":"yes","recycling_type":"container"}},"type":"Feature"},
	{"geometry":{"coordinates":[7.27314,43.724981],"type":"Point"},"properties":{"osm_id":"4058200710","tag":{"amenity":"recycling","recycling:glass":"yes","recycling:paper":"yes","recycling_type":"container"}},"type":"Feature"},
	{"geometry":{"coordinates":[7.270343,43.72577],"type":"Point"},"properties":{"osm_id":"4058200711","tag":{"amenity":"recycling","recycling:glass":"yes","recycling:paper":"yes","recycling_type":"container"}},"type":"Feature"},
	{"geometry":{"coordinates":[7.270083,43.726305],"type":"Point"},"properties":{"osm_id":"4058211069","tag":{"amenity":"recycling","recycling:glass":"yes","recycling:paper":"yes","recycling_type":"container"}},"type":"Feature"},
	{"geometry":{"coordinates":[7.265567,43.715868],"type":"Point"},"properties":{"osm_id":"4069714048","tag":{"amenity":"recycling","recycling:glass":"yes","recycling:paper":"yes","recycling_type":"container"}},"type":"Feature"},
	{"geometry":{"coordinates":[7.268222,43.729505],"type":"Point"},"properties":{"osm_id":"4069747540","tag":{"amenity":"recycling","recycling:glass":"yes","recycling:paper":"yes","recycling_type":"container"}},"type":"Feature"},
	{"geometry":{"coordinates":[7.265719,43.717855],"type":"Point"},"properties":{"osm_id":"4069784364","tag":{"amenity":"recycling","recycling:glass":"yes","recycling:paper":"yes","recycling_type":"container"}},"type":"Feature"},
	{"geometry":{"coordinates":[7.268826,43.721724],"type":"Point"},"properties":{"osm_id":"4069794937","tag":{"amenity":"recycling","recycling:glass":"yes","recycling:paper":"yes","recycling_type":"container"}},"type":"Feature"},
	{"geometry":{"coordinates":[7.267994,43.719162],"type":"Point"},"properties":{"osm_id":"4069825889","tag":{"amenity":"recycling","recycling:glass":"yes","recycling:paper":"yes","recycling_type":"container"}},"type":"Feature"},
	{"geometry":{"coordinates":[7.265174,43.718911],"type":"Point"},"properties":{"osm_id":"4093560570","tag":{"amenity":"recycling","recycling:glass":"yes","recycling_type":"container"}},"type":"Feature"},
	{"geometry":{"coordinates":[7.261705,43.723096],"type":"Point"},"properties":{"osm_id":"4093615360","tag":{"amenity":"recycling","recycling:glass":"yes","recycling:paper":"yes","recycling_type":"container"}},"type":"Feature"},
	{"geometry":{"coordinates":[7.270488,43.709367],"type":"Point"},"properties":{"osm_id":"4109358101","tag":{"amenity":"recycling"}},"type":"Feature"},
	{"geometry":{"coordinates":[7.258907,43.711856],"type":"Point"},"properties":{"osm_id":"4163560499","tag":{"amenity":"recycling","recycling:glass":"yes","recycling:paper":"yes","recycling_type":"container"}},"type":"Feature"},
	{"geometry":{"coordinates":[7.256451,43.71128],"type":"Point"},"properties":{"osm_id":"4200457256","tag":{"amenity":"recycling","recycling:glass":"yes","recycling_type":"container"}},"type":"Feature"},
	{"geometry":{"coordinates":[7.255618,43.711662],"type":"Point"},"properties":{"osm_id":"4200457257","tag":{"amenity":"recycling","recycling:glass":"yes","recycling:paper":"yes","recycling_type":"container"}},"type":"Feature"},
	{"geometry":{"coordinates":[7.254507,43.713793],"type":"Point"},"properties":{"osm_id":"4200517935","tag":{"amenity":"recycling","recycling:glass":"yes","recycling:paper":"yes","recycling_type":"container"}},"type":"Feature"},
	{"geometry":{"coordinates":[7.253888,43.71513],"type":"Point"},"properties":{"osm_id":"4200517937","tag":{"amenity":"recycling","recycling:cartons":"yes","recycling:glass":"yes","recycling:paper":"yes","recycling:plastic_packaging":"yes","recycling_type":"container"}},"type":"Feature"},
	{"geometry":{"coordinates":[7.253608,43.716044],"type":"Point"},"properties":{"osm_id":"4200517940","tag":{"amenity":"recycling","recycling:glass":"yes","recycling:paper":"yes","recycling_type":"container"}},"type":"Feature"},
	{"geometry":{"coordinates":[7.252424,43.718685],"type":"Point"},"properties":{"osm_id":"4200517959","tag":{"amenity":"recycling","recycling:glass":"yes","recycling:paper":"yes","recycling_type":"container"}},"type":"Feature"},
	{"geometry":{"coordinates":[7.253425,43.719651],"type":"Point"},"properties":{"osm_id":"4200517961","tag":{"amenity":"recycling","recycling:glass":"yes","recycling:paper":"yes","recycling_type":"container"}},"type":"Feature"},
	{"geometry":{"coordinates":[7.262877,43.710431],"type":"Point"},"properties":{"osm_id":"4209067271","tag":{"amenity":"recycling","recycling:glass":"yes","recycling_type":"container"}},"type":"Feature"},
	{"geometry":{"coordinates":[7.262765,43.72022],"type":"Point"},"properties":{"osm_id":"4209128893","tag":{"amenity":"recycling","recycling:glass":"yes","recycling:paper":"yes","recycling_type":"container"}},"type":"Feature"},
	{"geometry":{"coordinates":[7.276003,43.73439],"type":"Point"},"properties":{"osm_id":"4213608122","tag":{"amenity":"recycling","recycling:glass":"yes","recycling:paper":"yes","recycling_type":"container"}},"type":"Feature"},
	{"geometry":{"coordinates":[7.266721,43.709179],"type":"Point"},"properties":{"osm_id":"4317311396","tag":{"amenity":"recycling","recycling:glass":"yes","recycling_type":"container"}},"type":"Feature"},
	{"geometry":{"coordinates":[7.261684,43.7158],"type":"Point"},"properties":{"osm_id":"4338635457","tag":{"amenity":"recycling","recycling:glass":"yes","recycling:paper":"yes","recycling_type":"container"}},"type":"Feature"},
	{"geometry":{"coordinates":[7.261634,43.711424],"type":"Point"},"properties":{"osm_id":"4754691198","tag":{"amenity":"recycling","recycling:glass":"yes","recycling_type":"container"}},"type":"Feature"},
	{"geometry":{"coordinates":[7.212598,43.708123],"type":"Point"},"properties":{"osm_id":"4839737162","tag":{"amenity":"recycling"}},"type":"Feature"},
	{"geometry":{"coordinates":[7.276243,43.750512],"type":"Point"},"properties":{"osm_id":"5015215942","tag":{"addr:city":"Falicon","addr:postcode":"06950","amenity":"recycling","recycling_type":"container"}},"type":"Feature"},
	{"geometry":{"coordinates":[7.255269,43.71232],"type":"Point"},"properties":{"osm_id":"5557407341","tag":{"amenity":"recycling"}},"type":"Feature"},
	{"geometry":{"coordinates":[7.288974,43.709573],"type":"Point"},"properties":{"osm_id":"6026531940","tag":{"amenity":"recycling","recycling:glass":"yes","recycling:glass_bottles":"yes","recycling:magazines":"yes","recycling:newspaper":"yes","recycling:paper":"yes","recycling_type":"container"}},"type":"Feature"},
	{"geometry":{"coordinates":[7.284483,43.718383],"type":"Point"},"properties":{"highway":"bus_stop","name":"Abattoirs","osm_id":"6225424511","tag":{"amenity":"waste_basket","bench":"yes","bus":"yes","network":"Lignes d'Azur;Zou !","public_transport":"platform","wheelchair":"yes"}},"type":"Feature"},
	{"geometry":{"coordinates":[7.284733,43.718091],"type":"Point"},"properties":{"highway":"bus_stop","name":"Abattoirs","osm_id":"6225424512","tag":{"amenity":"waste_basket","bench":"yes","bus":"yes","network":"Lignes d'Azur;Zou !","public_transport":"platform","shelter":"yes","wheelchair":"yes"}},"type":"Feature"},
	{"geometry":{"coordinates":[7.255948,43.708907],"type":"Point"},"properties":{"osm_id":"7200352505","tag":{"amenity":"recycling","recycling:glass":"yes","recycling:paper":"yes","recycling_type":"container"}},"type":"Feature"},
	{"geometry":{"coordinates":[7.251611,43.720557],"type":"Point"},"properties":{"osm_id":"7203420680","tag":{"amenity":"recycling","recycling:glass":"yes","recycling:paper":"yes","recycling_type":"container"}},"type":"Feature"},
	{"geometry":{"coordinates":[7.250923,43.721631],"type":"Point"},"properties":{"osm_id":"7203420682","tag":{"amenity":"recycling","recycling:glass":"yes","recycling_type":"container"}},"type":"Feature"},
	{"geometry":{"coordinates":[7.250551,43.722784],"type":"Point"},"properties":{"osm_id":"7203422085","tag":{"amenity":"recycling","recycling:glass":"yes","recycling:paper":"yes","recycling_type":"container"}},"type":"Feature"},
	{"geometry":{"coordinates":[7.24999,43.723952],"type":"Point"},"properties":{"osm_id":"7203422090","tag":{"amenity":"recycling","recycling:glass":"yes","recycling:paper":"yes","recycling_type":"container"}},"type":"Feature"},
	{"geometry":{"coordinates":[7.260922,43.708257],"type":"Point"},"properties":{"osm_id":"7423969785","tag":{"amenity":"recycling","recycling:glass":"yes","recycling:paper":"yes","recycling_type":"container"}},"type":"Feature"},
	{"geometry":{"coordinates":[7.252879,43.717679],"type":"Point"},"properties":{"osm_id":"7504657803","tag":{"amenity":"recycling","recycling:glass":"yes","recycling:paper":"yes","recycling_type":"container"}},"type":"Feature"},
	{"geometry":{"coordinates":[7.249447,43.725319],"type":"Point"},"properties":{"osm_id":"7555028076","tag":{"amenity":"recycling","recycling_type":"container"}},"type":"Feature"},
	{"geometry":{"coordinates":[7.287061,43.72365],"type":"Point"},"properties":{"osm_id":"7575013877","tag":{"amenity":"recycling","recycling:glass":"yes","recycling_type":"container"}},"type":"Feature"},
	{"geometry":{"coordinates":[7.287078,43.723634],"type":"Point"},"properties":{"osm_id":"7575013878","tag":{"amenity":"recycling","recycling:paper":"yes","recycling_type":"container"}},"type":"Feature"},
	{"geometry":{"coordinates":[7.254715,43.719283],"type":"Point"},"properties":{"osm_id":"7632169914","tag":{"amenity":"recycling","recycling:glass":"yes","recycling:paper":"yes","recycling_type":"container"}},"type":"Feature"},
	{"geometry":{"coordinates":[7.255256,43.714111],"type":"Point"},"properties":{"osm_id":"7638081182","tag":{"amenity":"waste_basket"}},"type":"Feature"},
	{"geometry":{"coordinates":[7.239529,43.724193],"type":"Point"},"properties":{"osm_id":"7640672453","tag":{"amenity":"recycling","recycling:clothes":"yes","recycling:glass":"yes","recycling:paper":"yes","recycling:shoes":"yes","recycling_type":"container"}},"type":"Feature"},
	{"geometry":{"coordinates":[7.255214,43.714533],"type":"Point"},"properties":{"osm_id":"7653359920","tag":{"access":"permissive","amenity":"recycling","recycling:green_waste":"yes","recycling_type":"container"}},"type":"Feature"},
	{"geometry":{"coordinates":[7.251169,43.715967],"type":"Point"},"properties":{"osm_id":"7702619174","tag":{"amenity":"waste_basket"}},"type":"Feature"},
	{"geometry":{"coordinates":[7.251491,43.716754],"type":"Point"},"properties":{"osm_id":"7702628893","tag":{"amenity":"waste_basket"}},"type":"Feature"},
	{"geometry":{"coordinates":[7.260642,43.712218],"type":"Point"},"properties":{"osm_id":"7703535338","tag":{"amenity":"recycling","recycling_type":"container"}},"type":"Feature"},
	{"geometry":{"coordinates":[7.214609,43.744255],"type":"Point"},"properties":{"osm_id":"7787541553","tag":{"amenity":"waste_basket"}},"type":"Feature"}
]
}
