{
"type": "FeatureCollection",
"features": [
	{"geometry":{"coordinates":[-55.887839,-27.360922],"type":"Point"},"properties":{"osm_id":"3560001940","tag":{"amenity":"waste_basket"}},"type":"Feature"},
	{"geometry":{"coordinates":[-55.887241,-27.361395],"type":"Point"},"properties":{"osm_id":"3560001945","tag":{"amenity":"waste_basket"}},"type":"Feature"},
	{"geometry":{"coordinates":[-55.894319,-27.365966],"type":"Point"},"properties":{"osm_id":"3564808409","tag":{"amenity":"waste_basket"}},"type":"Feature"},
	{"geometry":{"coordinates":[-55.894133,-27.365984],"type":"Point"},"properties":{"osm_id":"3564808410","tag":{"amenity":"waste_basket"}},"type":"Feature"},
	{"geometry":{"coordinates":[-55.894436,-27.366018],"type":"Point"},"properties":{"osm_id":"3564808411","tag":{"amenity":"waste_basket"}},"type":"Feature"},
	{"geometry":{"coordinates":[-55.893819,-27.36602],"type":"Point"},"properties":{"osm_id":"3564808412","tag":{"amenity":"waste_basket"}},"type":"Feature"},
	{"geometry":{"coordinates":[-55.89364,-27.36604],"type":"Point"},"properties":{"osm_id":"3564808415","tag":{"amenity":"waste_basket"}},"type":"Feature"},
	{"geometry":{"coordinates":[-55.894376,-27.366047],"type":"Point"},"properties":{"osm_id":"3564808417","tag":{"amenity":"waste_basket"}},"type":"Feature"},
	{"geometry":{"coordinates":[-55.894036,-27.366092],"type":"Point"},"properties":{"osm_id":"3564808419","tag":{"amenity":"waste_basket"}},"type":"Feature"},
	{"geometry":{"coordinates":[-55.893894,-27.366109],"type":"Point"},"properties":{"osm_id":"3564808423","tag":{"amenity":"waste_basket"}},"type":"Feature"},
	{"geometry":{"coordinates":[-55.893613,-27.366135],"type":"Point"},"properties":{"osm_id":"3564808427","tag":{"amenity":"waste_basket"}},"type":"Feature"},
	{"geometry":{"coordinates":[-55.893438,-27.366147],"type":"Point"},"properties":{"osm_id":"3564808428","tag":{"amenity":"waste_basket"}},"type":"Feature"},
	{"geometry":{"coordinates":[-55.894457,-27.366155],"type":"Point"},"properties":{"osm_id":"3564808429","tag":{"amenity":"waste_basket"}},"type":"Feature"},
	{"geometry":{"coordinates":[-55.89357,-27.366213],"type":"Point"},"properties":{"osm_id":"3564808432","tag":{"amenity":"waste_basket"}},"type":"Feature"},
	{"geometry":{"coordinates":[-55.894106,-27.366287],"type":"Point"},"properties":{"osm_id":"3564808440","tag":{"amenity":"waste_basket"}},"type":"Feature"},
	{"geometry":{"coordinates":[-55.894556,-27.366432],"type":"Point"},"properties":{"osm_id":"3564808449","tag":{"amenity":"waste_basket"}},"type":"Feature"},
	{"geometry":{"coordinates":[-55.894524,-27.366658],"type":"Point"},"properties":{"osm_id":"3564808464","tag":{"amenity":"waste_basket"}},"type":"Feature"},
	{"geometry":{"coordinates":[-55.894456,-27.366854],"type":"Point"},"properties":{"osm_id":"3564808481","tag":{"amenity":"waste_basket"}},"type":"Feature"},
	{"geometry":{"coordinates":[-55.894321,-27.366869],"type":"Point"},"properties":{"osm_id":"3564808484","tag":{"amenity":"waste_basket"}},"type":"Feature"},
	{"geometry":{"coordinates":[-55.893964,-27.366909],"type":"Point"},"properties":{"osm_id":"3564808490","tag":{"amenity":"waste_basket"}},"type":"Feature"},
	{"geometry":{"coordinates":[-55.893904,-27.366916],"type":"Point"},"properties":{"osm_id":"3564808491","tag":{"amenity":"waste_basket"}},"type":"Feature"},
	{"geometry":{"coordinates":[-55.893765,-27.366931],"type":"Point"},"properties":{"osm_id":"3564808492","tag":{"amenity":"waste_basket"}},"type":"Feature"},
	{"geometry":{"coordinates":[-55.897113,-27.351799],"type":"Point"},"properties":{"osm_id":"3569780693","tag":{"amenity":"waste_basket"}},"type":"Feature"},
	{"geometry":{"coordinates":[-55.896763,-27.351827],"type":"Point"},"properties":{"osm_id":"3569780701","tag":{"amenity":"waste_basket"}},"type":"Feature"},
	{"geometry":{"coordinates":[-55.896302,-27.351907],"type":"Point"},"properties":{"osm_id":"3569780706","tag":{"amenity":"waste_basket"}},"type":"Feature"},
	{"geometry":{"coordinates":[-55.895923,-27.351987],"type":"Point"},"properties":{"osm_id":"3569780709","tag":{"amenity":"waste_basket"}},"type":"Feature"},
	{"geometry":{"coordinates":[-55.895386,-27.352085],"type":"Point"},"properties":{"osm_id":"3569780711","tag":{"amenity":"waste_basket"}},"type":"Feature"},
	{"geometry":{"coordinates":[-55.895116,-27.352159],"type":"Point"},"properties":{"osm_id":"3569780712","tag":{"amenity":"waste_basket"}},"type":"Feature"},
	{"geometry":{"coordinates":[-55.894757,-27.352346],"type":"Point"},"properties":{"osm_id":"3569780714","tag":{"amenity":"waste_basket"}},"type":"Feature"},
	{"geometry":{"coordinates":[-55.893993,-27.352732],"type":"Point"},"properties":{"osm_id":"3569780716","tag":{"amenity":"waste_basket"}},"type":"Feature"},
	{"geometry":{"coordinates":[-55.892745,-27.35354],"type":"Point"},"properties":{"osm_id":"3569780727","tag":{"amenity":"waste_basket"}},"type":"Feature"},
	{"geometry":{"coordinates":[-55.892375,-27.354348],"type":"Point"},"properties":{"osm_id":"3569780738","tag":{"amenity":"waste_basket"}},"type":"Feature"},
	{"geometry":{"coordinates":[-55.892112,-27.355011],"type":"Point"},"properties":{"osm_id":"3569780747","tag":{"amenity":"waste_basket"}},"type":"Feature"},
	{"geometry":{"coordinates":[-55.891747,-27.355427],"type":"Point"},"properties":{"osm_id":"3569780754","tag":{"amenity":"waste_basket"}},"type":"Feature"},
	{"geometry":{"coordinates":[-55.891,-27.356285],"type":"Point"},"properties":{"osm_id":"3569780766","tag":{"amenity":"waste_basket"}},"type":"Feature"},
	{"geometry":{"coordinates":[-55.890794,-27.356907],"type":"Point"},"properties":{"osm_id":"3569780773","tag":{"amenity":"waste_basket"}},"type":"Feature"},
	{"geometry":{"coordinates":[-55.890718,-27.357583],"type":"Point"},"properties":{"osm_id":"3569780780","tag":{"amenity":"waste_basket"}},"type":"Feature"},
	{"geometry":{"coordinates":[-55.890737,-27.357931],"type":"Point"},"properties":{"osm_id":"3569780786","tag":{"amenity":"waste_basket"}},"type":"Feature"},
	{"geometry":{"coordinates":[-55.890618,-27.358282],"type":"Point"},"properties":{"osm_id":"3569780795","tag":{"amenity":"waste_basket"}},"type":"Feature"},
	{"geometry":{"coordinates":[-55.890462,-27.358481],"type":"Point"},"properties":{"osm_id":"3569780799","tag":{"amenity":"waste_basket"}},"type":"Feature"},
	{"geometry":{"coordinates":[-55.890221,-27.358634],"type":"Point"},"properties":{"osm_id":"3569780803","tag":{"amenity":"waste_basket"}},"type":"Feature"},
	{"geometry":{"coordinates":[-55.889935,-27.358729],"type":"Point"},"properties":{"osm_id":"3569780805","tag":{"amenity":"waste_basket"}},"type":"Feature"},
	{"geometry":{"coordinates":[-55.889215,-27.359328],"type":"Point"},"properties":{"osm_id":"3569780819","tag":{"amenity":"waste_basket"}},"type":"Feature"},
	{"geometry":{"coordinates":[-55.889048,-27.359539],"type":"Point"},"properties":{"osm_id":"3569780822","tag":{"amenity":"waste_basket"}},"type":"Feature"},
	{"geometry":{"coordinates":[-55.888472,-27.360378],"type":"Point"},"properties":{"osm_id":"3569780839","tag":{"amenity":"waste_basket"}},"type":"Feature"},
	{"geometry":{"coordinates":[-55.88798,-27.360614],"type":"Point"},"properties":{"osm_id":"3569780850","tag":{"amenity":"waste_basket"}},"type":"Feature"},
	{"geometry":{"coordinates":[-55.887567,-27.360837],"type":"Point"},"properties":{"osm_id":"3569780858","tag":{"amenity":"waste_basket"}},"type":"Feature"},
	{"geometry":{"coordinates":[-55.887358,-27.360976],"type":"Point"},"properties":{"osm_id":"3569780867","tag":{"amenity":"waste_basket"}},"type":"Feature"},
	{"geometry":{"coordinates":[-55.88706,-27.361192],"type":"Point"},"properties":{"osm_id":"3569780876","tag":{"amenity":"waste_basket"}},"type":"Feature"},
	{"geometry":{"coordinates":[-55.87595,-27.327759],"type":"Point"},"properties":{"osm_id":"4367809191","tag":{"amenity":"waste_basket"}},"type":"Feature"},
	{"geometry":{"coordinates":[-55.875124,-27.333043],"type":"Point"},"properties":{"osm_id":"4367885891","tag":{"amenity":"waste_basket"}},"type":"Feature"},
	{"geometry":{"coordinates":[-55.875233,-27.332632],"type":"Point"},"properties":{"osm_id":"4367894990","tag":{"amenity":"waste_basket"}},"type":"Feature"},
	{"geometry":{"coordinates":[-55.894504,-27.366521],"type":"Point"},"properties":{"osm_id":"4456894007","tag":{"addr:city":"Posadas","addr:country":"AR","addr:place":"Plaza 9 de Julio","amenity":"recycling","opening_hours":"24/7","operator":"Municipalidad de Posadas","recycling:cans":"yes","recycling:cardboard":"yes","recycling:clothes":"yes","recycling:glass_bottles":"yes","recycling:green_waste":"yes","recycling:paper":"yes","recycling:plastic":"yes","recycling:plastic_bottles":"yes","recycling:plastic_packaging":"yes","recycling_type":"container"}},"type":"Feature"},
	{"geometry":{"coordinates":[-55.897176,-27.368558],"type":"Point"},"properties":{"osm_id":"4456894008","tag":{"addr:city":"Posadas","addr:country":"AR","addr:place":"Plaza San Mart\u00c3\u00adn","amenity":"recycling","opening_hours":"24/7","operator":"Municipalidad de Posadas","recycling:cans":"yes","recycling:cardboard":"yes","recycling:clothes":"yes","recycling:glass_bottles":"yes","recycling:green_waste":"yes","recycling:paper":"yes","recycling:plastic":"yes","recycling:plastic_bottles":"yes","recycling:plastic_packaging":"yes","recycling_type":"container"}},"type":"Feature"},
	{"geometry":{"coordinates":[-55.894422,-27.365467],"type":"Point"},"properties":{"osm_id":"4530679717","tag":{"amenity":"waste_disposal"}},"type":"Feature"},
	{"geometry":{"coordinates":[-55.894066,-27.365112],"type":"Point"},"properties":{"osm_id":"4530679718","tag":{"amenity":"waste_disposal"}},"type":"Feature"},
	{"geometry":{"coordinates":[-55.894574,-27.366558],"type":"Point"},"properties":{"osm_id":"4532788375","tag":{"amenity":"waste_disposal"}},"type":"Feature"},
	{"geometry":{"coordinates":[-55.893988,-27.355052],"type":"Point"},"properties":{"osm_id":"6028867603","tag":{"amenity":"waste_basket","waste":"trash"}},"type":"Feature"},
	{"geometry":{"coordinates":[-55.893982,-27.355008],"type":"Point"},"properties":{"osm_id":"6028867604","tag":{"amenity":"waste_basket","waste":"trash"}},"type":"Feature"},
	{"geometry":{"coordinates":[-55.893679,-27.355038],"type":"Point"},"properties":{"osm_id":"6028867605","tag":{"amenity":"waste_basket","waste":"trash"}},"type":"Feature"},
	{"geometry":{"coordinates":[-55.893684,-27.355085],"type":"Point"},"properties":{"osm_id":"6028867606","tag":{"amenity":"waste_basket","waste":"trash"}},"type":"Feature"}
]
}
