{
"type": "FeatureCollection",
"lastupdate": "2020-08-04T00:00:00Z",
"features": [
	{"geometry":{"coordinates":[2.462901,49.18127],"type":"Point"},"properties":{"osm_id":"1837012550","tag":{"amenity":"waste_basket"}},"type":"Feature"},
	{"geometry":{"coordinates":[2.463033,49.181864],"type":"Point"},"properties":{"osm_id":"1837012553","tag":{"amenity":"recycling"}},"type":"Feature"},
	{"geometry":{"coordinates":[2.46141,49.186992],"type":"Point"},"properties":{"osm_id":"1837012555","tag":{"amenity":"waste_basket"}},"type":"Feature"},
	{"geometry":{"coordinates":[2.461552,49.187231],"type":"Point"},"properties":{"osm_id":"1837012557","tag":{"amenity":"waste_basket"}},"type":"Feature"},
	{"geometry":{"coordinates":[2.4616,49.187297],"type":"Point"},"properties":{"osm_id":"1837012559","tag":{"amenity":"waste_basket"}},"type":"Feature"},
	{"geometry":{"coordinates":[2.461877,49.187732],"type":"Point"},"properties":{"osm_id":"1837012568","tag":{"amenity":"waste_basket"}},"type":"Feature"},
	{"geometry":{"coordinates":[2.462249,49.188332],"type":"Point"},"properties":{"osm_id":"1837012569","tag":{"amenity":"waste_basket"}},"type":"Feature"},
	{"geometry":{"coordinates":[2.462794,49.181158],"type":"Point"},"properties":{"osm_id":"1837012572","tag":{"amenity":"waste_basket"}},"type":"Feature"},
	{"geometry":{"coordinates":[2.462925,49.189422],"type":"Point"},"properties":{"osm_id":"1837012574","tag":{"amenity":"waste_basket"}},"type":"Feature"},
	{"geometry":{"coordinates":[2.462756,49.189145],"type":"Point"},"properties":{"osm_id":"1837012577","tag":{"amenity":"waste_basket"}},"type":"Feature"},
	{"geometry":{"coordinates":[2.463143,49.189778],"type":"Point"},"properties":{"osm_id":"1837012579","tag":{"amenity":"waste_basket"}},"type":"Feature"},
	{"geometry":{"coordinates":[2.463473,49.190263],"type":"Point"},"properties":{"osm_id":"1837012584","tag":{"amenity":"waste_basket"}},"type":"Feature"},
	{"geometry":{"coordinates":[2.463092,49.189692],"type":"Point"},"properties":{"osm_id":"1837012600","tag":{"amenity":"waste_basket"}},"type":"Feature"},
	{"geometry":{"coordinates":[2.462526,49.188779],"type":"Point"},"properties":{"osm_id":"1837012604","tag":{"amenity":"waste_basket"}},"type":"Feature"},
	{"geometry":{"coordinates":[2.467032,49.192733],"type":"Point"},"properties":{"osm_id":"1837031566","tag":{"amenity":"waste_basket"}},"type":"Feature"},
	{"geometry":{"coordinates":[2.466018,49.191098],"type":"Point"},"properties":{"osm_id":"1837031567","tag":{"amenity":"waste_basket"}},"type":"Feature"},
	{"geometry":{"coordinates":[2.467214,49.193213],"type":"Point"},"properties":{"osm_id":"1837031568","tag":{"amenity":"waste_basket"}},"type":"Feature"},
	{"geometry":{"coordinates":[2.463843,49.189957],"type":"Point"},"properties":{"osm_id":"1837031569","tag":{"amenity":"waste_basket"}},"type":"Feature"},
	{"geometry":{"coordinates":[2.465262,49.190185],"type":"Point"},"properties":{"osm_id":"1837031578","tag":{"amenity":"waste_basket"}},"type":"Feature"},
	{"geometry":{"coordinates":[2.465519,49.190304],"type":"Point"},"properties":{"osm_id":"1837031579","tag":{"amenity":"waste_basket"}},"type":"Feature"},
	{"geometry":{"coordinates":[2.466616,49.192083],"type":"Point"},"properties":{"osm_id":"1837031580","tag":{"amenity":"waste_basket"}},"type":"Feature"},
	{"geometry":{"coordinates":[2.466498,49.191885],"type":"Point"},"properties":{"osm_id":"1837031581","tag":{"amenity":"waste_basket"}},"type":"Feature"},
	{"geometry":{"coordinates":[2.466852,49.192463],"type":"Point"},"properties":{"osm_id":"1837031583","tag":{"amenity":"waste_basket"}},"type":"Feature"},
	{"geometry":{"coordinates":[2.466742,49.192278],"type":"Point"},"properties":{"osm_id":"1837031587","tag":{"amenity":"waste_basket"}},"type":"Feature"},
	{"geometry":{"coordinates":[2.467233,49.193094],"type":"Point"},"properties":{"osm_id":"1837031590","tag":{"amenity":"waste_basket"}},"type":"Feature"},
	{"geometry":{"coordinates":[2.466388,49.191715],"type":"Point"},"properties":{"osm_id":"1837031592","tag":{"amenity":"waste_basket"}},"type":"Feature"},
	{"geometry":{"coordinates":[2.46363,49.195887],"type":"Point"},"properties":{"osm_id":"3429525560","tag":{"amenity":"recycling","recycling:glass":"yes","recycling_type":"container"}},"type":"Feature"},
	{"geometry":{"coordinates":[2.461119,49.180876],"type":"Point"},"properties":{"osm_id":"3435551607","tag":{"amenity":"recycling","location":"underground","recycling:cans":"no","recycling:clothes":"no","recycling:glass":"yes","recycling:paper":"no","recycling_type":"container"}},"type":"Feature"},
	{"geometry":{"coordinates":[2.461111,49.180903],"type":"Point"},"properties":{"osm_id":"3435551608","tag":{"amenity":"recycling","location":"underground","recycling:cans":"no","recycling:clothes":"no","recycling:glass":"yes","recycling:paper":"no","recycling_type":"container"}},"type":"Feature"},
	{"geometry":{"coordinates":[2.461108,49.18093],"type":"Point"},"properties":{"osm_id":"3435551609","tag":{"amenity":"recycling","location":"underground","recycling:cans":"no","recycling:clothes":"no","recycling:glass":"yes","recycling:paper":"no","recycling_type":"container"}},"type":"Feature"},
	{"geometry":{"coordinates":[2.461036,49.180987],"type":"Point"},"properties":{"osm_id":"3435551610","tag":{"amenity":"recycling","location":"underground","recycling:cans":"no","recycling:clothes":"yes","recycling:glass":"no","recycling:paper":"no","recycling_type":"container"}},"type":"Feature"},
	{"geometry":{"coordinates":[2.461003,49.180984],"type":"Point"},"properties":{"osm_id":"3435551611","tag":{"amenity":"recycling","recycling:cans":"no","recycling:clothes":"yes","recycling:glass":"no","recycling:paper":"no"}},"type":"Feature"},
	{"geometry":{"coordinates":[2.490925,49.200008],"type":"Point"},"properties":{"osm_id":"5084313258","tag":{"amenity":"waste_basket"}},"type":"Feature"},
	{"geometry":{"coordinates":[2.521025,49.154606],"type":"Point"},"properties":{"osm_id":"7523257616","tag":{"amenity":"recycling","recycling:glass_bottles":"yes","recycling_type":"container"}},"type":"Feature"},
	{"geometry":{"coordinates":[2.521008,49.154629],"type":"Point"},"properties":{"osm_id":"7523257617","tag":{"amenity":"recycling","recycling:glass_bottles":"yes","recycling_type":"container"}},"type":"Feature"},
	{"geometry":{"coordinates":[2.499199,49.198052],"type":"Point"},"properties":{"osm_id":"7551742506","tag":{"amenity":"recycling","recycling:glass_bottles":"yes","recycling_type":"container"}},"type":"Feature"}
]
}
