{
"type": "FeatureCollection",
"features": [
	{"geometry":{"coordinates":[2.46734,49.038884],"type":"Point"},"properties":{"osm_id":"345242689","tag":{"amenity":"recycling","recycling:glass":"yes"}},"type":"Feature"},
	{"geometry":{"coordinates":[2.500987,49.048673],"type":"Point"},"properties":{"osm_id":"2737721627","tag":{"amenity":"waste_basket"}},"type":"Feature"},
	{"geometry":{"coordinates":[2.50122,49.048854],"type":"Point"},"properties":{"osm_id":"2737721643","tag":{"amenity":"waste_basket"}},"type":"Feature"},
	{"geometry":{"coordinates":[2.501286,49.048899],"type":"Point"},"properties":{"osm_id":"2737721650","tag":{"amenity":"waste_basket"}},"type":"Feature"},
	{"geometry":{"coordinates":[2.501153,49.048973],"type":"Point"},"properties":{"osm_id":"2737721664","tag":{"amenity":"waste_basket"}},"type":"Feature"},
	{"geometry":{"coordinates":[2.50138,49.048986],"type":"Point"},"properties":{"osm_id":"2737721668","tag":{"amenity":"waste_basket"}},"type":"Feature"},
	{"geometry":{"coordinates":[2.501657,49.049172],"type":"Point"},"properties":{"osm_id":"2737721724","tag":{"amenity":"waste_basket"}},"type":"Feature"},
	{"geometry":{"coordinates":[2.501751,49.049344],"type":"Point"},"properties":{"osm_id":"2737721871","tag":{"amenity":"waste_basket","layer":"-1"}},"type":"Feature"},
	{"geometry":{"coordinates":[2.502716,49.049367],"type":"Point"},"properties":{"osm_id":"2737721904","tag":{"amenity":"waste_basket"}},"type":"Feature"},
	{"geometry":{"coordinates":[2.501947,49.049394],"type":"Point"},"properties":{"osm_id":"2737721924","tag":{"amenity":"waste_basket"}},"type":"Feature"},
	{"geometry":{"coordinates":[2.50181,49.049475],"type":"Point"},"properties":{"osm_id":"2737722016","tag":{"amenity":"waste_basket"}},"type":"Feature"},
	{"geometry":{"coordinates":[2.502133,49.049696],"type":"Point"},"properties":{"osm_id":"2737722087","tag":{"amenity":"waste_basket"}},"type":"Feature"},
	{"geometry":{"coordinates":[2.502404,49.049713],"type":"Point"},"properties":{"osm_id":"2737722092","tag":{"amenity":"waste_basket"}},"type":"Feature"},
	{"geometry":{"coordinates":[2.502224,49.049762],"type":"Point"},"properties":{"osm_id":"2737722100","tag":{"amenity":"waste_basket"}},"type":"Feature"},
	{"geometry":{"coordinates":[2.502648,49.049904],"type":"Point"},"properties":{"osm_id":"2737722116","tag":{"amenity":"waste_basket"}},"type":"Feature"},
	{"geometry":{"coordinates":[2.506836,49.04068],"type":"Point"},"properties":{"name":"Triskell Environnement","osm_id":"3745314225","tag":{"amenity":"recycling","contact:phone":"+33 9 50 07 81 43","opening_hours":"Mo-Fr 08:00-13:30, 13:30-19:00; Sa 08:00-13:30, 13:30-17:00","payment:cash":"yes","payment:credit_cards":"yes"}},"type":"Feature"},
	{"geometry":{"coordinates":[2.498983,49.076026],"type":"Point"},"properties":{"osm_id":"3762142746","tag":{"amenity":"recycling","recycling:glass":"yes","recycling:paper":"yes","recycling_type":"container"}},"type":"Feature"},
	{"geometry":{"coordinates":[2.505819,49.082955],"type":"Point"},"properties":{"osm_id":"3763335460","tag":{"amenity":"waste_basket"}},"type":"Feature"},
	{"geometry":{"coordinates":[2.504289,49.091491],"type":"Point"},"properties":{"osm_id":"3764850457","tag":{"amenity":"waste_basket"}},"type":"Feature"},
	{"geometry":{"coordinates":[2.502096,49.092461],"type":"Point"},"properties":{"osm_id":"3766737420","tag":{"amenity":"waste_basket"}},"type":"Feature"},
	{"geometry":{"coordinates":[2.513148,49.088624],"type":"Point"},"properties":{"osm_id":"3800031214","tag":{"amenity":"recycling","recycling:clothes":"yes","recycling:glass":"yes","recycling:glass_bottles":"yes","recycling_type":"container"}},"type":"Feature"},
	{"geometry":{"coordinates":[2.492466,49.047977],"type":"Point"},"properties":{"osm_id":"8699403307","tag":{"amenity":"waste_basket"}},"type":"Feature"},
	{"geometry":{"coordinates":[2.492125,49.045651],"type":"Point"},"properties":{"osm_id":"8699403310","tag":{"amenity":"waste_basket"}},"type":"Feature"},
	{"geometry":{"coordinates":[2.490935,49.047527],"type":"Point"},"properties":{"osm_id":"8699403312","tag":{"amenity":"waste_basket"}},"type":"Feature"},
	{"geometry":{"coordinates":[2.49114,49.044242],"type":"Point"},"properties":{"osm_id":"8729046366","tag":{"amenity":"waste_basket"}},"type":"Feature"},
	{"geometry":{"coordinates":[2.490133,49.050578],"type":"Point"},"properties":{"osm_id":"8729046367","tag":{"amenity":"waste_basket"}},"type":"Feature"},
	{"geometry":{"coordinates":[2.48938,49.050403],"type":"Point"},"properties":{"osm_id":"8729046369","tag":{"amenity":"waste_basket"}},"type":"Feature"},
	{"geometry":{"coordinates":[2.489772,49.049701],"type":"Point"},"properties":{"osm_id":"8729046371","tag":{"amenity":"waste_basket"}},"type":"Feature"},
	{"geometry":{"coordinates":[2.490144,49.048998],"type":"Point"},"properties":{"osm_id":"8729046373","tag":{"amenity":"waste_basket"}},"type":"Feature"},
	{"geometry":{"coordinates":[2.489951,49.047191],"type":"Point"},"properties":{"osm_id":"8729046384","tag":{"amenity":"waste_basket"}},"type":"Feature"},
	{"geometry":{"coordinates":[2.541249,49.060243],"type":"Point"},"properties":{"osm_id":"8825587081","tag":{"amenity":"waste_disposal","waste":"household"}},"type":"Feature"},
	{"geometry":{"coordinates":[2.541249,49.060225],"type":"Point"},"properties":{"osm_id":"8825587082","tag":{"amenity":"waste_disposal","waste":"glass"}},"type":"Feature"},
	{"geometry":{"coordinates":[2.541246,49.060261],"type":"Point"},"properties":{"osm_id":"8825587083","tag":{"amenity":"waste_disposal","waste":"recycling"}},"type":"Feature"},
	{"geometry":{"coordinates":[2.467446,49.038282],"type":"Point"},"properties":{"osm_id":"8968723956","tag":{"amenity":"waste_basket"}},"type":"Feature"},
	{"geometry":{"coordinates":[2.463466,49.043831],"type":"Point"},"properties":{"osm_id":"8968723964","tag":{"amenity":"waste_basket"}},"type":"Feature"}
]
}
