{
"type": "FeatureCollection",
"features": [
	{"geometry":{"coordinates":[2.470066,49.028303],"type":"Point"},"properties":{"osm_id":"206241756","tag":{"amenity":"recycling","location":"overground","recycling:glass_bottles":"yes","recycling_type":"container"}},"type":"Feature"},
	{"geometry":{"coordinates":[2.475161,49.036006],"type":"Point"},"properties":{"osm_id":"247775654","tag":{"amenity":"recycling","recycling:glass":"yes","recycling:paper":"yes"}},"type":"Feature"},
	{"geometry":{"coordinates":[2.462027,49.034516],"type":"Point"},"properties":{"osm_id":"249564851","tag":{"amenity":"recycling","recycling:glass":"yes","recycling:paper":"yes"}},"type":"Feature"},
	{"geometry":{"coordinates":[2.462872,49.035802],"type":"Point"},"properties":{"osm_id":"249564854","tag":{"amenity":"recycling","recycling:glass":"yes","recycling:paper":"yes"}},"type":"Feature"},
	{"geometry":{"coordinates":[2.478719,49.033305],"type":"Point"},"properties":{"osm_id":"252742862","tag":{"amenity":"recycling","recycling:glass":"yes","recycling:paper":"yes"}},"type":"Feature"},
	{"geometry":{"coordinates":[2.472022,49.025728],"type":"Point"},"properties":{"osm_id":"252744835","tag":{"amenity":"recycling","recycling:glass":"yes","recycling:paper":"yes"}},"type":"Feature"},
	{"geometry":{"coordinates":[2.470365,49.026211],"type":"Point"},"properties":{"osm_id":"252744836","tag":{"amenity":"recycling","recycling:glass":"yes","recycling:paper":"yes"}},"type":"Feature"},
	{"geometry":{"coordinates":[2.484952,49.030722],"type":"Point"},"properties":{"osm_id":"252744837","tag":{"amenity":"recycling","recycling:glass":"yes","recycling:paper":"yes"}},"type":"Feature"},
	{"geometry":{"coordinates":[2.464689,49.028789],"type":"Point"},"properties":{"osm_id":"268935073","tag":{"amenity":"recycling","recycling:glass":"yes","recycling:paper":"yes","recycling_type":"container"}},"type":"Feature"},
	{"geometry":{"coordinates":[2.461658,49.026908],"type":"Point"},"properties":{"osm_id":"308201911","tag":{"amenity":"recycling","recycling:glass":"yes","recycling:paper":"yes"}},"type":"Feature"},
	{"geometry":{"coordinates":[2.476325,49.032282],"type":"Point"},"properties":{"osm_id":"2737613168","tag":{"amenity":"waste_basket"}},"type":"Feature"},
	{"geometry":{"coordinates":[2.476292,49.032379],"type":"Point"},"properties":{"osm_id":"2737613208","tag":{"amenity":"waste_basket"}},"type":"Feature"},
	{"geometry":{"coordinates":[2.476847,49.03252],"type":"Point"},"properties":{"osm_id":"2737613236","tag":{"amenity":"waste_basket"}},"type":"Feature"},
	{"geometry":{"coordinates":[2.477005,49.032633],"type":"Point"},"properties":{"osm_id":"2737613247","tag":{"amenity":"waste_basket"}},"type":"Feature"},
	{"geometry":{"coordinates":[2.477163,49.032734],"type":"Point"},"properties":{"osm_id":"2737613292","tag":{"amenity":"waste_basket"}},"type":"Feature"},
	{"geometry":{"coordinates":[2.477753,49.033111],"type":"Point"},"properties":{"osm_id":"2737613347","tag":{"amenity":"waste_basket"}},"type":"Feature"},
	{"geometry":{"coordinates":[2.477921,49.033209],"type":"Point"},"properties":{"osm_id":"2737613395","tag":{"amenity":"waste_basket"}},"type":"Feature"},
	{"geometry":{"coordinates":[2.478364,49.033483],"type":"Point"},"properties":{"osm_id":"2737613411","tag":{"amenity":"waste_basket"}},"type":"Feature"},
	{"geometry":{"coordinates":[2.479296,49.034081],"type":"Point"},"properties":{"osm_id":"2737613457","tag":{"amenity":"waste_basket"}},"type":"Feature"},
	{"geometry":{"coordinates":[2.463367,49.024052],"type":"Point"},"properties":{"osm_id":"2737884576","tag":{"amenity":"waste_basket"}},"type":"Feature"},
	{"geometry":{"coordinates":[2.463263,49.024057],"type":"Point"},"properties":{"osm_id":"2737884580","tag":{"amenity":"waste_basket"}},"type":"Feature"},
	{"geometry":{"coordinates":[2.463057,49.024243],"type":"Point"},"properties":{"osm_id":"2737884639","tag":{"amenity":"waste_basket"}},"type":"Feature"},
	{"geometry":{"coordinates":[2.461466,49.022622],"type":"Point"},"properties":{"osm_id":"2738204170","tag":{"amenity":"waste_basket"}},"type":"Feature"},
	{"geometry":{"coordinates":[2.461502,49.022855],"type":"Point"},"properties":{"osm_id":"2738204179","tag":{"amenity":"waste_basket"}},"type":"Feature"},
	{"geometry":{"coordinates":[2.461628,49.022932],"type":"Point"},"properties":{"osm_id":"2738204198","tag":{"amenity":"waste_basket"}},"type":"Feature"},
	{"geometry":{"coordinates":[2.46201,49.022972],"type":"Point"},"properties":{"osm_id":"2738204209","tag":{"amenity":"waste_basket"}},"type":"Feature"},
	{"geometry":{"coordinates":[2.461861,49.023085],"type":"Point"},"properties":{"osm_id":"2738204217","tag":{"amenity":"waste_basket"}},"type":"Feature"},
	{"geometry":{"coordinates":[2.462501,49.023305],"type":"Point"},"properties":{"osm_id":"2738204250","tag":{"amenity":"waste_basket"}},"type":"Feature"},
	{"geometry":{"coordinates":[2.462425,49.023412],"type":"Point"},"properties":{"osm_id":"2738204264","tag":{"amenity":"waste_basket"}},"type":"Feature"},
	{"geometry":{"coordinates":[2.463056,49.023633],"type":"Point"},"properties":{"osm_id":"2738204283","tag":{"amenity":"waste_basket"}},"type":"Feature"},
	{"geometry":{"coordinates":[2.462779,49.023645],"type":"Point"},"properties":{"osm_id":"2738204285","tag":{"amenity":"waste_basket"}},"type":"Feature"},
	{"geometry":{"coordinates":[2.46286,49.023698],"type":"Point"},"properties":{"osm_id":"2738204292","tag":{"amenity":"waste_basket"}},"type":"Feature"},
	{"geometry":{"coordinates":[2.463087,49.023769],"type":"Point"},"properties":{"osm_id":"2738204299","tag":{"amenity":"waste_basket","layer":"-1"}},"type":"Feature"},
	{"geometry":{"coordinates":[2.463166,49.023876],"type":"Point"},"properties":{"osm_id":"2738204315","tag":{"amenity":"waste_basket"}},"type":"Feature"},
	{"geometry":{"coordinates":[2.471704,49.00791],"type":"Point"},"properties":{"osm_id":"3099576990","tag":{"amenity":"waste_basket"}},"type":"Feature"},
	{"geometry":{"coordinates":[2.487277,49.001046],"type":"Point"},"properties":{"osm_id":"3101371199","tag":{"amenity":"waste_basket"}},"type":"Feature"},
	{"geometry":{"coordinates":[2.486754,49.001234],"type":"Point"},"properties":{"osm_id":"3101371206","tag":{"amenity":"waste_basket"}},"type":"Feature"},
	{"geometry":{"coordinates":[2.489941,49.001169],"type":"Point"},"properties":{"osm_id":"3103226028","tag":{"amenity":"waste_basket"}},"type":"Feature"},
	{"geometry":{"coordinates":[2.488171,49.00215],"type":"Point"},"properties":{"osm_id":"3104984133","tag":{"amenity":"recycling","recycling:glass":"yes","recycling:paper":"yes"}},"type":"Feature"},
	{"geometry":{"coordinates":[2.48573,49.000063],"type":"Point"},"properties":{"osm_id":"3106354407","tag":{"amenity":"waste_basket"}},"type":"Feature"},
	{"geometry":{"coordinates":[2.467151,48.999417],"type":"Point"},"properties":{"osm_id":"3108744331","tag":{"amenity":"recycling"}},"type":"Feature"},
	{"geometry":{"coordinates":[2.462244,49.031058],"type":"Point"},"properties":{"osm_id":"6614737343","tag":{"amenity":"waste_basket"}},"type":"Feature"},
	{"geometry":{"coordinates":[2.500752,49.025701],"type":"Point"},"properties":{"name":"Bioviva","osm_id":"7798294922","tag":{"addr:city":"Roissy-en-France","addr:housenumber":"10","addr:postcode":"95700","addr:street":"Lieu-dit La Fosse Oline","amenity":"recycling","operator:type":"private","phone":"+33 6 20 31 60 45","recycling:organic_waste":"yes","recycling:wood":"yes","recycling_type":"centre","website":"https://bioviva.org"}},"type":"Feature"},
	{"geometry":{"coordinates":[2.4653,49.022622],"type":"Point"},"properties":{"osm_id":"8972473784","tag":{"amenity":"waste_basket"}},"type":"Feature"},
	{"geometry":{"coordinates":[2.471538,49.020998],"type":"Point"},"properties":{"osm_id":"8972473805","tag":{"amenity":"waste_basket"}},"type":"Feature"}
]
}
