{
"type": "FeatureCollection",
"features": [
	{"geometry":{"coordinates":[2.527746,48.959483],"type":"Point"},"properties":{"osm_id":"583412588","tag":{"amenity":"recycling"}},"type":"Feature"},
	{"geometry":{"coordinates":[2.493851,48.935706],"type":"Point"},"properties":{"osm_id":"923269109","tag":{"amenity":"recycling","recycling:glass":"yes","recycling_type":"container"}},"type":"Feature"},
	{"geometry":{"coordinates":[2.498699,48.941367],"type":"Point"},"properties":{"osm_id":"923269204","tag":{"amenity":"recycling","recycling:engine_oil":"yes","recycling:glass":"yes","recycling_type":"container"}},"type":"Feature"},
	{"geometry":{"coordinates":[2.495616,48.927169],"type":"Point"},"properties":{"osm_id":"1089280955","tag":{"amenity":"recycling","recycling:glass":"yes","recycling_type":"container"}},"type":"Feature"},
	{"geometry":{"coordinates":[2.514922,48.957943],"type":"Point"},"properties":{"osm_id":"1422426970","tag":{"amenity":"waste_basket"}},"type":"Feature"},
	{"geometry":{"coordinates":[2.491652,48.953585],"type":"Point"},"properties":{"osm_id":"1531332044","tag":{"amenity":"recycling","recycling:glass":"yes","recycling_type":"container"}},"type":"Feature"},
	{"geometry":{"coordinates":[2.505838,48.950433],"type":"Point"},"properties":{"osm_id":"1906968629","tag":{"amenity":"recycling","recycling:glass":"yes"}},"type":"Feature"},
	{"geometry":{"coordinates":[2.512795,48.940677],"type":"Point"},"properties":{"osm_id":"1919240612","tag":{"amenity":"recycling","recycling:clothes":"yes","recycling:glass":"yes"}},"type":"Feature"},
	{"geometry":{"coordinates":[2.519053,48.943106],"type":"Point"},"properties":{"osm_id":"1919240625","tag":{"amenity":"recycling","recycling:glass":"yes"}},"type":"Feature"},
	{"geometry":{"coordinates":[2.540585,48.939916],"type":"Point"},"properties":{"osm_id":"2051793591","tag":{"amenity":"waste_basket"}},"type":"Feature"},
	{"geometry":{"coordinates":[2.461121,48.937247],"type":"Point"},"properties":{"osm_id":"2675599181","tag":{"amenity":"recycling","recycling_type":"container"}},"type":"Feature"},
	{"geometry":{"coordinates":[2.460955,48.928638],"type":"Point"},"properties":{"osm_id":"2675619697","tag":{"amenity":"recycling","location":"underground","recycling:glass_bottles":"yes","recycling_type":"container"}},"type":"Feature"},
	{"geometry":{"coordinates":[2.519216,48.925959],"type":"Point"},"properties":{"osm_id":"2779311122","tag":{"amenity":"waste_basket"}},"type":"Feature"},
	{"geometry":{"coordinates":[2.519033,48.926551],"type":"Point"},"properties":{"osm_id":"2779311157","tag":{"amenity":"waste_basket"}},"type":"Feature"},
	{"geometry":{"coordinates":[2.519195,48.926556],"type":"Point"},"properties":{"osm_id":"2779311162","tag":{"amenity":"waste_basket"}},"type":"Feature"},
	{"geometry":{"coordinates":[2.519025,48.926595],"type":"Point"},"properties":{"osm_id":"2779311200","tag":{"amenity":"waste_basket"}},"type":"Feature"},
	{"geometry":{"coordinates":[2.519175,48.926598],"type":"Point"},"properties":{"osm_id":"2779311204","tag":{"amenity":"waste_basket"}},"type":"Feature"},
	{"geometry":{"coordinates":[2.518983,48.926885],"type":"Point"},"properties":{"osm_id":"2779311319","tag":{"amenity":"waste_basket"}},"type":"Feature"},
	{"geometry":{"coordinates":[2.519141,48.9269],"type":"Point"},"properties":{"osm_id":"2779311321","tag":{"amenity":"waste_basket"}},"type":"Feature"},
	{"geometry":{"coordinates":[2.519113,48.927051],"type":"Point"},"properties":{"osm_id":"2779311338","tag":{"amenity":"waste_basket"}},"type":"Feature"},
	{"geometry":{"coordinates":[2.515571,48.930777],"type":"Point"},"properties":{"osm_id":"2779381008","tag":{"amenity":"waste_basket"}},"type":"Feature"},
	{"geometry":{"coordinates":[2.515207,48.930814],"type":"Point"},"properties":{"osm_id":"2779381014","tag":{"amenity":"waste_basket"}},"type":"Feature"},
	{"geometry":{"coordinates":[2.515276,48.930891],"type":"Point"},"properties":{"osm_id":"2779381054","tag":{"amenity":"waste_basket"}},"type":"Feature"},
	{"geometry":{"coordinates":[2.514969,48.930912],"type":"Point"},"properties":{"osm_id":"2779381079","tag":{"amenity":"waste_basket"}},"type":"Feature"},
	{"geometry":{"coordinates":[2.514884,48.930938],"type":"Point"},"properties":{"osm_id":"2779381102","tag":{"amenity":"waste_basket"}},"type":"Feature"},
	{"geometry":{"coordinates":[2.515046,48.930991],"type":"Point"},"properties":{"osm_id":"2779381135","tag":{"amenity":"waste_basket"}},"type":"Feature"},
	{"geometry":{"coordinates":[2.514961,48.931023],"type":"Point"},"properties":{"osm_id":"2779381148","tag":{"amenity":"waste_basket"}},"type":"Feature"},
	{"geometry":{"coordinates":[2.514231,48.931093],"type":"Point"},"properties":{"osm_id":"2779381168","tag":{"amenity":"waste_basket"}},"type":"Feature"},
	{"geometry":{"coordinates":[2.534681,48.936009],"type":"Point"},"properties":{"osm_id":"2783190459","tag":{"amenity":"waste_basket"}},"type":"Feature"},
	{"geometry":{"coordinates":[2.533984,48.936084],"type":"Point"},"properties":{"osm_id":"2783190499","tag":{"amenity":"waste_basket"}},"type":"Feature"},
	{"geometry":{"coordinates":[2.5346,48.936232],"type":"Point"},"properties":{"osm_id":"2783190543","tag":{"amenity":"waste_basket"}},"type":"Feature"},
	{"geometry":{"coordinates":[2.535451,48.936259],"type":"Point"},"properties":{"osm_id":"2783190560","tag":{"amenity":"waste_basket"}},"type":"Feature"},
	{"geometry":{"coordinates":[2.534127,48.936269],"type":"Point"},"properties":{"osm_id":"2783190567","tag":{"amenity":"waste_basket"}},"type":"Feature"},
	{"geometry":{"coordinates":[2.534828,48.936281],"type":"Point"},"properties":{"osm_id":"2783190575","tag":{"amenity":"waste_basket"}},"type":"Feature"},
	{"geometry":{"coordinates":[2.534999,48.936334],"type":"Point"},"properties":{"osm_id":"2783190586","tag":{"amenity":"waste_basket"}},"type":"Feature"},
	{"geometry":{"coordinates":[2.535367,48.936413],"type":"Point"},"properties":{"osm_id":"2783190594","tag":{"amenity":"waste_basket"}},"type":"Feature"},
	{"geometry":{"coordinates":[2.53521,48.936529],"type":"Point"},"properties":{"osm_id":"2783190635","tag":{"amenity":"waste_basket"}},"type":"Feature"},
	{"geometry":{"coordinates":[2.535966,48.936553],"type":"Point"},"properties":{"osm_id":"2783190648","tag":{"amenity":"waste_basket"}},"type":"Feature"},
	{"geometry":{"coordinates":[2.53613,48.93659],"type":"Point"},"properties":{"osm_id":"2783190657","tag":{"amenity":"waste_basket"}},"type":"Feature"},
	{"geometry":{"coordinates":[2.535971,48.936692],"type":"Point"},"properties":{"osm_id":"2783190671","tag":{"amenity":"waste_basket"}},"type":"Feature"},
	{"geometry":{"coordinates":[2.536179,48.936742],"type":"Point"},"properties":{"osm_id":"2783190685","tag":{"amenity":"waste_basket"}},"type":"Feature"},
	{"geometry":{"coordinates":[2.513943,48.972994],"type":"Point"},"properties":{"osm_id":"2850271404","tag":{"amenity":"waste_basket"}},"type":"Feature"},
	{"geometry":{"coordinates":[2.514336,48.973151],"type":"Point"},"properties":{"osm_id":"2850271407","tag":{"amenity":"waste_basket"}},"type":"Feature"},
	{"geometry":{"coordinates":[2.514064,48.973155],"type":"Point"},"properties":{"osm_id":"2850271408","tag":{"amenity":"waste_basket"}},"type":"Feature"},
	{"geometry":{"coordinates":[2.514275,48.973164],"type":"Point"},"properties":{"osm_id":"2850271409","tag":{"amenity":"waste_basket"}},"type":"Feature"},
	{"geometry":{"coordinates":[2.514348,48.973218],"type":"Point"},"properties":{"osm_id":"2850271414","tag":{"amenity":"waste_basket"}},"type":"Feature"},
	{"geometry":{"coordinates":[2.513962,48.97326],"type":"Point"},"properties":{"osm_id":"2850271419","tag":{"amenity":"waste_basket"}},"type":"Feature"},
	{"geometry":{"coordinates":[2.513796,48.973384],"type":"Point"},"properties":{"osm_id":"2850271434","tag":{"amenity":"waste_basket"}},"type":"Feature"},
	{"geometry":{"coordinates":[2.514594,48.973384],"type":"Point"},"properties":{"osm_id":"2850271435","tag":{"amenity":"waste_basket"}},"type":"Feature"},
	{"geometry":{"coordinates":[2.514492,48.973394],"type":"Point"},"properties":{"osm_id":"2850271436","tag":{"amenity":"waste_basket"}},"type":"Feature"},
	{"geometry":{"coordinates":[2.514459,48.973404],"type":"Point"},"properties":{"osm_id":"2850271438","tag":{"amenity":"waste_basket"}},"type":"Feature"},
	{"geometry":{"coordinates":[2.514016,48.973444],"type":"Point"},"properties":{"osm_id":"2850271446","tag":{"amenity":"waste_basket"}},"type":"Feature"},
	{"geometry":{"coordinates":[2.513718,48.973466],"type":"Point"},"properties":{"osm_id":"2850271450","tag":{"amenity":"waste_basket"}},"type":"Feature"},
	{"geometry":{"coordinates":[2.513898,48.9737],"type":"Point"},"properties":{"osm_id":"2850271472","tag":{"amenity":"waste_basket"}},"type":"Feature"},
	{"geometry":{"coordinates":[2.51445,48.973702],"type":"Point"},"properties":{"osm_id":"2850271474","tag":{"amenity":"waste_basket"}},"type":"Feature"},
	{"geometry":{"coordinates":[2.514134,48.973756],"type":"Point"},"properties":{"osm_id":"2850271479","tag":{"amenity":"waste_basket"}},"type":"Feature"},
	{"geometry":{"coordinates":[2.514744,48.973759],"type":"Point"},"properties":{"osm_id":"2850271480","tag":{"amenity":"waste_basket"}},"type":"Feature"},
	{"geometry":{"coordinates":[2.514489,48.973767],"type":"Point"},"properties":{"osm_id":"2850271481","tag":{"amenity":"waste_basket"}},"type":"Feature"},
	{"geometry":{"coordinates":[2.514808,48.973835],"type":"Point"},"properties":{"osm_id":"2850271486","tag":{"amenity":"waste_basket"}},"type":"Feature"},
	{"geometry":{"coordinates":[2.51462,48.973961],"type":"Point"},"properties":{"osm_id":"2850271492","tag":{"amenity":"waste_basket"}},"type":"Feature"},
	{"geometry":{"coordinates":[2.514891,48.973967],"type":"Point"},"properties":{"osm_id":"2850271493","tag":{"amenity":"waste_basket"}},"type":"Feature"},
	{"geometry":{"coordinates":[2.514693,48.974056],"type":"Point"},"properties":{"osm_id":"2850271497","tag":{"amenity":"waste_basket"}},"type":"Feature"},
	{"geometry":{"coordinates":[2.514954,48.974058],"type":"Point"},"properties":{"osm_id":"2850271498","tag":{"amenity":"waste_basket"}},"type":"Feature"},
	{"geometry":{"coordinates":[2.514756,48.974129],"type":"Point"},"properties":{"osm_id":"2850271502","tag":{"amenity":"waste_basket"}},"type":"Feature"},
	{"geometry":{"coordinates":[2.514849,48.974272],"type":"Point"},"properties":{"osm_id":"2850271504","tag":{"amenity":"waste_basket"}},"type":"Feature"},
	{"geometry":{"coordinates":[2.513287,48.961848],"type":"Point"},"properties":{"osm_id":"2851050280","tag":{"amenity":"waste_basket"}},"type":"Feature"},
	{"geometry":{"coordinates":[2.513118,48.962139],"type":"Point"},"properties":{"osm_id":"2851050283","tag":{"amenity":"waste_basket"}},"type":"Feature"},
	{"geometry":{"coordinates":[2.512993,48.96234],"type":"Point"},"properties":{"osm_id":"2851050293","tag":{"amenity":"waste_basket"}},"type":"Feature"},
	{"geometry":{"coordinates":[2.512669,48.962518],"type":"Point"},"properties":{"osm_id":"2851050402","tag":{"amenity":"waste_basket"}},"type":"Feature"},
	{"geometry":{"coordinates":[2.512858,48.962554],"type":"Point"},"properties":{"osm_id":"2851050404","tag":{"amenity":"waste_basket"}},"type":"Feature"},
	{"geometry":{"coordinates":[2.512806,48.962631],"type":"Point"},"properties":{"osm_id":"2851050405","tag":{"amenity":"waste_basket"}},"type":"Feature"},
	{"geometry":{"coordinates":[2.512548,48.963036],"type":"Point"},"properties":{"osm_id":"2851050412","tag":{"amenity":"waste_basket"}},"type":"Feature"},
	{"geometry":{"coordinates":[2.513108,48.96181],"type":"Point"},"properties":{"osm_id":"2851132901","tag":{"amenity":"waste_basket"}},"type":"Feature"},
	{"geometry":{"coordinates":[2.512817,48.962301],"type":"Point"},"properties":{"osm_id":"2851132903","tag":{"amenity":"waste_basket"}},"type":"Feature"},
	{"geometry":{"coordinates":[2.512336,48.962836],"type":"Point"},"properties":{"osm_id":"2851132912","tag":{"amenity":"waste_basket"}},"type":"Feature"},
	{"geometry":{"coordinates":[2.512371,48.962861],"type":"Point"},"properties":{"osm_id":"2851132922","tag":{"amenity":"waste_basket"}},"type":"Feature"},
	{"geometry":{"coordinates":[2.511974,48.962865],"type":"Point"},"properties":{"osm_id":"2851132923","tag":{"amenity":"waste_basket"}},"type":"Feature"},
	{"geometry":{"coordinates":[2.512209,48.962867],"type":"Point"},"properties":{"osm_id":"2851132924","tag":{"amenity":"waste_basket"}},"type":"Feature"},
	{"geometry":{"coordinates":[2.512161,48.962951],"type":"Point"},"properties":{"osm_id":"2851132946","tag":{"amenity":"waste_basket"}},"type":"Feature"},
	{"geometry":{"coordinates":[2.512334,48.962981],"type":"Point"},"properties":{"osm_id":"2851132951","tag":{"amenity":"waste_basket"}},"type":"Feature"},
	{"geometry":{"coordinates":[2.512271,48.963086],"type":"Point"},"properties":{"osm_id":"2851132964","tag":{"amenity":"waste_basket"}},"type":"Feature"},
	{"geometry":{"coordinates":[2.512414,48.963253],"type":"Point"},"properties":{"osm_id":"2851132968","tag":{"amenity":"waste_basket"}},"type":"Feature"},
	{"geometry":{"coordinates":[2.52384,48.946652],"type":"Point"},"properties":{"osm_id":"2868460466","tag":{"amenity":"waste_basket"}},"type":"Feature"},
	{"geometry":{"coordinates":[2.524082,48.946671],"type":"Point"},"properties":{"osm_id":"2868460470","tag":{"amenity":"waste_basket"}},"type":"Feature"},
	{"geometry":{"coordinates":[2.494277,48.931395],"type":"Point"},"properties":{"osm_id":"2870315004","tag":{"amenity":"waste_basket"}},"type":"Feature"},
	{"geometry":{"coordinates":[2.494259,48.931613],"type":"Point"},"properties":{"osm_id":"2870315010","tag":{"amenity":"waste_basket"}},"type":"Feature"},
	{"geometry":{"coordinates":[2.493997,48.931641],"type":"Point"},"properties":{"osm_id":"2870315013","tag":{"amenity":"waste_basket"}},"type":"Feature"},
	{"geometry":{"coordinates":[2.493898,48.931785],"type":"Point"},"properties":{"osm_id":"2870315019","tag":{"amenity":"waste_basket"}},"type":"Feature"},
	{"geometry":{"coordinates":[2.493635,48.93186],"type":"Point"},"properties":{"osm_id":"2870315022","tag":{"amenity":"waste_basket"}},"type":"Feature"},
	{"geometry":{"coordinates":[2.494767,48.93187],"type":"Point"},"properties":{"osm_id":"2870359797","tag":{"amenity":"waste_basket","layer":"-1","level":"-1"}},"type":"Feature"},
	{"geometry":{"coordinates":[2.494714,48.931914],"type":"Point"},"properties":{"osm_id":"2870363110","tag":{"amenity":"waste_basket","layer":"-1","level":"-1"}},"type":"Feature"},
	{"geometry":{"coordinates":[2.494704,48.932229],"type":"Point"},"properties":{"osm_id":"2870363124","tag":{"amenity":"waste_basket","layer":"-1"}},"type":"Feature"},
	{"geometry":{"coordinates":[2.495084,48.932245],"type":"Point"},"properties":{"osm_id":"2870363132","tag":{"amenity":"waste_basket"}},"type":"Feature"},
	{"geometry":{"coordinates":[2.49469,48.932247],"type":"Point"},"properties":{"osm_id":"2870363137","tag":{"amenity":"waste_basket","check_date":"2021-07-25","layer":"0"}},"type":"Feature"},
	{"geometry":{"coordinates":[2.494919,48.93225],"type":"Point"},"properties":{"osm_id":"2870363138","tag":{"amenity":"waste_basket"}},"type":"Feature"},
	{"geometry":{"coordinates":[2.495751,48.932259],"type":"Point"},"properties":{"osm_id":"2870363146","tag":{"amenity":"waste_basket"}},"type":"Feature"},
	{"geometry":{"coordinates":[2.496398,48.932269],"type":"Point"},"properties":{"osm_id":"2870363152","tag":{"amenity":"waste_basket"}},"type":"Feature"},
	{"geometry":{"coordinates":[2.496105,48.932263],"type":"Point"},"properties":{"osm_id":"2870369244","tag":{"amenity":"waste_basket"}},"type":"Feature"},
	{"geometry":{"coordinates":[2.496592,48.932273],"type":"Point"},"properties":{"osm_id":"2870369247","tag":{"amenity":"waste_basket"}},"type":"Feature"},
	{"geometry":{"coordinates":[2.496149,48.932226],"type":"Point"},"properties":{"osm_id":"2870447423","tag":{"amenity":"waste_basket","layer":"-1"}},"type":"Feature"},
	{"geometry":{"coordinates":[2.496154,48.93235],"type":"Point"},"properties":{"osm_id":"2870461569","tag":{"amenity":"waste_basket","layer":"-1"}},"type":"Feature"},
	{"geometry":{"coordinates":[2.49666,48.931893],"type":"Point"},"properties":{"osm_id":"2870506092","tag":{"amenity":"waste_basket"}},"type":"Feature"},
	{"geometry":{"coordinates":[2.496367,48.931894],"type":"Point"},"properties":{"osm_id":"2870506093","tag":{"amenity":"waste_basket"}},"type":"Feature"},
	{"geometry":{"coordinates":[2.496812,48.931895],"type":"Point"},"properties":{"osm_id":"2870506096","tag":{"amenity":"waste_basket"}},"type":"Feature"},
	{"geometry":{"coordinates":[2.495936,48.932009],"type":"Point"},"properties":{"osm_id":"2870509013","tag":{"amenity":"waste_basket"}},"type":"Feature"},
	{"geometry":{"coordinates":[2.496835,48.93201],"type":"Point"},"properties":{"osm_id":"2870509024","tag":{"amenity":"waste_basket"}},"type":"Feature"},
	{"geometry":{"coordinates":[2.49443,48.932105],"type":"Point"},"properties":{"osm_id":"2870509042","tag":{"amenity":"waste_basket","layer":"0"}},"type":"Feature"},
	{"geometry":{"coordinates":[2.495495,48.932115],"type":"Point"},"properties":{"osm_id":"2870509045","tag":{"amenity":"waste_basket"}},"type":"Feature"},
	{"geometry":{"coordinates":[2.495104,48.932113],"type":"Point"},"properties":{"osm_id":"2870509048","tag":{"amenity":"waste_basket"}},"type":"Feature"},
	{"geometry":{"coordinates":[2.495632,48.932123],"type":"Point"},"properties":{"osm_id":"2870509052","tag":{"amenity":"waste_basket"}},"type":"Feature"},
	{"geometry":{"coordinates":[2.476241,48.932231],"type":"Point"},"properties":{"osm_id":"2874507007","tag":{"amenity":"waste_basket"}},"type":"Feature"},
	{"geometry":{"coordinates":[2.476367,48.932237],"type":"Point"},"properties":{"osm_id":"2874507010","tag":{"amenity":"waste_basket"}},"type":"Feature"},
	{"geometry":{"coordinates":[2.476684,48.932354],"type":"Point"},"properties":{"osm_id":"2874507034","tag":{"amenity":"waste_basket"}},"type":"Feature"},
	{"geometry":{"coordinates":[2.476932,48.932354],"type":"Point"},"properties":{"osm_id":"2874507036","tag":{"amenity":"waste_basket"}},"type":"Feature"},
	{"geometry":{"coordinates":[2.476173,48.932359],"type":"Point"},"properties":{"osm_id":"2874507047","tag":{"amenity":"waste_basket"}},"type":"Feature"},
	{"geometry":{"coordinates":[2.476462,48.932359],"type":"Point"},"properties":{"osm_id":"2874507049","tag":{"amenity":"waste_basket"}},"type":"Feature"},
	{"geometry":{"coordinates":[2.475817,48.93236],"type":"Point"},"properties":{"osm_id":"2874507052","tag":{"amenity":"waste_basket"}},"type":"Feature"},
	{"geometry":{"coordinates":[2.475188,48.932369],"type":"Point"},"properties":{"osm_id":"2874507060","tag":{"amenity":"waste_basket"}},"type":"Feature"},
	{"geometry":{"coordinates":[2.475,48.932369],"type":"Point"},"properties":{"osm_id":"2874507061","tag":{"amenity":"waste_basket"}},"type":"Feature"},
	{"geometry":{"coordinates":[2.474539,48.93237],"type":"Point"},"properties":{"osm_id":"2874507063","tag":{"amenity":"waste_basket"}},"type":"Feature"},
	{"geometry":{"coordinates":[2.474781,48.93237],"type":"Point"},"properties":{"osm_id":"2874507064","tag":{"amenity":"waste_basket"}},"type":"Feature"},
	{"geometry":{"coordinates":[2.477311,48.93241],"type":"Point"},"properties":{"osm_id":"2874507068","tag":{"amenity":"waste_basket"}},"type":"Feature"},
	{"geometry":{"coordinates":[2.477544,48.932653],"type":"Point"},"properties":{"osm_id":"2874507081","tag":{"amenity":"waste_basket"}},"type":"Feature"},
	{"geometry":{"coordinates":[2.524586,48.947452],"type":"Point"},"properties":{"osm_id":"2876007967","tag":{"amenity":"waste_basket","level":"-1"}},"type":"Feature"},
	{"geometry":{"coordinates":[2.524853,48.947499],"type":"Point"},"properties":{"osm_id":"2876007970","tag":{"amenity":"waste_basket","level":"-1"}},"type":"Feature"},
	{"geometry":{"coordinates":[2.524788,48.947567],"type":"Point"},"properties":{"osm_id":"2876007994","tag":{"amenity":"waste_basket","level":"0"}},"type":"Feature"},
	{"geometry":{"coordinates":[2.524577,48.947621],"type":"Point"},"properties":{"osm_id":"2876010706","tag":{"amenity":"waste_basket","level":"-1"}},"type":"Feature"},
	{"geometry":{"coordinates":[2.524822,48.947664],"type":"Point"},"properties":{"osm_id":"2876010707","tag":{"amenity":"waste_basket","level":"-1"}},"type":"Feature"},
	{"geometry":{"coordinates":[2.524486,48.947912],"type":"Point"},"properties":{"osm_id":"2876010728","tag":{"amenity":"waste_basket","level":"-1"}},"type":"Feature"},
	{"geometry":{"coordinates":[2.52475,48.94796],"type":"Point"},"properties":{"osm_id":"2876010729","tag":{"amenity":"waste_basket","level":"-1"}},"type":"Feature"},
	{"geometry":{"coordinates":[2.524559,48.948286],"type":"Point"},"properties":{"osm_id":"2876010743","tag":{"amenity":"waste_basket","layer":"1","level":"0"}},"type":"Feature"},
	{"geometry":{"coordinates":[2.485115,48.924759],"type":"Point"},"properties":{"osm_id":"3942622441","tag":{"amenity":"waste_basket"}},"type":"Feature"},
	{"geometry":{"coordinates":[2.528864,48.931747],"type":"Point"},"properties":{"osm_id":"4187713191","tag":{"amenity":"waste_basket"}},"type":"Feature"},
	{"geometry":{"coordinates":[2.506704,48.972412],"type":"Point"},"properties":{"osm_id":"5789957309","tag":{"amenity":"waste_basket"}},"type":"Feature"},
	{"geometry":{"coordinates":[2.462434,48.923983],"type":"Point"},"properties":{"osm_id":"7619785184","tag":{"amenity":"recycling","recycling:clothes":"yes","recycling_type":"container"}},"type":"Feature"},
	{"geometry":{"coordinates":[2.522548,48.924199],"type":"Point"},"properties":{"osm_id":"7683269615","tag":{"amenity":"recycling","recycling:glass":"yes"}},"type":"Feature"},
	{"geometry":{"coordinates":[2.524398,48.922671],"type":"Point"},"properties":{"osm_id":"7683304001","tag":{"amenity":"waste_basket"}},"type":"Feature"},
	{"geometry":{"coordinates":[2.524146,48.922507],"type":"Point"},"properties":{"osm_id":"7683304003","tag":{"amenity":"waste_basket"}},"type":"Feature"},
	{"geometry":{"coordinates":[2.480382,48.929147],"type":"Point"},"properties":{"osm_id":"8515486426","tag":{"amenity":"recycling","recycling_type":"container"}},"type":"Feature"},
	{"geometry":{"coordinates":[2.516588,48.934621],"type":"Point"},"properties":{"osm_id":"8584303565","tag":{"amenity":"recycling","recycling_type":"container"}},"type":"Feature"},
	{"geometry":{"coordinates":[2.517058,48.93446],"type":"Point"},"properties":{"osm_id":"8584303566","tag":{"amenity":"recycling","recycling_type":"container"}},"type":"Feature"},
	{"geometry":{"coordinates":[2.51704,48.934382],"type":"Point"},"properties":{"osm_id":"8584303567","tag":{"amenity":"recycling","recycling_type":"container"}},"type":"Feature"},
	{"geometry":{"coordinates":[2.517395,48.934156],"type":"Point"},"properties":{"osm_id":"8584303568","tag":{"amenity":"recycling","recycling_type":"container"}},"type":"Feature"},
	{"geometry":{"coordinates":[2.517884,48.933932],"type":"Point"},"properties":{"osm_id":"8584303569","tag":{"amenity":"recycling","recycling_type":"container"}},"type":"Feature"},
	{"geometry":{"coordinates":[2.517809,48.933895],"type":"Point"},"properties":{"osm_id":"8584303570","tag":{"amenity":"recycling","recycling_type":"container"}},"type":"Feature"},
	{"geometry":{"coordinates":[2.547248,48.939889],"type":"Point"},"properties":{"osm_id":"8889861217","tag":{"amenity":"waste_basket","survey:date":"2021-07-03","waste":"trash"}},"type":"Feature"},
	{"geometry":{"coordinates":[2.54321,48.939869],"type":"Point"},"properties":{"osm_id":"8889964847","tag":{"amenity":"waste_basket","survey:date":"2021-07-03","waste":"trash"}},"type":"Feature"},
	{"geometry":{"coordinates":[2.514384,48.934704],"type":"Point"},"properties":{"osm_id":"8953883702","tag":{"amenity":"recycling","operator":"Ville de Sevran","recycling_type":"container"}},"type":"Feature"},
	{"geometry":{"coordinates":[2.514404,48.93469],"type":"Point"},"properties":{"osm_id":"8953883703","tag":{"amenity":"recycling","operator":"Ville de Sevran","recycling_type":"container"}},"type":"Feature"},
	{"geometry":{"coordinates":[2.514425,48.934676],"type":"Point"},"properties":{"osm_id":"8953883704","tag":{"amenity":"recycling","operator":"Ville de Sevran","recycling_type":"container"}},"type":"Feature"},
	{"geometry":{"coordinates":[2.514445,48.934663],"type":"Point"},"properties":{"osm_id":"8953883705","tag":{"amenity":"recycling","operator":"Ville de Sevran","recycling_type":"container"}},"type":"Feature"},
	{"geometry":{"coordinates":[2.510543,48.93428],"type":"Point"},"properties":{"osm_id":"9088212114","tag":{"amenity":"recycling","recycling_type":"container"}},"type":"Feature"},
	{"geometry":{"coordinates":[2.510519,48.934296],"type":"Point"},"properties":{"osm_id":"9088212115","tag":{"amenity":"recycling","recycling_type":"container"}},"type":"Feature"},
	{"geometry":{"coordinates":[2.510497,48.934311],"type":"Point"},"properties":{"osm_id":"9088212116","tag":{"amenity":"recycling","recycling_type":"container"}},"type":"Feature"},
	{"geometry":{"coordinates":[2.513797,48.935394],"type":"Point"},"properties":{"osm_id":"9128986935","tag":{"amenity":"recycling","operator":"Ville de Sevran","recycling_type":"container"}},"type":"Feature"},
	{"geometry":{"coordinates":[2.513815,48.935407],"type":"Point"},"properties":{"osm_id":"9128986936","tag":{"amenity":"recycling","operator":"Ville de Sevran","recycling_type":"container"}},"type":"Feature"},
	{"geometry":{"coordinates":[2.513834,48.93542],"type":"Point"},"properties":{"osm_id":"9128986937","tag":{"amenity":"recycling","operator":"Ville de Sevran","recycling_type":"container"}},"type":"Feature"},
	{"geometry":{"coordinates":[2.51466,48.93597],"type":"Point"},"properties":{"osm_id":"9128986938","tag":{"amenity":"recycling","operator":"Ville de Sevran","recycling_type":"container"}},"type":"Feature"},
	{"geometry":{"coordinates":[2.51468,48.935984],"type":"Point"},"properties":{"osm_id":"9128986939","tag":{"amenity":"recycling","operator":"Ville de Sevran","recycling_type":"container"}},"type":"Feature"},
	{"geometry":{"coordinates":[2.514699,48.935996],"type":"Point"},"properties":{"osm_id":"9128986940","tag":{"amenity":"recycling","operator":"Ville de Sevran","recycling_type":"container"}},"type":"Feature"},
	{"geometry":{"coordinates":[2.514493,48.93601],"type":"Point"},"properties":{"osm_id":"9128986941","tag":{"amenity":"recycling","operator":"Ville de Sevran","recycling_type":"container"}},"type":"Feature"},
	{"geometry":{"coordinates":[2.514512,48.936022],"type":"Point"},"properties":{"osm_id":"9128986942","tag":{"amenity":"recycling","operator":"Ville de Sevran","recycling_type":"container"}},"type":"Feature"},
	{"geometry":{"coordinates":[2.514531,48.936034],"type":"Point"},"properties":{"osm_id":"9128986943","tag":{"amenity":"recycling","operator":"Ville de Sevran","recycling_type":"container"}},"type":"Feature"},
	{"geometry":{"coordinates":[2.51455,48.936047],"type":"Point"},"properties":{"osm_id":"9128986944","tag":{"amenity":"recycling","operator":"Ville de Sevran","recycling_type":"container"}},"type":"Feature"},
	{"geometry":{"coordinates":[2.514575,48.936065],"type":"Point"},"properties":{"osm_id":"9128986945","tag":{"amenity":"recycling","operator":"Le Relais","recycling:clothes":"yes/no","recycling_type":"container"}},"type":"Feature"},
	{"geometry":{"coordinates":[2.5133,48.934474],"type":"Point"},"properties":{"osm_id":"9129021237","tag":{"amenity":"recycling","operator":"Ville de Sevran","recycling_type":"container"}},"type":"Feature"},
	{"geometry":{"coordinates":[2.513329,48.934454],"type":"Point"},"properties":{"osm_id":"9129021238","tag":{"amenity":"recycling","operator":"Ville de Sevran","recycling_type":"container"}},"type":"Feature"},
	{"geometry":{"coordinates":[2.513349,48.93444],"type":"Point"},"properties":{"osm_id":"9129021239","tag":{"amenity":"recycling","operator":"Ville de Sevran","recycling_type":"container"}},"type":"Feature"},
	{"geometry":{"coordinates":[2.513381,48.93442],"type":"Point"},"properties":{"osm_id":"9129021240","tag":{"amenity":"recycling","operator":"Ville de Sevran","recycling_type":"container"}},"type":"Feature"},
	{"geometry":{"coordinates":[2.513402,48.934407],"type":"Point"},"properties":{"osm_id":"9129021241","tag":{"amenity":"recycling","operator":"Ville de Sevran","recycling_type":"container"}},"type":"Feature"}
]
}
