{
"type": "FeatureCollection",
"features": [
	{"geometry":{"coordinates":[2.485056,48.802583],"type":"Point"},"properties":{"osm_id":"473429886","tag":{"amenity":"recycling","recycling:cardboard":"yes","recycling:clothes":"yes","recycling:glass_bottles":"yes","recycling:newspaper":"yes","recycling_type":"container","survey:date":"2017-07-06","wheelchair":"yes"}},"type":"Feature"},
	{"geometry":{"coordinates":[2.484403,48.804988],"type":"Point"},"properties":{"osm_id":"473429887","tag":{"amenity":"recycling","recycling:glass":"yes","recycling:newspaper":"yes","recycling_type":"container"}},"type":"Feature"},
	{"geometry":{"coordinates":[2.510863,48.79469],"type":"Point"},"properties":{"osm_id":"554150497","tag":{"amenity":"recycling","recycling:glass":"yes","recycling:paper":"yes","recycling_type":"container"}},"type":"Feature"},
	{"geometry":{"coordinates":[2.516178,48.79238],"type":"Point"},"properties":{"osm_id":"694089990","tag":{"amenity":"recycling","recycling:clothes":"yes","recycling:glass":"yes","recycling:paper":"yes","recycling_type":"container"}},"type":"Feature"},
	{"geometry":{"coordinates":[2.478373,48.800998],"type":"Point"},"properties":{"osm_id":"768055276","tag":{"amenity":"recycling","recycling:glass":"yes"}},"type":"Feature"},
	{"geometry":{"coordinates":[2.490152,48.803094],"type":"Point"},"properties":{"osm_id":"769192421","tag":{"amenity":"recycling","operator":"Croix Rouge Fran\u00c3\u00a7aise","recycling:clothes":"yes","recycling_type":"container"}},"type":"Feature"},
	{"geometry":{"coordinates":[2.470944,48.806821],"type":"Point"},"properties":{"osm_id":"770220062","tag":{"amenity":"recycling","location":"overground","recycling:clothes":"yes","recycling:glass":"yes","recycling:newspaper":"yes","recycling:paper":"yes","recycling_type":"container"}},"type":"Feature"},
	{"geometry":{"coordinates":[2.492921,48.796526],"type":"Point"},"properties":{"osm_id":"800150469","tag":{"amenity":"recycling","location":"overground","recycling:glass":"yes","recycling:paper":"yes","recycling_type":"container"}},"type":"Feature"},
	{"geometry":{"coordinates":[2.492856,48.796518],"type":"Point"},"properties":{"osm_id":"800150474","tag":{"amenity":"recycling","location":"overground","recycling:clothes":"yes","recycling_type":"container"}},"type":"Feature"},
	{"geometry":{"coordinates":[2.485411,48.798681],"type":"Point"},"properties":{"osm_id":"1117079331","tag":{"amenity":"recycling","location":"underground","recycling:glass":"yes","recycling:paper":"yes","recycling_type":"container"}},"type":"Feature"},
	{"geometry":{"coordinates":[2.496796,48.805446],"type":"Point"},"properties":{"osm_id":"1118774026","tag":{"amenity":"recycling"}},"type":"Feature"},
	{"geometry":{"coordinates":[2.497099,48.805327],"type":"Point"},"properties":{"osm_id":"1157804786","tag":{"amenity":"recycling","recycling:clothes":"yes"}},"type":"Feature"},
	{"geometry":{"coordinates":[2.491692,48.802477],"type":"Point"},"properties":{"osm_id":"1157804827","tag":{"amenity":"recycling","recycling:cardboard":"yes","recycling:clothes":"yes","recycling:glass":"yes","recycling:paper":"yes"}},"type":"Feature"},
	{"geometry":{"coordinates":[2.496903,48.793289],"type":"Point"},"properties":{"osm_id":"1168040456","tag":{"amenity":"recycling","location":"overground","recycling:glass":"yes","recycling:paper":"yes","recycling_type":"container"}},"type":"Feature"},
	{"geometry":{"coordinates":[2.486886,48.767049],"type":"Point"},"properties":{"osm_id":"1177524693","tag":{"amenity":"recycling","recycling:clothes":"yes"}},"type":"Feature"},
	{"geometry":{"coordinates":[2.486397,48.796975],"type":"Point"},"properties":{"osm_id":"1194165597","tag":{"amenity":"recycling","recycling:paper":"yes"}},"type":"Feature"},
	{"geometry":{"coordinates":[2.486944,48.797085],"type":"Point"},"properties":{"osm_id":"1194165600","tag":{"amenity":"recycling","recycling:glass":"yes"}},"type":"Feature"},
	{"geometry":{"coordinates":[2.486817,48.797003],"type":"Point"},"properties":{"osm_id":"1194165607","tag":{"amenity":"recycling","recycling:clothes":"yes"}},"type":"Feature"},
	{"geometry":{"coordinates":[2.480247,48.798319],"type":"Point"},"properties":{"osm_id":"1224811452","tag":{"amenity":"recycling","location":"overground","recycling:glass":"yes","recycling_type":"container"}},"type":"Feature"},
	{"geometry":{"coordinates":[2.473516,48.799019],"type":"Point"},"properties":{"osm_id":"1224811481","tag":{"amenity":"recycling","recycling:glass":"yes","recycling:paper":"yes"}},"type":"Feature"},
	{"geometry":{"coordinates":[2.498913,48.797822],"type":"Point"},"properties":{"osm_id":"1226917517","tag":{"amenity":"recycling","location":"overground","recycling:glass":"yes","recycling:paper":"yes","recycling_type":"container"}},"type":"Feature"},
	{"geometry":{"coordinates":[2.471965,48.8016],"type":"Point"},"properties":{"osm_id":"1237202653","tag":{"amenity":"recycling","recycling:glass":"yes"}},"type":"Feature"},
	{"geometry":{"coordinates":[2.498355,48.797469],"type":"Point"},"properties":{"osm_id":"1239577958","tag":{"amenity":"recycling","location":"overground","operator":"Le Relais","recycling:clothes":"yes","recycling_type":"container"}},"type":"Feature"},
	{"geometry":{"coordinates":[2.506485,48.801855],"type":"Point"},"properties":{"osm_id":"1239624310","tag":{"amenity":"recycling","recycling:glass":"yes","recycling:paper":"no","recycling_type":"container"}},"type":"Feature"},
	{"geometry":{"coordinates":[2.473106,48.805878],"type":"Point"},"properties":{"osm_id":"1240476819","tag":{"amenity":"recycling","recycling:glass":"yes","recycling:paper":"yes","recycling_type":"container"}},"type":"Feature"},
	{"geometry":{"coordinates":[2.492308,48.787413],"type":"Point"},"properties":{"osm_id":"1260899619","tag":{"amenity":"recycling","recycling:clothes":"yes","recycling:glass":"yes","recycling:paper":"yes"}},"type":"Feature"},
	{"geometry":{"coordinates":[2.494614,48.772682],"type":"Point"},"properties":{"osm_id":"1474338546","tag":{"amenity":"recycling","recycling:clothes":"yes"}},"type":"Feature"},
	{"geometry":{"coordinates":[2.498032,48.773313],"type":"Point"},"properties":{"osm_id":"1474338569","tag":{"amenity":"recycling","recycling:clothes":"yes","recycling_type":"container"}},"type":"Feature"},
	{"geometry":{"coordinates":[2.50832,48.771565],"type":"Point"},"properties":{"osm_id":"1474891614","tag":{"amenity":"recycling","recycling:glass":"yes","recycling_type":"container"}},"type":"Feature"},
	{"geometry":{"coordinates":[2.515079,48.783556],"type":"Point"},"properties":{"osm_id":"1481491224","tag":{"amenity":"recycling","recycling:glass":"yes"}},"type":"Feature"},
	{"geometry":{"coordinates":[2.510808,48.806593],"type":"Point"},"properties":{"osm_id":"1481491273","tag":{"amenity":"recycling","location":"underground","recycling:clothes":"yes","recycling:glass":"yes","recycling:paper":"yes","recycling_type":"container"}},"type":"Feature"},
	{"geometry":{"coordinates":[2.505213,48.788914],"type":"Point"},"properties":{"osm_id":"1481532310","tag":{"amenity":"recycling","location":"underground","recycling:clothes":"yes","recycling:glass":"yes","recycling:paper":"yes","recycling_type":"container"}},"type":"Feature"},
	{"geometry":{"coordinates":[2.481543,48.791867],"type":"Point"},"properties":{"osm_id":"1481532334","tag":{"amenity":"recycling","recycling:glass":"yes","recycling:paper":"yes"}},"type":"Feature"},
	{"geometry":{"coordinates":[2.483716,48.786575],"type":"Point"},"properties":{"osm_id":"1642006659","tag":{"amenity":"recycling","recycling:paper":"yes","recycling_type":"container"}},"type":"Feature"},
	{"geometry":{"coordinates":[2.483837,48.786701],"type":"Point"},"properties":{"osm_id":"1642006667","tag":{"amenity":"recycling","recycling:glass":"yes","recycling_type":"container"}},"type":"Feature"},
	{"geometry":{"coordinates":[2.482607,48.787613],"type":"Point"},"properties":{"osm_id":"1642006688","tag":{"amenity":"recycling","recycling:clothes":"yes","recycling:glass":"yes","recycling:paper":"yes","recycling_type":"container"}},"type":"Feature"},
	{"geometry":{"coordinates":[2.503136,48.798297],"type":"Point"},"properties":{"osm_id":"1642963269","tag":{"amenity":"recycling","recycling:clothes":"yes","recycling_type":"container"}},"type":"Feature"},
	{"geometry":{"coordinates":[2.510373,48.791237],"type":"Point"},"properties":{"osm_id":"1643358087","tag":{"amenity":"recycling","recycling:clothes":"yes","recycling_type":"container"}},"type":"Feature"},
	{"geometry":{"coordinates":[2.478574,48.801012],"type":"Point"},"properties":{"osm_id":"1799096170","tag":{"amenity":"waste_basket"}},"type":"Feature"},
	{"geometry":{"coordinates":[2.47808,48.801149],"type":"Point"},"properties":{"osm_id":"1799096174","tag":{"amenity":"waste_basket"}},"type":"Feature"},
	{"geometry":{"coordinates":[2.471713,48.800621],"type":"Point"},"properties":{"osm_id":"1802545978","tag":{"amenity":"waste_basket"}},"type":"Feature"},
	{"geometry":{"coordinates":[2.471821,48.800561],"type":"Point"},"properties":{"osm_id":"1802545983","tag":{"amenity":"waste_basket"}},"type":"Feature"},
	{"geometry":{"coordinates":[2.471617,48.800474],"type":"Point"},"properties":{"osm_id":"1802545985","tag":{"amenity":"waste_basket"}},"type":"Feature"},
	{"geometry":{"coordinates":[2.471899,48.800685],"type":"Point"},"properties":{"osm_id":"1802545986","tag":{"amenity":"waste_basket"}},"type":"Feature"},
	{"geometry":{"coordinates":[2.473487,48.806665],"type":"Point"},"properties":{"osm_id":"1805544673","tag":{"amenity":"waste_basket"}},"type":"Feature"},
	{"geometry":{"coordinates":[2.471401,48.804408],"type":"Point"},"properties":{"osm_id":"1805589823","tag":{"amenity":"recycling","recycling:glass":"yes","recycling:paper":"yes","recycling_type":"container"}},"type":"Feature"},
	{"geometry":{"coordinates":[2.471851,48.802014],"type":"Point"},"properties":{"osm_id":"1805589826","tag":{"amenity":"waste_basket"}},"type":"Feature"},
	{"geometry":{"coordinates":[2.47369,48.80203],"type":"Point"},"properties":{"osm_id":"1838152928","tag":{"amenity":"waste_basket"}},"type":"Feature"},
	{"geometry":{"coordinates":[2.473394,48.801874],"type":"Point"},"properties":{"osm_id":"1838152954","tag":{"amenity":"waste_basket"}},"type":"Feature"},
	{"geometry":{"coordinates":[2.473656,48.801975],"type":"Point"},"properties":{"osm_id":"1838152989","tag":{"amenity":"waste_basket"}},"type":"Feature"},
	{"geometry":{"coordinates":[2.4837,48.798193],"type":"Point"},"properties":{"osm_id":"1845845589","tag":{"amenity":"waste_basket"}},"type":"Feature"},
	{"geometry":{"coordinates":[2.481903,48.798208],"type":"Point"},"properties":{"osm_id":"1845888708","tag":{"amenity":"waste_basket"}},"type":"Feature"},
	{"geometry":{"coordinates":[2.50525,48.757686],"type":"Point"},"properties":{"osm_id":"1863068387","tag":{"amenity":"recycling"}},"type":"Feature"},
	{"geometry":{"coordinates":[2.493544,48.801588],"type":"Point"},"properties":{"osm_id":"2023476125","tag":{"amenity":"recycling","recycling:clothes":"yes","recycling_type":"container"}},"type":"Feature"},
	{"geometry":{"coordinates":[2.49161,48.802106],"type":"Point"},"properties":{"osm_id":"2023476138","tag":{"amenity":"recycling","recycling:clothes":"yes","recycling_type":"container"}},"type":"Feature"},
	{"geometry":{"coordinates":[2.492777,48.794515],"type":"Point"},"properties":{"osm_id":"2085634275","tag":{"addr:housenumber":"9"}},"type":"Feature"},
	{"geometry":{"coordinates":[2.483251,48.803433],"type":"Point"},"properties":{"osm_id":"2386082624","tag":{"amenity":"waste_basket"}},"type":"Feature"},
	{"geometry":{"coordinates":[2.484556,48.802819],"type":"Point"},"properties":{"osm_id":"2497306473","tag":{"amenity":"waste_basket"}},"type":"Feature"},
	{"geometry":{"coordinates":[2.486104,48.803116],"type":"Point"},"properties":{"osm_id":"2497306503","tag":{"amenity":"waste_basket"}},"type":"Feature"},
	{"geometry":{"coordinates":[2.485283,48.803426],"type":"Point"},"properties":{"osm_id":"2497306506","tag":{"amenity":"waste_basket"}},"type":"Feature"},
	{"geometry":{"coordinates":[2.505822,48.753544],"type":"Point"},"properties":{"osm_id":"2522634877","tag":{"amenity":"waste_basket"}},"type":"Feature"},
	{"geometry":{"coordinates":[2.505914,48.75372],"type":"Point"},"properties":{"osm_id":"2522634878","tag":{"amenity":"waste_basket"}},"type":"Feature"},
	{"geometry":{"coordinates":[2.480371,48.803475],"type":"Point"},"properties":{"osm_id":"2558774246","tag":{"amenity":"waste_basket"}},"type":"Feature"},
	{"geometry":{"coordinates":[2.507855,48.752848],"type":"Point"},"properties":{"osm_id":"2661710153","tag":{"amenity":"waste_basket"}},"type":"Feature"},
	{"geometry":{"coordinates":[2.509068,48.752098],"type":"Point"},"properties":{"osm_id":"2661753480","tag":{"amenity":"waste_basket"}},"type":"Feature"},
	{"geometry":{"coordinates":[2.508579,48.752454],"type":"Point"},"properties":{"osm_id":"2661753482","tag":{"amenity":"waste_basket"}},"type":"Feature"},
	{"geometry":{"coordinates":[2.50813,48.752787],"type":"Point"},"properties":{"osm_id":"2661753484","tag":{"amenity":"waste_basket"}},"type":"Feature"},
	{"geometry":{"coordinates":[2.465367,48.797212],"type":"Point"},"properties":{"osm_id":"2688490597","tag":{"amenity":"recycling","recycling:clothes":"yes","recycling_type":"container"}},"type":"Feature"},
	{"geometry":{"coordinates":[2.467797,48.801189],"type":"Point"},"properties":{"osm_id":"2689424711","tag":{"amenity":"waste_basket"}},"type":"Feature"},
	{"geometry":{"coordinates":[2.467864,48.803959],"type":"Point"},"properties":{"osm_id":"2689424774","tag":{"amenity":"waste_basket"}},"type":"Feature"},
	{"geometry":{"coordinates":[2.474074,48.805941],"type":"Point"},"properties":{"osm_id":"2689424785","tag":{"amenity":"waste_basket"}},"type":"Feature"},
	{"geometry":{"coordinates":[2.473194,48.806142],"type":"Point"},"properties":{"osm_id":"2689424788","tag":{"amenity":"waste_basket"}},"type":"Feature"},
	{"geometry":{"coordinates":[2.471756,48.78845],"type":"Point"},"properties":{"osm_id":"2691511346","tag":{"amenity":"recycling","recycling:glass":"yes","recycling_type":"container"}},"type":"Feature"},
	{"geometry":{"coordinates":[2.47021,48.79346],"type":"Point"},"properties":{"osm_id":"2691511413","tag":{"amenity":"waste_basket"}},"type":"Feature"},
	{"geometry":{"coordinates":[2.469557,48.799575],"type":"Point"},"properties":{"osm_id":"2691511540","tag":{"amenity":"waste_basket"}},"type":"Feature"},
	{"geometry":{"coordinates":[2.487054,48.795981],"type":"Point"},"properties":{"osm_id":"2696448563","tag":{"amenity":"waste_basket"}},"type":"Feature"},
	{"geometry":{"coordinates":[2.487058,48.796129],"type":"Point"},"properties":{"osm_id":"2696448571","tag":{"amenity":"waste_basket"}},"type":"Feature"},
	{"geometry":{"coordinates":[2.489777,48.796678],"type":"Point"},"properties":{"osm_id":"2696448575","tag":{"amenity":"waste_basket"}},"type":"Feature"},
	{"geometry":{"coordinates":[2.485627,48.798499],"type":"Point"},"properties":{"osm_id":"2696448587","tag":{"amenity":"waste_basket"}},"type":"Feature"},
	{"geometry":{"coordinates":[2.491688,48.798968],"type":"Point"},"properties":{"osm_id":"2696448590","tag":{"amenity":"waste_basket"}},"type":"Feature"},
	{"geometry":{"coordinates":[2.490858,48.799058],"type":"Point"},"properties":{"osm_id":"2696448594","tag":{"amenity":"waste_basket"}},"type":"Feature"},
	{"geometry":{"coordinates":[2.491618,48.799156],"type":"Point"},"properties":{"osm_id":"2696448599","tag":{"amenity":"waste_basket"}},"type":"Feature"},
	{"geometry":{"coordinates":[2.490142,48.799303],"type":"Point"},"properties":{"osm_id":"2696448601","tag":{"amenity":"waste_basket"}},"type":"Feature"},
	{"geometry":{"coordinates":[2.484196,48.799962],"type":"Point"},"properties":{"osm_id":"2696448607","tag":{"amenity":"waste_basket"}},"type":"Feature"},
	{"geometry":{"coordinates":[2.486982,48.804237],"type":"Point"},"properties":{"osm_id":"2698250024","tag":{"amenity":"waste_basket"}},"type":"Feature"},
	{"geometry":{"coordinates":[2.496901,48.804396],"type":"Point"},"properties":{"osm_id":"2698250033","tag":{"amenity":"waste_basket"}},"type":"Feature"},
	{"geometry":{"coordinates":[2.497661,48.804887],"type":"Point"},"properties":{"osm_id":"2698250113","tag":{"amenity":"waste_basket"}},"type":"Feature"},
	{"geometry":{"coordinates":[2.486302,48.804913],"type":"Point"},"properties":{"osm_id":"2698250116","tag":{"amenity":"waste_basket"}},"type":"Feature"},
	{"geometry":{"coordinates":[2.486754,48.804967],"type":"Point"},"properties":{"osm_id":"2698250120","tag":{"amenity":"waste_basket"}},"type":"Feature"},
	{"geometry":{"coordinates":[2.497646,48.805065],"type":"Point"},"properties":{"osm_id":"2698250140","tag":{"amenity":"waste_basket"}},"type":"Feature"},
	{"geometry":{"coordinates":[2.497592,48.805657],"type":"Point"},"properties":{"osm_id":"2698250196","tag":{"amenity":"waste_basket"}},"type":"Feature"},
	{"geometry":{"coordinates":[2.497123,48.805718],"type":"Point"},"properties":{"osm_id":"2698250210","tag":{"amenity":"waste_basket"}},"type":"Feature"},
	{"geometry":{"coordinates":[2.496266,48.806455],"type":"Point"},"properties":{"osm_id":"2698250221","tag":{"amenity":"waste_basket"}},"type":"Feature"},
	{"geometry":{"coordinates":[2.495762,48.806773],"type":"Point"},"properties":{"osm_id":"2698250224","tag":{"amenity":"waste_basket"}},"type":"Feature"},
	{"geometry":{"coordinates":[2.477932,48.763293],"type":"Point"},"properties":{"osm_id":"2709028195","tag":{"amenity":"recycling","recycling:clothes":"yes","recycling_type":"container"}},"type":"Feature"},
	{"geometry":{"coordinates":[2.505715,48.752669],"type":"Point"},"properties":{"osm_id":"2725762078","tag":{"amenity":"waste_basket"}},"type":"Feature"},
	{"geometry":{"coordinates":[2.50622,48.75332],"type":"Point"},"properties":{"osm_id":"2725762086","tag":{"amenity":"waste_basket"}},"type":"Feature"},
	{"geometry":{"coordinates":[2.522415,48.777143],"type":"Point"},"properties":{"osm_id":"2764022203","tag":{"amenity":"waste_basket"}},"type":"Feature"},
	{"geometry":{"coordinates":[2.523683,48.777154],"type":"Point"},"properties":{"osm_id":"2764022211","tag":{"amenity":"waste_basket"}},"type":"Feature"},
	{"geometry":{"coordinates":[2.526069,48.777161],"type":"Point"},"properties":{"osm_id":"2764022214","tag":{"amenity":"waste_basket"}},"type":"Feature"},
	{"geometry":{"coordinates":[2.524709,48.777199],"type":"Point"},"properties":{"osm_id":"2764022221","tag":{"amenity":"waste_basket"}},"type":"Feature"},
	{"geometry":{"coordinates":[2.526169,48.777304],"type":"Point"},"properties":{"osm_id":"2764022232","tag":{"amenity":"waste_basket"}},"type":"Feature"},
	{"geometry":{"coordinates":[2.525809,48.777349],"type":"Point"},"properties":{"osm_id":"2764022236","tag":{"amenity":"waste_basket"}},"type":"Feature"},
	{"geometry":{"coordinates":[2.526759,48.777384],"type":"Point"},"properties":{"osm_id":"2764022246","tag":{"amenity":"waste_basket"}},"type":"Feature"},
	{"geometry":{"coordinates":[2.525548,48.777786],"type":"Point"},"properties":{"osm_id":"2764022278","tag":{"amenity":"waste_basket"}},"type":"Feature"},
	{"geometry":{"coordinates":[2.525931,48.777853],"type":"Point"},"properties":{"osm_id":"2764022287","tag":{"amenity":"waste_basket"}},"type":"Feature"},
	{"geometry":{"coordinates":[2.521964,48.777868],"type":"Point"},"properties":{"osm_id":"2764022292","tag":{"amenity":"waste_basket"}},"type":"Feature"},
	{"geometry":{"coordinates":[2.524473,48.777992],"type":"Point"},"properties":{"osm_id":"2764022306","tag":{"amenity":"waste_basket"}},"type":"Feature"},
	{"geometry":{"coordinates":[2.526179,48.778097],"type":"Point"},"properties":{"osm_id":"2764022327","tag":{"amenity":"waste_basket"}},"type":"Feature"},
	{"geometry":{"coordinates":[2.527304,48.778279],"type":"Point"},"properties":{"osm_id":"2764022338","tag":{"amenity":"waste_basket"}},"type":"Feature"},
	{"geometry":{"coordinates":[2.53052,48.777858],"type":"Point"},"properties":{"osm_id":"2772910468","tag":{"amenity":"waste_basket"}},"type":"Feature"},
	{"geometry":{"coordinates":[2.53047,48.77798],"type":"Point"},"properties":{"osm_id":"2772910475","tag":{"amenity":"waste_basket"}},"type":"Feature"},
	{"geometry":{"coordinates":[2.525531,48.778493],"type":"Point"},"properties":{"osm_id":"2772910500","tag":{"amenity":"waste_basket"}},"type":"Feature"},
	{"geometry":{"coordinates":[2.529779,48.77873],"type":"Point"},"properties":{"osm_id":"2772910501","tag":{"amenity":"waste_basket"}},"type":"Feature"},
	{"geometry":{"coordinates":[2.530586,48.778974],"type":"Point"},"properties":{"osm_id":"2772910504","tag":{"amenity":"waste_basket"}},"type":"Feature"},
	{"geometry":{"coordinates":[2.528424,48.779013],"type":"Point"},"properties":{"osm_id":"2772910506","tag":{"amenity":"waste_basket"}},"type":"Feature"},
	{"geometry":{"coordinates":[2.526756,48.779315],"type":"Point"},"properties":{"osm_id":"2772910518","tag":{"amenity":"waste_basket"}},"type":"Feature"},
	{"geometry":{"coordinates":[2.529327,48.779421],"type":"Point"},"properties":{"osm_id":"2772910521","tag":{"amenity":"waste_basket"}},"type":"Feature"},
	{"geometry":{"coordinates":[2.52782,48.779475],"type":"Point"},"properties":{"osm_id":"2772910523","tag":{"amenity":"waste_basket"}},"type":"Feature"},
	{"geometry":{"coordinates":[2.483203,48.806625],"type":"Point"},"properties":{"osm_id":"3252471645","tag":{"amenity":"recycling","recycling:glass":"yes","recycling:paper":"yes","recycling_type":"container"}},"type":"Feature"},
	{"geometry":{"coordinates":[2.518066,48.777372],"type":"Point"},"properties":{"osm_id":"3758972776","tag":{"amenity":"waste_basket"}},"type":"Feature"},
	{"geometry":{"coordinates":[2.478315,48.801014],"type":"Point"},"properties":{"osm_id":"3762924067","tag":{"amenity":"recycling","recycling:glass":"yes"}},"type":"Feature"},
	{"geometry":{"coordinates":[2.47846,48.800959],"type":"Point"},"properties":{"osm_id":"3762924071","tag":{"amenity":"recycling","operator":"Le Relais","recycling:clothes":"yes","recycling:shoes":"yes","recycling_type":"container"}},"type":"Feature"},
	{"geometry":{"coordinates":[2.478252,48.801032],"type":"Point"},"properties":{"osm_id":"3762924072","tag":{"amenity":"recycling","recycling:paper":"yes"}},"type":"Feature"},
	{"geometry":{"coordinates":[2.477722,48.800618],"type":"Point"},"properties":{"osm_id":"3764390763","tag":{"amenity":"waste_basket"}},"type":"Feature"},
	{"geometry":{"coordinates":[2.485662,48.804464],"type":"Point"},"properties":{"osm_id":"3866695781","tag":{"amenity":"waste_basket","colour":"black","covered":"yes","recycling":"yes"}},"type":"Feature"},
	{"geometry":{"coordinates":[2.485517,48.804514],"type":"Point"},"properties":{"osm_id":"3866698061","tag":{"amenity":"waste_basket","colour":"black","covered":"yes","recycling":"yes"}},"type":"Feature"},
	{"geometry":{"coordinates":[2.480223,48.798309],"type":"Point"},"properties":{"name":"Le Relais","osm_id":"4385123274","tag":{"amenity":"recycling","location":"overground","recycling:clothes":"yes","recycling:shoes":"yes","recycling_type":"container"}},"type":"Feature"},
	{"geometry":{"coordinates":[2.515826,48.801298],"type":"Point"},"properties":{"osm_id":"6984865639","tag":{"amenity":"recycling","recycling:glass":"yes","recycling:paper":"yes","recycling_type":"container"}},"type":"Feature"},
	{"geometry":{"coordinates":[2.512441,48.80611],"type":"Point"},"properties":{"osm_id":"6984865640","tag":{"amenity":"recycling","recycling:glass":"yes","recycling:paper":"yes","recycling_type":"container"}},"type":"Feature"},
	{"geometry":{"coordinates":[2.516203,48.801304],"type":"Point"},"properties":{"osm_id":"7084769447","tag":{"amenity":"recycling","recycling:clothes":"yes","recycling:glass":"yes","recycling:paper":"yes","recycling_type":"container"}},"type":"Feature"},
	{"geometry":{"coordinates":[2.504707,48.771507],"type":"Point"},"properties":{"osm_id":"7419390325","tag":{"amenity":"recycling","mapillary":"D46dLu9P7jVCAgdFVPcWEw","recycling:clothes":"yes","recycling_type":"container"}},"type":"Feature"},
	{"geometry":{"coordinates":[2.472697,48.792775],"type":"Point"},"properties":{"osm_id":"7487041061","tag":{"amenity":"waste_basket","waste":"trash"}},"type":"Feature"},
	{"geometry":{"coordinates":[2.472846,48.792956],"type":"Point"},"properties":{"osm_id":"7487041063","tag":{"amenity":"waste_basket","waste":"trash"}},"type":"Feature"},
	{"geometry":{"coordinates":[2.47267,48.792934],"type":"Point"},"properties":{"osm_id":"7487041067","tag":{"amenity":"waste_basket","waste":"trash"}},"type":"Feature"},
	{"geometry":{"coordinates":[2.477201,48.794359],"type":"Point"},"properties":{"osm_id":"7487075302","tag":{"amenity":"waste_basket","waste":"trash"}},"type":"Feature"},
	{"geometry":{"coordinates":[2.476857,48.795385],"type":"Point"},"properties":{"osm_id":"7487075334","tag":{"amenity":"recycling","recycling:paper":"yes","recycling_type":"container"}},"type":"Feature"},
	{"geometry":{"coordinates":[2.476849,48.795371],"type":"Point"},"properties":{"osm_id":"7487075335","tag":{"amenity":"recycling","recycling:glass":"yes","recycling_type":"container"}},"type":"Feature"},
	{"geometry":{"coordinates":[2.476838,48.795349],"type":"Point"},"properties":{"osm_id":"7487075336","tag":{"amenity":"recycling","recycling:clothes":"yes","recycling_type":"container"}},"type":"Feature"}
]
}
