{
"type": "FeatureCollection",
"features": [
	{"geometry":{"coordinates":[2.47032,44.458554],"type":"Point"},"properties":{"osm_id":"2193033144","tag":{"amenity":"waste_basket"}},"type":"Feature"},
	{"geometry":{"coordinates":[2.470876,44.458399],"type":"Point"},"properties":{"osm_id":"2278206734","tag":{"amenity":"waste_basket"}},"type":"Feature"},
	{"geometry":{"coordinates":[2.513332,44.43694],"type":"Point"},"properties":{"osm_id":"2297542243","tag":{"amenity":"recycling","recycling:magazines":"yes","recycling:newspaper":"yes","recycling_type":"container"}},"type":"Feature"},
	{"geometry":{"coordinates":[2.513351,44.436936],"type":"Point"},"properties":{"osm_id":"2297542245","tag":{"amenity":"recycling","recycling:glass_bottles":"yes","recycling_type":"container"}},"type":"Feature"},
	{"geometry":{"coordinates":[2.483827,44.410519],"type":"Point"},"properties":{"osm_id":"2967537780","tag":{"amenity":"waste_basket"}},"type":"Feature"},
	{"geometry":{"coordinates":[2.483588,44.410666],"type":"Point"},"properties":{"osm_id":"2967537796","tag":{"amenity":"waste_basket"}},"type":"Feature"},
	{"geometry":{"coordinates":[2.483314,44.410858],"type":"Point"},"properties":{"osm_id":"2967537816","tag":{"amenity":"waste_basket"}},"type":"Feature"},
	{"geometry":{"coordinates":[2.483473,44.410922],"type":"Point"},"properties":{"osm_id":"2967537826","tag":{"amenity":"waste_basket"}},"type":"Feature"},
	{"geometry":{"coordinates":[2.482966,44.411247],"type":"Point"},"properties":{"osm_id":"2967538744","tag":{"amenity":"recycling","recycling:glass_bottles":"yes","recycling_type":"container"}},"type":"Feature"},
	{"geometry":{"coordinates":[2.513798,44.436862],"type":"Point"},"properties":{"osm_id":"3139901653","tag":{"amenity":"waste_basket"}},"type":"Feature"},
	{"geometry":{"coordinates":[2.518601,44.411237],"type":"Point"},"properties":{"osm_id":"4632448415","tag":{"amenity":"recycling","recycling_type":"container"}},"type":"Feature"},
	{"geometry":{"coordinates":[2.521153,44.410388],"type":"Point"},"properties":{"osm_id":"5489055579","tag":{"amenity":"recycling","recycling_type":"container"}},"type":"Feature"},
	{"geometry":{"coordinates":[2.517552,44.407353],"type":"Point"},"properties":{"osm_id":"5489117774","tag":{"amenity":"recycling","recycling_type":"container"}},"type":"Feature"}
]
}
