{
"type": "FeatureCollection",
"features": [
	{"geometry":{"coordinates":[2.540472,44.314903],"type":"Point"},"properties":{"osm_id":"1761297359","tag":{"amenity":"waste_basket"}},"type":"Feature"},
	{"geometry":{"coordinates":[2.494141,44.283499],"type":"Point"},"properties":{"osm_id":"2705502313","tag":{"amenity":"waste_disposal","description":"lieu ou les habitant d\u00c3\u00a9posent leurs ordures pour le passage du ramassage d'ordures"}},"type":"Feature"},
	{"geometry":{"coordinates":[2.545222,44.297333],"type":"Point"},"properties":{"osm_id":"3253957172","tag":{"amenity":"waste_basket"}},"type":"Feature"},
	{"geometry":{"coordinates":[2.543709,44.302076],"type":"Point"},"properties":{"osm_id":"3253957184","tag":{"amenity":"waste_basket"}},"type":"Feature"},
	{"geometry":{"coordinates":[2.541179,44.30293],"type":"Point"},"properties":{"osm_id":"3253957189","tag":{"amenity":"waste_basket"}},"type":"Feature"},
	{"geometry":{"coordinates":[2.541066,44.302988],"type":"Point"},"properties":{"osm_id":"3253957194","tag":{"amenity":"waste_basket"}},"type":"Feature"},
	{"geometry":{"coordinates":[2.5354,44.314018],"type":"Point"},"properties":{"osm_id":"3533473633","tag":{"amenity":"waste_basket"}},"type":"Feature"},
	{"geometry":{"coordinates":[2.52594,44.317579],"type":"Point"},"properties":{"osm_id":"4161787912","tag":{"amenity":"recycling","recycling:magazines":"yes","recycling:newspaper":"yes","recycling:paper":"yes","recycling_type":"container"}},"type":"Feature"},
	{"geometry":{"coordinates":[2.525914,44.317587],"type":"Point"},"properties":{"osm_id":"4161787913","tag":{"amenity":"recycling","recycling:glass_bottles":"yes","recycling_type":"container"}},"type":"Feature"},
	{"geometry":{"coordinates":[2.513364,44.279273],"type":"Point"},"properties":{"osm_id":"4695841656","tag":{"amenity":"recycling","recycling_type":"container"}},"type":"Feature"},
	{"geometry":{"coordinates":[2.547783,44.330708],"type":"Point"},"properties":{"osm_id":"5777537473","tag":{"amenity":"waste_basket"}},"type":"Feature"}
]
}
