{
"type": "FeatureCollection",
"features": [
	{"geometry":{"coordinates":[2.516131,44.24372],"type":"Point"},"properties":{"osm_id":"2152928367","tag":{"amenity":"recycling","recycling:glass":"yes"}},"type":"Feature"},
	{"geometry":{"coordinates":[2.513826,44.233925],"type":"Point"},"properties":{"osm_id":"3020101952","tag":{"amenity":"waste_basket","support":"wall_mounted","waste":"cigarette"}},"type":"Feature"},
	{"geometry":{"coordinates":[2.513702,44.234027],"type":"Point"},"properties":{"osm_id":"3020101954","tag":{"amenity":"recycling","recycling:glass_bottles":"yes","recycling_type":"container"}},"type":"Feature"},
	{"geometry":{"coordinates":[2.522584,44.27235],"type":"Point"},"properties":{"osm_id":"4695841618","tag":{"amenity":"waste_disposal"}},"type":"Feature"},
	{"geometry":{"coordinates":[2.520163,44.214515],"type":"Point"},"properties":{"osm_id":"5635750075","tag":{"amenity":"recycling","recycling_type":"container"}},"type":"Feature"},
	{"geometry":{"coordinates":[2.524287,44.272066],"type":"Point"},"properties":{"osm_id":"6076977788","tag":{"amenity":"recycling","recycling:glass_bottles":"yes","recycling_type":"container"}},"type":"Feature"},
	{"geometry":{"coordinates":[2.524245,44.272066],"type":"Point"},"properties":{"osm_id":"6076977789","tag":{"amenity":"recycling","operator":"Le Relais","recycling:clothes":"yes","recycling:shoes":"yes","recycling_type":"container"}},"type":"Feature"},
	{"geometry":{"coordinates":[2.524,44.272365],"type":"Point"},"properties":{"osm_id":"6076977808","tag":{"amenity":"waste_basket"}},"type":"Feature"},
	{"geometry":{"coordinates":[2.523384,44.272528],"type":"Point"},"properties":{"osm_id":"6076977815","tag":{"amenity":"waste_basket"}},"type":"Feature"},
	{"geometry":{"coordinates":[2.524261,44.272056],"type":"Point"},"properties":{"osm_id":"6080321413","tag":{"amenity":"waste_disposal"}},"type":"Feature"}
]
}
