{
"type": "FeatureCollection",
"features": [
	{"geometry":{"coordinates":[2.484836,42.175965],"type":"Point"},"properties":{"osm_id":"863294492","tag":{"amenity":"recycling"}},"type":"Feature"},
	{"geometry":{"coordinates":[2.49462,42.177115],"type":"Point"},"properties":{"osm_id":"1896447838","tag":{"amenity":"recycling","location":"overground","recycling:cans":"yes","recycling:clothes":"yes","recycling:glass_bottles":"yes","recycling:paper":"yes","recycling_type":"container"}},"type":"Feature"},
	{"geometry":{"coordinates":[2.493779,42.177681],"type":"Point"},"properties":{"osm_id":"6109162050","tag":{"amenity":"recycling","recycling_type":"container"}},"type":"Feature"},
	{"geometry":{"coordinates":[2.481812,42.175542],"type":"Point"},"properties":{"osm_id":"6343818920","tag":{"amenity":"waste_disposal"}},"type":"Feature"},
	{"geometry":{"coordinates":[2.476561,42.173988],"type":"Point"},"properties":{"osm_id":"6558015147","tag":{"amenity":"waste_basket"}},"type":"Feature"},
	{"geometry":{"coordinates":[2.479689,42.172529],"type":"Point"},"properties":{"osm_id":"6558072174","tag":{"amenity":"waste_disposal"}},"type":"Feature"},
	{"geometry":{"coordinates":[2.480675,42.172115],"type":"Point"},"properties":{"osm_id":"6558088808","tag":{"amenity":"waste_disposal"}},"type":"Feature"},
	{"geometry":{"coordinates":[2.48012,42.172563],"type":"Point"},"properties":{"osm_id":"6558088816","tag":{"amenity":"recycling","recycling:cardboard":"yes","recycling:glass_bottles":"yes","recycling_type":"container"}},"type":"Feature"},
	{"geometry":{"coordinates":[2.481068,42.172709],"type":"Point"},"properties":{"osm_id":"6558088817","tag":{"amenity":"recycling","recycling:plastic":"yes","recycling_type":"container"}},"type":"Feature"},
	{"geometry":{"coordinates":[2.481038,42.172707],"type":"Point"},"properties":{"osm_id":"6558088818","tag":{"amenity":"waste_disposal"}},"type":"Feature"}
]
}
