{
"type": "FeatureCollection",
"features": [
	{"geometry":{"coordinates":[-46.568664,-23.676496],"type":"Point"},"properties":{"name":"Col\u00c3\u00a9gio Piaget","osm_id":"1991585137","tag":{"amenity":"recycling","opening_hours":"Mo-Fr 07:30-13:30","recycling:cooking_oil":"yes"}},"type":"Feature"},
	{"geometry":{"coordinates":[-46.565417,-23.692287],"type":"Point"},"properties":{"osm_id":"6008939746","tag":{"amenity":"recycling","recycling:fluorescent_tubes":"yes","recycling_type":"container"}},"type":"Feature"},
	{"geometry":{"coordinates":[-46.579282,-23.711098],"type":"Point"},"properties":{"osm_id":"6011691714","tag":{"amenity":"waste_basket"}},"type":"Feature"},
	{"geometry":{"coordinates":[-46.552189,-23.65895],"type":"Point"},"properties":{"osm_id":"7161538074","tag":{"amenity":"waste_disposal"}},"type":"Feature"},
	{"geometry":{"coordinates":[-46.494638,-23.679104],"type":"Point"},"properties":{"barrier":"gate","osm_id":"8188761368"},"type":"Feature"},
	{"geometry":{"coordinates":[-46.572644,-23.7022],"type":"Point"},"properties":{"name":"WR Sucatas","osm_id":"8784033719","tag":{"addr:housenumber":"397","addr:street":"Rua Benedito Conrado Filho","addr:suburb":"Jardim Beatriz","amenity":"recycling","recycling:scrap_metal":"yes","recycling_type":"centre"}},"type":"Feature"}
]
}
