{
"type": "FeatureCollection",
"features": [
	{"geometry":{"coordinates":[103.902968,1.310613],"type":"Point"},"properties":{"osm_id":"6179984086","tag":{"amenity":"waste_basket"}},"type":"Feature"},
	{"geometry":{"coordinates":[103.90443,1.30581],"type":"Point"},"properties":{"osm_id":"6179990585","tag":{"amenity":"waste_basket"}},"type":"Feature"},
	{"geometry":{"coordinates":[103.905547,1.29788],"type":"Point"},"properties":{"osm_id":"6504681121","tag":{"amenity":"waste_basket","image":"https://images.mapillary.com/nfkg3cFb9uofCv-WVyq9-A/thumb-2048.jpg","mapillary":"https://www.mapillary.com/map/im/nfkg3cFb9uofCv-WVyq9-A"}},"type":"Feature"},
	{"geometry":{"coordinates":[103.886851,1.30847],"type":"Point"},"properties":{"osm_id":"7005502045","tag":{"amenity":"waste_basket"}},"type":"Feature"},
	{"geometry":{"coordinates":[103.933627,1.305649],"type":"Point"},"properties":{"osm_id":"7082535782","tag":{"amenity":"waste_basket"}},"type":"Feature"},
	{"geometry":{"coordinates":[103.925144,1.303824],"type":"Point"},"properties":{"osm_id":"7082539579","tag":{"amenity":"waste_basket"}},"type":"Feature"},
	{"geometry":{"coordinates":[103.928929,1.304888],"type":"Point"},"properties":{"osm_id":"7082572173","tag":{"amenity":"waste_basket"}},"type":"Feature"},
	{"geometry":{"coordinates":[103.893799,1.294866],"type":"Point"},"properties":{"osm_id":"8647914358","tag":{"amenity":"waste_basket"}},"type":"Feature"},
	{"geometry":{"coordinates":[103.939855,1.308142],"type":"Point"},"properties":{"osm_id":"8757893013","tag":{"amenity":"waste_basket"}},"type":"Feature"},
	{"geometry":{"coordinates":[103.94101,1.308437],"type":"Point"},"properties":{"osm_id":"8757906093","tag":{"amenity":"waste_basket"}},"type":"Feature"}
]
}
