{
"type": "FeatureCollection",
"features": [
	{"geometry":{"coordinates":[61.522878,54.079238],"type":"Point"},"properties":{"osm_id":"2458034211","tag":{"amenity":"waste_disposal"}},"type":"Feature"},
	{"geometry":{"coordinates":[61.489892,54.090756],"type":"Point"},"properties":{"osm_id":"2800974418","tag":{"amenity":"waste_disposal"}},"type":"Feature"},
	{"geometry":{"coordinates":[61.495939,54.084681],"type":"Point"},"properties":{"osm_id":"2801476916","tag":{"amenity":"waste_disposal"}},"type":"Feature"},
	{"geometry":{"coordinates":[61.507177,54.083911],"type":"Point"},"properties":{"osm_id":"4636926691","tag":{"amenity":"recycling","phone":"+7 951 7756019","recycling:scrap_metal":"yes","recycling_type":"centre"}},"type":"Feature"},
	{"geometry":{"coordinates":[61.486305,54.090337],"type":"Point"},"properties":{"osm_id":"5705230828","tag":{"amenity":"waste_disposal"}},"type":"Feature"},
	{"geometry":{"coordinates":[61.516381,54.079184],"type":"Point"},"properties":{"osm_id":"6574869186","tag":{"amenity":"waste_disposal"}},"type":"Feature"},
	{"geometry":{"coordinates":[61.512625,54.079303],"type":"Point"},"properties":{"osm_id":"6574869187","tag":{"amenity":"waste_disposal"}},"type":"Feature"},
	{"geometry":{"coordinates":[61.517584,54.078645],"type":"Point"},"properties":{"osm_id":"6574870185","tag":{"amenity":"waste_disposal"}},"type":"Feature"},
	{"geometry":{"coordinates":[61.523159,54.083307],"type":"Point"},"properties":{"osm_id":"7467769828","tag":{"amenity":"waste_disposal"}},"type":"Feature"},
	{"geometry":{"coordinates":[61.5224,54.084365],"type":"Point"},"properties":{"osm_id":"7628960920","tag":{"amenity":"waste_disposal"}},"type":"Feature"},
	{"geometry":{"coordinates":[61.517612,54.075559],"type":"Point"},"properties":{"osm_id":"7638500638","tag":{"amenity":"waste_disposal"}},"type":"Feature"},
	{"geometry":{"coordinates":[61.515166,54.075854],"type":"Point"},"properties":{"osm_id":"7638500643","tag":{"amenity":"waste_disposal"}},"type":"Feature"}
]
}
