{
"type": "FeatureCollection",
"lastupdate": "2020-08-04T00:00:00Z",
"features": [
	{"geometry":{"coordinates":[24.662068,60.156515],"type":"Point"},"properties":{"osm_id":"279717940","tag":{"amenity":"recycling","recycling:paper":"yes","recycling_type":"container"}},"type":"Feature"},
	{"geometry":{"coordinates":[24.632567,60.164623],"type":"Point"},"properties":{"osm_id":"281471186","tag":{"amenity":"recycling","recycling:paper":"yes"}},"type":"Feature"},
	{"geometry":{"coordinates":[24.680106,60.160761],"type":"Point"},"properties":{"osm_id":"500276370","tag":{"amenity":"recycling","recycling:cardboard":"yes","recycling:glass":"yes","recycling:paper":"yes","recycling:plastic":"no","recycling:scrap_metal":"yes","recycling_type":"container"}},"type":"Feature"},
	{"geometry":{"coordinates":[24.612899,60.182854],"type":"Point"},"properties":{"osm_id":"1303013484","tag":{"amenity":"recycling","description":"paper"}},"type":"Feature"},
	{"geometry":{"coordinates":[24.69576,60.160967],"type":"Point"},"properties":{"osm_id":"1777241804","tag":{"amenity":"recycling","recycling:clothes":"yes","recycling:glass":"yes","recycling:paper":"yes","recycling_type":"container"}},"type":"Feature"},
	{"geometry":{"coordinates":[24.688791,60.189613],"type":"Point"},"properties":{"osm_id":"3236696069","tag":{"amenity":"waste_basket"}},"type":"Feature"},
	{"geometry":{"coordinates":[24.682069,60.19224],"type":"Point"},"properties":{"osm_id":"3243171167","tag":{"amenity":"waste_basket"}},"type":"Feature"},
	{"geometry":{"coordinates":[24.651888,60.184034],"type":"Point"},"properties":{"osm_id":"3273017495","tag":{"amenity":"waste_basket"}},"type":"Feature"},
	{"geometry":{"coordinates":[24.655374,60.153048],"type":"Point"},"properties":{"osm_id":"3898416579","tag":{"amenity":"recycling","opening_hours":"24/7","operator":"Rinki Oy","recycling:cardboard":"yes","recycling:clothes":"yes","recycling:glass_bottles":"yes","recycling:paper":"yes","recycling:scrap_metal":"yes","recycling_type":"container"}},"type":"Feature"},
	{"geometry":{"coordinates":[24.626035,60.15412],"type":"Point"},"properties":{"osm_id":"4234023887","tag":{"amenity":"waste_basket"}},"type":"Feature"},
	{"geometry":{"coordinates":[24.644178,60.167119],"type":"Point"},"properties":{"osm_id":"4634675915","tag":{"amenity":"recycling","operator":"RINKI","recycling:cans":"yes","recycling:cardboard":"yes","recycling:glass":"yes","recycling:paper":"yes","recycling:plastic_bags":"yes","recycling:scrap_metal":"yes","recycling_type":"container"}},"type":"Feature"},
	{"geometry":{"coordinates":[24.662245,60.167359],"type":"Point"},"properties":{"osm_id":"4634675916","tag":{"amenity":"recycling","recycling_type":"container"}},"type":"Feature"},
	{"geometry":{"coordinates":[24.613173,60.169961],"type":"Point"},"properties":{"osm_id":"7358790392","tag":{"amenity":"waste_basket"}},"type":"Feature"},
	{"geometry":{"coordinates":[24.613442,60.17033],"type":"Point"},"properties":{"osm_id":"7358790403","tag":{"amenity":"waste_basket"}},"type":"Feature"},
	{"geometry":{"coordinates":[24.611187,60.168785],"type":"Point"},"properties":{"osm_id":"7358856308","tag":{"amenity":"waste_basket"}},"type":"Feature"},
	{"geometry":{"coordinates":[24.625005,60.154658],"type":"Point"},"properties":{"osm_id":"7359174496","tag":{"amenity":"waste_basket"}},"type":"Feature"},
	{"geometry":{"coordinates":[24.62574,60.154275],"type":"Point"},"properties":{"osm_id":"7359174497","tag":{"amenity":"waste_basket"}},"type":"Feature"},
	{"geometry":{"coordinates":[24.625345,60.154484],"type":"Point"},"properties":{"osm_id":"7532790422","tag":{"amenity":"waste_basket"}},"type":"Feature"},
	{"geometry":{"coordinates":[24.616319,60.167868],"type":"Point"},"properties":{"osm_id":"7702574267","tag":{"amenity":"recycling","opening_hours":"24/7","operator":"Rinki Oy","recycling:cardboard":"yes","recycling:clothes":"yes","recycling:glass_bottles":"yes","recycling:paper":"yes","recycling:plastic":"yes","recycling:scrap_metal":"yes","recycling_type":"container"}},"type":"Feature"},
	{"geometry":{"coordinates":[24.631278,60.155266],"type":"Point"},"properties":{"osm_id":"7707501206","tag":{"amenity":"waste_basket"}},"type":"Feature"},
	{"geometry":{"coordinates":[24.631284,60.155315],"type":"Point"},"properties":{"osm_id":"7707501207","tag":{"amenity":"waste_basket"}},"type":"Feature"},
	{"geometry":{"coordinates":[24.644248,60.16718],"type":"Point"},"properties":{"osm_id":"7734329967","tag":{"amenity":"recycling","operator":"UFF","recycling:clothes":"yes","recycling_type":"container"}},"type":"Feature"},
	{"geometry":{"coordinates":[24.610529,60.168005],"type":"Point"},"properties":{"osm_id":"7757180135","tag":{"amenity":"waste_basket"}},"type":"Feature"},
	{"geometry":{"coordinates":[24.612609,60.1671],"type":"Point"},"properties":{"osm_id":"7757217735","tag":{"amenity":"waste_basket"}},"type":"Feature"}
]
}
