{
"type": "FeatureCollection",
"features": [
	{"geometry":{"coordinates":[24.681531,60.133168],"type":"Point"},"properties":{"osm_id":"268370172","tag":{"amenity":"recycling"}},"type":"Feature"},
	{"geometry":{"coordinates":[24.674706,60.145385],"type":"Point"},"properties":{"osm_id":"418813539","tag":{"amenity":"recycling","description":"paper"}},"type":"Feature"},
	{"geometry":{"coordinates":[24.682263,60.131542],"type":"Point"},"properties":{"osm_id":"1678734754","tag":{"amenity":"recycling","recycling:paper":"yes","recycling_type":"underground"}},"type":"Feature"},
	{"geometry":{"coordinates":[24.695269,60.147346],"type":"Point"},"properties":{"osm_id":"5114809243","tag":{"amenity":"waste_basket"}},"type":"Feature"},
	{"geometry":{"coordinates":[24.672181,60.135427],"type":"Point"},"properties":{"osm_id":"7702367607","tag":{"amenity":"recycling","opening_hours":"24/7","operator":"RINKI Oy","recycling:cardboard":"yes","recycling:glass":"yes","recycling:glass_bottles":"yes","recycling:paper":"yes","recycling:plastic":"yes","recycling:scrap_metal":"yes","recycling_type":"container"}},"type":"Feature"},
	{"geometry":{"coordinates":[24.634712,60.152216],"type":"Point"},"properties":{"osm_id":"7702420607","tag":{"amenity":"recycling","operator":"UFF","recycling:clothes":"yes","recycling_type":"container"}},"type":"Feature"},
	{"geometry":{"coordinates":[24.633246,60.151272],"type":"Point"},"properties":{"osm_id":"7707502628","tag":{"amenity":"waste_basket"}},"type":"Feature"},
	{"geometry":{"coordinates":[24.632615,60.151623],"type":"Point"},"properties":{"osm_id":"7707502633","tag":{"amenity":"waste_basket"}},"type":"Feature"},
	{"geometry":{"coordinates":[24.629544,60.151435],"type":"Point"},"properties":{"osm_id":"7707502636","tag":{"amenity":"waste_basket"}},"type":"Feature"},
	{"geometry":{"coordinates":[24.630523,60.151634],"type":"Point"},"properties":{"osm_id":"7707502640","tag":{"amenity":"waste_basket"}},"type":"Feature"},
	{"geometry":{"coordinates":[24.631374,60.152055],"type":"Point"},"properties":{"osm_id":"7707502642","tag":{"amenity":"waste_basket"}},"type":"Feature"},
	{"geometry":{"coordinates":[24.649295,60.146905],"type":"Point"},"properties":{"osm_id":"7746367206","tag":{"amenity":"waste_basket"}},"type":"Feature"},
	{"geometry":{"coordinates":[24.634651,60.147229],"type":"Point"},"properties":{"osm_id":"7804523384","tag":{"amenity":"waste_basket"}},"type":"Feature"},
	{"geometry":{"coordinates":[24.632215,60.152299],"type":"Point"},"properties":{"osm_id":"7804568885","tag":{"amenity":"waste_basket"}},"type":"Feature"},
	{"geometry":{"coordinates":[24.641185,60.144302],"type":"Point"},"properties":{"osm_id":"7804568886","tag":{"amenity":"waste_basket"}},"type":"Feature"},
	{"geometry":{"coordinates":[24.637165,60.145137],"type":"Point"},"properties":{"osm_id":"7804568891","tag":{"amenity":"waste_basket","waste":"trash"}},"type":"Feature"},
	{"geometry":{"coordinates":[24.634497,60.150934],"type":"Point"},"properties":{"osm_id":"7804568892","tag":{"amenity":"waste_basket"}},"type":"Feature"},
	{"geometry":{"coordinates":[24.639635,60.144501],"type":"Point"},"properties":{"osm_id":"7804568895","tag":{"amenity":"waste_basket"}},"type":"Feature"},
	{"geometry":{"coordinates":[24.634546,60.150568],"type":"Point"},"properties":{"osm_id":"7804568896","tag":{"amenity":"waste_basket"}},"type":"Feature"},
	{"geometry":{"coordinates":[24.634485,60.150652],"type":"Point"},"properties":{"man_made":"street_cabinet","osm_id":"7804568898","tag":{"amenity":"waste_basket"}},"type":"Feature"},
	{"geometry":{"coordinates":[24.629347,60.151455],"type":"Point"},"properties":{"osm_id":"7804568900","tag":{"amenity":"waste_basket"}},"type":"Feature"},
	{"geometry":{"coordinates":[24.669663,60.141318],"type":"Point"},"properties":{"osm_id":"7814087073","tag":{"amenity":"waste_basket"}},"type":"Feature"},
	{"geometry":{"coordinates":[24.669925,60.141],"type":"Point"},"properties":{"osm_id":"7814111100","tag":{"amenity":"waste_basket"}},"type":"Feature"},
	{"geometry":{"coordinates":[24.670861,60.139902],"type":"Point"},"properties":{"osm_id":"7814111103","tag":{"amenity":"waste_basket"}},"type":"Feature"},
	{"geometry":{"coordinates":[24.636793,60.146062],"type":"Point"},"properties":{"osm_id":"7873707906","tag":{"amenity":"waste_basket","waste":"trash"}},"type":"Feature"},
	{"geometry":{"coordinates":[24.638116,60.146702],"type":"Point"},"properties":{"osm_id":"7875806388","tag":{"amenity":"waste_basket","waste":"trash"}},"type":"Feature"},
	{"geometry":{"coordinates":[24.666035,60.140354],"type":"Point"},"properties":{"osm_id":"8171687982","tag":{"entrance":"service"}},"type":"Feature"},
	{"geometry":{"coordinates":[24.642951,60.140003],"type":"Point"},"properties":{"osm_id":"8209117603","tag":{"amenity":"waste_disposal","location":"underground","waste":"trash"}},"type":"Feature"},
	{"geometry":{"coordinates":[24.6686,60.142061],"type":"Point"},"properties":{"osm_id":"8340044438","tag":{"amenity":"waste_basket"}},"type":"Feature"},
	{"geometry":{"coordinates":[24.642244,60.141864],"type":"Point"},"properties":{"osm_id":"8571006560","tag":{"amenity":"recycling","recycling:clothes":"yes","recycling_type":"container"}},"type":"Feature"},
	{"geometry":{"coordinates":[24.642245,60.141873],"type":"Point"},"properties":{"osm_id":"8571100235","tag":{"amenity":"recycling","recycling:clothes":"yes","recycling_type":"container"}},"type":"Feature"},
	{"geometry":{"coordinates":[24.6369,60.151982],"type":"Point"},"properties":{"osm_id":"8598306416","tag":{"amenity":"waste_basket","waste":"trash"}},"type":"Feature"},
	{"geometry":{"coordinates":[24.668147,60.143154],"type":"Point"},"properties":{"osm_id":"8872920133","tag":{"amenity":"waste_basket"}},"type":"Feature"}
]
}
