{
"type": "FeatureCollection",
"features": [
	{"geometry":{"coordinates":[24.662074,59.2967],"type":"Point"},"properties":{"osm_id":"4783359424","tag":{"amenity":"recycling","operator":"Eesti pakendiringlus","recycling_type":"container"}},"type":"Feature"},
	{"geometry":{"coordinates":[24.656036,59.293853],"type":"Point"},"properties":{"osm_id":"4783465931","tag":{"amenity":"recycling","operator":"Selver","recycling:cans":"yes","recycling:glass_bottles":"yes","recycling:plastic_bottles":"yes","recycling_type":"centre"}},"type":"Feature"},
	{"geometry":{"coordinates":[24.656217,59.29393],"type":"Point"},"properties":{"osm_id":"4783465932","tag":{"amenity":"recycling","operator":"MT\u00c3\u009c Eesti Pakendiringlus","recycling:glass":"no","recycling:glass_bottles":"yes","recycling_type":"container"}},"type":"Feature"},
	{"geometry":{"coordinates":[24.656243,59.293936],"type":"Point"},"properties":{"osm_id":"4783465933","tag":{"amenity":"recycling","operator":"Tallinna J\u00c3\u00a4\u00c3\u00a4tmekeskus","recycling:clothes":"yes","recycling_type":"container"}},"type":"Feature"},
	{"geometry":{"coordinates":[24.667333,59.30272],"type":"Point"},"properties":{"osm_id":"4783468511","tag":{"amenity":"recycling","operator":"Eesti Taaskasutusorganisatsioon MT\u00c3\u009c","recycling:cans":"yes","recycling:cardboard":"yes","recycling:glass_bottles":"yes","recycling:paper":"yes","recycling:plastic":"yes","recycling:plastic_bottles":"yes","recycling:plastic_packaging":"yes","recycling_type":"container"}},"type":"Feature"},
	{"geometry":{"coordinates":[24.667355,59.303986],"type":"Point"},"properties":{"osm_id":"4783468512","tag":{"amenity":"recycling","operator":"Eesti Taaskasutusorganisatsioon MT\u00c3\u009c","recycling:cans":"yes","recycling:cardboard":"yes","recycling:glass_bottles":"yes","recycling:paper":"yes","recycling:plastic":"yes","recycling:plastic_bottles":"yes","recycling:plastic_packaging":"yes","recycling_type":"container"}},"type":"Feature"},
	{"geometry":{"coordinates":[24.664273,59.297005],"type":"Point"},"properties":{"osm_id":"4783539072","tag":{"amenity":"recycling","operator":"Eesti Taaskasutusorganisatsioon MT\u00c3\u009c","recycling:cans":"yes","recycling:cardboard":"yes","recycling:glass_bottles":"yes","recycling:paper":"yes","recycling:plastic":"yes","recycling:plastic_bottles":"yes","recycling:plastic_packaging":"yes","recycling_type":"container"}},"type":"Feature"},
	{"geometry":{"coordinates":[24.66256,59.299714],"type":"Point"},"properties":{"osm_id":"4783539073","tag":{"amenity":"recycling","operator":"Eesti Taaskasutusorganisatsioon MT\u00c3\u009c","recycling:glass_bottles":"yes","recycling_type":"container"}},"type":"Feature"},
	{"geometry":{"coordinates":[24.650796,59.298394],"type":"Point"},"properties":{"osm_id":"4783583832","tag":{"amenity":"recycling","operator":"Tootjavastutusorganisatsioon O\u00c3\u009c","recycling:cans":"yes","recycling:cardboard":"yes","recycling:paper":"yes","recycling:plastic":"yes","recycling:plastic_bottles":"yes","recycling:plastic_packaging":"yes","recycling_type":"container"}},"type":"Feature"},
	{"geometry":{"coordinates":[24.656198,59.303659],"type":"Point"},"properties":{"osm_id":"4783583835","tag":{"amenity":"recycling","operator":"Tootjavastutusorganisatsioon O\u00c3\u009c","recycling:cans":"yes","recycling:cardboard":"yes","recycling:paper":"yes","recycling:plastic":"yes","recycling:plastic_bottles":"yes","recycling:plastic_packaging":"yes","recycling_type":"container"}},"type":"Feature"},
	{"geometry":{"coordinates":[24.669803,59.304669],"type":"Point"},"properties":{"osm_id":"4783583844","tag":{"amenity":"recycling","operator":"Tootjavastutusorganisatsioon O\u00c3\u009c","recycling:cans":"yes","recycling:cardboard":"yes","recycling:paper":"yes","recycling:plastic":"yes","recycling:plastic_bottles":"yes","recycling:plastic_packaging":"yes","recycling_type":"container"}},"type":"Feature"},
	{"geometry":{"coordinates":[24.643424,59.307949],"type":"Point"},"properties":{"osm_id":"4783583845","tag":{"amenity":"recycling","operator":"Tootjavastutusorganisatsioon O\u00c3\u009c","recycling:cans":"yes","recycling:cardboard":"yes","recycling:paper":"yes","recycling:plastic":"yes","recycling:plastic_bottles":"yes","recycling:plastic_packaging":"yes","recycling_type":"container"}},"type":"Feature"},
	{"geometry":{"coordinates":[24.671047,59.305556],"type":"Point"},"properties":{"osm_id":"4783583846","tag":{"amenity":"recycling","operator":"Eesti Taaskasutusorganisatsioon MT\u00c3\u009c","recycling:cans":"yes","recycling:cardboard":"yes","recycling:glass_bottles":"yes","recycling:paper":"yes","recycling:plastic":"yes","recycling:plastic_bottles":"yes","recycling:plastic_packaging":"yes","recycling_type":"container"}},"type":"Feature"},
	{"geometry":{"coordinates":[24.669245,59.305258],"type":"Point"},"properties":{"osm_id":"4783583850","tag":{"amenity":"recycling","operator":"Eesti Taaskasutusorganisatsioon MT\u00c3\u009c","recycling:cans":"yes","recycling:cardboard":"yes","recycling:glass_bottles":"yes","recycling:paper":"yes","recycling:plastic":"yes","recycling:plastic_bottles":"yes","recycling:plastic_packaging":"yes","recycling_type":"container"}},"type":"Feature"},
	{"geometry":{"coordinates":[24.659319,59.293908],"type":"Point"},"properties":{"osm_id":"4783583851","tag":{"amenity":"recycling","operator":"Eesti Taaskasutusorganisatsioon MT\u00c3\u009c","recycling:cans":"yes","recycling:cardboard":"yes","recycling:paper":"yes","recycling:plastic":"yes","recycling:plastic_bottles":"yes","recycling:plastic_packaging":"yes","recycling_type":"container"}},"type":"Feature"},
	{"geometry":{"coordinates":[24.65798,59.297881],"type":"Point"},"properties":{"osm_id":"4783583868","tag":{"amenity":"recycling","operator":"Eesti Taaskasutusorganisatsioon MT\u00c3\u009c","recycling:cans":"yes","recycling:cardboard":"yes","recycling:glass_bottles":"yes","recycling:paper":"yes","recycling:plastic":"yes","recycling:plastic_bottles":"yes","recycling:plastic_packaging":"yes","recycling_type":"container"}},"type":"Feature"},
	{"geometry":{"coordinates":[24.658677,59.299667],"type":"Point"},"properties":{"osm_id":"4783583869","tag":{"amenity":"recycling","operator":"Eesti Taaskasutusorganisatsioon MT\u00c3\u009c","recycling:cans":"yes","recycling:cardboard":"yes","recycling:glass_bottles":"yes","recycling:paper":"yes","recycling:plastic":"yes","recycling:plastic_bottles":"yes","recycling:plastic_packaging":"yes","recycling_type":"container"}},"type":"Feature"},
	{"geometry":{"coordinates":[24.669725,59.301922],"type":"Point"},"properties":{"osm_id":"4783583872","tag":{"amenity":"recycling","operator":"Eesti Taaskasutusorganisatsioon MT\u00c3\u009c","recycling:cans":"yes","recycling:cardboard":"yes","recycling:glass_bottles":"yes","recycling:paper":"yes","recycling:plastic":"yes","recycling:plastic_bottles":"yes","recycling:plastic_packaging":"yes","recycling_type":"container"}},"type":"Feature"},
	{"geometry":{"coordinates":[24.665965,59.302145],"type":"Point"},"properties":{"osm_id":"4783583873","tag":{"amenity":"recycling","operator":"Eesti Taaskasutusorganisatsioon MT\u00c3\u009c","recycling:cans":"yes","recycling:cardboard":"yes","recycling:glass_bottles":"yes","recycling:paper":"yes","recycling:plastic":"yes","recycling:plastic_bottles":"yes","recycling:plastic_packaging":"yes","recycling_type":"container"}},"type":"Feature"},
	{"geometry":{"coordinates":[24.659667,59.292562],"type":"Point"},"properties":{"osm_id":"4783583874","tag":{"amenity":"recycling","operator":"Eesti Taaskasutusorganisatsioon MT\u00c3\u009c","recycling:cans":"yes","recycling:cardboard":"yes","recycling:glass_bottles":"yes","recycling:paper":"yes","recycling:plastic":"yes","recycling:plastic_bottles":"yes","recycling:plastic_packaging":"yes","recycling_type":"container"}},"type":"Feature"},
	{"geometry":{"coordinates":[24.665362,59.296715],"type":"Point"},"properties":{"osm_id":"5568602022","tag":{"amenity":"recycling","recycling_type":"container"}},"type":"Feature"}
]
}
