{
"type": "FeatureCollection",
"features": [
	{"geometry":{"coordinates":[24.679782,54.783657],"type":"Point"},"properties":{"osm_id":"2956342810","tag":{"amenity":"recycling","recycling:cans":"no","recycling:glass_bottles":"yes","recycling:paper":"yes","recycling:plastic":"yes","recycling_type":"container"}},"type":"Feature"},
	{"geometry":{"coordinates":[24.675852,54.78788],"type":"Point"},"properties":{"osm_id":"2956342820","tag":{"amenity":"recycling","recycling_type":"container"}},"type":"Feature"},
	{"geometry":{"coordinates":[24.680619,54.785304],"type":"Point"},"properties":{"osm_id":"2956352445","tag":{"amenity":"recycling","recycling:glass_bottles":"yes","recycling:paper":"yes","recycling_type":"container"}},"type":"Feature"},
	{"geometry":{"coordinates":[24.679401,54.786973],"type":"Point"},"properties":{"osm_id":"3031039207","tag":{"amenity":"recycling","recycling:glass_bottles":"yes","recycling:paper":"yes","recycling_type":"container"}},"type":"Feature"},
	{"geometry":{"coordinates":[24.679016,54.785733],"type":"Point"},"properties":{"osm_id":"3031039208","tag":{"amenity":"recycling","recycling:glass_bottles":"yes","recycling:paper":"yes","recycling:plastic":"yes","recycling_type":"container"}},"type":"Feature"},
	{"geometry":{"coordinates":[24.670555,54.787095],"type":"Point"},"properties":{"osm_id":"3031039213","tag":{"amenity":"recycling","building":"yes","recycling:glass_bottles":"yes","recycling:paper":"yes","recycling:plastic":"yes","recycling_type":"container"}},"type":"Feature"},
	{"geometry":{"coordinates":[24.668486,54.788461],"type":"Point"},"properties":{"osm_id":"3031039214","tag":{"amenity":"recycling","recycling:glass_bottles":"yes","recycling:paper":"yes","recycling_type":"container"}},"type":"Feature"},
	{"geometry":{"coordinates":[24.662792,54.788989],"type":"Point"},"properties":{"osm_id":"3031039215","tag":{"amenity":"recycling","recycling:glass_bottles":"yes","recycling:paper":"yes","recycling:plastic_bottles":"yes","recycling_type":"container"}},"type":"Feature"},
	{"geometry":{"coordinates":[24.691006,54.786427],"type":"Point"},"properties":{"osm_id":"3148622877","tag":{"amenity":"recycling"}},"type":"Feature"},
	{"geometry":{"coordinates":[24.694794,54.78452],"type":"Point"},"properties":{"osm_id":"3148622886","tag":{"amenity":"recycling"}},"type":"Feature"},
	{"geometry":{"coordinates":[24.664763,54.786489],"type":"Point"},"properties":{"osm_id":"3148642817","tag":{"amenity":"recycling","building":"yes","recycling:glass_bottles":"yes","recycling:paper":"yes","recycling:plastic":"yes","recycling_type":"container"}},"type":"Feature"},
	{"geometry":{"coordinates":[24.655844,54.782983],"type":"Point"},"properties":{"osm_id":"3148642818","tag":{"amenity":"recycling","recycling_type":"container"}},"type":"Feature"},
	{"geometry":{"coordinates":[24.675619,54.789231],"type":"Point"},"properties":{"osm_id":"3440462103","tag":{"amenity":"waste_basket"}},"type":"Feature"},
	{"geometry":{"coordinates":[24.66107,54.789058],"type":"Point"},"properties":{"osm_id":"3442794733","tag":{"amenity":"waste_basket"}},"type":"Feature"},
	{"geometry":{"coordinates":[24.662832,54.789027],"type":"Point"},"properties":{"osm_id":"3442794734","tag":{"amenity":"waste_disposal"}},"type":"Feature"},
	{"geometry":{"coordinates":[24.663586,54.789337],"type":"Point"},"properties":{"osm_id":"3442794741","tag":{"amenity":"waste_basket"}},"type":"Feature"},
	{"geometry":{"coordinates":[24.664864,54.78797],"type":"Point"},"properties":{"osm_id":"3442794742","tag":{"amenity":"recycling","recycling:glass_bottles":"yes","recycling:paper":"yes","recycling:plastic_bottles":"yes","recycling_type":"container"}},"type":"Feature"},
	{"geometry":{"coordinates":[24.663445,54.787448],"type":"Point"},"properties":{"osm_id":"3442794753","tag":{"amenity":"waste_basket"}},"type":"Feature"},
	{"geometry":{"coordinates":[24.667384,54.785437],"type":"Point"},"properties":{"osm_id":"3442794766","tag":{"amenity":"waste_basket"}},"type":"Feature"},
	{"geometry":{"coordinates":[24.667614,54.784997],"type":"Point"},"properties":{"osm_id":"3442794767","tag":{"amenity":"waste_basket"}},"type":"Feature"},
	{"geometry":{"coordinates":[24.669017,54.785727],"type":"Point"},"properties":{"osm_id":"3442794768","tag":{"amenity":"recycling","recycling:glass_bottles":"yes","recycling:paper":"yes","recycling:plastic":"yes","recycling_type":"container"}},"type":"Feature"},
	{"geometry":{"coordinates":[24.65883,54.781231],"type":"Point"},"properties":{"osm_id":"3538952954","tag":{"amenity":"recycling","recycling_type":"container"}},"type":"Feature"},
	{"geometry":{"coordinates":[24.661477,54.786937],"type":"Point"},"properties":{"osm_id":"3538952958","tag":{"amenity":"waste_basket"}},"type":"Feature"},
	{"geometry":{"coordinates":[24.666592,54.782465],"type":"Point"},"properties":{"osm_id":"3751404512","tag":{"amenity":"recycling","recycling:glass_bottles":"yes","recycling:paper":"yes","recycling:plastic_bottles":"yes","recycling_type":"container"}},"type":"Feature"},
	{"geometry":{"coordinates":[24.684388,54.785943],"type":"Point"},"properties":{"osm_id":"3813830474","tag":{"amenity":"recycling","recycling_type":"container"}},"type":"Feature"},
	{"geometry":{"coordinates":[24.697173,54.783172],"type":"Point"},"properties":{"osm_id":"3841484032","tag":{"amenity":"recycling"}},"type":"Feature"},
	{"geometry":{"coordinates":[24.67457,54.787176],"type":"Point"},"properties":{"osm_id":"4082491057","tag":{"amenity":"recycling","recycling_type":"container"}},"type":"Feature"},
	{"geometry":{"coordinates":[24.672215,54.7882],"type":"Point"},"properties":{"osm_id":"4082491058","tag":{"amenity":"recycling","recycling_type":"container"}},"type":"Feature"},
	{"geometry":{"coordinates":[24.670893,54.784751],"type":"Point"},"properties":{"osm_id":"4082491082","tag":{"amenity":"waste_disposal"}},"type":"Feature"},
	{"geometry":{"coordinates":[24.658606,54.787339],"type":"Point"},"properties":{"osm_id":"4082491805","tag":{"amenity":"recycling","recycling_type":"container"}},"type":"Feature"},
	{"geometry":{"coordinates":[24.66011,54.788929],"type":"Point"},"properties":{"osm_id":"4166094589","tag":{"amenity":"recycling","recycling:cans":"no","recycling:glass_bottles":"yes","recycling:paper":"yes","recycling:plastic":"yes","recycling_type":"container"}},"type":"Feature"},
	{"geometry":{"coordinates":[24.673889,54.786001],"type":"Point"},"properties":{"osm_id":"4339839416","tag":{"amenity":"recycling","recycling:glass_bottles":"yes","recycling:paper":"yes","recycling:plastic":"yes","recycling_type":"container"}},"type":"Feature"},
	{"geometry":{"coordinates":[24.652342,54.785238],"type":"Point"},"properties":{"osm_id":"4493557377","tag":{"amenity":"recycling","recycling:glass_bottles":"yes","recycling:paper":"yes","recycling:plastic":"yes","recycling_type":"container"}},"type":"Feature"},
	{"geometry":{"coordinates":[24.68075,54.787499],"type":"Point"},"properties":{"osm_id":"4493558550","tag":{"amenity":"recycling","recycling_type":"container"}},"type":"Feature"},
	{"geometry":{"coordinates":[24.646103,54.778172],"type":"Point"},"properties":{"barrier":"gate","osm_id":"4530423749"},"type":"Feature"},
	{"geometry":{"coordinates":[24.675561,54.788926],"type":"Point"},"properties":{"osm_id":"4567061413","tag":{"amenity":"waste_basket"}},"type":"Feature"},
	{"geometry":{"coordinates":[24.657074,54.785792],"type":"Point"},"properties":{"osm_id":"4928557212","tag":{"amenity":"recycling","recycling_type":"container"}},"type":"Feature"},
	{"geometry":{"coordinates":[24.663098,54.787572],"type":"Point"},"properties":{"osm_id":"5353463408","tag":{"amenity":"recycling","recycling_type":"container"}},"type":"Feature"},
	{"geometry":{"coordinates":[24.656791,54.785101],"type":"Point"},"properties":{"name":"Taromatas","osm_id":"5922543685","tag":{"amenity":"recycling","recycling_type":"centre"}},"type":"Feature"},
	{"geometry":{"coordinates":[24.660554,54.786868],"type":"Point"},"properties":{"osm_id":"6679525485","tag":{"amenity":"waste_basket"}},"type":"Feature"},
	{"geometry":{"coordinates":[24.661575,54.78748],"type":"Point"},"properties":{"osm_id":"6679529785","tag":{"amenity":"waste_basket"}},"type":"Feature"},
	{"geometry":{"coordinates":[24.664586,54.788123],"type":"Point"},"properties":{"osm_id":"6986533950","tag":{"amenity":"waste_disposal"}},"type":"Feature"},
	{"geometry":{"coordinates":[24.668113,54.786682],"type":"Point"},"properties":{"osm_id":"6986533969","tag":{"amenity":"recycling","recycling_type":"container"}},"type":"Feature"},
	{"geometry":{"coordinates":[24.674306,54.787207],"type":"Point"},"properties":{"osm_id":"6993269101","tag":{"amenity":"recycling","recycling_type":"container"}},"type":"Feature"},
	{"geometry":{"coordinates":[24.675006,54.786677],"type":"Point"},"properties":{"osm_id":"6993269102","tag":{"amenity":"recycling","recycling_type":"container"}},"type":"Feature"},
	{"geometry":{"coordinates":[24.673206,54.787905],"type":"Point"},"properties":{"osm_id":"6993269103","tag":{"amenity":"recycling","recycling_type":"container"}},"type":"Feature"},
	{"geometry":{"coordinates":[24.668088,54.785094],"type":"Point"},"properties":{"osm_id":"6993269113","tag":{"amenity":"waste_basket"}},"type":"Feature"},
	{"geometry":{"coordinates":[24.666349,54.783423],"type":"Point"},"properties":{"osm_id":"6993269118","tag":{"amenity":"recycling","recycling_type":"container"}},"type":"Feature"},
	{"geometry":{"coordinates":[24.665664,54.785184],"type":"Point"},"properties":{"osm_id":"6993269167","tag":{"amenity":"recycling","recycling_type":"container"}},"type":"Feature"},
	{"geometry":{"coordinates":[24.693288,54.787229],"type":"Point"},"properties":{"osm_id":"7424503536","tag":{"amenity":"waste_disposal"}},"type":"Feature"},
	{"geometry":{"coordinates":[24.690953,54.78642],"type":"Point"},"properties":{"osm_id":"7424503537","tag":{"amenity":"waste_disposal"}},"type":"Feature"}
]
}
