{
"type": "FeatureCollection",
"features": [
	{"geometry":{"coordinates":[24.155107,57.004771],"type":"Point"},"properties":{"osm_id":"1297856576","tag":{"amenity":"waste_basket"}},"type":"Feature"},
	{"geometry":{"coordinates":[24.156742,57.007823],"type":"Point"},"properties":{"osm_id":"1297856612","tag":{"amenity":"waste_basket"}},"type":"Feature"},
	{"geometry":{"coordinates":[24.155056,57.004727],"type":"Point"},"properties":{"osm_id":"1297856615","tag":{"amenity":"waste_basket"}},"type":"Feature"},
	{"geometry":{"coordinates":[24.12218,56.993714],"type":"Point"},"properties":{"osm_id":"1533321031","tag":{"amenity":"waste_disposal"}},"type":"Feature"},
	{"geometry":{"coordinates":[24.128563,56.997177],"type":"Point"},"properties":{"osm_id":"1639713497","tag":{"amenity":"waste_disposal"}},"type":"Feature"},
	{"geometry":{"coordinates":[24.122571,56.997035],"type":"Point"},"properties":{"osm_id":"1643581434","tag":{"amenity":"waste_basket"}},"type":"Feature"},
	{"geometry":{"coordinates":[24.096394,57.034406],"type":"Point"},"properties":{"osm_id":"1709011793","tag":{"amenity":"recycling"}},"type":"Feature"},
	{"geometry":{"coordinates":[24.126749,56.99545],"type":"Point"},"properties":{"osm_id":"1709346330","tag":{"amenity":"waste_disposal"}},"type":"Feature"},
	{"geometry":{"coordinates":[24.123426,56.996389],"type":"Point"},"properties":{"osm_id":"1709346331","tag":{"amenity":"waste_disposal"}},"type":"Feature"},
	{"geometry":{"coordinates":[24.097697,57.033732],"type":"Point"},"properties":{"osm_id":"1777298760","tag":{"amenity":"recycling","opening_hours":"24/7","recycling:plastic":"yes","recycling:plastic_bottles":"yes","recycling:plastic_packaging":"yes","recycling_type":"container"}},"type":"Feature"},
	{"geometry":{"coordinates":[24.097443,57.03532],"type":"Point"},"properties":{"osm_id":"1777298773","tag":{"amenity":"recycling"}},"type":"Feature"},
	{"geometry":{"coordinates":[24.122882,57.002875],"type":"Point"},"properties":{"osm_id":"1961139519","tag":{"amenity":"waste_disposal"}},"type":"Feature"},
	{"geometry":{"coordinates":[24.122749,57.000084],"type":"Point"},"properties":{"osm_id":"2050949700","tag":{"amenity":"waste_basket"}},"type":"Feature"},
	{"geometry":{"coordinates":[24.122752,57.000051],"type":"Point"},"properties":{"osm_id":"2050954755","tag":{"amenity":"recycling","recycling:batteries":"no","recycling:cans":"no","recycling:clothes":"no","recycling:electrical_appliances":"no","recycling:glass":"no","recycling:glass_bottles":"no","recycling:green_waste":"no","recycling:newspaper":"yes","recycling:paper":"yes","recycling:paper_packaging":"yes","recycling:plastic":"yes","recycling:plastic_bottles":"yes","recycling:plastic_packaging":"yes","recycling:scrap_metal":"no","recycling:small_appliances":"no","recycling:waste":"yes","recycling:wood":"no","recycling_type":"container"}},"type":"Feature"},
	{"geometry":{"coordinates":[24.122529,56.99703],"type":"Point"},"properties":{"osm_id":"2050957672","tag":{"amenity":"recycling","recycling:batteries":"no","recycling:clothes":"no","recycling:electrical_appliances":"no","recycling:glass":"no","recycling:glass_bottles":"no","recycling:green_waste":"no","recycling:newspaper":"yes","recycling:paper":"yes","recycling:paper_packaging":"yes","recycling:plastic":"yes","recycling:plastic_bottles":"yes","recycling:plastic_packaging":"yes","recycling:scrap_metal":"no","recycling:small_appliances":"no","recycling:waste":"yes","recycling:wood":"no","recycling_type":"container"}},"type":"Feature"},
	{"geometry":{"coordinates":[24.100733,57.037222],"type":"Point"},"properties":{"osm_id":"2329163699","tag":{"amenity":"recycling"}},"type":"Feature"},
	{"geometry":{"coordinates":[24.12234,56.996371],"type":"Point"},"properties":{"osm_id":"4435208130","tag":{"amenity":"waste_basket"}},"type":"Feature"},
	{"geometry":{"coordinates":[24.122354,56.996432],"type":"Point"},"properties":{"osm_id":"4435208136","tag":{"amenity":"waste_basket"}},"type":"Feature"},
	{"geometry":{"coordinates":[24.122477,56.996493],"type":"Point"},"properties":{"osm_id":"4435208142","tag":{"amenity":"waste_basket"}},"type":"Feature"},
	{"geometry":{"coordinates":[24.126346,56.993032],"type":"Point"},"properties":{"osm_id":"4446298360","tag":{"amenity":"recycling","recycling_type":"container"}},"type":"Feature"},
	{"geometry":{"coordinates":[24.125214,56.99408],"type":"Point"},"properties":{"osm_id":"4446298737","tag":{"amenity":"waste_basket"}},"type":"Feature"},
	{"geometry":{"coordinates":[24.097804,57.033684],"type":"Point"},"properties":{"osm_id":"4891706031","tag":{"amenity":"waste_disposal"}},"type":"Feature"},
	{"geometry":{"coordinates":[24.134325,57.020214],"type":"Point"},"properties":{"osm_id":"4895063558","tag":{"amenity":"waste_disposal"}},"type":"Feature"},
	{"geometry":{"coordinates":[24.121132,56.999361],"type":"Point"},"properties":{"osm_id":"6447348238","tag":{"amenity":"waste_disposal"}},"type":"Feature"},
	{"geometry":{"coordinates":[24.160038,57.000334],"type":"Point"},"properties":{"osm_id":"7175409853","tag":{"amenity":"waste_basket"}},"type":"Feature"}
]
}
