{
"type": "FeatureCollection",
"lastupdate": "2020-08-01T00:00:00Z",
"features": [
	{"geometry":{"coordinates":[24.114293,56.955894],"type":"Point"},"properties":{"osm_id":"1153453475","tag":{"amenity":"waste_basket"}},"type":"Feature"},
	{"geometry":{"coordinates":[24.102454,56.963581],"type":"Point"},"properties":{"osm_id":"1215236098","tag":{"amenity":"waste_basket"}},"type":"Feature"},
	{"geometry":{"coordinates":[24.10244,56.96352],"type":"Point"},"properties":{"osm_id":"1215236419","tag":{"amenity":"waste_basket"}},"type":"Feature"},
	{"geometry":{"coordinates":[24.167033,56.958911],"type":"Point"},"properties":{"osm_id":"1645178066","tag":{"amenity":"waste_basket"}},"type":"Feature"},
	{"geometry":{"coordinates":[24.125466,56.949642],"type":"Point"},"properties":{"osm_id":"1713043149","tag":{"amenity":"waste_basket"}},"type":"Feature"},
	{"geometry":{"coordinates":[24.124868,56.950092],"type":"Point"},"properties":{"osm_id":"1805071396","tag":{"amenity":"waste_basket"}},"type":"Feature"},
	{"geometry":{"coordinates":[24.133519,56.971821],"type":"Point"},"properties":{"osm_id":"1825429580","tag":{"amenity":"recycling"}},"type":"Feature"},
	{"geometry":{"coordinates":[24.136941,56.973621],"type":"Point"},"properties":{"osm_id":"2050960051","tag":{"amenity":"recycling","recycling:batteries":"no","recycling:books":"no","recycling:cans":"no","recycling:cardboard":"no","recycling:cartons":"no","recycling:clothes":"no","recycling:electrical_appliances":"no","recycling:glass":"yes","recycling:glass_bottles":"yes","recycling:green_waste":"no","recycling:magazines":"no","recycling:newspaper":"no","recycling:paper":"no","recycling:paper_packaging":"no","recycling:plastic":"yes","recycling:plastic_bottles":"yes","recycling:plastic_packaging":"yes","recycling:scrap_metal":"no","recycling:small_appliances":"no","recycling:waste":"no","recycling:wood":"no","recycling_type":"container"}},"type":"Feature"},
	{"geometry":{"coordinates":[24.159203,56.969123],"type":"Point"},"properties":{"osm_id":"2387110963","tag":{"amenity":"recycling"}},"type":"Feature"},
	{"geometry":{"coordinates":[24.134939,56.968699],"type":"Point"},"properties":{"osm_id":"2431270166","tag":{"amenity":"recycling","location":"overground","recycling:cans":"yes","recycling:glass_bottles":"yes","recycling:paper":"yes","recycling:plastic":"yes","recycling_type":"container"}},"type":"Feature"},
	{"geometry":{"coordinates":[24.161122,56.968419],"type":"Point"},"properties":{"osm_id":"2802414067","tag":{"amenity":"waste_basket"}},"type":"Feature"},
	{"geometry":{"coordinates":[24.161293,56.968523],"type":"Point"},"properties":{"osm_id":"2802414072","tag":{"amenity":"waste_basket"}},"type":"Feature"},
	{"geometry":{"coordinates":[24.08247,56.951156],"type":"Point"},"properties":{"osm_id":"3048870358","tag":{"amenity":"recycling","recycling:glass":"yes","recycling_type":"container"}},"type":"Feature"},
	{"geometry":{"coordinates":[24.082465,56.951208],"type":"Point"},"properties":{"osm_id":"3048870359","tag":{"amenity":"recycling","recycling:plastic":"yes","recycling_type":"container"}},"type":"Feature"},
	{"geometry":{"coordinates":[24.105329,56.947191],"type":"Point"},"properties":{"osm_id":"3530253679","tag":{"amenity":"waste_basket"}},"type":"Feature"},
	{"geometry":{"coordinates":[24.116865,56.947876],"type":"Point"},"properties":{"osm_id":"4293540471","tag":{"amenity":"waste_basket"}},"type":"Feature"},
	{"geometry":{"coordinates":[24.116951,56.947743],"type":"Point"},"properties":{"osm_id":"4293541509","tag":{"amenity":"waste_basket"}},"type":"Feature"},
	{"geometry":{"coordinates":[24.131088,56.965621],"type":"Point"},"properties":{"osm_id":"4437034633","tag":{"amenity":"waste_basket"}},"type":"Feature"},
	{"geometry":{"coordinates":[24.13144,56.965737],"type":"Point"},"properties":{"osm_id":"4437034638","tag":{"amenity":"waste_basket"}},"type":"Feature"},
	{"geometry":{"coordinates":[24.130662,56.965805],"type":"Point"},"properties":{"osm_id":"4437034641","tag":{"amenity":"waste_basket"}},"type":"Feature"},
	{"geometry":{"coordinates":[24.130823,56.966111],"type":"Point"},"properties":{"osm_id":"4437034645","tag":{"amenity":"waste_basket"}},"type":"Feature"},
	{"geometry":{"coordinates":[24.130761,56.966122],"type":"Point"},"properties":{"osm_id":"4437034647","tag":{"amenity":"waste_basket"}},"type":"Feature"},
	{"geometry":{"coordinates":[24.130571,56.966219],"type":"Point"},"properties":{"osm_id":"4437034649","tag":{"amenity":"waste_basket"}},"type":"Feature"},
	{"geometry":{"coordinates":[24.130543,56.966292],"type":"Point"},"properties":{"osm_id":"4437034653","tag":{"amenity":"waste_basket"}},"type":"Feature"},
	{"geometry":{"coordinates":[24.125556,56.992804],"type":"Point"},"properties":{"osm_id":"4446298319","tag":{"amenity":"waste_basket"}},"type":"Feature"},
	{"geometry":{"coordinates":[24.123146,56.952039],"type":"Point"},"properties":{"osm_id":"4459666186","tag":{"amenity":"waste_basket"}},"type":"Feature"},
	{"geometry":{"coordinates":[24.126791,56.964322],"type":"Point"},"properties":{"osm_id":"4690718877","tag":{"amenity":"waste_basket"}},"type":"Feature"},
	{"geometry":{"coordinates":[24.126811,56.964334],"type":"Point"},"properties":{"osm_id":"4690718882","tag":{"amenity":"waste_basket"}},"type":"Feature"},
	{"geometry":{"coordinates":[24.123129,56.966691],"type":"Point"},"properties":{"osm_id":"4998640522","tag":{"amenity":"waste_basket"}},"type":"Feature"},
	{"geometry":{"coordinates":[24.111591,56.950681],"type":"Point"},"properties":{"osm_id":"5124850517","tag":{"amenity":"waste_basket"}},"type":"Feature"},
	{"geometry":{"coordinates":[24.147939,56.965528],"type":"Point"},"properties":{"osm_id":"5659516047","tag":{"amenity":"recycling","recycling:metal":"yes","recycling:paper":"yes","recycling:plastic":"yes","recycling_type":"container"}},"type":"Feature"},
	{"geometry":{"coordinates":[24.147983,56.965539],"type":"Point"},"properties":{"osm_id":"5659516048","tag":{"amenity":"recycling","recycling:metal":"yes","recycling:paper":"yes","recycling:plastic":"yes","recycling_type":"container"}},"type":"Feature"},
	{"geometry":{"coordinates":[24.148026,56.965549],"type":"Point"},"properties":{"osm_id":"5659516049","tag":{"amenity":"recycling","recycling:glass":"yes","recycling:glass_bottles":"yes","recycling_type":"container"}},"type":"Feature"},
	{"geometry":{"coordinates":[24.128496,56.96008],"type":"Point"},"properties":{"osm_id":"5697117489","tag":{"amenity":"recycling","recycling:aluminium":"yes","recycling:books":"yes","recycling:cans":"yes","recycling:cartons":"yes","recycling:magazines":"yes","recycling:newspaper":"yes","recycling:paper":"yes","recycling:paper_packaging":"yes","recycling:plastic":"yes","recycling:plastic_bottles":"yes","recycling:scrap_metal":"yes","recycling_type":"container","website":"http://www.zalais.lv/lv/kur-izmest"}},"type":"Feature"},
	{"geometry":{"coordinates":[24.128517,56.960085],"type":"Point"},"properties":{"osm_id":"5697117490","tag":{"amenity":"recycling","recycling:aluminium":"yes","recycling:books":"yes","recycling:cans":"yes","recycling:cartons":"yes","recycling:magazines":"yes","recycling:newspaper":"yes","recycling:paper":"yes","recycling:paper_packaging":"yes","recycling:plastic":"yes","recycling:plastic_bottles":"yes","recycling:scrap_metal":"yes","recycling_type":"container","website":"http://www.zalais.lv/lv/kur-izmest"}},"type":"Feature"},
	{"geometry":{"coordinates":[24.128524,56.960096],"type":"Point"},"properties":{"osm_id":"5697117491","tag":{"amenity":"recycling","recycling:glass_bottles":"yes","recycling_type":"container","website":"http://www.zalais.lv/lv/kur-izmest"}},"type":"Feature"},
	{"geometry":{"coordinates":[24.1192,56.94534],"type":"Point"},"properties":{"osm_id":"5697161687","tag":{"amenity":"waste_basket"}},"type":"Feature"},
	{"geometry":{"coordinates":[24.119058,56.945305],"type":"Point"},"properties":{"osm_id":"5697161688","tag":{"amenity":"waste_basket"}},"type":"Feature"},
	{"geometry":{"coordinates":[24.119328,56.94524],"type":"Point"},"properties":{"osm_id":"5697161689","tag":{"amenity":"waste_basket"}},"type":"Feature"},
	{"geometry":{"coordinates":[24.11933,56.945171],"type":"Point"},"properties":{"osm_id":"5697161690","tag":{"amenity":"waste_basket"}},"type":"Feature"},
	{"geometry":{"coordinates":[24.122546,56.949714],"type":"Point"},"properties":{"osm_id":"5774786434","tag":{"amenity":"recycling","recycling:books":"yes","recycling:cardboard":"yes","recycling:cartons":"yes","recycling:magazines":"yes","recycling:newspaper":"yes","recycling:paper":"yes","recycling:paper_packaging":"yes","recycling_type":"container"}},"type":"Feature"},
	{"geometry":{"coordinates":[24.16557,56.975806],"type":"Point"},"properties":{"osm_id":"5979667590","tag":{"amenity":"waste_basket"}},"type":"Feature"},
	{"geometry":{"coordinates":[24.145934,56.964322],"type":"Point"},"properties":{"osm_id":"6002999001","tag":{"amenity":"recycling","recycling:cardboard":"yes","recycling:paper":"yes","recycling_type":"container"}},"type":"Feature"},
	{"geometry":{"coordinates":[24.117143,56.95252],"type":"Point"},"properties":{"osm_id":"6020094888","tag":{"amenity":"recycling","recycling_type":"container"}},"type":"Feature"},
	{"geometry":{"coordinates":[24.128516,56.960106],"type":"Point"},"properties":{"osm_id":"6320427850","tag":{"amenity":"recycling","recycling:metal":"yes","recycling:paper":"yes","recycling:plastic":"yes","recycling_type":"container","website":"http://www.zalais.lv/lv/kur-izmest"}},"type":"Feature"},
	{"geometry":{"coordinates":[24.135256,56.967896],"type":"Point"},"properties":{"osm_id":"6335014421","tag":{"amenity":"waste_basket"}},"type":"Feature"},
	{"geometry":{"coordinates":[24.141433,56.960807],"type":"Point"},"properties":{"osm_id":"6335035669","tag":{"amenity":"waste_basket"}},"type":"Feature"},
	{"geometry":{"coordinates":[24.145419,56.968787],"type":"Point"},"properties":{"osm_id":"6376191267","tag":{"amenity":"recycling","recycling:metal":"yes","recycling:paper":"yes","recycling:plastic":"yes","recycling_type":"container"}},"type":"Feature"},
	{"geometry":{"coordinates":[24.145431,56.968783],"type":"Point"},"properties":{"osm_id":"6376191268","tag":{"amenity":"recycling","recycling:metal_packaging":"yes","recycling:paper":"yes","recycling:plastic":"yes","recycling_type":"container"}},"type":"Feature"},
	{"geometry":{"coordinates":[24.145444,56.968779],"type":"Point"},"properties":{"osm_id":"6376191269","tag":{"amenity":"recycling","recycling:glass":"yes","recycling_type":"container"}},"type":"Feature"},
	{"geometry":{"coordinates":[24.102678,56.964264],"type":"Point"},"properties":{"osm_id":"6655690296","tag":{"amenity":"waste_basket"}},"type":"Feature"},
	{"geometry":{"coordinates":[24.16579,56.976914],"type":"Point"},"properties":{"osm_id":"6664892622","tag":{"amenity":"waste_basket"}},"type":"Feature"},
	{"geometry":{"coordinates":[24.165759,56.976964],"type":"Point"},"properties":{"osm_id":"6664892623","tag":{"amenity":"waste_basket"}},"type":"Feature"},
	{"geometry":{"coordinates":[24.104717,56.949396],"type":"Point"},"properties":{"osm_id":"6974491080","tag":{"amenity":"waste_basket"}},"type":"Feature"},
	{"geometry":{"coordinates":[24.14457,56.972349],"type":"Point"},"properties":{"osm_id":"7661010833","tag":{"amenity":"waste_basket"}},"type":"Feature"},
	{"geometry":{"coordinates":[24.144653,56.972267],"type":"Point"},"properties":{"osm_id":"7661010836","tag":{"amenity":"waste_basket"}},"type":"Feature"},
	{"geometry":{"coordinates":[24.147672,56.965678],"type":"Point"},"properties":{"osm_id":"7745417281","tag":{"amenity":"waste_basket"}},"type":"Feature"}
]
}
