{
"type": "FeatureCollection",
"features": [
	{"geometry":{"coordinates":[24.118394,49.841399],"type":"Point"},"properties":{"osm_id":"4563723959","tag":{"amenity":"waste_disposal"}},"type":"Feature"},
	{"geometry":{"coordinates":[24.119361,49.83933],"type":"Point"},"properties":{"osm_id":"4563723960","tag":{"amenity":"waste_disposal"}},"type":"Feature"},
	{"geometry":{"coordinates":[24.093,49.880236],"type":"Point"},"properties":{"osm_id":"4710528989","tag":{"amenity":"waste_basket"}},"type":"Feature"},
	{"geometry":{"coordinates":[24.0961,49.841571],"type":"Point"},"properties":{"barrier":"gate","osm_id":"5031279818","tag":{"motor_vehicle":"yes"}},"type":"Feature"},
	{"geometry":{"coordinates":[24.094254,49.843066],"type":"Point"},"properties":{"osm_id":"7691537637","tag":{"amenity":"waste_disposal"}},"type":"Feature"},
	{"geometry":{"coordinates":[24.102497,49.842911],"type":"Point"},"properties":{"osm_id":"8390031877","tag":{"amenity":"waste_disposal"}},"type":"Feature"},
	{"geometry":{"coordinates":[24.102294,49.843715],"type":"Point"},"properties":{"osm_id":"8390031878","tag":{"amenity":"waste_disposal"}},"type":"Feature"},
	{"geometry":{"coordinates":[24.101326,49.843763],"type":"Point"},"properties":{"osm_id":"8390031879","tag":{"amenity":"waste_disposal"}},"type":"Feature"},
	{"geometry":{"coordinates":[24.099243,49.843586],"type":"Point"},"properties":{"osm_id":"8390031880","tag":{"amenity":"waste_disposal"}},"type":"Feature"},
	{"geometry":{"coordinates":[24.10075,49.842788],"type":"Point"},"properties":{"osm_id":"8390031881","tag":{"amenity":"waste_disposal"}},"type":"Feature"},
	{"geometry":{"coordinates":[24.099052,49.842066],"type":"Point"},"properties":{"osm_id":"8390031882","tag":{"amenity":"waste_disposal"}},"type":"Feature"},
	{"geometry":{"coordinates":[24.096399,49.880746],"type":"Point"},"properties":{"osm_id":"8712026739","tag":{"amenity":"waste_disposal"}},"type":"Feature"},
	{"geometry":{"coordinates":[24.126336,49.894354],"type":"Point"},"properties":{"osm_id":"8860614265","tag":{"amenity":"waste_basket"}},"type":"Feature"},
	{"geometry":{"coordinates":[24.126519,49.894625],"type":"Point"},"properties":{"osm_id":"8860614266","tag":{"amenity":"waste_basket"}},"type":"Feature"}
]
}
