{
"type": "FeatureCollection",
"lastupdate": "2020-08-04T00:00:00Z",
"features": [
	{"geometry":{"coordinates":[-6.093965,53.538149],"type":"Point"},"properties":{"name":"Bottle Bank","osm_id":"4535674990","tag":{"amenity":"recycling","location":"overground","name:en":"Bottle Bank","recycling_type":"container"}},"type":"Feature"},
	{"geometry":{"coordinates":[-6.118466,53.500103],"type":"Point"},"properties":{"osm_id":"5670871775","tag":{"amenity":"waste_basket"}},"type":"Feature"},
	{"geometry":{"coordinates":[-6.109367,53.49381],"type":"Point"},"properties":{"osm_id":"5670905421","tag":{"amenity":"waste_basket"}},"type":"Feature"},
	{"geometry":{"coordinates":[-6.110456,53.493485],"type":"Point"},"properties":{"osm_id":"5670905422","tag":{"amenity":"recycling","recycling:cans":"yes","recycling:clothes":"yes","recycling:glass":"yes","recycling_type":"container"}},"type":"Feature"},
	{"geometry":{"coordinates":[-6.111686,53.493345],"type":"Point"},"properties":{"osm_id":"5670905454","tag":{"amenity":"waste_basket"}},"type":"Feature"},
	{"geometry":{"coordinates":[-6.128472,53.492981],"type":"Point"},"properties":{"osm_id":"5670987189","tag":{"amenity":"waste_basket"}},"type":"Feature"},
	{"geometry":{"coordinates":[-6.136181,53.492476],"type":"Point"},"properties":{"osm_id":"5670987204","tag":{"amenity":"waste_basket"}},"type":"Feature"},
	{"geometry":{"coordinates":[-6.135394,53.492575],"type":"Point"},"properties":{"osm_id":"5670987209","tag":{"amenity":"waste_basket"}},"type":"Feature"},
	{"geometry":{"coordinates":[-6.13948,53.491388],"type":"Point"},"properties":{"osm_id":"5671027992","tag":{"amenity":"waste_basket"}},"type":"Feature"}
]
}
