{
"type": "FeatureCollection",
"features": [
	{"geometry":{"coordinates":[-6.148611,53.396729],"type":"Point"},"properties":{"osm_id":"388541009","tag":{"amenity":"recycling","recycling:glass":"yes"}},"type":"Feature"},
	{"geometry":{"coordinates":[-6.109351,53.390268],"type":"Point"},"properties":{"osm_id":"388550064","tag":{"amenity":"recycling","recycling:cans":"yes","recycling:glass":"yes"}},"type":"Feature"},
	{"geometry":{"coordinates":[-6.107378,53.38912],"type":"Point"},"properties":{"osm_id":"388550067","tag":{"amenity":"recycling","recycling:cans":"yes","recycling:glass":"yes"}},"type":"Feature"},
	{"geometry":{"coordinates":[-6.066115,53.388109],"type":"Point"},"properties":{"osm_id":"388554000","tag":{"amenity":"recycling","location":"overground","recycling:cans":"yes","recycling:clothes":"yes","recycling:glass":"yes","recycling_type":"container"}},"type":"Feature"},
	{"geometry":{"coordinates":[-6.127875,53.416294],"type":"Point"},"properties":{"osm_id":"388557164","tag":{"amenity":"recycling","recycling:cans":"yes","recycling:glass":"yes"}},"type":"Feature"},
	{"geometry":{"coordinates":[-6.125552,53.430076],"type":"Point"},"properties":{"osm_id":"388558221","tag":{"amenity":"recycling","location":"overground","recycling:cans":"yes","recycling:glass":"yes","recycling_type":"container"}},"type":"Feature"},
	{"geometry":{"coordinates":[-6.136844,53.434854],"type":"Point"},"properties":{"highway":"traffic_signals","osm_id":"2562954483","tag":{"amenity":"recycling","location":"overground","recycling:glass":"yes","recycling_type":"container"}},"type":"Feature"},
	{"geometry":{"coordinates":[-6.127985,53.416785],"type":"Point"},"properties":{"osm_id":"4362136890","tag":{"amenity":"recycling"}},"type":"Feature"},
	{"geometry":{"coordinates":[-6.147819,53.397531],"type":"Point"},"properties":{"osm_id":"5550965954","tag":{"amenity":"waste_basket"}},"type":"Feature"},
	{"geometry":{"coordinates":[-6.109344,53.389125],"type":"Point"},"properties":{"osm_id":"5584978120","tag":{"amenity":"waste_basket","colour":"black","material":"steel","operator":"Fingal County Council"}},"type":"Feature"},
	{"geometry":{"coordinates":[-6.103787,53.386881],"type":"Point"},"properties":{"osm_id":"5584990937","tag":{"amenity":"waste_basket"}},"type":"Feature"},
	{"geometry":{"coordinates":[-6.10431,53.387104],"type":"Point"},"properties":{"osm_id":"5584990994","tag":{"amenity":"waste_basket"}},"type":"Feature"},
	{"geometry":{"coordinates":[-6.101499,53.385592],"type":"Point"},"properties":{"osm_id":"5584990996","tag":{"amenity":"waste_basket","colour":"green","operator":"Fingal County Council"}},"type":"Feature"},
	{"geometry":{"coordinates":[-6.100217,53.384304],"type":"Point"},"properties":{"osm_id":"5584991003","tag":{"amenity":"waste_basket","colour":"green","material":"steel","operator":"Fingal County Council"}},"type":"Feature"},
	{"geometry":{"coordinates":[-6.06513,53.388388],"type":"Point"},"properties":{"osm_id":"5586812564","tag":{"amenity":"waste_basket","colour":"black","material":"steel","operator":"Fingal County Council"}},"type":"Feature"},
	{"geometry":{"coordinates":[-6.070795,53.388432],"type":"Point"},"properties":{"osm_id":"5586833378","tag":{"amenity":"waste_basket"}},"type":"Feature"},
	{"geometry":{"coordinates":[-6.06999,53.388094],"type":"Point"},"properties":{"osm_id":"5586833382","tag":{"amenity":"waste_basket","colour":"black","material":"steel","operator":"Fingal County Council"}},"type":"Feature"},
	{"geometry":{"coordinates":[-6.072872,53.388783],"type":"Point"},"properties":{"osm_id":"5586874082","tag":{"amenity":"waste_basket","colour":"black","material":"steel","operator":"Fingal County Council"}},"type":"Feature"},
	{"geometry":{"coordinates":[-6.072583,53.388911],"type":"Point"},"properties":{"osm_id":"5586874086","tag":{"amenity":"waste_basket","colour":"black","material":"steel","operator":"Fingal County Council"}},"type":"Feature"},
	{"geometry":{"coordinates":[-6.07318,53.388826],"type":"Point"},"properties":{"osm_id":"5586874087","tag":{"amenity":"waste_basket"}},"type":"Feature"},
	{"geometry":{"coordinates":[-6.074218,53.388768],"type":"Point"},"properties":{"osm_id":"5586874088","tag":{"amenity":"waste_basket","colour":"black","material":"steel","operator":"Fingal County Council"}},"type":"Feature"},
	{"geometry":{"coordinates":[-6.12452,53.39585],"type":"Point"},"properties":{"osm_id":"5587027898","tag":{"amenity":"waste_basket"}},"type":"Feature"},
	{"geometry":{"coordinates":[-6.127223,53.398803],"type":"Point"},"properties":{"osm_id":"5587074123","tag":{"amenity":"waste_basket"}},"type":"Feature"},
	{"geometry":{"coordinates":[-6.127501,53.398751],"type":"Point"},"properties":{"osm_id":"5587074129","tag":{"amenity":"waste_basket"}},"type":"Feature"},
	{"geometry":{"coordinates":[-6.128151,53.399784],"type":"Point"},"properties":{"osm_id":"5587074147","tag":{"amenity":"waste_basket"}},"type":"Feature"},
	{"geometry":{"coordinates":[-6.130371,53.401502],"type":"Point"},"properties":{"osm_id":"5587162341","tag":{"amenity":"waste_basket"}},"type":"Feature"},
	{"geometry":{"coordinates":[-6.108215,53.389704],"type":"Point"},"properties":{"osm_id":"5588935569","tag":{"amenity":"waste_basket","colour":"black","material":"steel","operator":"Fingal County Council"}},"type":"Feature"},
	{"geometry":{"coordinates":[-6.144621,53.384166],"type":"Point"},"properties":{"osm_id":"5589044810","tag":{"amenity":"waste_basket"}},"type":"Feature"},
	{"geometry":{"coordinates":[-6.137573,53.434657],"type":"Point"},"properties":{"osm_id":"5589105191","tag":{"amenity":"recycling","recycling:clothes":"yes","recycling:glass":"yes","recycling_type":"container"}},"type":"Feature"},
	{"geometry":{"coordinates":[-6.136252,53.434848],"type":"Point"},"properties":{"osm_id":"5589113998","tag":{"amenity":"waste_basket"}},"type":"Feature"},
	{"geometry":{"coordinates":[-6.124839,53.433931],"type":"Point"},"properties":{"osm_id":"5667959483","tag":{"amenity":"waste_basket"}},"type":"Feature"},
	{"geometry":{"coordinates":[-6.127078,53.434208],"type":"Point"},"properties":{"osm_id":"5667959485","tag":{"amenity":"waste_basket"}},"type":"Feature"},
	{"geometry":{"coordinates":[-6.130107,53.435066],"type":"Point"},"properties":{"osm_id":"5667959499","tag":{"amenity":"waste_basket"}},"type":"Feature"},
	{"geometry":{"coordinates":[-6.130048,53.434774],"type":"Point"},"properties":{"osm_id":"5667959500","tag":{"amenity":"waste_basket"}},"type":"Feature"},
	{"geometry":{"coordinates":[-6.13661,53.4333],"type":"Point"},"properties":{"osm_id":"5668004574","tag":{"amenity":"waste_basket"}},"type":"Feature"},
	{"geometry":{"coordinates":[-6.135606,53.431802],"type":"Point"},"properties":{"osm_id":"5668004580","tag":{"amenity":"waste_basket"}},"type":"Feature"},
	{"geometry":{"coordinates":[-6.133682,53.428789],"type":"Point"},"properties":{"osm_id":"5668004589","tag":{"amenity":"waste_basket"}},"type":"Feature"},
	{"geometry":{"coordinates":[-6.134235,53.431097],"type":"Point"},"properties":{"osm_id":"5668040121","tag":{"amenity":"waste_basket"}},"type":"Feature"},
	{"geometry":{"coordinates":[-6.136082,53.421714],"type":"Point"},"properties":{"osm_id":"5673670327","tag":{"amenity":"waste_basket"}},"type":"Feature"},
	{"geometry":{"coordinates":[-6.133872,53.423451],"type":"Point"},"properties":{"osm_id":"5673670345","tag":{"amenity":"waste_basket"}},"type":"Feature"},
	{"geometry":{"coordinates":[-6.133179,53.423975],"type":"Point"},"properties":{"osm_id":"5673670347","tag":{"amenity":"waste_basket"}},"type":"Feature"},
	{"geometry":{"coordinates":[-6.131224,53.425844],"type":"Point"},"properties":{"osm_id":"5673708916","tag":{"amenity":"waste_basket"}},"type":"Feature"},
	{"geometry":{"coordinates":[-6.131179,53.426061],"type":"Point"},"properties":{"osm_id":"5673708917","tag":{"amenity":"waste_basket"}},"type":"Feature"},
	{"geometry":{"coordinates":[-6.129557,53.427401],"type":"Point"},"properties":{"osm_id":"5673708918","tag":{"amenity":"waste_basket"}},"type":"Feature"},
	{"geometry":{"coordinates":[-6.128762,53.428348],"type":"Point"},"properties":{"osm_id":"5673708920","tag":{"amenity":"waste_basket"}},"type":"Feature"},
	{"geometry":{"coordinates":[-6.124474,53.432745],"type":"Point"},"properties":{"osm_id":"5673709339","tag":{"amenity":"waste_basket"}},"type":"Feature"},
	{"geometry":{"coordinates":[-6.12491,53.432383],"type":"Point"},"properties":{"osm_id":"5673709340","tag":{"amenity":"waste_basket"}},"type":"Feature"},
	{"geometry":{"coordinates":[-6.129334,53.398446],"type":"Point"},"properties":{"osm_id":"5686369815","tag":{"amenity":"waste_basket"}},"type":"Feature"},
	{"geometry":{"coordinates":[-6.133195,53.39724],"type":"Point"},"properties":{"osm_id":"5686369816","tag":{"amenity":"waste_basket"}},"type":"Feature"},
	{"geometry":{"coordinates":[-6.132858,53.396745],"type":"Point"},"properties":{"osm_id":"5686369940","tag":{"amenity":"waste_basket"}},"type":"Feature"},
	{"geometry":{"coordinates":[-6.13716,53.397202],"type":"Point"},"properties":{"osm_id":"5686407738","tag":{"amenity":"waste_basket"}},"type":"Feature"},
	{"geometry":{"coordinates":[-6.138147,53.396864],"type":"Point"},"properties":{"osm_id":"5686407739","tag":{"amenity":"waste_basket"}},"type":"Feature"},
	{"geometry":{"coordinates":[-6.138828,53.396685],"type":"Point"},"properties":{"osm_id":"5686407742","tag":{"amenity":"waste_basket"}},"type":"Feature"},
	{"geometry":{"coordinates":[-6.149229,53.40251],"type":"Point"},"properties":{"osm_id":"6077712302","tag":{"amenity":"waste_basket"}},"type":"Feature"},
	{"geometry":{"coordinates":[-6.098988,53.38342],"type":"Point"},"properties":{"osm_id":"6645451890","tag":{"amenity":"waste_basket","waste":"dog_excrement"}},"type":"Feature"},
	{"geometry":{"coordinates":[-6.100611,53.384597],"type":"Point"},"properties":{"osm_id":"6645603056","tag":{"amenity":"waste_basket","colour":"black","operator":"Fingal County Council"}},"type":"Feature"},
	{"geometry":{"coordinates":[-6.124416,53.388373],"type":"Point"},"properties":{"osm_id":"6652463431","tag":{"amenity":"waste_basket","colour":"black","material":"steel","operator":"Fingal County Council"}},"type":"Feature"},
	{"geometry":{"coordinates":[-6.065047,53.385931],"type":"Point"},"properties":{"osm_id":"6657669762","tag":{"amenity":"waste_basket","colour":"green","material":"steel","operator":"Fingal County Council"}},"type":"Feature"},
	{"geometry":{"coordinates":[-6.065605,53.387215],"type":"Point"},"properties":{"osm_id":"6657783607","tag":{"amenity":"waste_basket","colour":"green","material":"steel","operator":"Fingal County Council"}},"type":"Feature"},
	{"geometry":{"coordinates":[-6.066241,53.387769],"type":"Point"},"properties":{"osm_id":"6660270520","tag":{"amenity":"waste_basket","colour":"black","material":"steel","operator":"Fingal County Council"}},"type":"Feature"},
	{"geometry":{"coordinates":[-6.068021,53.387745],"type":"Point"},"properties":{"osm_id":"6660312757","tag":{"amenity":"waste_basket","colour":"black","material":"steel","operator":"Fingal County Council"}},"type":"Feature"},
	{"geometry":{"coordinates":[-6.068624,53.387896],"type":"Point"},"properties":{"osm_id":"6660312758","tag":{"amenity":"waste_basket","colour":"black","material":"steel","operator":"Fingal County Council"}},"type":"Feature"},
	{"geometry":{"coordinates":[-6.067233,53.387701],"type":"Point"},"properties":{"osm_id":"6660318788","tag":{"amenity":"waste_basket","colour":"black","material":"steel","operator":"Fingal County Council"}},"type":"Feature"},
	{"geometry":{"coordinates":[-6.068659,53.387789],"type":"Point"},"properties":{"osm_id":"6660401675","tag":{"amenity":"waste_basket","colour":"black","material":"steel","operator":"Fingal County Council"}},"type":"Feature"},
	{"geometry":{"coordinates":[-6.073602,53.388644],"type":"Point"},"properties":{"osm_id":"6660401681","tag":{"amenity":"waste_basket","colour":"black","material":"steel","operator":"Fingal County Council"}},"type":"Feature"},
	{"geometry":{"coordinates":[-6.074205,53.388659],"type":"Point"},"properties":{"osm_id":"6660426597","tag":{"amenity":"waste_basket","colour":"grey","material":"steel","operator":"Fingal County Council"}},"type":"Feature"},
	{"geometry":{"coordinates":[-6.091979,53.39104],"type":"Point"},"properties":{"osm_id":"6666122942","tag":{"amenity":"waste_basket","colour":"black","material":"steel","operator":"Fingal County Council"}},"type":"Feature"},
	{"geometry":{"coordinates":[-6.099864,53.39092],"type":"Point"},"properties":{"osm_id":"6666447275","tag":{"amenity":"waste_basket","colour":"green","material":"steel","operator":"Fingal County Council"}},"type":"Feature"},
	{"geometry":{"coordinates":[-6.073661,53.388644],"type":"Point"},"properties":{"osm_id":"6670679995","tag":{"amenity":"waste_basket","colour":"black","material":"steel","operator":"Fingal County Council"}},"type":"Feature"},
	{"geometry":{"coordinates":[-6.097197,53.39071],"type":"Point"},"properties":{"osm_id":"6670679997","tag":{"amenity":"waste_basket","waste":"dog_excrement"}},"type":"Feature"},
	{"geometry":{"coordinates":[-6.109564,53.389575],"type":"Point"},"properties":{"osm_id":"6676979020","tag":{"amenity":"waste_basket","colour":"grey","operator":"Fingal County Council"}},"type":"Feature"},
	{"geometry":{"coordinates":[-6.109848,53.389573],"type":"Point"},"properties":{"osm_id":"6676979021","tag":{"amenity":"waste_basket","colour":"grey","operator":"Fingal County Council"}},"type":"Feature"},
	{"geometry":{"coordinates":[-6.110915,53.389299],"type":"Point"},"properties":{"osm_id":"6677095925","tag":{"amenity":"waste_basket","colour":"green","material":"steel","operator":"Fingal County Council"}},"type":"Feature"},
	{"geometry":{"coordinates":[-6.116757,53.388765],"type":"Point"},"properties":{"osm_id":"6677095927","tag":{"amenity":"waste_basket","colour":"black","material":"steel","operator":"Fingal County Council"}},"type":"Feature"},
	{"geometry":{"coordinates":[-6.117603,53.388764],"type":"Point"},"properties":{"osm_id":"6677095930","tag":{"amenity":"waste_basket","colour":"black","material":"steel","operator":"Fingal County Council"}},"type":"Feature"},
	{"geometry":{"coordinates":[-6.074314,53.388647],"type":"Point"},"properties":{"osm_id":"6677416007","tag":{"amenity":"waste_basket","colour":"grey","material":"steel","operator":"Fingal County Council"}},"type":"Feature"},
	{"geometry":{"coordinates":[-6.072149,53.388736],"type":"Point"},"properties":{"osm_id":"6677416008","tag":{"amenity":"waste_basket","colour":"black","material":"steel","operator":"Fingal County Council"}},"type":"Feature"},
	{"geometry":{"coordinates":[-6.073094,53.388934],"type":"Point"},"properties":{"osm_id":"6677416012","tag":{"amenity":"waste_basket","colour":"black","material":"steel","operator":"Fingal County Council"}},"type":"Feature"},
	{"geometry":{"coordinates":[-6.067286,53.387999],"type":"Point"},"properties":{"osm_id":"6677487476","tag":{"amenity":"waste_basket","colour":"black","material":"steel","operator":"Fingal County Council"}},"type":"Feature"},
	{"geometry":{"coordinates":[-6.064974,53.388612],"type":"Point"},"properties":{"osm_id":"6677575091","tag":{"amenity":"waste_basket","colour":"black","material":"steel","operator":"Fingal County Council"}},"type":"Feature"},
	{"geometry":{"coordinates":[-6.064896,53.388629],"type":"Point"},"properties":{"osm_id":"6677575093","tag":{"amenity":"waste_basket","colour":"black","material":"steel","operator":"Fingal County Council"}},"type":"Feature"},
	{"geometry":{"coordinates":[-6.064565,53.388676],"type":"Point"},"properties":{"osm_id":"6677575094","tag":{"amenity":"waste_basket","colour":"black","material":"steel","operator":"Fingal County Council"}},"type":"Feature"},
	{"geometry":{"coordinates":[-6.064721,53.388656],"type":"Point"},"properties":{"osm_id":"6677575095","tag":{"amenity":"waste_basket","colour":"black","material":"steel","operator":"Fingal County Council"}},"type":"Feature"},
	{"geometry":{"coordinates":[-6.064514,53.388276],"type":"Point"},"properties":{"osm_id":"6677575111","tag":{"amenity":"waste_basket","colour":"black","material":"steel","operator":"Fingal County Council"}},"type":"Feature"},
	{"geometry":{"coordinates":[-6.064904,53.385636],"type":"Point"},"properties":{"osm_id":"6677861929","tag":{"amenity":"waste_basket","waste":"dog_excrement"}},"type":"Feature"},
	{"geometry":{"coordinates":[-6.124999,53.388299],"type":"Point"},"properties":{"osm_id":"6677959851","tag":{"amenity":"waste_basket","colour":"black","material":"steel","operator":"Fingal County Council"}},"type":"Feature"},
	{"geometry":{"coordinates":[-6.072849,53.38867],"type":"Point"},"properties":{"osm_id":"6680282351","tag":{"amenity":"waste_basket","colour":"black","material":"steel","operator":"Fingal County Council"}},"type":"Feature"},
	{"geometry":{"coordinates":[-6.072178,53.388869],"type":"Point"},"properties":{"osm_id":"6680282357","tag":{"amenity":"waste_basket","colour":"black","material":"steel","operator":"Fingal County Council"}},"type":"Feature"},
	{"geometry":{"coordinates":[-6.069428,53.388038],"type":"Point"},"properties":{"osm_id":"6680343396","tag":{"amenity":"waste_basket","colour":"black","material":"steel","operator":"Fingal County Council"}},"type":"Feature"},
	{"geometry":{"coordinates":[-6.069494,53.388056],"type":"Point"},"properties":{"osm_id":"6680343397","tag":{"amenity":"waste_basket","colour":"black","material":"steel","operator":"Fingal County Council"}},"type":"Feature"},
	{"geometry":{"coordinates":[-6.067277,53.387797],"type":"Point"},"properties":{"osm_id":"6680343401","tag":{"amenity":"waste_basket","colour":"black","material":"steel","operator":"Fingal County Council"}},"type":"Feature"},
	{"geometry":{"coordinates":[-6.06515,53.385301],"type":"Point"},"properties":{"osm_id":"6682093975","tag":{"amenity":"waste_basket","colour":"green","material":"steel","operator":"Fingal County Council"}},"type":"Feature"},
	{"geometry":{"coordinates":[-6.116831,53.391772],"type":"Point"},"properties":{"osm_id":"6712482751","tag":{"amenity":"waste_basket","colour":"grey","material":"steel","operator":"Fingal County Council"}},"type":"Feature"},
	{"geometry":{"coordinates":[-6.116235,53.391899],"type":"Point"},"properties":{"osm_id":"6720006615","tag":{"amenity":"waste_basket"}},"type":"Feature"},
	{"geometry":{"coordinates":[-6.111529,53.38981],"type":"Point"},"properties":{"osm_id":"6720033717","tag":{"amenity":"waste_basket","colour":"black","material":"steel","operator":"Fingal County Council"}},"type":"Feature"},
	{"geometry":{"coordinates":[-6.067226,53.387816],"type":"Point"},"properties":{"osm_id":"6721748171","tag":{"amenity":"waste_basket","colour":"black","material":"steel","operator":"Fingal County Council"}},"type":"Feature"},
	{"geometry":{"coordinates":[-6.109583,53.389453],"type":"Point"},"properties":{"osm_id":"6721776883","tag":{"amenity":"waste_basket","colour":"black","material":"steel","operator":"Fingal County Council"}},"type":"Feature"}
]
}
