{
"type": "FeatureCollection",
"lastupdate": "2020-08-01T00:00:00Z",
"features": [
	{"geometry":{"coordinates":[-6.109161,53.270356],"type":"Point"},"properties":{"osm_id":"264661287","tag":{"amenity":"waste_basket"}},"type":"Feature"},
	{"geometry":{"coordinates":[-6.117995,53.236574],"type":"Point"},"properties":{"osm_id":"311344608","tag":{"amenity":"recycling","location":"overground","recycling:clothes":"yes","recycling:shoes":"yes","recycling_type":"container"}},"type":"Feature"},
	{"geometry":{"coordinates":[-6.137453,53.274451],"type":"Point"},"properties":{"osm_id":"667889324","tag":{"addr:street":"Pearse Street","amenity":"recycling","location":"overground","recycling_type":"container"}},"type":"Feature"},
	{"geometry":{"coordinates":[-6.110413,53.269146],"type":"Point"},"properties":{"osm_id":"844916577","tag":{"amenity":"waste_basket"}},"type":"Feature"},
	{"geometry":{"coordinates":[-6.111718,53.265249],"type":"Point"},"properties":{"osm_id":"844916584","tag":{"amenity":"waste_basket","waste":"dog_excrement"}},"type":"Feature"},
	{"geometry":{"coordinates":[-6.112258,53.264485],"type":"Point"},"properties":{"osm_id":"844916665","tag":{"amenity":"waste_basket"}},"type":"Feature"},
	{"geometry":{"coordinates":[-6.113318,53.257248],"type":"Point"},"properties":{"osm_id":"2364394640","tag":{"amenity":"recycling","location":"overground","recycling:cans":"yes","recycling:clothes":"yes","recycling:paper":"yes","recycling_type":"container"}},"type":"Feature"},
	{"geometry":{"coordinates":[-6.109606,53.269331],"type":"Point"},"properties":{"osm_id":"3709785109","tag":{"amenity":"recycling","recycling:glass_bottles":"yes","recycling_type":"container"}},"type":"Feature"},
	{"geometry":{"coordinates":[-6.103255,53.27587],"type":"Point"},"properties":{"osm_id":"3709808749","tag":{"amenity":"recycling","recycling:glass_bottles":"yes","recycling_type":"container"}},"type":"Feature"},
	{"geometry":{"coordinates":[-6.111283,53.265854],"type":"Point"},"properties":{"osm_id":"4126695005","tag":{"amenity":"waste_basket"}},"type":"Feature"},
	{"geometry":{"coordinates":[-6.114913,53.266484],"type":"Point"},"properties":{"osm_id":"4126695006","tag":{"amenity":"waste_basket"}},"type":"Feature"},
	{"geometry":{"coordinates":[-6.111946,53.27204],"type":"Point"},"properties":{"osm_id":"4126695014","tag":{"amenity":"waste_basket"}},"type":"Feature"},
	{"geometry":{"coordinates":[-6.148387,53.26147],"type":"Point"},"properties":{"osm_id":"4256471592","tag":{"amenity":"waste_basket"}},"type":"Feature"},
	{"geometry":{"coordinates":[-6.150058,53.261378],"type":"Point"},"properties":{"osm_id":"4256563390","tag":{"amenity":"waste_basket"}},"type":"Feature"},
	{"geometry":{"coordinates":[-6.150106,53.260605],"type":"Point"},"properties":{"osm_id":"4256571891","tag":{"amenity":"waste_basket"}},"type":"Feature"},
	{"geometry":{"coordinates":[-6.150251,53.260869],"type":"Point"},"properties":{"osm_id":"4256572189","tag":{"amenity":"waste_basket"}},"type":"Feature"},
	{"geometry":{"coordinates":[-6.150477,53.260817],"type":"Point"},"properties":{"osm_id":"4256572289","tag":{"amenity":"waste_basket"}},"type":"Feature"},
	{"geometry":{"coordinates":[-6.151258,53.261234],"type":"Point"},"properties":{"osm_id":"4563646289","tag":{"amenity":"waste_basket"}},"type":"Feature"},
	{"geometry":{"coordinates":[-6.118014,53.236618],"type":"Point"},"properties":{"osm_id":"5631086612","tag":{"amenity":"recycling","location":"overground","operator":"GlassCo","recycling:cans":"yes","recycling:glass":"yes","recycling:glass_bottles":"yes","recycling_type":"container"}},"type":"Feature"},
	{"geometry":{"coordinates":[-6.115105,53.264762],"type":"Point"},"properties":{"osm_id":"5641893856","tag":{"amenity":"waste_basket"}},"type":"Feature"},
	{"geometry":{"coordinates":[-6.123042,53.239032],"type":"Point"},"properties":{"osm_id":"5650653478","tag":{"amenity":"waste_basket"}},"type":"Feature"},
	{"geometry":{"coordinates":[-6.141938,53.270092],"type":"Point"},"properties":{"osm_id":"5652325539","tag":{"amenity":"waste_basket"}},"type":"Feature"},
	{"geometry":{"coordinates":[-6.125017,53.253959],"type":"Point"},"properties":{"osm_id":"5655151163","tag":{"amenity":"waste_basket"}},"type":"Feature"},
	{"geometry":{"coordinates":[-6.124009,53.230119],"type":"Point"},"properties":{"osm_id":"6313184157","tag":{"amenity":"waste_basket"}},"type":"Feature"},
	{"geometry":{"coordinates":[-6.123337,53.233169],"type":"Point"},"properties":{"osm_id":"6617141878","tag":{"amenity":"waste_basket"}},"type":"Feature"},
	{"geometry":{"coordinates":[-6.132621,53.249383],"type":"Point"},"properties":{"name":"Clothing Donation Bank","osm_id":"7185899082","tag":{"amenity":"recycling"}},"type":"Feature"},
	{"geometry":{"coordinates":[-6.1447,53.255206],"type":"Point"},"properties":{"osm_id":"7710243484","tag":{"amenity":"waste_basket"}},"type":"Feature"},
	{"geometry":{"coordinates":[-6.14445,53.254923],"type":"Point"},"properties":{"osm_id":"7710268703","tag":{"amenity":"waste_basket"}},"type":"Feature"}
]
}
