{
"type": "FeatureCollection",
"features": [
	{"geometry":{"coordinates":[-88.567428,41.653327],"type":"Point"},"properties":{"osm_id":"8113485054","tag":{"access":"private","amenity":"waste_disposal","operator":"Aldi","waste":"trash"}},"type":"Feature"},
	{"geometry":{"coordinates":[-88.567056,41.653584],"type":"Point"},"properties":{"osm_id":"8113485055","tag":{"access":"private","amenity":"waste_disposal","waste":"trash"}},"type":"Feature"},
	{"geometry":{"coordinates":[-88.53637,41.664216],"type":"Point"},"properties":{"osm_id":"8113485056","tag":{"amenity":"waste_basket","waste":"trash"}},"type":"Feature"},
	{"geometry":{"coordinates":[-88.536284,41.66398],"type":"Point"},"properties":{"osm_id":"8113485057","tag":{"amenity":"waste_basket","waste":"trash"}},"type":"Feature"},
	{"geometry":{"coordinates":[-88.538207,41.663316],"type":"Point"},"properties":{"osm_id":"8113485058","tag":{"amenity":"waste_basket","waste":"trash"}},"type":"Feature"},
	{"geometry":{"coordinates":[-88.553941,41.655719],"type":"Point"},"properties":{"osm_id":"8121399825","tag":{"amenity":"recycling","covered":"yes","operator":"Village Bible Church","recycling:cardboard":"yes","recycling:paper":"yes","recycling_type":"container"}},"type":"Feature"},
	{"geometry":{"coordinates":[-88.553998,41.655725],"type":"Point"},"properties":{"osm_id":"8121399826","tag":{"access":"private","amenity":"waste_disposal","operator":"Village Bible Church","waste":"trash"}},"type":"Feature"},
	{"geometry":{"coordinates":[-88.553981,41.655712],"type":"Point"},"properties":{"osm_id":"8121399827","tag":{"amenity":"recycling","recycling:clothes":"yes","recycling:shoes":"yes","recycling_type":"container"}},"type":"Feature"}
]
}
