{
"type": "FeatureCollection",
"features": [
	{"geometry":{"coordinates":[10.54408,53.384736],"type":"Point"},"properties":{"osm_id":"277761071","tag":{"amenity":"recycling","recycling:clothes":"yes","recycling:glass_bottles":"yes","recycling:paper":"yes","recycling_type":"container"}},"type":"Feature"},
	{"geometry":{"coordinates":[10.546113,53.434333],"type":"Point"},"properties":{"osm_id":"1302657605","tag":{"amenity":"recycling","operator":"Karl Meyer Umweltdienst GmbH","recycling:clothes":"yes","recycling:glass_bottles":"yes","recycling:paper":"yes","recycling_type":"container"}},"type":"Feature"},
	{"geometry":{"coordinates":[10.482966,53.419978],"type":"Point"},"properties":{"osm_id":"3924471681","tag":{"amenity":"recycling","recycling:clothes":"yes","recycling:glass_bottles":"yes","recycling:paper":"yes","recycling_type":"container"}},"type":"Feature"},
	{"geometry":{"coordinates":[10.50386,53.385028],"type":"Point"},"properties":{"osm_id":"4893555734","tag":{"amenity":"recycling","recycling:clothes":"yes","recycling:glass_bottles":"yes","recycling:paper":"yes","recycling_type":"container"}},"type":"Feature"},
	{"geometry":{"coordinates":[10.469098,53.392389],"type":"Point"},"properties":{"osm_id":"5556724725","tag":{"amenity":"waste_basket"}},"type":"Feature"},
	{"geometry":{"coordinates":[10.469569,53.395473],"type":"Point"},"properties":{"osm_id":"5556724727","tag":{"amenity":"waste_basket"}},"type":"Feature"},
	{"geometry":{"coordinates":[10.500693,53.384067],"type":"Point"},"properties":{"osm_id":"7095715898","tag":{"amenity":"waste_basket"}},"type":"Feature"},
	{"geometry":{"coordinates":[10.499294,53.38357],"type":"Point"},"properties":{"osm_id":"7095715900","tag":{"amenity":"waste_basket"}},"type":"Feature"},
	{"geometry":{"coordinates":[10.487302,53.390512],"type":"Point"},"properties":{"osm_id":"7095780105","tag":{"amenity":"waste_basket"}},"type":"Feature"},
	{"geometry":{"coordinates":[10.487853,53.390318],"type":"Point"},"properties":{"osm_id":"7095780106","tag":{"amenity":"waste_basket"}},"type":"Feature"},
	{"geometry":{"coordinates":[10.503282,53.383423],"type":"Point"},"properties":{"osm_id":"7096392167","tag":{"amenity":"waste_basket"}},"type":"Feature"}
]
}
