{
"type": "FeatureCollection",
"features": [
	{"geometry":{"coordinates":[10.475001,52.488289],"type":"Point"},"properties":{"osm_id":"412371558","tag":{"amenity":"waste_basket"}},"type":"Feature"},
	{"geometry":{"coordinates":[10.471345,52.492316],"type":"Point"},"properties":{"osm_id":"412375830","tag":{"amenity":"waste_basket"}},"type":"Feature"},
	{"geometry":{"coordinates":[10.478713,52.500605],"type":"Point"},"properties":{"osm_id":"921883387","tag":{"amenity":"waste_basket"}},"type":"Feature"},
	{"geometry":{"coordinates":[10.48109,52.513566],"type":"Point"},"properties":{"osm_id":"1129392407","tag":{"amenity":"recycling","recycling:glass":"yes","recycling_type":"container"}},"type":"Feature"},
	{"geometry":{"coordinates":[10.542536,52.499427],"type":"Point"},"properties":{"osm_id":"1609800741","tag":{"amenity":"recycling","recycling:clothes":"yes","recycling:glass":"yes","recycling_type":"centre"}},"type":"Feature"},
	{"geometry":{"coordinates":[10.542503,52.493501],"type":"Point"},"properties":{"osm_id":"1792397115","tag":{"amenity":"waste_basket"}},"type":"Feature"},
	{"geometry":{"coordinates":[10.541143,52.514276],"type":"Point"},"properties":{"osm_id":"1796784451","tag":{"amenity":"recycling","recycling:clothes":"yes","recycling:glass":"yes","recycling_type":"container"}},"type":"Feature"},
	{"geometry":{"coordinates":[10.54392,52.499024],"type":"Point"},"properties":{"osm_id":"1796860831","tag":{"amenity":"waste_basket"}},"type":"Feature"},
	{"geometry":{"coordinates":[10.544036,52.499047],"type":"Point"},"properties":{"osm_id":"1796860833","tag":{"amenity":"waste_basket"}},"type":"Feature"},
	{"geometry":{"coordinates":[10.51985,52.48626],"type":"Point"},"properties":{"osm_id":"1802466664","tag":{"amenity":"waste_basket"}},"type":"Feature"},
	{"geometry":{"coordinates":[10.527477,52.485226],"type":"Point"},"properties":{"osm_id":"1802514530","tag":{"amenity":"recycling","recycling:clothes":"yes","recycling_type":"container"}},"type":"Feature"},
	{"geometry":{"coordinates":[10.530689,52.500831],"type":"Point"},"properties":{"osm_id":"1802850511","tag":{"amenity":"waste_basket"}},"type":"Feature"},
	{"geometry":{"coordinates":[10.544175,52.49909],"type":"Point"},"properties":{"osm_id":"1805307760","tag":{"amenity":"waste_basket"}},"type":"Feature"},
	{"geometry":{"coordinates":[10.545205,52.48813],"type":"Point"},"properties":{"osm_id":"1818040419","tag":{"amenity":"waste_basket"}},"type":"Feature"},
	{"geometry":{"coordinates":[10.546603,52.485293],"type":"Point"},"properties":{"osm_id":"2139234855","tag":{"amenity":"waste_basket"}},"type":"Feature"},
	{"geometry":{"coordinates":[10.546545,52.484227],"type":"Point"},"properties":{"osm_id":"2230817916","tag":{"amenity":"waste_basket"}},"type":"Feature"},
	{"geometry":{"coordinates":[10.546702,52.502916],"type":"Point"},"properties":{"osm_id":"2300583549","tag":{"amenity":"waste_basket"}},"type":"Feature"},
	{"geometry":{"coordinates":[10.54323,52.494035],"type":"Point"},"properties":{"osm_id":"2302620651","tag":{"amenity":"waste_basket"}},"type":"Feature"},
	{"geometry":{"coordinates":[10.541115,52.494059],"type":"Point"},"properties":{"osm_id":"2302620657","tag":{"amenity":"waste_basket"}},"type":"Feature"},
	{"geometry":{"coordinates":[10.540958,52.4942],"type":"Point"},"properties":{"osm_id":"2302620661","tag":{"amenity":"waste_basket"}},"type":"Feature"},
	{"geometry":{"coordinates":[10.537129,52.495438],"type":"Point"},"properties":{"osm_id":"2302620669","tag":{"amenity":"waste_basket"}},"type":"Feature"},
	{"geometry":{"coordinates":[10.531008,52.517667],"type":"Point"},"properties":{"osm_id":"2324556597","tag":{"amenity":"waste_basket"}},"type":"Feature"},
	{"geometry":{"coordinates":[10.523838,52.51804],"type":"Point"},"properties":{"osm_id":"2324568002","tag":{"amenity":"waste_basket"}},"type":"Feature"},
	{"geometry":{"coordinates":[10.481139,52.502938],"type":"Point"},"properties":{"osm_id":"2518824009","tag":{"amenity":"waste_basket"}},"type":"Feature"},
	{"geometry":{"coordinates":[10.473443,52.504373],"type":"Point"},"properties":{"osm_id":"2518824017","tag":{"amenity":"waste_basket"}},"type":"Feature"},
	{"geometry":{"coordinates":[10.540975,52.503991],"type":"Point"},"properties":{"osm_id":"2682379169","tag":{"amenity":"recycling","recycling:clothes":"yes","recycling_type":"container"}},"type":"Feature"},
	{"geometry":{"coordinates":[10.541021,52.504279],"type":"Point"},"properties":{"osm_id":"2682379177","tag":{"amenity":"waste_basket"}},"type":"Feature"},
	{"geometry":{"coordinates":[10.540842,52.484396],"type":"Point"},"properties":{"osm_id":"2719442416","tag":{"amenity":"waste_basket"}},"type":"Feature"},
	{"geometry":{"coordinates":[10.540668,52.494208],"type":"Point"},"properties":{"osm_id":"2790625286","tag":{"amenity":"waste_basket"}},"type":"Feature"},
	{"geometry":{"coordinates":[10.54047,52.489555],"type":"Point"},"properties":{"osm_id":"2866904216","tag":{"amenity":"waste_basket"}},"type":"Feature"},
	{"geometry":{"coordinates":[10.540614,52.490104],"type":"Point"},"properties":{"osm_id":"2866904220","tag":{"amenity":"waste_basket"}},"type":"Feature"},
	{"geometry":{"coordinates":[10.541707,52.490628],"type":"Point"},"properties":{"osm_id":"2866904236","tag":{"amenity":"waste_basket"}},"type":"Feature"},
	{"geometry":{"coordinates":[10.54673,52.511895],"type":"Point"},"properties":{"osm_id":"2882038566","tag":{"amenity":"waste_basket"}},"type":"Feature"},
	{"geometry":{"coordinates":[10.546706,52.495599],"type":"Point"},"properties":{"osm_id":"2885505167","tag":{"amenity":"waste_basket"}},"type":"Feature"},
	{"geometry":{"coordinates":[10.527837,52.486403],"type":"Point"},"properties":{"osm_id":"2933813253","tag":{"amenity":"waste_basket"}},"type":"Feature"},
	{"geometry":{"coordinates":[10.528188,52.48638],"type":"Point"},"properties":{"osm_id":"2934625765","tag":{"amenity":"waste_basket"}},"type":"Feature"},
	{"geometry":{"coordinates":[10.52848,52.487116],"type":"Point"},"properties":{"osm_id":"2934625767","tag":{"amenity":"waste_basket"}},"type":"Feature"},
	{"geometry":{"coordinates":[10.528147,52.487127],"type":"Point"},"properties":{"osm_id":"2934625768","tag":{"amenity":"waste_basket"}},"type":"Feature"},
	{"geometry":{"coordinates":[10.527621,52.48721],"type":"Point"},"properties":{"osm_id":"2934625769","tag":{"amenity":"waste_basket"}},"type":"Feature"},
	{"geometry":{"coordinates":[10.542781,52.488759],"type":"Point"},"properties":{"osm_id":"3050341729","tag":{"amenity":"waste_basket"}},"type":"Feature"},
	{"geometry":{"coordinates":[10.545438,52.483485],"type":"Point"},"properties":{"osm_id":"3088726671","tag":{"amenity":"waste_basket"}},"type":"Feature"},
	{"geometry":{"coordinates":[10.545872,52.483831],"type":"Point"},"properties":{"osm_id":"3088729421","tag":{"amenity":"waste_basket"}},"type":"Feature"},
	{"geometry":{"coordinates":[10.546869,52.496705],"type":"Point"},"properties":{"osm_id":"3124035400","tag":{"amenity":"waste_basket"}},"type":"Feature"},
	{"geometry":{"coordinates":[10.471294,52.509742],"type":"Point"},"properties":{"osm_id":"3135619080","tag":{"amenity":"waste_basket"}},"type":"Feature"},
	{"geometry":{"coordinates":[10.546855,52.495666],"type":"Point"},"properties":{"osm_id":"3156279504","tag":{"amenity":"waste_basket"}},"type":"Feature"},
	{"geometry":{"coordinates":[10.535159,52.499212],"type":"Point"},"properties":{"osm_id":"3181525112","tag":{"amenity":"waste_basket"}},"type":"Feature"},
	{"geometry":{"coordinates":[10.545951,52.488491],"type":"Point"},"properties":{"osm_id":"3214479446","tag":{"amenity":"waste_basket"}},"type":"Feature"},
	{"geometry":{"coordinates":[10.545478,52.488307],"type":"Point"},"properties":{"osm_id":"3214595614","tag":{"amenity":"waste_basket"}},"type":"Feature"},
	{"geometry":{"coordinates":[10.545643,52.489111],"type":"Point"},"properties":{"osm_id":"3214595620","tag":{"amenity":"waste_basket"}},"type":"Feature"},
	{"geometry":{"coordinates":[10.541294,52.503584],"type":"Point"},"properties":{"osm_id":"3268514564","tag":{"amenity":"waste_basket"}},"type":"Feature"},
	{"geometry":{"coordinates":[10.481613,52.507937],"type":"Point"},"properties":{"osm_id":"3345258458","tag":{"amenity":"waste_basket"}},"type":"Feature"},
	{"geometry":{"coordinates":[10.482919,52.508182],"type":"Point"},"properties":{"osm_id":"3345258463","tag":{"amenity":"waste_basket"}},"type":"Feature"},
	{"geometry":{"coordinates":[10.482966,52.508272],"type":"Point"},"properties":{"osm_id":"3345258464","tag":{"amenity":"waste_basket"}},"type":"Feature"},
	{"geometry":{"coordinates":[10.474516,52.508923],"type":"Point"},"properties":{"osm_id":"3359927857","tag":{"amenity":"waste_basket"}},"type":"Feature"},
	{"geometry":{"coordinates":[10.471859,52.509733],"type":"Point"},"properties":{"osm_id":"3359958442","tag":{"amenity":"waste_basket"}},"type":"Feature"},
	{"geometry":{"coordinates":[10.47246,52.510524],"type":"Point"},"properties":{"osm_id":"3359958448","tag":{"amenity":"waste_basket"}},"type":"Feature"},
	{"geometry":{"coordinates":[10.473069,52.511469],"type":"Point"},"properties":{"osm_id":"3359958456","tag":{"amenity":"waste_basket"}},"type":"Feature"},
	{"geometry":{"coordinates":[10.474363,52.511184],"type":"Point"},"properties":{"osm_id":"3381671601","tag":{"amenity":"waste_basket"}},"type":"Feature"},
	{"geometry":{"coordinates":[10.47805,52.511201],"type":"Point"},"properties":{"osm_id":"3381679285","tag":{"amenity":"waste_basket"}},"type":"Feature"},
	{"geometry":{"coordinates":[10.479119,52.511168],"type":"Point"},"properties":{"osm_id":"3381733178","tag":{"amenity":"waste_basket"}},"type":"Feature"},
	{"geometry":{"coordinates":[10.482382,52.511212],"type":"Point"},"properties":{"osm_id":"3381733183","tag":{"amenity":"waste_basket"}},"type":"Feature"},
	{"geometry":{"coordinates":[10.545064,52.48871],"type":"Point"},"properties":{"osm_id":"3386539063","tag":{"amenity":"waste_basket"}},"type":"Feature"},
	{"geometry":{"coordinates":[10.52991,52.486267],"type":"Point"},"properties":{"osm_id":"3411353784","tag":{"amenity":"waste_basket"}},"type":"Feature"},
	{"geometry":{"coordinates":[10.529946,52.486503],"type":"Point"},"properties":{"osm_id":"3411353792","tag":{"amenity":"waste_basket"}},"type":"Feature"},
	{"geometry":{"coordinates":[10.543195,52.486549],"type":"Point"},"properties":{"osm_id":"3412115146","tag":{"amenity":"waste_basket"}},"type":"Feature"},
	{"geometry":{"coordinates":[10.54242,52.488331],"type":"Point"},"properties":{"osm_id":"3541610002","tag":{"amenity":"waste_basket"}},"type":"Feature"},
	{"geometry":{"coordinates":[10.481077,52.513615],"type":"Point"},"properties":{"osm_id":"3622886500","tag":{"amenity":"recycling","recycling:clothes":"yes","recycling_type":"container"}},"type":"Feature"},
	{"geometry":{"coordinates":[10.473064,52.511673],"type":"Point"},"properties":{"osm_id":"3688488530","tag":{"amenity":"waste_basket"}},"type":"Feature"},
	{"geometry":{"coordinates":[10.539583,52.514889],"type":"Point"},"properties":{"osm_id":"4609360304","tag":{"amenity":"waste_basket"}},"type":"Feature"},
	{"geometry":{"coordinates":[10.53987,52.514841],"type":"Point"},"properties":{"osm_id":"4609360305","tag":{"amenity":"waste_basket"}},"type":"Feature"},
	{"geometry":{"coordinates":[10.520377,52.494281],"type":"Point"},"properties":{"osm_id":"4880254741","tag":{"amenity":"waste_basket"}},"type":"Feature"},
	{"geometry":{"coordinates":[10.540522,52.488922],"type":"Point"},"properties":{"osm_id":"4883693140","tag":{"amenity":"waste_basket"}},"type":"Feature"},
	{"geometry":{"coordinates":[10.545849,52.489211],"type":"Point"},"properties":{"osm_id":"6125112710","tag":{"amenity":"waste_basket"}},"type":"Feature"},
	{"geometry":{"coordinates":[10.519686,52.49589],"type":"Point"},"properties":{"osm_id":"6227581114","tag":{"amenity":"waste_basket"}},"type":"Feature"},
	{"geometry":{"coordinates":[10.540232,52.484179],"type":"Point"},"properties":{"osm_id":"6319099439","tag":{"amenity":"waste_basket"}},"type":"Feature"},
	{"geometry":{"coordinates":[10.540378,52.484114],"type":"Point"},"properties":{"osm_id":"6319099440","tag":{"amenity":"waste_basket"}},"type":"Feature"},
	{"geometry":{"coordinates":[10.520819,52.493771],"type":"Point"},"properties":{"osm_id":"7610229701","tag":{"amenity":"recycling","recycling:glass_bottles":"white","recycling_type":"container"}},"type":"Feature"},
	{"geometry":{"coordinates":[10.520822,52.493785],"type":"Point"},"properties":{"osm_id":"7610229702","tag":{"amenity":"recycling","recycling:glass_bottles":"green","recycling_type":"container"}},"type":"Feature"},
	{"geometry":{"coordinates":[10.520826,52.493799],"type":"Point"},"properties":{"osm_id":"7610229703","tag":{"amenity":"recycling","recycling:glass_bottles":"brown","recycling_type":"container"}},"type":"Feature"},
	{"geometry":{"coordinates":[10.520817,52.493757],"type":"Point"},"properties":{"osm_id":"7610229704","tag":{"amenity":"recycling","recycling:glass_bottles":"white","recycling_type":"container"}},"type":"Feature"},
	{"geometry":{"coordinates":[10.520831,52.493825],"type":"Point"},"properties":{"osm_id":"7610248499","tag":{"amenity":"recycling","recycling:clothes":"yes","recycling_type":"container"}},"type":"Feature"},
	{"geometry":{"coordinates":[10.52817,52.519854],"type":"Point"},"properties":{"osm_id":"7707578984","tag":{"amenity":"recycling","recycling:glass_bottles":"yes","recycling_type":"container"}},"type":"Feature"},
	{"geometry":{"coordinates":[10.528194,52.519839],"type":"Point"},"properties":{"osm_id":"7707659285","tag":{"amenity":"recycling","recycling:clothes":"yes","recycling_type":"container"}},"type":"Feature"},
	{"geometry":{"coordinates":[10.535357,52.485612],"type":"Point"},"properties":{"osm_id":"7770956054","tag":{"amenity":"waste_basket"}},"type":"Feature"},
	{"geometry":{"coordinates":[10.535719,52.485813],"type":"Point"},"properties":{"osm_id":"7770956060","tag":{"amenity":"waste_basket"}},"type":"Feature"},
	{"geometry":{"coordinates":[10.536236,52.485822],"type":"Point"},"properties":{"osm_id":"7770956062","tag":{"amenity":"waste_basket"}},"type":"Feature"},
	{"geometry":{"coordinates":[10.53585,52.485869],"type":"Point"},"properties":{"osm_id":"7770956063","tag":{"amenity":"waste_basket"}},"type":"Feature"},
	{"geometry":{"coordinates":[10.536132,52.485479],"type":"Point"},"properties":{"osm_id":"7770956078","tag":{"amenity":"waste_basket"}},"type":"Feature"}
]
}
