{
"type": "FeatureCollection",
"features": [
	{"geometry":{"coordinates":[10.487238,52.430619],"type":"Point"},"properties":{"osm_id":"292363274","tag":{"amenity":"recycling","recycling_type":"container"}},"type":"Feature"},
	{"geometry":{"coordinates":[10.466162,52.479306],"type":"Point"},"properties":{"osm_id":"294573089","tag":{"amenity":"recycling","recycling:glass":"yes","recycling_type":"container"}},"type":"Feature"},
	{"geometry":{"coordinates":[10.505383,52.431398],"type":"Point"},"properties":{"osm_id":"294590537","tag":{"amenity":"recycling","recycling:clothes":"yes","recycling:glass":"yes","recycling:shoes":"yes","recycling_type":"container"}},"type":"Feature"},
	{"geometry":{"coordinates":[10.544507,52.473182],"type":"Point"},"properties":{"osm_id":"295548344","tag":{"amenity":"recycling","location":"overground","recycling:clothes":"yes","recycling:glass":"yes","recycling_type":"container"}},"type":"Feature"},
	{"geometry":{"coordinates":[10.512324,52.467965],"type":"Point"},"properties":{"osm_id":"412365258","tag":{"amenity":"waste_basket"}},"type":"Feature"},
	{"geometry":{"coordinates":[10.509527,52.467205],"type":"Point"},"properties":{"osm_id":"412365260","tag":{"amenity":"waste_basket"}},"type":"Feature"},
	{"geometry":{"coordinates":[10.508518,52.466444],"type":"Point"},"properties":{"osm_id":"412365262","tag":{"amenity":"waste_basket"}},"type":"Feature"},
	{"geometry":{"coordinates":[10.508957,52.466752],"type":"Point"},"properties":{"osm_id":"412365264","tag":{"amenity":"waste_basket"}},"type":"Feature"},
	{"geometry":{"coordinates":[10.509242,52.466937],"type":"Point"},"properties":{"osm_id":"412365266","tag":{"amenity":"waste_basket"}},"type":"Feature"},
	{"geometry":{"coordinates":[10.505114,52.474176],"type":"Point"},"properties":{"osm_id":"412367142","tag":{"amenity":"waste_basket"}},"type":"Feature"},
	{"geometry":{"coordinates":[10.54596,52.456634],"type":"Point"},"properties":{"osm_id":"1604782516","tag":{"amenity":"waste_basket"}},"type":"Feature"},
	{"geometry":{"coordinates":[10.545498,52.456381],"type":"Point"},"properties":{"osm_id":"1604784287","tag":{"amenity":"waste_basket"}},"type":"Feature"},
	{"geometry":{"coordinates":[10.546434,52.455963],"type":"Point"},"properties":{"osm_id":"1605482680","tag":{"amenity":"waste_basket"}},"type":"Feature"},
	{"geometry":{"coordinates":[10.542541,52.469508],"type":"Point"},"properties":{"osm_id":"1606504879","tag":{"amenity":"waste_basket"}},"type":"Feature"},
	{"geometry":{"coordinates":[10.543807,52.46288],"type":"Point"},"properties":{"osm_id":"1607318313","tag":{"amenity":"waste_basket"}},"type":"Feature"},
	{"geometry":{"coordinates":[10.530968,52.465405],"type":"Point"},"properties":{"barrier":"gate","osm_id":"1618897945"},"type":"Feature"},
	{"geometry":{"coordinates":[10.545854,52.476476],"type":"Point"},"properties":{"osm_id":"1644670243","tag":{"amenity":"waste_basket"}},"type":"Feature"},
	{"geometry":{"coordinates":[10.542219,52.467037],"type":"Point"},"properties":{"osm_id":"1645493759","tag":{"amenity":"recycling","recycling:glass":"yes","recycling_type":"container"}},"type":"Feature"},
	{"geometry":{"coordinates":[10.54249,52.466616],"type":"Point"},"properties":{"osm_id":"1645914975","tag":{"amenity":"recycling","recycling:clothes":"yes","recycling_type":"container"}},"type":"Feature"},
	{"geometry":{"coordinates":[10.48536,52.432854],"type":"Point"},"properties":{"osm_id":"1795220388","tag":{"amenity":"waste_basket"}},"type":"Feature"},
	{"geometry":{"coordinates":[10.537285,52.47828],"type":"Point"},"properties":{"osm_id":"1798368439","tag":{"amenity":"waste_basket"}},"type":"Feature"},
	{"geometry":{"coordinates":[10.540215,52.481077],"type":"Point"},"properties":{"osm_id":"1800859898","tag":{"amenity":"waste_basket"}},"type":"Feature"},
	{"geometry":{"coordinates":[10.539213,52.461319],"type":"Point"},"properties":{"osm_id":"2507257750","tag":{"amenity":"recycling","recycling:glass":"yes","recycling_type":"container"}},"type":"Feature"},
	{"geometry":{"coordinates":[10.545494,52.477166],"type":"Point"},"properties":{"osm_id":"3037203962","tag":{"amenity":"waste_basket"}},"type":"Feature"},
	{"geometry":{"coordinates":[10.544101,52.477364],"type":"Point"},"properties":{"osm_id":"3037203977","tag":{"amenity":"waste_basket"}},"type":"Feature"},
	{"geometry":{"coordinates":[10.545597,52.482734],"type":"Point"},"properties":{"osm_id":"3052366345","tag":{"amenity":"waste_basket"}},"type":"Feature"},
	{"geometry":{"coordinates":[10.543207,52.477014],"type":"Point"},"properties":{"osm_id":"3089025010","tag":{"amenity":"waste_basket"}},"type":"Feature"},
	{"geometry":{"coordinates":[10.543211,52.477513],"type":"Point"},"properties":{"osm_id":"3089025012","tag":{"amenity":"waste_basket"}},"type":"Feature"},
	{"geometry":{"coordinates":[10.543414,52.477931],"type":"Point"},"properties":{"osm_id":"3089025015","tag":{"amenity":"waste_basket"}},"type":"Feature"},
	{"geometry":{"coordinates":[10.543152,52.478077],"type":"Point"},"properties":{"osm_id":"3089025021","tag":{"amenity":"waste_basket"}},"type":"Feature"},
	{"geometry":{"coordinates":[10.543285,52.478179],"type":"Point"},"properties":{"osm_id":"3089025024","tag":{"amenity":"waste_basket"}},"type":"Feature"},
	{"geometry":{"coordinates":[10.542512,52.478197],"type":"Point"},"properties":{"osm_id":"3089025025","tag":{"amenity":"waste_basket"}},"type":"Feature"},
	{"geometry":{"coordinates":[10.542536,52.478314],"type":"Point"},"properties":{"osm_id":"3089025030","tag":{"amenity":"waste_basket"}},"type":"Feature"},
	{"geometry":{"coordinates":[10.543736,52.476695],"type":"Point"},"properties":{"osm_id":"3089060512","tag":{"amenity":"waste_basket"}},"type":"Feature"},
	{"geometry":{"coordinates":[10.5417,52.478093],"type":"Point"},"properties":{"osm_id":"3089060531","tag":{"amenity":"waste_basket"}},"type":"Feature"},
	{"geometry":{"coordinates":[10.542068,52.478227],"type":"Point"},"properties":{"osm_id":"3089060536","tag":{"amenity":"waste_basket"}},"type":"Feature"},
	{"geometry":{"coordinates":[10.543337,52.47727],"type":"Point"},"properties":{"osm_id":"3089079657","tag":{"amenity":"waste_basket"}},"type":"Feature"},
	{"geometry":{"coordinates":[10.546788,52.482375],"type":"Point"},"properties":{"osm_id":"3175307568","tag":{"amenity":"waste_basket"}},"type":"Feature"},
	{"geometry":{"coordinates":[10.545306,52.478106],"type":"Point"},"properties":{"osm_id":"3212100139","tag":{"amenity":"recycling","recycling:clothes":"yes","recycling_type":"container"}},"type":"Feature"},
	{"geometry":{"coordinates":[10.546161,52.472154],"type":"Point"},"properties":{"osm_id":"3232881761","tag":{"amenity":"waste_basket"}},"type":"Feature"},
	{"geometry":{"coordinates":[10.545905,52.473754],"type":"Point"},"properties":{"osm_id":"3232881778","tag":{"amenity":"waste_basket"}},"type":"Feature"},
	{"geometry":{"coordinates":[10.542307,52.468638],"type":"Point"},"properties":{"osm_id":"3232948704","tag":{"amenity":"recycling","recycling:clothes":"yes","recycling_type":"container"}},"type":"Feature"},
	{"geometry":{"coordinates":[10.546347,52.455839],"type":"Point"},"properties":{"osm_id":"3395443756","tag":{"amenity":"waste_basket"}},"type":"Feature"},
	{"geometry":{"coordinates":[10.545812,52.456309],"type":"Point"},"properties":{"osm_id":"3501548049","tag":{"amenity":"waste_basket"}},"type":"Feature"},
	{"geometry":{"coordinates":[10.488926,52.463564],"type":"Point"},"properties":{"osm_id":"3667483840","tag":{"amenity":"waste_basket"}},"type":"Feature"},
	{"geometry":{"coordinates":[10.490644,52.465902],"type":"Point"},"properties":{"osm_id":"3667483843","tag":{"amenity":"waste_basket"}},"type":"Feature"},
	{"geometry":{"coordinates":[10.49281,52.468495],"type":"Point"},"properties":{"osm_id":"3667497943","tag":{"amenity":"waste_basket","covered":"no","tourism":"picnic_site"}},"type":"Feature"},
	{"geometry":{"coordinates":[10.50475,52.46427],"type":"Point"},"properties":{"osm_id":"3667710728","tag":{"amenity":"waste_basket"}},"type":"Feature"},
	{"geometry":{"coordinates":[10.50528,52.464933],"type":"Point"},"properties":{"osm_id":"3667710731","tag":{"amenity":"waste_basket"}},"type":"Feature"},
	{"geometry":{"coordinates":[10.505542,52.464954],"type":"Point"},"properties":{"osm_id":"3667710732","tag":{"amenity":"waste_basket"}},"type":"Feature"},
	{"geometry":{"coordinates":[10.505108,52.465219],"type":"Point"},"properties":{"osm_id":"3667710733","tag":{"amenity":"waste_basket"}},"type":"Feature"},
	{"geometry":{"coordinates":[10.505886,52.465906],"type":"Point"},"properties":{"osm_id":"3667710734","tag":{"amenity":"waste_basket"}},"type":"Feature"},
	{"geometry":{"coordinates":[10.517166,52.469734],"type":"Point"},"properties":{"osm_id":"4657180188","tag":{"amenity":"waste_basket"}},"type":"Feature"},
	{"geometry":{"coordinates":[10.508757,52.434236],"type":"Point"},"properties":{"osm_id":"4688388318","tag":{"amenity":"waste_basket"}},"type":"Feature"},
	{"geometry":{"coordinates":[10.496103,52.458003],"type":"Point"},"properties":{"osm_id":"5999961552","tag":{"amenity":"recycling","recycling:glass":"yes","recycling_type":"container"}},"type":"Feature"},
	{"geometry":{"coordinates":[10.496067,52.458004],"type":"Point"},"properties":{"osm_id":"5999961553","tag":{"amenity":"recycling","recycling:clothes":"yes","recycling_type":"container"}},"type":"Feature"},
	{"geometry":{"coordinates":[10.540273,52.479272],"type":"Point"},"properties":{"osm_id":"6211246890","tag":{"amenity":"waste_basket"}},"type":"Feature"}
]
}
