{
"type": "FeatureCollection",
"features": [
	{"geometry":{"coordinates":[10.535433,52.381981],"type":"Point"},"properties":{"osm_id":"531728827","tag":{"amenity":"recycling","opening_hours":"24/7","recycling:cans":"no","recycling:clothes":"no","recycling:glass_bottles":"yes","recycling:paper":"no","recycling_type":"container","wheelchair":"limited"}},"type":"Feature"},
	{"geometry":{"coordinates":[10.489351,52.377456],"type":"Point"},"properties":{"osm_id":"648148243","tag":{"amenity":"recycling","recycling:glass_bottles":"yes","recycling_type":"container"}},"type":"Feature"},
	{"geometry":{"coordinates":[10.536093,52.385441],"type":"Point"},"properties":{"osm_id":"1861373076","tag":{"amenity":"waste_basket"}},"type":"Feature"},
	{"geometry":{"coordinates":[10.530178,52.411998],"type":"Point"},"properties":{"osm_id":"2787171144","tag":{"amenity":"recycling","recycling:clothes":"yes","recycling_type":"container"}},"type":"Feature"},
	{"geometry":{"coordinates":[10.459212,52.382376],"type":"Point"},"properties":{"name":"Kleidersammlung","osm_id":"2856612121","tag":{"amenity":"recycling","recycling:clothes":"yes","recycling_type":"container"}},"type":"Feature"},
	{"geometry":{"coordinates":[10.536583,52.384743],"type":"Point"},"properties":{"osm_id":"3311794465","tag":{"amenity":"waste_basket"}},"type":"Feature"},
	{"geometry":{"coordinates":[10.534269,52.383958],"type":"Point"},"properties":{"osm_id":"4695984629","tag":{"amenity":"recycling","recycling:clothes":"yes","recycling:shoes":"yes","recycling_type":"container"}},"type":"Feature"},
	{"geometry":{"coordinates":[10.478994,52.37892],"type":"Point"},"properties":{"osm_id":"4948180580","tag":{"amenity":"recycling","opening_hours":"Mo-Sa 07:00-19:00 || open \"clothes and shoes only\"","recycling:clothes":"yes","recycling:glass_bottles":"yes","recycling:shoes":"yes","recycling_type":"container"}},"type":"Feature"},
	{"geometry":{"coordinates":[10.5238,52.421804],"type":"Point"},"properties":{"osm_id":"5961924202","tag":{"amenity":"recycling","recycling:clothes":"yes","recycling:glass":"yes","recycling_type":"container"}},"type":"Feature"},
	{"geometry":{"coordinates":[10.531412,52.413706],"type":"Point"},"properties":{"osm_id":"6805195374","tag":{"amenity":"recycling","recycling:clothes":"yes","recycling_type":"container"}},"type":"Feature"},
	{"geometry":{"coordinates":[10.532849,52.41587],"type":"Point"},"properties":{"osm_id":"6814443239","tag":{"amenity":"recycling","recycling:clothes":"yes","recycling_type":"container"}},"type":"Feature"}
]
}
