{
"type": "FeatureCollection",
"features": [
	{"geometry":{"coordinates":[10.53658,52.232997],"type":"Point"},"properties":{"osm_id":"36302108","tag":{"amenity":"recycling","recycling:clothes":"yes","recycling:shoes":"yes","recycling_type":"container"}},"type":"Feature"},
	{"geometry":{"coordinates":[10.536675,52.230185],"type":"Point"},"properties":{"osm_id":"36302109","tag":{"amenity":"recycling","recycling:clothes":"yes","recycling:glass":"yes","recycling:paper":"yes","recycling:shoes":"yes","recycling:small_electrical_appliances":"yes","recycling_type":"container"}},"type":"Feature"},
	{"geometry":{"coordinates":[10.510149,52.268048],"type":"Point"},"properties":{"osm_id":"59663410","tag":{"amenity":"recycling","recycling_type":"container"}},"type":"Feature"},
	{"geometry":{"coordinates":[10.503857,52.264464],"type":"Point"},"properties":{"osm_id":"59663420","tag":{"amenity":"recycling","operator":"ALBA Braunschweig GmbH","recycling:cans":"no","recycling:clothes":"yes","recycling:glass":"yes","recycling:paper":"yes","recycling_type":"container"}},"type":"Feature"},
	{"geometry":{"coordinates":[10.520237,52.265785],"type":"Point"},"properties":{"osm_id":"59995540","tag":{"amenity":"recycling","operator":"ALBA Braunschweig GmbH","recycling:clothes":"yes","recycling:glass_bottles":"yes","recycling_type":"container"}},"type":"Feature"},
	{"geometry":{"coordinates":[10.51488,52.25758],"type":"Point"},"properties":{"osm_id":"60909685","tag":{"amenity":"recycling","operator":"ALBA Braunschweig GmbH","recycling:batteries":"no","recycling:books":"no","recycling:cans":"no","recycling:cardboard":"yes","recycling:cartons":"yes","recycling:clothes":"no","recycling:electrical_appliances":"no","recycling:glass":"yes","recycling:glass_bottles":"yes","recycling:green_waste":"no","recycling:magazines":"yes","recycling:newspaper":"yes","recycling:paper":"yes","recycling:paper_packaging":"yes","recycling:plastic":"yes","recycling:plastic_bottles":"yes","recycling:plastic_packaging":"yes","recycling_type":"container"}},"type":"Feature"},
	{"geometry":{"coordinates":[10.514131,52.265252],"type":"Point"},"properties":{"osm_id":"60909690","tag":{"amenity":"recycling","operator":"ALBA Braunschweig GmbH","recycling:clothes":"yes","recycling:glass_bottles":"yes","recycling:paper":"yes","recycling_type":"container"}},"type":"Feature"},
	{"geometry":{"coordinates":[10.507926,52.260055],"type":"Point"},"properties":{"osm_id":"80239021","tag":{"amenity":"recycling","operator":"ALBA Braunschweig GmbH","recycling:cans":"no","recycling:clothes":"yes","recycling:glass":"no","recycling:glass_bottles":"yes","recycling:paper":"yes","recycling_type":"container"}},"type":"Feature"},
	{"geometry":{"coordinates":[10.506056,52.262158],"type":"Point"},"properties":{"osm_id":"80239052","tag":{"amenity":"recycling","recycling:clothes":"yes","recycling:glass_bottles":"yes","recycling:paper":"yes","recycling:shoes":"yes","recycling_type":"container"}},"type":"Feature"},
	{"geometry":{"coordinates":[10.499349,52.266719],"type":"Point"},"properties":{"osm_id":"90752820","tag":{"amenity":"recycling","recycling:cartons":"yes","recycling:glass":"yes","recycling:glass_bottles":"yes","recycling:newspaper":"yes","recycling:paper":"yes","recycling:paper_packaging":"yes","recycling:small_electrical_appliances":"yes","recycling_type":"container"}},"type":"Feature"},
	{"geometry":{"coordinates":[10.49687,52.262223],"type":"Point"},"properties":{"osm_id":"90752943","tag":{"amenity":"recycling","recycling:clothes":"yes","recycling:glass_bottles":"yes","recycling:paper":"yes","recycling:shoes":"yes","recycling_type":"container"}},"type":"Feature"},
	{"geometry":{"coordinates":[10.498659,52.259451],"type":"Point"},"properties":{"osm_id":"90752974","tag":{"amenity":"recycling","operator":"ALBA Braunschweig GmbH","recycling:cans":"no","recycling:clothes":"yes","recycling:glass":"yes","recycling:paper":"yes","recycling_type":"container"}},"type":"Feature"},
	{"geometry":{"coordinates":[10.502717,52.257089],"type":"Point"},"properties":{"osm_id":"90753010","tag":{"amenity":"recycling","operator":"ALBA Braunschweig GmbH","recycling:cans":"no","recycling:clothes":"yes","recycling:glass":"yes","recycling:paper":"yes","recycling_type":"container"}},"type":"Feature"},
	{"geometry":{"coordinates":[10.519911,52.217316],"type":"Point"},"properties":{"osm_id":"92789438","tag":{"amenity":"recycling","recycling_type":"container"}},"type":"Feature"},
	{"geometry":{"coordinates":[10.519455,52.221542],"type":"Point"},"properties":{"osm_id":"93931568","tag":{"amenity":"recycling","recycling:small_electrical_appliances":"yes","recycling_type":"container"}},"type":"Feature"},
	{"geometry":{"coordinates":[10.527938,52.266229],"type":"Point"},"properties":{"osm_id":"128327066","tag":{"amenity":"recycling","recycling:clothes":"yes","recycling:glass":"yes","recycling:paper":"yes","recycling_type":"container","wheelchair":"limited"}},"type":"Feature"},
	{"geometry":{"coordinates":[10.52665,52.226126],"type":"Point"},"properties":{"osm_id":"132327797","tag":{"amenity":"recycling","operator":"ALBA Braunschweig GmbH","recycling:cans":"no","recycling:clothes":"yes","recycling:glass":"yes","recycling:paper":"yes","recycling_type":"container"}},"type":"Feature"},
	{"geometry":{"coordinates":[10.506213,52.25027],"type":"Point"},"properties":{"osm_id":"249296936","tag":{"amenity":"recycling","operator":"ALBA Braunschweig GmbH","recycling:cans":"yes","recycling:clothes":"yes","recycling:glass":"yes","recycling:paper":"yes","recycling_type":"container"}},"type":"Feature"},
	{"geometry":{"coordinates":[10.495926,52.253182],"type":"Point"},"properties":{"osm_id":"249296947","tag":{"amenity":"recycling","operator":"ALBA Braunschweig GmbH","recycling:cans":"no","recycling:clothes":"no","recycling:glass":"yes","recycling:paper":"yes","recycling_type":"container"}},"type":"Feature"},
	{"geometry":{"coordinates":[10.508025,52.253831],"type":"Point"},"properties":{"osm_id":"249298653","tag":{"amenity":"recycling","operator":"ALBA Braunschweig GmbH","recycling:cans":"no","recycling:clothes":"yes","recycling:glass":"yes","recycling:paper":"yes","recycling:small_electrical_appliances":"yes","recycling_type":"container"}},"type":"Feature"},
	{"geometry":{"coordinates":[10.501488,52.267164],"type":"Point"},"properties":{"osm_id":"257349933","tag":{"amenity":"recycling","operator":"ALBA Braunschweig GmbH","recycling:cans":"no","recycling:cartons":"yes","recycling:clothes":"yes","recycling:glass":"yes","recycling:glass_bottles":"yes","recycling:newspaper":"yes","recycling:paper":"yes","recycling_type":"container"}},"type":"Feature"},
	{"geometry":{"coordinates":[10.541258,52.26566],"type":"Point"},"properties":{"osm_id":"274110932","tag":{"amenity":"recycling","recycling:glass_bottles":"yes","recycling_type":"container"}},"type":"Feature"},
	{"geometry":{"coordinates":[10.532671,52.251558],"type":"Point"},"properties":{"osm_id":"275335530","tag":{"amenity":"recycling","recycling:glass":"yes","recycling_type":"container"}},"type":"Feature"},
	{"geometry":{"coordinates":[10.541842,52.262666],"type":"Point"},"properties":{"osm_id":"276214386","tag":{"amenity":"recycling","recycling:cans":"yes","recycling:glass_bottles":"yes","recycling:paper":"yes","recycling_type":"container"}},"type":"Feature"},
	{"geometry":{"coordinates":[10.476943,52.234482],"type":"Point"},"properties":{"osm_id":"279879867","tag":{"amenity":"recycling","location":"overground","recycling_type":"container"}},"type":"Feature"},
	{"geometry":{"coordinates":[10.48074,52.228701],"type":"Point"},"properties":{"osm_id":"279880082","tag":{"amenity":"recycling","operator":"ALBA Braunschweig GmbH","recycling:clothes":"yes","recycling:glass":"yes","recycling:paper":"yes","recycling_type":"container"}},"type":"Feature"},
	{"geometry":{"coordinates":[10.485062,52.233953],"type":"Point"},"properties":{"osm_id":"279880604","tag":{"amenity":"recycling","operator":"ALBA Braunschweig GmbH","recycling:cans":"no","recycling:clothes":"yes","recycling:glass":"yes","recycling:paper":"yes","recycling:small_electrical_appliances":"yes","recycling_type":"container"}},"type":"Feature"},
	{"geometry":{"coordinates":[10.489939,52.233871],"type":"Point"},"properties":{"osm_id":"279881141","tag":{"amenity":"recycling","recycling_type":"container"}},"type":"Feature"},
	{"geometry":{"coordinates":[10.521123,52.216459],"type":"Point"},"properties":{"osm_id":"281257685","tag":{"amenity":"recycling","recycling_type":"container"}},"type":"Feature"},
	{"geometry":{"coordinates":[10.471248,52.242457],"type":"Point"},"properties":{"osm_id":"281568508","tag":{"amenity":"recycling","operator":"ALBA Braunschweig GmbH","recycling:cans":"no","recycling:clothes":"yes","recycling:glass_bottles":"yes","recycling:paper":"yes","recycling_type":"container"}},"type":"Feature"},
	{"geometry":{"coordinates":[10.475239,52.242036],"type":"Point"},"properties":{"osm_id":"281568793","tag":{"amenity":"recycling","operator":"ALBA Braunschweig GmbH","recycling:cans":"no","recycling:clothes":"yes","recycling:glass_bottles":"yes","recycling:paper":"yes","recycling_type":"container"}},"type":"Feature"},
	{"geometry":{"coordinates":[10.481239,52.233636],"type":"Point"},"properties":{"osm_id":"282322546","tag":{"amenity":"recycling","location":"overground","operator":"ALBA","recycling:glass":"yes","recycling_type":"container"}},"type":"Feature"},
	{"geometry":{"coordinates":[10.472791,52.234003],"type":"Point"},"properties":{"osm_id":"282345548","tag":{"amenity":"recycling","recycling_type":"container"}},"type":"Feature"},
	{"geometry":{"coordinates":[10.539169,52.25889],"type":"Point"},"properties":{"osm_id":"288245374","tag":{"amenity":"recycling","recycling_type":"container"}},"type":"Feature"},
	{"geometry":{"coordinates":[10.523129,52.258413],"type":"Point"},"properties":{"osm_id":"310337611","tag":{"amenity":"recycling","recycling:cardboard":"yes","recycling:clothes":"yes","recycling:glass":"yes","recycling:glass_bottles":"yes","recycling:paper":"yes","recycling:shoes":"yes","recycling_type":"container","wheelchair":"limited"}},"type":"Feature"},
	{"geometry":{"coordinates":[10.53796,52.268146],"type":"Point"},"properties":{"osm_id":"310702485","tag":{"amenity":"recycling","recycling:glass":"yes","recycling_type":"container"}},"type":"Feature"},
	{"geometry":{"coordinates":[10.540854,52.227885],"type":"Point"},"properties":{"osm_id":"322828171","tag":{"amenity":"recycling","opening_hours":"24/7","recycling:clothes":"yes","recycling:glass_bottles":"yes","recycling:paper":"yes","recycling:shoes":"yes","recycling_type":"container","wheelchair":"yes"}},"type":"Feature"},
	{"geometry":{"coordinates":[10.539278,52.226044],"type":"Point"},"properties":{"osm_id":"322877732","tag":{"amenity":"recycling","location":"overground","opening_hours":"24/7","recycling:cans":"yes","recycling:clothes":"yes","recycling:glass_bottles":"yes","recycling:paper":"yes","recycling:shoes":"yes","recycling_type":"container","wheelchair":"yes"}},"type":"Feature"},
	{"geometry":{"coordinates":[10.544626,52.228077],"type":"Point"},"properties":{"osm_id":"322877947","tag":{"addr:street":"Stettinstra\u00c3\u009fe","amenity":"recycling","opening_hours":"24/7","recycling:clothes":"yes","recycling:glass_bottles":"yes","recycling:paper":"yes","recycling:shoes":"yes","recycling_type":"container","wheelchair":"yes"}},"type":"Feature"},
	{"geometry":{"coordinates":[10.544426,52.231431],"type":"Point"},"properties":{"osm_id":"322883682","tag":{"amenity":"recycling","recycling:cans":"yes","recycling:clothes":"yes","recycling:glass":"yes","recycling:paper":"yes"}},"type":"Feature"},
	{"geometry":{"coordinates":[10.536636,52.22624],"type":"Point"},"properties":{"osm_id":"322883686","tag":{"amenity":"recycling","location":"overground","recycling:cans":"yes","recycling:clothes":"yes","recycling:glass":"yes","recycling:paper":"yes","recycling_type":"container"}},"type":"Feature"},
	{"geometry":{"coordinates":[10.522151,52.220801],"type":"Point"},"properties":{"osm_id":"340123848","tag":{"amenity":"recycling","recycling:cans":"yes","recycling:glass":"yes","recycling:paper":"yes"}},"type":"Feature"},
	{"geometry":{"coordinates":[10.507746,52.266896],"type":"Point"},"properties":{"osm_id":"431117943","tag":{"amenity":"recycling","opening_hours":"Mo-Sa 07:00-19:00; Su, PH off","operator":"ALBA Braunschweig GmbH","recycling:clothes":"yes","recycling:glass_bottles":"yes","recycling:paper":"yes","recycling_type":"container"}},"type":"Feature"},
	{"geometry":{"coordinates":[10.49451,52.246194],"type":"Point"},"properties":{"osm_id":"433962184","tag":{"amenity":"recycling","operator":"ALBA Braunschweig GmbH","recycling:batteries":"no","recycling:cans":"yes","recycling:clothes":"yes","recycling:electrical_appliances":"no","recycling:glass":"yes","recycling:glass_bottles":"yes","recycling:paper":"yes","recycling:shoes":"yes","recycling_type":"container","wheelchair":"yes"}},"type":"Feature"},
	{"geometry":{"coordinates":[10.492391,52.245165],"type":"Point"},"properties":{"osm_id":"433962210","tag":{"amenity":"recycling","operator":"ALBA Braunschweig GmbH","recycling:cans":"no","recycling:clothes":"yes","recycling:glass":"yes","recycling:paper":"yes","recycling_type":"container"}},"type":"Feature"},
	{"geometry":{"coordinates":[10.486393,52.241455],"type":"Point"},"properties":{"osm_id":"433962325","tag":{"amenity":"recycling","operator":"ALBA Braunschweig GmbH","recycling:cans":"no","recycling:clothes":"yes","recycling:glass":"yes","recycling:paper":"yes","recycling_type":"container"}},"type":"Feature"},
	{"geometry":{"coordinates":[10.492498,52.241427],"type":"Point"},"properties":{"osm_id":"433962382","tag":{"amenity":"recycling","recycling:clothes":"yes","recycling_type":"container"}},"type":"Feature"},
	{"geometry":{"coordinates":[10.495219,52.242727],"type":"Point"},"properties":{"osm_id":"433962442","tag":{"amenity":"recycling","operator":"ALBA Braunschweig GmbH","recycling:cans":"no","recycling:clothes":"yes","recycling:glass":"yes","recycling:paper":"yes","recycling_type":"container"}},"type":"Feature"},
	{"geometry":{"coordinates":[10.495209,52.244588],"type":"Point"},"properties":{"osm_id":"433962454","tag":{"amenity":"recycling","operator":"ALBA Braunschweig GmbH","recycling:cans":"no","recycling:clothes":"yes","recycling:glass":"yes","recycling:paper":"yes","recycling_type":"container"}},"type":"Feature"},
	{"geometry":{"coordinates":[10.495332,52.244833],"type":"Point"},"properties":{"osm_id":"433962467","tag":{"amenity":"recycling","location":"overground","recycling:clothes":"yes","recycling_type":"container"}},"type":"Feature"},
	{"geometry":{"coordinates":[10.483774,52.252466],"type":"Point"},"properties":{"osm_id":"440841399","tag":{"amenity":"recycling","operator":"ALBA Braunschweig GmbH","recycling:cans":"no","recycling:clothes":"yes","recycling:glass":"yes","recycling:paper":"yes","recycling_type":"container"}},"type":"Feature"},
	{"geometry":{"coordinates":[10.486304,52.251987],"type":"Point"},"properties":{"osm_id":"440841408","tag":{"amenity":"recycling","operator":"ALBA Braunschweig GmbH","recycling:cans":"no","recycling:clothes":"yes","recycling:glass":"yes","recycling:paper":"yes","recycling_type":"container"}},"type":"Feature"},
	{"geometry":{"coordinates":[10.489466,52.251901],"type":"Point"},"properties":{"osm_id":"440841420","tag":{"amenity":"recycling","operator":"ALBA Braunschweig GmbH","recycling:cans":"no","recycling:clothes":"yes","recycling:glass":"yes","recycling:paper":"yes","recycling_type":"container"}},"type":"Feature"},
	{"geometry":{"coordinates":[10.475369,52.251048],"type":"Point"},"properties":{"osm_id":"441310308","tag":{"amenity":"recycling","operator":"ALBA Braunschweig GmbH","recycling:cans":"no","recycling:clothes":"yes","recycling:glass":"yes","recycling:paper":"yes","recycling:small_electrical_appliances":"yes","recycling_type":"container"}},"type":"Feature"},
	{"geometry":{"coordinates":[10.472975,52.253128],"type":"Point"},"properties":{"osm_id":"441310314","tag":{"amenity":"recycling","recycling:clothes":"yes"}},"type":"Feature"},
	{"geometry":{"coordinates":[10.466848,52.251869],"type":"Point"},"properties":{"osm_id":"441310340","tag":{"amenity":"recycling","operator":"ALBA Braunschweig GmbH","recycling:cans":"no","recycling:clothes":"yes","recycling:glass":"yes","recycling:paper":"yes","recycling_type":"container"}},"type":"Feature"},
	{"geometry":{"coordinates":[10.468326,52.249487],"type":"Point"},"properties":{"osm_id":"441310384","tag":{"amenity":"recycling","operator":"ALBA Braunschweig GmbH","recycling:cans":"yes","recycling:paper":"yes","recycling_type":"container"}},"type":"Feature"},
	{"geometry":{"coordinates":[10.468445,52.249675],"type":"Point"},"properties":{"osm_id":"441310390","tag":{"amenity":"recycling","operator":"ALBA Braunschweig GmbH","recycling:cans":"no","recycling:clothes":"yes","recycling:glass_bottles":"yes","recycling:paper":"yes","recycling_type":"container"}},"type":"Feature"},
	{"geometry":{"coordinates":[10.473438,52.252682],"type":"Point"},"properties":{"osm_id":"441310458","tag":{"amenity":"recycling","operator":"ALBA Braunschweig GmbH","recycling:cans":"no","recycling:clothes":"yes","recycling:glass":"yes","recycling:paper":"yes","recycling_type":"container"}},"type":"Feature"},
	{"geometry":{"coordinates":[10.469939,52.252113],"type":"Point"},"properties":{"osm_id":"441310530","tag":{"amenity":"recycling","operator":"ALBA Braunschweig GmbH","recycling:cans":"no","recycling:clothes":"yes","recycling:glass":"yes","recycling:paper":"yes","recycling_type":"container"}},"type":"Feature"},
	{"geometry":{"coordinates":[10.469964,52.248551],"type":"Point"},"properties":{"osm_id":"441310542","tag":{"amenity":"recycling","operator":"ALBA Braunschweig GmbH","recycling:cans":"no","recycling:clothes":"yes","recycling:glass_bottles":"yes","recycling:paper":"yes","recycling_type":"container"}},"type":"Feature"},
	{"geometry":{"coordinates":[10.487642,52.249706],"type":"Point"},"properties":{"osm_id":"443033950","tag":{"amenity":"recycling","location":"overground","recycling:cans":"no","recycling:clothes":"yes","recycling:glass":"no","recycling:paper":"no","recycling_type":"container"}},"type":"Feature"},
	{"geometry":{"coordinates":[10.473961,52.248853],"type":"Point"},"properties":{"osm_id":"447930901","tag":{"amenity":"recycling","operator":"ALBA Braunschweig GmbH","recycling:cans":"no","recycling:clothes":"no","recycling:glass_bottles":"yes","recycling:paper":"yes","recycling_type":"container"}},"type":"Feature"},
	{"geometry":{"coordinates":[10.473167,52.248068],"type":"Point"},"properties":{"osm_id":"447930956","tag":{"amenity":"recycling","location":"overground","operator":"ALBA","recycling:clothes":"yes","recycling:glass_bottles":"yes","recycling:paper":"yes","recycling_type":"container"}},"type":"Feature"},
	{"geometry":{"coordinates":[10.475735,52.245085],"type":"Point"},"properties":{"osm_id":"447931019","tag":{"amenity":"recycling","operator":"ALBA Braunschweig GmbH","recycling:cans":"no","recycling:clothes":"yes","recycling:glass_bottles":"yes","recycling:paper":"yes","recycling_type":"container"}},"type":"Feature"},
	{"geometry":{"coordinates":[10.477502,52.249012],"type":"Point"},"properties":{"osm_id":"447931023","tag":{"amenity":"recycling","operator":"ALBA Braunschweig GmbH","recycling:cans":"no","recycling:clothes":"yes","recycling:glass_bottles":"yes","recycling:paper":"yes","recycling_type":"container"}},"type":"Feature"},
	{"geometry":{"coordinates":[10.505801,52.258907],"type":"Point"},"properties":{"osm_id":"558273022","tag":{"amenity":"recycling","operator":"ALBA Braunschweig GmbH","recycling:cans":"no","recycling:clothes":"yes","recycling:glass":"yes","recycling:paper":"yes","recycling_type":"container"}},"type":"Feature"},
	{"geometry":{"coordinates":[10.519589,52.223954],"type":"Point"},"properties":{"osm_id":"566679951","tag":{"amenity":"recycling","operator":"ALBA Braunschweig GmbH","recycling:cans":"no","recycling:clothes":"yes","recycling:glass":"yes","recycling:paper":"yes","recycling_type":"container"}},"type":"Feature"},
	{"geometry":{"coordinates":[10.485498,52.231709],"type":"Point"},"properties":{"osm_id":"619364854","tag":{"amenity":"recycling","location":"overground","recycling_type":"container"}},"type":"Feature"},
	{"geometry":{"coordinates":[10.536462,52.233583],"type":"Point"},"properties":{"osm_id":"624183336","tag":{"amenity":"recycling","operator":"ALBA Braunschweig GmbH","recycling:cans":"no","recycling:clothes":"yes","recycling:glass":"yes","recycling:paper":"yes","recycling_type":"container"}},"type":"Feature"},
	{"geometry":{"coordinates":[10.514167,52.268073],"type":"Point"},"properties":{"osm_id":"653378195","tag":{"amenity":"waste_basket"}},"type":"Feature"},
	{"geometry":{"coordinates":[10.535196,52.243539],"type":"Point"},"properties":{"osm_id":"676177754","tag":{"amenity":"recycling","location":"overground","recycling_type":"container"}},"type":"Feature"},
	{"geometry":{"coordinates":[10.530099,52.216082],"type":"Point"},"properties":{"osm_id":"706099605","tag":{"amenity":"recycling","recycling:clothes":"yes","recycling:glass":"yes","recycling:paper":"yes","recycling:plastic":"yes","recycling:shoes":"yes"}},"type":"Feature"},
	{"geometry":{"coordinates":[10.540508,52.264235],"type":"Point"},"properties":{"osm_id":"747445287","tag":{"amenity":"recycling","opening_hours":"Mo-Sa 07:00-19:00; Su off \"L\u00c3\u00a4rmschutz\"","recycling:cardboard":"yes","recycling:glass":"yes","recycling:glass_bottles":"yes","recycling:paper":"yes","recycling_type":"container"}},"type":"Feature"},
	{"geometry":{"coordinates":[10.527587,52.256582],"type":"Point"},"properties":{"osm_id":"1308393770","tag":{"amenity":"recycling","operator":"ALBA Braunschweig GmbH","recycling:cans":"yes","recycling:glass":"yes","recycling:paper":"yes","recycling_type":"container","wheelchair":"limited"}},"type":"Feature"},
	{"geometry":{"coordinates":[10.523938,52.239158],"type":"Point"},"properties":{"osm_id":"1308393773","tag":{"amenity":"waste_basket"}},"type":"Feature"},
	{"geometry":{"coordinates":[10.523974,52.239663],"type":"Point"},"properties":{"osm_id":"1308393776","tag":{"amenity":"waste_basket"}},"type":"Feature"},
	{"geometry":{"coordinates":[10.523946,52.241264],"type":"Point"},"properties":{"osm_id":"1308393778","tag":{"amenity":"waste_basket"}},"type":"Feature"},
	{"geometry":{"coordinates":[10.525071,52.25061],"type":"Point"},"properties":{"osm_id":"1308393797","tag":{"amenity":"waste_basket"}},"type":"Feature"},
	{"geometry":{"coordinates":[10.471657,52.232451],"type":"Point"},"properties":{"osm_id":"1383369382","tag":{"amenity":"recycling","recycling_type":"container"}},"type":"Feature"},
	{"geometry":{"coordinates":[10.47358,52.249164],"type":"Point"},"properties":{"osm_id":"1469884023","tag":{"amenity":"recycling","operator":"ALBA Braunschweig GmbH","recycling:cans":"no","recycling:clothes":"yes","recycling:glass_bottles":"yes","recycling:paper":"yes","recycling:plastic_packaging":"yes","recycling_type":"container"}},"type":"Feature"},
	{"geometry":{"coordinates":[10.499602,52.222026],"type":"Point"},"properties":{"osm_id":"1539546165","tag":{"amenity":"recycling","recycling:cans":"no","recycling:clothes":"yes","recycling:glass":"yes","recycling:paper":"yes"}},"type":"Feature"},
	{"geometry":{"coordinates":[10.485873,52.249818],"type":"Point"},"properties":{"osm_id":"1578638898","tag":{"amenity":"waste_basket"}},"type":"Feature"},
	{"geometry":{"coordinates":[10.500347,52.231928],"type":"Point"},"properties":{"osm_id":"1598426986","tag":{"amenity":"recycling","recycling:glass":"yes","recycling:paper":"yes"}},"type":"Feature"},
	{"geometry":{"coordinates":[10.500437,52.215979],"type":"Point"},"properties":{"osm_id":"1620492953","tag":{"amenity":"recycling"}},"type":"Feature"},
	{"geometry":{"coordinates":[10.535834,52.253136],"type":"Point"},"properties":{"osm_id":"1669070292","tag":{"amenity":"recycling","recycling:cans":"yes","recycling:glass":"yes","recycling:paper":"yes","recycling_type":"container"}},"type":"Feature"},
	{"geometry":{"coordinates":[10.533026,52.256618],"type":"Point"},"properties":{"osm_id":"1670653662","tag":{"amenity":"recycling","recycling:cans":"yes","recycling:clothes":"yes","recycling:glass":"yes","recycling:paper":"yes","recycling_type":"container"}},"type":"Feature"},
	{"geometry":{"coordinates":[10.523146,52.26456],"type":"Point"},"properties":{"osm_id":"1759390746","tag":{"amenity":"waste_basket"}},"type":"Feature"},
	{"geometry":{"coordinates":[10.518524,52.249665],"type":"Point"},"properties":{"osm_id":"1781189469","tag":{"amenity":"waste_disposal"}},"type":"Feature"},
	{"geometry":{"coordinates":[10.481034,52.233376],"type":"Point"},"properties":{"osm_id":"1833754119","tag":{"amenity":"waste_basket"}},"type":"Feature"},
	{"geometry":{"coordinates":[10.487875,52.23097],"type":"Point"},"properties":{"osm_id":"1843117701","tag":{"amenity":"waste_basket"}},"type":"Feature"},
	{"geometry":{"coordinates":[10.480617,52.228501],"type":"Point"},"properties":{"osm_id":"1843136500","tag":{"amenity":"waste_basket"}},"type":"Feature"},
	{"geometry":{"coordinates":[10.483701,52.228545],"type":"Point"},"properties":{"osm_id":"1843136501","tag":{"amenity":"waste_basket"}},"type":"Feature"},
	{"geometry":{"coordinates":[10.523813,52.233056],"type":"Point"},"properties":{"osm_id":"1862699505","tag":{"amenity":"recycling","operator":"ALBA Braunschweig GmbH","recycling:cans":"no","recycling:clothes":"yes","recycling:glass":"yes","recycling:paper":"yes","recycling_type":"container"}},"type":"Feature"},
	{"geometry":{"coordinates":[10.517809,52.232201],"type":"Point"},"properties":{"osm_id":"1863407182","tag":{"amenity":"waste_basket"}},"type":"Feature"},
	{"geometry":{"coordinates":[10.518589,52.230612],"type":"Point"},"properties":{"osm_id":"1863407183","tag":{"amenity":"waste_basket"}},"type":"Feature"},
	{"geometry":{"coordinates":[10.522004,52.227433],"type":"Point"},"properties":{"osm_id":"1866124933","tag":{"amenity":"recycling","operator":"ALBA Braunschweig GmbH","recycling:cans":"no","recycling:clothes":"yes","recycling:glass":"yes","recycling:glass_bottles":"yes","recycling:magazines":"yes","recycling:newspaper":"yes","recycling:paper":"yes","recycling:paper_packaging":"yes","recycling:plastic":"yes","recycling:plastic_bottles":"yes","recycling:plastic_packaging":"yes","recycling_type":"container"}},"type":"Feature"},
	{"geometry":{"coordinates":[10.48046,52.253317],"type":"Point"},"properties":{"osm_id":"1918589832","tag":{"amenity":"recycling","operator":"ALBA Braunschweig GmbH","recycling:cans":"no","recycling:clothes":"yes","recycling:glass":"yes","recycling:paper":"yes","recycling_type":"container"}},"type":"Feature"},
	{"geometry":{"coordinates":[10.525513,52.228237],"type":"Point"},"properties":{"osm_id":"1926698151","tag":{"amenity":"recycling","operator":"ALBA Braunschweig GmbH","recycling:cans":"no","recycling:cartons":"yes","recycling:clothes":"yes","recycling:glass":"yes","recycling:glass_bottles":"yes","recycling:magazines":"yes","recycling:newspaper":"yes","recycling:paper":"yes","recycling:paper_packaging":"yes","recycling:plastic":"yes","recycling:plastic_bottles":"yes","recycling:plastic_packaging":"yes","recycling_type":"container"}},"type":"Feature"},
	{"geometry":{"coordinates":[10.505675,52.231463],"type":"Point"},"properties":{"osm_id":"1977090650","tag":{"amenity":"recycling","location":"overground","recycling_type":"container"}},"type":"Feature"},
	{"geometry":{"coordinates":[10.507745,52.236405],"type":"Point"},"properties":{"osm_id":"1977090653","tag":{"amenity":"recycling","operator":"ALBA Braunschweig GmbH","recycling:cans":"no","recycling:clothes":"yes","recycling:glass":"yes","recycling:paper":"yes","recycling:small_electrical_appliances":"yes","recycling_type":"container"}},"type":"Feature"},
	{"geometry":{"coordinates":[10.532221,52.266592],"type":"Point"},"properties":{"osm_id":"2294595050","tag":{"amenity":"waste_basket"}},"type":"Feature"},
	{"geometry":{"coordinates":[10.528422,52.259707],"type":"Point"},"properties":{"osm_id":"2340589319","tag":{"amenity":"recycling","recycling:clothes":"yes","recycling:glass":"yes","recycling:paper":"yes","recycling:small_electrical_appliances":"yes","recycling_type":"container","wheelchair":"limited"}},"type":"Feature"},
	{"geometry":{"coordinates":[10.534207,52.254734],"type":"Point"},"properties":{"osm_id":"2425764474","tag":{"amenity":"recycling","recycling:cans":"yes","recycling:clothes":"yes","recycling:glass":"yes","recycling:paper":"yes","recycling_type":"container"}},"type":"Feature"},
	{"geometry":{"coordinates":[10.53268,52.229899],"type":"Point"},"properties":{"osm_id":"2858973475","tag":{"amenity":"recycling","recycling:clothes":"yes","recycling:glass":"yes","recycling:paper":"yes","recycling_type":"container"}},"type":"Feature"},
	{"geometry":{"coordinates":[10.535095,52.231894],"type":"Point"},"properties":{"osm_id":"2912053378","tag":{"amenity":"recycling","operator":"ALBA Braunschweig GmbH","recycling:cans":"no","recycling:clothes":"yes","recycling:glass":"yes","recycling:paper":"yes","recycling_type":"container"}},"type":"Feature"},
	{"geometry":{"coordinates":[10.534665,52.232526],"type":"Point"},"properties":{"osm_id":"2912053380","tag":{"amenity":"recycling","recycling:clothes":"yes","recycling:shoes":"yes","recycling_type":"container"}},"type":"Feature"},
	{"geometry":{"coordinates":[10.531935,52.234583],"type":"Point"},"properties":{"osm_id":"2912053386","tag":{"amenity":"recycling","recycling:clothes":"yes","recycling:shoes":"yes","recycling_type":"container"}},"type":"Feature"},
	{"geometry":{"coordinates":[10.530979,52.235206],"type":"Point"},"properties":{"osm_id":"2912053388","tag":{"amenity":"recycling","operator":"ALBA Braunschweig GmbH","recycling:cans":"no","recycling:clothes":"yes","recycling:glass":"yes","recycling:paper":"yes","recycling_type":"container"}},"type":"Feature"},
	{"geometry":{"coordinates":[10.539355,52.230944],"type":"Point"},"properties":{"osm_id":"2933728508","tag":{"amenity":"recycling","recycling:clothes":"yes","recycling:glass":"yes","recycling:paper":"yes","recycling:shoes":"yes","recycling_type":"container"}},"type":"Feature"},
	{"geometry":{"coordinates":[10.503755,52.264677],"type":"Point"},"properties":{"osm_id":"2974142799","tag":{"amenity":"waste_basket"}},"type":"Feature"},
	{"geometry":{"coordinates":[10.503444,52.267601],"type":"Point"},"properties":{"osm_id":"2976961180","tag":{"amenity":"waste_basket"}},"type":"Feature"},
	{"geometry":{"coordinates":[10.503315,52.267424],"type":"Point"},"properties":{"osm_id":"2976961181","tag":{"amenity":"waste_basket"}},"type":"Feature"},
	{"geometry":{"coordinates":[10.498772,52.266672],"type":"Point"},"properties":{"osm_id":"2977069398","tag":{"amenity":"waste_basket"}},"type":"Feature"},
	{"geometry":{"coordinates":[10.498128,52.266567],"type":"Point"},"properties":{"name":"Hundekotentsorgungsstation","osm_id":"2977069399","tag":{"amenity":"waste_basket"}},"type":"Feature"},
	{"geometry":{"coordinates":[10.494652,52.266684],"type":"Point"},"properties":{"osm_id":"2977069415","tag":{"amenity":"waste_basket"}},"type":"Feature"},
	{"geometry":{"coordinates":[10.496222,52.266781],"type":"Point"},"properties":{"osm_id":"2977074825","tag":{"amenity":"waste_basket"}},"type":"Feature"},
	{"geometry":{"coordinates":[10.491105,52.265165],"type":"Point"},"properties":{"osm_id":"2977074828","tag":{"amenity":"recycling","operator":"ALBA Braunschweig GmbH","recycling:cans":"no","recycling:clothes":"yes","recycling:glass":"yes","recycling:paper":"yes","recycling_type":"container"}},"type":"Feature"},
	{"geometry":{"coordinates":[10.49145,52.266259],"type":"Point"},"properties":{"osm_id":"2977074829","tag":{"amenity":"waste_basket"}},"type":"Feature"},
	{"geometry":{"coordinates":[10.497922,52.265351],"type":"Point"},"properties":{"osm_id":"2977079161","tag":{"amenity":"waste_basket"}},"type":"Feature"},
	{"geometry":{"coordinates":[10.498108,52.267459],"type":"Point"},"properties":{"osm_id":"2977102408","tag":{"amenity":"waste_basket"}},"type":"Feature"},
	{"geometry":{"coordinates":[10.470412,52.261471],"type":"Point"},"properties":{"osm_id":"2977178057","tag":{"amenity":"waste_basket"}},"type":"Feature"},
	{"geometry":{"coordinates":[10.465815,52.261992],"type":"Point"},"properties":{"osm_id":"2977207774","tag":{"amenity":"waste_basket"}},"type":"Feature"},
	{"geometry":{"coordinates":[10.464494,52.261968],"type":"Point"},"properties":{"osm_id":"2977221123","tag":{"amenity":"waste_basket"}},"type":"Feature"},
	{"geometry":{"coordinates":[10.463786,52.262147],"type":"Point"},"properties":{"osm_id":"2977233029","tag":{"amenity":"waste_basket"}},"type":"Feature"},
	{"geometry":{"coordinates":[10.462082,52.261429],"type":"Point"},"properties":{"osm_id":"2977233031","tag":{"amenity":"waste_basket"}},"type":"Feature"},
	{"geometry":{"coordinates":[10.467049,52.259014],"type":"Point"},"properties":{"osm_id":"2977253499","tag":{"amenity":"waste_basket"}},"type":"Feature"},
	{"geometry":{"coordinates":[10.543739,52.245882],"type":"Point"},"properties":{"osm_id":"3049990380","tag":{"amenity":"recycling","operator":"ALBA Braunschweig GmbH","recycling:cans":"no","recycling:clothes":"yes","recycling:glass":"yes","recycling:paper":"yes","recycling:small_electrical_appliances":"yes","recycling_type":"container"}},"type":"Feature"},
	{"geometry":{"coordinates":[10.541409,52.241798],"type":"Point"},"properties":{"osm_id":"3267706508","tag":{"amenity":"recycling","recycling:cans":"yes","recycling:clothes":"yes","recycling:glass":"yes","recycling:paper":"yes","recycling_type":"container"}},"type":"Feature"},
	{"geometry":{"coordinates":[10.534366,52.260218],"type":"Point"},"properties":{"osm_id":"3302923560","tag":{"amenity":"recycling","recycling:glass":"yes","recycling:paper":"yes","recycling_type":"container"}},"type":"Feature"},
	{"geometry":{"coordinates":[10.476797,52.249277],"type":"Point"},"properties":{"osm_id":"3315655970","tag":{"amenity":"recycling","operator":"ALBA Braunschweig GmbH","recycling:cans":"no","recycling:clothes":"yes","recycling:glass_bottles":"yes","recycling:paper":"yes","recycling_type":"container"}},"type":"Feature"},
	{"geometry":{"coordinates":[10.480013,52.249931],"type":"Point"},"properties":{"osm_id":"3315655971","tag":{"amenity":"recycling","operator":"ALBA Braunschweig GmbH","recycling:cans":"no","recycling:clothes":"yes","recycling:glass_bottles":"yes","recycling:paper":"yes","recycling_type":"container"}},"type":"Feature"},
	{"geometry":{"coordinates":[10.481048,52.247088],"type":"Point"},"properties":{"osm_id":"3315664491","tag":{"amenity":"recycling","operator":"ALBA Braunschweig GmbH","recycling:cans":"no","recycling:clothes":"yes","recycling:glass":"yes","recycling:paper":"yes","recycling_type":"container"}},"type":"Feature"},
	{"geometry":{"coordinates":[10.519381,52.26471],"type":"Point"},"properties":{"osm_id":"3324273556","tag":{"amenity":"recycling","operator":"ALBA Braunschweig GmbH","recycling:clothes":"yes","recycling:glass_bottles":"yes","recycling:paper":"yes","recycling_type":"container"}},"type":"Feature"},
	{"geometry":{"coordinates":[10.49687,52.256767],"type":"Point"},"properties":{"osm_id":"3324273557","tag":{"amenity":"recycling","operator":"ALBA Braunschweig GmbH","recycling:cans":"no","recycling:clothes":"yes","recycling:glass":"yes","recycling:paper":"yes","recycling_type":"container"}},"type":"Feature"},
	{"geometry":{"coordinates":[10.5142,52.262015],"type":"Point"},"properties":{"osm_id":"3357932259","tag":{"amenity":"recycling","operator":"ALBA Braunschweig GmbH","recycling:clothes":"yes","recycling:glass_bottles":"yes","recycling:paper":"yes","recycling_type":"container"}},"type":"Feature"},
	{"geometry":{"coordinates":[10.519414,52.264712],"type":"Point"},"properties":{"osm_id":"3359678946","tag":{"amenity":"recycling","recycling:clothes":"yes","recycling_type":"container"}},"type":"Feature"},
	{"geometry":{"coordinates":[10.51021,52.236802],"type":"Point"},"properties":{"osm_id":"3360355590","tag":{"amenity":"recycling","operator":"ALBA Braunschweig GmbH","recycling:clothes":"yes","recycling:glass":"yes","recycling:paper":"yes","recycling_type":"container"}},"type":"Feature"},
	{"geometry":{"coordinates":[10.522617,52.247883],"type":"Point"},"properties":{"osm_id":"3398073264","tag":{"amenity":"waste_basket"}},"type":"Feature"},
	{"geometry":{"coordinates":[10.522617,52.248025],"type":"Point"},"properties":{"osm_id":"3398073265","tag":{"amenity":"waste_basket"}},"type":"Feature"},
	{"geometry":{"coordinates":[10.523529,52.248221],"type":"Point"},"properties":{"osm_id":"3398073268","tag":{"amenity":"waste_basket"}},"type":"Feature"},
	{"geometry":{"coordinates":[10.52231,52.248223],"type":"Point"},"properties":{"osm_id":"3398073269","tag":{"amenity":"waste_basket"}},"type":"Feature"},
	{"geometry":{"coordinates":[10.526747,52.247232],"type":"Point"},"properties":{"osm_id":"3398073444","tag":{"amenity":"waste_basket"}},"type":"Feature"},
	{"geometry":{"coordinates":[10.52928,52.250167],"type":"Point"},"properties":{"osm_id":"3398074085","tag":{"amenity":"waste_basket"}},"type":"Feature"},
	{"geometry":{"coordinates":[10.538476,52.252902],"type":"Point"},"properties":{"osm_id":"3398074086","tag":{"amenity":"waste_basket"}},"type":"Feature"},
	{"geometry":{"coordinates":[10.537998,52.253207],"type":"Point"},"properties":{"osm_id":"3398074087","tag":{"amenity":"waste_basket"}},"type":"Feature"},
	{"geometry":{"coordinates":[10.537824,52.253348],"type":"Point"},"properties":{"osm_id":"3398074088","tag":{"amenity":"waste_basket"}},"type":"Feature"},
	{"geometry":{"coordinates":[10.536291,52.254274],"type":"Point"},"properties":{"osm_id":"3398235464","tag":{"amenity":"waste_basket"}},"type":"Feature"},
	{"geometry":{"coordinates":[10.53584,52.254606],"type":"Point"},"properties":{"osm_id":"3398235465","tag":{"amenity":"waste_basket"}},"type":"Feature"},
	{"geometry":{"coordinates":[10.52557,52.228605],"type":"Point"},"properties":{"osm_id":"3450290454","tag":{"amenity":"waste_basket"}},"type":"Feature"},
	{"geometry":{"coordinates":[10.525526,52.228439],"type":"Point"},"properties":{"osm_id":"3450291937","tag":{"amenity":"waste_basket"}},"type":"Feature"},
	{"geometry":{"coordinates":[10.525059,52.227232],"type":"Point"},"properties":{"osm_id":"3450293756","tag":{"amenity":"waste_basket"}},"type":"Feature"},
	{"geometry":{"coordinates":[10.525612,52.229448],"type":"Point"},"properties":{"osm_id":"3450295604","tag":{"amenity":"recycling","recycling:clothes":"yes"}},"type":"Feature"},
	{"geometry":{"coordinates":[10.525965,52.230378],"type":"Point"},"properties":{"osm_id":"3450307322","tag":{"amenity":"waste_basket"}},"type":"Feature"},
	{"geometry":{"coordinates":[10.536994,52.253883],"type":"Point"},"properties":{"osm_id":"3493131763","tag":{"amenity":"waste_basket"}},"type":"Feature"},
	{"geometry":{"coordinates":[10.535666,52.254623],"type":"Point"},"properties":{"osm_id":"3493131764","tag":{"amenity":"waste_basket"}},"type":"Feature"},
	{"geometry":{"coordinates":[10.522622,52.249141],"type":"Point"},"properties":{"name":"Abfalleimer mit Pfanflaschenring","osm_id":"3495401571","tag":{"amenity":"waste_basket"}},"type":"Feature"},
	{"geometry":{"coordinates":[10.525659,52.249595],"type":"Point"},"properties":{"osm_id":"3495402636","tag":{"amenity":"waste_basket"}},"type":"Feature"},
	{"geometry":{"coordinates":[10.497243,52.252335],"type":"Point"},"properties":{"osm_id":"3502423842","tag":{"amenity":"waste_basket"}},"type":"Feature"},
	{"geometry":{"coordinates":[10.488624,52.24468],"type":"Point"},"properties":{"osm_id":"3508582380","tag":{"amenity":"recycling","recycling:clothes":"yes","recycling:glass":"yes","recycling:paper":"yes","recycling_type":"container"}},"type":"Feature"},
	{"geometry":{"coordinates":[10.483423,52.244766],"type":"Point"},"properties":{"osm_id":"3710615497","tag":{"amenity":"recycling","recycling:cans":"no","recycling:clothes":"yes","recycling:glass":"yes","recycling:paper":"yes","recycling_type":"container"}},"type":"Feature"},
	{"geometry":{"coordinates":[10.523004,52.247845],"type":"Point"},"properties":{"osm_id":"3841893510","tag":{"amenity":"waste_basket"}},"type":"Feature"},
	{"geometry":{"coordinates":[10.525238,52.249073],"type":"Point"},"properties":{"osm_id":"3841893511","tag":{"amenity":"waste_basket"}},"type":"Feature"},
	{"geometry":{"coordinates":[10.540444,52.252396],"type":"Point"},"properties":{"osm_id":"3905332687","tag":{"amenity":"waste_basket","level":"1"}},"type":"Feature"},
	{"geometry":{"coordinates":[10.51429,52.261743],"type":"Point"},"properties":{"osm_id":"4312518211","tag":{"amenity":"recycling","recycling:clothes":"yes","recycling:glass":"yes","recycling:paper":"yes","recycling_type":"container"}},"type":"Feature"},
	{"geometry":{"coordinates":[10.538769,52.264339],"type":"Point"},"properties":{"osm_id":"4382238740","tag":{"amenity":"waste_basket"}},"type":"Feature"},
	{"geometry":{"coordinates":[10.538692,52.264607],"type":"Point"},"properties":{"osm_id":"4382238744","tag":{"amenity":"waste_basket"}},"type":"Feature"},
	{"geometry":{"coordinates":[10.534051,52.259216],"type":"Point"},"properties":{"osm_id":"4590920990","tag":{"amenity":"recycling","recycling:clothes":"yes","recycling_type":"container"}},"type":"Feature"},
	{"geometry":{"coordinates":[10.476406,52.227881],"type":"Point"},"properties":{"name":"Abfalleimer","osm_id":"4745452921","tag":{"amenity":"waste_basket"}},"type":"Feature"},
	{"geometry":{"coordinates":[10.482557,52.243662],"type":"Point"},"properties":{"osm_id":"4745462591","tag":{"amenity":"waste_basket"}},"type":"Feature"},
	{"geometry":{"coordinates":[10.486922,52.247011],"type":"Point"},"properties":{"osm_id":"4745462592","tag":{"amenity":"waste_basket"}},"type":"Feature"},
	{"geometry":{"coordinates":[10.487449,52.246691],"type":"Point"},"properties":{"osm_id":"4745462593","tag":{"amenity":"waste_basket"}},"type":"Feature"},
	{"geometry":{"coordinates":[10.483956,52.243676],"type":"Point"},"properties":{"osm_id":"4756002050","tag":{"amenity":"waste_basket"}},"type":"Feature"},
	{"geometry":{"coordinates":[10.481778,52.243711],"type":"Point"},"properties":{"osm_id":"4756002053","tag":{"amenity":"waste_basket","description":"Nicht Kr\u00c3\u00a4hensicher"}},"type":"Feature"},
	{"geometry":{"coordinates":[10.535551,52.268029],"type":"Point"},"properties":{"osm_id":"4761986069","tag":{"amenity":"waste_basket"}},"type":"Feature"},
	{"geometry":{"coordinates":[10.533768,52.267839],"type":"Point"},"properties":{"osm_id":"4761986072","tag":{"amenity":"waste_basket"}},"type":"Feature"},
	{"geometry":{"coordinates":[10.485893,52.243707],"type":"Point"},"properties":{"osm_id":"4790604763","tag":{"amenity":"waste_basket"}},"type":"Feature"},
	{"geometry":{"coordinates":[10.486434,52.243847],"type":"Point"},"properties":{"osm_id":"4790607389","tag":{"amenity":"waste_basket"}},"type":"Feature"},
	{"geometry":{"coordinates":[10.482403,52.243329],"type":"Point"},"properties":{"name":"Abfalleimer (privat?)","osm_id":"4791810619","tag":{"amenity":"waste_basket"}},"type":"Feature"},
	{"geometry":{"coordinates":[10.486152,52.243563],"type":"Point"},"properties":{"osm_id":"4791811257","tag":{"amenity":"waste_basket"}},"type":"Feature"},
	{"geometry":{"coordinates":[10.487367,52.243721],"type":"Point"},"properties":{"osm_id":"4793211892","tag":{"amenity":"waste_basket"}},"type":"Feature"},
	{"geometry":{"coordinates":[10.487876,52.243658],"type":"Point"},"properties":{"osm_id":"4793212457","tag":{"amenity":"waste_basket"}},"type":"Feature"},
	{"geometry":{"coordinates":[10.478123,52.237547],"type":"Point"},"properties":{"osm_id":"4798320768","tag":{"amenity":"waste_basket"}},"type":"Feature"},
	{"geometry":{"coordinates":[10.481529,52.237134],"type":"Point"},"properties":{"osm_id":"4798320769","tag":{"amenity":"waste_basket"}},"type":"Feature"},
	{"geometry":{"coordinates":[10.476564,52.24337],"type":"Point"},"properties":{"osm_id":"4799229148","tag":{"amenity":"waste_basket"}},"type":"Feature"},
	{"geometry":{"coordinates":[10.483929,52.252488],"type":"Point"},"properties":{"osm_id":"4826500975","tag":{"amenity":"waste_basket","collection_times":"Hundekott\u00c3\u00bcten-Spender","payment":"none","vending":"excrement_bags","waste":"dog_excrement"}},"type":"Feature"},
	{"geometry":{"coordinates":[10.487243,52.245579],"type":"Point"},"properties":{"osm_id":"4826566785","tag":{"amenity":"waste_basket"}},"type":"Feature"},
	{"geometry":{"coordinates":[10.487702,52.245996],"type":"Point"},"properties":{"osm_id":"4826566786","tag":{"amenity":"waste_basket"}},"type":"Feature"},
	{"geometry":{"coordinates":[10.487875,52.246446],"type":"Point"},"properties":{"osm_id":"4826566787","tag":{"amenity":"waste_basket"}},"type":"Feature"},
	{"geometry":{"coordinates":[10.494948,52.245917],"type":"Point"},"properties":{"name":"Abfalleimer","osm_id":"4826574245","tag":{"amenity":"waste_basket"}},"type":"Feature"},
	{"geometry":{"coordinates":[10.479744,52.249326],"type":"Point"},"properties":{"name":"Abfalleimer","osm_id":"4826592512","tag":{"amenity":"waste_basket"}},"type":"Feature"},
	{"geometry":{"coordinates":[10.49129,52.243896],"type":"Point"},"properties":{"osm_id":"4827148337","tag":{"amenity":"waste_basket"}},"type":"Feature"},
	{"geometry":{"coordinates":[10.492969,52.24384],"type":"Point"},"properties":{"osm_id":"4827148339","tag":{"amenity":"waste_basket"}},"type":"Feature"},
	{"geometry":{"coordinates":[10.493781,52.24713],"type":"Point"},"properties":{"name":"Abfalleimer","osm_id":"4827454427","tag":{"amenity":"waste_basket"}},"type":"Feature"},
	{"geometry":{"coordinates":[10.490024,52.246475],"type":"Point"},"properties":{"name":"Abfalleimer","osm_id":"4827460663","tag":{"amenity":"waste_basket"}},"type":"Feature"},
	{"geometry":{"coordinates":[10.488773,52.24591],"type":"Point"},"properties":{"name":"Abfalleimer","osm_id":"4827466706","tag":{"amenity":"waste_basket"}},"type":"Feature"},
	{"geometry":{"coordinates":[10.489052,52.246263],"type":"Point"},"properties":{"osm_id":"4827467569","tag":{"amenity":"waste_basket"}},"type":"Feature"},
	{"geometry":{"coordinates":[10.489173,52.246156],"type":"Point"},"properties":{"osm_id":"4827467570","tag":{"amenity":"waste_basket"}},"type":"Feature"},
	{"geometry":{"coordinates":[10.480747,52.243847],"type":"Point"},"properties":{"osm_id":"4827478453","tag":{"amenity":"waste_basket"}},"type":"Feature"},
	{"geometry":{"coordinates":[10.480689,52.243615],"type":"Point"},"properties":{"osm_id":"4827478454","tag":{"amenity":"waste_basket"}},"type":"Feature"},
	{"geometry":{"coordinates":[10.538576,52.264595],"type":"Point"},"properties":{"osm_id":"4841650260","tag":{"amenity":"waste_basket"}},"type":"Feature"},
	{"geometry":{"coordinates":[10.537542,52.262565],"type":"Point"},"properties":{"osm_id":"4841696288","tag":{"amenity":"waste_basket"}},"type":"Feature"},
	{"geometry":{"coordinates":[10.535611,52.257758],"type":"Point"},"properties":{"osm_id":"4847375846","tag":{"amenity":"waste_basket"}},"type":"Feature"},
	{"geometry":{"coordinates":[10.53452,52.263227],"type":"Point"},"properties":{"osm_id":"4855689909","tag":{"amenity":"waste_basket"}},"type":"Feature"},
	{"geometry":{"coordinates":[10.532039,52.26107],"type":"Point"},"properties":{"osm_id":"4855689913","tag":{"amenity":"waste_basket"}},"type":"Feature"},
	{"geometry":{"coordinates":[10.536869,52.262511],"type":"Point"},"properties":{"osm_id":"4855689914","tag":{"amenity":"waste_basket"}},"type":"Feature"},
	{"geometry":{"coordinates":[10.504844,52.266548],"type":"Point"},"properties":{"osm_id":"4861995562","tag":{"amenity":"waste_basket"}},"type":"Feature"},
	{"geometry":{"coordinates":[10.527704,52.261586],"type":"Point"},"properties":{"name":"Altkleider","osm_id":"4923530221","tag":{"amenity":"recycling","location":"overground","name:de":"Altkleider","opening_hours":"24/7","operator":"Zweimalsch\u00c3\u00b6n","recycling_type":"container","website":"https://www.zweimalschoen.de/"}},"type":"Feature"},
	{"geometry":{"coordinates":[10.53945,52.253048],"type":"Point"},"properties":{"osm_id":"4926251654","tag":{"amenity":"waste_basket"}},"type":"Feature"},
	{"geometry":{"coordinates":[10.538991,52.252609],"type":"Point"},"properties":{"osm_id":"4926251660","tag":{"amenity":"waste_basket"}},"type":"Feature"},
	{"geometry":{"coordinates":[10.539088,52.252582],"type":"Point"},"properties":{"osm_id":"4926251661","tag":{"amenity":"waste_basket"}},"type":"Feature"},
	{"geometry":{"coordinates":[10.539258,52.252679],"type":"Point"},"properties":{"osm_id":"4926251662","tag":{"amenity":"waste_basket"}},"type":"Feature"},
	{"geometry":{"coordinates":[10.539826,52.252424],"type":"Point"},"properties":{"osm_id":"4926251678","tag":{"amenity":"waste_basket","level":"0"}},"type":"Feature"},
	{"geometry":{"coordinates":[10.540275,52.252169],"type":"Point"},"properties":{"osm_id":"4926251679","tag":{"amenity":"waste_basket","level":"0"}},"type":"Feature"},
	{"geometry":{"coordinates":[10.540862,52.251892],"type":"Point"},"properties":{"osm_id":"4926251682","tag":{"amenity":"waste_basket"}},"type":"Feature"},
	{"geometry":{"coordinates":[10.540131,52.252334],"type":"Point"},"properties":{"osm_id":"4926251683","tag":{"amenity":"waste_basket","level":"0"}},"type":"Feature"},
	{"geometry":{"coordinates":[10.539523,52.252806],"type":"Point"},"properties":{"osm_id":"4926352852","tag":{"amenity":"waste_basket"}},"type":"Feature"},
	{"geometry":{"coordinates":[10.526717,52.233334],"type":"Point"},"properties":{"osm_id":"5070400652","tag":{"amenity":"waste_basket"}},"type":"Feature"},
	{"geometry":{"coordinates":[10.481391,52.244857],"type":"Point"},"properties":{"name":"Abfalleimer","osm_id":"5143324031","tag":{"amenity":"waste_basket"}},"type":"Feature"},
	{"geometry":{"coordinates":[10.481164,52.244884],"type":"Point"},"properties":{"osm_id":"5143324032","tag":{"amenity":"waste_basket"}},"type":"Feature"},
	{"geometry":{"coordinates":[10.481387,52.245301],"type":"Point"},"properties":{"name":"Abfalleimer","osm_id":"5143324033","tag":{"amenity":"waste_basket"}},"type":"Feature"},
	{"geometry":{"coordinates":[10.481473,52.24536],"type":"Point"},"properties":{"name":"Abfalleimer","osm_id":"5143324034","tag":{"amenity":"waste_basket"}},"type":"Feature"},
	{"geometry":{"coordinates":[10.485973,52.240305],"type":"Point"},"properties":{"name":"Abfalleimer","osm_id":"5146549032","tag":{"amenity":"waste_basket"}},"type":"Feature"},
	{"geometry":{"coordinates":[10.486321,52.241111],"type":"Point"},"properties":{"osm_id":"5146559204","tag":{"amenity":"waste_basket"}},"type":"Feature"},
	{"geometry":{"coordinates":[10.486407,52.241272],"type":"Point"},"properties":{"osm_id":"5146559205","tag":{"amenity":"waste_basket"}},"type":"Feature"},
	{"geometry":{"coordinates":[10.477976,52.249158],"type":"Point"},"properties":{"name":"Abfalleimer","osm_id":"5148956628","tag":{"amenity":"waste_basket"}},"type":"Feature"},
	{"geometry":{"coordinates":[10.478641,52.249154],"type":"Point"},"properties":{"name":"Abfalleimer","osm_id":"5148956629","tag":{"amenity":"waste_basket"}},"type":"Feature"},
	{"geometry":{"coordinates":[10.477963,52.249092],"type":"Point"},"properties":{"name":"Abfalleimer","osm_id":"5148956630","tag":{"amenity":"waste_basket"}},"type":"Feature"},
	{"geometry":{"coordinates":[10.478644,52.249072],"type":"Point"},"properties":{"name":"Abfalleimer","osm_id":"5148956631","tag":{"amenity":"waste_basket"}},"type":"Feature"},
	{"geometry":{"coordinates":[10.491425,52.251255],"type":"Point"},"properties":{"name":"Abfalleimer","osm_id":"5148965007","tag":{"amenity":"waste_basket"}},"type":"Feature"},
	{"geometry":{"coordinates":[10.491055,52.250988],"type":"Point"},"properties":{"name":"Abfalleimer","osm_id":"5148965008","tag":{"amenity":"waste_basket"}},"type":"Feature"},
	{"geometry":{"coordinates":[10.490669,52.251157],"type":"Point"},"properties":{"name":"Abfalleimer","osm_id":"5148965009","tag":{"amenity":"waste_basket"}},"type":"Feature"},
	{"geometry":{"coordinates":[10.490481,52.251019],"type":"Point"},"properties":{"name":"Abfalleimer","osm_id":"5148965010","tag":{"amenity":"waste_basket"}},"type":"Feature"},
	{"geometry":{"coordinates":[10.485644,52.248783],"type":"Point"},"properties":{"name":"Abfalleimer","osm_id":"5148983183","tag":{"amenity":"waste_basket"}},"type":"Feature"},
	{"geometry":{"coordinates":[10.485581,52.247732],"type":"Point"},"properties":{"name":"Abfalleimer","osm_id":"5148983184","tag":{"amenity":"waste_basket"}},"type":"Feature"},
	{"geometry":{"coordinates":[10.538342,52.245562],"type":"Point"},"properties":{"osm_id":"5204767848","tag":{"amenity":"recycling","recycling:glass_bottles":"yes","recycling_type":"container"}},"type":"Feature"},
	{"geometry":{"coordinates":[10.538302,52.242037],"type":"Point"},"properties":{"osm_id":"5209102627","tag":{"amenity":"recycling","recycling_type":"container"}},"type":"Feature"},
	{"geometry":{"coordinates":[10.538348,52.239902],"type":"Point"},"properties":{"osm_id":"5209108551","tag":{"amenity":"recycling","recycling:cardboard":"yes","recycling:cartons":"yes","recycling:clothes":"yes","recycling:glass":"yes","recycling:glass_bottles":"yes","recycling:newspaper":"yes","recycling:paper":"yes","recycling:paper_packaging":"yes","recycling:shoes":"yes","recycling_type":"container"}},"type":"Feature"},
	{"geometry":{"coordinates":[10.541069,52.23513],"type":"Point"},"properties":{"osm_id":"5209109971","tag":{"amenity":"recycling","recycling:small_electrical_appliances":"yes","recycling_type":"container"}},"type":"Feature"},
	{"geometry":{"coordinates":[10.481426,52.236646],"type":"Point"},"properties":{"osm_id":"5312196410","tag":{"amenity":"waste_basket"}},"type":"Feature"},
	{"geometry":{"coordinates":[10.48104,52.244661],"type":"Point"},"properties":{"osm_id":"5325676261","tag":{"amenity":"recycling","recycling:clothes":"yes","recycling:glass_bottles":"yes","recycling:paper":"yes","recycling_type":"container"}},"type":"Feature"},
	{"geometry":{"coordinates":[10.469592,52.262689],"type":"Point"},"properties":{"osm_id":"5534109470","tag":{"amenity":"waste_basket"}},"type":"Feature"},
	{"geometry":{"coordinates":[10.483738,52.228768],"type":"Point"},"properties":{"osm_id":"5577286197","tag":{"amenity":"waste_basket"}},"type":"Feature"},
	{"geometry":{"coordinates":[10.487258,52.234362],"type":"Point"},"properties":{"osm_id":"5584343823","tag":{"amenity":"waste_disposal","waste":"trash"}},"type":"Feature"},
	{"geometry":{"coordinates":[10.487365,52.235087],"type":"Point"},"properties":{"osm_id":"5584343824","tag":{"amenity":"waste_disposal","waste":"trash"}},"type":"Feature"},
	{"geometry":{"coordinates":[10.483633,52.228546],"type":"Point"},"properties":{"osm_id":"5590663602","tag":{"amenity":"waste_basket"}},"type":"Feature"},
	{"geometry":{"coordinates":[10.475909,52.231799],"type":"Point"},"properties":{"osm_id":"5590710689","tag":{"amenity":"waste_basket","waste":"trash"}},"type":"Feature"},
	{"geometry":{"coordinates":[10.472527,52.22886],"type":"Point"},"properties":{"osm_id":"5591093161","tag":{"amenity":"waste_basket"}},"type":"Feature"},
	{"geometry":{"coordinates":[10.47267,52.228851],"type":"Point"},"properties":{"osm_id":"5591093162","tag":{"amenity":"waste_basket"}},"type":"Feature"},
	{"geometry":{"coordinates":[10.471163,52.229023],"type":"Point"},"properties":{"osm_id":"5591093163","tag":{"amenity":"waste_basket"}},"type":"Feature"},
	{"geometry":{"coordinates":[10.471429,52.229014],"type":"Point"},"properties":{"osm_id":"5591093164","tag":{"amenity":"waste_basket"}},"type":"Feature"},
	{"geometry":{"coordinates":[10.471729,52.229608],"type":"Point"},"properties":{"osm_id":"5591093166","tag":{"amenity":"waste_basket"}},"type":"Feature"},
	{"geometry":{"coordinates":[10.475806,52.227787],"type":"Point"},"properties":{"osm_id":"5591093168","tag":{"amenity":"waste_basket"}},"type":"Feature"},
	{"geometry":{"coordinates":[10.476746,52.231441],"type":"Point"},"properties":{"osm_id":"5591093937","tag":{"amenity":"waste_basket"}},"type":"Feature"},
	{"geometry":{"coordinates":[10.476794,52.231805],"type":"Point"},"properties":{"osm_id":"5591093939","tag":{"amenity":"waste_basket"}},"type":"Feature"},
	{"geometry":{"coordinates":[10.476259,52.231377],"type":"Point"},"properties":{"osm_id":"5600170142","tag":{"amenity":"waste_basket"}},"type":"Feature"},
	{"geometry":{"coordinates":[10.4762,52.231465],"type":"Point"},"properties":{"osm_id":"5600170144","tag":{"amenity":"waste_basket"}},"type":"Feature"},
	{"geometry":{"coordinates":[10.466617,52.24883],"type":"Point"},"properties":{"osm_id":"5609600048","tag":{"amenity":"waste_basket"}},"type":"Feature"},
	{"geometry":{"coordinates":[10.522086,52.257668],"type":"Point"},"properties":{"osm_id":"5635338767","tag":{"amenity":"waste_basket"}},"type":"Feature"},
	{"geometry":{"coordinates":[10.464001,52.253082],"type":"Point"},"properties":{"osm_id":"5693790781","tag":{"amenity":"waste_basket"}},"type":"Feature"},
	{"geometry":{"coordinates":[10.524291,52.266033],"type":"Point"},"properties":{"osm_id":"5889574590","tag":{"amenity":"waste_basket"}},"type":"Feature"},
	{"geometry":{"coordinates":[10.510543,52.222491],"type":"Point"},"properties":{"osm_id":"5898479886","tag":{"amenity":"waste_basket"}},"type":"Feature"},
	{"geometry":{"coordinates":[10.521904,52.223771],"type":"Point"},"properties":{"osm_id":"5929915503","tag":{"amenity":"waste_basket"}},"type":"Feature"},
	{"geometry":{"coordinates":[10.521936,52.247963],"type":"Point"},"properties":{"osm_id":"6019163063","tag":{"amenity":"waste_basket"}},"type":"Feature"},
	{"geometry":{"coordinates":[10.522789,52.247899],"type":"Point"},"properties":{"osm_id":"6019163064","tag":{"amenity":"waste_basket"}},"type":"Feature"},
	{"geometry":{"coordinates":[10.536847,52.264431],"type":"Point"},"properties":{"name":"Altkleidercontainer des DRK","osm_id":"6344607795","tag":{"amenity":"recycling","recycling_type":"container"}},"type":"Feature"},
	{"geometry":{"coordinates":[10.524108,52.2524],"type":"Point"},"properties":{"osm_id":"6364186575","tag":{"amenity":"waste_basket","waste":"trash"}},"type":"Feature"},
	{"geometry":{"coordinates":[10.520717,52.262423],"type":"Point"},"properties":{"osm_id":"6366695470","tag":{"amenity":"waste_basket","waste":"trash"}},"type":"Feature"},
	{"geometry":{"coordinates":[10.52352,52.262431],"type":"Point"},"properties":{"osm_id":"6366695474","tag":{"amenity":"waste_basket","waste":"trash"}},"type":"Feature"},
	{"geometry":{"coordinates":[10.516805,52.262804],"type":"Point"},"properties":{"osm_id":"6366809816","tag":{"amenity":"waste_basket","waste":"trash"}},"type":"Feature"},
	{"geometry":{"coordinates":[10.546031,52.265274],"type":"Point"},"properties":{"osm_id":"6653513073","tag":{"amenity":"recycling","material":"steel","operator":"Alba","recycling:glass":"yes","recycling_type":"container"}},"type":"Feature"},
	{"geometry":{"coordinates":[10.515607,52.258817],"type":"Point"},"properties":{"name":"Altpapiercontainer","osm_id":"6875091701","tag":{"amenity":"recycling","recycling_type":"container"}},"type":"Feature"},
	{"geometry":{"coordinates":[10.515653,52.258828],"type":"Point"},"properties":{"name":"Altglascontainer","osm_id":"6875091702","tag":{"amenity":"recycling","recycling_type":"container"}},"type":"Feature"},
	{"geometry":{"coordinates":[10.515677,52.258835],"type":"Point"},"properties":{"name":"Altkleidercontainer","osm_id":"6875091703","tag":{"amenity":"recycling","recycling_type":"container"}},"type":"Feature"},
	{"geometry":{"coordinates":[10.515629,52.258823],"type":"Point"},"properties":{"name":"Altpapiercontainer","osm_id":"6875091704","tag":{"amenity":"recycling","recycling_type":"container"}},"type":"Feature"},
	{"geometry":{"coordinates":[10.52665,52.240558],"type":"Point"},"properties":{"osm_id":"6886081558","tag":{"amenity":"waste_basket","wheelchair":"yes"}},"type":"Feature"},
	{"geometry":{"coordinates":[10.523222,52.240544],"type":"Point"},"properties":{"osm_id":"6886198106","tag":{"amenity":"waste_basket"}},"type":"Feature"},
	{"geometry":{"coordinates":[10.52134,52.239955],"type":"Point"},"properties":{"osm_id":"6886217385","tag":{"amenity":"waste_basket"}},"type":"Feature"},
	{"geometry":{"coordinates":[10.520018,52.237807],"type":"Point"},"properties":{"osm_id":"6886245288","tag":{"amenity":"waste_basket"}},"type":"Feature"},
	{"geometry":{"coordinates":[10.525676,52.249658],"type":"Point"},"properties":{"osm_id":"6886350344","tag":{"amenity":"waste_basket"}},"type":"Feature"},
	{"geometry":{"coordinates":[10.524548,52.251161],"type":"Point"},"properties":{"osm_id":"6886372105","tag":{"amenity":"waste_basket"}},"type":"Feature"},
	{"geometry":{"coordinates":[10.526394,52.253562],"type":"Point"},"properties":{"osm_id":"6886388289","tag":{"amenity":"waste_basket"}},"type":"Feature"},
	{"geometry":{"coordinates":[10.540596,52.225913],"type":"Point"},"properties":{"osm_id":"6959913476","tag":{"amenity":"waste_basket","material":"metal","waste":"trash"}},"type":"Feature"},
	{"geometry":{"coordinates":[10.540246,52.226348],"type":"Point"},"properties":{"osm_id":"6959922185","tag":{"amenity":"waste_disposal"}},"type":"Feature"},
	{"geometry":{"coordinates":[10.540431,52.225935],"type":"Point"},"properties":{"osm_id":"6959922188","tag":{"amenity":"waste_basket","material":"metal","waste":"trash"}},"type":"Feature"},
	{"geometry":{"coordinates":[10.540628,52.226097],"type":"Point"},"properties":{"osm_id":"6959922196","tag":{"amenity":"waste_basket","material":"steel","waste":"trash"}},"type":"Feature"},
	{"geometry":{"coordinates":[10.540574,52.226293],"type":"Point"},"properties":{"osm_id":"6984408338","tag":{"amenity":"waste_basket","material":"metal","waste":"trash"}},"type":"Feature"},
	{"geometry":{"coordinates":[10.540442,52.223536],"type":"Point"},"properties":{"osm_id":"6984514494","tag":{"amenity":"waste_basket","material":"metal","waste":"trash"}},"type":"Feature"},
	{"geometry":{"coordinates":[10.544529,52.225719],"type":"Point"},"properties":{"osm_id":"6984514495","tag":{"amenity":"recycling","opening_hours":"24/7","recycling:clothes":"yes","recycling:glass_bottles":"yes","recycling:paper":"yes","recycling:shoes":"yes","recycling_type":"container","wheelchair":"yes"}},"type":"Feature"},
	{"geometry":{"coordinates":[10.542835,52.225881],"type":"Point"},"properties":{"osm_id":"7004036223","tag":{"amenity":"waste_disposal"}},"type":"Feature"},
	{"geometry":{"coordinates":[10.543318,52.2259],"type":"Point"},"properties":{"osm_id":"7004036225","tag":{"amenity":"waste_disposal"}},"type":"Feature"},
	{"geometry":{"coordinates":[10.543353,52.226237],"type":"Point"},"properties":{"osm_id":"7004036229","tag":{"amenity":"waste_basket","waste":"trash"}},"type":"Feature"},
	{"geometry":{"coordinates":[10.543384,52.226662],"type":"Point"},"properties":{"osm_id":"7004036237","tag":{"amenity":"waste_disposal"}},"type":"Feature"},
	{"geometry":{"coordinates":[10.540423,52.226573],"type":"Point"},"properties":{"osm_id":"7004036252","tag":{"amenity":"waste_disposal"}},"type":"Feature"},
	{"geometry":{"coordinates":[10.54175,52.226573],"type":"Point"},"properties":{"osm_id":"7004036255","tag":{"amenity":"waste_disposal"}},"type":"Feature"},
	{"geometry":{"coordinates":[10.541228,52.226563],"type":"Point"},"properties":{"osm_id":"7004036264","tag":{"amenity":"waste_disposal"}},"type":"Feature"},
	{"geometry":{"coordinates":[10.54065,52.226561],"type":"Point"},"properties":{"osm_id":"7004036268","tag":{"amenity":"waste_disposal"}},"type":"Feature"},
	{"geometry":{"coordinates":[10.544071,52.226763],"type":"Point"},"properties":{"osm_id":"7004036271","tag":{"amenity":"waste_disposal"}},"type":"Feature"},
	{"geometry":{"coordinates":[10.543844,52.225983],"type":"Point"},"properties":{"osm_id":"7004037593","tag":{"amenity":"waste_disposal"}},"type":"Feature"},
	{"geometry":{"coordinates":[10.542208,52.226565],"type":"Point"},"properties":{"osm_id":"7004037597","tag":{"amenity":"waste_disposal"}},"type":"Feature"},
	{"geometry":{"coordinates":[10.542583,52.226441],"type":"Point"},"properties":{"osm_id":"7004037602","tag":{"amenity":"waste_disposal"}},"type":"Feature"},
	{"geometry":{"coordinates":[10.541992,52.226566],"type":"Point"},"properties":{"osm_id":"7004037603","tag":{"amenity":"waste_disposal"}},"type":"Feature"},
	{"geometry":{"coordinates":[10.541485,52.226567],"type":"Point"},"properties":{"osm_id":"7004037614","tag":{"amenity":"waste_disposal"}},"type":"Feature"},
	{"geometry":{"coordinates":[10.540936,52.226558],"type":"Point"},"properties":{"osm_id":"7004037616","tag":{"amenity":"waste_disposal"}},"type":"Feature"},
	{"geometry":{"coordinates":[10.542512,52.226561],"type":"Point"},"properties":{"osm_id":"7004037618","tag":{"amenity":"waste_disposal"}},"type":"Feature"},
	{"geometry":{"coordinates":[10.543827,52.226745],"type":"Point"},"properties":{"osm_id":"7004037620","tag":{"amenity":"waste_disposal"}},"type":"Feature"},
	{"geometry":{"coordinates":[10.544615,52.226256],"type":"Point"},"properties":{"osm_id":"7004037632","tag":{"amenity":"waste_disposal"}},"type":"Feature"},
	{"geometry":{"coordinates":[10.542822,52.226205],"type":"Point"},"properties":{"osm_id":"7004037645","tag":{"amenity":"waste_basket","material":"metal","waste":"trash"}},"type":"Feature"},
	{"geometry":{"coordinates":[10.535132,52.263586],"type":"Point"},"properties":{"osm_id":"7131452100","tag":{"amenity":"waste_basket","material":"metal"}},"type":"Feature"},
	{"geometry":{"coordinates":[10.534437,52.264298],"type":"Point"},"properties":{"osm_id":"7131452102","tag":{"amenity":"waste_basket","material":"metal"}},"type":"Feature"},
	{"geometry":{"coordinates":[10.533685,52.265141],"type":"Point"},"properties":{"osm_id":"7131452105","tag":{"amenity":"waste_basket","material":"metal","waste":"trash"}},"type":"Feature"},
	{"geometry":{"coordinates":[10.532293,52.263968],"type":"Point"},"properties":{"osm_id":"7131452108","tag":{"amenity":"waste_basket","material":"metal"}},"type":"Feature"},
	{"geometry":{"coordinates":[10.534329,52.263519],"type":"Point"},"properties":{"osm_id":"7131452109","tag":{"amenity":"waste_basket","material":"metal","waste":"mixed"}},"type":"Feature"},
	{"geometry":{"coordinates":[10.532591,52.265359],"type":"Point"},"properties":{"osm_id":"7131452132","tag":{"amenity":"waste_basket","material":"metal","waste":"mixed"}},"type":"Feature"},
	{"geometry":{"coordinates":[10.532937,52.264725],"type":"Point"},"properties":{"osm_id":"7131452134","tag":{"amenity":"waste_basket","material":"steel","waste":"mixed"}},"type":"Feature"},
	{"geometry":{"coordinates":[10.531889,52.264595],"type":"Point"},"properties":{"osm_id":"7131452135","tag":{"amenity":"waste_basket","material":"steel","waste":"mixed"}},"type":"Feature"},
	{"geometry":{"coordinates":[10.532694,52.26508],"type":"Point"},"properties":{"osm_id":"7131452142","tag":{"amenity":"waste_basket","material":"steel","waste":"mixed"}},"type":"Feature"},
	{"geometry":{"coordinates":[10.527575,52.256625],"type":"Point"},"properties":{"osm_id":"7158656324","tag":{"amenity":"recycling","recycling:clothes":"yes","recycling_type":"container"}},"type":"Feature"},
	{"geometry":{"coordinates":[10.521933,52.254619],"type":"Point"},"properties":{"osm_id":"7485726371","tag":{"amenity":"waste_basket","waste":"trash"}},"type":"Feature"},
	{"geometry":{"coordinates":[10.540781,52.252309],"type":"Point"},"properties":{"osm_id":"7773090214","tag":{"amenity":"waste_basket","level":"1"}},"type":"Feature"},
	{"geometry":{"coordinates":[10.540252,52.252527],"type":"Point"},"properties":{"osm_id":"7773090251","tag":{"amenity":"waste_basket","level":"1"}},"type":"Feature"},
	{"geometry":{"coordinates":[10.530276,52.264643],"type":"Point"},"properties":{"osm_id":"7778233181","tag":{"amenity":"waste_basket"}},"type":"Feature"},
	{"geometry":{"coordinates":[10.529935,52.263641],"type":"Point"},"properties":{"osm_id":"7778256193","tag":{"amenity":"waste_basket"}},"type":"Feature"},
	{"geometry":{"coordinates":[10.530869,52.265181],"type":"Point"},"properties":{"osm_id":"7778256194","tag":{"amenity":"waste_basket"}},"type":"Feature"},
	{"geometry":{"coordinates":[10.530363,52.26451],"type":"Point"},"properties":{"osm_id":"7778256195","tag":{"amenity":"waste_basket"}},"type":"Feature"},
	{"geometry":{"coordinates":[10.529996,52.264438],"type":"Point"},"properties":{"osm_id":"7778256202","tag":{"amenity":"waste_basket"}},"type":"Feature"},
	{"geometry":{"coordinates":[10.529859,52.264977],"type":"Point"},"properties":{"osm_id":"7778256211","tag":{"amenity":"waste_basket"}},"type":"Feature"},
	{"geometry":{"coordinates":[10.530681,52.265021],"type":"Point"},"properties":{"osm_id":"7778256214","tag":{"amenity":"waste_basket"}},"type":"Feature"},
	{"geometry":{"coordinates":[10.530135,52.264779],"type":"Point"},"properties":{"osm_id":"7778256227","tag":{"amenity":"waste_basket"}},"type":"Feature"},
	{"geometry":{"coordinates":[10.531116,52.265554],"type":"Point"},"properties":{"osm_id":"7778295967","tag":{"amenity":"waste_basket"}},"type":"Feature"},
	{"geometry":{"coordinates":[10.53578,52.262804],"type":"Point"},"properties":{"osm_id":"7848524169","tag":{"amenity":"waste_basket"}},"type":"Feature"},
	{"geometry":{"coordinates":[10.535208,52.262906],"type":"Point"},"properties":{"osm_id":"7848524170","tag":{"amenity":"waste_basket"}},"type":"Feature"},
	{"geometry":{"coordinates":[10.535163,52.262788],"type":"Point"},"properties":{"osm_id":"7848524171","tag":{"amenity":"waste_basket"}},"type":"Feature"}
]
}
