{
"type": "FeatureCollection",
"features": [
	{"geometry":{"coordinates":[10.506901,52.155037],"type":"Point"},"properties":{"osm_id":"304580127","tag":{"amenity":"recycling","recycling_type":"container"}},"type":"Feature"},
	{"geometry":{"coordinates":[10.518725,52.155898],"type":"Point"},"properties":{"osm_id":"304580211","tag":{"amenity":"recycling","recycling:clothes":"yes","recycling:glass":"yes","recycling:paper":"yes","recycling:shoes":"yes","recycling_type":"container"}},"type":"Feature"},
	{"geometry":{"coordinates":[10.546508,52.142051],"type":"Point"},"properties":{"osm_id":"315506615","tag":{"amenity":"recycling","recycling_type":"container"}},"type":"Feature"},
	{"geometry":{"coordinates":[10.512417,52.160153],"type":"Point"},"properties":{"osm_id":"442362005","tag":{"amenity":"recycling","recycling:glass":"yes","recycling:paper":"yes","recycling_type":"container"}},"type":"Feature"},
	{"geometry":{"coordinates":[10.535454,52.158837],"type":"Point"},"properties":{"osm_id":"536655082","tag":{"amenity":"recycling","recycling:paper":"yes","recycling_type":"container"}},"type":"Feature"},
	{"geometry":{"coordinates":[10.535532,52.158785],"type":"Point"},"properties":{"osm_id":"536655084","tag":{"amenity":"recycling","recycling:clothes":"yes","recycling:shoes":"yes","recycling_type":"container"}},"type":"Feature"},
	{"geometry":{"coordinates":[10.535288,52.158768],"type":"Point"},"properties":{"osm_id":"536655085","tag":{"amenity":"recycling","recycling:glass":"yes","recycling_type":"container"}},"type":"Feature"},
	{"geometry":{"coordinates":[10.522937,52.158042],"type":"Point"},"properties":{"osm_id":"600124517","tag":{"amenity":"recycling","recycling_type":"container"}},"type":"Feature"},
	{"geometry":{"coordinates":[10.525962,52.157284],"type":"Point"},"properties":{"osm_id":"1390198427","tag":{"amenity":"recycling","recycling:glass":"yes","recycling:glass_bottles":"yes","recycling_type":"container"}},"type":"Feature"},
	{"geometry":{"coordinates":[10.459102,52.143859],"type":"Point"},"properties":{"osm_id":"1491785411","tag":{"amenity":"waste_basket"}},"type":"Feature"},
	{"geometry":{"coordinates":[10.509097,52.156912],"type":"Point"},"properties":{"osm_id":"1654132849","tag":{"amenity":"recycling","recycling:cartons":"yes","recycling:glass":"no","recycling:glass_bottles":"yes","recycling_type":"container"}},"type":"Feature"},
	{"geometry":{"coordinates":[10.535353,52.159686],"type":"Point"},"properties":{"osm_id":"2443358807","tag":{"amenity":"recycling","recycling:cans":"no","recycling:clothes":"yes","recycling:glass":"yes","recycling_type":"container"}},"type":"Feature"},
	{"geometry":{"coordinates":[10.505985,52.158591],"type":"Point"},"properties":{"osm_id":"4299036135","tag":{"addr:city":"Wolfenb\u00c3\u00bcttel","addr:country":"DE","addr:postcode":"38304","addr:state":"Niedersachsen","addr:street":"Am Rehmanger","amenity":"recycling","recycling:glass":"yes","recycling:paper":"yes"}},"type":"Feature"},
	{"geometry":{"coordinates":[10.538827,52.156366],"type":"Point"},"properties":{"osm_id":"4376084471","tag":{"amenity":"recycling","operator":"AltkleiderContainerService","recycling:clothes":"yes","recycling:shoes":"yes","recycling_type":"container"}},"type":"Feature"},
	{"geometry":{"coordinates":[10.538821,52.156373],"type":"Point"},"properties":{"osm_id":"4376084472","tag":{"amenity":"recycling","recycling:clothes":"yes","recycling:shoes":"yes","recycling_type":"container"}},"type":"Feature"},
	{"geometry":{"coordinates":[10.538822,52.156381],"type":"Point"},"properties":{"osm_id":"4376084473","tag":{"amenity":"recycling","recycling:glass":"yes","recycling_type":"container"}},"type":"Feature"},
	{"geometry":{"coordinates":[10.53883,52.156387],"type":"Point"},"properties":{"osm_id":"4376084474","tag":{"amenity":"recycling","recycling:glass":"yes","recycling_type":"container"}},"type":"Feature"},
	{"geometry":{"coordinates":[10.539009,52.156583],"type":"Point"},"properties":{"osm_id":"4376084475","tag":{"amenity":"recycling","recycling:clothes":"yes","recycling:shoes":"yes","recycling_type":"container"}},"type":"Feature"},
	{"geometry":{"coordinates":[10.539024,52.156589],"type":"Point"},"properties":{"osm_id":"4376084476","tag":{"amenity":"recycling","recycling:clothes":"yes","recycling:shoes":"yes","recycling_type":"container"}},"type":"Feature"},
	{"geometry":{"coordinates":[10.545468,52.159389],"type":"Point"},"properties":{"osm_id":"7056309235","tag":{"amenity":"waste_basket"}},"type":"Feature"}
]
}
