{
"type": "FeatureCollection",
"features": [
	{"geometry":{"coordinates":[10.492058,51.898897],"type":"Point"},"properties":{"osm_id":"249521033","tag":{"amenity":"recycling","recycling_type":"container"}},"type":"Feature"},
	{"geometry":{"coordinates":[10.483777,51.898585],"type":"Point"},"properties":{"osm_id":"249521039","tag":{"amenity":"recycling","recycling_type":"container"}},"type":"Feature"},
	{"geometry":{"coordinates":[10.461913,51.918767],"type":"Point"},"properties":{"osm_id":"298192354","tag":{"amenity":"recycling","recycling_type":"container"}},"type":"Feature"},
	{"geometry":{"coordinates":[10.462324,51.913423],"type":"Point"},"properties":{"osm_id":"300101130","tag":{"amenity":"recycling","recycling:cans":"yes","recycling:glass_bottles":"yes","recycling:paper":"yes","recycling_type":"container"}},"type":"Feature"},
	{"geometry":{"coordinates":[10.459943,51.926116],"type":"Point"},"properties":{"osm_id":"434096601","tag":{"amenity":"recycling","recycling:paper":"yes","recycling_type":"container"}},"type":"Feature"},
	{"geometry":{"coordinates":[10.474471,51.903858],"type":"Point"},"properties":{"osm_id":"669197705","tag":{"amenity":"recycling","recycling_type":"container"}},"type":"Feature"},
	{"geometry":{"coordinates":[10.478462,51.897492],"type":"Point"},"properties":{"osm_id":"669197731","tag":{"amenity":"recycling","recycling_type":"container"}},"type":"Feature"},
	{"geometry":{"coordinates":[10.479674,51.893949],"type":"Point"},"properties":{"osm_id":"873909970","tag":{"amenity":"recycling","recycling:clothes":"yes","recycling:glass_bottles":"yes","recycling:paper":"yes","recycling_type":"container"}},"type":"Feature"},
	{"geometry":{"coordinates":[10.477553,51.909653],"type":"Point"},"properties":{"osm_id":"905538739","tag":{"amenity":"recycling","recycling_type":"container"}},"type":"Feature"},
	{"geometry":{"coordinates":[10.460352,51.922764],"type":"Point"},"properties":{"osm_id":"905577435","tag":{"amenity":"recycling","recycling:paper":"yes","recycling_type":"container"}},"type":"Feature"},
	{"geometry":{"coordinates":[10.479351,51.905155],"type":"Point"},"properties":{"osm_id":"1363778900","tag":{"amenity":"recycling","recycling:clothes":"yes","recycling:glass_bottles":"yes","recycling:paper":"yes","recycling_type":"container"}},"type":"Feature"},
	{"geometry":{"coordinates":[10.4672,51.932285],"type":"Point"},"properties":{"osm_id":"1582383980","tag":{"amenity":"recycling","recycling_type":"container"}},"type":"Feature"},
	{"geometry":{"coordinates":[10.488296,51.923278],"type":"Point"},"properties":{"osm_id":"1851067830","tag":{"amenity":"recycling","recycling:glass_bottles":"yes","recycling:paper":"yes","recycling_type":"container"}},"type":"Feature"},
	{"geometry":{"coordinates":[10.460356,51.922802],"type":"Point"},"properties":{"osm_id":"4081086351","tag":{"amenity":"recycling","recycling:glass_bottles":"yes","recycling_type":"container"}},"type":"Feature"},
	{"geometry":{"coordinates":[10.50048,51.909291],"type":"Point"},"properties":{"osm_id":"4358688069","tag":{"amenity":"recycling","operator":"Electrocycling Anlagen GmbH","recycling:electronic_scrap":"yes"}},"type":"Feature"},
	{"geometry":{"coordinates":[10.500575,51.909279],"type":"Point"},"properties":{"osm_id":"4358688070","tag":{"amenity":"recycling","operator":"Electrocycling Anlagen GmbH","recycling:batteries":"yes"}},"type":"Feature"},
	{"geometry":{"coordinates":[10.486989,51.896518],"type":"Point"},"properties":{"osm_id":"4895079643","tag":{"amenity":"waste_basket"}},"type":"Feature"},
	{"geometry":{"coordinates":[10.525507,51.903638],"type":"Point"},"properties":{"osm_id":"5273952798","tag":{"amenity":"waste_basket","material":"steel","waste":"trash;plastic;glass"}},"type":"Feature"},
	{"geometry":{"coordinates":[10.521187,51.904622],"type":"Point"},"properties":{"osm_id":"5273952799","tag":{"amenity":"waste_basket"}},"type":"Feature"},
	{"geometry":{"coordinates":[10.482849,51.899427],"type":"Point"},"properties":{"osm_id":"6218934942","tag":{"amenity":"waste_basket","waste":"trash"}},"type":"Feature"},
	{"geometry":{"coordinates":[10.482462,51.899574],"type":"Point"},"properties":{"osm_id":"6218934949","tag":{"amenity":"waste_basket","waste":"trash"}},"type":"Feature"},
	{"geometry":{"coordinates":[10.460046,51.916398],"type":"Point"},"properties":{"osm_id":"6322023255","tag":{"amenity":"waste_basket","waste":"trash"}},"type":"Feature"},
	{"geometry":{"coordinates":[10.480917,51.901634],"type":"Point"},"properties":{"osm_id":"6323727861","tag":{"amenity":"waste_basket","waste":"trash"}},"type":"Feature"},
	{"geometry":{"coordinates":[10.514396,51.894553],"type":"Point"},"properties":{"osm_id":"6449089802","tag":{"amenity":"waste_basket","waste":"trash"}},"type":"Feature"},
	{"geometry":{"coordinates":[10.515619,51.895994],"type":"Point"},"properties":{"osm_id":"6449099411","tag":{"amenity":"waste_basket","waste":"trash"}},"type":"Feature"},
	{"geometry":{"coordinates":[10.515954,51.905835],"type":"Point"},"properties":{"osm_id":"6451493496","tag":{"amenity":"waste_basket","waste":"trash"}},"type":"Feature"},
	{"geometry":{"coordinates":[10.521104,51.904467],"type":"Point"},"properties":{"osm_id":"6451563251","tag":{"amenity":"waste_basket","waste":"trash"}},"type":"Feature"},
	{"geometry":{"coordinates":[10.526404,51.907047],"type":"Point"},"properties":{"name":"Harlingerode, Ackerstra\u00c3\u009fe","osm_id":"6451690219","tag":{"amenity":"waste_basket","waste":"trash"}},"type":"Feature"},
	{"geometry":{"coordinates":[10.526378,51.907016],"type":"Point"},"properties":{"name":"Harlingerode, Ackerstra\u00c3\u009fe","osm_id":"6451690223","tag":{"amenity":"waste_basket","waste":"trash;glass;plastic"}},"type":"Feature"},
	{"geometry":{"coordinates":[10.521687,51.909748],"type":"Point"},"properties":{"osm_id":"6452447293","tag":{"amenity":"recycling","recycling:cardboard":"yes","recycling:paper":"yes","recycling_type":"container"}},"type":"Feature"},
	{"geometry":{"coordinates":[10.521725,51.909757],"type":"Point"},"properties":{"osm_id":"6452447294","tag":{"amenity":"recycling","recycling:glass":"yes","recycling:glass_bottles":"yes","recycling_type":"container"}},"type":"Feature"},
	{"geometry":{"coordinates":[10.512844,51.907205],"type":"Point"},"properties":{"osm_id":"6453305155","tag":{"amenity":"waste_basket","waste":"trash"}},"type":"Feature"},
	{"geometry":{"coordinates":[10.524808,51.905089],"type":"Point"},"properties":{"osm_id":"6751185843","tag":{"amenity":"waste_disposal"}},"type":"Feature"},
	{"geometry":{"coordinates":[10.524815,51.905083],"type":"Point"},"properties":{"osm_id":"6751185844","tag":{"amenity":"waste_disposal"}},"type":"Feature"},
	{"geometry":{"coordinates":[10.524821,51.905078],"type":"Point"},"properties":{"osm_id":"6751185845","tag":{"amenity":"waste_disposal"}},"type":"Feature"},
	{"geometry":{"coordinates":[10.524827,51.905071],"type":"Point"},"properties":{"osm_id":"6751185846","tag":{"amenity":"waste_disposal"}},"type":"Feature"},
	{"geometry":{"coordinates":[10.524837,51.905064],"type":"Point"},"properties":{"osm_id":"6751185847","tag":{"amenity":"waste_disposal"}},"type":"Feature"},
	{"geometry":{"coordinates":[10.532409,51.90053],"type":"Point"},"properties":{"osm_id":"7317139230","tag":{"amenity":"waste_basket"}},"type":"Feature"},
	{"geometry":{"coordinates":[10.532496,51.900621],"type":"Point"},"properties":{"osm_id":"7317139236","tag":{"amenity":"waste_basket"}},"type":"Feature"},
	{"geometry":{"coordinates":[10.520228,51.904751],"type":"Point"},"properties":{"osm_id":"7319567560","tag":{"amenity":"waste_basket","waste":"trash;organic;plastic;glass"}},"type":"Feature"},
	{"geometry":{"coordinates":[10.52533,51.908876],"type":"Point"},"properties":{"osm_id":"7329210653","tag":{"amenity":"waste_basket","waste":"mixed"}},"type":"Feature"},
	{"geometry":{"coordinates":[10.532216,51.902021],"type":"Point"},"properties":{"osm_id":"7439556343","tag":{"amenity":"waste_basket","waste":"trash;mixed;recycling;glass"}},"type":"Feature"},
	{"geometry":{"coordinates":[10.529798,51.908021],"type":"Point"},"properties":{"osm_id":"7626762549","tag":{"amenity":"waste_basket","waste":"glass;recycling;plastic;mixed"}},"type":"Feature"},
	{"geometry":{"coordinates":[10.521546,51.910259],"type":"Point"},"properties":{"osm_id":"7626783413","tag":{"amenity":"waste_basket","waste":"recycling;glass;litter;mixed"}},"type":"Feature"},
	{"geometry":{"coordinates":[10.461017,51.923768],"type":"Point"},"properties":{"osm_id":"7770972737","tag":{"amenity":"recycling","recycling:cardboard":"yes","recycling:glass_bottles":"yes","recycling:paper":"yes","recycling_type":"container"}},"type":"Feature"}
]
}
