{
"type": "FeatureCollection",
"lastupdate": "2020-08-04T00:00:00Z",
"features": [
	{"geometry":{"coordinates":[10.520138,51.718606],"type":"Point"},"properties":{"osm_id":"322066032","tag":{"amenity":"recycling","contact:phone":"+49 3943 5607-0","opening_hours":"Mo-Sa 08:00-18:00; PH,Su off","operator":"Nordharz Entsorgung GmbH","recycling:glass_bottles":"yes","recycling_type":"container"}},"type":"Feature"},
	{"geometry":{"coordinates":[10.52125,51.71484],"type":"Point"},"properties":{"osm_id":"1129408048","tag":{"amenity":"waste_basket"}},"type":"Feature"},
	{"geometry":{"coordinates":[10.514059,51.70726],"type":"Point"},"properties":{"osm_id":"1296841599","tag":{"amenity":"waste_basket"}},"type":"Feature"},
	{"geometry":{"coordinates":[10.524308,51.715001],"type":"Point"},"properties":{"osm_id":"1296843149","tag":{"amenity":"waste_basket"}},"type":"Feature"},
	{"geometry":{"coordinates":[10.519315,51.710858],"type":"Point"},"properties":{"osm_id":"1330471733","tag":{"amenity":"waste_basket"}},"type":"Feature"},
	{"geometry":{"coordinates":[10.519313,51.710863],"type":"Point"},"properties":{"osm_id":"1330471749","tag":{"amenity":"waste_basket"}},"type":"Feature"},
	{"geometry":{"coordinates":[10.518821,51.710356],"type":"Point"},"properties":{"osm_id":"1330471755","tag":{"amenity":"waste_basket"}},"type":"Feature"},
	{"geometry":{"coordinates":[10.516007,51.708885],"type":"Point"},"properties":{"osm_id":"1394875373","tag":{"amenity":"waste_basket"}},"type":"Feature"},
	{"geometry":{"coordinates":[10.520266,51.710103],"type":"Point"},"properties":{"osm_id":"1403784458","tag":{"amenity":"recycling","contact:phone":"+49 5323 376704","opening_hours":"Mo-Sa 08:00-18:00; PH,Su off","operator":"KreisWirtschaftsBetriebe Goslar","recycling:cartons":"yes","recycling:paper":"yes","recycling_type":"container"}},"type":"Feature"},
	{"geometry":{"coordinates":[10.509741,51.711195],"type":"Point"},"properties":{"osm_id":"1403786601","tag":{"amenity":"recycling","contact:phone":"+49 3943 5607-0","opening_hours":"Mo-Sa 08:00-18:00; Su,PH off","operator":"Nordharz Entsorgung GmbH","recycling:glass_bottles":"yes","recycling_type":"container"}},"type":"Feature"},
	{"geometry":{"coordinates":[10.509712,51.711202],"type":"Point"},"properties":{"osm_id":"1403786603","tag":{"amenity":"recycling","contact:phone":"+49 5323 376704","opening_hours":"Mo-Sa 08:00-18:00; Su,PH off","operator":"KreisWirtschaftsBetriebe Goslar","recycling:cartons":"yes","recycling:paper":"yes","recycling_type":"container"}},"type":"Feature"},
	{"geometry":{"coordinates":[10.514458,51.713025],"type":"Point"},"properties":{"osm_id":"1403829996","tag":{"amenity":"recycling","contact:phone":"+49 3943 5607-0","opening_hours":"Mo-Sa 08:00-18:00; PH,Su off","operator":"Nordharz Entsorgung GmbH","recycling:glass_bottles":"yes","recycling_type":"container"}},"type":"Feature"},
	{"geometry":{"coordinates":[10.519819,51.710251],"type":"Point"},"properties":{"osm_id":"1416482247","tag":{"amenity":"waste_basket"}},"type":"Feature"},
	{"geometry":{"coordinates":[10.518266,51.710388],"type":"Point"},"properties":{"osm_id":"1416482250","tag":{"amenity":"waste_basket"}},"type":"Feature"},
	{"geometry":{"coordinates":[10.521783,51.710804],"type":"Point"},"properties":{"osm_id":"1416482268","tag":{"amenity":"waste_basket"}},"type":"Feature"},
	{"geometry":{"coordinates":[10.521161,51.711411],"type":"Point"},"properties":{"osm_id":"1416482300","tag":{"amenity":"waste_basket"}},"type":"Feature"},
	{"geometry":{"coordinates":[10.521681,51.711626],"type":"Point"},"properties":{"osm_id":"1416482319","tag":{"amenity":"waste_basket"}},"type":"Feature"},
	{"geometry":{"coordinates":[10.521482,51.711662],"type":"Point"},"properties":{"osm_id":"1416482321","tag":{"amenity":"waste_basket"}},"type":"Feature"},
	{"geometry":{"coordinates":[10.518957,51.712342],"type":"Point"},"properties":{"osm_id":"1427055587","tag":{"amenity":"waste_basket"}},"type":"Feature"},
	{"geometry":{"coordinates":[10.523067,51.712787],"type":"Point"},"properties":{"osm_id":"1637718567","tag":{"amenity":"waste_basket"}},"type":"Feature"},
	{"geometry":{"coordinates":[10.522927,51.712831],"type":"Point"},"properties":{"osm_id":"1637718572","tag":{"amenity":"waste_basket"}},"type":"Feature"},
	{"geometry":{"coordinates":[10.518775,51.714246],"type":"Point"},"properties":{"osm_id":"1637718577","tag":{"amenity":"waste_basket"}},"type":"Feature"},
	{"geometry":{"coordinates":[10.520548,51.714544],"type":"Point"},"properties":{"osm_id":"1637718586","tag":{"amenity":"waste_basket"}},"type":"Feature"},
	{"geometry":{"coordinates":[10.518134,51.70922],"type":"Point"},"properties":{"osm_id":"1718577522","tag":{"amenity":"waste_basket"}},"type":"Feature"},
	{"geometry":{"coordinates":[10.515919,51.712913],"type":"Point"},"properties":{"osm_id":"1727362587","tag":{"amenity":"waste_basket"}},"type":"Feature"},
	{"geometry":{"coordinates":[10.509606,51.711228],"type":"Point"},"properties":{"osm_id":"1771697319","tag":{"amenity":"recycling","recycling:clothes":"yes","recycling:shoes":"yes","recycling_type":"container"}},"type":"Feature"},
	{"geometry":{"coordinates":[10.525753,51.716976],"type":"Point"},"properties":{"osm_id":"1854881053","tag":{"amenity":"waste_basket"}},"type":"Feature"},
	{"geometry":{"coordinates":[10.526628,51.718599],"type":"Point"},"properties":{"osm_id":"1855282729","tag":{"amenity":"waste_basket"}},"type":"Feature"},
	{"geometry":{"coordinates":[10.528995,51.722775],"type":"Point"},"properties":{"osm_id":"1855283036","tag":{"amenity":"waste_basket"}},"type":"Feature"},
	{"geometry":{"coordinates":[10.511822,51.709644],"type":"Point"},"properties":{"osm_id":"1880933073","tag":{"amenity":"waste_basket"}},"type":"Feature"},
	{"geometry":{"coordinates":[10.530594,51.716104],"type":"Point"},"properties":{"osm_id":"1882883563","tag":{"amenity":"waste_basket"}},"type":"Feature"},
	{"geometry":{"coordinates":[10.525729,51.714298],"type":"Point"},"properties":{"osm_id":"2090238148","tag":{"amenity":"waste_basket"}},"type":"Feature"},
	{"geometry":{"coordinates":[10.526364,51.709074],"type":"Point"},"properties":{"osm_id":"2708402368","tag":{"amenity":"waste_basket"}},"type":"Feature"},
	{"geometry":{"coordinates":[10.511595,51.70793],"type":"Point"},"properties":{"osm_id":"2999592705","tag":{"amenity":"waste_basket"}},"type":"Feature"},
	{"geometry":{"coordinates":[10.518253,51.717339],"type":"Point"},"properties":{"osm_id":"3121177487","tag":{"amenity":"recycling","operator":"Kolping Recycling GmbH","recycling:clothes":"yes","recycling:shoes":"yes","recycling_type":"container"}},"type":"Feature"},
	{"geometry":{"coordinates":[10.521581,51.716523],"type":"Point"},"properties":{"osm_id":"3400371601","tag":{"amenity":"waste_basket"}},"type":"Feature"},
	{"geometry":{"coordinates":[10.511431,51.712679],"type":"Point"},"properties":{"osm_id":"3673997615","tag":{"amenity":"waste_basket"}},"type":"Feature"},
	{"geometry":{"coordinates":[10.52074,51.710131],"type":"Point"},"properties":{"osm_id":"3889697838","tag":{"amenity":"recycling","operator":"Deutsche Lebens-Rettungs-Gesellschaft e.V.","recycling:clothes":"yes","recycling:shoes":"yes","recycling_type":"container"}},"type":"Feature"},
	{"geometry":{"coordinates":[10.52028,51.710113],"type":"Point"},"properties":{"osm_id":"4079765629","tag":{"amenity":"recycling","opening_hours":"Mo-Sa 08:00-18:00; PH,Su off","operator":"Lager- und Transportservice GmbH","recycling:clothes":"yes","recycling:shoes":"yes","recycling_type":"container"}},"type":"Feature"},
	{"geometry":{"coordinates":[10.520271,51.710116],"type":"Point"},"properties":{"osm_id":"4079765630","tag":{"amenity":"recycling","contact:phone":"+49 3943 5607-0","opening_hours":"Mo-Sa 08:00-18:00; PH,Su off","operator":"Nordharz Entsorgung GmbH","recycling:glass_bottles":"yes","recycling_type":"container"}},"type":"Feature"},
	{"geometry":{"coordinates":[10.52026,51.710118],"type":"Point"},"properties":{"osm_id":"4079765631","tag":{"amenity":"recycling","contact:phone":"+49 3943 5607-0","opening_hours":"Mo-Sa 08:00-18:00; PH,Su off","operator":"Nordharz Entsorgung GmbH","recycling:glass_bottles":"yes","recycling_type":"container"}},"type":"Feature"},
	{"geometry":{"coordinates":[10.520142,51.71859],"type":"Point"},"properties":{"osm_id":"4079765632","tag":{"amenity":"recycling","contact:phone":"+49 5323 376704","opening_hours":"Mo-Sa 08:00-18:00; PH,Su off","operator":"KreisWirtschaftsBetriebe Goslar","recycling:cartons":"yes","recycling:paper":"yes","recycling_type":"container"}},"type":"Feature"},
	{"geometry":{"coordinates":[10.520134,51.718623],"type":"Point"},"properties":{"osm_id":"4079765633","tag":{"amenity":"recycling","contact:phone":"+49 3943 5607-0","opening_hours":"Mo-Sa 08:00-18:00; PH,Su off","operator":"Nordharz Entsorgung GmbH","recycling:glass_bottles":"yes","recycling_type":"container"}},"type":"Feature"},
	{"geometry":{"coordinates":[10.52205,51.712616],"type":"Point"},"properties":{"osm_id":"4081580989","tag":{"amenity":"recycling","contact:phone":"+49 2327 919281","recycling:clothes":"yes","recycling:shoes":"yes","recycling_type":"container"}},"type":"Feature"},
	{"geometry":{"coordinates":[10.516082,51.713205],"type":"Point"},"properties":{"osm_id":"4471977001","tag":{"amenity":"waste_basket"}},"type":"Feature"},
	{"geometry":{"coordinates":[10.514474,51.713043],"type":"Point"},"properties":{"osm_id":"4720612498","tag":{"amenity":"recycling","contact:phone":"+49 3943 5607-0","opening_hours":"Mo-Sa 08:00-18:00; PH,Su off","operator":"Nordharz Entsorgung GmbH","recycling:paper":"yes","recycling_type":"container"}},"type":"Feature"},
	{"geometry":{"coordinates":[10.5147,51.709135],"type":"Point"},"properties":{"osm_id":"4834081550","tag":{"amenity":"waste_basket"}},"type":"Feature"},
	{"geometry":{"coordinates":[10.523035,51.715999],"type":"Point"},"properties":{"osm_id":"4836219332","tag":{"amenity":"waste_basket"}},"type":"Feature"}
]
}
