{
"type": "FeatureCollection",
"features": [
	{"geometry":{"coordinates":[10.516391,48.58556],"type":"Point"},"properties":{"osm_id":"254472949","tag":{"amenity":"recycling"}},"type":"Feature"},
	{"geometry":{"coordinates":[10.486918,48.57784],"type":"Point"},"properties":{"osm_id":"450553703","tag":{"amenity":"recycling","recycling:cans":"yes","recycling:clothes":"yes","recycling:glass":"yes"}},"type":"Feature"},
	{"geometry":{"coordinates":[10.499226,48.575821],"type":"Point"},"properties":{"osm_id":"450661797","tag":{"amenity":"recycling","recycling:cans":"yes","recycling:glass":"yes","recycling_type":"container"}},"type":"Feature"},
	{"geometry":{"coordinates":[10.474225,48.576412],"type":"Point"},"properties":{"osm_id":"2090984146","tag":{"amenity":"recycling","recycling:clothes":"yes","recycling:shoes":"yes","recycling_type":"container"}},"type":"Feature"},
	{"geometry":{"coordinates":[10.474281,48.576417],"type":"Point"},"properties":{"osm_id":"2090984150","tag":{"amenity":"recycling","recycling:cans":"yes","recycling_type":"container"}},"type":"Feature"},
	{"geometry":{"coordinates":[10.474334,48.576421],"type":"Point"},"properties":{"osm_id":"2090984153","tag":{"amenity":"recycling","recycling:glass":"yes","recycling_type":"container"}},"type":"Feature"},
	{"geometry":{"coordinates":[10.470648,48.578063],"type":"Point"},"properties":{"osm_id":"2090984234","tag":{"amenity":"recycling","recycling:clothes":"yes","recycling:shoes":"yes","recycling_type":"container"}},"type":"Feature"},
	{"geometry":{"coordinates":[10.470716,48.578081],"type":"Point"},"properties":{"osm_id":"2090984238","tag":{"amenity":"recycling","recycling:cans":"yes","recycling_type":"container"}},"type":"Feature"},
	{"geometry":{"coordinates":[10.470764,48.578092],"type":"Point"},"properties":{"osm_id":"2090984241","tag":{"amenity":"recycling","recycling:glass":"yes","recycling_type":"container"}},"type":"Feature"},
	{"geometry":{"coordinates":[10.495386,48.585585],"type":"Point"},"properties":{"osm_id":"2094033106","tag":{"amenity":"recycling","recycling:cans":"yes","recycling:glass":"yes","recycling:scrap_metal":"no","recycling_type":"container"}},"type":"Feature"},
	{"geometry":{"coordinates":[10.503635,48.583482],"type":"Point"},"properties":{"osm_id":"2094098267","tag":{"amenity":"recycling","recycling:cans":"yes","recycling:glass":"yes","recycling_type":"container"}},"type":"Feature"},
	{"geometry":{"coordinates":[10.500854,48.590144],"type":"Point"},"properties":{"osm_id":"4074183113","tag":{"amenity":"recycling","location":"overground","recycling_type":"container"}},"type":"Feature"},
	{"geometry":{"coordinates":[10.487205,48.598117],"type":"Point"},"properties":{"osm_id":"4188147393","tag":{"amenity":"recycling","recycling:glass":"yes","recycling_type":"container"}},"type":"Feature"},
	{"geometry":{"coordinates":[10.487276,48.598122],"type":"Point"},"properties":{"osm_id":"4188147394","tag":{"amenity":"recycling","recycling:clothes":"yes","recycling:shoes":"yes","recycling_type":"container"}},"type":"Feature"},
	{"geometry":{"coordinates":[10.503671,48.583497],"type":"Point"},"properties":{"osm_id":"4372048333","tag":{"amenity":"recycling","recycling:clothes":"yes","recycling:shoes":"yes","recycling_type":"container"}},"type":"Feature"},
	{"geometry":{"coordinates":[10.497233,48.587191],"type":"Point"},"properties":{"osm_id":"4374789199","tag":{"amenity":"recycling","location":"overground","recycling:clothes":"yes","recycling_type":"container"}},"type":"Feature"},
	{"geometry":{"coordinates":[10.499428,48.575661],"type":"Point"},"properties":{"osm_id":"4580183681","tag":{"amenity":"recycling","operator":"Faircollect","recycling:clothes":"yes","recycling:shoes":"yes","recycling_type":"container"}},"type":"Feature"},
	{"geometry":{"coordinates":[10.499242,48.575811],"type":"Point"},"properties":{"osm_id":"4580183682","tag":{"amenity":"recycling","operator":"AWV","recycling:clothes":"yes","recycling:shoes":"yes","recycling_type":"container"}},"type":"Feature"},
	{"geometry":{"coordinates":[10.499278,48.575827],"type":"Point"},"properties":{"osm_id":"4580183683","tag":{"amenity":"recycling","operator":"Aktion Hoffnung","recycling:clothes":"yes","recycling:shoes":"yes","recycling_type":"container"}},"type":"Feature"},
	{"geometry":{"coordinates":[10.497736,48.587488],"type":"Point"},"properties":{"osm_id":"4693862575","tag":{"amenity":"recycling","location":"overground","recycling:cans":"yes","recycling:glass":"yes","recycling_type":"container"}},"type":"Feature"},
	{"geometry":{"coordinates":[10.537942,48.61927],"type":"Point"},"properties":{"osm_id":"4957272212","tag":{"addr:street":"Schulstra\u00c3\u009fe","amenity":"recycling","opening_hours":"Mo-Fr 07:00-20:00","phone":"+49 732596060","recycling:cans":"yes","recycling:glass_bottles":"yes","recycling_type":"container"}},"type":"Feature"},
	{"geometry":{"coordinates":[10.489723,48.575178],"type":"Point"},"properties":{"osm_id":"7527597095","tag":{"amenity":"waste_basket"}},"type":"Feature"}
]
}
