{
"type": "FeatureCollection",
"features": [
	{"geometry":{"coordinates":[10.477896,48.457319],"type":"Point"},"properties":{"osm_id":"806812580","tag":{"amenity":"recycling","recycling:cans":"yes","recycling:clothes":"no","recycling:glass":"yes","recycling:paper":"yes","recycling:scrap_metal":"yes"}},"type":"Feature"},
	{"geometry":{"coordinates":[10.519894,48.434337],"type":"Point"},"properties":{"osm_id":"5840600300","tag":{"amenity":"recycling","opening_hours":"Mo-Sa 07:00-20:00","operator":"IBEKO, Neus\u00e4\u00df","recycling:clothes":"yes","recycling:shoes":"yes","recycling_type":"container"}},"type":"Feature"},
	{"geometry":{"coordinates":[10.519919,48.434305],"type":"Point"},"properties":{"osm_id":"5840600301","tag":{"amenity":"recycling","opening_hours":"Mo-Sa 07:00-20:00","operator":"WRZ H\u00f6rger, Sontheim","recycling:glass":"yes","recycling_type":"container"}},"type":"Feature"},
	{"geometry":{"coordinates":[10.519934,48.434287],"type":"Point"},"properties":{"osm_id":"5840600302","tag":{"amenity":"recycling","opening_hours":"Mo-Sa 07:00-20:00","operator":"Aktion Hoffnung","recycling:clothes":"yes","recycling:shoes":"yes","recycling_type":"container"}},"type":"Feature"}
]
}
