{
"type": "FeatureCollection",
"features": [
	{"geometry":{"coordinates":[10.4648,48.296503],"type":"Point"},"properties":{"name":"Kompostieranlage","osm_id":"374414255","tag":{"addr:city":"Thannhausen","addr:country":"DE","addr:postcode":"86470","addr:street":"M\u00c3\u00bcnsterhauser Stra\u00c3\u009fe","amenity":"recycling","opening_hours":"Fr 14:00-17:00; Sa 9:00-12:00; Jan,Feb: off","recycling_type":"centre"}},"type":"Feature"},
	{"geometry":{"coordinates":[10.469287,48.284082],"type":"Point"},"properties":{"osm_id":"622680819","tag":{"amenity":"waste_basket"}},"type":"Feature"},
	{"geometry":{"coordinates":[10.466612,48.287632],"type":"Point"},"properties":{"osm_id":"622680850","tag":{"addr:city":"Thannhausen","addr:country":"DE","addr:postcode":"86470","addr:street":"Bahnhofstra\u00c3\u009fe","amenity":"waste_basket"}},"type":"Feature"},
	{"geometry":{"coordinates":[10.527142,48.297052],"type":"Point"},"properties":{"osm_id":"1910308659","tag":{"amenity":"recycling","recycling:cans":"yes","recycling:clothes":"yes","recycling:glass":"yes","recycling:paper":"yes","recycling:scrap_metal":"yes","recycling_type":"container"}},"type":"Feature"},
	{"geometry":{"coordinates":[10.476725,48.284276],"type":"Point"},"properties":{"osm_id":"3441327830","tag":{"amenity":"waste_basket"}},"type":"Feature"},
	{"geometry":{"coordinates":[10.530084,48.292655],"type":"Point"},"properties":{"osm_id":"6720463159","tag":{"amenity":"waste_basket"}},"type":"Feature"},
	{"geometry":{"coordinates":[10.530152,48.292872],"type":"Point"},"properties":{"osm_id":"6720463160","tag":{"amenity":"waste_basket"}},"type":"Feature"}
]
}
