{
"type": "FeatureCollection",
"features": [
	{"geometry":{"coordinates":[10.495809,46.910322],"type":"Point"},"properties":{"barrier":"gate","osm_id":"4548689392","tag":{"bicycle":"no","foot":"no"}},"type":"Feature"},
	{"geometry":{"coordinates":[10.512469,46.866619],"type":"Point"},"properties":{"osm_id":"4549718946","tag":{"amenity":"waste_basket"}},"type":"Feature"},
	{"geometry":{"coordinates":[10.510828,46.870562],"type":"Point"},"properties":{"osm_id":"4549718949","tag":{"amenity":"waste_basket"}},"type":"Feature"},
	{"geometry":{"coordinates":[10.50939,46.875825],"type":"Point"},"properties":{"osm_id":"4549719039","tag":{"amenity":"waste_basket"}},"type":"Feature"},
	{"geometry":{"coordinates":[10.498141,46.896453],"type":"Point"},"properties":{"osm_id":"4549719177","tag":{"amenity":"waste_basket"}},"type":"Feature"},
	{"geometry":{"coordinates":[10.504817,46.890301],"type":"Point"},"properties":{"osm_id":"5105237464","tag":{"amenity":"waste_basket"}},"type":"Feature"},
	{"geometry":{"coordinates":[10.504881,46.887256],"type":"Point"},"properties":{"osm_id":"5105260218","tag":{"amenity":"waste_basket"}},"type":"Feature"},
	{"geometry":{"coordinates":[10.504036,46.886882],"type":"Point"},"properties":{"osm_id":"5105260219","tag":{"amenity":"waste_basket"}},"type":"Feature"}
]
}
