{
"type": "FeatureCollection",
"features": [
	{"geometry":{"coordinates":[10.49673,45.626886],"type":"Point"},"properties":{"osm_id":"2686605684","tag":{"amenity":"waste_basket"}},"type":"Feature"},
	{"geometry":{"coordinates":[10.496786,45.627004],"type":"Point"},"properties":{"osm_id":"2686608008","tag":{"amenity":"waste_basket"}},"type":"Feature"},
	{"geometry":{"coordinates":[10.496642,45.627229],"type":"Point"},"properties":{"osm_id":"2686608012","tag":{"amenity":"waste_basket"}},"type":"Feature"},
	{"geometry":{"coordinates":[10.496245,45.626644],"type":"Point"},"properties":{"osm_id":"2686627053","tag":{"amenity":"waste_basket"}},"type":"Feature"},
	{"geometry":{"coordinates":[10.496639,45.625345],"type":"Point"},"properties":{"osm_id":"2686646438","tag":{"amenity":"waste_basket"}},"type":"Feature"},
	{"geometry":{"coordinates":[10.496531,45.625207],"type":"Point"},"properties":{"osm_id":"2686646441","tag":{"amenity":"waste_basket"}},"type":"Feature"},
	{"geometry":{"coordinates":[10.496304,45.624754],"type":"Point"},"properties":{"osm_id":"2686673341","tag":{"amenity":"waste_basket"}},"type":"Feature"},
	{"geometry":{"coordinates":[10.496275,45.6247],"type":"Point"},"properties":{"osm_id":"2686673342","tag":{"amenity":"recycling","recycling:cans":"yes","recycling:glass":"yes","recycling:paper":"yes","recycling_type":"container"}},"type":"Feature"},
	{"geometry":{"coordinates":[10.496496,45.624878],"type":"Point"},"properties":{"osm_id":"2686681084","tag":{"amenity":"waste_basket"}},"type":"Feature"},
	{"geometry":{"coordinates":[10.502979,45.622763],"type":"Point"},"properties":{"osm_id":"2833941999","tag":{"amenity":"recycling","recycling:clothes":"yes","recycling_type":"container"}},"type":"Feature"},
	{"geometry":{"coordinates":[10.502542,45.623208],"type":"Point"},"properties":{"osm_id":"2833969731","tag":{"amenity":"recycling","recycling:cans":"yes","recycling:garden_waste":"yes","recycling:glass":"yes","recycling:green_waste":"yes","recycling:paper":"yes","recycling_type":"container"}},"type":"Feature"},
	{"geometry":{"coordinates":[10.503002,45.622774],"type":"Point"},"properties":{"osm_id":"2833986033","tag":{"amenity":"waste_basket"}},"type":"Feature"},
	{"geometry":{"coordinates":[10.502747,45.622442],"type":"Point"},"properties":{"osm_id":"2833998905","tag":{"amenity":"recycling"}},"type":"Feature"},
	{"geometry":{"coordinates":[10.506026,45.620826],"type":"Point"},"properties":{"osm_id":"2834025998","tag":{"amenity":"recycling","recycling:glass":"yes","recycling:paper":"yes","recycling:plastic":"yes"}},"type":"Feature"},
	{"geometry":{"coordinates":[10.496684,45.626203],"type":"Point"},"properties":{"osm_id":"2924760901","tag":{"amenity":"waste_basket"}},"type":"Feature"},
	{"geometry":{"coordinates":[10.495354,45.630738],"type":"Point"},"properties":{"osm_id":"3613322308","tag":{"amenity":"waste_basket"}},"type":"Feature"},
	{"geometry":{"coordinates":[10.495344,45.630811],"type":"Point"},"properties":{"osm_id":"3613322310","tag":{"amenity":"waste_basket"}},"type":"Feature"},
	{"geometry":{"coordinates":[10.497458,45.631321],"type":"Point"},"properties":{"osm_id":"3613405257","tag":{"amenity":"recycling","recycling:clothes":"yes"}},"type":"Feature"},
	{"geometry":{"coordinates":[10.500119,45.632312],"type":"Point"},"properties":{"osm_id":"3714409461","tag":{"amenity":"recycling","recycling:organic":"yes"}},"type":"Feature"},
	{"geometry":{"coordinates":[10.500091,45.63232],"type":"Point"},"properties":{"osm_id":"3714409490","tag":{"amenity":"recycling","recycling:paper":"yes"}},"type":"Feature"},
	{"geometry":{"coordinates":[10.500061,45.632326],"type":"Point"},"properties":{"osm_id":"3714410028","tag":{"amenity":"recycling","recycling:plastic":"yes"}},"type":"Feature"},
	{"geometry":{"coordinates":[10.500032,45.632335],"type":"Point"},"properties":{"osm_id":"3714410029","tag":{"amenity":"recycling","recycling:glass":"yes"}},"type":"Feature"},
	{"geometry":{"coordinates":[10.523,45.596322],"type":"Point"},"properties":{"osm_id":"6598951740","tag":{"amenity":"recycling"}},"type":"Feature"},
	{"geometry":{"coordinates":[10.523017,45.596318],"type":"Point"},"properties":{"osm_id":"6598993377","tag":{"amenity":"waste_disposal"}},"type":"Feature"},
	{"geometry":{"coordinates":[10.520209,45.60471],"type":"Point"},"properties":{"osm_id":"6642534170","tag":{"amenity":"waste_basket"}},"type":"Feature"},
	{"geometry":{"coordinates":[10.520367,45.604398],"type":"Point"},"properties":{"osm_id":"6642546113","tag":{"amenity":"waste_basket"}},"type":"Feature"}
]
}
