{
"type": "FeatureCollection",
"features": [
	{"geometry":{"coordinates":[10.488832,43.840265],"type":"Point"},"properties":{"osm_id":"2333517573","tag":{"amenity":"waste_disposal","waste":"grey_water"}},"type":"Feature"},
	{"geometry":{"coordinates":[10.497187,43.844886],"type":"Point"},"properties":{"osm_id":"2993639021","tag":{"amenity":"waste_disposal"}},"type":"Feature"},
	{"geometry":{"coordinates":[10.509182,43.864743],"type":"Point"},"properties":{"osm_id":"3110739532","tag":{"amenity":"recycling","recycling_type":"centre"}},"type":"Feature"},
	{"geometry":{"coordinates":[10.509389,43.840646],"type":"Point"},"properties":{"osm_id":"3571927301","tag":{"amenity":"recycling","recycling_type":"container"}},"type":"Feature"},
	{"geometry":{"coordinates":[10.512406,43.848377],"type":"Point"},"properties":{"osm_id":"3571927304","tag":{"amenity":"recycling","recycling_type":"container"}},"type":"Feature"},
	{"geometry":{"coordinates":[10.503599,43.842666],"type":"Point"},"properties":{"osm_id":"3784590818","tag":{"amenity":"waste_basket"}},"type":"Feature"},
	{"geometry":{"coordinates":[10.510762,43.845233],"type":"Point"},"properties":{"osm_id":"3813802841","tag":{"amenity":"waste_basket"}},"type":"Feature"},
	{"geometry":{"coordinates":[10.510607,43.845485],"type":"Point"},"properties":{"osm_id":"3813802843","tag":{"amenity":"waste_basket"}},"type":"Feature"},
	{"geometry":{"coordinates":[10.502988,43.841612],"type":"Point"},"properties":{"osm_id":"3813824072","tag":{"amenity":"waste_basket"}},"type":"Feature"},
	{"geometry":{"coordinates":[10.496551,43.842157],"type":"Point"},"properties":{"osm_id":"3912504968","tag":{"amenity":"waste_basket"}},"type":"Feature"},
	{"geometry":{"coordinates":[10.513997,43.84428],"type":"Point"},"properties":{"osm_id":"5884451853","tag":{"amenity":"recycling","recycling:cans":"yes","recycling:cardboard":"yes","recycling:glass":"yes","recycling:glass_bottles":"no","recycling:green_waste":"yes","recycling:paper":"yes","recycling:plastic":"yes","recycling:plastic_bottles":"yes","recycling:plastic_packaging":"yes","recycling:shoes":"yes","recycling:small_appliances":"yes","recycling:waste":"yes","recycling_type":"centre"}},"type":"Feature"},
	{"geometry":{"coordinates":[10.506569,43.844156],"type":"Point"},"properties":{"osm_id":"5918549593","tag":{"amenity":"recycling","recycling:cans":"yes","recycling:cardboard":"yes","recycling:glass":"yes","recycling:glass_bottles":"yes","recycling:green_waste":"yes","recycling:paper":"yes","recycling:plastic":"yes","recycling:plastic_bottles":"yes","recycling:plastic_packaging":"yes","recycling:shoes":"yes","recycling:waste":"yes","recycling_type":"centre"}},"type":"Feature"},
	{"geometry":{"coordinates":[10.505269,43.840958],"type":"Point"},"properties":{"osm_id":"7677032435","tag":{"amenity":"waste_basket"}},"type":"Feature"},
	{"geometry":{"coordinates":[10.505973,43.840907],"type":"Point"},"properties":{"osm_id":"7677038710","tag":{"amenity":"waste_basket"}},"type":"Feature"},
	{"geometry":{"coordinates":[10.504854,43.840629],"type":"Point"},"properties":{"osm_id":"7677071000","tag":{"addr:street":"Via del Molinetto","amenity":"waste_basket"}},"type":"Feature"}
]
}
