{
"type": "FeatureCollection",
"features": [
	{"geometry":{"coordinates":[10.515632,43.268043],"type":"Point"},"properties":{"osm_id":"684200923","tag":{"amenity":"waste_basket","tourism":"picnic_site"}},"type":"Feature"},
	{"geometry":{"coordinates":[10.491206,43.300588],"type":"Point"},"properties":{"osm_id":"3867234822","tag":{"amenity":"recycling","recycling_type":"container"}},"type":"Feature"},
	{"geometry":{"coordinates":[10.478569,43.313398],"type":"Point"},"properties":{"osm_id":"4315760682","tag":{"amenity":"waste_basket"}},"type":"Feature"},
	{"geometry":{"coordinates":[10.478487,43.313447],"type":"Point"},"properties":{"osm_id":"4315760683","tag":{"amenity":"waste_basket"}},"type":"Feature"},
	{"geometry":{"coordinates":[10.488362,43.305788],"type":"Point"},"properties":{"name":"Raccolta Rifiuti","osm_id":"4896388063","tag":{"amenity":"waste_disposal","recycling_type":"container"}},"type":"Feature"},
	{"geometry":{"coordinates":[10.510443,43.282401],"type":"Point"},"properties":{"osm_id":"8944224829","tag":{"amenity":"waste_basket","waste":"trash"}},"type":"Feature"},
	{"geometry":{"coordinates":[10.508934,43.285038],"type":"Point"},"properties":{"osm_id":"8944224830","tag":{"amenity":"waste_basket","waste":"trash"}},"type":"Feature"},
	{"geometry":{"coordinates":[10.512154,43.279358],"type":"Point"},"properties":{"osm_id":"8944224832","tag":{"amenity":"waste_basket"}},"type":"Feature"},
	{"geometry":{"coordinates":[10.51007,43.279581],"type":"Point"},"properties":{"osm_id":"8944224835","tag":{"amenity":"waste_basket","waste":"trash"}},"type":"Feature"},
	{"geometry":{"coordinates":[10.51055,43.277687],"type":"Point"},"properties":{"osm_id":"8944224837","tag":{"amenity":"waste_basket","waste":"trash"}},"type":"Feature"},
	{"geometry":{"coordinates":[10.507513,43.283275],"type":"Point"},"properties":{"osm_id":"8944287979","tag":{"amenity":"waste_basket","waste":"trash"}},"type":"Feature"},
	{"geometry":{"coordinates":[10.507408,43.283897],"type":"Point"},"properties":{"osm_id":"8944287980","tag":{"amenity":"waste_basket","waste":"trash"}},"type":"Feature"},
	{"geometry":{"coordinates":[10.526952,43.305825],"type":"Point"},"properties":{"osm_id":"9090076186","tag":{"amenity":"waste_disposal"}},"type":"Feature"}
]
}
