{
"type": "FeatureCollection",
"features": [
	{"geometry":{"coordinates":[-75.520255,5.073503],"type":"Point"},"properties":{"name":"Palma reina","osm_id":"321220925","tag":{"description":"1-Sur de brasil, tierra baja resistente al clima fri\u00c3\u00b3","natural":"tree"}},"type":"Feature"},
	{"geometry":{"coordinates":[-75.520625,5.07481],"type":"Point"},"properties":{"name":"San joaquines","osm_id":"599158570","tag":{"description":"13-Ambientes c\u00c3\u00a1lidos y regiones tropicales","natural":"tree"}},"type":"Feature"},
	{"geometry":{"coordinates":[-75.512861,5.045589],"type":"Point"},"properties":{"osm_id":"603917338","tag":{"natural":"tree"}},"type":"Feature"},
	{"geometry":{"coordinates":[-75.498667,5.064122],"type":"Point"},"properties":{"osm_id":"618351673","tag":{"amenity":"telephone","natural":"tree","operator":"UNE","payment:coins":"yes","payment:telephone_cards":"yes"}},"type":"Feature"},
	{"geometry":{"coordinates":[-75.50539,5.040959],"type":"Point"},"properties":{"osm_id":"4815319230","tag":{"natural":"tree"}},"type":"Feature"},
	{"geometry":{"coordinates":[-75.505551,5.040745],"type":"Point"},"properties":{"osm_id":"4815319231","tag":{"natural":"tree"}},"type":"Feature"},
	{"geometry":{"coordinates":[-75.504827,5.041508],"type":"Point"},"properties":{"osm_id":"4815437436","tag":{"natural":"tree"}},"type":"Feature"},
	{"geometry":{"coordinates":[-75.505076,5.041687],"type":"Point"},"properties":{"osm_id":"4815437437","tag":{"natural":"tree"}},"type":"Feature"},
	{"geometry":{"coordinates":[-75.505414,5.041824],"type":"Point"},"properties":{"osm_id":"4815437438","tag":{"natural":"tree"}},"type":"Feature"},
	{"geometry":{"coordinates":[-75.505568,5.041681],"type":"Point"},"properties":{"osm_id":"4815437439","tag":{"natural":"tree"}},"type":"Feature"},
	{"geometry":{"coordinates":[-75.505022,5.040485],"type":"Point"},"properties":{"osm_id":"4815437440","tag":{"natural":"tree"}},"type":"Feature"},
	{"geometry":{"coordinates":[-75.504192,5.037971],"type":"Point"},"properties":{"osm_id":"4815447497","tag":{"natural":"tree"}},"type":"Feature"},
	{"geometry":{"coordinates":[-75.503873,5.037813],"type":"Point"},"properties":{"osm_id":"4815447498","tag":{"natural":"tree"}},"type":"Feature"},
	{"geometry":{"coordinates":[-75.503793,5.039595],"type":"Point"},"properties":{"osm_id":"4815447499","tag":{"natural":"tree"}},"type":"Feature"},
	{"geometry":{"coordinates":[-75.503185,5.038549],"type":"Point"},"properties":{"osm_id":"4815447500","tag":{"natural":"tree"}},"type":"Feature"},
	{"geometry":{"coordinates":[-75.502979,5.038875],"type":"Point"},"properties":{"osm_id":"4815447501","tag":{"natural":"tree"}},"type":"Feature"},
	{"geometry":{"coordinates":[-75.503807,5.038469],"type":"Point"},"properties":{"osm_id":"4815447502","tag":{"natural":"tree"}},"type":"Feature"},
	{"geometry":{"coordinates":[-75.503893,5.038659],"type":"Point"},"properties":{"osm_id":"4815447503","tag":{"natural":"tree"}},"type":"Feature"},
	{"geometry":{"coordinates":[-75.504336,5.038806],"type":"Point"},"properties":{"osm_id":"4815447504","tag":{"natural":"tree"}},"type":"Feature"},
	{"geometry":{"coordinates":[-75.504475,5.038899],"type":"Point"},"properties":{"osm_id":"4815447505","tag":{"natural":"tree"}},"type":"Feature"},
	{"geometry":{"coordinates":[-75.50364,5.040528],"type":"Point"},"properties":{"osm_id":"4815478570","tag":{"natural":"tree"}},"type":"Feature"},
	{"geometry":{"coordinates":[-75.503849,5.040387],"type":"Point"},"properties":{"osm_id":"4815478571","tag":{"natural":"tree"}},"type":"Feature"},
	{"geometry":{"coordinates":[-75.503991,5.040777],"type":"Point"},"properties":{"osm_id":"4815478572","tag":{"natural":"tree"}},"type":"Feature"},
	{"geometry":{"coordinates":[-75.505683,5.048678],"type":"Point"},"properties":{"osm_id":"4853926468","tag":{"natural":"tree"}},"type":"Feature"},
	{"geometry":{"coordinates":[-75.505755,5.048719],"type":"Point"},"properties":{"osm_id":"4853926469","tag":{"natural":"tree"}},"type":"Feature"},
	{"geometry":{"coordinates":[-75.505629,5.048753],"type":"Point"},"properties":{"osm_id":"4853926470","tag":{"natural":"tree"}},"type":"Feature"},
	{"geometry":{"coordinates":[-75.514675,5.07231],"type":"Point"},"properties":{"osm_id":"4908124174","tag":{"natural":"tree"}},"type":"Feature"},
	{"geometry":{"coordinates":[-75.514654,5.072059],"type":"Point"},"properties":{"osm_id":"4908124175","tag":{"natural":"tree"}},"type":"Feature"},
	{"geometry":{"coordinates":[-75.514742,5.071886],"type":"Point"},"properties":{"osm_id":"4908124176","tag":{"natural":"tree"}},"type":"Feature"},
	{"geometry":{"coordinates":[-75.514817,5.071974],"type":"Point"},"properties":{"osm_id":"4908124177","tag":{"natural":"tree"}},"type":"Feature"},
	{"geometry":{"coordinates":[-75.514879,5.072003],"type":"Point"},"properties":{"osm_id":"4908124178","tag":{"natural":"tree"}},"type":"Feature"},
	{"geometry":{"coordinates":[-75.515009,5.071951],"type":"Point"},"properties":{"osm_id":"4908124179","tag":{"natural":"tree"}},"type":"Feature"},
	{"geometry":{"coordinates":[-75.529737,5.057381],"type":"Point"},"properties":{"osm_id":"4909508399","tag":{"natural":"tree"}},"type":"Feature"},
	{"geometry":{"coordinates":[-75.529288,5.048512],"type":"Point"},"properties":{"osm_id":"5176809741","tag":{"natural":"tree"}},"type":"Feature"},
	{"geometry":{"coordinates":[-75.529322,5.048428],"type":"Point"},"properties":{"osm_id":"5176809757","tag":{"description":"Bunganvilias Morada 79 chingal\u00c3\u00a9 a\u00c3\u00a1rbol 1 palmera Yatay 3 y 1 muerta","natural":"tree"}},"type":"Feature"},
	{"geometry":{"coordinates":[-75.529247,5.048261],"type":"Point"},"properties":{"osm_id":"5176809816","tag":{"natural":"tree"}},"type":"Feature"},
	{"geometry":{"coordinates":[-75.503609,5.06377],"type":"Point"},"properties":{"osm_id":"5246331042","tag":{"height":"16","natural":"tree","trees":"oil_palms"}},"type":"Feature"},
	{"geometry":{"coordinates":[-75.503435,5.063856],"type":"Point"},"properties":{"osm_id":"5246331043","tag":{"height":"16","natural":"tree","trees":"oil_palms"}},"type":"Feature"},
	{"geometry":{"coordinates":[-75.503723,5.063697],"type":"Point"},"properties":{"osm_id":"5246331044","tag":{"height":"19","natural":"tree","trees":"oil_palms"}},"type":"Feature"},
	{"geometry":{"coordinates":[-75.503662,5.063712],"type":"Point"},"properties":{"osm_id":"5246331045","tag":{"height":"14","natural":"tree","trees":"oil_palms"}},"type":"Feature"},
	{"geometry":{"coordinates":[-75.50326,5.06376],"type":"Point"},"properties":{"osm_id":"5246331046","tag":{"height":"18","natural":"tree","trees":"oil_palms"}},"type":"Feature"},
	{"geometry":{"coordinates":[-75.503084,5.063833],"type":"Point"},"properties":{"osm_id":"5246331047","tag":{"height":"20","natural":"tree","trees":"oil_palms"}},"type":"Feature"},
	{"geometry":{"coordinates":[-75.503113,5.063623],"type":"Point"},"properties":{"osm_id":"5246331048","tag":{"height":"13","natural":"tree","trees":"oil_palms"}},"type":"Feature"},
	{"geometry":{"coordinates":[-75.503106,5.063503],"type":"Point"},"properties":{"osm_id":"5246331049","tag":{"height":"15","natural":"tree","trees":"oil_palms"}},"type":"Feature"},
	{"geometry":{"coordinates":[-75.503736,5.063602],"type":"Point"},"properties":{"osm_id":"5246331050","tag":{"height":"15","natural":"tree","trees":"oil_palms"}},"type":"Feature"},
	{"geometry":{"coordinates":[-75.50356,5.062886],"type":"Point"},"properties":{"osm_id":"5246331051","tag":{"height":"16","natural":"tree","trees":"oil_palms"}},"type":"Feature"},
	{"geometry":{"coordinates":[-75.503814,5.063861],"type":"Point"},"properties":{"osm_id":"5246331052","tag":{"height":"14","natural":"tree","trees":"oil_palms"}},"type":"Feature"},
	{"geometry":{"coordinates":[-75.502962,5.063715],"type":"Point"},"properties":{"osm_id":"5246331053","tag":{"height":"16","natural":"tree","trees":"oil_palms"}},"type":"Feature"},
	{"geometry":{"coordinates":[-75.503213,5.063698],"type":"Point"},"properties":{"osm_id":"5246331054","tag":{"height":"17","natural":"tree","trees":"oil_palms"}},"type":"Feature"},
	{"geometry":{"coordinates":[-75.503358,5.063753],"type":"Point"},"properties":{"osm_id":"5246331055","tag":{"height":"17","natural":"tree","trees":"oil_palms"}},"type":"Feature"},
	{"geometry":{"coordinates":[-75.503457,5.063795],"type":"Point"},"properties":{"osm_id":"5246331056","tag":{"height":"15","natural":"tree","trees":"oil_palms"}},"type":"Feature"},
	{"geometry":{"coordinates":[-75.503539,5.062779],"type":"Point"},"properties":{"osm_id":"5246331057","tag":{"height":"14","natural":"tree","trees":"oil_palms"}},"type":"Feature"},
	{"geometry":{"coordinates":[-75.503203,5.063911],"type":"Point"},"properties":{"osm_id":"5246331963","tag":{"height":"16","natural":"tree","trees":"oil_palms"}},"type":"Feature"},
	{"geometry":{"coordinates":[-75.503151,5.063904],"type":"Point"},"properties":{"osm_id":"5246331964","tag":{"height":"16","natural":"tree","trees":"oil_palms"}},"type":"Feature"},
	{"geometry":{"coordinates":[-75.503102,5.063886],"type":"Point"},"properties":{"osm_id":"5246331965","tag":{"height":"16","natural":"tree","trees":"oil_palms"}},"type":"Feature"},
	{"geometry":{"coordinates":[-75.514494,5.06505],"type":"Point"},"properties":{"osm_id":"5512818244","tag":{"natural":"tree"}},"type":"Feature"},
	{"geometry":{"coordinates":[-75.513409,5.065744],"type":"Point"},"properties":{"osm_id":"5512818245","tag":{"natural":"tree"}},"type":"Feature"},
	{"geometry":{"coordinates":[-75.512342,5.072156],"type":"Point"},"properties":{"osm_id":"5512827074","tag":{"natural":"tree"}},"type":"Feature"},
	{"geometry":{"coordinates":[-75.511025,5.058253],"type":"Point"},"properties":{"osm_id":"6335029018","tag":{"natural":"tree"}},"type":"Feature"},
	{"geometry":{"coordinates":[-75.523848,5.059761],"type":"Point"},"properties":{"osm_id":"6335476534","tag":{"natural":"tree"}},"type":"Feature"},
	{"geometry":{"coordinates":[-75.512094,5.068773],"type":"Point"},"properties":{"name":"Yucca elephantipes","osm_id":"6335492783","tag":{"denotation":"avenue","description":"Origen de especie: Norteam\u00c3\u00a9rica (M\u00c3\u00a9xico) N\u00c3\u00bamero de especies: 189 entre calle 31 y calle 29","name:es":"Palma yuca","natural":"tree"}},"type":"Feature"},
	{"geometry":{"coordinates":[-75.512886,5.069464],"type":"Point"},"properties":{"name":"Yucca elephantipes","osm_id":"6335495980","tag":{"description":"Origen de especie: Norteam\u00c3\u00a9rica (M\u00c3\u00a9xico) N\u00c3\u00bamero de especies: 189 entre calle 31 y calle 29","name:es":"Palma Yuca","natural":"tree"}},"type":"Feature"},
	{"geometry":{"coordinates":[-75.512989,5.069564],"type":"Point"},"properties":{"name":"Yucca elephantipes","osm_id":"6335495981","tag":{"denotation":"avenue","description":"Origen de especie: Norteam\u00c3\u00a9rica (M\u00c3\u00a9xico) N\u00c3\u00bamero de especies: 189 entre calle 31 y calle 29","name:es":"Palma Yuca","natural":"tree"}},"type":"Feature"},
	{"geometry":{"coordinates":[-75.512211,5.06884],"type":"Point"},"properties":{"name":"Yucca elephantipes","osm_id":"6335495982","tag":{"description":"Origen de especie: Norteam\u00c3\u00a9rica (M\u00c3\u00a9xico) N\u00c3\u00bamero de especies: 189 entre calle 31 y calle 29","name:es":"Palma Yuca","natural":"tree"}},"type":"Feature"},
	{"geometry":{"coordinates":[-75.512557,5.069168],"type":"Point"},"properties":{"name":"Yucca elephantipes","osm_id":"6335495983","tag":{"description":"Origen de especie: Norteam\u00c3\u00a9rica (M\u00c3\u00a9xico) N\u00c3\u00bamero de especies: 189 entre calle 31 y calle 29","name:es":"Palma Yuca","natural":"tree"}},"type":"Feature"},
	{"geometry":{"coordinates":[-75.512631,5.069232],"type":"Point"},"properties":{"name":"Yucca elephantipes","osm_id":"6335495984","tag":{"description":"Origen de especie: Norteam\u00c3\u00a9rica (M\u00c3\u00a9xico) N\u00c3\u00bamero de especies: 189 entre calle 31 y calle 29","name:es":"Palma Yuca","natural":"tree"}},"type":"Feature"},
	{"geometry":{"coordinates":[-75.512378,5.068989],"type":"Point"},"properties":{"name":"Yucca elephantipes","osm_id":"6335499185","tag":{"description":"Origen de especie: Norteam\u00c3\u00a9rica (M\u00c3\u00a9xico) N\u00c3\u00bamero de especies: 189 entre calle 31 y calle 29","name:es":"Palma Yuca","natural":"tree"}},"type":"Feature"},
	{"geometry":{"coordinates":[-75.513061,5.069634],"type":"Point"},"properties":{"name":"Yucca elephantipes","osm_id":"6335499186","tag":{"denotation":"avenue","description":"Origen de especie: Norteam\u00c3\u00a9rica (M\u00c3\u00a9xico) N\u00c3\u00bamero de especies: 189 entre calle 31 y calle 29","name:es":"Palma Yuca","natural":"tree"}},"type":"Feature"},
	{"geometry":{"coordinates":[-75.513126,5.069535],"type":"Point"},"properties":{"name":"Yucca elephantipes","osm_id":"6335515093","tag":{"denotation":"avenue","description":"Origen de especie: Norteam\u00c3\u00a9rica (M\u00c3\u00a9xico) N\u00c3\u00bamero de especies: 189 entre calle 31 y calle 29","name:es":"Palma yuca","natural":"tree"}},"type":"Feature"},
	{"geometry":{"coordinates":[-75.513124,5.069691],"type":"Point"},"properties":{"name":"Lafoensia punicifolia","osm_id":"6335515094","tag":{"denotation":"avenue","description":"Origen de especie: Colombia, Venezuela, Ecuador, Bolivia y M\u00c3\u00a9xico N\u00c3\u00bamero de especies: 1 entre calles 30- 29","name:es":"Array\u00c3\u00a1n Manizale\u00c3\u00b1o","natural":"tree"}},"type":"Feature"},
	{"geometry":{"coordinates":[-75.513221,5.069791],"type":"Point"},"properties":{"name":"Lafoensia punicifolia","osm_id":"6335515095","tag":{"denotation":"avenue","description":"Origen de especie: Colombia, Venezuela, Ecuador, Bolivia y M\u00c3\u00a9xico N\u00c3\u00bamero de especies: 3 entre calles 29-28","name:es":"Array\u00c3\u00a1n Manizale\u00c3\u00b1o","natural":"tree"}},"type":"Feature"},
	{"geometry":{"coordinates":[-75.513482,5.070041],"type":"Point"},"properties":{"name":"Lafoensia punicifolia","osm_id":"6335515096","tag":{"denotation":"avenue","description":"Origen de especie: Colombia, Venezuela, Ecuador, Bolivia y M\u00c3\u00a9xico N\u00c3\u00bamero de especies: 3 entre calles 29-28","name:es":"Array\u00c3\u00a1n Manizale\u00c3\u00b1o","natural":"tree"}},"type":"Feature"},
	{"geometry":{"coordinates":[-75.513751,5.070269],"type":"Point"},"properties":{"name":"Lafoensia punicifolia","osm_id":"6335515097","tag":{"denotation":"avenue","description":"Origen de especie: Colombia, Venezuela, Ecuador, Bolivia y M\u00c3\u00a9xico N\u00c3\u00bamero de especies: 3 entre calles 29-28","name:es":"Array\u00c3\u00a1n Manizale\u00c3\u00b1o","natural":"tree"}},"type":"Feature"},
	{"geometry":{"coordinates":[-75.513637,5.070188],"type":"Point"},"properties":{"name":"Liquidambar styraciflua","osm_id":"6335515098","tag":{"denotation":"avenue","description":"Origen de especie: Sur de Estados Unidos, M\u00c3\u00a9xico y Guatemala N\u00c3\u00bamero de especies: 1 entre calles 29-28","name:es":"Liquidambar","natural":"tree"}},"type":"Feature"},
	{"geometry":{"coordinates":[-75.529254,5.048368],"type":"Point"},"properties":{"name":"Chingale \u00c3\u00a1rbol","osm_id":"6335546052","tag":{"description":"Cantidad 1. Glorieta KM1 Autopista del Caf\u00c3\u00a9","natural":"tree"}},"type":"Feature"},
	{"geometry":{"coordinates":[-75.529205,5.048329],"type":"Point"},"properties":{"name":"Palmera Yatay","osm_id":"6335564259","tag":{"denotation":"avenue","description":"Cantidad 3. Glorieta KM1 Autopista del Caf\u00c3\u00a9","natural":"tree"}},"type":"Feature"},
	{"geometry":{"coordinates":[-75.529254,5.048368],"type":"Point"},"properties":{"name":"Palmera Yatay","osm_id":"6335564260","tag":{"description":"Cantidad 3 y una muerta","natural":"tree"}},"type":"Feature"},
	{"geometry":{"coordinates":[-75.529083,5.04844],"type":"Point"},"properties":{"name":"Palmera Yatay","osm_id":"6335564263","tag":{"description":"Cantidad 1 muerta","natural":"tree"}},"type":"Feature"},
	{"geometry":{"coordinates":[-75.514035,5.070367],"type":"Point"},"properties":{"name":"Euphorbia pulcherrima","osm_id":"6335581376","tag":{"denotation":"avenue","description":"Origen de especie: Centroam\u00c3\u00a9rica N\u00c3\u00bamero de especies: 3 entre calles 28-27","name:es":"poinsettia","natural":"tree"}},"type":"Feature"},
	{"geometry":{"coordinates":[-75.514594,5.070475],"type":"Point"},"properties":{"name":"Acacia decurrens","osm_id":"6335581377","tag":{"denotation":"avenue","description":"Origen de especie: End\u00c3\u00a9mico de Nueva Gales del Sur y naturalizado en el sureste, sur y suroeste de Australia N\u00c3\u00bamero de especies: 2 entre calles 27-26","name:es":"Acacia","natural":"tree"}},"type":"Feature"},
	{"geometry":{"coordinates":[-75.515093,5.070442],"type":"Point"},"properties":{"name":"Acacia decurrens","osm_id":"6335581378","tag":{"denotation":"avenue","description":"Origen de especie: End\u00c3\u00a9mico de Nueva Gales del Sur y naturalizado en el sureste, sur y suroeste de Australia N\u00c3\u00bamero de especies: 2 entre calles 27-26","name:es":"Acacia","natural":"tree"}},"type":"Feature"},
	{"geometry":{"coordinates":[-75.514737,5.070403],"type":"Point"},"properties":{"name":"Hibiscus rosasinensis","osm_id":"6335581379","tag":{"denotation":"avenue","description":"Origen de especie: Asia Oriental N\u00c3\u00bamero de especies: 145 entre calles 27-26","name:es":"Arbusto San Joaqu\u00c3\u00adn","natural":"tree"}},"type":"Feature"},
	{"geometry":{"coordinates":[-75.514775,5.0704],"type":"Point"},"properties":{"name":"Hibiscus rosasinensis","osm_id":"6335581380","tag":{"denotation":"avenue","description":"Origen de especie: Asia Oriental N\u00c3\u00bamero de especies: 145 entre calles 27-26","name:es":"Arbusto San Joaqu\u00c3\u00adn","natural":"tree"}},"type":"Feature"},
	{"geometry":{"coordinates":[-75.514804,5.070397],"type":"Point"},"properties":{"name":"Hibiscus rosasinensis","osm_id":"6335581381","tag":{"denotation":"avenue","description":"Origen de especie: Asia Oriental N\u00c3\u00bamero de especies: 145 entre calles 27-26","name:es":"Arbusto San Joaqu\u00c3\u00adn","natural":"tree"}},"type":"Feature"},
	{"geometry":{"coordinates":[-75.514864,5.070397],"type":"Point"},"properties":{"name":"Hibiscus rosasinensis","osm_id":"6335581382","tag":{"denotation":"avenue","description":"Origen de especie: Asia Oriental N\u00c3\u00bamero de especies: 145 entre calles 27-26","name:es":"Arbusto San Joaqu\u00c3\u00adn","natural":"tree"}},"type":"Feature"},
	{"geometry":{"coordinates":[-75.514919,5.070391],"type":"Point"},"properties":{"name":"Hibiscus rosasinensis","osm_id":"6335581383","tag":{"denotation":"avenue","description":"Origen de especie: Asia Oriental N\u00c3\u00bamero de especies: 145 entre calles 27-26","name:es":"Arbusto San Joaqu\u00c3\u00adn","natural":"tree"}},"type":"Feature"},
	{"geometry":{"coordinates":[-75.514997,5.070392],"type":"Point"},"properties":{"name":"Hibiscus rosasinensis","osm_id":"6335581384","tag":{"denotation":"avenue","description":"Origen de especie: Asia Oriental N\u00c3\u00bamero de especies: 145 entre calles 27-26","name:es":"Arbusto San Joaqu\u00c3\u00adn","natural":"tree"}},"type":"Feature"},
	{"geometry":{"coordinates":[-75.515293,5.070378],"type":"Point"},"properties":{"name":"Hibiscus rosasinensis","osm_id":"6335581885","tag":{"denotation":"avenue","description":"Origen de especie: Asia Oriental N\u00c3\u00bamero de especies: 51 entre calles 27-26","name:es":"Arbusto San Joaqu\u00c3\u00adn","natural":"tree"}},"type":"Feature"},
	{"geometry":{"coordinates":[-75.51553,5.070371],"type":"Point"},"properties":{"name":"Hibiscus rosasinensis","osm_id":"6335581886","tag":{"denotation":"avenue","description":"Origen de especie: Asia Oriental N\u00c3\u00bamero de especies: 51 entre calles 27-26","name:es":"Arbusto San Joaqu\u00c3\u00adn","natural":"tree"}},"type":"Feature"},
	{"geometry":{"coordinates":[-75.515219,5.070442],"type":"Point"},"properties":{"name":"Acacia decurrens","osm_id":"6335581887","tag":{"denotation":"avenue","description":"Origen de especie: End\u00c3\u00a9mico de Nueva Gales del Sur y naturalizado en el sureste, sur y suroeste de Australia N\u00c3\u00bamero de especies: 3 entre calles 26-24","name:es":"Acacia","natural":"tree"}},"type":"Feature"},
	{"geometry":{"coordinates":[-75.515477,5.070431],"type":"Point"},"properties":{"name":"Acacia decurrens","osm_id":"6335581888","tag":{"denotation":"avenue","description":"Origen de especie: End\u00c3\u00a9mico de Nueva Gales del Sur y naturalizado en el sureste, sur y suroeste de Australia N\u00c3\u00bamero de especies: 3 entre calles 26-24","name:es":"Acacia","natural":"tree"}},"type":"Feature"},
	{"geometry":{"coordinates":[-75.515903,5.070401],"type":"Point"},"properties":{"name":"Acacia decurrens","osm_id":"6335581889","tag":{"denotation":"avenue","description":"Origen de especie: End\u00c3\u00a9mico de Nueva Gales del Sur y naturalizado en el sureste, sur y suroeste de Australia N\u00c3\u00bamero de especies: 3 entre calles 26-24","name:es":"Acacia","natural":"tree"}},"type":"Feature"},
	{"geometry":{"coordinates":[-75.516869,5.070321],"type":"Point"},"properties":{"name":"Yucca elephantipes","osm_id":"6335581890","tag":{"description":"Origen de especie: Norteam\u00c3\u00a9rica (M\u00c3\u00a9xico) N\u00c3\u00bamero de especies: 7 entre calles 24-23","name:es":"Palma Yuca","natural":"tree"}},"type":"Feature"},
	{"geometry":{"coordinates":[-75.516919,5.070325],"type":"Point"},"properties":{"name":"Yucca elephantipes","osm_id":"6335581891","tag":{"description":"Origen de especie: Norteam\u00c3\u00a9rica (M\u00c3\u00a9xico) N\u00c3\u00bamero de especies: 7 entre calles 24-23","name:es":"Palma Yuca","natural":"tree"}},"type":"Feature"},
	{"geometry":{"coordinates":[-75.516959,5.070331],"type":"Point"},"properties":{"name":"Yucca elephantipes","osm_id":"6335581892","tag":{"description":"Origen de especie: Norteam\u00c3\u00a9rica (M\u00c3\u00a9xico) N\u00c3\u00bamero de especies: 7 entre calles 24-23","name:es":"Palma Yuca","natural":"tree"}},"type":"Feature"},
	{"geometry":{"coordinates":[-75.517091,5.070297],"type":"Point"},"properties":{"name":"Yucca elephantipes","osm_id":"6335581893","tag":{"description":"Origen de especie: Norteam\u00c3\u00a9rica (M\u00c3\u00a9xico) N\u00c3\u00bamero de especies: 7 entre calles 24-23","name:es":"Palma Yuca","natural":"tree"}},"type":"Feature"},
	{"geometry":{"coordinates":[-75.517457,5.07028],"type":"Point"},"properties":{"name":"Liriope graminifolia","osm_id":"6335581894","tag":{"denotation":"avenue","description":"Origen de especie: China, Jap\u00c3\u00b3n N\u00c3\u00bamero de especies: 15 entre calles 23-22","name:es":"Arbusto grande separador","natural":"tree"}},"type":"Feature"},
	{"geometry":{"coordinates":[-75.517522,5.070278],"type":"Point"},"properties":{"name":"Liriope graminifolia","osm_id":"6335581895","tag":{"denotation":"avenue","description":"Origen de especie: China, Jap\u00c3\u00b3n N\u00c3\u00bamero de especies: 15 entre calles 23-22","name:es":"Arbusto grande separador","natural":"tree"}},"type":"Feature"},
	{"geometry":{"coordinates":[-75.517613,5.070273],"type":"Point"},"properties":{"name":"Liriope graminifolia","osm_id":"6335581896","tag":{"denotation":"avenue","description":"Origen de especie: China, Jap\u00c3\u00b3n N\u00c3\u00bamero de especies: 15 entre calles 23-22","name:es":"Arbusto grande separador","natural":"tree"}},"type":"Feature"},
	{"geometry":{"coordinates":[-75.517685,5.070263],"type":"Point"},"properties":{"name":"Liriope graminifolia","osm_id":"6335581897","tag":{"denotation":"avenue","description":"Origen de especie: China, Jap\u00c3\u00b3n N\u00c3\u00bamero de especies: 15 entre calles 23-22","name:es":"Arbusto grande separador","natural":"tree"}},"type":"Feature"},
	{"geometry":{"coordinates":[-75.51749,5.070279],"type":"Point"},"properties":{"name":"Chlorophytum comosum","osm_id":"6335581898","tag":{"denotation":"avenue","description":"Origen de especie: Sud\u00c3\u00a1frica N\u00c3\u00bamero de especies: 51 entre calles 23-22","name:es":"Cinta blanca","natural":"tree"}},"type":"Feature"},
	{"geometry":{"coordinates":[-75.517563,5.070276],"type":"Point"},"properties":{"name":"Chlorophytum comosum","osm_id":"6335581899","tag":{"denotation":"avenue","description":"Origen de especie: Sud\u00c3\u00a1frica N\u00c3\u00bamero de especies: 51 entre calles 23-22","name:es":"Cinta blanca","natural":"tree"}},"type":"Feature"},
	{"geometry":{"coordinates":[-75.517652,5.070272],"type":"Point"},"properties":{"name":"Chlorophytum comosum","osm_id":"6335581900","tag":{"denotation":"avenue","description":"Origen de especie: Sud\u00c3\u00a1frica N\u00c3\u00bamero de especies: 51 entre calles 23-22","name:es":"Cinta blanca","natural":"tree"}},"type":"Feature"},
	{"geometry":{"coordinates":[-75.518512,5.07008],"type":"Point"},"properties":{"name":"Sambucus nigra (Kunth) Bolli","osm_id":"6335581901","tag":{"denotation":"park","description":"Parque Alfonso L\u00c3\u00b3pez Origen de especie: Centroam\u00c3\u00a9rica, M\u00c3\u00a9xico y norte de Suram\u00c3\u00a9rica en los Andes N\u00c3\u00bamero de especies: 20 sobre calle 21 entre carrera 18 (av. Gilberto Alzate)","name:es":"Sauco","natural":"tree"}},"type":"Feature"},
	{"geometry":{"coordinates":[-75.51851,5.070036],"type":"Point"},"properties":{"name":"Sambucus nigra (Kunth) Bolli","osm_id":"6335581902","tag":{"denotation":"park","description":"Parque Alfonso L\u00c3\u00b3pez Origen de especie: Centroam\u00c3\u00a9rica, M\u00c3\u00a9xico y norte de Suram\u00c3\u00a9rica en los Andes N\u00c3\u00bamero de especies: 20 sobre calle 21 entre carrera 18 (av. Gilberto Alzate)","name:es":"Sauco","natural":"tree"}},"type":"Feature"},
	{"geometry":{"coordinates":[-75.518507,5.069995],"type":"Point"},"properties":{"name":"Sambucus nigra (Kunth) Bolli","osm_id":"6335581903","tag":{"denotation":"park","description":"Parque Alfonso L\u00c3\u00b3pez Origen de especie: Centroam\u00c3\u00a9rica, M\u00c3\u00a9xico y norte de Suram\u00c3\u00a9rica en los Andes N\u00c3\u00bamero de especies: 20 sobre calle 21 entre carrera 18 (av. Gilberto Alzate)","name:es":"Sauco","natural":"tree"}},"type":"Feature"},
	{"geometry":{"coordinates":[-75.518555,5.070081],"type":"Point"},"properties":{"name":"Sambucus nigra (Kunth) Bolli","osm_id":"6335581904","tag":{"denotation":"park","description":"Parque Alfonso L\u00c3\u00b3pez Origen de especie: Centroam\u00c3\u00a9rica, M\u00c3\u00a9xico y norte de Suram\u00c3\u00a9rica en los Andes N\u00c3\u00bamero de especies: 20 sobre calle 21 entre carrera 18 (av. Gilberto Alzate)","name:es":"Sauco","natural":"tree"}},"type":"Feature"},
	{"geometry":{"coordinates":[-75.518553,5.070036],"type":"Point"},"properties":{"name":"Sambucus nigra (Kunth) Bolli","osm_id":"6335581905","tag":{"denotation":"park","description":"Parque Alfonso L\u00c3\u00b3pez Origen de especie: Centroam\u00c3\u00a9rica, M\u00c3\u00a9xico y norte de Suram\u00c3\u00a9rica en los Andes N\u00c3\u00bamero de especies: 20 sobre calle 21 entre carrera 18 (av. Gilberto Alzate)","name:es":"Sauco","natural":"tree"}},"type":"Feature"},
	{"geometry":{"coordinates":[-75.518553,5.07],"type":"Point"},"properties":{"name":"Sambucus nigra (Kunth) Bolli","osm_id":"6335581906","tag":{"denotation":"park","description":"Parque Alfonso L\u00c3\u00b3pez Origen de especie: Centroam\u00c3\u00a9rica, M\u00c3\u00a9xico y norte de Suram\u00c3\u00a9rica en los Andes N\u00c3\u00bamero de especies: 20 sobre calle 21 entre carrera 18 (av. Gilberto Alzate)","name:es":"Sauco","natural":"tree"}},"type":"Feature"},
	{"geometry":{"coordinates":[-75.518551,5.069856],"type":"Point"},"properties":{"name":"Sambucus nigra (Kunth) Bolli","osm_id":"6335581907","tag":{"denotation":"park","description":"Parque Alfonso L\u00c3\u00b3pez Origen de especie: Centroam\u00c3\u00a9rica, M\u00c3\u00a9xico y norte de Suram\u00c3\u00a9rica en los Andes N\u00c3\u00bamero de especies: 20 sobre calle 21 entre carrera 18 (av. Gilberto Alzate)","name:es":"Sauco","natural":"tree"}},"type":"Feature"},
	{"geometry":{"coordinates":[-75.518549,5.069789],"type":"Point"},"properties":{"name":"Sambucus nigra (Kunth) Bolli","osm_id":"6335581908","tag":{"denotation":"park","description":"Parque Alfonso L\u00c3\u00b3pez Origen de especie: Centroam\u00c3\u00a9rica, M\u00c3\u00a9xico y norte de Suram\u00c3\u00a9rica en los Andes N\u00c3\u00bamero de especies: 20 sobre calle 21 entre carrera 18 (av. Gilberto Alzate)","name:es":"Sauco","natural":"tree"}},"type":"Feature"},
	{"geometry":{"coordinates":[-75.518505,5.069856],"type":"Point"},"properties":{"name":"Sambucus nigra (Kunth) Bolli","osm_id":"6335581909","tag":{"denotation":"park","description":"Parque Alfonso L\u00c3\u00b3pez Origen de especie: Centroam\u00c3\u00a9rica, M\u00c3\u00a9xico y norte de Suram\u00c3\u00a9rica en los Andes N\u00c3\u00bamero de especies: 20 sobre calle 21 entre carrera 18 (av. Gilberto Alzate)","name:es":"Sauco","natural":"tree"}},"type":"Feature"},
	{"geometry":{"coordinates":[-75.518503,5.069785],"type":"Point"},"properties":{"name":"Sambucus nigra (Kunth) Bolli","osm_id":"6335581910","tag":{"denotation":"park","description":"Parque Alfonso L\u00c3\u00b3pez Origen de especie: Centroam\u00c3\u00a9rica, M\u00c3\u00a9xico y norte de Suram\u00c3\u00a9rica en los Andes N\u00c3\u00bamero de especies: 20 sobre calle 21 entre carrera 18 (av. Gilberto Alzate)","name:es":"Sauco","natural":"tree"}},"type":"Feature"},
	{"geometry":{"coordinates":[-75.519025,5.070051],"type":"Point"},"properties":{"name":"Sambucus nigra (Kunth) Bolli","osm_id":"6335581911","tag":{"denotation":"park","description":"Parque Alfonso L\u00c3\u00b3pez Origen de especie: Centroam\u00c3\u00a9rica, M\u00c3\u00a9xico y norte de Suram\u00c3\u00a9rica en los Andes N\u00c3\u00bamero de especies: 20 sobre calle 20 entre carrera 18 (av. Gilberto Alzate)","name:es":"Sauco","natural":"tree"}},"type":"Feature"},
	{"geometry":{"coordinates":[-75.518988,5.070051],"type":"Point"},"properties":{"name":"Sambucus nigra (Kunth) Bolli","osm_id":"6335581912","tag":{"denotation":"park","description":"Parque Alfonso L\u00c3\u00b3pez Origen de especie: Centroam\u00c3\u00a9rica, M\u00c3\u00a9xico y norte de Suram\u00c3\u00a9rica en los Andes N\u00c3\u00bamero de especies: 20 sobre calle 20 entre carrera 18 (av. Gilberto Alzate)","name:es":"Sauco","natural":"tree"}},"type":"Feature"},
	{"geometry":{"coordinates":[-75.519027,5.070002],"type":"Point"},"properties":{"name":"Sambucus nigra (Kunth) Bolli","osm_id":"6335581913","tag":{"denotation":"park","description":"Parque Alfonso L\u00c3\u00b3pez Origen de especie: Centroam\u00c3\u00a9rica, M\u00c3\u00a9xico y norte de Suram\u00c3\u00a9rica en los Andes N\u00c3\u00bamero de especies: 20 sobre calle 20 entre carrera 18 (av. Gilberto Alzate)","name:es":"Sauco","natural":"tree"}},"type":"Feature"},
	{"geometry":{"coordinates":[-75.518988,5.070004],"type":"Point"},"properties":{"name":"Sambucus nigra (Kunth) Bolli","osm_id":"6335581914","tag":{"denotation":"park","description":"Parque Alfonso L\u00c3\u00b3pez Origen de especie: Centroam\u00c3\u00a9rica, M\u00c3\u00a9xico y norte de Suram\u00c3\u00a9rica en los Andes N\u00c3\u00bamero de especies: 20 sobre calle 20 entre carrera 18 (av. Gilberto Alzate)","name:es":"Sauco","natural":"tree"}},"type":"Feature"},
	{"geometry":{"coordinates":[-75.519025,5.069955],"type":"Point"},"properties":{"name":"Sambucus nigra (Kunth) Bolli","osm_id":"6335581915","tag":{"denotation":"park","description":"Parque Alfonso L\u00c3\u00b3pez Origen de especie: Centroam\u00c3\u00a9rica, M\u00c3\u00a9xico y norte de Suram\u00c3\u00a9rica en los Andes N\u00c3\u00bamero de especies: 20 sobre calle 20 entre carrera 18 (av. Gilberto Alzate)","name:es":"Sauco","natural":"tree"}},"type":"Feature"},
	{"geometry":{"coordinates":[-75.518986,5.069953],"type":"Point"},"properties":{"name":"Sambucus nigra (Kunth) Bolli","osm_id":"6335581916","tag":{"denotation":"park","description":"Parque Alfonso L\u00c3\u00b3pez Origen de especie: Centroam\u00c3\u00a9rica, M\u00c3\u00a9xico y norte de Suram\u00c3\u00a9rica en los Andes N\u00c3\u00bamero de especies: 20 sobre calle 20 entre carrera 18 (av. Gilberto Alzate)","name:es":"Sauco","natural":"tree"}},"type":"Feature"},
	{"geometry":{"coordinates":[-75.518636,5.070087],"type":"Point"},"properties":{"name":"Archontophoenix alexandrae","osm_id":"6335581917","tag":{"denotation":"park","description":"Origen de especie: Australia N\u00c3\u00bamero de especies: 12 entre calles 21-20","name:es":"Palma Alexandra","natural":"tree"}},"type":"Feature"},
	{"geometry":{"coordinates":[-75.518719,5.070087],"type":"Point"},"properties":{"name":"Archontophoenix alexandrae","osm_id":"6335581918","tag":{"denotation":"park","description":"Origen de especie: Australia N\u00c3\u00bamero de especies: 12 entre calles 21-20","name:es":"Palma Alexandra","natural":"tree"}},"type":"Feature"},
	{"geometry":{"coordinates":[-75.518822,5.070085],"type":"Point"},"properties":{"name":"Archontophoenix alexandrae","osm_id":"6335581919","tag":{"denotation":"park","description":"Origen de especie: Australia N\u00c3\u00bamero de especies: 12 entre calles 21-20","name:es":"Palma Alexandra","natural":"tree"}},"type":"Feature"},
	{"geometry":{"coordinates":[-75.5189,5.070085],"type":"Point"},"properties":{"name":"Archontophoenix alexandrae","osm_id":"6335581920","tag":{"denotation":"park","description":"Origen de especie: Australia N\u00c3\u00bamero de especies: 12 entre calles 21-20","name:es":"Palma Alexandra","natural":"tree"}},"type":"Feature"},
	{"geometry":{"coordinates":[-75.518638,5.069799],"type":"Point"},"properties":{"name":"Archontophoenix alexandrae","osm_id":"6335581921","tag":{"denotation":"park","description":"Origen de especie: Australia N\u00c3\u00bamero de especies: 12 entre calles 21-20","name:es":"Palma Alexandra","natural":"tree"}},"type":"Feature"},
	{"geometry":{"coordinates":[-75.518712,5.069794],"type":"Point"},"properties":{"name":"Archontophoenix alexandrae","osm_id":"6335581922","tag":{"denotation":"park","description":"Origen de especie: Australia N\u00c3\u00bamero de especies: 12 entre calles 21-20","name:es":"Palma Alexandra","natural":"tree"}},"type":"Feature"},
	{"geometry":{"coordinates":[-75.518785,5.069789],"type":"Point"},"properties":{"name":"Archontophoenix alexandrae","osm_id":"6335581923","tag":{"denotation":"park","description":"Origen de especie: Australia N\u00c3\u00bamero de especies: 12 entre calles 21-20","name:es":"Palma Alexandra","natural":"tree"}},"type":"Feature"},
	{"geometry":{"coordinates":[-75.518886,5.069785],"type":"Point"},"properties":{"name":"Archontophoenix alexandrae","osm_id":"6335581924","tag":{"denotation":"park","description":"Origen de especie: Australia N\u00c3\u00bamero de especies: 12 entre calles 21-20","name:es":"Palma Alexandra","natural":"tree"}},"type":"Feature"},
	{"geometry":{"coordinates":[-75.51867,5.070152],"type":"Point"},"properties":{"name":"Euryops pectinatus","osm_id":"6335581925","tag":{"denotation":"park","description":"Origen de especie: Sud\u00c3\u00a1frica N\u00c3\u00bamero de especies: 12 entre calles 21-20","name:es":"Margarita amarlla","natural":"tree"}},"type":"Feature"},
	{"geometry":{"coordinates":[-75.518864,5.070152],"type":"Point"},"properties":{"name":"Euryops pectinatus","osm_id":"6335581926","tag":{"denotation":"park","description":"Origen de especie: Sud\u00c3\u00a1frica N\u00c3\u00bamero de especies: 12 entre calles 21-20","name:es":"Margarita amarlla","natural":"tree"}},"type":"Feature"},
	{"geometry":{"coordinates":[-75.518838,5.069704],"type":"Point"},"properties":{"name":"Euryops pectinatus","osm_id":"6335581927","tag":{"denotation":"park","description":"Origen de especie: Sud\u00c3\u00a1frica N\u00c3\u00bamero de especies: 12 entre calles 21-20","name:es":"Margarita amarlla","natural":"tree"}},"type":"Feature"},
	{"geometry":{"coordinates":[-75.518748,5.069718],"type":"Point"},"properties":{"name":"Euryops pectinatus","osm_id":"6335581928","tag":{"denotation":"park","description":"Origen de especie: Sud\u00c3\u00a1frica N\u00c3\u00bamero de especies: 12 entre calles 21-20","name:es":"Margarita amarlla","natural":"tree"}},"type":"Feature"},
	{"geometry":{"coordinates":[-75.51867,5.069715],"type":"Point"},"properties":{"name":"Euryops pectinatus","osm_id":"6335581929","tag":{"denotation":"park","description":"Origen de especie: Sud\u00c3\u00a1frica N\u00c3\u00bamero de especies: 12 entre calles 21-20","name:es":"Margarita amarlla","natural":"tree"}},"type":"Feature"},
	{"geometry":{"coordinates":[-75.518769,5.070156],"type":"Point"},"properties":{"name":"Euryops pectinatus","osm_id":"6335581930","tag":{"denotation":"park","description":"Origen de especie: Sud\u00c3\u00a1frica N\u00c3\u00bamero de especies: 12 entre calles 21-20","name:es":"Margarita amarlla","natural":"tree"}},"type":"Feature"},
	{"geometry":{"coordinates":[-75.529286,5.048735],"type":"Point"},"properties":{"name":"Chingale \u00c3\u00a1rbol","osm_id":"6335585282","tag":{"description":"Cantidad 2","natural":"tree"}},"type":"Feature"},
	{"geometry":{"coordinates":[-75.505677,5.048194],"type":"Point"},"properties":{"osm_id":"6335585620","tag":{"natural":"tree"}},"type":"Feature"},
	{"geometry":{"coordinates":[-75.528831,5.048406],"type":"Point"},"properties":{"name":"Palmera Yatay","osm_id":"6335586285","tag":{"description":"Cantidad 8","natural":"tree"}},"type":"Feature"},
	{"geometry":{"coordinates":[-75.529111,5.048848],"type":"Point"},"properties":{"name":"Buganvillas Roja","osm_id":"6335586287","tag":{"description":"Cantidad 4","natural":"tree"}},"type":"Feature"},
	{"geometry":{"coordinates":[-75.529051,5.04811],"type":"Point"},"properties":{"name":"Buganvillas Roja","osm_id":"6335586291","tag":{"description":"Cantidad 3","natural":"tree"}},"type":"Feature"},
	{"geometry":{"coordinates":[-75.529059,5.048041],"type":"Point"},"properties":{"name":"Palmera Yatay","osm_id":"6335586292","tag":{"description":"Cantidad 4","natural":"tree"}},"type":"Feature"},
	{"geometry":{"coordinates":[-75.505572,5.048673],"type":"Point"},"properties":{"name":"Malvaceae. 100","osm_id":"6335586316","tag":{"natural":"tree"}},"type":"Feature"},
	{"geometry":{"coordinates":[-75.529458,5.050853],"type":"Point"},"properties":{"name":"Lirios naranja","osm_id":"6335599481","tag":{"description":"Cantidad 28","natural":"tree"}},"type":"Feature"},
	{"geometry":{"coordinates":[-75.520684,5.069324],"type":"Point"},"properties":{"name":"Yucca elephantipes","osm_id":"6335618009","tag":{"denotation":"avenue","description":"Origen de especie: Mesoam\u00c3\u00a9rica, climas c\u00c3\u00a1lidos sin heladas o con heladas d\u00c3\u00a9biles (hasta -3\u00c2\u00ba) N\u00c3\u00bamero de especies: 46 entre calles 17 y 16","name:es":"Palma yuca","natural":"tree"}},"type":"Feature"},
	{"geometry":{"coordinates":[-75.520853,5.069241],"type":"Point"},"properties":{"name":"Yucca elephantipes","osm_id":"6335618010","tag":{"denotation":"avenue","description":"Origen de especie: Mesoam\u00c3\u00a9rica, climas c\u00c3\u00a1lidos sin heladas o con heladas d\u00c3\u00a9biles (hasta -3\u00c2\u00ba) N\u00c3\u00bamero de especies: 46 entre calles 18-17","name:es":"Palma yuca","natural":"tree"}},"type":"Feature"},
	{"geometry":{"coordinates":[-75.520753,5.069293],"type":"Point"},"properties":{"name":"Yucca elephantipes","osm_id":"6335618011","tag":{"denotation":"avenue","description":"Origen de especie: Mesoam\u00c3\u00a9rica, climas c\u00c3\u00a1lidos sin heladas o con heladas d\u00c3\u00a9biles (hasta -3\u00c2\u00ba) N\u00c3\u00bamero de especies: 46 entre calles 18-17","name:es":"Palma yuca","natural":"tree"}},"type":"Feature"},
	{"geometry":{"coordinates":[-75.520907,5.069206],"type":"Point"},"properties":{"name":"Yucca elephantipes","osm_id":"6335618012","tag":{"denotation":"avenue","description":"Origen de especie: Mesoam\u00c3\u00a9rica, climas c\u00c3\u00a1lidos sin heladas o con heladas d\u00c3\u00a9biles (hasta -3\u00c2\u00ba) N\u00c3\u00bamero de especies: 46 entre calles 18-17","name:es":"Palma yuca","natural":"tree"}},"type":"Feature"},
	{"geometry":{"coordinates":[-75.520802,5.069269],"type":"Point"},"properties":{"name":"Yucca elephantipes","osm_id":"6335618013","tag":{"denotation":"avenue","description":"Origen de especie: Mesoam\u00c3\u00a9rica, climas c\u00c3\u00a1lidos sin heladas o con heladas d\u00c3\u00a9biles (hasta -3\u00c2\u00ba) N\u00c3\u00bamero de especies: 46 entre calles 18-17","name:es":"Palma yuca","natural":"tree"}},"type":"Feature"},
	{"geometry":{"coordinates":[-75.529247,5.048261],"type":"Point"},"properties":{"name":"swinglea","osm_id":"6335618198","tag":{"addr:city":"Manizales","addr:housenumber":"kilometro 1","description":"especie n\u00c3\u00bamero","natural":"tree"}},"type":"Feature"},
	{"geometry":{"coordinates":[-75.529015,5.047623],"type":"Point"},"properties":{"osm_id":"6335618201","tag":{"natural":"tree"}},"type":"Feature"},
	{"geometry":{"coordinates":[-75.528874,5.047889],"type":"Point"},"properties":{"osm_id":"6335618202","tag":{"description":"Palmera yatay","leaf_cycle":"evergreen","leaf_type":"broadleaved","natural":"tree"}},"type":"Feature"},
	{"geometry":{"coordinates":[-75.529415,5.048101],"type":"Point"},"properties":{"osm_id":"6335618206","tag":{"description":"Bunganvilia Morada 36 Graminea Ornamental 10 Palmera Yatay 1 muerta","natural":"tree"}},"type":"Feature"},
	{"geometry":{"coordinates":[-75.529206,5.047706],"type":"Point"},"properties":{"osm_id":"6335618208","tag":{"description":"Bunganvilias Morada 97 Chingale \u00c3\u0081rbol 2","natural":"tree"}},"type":"Feature"},
	{"geometry":{"coordinates":[-75.529072,5.048197],"type":"Point"},"properties":{"osm_id":"6335618209","tag":{"description":"Buganvilias Blancas 13 Palmera Yatay 8 Chingale Morada 11 Buganvilias Roja 4 Buganvilias Moradas 6","natural":"tree"}},"type":"Feature"},
	{"geometry":{"coordinates":[-75.529077,5.048085],"type":"Point"},"properties":{"osm_id":"6335618210","tag":{"description":"Buganvilias Blancas 3 \u00c3\u0081rboles 3 Palmera Yatay 4","natural":"tree"}},"type":"Feature"},
	{"geometry":{"coordinates":[-75.529532,5.056666],"type":"Point"},"properties":{"name":"Lirios naranja","osm_id":"6335621503","tag":{"description":"Cantidad 64","natural":"tree"}},"type":"Feature"},
	{"geometry":{"coordinates":[-75.526239,5.062165],"type":"Point"},"properties":{"name":"Ev\u00c3\u00b3nimo, Bonetero","osm_id":"6335621506","tag":{"description":"Cantidad 574","natural":"tree"}},"type":"Feature"},
	{"geometry":{"coordinates":[-75.525228,5.064788],"type":"Point"},"properties":{"name":"Ev\u00c3\u00b3nimo, Bonetero","osm_id":"6335621508","tag":{"description":"Cantidad 400","natural":"tree"}},"type":"Feature"},
	{"geometry":{"coordinates":[-75.525491,5.063913],"type":"Point"},"properties":{"name":"Arbol","osm_id":"6335621509","tag":{"description":"Cantidad 1","natural":"tree"}},"type":"Feature"},
	{"geometry":{"coordinates":[-75.525459,5.063738],"type":"Point"},"properties":{"name":"\u00c3\u00a1rbol","osm_id":"6335621514","tag":{"description":"Cantidad 15","natural":"tree"}},"type":"Feature"},
	{"geometry":{"coordinates":[-75.524364,5.067277],"type":"Point"},"properties":{"name":"\u00c3\u00a1rbol","osm_id":"6335621517","tag":{"description":"Cantidad 2","natural":"tree"}},"type":"Feature"},
	{"geometry":{"coordinates":[-75.52436,5.067242],"type":"Point"},"properties":{"name":"Palmera Yatay","osm_id":"6335621518","tag":{"description":"Cantidad 1","natural":"tree"}},"type":"Feature"},
	{"geometry":{"coordinates":[-75.511938,5.070557],"type":"Point"},"properties":{"name":"Retamo liso","osm_id":"6335651921","tag":{"denotation":"avenue","description":"28- Mediterr\u00c3\u00a1neo medio","natural":"tree"}},"type":"Feature"},
	{"geometry":{"coordinates":[-75.508963,5.068974],"type":"Point"},"properties":{"name":"Palmera Robeline","osm_id":"6335651925","tag":{"description":"1-End\u00c3\u00a9mica del sudeste de Asia, al sudoeste de China.","natural":"tree"}},"type":"Feature"},
	{"geometry":{"coordinates":[-75.508943,5.068939],"type":"Point"},"properties":{"name":"Palmera Robelie","osm_id":"6335651926","tag":{"description":"1- End\u00c3\u00a9mica del sudeste de Asia, al sudoeste de China.","natural":"tree"}},"type":"Feature"},
	{"geometry":{"coordinates":[-75.50898,5.069009],"type":"Point"},"properties":{"name":"Palmera Robeline","osm_id":"6335651927","tag":{"description":"1- End\u00c3\u00a9mica del sudeste de Asia, al sudoeste de China.","natural":"tree"}},"type":"Feature"},
	{"geometry":{"coordinates":[-75.525224,5.07983],"type":"Point"},"properties":{"name":"Palma reina","osm_id":"6335651929","tag":{"description":"43- Sur de brasil, tierra baja resistente al clima fri\u00c3\u00b3 ","natural":"tree"}},"type":"Feature"},
	{"geometry":{"coordinates":[-75.52507,5.079817],"type":"Point"},"properties":{"name":"Catalpa","osm_id":"6335651930","tag":{"description":"10-Regiones templadas","natural":"tree"}},"type":"Feature"},
	{"geometry":{"coordinates":[-75.519782,5.071495],"type":"Point"},"properties":{"name":"Palma reina","osm_id":"6335651935","tag":{"description":"1-Sur de brasil, tierra baja resistente al clima fri\u00c3\u00b3","natural":"tree"}},"type":"Feature"},
	{"geometry":{"coordinates":[-75.519782,5.071461],"type":"Point"},"properties":{"name":"Palma reina","osm_id":"6335651936","tag":{"description":"1-Sur de brasil, tierra baja resistente al clima fri\u00c3\u00b3","natural":"tree"}},"type":"Feature"},
	{"geometry":{"coordinates":[-75.519759,5.072165],"type":"Point"},"properties":{"name":"\u00c3\u0081rbol de sa\u00c3\u00baco","osm_id":"6335651937","tag":{"description":"1-Regiones templadas a subtropicales","natural":"tree"}},"type":"Feature"},
	{"geometry":{"coordinates":[-75.519759,5.072165],"type":"Point"},"properties":{"name":"Palma reina","osm_id":"6335651939","tag":{"description":"1-Sur de brasil, tierra baja resistente al clima fri\u00c3\u00b3","natural":"tree"}},"type":"Feature"},
	{"geometry":{"coordinates":[-75.519758,5.07215],"type":"Point"},"properties":{"name":"Palma reina","osm_id":"6335651940","tag":{"description":"Sur de brasil, tierra baja resistente al clima fri\u00c3\u00b3","natural":"tree"}},"type":"Feature"},
	{"geometry":{"coordinates":[-75.519799,5.072149],"type":"Point"},"properties":{"name":"Palma reina","osm_id":"6335651941","tag":{"description":"1-Sur de brasil, tierra baja resistente al clima fri\u00c3\u00b3","natural":"tree"}},"type":"Feature"},
	{"geometry":{"coordinates":[-75.519758,5.07215],"type":"Point"},"properties":{"name":"Palma reina","osm_id":"6335651942","tag":{"description":"1-Sur de brasil, tierra baja resistente al clima fr\u00c3\u00ado","natural":"tree"}},"type":"Feature"},
	{"geometry":{"coordinates":[-75.519799,5.072168],"type":"Point"},"properties":{"name":"Palma reina","osm_id":"6335651943","tag":{"description":"1-Sur de brasil, tierra baja resistente al clima fri\u00c3\u00b3","natural":"tree"}},"type":"Feature"},
	{"geometry":{"coordinates":[-75.519758,5.07215],"type":"Point"},"properties":{"name":"Palma reina","osm_id":"6335651944","tag":{"description":"1-Sur de brasil, tierra baja resistente al clima fri\u00c3\u00b3;1-Sur de brasil, tierra baja resistente al clima fr\u00c3\u00ado","natural":"tree"}},"type":"Feature"},
	{"geometry":{"coordinates":[-75.519799,5.07213],"type":"Point"},"properties":{"name":"Palma reina","osm_id":"6335651945","tag":{"description":"1- Sur de brasil, tierra baja resistente al clima fri\u00c3\u00b3","natural":"tree"}},"type":"Feature"},
	{"geometry":{"coordinates":[-75.519831,5.07303],"type":"Point"},"properties":{"name":"Palma reina","osm_id":"6335651946","tag":{"description":"5-Sur de brasil, tierra baja resistente al clima fri\u00c3\u00b3","natural":"tree"}},"type":"Feature"},
	{"geometry":{"coordinates":[-75.520261,5.073514],"type":"Point"},"properties":{"name":"Palma reina","osm_id":"6335651949","tag":{"description":"1-Sur de brasil, tierra baja resistente al clima fri\u00c3\u00b3","natural":"tree"}},"type":"Feature"},
	{"geometry":{"coordinates":[-75.520264,5.07352],"type":"Point"},"properties":{"name":"Palma reina","osm_id":"6335651950","tag":{"description":"Sur de brasil, tierra baja resistente al clima fri\u00c3\u00b3","natural":"tree"}},"type":"Feature"},
	{"geometry":{"coordinates":[-75.520266,5.073524],"type":"Point"},"properties":{"name":"Palma reina","osm_id":"6335651951","tag":{"description":"1-Sur de brasil, tierra baja resistente al clima fri\u00c3\u00b3","natural":"tree"}},"type":"Feature"},
	{"geometry":{"coordinates":[-75.520495,5.074203],"type":"Point"},"properties":{"name":"Catalpa","osm_id":"6335651952","tag":{"description":"1-Suram\u00c3\u00a9rica entre 1.800 y 2.600 m de altitud","natural":"tree"}},"type":"Feature"},
	{"geometry":{"coordinates":[-75.5205,5.074235],"type":"Point"},"properties":{"name":"Palma reina","osm_id":"6335651953","tag":{"description":"1-Sur de brasil, tierra baja resistente al clima fri\u00c3\u00b3","natural":"tree"}},"type":"Feature"},
	{"geometry":{"coordinates":[-75.520504,5.074259],"type":"Point"},"properties":{"name":"Palma reina","osm_id":"6335651954","tag":{"description":"1-Sur de brasil, tierra baja resistente al clima fri\u00c3\u00b3","natural":"tree"}},"type":"Feature"},
	{"geometry":{"coordinates":[-75.520508,5.07428],"type":"Point"},"properties":{"name":"Palma reina","osm_id":"6335651955","tag":{"description":"1-Sur de brasil, tierra baja resistente al clima fri\u00c3\u00b3","natural":"tree"}},"type":"Feature"},
	{"geometry":{"coordinates":[-75.520515,5.07432],"type":"Point"},"properties":{"name":"San joaquines","osm_id":"6335651956","tag":{"description":"29-Ambientes c\u00c3\u00a1lidos y regiones tropicales","natural":"tree"}},"type":"Feature"},
	{"geometry":{"coordinates":[-75.520637,5.074825],"type":"Point"},"properties":{"name":"Palma reina","osm_id":"6335651958","tag":{"description":"5-Sur de brasil, tierra baja resistente al clima fri\u00c3\u00b3","natural":"tree"}},"type":"Feature"},
	{"geometry":{"coordinates":[-75.521563,5.077168],"type":"Point"},"properties":{"name":"Palma reina","osm_id":"6335651959","tag":{"description":"22-Sur de brasil, tierra baja resistente al clima fri\u00c3\u00b3","natural":"tree"}},"type":"Feature"},
	{"geometry":{"coordinates":[-75.522441,5.077654],"type":"Point"},"properties":{"name":"Catalpa","osm_id":"6335651963","tag":{"description":"1-Regiones templadas","natural":"tree"}},"type":"Feature"},
	{"geometry":{"coordinates":[-75.522537,5.077684],"type":"Point"},"properties":{"name":"Catalpa","osm_id":"6335651964","tag":{"natural":"tree"}},"type":"Feature"},
	{"geometry":{"coordinates":[-75.522619,5.07771],"type":"Point"},"properties":{"name":"Palma reina","osm_id":"6335651965","tag":{"description":"18-Sur de brasil, tierra baja resistente al clima fri\u00c3\u00b3","natural":"tree"}},"type":"Feature"},
	{"geometry":{"coordinates":[-75.523264,5.077955],"type":"Point"},"properties":{"name":"Catalpa","osm_id":"6335651967","tag":{"description":"1-Regiones templadas","natural":"tree"}},"type":"Feature"},
	{"geometry":{"coordinates":[-75.523327,5.07801],"type":"Point"},"properties":{"name":"Catalpa","osm_id":"6335651968","tag":{"description":"1-Regiones templadas","natural":"tree"}},"type":"Feature"},
	{"geometry":{"coordinates":[-75.52338,5.07807],"type":"Point"},"properties":{"name":"Palma reina","osm_id":"6335651969","tag":{"description":"9-Sur de brasil, tierra baja resistente al clima fri\u00c3\u00b3","natural":"tree"}},"type":"Feature"},
	{"geometry":{"coordinates":[-75.523429,5.078144],"type":"Point"},"properties":{"name":"Tronco muerto","osm_id":"6335651970","tag":{"natural":"tree"}},"type":"Feature"},
	{"geometry":{"coordinates":[-75.523562,5.078658],"type":"Point"},"properties":{"name":"Catalpa","osm_id":"6335651971","tag":{"description":"1-Regiones templadas","natural":"tree"}},"type":"Feature"},
	{"geometry":{"coordinates":[-75.523603,5.078827],"type":"Point"},"properties":{"name":"Catalpa","osm_id":"6335651972","tag":{"description":"1-Regiones templadas","natural":"tree"}},"type":"Feature"},
	{"geometry":{"coordinates":[-75.523632,5.078947],"type":"Point"},"properties":{"name":"Catalpa","osm_id":"6335651973","tag":{"description":"1-Regiones templadas","natural":"tree"}},"type":"Feature"},
	{"geometry":{"coordinates":[-75.523656,5.079046],"type":"Point"},"properties":{"name":"Catalpa","osm_id":"6335651974","tag":{"description":"1-Regiones templadas","natural":"tree"}},"type":"Feature"},
	{"geometry":{"coordinates":[-75.523758,5.079341],"type":"Point"},"properties":{"name":"Palma reina","osm_id":"6335651975","tag":{"description":"15-Sur de brasil, tierra baja resistente al clima fri\u00c3\u00b3","natural":"tree"}},"type":"Feature"},
	{"geometry":{"coordinates":[-75.520962,5.069168],"type":"Point"},"properties":{"name":"Yucca elephantipes","osm_id":"6335657238","tag":{"denotation":"avenue","description":"Origen de especie: Mesoam\u00c3\u00a9rica, climas c\u00c3\u00a1lidos sin heladas o con heladas d\u00c3\u00a9biles (hasta -3\u00c2\u00ba) N\u00c3\u00bamero de especies: 46 entre calles 18-17","name:es":"Palma yuca","natural":"tree"}},"type":"Feature"},
	{"geometry":{"coordinates":[-75.521002,5.068953],"type":"Point"},"properties":{"name":"Inga feuilleei o pacay","osm_id":"6335657239","tag":{"denotation":"avenue","description":"Origen de especie: Am\u00c3\u00a9rica del sur y America central, clima tropical y el templado m\u00c3\u00a1s c\u00c3\u00a1lido N\u00c3\u00bamero de especies: 1 en la calle 16","name:es":"Guamo","natural":"tree"}},"type":"Feature"},
	{"geometry":{"coordinates":[-75.520978,5.068954],"type":"Point"},"properties":{"name":"iresine diffusa herbstii","osm_id":"6335657240","tag":{"denotation":"avenue","description":"Origen de especie: Zona intertropical, temperaturas medias anuales entre 15 y 25 \u00c2\u00baC N\u00c3\u00bamero de especies: 27 en la calle 16","name:es":"Hojas de sangre","natural":"tree"}},"type":"Feature"},
	{"geometry":{"coordinates":[-75.49811,5.070296],"type":"Point"},"properties":{"name":"San joaqu\u00c3\u00adn","osm_id":"6335671997","tag":{"description":"hibiscus sp - 0a 2.500mtsnm","natural":"tree"}},"type":"Feature"},
	{"geometry":{"coordinates":[-75.498943,5.070427],"type":"Point"},"properties":{"name":"\u00c3\u0081rbol","osm_id":"6335671999","tag":{"description":"(20) \u00c3\u0081rboles grandes con hojas peque\u00c3\u00b1as","natural":"tree"}},"type":"Feature"},
	{"geometry":{"coordinates":[-75.500579,5.070818],"type":"Point"},"properties":{"name":"San joaqu\u00c3\u00adn","osm_id":"6335672000","tag":{"description":"(53) \u00c3\u0081rboles grandes con hojas peque\u00c3\u00b1as 0 a 2.500mtsnm","natural":"tree"}},"type":"Feature"},
	{"geometry":{"coordinates":[-75.500947,5.070378],"type":"Point"},"properties":{"name":"San joaqu\u00c3\u00adn","osm_id":"6335672001","tag":{"description":"(17) 0 a 2.500mtsnm","natural":"tree"}},"type":"Feature"},
	{"geometry":{"coordinates":[-75.50089,5.070099],"type":"Point"},"properties":{"name":"Cedrillo","osm_id":"6335672002","tag":{"description":"(8) Arbustos grandes, de hoja de palma","natural":"tree"}},"type":"Feature"},
	{"geometry":{"coordinates":[-75.500902,5.06967],"type":"Point"},"properties":{"name":"Palmera","osm_id":"6335672003","tag":{"description":"0 a 2.400 mtsnm","natural":"tree"}},"type":"Feature"},
	{"geometry":{"coordinates":[-75.50091,5.069553],"type":"Point"},"properties":{"name":"Palmera","osm_id":"6335672004","tag":{"description":"0 a 2.400 mtsnm","natural":"tree"}},"type":"Feature"},
	{"geometry":{"coordinates":[-75.500938,5.069464],"type":"Point"},"properties":{"name":"Palmera","osm_id":"6335672005","tag":{"description":"0 a 2.400 mtsnm","natural":"tree"}},"type":"Feature"},
	{"geometry":{"coordinates":[-75.500955,5.069383],"type":"Point"},"properties":{"name":"Palmera","osm_id":"6335672006","tag":{"description":"0 a 2.400 mtsnm","natural":"tree"}},"type":"Feature"},
	{"geometry":{"coordinates":[-75.502796,5.069832],"type":"Point"},"properties":{"name":"San joaqu\u00c3\u00adn","osm_id":"6335672007","tag":{"description":"(183) hibiscus sp - 0 a 2.500 mtsnm","natural":"tree"}},"type":"Feature"},
	{"geometry":{"coordinates":[-75.503727,5.069593],"type":"Point"},"properties":{"name":"San joaqu\u00c3\u00adn","osm_id":"6335672008","tag":{"description":"(183) hibiscus sp - 0 a 2.500 mtsnm","natural":"tree"}},"type":"Feature"},
	{"geometry":{"coordinates":[-75.50363,5.068715],"type":"Point"},"properties":{"name":"San joaqu\u00c3\u00adn","osm_id":"6335672009","tag":{"description":"(183) hibiscus sp - 0 a 2.500 mtsnm","natural":"tree"}},"type":"Feature"},
	{"geometry":{"coordinates":[-75.503687,5.06816],"type":"Point"},"properties":{"name":"San joaqu\u00c3\u00adn","osm_id":"6335672010","tag":{"description":"(183) hibiscus sp - 0 a 2.500 mtsnm","natural":"tree"}},"type":"Feature"},
	{"geometry":{"coordinates":[-75.503918,5.067532],"type":"Point"},"properties":{"name":"San joaqu\u00c3\u00adn","osm_id":"6335672011","tag":{"description":"(183) hibiscus sp - 0 a 2.500 mtsnm","natural":"tree"}},"type":"Feature"},
	{"geometry":{"coordinates":[-75.504479,5.067447],"type":"Point"},"properties":{"name":"\u00c3\u0081rbol","osm_id":"6335672012","tag":{"description":"\u00c3\u0081rbol mediano sin hojas y un poco viejo","natural":"tree"}},"type":"Feature"},
	{"geometry":{"coordinates":[-75.504613,5.067342],"type":"Point"},"properties":{"name":"Quiebra barrigo","osm_id":"6335672013","tag":{"description":"Trichanthera gigantea","natural":"tree"}},"type":"Feature"},
	{"geometry":{"coordinates":[-75.505561,5.04862],"type":"Point"},"properties":{"name":"Palma Cera. 8","osm_id":"6335674010","tag":{"natural":"tree"}},"type":"Feature"},
	{"geometry":{"coordinates":[-75.505557,5.048557],"type":"Point"},"properties":{"name":"Maleza Amarilla","osm_id":"6335674011","tag":{"natural":"tree"}},"type":"Feature"},
	{"geometry":{"coordinates":[-75.505919,5.049803],"type":"Point"},"properties":{"name":"Palma de Cera","osm_id":"6335674012","tag":{"natural":"tree"}},"type":"Feature"},
	{"geometry":{"coordinates":[-75.506175,5.050745],"type":"Point"},"properties":{"name":"Palma de manila","osm_id":"6335674013","tag":{"natural":"tree"}},"type":"Feature"},
	{"geometry":{"coordinates":[-75.506808,5.051453],"type":"Point"},"properties":{"name":"Hibiscos amarillo - tiliaceuus. 557","osm_id":"6335674014","tag":{"natural":"tree"}},"type":"Feature"},
	{"geometry":{"coordinates":[-75.506427,5.05113],"type":"Point"},"properties":{"name":"Arbol Loco","osm_id":"6335674015","tag":{"natural":"tree"}},"type":"Feature"},
	{"geometry":{"coordinates":[-75.506575,5.051282],"type":"Point"},"properties":{"name":"Cedro negro","osm_id":"6335674016","tag":{"natural":"tree"}},"type":"Feature"},
	{"geometry":{"coordinates":[-75.506647,5.05133],"type":"Point"},"properties":{"name":"Pl\u00c3\u00a1tano","osm_id":"6335674017","tag":{"natural":"tree"}},"type":"Feature"},
	{"geometry":{"coordinates":[-75.508383,5.052546],"type":"Point"},"properties":{"name":"Margaritas(Euryops pectinatus) . 19","osm_id":"6335674018","tag":{"natural":"tree"}},"type":"Feature"},
	{"geometry":{"coordinates":[-75.508098,5.052263],"type":"Point"},"properties":{"name":"Palo negro","osm_id":"6335674019","tag":{"natural":"tree"}},"type":"Feature"},
	{"geometry":{"coordinates":[-75.51133,5.054133],"type":"Point"},"properties":{"osm_id":"6335674021","tag":{"natural":"tree"}},"type":"Feature"},
	{"geometry":{"coordinates":[-75.509024,5.053353],"type":"Point"},"properties":{"name":"Lirio. 49","osm_id":"6335674022","tag":{"natural":"tree"}},"type":"Feature"},
	{"geometry":{"coordinates":[-75.509297,5.053478],"type":"Point"},"properties":{"name":"Roble","osm_id":"6335674023","tag":{"natural":"tree"}},"type":"Feature"},
	{"geometry":{"coordinates":[-75.509359,5.053505],"type":"Point"},"properties":{"name":"Roble","osm_id":"6335674024","tag":{"natural":"tree"}},"type":"Feature"},
	{"geometry":{"coordinates":[-75.509737,5.053517],"type":"Point"},"properties":{"name":"Palma Yatay","osm_id":"6335674025","tag":{"natural":"tree"}},"type":"Feature"},
	{"geometry":{"coordinates":[-75.509809,5.053536],"type":"Point"},"properties":{"name":"Palma Yatay","osm_id":"6335674026","tag":{"natural":"tree"}},"type":"Feature"},
	{"geometry":{"coordinates":[-75.511376,5.054041],"type":"Point"},"properties":{"name":"Palma Yatay. 11","osm_id":"6335674027","tag":{"natural":"tree"}},"type":"Feature"},
	{"geometry":{"coordinates":[-75.511646,5.054161],"type":"Point"},"properties":{"name":"Washington robusta. 25","osm_id":"6335674028","tag":{"natural":"tree"}},"type":"Feature"},
	{"geometry":{"coordinates":[-75.50877,5.067715],"type":"Point"},"properties":{"name":"Liquidambar styraciflua","osm_id":"6335676988","tag":{"description":"5","natural":"tree"}},"type":"Feature"},
	{"geometry":{"coordinates":[-75.50802,5.067575],"type":"Point"},"properties":{"name":"Syagrus romanzoffiana","osm_id":"6335676989","tag":{"description":"6","natural":"tree"}},"type":"Feature"},
	{"geometry":{"coordinates":[-75.50779,5.067363],"type":"Point"},"properties":{"name":"Ficus benjamina","osm_id":"6335676990","tag":{"description":"10","natural":"tree"}},"type":"Feature"},
	{"geometry":{"coordinates":[-75.507544,5.066992],"type":"Point"},"properties":{"name":"Ficus benjamina","osm_id":"6335676992","tag":{"description":"11","natural":"tree"}},"type":"Feature"},
	{"geometry":{"coordinates":[-75.50656,5.066043],"type":"Point"},"properties":{"name":"Ficus benjamina","osm_id":"6335676993","tag":{"description":"11","natural":"tree"}},"type":"Feature"},
	{"geometry":{"coordinates":[-75.505655,5.066052],"type":"Point"},"properties":{"name":"Ficus benjamina","osm_id":"6335676994","tag":{"description":"24","natural":"tree"}},"type":"Feature"},
	{"geometry":{"coordinates":[-75.503308,5.065745],"type":"Point"},"properties":{"name":"Fraxinus americana","osm_id":"6335676995","tag":{"description":"1","natural":"tree"}},"type":"Feature"},
	{"geometry":{"coordinates":[-75.503209,5.065731],"type":"Point"},"properties":{"name":"Ficus benjamina","osm_id":"6335676996","tag":{"description":"1","natural":"tree"}},"type":"Feature"},
	{"geometry":{"coordinates":[-75.503113,5.065717],"type":"Point"},"properties":{"name":"Ficus benjamina","osm_id":"6335676997","tag":{"description":"1","natural":"tree"}},"type":"Feature"},
	{"geometry":{"coordinates":[-75.502817,5.065672],"type":"Point"},"properties":{"name":"Ficus benjamina","osm_id":"6335676998","tag":{"description":"16","natural":"tree"}},"type":"Feature"},
	{"geometry":{"coordinates":[-75.502418,5.065575],"type":"Point"},"properties":{"name":"Liquidambar styraciflua","osm_id":"6335676999","tag":{"description":"10","natural":"tree"}},"type":"Feature"},
	{"geometry":{"coordinates":[-75.50153,5.065368],"type":"Point"},"properties":{"name":"Fraxinus americana","osm_id":"6335677000","tag":{"description":"1","natural":"tree"}},"type":"Feature"},
	{"geometry":{"coordinates":[-75.501433,5.065309],"type":"Point"},"properties":{"name":"Liquidambar styraciflua","osm_id":"6335677001","tag":{"description":"6","natural":"tree"}},"type":"Feature"},
	{"geometry":{"coordinates":[-75.500884,5.065055],"type":"Point"},"properties":{"name":"Ficus Benjamina","osm_id":"6335677002","tag":{"description":"23","natural":"tree"}},"type":"Feature"},
	{"geometry":{"coordinates":[-75.500792,5.06501],"type":"Point"},"properties":{"name":"Fraxinus americana","osm_id":"6335677003","tag":{"natural":"tree"}},"type":"Feature"},
	{"geometry":{"coordinates":[-75.500739,5.064983],"type":"Point"},"properties":{"name":"Fraxinus americana","osm_id":"6335677004","tag":{"natural":"tree"}},"type":"Feature"},
	{"geometry":{"coordinates":[-75.500589,5.064949],"type":"Point"},"properties":{"name":"Ficus benjamina","osm_id":"6335677005","tag":{"description":"23","natural":"tree"}},"type":"Feature"},
	{"geometry":{"coordinates":[-75.50042,5.064904],"type":"Point"},"properties":{"name":"Liquidambar styraciflua","osm_id":"6335677006","tag":{"description":"10","natural":"tree"}},"type":"Feature"},
	{"geometry":{"coordinates":[-75.499649,5.064812],"type":"Point"},"properties":{"name":"Liquidambar styraciflua","osm_id":"6335677007","tag":{"natural":"tree"}},"type":"Feature"},
	{"geometry":{"coordinates":[-75.499561,5.064785],"type":"Point"},"properties":{"osm_id":"6335677008","tag":{"denotation":"Liquidambar_styraciflua","natural":"tree"}},"type":"Feature"},
	{"geometry":{"coordinates":[-75.499338,5.06467],"type":"Point"},"properties":{"name":"Fraxinus americana","osm_id":"6335677010","tag":{"natural":"tree"}},"type":"Feature"},
	{"geometry":{"coordinates":[-75.499038,5.064406],"type":"Point"},"properties":{"name":"Liquidambar styraciflua","osm_id":"6335677011","tag":{"description":"12","natural":"tree"}},"type":"Feature"},
	{"geometry":{"coordinates":[-75.498646,5.064218],"type":"Point"},"properties":{"name":"Ficus benjamina","osm_id":"6335677012","tag":{"description":"14","natural":"tree"}},"type":"Feature"},
	{"geometry":{"coordinates":[-75.498471,5.06414],"type":"Point"},"properties":{"name":"Liquidambar styraciflua","osm_id":"6335677013","tag":{"natural":"tree"}},"type":"Feature"},
	{"geometry":{"coordinates":[-75.498553,5.064153],"type":"Point"},"properties":{"name":"Liquidambar styraciflua","osm_id":"6335677014","tag":{"natural":"tree"}},"type":"Feature"},
	{"geometry":{"coordinates":[-75.498399,5.064131],"type":"Point"},"properties":{"name":"Liquidambar styraciflua","osm_id":"6335677015","tag":{"natural":"tree"}},"type":"Feature"},
	{"geometry":{"coordinates":[-75.498069,5.064108],"type":"Point"},"properties":{"name":"Liquidambar styraciflua","osm_id":"6335677016","tag":{"description":"6","natural":"tree"}},"type":"Feature"},
	{"geometry":{"coordinates":[-75.498609,5.064164],"type":"Point"},"properties":{"name":"Liquidambar styraciflua","osm_id":"6335677025","tag":{"natural":"tree"}},"type":"Feature"},
	{"geometry":{"coordinates":[-75.508655,5.067734],"type":"Point"},"properties":{"name":"Liquidambar styraciflua","osm_id":"6335688488","tag":{"description":"5 \u00c3\u00a1rboles  cra 23/ cll 30","natural":"tree"}},"type":"Feature"},
	{"geometry":{"coordinates":[-75.508192,5.067602],"type":"Point"},"properties":{"name":"Syagrus romanzoffiana","osm_id":"6335688489","tag":{"description":"6 \u00c3\u00a1rboles  cra 23/ cll 35","natural":"tree"}},"type":"Feature"},
	{"geometry":{"coordinates":[-75.5077,5.067249],"type":"Point"},"properties":{"name":"Ficus benjamina","osm_id":"6335688490","tag":{"description":"10 \u00c3\u00a1rboles de esta especie en la zona cra 23/ cll 36","natural":"tree"}},"type":"Feature"},
	{"geometry":{"coordinates":[-75.507438,5.066829],"type":"Point"},"properties":{"name":"Ficus benjamina","osm_id":"6335688491","tag":{"description":"11 \u00c3\u00a1rboles de esta especie en esta zona cra 23/ cll 39","natural":"tree"}},"type":"Feature"},
	{"geometry":{"coordinates":[-75.505357,5.066026],"type":"Point"},"properties":{"name":"Ficus benjamina","osm_id":"6335688493","tag":{"description":"24 \u00c3\u00a1rboles de esta especie en la zona cra23/ cll 40","natural":"tree"}},"type":"Feature"},
	{"geometry":{"coordinates":[-75.503377,5.065744],"type":"Point"},"properties":{"name":"Fraxinus americana","osm_id":"6335688494","tag":{"description":"1 \u00c3\u00a1rbol de esta especie  cra23/ cll 43","natural":"tree"}},"type":"Feature"},
	{"geometry":{"coordinates":[-75.50332,5.065745],"type":"Point"},"properties":{"name":"Ficus benjamina","osm_id":"6335688495","tag":{"description":"2 \u00c3\u00a1rboles de esta especie cra23/ cll 43","natural":"tree"}},"type":"Feature"},
	{"geometry":{"coordinates":[-75.502817,5.065665],"type":"Point"},"properties":{"name":"Ficus benjamina","osm_id":"6335688496","tag":{"description":"16 \u00c3\u00a1rboles de esta especia en la zona  cra 23/ cll 44","natural":"tree"}},"type":"Feature"},
	{"geometry":{"coordinates":[-75.502291,5.065507],"type":"Point"},"properties":{"name":"Liquidambar styraciflua","osm_id":"6335688497","tag":{"description":"10 \u00c3\u00a1rboles de esta especie en la zona cra 23/ cll45","natural":"tree"}},"type":"Feature"},
	{"geometry":{"coordinates":[-75.50135,5.065285],"type":"Point"},"properties":{"name":"Fraxinus americana","osm_id":"6335688498","tag":{"description":"1 \u00c3\u00a1rbol de esta especie  cra 23/ cll 46","natural":"tree"}},"type":"Feature"},
	{"geometry":{"coordinates":[-75.501387,5.065225],"type":"Point"},"properties":{"name":"Liquidambar styraciflua","osm_id":"6335688499","tag":{"description":"8 \u00c3\u00a1rboles de esta especie cra 23/ cll 46","natural":"tree"}},"type":"Feature"},
	{"geometry":{"coordinates":[-75.500745,5.064992],"type":"Point"},"properties":{"name":"Ficus benjamina","osm_id":"6335688500","tag":{"description":"23 \u00c3\u00a1rboles de esta especie cra 23/ cll 47","natural":"tree"}},"type":"Feature"},
	{"geometry":{"coordinates":[-75.500706,5.064973],"type":"Point"},"properties":{"name":"Fraxinus americana","osm_id":"6335688501","tag":{"description":"2 \u00c3\u00a1rboles de esta especie cra 23/ cll 47","natural":"tree"}},"type":"Feature"},
	{"geometry":{"coordinates":[-75.500304,5.064918],"type":"Point"},"properties":{"name":"Ficus benjamina","osm_id":"6335688502","tag":{"description":"23 \u00c3\u00a1rboles de esta especie cra 23/ cll 47","natural":"tree"}},"type":"Feature"},
	{"geometry":{"coordinates":[-75.500104,5.064835],"type":"Point"},"properties":{"name":"Liquidambar styraciflua","osm_id":"6335688503","tag":{"description":"10 \u00c3\u00a1rboles de esta especie cra 23/ cll 47","natural":"tree"}},"type":"Feature"},
	{"geometry":{"coordinates":[-75.499336,5.064763],"type":"Point"},"properties":{"name":"Liquidambar styraciflua","osm_id":"6335688504","tag":{"description":"2 \u00c3\u00a1rboles de esta especie cra 23/ cll 48","natural":"tree"}},"type":"Feature"},
	{"geometry":{"coordinates":[-75.499272,5.064618],"type":"Point"},"properties":{"name":"Fraxinus americana","osm_id":"6335688505","tag":{"description":"1 \u00c3\u00a1rbol de esta especie cra 23/ cll 48","natural":"tree"}},"type":"Feature"},
	{"geometry":{"coordinates":[-75.499237,5.064476],"type":"Point"},"properties":{"name":"Liquidambar styraciflua","osm_id":"6335688506","tag":{"description":"12 \u00c3\u00a1rboles de esta especie en la zona cra 23/ cll 48","natural":"tree"}},"type":"Feature"},
	{"geometry":{"coordinates":[-75.498588,5.064202],"type":"Point"},"properties":{"name":"Ficus benjamina","osm_id":"6335688507","tag":{"description":"14 \u00c3\u00a1rboles de esta especie en la zona cra 23/ cll 49","natural":"tree"}},"type":"Feature"},
	{"geometry":{"coordinates":[-75.498581,5.064128],"type":"Point"},"properties":{"name":"Liquidambar styraciflua","osm_id":"6335688508","tag":{"description":"4 \u00c3\u00a1rboles de esta especie en la zona cra 23/ cll 49","natural":"tree"}},"type":"Feature"},
	{"geometry":{"coordinates":[-75.498129,5.064089],"type":"Point"},"properties":{"name":"Liquidambar styraciflua","osm_id":"6335688509","tag":{"description":"6 \u00c3\u00a1rboles de esta especie en la zona cra 23/ cll 50","natural":"tree"}},"type":"Feature"},
	{"geometry":{"coordinates":[-75.509495,5.067085],"type":"Point"},"properties":{"name":"Array\u00c3\u00a1n de Manizales","osm_id":"6335700290","tag":{"description":"Especie: Lafoencia speciosa Zona: 1.300 - 2.900 m.s.n.m","natural":"tree"}},"type":"Feature"},
	{"geometry":{"coordinates":[-75.509347,5.066909],"type":"Point"},"properties":{"name":"Array\u00c3\u00a1n de Manizales","osm_id":"6335700292","tag":{"description":"Especie: Lafoencia speciosa Zona: 1.300 - 2.900 m.s.n.m","natural":"tree"}},"type":"Feature"},
	{"geometry":{"coordinates":[-75.50902,5.066656],"type":"Point"},"properties":{"name":"Array\u00c3\u00a1n de Manizales","osm_id":"6335700293","tag":{"description":"Especie: Lafoencia speciosa Zona: 1.300 - 2.900 m.s.n.m","natural":"tree"}},"type":"Feature"},
	{"geometry":{"coordinates":[-75.508827,5.066519],"type":"Point"},"properties":{"name":"Array\u00c3\u00a1n de Manizales","osm_id":"6335700294","tag":{"description":"Especie: Lafoencia speciosa Zona: 1.300 - 2.900 m.s.n.m","natural":"tree"}},"type":"Feature"},
	{"geometry":{"coordinates":[-75.508677,5.066386],"type":"Point"},"properties":{"name":"Array\u00c3\u00a1n de Manizales","osm_id":"6335700295","tag":{"description":"Especie: Lafoencia speciosa Zona: 1.300 - 2.900 m.s.n.m","natural":"tree"}},"type":"Feature"},
	{"geometry":{"coordinates":[-75.507074,5.065346],"type":"Point"},"properties":{"name":"San Joaqu\u00c3\u00adn (Arbusto)","osm_id":"6335700296","tag":{"description":"Especie: Hibiscus rosa - sinensis Cantidad: 44  Zona: 0 - 3.000 m.s.n.m","natural":"tree"}},"type":"Feature"},
	{"geometry":{"coordinates":[-75.506343,5.065287],"type":"Point"},"properties":{"name":"Array\u00c3\u00a1n de Manizales","osm_id":"6335700297","tag":{"description":"Especie: Lafoencia speciosa Zona: 1.300 - 2.900 m.s.n.m","natural":"tree"}},"type":"Feature"},
	{"geometry":{"coordinates":[-75.506209,5.065277],"type":"Point"},"properties":{"name":"San Joaqu\u00c3\u00adn (Arbusto)","osm_id":"6335700298","tag":{"description":"Especie: Hibiscus rosa - sinensis Cantidad: 60 Zona: 0 - 3.000 m.s.n.m","natural":"tree"}},"type":"Feature"},
	{"geometry":{"coordinates":[-75.505204,5.065198],"type":"Point"},"properties":{"name":"San Joaqu\u00c3\u00adn (Arbusto)","osm_id":"6335700299","tag":{"description":"Especie: Hibiscus rosa - sinensis Cantidad: 79 Zona: 0 - 3.000 m.s.n.m","natural":"tree"}},"type":"Feature"},
	{"geometry":{"coordinates":[-75.504919,5.06516],"type":"Point"},"properties":{"name":"Array\u00c3\u00a1n de Manizales","osm_id":"6335700300","tag":{"description":"Especie: Lafoencia speciosa Zona: 1.300 - 2.900 m.s.n.m","natural":"tree"}},"type":"Feature"},
	{"geometry":{"coordinates":[-75.504092,5.064981],"type":"Point"},"properties":{"name":"Array\u00c3\u00a1n de Manizales","osm_id":"6335700302","tag":{"description":"Especie: Lafoencia speciosa Zona: 1.300 - 2.900 m.s.n.m","natural":"tree"}},"type":"Feature"},
	{"geometry":{"coordinates":[-75.504003,5.064923],"type":"Point"},"properties":{"name":"Array\u00c3\u00a1n de Manizales","osm_id":"6335700303","tag":{"description":"Especie: Lafoencia speciosa Zona: 1.300 - 2.900 m.s.n.m","natural":"tree"}},"type":"Feature"},
	{"geometry":{"coordinates":[-75.503949,5.064854],"type":"Point"},"properties":{"name":"Array\u00c3\u00a1n de Manizales","osm_id":"6335700304","tag":{"description":"Especie: Lafoencia speciosa Zona: 1.300 - 2.900 m.s.n.m","natural":"tree"}},"type":"Feature"},
	{"geometry":{"coordinates":[-75.503905,5.064767],"type":"Point"},"properties":{"name":"Array\u00c3\u00a1n de Manizales (Cortado)","osm_id":"6335700305","tag":{"description":"Especie: Lafoencia speciosa  \u00c3\u0081rbol cortado","natural":"tree"}},"type":"Feature"},
	{"geometry":{"coordinates":[-75.504224,5.065037],"type":"Point"},"properties":{"name":"San Joaqu\u00c3\u00adn (Arbusto)","osm_id":"6335700306","tag":{"description":"Especie: Hibiscus rosa - sinensis Cantidad: 56 Zona: 0 - 3.000 m.s.n.m","natural":"tree"}},"type":"Feature"},
	{"geometry":{"coordinates":[-75.503859,5.064668],"type":"Point"},"properties":{"name":"Abutil\u00c3\u00b3n (Arbusto)","osm_id":"6335700307","tag":{"description":"Especie: Abutilon sp zona: 0 - 1000 m.s.n.m","natural":"tree"}},"type":"Feature"},
	{"geometry":{"coordinates":[-75.503595,5.064271],"type":"Point"},"properties":{"name":"Array\u00c3\u00a1n de Manizales","osm_id":"6335700308","tag":{"description":"Especie: Lafoencia speciosa Zona: 1.300 - 2.900 m.s.n.m","natural":"tree"}},"type":"Feature"},
	{"geometry":{"coordinates":[-75.503218,5.064298],"type":"Point"},"properties":{"name":"Pino Vela","osm_id":"6335700311","tag":{"description":"Especie: Cupressus sempervirens Cantidad: 5 Zona: 1.000 - 2.000 m.s.n.m","natural":"tree"}},"type":"Feature"},
	{"geometry":{"coordinates":[-75.503184,5.064374],"type":"Point"},"properties":{"name":"Palma Reina Alejandra","osm_id":"6335700312","tag":{"description":"Especie: Archontophoenix alexandrae Cantidad: 5 Zona: 0 - 2.000 m.s.n.m","natural":"tree"}},"type":"Feature"},
	{"geometry":{"coordinates":[-75.503154,5.064442],"type":"Point"},"properties":{"name":"Camar\u00c3\u00b3n (Arbusto)","osm_id":"6335700313","tag":{"description":"Especie: Pachystachys lutea  Zona: 15 - 25\u00c2\u00aa C","natural":"tree"}},"type":"Feature"},
	{"geometry":{"coordinates":[-75.502997,5.064632],"type":"Point"},"properties":{"name":"Pino Vela","osm_id":"6335700314","tag":{"description":"Especie: Cupressus sempervirens Cantidad: 4 Zona: 1.000 - 2.000 m.s.n.m","natural":"tree"}},"type":"Feature"},
	{"geometry":{"coordinates":[-75.503025,5.064564],"type":"Point"},"properties":{"name":"Palma Reina Alejandra","osm_id":"6335700315","tag":{"description":"Especie: Archontophoenix alexandrae Cantidad: 5 Zona: 0 - 2.000 m.s.n.m","natural":"tree"}},"type":"Feature"},
	{"geometry":{"coordinates":[-75.503039,5.064123],"type":"Point"},"properties":{"name":"\u00c3\u0081rbol cortado","osm_id":"6335700316","tag":{"description":"Especie: irreconocible","natural":"tree"}},"type":"Feature"},
	{"geometry":{"coordinates":[-75.502905,5.064132],"type":"Point"},"properties":{"name":"Array\u00c3\u00a1n de Manizales","osm_id":"6335700317","tag":{"description":"Especie: Lafoencia speciosa Zona: 1.300 - 2.900 m.s.n.m","natural":"tree"}},"type":"Feature"},
	{"geometry":{"coordinates":[-75.502788,5.064155],"type":"Point"},"properties":{"name":"Array\u00c3\u00a1n de Manizales","osm_id":"6335700318","tag":{"description":"Especie: Lafoencia speciosa Zona: 1.300 - 2.900 m.s.n.m","natural":"tree"}},"type":"Feature"},
	{"geometry":{"coordinates":[-75.502685,5.064179],"type":"Point"},"properties":{"name":"Array\u00c3\u00a1n de Manizales","osm_id":"6335700319","tag":{"description":"Especie: Lafoencia speciosa Zona: 1.300 - 2.900 m.s.n.m","natural":"tree"}},"type":"Feature"},
	{"geometry":{"coordinates":[-75.502583,5.064194],"type":"Point"},"properties":{"name":"San Joaqu\u00c3\u00adn (Arbusto)","osm_id":"6335700320","tag":{"description":"Especie: Hibiscus rosa - sinensis Cantidad: 32 Zona: 0 - 3.000 m.s.n.m","natural":"tree"}},"type":"Feature"},
	{"geometry":{"coordinates":[-75.502128,5.064134],"type":"Point"},"properties":{"name":"Array\u00c3\u00a1n de Manizales","osm_id":"6335700321","tag":{"description":"Especie: Lafoencia speciosa Zona: 1.300 - 2.900 m.s.n.m","natural":"tree"}},"type":"Feature"},
	{"geometry":{"coordinates":[-75.501905,5.064024],"type":"Point"},"properties":{"name":"San Joaqu\u00c3\u00adn (Arbusto)","osm_id":"6335700322","tag":{"description":"Especie: Hibiscus rosa - sinensis Cantidad: 76 Zona: 0 - 3.000 m.s.n.m","natural":"tree"}},"type":"Feature"},
	{"geometry":{"coordinates":[-75.500489,5.063473],"type":"Point"},"properties":{"name":"Ligustro","osm_id":"6335700323","tag":{"description":"Especie: Ligustrum lucidum Zona: 1.000 - 2.000 m.s.n.m","natural":"tree"}},"type":"Feature"},
	{"geometry":{"coordinates":[-75.501119,5.063698],"type":"Point"},"properties":{"name":"San Joaqu\u00c3\u00adn (Arbusto)","osm_id":"6335700324","tag":{"description":"Especie: Hibiscus rosa - sinensis Cantidad: 76 Zona: 0 - 3.000 m.s.n.m","natural":"tree"}},"type":"Feature"},
	{"geometry":{"coordinates":[-75.500036,5.063316],"type":"Point"},"properties":{"name":"San Joaqu\u00c3\u00adn (Arbusto)","osm_id":"6335700325","tag":{"description":"Especie: Hibiscus rosa - sinensis Cantidad: 79 Zona: 0 - 3.000 m.s.n.m","natural":"tree"}},"type":"Feature"},
	{"geometry":{"coordinates":[-75.500215,5.063414],"type":"Point"},"properties":{"name":"Array\u00c3\u00a1n de Manizales","osm_id":"6335700327","tag":{"description":"Especie: Lafoencia speciosa Zona: 1.300 - 2.900 m.s.n.m","natural":"tree"}},"type":"Feature"},
	{"geometry":{"coordinates":[-75.499882,5.063236],"type":"Point"},"properties":{"name":"Array\u00c3\u00a1n de Manizales","osm_id":"6335700328","tag":{"description":"Especie: Lafoencia speciosa Zona: 1.300 - 2.900 m.s.n.m","natural":"tree"}},"type":"Feature"},
	{"geometry":{"coordinates":[-75.499254,5.062921],"type":"Point"},"properties":{"name":"San Joaqu\u00c3\u00adn (Arbusto)","osm_id":"6335700329","tag":{"description":"Especie: Hibiscus rosa - sinensis Cantidad: 29 Zona: 0 - 3.000 m.s.n.m","natural":"tree"}},"type":"Feature"},
	{"geometry":{"coordinates":[-75.499097,5.062856],"type":"Point"},"properties":{"name":"Array\u00c3\u00a1n de Manizales","osm_id":"6335700330","tag":{"description":"Especie: Lafoencia speciosa Cantidad: 6 Zona: 1.300 - 2.900 m.s.n.m","natural":"tree"}},"type":"Feature"},
	{"geometry":{"coordinates":[-75.498484,5.062651],"type":"Point"},"properties":{"name":"Array\u00c3\u00a1n de Manizales","osm_id":"6335700331","tag":{"description":"Especie: Lafoencia speciosa Zona: 1.300 - 2.900 m.s.n.m","natural":"tree"}},"type":"Feature"},
	{"geometry":{"coordinates":[-75.498305,5.062647],"type":"Point"},"properties":{"name":"Array\u00c3\u00a1n de Manizales","osm_id":"6335700332","tag":{"description":"Especie: Lafoencia speciosa Zona: 1.300 - 2.900 m.s.n.m","natural":"tree"}},"type":"Feature"},
	{"geometry":{"coordinates":[-75.521012,5.068914],"type":"Point"},"properties":{"name":"Yucca elephantipes","osm_id":"6335700369","tag":{"denotation":"avenue","description":"Origen de especie: Mesoam\u00c3\u00a9rica, climas c\u00c3\u00a1lidos sin heladas o con heladas d\u00c3\u00a9biles (hasta -3\u00c2\u00ba) N\u00c3\u00bamero de especies: 1 en la calle 16","name:es":"Palma de yuca","natural":"tree"}},"type":"Feature"},
	{"geometry":{"coordinates":[-75.521217,5.068923],"type":"Point"},"properties":{"name":"bauhinia forficata","osm_id":"6335700370","tag":{"denotation":"avenue","description":"Origen de especie: Se encuentra en Argentina, Brasil, Paraguay, M\u00c3\u00a9xico, Uruguay y Colombia N\u00c3\u00bamero de especies: 9 entre la 16-17","name:es":"Casco de buey","natural":"tree"}},"type":"Feature"},
	{"geometry":{"coordinates":[-75.520986,5.068917],"type":"Point"},"properties":{"osm_id":"6335700371","tag":{"description":"Origen de especie: Eurasia, crece a orillas del agua dulce en suelos permanentemente inundados N\u00c3\u00bamero de especies: 16 en la calle 16","natural":"tree"}},"type":"Feature"},
	{"geometry":{"coordinates":[-75.521029,5.068949],"type":"Point"},"properties":{"name":"Yucca elephantipes","osm_id":"6335700372","tag":{"denotation":"avenue","description":"Origen de especie: Mesoam\u00c3\u00a9rica, climas c\u00c3\u00a1lidos sin heladas o con heladas d\u00c3\u00a9biles (hasta -3\u00c2\u00ba) N\u00c3\u00bamero de especies: 1 en la calle 16","name:es":"Palma de yuca","natural":"tree"}},"type":"Feature"},
	{"geometry":{"coordinates":[-75.521045,5.068923],"type":"Point"},"properties":{"name":"Yucca elephantipes","osm_id":"6335700373","tag":{"denotation":"avenue","description":"Origen de especie: Mesoam\u00c3\u00a9rica, climas c\u00c3\u00a1lidos sin heladas o con heladas d\u00c3\u00a9biles (hasta -3\u00c2\u00ba) N\u00c3\u00bamero de especies: 1 en la calle 16","name:es":"Palma de yuca","natural":"tree"}},"type":"Feature"},
	{"geometry":{"coordinates":[-75.521029,5.068905],"type":"Point"},"properties":{"name":"Yucca elephantipes","osm_id":"6335700374","tag":{"denotation":"avenue","description":"Origen de especie: Mesoam\u00c3\u00a9rica, climas c\u00c3\u00a1lidos sin heladas o con heladas d\u00c3\u00a9biles (hasta -3\u00c2\u00ba) N\u00c3\u00bamero de especies: 1 en la calle 16","name:es":"Palma de yuca","natural":"tree"}},"type":"Feature"},
	{"geometry":{"coordinates":[-75.521409,5.068762],"type":"Point"},"properties":{"name":"bauhinia forficata","osm_id":"6335700375","tag":{"denotation":"avenue","description":"Origen de especie: Se encuentra en Argentina, Brasil, Paraguay, M\u00c3\u00a9xico, Uruguay y Colombia N\u00c3\u00bamero de especies: 9 entre la 16-17","name:es":"Casco de buey","natural":"tree"}},"type":"Feature"},
	{"geometry":{"coordinates":[-75.521525,5.068653],"type":"Point"},"properties":{"name":"bauhinia forficata","osm_id":"6335700376","tag":{"denotation":"avenue","description":"Origen de especie: Se encuentra en Argentina, Brasil, Paraguay, M\u00c3\u00a9xico, Uruguay y Colombia N\u00c3\u00bamero de especies: 9 entre la 16-17","name:es":"Casco de buey","natural":"tree"}},"type":"Feature"},
	{"geometry":{"coordinates":[-75.521669,5.068526],"type":"Point"},"properties":{"name":"bauhinia forficata","osm_id":"6335700377","tag":{"denotation":"avenue","description":"Origen de especie: Se encuentra en Argentina, Brasil, Paraguay, M\u00c3\u00a9xico, Uruguay y Colombia N\u00c3\u00bamero de especies: 9 entre la 16-17","name:es":"Casco de buey","natural":"tree"}},"type":"Feature"},
	{"geometry":{"coordinates":[-75.521873,5.068349],"type":"Point"},"properties":{"name":"bauhinia forficata","osm_id":"6335700378","tag":{"denotation":"avenue","description":"Origen de especie: Se encuentra en Argentina, Brasil, Paraguay, M\u00c3\u00a9xico, Uruguay y Colombia N\u00c3\u00bamero de especies: 9 entre la 16-17","name:es":"Casco de buey","natural":"tree"}},"type":"Feature"},
	{"geometry":{"coordinates":[-75.522044,5.068201],"type":"Point"},"properties":{"name":"bauhinia forficata","osm_id":"6335700379","tag":{"denotation":"avenue","description":"Origen de especie: Se encuentra en Argentina, Brasil, Paraguay, M\u00c3\u00a9xico, Uruguay y Colombia N\u00c3\u00bamero de especies: 9 entre la 16-17","name:es":"Casco de buey","natural":"tree"}},"type":"Feature"},
	{"geometry":{"coordinates":[-75.522175,5.068091],"type":"Point"},"properties":{"name":"bauhinia forficata","osm_id":"6335700380","tag":{"denotation":"avenue","description":"Origen de especie: Se encuentra en Argentina, Brasil, Paraguay, M\u00c3\u00a9xico, Uruguay y Colombia N\u00c3\u00bamero de especies: 9 entre la 16-17","name:es":"Casco de buey","natural":"tree"}},"type":"Feature"},
	{"geometry":{"coordinates":[-75.522297,5.067977],"type":"Point"},"properties":{"name":"bauhinia forficata","osm_id":"6335700381","tag":{"denotation":"avenue","description":"Origen de especie: Se encuentra en Argentina, Brasil, Paraguay, M\u00c3\u00a9xico, Uruguay y Colombia N\u00c3\u00bamero de especies: 9 entre la 16-17","name:es":"Casco de buey","natural":"tree"}},"type":"Feature"},
	{"geometry":{"coordinates":[-75.522408,5.067879],"type":"Point"},"properties":{"name":"bauhinia forficata","osm_id":"6335700382","tag":{"denotation":"avenue","description":"Origen de especie: Se encuentra en Argentina, Brasil, Paraguay, M\u00c3\u00a9xico, Uruguay y Colombia N\u00c3\u00bamero de especies: 9 entre la 16-17","name:es":"Casco de buey","natural":"tree"}},"type":"Feature"},
	{"geometry":{"coordinates":[-75.522642,5.067715],"type":"Point"},"properties":{"name":"Yucca elephantipes","osm_id":"6335712404","tag":{"denotation":"avenue","description":"Origen de especie: Mesoam\u00c3\u00a9rica, climas c\u00c3\u00a1lidos sin heladas o con heladas d\u00c3\u00a9biles (hasta -3\u00c2\u00ba) N\u00c3\u00bamero de especies: 14 entre la 15-14","name:es":"Palma de yuca","natural":"tree"}},"type":"Feature"},
	{"geometry":{"coordinates":[-75.50859,5.066309],"type":"Point"},"properties":{"name":"Array\u00c3\u00a1n de Manizales - Lafoencia speciosa","osm_id":"6335728922","tag":{"natural":"tree"}},"type":"Feature"},
	{"geometry":{"coordinates":[-75.50916,5.066735],"type":"Point"},"properties":{"name":"Array\u00c3\u00a1n de Manizales - Lafoencia speciosa","osm_id":"6335728923","tag":{"natural":"tree"}},"type":"Feature"},
	{"geometry":{"coordinates":[-75.509233,5.066785],"type":"Point"},"properties":{"name":"Array\u00c3\u00a1n de Manizales - Lafoencia speciosa","osm_id":"6335728924","tag":{"natural":"tree"}},"type":"Feature"},
	{"geometry":{"coordinates":[-75.50931,5.066854],"type":"Point"},"properties":{"name":"Array\u00c3\u00a1n de Manizales - Lafoencia speciosa","osm_id":"6335728925","tag":{"natural":"tree"}},"type":"Feature"},
	{"geometry":{"coordinates":[-75.509359,5.066902],"type":"Point"},"properties":{"name":"Array\u00c3\u00a1n de Manizales - Lafoencia speciosa","osm_id":"6335728926","tag":{"natural":"tree"}},"type":"Feature"},
	{"geometry":{"coordinates":[-75.507767,5.065644],"type":"Point"},"properties":{"name":"San Joaqu\u00c3\u00adn (Arbusto) - Hibiscus rosa - sinensis","osm_id":"6335728927","tag":{"natural":"tree"}},"type":"Feature"},
	{"geometry":{"coordinates":[-75.506874,5.065296],"type":"Point"},"properties":{"name":"Array\u00c3\u00a1n de Manizales - Lafoencia speciosa","osm_id":"6335728929","tag":{"natural":"tree"}},"type":"Feature"},
	{"geometry":{"coordinates":[-75.506765,5.065289],"type":"Point"},"properties":{"name":"San Joaqu\u00c3\u00adn (Arbusto) - Hibiscus rosa - sinensis","osm_id":"6335728930","tag":{"natural":"tree"}},"type":"Feature"},
	{"geometry":{"coordinates":[-75.506137,5.065252],"type":"Point"},"properties":{"name":"San Joaqu\u00c3\u00adn (Arbusto) - Hibiscus rosa - sinensis","osm_id":"6335728931","tag":{"natural":"tree"}},"type":"Feature"},
	{"geometry":{"coordinates":[-75.505893,5.065234],"type":"Point"},"properties":{"name":"Array\u00c3\u00a1n de Manizales - Lafoencia speciosa","osm_id":"6335728932","tag":{"natural":"tree"}},"type":"Feature"},
	{"geometry":{"coordinates":[-75.505282,5.065187],"type":"Point"},"properties":{"name":"San Joaqu\u00c3\u00adn (Arbusto) - Hibiscus rosa - sinensis","osm_id":"6335728934","tag":{"natural":"tree"}},"type":"Feature"},
	{"geometry":{"coordinates":[-75.505158,5.065169],"type":"Point"},"properties":{"name":"Array\u00c3\u00a1n de Manizales - Lafoencia speciosa","osm_id":"6335728935","tag":{"natural":"tree"}},"type":"Feature"},
	{"geometry":{"coordinates":[-75.50506,5.065156],"type":"Point"},"properties":{"osm_id":"6335728936","tag":{"natural":"tree"}},"type":"Feature"},
	{"geometry":{"coordinates":[-75.504735,5.065109],"type":"Point"},"properties":{"name":"Array\u00c3\u00a1n de Manizales - Lafoencia speciosa","osm_id":"6335728937","tag":{"natural":"tree"}},"type":"Feature"},
	{"geometry":{"coordinates":[-75.50462,5.06509],"type":"Point"},"properties":{"name":"Array\u00c3\u00a1n de Manizales - Lafoencia speciosa","osm_id":"6335728938","tag":{"natural":"tree"}},"type":"Feature"},
	{"geometry":{"coordinates":[-75.504834,5.065124],"type":"Point"},"properties":{"name":"San Joaqu\u00c3\u00adn (Arbusto) - Hibiscus rosa - sinensis","osm_id":"6335728939","tag":{"natural":"tree"}},"type":"Feature"},
	{"geometry":{"coordinates":[-75.504531,5.065076],"type":"Point"},"properties":{"name":"Abutil\u00c3\u00b3n (Arbusto) - Abutilon sp","osm_id":"6335728940","tag":{"natural":"tree"}},"type":"Feature"},
	{"geometry":{"coordinates":[-75.504153,5.064972],"type":"Point"},"properties":{"name":"Lirios (Jard\u00c3\u00adn) - Iris pseudacorus","osm_id":"6335728941","tag":{"natural":"tree"}},"type":"Feature"},
	{"geometry":{"coordinates":[-75.50395,5.064791],"type":"Point"},"properties":{"name":"Array\u00c3\u00a1n de Manizales - Lafoencia speciosa","osm_id":"6335728943","tag":{"natural":"tree"}},"type":"Feature"},
	{"geometry":{"coordinates":[-75.502865,5.065041],"type":"Point"},"properties":{"name":"Pino Vela - Cupressus sempervirens","osm_id":"6335728944","tag":{"natural":"tree"}},"type":"Feature"},
	{"geometry":{"coordinates":[-75.502918,5.06498],"type":"Point"},"properties":{"name":"Pino Vela - Cupressus sempervirens","osm_id":"6335728945","tag":{"natural":"tree"}},"type":"Feature"},
	{"geometry":{"coordinates":[-75.502661,5.065474],"type":"Point"},"properties":{"name":"Pino Vela - Cupressus sempervirens","osm_id":"6335728946","tag":{"natural":"tree"}},"type":"Feature"},
	{"geometry":{"coordinates":[-75.50273,5.065389],"type":"Point"},"properties":{"name":"Pino Vela - Cupressus sempervirens","osm_id":"6335728947","tag":{"natural":"tree"}},"type":"Feature"},
	{"geometry":{"coordinates":[-75.502796,5.065151],"type":"Point"},"properties":{"name":"Pino Vela - Cupressus sempervirens","osm_id":"6335728948","tag":{"natural":"tree"}},"type":"Feature"},
	{"geometry":{"coordinates":[-75.50277,5.065314],"type":"Point"},"properties":{"name":"Palma Reina Alejandra - Archontophoenix alexandrae","osm_id":"6335728949","tag":{"natural":"tree"}},"type":"Feature"},
	{"geometry":{"coordinates":[-75.502703,5.065463],"type":"Point"},"properties":{"name":"Palma Reina Alejandra - Archontophoenix alexandrae","osm_id":"6335728950","tag":{"natural":"tree"}},"type":"Feature"},
	{"geometry":{"coordinates":[-75.502669,5.065375],"type":"Point"},"properties":{"name":"Palma Reina Alejandra - Archontophoenix alexandrae","osm_id":"6335728951","tag":{"natural":"tree"}},"type":"Feature"},
	{"geometry":{"coordinates":[-75.502619,5.065481],"type":"Point"},"properties":{"name":"Palma Reina Alejandra - Archontophoenix alexandrae","osm_id":"6335728952","tag":{"natural":"tree"}},"type":"Feature"},
	{"geometry":{"coordinates":[-75.502732,5.065239],"type":"Point"},"properties":{"name":"Camar\u00c3\u00b3n (Arbusto) - Pachystachys lutea","osm_id":"6335728953","tag":{"natural":"tree"}},"type":"Feature"},
	{"geometry":{"coordinates":[-75.502891,5.064899],"type":"Point"},"properties":{"name":"Palma Reina Alejandra - Archontophoenix alexandrae","osm_id":"6335728954","tag":{"natural":"tree"}},"type":"Feature"},
	{"geometry":{"coordinates":[-75.502968,5.064868],"type":"Point"},"properties":{"osm_id":"6335728955","tag":{"natural":"tree"}},"type":"Feature"},
	{"geometry":{"coordinates":[-75.503034,5.06464],"type":"Point"},"properties":{"name":"Pino Vela - Cupressus sempervirens","osm_id":"6335728956","tag":{"natural":"tree"}},"type":"Feature"},
	{"geometry":{"coordinates":[-75.503075,5.064541],"type":"Point"},"properties":{"name":"Pino Vela - Cupressus sempervirens","osm_id":"6335728957","tag":{"natural":"tree"}},"type":"Feature"},
	{"geometry":{"coordinates":[-75.503118,5.064442],"type":"Point"},"properties":{"name":"Pino Vela - Cupressus sempervirens","osm_id":"6335728958","tag":{"natural":"tree"}},"type":"Feature"},
	{"geometry":{"coordinates":[-75.503171,5.06432],"type":"Point"},"properties":{"name":"Pino Vela - Cupressus sempervirens","osm_id":"6335728959","tag":{"natural":"tree"}},"type":"Feature"},
	{"geometry":{"coordinates":[-75.503111,5.064541],"type":"Point"},"properties":{"name":"Palma Reina Alejandra - Archontophoenix alexandrae","osm_id":"6335728960","tag":{"natural":"tree"}},"type":"Feature"},
	{"geometry":{"coordinates":[-75.503157,5.064436],"type":"Point"},"properties":{"name":"Palma Reina Alejandra - Archontophoenix alexandrae","osm_id":"6335728961","tag":{"natural":"tree"}},"type":"Feature"},
	{"geometry":{"coordinates":[-75.503241,5.064244],"type":"Point"},"properties":{"name":"Palma Reina Alejandra - Archontophoenix alexandrae","osm_id":"6335728962","tag":{"natural":"tree"}},"type":"Feature"},
	{"geometry":{"coordinates":[-75.503019,5.0646],"type":"Point"},"properties":{"name":"Palma Reina Alejandra - Archontophoenix alexandrae","osm_id":"6335728963","tag":{"natural":"tree"}},"type":"Feature"},
	{"geometry":{"coordinates":[-75.503108,5.064372],"type":"Point"},"properties":{"name":"Palma Reina Alejandra - Archontophoenix alexandrae","osm_id":"6335728964","tag":{"natural":"tree"}},"type":"Feature"},
	{"geometry":{"coordinates":[-75.503006,5.064083],"type":"Point"},"properties":{"osm_id":"6335728965","tag":{"natural":"tree"}},"type":"Feature"},
	{"geometry":{"coordinates":[-75.502882,5.064106],"type":"Point"},"properties":{"name":"Array\u00c3\u00a1n de Manizales - Lafoencia speciosa","osm_id":"6335728966","tag":{"natural":"tree"}},"type":"Feature"},
	{"geometry":{"coordinates":[-75.502465,5.064169],"type":"Point"},"properties":{"name":"Array\u00c3\u00a1n de Manizales - Lafoencia speciosa","osm_id":"6335728967","tag":{"natural":"tree"}},"type":"Feature"},
	{"geometry":{"coordinates":[-75.502634,5.064149],"type":"Point"},"properties":{"name":"Array\u00c3\u00a1n de Manizales - Lafoencia speciosa","osm_id":"6335728968","tag":{"natural":"tree"}},"type":"Feature"},
	{"geometry":{"coordinates":[-75.502764,5.064127],"type":"Point"},"properties":{"name":"San Joaqu\u00c3\u00adn (Arbusto) - Hibiscus rosa - sinensis","osm_id":"6335728969","tag":{"natural":"tree"}},"type":"Feature"},
	{"geometry":{"coordinates":[-75.501946,5.064],"type":"Point"},"properties":{"name":"San Joaqu\u00c3\u00adn (Arbusto) - Hibiscus rosa - sinensis","osm_id":"6335728970","tag":{"natural":"tree"}},"type":"Feature"},
	{"geometry":{"coordinates":[-75.502069,5.06406],"type":"Point"},"properties":{"name":"Array\u00c3\u00a1n de Manizales - Lafoencia speciosa","osm_id":"6335728971","tag":{"natural":"tree"}},"type":"Feature"},
	{"geometry":{"coordinates":[-75.500254,5.063478],"type":"Point"},"properties":{"name":"Ligustro - Ligustrum lucidum","osm_id":"6335728972","tag":{"natural":"tree"}},"type":"Feature"},
	{"geometry":{"coordinates":[-75.500343,5.063526],"type":"Point"},"properties":{"name":"Ligustro - Ligustrum lucidum","osm_id":"6335728973","tag":{"natural":"tree"}},"type":"Feature"},
	{"geometry":{"coordinates":[-75.500423,5.063569],"type":"Point"},"properties":{"name":"Ligustro - Ligustrum lucidum","osm_id":"6335728974","tag":{"natural":"tree"}},"type":"Feature"},
	{"geometry":{"coordinates":[-75.500524,5.063598],"type":"Point"},"properties":{"name":"Ligustro - Ligustrum lucidum","osm_id":"6335728975","tag":{"natural":"tree"}},"type":"Feature"},
	{"geometry":{"coordinates":[-75.500854,5.063702],"type":"Point"},"properties":{"name":"San Joaqu\u00c3\u00adn (Arbusto) - Hibiscus rosa - sinensis","osm_id":"6335728976","tag":{"natural":"tree"}},"type":"Feature"},
	{"geometry":{"coordinates":[-75.500113,5.063402],"type":"Point"},"properties":{"name":"Array\u00c3\u00a1n de Manizales - Lafoencia speciosa","osm_id":"6335728978","tag":{"natural":"tree"}},"type":"Feature"},
	{"geometry":{"coordinates":[-75.49973,5.063141],"type":"Point"},"properties":{"name":"Array\u00c3\u00a1n de Manizales - Lafoencia speciosa","osm_id":"6335728979","tag":{"natural":"tree"}},"type":"Feature"},
	{"geometry":{"coordinates":[-75.500028,5.063318],"type":"Point"},"properties":{"name":"San Joaqu\u00c3\u00adn (Arbusto) - Hibiscus rosa - sinensis","osm_id":"6335728980","tag":{"natural":"tree"}},"type":"Feature"},
	{"geometry":{"coordinates":[-75.49911,5.062863],"type":"Point"},"properties":{"name":"San Joaqu\u00c3\u00adn (Arbusto) - Hibiscus rosa - sinensis","osm_id":"6335728981","tag":{"natural":"tree"}},"type":"Feature"},
	{"geometry":{"coordinates":[-75.499462,5.062992],"type":"Point"},"properties":{"name":"Array\u00c3\u00a1n de Manizales - Lafoencia speciosa","osm_id":"6335728982","tag":{"natural":"tree"}},"type":"Feature"},
	{"geometry":{"coordinates":[-75.499362,5.062931],"type":"Point"},"properties":{"name":"Array\u00c3\u00a1n de Manizales - Lafoencia speciosa","osm_id":"6335728983","tag":{"natural":"tree"}},"type":"Feature"},
	{"geometry":{"coordinates":[-75.49921,5.062914],"type":"Point"},"properties":{"name":"Array\u00c3\u00a1n de Manizales - Lafoencia speciosa","osm_id":"6335728984","tag":{"natural":"tree"}},"type":"Feature"},
	{"geometry":{"coordinates":[-75.499049,5.062867],"type":"Point"},"properties":{"name":"Array\u00c3\u00a1n de Manizales - Lafoencia speciosa","osm_id":"6335729185","tag":{"natural":"tree"}},"type":"Feature"},
	{"geometry":{"coordinates":[-75.498984,5.062791],"type":"Point"},"properties":{"name":"Array\u00c3\u00a1n de Manizales - Lafoencia speciosa","osm_id":"6335729186","tag":{"natural":"tree"}},"type":"Feature"},
	{"geometry":{"coordinates":[-75.498802,5.062727],"type":"Point"},"properties":{"name":"Array\u00c3\u00a1n de Manizales - Lafoencia speciosa","osm_id":"6335729187","tag":{"natural":"tree"}},"type":"Feature"},
	{"geometry":{"coordinates":[-75.498282,5.062685],"type":"Point"},"properties":{"name":"Array\u00c3\u00a1n de Manizales - Lafoencia speciosa","osm_id":"6335729188","tag":{"natural":"tree"}},"type":"Feature"},
	{"geometry":{"coordinates":[-75.521776,5.076354],"type":"Point"},"properties":{"osm_id":"7775732505","tag":{"natural":"tree"}},"type":"Feature"},
	{"geometry":{"coordinates":[-75.521742,5.076479],"type":"Point"},"properties":{"osm_id":"7775732506","tag":{"natural":"tree"}},"type":"Feature"},
	{"geometry":{"coordinates":[-75.503754,5.064798],"type":"Point"},"properties":{"name":"Abutil\u00c3\u00b3n (Arbusto)","osm_id":"7813691022","tag":{"description":"Especie: Abutilon sp zona: 0 - 1000 m.s.n.m","natural":"tree"}},"type":"Feature"},
	{"geometry":{"coordinates":[-75.525519,5.07281],"type":"Point"},"properties":{"osm_id":"7829825062","tag":{"natural":"tree"}},"type":"Feature"},
	{"geometry":{"coordinates":[-75.52546,5.072796],"type":"Point"},"properties":{"osm_id":"7829825063","tag":{"natural":"tree"}},"type":"Feature"},
	{"geometry":{"coordinates":[-75.525506,5.07274],"type":"Point"},"properties":{"osm_id":"7829825064","tag":{"natural":"tree"}},"type":"Feature"},
	{"geometry":{"coordinates":[-75.525452,5.072732],"type":"Point"},"properties":{"osm_id":"7829825065","tag":{"natural":"tree"}},"type":"Feature"}
]
}
