{
"type": "FeatureCollection",
"features": [
	{"geometry":{"coordinates":[8.89972,54.218004],"type":"Point"},"properties":{"osm_id":"600410576","tag":{"amenity":"waste_basket"}},"type":"Feature"},
	{"geometry":{"coordinates":[8.90025,54.21829],"type":"Point"},"properties":{"osm_id":"600410583","tag":{"amenity":"waste_basket"}},"type":"Feature"},
	{"geometry":{"coordinates":[8.92832,54.244034],"type":"Point"},"properties":{"osm_id":"676876360","tag":{"amenity":"waste_basket"}},"type":"Feature"},
	{"geometry":{"coordinates":[8.928384,54.243918],"type":"Point"},"properties":{"osm_id":"676876374","tag":{"amenity":"waste_basket"}},"type":"Feature"},
	{"geometry":{"coordinates":[8.935871,54.251797],"type":"Point"},"properties":{"osm_id":"677596400","tag":{"amenity":"waste_basket"}},"type":"Feature"},
	{"geometry":{"coordinates":[8.934304,54.264817],"type":"Point"},"properties":{"osm_id":"677736950","tag":{"amenity":"waste_basket"}},"type":"Feature"},
	{"geometry":{"coordinates":[8.92189,54.215397],"type":"Point"},"properties":{"osm_id":"3682280517","tag":{"amenity":"recycling","operator":"Abfallwirtschaft Dithmarschen","recycling:glass_bottles":"yes","recycling_type":"container"}},"type":"Feature"}
]
}
