{
"type": "FeatureCollection",
"features": [
	{"geometry":{"coordinates":[8.942034,53.990973],"type":"Point"},"properties":{"osm_id":"1693212762","tag":{"amenity":"recycling","operator":"Abfallwirtschaft Dithmarschen","recycling:glass_bottles":"yes","recycling_type":"container"}},"type":"Feature"},
	{"geometry":{"coordinates":[8.964529,53.970718],"type":"Point"},"properties":{"osm_id":"1861668246","tag":{"amenity":"recycling","operator":"Abfallwirtschaft Dithmarschen","recycling:glass_bottles":"yes","recycling_type":"container"}},"type":"Feature"},
	{"geometry":{"coordinates":[8.922643,53.97408],"type":"Point"},"properties":{"osm_id":"1875877172","tag":{"amenity":"recycling","operator":"Abfallwirtschaft Dithmarschen","recycling:glass_bottles":"yes","recycling_type":"container"}},"type":"Feature"},
	{"geometry":{"coordinates":[8.881108,54.003405],"type":"Point"},"properties":{"osm_id":"2439633937","tag":{"amenity":"waste_basket"}},"type":"Feature"},
	{"geometry":{"coordinates":[8.88369,54.004129],"type":"Point"},"properties":{"osm_id":"3146942611","tag":{"amenity":"recycling","operator":"Abfallwirtschaft Dithmarschen","recycling:glass_bottles":"yes","recycling:small_appliances":"yes","recycling_type":"container"}},"type":"Feature"},
	{"geometry":{"coordinates":[8.881439,54.007587],"type":"Point"},"properties":{"osm_id":"3146942612","tag":{"amenity":"recycling","operator":"Abfallwirtschaft Dithmarschen","recycling:glass_bottles":"yes","recycling_type":"container"}},"type":"Feature"},
	{"geometry":{"coordinates":[8.942017,53.990991],"type":"Point"},"properties":{"osm_id":"3532349944","tag":{"amenity":"recycling","operator":"Aktex Rohstoff-Recycling Nord","recycling:clothes":"yes","recycling_type":"container","website":"http://www.aktex-textilhandel.de"}},"type":"Feature"},
	{"geometry":{"coordinates":[8.964457,53.970721],"type":"Point"},"properties":{"osm_id":"3691585875","tag":{"amenity":"recycling","operator":"Deutsches Rotes Kreuz","recycling:clothes":"yes","recycling_type":"container"}},"type":"Feature"},
	{"geometry":{"coordinates":[8.881404,54.007615],"type":"Point"},"properties":{"osm_id":"3737708714","tag":{"amenity":"recycling","operator":"Aktex Rohstoff-Recycling Nord","recycling:clothes":"yes","recycling_type":"container","website":"http://www.aktex-textilhandel.de"}},"type":"Feature"}
]
}
