{
"type": "FeatureCollection",
"features": [
	{"geometry":{"coordinates":[8.91306,52.238018],"type":"Point"},"properties":{"osm_id":"366652474","tag":{"amenity":"recycling","recycling_type":"container"}},"type":"Feature"},
	{"geometry":{"coordinates":[8.911111,52.261806],"type":"Point"},"properties":{"osm_id":"447801472","tag":{"amenity":"recycling","recycling:glass":"yes"}},"type":"Feature"},
	{"geometry":{"coordinates":[8.897152,52.237562],"type":"Point"},"properties":{"osm_id":"700958758","tag":{"amenity":"waste_basket"}},"type":"Feature"},
	{"geometry":{"coordinates":[8.897914,52.232976],"type":"Point"},"properties":{"osm_id":"700958760","tag":{"amenity":"waste_basket"}},"type":"Feature"},
	{"geometry":{"coordinates":[8.897083,52.236926],"type":"Point"},"properties":{"osm_id":"700958778","tag":{"amenity":"waste_basket"}},"type":"Feature"},
	{"geometry":{"coordinates":[8.899573,52.238416],"type":"Point"},"properties":{"osm_id":"700958779","tag":{"amenity":"waste_basket"}},"type":"Feature"},
	{"geometry":{"coordinates":[8.896092,52.23609],"type":"Point"},"properties":{"osm_id":"700958780","tag":{"amenity":"waste_basket"}},"type":"Feature"},
	{"geometry":{"coordinates":[8.898013,52.234909],"type":"Point"},"properties":{"osm_id":"700958781","tag":{"amenity":"waste_basket"}},"type":"Feature"},
	{"geometry":{"coordinates":[8.905865,52.235941],"type":"Point"},"properties":{"osm_id":"716358426","tag":{"amenity":"waste_basket"}},"type":"Feature"},
	{"geometry":{"coordinates":[8.907497,52.237765],"type":"Point"},"properties":{"osm_id":"716358438","tag":{"amenity":"waste_basket"}},"type":"Feature"},
	{"geometry":{"coordinates":[8.88804,52.260455],"type":"Point"},"properties":{"osm_id":"770647602","tag":{"amenity":"waste_basket"}},"type":"Feature"},
	{"geometry":{"coordinates":[8.890782,52.25958],"type":"Point"},"properties":{"osm_id":"770647609","tag":{"amenity":"waste_basket"}},"type":"Feature"},
	{"geometry":{"coordinates":[8.889111,52.260514],"type":"Point"},"properties":{"osm_id":"770647612","tag":{"amenity":"waste_basket"}},"type":"Feature"},
	{"geometry":{"coordinates":[8.88748,52.260544],"type":"Point"},"properties":{"osm_id":"770647614","tag":{"amenity":"waste_basket"}},"type":"Feature"},
	{"geometry":{"coordinates":[8.889555,52.259476],"type":"Point"},"properties":{"osm_id":"770647616","tag":{"amenity":"waste_basket"}},"type":"Feature"},
	{"geometry":{"coordinates":[8.89083,52.25972],"type":"Point"},"properties":{"osm_id":"770647624","tag":{"amenity":"waste_basket"}},"type":"Feature"},
	{"geometry":{"coordinates":[8.890744,52.260938],"type":"Point"},"properties":{"osm_id":"770647625","tag":{"amenity":"waste_basket"}},"type":"Feature"},
	{"geometry":{"coordinates":[8.890802,52.26063],"type":"Point"},"properties":{"osm_id":"770647639","tag":{"amenity":"waste_basket"}},"type":"Feature"},
	{"geometry":{"coordinates":[8.891011,52.260475],"type":"Point"},"properties":{"osm_id":"770647665","tag":{"amenity":"waste_basket"}},"type":"Feature"},
	{"geometry":{"coordinates":[8.887867,52.260721],"type":"Point"},"properties":{"osm_id":"770647721","tag":{"amenity":"waste_basket"}},"type":"Feature"},
	{"geometry":{"coordinates":[8.889059,52.260675],"type":"Point"},"properties":{"osm_id":"770647724","tag":{"amenity":"waste_basket"}},"type":"Feature"},
	{"geometry":{"coordinates":[8.89103,52.261022],"type":"Point"},"properties":{"osm_id":"770647755","tag":{"amenity":"waste_basket"}},"type":"Feature"},
	{"geometry":{"coordinates":[8.886753,52.260631],"type":"Point"},"properties":{"osm_id":"770647757","tag":{"amenity":"waste_basket"}},"type":"Feature"},
	{"geometry":{"coordinates":[8.891491,52.260612],"type":"Point"},"properties":{"osm_id":"770647785","tag":{"amenity":"waste_basket"}},"type":"Feature"},
	{"geometry":{"coordinates":[8.890691,52.260744],"type":"Point"},"properties":{"osm_id":"770647788","tag":{"amenity":"waste_basket"}},"type":"Feature"},
	{"geometry":{"coordinates":[8.889341,52.260295],"type":"Point"},"properties":{"osm_id":"770647806","tag":{"amenity":"waste_basket"}},"type":"Feature"},
	{"geometry":{"coordinates":[8.8915,52.260634],"type":"Point"},"properties":{"osm_id":"770647812","tag":{"amenity":"waste_basket"}},"type":"Feature"},
	{"geometry":{"coordinates":[8.890599,52.260651],"type":"Point"},"properties":{"osm_id":"770647816","tag":{"amenity":"waste_basket"}},"type":"Feature"},
	{"geometry":{"coordinates":[8.887792,52.260848],"type":"Point"},"properties":{"osm_id":"770647824","tag":{"amenity":"waste_basket"}},"type":"Feature"},
	{"geometry":{"coordinates":[8.888642,52.260369],"type":"Point"},"properties":{"osm_id":"770647842","tag":{"amenity":"waste_basket"}},"type":"Feature"},
	{"geometry":{"coordinates":[8.958425,52.236601],"type":"Point"},"properties":{"osm_id":"799518498","tag":{"amenity":"waste_basket"}},"type":"Feature"},
	{"geometry":{"coordinates":[8.952168,52.237712],"type":"Point"},"properties":{"osm_id":"799518521","tag":{"amenity":"waste_basket"}},"type":"Feature"},
	{"geometry":{"coordinates":[8.951441,52.237723],"type":"Point"},"properties":{"osm_id":"1152677048","tag":{"amenity":"waste_basket"}},"type":"Feature"},
	{"geometry":{"coordinates":[8.962545,52.234485],"type":"Point"},"properties":{"osm_id":"1152678204","tag":{"amenity":"waste_basket"}},"type":"Feature"},
	{"geometry":{"coordinates":[8.951299,52.237801],"type":"Point"},"properties":{"osm_id":"1152678317","tag":{"amenity":"waste_basket"}},"type":"Feature"},
	{"geometry":{"coordinates":[8.896481,52.260099],"type":"Point"},"properties":{"osm_id":"1159114634","tag":{"amenity":"waste_basket"}},"type":"Feature"},
	{"geometry":{"coordinates":[8.897582,52.26],"type":"Point"},"properties":{"osm_id":"1159114678","tag":{"amenity":"waste_basket"}},"type":"Feature"},
	{"geometry":{"coordinates":[8.898865,52.260431],"type":"Point"},"properties":{"osm_id":"1159114785","tag":{"amenity":"recycling","location":"overground","recycling:clothes":"yes","recycling_type":"container"}},"type":"Feature"},
	{"geometry":{"coordinates":[8.896613,52.260123],"type":"Point"},"properties":{"osm_id":"1159115210","tag":{"amenity":"waste_basket"}},"type":"Feature"},
	{"geometry":{"coordinates":[8.896539,52.260126],"type":"Point"},"properties":{"osm_id":"1159115365","tag":{"amenity":"waste_basket"}},"type":"Feature"},
	{"geometry":{"coordinates":[8.916144,52.256132],"type":"Point"},"properties":{"osm_id":"1407205375","tag":{"amenity":"recycling","location":"overground","recycling_type":"container"}},"type":"Feature"},
	{"geometry":{"coordinates":[8.917328,52.256454],"type":"Point"},"properties":{"osm_id":"1625418426","tag":{"amenity":"waste_basket"}},"type":"Feature"},
	{"geometry":{"coordinates":[8.935348,52.259902],"type":"Point"},"properties":{"osm_id":"2130802220","tag":{"amenity":"recycling","recycling:clothes":"yes","recycling:glass":"yes","recycling:glass_bottles":"yes","recycling_type":"container"}},"type":"Feature"},
	{"geometry":{"coordinates":[8.901366,52.246494],"type":"Point"},"properties":{"osm_id":"2342954678","tag":{"amenity":"waste_basket"}},"type":"Feature"},
	{"geometry":{"coordinates":[8.918268,52.241811],"type":"Point"},"properties":{"osm_id":"4594906934","tag":{"amenity":"waste_basket"}},"type":"Feature"},
	{"geometry":{"coordinates":[8.910827,52.246759],"type":"Point"},"properties":{"osm_id":"4931375579","tag":{"amenity":"waste_basket"}},"type":"Feature"},
	{"geometry":{"coordinates":[8.955116,52.254502],"type":"Point"},"properties":{"osm_id":"5063010617","tag":{"amenity":"recycling","recycling:glass_bottles":"yes","recycling_type":"container"}},"type":"Feature"},
	{"geometry":{"coordinates":[8.923492,52.251218],"type":"Point"},"properties":{"name":"PreZero Wertstoffmanagement GmbH & Co. KG","osm_id":"5564056161","tag":{"addr:city":"Porta Westfalica","addr:housenumber":"2","addr:postcode":"32457","addr:street":"An der Pforte","amenity":"recycling","email":"info@prezero.com","opening_hours":"Mo-Fr 08:00-17:00; Sa 08:00-13:00","phone":"+49 571 9744123","recycling_type":"centre","website":"https://prezero.com/porta-westfalica/"}},"type":"Feature"},
	{"geometry":{"coordinates":[8.891909,52.223416],"type":"Point"},"properties":{"osm_id":"5858653721","tag":{"amenity":"recycling","recycling:clothes":"yes","recycling:glass_bottles":"yes","recycling:shoes":"yes","recycling_type":"container"}},"type":"Feature"},
	{"geometry":{"coordinates":[8.899323,52.247004],"type":"Point"},"properties":{"osm_id":"5926496714","tag":{"amenity":"waste_basket"}},"type":"Feature"},
	{"geometry":{"coordinates":[8.900766,52.24686],"type":"Point"},"properties":{"osm_id":"5926496715","tag":{"amenity":"waste_basket"}},"type":"Feature"},
	{"geometry":{"coordinates":[8.899179,52.247255],"type":"Point"},"properties":{"osm_id":"5926496716","tag":{"amenity":"waste_basket"}},"type":"Feature"},
	{"geometry":{"coordinates":[8.904974,52.244976],"type":"Point"},"properties":{"osm_id":"5926496717","tag":{"amenity":"waste_basket"}},"type":"Feature"},
	{"geometry":{"coordinates":[8.904924,52.245319],"type":"Point"},"properties":{"osm_id":"5926496718","tag":{"amenity":"waste_basket"}},"type":"Feature"},
	{"geometry":{"coordinates":[8.905391,52.244906],"type":"Point"},"properties":{"osm_id":"5926496719","tag":{"amenity":"waste_basket"}},"type":"Feature"},
	{"geometry":{"coordinates":[8.905201,52.245466],"type":"Point"},"properties":{"osm_id":"5926496720","tag":{"amenity":"waste_basket"}},"type":"Feature"},
	{"geometry":{"coordinates":[8.906141,52.24521],"type":"Point"},"properties":{"osm_id":"5926496721","tag":{"amenity":"waste_basket"}},"type":"Feature"},
	{"geometry":{"coordinates":[8.905999,52.244981],"type":"Point"},"properties":{"osm_id":"5926496722","tag":{"amenity":"waste_basket"}},"type":"Feature"},
	{"geometry":{"coordinates":[8.906063,52.245433],"type":"Point"},"properties":{"osm_id":"5926496723","tag":{"amenity":"waste_basket"}},"type":"Feature"},
	{"geometry":{"coordinates":[8.905662,52.245652],"type":"Point"},"properties":{"osm_id":"5926496724","tag":{"amenity":"waste_basket"}},"type":"Feature"},
	{"geometry":{"coordinates":[8.902788,52.246045],"type":"Point"},"properties":{"osm_id":"5926496725","tag":{"amenity":"waste_basket"}},"type":"Feature"},
	{"geometry":{"coordinates":[8.904119,52.245725],"type":"Point"},"properties":{"osm_id":"5926496726","tag":{"amenity":"waste_basket"}},"type":"Feature"},
	{"geometry":{"coordinates":[8.902094,52.246283],"type":"Point"},"properties":{"osm_id":"5926496727","tag":{"amenity":"waste_basket"}},"type":"Feature"},
	{"geometry":{"coordinates":[8.901811,52.246384],"type":"Point"},"properties":{"osm_id":"5926496728","tag":{"amenity":"waste_basket"}},"type":"Feature"},
	{"geometry":{"coordinates":[8.901752,52.24643],"type":"Point"},"properties":{"osm_id":"5926496729","tag":{"amenity":"waste_basket"}},"type":"Feature"},
	{"geometry":{"coordinates":[8.901741,52.246479],"type":"Point"},"properties":{"osm_id":"5926496730","tag":{"amenity":"waste_basket"}},"type":"Feature"},
	{"geometry":{"coordinates":[8.919899,52.242958],"type":"Point"},"properties":{"osm_id":"7624258144","tag":{"amenity":"waste_basket","waste":"trash"}},"type":"Feature"},
	{"geometry":{"coordinates":[8.920111,52.243203],"type":"Point"},"properties":{"osm_id":"7624258145","tag":{"amenity":"waste_basket","waste":"trash"}},"type":"Feature"}
]
}
