{
"type": "FeatureCollection",
"features": [
	{"geometry":{"coordinates":[8.912715,52.110009],"type":"Point"},"properties":{"osm_id":"1794866831","tag":{"amenity":"recycling","recycling:glass_bottles":"yes","recycling_type":"container"}},"type":"Feature"},
	{"geometry":{"coordinates":[8.964602,52.147186],"type":"Point"},"properties":{"osm_id":"3750407700","tag":{"amenity":"recycling","recycling:glass_bottles":"yes","recycling_type":"container"}},"type":"Feature"},
	{"geometry":{"coordinates":[8.881817,52.124303],"type":"Point"},"properties":{"osm_id":"3802564299","tag":{"amenity":"waste_basket"}},"type":"Feature"},
	{"geometry":{"coordinates":[8.881854,52.124664],"type":"Point"},"properties":{"osm_id":"3802564302","tag":{"amenity":"recycling","recycling:clothes":"yes","recycling:shoes":"yes","recycling_type":"container"}},"type":"Feature"},
	{"geometry":{"coordinates":[8.88193,52.124672],"type":"Point"},"properties":{"osm_id":"3802564303","tag":{"amenity":"recycling","recycling:glass_bottles":"yes","recycling_type":"container"}},"type":"Feature"},
	{"geometry":{"coordinates":[8.964796,52.147514],"type":"Point"},"properties":{"osm_id":"4555645999","tag":{"amenity":"waste_basket"}},"type":"Feature"},
	{"geometry":{"coordinates":[8.964652,52.147185],"type":"Point"},"properties":{"osm_id":"4555646007","tag":{"amenity":"waste_basket"}},"type":"Feature"},
	{"geometry":{"coordinates":[8.934731,52.116327],"type":"Point"},"properties":{"name":"Kuhfu\u00c3\u009f Kanalreinigungs GmbH","osm_id":"4611907322","tag":{"amenity":"recycling","contact:email":"info@kuhfuss-kanalreinigung.de","contact:fax":"+49 5264 9711","contact:phone":"+49 5264 347","contact:website":"https://kuhfuss-kanalreinigung.de","recycling:green_waste":"yes","recycling:waste":"yes","recycling_type":"centre"}},"type":"Feature"},
	{"geometry":{"coordinates":[8.947646,52.107812],"type":"Point"},"properties":{"osm_id":"4704013994","tag":{"amenity":"waste_basket"}},"type":"Feature"},
	{"geometry":{"coordinates":[8.947589,52.107805],"type":"Point"},"properties":{"osm_id":"4704014001","tag":{"amenity":"recycling","recycling:glass_bottles":"yes","recycling_type":"container"}},"type":"Feature"},
	{"geometry":{"coordinates":[8.947195,52.107604],"type":"Point"},"properties":{"osm_id":"4704014008","tag":{"amenity":"recycling","recycling:clothes":"yes","recycling:shoes":"yes","recycling_type":"container","website":"https://lebenshilfe-lemgo.de/"}},"type":"Feature"},
	{"geometry":{"coordinates":[8.91718,52.155426],"type":"Point"},"properties":{"osm_id":"4756673208","tag":{"amenity":"recycling","recycling:clothes":"yes","recycling:shoes":"yes","recycling_type":"container"}},"type":"Feature"},
	{"geometry":{"coordinates":[8.917191,52.155358],"type":"Point"},"properties":{"osm_id":"4756673209","tag":{"amenity":"recycling","recycling:glass_bottles":"yes","recycling_type":"container"}},"type":"Feature"},
	{"geometry":{"coordinates":[8.910947,52.154031],"type":"Point"},"properties":{"osm_id":"4756673215","tag":{"amenity":"waste_basket"}},"type":"Feature"},
	{"geometry":{"coordinates":[8.899758,52.14041],"type":"Point"},"properties":{"osm_id":"4756676632","tag":{"amenity":"waste_basket"}},"type":"Feature"},
	{"geometry":{"coordinates":[8.904841,52.132617],"type":"Point"},"properties":{"osm_id":"4756676640","tag":{"amenity":"waste_basket"}},"type":"Feature"},
	{"geometry":{"coordinates":[8.962129,52.148247],"type":"Point"},"properties":{"osm_id":"4876491320","tag":{"amenity":"waste_basket"}},"type":"Feature"},
	{"geometry":{"coordinates":[8.948452,52.110826],"type":"Point"},"properties":{"osm_id":"4892633121","tag":{"amenity":"recycling","recycling:glass_bottles":"yes","recycling_type":"container"}},"type":"Feature"},
	{"geometry":{"coordinates":[8.918069,52.156487],"type":"Point"},"properties":{"osm_id":"5339901655","tag":{"amenity":"waste_basket"}},"type":"Feature"},
	{"geometry":{"coordinates":[8.960559,52.148819],"type":"Point"},"properties":{"osm_id":"5443635799","tag":{"amenity":"waste_basket"}},"type":"Feature"},
	{"geometry":{"coordinates":[8.913718,52.128983],"type":"Point"},"properties":{"osm_id":"5491908070","tag":{"amenity":"recycling","recycling:clothes":"yes","recycling:glass_bottles":"yes","recycling:shoes":"yes","recycling_type":"container"}},"type":"Feature"},
	{"geometry":{"coordinates":[8.930283,52.158379],"type":"Point"},"properties":{"osm_id":"5620636312","tag":{"amenity":"waste_basket"}},"type":"Feature"},
	{"geometry":{"coordinates":[8.921539,52.159798],"type":"Point"},"properties":{"osm_id":"5620636314","tag":{"amenity":"waste_basket"}},"type":"Feature"},
	{"geometry":{"coordinates":[8.916423,52.158484],"type":"Point"},"properties":{"osm_id":"5620636319","tag":{"amenity":"waste_basket"}},"type":"Feature"},
	{"geometry":{"coordinates":[8.908925,52.156142],"type":"Point"},"properties":{"osm_id":"5620636822","tag":{"amenity":"waste_basket"}},"type":"Feature"},
	{"geometry":{"coordinates":[8.911501,52.15095],"type":"Point"},"properties":{"osm_id":"5620636824","tag":{"amenity":"waste_basket"}},"type":"Feature"},
	{"geometry":{"coordinates":[8.916201,52.148748],"type":"Point"},"properties":{"osm_id":"5620636827","tag":{"amenity":"waste_basket"}},"type":"Feature"},
	{"geometry":{"coordinates":[8.916799,52.150173],"type":"Point"},"properties":{"osm_id":"5620636829","tag":{"amenity":"waste_basket"}},"type":"Feature"},
	{"geometry":{"coordinates":[8.916701,52.143174],"type":"Point"},"properties":{"osm_id":"5620636831","tag":{"amenity":"waste_basket"}},"type":"Feature"},
	{"geometry":{"coordinates":[8.877529,52.112462],"type":"Point"},"properties":{"osm_id":"6641785040","tag":{"amenity":"waste_basket"}},"type":"Feature"}
]
}
