{
"type": "FeatureCollection",
"lastupdate": "2020-08-02T00:00:00Z",
"features": [
	{"geometry":{"coordinates":[8.899394,52.096638],"type":"Point"},"properties":{"osm_id":"265216544","tag":{"amenity":"recycling","recycling:glass_bottles":"yes","recycling_type":"container"}},"type":"Feature"},
	{"geometry":{"coordinates":[8.920729,52.106328],"type":"Point"},"properties":{"osm_id":"1794862262","tag":{"amenity":"recycling","recycling:books":"no","recycling:cartons":"no","recycling:clothes":"yes","recycling:glass_bottles":"yes","recycling:magazines":"no","recycling:newspaper":"no","recycling:paper_packaging":"no","recycling:shoes":"yes","recycling:wood":"no","recycling_type":"container"}},"type":"Feature"},
	{"geometry":{"coordinates":[8.91359,52.095339],"type":"Point"},"properties":{"osm_id":"3446500665","tag":{"amenity":"recycling","recycling:glass_bottles":"yes","recycling_type":"container"}},"type":"Feature"},
	{"geometry":{"coordinates":[8.902969,52.096064],"type":"Point"},"properties":{"osm_id":"3584199226","tag":{"amenity":"recycling","recycling:clothes":"yes","recycling_type":"container"}},"type":"Feature"},
	{"geometry":{"coordinates":[8.954291,52.103393],"type":"Point"},"properties":{"osm_id":"3922026319","tag":{"amenity":"recycling","recycling:clothes":"yes","recycling:glass_bottles":"yes","recycling:shoes":"yes","recycling:waste":"yes","recycling_type":"container"}},"type":"Feature"},
	{"geometry":{"coordinates":[8.886847,52.069656],"type":"Point"},"properties":{"osm_id":"4069600224","tag":{"amenity":"waste_basket"}},"type":"Feature"},
	{"geometry":{"coordinates":[8.950495,52.08159],"type":"Point"},"properties":{"osm_id":"4450829455","tag":{"amenity":"waste_basket"}},"type":"Feature"},
	{"geometry":{"coordinates":[8.933674,52.1052],"type":"Point"},"properties":{"osm_id":"4561757076","tag":{"amenity":"waste_basket","todo":"parkplatz"}},"type":"Feature"},
	{"geometry":{"coordinates":[8.954341,52.103397],"type":"Point"},"properties":{"osm_id":"4594890971","tag":{"amenity":"waste_basket"}},"type":"Feature"},
	{"geometry":{"coordinates":[8.935657,52.083488],"type":"Point"},"properties":{"osm_id":"4621379979","tag":{"amenity":"recycling","recycling:glass_bottles":"yes","recycling_type":"container"}},"type":"Feature"},
	{"geometry":{"coordinates":[8.946433,52.080037],"type":"Point"},"properties":{"osm_id":"4621379980","tag":{"amenity":"recycling","recycling:clothes":"yes","recycling:glass_bottles":"yes","recycling:shoes":"yes","recycling_type":"container"}},"type":"Feature"},
	{"geometry":{"coordinates":[8.936038,52.082273],"type":"Point"},"properties":{"osm_id":"4692641661","tag":{"addr:city":"Kalletal","addr:postcode":"32689","addr:street":"Am Hellbach","addr:suburb":"Bavenhausen","amenity":"recycling","operator":"DRK Kreisverband Lippe e. V.","recycling:clothes":"yes"}},"type":"Feature"},
	{"geometry":{"coordinates":[8.963094,52.097736],"type":"Point"},"properties":{"osm_id":"4729472373","tag":{"amenity":"recycling","phone":"+49 800 8866666","recycling:cans":"yes","recycling_type":"container"}},"type":"Feature"},
	{"geometry":{"coordinates":[8.934121,52.104017],"type":"Point"},"properties":{"osm_id":"5618457803","tag":{"amenity":"recycling","recycling:clothes":"yes","recycling:glass_bottles":"yes","recycling:shoes":"yes","recycling_type":"container"}},"type":"Feature"},
	{"geometry":{"coordinates":[8.945961,52.100963],"type":"Point"},"properties":{"osm_id":"5762060299","tag":{"amenity":"waste_basket"}},"type":"Feature"},
	{"geometry":{"coordinates":[8.902962,52.096113],"type":"Point"},"properties":{"osm_id":"6143115060","tag":{"amenity":"waste_basket"}},"type":"Feature"},
	{"geometry":{"coordinates":[8.902962,52.096098],"type":"Point"},"properties":{"osm_id":"6143115061","tag":{"amenity":"recycling","recycling:batteries":"yes","recycling_type":"container"}},"type":"Feature"},
	{"geometry":{"coordinates":[8.899157,52.096262],"type":"Point"},"properties":{"osm_id":"6143115071","tag":{"amenity":"waste_basket"}},"type":"Feature"}
]
}
