{
"type": "FeatureCollection",
"features": [
	{"geometry":{"coordinates":[8.907672,52.025125],"type":"Point"},"properties":{"osm_id":"260035223","tag":{"amenity":"recycling","recycling:clothes":"yes","recycling:glass_bottles":"yes","recycling_type":"container"}},"type":"Feature"},
	{"geometry":{"coordinates":[8.901769,52.022789],"type":"Point"},"properties":{"osm_id":"269133294","tag":{"amenity":"recycling","recycling:clothes":"yes","recycling:glass_bottles":"yes","recycling_type":"container"}},"type":"Feature"},
	{"geometry":{"coordinates":[8.914548,52.024288],"type":"Point"},"properties":{"osm_id":"331693437","tag":{"amenity":"recycling","recycling:clothes":"yes"}},"type":"Feature"},
	{"geometry":{"coordinates":[8.907722,52.020133],"type":"Point"},"properties":{"osm_id":"336325262","tag":{"amenity":"recycling","recycling:glass_bottles":"yes","recycling_type":"container"}},"type":"Feature"},
	{"geometry":{"coordinates":[8.91712,52.016913],"type":"Point"},"properties":{"osm_id":"338169357","tag":{"amenity":"recycling","recycling:clothes":"yes","recycling_type":"container"}},"type":"Feature"},
	{"geometry":{"coordinates":[8.924688,52.015512],"type":"Point"},"properties":{"osm_id":"338169361","tag":{"amenity":"recycling","recycling:clothes":"yes","recycling_type":"container"}},"type":"Feature"},
	{"geometry":{"coordinates":[8.918163,52.019489],"type":"Point"},"properties":{"osm_id":"348457524","tag":{"amenity":"recycling","recycling:clothes":"yes","recycling:glass_bottles":"yes","recycling_type":"container"}},"type":"Feature"},
	{"geometry":{"coordinates":[8.919358,52.025741],"type":"Point"},"properties":{"osm_id":"571669415","tag":{"amenity":"waste_basket"}},"type":"Feature"},
	{"geometry":{"coordinates":[8.880959,52.013859],"type":"Point"},"properties":{"osm_id":"873963139","tag":{"amenity":"waste_basket"}},"type":"Feature"},
	{"geometry":{"coordinates":[8.880221,52.013652],"type":"Point"},"properties":{"osm_id":"873963254","tag":{"amenity":"waste_basket"}},"type":"Feature"},
	{"geometry":{"coordinates":[8.880609,52.013806],"type":"Point"},"properties":{"osm_id":"873963429","tag":{"amenity":"waste_basket"}},"type":"Feature"},
	{"geometry":{"coordinates":[8.910281,52.021107],"type":"Point"},"properties":{"osm_id":"908831810","tag":{"amenity":"waste_basket"}},"type":"Feature"},
	{"geometry":{"coordinates":[8.910055,52.021203],"type":"Point"},"properties":{"osm_id":"908832050","tag":{"amenity":"waste_basket"}},"type":"Feature"},
	{"geometry":{"coordinates":[8.910554,52.021004],"type":"Point"},"properties":{"osm_id":"908832133","tag":{"amenity":"waste_basket"}},"type":"Feature"},
	{"geometry":{"coordinates":[8.910902,52.020826],"type":"Point"},"properties":{"osm_id":"908832198","tag":{"amenity":"waste_basket"}},"type":"Feature"},
	{"geometry":{"coordinates":[8.899748,52.037833],"type":"Point"},"properties":{"osm_id":"914792722","tag":{"amenity":"recycling","location":"overground","recycling:glass":"yes","recycling_type":"container"}},"type":"Feature"},
	{"geometry":{"coordinates":[8.901805,52.015359],"type":"Point"},"properties":{"osm_id":"1354805850","tag":{"amenity":"recycling","recycling:clothes":"yes","recycling:glass_bottles":"yes","recycling_type":"container"}},"type":"Feature"},
	{"geometry":{"coordinates":[8.887607,52.009722],"type":"Point"},"properties":{"osm_id":"1378864153","tag":{"amenity":"recycling","recycling:clothes":"yes","recycling:glass_bottles":"yes","recycling_type":"container"}},"type":"Feature"},
	{"geometry":{"coordinates":[8.892932,52.006515],"type":"Point"},"properties":{"osm_id":"1380398647","tag":{"amenity":"recycling","recycling:clothes":"yes","recycling:glass_bottles":"yes","recycling:shoes":"yes","recycling_type":"container"}},"type":"Feature"},
	{"geometry":{"coordinates":[8.888428,52.027815],"type":"Point"},"properties":{"osm_id":"2111459135","tag":{"addr:city":"Lemgo","addr:postcode":"32657","addr:street":"Grevenmarschstra\u00c3\u009fe","amenity":"recycling","check_date":"2017-03-04","recycling:clothes":"yes","recycling:glass_bottles":"yes","recycling:shoes":"yes","recycling_type":"container"}},"type":"Feature"},
	{"geometry":{"coordinates":[8.883529,52.049665],"type":"Point"},"properties":{"osm_id":"2507013519","tag":{"amenity":"recycling","collection_times":"Mo-Sa 08:00-13:00,15:00-19:00; Su,Ph off","operator":"T\u00c3\u00b6nsmeier","phone":"+49 800 8866666","recycling:batteries":"no","recycling:clothes":"no","recycling:glass_bottles":"yes","recycling:paper":"no","recycling:plastic":"no","recycling:plastic_bottles":"no","recycling:scrap_metal":"no","recycling:waste":"no","recycling_type":"container"}},"type":"Feature"},
	{"geometry":{"coordinates":[8.916399,52.020402],"type":"Point"},"properties":{"osm_id":"2696493002","tag":{"amenity":"waste_basket"}},"type":"Feature"},
	{"geometry":{"coordinates":[8.917178,52.020552],"type":"Point"},"properties":{"osm_id":"2696493015","tag":{"amenity":"waste_basket"}},"type":"Feature"},
	{"geometry":{"coordinates":[8.887756,52.023048],"type":"Point"},"properties":{"osm_id":"2696495242","tag":{"amenity":"recycling","recycling:clothes":"yes","recycling_type":"container"}},"type":"Feature"},
	{"geometry":{"coordinates":[8.917599,52.012638],"type":"Point"},"properties":{"osm_id":"2734956571","tag":{"amenity":"recycling","recycling:clothes":"yes","recycling:glass_bottles":"yes","recycling:shoes":"yes","recycling_type":"container"}},"type":"Feature"},
	{"geometry":{"coordinates":[8.915468,52.015496],"type":"Point"},"properties":{"osm_id":"3414102605","tag":{"amenity":"recycling","recycling:clothes":"yes","recycling:glass_bottles":"yes","recycling_type":"container"}},"type":"Feature"},
	{"geometry":{"coordinates":[8.897072,52.038847],"type":"Point"},"properties":{"osm_id":"4549263290","tag":{"amenity":"recycling","recycling:clothes":"yes","recycling_type":"container"}},"type":"Feature"},
	{"geometry":{"coordinates":[8.902825,52.039721],"type":"Point"},"properties":{"osm_id":"4549309902","tag":{"amenity":"recycling","recycling_type":"dump"}},"type":"Feature"},
	{"geometry":{"coordinates":[8.902874,52.039724],"type":"Point"},"properties":{"osm_id":"4549310210","tag":{"amenity":"waste_basket"}},"type":"Feature"},
	{"geometry":{"coordinates":[8.887555,52.037246],"type":"Point"},"properties":{"osm_id":"4550990827","tag":{"amenity":"waste_basket"}},"type":"Feature"},
	{"geometry":{"coordinates":[8.888238,52.037034],"type":"Point"},"properties":{"osm_id":"4550990828","tag":{"amenity":"waste_basket"}},"type":"Feature"},
	{"geometry":{"coordinates":[8.90369,52.02972],"type":"Point"},"properties":{"osm_id":"4558534007","tag":{"amenity":"waste_basket"}},"type":"Feature"},
	{"geometry":{"coordinates":[8.901577,52.031108],"type":"Point"},"properties":{"osm_id":"4558534025","tag":{"amenity":"recycling","recycling:glass_bottles":"yes","recycling_type":"container"}},"type":"Feature"},
	{"geometry":{"coordinates":[8.902665,52.029822],"type":"Point"},"properties":{"osm_id":"4558534035","tag":{"amenity":"waste_basket"}},"type":"Feature"},
	{"geometry":{"coordinates":[8.898956,52.03372],"type":"Point"},"properties":{"osm_id":"4558534036","tag":{"amenity":"recycling","recycling:clothes":"yes","recycling_type":"container"}},"type":"Feature"},
	{"geometry":{"coordinates":[8.920118,52.026606],"type":"Point"},"properties":{"osm_id":"4567015847","tag":{"addr:city":"Lemgo","amenity":"recycling","operator":"Fa. Jeva","recycling:clothes":"yes","recycling_type":"container"}},"type":"Feature"},
	{"geometry":{"coordinates":[8.91953,52.02761],"type":"Point"},"properties":{"osm_id":"4567015852","tag":{"amenity":"recycling","recycling:clothes":"yes","recycling_type":"container"}},"type":"Feature"},
	{"geometry":{"coordinates":[8.90806,52.028265],"type":"Point"},"properties":{"osm_id":"4627297744","tag":{"amenity":"waste_basket"}},"type":"Feature"},
	{"geometry":{"coordinates":[8.888371,52.037119],"type":"Point"},"properties":{"osm_id":"4666701024","tag":{"amenity":"waste_basket"}},"type":"Feature"},
	{"geometry":{"coordinates":[8.888219,52.037441],"type":"Point"},"properties":{"osm_id":"4666701027","tag":{"amenity":"waste_basket"}},"type":"Feature"},
	{"geometry":{"coordinates":[8.907449,52.027627],"type":"Point"},"properties":{"osm_id":"4822633168","tag":{"amenity":"waste_basket"}},"type":"Feature"},
	{"geometry":{"coordinates":[8.894173,52.028221],"type":"Point"},"properties":{"osm_id":"4825630387","tag":{"amenity":"waste_basket"}},"type":"Feature"},
	{"geometry":{"coordinates":[8.899266,52.024227],"type":"Point"},"properties":{"osm_id":"4830780091","tag":{"amenity":"waste_basket"}},"type":"Feature"},
	{"geometry":{"coordinates":[8.9071,52.02693],"type":"Point"},"properties":{"osm_id":"4885175508","tag":{"amenity":"waste_basket"}},"type":"Feature"},
	{"geometry":{"coordinates":[8.899875,52.023638],"type":"Point"},"properties":{"osm_id":"4959047752","tag":{"amenity":"waste_basket"}},"type":"Feature"},
	{"geometry":{"coordinates":[8.901754,52.037529],"type":"Point"},"properties":{"osm_id":"5540337638","tag":{"amenity":"waste_basket"}},"type":"Feature"},
	{"geometry":{"coordinates":[8.901991,52.037525],"type":"Point"},"properties":{"osm_id":"5540337647","tag":{"amenity":"waste_basket"}},"type":"Feature"},
	{"geometry":{"coordinates":[8.906628,52.029065],"type":"Point"},"properties":{"osm_id":"5543713604","tag":{"amenity":"waste_basket"}},"type":"Feature"},
	{"geometry":{"coordinates":[8.900168,52.037028],"type":"Point"},"properties":{"osm_id":"5556008573","tag":{"amenity":"waste_basket"}},"type":"Feature"},
	{"geometry":{"coordinates":[8.903778,52.038043],"type":"Point"},"properties":{"osm_id":"5556008578","tag":{"amenity":"waste_basket"}},"type":"Feature"},
	{"geometry":{"coordinates":[8.900726,52.036966],"type":"Point"},"properties":{"osm_id":"5556008579","tag":{"amenity":"waste_basket"}},"type":"Feature"},
	{"geometry":{"coordinates":[8.90024,52.030355],"type":"Point"},"properties":{"osm_id":"5560162886","tag":{"amenity":"waste_basket"}},"type":"Feature"},
	{"geometry":{"coordinates":[8.895148,52.031962],"type":"Point"},"properties":{"osm_id":"5560162900","tag":{"amenity":"waste_basket"}},"type":"Feature"},
	{"geometry":{"coordinates":[8.895062,52.032181],"type":"Point"},"properties":{"osm_id":"5560162903","tag":{"amenity":"waste_basket"}},"type":"Feature"},
	{"geometry":{"coordinates":[8.90055,52.030044],"type":"Point"},"properties":{"osm_id":"5560162906","tag":{"amenity":"waste_basket"}},"type":"Feature"},
	{"geometry":{"coordinates":[8.907335,52.027999],"type":"Point"},"properties":{"osm_id":"5572299951","tag":{"addr:street":"Ostertor","amenity":"waste_basket"}},"type":"Feature"},
	{"geometry":{"coordinates":[8.887735,52.043934],"type":"Point"},"properties":{"osm_id":"5574877117","tag":{"amenity":"waste_basket"}},"type":"Feature"},
	{"geometry":{"coordinates":[8.888878,52.043879],"type":"Point"},"properties":{"osm_id":"5574877232","tag":{"amenity":"waste_basket"}},"type":"Feature"},
	{"geometry":{"coordinates":[8.907922,52.02867],"type":"Point"},"properties":{"osm_id":"5584271120","tag":{"amenity":"waste_basket"}},"type":"Feature"},
	{"geometry":{"coordinates":[8.907932,52.028741],"type":"Point"},"properties":{"osm_id":"5584273221","tag":{"amenity":"waste_basket"}},"type":"Feature"},
	{"geometry":{"coordinates":[8.884571,52.049751],"type":"Point"},"properties":{"osm_id":"5641465815","tag":{"amenity":"waste_basket"}},"type":"Feature"},
	{"geometry":{"coordinates":[8.884884,52.049444],"type":"Point"},"properties":{"osm_id":"5641465819","tag":{"amenity":"waste_basket"}},"type":"Feature"},
	{"geometry":{"coordinates":[8.884629,52.049517],"type":"Point"},"properties":{"osm_id":"5641473122","tag":{"amenity":"waste_basket"}},"type":"Feature"},
	{"geometry":{"coordinates":[8.900959,52.03646],"type":"Point"},"properties":{"osm_id":"6261266978","tag":{"amenity":"waste_basket"}},"type":"Feature"},
	{"geometry":{"coordinates":[8.900877,52.036589],"type":"Point"},"properties":{"osm_id":"6261267489","tag":{"amenity":"waste_basket"}},"type":"Feature"},
	{"geometry":{"coordinates":[8.899945,52.036529],"type":"Point"},"properties":{"osm_id":"6261872774","tag":{"amenity":"waste_basket"}},"type":"Feature"},
	{"geometry":{"coordinates":[8.902285,52.036403],"type":"Point"},"properties":{"osm_id":"6261872776","tag":{"amenity":"waste_basket"}},"type":"Feature"},
	{"geometry":{"coordinates":[8.901476,52.036935],"type":"Point"},"properties":{"osm_id":"6261872778","tag":{"amenity":"waste_basket"}},"type":"Feature"},
	{"geometry":{"coordinates":[8.90042,52.036282],"type":"Point"},"properties":{"osm_id":"6261872779","tag":{"amenity":"waste_basket"}},"type":"Feature"},
	{"geometry":{"coordinates":[8.902285,52.036211],"type":"Point"},"properties":{"osm_id":"6261872782","tag":{"amenity":"waste_basket"}},"type":"Feature"},
	{"geometry":{"coordinates":[8.901076,52.036073],"type":"Point"},"properties":{"osm_id":"6261873086","tag":{"amenity":"waste_basket"}},"type":"Feature"},
	{"geometry":{"coordinates":[8.901295,52.036037],"type":"Point"},"properties":{"osm_id":"6261873091","tag":{"amenity":"waste_basket"}},"type":"Feature"},
	{"geometry":{"coordinates":[8.902031,52.036511],"type":"Point"},"properties":{"osm_id":"6261873097","tag":{"amenity":"waste_basket"}},"type":"Feature"},
	{"geometry":{"coordinates":[8.901412,52.036257],"type":"Point"},"properties":{"osm_id":"6261873101","tag":{"amenity":"waste_basket"}},"type":"Feature"},
	{"geometry":{"coordinates":[8.902315,52.035827],"type":"Point"},"properties":{"osm_id":"6261873104","tag":{"amenity":"waste_basket"}},"type":"Feature"},
	{"geometry":{"coordinates":[8.902225,52.036745],"type":"Point"},"properties":{"osm_id":"6261873105","tag":{"amenity":"waste_basket"}},"type":"Feature"},
	{"geometry":{"coordinates":[8.901605,52.036463],"type":"Point"},"properties":{"osm_id":"6261873107","tag":{"amenity":"waste_basket"}},"type":"Feature"},
	{"geometry":{"coordinates":[8.904403,52.029716],"type":"Point"},"properties":{"osm_id":"7116704425","tag":{"amenity":"waste_basket","waste":"trash"}},"type":"Feature"},
	{"geometry":{"coordinates":[8.907454,52.018092],"type":"Point"},"properties":{"osm_id":"7201668097","tag":{"amenity":"waste_basket"}},"type":"Feature"},
	{"geometry":{"coordinates":[8.901045,52.029223],"type":"Point"},"properties":{"osm_id":"7288076004","tag":{"amenity":"waste_basket"}},"type":"Feature"}
]
}
