{
"type": "FeatureCollection",
"features": [
	{"geometry":{"coordinates":[8.911988,51.914176],"type":"Point"},"properties":{"osm_id":"309871273","tag":{"amenity":"recycling","recycling:clothes":"yes","recycling_type":"container"}},"type":"Feature"},
	{"geometry":{"coordinates":[8.940282,51.933041],"type":"Point"},"properties":{"osm_id":"336415846","tag":{"amenity":"recycling","recycling:glass":"yes","recycling_type":"container"}},"type":"Feature"},
	{"geometry":{"coordinates":[8.950373,51.930012],"type":"Point"},"properties":{"osm_id":"339388275","tag":{"amenity":"recycling","recycling:glass":"yes","recycling_type":"container"}},"type":"Feature"},
	{"geometry":{"coordinates":[8.952468,51.931863],"type":"Point"},"properties":{"osm_id":"339388329","tag":{"amenity":"recycling","recycling:clothes":"yes","recycling_type":"container"}},"type":"Feature"},
	{"geometry":{"coordinates":[8.946791,51.935287],"type":"Point"},"properties":{"osm_id":"339734850","tag":{"amenity":"recycling","opening_hours":"Mo-Sa 07:00-19:00; Su off","recycling:glass":"yes","recycling:glass_bottles":"yes","recycling_type":"container"}},"type":"Feature"},
	{"geometry":{"coordinates":[8.954878,51.933565],"type":"Point"},"properties":{"osm_id":"343501095","tag":{"amenity":"recycling","recycling:glass":"yes","recycling_type":"container"}},"type":"Feature"},
	{"geometry":{"coordinates":[8.9059,51.929822],"type":"Point"},"properties":{"osm_id":"367905677","tag":{"amenity":"recycling","recycling:glass":"yes","recycling_type":"container"}},"type":"Feature"},
	{"geometry":{"coordinates":[8.903952,51.932995],"type":"Point"},"properties":{"osm_id":"367905784","tag":{"amenity":"recycling","recycling:glass":"yes","recycling_type":"container"}},"type":"Feature"},
	{"geometry":{"coordinates":[8.891575,51.936171],"type":"Point"},"properties":{"osm_id":"368256080","tag":{"amenity":"recycling","recycling:glass_bottles":"yes","recycling_type":"container"}},"type":"Feature"},
	{"geometry":{"coordinates":[8.893807,51.932898],"type":"Point"},"properties":{"osm_id":"368256306","tag":{"amenity":"recycling","recycling:glass":"yes","recycling_type":"container"}},"type":"Feature"},
	{"geometry":{"coordinates":[8.902269,51.919159],"type":"Point"},"properties":{"osm_id":"368956118","tag":{"amenity":"recycling","recycling:clothes":"yes","recycling_type":"container"}},"type":"Feature"},
	{"geometry":{"coordinates":[8.893465,51.938447],"type":"Point"},"properties":{"osm_id":"369729237","tag":{"amenity":"recycling","recycling:glass":"yes","recycling_type":"container"}},"type":"Feature"},
	{"geometry":{"coordinates":[8.886826,51.942599],"type":"Point"},"properties":{"osm_id":"370671913","tag":{"amenity":"recycling","recycling:glass":"yes","recycling_type":"container"}},"type":"Feature"},
	{"geometry":{"coordinates":[8.936827,51.909167],"type":"Point"},"properties":{"osm_id":"392913893","tag":{"amenity":"recycling","recycling:glass_bottles":"yes","recycling_type":"container"}},"type":"Feature"},
	{"geometry":{"coordinates":[8.91435,51.910883],"type":"Point"},"properties":{"osm_id":"392913991","tag":{"amenity":"recycling","recycling:glass":"yes","recycling_type":"container"}},"type":"Feature"},
	{"geometry":{"coordinates":[8.883313,51.930414],"type":"Point"},"properties":{"osm_id":"419882440","tag":{"amenity":"recycling","recycling_type":"container"}},"type":"Feature"},
	{"geometry":{"coordinates":[8.882576,51.934043],"type":"Point"},"properties":{"osm_id":"435376785","tag":{"amenity":"recycling","recycling:glass_bottles":"yes","recycling_type":"container"}},"type":"Feature"},
	{"geometry":{"coordinates":[8.878922,51.903737],"type":"Point"},"properties":{"osm_id":"600902540","tag":{"amenity":"recycling","recycling:glass":"yes","recycling_type":"container"}},"type":"Feature"},
	{"geometry":{"coordinates":[8.896451,51.904487],"type":"Point"},"properties":{"osm_id":"789307344","tag":{"amenity":"recycling","recycling:clothes":"yes","recycling:glass_bottles":"yes","recycling_type":"container"}},"type":"Feature"},
	{"geometry":{"coordinates":[8.880548,51.895073],"type":"Point"},"properties":{"osm_id":"860255276","tag":{"amenity":"recycling","recycling:glass":"yes","recycling_type":"container"}},"type":"Feature"},
	{"geometry":{"coordinates":[8.890356,51.927523],"type":"Point"},"properties":{"osm_id":"1446869048","tag":{"amenity":"recycling","recycling:glass":"yes","recycling_type":"container"}},"type":"Feature"},
	{"geometry":{"coordinates":[8.878886,51.913644],"type":"Point"},"properties":{"osm_id":"2048541647","tag":{"amenity":"waste_basket"}},"type":"Feature"},
	{"geometry":{"coordinates":[8.88169,51.913849],"type":"Point"},"properties":{"osm_id":"2048541657","tag":{"amenity":"waste_basket"}},"type":"Feature"},
	{"geometry":{"coordinates":[8.87867,51.930338],"type":"Point"},"properties":{"osm_id":"2227088010","tag":{"amenity":"waste_basket"}},"type":"Feature"},
	{"geometry":{"coordinates":[8.878129,51.937207],"type":"Point"},"properties":{"osm_id":"2354882521","tag":{"amenity":"waste_basket"}},"type":"Feature"},
	{"geometry":{"coordinates":[8.881301,51.91742],"type":"Point"},"properties":{"osm_id":"2357390796","tag":{"amenity":"waste_basket"}},"type":"Feature"},
	{"geometry":{"coordinates":[8.878163,51.915875],"type":"Point"},"properties":{"osm_id":"2398034952","tag":{"amenity":"waste_basket"}},"type":"Feature"},
	{"geometry":{"coordinates":[8.87839,51.917832],"type":"Point"},"properties":{"osm_id":"2467474034","tag":{"amenity":"waste_basket"}},"type":"Feature"},
	{"geometry":{"coordinates":[8.879535,51.934994],"type":"Point"},"properties":{"osm_id":"3381488916","tag":{"amenity":"waste_basket"}},"type":"Feature"},
	{"geometry":{"coordinates":[8.878837,51.935097],"type":"Point"},"properties":{"osm_id":"3381488919","tag":{"amenity":"waste_basket"}},"type":"Feature"},
	{"geometry":{"coordinates":[8.878605,51.935179],"type":"Point"},"properties":{"osm_id":"3381488921","tag":{"amenity":"waste_basket"}},"type":"Feature"},
	{"geometry":{"coordinates":[8.945943,51.929439],"type":"Point"},"properties":{"osm_id":"4178326155","tag":{"amenity":"waste_basket"}},"type":"Feature"},
	{"geometry":{"coordinates":[8.88309,51.937531],"type":"Point"},"properties":{"osm_id":"4194779508","tag":{"amenity":"waste_basket"}},"type":"Feature"},
	{"geometry":{"coordinates":[8.911757,51.941758],"type":"Point"},"properties":{"osm_id":"4194915952","tag":{"amenity":"waste_basket"}},"type":"Feature"},
	{"geometry":{"coordinates":[8.880467,51.900241],"type":"Point"},"properties":{"osm_id":"4197675709","tag":{"amenity":"recycling","recycling:glass":"yes","recycling_type":"container"}},"type":"Feature"},
	{"geometry":{"coordinates":[8.885039,51.938432],"type":"Point"},"properties":{"osm_id":"5381394207","tag":{"amenity":"recycling","recycling:glass_bottles":"yes","recycling_type":"container"}},"type":"Feature"},
	{"geometry":{"coordinates":[8.878884,51.940179],"type":"Point"},"properties":{"osm_id":"5527994969","tag":{"amenity":"waste_basket"}},"type":"Feature"},
	{"geometry":{"coordinates":[8.878931,51.941795],"type":"Point"},"properties":{"osm_id":"5651554551","tag":{"amenity":"waste_basket"}},"type":"Feature"},
	{"geometry":{"coordinates":[8.885454,51.937432],"type":"Point"},"properties":{"osm_id":"5870469635","tag":{"amenity":"waste_basket"}},"type":"Feature"},
	{"geometry":{"coordinates":[8.877519,51.890538],"type":"Point"},"properties":{"osm_id":"5955376497","tag":{"amenity":"waste_basket"}},"type":"Feature"},
	{"geometry":{"coordinates":[8.95364,51.926165],"type":"Point"},"properties":{"osm_id":"5964219417","tag":{"amenity":"waste_basket"}},"type":"Feature"},
	{"geometry":{"coordinates":[8.949868,51.924718],"type":"Point"},"properties":{"osm_id":"5964336482","tag":{"amenity":"waste_basket"}},"type":"Feature"},
	{"geometry":{"coordinates":[8.953946,51.922574],"type":"Point"},"properties":{"osm_id":"5964495156","tag":{"amenity":"waste_basket"}},"type":"Feature"},
	{"geometry":{"coordinates":[8.907282,51.942432],"type":"Point"},"properties":{"name":"AGA","osm_id":"6360084803","tag":{"addr:city":"Detmold","addr:housenumber":"17+19","addr:postcode":"32756","addr:street":"Im Fliegerhorst","amenity":"recycling","building":"yes","opening_hours":"Mo\u00e2\u0080\u0093Fr: 08:00\u00e2\u0080\u009316:00 Uhr; Do:08:00\u00e2\u0080\u009318:00 Uhr; Sa:  08:00\u00e2\u0080\u009312:00 Uhr","operator":"AGA gGmbH","recycling:batteries":"yes","recycling:cartons":"yes","recycling:clothes":"yes","recycling:electrical_appliances":"yes","recycling_type":"centre"}},"type":"Feature"},
	{"geometry":{"coordinates":[8.879475,51.934107],"type":"Point"},"properties":{"osm_id":"6750581168","tag":{"amenity":"waste_basket"}},"type":"Feature"}
]
}
