{
"type": "FeatureCollection",
"features": [
	{"geometry":{"coordinates":[8.887046,50.574312],"type":"Point"},"properties":{"osm_id":"399382348","tag":{"amenity":"recycling","mapillary":"rG-UoaXbjFIsDAjU2Y1BLw","recycling:clothes":"yes","recycling:glass":"yes","recycling_type":"container","survey:date":"2019-07-28"}},"type":"Feature"},
	{"geometry":{"coordinates":[8.938267,50.621619],"type":"Point"},"properties":{"osm_id":"424145248","tag":{"amenity":"recycling","recycling:cans":"yes","recycling:clothes":"yes","recycling:glass":"yes"}},"type":"Feature"},
	{"geometry":{"coordinates":[8.929423,50.573829],"type":"Point"},"properties":{"osm_id":"448578222","tag":{"amenity":"recycling","location":"overground","recycling_type":"container"}},"type":"Feature"},
	{"geometry":{"coordinates":[8.959661,50.594589],"type":"Point"},"properties":{"osm_id":"682175022","tag":{"amenity":"waste_basket"}},"type":"Feature"},
	{"geometry":{"coordinates":[8.962658,50.597247],"type":"Point"},"properties":{"osm_id":"682175050","tag":{"amenity":"recycling"}},"type":"Feature"},
	{"geometry":{"coordinates":[8.948035,50.593881],"type":"Point"},"properties":{"osm_id":"986970684","tag":{"amenity":"recycling","location":"overground","recycling:cans":"yes","recycling:clothes":"yes","recycling:glass":"yes","recycling_type":"container"}},"type":"Feature"},
	{"geometry":{"coordinates":[8.95938,50.588828],"type":"Point"},"properties":{"osm_id":"993231691","tag":{"amenity":"recycling","location":"overground","recycling:glass":"yes","recycling_type":"container"}},"type":"Feature"},
	{"geometry":{"coordinates":[8.959036,50.600787],"type":"Point"},"properties":{"osm_id":"1086952283","tag":{"amenity":"waste_basket"}},"type":"Feature"},
	{"geometry":{"coordinates":[8.961869,50.590845],"type":"Point"},"properties":{"osm_id":"1105579736","tag":{"amenity":"waste_basket"}},"type":"Feature"},
	{"geometry":{"coordinates":[8.961487,50.59107],"type":"Point"},"properties":{"osm_id":"1105579768","tag":{"amenity":"waste_basket"}},"type":"Feature"},
	{"geometry":{"coordinates":[8.961619,50.590961],"type":"Point"},"properties":{"osm_id":"1105579854","tag":{"amenity":"waste_basket"}},"type":"Feature"},
	{"geometry":{"coordinates":[8.961463,50.591131],"type":"Point"},"properties":{"osm_id":"1105579860","tag":{"amenity":"waste_basket"}},"type":"Feature"},
	{"geometry":{"coordinates":[8.961582,50.590924],"type":"Point"},"properties":{"osm_id":"1105579920","tag":{"amenity":"waste_basket"}},"type":"Feature"},
	{"geometry":{"coordinates":[8.961797,50.588071],"type":"Point"},"properties":{"osm_id":"1128118885","tag":{"amenity":"waste_basket"}},"type":"Feature"},
	{"geometry":{"coordinates":[8.960314,50.582129],"type":"Point"},"properties":{"osm_id":"1137702009","tag":{"amenity":"recycling","location":"overground","recycling:cans":"no","recycling:clothes":"yes","recycling:glass":"yes","recycling_type":"container"}},"type":"Feature"},
	{"geometry":{"coordinates":[8.959035,50.582378],"type":"Point"},"properties":{"osm_id":"1137730384","tag":{"amenity":"waste_basket"}},"type":"Feature"},
	{"geometry":{"coordinates":[8.959212,50.582317],"type":"Point"},"properties":{"osm_id":"1137730441","tag":{"amenity":"waste_basket"}},"type":"Feature"},
	{"geometry":{"coordinates":[8.956388,50.582718],"type":"Point"},"properties":{"osm_id":"1137762487","tag":{"amenity":"waste_basket"}},"type":"Feature"},
	{"geometry":{"coordinates":[8.960264,50.591155],"type":"Point"},"properties":{"osm_id":"1212349644","tag":{"amenity":"waste_basket"}},"type":"Feature"},
	{"geometry":{"coordinates":[8.96055,50.591512],"type":"Point"},"properties":{"osm_id":"1212520958","tag":{"amenity":"waste_basket"}},"type":"Feature"},
	{"geometry":{"coordinates":[8.960501,50.591195],"type":"Point"},"properties":{"osm_id":"1213317891","tag":{"amenity":"waste_basket"}},"type":"Feature"},
	{"geometry":{"coordinates":[8.960239,50.591276],"type":"Point"},"properties":{"osm_id":"1213813618","tag":{"amenity":"waste_basket"}},"type":"Feature"},
	{"geometry":{"coordinates":[8.960999,50.590994],"type":"Point"},"properties":{"osm_id":"1213813757","tag":{"amenity":"waste_basket"}},"type":"Feature"},
	{"geometry":{"coordinates":[8.961221,50.588449],"type":"Point"},"properties":{"osm_id":"1216545516","tag":{"amenity":"waste_basket"}},"type":"Feature"},
	{"geometry":{"coordinates":[8.959736,50.588141],"type":"Point"},"properties":{"osm_id":"1224707214","tag":{"amenity":"waste_basket"}},"type":"Feature"},
	{"geometry":{"coordinates":[8.961766,50.587957],"type":"Point"},"properties":{"osm_id":"1224707581","tag":{"amenity":"waste_basket"}},"type":"Feature"},
	{"geometry":{"coordinates":[8.959288,50.592551],"type":"Point"},"properties":{"osm_id":"1226183262","tag":{"amenity":"waste_basket"}},"type":"Feature"},
	{"geometry":{"coordinates":[8.960967,50.593284],"type":"Point"},"properties":{"osm_id":"1228523268","tag":{"amenity":"recycling","location":"overground","recycling:cans":"no","recycling:glass":"yes","recycling_type":"container"}},"type":"Feature"},
	{"geometry":{"coordinates":[8.96086,50.593263],"type":"Point"},"properties":{"osm_id":"1228523334","tag":{"amenity":"waste_basket"}},"type":"Feature"},
	{"geometry":{"coordinates":[8.9645,50.592596],"type":"Point"},"properties":{"osm_id":"1248382120","tag":{"amenity":"waste_basket"}},"type":"Feature"},
	{"geometry":{"coordinates":[8.961017,50.594023],"type":"Point"},"properties":{"osm_id":"1248383326","tag":{"amenity":"waste_basket"}},"type":"Feature"},
	{"geometry":{"coordinates":[8.959597,50.59137],"type":"Point"},"properties":{"osm_id":"1276988325","tag":{"amenity":"waste_basket"}},"type":"Feature"},
	{"geometry":{"coordinates":[8.958641,50.591253],"type":"Point"},"properties":{"osm_id":"1277330150","tag":{"amenity":"waste_basket"}},"type":"Feature"},
	{"geometry":{"coordinates":[8.958968,50.591221],"type":"Point"},"properties":{"osm_id":"1277330178","tag":{"amenity":"waste_basket"}},"type":"Feature"},
	{"geometry":{"coordinates":[8.957249,50.598414],"type":"Point"},"properties":{"osm_id":"1281755176","tag":{"amenity":"waste_basket"}},"type":"Feature"},
	{"geometry":{"coordinates":[8.962713,50.602859],"type":"Point"},"properties":{"osm_id":"1379895823","tag":{"amenity":"recycling","recycling:clothes":"yes","recycling_type":"container"}},"type":"Feature"},
	{"geometry":{"coordinates":[8.961926,50.60341],"type":"Point"},"properties":{"osm_id":"1379895837","tag":{"amenity":"waste_basket"}},"type":"Feature"},
	{"geometry":{"coordinates":[8.962389,50.590292],"type":"Point"},"properties":{"osm_id":"1431448950","tag":{"amenity":"waste_basket"}},"type":"Feature"},
	{"geometry":{"coordinates":[8.964805,50.586952],"type":"Point"},"properties":{"osm_id":"1440837343","tag":{"amenity":"waste_basket"}},"type":"Feature"},
	{"geometry":{"coordinates":[8.964715,50.587004],"type":"Point"},"properties":{"osm_id":"1440837344","tag":{"amenity":"waste_basket"}},"type":"Feature"},
	{"geometry":{"coordinates":[8.962724,50.589897],"type":"Point"},"properties":{"osm_id":"1440837470","tag":{"amenity":"waste_basket"}},"type":"Feature"},
	{"geometry":{"coordinates":[8.907224,50.603392],"type":"Point"},"properties":{"osm_id":"1445827002","tag":{"amenity":"waste_basket"}},"type":"Feature"},
	{"geometry":{"coordinates":[8.885764,50.597698],"type":"Point"},"properties":{"osm_id":"1870682006","tag":{"amenity":"recycling","recycling:shoes":"yes","recycling_type":"container"}},"type":"Feature"},
	{"geometry":{"coordinates":[8.957178,50.585407],"type":"Point"},"properties":{"osm_id":"3721310862","tag":{"amenity":"waste_basket"}},"type":"Feature"},
	{"geometry":{"coordinates":[8.958332,50.586299],"type":"Point"},"properties":{"osm_id":"3721310864","tag":{"amenity":"waste_basket"}},"type":"Feature"},
	{"geometry":{"coordinates":[8.958787,50.593047],"type":"Point"},"properties":{"osm_id":"3987896175","tag":{"amenity":"waste_basket"}},"type":"Feature"},
	{"geometry":{"coordinates":[8.881064,50.596133],"type":"Point"},"properties":{"osm_id":"4058690677","tag":{"amenity":"waste_basket"}},"type":"Feature"},
	{"geometry":{"coordinates":[8.881257,50.596196],"type":"Point"},"properties":{"osm_id":"4058690678","tag":{"amenity":"waste_basket"}},"type":"Feature"},
	{"geometry":{"coordinates":[8.881357,50.596341],"type":"Point"},"properties":{"osm_id":"4058690680","tag":{"amenity":"waste_basket"}},"type":"Feature"},
	{"geometry":{"coordinates":[8.881233,50.596101],"type":"Point"},"properties":{"osm_id":"4058701756","tag":{"amenity":"waste_basket"}},"type":"Feature"},
	{"geometry":{"coordinates":[8.881189,50.596448],"type":"Point"},"properties":{"osm_id":"4058702426","tag":{"amenity":"waste_basket"}},"type":"Feature"},
	{"geometry":{"coordinates":[8.881515,50.596235],"type":"Point"},"properties":{"osm_id":"4058703652","tag":{"amenity":"waste_basket"}},"type":"Feature"},
	{"geometry":{"coordinates":[8.960467,50.58228],"type":"Point"},"properties":{"osm_id":"4183390423","tag":{"amenity":"waste_basket"}},"type":"Feature"},
	{"geometry":{"coordinates":[8.960232,50.596557],"type":"Point"},"properties":{"osm_id":"4183390426","tag":{"amenity":"waste_basket"}},"type":"Feature"},
	{"geometry":{"coordinates":[8.960313,50.596571],"type":"Point"},"properties":{"osm_id":"4183390427","tag":{"amenity":"waste_basket"}},"type":"Feature"},
	{"geometry":{"coordinates":[8.951649,50.592868],"type":"Point"},"properties":{"osm_id":"4463662831","tag":{"amenity":"waste_basket"}},"type":"Feature"},
	{"geometry":{"coordinates":[8.962089,50.593309],"type":"Point"},"properties":{"osm_id":"5429857460","tag":{"amenity":"waste_basket"}},"type":"Feature"},
	{"geometry":{"coordinates":[8.882799,50.59389],"type":"Point"},"properties":{"osm_id":"5590114843","tag":{"amenity":"recycling","recycling:glass":"yes","recycling:metal":"yes","recycling_type":"container"}},"type":"Feature"},
	{"geometry":{"coordinates":[8.884239,50.591087],"type":"Point"},"properties":{"osm_id":"5922996209","tag":{"amenity":"waste_basket"}},"type":"Feature"},
	{"geometry":{"coordinates":[8.878298,50.596375],"type":"Point"},"properties":{"osm_id":"5998154743","tag":{"amenity":"waste_basket"}},"type":"Feature"},
	{"geometry":{"coordinates":[8.957546,50.590205],"type":"Point"},"properties":{"osm_id":"6453058235","tag":{"amenity":"waste_basket"}},"type":"Feature"},
	{"geometry":{"coordinates":[8.957336,50.590215],"type":"Point"},"properties":{"osm_id":"6453058236","tag":{"amenity":"waste_basket"}},"type":"Feature"},
	{"geometry":{"coordinates":[8.92581,50.575478],"type":"Point"},"properties":{"osm_id":"6456368298","tag":{"amenity":"waste_basket"}},"type":"Feature"},
	{"geometry":{"coordinates":[8.929387,50.579289],"type":"Point"},"properties":{"osm_id":"6456368300","tag":{"amenity":"waste_basket"}},"type":"Feature"},
	{"geometry":{"coordinates":[8.932769,50.578213],"type":"Point"},"properties":{"osm_id":"6456368302","tag":{"amenity":"waste_basket"}},"type":"Feature"},
	{"geometry":{"coordinates":[8.936626,50.571164],"type":"Point"},"properties":{"osm_id":"6456368309","tag":{"amenity":"waste_basket"}},"type":"Feature"},
	{"geometry":{"coordinates":[8.940039,50.573928],"type":"Point"},"properties":{"osm_id":"6456368313","tag":{"amenity":"waste_basket"}},"type":"Feature"},
	{"geometry":{"coordinates":[8.959705,50.596694],"type":"Point"},"properties":{"osm_id":"6488756193","tag":{"amenity":"waste_basket"}},"type":"Feature"},
	{"geometry":{"coordinates":[8.925024,50.573801],"type":"Point"},"properties":{"osm_id":"6635685500","tag":{"amenity":"waste_basket"}},"type":"Feature"},
	{"geometry":{"coordinates":[8.880816,50.578732],"type":"Point"},"properties":{"osm_id":"6635690999","tag":{"amenity":"waste_basket"}},"type":"Feature"},
	{"geometry":{"coordinates":[8.886227,50.57413],"type":"Point"},"properties":{"osm_id":"6662218200","tag":{"amenity":"waste_basket"}},"type":"Feature"},
	{"geometry":{"coordinates":[8.890023,50.57509],"type":"Point"},"properties":{"osm_id":"6662218202","tag":{"amenity":"waste_basket"}},"type":"Feature"},
	{"geometry":{"coordinates":[8.878023,50.601026],"type":"Point"},"properties":{"osm_id":"6920080891","tag":{"amenity":"waste_basket"}},"type":"Feature"}
]
}
