{
"type": "FeatureCollection",
"features": [
	{"geometry":{"coordinates":[8.897477,50.447027],"type":"Point"},"properties":{"osm_id":"410442180","tag":{"amenity":"recycling","recycling:clothes":"yes"}},"type":"Feature"},
	{"geometry":{"coordinates":[8.945653,50.44977],"type":"Point"},"properties":{"osm_id":"443675975","tag":{"amenity":"recycling","recycling:cans":"yes","recycling:clothes":"yes","recycling:glass":"yes"}},"type":"Feature"},
	{"geometry":{"coordinates":[8.887758,50.448438],"type":"Point"},"properties":{"osm_id":"1382333051","tag":{"amenity":"waste_basket"}},"type":"Feature"},
	{"geometry":{"coordinates":[8.895707,50.454963],"type":"Point"},"properties":{"osm_id":"1382333052","tag":{"amenity":"waste_basket"}},"type":"Feature"},
	{"geometry":{"coordinates":[8.903491,50.412932],"type":"Point"},"properties":{"osm_id":"1828059882","tag":{"amenity":"recycling","recycling:glass":"yes","recycling:glass_bottles":"yes","recycling_type":"container"}},"type":"Feature"},
	{"geometry":{"coordinates":[8.884722,50.438275],"type":"Point"},"properties":{"osm_id":"1958315707","tag":{"amenity":"recycling","recycling:clothes":"yes","recycling:glass":"yes"}},"type":"Feature"},
	{"geometry":{"coordinates":[8.888036,50.448527],"type":"Point"},"properties":{"osm_id":"2677530989","tag":{"amenity":"waste_basket"}},"type":"Feature"},
	{"geometry":{"coordinates":[8.890164,50.437484],"type":"Point"},"properties":{"osm_id":"4397110708","tag":{"amenity":"waste_basket"}},"type":"Feature"},
	{"geometry":{"coordinates":[8.892058,50.445455],"type":"Point"},"properties":{"osm_id":"4397110710","tag":{"amenity":"waste_basket"}},"type":"Feature"},
	{"geometry":{"coordinates":[8.910168,50.451417],"type":"Point"},"properties":{"osm_id":"5318798834","tag":{"amenity":"waste_basket"}},"type":"Feature"},
	{"geometry":{"coordinates":[8.923683,50.44085],"type":"Point"},"properties":{"osm_id":"5420075952","tag":{"amenity":"recycling","recycling:glass_bottles":"yes","recycling_type":"container"}},"type":"Feature"},
	{"geometry":{"coordinates":[8.906319,50.44822],"type":"Point"},"properties":{"osm_id":"5904260108","tag":{"amenity":"waste_basket"}},"type":"Feature"},
	{"geometry":{"coordinates":[8.940713,50.425488],"type":"Point"},"properties":{"osm_id":"5905011563","tag":{"amenity":"waste_basket"}},"type":"Feature"},
	{"geometry":{"coordinates":[8.880654,50.436883],"type":"Point"},"properties":{"osm_id":"5905014459","tag":{"amenity":"waste_basket"}},"type":"Feature"},
	{"geometry":{"coordinates":[8.894554,50.45683],"type":"Point"},"properties":{"osm_id":"6140250190","tag":{"amenity":"waste_basket"}},"type":"Feature"},
	{"geometry":{"coordinates":[8.934082,50.4295],"type":"Point"},"properties":{"osm_id":"6844894204","tag":{"amenity":"waste_basket"}},"type":"Feature"},
	{"geometry":{"coordinates":[8.938595,50.418495],"type":"Point"},"properties":{"osm_id":"6845158959","tag":{"amenity":"waste_basket"}},"type":"Feature"},
	{"geometry":{"coordinates":[8.938933,50.418598],"type":"Point"},"properties":{"osm_id":"6845158961","tag":{"amenity":"waste_basket","public_transport":"destination_display"}},"type":"Feature"},
	{"geometry":{"coordinates":[8.939241,50.418694],"type":"Point"},"properties":{"osm_id":"6845158968","tag":{"amenity":"waste_basket"}},"type":"Feature"}
]
}
