{
"type": "FeatureCollection",
"features": [
	{"geometry":{"coordinates":[8.878549,50.22466],"type":"Point"},"properties":{"osm_id":"313362866","tag":{"amenity":"recycling","recycling:glass_bottles":"yes","recycling_type":"container"}},"type":"Feature"},
	{"geometry":{"coordinates":[8.893488,50.224705],"type":"Point"},"properties":{"osm_id":"602380335","tag":{"amenity":"recycling","recycling:batteries":"no","recycling:cans":"no","recycling:clothes":"yes","recycling:glass":"yes","recycling:paper":"no","recycling:scrap_metal":"no","recycling_type":"container"}},"type":"Feature"},
	{"geometry":{"coordinates":[8.914124,50.224292],"type":"Point"},"properties":{"osm_id":"604008165","tag":{"amenity":"recycling","recycling:clothes":"yes","recycling:glass":"no","recycling:glass_bottles":"yes","recycling:shoes":"yes","recycling_type":"container"}},"type":"Feature"},
	{"geometry":{"coordinates":[8.900958,50.223324],"type":"Point"},"properties":{"osm_id":"605762953","tag":{"amenity":"recycling","recycling:glass":"yes","recycling_type":"container"}},"type":"Feature"},
	{"geometry":{"coordinates":[8.931722,50.178101],"type":"Point"},"properties":{"osm_id":"1685922904","tag":{"amenity":"recycling","recycling:glass_bottles":"yes","recycling_type":"container"}},"type":"Feature"},
	{"geometry":{"coordinates":[8.932955,50.179564],"type":"Point"},"properties":{"osm_id":"1697872863","tag":{"amenity":"recycling","recycling:clothes":"yes","recycling:shoes":"yes","recycling_type":"container"}},"type":"Feature"},
	{"geometry":{"coordinates":[8.917394,50.187486],"type":"Point"},"properties":{"osm_id":"1927615047","tag":{"amenity":"recycling","check_date":"2021-07-07","recycling:glass_bottles":"yes","recycling_type":"container"}},"type":"Feature"},
	{"geometry":{"coordinates":[8.935944,50.192226],"type":"Point"},"properties":{"osm_id":"1940160181","tag":{"amenity":"recycling","recycling:clothes":"yes","recycling:glass":"no","recycling:glass_bottles":"yes","recycling:shoes":"yes","recycling_type":"container"}},"type":"Feature"},
	{"geometry":{"coordinates":[8.891077,50.225002],"type":"Point"},"properties":{"name":"Die Schrottler","osm_id":"1977372972","tag":{"amenity":"waste_disposal"}},"type":"Feature"},
	{"geometry":{"coordinates":[8.894606,50.178881],"type":"Point"},"properties":{"osm_id":"2078478975","tag":{"amenity":"recycling","recycling:clothes":"yes","recycling:shoes":"yes","recycling_type":"container"}},"type":"Feature"},
	{"geometry":{"coordinates":[8.895062,50.17879],"type":"Point"},"properties":{"osm_id":"2078478979","tag":{"amenity":"recycling","recycling:glass_bottles":"yes","recycling_type":"container"}},"type":"Feature"},
	{"geometry":{"coordinates":[8.914045,50.193579],"type":"Point"},"properties":{"osm_id":"3145450776","tag":{"amenity":"recycling","recycling:cans":"no","recycling:clothes":"yes","recycling:glass":"yes","recycling:paper":"no","recycling_type":"container"}},"type":"Feature"},
	{"geometry":{"coordinates":[8.92549,50.215629],"type":"Point"},"properties":{"osm_id":"3162786905","tag":{"amenity":"waste_basket"}},"type":"Feature"},
	{"geometry":{"coordinates":[8.957467,50.193534],"type":"Point"},"properties":{"osm_id":"3640328890","tag":{"amenity":"recycling","recycling:glass_bottles":"yes","recycling_type":"container"}},"type":"Feature"},
	{"geometry":{"coordinates":[8.921874,50.216139],"type":"Point"},"properties":{"osm_id":"3734186792","tag":{"amenity":"waste_basket"}},"type":"Feature"},
	{"geometry":{"coordinates":[8.877878,50.221075],"type":"Point"},"properties":{"osm_id":"3745132438","tag":{"amenity":"recycling","recycling:clothes":"yes","recycling:glass_bottles":"yes","recycling:shoes":"yes","recycling_type":"container"}},"type":"Feature"},
	{"geometry":{"coordinates":[8.909729,50.202483],"type":"Point"},"properties":{"osm_id":"3751829329","tag":{"amenity":"recycling","recycling:glass_bottles":"yes","recycling_type":"container"}},"type":"Feature"},
	{"geometry":{"coordinates":[8.94375,50.200219],"type":"Point"},"properties":{"osm_id":"3767393063","tag":{"amenity":"waste_basket"}},"type":"Feature"},
	{"geometry":{"coordinates":[8.89152,50.222659],"type":"Point"},"properties":{"osm_id":"3793936306","tag":{"amenity":"recycling","recycling:clothes":"yes","recycling:glass_bottles":"yes","recycling:shoes":"yes","recycling_type":"container"}},"type":"Feature"},
	{"geometry":{"coordinates":[8.92642,50.218687],"type":"Point"},"properties":{"osm_id":"3799729725","tag":{"amenity":"waste_basket"}},"type":"Feature"},
	{"geometry":{"coordinates":[8.930048,50.213272],"type":"Point"},"properties":{"osm_id":"3806985050","tag":{"amenity":"waste_basket"}},"type":"Feature"},
	{"geometry":{"coordinates":[8.935897,50.211012],"type":"Point"},"properties":{"osm_id":"4279973794","tag":{"amenity":"recycling","recycling:glass":"yes","recycling_type":"container"}},"type":"Feature"},
	{"geometry":{"coordinates":[8.880672,50.208637],"type":"Point"},"properties":{"osm_id":"4316798351","tag":{"amenity":"waste_basket"}},"type":"Feature"},
	{"geometry":{"coordinates":[8.951859,50.193982],"type":"Point"},"properties":{"osm_id":"5120010615","tag":{"amenity":"recycling","recycling:glass_bottles":"yes","recycling_type":"container"}},"type":"Feature"},
	{"geometry":{"coordinates":[8.890382,50.227691],"type":"Point"},"properties":{"osm_id":"5256369977","tag":{"amenity":"recycling","recycling:clothes":"yes","recycling:glass_bottles":"yes","recycling:shoes":"yes","recycling_type":"container"}},"type":"Feature"},
	{"geometry":{"coordinates":[8.912262,50.17732],"type":"Point"},"properties":{"osm_id":"5337101870","tag":{"amenity":"recycling","recycling:clothes":"yes","recycling:shoes":"yes","recycling_type":"container"}},"type":"Feature"},
	{"geometry":{"coordinates":[8.909335,50.178087],"type":"Point"},"properties":{"osm_id":"5337101871","tag":{"amenity":"recycling","recycling:clothes":"yes","recycling:shoes":"yes","recycling_type":"container"}},"type":"Feature"},
	{"geometry":{"coordinates":[8.880326,50.230621],"type":"Point"},"properties":{"osm_id":"5337934088","tag":{"amenity":"waste_basket"}},"type":"Feature"},
	{"geometry":{"coordinates":[8.880276,50.230995],"type":"Point"},"properties":{"osm_id":"5337934089","tag":{"amenity":"waste_basket"}},"type":"Feature"},
	{"geometry":{"coordinates":[8.937822,50.19416],"type":"Point"},"properties":{"osm_id":"5396048609","tag":{"amenity":"recycling","recycling:glass_bottles":"yes","recycling_type":"container"}},"type":"Feature"},
	{"geometry":{"coordinates":[8.953453,50.195369],"type":"Point"},"properties":{"osm_id":"5396147173","tag":{"amenity":"recycling","operator":"TEXAID","recycling:clothes":"yes","recycling:shoes":"yes","recycling_type":"container"}},"type":"Feature"},
	{"geometry":{"coordinates":[8.907932,50.221119],"type":"Point"},"properties":{"osm_id":"5435800129","tag":{"amenity":"recycling","recycling:clothes":"yes","recycling:shoes":"yes","recycling_type":"container"}},"type":"Feature"},
	{"geometry":{"coordinates":[8.908226,50.226077],"type":"Point"},"properties":{"osm_id":"5459773183","tag":{"amenity":"recycling","recycling:clothes":"yes","recycling:glass_bottles":"yes","recycling:shoes":"yes","recycling_type":"container"}},"type":"Feature"},
	{"geometry":{"coordinates":[8.912926,50.178997],"type":"Point"},"properties":{"osm_id":"5482890301","tag":{"amenity":"recycling","recycling:clothes":"yes","recycling:shoes":"yes","recycling_type":"container"}},"type":"Feature"},
	{"geometry":{"coordinates":[8.906039,50.197197],"type":"Point"},"properties":{"osm_id":"5522869409","tag":{"amenity":"recycling","recycling:clothes":"yes","recycling:glass_bottles":"yes","recycling:shoes":"yes","recycling_type":"container"}},"type":"Feature"},
	{"geometry":{"coordinates":[8.890807,50.224829],"type":"Point"},"properties":{"osm_id":"5567224647","tag":{"amenity":"recycling","recycling:glass_bottles":"yes","recycling_type":"container"}},"type":"Feature"},
	{"geometry":{"coordinates":[8.912315,50.184764],"type":"Point"},"properties":{"osm_id":"5570514859","tag":{"amenity":"recycling","recycling:glass_bottles":"yes","recycling_type":"container"}},"type":"Feature"},
	{"geometry":{"coordinates":[8.914862,50.200379],"type":"Point"},"properties":{"osm_id":"5628404856","tag":{"amenity":"recycling","recycling:glass_bottles":"yes","recycling_type":"container"}},"type":"Feature"},
	{"geometry":{"coordinates":[8.893727,50.22468],"type":"Point"},"properties":{"osm_id":"5685036509","tag":{"amenity":"recycling","recycling:clothes":"yes","recycling:shoes":"yes","recycling_type":"container"}},"type":"Feature"},
	{"geometry":{"coordinates":[8.927597,50.187425],"type":"Point"},"properties":{"osm_id":"5808427193","tag":{"amenity":"recycling","recycling:glass_bottles":"yes","recycling_type":"container"}},"type":"Feature"},
	{"geometry":{"coordinates":[8.937659,50.191345],"type":"Point"},"properties":{"osm_id":"5870433528","tag":{"amenity":"waste_basket","waste":"trash"}},"type":"Feature"},
	{"geometry":{"coordinates":[8.936352,50.180129],"type":"Point"},"properties":{"osm_id":"5870433538","tag":{"amenity":"recycling","recycling:glass_bottles":"yes","recycling_type":"container"}},"type":"Feature"},
	{"geometry":{"coordinates":[8.892748,50.219964],"type":"Point"},"properties":{"osm_id":"5903629914","tag":{"amenity":"waste_basket","waste":"trash"}},"type":"Feature"},
	{"geometry":{"coordinates":[8.911349,50.205361],"type":"Point"},"properties":{"osm_id":"5904224499","tag":{"amenity":"waste_basket","waste":"trash"}},"type":"Feature"},
	{"geometry":{"coordinates":[8.93469,50.192892],"type":"Point"},"properties":{"osm_id":"5906481629","tag":{"amenity":"recycling","recycling:clothes":"yes","recycling:shoes":"yes","recycling_type":"container"}},"type":"Feature"},
	{"geometry":{"coordinates":[8.923944,50.193653],"type":"Point"},"properties":{"osm_id":"5906859984","tag":{"amenity":"recycling","check_date:recycling":"2021-06-09","recycling:clothes":"yes","recycling:shoes":"yes","recycling_type":"container"}},"type":"Feature"},
	{"geometry":{"coordinates":[8.911773,50.231243],"type":"Point"},"properties":{"osm_id":"6025551377","tag":{"amenity":"recycling","recycling:clothes":"yes","recycling:shoes":"yes","recycling_type":"container"}},"type":"Feature"},
	{"geometry":{"coordinates":[8.908723,50.230037],"type":"Point"},"properties":{"osm_id":"6025553068","tag":{"amenity":"recycling","recycling:clothes":"yes","recycling:shoes":"yes","recycling_type":"container"}},"type":"Feature"},
	{"geometry":{"coordinates":[8.881676,50.224231],"type":"Point"},"properties":{"osm_id":"6070499688","tag":{"amenity":"recycling","recycling:clothes":"yes","recycling:shoes":"yes","recycling_type":"container"}},"type":"Feature"},
	{"geometry":{"coordinates":[8.910484,50.179505],"type":"Point"},"properties":{"osm_id":"6118842570","tag":{"amenity":"recycling","recycling:clothes":"yes","recycling:shoes":"yes","recycling_type":"container"}},"type":"Feature"},
	{"geometry":{"coordinates":[8.910382,50.179476],"type":"Point"},"properties":{"osm_id":"6118842573","tag":{"amenity":"recycling","recycling:glass_bottles":"yes","recycling_type":"container"}},"type":"Feature"},
	{"geometry":{"coordinates":[8.911154,50.178523],"type":"Point"},"properties":{"osm_id":"6118842574","tag":{"amenity":"recycling","recycling:clothes":"yes","recycling:shoes":"yes","recycling_type":"container"}},"type":"Feature"},
	{"geometry":{"coordinates":[8.911453,50.178937],"type":"Point"},"properties":{"osm_id":"6118842575","tag":{"amenity":"recycling","recycling:clothes":"yes","recycling:shoes":"yes","recycling_type":"container"}},"type":"Feature"},
	{"geometry":{"coordinates":[8.930325,50.180503],"type":"Point"},"properties":{"osm_id":"6121144637","tag":{"amenity":"recycling","recycling:glass_bottles":"yes","recycling_type":"container"}},"type":"Feature"},
	{"geometry":{"coordinates":[8.895186,50.178872],"type":"Point"},"properties":{"osm_id":"6400104822","tag":{"amenity":"recycling","recycling:clothes":"yes","recycling:shoes":"yes","recycling_type":"container"}},"type":"Feature"},
	{"geometry":{"coordinates":[8.929454,50.181395],"type":"Point"},"properties":{"osm_id":"6680937914","tag":{"amenity":"recycling","recycling:clothes":"yes","recycling:shoes":"yes","recycling_type":"container"}},"type":"Feature"},
	{"geometry":{"coordinates":[8.931727,50.182552],"type":"Point"},"properties":{"osm_id":"6696515464","tag":{"amenity":"waste_basket","waste":"trash"}},"type":"Feature"},
	{"geometry":{"coordinates":[8.956307,50.187979],"type":"Point"},"properties":{"osm_id":"7126971552","tag":{"amenity":"waste_basket","waste":"trash"}},"type":"Feature"},
	{"geometry":{"coordinates":[8.911099,50.177225],"type":"Point"},"properties":{"osm_id":"7263992788","tag":{"amenity":"recycling","recycling:glass":"yes","recycling_type":"container"}},"type":"Feature"},
	{"geometry":{"coordinates":[8.923878,50.18305],"type":"Point"},"properties":{"osm_id":"7263992789","tag":{"amenity":"recycling","check_date":"2021-07-07","recycling:clothes":"yes","recycling:glass_bottles":"yes","recycling:shoes":"yes","recycling_type":"container"}},"type":"Feature"},
	{"geometry":{"coordinates":[8.918212,50.177468],"type":"Point"},"properties":{"osm_id":"7326499149","tag":{"amenity":"waste_basket"}},"type":"Feature"},
	{"geometry":{"coordinates":[8.922875,50.17753],"type":"Point"},"properties":{"osm_id":"7326499157","tag":{"amenity":"waste_basket"}},"type":"Feature"},
	{"geometry":{"coordinates":[8.917912,50.177242],"type":"Point"},"properties":{"osm_id":"7326499158","tag":{"amenity":"waste_basket"}},"type":"Feature"},
	{"geometry":{"coordinates":[8.932919,50.179354],"type":"Point"},"properties":{"osm_id":"7326499159","tag":{"amenity":"waste_basket"}},"type":"Feature"},
	{"geometry":{"coordinates":[8.903834,50.192196],"type":"Point"},"properties":{"osm_id":"7326499162","tag":{"amenity":"waste_basket"}},"type":"Feature"},
	{"geometry":{"coordinates":[8.907888,50.180045],"type":"Point"},"properties":{"osm_id":"7326499163","tag":{"amenity":"waste_basket"}},"type":"Feature"},
	{"geometry":{"coordinates":[8.919575,50.180302],"type":"Point"},"properties":{"osm_id":"7710650715","tag":{"amenity":"waste_basket"}},"type":"Feature"},
	{"geometry":{"coordinates":[8.932565,50.184202],"type":"Point"},"properties":{"osm_id":"7835490276","tag":{"amenity":"waste_basket"}},"type":"Feature"},
	{"geometry":{"coordinates":[8.937177,50.186008],"type":"Point"},"properties":{"osm_id":"7835511990","tag":{"amenity":"waste_basket"}},"type":"Feature"},
	{"geometry":{"coordinates":[8.929224,50.184734],"type":"Point"},"properties":{"osm_id":"7835511991","tag":{"amenity":"waste_basket"}},"type":"Feature"},
	{"geometry":{"coordinates":[8.909966,50.185977],"type":"Point"},"properties":{"osm_id":"7843896184","tag":{"amenity":"waste_basket"}},"type":"Feature"},
	{"geometry":{"coordinates":[8.916387,50.178178],"type":"Point"},"properties":{"osm_id":"7866192214","tag":{"amenity":"waste_basket"}},"type":"Feature"},
	{"geometry":{"coordinates":[8.92632,50.178545],"type":"Point"},"properties":{"osm_id":"7931466739","tag":{"amenity":"recycling","recycling:glass_bottles":"yes","recycling_type":"container"}},"type":"Feature"},
	{"geometry":{"coordinates":[8.91403,50.187806],"type":"Point"},"properties":{"osm_id":"7944233167","tag":{"amenity":"recycling","recycling:glass_bottles":"yes","recycling_type":"container"}},"type":"Feature"},
	{"geometry":{"coordinates":[8.931871,50.178311],"type":"Point"},"properties":{"osm_id":"7963311339","tag":{"amenity":"recycling","recycling:glass_bottles":"yes","recycling_type":"container"}},"type":"Feature"},
	{"geometry":{"coordinates":[8.931891,50.178327],"type":"Point"},"properties":{"osm_id":"7963311340","tag":{"amenity":"recycling","recycling:clothes":"yes","recycling:shoes":"yes","recycling_type":"container"}},"type":"Feature"},
	{"geometry":{"coordinates":[8.943299,50.189023],"type":"Point"},"properties":{"osm_id":"7963311341","tag":{"amenity":"waste_basket"}},"type":"Feature"},
	{"geometry":{"coordinates":[8.952637,50.177892],"type":"Point"},"properties":{"osm_id":"7963311362","tag":{"amenity":"waste_basket"}},"type":"Feature"},
	{"geometry":{"coordinates":[8.919826,50.177923],"type":"Point"},"properties":{"osm_id":"7964830465","tag":{"amenity":"waste_basket"}},"type":"Feature"},
	{"geometry":{"coordinates":[8.919066,50.177746],"type":"Point"},"properties":{"osm_id":"7970669738","tag":{"amenity":"waste_basket"}},"type":"Feature"},
	{"geometry":{"coordinates":[8.921089,50.178885],"type":"Point"},"properties":{"osm_id":"7970669759","tag":{"amenity":"waste_basket"}},"type":"Feature"},
	{"geometry":{"coordinates":[8.921059,50.178548],"type":"Point"},"properties":{"osm_id":"7970674723","tag":{"amenity":"waste_basket"}},"type":"Feature"},
	{"geometry":{"coordinates":[8.919257,50.179988],"type":"Point"},"properties":{"osm_id":"7970674732","tag":{"amenity":"waste_basket"}},"type":"Feature"},
	{"geometry":{"coordinates":[8.919339,50.180119],"type":"Point"},"properties":{"osm_id":"7970674741","tag":{"amenity":"waste_basket"}},"type":"Feature"},
	{"geometry":{"coordinates":[8.919413,50.180395],"type":"Point"},"properties":{"osm_id":"7970674773","tag":{"amenity":"waste_basket"}},"type":"Feature"},
	{"geometry":{"coordinates":[8.922709,50.180244],"type":"Point"},"properties":{"osm_id":"7970674775","tag":{"amenity":"waste_basket"}},"type":"Feature"},
	{"geometry":{"coordinates":[8.91974,50.179284],"type":"Point"},"properties":{"osm_id":"7970674861","tag":{"amenity":"waste_basket"}},"type":"Feature"},
	{"geometry":{"coordinates":[8.921202,50.178685],"type":"Point"},"properties":{"osm_id":"7970674871","tag":{"amenity":"waste_basket"}},"type":"Feature"},
	{"geometry":{"coordinates":[8.936343,50.180142],"type":"Point"},"properties":{"osm_id":"8112524433","tag":{"amenity":"recycling","recycling:clothes":"yes","recycling:shoes":"yes","recycling_type":"container"}},"type":"Feature"},
	{"geometry":{"coordinates":[8.881959,50.220636],"type":"Point"},"properties":{"osm_id":"8119158803","tag":{"amenity":"recycling","recycling:clothes":"yes","recycling:glass_bottles":"yes","recycling:shoes":"yes","recycling_type":"container"}},"type":"Feature"},
	{"geometry":{"coordinates":[8.922027,50.184064],"type":"Point"},"properties":{"osm_id":"8124064610","tag":{"amenity":"recycling","recycling:clothes":"yes","recycling:shoes":"yes","recycling_type":"container"}},"type":"Feature"},
	{"geometry":{"coordinates":[8.917386,50.179873],"type":"Point"},"properties":{"osm_id":"8179648175","tag":{"amenity":"waste_basket"}},"type":"Feature"},
	{"geometry":{"coordinates":[8.917565,50.180243],"type":"Point"},"properties":{"osm_id":"8179648177","tag":{"amenity":"waste_basket"}},"type":"Feature"},
	{"geometry":{"coordinates":[8.918096,50.180544],"type":"Point"},"properties":{"osm_id":"8179648178","tag":{"amenity":"waste_basket"}},"type":"Feature"},
	{"geometry":{"coordinates":[8.917891,50.180392],"type":"Point"},"properties":{"osm_id":"8179648179","tag":{"amenity":"waste_basket"}},"type":"Feature"},
	{"geometry":{"coordinates":[8.918708,50.180876],"type":"Point"},"properties":{"osm_id":"8179648183","tag":{"amenity":"waste_basket"}},"type":"Feature"},
	{"geometry":{"coordinates":[8.920854,50.179889],"type":"Point"},"properties":{"osm_id":"8184418932","tag":{"amenity":"waste_basket"}},"type":"Feature"},
	{"geometry":{"coordinates":[8.941184,50.202637],"type":"Point"},"properties":{"osm_id":"8439527185","tag":{"amenity":"waste_basket"}},"type":"Feature"},
	{"geometry":{"coordinates":[8.937345,50.189203],"type":"Point"},"properties":{"osm_id":"8611980450","tag":{"amenity":"waste_basket"}},"type":"Feature"},
	{"geometry":{"coordinates":[8.935118,50.190157],"type":"Point"},"properties":{"osm_id":"8611980451","tag":{"amenity":"waste_basket"}},"type":"Feature"},
	{"geometry":{"coordinates":[8.939343,50.193996],"type":"Point"},"properties":{"osm_id":"8611997695","tag":{"amenity":"waste_basket"}},"type":"Feature"},
	{"geometry":{"coordinates":[8.939649,50.194636],"type":"Point"},"properties":{"osm_id":"8611997696","tag":{"amenity":"waste_basket"}},"type":"Feature"},
	{"geometry":{"coordinates":[8.940024,50.195813],"type":"Point"},"properties":{"osm_id":"8612002217","tag":{"amenity":"waste_basket"}},"type":"Feature"},
	{"geometry":{"coordinates":[8.942938,50.196635],"type":"Point"},"properties":{"osm_id":"8612002218","tag":{"amenity":"waste_basket"}},"type":"Feature"},
	{"geometry":{"coordinates":[8.947114,50.197823],"type":"Point"},"properties":{"osm_id":"8612002220","tag":{"amenity":"waste_basket"}},"type":"Feature"},
	{"geometry":{"coordinates":[8.925126,50.185266],"type":"Point"},"properties":{"barrier":"gate","osm_id":"8777603763"},"type":"Feature"},
	{"geometry":{"coordinates":[8.925538,50.185493],"type":"Point"},"properties":{"barrier":"gate","osm_id":"8777603765"},"type":"Feature"},
	{"geometry":{"coordinates":[8.925486,50.185532],"type":"Point"},"properties":{"barrier":"gate","osm_id":"8777603770"},"type":"Feature"}
]
}
