{
"type": "FeatureCollection",
"features": [
	{"geometry":{"coordinates":[8.923589,50.14394],"type":"Point"},"properties":{"osm_id":"1002761358","tag":{"amenity":"recycling","recycling:clothes":"yes","recycling:glass":"yes"}},"type":"Feature"},
	{"geometry":{"coordinates":[8.915237,50.141858],"type":"Point"},"properties":{"osm_id":"1002762825","tag":{"amenity":"recycling","recycling:glass":"yes"}},"type":"Feature"},
	{"geometry":{"coordinates":[8.922355,50.134809],"type":"Point"},"properties":{"osm_id":"1002770401","tag":{"amenity":"recycling","location":"overground","recycling:glass":"yes","recycling:paper":"yes","recycling_type":"container"}},"type":"Feature"},
	{"geometry":{"coordinates":[8.924316,50.136002],"type":"Point"},"properties":{"osm_id":"1002772261","tag":{"amenity":"recycling","location":"underground","recycling:clothes":"yes","recycling_type":"container"}},"type":"Feature"},
	{"geometry":{"coordinates":[8.924994,50.135851],"type":"Point"},"properties":{"osm_id":"1002772266","tag":{"amenity":"recycling","recycling:glass":"yes","recycling:paper":"yes"}},"type":"Feature"},
	{"geometry":{"coordinates":[8.925443,50.137725],"type":"Point"},"properties":{"osm_id":"1132241530","tag":{"amenity":"recycling","location":"overground","recycling:clothes":"yes","recycling:glass":"yes","recycling_type":"container"}},"type":"Feature"},
	{"geometry":{"coordinates":[8.928411,50.174028],"type":"Point"},"properties":{"osm_id":"1685925618","tag":{"amenity":"recycling","recycling:clothes":"yes","recycling:glass_bottles":"yes","recycling:shoes":"yes","recycling_type":"container"}},"type":"Feature"},
	{"geometry":{"coordinates":[8.931153,50.175736],"type":"Point"},"properties":{"osm_id":"1697863036","tag":{"amenity":"recycling","recycling:glass_bottles":"yes","recycling_type":"container"}},"type":"Feature"},
	{"geometry":{"coordinates":[8.918229,50.175183],"type":"Point"},"properties":{"osm_id":"1927717106","tag":{"amenity":"recycling","recycling:clothes":"yes","recycling_type":"container"}},"type":"Feature"},
	{"geometry":{"coordinates":[8.892698,50.176468],"type":"Point"},"properties":{"osm_id":"1951792556","tag":{"amenity":"recycling","recycling:glass_bottles":"yes","recycling:paper":"yes","recycling_type":"container"}},"type":"Feature"},
	{"geometry":{"coordinates":[8.887528,50.17487],"type":"Point"},"properties":{"osm_id":"2051493796","tag":{"amenity":"recycling","recycling:clothes":"yes","recycling:glass_bottles":"yes","recycling:paper":"yes","recycling_type":"container"}},"type":"Feature"},
	{"geometry":{"coordinates":[8.886629,50.173122],"type":"Point"},"properties":{"osm_id":"2051524401","tag":{"amenity":"recycling","recycling:green_waste":"yes","recycling:hardcore":"yes","recycling_type":"container"}},"type":"Feature"},
	{"geometry":{"coordinates":[8.926198,50.133781],"type":"Point"},"properties":{"osm_id":"2478083136","tag":{"amenity":"recycling","location":"overground","recycling:glass":"no","recycling:glass_bottles":"yes","recycling_type":"container"}},"type":"Feature"},
	{"geometry":{"coordinates":[8.919111,50.132379],"type":"Point"},"properties":{"osm_id":"2887269889","tag":{"amenity":"waste_basket"}},"type":"Feature"},
	{"geometry":{"coordinates":[8.918248,50.132385],"type":"Point"},"properties":{"osm_id":"2887269898","tag":{"amenity":"waste_basket"}},"type":"Feature"},
	{"geometry":{"coordinates":[8.919287,50.132492],"type":"Point"},"properties":{"osm_id":"2904992360","tag":{"amenity":"waste_basket"}},"type":"Feature"},
	{"geometry":{"coordinates":[8.878346,50.133946],"type":"Point"},"properties":{"osm_id":"2905326772","tag":{"amenity":"recycling","recycling:clothes":"yes"}},"type":"Feature"},
	{"geometry":{"coordinates":[8.884587,50.134649],"type":"Point"},"properties":{"osm_id":"2905326789","tag":{"amenity":"recycling","recycling:clothes":"yes"}},"type":"Feature"},
	{"geometry":{"coordinates":[8.90404,50.144744],"type":"Point"},"properties":{"osm_id":"2905977483","tag":{"amenity":"waste_basket"}},"type":"Feature"},
	{"geometry":{"coordinates":[8.906667,50.144948],"type":"Point"},"properties":{"osm_id":"2905977484","tag":{"amenity":"waste_basket"}},"type":"Feature"},
	{"geometry":{"coordinates":[8.954654,50.121316],"type":"Point"},"properties":{"osm_id":"2929873552","tag":{"amenity":"recycling"}},"type":"Feature"},
	{"geometry":{"coordinates":[8.941751,50.141315],"type":"Point"},"properties":{"osm_id":"2932763976","tag":{"amenity":"recycling"}},"type":"Feature"},
	{"geometry":{"coordinates":[8.911006,50.134864],"type":"Point"},"properties":{"osm_id":"2954242559","tag":{"amenity":"recycling"}},"type":"Feature"},
	{"geometry":{"coordinates":[8.930197,50.12239],"type":"Point"},"properties":{"osm_id":"3008658731","tag":{"amenity":"recycling","location":"overground","recycling:cans":"no","recycling:clothes":"no","recycling:glass":"yes","recycling:paper":"no","recycling_type":"container"}},"type":"Feature"},
	{"geometry":{"coordinates":[8.92908,50.128437],"type":"Point"},"properties":{"osm_id":"3012013470","tag":{"amenity":"recycling","location":"overground","recycling_type":"container"}},"type":"Feature"},
	{"geometry":{"coordinates":[8.915367,50.143684],"type":"Point"},"properties":{"osm_id":"3027993232","tag":{"amenity":"recycling","recycling:cans":"no","recycling:clothes":"no","recycling:glass":"yes","recycling:paper":"yes","recycling_type":"container"}},"type":"Feature"},
	{"geometry":{"coordinates":[8.920277,50.172146],"type":"Point"},"properties":{"osm_id":"3110633924","tag":{"amenity":"recycling","operator":"RHENUS LOGISTIC","phone":"+49 6181 9380","recycling:glass_bottles":"yes","recycling_type":"container","website":"https://www.de.rhenus.com/leistungen/mehrwertlogistik/entsorgung-recycling/"}},"type":"Feature"},
	{"geometry":{"coordinates":[8.894127,50.144011],"type":"Point"},"properties":{"osm_id":"3223610028","tag":{"amenity":"recycling","recycling:glass":"no","recycling:glass_bottles":"yes","recycling_type":"container"}},"type":"Feature"},
	{"geometry":{"coordinates":[8.934559,50.126274],"type":"Point"},"properties":{"osm_id":"3358334688","tag":{"amenity":"recycling"}},"type":"Feature"},
	{"geometry":{"coordinates":[8.962613,50.123645],"type":"Point"},"properties":{"osm_id":"3358766185","tag":{"amenity":"recycling"}},"type":"Feature"},
	{"geometry":{"coordinates":[8.93692,50.15247],"type":"Point"},"properties":{"osm_id":"3359387953","tag":{"amenity":"recycling","recycling:glass_bottles":"yes","recycling_type":"container"}},"type":"Feature"},
	{"geometry":{"coordinates":[8.908052,50.130637],"type":"Point"},"properties":{"osm_id":"3384219197","tag":{"amenity":"waste_basket"}},"type":"Feature"},
	{"geometry":{"coordinates":[8.880381,50.131497],"type":"Point"},"properties":{"osm_id":"3392863688","tag":{"amenity":"recycling"}},"type":"Feature"},
	{"geometry":{"coordinates":[8.910276,50.132127],"type":"Point"},"properties":{"osm_id":"3393075691","tag":{"amenity":"waste_basket"}},"type":"Feature"},
	{"geometry":{"coordinates":[8.885208,50.130198],"type":"Point"},"properties":{"osm_id":"3422734702","tag":{"amenity":"recycling"}},"type":"Feature"},
	{"geometry":{"coordinates":[8.909202,50.122844],"type":"Point"},"properties":{"osm_id":"3434406281","tag":{"amenity":"recycling"}},"type":"Feature"},
	{"geometry":{"coordinates":[8.920658,50.131103],"type":"Point"},"properties":{"osm_id":"3483065667","tag":{"amenity":"recycling","location":"overground","recycling_type":"container"}},"type":"Feature"},
	{"geometry":{"coordinates":[8.897088,50.136123],"type":"Point"},"properties":{"osm_id":"3493424702","tag":{"amenity":"recycling"}},"type":"Feature"},
	{"geometry":{"coordinates":[8.934831,50.135638],"type":"Point"},"properties":{"osm_id":"3501903914","tag":{"amenity":"recycling"}},"type":"Feature"},
	{"geometry":{"coordinates":[8.920839,50.148545],"type":"Point"},"properties":{"osm_id":"3502600057","tag":{"amenity":"recycling","recycling:glass_bottles":"yes","recycling_type":"container"}},"type":"Feature"},
	{"geometry":{"coordinates":[8.910355,50.137256],"type":"Point"},"properties":{"osm_id":"3558308143","tag":{"amenity":"recycling"}},"type":"Feature"},
	{"geometry":{"coordinates":[8.896782,50.139144],"type":"Point"},"properties":{"osm_id":"3595143089","tag":{"amenity":"recycling","location":"overground","recycling_type":"container"}},"type":"Feature"},
	{"geometry":{"coordinates":[8.883963,50.128629],"type":"Point"},"properties":{"osm_id":"3600573661","tag":{"amenity":"recycling"}},"type":"Feature"},
	{"geometry":{"coordinates":[8.918077,50.174927],"type":"Point"},"properties":{"osm_id":"3610870316","tag":{"amenity":"recycling","recycling:clothes":"yes","recycling_type":"container"}},"type":"Feature"},
	{"geometry":{"coordinates":[8.901977,50.143615],"type":"Point"},"properties":{"osm_id":"3627774546","tag":{"amenity":"recycling","recycling:glass":"no","recycling:glass_bottles":"yes","recycling_type":"container"}},"type":"Feature"},
	{"geometry":{"coordinates":[8.889061,50.133248],"type":"Point"},"properties":{"osm_id":"3657219770","tag":{"amenity":"recycling"}},"type":"Feature"},
	{"geometry":{"coordinates":[8.886863,50.136756],"type":"Point"},"properties":{"osm_id":"3657219790","tag":{"amenity":"recycling"}},"type":"Feature"},
	{"geometry":{"coordinates":[8.944318,50.138871],"type":"Point"},"properties":{"osm_id":"3706893606","tag":{"amenity":"recycling","recycling:glass_bottles":"yes","recycling_type":"container"}},"type":"Feature"},
	{"geometry":{"coordinates":[8.930569,50.137248],"type":"Point"},"properties":{"osm_id":"3708507440","tag":{"amenity":"recycling","location":"overground","recycling_type":"container"}},"type":"Feature"},
	{"geometry":{"coordinates":[8.93177,50.138001],"type":"Point"},"properties":{"osm_id":"3708507441","tag":{"amenity":"recycling","location":"overground","recycling:glass_bottles":"yes","recycling_type":"container"}},"type":"Feature"},
	{"geometry":{"coordinates":[8.930988,50.121228],"type":"Point"},"properties":{"osm_id":"3776033816","tag":{"amenity":"waste_basket"}},"type":"Feature"},
	{"geometry":{"coordinates":[8.931072,50.121288],"type":"Point"},"properties":{"osm_id":"3776033820","tag":{"amenity":"waste_basket"}},"type":"Feature"},
	{"geometry":{"coordinates":[8.931153,50.121346],"type":"Point"},"properties":{"osm_id":"3776033821","tag":{"amenity":"waste_basket"}},"type":"Feature"},
	{"geometry":{"coordinates":[8.896429,50.130961],"type":"Point"},"properties":{"osm_id":"3824281490","tag":{"amenity":"recycling","recycling:cardboard":"yes","recycling:cartons":"yes","recycling:glass_bottles":"yes","recycling:newspaper":"yes","recycling:paper":"yes","recycling_type":"container"}},"type":"Feature"},
	{"geometry":{"coordinates":[8.922661,50.169261],"type":"Point"},"properties":{"osm_id":"4323564394","tag":{"amenity":"waste_basket"}},"type":"Feature"},
	{"geometry":{"coordinates":[8.880574,50.1477],"type":"Point"},"properties":{"osm_id":"4323564406","tag":{"amenity":"waste_basket"}},"type":"Feature"},
	{"geometry":{"coordinates":[8.881083,50.148226],"type":"Point"},"properties":{"osm_id":"4323564409","tag":{"amenity":"waste_basket"}},"type":"Feature"},
	{"geometry":{"coordinates":[8.883586,50.144837],"type":"Point"},"properties":{"osm_id":"4323564411","tag":{"amenity":"waste_basket"}},"type":"Feature"},
	{"geometry":{"coordinates":[8.883417,50.144883],"type":"Point"},"properties":{"osm_id":"4323653192","tag":{"amenity":"waste_basket"}},"type":"Feature"},
	{"geometry":{"coordinates":[8.882504,50.144635],"type":"Point"},"properties":{"osm_id":"4323653193","tag":{"amenity":"recycling","operator":"RHENUS LOGISTICS","phone":"+49 800 1223255","recycling:glass_bottles":"yes","recycling_type":"container","website":"https://www.de.rhenus.com/leistungen/mehrwertlogistik/entsorgung-recycling/"}},"type":"Feature"},
	{"geometry":{"coordinates":[8.883274,50.145064],"type":"Point"},"properties":{"osm_id":"4323669290","tag":{"amenity":"waste_basket"}},"type":"Feature"},
	{"geometry":{"coordinates":[8.882234,50.148139],"type":"Point"},"properties":{"osm_id":"4323669298","tag":{"amenity":"waste_basket"}},"type":"Feature"},
	{"geometry":{"coordinates":[8.882726,50.14738],"type":"Point"},"properties":{"osm_id":"4323669299","tag":{"amenity":"waste_basket"}},"type":"Feature"},
	{"geometry":{"coordinates":[8.886341,50.149199],"type":"Point"},"properties":{"osm_id":"4323669302","tag":{"amenity":"waste_basket"}},"type":"Feature"},
	{"geometry":{"coordinates":[8.881251,50.149829],"type":"Point"},"properties":{"osm_id":"4323669308","tag":{"amenity":"waste_basket"}},"type":"Feature"},
	{"geometry":{"coordinates":[8.883394,50.144691],"type":"Point"},"properties":{"osm_id":"4323669316","tag":{"amenity":"waste_basket"}},"type":"Feature"},
	{"geometry":{"coordinates":[8.884379,50.147653],"type":"Point"},"properties":{"osm_id":"4323669990","tag":{"amenity":"waste_basket"}},"type":"Feature"},
	{"geometry":{"coordinates":[8.886973,50.148786],"type":"Point"},"properties":{"osm_id":"4323671490","tag":{"amenity":"waste_basket"}},"type":"Feature"},
	{"geometry":{"coordinates":[8.920055,50.172378],"type":"Point"},"properties":{"osm_id":"4326961695","tag":{"amenity":"waste_basket"}},"type":"Feature"},
	{"geometry":{"coordinates":[8.920152,50.172272],"type":"Point"},"properties":{"osm_id":"4326989990","tag":{"amenity":"waste_basket"}},"type":"Feature"},
	{"geometry":{"coordinates":[8.942077,50.143806],"type":"Point"},"properties":{"osm_id":"4642467332","tag":{"amenity":"recycling","recycling:clothes":"yes","recycling_type":"container"}},"type":"Feature"},
	{"geometry":{"coordinates":[8.895684,50.131514],"type":"Point"},"properties":{"osm_id":"4655880348","tag":{"amenity":"waste_basket"}},"type":"Feature"},
	{"geometry":{"coordinates":[8.895268,50.131796],"type":"Point"},"properties":{"osm_id":"4952874583","tag":{"amenity":"waste_basket"}},"type":"Feature"},
	{"geometry":{"coordinates":[8.925916,50.141642],"type":"Point"},"properties":{"osm_id":"5337952882","tag":{"amenity":"waste_basket"}},"type":"Feature"},
	{"geometry":{"coordinates":[8.925871,50.141757],"type":"Point"},"properties":{"osm_id":"5337952883","tag":{"amenity":"waste_basket"}},"type":"Feature"},
	{"geometry":{"coordinates":[8.925732,50.142141],"type":"Point"},"properties":{"osm_id":"5337952884","tag":{"amenity":"waste_basket"}},"type":"Feature"},
	{"geometry":{"coordinates":[8.916394,50.131588],"type":"Point"},"properties":{"osm_id":"5368625997","tag":{"amenity":"recycling","recycling:glass":"yes","recycling:paper":"yes","recycling_type":"container"}},"type":"Feature"},
	{"geometry":{"coordinates":[8.913792,50.131395],"type":"Point"},"properties":{"osm_id":"5370466804","tag":{"amenity":"recycling","recycling:clothes":"yes","recycling_type":"container"}},"type":"Feature"},
	{"geometry":{"coordinates":[8.910614,50.131803],"type":"Point"},"properties":{"osm_id":"5370466805","tag":{"amenity":"recycling","recycling:clothes":"yes","recycling_type":"container"}},"type":"Feature"},
	{"geometry":{"coordinates":[8.910759,50.131998],"type":"Point"},"properties":{"osm_id":"5370466806","tag":{"amenity":"recycling","recycling:clothes":"yes","recycling_type":"container"}},"type":"Feature"},
	{"geometry":{"coordinates":[8.912082,50.131172],"type":"Point"},"properties":{"osm_id":"5370466809","tag":{"amenity":"waste_basket"}},"type":"Feature"},
	{"geometry":{"coordinates":[8.911816,50.131186],"type":"Point"},"properties":{"osm_id":"5370466810","tag":{"amenity":"waste_basket"}},"type":"Feature"},
	{"geometry":{"coordinates":[8.932629,50.143821],"type":"Point"},"properties":{"osm_id":"6040292193","tag":{"amenity":"recycling","recycling:glass_bottles":"yes","recycling_type":"container"}},"type":"Feature"},
	{"geometry":{"coordinates":[8.918894,50.169867],"type":"Point"},"properties":{"osm_id":"6046441352","tag":{"amenity":"waste_basket","waste":"trash"}},"type":"Feature"},
	{"geometry":{"coordinates":[8.926737,50.17074],"type":"Point"},"properties":{"osm_id":"6046987768","tag":{"amenity":"recycling","recycling:glass_bottles":"yes","recycling_type":"container"}},"type":"Feature"},
	{"geometry":{"coordinates":[8.877995,50.175601],"type":"Point"},"properties":{"osm_id":"6112748867","tag":{"amenity":"waste_basket","waste":"trash"}},"type":"Feature"},
	{"geometry":{"coordinates":[8.891013,50.175081],"type":"Point"},"properties":{"osm_id":"6113203485","tag":{"amenity":"recycling","recycling:glass_bottles":"yes","recycling_type":"container"}},"type":"Feature"},
	{"geometry":{"coordinates":[8.912849,50.175749],"type":"Point"},"properties":{"osm_id":"6118591367","tag":{"amenity":"waste_basket","waste":"trash"}},"type":"Feature"},
	{"geometry":{"coordinates":[8.916434,50.174274],"type":"Point"},"properties":{"osm_id":"6401948354","tag":{"amenity":"recycling","recycling:glass_bottles":"yes","recycling_type":"container"}},"type":"Feature"},
	{"geometry":{"coordinates":[8.923964,50.176473],"type":"Point"},"properties":{"osm_id":"6696795881","tag":{"amenity":"recycling","recycling:glass_bottles":"yes","recycling_type":"container"}},"type":"Feature"},
	{"geometry":{"coordinates":[8.913958,50.149053],"type":"Point"},"properties":{"osm_id":"7001012363","tag":{"amenity":"recycling","recycling:glass_bottles":"yes","recycling_type":"container"}},"type":"Feature"},
	{"geometry":{"coordinates":[8.914159,50.149049],"type":"Point"},"properties":{"osm_id":"7051720670","tag":{"amenity":"waste_basket","waste":"trash"}},"type":"Feature"},
	{"geometry":{"coordinates":[8.919646,50.149091],"type":"Point"},"properties":{"osm_id":"7054399477","tag":{"amenity":"recycling","recycling:glass_bottles":"yes","recycling_type":"container"}},"type":"Feature"},
	{"geometry":{"coordinates":[8.949608,50.147646],"type":"Point"},"properties":{"osm_id":"7062945588","tag":{"amenity":"recycling","recycling:clothes":"yes","recycling:shoes":"yes","recycling_type":"container"}},"type":"Feature"},
	{"geometry":{"coordinates":[8.914923,50.169363],"type":"Point"},"properties":{"osm_id":"7841633365","tag":{"amenity":"waste_basket"}},"type":"Feature"},
	{"geometry":{"coordinates":[8.91625,50.170106],"type":"Point"},"properties":{"osm_id":"7841633367","tag":{"amenity":"waste_basket"}},"type":"Feature"},
	{"geometry":{"coordinates":[8.930283,50.172439],"type":"Point"},"properties":{"osm_id":"7841633377","tag":{"amenity":"waste_basket"}},"type":"Feature"},
	{"geometry":{"coordinates":[8.932222,50.172242],"type":"Point"},"properties":{"osm_id":"7841633379","tag":{"amenity":"waste_basket"}},"type":"Feature"},
	{"geometry":{"coordinates":[8.935476,50.173764],"type":"Point"},"properties":{"osm_id":"7841633381","tag":{"amenity":"waste_basket"}},"type":"Feature"},
	{"geometry":{"coordinates":[8.935229,50.173733],"type":"Point"},"properties":{"osm_id":"7841633382","tag":{"amenity":"waste_basket"}},"type":"Feature"},
	{"geometry":{"coordinates":[8.933612,50.17492],"type":"Point"},"properties":{"osm_id":"7841633384","tag":{"amenity":"waste_basket"}},"type":"Feature"},
	{"geometry":{"coordinates":[8.936612,50.175951],"type":"Point"},"properties":{"osm_id":"7841633385","tag":{"amenity":"waste_basket"}},"type":"Feature"},
	{"geometry":{"coordinates":[8.937051,50.175007],"type":"Point"},"properties":{"osm_id":"7841633386","tag":{"amenity":"waste_basket"}},"type":"Feature"},
	{"geometry":{"coordinates":[8.937316,50.174449],"type":"Point"},"properties":{"osm_id":"7841633389","tag":{"amenity":"waste_basket"}},"type":"Feature"},
	{"geometry":{"coordinates":[8.937692,50.173608],"type":"Point"},"properties":{"osm_id":"7841633390","tag":{"amenity":"waste_basket"}},"type":"Feature"},
	{"geometry":{"coordinates":[8.899522,50.129362],"type":"Point"},"properties":{"osm_id":"7852918592","tag":{"amenity":"recycling","recycling:glass_bottles":"yes","recycling_type":"container"}},"type":"Feature"}
]
}
