{
"type": "FeatureCollection",
"features": [
	{"geometry":{"coordinates":[8.964734,50.078021],"type":"Point"},"properties":{"osm_id":"272460009","tag":{"amenity":"recycling"}},"type":"Feature"},
	{"geometry":{"coordinates":[8.960902,50.070114],"type":"Point"},"properties":{"osm_id":"272460491","tag":{"amenity":"recycling"}},"type":"Feature"},
	{"geometry":{"coordinates":[8.936309,50.070615],"type":"Point"},"properties":{"osm_id":"273101569","tag":{"amenity":"recycling","recycling_type":"container"}},"type":"Feature"},
	{"geometry":{"coordinates":[8.935904,50.078032],"type":"Point"},"properties":{"osm_id":"274853847","tag":{"amenity":"recycling"}},"type":"Feature"},
	{"geometry":{"coordinates":[8.960211,50.102438],"type":"Point"},"properties":{"osm_id":"471591360","tag":{"amenity":"recycling","recycling:glass_bottles":"yes","recycling:paper":"yes"}},"type":"Feature"},
	{"geometry":{"coordinates":[8.947185,50.110372],"type":"Point"},"properties":{"osm_id":"471603948","tag":{"amenity":"recycling","recycling:glass_bottles":"yes","recycling:paper":"yes"}},"type":"Feature"},
	{"geometry":{"coordinates":[8.959416,50.106638],"type":"Point"},"properties":{"osm_id":"599752707","tag":{"amenity":"recycling","recycling:glass":"yes","recycling:paper":"no"}},"type":"Feature"},
	{"geometry":{"coordinates":[8.934523,50.081961],"type":"Point"},"properties":{"osm_id":"1607543469","tag":{"amenity":"recycling","recycling:cardboard":"no","recycling:clothes":"yes","recycling:glass":"yes","recycling:paper":"no","recycling_type":"container"}},"type":"Feature"},
	{"geometry":{"coordinates":[8.912027,50.085917],"type":"Point"},"properties":{"osm_id":"2383743901","tag":{"amenity":"waste_basket"}},"type":"Feature"},
	{"geometry":{"coordinates":[8.938301,50.11027],"type":"Point"},"properties":{"osm_id":"2936214491","tag":{"amenity":"recycling"}},"type":"Feature"},
	{"geometry":{"coordinates":[8.913825,50.108485],"type":"Point"},"properties":{"osm_id":"2988419414","tag":{"amenity":"recycling"}},"type":"Feature"},
	{"geometry":{"coordinates":[8.930913,50.095057],"type":"Point"},"properties":{"osm_id":"3338277163","tag":{"amenity":"recycling"}},"type":"Feature"},
	{"geometry":{"coordinates":[8.937251,50.10483],"type":"Point"},"properties":{"osm_id":"3378500518","tag":{"amenity":"recycling","recycling_type":"container"}},"type":"Feature"},
	{"geometry":{"coordinates":[8.937538,50.09486],"type":"Point"},"properties":{"osm_id":"3378504213","tag":{"amenity":"recycling"}},"type":"Feature"},
	{"geometry":{"coordinates":[8.914963,50.113871],"type":"Point"},"properties":{"osm_id":"3396222636","tag":{"amenity":"recycling"}},"type":"Feature"},
	{"geometry":{"coordinates":[8.91204,50.10318],"type":"Point"},"properties":{"osm_id":"3412906278","tag":{"amenity":"recycling"}},"type":"Feature"},
	{"geometry":{"coordinates":[8.939951,50.083679],"type":"Point"},"properties":{"osm_id":"3700261983","tag":{"amenity":"recycling","recycling_type":"container","source:position":"grobes GPS und bing"}},"type":"Feature"},
	{"geometry":{"coordinates":[8.949926,50.110285],"type":"Point"},"properties":{"osm_id":"3700266348","tag":{"amenity":"waste_basket"}},"type":"Feature"},
	{"geometry":{"coordinates":[8.94934,50.111019],"type":"Point"},"properties":{"osm_id":"3700266349","tag":{"amenity":"waste_basket"}},"type":"Feature"},
	{"geometry":{"coordinates":[8.905002,50.106287],"type":"Point"},"properties":{"osm_id":"3710582431","tag":{"amenity":"recycling"}},"type":"Feature"},
	{"geometry":{"coordinates":[8.940946,50.109],"type":"Point"},"properties":{"osm_id":"3755901228","tag":{"amenity":"recycling"}},"type":"Feature"},
	{"geometry":{"coordinates":[8.958199,50.073885],"type":"Point"},"properties":{"osm_id":"3775701016","tag":{"amenity":"recycling","recycling:glass":"yes","recycling_type":"container"}},"type":"Feature"},
	{"geometry":{"coordinates":[8.928254,50.119049],"type":"Point"},"properties":{"osm_id":"3855503940","tag":{"amenity":"recycling","location":"overground","recycling_type":"container"}},"type":"Feature"},
	{"geometry":{"coordinates":[8.92996,50.104855],"type":"Point"},"properties":{"osm_id":"4058778189","tag":{"amenity":"recycling"}},"type":"Feature"},
	{"geometry":{"coordinates":[8.905799,50.115751],"type":"Point"},"properties":{"osm_id":"4065659560","tag":{"amenity":"recycling"}},"type":"Feature"},
	{"geometry":{"coordinates":[8.904686,50.109081],"type":"Point"},"properties":{"osm_id":"4151948529","tag":{"amenity":"recycling"}},"type":"Feature"},
	{"geometry":{"coordinates":[8.921545,50.098426],"type":"Point"},"properties":{"osm_id":"4204270289","tag":{"amenity":"recycling","operator":"Stadt Hanau","recycling:glass_bottles":"yes","recycling:paper":"yes","recycling_type":"container"}},"type":"Feature"},
	{"geometry":{"coordinates":[8.944926,50.109287],"type":"Point"},"properties":{"osm_id":"4243555100","tag":{"amenity":"recycling"}},"type":"Feature"},
	{"geometry":{"coordinates":[8.918857,50.097907],"type":"Point"},"properties":{"osm_id":"4444715110","tag":{"amenity":"recycling","recycling:glass":"no","recycling:glass_bottles":"yes","recycling_type":"container"}},"type":"Feature"},
	{"geometry":{"coordinates":[8.928453,50.10135],"type":"Point"},"properties":{"osm_id":"4659951888","tag":{"amenity":"recycling"}},"type":"Feature"},
	{"geometry":{"coordinates":[8.9516,50.106616],"type":"Point"},"properties":{"osm_id":"4663534480","tag":{"amenity":"recycling"}},"type":"Feature"},
	{"geometry":{"coordinates":[8.901454,50.11044],"type":"Point"},"properties":{"osm_id":"4735633883","tag":{"amenity":"recycling","recycling:paper":"yes","recycling_type":"container"}},"type":"Feature"},
	{"geometry":{"coordinates":[8.896318,50.116865],"type":"Point"},"properties":{"osm_id":"5612014682","tag":{"amenity":"recycling","recycling:clothes":"yes","recycling:glass":"yes","recycling:shoes":"yes","recycling_type":"container"}},"type":"Feature"},
	{"geometry":{"coordinates":[8.904689,50.08619],"type":"Point"},"properties":{"osm_id":"5940716158","tag":{"amenity":"waste_basket","waste":"trash"}},"type":"Feature"},
	{"geometry":{"coordinates":[8.902016,50.088129],"type":"Point"},"properties":{"osm_id":"5940716160","tag":{"amenity":"waste_basket","waste":"trash"}},"type":"Feature"},
	{"geometry":{"coordinates":[8.95076,50.113813],"type":"Point"},"properties":{"osm_id":"6231303626","tag":{"amenity":"recycling","recycling:glass":"yes","recycling_type":"container"}},"type":"Feature"},
	{"geometry":{"coordinates":[8.957836,50.116505],"type":"Point"},"properties":{"osm_id":"6231303627","tag":{"amenity":"recycling","recycling:glass":"yes","recycling_type":"container"}},"type":"Feature"},
	{"geometry":{"coordinates":[8.933332,50.068132],"type":"Point"},"properties":{"osm_id":"6558185615","tag":{"amenity":"waste_basket"}},"type":"Feature"},
	{"geometry":{"coordinates":[8.930944,50.108325],"type":"Point"},"properties":{"osm_id":"6791968493","tag":{"amenity":"waste_basket"}},"type":"Feature"},
	{"geometry":{"coordinates":[8.877656,50.080259],"type":"Point"},"properties":{"name":"REMONDIS Betriebsstelle Obertshausen","osm_id":"7231523858","tag":{"addr:city":"Obertshausen","addr:housenumber":"28","addr:postcode":"63179","addr:street":"Jakob-Wolf-Stra\u00c3\u009fe","amenity":"recycling","operator":"REMONDIS GmbH & Co. KG","phone":"+49 6104 72868","recycling_type":"centre","website":"https://www.remondis.de"}},"type":"Feature"},
	{"geometry":{"coordinates":[8.947202,50.076917],"type":"Point"},"properties":{"osm_id":"7711605392","tag":{"amenity":"recycling","recycling:clothes":"yes","recycling:shoes":"yes","recycling_type":"container"}},"type":"Feature"},
	{"geometry":{"coordinates":[8.954247,50.073305],"type":"Point"},"properties":{"osm_id":"7747289953","tag":{"amenity":"recycling","operator":"Gemeinde Hainburg","recycling:glass":"yes","recycling_type":"container"}},"type":"Feature"}
]
}
