{
"type": "FeatureCollection",
"features": [
	{"geometry":{"coordinates":[8.914868,49.411559],"type":"Point"},"properties":{"osm_id":"2337744241","tag":{"amenity":"waste_basket"}},"type":"Feature"},
	{"geometry":{"coordinates":[8.881458,49.41519],"type":"Point"},"properties":{"osm_id":"2376667875","tag":{"amenity":"waste_basket"}},"type":"Feature"},
	{"geometry":{"coordinates":[8.881947,49.415371],"type":"Point"},"properties":{"osm_id":"2384871734","tag":{"amenity":"waste_basket","source:geometry":"HiRes aerial imagery"}},"type":"Feature"},
	{"geometry":{"coordinates":[8.937767,49.429496],"type":"Point"},"properties":{"osm_id":"3689674111","tag":{"amenity":"waste_basket"}},"type":"Feature"},
	{"geometry":{"coordinates":[8.921265,49.392651],"type":"Point"},"properties":{"osm_id":"4357354251","tag":{"amenity":"waste_basket","covered":"yes"}},"type":"Feature"},
	{"geometry":{"coordinates":[8.92741,49.402507],"type":"Point"},"properties":{"osm_id":"9036383241","tag":{"amenity":"waste_basket","waste":"trash"}},"type":"Feature"},
	{"geometry":{"coordinates":[8.927117,49.411636],"type":"Point"},"properties":{"osm_id":"9037564178","tag":{"amenity":"waste_basket","waste":"trash"}},"type":"Feature"}
]
}
