{
"type": "FeatureCollection",
"features": [
	{"geometry":{"coordinates":[8.878929,49.364982],"type":"Point"},"properties":{"osm_id":"4360613350","tag":{"amenity":"waste_basket"}},"type":"Feature"},
	{"geometry":{"coordinates":[8.889589,49.376237],"type":"Point"},"properties":{"osm_id":"4362698405","tag":{"amenity":"waste_basket"}},"type":"Feature"},
	{"geometry":{"coordinates":[8.890419,49.376286],"type":"Point"},"properties":{"osm_id":"4362698407","tag":{"amenity":"waste_basket"}},"type":"Feature"},
	{"geometry":{"coordinates":[8.91353,49.335827],"type":"Point"},"properties":{"osm_id":"4375264721","tag":{"amenity":"waste_basket"}},"type":"Feature"},
	{"geometry":{"coordinates":[8.911899,49.337171],"type":"Point"},"properties":{"osm_id":"4375265090","tag":{"amenity":"waste_basket"}},"type":"Feature"},
	{"geometry":{"coordinates":[8.896514,49.364608],"type":"Point"},"properties":{"osm_id":"4382491280","tag":{"amenity":"waste_basket","covered":"yes"}},"type":"Feature"},
	{"geometry":{"coordinates":[8.884396,49.347784],"type":"Point"},"properties":{"osm_id":"4384535434","tag":{"amenity":"waste_basket"}},"type":"Feature"},
	{"geometry":{"coordinates":[8.884387,49.347905],"type":"Point"},"properties":{"osm_id":"4384535435","tag":{"amenity":"waste_basket"}},"type":"Feature"},
	{"geometry":{"coordinates":[8.893358,49.352719],"type":"Point"},"properties":{"osm_id":"4385109454","tag":{"amenity":"waste_basket","source:position":"Bing 2012"}},"type":"Feature"},
	{"geometry":{"coordinates":[8.885016,49.360151],"type":"Point"},"properties":{"osm_id":"4385109967","tag":{"amenity":"waste_basket"}},"type":"Feature"},
	{"geometry":{"coordinates":[8.94444,49.356043],"type":"Point"},"properties":{"osm_id":"4411339032","tag":{"amenity":"waste_basket"}},"type":"Feature"},
	{"geometry":{"coordinates":[8.943887,49.359038],"type":"Point"},"properties":{"osm_id":"4411339058","tag":{"amenity":"waste_basket"}},"type":"Feature"},
	{"geometry":{"coordinates":[8.945109,49.355383],"type":"Point"},"properties":{"osm_id":"4421864897","tag":{"amenity":"waste_basket"}},"type":"Feature"},
	{"geometry":{"coordinates":[8.954684,49.374199],"type":"Point"},"properties":{"osm_id":"4427088978","tag":{"amenity":"waste_basket"}},"type":"Feature"},
	{"geometry":{"coordinates":[8.964129,49.375973],"type":"Point"},"properties":{"osm_id":"6314077655","tag":{"amenity":"waste_basket","waste":"trash"}},"type":"Feature"},
	{"geometry":{"coordinates":[8.898752,49.373057],"type":"Point"},"properties":{"osm_id":"7365872967","tag":{"amenity":"waste_basket","waste":"trash"}},"type":"Feature"},
	{"geometry":{"coordinates":[8.879945,49.36648],"type":"Point"},"properties":{"osm_id":"7418901733","tag":{"amenity":"waste_basket","waste":"trash"}},"type":"Feature"},
	{"geometry":{"coordinates":[8.899631,49.374159],"type":"Point"},"properties":{"osm_id":"7418919148","tag":{"amenity":"waste_basket","waste":"trash"}},"type":"Feature"},
	{"geometry":{"coordinates":[8.889499,49.375326],"type":"Point"},"properties":{"osm_id":"7418928536","tag":{"amenity":"waste_basket","waste":"trash"}},"type":"Feature"},
	{"geometry":{"coordinates":[8.891377,49.37498],"type":"Point"},"properties":{"osm_id":"7418933338","tag":{"amenity":"waste_basket","waste":"dog_excrement"}},"type":"Feature"}
]
}
