{
"type": "FeatureCollection",
"features": [
	{"geometry":{"coordinates":[8.917059,49.220393],"type":"Point"},"properties":{"name":"Karl Wagner Recycling","osm_id":"913510533","tag":{"amenity":"recycling","recycling_type":"centre"}},"type":"Feature"},
	{"geometry":{"coordinates":[8.87713,49.253083],"type":"Point"},"properties":{"osm_id":"1762324657","tag":{"amenity":"waste_basket"}},"type":"Feature"},
	{"geometry":{"coordinates":[8.919733,49.21731],"type":"Point"},"properties":{"osm_id":"1845761686","tag":{"amenity":"waste_basket"}},"type":"Feature"},
	{"geometry":{"coordinates":[8.915473,49.219169],"type":"Point"},"properties":{"osm_id":"1845761688","tag":{"amenity":"waste_basket"}},"type":"Feature"},
	{"geometry":{"coordinates":[8.913711,49.223548],"type":"Point"},"properties":{"osm_id":"1845761715","tag":{"amenity":"waste_basket"}},"type":"Feature"},
	{"geometry":{"coordinates":[8.891024,49.238422],"type":"Point"},"properties":{"osm_id":"1845761733","tag":{"amenity":"waste_basket"}},"type":"Feature"},
	{"geometry":{"coordinates":[8.891536,49.238503],"type":"Point"},"properties":{"osm_id":"1845761737","tag":{"amenity":"waste_basket"}},"type":"Feature"},
	{"geometry":{"coordinates":[8.884856,49.239397],"type":"Point"},"properties":{"osm_id":"1845761742","tag":{"amenity":"waste_basket"}},"type":"Feature"},
	{"geometry":{"coordinates":[8.936048,49.249094],"type":"Point"},"properties":{"osm_id":"1845761878","tag":{"amenity":"waste_basket"}},"type":"Feature"},
	{"geometry":{"coordinates":[8.959587,49.261441],"type":"Point"},"properties":{"osm_id":"1845762017","tag":{"amenity":"waste_basket"}},"type":"Feature"},
	{"geometry":{"coordinates":[8.952883,49.262968],"type":"Point"},"properties":{"osm_id":"1845762061","tag":{"amenity":"waste_basket"}},"type":"Feature"},
	{"geometry":{"coordinates":[8.955392,49.26306],"type":"Point"},"properties":{"osm_id":"1845762071","tag":{"amenity":"waste_basket"}},"type":"Feature"},
	{"geometry":{"coordinates":[8.922775,49.223186],"type":"Point"},"properties":{"osm_id":"1851790628","tag":{"amenity":"waste_basket"}},"type":"Feature"},
	{"geometry":{"coordinates":[8.909943,49.216811],"type":"Point"},"properties":{"osm_id":"1861806997","tag":{"amenity":"waste_basket"}},"type":"Feature"},
	{"geometry":{"coordinates":[8.916474,49.217121],"type":"Point"},"properties":{"osm_id":"1861806998","tag":{"amenity":"waste_basket"}},"type":"Feature"},
	{"geometry":{"coordinates":[8.920186,49.217834],"type":"Point"},"properties":{"osm_id":"1861807000","tag":{"amenity":"waste_basket"}},"type":"Feature"},
	{"geometry":{"coordinates":[8.907589,49.218388],"type":"Point"},"properties":{"osm_id":"1861807002","tag":{"amenity":"waste_basket"}},"type":"Feature"},
	{"geometry":{"coordinates":[8.91913,49.219698],"type":"Point"},"properties":{"osm_id":"1861807006","tag":{"amenity":"waste_basket"}},"type":"Feature"},
	{"geometry":{"coordinates":[8.909489,49.220071],"type":"Point"},"properties":{"osm_id":"1861807008","tag":{"amenity":"waste_basket"}},"type":"Feature"},
	{"geometry":{"coordinates":[8.906272,49.22029],"type":"Point"},"properties":{"osm_id":"1861807011","tag":{"amenity":"waste_basket"}},"type":"Feature"},
	{"geometry":{"coordinates":[8.91254,49.234413],"type":"Point"},"properties":{"osm_id":"1861807049","tag":{"amenity":"waste_basket"}},"type":"Feature"},
	{"geometry":{"coordinates":[8.908454,49.235879],"type":"Point"},"properties":{"osm_id":"1861807111","tag":{"amenity":"waste_basket"}},"type":"Feature"},
	{"geometry":{"coordinates":[8.902385,49.235988],"type":"Point"},"properties":{"osm_id":"1861807113","tag":{"amenity":"waste_basket"}},"type":"Feature"},
	{"geometry":{"coordinates":[8.910475,49.238962],"type":"Point"},"properties":{"osm_id":"1861807116","tag":{"amenity":"waste_basket"}},"type":"Feature"},
	{"geometry":{"coordinates":[8.910449,49.239159],"type":"Point"},"properties":{"osm_id":"1861807117","tag":{"amenity":"waste_basket"}},"type":"Feature"},
	{"geometry":{"coordinates":[8.913745,49.239359],"type":"Point"},"properties":{"osm_id":"1861807119","tag":{"amenity":"waste_basket"}},"type":"Feature"},
	{"geometry":{"coordinates":[8.8934,49.242188],"type":"Point"},"properties":{"osm_id":"1861807122","tag":{"amenity":"waste_basket"}},"type":"Feature"},
	{"geometry":{"coordinates":[8.904196,49.248042],"type":"Point"},"properties":{"osm_id":"1861807124","tag":{"amenity":"waste_basket"}},"type":"Feature"},
	{"geometry":{"coordinates":[8.90492,49.24892],"type":"Point"},"properties":{"osm_id":"1861807127","tag":{"amenity":"waste_basket"}},"type":"Feature"},
	{"geometry":{"coordinates":[8.908654,49.250711],"type":"Point"},"properties":{"osm_id":"1861807129","tag":{"amenity":"waste_basket"}},"type":"Feature"},
	{"geometry":{"coordinates":[8.889679,49.251172],"type":"Point"},"properties":{"osm_id":"1861807145","tag":{"amenity":"waste_basket"}},"type":"Feature"},
	{"geometry":{"coordinates":[8.889785,49.251264],"type":"Point"},"properties":{"osm_id":"1861807147","tag":{"amenity":"waste_basket"}},"type":"Feature"},
	{"geometry":{"coordinates":[8.889515,49.252327],"type":"Point"},"properties":{"osm_id":"1861807148","tag":{"amenity":"waste_basket"}},"type":"Feature"},
	{"geometry":{"coordinates":[8.889646,49.252385],"type":"Point"},"properties":{"osm_id":"1861807149","tag":{"amenity":"waste_basket"}},"type":"Feature"},
	{"geometry":{"coordinates":[8.906586,49.252467],"type":"Point"},"properties":{"osm_id":"1861807150","tag":{"amenity":"waste_basket"}},"type":"Feature"},
	{"geometry":{"coordinates":[8.896251,49.253111],"type":"Point"},"properties":{"osm_id":"1861807167","tag":{"amenity":"waste_basket"}},"type":"Feature"},
	{"geometry":{"coordinates":[8.90354,49.253977],"type":"Point"},"properties":{"osm_id":"1861807212","tag":{"amenity":"waste_basket"}},"type":"Feature"},
	{"geometry":{"coordinates":[8.893807,49.254591],"type":"Point"},"properties":{"osm_id":"1861807214","tag":{"amenity":"waste_basket"}},"type":"Feature"},
	{"geometry":{"coordinates":[8.904501,49.254731],"type":"Point"},"properties":{"osm_id":"1861807215","tag":{"amenity":"waste_basket"}},"type":"Feature"},
	{"geometry":{"coordinates":[8.909432,49.254812],"type":"Point"},"properties":{"osm_id":"1861807218","tag":{"amenity":"waste_basket"}},"type":"Feature"},
	{"geometry":{"coordinates":[8.890102,49.256871],"type":"Point"},"properties":{"osm_id":"1861807224","tag":{"amenity":"waste_basket"}},"type":"Feature"},
	{"geometry":{"coordinates":[8.904468,49.257366],"type":"Point"},"properties":{"osm_id":"1861807226","tag":{"amenity":"waste_basket"}},"type":"Feature"},
	{"geometry":{"coordinates":[8.906741,49.257371],"type":"Point"},"properties":{"osm_id":"1861807229","tag":{"amenity":"waste_basket"}},"type":"Feature"},
	{"geometry":{"coordinates":[8.886346,49.243982],"type":"Point"},"properties":{"osm_id":"1863123515","tag":{"amenity":"waste_basket"}},"type":"Feature"},
	{"geometry":{"coordinates":[8.88291,49.246466],"type":"Point"},"properties":{"osm_id":"1863123563","tag":{"amenity":"waste_basket"}},"type":"Feature"},
	{"geometry":{"coordinates":[8.904477,49.251242],"type":"Point"},"properties":{"osm_id":"1863123588","tag":{"amenity":"waste_basket"}},"type":"Feature"},
	{"geometry":{"coordinates":[8.903412,49.251839],"type":"Point"},"properties":{"osm_id":"1863123590","tag":{"amenity":"waste_basket"}},"type":"Feature"},
	{"geometry":{"coordinates":[8.880312,49.25261],"type":"Point"},"properties":{"osm_id":"1863123591","tag":{"amenity":"waste_basket"}},"type":"Feature"},
	{"geometry":{"coordinates":[8.880029,49.252812],"type":"Point"},"properties":{"osm_id":"1863123592","tag":{"amenity":"waste_basket"}},"type":"Feature"},
	{"geometry":{"coordinates":[8.895089,49.249499],"type":"Point"},"properties":{"osm_id":"1868443172","tag":{"amenity":"waste_basket"}},"type":"Feature"},
	{"geometry":{"coordinates":[8.89212,49.250059],"type":"Point"},"properties":{"osm_id":"1868443198","tag":{"amenity":"waste_basket"}},"type":"Feature"},
	{"geometry":{"coordinates":[8.890297,49.250347],"type":"Point"},"properties":{"osm_id":"1868443201","tag":{"amenity":"waste_basket"}},"type":"Feature"},
	{"geometry":{"coordinates":[8.887955,49.250795],"type":"Point"},"properties":{"osm_id":"1868443208","tag":{"amenity":"waste_basket"}},"type":"Feature"},
	{"geometry":{"coordinates":[8.887046,49.250884],"type":"Point"},"properties":{"osm_id":"1868443218","tag":{"amenity":"waste_basket"}},"type":"Feature"},
	{"geometry":{"coordinates":[8.912046,49.232435],"type":"Point"},"properties":{"osm_id":"2030456582","tag":{"amenity":"waste_basket"}},"type":"Feature"},
	{"geometry":{"coordinates":[8.907815,49.235878],"type":"Point"},"properties":{"osm_id":"2030456785","tag":{"amenity":"waste_basket"}},"type":"Feature"},
	{"geometry":{"coordinates":[8.907958,49.235943],"type":"Point"},"properties":{"osm_id":"2030456811","tag":{"amenity":"waste_basket"}},"type":"Feature"},
	{"geometry":{"coordinates":[8.908166,49.235984],"type":"Point"},"properties":{"osm_id":"2030456828","tag":{"amenity":"waste_basket"}},"type":"Feature"},
	{"geometry":{"coordinates":[8.90757,49.236123],"type":"Point"},"properties":{"osm_id":"2030456850","tag":{"amenity":"waste_basket"}},"type":"Feature"},
	{"geometry":{"coordinates":[8.907761,49.236197],"type":"Point"},"properties":{"osm_id":"2030456878","tag":{"amenity":"waste_basket"}},"type":"Feature"},
	{"geometry":{"coordinates":[8.90723,49.236543],"type":"Point"},"properties":{"osm_id":"2030456888","tag":{"amenity":"waste_basket"}},"type":"Feature"},
	{"geometry":{"coordinates":[8.907397,49.2366],"type":"Point"},"properties":{"osm_id":"2030456892","tag":{"amenity":"waste_basket"}},"type":"Feature"},
	{"geometry":{"coordinates":[8.886345,49.236625],"type":"Point"},"properties":{"osm_id":"2216970027","tag":{"amenity":"waste_basket"}},"type":"Feature"},
	{"geometry":{"coordinates":[8.884083,49.237829],"type":"Point"},"properties":{"osm_id":"2216970082","tag":{"amenity":"waste_basket"}},"type":"Feature"},
	{"geometry":{"coordinates":[8.877054,49.215279],"type":"Point"},"properties":{"osm_id":"5651984999","tag":{"amenity":"waste_basket"}},"type":"Feature"},
	{"geometry":{"coordinates":[8.879411,49.249408],"type":"Point"},"properties":{"osm_id":"5760402191","tag":{"amenity":"waste_disposal"}},"type":"Feature"},
	{"geometry":{"coordinates":[8.881953,49.251664],"type":"Point"},"properties":{"osm_id":"6416427891","tag":{"amenity":"waste_basket","waste":"trash"}},"type":"Feature"},
	{"geometry":{"coordinates":[8.882079,49.251294],"type":"Point"},"properties":{"highway":"street_lamp","osm_id":"6416427893","tag":{"amenity":"waste_basket","waste":"trash"}},"type":"Feature"},
	{"geometry":{"coordinates":[8.881637,49.25158],"type":"Point"},"properties":{"osm_id":"6416427895","tag":{"amenity":"waste_basket","waste":"trash"}},"type":"Feature"},
	{"geometry":{"coordinates":[8.881822,49.251276],"type":"Point"},"properties":{"osm_id":"6416427896","tag":{"amenity":"waste_basket","waste":"trash"}},"type":"Feature"},
	{"geometry":{"coordinates":[8.881397,49.25147],"type":"Point"},"properties":{"osm_id":"6416427898","tag":{"amenity":"waste_basket","waste":"trash"}},"type":"Feature"},
	{"geometry":{"coordinates":[8.880641,49.251892],"type":"Point"},"properties":{"osm_id":"6416468168","tag":{"amenity":"waste_basket","waste":"trash"}},"type":"Feature"},
	{"geometry":{"coordinates":[8.877659,49.253631],"type":"Point"},"properties":{"osm_id":"6798149905","tag":{"amenity":"waste_basket"}},"type":"Feature"},
	{"geometry":{"coordinates":[8.880191,49.262498],"type":"Point"},"properties":{"osm_id":"7158811469","tag":{"amenity":"waste_basket"}},"type":"Feature"},
	{"geometry":{"coordinates":[8.879057,49.252919],"type":"Point"},"properties":{"osm_id":"7160297312","tag":{"amenity":"waste_basket"}},"type":"Feature"},
	{"geometry":{"coordinates":[8.877089,49.252988],"type":"Point"},"properties":{"osm_id":"7185340436","tag":{"amenity":"waste_basket"}},"type":"Feature"},
	{"geometry":{"coordinates":[8.877387,49.253291],"type":"Point"},"properties":{"osm_id":"7228290783","tag":{"amenity":"waste_basket","waste":"trash"}},"type":"Feature"},
	{"geometry":{"coordinates":[8.882398,49.255053],"type":"Point"},"properties":{"osm_id":"7346820663","tag":{"amenity":"waste_basket"}},"type":"Feature"},
	{"geometry":{"coordinates":[8.883015,49.255272],"type":"Point"},"properties":{"osm_id":"7346820664","tag":{"amenity":"waste_basket"}},"type":"Feature"},
	{"geometry":{"coordinates":[8.892185,49.2584],"type":"Point"},"properties":{"osm_id":"7366961935","tag":{"amenity":"waste_basket","waste":"trash"}},"type":"Feature"},
	{"geometry":{"coordinates":[8.878525,49.247356],"type":"Point"},"properties":{"osm_id":"7417228092","tag":{"amenity":"waste_basket"}},"type":"Feature"},
	{"geometry":{"coordinates":[8.878803,49.247915],"type":"Point"},"properties":{"osm_id":"7598060676","tag":{"amenity":"recycling","opening_hours":"24/7","recycling:clothes":"yes","recycling_type":"container","wheelchair":"no"}},"type":"Feature"},
	{"geometry":{"coordinates":[8.952695,49.262442],"type":"Point"},"properties":{"osm_id":"7780080974","tag":{"amenity":"waste_basket"}},"type":"Feature"}
]
}
