{
"type": "FeatureCollection",
"features": [
	{"geometry":{"coordinates":[8.934434,49.186619],"type":"Point"},"properties":{"barrier":"gate","osm_id":"487031442"},"type":"Feature"},
	{"geometry":{"coordinates":[8.878071,49.20355],"type":"Point"},"properties":{"osm_id":"1793768262","tag":{"amenity":"waste_basket"}},"type":"Feature"},
	{"geometry":{"coordinates":[8.934632,49.18626],"type":"Point"},"properties":{"barrier":"gate","osm_id":"2332900110"},"type":"Feature"},
	{"geometry":{"coordinates":[8.933613,49.18852],"type":"Point"},"properties":{"osm_id":"4315585828","tag":{"amenity":"waste_basket","colour":"green","material":"metal"}},"type":"Feature"},
	{"geometry":{"coordinates":[8.932995,49.191399],"type":"Point"},"properties":{"osm_id":"4315585868","tag":{"amenity":"waste_basket"}},"type":"Feature"},
	{"geometry":{"coordinates":[8.933165,49.191411],"type":"Point"},"properties":{"osm_id":"4315585871","tag":{"amenity":"waste_basket"}},"type":"Feature"},
	{"geometry":{"coordinates":[8.935696,49.191687],"type":"Point"},"properties":{"osm_id":"4315585877","tag":{"amenity":"waste_basket"}},"type":"Feature"},
	{"geometry":{"coordinates":[8.89075,49.172013],"type":"Point"},"properties":{"osm_id":"6049328415","tag":{"amenity":"recycling","recycling_type":"container"}},"type":"Feature"},
	{"geometry":{"coordinates":[8.898984,49.166482],"type":"Point"},"properties":{"osm_id":"6549755150","tag":{"amenity":"waste_basket","operator":"Stadt E"}},"type":"Feature"},
	{"geometry":{"coordinates":[8.893425,49.165133],"type":"Point"},"properties":{"osm_id":"7781435369","tag":{"amenity":"recycling","recycling_type":"container"}},"type":"Feature"}
]
}
