{
"type": "FeatureCollection",
"features": [
	{"geometry":{"coordinates":[8.922707,49.131522],"type":"Point"},"properties":{"osm_id":"415962901","tag":{"amenity":"recycling","recycling:batteries":"no","recycling:cans":"no","recycling:clothes":"yes","recycling:glass":"yes","recycling:paper":"yes","recycling:scrap_metal":"no","recycling_type":"container"}},"type":"Feature"},
	{"geometry":{"coordinates":[8.910716,49.129495],"type":"Point"},"properties":{"osm_id":"415964849","tag":{"amenity":"recycling","recycling_type":"container"}},"type":"Feature"},
	{"geometry":{"coordinates":[8.924159,49.131173],"type":"Point"},"properties":{"osm_id":"608636889","tag":{"amenity":"waste_basket"}},"type":"Feature"},
	{"geometry":{"coordinates":[8.925337,49.131169],"type":"Point"},"properties":{"osm_id":"608636897","tag":{"amenity":"waste_basket"}},"type":"Feature"},
	{"geometry":{"coordinates":[8.926266,49.13127],"type":"Point"},"properties":{"osm_id":"608636898","tag":{"amenity":"waste_basket"}},"type":"Feature"},
	{"geometry":{"coordinates":[8.927019,49.131242],"type":"Point"},"properties":{"osm_id":"608636901","tag":{"amenity":"waste_basket"}},"type":"Feature"},
	{"geometry":{"coordinates":[8.927777,49.131208],"type":"Point"},"properties":{"osm_id":"608636903","tag":{"amenity":"waste_basket"}},"type":"Feature"},
	{"geometry":{"coordinates":[8.914554,49.135993],"type":"Point"},"properties":{"osm_id":"1255723955","tag":{"amenity":"waste_basket"}},"type":"Feature"},
	{"geometry":{"coordinates":[8.905357,49.136762],"type":"Point"},"properties":{"osm_id":"1585557199","tag":{"amenity":"recycling","location":"overground","recycling_type":"container"}},"type":"Feature"},
	{"geometry":{"coordinates":[8.901649,49.131893],"type":"Point"},"properties":{"osm_id":"1695020652","tag":{"amenity":"recycling","recycling:cans":"yes","recycling:clothes":"yes","recycling:glass":"yes","recycling:paper":"yes","recycling_type":"container"}},"type":"Feature"},
	{"geometry":{"coordinates":[8.960889,49.15024],"type":"Point"},"properties":{"osm_id":"3271340593","tag":{"amenity":"recycling","recycling:cans":"yes","recycling:clothes":"yes","recycling:glass":"yes","recycling:paper":"yes"}},"type":"Feature"},
	{"geometry":{"coordinates":[8.906843,49.140674],"type":"Point"},"properties":{"osm_id":"4471737977","tag":{"amenity":"recycling","recycling:clothes":"yes","recycling:glass":"yes","recycling:shoes":"yes","recycling_type":"container"}},"type":"Feature"},
	{"geometry":{"coordinates":[8.912105,49.133833],"type":"Point"},"properties":{"osm_id":"6260375554","tag":{"amenity":"waste_basket"}},"type":"Feature"},
	{"geometry":{"coordinates":[8.902659,49.098846],"type":"Point"},"properties":{"osm_id":"6618767338","tag":{"amenity":"recycling","recycling:cans":"yes","recycling:glass_bottles":"yes","recycling:paper":"yes","recycling_type":"container"}},"type":"Feature"},
	{"geometry":{"coordinates":[8.917061,49.104204],"type":"Point"},"properties":{"osm_id":"8262105046","tag":{"amenity":"waste_basket","covered":"no","leisure":"picnic_table","waste":"trash"}},"type":"Feature"},
	{"geometry":{"coordinates":[8.908387,49.13642],"type":"Point"},"properties":{"osm_id":"8736102139","tag":{"amenity":"waste_basket"}},"type":"Feature"},
	{"geometry":{"coordinates":[8.911256,49.13855],"type":"Point"},"properties":{"osm_id":"8736102140","tag":{"amenity":"waste_basket"}},"type":"Feature"},
	{"geometry":{"coordinates":[8.907925,49.136213],"type":"Point"},"properties":{"osm_id":"8736103928","tag":{"amenity":"waste_basket"}},"type":"Feature"},
	{"geometry":{"coordinates":[8.909055,49.137252],"type":"Point"},"properties":{"osm_id":"8736108347","tag":{"amenity":"waste_basket"}},"type":"Feature"},
	{"geometry":{"coordinates":[8.910289,49.136588],"type":"Point"},"properties":{"osm_id":"8736112735","tag":{"amenity":"waste_basket"}},"type":"Feature"},
	{"geometry":{"coordinates":[8.908605,49.136423],"type":"Point"},"properties":{"osm_id":"8736112736","tag":{"amenity":"waste_basket"}},"type":"Feature"},
	{"geometry":{"coordinates":[8.910586,49.136162],"type":"Point"},"properties":{"osm_id":"8736112891","tag":{"amenity":"waste_basket"}},"type":"Feature"},
	{"geometry":{"coordinates":[8.907728,49.13605],"type":"Point"},"properties":{"osm_id":"8736118809","tag":{"amenity":"waste_basket"}},"type":"Feature"},
	{"geometry":{"coordinates":[8.909124,49.136664],"type":"Point"},"properties":{"osm_id":"8736119589","tag":{"amenity":"waste_basket"}},"type":"Feature"}
]
}
