{
"type": "FeatureCollection",
"features": [
	{"geometry":{"coordinates":[8.893977,48.940653],"type":"Point"},"properties":{"osm_id":"290739694","tag":{"amenity":"recycling","recycling:clothes":"yes","recycling:glass":"yes","recycling:shoes":"yes","recycling_type":"container"}},"type":"Feature"},
	{"geometry":{"coordinates":[8.964749,48.932563],"type":"Point"},"properties":{"osm_id":"583383784","tag":{"amenity":"recycling","recycling:clothes":"yes","recycling_type":"container"}},"type":"Feature"},
	{"geometry":{"coordinates":[8.957585,48.934486],"type":"Point"},"properties":{"osm_id":"1977809004","tag":{"amenity":"recycling","recycling:clothes":"yes","recycling_type":"container"}},"type":"Feature"},
	{"geometry":{"coordinates":[8.938028,48.953891],"type":"Point"},"properties":{"osm_id":"2193258157","tag":{"amenity":"recycling","recycling:clothes":"yes","recycling:glass":"yes","recycling_type":"container"}},"type":"Feature"},
	{"geometry":{"coordinates":[8.926595,48.936675],"type":"Point"},"properties":{"osm_id":"2888197147","tag":{"amenity":"recycling","recycling:clothes":"yes","recycling_type":"container"}},"type":"Feature"},
	{"geometry":{"coordinates":[8.918323,48.936093],"type":"Point"},"properties":{"osm_id":"3046997738","tag":{"amenity":"waste_basket"}},"type":"Feature"},
	{"geometry":{"coordinates":[8.957943,48.947625],"type":"Point"},"properties":{"osm_id":"3222477833","tag":{"amenity":"waste_basket"}},"type":"Feature"},
	{"geometry":{"coordinates":[8.957902,48.947651],"type":"Point"},"properties":{"osm_id":"3222477836","tag":{"amenity":"waste_basket"}},"type":"Feature"},
	{"geometry":{"coordinates":[8.957617,48.947831],"type":"Point"},"properties":{"osm_id":"3222477840","tag":{"amenity":"waste_basket"}},"type":"Feature"},
	{"geometry":{"coordinates":[8.956748,48.948358],"type":"Point"},"properties":{"osm_id":"3222477857","tag":{"amenity":"waste_basket"}},"type":"Feature"},
	{"geometry":{"coordinates":[8.955293,48.949251],"type":"Point"},"properties":{"osm_id":"3222477987","tag":{"amenity":"waste_basket"}},"type":"Feature"},
	{"geometry":{"coordinates":[8.955215,48.949301],"type":"Point"},"properties":{"osm_id":"3222477990","tag":{"amenity":"waste_basket"}},"type":"Feature"},
	{"geometry":{"coordinates":[8.958362,48.947904],"type":"Point"},"properties":{"osm_id":"3223719635","tag":{"amenity":"waste_basket"}},"type":"Feature"},
	{"geometry":{"coordinates":[8.958301,48.94794],"type":"Point"},"properties":{"osm_id":"3223719638","tag":{"amenity":"waste_basket"}},"type":"Feature"},
	{"geometry":{"coordinates":[8.958024,48.948119],"type":"Point"},"properties":{"osm_id":"3223719644","tag":{"amenity":"waste_basket"}},"type":"Feature"},
	{"geometry":{"coordinates":[8.957138,48.948659],"type":"Point"},"properties":{"osm_id":"3223719763","tag":{"amenity":"waste_basket"}},"type":"Feature"},
	{"geometry":{"coordinates":[8.955731,48.949509],"type":"Point"},"properties":{"osm_id":"3223719790","tag":{"amenity":"waste_basket"}},"type":"Feature"},
	{"geometry":{"coordinates":[8.955642,48.949566],"type":"Point"},"properties":{"osm_id":"3223719794","tag":{"amenity":"waste_basket"}},"type":"Feature"},
	{"geometry":{"coordinates":[8.957831,48.947412],"type":"Point"},"properties":{"osm_id":"3248022009","tag":{"amenity":"waste_basket"}},"type":"Feature"},
	{"geometry":{"coordinates":[8.958394,48.945362],"type":"Point"},"properties":{"osm_id":"4168043556","tag":{"amenity":"waste_basket"}},"type":"Feature"},
	{"geometry":{"coordinates":[8.956493,48.932326],"type":"Point"},"properties":{"osm_id":"4179422795","tag":{"amenity":"waste_basket"}},"type":"Feature"},
	{"geometry":{"coordinates":[8.960234,48.931319],"type":"Point"},"properties":{"osm_id":"4410564094","tag":{"amenity":"waste_basket"}},"type":"Feature"},
	{"geometry":{"coordinates":[8.95524,48.927644],"type":"Point"},"properties":{"osm_id":"4410586653","tag":{"amenity":"waste_basket"}},"type":"Feature"},
	{"geometry":{"coordinates":[8.95451,48.928018],"type":"Point"},"properties":{"osm_id":"4410586660","tag":{"amenity":"waste_basket"}},"type":"Feature"},
	{"geometry":{"coordinates":[8.918198,48.936552],"type":"Point"},"properties":{"osm_id":"4421028003","tag":{"amenity":"waste_basket"}},"type":"Feature"},
	{"geometry":{"coordinates":[8.96442,48.935671],"type":"Point"},"properties":{"osm_id":"4560948984","tag":{"amenity":"waste_basket"}},"type":"Feature"},
	{"geometry":{"coordinates":[8.958933,48.935274],"type":"Point"},"properties":{"osm_id":"4600774360","tag":{"amenity":"waste_basket"}},"type":"Feature"},
	{"geometry":{"coordinates":[8.959283,48.934843],"type":"Point"},"properties":{"osm_id":"4600774372","tag":{"amenity":"waste_basket"}},"type":"Feature"},
	{"geometry":{"coordinates":[8.959364,48.935088],"type":"Point"},"properties":{"osm_id":"4600774373","tag":{"amenity":"waste_basket"}},"type":"Feature"},
	{"geometry":{"coordinates":[8.95591,48.937823],"type":"Point"},"properties":{"barrier":"gate","osm_id":"4604927220"},"type":"Feature"},
	{"geometry":{"coordinates":[8.957284,48.939497],"type":"Point"},"properties":{"osm_id":"4604998780","tag":{"amenity":"waste_basket"}},"type":"Feature"},
	{"geometry":{"coordinates":[8.957128,48.93936],"type":"Point"},"properties":{"osm_id":"4604998787","tag":{"amenity":"waste_basket"}},"type":"Feature"},
	{"geometry":{"coordinates":[8.956894,48.939246],"type":"Point"},"properties":{"osm_id":"4604998991","tag":{"amenity":"waste_basket"}},"type":"Feature"},
	{"geometry":{"coordinates":[8.957561,48.937255],"type":"Point"},"properties":{"osm_id":"4743325472","tag":{"amenity":"waste_disposal"}},"type":"Feature"},
	{"geometry":{"coordinates":[8.959573,48.935337],"type":"Point"},"properties":{"osm_id":"4760753226","tag":{"amenity":"waste_basket"}},"type":"Feature"},
	{"geometry":{"coordinates":[8.956124,48.931033],"type":"Point"},"properties":{"osm_id":"5679740175","tag":{"amenity":"waste_basket","waste":"trash"}},"type":"Feature"},
	{"geometry":{"coordinates":[8.954155,48.937186],"type":"Point"},"properties":{"osm_id":"5983715517","tag":{"amenity":"waste_basket","waste":"trash"}},"type":"Feature"},
	{"geometry":{"coordinates":[8.94895,48.940476],"type":"Point"},"properties":{"osm_id":"5983715537","tag":{"amenity":"waste_basket","waste":"trash"}},"type":"Feature"},
	{"geometry":{"coordinates":[8.957494,48.932102],"type":"Point"},"properties":{"osm_id":"6268764676","tag":{"amenity":"waste_basket","waste":"trash"}},"type":"Feature"},
	{"geometry":{"coordinates":[8.957341,48.929153],"type":"Point"},"properties":{"osm_id":"6441102588","tag":{"amenity":"waste_basket","waste":"trash;cigarettes"}},"type":"Feature"},
	{"geometry":{"coordinates":[8.957324,48.929088],"type":"Point"},"properties":{"osm_id":"6441102589","tag":{"amenity":"waste_basket","waste":"trash;cigarettes"}},"type":"Feature"},
	{"geometry":{"coordinates":[8.956381,48.933879],"type":"Point"},"properties":{"osm_id":"6441271657","tag":{"amenity":"waste_basket"}},"type":"Feature"},
	{"geometry":{"coordinates":[8.956007,48.934111],"type":"Point"},"properties":{"osm_id":"6441289665","tag":{"amenity":"waste_basket"}},"type":"Feature"},
	{"geometry":{"coordinates":[8.958661,48.945781],"type":"Point"},"properties":{"osm_id":"6709527326","tag":{"amenity":"waste_basket","waste":"trash"}},"type":"Feature"},
	{"geometry":{"coordinates":[8.896184,48.941814],"type":"Point"},"properties":{"osm_id":"6888282405","tag":{"amenity":"waste_basket"}},"type":"Feature"},
	{"geometry":{"coordinates":[8.957354,48.972227],"type":"Point"},"properties":{"osm_id":"7356998536","tag":{"amenity":"waste_basket","waste":"trash"}},"type":"Feature"}
]
}
