{
"type": "FeatureCollection",
"features": [
	{"geometry":{"coordinates":[8.956129,48.747666],"type":"Point"},"properties":{"osm_id":"257626790","tag":{"amenity":"recycling","recycling:glass_bottles":"yes","recycling_type":"container"}},"type":"Feature"},
	{"geometry":{"coordinates":[8.899345,48.714177],"type":"Point"},"properties":{"barrier":"gate","osm_id":"259454895","tag":{"bicycle":"yes","foot":"yes","motorcar":"yes","motorcycle":"yes"}},"type":"Feature"},
	{"geometry":{"coordinates":[8.952628,48.74478],"type":"Point"},"properties":{"osm_id":"259540408","tag":{"amenity":"recycling","recycling:glass_bottles":"yes","recycling_type":"container"}},"type":"Feature"},
	{"geometry":{"coordinates":[8.962287,48.695324],"type":"Point"},"properties":{"osm_id":"286868024","tag":{"amenity":"recycling","recycling:glass":"yes","recycling_type":"container"}},"type":"Feature"},
	{"geometry":{"coordinates":[8.940915,48.694117],"type":"Point"},"properties":{"osm_id":"292765034","tag":{"amenity":"recycling","recycling:clothes":"yes","recycling_type":"container"}},"type":"Feature"},
	{"geometry":{"coordinates":[8.939429,48.691549],"type":"Point"},"properties":{"osm_id":"294610165","tag":{"amenity":"recycling","recycling:clothes":"yes","recycling_type":"container"}},"type":"Feature"},
	{"geometry":{"coordinates":[8.917946,48.706425],"type":"Point"},"properties":{"osm_id":"294915744","tag":{"amenity":"recycling","recycling:glass":"yes","recycling_type":"container"}},"type":"Feature"},
	{"geometry":{"coordinates":[8.957115,48.693874],"type":"Point"},"properties":{"osm_id":"300385479","tag":{"amenity":"recycling","recycling:glass":"yes","recycling_type":"container"}},"type":"Feature"},
	{"geometry":{"coordinates":[8.931367,48.692098],"type":"Point"},"properties":{"osm_id":"300574932","tag":{"amenity":"recycling","recycling:glass":"yes","recycling_type":"container"}},"type":"Feature"},
	{"geometry":{"coordinates":[8.888692,48.696911],"type":"Point"},"properties":{"osm_id":"331284219","tag":{"amenity":"recycling","recycling:glass":"yes","recycling_type":"container"}},"type":"Feature"},
	{"geometry":{"coordinates":[8.958329,48.727273],"type":"Point"},"properties":{"osm_id":"371224980","tag":{"amenity":"recycling","recycling:glass_bottles":"yes","recycling_type":"container"}},"type":"Feature"},
	{"geometry":{"coordinates":[8.891531,48.726588],"type":"Point"},"properties":{"osm_id":"374218335","tag":{"amenity":"recycling","recycling:clothes":"yes","recycling_type":"container"}},"type":"Feature"},
	{"geometry":{"coordinates":[8.906128,48.718829],"type":"Point"},"properties":{"osm_id":"544383258","tag":{"amenity":"recycling"}},"type":"Feature"},
	{"geometry":{"coordinates":[8.909561,48.715352],"type":"Point"},"properties":{"osm_id":"544383259","tag":{"amenity":"recycling","recycling:clothes":"yes","recycling:glass":"yes","recycling:shoes":"yes","recycling_type":"container"}},"type":"Feature"},
	{"geometry":{"coordinates":[8.935791,48.692874],"type":"Point"},"properties":{"osm_id":"573402968","tag":{"amenity":"recycling","recycling:clothes":"yes","recycling_type":"container"}},"type":"Feature"},
	{"geometry":{"coordinates":[8.887328,48.714862],"type":"Point"},"properties":{"osm_id":"2640828624","tag":{"amenity":"recycling","recycling:clothes":"yes","recycling_type":"container"}},"type":"Feature"},
	{"geometry":{"coordinates":[8.943252,48.693968],"type":"Point"},"properties":{"barrier":"gate","osm_id":"3123784849","tag":{"access":"customers","bicycle":"yes","foot":"yes","motorcar":"yes"}},"type":"Feature"},
	{"geometry":{"coordinates":[8.891296,48.725226],"type":"Point"},"properties":{"osm_id":"4050108409","tag":{"amenity":"waste_basket"}},"type":"Feature"},
	{"geometry":{"coordinates":[8.901492,48.717251],"type":"Point"},"properties":{"osm_id":"4050132050","tag":{"amenity":"waste_basket"}},"type":"Feature"},
	{"geometry":{"coordinates":[8.900126,48.715971],"type":"Point"},"properties":{"osm_id":"4050146454","tag":{"amenity":"waste_basket"}},"type":"Feature"},
	{"geometry":{"coordinates":[8.90039,48.712947],"type":"Point"},"properties":{"osm_id":"4050161205","tag":{"amenity":"waste_basket"}},"type":"Feature"},
	{"geometry":{"coordinates":[8.953424,48.691538],"type":"Point"},"properties":{"osm_id":"4185251070","tag":{"amenity":"waste_basket"}},"type":"Feature"},
	{"geometry":{"coordinates":[8.952199,48.691861],"type":"Point"},"properties":{"osm_id":"4185302570","tag":{"amenity":"waste_basket"}},"type":"Feature"},
	{"geometry":{"coordinates":[8.943004,48.69539],"type":"Point"},"properties":{"osm_id":"4185460433","tag":{"amenity":"waste_basket"}},"type":"Feature"},
	{"geometry":{"coordinates":[8.940187,48.695777],"type":"Point"},"properties":{"osm_id":"4187067591","tag":{"amenity":"waste_basket"}},"type":"Feature"},
	{"geometry":{"coordinates":[8.940464,48.695781],"type":"Point"},"properties":{"osm_id":"4187067592","tag":{"amenity":"waste_basket"}},"type":"Feature"},
	{"geometry":{"coordinates":[8.963261,48.717886],"type":"Point"},"properties":{"osm_id":"4187204893","tag":{"amenity":"recycling","recycling:glass_bottles":"yes","recycling_type":"container"}},"type":"Feature"},
	{"geometry":{"coordinates":[8.964752,48.724288],"type":"Point"},"properties":{"osm_id":"4187328311","tag":{"amenity":"waste_basket"}},"type":"Feature"},
	{"geometry":{"coordinates":[8.879796,48.746969],"type":"Point"},"properties":{"osm_id":"4244391787","tag":{"amenity":"waste_basket"}},"type":"Feature"},
	{"geometry":{"coordinates":[8.912241,48.747799],"type":"Point"},"properties":{"osm_id":"4960298727","tag":{"amenity":"waste_basket"}},"type":"Feature"},
	{"geometry":{"coordinates":[8.962209,48.718219],"type":"Point"},"properties":{"osm_id":"6700640668","tag":{"amenity":"waste_basket"}},"type":"Feature"},
	{"geometry":{"coordinates":[8.964702,48.724676],"type":"Point"},"properties":{"osm_id":"6700786516","tag":{"amenity":"waste_disposal","waste":"trash"}},"type":"Feature"},
	{"geometry":{"coordinates":[8.963123,48.695535],"type":"Point"},"properties":{"osm_id":"6712702203","tag":{"amenity":"recycling","recycling:clothes":"yes","recycling_type":"container"}},"type":"Feature"},
	{"geometry":{"coordinates":[8.963147,48.695534],"type":"Point"},"properties":{"osm_id":"6712702204","tag":{"amenity":"recycling","recycling:clothes":"yes","recycling_type":"container"}},"type":"Feature"},
	{"geometry":{"coordinates":[8.963386,48.718925],"type":"Point"},"properties":{"osm_id":"7934350231","tag":{"amenity":"recycling","recycling:cans":"yes","recycling:glass_bottles":"yes","recycling_type":"container"}},"type":"Feature"}
]
}
