{
"type": "FeatureCollection",
"features": [
	{"geometry":{"coordinates":[8.935945,48.654989],"type":"Point"},"properties":{"osm_id":"259760667","tag":{"amenity":"recycling","lastcheck":"2016-11-19","operator":"AWB B\u00c3\u00b6blingen","recycling:cans":"yes","recycling:glass_bottles":"yes","recycling_type":"container"}},"type":"Feature"},
	{"geometry":{"coordinates":[8.943354,48.659728],"type":"Point"},"properties":{"osm_id":"260233726","tag":{"amenity":"recycling","recycling_type":"container"}},"type":"Feature"},
	{"geometry":{"coordinates":[8.940145,48.690883],"type":"Point"},"properties":{"osm_id":"292738106","tag":{"amenity":"recycling","recycling:glass":"yes","recycling_type":"container"}},"type":"Feature"},
	{"geometry":{"coordinates":[8.955207,48.689979],"type":"Point"},"properties":{"osm_id":"300376664","tag":{"amenity":"recycling","recycling:glass":"yes","recycling_type":"container"}},"type":"Feature"},
	{"geometry":{"coordinates":[8.894725,48.682124],"type":"Point"},"properties":{"osm_id":"320684518","tag":{"amenity":"recycling","recycling_type":"container"}},"type":"Feature"},
	{"geometry":{"coordinates":[8.933947,48.660982],"type":"Point"},"properties":{"name":"H\u00c3\u00a4ckselplatz","osm_id":"840494563","tag":{"amenity":"recycling","operator":"AWB B\u00c3\u00b6blingen","recycling:green_waste":"yes","recycling_type":"centre"}},"type":"Feature"},
	{"geometry":{"coordinates":[8.887889,48.645366],"type":"Point"},"properties":{"barrier":"gate","osm_id":"841468352"},"type":"Feature"},
	{"geometry":{"coordinates":[8.887907,48.645693],"type":"Point"},"properties":{"barrier":"gate","osm_id":"841468353"},"type":"Feature"},
	{"geometry":{"coordinates":[8.903693,48.64217],"type":"Point"},"properties":{"osm_id":"905260550","tag":{"amenity":"recycling","recycling:clothes":"yes","recycling_type":"container"}},"type":"Feature"},
	{"geometry":{"coordinates":[8.932249,48.653228],"type":"Point"},"properties":{"osm_id":"1118711778","tag":{"amenity":"recycling","lastcheck":"2016-11-19","operator":"AWB B\u00c3\u00b6blingen","recycling:cans":"yes","recycling:clothes":"yes","recycling:glass_bottles":"yes","recycling:paper":"no","recycling_type":"container"}},"type":"Feature"},
	{"geometry":{"coordinates":[8.94106,48.661042],"type":"Point"},"properties":{"osm_id":"1455224736","tag":{"amenity":"recycling","recycling:clothes":"yes","recycling_type":"container"}},"type":"Feature"},
	{"geometry":{"coordinates":[8.888619,48.644862],"type":"Point"},"properties":{"osm_id":"1460495375","tag":{"amenity":"recycling","recycling:glass":"yes","recycling_type":"container"}},"type":"Feature"},
	{"geometry":{"coordinates":[8.948741,48.659145],"type":"Point"},"properties":{"osm_id":"1485867529","tag":{"amenity":"recycling","recycling:glass_bottles":"yes","recycling_type":"container"}},"type":"Feature"},
	{"geometry":{"coordinates":[8.958409,48.662415],"type":"Point"},"properties":{"osm_id":"1519952756","tag":{"amenity":"recycling","recycling:cans":"yes","recycling:glass_bottles":"yes","recycling_type":"container"}},"type":"Feature"},
	{"geometry":{"coordinates":[8.902059,48.646486],"type":"Point"},"properties":{"osm_id":"2092085658","tag":{"amenity":"recycling","recycling:clothes":"yes","recycling_type":"container"}},"type":"Feature"},
	{"geometry":{"coordinates":[8.9021,48.646497],"type":"Point"},"properties":{"osm_id":"2092085662","tag":{"amenity":"recycling","recycling:glass":"yes","recycling_type":"container"}},"type":"Feature"},
	{"geometry":{"coordinates":[8.932243,48.655159],"type":"Point"},"properties":{"osm_id":"2592146147","tag":{"amenity":"recycling","lastcheck":"2016-11-19","operator":"AWB B\u00c3\u00b6blingen","recycling:cans":"yes","recycling:clothes":"yes","recycling:glass_bottles":"yes","recycling_type":"container"}},"type":"Feature"},
	{"geometry":{"coordinates":[8.908045,48.64096],"type":"Point"},"properties":{"osm_id":"3076429806","tag":{"amenity":"recycling","recycling:clothes":"yes","recycling_type":"container"}},"type":"Feature"},
	{"geometry":{"coordinates":[8.93314,48.659885],"type":"Point"},"properties":{"barrier":"gate","osm_id":"3091516631","tag":{"bicycle":"yes","foot":"yes","motorcar":"yes","motorcycle":"yes"}},"type":"Feature"},
	{"geometry":{"coordinates":[8.932961,48.659926],"type":"Point"},"properties":{"barrier":"gate","osm_id":"3091516632","tag":{"bicycle":"yes","foot":"yes","motorcar":"yes","motorcycle":"yes"}},"type":"Feature"},
	{"geometry":{"coordinates":[8.905637,48.643216],"type":"Point"},"properties":{"osm_id":"3159076111","tag":{"amenity":"recycling","recycling:clothes":"yes","recycling_type":"container"}},"type":"Feature"},
	{"geometry":{"coordinates":[8.906717,48.684259],"type":"Point"},"properties":{"osm_id":"4050250736","tag":{"amenity":"waste_basket"}},"type":"Feature"},
	{"geometry":{"coordinates":[8.912589,48.668705],"type":"Point"},"properties":{"osm_id":"4050318584","tag":{"amenity":"waste_basket"}},"type":"Feature"},
	{"geometry":{"coordinates":[8.912548,48.668564],"type":"Point"},"properties":{"osm_id":"4050326241","tag":{"amenity":"waste_basket"}},"type":"Feature"},
	{"geometry":{"coordinates":[8.943023,48.661789],"type":"Point"},"properties":{"osm_id":"4182896544","tag":{"amenity":"waste_basket"}},"type":"Feature"},
	{"geometry":{"coordinates":[8.943725,48.662471],"type":"Point"},"properties":{"osm_id":"4182926105","tag":{"amenity":"waste_basket"}},"type":"Feature"},
	{"geometry":{"coordinates":[8.957411,48.690125],"type":"Point"},"properties":{"osm_id":"4185251053","tag":{"amenity":"waste_basket"}},"type":"Feature"},
	{"geometry":{"coordinates":[8.888544,48.681873],"type":"Point"},"properties":{"osm_id":"4215405515","tag":{"amenity":"waste_basket"}},"type":"Feature"},
	{"geometry":{"coordinates":[8.889077,48.678795],"type":"Point"},"properties":{"osm_id":"4254696825","tag":{"amenity":"waste_basket","direction":"242","traffic_sign":"DE:240"}},"type":"Feature"},
	{"geometry":{"coordinates":[8.908234,48.640715],"type":"Point"},"properties":{"osm_id":"4262315292","tag":{"amenity":"waste_basket"}},"type":"Feature"},
	{"geometry":{"coordinates":[8.908373,48.640823],"type":"Point"},"properties":{"osm_id":"4262315293","tag":{"amenity":"waste_basket"}},"type":"Feature"},
	{"geometry":{"coordinates":[8.930056,48.651387],"type":"Point"},"properties":{"osm_id":"4262735353","tag":{"amenity":"waste_basket"}},"type":"Feature"},
	{"geometry":{"coordinates":[8.877221,48.679321],"type":"Point"},"properties":{"osm_id":"4475199989","tag":{"amenity":"waste_basket"}},"type":"Feature"},
	{"geometry":{"coordinates":[8.892239,48.643632],"type":"Point"},"properties":{"osm_id":"5438249304","tag":{"amenity":"waste_basket","vending":"excrement_bags","waste":"dog_excrement"}},"type":"Feature"},
	{"geometry":{"coordinates":[8.940736,48.659313],"type":"Point"},"properties":{"osm_id":"6213715339","tag":{"amenity":"waste_basket"}},"type":"Feature"},
	{"geometry":{"coordinates":[8.902217,48.641995],"type":"Point"},"properties":{"osm_id":"6279029424","tag":{"amenity":"waste_basket","waste":"trash"}},"type":"Feature"},
	{"geometry":{"coordinates":[8.902981,48.641809],"type":"Point"},"properties":{"osm_id":"6279029425","tag":{"amenity":"waste_basket","waste":"trash"}},"type":"Feature"},
	{"geometry":{"coordinates":[8.89892,48.643578],"type":"Point"},"properties":{"osm_id":"6796407360","tag":{"amenity":"waste_basket","waste":"trash"}},"type":"Feature"},
	{"geometry":{"coordinates":[8.898794,48.634934],"type":"Point"},"properties":{"osm_id":"6825027962","tag":{"amenity":"waste_basket"}},"type":"Feature"},
	{"geometry":{"coordinates":[8.901679,48.643942],"type":"Point"},"properties":{"osm_id":"6907684804","tag":{"amenity":"waste_basket","colour":"green"}},"type":"Feature"},
	{"geometry":{"coordinates":[8.908457,48.640346],"type":"Point"},"properties":{"osm_id":"7059677317","tag":{"amenity":"waste_basket"}},"type":"Feature"},
	{"geometry":{"coordinates":[8.909058,48.640848],"type":"Point"},"properties":{"osm_id":"7060007802","tag":{"amenity":"waste_basket"}},"type":"Feature"},
	{"geometry":{"coordinates":[8.89548,48.650851],"type":"Point"},"properties":{"osm_id":"7092881759","tag":{"amenity":"waste_basket","waste":"trash"}},"type":"Feature"},
	{"geometry":{"coordinates":[8.90561,48.65191],"type":"Point"},"properties":{"osm_id":"7092893337","tag":{"amenity":"waste_basket"}},"type":"Feature"},
	{"geometry":{"coordinates":[8.898208,48.643608],"type":"Point"},"properties":{"osm_id":"7095755520","tag":{"amenity":"waste_basket"}},"type":"Feature"},
	{"geometry":{"coordinates":[8.897719,48.635168],"type":"Point"},"properties":{"osm_id":"7100690050","tag":{"amenity":"waste_basket","waste":"trash"}},"type":"Feature"},
	{"geometry":{"coordinates":[8.894235,48.63457],"type":"Point"},"properties":{"osm_id":"7100690054","tag":{"amenity":"waste_basket","waste":"trash"}},"type":"Feature"},
	{"geometry":{"coordinates":[8.908806,48.640587],"type":"Point"},"properties":{"osm_id":"7112187501","tag":{"amenity":"waste_basket"}},"type":"Feature"},
	{"geometry":{"coordinates":[8.900586,48.634987],"type":"Point"},"properties":{"osm_id":"7257305043","tag":{"amenity":"waste_basket","waste":"trash"}},"type":"Feature"},
	{"geometry":{"coordinates":[8.904511,48.645488],"type":"Point"},"properties":{"osm_id":"7291748406","tag":{"amenity":"waste_basket","waste":"trash"}},"type":"Feature"},
	{"geometry":{"coordinates":[8.928978,48.633377],"type":"Point"},"properties":{"osm_id":"7312810299","tag":{"amenity":"waste_basket","waste":"trash"}},"type":"Feature"},
	{"geometry":{"coordinates":[8.944046,48.662622],"type":"Point"},"properties":{"osm_id":"7409876061","tag":{"amenity":"waste_basket","waste":"trash"}},"type":"Feature"},
	{"geometry":{"coordinates":[8.943386,48.662311],"type":"Point"},"properties":{"osm_id":"7409904387","tag":{"amenity":"waste_basket","level":"0","waste":"trash"}},"type":"Feature"}
]
}
