{
"type": "FeatureCollection",
"features": [
	{"geometry":{"coordinates":[8.925979,48.520993],"type":"Point"},"properties":{"osm_id":"289307294","tag":{"amenity":"recycling","recycling:glass_bottles":"yes","recycling_type":"container"}},"type":"Feature"},
	{"geometry":{"coordinates":[8.927527,48.525608],"type":"Point"},"properties":{"osm_id":"289307295","tag":{"amenity":"recycling","recycling:clothes":"yes","recycling_type":"container"}},"type":"Feature"},
	{"geometry":{"coordinates":[8.9494,48.533971],"type":"Point"},"properties":{"osm_id":"291236002","tag":{"amenity":"recycling","recycling:clothes":"yes","recycling:glass_bottles":"yes","recycling_type":"container"}},"type":"Feature"},
	{"geometry":{"coordinates":[8.9036,48.556264],"type":"Point"},"properties":{"osm_id":"291570851","tag":{"amenity":"recycling","recycling:cans":"no","recycling:clothes":"yes","recycling:glass":"no","recycling:paper":"no","recycling_type":"container"}},"type":"Feature"},
	{"geometry":{"coordinates":[8.907374,48.565767],"type":"Point"},"properties":{"osm_id":"299115990","tag":{"amenity":"recycling","recycling:glass_bottles":"yes","recycling_type":"container"}},"type":"Feature"},
	{"geometry":{"coordinates":[8.909948,48.561274],"type":"Point"},"properties":{"osm_id":"299116131","tag":{"amenity":"recycling","recycling:clothes":"yes","recycling:glass_bottles":"yes","recycling_type":"container"}},"type":"Feature"},
	{"geometry":{"coordinates":[8.961355,48.531396],"type":"Point"},"properties":{"osm_id":"301553064","tag":{"amenity":"recycling","recycling:clothes":"yes","recycling_type":"container"}},"type":"Feature"},
	{"geometry":{"coordinates":[8.950167,48.538949],"type":"Point"},"properties":{"osm_id":"305137681","tag":{"amenity":"recycling","recycling:clothes":"yes","recycling:glass_bottles":"yes","recycling_type":"container"}},"type":"Feature"},
	{"geometry":{"coordinates":[8.959159,48.571178],"type":"Point"},"properties":{"osm_id":"373736648","tag":{"amenity":"recycling","recycling:glass_bottles":"yes","recycling_type":"container"}},"type":"Feature"},
	{"geometry":{"coordinates":[8.96063,48.557358],"type":"Point"},"properties":{"osm_id":"743137472","tag":{"amenity":"recycling","recycling:glass_bottles":"yes","recycling_type":"container"}},"type":"Feature"},
	{"geometry":{"coordinates":[8.96312,48.525379],"type":"Point"},"properties":{"osm_id":"1436485698","tag":{"amenity":"recycling","recycling:clothes":"yes","recycling:glass_bottles":"yes","recycling:shoes":"yes","recycling_type":"container"}},"type":"Feature"},
	{"geometry":{"coordinates":[8.91831,48.545616],"type":"Point"},"properties":{"osm_id":"1522280487","tag":{"amenity":"recycling","recycling:clothes":"yes","recycling:glass_bottles":"yes","recycling_type":"container"}},"type":"Feature"},
	{"geometry":{"coordinates":[8.914473,48.573021],"type":"Point"},"properties":{"barrier":"gate","osm_id":"1874223534"},"type":"Feature"},
	{"geometry":{"coordinates":[8.885525,48.52466],"type":"Point"},"properties":{"osm_id":"3145268720","tag":{"amenity":"waste_disposal"}},"type":"Feature"},
	{"geometry":{"coordinates":[8.886001,48.574773],"type":"Point"},"properties":{"osm_id":"3661339221","tag":{"amenity":"recycling","recycling:cans":"yes","recycling:clothes":"yes","recycling:glass_bottles":"yes","recycling_type":"container"}},"type":"Feature"},
	{"geometry":{"coordinates":[8.948414,48.534204],"type":"Point"},"properties":{"osm_id":"4021588653","tag":{"amenity":"waste_basket"}},"type":"Feature"},
	{"geometry":{"coordinates":[8.950878,48.535495],"type":"Point"},"properties":{"osm_id":"4334202601","tag":{"amenity":"waste_basket"}},"type":"Feature"},
	{"geometry":{"coordinates":[8.913076,48.543966],"type":"Point"},"properties":{"osm_id":"4334202606","tag":{"amenity":"waste_basket"}},"type":"Feature"},
	{"geometry":{"coordinates":[8.912794,48.544246],"type":"Point"},"properties":{"osm_id":"4334202612","tag":{"amenity":"waste_basket"}},"type":"Feature"},
	{"geometry":{"coordinates":[8.883255,48.572034],"type":"Point"},"properties":{"osm_id":"4357922660","tag":{"amenity":"waste_basket"}},"type":"Feature"},
	{"geometry":{"coordinates":[8.918853,48.57467],"type":"Point"},"properties":{"osm_id":"4382534731","tag":{"amenity":"waste_basket"}},"type":"Feature"},
	{"geometry":{"coordinates":[8.885174,48.524292],"type":"Point"},"properties":{"osm_id":"4847525031","tag":{"amenity":"waste_disposal"}},"type":"Feature"},
	{"geometry":{"coordinates":[8.885917,48.525071],"type":"Point"},"properties":{"osm_id":"4847525032","tag":{"amenity":"waste_disposal"}},"type":"Feature"},
	{"geometry":{"coordinates":[8.945954,48.537804],"type":"Point"},"properties":{"osm_id":"4879114973","tag":{"amenity":"waste_basket"}},"type":"Feature"},
	{"geometry":{"coordinates":[8.946077,48.537833],"type":"Point"},"properties":{"osm_id":"4879114974","tag":{"amenity":"waste_basket"}},"type":"Feature"},
	{"geometry":{"coordinates":[8.949568,48.534801],"type":"Point"},"properties":{"osm_id":"4917775806","tag":{"amenity":"waste_basket"}},"type":"Feature"},
	{"geometry":{"coordinates":[8.905291,48.55581],"type":"Point"},"properties":{"osm_id":"4976183189","tag":{"amenity":"waste_basket"}},"type":"Feature"},
	{"geometry":{"coordinates":[8.887269,48.524947],"type":"Point"},"properties":{"osm_id":"5269751721","tag":{"amenity":"waste_disposal"}},"type":"Feature"},
	{"geometry":{"coordinates":[8.887269,48.525821],"type":"Point"},"properties":{"osm_id":"5269751722","tag":{"amenity":"waste_disposal"}},"type":"Feature"},
	{"geometry":{"coordinates":[8.886944,48.525436],"type":"Point"},"properties":{"osm_id":"5269751723","tag":{"amenity":"waste_disposal"}},"type":"Feature"},
	{"geometry":{"coordinates":[8.886628,48.525057],"type":"Point"},"properties":{"osm_id":"5269751724","tag":{"amenity":"waste_disposal"}},"type":"Feature"},
	{"geometry":{"coordinates":[8.884769,48.524887],"type":"Point"},"properties":{"osm_id":"5269751725","tag":{"amenity":"waste_disposal"}},"type":"Feature"},
	{"geometry":{"coordinates":[8.948457,48.534727],"type":"Point"},"properties":{"osm_id":"5398892430","tag":{"amenity":"waste_basket"}},"type":"Feature"},
	{"geometry":{"coordinates":[8.949347,48.535062],"type":"Point"},"properties":{"osm_id":"5398892441","tag":{"amenity":"waste_basket"}},"type":"Feature"},
	{"geometry":{"coordinates":[8.927141,48.525327],"type":"Point"},"properties":{"osm_id":"5441068019","tag":{"amenity":"recycling","recycling:clothes":"yes","recycling_type":"container"}},"type":"Feature"},
	{"geometry":{"coordinates":[8.884584,48.525322],"type":"Point"},"properties":{"name":"H\u00c3\u00a4ckselplatz","osm_id":"5610360521","tag":{"addr:street":"Oberndorfer Stra\u00c3\u009fe (Feldweg 614 Richtung Rottenburg-Oberndorf)","amenity":"recycling","description":"Im Dezember und Januar geschlossen. Baum- und Heckenschnitt wird kostenlos angenommen. Nicht h\u00c3\u00a4ckselbare Abf\u00c3\u00a4lle (Laub, Moos, Rasen- und Grasschnitt) k\u00c3\u00b6nnen in den bereitgestellten Container gegeben werden.","opening_hours":"Sa 16:00-18:00","operator":"Stadt Rottenburg","phone":"+49 151 74070782","recycling:wood":"Yes","website":"https://www.abfall-kreis-tuebingen.de/entsorgen/wohin-mit-den-abfaellen/haeckselplaetze/"}},"type":"Feature"},
	{"geometry":{"coordinates":[8.920684,48.539004],"type":"Point"},"properties":{"osm_id":"5994570971","tag":{"amenity":"waste_basket","waste":"trash"}},"type":"Feature"},
	{"geometry":{"coordinates":[8.96468,48.52066],"type":"Point"},"properties":{"osm_id":"6484062634","tag":{"amenity":"waste_basket"}},"type":"Feature"},
	{"geometry":{"coordinates":[8.94722,48.537024],"type":"Point"},"properties":{"osm_id":"6624812589","tag":{"amenity":"waste_basket","waste":"trash"}},"type":"Feature"},
	{"geometry":{"coordinates":[8.88534,48.525356],"type":"Point"},"properties":{"osm_id":"6982242974","tag":{"amenity":"waste_basket"}},"type":"Feature"},
	{"geometry":{"coordinates":[8.908694,48.562014],"type":"Point"},"properties":{"osm_id":"7398076982","tag":{"amenity":"waste_basket","covered":"yes","image":"https://commons.wikimedia.org/wiki/File:Bahnhof_Altingen_11.jpg"}},"type":"Feature"},
	{"geometry":{"coordinates":[8.909314,48.561723],"type":"Point"},"properties":{"osm_id":"7505397504","tag":{"amenity":"waste_basket","waste":"trash"}},"type":"Feature"},
	{"geometry":{"coordinates":[8.916151,48.542771],"type":"Point"},"properties":{"osm_id":"7727418381","tag":{"amenity":"waste_basket"}},"type":"Feature"},
	{"geometry":{"coordinates":[8.945163,48.543497],"type":"Point"},"properties":{"osm_id":"7819620669","tag":{"amenity":"waste_basket","waste":"trash"}},"type":"Feature"}
]
}
