{
"type": "FeatureCollection",
"features": [
	{"geometry":{"coordinates":[8.928576,48.47751],"type":"Point"},"properties":{"osm_id":"269938417","tag":{"amenity":"recycling","recycling:cans":"no","recycling:clothes":"yes","recycling:glass":"yes","recycling:glass_bottles":"yes","recycling:paper":"no","recycling:plastic":"no","recycling_type":"container"}},"type":"Feature"},
	{"geometry":{"coordinates":[8.88366,48.484427],"type":"Point"},"properties":{"osm_id":"280822924","tag":{"amenity":"recycling","location":"overground","recycling_type":"container"}},"type":"Feature"},
	{"geometry":{"coordinates":[8.929442,48.469928],"type":"Point"},"properties":{"osm_id":"286793502","tag":{"amenity":"recycling","recycling_type":"container"}},"type":"Feature"},
	{"geometry":{"coordinates":[8.927389,48.468178],"type":"Point"},"properties":{"osm_id":"286810213","tag":{"amenity":"recycling","recycling_type":"container"}},"type":"Feature"},
	{"geometry":{"coordinates":[8.928034,48.480655],"type":"Point"},"properties":{"osm_id":"299363246","tag":{"amenity":"recycling","recycling:cans":"no","recycling:clothes":"yes","recycling:glass":"yes","recycling:paper":"no","recycling_type":"container"}},"type":"Feature"},
	{"geometry":{"coordinates":[8.942189,48.506095],"type":"Point"},"properties":{"osm_id":"301120441","tag":{"amenity":"recycling","recycling:clothes":"yes","recycling_type":"container"}},"type":"Feature"},
	{"geometry":{"coordinates":[8.933365,48.509079],"type":"Point"},"properties":{"osm_id":"301120488","tag":{"amenity":"recycling","recycling:glass":"yes","recycling_type":"container"}},"type":"Feature"},
	{"geometry":{"coordinates":[8.935518,48.508077],"type":"Point"},"properties":{"osm_id":"301120508","tag":{"amenity":"recycling","recycling:clothes":"yes","recycling_type":"container"}},"type":"Feature"},
	{"geometry":{"coordinates":[8.938341,48.470986],"type":"Point"},"properties":{"osm_id":"310533551","tag":{"amenity":"recycling","recycling_type":"container"}},"type":"Feature"},
	{"geometry":{"coordinates":[8.947216,48.484541],"type":"Point"},"properties":{"osm_id":"373161913","tag":{"amenity":"recycling","recycling:clothes":"yes","recycling:glass_bottles":"yes","recycling_type":"container"}},"type":"Feature"},
	{"geometry":{"coordinates":[8.957912,48.478219],"type":"Point"},"properties":{"osm_id":"377000806","tag":{"amenity":"recycling","recycling:glass":"yes","recycling_type":"container"}},"type":"Feature"},
	{"geometry":{"coordinates":[8.935026,48.48614],"type":"Point"},"properties":{"osm_id":"443705642","ref":"Bischof-Moser-Stra\u00c3\u009fe","tag":{"amenity":"recycling","recycling:glass_bottles":"yes","recycling_type":"container"}},"type":"Feature"},
	{"geometry":{"coordinates":[8.937475,48.472588],"type":"Point"},"properties":{"osm_id":"1249053489","tag":{"amenity":"recycling","recycling:clothes":"no","recycling:glass":"yes","recycling:glass_bottles":"yes","recycling:paper":"no","recycling:plastic":"no","recycling_type":"container"}},"type":"Feature"},
	{"geometry":{"coordinates":[8.939473,48.474521],"type":"Point"},"properties":{"highway":"street_lamp","osm_id":"3888405975","tag":{"amenity":"waste_basket"}},"type":"Feature"},
	{"geometry":{"coordinates":[8.939482,48.474663],"type":"Point"},"properties":{"osm_id":"3888411487","tag":{"amenity":"waste_basket"}},"type":"Feature"},
	{"geometry":{"coordinates":[8.939998,48.474429],"type":"Point"},"properties":{"highway":"street_lamp","osm_id":"3888416470","tag":{"amenity":"waste_basket"}},"type":"Feature"},
	{"geometry":{"coordinates":[8.941365,48.474001],"type":"Point"},"properties":{"highway":"street_lamp","osm_id":"3888416649","tag":{"amenity":"waste_basket"}},"type":"Feature"},
	{"geometry":{"coordinates":[8.939095,48.47473],"type":"Point"},"properties":{"osm_id":"3888681022","tag":{"amenity":"waste_basket"}},"type":"Feature"},
	{"geometry":{"coordinates":[8.939615,48.474767],"type":"Point"},"properties":{"osm_id":"3888681023","tag":{"amenity":"waste_basket"}},"type":"Feature"},
	{"geometry":{"coordinates":[8.938991,48.484153],"type":"Point"},"properties":{"osm_id":"4022723998","tag":{"amenity":"recycling","recycling:clothes":"yes","recycling:glass":"no","recycling:glass_bottles":"yes","recycling_type":"container"}},"type":"Feature"},
	{"geometry":{"coordinates":[8.941289,48.473979],"type":"Point"},"properties":{"osm_id":"4664399053","tag":{"amenity":"waste_basket"}},"type":"Feature"},
	{"geometry":{"coordinates":[8.937664,48.474181],"type":"Point"},"properties":{"osm_id":"4917775420","tag":{"amenity":"waste_basket"}},"type":"Feature"},
	{"geometry":{"coordinates":[8.938205,48.473956],"type":"Point"},"properties":{"osm_id":"4917775728","tag":{"amenity":"waste_basket"}},"type":"Feature"},
	{"geometry":{"coordinates":[8.943145,48.48675],"type":"Point"},"properties":{"osm_id":"5202514725","tag":{"amenity":"waste_basket"}},"type":"Feature"},
	{"geometry":{"coordinates":[8.938212,48.473114],"type":"Point"},"properties":{"name":"Malteser","osm_id":"5448495894","tag":{"amenity":"recycling","recycling:cans":"no","recycling:clothes":"yes","recycling:glass":"no","recycling:glass_bottles":"no","recycling:paper":"no","recycling:plastic":"no","recycling_type":"container"}},"type":"Feature"},
	{"geometry":{"coordinates":[8.932063,48.471261],"type":"Point"},"properties":{"osm_id":"5676408095","tag":{"amenity":"waste_basket","waste":"trash"}},"type":"Feature"},
	{"geometry":{"coordinates":[8.933368,48.472138],"type":"Point"},"properties":{"osm_id":"6721594182","tag":{"amenity":"recycling","recycling:bottles":"yes","recycling_type":"container"}},"type":"Feature"},
	{"geometry":{"coordinates":[8.933232,48.472186],"type":"Point"},"properties":{"osm_id":"6721646072","tag":{"amenity":"recycling","recycling:clothes":"yes","recycling:shoes":"yes","recycling_type":"container"}},"type":"Feature"},
	{"geometry":{"coordinates":[8.944047,48.487776],"type":"Point"},"properties":{"osm_id":"7124154590","tag":{"amenity":"waste_basket","operator":"Stadt Rottenburg","waste":"dog_excrement"}},"type":"Feature"},
	{"geometry":{"coordinates":[8.916213,48.467423],"type":"Point"},"properties":{"barrier":"gate","osm_id":"7390717202"},"type":"Feature"},
	{"geometry":{"coordinates":[8.933282,48.476846],"type":"Point"},"properties":{"osm_id":"7618106280","tag":{"amenity":"waste_basket"}},"type":"Feature"},
	{"geometry":{"coordinates":[8.932298,48.475824],"type":"Point"},"properties":{"osm_id":"7618128285","tag":{"amenity":"waste_basket"}},"type":"Feature"},
	{"geometry":{"coordinates":[8.931802,48.475232],"type":"Point"},"properties":{"osm_id":"7618128296","tag":{"amenity":"waste_basket"}},"type":"Feature"}
]
}
