{
"type": "FeatureCollection",
"features": [
	{"geometry":{"coordinates":[8.886207,47.591576],"type":"Point"},"properties":{"osm_id":"260130566","tag":{"amenity":"recycling"}},"type":"Feature"},
	{"geometry":{"coordinates":[8.939932,47.621926],"type":"Point"},"properties":{"osm_id":"1361000465","tag":{"amenity":"recycling","recycling:batteries":"yes","recycling:cans":"yes","recycling:clothes":"yes","recycling:glass_bottles":"yes","recycling:scrap_metal":"yes","recycling:waste":"yes","recycling_type":"container"}},"type":"Feature"},
	{"geometry":{"coordinates":[8.942989,47.579856],"type":"Point"},"properties":{"osm_id":"1424453565","tag":{"amenity":"waste_basket","payment:none":"yes","vending":"excrement_bags","waste_basket:excrement_bags":"yes"}},"type":"Feature"},
	{"geometry":{"coordinates":[8.943102,47.57997],"type":"Point"},"properties":{"osm_id":"1424453578","tag":{"amenity":"waste_basket"}},"type":"Feature"},
	{"geometry":{"coordinates":[8.952958,47.595457],"type":"Point"},"properties":{"osm_id":"2288341229","tag":{"amenity":"waste_basket"}},"type":"Feature"},
	{"geometry":{"coordinates":[8.95598,47.596117],"type":"Point"},"properties":{"osm_id":"2288341241","tag":{"amenity":"waste_basket"}},"type":"Feature"},
	{"geometry":{"coordinates":[8.956681,47.596408],"type":"Point"},"properties":{"osm_id":"2288341247","tag":{"amenity":"waste_basket"}},"type":"Feature"},
	{"geometry":{"coordinates":[8.947718,47.611134],"type":"Point"},"properties":{"osm_id":"2888195237","tag":{"amenity":"waste_basket","hiking":"yes","information":"guidepost","tourism":"information"}},"type":"Feature"},
	{"geometry":{"coordinates":[8.948885,47.616654],"type":"Point"},"properties":{"osm_id":"2888195269","tag":{"amenity":"waste_basket"}},"type":"Feature"},
	{"geometry":{"coordinates":[8.948902,47.616672],"type":"Point"},"properties":{"osm_id":"2888195272","tag":{"amenity":"waste_basket"}},"type":"Feature"},
	{"geometry":{"coordinates":[8.950635,47.616958],"type":"Point"},"properties":{"osm_id":"2888195281","tag":{"amenity":"waste_basket"}},"type":"Feature"},
	{"geometry":{"coordinates":[8.952152,47.6175],"type":"Point"},"properties":{"osm_id":"2888195288","tag":{"amenity":"waste_basket"}},"type":"Feature"},
	{"geometry":{"coordinates":[8.954261,47.617779],"type":"Point"},"properties":{"osm_id":"2888195290","tag":{"amenity":"waste_basket"}},"type":"Feature"},
	{"geometry":{"coordinates":[8.954671,47.618137],"type":"Point"},"properties":{"osm_id":"2888195294","tag":{"amenity":"waste_basket"}},"type":"Feature"},
	{"geometry":{"coordinates":[8.946012,47.580681],"type":"Point"},"properties":{"osm_id":"3137523015","tag":{"amenity":"recycling","recycling:green_waste":"yes","recycling_type":"container"}},"type":"Feature"},
	{"geometry":{"coordinates":[8.951092,47.593023],"type":"Point"},"properties":{"osm_id":"3148977860","tag":{"amenity":"waste_basket"}},"type":"Feature"},
	{"geometry":{"coordinates":[8.95332,47.594679],"type":"Point"},"properties":{"osm_id":"3148977896","tag":{"amenity":"waste_basket"}},"type":"Feature"},
	{"geometry":{"coordinates":[8.957717,47.595118],"type":"Point"},"properties":{"osm_id":"3148999864","tag":{"amenity":"waste_basket"}},"type":"Feature"},
	{"geometry":{"coordinates":[8.88048,47.609606],"type":"Point"},"properties":{"osm_id":"3175497553","tag":{"amenity":"waste_basket"}},"type":"Feature"},
	{"geometry":{"coordinates":[8.937664,47.57941],"type":"Point"},"properties":{"osm_id":"3190306881","tag":{"amenity":"waste_basket"}},"type":"Feature"},
	{"geometry":{"coordinates":[8.946198,47.583774],"type":"Point"},"properties":{"osm_id":"3190306934","tag":{"amenity":"waste_basket"}},"type":"Feature"},
	{"geometry":{"coordinates":[8.954833,47.595351],"type":"Point"},"properties":{"osm_id":"3370796236","tag":{"amenity":"waste_basket"}},"type":"Feature"},
	{"geometry":{"coordinates":[8.95262,47.597087],"type":"Point"},"properties":{"osm_id":"3370796265","tag":{"amenity":"waste_basket"}},"type":"Feature"},
	{"geometry":{"coordinates":[8.949203,47.597596],"type":"Point"},"properties":{"osm_id":"3370796280","tag":{"amenity":"waste_basket"}},"type":"Feature"},
	{"geometry":{"coordinates":[8.95234,47.599212],"type":"Point"},"properties":{"osm_id":"3370797516","tag":{"amenity":"waste_basket"}},"type":"Feature"},
	{"geometry":{"coordinates":[8.949924,47.599935],"type":"Point"},"properties":{"osm_id":"3370797527","tag":{"amenity":"waste_basket"}},"type":"Feature"},
	{"geometry":{"coordinates":[8.942951,47.577098],"type":"Point"},"properties":{"osm_id":"3518095655","tag":{"amenity":"waste_basket"}},"type":"Feature"},
	{"geometry":{"coordinates":[8.947825,47.590947],"type":"Point"},"properties":{"name":"Pfyn Kl\u00c3\u00a4ranlage","osm_id":"3540015049","tag":{"amenity":"recycling","recycling:animal_waste":"yes","recycling_type":"centre"}},"type":"Feature"},
	{"geometry":{"coordinates":[8.949071,47.591512],"type":"Point"},"properties":{"osm_id":"3540025202","tag":{"amenity":"waste_basket","hiking":"yes","information":"guidepost","tourism":"information"}},"type":"Feature"},
	{"geometry":{"coordinates":[8.957202,47.592167],"type":"Point"},"properties":{"osm_id":"3540025230","tag":{"amenity":"waste_basket"}},"type":"Feature"},
	{"geometry":{"coordinates":[8.924851,47.589872],"type":"Point"},"properties":{"osm_id":"3540159538","tag":{"amenity":"waste_basket"}},"type":"Feature"},
	{"geometry":{"coordinates":[8.950361,47.618247],"type":"Point"},"properties":{"osm_id":"4501325443","tag":{"amenity":"waste_basket"}},"type":"Feature"},
	{"geometry":{"coordinates":[8.938199,47.623644],"type":"Point"},"properties":{"osm_id":"4921169522","tag":{"amenity":"waste_basket"}},"type":"Feature"},
	{"geometry":{"coordinates":[8.940707,47.584367],"type":"Point"},"properties":{"osm_id":"6251318122","tag":{"amenity":"waste_basket"}},"type":"Feature"},
	{"geometry":{"coordinates":[8.937851,47.583771],"type":"Point"},"properties":{"osm_id":"6251318332","tag":{"amenity":"waste_basket"}},"type":"Feature"},
	{"geometry":{"coordinates":[8.944314,47.577441],"type":"Point"},"properties":{"osm_id":"7109853242","tag":{"amenity":"waste_basket","waste":"trash"}},"type":"Feature"},
	{"geometry":{"coordinates":[8.926813,47.634735],"type":"Point"},"properties":{"osm_id":"7277876657","tag":{"amenity":"waste_basket","waste":"trash"}},"type":"Feature"}
]
}
