{
"type": "FeatureCollection",
"features": [
	{"geometry":{"coordinates":[8.96284,47.542732],"type":"Point"},"properties":{"osm_id":"1066351055","tag":{"amenity":"recycling","recycling:batteries":"yes","recycling:cans":"yes","recycling:clothes":"yes","recycling:glass":"yes"}},"type":"Feature"},
	{"geometry":{"coordinates":[8.895343,47.557432],"type":"Point"},"properties":{"osm_id":"1363824344","tag":{"amenity":"waste_basket","covered":"yes"}},"type":"Feature"},
	{"geometry":{"coordinates":[8.895679,47.557654],"type":"Point"},"properties":{"osm_id":"1363824346","tag":{"amenity":"waste_basket","covered":"yes"}},"type":"Feature"},
	{"geometry":{"coordinates":[8.895501,47.557705],"type":"Point"},"properties":{"osm_id":"1363824354","tag":{"amenity":"waste_basket"}},"type":"Feature"},
	{"geometry":{"coordinates":[8.89648,47.55836],"type":"Point"},"properties":{"osm_id":"1363824368","tag":{"amenity":"waste_basket"}},"type":"Feature"},
	{"geometry":{"coordinates":[8.89686,47.558604],"type":"Point"},"properties":{"osm_id":"1363824380","tag":{"amenity":"waste_basket"}},"type":"Feature"},
	{"geometry":{"coordinates":[8.896908,47.558477],"type":"Point"},"properties":{"osm_id":"1363824383","tag":{"amenity":"waste_basket"}},"type":"Feature"},
	{"geometry":{"coordinates":[8.896945,47.55867],"type":"Point"},"properties":{"osm_id":"1363824391","tag":{"amenity":"waste_basket"}},"type":"Feature"},
	{"geometry":{"coordinates":[8.896985,47.558694],"type":"Point"},"properties":{"osm_id":"1363824393","tag":{"amenity":"waste_basket"}},"type":"Feature"},
	{"geometry":{"coordinates":[8.897381,47.558784],"type":"Point"},"properties":{"osm_id":"1363824403","tag":{"amenity":"waste_basket"}},"type":"Feature"},
	{"geometry":{"coordinates":[8.897268,47.558891],"type":"Point"},"properties":{"osm_id":"1363824406","tag":{"amenity":"waste_basket"}},"type":"Feature"},
	{"geometry":{"coordinates":[8.897315,47.558917],"type":"Point"},"properties":{"osm_id":"1363824413","tag":{"amenity":"waste_basket"}},"type":"Feature"},
	{"geometry":{"coordinates":[8.897255,47.558527],"type":"Point"},"properties":{"osm_id":"1423373874","tag":{"amenity":"waste_basket"}},"type":"Feature"},
	{"geometry":{"coordinates":[8.898508,47.559389],"type":"Point"},"properties":{"osm_id":"1423373881","tag":{"amenity":"waste_basket"}},"type":"Feature"},
	{"geometry":{"coordinates":[8.899427,47.560022],"type":"Point"},"properties":{"osm_id":"1423373896","tag":{"amenity":"waste_basket"}},"type":"Feature"},
	{"geometry":{"coordinates":[8.915956,47.564962],"type":"Point"},"properties":{"osm_id":"1423373937","tag":{"amenity":"waste_basket"}},"type":"Feature"},
	{"geometry":{"coordinates":[8.917729,47.565841],"type":"Point"},"properties":{"osm_id":"1423373941","tag":{"amenity":"waste_basket"}},"type":"Feature"},
	{"geometry":{"coordinates":[8.898702,47.560562],"type":"Point"},"properties":{"osm_id":"1424453215","tag":{"amenity":"waste_basket"}},"type":"Feature"},
	{"geometry":{"coordinates":[8.899054,47.564114],"type":"Point"},"properties":{"osm_id":"1424453279","tag":{"amenity":"waste_basket","payment:none":"yes","vending":"excrement_bags","waste_basket:excrement_bags":"yes"}},"type":"Feature"},
	{"geometry":{"coordinates":[8.90228,47.564425],"type":"Point"},"properties":{"osm_id":"1424453285","tag":{"amenity":"waste_basket"}},"type":"Feature"},
	{"geometry":{"coordinates":[8.914653,47.571531],"type":"Point"},"properties":{"osm_id":"1424453426","tag":{"amenity":"waste_basket"}},"type":"Feature"},
	{"geometry":{"coordinates":[8.920591,47.573804],"type":"Point"},"properties":{"osm_id":"1424453503","tag":{"amenity":"waste_basket","bin":"yes","fee":"no","payment:none":"yes","vending":"excrement_bags","waste_basket:excrement_bags":"yes"}},"type":"Feature"},
	{"geometry":{"coordinates":[8.894478,47.556537],"type":"Point"},"properties":{"osm_id":"1550801747","tag":{"amenity":"waste_basket"}},"type":"Feature"},
	{"geometry":{"coordinates":[8.894904,47.556769],"type":"Point"},"properties":{"osm_id":"1550801748","tag":{"amenity":"waste_basket"}},"type":"Feature"},
	{"geometry":{"coordinates":[8.894857,47.557084],"type":"Point"},"properties":{"osm_id":"1550801776","tag":{"amenity":"waste_basket"}},"type":"Feature"},
	{"geometry":{"coordinates":[8.895782,47.557684],"type":"Point"},"properties":{"osm_id":"1718034525","tag":{"amenity":"waste_basket"}},"type":"Feature"},
	{"geometry":{"coordinates":[8.896168,47.5579],"type":"Point"},"properties":{"osm_id":"1718034596","tag":{"amenity":"waste_basket"}},"type":"Feature"},
	{"geometry":{"coordinates":[8.895481,47.556549],"type":"Point"},"properties":{"osm_id":"1843121884","tag":{"amenity":"waste_basket"}},"type":"Feature"},
	{"geometry":{"coordinates":[8.889788,47.561023],"type":"Point"},"properties":{"osm_id":"1843121931","tag":{"amenity":"waste_basket"}},"type":"Feature"},
	{"geometry":{"coordinates":[8.888411,47.561099],"type":"Point"},"properties":{"osm_id":"1843121933","tag":{"amenity":"waste_basket"}},"type":"Feature"},
	{"geometry":{"coordinates":[8.882124,47.562414],"type":"Point"},"properties":{"osm_id":"1843121987","tag":{"amenity":"waste_basket"}},"type":"Feature"},
	{"geometry":{"coordinates":[8.913365,47.563986],"type":"Point"},"properties":{"osm_id":"1843122015","tag":{"amenity":"waste_basket"}},"type":"Feature"},
	{"geometry":{"coordinates":[8.893345,47.560558],"type":"Point"},"properties":{"osm_id":"1975546252","tag":{"amenity":"waste_basket"}},"type":"Feature"},
	{"geometry":{"coordinates":[8.891214,47.560933],"type":"Point"},"properties":{"osm_id":"1975546287","tag":{"amenity":"waste_basket"}},"type":"Feature"},
	{"geometry":{"coordinates":[8.896556,47.560938],"type":"Point"},"properties":{"osm_id":"1975546290","tag":{"amenity":"waste_basket"}},"type":"Feature"},
	{"geometry":{"coordinates":[8.881422,47.556795],"type":"Point"},"properties":{"osm_id":"1975643601","tag":{"amenity":"waste_basket"}},"type":"Feature"},
	{"geometry":{"coordinates":[8.879591,47.559508],"type":"Point"},"properties":{"osm_id":"1975643720","tag":{"amenity":"waste_basket"}},"type":"Feature"},
	{"geometry":{"coordinates":[8.882327,47.559594],"type":"Point"},"properties":{"osm_id":"1975643726","tag":{"amenity":"waste_basket"}},"type":"Feature"},
	{"geometry":{"coordinates":[8.879142,47.562471],"type":"Point"},"properties":{"osm_id":"1975643793","tag":{"amenity":"waste_basket"}},"type":"Feature"},
	{"geometry":{"coordinates":[8.879139,47.562376],"type":"Point"},"properties":{"osm_id":"1975643795","tag":{"amenity":"recycling","opening_hours":"Mo-Sa 08:00-20:00","recycling:cans":"yes","recycling:clothes":"yes","recycling:glass":"yes","recycling:glass_bottles":"yes","recycling_type":"container","wheelchair":"limited"}},"type":"Feature"},
	{"geometry":{"coordinates":[8.896488,47.559304],"type":"Point"},"properties":{"name":"Chef de Service","osm_id":"2056573069","tag":{"amenity":"waste_basket"}},"type":"Feature"},
	{"geometry":{"coordinates":[8.896165,47.559095],"type":"Point"},"properties":{"name":"Hier liegen die Fetzen","osm_id":"2056573076","tag":{"amenity":"waste_basket"}},"type":"Feature"},
	{"geometry":{"coordinates":[8.895952,47.558749],"type":"Point"},"properties":{"osm_id":"2056573142","tag":{"amenity":"waste_basket"}},"type":"Feature"},
	{"geometry":{"coordinates":[8.896893,47.55954],"type":"Point"},"properties":{"name":"Schlicht und ergreifend","osm_id":"2056573265","tag":{"amenity":"waste_basket"}},"type":"Feature"},
	{"geometry":{"coordinates":[8.895711,47.558787],"type":"Point"},"properties":{"name":"Wo man trifft","osm_id":"2056573268","tag":{"amenity":"waste_basket"}},"type":"Feature"},
	{"geometry":{"coordinates":[8.892256,47.555596],"type":"Point"},"properties":{"osm_id":"2056631754","tag":{"amenity":"waste_basket","waste":"trash"}},"type":"Feature"},
	{"geometry":{"coordinates":[8.891712,47.556502],"type":"Point"},"properties":{"osm_id":"2056631833","tag":{"amenity":"recycling","opening_hours":"24/7","recycling:PET":"yes","recycling:aluminium":"yes","recycling:waste":"yes","recycling_type":"container","wheelchair":"limited"}},"type":"Feature"},
	{"geometry":{"coordinates":[8.891761,47.556792],"type":"Point"},"properties":{"osm_id":"2056631837","tag":{"amenity":"recycling","opening_hours":"24/7","recycling:PET":"yes","recycling:aluminium":"yes","recycling:waste":"yes","recycling_type":"container","wheelchair":"limited"}},"type":"Feature"},
	{"geometry":{"coordinates":[8.891985,47.557145],"type":"Point"},"properties":{"osm_id":"2056631847","tag":{"amenity":"waste_basket"}},"type":"Feature"},
	{"geometry":{"coordinates":[8.893056,47.557778],"type":"Point"},"properties":{"osm_id":"2056631854","tag":{"amenity":"waste_basket"}},"type":"Feature"},
	{"geometry":{"coordinates":[8.894029,47.55553],"type":"Point"},"properties":{"osm_id":"2056761816","tag":{"amenity":"waste_basket"}},"type":"Feature"},
	{"geometry":{"coordinates":[8.89376,47.555573],"type":"Point"},"properties":{"name":"Vereinigte Taten","osm_id":"2056761817","tag":{"amenity":"waste_basket"}},"type":"Feature"},
	{"geometry":{"coordinates":[8.894878,47.555087],"type":"Point"},"properties":{"osm_id":"2056761821","tag":{"amenity":"waste_basket"}},"type":"Feature"},
	{"geometry":{"coordinates":[8.894291,47.55405],"type":"Point"},"properties":{"osm_id":"2056761826","tag":{"amenity":"waste_basket"}},"type":"Feature"},
	{"geometry":{"coordinates":[8.895336,47.556452],"type":"Point"},"properties":{"osm_id":"2056761914","tag":{"amenity":"waste_basket"}},"type":"Feature"},
	{"geometry":{"coordinates":[8.894648,47.557082],"type":"Point"},"properties":{"name":"Hier liegen die Fetzen","osm_id":"2056761925","tag":{"amenity":"waste_basket","layer":"-1","waste":"trash"}},"type":"Feature"},
	{"geometry":{"coordinates":[8.908981,47.548181],"type":"Point"},"properties":{"osm_id":"2084625023","tag":{"amenity":"waste_basket"}},"type":"Feature"},
	{"geometry":{"coordinates":[8.909242,47.551113],"type":"Point"},"properties":{"osm_id":"2084625177","tag":{"amenity":"waste_basket"}},"type":"Feature"},
	{"geometry":{"coordinates":[8.900154,47.554966],"type":"Point"},"properties":{"osm_id":"2084845203","tag":{"amenity":"waste_basket"}},"type":"Feature"},
	{"geometry":{"coordinates":[8.911939,47.566926],"type":"Point"},"properties":{"osm_id":"2405887940","tag":{"amenity":"waste_basket"}},"type":"Feature"},
	{"geometry":{"coordinates":[8.896776,47.55561],"type":"Point"},"properties":{"osm_id":"2412405401","tag":{"amenity":"waste_basket","waste":"trash"}},"type":"Feature"},
	{"geometry":{"coordinates":[8.88402,47.556723],"type":"Point"},"properties":{"osm_id":"2510644548","tag":{"amenity":"waste_basket"}},"type":"Feature"},
	{"geometry":{"coordinates":[8.898123,47.555072],"type":"Point"},"properties":{"name":"Schlicht und ergreifend","osm_id":"2968035475","tag":{"amenity":"waste_basket"}},"type":"Feature"},
	{"geometry":{"coordinates":[8.957274,47.549275],"type":"Point"},"properties":{"osm_id":"3036972619","tag":{"amenity":"waste_basket"}},"type":"Feature"},
	{"geometry":{"coordinates":[8.934024,47.519722],"type":"Point"},"properties":{"osm_id":"3100833518","tag":{"amenity":"waste_basket"}},"type":"Feature"},
	{"geometry":{"coordinates":[8.879176,47.53179],"type":"Point"},"properties":{"osm_id":"3137098807","tag":{"amenity":"waste_basket"}},"type":"Feature"},
	{"geometry":{"coordinates":[8.87805,47.537197],"type":"Point"},"properties":{"osm_id":"3137099031","tag":{"amenity":"recycling","recycling:batteries":"yes","recycling:cans":"yes","recycling:clothes":"yes","recycling:glass":"yes"}},"type":"Feature"},
	{"geometry":{"coordinates":[8.880729,47.54387],"type":"Point"},"properties":{"osm_id":"3137099044","tag":{"amenity":"waste_basket"}},"type":"Feature"},
	{"geometry":{"coordinates":[8.895747,47.548317],"type":"Point"},"properties":{"osm_id":"3137099045","tag":{"amenity":"waste_basket"}},"type":"Feature"},
	{"geometry":{"coordinates":[8.895513,47.549979],"type":"Point"},"properties":{"osm_id":"3137099047","tag":{"amenity":"waste_basket"}},"type":"Feature"},
	{"geometry":{"coordinates":[8.894918,47.550893],"type":"Point"},"properties":{"osm_id":"3137099048","tag":{"amenity":"waste_basket"}},"type":"Feature"},
	{"geometry":{"coordinates":[8.949367,47.57106],"type":"Point"},"properties":{"osm_id":"3137522558","tag":{"amenity":"recycling","recycling:green_waste":"yes","recycling_type":"container"}},"type":"Feature"},
	{"geometry":{"coordinates":[8.944492,47.573081],"type":"Point"},"properties":{"osm_id":"3137522600","tag":{"amenity":"recycling","recycling:green_waste":"yes","recycling_type":"container"}},"type":"Feature"},
	{"geometry":{"coordinates":[8.940867,47.57536],"type":"Point"},"properties":{"osm_id":"3137522730","tag":{"amenity":"recycling","opening_hours":"24/7","recycling:green_waste":"yes","recycling_type":"container","wheelchair":"no"}},"type":"Feature"},
	{"geometry":{"coordinates":[8.941705,47.575509],"type":"Point"},"properties":{"osm_id":"3137522734","tag":{"amenity":"waste_basket"}},"type":"Feature"},
	{"geometry":{"coordinates":[8.952455,47.569338],"type":"Point"},"properties":{"osm_id":"3137572691","tag":{"amenity":"waste_basket"}},"type":"Feature"},
	{"geometry":{"coordinates":[8.924874,47.555292],"type":"Point"},"properties":{"osm_id":"3163057300","tag":{"amenity":"waste_basket"}},"type":"Feature"},
	{"geometry":{"coordinates":[8.926138,47.557246],"type":"Point"},"properties":{"osm_id":"3163057302","tag":{"amenity":"waste_basket"}},"type":"Feature"},
	{"geometry":{"coordinates":[8.918052,47.561819],"type":"Point"},"properties":{"osm_id":"3163057314","tag":{"amenity":"waste_basket"}},"type":"Feature"},
	{"geometry":{"coordinates":[8.900109,47.55883],"type":"Point"},"properties":{"osm_id":"3181591828","tag":{"amenity":"waste_basket"}},"type":"Feature"},
	{"geometry":{"coordinates":[8.900303,47.559077],"type":"Point"},"properties":{"osm_id":"3181591839","tag":{"amenity":"waste_basket"}},"type":"Feature"},
	{"geometry":{"coordinates":[8.949386,47.571088],"type":"Point"},"properties":{"osm_id":"3192042023","tag":{"amenity":"waste_basket"}},"type":"Feature"},
	{"geometry":{"coordinates":[8.888071,47.54646],"type":"Point"},"properties":{"osm_id":"3269290021","tag":{"amenity":"waste_basket"}},"type":"Feature"},
	{"geometry":{"coordinates":[8.962889,47.54784],"type":"Point"},"properties":{"osm_id":"3281124069","tag":{"amenity":"waste_basket"}},"type":"Feature"},
	{"geometry":{"coordinates":[8.964492,47.549006],"type":"Point"},"properties":{"osm_id":"3281124081","tag":{"amenity":"waste_basket"}},"type":"Feature"},
	{"geometry":{"coordinates":[8.961973,47.550367],"type":"Point"},"properties":{"osm_id":"3281124098","tag":{"amenity":"waste_basket"}},"type":"Feature"},
	{"geometry":{"coordinates":[8.913796,47.549529],"type":"Point"},"properties":{"osm_id":"3479725339","tag":{"amenity":"waste_basket"}},"type":"Feature"},
	{"geometry":{"coordinates":[8.91296,47.550666],"type":"Point"},"properties":{"osm_id":"3479725341","tag":{"amenity":"waste_basket"}},"type":"Feature"},
	{"geometry":{"coordinates":[8.912725,47.54793],"type":"Point"},"properties":{"osm_id":"3517286144","tag":{"amenity":"waste_basket"}},"type":"Feature"},
	{"geometry":{"coordinates":[8.911915,47.548528],"type":"Point"},"properties":{"osm_id":"3517286159","tag":{"amenity":"waste_basket"}},"type":"Feature"},
	{"geometry":{"coordinates":[8.920554,47.549381],"type":"Point"},"properties":{"osm_id":"3517286167","tag":{"amenity":"waste_basket"}},"type":"Feature"},
	{"geometry":{"coordinates":[8.917589,47.55133],"type":"Point"},"properties":{"osm_id":"3517286171","tag":{"amenity":"waste_basket"}},"type":"Feature"},
	{"geometry":{"coordinates":[8.908281,47.551563],"type":"Point"},"properties":{"osm_id":"3517286173","tag":{"amenity":"waste_basket"}},"type":"Feature"},
	{"geometry":{"coordinates":[8.91761,47.551955],"type":"Point"},"properties":{"osm_id":"3517286174","tag":{"amenity":"waste_basket"}},"type":"Feature"},
	{"geometry":{"coordinates":[8.879739,47.520786],"type":"Point"},"properties":{"osm_id":"3541593485","tag":{"amenity":"waste_basket"}},"type":"Feature"},
	{"geometry":{"coordinates":[8.909605,47.566916],"type":"Point"},"properties":{"name":"M\u00c3\u00bcller Recycling","osm_id":"3662204832","tag":{"amenity":"recycling"}},"type":"Feature"},
	{"geometry":{"coordinates":[8.898926,47.554465],"type":"Point"},"properties":{"osm_id":"3800617262","tag":{"amenity":"waste_basket"}},"type":"Feature"},
	{"geometry":{"coordinates":[8.89842,47.554253],"type":"Point"},"properties":{"osm_id":"3800617474","tag":{"amenity":"waste_basket"}},"type":"Feature"},
	{"geometry":{"coordinates":[8.896892,47.554531],"type":"Point"},"properties":{"osm_id":"3800650471","tag":{"amenity":"waste_basket","hiking":"yes","information":"guidepost","tourism":"information"}},"type":"Feature"},
	{"geometry":{"coordinates":[8.896695,47.554785],"type":"Point"},"properties":{"osm_id":"3800650474","tag":{"amenity":"waste_basket","hiking":"yes","information":"guidepost","tourism":"information"}},"type":"Feature"},
	{"geometry":{"coordinates":[8.896793,47.554762],"type":"Point"},"properties":{"osm_id":"3800650475","tag":{"amenity":"waste_basket"}},"type":"Feature"},
	{"geometry":{"coordinates":[8.895962,47.554664],"type":"Point"},"properties":{"osm_id":"3800650481","tag":{"amenity":"waste_basket"}},"type":"Feature"},
	{"geometry":{"coordinates":[8.896984,47.554572],"type":"Point"},"properties":{"osm_id":"3800650574","tag":{"amenity":"waste_basket"}},"type":"Feature"},
	{"geometry":{"coordinates":[8.89715,47.55478],"type":"Point"},"properties":{"osm_id":"3800661759","tag":{"amenity":"waste_basket"}},"type":"Feature"},
	{"geometry":{"coordinates":[8.897907,47.554908],"type":"Point"},"properties":{"name":"ground control","osm_id":"3800661957","tag":{"amenity":"waste_basket"}},"type":"Feature"},
	{"geometry":{"coordinates":[8.89646,47.555339],"type":"Point"},"properties":{"osm_id":"3800732783","tag":{"amenity":"waste_basket"}},"type":"Feature"},
	{"geometry":{"coordinates":[8.897146,47.557273],"type":"Point"},"properties":{"osm_id":"4276079189","tag":{"amenity":"waste_basket"}},"type":"Feature"},
	{"geometry":{"coordinates":[8.902596,47.559727],"type":"Point"},"properties":{"osm_id":"4338236493","tag":{"amenity":"waste_basket"}},"type":"Feature"},
	{"geometry":{"coordinates":[8.897986,47.55778],"type":"Point"},"properties":{"osm_id":"4338236494","tag":{"amenity":"waste_basket"}},"type":"Feature"},
	{"geometry":{"coordinates":[8.908398,47.55934],"type":"Point"},"properties":{"osm_id":"4338247935","tag":{"amenity":"waste_disposal"}},"type":"Feature"},
	{"geometry":{"coordinates":[8.90412,47.559743],"type":"Point"},"properties":{"osm_id":"4340048992","tag":{"amenity":"waste_basket"}},"type":"Feature"},
	{"geometry":{"coordinates":[8.899314,47.554831],"type":"Point"},"properties":{"osm_id":"4340048994","tag":{"amenity":"waste_basket"}},"type":"Feature"},
	{"geometry":{"coordinates":[8.905361,47.559629],"type":"Point"},"properties":{"osm_id":"4340106789","tag":{"amenity":"waste_basket"}},"type":"Feature"},
	{"geometry":{"coordinates":[8.899165,47.554918],"type":"Point"},"properties":{"osm_id":"4340106790","tag":{"amenity":"waste_basket"}},"type":"Feature"},
	{"geometry":{"coordinates":[8.90115,47.559631],"type":"Point"},"properties":{"osm_id":"4341615390","tag":{"amenity":"waste_basket"}},"type":"Feature"},
	{"geometry":{"coordinates":[8.903526,47.560116],"type":"Point"},"properties":{"osm_id":"4341701490","tag":{"amenity":"waste_basket"}},"type":"Feature"},
	{"geometry":{"coordinates":[8.910921,47.557581],"type":"Point"},"properties":{"osm_id":"4343383889","tag":{"amenity":"waste_basket"}},"type":"Feature"},
	{"geometry":{"coordinates":[8.91301,47.556055],"type":"Point"},"properties":{"osm_id":"4343383989","tag":{"amenity":"waste_basket"}},"type":"Feature"},
	{"geometry":{"coordinates":[8.905706,47.559724],"type":"Point"},"properties":{"osm_id":"4348721295","tag":{"amenity":"waste_basket"}},"type":"Feature"},
	{"geometry":{"coordinates":[8.89923,47.556405],"type":"Point"},"properties":{"osm_id":"4348994193","tag":{"amenity":"waste_basket"}},"type":"Feature"},
	{"geometry":{"coordinates":[8.898708,47.555594],"type":"Point"},"properties":{"highway":"street_lamp","osm_id":"4349036491","tag":{"amenity":"waste_basket","waste":"trash"}},"type":"Feature"},
	{"geometry":{"coordinates":[8.901343,47.54915],"type":"Point"},"properties":{"osm_id":"4584332328","tag":{"amenity":"waste_basket"}},"type":"Feature"},
	{"geometry":{"coordinates":[8.901198,47.549112],"type":"Point"},"properties":{"osm_id":"4584332351","tag":{"amenity":"waste_basket"}},"type":"Feature"},
	{"geometry":{"coordinates":[8.906343,47.544643],"type":"Point"},"properties":{"osm_id":"4584332353","tag":{"amenity":"waste_basket"}},"type":"Feature"},
	{"geometry":{"coordinates":[8.934167,47.52037],"type":"Point"},"properties":{"osm_id":"4584332376","tag":{"amenity":"waste_basket"}},"type":"Feature"},
	{"geometry":{"coordinates":[8.952836,47.52507],"type":"Point"},"properties":{"osm_id":"4659490894","tag":{"amenity":"recycling"}},"type":"Feature"},
	{"geometry":{"coordinates":[8.888279,47.55581],"type":"Point"},"properties":{"osm_id":"4729302380","tag":{"amenity":"waste_basket"}},"type":"Feature"},
	{"geometry":{"coordinates":[8.888438,47.555956],"type":"Point"},"properties":{"osm_id":"4729302383","tag":{"amenity":"waste_basket"}},"type":"Feature"},
	{"geometry":{"coordinates":[8.889475,47.55534],"type":"Point"},"properties":{"osm_id":"4729655830","tag":{"amenity":"waste_basket","waste_basket:excrement_bags":"yes"}},"type":"Feature"},
	{"geometry":{"coordinates":[8.896809,47.519249],"type":"Point"},"properties":{"osm_id":"4826906772","tag":{"amenity":"recycling","operator":"K\u00c3\u00a4gi AG","recycling:rubble":"yes","recycling_type":"centre","website":"https://www.kaegiag.ch/"}},"type":"Feature"},
	{"geometry":{"coordinates":[8.89519,47.55939],"type":"Point"},"properties":{"osm_id":"4828722430","tag":{"amenity":"recycling","opening_hours":"Mo-Sa 08:00-20:00; PH closed","recycling:cans":"yes","recycling:cardboard":"yes","recycling:clothes":"yes","recycling:glass_bottles":"yes","recycling_type":"container","wheelchair":"limited"}},"type":"Feature"},
	{"geometry":{"coordinates":[8.888819,47.556529],"type":"Point"},"properties":{"osm_id":"4828722434","tag":{"amenity":"waste_disposal","location":"underground","waste":"trash"}},"type":"Feature"},
	{"geometry":{"coordinates":[8.888971,47.556522],"type":"Point"},"properties":{"osm_id":"5351172653","tag":{"access":"private","amenity":"recycling","opening_hours":"24/7","recycling:green_waste":"yes","recycling_type":"container","wheelchair":"yes"}},"type":"Feature"},
	{"geometry":{"coordinates":[8.890198,47.55535],"type":"Point"},"properties":{"osm_id":"5351172654","tag":{"amenity":"recycling","opening_hours":"24/7","recycling:green_waste":"yes","recycling_type":"container","wheelchair":"yes"}},"type":"Feature"},
	{"geometry":{"coordinates":[8.905944,47.567033],"type":"Point"},"properties":{"osm_id":"5486469422","tag":{"amenity":"recycling","recycling:clothes":"yes","recycling:glass_bottles":"yes","recycling:scrap_metal":"yes","recycling:shoes":"yes","recycling_type":"container","wheelchair":"limited"}},"type":"Feature"},
	{"geometry":{"coordinates":[8.906924,47.567421],"type":"Point"},"properties":{"osm_id":"5486469424","tag":{"amenity":"waste_basket","waste":"trash"}},"type":"Feature"},
	{"geometry":{"coordinates":[8.89848,47.555352],"type":"Point"},"properties":{"osm_id":"5501747923","tag":{"amenity":"waste_basket"}},"type":"Feature"},
	{"geometry":{"coordinates":[8.901141,47.555266],"type":"Point"},"properties":{"osm_id":"5501747925","tag":{"amenity":"waste_basket"}},"type":"Feature"},
	{"geometry":{"coordinates":[8.891874,47.555841],"type":"Point"},"properties":{"osm_id":"5516530644","tag":{"amenity":"waste_basket","waste":"trash"}},"type":"Feature"},
	{"geometry":{"coordinates":[8.886583,47.561565],"type":"Point"},"properties":{"osm_id":"5544791571","tag":{"amenity":"waste_basket"}},"type":"Feature"},
	{"geometry":{"coordinates":[8.918813,47.573419],"type":"Point"},"properties":{"osm_id":"5679729141","tag":{"amenity":"waste_basket","waste":"trash"}},"type":"Feature"},
	{"geometry":{"coordinates":[8.920452,47.574265],"type":"Point"},"properties":{"name":"Umsichtig und \u00c3\u009cberlegt","osm_id":"5679764609","tag":{"amenity":"waste_basket","waste":"trash"}},"type":"Feature"},
	{"geometry":{"coordinates":[8.884491,47.552501],"type":"Point"},"properties":{"osm_id":"5835155886","tag":{"amenity":"recycling","opening_hours":"24/7","recycling:clothes":"yes","recycling:shoes":"yes","recycling_type":"container","wheelchair":"limited"}},"type":"Feature"},
	{"geometry":{"coordinates":[8.899131,47.556252],"type":"Point"},"properties":{"osm_id":"5855916283","tag":{"amenity":"waste_basket","waste":"trash"}},"type":"Feature"},
	{"geometry":{"coordinates":[8.898774,47.557447],"type":"Point"},"properties":{"osm_id":"5961005178","tag":{"amenity":"waste_basket","waste":"trash"}},"type":"Feature"},
	{"geometry":{"coordinates":[8.89628,47.555881],"type":"Point"},"properties":{"osm_id":"5972847714","tag":{"amenity":"waste_basket"}},"type":"Feature"},
	{"geometry":{"coordinates":[8.893193,47.555795],"type":"Point"},"properties":{"osm_id":"5972912017","tag":{"amenity":"waste_basket","waste":"trash"}},"type":"Feature"},
	{"geometry":{"coordinates":[8.895087,47.559271],"type":"Point"},"properties":{"osm_id":"6312632237","tag":{"amenity":"waste_disposal"}},"type":"Feature"},
	{"geometry":{"coordinates":[8.88119,47.561599],"type":"Point"},"properties":{"osm_id":"6418751646","tag":{"amenity":"recycling","location":"underground","recycling":"waste","recycling:waste":"yes","recycling_type":"container"}},"type":"Feature"},
	{"geometry":{"coordinates":[8.881431,47.560646],"type":"Point"},"properties":{"osm_id":"6418796045","tag":{"amenity":"recycling","location":"underground","recycling":"waste","recycling:waste":"yes","recycling_type":"container"}},"type":"Feature"},
	{"geometry":{"coordinates":[8.879258,47.560452],"type":"Point"},"properties":{"osm_id":"6418796046","tag":{"amenity":"recycling","location":"underground","recycling":"waste","recycling:waste":"yes","recycling_type":"container"}},"type":"Feature"},
	{"geometry":{"coordinates":[8.891378,47.565528],"type":"Point"},"properties":{"osm_id":"6418796047","tag":{"amenity":"recycling","location":"underground","recycling":"waste","recycling:waste":"yes","recycling_type":"container"}},"type":"Feature"},
	{"geometry":{"coordinates":[8.891471,47.56328],"type":"Point"},"properties":{"osm_id":"6418796048","tag":{"amenity":"recycling","location":"underground","recycling":"waste","recycling:waste":"yes","recycling_type":"container"}},"type":"Feature"},
	{"geometry":{"coordinates":[8.888655,47.560292],"type":"Point"},"properties":{"osm_id":"6418796049","tag":{"amenity":"recycling","location":"underground","opening_hours":"24/7","recycling":"waste","recycling:waste":"yes","recycling_type":"container","wheelchair":"yes"}},"type":"Feature"},
	{"geometry":{"coordinates":[8.884265,47.555695],"type":"Point"},"properties":{"osm_id":"6418796052","tag":{"amenity":"recycling","location":"underground","recycling":"waste","recycling:waste":"yes","recycling_type":"container"}},"type":"Feature"},
	{"geometry":{"coordinates":[8.88121,47.551603],"type":"Point"},"properties":{"osm_id":"6418802334","tag":{"amenity":"recycling","location":"underground","recycling":"waste","recycling:waste":"yes","recycling_type":"container"}},"type":"Feature"},
	{"geometry":{"coordinates":[8.88183,47.552634],"type":"Point"},"properties":{"osm_id":"6418802335","tag":{"amenity":"recycling","location":"underground","recycling":"waste","recycling:waste":"yes","recycling_type":"container"}},"type":"Feature"},
	{"geometry":{"coordinates":[8.8826,47.552467],"type":"Point"},"properties":{"osm_id":"6418802336","tag":{"amenity":"recycling","location":"underground","recycling":"waste","recycling:waste":"yes","recycling_type":"container"}},"type":"Feature"},
	{"geometry":{"coordinates":[8.882735,47.551391],"type":"Point"},"properties":{"osm_id":"6418802337","tag":{"amenity":"recycling","location":"underground","recycling":"waste","recycling:waste":"yes","recycling_type":"container"}},"type":"Feature"},
	{"geometry":{"coordinates":[8.885525,47.552203],"type":"Point"},"properties":{"osm_id":"6418802338","tag":{"amenity":"recycling","location":"underground","recycling":"waste","recycling:waste":"yes","recycling_type":"container"}},"type":"Feature"},
	{"geometry":{"coordinates":[8.887258,47.552346],"type":"Point"},"properties":{"osm_id":"6418802339","tag":{"amenity":"recycling","location":"underground","recycling":"waste","recycling:waste":"yes","recycling_type":"container"}},"type":"Feature"},
	{"geometry":{"coordinates":[8.886276,47.551357],"type":"Point"},"properties":{"osm_id":"6418802340","tag":{"amenity":"recycling","location":"underground","recycling":"waste","recycling:waste":"yes","recycling_type":"container"}},"type":"Feature"},
	{"geometry":{"coordinates":[8.889131,47.551191],"type":"Point"},"properties":{"osm_id":"6418802341","tag":{"amenity":"recycling","location":"underground","recycling":"waste","recycling:waste":"yes","recycling_type":"container"}},"type":"Feature"},
	{"geometry":{"coordinates":[8.890816,47.550967],"type":"Point"},"properties":{"osm_id":"6418802342","tag":{"amenity":"recycling","location":"underground","recycling":"waste","recycling:waste":"yes","recycling_type":"container"}},"type":"Feature"},
	{"geometry":{"coordinates":[8.888426,47.549793],"type":"Point"},"properties":{"osm_id":"6418802343","tag":{"amenity":"recycling","location":"underground","recycling":"waste","recycling:waste":"yes","recycling_type":"container"}},"type":"Feature"},
	{"geometry":{"coordinates":[8.894389,47.557965],"type":"Point"},"properties":{"osm_id":"6418802344","tag":{"amenity":"recycling","location":"underground","opening_hours":"24/7","recycling":"waste","recycling:waste":"yes","recycling_type":"container","wheelchair":"limited"}},"type":"Feature"},
	{"geometry":{"coordinates":[8.8954,47.555666],"type":"Point"},"properties":{"osm_id":"6418802345","tag":{"amenity":"recycling","location":"underground","opening_hours":"24/7","recycling":"waste","recycling:waste":"yes","recycling_type":"container","wheelchair":"yes"}},"type":"Feature"},
	{"geometry":{"coordinates":[8.913458,47.565412],"type":"Point"},"properties":{"osm_id":"6418818304","tag":{"amenity":"recycling","location":"underground","recycling":"waste","recycling:waste":"yes","recycling_type":"container"}},"type":"Feature"},
	{"geometry":{"coordinates":[8.908679,47.565072],"type":"Point"},"properties":{"osm_id":"6418818305","tag":{"amenity":"recycling","location":"underground","opening_hours":"24/7","recycling":"waste","recycling:waste":"yes","recycling_type":"container","wheelchair":"yes"}},"type":"Feature"},
	{"geometry":{"coordinates":[8.911122,47.563147],"type":"Point"},"properties":{"osm_id":"6418818306","tag":{"amenity":"recycling","location":"underground","recycling":"waste","recycling:waste":"yes","recycling_type":"container"}},"type":"Feature"},
	{"geometry":{"coordinates":[8.911018,47.561443],"type":"Point"},"properties":{"osm_id":"6418818307","tag":{"amenity":"recycling","location":"underground","recycling":"waste","recycling:waste":"yes","recycling_type":"container"}},"type":"Feature"},
	{"geometry":{"coordinates":[8.907312,47.561626],"type":"Point"},"properties":{"osm_id":"6418818308","tag":{"amenity":"recycling","location":"underground","recycling":"waste","recycling:waste":"yes","recycling_type":"container"}},"type":"Feature"},
	{"geometry":{"coordinates":[8.905757,47.56264],"type":"Point"},"properties":{"osm_id":"6418818309","tag":{"amenity":"recycling","location":"underground","recycling":"waste","recycling:waste":"yes","recycling_type":"container"}},"type":"Feature"},
	{"geometry":{"coordinates":[8.905775,47.561229],"type":"Point"},"properties":{"osm_id":"6418818310","tag":{"amenity":"recycling","location":"underground","recycling":"waste","recycling:waste":"yes","recycling_type":"container"}},"type":"Feature"},
	{"geometry":{"coordinates":[8.900098,47.563307],"type":"Point"},"properties":{"osm_id":"6418818311","tag":{"amenity":"recycling","location":"underground","recycling":"waste","recycling:waste":"yes","recycling_type":"container"}},"type":"Feature"},
	{"geometry":{"coordinates":[8.901047,47.560569],"type":"Point"},"properties":{"osm_id":"6418818312","tag":{"amenity":"recycling","location":"underground","opening_hours":"24/7","recycling":"waste","recycling:waste":"yes","recycling_type":"container","wheelchair":"yes"}},"type":"Feature"},
	{"geometry":{"coordinates":[8.898157,47.557717],"type":"Point"},"properties":{"osm_id":"6418818313","tag":{"amenity":"recycling","location":"underground","opening_hours":"24/7","recycling":"waste","recycling:waste":"yes","recycling_type":"container","wheelchair":"yes"}},"type":"Feature"},
	{"geometry":{"coordinates":[8.899977,47.554321],"type":"Point"},"properties":{"osm_id":"6418818314","tag":{"amenity":"recycling","location":"underground","recycling":"waste","recycling:waste":"yes","recycling_type":"container"}},"type":"Feature"},
	{"geometry":{"coordinates":[8.899987,47.554341],"type":"Point"},"properties":{"osm_id":"6418818315","tag":{"amenity":"recycling","location":"underground","recycling":"waste","recycling:waste":"yes","recycling_type":"container"}},"type":"Feature"},
	{"geometry":{"coordinates":[8.901622,47.557723],"type":"Point"},"properties":{"osm_id":"6418818316","tag":{"amenity":"recycling","location":"underground","recycling":"waste","recycling:waste":"yes","recycling_type":"container"}},"type":"Feature"},
	{"geometry":{"coordinates":[8.901855,47.558813],"type":"Point"},"properties":{"osm_id":"6418818317","tag":{"amenity":"recycling","location":"underground","recycling":"waste","recycling:waste":"yes","recycling_type":"container"}},"type":"Feature"},
	{"geometry":{"coordinates":[8.902612,47.559758],"type":"Point"},"properties":{"osm_id":"6418818318","tag":{"amenity":"recycling","location":"underground","recycling":"waste","recycling:waste":"yes","recycling_type":"container"}},"type":"Feature"},
	{"geometry":{"coordinates":[8.904827,47.558771],"type":"Point"},"properties":{"osm_id":"6418818319","tag":{"amenity":"recycling","location":"underground","recycling":"waste","recycling:waste":"yes","recycling_type":"container"}},"type":"Feature"},
	{"geometry":{"coordinates":[8.908473,47.559573],"type":"Point"},"properties":{"osm_id":"6418818320","tag":{"amenity":"recycling","location":"underground","recycling":"waste","recycling:waste":"yes","recycling_type":"container"}},"type":"Feature"},
	{"geometry":{"coordinates":[8.911763,47.559562],"type":"Point"},"properties":{"osm_id":"6418818321","tag":{"amenity":"recycling","location":"underground","recycling":"waste","recycling:waste":"yes","recycling_type":"container"}},"type":"Feature"},
	{"geometry":{"coordinates":[8.915989,47.558579],"type":"Point"},"properties":{"osm_id":"6418818322","tag":{"amenity":"recycling","location":"underground","recycling":"waste","recycling:waste":"yes","recycling_type":"container"}},"type":"Feature"},
	{"geometry":{"coordinates":[8.914389,47.557457],"type":"Point"},"properties":{"osm_id":"6418818323","tag":{"amenity":"recycling","location":"underground","recycling":"waste","recycling:waste":"yes","recycling_type":"container"}},"type":"Feature"},
	{"geometry":{"coordinates":[8.910966,47.555658],"type":"Point"},"properties":{"osm_id":"6418818324","tag":{"amenity":"recycling","location":"underground","recycling":"waste","recycling:waste":"yes","recycling_type":"container"}},"type":"Feature"},
	{"geometry":{"coordinates":[8.90852,47.555178],"type":"Point"},"properties":{"osm_id":"6418818325","tag":{"amenity":"recycling","location":"underground","recycling":"waste","recycling:waste":"yes","recycling_type":"container"}},"type":"Feature"},
	{"geometry":{"coordinates":[8.910856,47.551265],"type":"Point"},"properties":{"osm_id":"6418820766","tag":{"amenity":"recycling","location":"underground","recycling":"waste","recycling:waste":"yes","recycling_type":"container"}},"type":"Feature"},
	{"geometry":{"coordinates":[8.910554,47.55072],"type":"Point"},"properties":{"osm_id":"6418820767","tag":{"amenity":"recycling","location":"underground","recycling":"waste","recycling:waste":"yes","recycling_type":"container"}},"type":"Feature"},
	{"geometry":{"coordinates":[8.898993,47.550817],"type":"Point"},"properties":{"osm_id":"6418820768","tag":{"amenity":"recycling","location":"underground","recycling":"waste","recycling:waste":"yes","recycling_type":"container"}},"type":"Feature"},
	{"geometry":{"coordinates":[8.898,47.548409],"type":"Point"},"properties":{"osm_id":"6418820769","tag":{"amenity":"recycling","location":"underground","recycling":"waste","recycling:waste":"yes","recycling_type":"container"}},"type":"Feature"},
	{"geometry":{"coordinates":[8.90865,47.547454],"type":"Point"},"properties":{"osm_id":"6418820770","tag":{"amenity":"recycling","location":"underground","recycling":"waste","recycling:waste":"yes","recycling_type":"container"}},"type":"Feature"},
	{"geometry":{"coordinates":[8.908669,47.547439],"type":"Point"},"properties":{"osm_id":"6418820771","tag":{"amenity":"recycling","location":"underground","recycling":"waste","recycling:waste":"yes","recycling_type":"container"}},"type":"Feature"},
	{"geometry":{"coordinates":[8.908329,47.546781],"type":"Point"},"properties":{"osm_id":"6418820772","tag":{"amenity":"recycling","location":"underground","recycling":"waste","recycling:waste":"yes","recycling_type":"container"}},"type":"Feature"},
	{"geometry":{"coordinates":[8.908318,47.546758],"type":"Point"},"properties":{"osm_id":"6418820773","tag":{"amenity":"recycling","location":"underground","recycling":"waste","recycling:waste":"yes","recycling_type":"container"}},"type":"Feature"},
	{"geometry":{"coordinates":[8.906804,47.545108],"type":"Point"},"properties":{"osm_id":"6418820774","tag":{"amenity":"recycling","location":"underground","recycling":"waste","recycling:waste":"yes","recycling_type":"container"}},"type":"Feature"},
	{"geometry":{"coordinates":[8.911064,47.545157],"type":"Point"},"properties":{"osm_id":"6418820775","tag":{"amenity":"recycling","location":"underground","recycling":"waste","recycling:waste":"yes","recycling_type":"container"}},"type":"Feature"},
	{"geometry":{"coordinates":[8.922138,47.549418],"type":"Point"},"properties":{"osm_id":"6418820776","tag":{"amenity":"recycling","location":"underground","recycling":"waste","recycling:waste":"yes","recycling_type":"container"}},"type":"Feature"},
	{"geometry":{"coordinates":[8.920789,47.543043],"type":"Point"},"properties":{"osm_id":"6418820777","tag":{"amenity":"recycling","location":"underground","recycling":"waste","recycling:waste":"yes","recycling_type":"container"}},"type":"Feature"},
	{"geometry":{"coordinates":[8.899897,47.55706],"type":"Point"},"properties":{"osm_id":"6418820778","tag":{"amenity":"recycling","location":"underground","recycling":"waste","recycling:waste":"yes","recycling_type":"container"}},"type":"Feature"},
	{"geometry":{"coordinates":[8.910932,47.553996],"type":"Point"},"properties":{"osm_id":"6420186741","tag":{"amenity":"waste_basket"}},"type":"Feature"},
	{"geometry":{"coordinates":[8.911094,47.555597],"type":"Point"},"properties":{"osm_id":"6432637846","tag":{"amenity":"waste_basket"}},"type":"Feature"},
	{"geometry":{"coordinates":[8.895331,47.554357],"type":"Point"},"properties":{"osm_id":"6832320877","tag":{"amenity":"waste_basket"}},"type":"Feature"},
	{"geometry":{"coordinates":[8.897196,47.55474],"type":"Point"},"properties":{"osm_id":"6832323812","tag":{"amenity":"recycling","opening_hours":"24/7","recycling:PET":"yes","recycling:aluminium":"yes","recycling:waste":"yes","recycling_type":"container","wheelchair":"yes"}},"type":"Feature"},
	{"geometry":{"coordinates":[8.898654,47.560414],"type":"Point"},"properties":{"osm_id":"6853469699","tag":{"amenity":"waste_basket","waste":"trash"}},"type":"Feature"},
	{"geometry":{"coordinates":[8.895431,47.557226],"type":"Point"},"properties":{"osm_id":"6864151807","tag":{"amenity":"waste_basket","waste":"trash"}},"type":"Feature"},
	{"geometry":{"coordinates":[8.898267,47.556371],"type":"Point"},"properties":{"osm_id":"6959681226","tag":{"amenity":"waste_basket","waste":"trash"}},"type":"Feature"},
	{"geometry":{"coordinates":[8.898268,47.557096],"type":"Point"},"properties":{"osm_id":"6959681229","tag":{"amenity":"waste_basket","waste":"trash"}},"type":"Feature"},
	{"geometry":{"coordinates":[8.898194,47.556999],"type":"Point"},"properties":{"osm_id":"6959681242","tag":{"amenity":"waste_basket","waste":"trash"}},"type":"Feature"},
	{"geometry":{"coordinates":[8.895991,47.558038],"type":"Point"},"properties":{"osm_id":"6961339824","tag":{"amenity":"waste_basket","waste":"trash"}},"type":"Feature"},
	{"geometry":{"coordinates":[8.888837,47.556662],"type":"Point"},"properties":{"highway":"street_lamp","osm_id":"6993190891","ref":"664 04","tag":{"amenity":"waste_basket","waste":"trash"}},"type":"Feature"},
	{"geometry":{"coordinates":[8.889029,47.556402],"type":"Point"},"properties":{"osm_id":"6993190894","tag":{"amenity":"waste_basket","waste":"trash"}},"type":"Feature"},
	{"geometry":{"coordinates":[8.891952,47.557149],"type":"Point"},"properties":{"osm_id":"6993190895","tag":{"amenity":"recycling","opening_hours":"24/7","recycling:PET":"yes","recycling:aluminium":"yes","recycling_type":"container","wheelchair":"yes"}},"type":"Feature"},
	{"geometry":{"coordinates":[8.898893,47.555935],"type":"Point"},"properties":{"osm_id":"7021285731","tag":{"amenity":"waste_basket","waste":"trash"}},"type":"Feature"},
	{"geometry":{"coordinates":[8.898068,47.554993],"type":"Point"},"properties":{"highway":"street_lamp","osm_id":"7056196191","tag":{"amenity":"waste_basket","waste":"trash"}},"type":"Feature"},
	{"geometry":{"coordinates":[8.89716,47.555321],"type":"Point"},"properties":{"osm_id":"7056234356","tag":{"amenity":"waste_basket","waste":"trash"}},"type":"Feature"},
	{"geometry":{"coordinates":[8.897538,47.555547],"type":"Point"},"properties":{"osm_id":"7056239962","tag":{"amenity":"waste_basket","waste":"trash"}},"type":"Feature"},
	{"geometry":{"coordinates":[8.897366,47.555578],"type":"Point"},"properties":{"name":"Mehr Hingabe","osm_id":"7056239963","tag":{"amenity":"waste_basket","waste":"trash"}},"type":"Feature"},
	{"geometry":{"coordinates":[8.895339,47.556326],"type":"Point"},"properties":{"osm_id":"7056244364","tag":{"amenity":"waste_basket","waste":"trash"}},"type":"Feature"},
	{"geometry":{"coordinates":[8.899834,47.555619],"type":"Point"},"properties":{"osm_id":"7074407314","tag":{"amenity":"waste_basket","waste":"trash"}},"type":"Feature"},
	{"geometry":{"coordinates":[8.900095,47.555621],"type":"Point"},"properties":{"highway":"street_lamp","osm_id":"7074407326","tag":{"amenity":"waste_basket","waste":"trash"}},"type":"Feature"},
	{"geometry":{"coordinates":[8.897519,47.556246],"type":"Point"},"properties":{"osm_id":"7074442087","tag":{"amenity":"waste_basket","waste":"trash"}},"type":"Feature"},
	{"geometry":{"coordinates":[8.879334,47.557002],"type":"Point"},"properties":{"osm_id":"7077866114","tag":{"amenity":"waste_basket","waste":"trash"}},"type":"Feature"},
	{"geometry":{"coordinates":[8.894797,47.557449],"type":"Point"},"properties":{"highway":"street_lamp","osm_id":"7079852006","tag":{"amenity":"waste_basket","waste":"trash"}},"type":"Feature"},
	{"geometry":{"coordinates":[8.893378,47.558381],"type":"Point"},"properties":{"osm_id":"7079852010","tag":{"amenity":"waste_basket","waste":"trash"}},"type":"Feature"},
	{"geometry":{"coordinates":[8.896301,47.557458],"type":"Point"},"properties":{"osm_id":"7082494079","tag":{"amenity":"waste_basket","waste":"trash"}},"type":"Feature"},
	{"geometry":{"coordinates":[8.891172,47.55891],"type":"Point"},"properties":{"osm_id":"7126251693","tag":{"amenity":"waste_basket","waste":"trash"}},"type":"Feature"},
	{"geometry":{"coordinates":[8.890953,47.557478],"type":"Point"},"properties":{"osm_id":"7126251696","tag":{"amenity":"recycling","opening_hours":"24/7","recycling:PET":"yes","recycling:aluminium":"yes","recycling:waste":"yes","recycling_type":"container","wheelchair":"no"}},"type":"Feature"},
	{"geometry":{"coordinates":[8.892204,47.559039],"type":"Point"},"properties":{"osm_id":"7126251697","tag":{"amenity":"waste_basket","waste":"trash"}},"type":"Feature"},
	{"geometry":{"coordinates":[8.890952,47.557515],"type":"Point"},"properties":{"osm_id":"7126251704","tag":{"amenity":"recycling","opening_hours":"24/7","recycling:PET":"yes","recycling:aluminium":"yes","recycling:waste":"yes","recycling_type":"container","wheelchair":"no"}},"type":"Feature"},
	{"geometry":{"coordinates":[8.890209,47.560728],"type":"Point"},"properties":{"osm_id":"7160733380","tag":{"amenity":"waste_basket","waste":"trash"}},"type":"Feature"},
	{"geometry":{"coordinates":[8.885267,47.559812],"type":"Point"},"properties":{"osm_id":"7160738199","tag":{"amenity":"waste_basket","waste":"trash"}},"type":"Feature"},
	{"geometry":{"coordinates":[8.88866,47.560259],"type":"Point"},"properties":{"osm_id":"7160738200","tag":{"amenity":"recycling","opening_hours":"24/7","recycling:green_waste":"yes","recycling_type":"container","wheelchair":"limited"}},"type":"Feature"},
	{"geometry":{"coordinates":[8.900235,47.55721],"type":"Point"},"properties":{"osm_id":"7176860915","tag":{"amenity":"waste_disposal","underground":"yes"}},"type":"Feature"},
	{"geometry":{"coordinates":[8.90026,47.556463],"type":"Point"},"properties":{"osm_id":"7176860948","tag":{"amenity":"waste_basket","waste":"trash"}},"type":"Feature"},
	{"geometry":{"coordinates":[8.900303,47.557185],"type":"Point"},"properties":{"osm_id":"7176860957","tag":{"amenity":"recycling","opening_hours":"24/7","recycling:green_waste":"yes","recycling_type":"container","wheelchair":"limited"}},"type":"Feature"},
	{"geometry":{"coordinates":[8.886645,47.559466],"type":"Point"},"properties":{"osm_id":"7179409262","tag":{"amenity":"waste_basket","waste":"trash"}},"type":"Feature"},
	{"geometry":{"coordinates":[8.886675,47.558809],"type":"Point"},"properties":{"osm_id":"7179423990","tag":{"amenity":"waste_disposal"}},"type":"Feature"},
	{"geometry":{"coordinates":[8.887067,47.561314],"type":"Point"},"properties":{"osm_id":"7179436466","tag":{"amenity":"recycling","opening_hours":"24/7","recycling:PET":"yes","recycling:batteries":"yes","recycling:coffee_capsules":"yes","recycling:cream_cartridge":"yes","recycling:low_energy_bulbs":"yes","recycling:plastic_bottles":"yes","recycling:water_filter":"yes","recycling_type":"container","wheelchair":"limited"}},"type":"Feature"},
	{"geometry":{"coordinates":[8.886827,47.561118],"type":"Point"},"properties":{"osm_id":"7179436479","tag":{"amenity":"waste_basket","waste":"trash"}},"type":"Feature"},
	{"geometry":{"coordinates":[8.896138,47.55736],"type":"Point"},"properties":{"osm_id":"7188194413","tag":{"amenity":"waste_basket","waste":"trash"}},"type":"Feature"},
	{"geometry":{"coordinates":[8.896953,47.556438],"type":"Point"},"properties":{"osm_id":"7194915939","tag":{"amenity":"waste_basket","waste":"trash"}},"type":"Feature"},
	{"geometry":{"coordinates":[8.898611,47.557207],"type":"Point"},"properties":{"osm_id":"7194948298","tag":{"amenity":"waste_basket","waste":"trash"}},"type":"Feature"},
	{"geometry":{"coordinates":[8.895845,47.55716],"type":"Point"},"properties":{"osm_id":"7245636959","tag":{"amenity":"recycling","opening_hours":"24/7","recycling:PET":"yes","recycling:aluminium":"yes","recycling:waste":"yes","recycling_type":"container","wheelchair":"yes"}},"type":"Feature"},
	{"geometry":{"coordinates":[8.89598,47.557255],"type":"Point"},"properties":{"osm_id":"7245636961","tag":{"amenity":"waste_basket","waste":"trash"}},"type":"Feature"},
	{"geometry":{"coordinates":[8.895692,47.557055],"type":"Point"},"properties":{"osm_id":"7245636962","tag":{"amenity":"waste_basket","waste":"trash"}},"type":"Feature"},
	{"geometry":{"coordinates":[8.897302,47.556443],"type":"Point"},"properties":{"osm_id":"7252440999","tag":{"amenity":"waste_basket","waste":"trash"}},"type":"Feature"},
	{"geometry":{"coordinates":[8.888788,47.552643],"type":"Point"},"properties":{"osm_id":"7255997438","tag":{"amenity":"waste_basket","waste":"trash"}},"type":"Feature"},
	{"geometry":{"coordinates":[8.888438,47.552747],"type":"Point"},"properties":{"osm_id":"7255997440","tag":{"amenity":"waste_basket","waste":"trash"}},"type":"Feature"},
	{"geometry":{"coordinates":[8.896681,47.555278],"type":"Point"},"properties":{"osm_id":"7294120951","tag":{"amenity":"waste_basket","waste":"trash"}},"type":"Feature"},
	{"geometry":{"coordinates":[8.891409,47.556497],"type":"Point"},"properties":{"osm_id":"7297196024","tag":{"amenity":"recycling","opening_hours":"24/7","recycling:PET":"yes","recycling:aluminium":"yes","recycling:waste":"yes","recycling_type":"container","wheelchair":"limited"}},"type":"Feature"},
	{"geometry":{"coordinates":[8.894917,47.563776],"type":"Point"},"properties":{"osm_id":"7297269724","tag":{"amenity":"waste_basket","waste":"trash"}},"type":"Feature"},
	{"geometry":{"coordinates":[8.895755,47.562894],"type":"Point"},"properties":{"osm_id":"7297269733","tag":{"amenity":"waste_basket","waste":"trash"}},"type":"Feature"},
	{"geometry":{"coordinates":[8.895322,47.563354],"type":"Point"},"properties":{"osm_id":"7297269739","tag":{"amenity":"waste_basket","waste":"trash"}},"type":"Feature"},
	{"geometry":{"coordinates":[8.896137,47.562492],"type":"Point"},"properties":{"osm_id":"7297269754","tag":{"amenity":"waste_basket","waste":"trash"}},"type":"Feature"},
	{"geometry":{"coordinates":[8.896655,47.559249],"type":"Point"},"properties":{"osm_id":"7366245949","tag":{"amenity":"waste_basket","waste":"trash"}},"type":"Feature"},
	{"geometry":{"coordinates":[8.897584,47.563641],"type":"Point"},"properties":{"osm_id":"7386300894","tag":{"amenity":"waste_basket","waste":"trash"}},"type":"Feature"},
	{"geometry":{"coordinates":[8.898108,47.562762],"type":"Point"},"properties":{"osm_id":"7386300898","tag":{"amenity":"waste_basket","waste":"trash"}},"type":"Feature"},
	{"geometry":{"coordinates":[8.911091,47.567942],"type":"Point"},"properties":{"osm_id":"7415568638","tag":{"amenity":"waste_basket","waste":"trash"}},"type":"Feature"},
	{"geometry":{"coordinates":[8.890327,47.554231],"type":"Point"},"properties":{"osm_id":"7442172180","tag":{"amenity":"waste_basket","waste":"trash"}},"type":"Feature"},
	{"geometry":{"coordinates":[8.919294,47.573618],"type":"Point"},"properties":{"osm_id":"7475956994","tag":{"amenity":"waste_basket","waste":"trash"}},"type":"Feature"},
	{"geometry":{"coordinates":[8.910042,47.567263],"type":"Point"},"properties":{"name":"RecyPET AG","osm_id":"7485030710","tag":{"amenity":"recycling","recycling:PET":"yes","website":"http://www.recypet.ch/"}},"type":"Feature"},
	{"geometry":{"coordinates":[8.896541,47.556557],"type":"Point"},"properties":{"osm_id":"7494691455","tag":{"amenity":"recycling","recycling:clothes":"yes","recycling:shoes":"yes","recycling_type":"container"}},"type":"Feature"},
	{"geometry":{"coordinates":[8.904991,47.565484],"type":"Point"},"properties":{"osm_id":"7506197091","tag":{"amenity":"waste_basket","waste":"trash"}},"type":"Feature"},
	{"geometry":{"coordinates":[8.905826,47.561823],"type":"Point"},"properties":{"osm_id":"7522130928","tag":{"amenity":"waste_basket","waste":"trash"}},"type":"Feature"},
	{"geometry":{"coordinates":[8.901978,47.559924],"type":"Point"},"properties":{"osm_id":"7540744153","tag":{"amenity":"waste_basket","waste":"trash"}},"type":"Feature"},
	{"geometry":{"coordinates":[8.900412,47.558736],"type":"Point"},"properties":{"osm_id":"7554182915","tag":{"amenity":"waste_basket","waste":"trash"}},"type":"Feature"},
	{"geometry":{"coordinates":[8.897659,47.556595],"type":"Point"},"properties":{"osm_id":"7559209186","tag":{"amenity":"waste_basket","waste":"trash"}},"type":"Feature"},
	{"geometry":{"coordinates":[8.896115,47.555827],"type":"Point"},"properties":{"osm_id":"7569013330","tag":{"amenity":"waste_basket","waste":"trash"}},"type":"Feature"},
	{"geometry":{"coordinates":[8.957216,47.527678],"type":"Point"},"properties":{"osm_id":"7575139552","tag":{"amenity":"waste_basket","waste":"dog_excrement"}},"type":"Feature"},
	{"geometry":{"coordinates":[8.887092,47.558132],"type":"Point"},"properties":{"osm_id":"7602360575","tag":{"amenity":"waste_disposal","location":"underground","waste":"trash"}},"type":"Feature"},
	{"geometry":{"coordinates":[8.881745,47.552354],"type":"Point"},"properties":{"osm_id":"7634924471","tag":{"amenity":"waste_basket"}},"type":"Feature"},
	{"geometry":{"coordinates":[8.885751,47.55246],"type":"Point"},"properties":{"osm_id":"7649083037","tag":{"amenity":"waste_basket","waste":"trash"}},"type":"Feature"},
	{"geometry":{"coordinates":[8.895542,47.557311],"type":"Point"},"properties":{"osm_id":"7653432471","tag":{"amenity":"recycling","opening_hours":"24/7","recycling:PET":"yes","recycling:aluminium":"yes","recycling:waste":"yes","recycling_type":"container","wheelchair":"limited"}},"type":"Feature"},
	{"geometry":{"coordinates":[8.896354,47.55771],"type":"Point"},"properties":{"osm_id":"7653432473","tag":{"amenity":"recycling","opening_hours":"24/7","recycling:PET":"yes","recycling:aluminium":"yes","recycling:waste":"yes","recycling_type":"container","wheelchair":"limited"}},"type":"Feature"},
	{"geometry":{"coordinates":[8.892613,47.553343],"type":"Point"},"properties":{"osm_id":"7663859627","tag":{"amenity":"waste_basket","waste":"trash"}},"type":"Feature"},
	{"geometry":{"coordinates":[8.892385,47.553441],"type":"Point"},"properties":{"osm_id":"7663859630","tag":{"amenity":"waste_basket","waste":"trash"}},"type":"Feature"},
	{"geometry":{"coordinates":[8.897164,47.55585],"type":"Point"},"properties":{"osm_id":"7673123899","tag":{"amenity":"waste_basket","waste":"trash"}},"type":"Feature"},
	{"geometry":{"coordinates":[8.908086,47.560797],"type":"Point"},"properties":{"highway":"street_lamp","osm_id":"7683696475","tag":{"amenity":"waste_basket","lamp_mount":"bent_mast","waste":"trash"}},"type":"Feature"},
	{"geometry":{"coordinates":[8.907424,47.560671],"type":"Point"},"properties":{"osm_id":"7683696476","tag":{"amenity":"waste_basket","waste":"trash"}},"type":"Feature"},
	{"geometry":{"coordinates":[8.905964,47.560403],"type":"Point"},"properties":{"osm_id":"7683696484","tag":{"amenity":"waste_basket","waste":"trash"}},"type":"Feature"},
	{"geometry":{"coordinates":[8.912635,47.559672],"type":"Point"},"properties":{"osm_id":"7687582416","tag":{"amenity":"waste_basket","waste":"trash"}},"type":"Feature"},
	{"geometry":{"coordinates":[8.915268,47.552791],"type":"Point"},"properties":{"osm_id":"7710481178","tag":{"amenity":"waste_basket","waste":"trash"}},"type":"Feature"},
	{"geometry":{"coordinates":[8.937295,47.549995],"type":"Point"},"properties":{"osm_id":"7713153358","tag":{"amenity":"waste_basket","waste":"trash"}},"type":"Feature"},
	{"geometry":{"coordinates":[8.89685,47.557989],"type":"Point"},"properties":{"osm_id":"7724246984","tag":{"amenity":"waste_basket","waste":"trash"}},"type":"Feature"},
	{"geometry":{"coordinates":[8.89668,47.557867],"type":"Point"},"properties":{"osm_id":"7724277288","tag":{"amenity":"recycling","opening_hours":"24/7","recycling:cans":"yes","recycling:plastic_bottles":"yes","recycling:waste":"yes","recycling_type":"container","wheelchair":"limited"}},"type":"Feature"},
	{"geometry":{"coordinates":[8.908262,47.563206],"type":"Point"},"properties":{"osm_id":"7743475493","tag":{"amenity":"waste_basket","waste":"trash"}},"type":"Feature"},
	{"geometry":{"coordinates":[8.890944,47.552392],"type":"Point"},"properties":{"osm_id":"7750425979","tag":{"amenity":"waste_disposal","location":"underground","waste":"trash"}},"type":"Feature"},
	{"geometry":{"coordinates":[8.898703,47.533182],"type":"Point"},"properties":{"osm_id":"7765132993","tag":{"amenity":"waste_basket","waste":"trash"}},"type":"Feature"},
	{"geometry":{"coordinates":[8.892852,47.547192],"type":"Point"},"properties":{"osm_id":"7791186912","tag":{"amenity":"waste_disposal","location":"underground","waste":"trash"}},"type":"Feature"},
	{"geometry":{"coordinates":[8.882137,47.549215],"type":"Point"},"properties":{"osm_id":"7803541978","tag":{"amenity":"waste_basket","waste":"trash"}},"type":"Feature"},
	{"geometry":{"coordinates":[8.880146,47.555746],"type":"Point"},"properties":{"osm_id":"7809582771","tag":{"amenity":"waste_basket","waste":"trash"}},"type":"Feature"},
	{"geometry":{"coordinates":[8.89705,47.558468],"type":"Point"},"properties":{"osm_id":"7814965984","tag":{"amenity":"waste_basket","waste":"trash"}},"type":"Feature"},
	{"geometry":{"coordinates":[8.888639,47.563268],"type":"Point"},"properties":{"osm_id":"7834888911","tag":{"amenity":"waste_basket","waste":"trash"}},"type":"Feature"},
	{"geometry":{"coordinates":[8.920691,47.570073],"type":"Point"},"properties":{"osm_id":"7875250618","tag":{"amenity":"waste_basket","waste":"trash"}},"type":"Feature"},
	{"geometry":{"coordinates":[8.913952,47.563018],"type":"Point"},"properties":{"osm_id":"7904631143","tag":{"amenity":"waste_basket","waste":"trash"}},"type":"Feature"},
	{"geometry":{"coordinates":[8.914831,47.560293],"type":"Point"},"properties":{"osm_id":"7908345390","tag":{"amenity":"waste_basket","waste":"trash"}},"type":"Feature"},
	{"geometry":{"coordinates":[8.911343,47.56141],"type":"Point"},"properties":{"osm_id":"7908345407","tag":{"amenity":"waste_basket","waste":"trash"}},"type":"Feature"},
	{"geometry":{"coordinates":[8.916733,47.560145],"type":"Point"},"properties":{"osm_id":"7912640034","tag":{"amenity":"waste_basket","waste":"trash"}},"type":"Feature"},
	{"geometry":{"coordinates":[8.920316,47.559556],"type":"Point"},"properties":{"osm_id":"7916517531","tag":{"amenity":"waste_disposal","location":"underground","waste":"trash"}},"type":"Feature"},
	{"geometry":{"coordinates":[8.929265,47.560257],"type":"Point"},"properties":{"osm_id":"7925174772","tag":{"amenity":"waste_disposal","location":"underground","waste":"trash"}},"type":"Feature"},
	{"geometry":{"coordinates":[8.90291,47.560365],"type":"Point"},"properties":{"osm_id":"7930882835","tag":{"amenity":"waste_basket","waste":"trash"}},"type":"Feature"}
]
}
