{
"type": "FeatureCollection",
"features": [
	{"geometry":{"coordinates":[8.932119,47.354114],"type":"Point"},"properties":{"name":"Texaid","osm_id":"21761858","tag":{"amenity":"recycling","recycling:clothes":"yes","recycling_type":"container"}},"type":"Feature"},
	{"geometry":{"coordinates":[8.878664,47.368483],"type":"Point"},"properties":{"osm_id":"867391150","tag":{"amenity":"waste_basket"}},"type":"Feature"},
	{"geometry":{"coordinates":[8.894522,47.378465],"type":"Point"},"properties":{"osm_id":"867391640","tag":{"amenity":"waste_basket"}},"type":"Feature"},
	{"geometry":{"coordinates":[8.899704,47.366437],"type":"Point"},"properties":{"name":"Robidog","osm_id":"868038430","tag":{"amenity":"waste_basket","vending":"excrement_bags","waste":"dog_excrement"}},"type":"Feature"},
	{"geometry":{"coordinates":[8.881828,47.368401],"type":"Point"},"properties":{"name":"Robidog","osm_id":"868038456","tag":{"amenity":"waste_basket","vending":"excrement_bags","waste":"dog_excrement"}},"type":"Feature"},
	{"geometry":{"coordinates":[8.881151,47.367897],"type":"Point"},"properties":{"name":"Sammelstelle Bauma-Dorf","osm_id":"868038588","tag":{"amenity":"recycling","opening_hours":"Mo-Sa 07:00-12:00,13:00-19:00","recycling:aluminium":"yes","recycling:batteries":"yes","recycling:cans":"yes","recycling:clothes":"yes","recycling:glass":"yes","recycling_type":"container"}},"type":"Feature"},
	{"geometry":{"coordinates":[8.891285,47.365846],"type":"Point"},"properties":{"name":"Robidog","osm_id":"868038846","tag":{"amenity":"waste_basket","vending":"excrement_bags","waste":"dog_excrement"}},"type":"Feature"},
	{"geometry":{"coordinates":[8.885683,47.396938],"type":"Point"},"properties":{"osm_id":"2563876249","tag":{"amenity":"waste_basket"}},"type":"Feature"},
	{"geometry":{"coordinates":[8.881638,47.36811],"type":"Point"},"properties":{"name":"Kadaversammelstelle Alter Landi","osm_id":"3234240124","tag":{"amenity":"recycling","opening_hours":"24/7","recycling:animal_waste":"yes","recycling_type":"centre"}},"type":"Feature"},
	{"geometry":{"coordinates":[8.915492,47.385043],"type":"Point"},"properties":{"name":"Kadaversammelstelle Feuerwehrgeb\u00c3\u00a4ude","osm_id":"3234240125","tag":{"amenity":"recycling","contact:phone":"+41 79 512 23 34","opening_hours":"24/7","recycling:animal_waste":"yes","recycling_type":"container"}},"type":"Feature"},
	{"geometry":{"coordinates":[8.918225,47.360526],"type":"Point"},"properties":{"name":"Sammelstelle Lipperschwendi","osm_id":"3234240128","tag":{"amenity":"recycling","opening_hours":"Mo-Sa 07:00-12:00,13:00-19:00","recycling:clothes":"yes","recycling:glass":"yes","recycling_type":"container"}},"type":"Feature"},
	{"geometry":{"coordinates":[8.877235,47.368359],"type":"Point"},"properties":{"name":"Sammelstelle Post","osm_id":"3234240129","tag":{"amenity":"recycling","opening_hours":"Mo-Sa 07:00-12:00,13:00-19:00","recycling:clothes":"yes","recycling_type":"container"}},"type":"Feature"},
	{"geometry":{"coordinates":[8.914978,47.385953],"type":"Point"},"properties":{"name":"Sammelstelle Rossweid","osm_id":"3234240130","tag":{"amenity":"recycling","opening_hours":"Mo-Sa 07:00-12:00,13:00-19:00","recycling:aluminium":"yes","recycling:cans":"yes","recycling:cardboard":"yes","recycling:glass":"yes","recycling:styrofoam":"yes","recycling:waste_oil":"yes","recycling_type":"container"}},"type":"Feature"},
	{"geometry":{"coordinates":[8.90852,47.386934],"type":"Point"},"properties":{"name":"Sammelstelle Zelg","osm_id":"3234240131","tag":{"amenity":"recycling","opening_hours":"Mo-Sa 07:00-12:00,13:00-19:00","recycling:green_waste":"yes","recycling:rubble":"yes","recycling:scrap_metal":"yes","recycling_type":"container"}},"type":"Feature"},
	{"geometry":{"coordinates":[8.934784,47.344199],"type":"Point"},"properties":{"osm_id":"3790817015","tag":{"amenity":"waste_basket"}},"type":"Feature"},
	{"geometry":{"coordinates":[8.935,47.35123],"type":"Point"},"properties":{"osm_id":"3790817879","tag":{"amenity":"waste_basket","vending":"excrement_bags","waste":"dog_excrement"}},"type":"Feature"},
	{"geometry":{"coordinates":[8.935,47.351239],"type":"Point"},"properties":{"osm_id":"3790817880","tag":{"amenity":"waste_basket"}},"type":"Feature"},
	{"geometry":{"coordinates":[8.959735,47.353956],"type":"Point"},"properties":{"osm_id":"3790817933","tag":{"amenity":"waste_basket","vending":"excrement_bags","waste":"dog_excrement"}},"type":"Feature"},
	{"geometry":{"coordinates":[8.9441,47.341019],"type":"Point"},"properties":{"name":"Robidog","osm_id":"4541876945","tag":{"amenity":"waste_basket","vending":"excrement_bags"}},"type":"Feature"},
	{"geometry":{"coordinates":[8.930915,47.343342],"type":"Point"},"properties":{"name":"Robidog","osm_id":"4541876949","tag":{"amenity":"waste_basket","vending":"excrement_bags"}},"type":"Feature"},
	{"geometry":{"coordinates":[8.930737,47.381987],"type":"Point"},"properties":{"osm_id":"6800610439","tag":{"amenity":"waste_basket","waste":"trash"}},"type":"Feature"},
	{"geometry":{"coordinates":[8.930748,47.381989],"type":"Point"},"properties":{"osm_id":"6800610440","tag":{"amenity":"waste_basket","vending":"excrement_bags","waste":"dog_excrement"}},"type":"Feature"},
	{"geometry":{"coordinates":[8.884201,47.364471],"type":"Point"},"properties":{"osm_id":"6859020349","tag":{"amenity":"waste_basket","vending":"excrement_bags"}},"type":"Feature"},
	{"geometry":{"coordinates":[8.888756,47.373819],"type":"Point"},"properties":{"osm_id":"6899229397","tag":{"amenity":"waste_basket"}},"type":"Feature"},
	{"geometry":{"coordinates":[8.936498,47.3798],"type":"Point"},"properties":{"osm_id":"7141686826","tag":{"amenity":"waste_basket","waste":"trash"}},"type":"Feature"},
	{"geometry":{"coordinates":[8.933903,47.382586],"type":"Point"},"properties":{"osm_id":"7141686910","tag":{"amenity":"waste_basket","waste":"trash"}},"type":"Feature"},
	{"geometry":{"coordinates":[8.932101,47.35413],"type":"Point"},"properties":{"osm_id":"7150154576","tag":{"amenity":"recycling","recycling:cans":"yes","recycling:glass":"yes","recycling:glass_bottles":"yes","recycling_type":"container"}},"type":"Feature"},
	{"geometry":{"coordinates":[8.932526,47.353704],"type":"Point"},"properties":{"osm_id":"7152499014","tag":{"amenity":"waste_basket","waste":"trash"}},"type":"Feature"},
	{"geometry":{"coordinates":[8.91894,47.360775],"type":"Point"},"properties":{"osm_id":"7176480055","tag":{"amenity":"waste_basket","vending":"excrement_bags","waste":"dog_excrement"}},"type":"Feature"},
	{"geometry":{"coordinates":[8.878981,47.368478],"type":"Point"},"properties":{"osm_id":"7198955032","tag":{"amenity":"waste_basket","waste":"trash"}},"type":"Feature"},
	{"geometry":{"coordinates":[8.879051,47.368457],"type":"Point"},"properties":{"osm_id":"7198955034","tag":{"amenity":"waste_basket","waste":"trash"}},"type":"Feature"},
	{"geometry":{"coordinates":[8.914965,47.38481],"type":"Point"},"properties":{"osm_id":"7198955051","tag":{"amenity":"waste_basket","waste":"trash"}},"type":"Feature"},
	{"geometry":{"coordinates":[8.915604,47.384704],"type":"Point"},"properties":{"osm_id":"7198955052","tag":{"amenity":"waste_basket","vending":"excrement_bags","waste":"dog_excrement"}},"type":"Feature"},
	{"geometry":{"coordinates":[8.904648,47.36611],"type":"Point"},"properties":{"osm_id":"7217435140","tag":{"amenity":"waste_basket","vending":"excrement_bags","waste":"dog_excrement"}},"type":"Feature"},
	{"geometry":{"coordinates":[8.921133,47.385117],"type":"Point"},"properties":{"osm_id":"7265093302","tag":{"amenity":"waste_basket","waste":"trash"}},"type":"Feature"},
	{"geometry":{"coordinates":[8.917043,47.385768],"type":"Point"},"properties":{"osm_id":"7265093329","tag":{"amenity":"waste_basket","vending":"excrement_bags","waste":"dog_excrement"}},"type":"Feature"},
	{"geometry":{"coordinates":[8.87874,47.368535],"type":"Point"},"properties":{"osm_id":"7417197226","tag":{"amenity":"waste_basket","waste":"trash"}},"type":"Feature"},
	{"geometry":{"coordinates":[8.878687,47.368534],"type":"Point"},"properties":{"osm_id":"7417197227","tag":{"amenity":"waste_basket","waste":"trash"}},"type":"Feature"},
	{"geometry":{"coordinates":[8.878612,47.368519],"type":"Point"},"properties":{"osm_id":"7417197230","tag":{"amenity":"waste_basket","waste":"trash"}},"type":"Feature"}
]
}
