{
"type": "FeatureCollection",
"features": [
	{"geometry":{"coordinates":[8.919676,47.238208],"type":"Point"},"properties":{"osm_id":"475204050","tag":{"amenity":"recycling","recycling:cans":"yes","recycling:glass":"yes"}},"type":"Feature"},
	{"geometry":{"coordinates":[8.946555,47.248834],"type":"Point"},"properties":{"osm_id":"661008714","tag":{"amenity":"recycling","recycling:batteries":"yes","recycling:cans":"yes","recycling:glass":"yes","recycling:scrap_metal":"no"}},"type":"Feature"},
	{"geometry":{"coordinates":[8.884726,47.231204],"type":"Point"},"properties":{"osm_id":"5681428207","tag":{"amenity":"recycling","recycling_type":"container"}},"type":"Feature"},
	{"geometry":{"coordinates":[8.953429,47.223487],"type":"Point"},"properties":{"name":"Entsorgungspark","osm_id":"6010865075","tag":{"addr:city":"Schmerikon","addr:country":"CH","addr:housenumber":"11","addr:postcode":"8716","addr:street":"Allmeindstrasse","amenity":"recycling","email":"info@landolt.ch","operator":"Landolt AG","phone":"+41 55 415 51 65","recycling:batteries":"yes","recycling:cans":"yes","recycling:cardboard":"yes","recycling:clothes":"yes","recycling:electrical_appliances":"yes","recycling:glass":"yes","recycling:glass_bottles":"yes","recycling:green_waste":"yes","recycling:paper":"yes","recycling:plastic":"yes","recycling:plastic_bottles":"yes","recycling:plastic_packaging":"yes","recycling:scrap_metal":"yes","recycling:shoes":"yes","recycling:small_appliances":"yes","recycling_type":"centre","website":"https://www.jms-gruppe.ch/landolt/entsorgungspark-schmerikon/"}},"type":"Feature"},
	{"geometry":{"coordinates":[8.92817,47.232115],"type":"Point"},"properties":{"osm_id":"6361263937","tag":{"amenity":"waste_basket","waste":"trash"}},"type":"Feature"},
	{"geometry":{"coordinates":[8.93759,47.269691],"type":"Point"},"properties":{"osm_id":"6685156511","tag":{"amenity":"waste_basket","waste":"dog_excrement"}},"type":"Feature"},
	{"geometry":{"coordinates":[8.877977,47.275417],"type":"Point"},"properties":{"osm_id":"7772583575","tag":{"amenity":"waste_basket","waste":"dog_excrement"}},"type":"Feature"}
]
}
