{
"type": "FeatureCollection",
"lastupdate": "2020-08-06T00:00:00Z",
"features": [
	{"geometry":{"coordinates":[8.900722,47.172278],"type":"Point"},"properties":{"osm_id":"277214536","tag":{"amenity":"recycling"}},"type":"Feature"},
	{"geometry":{"coordinates":[8.893778,47.193857],"type":"Point"},"properties":{"name":"Multisammelstelle Wangen","osm_id":"429286304","tag":{"addr:city":"Wangen","addr:housenumber":"2","addr:postcode":"8855","addr:street":"Seestrasse","amenity":"recycling","email":"gemeinde@wangensz.ch","opening_hours":"Mo-Sa 07:00-20:00; PH closed","recycling:PET":"no","recycling:aluminium":"yes","recycling:batteries":"yes","recycling:cans":"yes","recycling:clothes":"yes","recycling:coffee_capsules":"yes","recycling:cooking_oil":"yes","recycling:engine_oil":"yes","recycling:fluorescent_tubes":"yes","recycling:glass_bottles":"yes","recycling:shoes":"yes","recycling_type":"container","website":"https://www.wangensz.ch/","wheelchair":"yes"}},"type":"Feature"},
	{"geometry":{"coordinates":[8.890429,47.205104],"type":"Point"},"properties":{"osm_id":"429302663","tag":{"amenity":"recycling","opening_hours":"Mo-Sa 07:00-20:00","recycling:cans":"yes","recycling:clothes":"yes","recycling:cooking_oil":"yes","recycling:engine_oil":"yes","recycling:glass_bottles":"yes","recycling:shoes":"yes","recycling_type":"container","wheelchair":"yes"}},"type":"Feature"},
	{"geometry":{"coordinates":[8.926219,47.175552],"type":"Point"},"properties":{"osm_id":"1817862590","tag":{"amenity":"recycling"}},"type":"Feature"},
	{"geometry":{"coordinates":[8.893398,47.174304],"type":"Point"},"properties":{"osm_id":"2127256910","tag":{"amenity":"recycling"}},"type":"Feature"},
	{"geometry":{"coordinates":[8.895241,47.193605],"type":"Point"},"properties":{"osm_id":"2339666571","tag":{"amenity":"waste_basket"}},"type":"Feature"},
	{"geometry":{"coordinates":[8.888861,47.203221],"type":"Point"},"properties":{"osm_id":"2339666621","tag":{"amenity":"waste_basket"}},"type":"Feature"},
	{"geometry":{"coordinates":[8.885259,47.203558],"type":"Point"},"properties":{"osm_id":"2339666633","tag":{"amenity":"waste_basket"}},"type":"Feature"},
	{"geometry":{"coordinates":[8.887798,47.204498],"type":"Point"},"properties":{"osm_id":"2339666655","tag":{"amenity":"waste_basket"}},"type":"Feature"},
	{"geometry":{"coordinates":[8.952923,47.173803],"type":"Point"},"properties":{"osm_id":"4068410428","tag":{"amenity":"recycling","recycling_type":"container"}},"type":"Feature"},
	{"geometry":{"coordinates":[8.940546,47.176532],"type":"Point"},"properties":{"osm_id":"4068413165","tag":{"amenity":"recycling","recycling_type":"container"}},"type":"Feature"},
	{"geometry":{"coordinates":[8.940487,47.176522],"type":"Point"},"properties":{"osm_id":"4068413166","tag":{"amenity":"recycling","recycling_type":"container"}},"type":"Feature"},
	{"geometry":{"coordinates":[8.901524,47.179],"type":"Point"},"properties":{"highway":"street_lamp","osm_id":"4811908887","tag":{"amenity":"waste_basket"}},"type":"Feature"},
	{"geometry":{"coordinates":[8.879124,47.186911],"type":"Point"},"properties":{"osm_id":"4937277140","tag":{"amenity":"waste_basket"}},"type":"Feature"},
	{"geometry":{"coordinates":[8.904561,47.173259],"type":"Point"},"properties":{"osm_id":"5209322130","tag":{"amenity":"waste_basket"}},"type":"Feature"},
	{"geometry":{"coordinates":[8.901175,47.177962],"type":"Point"},"properties":{"osm_id":"5983351541","tag":{"amenity":"waste_basket","waste":"trash"}},"type":"Feature"},
	{"geometry":{"coordinates":[8.944274,47.206844],"type":"Point"},"properties":{"name":"Robidog","osm_id":"6417521930","tag":{"amenity":"waste_basket","waste":"dog_excrement"}},"type":"Feature"},
	{"geometry":{"coordinates":[8.954962,47.209055],"type":"Point"},"properties":{"osm_id":"6417521934","tag":{"amenity":"waste_basket"}},"type":"Feature"},
	{"geometry":{"coordinates":[8.954974,47.209171],"type":"Point"},"properties":{"name":"Robidog","osm_id":"6417521936","tag":{"amenity":"waste_basket","waste":"dog_excrement"}},"type":"Feature"},
	{"geometry":{"coordinates":[8.964698,47.212803],"type":"Point"},"properties":{"name":"Robidog","osm_id":"6421693036","tag":{"amenity":"waste_basket","waste":"dog_excrement"}},"type":"Feature"},
	{"geometry":{"coordinates":[8.961402,47.212075],"type":"Point"},"properties":{"name":"Robidog","osm_id":"6421693040","tag":{"amenity":"waste_basket","waste":"dog_excrement"}},"type":"Feature"},
	{"geometry":{"coordinates":[8.902065,47.175524],"type":"Point"},"properties":{"osm_id":"6442158391","tag":{"amenity":"recycling","opening_hours":"24/7","operator":"Coop","recycling:clothes":"yes","recycling:shoes":"yes","recycling_type":"container"}},"type":"Feature"},
	{"geometry":{"coordinates":[8.902143,47.175545],"type":"Point"},"properties":{"osm_id":"6442180609","tag":{"amenity":"recycling","description":"Recyclingstation im Coopgeb\u00e4ude","opening_hours":"Mo-Fr 08:00-20:00; Sa 07:30-20:00; PH closed","recycling:PET":"yes","recycling:batteries":"yes","recycling:plastic_bottles":"yes","recycling_type":"container"}},"type":"Feature"},
	{"geometry":{"coordinates":[8.900384,47.175346],"type":"Point"},"properties":{"osm_id":"6442214926","tag":{"amenity":"recycling","opening_hours":"24/7","operator":"Voi","recycling:PET":"yes","recycling:batteries":"yes","recycling:plastic_bottles":"yes","recycling_type":"container"}},"type":"Feature"},
	{"geometry":{"coordinates":[8.964752,47.212781],"type":"Point"},"properties":{"osm_id":"6515466379","tag":{"amenity":"waste_basket"}},"type":"Feature"},
	{"geometry":{"coordinates":[8.891914,47.176748],"type":"Point"},"properties":{"name":"Labdoo Annahmestelle f\u00c3\u00bcr Laptops","osm_id":"6543118704","tag":{"addr:city":"Siebnen","addr:housenumber":"38A","addr:postcode":"8854","addr:street":"Z\u00fcrcherstrasse","amenity":"recycling","brand":"Labdoo","charity":"yes","description":"Bei HelpDesk k\u00f6nnen Montag bis Samstag von 8:00 bis 12:00 Uhr sowie Montag bis Freitag 13:00 bis 18:30 Uhr Laptops unter dem Hinweis auf Labdoo deponiert werden.","location":"indoor","operator":"HelpOffice","recycling:computers":"yes","recycling:mobile_phones":"yes","service_times":"Mo-Fr 08:00-12:00,13:00-18:30; Sa 08:00-12:00","website":"https://www.labdoo.org/de/hub?h=20290"}},"type":"Feature"},
	{"geometry":{"coordinates":[8.898676,47.204509],"type":"Point"},"properties":{"osm_id":"6564867238","tag":{"amenity":"waste_basket","waste":"dog_excrement"}},"type":"Feature"},
	{"geometry":{"coordinates":[8.953516,47.211782],"type":"Point"},"properties":{"osm_id":"6617348299","tag":{"amenity":"waste_basket","waste":"dog_excrement"}},"type":"Feature"},
	{"geometry":{"coordinates":[8.946532,47.20439],"type":"Point"},"properties":{"osm_id":"6699793758","tag":{"amenity":"waste_basket","waste":"trash"}},"type":"Feature"},
	{"geometry":{"coordinates":[8.89618,47.189323],"type":"Point"},"properties":{"osm_id":"6749012289","tag":{"amenity":"waste_basket","waste":"trash"}},"type":"Feature"},
	{"geometry":{"coordinates":[8.9006,47.175662],"type":"Point"},"properties":{"osm_id":"6763189217","tag":{"amenity":"waste_basket","waste":"trash"}},"type":"Feature"},
	{"geometry":{"coordinates":[8.904339,47.173258],"type":"Point"},"properties":{"osm_id":"6763239097","tag":{"amenity":"waste_basket","fee":"no","vending":"excrement_bags","waste":"dog_excrement"}},"type":"Feature"},
	{"geometry":{"coordinates":[8.946582,47.174684],"type":"Point"},"properties":{"osm_id":"6796965786","tag":{"amenity":"waste_basket","waste":"trash"}},"type":"Feature"},
	{"geometry":{"coordinates":[8.896166,47.178454],"type":"Point"},"properties":{"osm_id":"6815186787","tag":{"amenity":"waste_basket","waste":"trash"}},"type":"Feature"},
	{"geometry":{"coordinates":[8.89603,47.17843],"type":"Point"},"properties":{"osm_id":"6815186793","tag":{"amenity":"waste_basket","waste":"trash"}},"type":"Feature"},
	{"geometry":{"coordinates":[8.896208,47.178433],"type":"Point"},"properties":{"osm_id":"6815186824","tag":{"amenity":"waste_basket","waste":"trash"}},"type":"Feature"},
	{"geometry":{"coordinates":[8.901239,47.181215],"type":"Point"},"properties":{"osm_id":"6898421319","tag":{"amenity":"waste_basket","waste":"trash"}},"type":"Feature"},
	{"geometry":{"coordinates":[8.901386,47.18134],"type":"Point"},"properties":{"osm_id":"6898421321","tag":{"amenity":"waste_basket","waste":"trash"}},"type":"Feature"},
	{"geometry":{"coordinates":[8.90102,47.180641],"type":"Point"},"properties":{"osm_id":"6904966359","tag":{"amenity":"waste_basket","waste":"trash"}},"type":"Feature"},
	{"geometry":{"coordinates":[8.896575,47.175597],"type":"Point"},"properties":{"osm_id":"6920409534","tag":{"amenity":"waste_basket","waste":"trash"}},"type":"Feature"},
	{"geometry":{"coordinates":[8.904265,47.182729],"type":"Point"},"properties":{"osm_id":"7079464951","tag":{"amenity":"recycling","opening_hours":"24/7","operator":"Texaid","recycling:clothes":"yes","recycling:shoes":"yes","recycling_type":"container","wheelchair":"limited"}},"type":"Feature"},
	{"geometry":{"coordinates":[8.90459,47.175806],"type":"Point"},"properties":{"osm_id":"7142831488","tag":{"amenity":"waste_basket","waste":"trash"}},"type":"Feature"},
	{"geometry":{"coordinates":[8.897538,47.18141],"type":"Point"},"properties":{"osm_id":"7172121600","tag":{"amenity":"recycling","opening_hours":"24/7","operator":"Texaid","recycling:clothes":"yes","recycling:shoes":"yes","recycling_type":"container"}},"type":"Feature"},
	{"geometry":{"coordinates":[8.898734,47.181937],"type":"Point"},"properties":{"osm_id":"7176797223","tag":{"amenity":"waste_basket","waste":"trash"}},"type":"Feature"},
	{"geometry":{"coordinates":[8.896435,47.189778],"type":"Point"},"properties":{"osm_id":"7392272139","tag":{"amenity":"recycling","description":"Im Spar, nach dem Eingang links","indoor":"yes","recycling:PET":"yes","recycling:plastic_bottles":"yes","recycling_type":"container"}},"type":"Feature"},
	{"geometry":{"coordinates":[8.932079,47.177911],"type":"Point"},"properties":{"osm_id":"7410893436","tag":{"amenity":"waste_basket","waste":"trash"}},"type":"Feature"},
	{"geometry":{"coordinates":[8.89183,47.184043],"type":"Point"},"properties":{"osm_id":"7575245086","tag":{"amenity":"waste_basket","waste":"trash"}},"type":"Feature"},
	{"geometry":{"coordinates":[8.901502,47.180755],"type":"Point"},"properties":{"osm_id":"7617352085","tag":{"amenity":"waste_basket","waste":"trash"}},"type":"Feature"},
	{"geometry":{"coordinates":[8.885517,47.20855],"type":"Point"},"properties":{"osm_id":"7726542753","tag":{"amenity":"waste_basket","waste":"trash"}},"type":"Feature"}
]
}
