{
"type": "FeatureCollection",
"features": [
	{"geometry":{"coordinates":[8.939036,46.013148],"type":"Point"},"properties":{"name":"Centro Rifiuti Separati di Ciusarella","osm_id":"274288186","tag":{"amenity":"recycling","collection_times":"martedi-venerdi 9-12/13-17 sabato 8-17 lunedi 13-17","recycling:aluminium":"yes","recycling:batteries":"yes","recycling:cardboard":"yes","recycling:cartons":"yes","recycling:clothes":"yes","recycling:electrical_appliances":"yes","recycling:glass":"yes","recycling:glass_bottles":"yes","recycling:green_waste":"yes","recycling:paper":"yes","recycling:plastic":"yes","recycling:plastic_bottles":"yes","recycling:plastic_packaging":"yes","recycling:scrap_metal":"yes","recycling:shoes":"yes","recycling:wood":"yes","recycling_type":"centre"}},"type":"Feature"},
	{"geometry":{"coordinates":[8.931698,46.017214],"type":"Point"},"properties":{"name":"Ecocentro Breganzona","osm_id":"416150558","tag":{"amenity":"recycling","recycling_type":"centre"}},"type":"Feature"},
	{"geometry":{"coordinates":[8.949155,46.020426],"type":"Point"},"properties":{"osm_id":"534638146","tag":{"amenity":"recycling","recycling_type":"container"}},"type":"Feature"},
	{"geometry":{"coordinates":[8.948846,46.01986],"type":"Point"},"properties":{"osm_id":"534638147","tag":{"amenity":"recycling","recycling_type":"container"}},"type":"Feature"},
	{"geometry":{"coordinates":[8.96385,46.018721],"type":"Point"},"properties":{"osm_id":"579730178","tag":{"amenity":"recycling"}},"type":"Feature"},
	{"geometry":{"coordinates":[8.962359,46.059021],"type":"Point"},"properties":{"name":"Compostaggio Capriasca","osm_id":"861201847","tag":{"amenity":"recycling"}},"type":"Feature"},
	{"geometry":{"coordinates":[8.951213,46.033025],"type":"Point"},"properties":{"osm_id":"1008534551","tag":{"amenity":"waste_basket"}},"type":"Feature"},
	{"geometry":{"coordinates":[8.926335,46.050014],"type":"Point"},"properties":{"osm_id":"2398699200","tag":{"amenity":"recycling"}},"type":"Feature"},
	{"geometry":{"coordinates":[8.96181,46.04541],"type":"Point"},"properties":{"osm_id":"2522004704","tag":{"amenity":"waste_basket"}},"type":"Feature"},
	{"geometry":{"coordinates":[8.961922,46.045138],"type":"Point"},"properties":{"osm_id":"2522004796","tag":{"amenity":"waste_basket"}},"type":"Feature"},
	{"geometry":{"coordinates":[8.962072,46.044993],"type":"Point"},"properties":{"osm_id":"2522004936","tag":{"amenity":"waste_basket"}},"type":"Feature"},
	{"geometry":{"coordinates":[8.878484,46.042545],"type":"Point"},"properties":{"osm_id":"3955908267","tag":{"amenity":"waste_basket"}},"type":"Feature"},
	{"geometry":{"coordinates":[8.889914,46.048946],"type":"Point"},"properties":{"osm_id":"3967229076","tag":{"amenity":"waste_basket"}},"type":"Feature"},
	{"geometry":{"coordinates":[8.885764,46.049962],"type":"Point"},"properties":{"osm_id":"3969553325","tag":{"amenity":"waste_basket"}},"type":"Feature"},
	{"geometry":{"coordinates":[8.906327,46.016433],"type":"Point"},"properties":{"osm_id":"4163035503","tag":{"amenity":"recycling","recycling_type":"container"}},"type":"Feature"},
	{"geometry":{"coordinates":[8.950095,46.023028],"type":"Point"},"properties":{"osm_id":"5507876073","tag":{"amenity":"recycling","recycling:glass":"yes","recycling:paper":"yes","recycling_type":"container"}},"type":"Feature"},
	{"geometry":{"coordinates":[8.950725,46.023308],"type":"Point"},"properties":{"osm_id":"5507876074","tag":{"amenity":"recycling","recycling:clothes":"yes","recycling:glass_bottles":"yes","recycling:plastic":"yes","recycling:plastic_bottles":"yes","recycling:shoes":"yes","recycling_type":"container"}},"type":"Feature"},
	{"geometry":{"coordinates":[8.954592,46.037456],"type":"Point"},"properties":{"osm_id":"8761947205","tag":{"amenity":"waste_basket"}},"type":"Feature"},
	{"geometry":{"coordinates":[8.963337,46.050582],"type":"Point"},"properties":{"osm_id":"8781359802","tag":{"amenity":"waste_basket"}},"type":"Feature"},
	{"geometry":{"coordinates":[8.961438,46.045375],"type":"Point"},"properties":{"osm_id":"8781369637","tag":{"amenity":"waste_basket"}},"type":"Feature"},
	{"geometry":{"coordinates":[8.958937,46.043892],"type":"Point"},"properties":{"osm_id":"8781369641","tag":{"amenity":"waste_basket"}},"type":"Feature"},
	{"geometry":{"coordinates":[8.956903,46.042772],"type":"Point"},"properties":{"osm_id":"8781369649","tag":{"amenity":"waste_basket"}},"type":"Feature"},
	{"geometry":{"coordinates":[8.959635,46.069516],"type":"Point"},"properties":{"osm_id":"9136134518","tag":{"amenity":"waste_disposal"}},"type":"Feature"},
	{"geometry":{"coordinates":[8.959622,46.069521],"type":"Point"},"properties":{"osm_id":"9136134519","tag":{"amenity":"recycling","recycling_type":"centre"}},"type":"Feature"}
]
}
