{
"type": "FeatureCollection",
"features": [
	{"geometry":{"coordinates":[8.958189,46.010591],"type":"Point"},"properties":{"osm_id":"206141098","tag":{"amenity":"recycling"}},"type":"Feature"},
	{"geometry":{"coordinates":[8.941787,46.008928],"type":"Point"},"properties":{"osm_id":"274291071","tag":{"amenity":"recycling"}},"type":"Feature"},
	{"geometry":{"coordinates":[8.933541,46.002512],"type":"Point"},"properties":{"osm_id":"302370897","tag":{"amenity":"recycling"}},"type":"Feature"},
	{"geometry":{"coordinates":[8.951237,46.008241],"type":"Point"},"properties":{"name":"Ecopuncto Pelli","osm_id":"310600594","tag":{"amenity":"recycling","name:it":"Ecopunto Pelli"}},"type":"Feature"},
	{"geometry":{"coordinates":[8.954928,46.004673],"type":"Point"},"properties":{"osm_id":"368195275","tag":{"amenity":"recycling","location":"underground","recycling:glass":"yes","recycling_type":"container"}},"type":"Feature"},
	{"geometry":{"coordinates":[8.955577,46.012115],"type":"Point"},"properties":{"osm_id":"1101562489","tag":{"amenity":"recycling"}},"type":"Feature"},
	{"geometry":{"coordinates":[8.949458,46.000201],"type":"Point"},"properties":{"osm_id":"1371473158","tag":{"amenity":"recycling","recycling:glass":"yes","recycling:waste":"yes","recycling_type":"container"}},"type":"Feature"},
	{"geometry":{"coordinates":[8.948029,46.000821],"type":"Point"},"properties":{"osm_id":"1371473163","tag":{"amenity":"recycling","recycling:waste":"yes","recycling_type":"container"}},"type":"Feature"},
	{"geometry":{"coordinates":[8.949639,46.000941],"type":"Point"},"properties":{"osm_id":"1371473166","tag":{"amenity":"waste_basket"}},"type":"Feature"},
	{"geometry":{"coordinates":[8.949679,46.001236],"type":"Point"},"properties":{"osm_id":"1371473195","tag":{"amenity":"waste_basket"}},"type":"Feature"},
	{"geometry":{"coordinates":[8.949479,46.001237],"type":"Point"},"properties":{"osm_id":"1371473196","tag":{"amenity":"waste_basket"}},"type":"Feature"},
	{"geometry":{"coordinates":[8.949043,46.002059],"type":"Point"},"properties":{"osm_id":"1371473209","tag":{"amenity":"recycling","recycling:waste":"yes","recycling_type":"container"}},"type":"Feature"},
	{"geometry":{"coordinates":[8.955122,46.005413],"type":"Point"},"properties":{"osm_id":"1371473267","tag":{"amenity":"recycling","recycling:waste":"yes","recycling_type":"container"}},"type":"Feature"},
	{"geometry":{"coordinates":[8.957767,46.010439],"type":"Point"},"properties":{"osm_id":"1516337648","tag":{"amenity":"recycling"}},"type":"Feature"},
	{"geometry":{"coordinates":[8.952673,46.010089],"type":"Point"},"properties":{"osm_id":"1688422618","tag":{"amenity":"recycling"}},"type":"Feature"},
	{"geometry":{"coordinates":[8.95783,46.009204],"type":"Point"},"properties":{"name":"paper glass alum battery","osm_id":"2114890054","tag":{"amenity":"recycling","location":"underground","recycling_type":"container"}},"type":"Feature"},
	{"geometry":{"coordinates":[8.947002,45.977123],"type":"Point"},"properties":{"osm_id":"2721483171","tag":{"amenity":"waste_basket"}},"type":"Feature"},
	{"geometry":{"coordinates":[8.905566,45.951478],"type":"Point"},"properties":{"osm_id":"2737376245","tag":{"amenity":"waste_basket"}},"type":"Feature"},
	{"geometry":{"coordinates":[8.905144,45.952339],"type":"Point"},"properties":{"osm_id":"2737407577","tag":{"amenity":"waste_basket"}},"type":"Feature"},
	{"geometry":{"coordinates":[8.905362,45.953698],"type":"Point"},"properties":{"name":"Ecopunto","osm_id":"2737419054","tag":{"amenity":"recycling","recycling:batteries":"yes","recycling:cans":"yes","recycling:glass":"yes","recycling:paper":"yes"}},"type":"Feature"},
	{"geometry":{"coordinates":[8.905354,45.953691],"type":"Point"},"properties":{"osm_id":"2737419069","tag":{"amenity":"waste_disposal"}},"type":"Feature"},
	{"geometry":{"coordinates":[8.900593,45.967243],"type":"Point"},"properties":{"osm_id":"2737551276","tag":{"amenity":"waste_basket"}},"type":"Feature"},
	{"geometry":{"coordinates":[8.950681,46.010818],"type":"Point"},"properties":{"osm_id":"3079968819","tag":{"amenity":"waste_basket"}},"type":"Feature"},
	{"geometry":{"coordinates":[8.920089,45.991609],"type":"Point"},"properties":{"osm_id":"3098606407","tag":{"amenity":"recycling"}},"type":"Feature"},
	{"geometry":{"coordinates":[8.941332,46.006759],"type":"Point"},"properties":{"osm_id":"3098607633","tag":{"amenity":"recycling"}},"type":"Feature"},
	{"geometry":{"coordinates":[8.945565,46.00676],"type":"Point"},"properties":{"osm_id":"3111033511","tag":{"amenity":"recycling"}},"type":"Feature"},
	{"geometry":{"coordinates":[8.930589,45.95116],"type":"Point"},"properties":{"osm_id":"3126395621","tag":{"amenity":"waste_basket"}},"type":"Feature"},
	{"geometry":{"coordinates":[8.931735,45.988409],"type":"Point"},"properties":{"osm_id":"3149800537","tag":{"amenity":"recycling","recycling:aluminium":"yes","recycling:glass":"yes","recycling:paper":"yes"}},"type":"Feature"},
	{"geometry":{"coordinates":[8.931754,45.988407],"type":"Point"},"properties":{"osm_id":"3149800538","tag":{"amenity":"waste_disposal"}},"type":"Feature"},
	{"geometry":{"coordinates":[8.943009,45.995013],"type":"Point"},"properties":{"osm_id":"3246771742","tag":{"amenity":"recycling","recycling:cans":"yes","recycling:clothes":"no","recycling:glass":"yes","recycling:paper":"yes"}},"type":"Feature"},
	{"geometry":{"coordinates":[8.949648,45.953236],"type":"Point"},"properties":{"osm_id":"3269633287","tag":{"amenity":"waste_basket"}},"type":"Feature"},
	{"geometry":{"coordinates":[8.950145,45.95414],"type":"Point"},"properties":{"osm_id":"3269633301","tag":{"amenity":"waste_basket"}},"type":"Feature"},
	{"geometry":{"coordinates":[8.949724,45.954218],"type":"Point"},"properties":{"osm_id":"3269633305","tag":{"amenity":"waste_basket"}},"type":"Feature"},
	{"geometry":{"coordinates":[8.947663,45.954104],"type":"Point"},"properties":{"osm_id":"3354389569","tag":{"amenity":"waste_basket"}},"type":"Feature"},
	{"geometry":{"coordinates":[8.952393,46.011587],"type":"Point"},"properties":{"osm_id":"3809153792","tag":{"amenity":"recycling"}},"type":"Feature"},
	{"geometry":{"coordinates":[8.950601,45.954581],"type":"Point"},"properties":{"osm_id":"3824656226","tag":{"amenity":"waste_basket"}},"type":"Feature"},
	{"geometry":{"coordinates":[8.881269,45.977916],"type":"Point"},"properties":{"osm_id":"3931307043","tag":{"amenity":"recycling","recycling:glass":"yes","recycling_type":"container"}},"type":"Feature"},
	{"geometry":{"coordinates":[8.881251,45.977931],"type":"Point"},"properties":{"osm_id":"3931307044","tag":{"amenity":"recycling","recycling:plastic":"yes","recycling_type":"container"}},"type":"Feature"},
	{"geometry":{"coordinates":[8.881232,45.977947],"type":"Point"},"properties":{"osm_id":"3931307045","tag":{"amenity":"waste_disposal"}},"type":"Feature"},
	{"geometry":{"coordinates":[8.881213,45.977965],"type":"Point"},"properties":{"osm_id":"3931307046","tag":{"amenity":"waste_disposal"}},"type":"Feature"},
	{"geometry":{"coordinates":[8.88119,45.977984],"type":"Point"},"properties":{"osm_id":"3931307047","tag":{"amenity":"waste_disposal"}},"type":"Feature"},
	{"geometry":{"coordinates":[8.886438,45.97181],"type":"Point"},"properties":{"osm_id":"3931878741","tag":{"amenity":"recycling","recycling:plastic":"yes","recycling_type":"container"}},"type":"Feature"},
	{"geometry":{"coordinates":[8.886403,45.971853],"type":"Point"},"properties":{"osm_id":"3931878743","tag":{"amenity":"waste_disposal"}},"type":"Feature"},
	{"geometry":{"coordinates":[8.87938,45.980789],"type":"Point"},"properties":{"osm_id":"3932555563","tag":{"amenity":"recycling","recycling:glass":"yes","recycling_type":"container"}},"type":"Feature"},
	{"geometry":{"coordinates":[8.879369,45.980801],"type":"Point"},"properties":{"osm_id":"3932555564","tag":{"amenity":"recycling","recycling:plastic":"yes","recycling_type":"container"}},"type":"Feature"},
	{"geometry":{"coordinates":[8.879351,45.980823],"type":"Point"},"properties":{"osm_id":"3932555565","tag":{"amenity":"waste_disposal"}},"type":"Feature"},
	{"geometry":{"coordinates":[8.879339,45.980839],"type":"Point"},"properties":{"osm_id":"3932555566","tag":{"amenity":"waste_disposal"}},"type":"Feature"},
	{"geometry":{"coordinates":[8.87933,45.980852],"type":"Point"},"properties":{"osm_id":"3932555567","tag":{"amenity":"waste_disposal"}},"type":"Feature"},
	{"geometry":{"coordinates":[8.946968,46.000006],"type":"Point"},"properties":{"osm_id":"4068607690","tag":{"amenity":"recycling","recycling:glass":"yes","recycling:paper":"yes","recycling:waste":"yes","recycling_type":"container"}},"type":"Feature"},
	{"geometry":{"coordinates":[8.882042,46.005134],"type":"Point"},"properties":{"osm_id":"4162994707","tag":{"amenity":"recycling","recycling_type":"container"}},"type":"Feature"},
	{"geometry":{"coordinates":[8.958459,46.012187],"type":"Point"},"properties":{"osm_id":"4651014724","tag":{"amenity":"waste_disposal"}},"type":"Feature"},
	{"geometry":{"coordinates":[8.931423,45.953962],"type":"Point"},"properties":{"osm_id":"4677466103","tag":{"amenity":"waste_basket"}},"type":"Feature"},
	{"geometry":{"coordinates":[8.939288,45.966086],"type":"Point"},"properties":{"osm_id":"4702322089","tag":{"amenity":"waste_basket"}},"type":"Feature"},
	{"geometry":{"coordinates":[8.939079,45.966265],"type":"Point"},"properties":{"osm_id":"4702322097","tag":{"amenity":"waste_basket"}},"type":"Feature"},
	{"geometry":{"coordinates":[8.947659,45.977141],"type":"Point"},"properties":{"osm_id":"4707409117","tag":{"amenity":"waste_basket"}},"type":"Feature"},
	{"geometry":{"coordinates":[8.93661,45.958306],"type":"Point"},"properties":{"osm_id":"4715751013","tag":{"amenity":"waste_basket"}},"type":"Feature"},
	{"geometry":{"coordinates":[8.93399,45.95614],"type":"Point"},"properties":{"osm_id":"4715751016","tag":{"amenity":"recycling","recycling_type":"container"}},"type":"Feature"},
	{"geometry":{"coordinates":[8.936924,45.958363],"type":"Point"},"properties":{"osm_id":"4715751071","tag":{"amenity":"waste_basket"}},"type":"Feature"},
	{"geometry":{"coordinates":[8.939824,45.983239],"type":"Point"},"properties":{"osm_id":"4728304513","tag":{"amenity":"waste_basket"}},"type":"Feature"},
	{"geometry":{"coordinates":[8.939575,45.98323],"type":"Point"},"properties":{"osm_id":"4728304514","tag":{"amenity":"waste_basket"}},"type":"Feature"},
	{"geometry":{"coordinates":[8.941362,45.983066],"type":"Point"},"properties":{"osm_id":"4728304839","tag":{"amenity":"waste_basket"}},"type":"Feature"},
	{"geometry":{"coordinates":[8.946912,45.989863],"type":"Point"},"properties":{"osm_id":"4750964545","tag":{"amenity":"waste_basket"}},"type":"Feature"},
	{"geometry":{"coordinates":[8.94743,45.988855],"type":"Point"},"properties":{"osm_id":"4750964585","tag":{"amenity":"waste_basket"}},"type":"Feature"},
	{"geometry":{"coordinates":[8.940102,45.990275],"type":"Point"},"properties":{"osm_id":"4762117607","tag":{"amenity":"waste_basket"}},"type":"Feature"},
	{"geometry":{"coordinates":[8.938505,45.982901],"type":"Point"},"properties":{"osm_id":"4762808869","tag":{"amenity":"waste_basket"}},"type":"Feature"},
	{"geometry":{"coordinates":[8.948027,46.004749],"type":"Point"},"properties":{"osm_id":"5202990133","tag":{"amenity":"waste_basket"}},"type":"Feature"},
	{"geometry":{"coordinates":[8.961255,46.005181],"type":"Point"},"properties":{"osm_id":"5203057699","tag":{"amenity":"recycling"}},"type":"Feature"},
	{"geometry":{"coordinates":[8.947172,45.989803],"type":"Point"},"properties":{"osm_id":"5594854878","tag":{"amenity":"recycling"}},"type":"Feature"},
	{"geometry":{"coordinates":[8.949866,45.988272],"type":"Point"},"properties":{"osm_id":"5836566629","tag":{"amenity":"waste_basket"}},"type":"Feature"},
	{"geometry":{"coordinates":[8.882685,45.981594],"type":"Point"},"properties":{"name":"Ecocentro Magliaso","osm_id":"7945505139","tag":{"amenity":"recycling","opening_hours":"Nov-Feb Mo,Th 14:00-17:00; Mar-Oct Mo,Th 15:00-18:30; Sa 09:00-12:00,13:30-17:00; PH off","operator":"Municipio di Magliasio","operator:type":"government","recycling:aluminium":"yes","recycling:cans":"yes","recycling:cardboard":"yes","recycling:clothes":"yes","recycling:electrical_appliances":"yes","recycling:glass_bottles":"yes","recycling:green_waste":"yes","recycling:newspaper":"yes","recycling:paper":"yes","recycling_type":"centre"}},"type":"Feature"}
]
}
