{
"type": "FeatureCollection",
"features": [
	{"geometry":{"coordinates":[8.91706,45.924333],"type":"Point"},"properties":{"osm_id":"2421610716","tag":{"amenity":"recycling","recycling:glass":"yes","recycling:plastic":"yes"}},"type":"Feature"},
	{"geometry":{"coordinates":[8.905812,45.928024],"type":"Point"},"properties":{"osm_id":"2605069124","tag":{"amenity":"recycling","recycling:batteries":"yes","recycling:cans":"yes","recycling:cooking_oil":"yes","recycling:glass":"yes","recycling_type":"container"}},"type":"Feature"},
	{"geometry":{"coordinates":[8.905704,45.928065],"type":"Point"},"properties":{"osm_id":"2605069127","tag":{"amenity":"waste_disposal","waste":"trash"}},"type":"Feature"},
	{"geometry":{"coordinates":[8.905692,45.928328],"type":"Point"},"properties":{"osm_id":"2605076546","tag":{"amenity":"recycling","recycling:cartons":"yes","recycling_type":"container"}},"type":"Feature"},
	{"geometry":{"coordinates":[8.919201,45.925737],"type":"Point"},"properties":{"osm_id":"2697511025","tag":{"amenity":"waste_disposal","waste":"trash"}},"type":"Feature"},
	{"geometry":{"coordinates":[8.917036,45.924327],"type":"Point"},"properties":{"osm_id":"2713115630","tag":{"amenity":"waste_disposal"}},"type":"Feature"},
	{"geometry":{"coordinates":[8.917015,45.92432],"type":"Point"},"properties":{"osm_id":"2713115634","tag":{"amenity":"waste_basket"}},"type":"Feature"},
	{"geometry":{"coordinates":[8.916345,45.923374],"type":"Point"},"properties":{"osm_id":"2713147872","tag":{"amenity":"waste_basket"}},"type":"Feature"},
	{"geometry":{"coordinates":[8.915358,45.923103],"type":"Point"},"properties":{"osm_id":"2713147876","tag":{"amenity":"waste_basket"}},"type":"Feature"},
	{"geometry":{"coordinates":[8.914902,45.922921],"type":"Point"},"properties":{"osm_id":"2713147877","tag":{"amenity":"waste_basket"}},"type":"Feature"},
	{"geometry":{"coordinates":[8.905563,45.930733],"type":"Point"},"properties":{"osm_id":"2716029732","tag":{"amenity":"waste_disposal"}},"type":"Feature"},
	{"geometry":{"coordinates":[8.905471,45.930768],"type":"Point"},"properties":{"osm_id":"2716029743","tag":{"amenity":"waste_basket"}},"type":"Feature"},
	{"geometry":{"coordinates":[8.90775,45.926602],"type":"Point"},"properties":{"osm_id":"2716029810","tag":{"amenity":"waste_basket"}},"type":"Feature"},
	{"geometry":{"coordinates":[8.92025,45.925165],"type":"Point"},"properties":{"osm_id":"2727188244","tag":{"amenity":"waste_basket"}},"type":"Feature"},
	{"geometry":{"coordinates":[8.92232,45.927169],"type":"Point"},"properties":{"osm_id":"2727188254","tag":{"amenity":"recycling","operator":"Croce Rossa Svizzera","recycling:cans":"no","recycling:clothes":"yes","recycling:glass":"no","recycling:paper":"no"}},"type":"Feature"},
	{"geometry":{"coordinates":[8.922239,45.927143],"type":"Point"},"properties":{"osm_id":"2727197312","tag":{"amenity":"waste_basket"}},"type":"Feature"},
	{"geometry":{"coordinates":[8.921528,45.92659],"type":"Point"},"properties":{"osm_id":"2727197317","tag":{"amenity":"recycling","recycling:batteries":"yes","recycling:glass":"yes","recycling:plastic":"yes","recycling_type":"container"}},"type":"Feature"},
	{"geometry":{"coordinates":[8.921512,45.926582],"type":"Point"},"properties":{"osm_id":"2727197318","tag":{"amenity":"waste_disposal"}},"type":"Feature"},
	{"geometry":{"coordinates":[8.908044,45.927832],"type":"Point"},"properties":{"osm_id":"2737366463","tag":{"amenity":"waste_disposal"}},"type":"Feature"},
	{"geometry":{"coordinates":[8.907119,45.927398],"type":"Point"},"properties":{"osm_id":"2737366465","tag":{"amenity":"waste_basket"}},"type":"Feature"},
	{"geometry":{"coordinates":[8.902156,45.930393],"type":"Point"},"properties":{"osm_id":"2758096274","tag":{"amenity":"waste_basket"}},"type":"Feature"},
	{"geometry":{"coordinates":[8.903413,45.930306],"type":"Point"},"properties":{"osm_id":"2758098865","tag":{"amenity":"waste_disposal"}},"type":"Feature"},
	{"geometry":{"coordinates":[8.903215,45.930267],"type":"Point"},"properties":{"osm_id":"2758099101","tag":{"amenity":"waste_basket"}},"type":"Feature"},
	{"geometry":{"coordinates":[8.902782,45.93007],"type":"Point"},"properties":{"osm_id":"2758100266","tag":{"amenity":"waste_basket"}},"type":"Feature"},
	{"geometry":{"coordinates":[8.906205,45.929153],"type":"Point"},"properties":{"osm_id":"2758432084","tag":{"amenity":"waste_disposal"}},"type":"Feature"},
	{"geometry":{"coordinates":[8.909516,45.925173],"type":"Point"},"properties":{"osm_id":"2758432098","tag":{"amenity":"waste_disposal"}},"type":"Feature"},
	{"geometry":{"coordinates":[8.900543,45.931076],"type":"Point"},"properties":{"osm_id":"2767912944","tag":{"amenity":"waste_disposal"}},"type":"Feature"},
	{"geometry":{"coordinates":[8.903362,45.930367],"type":"Point"},"properties":{"osm_id":"2769545102","tag":{"amenity":"waste_basket"}},"type":"Feature"},
	{"geometry":{"coordinates":[8.904198,45.930856],"type":"Point"},"properties":{"osm_id":"2769556275","tag":{"amenity":"waste_basket"}},"type":"Feature"},
	{"geometry":{"coordinates":[8.900626,45.93092],"type":"Point"},"properties":{"osm_id":"2778358187","tag":{"amenity":"waste_basket"}},"type":"Feature"},
	{"geometry":{"coordinates":[8.909969,45.927486],"type":"Point"},"properties":{"osm_id":"2778380479","tag":{"amenity":"waste_disposal"}},"type":"Feature"},
	{"geometry":{"coordinates":[8.91051,45.92635],"type":"Point"},"properties":{"osm_id":"2778380498","tag":{"amenity":"waste_basket"}},"type":"Feature"},
	{"geometry":{"coordinates":[8.905544,45.927951],"type":"Point"},"properties":{"osm_id":"2851659547","tag":{"amenity":"waste_basket"}},"type":"Feature"},
	{"geometry":{"coordinates":[8.902694,45.929593],"type":"Point"},"properties":{"osm_id":"3054219656","tag":{"amenity":"waste_basket"}},"type":"Feature"},
	{"geometry":{"coordinates":[8.914652,45.922399],"type":"Point"},"properties":{"osm_id":"3057538345","tag":{"amenity":"waste_basket"}},"type":"Feature"},
	{"geometry":{"coordinates":[8.903599,45.931037],"type":"Point"},"properties":{"osm_id":"3059807009","tag":{"amenity":"waste_disposal"}},"type":"Feature"},
	{"geometry":{"coordinates":[8.903348,45.931094],"type":"Point"},"properties":{"osm_id":"3059807010","tag":{"amenity":"waste_disposal","waste":"organic"}},"type":"Feature"},
	{"geometry":{"coordinates":[8.903297,45.931099],"type":"Point"},"properties":{"osm_id":"3059807011","tag":{"amenity":"waste_basket"}},"type":"Feature"},
	{"geometry":{"coordinates":[8.902627,45.943596],"type":"Point"},"properties":{"osm_id":"3191677358","tag":{"amenity":"waste_disposal"}},"type":"Feature"},
	{"geometry":{"coordinates":[8.902618,45.943586],"type":"Point"},"properties":{"osm_id":"3191677359","tag":{"amenity":"recycling","recycling:glass":"yes","recycling:plastic":"yes"}},"type":"Feature"},
	{"geometry":{"coordinates":[8.902873,45.930015],"type":"Point"},"properties":{"osm_id":"3196976882","tag":{"amenity":"waste_basket"}},"type":"Feature"},
	{"geometry":{"coordinates":[8.916991,45.922727],"type":"Point"},"properties":{"osm_id":"3220169419","tag":{"amenity":"waste_basket"}},"type":"Feature"},
	{"geometry":{"coordinates":[8.922671,45.932241],"type":"Point"},"properties":{"osm_id":"3348652541","tag":{"amenity":"waste_basket"}},"type":"Feature"},
	{"geometry":{"coordinates":[8.938406,45.94326],"type":"Point"},"properties":{"osm_id":"3354443419","tag":{"amenity":"waste_basket"}},"type":"Feature"},
	{"geometry":{"coordinates":[8.934915,45.9391],"type":"Point"},"properties":{"osm_id":"3354444662","tag":{"amenity":"recycling","recycling:glass":"yes"}},"type":"Feature"},
	{"geometry":{"coordinates":[8.934944,45.939115],"type":"Point"},"properties":{"osm_id":"3354444663","tag":{"amenity":"waste_disposal"}},"type":"Feature"},
	{"geometry":{"coordinates":[8.933529,45.937151],"type":"Point"},"properties":{"osm_id":"3354452693","tag":{"amenity":"recycling","recycling:aluminium":"yes"}},"type":"Feature"},
	{"geometry":{"coordinates":[8.933516,45.93714],"type":"Point"},"properties":{"osm_id":"3354452694","tag":{"amenity":"waste_disposal"}},"type":"Feature"},
	{"geometry":{"coordinates":[8.924387,45.892125],"type":"Point"},"properties":{"osm_id":"3588572108","tag":{"amenity":"waste_basket"}},"type":"Feature"},
	{"geometry":{"coordinates":[8.920725,45.890077],"type":"Point"},"properties":{"osm_id":"3590756933","tag":{"amenity":"waste_basket"}},"type":"Feature"},
	{"geometry":{"coordinates":[8.92284,45.890992],"type":"Point"},"properties":{"osm_id":"3590756949","tag":{"amenity":"waste_basket"}},"type":"Feature"},
	{"geometry":{"coordinates":[8.960073,45.890789],"type":"Point"},"properties":{"osm_id":"4069240513","tag":{"amenity":"waste_basket"}},"type":"Feature"},
	{"geometry":{"coordinates":[8.949625,45.891856],"type":"Point"},"properties":{"osm_id":"4079250642","tag":{"amenity":"waste_basket"}},"type":"Feature"},
	{"geometry":{"coordinates":[8.924266,45.930329],"type":"Point"},"properties":{"osm_id":"4163916146","tag":{"amenity":"recycling","recycling:garden_waste":"yes","recycling_type":"container"}},"type":"Feature"},
	{"geometry":{"coordinates":[8.92478,45.931288],"type":"Point"},"properties":{"osm_id":"4163916147","tag":{"amenity":"recycling","recycling:PET":"yes","recycling:aluminium":"yes","recycling:glass":"yes","recycling:paper":"yes","recycling_type":"container"}},"type":"Feature"},
	{"geometry":{"coordinates":[8.924773,45.931274],"type":"Point"},"properties":{"osm_id":"4163916148","tag":{"amenity":"waste_disposal"}},"type":"Feature"},
	{"geometry":{"coordinates":[8.914631,45.922584],"type":"Point"},"properties":{"osm_id":"4658112795","tag":{"amenity":"waste_basket"}},"type":"Feature"},
	{"geometry":{"coordinates":[8.915912,45.922603],"type":"Point"},"properties":{"osm_id":"4658112817","tag":{"amenity":"waste_basket"}},"type":"Feature"},
	{"geometry":{"coordinates":[8.913957,45.923127],"type":"Point"},"properties":{"osm_id":"4659963689","tag":{"amenity":"waste_basket"}},"type":"Feature"},
	{"geometry":{"coordinates":[8.930652,45.948386],"type":"Point"},"properties":{"osm_id":"4673114698","tag":{"amenity":"waste_basket"}},"type":"Feature"},
	{"geometry":{"coordinates":[8.922719,45.935071],"type":"Point"},"properties":{"osm_id":"4678641479","tag":{"amenity":"waste_basket"}},"type":"Feature"},
	{"geometry":{"coordinates":[8.920156,45.928413],"type":"Point"},"properties":{"osm_id":"4679360067","tag":{"amenity":"waste_basket"}},"type":"Feature"},
	{"geometry":{"coordinates":[8.920224,45.930471],"type":"Point"},"properties":{"osm_id":"4679360258","tag":{"amenity":"waste_basket"}},"type":"Feature"},
	{"geometry":{"coordinates":[8.91997,45.929839],"type":"Point"},"properties":{"osm_id":"4679360500","tag":{"amenity":"waste_basket"}},"type":"Feature"},
	{"geometry":{"coordinates":[8.902892,45.902744],"type":"Point"},"properties":{"osm_id":"4706921708","tag":{"amenity":"waste_basket"}},"type":"Feature"},
	{"geometry":{"coordinates":[8.904055,45.90263],"type":"Point"},"properties":{"osm_id":"4706922862","tag":{"amenity":"waste_basket"}},"type":"Feature"},
	{"geometry":{"coordinates":[8.903674,45.901856],"type":"Point"},"properties":{"osm_id":"4706923304","tag":{"amenity":"waste_basket"}},"type":"Feature"},
	{"geometry":{"coordinates":[8.905922,45.903793],"type":"Point"},"properties":{"osm_id":"4706923724","tag":{"amenity":"waste_basket"}},"type":"Feature"},
	{"geometry":{"coordinates":[8.890866,45.947345],"type":"Point"},"properties":{"osm_id":"4729382324","tag":{"amenity":"waste_basket"}},"type":"Feature"},
	{"geometry":{"coordinates":[8.928504,45.910759],"type":"Point"},"properties":{"osm_id":"4888479216","tag":{"amenity":"waste_basket"}},"type":"Feature"}
]
}
