{
"type": "FeatureCollection",
"features": [
	{"geometry":{"coordinates":[8.90433,45.658107],"type":"Point"},"properties":{"name":"Piattaforma Ecologica","osm_id":"3082622524","tag":{"amenity":"recycling","recycling_type":"centre"}},"type":"Feature"},
	{"geometry":{"coordinates":[8.964406,45.657771],"type":"Point"},"properties":{"osm_id":"5431575755","tag":{"amenity":"waste_basket"}},"type":"Feature"},
	{"geometry":{"coordinates":[8.964266,45.658597],"type":"Point"},"properties":{"osm_id":"5432080161","tag":{"amenity":"waste_basket"}},"type":"Feature"},
	{"geometry":{"coordinates":[8.963137,45.658759],"type":"Point"},"properties":{"osm_id":"5432080187","tag":{"amenity":"waste_basket"}},"type":"Feature"},
	{"geometry":{"coordinates":[8.962657,45.658324],"type":"Point"},"properties":{"osm_id":"5432080192","tag":{"amenity":"waste_basket"}},"type":"Feature"},
	{"geometry":{"coordinates":[8.88995,45.666019],"type":"Point"},"properties":{"osm_id":"5516877015","tag":{"amenity":"waste_basket"}},"type":"Feature"},
	{"geometry":{"coordinates":[8.884019,45.666412],"type":"Point"},"properties":{"osm_id":"5876300410","tag":{"amenity":"recycling","recycling:cans":"yes","recycling:glass":"no","recycling:glass_bottles":"yes","recycling:paper":"yes","recycling:plastic":"no","recycling:plastic_bottles":"yes","recycling:plastic_packaging":"yes","recycling_type":"container"}},"type":"Feature"},
	{"geometry":{"coordinates":[8.958165,45.672385],"type":"Point"},"properties":{"osm_id":"5887431696","tag":{"amenity":"recycling","recycling_type":"container"}},"type":"Feature"}
]
}
