{
"type": "FeatureCollection",
"features": [
	{"geometry":{"coordinates":[8.927657,45.570105],"type":"Point"},"properties":{"osm_id":"2476489856","tag":{"amenity":"waste_basket"}},"type":"Feature"},
	{"geometry":{"coordinates":[8.927324,45.570388],"type":"Point"},"properties":{"osm_id":"2476489879","tag":{"amenity":"waste_basket"}},"type":"Feature"},
	{"geometry":{"coordinates":[8.927094,45.570502],"type":"Point"},"properties":{"osm_id":"2476489881","tag":{"amenity":"waste_basket"}},"type":"Feature"},
	{"geometry":{"coordinates":[8.927035,45.570494],"type":"Point"},"properties":{"osm_id":"2476489884","tag":{"amenity":"waste_basket"}},"type":"Feature"},
	{"geometry":{"coordinates":[8.926961,45.570687],"type":"Point"},"properties":{"osm_id":"2476489886","tag":{"amenity":"waste_basket"}},"type":"Feature"},
	{"geometry":{"coordinates":[8.91926,45.57002],"type":"Point"},"properties":{"osm_id":"2478098381","tag":{"amenity":"waste_basket"}},"type":"Feature"},
	{"geometry":{"coordinates":[8.919953,45.569961],"type":"Point"},"properties":{"osm_id":"2478098385","tag":{"amenity":"waste_basket"}},"type":"Feature"},
	{"geometry":{"coordinates":[8.920275,45.57014],"type":"Point"},"properties":{"osm_id":"2478098399","tag":{"amenity":"waste_basket"}},"type":"Feature"},
	{"geometry":{"coordinates":[8.926529,45.569416],"type":"Point"},"properties":{"osm_id":"2478098405","tag":{"amenity":"waste_basket","colour":"white;blue;green;yellow","material":"plastic","waste":"trash;paper;plastic;glass"}},"type":"Feature"},
	{"geometry":{"coordinates":[8.926346,45.569389],"type":"Point"},"properties":{"osm_id":"2479074939","tag":{"amenity":"waste_basket","waste":"trash"}},"type":"Feature"},
	{"geometry":{"coordinates":[8.926365,45.569373],"type":"Point"},"properties":{"osm_id":"2479074942","tag":{"amenity":"waste_basket","waste":"trash"}},"type":"Feature"},
	{"geometry":{"coordinates":[8.924726,45.570584],"type":"Point"},"properties":{"osm_id":"2486752927","tag":{"amenity":"waste_basket"}},"type":"Feature"},
	{"geometry":{"coordinates":[8.924207,45.570651],"type":"Point"},"properties":{"osm_id":"2486752931","tag":{"amenity":"waste_basket"}},"type":"Feature"},
	{"geometry":{"coordinates":[8.92445,45.570165],"type":"Point"},"properties":{"osm_id":"2486752934","tag":{"amenity":"waste_basket"}},"type":"Feature"},
	{"geometry":{"coordinates":[8.924194,45.571021],"type":"Point"},"properties":{"osm_id":"2486752936","tag":{"amenity":"waste_basket"}},"type":"Feature"},
	{"geometry":{"coordinates":[8.92385,45.571047],"type":"Point"},"properties":{"osm_id":"2486752938","tag":{"amenity":"waste_basket"}},"type":"Feature"},
	{"geometry":{"coordinates":[8.924453,45.570797],"type":"Point"},"properties":{"osm_id":"2486752941","tag":{"amenity":"waste_basket"}},"type":"Feature"},
	{"geometry":{"coordinates":[8.924974,45.57052],"type":"Point"},"properties":{"osm_id":"2486752942","tag":{"amenity":"waste_basket"}},"type":"Feature"},
	{"geometry":{"coordinates":[8.90657,45.565516],"type":"Point"},"properties":{"osm_id":"2678548353","tag":{"amenity":"waste_basket"}},"type":"Feature"},
	{"geometry":{"coordinates":[8.923722,45.570968],"type":"Point"},"properties":{"osm_id":"2703799745","tag":{"amenity":"recycling","operator":"Humana","recycling:clothes":"yes","recycling_type":"container"}},"type":"Feature"},
	{"geometry":{"coordinates":[8.924477,45.570435],"type":"Point"},"properties":{"osm_id":"2711330292","tag":{"amenity":"waste_basket"}},"type":"Feature"},
	{"geometry":{"coordinates":[8.917203,45.56948],"type":"Point"},"properties":{"osm_id":"2711330333","tag":{"amenity":"waste_basket"}},"type":"Feature"},
	{"geometry":{"coordinates":[8.91679,45.56939],"type":"Point"},"properties":{"osm_id":"2711330335","tag":{"amenity":"waste_basket"}},"type":"Feature"},
	{"geometry":{"coordinates":[8.926703,45.569068],"type":"Point"},"properties":{"osm_id":"2711330418","tag":{"amenity":"waste_basket"}},"type":"Feature"},
	{"geometry":{"coordinates":[8.922095,45.570981],"type":"Point"},"properties":{"osm_id":"2714592321","tag":{"amenity":"waste_basket"}},"type":"Feature"},
	{"geometry":{"coordinates":[8.92639,45.56936],"type":"Point"},"properties":{"osm_id":"2714592371","tag":{"amenity":"waste_basket","description":"It is unclear what colors is representing","waste":"trash; paper; plastic; glass"}},"type":"Feature"},
	{"geometry":{"coordinates":[8.926613,45.569348],"type":"Point"},"properties":{"osm_id":"2727558253","tag":{"amenity":"waste_basket","material":"plastic","waste":"trash;paper;plastic;glass"}},"type":"Feature"},
	{"geometry":{"coordinates":[8.926509,45.569477],"type":"Point"},"properties":{"osm_id":"2727558276","tag":{"amenity":"waste_basket"}},"type":"Feature"},
	{"geometry":{"coordinates":[8.914147,45.563819],"type":"Point"},"properties":{"osm_id":"2778880645","tag":{"amenity":"waste_basket"}},"type":"Feature"},
	{"geometry":{"coordinates":[8.918788,45.563301],"type":"Point"},"properties":{"osm_id":"2835215472","tag":{"amenity":"waste_basket"}},"type":"Feature"},
	{"geometry":{"coordinates":[8.918532,45.562957],"type":"Point"},"properties":{"osm_id":"2835215473","tag":{"amenity":"recycling","recycling:clothes":"yes","recycling_type":"container"}},"type":"Feature"},
	{"geometry":{"coordinates":[8.923388,45.573736],"type":"Point"},"properties":{"osm_id":"2836165536","tag":{"amenity":"recycling","recycling:clothes":"yes","recycling_type":"container"}},"type":"Feature"},
	{"geometry":{"coordinates":[8.913424,45.564525],"type":"Point"},"properties":{"osm_id":"2896595695","tag":{"amenity":"waste_basket"}},"type":"Feature"},
	{"geometry":{"coordinates":[8.913243,45.564502],"type":"Point"},"properties":{"osm_id":"2896595696","tag":{"amenity":"waste_basket"}},"type":"Feature"},
	{"geometry":{"coordinates":[8.913701,45.564588],"type":"Point"},"properties":{"osm_id":"2896595697","tag":{"amenity":"recycling","recycling:clothes":"yes","recycling_type":"container"}},"type":"Feature"},
	{"geometry":{"coordinates":[8.913722,45.564599],"type":"Point"},"properties":{"osm_id":"2896595698","tag":{"amenity":"recycling","recycling:clothes":"yes","recycling_type":"container"}},"type":"Feature"},
	{"geometry":{"coordinates":[8.914616,45.561428],"type":"Point"},"properties":{"osm_id":"2896610155","tag":{"amenity":"waste_basket"}},"type":"Feature"},
	{"geometry":{"coordinates":[8.927012,45.567837],"type":"Point"},"properties":{"osm_id":"2897015850","tag":{"amenity":"waste_basket"}},"type":"Feature"},
	{"geometry":{"coordinates":[8.926916,45.567772],"type":"Point"},"properties":{"osm_id":"2897015851","tag":{"amenity":"recycling","recycling:drugs":"yes","recycling_type":"container"}},"type":"Feature"},
	{"geometry":{"coordinates":[8.923615,45.574333],"type":"Point"},"properties":{"osm_id":"2940792976","tag":{"amenity":"waste_basket"}},"type":"Feature"},
	{"geometry":{"coordinates":[8.924149,45.574467],"type":"Point"},"properties":{"osm_id":"2940792977","tag":{"amenity":"waste_basket"}},"type":"Feature"},
	{"geometry":{"coordinates":[8.932063,45.565488],"type":"Point"},"properties":{"osm_id":"2940792997","tag":{"amenity":"recycling","operator":"Humana","recycling:clothes":"yes","recycling_type":"container"}},"type":"Feature"},
	{"geometry":{"coordinates":[8.93205,45.565483],"type":"Point"},"properties":{"osm_id":"2940792998","tag":{"amenity":"recycling","operator":"Humana","recycling:clothes":"yes","recycling_type":"container"}},"type":"Feature"},
	{"geometry":{"coordinates":[8.945165,45.581905],"type":"Point"},"properties":{"osm_id":"2985811010","tag":{"amenity":"waste_basket"}},"type":"Feature"},
	{"geometry":{"coordinates":[8.924239,45.574382],"type":"Point"},"properties":{"osm_id":"3359261347","tag":{"amenity":"waste_basket"}},"type":"Feature"},
	{"geometry":{"coordinates":[8.945189,45.582269],"type":"Point"},"properties":{"osm_id":"4365353063","tag":{"amenity":"waste_basket"}},"type":"Feature"},
	{"geometry":{"coordinates":[8.944435,45.582586],"type":"Point"},"properties":{"osm_id":"4365354087","tag":{"amenity":"waste_basket"}},"type":"Feature"},
	{"geometry":{"coordinates":[8.937624,45.582315],"type":"Point"},"properties":{"osm_id":"4469815203","tag":{"amenity":"waste_basket"}},"type":"Feature"},
	{"geometry":{"coordinates":[8.945974,45.554257],"type":"Point"},"properties":{"osm_id":"4907188608","tag":{"amenity":"waste_basket"}},"type":"Feature"},
	{"geometry":{"coordinates":[8.945862,45.554332],"type":"Point"},"properties":{"osm_id":"4907188609","tag":{"amenity":"waste_basket"}},"type":"Feature"},
	{"geometry":{"coordinates":[8.945926,45.553778],"type":"Point"},"properties":{"osm_id":"4907188620","tag":{"amenity":"waste_basket"}},"type":"Feature"},
	{"geometry":{"coordinates":[8.948568,45.553677],"type":"Point"},"properties":{"osm_id":"4907188670","tag":{"amenity":"waste_basket"}},"type":"Feature"},
	{"geometry":{"coordinates":[8.948407,45.55365],"type":"Point"},"properties":{"osm_id":"4907188671","tag":{"amenity":"waste_basket"}},"type":"Feature"},
	{"geometry":{"coordinates":[8.949381,45.55316],"type":"Point"},"properties":{"osm_id":"4907188672","tag":{"amenity":"waste_basket"}},"type":"Feature"},
	{"geometry":{"coordinates":[8.95011,45.552679],"type":"Point"},"properties":{"osm_id":"4907188676","tag":{"amenity":"waste_basket"}},"type":"Feature"},
	{"geometry":{"coordinates":[8.949628,45.552326],"type":"Point"},"properties":{"osm_id":"4907188859","tag":{"amenity":"waste_basket"}},"type":"Feature"},
	{"geometry":{"coordinates":[8.949392,45.552159],"type":"Point"},"properties":{"osm_id":"4907188860","tag":{"amenity":"waste_basket"}},"type":"Feature"},
	{"geometry":{"coordinates":[8.948158,45.553288],"type":"Point"},"properties":{"osm_id":"4907188861","tag":{"amenity":"waste_basket"}},"type":"Feature"},
	{"geometry":{"coordinates":[8.948045,45.553378],"type":"Point"},"properties":{"osm_id":"4907188862","tag":{"amenity":"waste_basket"}},"type":"Feature"},
	{"geometry":{"coordinates":[8.947809,45.553228],"type":"Point"},"properties":{"osm_id":"4907188863","tag":{"amenity":"waste_basket"}},"type":"Feature"},
	{"geometry":{"coordinates":[8.946951,45.552717],"type":"Point"},"properties":{"osm_id":"4907188880","tag":{"amenity":"waste_basket"}},"type":"Feature"},
	{"geometry":{"coordinates":[8.946825,45.552756],"type":"Point"},"properties":{"osm_id":"4907188881","tag":{"amenity":"waste_basket"}},"type":"Feature"},
	{"geometry":{"coordinates":[8.94584,45.553464],"type":"Point"},"properties":{"osm_id":"4907188899","tag":{"amenity":"waste_basket"}},"type":"Feature"},
	{"geometry":{"coordinates":[8.94569,45.553459],"type":"Point"},"properties":{"osm_id":"4907188900","tag":{"amenity":"waste_basket"}},"type":"Feature"},
	{"geometry":{"coordinates":[8.946109,45.552741],"type":"Point"},"properties":{"osm_id":"4907188982","tag":{"amenity":"waste_basket"}},"type":"Feature"},
	{"geometry":{"coordinates":[8.946693,45.55243],"type":"Point"},"properties":{"osm_id":"4907188984","tag":{"amenity":"waste_basket"}},"type":"Feature"},
	{"geometry":{"coordinates":[8.946135,45.552578],"type":"Point"},"properties":{"osm_id":"4907188994","tag":{"amenity":"waste_basket"}},"type":"Feature"},
	{"geometry":{"coordinates":[8.945811,45.552771],"type":"Point"},"properties":{"osm_id":"4907188995","tag":{"amenity":"waste_basket"}},"type":"Feature"},
	{"geometry":{"coordinates":[8.946229,45.552848],"type":"Point"},"properties":{"osm_id":"4907188996","tag":{"amenity":"waste_basket"}},"type":"Feature"},
	{"geometry":{"coordinates":[8.926092,45.57087],"type":"Point"},"properties":{"osm_id":"4946793023","tag":{"amenity":"waste_basket"}},"type":"Feature"},
	{"geometry":{"coordinates":[8.926518,45.570477],"type":"Point"},"properties":{"osm_id":"4946793066","tag":{"amenity":"waste_basket"}},"type":"Feature"},
	{"geometry":{"coordinates":[8.929318,45.568892],"type":"Point"},"properties":{"osm_id":"4946793113","tag":{"amenity":"recycling","recycling:batteries":"yes","recycling_type":"container"}},"type":"Feature"},
	{"geometry":{"coordinates":[8.927085,45.569683],"type":"Point"},"properties":{"osm_id":"4946793165","tag":{"amenity":"waste_basket"}},"type":"Feature"},
	{"geometry":{"coordinates":[8.926656,45.569462],"type":"Point"},"properties":{"osm_id":"4946793170","tag":{"amenity":"waste_basket","waste":"trash"}},"type":"Feature"},
	{"geometry":{"coordinates":[8.923787,45.568993],"type":"Point"},"properties":{"osm_id":"5154859199","tag":{"amenity":"waste_basket"}},"type":"Feature"},
	{"geometry":{"coordinates":[8.923567,45.568944],"type":"Point"},"properties":{"osm_id":"5154859201","tag":{"amenity":"waste_basket"}},"type":"Feature"},
	{"geometry":{"coordinates":[8.923476,45.5692],"type":"Point"},"properties":{"osm_id":"5154859208","tag":{"amenity":"waste_basket"}},"type":"Feature"},
	{"geometry":{"coordinates":[8.924053,45.568574],"type":"Point"},"properties":{"osm_id":"5154859209","tag":{"amenity":"waste_basket"}},"type":"Feature"},
	{"geometry":{"coordinates":[8.925413,45.56889],"type":"Point"},"properties":{"osm_id":"5154860196","tag":{"amenity":"waste_basket"}},"type":"Feature"},
	{"geometry":{"coordinates":[8.947739,45.558735],"type":"Point"},"properties":{"osm_id":"5236282652","tag":{"amenity":"waste_basket"}},"type":"Feature"},
	{"geometry":{"coordinates":[8.947713,45.558597],"type":"Point"},"properties":{"osm_id":"5236282653","tag":{"amenity":"waste_basket"}},"type":"Feature"},
	{"geometry":{"coordinates":[8.947877,45.558468],"type":"Point"},"properties":{"osm_id":"5236284208","tag":{"amenity":"waste_basket"}},"type":"Feature"},
	{"geometry":{"coordinates":[8.947444,45.558488],"type":"Point"},"properties":{"osm_id":"5236284625","tag":{"amenity":"waste_basket"}},"type":"Feature"},
	{"geometry":{"coordinates":[8.946584,45.557598],"type":"Point"},"properties":{"osm_id":"5236284881","tag":{"amenity":"waste_basket"}},"type":"Feature"},
	{"geometry":{"coordinates":[8.949158,45.558901],"type":"Point"},"properties":{"osm_id":"5236284889","tag":{"amenity":"waste_basket"}},"type":"Feature"},
	{"geometry":{"coordinates":[8.94885,45.558861],"type":"Point"},"properties":{"osm_id":"5236284890","tag":{"amenity":"waste_basket"}},"type":"Feature"},
	{"geometry":{"coordinates":[8.948259,45.558244],"type":"Point"},"properties":{"osm_id":"5236284891","tag":{"amenity":"waste_basket"}},"type":"Feature"},
	{"geometry":{"coordinates":[8.947496,45.558782],"type":"Point"},"properties":{"osm_id":"5236284892","tag":{"amenity":"waste_basket"}},"type":"Feature"},
	{"geometry":{"coordinates":[8.946803,45.557425],"type":"Point"},"properties":{"osm_id":"5236284894","tag":{"amenity":"waste_basket"}},"type":"Feature"},
	{"geometry":{"coordinates":[8.947438,45.557969],"type":"Point"},"properties":{"osm_id":"5236284895","tag":{"amenity":"waste_basket"}},"type":"Feature"},
	{"geometry":{"coordinates":[8.947308,45.557865],"type":"Point"},"properties":{"osm_id":"5236284896","tag":{"amenity":"waste_basket"}},"type":"Feature"},
	{"geometry":{"coordinates":[8.947825,45.558158],"type":"Point"},"properties":{"osm_id":"5236284897","tag":{"amenity":"waste_basket"}},"type":"Feature"},
	{"geometry":{"coordinates":[8.947762,45.558257],"type":"Point"},"properties":{"osm_id":"5236284898","tag":{"amenity":"waste_basket"}},"type":"Feature"},
	{"geometry":{"coordinates":[8.947436,45.559196],"type":"Point"},"properties":{"osm_id":"5236284899","tag":{"amenity":"waste_basket"}},"type":"Feature"},
	{"geometry":{"coordinates":[8.947608,45.558002],"type":"Point"},"properties":{"osm_id":"5236284903","tag":{"amenity":"waste_basket"}},"type":"Feature"},
	{"geometry":{"coordinates":[8.946758,45.557223],"type":"Point"},"properties":{"osm_id":"5236284945","tag":{"amenity":"waste_basket"}},"type":"Feature"},
	{"geometry":{"coordinates":[8.947563,45.55661],"type":"Point"},"properties":{"osm_id":"5236285049","tag":{"amenity":"waste_basket"}},"type":"Feature"},
	{"geometry":{"coordinates":[8.947337,45.556462],"type":"Point"},"properties":{"osm_id":"5236285050","tag":{"amenity":"waste_basket"}},"type":"Feature"},
	{"geometry":{"coordinates":[8.946278,45.555586],"type":"Point"},"properties":{"osm_id":"5236285128","tag":{"amenity":"waste_basket"}},"type":"Feature"},
	{"geometry":{"coordinates":[8.945891,45.555591],"type":"Point"},"properties":{"osm_id":"5236285134","tag":{"amenity":"recycling","recycling:clothes":"yes","recycling:shoes":"yes","recycling_type":"container"}},"type":"Feature"},
	{"geometry":{"coordinates":[8.941302,45.55717],"type":"Point"},"properties":{"osm_id":"5470633752","tag":{"amenity":"waste_basket"}},"type":"Feature"},
	{"geometry":{"coordinates":[8.942627,45.556753],"type":"Point"},"properties":{"osm_id":"5470633809","tag":{"amenity":"waste_basket"}},"type":"Feature"},
	{"geometry":{"coordinates":[8.942136,45.556141],"type":"Point"},"properties":{"osm_id":"5470634231","tag":{"amenity":"waste_basket"}},"type":"Feature"},
	{"geometry":{"coordinates":[8.941661,45.556308],"type":"Point"},"properties":{"osm_id":"5470635138","tag":{"amenity":"waste_basket"}},"type":"Feature"},
	{"geometry":{"coordinates":[8.941948,45.556503],"type":"Point"},"properties":{"osm_id":"5470635139","tag":{"amenity":"waste_basket"}},"type":"Feature"},
	{"geometry":{"coordinates":[8.94194,45.556267],"type":"Point"},"properties":{"osm_id":"5470635140","tag":{"amenity":"waste_basket"}},"type":"Feature"},
	{"geometry":{"coordinates":[8.925861,45.566854],"type":"Point"},"properties":{"osm_id":"5696287386","tag":{"amenity":"waste_basket"}},"type":"Feature"},
	{"geometry":{"coordinates":[8.922692,45.56772],"type":"Point"},"properties":{"osm_id":"5696288136","tag":{"amenity":"waste_basket"}},"type":"Feature"},
	{"geometry":{"coordinates":[8.945551,45.559129],"type":"Point"},"properties":{"osm_id":"5731931921","tag":{"amenity":"waste_basket"}},"type":"Feature"},
	{"geometry":{"coordinates":[8.944722,45.558557],"type":"Point"},"properties":{"osm_id":"5731931985","tag":{"amenity":"waste_basket"}},"type":"Feature"},
	{"geometry":{"coordinates":[8.946283,45.559365],"type":"Point"},"properties":{"osm_id":"5731932010","tag":{"amenity":"waste_basket"}},"type":"Feature"},
	{"geometry":{"coordinates":[8.946434,45.559331],"type":"Point"},"properties":{"osm_id":"5731932016","tag":{"amenity":"waste_basket"}},"type":"Feature"},
	{"geometry":{"coordinates":[8.943397,45.557183],"type":"Point"},"properties":{"osm_id":"5731932047","tag":{"amenity":"waste_basket"}},"type":"Feature"},
	{"geometry":{"coordinates":[8.945032,45.558203],"type":"Point"},"properties":{"osm_id":"5731932062","tag":{"amenity":"waste_basket"}},"type":"Feature"},
	{"geometry":{"coordinates":[8.94484,45.557976],"type":"Point"},"properties":{"osm_id":"5731932083","tag":{"amenity":"waste_basket"}},"type":"Feature"},
	{"geometry":{"coordinates":[8.945997,45.558956],"type":"Point"},"properties":{"osm_id":"5731932140","tag":{"amenity":"waste_basket"}},"type":"Feature"},
	{"geometry":{"coordinates":[8.946119,45.557685],"type":"Point"},"properties":{"osm_id":"5731932243","tag":{"amenity":"waste_basket"}},"type":"Feature"},
	{"geometry":{"coordinates":[8.945591,45.55739],"type":"Point"},"properties":{"osm_id":"5731932244","tag":{"amenity":"waste_basket"}},"type":"Feature"},
	{"geometry":{"coordinates":[8.945567,45.557318],"type":"Point"},"properties":{"osm_id":"5731932245","tag":{"amenity":"waste_basket"}},"type":"Feature"},
	{"geometry":{"coordinates":[8.913148,45.569678],"type":"Point"},"properties":{"osm_id":"5931308606","tag":{"amenity":"recycling","recycling:clothes":"yes","recycling_type":"container"}},"type":"Feature"},
	{"geometry":{"coordinates":[8.926823,45.569155],"type":"Point"},"properties":{"osm_id":"5933894951","tag":{"amenity":"waste_basket","colour":"white;blue;green;yellow","material":"plastic"}},"type":"Feature"},
	{"geometry":{"coordinates":[8.931824,45.565948],"type":"Point"},"properties":{"osm_id":"6057147304","tag":{"amenity":"waste_basket"}},"type":"Feature"},
	{"geometry":{"coordinates":[8.942093,45.553891],"type":"Point"},"properties":{"osm_id":"6068037706","tag":{"amenity":"waste_basket"}},"type":"Feature"},
	{"geometry":{"coordinates":[8.941991,45.55196],"type":"Point"},"properties":{"osm_id":"6068037768","tag":{"amenity":"waste_basket"}},"type":"Feature"},
	{"geometry":{"coordinates":[8.945175,45.552649],"type":"Point"},"properties":{"osm_id":"6068038098","tag":{"amenity":"waste_basket"}},"type":"Feature"},
	{"geometry":{"coordinates":[8.945097,45.552484],"type":"Point"},"properties":{"osm_id":"6068038099","tag":{"amenity":"waste_basket"}},"type":"Feature"},
	{"geometry":{"coordinates":[8.945029,45.552308],"type":"Point"},"properties":{"osm_id":"6068038100","tag":{"amenity":"waste_basket"}},"type":"Feature"},
	{"geometry":{"coordinates":[8.944999,45.551816],"type":"Point"},"properties":{"osm_id":"6068038123","tag":{"amenity":"waste_basket"}},"type":"Feature"},
	{"geometry":{"coordinates":[8.944806,45.551853],"type":"Point"},"properties":{"osm_id":"6068038124","tag":{"amenity":"waste_basket"}},"type":"Feature"},
	{"geometry":{"coordinates":[8.945433,45.552578],"type":"Point"},"properties":{"osm_id":"6068038136","tag":{"amenity":"waste_basket"}},"type":"Feature"},
	{"geometry":{"coordinates":[8.945382,45.552535],"type":"Point"},"properties":{"osm_id":"6068038137","tag":{"amenity":"waste_basket"}},"type":"Feature"},
	{"geometry":{"coordinates":[8.945331,45.552435],"type":"Point"},"properties":{"osm_id":"6068038138","tag":{"amenity":"waste_basket"}},"type":"Feature"},
	{"geometry":{"coordinates":[8.945325,45.551981],"type":"Point"},"properties":{"osm_id":"6068038142","tag":{"amenity":"waste_basket"}},"type":"Feature"},
	{"geometry":{"coordinates":[8.898891,45.579115],"type":"Point"},"properties":{"osm_id":"6797214141","tag":{"amenity":"waste_basket","waste":"trash"}},"type":"Feature"},
	{"geometry":{"coordinates":[8.924774,45.566312],"type":"Point"},"properties":{"osm_id":"6957339739","tag":{"amenity":"waste_basket"}},"type":"Feature"},
	{"geometry":{"coordinates":[8.925835,45.569018],"type":"Point"},"properties":{"osm_id":"6966061429","tag":{"amenity":"waste_basket","waste":"cigarettes"}},"type":"Feature"},
	{"geometry":{"coordinates":[8.946134,45.555239],"type":"Point"},"properties":{"osm_id":"6966142431","tag":{"amenity":"waste_basket"}},"type":"Feature"},
	{"geometry":{"coordinates":[8.943465,45.559388],"type":"Point"},"properties":{"osm_id":"6966293708","tag":{"amenity":"waste_basket"}},"type":"Feature"},
	{"geometry":{"coordinates":[8.942302,45.560257],"type":"Point"},"properties":{"osm_id":"6966294253","tag":{"amenity":"waste_basket","waste":"cigarettes; trash"}},"type":"Feature"},
	{"geometry":{"coordinates":[8.94266,45.56004],"type":"Point"},"properties":{"osm_id":"6966309711","tag":{"amenity":"waste_basket"}},"type":"Feature"},
	{"geometry":{"coordinates":[8.926698,45.569376],"type":"Point"},"properties":{"osm_id":"6966742392","tag":{"amenity":"waste_basket","waste":"trash"}},"type":"Feature"},
	{"geometry":{"coordinates":[8.926633,45.569449],"type":"Point"},"properties":{"osm_id":"6968732168","tag":{"amenity":"waste_basket","waste":"battery"}},"type":"Feature"},
	{"geometry":{"coordinates":[8.92514,45.571725],"type":"Point"},"properties":{"osm_id":"7065880619","tag":{"amenity":"recycling","fee":"no","operator":"Humana","recycling:clothes":"yes","recycling_type":"container"}},"type":"Feature"},
	{"geometry":{"coordinates":[8.950883,45.556986],"type":"Point"},"properties":{"osm_id":"7823245464","tag":{"amenity":"waste_basket"}},"type":"Feature"},
	{"geometry":{"coordinates":[8.95077,45.556941],"type":"Point"},"properties":{"osm_id":"7823245465","tag":{"amenity":"waste_basket"}},"type":"Feature"},
	{"geometry":{"coordinates":[8.951028,45.556693],"type":"Point"},"properties":{"osm_id":"7823245466","tag":{"amenity":"waste_basket"}},"type":"Feature"},
	{"geometry":{"coordinates":[8.95032,45.556704],"type":"Point"},"properties":{"osm_id":"7823245467","tag":{"amenity":"waste_basket"}},"type":"Feature"},
	{"geometry":{"coordinates":[8.95073,45.55643],"type":"Point"},"properties":{"osm_id":"7823245468","tag":{"amenity":"waste_basket"}},"type":"Feature"},
	{"geometry":{"coordinates":[8.950164,45.556597],"type":"Point"},"properties":{"osm_id":"7823245469","tag":{"amenity":"waste_basket"}},"type":"Feature"},
	{"geometry":{"coordinates":[8.9529,45.554079],"type":"Point"},"properties":{"osm_id":"7823256726","tag":{"amenity":"waste_basket"}},"type":"Feature"},
	{"geometry":{"coordinates":[8.925558,45.569224],"type":"Point"},"properties":{"osm_id":"7887900807","tag":{"amenity":"waste_basket","colour":"grey","covered":"no","indoor":"no","material":"steel","waste":"trash"}},"type":"Feature"}
]
}
