{
"type": "FeatureCollection",
"features": [
	{"geometry":{"coordinates":[-72.53588,18.233444],"type":"Point"},"properties":{"osm_id":"616871541","tag":{"natural":"tree"}},"type":"Feature"},
	{"geometry":{"coordinates":[-72.535607,18.233288],"type":"Point"},"properties":{"osm_id":"616871562","tag":{"natural":"tree"}},"type":"Feature"},
	{"geometry":{"coordinates":[-72.535592,18.233215],"type":"Point"},"properties":{"osm_id":"616871563","tag":{"natural":"tree"}},"type":"Feature"},
	{"geometry":{"coordinates":[-72.535774,18.233389],"type":"Point"},"properties":{"osm_id":"616871565","tag":{"natural":"tree"}},"type":"Feature"},
	{"geometry":{"coordinates":[-72.54218,18.237187],"type":"Point"},"properties":{"osm_id":"635506316","tag":{"natural":"tree"}},"type":"Feature"},
	{"geometry":{"coordinates":[-72.541461,18.238113],"type":"Point"},"properties":{"osm_id":"635525500","tag":{"natural":"tree"}},"type":"Feature"},
	{"geometry":{"coordinates":[-72.541503,18.238236],"type":"Point"},"properties":{"osm_id":"635525508","tag":{"natural":"tree"}},"type":"Feature"},
	{"geometry":{"coordinates":[-72.541091,18.237438],"type":"Point"},"properties":{"osm_id":"635525521","tag":{"natural":"tree"}},"type":"Feature"},
	{"geometry":{"coordinates":[-72.541171,18.237614],"type":"Point"},"properties":{"osm_id":"635525528","tag":{"natural":"tree"}},"type":"Feature"},
	{"geometry":{"coordinates":[-72.541115,18.237616],"type":"Point"},"properties":{"osm_id":"635525529","tag":{"natural":"tree"}},"type":"Feature"},
	{"geometry":{"coordinates":[-72.54124,18.237951],"type":"Point"},"properties":{"osm_id":"635525547","tag":{"natural":"tree"}},"type":"Feature"},
	{"geometry":{"coordinates":[-72.541244,18.237776],"type":"Point"},"properties":{"osm_id":"635525548","tag":{"natural":"tree"}},"type":"Feature"},
	{"geometry":{"coordinates":[-72.542003,18.237861],"type":"Point"},"properties":{"osm_id":"635814600","tag":{"natural":"tree"}},"type":"Feature"},
	{"geometry":{"coordinates":[-72.541544,18.238633],"type":"Point"},"properties":{"osm_id":"635814613","tag":{"natural":"tree"}},"type":"Feature"},
	{"geometry":{"coordinates":[-72.54133,18.238655],"type":"Point"},"properties":{"osm_id":"635814614","tag":{"natural":"tree"}},"type":"Feature"},
	{"geometry":{"coordinates":[-72.54134,18.23875],"type":"Point"},"properties":{"osm_id":"635814629","tag":{"natural":"tree"}},"type":"Feature"},
	{"geometry":{"coordinates":[-72.542596,18.237611],"type":"Point"},"properties":{"osm_id":"635814790","tag":{"natural":"tree"}},"type":"Feature"},
	{"geometry":{"coordinates":[-72.535486,18.232785],"type":"Point"},"properties":{"osm_id":"635816378","tag":{"natural":"tree"}},"type":"Feature"},
	{"geometry":{"coordinates":[-72.536703,18.23363],"type":"Point"},"properties":{"osm_id":"635816379","tag":{"natural":"tree"}},"type":"Feature"},
	{"geometry":{"coordinates":[-72.536641,18.233741],"type":"Point"},"properties":{"osm_id":"635816380","tag":{"natural":"tree"}},"type":"Feature"},
	{"geometry":{"coordinates":[-72.535956,18.23365],"type":"Point"},"properties":{"osm_id":"635816381","tag":{"natural":"tree"}},"type":"Feature"},
	{"geometry":{"coordinates":[-72.536686,18.23377],"type":"Point"},"properties":{"osm_id":"635816383","tag":{"building":"yes","natural":"tree"}},"type":"Feature"},
	{"geometry":{"coordinates":[-72.53577,18.233764],"type":"Point"},"properties":{"osm_id":"635816384","tag":{"natural":"tree"}},"type":"Feature"},
	{"geometry":{"coordinates":[-72.531204,18.235507],"type":"Point"},"properties":{"osm_id":"636909382","tag":{"natural":"tree"}},"type":"Feature"},
	{"geometry":{"coordinates":[-72.531192,18.235463],"type":"Point"},"properties":{"osm_id":"636909385","tag":{"natural":"tree"}},"type":"Feature"},
	{"geometry":{"coordinates":[-72.531555,18.23577],"type":"Point"},"properties":{"osm_id":"636909388","tag":{"natural":"tree"}},"type":"Feature"},
	{"geometry":{"coordinates":[-72.531615,18.235876],"type":"Point"},"properties":{"osm_id":"636909390","tag":{"natural":"tree"}},"type":"Feature"},
	{"geometry":{"coordinates":[-72.531276,18.235716],"type":"Point"},"properties":{"osm_id":"636909393","tag":{"natural":"tree"}},"type":"Feature"},
	{"geometry":{"coordinates":[-72.531196,18.235659],"type":"Point"},"properties":{"osm_id":"636909397","tag":{"natural":"tree"}},"type":"Feature"},
	{"geometry":{"coordinates":[-72.531137,18.2356],"type":"Point"},"properties":{"osm_id":"636909399","tag":{"natural":"tree"}},"type":"Feature"},
	{"geometry":{"coordinates":[-72.53114,18.235675],"type":"Point"},"properties":{"osm_id":"636909402","tag":{"natural":"tree"}},"type":"Feature"},
	{"geometry":{"coordinates":[-72.53125,18.235639],"type":"Point"},"properties":{"osm_id":"636909405","tag":{"natural":"tree"}},"type":"Feature"},
	{"geometry":{"coordinates":[-72.531034,18.235525],"type":"Point"},"properties":{"osm_id":"636909407","tag":{"natural":"tree"}},"type":"Feature"},
	{"geometry":{"coordinates":[-72.530923,18.23569],"type":"Point"},"properties":{"osm_id":"636909408","tag":{"natural":"tree"}},"type":"Feature"},
	{"geometry":{"coordinates":[-72.531005,18.23567],"type":"Point"},"properties":{"osm_id":"636909409","tag":{"natural":"tree"}},"type":"Feature"},
	{"geometry":{"coordinates":[-72.530691,18.235693],"type":"Point"},"properties":{"osm_id":"636909411","tag":{"natural":"tree"}},"type":"Feature"},
	{"geometry":{"coordinates":[-72.531441,18.236066],"type":"Point"},"properties":{"osm_id":"636909414","tag":{"natural":"tree"}},"type":"Feature"},
	{"geometry":{"coordinates":[-72.531552,18.236195],"type":"Point"},"properties":{"osm_id":"636909421","tag":{"natural":"tree"}},"type":"Feature"},
	{"geometry":{"coordinates":[-72.531469,18.236165],"type":"Point"},"properties":{"osm_id":"636909424","tag":{"natural":"tree"}},"type":"Feature"},
	{"geometry":{"coordinates":[-72.531418,18.236129],"type":"Point"},"properties":{"osm_id":"636909427","tag":{"natural":"tree"}},"type":"Feature"},
	{"geometry":{"coordinates":[-72.531271,18.235987],"type":"Point"},"properties":{"osm_id":"636909430","tag":{"natural":"tree"}},"type":"Feature"},
	{"geometry":{"coordinates":[-72.531307,18.2362],"type":"Point"},"properties":{"osm_id":"636909433","tag":{"natural":"tree"}},"type":"Feature"},
	{"geometry":{"coordinates":[-72.531383,18.236162],"type":"Point"},"properties":{"osm_id":"636909436","tag":{"natural":"tree"}},"type":"Feature"},
	{"geometry":{"coordinates":[-72.531207,18.236232],"type":"Point"},"properties":{"osm_id":"636909439","tag":{"natural":"tree"}},"type":"Feature"},
	{"geometry":{"coordinates":[-72.531656,18.236446],"type":"Point"},"properties":{"osm_id":"636909441","tag":{"natural":"tree"}},"type":"Feature"},
	{"geometry":{"coordinates":[-72.53171,18.23632],"type":"Point"},"properties":{"osm_id":"636909443","tag":{"natural":"tree"}},"type":"Feature"},
	{"geometry":{"coordinates":[-72.531662,18.236278],"type":"Point"},"properties":{"osm_id":"636909448","tag":{"natural":"tree"}},"type":"Feature"},
	{"geometry":{"coordinates":[-72.531536,18.236332],"type":"Point"},"properties":{"osm_id":"636909451","tag":{"natural":"tree"}},"type":"Feature"},
	{"geometry":{"coordinates":[-72.531606,18.236332],"type":"Point"},"properties":{"osm_id":"636909455","tag":{"natural":"tree"}},"type":"Feature"},
	{"geometry":{"coordinates":[-72.531418,18.236278],"type":"Point"},"properties":{"osm_id":"636909457","tag":{"natural":"tree"}},"type":"Feature"},
	{"geometry":{"coordinates":[-72.531408,18.236494],"type":"Point"},"properties":{"osm_id":"636909461","tag":{"natural":"tree"}},"type":"Feature"},
	{"geometry":{"coordinates":[-72.531353,18.236399],"type":"Point"},"properties":{"osm_id":"636909463","tag":{"natural":"tree"}},"type":"Feature"},
	{"geometry":{"coordinates":[-72.531189,18.236288],"type":"Point"},"properties":{"osm_id":"636909465","tag":{"natural":"tree"}},"type":"Feature"},
	{"geometry":{"coordinates":[-72.531187,18.236328],"type":"Point"},"properties":{"osm_id":"636909466","tag":{"natural":"tree"}},"type":"Feature"},
	{"geometry":{"coordinates":[-72.530766,18.236351],"type":"Point"},"properties":{"osm_id":"636909492","tag":{"natural":"tree"}},"type":"Feature"},
	{"geometry":{"coordinates":[-72.530384,18.236304],"type":"Point"},"properties":{"osm_id":"636909494","tag":{"natural":"tree"}},"type":"Feature"},
	{"geometry":{"coordinates":[-72.530636,18.236312],"type":"Point"},"properties":{"osm_id":"636909499","tag":{"natural":"tree"}},"type":"Feature"},
	{"geometry":{"coordinates":[-72.530688,18.23648],"type":"Point"},"properties":{"osm_id":"636909503","tag":{"natural":"tree"}},"type":"Feature"},
	{"geometry":{"coordinates":[-72.531705,18.236681],"type":"Point"},"properties":{"osm_id":"636909505","tag":{"natural":"tree"}},"type":"Feature"},
	{"geometry":{"coordinates":[-72.531652,18.236645],"type":"Point"},"properties":{"osm_id":"636909509","tag":{"natural":"tree"}},"type":"Feature"},
	{"geometry":{"coordinates":[-72.531255,18.236635],"type":"Point"},"properties":{"osm_id":"636909513","tag":{"natural":"tree"}},"type":"Feature"},
	{"geometry":{"coordinates":[-72.531257,18.236829],"type":"Point"},"properties":{"osm_id":"636909515","tag":{"natural":"tree"}},"type":"Feature"},
	{"geometry":{"coordinates":[-72.531121,18.236847],"type":"Point"},"properties":{"osm_id":"636909517","tag":{"natural":"tree"}},"type":"Feature"},
	{"geometry":{"coordinates":[-72.531106,18.23691],"type":"Point"},"properties":{"osm_id":"636909520","tag":{"natural":"tree"}},"type":"Feature"},
	{"geometry":{"coordinates":[-72.530899,18.236799],"type":"Point"},"properties":{"osm_id":"636909523","tag":{"natural":"tree"}},"type":"Feature"},
	{"geometry":{"coordinates":[-72.530355,18.236137],"type":"Point"},"properties":{"osm_id":"636909525","tag":{"natural":"tree"}},"type":"Feature"},
	{"geometry":{"coordinates":[-72.530356,18.23624],"type":"Point"},"properties":{"osm_id":"636909530","tag":{"natural":"tree"}},"type":"Feature"},
	{"geometry":{"coordinates":[-72.53003,18.236224],"type":"Point"},"properties":{"osm_id":"636909532","tag":{"natural":"tree"}},"type":"Feature"},
	{"geometry":{"coordinates":[-72.529904,18.236235],"type":"Point"},"properties":{"osm_id":"636909536","tag":{"natural":"tree"}},"type":"Feature"},
	{"geometry":{"coordinates":[-72.53019,18.236116],"type":"Point"},"properties":{"osm_id":"636909537","tag":{"natural":"tree"}},"type":"Feature"},
	{"geometry":{"coordinates":[-72.530355,18.235977],"type":"Point"},"properties":{"osm_id":"636909539","tag":{"natural":"tree"}},"type":"Feature"},
	{"geometry":{"coordinates":[-72.530286,18.236446],"type":"Point"},"properties":{"osm_id":"636909540","tag":{"natural":"tree"}},"type":"Feature"},
	{"geometry":{"coordinates":[-72.53033,18.236351],"type":"Point"},"properties":{"osm_id":"636909541","tag":{"natural":"tree"}},"type":"Feature"},
	{"geometry":{"coordinates":[-72.530036,18.236363],"type":"Point"},"properties":{"osm_id":"636909543","tag":{"natural":"tree"}},"type":"Feature"},
	{"geometry":{"coordinates":[-72.529994,18.236284],"type":"Point"},"properties":{"osm_id":"636909545","tag":{"natural":"tree"}},"type":"Feature"},
	{"geometry":{"coordinates":[-72.529834,18.236379],"type":"Point"},"properties":{"osm_id":"636909549","tag":{"natural":"tree"}},"type":"Feature"},
	{"geometry":{"coordinates":[-72.529868,18.23642],"type":"Point"},"properties":{"osm_id":"636909551","tag":{"natural":"tree"}},"type":"Feature"},
	{"geometry":{"coordinates":[-72.529886,18.236351],"type":"Point"},"properties":{"osm_id":"636909554","tag":{"natural":"tree"}},"type":"Feature"},
	{"geometry":{"coordinates":[-72.531483,18.234696],"type":"Point"},"properties":{"osm_id":"636917808","tag":{"natural":"tree"}},"type":"Feature"},
	{"geometry":{"coordinates":[-72.531387,18.234837],"type":"Point"},"properties":{"osm_id":"636917811","tag":{"natural":"tree"}},"type":"Feature"},
	{"geometry":{"coordinates":[-72.531334,18.235007],"type":"Point"},"properties":{"osm_id":"636917812","tag":{"natural":"tree"}},"type":"Feature"},
	{"geometry":{"coordinates":[-72.531117,18.234968],"type":"Point"},"properties":{"osm_id":"636917813","tag":{"natural":"tree"}},"type":"Feature"},
	{"geometry":{"coordinates":[-72.530829,18.234682],"type":"Point"},"properties":{"osm_id":"636917815","tag":{"natural":"tree"}},"type":"Feature"},
	{"geometry":{"coordinates":[-72.530618,18.235076],"type":"Point"},"properties":{"osm_id":"636917819","tag":{"natural":"tree"}},"type":"Feature"},
	{"geometry":{"coordinates":[-72.530604,18.235195],"type":"Point"},"properties":{"osm_id":"636917821","tag":{"natural":"tree"}},"type":"Feature"},
	{"geometry":{"coordinates":[-72.530382,18.235473],"type":"Point"},"properties":{"osm_id":"636917824","tag":{"natural":"tree"}},"type":"Feature"},
	{"geometry":{"coordinates":[-72.530443,18.235365],"type":"Point"},"properties":{"osm_id":"636917825","tag":{"natural":"tree"}},"type":"Feature"},
	{"geometry":{"coordinates":[-72.530679,18.235351],"type":"Point"},"properties":{"osm_id":"636917826","tag":{"natural":"tree"}},"type":"Feature"},
	{"geometry":{"coordinates":[-72.53044,18.235656],"type":"Point"},"properties":{"osm_id":"636917828","tag":{"natural":"tree"}},"type":"Feature"},
	{"geometry":{"coordinates":[-72.529858,18.235404],"type":"Point"},"properties":{"osm_id":"636917836","tag":{"natural":"tree"}},"type":"Feature"},
	{"geometry":{"coordinates":[-72.530246,18.235789],"type":"Point"},"properties":{"osm_id":"636917838","tag":{"natural":"tree"}},"type":"Feature"},
	{"geometry":{"coordinates":[-72.530226,18.235745],"type":"Point"},"properties":{"osm_id":"636917840","tag":{"natural":"tree"}},"type":"Feature"},
	{"geometry":{"coordinates":[-72.530157,18.23565],"type":"Point"},"properties":{"osm_id":"636917842","tag":{"natural":"tree"}},"type":"Feature"},
	{"geometry":{"coordinates":[-72.530077,18.235662],"type":"Point"},"properties":{"osm_id":"636917843","tag":{"natural":"tree"}},"type":"Feature"},
	{"geometry":{"coordinates":[-72.530038,18.2357],"type":"Point"},"properties":{"osm_id":"636917844","tag":{"natural":"tree"}},"type":"Feature"},
	{"geometry":{"coordinates":[-72.530068,18.235606],"type":"Point"},"properties":{"osm_id":"636917846","tag":{"natural":"tree"}},"type":"Feature"},
	{"geometry":{"coordinates":[-72.53932,18.24082],"type":"Point"},"properties":{"osm_id":"1125053674","tag":{"height":"10m25","name:botanical":"manguier","natural":"tree"}},"type":"Feature"},
	{"geometry":{"coordinates":[-72.53912,18.240756],"type":"Point"},"properties":{"osm_id":"1125053705","tag":{"height":"10m25","name:botanical":"manguier","natural":"tree"}},"type":"Feature"},
	{"geometry":{"coordinates":[-72.53932,18.240754],"type":"Point"},"properties":{"osm_id":"1125053713","tag":{"height":"10m25","name:botanical":"manguier","natural":"tree"}},"type":"Feature"},
	{"geometry":{"coordinates":[-72.53935,18.240839],"type":"Point"},"properties":{"osm_id":"1125053745","tag":{"height":"10m25","name:botanical":"manguier","natural":"tree"}},"type":"Feature"},
	{"geometry":{"coordinates":[-72.539281,18.240792],"type":"Point"},"properties":{"osm_id":"1125053770","tag":{"height":"10m25","name:botanical":"manguier","natural":"tree"}},"type":"Feature"},
	{"geometry":{"coordinates":[-72.539132,18.240814],"type":"Point"},"properties":{"osm_id":"1125053794","tag":{"height":"10m25","name:botanical":"manguier","natural":"tree"}},"type":"Feature"},
	{"geometry":{"coordinates":[-72.539312,18.240727],"type":"Point"},"properties":{"osm_id":"1125053802","tag":{"height":"10m25","name:botanical":"manguier","natural":"tree"}},"type":"Feature"},
	{"geometry":{"coordinates":[-72.533158,18.239647],"type":"Point"},"properties":{"osm_id":"1133040348","tag":{"height":"15m75","name:botanical":"manguier","natural":"tree"}},"type":"Feature"},
	{"geometry":{"coordinates":[-72.531686,18.239636],"type":"Point"},"properties":{"osm_id":"1133040474","tag":{"height":"25m75","name:botanical":"rangoule","natural":"tree"}},"type":"Feature"},
	{"geometry":{"coordinates":[-72.522888,18.233347],"type":"Point"},"properties":{"osm_id":"1137579623","tag":{"height":"20m50","name:botanical":"cocotier","natural":"tree"}},"type":"Feature"},
	{"geometry":{"coordinates":[-72.521879,18.246926],"type":"Point"},"properties":{"osm_id":"1146369405","tag":{"addr:city":"jacmel","addr:country":"HT","addr:street":"rue beaudouin","natural":"tree"}},"type":"Feature"},
	{"geometry":{"coordinates":[-72.522261,18.246227],"type":"Point"},"properties":{"name":"manguier","osm_id":"1146369928","tag":{"addr:city":"jacmel","addr:country":"HT","addr:street":"rue beaudouin","natural":"tree"}},"type":"Feature"},
	{"geometry":{"coordinates":[-72.522216,18.246509],"type":"Point"},"properties":{"name":"l'arbre veritable","osm_id":"1146370791","tag":{"addr:city":"jacmel","addr:country":"HT","addr:street":"rue beaudouin","natural":"tree"}},"type":"Feature"},
	{"geometry":{"coordinates":[-72.522058,18.246866],"type":"Point"},"properties":{"osm_id":"1146372927","tag":{"addr:city":"jacmel","addr:country":"HT","addr:street":"rue beaudouin","natural":"tree"}},"type":"Feature"},
	{"geometry":{"coordinates":[-72.522568,18.246464],"type":"Point"},"properties":{"name":"corossole","osm_id":"1146383836","tag":{"addr:city":"jacmel","addr:country":"HT","addr:street":"rue beaudouin","natural":"tree"}},"type":"Feature"},
	{"geometry":{"coordinates":[-72.522714,18.246768],"type":"Point"},"properties":{"name":"citronnier","osm_id":"1146383952","tag":{"addr:city":"jacmel","addr:country":"HT","addr:street":"beaudouin","natural":"tree"}},"type":"Feature"},
	{"geometry":{"coordinates":[-72.522226,18.247074],"type":"Point"},"properties":{"osm_id":"1146384940","tag":{"addr:city":"jacmel","addr:country":"HT","addr:street":"rue beaudouin","natural":"tree"}},"type":"Feature"},
	{"geometry":{"coordinates":[-72.522209,18.24645],"type":"Point"},"properties":{"osm_id":"1146386596","tag":{"addr:city":"jacmel","addr:country":"HT","addr:street":"rue beaudouin","natural":"tree"}},"type":"Feature"},
	{"geometry":{"coordinates":[-72.522413,18.246473],"type":"Point"},"properties":{"name":"l'arbre veritable","osm_id":"1146387286","tag":{"addr:city":"jacmel","addr:country":"HT","addr:street":"rue beaudouin","natural":"tree"}},"type":"Feature"},
	{"geometry":{"coordinates":[-72.522491,18.246417],"type":"Point"},"properties":{"name":"l'arbre veritable","osm_id":"1146387410","tag":{"addr:city":"jacmel","addr:country":"HT","addr:street":"rue beaudouin","natural":"tree"}},"type":"Feature"},
	{"geometry":{"coordinates":[-72.52218,18.246995],"type":"Point"},"properties":{"name":"avocatier","osm_id":"1146388129","tag":{"addr:city":"jacmel","addr:country":"HT","addr:street":"rue beaudouin","natural":"tree"}},"type":"Feature"},
	{"geometry":{"coordinates":[-72.522606,18.246334],"type":"Point"},"properties":{"name":"l'arbre veritable","osm_id":"1146388293","tag":{"addr:city":"jacmel","addr:country":"HT","addr:street":"rue beaudouin","natural":"tree"}},"type":"Feature"},
	{"geometry":{"coordinates":[-72.522499,18.246661],"type":"Point"},"properties":{"name":"manguier","osm_id":"1146388977","tag":{"addr:city":"jacmel","addr:country":"HT","addr:street":"rue beaudouin","natural":"tree"}},"type":"Feature"},
	{"geometry":{"coordinates":[-72.522178,18.247004],"type":"Point"},"properties":{"name":"manguier","osm_id":"1146390567","tag":{"addr:city":"jacmel","addr:country":"HT","addr:street":"rue beaudouin","natural":"tree"}},"type":"Feature"},
	{"geometry":{"coordinates":[-72.522163,18.246249],"type":"Point"},"properties":{"osm_id":"1146391271","tag":{"addr:city":"jacmel","addr:country":"HT","addr:street":"rue beaudouin","natural":"tree"}},"type":"Feature"},
	{"geometry":{"coordinates":[-72.522484,18.246616],"type":"Point"},"properties":{"name":"l'arbre veritable","osm_id":"1146392487","tag":{"addr:city":"jacmel","addr:country":"HT","addr:street":"rue beaudouin","natural":"tree"}},"type":"Feature"},
	{"geometry":{"coordinates":[-72.522496,18.246486],"type":"Point"},"properties":{"name":"l'arbre veritable","osm_id":"1146392610","tag":{"addr:city":"jacmel","addr:country":"HT","addr:street":"rue beaudouin","natural":"tree"}},"type":"Feature"},
	{"geometry":{"coordinates":[-72.522179,18.246987],"type":"Point"},"properties":{"name":"corossole","osm_id":"1146393677","tag":{"addr:city":"jacmel","addr:country":"HT","addr:street":"rue beaudouin","natural":"tree"}},"type":"Feature"},
	{"geometry":{"coordinates":[-72.522755,18.246671],"type":"Point"},"properties":{"osm_id":"1146393710","tag":{"natural":"tree"}},"type":"Feature"},
	{"geometry":{"coordinates":[-72.522633,18.247174],"type":"Point"},"properties":{"osm_id":"1146394189","tag":{"natural":"tree"}},"type":"Feature"},
	{"geometry":{"coordinates":[-72.522258,18.246389],"type":"Point"},"properties":{"name":"l'arbre veritable","osm_id":"1146395021","tag":{"addr:city":"jacmel","addr:country":"HT","addr:street":"rue beaudouin","natural":"tree"}},"type":"Feature"},
	{"geometry":{"coordinates":[-72.522585,18.246298],"type":"Point"},"properties":{"name":"l'arbre veritable","osm_id":"1146416075","tag":{"addr:city":"jacmel","addr:country":"HT","addr:street":"rue beaudouin","natural":"tree"}},"type":"Feature"},
	{"geometry":{"coordinates":[-72.522391,18.246201],"type":"Point"},"properties":{"name":"palmier","osm_id":"1146416736","tag":{"addr:city":"jacmel","addr:country":"HT","addr:street":"rue beaudouin","natural":"tree"}},"type":"Feature"},
	{"geometry":{"coordinates":[-72.522642,18.246447],"type":"Point"},"properties":{"name":"l'arbre veritable","osm_id":"1146416780","tag":{"addr:city":"jacmel","addr:country":"HT","addr:street":"rue beaudouin","natural":"tree"}},"type":"Feature"},
	{"geometry":{"coordinates":[-72.522714,18.246403],"type":"Point"},"properties":{"name":"oranger","osm_id":"1146417366","tag":{"addr:city":"jacmel","addr:country":"HT","addr:street":"rue beaudouin","natural":"tree"}},"type":"Feature"},
	{"geometry":{"coordinates":[-72.522117,18.246286],"type":"Point"},"properties":{"name":"manguier","osm_id":"1146418254","tag":{"addr:city":"jacmel","addr:country":"HT","addr:street":"rue beaudouin","natural":"tree"}},"type":"Feature"},
	{"geometry":{"coordinates":[-72.522221,18.246309],"type":"Point"},"properties":{"name":"l'arbre veritable","osm_id":"1146418675","tag":{"addr:city":"jacmel","addr:country":"HT","addr:street":"rue beaudouin","natural":"tree"}},"type":"Feature"},
	{"geometry":{"coordinates":[-72.522352,18.246552],"type":"Point"},"properties":{"name":"l'arbre veritable","osm_id":"1146419056","tag":{"addr:city":"jacmel","addr:country":"HT","addr:street":"rue beaudouin","natural":"tree"}},"type":"Feature"},
	{"geometry":{"coordinates":[-72.522474,18.246695],"type":"Point"},"properties":{"name":"palmier","osm_id":"1146420073","tag":{"addr:city":"jacmel","addr:country":"HT","addr:street":"rue beaudouin","natural":"tree"}},"type":"Feature"},
	{"geometry":{"coordinates":[-72.522057,18.246827],"type":"Point"},"properties":{"osm_id":"1146420580","tag":{"addr:city":"jacmel","addr:country":"HT","addr:street":"rue beaudouin","natural":"tree"}},"type":"Feature"},
	{"geometry":{"coordinates":[-72.522445,18.246174],"type":"Point"},"properties":{"name":"l'arbre veritable","osm_id":"1146423235","tag":{"addr:city":"jacmel","addr:country":"HT","addr:street":"rue beaudouin","natural":"tree"}},"type":"Feature"},
	{"geometry":{"coordinates":[-72.522578,18.246444],"type":"Point"},"properties":{"name":"l'arbre veritable","osm_id":"1146423670","tag":{"addr:city":"jacmel","addr:country":"HT","addr:street":"rue beaudouin","natural":"tree"}},"type":"Feature"},
	{"geometry":{"coordinates":[-72.522238,18.24614],"type":"Point"},"properties":{"name":"manguier","osm_id":"1146424391","tag":{"addr:city":"jacmel","addr:country":"HT","addr:street":"rue beaudouin","natural":"tree"}},"type":"Feature"},
	{"geometry":{"coordinates":[-72.522427,18.246328],"type":"Point"},"properties":{"name":"manguier","osm_id":"1146424948","tag":{"addr:city":"jacmel","addr:country":"HT","addr:street":"rue beaudouin","natural":"tree"}},"type":"Feature"},
	{"geometry":{"coordinates":[-72.522361,18.246649],"type":"Point"},"properties":{"name":"l'arbre veritable","osm_id":"1146425273","tag":{"addr:city":"jacmel","addr:country":"HT","addr:street":"rue beaudouin","natural":"tree"}},"type":"Feature"},
	{"geometry":{"coordinates":[-72.522257,18.246387],"type":"Point"},"properties":{"name":"palmier","osm_id":"1146425803","tag":{"addr:city":"jacmel","addr:country":"HT","addr:street":"rue beaudouin","natural":"tree"}},"type":"Feature"},
	{"geometry":{"coordinates":[-72.522192,18.246628],"type":"Point"},"properties":{"name":"oranger","osm_id":"1146426316","tag":{"addr:city":"jacmel","addr:country":"HT","addr:street":"rue beaudouin","natural":"tree"}},"type":"Feature"},
	{"geometry":{"coordinates":[-72.521592,18.246984],"type":"Point"},"properties":{"name":"manguier","osm_id":"1146427126","tag":{"addr:city":"jacmel","addr:country":"HT","addr:street":"rue beaudouin","natural":"tree"}},"type":"Feature"},
	{"geometry":{"coordinates":[-72.522202,18.246683],"type":"Point"},"properties":{"name":"l'arbre veritable","osm_id":"1146427915","tag":{"addr:city":"jacmel","addr:country":"HT","addr:street":"rue beaudouin","natural":"tree"}},"type":"Feature"},
	{"geometry":{"coordinates":[-72.522429,18.246196],"type":"Point"},"properties":{"name":"l'arbre veritable","osm_id":"1146428256","tag":{"addr:city":"jacmel","addr:country":"HT","addr:street":"rue beaudouin","natural":"tree"}},"type":"Feature"},
	{"geometry":{"coordinates":[-72.522552,18.24643],"type":"Point"},"properties":{"name":"l'arbre veritable","osm_id":"1146429369","tag":{"addr:city":"jacmel","addr:country":"HT","addr:street":"rue beaudouin","natural":"tree"}},"type":"Feature"},
	{"geometry":{"coordinates":[-72.52219,18.246573],"type":"Point"},"properties":{"name":"oranger","osm_id":"1146430076","tag":{"addr:city":"jacmel","addr:country":"HT","addr:street":"rue beaudouin","natural":"tree"}},"type":"Feature"},
	{"geometry":{"coordinates":[-72.521794,18.246961],"type":"Point"},"properties":{"name":"manguier","osm_id":"1146430909","tag":{"addr:city":"jacmel","addr:country":"HT","addr:street":"rue beaudouin","natural":"tree"}},"type":"Feature"},
	{"geometry":{"coordinates":[-72.522209,18.246884],"type":"Point"},"properties":{"name":"manguier","osm_id":"1146431866","tag":{"addr:city":"jacmel","addr:country":"HT","addr:street":"rue beaudouin","natural":"tree"}},"type":"Feature"},
	{"geometry":{"coordinates":[-72.522199,18.24674],"type":"Point"},"properties":{"name":"l'arbre veritable","osm_id":"1146432611","tag":{"addr:city":"jacmel","addr:country":"HT","addr:street":"rue beaudouin","natural":"tree"}},"type":"Feature"},
	{"geometry":{"coordinates":[-72.522396,18.246199],"type":"Point"},"properties":{"name":"l'arbre veritable","osm_id":"1146433565","tag":{"addr:city":"jacmel","addr:country":"HT","addr:street":"rue beaudouin","natural":"tree"}},"type":"Feature"},
	{"geometry":{"coordinates":[-72.522135,18.246233],"type":"Point"},"properties":{"osm_id":"1146434174","tag":{"addr:city":"jacmel","addr:country":"HT","addr:street":"rue beaudouin","natural":"tree"}},"type":"Feature"},
	{"geometry":{"coordinates":[-72.522311,18.246412],"type":"Point"},"properties":{"name":"oranger","osm_id":"1146434828","tag":{"addr:city":"jacmel","addr:country":"HT","addr:street":"rue beaudouin","natural":"tree"}},"type":"Feature"},
	{"geometry":{"coordinates":[-72.522194,18.246556],"type":"Point"},"properties":{"osm_id":"1146435958","tag":{"addr:city":"jacmel","addr:country":"HT","addr:street":"rue beaudouin","natural":"tree"}},"type":"Feature"},
	{"geometry":{"coordinates":[-72.522456,18.246395],"type":"Point"},"properties":{"name":"chene","osm_id":"1146436568","tag":{"addr:city":"jacmel","addr:country":"HT","addr:street":"rue beaudouin","natural":"tree"}},"type":"Feature"},
	{"geometry":{"coordinates":[-72.522649,18.246388],"type":"Point"},"properties":{"name":"l'arbre veritable","osm_id":"1146436626","tag":{"addr:city":"jacmel","addr:country":"HT","addr:street":"rue beaudouin","natural":"tree"}},"type":"Feature"},
	{"geometry":{"coordinates":[-72.522621,18.246894],"type":"Point"},"properties":{"name":"gomier","osm_id":"1146436874","tag":{"addr:city":"jacmel","addr:country":"HT","addr:street":"beaudouin","natural":"tree"}},"type":"Feature"},
	{"geometry":{"coordinates":[-72.521463,18.247353],"type":"Point"},"properties":{"name":"cocotier","osm_id":"1155085985","tag":{"natural":"tree"}},"type":"Feature"},
	{"geometry":{"coordinates":[-72.521727,18.24764],"type":"Point"},"properties":{"osm_id":"1155089787","tag":{"natural":"tree"}},"type":"Feature"},
	{"geometry":{"coordinates":[-72.521719,18.247437],"type":"Point"},"properties":{"name":"oranger","osm_id":"1155092354","tag":{"natural":"tree"}},"type":"Feature"},
	{"geometry":{"coordinates":[-72.521518,18.2495],"type":"Point"},"properties":{"name":"chaine","osm_id":"1155098140","tag":{"natural":"tree"}},"type":"Feature"},
	{"geometry":{"coordinates":[-72.521518,18.24705],"type":"Point"},"properties":{"name":"cocotier","osm_id":"1155106424","tag":{"natural":"tree"}},"type":"Feature"},
	{"geometry":{"coordinates":[-72.535747,18.248586],"type":"Point"},"properties":{"name":"manguier","osm_id":"1172384887","tag":{"natural":"tree"}},"type":"Feature"},
	{"geometry":{"coordinates":[-72.536881,18.234947],"type":"Point"},"properties":{"osm_id":"4440810112","tag":{"natural":"tree"}},"type":"Feature"},
	{"geometry":{"coordinates":[-72.536506,18.235254],"type":"Point"},"properties":{"osm_id":"4440810113","tag":{"natural":"tree"}},"type":"Feature"},
	{"geometry":{"coordinates":[-72.536422,18.235273],"type":"Point"},"properties":{"osm_id":"4440810114","tag":{"natural":"tree"}},"type":"Feature"},
	{"geometry":{"coordinates":[-72.536535,18.23506],"type":"Point"},"properties":{"osm_id":"4440810115","tag":{"natural":"tree"}},"type":"Feature"},
	{"geometry":{"coordinates":[-72.536979,18.235683],"type":"Point"},"properties":{"osm_id":"4440810117","tag":{"natural":"tree"}},"type":"Feature"},
	{"geometry":{"coordinates":[-72.536986,18.235592],"type":"Point"},"properties":{"osm_id":"4440810118","tag":{"natural":"tree"}},"type":"Feature"},
	{"geometry":{"coordinates":[-72.537027,18.235511],"type":"Point"},"properties":{"osm_id":"4440810119","tag":{"natural":"tree"}},"type":"Feature"},
	{"geometry":{"coordinates":[-72.536937,18.235619],"type":"Point"},"properties":{"osm_id":"4440810120","tag":{"natural":"tree"}},"type":"Feature"},
	{"geometry":{"coordinates":[-72.536953,18.235528],"type":"Point"},"properties":{"osm_id":"4440810121","tag":{"natural":"tree"}},"type":"Feature"},
	{"geometry":{"coordinates":[-72.536808,18.235614],"type":"Point"},"properties":{"osm_id":"4440810122","tag":{"natural":"tree"}},"type":"Feature"}
]
}
