{
"type": "FeatureCollection",
"features": [
	{"geometry":{"coordinates":[77.08002,28.6165],"type":"Point"},"properties":{"osm_id":"5818160996","tag":{"amenity":"waste_disposal"}},"type":"Feature"},
	{"geometry":{"coordinates":[77.050003,28.627098],"type":"Point"},"properties":{"osm_id":"7876602628","tag":{"amenity":"waste_basket","material":"dry_waste","operator":"Recycle Shop","waste":"recycling"}},"type":"Feature"},
	{"geometry":{"coordinates":[77.049007,28.625487],"type":"Point"},"properties":{"osm_id":"8339483098","tag":{"amenity":"recycling","operator":"Om Vihar Scrap","recycling:metal":"yes","recycling:paper":"yes","recycling:plastic":"yes","recycling_type":"container"}},"type":"Feature"},
	{"geometry":{"coordinates":[77.07198,28.668565],"type":"Point"},"properties":{"osm_id":"8455319978","tag":{"amenity":"recycling","contact:phone":"+919211843698","operator":"Gulson Kabadi","recycling:glass_bottles":"yes","recycling:paper":"yes","recycling:plastic":"yes","recycling_type":"container"}},"type":"Feature"},
	{"geometry":{"coordinates":[77.078082,28.666653],"type":"Point"},"properties":{"osm_id":"8457662200","tag":{"amenity":"recycling","contact:phone":"+919013057668","operator":"Shambhu Kabadi Ki Dukan Nihal Vihar","recycling:glass_bottles":"yes","recycling:plastic":"yes","recycling_type":"container"}},"type":"Feature"},
	{"geometry":{"coordinates":[77.067365,28.640221],"type":"Point"},"properties":{"osm_id":"8458777636","tag":{"amenity":"recycling","operator":"Naresh Chawla Scrap Store","recycling:glass_bottles":"yes","recycling:paper":"yes","recycling:plastic":"yes","recycling_type":"container"}},"type":"Feature"}
]
}
