{
"type": "FeatureCollection",
"features": [
	{"geometry":{"coordinates":[7.705902,53.770229],"type":"Point"},"properties":{"osm_id":"458710729","tag":{"amenity":"recycling","recycling:glass":"yes","recycling_type":"container","service_times":"Mo-Sa 09:00-12:00,15:00-20:00"}},"type":"Feature"},
	{"geometry":{"coordinates":[7.69571,53.773305],"type":"Point"},"properties":{"osm_id":"656218024","tag":{"amenity":"waste_basket"}},"type":"Feature"},
	{"geometry":{"coordinates":[7.697476,53.775448],"type":"Point"},"properties":{"osm_id":"656218026","tag":{"amenity":"waste_basket"}},"type":"Feature"},
	{"geometry":{"coordinates":[7.671122,53.759226],"type":"Point"},"properties":{"osm_id":"1259626465","tag":{"amenity":"recycling","recycling:glass_bottles":"yes","recycling_type":"container"}},"type":"Feature"},
	{"geometry":{"coordinates":[7.689302,53.769248],"type":"Point"},"properties":{"osm_id":"1259626472","tag":{"amenity":"recycling","recycling:glass_bottles":"yes","recycling_type":"container"}},"type":"Feature"},
	{"geometry":{"coordinates":[7.695119,53.771813],"type":"Point"},"properties":{"osm_id":"2359236557","tag":{"amenity":"waste_basket","check_date":"2021-08-16"}},"type":"Feature"},
	{"geometry":{"coordinates":[7.694624,53.773007],"type":"Point"},"properties":{"osm_id":"5456554359","tag":{"amenity":"recycling","recycling:glass_bottles":"yes","recycling_type":"container"}},"type":"Feature"},
	{"geometry":{"coordinates":[7.700925,53.779996],"type":"Point"},"properties":{"name":"11","osm_id":"5692472261","tag":{"amenity":"waste_basket","tourism":"information"}},"type":"Feature"},
	{"geometry":{"coordinates":[7.699362,53.779895],"type":"Point"},"properties":{"name":"10","osm_id":"5692472523","tag":{"amenity":"waste_basket","tourism":"information"}},"type":"Feature"},
	{"geometry":{"coordinates":[7.694512,53.779354],"type":"Point"},"properties":{"name":"7","osm_id":"5692637637","tag":{"amenity":"waste_basket","tourism":"information"}},"type":"Feature"},
	{"geometry":{"coordinates":[7.697585,53.779763],"type":"Point"},"properties":{"osm_id":"5692642522","tag":{"amenity":"waste_basket"}},"type":"Feature"},
	{"geometry":{"coordinates":[7.695298,53.779439],"type":"Point"},"properties":{"name":"8","osm_id":"5692642801","tag":{"amenity":"waste_basket","tourism":"information"}},"type":"Feature"},
	{"geometry":{"coordinates":[7.696105,53.779551],"type":"Point"},"properties":{"name":"9","osm_id":"5692642919","tag":{"amenity":"waste_basket","tourism":"information"}},"type":"Feature"},
	{"geometry":{"coordinates":[7.693866,53.779258],"type":"Point"},"properties":{"name":"6","osm_id":"5692644312","tag":{"amenity":"waste_basket","tourism":"information"}},"type":"Feature"},
	{"geometry":{"coordinates":[7.693604,53.779214],"type":"Point"},"properties":{"name":"5","osm_id":"5692652230","tag":{"amenity":"waste_basket","tourism":"information"}},"type":"Feature"},
	{"geometry":{"coordinates":[7.692762,53.779075],"type":"Point"},"properties":{"name":"4","osm_id":"5702673123","tag":{"amenity":"waste_basket","tourism":"information"}},"type":"Feature"},
	{"geometry":{"coordinates":[7.691293,53.778738],"type":"Point"},"properties":{"name":"2","osm_id":"5703021174","tag":{"amenity":"waste_basket","tourism":"information"}},"type":"Feature"},
	{"geometry":{"coordinates":[7.692153,53.778945],"type":"Point"},"properties":{"name":"3","osm_id":"5703021177","tag":{"amenity":"waste_basket","tourism":"information"}},"type":"Feature"},
	{"geometry":{"coordinates":[7.68713,53.77735],"type":"Point"},"properties":{"osm_id":"6704048162","tag":{"amenity":"waste_basket","waste":"trash"}},"type":"Feature"},
	{"geometry":{"coordinates":[7.68926,53.77509],"type":"Point"},"properties":{"osm_id":"6704048163","tag":{"amenity":"waste_basket","waste":"trash"}},"type":"Feature"},
	{"geometry":{"coordinates":[7.692074,53.772519],"type":"Point"},"properties":{"osm_id":"6704048164","tag":{"amenity":"waste_basket","waste":"trash"}},"type":"Feature"},
	{"geometry":{"coordinates":[7.689211,53.769474],"type":"Point"},"properties":{"osm_id":"6704048167","tag":{"amenity":"waste_basket","waste":"trash"}},"type":"Feature"},
	{"geometry":{"coordinates":[7.69098,53.76875],"type":"Point"},"properties":{"osm_id":"6704048168","tag":{"amenity":"waste_basket","waste":"trash"}},"type":"Feature"},
	{"geometry":{"coordinates":[7.698524,53.771103],"type":"Point"},"properties":{"osm_id":"7565059272","tag":{"amenity":"waste_basket"}},"type":"Feature"},
	{"geometry":{"coordinates":[7.698194,53.770314],"type":"Point"},"properties":{"osm_id":"7565063179","tag":{"amenity":"waste_basket"}},"type":"Feature"},
	{"geometry":{"coordinates":[7.699355,53.771009],"type":"Point"},"properties":{"osm_id":"7565081048","tag":{"amenity":"waste_basket"}},"type":"Feature"},
	{"geometry":{"coordinates":[7.701556,53.77009],"type":"Point"},"properties":{"osm_id":"7565118949","tag":{"amenity":"waste_basket"}},"type":"Feature"}
]
}
