{
"type": "FeatureCollection",
"features": [
	{"geometry":{"coordinates":[7.674499,52.025925],"type":"Point"},"properties":{"osm_id":"671956750","tag":{"amenity":"recycling","location":"overground","recycling:clothes":"yes","recycling:glass":"no","recycling:glass_bottles":"yes","recycling_type":"container"}},"type":"Feature"},
	{"geometry":{"coordinates":[7.678735,52.03138],"type":"Point"},"properties":{"osm_id":"672167674","tag":{"amenity":"recycling"}},"type":"Feature"},
	{"geometry":{"coordinates":[7.679233,52.049854],"type":"Point"},"properties":{"osm_id":"831645498","tag":{"amenity":"waste_basket","comment":"here be dragons"}},"type":"Feature"},
	{"geometry":{"coordinates":[7.650799,52.003773],"type":"Point"},"properties":{"osm_id":"6427573806","tag":{"amenity":"waste_basket","waste":"trash"}},"type":"Feature"},
	{"geometry":{"coordinates":[7.648199,51.99858],"type":"Point"},"properties":{"osm_id":"7576990502","tag":{"amenity":"waste_basket","waste":"trash"}},"type":"Feature"},
	{"geometry":{"coordinates":[7.650256,51.999375],"type":"Point"},"properties":{"osm_id":"7580166468","tag":{"amenity":"waste_basket","waste":"trash"}},"type":"Feature"}
]
}
