{
"type": "FeatureCollection",
"features": [
	{"geometry":{"coordinates":[7.689778,51.553074],"type":"Point"},"properties":{"osm_id":"99237603","tag":{"amenity":"recycling","recycling:clothes":"yes","recycling:glass_bottles":"yes","recycling_type":"container"}},"type":"Feature"},
	{"geometry":{"coordinates":[7.67582,51.524387],"type":"Point"},"properties":{"osm_id":"254286101","tag":{"amenity":"recycling"}},"type":"Feature"},
	{"geometry":{"coordinates":[7.668023,51.522995],"type":"Point"},"properties":{"osm_id":"254286102","tag":{"amenity":"recycling","recycling_type":"container"}},"type":"Feature"},
	{"geometry":{"coordinates":[7.675559,51.53007],"type":"Point"},"properties":{"osm_id":"254286135","tag":{"amenity":"recycling","location":"overground","recycling_type":"container"}},"type":"Feature"},
	{"geometry":{"coordinates":[7.694534,51.547586],"type":"Point"},"properties":{"osm_id":"274068944","tag":{"amenity":"recycling"}},"type":"Feature"},
	{"geometry":{"coordinates":[7.695815,51.531156],"type":"Point"},"properties":{"osm_id":"275993891","tag":{"amenity":"recycling","recycling_type":"container"}},"type":"Feature"},
	{"geometry":{"coordinates":[7.697751,51.540903],"type":"Point"},"properties":{"osm_id":"297524730","tag":{"amenity":"recycling"}},"type":"Feature"},
	{"geometry":{"coordinates":[7.705803,51.560012],"type":"Point"},"properties":{"osm_id":"307773789","tag":{"amenity":"recycling"}},"type":"Feature"},
	{"geometry":{"coordinates":[7.649924,51.560767],"type":"Point"},"properties":{"osm_id":"315970721","tag":{"amenity":"recycling","mapillary":"3TAv8H4iFtJLD9SD5A3Xng","recycling_type":"container","survey:date":"2017-09-29"}},"type":"Feature"},
	{"geometry":{"coordinates":[7.665389,51.530163],"type":"Point"},"properties":{"osm_id":"428305568","tag":{"amenity":"recycling"}},"type":"Feature"},
	{"geometry":{"coordinates":[7.690071,51.526156],"type":"Point"},"properties":{"osm_id":"557858836","tag":{"amenity":"recycling","mapillary":"t3odASxeJuJ1E_21dLpLuw","operator":"Kolpingwerk","recycling:clothes":"yes","recycling_type":"container","survey:date":"2017-12-07"}},"type":"Feature"},
	{"geometry":{"coordinates":[7.662383,51.543117],"type":"Point"},"properties":{"osm_id":"580943456","tag":{"amenity":"recycling","recycling:clothes":"yes","recycling:glass_bottles":"yes","recycling_type":"container"}},"type":"Feature"},
	{"geometry":{"coordinates":[7.661868,51.5408],"type":"Point"},"properties":{"osm_id":"595402095","tag":{"amenity":"recycling","operator":"Kolpingwerk","recycling:clothes":"yes"}},"type":"Feature"},
	{"geometry":{"coordinates":[7.676888,51.535286],"type":"Point"},"properties":{"osm_id":"857761289","tag":{"amenity":"recycling","recycling:clothes":"yes"}},"type":"Feature"},
	{"geometry":{"coordinates":[7.654143,51.53945],"type":"Point"},"properties":{"osm_id":"926486376","tag":{"amenity":"recycling","recycling:glass_bottles":"yes"}},"type":"Feature"},
	{"geometry":{"coordinates":[7.674486,51.531711],"type":"Point"},"properties":{"osm_id":"1121996207","tag":{"amenity":"recycling","recycling:clothes":"yes"}},"type":"Feature"},
	{"geometry":{"coordinates":[7.687088,51.544095],"type":"Point"},"properties":{"osm_id":"1559339470","tag":{"amenity":"recycling","recycling:clothes":"yes","recycling:glass_bottles":"yes","recycling_type":"container"}},"type":"Feature"},
	{"geometry":{"coordinates":[7.686038,51.547519],"type":"Point"},"properties":{"osm_id":"1641694578","tag":{"amenity":"recycling","recycling:clothes":"yes","recycling:glass":"yes","recycling_type":"container"}},"type":"Feature"},
	{"geometry":{"coordinates":[7.692834,51.549811],"type":"Point"},"properties":{"osm_id":"1827351572","tag":{"amenity":"recycling","recycling:clothes":"yes","recycling:glass_bottles":"yes","recycling_type":"container"}},"type":"Feature"},
	{"geometry":{"coordinates":[7.694159,51.55237],"type":"Point"},"properties":{"osm_id":"1827351573","tag":{"amenity":"recycling","recycling:clothes":"yes","recycling:glass_bottles":"yes","recycling_type":"container"}},"type":"Feature"},
	{"geometry":{"coordinates":[7.682627,51.537456],"type":"Point"},"properties":{"osm_id":"1980821098","tag":{"amenity":"recycling","operator":"Kolping","recycling:clothes":"yes","recycling_type":"container"}},"type":"Feature"},
	{"geometry":{"coordinates":[7.659557,51.536235],"type":"Point"},"properties":{"osm_id":"2337908642","tag":{"amenity":"recycling","recycling:clothes":"yes","recycling:glass_bottles":"yes","recycling_type":"container"}},"type":"Feature"},
	{"geometry":{"coordinates":[7.652469,51.536552],"type":"Point"},"properties":{"osm_id":"2337908643","tag":{"amenity":"recycling","recycling:clothes":"yes","recycling:glass_bottles":"yes","recycling_type":"container"}},"type":"Feature"},
	{"geometry":{"coordinates":[7.685204,51.55552],"type":"Point"},"properties":{"osm_id":"2610217435","tag":{"amenity":"recycling","recycling:clothes":"yes","recycling_type":"container"}},"type":"Feature"},
	{"geometry":{"coordinates":[7.685142,51.555567],"type":"Point"},"properties":{"osm_id":"2610217439","tag":{"amenity":"recycling","recycling:glass_bottles":"yes","recycling_type":"container"}},"type":"Feature"},
	{"geometry":{"coordinates":[7.655664,51.527762],"type":"Point"},"properties":{"osm_id":"3336515581","tag":{"amenity":"recycling","recycling:cans":"no","recycling:clothes":"yes","recycling:glass_bottles":"yes","recycling:paper":"no","recycling_type":"container"}},"type":"Feature"},
	{"geometry":{"coordinates":[7.688702,51.53444],"type":"Point"},"properties":{"osm_id":"3425168276","tag":{"amenity":"waste_basket"}},"type":"Feature"},
	{"geometry":{"coordinates":[7.68906,51.534423],"type":"Point"},"properties":{"osm_id":"3425170334","tag":{"amenity":"waste_basket"}},"type":"Feature"},
	{"geometry":{"coordinates":[7.689696,51.534421],"type":"Point"},"properties":{"osm_id":"3456053622","tag":{"amenity":"waste_basket"}},"type":"Feature"},
	{"geometry":{"coordinates":[7.689812,51.534854],"type":"Point"},"properties":{"osm_id":"3456053623","tag":{"amenity":"waste_basket"}},"type":"Feature"},
	{"geometry":{"coordinates":[7.691063,51.535054],"type":"Point"},"properties":{"osm_id":"3558469762","tag":{"amenity":"waste_basket"}},"type":"Feature"},
	{"geometry":{"coordinates":[7.672742,51.554993],"type":"Point"},"properties":{"osm_id":"3658823632","tag":{"amenity":"recycling","operator":"UKBS","recycling:clothes":"yes","recycling_type":"container"}},"type":"Feature"},
	{"geometry":{"coordinates":[7.672195,51.555204],"type":"Point"},"properties":{"osm_id":"3658823633","tag":{"amenity":"recycling","recycling:glass_bottles":"yes","recycling_type":"container"}},"type":"Feature"},
	{"geometry":{"coordinates":[7.689024,51.535298],"type":"Point"},"properties":{"osm_id":"3672117770","tag":{"amenity":"waste_basket"}},"type":"Feature"},
	{"geometry":{"coordinates":[7.679153,51.554098],"type":"Point"},"properties":{"osm_id":"4030387307","tag":{"amenity":"recycling","operator":"GWA","recycling:clothes":"yes","recycling_type":"container"}},"type":"Feature"},
	{"geometry":{"coordinates":[7.679126,51.554155],"type":"Point"},"properties":{"osm_id":"4030387308","tag":{"amenity":"recycling","recycling:glass":"yes","recycling_type":"container"}},"type":"Feature"},
	{"geometry":{"coordinates":[7.695389,51.557066],"type":"Point"},"properties":{"osm_id":"4030387318","tag":{"amenity":"recycling","recycling:glass":"no","recycling:glass_bottles":"yes","recycling_type":"container"}},"type":"Feature"},
	{"geometry":{"coordinates":[7.683149,51.557251],"type":"Point"},"properties":{"osm_id":"4030387319","tag":{"amenity":"recycling","recycling:glass":"no","recycling:glass_bottles":"yes","recycling_type":"container"}},"type":"Feature"},
	{"geometry":{"coordinates":[7.683097,51.557269],"type":"Point"},"properties":{"osm_id":"4030387321","tag":{"amenity":"recycling","recycling:clothes":"yes","recycling_type":"container"}},"type":"Feature"},
	{"geometry":{"coordinates":[7.682093,51.558521],"type":"Point"},"properties":{"osm_id":"4030387322","tag":{"amenity":"waste_basket"}},"type":"Feature"},
	{"geometry":{"coordinates":[7.682037,51.559043],"type":"Point"},"properties":{"osm_id":"4030387326","tag":{"amenity":"waste_basket"}},"type":"Feature"},
	{"geometry":{"coordinates":[7.684753,51.559958],"type":"Point"},"properties":{"osm_id":"4030387331","tag":{"amenity":"waste_basket"}},"type":"Feature"},
	{"geometry":{"coordinates":[7.68508,51.560095],"type":"Point"},"properties":{"osm_id":"4030387333","tag":{"amenity":"waste_basket"}},"type":"Feature"},
	{"geometry":{"coordinates":[7.684929,51.560264],"type":"Point"},"properties":{"osm_id":"4030387335","tag":{"amenity":"waste_basket"}},"type":"Feature"},
	{"geometry":{"coordinates":[7.688251,51.511842],"type":"Point"},"properties":{"osm_id":"4298894850","tag":{"amenity":"waste_basket"}},"type":"Feature"},
	{"geometry":{"coordinates":[7.674876,51.540841],"type":"Point"},"properties":{"osm_id":"4479757864","tag":{"amenity":"recycling"}},"type":"Feature"},
	{"geometry":{"coordinates":[7.692445,51.559968],"type":"Point"},"properties":{"osm_id":"5627956562","tag":{"amenity":"waste_basket"}},"type":"Feature"},
	{"geometry":{"coordinates":[7.691169,51.559839],"type":"Point"},"properties":{"osm_id":"5627956564","tag":{"amenity":"waste_basket"}},"type":"Feature"},
	{"geometry":{"coordinates":[7.679093,51.556673],"type":"Point"},"properties":{"osm_id":"6516353973","tag":{"amenity":"recycling","recycling_type":"container"}},"type":"Feature"},
	{"geometry":{"coordinates":[7.672553,51.523891],"type":"Point"},"properties":{"osm_id":"6622084764","tag":{"amenity":"recycling","colour":"green","material":"steel","recycling:clothes":"yes","recycling_type":"container"}},"type":"Feature"},
	{"geometry":{"coordinates":[7.660749,51.538343],"type":"Point"},"properties":{"osm_id":"7142961859","tag":{"amenity":"recycling","recycling:glass_bottles":"yes","recycling_type":"container"}},"type":"Feature"},
	{"geometry":{"coordinates":[7.696093,51.547321],"type":"Point"},"properties":{"osm_id":"7875762340","tag":{"amenity":"recycling","operator":"DRK","recycling:clothes":"yes","recycling_type":"container"}},"type":"Feature"}
]
}
