{
"type": "FeatureCollection",
"features": [
	{"geometry":{"coordinates":[7.67873,51.251283],"type":"Point"},"properties":{"osm_id":"416433483","tag":{"amenity":"recycling","recycling:glass_bottles":"yes","recycling:paper":"yes","recycling_type":"container"}},"type":"Feature"},
	{"geometry":{"coordinates":[7.677056,51.263954],"type":"Point"},"properties":{"osm_id":"3437349443","tag":{"amenity":"recycling","recycling:paper":"yes","recycling_type":"container"}},"type":"Feature"},
	{"geometry":{"coordinates":[7.677224,51.263959],"type":"Point"},"properties":{"osm_id":"4307704101","tag":{"amenity":"recycling","recycling:green_waste":"yes","recycling_type":"container"}},"type":"Feature"},
	{"geometry":{"coordinates":[7.677093,51.26396],"type":"Point"},"properties":{"osm_id":"4307704102","tag":{"amenity":"recycling","recycling:paper":"yes","recycling_type":"container"}},"type":"Feature"},
	{"geometry":{"coordinates":[7.677134,51.263969],"type":"Point"},"properties":{"osm_id":"4307704103","tag":{"amenity":"recycling","recycling:glass_bottles":"yes","recycling_type":"container"}},"type":"Feature"},
	{"geometry":{"coordinates":[7.677175,51.263973],"type":"Point"},"properties":{"osm_id":"4307704104","tag":{"amenity":"recycling","recycling:glass_bottles":"yes","recycling_type":"container"}},"type":"Feature"},
	{"geometry":{"coordinates":[7.66791,51.245931],"type":"Point"},"properties":{"osm_id":"4699646935","tag":{"amenity":"waste_basket"}},"type":"Feature"},
	{"geometry":{"coordinates":[7.665161,51.247547],"type":"Point"},"properties":{"osm_id":"4699646938","tag":{"amenity":"waste_basket"}},"type":"Feature"},
	{"geometry":{"coordinates":[7.663621,51.248899],"type":"Point"},"properties":{"osm_id":"4699646939","tag":{"amenity":"waste_basket"}},"type":"Feature"},
	{"geometry":{"coordinates":[7.687364,51.253749],"type":"Point"},"properties":{"osm_id":"6550884641","tag":{"amenity":"waste_basket","waste":"trash"}},"type":"Feature"},
	{"geometry":{"coordinates":[7.677468,51.287324],"type":"Point"},"properties":{"osm_id":"6818534439","tag":{"amenity":"recycling","recycling_type":"container"}},"type":"Feature"},
	{"geometry":{"coordinates":[7.680193,51.288325],"type":"Point"},"properties":{"osm_id":"6818534449","tag":{"amenity":"recycling","recycling:clothes":"yes","recycling:shoes":"yes","recycling_type":"container"}},"type":"Feature"}
]
}
