{
"type": "FeatureCollection",
"features": [
	{"geometry":{"coordinates":[7.721777,50.867572],"type":"Point"},"properties":{"osm_id":"780281340","tag":{"amenity":"recycling","opening_hours":"24/7","recycling:glass":"yes","recycling:glass_bottles":"yes","recycling_type":"container"}},"type":"Feature"},
	{"geometry":{"coordinates":[7.701705,50.896765],"type":"Point"},"properties":{"osm_id":"785970155","tag":{"amenity":"recycling","recycling:clothes":"yes","recycling:glass":"yes","recycling:shoes":"yes","recycling_type":"container"}},"type":"Feature"},
	{"geometry":{"coordinates":[7.687713,50.849601],"type":"Point"},"properties":{"osm_id":"2241892085","tag":{"amenity":"recycling","recycling:glass":"yes","recycling_type":"container"}},"type":"Feature"},
	{"geometry":{"coordinates":[7.687735,50.849628],"type":"Point"},"properties":{"osm_id":"2241892130","tag":{"amenity":"recycling","operator":"Deutsches Rotes Kreuz","recycling:clothes":"yes","recycling:shoes":"yes","recycling_type":"container"}},"type":"Feature"},
	{"geometry":{"coordinates":[7.653642,50.889097],"type":"Point"},"properties":{"osm_id":"2241892504","tag":{"amenity":"recycling","operator":"Malteser","recycling:clothes":"yes","recycling:shoes":"yes","recycling_type":"container"}},"type":"Feature"},
	{"geometry":{"coordinates":[7.653829,50.889171],"type":"Point"},"properties":{"osm_id":"2241892513","tag":{"amenity":"recycling","recycling:glass":"yes","recycling_type":"container"}},"type":"Feature"},
	{"geometry":{"coordinates":[7.650995,50.879871],"type":"Point"},"properties":{"osm_id":"2264196989","tag":{"amenity":"recycling","recycling:clothes":"yes","recycling:shoes":"yes","recycling_type":"container"}},"type":"Feature"},
	{"geometry":{"coordinates":[7.64704,50.856494],"type":"Point"},"properties":{"osm_id":"2265996652","tag":{"amenity":"recycling","recycling:glass":"yes","recycling_type":"container"}},"type":"Feature"},
	{"geometry":{"coordinates":[7.647075,50.856528],"type":"Point"},"properties":{"osm_id":"2265996656","tag":{"amenity":"recycling","operator":"Deutsches Rotes Kreuz","recycling:clothes":"yes","recycling:shoes":"yes","recycling_type":"container"}},"type":"Feature"},
	{"geometry":{"coordinates":[7.728773,50.865578],"type":"Point"},"properties":{"osm_id":"3433501040","tag":{"amenity":"waste_basket"}},"type":"Feature"},
	{"geometry":{"coordinates":[7.726769,50.872071],"type":"Point"},"properties":{"osm_id":"3557011386","tag":{"amenity":"waste_basket"}},"type":"Feature"},
	{"geometry":{"coordinates":[7.727922,50.866094],"type":"Point"},"properties":{"osm_id":"4353119190","tag":{"amenity":"waste_basket"}},"type":"Feature"}
]
}
