{
"type": "FeatureCollection",
"features": [
	{"geometry":{"coordinates":[7.656425,50.773117],"type":"Point"},"properties":{"osm_id":"298630204","tag":{"amenity":"recycling","recycling:glass_bottles":"yes","recycling_type":"container"}},"type":"Feature"},
	{"geometry":{"coordinates":[7.67722,50.76735],"type":"Point"},"properties":{"osm_id":"450196611","tag":{"amenity":"recycling"}},"type":"Feature"},
	{"geometry":{"coordinates":[7.728614,50.776693],"type":"Point"},"properties":{"osm_id":"925475740","tag":{"amenity":"recycling","recycling:clothes":"yes","recycling:glass":"yes"}},"type":"Feature"},
	{"geometry":{"coordinates":[7.671385,50.764877],"type":"Point"},"properties":{"osm_id":"2047068880","tag":{"amenity":"waste_basket"}},"type":"Feature"},
	{"geometry":{"coordinates":[7.656426,50.773148],"type":"Point"},"properties":{"osm_id":"2343026849","tag":{"amenity":"recycling","recycling:clothes":"yes","recycling:shoes":"yes","recycling_type":"container"}},"type":"Feature"},
	{"geometry":{"coordinates":[7.734125,50.782567],"type":"Point"},"properties":{"osm_id":"2392005668","tag":{"amenity":"waste_basket"}},"type":"Feature"},
	{"geometry":{"coordinates":[7.655557,50.773668],"type":"Point"},"properties":{"osm_id":"4037271991","tag":{"amenity":"waste_basket"}},"type":"Feature"},
	{"geometry":{"coordinates":[7.656839,50.773872],"type":"Point"},"properties":{"osm_id":"4037272001","tag":{"amenity":"waste_basket"}},"type":"Feature"},
	{"geometry":{"coordinates":[7.657981,50.774158],"type":"Point"},"properties":{"osm_id":"4037272006","tag":{"amenity":"waste_basket"}},"type":"Feature"},
	{"geometry":{"coordinates":[7.65839,50.77427],"type":"Point"},"properties":{"osm_id":"4037272009","tag":{"amenity":"waste_basket"}},"type":"Feature"},
	{"geometry":{"coordinates":[7.688446,50.781431],"type":"Point"},"properties":{"osm_id":"4042776071","tag":{"amenity":"recycling","recycling:clothes":"yes","recycling:glass":"yes","recycling:glass_bottles":"yes","recycling_type":"container"}},"type":"Feature"},
	{"geometry":{"coordinates":[7.696015,50.784587],"type":"Point"},"properties":{"osm_id":"4883825750","tag":{"amenity":"waste_basket"}},"type":"Feature"},
	{"geometry":{"coordinates":[7.68891,50.787331],"type":"Point"},"properties":{"osm_id":"4883825767","tag":{"amenity":"waste_basket"}},"type":"Feature"},
	{"geometry":{"coordinates":[7.723956,50.782082],"type":"Point"},"properties":{"osm_id":"4883977777","tag":{"amenity":"waste_basket"}},"type":"Feature"},
	{"geometry":{"coordinates":[7.725173,50.782084],"type":"Point"},"properties":{"osm_id":"4883977778","tag":{"amenity":"waste_basket"}},"type":"Feature"},
	{"geometry":{"coordinates":[7.72635,50.783048],"type":"Point"},"properties":{"osm_id":"4883977783","tag":{"amenity":"waste_basket"}},"type":"Feature"},
	{"geometry":{"coordinates":[7.703164,50.787874],"type":"Point"},"properties":{"osm_id":"5212328812","tag":{"amenity":"waste_basket","leisure":"picnic_table"}},"type":"Feature"},
	{"geometry":{"coordinates":[7.724419,50.749361],"type":"Point"},"properties":{"osm_id":"6525476663","tag":{"amenity":"waste_basket"}},"type":"Feature"},
	{"geometry":{"coordinates":[7.708561,50.74374],"type":"Point"},"properties":{"osm_id":"6525476668","tag":{"amenity":"recycling","recycling:clothes":"yes","recycling:glass":"yes","recycling:shoes":"yes","recycling_type":"container"}},"type":"Feature"},
	{"geometry":{"coordinates":[7.652111,50.768008],"type":"Point"},"properties":{"osm_id":"7681033885","tag":{"amenity":"waste_basket"}},"type":"Feature"}
]
}
