{
"type": "FeatureCollection",
"features": [
	{"geometry":{"coordinates":[7.64724,50.438468],"type":"Point"},"properties":{"osm_id":"360297552","tag":{"amenity":"waste_basket"}},"type":"Feature"},
	{"geometry":{"coordinates":[7.694069,50.434924],"type":"Point"},"properties":{"osm_id":"535273243","tag":{"amenity":"waste_basket"}},"type":"Feature"},
	{"geometry":{"coordinates":[7.696659,50.440736],"type":"Point"},"properties":{"osm_id":"535273264","tag":{"amenity":"waste_basket"}},"type":"Feature"},
	{"geometry":{"coordinates":[7.675056,50.441517],"type":"Point"},"properties":{"osm_id":"535289272","tag":{"amenity":"recycling","recycling:glass_bottles":"yes","recycling_type":"container"}},"type":"Feature"},
	{"geometry":{"coordinates":[7.694416,50.410289],"type":"Point"},"properties":{"osm_id":"673455380","tag":{"amenity":"recycling","recycling:clothes":"yes","recycling:glass":"yes","recycling:shoes":"yes"}},"type":"Feature"},
	{"geometry":{"coordinates":[7.649246,50.45047],"type":"Point"},"properties":{"osm_id":"683870808","tag":{"amenity":"waste_basket"}},"type":"Feature"},
	{"geometry":{"coordinates":[7.65762,50.450515],"type":"Point"},"properties":{"osm_id":"683870817","tag":{"amenity":"recycling","recycling:glass":"yes"}},"type":"Feature"},
	{"geometry":{"coordinates":[7.658208,50.43358],"type":"Point"},"properties":{"osm_id":"702788275","tag":{"amenity":"waste_basket"}},"type":"Feature"},
	{"geometry":{"coordinates":[7.681128,50.430632],"type":"Point"},"properties":{"osm_id":"736653004","tag":{"amenity":"recycling","recycling:glass":"yes","recycling_type":"container"}},"type":"Feature"},
	{"geometry":{"coordinates":[7.71359,50.448754],"type":"Point"},"properties":{"osm_id":"738654772","tag":{"amenity":"waste_basket"}},"type":"Feature"},
	{"geometry":{"coordinates":[7.689997,50.43627],"type":"Point"},"properties":{"osm_id":"761343023","tag":{"amenity":"waste_basket"}},"type":"Feature"},
	{"geometry":{"coordinates":[7.70859,50.435471],"type":"Point"},"properties":{"osm_id":"762522977","tag":{"amenity":"waste_basket"}},"type":"Feature"},
	{"geometry":{"coordinates":[7.688123,50.430386],"type":"Point"},"properties":{"osm_id":"762523013","tag":{"amenity":"recycling","recycling:clothes":"yes","recycling:glass":"yes"}},"type":"Feature"},
	{"geometry":{"coordinates":[7.6898,50.425516],"type":"Point"},"properties":{"osm_id":"764618417","tag":{"amenity":"waste_basket"}},"type":"Feature"},
	{"geometry":{"coordinates":[7.692534,50.421576],"type":"Point"},"properties":{"osm_id":"764618427","tag":{"amenity":"waste_basket"}},"type":"Feature"},
	{"geometry":{"coordinates":[7.695192,50.418791],"type":"Point"},"properties":{"osm_id":"764618435","tag":{"amenity":"waste_basket"}},"type":"Feature"},
	{"geometry":{"coordinates":[7.697666,50.426944],"type":"Point"},"properties":{"osm_id":"801102609","tag":{"amenity":"waste_basket"}},"type":"Feature"},
	{"geometry":{"coordinates":[7.725517,50.454385],"type":"Point"},"properties":{"osm_id":"801102616","tag":{"amenity":"recycling","recycling:clothes":"yes"}},"type":"Feature"},
	{"geometry":{"coordinates":[7.667861,50.433001],"type":"Point"},"properties":{"osm_id":"837197777","tag":{"amenity":"recycling"}},"type":"Feature"},
	{"geometry":{"coordinates":[7.683482,50.430921],"type":"Point"},"properties":{"osm_id":"1290712306","tag":{"amenity":"waste_basket"}},"type":"Feature"},
	{"geometry":{"coordinates":[7.693273,50.453169],"type":"Point"},"properties":{"osm_id":"2414049016","tag":{"amenity":"recycling","wpt_symbol":"Flag"}},"type":"Feature"},
	{"geometry":{"coordinates":[7.664831,50.426014],"type":"Point"},"properties":{"osm_id":"3255963561","tag":{"amenity":"recycling","recycling:glass":"yes"}},"type":"Feature"},
	{"geometry":{"coordinates":[7.664514,50.428272],"type":"Point"},"properties":{"osm_id":"3260927683","tag":{"amenity":"recycling","recycling:glass":"yes"}},"type":"Feature"}
]
}
