{
"type": "FeatureCollection",
"features": [
	{"geometry":{"coordinates":[7.647892,50.367409],"type":"Point"},"properties":{"osm_id":"528254154","tag":{"amenity":"recycling","recycling:glass":"yes","recycling:paper":"yes"}},"type":"Feature"},
	{"geometry":{"coordinates":[7.651933,50.368358],"type":"Point"},"properties":{"osm_id":"528254157","tag":{"amenity":"recycling","recycling:clothes":"yes","recycling:glass":"yes","recycling:paper":"yes"}},"type":"Feature"},
	{"geometry":{"coordinates":[7.708775,50.384433],"type":"Point"},"properties":{"osm_id":"599241218","tag":{"amenity":"recycling","location":"overground","recycling:clothes":"yes","recycling:glass":"no","recycling:glass_bottles":"yes","recycling_type":"container"}},"type":"Feature"},
	{"geometry":{"coordinates":[7.708527,50.384661],"type":"Point"},"properties":{"osm_id":"599241219","tag":{"amenity":"recycling","location":"overground","recycling:clothes":"yes","recycling_type":"container"}},"type":"Feature"},
	{"geometry":{"coordinates":[7.709367,50.388548],"type":"Point"},"properties":{"osm_id":"602198464","tag":{"amenity":"recycling","location":"overground","recycling:clothes":"yes","recycling:glass":"no","recycling:glass_bottles":"yes","recycling_type":"container"}},"type":"Feature"},
	{"geometry":{"coordinates":[7.720961,50.372957],"type":"Point"},"properties":{"osm_id":"643779723","tag":{"amenity":"recycling","location":"overground","recycling:glass":"no","recycling:glass_bottles":"yes","recycling:shoes":"yes","recycling_type":"container"}},"type":"Feature"},
	{"geometry":{"coordinates":[7.657813,50.367063],"type":"Point"},"properties":{"osm_id":"1463163854","tag":{"amenity":"recycling","recycling:glass":"yes","recycling:paper":"yes"}},"type":"Feature"},
	{"geometry":{"coordinates":[7.722192,50.35244],"type":"Point"},"properties":{"osm_id":"4784601414","tag":{"amenity":"recycling","recycling:glass":"yes","recycling_type":"container"}},"type":"Feature"},
	{"geometry":{"coordinates":[7.671344,50.384894],"type":"Point"},"properties":{"osm_id":"4846305995","tag":{"amenity":"recycling","recycling:glass":"yes","recycling_type":"container"}},"type":"Feature"},
	{"geometry":{"coordinates":[7.66502,50.372826],"type":"Point"},"properties":{"osm_id":"6932238615","tag":{"amenity":"recycling","recycling:glass_bottles":"yes","recycling:paper":"yes","recycling_type":"container"}},"type":"Feature"},
	{"geometry":{"coordinates":[7.662979,50.377095],"type":"Point"},"properties":{"osm_id":"6932238618","tag":{"amenity":"recycling","recycling:clothes":"yes","recycling:glass_bottles":"yes","recycling:paper":"yes","recycling_type":"container"}},"type":"Feature"},
	{"geometry":{"coordinates":[7.656219,50.371586],"type":"Point"},"properties":{"osm_id":"6932238623","tag":{"amenity":"recycling","recycling:glass_bottles":"yes","recycling_type":"container"}},"type":"Feature"},
	{"geometry":{"coordinates":[7.711424,50.368807],"type":"Point"},"properties":{"osm_id":"7538153839","tag":{"amenity":"waste_basket"}},"type":"Feature"},
	{"geometry":{"coordinates":[7.713798,50.379518],"type":"Point"},"properties":{"osm_id":"7538174512","tag":{"amenity":"waste_basket"}},"type":"Feature"},
	{"geometry":{"coordinates":[7.709924,50.385293],"type":"Point"},"properties":{"osm_id":"7538177733","tag":{"amenity":"waste_basket"}},"type":"Feature"},
	{"geometry":{"coordinates":[7.709212,50.384807],"type":"Point"},"properties":{"osm_id":"7538188363","tag":{"amenity":"waste_basket"}},"type":"Feature"},
	{"geometry":{"coordinates":[7.709286,50.370034],"type":"Point"},"properties":{"osm_id":"7538190530","tag":{"amenity":"waste_basket"}},"type":"Feature"},
	{"geometry":{"coordinates":[7.713813,50.379839],"type":"Point"},"properties":{"osm_id":"7538190887","tag":{"amenity":"waste_basket"}},"type":"Feature"},
	{"geometry":{"coordinates":[7.714377,50.377363],"type":"Point"},"properties":{"osm_id":"7546214176","tag":{"amenity":"recycling","recycling:clothes":"yes","recycling_type":"container"}},"type":"Feature"},
	{"geometry":{"coordinates":[7.719364,50.374211],"type":"Point"},"properties":{"osm_id":"7557614964","tag":{"amenity":"waste_basket"}},"type":"Feature"},
	{"geometry":{"coordinates":[7.722769,50.372465],"type":"Point"},"properties":{"osm_id":"7557630550","tag":{"amenity":"waste_basket"}},"type":"Feature"},
	{"geometry":{"coordinates":[7.722459,50.372499],"type":"Point"},"properties":{"osm_id":"7557799373","tag":{"amenity":"recycling","recycling:small_electrical_appliances":"yes","recycling_type":"container"}},"type":"Feature"},
	{"geometry":{"coordinates":[7.709455,50.388369],"type":"Point"},"properties":{"osm_id":"7577912029","tag":{"amenity":"waste_basket"}},"type":"Feature"},
	{"geometry":{"coordinates":[7.709135,50.389741],"type":"Point"},"properties":{"osm_id":"7577912031","tag":{"amenity":"waste_basket"}},"type":"Feature"},
	{"geometry":{"coordinates":[7.702535,50.381848],"type":"Point"},"properties":{"osm_id":"7595359266","tag":{"amenity":"recycling","recycling:shoes":"yes","recycling_type":"container"}},"type":"Feature"},
	{"geometry":{"coordinates":[7.702238,50.382471],"type":"Point"},"properties":{"osm_id":"7595505396","tag":{"amenity":"waste_basket"}},"type":"Feature"},
	{"geometry":{"coordinates":[7.707048,50.385852],"type":"Point"},"properties":{"osm_id":"7595505399","tag":{"amenity":"waste_basket"}},"type":"Feature"},
	{"geometry":{"coordinates":[7.713428,50.381065],"type":"Point"},"properties":{"osm_id":"7617372530","tag":{"amenity":"waste_basket","colour":"blue","material":"metal"}},"type":"Feature"},
	{"geometry":{"coordinates":[7.713016,50.38099],"type":"Point"},"properties":{"osm_id":"7617372531","tag":{"amenity":"waste_basket","colour":"grey","material":"metal"}},"type":"Feature"},
	{"geometry":{"coordinates":[7.71903,50.372695],"type":"Point"},"properties":{"osm_id":"7623505113","tag":{"amenity":"waste_basket","material":"wood"}},"type":"Feature"},
	{"geometry":{"coordinates":[7.712128,50.371543],"type":"Point"},"properties":{"osm_id":"7670760092","tag":{"amenity":"waste_basket","material":"metal"}},"type":"Feature"},
	{"geometry":{"coordinates":[7.647616,50.369708],"type":"Point"},"properties":{"osm_id":"7995830632","tag":{"amenity":"waste_basket","waste":"dog_excrement"}},"type":"Feature"},
	{"geometry":{"coordinates":[7.647471,50.369452],"type":"Point"},"properties":{"osm_id":"7995830633","tag":{"amenity":"waste_basket","waste":"trash"}},"type":"Feature"},
	{"geometry":{"coordinates":[7.710989,50.385161],"type":"Point"},"properties":{"osm_id":"8037827135","tag":{"amenity":"waste_basket","material":"metal"}},"type":"Feature"},
	{"geometry":{"coordinates":[7.712875,50.379469],"type":"Point"},"properties":{"osm_id":"8070468464","tag":{"amenity":"waste_basket","material":"metal"}},"type":"Feature"},
	{"geometry":{"coordinates":[7.712872,50.379553],"type":"Point"},"properties":{"osm_id":"8070468465","tag":{"amenity":"waste_basket","material":"metal"}},"type":"Feature"},
	{"geometry":{"coordinates":[7.72118,50.372982],"type":"Point"},"properties":{"osm_id":"8180804878","tag":{"amenity":"waste_basket","material":"metal"}},"type":"Feature"}
]
}
