{
"type": "FeatureCollection",
"features": [
	{"geometry":{"coordinates":[7.717829,50.330071],"type":"Point"},"properties":{"osm_id":"479548666","tag":{"amenity":"waste_basket"}},"type":"Feature"},
	{"geometry":{"coordinates":[7.668162,50.331554],"type":"Point"},"properties":{"osm_id":"825243819","tag":{"amenity":"recycling"}},"type":"Feature"},
	{"geometry":{"coordinates":[7.72996,50.336666],"type":"Point"},"properties":{"osm_id":"1201317171","tag":{"amenity":"waste_basket"}},"type":"Feature"},
	{"geometry":{"coordinates":[7.730552,50.33627],"type":"Point"},"properties":{"osm_id":"1201317177","tag":{"amenity":"waste_basket"}},"type":"Feature"},
	{"geometry":{"coordinates":[7.667131,50.327361],"type":"Point"},"properties":{"osm_id":"1519484270","tag":{"amenity":"recycling"}},"type":"Feature"},
	{"geometry":{"coordinates":[7.676954,50.310935],"type":"Point"},"properties":{"osm_id":"2082452462","tag":{"amenity":"recycling","recycling:clothes":"yes","recycling:glass":"yes","recycling_type":"container"}},"type":"Feature"},
	{"geometry":{"coordinates":[7.730845,50.32776],"type":"Point"},"properties":{"osm_id":"4741647774","tag":{"amenity":"waste_basket"}},"type":"Feature"},
	{"geometry":{"coordinates":[7.729707,50.325028],"type":"Point"},"properties":{"osm_id":"4741648572","tag":{"amenity":"waste_basket"}},"type":"Feature"},
	{"geometry":{"coordinates":[7.706037,50.330997],"type":"Point"},"properties":{"osm_id":"4742065121","tag":{"amenity":"recycling","recycling:glass_bottles":"yes","recycling_type":"container"}},"type":"Feature"},
	{"geometry":{"coordinates":[7.730348,50.328183],"type":"Point"},"properties":{"osm_id":"4742697686","tag":{"amenity":"waste_basket"}},"type":"Feature"},
	{"geometry":{"coordinates":[7.730102,50.326356],"type":"Point"},"properties":{"osm_id":"4742697735","tag":{"amenity":"recycling","operator":"Deutsches Rotes Kreuz","recycling:clothes":"yes","recycling_type":"container"}},"type":"Feature"},
	{"geometry":{"coordinates":[7.725826,50.328929],"type":"Point"},"properties":{"osm_id":"4743306783","tag":{"amenity":"waste_basket"}},"type":"Feature"},
	{"geometry":{"coordinates":[7.720766,50.331624],"type":"Point"},"properties":{"osm_id":"4745608750","tag":{"amenity":"waste_basket"}},"type":"Feature"},
	{"geometry":{"coordinates":[7.721365,50.331537],"type":"Point"},"properties":{"osm_id":"4745608756","tag":{"amenity":"waste_basket"}},"type":"Feature"},
	{"geometry":{"coordinates":[7.718675,50.331507],"type":"Point"},"properties":{"osm_id":"4745608777","tag":{"amenity":"waste_basket"}},"type":"Feature"},
	{"geometry":{"coordinates":[7.717588,50.332038],"type":"Point"},"properties":{"osm_id":"4745608794","tag":{"amenity":"waste_basket"}},"type":"Feature"},
	{"geometry":{"coordinates":[7.715192,50.326024],"type":"Point"},"properties":{"osm_id":"4756834477","tag":{"amenity":"waste_basket"}},"type":"Feature"},
	{"geometry":{"coordinates":[7.706191,50.333591],"type":"Point"},"properties":{"osm_id":"4783148522","tag":{"amenity":"waste_basket"}},"type":"Feature"},
	{"geometry":{"coordinates":[7.705839,50.333219],"type":"Point"},"properties":{"osm_id":"4783148523","tag":{"amenity":"waste_basket"}},"type":"Feature"},
	{"geometry":{"coordinates":[7.706515,50.332659],"type":"Point"},"properties":{"osm_id":"4783148524","tag":{"amenity":"waste_basket"}},"type":"Feature"},
	{"geometry":{"coordinates":[7.708761,50.332475],"type":"Point"},"properties":{"osm_id":"4783148544","tag":{"amenity":"waste_basket"}},"type":"Feature"},
	{"geometry":{"coordinates":[7.708592,50.332587],"type":"Point"},"properties":{"osm_id":"4783148545","tag":{"amenity":"waste_basket"}},"type":"Feature"},
	{"geometry":{"coordinates":[7.707627,50.333164],"type":"Point"},"properties":{"osm_id":"4783148546","tag":{"amenity":"waste_basket"}},"type":"Feature"},
	{"geometry":{"coordinates":[7.706442,50.333565],"type":"Point"},"properties":{"osm_id":"4783148547","tag":{"amenity":"recycling","recycling:glass_bottles":"yes","recycling_type":"container"}},"type":"Feature"},
	{"geometry":{"coordinates":[7.705984,50.333945],"type":"Point"},"properties":{"osm_id":"4783148548","tag":{"amenity":"waste_basket"}},"type":"Feature"},
	{"geometry":{"coordinates":[7.696116,50.335233],"type":"Point"},"properties":{"osm_id":"4783148555","tag":{"amenity":"waste_basket"}},"type":"Feature"},
	{"geometry":{"coordinates":[7.705083,50.332961],"type":"Point"},"properties":{"osm_id":"4783148594","tag":{"amenity":"waste_basket"}},"type":"Feature"},
	{"geometry":{"coordinates":[7.70669,50.332591],"type":"Point"},"properties":{"osm_id":"4783148597","tag":{"amenity":"waste_basket"}},"type":"Feature"},
	{"geometry":{"coordinates":[7.70642,50.333355],"type":"Point"},"properties":{"osm_id":"4783148604","tag":{"amenity":"waste_basket"}},"type":"Feature"},
	{"geometry":{"coordinates":[7.706328,50.330866],"type":"Point"},"properties":{"osm_id":"4810562239","tag":{"amenity":"waste_basket"}},"type":"Feature"},
	{"geometry":{"coordinates":[7.728277,50.327834],"type":"Point"},"properties":{"osm_id":"4811247843","tag":{"amenity":"waste_basket"}},"type":"Feature"},
	{"geometry":{"coordinates":[7.714167,50.333856],"type":"Point"},"properties":{"osm_id":"4811867337","tag":{"amenity":"waste_basket","level":"0"}},"type":"Feature"},
	{"geometry":{"coordinates":[7.71361,50.333644],"type":"Point"},"properties":{"osm_id":"4816291055","tag":{"amenity":"recycling","recycling:glass":"yes","recycling_type":"container"}},"type":"Feature"},
	{"geometry":{"coordinates":[7.692942,50.338657],"type":"Point"},"properties":{"osm_id":"5017430288","tag":{"amenity":"recycling","recycling:glass":"no","recycling:glass_bottles":"yes","recycling_type":"container"}},"type":"Feature"},
	{"geometry":{"coordinates":[7.678739,50.336393],"type":"Point"},"properties":{"osm_id":"5017430289","tag":{"amenity":"recycling","recycling:glass":"yes","recycling:glass_bottles":"yes","recycling:shoes":"yes","recycling_type":"container"}},"type":"Feature"},
	{"geometry":{"coordinates":[7.684386,50.3392],"type":"Point"},"properties":{"osm_id":"5017430290","tag":{"amenity":"recycling","recycling:clothes":"yes","recycling:shoes":"yes","recycling_type":"container"}},"type":"Feature"},
	{"geometry":{"coordinates":[7.684433,50.339188],"type":"Point"},"properties":{"osm_id":"5017430291","tag":{"amenity":"recycling","recycling:glass":"yes","recycling_type":"container"}},"type":"Feature"},
	{"geometry":{"coordinates":[7.684357,50.339213],"type":"Point"},"properties":{"osm_id":"5017430292","tag":{"amenity":"recycling","recycling:glass":"yes","recycling_type":"container"}},"type":"Feature"},
	{"geometry":{"coordinates":[7.649985,50.312597],"type":"Point"},"properties":{"name":"Zimmermann Recycling & Transporte GmbH","osm_id":"5126846310","tag":{"addr:city":"Lahnstein","addr:country":"DE","addr:district":"Rhein-Lahn-Kreis","addr:housenumber":"22","addr:postcode":"56112","addr:state":"Rheinland-Pfalz","addr:street":"Ahlerhof","addr:suburb":"Friedrichssegen","amenity":"recycling","fax":"+49 2621 921631","opening_hours":"Mo-Fr 07:00-18:00; Sa 08:00-14:00","phone":"+49 2621 921630","recycling_type":"centre","website":"http://www.zimmermann-recycling.com/"}},"type":"Feature"},
	{"geometry":{"coordinates":[7.681292,50.312834],"type":"Point"},"properties":{"osm_id":"6380397497","tag":{"amenity":"waste_basket"}},"type":"Feature"},
	{"geometry":{"coordinates":[7.679573,50.312714],"type":"Point"},"properties":{"osm_id":"6380509085","tag":{"amenity":"waste_basket"}},"type":"Feature"},
	{"geometry":{"coordinates":[7.665674,50.32454],"type":"Point"},"properties":{"osm_id":"7141806073","tag":{"amenity":"waste_basket"}},"type":"Feature"},
	{"geometry":{"coordinates":[7.666601,50.324785],"type":"Point"},"properties":{"osm_id":"7141865107","tag":{"amenity":"waste_basket","check_date":"2020-01-18","material":"steel"}},"type":"Feature"},
	{"geometry":{"coordinates":[7.665439,50.32414],"type":"Point"},"properties":{"osm_id":"7141879065","tag":{"amenity":"waste_basket","check_date":"2020-01-18","material":"steel"}},"type":"Feature"},
	{"geometry":{"coordinates":[7.681229,50.318764],"type":"Point"},"properties":{"osm_id":"7229070507","tag":{"amenity":"waste_basket"}},"type":"Feature"}
]
}
