{
"type": "FeatureCollection",
"features": [
	{"geometry":{"coordinates":[7.71106,49.479048],"type":"Point"},"properties":{"osm_id":"283024736","tag":{"amenity":"recycling","recycling:clothes":"no","recycling:glass":"yes"}},"type":"Feature"},
	{"geometry":{"coordinates":[7.731012,49.459655],"type":"Point"},"properties":{"osm_id":"324779928","tag":{"amenity":"recycling","recycling:glass":"yes","recycling_type":"container"}},"type":"Feature"},
	{"geometry":{"coordinates":[7.710194,49.440375],"type":"Point"},"properties":{"osm_id":"343236357","tag":{"amenity":"recycling","recycling:glass":"yes","recycling_type":"container"}},"type":"Feature"},
	{"geometry":{"coordinates":[7.731782,49.445391],"type":"Point"},"properties":{"osm_id":"400899067","tag":{"amenity":"recycling","mapillary":"CZc6lU_-o1oFJOl6xvHvQw","recycling:glass":"yes","recycling_type":"container","survey:date":"2017-08-20"}},"type":"Feature"},
	{"geometry":{"coordinates":[7.652683,49.4781],"type":"Point"},"properties":{"osm_id":"420482933","tag":{"amenity":"recycling","recycling:clothes":"yes","recycling:glass":"yes","recycling_type":"container"}},"type":"Feature"},
	{"geometry":{"coordinates":[7.695826,49.466819],"type":"Point"},"properties":{"osm_id":"472576295","tag":{"amenity":"recycling","recycling:glass":"yes"}},"type":"Feature"},
	{"geometry":{"coordinates":[7.715565,49.470002],"type":"Point"},"properties":{"osm_id":"635040645","tag":{"amenity":"recycling","recycling:clothes":"no","recycling:glass":"yes"}},"type":"Feature"},
	{"geometry":{"coordinates":[7.683332,49.481781],"type":"Point"},"properties":{"osm_id":"801944892","tag":{"amenity":"recycling","recycling:clothes":"yes"}},"type":"Feature"},
	{"geometry":{"coordinates":[7.674586,49.464084],"type":"Point"},"properties":{"osm_id":"801945211","tag":{"amenity":"waste_basket","tourism":"picnic_site"}},"type":"Feature"},
	{"geometry":{"coordinates":[7.733229,49.439849],"type":"Point"},"properties":{"osm_id":"801947000","tag":{"amenity":"waste_basket"}},"type":"Feature"},
	{"geometry":{"coordinates":[7.734143,49.495628],"type":"Point"},"properties":{"osm_id":"824177417","tag":{"amenity":"waste_basket"}},"type":"Feature"},
	{"geometry":{"coordinates":[7.733402,49.440638],"type":"Point"},"properties":{"osm_id":"2292663709","tag":{"amenity":"recycling","recycling:clothes":"yes","recycling_type":"container"}},"type":"Feature"},
	{"geometry":{"coordinates":[7.733793,49.440886],"type":"Point"},"properties":{"osm_id":"2292663730","tag":{"amenity":"waste_basket"}},"type":"Feature"},
	{"geometry":{"coordinates":[7.723852,49.463278],"type":"Point"},"properties":{"osm_id":"3223633354","tag":{"amenity":"recycling"}},"type":"Feature"},
	{"geometry":{"coordinates":[7.70219,49.441036],"type":"Point"},"properties":{"osm_id":"3715528282","tag":{"amenity":"recycling","recycling_type":"container"}},"type":"Feature"},
	{"geometry":{"coordinates":[7.714086,49.44331],"type":"Point"},"properties":{"osm_id":"4259445363","tag":{"amenity":"recycling","operator":"Textilverwertung Kazanowski","recycling:clothes":"yes","recycling:shoes":"yes","recycling_type":"container"}},"type":"Feature"},
	{"geometry":{"coordinates":[7.7077,49.440794],"type":"Point"},"properties":{"osm_id":"4769520319","tag":{"amenity":"recycling","recycling:glass":"yes","recycling_type":"container"}},"type":"Feature"},
	{"geometry":{"coordinates":[7.732691,49.439844],"type":"Point"},"properties":{"osm_id":"6331341473","tag":{"amenity":"waste_basket"}},"type":"Feature"},
	{"geometry":{"coordinates":[7.733751,49.494285],"type":"Point"},"properties":{"osm_id":"6356775543","tag":{"amenity":"waste_basket"}},"type":"Feature"}
]
}
