{
"type": "FeatureCollection",
"features": [
	{"geometry":{"coordinates":[7.726806,49.4306],"type":"Point"},"properties":{"osm_id":"288720903","tag":{"amenity":"recycling","recycling:glass":"yes","recycling_type":"container"}},"type":"Feature"},
	{"geometry":{"coordinates":[7.692947,49.391215],"type":"Point"},"properties":{"osm_id":"360226929","tag":{"amenity":"recycling","recycling:glass":"yes"}},"type":"Feature"},
	{"geometry":{"coordinates":[7.72486,49.430444],"type":"Point"},"properties":{"osm_id":"360671369","tag":{"amenity":"recycling","recycling:clothes":"yes","recycling:shoes":"yes"}},"type":"Feature"},
	{"geometry":{"coordinates":[7.697117,49.412623],"type":"Point"},"properties":{"osm_id":"364896884","tag":{"amenity":"recycling","recycling:glass":"yes"}},"type":"Feature"},
	{"geometry":{"coordinates":[7.701066,49.422324],"type":"Point"},"properties":{"osm_id":"364897171","tag":{"amenity":"recycling","recycling:glass":"yes","recycling_type":"container"}},"type":"Feature"},
	{"geometry":{"coordinates":[7.712861,49.398456],"type":"Point"},"properties":{"osm_id":"370275872","tag":{"amenity":"recycling","recycling:glass":"yes","recycling_type":"container"}},"type":"Feature"},
	{"geometry":{"coordinates":[7.724171,49.43337],"type":"Point"},"properties":{"osm_id":"472577116","tag":{"amenity":"recycling","recycling:clothes":"yes"}},"type":"Feature"},
	{"geometry":{"coordinates":[7.661879,49.431381],"type":"Point"},"properties":{"osm_id":"521143127","tag":{"amenity":"recycling","recycling:clothes":"yes","recycling:glass":"yes","recycling_type":"container"}},"type":"Feature"},
	{"geometry":{"coordinates":[7.668641,49.43011],"type":"Point"},"properties":{"osm_id":"535076714","tag":{"amenity":"recycling","recycling:glass":"yes"}},"type":"Feature"},
	{"geometry":{"coordinates":[7.725285,49.430074],"type":"Point"},"properties":{"osm_id":"616103150","tag":{"amenity":"recycling","recycling:paper":"yes"}},"type":"Feature"},
	{"geometry":{"coordinates":[7.72461,49.430736],"type":"Point"},"properties":{"osm_id":"616103211","tag":{"amenity":"waste_basket"}},"type":"Feature"},
	{"geometry":{"coordinates":[7.707307,49.417572],"type":"Point"},"properties":{"osm_id":"650044010","tag":{"amenity":"waste_basket","colour":"orange","material":"steel"}},"type":"Feature"},
	{"geometry":{"coordinates":[7.702973,49.40443],"type":"Point"},"properties":{"osm_id":"657785145","tag":{"amenity":"waste_basket"}},"type":"Feature"},
	{"geometry":{"coordinates":[7.703168,49.404276],"type":"Point"},"properties":{"osm_id":"657785160","tag":{"amenity":"waste_basket"}},"type":"Feature"},
	{"geometry":{"coordinates":[7.724126,49.42953],"type":"Point"},"properties":{"osm_id":"662757489","tag":{"amenity":"waste_basket"}},"type":"Feature"},
	{"geometry":{"coordinates":[7.726005,49.430288],"type":"Point"},"properties":{"osm_id":"662757507","tag":{"amenity":"waste_basket"}},"type":"Feature"},
	{"geometry":{"coordinates":[7.730669,49.430658],"type":"Point"},"properties":{"osm_id":"666740063","tag":{"amenity":"recycling","recycling:bio":"yes"}},"type":"Feature"},
	{"geometry":{"coordinates":[7.69913,49.412359],"type":"Point"},"properties":{"osm_id":"704486857","tag":{"amenity":"recycling","recycling:clothes":"yes"}},"type":"Feature"},
	{"geometry":{"coordinates":[7.725305,49.402493],"type":"Point"},"properties":{"osm_id":"761143396","tag":{"amenity":"waste_basket"}},"type":"Feature"},
	{"geometry":{"coordinates":[7.725774,49.437835],"type":"Point"},"properties":{"osm_id":"801944960","tag":{"amenity":"recycling","recycling:clothes":"yes","recycling:glass":"yes","recycling_type":"container"}},"type":"Feature"},
	{"geometry":{"coordinates":[7.723079,49.438256],"type":"Point"},"properties":{"osm_id":"801944989","tag":{"access":"private","amenity":"recycling","recycling:glass_bottles":"yes","recycling_type":"container"}},"type":"Feature"},
	{"geometry":{"coordinates":[7.733418,49.439488],"type":"Point"},"properties":{"osm_id":"801946572","tag":{"amenity":"waste_basket"}},"type":"Feature"},
	{"geometry":{"coordinates":[7.733344,49.439205],"type":"Point"},"properties":{"osm_id":"801946906","tag":{"amenity":"recycling","recycling:glass":"yes","recycling_type":"container"}},"type":"Feature"},
	{"geometry":{"coordinates":[7.698373,49.415848],"type":"Point"},"properties":{"osm_id":"877661102","tag":{"amenity":"waste_basket"}},"type":"Feature"},
	{"geometry":{"coordinates":[7.6975,49.416017],"type":"Point"},"properties":{"osm_id":"878675027","tag":{"amenity":"waste_basket"}},"type":"Feature"},
	{"geometry":{"coordinates":[7.732068,49.434335],"type":"Point"},"properties":{"osm_id":"1940203448","tag":{"amenity":"recycling","recycling:clothes":"yes","recycling_type":"container"}},"type":"Feature"},
	{"geometry":{"coordinates":[7.726421,49.432683],"type":"Point"},"properties":{"osm_id":"1945056854","tag":{"amenity":"recycling","recycling:clothes":"yes","recycling_type":"container"}},"type":"Feature"},
	{"geometry":{"coordinates":[7.718637,49.437871],"type":"Point"},"properties":{"osm_id":"1976638926","tag":{"amenity":"waste_basket"}},"type":"Feature"},
	{"geometry":{"coordinates":[7.704098,49.421479],"type":"Point"},"properties":{"osm_id":"2098726800","tag":{"amenity":"recycling","recycling:clothes":"yes","recycling_type":"container"}},"type":"Feature"},
	{"geometry":{"coordinates":[7.695756,49.416904],"type":"Point"},"properties":{"osm_id":"2107296886","tag":{"amenity":"recycling","recycling:glass":"yes","recycling_type":"container"}},"type":"Feature"},
	{"geometry":{"coordinates":[7.691533,49.416905],"type":"Point"},"properties":{"osm_id":"2108965069","tag":{"amenity":"waste_basket"}},"type":"Feature"},
	{"geometry":{"coordinates":[7.699797,49.411365],"type":"Point"},"properties":{"osm_id":"2140364379","tag":{"amenity":"waste_basket"}},"type":"Feature"},
	{"geometry":{"coordinates":[7.726985,49.404836],"type":"Point"},"properties":{"osm_id":"2229315824","tag":{"amenity":"recycling","recycling:glass":"yes","recycling_type":"container"}},"type":"Feature"},
	{"geometry":{"coordinates":[7.733452,49.407423],"type":"Point"},"properties":{"osm_id":"2229315895","tag":{"amenity":"recycling","recycling:glass":"yes","recycling_type":"container"}},"type":"Feature"},
	{"geometry":{"coordinates":[7.726302,49.404537],"type":"Point"},"properties":{"osm_id":"2252673858","tag":{"amenity":"waste_basket"}},"type":"Feature"},
	{"geometry":{"coordinates":[7.728326,49.405508],"type":"Point"},"properties":{"osm_id":"2265701511","tag":{"amenity":"recycling","recycling:clothes":"yes","recycling_type":"container"}},"type":"Feature"},
	{"geometry":{"coordinates":[7.727395,49.403244],"type":"Point"},"properties":{"osm_id":"2266269232","tag":{"amenity":"recycling","recycling:glass":"yes","recycling_type":"container"}},"type":"Feature"},
	{"geometry":{"coordinates":[7.725473,49.402716],"type":"Point"},"properties":{"osm_id":"2266821479","tag":{"amenity":"waste_basket"}},"type":"Feature"},
	{"geometry":{"coordinates":[7.727121,49.402809],"type":"Point"},"properties":{"osm_id":"2266821534","tag":{"amenity":"waste_basket"}},"type":"Feature"},
	{"geometry":{"coordinates":[7.660835,49.43405],"type":"Point"},"properties":{"osm_id":"2517375375","tag":{"amenity":"waste_basket"}},"type":"Feature"},
	{"geometry":{"coordinates":[7.661099,49.434241],"type":"Point"},"properties":{"osm_id":"2517375461","tag":{"amenity":"waste_basket"}},"type":"Feature"},
	{"geometry":{"coordinates":[7.660371,49.434261],"type":"Point"},"properties":{"osm_id":"2548902172","tag":{"amenity":"waste_basket"}},"type":"Feature"},
	{"geometry":{"coordinates":[7.660726,49.434546],"type":"Point"},"properties":{"osm_id":"2548902177","tag":{"amenity":"waste_basket"}},"type":"Feature"},
	{"geometry":{"coordinates":[7.659454,49.434563],"type":"Point"},"properties":{"osm_id":"2548902178","tag":{"amenity":"waste_basket"}},"type":"Feature"},
	{"geometry":{"coordinates":[7.659241,49.435018],"type":"Point"},"properties":{"osm_id":"2548902193","tag":{"amenity":"waste_basket"}},"type":"Feature"},
	{"geometry":{"coordinates":[7.654403,49.438781],"type":"Point"},"properties":{"osm_id":"2579367036","tag":{"amenity":"recycling","recycling:glass":"yes","recycling_type":"container"}},"type":"Feature"},
	{"geometry":{"coordinates":[7.671963,49.430886],"type":"Point"},"properties":{"osm_id":"3297586034","tag":{"amenity":"recycling","recycling:clothes":"yes","recycling_type":"container"}},"type":"Feature"},
	{"geometry":{"coordinates":[7.674171,49.431217],"type":"Point"},"properties":{"osm_id":"3297586113","tag":{"amenity":"recycling","recycling:clothes":"yes","recycling_type":"container"}},"type":"Feature"},
	{"geometry":{"coordinates":[7.663536,49.43909],"type":"Point"},"properties":{"osm_id":"3741068040","tag":{"amenity":"recycling","recycling:clothes":"yes","recycling:shoes":"yes","recycling_type":"container"}},"type":"Feature"},
	{"geometry":{"coordinates":[7.725439,49.43786],"type":"Point"},"properties":{"osm_id":"5750268461","tag":{"amenity":"waste_basket"}},"type":"Feature"},
	{"geometry":{"coordinates":[7.726689,49.430676],"type":"Point"},"properties":{"osm_id":"7277584087","tag":{"amenity":"waste_basket"}},"type":"Feature"}
]
}
