{
"type": "FeatureCollection",
"features": [
	{"geometry":{"coordinates":[7.670108,48.488108],"type":"Point"},"properties":{"osm_id":"821963509","tag":{"amenity":"recycling"}},"type":"Feature"},
	{"geometry":{"coordinates":[7.670985,48.492801],"type":"Point"},"properties":{"osm_id":"823577880","tag":{"amenity":"recycling","recycling:glass_bottles":"yes","recycling:paper":"yes","recycling_type":"container"}},"type":"Feature"},
	{"geometry":{"coordinates":[7.696525,48.514987],"type":"Point"},"properties":{"osm_id":"2078704589","tag":{"amenity":"recycling","recycling:glass_bottles":"yes","recycling_type":"container"}},"type":"Feature"},
	{"geometry":{"coordinates":[7.657432,48.515029],"type":"Point"},"properties":{"osm_id":"2078704590","tag":{"amenity":"recycling","recycling:glass_bottles":"yes","recycling:paper":"yes","recycling_type":"container"}},"type":"Feature"},
	{"geometry":{"coordinates":[7.647601,48.512346],"type":"Point"},"properties":{"osm_id":"2083722223","tag":{"amenity":"recycling"}},"type":"Feature"},
	{"geometry":{"coordinates":[7.718444,48.462333],"type":"Point"},"properties":{"osm_id":"2088463995","tag":{"amenity":"recycling","recycling:glass_bottles":"yes","recycling:paper":"yes","recycling_type":"container"}},"type":"Feature"},
	{"geometry":{"coordinates":[7.726581,48.467532],"type":"Point"},"properties":{"osm_id":"2088464028","tag":{"amenity":"recycling","recycling:glass_bottles":"yes","recycling:paper":"yes","recycling_type":"container"}},"type":"Feature"},
	{"geometry":{"coordinates":[7.722038,48.470476],"type":"Point"},"properties":{"osm_id":"2088464049","tag":{"amenity":"recycling","recycling:glass_bottles":"yes","recycling:paper":"yes","recycling_type":"container"}},"type":"Feature"},
	{"geometry":{"coordinates":[7.727966,48.471448],"type":"Point"},"properties":{"osm_id":"2088464059","tag":{"amenity":"recycling","recycling:glass_bottles":"yes","recycling:paper":"yes","recycling_type":"container"}},"type":"Feature"},
	{"geometry":{"coordinates":[7.704671,48.474639],"type":"Point"},"properties":{"osm_id":"2088464075","tag":{"amenity":"recycling","recycling:glass_bottles":"yes","recycling:paper":"yes","recycling_type":"container"}},"type":"Feature"},
	{"geometry":{"coordinates":[7.730949,48.47644],"type":"Point"},"properties":{"osm_id":"2088464080","tag":{"amenity":"recycling","recycling:glass_bottles":"yes","recycling:paper":"yes","recycling_type":"container"}},"type":"Feature"},
	{"geometry":{"coordinates":[7.72109,48.4857],"type":"Point"},"properties":{"osm_id":"2088464085","tag":{"amenity":"recycling","recycling:glass_bottles":"yes","recycling:paper":"yes","recycling_type":"container"}},"type":"Feature"},
	{"geometry":{"coordinates":[7.729068,48.487296],"type":"Point"},"properties":{"osm_id":"2088464094","tag":{"amenity":"recycling","recycling:glass_bottles":"yes","recycling:paper":"yes","recycling_type":"container"}},"type":"Feature"},
	{"geometry":{"coordinates":[7.713517,48.487369],"type":"Point"},"properties":{"osm_id":"2088464099","tag":{"amenity":"recycling","recycling:glass_bottles":"yes","recycling:paper":"yes","recycling_type":"container"}},"type":"Feature"},
	{"geometry":{"coordinates":[7.70007,48.488666],"type":"Point"},"properties":{"osm_id":"2088464107","tag":{"amenity":"recycling","recycling:glass_bottles":"yes","recycling:paper":"yes","recycling_type":"container"}},"type":"Feature"},
	{"geometry":{"coordinates":[7.696392,48.490082],"type":"Point"},"properties":{"osm_id":"2088464118","tag":{"amenity":"recycling","recycling:glass_bottles":"yes","recycling:paper":"yes","recycling_type":"container"}},"type":"Feature"},
	{"geometry":{"coordinates":[7.68499,48.490658],"type":"Point"},"properties":{"osm_id":"2088464124","tag":{"amenity":"recycling","recycling:glass_bottles":"yes","recycling:paper":"yes","recycling_type":"container"}},"type":"Feature"},
	{"geometry":{"coordinates":[7.679116,48.492478],"type":"Point"},"properties":{"osm_id":"2088464129","tag":{"amenity":"recycling","recycling:glass_bottles":"yes","recycling:paper":"yes","recycling_type":"container"}},"type":"Feature"},
	{"geometry":{"coordinates":[7.691508,48.495572],"type":"Point"},"properties":{"osm_id":"2088464130","tag":{"amenity":"recycling","recycling:glass_bottles":"yes","recycling:paper":"yes","recycling_type":"container"}},"type":"Feature"},
	{"geometry":{"coordinates":[7.731322,48.506746],"type":"Point"},"properties":{"osm_id":"2120562200","tag":{"amenity":"recycling","recycling:glass_bottles":"yes","recycling_type":"container"}},"type":"Feature"},
	{"geometry":{"coordinates":[7.726539,48.510622],"type":"Point"},"properties":{"osm_id":"2829847277","tag":{"amenity":"waste_basket"}},"type":"Feature"},
	{"geometry":{"coordinates":[7.724321,48.485314],"type":"Point"},"properties":{"osm_id":"2948426981","tag":{"amenity":"recycling","recycling:glass_bottles":"yes","recycling:paper":"yes","recycling:plastic_bottles":"yes","recycling_type":"container"}},"type":"Feature"},
	{"geometry":{"coordinates":[7.709095,48.479826],"type":"Point"},"properties":{"osm_id":"3412524341","tag":{"amenity":"recycling"}},"type":"Feature"},
	{"geometry":{"coordinates":[7.707188,48.515966],"type":"Point"},"properties":{"osm_id":"4254607050","tag":{"amenity":"waste_basket"}},"type":"Feature"},
	{"geometry":{"coordinates":[7.705375,48.516182],"type":"Point"},"properties":{"osm_id":"4254652620","tag":{"amenity":"waste_basket"}},"type":"Feature"},
	{"geometry":{"coordinates":[7.704426,48.516382],"type":"Point"},"properties":{"osm_id":"4254709703","tag":{"amenity":"waste_basket"}},"type":"Feature"},
	{"geometry":{"coordinates":[7.64678,48.516017],"type":"Point"},"properties":{"osm_id":"6598102001","tag":{"amenity":"waste_basket","waste":"trash"}},"type":"Feature"},
	{"geometry":{"coordinates":[7.70602,48.516513],"type":"Point"},"properties":{"osm_id":"6715904863","tag":{"amenity":"waste_basket","waste":"trash"}},"type":"Feature"},
	{"geometry":{"coordinates":[7.70627,48.51636],"type":"Point"},"properties":{"osm_id":"6715919046","tag":{"amenity":"waste_basket","waste":"trash"}},"type":"Feature"},
	{"geometry":{"coordinates":[7.658246,48.488836],"type":"Point"},"properties":{"osm_id":"7445095656","tag":{"amenity":"recycling","recycling_type":"container"}},"type":"Feature"},
	{"geometry":{"coordinates":[7.72309,48.514815],"type":"Point"},"properties":{"osm_id":"7684683329","tag":{"amenity":"recycling","opening_hours":"24/7","opening_hours:covid19":"same","recycling:clothes":"yes","recycling_type":"container"}},"type":"Feature"},
	{"geometry":{"coordinates":[7.706811,48.516362],"type":"Point"},"properties":{"osm_id":"7801621207","tag":{"amenity":"waste_basket"}},"type":"Feature"},
	{"geometry":{"coordinates":[7.72368,48.511799],"type":"Point"},"properties":{"osm_id":"7950904982","tag":{"amenity":"waste_basket","waste":"trash"}},"type":"Feature"},
	{"geometry":{"coordinates":[7.723495,48.510608],"type":"Point"},"properties":{"osm_id":"7952254909","tag":{"amenity":"waste_basket","waste":"trash"}},"type":"Feature"},
	{"geometry":{"coordinates":[7.72398,48.511893],"type":"Point"},"properties":{"osm_id":"7952293737","tag":{"amenity":"waste_basket","waste":"trash"}},"type":"Feature"}
]
}
