{
"type": "FeatureCollection",
"features": [
	{"geometry":{"coordinates":[7.692843,48.151509],"type":"Point"},"properties":{"barrier":"gate","osm_id":"1694646806","tag":{"access":"customers"}},"type":"Feature"},
	{"geometry":{"coordinates":[7.702714,48.14936],"type":"Point"},"properties":{"osm_id":"2554553209","tag":{"amenity":"recycling","recycling:clothes":"yes","recycling:glass_bottles":"yes","recycling_type":"container"}},"type":"Feature"},
	{"geometry":{"coordinates":[7.67551,48.128308],"type":"Point"},"properties":{"osm_id":"2604594523","tag":{"amenity":"recycling","recycling:glass":"yes","recycling_type":"container"}},"type":"Feature"},
	{"geometry":{"coordinates":[7.708233,48.141232],"type":"Point"},"properties":{"osm_id":"4319202293","tag":{"amenity":"waste_basket"}},"type":"Feature"},
	{"geometry":{"coordinates":[7.733809,48.122899],"type":"Point"},"properties":{"osm_id":"4338608495","tag":{"amenity":"waste_basket"}},"type":"Feature"},
	{"geometry":{"coordinates":[7.733675,48.122824],"type":"Point"},"properties":{"osm_id":"4338608496","tag":{"amenity":"waste_basket"}},"type":"Feature"},
	{"geometry":{"coordinates":[7.734204,48.123254],"type":"Point"},"properties":{"osm_id":"4338635591","tag":{"amenity":"waste_basket"}},"type":"Feature"},
	{"geometry":{"coordinates":[7.711212,48.118341],"type":"Point"},"properties":{"osm_id":"4427851594","tag":{"amenity":"waste_basket"}},"type":"Feature"},
	{"geometry":{"coordinates":[7.711166,48.117989],"type":"Point"},"properties":{"osm_id":"4427851596","tag":{"amenity":"waste_basket"}},"type":"Feature"},
	{"geometry":{"coordinates":[7.705492,48.113594],"type":"Point"},"properties":{"osm_id":"4427851608","tag":{"amenity":"waste_basket"}},"type":"Feature"},
	{"geometry":{"coordinates":[7.711468,48.118344],"type":"Point"},"properties":{"osm_id":"4427901191","tag":{"amenity":"waste_basket"}},"type":"Feature"},
	{"geometry":{"coordinates":[7.734142,48.123803],"type":"Point"},"properties":{"osm_id":"4429176690","tag":{"amenity":"waste_basket"}},"type":"Feature"},
	{"geometry":{"coordinates":[7.703768,48.138231],"type":"Point"},"properties":{"osm_id":"4454479976","tag":{"amenity":"recycling","recycling:clothes":"yes","recycling:glass":"yes","recycling_type":"container","type":"container"}},"type":"Feature"},
	{"geometry":{"coordinates":[7.708399,48.145895],"type":"Point"},"properties":{"osm_id":"5924332628","tag":{"amenity":"waste_basket"}},"type":"Feature"},
	{"geometry":{"coordinates":[7.706547,48.146144],"type":"Point"},"properties":{"osm_id":"5924332657","tag":{"amenity":"waste_basket","waste":"trash"}},"type":"Feature"},
	{"geometry":{"coordinates":[7.706495,48.14651],"type":"Point"},"properties":{"osm_id":"5924332669","tag":{"amenity":"waste_basket","waste":"trash"}},"type":"Feature"},
	{"geometry":{"coordinates":[7.704509,48.147029],"type":"Point"},"properties":{"osm_id":"5924336506","tag":{"amenity":"waste_basket","waste":"trash"}},"type":"Feature"},
	{"geometry":{"coordinates":[7.704421,48.146958],"type":"Point"},"properties":{"osm_id":"5924336511","tag":{"amenity":"waste_basket","waste":"trash"}},"type":"Feature"},
	{"geometry":{"coordinates":[7.70445,48.147123],"type":"Point"},"properties":{"osm_id":"5924336522","tag":{"amenity":"waste_basket","waste":"trash"}},"type":"Feature"},
	{"geometry":{"coordinates":[7.704322,48.147025],"type":"Point"},"properties":{"osm_id":"5924336525","tag":{"amenity":"waste_basket","waste":"trash"}},"type":"Feature"},
	{"geometry":{"coordinates":[7.704655,48.147037],"type":"Point"},"properties":{"osm_id":"5924336532","tag":{"amenity":"waste_basket","waste":"trash"}},"type":"Feature"},
	{"geometry":{"coordinates":[7.706958,48.147147],"type":"Point"},"properties":{"osm_id":"5962962037","tag":{"amenity":"waste_basket","waste":"trash"}},"type":"Feature"},
	{"geometry":{"coordinates":[7.706792,48.147304],"type":"Point"},"properties":{"osm_id":"5962962043","tag":{"amenity":"waste_basket","waste":"trash"}},"type":"Feature"},
	{"geometry":{"coordinates":[7.701058,48.14828],"type":"Point"},"properties":{"osm_id":"5962963192","tag":{"amenity":"waste_basket","waste":"trash"}},"type":"Feature"},
	{"geometry":{"coordinates":[7.701692,48.148192],"type":"Point"},"properties":{"osm_id":"5962963205","tag":{"amenity":"waste_basket","waste":"trash"}},"type":"Feature"},
	{"geometry":{"coordinates":[7.701867,48.147849],"type":"Point"},"properties":{"osm_id":"5962963207","tag":{"amenity":"waste_basket","waste":"trash"}},"type":"Feature"},
	{"geometry":{"coordinates":[7.701847,48.147965],"type":"Point"},"properties":{"osm_id":"5962963208","tag":{"amenity":"waste_basket","waste":"trash"}},"type":"Feature"},
	{"geometry":{"coordinates":[7.705038,48.149058],"type":"Point"},"properties":{"osm_id":"5964344603","tag":{"amenity":"waste_basket","waste":"trash"}},"type":"Feature"},
	{"geometry":{"coordinates":[7.704949,48.148816],"type":"Point"},"properties":{"osm_id":"5964344614","tag":{"amenity":"waste_basket","waste":"trash"}},"type":"Feature"},
	{"geometry":{"coordinates":[7.70548,48.143153],"type":"Point"},"properties":{"osm_id":"6018950999","tag":{"amenity":"waste_basket"}},"type":"Feature"},
	{"geometry":{"coordinates":[7.703296,48.142581],"type":"Point"},"properties":{"osm_id":"6018951014","tag":{"amenity":"waste_basket"}},"type":"Feature"},
	{"geometry":{"coordinates":[7.703422,48.14275],"type":"Point"},"properties":{"osm_id":"6018951016","tag":{"amenity":"waste_basket"}},"type":"Feature"},
	{"geometry":{"coordinates":[7.703397,48.142391],"type":"Point"},"properties":{"osm_id":"6018951020","tag":{"amenity":"waste_basket"}},"type":"Feature"},
	{"geometry":{"coordinates":[7.702909,48.142008],"type":"Point"},"properties":{"osm_id":"6018951034","tag":{"amenity":"waste_disposal"}},"type":"Feature"},
	{"geometry":{"coordinates":[7.702921,48.144147],"type":"Point"},"properties":{"osm_id":"6018951047","tag":{"amenity":"waste_disposal"}},"type":"Feature"},
	{"geometry":{"coordinates":[7.703736,48.137007],"type":"Point"},"properties":{"osm_id":"6070611746","tag":{"amenity":"waste_basket","waste":"trash"}},"type":"Feature"},
	{"geometry":{"coordinates":[7.703955,48.136762],"type":"Point"},"properties":{"osm_id":"6070611747","tag":{"amenity":"waste_basket","waste":"trash"}},"type":"Feature"},
	{"geometry":{"coordinates":[7.704578,48.142269],"type":"Point"},"properties":{"osm_id":"6087491949","tag":{"amenity":"waste_basket"}},"type":"Feature"},
	{"geometry":{"coordinates":[7.706306,48.14034],"type":"Point"},"properties":{"osm_id":"6087752211","tag":{"amenity":"waste_basket"}},"type":"Feature"},
	{"geometry":{"coordinates":[7.706001,48.141008],"type":"Point"},"properties":{"osm_id":"6087752220","tag":{"amenity":"waste_basket"}},"type":"Feature"},
	{"geometry":{"coordinates":[7.704123,48.140885],"type":"Point"},"properties":{"osm_id":"6088271395","tag":{"amenity":"waste_basket"}},"type":"Feature"},
	{"geometry":{"coordinates":[7.704196,48.140749],"type":"Point"},"properties":{"osm_id":"6088271396","tag":{"amenity":"waste_basket"}},"type":"Feature"},
	{"geometry":{"coordinates":[7.704229,48.141757],"type":"Point"},"properties":{"osm_id":"6088271397","tag":{"amenity":"waste_basket"}},"type":"Feature"},
	{"geometry":{"coordinates":[7.704765,48.140955],"type":"Point"},"properties":{"osm_id":"6089831656","tag":{"amenity":"waste_basket"}},"type":"Feature"},
	{"geometry":{"coordinates":[7.703727,48.140892],"type":"Point"},"properties":{"osm_id":"6089831662","tag":{"amenity":"waste_basket"}},"type":"Feature"},
	{"geometry":{"coordinates":[7.703788,48.140854],"type":"Point"},"properties":{"osm_id":"6089831664","tag":{"amenity":"waste_basket"}},"type":"Feature"},
	{"geometry":{"coordinates":[7.703542,48.140942],"type":"Point"},"properties":{"osm_id":"6089831667","tag":{"amenity":"waste_basket"}},"type":"Feature"},
	{"geometry":{"coordinates":[7.703342,48.141389],"type":"Point"},"properties":{"osm_id":"6089831669","tag":{"amenity":"waste_basket"}},"type":"Feature"},
	{"geometry":{"coordinates":[7.703213,48.141804],"type":"Point"},"properties":{"osm_id":"6089831670","tag":{"amenity":"waste_basket"}},"type":"Feature"},
	{"geometry":{"coordinates":[7.703492,48.140936],"type":"Point"},"properties":{"osm_id":"6089845958","tag":{"amenity":"waste_basket"}},"type":"Feature"},
	{"geometry":{"coordinates":[7.703634,48.140122],"type":"Point"},"properties":{"osm_id":"6089845964","tag":{"amenity":"waste_basket"}},"type":"Feature"},
	{"geometry":{"coordinates":[7.701472,48.142315],"type":"Point"},"properties":{"osm_id":"6089884449","tag":{"amenity":"waste_basket"}},"type":"Feature"},
	{"geometry":{"coordinates":[7.701845,48.142186],"type":"Point"},"properties":{"osm_id":"6089884457","tag":{"amenity":"waste_basket"}},"type":"Feature"},
	{"geometry":{"coordinates":[7.701321,48.134181],"type":"Point"},"properties":{"osm_id":"6089942011","tag":{"amenity":"waste_basket"}},"type":"Feature"},
	{"geometry":{"coordinates":[7.701342,48.134063],"type":"Point"},"properties":{"osm_id":"6089942013","tag":{"amenity":"waste_basket"}},"type":"Feature"},
	{"geometry":{"coordinates":[7.701263,48.134178],"type":"Point"},"properties":{"osm_id":"6089942038","tag":{"amenity":"waste_basket"}},"type":"Feature"},
	{"geometry":{"coordinates":[7.701242,48.134396],"type":"Point"},"properties":{"osm_id":"6089942044","tag":{"access":"customers","amenity":"waste_basket"}},"type":"Feature"},
	{"geometry":{"coordinates":[7.701438,48.134658],"type":"Point"},"properties":{"osm_id":"6089942063","tag":{"access":"customers","amenity":"waste_basket"}},"type":"Feature"},
	{"geometry":{"coordinates":[7.703305,48.13743],"type":"Point"},"properties":{"osm_id":"6089942386","tag":{"amenity":"waste_basket"}},"type":"Feature"},
	{"geometry":{"coordinates":[7.703221,48.137755],"type":"Point"},"properties":{"osm_id":"6089942387","tag":{"amenity":"waste_basket"}},"type":"Feature"},
	{"geometry":{"coordinates":[7.704018,48.138366],"type":"Point"},"properties":{"osm_id":"6089942389","tag":{"amenity":"waste_basket"}},"type":"Feature"},
	{"geometry":{"coordinates":[7.703566,48.138361],"type":"Point"},"properties":{"osm_id":"6089942393","tag":{"amenity":"waste_basket"}},"type":"Feature"},
	{"geometry":{"coordinates":[7.703479,48.138518],"type":"Point"},"properties":{"osm_id":"6089942394","tag":{"amenity":"waste_basket"}},"type":"Feature"},
	{"geometry":{"coordinates":[7.703194,48.138615],"type":"Point"},"properties":{"osm_id":"6089942397","tag":{"amenity":"waste_basket"}},"type":"Feature"},
	{"geometry":{"coordinates":[7.703031,48.140485],"type":"Point"},"properties":{"osm_id":"6100845685","tag":{"amenity":"waste_basket"}},"type":"Feature"},
	{"geometry":{"coordinates":[7.703243,48.140805],"type":"Point"},"properties":{"osm_id":"6100845686","tag":{"amenity":"waste_basket"}},"type":"Feature"},
	{"geometry":{"coordinates":[7.707,48.138919],"type":"Point"},"properties":{"osm_id":"6125212427","tag":{"amenity":"waste_basket"}},"type":"Feature"},
	{"geometry":{"coordinates":[7.704716,48.137911],"type":"Point"},"properties":{"osm_id":"6125212441","tag":{"amenity":"waste_basket"}},"type":"Feature"},
	{"geometry":{"coordinates":[7.704688,48.138012],"type":"Point"},"properties":{"osm_id":"6125212442","tag":{"amenity":"waste_basket"}},"type":"Feature"},
	{"geometry":{"coordinates":[7.706308,48.13841],"type":"Point"},"properties":{"osm_id":"6125212455","tag":{"amenity":"waste_basket"}},"type":"Feature"},
	{"geometry":{"coordinates":[7.700935,48.140738],"type":"Point"},"properties":{"osm_id":"6125212501","tag":{"amenity":"waste_basket"}},"type":"Feature"},
	{"geometry":{"coordinates":[7.70305,48.141403],"type":"Point"},"properties":{"osm_id":"6125212521","tag":{"amenity":"waste_basket"}},"type":"Feature"},
	{"geometry":{"coordinates":[7.701036,48.142024],"type":"Point"},"properties":{"osm_id":"6185892548","tag":{"amenity":"waste_basket"}},"type":"Feature"},
	{"geometry":{"coordinates":[7.70145,48.139742],"type":"Point"},"properties":{"osm_id":"6206846251","tag":{"amenity":"waste_basket"}},"type":"Feature"},
	{"geometry":{"coordinates":[7.701034,48.140296],"type":"Point"},"properties":{"osm_id":"6245165041","tag":{"amenity":"waste_basket"}},"type":"Feature"},
	{"geometry":{"coordinates":[7.701069,48.13938],"type":"Point"},"properties":{"osm_id":"6245165051","tag":{"amenity":"waste_basket"}},"type":"Feature"},
	{"geometry":{"coordinates":[7.697145,48.138737],"type":"Point"},"properties":{"osm_id":"6245211310","tag":{"amenity":"waste_basket"}},"type":"Feature"},
	{"geometry":{"coordinates":[7.701811,48.144196],"type":"Point"},"properties":{"osm_id":"6327118495","tag":{"amenity":"waste_disposal"}},"type":"Feature"},
	{"geometry":{"coordinates":[7.698288,48.142933],"type":"Point"},"properties":{"osm_id":"6327140626","tag":{"amenity":"waste_basket","waste":"trash"}},"type":"Feature"},
	{"geometry":{"coordinates":[7.698262,48.142859],"type":"Point"},"properties":{"osm_id":"6327140627","tag":{"amenity":"waste_basket","waste":"trash"}},"type":"Feature"},
	{"geometry":{"coordinates":[7.698593,48.142543],"type":"Point"},"properties":{"osm_id":"6327140628","tag":{"amenity":"recycling","recycling:clothes":"yes","recycling_type":"container"}},"type":"Feature"},
	{"geometry":{"coordinates":[7.696632,48.141151],"type":"Point"},"properties":{"osm_id":"6327467258","tag":{"amenity":"waste_basket","waste":"trash"}},"type":"Feature"},
	{"geometry":{"coordinates":[7.69302,48.140332],"type":"Point"},"properties":{"osm_id":"6327478996","tag":{"amenity":"waste_basket","waste":"trash"}},"type":"Feature"},
	{"geometry":{"coordinates":[7.693261,48.140436],"type":"Point"},"properties":{"osm_id":"6327479014","tag":{"amenity":"waste_basket","waste":"trash"}},"type":"Feature"},
	{"geometry":{"coordinates":[7.69365,48.140463],"type":"Point"},"properties":{"osm_id":"6327479028","tag":{"amenity":"recycling","recycling:clothes":"yes","recycling:glass_bottles":"yes","recycling_type":"container"}},"type":"Feature"},
	{"geometry":{"coordinates":[7.698772,48.147697],"type":"Point"},"properties":{"osm_id":"6513895724","tag":{"amenity":"waste_basket","waste":"trash"}},"type":"Feature"},
	{"geometry":{"coordinates":[7.699806,48.146729],"type":"Point"},"properties":{"osm_id":"6513895766","tag":{"amenity":"waste_basket","waste":"trash"}},"type":"Feature"},
	{"geometry":{"coordinates":[7.700857,48.134164],"type":"Point"},"properties":{"osm_id":"6712281918","tag":{"amenity":"waste_basket"}},"type":"Feature"},
	{"geometry":{"coordinates":[7.692861,48.151597],"type":"Point"},"properties":{"barrier":"gate","osm_id":"6743769534","tag":{"access":"customers"}},"type":"Feature"},
	{"geometry":{"coordinates":[7.701129,48.15147],"type":"Point"},"properties":{"osm_id":"6743802634","tag":{"amenity":"waste_basket"}},"type":"Feature"},
	{"geometry":{"coordinates":[7.675967,48.128452],"type":"Point"},"properties":{"osm_id":"6743881474","tag":{"amenity":"waste_basket"}},"type":"Feature"},
	{"geometry":{"coordinates":[7.691566,48.148678],"type":"Point"},"properties":{"osm_id":"6855617837","tag":{"amenity":"recycling","operator":"TEXAID","recycling:clothes":"yes","recycling_type":"container"}},"type":"Feature"}
]
}
