{
"type": "FeatureCollection",
"features": [
	{"geometry":{"coordinates":[7.725908,48.025532],"type":"Point"},"properties":{"osm_id":"267169983","tag":{"amenity":"recycling"}},"type":"Feature"},
	{"geometry":{"coordinates":[7.715622,48.022787],"type":"Point"},"properties":{"osm_id":"362857610","tag":{"amenity":"recycling"}},"type":"Feature"},
	{"geometry":{"coordinates":[7.720585,48.021405],"type":"Point"},"properties":{"osm_id":"877749136","tag":{"amenity":"recycling"}},"type":"Feature"},
	{"geometry":{"coordinates":[7.713635,48.001495],"type":"Point"},"properties":{"name":"Glas-Container","osm_id":"4831086826","tag":{"amenity":"recycling","description":"Glascontainer und Altkleidercontainer","recycling_type":"container"}},"type":"Feature"},
	{"geometry":{"coordinates":[7.650823,48.043494],"type":"Point"},"properties":{"osm_id":"5110946110","tag":{"amenity":"recycling","recycling:glass":"yes","recycling:glass_bottles":"yes","recycling_type":"container"}},"type":"Feature"},
	{"geometry":{"coordinates":[7.68513,48.048433],"type":"Point"},"properties":{"osm_id":"6772436830","tag":{"amenity":"recycling","recycling:clothes":"yes","recycling:shoes":"yes","recycling_type":"container"}},"type":"Feature"},
	{"geometry":{"coordinates":[7.685116,48.048462],"type":"Point"},"properties":{"osm_id":"6772436831","tag":{"amenity":"recycling","recycling:glass_bottles":"yes","recycling_type":"container"}},"type":"Feature"},
	{"geometry":{"coordinates":[7.685024,48.048522],"type":"Point"},"properties":{"osm_id":"6772436833","tag":{"amenity":"waste_basket"}},"type":"Feature"},
	{"geometry":{"coordinates":[7.682488,48.022583],"type":"Point"},"properties":{"osm_id":"6773675531","tag":{"amenity":"recycling","recycling:clothes":"yes","recycling:shoes":"yes","recycling_type":"container"}},"type":"Feature"},
	{"geometry":{"coordinates":[7.682531,48.02254],"type":"Point"},"properties":{"osm_id":"6773675533","tag":{"amenity":"recycling","recycling:glass_bottles":"yes","recycling_type":"container"}},"type":"Feature"},
	{"geometry":{"coordinates":[7.698623,48.016266],"type":"Point"},"properties":{"osm_id":"6773936103","tag":{"amenity":"waste_basket"}},"type":"Feature"},
	{"geometry":{"coordinates":[7.719269,48.006239],"type":"Point"},"properties":{"osm_id":"7462963394","tag":{"amenity":"waste_basket","waste":"trash"}},"type":"Feature"}
]
}
