{
"type": "FeatureCollection",
"features": [
	{"geometry":{"coordinates":[7.731401,47.537808],"type":"Point"},"properties":{"osm_id":"153292989","tag":{"amenity":"recycling"}},"type":"Feature"},
	{"geometry":{"coordinates":[7.673114,47.561424],"type":"Point"},"properties":{"osm_id":"309733786","tag":{"amenity":"recycling","recycling:glass":"yes","recycling_type":"container"}},"type":"Feature"},
	{"geometry":{"coordinates":[7.659,47.555448],"type":"Point"},"properties":{"osm_id":"309763313","tag":{"amenity":"recycling","recycling:glass":"yes","recycling_type":"container"}},"type":"Feature"},
	{"geometry":{"coordinates":[7.692721,47.545818],"type":"Point"},"properties":{"osm_id":"309885914","tag":{"amenity":"recycling","recycling:glass":"yes","recycling_type":"container"}},"type":"Feature"},
	{"geometry":{"coordinates":[7.684017,47.550071],"type":"Point"},"properties":{"osm_id":"310132167","tag":{"amenity":"recycling","recycling:glass":"yes","recycling_type":"container"}},"type":"Feature"},
	{"geometry":{"coordinates":[7.666579,47.551178],"type":"Point"},"properties":{"osm_id":"310142058","tag":{"amenity":"recycling","recycling:glass":"yes","recycling_type":"container"}},"type":"Feature"},
	{"geometry":{"coordinates":[7.685976,47.549116],"type":"Point"},"properties":{"osm_id":"310142082","tag":{"amenity":"recycling","recycling:clothes":"yes","recycling_type":"container"}},"type":"Feature"},
	{"geometry":{"coordinates":[7.690457,47.542766],"type":"Point"},"properties":{"osm_id":"360820562","tag":{"amenity":"recycling","recycling:clothes":"yes","recycling:glass":"yes","recycling_type":"container"}},"type":"Feature"},
	{"geometry":{"coordinates":[7.711205,47.545489],"type":"Point"},"properties":{"osm_id":"413534505","tag":{"amenity":"recycling","recycling:glass":"yes","recycling_type":"container"}},"type":"Feature"},
	{"geometry":{"coordinates":[7.731569,47.535243],"type":"Point"},"properties":{"osm_id":"471576339","tag":{"amenity":"recycling","recycling:glass":"yes","recycling:scrap_metal":"yes"}},"type":"Feature"},
	{"geometry":{"coordinates":[7.726087,47.535428],"type":"Point"},"properties":{"osm_id":"473655479","tag":{"amenity":"recycling","recycling:glass":"yes","recycling:scrap_metal":"yes"}},"type":"Feature"},
	{"geometry":{"coordinates":[7.646737,47.527617],"type":"Point"},"properties":{"osm_id":"1189577600","tag":{"amenity":"recycling"}},"type":"Feature"},
	{"geometry":{"coordinates":[7.732814,47.556888],"type":"Point"},"properties":{"osm_id":"1615984431","tag":{"amenity":"waste_basket"}},"type":"Feature"},
	{"geometry":{"coordinates":[7.691657,47.521025],"type":"Point"},"properties":{"osm_id":"1639071384","tag":{"amenity":"recycling","recycling:batteries":"no","recycling:books":"no","recycling:cans":"yes","recycling:cardboard":"no","recycling:cartons":"no","recycling:clothes":"no","recycling:electrical_appliances":"no","recycling:glass":"yes","recycling:glass_bottles":"yes","recycling:green_waste":"no","recycling:magazines":"no","recycling:newspaper":"no","recycling:paper":"no","recycling:paper_packaging":"no","recycling:plastic":"no","recycling:plastic_bottles":"no","recycling:plastic_packaging":"no","recycling:scrap_metal":"no","recycling:small_appliances":"no","recycling:waste":"no","recycling:wood":"no","recycling_type":"container"}},"type":"Feature"},
	{"geometry":{"coordinates":[7.65664,47.525738],"type":"Point"},"properties":{"osm_id":"1709770422","tag":{"amenity":"recycling","recycling_type":"container"}},"type":"Feature"},
	{"geometry":{"coordinates":[7.646962,47.522918],"type":"Point"},"properties":{"osm_id":"2710703661","tag":{"amenity":"recycling","recycling:cans":"yes","recycling:glass_bottles":"yes","recycling_type":"container"}},"type":"Feature"},
	{"geometry":{"coordinates":[7.686191,47.521784],"type":"Point"},"properties":{"osm_id":"2986362098","tag":{"amenity":"recycling","recycling:cans":"yes","recycling:clothes":"yes","recycling:glass":"yes","recycling:paper":"no"}},"type":"Feature"},
	{"geometry":{"coordinates":[7.64649,47.575144],"type":"Point"},"properties":{"osm_id":"3840925360","tag":{"amenity":"waste_basket"}},"type":"Feature"},
	{"geometry":{"coordinates":[7.656016,47.524671],"type":"Point"},"properties":{"osm_id":"3860505587","tag":{"amenity":"waste_basket"}},"type":"Feature"},
	{"geometry":{"coordinates":[7.680994,47.520432],"type":"Point"},"properties":{"osm_id":"4127955508","tag":{"addr:street":"St. Jakobstrasse","amenity":"recycling","recycling:cans":"yes","recycling:clothes":"yes","recycling:glass_bottles":"yes","recycling:paper":"no","recycling_type":"container"}},"type":"Feature"},
	{"geometry":{"coordinates":[7.723995,47.544979],"type":"Point"},"properties":{"name":"Recyclinghof Herten","osm_id":"4680102934","tag":{"amenity":"recycling","recycling_type":"centre"}},"type":"Feature"},
	{"geometry":{"coordinates":[7.658162,47.524014],"type":"Point"},"properties":{"osm_id":"5731909649","tag":{"amenity":"waste_basket","waste":"dog_excrement"}},"type":"Feature"},
	{"geometry":{"coordinates":[7.660583,47.522796],"type":"Point"},"properties":{"osm_id":"5731909659","tag":{"amenity":"waste_basket","waste":"dog_excrement"}},"type":"Feature"},
	{"geometry":{"coordinates":[7.658471,47.52173],"type":"Point"},"properties":{"osm_id":"5731909662","tag":{"amenity":"waste_basket"}},"type":"Feature"},
	{"geometry":{"coordinates":[7.65791,47.521474],"type":"Point"},"properties":{"osm_id":"5731909663","tag":{"amenity":"waste_basket"}},"type":"Feature"},
	{"geometry":{"coordinates":[7.65498,47.519226],"type":"Point"},"properties":{"osm_id":"5747798373","tag":{"amenity":"waste_basket"}},"type":"Feature"},
	{"geometry":{"coordinates":[7.654426,47.518666],"type":"Point"},"properties":{"osm_id":"5747798375","tag":{"amenity":"waste_basket"}},"type":"Feature"},
	{"geometry":{"coordinates":[7.654081,47.517824],"type":"Point"},"properties":{"osm_id":"5747798379","tag":{"amenity":"waste_basket"}},"type":"Feature"},
	{"geometry":{"coordinates":[7.656977,47.51764],"type":"Point"},"properties":{"osm_id":"5747798383","tag":{"amenity":"waste_basket"}},"type":"Feature"},
	{"geometry":{"coordinates":[7.69188,47.518247],"type":"Point"},"properties":{"osm_id":"5761895625","tag":{"amenity":"waste_basket"}},"type":"Feature"},
	{"geometry":{"coordinates":[7.691754,47.521295],"type":"Point"},"properties":{"osm_id":"5761895642","tag":{"amenity":"waste_basket"}},"type":"Feature"},
	{"geometry":{"coordinates":[7.69179,47.522277],"type":"Point"},"properties":{"osm_id":"5762359626","tag":{"amenity":"waste_basket"}},"type":"Feature"},
	{"geometry":{"coordinates":[7.694292,47.520862],"type":"Point"},"properties":{"osm_id":"5912592633","tag":{"amenity":"recycling","recycling:aluminium":"yes","recycling:cans":"yes","recycling:clothes":"yes","recycling:glass":"yes","recycling_type":"container"}},"type":"Feature"},
	{"geometry":{"coordinates":[7.701216,47.526398],"type":"Point"},"properties":{"name":"Recycling Park Pratteln","osm_id":"5914157097","tag":{"addr:city":"Pratteln","addr:housenumber":"15","addr:postcode":"4133","addr:street":"G\u00c3\u00b6tzisbodenweg","amenity":"recycling","building":"industrial","operator":"Anton Saxer AG","phone":"+41613320022","recycling_type":"centre","website":"https://antonsaxer.ch/"}},"type":"Feature"},
	{"geometry":{"coordinates":[7.710372,47.540717],"type":"Point"},"properties":{"osm_id":"6589200586","tag":{"amenity":"waste_basket"}},"type":"Feature"},
	{"geometry":{"coordinates":[7.713625,47.537859],"type":"Point"},"properties":{"osm_id":"6589200588","tag":{"amenity":"waste_basket"}},"type":"Feature"},
	{"geometry":{"coordinates":[7.721383,47.541012],"type":"Point"},"properties":{"osm_id":"6589200590","tag":{"amenity":"waste_basket"}},"type":"Feature"},
	{"geometry":{"coordinates":[7.723729,47.54125],"type":"Point"},"properties":{"osm_id":"6589200591","tag":{"amenity":"waste_basket"}},"type":"Feature"},
	{"geometry":{"coordinates":[7.710199,47.540395],"type":"Point"},"properties":{"osm_id":"6589202693","tag":{"amenity":"waste_basket"}},"type":"Feature"},
	{"geometry":{"coordinates":[7.709988,47.541115],"type":"Point"},"properties":{"osm_id":"6589202798","tag":{"amenity":"waste_basket"}},"type":"Feature"},
	{"geometry":{"coordinates":[7.710417,47.5411],"type":"Point"},"properties":{"osm_id":"6589202801","tag":{"amenity":"waste_basket"}},"type":"Feature"},
	{"geometry":{"coordinates":[7.711349,47.536813],"type":"Point"},"properties":{"osm_id":"6589202808","tag":{"amenity":"waste_basket"}},"type":"Feature"},
	{"geometry":{"coordinates":[7.712656,47.537589],"type":"Point"},"properties":{"osm_id":"6589202811","tag":{"amenity":"waste_basket"}},"type":"Feature"},
	{"geometry":{"coordinates":[7.720087,47.540852],"type":"Point"},"properties":{"osm_id":"6589202816","tag":{"amenity":"waste_basket"}},"type":"Feature"},
	{"geometry":{"coordinates":[7.724935,47.541455],"type":"Point"},"properties":{"osm_id":"6589202820","tag":{"amenity":"waste_basket"}},"type":"Feature"},
	{"geometry":{"coordinates":[7.723376,47.543636],"type":"Point"},"properties":{"osm_id":"6589202993","tag":{"amenity":"waste_basket"}},"type":"Feature"},
	{"geometry":{"coordinates":[7.726111,47.541464],"type":"Point"},"properties":{"osm_id":"6589203006","tag":{"amenity":"waste_basket"}},"type":"Feature"},
	{"geometry":{"coordinates":[7.688277,47.521198],"type":"Point"},"properties":{"osm_id":"6638730669","tag":{"amenity":"recycling","material":"metal","recycling:aluminium":"yes","recycling:cans":"yes","recycling:clothes":"yes","recycling:glass":"yes","recycling:glass_bottles":"yes","recycling_type":"container"}},"type":"Feature"},
	{"geometry":{"coordinates":[7.684829,47.571743],"type":"Point"},"properties":{"osm_id":"6703964575","tag":{"amenity":"waste_basket"}},"type":"Feature"},
	{"geometry":{"coordinates":[7.684574,47.571414],"type":"Point"},"properties":{"osm_id":"6703964582","tag":{"amenity":"waste_basket"}},"type":"Feature"},
	{"geometry":{"coordinates":[7.686152,47.571559],"type":"Point"},"properties":{"osm_id":"6703979588","tag":{"amenity":"waste_basket"}},"type":"Feature"},
	{"geometry":{"coordinates":[7.688584,47.571162],"type":"Point"},"properties":{"osm_id":"6703979589","tag":{"amenity":"waste_basket"}},"type":"Feature"},
	{"geometry":{"coordinates":[7.723899,47.534741],"type":"Point"},"properties":{"osm_id":"6848483395","tag":{"amenity":"waste_basket"}},"type":"Feature"},
	{"geometry":{"coordinates":[7.73422,47.566935],"type":"Point"},"properties":{"osm_id":"7401405404","tag":{"amenity":"waste_basket"}},"type":"Feature"}
]
}
