{
"type": "FeatureCollection",
"features": [
	{"geometry":{"coordinates":[7.721731,47.220616],"type":"Point"},"properties":{"osm_id":"248949097","tag":{"amenity":"recycling","recycling:clothes":"yes","recycling:glass_bottles":"yes","recycling:pet":"yes","recycling_type":"container"}},"type":"Feature"},
	{"geometry":{"coordinates":[7.656468,47.231527],"type":"Point"},"properties":{"name":"Sammelstelle Werkhof","osm_id":"738218439","tag":{"amenity":"recycling","recycling:aluminium":"yes","recycling:cans":"yes","recycling:coffee_capsules":"yes","recycling:glass_bottles":"yes","recycling_type":"container"}},"type":"Feature"},
	{"geometry":{"coordinates":[7.724569,47.234911],"type":"Point"},"properties":{"osm_id":"1256742011","tag":{"amenity":"waste_basket"}},"type":"Feature"},
	{"geometry":{"coordinates":[7.672057,47.237656],"type":"Point"},"properties":{"osm_id":"1452888242","tag":{"amenity":"waste_basket"}},"type":"Feature"},
	{"geometry":{"coordinates":[7.667832,47.238022],"type":"Point"},"properties":{"osm_id":"1452888244","tag":{"amenity":"waste_basket"}},"type":"Feature"},
	{"geometry":{"coordinates":[7.693312,47.269749],"type":"Point"},"properties":{"osm_id":"1582764543","tag":{"amenity":"recycling","recycling:clothes":"yes","recycling:glass":"yes","recycling:scrap_metal":"yes","recycling:shoes":"yes","recycling_type":"container"}},"type":"Feature"},
	{"geometry":{"coordinates":[7.695469,47.267248],"type":"Point"},"properties":{"osm_id":"1582765616","tag":{"amenity":"recycling","recycling:batteries":"yes","recycling:scrap_metal":"yes","recycling_type":"container"}},"type":"Feature"},
	{"geometry":{"coordinates":[7.652957,47.253779],"type":"Point"},"properties":{"osm_id":"2659416581","tag":{"amenity":"recycling"}},"type":"Feature"},
	{"geometry":{"coordinates":[7.734252,47.237728],"type":"Point"},"properties":{"name":"Recyling Bannwil","osm_id":"3045449154","tag":{"amenity":"recycling","recycling:cans":"yes","recycling:clothes":"yes","recycling:glass":"yes","recycling:paper":"no"}},"type":"Feature"},
	{"geometry":{"coordinates":[7.656389,47.231755],"type":"Point"},"properties":{"osm_id":"3086302635","tag":{"amenity":"waste_basket"}},"type":"Feature"},
	{"geometry":{"coordinates":[7.656561,47.23252],"type":"Point"},"properties":{"osm_id":"3086303234","tag":{"amenity":"waste_basket"}},"type":"Feature"},
	{"geometry":{"coordinates":[7.655642,47.231995],"type":"Point"},"properties":{"osm_id":"3086303235","tag":{"amenity":"waste_basket"}},"type":"Feature"},
	{"geometry":{"coordinates":[7.655574,47.2319],"type":"Point"},"properties":{"osm_id":"3086305733","tag":{"amenity":"waste_basket"}},"type":"Feature"},
	{"geometry":{"coordinates":[7.655355,47.231701],"type":"Point"},"properties":{"osm_id":"3086305833","tag":{"amenity":"waste_basket"}},"type":"Feature"},
	{"geometry":{"coordinates":[7.655886,47.231854],"type":"Point"},"properties":{"osm_id":"3086305933","tag":{"amenity":"waste_basket"}},"type":"Feature"},
	{"geometry":{"coordinates":[7.655613,47.236189],"type":"Point"},"properties":{"osm_id":"3088908467","tag":{"amenity":"waste_basket"}},"type":"Feature"},
	{"geometry":{"coordinates":[7.655359,47.236533],"type":"Point"},"properties":{"osm_id":"3088908468","tag":{"amenity":"waste_basket"}},"type":"Feature"},
	{"geometry":{"coordinates":[7.656261,47.2363],"type":"Point"},"properties":{"osm_id":"3088908469","tag":{"amenity":"waste_basket"}},"type":"Feature"},
	{"geometry":{"coordinates":[7.655917,47.234449],"type":"Point"},"properties":{"osm_id":"3088915265","tag":{"amenity":"recycling","recycling:pet":"yes","recycling:plastic":"PET","recycling_type":"container"}},"type":"Feature"},
	{"geometry":{"coordinates":[7.654883,47.234814],"type":"Point"},"properties":{"osm_id":"3088915366","tag":{"amenity":"waste_basket"}},"type":"Feature"},
	{"geometry":{"coordinates":[7.65509,47.235083],"type":"Point"},"properties":{"osm_id":"3088915465","tag":{"amenity":"waste_basket"}},"type":"Feature"},
	{"geometry":{"coordinates":[7.65553,47.236574],"type":"Point"},"properties":{"osm_id":"3088915665","tag":{"amenity":"waste_basket"}},"type":"Feature"},
	{"geometry":{"coordinates":[7.65548,47.235214],"type":"Point"},"properties":{"osm_id":"3098862513","tag":{"amenity":"waste_basket"}},"type":"Feature"},
	{"geometry":{"coordinates":[7.653967,47.236821],"type":"Point"},"properties":{"osm_id":"3114801857","tag":{"amenity":"waste_basket"}},"type":"Feature"},
	{"geometry":{"coordinates":[7.654187,47.236895],"type":"Point"},"properties":{"osm_id":"3114842729","tag":{"amenity":"waste_basket"}},"type":"Feature"},
	{"geometry":{"coordinates":[7.654482,47.238175],"type":"Point"},"properties":{"osm_id":"3122435830","tag":{"amenity":"waste_basket"}},"type":"Feature"},
	{"geometry":{"coordinates":[7.658511,47.262901],"type":"Point"},"properties":{"osm_id":"3129259930","tag":{"amenity":"recycling","recycling:batteries":"yes","recycling:cans":"yes","recycling:clothes":"yes","recycling:glass":"yes"}},"type":"Feature"},
	{"geometry":{"coordinates":[7.664396,47.234797],"type":"Point"},"properties":{"osm_id":"3152363504","tag":{"amenity":"waste_basket"}},"type":"Feature"},
	{"geometry":{"coordinates":[7.656312,47.237353],"type":"Point"},"properties":{"osm_id":"3152363514","tag":{"amenity":"waste_basket"}},"type":"Feature"},
	{"geometry":{"coordinates":[7.65077,47.251809],"type":"Point"},"properties":{"osm_id":"3423128193","tag":{"amenity":"waste_basket"}},"type":"Feature"},
	{"geometry":{"coordinates":[7.652442,47.239746],"type":"Point"},"properties":{"osm_id":"3423148493","tag":{"amenity":"waste_basket"}},"type":"Feature"},
	{"geometry":{"coordinates":[7.661506,47.232334],"type":"Point"},"properties":{"osm_id":"3428854794","tag":{"amenity":"waste_basket"}},"type":"Feature"},
	{"geometry":{"coordinates":[7.653329,47.232933],"type":"Point"},"properties":{"osm_id":"3739231231","tag":{"amenity":"waste_basket"}},"type":"Feature"},
	{"geometry":{"coordinates":[7.653179,47.233224],"type":"Point"},"properties":{"osm_id":"3739232139","tag":{"amenity":"waste_basket"}},"type":"Feature"},
	{"geometry":{"coordinates":[7.648894,47.248726],"type":"Point"},"properties":{"osm_id":"3803810618","tag":{"amenity":"waste_basket"}},"type":"Feature"},
	{"geometry":{"coordinates":[7.654679,47.23217],"type":"Point"},"properties":{"osm_id":"4086202894","tag":{"amenity":"waste_basket"}},"type":"Feature"},
	{"geometry":{"coordinates":[7.651048,47.23884],"type":"Point"},"properties":{"osm_id":"4088599331","tag":{"amenity":"waste_basket"}},"type":"Feature"},
	{"geometry":{"coordinates":[7.657692,47.235733],"type":"Point"},"properties":{"osm_id":"4222235499","tag":{"amenity":"waste_basket"}},"type":"Feature"},
	{"geometry":{"coordinates":[7.658087,47.235636],"type":"Point"},"properties":{"osm_id":"4222235502","tag":{"amenity":"waste_basket"}},"type":"Feature"},
	{"geometry":{"coordinates":[7.674826,47.263723],"type":"Point"},"properties":{"osm_id":"4382149590","tag":{"amenity":"waste_basket"}},"type":"Feature"},
	{"geometry":{"coordinates":[7.668501,47.265935],"type":"Point"},"properties":{"osm_id":"4382149593","tag":{"amenity":"waste_basket"}},"type":"Feature"},
	{"geometry":{"coordinates":[7.653975,47.236942],"type":"Point"},"properties":{"osm_id":"4736284986","tag":{"amenity":"waste_basket"}},"type":"Feature"},
	{"geometry":{"coordinates":[7.647325,47.236945],"type":"Point"},"properties":{"osm_id":"4776190621","tag":{"amenity":"waste_basket"}},"type":"Feature"},
	{"geometry":{"coordinates":[7.650942,47.237536],"type":"Point"},"properties":{"osm_id":"4776254124","tag":{"amenity":"waste_basket"}},"type":"Feature"},
	{"geometry":{"coordinates":[7.653952,47.237262],"type":"Point"},"properties":{"osm_id":"4776254127","tag":{"amenity":"waste_basket"}},"type":"Feature"},
	{"geometry":{"coordinates":[7.69307,47.269688],"type":"Point"},"properties":{"osm_id":"5005953567","tag":{"amenity":"recycling","location":"underground","recycling:glass_bottles":"yes","recycling_type":"container"}},"type":"Feature"},
	{"geometry":{"coordinates":[7.65377,47.232113],"type":"Point"},"properties":{"osm_id":"5235054553","tag":{"amenity":"waste_basket"}},"type":"Feature"},
	{"geometry":{"coordinates":[7.696159,47.267766],"type":"Point"},"properties":{"osm_id":"5351064630","tag":{"amenity":"waste_basket"}},"type":"Feature"},
	{"geometry":{"coordinates":[7.696124,47.267989],"type":"Point"},"properties":{"osm_id":"5351064631","tag":{"amenity":"waste_basket"}},"type":"Feature"},
	{"geometry":{"coordinates":[7.655693,47.234272],"type":"Point"},"properties":{"osm_id":"5543476712","tag":{"amenity":"recycling","recycling:clothes":"yes","recycling_type":"container"}},"type":"Feature"},
	{"geometry":{"coordinates":[7.652948,47.232943],"type":"Point"},"properties":{"osm_id":"5678083676","tag":{"amenity":"waste_basket","waste":"trash"}},"type":"Feature"},
	{"geometry":{"coordinates":[7.653109,47.232787],"type":"Point"},"properties":{"osm_id":"5678083677","tag":{"amenity":"waste_basket"}},"type":"Feature"},
	{"geometry":{"coordinates":[7.652808,47.23308],"type":"Point"},"properties":{"osm_id":"5678083678","tag":{"amenity":"waste_basket","waste":"trash"}},"type":"Feature"},
	{"geometry":{"coordinates":[7.652967,47.232693],"type":"Point"},"properties":{"osm_id":"5678083680","tag":{"amenity":"waste_basket","waste":"trash"}},"type":"Feature"},
	{"geometry":{"coordinates":[7.655311,47.232629],"type":"Point"},"properties":{"osm_id":"5808430523","tag":{"amenity":"waste_basket","waste":"trash"}},"type":"Feature"},
	{"geometry":{"coordinates":[7.653564,47.23308],"type":"Point"},"properties":{"osm_id":"5814434137","tag":{"amenity":"waste_basket","waste":"trash"}},"type":"Feature"},
	{"geometry":{"coordinates":[7.653425,47.233305],"type":"Point"},"properties":{"osm_id":"5814434139","tag":{"amenity":"waste_basket","waste":"trash"}},"type":"Feature"},
	{"geometry":{"coordinates":[7.684408,47.250149],"type":"Point"},"properties":{"osm_id":"5843163341","tag":{"amenity":"waste_basket"}},"type":"Feature"},
	{"geometry":{"coordinates":[7.671623,47.239756],"type":"Point"},"properties":{"osm_id":"5843163342","tag":{"amenity":"waste_basket"}},"type":"Feature"},
	{"geometry":{"coordinates":[7.709059,47.229776],"type":"Point"},"properties":{"osm_id":"5843163353","tag":{"amenity":"waste_basket"}},"type":"Feature"},
	{"geometry":{"coordinates":[7.707038,47.230366],"type":"Point"},"properties":{"osm_id":"5843163354","tag":{"amenity":"waste_basket"}},"type":"Feature"},
	{"geometry":{"coordinates":[7.689007,47.234432],"type":"Point"},"properties":{"osm_id":"5843163359","tag":{"amenity":"waste_basket"}},"type":"Feature"},
	{"geometry":{"coordinates":[7.667231,47.255936],"type":"Point"},"properties":{"osm_id":"5876632203","tag":{"amenity":"waste_basket"}},"type":"Feature"},
	{"geometry":{"coordinates":[7.661645,47.249969],"type":"Point"},"properties":{"osm_id":"5876632207","tag":{"amenity":"waste_basket"}},"type":"Feature"},
	{"geometry":{"coordinates":[7.649362,47.23223],"type":"Point"},"properties":{"osm_id":"5937473616","tag":{"amenity":"waste_basket"}},"type":"Feature"},
	{"geometry":{"coordinates":[7.682213,47.229579],"type":"Point"},"properties":{"osm_id":"6003411597","tag":{"amenity":"recycling","recycling:cans":"yes","recycling:clothes":"yes","recycling:cooking_oil":"yes","recycling:glass_bottles":"yes","recycling_type":"container"}},"type":"Feature"},
	{"geometry":{"coordinates":[7.652087,47.225996],"type":"Point"},"properties":{"osm_id":"6323927144","tag":{"amenity":"recycling","recycling:garden_waste":"yes","recycling:green_waste":"yes","recycling_type":"container"}},"type":"Feature"},
	{"geometry":{"coordinates":[7.652355,47.232709],"type":"Point"},"properties":{"osm_id":"6465341122","tag":{"amenity":"waste_basket","waste":"trash"}},"type":"Feature"},
	{"geometry":{"coordinates":[7.655673,47.23394],"type":"Point"},"properties":{"osm_id":"6465341996","tag":{"amenity":"waste_basket","waste":"trash"}},"type":"Feature"},
	{"geometry":{"coordinates":[7.69999,47.262808],"type":"Point"},"properties":{"osm_id":"6713103554","tag":{"amenity":"waste_basket"}},"type":"Feature"},
	{"geometry":{"coordinates":[7.699026,47.275623],"type":"Point"},"properties":{"osm_id":"6781235981","tag":{"amenity":"waste_basket","waste":"dog_excrement"}},"type":"Feature"},
	{"geometry":{"coordinates":[7.692852,47.24016],"type":"Point"},"properties":{"osm_id":"7395870520","tag":{"amenity":"waste_basket"}},"type":"Feature"},
	{"geometry":{"coordinates":[7.69408,47.240066],"type":"Point"},"properties":{"osm_id":"7395870544","tag":{"amenity":"waste_basket","payment:none":"yes","vending":"excrement_bags"}},"type":"Feature"},
	{"geometry":{"coordinates":[7.670424,47.25278],"type":"Point"},"properties":{"osm_id":"7454898110","tag":{"amenity":"waste_basket"}},"type":"Feature"},
	{"geometry":{"coordinates":[7.651899,47.231661],"type":"Point"},"properties":{"osm_id":"7501580133","tag":{"amenity":"waste_basket"}},"type":"Feature"},
	{"geometry":{"coordinates":[7.659294,47.236379],"type":"Point"},"properties":{"osm_id":"7501613285","tag":{"amenity":"waste_basket"}},"type":"Feature"},
	{"geometry":{"coordinates":[7.661067,47.234894],"type":"Point"},"properties":{"osm_id":"7501613290","tag":{"amenity":"waste_basket"}},"type":"Feature"},
	{"geometry":{"coordinates":[7.65742,47.235864],"type":"Point"},"properties":{"osm_id":"7501613292","tag":{"amenity":"waste_basket"}},"type":"Feature"},
	{"geometry":{"coordinates":[7.657033,47.236029],"type":"Point"},"properties":{"osm_id":"7501613294","tag":{"amenity":"waste_basket"}},"type":"Feature"},
	{"geometry":{"coordinates":[7.652892,47.223691],"type":"Point"},"properties":{"osm_id":"7573136518","tag":{"amenity":"waste_basket"}},"type":"Feature"},
	{"geometry":{"coordinates":[7.710769,47.227506],"type":"Point"},"properties":{"osm_id":"7627043004","tag":{"amenity":"recycling","recycling:clothes":"yes","recycling:glass_bottles":"yes","recycling_type":"container"}},"type":"Feature"},
	{"geometry":{"coordinates":[7.64697,47.253469],"type":"Point"},"properties":{"osm_id":"7649801327","tag":{"amenity":"recycling","recycling:clothes":"yes","recycling:glass_bottles":"yes","recycling_type":"container"}},"type":"Feature"},
	{"geometry":{"coordinates":[7.6624,47.27415],"type":"Point"},"properties":{"osm_id":"7673301830","tag":{"amenity":"recycling","recycling:cans":"yes","recycling:glass_bottles":"yes","recycling:small_appliances":"no","recycling:waste":"no","recycling_type":"container"}},"type":"Feature"},
	{"geometry":{"coordinates":[7.733426,47.229128],"type":"Point"},"properties":{"osm_id":"7910238985","tag":{"amenity":"waste_basket"}},"type":"Feature"}
]
}
