{
"type": "FeatureCollection",
"features": [
	{"geometry":{"coordinates":[7.726864,46.661405],"type":"Point"},"properties":{"name":"Glassammelstelle","osm_id":"884891793","tag":{"amenity":"recycling"}},"type":"Feature"},
	{"geometry":{"coordinates":[7.732911,46.639257],"type":"Point"},"properties":{"osm_id":"1635095899","tag":{"amenity":"waste_basket"}},"type":"Feature"},
	{"geometry":{"coordinates":[7.732373,46.645626],"type":"Point"},"properties":{"osm_id":"1635096127","tag":{"amenity":"waste_basket"}},"type":"Feature"},
	{"geometry":{"coordinates":[7.72939,46.661993],"type":"Point"},"properties":{"osm_id":"1726455210","tag":{"amenity":"waste_basket"}},"type":"Feature"},
	{"geometry":{"coordinates":[7.728432,46.661228],"type":"Point"},"properties":{"osm_id":"1726458825","tag":{"amenity":"waste_basket"}},"type":"Feature"},
	{"geometry":{"coordinates":[7.72392,46.660878],"type":"Point"},"properties":{"osm_id":"1726720111","tag":{"amenity":"waste_basket"}},"type":"Feature"},
	{"geometry":{"coordinates":[7.72462,46.661233],"type":"Point"},"properties":{"osm_id":"1726720115","tag":{"amenity":"waste_basket"}},"type":"Feature"},
	{"geometry":{"coordinates":[7.698909,46.675718],"type":"Point"},"properties":{"osm_id":"2244577938","tag":{"amenity":"recycling","recycling:clothes":"yes","recycling:glass":"yes"}},"type":"Feature"},
	{"geometry":{"coordinates":[7.702319,46.672264],"type":"Point"},"properties":{"osm_id":"2269233367","tag":{"amenity":"waste_basket"}},"type":"Feature"},
	{"geometry":{"coordinates":[7.70228,46.670807],"type":"Point"},"properties":{"osm_id":"2269233375","tag":{"amenity":"waste_basket"}},"type":"Feature"},
	{"geometry":{"coordinates":[7.703398,46.675915],"type":"Point"},"properties":{"osm_id":"2269359679","tag":{"amenity":"waste_basket"}},"type":"Feature"},
	{"geometry":{"coordinates":[7.704344,46.673217],"type":"Point"},"properties":{"osm_id":"2269359680","tag":{"amenity":"waste_basket"}},"type":"Feature"},
	{"geometry":{"coordinates":[7.703715,46.677288],"type":"Point"},"properties":{"osm_id":"2269359681","tag":{"amenity":"waste_basket"}},"type":"Feature"},
	{"geometry":{"coordinates":[7.704422,46.679489],"type":"Point"},"properties":{"osm_id":"2269359683","tag":{"amenity":"waste_basket"}},"type":"Feature"},
	{"geometry":{"coordinates":[7.699466,46.648478],"type":"Point"},"properties":{"osm_id":"6814360268","tag":{"amenity":"waste_basket","vending":"excrement_bags"}},"type":"Feature"},
	{"geometry":{"coordinates":[7.701757,46.659442],"type":"Point"},"properties":{"osm_id":"6814376745","tag":{"amenity":"waste_basket","vending":"excrement_bags"}},"type":"Feature"},
	{"geometry":{"coordinates":[7.696651,46.653766],"type":"Point"},"properties":{"osm_id":"6814396457","tag":{"amenity":"waste_basket","vending":"excrement_bags"}},"type":"Feature"},
	{"geometry":{"coordinates":[7.701878,46.659544],"type":"Point"},"properties":{"osm_id":"6814404925","tag":{"amenity":"waste_basket"}},"type":"Feature"},
	{"geometry":{"coordinates":[7.698329,46.650463],"type":"Point"},"properties":{"osm_id":"6814410009","tag":{"amenity":"waste_basket"}},"type":"Feature"},
	{"geometry":{"coordinates":[7.726163,46.647195],"type":"Point"},"properties":{"osm_id":"6814411642","tag":{"amenity":"waste_basket"}},"type":"Feature"},
	{"geometry":{"coordinates":[7.698306,46.659151],"type":"Point"},"properties":{"osm_id":"6814412483","tag":{"amenity":"waste_basket"}},"type":"Feature"},
	{"geometry":{"coordinates":[7.724861,46.644947],"type":"Point"},"properties":{"osm_id":"6814415852","tag":{"amenity":"waste_basket","vending":"excrement_bags"}},"type":"Feature"},
	{"geometry":{"coordinates":[7.729922,46.645353],"type":"Point"},"properties":{"osm_id":"6814416004","tag":{"amenity":"waste_basket","vending":"excrement_bags"}},"type":"Feature"},
	{"geometry":{"coordinates":[7.717366,46.651716],"type":"Point"},"properties":{"osm_id":"6814416497","tag":{"amenity":"waste_basket","vending":"excrement_bags"}},"type":"Feature"},
	{"geometry":{"coordinates":[7.709627,46.646186],"type":"Point"},"properties":{"osm_id":"6814417317","tag":{"amenity":"waste_basket"}},"type":"Feature"},
	{"geometry":{"coordinates":[7.712315,46.65362],"type":"Point"},"properties":{"osm_id":"6814417319","tag":{"amenity":"waste_basket"}},"type":"Feature"},
	{"geometry":{"coordinates":[7.701162,46.659433],"type":"Point"},"properties":{"osm_id":"6814424504","tag":{"amenity":"waste_basket"}},"type":"Feature"}
]
}
