{
"type": "FeatureCollection",
"features": [
	{"geometry":{"coordinates":[7.656664,46.582748],"type":"Point"},"properties":{"osm_id":"1660563949","tag":{"amenity":"recycling"}},"type":"Feature"},
	{"geometry":{"coordinates":[7.647198,46.5879],"type":"Point"},"properties":{"osm_id":"1671830037","tag":{"amenity":"recycling"}},"type":"Feature"},
	{"geometry":{"coordinates":[7.650099,46.588593],"type":"Point"},"properties":{"osm_id":"1671830168","tag":{"amenity":"waste_basket"}},"type":"Feature"},
	{"geometry":{"coordinates":[7.659838,46.596091],"type":"Point"},"properties":{"name":"Entsorgungs- und Recyclingstation","osm_id":"1673041521","tag":{"amenity":"waste_disposal","opening_hours":"Mo-Sa 16:00-17:30","operator":"AVAG","phone":"+41 33 226 5656","url":"http://www.avag.ch"}},"type":"Feature"},
	{"geometry":{"coordinates":[7.724724,46.586533],"type":"Point"},"properties":{"osm_id":"2675260582","tag":{"amenity":"recycling"}},"type":"Feature"},
	{"geometry":{"coordinates":[7.65355,46.592295],"type":"Point"},"properties":{"osm_id":"4078057914","tag":{"amenity":"recycling","recycling:batteries":"yes","recycling:cans":"yes","recycling:glass":"yes","recycling_type":"container"}},"type":"Feature"},
	{"geometry":{"coordinates":[7.719002,46.591547],"type":"Point"},"properties":{"osm_id":"6925924986","tag":{"amenity":"waste_disposal"}},"type":"Feature"}
]
}
