{
"type": "FeatureCollection",
"lastupdate": "2020-08-02T00:00:00Z",
"features": [
	{"geometry":{"coordinates":[7.705666,45.688152],"type":"Point"},"properties":{"osm_id":"1885091134","tag":{"amenity":"recycling"}},"type":"Feature"},
	{"geometry":{"coordinates":[7.691476,45.668838],"type":"Point"},"properties":{"osm_id":"2434441497","tag":{"amenity":"recycling"}},"type":"Feature"},
	{"geometry":{"coordinates":[7.694478,45.684307],"type":"Point"},"properties":{"osm_id":"2521216508","tag":{"amenity":"recycling"}},"type":"Feature"},
	{"geometry":{"coordinates":[7.69349,45.700579],"type":"Point"},"properties":{"osm_id":"3043612732","tag":{"amenity":"recycling"}},"type":"Feature"},
	{"geometry":{"coordinates":[7.691696,45.668447],"type":"Point"},"properties":{"osm_id":"3366217273","tag":{"amenity":"recycling"}},"type":"Feature"},
	{"geometry":{"coordinates":[7.69339,45.667312],"type":"Point"},"properties":{"osm_id":"3368372528","tag":{"amenity":"recycling"}},"type":"Feature"},
	{"geometry":{"coordinates":[7.694226,45.66597],"type":"Point"},"properties":{"osm_id":"3368418249","tag":{"amenity":"recycling"}},"type":"Feature"},
	{"geometry":{"coordinates":[7.692774,45.666592],"type":"Point"},"properties":{"osm_id":"3368418261","tag":{"amenity":"recycling"}},"type":"Feature"},
	{"geometry":{"coordinates":[7.692898,45.666689],"type":"Point"},"properties":{"osm_id":"3368418267","tag":{"amenity":"recycling"}},"type":"Feature"},
	{"geometry":{"coordinates":[7.693153,45.661827],"type":"Point"},"properties":{"osm_id":"3371625892","tag":{"amenity":"recycling"}},"type":"Feature"},
	{"geometry":{"coordinates":[7.692247,45.664687],"type":"Point"},"properties":{"osm_id":"3371625998","tag":{"amenity":"recycling"}},"type":"Feature"},
	{"geometry":{"coordinates":[7.687937,45.665526],"type":"Point"},"properties":{"osm_id":"3373223765","tag":{"amenity":"recycling"}},"type":"Feature"},
	{"geometry":{"coordinates":[7.687797,45.663841],"type":"Point"},"properties":{"osm_id":"3373519169","tag":{"amenity":"recycling"}},"type":"Feature"},
	{"geometry":{"coordinates":[7.688722,45.66465],"type":"Point"},"properties":{"osm_id":"3373519216","tag":{"amenity":"recycling"}},"type":"Feature"},
	{"geometry":{"coordinates":[7.689124,45.66485],"type":"Point"},"properties":{"osm_id":"3373519234","tag":{"amenity":"recycling"}},"type":"Feature"},
	{"geometry":{"coordinates":[7.690474,45.667799],"type":"Point"},"properties":{"osm_id":"3379776886","tag":{"amenity":"recycling"}},"type":"Feature"},
	{"geometry":{"coordinates":[7.687167,45.668547],"type":"Point"},"properties":{"osm_id":"3379777455","tag":{"amenity":"recycling"}},"type":"Feature"},
	{"geometry":{"coordinates":[7.686264,45.669836],"type":"Point"},"properties":{"osm_id":"3381268377","tag":{"amenity":"recycling"}},"type":"Feature"},
	{"geometry":{"coordinates":[7.696264,45.657681],"type":"Point"},"properties":{"osm_id":"3386096186","tag":{"amenity":"recycling"}},"type":"Feature"},
	{"geometry":{"coordinates":[7.719298,45.646385],"type":"Point"},"properties":{"osm_id":"3583834410","tag":{"amenity":"recycling"}},"type":"Feature"},
	{"geometry":{"coordinates":[7.73248,45.705986],"type":"Point"},"properties":{"osm_id":"3650967904","tag":{"amenity":"recycling"}},"type":"Feature"},
	{"geometry":{"coordinates":[7.725689,45.705352],"type":"Point"},"properties":{"osm_id":"3672844737","tag":{"amenity":"recycling"}},"type":"Feature"},
	{"geometry":{"coordinates":[7.727836,45.705808],"type":"Point"},"properties":{"osm_id":"3672844764","tag":{"amenity":"waste_basket"}},"type":"Feature"},
	{"geometry":{"coordinates":[7.69297,45.666814],"type":"Point"},"properties":{"osm_id":"3678969965","tag":{"amenity":"waste_basket"}},"type":"Feature"},
	{"geometry":{"coordinates":[7.692298,45.668397],"type":"Point"},"properties":{"osm_id":"3678969970","tag":{"amenity":"waste_basket"}},"type":"Feature"},
	{"geometry":{"coordinates":[7.691965,45.664688],"type":"Point"},"properties":{"osm_id":"3679178836","tag":{"amenity":"recycling"}},"type":"Feature"},
	{"geometry":{"coordinates":[7.69176,45.665312],"type":"Point"},"properties":{"osm_id":"3679178840","tag":{"amenity":"waste_basket"}},"type":"Feature"},
	{"geometry":{"coordinates":[7.691721,45.665385],"type":"Point"},"properties":{"osm_id":"3679178841","tag":{"amenity":"waste_basket"}},"type":"Feature"},
	{"geometry":{"coordinates":[7.693482,45.665773],"type":"Point"},"properties":{"osm_id":"3679178845","tag":{"amenity":"recycling"}},"type":"Feature"},
	{"geometry":{"coordinates":[7.691419,45.665846],"type":"Point"},"properties":{"osm_id":"3679178846","tag":{"amenity":"recycling"}},"type":"Feature"},
	{"geometry":{"coordinates":[7.693804,45.665909],"type":"Point"},"properties":{"osm_id":"3679178848","tag":{"amenity":"recycling"}},"type":"Feature"},
	{"geometry":{"coordinates":[7.693699,45.665916],"type":"Point"},"properties":{"osm_id":"3679178849","tag":{"amenity":"recycling"}},"type":"Feature"},
	{"geometry":{"coordinates":[7.69126,45.666011],"type":"Point"},"properties":{"osm_id":"3679178854","tag":{"amenity":"recycling"}},"type":"Feature"},
	{"geometry":{"coordinates":[7.692946,45.666261],"type":"Point"},"properties":{"osm_id":"3679178856","tag":{"amenity":"waste_basket"}},"type":"Feature"},
	{"geometry":{"coordinates":[7.690886,45.666406],"type":"Point"},"properties":{"osm_id":"3679178858","tag":{"amenity":"recycling"}},"type":"Feature"},
	{"geometry":{"coordinates":[7.689572,45.66721],"type":"Point"},"properties":{"osm_id":"3679178862","tag":{"amenity":"waste_basket"}},"type":"Feature"},
	{"geometry":{"coordinates":[7.68824,45.667479],"type":"Point"},"properties":{"osm_id":"3679178868","tag":{"amenity":"recycling"}},"type":"Feature"},
	{"geometry":{"coordinates":[7.689415,45.667546],"type":"Point"},"properties":{"osm_id":"3679178869","tag":{"amenity":"waste_basket"}},"type":"Feature"},
	{"geometry":{"coordinates":[7.692938,45.667583],"type":"Point"},"properties":{"osm_id":"3679178870","tag":{"amenity":"waste_basket"}},"type":"Feature"},
	{"geometry":{"coordinates":[7.690015,45.667653],"type":"Point"},"properties":{"osm_id":"3679178871","tag":{"amenity":"recycling"}},"type":"Feature"},
	{"geometry":{"coordinates":[7.697146,45.668727],"type":"Point"},"properties":{"osm_id":"3679178889","tag":{"amenity":"waste_basket"}},"type":"Feature"},
	{"geometry":{"coordinates":[7.688762,45.668725],"type":"Point"},"properties":{"osm_id":"3679178890","tag":{"amenity":"recycling"}},"type":"Feature"},
	{"geometry":{"coordinates":[7.69689,45.668757],"type":"Point"},"properties":{"osm_id":"3679178894","tag":{"amenity":"waste_basket"}},"type":"Feature"},
	{"geometry":{"coordinates":[7.6972,45.668805],"type":"Point"},"properties":{"osm_id":"3679178896","tag":{"amenity":"waste_basket"}},"type":"Feature"},
	{"geometry":{"coordinates":[7.697247,45.668986],"type":"Point"},"properties":{"osm_id":"3679178898","tag":{"amenity":"waste_basket"}},"type":"Feature"},
	{"geometry":{"coordinates":[7.684037,45.669572],"type":"Point"},"properties":{"osm_id":"3679178899","tag":{"amenity":"waste_basket"}},"type":"Feature"},
	{"geometry":{"coordinates":[7.690366,45.660021],"type":"Point"},"properties":{"osm_id":"3679270842","tag":{"amenity":"waste_basket"}},"type":"Feature"},
	{"geometry":{"coordinates":[7.690879,45.660435],"type":"Point"},"properties":{"osm_id":"3679270843","tag":{"amenity":"waste_basket"}},"type":"Feature"},
	{"geometry":{"coordinates":[7.691121,45.662432],"type":"Point"},"properties":{"osm_id":"3679270854","tag":{"amenity":"recycling"}},"type":"Feature"},
	{"geometry":{"coordinates":[7.690689,45.663125],"type":"Point"},"properties":{"osm_id":"3679270863","tag":{"amenity":"recycling"}},"type":"Feature"},
	{"geometry":{"coordinates":[7.691528,45.66391],"type":"Point"},"properties":{"osm_id":"3679270880","tag":{"amenity":"recycling"}},"type":"Feature"},
	{"geometry":{"coordinates":[7.69153,45.664178],"type":"Point"},"properties":{"osm_id":"3679270881","tag":{"amenity":"recycling"}},"type":"Feature"},
	{"geometry":{"coordinates":[7.689585,45.664501],"type":"Point"},"properties":{"osm_id":"3679270883","tag":{"amenity":"recycling"}},"type":"Feature"},
	{"geometry":{"coordinates":[7.693158,45.664536],"type":"Point"},"properties":{"osm_id":"3679270884","tag":{"amenity":"recycling"}},"type":"Feature"},
	{"geometry":{"coordinates":[7.687785,45.664667],"type":"Point"},"properties":{"osm_id":"3679270885","tag":{"amenity":"recycling"}},"type":"Feature"},
	{"geometry":{"coordinates":[7.689032,45.665575],"type":"Point"},"properties":{"osm_id":"3679270887","tag":{"amenity":"waste_basket"}},"type":"Feature"},
	{"geometry":{"coordinates":[7.688321,45.665609],"type":"Point"},"properties":{"osm_id":"3679270889","tag":{"amenity":"recycling"}},"type":"Feature"},
	{"geometry":{"coordinates":[7.689077,45.665612],"type":"Point"},"properties":{"osm_id":"3679270891","tag":{"amenity":"recycling"}},"type":"Feature"},
	{"geometry":{"coordinates":[7.693016,45.665885],"type":"Point"},"properties":{"osm_id":"3679270897","tag":{"amenity":"waste_basket"}},"type":"Feature"},
	{"geometry":{"coordinates":[7.690172,45.666261],"type":"Point"},"properties":{"osm_id":"3679270898","tag":{"amenity":"recycling"}},"type":"Feature"},
	{"geometry":{"coordinates":[7.690552,45.66633],"type":"Point"},"properties":{"osm_id":"3679270899","tag":{"amenity":"waste_basket"}},"type":"Feature"},
	{"geometry":{"coordinates":[7.692873,45.667835],"type":"Point"},"properties":{"osm_id":"3679270900","tag":{"amenity":"waste_basket"}},"type":"Feature"},
	{"geometry":{"coordinates":[7.692511,45.66818],"type":"Point"},"properties":{"osm_id":"3679270901","tag":{"amenity":"waste_basket"}},"type":"Feature"},
	{"geometry":{"coordinates":[7.691907,45.66879],"type":"Point"},"properties":{"osm_id":"3679270902","tag":{"amenity":"waste_basket"}},"type":"Feature"},
	{"geometry":{"coordinates":[7.693534,45.660799],"type":"Point"},"properties":{"osm_id":"3679282774","tag":{"amenity":"recycling"}},"type":"Feature"},
	{"geometry":{"coordinates":[7.694094,45.661699],"type":"Point"},"properties":{"osm_id":"3679282777","tag":{"amenity":"recycling"}},"type":"Feature"},
	{"geometry":{"coordinates":[7.694117,45.662397],"type":"Point"},"properties":{"osm_id":"3679282778","tag":{"amenity":"waste_basket"}},"type":"Feature"},
	{"geometry":{"coordinates":[7.693806,45.662853],"type":"Point"},"properties":{"osm_id":"3679282780","tag":{"amenity":"waste_basket"}},"type":"Feature"},
	{"geometry":{"coordinates":[7.693803,45.662872],"type":"Point"},"properties":{"osm_id":"3679282781","tag":{"amenity":"recycling"}},"type":"Feature"},
	{"geometry":{"coordinates":[7.68579,45.661362],"type":"Point"},"properties":{"osm_id":"3680233922","tag":{"amenity":"recycling"}},"type":"Feature"},
	{"geometry":{"coordinates":[7.680146,45.677086],"type":"Point"},"properties":{"osm_id":"3680234627","tag":{"amenity":"recycling"}},"type":"Feature"},
	{"geometry":{"coordinates":[7.713425,45.649271],"type":"Point"},"properties":{"osm_id":"3680409256","tag":{"amenity":"waste_basket"}},"type":"Feature"},
	{"geometry":{"coordinates":[7.724698,45.69795],"type":"Point"},"properties":{"osm_id":"3740529926","tag":{"amenity":"recycling"}},"type":"Feature"},
	{"geometry":{"coordinates":[7.716872,45.698693],"type":"Point"},"properties":{"osm_id":"3740530406","tag":{"amenity":"recycling"}},"type":"Feature"},
	{"geometry":{"coordinates":[7.718251,45.698709],"type":"Point"},"properties":{"osm_id":"3740530415","tag":{"amenity":"recycling"}},"type":"Feature"},
	{"geometry":{"coordinates":[7.690845,45.668188],"type":"Point"},"properties":{"osm_id":"3740563206","tag":{"amenity":"waste_basket"}},"type":"Feature"},
	{"geometry":{"coordinates":[7.6873,45.66935],"type":"Point"},"properties":{"osm_id":"3740565130","tag":{"amenity":"waste_basket"}},"type":"Feature"},
	{"geometry":{"coordinates":[7.714769,45.697803],"type":"Point"},"properties":{"osm_id":"3743057244","tag":{"amenity":"recycling"}},"type":"Feature"},
	{"geometry":{"coordinates":[7.716144,45.697934],"type":"Point"},"properties":{"osm_id":"3743057267","tag":{"amenity":"recycling"}},"type":"Feature"},
	{"geometry":{"coordinates":[7.697497,45.680035],"type":"Point"},"properties":{"osm_id":"3787183119","tag":{"amenity":"recycling"}},"type":"Feature"},
	{"geometry":{"coordinates":[7.704563,45.684249],"type":"Point"},"properties":{"osm_id":"3787327187","tag":{"amenity":"recycling"}},"type":"Feature"},
	{"geometry":{"coordinates":[7.705001,45.687177],"type":"Point"},"properties":{"osm_id":"3787327221","tag":{"amenity":"waste_basket"}},"type":"Feature"},
	{"geometry":{"coordinates":[7.705592,45.688238],"type":"Point"},"properties":{"osm_id":"3787327254","tag":{"amenity":"waste_basket"}},"type":"Feature"},
	{"geometry":{"coordinates":[7.705691,45.688415],"type":"Point"},"properties":{"osm_id":"3787334059","tag":{"amenity":"waste_basket"}},"type":"Feature"},
	{"geometry":{"coordinates":[7.704618,45.688531],"type":"Point"},"properties":{"osm_id":"3787334063","tag":{"amenity":"recycling"}},"type":"Feature"},
	{"geometry":{"coordinates":[7.705837,45.688588],"type":"Point"},"properties":{"osm_id":"3787334067","tag":{"amenity":"waste_basket"}},"type":"Feature"},
	{"geometry":{"coordinates":[7.711839,45.688879],"type":"Point"},"properties":{"osm_id":"3787334088","tag":{"amenity":"recycling"}},"type":"Feature"},
	{"geometry":{"coordinates":[7.710529,45.688958],"type":"Point"},"properties":{"osm_id":"3787560743","tag":{"amenity":"recycling"}},"type":"Feature"},
	{"geometry":{"coordinates":[7.70344,45.6894],"type":"Point"},"properties":{"osm_id":"3787560819","tag":{"amenity":"recycling"}},"type":"Feature"},
	{"geometry":{"coordinates":[7.707277,45.68994],"type":"Point"},"properties":{"osm_id":"3787561457","tag":{"amenity":"recycling"}},"type":"Feature"},
	{"geometry":{"coordinates":[7.711797,45.69183],"type":"Point"},"properties":{"osm_id":"3787561934","tag":{"amenity":"recycling"}},"type":"Feature"},
	{"geometry":{"coordinates":[7.713158,45.692704],"type":"Point"},"properties":{"osm_id":"3787561993","tag":{"amenity":"waste_basket"}},"type":"Feature"},
	{"geometry":{"coordinates":[7.704612,45.690992],"type":"Point"},"properties":{"osm_id":"3787591388","tag":{"amenity":"recycling"}},"type":"Feature"},
	{"geometry":{"coordinates":[7.706674,45.690178],"type":"Point"},"properties":{"osm_id":"3787646876","tag":{"amenity":"waste_basket"}},"type":"Feature"},
	{"geometry":{"coordinates":[7.703289,45.691119],"type":"Point"},"properties":{"osm_id":"3787650389","tag":{"amenity":"recycling"}},"type":"Feature"},
	{"geometry":{"coordinates":[7.706215,45.69225],"type":"Point"},"properties":{"osm_id":"3787650456","tag":{"amenity":"recycling"}},"type":"Feature"},
	{"geometry":{"coordinates":[7.674275,45.704288],"type":"Point"},"properties":{"osm_id":"3854404592","tag":{"amenity":"recycling"}},"type":"Feature"},
	{"geometry":{"coordinates":[7.681198,45.693848],"type":"Point"},"properties":{"osm_id":"3854509977","tag":{"amenity":"recycling"}},"type":"Feature"},
	{"geometry":{"coordinates":[7.679327,45.69638],"type":"Point"},"properties":{"osm_id":"3854509981","tag":{"amenity":"recycling"}},"type":"Feature"},
	{"geometry":{"coordinates":[7.679417,45.70272],"type":"Point"},"properties":{"osm_id":"3854509984","tag":{"amenity":"recycling"}},"type":"Feature"},
	{"geometry":{"coordinates":[7.67777,45.691093],"type":"Point"},"properties":{"osm_id":"3854648538","tag":{"amenity":"recycling"}},"type":"Feature"},
	{"geometry":{"coordinates":[7.678709,45.696006],"type":"Point"},"properties":{"osm_id":"3854651898","tag":{"amenity":"recycling"}},"type":"Feature"},
	{"geometry":{"coordinates":[7.67267,45.697431],"type":"Point"},"properties":{"osm_id":"3854651949","tag":{"amenity":"recycling"}},"type":"Feature"},
	{"geometry":{"coordinates":[7.673296,45.698475],"type":"Point"},"properties":{"osm_id":"3854651998","tag":{"amenity":"recycling"}},"type":"Feature"},
	{"geometry":{"coordinates":[7.673484,45.701102],"type":"Point"},"properties":{"osm_id":"3854651999","tag":{"amenity":"recycling"}},"type":"Feature"},
	{"geometry":{"coordinates":[7.674705,45.703885],"type":"Point"},"properties":{"osm_id":"3854652015","tag":{"amenity":"recycling"}},"type":"Feature"},
	{"geometry":{"coordinates":[7.683212,45.70328],"type":"Point"},"properties":{"osm_id":"3854690318","tag":{"amenity":"recycling"}},"type":"Feature"},
	{"geometry":{"coordinates":[7.684521,45.695637],"type":"Point"},"properties":{"osm_id":"3856593680","tag":{"amenity":"recycling"}},"type":"Feature"},
	{"geometry":{"coordinates":[7.683074,45.697539],"type":"Point"},"properties":{"osm_id":"3856593713","tag":{"amenity":"recycling"}},"type":"Feature"},
	{"geometry":{"coordinates":[7.693249,45.665552],"type":"Point"},"properties":{"osm_id":"4239830875","tag":{"amenity":"waste_basket"}},"type":"Feature"},
	{"geometry":{"coordinates":[7.69309,45.666718],"type":"Point"},"properties":{"osm_id":"4239830881","tag":{"amenity":"waste_basket"}},"type":"Feature"},
	{"geometry":{"coordinates":[7.656909,45.685447],"type":"Point"},"properties":{"osm_id":"4497151378","tag":{"amenity":"recycling"}},"type":"Feature"},
	{"geometry":{"coordinates":[7.658277,45.686163],"type":"Point"},"properties":{"osm_id":"4497152367","tag":{"amenity":"recycling"}},"type":"Feature"},
	{"geometry":{"coordinates":[7.663597,45.685498],"type":"Point"},"properties":{"osm_id":"4501983340","tag":{"amenity":"recycling"}},"type":"Feature"},
	{"geometry":{"coordinates":[7.662097,45.686787],"type":"Point"},"properties":{"osm_id":"4502345119","tag":{"amenity":"recycling"}},"type":"Feature"},
	{"geometry":{"coordinates":[7.665939,45.684476],"type":"Point"},"properties":{"osm_id":"4502522785","tag":{"amenity":"recycling"}},"type":"Feature"},
	{"geometry":{"coordinates":[7.667226,45.684236],"type":"Point"},"properties":{"osm_id":"4502540221","tag":{"amenity":"recycling"}},"type":"Feature"},
	{"geometry":{"coordinates":[7.664015,45.692178],"type":"Point"},"properties":{"osm_id":"4504332096","tag":{"amenity":"recycling"}},"type":"Feature"},
	{"geometry":{"coordinates":[7.676745,45.665151],"type":"Point"},"properties":{"osm_id":"4515531642","tag":{"amenity":"recycling"}},"type":"Feature"},
	{"geometry":{"coordinates":[7.685491,45.654143],"type":"Point"},"properties":{"osm_id":"4524798028","tag":{"amenity":"waste_basket"}},"type":"Feature"},
	{"geometry":{"coordinates":[7.686364,45.654508],"type":"Point"},"properties":{"osm_id":"4524865041","tag":{"amenity":"waste_basket"}},"type":"Feature"},
	{"geometry":{"coordinates":[7.686136,45.657275],"type":"Point"},"properties":{"osm_id":"4535738994","tag":{"amenity":"recycling"}},"type":"Feature"},
	{"geometry":{"coordinates":[7.689251,45.653283],"type":"Point"},"properties":{"osm_id":"4539695720","tag":{"amenity":"recycling"}},"type":"Feature"},
	{"geometry":{"coordinates":[7.687526,45.669185],"type":"Point"},"properties":{"osm_id":"4895210541","tag":{"amenity":"waste_basket"}},"type":"Feature"},
	{"geometry":{"coordinates":[7.69149,45.665315],"type":"Point"},"properties":{"osm_id":"4895210591","tag":{"amenity":"waste_basket"}},"type":"Feature"},
	{"geometry":{"coordinates":[7.691615,45.665123],"type":"Point"},"properties":{"osm_id":"4895210596","tag":{"amenity":"waste_basket"}},"type":"Feature"},
	{"geometry":{"coordinates":[7.695105,45.669615],"type":"Point"},"properties":{"osm_id":"4951230119","tag":{"amenity":"waste_basket"}},"type":"Feature"},
	{"geometry":{"coordinates":[7.696176,45.669394],"type":"Point"},"properties":{"osm_id":"4951230120","tag":{"amenity":"waste_basket"}},"type":"Feature"},
	{"geometry":{"coordinates":[7.727305,45.702477],"type":"Point"},"properties":{"osm_id":"6632724589","tag":{"amenity":"recycling","operator":"Quendoz Srl","recording:automated":"yes","recycling:glass":"yes","recycling:paper":"yes","recycling:plastic":"yes","recycling:scrap_metal":"yes","recycling:waste":"yes","recycling_type":"container"}},"type":"Feature"},
	{"geometry":{"coordinates":[7.695793,45.670126],"type":"Point"},"properties":{"osm_id":"7023376385","tag":{"amenity":"waste_basket"}},"type":"Feature"}
]
}
