{
"type": "FeatureCollection",
"features": [
	{"geometry":{"coordinates":[6.426525,60.629581],"type":"Point"},"properties":{"osm_id":"1814040325","tag":{"amenity":"recycling","recycling:cans":"yes","recycling:glass":"yes","recycling_type":"container"}},"type":"Feature"},
	{"geometry":{"coordinates":[6.417974,60.627473],"type":"Point"},"properties":{"osm_id":"3684012662","tag":{"amenity":"waste_basket"}},"type":"Feature"},
	{"geometry":{"coordinates":[6.418556,60.628783],"type":"Point"},"properties":{"osm_id":"4040455298","tag":{"amenity":"waste_basket"}},"type":"Feature"},
	{"geometry":{"coordinates":[6.418931,60.628796],"type":"Point"},"properties":{"osm_id":"4040455305","tag":{"amenity":"waste_basket"}},"type":"Feature"},
	{"geometry":{"coordinates":[6.419331,60.628812],"type":"Point"},"properties":{"osm_id":"4040455310","tag":{"amenity":"waste_basket"}},"type":"Feature"},
	{"geometry":{"coordinates":[6.41981,60.62883],"type":"Point"},"properties":{"osm_id":"4040455322","tag":{"amenity":"waste_basket"}},"type":"Feature"},
	{"geometry":{"coordinates":[6.420496,60.628855],"type":"Point"},"properties":{"osm_id":"4040455338","tag":{"amenity":"waste_basket"}},"type":"Feature"},
	{"geometry":{"coordinates":[6.418314,60.628868],"type":"Point"},"properties":{"osm_id":"4040455349","tag":{"amenity":"waste_basket"}},"type":"Feature"},
	{"geometry":{"coordinates":[6.418512,60.628875],"type":"Point"},"properties":{"osm_id":"4040455359","tag":{"amenity":"waste_basket"}},"type":"Feature"},
	{"geometry":{"coordinates":[6.418877,60.628888],"type":"Point"},"properties":{"osm_id":"4040455370","tag":{"amenity":"waste_basket"}},"type":"Feature"},
	{"geometry":{"coordinates":[6.419636,60.628911],"type":"Point"},"properties":{"osm_id":"4040455385","tag":{"amenity":"waste_basket"}},"type":"Feature"},
	{"geometry":{"coordinates":[6.420817,60.628953],"type":"Point"},"properties":{"osm_id":"4040455511","tag":{"amenity":"waste_basket"}},"type":"Feature"},
	{"geometry":{"coordinates":[6.421433,60.628987],"type":"Point"},"properties":{"osm_id":"4040455530","tag":{"amenity":"waste_basket"}},"type":"Feature"},
	{"geometry":{"coordinates":[6.42305,60.62918],"type":"Point"},"properties":{"osm_id":"5268269730","tag":{"amenity":"waste_basket"}},"type":"Feature"},
	{"geometry":{"coordinates":[6.422551,60.629114],"type":"Point"},"properties":{"osm_id":"5268269733","tag":{"amenity":"waste_basket"}},"type":"Feature"},
	{"geometry":{"coordinates":[6.422722,60.629036],"type":"Point"},"properties":{"osm_id":"5268269737","tag":{"amenity":"waste_basket"}},"type":"Feature"},
	{"geometry":{"coordinates":[6.42208,60.628961],"type":"Point"},"properties":{"osm_id":"5268269745","tag":{"amenity":"waste_basket"}},"type":"Feature"},
	{"geometry":{"coordinates":[6.417826,60.628317],"type":"Point"},"properties":{"osm_id":"6747111031","tag":{"amenity":"waste_basket","image":"https://images.mapillary.com/WN2tudurmPvqyElInVcuXQ/thumb-2048.jpg","mapillary":"https://www.mapillary.com/map/im/WN2tudurmPvqyElInVcuXQ"}},"type":"Feature"}
]
}
