{
"type": "FeatureCollection",
"features": [
	{"geometry":{"coordinates":[6.444397,52.59815],"type":"Point"},"properties":{"osm_id":"3774247987","tag":{"amenity":"waste_basket"}},"type":"Feature"},
	{"geometry":{"coordinates":[6.456017,52.601528],"type":"Point"},"properties":{"osm_id":"4044802167","tag":{"amenity":"recycling","location":"underground","operator":"ROVA","recycling:cans":"no","recycling:clothes":"yes","recycling:glass":"no","recycling:glass_bottles":"yes","recycling:paper":"no","recycling:plastic":"no","recycling_type":"container"}},"type":"Feature"},
	{"geometry":{"coordinates":[6.487828,52.607658],"type":"Point"},"properties":{"osm_id":"5913388437","tag":{"amenity":"recycling","operator":"ROVA","recycling:glass_bottles":"yes","recycling_type":"container"}},"type":"Feature"},
	{"geometry":{"coordinates":[6.460641,52.598219],"type":"Point"},"properties":{"osm_id":"5913388438","tag":{"amenity":"recycling","location":"underground","operator":"ROVA","recycling:clothes":"yes","recycling:glass_bottles":"yes","recycling_type":"container"}},"type":"Feature"},
	{"geometry":{"coordinates":[6.458677,52.603948],"type":"Point"},"properties":{"osm_id":"5913388439","tag":{"amenity":"recycling","location":"underground","operator":"ROVA","recycling:clothes":"yes","recycling:glass_bottles":"yes","recycling_type":"container"}},"type":"Feature"},
	{"geometry":{"coordinates":[6.456405,52.600367],"type":"Point"},"properties":{"osm_id":"5913388441","tag":{"amenity":"recycling","location":"underground","operator":"ROVA","recycling:clothes":"yes","recycling:glass_bottles":"yes","recycling_type":"container"}},"type":"Feature"},
	{"geometry":{"coordinates":[6.452392,52.59455],"type":"Point"},"properties":{"osm_id":"5913388442","tag":{"amenity":"recycling","operator":"ROVA","recycling:glass_bottles":"yes","recycling_type":"container"}},"type":"Feature"},
	{"geometry":{"coordinates":[6.45017,52.599794],"type":"Point"},"properties":{"osm_id":"5913388443","tag":{"amenity":"recycling","operator":"ROVA","recycling:glass_bottles":"yes","recycling_type":"container"}},"type":"Feature"}
]
}
