{
"type": "FeatureCollection",
"features": [
	{"geometry":{"coordinates":[6.457123,52.365166],"type":"Point"},"properties":{"osm_id":"301220619","tag":{"amenity":"recycling","recycling:clothes":"yes","recycling:glass":"yes","recycling_type":"container"}},"type":"Feature"},
	{"geometry":{"coordinates":[6.455247,52.3646],"type":"Point"},"properties":{"osm_id":"414960258","tag":{"amenity":"recycling","recycling:glass":"yes","recycling_type":"container"}},"type":"Feature"},
	{"geometry":{"coordinates":[6.459115,52.363978],"type":"Point"},"properties":{"osm_id":"414960351","tag":{"amenity":"recycling","recycling:glass":"yes","recycling_type":"container"}},"type":"Feature"},
	{"geometry":{"coordinates":[6.459277,52.36254],"type":"Point"},"properties":{"osm_id":"534589706","tag":{"amenity":"recycling","recycling:cans":"no","recycling:glass":"yes","recycling_type":"container"}},"type":"Feature"},
	{"geometry":{"coordinates":[6.457801,52.369996],"type":"Point"},"properties":{"osm_id":"1903290437","tag":{"amenity":"recycling","recycling:glass":"yes","recycling:plastic":"yes","recycling_type":"container"}},"type":"Feature"},
	{"geometry":{"coordinates":[6.503634,52.363726],"type":"Point"},"properties":{"osm_id":"2462133441","tag":{"amenity":"waste_basket"}},"type":"Feature"},
	{"geometry":{"coordinates":[6.44316,52.355922],"type":"Point"},"properties":{"osm_id":"2472818852","tag":{"amenity":"waste_basket"}},"type":"Feature"},
	{"geometry":{"coordinates":[6.451918,52.358093],"type":"Point"},"properties":{"osm_id":"2472818877","tag":{"amenity":"waste_basket"}},"type":"Feature"},
	{"geometry":{"coordinates":[6.500721,52.348468],"type":"Point"},"properties":{"osm_id":"2748520485","tag":{"amenity":"waste_basket"}},"type":"Feature"},
	{"geometry":{"coordinates":[6.430363,52.368923],"type":"Point"},"properties":{"osm_id":"3524020321","tag":{"amenity":"waste_basket"}},"type":"Feature"},
	{"geometry":{"coordinates":[6.436381,52.3685],"type":"Point"},"properties":{"osm_id":"3524064558","tag":{"amenity":"waste_basket"}},"type":"Feature"},
	{"geometry":{"coordinates":[6.457027,52.326452],"type":"Point"},"properties":{"osm_id":"3618171990","tag":{"amenity":"waste_basket"}},"type":"Feature"},
	{"geometry":{"coordinates":[6.49209,52.331911],"type":"Point"},"properties":{"osm_id":"3618171991","tag":{"amenity":"waste_basket"}},"type":"Feature"},
	{"geometry":{"coordinates":[6.479351,52.352599],"type":"Point"},"properties":{"osm_id":"3655770868","tag":{"amenity":"waste_basket"}},"type":"Feature"},
	{"geometry":{"coordinates":[6.458779,52.366474],"type":"Point"},"properties":{"osm_id":"3730610177","tag":{"amenity":"waste_basket"}},"type":"Feature"},
	{"geometry":{"coordinates":[6.456276,52.366687],"type":"Point"},"properties":{"osm_id":"3730610196","tag":{"amenity":"waste_basket"}},"type":"Feature"},
	{"geometry":{"coordinates":[6.453952,52.366799],"type":"Point"},"properties":{"osm_id":"3730610217","tag":{"amenity":"waste_basket"}},"type":"Feature"},
	{"geometry":{"coordinates":[6.456491,52.362406],"type":"Point"},"properties":{"osm_id":"3731639619","tag":{"amenity":"waste_basket"}},"type":"Feature"},
	{"geometry":{"coordinates":[6.463634,52.350497],"type":"Point"},"properties":{"osm_id":"4311523625","tag":{"amenity":"waste_basket"}},"type":"Feature"},
	{"geometry":{"coordinates":[6.480359,52.352799],"type":"Point"},"properties":{"osm_id":"4311739892","tag":{"amenity":"waste_basket"}},"type":"Feature"},
	{"geometry":{"coordinates":[6.48853,52.342404],"type":"Point"},"properties":{"osm_id":"4841173296","tag":{"amenity":"waste_basket"}},"type":"Feature"},
	{"geometry":{"coordinates":[6.450274,52.333143],"type":"Point"},"properties":{"osm_id":"5011013538","tag":{"amenity":"waste_basket"}},"type":"Feature"},
	{"geometry":{"coordinates":[6.450514,52.334806],"type":"Point"},"properties":{"osm_id":"5011244084","tag":{"amenity":"waste_basket"}},"type":"Feature"},
	{"geometry":{"coordinates":[6.453371,52.342782],"type":"Point"},"properties":{"osm_id":"5451415647","tag":{"amenity":"waste_basket","waste":"trash"}},"type":"Feature"},
	{"geometry":{"coordinates":[6.456047,52.349751],"type":"Point"},"properties":{"osm_id":"5451415666","tag":{"amenity":"waste_basket","waste":"trash"}},"type":"Feature"},
	{"geometry":{"coordinates":[6.447318,52.35198],"type":"Point"},"properties":{"osm_id":"5451415674","tag":{"amenity":"waste_basket","waste":"trash"}},"type":"Feature"},
	{"geometry":{"coordinates":[6.458452,52.37274],"type":"Point"},"properties":{"osm_id":"5470692032","tag":{"amenity":"waste_basket","waste":"trash"}},"type":"Feature"},
	{"geometry":{"coordinates":[6.462912,52.366317],"type":"Point"},"properties":{"osm_id":"5503546227","tag":{"amenity":"waste_basket"}},"type":"Feature"},
	{"geometry":{"coordinates":[6.462916,52.366343],"type":"Point"},"properties":{"osm_id":"5503546228","tag":{"amenity":"waste_basket"}},"type":"Feature"},
	{"geometry":{"coordinates":[6.463561,52.366402],"type":"Point"},"properties":{"osm_id":"5503546233","tag":{"amenity":"waste_basket"}},"type":"Feature"},
	{"geometry":{"coordinates":[6.463551,52.366237],"type":"Point"},"properties":{"osm_id":"5503546234","tag":{"amenity":"waste_basket"}},"type":"Feature"},
	{"geometry":{"coordinates":[6.462414,52.366456],"type":"Point"},"properties":{"osm_id":"5503546241","tag":{"amenity":"waste_basket"}},"type":"Feature"},
	{"geometry":{"coordinates":[6.462382,52.366299],"type":"Point"},"properties":{"osm_id":"5503546242","tag":{"amenity":"waste_basket"}},"type":"Feature"},
	{"geometry":{"coordinates":[6.462714,52.366421],"type":"Point"},"properties":{"osm_id":"5503546245","tag":{"amenity":"waste_basket"}},"type":"Feature"},
	{"geometry":{"coordinates":[6.462702,52.366302],"type":"Point"},"properties":{"osm_id":"5503546246","tag":{"amenity":"waste_basket"}},"type":"Feature"},
	{"geometry":{"coordinates":[6.463093,52.366416],"type":"Point"},"properties":{"osm_id":"5503546247","tag":{"amenity":"waste_basket"}},"type":"Feature"},
	{"geometry":{"coordinates":[6.463076,52.366287],"type":"Point"},"properties":{"osm_id":"5503546248","tag":{"amenity":"waste_basket"}},"type":"Feature"},
	{"geometry":{"coordinates":[6.46311,52.366889],"type":"Point"},"properties":{"osm_id":"5503546269","tag":{"amenity":"waste_basket"}},"type":"Feature"},
	{"geometry":{"coordinates":[6.462898,52.366929],"type":"Point"},"properties":{"osm_id":"5503546271","tag":{"amenity":"waste_basket"}},"type":"Feature"},
	{"geometry":{"coordinates":[6.462805,52.366832],"type":"Point"},"properties":{"osm_id":"5503546273","tag":{"amenity":"waste_basket"}},"type":"Feature"},
	{"geometry":{"coordinates":[6.462326,52.365842],"type":"Point"},"properties":{"osm_id":"5503546274","tag":{"amenity":"waste_basket"}},"type":"Feature"},
	{"geometry":{"coordinates":[6.462539,52.365955],"type":"Point"},"properties":{"osm_id":"5503546275","tag":{"amenity":"waste_basket"}},"type":"Feature"},
	{"geometry":{"coordinates":[6.461987,52.366008],"type":"Point"},"properties":{"osm_id":"5503546277","tag":{"amenity":"waste_basket"}},"type":"Feature"}
]
}
