{
"type": "FeatureCollection",
"features": [
	{"geometry":{"coordinates":[6.496323,52.312993],"type":"Point"},"properties":{"osm_id":"2188857737","tag":{"amenity":"recycling","description":"Glasbak","location":"underground","recycling:glass_bottles":"yes","recycling_type":"container"}},"type":"Feature"},
	{"geometry":{"coordinates":[6.501149,52.311012],"type":"Point"},"properties":{"osm_id":"2752859815","tag":{"amenity":"waste_basket"}},"type":"Feature"},
	{"geometry":{"coordinates":[6.417256,52.278021],"type":"Point"},"properties":{"osm_id":"3269690632","tag":{"amenity":"waste_basket"}},"type":"Feature"},
	{"geometry":{"coordinates":[6.446993,52.289579],"type":"Point"},"properties":{"osm_id":"3420250695","tag":{"amenity":"waste_basket"}},"type":"Feature"},
	{"geometry":{"coordinates":[6.456508,52.295089],"type":"Point"},"properties":{"osm_id":"3420272107","tag":{"amenity":"waste_basket"}},"type":"Feature"},
	{"geometry":{"coordinates":[6.428529,52.27301],"type":"Point"},"properties":{"osm_id":"3741622718","tag":{"amenity":"waste_basket"}},"type":"Feature"},
	{"geometry":{"coordinates":[6.421823,52.281747],"type":"Point"},"properties":{"osm_id":"4041953229","tag":{"amenity":"waste_basket"}},"type":"Feature"},
	{"geometry":{"coordinates":[6.497379,52.306094],"type":"Point"},"properties":{"osm_id":"4571437687","tag":{"amenity":"waste_basket"}},"type":"Feature"},
	{"geometry":{"coordinates":[6.453151,52.287762],"type":"Point"},"properties":{"osm_id":"4592726591","tag":{"amenity":"recycling","recycling_type":"container"}},"type":"Feature"},
	{"geometry":{"coordinates":[6.447603,52.286371],"type":"Point"},"properties":{"osm_id":"4592726593","tag":{"amenity":"recycling","recycling_type":"container"}},"type":"Feature"},
	{"geometry":{"coordinates":[6.45249,52.287158],"type":"Point"},"properties":{"osm_id":"4592746092","tag":{"amenity":"recycling","recycling_type":"container"}},"type":"Feature"},
	{"geometry":{"coordinates":[6.445751,52.285582],"type":"Point"},"properties":{"osm_id":"4592748490","tag":{"amenity":"recycling","recycling_type":"container"}},"type":"Feature"},
	{"geometry":{"coordinates":[6.454904,52.288138],"type":"Point"},"properties":{"osm_id":"4592749191","tag":{"amenity":"recycling","recycling_type":"container"}},"type":"Feature"},
	{"geometry":{"coordinates":[6.45049,52.287156],"type":"Point"},"properties":{"osm_id":"4592749391","tag":{"amenity":"recycling","recycling_type":"container"}},"type":"Feature"},
	{"geometry":{"coordinates":[6.454811,52.286536],"type":"Point"},"properties":{"osm_id":"4592749489","tag":{"amenity":"recycling","recycling_type":"container"}},"type":"Feature"},
	{"geometry":{"coordinates":[6.451869,52.288633],"type":"Point"},"properties":{"osm_id":"4592749689","tag":{"amenity":"recycling","recycling_type":"container"}},"type":"Feature"},
	{"geometry":{"coordinates":[6.451975,52.285425],"type":"Point"},"properties":{"osm_id":"4592749691","tag":{"amenity":"recycling","recycling_type":"container"}},"type":"Feature"},
	{"geometry":{"coordinates":[6.450737,52.286204],"type":"Point"},"properties":{"osm_id":"4592749791","tag":{"amenity":"recycling","recycling_type":"container"}},"type":"Feature"},
	{"geometry":{"coordinates":[6.44863,52.287204],"type":"Point"},"properties":{"osm_id":"4592749792","tag":{"amenity":"recycling","recycling_type":"container"}},"type":"Feature"},
	{"geometry":{"coordinates":[6.445164,52.284359],"type":"Point"},"properties":{"osm_id":"4592753890","tag":{"amenity":"recycling","recycling_type":"container"}},"type":"Feature"},
	{"geometry":{"coordinates":[6.447058,52.285798],"type":"Point"},"properties":{"osm_id":"4592799199","tag":{"amenity":"recycling","recycling_type":"container"}},"type":"Feature"},
	{"geometry":{"coordinates":[6.453116,52.28479],"type":"Point"},"properties":{"osm_id":"4717148720","tag":{"amenity":"waste_basket"}},"type":"Feature"},
	{"geometry":{"coordinates":[6.433217,52.282163],"type":"Point"},"properties":{"osm_id":"5357139414","tag":{"amenity":"waste_basket","waste":"trash"}},"type":"Feature"},
	{"geometry":{"coordinates":[6.420058,52.283837],"type":"Point"},"properties":{"osm_id":"5514666516","tag":{"amenity":"waste_basket"}},"type":"Feature"},
	{"geometry":{"coordinates":[6.420749,52.283954],"type":"Point"},"properties":{"osm_id":"5514666517","tag":{"amenity":"waste_basket"}},"type":"Feature"},
	{"geometry":{"coordinates":[6.41967,52.283867],"type":"Point"},"properties":{"osm_id":"5514666518","tag":{"amenity":"waste_basket"}},"type":"Feature"},
	{"geometry":{"coordinates":[6.420021,52.283928],"type":"Point"},"properties":{"osm_id":"5514666519","tag":{"amenity":"waste_basket"}},"type":"Feature"},
	{"geometry":{"coordinates":[6.420753,52.284063],"type":"Point"},"properties":{"osm_id":"5514666622","tag":{"amenity":"waste_basket"}},"type":"Feature"},
	{"geometry":{"coordinates":[6.421213,52.283996],"type":"Point"},"properties":{"osm_id":"5514666626","tag":{"amenity":"waste_basket"}},"type":"Feature"},
	{"geometry":{"coordinates":[6.42237,52.282441],"type":"Point"},"properties":{"osm_id":"6886157807","tag":{"amenity":"waste_basket"}},"type":"Feature"},
	{"geometry":{"coordinates":[6.42233,52.282448],"type":"Point"},"properties":{"osm_id":"6886157808","tag":{"amenity":"waste_basket"}},"type":"Feature"},
	{"geometry":{"coordinates":[6.422549,52.28249],"type":"Point"},"properties":{"osm_id":"6886244814","tag":{"amenity":"recycling","recycling:glass_bottles":"yes","recycling_type":"container"}},"type":"Feature"},
	{"geometry":{"coordinates":[6.418197,52.277685],"type":"Point"},"properties":{"osm_id":"6886253107","tag":{"amenity":"recycling","recycling:glass_bottles":"yes","recycling_type":"container"}},"type":"Feature"},
	{"geometry":{"coordinates":[6.420625,52.28194],"type":"Point"},"properties":{"osm_id":"6886259294","tag":{"amenity":"recycling","recycling:glass_bottles":"yes","recycling_type":"container"}},"type":"Feature"},
	{"geometry":{"coordinates":[6.425786,52.284253],"type":"Point"},"properties":{"osm_id":"6886264750","tag":{"amenity":"recycling","recycling:glass_bottles":"yes","recycling_type":"container"}},"type":"Feature"},
	{"geometry":{"coordinates":[6.431296,52.278131],"type":"Point"},"properties":{"osm_id":"6910238976","tag":{"amenity":"waste_basket","waste":"trash"}},"type":"Feature"},
	{"geometry":{"coordinates":[6.420174,52.297506],"type":"Point"},"properties":{"osm_id":"7154236808","tag":{"amenity":"waste_basket"}},"type":"Feature"}
]
}
