{
"type": "FeatureCollection",
"features": [
	{"geometry":{"coordinates":[6.491355,52.108113],"type":"Point"},"properties":{"osm_id":"4112302914","tag":{"amenity":"waste_basket"}},"type":"Feature"},
	{"geometry":{"coordinates":[6.446507,52.142613],"type":"Point"},"properties":{"osm_id":"4251468997","tag":{"amenity":"waste_basket"}},"type":"Feature"},
	{"geometry":{"coordinates":[6.447902,52.127065],"type":"Point"},"properties":{"osm_id":"4278978355","tag":{"amenity":"waste_basket"}},"type":"Feature"},
	{"geometry":{"coordinates":[6.420898,52.153947],"type":"Point"},"properties":{"osm_id":"4298988547","tag":{"amenity":"waste_basket"}},"type":"Feature"},
	{"geometry":{"coordinates":[6.426795,52.155586],"type":"Point"},"properties":{"osm_id":"4360554076","tag":{"amenity":"waste_basket"}},"type":"Feature"},
	{"geometry":{"coordinates":[6.427264,52.15564],"type":"Point"},"properties":{"osm_id":"4360554078","tag":{"amenity":"waste_basket"}},"type":"Feature"},
	{"geometry":{"coordinates":[6.425461,52.155931],"type":"Point"},"properties":{"osm_id":"4361993156","tag":{"amenity":"waste_basket"}},"type":"Feature"},
	{"geometry":{"coordinates":[6.426136,52.15665],"type":"Point"},"properties":{"osm_id":"4422318117","tag":{"amenity":"waste_basket"}},"type":"Feature"},
	{"geometry":{"coordinates":[6.433749,52.127967],"type":"Point"},"properties":{"osm_id":"5584517620","tag":{"amenity":"waste_basket","waste":"trash"}},"type":"Feature"},
	{"geometry":{"coordinates":[6.455345,52.131316],"type":"Point"},"properties":{"osm_id":"5585721733","tag":{"amenity":"waste_basket","waste":"trash"}},"type":"Feature"},
	{"geometry":{"coordinates":[6.434583,52.138762],"type":"Point"},"properties":{"osm_id":"5607424722","tag":{"amenity":"waste_basket","waste":"trash"}},"type":"Feature"},
	{"geometry":{"coordinates":[6.43057,52.152374],"type":"Point"},"properties":{"osm_id":"5615105854","tag":{"amenity":"waste_basket","waste":"trash"}},"type":"Feature"},
	{"geometry":{"coordinates":[6.432419,52.1543],"type":"Point"},"properties":{"osm_id":"5615105863","tag":{"amenity":"waste_basket","waste":"trash"}},"type":"Feature"},
	{"geometry":{"coordinates":[6.432916,52.154711],"type":"Point"},"properties":{"osm_id":"5615105865","tag":{"amenity":"waste_basket","waste":"trash"}},"type":"Feature"},
	{"geometry":{"coordinates":[6.434433,52.122642],"type":"Point"},"properties":{"osm_id":"5643930569","tag":{"amenity":"waste_basket","waste":"trash"}},"type":"Feature"},
	{"geometry":{"coordinates":[6.420645,52.155925],"type":"Point"},"properties":{"osm_id":"6223084488","tag":{"amenity":"recycling","recycling_type":"container"}},"type":"Feature"},
	{"geometry":{"coordinates":[6.418765,52.143793],"type":"Point"},"properties":{"name":"afval","osm_id":"7031958680","tag":{"amenity":"waste_basket"}},"type":"Feature"},
	{"geometry":{"coordinates":[6.438404,52.12502],"type":"Point"},"properties":{"osm_id":"7532480220","tag":{"amenity":"waste_basket"}},"type":"Feature"},
	{"geometry":{"coordinates":[6.440623,52.123224],"type":"Point"},"properties":{"osm_id":"7532480221","tag":{"amenity":"waste_basket"}},"type":"Feature"},
	{"geometry":{"coordinates":[6.441918,52.1243],"type":"Point"},"properties":{"osm_id":"7532480222","tag":{"amenity":"waste_basket","waste":"plastic;glass;recycling"}},"type":"Feature"},
	{"geometry":{"coordinates":[6.442097,52.124278],"type":"Point"},"properties":{"osm_id":"7532480223","tag":{"amenity":"waste_basket"}},"type":"Feature"},
	{"geometry":{"coordinates":[6.44192,52.124845],"type":"Point"},"properties":{"osm_id":"7532480224","tag":{"amenity":"waste_basket"}},"type":"Feature"},
	{"geometry":{"coordinates":[6.446794,52.126616],"type":"Point"},"properties":{"osm_id":"7532480225","tag":{"amenity":"waste_basket"}},"type":"Feature"}
]
}
