{
"type": "FeatureCollection",
"lastupdate": "2020-07-31T00:00:00Z",
"features": [
	{"geometry":{"coordinates":[6.422803,51.830636],"type":"Point"},"properties":{"osm_id":"614837731","tag":{"amenity":"recycling","recycling:glass":"yes"}},"type":"Feature"},
	{"geometry":{"coordinates":[6.465332,51.828716],"type":"Point"},"properties":{"osm_id":"4585832950","tag":{"amenity":"recycling","recycling:clothes":"yes","recycling_type":"container"}},"type":"Feature"},
	{"geometry":{"coordinates":[6.45107,51.818926],"type":"Point"},"properties":{"name":"Lackermann Umweltservice GmbH","osm_id":"4708735913","tag":{"addr:city":"Isselburg","addr:country":"DE","addr:housenumber":"30","addr:postcode":"46419","addr:street":"Im Geer","amenity":"recycling","collection_times":"Mo-Fr 08:00-12:00,13:00-17:00; Sa 08:00-12:00","fax":"+49 2874 29265","phone":"+49 2874 2491","recycling:batteries":"no","recycling:cans":"yes","recycling:electrical_appliances":"yes","recycling:glass":"yes","recycling:glass_bottles":"no","recycling:green_waste":"yes","recycling:paper":"yes","recycling:plastic":"yes","recycling:plastic_bottles":"yes","recycling:plastic_packaging":"yes","recycling:scrap_metal":"yes","recycling:shoes":"yes","recycling:small_appliances":"yes","recycling:waste":"yes","recycling_type":"centre","website":"www.lackermann-container.de/"}},"type":"Feature"},
	{"geometry":{"coordinates":[6.46169,51.834528],"type":"Point"},"properties":{"osm_id":"5536224218","tag":{"amenity":"waste_basket","ashtray":"no"}},"type":"Feature"},
	{"geometry":{"coordinates":[6.492889,51.830266],"type":"Point"},"properties":{"osm_id":"5637869874","tag":{"amenity":"recycling","recycling:glass":"yes","recycling_type":"container"}},"type":"Feature"},
	{"geometry":{"coordinates":[6.470164,51.830461],"type":"Point"},"properties":{"osm_id":"5787967400","tag":{"amenity":"recycling","recycling:clothes":"yes","recycling:glass":"yes","recycling:glass_bottles":"yes","recycling:shoes":"yes","recycling_type":"container"}},"type":"Feature"}
]
}
