{
"type": "FeatureCollection",
"features": [
	{"geometry":{"coordinates":[6.445983,51.380449],"type":"Point"},"properties":{"osm_id":"87304031","tag":{"amenity":"recycling","recycling:clothes":"yes","recycling:glass_bottles":"yes","recycling_type":"container"}},"type":"Feature"},
	{"geometry":{"coordinates":[6.44596,51.382569],"type":"Point"},"properties":{"osm_id":"98090781","tag":{"amenity":"recycling","recycling:glass_bottles":"yes","recycling_type":"container"}},"type":"Feature"},
	{"geometry":{"coordinates":[6.459317,51.384406],"type":"Point"},"properties":{"osm_id":"332060686","tag":{"amenity":"recycling","recycling:glass_bottles":"yes","recycling_type":"container"}},"type":"Feature"},
	{"geometry":{"coordinates":[6.437926,51.359375],"type":"Point"},"properties":{"osm_id":"507790738","tag":{"amenity":"recycling","recycling:glass_bottles":"yes","recycling_type":"container"}},"type":"Feature"},
	{"geometry":{"coordinates":[6.417422,51.360927],"type":"Point"},"properties":{"osm_id":"517945729","tag":{"amenity":"recycling","recycling:glass_bottles":"yes","recycling_type":"container"}},"type":"Feature"},
	{"geometry":{"coordinates":[6.446115,51.378158],"type":"Point"},"properties":{"osm_id":"538925086","tag":{"amenity":"waste_basket"}},"type":"Feature"},
	{"geometry":{"coordinates":[6.44449,51.382438],"type":"Point"},"properties":{"osm_id":"538925092","tag":{"amenity":"waste_basket"}},"type":"Feature"},
	{"geometry":{"coordinates":[6.455954,51.384002],"type":"Point"},"properties":{"osm_id":"540007176","tag":{"amenity":"waste_basket"}},"type":"Feature"},
	{"geometry":{"coordinates":[6.455617,51.393664],"type":"Point"},"properties":{"osm_id":"701362813","tag":{"amenity":"recycling","recycling:glass_bottles":"yes","recycling_type":"container"}},"type":"Feature"},
	{"geometry":{"coordinates":[6.429139,51.358815],"type":"Point"},"properties":{"osm_id":"738077374","tag":{"amenity":"recycling","recycling:glass_bottles":"yes","recycling_type":"container"}},"type":"Feature"},
	{"geometry":{"coordinates":[6.492251,51.376257],"type":"Point"},"properties":{"osm_id":"805701613","tag":{"amenity":"recycling","location":"overground","recycling:glass":"yes","recycling_type":"container"}},"type":"Feature"},
	{"geometry":{"coordinates":[6.466995,51.386132],"type":"Point"},"properties":{"osm_id":"805862472","tag":{"amenity":"recycling","recycling:clothes":"yes","recycling_type":"container"}},"type":"Feature"},
	{"geometry":{"coordinates":[6.417326,51.364942],"type":"Point"},"properties":{"osm_id":"805862483","tag":{"amenity":"waste_basket"}},"type":"Feature"},
	{"geometry":{"coordinates":[6.417372,51.364859],"type":"Point"},"properties":{"osm_id":"805862487","tag":{"amenity":"recycling","recycling:glass_bottles":"yes","recycling_type":"container"}},"type":"Feature"},
	{"geometry":{"coordinates":[6.443437,51.385798],"type":"Point"},"properties":{"osm_id":"814026514","tag":{"amenity":"recycling","recycling:clothes":"yes","recycling:glass_bottles":"yes","recycling_type":"container"}},"type":"Feature"},
	{"geometry":{"coordinates":[6.426449,51.356245],"type":"Point"},"properties":{"osm_id":"851736520","tag":{"amenity":"recycling","recycling:clothes":"no","recycling:glass_bottles":"yes","recycling_type":"container"}},"type":"Feature"},
	{"geometry":{"coordinates":[6.50185,51.37805],"type":"Point"},"properties":{"osm_id":"920636363","tag":{"amenity":"recycling","location":"overground","recycling:glass_bottles":"yes","recycling_type":"container"}},"type":"Feature"},
	{"geometry":{"coordinates":[6.465268,51.350064],"type":"Point"},"properties":{"osm_id":"934003594","tag":{"amenity":"recycling","recycling:glass_bottles":"yes","recycling_type":"container"}},"type":"Feature"},
	{"geometry":{"coordinates":[6.466455,51.385061],"type":"Point"},"properties":{"osm_id":"1392464066","tag":{"amenity":"recycling","recycling:glass_bottles":"yes","recycling_type":"container"}},"type":"Feature"},
	{"geometry":{"coordinates":[6.418809,51.366441],"type":"Point"},"properties":{"osm_id":"1615882520","tag":{"amenity":"waste_basket"}},"type":"Feature"},
	{"geometry":{"coordinates":[6.418699,51.366487],"type":"Point"},"properties":{"osm_id":"1615882524","tag":{"amenity":"waste_basket"}},"type":"Feature"},
	{"geometry":{"coordinates":[6.430588,51.360108],"type":"Point"},"properties":{"osm_id":"1930991687","tag":{"amenity":"recycling","recycling:glass_bottles":"yes","recycling_type":"container"}},"type":"Feature"},
	{"geometry":{"coordinates":[6.5039,51.383577],"type":"Point"},"properties":{"osm_id":"2338467860","tag":{"amenity":"recycling","location":"overground","recycling:clothes":"yes","recycling:glass_bottles":"yes","recycling:paper":"yes","recycling_type":"container"}},"type":"Feature"},
	{"geometry":{"coordinates":[6.42612,51.371618],"type":"Point"},"properties":{"osm_id":"2643967866","tag":{"amenity":"recycling","opening_hours":"Mo-Fr 10:00-18:30;Sa 08:00-13:00","operator":"Sch\u00c3\u00b6nmackers","recycling:cans":"yes","recycling:clothes":"yes","recycling:glass_bottles":"yes","recycling:paper":"yes","recycling_type":"container","website":"https://www.schoenmackers.de/Kempen/Umweltdienste/Standorte/Kempen_Am_Selder.php"}},"type":"Feature"},
	{"geometry":{"coordinates":[6.449256,51.36914],"type":"Point"},"properties":{"osm_id":"2917844482","tag":{"amenity":"waste_basket"}},"type":"Feature"},
	{"geometry":{"coordinates":[6.448831,51.369429],"type":"Point"},"properties":{"osm_id":"2917844486","tag":{"amenity":"waste_basket"}},"type":"Feature"},
	{"geometry":{"coordinates":[6.448645,51.369931],"type":"Point"},"properties":{"osm_id":"2917844491","tag":{"amenity":"waste_basket"}},"type":"Feature"},
	{"geometry":{"coordinates":[6.448732,51.370418],"type":"Point"},"properties":{"osm_id":"2917844606","tag":{"amenity":"waste_basket"}},"type":"Feature"},
	{"geometry":{"coordinates":[6.448679,51.37054],"type":"Point"},"properties":{"osm_id":"2917844614","tag":{"amenity":"waste_basket"}},"type":"Feature"},
	{"geometry":{"coordinates":[6.448887,51.371127],"type":"Point"},"properties":{"osm_id":"2917844615","tag":{"amenity":"waste_basket"}},"type":"Feature"},
	{"geometry":{"coordinates":[6.449029,51.371435],"type":"Point"},"properties":{"osm_id":"2917844617","tag":{"amenity":"waste_basket"}},"type":"Feature"},
	{"geometry":{"coordinates":[6.421605,51.398046],"type":"Point"},"properties":{"osm_id":"2996518431","tag":{"amenity":"recycling","recycling:glass_bottles":"yes","recycling_type":"container"}},"type":"Feature"},
	{"geometry":{"coordinates":[6.433238,51.355755],"type":"Point"},"properties":{"osm_id":"3361521410","tag":{"amenity":"recycling","recycling:glass_bottles":"yes","recycling_type":"container"}},"type":"Feature"},
	{"geometry":{"coordinates":[6.430855,51.352445],"type":"Point"},"properties":{"osm_id":"4425651096","tag":{"amenity":"waste_basket"}},"type":"Feature"},
	{"geometry":{"coordinates":[6.430061,51.354145],"type":"Point"},"properties":{"osm_id":"4425651100","tag":{"amenity":"waste_basket"}},"type":"Feature"},
	{"geometry":{"coordinates":[6.430035,51.354187],"type":"Point"},"properties":{"osm_id":"4425651103","tag":{"amenity":"waste_basket"}},"type":"Feature"},
	{"geometry":{"coordinates":[6.416445,51.365778],"type":"Point"},"properties":{"osm_id":"4896666225","tag":{"amenity":"waste_basket"}},"type":"Feature"},
	{"geometry":{"coordinates":[6.416902,51.366043],"type":"Point"},"properties":{"osm_id":"4896666227","tag":{"amenity":"waste_basket"}},"type":"Feature"},
	{"geometry":{"coordinates":[6.42065,51.36654],"type":"Point"},"properties":{"osm_id":"4896764823","tag":{"amenity":"waste_basket"}},"type":"Feature"},
	{"geometry":{"coordinates":[6.41783,51.366458],"type":"Point"},"properties":{"osm_id":"4896770424","tag":{"amenity":"waste_basket"}},"type":"Feature"},
	{"geometry":{"coordinates":[6.419454,51.366529],"type":"Point"},"properties":{"osm_id":"4896770425","tag":{"amenity":"waste_basket"}},"type":"Feature"},
	{"geometry":{"coordinates":[6.419454,51.366629],"type":"Point"},"properties":{"osm_id":"4896770426","tag":{"amenity":"waste_basket"}},"type":"Feature"},
	{"geometry":{"coordinates":[6.423429,51.364683],"type":"Point"},"properties":{"osm_id":"4896812525","tag":{"amenity":"waste_basket"}},"type":"Feature"},
	{"geometry":{"coordinates":[6.423387,51.364632],"type":"Point"},"properties":{"osm_id":"4896812526","tag":{"amenity":"waste_basket"}},"type":"Feature"},
	{"geometry":{"coordinates":[6.423452,51.364397],"type":"Point"},"properties":{"osm_id":"4896812527","tag":{"amenity":"waste_basket"}},"type":"Feature"},
	{"geometry":{"coordinates":[6.421813,51.367225],"type":"Point"},"properties":{"osm_id":"4896819421","tag":{"amenity":"waste_basket"}},"type":"Feature"},
	{"geometry":{"coordinates":[6.421853,51.366919],"type":"Point"},"properties":{"osm_id":"4896819422","tag":{"amenity":"waste_basket"}},"type":"Feature"},
	{"geometry":{"coordinates":[6.422507,51.366607],"type":"Point"},"properties":{"osm_id":"4896820821","tag":{"amenity":"waste_basket"}},"type":"Feature"},
	{"geometry":{"coordinates":[6.423019,51.366523],"type":"Point"},"properties":{"osm_id":"4896820822","tag":{"amenity":"waste_basket"}},"type":"Feature"},
	{"geometry":{"coordinates":[6.419098,51.362398],"type":"Point"},"properties":{"osm_id":"4896820825","tag":{"amenity":"waste_basket"}},"type":"Feature"},
	{"geometry":{"coordinates":[6.418503,51.362419],"type":"Point"},"properties":{"osm_id":"4896820826","tag":{"amenity":"waste_basket"}},"type":"Feature"},
	{"geometry":{"coordinates":[6.418148,51.362199],"type":"Point"},"properties":{"osm_id":"4896820827","tag":{"amenity":"waste_basket"}},"type":"Feature"},
	{"geometry":{"coordinates":[6.418244,51.362386],"type":"Point"},"properties":{"osm_id":"4896820828","tag":{"amenity":"waste_basket"}},"type":"Feature"},
	{"geometry":{"coordinates":[6.418117,51.362069],"type":"Point"},"properties":{"osm_id":"4896820829","tag":{"amenity":"waste_basket"}},"type":"Feature"},
	{"geometry":{"coordinates":[6.420158,51.362365],"type":"Point"},"properties":{"osm_id":"4896827823","tag":{"amenity":"waste_basket"}},"type":"Feature"},
	{"geometry":{"coordinates":[6.421679,51.363005],"type":"Point"},"properties":{"osm_id":"4896839521","tag":{"amenity":"waste_basket"}},"type":"Feature"},
	{"geometry":{"coordinates":[6.421325,51.362744],"type":"Point"},"properties":{"osm_id":"4896839921","tag":{"amenity":"waste_basket"}},"type":"Feature"},
	{"geometry":{"coordinates":[6.41943,51.36333],"type":"Point"},"properties":{"osm_id":"4896859721","tag":{"amenity":"waste_basket"}},"type":"Feature"},
	{"geometry":{"coordinates":[6.42046,51.363671],"type":"Point"},"properties":{"osm_id":"4896877321","tag":{"amenity":"waste_basket"}},"type":"Feature"},
	{"geometry":{"coordinates":[6.419851,51.362839],"type":"Point"},"properties":{"osm_id":"4896878421","tag":{"amenity":"waste_basket"}},"type":"Feature"},
	{"geometry":{"coordinates":[6.419509,51.362869],"type":"Point"},"properties":{"osm_id":"4896880821","tag":{"amenity":"waste_basket"}},"type":"Feature"},
	{"geometry":{"coordinates":[6.423357,51.355657],"type":"Point"},"properties":{"osm_id":"5124865675","tag":{"amenity":"waste_basket"}},"type":"Feature"},
	{"geometry":{"coordinates":[6.430992,51.372293],"type":"Point"},"properties":{"osm_id":"6162190355","tag":{"amenity":"waste_basket"}},"type":"Feature"},
	{"geometry":{"coordinates":[6.429424,51.365365],"type":"Point"},"properties":{"osm_id":"6166458136","tag":{"amenity":"recycling","opening_hours":"24/7","operator":"Malteser Hilfsdienst","recycling:clothes":"yes","recycling:shoes":"yes","recycling_type":"container","wheelchair":"yes"}},"type":"Feature"},
	{"geometry":{"coordinates":[6.422736,51.365882],"type":"Point"},"properties":{"osm_id":"6174663538","tag":{"amenity":"waste_basket"}},"type":"Feature"},
	{"geometry":{"coordinates":[6.422659,51.365979],"type":"Point"},"properties":{"osm_id":"6174663539","tag":{"amenity":"waste_basket"}},"type":"Feature"},
	{"geometry":{"coordinates":[6.423302,51.365173],"type":"Point"},"properties":{"osm_id":"6174664750","tag":{"amenity":"waste_basket"}},"type":"Feature"},
	{"geometry":{"coordinates":[6.425319,51.368169],"type":"Point"},"properties":{"osm_id":"6217187035","tag":{"amenity":"waste_basket","waste":"trash"}},"type":"Feature"},
	{"geometry":{"coordinates":[6.432038,51.349443],"type":"Point"},"properties":{"osm_id":"7840690910","tag":{"amenity":"waste_basket","waste":"trash"}},"type":"Feature"}
]
}
