{
"type": "FeatureCollection",
"features": [
	{"geometry":{"coordinates":[6.419259,51.09393],"type":"Point"},"properties":{"osm_id":"303734151","tag":{"amenity":"recycling","recycling:glass":"yes","recycling:paper":"yes"}},"type":"Feature"},
	{"geometry":{"coordinates":[6.418467,51.104592],"type":"Point"},"properties":{"osm_id":"365850305","tag":{"amenity":"recycling","recycling:paper":"yes","recycling_type":"container"}},"type":"Feature"},
	{"geometry":{"coordinates":[6.441162,51.123801],"type":"Point"},"properties":{"osm_id":"365852027","tag":{"amenity":"recycling","recycling:glass":"yes","recycling:paper":"yes"}},"type":"Feature"},
	{"geometry":{"coordinates":[6.460032,51.121292],"type":"Point"},"properties":{"osm_id":"366095264","tag":{"amenity":"recycling","recycling:glass":"yes","recycling:paper":"yes"}},"type":"Feature"},
	{"geometry":{"coordinates":[6.500559,51.104027],"type":"Point"},"properties":{"osm_id":"380993006","tag":{"amenity":"recycling","recycling:clothes":"yes"}},"type":"Feature"},
	{"geometry":{"coordinates":[6.503049,51.116957],"type":"Point"},"properties":{"osm_id":"494259789","tag":{"amenity":"recycling","recycling:glass":"yes"}},"type":"Feature"},
	{"geometry":{"coordinates":[6.502467,51.117262],"type":"Point"},"properties":{"osm_id":"494259800","tag":{"amenity":"recycling","recycling:clothes":"yes"}},"type":"Feature"},
	{"geometry":{"coordinates":[6.489875,51.114096],"type":"Point"},"properties":{"osm_id":"494259813","tag":{"amenity":"recycling","recycling:glass":"yes"}},"type":"Feature"},
	{"geometry":{"coordinates":[6.478862,51.123721],"type":"Point"},"properties":{"osm_id":"494293254","tag":{"amenity":"recycling","recycling:glass":"yes"}},"type":"Feature"},
	{"geometry":{"coordinates":[6.497907,51.104639],"type":"Point"},"properties":{"osm_id":"494293345","tag":{"amenity":"recycling","recycling:clothes":"yes","recycling:glass":"yes"}},"type":"Feature"},
	{"geometry":{"coordinates":[6.500228,51.10135],"type":"Point"},"properties":{"osm_id":"494293357","tag":{"amenity":"recycling","recycling:clothes":"yes"}},"type":"Feature"},
	{"geometry":{"coordinates":[6.500773,51.097338],"type":"Point"},"properties":{"osm_id":"495378792","tag":{"amenity":"recycling","recycling:glass_bottles":"yes"}},"type":"Feature"},
	{"geometry":{"coordinates":[6.494247,51.100799],"type":"Point"},"properties":{"osm_id":"495378795","tag":{"amenity":"recycling","recycling:glass":"yes","recycling_type":"container"}},"type":"Feature"},
	{"geometry":{"coordinates":[6.472408,51.103424],"type":"Point"},"properties":{"osm_id":"495378824","tag":{"amenity":"recycling","recycling:clothes":"no","recycling:glass":"yes"}},"type":"Feature"},
	{"geometry":{"coordinates":[6.502564,51.104721],"type":"Point"},"properties":{"osm_id":"520328308","tag":{"amenity":"recycling","recycling:clothes":"yes"}},"type":"Feature"},
	{"geometry":{"coordinates":[6.463699,51.098882],"type":"Point"},"properties":{"osm_id":"520392966","tag":{"amenity":"recycling","recycling:clothes":"yes","recycling:glass":"yes"}},"type":"Feature"},
	{"geometry":{"coordinates":[6.456407,51.096299],"type":"Point"},"properties":{"osm_id":"520392978","tag":{"amenity":"recycling","recycling:clothes":"yes","recycling:glass":"yes"}},"type":"Feature"},
	{"geometry":{"coordinates":[6.46157,51.105639],"type":"Point"},"properties":{"osm_id":"520393039","tag":{"amenity":"recycling","recycling:glass":"yes"}},"type":"Feature"},
	{"geometry":{"coordinates":[6.465565,51.105656],"type":"Point"},"properties":{"osm_id":"520393062","tag":{"amenity":"recycling","recycling:clothes":"yes","recycling:glass":"yes"}},"type":"Feature"},
	{"geometry":{"coordinates":[6.467057,51.101504],"type":"Point"},"properties":{"name":"Glasscontainer Altkleider","osm_id":"520393094","tag":{"amenity":"recycling","recycling:glass":"yes"}},"type":"Feature"},
	{"geometry":{"coordinates":[6.470259,51.107458],"type":"Point"},"properties":{"osm_id":"3167752204","tag":{"amenity":"waste_basket"}},"type":"Feature"},
	{"geometry":{"coordinates":[6.487577,51.099189],"type":"Point"},"properties":{"osm_id":"3169606419","tag":{"amenity":"waste_basket"}},"type":"Feature"},
	{"geometry":{"coordinates":[6.468244,51.115197],"type":"Point"},"properties":{"osm_id":"3554627812","tag":{"amenity":"recycling"}},"type":"Feature"}
]
}
