{
"type": "FeatureCollection",
"features": [
	{"geometry":{"coordinates":[6.456188,50.630685],"type":"Point"},"properties":{"osm_id":"395446550","tag":{"amenity":"recycling"}},"type":"Feature"},
	{"geometry":{"coordinates":[6.473515,50.63424],"type":"Point"},"properties":{"osm_id":"410263414","tag":{"amenity":"recycling","recycling:glass":"yes","recycling_type":"container"}},"type":"Feature"},
	{"geometry":{"coordinates":[6.473518,50.634224],"type":"Point"},"properties":{"osm_id":"410263415","tag":{"amenity":"recycling","operator":"Texaid","recycling:clothes":"yes","recycling_type":"container"}},"type":"Feature"},
	{"geometry":{"coordinates":[6.483135,50.627143],"type":"Point"},"properties":{"osm_id":"410281012","tag":{"amenity":"waste_basket"}},"type":"Feature"},
	{"geometry":{"coordinates":[6.487674,50.631632],"type":"Point"},"properties":{"osm_id":"410479725","tag":{"amenity":"waste_basket"}},"type":"Feature"},
	{"geometry":{"coordinates":[6.47677,50.627536],"type":"Point"},"properties":{"osm_id":"410566517","tag":{"amenity":"waste_basket"}},"type":"Feature"},
	{"geometry":{"coordinates":[6.479298,50.628402],"type":"Point"},"properties":{"osm_id":"410569741","tag":{"amenity":"waste_basket"}},"type":"Feature"},
	{"geometry":{"coordinates":[6.495466,50.651164],"type":"Point"},"properties":{"osm_id":"549268456","tag":{"amenity":"recycling","recycling:glass":"yes"}},"type":"Feature"},
	{"geometry":{"coordinates":[6.486649,50.660614],"type":"Point"},"properties":{"osm_id":"549268466","tag":{"amenity":"recycling","recycling:glass":"yes","recycling_type":"container"}},"type":"Feature"},
	{"geometry":{"coordinates":[6.475125,50.633705],"type":"Point"},"properties":{"osm_id":"652685825","tag":{"amenity":"waste_basket"}},"type":"Feature"},
	{"geometry":{"coordinates":[6.476056,50.633514],"type":"Point"},"properties":{"osm_id":"652685834","tag":{"amenity":"waste_basket"}},"type":"Feature"},
	{"geometry":{"coordinates":[6.472988,50.63678],"type":"Point"},"properties":{"osm_id":"2087485291","tag":{"amenity":"waste_disposal"}},"type":"Feature"},
	{"geometry":{"coordinates":[6.431678,50.657163],"type":"Point"},"properties":{"osm_id":"3919398747","tag":{"amenity":"waste_basket"}},"type":"Feature"},
	{"geometry":{"coordinates":[6.420262,50.65744],"type":"Point"},"properties":{"osm_id":"4049194732","tag":{"amenity":"waste_basket"}},"type":"Feature"},
	{"geometry":{"coordinates":[6.48083,50.633421],"type":"Point"},"properties":{"osm_id":"4068834067","tag":{"amenity":"waste_basket"}},"type":"Feature"},
	{"geometry":{"coordinates":[6.480675,50.633517],"type":"Point"},"properties":{"osm_id":"4068873865","tag":{"amenity":"waste_basket"}},"type":"Feature"},
	{"geometry":{"coordinates":[6.479141,50.633863],"type":"Point"},"properties":{"osm_id":"4068901469","tag":{"amenity":"waste_basket"}},"type":"Feature"},
	{"geometry":{"coordinates":[6.487677,50.631599],"type":"Point"},"properties":{"osm_id":"4081469235","tag":{"amenity":"waste_basket"}},"type":"Feature"},
	{"geometry":{"coordinates":[6.478967,50.631863],"type":"Point"},"properties":{"osm_id":"4266907757","tag":{"amenity":"waste_basket"}},"type":"Feature"},
	{"geometry":{"coordinates":[6.445127,50.632956],"type":"Point"},"properties":{"osm_id":"4332046295","tag":{"amenity":"waste_basket"}},"type":"Feature"},
	{"geometry":{"coordinates":[6.445629,50.633381],"type":"Point"},"properties":{"osm_id":"4332046296","tag":{"amenity":"waste_disposal","operator":"Landal","waste":"trash"}},"type":"Feature"},
	{"geometry":{"coordinates":[6.448149,50.631491],"type":"Point"},"properties":{"osm_id":"4335113290","tag":{"amenity":"waste_basket"}},"type":"Feature"},
	{"geometry":{"coordinates":[6.446224,50.631744],"type":"Point"},"properties":{"osm_id":"4335130190","tag":{"amenity":"waste_disposal"}},"type":"Feature"},
	{"geometry":{"coordinates":[6.445818,50.63188],"type":"Point"},"properties":{"osm_id":"4335151889","tag":{"amenity":"waste_basket"}},"type":"Feature"},
	{"geometry":{"coordinates":[6.447379,50.631821],"type":"Point"},"properties":{"osm_id":"4335151890","tag":{"amenity":"waste_disposal"}},"type":"Feature"},
	{"geometry":{"coordinates":[6.440698,50.639452],"type":"Point"},"properties":{"osm_id":"4339548490","tag":{"amenity":"waste_basket"}},"type":"Feature"},
	{"geometry":{"coordinates":[6.440632,50.639472],"type":"Point"},"properties":{"osm_id":"4339549889","tag":{"amenity":"waste_basket"}},"type":"Feature"},
	{"geometry":{"coordinates":[6.440572,50.639249],"type":"Point"},"properties":{"osm_id":"4341423190","tag":{"amenity":"waste_basket"}},"type":"Feature"},
	{"geometry":{"coordinates":[6.440828,50.639323],"type":"Point"},"properties":{"osm_id":"4341423195","tag":{"amenity":"waste_basket"}},"type":"Feature"},
	{"geometry":{"coordinates":[6.440846,50.639347],"type":"Point"},"properties":{"osm_id":"4341423196","tag":{"amenity":"waste_basket"}},"type":"Feature"},
	{"geometry":{"coordinates":[6.440865,50.639372],"type":"Point"},"properties":{"osm_id":"4341423197","tag":{"amenity":"waste_basket"}},"type":"Feature"},
	{"geometry":{"coordinates":[6.495022,50.633163],"type":"Point"},"properties":{"osm_id":"4378401290","tag":{"amenity":"waste_basket"}},"type":"Feature"},
	{"geometry":{"coordinates":[6.44564,50.633375],"type":"Point"},"properties":{"osm_id":"4562175532","tag":{"amenity":"recycling","operator":"landal Eifeler tor","recycling:glass_bottles":"yes","recycling:paper":"yes","recycling:plastic_packaging":"no","recycling:waste":"yes","recycling_type":"container"}},"type":"Feature"},
	{"geometry":{"coordinates":[6.445067,50.632873],"type":"Point"},"properties":{"osm_id":"4564028797","tag":{"amenity":"waste_basket"}},"type":"Feature"},
	{"geometry":{"coordinates":[6.473304,50.636698],"type":"Point"},"properties":{"osm_id":"4611595523","tag":{"amenity":"waste_basket"}},"type":"Feature"},
	{"geometry":{"coordinates":[6.463837,50.636159],"type":"Point"},"properties":{"osm_id":"5520534341","tag":{"amenity":"waste_basket"}},"type":"Feature"},
	{"geometry":{"coordinates":[6.470717,50.636732],"type":"Point"},"properties":{"osm_id":"5520534343","tag":{"amenity":"waste_basket"}},"type":"Feature"},
	{"geometry":{"coordinates":[6.448176,50.639703],"type":"Point"},"properties":{"osm_id":"5520534344","tag":{"amenity":"waste_basket"}},"type":"Feature"},
	{"geometry":{"coordinates":[6.470864,50.636817],"type":"Point"},"properties":{"osm_id":"5520534345","tag":{"amenity":"waste_basket"}},"type":"Feature"},
	{"geometry":{"coordinates":[6.456164,50.640087],"type":"Point"},"properties":{"osm_id":"5520534346","tag":{"amenity":"waste_basket"}},"type":"Feature"},
	{"geometry":{"coordinates":[6.458788,50.639155],"type":"Point"},"properties":{"osm_id":"5520534348","tag":{"amenity":"waste_basket"}},"type":"Feature"},
	{"geometry":{"coordinates":[6.463082,50.635757],"type":"Point"},"properties":{"osm_id":"5520534349","tag":{"amenity":"waste_basket"}},"type":"Feature"},
	{"geometry":{"coordinates":[6.420952,50.653376],"type":"Point"},"properties":{"osm_id":"5781580254","tag":{"amenity":"waste_basket"}},"type":"Feature"},
	{"geometry":{"coordinates":[6.480161,50.628714],"type":"Point"},"properties":{"osm_id":"7643770586","tag":{"amenity":"waste_basket"}},"type":"Feature"},
	{"geometry":{"coordinates":[6.480163,50.632086],"type":"Point"},"properties":{"osm_id":"7643770588","tag":{"amenity":"waste_basket"}},"type":"Feature"},
	{"geometry":{"coordinates":[6.478121,50.633125],"type":"Point"},"properties":{"osm_id":"7643770589","tag":{"amenity":"waste_basket"}},"type":"Feature"},
	{"geometry":{"coordinates":[6.477827,50.633686],"type":"Point"},"properties":{"osm_id":"7721486767","tag":{"amenity":"waste_basket"}},"type":"Feature"},
	{"geometry":{"coordinates":[6.478047,50.633683],"type":"Point"},"properties":{"osm_id":"7721486768","tag":{"amenity":"waste_basket"}},"type":"Feature"}
]
}
