{
"type": "FeatureCollection",
"features": [
	{"geometry":{"coordinates":[6.497147,50.624436],"type":"Point"},"properties":{"osm_id":"410259497","tag":{"amenity":"waste_basket"}},"type":"Feature"},
	{"geometry":{"coordinates":[6.493874,50.578252],"type":"Point"},"properties":{"osm_id":"2401705093","tag":{"access":"customers","amenity":"waste_disposal","waste":"trash;platic;glas;organic"}},"type":"Feature"},
	{"geometry":{"coordinates":[6.420008,50.603694],"type":"Point"},"properties":{"osm_id":"4134090449","tag":{"amenity":"waste_basket"}},"type":"Feature"},
	{"geometry":{"coordinates":[6.437876,50.617271],"type":"Point"},"properties":{"osm_id":"4334127391","tag":{"amenity":"waste_basket"}},"type":"Feature"},
	{"geometry":{"coordinates":[6.436086,50.616212],"type":"Point"},"properties":{"osm_id":"4338125890","tag":{"amenity":"waste_basket"}},"type":"Feature"},
	{"geometry":{"coordinates":[6.498086,50.57265],"type":"Point"},"properties":{"osm_id":"4802016451","tag":{"amenity":"recycling","recycling:clothes":"yes","recycling:glass_bottles":"yes","recycling:shoes":"yes","recycling_type":"container"}},"type":"Feature"},
	{"geometry":{"coordinates":[6.448269,50.587094],"type":"Point"},"properties":{"osm_id":"5063958582","tag":{"amenity":"waste_basket","mapillary":"MUA6VccQvWAv9cBIWX_dDA"}},"type":"Feature"},
	{"geometry":{"coordinates":[6.447613,50.586979],"type":"Point"},"properties":{"osm_id":"5063958585","tag":{"amenity":"waste_basket","mapillary":"G556SMOyJbCDGR51wA9hHA"}},"type":"Feature"},
	{"geometry":{"coordinates":[6.494169,50.590542],"type":"Point"},"properties":{"osm_id":"5248861520","tag":{"amenity":"recycling","recycling:glass":"yes","recycling_type":"container"}},"type":"Feature"},
	{"geometry":{"coordinates":[6.488001,50.579109],"type":"Point"},"properties":{"osm_id":"6502395960","tag":{"amenity":"recycling","recycling:clothes":"yes","recycling_type":"container"}},"type":"Feature"},
	{"geometry":{"coordinates":[6.488027,50.579112],"type":"Point"},"properties":{"osm_id":"6502395961","tag":{"amenity":"recycling","recycling:glass_bottles":"yes","recycling_type":"container"}},"type":"Feature"},
	{"geometry":{"coordinates":[6.493988,50.577439],"type":"Point"},"properties":{"osm_id":"6900536253","tag":{"amenity":"waste_basket","waste":"trash"}},"type":"Feature"},
	{"geometry":{"coordinates":[6.420058,50.603849],"type":"Point"},"properties":{"osm_id":"7643794185","tag":{"amenity":"waste_basket"}},"type":"Feature"}
]
}
