{
"type": "FeatureCollection",
"features": [
	{"geometry":{"coordinates":[6.476909,50.530551],"type":"Point"},"properties":{"osm_id":"827920673","tag":{"amenity":"recycling","recycling:glass":"yes","recycling_type":"container"}},"type":"Feature"},
	{"geometry":{"coordinates":[6.47791,50.531708],"type":"Point"},"properties":{"osm_id":"827920740","tag":{"amenity":"waste_basket"}},"type":"Feature"},
	{"geometry":{"coordinates":[6.469661,50.527884],"type":"Point"},"properties":{"osm_id":"827920820","tag":{"amenity":"waste_basket"}},"type":"Feature"},
	{"geometry":{"coordinates":[6.476009,50.529023],"type":"Point"},"properties":{"osm_id":"828486650","tag":{"amenity":"waste_basket"}},"type":"Feature"},
	{"geometry":{"coordinates":[6.484609,50.533841],"type":"Point"},"properties":{"osm_id":"1635045786","tag":{"amenity":"recycling"}},"type":"Feature"},
	{"geometry":{"coordinates":[6.478973,50.532757],"type":"Point"},"properties":{"osm_id":"1906138747","tag":{"amenity":"waste_basket"}},"type":"Feature"},
	{"geometry":{"coordinates":[6.472387,50.528798],"type":"Point"},"properties":{"osm_id":"5052021343","tag":{"amenity":"waste_basket","mapillary":"YLcyrQw9zkDOZ_pZ0Lqa1g"}},"type":"Feature"},
	{"geometry":{"coordinates":[6.48272,50.531206],"type":"Point"},"properties":{"osm_id":"7743734837","tag":{"access":"private","door":"hinged","entrance":"main"}},"type":"Feature"},
	{"geometry":{"coordinates":[6.466627,50.529538],"type":"Point"},"properties":{"osm_id":"7745043235","tag":{"amenity":"waste_basket"}},"type":"Feature"},
	{"geometry":{"coordinates":[6.4667,50.529463],"type":"Point"},"properties":{"osm_id":"7745043236","tag":{"amenity":"waste_basket"}},"type":"Feature"},
	{"geometry":{"coordinates":[6.4663,50.529405],"type":"Point"},"properties":{"osm_id":"7745043239","tag":{"amenity":"waste_basket"}},"type":"Feature"},
	{"geometry":{"coordinates":[6.475164,50.527958],"type":"Point"},"properties":{"osm_id":"7926159660","tag":{"amenity":"waste_basket","material":"plastic","waste":"trash"}},"type":"Feature"}
]
}
