{
"type": "FeatureCollection",
"features": [
	{"geometry":{"coordinates":[6.442521,50.490179],"type":"Point"},"properties":{"osm_id":"839980999","tag":{"amenity":"waste_basket"}},"type":"Feature"},
	{"geometry":{"coordinates":[6.436497,50.491815],"type":"Point"},"properties":{"osm_id":"4145147267","tag":{"amenity":"waste_basket"}},"type":"Feature"},
	{"geometry":{"coordinates":[6.435968,50.492027],"type":"Point"},"properties":{"osm_id":"4145147283","tag":{"amenity":"waste_basket"}},"type":"Feature"},
	{"geometry":{"coordinates":[6.465539,50.510472],"type":"Point"},"properties":{"osm_id":"4794121360","tag":{"amenity":"recycling","recycling:clothes":"yes","recycling:shoes":"yes","recycling_type":"container"}},"type":"Feature"},
	{"geometry":{"coordinates":[6.44165,50.492129],"type":"Point"},"properties":{"osm_id":"5052021354","tag":{"amenity":"waste_basket","mapillary":"IQCjN081g0wGh1AYBlDt4w"}},"type":"Feature"},
	{"geometry":{"coordinates":[6.495367,50.462211],"type":"Point"},"properties":{"osm_id":"5908142395","tag":{"amenity":"waste_basket","waste":"trash"}},"type":"Feature"},
	{"geometry":{"coordinates":[6.419568,50.494265],"type":"Point"},"properties":{"osm_id":"5990382685","tag":{"amenity":"waste_basket"}},"type":"Feature"},
	{"geometry":{"coordinates":[6.422294,50.496379],"type":"Point"},"properties":{"osm_id":"5990382785","tag":{"amenity":"waste_basket"}},"type":"Feature"},
	{"geometry":{"coordinates":[6.437105,50.491547],"type":"Point"},"properties":{"osm_id":"6313077546","tag":{"amenity":"recycling","recycling:glass":"yes","recycling_type":"container"}},"type":"Feature"},
	{"geometry":{"coordinates":[6.424497,50.47826],"type":"Point"},"properties":{"osm_id":"6321171876","tag":{"amenity":"recycling","recycling:glass":"yes","recycling_type":"container"}},"type":"Feature"},
	{"geometry":{"coordinates":[6.428437,50.478983],"type":"Point"},"properties":{"osm_id":"6321171877","tag":{"amenity":"recycling","recycling:glass":"yes","recycling_type":"container"}},"type":"Feature"},
	{"geometry":{"coordinates":[6.464317,50.509325],"type":"Point"},"properties":{"osm_id":"7669511860","tag":{"amenity":"waste_basket"}},"type":"Feature"},
	{"geometry":{"coordinates":[6.435901,50.492586],"type":"Point"},"properties":{"osm_id":"7833810043","tag":{"amenity":"waste_basket"}},"type":"Feature"}
]
}
