{
"type": "FeatureCollection",
"features": [
	{"geometry":{"coordinates":[6.454728,50.361841],"type":"Point"},"properties":{"osm_id":"447960060","tag":{"amenity":"recycling","recycling:glass":"yes"}},"type":"Feature"},
	{"geometry":{"coordinates":[6.470464,50.361365],"type":"Point"},"properties":{"osm_id":"2441149212","tag":{"amenity":"recycling","recycling:glass":"yes"}},"type":"Feature"},
	{"geometry":{"coordinates":[6.471623,50.360334],"type":"Point"},"properties":{"osm_id":"3646650260","tag":{"amenity":"waste_basket"}},"type":"Feature"},
	{"geometry":{"coordinates":[6.474288,50.358546],"type":"Point"},"properties":{"osm_id":"3647700649","tag":{"amenity":"waste_basket"}},"type":"Feature"},
	{"geometry":{"coordinates":[6.473845,50.358913],"type":"Point"},"properties":{"osm_id":"3647792836","tag":{"amenity":"waste_basket"}},"type":"Feature"},
	{"geometry":{"coordinates":[6.474517,50.359288],"type":"Point"},"properties":{"osm_id":"3647792852","tag":{"amenity":"waste_basket"}},"type":"Feature"},
	{"geometry":{"coordinates":[6.47477,50.35943],"type":"Point"},"properties":{"osm_id":"3647792868","tag":{"amenity":"waste_basket"}},"type":"Feature"},
	{"geometry":{"coordinates":[6.473758,50.35943],"type":"Point"},"properties":{"osm_id":"3647792869","tag":{"amenity":"waste_basket"}},"type":"Feature"},
	{"geometry":{"coordinates":[6.477369,50.35987],"type":"Point"},"properties":{"osm_id":"3647792884","tag":{"amenity":"waste_basket"}},"type":"Feature"},
	{"geometry":{"coordinates":[6.446435,50.35749],"type":"Point"},"properties":{"osm_id":"3658126522","tag":{"amenity":"waste_basket"}},"type":"Feature"}
]
}
