{
"type": "FeatureCollection",
"features": [
	{"geometry":{"coordinates":[6.491085,47.678135],"type":"Point"},"properties":{"osm_id":"1665253430","tag":{"amenity":"recycling","recycling:glass_bottles":"yes","recycling_type":"container"}},"type":"Feature"},
	{"geometry":{"coordinates":[6.498294,47.686035],"type":"Point"},"properties":{"osm_id":"1666120024","tag":{"amenity":"recycling","recycling:glass_bottles":"yes","recycling_type":"container"}},"type":"Feature"},
	{"geometry":{"coordinates":[6.501182,47.679039],"type":"Point"},"properties":{"osm_id":"1667447781","tag":{"amenity":"recycling","recycling:glass":"yes","recycling_type":"container"}},"type":"Feature"},
	{"geometry":{"coordinates":[6.501289,47.674755],"type":"Point"},"properties":{"osm_id":"1667447782","tag":{"amenity":"recycling"}},"type":"Feature"},
	{"geometry":{"coordinates":[6.490501,47.680852],"type":"Point"},"properties":{"osm_id":"1667447784","tag":{"amenity":"recycling","recycling:glass":"no","recycling:glass_bottles":"yes","recycling_type":"container"}},"type":"Feature"},
	{"geometry":{"coordinates":[6.486944,47.688688],"type":"Point"},"properties":{"osm_id":"1669412913","tag":{"amenity":"recycling","recycling:glass":"yes","recycling_type":"container"}},"type":"Feature"},
	{"geometry":{"coordinates":[6.487339,47.684516],"type":"Point"},"properties":{"osm_id":"1669974631","tag":{"amenity":"recycling"}},"type":"Feature"},
	{"geometry":{"coordinates":[6.489297,47.685036],"type":"Point"},"properties":{"osm_id":"1669974635","tag":{"amenity":"recycling"}},"type":"Feature"},
	{"geometry":{"coordinates":[6.503073,47.693862],"type":"Point"},"properties":{"osm_id":"1670315940","tag":{"amenity":"recycling"}},"type":"Feature"},
	{"geometry":{"coordinates":[6.491683,47.683554],"type":"Point"},"properties":{"osm_id":"1670510266","tag":{"amenity":"recycling"}},"type":"Feature"},
	{"geometry":{"coordinates":[6.485348,47.687404],"type":"Point"},"properties":{"osm_id":"1678079282","tag":{"amenity":"recycling"}},"type":"Feature"},
	{"geometry":{"coordinates":[6.495803,47.681796],"type":"Point"},"properties":{"osm_id":"1687503695","tag":{"amenity":"recycling","recycling:glass":"yes","recycling_type":"container"}},"type":"Feature"},
	{"geometry":{"coordinates":[6.442604,47.643645],"type":"Point"},"properties":{"osm_id":"2119972987","tag":{"amenity":"recycling","recycling:cans":"yes","recycling:glass":"yes","recycling:paper":"yes"}},"type":"Feature"},
	{"geometry":{"coordinates":[6.498341,47.678297],"type":"Point"},"properties":{"osm_id":"2364752777","tag":{"amenity":"recycling","recycling:glass":"no","recycling:glass_bottles":"yes","recycling_type":"container"}},"type":"Feature"},
	{"geometry":{"coordinates":[6.497003,47.690241],"type":"Point"},"properties":{"osm_id":"3812341603","tag":{"amenity":"recycling","recycling:garden_waste":"yes","recycling:green_waste":"yes","recycling_type":"container"}},"type":"Feature"},
	{"geometry":{"coordinates":[6.49854,47.68963],"type":"Point"},"properties":{"osm_id":"3812343324","tag":{"amenity":"recycling","recycling:green":"yes","recycling:green_waste":"yes","recycling_type":"container"}},"type":"Feature"},
	{"geometry":{"coordinates":[6.496292,47.689629],"type":"Point"},"properties":{"osm_id":"3812344797","tag":{"amenity":"recycling","recycling:green":"yes","recycling_type":"container"}},"type":"Feature"},
	{"geometry":{"coordinates":[6.492629,47.683246],"type":"Point"},"properties":{"osm_id":"4464980396","tag":{"amenity":"waste_basket"}},"type":"Feature"},
	{"geometry":{"coordinates":[6.492411,47.682958],"type":"Point"},"properties":{"osm_id":"4464980397","tag":{"amenity":"waste_basket"}},"type":"Feature"},
	{"geometry":{"coordinates":[6.492291,47.683118],"type":"Point"},"properties":{"osm_id":"4464980406","tag":{"amenity":"waste_basket"}},"type":"Feature"},
	{"geometry":{"coordinates":[6.493794,47.683613],"type":"Point"},"properties":{"osm_id":"7794837598","tag":{"amenity":"waste_basket"}},"type":"Feature"}
]
}
