{
"type": "FeatureCollection",
"features": [
	{"geometry":{"coordinates":[6.447995,46.945645],"type":"Point"},"properties":{"osm_id":"488416471","tag":{"amenity":"recycling","recycling:glass":"yes"}},"type":"Feature"},
	{"geometry":{"coordinates":[6.425075,46.938002],"type":"Point"},"properties":{"osm_id":"488416672","tag":{"amenity":"recycling","opening_hours":"24/7","operator":"Communaut\u00c3\u00a9 de communes du Grand Pontarlier","recycling:glass":"yes","recycling:paper":"yes","recycling:plastic":"yes","recycling_type":"container"}},"type":"Feature"},
	{"geometry":{"coordinates":[6.425027,46.937977],"type":"Point"},"properties":{"osm_id":"6903995379","tag":{"amenity":"recycling","opening_hours":"24/7","operator":"Communaut\u00c3\u00a9 de communes du Grand Pontarlier","recycling:glass":"yes","recycling:paper":"yes","recycling:plastic":"yes","recycling_type":"container"}},"type":"Feature"},
	{"geometry":{"coordinates":[6.425051,46.93799],"type":"Point"},"properties":{"osm_id":"6903995380","tag":{"amenity":"recycling","opening_hours":"24/7","operator":"Communaut\u00c3\u00a9 de communes du Grand Pontarlier","recycling:glass":"yes","recycling:paper":"yes","recycling:plastic":"yes","recycling_type":"container"}},"type":"Feature"},
	{"geometry":{"coordinates":[6.420754,46.965504],"type":"Point"},"properties":{"osm_id":"7027388769","tag":{"amenity":"recycling","recycling_type":"container"}},"type":"Feature"},
	{"geometry":{"coordinates":[6.437803,46.978611],"type":"Point"},"properties":{"barrier":"gate","osm_id":"7027389378"},"type":"Feature"}
]
}
