{
"type": "FeatureCollection",
"features": [
	{"geometry":{"coordinates":[6.449492,46.481758],"type":"Point"},"properties":{"osm_id":"1359133830","tag":{"amenity":"recycling"}},"type":"Feature"},
	{"geometry":{"coordinates":[6.449011,46.474322],"type":"Point"},"properties":{"osm_id":"3442968693","tag":{"amenity":"waste_basket","waste":"trash"}},"type":"Feature"},
	{"geometry":{"coordinates":[6.419646,46.471503],"type":"Point"},"properties":{"name":"D\u00c3\u00a9ch\u00c3\u00a8terie de Buchillon","osm_id":"3571415296","tag":{"amenity":"recycling","operator":"Buchillon","recycling:cartons":"yes","recycling:clothes":"yes","recycling:glass":"yes","recycling:paper":"yes","recycling:plastic_bottles":"yes","recycling_type":"centre"}},"type":"Feature"},
	{"geometry":{"coordinates":[6.461665,46.484573],"type":"Point"},"properties":{"osm_id":"3909370057","tag":{"amenity":"recycling"}},"type":"Feature"},
	{"geometry":{"coordinates":[6.444278,46.47759],"type":"Point"},"properties":{"osm_id":"4081406589","tag":{"amenity":"recycling"}},"type":"Feature"},
	{"geometry":{"coordinates":[6.476877,46.496668],"type":"Point"},"properties":{"osm_id":"4434538498","tag":{"amenity":"recycling"}},"type":"Feature"},
	{"geometry":{"coordinates":[6.447418,46.478081],"type":"Point"},"properties":{"osm_id":"6830618779","tag":{"amenity":"recycling","recycling_type":"container"}},"type":"Feature"},
	{"geometry":{"coordinates":[6.441206,46.476344],"type":"Point"},"properties":{"osm_id":"6830618780","tag":{"amenity":"recycling","recycling_type":"container"}},"type":"Feature"},
	{"geometry":{"coordinates":[6.453723,46.486917],"type":"Point"},"properties":{"osm_id":"7084014261","tag":{"amenity":"waste_disposal"}},"type":"Feature"},
	{"geometry":{"coordinates":[6.453678,46.48697],"type":"Point"},"properties":{"osm_id":"7084014262","tag":{"amenity":"recycling","opening_hours":"24/7","recycling:cardboard":"yes","recycling:glass":"yes","recycling:glass_bottles":"yes","recycling:paper":"yes","recycling_type":"container","wheelchair":"yes"}},"type":"Feature"},
	{"geometry":{"coordinates":[6.461179,46.479968],"type":"Point"},"properties":{"osm_id":"7681112632","tag":{"amenity":"waste_disposal","recycling_type":"underground"}},"type":"Feature"},
	{"geometry":{"coordinates":[6.459846,46.481932],"type":"Point"},"properties":{"osm_id":"7681179108","tag":{"amenity":"recycling","recycling:glass":"yes","recycling_type":"container"}},"type":"Feature"}
]
}
