{
"type": "FeatureCollection",
"lastupdate": "2020-08-06T00:00:00Z",
"features": [
	{"geometry":{"coordinates":[6.477104,46.374985],"type":"Point"},"properties":{"osm_id":"818944928","tag":{"amenity":"recycling","recycling_type":"container"}},"type":"Feature"},
	{"geometry":{"coordinates":[6.462201,46.363844],"type":"Point"},"properties":{"osm_id":"1398665281","tag":{"amenity":"recycling","recycling:batteries":"no","recycling:books":"no","recycling:cans":"yes","recycling:cardboard":"no","recycling:cartons":"yes","recycling:clothes":"no","recycling:electrical_appliances":"no","recycling:glass_bottles":"yes","recycling:green_waste":"no","recycling:magazines":"yes","recycling:newspaper":"yes","recycling:paper":"yes","recycling:paper_packaging":"yes","recycling:plastic":"yes","recycling:plastic_bottles":"yes","recycling:plastic_packaging":"yes","recycling:scrap_metal":"no","recycling:small_appliances":"no","recycling:waste":"no","recycling:wood":"no","recycling_type":"container"}},"type":"Feature"},
	{"geometry":{"coordinates":[6.4788,46.370005],"type":"Point"},"properties":{"osm_id":"1871301085","tag":{"amenity":"recycling","recycling:glass_bottles":"yes","recycling_type":"container"}},"type":"Feature"},
	{"geometry":{"coordinates":[6.478363,46.36215],"type":"Point"},"properties":{"osm_id":"1871659915","tag":{"amenity":"recycling","recycling:glass_bottles":"yes","recycling_type":"container"}},"type":"Feature"},
	{"geometry":{"coordinates":[6.481158,46.335507],"type":"Point"},"properties":{"osm_id":"2967461203","tag":{"amenity":"recycling","recycling:cans":"yes","recycling:glass_bottles":"yes","recycling:paper":"yes","recycling_type":"container"}},"type":"Feature"},
	{"geometry":{"coordinates":[6.483205,46.374407],"type":"Point"},"properties":{"osm_id":"3074730433","tag":{"amenity":"waste_basket"}},"type":"Feature"},
	{"geometry":{"coordinates":[6.484228,46.37639],"type":"Point"},"properties":{"osm_id":"3074730436","tag":{"amenity":"waste_basket"}},"type":"Feature"},
	{"geometry":{"coordinates":[6.483647,46.376668],"type":"Point"},"properties":{"osm_id":"3074730441","tag":{"amenity":"waste_basket"}},"type":"Feature"},
	{"geometry":{"coordinates":[6.483461,46.377021],"type":"Point"},"properties":{"osm_id":"3074730445","tag":{"amenity":"waste_basket"}},"type":"Feature"},
	{"geometry":{"coordinates":[6.483196,46.374731],"type":"Point"},"properties":{"osm_id":"3081615038","tag":{"amenity":"waste_basket"}},"type":"Feature"},
	{"geometry":{"coordinates":[6.483578,46.37655],"type":"Point"},"properties":{"osm_id":"3081615044","tag":{"amenity":"waste_basket"}},"type":"Feature"},
	{"geometry":{"coordinates":[6.483887,46.374218],"type":"Point"},"properties":{"osm_id":"3093991834","tag":{"amenity":"waste_basket"}},"type":"Feature"},
	{"geometry":{"coordinates":[6.432591,46.33642],"type":"Point"},"properties":{"osm_id":"4839609423","tag":{"amenity":"recycling","location":"underground","recycling_type":"container"}},"type":"Feature"},
	{"geometry":{"coordinates":[6.46031,46.360321],"type":"Point"},"properties":{"osm_id":"5016160610","tag":{"addr:city":"Thonon-les-Bains","addr:street":"Chemin de Morcy","amenity":"recycling","recycling:glass_bottles":"yes","recycling_type":"container"}},"type":"Feature"},
	{"geometry":{"coordinates":[6.46048,46.358238],"type":"Point"},"properties":{"osm_id":"5016160611","tag":{"amenity":"recycling","recycling:clothes":"yes","recycling_type":"container"}},"type":"Feature"},
	{"geometry":{"coordinates":[6.431287,46.337711],"type":"Point"},"properties":{"osm_id":"5086470236","tag":{"amenity":"waste_basket"}},"type":"Feature"},
	{"geometry":{"coordinates":[6.421679,46.359523],"type":"Point"},"properties":{"osm_id":"5110765179","tag":{"amenity":"waste_basket"}},"type":"Feature"},
	{"geometry":{"coordinates":[6.422543,46.359683],"type":"Point"},"properties":{"osm_id":"5110765201","tag":{"amenity":"waste_basket"}},"type":"Feature"},
	{"geometry":{"coordinates":[6.425148,46.359757],"type":"Point"},"properties":{"osm_id":"5110765826","tag":{"amenity":"waste_basket"}},"type":"Feature"},
	{"geometry":{"coordinates":[6.422972,46.359833],"type":"Point"},"properties":{"osm_id":"5110765860","tag":{"amenity":"waste_basket"}},"type":"Feature"},
	{"geometry":{"coordinates":[6.423516,46.359844],"type":"Point"},"properties":{"osm_id":"5110765866","tag":{"amenity":"waste_basket"}},"type":"Feature"},
	{"geometry":{"coordinates":[6.423793,46.359868],"type":"Point"},"properties":{"osm_id":"5110765881","tag":{"amenity":"waste_basket"}},"type":"Feature"},
	{"geometry":{"coordinates":[6.424703,46.360025],"type":"Point"},"properties":{"osm_id":"5110765907","tag":{"amenity":"waste_basket"}},"type":"Feature"},
	{"geometry":{"coordinates":[6.477238,46.326483],"type":"Point"},"properties":{"barrier":"gate","osm_id":"5559174201"},"type":"Feature"},
	{"geometry":{"coordinates":[6.47774,46.326233],"type":"Point"},"properties":{"barrier":"gate","osm_id":"5559174202"},"type":"Feature"},
	{"geometry":{"coordinates":[6.468097,46.336187],"type":"Point"},"properties":{"osm_id":"5888086679","tag":{"addr:city":"Allinges","addr:postcode":"74200","addr:street":"Route de Noyer","amenity":"recycling","opening_hours":"24/7","recycling:cans":"yes","recycling:cartons":"yes","recycling:clothes":"yes","recycling:glass_bottles":"yes","recycling:magazines":"yes","recycling:newspaper":"yes","recycling:paper":"yes","recycling:paper_packaging":"yes","recycling:plastic":"yes","recycling:plastic_bottles":"yes","recycling:plastic_packaging":"yes","recycling:shoes":"yes","recycling_type":"container"}},"type":"Feature"},
	{"geometry":{"coordinates":[6.47885,46.373727],"type":"Point"},"properties":{"osm_id":"6470820576","tag":{"amenity":"waste_basket"}},"type":"Feature"},
	{"geometry":{"coordinates":[6.478053,46.375129],"type":"Point"},"properties":{"osm_id":"6470909502","tag":{"amenity":"recycling","location":"underground","recycling_type":"container"}},"type":"Feature"},
	{"geometry":{"coordinates":[6.47888,46.370501],"type":"Point"},"properties":{"osm_id":"6557900049","tag":{"amenity":"waste_basket"}},"type":"Feature"},
	{"geometry":{"coordinates":[6.479484,46.342394],"type":"Point"},"properties":{"osm_id":"6908832527","tag":{"amenity":"recycling","recycling_type":"container"}},"type":"Feature"},
	{"geometry":{"coordinates":[6.482999,46.367345],"type":"Point"},"properties":{"osm_id":"6944930151","tag":{"amenity":"recycling","location":"underground","recycling:glass_bottles":"yes","recycling_type":"container"}},"type":"Feature"},
	{"geometry":{"coordinates":[6.482983,46.367289],"type":"Point"},"properties":{"osm_id":"6944930159","tag":{"amenity":"waste_basket","waste":"trash"}},"type":"Feature"},
	{"geometry":{"coordinates":[6.478357,46.372627],"type":"Point"},"properties":{"osm_id":"6945367675","tag":{"amenity":"waste_basket","waste":"trash"}},"type":"Feature"},
	{"geometry":{"coordinates":[6.482905,46.370868],"type":"Point"},"properties":{"osm_id":"6945411706","tag":{"amenity":"waste_basket","waste":"trash"}},"type":"Feature"},
	{"geometry":{"coordinates":[6.482734,46.370889],"type":"Point"},"properties":{"osm_id":"6945411720","tag":{"amenity":"waste_basket","waste":"trash"}},"type":"Feature"},
	{"geometry":{"coordinates":[6.482605,46.374147],"type":"Point"},"properties":{"osm_id":"6945465074","tag":{"amenity":"waste_basket","waste":"trash"}},"type":"Feature"},
	{"geometry":{"coordinates":[6.478136,46.363215],"type":"Point"},"properties":{"osm_id":"7158310707","tag":{"amenity":"waste_basket","waste":"trash"}},"type":"Feature"},
	{"geometry":{"coordinates":[6.475108,46.369489],"type":"Point"},"properties":{"osm_id":"7593267930","tag":{"amenity":"recycling","recycling:glass_bottles":"yes","recycling_type":"container"}},"type":"Feature"},
	{"geometry":{"coordinates":[6.475026,46.369486],"type":"Point"},"properties":{"osm_id":"7593267931","tag":{"amenity":"waste_basket","waste":"dog_excrement"}},"type":"Feature"},
	{"geometry":{"coordinates":[6.474925,46.369538],"type":"Point"},"properties":{"osm_id":"7593267932","tag":{"amenity":"waste_basket","waste":"trash"}},"type":"Feature"},
	{"geometry":{"coordinates":[6.474851,46.369402],"type":"Point"},"properties":{"osm_id":"7593267933","tag":{"amenity":"waste_basket","waste":"trash"}},"type":"Feature"},
	{"geometry":{"coordinates":[6.474701,46.369356],"type":"Point"},"properties":{"osm_id":"7593267948","tag":{"amenity":"waste_basket","waste":"trash"}},"type":"Feature"},
	{"geometry":{"coordinates":[6.473232,46.368973],"type":"Point"},"properties":{"osm_id":"7593267956","tag":{"amenity":"waste_basket","waste":"trash"}},"type":"Feature"},
	{"geometry":{"coordinates":[6.473187,46.368997],"type":"Point"},"properties":{"osm_id":"7593267957","tag":{"amenity":"waste_basket","waste":"dog_excrement"}},"type":"Feature"},
	{"geometry":{"coordinates":[6.47319,46.369016],"type":"Point"},"properties":{"osm_id":"7593267963","tag":{"amenity":"recycling","recycling:glass_bottles":"yes","recycling_type":"container"}},"type":"Feature"},
	{"geometry":{"coordinates":[6.472283,46.371427],"type":"Point"},"properties":{"osm_id":"7593634241","tag":{"amenity":"waste_basket","waste":"trash"}},"type":"Feature"},
	{"geometry":{"coordinates":[6.472344,46.371471],"type":"Point"},"properties":{"osm_id":"7593634242","tag":{"amenity":"waste_basket","waste":"dog_excrement"}},"type":"Feature"},
	{"geometry":{"coordinates":[6.473377,46.368579],"type":"Point"},"properties":{"osm_id":"7593643593","tag":{"amenity":"waste_basket","waste":"trash"}},"type":"Feature"},
	{"geometry":{"coordinates":[6.462709,46.363785],"type":"Point"},"properties":{"osm_id":"7598846102","tag":{"amenity":"waste_basket","waste":"trash"}},"type":"Feature"},
	{"geometry":{"coordinates":[6.434201,46.341138],"type":"Point"},"properties":{"osm_id":"7655518532","tag":{"amenity":"waste_basket"}},"type":"Feature"},
	{"geometry":{"coordinates":[6.421127,46.355572],"type":"Point"},"properties":{"osm_id":"7714508241","tag":{"amenity":"waste_basket"}},"type":"Feature"},
	{"geometry":{"coordinates":[6.481632,46.372493],"type":"Point"},"properties":{"osm_id":"7764641060","tag":{"amenity":"recycling","opening_hours":"24/7","recycling:glass_bottles":"yes","recycling_type":"centre","wheelchair":"yes"}},"type":"Feature"}
]
}
