{
"type": "FeatureCollection",
"features": [
	{"geometry":{"coordinates":[6.473554,45.214388],"type":"Point"},"properties":{"osm_id":"6618884017","tag":{"amenity":"recycling","recycling:cans":"yes","recycling:glass_bottles":"yes","recycling:paper":"yes","recycling:plastic":"no","recycling:plastic_packaging":"yes","recycling_type":"container"}},"type":"Feature"},
	{"geometry":{"coordinates":[6.419752,45.254821],"type":"Point"},"properties":{"osm_id":"6856026448","tag":{"amenity":"recycling","recycling_type":"container"}},"type":"Feature"},
	{"geometry":{"coordinates":[6.473341,45.214464],"type":"Point"},"properties":{"osm_id":"7674866797","tag":{"amenity":"waste_basket"}},"type":"Feature"},
	{"geometry":{"coordinates":[6.471018,45.213272],"type":"Point"},"properties":{"osm_id":"7792643395","tag":{"amenity":"waste_basket"}},"type":"Feature"},
	{"geometry":{"coordinates":[6.457923,45.217054],"type":"Point"},"properties":{"osm_id":"7797386112","tag":{"amenity":"waste_basket"}},"type":"Feature"},
	{"geometry":{"coordinates":[6.457673,45.217193],"type":"Point"},"properties":{"osm_id":"7797386115","tag":{"amenity":"waste_basket"}},"type":"Feature"},
	{"geometry":{"coordinates":[6.457591,45.217422],"type":"Point"},"properties":{"osm_id":"7797386128","tag":{"amenity":"waste_basket"}},"type":"Feature"},
	{"geometry":{"coordinates":[6.458675,45.232443],"type":"Point"},"properties":{"osm_id":"7797424485","tag":{"amenity":"recycling","recycling_type":"container"}},"type":"Feature"},
	{"geometry":{"coordinates":[6.458707,45.232425],"type":"Point"},"properties":{"osm_id":"7797424486","tag":{"amenity":"recycling","recycling_type":"container"}},"type":"Feature"},
	{"geometry":{"coordinates":[6.458651,45.232458],"type":"Point"},"properties":{"osm_id":"7797424487","tag":{"amenity":"recycling","recycling_type":"container"}},"type":"Feature"},
	{"geometry":{"coordinates":[6.460146,45.238517],"type":"Point"},"properties":{"osm_id":"7797424544","tag":{"amenity":"recycling","recycling_type":"container"}},"type":"Feature"},
	{"geometry":{"coordinates":[6.460123,45.238533],"type":"Point"},"properties":{"osm_id":"7797424545","tag":{"amenity":"recycling","recycling_type":"container"}},"type":"Feature"},
	{"geometry":{"coordinates":[6.460122,45.238505],"type":"Point"},"properties":{"osm_id":"7797424546","tag":{"amenity":"recycling","recycling_type":"container"}},"type":"Feature"},
	{"geometry":{"coordinates":[6.458116,45.242431],"type":"Point"},"properties":{"osm_id":"7797424590","tag":{"amenity":"recycling","recycling_type":"container"}},"type":"Feature"},
	{"geometry":{"coordinates":[6.475278,45.214756],"type":"Point"},"properties":{"osm_id":"7842762342","tag":{"amenity":"recycling","recycling_type":"container"}},"type":"Feature"},
	{"geometry":{"coordinates":[6.471317,45.217631],"type":"Point"},"properties":{"osm_id":"7842762354","tag":{"amenity":"recycling","recycling_type":"container"}},"type":"Feature"},
	{"geometry":{"coordinates":[6.476675,45.213739],"type":"Point"},"properties":{"osm_id":"7842762357","tag":{"amenity":"recycling","recycling_type":"container"}},"type":"Feature"}
]
}
