{
"type": "FeatureCollection",
"features": [
	{"geometry":{"coordinates":[6.464553,43.53488],"type":"Point"},"properties":{"osm_id":"2694657672","tag":{"amenity":"waste_basket"}},"type":"Feature"},
	{"geometry":{"coordinates":[6.462562,43.535286],"type":"Point"},"properties":{"osm_id":"2749861800","tag":{"amenity":"waste_basket"}},"type":"Feature"},
	{"geometry":{"coordinates":[6.462938,43.534986],"type":"Point"},"properties":{"osm_id":"2749861801","tag":{"amenity":"waste_basket"}},"type":"Feature"},
	{"geometry":{"coordinates":[6.46264,43.53495],"type":"Point"},"properties":{"osm_id":"2749861803","tag":{"amenity":"waste_basket"}},"type":"Feature"},
	{"geometry":{"coordinates":[6.456737,43.531992],"type":"Point"},"properties":{"osm_id":"2757351665","tag":{"amenity":"waste_basket"}},"type":"Feature"},
	{"geometry":{"coordinates":[6.463132,43.535336],"type":"Point"},"properties":{"osm_id":"2773468306","tag":{"amenity":"waste_basket"}},"type":"Feature"},
	{"geometry":{"coordinates":[6.47167,43.532955],"type":"Point"},"properties":{"osm_id":"3186772736","tag":{"amenity":"waste_basket"}},"type":"Feature"},
	{"geometry":{"coordinates":[6.471696,43.532913],"type":"Point"},"properties":{"name":"Conteneur Recyclage","osm_id":"3348018931","tag":{"addr:city":"Draguignan","addr:street":"Avenue du 8 Mai 1945","amenity":"recycling","recycling:cans":"yes","recycling:clothes":"no","recycling:glass":"yes","recycling:paper":"yes"}},"type":"Feature"},
	{"geometry":{"coordinates":[6.472962,43.53197],"type":"Point"},"properties":{"osm_id":"3348018961","tag":{"amenity":"waste_basket"}},"type":"Feature"},
	{"geometry":{"coordinates":[6.472507,43.532215],"type":"Point"},"properties":{"osm_id":"3348018965","tag":{"amenity":"waste_basket"}},"type":"Feature"},
	{"geometry":{"coordinates":[6.47314,43.531864],"type":"Point"},"properties":{"osm_id":"3348018971","tag":{"amenity":"waste_basket"}},"type":"Feature"},
	{"geometry":{"coordinates":[6.473102,43.53231],"type":"Point"},"properties":{"osm_id":"3348018984","tag":{"amenity":"waste_basket"}},"type":"Feature"},
	{"geometry":{"coordinates":[6.473466,43.532237],"type":"Point"},"properties":{"osm_id":"3348018986","tag":{"amenity":"waste_basket"}},"type":"Feature"},
	{"geometry":{"coordinates":[6.460609,43.536495],"type":"Point"},"properties":{"osm_id":"4078235520","tag":{"amenity":"waste_basket"}},"type":"Feature"},
	{"geometry":{"coordinates":[6.461557,43.537654],"type":"Point"},"properties":{"osm_id":"4078265772","tag":{"amenity":"waste_basket"}},"type":"Feature"},
	{"geometry":{"coordinates":[6.461594,43.537592],"type":"Point"},"properties":{"osm_id":"4078265809","tag":{"amenity":"waste_basket"}},"type":"Feature"},
	{"geometry":{"coordinates":[6.459223,43.538006],"type":"Point"},"properties":{"osm_id":"4936606989","tag":{"amenity":"waste_basket"}},"type":"Feature"},
	{"geometry":{"coordinates":[6.459458,43.538221],"type":"Point"},"properties":{"osm_id":"4936606993","tag":{"amenity":"waste_basket"}},"type":"Feature"},
	{"geometry":{"coordinates":[6.460617,43.538922],"type":"Point"},"properties":{"osm_id":"4938741903","tag":{"amenity":"waste_basket"}},"type":"Feature"},
	{"geometry":{"coordinates":[6.460502,43.538498],"type":"Point"},"properties":{"osm_id":"4938741904","tag":{"amenity":"waste_basket"}},"type":"Feature"},
	{"geometry":{"coordinates":[6.460059,43.538081],"type":"Point"},"properties":{"osm_id":"4938744228","tag":{"amenity":"waste_basket"}},"type":"Feature"},
	{"geometry":{"coordinates":[6.460032,43.538321],"type":"Point"},"properties":{"osm_id":"4938744232","tag":{"amenity":"waste_basket"}},"type":"Feature"},
	{"geometry":{"coordinates":[6.459831,43.537942],"type":"Point"},"properties":{"osm_id":"4938744234","tag":{"amenity":"waste_basket"}},"type":"Feature"},
	{"geometry":{"coordinates":[6.459717,43.537881],"type":"Point"},"properties":{"osm_id":"4938744235","tag":{"amenity":"waste_basket"}},"type":"Feature"},
	{"geometry":{"coordinates":[6.459161,43.538321],"type":"Point"},"properties":{"osm_id":"4938744264","tag":{"amenity":"waste_basket"}},"type":"Feature"},
	{"geometry":{"coordinates":[6.459815,43.53907],"type":"Point"},"properties":{"osm_id":"4940012974","tag":{"amenity":"waste_basket"}},"type":"Feature"},
	{"geometry":{"coordinates":[6.459602,43.538447],"type":"Point"},"properties":{"osm_id":"4940012981","tag":{"amenity":"waste_basket"}},"type":"Feature"},
	{"geometry":{"coordinates":[6.452121,43.527238],"type":"Point"},"properties":{"barrier":"gate","osm_id":"6942702826"},"type":"Feature"},
	{"geometry":{"coordinates":[6.464975,43.537515],"type":"Point"},"properties":{"osm_id":"6954306600","tag":{"amenity":"recycling","recycling_type":"container"}},"type":"Feature"},
	{"geometry":{"coordinates":[6.472474,43.531889],"type":"Point"},"properties":{"osm_id":"7346587283","tag":{"amenity":"recycling","recycling:glass":"yes","recycling_type":"container"}},"type":"Feature"},
	{"geometry":{"coordinates":[6.464903,43.536049],"type":"Point"},"properties":{"osm_id":"7363304329","tag":{"amenity":"waste_basket"}},"type":"Feature"},
	{"geometry":{"coordinates":[6.46497,43.53613],"type":"Point"},"properties":{"osm_id":"7363337816","tag":{"amenity":"waste_basket"}},"type":"Feature"},
	{"geometry":{"coordinates":[6.464542,43.536367],"type":"Point"},"properties":{"osm_id":"7363337821","tag":{"amenity":"waste_basket"}},"type":"Feature"},
	{"geometry":{"coordinates":[6.464149,43.536604],"type":"Point"},"properties":{"osm_id":"7366404701","tag":{"amenity":"waste_basket"}},"type":"Feature"},
	{"geometry":{"coordinates":[6.462802,43.537307],"type":"Point"},"properties":{"osm_id":"7366405792","tag":{"amenity":"waste_basket"}},"type":"Feature"},
	{"geometry":{"coordinates":[6.462791,43.537232],"type":"Point"},"properties":{"osm_id":"7366405795","tag":{"amenity":"waste_basket"}},"type":"Feature"},
	{"geometry":{"coordinates":[6.463529,43.53694],"type":"Point"},"properties":{"osm_id":"7366405807","tag":{"amenity":"waste_basket"}},"type":"Feature"},
	{"geometry":{"coordinates":[6.463458,43.536881],"type":"Point"},"properties":{"osm_id":"7366405808","tag":{"amenity":"waste_basket"}},"type":"Feature"},
	{"geometry":{"coordinates":[6.464355,43.536574],"type":"Point"},"properties":{"osm_id":"7366589281","tag":{"amenity":"recycling","recycling:cartons":"yes","recycling:glass":"yes","recycling:plastic":"yes","recycling:waste":"yes","recycling_type":"container"}},"type":"Feature"}
]
}
