{
"type": "FeatureCollection",
"features": [
	{"geometry":{"coordinates":[4.125863,50.423673],"type":"Point"},"properties":{"name":"Ecoparc de Binche","osm_id":"1534513599","tag":{"addr:city":"Binche","addr:postcode":"7130","addr:street":"Avenue L\u00c3\u00a9opold III","amenity":"recycling","operator":"Hygea","recycling_type":"centre"}},"type":"Feature"},
	{"geometry":{"coordinates":[4.068891,50.432324],"type":"Point"},"properties":{"osm_id":"2615175869","tag":{"amenity":"recycling","recycling:cans":"no","recycling:glass_bottles":"yes","recycling:paper":"no"}},"type":"Feature"},
	{"geometry":{"coordinates":[4.043323,50.432902],"type":"Point"},"properties":{"osm_id":"3043685730","tag":{"amenity":"recycling","recycling:cans":"no","recycling:clothes":"no","recycling:glass_bottles":"yes","recycling:paper":"no","recycling_type":"container"}},"type":"Feature"},
	{"geometry":{"coordinates":[4.103697,50.404732],"type":"Point"},"properties":{"osm_id":"4975955026","tag":{"amenity":"recycling","recycling:glass":"yes","recycling_type":"container"}},"type":"Feature"},
	{"geometry":{"coordinates":[4.067495,50.429926],"type":"Point"},"properties":{"osm_id":"5311804666","tag":{"amenity":"waste_basket"}},"type":"Feature"},
	{"geometry":{"coordinates":[4.067614,50.430342],"type":"Point"},"properties":{"osm_id":"5311804669","tag":{"amenity":"waste_basket"}},"type":"Feature"},
	{"geometry":{"coordinates":[4.066454,50.430021],"type":"Point"},"properties":{"osm_id":"5311804670","tag":{"amenity":"waste_basket"}},"type":"Feature"},
	{"geometry":{"coordinates":[4.066539,50.430375],"type":"Point"},"properties":{"osm_id":"5311804671","tag":{"amenity":"waste_basket"}},"type":"Feature"},
	{"geometry":{"coordinates":[4.067422,50.429713],"type":"Point"},"properties":{"osm_id":"5311804673","tag":{"amenity":"recycling","location":"underground","recycling:glass_bottles":"yes","recycling_type":"container"}},"type":"Feature"}
]
}
