{
"type": "FeatureCollection",
"features": [
	{"geometry":{"coordinates":[4.053723,49.253451],"type":"Point"},"properties":{"osm_id":"863838665","tag":{"amenity":"recycling"}},"type":"Feature"},
	{"geometry":{"coordinates":[4.062117,49.250275],"type":"Point"},"properties":{"osm_id":"2413746418","tag":{"amenity":"waste_basket"}},"type":"Feature"},
	{"geometry":{"coordinates":[4.043604,49.2519],"type":"Point"},"properties":{"osm_id":"2462108213","tag":{"amenity":"recycling","recycling:glass_bottles":"yes","recycling_type":"container"}},"type":"Feature"},
	{"geometry":{"coordinates":[4.050452,49.235143],"type":"Point"},"properties":{"osm_id":"3029062730","tag":{"amenity":"waste_basket"}},"type":"Feature"},
	{"geometry":{"coordinates":[4.049395,49.235551],"type":"Point"},"properties":{"osm_id":"3029063142","tag":{"amenity":"waste_basket"}},"type":"Feature"},
	{"geometry":{"coordinates":[4.049363,49.235568],"type":"Point"},"properties":{"osm_id":"3029063143","tag":{"amenity":"recycling","recycling:clothes":"yes","recycling:glass":"yes","recycling_type":"container"}},"type":"Feature"},
	{"geometry":{"coordinates":[4.051688,49.235581],"type":"Point"},"properties":{"osm_id":"3031513320","tag":{"amenity":"waste_basket"}},"type":"Feature"},
	{"geometry":{"coordinates":[4.047486,49.235816],"type":"Point"},"properties":{"osm_id":"3031517935","tag":{"amenity":"waste_basket"}},"type":"Feature"},
	{"geometry":{"coordinates":[4.051629,49.240781],"type":"Point"},"properties":{"osm_id":"3033454480","tag":{"amenity":"recycling","location":"overground","recycling:clothes":"yes","recycling_type":"container"}},"type":"Feature"},
	{"geometry":{"coordinates":[4.051649,49.240781],"type":"Point"},"properties":{"osm_id":"3033454481","tag":{"amenity":"recycling","location":"overground","recycling:glass":"yes","recycling_type":"container"}},"type":"Feature"},
	{"geometry":{"coordinates":[4.051683,49.240781],"type":"Point"},"properties":{"osm_id":"3033454482","tag":{"amenity":"waste_basket"}},"type":"Feature"},
	{"geometry":{"coordinates":[4.061381,49.254201],"type":"Point"},"properties":{"osm_id":"3033454501","tag":{"amenity":"recycling","operator":"Le Relais","recycling:clothes":"yes","recycling_type":"container"}},"type":"Feature"},
	{"geometry":{"coordinates":[4.060678,49.255472],"type":"Point"},"properties":{"osm_id":"3033454505","tag":{"amenity":"waste_basket"}},"type":"Feature"},
	{"geometry":{"coordinates":[4.07125,49.258193],"type":"Point"},"properties":{"osm_id":"3033454519","tag":{"amenity":"waste_basket"}},"type":"Feature"},
	{"geometry":{"coordinates":[4.071285,49.258197],"type":"Point"},"properties":{"osm_id":"3033454520","tag":{"amenity":"recycling","operator":"Le Relais","recycling:clothes":"yes","recycling_type":"container"}},"type":"Feature"},
	{"geometry":{"coordinates":[4.071318,49.2582],"type":"Point"},"properties":{"osm_id":"3033454521","tag":{"amenity":"recycling","recycling:glass":"yes","recycling_type":"container"}},"type":"Feature"},
	{"geometry":{"coordinates":[4.105481,49.262842],"type":"Point"},"properties":{"osm_id":"3033545591","tag":{"amenity":"waste_basket"}},"type":"Feature"},
	{"geometry":{"coordinates":[4.098414,49.227022],"type":"Point"},"properties":{"osm_id":"4698479266","tag":{"amenity":"recycling","recycling:glass_bottles":"yes","recycling_type":"container"}},"type":"Feature"},
	{"geometry":{"coordinates":[4.044431,49.241653],"type":"Point"},"properties":{"osm_id":"6596408242","tag":{"amenity":"recycling","recycling:glass_bottles":"yes","recycling_type":"container"}},"type":"Feature"},
	{"geometry":{"coordinates":[4.044551,49.24166],"type":"Point"},"properties":{"osm_id":"6596408243","tag":{"amenity":"waste_basket"}},"type":"Feature"},
	{"geometry":{"coordinates":[4.044473,49.241626],"type":"Point"},"properties":{"osm_id":"6596408244","tag":{"amenity":"waste_basket"}},"type":"Feature"},
	{"geometry":{"coordinates":[4.094189,49.214381],"type":"Point"},"properties":{"osm_id":"6648383436","tag":{"amenity":"recycling","material":"plastic","recycling:clothes":"yes","recycling:glass":"yes","recycling:glass_bottles":"yes","recycling:shoes":"yes","recycling_type":"container"}},"type":"Feature"},
	{"geometry":{"coordinates":[4.094689,49.211404],"type":"Point"},"properties":{"osm_id":"6648428695","tag":{"amenity":"recycling","recycling:glass":"yes","recycling:glass_bottles":"yes","recycling_type":"container"}},"type":"Feature"},
	{"geometry":{"coordinates":[4.057354,49.243696],"type":"Point"},"properties":{"osm_id":"6943387545","tag":{"amenity":"recycling","recycling_type":"container"}},"type":"Feature"},
	{"geometry":{"coordinates":[4.057382,49.243684],"type":"Point"},"properties":{"osm_id":"6943387546","tag":{"amenity":"recycling","recycling_type":"container"}},"type":"Feature"},
	{"geometry":{"coordinates":[4.05741,49.243673],"type":"Point"},"properties":{"osm_id":"6943387547","tag":{"amenity":"recycling","recycling_type":"container"}},"type":"Feature"},
	{"geometry":{"coordinates":[4.044725,49.265428],"type":"Point"},"properties":{"name":"recyclage verre et v\u00c3\u00aatements","osm_id":"6984318232","tag":{"amenity":"recycling","recycling:glass_bottles":"yes"}},"type":"Feature"},
	{"geometry":{"coordinates":[4.046956,49.26042],"type":"Point"},"properties":{"name":"Verre et v\u00c3\u00aatements","osm_id":"6984339185","tag":{"amenity":"recycling"}},"type":"Feature"},
	{"geometry":{"coordinates":[4.045252,49.233983],"type":"Point"},"properties":{"name":"verre et textile","osm_id":"6984932286","tag":{"amenity":"recycling"}},"type":"Feature"},
	{"geometry":{"coordinates":[4.046399,49.246193],"type":"Point"},"properties":{"osm_id":"7012402060","tag":{"amenity":"recycling","recycling:clothes":"yes","recycling_type":"container"}},"type":"Feature"},
	{"geometry":{"coordinates":[4.043703,49.248626],"type":"Point"},"properties":{"osm_id":"7012404242","tag":{"amenity":"recycling","recycling:clothes":"yes","recycling_type":"container"}},"type":"Feature"},
	{"geometry":{"coordinates":[4.056266,49.254787],"type":"Point"},"properties":{"osm_id":"7131737604","tag":{"amenity":"waste_disposal","location":"underground","operator":"Grand Reims"}},"type":"Feature"},
	{"geometry":{"coordinates":[4.056298,49.25478],"type":"Point"},"properties":{"osm_id":"7131737605","tag":{"amenity":"waste_disposal","location":"underground","operator":"Grand Reims"}},"type":"Feature"},
	{"geometry":{"coordinates":[4.056288,49.254762],"type":"Point"},"properties":{"osm_id":"7131737606","tag":{"amenity":"waste_disposal","location":"underground","operator":"Grand Reims"}},"type":"Feature"},
	{"geometry":{"coordinates":[4.050347,49.214446],"type":"Point"},"properties":{"osm_id":"7161999000","tag":{"amenity":"waste_basket"}},"type":"Feature"},
	{"geometry":{"coordinates":[4.059325,49.21716],"type":"Point"},"properties":{"osm_id":"7238335785","tag":{"amenity":"recycling","recycling:glass_bottles":"yes","recycling_type":"container"}},"type":"Feature"},
	{"geometry":{"coordinates":[4.046795,49.217444],"type":"Point"},"properties":{"name":"EC 74571","osm_id":"7240766062","tag":{"amenity":"recycling","recycling:clothes":"yes","recycling_type":"container"}},"type":"Feature"},
	{"geometry":{"coordinates":[4.04482,49.215861],"type":"Point"},"properties":{"osm_id":"7240809277","tag":{"amenity":"recycling","recycling:glass_bottles":"yes","recycling_type":"container"}},"type":"Feature"},
	{"geometry":{"coordinates":[4.059399,49.255358],"type":"Point"},"properties":{"osm_id":"7248577446","tag":{"amenity":"recycling","recycling:clothes":"yes","recycling_type":"container"}},"type":"Feature"},
	{"geometry":{"coordinates":[4.058973,49.254471],"type":"Point"},"properties":{"osm_id":"7248577453","tag":{"amenity":"recycling","recycling:glass_bottles":"yes","recycling_type":"container"}},"type":"Feature"},
	{"geometry":{"coordinates":[4.054731,49.235177],"type":"Point"},"properties":{"osm_id":"7262933412","tag":{"amenity":"recycling","recycling:glass_bottles":"yes","recycling_type":"container"}},"type":"Feature"},
	{"geometry":{"coordinates":[4.054766,49.235168],"type":"Point"},"properties":{"osm_id":"7262933413","tag":{"amenity":"recycling","recycling:clothes":"yes","recycling_type":"container"}},"type":"Feature"},
	{"geometry":{"coordinates":[4.049061,49.233348],"type":"Point"},"properties":{"osm_id":"7263141516","tag":{"amenity":"recycling","recycling:glass_bottles":"yes","recycling_type":"container"}},"type":"Feature"},
	{"geometry":{"coordinates":[4.088008,49.226514],"type":"Point"},"properties":{"osm_id":"7264017652","tag":{"amenity":"recycling","recycling:glass_bottles":"yes","recycling_type":"container"}},"type":"Feature"},
	{"geometry":{"coordinates":[4.06261,49.260071],"type":"Point"},"properties":{"osm_id":"7265907000","tag":{"amenity":"recycling","recycling:glass_bottles":"yes","recycling_type":"container"}},"type":"Feature"},
	{"geometry":{"coordinates":[4.063999,49.259827],"type":"Point"},"properties":{"osm_id":"7265907002","tag":{"amenity":"recycling","recycling:glass_bottles":"yes","recycling_type":"container"}},"type":"Feature"},
	{"geometry":{"coordinates":[4.064042,49.259834],"type":"Point"},"properties":{"osm_id":"7265907003","tag":{"amenity":"recycling","recycling:glass_bottles":"yes","recycling_type":"container"}},"type":"Feature"},
	{"geometry":{"coordinates":[4.064026,49.259789],"type":"Point"},"properties":{"osm_id":"7265907004","tag":{"amenity":"recycling","recycling:clothes":"yes","recycling_type":"container"}},"type":"Feature"},
	{"geometry":{"coordinates":[4.052495,49.250371],"type":"Point"},"properties":{"osm_id":"7272242927","tag":{"amenity":"recycling","recycling:clothes":"yes","recycling_type":"container"}},"type":"Feature"},
	{"geometry":{"coordinates":[4.050605,49.250803],"type":"Point"},"properties":{"osm_id":"7272256818","tag":{"amenity":"recycling","recycling:glass_bottles":"yes","recycling_type":"container"}},"type":"Feature"},
	{"geometry":{"coordinates":[4.046836,49.251588],"type":"Point"},"properties":{"osm_id":"7272310297","tag":{"amenity":"recycling","recycling:clothes":"yes","recycling_type":"container"}},"type":"Feature"},
	{"geometry":{"coordinates":[4.046872,49.251581],"type":"Point"},"properties":{"osm_id":"7272310298","tag":{"amenity":"recycling","recycling:glass_bottles":"yes","recycling_type":"container"}},"type":"Feature"},
	{"geometry":{"coordinates":[4.046903,49.251578],"type":"Point"},"properties":{"osm_id":"7272310299","tag":{"amenity":"recycling","recycling:glass_bottles":"yes","recycling_type":"container"}},"type":"Feature"},
	{"geometry":{"coordinates":[4.05854,49.242927],"type":"Point"},"properties":{"osm_id":"7272474329","tag":{"amenity":"recycling","recycling:clothes":"yes","recycling_type":"container"}},"type":"Feature"},
	{"geometry":{"coordinates":[4.045443,49.247291],"type":"Point"},"properties":{"osm_id":"7296797149","tag":{"amenity":"recycling","recycling:glass_bottles":"yes","recycling_type":"container"}},"type":"Feature"},
	{"geometry":{"coordinates":[4.047272,49.243284],"type":"Point"},"properties":{"osm_id":"7299724687","tag":{"amenity":"recycling","recycling:glass_bottles":"yes","recycling_type":"container"}},"type":"Feature"},
	{"geometry":{"coordinates":[4.04773,49.244047],"type":"Point"},"properties":{"osm_id":"7299724716","tag":{"amenity":"recycling","recycling:glass_bottles":"yes","recycling_type":"container"}},"type":"Feature"},
	{"geometry":{"coordinates":[4.053861,49.247268],"type":"Point"},"properties":{"osm_id":"7314760791","tag":{"amenity":"recycling","recycling:glass_bottles":"yes","recycling_type":"container"}},"type":"Feature"},
	{"geometry":{"coordinates":[4.046978,49.255917],"type":"Point"},"properties":{"osm_id":"7315515226","tag":{"amenity":"recycling","recycling:clothes":"yes","recycling_type":"container"}},"type":"Feature"},
	{"geometry":{"coordinates":[4.046964,49.255883],"type":"Point"},"properties":{"osm_id":"7315515227","tag":{"amenity":"recycling","recycling:glass_bottles":"yes","recycling_type":"container"}},"type":"Feature"},
	{"geometry":{"coordinates":[4.04892,49.256594],"type":"Point"},"properties":{"osm_id":"7316055995","tag":{"amenity":"recycling","recycling:glass_bottles":"yes","recycling_type":"container"}},"type":"Feature"},
	{"geometry":{"coordinates":[4.062046,49.24161],"type":"Point"},"properties":{"osm_id":"7323746786","tag":{"amenity":"recycling","recycling:glass_bottles":"yes","recycling_type":"container"}},"type":"Feature"},
	{"geometry":{"coordinates":[4.063642,49.252108],"type":"Point"},"properties":{"osm_id":"7325585492","tag":{"amenity":"recycling","recycling:glass_bottles":"yes","recycling_type":"container"}},"type":"Feature"},
	{"geometry":{"coordinates":[4.05673,49.261759],"type":"Point"},"properties":{"osm_id":"7362981389","tag":{"amenity":"recycling","recycling:glass_bottles":"yes","recycling_type":"container"}},"type":"Feature"},
	{"geometry":{"coordinates":[4.056696,49.261741],"type":"Point"},"properties":{"osm_id":"7362981390","tag":{"amenity":"recycling","recycling:clothes":"yes","recycling_type":"container"}},"type":"Feature"},
	{"geometry":{"coordinates":[4.058496,49.260171],"type":"Point"},"properties":{"osm_id":"7363353197","tag":{"amenity":"recycling","recycling:glass_bottles":"yes","recycling_type":"container"}},"type":"Feature"},
	{"geometry":{"coordinates":[4.05743,49.264111],"type":"Point"},"properties":{"osm_id":"7363790680","tag":{"amenity":"recycling","recycling:clothes":"yes","recycling_type":"container"}},"type":"Feature"},
	{"geometry":{"coordinates":[4.068503,49.246435],"type":"Point"},"properties":{"osm_id":"7384698091","tag":{"amenity":"recycling","recycling:clothes":"yes","recycling_type":"container"}},"type":"Feature"},
	{"geometry":{"coordinates":[4.086989,49.230679],"type":"Point"},"properties":{"osm_id":"7402027607","tag":{"amenity":"recycling","recycling:glass_bottles":"yes","recycling_type":"container"}},"type":"Feature"},
	{"geometry":{"coordinates":[4.087038,49.230663],"type":"Point"},"properties":{"osm_id":"7402027608","tag":{"amenity":"recycling","recycling:clothes":"yes","recycling_type":"container"}},"type":"Feature"},
	{"geometry":{"coordinates":[4.043265,49.260979],"type":"Point"},"properties":{"osm_id":"7405932523","tag":{"amenity":"recycling","recycling:glass_bottles":"yes","recycling_type":"container"}},"type":"Feature"},
	{"geometry":{"coordinates":[4.043069,49.260918],"type":"Point"},"properties":{"osm_id":"7405932524","tag":{"amenity":"recycling","recycling:clothes":"yes","recycling_type":"container"}},"type":"Feature"},
	{"geometry":{"coordinates":[4.048705,49.263894],"type":"Point"},"properties":{"osm_id":"7407675716","tag":{"amenity":"recycling","recycling:clothes":"yes","recycling_type":"container"}},"type":"Feature"},
	{"geometry":{"coordinates":[4.048805,49.264081],"type":"Point"},"properties":{"osm_id":"7407675717","tag":{"amenity":"recycling","recycling_type":"container"}},"type":"Feature"},
	{"geometry":{"coordinates":[4.051321,49.264287],"type":"Point"},"properties":{"osm_id":"7409858951","tag":{"amenity":"recycling","recycling:glass_bottles":"yes","recycling_type":"container"}},"type":"Feature"},
	{"geometry":{"coordinates":[4.049488,49.26671],"type":"Point"},"properties":{"osm_id":"7416614518","tag":{"amenity":"recycling","recycling:glass_bottles":"yes","recycling_type":"container"}},"type":"Feature"},
	{"geometry":{"coordinates":[4.05088,49.266321],"type":"Point"},"properties":{"osm_id":"7416750486","tag":{"amenity":"recycling","recycling:glass_bottles":"yes","recycling_type":"container"}},"type":"Feature"},
	{"geometry":{"coordinates":[4.056146,49.259009],"type":"Point"},"properties":{"osm_id":"7442099886","tag":{"amenity":"recycling","recycling:glass_bottles":"yes","recycling_type":"container"}},"type":"Feature"},
	{"geometry":{"coordinates":[4.044708,49.265402],"type":"Point"},"properties":{"name":"recyclage verre et v\u00c3\u00aatements","osm_id":"7453233390","tag":{"amenity":"recycling","recycling:clothes":"yes"}},"type":"Feature"},
	{"geometry":{"coordinates":[4.045213,49.228035],"type":"Point"},"properties":{"osm_id":"7479900778","tag":{"amenity":"recycling","recycling:glass_bottles":"yes","recycling_type":"container"}},"type":"Feature"},
	{"geometry":{"coordinates":[4.043606,49.235765],"type":"Point"},"properties":{"osm_id":"7806777738","tag":{"amenity":"waste_basket"}},"type":"Feature"},
	{"geometry":{"coordinates":[4.053119,49.235508],"type":"Point"},"properties":{"osm_id":"7815996089","tag":{"amenity":"waste_basket"}},"type":"Feature"},
	{"geometry":{"coordinates":[4.050151,49.212011],"type":"Point"},"properties":{"osm_id":"7858930605","tag":{"amenity":"recycling","recycling:glass_bottles":"yes","recycling_type":"container"}},"type":"Feature"},
	{"geometry":{"coordinates":[4.053325,49.260025],"type":"Point"},"properties":{"osm_id":"7894721950","tag":{"amenity":"recycling","recycling:glass_bottles":"yes","recycling_type":"underfloor-container"}},"type":"Feature"},
	{"geometry":{"coordinates":[4.05336,49.260014],"type":"Point"},"properties":{"osm_id":"7894721951","tag":{"amenity":"recycling","recycling:glass_bottles":"yes","recycling_type":"underfloor-container"}},"type":"Feature"}
]
}
