{
"type": "FeatureCollection",
"features": [
	{"geometry":{"coordinates":[4.098925,44.073849],"type":"Point"},"properties":{"osm_id":"289486614","tag":{"amenity":"recycling"}},"type":"Feature"},
	{"geometry":{"coordinates":[4.075661,44.084608],"type":"Point"},"properties":{"osm_id":"294140959","tag":{"amenity":"recycling","recycling:glass":"yes"}},"type":"Feature"},
	{"geometry":{"coordinates":[4.088317,44.060619],"type":"Point"},"properties":{"osm_id":"294140962","tag":{"amenity":"recycling","recycling:glass":"yes"}},"type":"Feature"},
	{"geometry":{"coordinates":[4.090476,44.067229],"type":"Point"},"properties":{"osm_id":"295322385","tag":{"amenity":"recycling","recycling:glass":"yes"}},"type":"Feature"},
	{"geometry":{"coordinates":[4.082624,44.070652],"type":"Point"},"properties":{"osm_id":"295675072","tag":{"amenity":"recycling","recycling:glass":"yes"}},"type":"Feature"},
	{"geometry":{"coordinates":[4.095882,44.072711],"type":"Point"},"properties":{"osm_id":"295675075","tag":{"amenity":"recycling","recycling:glass":"yes"}},"type":"Feature"},
	{"geometry":{"coordinates":[4.095294,44.06379],"type":"Point"},"properties":{"osm_id":"295855270","tag":{"amenity":"recycling","recycling:paper":"yes"}},"type":"Feature"},
	{"geometry":{"coordinates":[4.095413,44.063798],"type":"Point"},"properties":{"osm_id":"295855271","tag":{"amenity":"recycling","recycling:glass":"yes"}},"type":"Feature"},
	{"geometry":{"coordinates":[4.078511,44.083181],"type":"Point"},"properties":{"osm_id":"676807925","tag":{"amenity":"recycling","recycling:clothes":"yes","recycling:glass":"yes","recycling:paper":"yes"}},"type":"Feature"},
	{"geometry":{"coordinates":[4.05222,44.073654],"type":"Point"},"properties":{"osm_id":"885961840","tag":{"amenity":"recycling","recycling:glass":"yes"}},"type":"Feature"},
	{"geometry":{"coordinates":[4.096264,44.034332],"type":"Point"},"properties":{"osm_id":"2400448449","tag":{"amenity":"recycling","recycling:glass":"yes","recycling:paper":"yes","recycling_type":"container"}},"type":"Feature"},
	{"geometry":{"coordinates":[4.077845,44.041694],"type":"Point"},"properties":{"osm_id":"7337229923","tag":{"amenity":"recycling","recycling:waste":"yes","recycling_type":"container"}},"type":"Feature"},
	{"geometry":{"coordinates":[4.073879,44.027912],"type":"Point"},"properties":{"osm_id":"7779344489","tag":{"amenity":"waste_disposal","waste":"glass;recycling;trash"}},"type":"Feature"}
]
}
