{
"type": "FeatureCollection",
"features": [
	{"geometry":{"coordinates":[4.081398,43.781594],"type":"Point"},"properties":{"osm_id":"1741780665","tag":{"amenity":"recycling","recycling:clothes":"yes","recycling_type":"container"}},"type":"Feature"},
	{"geometry":{"coordinates":[4.081355,43.781705],"type":"Point"},"properties":{"osm_id":"1741780668","tag":{"amenity":"recycling","recycling:glass_bottles":"yes","recycling_type":"container"}},"type":"Feature"},
	{"geometry":{"coordinates":[4.116619,43.788277],"type":"Point"},"properties":{"osm_id":"1852795360","tag":{"amenity":"recycling","recycling:glass":"yes","recycling_type":"container"}},"type":"Feature"},
	{"geometry":{"coordinates":[4.121879,43.811598],"type":"Point"},"properties":{"osm_id":"1852795398","tag":{"amenity":"recycling","recycling:glass_bottles":"yes","recycling_type":"container"}},"type":"Feature"},
	{"geometry":{"coordinates":[4.121792,43.811623],"type":"Point"},"properties":{"osm_id":"1852795399","tag":{"amenity":"recycling","recycling:clothes":"yes","recycling_type":"container"}},"type":"Feature"},
	{"geometry":{"coordinates":[4.120281,43.771747],"type":"Point"},"properties":{"osm_id":"2390789177","tag":{"amenity":"recycling","recycling:glass":"yes","recycling_type":"container"}},"type":"Feature"},
	{"geometry":{"coordinates":[4.085802,43.782219],"type":"Point"},"properties":{"osm_id":"3502474943","tag":{"amenity":"recycling","recycling:glass_bottles":"yes","recycling:paper":"yes","recycling_type":"container"}},"type":"Feature"},
	{"geometry":{"coordinates":[4.096483,43.790167],"type":"Point"},"properties":{"osm_id":"3508934551","tag":{"amenity":"waste_basket"}},"type":"Feature"},
	{"geometry":{"coordinates":[4.099866,43.789884],"type":"Point"},"properties":{"osm_id":"3508940431","tag":{"amenity":"recycling","recycling:glass":"yes","recycling_type":"container"}},"type":"Feature"},
	{"geometry":{"coordinates":[4.087262,43.785541],"type":"Point"},"properties":{"osm_id":"3508963130","tag":{"amenity":"recycling","recycling:glass_bottles":"yes","recycling_type":"container"}},"type":"Feature"},
	{"geometry":{"coordinates":[4.080701,43.78017],"type":"Point"},"properties":{"osm_id":"3645156303","tag":{"amenity":"recycling","recycling:glass_bottles":"yes","recycling_type":"container"}},"type":"Feature"},
	{"geometry":{"coordinates":[4.089719,43.784818],"type":"Point"},"properties":{"osm_id":"3680835276","tag":{"amenity":"waste_basket"}},"type":"Feature"},
	{"geometry":{"coordinates":[4.089876,43.784537],"type":"Point"},"properties":{"osm_id":"3680893162","tag":{"amenity":"waste_basket"}},"type":"Feature"},
	{"geometry":{"coordinates":[4.090336,43.784571],"type":"Point"},"properties":{"osm_id":"3680893163","tag":{"amenity":"waste_basket"}},"type":"Feature"},
	{"geometry":{"coordinates":[4.089582,43.782611],"type":"Point"},"properties":{"osm_id":"3680900780","tag":{"amenity":"waste_basket"}},"type":"Feature"},
	{"geometry":{"coordinates":[4.090959,43.783604],"type":"Point"},"properties":{"osm_id":"3680915890","tag":{"amenity":"waste_basket"}},"type":"Feature"},
	{"geometry":{"coordinates":[4.090355,43.784323],"type":"Point"},"properties":{"osm_id":"3680915896","tag":{"amenity":"waste_basket"}},"type":"Feature"},
	{"geometry":{"coordinates":[4.086583,43.783668],"type":"Point"},"properties":{"osm_id":"3680926148","tag":{"amenity":"waste_basket"}},"type":"Feature"},
	{"geometry":{"coordinates":[4.105396,43.799618],"type":"Point"},"properties":{"osm_id":"3723656815","tag":{"amenity":"recycling","recycling:glass":"yes","recycling_type":"container"}},"type":"Feature"},
	{"geometry":{"coordinates":[4.088195,43.809345],"type":"Point"},"properties":{"osm_id":"3784351985","tag":{"amenity":"recycling","recycling:glass_bottles":"yes","recycling_type":"container"}},"type":"Feature"},
	{"geometry":{"coordinates":[4.092081,43.782236],"type":"Point"},"properties":{"osm_id":"4001225440","tag":{"amenity":"waste_basket"}},"type":"Feature"},
	{"geometry":{"coordinates":[4.098183,43.787487],"type":"Point"},"properties":{"osm_id":"4058474091","tag":{"amenity":"waste_basket"}},"type":"Feature"},
	{"geometry":{"coordinates":[4.097022,43.788176],"type":"Point"},"properties":{"osm_id":"4058474096","tag":{"amenity":"waste_basket"}},"type":"Feature"},
	{"geometry":{"coordinates":[4.083279,43.785208],"type":"Point"},"properties":{"osm_id":"4942090441","tag":{"amenity":"recycling","recycling:clothes":"yes","recycling_type":"container"}},"type":"Feature"},
	{"geometry":{"coordinates":[4.083314,43.785225],"type":"Point"},"properties":{"osm_id":"4942090442","tag":{"amenity":"recycling","recycling:glass_bottles":"yes","recycling_type":"container"}},"type":"Feature"},
	{"geometry":{"coordinates":[4.084433,43.78564],"type":"Point"},"properties":{"osm_id":"4942090446","tag":{"amenity":"waste_basket"}},"type":"Feature"},
	{"geometry":{"coordinates":[4.084251,43.785546],"type":"Point"},"properties":{"osm_id":"4942090448","tag":{"amenity":"waste_basket"}},"type":"Feature"},
	{"geometry":{"coordinates":[4.085998,43.783977],"type":"Point"},"properties":{"osm_id":"4942090450","tag":{"amenity":"waste_basket"}},"type":"Feature"},
	{"geometry":{"coordinates":[4.086977,43.78315],"type":"Point"},"properties":{"osm_id":"4942090468","tag":{"amenity":"waste_basket"}},"type":"Feature"},
	{"geometry":{"coordinates":[4.123796,43.789762],"type":"Point"},"properties":{"osm_id":"4966613797","tag":{"amenity":"waste_basket"}},"type":"Feature"},
	{"geometry":{"coordinates":[4.121235,43.788604],"type":"Point"},"properties":{"osm_id":"4966720240","tag":{"amenity":"waste_basket"}},"type":"Feature"},
	{"geometry":{"coordinates":[4.125755,43.790187],"type":"Point"},"properties":{"osm_id":"4966748789","tag":{"amenity":"recycling","recycling:paper":"yes","recycling_type":"container"}},"type":"Feature"},
	{"geometry":{"coordinates":[4.122022,43.814387],"type":"Point"},"properties":{"osm_id":"5046985396","tag":{"amenity":"waste_basket"}},"type":"Feature"},
	{"geometry":{"coordinates":[4.081369,43.781684],"type":"Point"},"properties":{"osm_id":"6335605496","tag":{"amenity":"recycling","recycling:clothes":"yes","recycling_type":"container"}},"type":"Feature"},
	{"geometry":{"coordinates":[4.069946,43.807692],"type":"Point"},"properties":{"osm_id":"6419309286","tag":{"amenity":"waste_basket"}},"type":"Feature"},
	{"geometry":{"coordinates":[4.062967,43.813185],"type":"Point"},"properties":{"osm_id":"6419309324","ref":"110","tag":{"amenity":"recycling","recycling:glass_bottles":"yes","recycling_type":"container"}},"type":"Feature"},
	{"geometry":{"coordinates":[4.062957,43.813193],"type":"Point"},"properties":{"osm_id":"6419309325","ref":"109","tag":{"amenity":"recycling","recycling:plastic":"yes","recycling:plastic_bottles":"yes","recycling:plastic_packaging":"yes","recycling_type":"container"}},"type":"Feature"},
	{"geometry":{"coordinates":[4.062947,43.813203],"type":"Point"},"properties":{"osm_id":"6419309326","tag":{"amenity":"recycling","recycling:clothes":"yes","recycling_type":"container"}},"type":"Feature"},
	{"geometry":{"coordinates":[4.068223,43.810537],"type":"Point"},"properties":{"osm_id":"6419309357","tag":{"amenity":"waste_basket"}},"type":"Feature"},
	{"geometry":{"coordinates":[4.068208,43.810719],"type":"Point"},"properties":{"osm_id":"6419309359","tag":{"amenity":"waste_basket","colour":"green","material":"metal"}},"type":"Feature"},
	{"geometry":{"coordinates":[4.06815,43.808966],"type":"Point"},"properties":{"osm_id":"6419309383","ref":"113","tag":{"amenity":"recycling","recycling:glass_bottles":"yes","recycling_type":"container"}},"type":"Feature"},
	{"geometry":{"coordinates":[4.068157,43.808956],"type":"Point"},"properties":{"osm_id":"6419309384","ref":"114","tag":{"amenity":"recycling","recycling:glass_bottles":"yes","recycling_type":"container"}},"type":"Feature"},
	{"geometry":{"coordinates":[4.068164,43.808991],"type":"Point"},"properties":{"osm_id":"6419309387","tag":{"amenity":"waste_basket"}},"type":"Feature"},
	{"geometry":{"coordinates":[4.069322,43.808355],"type":"Point"},"properties":{"osm_id":"6419309418","tag":{"amenity":"waste_basket"}},"type":"Feature"},
	{"geometry":{"coordinates":[4.069185,43.80783],"type":"Point"},"properties":{"osm_id":"6419309431","tag":{"amenity":"waste_basket","colour":"green","material":"metal"}},"type":"Feature"},
	{"geometry":{"coordinates":[4.069001,43.807771],"type":"Point"},"properties":{"osm_id":"6419309441","ref":"111","tag":{"amenity":"recycling","recycling:glass_bottles":"yes","recycling_type":"container"}},"type":"Feature"},
	{"geometry":{"coordinates":[4.06902,43.807775],"type":"Point"},"properties":{"osm_id":"6419309442","ref":"112","tag":{"amenity":"recycling","recycling:glass_bottles":"yes","recycling_type":"container"}},"type":"Feature"},
	{"geometry":{"coordinates":[4.044086,43.807755],"type":"Point"},"properties":{"osm_id":"6419556988","tag":{"amenity":"recycling","recycling:cardboard":"yes","recycling:glass_bottles":"yes","recycling:paper":"yes","recycling:plastic":"yes","recycling:plastic_bottles":"yes","recycling:plastic_packaging":"yes","recycling_type":"container"}},"type":"Feature"},
	{"geometry":{"coordinates":[4.060471,43.777118],"type":"Point"},"properties":{"osm_id":"6592141418","ref":"45","tag":{"couplings":"3","couplings:diameters":"65 mm;65 mm;100 mm","emergency":"fire_hydrant","fire_hydrant:diameter":"100","fire_hydrant:type":"pillar","operator":"RUAS","ref:SDIS30":"1787","status":"private"}},"type":"Feature"},
	{"geometry":{"coordinates":[4.090723,43.784591],"type":"Point"},"properties":{"osm_id":"6634018814","tag":{"amenity":"recycling","recycling:glass_bottles":"yes","recycling_type":"container"}},"type":"Feature"},
	{"geometry":{"coordinates":[4.090748,43.784592],"type":"Point"},"properties":{"osm_id":"6634018815","tag":{"amenity":"recycling","recycling:paper":"yes","recycling_type":"container"}},"type":"Feature"}
]
}
