{
"type": "FeatureCollection",
"features": [
	{"geometry":{"coordinates":[4.056882,36.713913],"type":"Point"},"properties":{"osm_id":"6796009928","tag":{"amenity":"waste_basket"}},"type":"Feature"},
	{"geometry":{"coordinates":[4.057177,36.713358],"type":"Point"},"properties":{"osm_id":"6796009929","tag":{"amenity":"waste_basket"}},"type":"Feature"},
	{"geometry":{"coordinates":[4.054987,36.716906],"type":"Point"},"properties":{"osm_id":"7515611812","tag":{"access":"permissive","amenity":"waste_disposal","collection_times":"18:00","operator":"Commune de tizi ouzou"}},"type":"Feature"},
	{"geometry":{"coordinates":[4.054149,36.715614],"type":"Point"},"properties":{"osm_id":"7515611813","tag":{"access":"permissive","amenity":"waste_disposal","collection_times":"18:00","operator":"commune de tizi ouzou"}},"type":"Feature"},
	{"geometry":{"coordinates":[4.052475,36.716093],"type":"Point"},"properties":{"osm_id":"7517691301","tag":{"access":"permissive","amenity":"waste_disposal","collection_times":"18:00","operator":"commune de tizi ouzou"}},"type":"Feature"},
	{"geometry":{"coordinates":[4.049391,36.713483],"type":"Point"},"properties":{"osm_id":"7517691302","tag":{"access":"permissive","amenity":"waste_disposal","collection_times":"18:00","operator":"commune de tizi ouzou"}},"type":"Feature"},
	{"geometry":{"coordinates":[4.055685,36.716388],"type":"Point"},"properties":{"osm_id":"7522877890","tag":{"access":"permissive","amenity":"waste_disposal","collection_times":"18:00","operator":"commune de tizi ouzou","waste":"mixed"}},"type":"Feature"},
	{"geometry":{"coordinates":[4.055566,36.720302],"type":"Point"},"properties":{"name":"poubelle","osm_id":"7548099070","tag":{"access":"permissive","amenity":"waste_disposal","collection_times":"18:00","operator":"commune de tizi ouzou","waste":"mixed"}},"type":"Feature"},
	{"geometry":{"coordinates":[4.056799,36.715653],"type":"Point"},"properties":{"name":"quatre bac \u00c3\u00a0 D\u00c3\u00a9chets","osm_id":"7560848066","tag":{"access":"permissive","amenity":"waste_disposal","collection_times":"18:00","operator":"netcom tizi ouzou","waste":"mixed"}},"type":"Feature"},
	{"geometry":{"coordinates":[4.049892,36.714076],"type":"Point"},"properties":{"name":"02 bacs a d\u00c3\u00a9ch\u00c3\u00a9ts","osm_id":"7649895271","tag":{"access":"yes","amenity":"waste_disposal","collection_times":"8:00","operator":"commune de tizi ouzou","waste":"mixed"}},"type":"Feature"},
	{"geometry":{"coordinates":[4.052793,36.71683],"type":"Point"},"properties":{"name":"03 bacs a d\u00c3\u00a9ch\u00c3\u00a9ts","osm_id":"7649915437","tag":{"access":"yes","amenity":"waste_disposal","collection_times":"8:00","operator":"commune de tizi ouzou","waste":"mixed"}},"type":"Feature"},
	{"geometry":{"coordinates":[4.078226,36.716403],"type":"Point"},"properties":{"name":"4 BACS A DECHETS","osm_id":"7702406022","tag":{"access":"yes","amenity":"waste_disposal","collection_times":"18:00","operator":"commune de tizi ouzou","waste":"mixed"}},"type":"Feature"},
	{"geometry":{"coordinates":[4.050309,36.714562],"type":"Point"},"properties":{"name":"2 bacs a dechets","osm_id":"7819740770","tag":{"access":"yes","amenity":"waste_disposal","collection_times":"18:00","operator":"commune de tizi ouzou","waste":"mixed"}},"type":"Feature"},
	{"geometry":{"coordinates":[4.04996,36.714709],"type":"Point"},"properties":{"name":"1 bac a dechets","osm_id":"7819740771","tag":{"access":"yes","amenity":"waste_disposal","collection_times":"18:00","operator":"commune de tizi ouzou","waste":"mixed"}},"type":"Feature"},
	{"geometry":{"coordinates":[4.050223,36.714623],"type":"Point"},"properties":{"name":"Poubelle pour pietons","osm_id":"7819740772","tag":{"amenity":"waste_basket","collection_times":"5:00-20:00","colour":"vertes","material":"plastic","operator":"commune de tizi ouzou","waste":"mixed"}},"type":"Feature"},
	{"geometry":{"coordinates":[4.052132,36.713219],"type":"Point"},"properties":{"osm_id":"7819740773","tag":{"amenity":"waste_disposal"}},"type":"Feature"},
	{"geometry":{"coordinates":[4.052076,36.712357],"type":"Point"},"properties":{"osm_id":"7819740774","tag":{"amenity":"waste_disposal"}},"type":"Feature"}
]
}
