{
"type": "FeatureCollection",
"features": [
	{"geometry":{"coordinates":[4.660313,52.438133],"type":"Point"},"properties":{"osm_id":"2773282253","tag":{"addr:city":"Velserbroek","addr:housenumber":"13","addr:postcode":"1991CN","addr:street":"Haverland","natural":"tree","source:date":"2014-03-24"}},"type":"Feature"},
	{"geometry":{"coordinates":[4.684593,52.476723],"type":"Point"},"properties":{"osm_id":"2907019754","tag":{"addr:city":"Beverwijk","addr:housenumber":"6","addr:postcode":"1948PX","addr:street":"Vuurlinie","natural":"tree","source:date":"2014-06-09"}},"type":"Feature"},
	{"geometry":{"coordinates":[4.682795,52.476796],"type":"Point"},"properties":{"osm_id":"5096368957","tag":{"natural":"tree"}},"type":"Feature"},
	{"geometry":{"coordinates":[4.682812,52.476941],"type":"Point"},"properties":{"osm_id":"5096368958","tag":{"natural":"tree"}},"type":"Feature"},
	{"geometry":{"coordinates":[4.684014,52.478005],"type":"Point"},"properties":{"osm_id":"5096368988","tag":{"natural":"tree"}},"type":"Feature"},
	{"geometry":{"coordinates":[4.683566,52.477888],"type":"Point"},"properties":{"osm_id":"5096368989","tag":{"natural":"tree"}},"type":"Feature"},
	{"geometry":{"coordinates":[4.682551,52.476661],"type":"Point"},"properties":{"osm_id":"5096416628","tag":{"natural":"tree"}},"type":"Feature"},
	{"geometry":{"coordinates":[4.682612,52.476866],"type":"Point"},"properties":{"osm_id":"5096416629","tag":{"natural":"tree"}},"type":"Feature"},
	{"geometry":{"coordinates":[4.682638,52.476948],"type":"Point"},"properties":{"osm_id":"5096416630","tag":{"natural":"tree"}},"type":"Feature"},
	{"geometry":{"coordinates":[4.682666,52.477045],"type":"Point"},"properties":{"osm_id":"5096416631","tag":{"natural":"tree"}},"type":"Feature"},
	{"geometry":{"coordinates":[4.684496,52.468011],"type":"Point"},"properties":{"osm_id":"5107747154","tag":{"natural":"tree"}},"type":"Feature"},
	{"geometry":{"coordinates":[4.683178,52.460476],"type":"Point"},"properties":{"osm_id":"5120640883","tag":{"natural":"tree"}},"type":"Feature"},
	{"geometry":{"coordinates":[4.683336,52.458873],"type":"Point"},"properties":{"osm_id":"5120640884","tag":{"natural":"tree"}},"type":"Feature"},
	{"geometry":{"coordinates":[4.683339,52.458826],"type":"Point"},"properties":{"osm_id":"5120640885","tag":{"natural":"tree"}},"type":"Feature"},
	{"geometry":{"coordinates":[4.68335,52.458633],"type":"Point"},"properties":{"osm_id":"5120640886","tag":{"natural":"tree"}},"type":"Feature"},
	{"geometry":{"coordinates":[4.683605,52.456571],"type":"Point"},"properties":{"osm_id":"5120640887","tag":{"natural":"tree"}},"type":"Feature"},
	{"geometry":{"coordinates":[4.683564,52.456319],"type":"Point"},"properties":{"osm_id":"5120640888","tag":{"natural":"tree"}},"type":"Feature"},
	{"geometry":{"coordinates":[4.683666,52.455718],"type":"Point"},"properties":{"osm_id":"5120640900","tag":{"natural":"tree"}},"type":"Feature"},
	{"geometry":{"coordinates":[4.683658,52.45576],"type":"Point"},"properties":{"osm_id":"5120640901","tag":{"natural":"tree"}},"type":"Feature"},
	{"geometry":{"coordinates":[4.683655,52.455887],"type":"Point"},"properties":{"osm_id":"5120640902","tag":{"natural":"tree"}},"type":"Feature"},
	{"geometry":{"coordinates":[4.683708,52.455398],"type":"Point"},"properties":{"osm_id":"5120640903","tag":{"natural":"tree"}},"type":"Feature"},
	{"geometry":{"coordinates":[4.683794,52.454508],"type":"Point"},"properties":{"osm_id":"5120640904","tag":{"natural":"tree"}},"type":"Feature"},
	{"geometry":{"coordinates":[4.683822,52.454214],"type":"Point"},"properties":{"osm_id":"5120640905","tag":{"natural":"tree"}},"type":"Feature"},
	{"geometry":{"coordinates":[4.684003,52.452856],"type":"Point"},"properties":{"osm_id":"5120640906","tag":{"natural":"tree"}},"type":"Feature"},
	{"geometry":{"coordinates":[4.684,52.452965],"type":"Point"},"properties":{"osm_id":"5120640907","tag":{"natural":"tree"}},"type":"Feature"},
	{"geometry":{"coordinates":[4.683112,52.468776],"type":"Point"},"properties":{"osm_id":"5120640910","tag":{"natural":"tree"}},"type":"Feature"},
	{"geometry":{"coordinates":[4.683032,52.469061],"type":"Point"},"properties":{"osm_id":"5120640911","tag":{"natural":"tree"}},"type":"Feature"},
	{"geometry":{"coordinates":[4.683146,52.469047],"type":"Point"},"properties":{"osm_id":"5120640912","tag":{"natural":"tree"}},"type":"Feature"},
	{"geometry":{"coordinates":[4.683247,52.468991],"type":"Point"},"properties":{"osm_id":"5120640913","tag":{"natural":"tree"}},"type":"Feature"},
	{"geometry":{"coordinates":[4.683337,52.468941],"type":"Point"},"properties":{"osm_id":"5120640914","tag":{"natural":"tree"}},"type":"Feature"},
	{"geometry":{"coordinates":[4.68343,52.46889],"type":"Point"},"properties":{"osm_id":"5120640915","tag":{"natural":"tree"}},"type":"Feature"},
	{"geometry":{"coordinates":[4.683168,52.468616],"type":"Point"},"properties":{"osm_id":"5120640916","tag":{"natural":"tree"}},"type":"Feature"},
	{"geometry":{"coordinates":[4.683255,52.46868],"type":"Point"},"properties":{"osm_id":"5120640917","tag":{"natural":"tree"}},"type":"Feature"},
	{"geometry":{"coordinates":[4.683339,52.468737],"type":"Point"},"properties":{"osm_id":"5120640918","tag":{"natural":"tree"}},"type":"Feature"},
	{"geometry":{"coordinates":[4.683411,52.46879],"type":"Point"},"properties":{"osm_id":"5120640919","tag":{"natural":"tree"}},"type":"Feature"},
	{"geometry":{"coordinates":[4.683484,52.468841],"type":"Point"},"properties":{"osm_id":"5120640920","tag":{"natural":"tree"}},"type":"Feature"},
	{"geometry":{"coordinates":[4.68293,52.468437],"type":"Point"},"properties":{"osm_id":"5120641521","tag":{"natural":"tree"}},"type":"Feature"},
	{"geometry":{"coordinates":[4.683011,52.468498],"type":"Point"},"properties":{"osm_id":"5120641522","tag":{"natural":"tree"}},"type":"Feature"},
	{"geometry":{"coordinates":[4.683093,52.468558],"type":"Point"},"properties":{"osm_id":"5120641523","tag":{"natural":"tree"}},"type":"Feature"},
	{"geometry":{"coordinates":[4.682916,52.468332],"type":"Point"},"properties":{"osm_id":"5120641524","tag":{"natural":"tree"}},"type":"Feature"},
	{"geometry":{"coordinates":[4.682997,52.468383],"type":"Point"},"properties":{"osm_id":"5120641525","tag":{"natural":"tree"}},"type":"Feature"},
	{"geometry":{"coordinates":[4.683078,52.468444],"type":"Point"},"properties":{"osm_id":"5120641526","tag":{"natural":"tree"}},"type":"Feature"},
	{"geometry":{"coordinates":[4.68316,52.468504],"type":"Point"},"properties":{"osm_id":"5120641527","tag":{"natural":"tree"}},"type":"Feature"},
	{"geometry":{"coordinates":[4.683234,52.468562],"type":"Point"},"properties":{"osm_id":"5120641528","tag":{"natural":"tree"}},"type":"Feature"},
	{"geometry":{"coordinates":[4.683321,52.468626],"type":"Point"},"properties":{"osm_id":"5120641529","tag":{"natural":"tree"}},"type":"Feature"},
	{"geometry":{"coordinates":[4.683405,52.468683],"type":"Point"},"properties":{"osm_id":"5120641530","tag":{"natural":"tree"}},"type":"Feature"},
	{"geometry":{"coordinates":[4.683478,52.468736],"type":"Point"},"properties":{"osm_id":"5120641531","tag":{"natural":"tree"}},"type":"Feature"},
	{"geometry":{"coordinates":[4.683567,52.4688],"type":"Point"},"properties":{"osm_id":"5120641532","tag":{"natural":"tree"}},"type":"Feature"},
	{"geometry":{"coordinates":[4.683644,52.468863],"type":"Point"},"properties":{"osm_id":"5120641533","tag":{"natural":"tree"}},"type":"Feature"},
	{"geometry":{"coordinates":[4.683549,52.468914],"type":"Point"},"properties":{"osm_id":"5120641534","tag":{"natural":"tree"}},"type":"Feature"},
	{"geometry":{"coordinates":[4.683464,52.468958],"type":"Point"},"properties":{"osm_id":"5120641535","tag":{"natural":"tree"}},"type":"Feature"},
	{"geometry":{"coordinates":[4.683367,52.469016],"type":"Point"},"properties":{"osm_id":"5120641536","tag":{"natural":"tree"}},"type":"Feature"},
	{"geometry":{"coordinates":[4.683269,52.469064],"type":"Point"},"properties":{"osm_id":"5120641537","tag":{"natural":"tree"}},"type":"Feature"},
	{"geometry":{"coordinates":[4.683161,52.469124],"type":"Point"},"properties":{"osm_id":"5120641538","tag":{"natural":"tree"}},"type":"Feature"},
	{"geometry":{"coordinates":[4.683046,52.469127],"type":"Point"},"properties":{"osm_id":"5120641539","tag":{"natural":"tree"}},"type":"Feature"},
	{"geometry":{"coordinates":[4.684307,52.454348],"type":"Point"},"properties":{"osm_id":"5124420097","tag":{"natural":"tree"}},"type":"Feature"},
	{"geometry":{"coordinates":[4.684326,52.454218],"type":"Point"},"properties":{"osm_id":"5124420098","tag":{"natural":"tree"}},"type":"Feature"},
	{"geometry":{"coordinates":[4.684342,52.45412],"type":"Point"},"properties":{"osm_id":"5124420099","tag":{"natural":"tree"}},"type":"Feature"},
	{"geometry":{"coordinates":[4.684335,52.454083],"type":"Point"},"properties":{"osm_id":"5124420100","tag":{"natural":"tree"}},"type":"Feature"},
	{"geometry":{"coordinates":[4.684359,52.453945],"type":"Point"},"properties":{"osm_id":"5124420101","tag":{"natural":"tree"}},"type":"Feature"},
	{"geometry":{"coordinates":[4.684371,52.453867],"type":"Point"},"properties":{"osm_id":"5124420102","tag":{"natural":"tree"}},"type":"Feature"},
	{"geometry":{"coordinates":[4.684378,52.453807],"type":"Point"},"properties":{"osm_id":"5124420103","tag":{"natural":"tree"}},"type":"Feature"},
	{"geometry":{"coordinates":[4.684385,52.453751],"type":"Point"},"properties":{"osm_id":"5124420104","tag":{"natural":"tree"}},"type":"Feature"},
	{"geometry":{"coordinates":[4.684384,52.453703],"type":"Point"},"properties":{"osm_id":"5124420105","tag":{"natural":"tree"}},"type":"Feature"},
	{"geometry":{"coordinates":[4.684389,52.453644],"type":"Point"},"properties":{"osm_id":"5124420106","tag":{"natural":"tree"}},"type":"Feature"},
	{"geometry":{"coordinates":[4.684398,52.453512],"type":"Point"},"properties":{"osm_id":"5124420107","tag":{"natural":"tree"}},"type":"Feature"},
	{"geometry":{"coordinates":[4.684411,52.453455],"type":"Point"},"properties":{"osm_id":"5124420108","tag":{"natural":"tree"}},"type":"Feature"},
	{"geometry":{"coordinates":[4.684415,52.453398],"type":"Point"},"properties":{"osm_id":"5124420109","tag":{"natural":"tree"}},"type":"Feature"},
	{"geometry":{"coordinates":[4.684418,52.453327],"type":"Point"},"properties":{"osm_id":"5124420110","tag":{"natural":"tree"}},"type":"Feature"},
	{"geometry":{"coordinates":[4.684411,52.453282],"type":"Point"},"properties":{"osm_id":"5124420111","tag":{"natural":"tree"}},"type":"Feature"},
	{"geometry":{"coordinates":[4.684466,52.453163],"type":"Point"},"properties":{"osm_id":"5124420112","tag":{"natural":"tree"}},"type":"Feature"},
	{"geometry":{"coordinates":[4.684451,52.453097],"type":"Point"},"properties":{"osm_id":"5124420113","tag":{"natural":"tree"}},"type":"Feature"},
	{"geometry":{"coordinates":[4.684484,52.452961],"type":"Point"},"properties":{"osm_id":"5124420114","tag":{"natural":"tree"}},"type":"Feature"},
	{"geometry":{"coordinates":[4.684487,52.452921],"type":"Point"},"properties":{"osm_id":"5124420115","tag":{"natural":"tree"}},"type":"Feature"},
	{"geometry":{"coordinates":[4.684493,52.452851],"type":"Point"},"properties":{"osm_id":"5124420116","tag":{"natural":"tree"}},"type":"Feature"},
	{"geometry":{"coordinates":[4.684507,52.452645],"type":"Point"},"properties":{"osm_id":"5124420117","tag":{"natural":"tree"}},"type":"Feature"},
	{"geometry":{"coordinates":[4.684508,52.452585],"type":"Point"},"properties":{"osm_id":"5124420118","tag":{"natural":"tree"}},"type":"Feature"},
	{"geometry":{"coordinates":[4.684497,52.452537],"type":"Point"},"properties":{"osm_id":"5124420119","tag":{"natural":"tree"}},"type":"Feature"},
	{"geometry":{"coordinates":[4.673872,52.458278],"type":"Point"},"properties":{"osm_id":"5125132403","tag":{"natural":"tree"}},"type":"Feature"},
	{"geometry":{"coordinates":[4.673816,52.45832],"type":"Point"},"properties":{"osm_id":"5125132404","tag":{"natural":"tree"}},"type":"Feature"},
	{"geometry":{"coordinates":[4.673738,52.45839],"type":"Point"},"properties":{"osm_id":"5125132405","tag":{"natural":"tree"}},"type":"Feature"},
	{"geometry":{"coordinates":[4.673652,52.458475],"type":"Point"},"properties":{"osm_id":"5125132406","tag":{"natural":"tree"}},"type":"Feature"},
	{"geometry":{"coordinates":[4.673585,52.458537],"type":"Point"},"properties":{"osm_id":"5125132407","tag":{"natural":"tree"}},"type":"Feature"},
	{"geometry":{"coordinates":[4.673542,52.458617],"type":"Point"},"properties":{"osm_id":"5125132408","tag":{"natural":"tree"}},"type":"Feature"},
	{"geometry":{"coordinates":[4.673507,52.458675],"type":"Point"},"properties":{"osm_id":"5125132409","tag":{"natural":"tree"}},"type":"Feature"},
	{"geometry":{"coordinates":[4.673462,52.458751],"type":"Point"},"properties":{"osm_id":"5125132410","tag":{"natural":"tree"}},"type":"Feature"},
	{"geometry":{"coordinates":[4.67344,52.458809],"type":"Point"},"properties":{"osm_id":"5125132411","tag":{"natural":"tree"}},"type":"Feature"},
	{"geometry":{"coordinates":[4.673395,52.458892],"type":"Point"},"properties":{"osm_id":"5125132412","tag":{"natural":"tree"}},"type":"Feature"},
	{"geometry":{"coordinates":[4.673365,52.458957],"type":"Point"},"properties":{"osm_id":"5125132413","tag":{"natural":"tree"}},"type":"Feature"},
	{"geometry":{"coordinates":[4.67388,52.457764],"type":"Point"},"properties":{"osm_id":"5125132414","tag":{"natural":"tree"}},"type":"Feature"},
	{"geometry":{"coordinates":[4.67369,52.457871],"type":"Point"},"properties":{"osm_id":"5125132415","tag":{"natural":"tree"}},"type":"Feature"},
	{"geometry":{"coordinates":[4.673588,52.457941],"type":"Point"},"properties":{"osm_id":"5125132416","tag":{"natural":"tree"}},"type":"Feature"},
	{"geometry":{"coordinates":[4.674453,52.457827],"type":"Point"},"properties":{"osm_id":"5125132420","tag":{"natural":"tree"}},"type":"Feature"},
	{"geometry":{"coordinates":[4.67435,52.45789],"type":"Point"},"properties":{"osm_id":"5125132721","tag":{"natural":"tree"}},"type":"Feature"},
	{"geometry":{"coordinates":[4.674189,52.457976],"type":"Point"},"properties":{"osm_id":"5125132722","tag":{"natural":"tree"}},"type":"Feature"},
	{"geometry":{"coordinates":[4.674084,52.458049],"type":"Point"},"properties":{"osm_id":"5125132723","tag":{"natural":"tree"}},"type":"Feature"},
	{"geometry":{"coordinates":[4.68065,52.454121],"type":"Point"},"properties":{"osm_id":"5125132724","tag":{"natural":"tree"}},"type":"Feature"},
	{"geometry":{"coordinates":[4.680728,52.45408],"type":"Point"},"properties":{"osm_id":"5125132725","tag":{"natural":"tree"}},"type":"Feature"},
	{"geometry":{"coordinates":[4.680465,52.454195],"type":"Point"},"properties":{"osm_id":"5125132726","tag":{"natural":"tree"}},"type":"Feature"},
	{"geometry":{"coordinates":[4.680352,52.454255],"type":"Point"},"properties":{"osm_id":"5125132727","tag":{"natural":"tree"}},"type":"Feature"},
	{"geometry":{"coordinates":[4.680248,52.454299],"type":"Point"},"properties":{"osm_id":"5125132728","tag":{"natural":"tree"}},"type":"Feature"},
	{"geometry":{"coordinates":[4.680186,52.454348],"type":"Point"},"properties":{"osm_id":"5125132729","tag":{"natural":"tree"}},"type":"Feature"},
	{"geometry":{"coordinates":[4.680111,52.454386],"type":"Point"},"properties":{"osm_id":"5125132730","tag":{"natural":"tree"}},"type":"Feature"},
	{"geometry":{"coordinates":[4.680009,52.454433],"type":"Point"},"properties":{"osm_id":"5125132731","tag":{"natural":"tree"}},"type":"Feature"},
	{"geometry":{"coordinates":[4.679918,52.454482],"type":"Point"},"properties":{"osm_id":"5125132732","tag":{"natural":"tree"}},"type":"Feature"},
	{"geometry":{"coordinates":[4.679843,52.454525],"type":"Point"},"properties":{"osm_id":"5125132733","tag":{"natural":"tree"}},"type":"Feature"},
	{"geometry":{"coordinates":[4.679743,52.45458],"type":"Point"},"properties":{"osm_id":"5125132734","tag":{"natural":"tree"}},"type":"Feature"},
	{"geometry":{"coordinates":[4.679274,52.454865],"type":"Point"},"properties":{"osm_id":"5125132735","tag":{"natural":"tree"}},"type":"Feature"},
	{"geometry":{"coordinates":[4.678708,52.455166],"type":"Point"},"properties":{"osm_id":"5125132736","tag":{"natural":"tree"}},"type":"Feature"},
	{"geometry":{"coordinates":[4.678601,52.455224],"type":"Point"},"properties":{"osm_id":"5125132737","tag":{"natural":"tree"}},"type":"Feature"},
	{"geometry":{"coordinates":[4.678504,52.455272],"type":"Point"},"properties":{"osm_id":"5125132738","tag":{"natural":"tree"}},"type":"Feature"},
	{"geometry":{"coordinates":[4.678368,52.45536],"type":"Point"},"properties":{"osm_id":"5125132739","tag":{"natural":"tree"}},"type":"Feature"},
	{"geometry":{"coordinates":[4.678182,52.455456],"type":"Point"},"properties":{"osm_id":"5125132740","tag":{"natural":"tree"}},"type":"Feature"},
	{"geometry":{"coordinates":[4.678083,52.455512],"type":"Point"},"properties":{"osm_id":"5125132741","tag":{"natural":"tree"}},"type":"Feature"},
	{"geometry":{"coordinates":[4.678003,52.45554],"type":"Point"},"properties":{"osm_id":"5125132742","tag":{"natural":"tree"}},"type":"Feature"},
	{"geometry":{"coordinates":[4.675967,52.456642],"type":"Point"},"properties":{"osm_id":"5125132743","tag":{"natural":"tree"}},"type":"Feature"},
	{"geometry":{"coordinates":[4.675853,52.456712],"type":"Point"},"properties":{"osm_id":"5125132744","tag":{"natural":"tree"}},"type":"Feature"},
	{"geometry":{"coordinates":[4.67568,52.4568],"type":"Point"},"properties":{"osm_id":"5125132745","tag":{"natural":"tree"}},"type":"Feature"},
	{"geometry":{"coordinates":[4.683064,52.452797],"type":"Point"},"properties":{"osm_id":"5125299114","tag":{"natural":"tree"}},"type":"Feature"},
	{"geometry":{"coordinates":[4.683984,52.452295],"type":"Point"},"properties":{"osm_id":"5125299115","tag":{"natural":"tree"}},"type":"Feature"},
	{"geometry":{"coordinates":[4.683861,52.452362],"type":"Point"},"properties":{"osm_id":"5125299116","tag":{"natural":"tree"}},"type":"Feature"},
	{"geometry":{"coordinates":[4.68367,52.452488],"type":"Point"},"properties":{"osm_id":"5125299117","tag":{"natural":"tree"}},"type":"Feature"},
	{"geometry":{"coordinates":[4.683555,52.452539],"type":"Point"},"properties":{"osm_id":"5125299118","tag":{"natural":"tree"}},"type":"Feature"},
	{"geometry":{"coordinates":[4.683426,52.452601],"type":"Point"},"properties":{"osm_id":"5125299119","tag":{"natural":"tree"}},"type":"Feature"},
	{"geometry":{"coordinates":[4.683268,52.452665],"type":"Point"},"properties":{"osm_id":"5125299120","tag":{"natural":"tree"}},"type":"Feature"},
	{"geometry":{"coordinates":[4.683118,52.452763],"type":"Point"},"properties":{"osm_id":"5125301421","tag":{"natural":"tree"}},"type":"Feature"},
	{"geometry":{"coordinates":[4.682866,52.452879],"type":"Point"},"properties":{"osm_id":"5125301422","tag":{"natural":"tree"}},"type":"Feature"},
	{"geometry":{"coordinates":[4.682766,52.452947],"type":"Point"},"properties":{"osm_id":"5125301423","tag":{"natural":"tree"}},"type":"Feature"},
	{"geometry":{"coordinates":[4.682675,52.453001],"type":"Point"},"properties":{"osm_id":"5125301424","tag":{"natural":"tree"}},"type":"Feature"},
	{"geometry":{"coordinates":[4.682571,52.453055],"type":"Point"},"properties":{"osm_id":"5125301425","tag":{"natural":"tree"}},"type":"Feature"},
	{"geometry":{"coordinates":[4.682355,52.453182],"type":"Point"},"properties":{"osm_id":"5125301429","tag":{"natural":"tree"}},"type":"Feature"},
	{"geometry":{"coordinates":[4.682229,52.453235],"type":"Point"},"properties":{"osm_id":"5125301430","tag":{"natural":"tree"}},"type":"Feature"},
	{"geometry":{"coordinates":[4.682135,52.45329],"type":"Point"},"properties":{"osm_id":"5125301431","tag":{"natural":"tree"}},"type":"Feature"},
	{"geometry":{"coordinates":[4.682027,52.45336],"type":"Point"},"properties":{"osm_id":"5125301432","tag":{"natural":"tree"}},"type":"Feature"},
	{"geometry":{"coordinates":[4.68194,52.453422],"type":"Point"},"properties":{"osm_id":"5125301433","tag":{"natural":"tree"}},"type":"Feature"},
	{"geometry":{"coordinates":[4.681679,52.453543],"type":"Point"},"properties":{"osm_id":"5125301434","tag":{"natural":"tree"}},"type":"Feature"},
	{"geometry":{"coordinates":[4.681389,52.45369],"type":"Point"},"properties":{"osm_id":"5125301435","tag":{"natural":"tree"}},"type":"Feature"},
	{"geometry":{"coordinates":[4.681114,52.453867],"type":"Point"},"properties":{"osm_id":"5125301436","tag":{"natural":"tree"}},"type":"Feature"},
	{"geometry":{"coordinates":[4.677587,52.455756],"type":"Point"},"properties":{"osm_id":"5125301437","tag":{"natural":"tree"}},"type":"Feature"},
	{"geometry":{"coordinates":[4.674402,52.457863],"type":"Point"},"properties":{"osm_id":"5125301438","tag":{"natural":"tree"}},"type":"Feature"},
	{"geometry":{"coordinates":[4.674247,52.457935],"type":"Point"},"properties":{"osm_id":"5125301439","tag":{"natural":"tree"}},"type":"Feature"},
	{"geometry":{"coordinates":[4.673153,52.459593],"type":"Point"},"properties":{"osm_id":"5125301446","tag":{"natural":"tree"}},"type":"Feature"},
	{"geometry":{"coordinates":[4.673188,52.459536],"type":"Point"},"properties":{"osm_id":"5125301447","tag":{"natural":"tree"}},"type":"Feature"},
	{"geometry":{"coordinates":[4.673223,52.459485],"type":"Point"},"properties":{"osm_id":"5125301448","tag":{"natural":"tree"}},"type":"Feature"},
	{"geometry":{"coordinates":[4.673247,52.45941],"type":"Point"},"properties":{"osm_id":"5125301449","tag":{"natural":"tree"}},"type":"Feature"},
	{"geometry":{"coordinates":[4.673295,52.459314],"type":"Point"},"properties":{"osm_id":"5125301450","tag":{"natural":"tree"}},"type":"Feature"},
	{"geometry":{"coordinates":[4.67332,52.459245],"type":"Point"},"properties":{"osm_id":"5125301451","tag":{"natural":"tree"}},"type":"Feature"},
	{"geometry":{"coordinates":[4.67336,52.45918],"type":"Point"},"properties":{"osm_id":"5125301452","tag":{"natural":"tree"}},"type":"Feature"},
	{"geometry":{"coordinates":[4.684087,52.455499],"type":"Point"},"properties":{"osm_id":"5140228992","tag":{"natural":"tree"}},"type":"Feature"},
	{"geometry":{"coordinates":[4.684081,52.455634],"type":"Point"},"properties":{"osm_id":"5140228993","tag":{"natural":"tree"}},"type":"Feature"},
	{"geometry":{"coordinates":[4.68406,52.455793],"type":"Point"},"properties":{"osm_id":"5140228994","tag":{"natural":"tree"}},"type":"Feature"},
	{"geometry":{"coordinates":[4.684048,52.455889],"type":"Point"},"properties":{"osm_id":"5140228995","tag":{"natural":"tree"}},"type":"Feature"},
	{"geometry":{"coordinates":[4.684039,52.455966],"type":"Point"},"properties":{"osm_id":"5140228996","tag":{"natural":"tree"}},"type":"Feature"},
	{"geometry":{"coordinates":[4.684032,52.456053],"type":"Point"},"properties":{"osm_id":"5140228997","tag":{"natural":"tree"}},"type":"Feature"},
	{"geometry":{"coordinates":[4.684018,52.456127],"type":"Point"},"properties":{"osm_id":"5140228998","tag":{"natural":"tree"}},"type":"Feature"},
	{"geometry":{"coordinates":[4.684001,52.456211],"type":"Point"},"properties":{"osm_id":"5140228999","tag":{"natural":"tree"}},"type":"Feature"},
	{"geometry":{"coordinates":[4.683989,52.456303],"type":"Point"},"properties":{"osm_id":"5140229000","tag":{"natural":"tree"}},"type":"Feature"},
	{"geometry":{"coordinates":[4.683984,52.45638],"type":"Point"},"properties":{"osm_id":"5140229001","tag":{"natural":"tree"}},"type":"Feature"},
	{"geometry":{"coordinates":[4.683977,52.456456],"type":"Point"},"properties":{"osm_id":"5140229002","tag":{"natural":"tree"}},"type":"Feature"},
	{"geometry":{"coordinates":[4.683968,52.456535],"type":"Point"},"properties":{"osm_id":"5140229003","tag":{"natural":"tree"}},"type":"Feature"},
	{"geometry":{"coordinates":[4.683956,52.456611],"type":"Point"},"properties":{"osm_id":"5140229004","tag":{"natural":"tree"}},"type":"Feature"},
	{"geometry":{"coordinates":[4.68395,52.456683],"type":"Point"},"properties":{"osm_id":"5140229005","tag":{"natural":"tree"}},"type":"Feature"},
	{"geometry":{"coordinates":[4.683943,52.456759],"type":"Point"},"properties":{"osm_id":"5140229006","tag":{"natural":"tree"}},"type":"Feature"},
	{"geometry":{"coordinates":[4.683934,52.456824],"type":"Point"},"properties":{"osm_id":"5140229007","tag":{"natural":"tree"}},"type":"Feature"},
	{"geometry":{"coordinates":[4.683925,52.456899],"type":"Point"},"properties":{"osm_id":"5140229008","tag":{"natural":"tree"}},"type":"Feature"},
	{"geometry":{"coordinates":[4.683894,52.457075],"type":"Point"},"properties":{"osm_id":"5140229009","tag":{"natural":"tree"}},"type":"Feature"},
	{"geometry":{"coordinates":[4.683885,52.457144],"type":"Point"},"properties":{"osm_id":"5140229010","tag":{"natural":"tree"}},"type":"Feature"},
	{"geometry":{"coordinates":[4.683892,52.457224],"type":"Point"},"properties":{"osm_id":"5140229011","tag":{"natural":"tree"}},"type":"Feature"},
	{"geometry":{"coordinates":[4.68388,52.457297],"type":"Point"},"properties":{"osm_id":"5140229012","tag":{"natural":"tree"}},"type":"Feature"},
	{"geometry":{"coordinates":[4.683872,52.457371],"type":"Point"},"properties":{"osm_id":"5140229013","tag":{"natural":"tree"}},"type":"Feature"},
	{"geometry":{"coordinates":[4.68386,52.45741],"type":"Point"},"properties":{"osm_id":"5140229014","tag":{"natural":"tree"}},"type":"Feature"},
	{"geometry":{"coordinates":[4.683853,52.457464],"type":"Point"},"properties":{"osm_id":"5140229015","tag":{"natural":"tree"}},"type":"Feature"},
	{"geometry":{"coordinates":[4.683848,52.457529],"type":"Point"},"properties":{"osm_id":"5140229016","tag":{"natural":"tree"}},"type":"Feature"},
	{"geometry":{"coordinates":[4.683839,52.457601],"type":"Point"},"properties":{"osm_id":"5140229017","tag":{"natural":"tree"}},"type":"Feature"},
	{"geometry":{"coordinates":[4.683823,52.457684],"type":"Point"},"properties":{"osm_id":"5140229018","tag":{"natural":"tree"}},"type":"Feature"},
	{"geometry":{"coordinates":[4.683815,52.457782],"type":"Point"},"properties":{"osm_id":"5140229019","tag":{"natural":"tree"}},"type":"Feature"},
	{"geometry":{"coordinates":[4.683795,52.458012],"type":"Point"},"properties":{"osm_id":"5140229020","tag":{"natural":"tree"}},"type":"Feature"},
	{"geometry":{"coordinates":[4.683787,52.458073],"type":"Point"},"properties":{"osm_id":"5140229221","tag":{"natural":"tree"}},"type":"Feature"},
	{"geometry":{"coordinates":[4.683781,52.458133],"type":"Point"},"properties":{"osm_id":"5140229222","tag":{"natural":"tree"}},"type":"Feature"},
	{"geometry":{"coordinates":[4.683774,52.458184],"type":"Point"},"properties":{"osm_id":"5140229223","tag":{"natural":"tree"}},"type":"Feature"},
	{"geometry":{"coordinates":[4.683769,52.458232],"type":"Point"},"properties":{"osm_id":"5140229224","tag":{"natural":"tree"}},"type":"Feature"},
	{"geometry":{"coordinates":[4.683762,52.458293],"type":"Point"},"properties":{"osm_id":"5140229225","tag":{"natural":"tree"}},"type":"Feature"},
	{"geometry":{"coordinates":[4.683753,52.458348],"type":"Point"},"properties":{"osm_id":"5140229226","tag":{"natural":"tree"}},"type":"Feature"},
	{"geometry":{"coordinates":[4.683746,52.458425],"type":"Point"},"properties":{"osm_id":"5140229227","tag":{"natural":"tree"}},"type":"Feature"},
	{"geometry":{"coordinates":[4.68374,52.458487],"type":"Point"},"properties":{"osm_id":"5140229228","tag":{"natural":"tree"}},"type":"Feature"},
	{"geometry":{"coordinates":[4.683731,52.458567],"type":"Point"},"properties":{"osm_id":"5140229229","tag":{"natural":"tree"}},"type":"Feature"},
	{"geometry":{"coordinates":[4.683724,52.458644],"type":"Point"},"properties":{"osm_id":"5140229230","tag":{"natural":"tree"}},"type":"Feature"},
	{"geometry":{"coordinates":[4.68372,52.458702],"type":"Point"},"properties":{"osm_id":"5140229231","tag":{"natural":"tree"}},"type":"Feature"},
	{"geometry":{"coordinates":[4.683708,52.458777],"type":"Point"},"properties":{"osm_id":"5140229232","tag":{"natural":"tree"}},"type":"Feature"},
	{"geometry":{"coordinates":[4.683704,52.458844],"type":"Point"},"properties":{"osm_id":"5140229233","tag":{"natural":"tree"}},"type":"Feature"},
	{"geometry":{"coordinates":[4.683697,52.45891],"type":"Point"},"properties":{"osm_id":"5140229234","tag":{"natural":"tree"}},"type":"Feature"},
	{"geometry":{"coordinates":[4.683689,52.458978],"type":"Point"},"properties":{"osm_id":"5140229235","tag":{"natural":"tree"}},"type":"Feature"},
	{"geometry":{"coordinates":[4.683682,52.459044],"type":"Point"},"properties":{"osm_id":"5140229236","tag":{"natural":"tree"}},"type":"Feature"},
	{"geometry":{"coordinates":[4.683569,52.460844],"type":"Point"},"properties":{"osm_id":"5140229237","tag":{"natural":"tree"}},"type":"Feature"},
	{"geometry":{"coordinates":[4.683667,52.459112],"type":"Point"},"properties":{"osm_id":"5140229239","tag":{"natural":"tree"}},"type":"Feature"},
	{"geometry":{"coordinates":[4.68366,52.459187],"type":"Point"},"properties":{"osm_id":"5140229240","tag":{"natural":"tree"}},"type":"Feature"},
	{"geometry":{"coordinates":[4.683654,52.459249],"type":"Point"},"properties":{"osm_id":"5140229241","tag":{"natural":"tree"}},"type":"Feature"},
	{"geometry":{"coordinates":[4.683642,52.459325],"type":"Point"},"properties":{"osm_id":"5140229242","tag":{"natural":"tree"}},"type":"Feature"},
	{"geometry":{"coordinates":[4.683641,52.459381],"type":"Point"},"properties":{"osm_id":"5140229243","tag":{"natural":"tree"}},"type":"Feature"},
	{"geometry":{"coordinates":[4.683634,52.459448],"type":"Point"},"properties":{"osm_id":"5140229244","tag":{"natural":"tree"}},"type":"Feature"},
	{"geometry":{"coordinates":[4.683628,52.459492],"type":"Point"},"properties":{"osm_id":"5140229245","tag":{"natural":"tree"}},"type":"Feature"},
	{"geometry":{"coordinates":[4.683622,52.459558],"type":"Point"},"properties":{"osm_id":"5140229246","tag":{"natural":"tree"}},"type":"Feature"},
	{"geometry":{"coordinates":[4.683615,52.459611],"type":"Point"},"properties":{"osm_id":"5140229247","tag":{"natural":"tree"}},"type":"Feature"},
	{"geometry":{"coordinates":[4.68361,52.459681],"type":"Point"},"properties":{"osm_id":"5140229248","tag":{"natural":"tree"}},"type":"Feature"},
	{"geometry":{"coordinates":[4.683604,52.459737],"type":"Point"},"properties":{"osm_id":"5140229249","tag":{"natural":"tree"}},"type":"Feature"},
	{"geometry":{"coordinates":[4.683594,52.459815],"type":"Point"},"properties":{"osm_id":"5140229250","tag":{"natural":"tree"}},"type":"Feature"},
	{"geometry":{"coordinates":[4.683591,52.459878],"type":"Point"},"properties":{"osm_id":"5140229251","tag":{"natural":"tree"}},"type":"Feature"},
	{"geometry":{"coordinates":[4.683581,52.459955],"type":"Point"},"properties":{"osm_id":"5140229252","tag":{"natural":"tree"}},"type":"Feature"},
	{"geometry":{"coordinates":[4.683571,52.460014],"type":"Point"},"properties":{"osm_id":"5140229253","tag":{"natural":"tree"}},"type":"Feature"},
	{"geometry":{"coordinates":[4.683568,52.460074],"type":"Point"},"properties":{"osm_id":"5140229254","tag":{"natural":"tree"}},"type":"Feature"},
	{"geometry":{"coordinates":[4.683561,52.46013],"type":"Point"},"properties":{"osm_id":"5140229255","tag":{"natural":"tree"}},"type":"Feature"},
	{"geometry":{"coordinates":[4.683561,52.460176],"type":"Point"},"properties":{"osm_id":"5140229256","tag":{"natural":"tree"}},"type":"Feature"},
	{"geometry":{"coordinates":[4.68355,52.460258],"type":"Point"},"properties":{"osm_id":"5140229257","tag":{"natural":"tree"}},"type":"Feature"},
	{"geometry":{"coordinates":[4.683537,52.460322],"type":"Point"},"properties":{"osm_id":"5140229258","tag":{"natural":"tree"}},"type":"Feature"},
	{"geometry":{"coordinates":[4.683527,52.460389],"type":"Point"},"properties":{"osm_id":"5140229259","tag":{"natural":"tree"}},"type":"Feature"},
	{"geometry":{"coordinates":[4.683524,52.460457],"type":"Point"},"properties":{"osm_id":"5140229260","tag":{"natural":"tree"}},"type":"Feature"},
	{"geometry":{"coordinates":[4.683509,52.460555],"type":"Point"},"properties":{"osm_id":"5140229261","tag":{"natural":"tree"}},"type":"Feature"},
	{"geometry":{"coordinates":[4.683502,52.460624],"type":"Point"},"properties":{"osm_id":"5140229262","tag":{"natural":"tree"}},"type":"Feature"},
	{"geometry":{"coordinates":[4.683495,52.460698],"type":"Point"},"properties":{"osm_id":"5140229263","tag":{"natural":"tree"}},"type":"Feature"},
	{"geometry":{"coordinates":[4.683488,52.460768],"type":"Point"},"properties":{"osm_id":"5140229264","tag":{"natural":"tree"}},"type":"Feature"},
	{"geometry":{"coordinates":[4.683476,52.460833],"type":"Point"},"properties":{"osm_id":"5140229265","tag":{"natural":"tree"}},"type":"Feature"},
	{"geometry":{"coordinates":[4.683461,52.461073],"type":"Point"},"properties":{"osm_id":"5140229266","tag":{"natural":"tree"}},"type":"Feature"},
	{"geometry":{"coordinates":[4.683467,52.461003],"type":"Point"},"properties":{"osm_id":"5140229267","tag":{"natural":"tree"}},"type":"Feature"},
	{"geometry":{"coordinates":[4.683445,52.461122],"type":"Point"},"properties":{"osm_id":"5140229268","tag":{"natural":"tree"}},"type":"Feature"},
	{"geometry":{"coordinates":[4.683433,52.461224],"type":"Point"},"properties":{"osm_id":"5140229269","tag":{"natural":"tree"}},"type":"Feature"},
	{"geometry":{"coordinates":[4.683441,52.461291],"type":"Point"},"properties":{"osm_id":"5140229270","tag":{"natural":"tree"}},"type":"Feature"},
	{"geometry":{"coordinates":[4.683436,52.461332],"type":"Point"},"properties":{"osm_id":"5140229271","tag":{"natural":"tree"}},"type":"Feature"},
	{"geometry":{"coordinates":[4.683428,52.461409],"type":"Point"},"properties":{"osm_id":"5140229272","tag":{"natural":"tree"}},"type":"Feature"},
	{"geometry":{"coordinates":[4.68342,52.461472],"type":"Point"},"properties":{"osm_id":"5140229273","tag":{"natural":"tree"}},"type":"Feature"},
	{"geometry":{"coordinates":[4.683413,52.46154],"type":"Point"},"properties":{"osm_id":"5140229274","tag":{"natural":"tree"}},"type":"Feature"},
	{"geometry":{"coordinates":[4.683407,52.461594],"type":"Point"},"properties":{"osm_id":"5140229275","tag":{"natural":"tree"}},"type":"Feature"},
	{"geometry":{"coordinates":[4.683398,52.461664],"type":"Point"},"properties":{"osm_id":"5140229276","tag":{"natural":"tree"}},"type":"Feature"},
	{"geometry":{"coordinates":[4.68339,52.461735],"type":"Point"},"properties":{"osm_id":"5140229277","tag":{"natural":"tree"}},"type":"Feature"},
	{"geometry":{"coordinates":[4.68338,52.461807],"type":"Point"},"properties":{"osm_id":"5140229278","tag":{"natural":"tree"}},"type":"Feature"},
	{"geometry":{"coordinates":[4.683373,52.461873],"type":"Point"},"properties":{"osm_id":"5140229279","tag":{"natural":"tree"}},"type":"Feature"},
	{"geometry":{"coordinates":[4.683365,52.46195],"type":"Point"},"properties":{"osm_id":"5140229280","tag":{"natural":"tree"}},"type":"Feature"},
	{"geometry":{"coordinates":[4.683352,52.462013],"type":"Point"},"properties":{"osm_id":"5140229281","tag":{"natural":"tree"}},"type":"Feature"},
	{"geometry":{"coordinates":[4.683343,52.462087],"type":"Point"},"properties":{"osm_id":"5140229282","tag":{"natural":"tree"}},"type":"Feature"},
	{"geometry":{"coordinates":[4.683337,52.462154],"type":"Point"},"properties":{"osm_id":"5140229283","tag":{"natural":"tree"}},"type":"Feature"},
	{"geometry":{"coordinates":[4.68333,52.462217],"type":"Point"},"properties":{"osm_id":"5140229284","tag":{"natural":"tree"}},"type":"Feature"},
	{"geometry":{"coordinates":[4.683325,52.46227],"type":"Point"},"properties":{"osm_id":"5140229285","tag":{"natural":"tree"}},"type":"Feature"},
	{"geometry":{"coordinates":[4.683319,52.462411],"type":"Point"},"properties":{"osm_id":"5140229286","tag":{"natural":"tree"}},"type":"Feature"},
	{"geometry":{"coordinates":[4.683299,52.462492],"type":"Point"},"properties":{"osm_id":"5140229287","tag":{"natural":"tree"}},"type":"Feature"},
	{"geometry":{"coordinates":[4.683294,52.462549],"type":"Point"},"properties":{"osm_id":"5140229288","tag":{"natural":"tree"}},"type":"Feature"},
	{"geometry":{"coordinates":[4.683298,52.462682],"type":"Point"},"properties":{"osm_id":"5140229289","tag":{"natural":"tree"}},"type":"Feature"},
	{"geometry":{"coordinates":[4.683284,52.462717],"type":"Point"},"properties":{"osm_id":"5140229290","tag":{"natural":"tree"}},"type":"Feature"},
	{"geometry":{"coordinates":[4.683283,52.462772],"type":"Point"},"properties":{"osm_id":"5140229291","tag":{"natural":"tree"}},"type":"Feature"},
	{"geometry":{"coordinates":[4.68327,52.462858],"type":"Point"},"properties":{"osm_id":"5140229292","tag":{"natural":"tree"}},"type":"Feature"},
	{"geometry":{"coordinates":[4.683221,52.463464],"type":"Point"},"properties":{"osm_id":"5140229293","tag":{"natural":"tree"}},"type":"Feature"},
	{"geometry":{"coordinates":[4.683271,52.462927],"type":"Point"},"properties":{"osm_id":"5140229294","tag":{"natural":"tree"}},"type":"Feature"},
	{"geometry":{"coordinates":[4.683263,52.462998],"type":"Point"},"properties":{"osm_id":"5140229295","tag":{"natural":"tree"}},"type":"Feature"},
	{"geometry":{"coordinates":[4.683244,52.463162],"type":"Point"},"properties":{"osm_id":"5140229296","tag":{"natural":"tree"}},"type":"Feature"},
	{"geometry":{"coordinates":[4.683231,52.463263],"type":"Point"},"properties":{"osm_id":"5140229297","tag":{"natural":"tree"}},"type":"Feature"},
	{"geometry":{"coordinates":[4.683227,52.463329],"type":"Point"},"properties":{"osm_id":"5140229298","tag":{"natural":"tree"}},"type":"Feature"},
	{"geometry":{"coordinates":[4.683226,52.463397],"type":"Point"},"properties":{"osm_id":"5140229299","tag":{"natural":"tree"}},"type":"Feature"},
	{"geometry":{"coordinates":[4.68322,52.463433],"type":"Point"},"properties":{"osm_id":"5140229300","tag":{"natural":"tree"}},"type":"Feature"},
	{"geometry":{"coordinates":[4.683196,52.463739],"type":"Point"},"properties":{"osm_id":"5140229301","tag":{"natural":"tree"}},"type":"Feature"},
	{"geometry":{"coordinates":[4.684352,52.45282],"type":"Point"},"properties":{"osm_id":"5140309466","tag":{"natural":"tree"}},"type":"Feature"},
	{"geometry":{"coordinates":[4.684334,52.452963],"type":"Point"},"properties":{"osm_id":"5140309467","tag":{"natural":"tree"}},"type":"Feature"},
	{"geometry":{"coordinates":[4.684329,52.453032],"type":"Point"},"properties":{"osm_id":"5140309468","tag":{"natural":"tree"}},"type":"Feature"},
	{"geometry":{"coordinates":[4.684325,52.45309],"type":"Point"},"properties":{"osm_id":"5140309469","tag":{"natural":"tree"}},"type":"Feature"},
	{"geometry":{"coordinates":[4.684315,52.45317],"type":"Point"},"properties":{"osm_id":"5140309470","tag":{"natural":"tree"}},"type":"Feature"},
	{"geometry":{"coordinates":[4.68431,52.453227],"type":"Point"},"properties":{"osm_id":"5140309471","tag":{"natural":"tree"}},"type":"Feature"},
	{"geometry":{"coordinates":[4.684299,52.453306],"type":"Point"},"properties":{"osm_id":"5140309472","tag":{"natural":"tree"}},"type":"Feature"},
	{"geometry":{"coordinates":[4.684292,52.4534],"type":"Point"},"properties":{"osm_id":"5140309473","tag":{"natural":"tree"}},"type":"Feature"},
	{"geometry":{"coordinates":[4.684282,52.4535],"type":"Point"},"properties":{"osm_id":"5140309474","tag":{"natural":"tree"}},"type":"Feature"},
	{"geometry":{"coordinates":[4.684271,52.453593],"type":"Point"},"properties":{"osm_id":"5140309475","tag":{"natural":"tree"}},"type":"Feature"},
	{"geometry":{"coordinates":[4.684261,52.453681],"type":"Point"},"properties":{"osm_id":"5140309476","tag":{"natural":"tree"}},"type":"Feature"},
	{"geometry":{"coordinates":[4.684254,52.453771],"type":"Point"},"properties":{"osm_id":"5140309477","tag":{"natural":"tree"}},"type":"Feature"},
	{"geometry":{"coordinates":[4.684252,52.453863],"type":"Point"},"properties":{"osm_id":"5140309478","tag":{"natural":"tree"}},"type":"Feature"},
	{"geometry":{"coordinates":[4.684239,52.453953],"type":"Point"},"properties":{"osm_id":"5140309479","tag":{"natural":"tree"}},"type":"Feature"},
	{"geometry":{"coordinates":[4.684232,52.454044],"type":"Point"},"properties":{"osm_id":"5140309480","tag":{"natural":"tree"}},"type":"Feature"},
	{"geometry":{"coordinates":[4.684224,52.454154],"type":"Point"},"properties":{"osm_id":"5140309481","tag":{"natural":"tree"}},"type":"Feature"},
	{"geometry":{"coordinates":[4.684216,52.454236],"type":"Point"},"properties":{"osm_id":"5140309482","tag":{"natural":"tree"}},"type":"Feature"},
	{"geometry":{"coordinates":[4.684212,52.454298],"type":"Point"},"properties":{"osm_id":"5140309483","tag":{"natural":"tree"}},"type":"Feature"},
	{"geometry":{"coordinates":[4.683752,52.454681],"type":"Point"},"properties":{"osm_id":"5140309484","tag":{"natural":"tree"}},"type":"Feature"},
	{"geometry":{"coordinates":[4.683836,52.454693],"type":"Point"},"properties":{"osm_id":"5140309485","tag":{"natural":"tree"}},"type":"Feature"},
	{"geometry":{"coordinates":[4.683928,52.454695],"type":"Point"},"properties":{"osm_id":"5140309486","tag":{"natural":"tree"}},"type":"Feature"},
	{"geometry":{"coordinates":[4.684036,52.454703],"type":"Point"},"properties":{"osm_id":"5140309487","tag":{"natural":"tree"}},"type":"Feature"},
	{"geometry":{"coordinates":[4.683978,52.454754],"type":"Point"},"properties":{"osm_id":"5140309488","tag":{"natural":"tree"}},"type":"Feature"},
	{"geometry":{"coordinates":[4.683932,52.454749],"type":"Point"},"properties":{"osm_id":"5140309489","tag":{"natural":"tree"}},"type":"Feature"},
	{"geometry":{"coordinates":[4.683865,52.454746],"type":"Point"},"properties":{"osm_id":"5140309490","tag":{"natural":"tree"}},"type":"Feature"},
	{"geometry":{"coordinates":[4.683768,52.454732],"type":"Point"},"properties":{"osm_id":"5140309491","tag":{"natural":"tree"}},"type":"Feature"},
	{"geometry":{"coordinates":[4.684137,52.454946],"type":"Point"},"properties":{"osm_id":"5140309493","tag":{"natural":"tree"}},"type":"Feature"},
	{"geometry":{"coordinates":[4.684131,52.454995],"type":"Point"},"properties":{"osm_id":"5140309494","tag":{"natural":"tree"}},"type":"Feature"},
	{"geometry":{"coordinates":[4.684121,52.455042],"type":"Point"},"properties":{"osm_id":"5140309495","tag":{"natural":"tree"}},"type":"Feature"},
	{"geometry":{"coordinates":[4.684111,52.455087],"type":"Point"},"properties":{"osm_id":"5140309496","tag":{"natural":"tree"}},"type":"Feature"},
	{"geometry":{"coordinates":[4.684108,52.455157],"type":"Point"},"properties":{"osm_id":"5140309497","tag":{"natural":"tree"}},"type":"Feature"},
	{"geometry":{"coordinates":[4.684102,52.455241],"type":"Point"},"properties":{"osm_id":"5140309498","tag":{"natural":"tree"}},"type":"Feature"},
	{"geometry":{"coordinates":[4.684092,52.455319],"type":"Point"},"properties":{"osm_id":"5140309499","tag":{"natural":"tree"}},"type":"Feature"},
	{"geometry":{"coordinates":[4.684093,52.455403],"type":"Point"},"properties":{"osm_id":"5140309500","tag":{"natural":"tree"}},"type":"Feature"},
	{"geometry":{"coordinates":[4.683703,52.47328],"type":"Point"},"properties":{"osm_id":"5141862970","tag":{"natural":"tree"}},"type":"Feature"},
	{"geometry":{"coordinates":[4.683729,52.47349],"type":"Point"},"properties":{"osm_id":"5141862971","tag":{"natural":"tree"}},"type":"Feature"},
	{"geometry":{"coordinates":[4.683718,52.473423],"type":"Point"},"properties":{"osm_id":"5141862972","tag":{"natural":"tree"}},"type":"Feature"},
	{"geometry":{"coordinates":[4.683711,52.473365],"type":"Point"},"properties":{"osm_id":"5141862973","tag":{"natural":"tree"}},"type":"Feature"},
	{"geometry":{"coordinates":[4.683708,52.47333],"type":"Point"},"properties":{"osm_id":"5141862974","tag":{"natural":"tree"}},"type":"Feature"},
	{"geometry":{"coordinates":[4.68369,52.473691],"type":"Point"},"properties":{"osm_id":"5141862975","tag":{"natural":"tree"}},"type":"Feature"},
	{"geometry":{"coordinates":[4.683699,52.473757],"type":"Point"},"properties":{"osm_id":"5141862976","tag":{"natural":"tree"}},"type":"Feature"},
	{"geometry":{"coordinates":[4.683689,52.473607],"type":"Point"},"properties":{"osm_id":"5141862977","tag":{"natural":"tree"}},"type":"Feature"},
	{"geometry":{"coordinates":[4.683678,52.473545],"type":"Point"},"properties":{"osm_id":"5141862978","tag":{"natural":"tree"}},"type":"Feature"},
	{"geometry":{"coordinates":[4.683664,52.47347],"type":"Point"},"properties":{"osm_id":"5141862979","tag":{"natural":"tree"}},"type":"Feature"},
	{"geometry":{"coordinates":[4.683654,52.473386],"type":"Point"},"properties":{"osm_id":"5141862980","tag":{"natural":"tree"}},"type":"Feature"},
	{"geometry":{"coordinates":[4.683636,52.473321],"type":"Point"},"properties":{"osm_id":"5141862981","tag":{"natural":"tree"}},"type":"Feature"},
	{"geometry":{"coordinates":[4.683615,52.473262],"type":"Point"},"properties":{"osm_id":"5141862982","tag":{"natural":"tree"}},"type":"Feature"},
	{"geometry":{"coordinates":[4.683705,52.473831],"type":"Point"},"properties":{"osm_id":"5141862983","tag":{"natural":"tree"}},"type":"Feature"},
	{"geometry":{"coordinates":[4.683713,52.4739],"type":"Point"},"properties":{"osm_id":"5141862984","tag":{"natural":"tree"}},"type":"Feature"},
	{"geometry":{"coordinates":[4.683729,52.473978],"type":"Point"},"properties":{"osm_id":"5141862985","tag":{"natural":"tree"}},"type":"Feature"},
	{"geometry":{"coordinates":[4.683741,52.474056],"type":"Point"},"properties":{"osm_id":"5141862986","tag":{"natural":"tree"}},"type":"Feature"},
	{"geometry":{"coordinates":[4.683025,52.461663],"type":"Point"},"properties":{"osm_id":"5141875888","tag":{"natural":"tree"}},"type":"Feature"},
	{"geometry":{"coordinates":[4.682992,52.461847],"type":"Point"},"properties":{"osm_id":"5141875889","tag":{"natural":"tree"}},"type":"Feature"},
	{"geometry":{"coordinates":[4.682962,52.462242],"type":"Point"},"properties":{"osm_id":"5141875890","tag":{"natural":"tree"}},"type":"Feature"},
	{"geometry":{"coordinates":[4.682936,52.462394],"type":"Point"},"properties":{"osm_id":"5141875891","tag":{"natural":"tree"}},"type":"Feature"},
	{"geometry":{"coordinates":[4.682888,52.463105],"type":"Point"},"properties":{"osm_id":"5141875892","tag":{"natural":"tree"}},"type":"Feature"},
	{"geometry":{"coordinates":[4.682877,52.463222],"type":"Point"},"properties":{"osm_id":"5141875893","tag":{"natural":"tree"}},"type":"Feature"},
	{"geometry":{"coordinates":[4.682871,52.463294],"type":"Point"},"properties":{"osm_id":"5141875894","tag":{"natural":"tree"}},"type":"Feature"},
	{"geometry":{"coordinates":[4.682853,52.463363],"type":"Point"},"properties":{"osm_id":"5141875895","tag":{"natural":"tree"}},"type":"Feature"},
	{"geometry":{"coordinates":[4.682802,52.46372],"type":"Point"},"properties":{"osm_id":"5141875896","tag":{"natural":"tree"}},"type":"Feature"},
	{"geometry":{"coordinates":[4.682794,52.463839],"type":"Point"},"properties":{"osm_id":"5141875897","tag":{"natural":"tree"}},"type":"Feature"},
	{"geometry":{"coordinates":[4.6827,52.464508],"type":"Point"},"properties":{"osm_id":"5141875898","tag":{"natural":"tree"}},"type":"Feature"},
	{"geometry":{"coordinates":[4.682595,52.465481],"type":"Point"},"properties":{"osm_id":"5141875899","tag":{"natural":"tree"}},"type":"Feature"},
	{"geometry":{"coordinates":[4.68258,52.465694],"type":"Point"},"properties":{"osm_id":"5141875900","tag":{"natural":"tree"}},"type":"Feature"},
	{"geometry":{"coordinates":[4.682533,52.465882],"type":"Point"},"properties":{"osm_id":"5141875901","tag":{"natural":"tree"}},"type":"Feature"},
	{"geometry":{"coordinates":[4.682447,52.46662],"type":"Point"},"properties":{"osm_id":"5141875902","tag":{"natural":"tree"}},"type":"Feature"},
	{"geometry":{"coordinates":[4.682412,52.467107],"type":"Point"},"properties":{"osm_id":"5141875903","tag":{"natural":"tree"}},"type":"Feature"},
	{"geometry":{"coordinates":[4.682429,52.468772],"type":"Point"},"properties":{"osm_id":"5141875904","tag":{"natural":"tree"}},"type":"Feature"},
	{"geometry":{"coordinates":[4.682664,52.470071],"type":"Point"},"properties":{"osm_id":"5141875905","tag":{"natural":"tree"}},"type":"Feature"},
	{"geometry":{"coordinates":[4.682737,52.470474],"type":"Point"},"properties":{"osm_id":"5141875906","tag":{"natural":"tree"}},"type":"Feature"},
	{"geometry":{"coordinates":[4.682781,52.470722],"type":"Point"},"properties":{"osm_id":"5141875907","tag":{"natural":"tree"}},"type":"Feature"},
	{"geometry":{"coordinates":[4.682849,52.471036],"type":"Point"},"properties":{"osm_id":"5141875908","tag":{"natural":"tree"}},"type":"Feature"},
	{"geometry":{"coordinates":[4.683057,52.472164],"type":"Point"},"properties":{"osm_id":"5141875909","tag":{"natural":"tree"}},"type":"Feature"},
	{"geometry":{"coordinates":[4.683069,52.472258],"type":"Point"},"properties":{"osm_id":"5141875910","tag":{"natural":"tree"}},"type":"Feature"},
	{"geometry":{"coordinates":[4.683105,52.472453],"type":"Point"},"properties":{"osm_id":"5141875911","tag":{"natural":"tree"}},"type":"Feature"},
	{"geometry":{"coordinates":[4.683119,52.47255],"type":"Point"},"properties":{"osm_id":"5141875912","tag":{"natural":"tree"}},"type":"Feature"},
	{"geometry":{"coordinates":[4.68277,52.468736],"type":"Point"},"properties":{"osm_id":"5143904146","tag":{"natural":"tree"}},"type":"Feature"},
	{"geometry":{"coordinates":[4.682758,52.468658],"type":"Point"},"properties":{"osm_id":"5143904147","tag":{"natural":"tree"}},"type":"Feature"},
	{"geometry":{"coordinates":[4.682751,52.468618],"type":"Point"},"properties":{"osm_id":"5143904148","tag":{"natural":"tree"}},"type":"Feature"},
	{"geometry":{"coordinates":[4.682744,52.468553],"type":"Point"},"properties":{"osm_id":"5143904149","tag":{"natural":"tree"}},"type":"Feature"},
	{"geometry":{"coordinates":[4.682731,52.468491],"type":"Point"},"properties":{"osm_id":"5143904150","tag":{"natural":"tree"}},"type":"Feature"},
	{"geometry":{"coordinates":[4.68272,52.468434],"type":"Point"},"properties":{"osm_id":"5143904151","tag":{"natural":"tree"}},"type":"Feature"},
	{"geometry":{"coordinates":[4.682707,52.468363],"type":"Point"},"properties":{"osm_id":"5143904152","tag":{"natural":"tree"}},"type":"Feature"},
	{"geometry":{"coordinates":[4.682694,52.468296],"type":"Point"},"properties":{"osm_id":"5143904153","tag":{"natural":"tree"}},"type":"Feature"},
	{"geometry":{"coordinates":[4.68269,52.468181],"type":"Point"},"properties":{"osm_id":"5143904154","tag":{"natural":"tree"}},"type":"Feature"},
	{"geometry":{"coordinates":[4.68269,52.46811],"type":"Point"},"properties":{"osm_id":"5143904155","tag":{"natural":"tree"}},"type":"Feature"},
	{"geometry":{"coordinates":[4.682702,52.467985],"type":"Point"},"properties":{"osm_id":"5143904156","tag":{"natural":"tree"}},"type":"Feature"},
	{"geometry":{"coordinates":[4.682701,52.467924],"type":"Point"},"properties":{"osm_id":"5143904157","tag":{"natural":"tree"}},"type":"Feature"},
	{"geometry":{"coordinates":[4.682708,52.467878],"type":"Point"},"properties":{"osm_id":"5143904158","tag":{"natural":"tree"}},"type":"Feature"},
	{"geometry":{"coordinates":[4.682727,52.467814],"type":"Point"},"properties":{"osm_id":"5143904159","tag":{"natural":"tree"}},"type":"Feature"},
	{"geometry":{"coordinates":[4.682733,52.467753],"type":"Point"},"properties":{"osm_id":"5143904160","tag":{"natural":"tree"}},"type":"Feature"},
	{"geometry":{"coordinates":[4.682734,52.46768],"type":"Point"},"properties":{"osm_id":"5143904161","tag":{"natural":"tree"}},"type":"Feature"},
	{"geometry":{"coordinates":[4.682741,52.467597],"type":"Point"},"properties":{"osm_id":"5143904162","tag":{"natural":"tree"}},"type":"Feature"},
	{"geometry":{"coordinates":[4.682745,52.467541],"type":"Point"},"properties":{"osm_id":"5143904163","tag":{"natural":"tree"}},"type":"Feature"},
	{"geometry":{"coordinates":[4.682752,52.467494],"type":"Point"},"properties":{"osm_id":"5143904164","tag":{"natural":"tree"}},"type":"Feature"},
	{"geometry":{"coordinates":[4.682813,52.466895],"type":"Point"},"properties":{"osm_id":"5143904165","tag":{"natural":"tree"}},"type":"Feature"},
	{"geometry":{"coordinates":[4.682759,52.467415],"type":"Point"},"properties":{"osm_id":"5143904166","tag":{"natural":"tree"}},"type":"Feature"},
	{"geometry":{"coordinates":[4.682769,52.46737],"type":"Point"},"properties":{"osm_id":"5143904167","tag":{"natural":"tree"}},"type":"Feature"},
	{"geometry":{"coordinates":[4.682771,52.467324],"type":"Point"},"properties":{"osm_id":"5143904168","tag":{"natural":"tree"}},"type":"Feature"},
	{"geometry":{"coordinates":[4.682775,52.467275],"type":"Point"},"properties":{"osm_id":"5143904169","tag":{"natural":"tree"}},"type":"Feature"},
	{"geometry":{"coordinates":[4.682775,52.467226],"type":"Point"},"properties":{"osm_id":"5143904170","tag":{"natural":"tree"}},"type":"Feature"},
	{"geometry":{"coordinates":[4.682788,52.467118],"type":"Point"},"properties":{"osm_id":"5143904171","tag":{"natural":"tree"}},"type":"Feature"},
	{"geometry":{"coordinates":[4.68279,52.467077],"type":"Point"},"properties":{"osm_id":"5143904172","tag":{"natural":"tree"}},"type":"Feature"},
	{"geometry":{"coordinates":[4.6828,52.467026],"type":"Point"},"properties":{"osm_id":"5143904173","tag":{"natural":"tree"}},"type":"Feature"},
	{"geometry":{"coordinates":[4.6828,52.467002],"type":"Point"},"properties":{"osm_id":"5143904174","tag":{"natural":"tree"}},"type":"Feature"},
	{"geometry":{"coordinates":[4.682806,52.466981],"type":"Point"},"properties":{"osm_id":"5143904175","tag":{"natural":"tree"}},"type":"Feature"},
	{"geometry":{"coordinates":[4.682814,52.46692],"type":"Point"},"properties":{"osm_id":"5143904176","tag":{"natural":"tree"}},"type":"Feature"},
	{"geometry":{"coordinates":[4.682814,52.466849],"type":"Point"},"properties":{"osm_id":"5143904177","tag":{"natural":"tree"}},"type":"Feature"},
	{"geometry":{"coordinates":[4.682824,52.466809],"type":"Point"},"properties":{"osm_id":"5143904178","tag":{"natural":"tree"}},"type":"Feature"},
	{"geometry":{"coordinates":[4.682828,52.466762],"type":"Point"},"properties":{"osm_id":"5143904179","tag":{"natural":"tree"}},"type":"Feature"},
	{"geometry":{"coordinates":[4.682837,52.46672],"type":"Point"},"properties":{"osm_id":"5143904180","tag":{"natural":"tree"}},"type":"Feature"},
	{"geometry":{"coordinates":[4.682854,52.466612],"type":"Point"},"properties":{"osm_id":"5143904181","tag":{"natural":"tree"}},"type":"Feature"},
	{"geometry":{"coordinates":[4.682855,52.466564],"type":"Point"},"properties":{"osm_id":"5143904182","tag":{"natural":"tree"}},"type":"Feature"},
	{"geometry":{"coordinates":[4.682857,52.466511],"type":"Point"},"properties":{"osm_id":"5143904183","tag":{"natural":"tree"}},"type":"Feature"},
	{"geometry":{"coordinates":[4.682866,52.466455],"type":"Point"},"properties":{"osm_id":"5143904184","tag":{"natural":"tree"}},"type":"Feature"},
	{"geometry":{"coordinates":[4.682867,52.466395],"type":"Point"},"properties":{"osm_id":"5143904185","tag":{"natural":"tree"}},"type":"Feature"},
	{"geometry":{"coordinates":[4.682882,52.466303],"type":"Point"},"properties":{"osm_id":"5143904186","tag":{"natural":"tree"}},"type":"Feature"},
	{"geometry":{"coordinates":[4.682883,52.46623],"type":"Point"},"properties":{"osm_id":"5143904187","tag":{"natural":"tree"}},"type":"Feature"},
	{"geometry":{"coordinates":[4.682891,52.466173],"type":"Point"},"properties":{"osm_id":"5143904188","tag":{"natural":"tree"}},"type":"Feature"},
	{"geometry":{"coordinates":[4.682897,52.466117],"type":"Point"},"properties":{"osm_id":"5143904189","tag":{"natural":"tree"}},"type":"Feature"},
	{"geometry":{"coordinates":[4.68291,52.466061],"type":"Point"},"properties":{"osm_id":"5143904190","tag":{"natural":"tree"}},"type":"Feature"},
	{"geometry":{"coordinates":[4.682908,52.466011],"type":"Point"},"properties":{"osm_id":"5143904191","tag":{"natural":"tree"}},"type":"Feature"},
	{"geometry":{"coordinates":[4.682915,52.46596],"type":"Point"},"properties":{"osm_id":"5143904192","tag":{"natural":"tree"}},"type":"Feature"},
	{"geometry":{"coordinates":[4.682925,52.465913],"type":"Point"},"properties":{"osm_id":"5143904193","tag":{"natural":"tree"}},"type":"Feature"},
	{"geometry":{"coordinates":[4.682932,52.465837],"type":"Point"},"properties":{"osm_id":"5143904194","tag":{"natural":"tree"}},"type":"Feature"},
	{"geometry":{"coordinates":[4.682943,52.465776],"type":"Point"},"properties":{"osm_id":"5143904195","tag":{"natural":"tree"}},"type":"Feature"},
	{"geometry":{"coordinates":[4.682948,52.465718],"type":"Point"},"properties":{"osm_id":"5143904196","tag":{"natural":"tree"}},"type":"Feature"},
	{"geometry":{"coordinates":[4.682962,52.465636],"type":"Point"},"properties":{"osm_id":"5143904197","tag":{"natural":"tree"}},"type":"Feature"},
	{"geometry":{"coordinates":[4.682971,52.465564],"type":"Point"},"properties":{"osm_id":"5143904198","tag":{"natural":"tree"}},"type":"Feature"},
	{"geometry":{"coordinates":[4.682969,52.465509],"type":"Point"},"properties":{"osm_id":"5143904199","tag":{"natural":"tree"}},"type":"Feature"},
	{"geometry":{"coordinates":[4.682986,52.46535],"type":"Point"},"properties":{"osm_id":"5143904200","tag":{"natural":"tree"}},"type":"Feature"},
	{"geometry":{"coordinates":[4.682998,52.465284],"type":"Point"},"properties":{"osm_id":"5143904201","tag":{"natural":"tree"}},"type":"Feature"},
	{"geometry":{"coordinates":[4.683009,52.46521],"type":"Point"},"properties":{"osm_id":"5143904202","tag":{"natural":"tree"}},"type":"Feature"},
	{"geometry":{"coordinates":[4.683015,52.465158],"type":"Point"},"properties":{"osm_id":"5143904203","tag":{"natural":"tree"}},"type":"Feature"},
	{"geometry":{"coordinates":[4.683035,52.465006],"type":"Point"},"properties":{"osm_id":"5143904204","tag":{"natural":"tree"}},"type":"Feature"},
	{"geometry":{"coordinates":[4.683057,52.464848],"type":"Point"},"properties":{"osm_id":"5143904205","tag":{"natural":"tree"}},"type":"Feature"},
	{"geometry":{"coordinates":[4.683065,52.464763],"type":"Point"},"properties":{"osm_id":"5143904206","tag":{"natural":"tree"}},"type":"Feature"},
	{"geometry":{"coordinates":[4.683071,52.464696],"type":"Point"},"properties":{"osm_id":"5143904207","tag":{"natural":"tree"}},"type":"Feature"},
	{"geometry":{"coordinates":[4.683081,52.464667],"type":"Point"},"properties":{"osm_id":"5143904208","tag":{"natural":"tree"}},"type":"Feature"},
	{"geometry":{"coordinates":[4.683086,52.464593],"type":"Point"},"properties":{"osm_id":"5143904209","tag":{"natural":"tree"}},"type":"Feature"},
	{"geometry":{"coordinates":[4.683092,52.464535],"type":"Point"},"properties":{"osm_id":"5143904210","tag":{"natural":"tree"}},"type":"Feature"},
	{"geometry":{"coordinates":[4.6831,52.46448],"type":"Point"},"properties":{"osm_id":"5143904211","tag":{"natural":"tree"}},"type":"Feature"},
	{"geometry":{"coordinates":[4.683108,52.464416],"type":"Point"},"properties":{"osm_id":"5143904212","tag":{"natural":"tree"}},"type":"Feature"},
	{"geometry":{"coordinates":[4.683117,52.464353],"type":"Point"},"properties":{"osm_id":"5143904213","tag":{"natural":"tree"}},"type":"Feature"},
	{"geometry":{"coordinates":[4.683119,52.464282],"type":"Point"},"properties":{"osm_id":"5143904214","tag":{"natural":"tree"}},"type":"Feature"},
	{"geometry":{"coordinates":[4.683129,52.464228],"type":"Point"},"properties":{"osm_id":"5143904215","tag":{"natural":"tree"}},"type":"Feature"},
	{"geometry":{"coordinates":[4.683139,52.464147],"type":"Point"},"properties":{"osm_id":"5143904216","tag":{"natural":"tree"}},"type":"Feature"},
	{"geometry":{"coordinates":[4.683145,52.464086],"type":"Point"},"properties":{"osm_id":"5143904217","tag":{"natural":"tree"}},"type":"Feature"},
	{"geometry":{"coordinates":[4.683155,52.464007],"type":"Point"},"properties":{"osm_id":"5143904218","tag":{"natural":"tree"}},"type":"Feature"},
	{"geometry":{"coordinates":[4.683167,52.463937],"type":"Point"},"properties":{"osm_id":"5143904219","tag":{"natural":"tree"}},"type":"Feature"},
	{"geometry":{"coordinates":[4.68414,52.456047],"type":"Point"},"properties":{"osm_id":"5145970768","tag":{"natural":"tree"}},"type":"Feature"},
	{"geometry":{"coordinates":[4.684141,52.456125],"type":"Point"},"properties":{"osm_id":"5145970769","tag":{"natural":"tree"}},"type":"Feature"},
	{"geometry":{"coordinates":[4.68413,52.456201],"type":"Point"},"properties":{"osm_id":"5145970770","tag":{"natural":"tree"}},"type":"Feature"},
	{"geometry":{"coordinates":[4.683613,52.46081],"type":"Point"},"properties":{"osm_id":"5145970771","tag":{"natural":"tree"}},"type":"Feature"},
	{"geometry":{"coordinates":[4.683627,52.460736],"type":"Point"},"properties":{"osm_id":"5145970772","tag":{"natural":"tree"}},"type":"Feature"},
	{"geometry":{"coordinates":[4.683635,52.460671],"type":"Point"},"properties":{"osm_id":"5145970773","tag":{"natural":"tree"}},"type":"Feature"},
	{"geometry":{"coordinates":[4.683639,52.460595],"type":"Point"},"properties":{"osm_id":"5145970774","tag":{"natural":"tree"}},"type":"Feature"},
	{"geometry":{"coordinates":[4.683643,52.460534],"type":"Point"},"properties":{"osm_id":"5145970775","tag":{"natural":"tree"}},"type":"Feature"},
	{"geometry":{"coordinates":[4.683646,52.460466],"type":"Point"},"properties":{"osm_id":"5145970776","tag":{"natural":"tree"}},"type":"Feature"},
	{"geometry":{"coordinates":[4.683656,52.460397],"type":"Point"},"properties":{"osm_id":"5145970777","tag":{"natural":"tree"}},"type":"Feature"},
	{"geometry":{"coordinates":[4.683665,52.460334],"type":"Point"},"properties":{"osm_id":"5145970778","tag":{"natural":"tree"}},"type":"Feature"},
	{"geometry":{"coordinates":[4.683665,52.460265],"type":"Point"},"properties":{"osm_id":"5145970779","tag":{"natural":"tree"}},"type":"Feature"},
	{"geometry":{"coordinates":[4.683668,52.460197],"type":"Point"},"properties":{"osm_id":"5145970780","tag":{"natural":"tree"}},"type":"Feature"},
	{"geometry":{"coordinates":[4.683677,52.46013],"type":"Point"},"properties":{"osm_id":"5145970781","tag":{"natural":"tree"}},"type":"Feature"},
	{"geometry":{"coordinates":[4.68368,52.460058],"type":"Point"},"properties":{"osm_id":"5145970782","tag":{"natural":"tree"}},"type":"Feature"},
	{"geometry":{"coordinates":[4.683689,52.459988],"type":"Point"},"properties":{"osm_id":"5145970783","tag":{"natural":"tree"}},"type":"Feature"},
	{"geometry":{"coordinates":[4.683743,52.459761],"type":"Point"},"properties":{"osm_id":"5145970784","tag":{"natural":"tree"}},"type":"Feature"},
	{"geometry":{"coordinates":[4.683744,52.459686],"type":"Point"},"properties":{"osm_id":"5145970785","tag":{"natural":"tree"}},"type":"Feature"},
	{"geometry":{"coordinates":[4.683741,52.459614],"type":"Point"},"properties":{"osm_id":"5145970786","tag":{"natural":"tree"}},"type":"Feature"},
	{"geometry":{"coordinates":[4.683739,52.459544],"type":"Point"},"properties":{"osm_id":"5145970787","tag":{"natural":"tree"}},"type":"Feature"},
	{"geometry":{"coordinates":[4.683736,52.459473],"type":"Point"},"properties":{"osm_id":"5145970788","tag":{"natural":"tree"}},"type":"Feature"},
	{"geometry":{"coordinates":[4.683744,52.459414],"type":"Point"},"properties":{"osm_id":"5145970789","tag":{"natural":"tree"}},"type":"Feature"},
	{"geometry":{"coordinates":[4.683744,52.459368],"type":"Point"},"properties":{"osm_id":"5145970790","tag":{"natural":"tree"}},"type":"Feature"},
	{"geometry":{"coordinates":[4.683737,52.459276],"type":"Point"},"properties":{"osm_id":"5145970791","tag":{"natural":"tree"}},"type":"Feature"},
	{"geometry":{"coordinates":[4.683785,52.459199],"type":"Point"},"properties":{"osm_id":"5145970792","tag":{"natural":"tree"}},"type":"Feature"},
	{"geometry":{"coordinates":[4.683792,52.459115],"type":"Point"},"properties":{"osm_id":"5145970793","tag":{"natural":"tree"}},"type":"Feature"},
	{"geometry":{"coordinates":[4.683791,52.459042],"type":"Point"},"properties":{"osm_id":"5145970794","tag":{"natural":"tree"}},"type":"Feature"},
	{"geometry":{"coordinates":[4.683798,52.458982],"type":"Point"},"properties":{"osm_id":"5145970795","tag":{"natural":"tree"}},"type":"Feature"},
	{"geometry":{"coordinates":[4.683816,52.458897],"type":"Point"},"properties":{"osm_id":"5145970796","tag":{"natural":"tree"}},"type":"Feature"},
	{"geometry":{"coordinates":[4.683817,52.45882],"type":"Point"},"properties":{"osm_id":"5145970797","tag":{"natural":"tree"}},"type":"Feature"},
	{"geometry":{"coordinates":[4.68383,52.458726],"type":"Point"},"properties":{"osm_id":"5145970798","tag":{"natural":"tree"}},"type":"Feature"},
	{"geometry":{"coordinates":[4.683839,52.458631],"type":"Point"},"properties":{"osm_id":"5145970799","tag":{"natural":"tree"}},"type":"Feature"},
	{"geometry":{"coordinates":[4.683856,52.458526],"type":"Point"},"properties":{"osm_id":"5145970800","tag":{"natural":"tree"}},"type":"Feature"},
	{"geometry":{"coordinates":[4.68385,52.458468],"type":"Point"},"properties":{"osm_id":"5145970801","tag":{"natural":"tree"}},"type":"Feature"},
	{"geometry":{"coordinates":[4.683855,52.458396],"type":"Point"},"properties":{"osm_id":"5145970802","tag":{"natural":"tree"}},"type":"Feature"},
	{"geometry":{"coordinates":[4.683904,52.458101],"type":"Point"},"properties":{"osm_id":"5145970803","tag":{"natural":"tree"}},"type":"Feature"},
	{"geometry":{"coordinates":[4.683912,52.458021],"type":"Point"},"properties":{"osm_id":"5145970804","tag":{"natural":"tree"}},"type":"Feature"},
	{"geometry":{"coordinates":[4.683914,52.457952],"type":"Point"},"properties":{"osm_id":"5145970805","tag":{"natural":"tree"}},"type":"Feature"},
	{"geometry":{"coordinates":[4.684064,52.456405],"type":"Point"},"properties":{"osm_id":"5145970808","tag":{"natural":"tree"}},"type":"Feature"},
	{"geometry":{"coordinates":[4.684076,52.456459],"type":"Point"},"properties":{"osm_id":"5145970809","tag":{"natural":"tree"}},"type":"Feature"},
	{"geometry":{"coordinates":[4.684075,52.456528],"type":"Point"},"properties":{"osm_id":"5145970810","tag":{"natural":"tree"}},"type":"Feature"},
	{"geometry":{"coordinates":[4.684074,52.456607],"type":"Point"},"properties":{"osm_id":"5145970811","tag":{"natural":"tree"}},"type":"Feature"},
	{"geometry":{"coordinates":[4.683993,52.457013],"type":"Point"},"properties":{"osm_id":"5145970812","tag":{"natural":"tree"}},"type":"Feature"},
	{"geometry":{"coordinates":[4.684061,52.456678],"type":"Point"},"properties":{"osm_id":"5145970813","tag":{"natural":"tree"}},"type":"Feature"},
	{"geometry":{"coordinates":[4.684047,52.456747],"type":"Point"},"properties":{"osm_id":"5145970814","tag":{"natural":"tree"}},"type":"Feature"},
	{"geometry":{"coordinates":[4.684049,52.456819],"type":"Point"},"properties":{"osm_id":"5145970815","tag":{"natural":"tree"}},"type":"Feature"},
	{"geometry":{"coordinates":[4.684039,52.456888],"type":"Point"},"properties":{"osm_id":"5145970816","tag":{"natural":"tree"}},"type":"Feature"},
	{"geometry":{"coordinates":[4.683997,52.457138],"type":"Point"},"properties":{"osm_id":"5145970817","tag":{"natural":"tree"}},"type":"Feature"},
	{"geometry":{"coordinates":[4.683998,52.457204],"type":"Point"},"properties":{"osm_id":"5145970818","tag":{"natural":"tree"}},"type":"Feature"},
	{"geometry":{"coordinates":[4.683973,52.457341],"type":"Point"},"properties":{"osm_id":"5145970819","tag":{"natural":"tree"}},"type":"Feature"},
	{"geometry":{"coordinates":[4.683959,52.457487],"type":"Point"},"properties":{"osm_id":"5145970820","tag":{"natural":"tree"}},"type":"Feature"},
	{"geometry":{"coordinates":[4.68395,52.45756],"type":"Point"},"properties":{"osm_id":"5145971721","tag":{"natural":"tree"}},"type":"Feature"},
	{"geometry":{"coordinates":[4.68394,52.457637],"type":"Point"},"properties":{"osm_id":"5145971722","tag":{"natural":"tree"}},"type":"Feature"},
	{"geometry":{"coordinates":[4.683938,52.457709],"type":"Point"},"properties":{"osm_id":"5145971723","tag":{"natural":"tree"}},"type":"Feature"},
	{"geometry":{"coordinates":[4.683944,52.457778],"type":"Point"},"properties":{"osm_id":"5145971724","tag":{"natural":"tree"}},"type":"Feature"},
	{"geometry":{"coordinates":[4.683436,52.462481],"type":"Point"},"properties":{"osm_id":"5146041448","tag":{"natural":"tree"}},"type":"Feature"},
	{"geometry":{"coordinates":[4.683449,52.462404],"type":"Point"},"properties":{"osm_id":"5146041449","tag":{"natural":"tree"}},"type":"Feature"},
	{"geometry":{"coordinates":[4.683457,52.462336],"type":"Point"},"properties":{"osm_id":"5146041450","tag":{"natural":"tree"}},"type":"Feature"},
	{"geometry":{"coordinates":[4.683465,52.462266],"type":"Point"},"properties":{"osm_id":"5146041451","tag":{"natural":"tree"}},"type":"Feature"},
	{"geometry":{"coordinates":[4.683473,52.462198],"type":"Point"},"properties":{"osm_id":"5146041452","tag":{"natural":"tree"}},"type":"Feature"},
	{"geometry":{"coordinates":[4.683485,52.462122],"type":"Point"},"properties":{"osm_id":"5146041453","tag":{"natural":"tree"}},"type":"Feature"},
	{"geometry":{"coordinates":[4.683498,52.462046],"type":"Point"},"properties":{"osm_id":"5146041454","tag":{"natural":"tree"}},"type":"Feature"},
	{"geometry":{"coordinates":[4.683505,52.461892],"type":"Point"},"properties":{"osm_id":"5146041455","tag":{"natural":"tree"}},"type":"Feature"},
	{"geometry":{"coordinates":[4.683512,52.461825],"type":"Point"},"properties":{"osm_id":"5146041456","tag":{"natural":"tree"}},"type":"Feature"},
	{"geometry":{"coordinates":[4.683516,52.46175],"type":"Point"},"properties":{"osm_id":"5146041457","tag":{"natural":"tree"}},"type":"Feature"},
	{"geometry":{"coordinates":[4.683524,52.461676],"type":"Point"},"properties":{"osm_id":"5146041458","tag":{"natural":"tree"}},"type":"Feature"},
	{"geometry":{"coordinates":[4.683533,52.461613],"type":"Point"},"properties":{"osm_id":"5146041459","tag":{"natural":"tree"}},"type":"Feature"},
	{"geometry":{"coordinates":[4.683542,52.461533],"type":"Point"},"properties":{"osm_id":"5146041460","tag":{"natural":"tree"}},"type":"Feature"},
	{"geometry":{"coordinates":[4.683549,52.461465],"type":"Point"},"properties":{"osm_id":"5146041461","tag":{"natural":"tree"}},"type":"Feature"},
	{"geometry":{"coordinates":[4.683557,52.461385],"type":"Point"},"properties":{"osm_id":"5146041462","tag":{"natural":"tree"}},"type":"Feature"},
	{"geometry":{"coordinates":[4.683568,52.461316],"type":"Point"},"properties":{"osm_id":"5146041463","tag":{"natural":"tree"}},"type":"Feature"},
	{"geometry":{"coordinates":[4.683572,52.461239],"type":"Point"},"properties":{"osm_id":"5146041464","tag":{"natural":"tree"}},"type":"Feature"},
	{"geometry":{"coordinates":[4.683578,52.461171],"type":"Point"},"properties":{"osm_id":"5146041465","tag":{"natural":"tree"}},"type":"Feature"},
	{"geometry":{"coordinates":[4.68358,52.461102],"type":"Point"},"properties":{"osm_id":"5146041466","tag":{"natural":"tree"}},"type":"Feature"},
	{"geometry":{"coordinates":[4.683589,52.461035],"type":"Point"},"properties":{"osm_id":"5146041467","tag":{"natural":"tree"}},"type":"Feature"},
	{"geometry":{"coordinates":[4.683599,52.460968],"type":"Point"},"properties":{"osm_id":"5146041468","tag":{"natural":"tree"}},"type":"Feature"},
	{"geometry":{"coordinates":[4.683076,52.470407],"type":"Point"},"properties":{"osm_id":"5148379552","tag":{"natural":"tree"}},"type":"Feature"},
	{"geometry":{"coordinates":[4.682931,52.46963],"type":"Point"},"properties":{"osm_id":"5148379553","tag":{"natural":"tree"}},"type":"Feature"},
	{"geometry":{"coordinates":[4.682952,52.469688],"type":"Point"},"properties":{"osm_id":"5148379554","tag":{"natural":"tree"}},"type":"Feature"},
	{"geometry":{"coordinates":[4.682966,52.46974],"type":"Point"},"properties":{"osm_id":"5148379555","tag":{"natural":"tree"}},"type":"Feature"},
	{"geometry":{"coordinates":[4.682975,52.469864],"type":"Point"},"properties":{"osm_id":"5148379556","tag":{"natural":"tree"}},"type":"Feature"},
	{"geometry":{"coordinates":[4.682988,52.469914],"type":"Point"},"properties":{"osm_id":"5148379557","tag":{"natural":"tree"}},"type":"Feature"},
	{"geometry":{"coordinates":[4.682995,52.469964],"type":"Point"},"properties":{"osm_id":"5148379558","tag":{"natural":"tree"}},"type":"Feature"},
	{"geometry":{"coordinates":[4.683014,52.470028],"type":"Point"},"properties":{"osm_id":"5148379559","tag":{"natural":"tree"}},"type":"Feature"},
	{"geometry":{"coordinates":[4.683026,52.470077],"type":"Point"},"properties":{"osm_id":"5148379560","tag":{"natural":"tree"}},"type":"Feature"},
	{"geometry":{"coordinates":[4.683033,52.470118],"type":"Point"},"properties":{"osm_id":"5148379561","tag":{"natural":"tree"}},"type":"Feature"},
	{"geometry":{"coordinates":[4.683035,52.470165],"type":"Point"},"properties":{"osm_id":"5148379562","tag":{"natural":"tree"}},"type":"Feature"},
	{"geometry":{"coordinates":[4.683053,52.470215],"type":"Point"},"properties":{"osm_id":"5148379563","tag":{"natural":"tree"}},"type":"Feature"},
	{"geometry":{"coordinates":[4.683059,52.470292],"type":"Point"},"properties":{"osm_id":"5148379564","tag":{"natural":"tree"}},"type":"Feature"},
	{"geometry":{"coordinates":[4.683063,52.47035],"type":"Point"},"properties":{"osm_id":"5148379565","tag":{"natural":"tree"}},"type":"Feature"},
	{"geometry":{"coordinates":[4.683084,52.470471],"type":"Point"},"properties":{"osm_id":"5148379566","tag":{"natural":"tree"}},"type":"Feature"},
	{"geometry":{"coordinates":[4.683102,52.470545],"type":"Point"},"properties":{"osm_id":"5148379567","tag":{"natural":"tree"}},"type":"Feature"},
	{"geometry":{"coordinates":[4.683117,52.470616],"type":"Point"},"properties":{"osm_id":"5148379568","tag":{"natural":"tree"}},"type":"Feature"},
	{"geometry":{"coordinates":[4.683135,52.470684],"type":"Point"},"properties":{"osm_id":"5148379569","tag":{"natural":"tree"}},"type":"Feature"},
	{"geometry":{"coordinates":[4.683143,52.470762],"type":"Point"},"properties":{"osm_id":"5148379570","tag":{"natural":"tree"}},"type":"Feature"},
	{"geometry":{"coordinates":[4.683157,52.470834],"type":"Point"},"properties":{"osm_id":"5148379571","tag":{"natural":"tree"}},"type":"Feature"},
	{"geometry":{"coordinates":[4.683177,52.470905],"type":"Point"},"properties":{"osm_id":"5148379572","tag":{"natural":"tree"}},"type":"Feature"},
	{"geometry":{"coordinates":[4.683192,52.47096],"type":"Point"},"properties":{"osm_id":"5148379573","tag":{"natural":"tree"}},"type":"Feature"},
	{"geometry":{"coordinates":[4.683213,52.471029],"type":"Point"},"properties":{"osm_id":"5148379574","tag":{"natural":"tree"}},"type":"Feature"},
	{"geometry":{"coordinates":[4.683222,52.471146],"type":"Point"},"properties":{"osm_id":"5148379575","tag":{"natural":"tree"}},"type":"Feature"},
	{"geometry":{"coordinates":[4.683222,52.471185],"type":"Point"},"properties":{"osm_id":"5148379576","tag":{"natural":"tree"}},"type":"Feature"},
	{"geometry":{"coordinates":[4.683235,52.471245],"type":"Point"},"properties":{"osm_id":"5148379577","tag":{"natural":"tree"}},"type":"Feature"},
	{"geometry":{"coordinates":[4.683248,52.47131],"type":"Point"},"properties":{"osm_id":"5148379578","tag":{"natural":"tree"}},"type":"Feature"},
	{"geometry":{"coordinates":[4.683259,52.471371],"type":"Point"},"properties":{"osm_id":"5148379579","tag":{"natural":"tree"}},"type":"Feature"},
	{"geometry":{"coordinates":[4.683278,52.471451],"type":"Point"},"properties":{"osm_id":"5148379580","tag":{"natural":"tree"}},"type":"Feature"},
	{"geometry":{"coordinates":[4.683283,52.471503],"type":"Point"},"properties":{"osm_id":"5148379581","tag":{"natural":"tree"}},"type":"Feature"},
	{"geometry":{"coordinates":[4.683292,52.471577],"type":"Point"},"properties":{"osm_id":"5148379582","tag":{"natural":"tree"}},"type":"Feature"},
	{"geometry":{"coordinates":[4.683304,52.471647],"type":"Point"},"properties":{"osm_id":"5148379583","tag":{"natural":"tree"}},"type":"Feature"},
	{"geometry":{"coordinates":[4.683324,52.47172],"type":"Point"},"properties":{"osm_id":"5148379584","tag":{"natural":"tree"}},"type":"Feature"},
	{"geometry":{"coordinates":[4.683342,52.471801],"type":"Point"},"properties":{"osm_id":"5148379585","tag":{"natural":"tree"}},"type":"Feature"},
	{"geometry":{"coordinates":[4.683362,52.471862],"type":"Point"},"properties":{"osm_id":"5148379586","tag":{"natural":"tree"}},"type":"Feature"},
	{"geometry":{"coordinates":[4.683383,52.471958],"type":"Point"},"properties":{"osm_id":"5148379587","tag":{"natural":"tree"}},"type":"Feature"},
	{"geometry":{"coordinates":[4.6834,52.472024],"type":"Point"},"properties":{"osm_id":"5148379588","tag":{"natural":"tree"}},"type":"Feature"},
	{"geometry":{"coordinates":[4.683489,52.471907],"type":"Point"},"properties":{"osm_id":"5148379589","tag":{"natural":"tree"}},"type":"Feature"},
	{"geometry":{"coordinates":[4.683454,52.471793],"type":"Point"},"properties":{"osm_id":"5148379590","tag":{"natural":"tree"}},"type":"Feature"},
	{"geometry":{"coordinates":[4.683442,52.471717],"type":"Point"},"properties":{"osm_id":"5148379591","tag":{"natural":"tree"}},"type":"Feature"},
	{"geometry":{"coordinates":[4.683432,52.471649],"type":"Point"},"properties":{"osm_id":"5148379592","tag":{"natural":"tree"}},"type":"Feature"},
	{"geometry":{"coordinates":[4.683424,52.471588],"type":"Point"},"properties":{"osm_id":"5148379593","tag":{"natural":"tree"}},"type":"Feature"},
	{"geometry":{"coordinates":[4.683416,52.471519],"type":"Point"},"properties":{"osm_id":"5148379594","tag":{"natural":"tree"}},"type":"Feature"},
	{"geometry":{"coordinates":[4.683401,52.471447],"type":"Point"},"properties":{"osm_id":"5148379595","tag":{"natural":"tree"}},"type":"Feature"},
	{"geometry":{"coordinates":[4.683391,52.471381],"type":"Point"},"properties":{"osm_id":"5148379596","tag":{"natural":"tree"}},"type":"Feature"},
	{"geometry":{"coordinates":[4.683371,52.471309],"type":"Point"},"properties":{"osm_id":"5148379597","tag":{"natural":"tree"}},"type":"Feature"},
	{"geometry":{"coordinates":[4.683338,52.471152],"type":"Point"},"properties":{"osm_id":"5148379598","tag":{"natural":"tree"}},"type":"Feature"},
	{"geometry":{"coordinates":[4.683318,52.471073],"type":"Point"},"properties":{"osm_id":"5148379599","tag":{"natural":"tree"}},"type":"Feature"},
	{"geometry":{"coordinates":[4.683299,52.471004],"type":"Point"},"properties":{"osm_id":"5148379600","tag":{"natural":"tree"}},"type":"Feature"},
	{"geometry":{"coordinates":[4.683295,52.470928],"type":"Point"},"properties":{"osm_id":"5148379601","tag":{"natural":"tree"}},"type":"Feature"},
	{"geometry":{"coordinates":[4.683279,52.470854],"type":"Point"},"properties":{"osm_id":"5148379602","tag":{"natural":"tree"}},"type":"Feature"},
	{"geometry":{"coordinates":[4.683267,52.470788],"type":"Point"},"properties":{"osm_id":"5148379603","tag":{"natural":"tree"}},"type":"Feature"},
	{"geometry":{"coordinates":[4.683259,52.470717],"type":"Point"},"properties":{"osm_id":"5148379604","tag":{"natural":"tree"}},"type":"Feature"},
	{"geometry":{"coordinates":[4.683251,52.470655],"type":"Point"},"properties":{"osm_id":"5148379605","tag":{"natural":"tree"}},"type":"Feature"},
	{"geometry":{"coordinates":[4.683208,52.470437],"type":"Point"},"properties":{"osm_id":"5148379606","tag":{"natural":"tree"}},"type":"Feature"},
	{"geometry":{"coordinates":[4.683204,52.470367],"type":"Point"},"properties":{"osm_id":"5148379607","tag":{"natural":"tree"}},"type":"Feature"},
	{"geometry":{"coordinates":[4.683181,52.470237],"type":"Point"},"properties":{"osm_id":"5148379608","tag":{"natural":"tree"}},"type":"Feature"},
	{"geometry":{"coordinates":[4.683144,52.470018],"type":"Point"},"properties":{"osm_id":"5148379609","tag":{"natural":"tree"}},"type":"Feature"},
	{"geometry":{"coordinates":[4.683128,52.469947],"type":"Point"},"properties":{"osm_id":"5148379610","tag":{"natural":"tree"}},"type":"Feature"},
	{"geometry":{"coordinates":[4.683108,52.469883],"type":"Point"},"properties":{"osm_id":"5148379611","tag":{"natural":"tree"}},"type":"Feature"},
	{"geometry":{"coordinates":[4.683092,52.469816],"type":"Point"},"properties":{"osm_id":"5148379612","tag":{"natural":"tree"}},"type":"Feature"},
	{"geometry":{"coordinates":[4.683058,52.469674],"type":"Point"},"properties":{"osm_id":"5148379613","tag":{"natural":"tree"}},"type":"Feature"},
	{"geometry":{"coordinates":[4.683046,52.469607],"type":"Point"},"properties":{"osm_id":"5148379614","tag":{"natural":"tree"}},"type":"Feature"},
	{"geometry":{"coordinates":[4.683035,52.469534],"type":"Point"},"properties":{"osm_id":"5148379615","tag":{"natural":"tree"}},"type":"Feature"},
	{"geometry":{"coordinates":[4.683002,52.46933],"type":"Point"},"properties":{"osm_id":"5148379616","tag":{"natural":"tree"}},"type":"Feature"},
	{"geometry":{"coordinates":[4.683,52.477018],"type":"Point"},"properties":{"osm_id":"5150022187","tag":{"natural":"tree"}},"type":"Feature"},
	{"geometry":{"coordinates":[4.661082,52.43236],"type":"Point"},"properties":{"osm_id":"5308354038","tag":{"natural":"tree"}},"type":"Feature"},
	{"geometry":{"coordinates":[4.660669,52.432399],"type":"Point"},"properties":{"osm_id":"5308354039","tag":{"natural":"tree"}},"type":"Feature"},
	{"geometry":{"coordinates":[4.660995,52.432459],"type":"Point"},"properties":{"osm_id":"5308354040","tag":{"natural":"tree"}},"type":"Feature"},
	{"geometry":{"coordinates":[4.660904,52.432498],"type":"Point"},"properties":{"osm_id":"5308354041","tag":{"natural":"tree"}},"type":"Feature"},
	{"geometry":{"coordinates":[4.660832,52.432648],"type":"Point"},"properties":{"osm_id":"5308354042","tag":{"natural":"tree"}},"type":"Feature"},
	{"geometry":{"coordinates":[4.6645,52.430507],"type":"Point"},"properties":{"osm_id":"5309040871","tag":{"natural":"tree"}},"type":"Feature"},
	{"geometry":{"coordinates":[4.664223,52.430302],"type":"Point"},"properties":{"osm_id":"5309040872","tag":{"natural":"tree"}},"type":"Feature"},
	{"geometry":{"coordinates":[4.664203,52.430177],"type":"Point"},"properties":{"osm_id":"5309040873","tag":{"natural":"tree"}},"type":"Feature"},
	{"geometry":{"coordinates":[4.663992,52.430308],"type":"Point"},"properties":{"osm_id":"5309040874","tag":{"natural":"tree"}},"type":"Feature"},
	{"geometry":{"coordinates":[4.661867,52.432484],"type":"Point"},"properties":{"osm_id":"5309040885","tag":{"natural":"tree"}},"type":"Feature"},
	{"geometry":{"coordinates":[4.661811,52.432428],"type":"Point"},"properties":{"osm_id":"5309040886","tag":{"natural":"tree"}},"type":"Feature"},
	{"geometry":{"coordinates":[4.661804,52.432506],"type":"Point"},"properties":{"osm_id":"5309040887","tag":{"natural":"tree"}},"type":"Feature"},
	{"geometry":{"coordinates":[4.661972,52.431214],"type":"Point"},"properties":{"osm_id":"5309042768","tag":{"natural":"tree"}},"type":"Feature"},
	{"geometry":{"coordinates":[4.662055,52.431399],"type":"Point"},"properties":{"osm_id":"5309042769","tag":{"natural":"tree"}},"type":"Feature"},
	{"geometry":{"coordinates":[4.6619,52.431489],"type":"Point"},"properties":{"osm_id":"5309042770","tag":{"natural":"tree"}},"type":"Feature"},
	{"geometry":{"coordinates":[4.661017,52.432044],"type":"Point"},"properties":{"osm_id":"5309042771","tag":{"natural":"tree"}},"type":"Feature"},
	{"geometry":{"coordinates":[4.722475,52.449443],"type":"Point"},"properties":{"osm_id":"9068685277","tag":{"natural":"tree"}},"type":"Feature"}
]
}
