{
"type": "FeatureCollection",
"features": [
	{"geometry":{"coordinates":[-1.937023,42.900202],"type":"Point"},"properties":{"name":"Ira\u00c3\u00b1eta 1, haritza","osm_id":"3948932729","tag":{"denotation":"natural_monument","height":"28","name:es":"Roble de Ira\u00c3\u00b1eta 2","name:eu":"Ira\u00c3\u00b1eta 1, haritza","natural":"tree","source:date":"2009-12-01","species":"Quercus robur L. x Quercus humilis Mill."}},"type":"Feature"},
	{"geometry":{"coordinates":[-1.937011,42.900296],"type":"Point"},"properties":{"name":"Ira\u00c3\u00b1eta 2, haritza","osm_id":"3948932730","tag":{"denotation":"natural_monument","name:es":"Roble de Ira\u00c3\u00b1eta 2","name:eu":"Ira\u00c3\u00b1eta 2, haritza","natural":"tree","source:date":"2009-12-01","species":"Quercus robur L. x Quercus humilis Mill."}},"type":"Feature"},
	{"geometry":{"coordinates":[-1.936662,42.900736],"type":"Point"},"properties":{"name":"Ira\u00c3\u00b1eta 3, haritza","osm_id":"3948932731","tag":{"denotation":"natural_monument","height":"19","name:es":"Roble de Ira\u00c3\u00b1eta 3","name:eu":"Ira\u00c3\u00b1eta 3, haritza","natural":"tree","source:date":"2009-12-01","species":"Quercus robur L. x Quercus humilis Mill."}},"type":"Feature"},
	{"geometry":{"coordinates":[-1.937407,42.900865],"type":"Point"},"properties":{"name":"Ira\u00c3\u00b1eta 4, haritza","osm_id":"3948932732","tag":{"denotation":"natural_monument","height":"31","name:es":"Roble de Ira\u00c3\u00b1eta 4","name:eu":"Ira\u00c3\u00b1eta 4, haritza","natural":"tree","source:date":"2009-12-01","species":"Quercus robur L. x Quercus humilis Mill."}},"type":"Feature"},
	{"geometry":{"coordinates":[-1.93743,42.901009],"type":"Point"},"properties":{"name":"Ira\u00c3\u00b1eta 5, haritza","osm_id":"3948932733","tag":{"denotation":"natural_monument","name:es":"Roble de Ira\u00c3\u00b1eta 5","name:eu":"Ira\u00c3\u00b1eta 5, haritza","natural":"tree","source:date":"2009-12-01","species":"Quercus robur L. x Quercus humilis Mill."}},"type":"Feature"},
	{"geometry":{"coordinates":[-1.969217,42.92015],"type":"Point"},"properties":{"osm_id":"4602336326","tag":{"natural":"tree"}},"type":"Feature"},
	{"geometry":{"coordinates":[-1.969308,42.920171],"type":"Point"},"properties":{"osm_id":"4602336327","tag":{"natural":"tree"}},"type":"Feature"},
	{"geometry":{"coordinates":[-1.969408,42.920195],"type":"Point"},"properties":{"osm_id":"4602336328","tag":{"natural":"tree"}},"type":"Feature"},
	{"geometry":{"coordinates":[-1.969195,42.920055],"type":"Point"},"properties":{"osm_id":"4602336329","tag":{"natural":"tree"}},"type":"Feature"},
	{"geometry":{"coordinates":[-1.969263,42.92007],"type":"Point"},"properties":{"osm_id":"4602336330","tag":{"natural":"tree"}},"type":"Feature"},
	{"geometry":{"coordinates":[-1.969329,42.920085],"type":"Point"},"properties":{"osm_id":"4602336331","tag":{"natural":"tree"}},"type":"Feature"},
	{"geometry":{"coordinates":[-1.969388,42.920098],"type":"Point"},"properties":{"osm_id":"4602336332","tag":{"natural":"tree"}},"type":"Feature"},
	{"geometry":{"coordinates":[-1.968985,42.920008],"type":"Point"},"properties":{"osm_id":"4602336333","tag":{"natural":"tree"}},"type":"Feature"},
	{"geometry":{"coordinates":[-1.969057,42.920024],"type":"Point"},"properties":{"osm_id":"4602336334","tag":{"natural":"tree"}},"type":"Feature"},
	{"geometry":{"coordinates":[-1.969474,42.920117],"type":"Point"},"properties":{"osm_id":"4602336335","tag":{"natural":"tree"}},"type":"Feature"},
	{"geometry":{"coordinates":[-1.96912,42.920038],"type":"Point"},"properties":{"osm_id":"4602336336","tag":{"natural":"tree"}},"type":"Feature"},
	{"geometry":{"coordinates":[-1.969021,42.919921],"type":"Point"},"properties":{"osm_id":"4602336337","tag":{"natural":"tree"}},"type":"Feature"},
	{"geometry":{"coordinates":[-1.969093,42.919937],"type":"Point"},"properties":{"osm_id":"4602336338","tag":{"natural":"tree"}},"type":"Feature"},
	{"geometry":{"coordinates":[-1.969156,42.919952],"type":"Point"},"properties":{"osm_id":"4602336339","tag":{"natural":"tree"}},"type":"Feature"},
	{"geometry":{"coordinates":[-1.969231,42.919968],"type":"Point"},"properties":{"osm_id":"4602336340","tag":{"natural":"tree"}},"type":"Feature"},
	{"geometry":{"coordinates":[-1.969299,42.919984],"type":"Point"},"properties":{"osm_id":"4602336341","tag":{"natural":"tree"}},"type":"Feature"},
	{"geometry":{"coordinates":[-1.969365,42.919998],"type":"Point"},"properties":{"osm_id":"4602336342","tag":{"natural":"tree"}},"type":"Feature"},
	{"geometry":{"coordinates":[-1.969424,42.920012],"type":"Point"},"properties":{"osm_id":"4602336343","tag":{"natural":"tree"}},"type":"Feature"},
	{"geometry":{"coordinates":[-1.96951,42.920031],"type":"Point"},"properties":{"osm_id":"4602336344","tag":{"natural":"tree"}},"type":"Feature"}
]
}
