{
"type": "FeatureCollection",
"features": [
	{"geometry":{"coordinates":[-49.268028,-25.420748],"type":"Point"},"properties":{"name":"Tuna","osm_id":"3589576712","tag":{"addr:city":"Curitiba","addr:housenumber":"396","addr:postcode":"80530-000","addr:street":"Rua Heitor Stockler de Fran\u00c3\u00a7a","addr:suburb":"Centro C\u00c3\u00advico","amenity":"restaurant","cuisine":"japanese","natural":"tree","phone":"+55 41 3532 5002","smoking":"no","website":"https://www.tunarestaurante.com.br/"}},"type":"Feature"},
	{"geometry":{"coordinates":[-49.277258,-25.464854],"type":"Point"},"properties":{"osm_id":"3600731271","tag":{"natural":"tree"}},"type":"Feature"},
	{"geometry":{"coordinates":[-49.27726,-25.464801],"type":"Point"},"properties":{"osm_id":"3600731272","tag":{"natural":"tree"}},"type":"Feature"},
	{"geometry":{"coordinates":[-49.277282,-25.46475],"type":"Point"},"properties":{"osm_id":"3600731273","tag":{"natural":"tree"}},"type":"Feature"},
	{"geometry":{"coordinates":[-49.277377,-25.46478],"type":"Point"},"properties":{"osm_id":"3600731274","tag":{"natural":"tree"}},"type":"Feature"},
	{"geometry":{"coordinates":[-49.277172,-25.464796],"type":"Point"},"properties":{"osm_id":"3600731275","tag":{"natural":"tree"}},"type":"Feature"},
	{"geometry":{"coordinates":[-49.277195,-25.464729],"type":"Point"},"properties":{"osm_id":"3600731276","tag":{"natural":"tree"}},"type":"Feature"},
	{"geometry":{"coordinates":[-49.277235,-25.464674],"type":"Point"},"properties":{"osm_id":"3600731277","tag":{"natural":"tree"}},"type":"Feature"},
	{"geometry":{"coordinates":[-49.277098,-25.464817],"type":"Point"},"properties":{"osm_id":"3600731278","tag":{"natural":"tree"}},"type":"Feature"},
	{"geometry":{"coordinates":[-49.277615,-25.464965],"type":"Point"},"properties":{"osm_id":"3600731279","tag":{"natural":"tree"}},"type":"Feature"},
	{"geometry":{"coordinates":[-49.277469,-25.465135],"type":"Point"},"properties":{"osm_id":"3600731280","tag":{"natural":"tree"}},"type":"Feature"},
	{"geometry":{"coordinates":[-49.27775,-25.465527],"type":"Point"},"properties":{"osm_id":"3600731281","tag":{"natural":"tree"}},"type":"Feature"},
	{"geometry":{"coordinates":[-49.278363,-25.465527],"type":"Point"},"properties":{"osm_id":"3600731282","tag":{"natural":"tree"}},"type":"Feature"},
	{"geometry":{"coordinates":[-49.278478,-25.465589],"type":"Point"},"properties":{"osm_id":"3600731283","tag":{"natural":"tree"}},"type":"Feature"},
	{"geometry":{"coordinates":[-49.278356,-25.465631],"type":"Point"},"properties":{"osm_id":"3600731284","tag":{"natural":"tree"}},"type":"Feature"},
	{"geometry":{"coordinates":[-49.27828,-25.465675],"type":"Point"},"properties":{"osm_id":"3600731285","tag":{"natural":"tree"}},"type":"Feature"},
	{"geometry":{"coordinates":[-49.278027,-25.465288],"type":"Point"},"properties":{"osm_id":"3600731286","tag":{"natural":"tree"}},"type":"Feature"},
	{"geometry":{"coordinates":[-49.278032,-25.465433],"type":"Point"},"properties":{"osm_id":"3600731287","tag":{"natural":"tree"}},"type":"Feature"},
	{"geometry":{"coordinates":[-49.277924,-25.46552],"type":"Point"},"properties":{"osm_id":"3600731288","tag":{"natural":"tree"}},"type":"Feature"},
	{"geometry":{"coordinates":[-49.277859,-25.465499],"type":"Point"},"properties":{"osm_id":"3600731289","tag":{"natural":"tree"}},"type":"Feature"},
	{"geometry":{"coordinates":[-49.277753,-25.465368],"type":"Point"},"properties":{"osm_id":"3600731290","tag":{"natural":"tree"}},"type":"Feature"},
	{"geometry":{"coordinates":[-49.27793,-25.465212],"type":"Point"},"properties":{"osm_id":"3600731291","tag":{"natural":"tree"}},"type":"Feature"},
	{"geometry":{"coordinates":[-49.277868,-25.465124],"type":"Point"},"properties":{"osm_id":"3600731292","tag":{"natural":"tree"}},"type":"Feature"},
	{"geometry":{"coordinates":[-49.277809,-25.465093],"type":"Point"},"properties":{"osm_id":"3600731793","tag":{"natural":"tree"}},"type":"Feature"},
	{"geometry":{"coordinates":[-49.277771,-25.465043],"type":"Point"},"properties":{"osm_id":"3600731794","tag":{"natural":"tree"}},"type":"Feature"},
	{"geometry":{"coordinates":[-49.277854,-25.46568],"type":"Point"},"properties":{"osm_id":"3600731795","tag":{"natural":"tree"}},"type":"Feature"},
	{"geometry":{"coordinates":[-49.268647,-25.418905],"type":"Point"},"properties":{"osm_id":"3605009865","tag":{"natural":"tree"}},"type":"Feature"},
	{"geometry":{"coordinates":[-49.298195,-25.480753],"type":"Point"},"properties":{"osm_id":"3610720142","tag":{"natural":"tree"}},"type":"Feature"},
	{"geometry":{"coordinates":[-49.298026,-25.480758],"type":"Point"},"properties":{"osm_id":"3610720143","tag":{"natural":"tree"}},"type":"Feature"},
	{"geometry":{"coordinates":[-49.297905,-25.480738],"type":"Point"},"properties":{"osm_id":"3610720144","tag":{"natural":"tree"}},"type":"Feature"},
	{"geometry":{"coordinates":[-49.298581,-25.48076],"type":"Point"},"properties":{"osm_id":"3610720146","tag":{"natural":"tree"}},"type":"Feature"},
	{"geometry":{"coordinates":[-49.298648,-25.480881],"type":"Point"},"properties":{"osm_id":"3610720149","tag":{"natural":"tree"}},"type":"Feature"},
	{"geometry":{"coordinates":[-49.298549,-25.480886],"type":"Point"},"properties":{"osm_id":"3610720154","tag":{"natural":"tree"}},"type":"Feature"},
	{"geometry":{"coordinates":[-49.274025,-25.42757],"type":"Point"},"properties":{"osm_id":"3611061795","tag":{"leaf_type":"needleleaved","natural":"tree"}},"type":"Feature"},
	{"geometry":{"coordinates":[-49.274027,-25.427516],"type":"Point"},"properties":{"osm_id":"3611061797","tag":{"leaf_type":"needleleaved","natural":"tree"}},"type":"Feature"},
	{"geometry":{"coordinates":[-49.274022,-25.427473],"type":"Point"},"properties":{"osm_id":"3611061798","tag":{"leaf_type":"needleleaved","natural":"tree"}},"type":"Feature"},
	{"geometry":{"coordinates":[-49.274219,-25.427596],"type":"Point"},"properties":{"osm_id":"3611061799","tag":{"leaf_type":"needleleaved","natural":"tree"}},"type":"Feature"},
	{"geometry":{"coordinates":[-49.27432,-25.427606],"type":"Point"},"properties":{"osm_id":"3611061801","tag":{"leaf_type":"broadleaved","natural":"tree"}},"type":"Feature"},
	{"geometry":{"coordinates":[-49.227824,-25.45551],"type":"Point"},"properties":{"osm_id":"3615227098","tag":{"natural":"tree"}},"type":"Feature"},
	{"geometry":{"coordinates":[-49.268311,-25.422763],"type":"Point"},"properties":{"osm_id":"3615427464","tag":{"denotation":"natural_monument","leaf_type":"broadleaved","natural":"tree"}},"type":"Feature"},
	{"geometry":{"coordinates":[-49.288723,-25.440637],"type":"Point"},"properties":{"osm_id":"3616494927","tag":{"leaf_type":"broadleaved","natural":"tree"}},"type":"Feature"},
	{"geometry":{"coordinates":[-49.23191,-25.442047],"type":"Point"},"properties":{"osm_id":"3618053957","tag":{"natural":"tree"}},"type":"Feature"},
	{"geometry":{"coordinates":[-49.229992,-25.454898],"type":"Point"},"properties":{"osm_id":"3656021200","tag":{"natural":"tree"}},"type":"Feature"},
	{"geometry":{"coordinates":[-49.229438,-25.455112],"type":"Point"},"properties":{"osm_id":"3656021201","tag":{"natural":"tree"}},"type":"Feature"},
	{"geometry":{"coordinates":[-49.227749,-25.45534],"type":"Point"},"properties":{"osm_id":"3656021202","tag":{"natural":"tree"}},"type":"Feature"},
	{"geometry":{"coordinates":[-49.228579,-25.455447],"type":"Point"},"properties":{"osm_id":"3656021203","tag":{"natural":"tree"}},"type":"Feature"},
	{"geometry":{"coordinates":[-49.228458,-25.455522],"type":"Point"},"properties":{"osm_id":"3656021204","tag":{"natural":"tree"}},"type":"Feature"},
	{"geometry":{"coordinates":[-49.228895,-25.455522],"type":"Point"},"properties":{"osm_id":"3656021205","tag":{"natural":"tree"}},"type":"Feature"},
	{"geometry":{"coordinates":[-49.228944,-25.455609],"type":"Point"},"properties":{"osm_id":"3656021206","tag":{"natural":"tree"}},"type":"Feature"},
	{"geometry":{"coordinates":[-49.228969,-25.455684],"type":"Point"},"properties":{"osm_id":"3656021207","tag":{"natural":"tree"}},"type":"Feature"},
	{"geometry":{"coordinates":[-49.228963,-25.455986],"type":"Point"},"properties":{"osm_id":"3656021208","tag":{"natural":"tree"}},"type":"Feature"},
	{"geometry":{"coordinates":[-49.230722,-25.447868],"type":"Point"},"properties":{"osm_id":"3798310121","tag":{"natural":"tree"}},"type":"Feature"},
	{"geometry":{"coordinates":[-49.230667,-25.44791],"type":"Point"},"properties":{"osm_id":"3798310122","tag":{"natural":"tree"}},"type":"Feature"},
	{"geometry":{"coordinates":[-49.230527,-25.447974],"type":"Point"},"properties":{"osm_id":"3798310123","tag":{"natural":"tree"}},"type":"Feature"},
	{"geometry":{"coordinates":[-49.231102,-25.447975],"type":"Point"},"properties":{"osm_id":"3798310124","tag":{"natural":"tree"}},"type":"Feature"},
	{"geometry":{"coordinates":[-49.230506,-25.447997],"type":"Point"},"properties":{"osm_id":"3798310125","tag":{"natural":"tree"}},"type":"Feature"},
	{"geometry":{"coordinates":[-49.230428,-25.448077],"type":"Point"},"properties":{"osm_id":"3798310127","tag":{"natural":"tree"}},"type":"Feature"},
	{"geometry":{"coordinates":[-49.230374,-25.44813],"type":"Point"},"properties":{"osm_id":"3798310131","tag":{"natural":"tree"}},"type":"Feature"},
	{"geometry":{"coordinates":[-49.231168,-25.44815],"type":"Point"},"properties":{"osm_id":"3798310134","tag":{"natural":"tree"}},"type":"Feature"},
	{"geometry":{"coordinates":[-49.230577,-25.448175],"type":"Point"},"properties":{"osm_id":"3798310135","tag":{"natural":"tree"}},"type":"Feature"},
	{"geometry":{"coordinates":[-49.230329,-25.448179],"type":"Point"},"properties":{"osm_id":"3798310136","tag":{"natural":"tree"}},"type":"Feature"},
	{"geometry":{"coordinates":[-49.23119,-25.448189],"type":"Point"},"properties":{"osm_id":"3798310137","tag":{"natural":"tree"}},"type":"Feature"},
	{"geometry":{"coordinates":[-49.230676,-25.448208],"type":"Point"},"properties":{"osm_id":"3798310138","tag":{"natural":"tree"}},"type":"Feature"},
	{"geometry":{"coordinates":[-49.231217,-25.448229],"type":"Point"},"properties":{"osm_id":"3798310139","tag":{"natural":"tree"}},"type":"Feature"},
	{"geometry":{"coordinates":[-49.230303,-25.448237],"type":"Point"},"properties":{"osm_id":"3798310140","tag":{"natural":"tree"}},"type":"Feature"},
	{"geometry":{"coordinates":[-49.230752,-25.448242],"type":"Point"},"properties":{"osm_id":"3798310141","tag":{"natural":"tree"}},"type":"Feature"},
	{"geometry":{"coordinates":[-49.230299,-25.448257],"type":"Point"},"properties":{"osm_id":"3798310142","tag":{"natural":"tree"}},"type":"Feature"},
	{"geometry":{"coordinates":[-49.231235,-25.448262],"type":"Point"},"properties":{"osm_id":"3798310143","tag":{"natural":"tree"}},"type":"Feature"},
	{"geometry":{"coordinates":[-49.230432,-25.448317],"type":"Point"},"properties":{"osm_id":"3798310144","tag":{"natural":"tree"}},"type":"Feature"},
	{"geometry":{"coordinates":[-49.230303,-25.44832],"type":"Point"},"properties":{"osm_id":"3798310145","tag":{"natural":"tree"}},"type":"Feature"},
	{"geometry":{"coordinates":[-49.231286,-25.448333],"type":"Point"},"properties":{"osm_id":"3798310146","tag":{"natural":"tree"}},"type":"Feature"},
	{"geometry":{"coordinates":[-49.230648,-25.448338],"type":"Point"},"properties":{"osm_id":"3798310147","tag":{"natural":"tree"}},"type":"Feature"},
	{"geometry":{"coordinates":[-49.230436,-25.448372],"type":"Point"},"properties":{"osm_id":"3798310148","tag":{"natural":"tree"}},"type":"Feature"},
	{"geometry":{"coordinates":[-49.231322,-25.44838],"type":"Point"},"properties":{"osm_id":"3798310150","tag":{"natural":"tree"}},"type":"Feature"},
	{"geometry":{"coordinates":[-49.230328,-25.448395],"type":"Point"},"properties":{"osm_id":"3798310151","tag":{"natural":"tree"}},"type":"Feature"},
	{"geometry":{"coordinates":[-49.23137,-25.448443],"type":"Point"},"properties":{"osm_id":"3798310153","tag":{"natural":"tree"}},"type":"Feature"},
	{"geometry":{"coordinates":[-49.230525,-25.448453],"type":"Point"},"properties":{"osm_id":"3798310154","tag":{"natural":"tree"}},"type":"Feature"},
	{"geometry":{"coordinates":[-49.231429,-25.448494],"type":"Point"},"properties":{"osm_id":"3798310357","tag":{"natural":"tree"}},"type":"Feature"},
	{"geometry":{"coordinates":[-49.231491,-25.448565],"type":"Point"},"properties":{"osm_id":"3798310362","tag":{"natural":"tree"}},"type":"Feature"},
	{"geometry":{"coordinates":[-49.230376,-25.448572],"type":"Point"},"properties":{"osm_id":"3798310363","tag":{"natural":"tree"}},"type":"Feature"},
	{"geometry":{"coordinates":[-49.231556,-25.448615],"type":"Point"},"properties":{"osm_id":"3798310368","tag":{"natural":"tree"}},"type":"Feature"},
	{"geometry":{"coordinates":[-49.231333,-25.448632],"type":"Point"},"properties":{"osm_id":"3798310371","tag":{"natural":"tree"}},"type":"Feature"},
	{"geometry":{"coordinates":[-49.230415,-25.448656],"type":"Point"},"properties":{"osm_id":"3798310374","tag":{"natural":"tree"}},"type":"Feature"},
	{"geometry":{"coordinates":[-49.231158,-25.448651],"type":"Point"},"properties":{"name":"Amora","osm_id":"3798310377","tag":{"natural":"tree"}},"type":"Feature"},
	{"geometry":{"coordinates":[-49.231628,-25.448668],"type":"Point"},"properties":{"osm_id":"3798310378","tag":{"natural":"tree"}},"type":"Feature"},
	{"geometry":{"coordinates":[-49.231773,-25.448778],"type":"Point"},"properties":{"osm_id":"3798310383","tag":{"natural":"tree"}},"type":"Feature"},
	{"geometry":{"coordinates":[-49.231732,-25.448758],"type":"Point"},"properties":{"osm_id":"3798310385","tag":{"natural":"tree"}},"type":"Feature"},
	{"geometry":{"coordinates":[-49.230461,-25.448773],"type":"Point"},"properties":{"osm_id":"3798310388","tag":{"natural":"tree"}},"type":"Feature"},
	{"geometry":{"coordinates":[-49.231836,-25.448813],"type":"Point"},"properties":{"osm_id":"3798310389","tag":{"natural":"tree"}},"type":"Feature"},
	{"geometry":{"coordinates":[-49.230726,-25.448826],"type":"Point"},"properties":{"osm_id":"3798310392","tag":{"natural":"tree"}},"type":"Feature"},
	{"geometry":{"coordinates":[-49.23073,-25.448883],"type":"Point"},"properties":{"osm_id":"3798310396","tag":{"natural":"tree"}},"type":"Feature"},
	{"geometry":{"coordinates":[-49.230568,-25.448989],"type":"Point"},"properties":{"osm_id":"3798310405","tag":{"natural":"tree"}},"type":"Feature"},
	{"geometry":{"coordinates":[-49.231086,-25.448991],"type":"Point"},"properties":{"osm_id":"3798310406","tag":{"natural":"tree"}},"type":"Feature"},
	{"geometry":{"coordinates":[-49.230265,-25.449017],"type":"Point"},"properties":{"osm_id":"3798310407","tag":{"natural":"tree"}},"type":"Feature"},
	{"geometry":{"coordinates":[-49.230301,-25.449023],"type":"Point"},"properties":{"osm_id":"3798310409","tag":{"natural":"tree"}},"type":"Feature"},
	{"geometry":{"coordinates":[-49.230244,-25.449067],"type":"Point"},"properties":{"osm_id":"3798310411","tag":{"natural":"tree"}},"type":"Feature"},
	{"geometry":{"coordinates":[-49.231428,-25.449063],"type":"Point"},"properties":{"osm_id":"3798310412","tag":{"natural":"tree"}},"type":"Feature"},
	{"geometry":{"coordinates":[-49.230462,-25.449284],"type":"Point"},"properties":{"osm_id":"3798310420","tag":{"natural":"tree"}},"type":"Feature"},
	{"geometry":{"coordinates":[-49.232197,-25.44943],"type":"Point"},"properties":{"osm_id":"3798310426","tag":{"natural":"tree"}},"type":"Feature"},
	{"geometry":{"coordinates":[-49.232045,-25.449522],"type":"Point"},"properties":{"osm_id":"3798310428","tag":{"natural":"tree"}},"type":"Feature"},
	{"geometry":{"coordinates":[-49.232214,-25.449535],"type":"Point"},"properties":{"osm_id":"3798310430","tag":{"natural":"tree"}},"type":"Feature"},
	{"geometry":{"coordinates":[-49.231997,-25.449593],"type":"Point"},"properties":{"osm_id":"3798310432","tag":{"natural":"tree"}},"type":"Feature"},
	{"geometry":{"coordinates":[-49.23208,-25.449588],"type":"Point"},"properties":{"osm_id":"3798310434","tag":{"natural":"tree"}},"type":"Feature"},
	{"geometry":{"coordinates":[-49.231347,-25.449776],"type":"Point"},"properties":{"osm_id":"3798310441","tag":{"natural":"tree"}},"type":"Feature"},
	{"geometry":{"coordinates":[-49.231409,-25.449808],"type":"Point"},"properties":{"osm_id":"3798310443","tag":{"natural":"tree"}},"type":"Feature"},
	{"geometry":{"coordinates":[-49.232644,-25.450077],"type":"Point"},"properties":{"osm_id":"3798310452","tag":{"natural":"tree"}},"type":"Feature"},
	{"geometry":{"coordinates":[-49.232698,-25.450148],"type":"Point"},"properties":{"osm_id":"3798310454","tag":{"natural":"tree"}},"type":"Feature"},
	{"geometry":{"coordinates":[-49.232717,-25.450291],"type":"Point"},"properties":{"osm_id":"3798310456","tag":{"natural":"tree"}},"type":"Feature"},
	{"geometry":{"coordinates":[-49.232024,-25.450808],"type":"Point"},"properties":{"osm_id":"3798310665","tag":{"natural":"tree"}},"type":"Feature"},
	{"geometry":{"coordinates":[-49.23159,-25.450918],"type":"Point"},"properties":{"osm_id":"3798310666","tag":{"natural":"tree"}},"type":"Feature"},
	{"geometry":{"coordinates":[-49.231955,-25.45105],"type":"Point"},"properties":{"osm_id":"3798310668","tag":{"natural":"tree"}},"type":"Feature"},
	{"geometry":{"coordinates":[-49.231813,-25.451119],"type":"Point"},"properties":{"osm_id":"3798310669","tag":{"natural":"tree"}},"type":"Feature"},
	{"geometry":{"coordinates":[-49.231895,-25.451231],"type":"Point"},"properties":{"osm_id":"3798310672","tag":{"natural":"tree"}},"type":"Feature"},
	{"geometry":{"coordinates":[-49.23344,-25.451258],"type":"Point"},"properties":{"osm_id":"3798310674","tag":{"natural":"tree"}},"type":"Feature"},
	{"geometry":{"coordinates":[-49.233837,-25.451287],"type":"Point"},"properties":{"osm_id":"3798310675","tag":{"natural":"tree"}},"type":"Feature"},
	{"geometry":{"coordinates":[-49.2323,-25.451344],"type":"Point"},"properties":{"osm_id":"3798310678","tag":{"natural":"tree"}},"type":"Feature"},
	{"geometry":{"coordinates":[-49.231862,-25.451277],"type":"Point"},"properties":{"osm_id":"3798310679","tag":{"natural":"tree"}},"type":"Feature"},
	{"geometry":{"coordinates":[-49.231801,-25.451367],"type":"Point"},"properties":{"osm_id":"3798310680","tag":{"natural":"tree"}},"type":"Feature"},
	{"geometry":{"coordinates":[-49.232487,-25.451467],"type":"Point"},"properties":{"osm_id":"3798310681","tag":{"natural":"tree"}},"type":"Feature"},
	{"geometry":{"coordinates":[-49.231525,-25.451492],"type":"Point"},"properties":{"osm_id":"3798310682","tag":{"natural":"tree"}},"type":"Feature"},
	{"geometry":{"coordinates":[-49.231559,-25.451554],"type":"Point"},"properties":{"osm_id":"3798310684","tag":{"natural":"tree"}},"type":"Feature"},
	{"geometry":{"coordinates":[-49.231895,-25.451566],"type":"Point"},"properties":{"osm_id":"3798310685","tag":{"natural":"tree"}},"type":"Feature"},
	{"geometry":{"coordinates":[-49.232357,-25.451596],"type":"Point"},"properties":{"osm_id":"3798310686","tag":{"natural":"tree"}},"type":"Feature"},
	{"geometry":{"coordinates":[-49.233217,-25.45165],"type":"Point"},"properties":{"osm_id":"3798310687","tag":{"natural":"tree"}},"type":"Feature"},
	{"geometry":{"coordinates":[-49.232201,-25.451646],"type":"Point"},"properties":{"osm_id":"3798310690","tag":{"natural":"tree"}},"type":"Feature"},
	{"geometry":{"coordinates":[-49.231604,-25.451646],"type":"Point"},"properties":{"osm_id":"3798310691","tag":{"natural":"tree"}},"type":"Feature"},
	{"geometry":{"coordinates":[-49.233285,-25.45169],"type":"Point"},"properties":{"osm_id":"3798310693","tag":{"natural":"tree"}},"type":"Feature"},
	{"geometry":{"coordinates":[-49.231973,-25.451702],"type":"Point"},"properties":{"osm_id":"3798310694","tag":{"natural":"tree"}},"type":"Feature"},
	{"geometry":{"coordinates":[-49.232961,-25.451703],"type":"Point"},"properties":{"osm_id":"3798310695","tag":{"natural":"tree"}},"type":"Feature"},
	{"geometry":{"coordinates":[-49.232291,-25.451709],"type":"Point"},"properties":{"osm_id":"3798310696","tag":{"natural":"tree"}},"type":"Feature"},
	{"geometry":{"coordinates":[-49.231663,-25.451744],"type":"Point"},"properties":{"osm_id":"3798310699","tag":{"natural":"tree"}},"type":"Feature"},
	{"geometry":{"coordinates":[-49.232756,-25.451764],"type":"Point"},"properties":{"osm_id":"3798310701","tag":{"natural":"tree"}},"type":"Feature"},
	{"geometry":{"coordinates":[-49.232134,-25.451774],"type":"Point"},"properties":{"osm_id":"3798310703","tag":{"natural":"tree"}},"type":"Feature"},
	{"geometry":{"coordinates":[-49.232017,-25.451787],"type":"Point"},"properties":{"osm_id":"3798310704","tag":{"natural":"tree"}},"type":"Feature"},
	{"geometry":{"coordinates":[-49.233541,-25.451893],"type":"Point"},"properties":{"osm_id":"3798310709","tag":{"natural":"tree"}},"type":"Feature"},
	{"geometry":{"coordinates":[-49.232179,-25.451874],"type":"Point"},"properties":{"osm_id":"3798310711","tag":{"natural":"tree"}},"type":"Feature"},
	{"geometry":{"coordinates":[-49.232043,-25.451935],"type":"Point"},"properties":{"osm_id":"3798310713","tag":{"natural":"tree"}},"type":"Feature"},
	{"geometry":{"coordinates":[-49.232238,-25.451999],"type":"Point"},"properties":{"osm_id":"3798310715","tag":{"natural":"tree"}},"type":"Feature"},
	{"geometry":{"coordinates":[-49.232223,-25.452284],"type":"Point"},"properties":{"osm_id":"3798310717","tag":{"natural":"tree"}},"type":"Feature"},
	{"geometry":{"coordinates":[-49.232717,-25.452337],"type":"Point"},"properties":{"osm_id":"3798310718","tag":{"natural":"tree"}},"type":"Feature"},
	{"geometry":{"coordinates":[-49.232625,-25.452371],"type":"Point"},"properties":{"osm_id":"3798310719","tag":{"natural":"tree"}},"type":"Feature"},
	{"geometry":{"coordinates":[-49.231808,-25.452458],"type":"Point"},"properties":{"osm_id":"3798310720","tag":{"natural":"tree"}},"type":"Feature"},
	{"geometry":{"coordinates":[-49.232446,-25.452463],"type":"Point"},"properties":{"osm_id":"3798310721","tag":{"natural":"tree"}},"type":"Feature"},
	{"geometry":{"coordinates":[-49.231962,-25.452472],"type":"Point"},"properties":{"osm_id":"3798310722","tag":{"natural":"tree"}},"type":"Feature"},
	{"geometry":{"coordinates":[-49.23232,-25.452518],"type":"Point"},"properties":{"osm_id":"3798310723","tag":{"natural":"tree"}},"type":"Feature"},
	{"geometry":{"coordinates":[-49.231854,-25.452521],"type":"Point"},"properties":{"osm_id":"3798310724","tag":{"natural":"tree"}},"type":"Feature"},
	{"geometry":{"coordinates":[-49.231979,-25.452524],"type":"Point"},"properties":{"osm_id":"3798310725","tag":{"natural":"tree"}},"type":"Feature"},
	{"geometry":{"coordinates":[-49.232491,-25.452528],"type":"Point"},"properties":{"osm_id":"3798310726","tag":{"natural":"tree"}},"type":"Feature"},
	{"geometry":{"coordinates":[-49.232757,-25.452563],"type":"Point"},"properties":{"osm_id":"3798310727","tag":{"natural":"tree"}},"type":"Feature"},
	{"geometry":{"coordinates":[-49.232357,-25.452578],"type":"Point"},"properties":{"osm_id":"3798310728","tag":{"natural":"tree"}},"type":"Feature"},
	{"geometry":{"coordinates":[-49.231937,-25.452633],"type":"Point"},"properties":{"osm_id":"3798310729","tag":{"natural":"tree"}},"type":"Feature"},
	{"geometry":{"coordinates":[-49.232533,-25.452646],"type":"Point"},"properties":{"osm_id":"3798310730","tag":{"natural":"tree"}},"type":"Feature"},
	{"geometry":{"coordinates":[-49.232407,-25.452705],"type":"Point"},"properties":{"osm_id":"3798310731","tag":{"natural":"tree"}},"type":"Feature"},
	{"geometry":{"coordinates":[-49.23156,-25.452735],"type":"Point"},"properties":{"osm_id":"3798310732","tag":{"natural":"tree"}},"type":"Feature"},
	{"geometry":{"coordinates":[-49.232255,-25.45284],"type":"Point"},"properties":{"osm_id":"3798310733","tag":{"natural":"tree"}},"type":"Feature"},
	{"geometry":{"coordinates":[-49.232086,-25.452867],"type":"Point"},"properties":{"osm_id":"3798310734","tag":{"natural":"tree"}},"type":"Feature"},
	{"geometry":{"coordinates":[-49.232878,-25.453016],"type":"Point"},"properties":{"osm_id":"3798310735","tag":{"natural":"tree"}},"type":"Feature"},
	{"geometry":{"coordinates":[-49.232933,-25.453018],"type":"Point"},"properties":{"osm_id":"3798310736","tag":{"natural":"tree"}},"type":"Feature"},
	{"geometry":{"coordinates":[-49.232756,-25.45307],"type":"Point"},"properties":{"osm_id":"3798310737","tag":{"natural":"tree"}},"type":"Feature"},
	{"geometry":{"coordinates":[-49.231974,-25.45308],"type":"Point"},"properties":{"osm_id":"3798310738","tag":{"natural":"tree"}},"type":"Feature"},
	{"geometry":{"coordinates":[-49.232101,-25.453142],"type":"Point"},"properties":{"osm_id":"3798310739","tag":{"natural":"tree"}},"type":"Feature"},
	{"geometry":{"coordinates":[-49.232867,-25.453197],"type":"Point"},"properties":{"osm_id":"3798310740","tag":{"natural":"tree"}},"type":"Feature"},
	{"geometry":{"coordinates":[-49.233576,-25.446935],"type":"Point"},"properties":{"osm_id":"3799344896","tag":{"natural":"tree"}},"type":"Feature"},
	{"geometry":{"coordinates":[-49.233097,-25.446991],"type":"Point"},"properties":{"osm_id":"3799344897","tag":{"natural":"tree"}},"type":"Feature"},
	{"geometry":{"coordinates":[-49.233644,-25.447027],"type":"Point"},"properties":{"osm_id":"3799344898","tag":{"natural":"tree"}},"type":"Feature"},
	{"geometry":{"coordinates":[-49.23314,-25.44707],"type":"Point"},"properties":{"osm_id":"3799344899","tag":{"natural":"tree"}},"type":"Feature"},
	{"geometry":{"coordinates":[-49.233707,-25.447148],"type":"Point"},"properties":{"osm_id":"3799344900","tag":{"natural":"tree"}},"type":"Feature"},
	{"geometry":{"coordinates":[-49.2335,-25.44726],"type":"Point"},"properties":{"osm_id":"3799344901","tag":{"natural":"tree"}},"type":"Feature"},
	{"geometry":{"coordinates":[-49.233753,-25.447277],"type":"Point"},"properties":{"osm_id":"3799344902","tag":{"natural":"tree"}},"type":"Feature"},
	{"geometry":{"coordinates":[-49.231256,-25.447378],"type":"Point"},"properties":{"osm_id":"3799344903","tag":{"natural":"tree"}},"type":"Feature"},
	{"geometry":{"coordinates":[-49.233773,-25.447419],"type":"Point"},"properties":{"osm_id":"3799344904","tag":{"natural":"tree"}},"type":"Feature"},
	{"geometry":{"coordinates":[-49.231237,-25.447501],"type":"Point"},"properties":{"osm_id":"3799344905","tag":{"natural":"tree"}},"type":"Feature"},
	{"geometry":{"coordinates":[-49.230774,-25.447543],"type":"Point"},"properties":{"osm_id":"3799344906","tag":{"natural":"tree"}},"type":"Feature"},
	{"geometry":{"coordinates":[-49.233801,-25.447553],"type":"Point"},"properties":{"osm_id":"3799344907","tag":{"natural":"tree"}},"type":"Feature"},
	{"geometry":{"coordinates":[-49.233393,-25.447592],"type":"Point"},"properties":{"osm_id":"3799344908","tag":{"natural":"tree"}},"type":"Feature"},
	{"geometry":{"coordinates":[-49.233539,-25.447592],"type":"Point"},"properties":{"osm_id":"3799344909","tag":{"natural":"tree"}},"type":"Feature"},
	{"geometry":{"coordinates":[-49.230911,-25.447609],"type":"Point"},"properties":{"osm_id":"3799344910","tag":{"natural":"tree"}},"type":"Feature"},
	{"geometry":{"coordinates":[-49.233769,-25.447672],"type":"Point"},"properties":{"osm_id":"3799344911","tag":{"natural":"tree"}},"type":"Feature"},
	{"geometry":{"coordinates":[-49.230643,-25.447691],"type":"Point"},"properties":{"osm_id":"3799344912","tag":{"natural":"tree"}},"type":"Feature"},
	{"geometry":{"coordinates":[-49.23216,-25.447737],"type":"Point"},"properties":{"osm_id":"3799344913","tag":{"natural":"tree"}},"type":"Feature"},
	{"geometry":{"coordinates":[-49.233449,-25.447737],"type":"Point"},"properties":{"osm_id":"3799344914","tag":{"natural":"tree"}},"type":"Feature"},
	{"geometry":{"coordinates":[-49.233698,-25.447862],"type":"Point"},"properties":{"osm_id":"3799344915","tag":{"natural":"tree"}},"type":"Feature"},
	{"geometry":{"coordinates":[-49.233546,-25.447819],"type":"Point"},"properties":{"osm_id":"3799344916","tag":{"natural":"tree"}},"type":"Feature"},
	{"geometry":{"coordinates":[-49.232669,-25.447835],"type":"Point"},"properties":{"osm_id":"3799344917","tag":{"natural":"tree"}},"type":"Feature"},
	{"geometry":{"coordinates":[-49.233465,-25.44786],"type":"Point"},"properties":{"osm_id":"3799344918","tag":{"natural":"tree"}},"type":"Feature"},
	{"geometry":{"coordinates":[-49.23248,-25.44791],"type":"Point"},"properties":{"osm_id":"3799344920","tag":{"natural":"tree"}},"type":"Feature"},
	{"geometry":{"coordinates":[-49.233398,-25.447912],"type":"Point"},"properties":{"osm_id":"3799344921","tag":{"natural":"tree"}},"type":"Feature"},
	{"geometry":{"coordinates":[-49.231331,-25.447979],"type":"Point"},"properties":{"osm_id":"3799344923","tag":{"natural":"tree"}},"type":"Feature"},
	{"geometry":{"coordinates":[-49.233402,-25.448032],"type":"Point"},"properties":{"osm_id":"3799344924","tag":{"natural":"tree"}},"type":"Feature"},
	{"geometry":{"coordinates":[-49.23233,-25.448068],"type":"Point"},"properties":{"osm_id":"3799344925","tag":{"natural":"tree"}},"type":"Feature"},
	{"geometry":{"coordinates":[-49.233535,-25.448072],"type":"Point"},"properties":{"osm_id":"3799344926","tag":{"natural":"tree"}},"type":"Feature"},
	{"geometry":{"coordinates":[-49.232091,-25.448082],"type":"Point"},"properties":{"osm_id":"3799344927","tag":{"natural":"tree"}},"type":"Feature"},
	{"geometry":{"coordinates":[-49.233288,-25.448133],"type":"Point"},"properties":{"osm_id":"3799344930","tag":{"natural":"tree"}},"type":"Feature"},
	{"geometry":{"coordinates":[-49.232159,-25.448142],"type":"Point"},"properties":{"osm_id":"3799344931","tag":{"natural":"tree"}},"type":"Feature"},
	{"geometry":{"coordinates":[-49.232242,-25.448185],"type":"Point"},"properties":{"osm_id":"3799344932","tag":{"natural":"tree"}},"type":"Feature"},
	{"geometry":{"coordinates":[-49.233412,-25.448211],"type":"Point"},"properties":{"osm_id":"3799344934","tag":{"natural":"tree"}},"type":"Feature"},
	{"geometry":{"coordinates":[-49.23232,-25.448222],"type":"Point"},"properties":{"osm_id":"3799344935","tag":{"natural":"tree"}},"type":"Feature"},
	{"geometry":{"coordinates":[-49.232406,-25.44825],"type":"Point"},"properties":{"osm_id":"3799344936","tag":{"natural":"tree"}},"type":"Feature"},
	{"geometry":{"coordinates":[-49.232509,-25.448274],"type":"Point"},"properties":{"osm_id":"3799344937","tag":{"natural":"tree"}},"type":"Feature"},
	{"geometry":{"coordinates":[-49.233281,-25.448282],"type":"Point"},"properties":{"osm_id":"3799344938","tag":{"natural":"tree"}},"type":"Feature"},
	{"geometry":{"coordinates":[-49.233195,-25.448323],"type":"Point"},"properties":{"osm_id":"3799344939","tag":{"natural":"tree"}},"type":"Feature"},
	{"geometry":{"coordinates":[-49.233136,-25.448358],"type":"Point"},"properties":{"osm_id":"3799344940","tag":{"natural":"tree"}},"type":"Feature"},
	{"geometry":{"coordinates":[-49.233053,-25.44839],"type":"Point"},"properties":{"osm_id":"3799344941","tag":{"natural":"tree"}},"type":"Feature"},
	{"geometry":{"coordinates":[-49.232077,-25.448447],"type":"Point"},"properties":{"osm_id":"3799344942","tag":{"natural":"tree"}},"type":"Feature"},
	{"geometry":{"coordinates":[-49.232978,-25.448454],"type":"Point"},"properties":{"osm_id":"3799344943","tag":{"natural":"tree"}},"type":"Feature"},
	{"geometry":{"coordinates":[-49.232413,-25.448457],"type":"Point"},"properties":{"osm_id":"3799344944","tag":{"natural":"tree"}},"type":"Feature"},
	{"geometry":{"coordinates":[-49.232575,-25.448464],"type":"Point"},"properties":{"osm_id":"3799344945","tag":{"natural":"tree"}},"type":"Feature"},
	{"geometry":{"coordinates":[-49.231687,-25.44849],"type":"Point"},"properties":{"osm_id":"3799344947","tag":{"natural":"tree"}},"type":"Feature"},
	{"geometry":{"coordinates":[-49.231853,-25.448586],"type":"Point"},"properties":{"osm_id":"3799344949","tag":{"natural":"tree"}},"type":"Feature"},
	{"geometry":{"coordinates":[-49.232652,-25.448599],"type":"Point"},"properties":{"osm_id":"3799344950","tag":{"natural":"tree"}},"type":"Feature"},
	{"geometry":{"coordinates":[-49.232357,-25.448764],"type":"Point"},"properties":{"osm_id":"3799344952","tag":{"natural":"tree"}},"type":"Feature"},
	{"geometry":{"coordinates":[-49.232842,-25.44898],"type":"Point"},"properties":{"osm_id":"3799345260","tag":{"natural":"tree"}},"type":"Feature"},
	{"geometry":{"coordinates":[-49.233304,-25.449205],"type":"Point"},"properties":{"osm_id":"3799345269","tag":{"natural":"tree"}},"type":"Feature"},
	{"geometry":{"coordinates":[-49.23477,-25.44936],"type":"Point"},"properties":{"osm_id":"3799345273","tag":{"natural":"tree"}},"type":"Feature"},
	{"geometry":{"coordinates":[-49.2339,-25.44944],"type":"Point"},"properties":{"osm_id":"3799345278","tag":{"natural":"tree"}},"type":"Feature"},
	{"geometry":{"coordinates":[-49.233322,-25.449446],"type":"Point"},"properties":{"osm_id":"3799345279","tag":{"natural":"tree"}},"type":"Feature"},
	{"geometry":{"coordinates":[-49.233391,-25.44949],"type":"Point"},"properties":{"osm_id":"3799345282","tag":{"natural":"tree"}},"type":"Feature"},
	{"geometry":{"coordinates":[-49.233076,-25.449548],"type":"Point"},"properties":{"osm_id":"3799345288","tag":{"natural":"tree"}},"type":"Feature"},
	{"geometry":{"coordinates":[-49.234882,-25.449707],"type":"Point"},"properties":{"osm_id":"3799345303","tag":{"natural":"tree"}},"type":"Feature"},
	{"geometry":{"coordinates":[-49.2356,-25.449858],"type":"Point"},"properties":{"osm_id":"3799345331","tag":{"natural":"tree"}},"type":"Feature"},
	{"geometry":{"coordinates":[-49.232539,-25.449883],"type":"Point"},"properties":{"osm_id":"3799345334","tag":{"natural":"tree"}},"type":"Feature"},
	{"geometry":{"coordinates":[-49.235278,-25.449887],"type":"Point"},"properties":{"osm_id":"3799345336","tag":{"natural":"tree"}},"type":"Feature"},
	{"geometry":{"coordinates":[-49.235766,-25.449918],"type":"Point"},"properties":{"osm_id":"3799345338","tag":{"natural":"tree"}},"type":"Feature"},
	{"geometry":{"coordinates":[-49.235183,-25.449924],"type":"Point"},"properties":{"osm_id":"3799345339","tag":{"natural":"tree"}},"type":"Feature"},
	{"geometry":{"coordinates":[-49.236076,-25.449942],"type":"Point"},"properties":{"osm_id":"3799345340","tag":{"natural":"tree"}},"type":"Feature"},
	{"geometry":{"coordinates":[-49.235659,-25.449946],"type":"Point"},"properties":{"osm_id":"3799345341","tag":{"natural":"tree"}},"type":"Feature"},
	{"geometry":{"coordinates":[-49.231338,-25.449951],"type":"Point"},"properties":{"osm_id":"3799345342","tag":{"natural":"tree"}},"type":"Feature"},
	{"geometry":{"coordinates":[-49.23503,-25.449973],"type":"Point"},"properties":{"osm_id":"3799345345","tag":{"natural":"tree"}},"type":"Feature"},
	{"geometry":{"coordinates":[-49.235707,-25.449975],"type":"Point"},"properties":{"osm_id":"3799345346","tag":{"natural":"tree"}},"type":"Feature"},
	{"geometry":{"coordinates":[-49.231476,-25.449978],"type":"Point"},"properties":{"osm_id":"3799345348","tag":{"natural":"tree"}},"type":"Feature"},
	{"geometry":{"coordinates":[-49.235758,-25.449997],"type":"Point"},"properties":{"osm_id":"3799345351","tag":{"natural":"tree"}},"type":"Feature"},
	{"geometry":{"coordinates":[-49.231346,-25.450006],"type":"Point"},"properties":{"osm_id":"3799345352","tag":{"natural":"tree"}},"type":"Feature"},
	{"geometry":{"coordinates":[-49.2355,-25.450013],"type":"Point"},"properties":{"osm_id":"3799345353","tag":{"natural":"tree"}},"type":"Feature"},
	{"geometry":{"coordinates":[-49.235823,-25.450043],"type":"Point"},"properties":{"osm_id":"3799345459","tag":{"natural":"tree"}},"type":"Feature"},
	{"geometry":{"coordinates":[-49.236165,-25.45007],"type":"Point"},"properties":{"osm_id":"3799345464","tag":{"natural":"tree"}},"type":"Feature"},
	{"geometry":{"coordinates":[-49.235284,-25.450141],"type":"Point"},"properties":{"osm_id":"3799345479","tag":{"natural":"tree"}},"type":"Feature"},
	{"geometry":{"coordinates":[-49.231376,-25.450108],"type":"Point"},"properties":{"osm_id":"3799345480","tag":{"natural":"tree"}},"type":"Feature"},
	{"geometry":{"coordinates":[-49.235772,-25.45017],"type":"Point"},"properties":{"osm_id":"3799345484","tag":{"natural":"tree"}},"type":"Feature"},
	{"geometry":{"coordinates":[-49.235914,-25.450212],"type":"Point"},"properties":{"osm_id":"3799345489","tag":{"natural":"tree"}},"type":"Feature"},
	{"geometry":{"coordinates":[-49.235722,-25.450265],"type":"Point"},"properties":{"osm_id":"3799345492","tag":{"natural":"tree"}},"type":"Feature"},
	{"geometry":{"coordinates":[-49.236004,-25.450295],"type":"Point"},"properties":{"osm_id":"3799345497","tag":{"natural":"tree"}},"type":"Feature"},
	{"geometry":{"coordinates":[-49.235652,-25.450299],"type":"Point"},"properties":{"osm_id":"3799345500","tag":{"natural":"tree"}},"type":"Feature"},
	{"geometry":{"coordinates":[-49.235565,-25.450326],"type":"Point"},"properties":{"osm_id":"3799345507","tag":{"natural":"tree"}},"type":"Feature"},
	{"geometry":{"coordinates":[-49.235813,-25.450339],"type":"Point"},"properties":{"osm_id":"3799345509","tag":{"natural":"tree"}},"type":"Feature"},
	{"geometry":{"coordinates":[-49.236047,-25.450369],"type":"Point"},"properties":{"osm_id":"3799345513","tag":{"natural":"tree"}},"type":"Feature"},
	{"geometry":{"coordinates":[-49.235605,-25.450401],"type":"Point"},"properties":{"osm_id":"3799345518","tag":{"natural":"tree"}},"type":"Feature"},
	{"geometry":{"coordinates":[-49.232318,-25.450412],"type":"Point"},"properties":{"osm_id":"3799345520","tag":{"natural":"tree"}},"type":"Feature"},
	{"geometry":{"coordinates":[-49.236044,-25.45042],"type":"Point"},"properties":{"osm_id":"3799345521","tag":{"natural":"tree"}},"type":"Feature"},
	{"geometry":{"coordinates":[-49.236087,-25.450496],"type":"Point"},"properties":{"osm_id":"3799345523","tag":{"natural":"tree"}},"type":"Feature"},
	{"geometry":{"coordinates":[-49.235332,-25.450497],"type":"Point"},"properties":{"osm_id":"3799345524","tag":{"natural":"tree"}},"type":"Feature"},
	{"geometry":{"coordinates":[-49.236092,-25.450543],"type":"Point"},"properties":{"osm_id":"3799345526","tag":{"natural":"tree"}},"type":"Feature"},
	{"geometry":{"coordinates":[-49.231915,-25.450603],"type":"Point"},"properties":{"osm_id":"3799345528","tag":{"natural":"tree"}},"type":"Feature"},
	{"geometry":{"coordinates":[-49.236157,-25.450609],"type":"Point"},"properties":{"osm_id":"3799345529","tag":{"natural":"tree"}},"type":"Feature"},
	{"geometry":{"coordinates":[-49.236187,-25.450674],"type":"Point"},"properties":{"osm_id":"3799345532","tag":{"natural":"tree"}},"type":"Feature"},
	{"geometry":{"coordinates":[-49.236257,-25.450718],"type":"Point"},"properties":{"osm_id":"3799345533","tag":{"natural":"tree"}},"type":"Feature"},
	{"geometry":{"coordinates":[-49.236215,-25.450732],"type":"Point"},"properties":{"osm_id":"3799345535","tag":{"natural":"tree"}},"type":"Feature"},
	{"geometry":{"coordinates":[-49.236218,-25.450786],"type":"Point"},"properties":{"osm_id":"3799345536","tag":{"natural":"tree"}},"type":"Feature"},
	{"geometry":{"coordinates":[-49.23623,-25.450842],"type":"Point"},"properties":{"osm_id":"3799345537","tag":{"natural":"tree"}},"type":"Feature"},
	{"geometry":{"coordinates":[-49.236274,-25.450912],"type":"Point"},"properties":{"osm_id":"3799345540","tag":{"natural":"tree"}},"type":"Feature"},
	{"geometry":{"coordinates":[-49.233949,-25.450957],"type":"Point"},"properties":{"osm_id":"3799345541","tag":{"natural":"tree"}},"type":"Feature"},
	{"geometry":{"coordinates":[-49.236306,-25.450976],"type":"Point"},"properties":{"osm_id":"3799345542","tag":{"natural":"tree"}},"type":"Feature"},
	{"geometry":{"coordinates":[-49.236318,-25.451018],"type":"Point"},"properties":{"osm_id":"3799345544","tag":{"natural":"tree"}},"type":"Feature"},
	{"geometry":{"coordinates":[-49.232686,-25.451021],"type":"Point"},"properties":{"osm_id":"3799345545","tag":{"natural":"tree"}},"type":"Feature"},
	{"geometry":{"coordinates":[-49.23412,-25.451048],"type":"Point"},"properties":{"osm_id":"3799345546","tag":{"natural":"tree"}},"type":"Feature"},
	{"geometry":{"coordinates":[-49.232892,-25.451076],"type":"Point"},"properties":{"osm_id":"3799345547","tag":{"natural":"tree"}},"type":"Feature"},
	{"geometry":{"coordinates":[-49.236339,-25.451087],"type":"Point"},"properties":{"osm_id":"3799345548","tag":{"natural":"tree"}},"type":"Feature"},
	{"geometry":{"coordinates":[-49.231709,-25.451182],"type":"Point"},"properties":{"osm_id":"3799345550","tag":{"natural":"tree"}},"type":"Feature"},
	{"geometry":{"coordinates":[-49.23638,-25.45115],"type":"Point"},"properties":{"osm_id":"3799345551","tag":{"natural":"tree"}},"type":"Feature"},
	{"geometry":{"coordinates":[-49.232328,-25.451162],"type":"Point"},"properties":{"osm_id":"3799345552","tag":{"natural":"tree"}},"type":"Feature"},
	{"geometry":{"coordinates":[-49.232761,-25.451164],"type":"Point"},"properties":{"osm_id":"3799345553","tag":{"natural":"tree"}},"type":"Feature"},
	{"geometry":{"coordinates":[-49.232223,-25.451196],"type":"Point"},"properties":{"osm_id":"3799345554","tag":{"natural":"tree"}},"type":"Feature"},
	{"geometry":{"coordinates":[-49.236425,-25.451207],"type":"Point"},"properties":{"osm_id":"3799345555","tag":{"natural":"tree"}},"type":"Feature"},
	{"geometry":{"coordinates":[-49.23212,-25.451284],"type":"Point"},"properties":{"osm_id":"3799345556","tag":{"natural":"tree"}},"type":"Feature"},
	{"geometry":{"coordinates":[-49.234217,-25.451238],"type":"Point"},"properties":{"osm_id":"3799345557","tag":{"natural":"tree"}},"type":"Feature"},
	{"geometry":{"coordinates":[-49.236429,-25.451258],"type":"Point"},"properties":{"osm_id":"3799345558","tag":{"natural":"tree"}},"type":"Feature"},
	{"geometry":{"coordinates":[-49.232956,-25.451322],"type":"Point"},"properties":{"osm_id":"3799345561","tag":{"natural":"tree"}},"type":"Feature"},
	{"geometry":{"coordinates":[-49.236462,-25.451346],"type":"Point"},"properties":{"osm_id":"3799345562","tag":{"natural":"tree"}},"type":"Feature"},
	{"geometry":{"coordinates":[-49.233224,-25.451354],"type":"Point"},"properties":{"osm_id":"3799345563","tag":{"natural":"tree"}},"type":"Feature"},
	{"geometry":{"coordinates":[-49.236311,-25.451384],"type":"Point"},"properties":{"osm_id":"3799345564","tag":{"natural":"tree"}},"type":"Feature"},
	{"geometry":{"coordinates":[-49.233945,-25.451611],"type":"Point"},"properties":{"osm_id":"3799345573","tag":{"natural":"tree"}},"type":"Feature"},
	{"geometry":{"coordinates":[-49.232287,-25.451706],"type":"Point"},"properties":{"osm_id":"3799345578","tag":{"natural":"tree"}},"type":"Feature"},
	{"geometry":{"coordinates":[-49.234454,-25.451794],"type":"Point"},"properties":{"osm_id":"3799345579","tag":{"natural":"tree"}},"type":"Feature"},
	{"geometry":{"coordinates":[-49.235116,-25.451814],"type":"Point"},"properties":{"osm_id":"3799345581","tag":{"natural":"tree"}},"type":"Feature"},
	{"geometry":{"coordinates":[-49.232529,-25.451875],"type":"Point"},"properties":{"osm_id":"3799345583","tag":{"natural":"tree"}},"type":"Feature"},
	{"geometry":{"coordinates":[-49.234276,-25.45202],"type":"Point"},"properties":{"osm_id":"3799345584","tag":{"natural":"tree"}},"type":"Feature"},
	{"geometry":{"coordinates":[-49.233032,-25.452072],"type":"Point"},"properties":{"osm_id":"3799345585","tag":{"natural":"tree"}},"type":"Feature"},
	{"geometry":{"coordinates":[-49.234582,-25.452079],"type":"Point"},"properties":{"osm_id":"3799345586","tag":{"natural":"tree"}},"type":"Feature"},
	{"geometry":{"coordinates":[-49.234352,-25.452129],"type":"Point"},"properties":{"osm_id":"3799345588","tag":{"natural":"tree"}},"type":"Feature"},
	{"geometry":{"coordinates":[-49.23463,-25.452197],"type":"Point"},"properties":{"osm_id":"3799345590","tag":{"natural":"tree"}},"type":"Feature"},
	{"geometry":{"coordinates":[-49.235364,-25.452378],"type":"Point"},"properties":{"osm_id":"3799345591","tag":{"natural":"tree"}},"type":"Feature"},
	{"geometry":{"coordinates":[-49.234312,-25.452392],"type":"Point"},"properties":{"osm_id":"3799345593","tag":{"natural":"tree"}},"type":"Feature"},
	{"geometry":{"coordinates":[-49.235184,-25.452424],"type":"Point"},"properties":{"osm_id":"3799345594","tag":{"natural":"tree"}},"type":"Feature"},
	{"geometry":{"coordinates":[-49.234768,-25.452447],"type":"Point"},"properties":{"osm_id":"3799345595","tag":{"natural":"tree"}},"type":"Feature"},
	{"geometry":{"coordinates":[-49.23511,-25.452459],"type":"Point"},"properties":{"osm_id":"3799345596","tag":{"natural":"tree"}},"type":"Feature"},
	{"geometry":{"coordinates":[-49.234949,-25.452516],"type":"Point"},"properties":{"osm_id":"3799345597","tag":{"natural":"tree"}},"type":"Feature"},
	{"geometry":{"coordinates":[-49.234824,-25.45254],"type":"Point"},"properties":{"osm_id":"3799345598","tag":{"natural":"tree"}},"type":"Feature"},
	{"geometry":{"coordinates":[-49.233688,-25.452628],"type":"Point"},"properties":{"osm_id":"3799345600","tag":{"natural":"tree"}},"type":"Feature"},
	{"geometry":{"coordinates":[-49.233528,-25.452656],"type":"Point"},"properties":{"osm_id":"3799345601","tag":{"natural":"tree"}},"type":"Feature"},
	{"geometry":{"coordinates":[-49.233281,-25.452727],"type":"Point"},"properties":{"osm_id":"3799345602","tag":{"natural":"tree"}},"type":"Feature"},
	{"geometry":{"coordinates":[-49.234134,-25.452762],"type":"Point"},"properties":{"osm_id":"3799345603","tag":{"natural":"tree"}},"type":"Feature"},
	{"geometry":{"coordinates":[-49.233654,-25.452797],"type":"Point"},"properties":{"osm_id":"3799345605","tag":{"natural":"tree"}},"type":"Feature"},
	{"geometry":{"coordinates":[-49.233354,-25.452922],"type":"Point"},"properties":{"osm_id":"3799345609","tag":{"natural":"tree"}},"type":"Feature"},
	{"geometry":{"coordinates":[-49.234434,-25.453121],"type":"Point"},"properties":{"osm_id":"3799345614","tag":{"natural":"tree"}},"type":"Feature"},
	{"geometry":{"coordinates":[-49.233329,-25.453369],"type":"Point"},"properties":{"osm_id":"3799345623","tag":{"natural":"tree"}},"type":"Feature"},
	{"geometry":{"coordinates":[-49.233256,-25.453387],"type":"Point"},"properties":{"osm_id":"3799345624","tag":{"natural":"tree"}},"type":"Feature"},
	{"geometry":{"coordinates":[-49.233854,-25.453389],"type":"Point"},"properties":{"osm_id":"3799345625","tag":{"natural":"tree"}},"type":"Feature"},
	{"geometry":{"coordinates":[-49.233734,-25.453406],"type":"Point"},"properties":{"osm_id":"3799345626","tag":{"natural":"tree"}},"type":"Feature"},
	{"geometry":{"coordinates":[-49.233164,-25.453422],"type":"Point"},"properties":{"osm_id":"3799345627","tag":{"natural":"tree"}},"type":"Feature"},
	{"geometry":{"coordinates":[-49.233127,-25.453443],"type":"Point"},"properties":{"osm_id":"3799345628","tag":{"natural":"tree"}},"type":"Feature"},
	{"geometry":{"coordinates":[-49.233058,-25.45346],"type":"Point"},"properties":{"osm_id":"3799345631","tag":{"natural":"tree"}},"type":"Feature"},
	{"geometry":{"coordinates":[-49.233245,-25.453524],"type":"Point"},"properties":{"osm_id":"3799345633","tag":{"natural":"tree"}},"type":"Feature"},
	{"geometry":{"coordinates":[-49.23769,-25.453054],"type":"Point"},"properties":{"osm_id":"3816157882","tag":{"natural":"tree"}},"type":"Feature"},
	{"geometry":{"coordinates":[-49.237668,-25.453142],"type":"Point"},"properties":{"osm_id":"3816157887","tag":{"natural":"tree"}},"type":"Feature"},
	{"geometry":{"coordinates":[-49.237848,-25.453186],"type":"Point"},"properties":{"osm_id":"3816157888","tag":{"natural":"tree"}},"type":"Feature"},
	{"geometry":{"coordinates":[-49.237921,-25.453269],"type":"Point"},"properties":{"osm_id":"3816157894","tag":{"natural":"tree"}},"type":"Feature"},
	{"geometry":{"coordinates":[-49.237608,-25.45332],"type":"Point"},"properties":{"osm_id":"3816157897","tag":{"natural":"tree"}},"type":"Feature"},
	{"geometry":{"coordinates":[-49.237841,-25.453367],"type":"Point"},"properties":{"osm_id":"3816157900","tag":{"natural":"tree"}},"type":"Feature"},
	{"geometry":{"coordinates":[-49.237351,-25.453519],"type":"Point"},"properties":{"osm_id":"3816157906","tag":{"natural":"tree"}},"type":"Feature"},
	{"geometry":{"coordinates":[-49.237517,-25.45361],"type":"Point"},"properties":{"osm_id":"3816157910","tag":{"natural":"tree"}},"type":"Feature"},
	{"geometry":{"coordinates":[-49.26933,-25.420674],"type":"Point"},"properties":{"osm_id":"4221544665","tag":{"natural":"tree"}},"type":"Feature"},
	{"geometry":{"coordinates":[-49.269116,-25.420659],"type":"Point"},"properties":{"osm_id":"4221544666","tag":{"natural":"tree"}},"type":"Feature"},
	{"geometry":{"coordinates":[-49.269385,-25.420881],"type":"Point"},"properties":{"osm_id":"4221544673","tag":{"natural":"tree"}},"type":"Feature"},
	{"geometry":{"coordinates":[-49.269141,-25.420759],"type":"Point"},"properties":{"osm_id":"4221544674","tag":{"natural":"tree"}},"type":"Feature"},
	{"geometry":{"coordinates":[-49.269185,-25.420891],"type":"Point"},"properties":{"osm_id":"4221544675","tag":{"natural":"tree"}},"type":"Feature"},
	{"geometry":{"coordinates":[-49.269497,-25.421265],"type":"Point"},"properties":{"osm_id":"4221544677","tag":{"natural":"tree"}},"type":"Feature"},
	{"geometry":{"coordinates":[-49.269521,-25.421387],"type":"Point"},"properties":{"osm_id":"4221544679","tag":{"natural":"tree"}},"type":"Feature"},
	{"geometry":{"coordinates":[-49.269367,-25.420158],"type":"Point"},"properties":{"osm_id":"4221555937","tag":{"natural":"tree"}},"type":"Feature"},
	{"geometry":{"coordinates":[-49.272422,-25.432358],"type":"Point"},"properties":{"osm_id":"4228719237","tag":{"natural":"tree"}},"type":"Feature"},
	{"geometry":{"coordinates":[-49.272558,-25.432271],"type":"Point"},"properties":{"osm_id":"4228719239","tag":{"natural":"tree"}},"type":"Feature"},
	{"geometry":{"coordinates":[-49.231021,-25.451382],"type":"Point"},"properties":{"osm_id":"4454638982","tag":{"denotation":"urban","natural":"tree"}},"type":"Feature"},
	{"geometry":{"coordinates":[-49.247428,-25.423192],"type":"Point"},"properties":{"name":"Abacate","osm_id":"4466575098","tag":{"natural":"tree"}},"type":"Feature"},
	{"geometry":{"coordinates":[-49.252755,-25.430422],"type":"Point"},"properties":{"name":"Amora","osm_id":"7169328546","tag":{"natural":"tree"}},"type":"Feature"},
	{"geometry":{"coordinates":[-49.256719,-25.437818],"type":"Point"},"properties":{"osm_id":"7254899830","tag":{"natural":"tree"}},"type":"Feature"},
	{"geometry":{"coordinates":[-49.255021,-25.436463],"type":"Point"},"properties":{"osm_id":"7254899831","tag":{"natural":"tree"}},"type":"Feature"},
	{"geometry":{"coordinates":[-49.255073,-25.436497],"type":"Point"},"properties":{"osm_id":"7254899832","tag":{"natural":"tree"}},"type":"Feature"},
	{"geometry":{"coordinates":[-49.255166,-25.43655],"type":"Point"},"properties":{"osm_id":"7254899833","tag":{"natural":"tree"}},"type":"Feature"},
	{"geometry":{"coordinates":[-49.255261,-25.436641],"type":"Point"},"properties":{"osm_id":"7254899834","tag":{"natural":"tree"}},"type":"Feature"},
	{"geometry":{"coordinates":[-49.253866,-25.436249],"type":"Point"},"properties":{"osm_id":"7254899835","tag":{"natural":"tree"}},"type":"Feature"},
	{"geometry":{"coordinates":[-49.258283,-25.439256],"type":"Point"},"properties":{"osm_id":"7254899879","tag":{"natural":"tree"}},"type":"Feature"},
	{"geometry":{"coordinates":[-49.258274,-25.43932],"type":"Point"},"properties":{"osm_id":"7254899880","tag":{"natural":"tree"}},"type":"Feature"},
	{"geometry":{"coordinates":[-49.258351,-25.439337],"type":"Point"},"properties":{"osm_id":"7254899881","tag":{"natural":"tree"}},"type":"Feature"},
	{"geometry":{"coordinates":[-49.258314,-25.439412],"type":"Point"},"properties":{"osm_id":"7254899882","tag":{"natural":"tree"}},"type":"Feature"},
	{"geometry":{"coordinates":[-49.2582,-25.43942],"type":"Point"},"properties":{"osm_id":"7254899883","tag":{"natural":"tree"}},"type":"Feature"},
	{"geometry":{"coordinates":[-49.253165,-25.406724],"type":"Point"},"properties":{"osm_id":"7550060491","tag":{"natural":"tree"}},"type":"Feature"},
	{"geometry":{"coordinates":[-49.253296,-25.406583],"type":"Point"},"properties":{"osm_id":"7550060492","tag":{"natural":"tree"}},"type":"Feature"},
	{"geometry":{"coordinates":[-49.252712,-25.406223],"type":"Point"},"properties":{"osm_id":"7550060493","tag":{"natural":"tree"}},"type":"Feature"},
	{"geometry":{"coordinates":[-49.252672,-25.40618],"type":"Point"},"properties":{"osm_id":"7550060494","tag":{"natural":"tree"}},"type":"Feature"},
	{"geometry":{"coordinates":[-49.252636,-25.406146],"type":"Point"},"properties":{"osm_id":"7550060495","tag":{"natural":"tree"}},"type":"Feature"},
	{"geometry":{"coordinates":[-49.25239,-25.405973],"type":"Point"},"properties":{"osm_id":"7550060496","tag":{"natural":"tree"}},"type":"Feature"},
	{"geometry":{"coordinates":[-49.253047,-25.407053],"type":"Point"},"properties":{"osm_id":"7550060497","tag":{"natural":"tree"}},"type":"Feature"},
	{"geometry":{"coordinates":[-49.253294,-25.407122],"type":"Point"},"properties":{"osm_id":"7550060498","tag":{"natural":"tree"}},"type":"Feature"},
	{"geometry":{"coordinates":[-49.253377,-25.406964],"type":"Point"},"properties":{"osm_id":"7550060499","tag":{"natural":"tree"}},"type":"Feature"},
	{"geometry":{"coordinates":[-49.287683,-25.408398],"type":"Point"},"properties":{"name":"ameixa amarela","osm_id":"7888021283","tag":{"natural":"tree"}},"type":"Feature"},
	{"geometry":{"coordinates":[-49.287842,-25.40836],"type":"Point"},"properties":{"name":"p\u00c3\u00aara","osm_id":"7888021284","tag":{"natural":"tree"}},"type":"Feature"},
	{"geometry":{"coordinates":[-49.288014,-25.408402],"type":"Point"},"properties":{"name":"ara\u00c3\u00a7\u00c3\u00a1","osm_id":"7888032685","tag":{"natural":"tree"}},"type":"Feature"},
	{"geometry":{"coordinates":[-49.28695,-25.408224],"type":"Point"},"properties":{"name":"ameixa amarela","osm_id":"7888032686","tag":{"natural":"tree"}},"type":"Feature"},
	{"geometry":{"coordinates":[-49.286508,-25.408172],"type":"Point"},"properties":{"name":"goiaba","osm_id":"7888032687","tag":{"natural":"tree"}},"type":"Feature"},
	{"geometry":{"coordinates":[-49.287226,-25.408287],"type":"Point"},"properties":{"name":"lim\u00c3\u00a3o","osm_id":"7888032688","tag":{"natural":"tree"}},"type":"Feature"}
]
}
