{
"type": "FeatureCollection",
"features": [
	{"geometry":{"coordinates":[-78.461075,-0.15299],"type":"Point"},"properties":{"osm_id":"4366638089","tag":{"amenity":"waste_disposal"}},"type":"Feature"},
	{"geometry":{"coordinates":[-78.453736,-0.159482],"type":"Point"},"properties":{"osm_id":"4437973689","tag":{"amenity":"waste_disposal"}},"type":"Feature"},
	{"geometry":{"coordinates":[-78.472712,-0.09746],"type":"Point"},"properties":{"name":"Reciclar","osm_id":"4449212989","tag":{"amenity":"recycling","name:es":"Reciclar"}},"type":"Feature"},
	{"geometry":{"coordinates":[-78.439124,-0.138815],"type":"Point"},"properties":{"osm_id":"4536321095","tag":{"amenity":"waste_basket"}},"type":"Feature"},
	{"geometry":{"coordinates":[-78.485316,-0.172482],"type":"Point"},"properties":{"osm_id":"4709197790","tag":{"amenity":"waste_basket"}},"type":"Feature"},
	{"geometry":{"coordinates":[-78.442246,-0.092278],"type":"Point"},"properties":{"osm_id":"4984057821","tag":{"amenity":"waste_basket"}},"type":"Feature"},
	{"geometry":{"coordinates":[-78.442334,-0.092311],"type":"Point"},"properties":{"osm_id":"4984057921","tag":{"amenity":"waste_basket"}},"type":"Feature"},
	{"geometry":{"coordinates":[-78.426124,-0.104371],"type":"Point"},"properties":{"name":"Material Reutilizables","osm_id":"6051782087","tag":{"amenity":"recycling"}},"type":"Feature"}
]
}
