{
"type": "FeatureCollection",
"features": [
	{"geometry":{"coordinates":[28.239636,36.386947],"type":"Point"},"properties":{"osm_id":"2505339006","tag":{"amenity":"waste_basket"}},"type":"Feature"},
	{"geometry":{"coordinates":[28.221875,36.446677],"type":"Point"},"properties":{"osm_id":"2509336644","tag":{"amenity":"waste_disposal"}},"type":"Feature"},
	{"geometry":{"coordinates":[28.222246,36.446039],"type":"Point"},"properties":{"osm_id":"2509408264","tag":{"amenity":"waste_basket"}},"type":"Feature"},
	{"geometry":{"coordinates":[28.225302,36.444996],"type":"Point"},"properties":{"osm_id":"2509607800","tag":{"amenity":"waste_disposal"}},"type":"Feature"},
	{"geometry":{"coordinates":[28.226064,36.445],"type":"Point"},"properties":{"osm_id":"2509767867","tag":{"amenity":"waste_disposal"}},"type":"Feature"},
	{"geometry":{"coordinates":[28.227257,36.443671],"type":"Point"},"properties":{"osm_id":"2510564343","tag":{"amenity":"waste_basket"}},"type":"Feature"},
	{"geometry":{"coordinates":[28.227414,36.444968],"type":"Point"},"properties":{"osm_id":"2510863363","tag":{"amenity":"waste_basket"}},"type":"Feature"},
	{"geometry":{"coordinates":[28.216458,36.45179],"type":"Point"},"properties":{"osm_id":"2517879751","tag":{"amenity":"waste_basket"}},"type":"Feature"},
	{"geometry":{"coordinates":[28.219836,36.452603],"type":"Point"},"properties":{"osm_id":"3304049790","tag":{"amenity":"waste_basket"}},"type":"Feature"},
	{"geometry":{"coordinates":[28.217147,36.452149],"type":"Point"},"properties":{"osm_id":"3304134273","tag":{"amenity":"waste_basket"}},"type":"Feature"},
	{"geometry":{"coordinates":[28.218598,36.449588],"type":"Point"},"properties":{"osm_id":"3304165519","tag":{"amenity":"waste_basket"}},"type":"Feature"},
	{"geometry":{"coordinates":[28.219672,36.45116],"type":"Point"},"properties":{"osm_id":"3304166838","tag":{"amenity":"waste_basket"}},"type":"Feature"},
	{"geometry":{"coordinates":[28.223794,36.453437],"type":"Point"},"properties":{"osm_id":"3305898474","tag":{"amenity":"waste_basket"}},"type":"Feature"},
	{"geometry":{"coordinates":[28.22411,36.453245],"type":"Point"},"properties":{"osm_id":"3305898478","tag":{"amenity":"waste_basket"}},"type":"Feature"},
	{"geometry":{"coordinates":[28.216351,36.449956],"type":"Point"},"properties":{"osm_id":"3311879634","tag":{"amenity":"recycling"}},"type":"Feature"},
	{"geometry":{"coordinates":[28.219771,36.45415],"type":"Point"},"properties":{"osm_id":"3314106277","tag":{"amenity":"waste_basket"}},"type":"Feature"},
	{"geometry":{"coordinates":[28.222699,36.448024],"type":"Point"},"properties":{"osm_id":"3320382070","tag":{"amenity":"waste_basket"}},"type":"Feature"},
	{"geometry":{"coordinates":[28.221685,36.449832],"type":"Point"},"properties":{"osm_id":"3379770762","tag":{"amenity":"waste_basket"}},"type":"Feature"},
	{"geometry":{"coordinates":[28.221699,36.449841],"type":"Point"},"properties":{"osm_id":"3379770764","tag":{"amenity":"waste_basket"}},"type":"Feature"},
	{"geometry":{"coordinates":[28.222916,36.449749],"type":"Point"},"properties":{"osm_id":"3379770791","tag":{"amenity":"waste_basket"}},"type":"Feature"},
	{"geometry":{"coordinates":[28.223888,36.433231],"type":"Point"},"properties":{"osm_id":"3561594890","tag":{"amenity":"waste_basket"}},"type":"Feature"},
	{"geometry":{"coordinates":[28.222334,36.441063],"type":"Point"},"properties":{"osm_id":"3561926742","tag":{"amenity":"waste_basket"}},"type":"Feature"},
	{"geometry":{"coordinates":[28.222031,36.441459],"type":"Point"},"properties":{"osm_id":"3561926754","tag":{"amenity":"waste_basket"}},"type":"Feature"},
	{"geometry":{"coordinates":[28.221596,36.442122],"type":"Point"},"properties":{"osm_id":"3561926758","tag":{"amenity":"waste_basket"}},"type":"Feature"},
	{"geometry":{"coordinates":[28.220899,36.443772],"type":"Point"},"properties":{"osm_id":"3561926803","tag":{"amenity":"waste_basket"}},"type":"Feature"},
	{"geometry":{"coordinates":[28.219789,36.451259],"type":"Point"},"properties":{"osm_id":"3587687648","tag":{"amenity":"waste_basket"}},"type":"Feature"},
	{"geometry":{"coordinates":[28.219792,36.451308],"type":"Point"},"properties":{"osm_id":"3587687650","tag":{"amenity":"waste_basket"}},"type":"Feature"},
	{"geometry":{"coordinates":[28.220492,36.454347],"type":"Point"},"properties":{"osm_id":"3592162469","tag":{"amenity":"waste_basket"}},"type":"Feature"},
	{"geometry":{"coordinates":[28.22036,36.454359],"type":"Point"},"properties":{"osm_id":"3592162470","tag":{"amenity":"waste_basket"}},"type":"Feature"},
	{"geometry":{"coordinates":[28.2205,36.454184],"type":"Point"},"properties":{"osm_id":"3592162474","tag":{"amenity":"waste_basket"}},"type":"Feature"},
	{"geometry":{"coordinates":[28.220526,36.454512],"type":"Point"},"properties":{"osm_id":"3592162481","tag":{"amenity":"waste_basket"}},"type":"Feature"},
	{"geometry":{"coordinates":[28.220533,36.454582],"type":"Point"},"properties":{"osm_id":"3592162482","tag":{"amenity":"waste_basket"}},"type":"Feature"},
	{"geometry":{"coordinates":[28.220573,36.455015],"type":"Point"},"properties":{"osm_id":"3592162488","tag":{"amenity":"waste_basket"}},"type":"Feature"},
	{"geometry":{"coordinates":[28.221793,36.451236],"type":"Point"},"properties":{"osm_id":"3592652470","tag":{"amenity":"waste_basket"}},"type":"Feature"},
	{"geometry":{"coordinates":[28.223642,36.450656],"type":"Point"},"properties":{"osm_id":"3592668502","tag":{"amenity":"waste_basket"}},"type":"Feature"},
	{"geometry":{"coordinates":[28.218603,36.436627],"type":"Point"},"properties":{"osm_id":"3599568552","tag":{"amenity":"waste_basket"}},"type":"Feature"},
	{"geometry":{"coordinates":[28.221952,36.447706],"type":"Point"},"properties":{"osm_id":"3612400339","tag":{"amenity":"waste_basket"}},"type":"Feature"},
	{"geometry":{"coordinates":[28.221553,36.44783],"type":"Point"},"properties":{"osm_id":"3612400340","tag":{"amenity":"waste_basket"}},"type":"Feature"},
	{"geometry":{"coordinates":[28.228005,36.404014],"type":"Point"},"properties":{"osm_id":"5160607984","tag":{"amenity":"waste_basket"}},"type":"Feature"},
	{"geometry":{"coordinates":[28.239874,36.435985],"type":"Point"},"properties":{"osm_id":"6394364791","tag":{"amenity":"recycling","recycling:water":"yes"}},"type":"Feature"},
	{"geometry":{"coordinates":[28.239795,36.435047],"type":"Point"},"properties":{"osm_id":"6394364793","tag":{"amenity":"recycling","recycling:engine_oil":"yes"}},"type":"Feature"},
	{"geometry":{"coordinates":[28.239772,36.433492],"type":"Point"},"properties":{"osm_id":"6394364794","tag":{"amenity":"recycling","recycling:engine_oil":"yes"}},"type":"Feature"}
]
}
