{
"type": "FeatureCollection",
"features": [
	{"geometry":{"coordinates":[28.258217,-15.43107],"type":"Point"},"properties":{"osm_id":"4727877326","tag":{"amenity":"waste_disposal","location":"overground","official":"no","operator":"none","waste":"trash"}},"type":"Feature"},
	{"geometry":{"coordinates":[28.249789,-15.435123],"type":"Point"},"properties":{"osm_id":"4727903859","tag":{"amenity":"waste_disposal","location":"overground","waste":"plastic"}},"type":"Feature"},
	{"geometry":{"coordinates":[28.248515,-15.435624],"type":"Point"},"properties":{"osm_id":"4727903881","tag":{"amenity":"waste_disposal","location":"overground","waste":"plastic"}},"type":"Feature"},
	{"geometry":{"coordinates":[28.245263,-15.445404],"type":"Point"},"properties":{"osm_id":"4733831736","tag":{"amenity":"waste_disposal","location":"underground","official":"no","operator":"private","waste":"plastic"}},"type":"Feature"},
	{"geometry":{"coordinates":[28.240958,-15.440212],"type":"Point"},"properties":{"osm_id":"4739889420","tag":{"amenity":"waste_disposal","location":"overground","official":"no","operator":"none","waste":"trash"}},"type":"Feature"},
	{"geometry":{"coordinates":[28.243157,-15.430777],"type":"Point"},"properties":{"osm_id":"4745253024","tag":{"amenity":"waste_disposal","location":"overground","official":"no","operator":"none","waste":"drugs"}},"type":"Feature"},
	{"geometry":{"coordinates":[28.24218,-15.423938],"type":"Point"},"properties":{"osm_id":"4747158282","tag":{"amenity":"waste_disposal","location":"underwater","oficial":"yes","operator":"none","waste":"trash"}},"type":"Feature"},
	{"geometry":{"coordinates":[28.237284,-15.431427],"type":"Point"},"properties":{"osm_id":"4750977800","tag":{"amenity":"waste_disposal","location":"underwater","oficial":"yes","operator":"none","waste":"trash"}},"type":"Feature"},
	{"geometry":{"coordinates":[28.240099,-15.435107],"type":"Point"},"properties":{"osm_id":"4752867311","tag":{"amenity":"waste_disposal","location":"underwater","oficial":"yes","operator":"none","operator:type":"private","toilet:handwashing":"no","toilet:num_chambers":"8","toilets:disposal":"pitlatrine","unisex":"yes","waste":"organic"}},"type":"Feature"},
	{"geometry":{"coordinates":[28.240614,-15.434797],"type":"Point"},"properties":{"osm_id":"4752867630","tag":{"amenity":"waste_disposal","location":"overground","oficial":"yes","operator":"none","waste":"trash"}},"type":"Feature"},
	{"geometry":{"coordinates":[28.240829,-15.434321],"type":"Point"},"properties":{"osm_id":"4752867643","tag":{"amenity":"waste_disposal","location":"overground","oficial":"yes","operator":"none","waste":"trash"}},"type":"Feature"},
	{"geometry":{"coordinates":[28.237009,-15.442036],"type":"Point"},"properties":{"osm_id":"4757658676","tag":{"amenity":"waste_disposal","location":"overground","oficial":"no","operator":"none"}},"type":"Feature"},
	{"geometry":{"coordinates":[28.235617,-15.443952],"type":"Point"},"properties":{"osm_id":"4757759786","tag":{"amenity":"waste_disposal","location":"underground","waste":"trash"}},"type":"Feature"},
	{"geometry":{"coordinates":[28.233182,-15.443001],"type":"Point"},"properties":{"osm_id":"4759108529","tag":{"amenity":"waste_disposal","location":"overground","oficial":"no","operator":"none","waste":"trash"}},"type":"Feature"},
	{"geometry":{"coordinates":[28.233214,-15.443156],"type":"Point"},"properties":{"osm_id":"4759108540","tag":{"amenity":"waste_disposal","location":"overground","oficial":"no","operator":"none","waste":"trash"}},"type":"Feature"},
	{"geometry":{"coordinates":[28.233358,-15.443517],"type":"Point"},"properties":{"osm_id":"4759108568","tag":{"amenity":"waste_disposal","location":"overground","oficial":"yes","operator":"none","waste":"trash"}},"type":"Feature"},
	{"geometry":{"coordinates":[28.232868,-15.443835],"type":"Point"},"properties":{"osm_id":"4759108597","tag":{"amenity":"waste_disposal","location":"underwater","oficial":"no","operator":"none","waste":"trash"}},"type":"Feature"},
	{"geometry":{"coordinates":[28.239828,-15.444483],"type":"Point"},"properties":{"osm_id":"4760260619","tag":{"amenity":"waste_disposal","waste":"trash"}},"type":"Feature"},
	{"geometry":{"coordinates":[28.222847,-15.440526],"type":"Point"},"properties":{"osm_id":"4761702481","tag":{"amenity":"waste_disposal","location":"overground","oficial":"yes","operator":"private","waste":"trash"}},"type":"Feature"},
	{"geometry":{"coordinates":[28.221474,-15.439844],"type":"Point"},"properties":{"osm_id":"4761702533","tag":{"amenity":"waste_disposal","location":"overground","oficial":"no","operator":"none","waste":"trash"}},"type":"Feature"},
	{"geometry":{"coordinates":[28.222173,-15.439726],"type":"Point"},"properties":{"osm_id":"4761702546","tag":{"amenity":"waste_disposal","location":"underwater","oficial":"yes","operator":"none","waste":"organic"}},"type":"Feature"},
	{"geometry":{"coordinates":[28.223005,-15.440696],"type":"Point"},"properties":{"osm_id":"4761702561","tag":{"amenity":"waste_disposal","location":"underground","oficial":"yes","operator":"none","waste":"trash"}},"type":"Feature"},
	{"geometry":{"coordinates":[28.221961,-15.437321],"type":"Point"},"properties":{"osm_id":"4764273614","tag":{"amenity":"waste_disposal","location":"overground","oficial":"no","operator":"none","waste":"trash"}},"type":"Feature"},
	{"geometry":{"coordinates":[28.222341,-15.43725],"type":"Point"},"properties":{"osm_id":"4764273616","tag":{"amenity":"waste_disposal","location":"underground","oficial":"no","operator":"none","waste":"trash"}},"type":"Feature"},
	{"geometry":{"coordinates":[28.223563,-15.436931],"type":"Point"},"properties":{"osm_id":"4764273723","tag":{"amenity":"waste_disposal","location":"underground","oficial":"no","operator":"none","waste":"trash"}},"type":"Feature"},
	{"geometry":{"coordinates":[28.22377,-15.437444],"type":"Point"},"properties":{"osm_id":"4764273729","tag":{"amenity":"waste_disposal","location":"overground","oficial":"no","operator":"none","waste":"trash"}},"type":"Feature"},
	{"geometry":{"coordinates":[28.223823,-15.435141],"type":"Point"},"properties":{"osm_id":"4768083446","tag":{"amenity":"waste_disposal","location":"overground","oficial":"yes","operator":"government","waste":"trash"}},"type":"Feature"},
	{"geometry":{"coordinates":[28.22383,-15.435275],"type":"Point"},"properties":{"osm_id":"4768083465","tag":{"amenity":"waste_disposal","location":"overground","oficial":"yes","operator":"government","waste":"trash"}},"type":"Feature"},
	{"geometry":{"coordinates":[28.22407,-15.435562],"type":"Point"},"properties":{"osm_id":"4768083484","tag":{"amenity":"waste_disposal","location":"overground","oficial":"no","operator":"none","waste":"trash"}},"type":"Feature"},
	{"geometry":{"coordinates":[28.224333,-15.435743],"type":"Point"},"properties":{"osm_id":"4768083493","tag":{"amenity":"waste_disposal","location":"underground","oficial":"no","operator":"private","waste":"trash"}},"type":"Feature"},
	{"geometry":{"coordinates":[28.224242,-15.436138],"type":"Point"},"properties":{"osm_id":"4768083515","tag":{"amenity":"waste_disposal","location":"underground","oficial":"no","operator":"none","waste":"trash"}},"type":"Feature"},
	{"geometry":{"coordinates":[28.223926,-15.436346],"type":"Point"},"properties":{"osm_id":"4768085934","tag":{"amenity":"waste_disposal","location":"underground","oficial":"no","operator":"none","waste":"trash"}},"type":"Feature"},
	{"geometry":{"coordinates":[28.223704,-15.436357],"type":"Point"},"properties":{"osm_id":"4768085936","tag":{"amenity":"waste_disposal","location":"overground","oficial":"no","operator":"none","waste":"trash"}},"type":"Feature"},
	{"geometry":{"coordinates":[28.223577,-15.436369],"type":"Point"},"properties":{"osm_id":"4768085937","tag":{"amenity":"waste_disposal","location":"overground","oficial":"no","operator":"none","waste":"trash"}},"type":"Feature"},
	{"geometry":{"coordinates":[28.238828,-15.429502],"type":"Point"},"properties":{"osm_id":"4773207944","tag":{"amenity":"waste_disposal","location":"overground","oficial":"no","operator":"none","waste":"trash"}},"type":"Feature"},
	{"geometry":{"coordinates":[28.239525,-15.429172],"type":"Point"},"properties":{"osm_id":"4773207950","tag":{"amenity":"waste_disposal","location":"underground","oficial":"no","operator":"none","waste":"trash"}},"type":"Feature"},
	{"geometry":{"coordinates":[28.239315,-15.428512],"type":"Point"},"properties":{"osm_id":"4773207960","tag":{"amenity":"waste_disposal","location":"underground","oficial":"no","operator":"none","waste":"trash"}},"type":"Feature"},
	{"geometry":{"coordinates":[28.23945,-15.428457],"type":"Point"},"properties":{"osm_id":"4773207964","tag":{"amenity":"waste_disposal","location":"underground","oficial":"no","operator":"none","waste":"trash"}},"type":"Feature"},
	{"geometry":{"coordinates":[28.23853,-15.429195],"type":"Point"},"properties":{"osm_id":"4773207980","tag":{"amenity":"waste_disposal","location":"underground","oficial":"no","operator":"none","waste":"trash"}},"type":"Feature"},
	{"geometry":{"coordinates":[28.238301,-15.4287],"type":"Point"},"properties":{"osm_id":"4773207983","tag":{"amenity":"waste_disposal","location":"underground","oficial":"no","operator":"none","waste":"trash"}},"type":"Feature"},
	{"geometry":{"coordinates":[28.237838,-15.428346],"type":"Point"},"properties":{"osm_id":"4773207995","tag":{"amenity":"waste_disposal","location":"underground","oficial":"no","operator":"none","waste":"trash"}},"type":"Feature"},
	{"geometry":{"coordinates":[28.237967,-15.428453],"type":"Point"},"properties":{"osm_id":"4773207998","tag":{"amenity":"waste_disposal","location":"overground","oficial":"no","operator":"none","waste":"trash"}},"type":"Feature"},
	{"geometry":{"coordinates":[28.238297,-15.428033],"type":"Point"},"properties":{"osm_id":"4773208003","tag":{"amenity":"waste_disposal","location":"overground","oficial":"no","operator":"none","waste":"trash"}},"type":"Feature"},
	{"geometry":{"coordinates":[28.238991,-15.427809],"type":"Point"},"properties":{"osm_id":"4773208013","tag":{"amenity":"waste_disposal","location":"overground","oficial":"no","operator":"none","waste":"trash"}},"type":"Feature"},
	{"geometry":{"coordinates":[28.238339,-15.42793],"type":"Point"},"properties":{"osm_id":"4773212025","tag":{"amenity":"waste_disposal","location":"underground","oficial":"no","operator":"none","waste":"trash"}},"type":"Feature"},
	{"geometry":{"coordinates":[28.238511,-15.428902],"type":"Point"},"properties":{"osm_id":"4773212031","tag":{"amenity":"waste_disposal","location":"overground","oficial":"no","operator":"none","waste":"trash"}},"type":"Feature"},
	{"geometry":{"coordinates":[28.238961,-15.428251],"type":"Point"},"properties":{"osm_id":"4773212044","tag":{"amenity":"waste_disposal","location":"overground","oficial":"no","operator":"none","waste":"trash"}},"type":"Feature"},
	{"geometry":{"coordinates":[28.227121,-15.428211],"type":"Point"},"properties":{"osm_id":"4775010861","tag":{"amenity":"waste_disposal","location":"overground","oficial":"no","operator":"none","waste":"trash"}},"type":"Feature"},
	{"geometry":{"coordinates":[28.227215,-15.428228],"type":"Point"},"properties":{"osm_id":"4775010864","tag":{"amenity":"waste_disposal","location":"overground","oficial":"no","operator":"none","waste":"trash"}},"type":"Feature"},
	{"geometry":{"coordinates":[28.227654,-15.428302],"type":"Point"},"properties":{"osm_id":"4775010866","tag":{"amenity":"waste_disposal","location":"overground","oficial":"no","operator":"none","waste":"trash"}},"type":"Feature"},
	{"geometry":{"coordinates":[28.228417,-15.428297],"type":"Point"},"properties":{"osm_id":"4775010872","tag":{"amenity":"waste_disposal","location":"underground","oficial":"no","operator":"none","waste":"trash"}},"type":"Feature"},
	{"geometry":{"coordinates":[28.228834,-15.427971],"type":"Point"},"properties":{"osm_id":"4775010884","tag":{"amenity":"waste_disposal","location":"overground","oficial":"no","operator":"none","waste":"trash"}},"type":"Feature"},
	{"geometry":{"coordinates":[28.227652,-15.4279],"type":"Point"},"properties":{"osm_id":"4775010896","tag":{"amenity":"waste_disposal","location":"overground","oficial":"no","operator":"none","waste":"trash"}},"type":"Feature"},
	{"geometry":{"coordinates":[28.226516,-15.427702],"type":"Point"},"properties":{"osm_id":"4775010914","tag":{"amenity":"waste_disposal","location":"overground","oficial":"no","operator":"none","waste":"trash"}},"type":"Feature"},
	{"geometry":{"coordinates":[28.226559,-15.427392],"type":"Point"},"properties":{"osm_id":"4775010916","tag":{"amenity":"waste_disposal","location":"overground","oficial":"no","operator":"none","waste":"trash"}},"type":"Feature"},
	{"geometry":{"coordinates":[28.226182,-15.427314],"type":"Point"},"properties":{"osm_id":"4775010919","tag":{"amenity":"waste_disposal","location":"underground","oficial":"no","operator":"none","waste":"trash"}},"type":"Feature"},
	{"geometry":{"coordinates":[28.227613,-15.427723],"type":"Point"},"properties":{"osm_id":"4775011042","tag":{"amenity":"waste_disposal","location":"overground","oficial":"no","operator":"none","waste":"trash"}},"type":"Feature"},
	{"geometry":{"coordinates":[28.228245,-15.42747],"type":"Point"},"properties":{"osm_id":"4775011046","tag":{"amenity":"waste_disposal","location":"overground","oficial":"no","operator":"none","waste":"trash"}},"type":"Feature"},
	{"geometry":{"coordinates":[28.229169,-15.428016],"type":"Point"},"properties":{"osm_id":"4775011062","tag":{"amenity":"waste_disposal","location":"underwater","oficial":"no","operator":"none","waste":"organic"}},"type":"Feature"},
	{"geometry":{"coordinates":[28.229491,-15.428055],"type":"Point"},"properties":{"osm_id":"4775011063","tag":{"amenity":"waste_disposal","location":"overground","oficial":"no","operator":"none","waste":"trash"}},"type":"Feature"},
	{"geometry":{"coordinates":[28.229631,-15.427593],"type":"Point"},"properties":{"osm_id":"4775011073","tag":{"amenity":"waste_disposal","location":"overground","oficial":"no","operator":"none","waste":"trash"}},"type":"Feature"},
	{"geometry":{"coordinates":[28.230372,-15.427937],"type":"Point"},"properties":{"osm_id":"4775011079","tag":{"amenity":"waste_disposal","oficial":"no","operator":"none","waste":"trash"}},"type":"Feature"},
	{"geometry":{"coordinates":[28.230422,-15.428612],"type":"Point"},"properties":{"osm_id":"4775011091","tag":{"amenity":"waste_disposal","location":"underwater","oficial":"no","operator":"none","waste":"trash"}},"type":"Feature"},
	{"geometry":{"coordinates":[28.229713,-15.428695],"type":"Point"},"properties":{"osm_id":"4775011093","tag":{"amenity":"waste_disposal","location":"overground","oficial":"no","operator":"none","waste":"trash"}},"type":"Feature"},
	{"geometry":{"coordinates":[28.229752,-15.42855],"type":"Point"},"properties":{"osm_id":"4775011096","tag":{"amenity":"waste_disposal","location":"overground","oficial":"no","operator":"none","waste":"trash"}},"type":"Feature"},
	{"geometry":{"coordinates":[28.230227,-15.428529],"type":"Point"},"properties":{"osm_id":"4775011098","tag":{"amenity":"waste_disposal","location":"overground","oficial":"no","operator":"none","waste":"trash"}},"type":"Feature"},
	{"geometry":{"coordinates":[28.230215,-15.42834],"type":"Point"},"properties":{"osm_id":"4775011101","tag":{"amenity":"waste_disposal","location":"underwater","oficial":"no","operator":"none","waste":"trash"}},"type":"Feature"},
	{"geometry":{"coordinates":[28.229788,-15.428385],"type":"Point"},"properties":{"osm_id":"4775011102","tag":{"amenity":"waste_disposal","location":"underground","oficial":"no","operator":"none","waste":"trash"}},"type":"Feature"},
	{"geometry":{"coordinates":[28.229683,-15.427613],"type":"Point"},"properties":{"osm_id":"4775011113","tag":{"amenity":"waste_disposal","location":"underwater","oficial":"no","operator":"none","waste":"trash"}},"type":"Feature"},
	{"geometry":{"coordinates":[28.221004,-15.432187],"type":"Point"},"properties":{"osm_id":"4776994730","tag":{"amenity":"waste_disposal","location":"underground","oficial":"no","operator":"none","waste":"trash"}},"type":"Feature"},
	{"geometry":{"coordinates":[28.222568,-15.43186],"type":"Point"},"properties":{"osm_id":"4776994736","tag":{"amenity":"waste_disposal","location":"overground","oficial":"no","operator":"none","waste":"trash"}},"type":"Feature"},
	{"geometry":{"coordinates":[28.221332,-15.432115],"type":"Point"},"properties":{"osm_id":"4776994740","tag":{"amenity":"waste_disposal","location":"overground","oficial":"no","operator":"none","waste":"trash"}},"type":"Feature"},
	{"geometry":{"coordinates":[28.222162,-15.432297],"type":"Point"},"properties":{"osm_id":"4776994749","tag":{"amenity":"waste_disposal","location":"overground","oficial":"no","operator":"none","waste":"trash"}},"type":"Feature"},
	{"geometry":{"coordinates":[28.222173,-15.431833],"type":"Point"},"properties":{"osm_id":"4776994753","tag":{"amenity":"waste_disposal","location":"overground","oficial":"no","operator":"none","waste":"trash"}},"type":"Feature"},
	{"geometry":{"coordinates":[28.2219,-15.432648],"type":"Point"},"properties":{"osm_id":"4776994754","tag":{"amenity":"waste_disposal","location":"overground","oficial":"no","operator":"none","waste":"trash"}},"type":"Feature"},
	{"geometry":{"coordinates":[28.222105,-15.431924],"type":"Point"},"properties":{"osm_id":"4776994756","tag":{"amenity":"waste_disposal","location":"underground","oficial":"no","operator":"none","waste":"trash"}},"type":"Feature"},
	{"geometry":{"coordinates":[28.222699,-15.431784],"type":"Point"},"properties":{"osm_id":"4776994765","tag":{"amenity":"waste_disposal","location":"overground","oficial":"no","operator":"none","waste":"trash"}},"type":"Feature"},
	{"geometry":{"coordinates":[28.222144,-15.432408],"type":"Point"},"properties":{"osm_id":"4776994768","tag":{"amenity":"waste_disposal","location":"overground","oficial":"no","operator":"none","waste":"trash"}},"type":"Feature"},
	{"geometry":{"coordinates":[28.22181,-15.432357],"type":"Point"},"properties":{"osm_id":"4776994786","tag":{"amenity":"waste_disposal","location":"underground","oficial":"no","operator":"none","waste":"trash"}},"type":"Feature"},
	{"geometry":{"coordinates":[28.222911,-15.432335],"type":"Point"},"properties":{"osm_id":"4776994787","tag":{"amenity":"waste_disposal","location":"underground","oficial":"no","operator":"none","waste":"trash"}},"type":"Feature"},
	{"geometry":{"coordinates":[28.221905,-15.431152],"type":"Point"},"properties":{"osm_id":"4776994797","tag":{"amenity":"waste_disposal","location":"overground","oficial":"no","operator":"none","waste":"trash"}},"type":"Feature"},
	{"geometry":{"coordinates":[28.215131,-15.430753],"type":"Point"},"properties":{"osm_id":"4779144238","tag":{"amenity":"waste_disposal","location":"underwater","oficial":"no","operator":"none","waste":"organic"}},"type":"Feature"},
	{"geometry":{"coordinates":[28.21429,-15.430821],"type":"Point"},"properties":{"osm_id":"4779144271","tag":{"amenity":"waste_disposal","location":"overground","oficial":"no","operator":"none","waste":"trash"}},"type":"Feature"},
	{"geometry":{"coordinates":[28.213455,-15.431087],"type":"Point"},"properties":{"osm_id":"4779144281","tag":{"amenity":"waste_disposal","location":"underground","oficial":"no","operator":"none","waste":"trash"}},"type":"Feature"},
	{"geometry":{"coordinates":[28.215551,-15.431156],"type":"Point"},"properties":{"osm_id":"4779144298","tag":{"amenity":"waste_disposal","location":"overground","oficial":"no","operator":"none","waste":"trash"}},"type":"Feature"},
	{"geometry":{"coordinates":[28.214137,-15.430936],"type":"Point"},"properties":{"osm_id":"4779144311","tag":{"amenity":"waste_disposal","location":"overground","oficial":"no","operator":"none","waste":"trash"}},"type":"Feature"},
	{"geometry":{"coordinates":[28.215444,-15.431012],"type":"Point"},"properties":{"osm_id":"4779144313","tag":{"amenity":"waste_disposal","location":"overground","oficial":"no","operator":"none","waste":"trash"}},"type":"Feature"},
	{"geometry":{"coordinates":[28.214235,-15.431079],"type":"Point"},"properties":{"osm_id":"4779144314","tag":{"amenity":"waste_disposal","location":"overground","oficial":"no","operator":"none","waste":"trash"}},"type":"Feature"},
	{"geometry":{"coordinates":[28.215356,-15.431194],"type":"Point"},"properties":{"osm_id":"4779144317","tag":{"amenity":"waste_disposal","location":"overground","oficial":"no","operator":"none","waste":"trash"}},"type":"Feature"},
	{"geometry":{"coordinates":[28.215424,-15.43073],"type":"Point"},"properties":{"osm_id":"4779145335","tag":{"amenity":"waste_disposal","location":"overground","oficial":"no","operator":"none","waste":"trash"}},"type":"Feature"},
	{"geometry":{"coordinates":[28.214464,-15.430656],"type":"Point"},"properties":{"osm_id":"4779145345","tag":{"amenity":"waste_disposal","location":"overground","oficial":"no","operator":"none","waste":"trash"}},"type":"Feature"},
	{"geometry":{"coordinates":[28.223417,-15.424943],"type":"Point"},"properties":{"osm_id":"4787708393","tag":{"amenity":"waste_disposal","location":"overground","oficial":"no","operator":"none","waste":"trash"}},"type":"Feature"},
	{"geometry":{"coordinates":[28.22406,-15.425193],"type":"Point"},"properties":{"osm_id":"4787708395","tag":{"amenity":"waste_disposal","location":"overground","oficial":"no","operator":"none","waste":"trash"}},"type":"Feature"},
	{"geometry":{"coordinates":[28.224402,-15.424723],"type":"Point"},"properties":{"osm_id":"4787708399","tag":{"amenity":"waste_disposal","location":"overground","oficial":"no","operator":"none"}},"type":"Feature"},
	{"geometry":{"coordinates":[28.223754,-15.424423],"type":"Point"},"properties":{"osm_id":"4787708408","tag":{"amenity":"waste_disposal","location":"overground","oficial":"no","operator":"none","waste":"trash"}},"type":"Feature"},
	{"geometry":{"coordinates":[28.22319,-15.424517],"type":"Point"},"properties":{"osm_id":"4787708414","tag":{"amenity":"waste_disposal","location":"overground","oficial":"no","operator":"none","waste":"trash"}},"type":"Feature"},
	{"geometry":{"coordinates":[28.222354,-15.424278],"type":"Point"},"properties":{"osm_id":"4787708521","tag":{"amenity":"waste_disposal","location":"overground","oficial":"no","operator":"none","waste":"trash"}},"type":"Feature"},
	{"geometry":{"coordinates":[28.222888,-15.425053],"type":"Point"},"properties":{"osm_id":"4787708523","tag":{"amenity":"waste_disposal","location":"overground","oficial":"no","operator":"none","waste":"trash"}},"type":"Feature"},
	{"geometry":{"coordinates":[28.22311,-15.425142],"type":"Point"},"properties":{"osm_id":"4787708529","tag":{"amenity":"waste_disposal","location":"underground","oficial":"no","operator":"none","waste":"trash"}},"type":"Feature"},
	{"geometry":{"coordinates":[28.224328,-15.425882],"type":"Point"},"properties":{"osm_id":"4787708534","tag":{"amenity":"waste_disposal","location":"overground","oficial":"no","operator":"none","waste":"trash"}},"type":"Feature"},
	{"geometry":{"coordinates":[28.224249,-15.426512],"type":"Point"},"properties":{"osm_id":"4787708549","tag":{"amenity":"waste_disposal","location":"underground","oficial":"no","operator":"none","waste":"organic"}},"type":"Feature"},
	{"geometry":{"coordinates":[28.224298,-15.426279],"type":"Point"},"properties":{"osm_id":"4787708551","tag":{"amenity":"waste_disposal","location":"underwater","oficial":"no","operator":"none","waste":"trash"}},"type":"Feature"},
	{"geometry":{"coordinates":[28.224196,-15.426239],"type":"Point"},"properties":{"osm_id":"4787708554","tag":{"amenity":"waste_disposal","location":"underground","oficial":"no","operator":"none","waste":"trash"}},"type":"Feature"},
	{"geometry":{"coordinates":[28.224036,-15.425903],"type":"Point"},"properties":{"osm_id":"4787708556","tag":{"amenity":"waste_disposal","location":"overground","oficial":"no","operator":"none","waste":"trash"}},"type":"Feature"},
	{"geometry":{"coordinates":[28.223731,-15.425846],"type":"Point"},"properties":{"osm_id":"4787708559","tag":{"amenity":"waste_disposal","location":"overground","oficial":"no","operator":"none","waste":"trash"}},"type":"Feature"},
	{"geometry":{"coordinates":[28.223555,-15.425799],"type":"Point"},"properties":{"osm_id":"4787708562","tag":{"amenity":"waste_disposal","location":"overground","oficial":"no","operator":"none","waste":"trash"}},"type":"Feature"},
	{"geometry":{"coordinates":[28.22322,-15.425534],"type":"Point"},"properties":{"osm_id":"4787708569","tag":{"amenity":"waste_disposal","location":"overground","oficial":"no","operator":"none","waste":"trash"}},"type":"Feature"},
	{"geometry":{"coordinates":[28.223059,-15.425503],"type":"Point"},"properties":{"osm_id":"4787708570","tag":{"amenity":"waste_disposal","location":"overground","oficial":"no","operator":"none","waste":"trash"}},"type":"Feature"},
	{"geometry":{"coordinates":[28.223139,-15.425534],"type":"Point"},"properties":{"osm_id":"4787708571","tag":{"amenity":"waste_disposal","location":"overground","oficial":"no","operator":"none","waste":"trash"}},"type":"Feature"},
	{"geometry":{"coordinates":[28.22362,-15.426172],"type":"Point"},"properties":{"osm_id":"4787708575","tag":{"amenity":"waste_disposal","location":"overground","oficial":"no","operator":"none","waste":"trash"}},"type":"Feature"},
	{"geometry":{"coordinates":[28.22392,-15.426213],"type":"Point"},"properties":{"osm_id":"4787708581","tag":{"amenity":"waste_disposal","location":"overground","oficial":"no","operator":"none","waste":"trash"}},"type":"Feature"},
	{"geometry":{"coordinates":[28.223851,-15.426466],"type":"Point"},"properties":{"osm_id":"4787708585","tag":{"amenity":"waste_disposal","location":"overground","oficial":"no","operator":"none","waste":"trash"}},"type":"Feature"},
	{"geometry":{"coordinates":[28.224181,-15.426766],"type":"Point"},"properties":{"osm_id":"4787708588","tag":{"amenity":"waste_disposal","location":"overground","oficial":"no","operator":"none","waste":"trash"}},"type":"Feature"},
	{"geometry":{"coordinates":[28.224175,-15.427539],"type":"Point"},"properties":{"osm_id":"4787708592","tag":{"amenity":"waste_disposal","location":"underground","oficial":"no","operator":"none","waste":"trash"}},"type":"Feature"},
	{"geometry":{"coordinates":[28.249221,-15.43949],"type":"Point"},"properties":{"osm_id":"4788035884","tag":{"amenity":"waste_disposal","location":"overground","oficial":"no","operator":"private","waste":"trash"}},"type":"Feature"},
	{"geometry":{"coordinates":[28.244818,-15.444149],"type":"Point"},"properties":{"osm_id":"4788480410","tag":{"amenity":"waste_disposal","location":"overground","oficial":"no","operator":"private","waste":"trash"}},"type":"Feature"},
	{"geometry":{"coordinates":[28.256822,-15.435654],"type":"Point"},"properties":{"osm_id":"4788520690","tag":{"amenity":"waste_disposal","location":"overground","oficial":"no","operator":"none","waste":"trash"}},"type":"Feature"},
	{"geometry":{"coordinates":[28.256853,-15.434004],"type":"Point"},"properties":{"osm_id":"4789968910","tag":{"amenity":"waste_disposal"}},"type":"Feature"},
	{"geometry":{"coordinates":[28.256735,-15.434103],"type":"Point"},"properties":{"osm_id":"4789968911","tag":{"amenity":"waste_disposal"}},"type":"Feature"},
	{"geometry":{"coordinates":[28.256656,-15.434158],"type":"Point"},"properties":{"osm_id":"4789968912","tag":{"amenity":"waste_disposal"}},"type":"Feature"},
	{"geometry":{"coordinates":[28.25611,-15.433605],"type":"Point"},"properties":{"osm_id":"4789968913","tag":{"amenity":"waste_disposal"}},"type":"Feature"},
	{"geometry":{"coordinates":[28.249567,-15.435933],"type":"Point"},"properties":{"osm_id":"4790146873","tag":{"amenity":"waste_disposal","waste":"trash"}},"type":"Feature"},
	{"geometry":{"coordinates":[28.253835,-15.430627],"type":"Point"},"properties":{"osm_id":"4790157134","tag":{"amenity":"waste_disposal","location":"overground","oficial":"no","operator":"none","waste":"trash"}},"type":"Feature"},
	{"geometry":{"coordinates":[28.255141,-15.432501],"type":"Point"},"properties":{"osm_id":"4790157156","tag":{"amenity":"waste_disposal","location":"overground","oficial":"no","operator":"none","waste":"trash"}},"type":"Feature"},
	{"geometry":{"coordinates":[28.254776,-15.432377],"type":"Point"},"properties":{"osm_id":"4790157162","tag":{"amenity":"waste_disposal","location":"overground","oficial":"no","operator":"none","waste":"trash"}},"type":"Feature"},
	{"geometry":{"coordinates":[28.254228,-15.432584],"type":"Point"},"properties":{"osm_id":"4790157174","tag":{"amenity":"waste_disposal","location":"overground","oficial":"no","operator":"none","waste":"trash"}},"type":"Feature"},
	{"geometry":{"coordinates":[28.253782,-15.432044],"type":"Point"},"properties":{"osm_id":"4790157183","tag":{"amenity":"waste_disposal","location":"overground","oficial":"no","operator":"none","waste":"trash"}},"type":"Feature"},
	{"geometry":{"coordinates":[28.255046,-15.424566],"type":"Point"},"properties":{"osm_id":"4791866072","tag":{"amenity":"waste_disposal","location":"overground","oficial":"no","operator":"none","waste":"trash"}},"type":"Feature"},
	{"geometry":{"coordinates":[28.257281,-15.4251],"type":"Point"},"properties":{"osm_id":"4791866090","tag":{"amenity":"waste_disposal","location":"underwater","oficial":"no","operator":"none","waste":"trash"}},"type":"Feature"},
	{"geometry":{"coordinates":[28.25631,-15.425081],"type":"Point"},"properties":{"osm_id":"4791866109","tag":{"amenity":"waste_disposal","location":"underground","oficial":"no","operator":"none","waste":"trash"}},"type":"Feature"},
	{"geometry":{"coordinates":[28.243177,-15.434021],"type":"Point"},"properties":{"osm_id":"4801088565","tag":{"amenity":"waste_disposal","location":"overground","oficial":"yes","operator":"private","waste":"trash"}},"type":"Feature"},
	{"geometry":{"coordinates":[28.243246,-15.435059],"type":"Point"},"properties":{"osm_id":"4801214388","tag":{"amenity":"waste_disposal"}},"type":"Feature"},
	{"geometry":{"coordinates":[28.221178,-15.425027],"type":"Point"},"properties":{"osm_id":"4801597634","tag":{"amenity":"waste_disposal"}},"type":"Feature"},
	{"geometry":{"coordinates":[28.251727,-15.439384],"type":"Point"},"properties":{"osm_id":"4801784902","tag":{"amenity":"waste_disposal","location":"overground","oficial":"no","operator":"none","waste":"trash"}},"type":"Feature"},
	{"geometry":{"coordinates":[28.252601,-15.438457],"type":"Point"},"properties":{"osm_id":"4801784927","tag":{"amenity":"waste_disposal","location":"underground","oficial":"no","operator":"none","waste":"trash"}},"type":"Feature"},
	{"geometry":{"coordinates":[28.243148,-15.436724],"type":"Point"},"properties":{"osm_id":"4801784929","tag":{"amenity":"waste_disposal","location":"overground","oficial":"no","operator":"none","waste":"trash"}},"type":"Feature"},
	{"geometry":{"coordinates":[28.244163,-15.437121],"type":"Point"},"properties":{"osm_id":"4801784937","tag":{"amenity":"waste_disposal","location":"overground","oficial":"no","operator":"none","waste":"trash"}},"type":"Feature"},
	{"geometry":{"coordinates":[28.252194,-15.437915],"type":"Point"},"properties":{"osm_id":"4801784963","tag":{"amenity":"waste_disposal","location":"overground","oficial":"no","operator":"none","waste":"trash"}},"type":"Feature"},
	{"geometry":{"coordinates":[28.24336,-15.436845],"type":"Point"},"properties":{"osm_id":"4801784984","tag":{"amenity":"waste_disposal","location":"overground","oficial":"no","operator":"none","waste":"trash"}},"type":"Feature"},
	{"geometry":{"coordinates":[28.243416,-15.437318],"type":"Point"},"properties":{"osm_id":"4801785134","tag":{"amenity":"waste_disposal","location":"overground","oficial":"no","operator":"none","waste":"trash"}},"type":"Feature"},
	{"geometry":{"coordinates":[28.242871,-15.437035],"type":"Point"},"properties":{"osm_id":"4801785146","tag":{"amenity":"waste_disposal","location":"overground","oficial":"no","operator":"none","waste":"trash"}},"type":"Feature"}
]
}
