{
"type": "FeatureCollection",
"features": [
	{"geometry":{"coordinates":[1.76401,49.2832],"type":"Point"},"properties":{"osm_id":"2300978608","tag":{"amenity":"recycling","recycling:glass_bottles":"yes","recycling_type":"container"}},"type":"Feature"},
	{"geometry":{"coordinates":[1.7618,49.275256],"type":"Point"},"properties":{"osm_id":"2300981774","tag":{"amenity":"recycling","recycling:glass":"no","recycling:glass_bottles":"yes","recycling_type":"container"}},"type":"Feature"},
	{"geometry":{"coordinates":[1.775961,49.278113],"type":"Point"},"properties":{"osm_id":"4142861898","tag":{"amenity":"waste_basket"}},"type":"Feature"},
	{"geometry":{"coordinates":[1.776376,49.277801],"type":"Point"},"properties":{"osm_id":"4142863895","tag":{"amenity":"waste_basket"}},"type":"Feature"},
	{"geometry":{"coordinates":[1.777378,49.278449],"type":"Point"},"properties":{"osm_id":"4142863896","tag":{"access":"yes","amenity":"recycling","fee":"no","operator":"Syndicat de gestion des ordures m\u00c3\u00a9nag\u00c3\u00a8res du nord et de l\u00e2\u0080\u0099est du d\u00c3\u00a9partement de l\u00e2\u0080\u0099Eure","recycling:paper":"yes","recycling_type":"container","wheelchair":"no"}},"type":"Feature"},
	{"geometry":{"coordinates":[1.778039,49.279294],"type":"Point"},"properties":{"osm_id":"6699168352","tag":{"amenity":"waste_basket","wheelchair":"yes"}},"type":"Feature"},
	{"geometry":{"coordinates":[1.777419,49.278469],"type":"Point"},"properties":{"osm_id":"6699196813","tag":{"access":"yes","amenity":"recycling","fee":"no","operator":"Syndicat de gestion des ordures m\u00c3\u00a9nag\u00c3\u00a8res du nord et de l\u00e2\u0080\u0099est du d\u00c3\u00a9partement de l\u00e2\u0080\u0099Eure","recycling:glass":"yes","recycling_type":"container","wheelchair":"no"}},"type":"Feature"},
	{"geometry":{"coordinates":[1.77746,49.278486],"type":"Point"},"properties":{"osm_id":"6699196814","tag":{"access":"yes","amenity":"recycling","fee":"no","operator":"Syndicat de gestion des ordures m\u00c3\u00a9nag\u00c3\u00a8res du nord et de l\u00e2\u0080\u0099est du d\u00c3\u00a9partement de l\u00e2\u0080\u0099Eure","recycling:glass":"yes","recycling_type":"container","wheelchair":"no"}},"type":"Feature"},
	{"geometry":{"coordinates":[1.774909,49.279403],"type":"Point"},"properties":{"osm_id":"9038400641","tag":{"amenity":"waste_basket"}},"type":"Feature"},
	{"geometry":{"coordinates":[1.773954,49.281476],"type":"Point"},"properties":{"osm_id":"9038432853","tag":{"amenity":"waste_basket"}},"type":"Feature"}
]
}
