{
"type": "FeatureCollection",
"lastupdate": "2020-08-04T00:00:00Z",
"features": [
	{"geometry":{"coordinates":[1.758506,47.819547],"type":"Point"},"properties":{"osm_id":"5497014064","tag":{"amenity":"waste_basket"}},"type":"Feature"},
	{"geometry":{"coordinates":[1.758449,47.819546],"type":"Point"},"properties":{"osm_id":"5497014065","tag":{"amenity":"recycling","recycling:glass_bottles":"yes","recycling:paper":"yes","recycling_type":"container"}},"type":"Feature"},
	{"geometry":{"coordinates":[1.760883,47.822371],"type":"Point"},"properties":{"osm_id":"5499117425","tag":{"amenity":"recycling","recycling:glass_bottles":"yes","recycling:paper":"yes","recycling_type":"container"}},"type":"Feature"},
	{"geometry":{"coordinates":[1.762823,47.825631],"type":"Point"},"properties":{"osm_id":"5499193262","tag":{"amenity":"waste_basket"}},"type":"Feature"},
	{"geometry":{"coordinates":[1.758145,47.822751],"type":"Point"},"properties":{"osm_id":"5506027604","tag":{"amenity":"waste_basket"}},"type":"Feature"},
	{"geometry":{"coordinates":[1.758151,47.82263],"type":"Point"},"properties":{"osm_id":"5506027606","tag":{"amenity":"waste_basket"}},"type":"Feature"},
	{"geometry":{"coordinates":[1.765327,47.827752],"type":"Point"},"properties":{"osm_id":"5508649085","tag":{"amenity":"waste_basket"}},"type":"Feature"},
	{"geometry":{"coordinates":[1.765338,47.827523],"type":"Point"},"properties":{"osm_id":"5508649087","tag":{"amenity":"waste_basket"}},"type":"Feature"},
	{"geometry":{"coordinates":[1.76128,47.824442],"type":"Point"},"properties":{"osm_id":"5508713552","tag":{"amenity":"waste_basket"}},"type":"Feature"},
	{"geometry":{"coordinates":[1.768141,47.829884],"type":"Point"},"properties":{"osm_id":"5510673086","tag":{"amenity":"waste_basket"}},"type":"Feature"},
	{"geometry":{"coordinates":[1.768275,47.829735],"type":"Point"},"properties":{"osm_id":"5510673087","tag":{"amenity":"waste_basket"}},"type":"Feature"},
	{"geometry":{"coordinates":[1.765655,47.832432],"type":"Point"},"properties":{"osm_id":"5511746938","tag":{"amenity":"waste_basket"}},"type":"Feature"},
	{"geometry":{"coordinates":[1.761599,47.831946],"type":"Point"},"properties":{"osm_id":"5511746943","tag":{"amenity":"recycling","recycling_type":"container"}},"type":"Feature"},
	{"geometry":{"coordinates":[1.761616,47.831942],"type":"Point"},"properties":{"osm_id":"5511746944","tag":{"amenity":"waste_basket"}},"type":"Feature"},
	{"geometry":{"coordinates":[1.764261,47.864907],"type":"Point"},"properties":{"osm_id":"5556963900","tag":{"amenity":"waste_basket"}},"type":"Feature"},
	{"geometry":{"coordinates":[1.763436,47.866907],"type":"Point"},"properties":{"osm_id":"5556967249","tag":{"amenity":"waste_basket"}},"type":"Feature"},
	{"geometry":{"coordinates":[1.760537,47.865638],"type":"Point"},"properties":{"osm_id":"5669996408","tag":{"amenity":"waste_basket"}},"type":"Feature"},
	{"geometry":{"coordinates":[1.75934,47.860899],"type":"Point"},"properties":{"osm_id":"5699097900","tag":{"amenity":"waste_basket"}},"type":"Feature"},
	{"geometry":{"coordinates":[1.759307,47.86088],"type":"Point"},"properties":{"osm_id":"5699097901","tag":{"amenity":"waste_basket"}},"type":"Feature"},
	{"geometry":{"coordinates":[1.759353,47.860878],"type":"Point"},"properties":{"osm_id":"5699097902","tag":{"amenity":"recycling","recycling:paper":"yes","recycling_type":"container"}},"type":"Feature"},
	{"geometry":{"coordinates":[1.759358,47.860848],"type":"Point"},"properties":{"osm_id":"5699097903","tag":{"amenity":"recycling","recycling:glass_bottles":"yes","recycling_type":"container"}},"type":"Feature"},
	{"geometry":{"coordinates":[1.759374,47.860822],"type":"Point"},"properties":{"osm_id":"5699097904","tag":{"amenity":"recycling","recycling:plastic":"yes","recycling_type":"container"}},"type":"Feature"},
	{"geometry":{"coordinates":[1.792319,47.868658],"type":"Point"},"properties":{"osm_id":"5706780398","tag":{"amenity":"recycling","recycling:glass_bottles":"yes","recycling_type":"container"}},"type":"Feature"},
	{"geometry":{"coordinates":[1.826985,47.867126],"type":"Point"},"properties":{"osm_id":"7526552938","tag":{"amenity":"waste_basket"}},"type":"Feature"}
]
}
