{
"type": "FeatureCollection",
"features": [
	{"geometry":{"coordinates":[1.801347,45.532346],"type":"Point"},"properties":{"name":"Point d'apport volontaire tri selectif","osm_id":"2400343762","tag":{"amenity":"recycling"}},"type":"Feature"},
	{"geometry":{"coordinates":[1.797038,45.537868],"type":"Point"},"properties":{"name":"Point d'apport volontaire tri selectif","osm_id":"2400348058","tag":{"amenity":"recycling"}},"type":"Feature"},
	{"geometry":{"coordinates":[1.815662,45.560524],"type":"Point"},"properties":{"osm_id":"2400432729","tag":{"amenity":"recycling","recycling_type":"container"}},"type":"Feature"},
	{"geometry":{"coordinates":[1.813235,45.559816],"type":"Point"},"properties":{"osm_id":"2400432730","tag":{"amenity":"recycling","recycling:glass_bottles":"yes","recycling_type":"container"}},"type":"Feature"},
	{"geometry":{"coordinates":[1.789534,45.533018],"type":"Point"},"properties":{"name":"Point d'apport volontaire Tri Selectif","osm_id":"2400432882","tag":{"amenity":"recycling"}},"type":"Feature"},
	{"geometry":{"coordinates":[1.799075,45.543562],"type":"Point"},"properties":{"osm_id":"2400432883","tag":{"amenity":"recycling","recycling_type":"container"}},"type":"Feature"},
	{"geometry":{"coordinates":[1.794998,45.537121],"type":"Point"},"properties":{"osm_id":"2430890720","tag":{"amenity":"waste_basket"}},"type":"Feature"},
	{"geometry":{"coordinates":[1.794507,45.537455],"type":"Point"},"properties":{"osm_id":"2430890745","tag":{"amenity":"waste_basket"}},"type":"Feature"}
]
}
