{
"type": "FeatureCollection",
"features": [
	{"geometry":{"coordinates":[1.837671,43.756652],"type":"Point"},"properties":{"osm_id":"2392119654","tag":{"amenity":"recycling"}},"type":"Feature"},
	{"geometry":{"coordinates":[1.787129,43.750593],"type":"Point"},"properties":{"osm_id":"2894015267","tag":{"amenity":"waste_basket","material":"concrete","waste":"trash"}},"type":"Feature"},
	{"geometry":{"coordinates":[1.786933,43.750608],"type":"Point"},"properties":{"osm_id":"2894015268","tag":{"amenity":"waste_basket","material":"concrete","waste":"trash"}},"type":"Feature"},
	{"geometry":{"coordinates":[1.764082,43.76479],"type":"Point"},"properties":{"osm_id":"8665890034","tag":{"amenity":"waste_basket","operator":"Mairie de Saint-Lieux","waste":"trash"}},"type":"Feature"},
	{"geometry":{"coordinates":[1.762107,43.765049],"type":"Point"},"properties":{"osm_id":"8665890035","tag":{"amenity":"waste_basket","operator":"Mairie de Saint-Lieux","waste":"trash"}},"type":"Feature"},
	{"geometry":{"coordinates":[1.776663,43.74224],"type":"Point"},"properties":{"osm_id":"8665890041","tag":{"amenity":"recycling","opening_hours":"24/7","recycling:cans":"yes","recycling:plastic":"yes","recycling_type":"container"}},"type":"Feature"},
	{"geometry":{"coordinates":[1.775214,43.743819],"type":"Point"},"properties":{"osm_id":"8665890042","tag":{"amenity":"recycling","opening_hours":"24/7","recycling:glass_bottles":"yes","recycling_type":"container"}},"type":"Feature"},
	{"geometry":{"coordinates":[1.775158,43.743757],"type":"Point"},"properties":{"osm_id":"8665890043","tag":{"amenity":"recycling","opening_hours":"24/7","recycling:clothes":"yes","recycling:shoes":"yes","recycling_type":"container"}},"type":"Feature"},
	{"geometry":{"coordinates":[1.767948,43.741078],"type":"Point"},"properties":{"osm_id":"8665890044","tag":{"amenity":"recycling","opening_hours":"24/7","recycling:glass_bottles":"yes","recycling_type":"container"}},"type":"Feature"}
]
}
