{
"type": "FeatureCollection",
"features": [
	{"geometry":{"coordinates":[1.804921,41.752498],"type":"Point"},"properties":{"barrier":"gate","osm_id":"2516153019","tag":{"bicycle":"yes","foot":"yes"}},"type":"Feature"},
	{"geometry":{"coordinates":[1.805416,41.752782],"type":"Point"},"properties":{"barrier":"gate","osm_id":"3348391638","tag":{"bicycle":"yes","foot":"yes"}},"type":"Feature"},
	{"geometry":{"coordinates":[1.838524,41.721414],"type":"Point"},"properties":{"osm_id":"4086812290","tag":{"amenity":"waste_disposal"}},"type":"Feature"},
	{"geometry":{"coordinates":[1.840231,41.722188],"type":"Point"},"properties":{"osm_id":"4086812291","tag":{"amenity":"waste_disposal"}},"type":"Feature"},
	{"geometry":{"coordinates":[1.838688,41.723201],"type":"Point"},"properties":{"osm_id":"4086812292","tag":{"amenity":"waste_disposal"}},"type":"Feature"},
	{"geometry":{"coordinates":[1.837053,41.721435],"type":"Point"},"properties":{"osm_id":"4086829797","tag":{"amenity":"waste_disposal"}},"type":"Feature"},
	{"geometry":{"coordinates":[1.835723,41.72144],"type":"Point"},"properties":{"osm_id":"4086829891","tag":{"amenity":"waste_disposal"}},"type":"Feature"},
	{"geometry":{"coordinates":[1.839525,41.721544],"type":"Point"},"properties":{"osm_id":"4086829892","tag":{"amenity":"waste_disposal"}},"type":"Feature"},
	{"geometry":{"coordinates":[1.834426,41.721038],"type":"Point"},"properties":{"osm_id":"4086842689","tag":{"amenity":"waste_disposal"}},"type":"Feature"},
	{"geometry":{"coordinates":[1.838858,41.721305],"type":"Point"},"properties":{"osm_id":"4086842690","tag":{"amenity":"waste_disposal"}},"type":"Feature"},
	{"geometry":{"coordinates":[1.835637,41.722844],"type":"Point"},"properties":{"osm_id":"4086842691","tag":{"amenity":"waste_disposal"}},"type":"Feature"},
	{"geometry":{"coordinates":[1.840356,41.723745],"type":"Point"},"properties":{"osm_id":"4086842692","tag":{"amenity":"waste_disposal"}},"type":"Feature"},
	{"geometry":{"coordinates":[1.839783,41.723804],"type":"Point"},"properties":{"osm_id":"4086842693","tag":{"amenity":"waste_disposal"}},"type":"Feature"},
	{"geometry":{"coordinates":[1.83461,41.72235],"type":"Point"},"properties":{"osm_id":"4086842989","tag":{"amenity":"waste_disposal"}},"type":"Feature"},
	{"geometry":{"coordinates":[1.837566,41.722554],"type":"Point"},"properties":{"osm_id":"4086842990","tag":{"amenity":"waste_disposal"}},"type":"Feature"},
	{"geometry":{"coordinates":[1.837929,41.723162],"type":"Point"},"properties":{"osm_id":"4086842991","tag":{"amenity":"waste_disposal"}},"type":"Feature"},
	{"geometry":{"coordinates":[1.763384,41.714488],"type":"Point"},"properties":{"osm_id":"7159383989","tag":{"access":"private","amenity":"waste_disposal","waste":"trash;recycling;organic;plastic;glass"}},"type":"Feature"}
]
}
