{
"type": "FeatureCollection",
"features": [
	{"geometry":{"coordinates":[77.112743,28.675756],"type":"Point"},"properties":{"osm_id":"1667685854","tag":{"amenity":"waste_basket"}},"type":"Feature"},
	{"geometry":{"coordinates":[77.165073,28.647365],"type":"Point"},"properties":{"osm_id":"6385598140","tag":{"amenity":"waste_basket"}},"type":"Feature"},
	{"geometry":{"coordinates":[77.136298,28.638387],"type":"Point"},"properties":{"osm_id":"8284556362","tag":{"amenity":"recycling","contact:phone":"8860256556","operator":"ram sundar","recycling:glass_bottles":"yes","recycling:paper":"yes","recycling:plastic_bottles":"yes","recycling_type":"container"}},"type":"Feature"},
	{"geometry":{"coordinates":[77.082792,28.624814],"type":"Point"},"properties":{"osm_id":"8455231127","tag":{"amenity":"recycling","contact:phone":"9818925571","operator":"Shankar kabadi store","recycling:glass_bottles":"yes","recycling:plastic":"yes","recycling_type":"container"}},"type":"Feature"},
	{"geometry":{"coordinates":[77.149322,28.671503],"type":"Point"},"properties":{"osm_id":"8455375050","tag":{"amenity":"recycling","contact:phone":"+918587867512","operator":"Rama Kabadi","recycling:glass_bottles":"yes","recycling:paper":"yes","recycling:plastic":"yes","recycling_type":"container"}},"type":"Feature"},
	{"geometry":{"coordinates":[77.088785,28.618785],"type":"Point"},"properties":{"osm_id":"8458619368","tag":{"amenity":"recycling","operator":"F.F. Kabari Shop","recycling:glass_bottles":"yes","recycling:plastic":"yes","recycling_type":"container"}},"type":"Feature"},
	{"geometry":{"coordinates":[77.159856,28.655364],"type":"Point"},"properties":{"osm_id":"8458633498","tag":{"amenity":"recycling","contact:phone":"+919654108223","operator":"Vijay Kabadi Shop","recycling:glass_bottles":"yes","recycling:paper":"yes","recycling:plastic":"yes","recycling_type":"container"}},"type":"Feature"}
]
}
