{
"type": "FeatureCollection",
"features": [
	{"geometry":{"coordinates":[-0.130841,51.57358],"type":"Point"},"properties":{"osm_id":"82701628","tag":{"amenity":"recycling"}},"type":"Feature"},
	{"geometry":{"coordinates":[-0.129859,51.569398],"type":"Point"},"properties":{"osm_id":"100505798","tag":{"amenity":"recycling","recycling:clothes":"yes","recycling_type":"container"}},"type":"Feature"},
	{"geometry":{"coordinates":[-0.104113,51.566424],"type":"Point"},"properties":{"osm_id":"186024256","tag":{"amenity":"waste_basket"}},"type":"Feature"},
	{"geometry":{"coordinates":[-0.133713,51.586618],"type":"Point"},"properties":{"osm_id":"247327117","tag":{"amenity":"recycling"}},"type":"Feature"},
	{"geometry":{"coordinates":[-0.135494,51.56385],"type":"Point"},"properties":{"osm_id":"248227341","tag":{"amenity":"recycling","recycling_type":"container"}},"type":"Feature"},
	{"geometry":{"coordinates":[-0.118019,51.582831],"type":"Point"},"properties":{"osm_id":"255010153","tag":{"amenity":"recycling"}},"type":"Feature"},
	{"geometry":{"coordinates":[-0.096564,51.58543],"type":"Point"},"properties":{"osm_id":"343537931","tag":{"amenity":"recycling"}},"type":"Feature"},
	{"geometry":{"coordinates":[-0.092304,51.586253],"type":"Point"},"properties":{"osm_id":"343537937","tag":{"amenity":"recycling"}},"type":"Feature"},
	{"geometry":{"coordinates":[-0.105499,51.564858],"type":"Point"},"properties":{"osm_id":"373412431","tag":{"amenity":"waste_basket"}},"type":"Feature"},
	{"geometry":{"coordinates":[-0.104649,51.577682],"type":"Point"},"properties":{"osm_id":"394824002","tag":{"amenity":"recycling","recycling:magazines":"yes","recycling:newspaper":"yes"}},"type":"Feature"},
	{"geometry":{"coordinates":[-0.104226,51.577788],"type":"Point"},"properties":{"osm_id":"394824455","tag":{"amenity":"waste_basket"}},"type":"Feature"},
	{"geometry":{"coordinates":[-0.142736,51.569363],"type":"Point"},"properties":{"name":"Waterlow Park","osm_id":"800663977","tag":{"amenity":"recycling","opening_hours":"24/7","recycling:cans":"yes","recycling:cardboard":"yes","recycling:clothes":"yes","recycling:glass_bottles":"yes","recycling:newspaper":"yes","recycling:paper":"yes","recycling:shoes":"yes"}},"type":"Feature"},
	{"geometry":{"coordinates":[-0.110057,51.568314],"type":"Point"},"properties":{"osm_id":"847744435","tag":{"amenity":"waste_basket"}},"type":"Feature"},
	{"geometry":{"coordinates":[-0.108145,51.566913],"type":"Point"},"properties":{"osm_id":"847744525","tag":{"amenity":"waste_basket"}},"type":"Feature"},
	{"geometry":{"coordinates":[-0.111169,51.568929],"type":"Point"},"properties":{"osm_id":"847744539","tag":{"amenity":"waste_basket"}},"type":"Feature"},
	{"geometry":{"coordinates":[-0.111782,51.569046],"type":"Point"},"properties":{"osm_id":"847744674","tag":{"amenity":"recycling","recycling:cans":"yes","recycling:glass":"yes"}},"type":"Feature"},
	{"geometry":{"coordinates":[-0.110469,51.568809],"type":"Point"},"properties":{"osm_id":"847744679","tag":{"amenity":"recycling","recycling:clothes":"yes","shoes":"yes"}},"type":"Feature"},
	{"geometry":{"coordinates":[-0.114151,51.570233],"type":"Point"},"properties":{"osm_id":"847744703","tag":{"amenity":"waste_basket"}},"type":"Feature"},
	{"geometry":{"coordinates":[-0.11265,51.569609],"type":"Point"},"properties":{"osm_id":"847744743","tag":{"amenity":"waste_basket"}},"type":"Feature"},
	{"geometry":{"coordinates":[-0.110435,51.568837],"type":"Point"},"properties":{"osm_id":"847744864","tag":{"amenity":"waste_basket"}},"type":"Feature"},
	{"geometry":{"coordinates":[-0.124819,51.570554],"type":"Point"},"properties":{"osm_id":"848082331","tag":{"amenity":"recycling"}},"type":"Feature"},
	{"geometry":{"coordinates":[-0.125186,51.568167],"type":"Point"},"properties":{"osm_id":"848082495","tag":{"amenity":"waste_basket"}},"type":"Feature"},
	{"geometry":{"coordinates":[-0.127229,51.56731],"type":"Point"},"properties":{"osm_id":"848082541","tag":{"amenity":"waste_basket"}},"type":"Feature"},
	{"geometry":{"coordinates":[-0.127023,51.571353],"type":"Point"},"properties":{"osm_id":"848082614","tag":{"amenity":"waste_basket"}},"type":"Feature"},
	{"geometry":{"coordinates":[-0.126625,51.570772],"type":"Point"},"properties":{"osm_id":"848082785","tag":{"amenity":"waste_basket"}},"type":"Feature"},
	{"geometry":{"coordinates":[-0.125175,51.57117],"type":"Point"},"properties":{"osm_id":"848082834","tag":{"amenity":"waste_basket"}},"type":"Feature"},
	{"geometry":{"coordinates":[-0.124333,51.570146],"type":"Point"},"properties":{"osm_id":"848082836","tag":{"amenity":"recycling","recycling:batteries":"small_balls;round","recycling:cans":"yes","recycling:glass":"yes"}},"type":"Feature"},
	{"geometry":{"coordinates":[-0.1248,51.571558],"type":"Point"},"properties":{"osm_id":"848082886","tag":{"amenity":"waste_basket"}},"type":"Feature"},
	{"geometry":{"coordinates":[-0.124707,51.570029],"type":"Point"},"properties":{"osm_id":"848082911","tag":{"amenity":"waste_basket"}},"type":"Feature"},
	{"geometry":{"coordinates":[-0.127358,51.567417],"type":"Point"},"properties":{"osm_id":"848083021","tag":{"amenity":"waste_basket"}},"type":"Feature"},
	{"geometry":{"coordinates":[-0.124353,51.570535],"type":"Point"},"properties":{"osm_id":"848083091","tag":{"amenity":"waste_basket"}},"type":"Feature"},
	{"geometry":{"coordinates":[-0.125748,51.571034],"type":"Point"},"properties":{"osm_id":"848083108","tag":{"amenity":"recycling","recycling":"cans;bottles;small_balls;round","recycling:cans":"yes"}},"type":"Feature"},
	{"geometry":{"coordinates":[-0.126288,51.571031],"type":"Point"},"properties":{"osm_id":"848083417","tag":{"amenity":"waste_basket"}},"type":"Feature"},
	{"geometry":{"coordinates":[-0.126408,51.568218],"type":"Point"},"properties":{"name":"Elthorne Recycling Centre","osm_id":"848083438","tag":{"amenity":"recycling","recycling:clothes":"yes","recycling:electrical_items":"yes","recycling:glass":"yes","recycling:paper":"yes","recycling:plastic":"yes","recycling:waste":"yes","recycling_type":"container"}},"type":"Feature"},
	{"geometry":{"coordinates":[-0.125301,51.571104],"type":"Point"},"properties":{"osm_id":"848083466","tag":{"amenity":"waste_basket"}},"type":"Feature"},
	{"geometry":{"coordinates":[-0.124587,51.570522],"type":"Point"},"properties":{"osm_id":"848083552","tag":{"amenity":"waste_basket"}},"type":"Feature"},
	{"geometry":{"coordinates":[-0.127218,51.566854],"type":"Point"},"properties":{"osm_id":"848083689","tag":{"amenity":"waste_basket"}},"type":"Feature"},
	{"geometry":{"coordinates":[-0.127463,51.567455],"type":"Point"},"properties":{"osm_id":"848083691","tag":{"amenity":"waste_basket"}},"type":"Feature"},
	{"geometry":{"coordinates":[-0.124847,51.570254],"type":"Point"},"properties":{"osm_id":"848083727","tag":{"amenity":"waste_basket"}},"type":"Feature"},
	{"geometry":{"coordinates":[-0.127401,51.567373],"type":"Point"},"properties":{"osm_id":"848083745","tag":{"amenity":"waste_basket"}},"type":"Feature"},
	{"geometry":{"coordinates":[-0.127538,51.567259],"type":"Point"},"properties":{"osm_id":"848083776","tag":{"amenity":"waste_basket"}},"type":"Feature"},
	{"geometry":{"coordinates":[-0.126647,51.570727],"type":"Point"},"properties":{"osm_id":"848083872","tag":{"amenity":"recycling","capacity":"bin","recycling:cans":"yes","recycling:glass":"yes","recycling:plastic":"yes","recycling_type":"container"}},"type":"Feature"},
	{"geometry":{"coordinates":[-0.094293,51.568616],"type":"Point"},"properties":{"osm_id":"892728532","tag":{"amenity":"recycling","location":"overground","recycling_type":"container"}},"type":"Feature"},
	{"geometry":{"coordinates":[-0.134462,51.565351],"type":"Point"},"properties":{"osm_id":"902643951","tag":{"amenity":"waste_basket"}},"type":"Feature"},
	{"geometry":{"coordinates":[-0.120914,51.573828],"type":"Point"},"properties":{"osm_id":"1277041836","tag":{"amenity":"recycling","recycling_type":"container"}},"type":"Feature"},
	{"geometry":{"coordinates":[-0.123333,51.578893],"type":"Point"},"properties":{"osm_id":"1422390230","tag":{"amenity":"waste_basket"}},"type":"Feature"},
	{"geometry":{"coordinates":[-0.123434,51.578892],"type":"Point"},"properties":{"osm_id":"1422390234","tag":{"amenity":"waste_basket"}},"type":"Feature"},
	{"geometry":{"coordinates":[-0.123729,51.578678],"type":"Point"},"properties":{"osm_id":"1422390964","tag":{"amenity":"recycling","location":"overground","recycling_type":"container"}},"type":"Feature"},
	{"geometry":{"coordinates":[-0.123772,51.578737],"type":"Point"},"properties":{"osm_id":"1422390967","tag":{"amenity":"waste_basket"}},"type":"Feature"},
	{"geometry":{"coordinates":[-0.148661,51.570349],"type":"Point"},"properties":{"osm_id":"1451310071","tag":{"amenity":"waste_basket"}},"type":"Feature"},
	{"geometry":{"coordinates":[-0.148372,51.570646],"type":"Point"},"properties":{"osm_id":"1451310072","tag":{"amenity":"waste_basket"}},"type":"Feature"},
	{"geometry":{"coordinates":[-0.148356,51.570753],"type":"Point"},"properties":{"osm_id":"1451310075","tag":{"amenity":"waste_basket"}},"type":"Feature"},
	{"geometry":{"coordinates":[-0.138744,51.570455],"type":"Point"},"properties":{"osm_id":"1451330423","tag":{"amenity":"waste_basket"}},"type":"Feature"},
	{"geometry":{"coordinates":[-0.136015,51.571634],"type":"Point"},"properties":{"osm_id":"1451339426","tag":{"amenity":"waste_basket"}},"type":"Feature"},
	{"geometry":{"coordinates":[-0.126731,51.575278],"type":"Point"},"properties":{"osm_id":"1451355704","tag":{"amenity":"waste_basket"}},"type":"Feature"},
	{"geometry":{"coordinates":[-0.106508,51.577431],"type":"Point"},"properties":{"osm_id":"1541638206","tag":{"amenity":"recycling"}},"type":"Feature"},
	{"geometry":{"coordinates":[-0.116973,51.579762],"type":"Point"},"properties":{"osm_id":"1637903129","tag":{"amenity":"waste_basket"}},"type":"Feature"},
	{"geometry":{"coordinates":[-0.091187,51.586218],"type":"Point"},"properties":{"osm_id":"1643721476","tag":{"amenity":"waste_basket"}},"type":"Feature"},
	{"geometry":{"coordinates":[-0.155927,51.607077],"type":"Point"},"properties":{"name":"Tesco Recycling Centre","osm_id":"1678630381","tag":{"amenity":"recycling","opening_hours":"Mo-Su 07:00-23:00","recycling:cans":"yes","recycling:clothes":"yes","recycling:glass_bottles":"yes","recycling:plastic_bags":"yes","recycling:plastic_bottles":"yes","recycling:shoes":"yes"}},"type":"Feature"},
	{"geometry":{"coordinates":[-0.10927,51.596509],"type":"Point"},"properties":{"highway":"crossing","osm_id":"2020207822","tag":{"crossing":"traffic_signals","crossing:island":"yes","crossing_ref":"pelican"}},"type":"Feature"},
	{"geometry":{"coordinates":[-0.103511,51.590748],"type":"Point"},"properties":{"osm_id":"2027164028","tag":{"amenity":"waste_basket"}},"type":"Feature"},
	{"geometry":{"coordinates":[-0.10375,51.590947],"type":"Point"},"properties":{"osm_id":"2027164074","tag":{"amenity":"waste_basket"}},"type":"Feature"},
	{"geometry":{"coordinates":[-0.105291,51.592173],"type":"Point"},"properties":{"osm_id":"2027190688","tag":{"amenity":"waste_basket"}},"type":"Feature"},
	{"geometry":{"coordinates":[-0.106054,51.592704],"type":"Point"},"properties":{"osm_id":"2027196641","tag":{"amenity":"waste_basket"}},"type":"Feature"},
	{"geometry":{"coordinates":[-0.13484,51.57916],"type":"Point"},"properties":{"osm_id":"2051577953","tag":{"amenity":"waste_basket"}},"type":"Feature"},
	{"geometry":{"coordinates":[-0.134361,51.579288],"type":"Point"},"properties":{"osm_id":"2051577964","tag":{"amenity":"waste_basket"}},"type":"Feature"},
	{"geometry":{"coordinates":[-0.132139,51.580071],"type":"Point"},"properties":{"osm_id":"2051577973","tag":{"amenity":"waste_basket"}},"type":"Feature"},
	{"geometry":{"coordinates":[-0.095243,51.576106],"type":"Point"},"properties":{"osm_id":"2288813359","tag":{"amenity":"recycling","recycling:batteries":"yes","recycling:cans":"yes","recycling:cartons":"yes","recycling:clothes":"yes","recycling:electrical_appliances":"no","recycling:glass":"yes","recycling:glass_bottles":"yes","recycling:green_waste":"no","recycling:magazines":"yes","recycling:newspaper":"yes","recycling:paper":"yes","recycling:paper_packaging":"yes","recycling:plastic":"yes","recycling:plastic_bottles":"yes","recycling:plastic_packaging":"yes","recycling:scrap_metal":"no","recycling:small_appliances":"no","recycling:waste":"no","recycling:wood":"no","recycling_type":"container"}},"type":"Feature"},
	{"geometry":{"coordinates":[-0.088618,51.615574],"type":"Point"},"properties":{"osm_id":"2431543653","tag":{"amenity":"waste_basket"}},"type":"Feature"},
	{"geometry":{"coordinates":[-0.090544,51.615434],"type":"Point"},"properties":{"osm_id":"2431543663","tag":{"amenity":"waste_basket"}},"type":"Feature"},
	{"geometry":{"coordinates":[-0.091182,51.61526],"type":"Point"},"properties":{"osm_id":"2431543673","tag":{"amenity":"waste_basket"}},"type":"Feature"},
	{"geometry":{"coordinates":[-0.090981,51.615086],"type":"Point"},"properties":{"osm_id":"2431548130","tag":{"amenity":"waste_basket","waste":"dog"}},"type":"Feature"},
	{"geometry":{"coordinates":[-0.091012,51.615046],"type":"Point"},"properties":{"osm_id":"2431548131","tag":{"amenity":"waste_basket"}},"type":"Feature"},
	{"geometry":{"coordinates":[-0.09674,51.611437],"type":"Point"},"properties":{"osm_id":"2431591506","tag":{"amenity":"waste_basket","waste":"dog"}},"type":"Feature"},
	{"geometry":{"coordinates":[-0.096748,51.6114],"type":"Point"},"properties":{"osm_id":"2431591509","tag":{"amenity":"waste_basket"}},"type":"Feature"},
	{"geometry":{"coordinates":[-0.097276,51.6118],"type":"Point"},"properties":{"osm_id":"2431591518","tag":{"amenity":"waste_basket"}},"type":"Feature"},
	{"geometry":{"coordinates":[-0.097483,51.610011],"type":"Point"},"properties":{"osm_id":"2431612640","tag":{"amenity":"waste_basket","waste":"dog"}},"type":"Feature"},
	{"geometry":{"coordinates":[-0.09723,51.609643],"type":"Point"},"properties":{"osm_id":"2431612653","tag":{"amenity":"waste_basket"}},"type":"Feature"},
	{"geometry":{"coordinates":[-0.142978,51.608168],"type":"Point"},"properties":{"osm_id":"2890921558","tag":{"amenity":"waste_basket","waste":"dog"}},"type":"Feature"},
	{"geometry":{"coordinates":[-0.143236,51.608182],"type":"Point"},"properties":{"osm_id":"2890921559","tag":{"amenity":"waste_basket"}},"type":"Feature"},
	{"geometry":{"coordinates":[-0.129347,51.617827],"type":"Point"},"properties":{"osm_id":"3386760672","tag":{"amenity":"waste_basket","waste":"dog"}},"type":"Feature"},
	{"geometry":{"coordinates":[-0.130538,51.617817],"type":"Point"},"properties":{"osm_id":"3386760692","tag":{"amenity":"waste_basket"}},"type":"Feature"},
	{"geometry":{"coordinates":[-0.125415,51.616889],"type":"Point"},"properties":{"osm_id":"3394076313","tag":{"amenity":"waste_basket","waste":"dog"}},"type":"Feature"},
	{"geometry":{"coordinates":[-0.115791,51.617794],"type":"Point"},"properties":{"osm_id":"3396867119","tag":{"amenity":"waste_basket"}},"type":"Feature"},
	{"geometry":{"coordinates":[-0.115845,51.617739],"type":"Point"},"properties":{"osm_id":"3396867136","tag":{"amenity":"waste_basket"}},"type":"Feature"},
	{"geometry":{"coordinates":[-0.118774,51.617372],"type":"Point"},"properties":{"osm_id":"3396920794","tag":{"amenity":"waste_basket"}},"type":"Feature"},
	{"geometry":{"coordinates":[-0.117358,51.617839],"type":"Point"},"properties":{"osm_id":"3396920813","tag":{"amenity":"waste_basket"}},"type":"Feature"},
	{"geometry":{"coordinates":[-0.118167,51.616604],"type":"Point"},"properties":{"osm_id":"3396920840","tag":{"amenity":"waste_basket"}},"type":"Feature"},
	{"geometry":{"coordinates":[-0.118361,51.616746],"type":"Point"},"properties":{"osm_id":"3396920842","tag":{"amenity":"waste_basket"}},"type":"Feature"},
	{"geometry":{"coordinates":[-0.118339,51.617737],"type":"Point"},"properties":{"osm_id":"3396920868","tag":{"amenity":"waste_basket"}},"type":"Feature"},
	{"geometry":{"coordinates":[-0.11909,51.617137],"type":"Point"},"properties":{"osm_id":"3396920870","tag":{"amenity":"waste_basket"}},"type":"Feature"},
	{"geometry":{"coordinates":[-0.11924,51.617124],"type":"Point"},"properties":{"osm_id":"3396920879","tag":{"amenity":"waste_basket","waste":"dog"}},"type":"Feature"},
	{"geometry":{"coordinates":[-0.122631,51.618003],"type":"Point"},"properties":{"osm_id":"3396936506","tag":{"amenity":"waste_basket"}},"type":"Feature"},
	{"geometry":{"coordinates":[-0.11419,51.616793],"type":"Point"},"properties":{"osm_id":"3396949553","tag":{"amenity":"waste_basket"}},"type":"Feature"},
	{"geometry":{"coordinates":[-0.125029,51.56748],"type":"Point"},"properties":{"osm_id":"3635226303","tag":{"amenity":"waste_basket","auto_compacting":"yes","flickr":"https://www.flickr.com/photos/harrywood/19434385225/","image":"https://c1.staticflickr.com/1/477/19434385225_f6f4982a7c_c.jpg"}},"type":"Feature"},
	{"geometry":{"coordinates":[-0.121582,51.564754],"type":"Point"},"properties":{"osm_id":"3638066589","tag":{"amenity":"recycling","recycling_type":"container"}},"type":"Feature"},
	{"geometry":{"coordinates":[-0.141001,51.589917],"type":"Point"},"properties":{"osm_id":"3652862992","tag":{"amenity":"waste_basket","waste":"dog_excrement"}},"type":"Feature"},
	{"geometry":{"coordinates":[-0.141116,51.589924],"type":"Point"},"properties":{"osm_id":"3652862994","tag":{"amenity":"waste_basket"}},"type":"Feature"},
	{"geometry":{"coordinates":[-0.140613,51.590431],"type":"Point"},"properties":{"osm_id":"3652862996","tag":{"amenity":"waste_basket"}},"type":"Feature"},
	{"geometry":{"coordinates":[-0.150843,51.585381],"type":"Point"},"properties":{"osm_id":"3652917889","tag":{"amenity":"waste_basket"}},"type":"Feature"},
	{"geometry":{"coordinates":[-0.153394,51.585642],"type":"Point"},"properties":{"osm_id":"3652917891","tag":{"amenity":"waste_basket"}},"type":"Feature"},
	{"geometry":{"coordinates":[-0.150994,51.585465],"type":"Point"},"properties":{"osm_id":"3652917895","tag":{"amenity":"waste_basket","waste":"dog_excrement"}},"type":"Feature"},
	{"geometry":{"coordinates":[-0.149484,51.585721],"type":"Point"},"properties":{"osm_id":"3652917896","tag":{"amenity":"waste_basket"}},"type":"Feature"},
	{"geometry":{"coordinates":[-0.147784,51.586062],"type":"Point"},"properties":{"osm_id":"3652917898","tag":{"amenity":"waste_basket","waste":"dog_excrement"}},"type":"Feature"},
	{"geometry":{"coordinates":[-0.150986,51.585501],"type":"Point"},"properties":{"osm_id":"3652917899","tag":{"amenity":"waste_basket","waste":"dog_excrement"}},"type":"Feature"},
	{"geometry":{"coordinates":[-0.152181,51.585768],"type":"Point"},"properties":{"osm_id":"3652917901","tag":{"amenity":"waste_basket"}},"type":"Feature"},
	{"geometry":{"coordinates":[-0.147836,51.585955],"type":"Point"},"properties":{"osm_id":"3652917902","tag":{"amenity":"waste_basket"}},"type":"Feature"},
	{"geometry":{"coordinates":[-0.158903,51.586254],"type":"Point"},"properties":{"osm_id":"3654654416","tag":{"amenity":"waste_basket","waste":"dog_excrement"}},"type":"Feature"},
	{"geometry":{"coordinates":[-0.15999,51.586438],"type":"Point"},"properties":{"osm_id":"3654654418","tag":{"amenity":"waste_basket"}},"type":"Feature"},
	{"geometry":{"coordinates":[-0.159365,51.586337],"type":"Point"},"properties":{"osm_id":"3654654419","tag":{"amenity":"waste_basket"}},"type":"Feature"},
	{"geometry":{"coordinates":[-0.15895,51.586258],"type":"Point"},"properties":{"osm_id":"3654654422","tag":{"amenity":"waste_basket"}},"type":"Feature"},
	{"geometry":{"coordinates":[-0.158668,51.586223],"type":"Point"},"properties":{"osm_id":"3654654424","tag":{"amenity":"waste_basket"}},"type":"Feature"},
	{"geometry":{"coordinates":[-0.160693,51.585598],"type":"Point"},"properties":{"osm_id":"3654661650","tag":{"amenity":"waste_basket"}},"type":"Feature"},
	{"geometry":{"coordinates":[-0.161124,51.586523],"type":"Point"},"properties":{"osm_id":"3654661654","tag":{"amenity":"waste_basket","waste":"dog_excrement"}},"type":"Feature"},
	{"geometry":{"coordinates":[-0.160535,51.58644],"type":"Point"},"properties":{"osm_id":"3654661656","tag":{"amenity":"waste_basket"}},"type":"Feature"},
	{"geometry":{"coordinates":[-0.16192,51.586203],"type":"Point"},"properties":{"osm_id":"3657014304","tag":{"amenity":"waste_basket"}},"type":"Feature"},
	{"geometry":{"coordinates":[-0.151772,51.58391],"type":"Point"},"properties":{"osm_id":"3662098339","tag":{"amenity":"waste_basket"}},"type":"Feature"},
	{"geometry":{"coordinates":[-0.151795,51.584797],"type":"Point"},"properties":{"osm_id":"3662098347","tag":{"amenity":"waste_basket"}},"type":"Feature"},
	{"geometry":{"coordinates":[-0.150612,51.583344],"type":"Point"},"properties":{"osm_id":"3662115642","tag":{"amenity":"waste_basket","waste":"dog_excrement"}},"type":"Feature"},
	{"geometry":{"coordinates":[-0.150678,51.583347],"type":"Point"},"properties":{"osm_id":"3662115643","tag":{"amenity":"waste_basket"}},"type":"Feature"},
	{"geometry":{"coordinates":[-0.149727,51.5826],"type":"Point"},"properties":{"osm_id":"3662119238","tag":{"amenity":"waste_basket"}},"type":"Feature"},
	{"geometry":{"coordinates":[-0.149622,51.581973],"type":"Point"},"properties":{"osm_id":"3662119239","tag":{"amenity":"waste_basket"}},"type":"Feature"},
	{"geometry":{"coordinates":[-0.149677,51.582666],"type":"Point"},"properties":{"osm_id":"3662119240","tag":{"amenity":"waste_basket"}},"type":"Feature"},
	{"geometry":{"coordinates":[-0.149497,51.582794],"type":"Point"},"properties":{"osm_id":"3662119244","tag":{"amenity":"waste_basket","waste":"dog_excrement"}},"type":"Feature"},
	{"geometry":{"coordinates":[-0.149791,51.582245],"type":"Point"},"properties":{"osm_id":"3662119245","tag":{"amenity":"waste_basket"}},"type":"Feature"},
	{"geometry":{"coordinates":[-0.14952,51.581737],"type":"Point"},"properties":{"osm_id":"3662119249","tag":{"amenity":"waste_basket"}},"type":"Feature"},
	{"geometry":{"coordinates":[-0.150017,51.582376],"type":"Point"},"properties":{"osm_id":"3662119252","tag":{"amenity":"waste_basket"}},"type":"Feature"},
	{"geometry":{"coordinates":[-0.149326,51.583263],"type":"Point"},"properties":{"osm_id":"3662128164","tag":{"amenity":"waste_basket"}},"type":"Feature"},
	{"geometry":{"coordinates":[-0.149932,51.584728],"type":"Point"},"properties":{"osm_id":"3662128169","tag":{"amenity":"waste_basket"}},"type":"Feature"},
	{"geometry":{"coordinates":[-0.148997,51.582202],"type":"Point"},"properties":{"osm_id":"3662128172","tag":{"amenity":"waste_basket","waste":"dog_excrement"}},"type":"Feature"},
	{"geometry":{"coordinates":[-0.149432,51.584446],"type":"Point"},"properties":{"osm_id":"3662128173","tag":{"amenity":"waste_basket","waste":"dog_excrement"}},"type":"Feature"},
	{"geometry":{"coordinates":[-0.162301,51.586653],"type":"Point"},"properties":{"osm_id":"3663384173","tag":{"amenity":"waste_basket"}},"type":"Feature"},
	{"geometry":{"coordinates":[-0.16339,51.586817],"type":"Point"},"properties":{"osm_id":"3663384175","tag":{"amenity":"waste_basket"}},"type":"Feature"},
	{"geometry":{"coordinates":[-0.160834,51.586478],"type":"Point"},"properties":{"osm_id":"3663403625","tag":{"amenity":"waste_basket"}},"type":"Feature"},
	{"geometry":{"coordinates":[-0.147621,51.578963],"type":"Point"},"properties":{"osm_id":"3702595430","tag":{"amenity":"waste_basket","waste":"dog"}},"type":"Feature"},
	{"geometry":{"coordinates":[-0.150016,51.579325],"type":"Point"},"properties":{"osm_id":"3702611492","tag":{"amenity":"waste_basket","waste":"dog"}},"type":"Feature"},
	{"geometry":{"coordinates":[-0.150095,51.579255],"type":"Point"},"properties":{"osm_id":"3702611509","tag":{"amenity":"waste_basket"}},"type":"Feature"},
	{"geometry":{"coordinates":[-0.150127,51.579875],"type":"Point"},"properties":{"osm_id":"3702611522","tag":{"amenity":"waste_basket"}},"type":"Feature"},
	{"geometry":{"coordinates":[-0.14856,51.579357],"type":"Point"},"properties":{"osm_id":"3702611524","tag":{"amenity":"waste_basket"}},"type":"Feature"},
	{"geometry":{"coordinates":[-0.147771,51.579101],"type":"Point"},"properties":{"osm_id":"3702613529","tag":{"amenity":"waste_basket"}},"type":"Feature"},
	{"geometry":{"coordinates":[-0.151059,51.58094],"type":"Point"},"properties":{"osm_id":"3702628539","tag":{"amenity":"waste_basket"}},"type":"Feature"},
	{"geometry":{"coordinates":[-0.151462,51.580895],"type":"Point"},"properties":{"osm_id":"3702628548","tag":{"amenity":"waste_basket"}},"type":"Feature"},
	{"geometry":{"coordinates":[-0.147422,51.583908],"type":"Point"},"properties":{"osm_id":"3702667323","tag":{"amenity":"waste_basket","waste":"dog"}},"type":"Feature"},
	{"geometry":{"coordinates":[-0.147562,51.583923],"type":"Point"},"properties":{"osm_id":"3702667324","tag":{"amenity":"waste_basket"}},"type":"Feature"},
	{"geometry":{"coordinates":[-0.150115,51.582273],"type":"Point"},"properties":{"osm_id":"3702668346","tag":{"amenity":"waste_basket"}},"type":"Feature"},
	{"geometry":{"coordinates":[-0.147106,51.583108],"type":"Point"},"properties":{"osm_id":"3702668953","tag":{"amenity":"waste_basket"}},"type":"Feature"},
	{"geometry":{"coordinates":[-0.147308,51.581997],"type":"Point"},"properties":{"osm_id":"3702670039","tag":{"amenity":"waste_basket"}},"type":"Feature"},
	{"geometry":{"coordinates":[-0.146977,51.582102],"type":"Point"},"properties":{"osm_id":"3702670040","tag":{"amenity":"waste_basket","waste":"dog"}},"type":"Feature"},
	{"geometry":{"coordinates":[-0.147484,51.58101],"type":"Point"},"properties":{"osm_id":"3702675160","tag":{"amenity":"waste_basket"}},"type":"Feature"},
	{"geometry":{"coordinates":[-0.146623,51.582619],"type":"Point"},"properties":{"osm_id":"3702675164","tag":{"amenity":"waste_basket"}},"type":"Feature"},
	{"geometry":{"coordinates":[-0.147589,51.579915],"type":"Point"},"properties":{"osm_id":"3702675165","tag":{"amenity":"waste_basket"}},"type":"Feature"},
	{"geometry":{"coordinates":[-0.147583,51.580748],"type":"Point"},"properties":{"osm_id":"3702675168","tag":{"amenity":"waste_basket"}},"type":"Feature"},
	{"geometry":{"coordinates":[-0.149494,51.579875],"type":"Point"},"properties":{"osm_id":"3702690126","tag":{"amenity":"waste_basket"}},"type":"Feature"},
	{"geometry":{"coordinates":[-0.148704,51.580697],"type":"Point"},"properties":{"osm_id":"3702690134","tag":{"amenity":"waste_basket"}},"type":"Feature"},
	{"geometry":{"coordinates":[-0.146703,51.581027],"type":"Point"},"properties":{"osm_id":"3702690136","tag":{"amenity":"waste_basket","waste":"dog"}},"type":"Feature"},
	{"geometry":{"coordinates":[-0.142254,51.583535],"type":"Point"},"properties":{"osm_id":"3702690138","tag":{"amenity":"waste_basket","waste":"dog"}},"type":"Feature"},
	{"geometry":{"coordinates":[-0.148206,51.58116],"type":"Point"},"properties":{"osm_id":"3702690142","tag":{"amenity":"waste_basket"}},"type":"Feature"},
	{"geometry":{"coordinates":[-0.148922,51.580268],"type":"Point"},"properties":{"osm_id":"3702690148","tag":{"amenity":"waste_basket"}},"type":"Feature"},
	{"geometry":{"coordinates":[-0.144311,51.58213],"type":"Point"},"properties":{"osm_id":"3702690158","tag":{"amenity":"waste_basket"}},"type":"Feature"},
	{"geometry":{"coordinates":[-0.141799,51.583597],"type":"Point"},"properties":{"osm_id":"3702693927","tag":{"amenity":"waste_basket"}},"type":"Feature"},
	{"geometry":{"coordinates":[-0.141699,51.580607],"type":"Point"},"properties":{"osm_id":"3702693928","tag":{"amenity":"waste_basket"}},"type":"Feature"},
	{"geometry":{"coordinates":[-0.142812,51.581778],"type":"Point"},"properties":{"osm_id":"3702694751","tag":{"amenity":"waste_basket"}},"type":"Feature"},
	{"geometry":{"coordinates":[-0.147023,51.583027],"type":"Point"},"properties":{"osm_id":"3709888602","tag":{"amenity":"waste_basket"}},"type":"Feature"},
	{"geometry":{"coordinates":[-0.137501,51.591966],"type":"Point"},"properties":{"osm_id":"3709904194","tag":{"amenity":"waste_basket"}},"type":"Feature"},
	{"geometry":{"coordinates":[-0.1411,51.589922],"type":"Point"},"properties":{"osm_id":"3709905295","tag":{"amenity":"waste_basket"}},"type":"Feature"},
	{"geometry":{"coordinates":[-0.135419,51.592939],"type":"Point"},"properties":{"osm_id":"3709912722","tag":{"amenity":"waste_basket","waste":"dog"}},"type":"Feature"},
	{"geometry":{"coordinates":[-0.136203,51.592602],"type":"Point"},"properties":{"osm_id":"3709913025","tag":{"amenity":"waste_basket"}},"type":"Feature"},
	{"geometry":{"coordinates":[-0.130532,51.596256],"type":"Point"},"properties":{"osm_id":"3709926910","tag":{"amenity":"waste_basket"}},"type":"Feature"},
	{"geometry":{"coordinates":[-0.151989,51.584737],"type":"Point"},"properties":{"osm_id":"3717607023","tag":{"amenity":"waste_basket"}},"type":"Feature"},
	{"geometry":{"coordinates":[-0.151977,51.58476],"type":"Point"},"properties":{"osm_id":"3717609726","tag":{"amenity":"waste_basket","waste":"dog_excrement"}},"type":"Feature"},
	{"geometry":{"coordinates":[-0.152028,51.582116],"type":"Point"},"properties":{"osm_id":"3717618327","tag":{"amenity":"waste_basket"}},"type":"Feature"},
	{"geometry":{"coordinates":[-0.152856,51.582028],"type":"Point"},"properties":{"osm_id":"3717618336","tag":{"amenity":"waste_basket"}},"type":"Feature"},
	{"geometry":{"coordinates":[-0.129276,51.593622],"type":"Point"},"properties":{"osm_id":"3729829334","tag":{"amenity":"waste_basket"}},"type":"Feature"},
	{"geometry":{"coordinates":[-0.128632,51.593955],"type":"Point"},"properties":{"osm_id":"3729829335","tag":{"amenity":"waste_basket"}},"type":"Feature"},
	{"geometry":{"coordinates":[-0.128918,51.593789],"type":"Point"},"properties":{"osm_id":"3729829336","tag":{"amenity":"waste_basket"}},"type":"Feature"},
	{"geometry":{"coordinates":[-0.128991,51.59329],"type":"Point"},"properties":{"osm_id":"3729839333","tag":{"amenity":"waste_basket"}},"type":"Feature"},
	{"geometry":{"coordinates":[-0.128017,51.593789],"type":"Point"},"properties":{"osm_id":"3729863954","tag":{"amenity":"waste_basket"}},"type":"Feature"},
	{"geometry":{"coordinates":[-0.130463,51.592429],"type":"Point"},"properties":{"osm_id":"3729863958","tag":{"amenity":"waste_basket"}},"type":"Feature"},
	{"geometry":{"coordinates":[-0.129433,51.593869],"type":"Point"},"properties":{"osm_id":"3729863960","tag":{"amenity":"waste_basket"}},"type":"Feature"},
	{"geometry":{"coordinates":[-0.126514,51.593602],"type":"Point"},"properties":{"osm_id":"3729863962","tag":{"amenity":"waste_basket"}},"type":"Feature"},
	{"geometry":{"coordinates":[-0.135448,51.592099],"type":"Point"},"properties":{"osm_id":"3729863983","tag":{"amenity":"waste_basket"}},"type":"Feature"},
	{"geometry":{"coordinates":[-0.131955,51.59245],"type":"Point"},"properties":{"osm_id":"3729863990","tag":{"amenity":"waste_basket"}},"type":"Feature"},
	{"geometry":{"coordinates":[-0.126579,51.593592],"type":"Point"},"properties":{"osm_id":"3729863996","tag":{"amenity":"waste_basket","waste":"dog"}},"type":"Feature"},
	{"geometry":{"coordinates":[-0.130092,51.592234],"type":"Point"},"properties":{"osm_id":"3729863999","tag":{"amenity":"waste_basket"}},"type":"Feature"},
	{"geometry":{"coordinates":[-0.132995,51.592162],"type":"Point"},"properties":{"osm_id":"3729864011","tag":{"amenity":"waste_basket"}},"type":"Feature"},
	{"geometry":{"coordinates":[-0.129689,51.596722],"type":"Point"},"properties":{"osm_id":"3729889547","tag":{"amenity":"waste_basket"}},"type":"Feature"},
	{"geometry":{"coordinates":[-0.129409,51.596628],"type":"Point"},"properties":{"osm_id":"3729899654","tag":{"amenity":"waste_basket"}},"type":"Feature"},
	{"geometry":{"coordinates":[-0.129425,51.596656],"type":"Point"},"properties":{"osm_id":"3729899656","tag":{"amenity":"waste_basket","waste":"dog"}},"type":"Feature"},
	{"geometry":{"coordinates":[-0.122038,51.596976],"type":"Point"},"properties":{"osm_id":"3729905477","tag":{"amenity":"waste_basket"}},"type":"Feature"},
	{"geometry":{"coordinates":[-0.157751,51.565605],"type":"Point"},"properties":{"osm_id":"3735261428","tag":{"amenity":"waste_basket","waste":"fishing"}},"type":"Feature"},
	{"geometry":{"coordinates":[-0.161536,51.565303],"type":"Point"},"properties":{"osm_id":"3735261429","tag":{"amenity":"waste_basket"}},"type":"Feature"},
	{"geometry":{"coordinates":[-0.157293,51.565727],"type":"Point"},"properties":{"osm_id":"3735261430","tag":{"amenity":"waste_basket"}},"type":"Feature"},
	{"geometry":{"coordinates":[-0.158309,51.565487],"type":"Point"},"properties":{"osm_id":"3735261433","tag":{"amenity":"waste_basket","waste":"fishing"}},"type":"Feature"},
	{"geometry":{"coordinates":[-0.160769,51.568301],"type":"Point"},"properties":{"osm_id":"3735261436","tag":{"amenity":"waste_basket","waste":"dog"}},"type":"Feature"},
	{"geometry":{"coordinates":[-0.161431,51.565333],"type":"Point"},"properties":{"osm_id":"3735261437","tag":{"amenity":"waste_basket","waste":"dog"}},"type":"Feature"},
	{"geometry":{"coordinates":[-0.157715,51.565625],"type":"Point"},"properties":{"osm_id":"3735261440","tag":{"amenity":"waste_basket","waste":"dog_excrement"}},"type":"Feature"},
	{"geometry":{"coordinates":[-0.164725,51.572132],"type":"Point"},"properties":{"osm_id":"3742526128","tag":{"amenity":"waste_basket"}},"type":"Feature"},
	{"geometry":{"coordinates":[-0.164779,51.572135],"type":"Point"},"properties":{"osm_id":"3742526129","tag":{"amenity":"waste_basket","waste":"dog"}},"type":"Feature"},
	{"geometry":{"coordinates":[-0.166302,51.57217],"type":"Point"},"properties":{"osm_id":"3742526138","tag":{"amenity":"waste_basket","waste":"dog"}},"type":"Feature"},
	{"geometry":{"coordinates":[-0.168312,51.571553],"type":"Point"},"properties":{"osm_id":"3742529938","tag":{"amenity":"waste_basket"}},"type":"Feature"},
	{"geometry":{"coordinates":[-0.17127,51.571085],"type":"Point"},"properties":{"osm_id":"3742586065","tag":{"amenity":"waste_basket","waste":"dog"}},"type":"Feature"},
	{"geometry":{"coordinates":[-0.171785,51.571945],"type":"Point"},"properties":{"osm_id":"3742586069","tag":{"amenity":"waste_basket","waste":"dog"}},"type":"Feature"},
	{"geometry":{"coordinates":[-0.171329,51.571095],"type":"Point"},"properties":{"osm_id":"3742586089","tag":{"amenity":"waste_basket"}},"type":"Feature"},
	{"geometry":{"coordinates":[-0.089647,51.563484],"type":"Point"},"properties":{"osm_id":"3785442504","tag":{"amenity":"waste_basket"}},"type":"Feature"},
	{"geometry":{"coordinates":[-0.087979,51.563703],"type":"Point"},"properties":{"osm_id":"3785442514","tag":{"amenity":"waste_basket"}},"type":"Feature"},
	{"geometry":{"coordinates":[-0.088821,51.563569],"type":"Point"},"properties":{"osm_id":"3785442515","tag":{"amenity":"waste_basket"}},"type":"Feature"},
	{"geometry":{"coordinates":[-0.1461,51.570053],"type":"Point"},"properties":{"osm_id":"3789747572","tag":{"amenity":"waste_basket"}},"type":"Feature"},
	{"geometry":{"coordinates":[-0.146819,51.56973],"type":"Point"},"properties":{"osm_id":"3789747573","tag":{"amenity":"waste_basket"}},"type":"Feature"},
	{"geometry":{"coordinates":[-0.145805,51.570191],"type":"Point"},"properties":{"osm_id":"3789747577","tag":{"amenity":"waste_basket"}},"type":"Feature"},
	{"geometry":{"coordinates":[-0.145832,51.570138],"type":"Point"},"properties":{"osm_id":"3789747581","tag":{"amenity":"waste_basket"}},"type":"Feature"},
	{"geometry":{"coordinates":[-0.147714,51.569222],"type":"Point"},"properties":{"osm_id":"3789762658","tag":{"amenity":"waste_basket"}},"type":"Feature"},
	{"geometry":{"coordinates":[-0.147006,51.569831],"type":"Point"},"properties":{"osm_id":"3789762659","tag":{"amenity":"waste_basket"}},"type":"Feature"},
	{"geometry":{"coordinates":[-0.147715,51.56932],"type":"Point"},"properties":{"osm_id":"3789762662","tag":{"amenity":"waste_basket"}},"type":"Feature"},
	{"geometry":{"coordinates":[-0.147234,51.569752],"type":"Point"},"properties":{"osm_id":"3789762666","tag":{"amenity":"waste_basket"}},"type":"Feature"},
	{"geometry":{"coordinates":[-0.14732,51.569727],"type":"Point"},"properties":{"osm_id":"3789762668","tag":{"amenity":"waste_basket"}},"type":"Feature"},
	{"geometry":{"coordinates":[-0.14331,51.568187],"type":"Point"},"properties":{"osm_id":"3789778642","tag":{"amenity":"waste_basket"}},"type":"Feature"},
	{"geometry":{"coordinates":[-0.146698,51.568261],"type":"Point"},"properties":{"osm_id":"3789787775","tag":{"amenity":"waste_basket"}},"type":"Feature"},
	{"geometry":{"coordinates":[-0.146088,51.568749],"type":"Point"},"properties":{"osm_id":"3789787783","tag":{"amenity":"waste_basket"}},"type":"Feature"},
	{"geometry":{"coordinates":[-0.145738,51.567779],"type":"Point"},"properties":{"osm_id":"3789787800","tag":{"amenity":"waste_basket"}},"type":"Feature"},
	{"geometry":{"coordinates":[-0.145,51.567477],"type":"Point"},"properties":{"osm_id":"3789791642","tag":{"amenity":"waste_basket"}},"type":"Feature"},
	{"geometry":{"coordinates":[-0.145483,51.567004],"type":"Point"},"properties":{"osm_id":"3789791645","tag":{"amenity":"waste_basket"}},"type":"Feature"},
	{"geometry":{"coordinates":[-0.145161,51.567391],"type":"Point"},"properties":{"osm_id":"3789791650","tag":{"amenity":"waste_basket"}},"type":"Feature"},
	{"geometry":{"coordinates":[-0.146046,51.567094],"type":"Point"},"properties":{"osm_id":"3789791652","tag":{"amenity":"waste_basket"}},"type":"Feature"},
	{"geometry":{"coordinates":[-0.145535,51.569012],"type":"Point"},"properties":{"osm_id":"3790114695","tag":{"amenity":"waste_basket"}},"type":"Feature"},
	{"geometry":{"coordinates":[-0.145091,51.569153],"type":"Point"},"properties":{"osm_id":"3790114696","tag":{"amenity":"waste_basket"}},"type":"Feature"},
	{"geometry":{"coordinates":[-0.145783,51.568976],"type":"Point"},"properties":{"osm_id":"3790114702","tag":{"amenity":"waste_basket"}},"type":"Feature"},
	{"geometry":{"coordinates":[-0.14542,51.569055],"type":"Point"},"properties":{"osm_id":"3790114704","tag":{"amenity":"waste_basket"}},"type":"Feature"},
	{"geometry":{"coordinates":[-0.144405,51.569036],"type":"Point"},"properties":{"osm_id":"3790123859","tag":{"amenity":"waste_basket"}},"type":"Feature"},
	{"geometry":{"coordinates":[-0.144225,51.569091],"type":"Point"},"properties":{"osm_id":"3790123861","tag":{"amenity":"waste_basket"}},"type":"Feature"},
	{"geometry":{"coordinates":[-0.144174,51.568918],"type":"Point"},"properties":{"osm_id":"3790123862","tag":{"amenity":"waste_basket"}},"type":"Feature"},
	{"geometry":{"coordinates":[-0.144729,51.56919],"type":"Point"},"properties":{"osm_id":"3790123864","tag":{"amenity":"waste_basket"}},"type":"Feature"},
	{"geometry":{"coordinates":[-0.143753,51.568616],"type":"Point"},"properties":{"osm_id":"3790141330","tag":{"amenity":"waste_basket"}},"type":"Feature"},
	{"geometry":{"coordinates":[-0.143514,51.568493],"type":"Point"},"properties":{"osm_id":"3790141333","tag":{"amenity":"waste_basket"}},"type":"Feature"},
	{"geometry":{"coordinates":[-0.144107,51.569003],"type":"Point"},"properties":{"osm_id":"3790141343","tag":{"amenity":"waste_basket"}},"type":"Feature"},
	{"geometry":{"coordinates":[-0.143927,51.568725],"type":"Point"},"properties":{"osm_id":"3790141346","tag":{"amenity":"waste_basket"}},"type":"Feature"},
	{"geometry":{"coordinates":[-0.144072,51.568901],"type":"Point"},"properties":{"osm_id":"3790141348","tag":{"amenity":"waste_basket"}},"type":"Feature"},
	{"geometry":{"coordinates":[-0.143828,51.568674],"type":"Point"},"properties":{"osm_id":"3790141350","tag":{"amenity":"waste_basket"}},"type":"Feature"},
	{"geometry":{"coordinates":[-0.142916,51.568754],"type":"Point"},"properties":{"osm_id":"3790146101","tag":{"amenity":"waste_basket"}},"type":"Feature"},
	{"geometry":{"coordinates":[-0.142954,51.568733],"type":"Point"},"properties":{"osm_id":"3790146103","tag":{"amenity":"waste_basket"}},"type":"Feature"},
	{"geometry":{"coordinates":[-0.143211,51.568558],"type":"Point"},"properties":{"osm_id":"3790146107","tag":{"amenity":"waste_basket"}},"type":"Feature"},
	{"geometry":{"coordinates":[-0.125334,51.570567],"type":"Point"},"properties":{"osm_id":"3796013018","tag":{"amenity":"waste_basket"}},"type":"Feature"},
	{"geometry":{"coordinates":[-0.125071,51.570068],"type":"Point"},"properties":{"osm_id":"3796013019","tag":{"amenity":"waste_basket"}},"type":"Feature"},
	{"geometry":{"coordinates":[-0.126217,51.571048],"type":"Point"},"properties":{"osm_id":"3796030735","tag":{"amenity":"waste_basket"}},"type":"Feature"},
	{"geometry":{"coordinates":[-0.12609,51.570242],"type":"Point"},"properties":{"osm_id":"3796030739","tag":{"amenity":"waste_basket"}},"type":"Feature"},
	{"geometry":{"coordinates":[-0.126072,51.570217],"type":"Point"},"properties":{"osm_id":"3796030742","tag":{"amenity":"recycling","capacity":"bin","recycling:cans":"yes","recycling:glass":"yes","recycling:plastic":"yes","recycling_type":"container"}},"type":"Feature"},
	{"geometry":{"coordinates":[-0.124318,51.569906],"type":"Point"},"properties":{"osm_id":"3796087841","tag":{"amenity":"waste_basket"}},"type":"Feature"},
	{"geometry":{"coordinates":[-0.12473,51.569908],"type":"Point"},"properties":{"osm_id":"3796087845","tag":{"amenity":"waste_basket"}},"type":"Feature"},
	{"geometry":{"coordinates":[-0.123119,51.573619],"type":"Point"},"properties":{"osm_id":"3796139651","tag":{"amenity":"waste_basket"}},"type":"Feature"},
	{"geometry":{"coordinates":[-0.111547,51.5731],"type":"Point"},"properties":{"osm_id":"3796182877","tag":{"amenity":"waste_basket"}},"type":"Feature"},
	{"geometry":{"coordinates":[-0.111992,51.573237],"type":"Point"},"properties":{"osm_id":"3796182885","tag":{"amenity":"waste_basket"}},"type":"Feature"},
	{"geometry":{"coordinates":[-0.117252,51.573988],"type":"Point"},"properties":{"osm_id":"3796182890","tag":{"amenity":"waste_basket"}},"type":"Feature"},
	{"geometry":{"coordinates":[-0.121091,51.574066],"type":"Point"},"properties":{"osm_id":"3796182892","tag":{"amenity":"waste_basket"}},"type":"Feature"},
	{"geometry":{"coordinates":[-0.115747,51.57387],"type":"Point"},"properties":{"osm_id":"3796182918","tag":{"amenity":"waste_basket"}},"type":"Feature"},
	{"geometry":{"coordinates":[-0.106242,51.569821],"type":"Point"},"properties":{"osm_id":"3796186545","tag":{"amenity":"waste_basket","waste":"dog"}},"type":"Feature"},
	{"geometry":{"coordinates":[-0.107514,51.570963],"type":"Point"},"properties":{"osm_id":"3796186550","tag":{"amenity":"waste_basket"}},"type":"Feature"},
	{"geometry":{"coordinates":[-0.106218,51.569765],"type":"Point"},"properties":{"osm_id":"3796186551","tag":{"amenity":"waste_basket"}},"type":"Feature"},
	{"geometry":{"coordinates":[-0.108277,51.571491],"type":"Point"},"properties":{"osm_id":"3796186552","tag":{"amenity":"waste_basket"}},"type":"Feature"},
	{"geometry":{"coordinates":[-0.104005,51.568239],"type":"Point"},"properties":{"osm_id":"3796223230","tag":{"amenity":"waste_basket"}},"type":"Feature"},
	{"geometry":{"coordinates":[-0.103732,51.567934],"type":"Point"},"properties":{"osm_id":"3796223236","tag":{"amenity":"waste_basket"}},"type":"Feature"},
	{"geometry":{"coordinates":[-0.103918,51.568434],"type":"Point"},"properties":{"osm_id":"3796223238","tag":{"amenity":"waste_basket"}},"type":"Feature"},
	{"geometry":{"coordinates":[-0.104046,51.56547],"type":"Point"},"properties":{"osm_id":"3796234280","tag":{"amenity":"waste_basket"}},"type":"Feature"},
	{"geometry":{"coordinates":[-0.104308,51.565998],"type":"Point"},"properties":{"osm_id":"3796234281","tag":{"amenity":"waste_basket"}},"type":"Feature"},
	{"geometry":{"coordinates":[-0.104011,51.567709],"type":"Point"},"properties":{"osm_id":"3796234282","tag":{"amenity":"waste_basket"}},"type":"Feature"},
	{"geometry":{"coordinates":[-0.104156,51.566697],"type":"Point"},"properties":{"osm_id":"3796234283","tag":{"amenity":"waste_basket"}},"type":"Feature"},
	{"geometry":{"coordinates":[-0.10382,51.567127],"type":"Point"},"properties":{"osm_id":"3796234303","tag":{"amenity":"waste_basket"}},"type":"Feature"},
	{"geometry":{"coordinates":[-0.090694,51.570083],"type":"Point"},"properties":{"osm_id":"3811574435","tag":{"amenity":"waste_basket","waste":"dog"}},"type":"Feature"},
	{"geometry":{"coordinates":[-0.09016,51.570058],"type":"Point"},"properties":{"osm_id":"3811574452","tag":{"amenity":"waste_basket","waste":"dog"}},"type":"Feature"},
	{"geometry":{"coordinates":[-0.098561,51.571002],"type":"Point"},"properties":{"osm_id":"3811606797","tag":{"amenity":"waste_basket","waste":"dog"}},"type":"Feature"},
	{"geometry":{"coordinates":[-0.099553,51.571112],"type":"Point"},"properties":{"osm_id":"3811606801","tag":{"amenity":"waste_basket"}},"type":"Feature"},
	{"geometry":{"coordinates":[-0.102045,51.570963],"type":"Point"},"properties":{"osm_id":"3811606803","tag":{"amenity":"waste_basket","waste_type":"dog_excrement"}},"type":"Feature"},
	{"geometry":{"coordinates":[-0.099907,51.571047],"type":"Point"},"properties":{"osm_id":"3811606807","tag":{"amenity":"waste_basket","waste":"dog"}},"type":"Feature"},
	{"geometry":{"coordinates":[-0.10352,51.571397],"type":"Point"},"properties":{"osm_id":"3811606808","tag":{"amenity":"waste_basket","waste":"dog"}},"type":"Feature"},
	{"geometry":{"coordinates":[-0.10337,51.571265],"type":"Point"},"properties":{"osm_id":"3811606815","tag":{"amenity":"waste_basket"}},"type":"Feature"},
	{"geometry":{"coordinates":[-0.099998,51.570807],"type":"Point"},"properties":{"osm_id":"3811614942","tag":{"amenity":"waste_basket"}},"type":"Feature"},
	{"geometry":{"coordinates":[-0.101428,51.56987],"type":"Point"},"properties":{"osm_id":"3811614945","tag":{"amenity":"waste_basket"}},"type":"Feature"},
	{"geometry":{"coordinates":[-0.10065,51.570327],"type":"Point"},"properties":{"osm_id":"3811614952","tag":{"amenity":"waste_basket"}},"type":"Feature"},
	{"geometry":{"coordinates":[-0.103903,51.570682],"type":"Point"},"properties":{"osm_id":"3811614953","tag":{"amenity":"waste_basket"}},"type":"Feature"},
	{"geometry":{"coordinates":[-0.097445,51.570645],"type":"Point"},"properties":{"osm_id":"3811622657","tag":{"amenity":"waste_basket","waste":"dog"}},"type":"Feature"},
	{"geometry":{"coordinates":[-0.100604,51.570293],"type":"Point"},"properties":{"osm_id":"3811622658","tag":{"amenity":"waste_basket"}},"type":"Feature"},
	{"geometry":{"coordinates":[-0.101473,51.569912],"type":"Point"},"properties":{"osm_id":"3811622661","tag":{"amenity":"waste_basket"}},"type":"Feature"},
	{"geometry":{"coordinates":[-0.102053,51.56988],"type":"Point"},"properties":{"osm_id":"3811622663","tag":{"amenity":"waste_basket"}},"type":"Feature"},
	{"geometry":{"coordinates":[-0.097345,51.570713],"type":"Point"},"properties":{"osm_id":"3811622664","tag":{"amenity":"waste_basket"}},"type":"Feature"},
	{"geometry":{"coordinates":[-0.103675,51.570403],"type":"Point"},"properties":{"osm_id":"3811622666","tag":{"amenity":"waste_basket"}},"type":"Feature"},
	{"geometry":{"coordinates":[-0.097783,51.570565],"type":"Point"},"properties":{"osm_id":"3811622667","tag":{"amenity":"waste_basket"}},"type":"Feature"},
	{"geometry":{"coordinates":[-0.142152,51.56815],"type":"Point"},"properties":{"osm_id":"3811636003","tag":{"amenity":"waste_basket"}},"type":"Feature"},
	{"geometry":{"coordinates":[-0.14216,51.568173],"type":"Point"},"properties":{"osm_id":"3811636006","tag":{"amenity":"waste_basket"}},"type":"Feature"},
	{"geometry":{"coordinates":[-0.142251,51.568391],"type":"Point"},"properties":{"osm_id":"3811642691","tag":{"amenity":"waste_basket"}},"type":"Feature"},
	{"geometry":{"coordinates":[-0.142087,51.567991],"type":"Point"},"properties":{"osm_id":"3811642703","tag":{"amenity":"waste_basket"}},"type":"Feature"},
	{"geometry":{"coordinates":[-0.142106,51.567477],"type":"Point"},"properties":{"osm_id":"3811670883","tag":{"amenity":"waste_basket"}},"type":"Feature"},
	{"geometry":{"coordinates":[-0.142629,51.567536],"type":"Point"},"properties":{"osm_id":"3811670886","tag":{"amenity":"waste_basket"}},"type":"Feature"},
	{"geometry":{"coordinates":[-0.141838,51.567571],"type":"Point"},"properties":{"osm_id":"3811670888","tag":{"amenity":"waste_basket"}},"type":"Feature"},
	{"geometry":{"coordinates":[-0.142291,51.567504],"type":"Point"},"properties":{"osm_id":"3811670898","tag":{"amenity":"waste_basket"}},"type":"Feature"},
	{"geometry":{"coordinates":[-0.142594,51.567807],"type":"Point"},"properties":{"osm_id":"3811670902","tag":{"amenity":"waste_basket"}},"type":"Feature"},
	{"geometry":{"coordinates":[-0.143624,51.567202],"type":"Point"},"properties":{"osm_id":"3811695883","tag":{"amenity":"waste_basket"}},"type":"Feature"},
	{"geometry":{"coordinates":[-0.143356,51.567371],"type":"Point"},"properties":{"osm_id":"3811695896","tag":{"amenity":"waste_basket"}},"type":"Feature"},
	{"geometry":{"coordinates":[-0.143034,51.567573],"type":"Point"},"properties":{"osm_id":"3811695915","tag":{"amenity":"waste_basket"}},"type":"Feature"},
	{"geometry":{"coordinates":[-0.143109,51.567569],"type":"Point"},"properties":{"osm_id":"3811695916","tag":{"amenity":"waste_basket"}},"type":"Feature"},
	{"geometry":{"coordinates":[-0.14319,51.567474],"type":"Point"},"properties":{"osm_id":"3811695921","tag":{"amenity":"waste_basket"}},"type":"Feature"},
	{"geometry":{"coordinates":[-0.145266,51.567845],"type":"Point"},"properties":{"osm_id":"3811701537","tag":{"amenity":"waste_basket"}},"type":"Feature"},
	{"geometry":{"coordinates":[-0.144,51.567817],"type":"Point"},"properties":{"osm_id":"3811701543","tag":{"amenity":"waste_basket"}},"type":"Feature"},
	{"geometry":{"coordinates":[-0.144019,51.567899],"type":"Point"},"properties":{"osm_id":"3811701547","tag":{"amenity":"waste_basket"}},"type":"Feature"},
	{"geometry":{"coordinates":[-0.145301,51.567326],"type":"Point"},"properties":{"osm_id":"3811701554","tag":{"amenity":"waste_basket"}},"type":"Feature"},
	{"geometry":{"coordinates":[-0.144955,51.567499],"type":"Point"},"properties":{"osm_id":"3811701555","tag":{"amenity":"waste_basket"}},"type":"Feature"},
	{"geometry":{"coordinates":[-0.145518,51.567532],"type":"Point"},"properties":{"osm_id":"3811702257","tag":{"amenity":"waste_basket"}},"type":"Feature"},
	{"geometry":{"coordinates":[-0.144794,51.567537],"type":"Point"},"properties":{"osm_id":"3811702258","tag":{"amenity":"waste_basket"}},"type":"Feature"},
	{"geometry":{"coordinates":[-0.145067,51.566957],"type":"Point"},"properties":{"osm_id":"3811702264","tag":{"amenity":"waste_basket"}},"type":"Feature"},
	{"geometry":{"coordinates":[-0.144174,51.568041],"type":"Point"},"properties":{"osm_id":"3811702277","tag":{"amenity":"waste_basket"}},"type":"Feature"},
	{"geometry":{"coordinates":[-0.144391,51.568168],"type":"Point"},"properties":{"osm_id":"3811702283","tag":{"amenity":"waste_basket"}},"type":"Feature"},
	{"geometry":{"coordinates":[-0.143493,51.568088],"type":"Point"},"properties":{"osm_id":"3811702286","tag":{"amenity":"waste_basket"}},"type":"Feature"},
	{"geometry":{"coordinates":[-0.144005,51.567066],"type":"Point"},"properties":{"osm_id":"3811702287","tag":{"amenity":"waste_basket"}},"type":"Feature"},
	{"geometry":{"coordinates":[-0.144163,51.567122],"type":"Point"},"properties":{"osm_id":"3811702288","tag":{"amenity":"waste_basket"}},"type":"Feature"},
	{"geometry":{"coordinates":[-0.143766,51.567082],"type":"Point"},"properties":{"osm_id":"3811702302","tag":{"amenity":"waste_basket"}},"type":"Feature"},
	{"geometry":{"coordinates":[-0.144359,51.567282],"type":"Point"},"properties":{"osm_id":"3811702307","tag":{"amenity":"waste_basket"}},"type":"Feature"},
	{"geometry":{"coordinates":[-0.142535,51.567404],"type":"Point"},"properties":{"osm_id":"3811706380","tag":{"amenity":"waste_basket"}},"type":"Feature"},
	{"geometry":{"coordinates":[-0.145464,51.568203],"type":"Point"},"properties":{"osm_id":"3811706498","tag":{"amenity":"waste_basket"}},"type":"Feature"},
	{"geometry":{"coordinates":[-0.147016,51.580334],"type":"Point"},"properties":{"osm_id":"3872605659","tag":{"amenity":"recycling","location":"overground","recycling_type":"container"}},"type":"Feature"},
	{"geometry":{"coordinates":[-0.131227,51.563447],"type":"Point"},"properties":{"osm_id":"3923227723","tag":{"amenity":"recycling","location":"overground","recycling:cans":"yes","recycling:clothes":"yes","recycling:glass":"yes","recycling:glass_bottles":"yes","recycling:paper":"yes","recycling:plastic":"yes","recycling:small_appliances":"yes","recycling_type":"container"}},"type":"Feature"},
	{"geometry":{"coordinates":[-0.115957,51.594415],"type":"Point"},"properties":{"barrier":"entrance","osm_id":"3924002111","tag":{"bicycle":"no","entrance":"main","foot":"yes","motorcar":"yes"}},"type":"Feature"},
	{"geometry":{"coordinates":[-0.115897,51.594866],"type":"Point"},"properties":{"barrier":"entrance","osm_id":"3924002121","tag":{"entrance":"exit"}},"type":"Feature"},
	{"geometry":{"coordinates":[-0.161053,51.617808],"type":"Point"},"properties":{"osm_id":"3971697746","tag":{"amenity":"waste_basket"}},"type":"Feature"},
	{"geometry":{"coordinates":[-0.161533,51.617001],"type":"Point"},"properties":{"osm_id":"3971701888","tag":{"amenity":"waste_basket","waste":"dog"}},"type":"Feature"},
	{"geometry":{"coordinates":[-0.163797,51.6174],"type":"Point"},"properties":{"osm_id":"3971701889","tag":{"amenity":"waste_basket"}},"type":"Feature"},
	{"geometry":{"coordinates":[-0.161541,51.616946],"type":"Point"},"properties":{"osm_id":"3971701894","tag":{"amenity":"waste_basket"}},"type":"Feature"},
	{"geometry":{"coordinates":[-0.163221,51.617242],"type":"Point"},"properties":{"osm_id":"3971701895","tag":{"amenity":"waste_basket"}},"type":"Feature"},
	{"geometry":{"coordinates":[-0.134684,51.605864],"type":"Point"},"properties":{"osm_id":"3979302875","tag":{"amenity":"waste_basket","waste":"dog"}},"type":"Feature"},
	{"geometry":{"coordinates":[-0.131766,51.603244],"type":"Point"},"properties":{"osm_id":"3979325047","tag":{"amenity":"waste_basket"}},"type":"Feature"},
	{"geometry":{"coordinates":[-0.133314,51.602732],"type":"Point"},"properties":{"osm_id":"3979325054","tag":{"amenity":"waste_basket"}},"type":"Feature"},
	{"geometry":{"coordinates":[-0.131879,51.603302],"type":"Point"},"properties":{"osm_id":"3979325368","tag":{"amenity":"waste_basket","waste":"dog"}},"type":"Feature"},
	{"geometry":{"coordinates":[-0.132566,51.6015],"type":"Point"},"properties":{"osm_id":"3979336724","tag":{"amenity":"waste_basket"}},"type":"Feature"},
	{"geometry":{"coordinates":[-0.131501,51.602585],"type":"Point"},"properties":{"osm_id":"3979336729","tag":{"amenity":"waste_basket","waste":"dog"}},"type":"Feature"},
	{"geometry":{"coordinates":[-0.132394,51.601449],"type":"Point"},"properties":{"osm_id":"3979336732","tag":{"amenity":"waste_basket"}},"type":"Feature"},
	{"geometry":{"coordinates":[-0.132359,51.601418],"type":"Point"},"properties":{"osm_id":"3979336734","tag":{"amenity":"waste_basket","waste":"dog"}},"type":"Feature"},
	{"geometry":{"coordinates":[-0.133,51.602403],"type":"Point"},"properties":{"osm_id":"3979336743","tag":{"amenity":"waste_basket"}},"type":"Feature"},
	{"geometry":{"coordinates":[-0.133158,51.602303],"type":"Point"},"properties":{"osm_id":"3979336748","tag":{"amenity":"waste_basket"}},"type":"Feature"},
	{"geometry":{"coordinates":[-0.135277,51.60155],"type":"Point"},"properties":{"osm_id":"3979346333","tag":{"amenity":"waste_basket"}},"type":"Feature"},
	{"geometry":{"coordinates":[-0.134735,51.60173],"type":"Point"},"properties":{"osm_id":"3979346342","tag":{"amenity":"waste_basket"}},"type":"Feature"},
	{"geometry":{"coordinates":[-0.133805,51.602293],"type":"Point"},"properties":{"osm_id":"3979346344","tag":{"amenity":"waste_basket"}},"type":"Feature"},
	{"geometry":{"coordinates":[-0.134148,51.602037],"type":"Point"},"properties":{"osm_id":"3979346349","tag":{"amenity":"waste_basket"}},"type":"Feature"},
	{"geometry":{"coordinates":[-0.133523,51.60229],"type":"Point"},"properties":{"osm_id":"3979346350","tag":{"amenity":"waste_basket"}},"type":"Feature"},
	{"geometry":{"coordinates":[-0.134711,51.601738],"type":"Point"},"properties":{"osm_id":"3979350857","tag":{"amenity":"waste_basket","waste":"dog"}},"type":"Feature"},
	{"geometry":{"coordinates":[-0.133987,51.602098],"type":"Point"},"properties":{"osm_id":"3979350858","tag":{"amenity":"waste_basket"}},"type":"Feature"},
	{"geometry":{"coordinates":[-0.133432,51.602321],"type":"Point"},"properties":{"osm_id":"3979350859","tag":{"amenity":"waste_basket"}},"type":"Feature"},
	{"geometry":{"coordinates":[-0.135433,51.601271],"type":"Point"},"properties":{"osm_id":"3979361593","tag":{"amenity":"waste_basket"}},"type":"Feature"},
	{"geometry":{"coordinates":[-0.134867,51.600634],"type":"Point"},"properties":{"osm_id":"3979361597","tag":{"amenity":"waste_basket"}},"type":"Feature"},
	{"geometry":{"coordinates":[-0.135004,51.600827],"type":"Point"},"properties":{"osm_id":"3979361598","tag":{"amenity":"waste_basket"}},"type":"Feature"},
	{"geometry":{"coordinates":[-0.135532,51.601386],"type":"Point"},"properties":{"osm_id":"3979361603","tag":{"amenity":"waste_basket"}},"type":"Feature"},
	{"geometry":{"coordinates":[-0.135264,51.601105],"type":"Point"},"properties":{"osm_id":"3979361606","tag":{"amenity":"waste_basket"}},"type":"Feature"},
	{"geometry":{"coordinates":[-0.134687,51.600413],"type":"Point"},"properties":{"osm_id":"3979361608","tag":{"amenity":"waste_basket"}},"type":"Feature"},
	{"geometry":{"coordinates":[-0.134896,51.600663],"type":"Point"},"properties":{"osm_id":"3979361620","tag":{"amenity":"waste_basket"}},"type":"Feature"},
	{"geometry":{"coordinates":[-0.096605,51.592009],"type":"Point"},"properties":{"osm_id":"4020043555","tag":{"amenity":"waste_basket","waste":"dog_excrement"}},"type":"Feature"},
	{"geometry":{"coordinates":[-0.096664,51.591937],"type":"Point"},"properties":{"osm_id":"4020043561","tag":{"amenity":"waste_basket"}},"type":"Feature"},
	{"geometry":{"coordinates":[-0.093746,51.591759],"type":"Point"},"properties":{"osm_id":"4020043568","tag":{"amenity":"waste_basket"}},"type":"Feature"},
	{"geometry":{"coordinates":[-0.095168,51.591981],"type":"Point"},"properties":{"osm_id":"4020043570","tag":{"amenity":"waste_basket"}},"type":"Feature"},
	{"geometry":{"coordinates":[-0.094449,51.591774],"type":"Point"},"properties":{"osm_id":"4020043571","tag":{"amenity":"waste_basket"}},"type":"Feature"},
	{"geometry":{"coordinates":[-0.095524,51.592082],"type":"Point"},"properties":{"osm_id":"4020043572","tag":{"amenity":"waste_basket"}},"type":"Feature"},
	{"geometry":{"coordinates":[-0.093958,51.590736],"type":"Point"},"properties":{"osm_id":"4020050635","tag":{"amenity":"waste_basket","waste":"dog_excrement"}},"type":"Feature"},
	{"geometry":{"coordinates":[-0.091817,51.590673],"type":"Point"},"properties":{"osm_id":"4020050640","tag":{"amenity":"recycling"}},"type":"Feature"},
	{"geometry":{"coordinates":[-0.089723,51.590664],"type":"Point"},"properties":{"osm_id":"4020050644","tag":{"amenity":"waste_basket","waste":"dog_excrement"}},"type":"Feature"},
	{"geometry":{"coordinates":[-0.091952,51.590626],"type":"Point"},"properties":{"osm_id":"4020050649","tag":{"amenity":"waste_basket","waste":"dog_excrement"}},"type":"Feature"},
	{"geometry":{"coordinates":[-0.091243,51.590636],"type":"Point"},"properties":{"osm_id":"4020079909","tag":{"amenity":"waste_basket"}},"type":"Feature"},
	{"geometry":{"coordinates":[-0.0885,51.590473],"type":"Point"},"properties":{"osm_id":"4020079912","tag":{"amenity":"waste_basket"}},"type":"Feature"},
	{"geometry":{"coordinates":[-0.088784,51.590139],"type":"Point"},"properties":{"osm_id":"4020079934","tag":{"amenity":"waste_basket"}},"type":"Feature"},
	{"geometry":{"coordinates":[-0.088416,51.589746],"type":"Point"},"properties":{"osm_id":"4020083002","tag":{"amenity":"waste_basket"}},"type":"Feature"},
	{"geometry":{"coordinates":[-0.088595,51.59034],"type":"Point"},"properties":{"osm_id":"4020083005","tag":{"amenity":"waste_basket"}},"type":"Feature"},
	{"geometry":{"coordinates":[-0.126136,51.604626],"type":"Point"},"properties":{"osm_id":"4077334302","tag":{"amenity":"waste_basket"}},"type":"Feature"},
	{"geometry":{"coordinates":[-0.157569,51.613238],"type":"Point"},"properties":{"osm_id":"4283158022","tag":{"amenity":"waste_basket"}},"type":"Feature"},
	{"geometry":{"coordinates":[-0.157572,51.613257],"type":"Point"},"properties":{"osm_id":"4283158025","tag":{"amenity":"waste_basket","waste":"dog_excrement"}},"type":"Feature"},
	{"geometry":{"coordinates":[-0.157381,51.613307],"type":"Point"},"properties":{"osm_id":"4283158027","tag":{"amenity":"waste_basket"}},"type":"Feature"},
	{"geometry":{"coordinates":[-0.133832,51.587023],"type":"Point"},"properties":{"osm_id":"4283365271","tag":{"amenity":"waste_basket"}},"type":"Feature"},
	{"geometry":{"coordinates":[-0.12832,51.586813],"type":"Point"},"properties":{"osm_id":"4283387880","tag":{"amenity":"waste_basket"}},"type":"Feature"},
	{"geometry":{"coordinates":[-0.125507,51.58629],"type":"Point"},"properties":{"osm_id":"4283390531","tag":{"amenity":"waste_basket"}},"type":"Feature"},
	{"geometry":{"coordinates":[-0.09995,51.583143],"type":"Point"},"properties":{"osm_id":"4360622996","tag":{"amenity":"waste_basket"}},"type":"Feature"},
	{"geometry":{"coordinates":[-0.1008,51.586884],"type":"Point"},"properties":{"osm_id":"4360623036","tag":{"amenity":"waste_basket"}},"type":"Feature"},
	{"geometry":{"coordinates":[-0.103701,51.590147],"type":"Point"},"properties":{"osm_id":"4391630007","tag":{"amenity":"waste_basket"}},"type":"Feature"},
	{"geometry":{"coordinates":[-0.102737,51.589501],"type":"Point"},"properties":{"osm_id":"4391630011","tag":{"amenity":"waste_basket"}},"type":"Feature"},
	{"geometry":{"coordinates":[-0.102715,51.589485],"type":"Point"},"properties":{"osm_id":"4391630012","tag":{"amenity":"recycling"}},"type":"Feature"},
	{"geometry":{"coordinates":[-0.103369,51.589361],"type":"Point"},"properties":{"osm_id":"4391630013","tag":{"amenity":"waste_basket"}},"type":"Feature"},
	{"geometry":{"coordinates":[-0.10312,51.589695],"type":"Point"},"properties":{"osm_id":"4391630015","tag":{"amenity":"waste_basket"}},"type":"Feature"},
	{"geometry":{"coordinates":[-0.102879,51.589388],"type":"Point"},"properties":{"osm_id":"4391630022","tag":{"amenity":"waste_basket"}},"type":"Feature"},
	{"geometry":{"coordinates":[-0.103359,51.590212],"type":"Point"},"properties":{"osm_id":"4391630026","tag":{"amenity":"waste_basket"}},"type":"Feature"},
	{"geometry":{"coordinates":[-0.103401,51.589803],"type":"Point"},"properties":{"osm_id":"4391630027","tag":{"amenity":"waste_basket"}},"type":"Feature"},
	{"geometry":{"coordinates":[-0.103623,51.589988],"type":"Point"},"properties":{"osm_id":"4391630029","tag":{"amenity":"waste_basket"}},"type":"Feature"},
	{"geometry":{"coordinates":[-0.102646,51.589271],"type":"Point"},"properties":{"osm_id":"4391639030","tag":{"amenity":"waste_basket"}},"type":"Feature"},
	{"geometry":{"coordinates":[-0.102506,51.588733],"type":"Point"},"properties":{"osm_id":"4391639040","tag":{"amenity":"waste_basket"}},"type":"Feature"},
	{"geometry":{"coordinates":[-0.101227,51.58858],"type":"Point"},"properties":{"osm_id":"4391646540","tag":{"amenity":"recycling","recycling":"small_electrical"}},"type":"Feature"},
	{"geometry":{"coordinates":[-0.101001,51.588111],"type":"Point"},"properties":{"osm_id":"4391651838","tag":{"amenity":"waste_basket"}},"type":"Feature"},
	{"geometry":{"coordinates":[-0.10145,51.588061],"type":"Point"},"properties":{"osm_id":"4391663506","tag":{"amenity":"waste_basket"}},"type":"Feature"},
	{"geometry":{"coordinates":[-0.100547,51.588011],"type":"Point"},"properties":{"osm_id":"4391663508","tag":{"amenity":"waste_basket","waste":"dog_excrement"}},"type":"Feature"},
	{"geometry":{"coordinates":[-0.100797,51.574377],"type":"Point"},"properties":{"osm_id":"4391696051","tag":{"amenity":"waste_basket"}},"type":"Feature"},
	{"geometry":{"coordinates":[-0.103383,51.572107],"type":"Point"},"properties":{"osm_id":"4391729124","tag":{"amenity":"waste_basket"}},"type":"Feature"},
	{"geometry":{"coordinates":[-0.098598,51.571072],"type":"Point"},"properties":{"osm_id":"4391729128","tag":{"amenity":"waste_basket","waste":"dog_excrement"}},"type":"Feature"},
	{"geometry":{"coordinates":[-0.099306,51.573442],"type":"Point"},"properties":{"osm_id":"4391729134","tag":{"amenity":"waste_basket"}},"type":"Feature"},
	{"geometry":{"coordinates":[-0.099845,51.571917],"type":"Point"},"properties":{"osm_id":"4391729136","tag":{"amenity":"waste_basket"}},"type":"Feature"},
	{"geometry":{"coordinates":[-0.097713,51.570262],"type":"Point"},"properties":{"osm_id":"4391729141","tag":{"amenity":"waste_basket"}},"type":"Feature"},
	{"geometry":{"coordinates":[-0.103815,51.571584],"type":"Point"},"properties":{"osm_id":"4391729154","tag":{"amenity":"waste_basket"}},"type":"Feature"},
	{"geometry":{"coordinates":[-0.104072,51.571795],"type":"Point"},"properties":{"osm_id":"4391729161","tag":{"amenity":"waste_basket"}},"type":"Feature"},
	{"geometry":{"coordinates":[-0.098755,51.569813],"type":"Point"},"properties":{"osm_id":"4391729168","tag":{"amenity":"waste_basket"}},"type":"Feature"},
	{"geometry":{"coordinates":[-0.102935,51.57228],"type":"Point"},"properties":{"osm_id":"4391729169","tag":{"amenity":"waste_basket"}},"type":"Feature"},
	{"geometry":{"coordinates":[-0.101329,51.573972],"type":"Point"},"properties":{"osm_id":"4391729171","tag":{"amenity":"waste_basket","waste":"dog_excrement"}},"type":"Feature"},
	{"geometry":{"coordinates":[-0.097261,51.570585],"type":"Point"},"properties":{"osm_id":"4391729177","tag":{"amenity":"waste_basket"}},"type":"Feature"},
	{"geometry":{"coordinates":[-0.098094,51.572637],"type":"Point"},"properties":{"osm_id":"4391729178","tag":{"amenity":"waste_basket"}},"type":"Feature"},
	{"geometry":{"coordinates":[-0.103866,51.565807],"type":"Point"},"properties":{"osm_id":"4391810369","tag":{"amenity":"waste_basket"}},"type":"Feature"},
	{"geometry":{"coordinates":[-0.100755,51.568448],"type":"Point"},"properties":{"osm_id":"4391810443","tag":{"amenity":"waste_basket"}},"type":"Feature"},
	{"geometry":{"coordinates":[-0.099274,51.570343],"type":"Point"},"properties":{"osm_id":"4391810444","tag":{"amenity":"waste_basket"}},"type":"Feature"},
	{"geometry":{"coordinates":[-0.097858,51.570542],"type":"Point"},"properties":{"osm_id":"4391810445","tag":{"amenity":"waste_basket"}},"type":"Feature"},
	{"geometry":{"coordinates":[-0.101613,51.567801],"type":"Point"},"properties":{"osm_id":"4391810447","tag":{"amenity":"waste_basket","waste":"dog_excrement"}},"type":"Feature"},
	{"geometry":{"coordinates":[-0.102186,51.567356],"type":"Point"},"properties":{"osm_id":"4391810455","tag":{"amenity":"waste_basket"}},"type":"Feature"},
	{"geometry":{"coordinates":[-0.101832,51.567281],"type":"Point"},"properties":{"osm_id":"4391810457","tag":{"amenity":"waste_basket"}},"type":"Feature"},
	{"geometry":{"coordinates":[-0.100797,51.568047],"type":"Point"},"properties":{"osm_id":"4391810462","tag":{"amenity":"waste_basket"}},"type":"Feature"},
	{"geometry":{"coordinates":[-0.100143,51.568588],"type":"Point"},"properties":{"osm_id":"4391810464","tag":{"amenity":"waste_basket","waste":"dog_excrement"}},"type":"Feature"},
	{"geometry":{"coordinates":[-0.101684,51.567747],"type":"Point"},"properties":{"osm_id":"4391810465","tag":{"amenity":"waste_basket"}},"type":"Feature"},
	{"geometry":{"coordinates":[-0.103855,51.565353],"type":"Point"},"properties":{"osm_id":"4391810468","tag":{"amenity":"waste_basket"}},"type":"Feature"},
	{"geometry":{"coordinates":[-0.103163,51.566615],"type":"Point"},"properties":{"osm_id":"4391810470","tag":{"amenity":"waste_basket"}},"type":"Feature"},
	{"geometry":{"coordinates":[-0.090354,51.571724],"type":"Point"},"properties":{"osm_id":"4437670489","tag":{"amenity":"recycling"}},"type":"Feature"},
	{"geometry":{"coordinates":[-0.128118,51.594692],"type":"Point"},"properties":{"osm_id":"4445524661","tag":{"amenity":"waste_basket"}},"type":"Feature"},
	{"geometry":{"coordinates":[-0.128513,51.595355],"type":"Point"},"properties":{"osm_id":"4445535353","tag":{"amenity":"waste_basket"}},"type":"Feature"},
	{"geometry":{"coordinates":[-0.130939,51.597025],"type":"Point"},"properties":{"osm_id":"4445562646","tag":{"amenity":"waste_basket"}},"type":"Feature"},
	{"geometry":{"coordinates":[-0.131262,51.597105],"type":"Point"},"properties":{"osm_id":"4445562648","tag":{"amenity":"waste_basket"}},"type":"Feature"},
	{"geometry":{"coordinates":[-0.132469,51.595995],"type":"Point"},"properties":{"osm_id":"4445562654","tag":{"amenity":"waste_basket"}},"type":"Feature"},
	{"geometry":{"coordinates":[-0.119884,51.569161],"type":"Point"},"properties":{"osm_id":"4448118475","tag":{"amenity":"waste_basket"}},"type":"Feature"},
	{"geometry":{"coordinates":[-0.123097,51.573717],"type":"Point"},"properties":{"osm_id":"4448307122","tag":{"amenity":"waste_basket"}},"type":"Feature"},
	{"geometry":{"coordinates":[-0.123009,51.573586],"type":"Point"},"properties":{"osm_id":"4448307126","tag":{"amenity":"waste_basket"}},"type":"Feature"},
	{"geometry":{"coordinates":[-0.122395,51.573882],"type":"Point"},"properties":{"osm_id":"4448307129","tag":{"amenity":"waste_basket"}},"type":"Feature"},
	{"geometry":{"coordinates":[-0.147457,51.569668],"type":"Point"},"properties":{"osm_id":"4449790668","tag":{"amenity":"waste_basket"}},"type":"Feature"},
	{"geometry":{"coordinates":[-0.144324,51.566827],"type":"Point"},"properties":{"osm_id":"4449821217","tag":{"amenity":"waste_basket"}},"type":"Feature"},
	{"geometry":{"coordinates":[-0.143227,51.569596],"type":"Point"},"properties":{"osm_id":"4449857868","tag":{"amenity":"waste_basket"}},"type":"Feature"},
	{"geometry":{"coordinates":[-0.143917,51.568174],"type":"Point"},"properties":{"osm_id":"4449858311","tag":{"amenity":"waste_basket"}},"type":"Feature"},
	{"geometry":{"coordinates":[-0.102525,51.58771],"type":"Point"},"properties":{"osm_id":"4452500423","tag":{"amenity":"waste_basket"}},"type":"Feature"},
	{"geometry":{"coordinates":[-0.101597,51.587155],"type":"Point"},"properties":{"osm_id":"4452500438","tag":{"amenity":"waste_basket"}},"type":"Feature"},
	{"geometry":{"coordinates":[-0.103796,51.590084],"type":"Point"},"properties":{"osm_id":"4452525391","tag":{"amenity":"waste_basket"}},"type":"Feature"},
	{"geometry":{"coordinates":[-0.111151,51.603108],"type":"Point"},"properties":{"osm_id":"4452567988","tag":{"amenity":"waste_basket","waste":"dog_excrement"}},"type":"Feature"},
	{"geometry":{"coordinates":[-0.109458,51.604483],"type":"Point"},"properties":{"osm_id":"4452577150","tag":{"amenity":"waste_basket"}},"type":"Feature"},
	{"geometry":{"coordinates":[-0.110504,51.604856],"type":"Point"},"properties":{"osm_id":"4452577153","tag":{"amenity":"waste_basket"}},"type":"Feature"},
	{"geometry":{"coordinates":[-0.109263,51.603999],"type":"Point"},"properties":{"osm_id":"4452577169","tag":{"amenity":"waste_basket","waste":"dog_excrement"}},"type":"Feature"},
	{"geometry":{"coordinates":[-0.109912,51.604327],"type":"Point"},"properties":{"osm_id":"4452577175","tag":{"amenity":"waste_basket"}},"type":"Feature"},
	{"geometry":{"coordinates":[-0.111133,51.604445],"type":"Point"},"properties":{"osm_id":"4452584753","tag":{"amenity":"waste_basket"}},"type":"Feature"},
	{"geometry":{"coordinates":[-0.109434,51.605081],"type":"Point"},"properties":{"osm_id":"4452584755","tag":{"amenity":"waste_basket"}},"type":"Feature"},
	{"geometry":{"coordinates":[-0.111242,51.60417],"type":"Point"},"properties":{"osm_id":"4452584761","tag":{"amenity":"waste_basket"}},"type":"Feature"},
	{"geometry":{"coordinates":[-0.110173,51.604802],"type":"Point"},"properties":{"osm_id":"4452584768","tag":{"amenity":"waste_basket"}},"type":"Feature"},
	{"geometry":{"coordinates":[-0.109477,51.605091],"type":"Point"},"properties":{"osm_id":"4452584777","tag":{"amenity":"waste_basket","waste":"dog_excrement"}},"type":"Feature"},
	{"geometry":{"coordinates":[-0.110455,51.604433],"type":"Point"},"properties":{"osm_id":"4452584779","tag":{"amenity":"waste_basket"}},"type":"Feature"},
	{"geometry":{"coordinates":[-0.111199,51.60395],"type":"Point"},"properties":{"osm_id":"4452586237","tag":{"amenity":"waste_basket"}},"type":"Feature"},
	{"geometry":{"coordinates":[-0.111537,51.604105],"type":"Point"},"properties":{"osm_id":"4452586241","tag":{"amenity":"waste_basket","waste":"dog_excrement"}},"type":"Feature"},
	{"geometry":{"coordinates":[-0.111392,51.603907],"type":"Point"},"properties":{"osm_id":"4452586262","tag":{"amenity":"waste_basket"}},"type":"Feature"},
	{"geometry":{"coordinates":[-0.111419,51.60382],"type":"Point"},"properties":{"osm_id":"4452586263","tag":{"amenity":"waste_basket"}},"type":"Feature"},
	{"geometry":{"coordinates":[-0.110979,51.605198],"type":"Point"},"properties":{"osm_id":"4452587315","tag":{"amenity":"waste_basket","waste":"dog_excrement"}},"type":"Feature"},
	{"geometry":{"coordinates":[-0.110164,51.605198],"type":"Point"},"properties":{"osm_id":"4452587321","tag":{"amenity":"waste_basket"}},"type":"Feature"},
	{"geometry":{"coordinates":[-0.133187,51.566603],"type":"Point"},"properties":{"osm_id":"4455689746","tag":{"amenity":"waste_basket"}},"type":"Feature"},
	{"geometry":{"coordinates":[-0.137533,51.56509],"type":"Point"},"properties":{"osm_id":"4455705234","tag":{"amenity":"waste_basket"}},"type":"Feature"},
	{"geometry":{"coordinates":[-0.106547,51.59306],"type":"Point"},"properties":{"osm_id":"4607621609","tag":{"amenity":"waste_basket"}},"type":"Feature"},
	{"geometry":{"coordinates":[-0.10482,51.59183],"type":"Point"},"properties":{"osm_id":"4607621629","tag":{"amenity":"waste_basket"}},"type":"Feature"},
	{"geometry":{"coordinates":[-0.10407,51.591166],"type":"Point"},"properties":{"osm_id":"4607621635","tag":{"amenity":"waste_basket"}},"type":"Feature"},
	{"geometry":{"coordinates":[-0.106537,51.593666],"type":"Point"},"properties":{"osm_id":"4607846805","tag":{"amenity":"waste_basket"}},"type":"Feature"},
	{"geometry":{"coordinates":[-0.106982,51.593352],"type":"Point"},"properties":{"osm_id":"4607846814","tag":{"amenity":"waste_basket"}},"type":"Feature"},
	{"geometry":{"coordinates":[-0.105093,51.592058],"type":"Point"},"properties":{"osm_id":"4607846839","tag":{"amenity":"recycling"}},"type":"Feature"},
	{"geometry":{"coordinates":[-0.105101,51.592066],"type":"Point"},"properties":{"osm_id":"4607846840","tag":{"amenity":"waste_basket"}},"type":"Feature"},
	{"geometry":{"coordinates":[-0.104304,51.591367],"type":"Point"},"properties":{"osm_id":"4607846845","tag":{"amenity":"waste_basket"}},"type":"Feature"},
	{"geometry":{"coordinates":[-0.126486,51.569418],"type":"Point"},"properties":{"osm_id":"4638866701","tag":{"amenity":"recycling","recycling_type":"container"}},"type":"Feature"},
	{"geometry":{"coordinates":[-0.099843,51.57695],"type":"Point"},"properties":{"osm_id":"5657317417","tag":{"amenity":"waste_basket","waste":"trash"}},"type":"Feature"},
	{"geometry":{"coordinates":[-0.17018,51.570476],"type":"Point"},"properties":{"osm_id":"5747470566","tag":{"amenity":"waste_basket","waste":"dog_excrement"}},"type":"Feature"},
	{"geometry":{"coordinates":[-0.131717,51.564073],"type":"Point"},"properties":{"osm_id":"5762480339","tag":{"amenity":"recycling","recycling_type":"container"}},"type":"Feature"},
	{"geometry":{"coordinates":[-0.126928,51.570445],"type":"Point"},"properties":{"osm_id":"6150707449","tag":{"amenity":"recycling","recycling:clothes":"yes","recycling_type":"container"}},"type":"Feature"},
	{"geometry":{"coordinates":[-0.090821,51.601606],"type":"Point"},"properties":{"osm_id":"6222638968","tag":{"amenity":"waste_basket"}},"type":"Feature"},
	{"geometry":{"coordinates":[-0.091041,51.601753],"type":"Point"},"properties":{"osm_id":"6222638969","tag":{"amenity":"waste_basket"}},"type":"Feature"},
	{"geometry":{"coordinates":[-0.088056,51.602666],"type":"Point"},"properties":{"osm_id":"6222638970","tag":{"amenity":"waste_basket"}},"type":"Feature"},
	{"geometry":{"coordinates":[-0.088694,51.602777],"type":"Point"},"properties":{"osm_id":"6222638972","tag":{"amenity":"waste_basket"}},"type":"Feature"},
	{"geometry":{"coordinates":[-0.091797,51.59949],"type":"Point"},"properties":{"osm_id":"6222667967","tag":{"amenity":"waste_basket"}},"type":"Feature"},
	{"geometry":{"coordinates":[-0.092178,51.598985],"type":"Point"},"properties":{"osm_id":"6222667971","tag":{"amenity":"waste_basket"}},"type":"Feature"},
	{"geometry":{"coordinates":[-0.103226,51.590205],"type":"Point"},"properties":{"osm_id":"6625189932","tag":{"amenity":"waste_basket"}},"type":"Feature"},
	{"geometry":{"coordinates":[-0.103418,51.590265],"type":"Point"},"properties":{"osm_id":"6625189933","tag":{"amenity":"waste_basket"}},"type":"Feature"},
	{"geometry":{"coordinates":[-0.103436,51.590177],"type":"Point"},"properties":{"osm_id":"6625189934","tag":{"amenity":"waste_basket"}},"type":"Feature"},
	{"geometry":{"coordinates":[-0.158662,51.563603],"type":"Point"},"properties":{"osm_id":"6742380757","tag":{"amenity":"waste_basket"}},"type":"Feature"},
	{"geometry":{"coordinates":[-0.158635,51.563522],"type":"Point"},"properties":{"osm_id":"6742380760","tag":{"amenity":"waste_basket","waste":"dog_excrement"}},"type":"Feature"},
	{"geometry":{"coordinates":[-0.146528,51.565669],"type":"Point"},"properties":{"osm_id":"6742380762","tag":{"amenity":"waste_basket"}},"type":"Feature"},
	{"geometry":{"coordinates":[-0.100173,51.567395],"type":"Point"},"properties":{"osm_id":"7009082087","tag":{"amenity":"waste_basket"}},"type":"Feature"},
	{"geometry":{"coordinates":[-0.12229,51.572515],"type":"Point"},"properties":{"osm_id":"7697556226","tag":{"amenity":"waste_disposal"}},"type":"Feature"},
	{"geometry":{"coordinates":[-0.121368,51.572973],"type":"Point"},"properties":{"osm_id":"7735153724","tag":{"amenity":"waste_disposal"}},"type":"Feature"},
	{"geometry":{"coordinates":[-0.121681,51.572785],"type":"Point"},"properties":{"osm_id":"7735153732","tag":{"amenity":"waste_disposal"}},"type":"Feature"},
	{"geometry":{"coordinates":[-0.108807,51.611798],"type":"Point"},"properties":{"osm_id":"7777321944","tag":{"addr:city":"London","addr:housenumber":"3","addr:postcode":"N13 6HA","addr:street":"Princes Avenue"}},"type":"Feature"},
	{"geometry":{"coordinates":[-0.097986,51.607316],"type":"Point"},"properties":{"osm_id":"7813172579","tag":{"amenity":"waste_basket"}},"type":"Feature"},
	{"geometry":{"coordinates":[-0.15946,51.591115],"type":"Point"},"properties":{"osm_id":"7813508244","tag":{"amenity":"waste_basket"}},"type":"Feature"},
	{"geometry":{"coordinates":[-0.156444,51.590586],"type":"Point"},"properties":{"osm_id":"7822798999","tag":{"amenity":"waste_basket"}},"type":"Feature"}
]
}
