{
"type": "FeatureCollection",
"features": [
	{"geometry":{"coordinates":[-0.130564,51.49075],"type":"Point"},"properties":{"osm_id":"25536894","tag":{"amenity":"recycling","recycling_type":"container"}},"type":"Feature"},
	{"geometry":{"coordinates":[-0.136881,51.497863],"type":"Point"},"properties":{"osm_id":"169367547","tag":{"amenity":"recycling"}},"type":"Feature"},
	{"geometry":{"coordinates":[-0.122637,51.472388],"type":"Point"},"properties":{"osm_id":"262131046","tag":{"amenity":"recycling","recycling:paper":"yes"}},"type":"Feature"},
	{"geometry":{"coordinates":[-0.106387,51.490695],"type":"Point"},"properties":{"osm_id":"265251334","tag":{"amenity":"recycling"}},"type":"Feature"},
	{"geometry":{"coordinates":[-0.139029,51.489805],"type":"Point"},"properties":{"osm_id":"273210306","tag":{"amenity":"recycling"}},"type":"Feature"},
	{"geometry":{"coordinates":[-0.143767,51.493006],"type":"Point"},"properties":{"osm_id":"276069802","tag":{"amenity":"recycling"}},"type":"Feature"},
	{"geometry":{"coordinates":[-0.141248,51.487515],"type":"Point"},"properties":{"osm_id":"277625372","tag":{"amenity":"recycling"}},"type":"Feature"},
	{"geometry":{"coordinates":[-0.158781,51.487821],"type":"Point"},"properties":{"osm_id":"280860049","tag":{"amenity":"recycling","location":"overground","recycling:cans":"yes","recycling:clothes":"yes","recycling:glass_bottles":"yes","recycling:paper":"yes","recycling:plastic":"no","recycling:plastic_packaging":"yes","recycling:shoes":"yes","recycling:small_electrical_appliances":"yes","recycling_type":"container"}},"type":"Feature"},
	{"geometry":{"coordinates":[-0.142663,51.489659],"type":"Point"},"properties":{"osm_id":"280861204","tag":{"amenity":"recycling","recycling:cans":"yes","recycling:cardboard":"yes","recycling:cartons":"yes","recycling:clothes":"no","recycling:electrical_appliances":"no","recycling:glass_bottles":"yes","recycling:magazines":"yes","recycling:newspaper":"yes","recycling:paper":"yes","recycling:paper_packaging":"yes","recycling:plastic_bottles":"yes","recycling:scrap_metal":"no","recycling_type":"container"}},"type":"Feature"},
	{"geometry":{"coordinates":[-0.110376,51.501396],"type":"Point"},"properties":{"osm_id":"294197623","tag":{"amenity":"recycling","recycling:clothes":"yes","recycling:glass":"yes"}},"type":"Feature"},
	{"geometry":{"coordinates":[-0.090337,51.49205],"type":"Point"},"properties":{"osm_id":"296145694","tag":{"amenity":"recycling"}},"type":"Feature"},
	{"geometry":{"coordinates":[-0.091925,51.461131],"type":"Point"},"properties":{"osm_id":"297007570","tag":{"amenity":"recycling"}},"type":"Feature"},
	{"geometry":{"coordinates":[-0.09861,51.475451],"type":"Point"},"properties":{"osm_id":"300952597","tag":{"amenity":"recycling"}},"type":"Feature"},
	{"geometry":{"coordinates":[-0.099371,51.472364],"type":"Point"},"properties":{"osm_id":"300952601","tag":{"amenity":"recycling"}},"type":"Feature"},
	{"geometry":{"coordinates":[-0.098431,51.47165],"type":"Point"},"properties":{"osm_id":"300952604","tag":{"amenity":"recycling"}},"type":"Feature"},
	{"geometry":{"coordinates":[-0.096883,51.470568],"type":"Point"},"properties":{"osm_id":"300952611","tag":{"amenity":"recycling"}},"type":"Feature"},
	{"geometry":{"coordinates":[-0.104293,51.469651],"type":"Point"},"properties":{"osm_id":"300952653","tag":{"amenity":"recycling"}},"type":"Feature"},
	{"geometry":{"coordinates":[-0.104924,51.467925],"type":"Point"},"properties":{"osm_id":"300952658","tag":{"amenity":"recycling"}},"type":"Feature"},
	{"geometry":{"coordinates":[-0.138429,51.492317],"type":"Point"},"properties":{"osm_id":"301010017","tag":{"amenity":"recycling","location":"overground","recycling_type":"container"}},"type":"Feature"},
	{"geometry":{"coordinates":[-0.143105,51.492564],"type":"Point"},"properties":{"osm_id":"308833277","tag":{"amenity":"recycling","opening_hours":"Mo-Su 00:00-23:59","recycling:cans":"yes","recycling:glass_bottles":"yes","recycling:paper":"yes","recycling:plastic_bottles":"yes"}},"type":"Feature"},
	{"geometry":{"coordinates":[-0.127855,51.494796],"type":"Point"},"properties":{"osm_id":"313350288","tag":{"amenity":"recycling","recycling_type":"container"}},"type":"Feature"},
	{"geometry":{"coordinates":[-0.13805,51.487225],"type":"Point"},"properties":{"osm_id":"313741868","tag":{"amenity":"recycling","opening_hours":"Mo-Su 00:00-23:59","recycling:cartons":"yes","recycling:clothes":"yes","recycling:paper":"yes","recycling:plastic_bottles":"yes","recycling:small_appliances":"yes"}},"type":"Feature"},
	{"geometry":{"coordinates":[-0.13217,51.4946],"type":"Point"},"properties":{"osm_id":"313914278","tag":{"amenity":"recycling","recycling:cans":"yes","recycling:cardboard":"yes","recycling:cartons":"yes","recycling:clothes":"yes","recycling:glass_bottles":"yes","recycling:magazines":"yes","recycling:newspaper":"yes","recycling:paper":"yes","recycling:plastic_bottles":"yes"}},"type":"Feature"},
	{"geometry":{"coordinates":[-0.107399,51.485346],"type":"Point"},"properties":{"osm_id":"322958482","tag":{"amenity":"waste_basket"}},"type":"Feature"},
	{"geometry":{"coordinates":[-0.105226,51.48505],"type":"Point"},"properties":{"osm_id":"322958509","tag":{"amenity":"waste_basket"}},"type":"Feature"},
	{"geometry":{"coordinates":[-0.10519,51.484764],"type":"Point"},"properties":{"osm_id":"322958512","tag":{"amenity":"waste_basket"}},"type":"Feature"},
	{"geometry":{"coordinates":[-0.099782,51.486447],"type":"Point"},"properties":{"osm_id":"322959217","tag":{"amenity":"waste_basket"}},"type":"Feature"},
	{"geometry":{"coordinates":[-0.093698,51.484388],"type":"Point"},"properties":{"osm_id":"322979555","tag":{"amenity":"waste_basket"}},"type":"Feature"},
	{"geometry":{"coordinates":[-0.093829,51.484606],"type":"Point"},"properties":{"osm_id":"322979562","tag":{"amenity":"waste_basket"}},"type":"Feature"},
	{"geometry":{"coordinates":[-0.093735,51.485077],"type":"Point"},"properties":{"osm_id":"322979595","tag":{"amenity":"waste_basket"}},"type":"Feature"},
	{"geometry":{"coordinates":[-0.089923,51.476267],"type":"Point"},"properties":{"osm_id":"332146505","tag":{"amenity":"recycling"}},"type":"Feature"},
	{"geometry":{"coordinates":[-0.092804,51.475551],"type":"Point"},"properties":{"osm_id":"332147215","tag":{"amenity":"recycling"}},"type":"Feature"},
	{"geometry":{"coordinates":[-0.094947,51.506962],"type":"Point"},"properties":{"osm_id":"352925490","tag":{"amenity":"waste_basket"}},"type":"Feature"},
	{"geometry":{"coordinates":[-0.095237,51.50698],"type":"Point"},"properties":{"osm_id":"352925492","tag":{"amenity":"waste_basket"}},"type":"Feature"},
	{"geometry":{"coordinates":[-0.095297,51.506445],"type":"Point"},"properties":{"osm_id":"352925493","tag":{"amenity":"waste_basket"}},"type":"Feature"},
	{"geometry":{"coordinates":[-0.095323,51.506287],"type":"Point"},"properties":{"osm_id":"352925494","tag":{"amenity":"waste_basket"}},"type":"Feature"},
	{"geometry":{"coordinates":[-0.095586,51.505402],"type":"Point"},"properties":{"osm_id":"352925498","tag":{"amenity":"waste_basket"}},"type":"Feature"},
	{"geometry":{"coordinates":[-0.095773,51.504367],"type":"Point"},"properties":{"osm_id":"352925501","tag":{"amenity":"waste_basket"}},"type":"Feature"},
	{"geometry":{"coordinates":[-0.095697,51.503944],"type":"Point"},"properties":{"osm_id":"352925502","tag":{"amenity":"waste_basket"}},"type":"Feature"},
	{"geometry":{"coordinates":[-0.095844,51.502717],"type":"Point"},"properties":{"osm_id":"352925506","tag":{"amenity":"waste_basket"}},"type":"Feature"},
	{"geometry":{"coordinates":[-0.096054,51.502559],"type":"Point"},"properties":{"osm_id":"352928481","tag":{"amenity":"waste_basket"}},"type":"Feature"},
	{"geometry":{"coordinates":[-0.096838,51.502705],"type":"Point"},"properties":{"osm_id":"352928508","tag":{"amenity":"waste_basket"}},"type":"Feature"},
	{"geometry":{"coordinates":[-0.096695,51.502486],"type":"Point"},"properties":{"osm_id":"352928510","tag":{"amenity":"waste_basket","waste":"dog_excrement"}},"type":"Feature"},
	{"geometry":{"coordinates":[-0.09669,51.502476],"type":"Point"},"properties":{"osm_id":"352928512","tag":{"amenity":"waste_basket"}},"type":"Feature"},
	{"geometry":{"coordinates":[-0.097427,51.502403],"type":"Point"},"properties":{"osm_id":"352928518","tag":{"amenity":"waste_basket"}},"type":"Feature"},
	{"geometry":{"coordinates":[-0.097936,51.501717],"type":"Point"},"properties":{"osm_id":"352928522","tag":{"amenity":"waste_basket"}},"type":"Feature"},
	{"geometry":{"coordinates":[-0.094773,51.501705],"type":"Point"},"properties":{"osm_id":"352928526","tag":{"amenity":"waste_basket"}},"type":"Feature"},
	{"geometry":{"coordinates":[-0.094565,51.501626],"type":"Point"},"properties":{"osm_id":"352928528","tag":{"amenity":"waste_basket"}},"type":"Feature"},
	{"geometry":{"coordinates":[-0.093008,51.501327],"type":"Point"},"properties":{"osm_id":"352928530","tag":{"amenity":"waste_basket"}},"type":"Feature"},
	{"geometry":{"coordinates":[-0.092788,51.501731],"type":"Point"},"properties":{"osm_id":"352928531","tag":{"amenity":"waste_basket"}},"type":"Feature"},
	{"geometry":{"coordinates":[-0.092592,51.501917],"type":"Point"},"properties":{"osm_id":"352928532","tag":{"amenity":"waste_basket"}},"type":"Feature"},
	{"geometry":{"coordinates":[-0.092475,51.501888],"type":"Point"},"properties":{"osm_id":"352928533","tag":{"amenity":"waste_basket"}},"type":"Feature"},
	{"geometry":{"coordinates":[-0.088527,51.502191],"type":"Point"},"properties":{"osm_id":"352929718","tag":{"amenity":"waste_basket"}},"type":"Feature"},
	{"geometry":{"coordinates":[-0.088183,51.502217],"type":"Point"},"properties":{"osm_id":"352929726","tag":{"amenity":"waste_basket"}},"type":"Feature"},
	{"geometry":{"coordinates":[-0.088197,51.502495],"type":"Point"},"properties":{"osm_id":"352929728","tag":{"amenity":"waste_basket"}},"type":"Feature"},
	{"geometry":{"coordinates":[-0.138923,51.461685],"type":"Point"},"properties":{"osm_id":"392625780","tag":{"amenity":"recycling","recycling:batteries":"yes","recycling:books":"yes","recycling:cans":"no","recycling:cardboard":"yes","recycling:cartons":"no","recycling:cds":"yes","recycling:clothes":"no","recycling:electrical_appliances":"no","recycling:glass":"no","recycling:glass_bottles":"no","recycling:green_waste":"no","recycling:low_energy_bulbs":"yes","recycling:magazines":"yes","recycling:newspaper":"yes","recycling:paper":"yes","recycling:paper_packaging":"yes","recycling:plastic":"no","recycling:plastic_bottles":"no","recycling:plastic_packaging":"no","recycling:scrap_metal":"no","recycling:small_appliances":"yes","recycling:waste":"no","recycling:wood":"no","recycling_type":"container"}},"type":"Feature"},
	{"geometry":{"coordinates":[-0.137297,51.491227],"type":"Point"},"properties":{"osm_id":"418985777","tag":{"amenity":"recycling","location":"overground","recycling_type":"container"}},"type":"Feature"},
	{"geometry":{"coordinates":[-0.145129,51.486788],"type":"Point"},"properties":{"osm_id":"423595934","tag":{"amenity":"recycling","location":"overground","recycling_type":"container"}},"type":"Feature"},
	{"geometry":{"coordinates":[-0.144852,51.490668],"type":"Point"},"properties":{"osm_id":"428964048","tag":{"amenity":"recycling","recycling:cans":"yes","recycling:glass":"yes","recycling:paper":"yes"}},"type":"Feature"},
	{"geometry":{"coordinates":[-0.143625,51.490119],"type":"Point"},"properties":{"osm_id":"428964049","tag":{"amenity":"recycling","recycling:cans":"yes","recycling:glass":"yes","recycling:paper":"yes"}},"type":"Feature"},
	{"geometry":{"coordinates":[-0.115476,51.504921],"type":"Point"},"properties":{"osm_id":"441948420","tag":{"amenity":"recycling"}},"type":"Feature"},
	{"geometry":{"coordinates":[-0.094093,51.497141],"type":"Point"},"properties":{"osm_id":"564718520","tag":{"amenity":"recycling","recycling_type":"container"}},"type":"Feature"},
	{"geometry":{"coordinates":[-0.097063,51.494962],"type":"Point"},"properties":{"osm_id":"565522159","tag":{"amenity":"recycling"}},"type":"Feature"},
	{"geometry":{"coordinates":[-0.090722,51.498053],"type":"Point"},"properties":{"osm_id":"566225612","tag":{"amenity":"recycling"}},"type":"Feature"},
	{"geometry":{"coordinates":[-0.106464,51.499941],"type":"Point"},"properties":{"osm_id":"566454202","tag":{"amenity":"recycling"}},"type":"Feature"},
	{"geometry":{"coordinates":[-0.095088,51.506351],"type":"Point"},"properties":{"osm_id":"595011634","tag":{"amenity":"recycling"}},"type":"Feature"},
	{"geometry":{"coordinates":[-0.089933,51.498944],"type":"Point"},"properties":{"osm_id":"675439514","tag":{"amenity":"waste_basket"}},"type":"Feature"},
	{"geometry":{"coordinates":[-0.147559,51.490711],"type":"Point"},"properties":{"osm_id":"679215276","tag":{"amenity":"recycling"}},"type":"Feature"},
	{"geometry":{"coordinates":[-0.102074,51.48681],"type":"Point"},"properties":{"osm_id":"687934496","tag":{"amenity":"recycling"}},"type":"Feature"},
	{"geometry":{"coordinates":[-0.141918,51.481757],"type":"Point"},"properties":{"barrier":"gate","osm_id":"842075254","tag":{"access":"private","goods":"private","motorcar":"yes"}},"type":"Feature"},
	{"geometry":{"coordinates":[-0.141121,51.481642],"type":"Point"},"properties":{"barrier":"gate","osm_id":"842075260","tag":{"access":"private","bicycle":"no","foot":"no"}},"type":"Feature"},
	{"geometry":{"coordinates":[-0.097032,51.495664],"type":"Point"},"properties":{"name":"Rockingham Street","osm_id":"855327734","tag":{"amenity":"recycling"}},"type":"Feature"},
	{"geometry":{"coordinates":[-0.164827,51.493785],"type":"Point"},"properties":{"name":"Denyer Street Depot","osm_id":"862464756","tag":{"amenity":"recycling","operator":"The Royal Borough of Kensignton and Chelsea","recycling_type":"centre"}},"type":"Feature"},
	{"geometry":{"coordinates":[-0.106944,51.501324],"type":"Point"},"properties":{"osm_id":"863838743","tag":{"amenity":"recycling"}},"type":"Feature"},
	{"geometry":{"coordinates":[-0.089686,51.467813],"type":"Point"},"properties":{"osm_id":"884220646","tag":{"amenity":"recycling","recycling:cans":"yes","recycling:paper":"yes"}},"type":"Feature"},
	{"geometry":{"coordinates":[-0.089531,51.467842],"type":"Point"},"properties":{"osm_id":"884220649","tag":{"amenity":"recycling","recycling:cans":"yes","recycling:paper":"yes"}},"type":"Feature"},
	{"geometry":{"coordinates":[-0.104721,51.504038],"type":"Point"},"properties":{"osm_id":"914501369","tag":{"amenity":"recycling"}},"type":"Feature"},
	{"geometry":{"coordinates":[-0.100669,51.496077],"type":"Point"},"properties":{"osm_id":"976548467","tag":{"amenity":"recycling","recycling:cans":"yes","recycling:cardboard":"yes","recycling:paper":"yes"}},"type":"Feature"},
	{"geometry":{"coordinates":[-0.140396,51.496197],"type":"Point"},"properties":{"osm_id":"983838954","tag":{"amenity":"recycling","recycling:cans":"yes","recycling:cardboard":"yes","recycling:paper":"yes","recycling:plastic":"yes","recycling:plastic_bottles":"yes","recycling:plastic_packaging":"yes","recycling:small_appliances":"yes","recycling_type":"container"}},"type":"Feature"},
	{"geometry":{"coordinates":[-0.133431,51.492207],"type":"Point"},"properties":{"osm_id":"1085864820","tag":{"amenity":"recycling","opening_hours":"Mo-Su 00:00-23:59","recycling:cans":"yes","recycling:cardboard":"yes","recycling:glass_bottles":"yes","recycling:paper":"yes","recycling:plastic_bottles":"yes"}},"type":"Feature"},
	{"geometry":{"coordinates":[-0.169002,51.463429],"type":"Point"},"properties":{"osm_id":"1165921288","tag":{"amenity":"recycling","location":"overground","recycling:paper":"yes","recycling_type":"container"}},"type":"Feature"},
	{"geometry":{"coordinates":[-0.129089,51.492823],"type":"Point"},"properties":{"osm_id":"1200541539","tag":{"amenity":"recycling","opening_hours":"24/7","recycling:cans":"yes","recycling:christmas_trees":"yes","recycling:glass_bottles":"yes","recycling:paper":"yes","recycling:plastic_bottles":"yes"}},"type":"Feature"},
	{"geometry":{"coordinates":[-0.091876,51.474206],"type":"Point"},"properties":{"osm_id":"1211957839","tag":{"amenity":"recycling","operator":"London Borough of Southwark","recycling:cans":"yes","recycling:cardboard":"yes","recycling:glass_bottles":"yes","recycling:paper":"yes","recycling:plastic_bottles":"yes"}},"type":"Feature"},
	{"geometry":{"coordinates":[-0.142146,51.488682],"type":"Point"},"properties":{"osm_id":"1223801987","tag":{"amenity":"recycling","opening_hours":"Mo-Su 00:00-23:59","recycling:cardboard":"yes","recycling:glass_bottles":"yes","recycling:paper":"yes","recycling:plastic_bottles":"yes","recycling:waste":"yes"}},"type":"Feature"},
	{"geometry":{"coordinates":[-0.142301,51.490141],"type":"Point"},"properties":{"osm_id":"1223802374","tag":{"amenity":"recycling","opening_hours":"Mo-Su 00:00-23:59","recycling:cardboard":"yes","recycling:glass_bottles":"yes","recycling:newspaper":"yes","recycling:paper":"yes","recycling:plastic_bottles":"yes","recycling:waste":"yes"}},"type":"Feature"},
	{"geometry":{"coordinates":[-0.14051,51.491262],"type":"Point"},"properties":{"osm_id":"1223802521","tag":{"amenity":"recycling","opening_hours":"Mo-Su 00:00-23:59","recycling:cans":"yes","recycling:glass_bottles":"yes","recycling:paper":"yes","recycling:plastic_bottles":"yes"}},"type":"Feature"},
	{"geometry":{"coordinates":[-0.127712,51.489238],"type":"Point"},"properties":{"osm_id":"1283535046","tag":{"amenity":"waste_basket"}},"type":"Feature"},
	{"geometry":{"coordinates":[-0.127784,51.489117],"type":"Point"},"properties":{"osm_id":"1283535048","tag":{"amenity":"waste_basket"}},"type":"Feature"},
	{"geometry":{"coordinates":[-0.127982,51.488935],"type":"Point"},"properties":{"osm_id":"1283535062","tag":{"amenity":"waste_basket"}},"type":"Feature"},
	{"geometry":{"coordinates":[-0.131479,51.488779],"type":"Point"},"properties":{"osm_id":"1284087016","tag":{"amenity":"waste_basket"}},"type":"Feature"},
	{"geometry":{"coordinates":[-0.13023,51.488451],"type":"Point"},"properties":{"osm_id":"1284087059","tag":{"amenity":"waste_basket"}},"type":"Feature"},
	{"geometry":{"coordinates":[-0.130012,51.488647],"type":"Point"},"properties":{"osm_id":"1284087100","tag":{"amenity":"recycling","opening_hours":"08:00-20:00","phone":"+44 20 7641 2000","recycling_type":"container"}},"type":"Feature"},
	{"geometry":{"coordinates":[-0.130878,51.488932],"type":"Point"},"properties":{"osm_id":"1284087105","tag":{"amenity":"waste_basket"}},"type":"Feature"},
	{"geometry":{"coordinates":[-0.130241,51.488593],"type":"Point"},"properties":{"osm_id":"1284087109","tag":{"amenity":"waste_basket"}},"type":"Feature"},
	{"geometry":{"coordinates":[-0.133142,51.489903],"type":"Point"},"properties":{"osm_id":"1287703208","tag":{"amenity":"recycling","recycling_type":"container"}},"type":"Feature"},
	{"geometry":{"coordinates":[-0.128668,51.498814],"type":"Point"},"properties":{"osm_id":"1306187465","tag":{"amenity":"waste_basket"}},"type":"Feature"},
	{"geometry":{"coordinates":[-0.131748,51.508322],"type":"Point"},"properties":{"osm_id":"1571935980","tag":{"amenity":"waste_basket"}},"type":"Feature"},
	{"geometry":{"coordinates":[-0.11997,51.45439],"type":"Point"},"properties":{"osm_id":"1733943796","tag":{"amenity":"waste_basket"}},"type":"Feature"},
	{"geometry":{"coordinates":[-0.11964,51.454752],"type":"Point"},"properties":{"osm_id":"1733943946","tag":{"amenity":"waste_basket"}},"type":"Feature"},
	{"geometry":{"coordinates":[-0.144551,51.488145],"type":"Point"},"properties":{"name":"Sutherland Street Recycling","osm_id":"1790386546","tag":{"amenity":"recycling"}},"type":"Feature"},
	{"geometry":{"coordinates":[-0.112567,51.508142],"type":"Point"},"properties":{"osm_id":"1957103528","tag":{"amenity":"waste_basket"}},"type":"Feature"},
	{"geometry":{"coordinates":[-0.109391,51.508342],"type":"Point"},"properties":{"osm_id":"1957103530","tag":{"amenity":"waste_basket"}},"type":"Feature"},
	{"geometry":{"coordinates":[-0.101045,51.505651],"type":"Point"},"properties":{"osm_id":"2187791679","tag":{"amenity":"waste_basket"}},"type":"Feature"},
	{"geometry":{"coordinates":[-0.101699,51.504931],"type":"Point"},"properties":{"osm_id":"2187797213","tag":{"amenity":"waste_basket"}},"type":"Feature"},
	{"geometry":{"coordinates":[-0.124039,51.506711],"type":"Point"},"properties":{"osm_id":"2548777503","tag":{"amenity":"waste_basket","wheelchair":"yes"}},"type":"Feature"},
	{"geometry":{"coordinates":[-0.135576,51.460198],"type":"Point"},"properties":{"osm_id":"2710936952","tag":{"amenity":"recycling","recycling:books":"yes","recycling:cans":"yes","recycling:cardboard":"yes","recycling:cartons":"yes","recycling:clothes":"yes","recycling:electrical_appliances":"no","recycling:magazines":"yes","recycling:newspaper":"yes","recycling:paper":"yes","recycling:small_appliances":"yes","recycling_type":"container"}},"type":"Feature"},
	{"geometry":{"coordinates":[-0.092027,51.46971],"type":"Point"},"properties":{"osm_id":"2895307683","tag":{"amenity":"waste_basket"}},"type":"Feature"},
	{"geometry":{"coordinates":[-0.115325,51.45702],"type":"Point"},"properties":{"osm_id":"3020047558","tag":{"amenity":"recycling","recycling:clothes":"yes"}},"type":"Feature"},
	{"geometry":{"coordinates":[-0.150393,51.507904],"type":"Point"},"properties":{"osm_id":"3033386081","tag":{"amenity":"waste_basket"}},"type":"Feature"},
	{"geometry":{"coordinates":[-0.150539,51.507904],"type":"Point"},"properties":{"osm_id":"3033386082","tag":{"amenity":"recycling"}},"type":"Feature"},
	{"geometry":{"coordinates":[-0.118942,51.46028],"type":"Point"},"properties":{"osm_id":"3047839509","tag":{"amenity":"recycling","recycling_type":"container"}},"type":"Feature"},
	{"geometry":{"coordinates":[-0.148582,51.458134],"type":"Point"},"properties":{"osm_id":"3178579172","tag":{"amenity":"waste_basket"}},"type":"Feature"},
	{"geometry":{"coordinates":[-0.147216,51.458175],"type":"Point"},"properties":{"osm_id":"3178579173","tag":{"amenity":"waste_basket"}},"type":"Feature"},
	{"geometry":{"coordinates":[-0.146579,51.45826],"type":"Point"},"properties":{"osm_id":"3178579179","tag":{"amenity":"waste_basket","waste":"dog"}},"type":"Feature"},
	{"geometry":{"coordinates":[-0.148166,51.458194],"type":"Point"},"properties":{"osm_id":"3178579182","tag":{"amenity":"waste_basket"}},"type":"Feature"},
	{"geometry":{"coordinates":[-0.129221,51.507454],"type":"Point"},"properties":{"osm_id":"3287721662","tag":{"amenity":"waste_basket"}},"type":"Feature"},
	{"geometry":{"coordinates":[-0.131391,51.507893],"type":"Point"},"properties":{"osm_id":"3287727762","tag":{"amenity":"waste_basket"}},"type":"Feature"},
	{"geometry":{"coordinates":[-0.128497,51.507356],"type":"Point"},"properties":{"osm_id":"3287732461","tag":{"amenity":"waste_basket"}},"type":"Feature"},
	{"geometry":{"coordinates":[-0.129851,51.490056],"type":"Point"},"properties":{"osm_id":"3287741861","tag":{"amenity":"waste_basket"}},"type":"Feature"},
	{"geometry":{"coordinates":[-0.113048,51.467144],"type":"Point"},"properties":{"osm_id":"3297611466","tag":{"amenity":"recycling"}},"type":"Feature"},
	{"geometry":{"coordinates":[-0.155906,51.500768],"type":"Point"},"properties":{"osm_id":"3377585832","tag":{"amenity":"waste_basket"}},"type":"Feature"},
	{"geometry":{"coordinates":[-0.145761,51.489823],"type":"Point"},"properties":{"osm_id":"3398042290","tag":{"amenity":"recycling"}},"type":"Feature"},
	{"geometry":{"coordinates":[-0.146669,51.489253],"type":"Point"},"properties":{"osm_id":"3398046710","tag":{"amenity":"recycling","location":"overground","recycling_type":"container"}},"type":"Feature"},
	{"geometry":{"coordinates":[-0.14687,51.497555],"type":"Point"},"properties":{"osm_id":"3631210989","tag":{"amenity":"waste_basket"}},"type":"Feature"},
	{"geometry":{"coordinates":[-0.134174,51.497945],"type":"Point"},"properties":{"osm_id":"3637335089","tag":{"amenity":"waste_basket"}},"type":"Feature"},
	{"geometry":{"coordinates":[-0.140163,51.496915],"type":"Point"},"properties":{"osm_id":"3637335090","tag":{"amenity":"waste_basket"}},"type":"Feature"},
	{"geometry":{"coordinates":[-0.137027,51.497395],"type":"Point"},"properties":{"osm_id":"3637335092","tag":{"amenity":"waste_basket"}},"type":"Feature"},
	{"geometry":{"coordinates":[-0.136019,51.497535],"type":"Point"},"properties":{"osm_id":"3637339694","tag":{"amenity":"waste_basket"}},"type":"Feature"},
	{"geometry":{"coordinates":[-0.144258,51.493452],"type":"Point"},"properties":{"osm_id":"3703392401","tag":{"amenity":"recycling"}},"type":"Feature"},
	{"geometry":{"coordinates":[-0.132839,51.486193],"type":"Point"},"properties":{"osm_id":"3744426219","tag":{"amenity":"recycling","recycling:cans":"yes","recycling:clothes":"no","recycling:glass":"yes","recycling:paper":"yes"}},"type":"Feature"},
	{"geometry":{"coordinates":[-0.13469,51.488156],"type":"Point"},"properties":{"osm_id":"3750549716","tag":{"amenity":"recycling","recycling:cans":"yes","recycling:clothes":"no","recycling:glass":"yes","recycling:paper":"yes"}},"type":"Feature"},
	{"geometry":{"coordinates":[-0.134478,51.487516],"type":"Point"},"properties":{"osm_id":"3750549720","tag":{"amenity":"waste_basket"}},"type":"Feature"},
	{"geometry":{"coordinates":[-0.13394,51.486402],"type":"Point"},"properties":{"osm_id":"3750549723","tag":{"amenity":"recycling","recycling:cans":"yes","recycling:clothes":"no","recycling:glass":"yes","recycling:paper":"yes"}},"type":"Feature"},
	{"geometry":{"coordinates":[-0.129909,51.507551],"type":"Point"},"properties":{"osm_id":"3810553692","tag":{"amenity":"waste_basket"}},"type":"Feature"},
	{"geometry":{"coordinates":[-0.135594,51.507456],"type":"Point"},"properties":{"osm_id":"4153627590","tag":{"amenity":"waste_basket"}},"type":"Feature"},
	{"geometry":{"coordinates":[-0.134648,51.507344],"type":"Point"},"properties":{"osm_id":"4153627592","tag":{"amenity":"waste_basket"}},"type":"Feature"},
	{"geometry":{"coordinates":[-0.138768,51.507767],"type":"Point"},"properties":{"osm_id":"4170525436","tag":{"amenity":"waste_basket"}},"type":"Feature"},
	{"geometry":{"coordinates":[-0.139797,51.507325],"type":"Point"},"properties":{"osm_id":"4171750111","tag":{"amenity":"waste_basket"}},"type":"Feature"},
	{"geometry":{"coordinates":[-0.139865,51.507395],"type":"Point"},"properties":{"osm_id":"4171750112","tag":{"amenity":"waste_basket"}},"type":"Feature"},
	{"geometry":{"coordinates":[-0.139472,51.507436],"type":"Point"},"properties":{"osm_id":"4171750113","tag":{"amenity":"waste_basket"}},"type":"Feature"},
	{"geometry":{"coordinates":[-0.133219,51.507804],"type":"Point"},"properties":{"osm_id":"4187508661","tag":{"amenity":"recycling","location":"overground","recycling_type":"container"}},"type":"Feature"},
	{"geometry":{"coordinates":[-0.133385,51.508008],"type":"Point"},"properties":{"osm_id":"4187508668","tag":{"amenity":"recycling"}},"type":"Feature"},
	{"geometry":{"coordinates":[-0.139046,51.508438],"type":"Point"},"properties":{"osm_id":"4190435875","tag":{"amenity":"waste_basket"}},"type":"Feature"},
	{"geometry":{"coordinates":[-0.139022,51.508446],"type":"Point"},"properties":{"osm_id":"4190435876","tag":{"amenity":"recycling","recycling_type":"container"}},"type":"Feature"},
	{"geometry":{"coordinates":[-0.113772,51.485831],"type":"Point"},"properties":{"osm_id":"4227095548","tag":{"amenity":"recycling","recycling_type":"centre"}},"type":"Feature"},
	{"geometry":{"coordinates":[-0.134039,51.488801],"type":"Point"},"properties":{"osm_id":"4257264605","tag":{"amenity":"recycling","level":"0","recycling:magazines":"yes","recycling:newspaper":"yes","recycling:paper":"yes","recycling:paper_packaging":"yes","wheelchair":"yes"}},"type":"Feature"},
	{"geometry":{"coordinates":[-0.133984,51.48881],"type":"Point"},"properties":{"osm_id":"4257264606","tag":{"amenity":"recycling","level":"0","recycling:magazines":"yes","recycling:newspaper":"yes","recycling:paper":"yes","recycling:paper_packaging":"yes","wheelchair":"yes"}},"type":"Feature"},
	{"geometry":{"coordinates":[-0.13411,51.489017],"type":"Point"},"properties":{"osm_id":"4257264607","tag":{"amenity":"recycling","level":"0","recycling:clothes":"yes","recycling:shoes":"yes","wheelchair":"no"}},"type":"Feature"},
	{"geometry":{"coordinates":[-0.13407,51.489044],"type":"Point"},"properties":{"osm_id":"4257264608","tag":{"amenity":"recycling","level":"0","recycling:beverage_cartons":"yes","recycling:books":"yes","recycling:cans":"yes","recycling:cardboard":"yes","recycling:cartons":"yes","recycling:glass":"yes","recycling:glass_bottles":"yes","recycling:magazines":"yes","recycling:newspaper":"yes","recycling:paper":"yes","recycling:paper_packaging":"yes","recycling:plastic":"yes","recycling:plastic_bottles":"yes","recycling:plastic_packaging":"yes","wheelchair":"no"}},"type":"Feature"},
	{"geometry":{"coordinates":[-0.134059,51.48905],"type":"Point"},"properties":{"osm_id":"4257264609","tag":{"amenity":"recycling","level":"0","recycling:beverage_cartons":"yes","recycling:books":"yes","recycling:cans":"yes","recycling:cardboard":"yes","recycling:cartons":"yes","recycling:glass":"yes","recycling:glass_bottles":"yes","recycling:magazines":"yes","recycling:newspaper":"yes","recycling:paper":"yes","recycling:paper_packaging":"yes","recycling:plastic":"yes","recycling:plastic_bottles":"yes","recycling:plastic_packaging":"yes","wheelchair":"no"}},"type":"Feature"},
	{"geometry":{"coordinates":[-0.134108,51.489033],"type":"Point"},"properties":{"osm_id":"4257264610","tag":{"amenity":"waste_disposal","level":"0","wheelchair":"no"}},"type":"Feature"},
	{"geometry":{"coordinates":[-0.134124,51.489023],"type":"Point"},"properties":{"osm_id":"4257264611","tag":{"amenity":"recycling","level":"0","recycling:electrical_items":"yes","wheelchair":"no"}},"type":"Feature"},
	{"geometry":{"coordinates":[-0.134094,51.489028],"type":"Point"},"properties":{"osm_id":"4257264612","tag":{"amenity":"recycling","level":"0","recycling:beverage_cartons":"yes","recycling:books":"yes","recycling:cans":"yes","recycling:cardboard":"yes","recycling:cartons":"yes","recycling:glass":"yes","recycling:glass_bottles":"yes","recycling:magazines":"yes","recycling:newspaper":"yes","recycling:paper":"yes","recycling:paper_packaging":"yes","recycling:plastic":"yes","recycling:plastic_bottles":"yes","recycling:plastic_packaging":"yes","wheelchair":"no"}},"type":"Feature"},
	{"geometry":{"coordinates":[-0.13408,51.489038],"type":"Point"},"properties":{"osm_id":"4257264613","tag":{"amenity":"recycling","level":"0","recycling:beverage_cartons":"yes","recycling:books":"yes","recycling:cans":"yes","recycling:cardboard":"yes","recycling:cartons":"yes","recycling:glass":"yes","recycling:glass_bottles":"yes","recycling:magazines":"yes","recycling:newspaper":"yes","recycling:paper":"yes","recycling:paper_packaging":"yes","recycling:plastic":"yes","recycling:plastic_bottles":"yes","recycling:plastic_packaging":"yes","wheelchair":"no"}},"type":"Feature"},
	{"geometry":{"coordinates":[-0.142168,51.479296],"type":"Point"},"properties":{"osm_id":"4274175077","tag":{"amenity":"recycling","operator":"traid","recycling:clothes":"yes","recycling_type":"container"}},"type":"Feature"},
	{"geometry":{"coordinates":[-0.155511,51.474308],"type":"Point"},"properties":{"osm_id":"4303343425","tag":{"amenity":"recycling","operator":"traid","recycling:clothes":"yes","recycling_type":"container"}},"type":"Feature"},
	{"geometry":{"coordinates":[-0.173787,51.461476],"type":"Point"},"properties":{"osm_id":"4317238527","tag":{"amenity":"waste_basket"}},"type":"Feature"},
	{"geometry":{"coordinates":[-0.174481,51.461073],"type":"Point"},"properties":{"osm_id":"4317238528","tag":{"amenity":"waste_basket"}},"type":"Feature"},
	{"geometry":{"coordinates":[-0.175435,51.460638],"type":"Point"},"properties":{"osm_id":"4317238529","tag":{"amenity":"waste_basket"}},"type":"Feature"},
	{"geometry":{"coordinates":[-0.174155,51.461231],"type":"Point"},"properties":{"osm_id":"4317239710","tag":{"amenity":"waste_basket"}},"type":"Feature"},
	{"geometry":{"coordinates":[-0.174833,51.460848],"type":"Point"},"properties":{"osm_id":"4317239711","tag":{"amenity":"waste_basket"}},"type":"Feature"},
	{"geometry":{"coordinates":[-0.16983,51.466527],"type":"Point"},"properties":{"osm_id":"4320819428","tag":{"amenity":"recycling","operator":"Traid","recycling:textiles":"yes"}},"type":"Feature"},
	{"geometry":{"coordinates":[-0.093399,51.46636],"type":"Point"},"properties":{"osm_id":"4428722093","tag":{"amenity":"waste_basket"}},"type":"Feature"},
	{"geometry":{"coordinates":[-0.094206,51.464543],"type":"Point"},"properties":{"osm_id":"4428765170","tag":{"amenity":"waste_basket","waste":"dog_excrement"}},"type":"Feature"},
	{"geometry":{"coordinates":[-0.094221,51.464556],"type":"Point"},"properties":{"osm_id":"4428765180","tag":{"amenity":"waste_basket"}},"type":"Feature"},
	{"geometry":{"coordinates":[-0.092899,51.464504],"type":"Point"},"properties":{"osm_id":"4428765183","tag":{"amenity":"waste_basket","waste":"dog_excrement"}},"type":"Feature"},
	{"geometry":{"coordinates":[-0.092118,51.465785],"type":"Point"},"properties":{"osm_id":"4428789717","tag":{"amenity":"waste_basket"}},"type":"Feature"},
	{"geometry":{"coordinates":[-0.092944,51.466106],"type":"Point"},"properties":{"osm_id":"4428789719","tag":{"amenity":"waste_basket"}},"type":"Feature"},
	{"geometry":{"coordinates":[-0.09174,51.465819],"type":"Point"},"properties":{"osm_id":"4428799094","tag":{"amenity":"waste_basket"}},"type":"Feature"},
	{"geometry":{"coordinates":[-0.094103,51.463713],"type":"Point"},"properties":{"osm_id":"4428802687","tag":{"amenity":"waste_basket","waste":"dog_excrement"}},"type":"Feature"},
	{"geometry":{"coordinates":[-0.093926,51.463967],"type":"Point"},"properties":{"osm_id":"4428802688","tag":{"amenity":"waste_basket"}},"type":"Feature"},
	{"geometry":{"coordinates":[-0.096101,51.461304],"type":"Point"},"properties":{"osm_id":"4428891825","tag":{"amenity":"waste_basket"}},"type":"Feature"},
	{"geometry":{"coordinates":[-0.096023,51.461307],"type":"Point"},"properties":{"osm_id":"4428891826","tag":{"amenity":"waste_basket","waste":"dog_excrement"}},"type":"Feature"},
	{"geometry":{"coordinates":[-0.096731,51.463433],"type":"Point"},"properties":{"osm_id":"4428891829","tag":{"amenity":"waste_basket","waste":"dog_excrement"}},"type":"Feature"},
	{"geometry":{"coordinates":[-0.096677,51.463493],"type":"Point"},"properties":{"osm_id":"4428891830","tag":{"amenity":"waste_basket"}},"type":"Feature"},
	{"geometry":{"coordinates":[-0.096263,51.463776],"type":"Point"},"properties":{"osm_id":"4428891831","tag":{"amenity":"waste_basket","waste":"dog_excrement"}},"type":"Feature"},
	{"geometry":{"coordinates":[-0.097654,51.462811],"type":"Point"},"properties":{"osm_id":"4428891832","tag":{"amenity":"waste_basket"}},"type":"Feature"},
	{"geometry":{"coordinates":[-0.097665,51.462784],"type":"Point"},"properties":{"osm_id":"4428891834","tag":{"amenity":"waste_basket","waste":"dog_excrement"}},"type":"Feature"},
	{"geometry":{"coordinates":[-0.123313,51.459673],"type":"Point"},"properties":{"osm_id":"4573260445","tag":{"amenity":"waste_basket"}},"type":"Feature"},
	{"geometry":{"coordinates":[-0.096152,51.5023],"type":"Point"},"properties":{"osm_id":"4693557505","tag":{"amenity":"waste_basket"}},"type":"Feature"},
	{"geometry":{"coordinates":[-0.09583,51.502434],"type":"Point"},"properties":{"osm_id":"4693557506","tag":{"amenity":"waste_basket"}},"type":"Feature"},
	{"geometry":{"coordinates":[-0.096715,51.502194],"type":"Point"},"properties":{"osm_id":"4693557508","tag":{"amenity":"waste_basket"}},"type":"Feature"},
	{"geometry":{"coordinates":[-0.097322,51.502235],"type":"Point"},"properties":{"osm_id":"4693557864","tag":{"amenity":"waste_basket"}},"type":"Feature"},
	{"geometry":{"coordinates":[-0.135493,51.460294],"type":"Point"},"properties":{"osm_id":"4717389941","tag":{"amenity":"recycling","recycling:clothes":"yes","recycling:shoes":"yes","recycling_type":"container"}},"type":"Feature"},
	{"geometry":{"coordinates":[-0.103668,51.464367],"type":"Point"},"properties":{"osm_id":"4729920544","tag":{"amenity":"recycling","recycling:clothes":"yes","recycling_type":"container"}},"type":"Feature"},
	{"geometry":{"coordinates":[-0.137989,51.499101],"type":"Point"},"properties":{"osm_id":"4750746213","tag":{"amenity":"waste_basket"}},"type":"Feature"},
	{"geometry":{"coordinates":[-0.08838,51.454118],"type":"Point"},"properties":{"osm_id":"4818148925","tag":{"amenity":"recycling","recycling_type":"container"}},"type":"Feature"},
	{"geometry":{"coordinates":[-0.151715,51.490707],"type":"Point"},"properties":{"osm_id":"5188039124","tag":{"amenity":"waste_basket"}},"type":"Feature"},
	{"geometry":{"coordinates":[-0.128091,51.49387],"type":"Point"},"properties":{"osm_id":"5254179832","tag":{"amenity":"recycling","recycling_type":"container"}},"type":"Feature"},
	{"geometry":{"coordinates":[-0.16737,51.46389],"type":"Point"},"properties":{"osm_id":"5335951521","tag":{"amenity":"waste_basket"}},"type":"Feature"},
	{"geometry":{"coordinates":[-0.117651,51.504245],"type":"Point"},"properties":{"osm_id":"5358515822","tag":{"amenity":"waste_basket"}},"type":"Feature"},
	{"geometry":{"coordinates":[-0.105323,51.503566],"type":"Point"},"properties":{"osm_id":"5394405246","tag":{"amenity":"waste_basket"}},"type":"Feature"},
	{"geometry":{"coordinates":[-0.103403,51.454453],"type":"Point"},"properties":{"osm_id":"5434039037","tag":{"amenity":"recycling","recycling_type":"container"}},"type":"Feature"},
	{"geometry":{"coordinates":[-0.139634,51.496491],"type":"Point"},"properties":{"osm_id":"5564316121","tag":{"amenity":"waste_basket"}},"type":"Feature"},
	{"geometry":{"coordinates":[-0.125108,51.459553],"type":"Point"},"properties":{"osm_id":"5865227306","tag":{"amenity":"waste_basket"}},"type":"Feature"},
	{"geometry":{"coordinates":[-0.134444,51.50378],"type":"Point"},"properties":{"osm_id":"5969186742","tag":{"amenity":"waste_basket"}},"type":"Feature"},
	{"geometry":{"coordinates":[-0.100081,51.496457],"type":"Point"},"properties":{"osm_id":"6019344419","tag":{"amenity":"waste_basket"}},"type":"Feature"},
	{"geometry":{"coordinates":[-0.172578,51.46209],"type":"Point"},"properties":{"osm_id":"6019790568","tag":{"amenity":"waste_basket"}},"type":"Feature"},
	{"geometry":{"coordinates":[-0.123243,51.486553],"type":"Point"},"properties":{"osm_id":"6019793396","tag":{"amenity":"waste_basket","waste":"trash;cigarettes"}},"type":"Feature"},
	{"geometry":{"coordinates":[-0.163796,51.470443],"type":"Point"},"properties":{"osm_id":"6027741310","tag":{"amenity":"recycling","recycling_type":"centre"}},"type":"Feature"},
	{"geometry":{"coordinates":[-0.134462,51.501471],"type":"Point"},"properties":{"osm_id":"6209023193","tag":{"amenity":"waste_basket"}},"type":"Feature"},
	{"geometry":{"coordinates":[-0.134683,51.501586],"type":"Point"},"properties":{"osm_id":"6209023194","tag":{"amenity":"waste_basket"}},"type":"Feature"},
	{"geometry":{"coordinates":[-0.134981,51.501843],"type":"Point"},"properties":{"osm_id":"6209023195","tag":{"amenity":"waste_basket"}},"type":"Feature"},
	{"geometry":{"coordinates":[-0.134047,51.503164],"type":"Point"},"properties":{"osm_id":"6209023203","tag":{"amenity":"waste_basket"}},"type":"Feature"},
	{"geometry":{"coordinates":[-0.133217,51.503167],"type":"Point"},"properties":{"osm_id":"6209023204","tag":{"amenity":"waste_basket"}},"type":"Feature"},
	{"geometry":{"coordinates":[-0.131783,51.503663],"type":"Point"},"properties":{"osm_id":"6209023216","tag":{"amenity":"waste_basket"}},"type":"Feature"},
	{"geometry":{"coordinates":[-0.131329,51.504096],"type":"Point"},"properties":{"osm_id":"6209023228","tag":{"amenity":"waste_basket"}},"type":"Feature"},
	{"geometry":{"coordinates":[-0.104898,51.490872],"type":"Point"},"properties":{"osm_id":"6464111870","tag":{"amenity":"recycling","recycling_type":"container"}},"type":"Feature"},
	{"geometry":{"coordinates":[-0.109728,51.461083],"type":"Point"},"properties":{"osm_id":"6516263853","tag":{"amenity":"waste_basket"}},"type":"Feature"},
	{"geometry":{"coordinates":[-0.109548,51.461126],"type":"Point"},"properties":{"osm_id":"6516263855","tag":{"amenity":"waste_basket"}},"type":"Feature"},
	{"geometry":{"coordinates":[-0.106841,51.503232],"type":"Point"},"properties":{"osm_id":"6517637014","tag":{"amenity":"waste_basket"}},"type":"Feature"},
	{"geometry":{"coordinates":[-0.172233,51.498822],"type":"Point"},"properties":{"osm_id":"6556206704","tag":{"amenity":"recycling","recycling:clothes":"yes","recycling_type":"centre"}},"type":"Feature"},
	{"geometry":{"coordinates":[-0.109445,51.502499],"type":"Point"},"properties":{"name":"Simply Cups Coffee cup recycling","osm_id":"6633308802","tag":{"amenity":"recycling","operator":"simply cups"}},"type":"Feature"},
	{"geometry":{"coordinates":[-0.154647,51.47999],"type":"Point"},"properties":{"osm_id":"6746521548","tag":{"amenity":"waste_basket"}},"type":"Feature"},
	{"geometry":{"coordinates":[-0.153139,51.477119],"type":"Point"},"properties":{"osm_id":"6747258065","tag":{"amenity":"waste_basket"}},"type":"Feature"},
	{"geometry":{"coordinates":[-0.149718,51.478215],"type":"Point"},"properties":{"osm_id":"6747280896","tag":{"amenity":"waste_basket"}},"type":"Feature"},
	{"geometry":{"coordinates":[-0.150924,51.478663],"type":"Point"},"properties":{"osm_id":"6747288704","tag":{"amenity":"waste_basket"}},"type":"Feature"},
	{"geometry":{"coordinates":[-0.171626,51.493951],"type":"Point"},"properties":{"osm_id":"6752879700","tag":{"amenity":"recycling","recycling:cans":"yes","recycling:glass_bottles":"yes","recycling:paper":"yes","recycling:plastic":"no","recycling:plastic_packaging":"yes","recycling_type":"container"}},"type":"Feature"},
	{"geometry":{"coordinates":[-0.171217,51.500366],"type":"Point"},"properties":{"osm_id":"6772668490","tag":{"amenity":"waste_basket"}},"type":"Feature"},
	{"geometry":{"coordinates":[-0.169861,51.500562],"type":"Point"},"properties":{"osm_id":"6772668685","tag":{"amenity":"waste_basket"}},"type":"Feature"},
	{"geometry":{"coordinates":[-0.171265,51.505064],"type":"Point"},"properties":{"osm_id":"6774063502","tag":{"amenity":"waste_basket"}},"type":"Feature"},
	{"geometry":{"coordinates":[-0.134096,51.48904],"type":"Point"},"properties":{"osm_id":"6855377516","tag":{"amenity":"waste_disposal"}},"type":"Feature"},
	{"geometry":{"coordinates":[-0.134084,51.489049],"type":"Point"},"properties":{"osm_id":"6855377517","tag":{"amenity":"waste_disposal"}},"type":"Feature"},
	{"geometry":{"coordinates":[-0.134072,51.489056],"type":"Point"},"properties":{"osm_id":"6855377518","tag":{"amenity":"waste_disposal"}},"type":"Feature"},
	{"geometry":{"coordinates":[-0.153102,51.494553],"type":"Point"},"properties":{"osm_id":"6877543095","tag":{"amenity":"waste_basket"}},"type":"Feature"},
	{"geometry":{"coordinates":[-0.151203,51.496059],"type":"Point"},"properties":{"osm_id":"6877543098","tag":{"amenity":"waste_basket"}},"type":"Feature"},
	{"geometry":{"coordinates":[-0.151867,51.496123],"type":"Point"},"properties":{"osm_id":"6877543102","tag":{"amenity":"waste_basket"}},"type":"Feature"},
	{"geometry":{"coordinates":[-0.156642,51.492617],"type":"Point"},"properties":{"osm_id":"6877543105","tag":{"amenity":"waste_basket"}},"type":"Feature"},
	{"geometry":{"coordinates":[-0.152249,51.495653],"type":"Point"},"properties":{"osm_id":"6877543107","tag":{"amenity":"waste_basket"}},"type":"Feature"},
	{"geometry":{"coordinates":[-0.149724,51.497039],"type":"Point"},"properties":{"osm_id":"6877559419","tag":{"amenity":"waste_basket"}},"type":"Feature"},
	{"geometry":{"coordinates":[-0.151049,51.501349],"type":"Point"},"properties":{"osm_id":"6877583854","tag":{"amenity":"waste_basket"}},"type":"Feature"},
	{"geometry":{"coordinates":[-0.158546,51.503261],"type":"Point"},"properties":{"osm_id":"6920503407","tag":{"amenity":"waste_basket"}},"type":"Feature"},
	{"geometry":{"coordinates":[-0.111816,51.483494],"type":"Point"},"properties":{"osm_id":"7010954743","tag":{"amenity":"recycling","colour":"White","operator":"Chris Carey's Collections","recycling:curtains":"yes","recycling:fabric":"yes","recycling:shoes":"yes","recycling:textiles":"yes","recycling_type":"container"}},"type":"Feature"},
	{"geometry":{"coordinates":[-0.111857,51.491348],"type":"Point"},"properties":{"osm_id":"7010954744","tag":{"amenity":"recycling","colour":"Red","operator":"Chris Carey's Collections","recycling:shoes":"yes","recycling:textiles":"yes","recycling_type":"container"}},"type":"Feature"},
	{"geometry":{"coordinates":[-0.16759,51.4627],"type":"Point"},"properties":{"osm_id":"7160012639","tag":{"amenity":"waste_basket"}},"type":"Feature"},
	{"geometry":{"coordinates":[-0.126674,51.508015],"type":"Point"},"properties":{"osm_id":"7165063053","tag":{"amenity":"waste_basket"}},"type":"Feature"},
	{"geometry":{"coordinates":[-0.128072,51.489499],"type":"Point"},"properties":{"osm_id":"7165085609","tag":{"amenity":"waste_basket"}},"type":"Feature"},
	{"geometry":{"coordinates":[-0.134402,51.472627],"type":"Point"},"properties":{"osm_id":"7165098756","tag":{"amenity":"waste_basket"}},"type":"Feature"},
	{"geometry":{"coordinates":[-0.158918,51.497672],"type":"Point"},"properties":{"osm_id":"7261919595","tag":{"amenity":"waste_basket"}},"type":"Feature"},
	{"geometry":{"coordinates":[-0.170358,51.460242],"type":"Point"},"properties":{"osm_id":"7433708391","tag":{"amenity":"waste_basket"}},"type":"Feature"},
	{"geometry":{"coordinates":[-0.173676,51.459075],"type":"Point"},"properties":{"osm_id":"7433722491","tag":{"amenity":"recycling","recycling:clothes":"yes"}},"type":"Feature"},
	{"geometry":{"coordinates":[-0.154867,51.489791],"type":"Point"},"properties":{"osm_id":"7542376250","tag":{"amenity":"waste_basket","waste":"recycling;trash"}},"type":"Feature"},
	{"geometry":{"coordinates":[-0.17401,51.489414],"type":"Point"},"properties":{"osm_id":"7618040070","tag":{"amenity":"waste_basket","material":"metal","waste":"trash"}},"type":"Feature"},
	{"geometry":{"coordinates":[-0.174645,51.457744],"type":"Point"},"properties":{"osm_id":"7643651226","tag":{"amenity":"recycling","recycling:clothes":"yes","recycling:shoes":"yes"}},"type":"Feature"},
	{"geometry":{"coordinates":[-0.152429,51.458772],"type":"Point"},"properties":{"osm_id":"7696159166","tag":{"amenity":"waste_basket"}},"type":"Feature"},
	{"geometry":{"coordinates":[-0.153348,51.459027],"type":"Point"},"properties":{"osm_id":"7696162466","tag":{"amenity":"waste_basket"}},"type":"Feature"},
	{"geometry":{"coordinates":[-0.149716,51.458053],"type":"Point"},"properties":{"osm_id":"7696163141","tag":{"amenity":"waste_basket"}},"type":"Feature"},
	{"geometry":{"coordinates":[-0.156571,51.492318],"type":"Point"},"properties":{"osm_id":"7775672386","tag":{"amenity":"recycling","location":"overground","recycling:paper":"yes","recycling_type":"container"}},"type":"Feature"},
	{"geometry":{"coordinates":[-0.156631,51.50457],"type":"Point"},"properties":{"osm_id":"7891050280","tag":{"amenity":"waste_basket","waste":"trash"}},"type":"Feature"},
	{"geometry":{"coordinates":[-0.15619,51.507789],"type":"Point"},"properties":{"osm_id":"7891050282","tag":{"amenity":"waste_basket","waste":"trash"}},"type":"Feature"},
	{"geometry":{"coordinates":[-0.155666,51.508496],"type":"Point"},"properties":{"osm_id":"7891079789","tag":{"amenity":"waste_basket","waste":"dog_excrement"}},"type":"Feature"},
	{"geometry":{"coordinates":[-0.155116,51.506469],"type":"Point"},"properties":{"osm_id":"7891079792","tag":{"amenity":"waste_basket","waste":"trash"}},"type":"Feature"},
	{"geometry":{"coordinates":[-0.111455,51.501358],"type":"Point"},"properties":{"osm_id":"7916138784","tag":{"amenity":"waste_basket","waste":"trash"}},"type":"Feature"}
]
}
