{
"type": "FeatureCollection",
"features": [
	{"geometry":{"coordinates":[-0.169136,51.243154],"type":"Point"},"properties":{"osm_id":"29431617","tag":{"amenity":"recycling","location":"overground","recycling_type":"container"}},"type":"Feature"},
	{"geometry":{"coordinates":[-0.094893,51.287606],"type":"Point"},"properties":{"osm_id":"324524865","tag":{"amenity":"recycling","recycling:paper":"yes"}},"type":"Feature"},
	{"geometry":{"coordinates":[-0.163972,51.240133],"type":"Point"},"properties":{"osm_id":"344506679","tag":{"amenity":"recycling","recycling:cans":"yes","recycling:glass":"yes","recycling:paper":"yes"}},"type":"Feature"},
	{"geometry":{"coordinates":[-0.150261,51.263934],"type":"Point"},"properties":{"osm_id":"471318368","tag":{"amenity":"recycling"}},"type":"Feature"},
	{"geometry":{"coordinates":[-0.144603,51.260527],"type":"Point"},"properties":{"osm_id":"471318649","tag":{"amenity":"recycling","recycling_type":"container"}},"type":"Feature"},
	{"geometry":{"coordinates":[-0.105074,51.240426],"type":"Point"},"properties":{"osm_id":"1217681217","tag":{"amenity":"waste_basket"}},"type":"Feature"},
	{"geometry":{"coordinates":[-0.166748,51.240491],"type":"Point"},"properties":{"osm_id":"1223346079","tag":{"amenity":"recycling","recycling:cans":"yes","recycling:paper":"yes","recycling:plastic_bottles":"yes"}},"type":"Feature"},
	{"geometry":{"coordinates":[-0.164869,51.23916],"type":"Point"},"properties":{"osm_id":"1223369195","tag":{"amenity":"waste_basket"}},"type":"Feature"},
	{"geometry":{"coordinates":[-0.166494,51.240742],"type":"Point"},"properties":{"osm_id":"1518724805","tag":{"amenity":"waste_basket"}},"type":"Feature"},
	{"geometry":{"coordinates":[-0.148029,51.260599],"type":"Point"},"properties":{"osm_id":"1518724826","tag":{"amenity":"waste_basket","waste":"trash"}},"type":"Feature"},
	{"geometry":{"coordinates":[-0.146645,51.264033],"type":"Point"},"properties":{"osm_id":"1518724848","tag":{"amenity":"waste_basket","waste":"trash"}},"type":"Feature"},
	{"geometry":{"coordinates":[-0.170481,51.274255],"type":"Point"},"properties":{"osm_id":"1815628124","tag":{"amenity":"recycling"}},"type":"Feature"},
	{"geometry":{"coordinates":[-0.145637,51.254489],"type":"Point"},"properties":{"osm_id":"1968231905","tag":{"amenity":"waste_basket"}},"type":"Feature"},
	{"geometry":{"coordinates":[-0.108636,51.240816],"type":"Point"},"properties":{"osm_id":"2058957407","tag":{"amenity":"waste_basket"}},"type":"Feature"},
	{"geometry":{"coordinates":[-0.140653,51.262668],"type":"Point"},"properties":{"osm_id":"3863808260","tag":{"amenity":"waste_basket"}},"type":"Feature"},
	{"geometry":{"coordinates":[-0.090083,51.288566],"type":"Point"},"properties":{"osm_id":"4106613688","tag":{"amenity":"recycling","location":"overground","recycling_type":"container"}},"type":"Feature"},
	{"geometry":{"coordinates":[-0.14782,51.258508],"type":"Point"},"properties":{"osm_id":"5424548006","tag":{"amenity":"waste_basket"}},"type":"Feature"},
	{"geometry":{"coordinates":[-0.173582,51.261966],"type":"Point"},"properties":{"osm_id":"5823423826","tag":{"amenity":"waste_basket"}},"type":"Feature"},
	{"geometry":{"coordinates":[-0.124181,51.285006],"type":"Point"},"properties":{"osm_id":"6071608947","tag":{"amenity":"waste_basket"}},"type":"Feature"},
	{"geometry":{"coordinates":[-0.154157,51.248538],"type":"Point"},"properties":{"osm_id":"7017932488","tag":{"amenity":"waste_basket","waste":"dog_excrement","wheelchair":"yes","wheelchair:description":"on grass beside level compacted path"}},"type":"Feature"},
	{"geometry":{"coordinates":[-0.152032,51.249571],"type":"Point"},"properties":{"osm_id":"7017932490","tag":{"amenity":"waste_basket","waste":"dog_excrement","wheelchair":"yes","wheelchair:description":"on grass beside level compacted path"}},"type":"Feature"},
	{"geometry":{"coordinates":[-0.166543,51.242545],"type":"Point"},"properties":{"osm_id":"7027053698","tag":{"amenity":"waste_basket"}},"type":"Feature"},
	{"geometry":{"coordinates":[-0.167196,51.243739],"type":"Point"},"properties":{"osm_id":"7027053759","tag":{"amenity":"waste_basket"}},"type":"Feature"},
	{"geometry":{"coordinates":[-0.166909,51.244199],"type":"Point"},"properties":{"osm_id":"7027053769","tag":{"amenity":"waste_basket"}},"type":"Feature"},
	{"geometry":{"coordinates":[-0.167096,51.244068],"type":"Point"},"properties":{"osm_id":"7027053770","tag":{"amenity":"waste_basket"}},"type":"Feature"},
	{"geometry":{"coordinates":[-0.165655,51.243383],"type":"Point"},"properties":{"osm_id":"7027071816","tag":{"amenity":"waste_basket"}},"type":"Feature"},
	{"geometry":{"coordinates":[-0.165507,51.24373],"type":"Point"},"properties":{"osm_id":"7027071819","tag":{"amenity":"waste_basket"}},"type":"Feature"},
	{"geometry":{"coordinates":[-0.165786,51.244309],"type":"Point"},"properties":{"osm_id":"7027071821","tag":{"amenity":"waste_basket"}},"type":"Feature"},
	{"geometry":{"coordinates":[-0.141009,51.287743],"type":"Point"},"properties":{"osm_id":"8872042516","tag":{"amenity":"waste_basket"}},"type":"Feature"},
	{"geometry":{"coordinates":[-0.140079,51.288165],"type":"Point"},"properties":{"osm_id":"8872050717","tag":{"amenity":"waste_basket","waste":"dog_excrement"}},"type":"Feature"},
	{"geometry":{"coordinates":[-0.125869,51.241702],"type":"Point"},"properties":{"osm_id":"8900985696","tag":{"amenity":"waste_basket","waste":"dog_excrement"}},"type":"Feature"},
	{"geometry":{"coordinates":[-0.092801,51.238454],"type":"Point"},"properties":{"osm_id":"8941912089","tag":{"amenity":"waste_basket","waste":"trash"}},"type":"Feature"},
	{"geometry":{"coordinates":[-0.09595,51.243421],"type":"Point"},"properties":{"osm_id":"8960997362","tag":{"amenity":"waste_basket"}},"type":"Feature"},
	{"geometry":{"coordinates":[-0.100124,51.236823],"type":"Point"},"properties":{"osm_id":"8979425750","tag":{"amenity":"waste_basket","waste":"dog_excrement"}},"type":"Feature"},
	{"geometry":{"coordinates":[-0.175591,51.262255],"type":"Point"},"properties":{"osm_id":"9033040618","tag":{"amenity":"waste_basket","waste":"trash"}},"type":"Feature"},
	{"geometry":{"coordinates":[-0.141581,51.289147],"type":"Point"},"properties":{"osm_id":"9076198074","tag":{"amenity":"waste_basket","waste":"dog_excrement"}},"type":"Feature"},
	{"geometry":{"coordinates":[-0.142531,51.289041],"type":"Point"},"properties":{"osm_id":"9076198075","tag":{"amenity":"waste_basket","waste":"trash"}},"type":"Feature"},
	{"geometry":{"coordinates":[-0.146648,51.264135],"type":"Point"},"properties":{"osm_id":"9076198076","tag":{"amenity":"waste_basket","waste":"dog_excrement"}},"type":"Feature"},
	{"geometry":{"coordinates":[-0.14804,51.260654],"type":"Point"},"properties":{"osm_id":"9076198077","tag":{"amenity":"waste_basket","waste":"dog_excrement"}},"type":"Feature"},
	{"geometry":{"coordinates":[-0.147564,51.259393],"type":"Point"},"properties":{"osm_id":"9076198078","tag":{"amenity":"waste_basket","waste":"trash"}},"type":"Feature"},
	{"geometry":{"coordinates":[-0.146974,51.257309],"type":"Point"},"properties":{"osm_id":"9076198079","tag":{"amenity":"waste_basket","waste":"dog_excrement"}},"type":"Feature"},
	{"geometry":{"coordinates":[-0.146949,51.257256],"type":"Point"},"properties":{"osm_id":"9076198080","tag":{"amenity":"waste_basket","waste":"trash"}},"type":"Feature"},
	{"geometry":{"coordinates":[-0.146119,51.255602],"type":"Point"},"properties":{"osm_id":"9076198081","tag":{"amenity":"waste_basket","waste":"trash"}},"type":"Feature"},
	{"geometry":{"coordinates":[-0.146143,51.255655],"type":"Point"},"properties":{"osm_id":"9076198082","tag":{"amenity":"waste_basket","waste":"dog_excrement"}},"type":"Feature"},
	{"geometry":{"coordinates":[-0.14774,51.249734],"type":"Point"},"properties":{"osm_id":"9076198083","tag":{"amenity":"waste_basket","waste":"dog_excrement"}},"type":"Feature"},
	{"geometry":{"coordinates":[-0.147725,51.249734],"type":"Point"},"properties":{"osm_id":"9076198084","tag":{"amenity":"waste_basket","waste":"trash"}},"type":"Feature"}
]
}
