{
"type": "FeatureCollection",
"features": [
	{"geometry":{"coordinates":[-0.173343,51.219392],"type":"Point"},"properties":{"osm_id":"29431616","tag":{"amenity":"recycling","recycling:scrap_metal":"yes","website":"https://www.surreywaste.info/"}},"type":"Feature"},
	{"geometry":{"coordinates":[-0.172526,51.219393],"type":"Point"},"properties":{"osm_id":"32120879","tag":{"addr:city":"Earlswood, Redhill","addr:postcode":"RH1 6PN","addr:street":"Horley Road","amenity":"recycling","opening_hours":"Mo,Tu,We,Th,Fr 08:00-16:00; Sa,Su 09:00-16:00; Jan 01 off; Dec 25 off; Dec 26 off","phone":"+44 1737 780372","recycling:batteries":"yes","recycling:cans":"yes","recycling:clothes":"yes","recycling:glass":"yes","recycling:paper":"yes","recycling_type":"centre","website":"https://www.surreywaste.info/"}},"type":"Feature"},
	{"geometry":{"coordinates":[-0.165566,51.231126],"type":"Point"},"properties":{"osm_id":"1204172220","tag":{"amenity":"waste_basket"}},"type":"Feature"},
	{"geometry":{"coordinates":[-0.169532,51.233623],"type":"Point"},"properties":{"osm_id":"1516324434","tag":{"amenity":"waste_basket"}},"type":"Feature"},
	{"geometry":{"coordinates":[-0.165832,51.218119],"type":"Point"},"properties":{"osm_id":"1521479597","tag":{"amenity":"waste_basket"}},"type":"Feature"},
	{"geometry":{"coordinates":[-0.169458,51.210961],"type":"Point"},"properties":{"osm_id":"2390514674","tag":{"amenity":"waste_basket"}},"type":"Feature"},
	{"geometry":{"coordinates":[-0.16716,51.202996],"type":"Point"},"properties":{"osm_id":"2639779351","tag":{"amenity":"waste_basket"}},"type":"Feature"},
	{"geometry":{"coordinates":[-0.167279,51.203183],"type":"Point"},"properties":{"osm_id":"2639779360","tag":{"amenity":"waste_basket"}},"type":"Feature"},
	{"geometry":{"coordinates":[-0.167231,51.203207],"type":"Point"},"properties":{"osm_id":"2639779361","tag":{"amenity":"waste_basket"}},"type":"Feature"},
	{"geometry":{"coordinates":[-0.167272,51.203311],"type":"Point"},"properties":{"osm_id":"2639779386","tag":{"amenity":"waste_basket"}},"type":"Feature"},
	{"geometry":{"coordinates":[-0.167372,51.203526],"type":"Point"},"properties":{"osm_id":"2639779396","tag":{"amenity":"waste_basket"}},"type":"Feature"},
	{"geometry":{"coordinates":[-0.167043,51.203653],"type":"Point"},"properties":{"osm_id":"2639806512","tag":{"amenity":"waste_basket"}},"type":"Feature"},
	{"geometry":{"coordinates":[-0.170365,51.214201],"type":"Point"},"properties":{"osm_id":"3005235887","tag":{"amenity":"waste_basket"}},"type":"Feature"},
	{"geometry":{"coordinates":[-0.16486,51.218772],"type":"Point"},"properties":{"osm_id":"4734326997","tag":{"amenity":"waste_basket"}},"type":"Feature"},
	{"geometry":{"coordinates":[-0.161512,51.21682],"type":"Point"},"properties":{"osm_id":"4734327012","tag":{"amenity":"waste_basket"}},"type":"Feature"},
	{"geometry":{"coordinates":[-0.170942,51.186834],"type":"Point"},"properties":{"osm_id":"4815983058","tag":{"amenity":"waste_basket"}},"type":"Feature"},
	{"geometry":{"coordinates":[-0.163473,51.203602],"type":"Point"},"properties":{"osm_id":"6982432652","tag":{"amenity":"waste_basket"}},"type":"Feature"}
]
}
