{
"type": "FeatureCollection",
"lastupdate": "2020-07-31T00:00:00Z",
"features": [
	{"geometry":{"coordinates":[-0.129062,48.7447],"type":"Point"},"properties":{"osm_id":"798178174","tag":{"amenity":"recycling"}},"type":"Feature"},
	{"geometry":{"coordinates":[-0.126266,48.718741],"type":"Point"},"properties":{"osm_id":"6893449490","tag":{"amenity":"waste_basket"}},"type":"Feature"},
	{"geometry":{"coordinates":[-0.120884,48.715478],"type":"Point"},"properties":{"osm_id":"6895234082","tag":{"amenity":"recycling","recycling:clothes":"yes","recycling_type":"container"}},"type":"Feature"},
	{"geometry":{"coordinates":[-0.120332,48.715962],"type":"Point"},"properties":{"osm_id":"6895262416","tag":{"amenity":"recycling","recycling:glass":"yes","recycling_type":"container"}},"type":"Feature"},
	{"geometry":{"coordinates":[-0.120332,48.715946],"type":"Point"},"properties":{"osm_id":"6895262417","tag":{"amenity":"recycling","recycling:paper":"yes","recycling_type":"container"}},"type":"Feature"},
	{"geometry":{"coordinates":[-0.126649,48.707469],"type":"Point"},"properties":{"name":"D\u00c3\u00a9ch\u00c3\u00a8terie\u00c2\u00a0de\u00c2\u00a0\u00c3\u00a9couch\u00c3\u00a9","osm_id":"6960408954","tag":{"amenity":"recycling","operator":"Sitcom\u00a0R\u00e9gion\u00a0d'Argentan","phone":"+33 2 33 12 69 52","recycling_type":"centre","ref:FR:SINOE":"61500","start_date":"2006-10-01"}},"type":"Feature"},
	{"geometry":{"coordinates":[-0.12801,48.71505],"type":"Point"},"properties":{"osm_id":"7574762378","tag":{"amenity":"recycling","recycling_type":"container"}},"type":"Feature"},
	{"geometry":{"coordinates":[-0.12842,48.715324],"type":"Point"},"properties":{"osm_id":"7574820580","tag":{"amenity":"waste_basket"}},"type":"Feature"}
]
}
