{
"type": "FeatureCollection",
"lastupdate": "2020-08-01T00:00:00Z",
"features": [
	{"geometry":{"coordinates":[-0.112785,48.071712],"type":"Point"},"properties":{"osm_id":"5449077395","tag":{"amenity":"waste_basket"}},"type":"Feature"},
	{"geometry":{"coordinates":[-0.114713,48.071646],"type":"Point"},"properties":{"osm_id":"5449149534","tag":{"amenity":"waste_basket"}},"type":"Feature"},
	{"geometry":{"coordinates":[-0.117602,48.072789],"type":"Point"},"properties":{"osm_id":"6260653411","tag":{"addr:city":"Saint-Symphorien","addr:postcode":"72240","amenity":"recycling","recycling_type":"container"}},"type":"Feature"},
	{"geometry":{"coordinates":[-0.115011,48.070167],"type":"Point"},"properties":{"osm_id":"6260653412","tag":{"addr:city":"Saint-Symphorien","addr:postcode":"72240","amenity":"recycling","recycling_type":"container"}},"type":"Feature"},
	{"geometry":{"coordinates":[-0.108896,48.070556],"type":"Point"},"properties":{"osm_id":"6260653413","tag":{"addr:city":"Saint-Symphorien","addr:postcode":"72240","amenity":"recycling","recycling_type":"container"}},"type":"Feature"}
]
}
