{
"type": "FeatureCollection",
"features": [
	{"geometry":{"coordinates":[-0.155524,45.472755],"type":"Point"},"properties":{"osm_id":"7787915760","tag":{"amenity":"waste_basket"}},"type":"Feature"},
	{"geometry":{"coordinates":[-0.155335,45.472865],"type":"Point"},"properties":{"osm_id":"7787915773","tag":{"amenity":"waste_basket"}},"type":"Feature"},
	{"geometry":{"coordinates":[-0.158718,45.470351],"type":"Point"},"properties":{"osm_id":"7875629622","tag":{"amenity":"recycling","brand":"Calitom","description":"Compostage collectif - Stockage de broyat : Merci de ne rien mettre dans ce bac","recycling:garden_waste":"yes","recycling_type":"container","website":"https://calitom.carte-interactive.net/#/p-35949/site-de-compostage-du-champ-de-foire"}},"type":"Feature"},
	{"geometry":{"coordinates":[-0.1587,45.470352],"type":"Point"},"properties":{"osm_id":"7875629623","tag":{"amenity":"recycling","brand":"Calitom","description":"Compostage collectif - Bac \u00e0 compost : D\u00e9versez vos d\u00e9chets d'origine v\u00e9g\u00e9tale (broyat ou autres mati\u00e8res s\u00e8ches pour \u00e9quilibrer le m\u00e9lange carbone/azote)","recycling:garden_waste":"yes","recycling_type":"container","website":"https://calitom.carte-interactive.net/#/p-35949/site-de-compostage-du-champ-de-foire"}},"type":"Feature"},
	{"geometry":{"coordinates":[-0.158682,45.470352],"type":"Point"},"properties":{"osm_id":"7875629624","tag":{"amenity":"recycling","brand":"Calitom","description":"Compostage collectif - Bac de maturation : Compost en cours de maturation, merci de ne rien ajouter dans ce composteur","recycling:garden_waste":"yes","recycling_type":"container","website":"https://calitom.carte-interactive.net/#/p-35949/site-de-compostage-du-champ-de-foire"}},"type":"Feature"},
	{"geometry":{"coordinates":[-0.158666,45.470353],"type":"Point"},"properties":{"osm_id":"7875629625","tag":{"amenity":"recycling","brand":"Calitom","description":"Compostage collectif - Bac de maturation : Compost en cours de maturation, merci de ne rien ajouter dans ce composteur","recycling:garden_waste":"yes","recycling_type":"container","website":"https://calitom.carte-interactive.net/#/p-35949/site-de-compostage-du-champ-de-foire"}},"type":"Feature"},
	{"geometry":{"coordinates":[-0.15882,45.470374],"type":"Point"},"properties":{"osm_id":"7876431127","tag":{"amenity":"recycling","brand":"Le Relais","charity":"yes","recycling:clothes":"yes","recycling:shoes":"yes","recycling_type":"container","website":"https://www.lerelais.org/"}},"type":"Feature"}
]
}
