{
"type": "FeatureCollection",
"lastupdate": "2020-08-01T00:00:00Z",
"features": [
	{"geometry":{"coordinates":[-0.145442,44.590259],"type":"Point"},"properties":{"osm_id":"2332842509","tag":{"amenity":"recycling","recycling:glass":"yes","recycling:paper":"yes"}},"type":"Feature"},
	{"geometry":{"coordinates":[-0.11113,44.585834],"type":"Point"},"properties":{"osm_id":"5126517724","tag":{"amenity":"recycling","recycling_type":"container"}},"type":"Feature"},
	{"geometry":{"coordinates":[-0.153214,44.558893],"type":"Point"},"properties":{"osm_id":"5204946552","tag":{"amenity":"recycling","recycling:cans":"yes","recycling:cartons":"yes","recycling:glass_bottles":"yes","recycling:paper":"yes","recycling:plastic_bottles":"yes","recycling_type":"container","website":"http://sictomsudgironde.fr/"}},"type":"Feature"},
	{"geometry":{"coordinates":[-0.169977,44.555269],"type":"Point"},"properties":{"osm_id":"6289914164","tag":{"amenity":"recycling","recycling:cans":"yes","recycling:cartons":"yes","recycling:glass_bottles":"yes","recycling:paper":"yes","recycling:plastic_bottles":"yes","recycling_type":"container","website":"http://sictomsudgironde.fr/"}},"type":"Feature"},
	{"geometry":{"coordinates":[-0.107718,44.572088],"type":"Point"},"properties":{"osm_id":"6759812083","tag":{"amenity":"recycling","recycling:clothes":"yes","recycling:shoes":"yes","recycling_type":"container","website":"http://www.lerelais.org/"}},"type":"Feature"},
	{"geometry":{"coordinates":[-0.107704,44.572126],"type":"Point"},"properties":{"osm_id":"6759812084","tag":{"amenity":"recycling","recycling:cans":"yes","recycling:cartons":"yes","recycling:glass_bottles":"yes","recycling:paper":"yes","recycling:plastic_bottles":"yes","recycling_type":"container","website":"http://sictomsudgironde.fr/"}},"type":"Feature"},
	{"geometry":{"coordinates":[-0.115458,44.551812],"type":"Point"},"properties":{"osm_id":"7554200637","tag":{"amenity":"recycling","recycling:cans":"yes","recycling:cartons":"yes","recycling:glass_bottles":"yes","recycling:paper":"yes","recycling:plastic_bottles":"yes","recycling_type":"container","website":"http://sictomsudgironde.fr/"}},"type":"Feature"}
]
}
