{
"type": "FeatureCollection",
"features": [
	{"geometry":{"coordinates":[-0.147105,44.495857],"type":"Point"},"properties":{"osm_id":"8042610199","tag":{"amenity":"waste_basket","waste":"trash"}},"type":"Feature"},
	{"geometry":{"coordinates":[-0.152808,44.498917],"type":"Point"},"properties":{"osm_id":"8441464437","tag":{"amenity":"recycling","recycling:cans":"yes","recycling:cartons":"yes","recycling:glass_bottles":"yes","recycling:paper":"yes","recycling:plastic_bottles":"yes","recycling_type":"container","website":"http://sictomsudgironde.fr/"}},"type":"Feature"},
	{"geometry":{"coordinates":[-0.109703,44.523402],"type":"Point"},"properties":{"osm_id":"8589922817","tag":{"amenity":"waste_basket","waste":"trash"}},"type":"Feature"},
	{"geometry":{"coordinates":[-0.109476,44.523567],"type":"Point"},"properties":{"osm_id":"8589922818","tag":{"amenity":"waste_basket","waste":"trash"}},"type":"Feature"},
	{"geometry":{"coordinates":[-0.10932,44.523418],"type":"Point"},"properties":{"osm_id":"8589922819","tag":{"amenity":"waste_basket","waste":"trash"}},"type":"Feature"}
]
}
