{
"type": "FeatureCollection",
"lastupdate": "2020-08-06T00:00:00Z",
"features": [
	{"geometry":{"coordinates":[-0.101932,38.780718],"type":"Point"},"properties":{"osm_id":"571161423","tag":{"amenity":"recycling","mapillary":"bVq7eD4gYwqnnP0J_HDWXA","recycling:cans":"yes","recycling:glass":"yes","recycling:paper":"yes","recycling_type":"container","survey:date":"2018-09-22"}},"type":"Feature"},
	{"geometry":{"coordinates":[-0.160718,38.805351],"type":"Point"},"properties":{"osm_id":"2057391976","tag":{"amenity":"recycling"}},"type":"Feature"},
	{"geometry":{"coordinates":[-0.128141,38.773435],"type":"Point"},"properties":{"osm_id":"2149046160","tag":{"amenity":"recycling"}},"type":"Feature"},
	{"geometry":{"coordinates":[-0.109513,38.754676],"type":"Point"},"properties":{"osm_id":"3747369491","tag":{"amenity":"waste_basket"}},"type":"Feature"},
	{"geometry":{"coordinates":[-0.110082,38.754628],"type":"Point"},"properties":{"osm_id":"3747369492","tag":{"amenity":"waste_basket"}},"type":"Feature"},
	{"geometry":{"coordinates":[-0.108721,38.755323],"type":"Point"},"properties":{"osm_id":"3747369493","tag":{"amenity":"waste_basket"}},"type":"Feature"},
	{"geometry":{"coordinates":[-0.108684,38.754803],"type":"Point"},"properties":{"osm_id":"3747369494","tag":{"amenity":"waste_basket"}},"type":"Feature"},
	{"geometry":{"coordinates":[-0.107456,38.755649],"type":"Point"},"properties":{"osm_id":"3747435452","tag":{"amenity":"waste_basket"}},"type":"Feature"},
	{"geometry":{"coordinates":[-0.107021,38.755868],"type":"Point"},"properties":{"osm_id":"3747435453","tag":{"amenity":"waste_basket"}},"type":"Feature"},
	{"geometry":{"coordinates":[-0.107458,38.755712],"type":"Point"},"properties":{"osm_id":"3747435454","tag":{"amenity":"waste_basket"}},"type":"Feature"},
	{"geometry":{"coordinates":[-0.10803,38.75536],"type":"Point"},"properties":{"osm_id":"3747435456","tag":{"amenity":"waste_basket"}},"type":"Feature"},
	{"geometry":{"coordinates":[-0.108062,38.75559],"type":"Point"},"properties":{"osm_id":"3747435457","tag":{"amenity":"waste_basket"}},"type":"Feature"},
	{"geometry":{"coordinates":[-0.110473,38.755647],"type":"Point"},"properties":{"osm_id":"3747460820","tag":{"amenity":"waste_basket"}},"type":"Feature"},
	{"geometry":{"coordinates":[-0.11036,38.755729],"type":"Point"},"properties":{"osm_id":"3747460824","tag":{"amenity":"waste_basket"}},"type":"Feature"},
	{"geometry":{"coordinates":[-0.109677,38.755174],"type":"Point"},"properties":{"osm_id":"3747461025","tag":{"amenity":"waste_basket"}},"type":"Feature"},
	{"geometry":{"coordinates":[-0.109838,38.755329],"type":"Point"},"properties":{"osm_id":"3747461026","tag":{"amenity":"waste_basket"}},"type":"Feature"},
	{"geometry":{"coordinates":[-0.110382,38.756082],"type":"Point"},"properties":{"osm_id":"3747461028","tag":{"amenity":"waste_basket"}},"type":"Feature"},
	{"geometry":{"coordinates":[-0.11021,38.755908],"type":"Point"},"properties":{"osm_id":"3747461029","tag":{"amenity":"waste_basket"}},"type":"Feature"},
	{"geometry":{"coordinates":[-0.110241,38.755545],"type":"Point"},"properties":{"osm_id":"3747461030","tag":{"amenity":"waste_basket"}},"type":"Feature"},
	{"geometry":{"coordinates":[-0.10987,38.755567],"type":"Point"},"properties":{"osm_id":"3747461031","tag":{"amenity":"waste_basket"}},"type":"Feature"},
	{"geometry":{"coordinates":[-0.110414,38.755471],"type":"Point"},"properties":{"osm_id":"3747461032","tag":{"amenity":"waste_basket"}},"type":"Feature"},
	{"geometry":{"coordinates":[-0.111232,38.754498],"type":"Point"},"properties":{"osm_id":"3747469332","tag":{"amenity":"waste_basket"}},"type":"Feature"},
	{"geometry":{"coordinates":[-0.106566,38.755928],"type":"Point"},"properties":{"osm_id":"3747979270","tag":{"amenity":"recycling","recycling:glass_bottles":"yes","recycling:paper":"yes","recycling:plastic_bottles":"yes","recycling_type":"container"}},"type":"Feature"},
	{"geometry":{"coordinates":[-0.101999,38.780668],"type":"Point"},"properties":{"osm_id":"6360604618","tag":{"amenity":"recycling","recycling_type":"container"}},"type":"Feature"}
]
}
