{
"type": "FeatureCollection",
"features": [
	{"geometry":{"coordinates":[-0.160206,38.531604],"type":"Point"},"properties":{"osm_id":"975350685","tag":{"amenity":"recycling","recycling_type":"container"}},"type":"Feature"},
	{"geometry":{"coordinates":[-0.108779,38.540772],"type":"Point"},"properties":{"osm_id":"2012649768","tag":{"amenity":"recycling","recycling_type":"container"}},"type":"Feature"},
	{"geometry":{"coordinates":[-0.124621,38.541719],"type":"Point"},"properties":{"osm_id":"2187036504","tag":{"amenity":"recycling","recycling:glass_bottles":"yes","recycling:paper":"yes","recycling_type":"container"}},"type":"Feature"},
	{"geometry":{"coordinates":[-0.10552,38.535257],"type":"Point"},"properties":{"osm_id":"3714825245","tag":{"addr:city":"Benidorm","amenity":"recycling","recycling:cans":"yes","recycling:glass_bottles":"yes","recycling:paper":"yes","recycling_type":"container"}},"type":"Feature"},
	{"geometry":{"coordinates":[-0.10857,38.536298],"type":"Point"},"properties":{"osm_id":"3714825279","tag":{"amenity":"recycling","recycling:cans":"yes","recycling:glass_bottles":"yes","recycling:paper":"yes","recycling_type":"container"}},"type":"Feature"},
	{"geometry":{"coordinates":[-0.1683,38.525244],"type":"Point"},"properties":{"osm_id":"5030499742","tag":{"amenity":"recycling","recycling:glass":"yes","recycling_type":"container"}},"type":"Feature"},
	{"geometry":{"coordinates":[-0.112876,38.534948],"type":"Point"},"properties":{"osm_id":"5874107872","tag":{"amenity":"waste_disposal"}},"type":"Feature"},
	{"geometry":{"coordinates":[-0.110453,38.534466],"type":"Point"},"properties":{"osm_id":"5874126247","tag":{"amenity":"waste_basket"}},"type":"Feature"},
	{"geometry":{"coordinates":[-0.113104,38.535919],"type":"Point"},"properties":{"osm_id":"5874127916","tag":{"amenity":"waste_disposal"}},"type":"Feature"},
	{"geometry":{"coordinates":[-0.113203,38.534937],"type":"Point"},"properties":{"osm_id":"5874128101","tag":{"amenity":"waste_basket"}},"type":"Feature"},
	{"geometry":{"coordinates":[-0.103872,38.533838],"type":"Point"},"properties":{"osm_id":"8736427399","tag":{"addr:city":"Benidorm","amenity":"recycling","recycling:glass_bottles":"yes","recycling:paper":"yes","recycling:pmd":"yes","recycling_type":"container"}},"type":"Feature"},
	{"geometry":{"coordinates":[-0.10526,38.534023],"type":"Point"},"properties":{"osm_id":"8736427400","tag":{"addr:city":"Benidorm","amenity":"recycling","recycling:glass_bottles":"yes","recycling_type":"container"}},"type":"Feature"},
	{"geometry":{"coordinates":[-0.105812,38.534175],"type":"Point"},"properties":{"osm_id":"8736427401","tag":{"addr:city":"Benidorm","amenity":"recycling","recycling:glass_bottles":"yes","recycling_type":"container"}},"type":"Feature"},
	{"geometry":{"coordinates":[-0.10721,38.5342],"type":"Point"},"properties":{"osm_id":"8736427402","tag":{"addr:city":"Benidorm","amenity":"recycling","recycling:glass_bottles":"yes","recycling:paper":"yes","recycling:pmd":"yes","recycling_type":"container"}},"type":"Feature"},
	{"geometry":{"coordinates":[-0.108685,38.535047],"type":"Point"},"properties":{"osm_id":"8736427403","tag":{"addr:city":"Benidorm","amenity":"recycling","recycling:glass_bottles":"yes","recycling_type":"container"}},"type":"Feature"},
	{"geometry":{"coordinates":[-0.109257,38.535518],"type":"Point"},"properties":{"osm_id":"8736427404","tag":{"addr:city":"Benidorm","amenity":"recycling","recycling:clothes":"yes","recycling:glass_bottles":"yes","recycling:paper":"yes","recycling:pmd":"yes","recycling_type":"container"}},"type":"Feature"},
	{"geometry":{"coordinates":[-0.109357,38.535312],"type":"Point"},"properties":{"osm_id":"8736427405","tag":{"addr:city":"Benidorm","amenity":"recycling","recycling:glass_bottles":"yes","recycling_type":"container"}},"type":"Feature"},
	{"geometry":{"coordinates":[-0.113146,38.535765],"type":"Point"},"properties":{"osm_id":"8736427411","tag":{"addr:city":"Benidorm","amenity":"recycling","recycling_type":"container"}},"type":"Feature"},
	{"geometry":{"coordinates":[-0.114566,38.536111],"type":"Point"},"properties":{"osm_id":"8736528284","tag":{"addr:city":"Benidorm","amenity":"recycling","recycling:glass_bottles":"yes","recycling_type":"container"}},"type":"Feature"},
	{"geometry":{"coordinates":[-0.116162,38.535912],"type":"Point"},"properties":{"osm_id":"8736528288","tag":{"addr:city":"Benidorm","amenity":"recycling","recycling:glass_bottles":"yes","recycling:paper":"yes","recycling:pmd":"yes","recycling_type":"container"}},"type":"Feature"},
	{"geometry":{"coordinates":[-0.11754,38.536287],"type":"Point"},"properties":{"osm_id":"8736528289","tag":{"addr:city":"Benidorm","amenity":"recycling","recycling:glass_bottles":"yes","recycling:paper":"yes","recycling:pmd":"yes","recycling_type":"container"}},"type":"Feature"},
	{"geometry":{"coordinates":[-0.107765,38.533213],"type":"Point"},"properties":{"osm_id":"8742738202","tag":{"addr:city":"Benidorm","amenity":"recycling","recycling:glass_bottles":"yes","recycling_type":"container"}},"type":"Feature"},
	{"geometry":{"coordinates":[-0.107157,38.535172],"type":"Point"},"properties":{"osm_id":"8758535538","tag":{"addr:city":"Benidorm","amenity":"waste_disposal"}},"type":"Feature"},
	{"geometry":{"coordinates":[-0.106631,38.537107],"type":"Point"},"properties":{"osm_id":"8758566354","tag":{"addr:city":"Benidorm","addr:street":"Avinguda de L'Ametlla de Mar","amenity":"waste_disposal"}},"type":"Feature"},
	{"geometry":{"coordinates":[-0.106741,38.537288],"type":"Point"},"properties":{"osm_id":"8758566356","tag":{"addr:city":"Benidorm","addr:street":"Avinguda de Juan Fuster Zaragoza","amenity":"recycling","recycling:clothes":"yes","recycling:glass_bottles":"yes","recycling:paper":"yes","recycling:pmd":"yes"}},"type":"Feature"},
	{"geometry":{"coordinates":[-0.109677,38.536472],"type":"Point"},"properties":{"osm_id":"8762128835","tag":{"amenity":"recycling","recycling:glass_bottles":"yes","recycling:paper":"yes","recycling:pmd":"yes","recycling_type":"container"}},"type":"Feature"},
	{"geometry":{"coordinates":[-0.132981,38.545221],"type":"Point"},"properties":{"osm_id":"8765666191","tag":{"addr:city":"Benidorm","addr:street":"Avinguda de Beniard\u00c3\u00a0","amenity":"recycling","recycling:clothes":"yes","recycling:glass_bottles":"yes","recycling:paper":"yes","recycling:pmd":"yes"}},"type":"Feature"},
	{"geometry":{"coordinates":[-0.132898,38.544943],"type":"Point"},"properties":{"osm_id":"8765666194","tag":{"addr:city":"Benidorm","addr:country":"ES","addr:street":"Avinguda de Beniard\u00c3\u00a0","amenity":"waste_disposal"}},"type":"Feature"},
	{"geometry":{"coordinates":[-0.132592,38.543575],"type":"Point"},"properties":{"osm_id":"8769469751","tag":{"addr:city":"Benidorm","addr:street":"Avinguda de Beniard\u00c3\u00a0","amenity":"waste_disposal"}},"type":"Feature"},
	{"geometry":{"coordinates":[-0.130999,38.537065],"type":"Point"},"properties":{"osm_id":"8777081277","tag":{"addr:city":"Benidorm","addr:street":"Carrer de Tom\u00c3\u00a1s Ortu\u00c3\u00b1o","amenity":"recycling","recycling:glass_bottles":"yes","recycling:paper":"yes","recycling:pmd":"yes"}},"type":"Feature"},
	{"geometry":{"coordinates":[-0.131004,38.537039],"type":"Point"},"properties":{"osm_id":"8777081278","tag":{"addr:city":"Benidorm","addr:street":"Carrer de Tom\u00c3\u00a1s Ortu\u00c3\u00b1o","amenity":"waste_disposal"}},"type":"Feature"},
	{"geometry":{"coordinates":[-0.118961,38.536547],"type":"Point"},"properties":{"osm_id":"8781410362","tag":{"addr:city":"Benidorm","amenity":"recycling","recycling:glass_bottles":"yes"}},"type":"Feature"},
	{"geometry":{"coordinates":[-0.120394,38.536157],"type":"Point"},"properties":{"osm_id":"8781410364","tag":{"addr:city":"Benidorm","amenity":"recycling","recycling:glass_bottles":"yes"}},"type":"Feature"},
	{"geometry":{"coordinates":[-0.110953,38.536805],"type":"Point"},"properties":{"osm_id":"8786436017","tag":{"addr:city":"Benidorm","amenity":"recycling","recycling:glass_bottles":"yes"}},"type":"Feature"},
	{"geometry":{"coordinates":[-0.111338,38.535958],"type":"Point"},"properties":{"osm_id":"8786436018","tag":{"addr:city":"Benidorm","amenity":"recycling","recycling:glass_bottles":"yes"}},"type":"Feature"},
	{"geometry":{"coordinates":[-0.112252,38.536067],"type":"Point"},"properties":{"osm_id":"8786436023","tag":{"addr:city":"Benidorm","amenity":"recycling","recycling:glass_bottles":"yes"}},"type":"Feature"},
	{"geometry":{"coordinates":[-0.113103,38.536864],"type":"Point"},"properties":{"osm_id":"8786442372","tag":{"addr:city":"Benidorm","amenity":"waste_disposal"}},"type":"Feature"},
	{"geometry":{"coordinates":[-0.113117,38.536818],"type":"Point"},"properties":{"osm_id":"8786442373","tag":{"addr:city":"Benidorm","amenity":"recycling","recycling:glass_bottles":"yes","recycling:paper":"yes","recycling:pmd":"yes"}},"type":"Feature"},
	{"geometry":{"coordinates":[-0.104577,38.533929],"type":"Point"},"properties":{"osm_id":"8792479873","tag":{"addr:city":"Benidorm","amenity":"waste_disposal"}},"type":"Feature"},
	{"geometry":{"coordinates":[-0.105619,38.534233],"type":"Point"},"properties":{"osm_id":"8792479874","tag":{"addr:city":"Benidorm","amenity":"waste_disposal"}},"type":"Feature"},
	{"geometry":{"coordinates":[-0.113208,38.536926],"type":"Point"},"properties":{"osm_id":"8807179979","tag":{"addr:city":"Benidorm","amenity":"recycling","recycling:glass_bottles":"yes"}},"type":"Feature"},
	{"geometry":{"coordinates":[-0.115363,38.536434],"type":"Point"},"properties":{"osm_id":"8807237061","tag":{"addr:city":"Benidorm","amenity":"recycling","recycling:glass_bottles":"yes"}},"type":"Feature"},
	{"geometry":{"coordinates":[-0.117012,38.53664],"type":"Point"},"properties":{"osm_id":"8807237065","tag":{"addr:city":"Benidorm","amenity":"recycling","recycling:glass_bottles":"yes"}},"type":"Feature"},
	{"geometry":{"coordinates":[-0.116487,38.53747],"type":"Point"},"properties":{"osm_id":"8807237074","tag":{"addr:city":"Benidorm","amenity":"recycling","recycling:glass_bottles":"yes"}},"type":"Feature"},
	{"geometry":{"coordinates":[-0.116476,38.537342],"type":"Point"},"properties":{"osm_id":"8807237076","tag":{"addr:city":"Benidorm","amenity":"recycling","recycling:glass_bottles":"yes"}},"type":"Feature"},
	{"geometry":{"coordinates":[-0.116515,38.537352],"type":"Point"},"properties":{"osm_id":"8807237077","tag":{"addr:city":"Benidorm","amenity":"waste_disposal"}},"type":"Feature"},
	{"geometry":{"coordinates":[-0.116903,38.537393],"type":"Point"},"properties":{"osm_id":"8807237078","tag":{"addr:city":"Benidorm","amenity":"recycling","recycling:glass_bottles":"yes"}},"type":"Feature"},
	{"geometry":{"coordinates":[-0.117559,38.53726],"type":"Point"},"properties":{"osm_id":"8807273035","tag":{"addr:city":"Benidorm","amenity":"waste_disposal"}},"type":"Feature"},
	{"geometry":{"coordinates":[-0.118414,38.537607],"type":"Point"},"properties":{"osm_id":"8807273040","tag":{"addr:city":"Benidorm","amenity":"recycling","recycling:glass_bottles":"yes"}},"type":"Feature"},
	{"geometry":{"coordinates":[-0.119019,38.537171],"type":"Point"},"properties":{"osm_id":"8807288192","tag":{"addr:city":"Benidorm","amenity":"recycling","recycling:glass_bottles":"yes"}},"type":"Feature"},
	{"geometry":{"coordinates":[-0.119348,38.537877],"type":"Point"},"properties":{"osm_id":"8807288194","tag":{"addr:city":"Benidorm","amenity":"waste_disposal"}},"type":"Feature"},
	{"geometry":{"coordinates":[-0.119385,38.537885],"type":"Point"},"properties":{"osm_id":"8807288195","tag":{"addr:city":"Benidorm","amenity":"recycling","recycling:glass_bottles":"yes","recycling:paper":"yes","recycling:pmd":"yes"}},"type":"Feature"},
	{"geometry":{"coordinates":[-0.132904,38.536529],"type":"Point"},"properties":{"osm_id":"8866295711","tag":{"addr:city":"Benidorm","amenity":"waste_disposal"}},"type":"Feature"},
	{"geometry":{"coordinates":[-0.123454,38.537519],"type":"Point"},"properties":{"osm_id":"8869453151","tag":{"addr:city":"Benidorm","amenity":"recycling","recycling:glass_bottles":"yes"}},"type":"Feature"},
	{"geometry":{"coordinates":[-0.125466,38.537515],"type":"Point"},"properties":{"osm_id":"8869455886","tag":{"addr:city":"Benidorm","amenity":"recycling","recycling:glass_bottles":"yes"}},"type":"Feature"},
	{"geometry":{"coordinates":[-0.12189,38.537219],"type":"Point"},"properties":{"osm_id":"8869515935","tag":{"addr:city":"Benidorm","amenity":"recycling","recycling:glass_bottles":"yes"}},"type":"Feature"},
	{"geometry":{"coordinates":[-0.121771,38.537479],"type":"Point"},"properties":{"osm_id":"8869515937","tag":{"addr:city":"Benidorm","amenity":"recycling","recycling:glass_bottles":"yes"}},"type":"Feature"},
	{"geometry":{"coordinates":[-0.12248,38.538026],"type":"Point"},"properties":{"osm_id":"8869515942","tag":{"addr:city":"Benidorm","amenity":"recycling","recycling:glass_bottles":"yes"}},"type":"Feature"},
	{"geometry":{"coordinates":[-0.122794,38.538124],"type":"Point"},"properties":{"osm_id":"8869515943","tag":{"addr:city":"Benidorm","amenity":"recycling","recycling:glass_bottles":"yes","recycling:paper":"yes","recycling:pmd":"yes"}},"type":"Feature"},
	{"geometry":{"coordinates":[-0.121713,38.538058],"type":"Point"},"properties":{"osm_id":"8869515944","tag":{"addr:city":"Benidorm","amenity":"waste_disposal"}},"type":"Feature"},
	{"geometry":{"coordinates":[-0.121236,38.537847],"type":"Point"},"properties":{"osm_id":"8869515945","tag":{"addr:city":"Benidorm","amenity":"recycling","recycling:glass_bottles":"yes","recycling:pmd":"yes"}},"type":"Feature"},
	{"geometry":{"coordinates":[-0.103419,38.534674],"type":"Point"},"properties":{"osm_id":"8946793201","tag":{"addr:city":"Benidorm","amenity":"recycling","recycling:glass_bottles":"yes","recycling_type":"container"}},"type":"Feature"},
	{"geometry":{"coordinates":[-0.103389,38.534731],"type":"Point"},"properties":{"osm_id":"8946793202","tag":{"addr:city":"Benidorm","amenity":"waste_disposal"}},"type":"Feature"},
	{"geometry":{"coordinates":[-0.10314,38.535282],"type":"Point"},"properties":{"osm_id":"8946793205","tag":{"addr:city":"Benidorm","amenity":"recycling","recycling:glass_bottles":"yes","recycling_type":"container"}},"type":"Feature"},
	{"geometry":{"coordinates":[-0.103113,38.535342],"type":"Point"},"properties":{"osm_id":"8946793208","tag":{"addr:city":"Benidorm","amenity":"waste_disposal"}},"type":"Feature"},
	{"geometry":{"coordinates":[-0.102898,38.535931],"type":"Point"},"properties":{"osm_id":"8946826921","tag":{"addr:city":"Benidorm","amenity":"waste_disposal"}},"type":"Feature"},
	{"geometry":{"coordinates":[-0.102907,38.535884],"type":"Point"},"properties":{"osm_id":"8946826922","tag":{"addr:city":"Benidorm","amenity":"recycling","recycling:clothes":"yes","recycling:glass_bottles":"yes","recycling:paper":"yes","recycling:pmd":"yes","recycling_type":"container"}},"type":"Feature"},
	{"geometry":{"coordinates":[-0.102779,38.536675],"type":"Point"},"properties":{"osm_id":"8946826926","tag":{"addr:city":"Benidorm","amenity":"waste_disposal"}},"type":"Feature"},
	{"geometry":{"coordinates":[-0.102202,38.538024],"type":"Point"},"properties":{"osm_id":"8946826928","tag":{"addr:city":"Benidorm","amenity":"recycling","recycling:glass_bottles":"yes","recycling:paper":"yes","recycling:pmd":"yes","recycling_type":"container"}},"type":"Feature"},
	{"geometry":{"coordinates":[-0.101024,38.539103],"type":"Point"},"properties":{"osm_id":"8946826929","tag":{"addr:city":"Benidorm","amenity":"waste_disposal"}},"type":"Feature"},
	{"geometry":{"coordinates":[-0.101085,38.539297],"type":"Point"},"properties":{"osm_id":"8946826931","tag":{"addr:city":"Benidorm","amenity":"waste_disposal"}},"type":"Feature"},
	{"geometry":{"coordinates":[-0.101113,38.539254],"type":"Point"},"properties":{"osm_id":"8946826932","tag":{"addr:city":"Benidorm","amenity":"recycling","recycling:glass_bottles":"yes","recycling:paper":"yes","recycling:pmd":"yes","recycling_type":"container"}},"type":"Feature"},
	{"geometry":{"coordinates":[-0.10068,38.540434],"type":"Point"},"properties":{"osm_id":"8946826942","tag":{"addr:city":"Benidorm","amenity":"waste_disposal"}},"type":"Feature"},
	{"geometry":{"coordinates":[-0.100687,38.540379],"type":"Point"},"properties":{"osm_id":"8946826943","tag":{"addr:city":"Benidorm","amenity":"recycling","recycling:glass_bottles":"yes","recycling:pmd":"yes","recycling_type":"container"}},"type":"Feature"},
	{"geometry":{"coordinates":[-0.104959,38.534812],"type":"Point"},"properties":{"osm_id":"9020770373","tag":{"addr:city":"Benidorm","amenity":"recycling","recycling:glass_bottles":"yes","recycling_type":"container"}},"type":"Feature"},
	{"geometry":{"coordinates":[-0.104996,38.534844],"type":"Point"},"properties":{"osm_id":"9020770374","tag":{"addr:city":"Benidorm","amenity":"waste_disposal"}},"type":"Feature"},
	{"geometry":{"coordinates":[-0.105228,38.535288],"type":"Point"},"properties":{"osm_id":"9020770379","tag":{"addr:city":"Benidorm","amenity":"recycling","recycling:cans":"yes","recycling:glass_bottles":"yes","recycling:paper":"yes","recycling_type":"container"}},"type":"Feature"},
	{"geometry":{"coordinates":[-0.106042,38.53445],"type":"Point"},"properties":{"osm_id":"9020843521","tag":{"addr:city":"Benidorm","amenity":"waste_disposal"}},"type":"Feature"},
	{"geometry":{"coordinates":[-0.105572,38.535293],"type":"Point"},"properties":{"osm_id":"9020843526","tag":{"addr:city":"Benidorm","amenity":"waste_disposal"}},"type":"Feature"},
	{"geometry":{"coordinates":[-0.106957,38.53564],"type":"Point"},"properties":{"osm_id":"9020843529","tag":{"addr:city":"Benidorm","amenity":"waste_disposal"}},"type":"Feature"},
	{"geometry":{"coordinates":[-0.106285,38.536496],"type":"Point"},"properties":{"osm_id":"9023207758","tag":{"addr:city":"Benidorm","addr:postcode":"03503","addr:street":"Calle de Londres","amenity":"waste_disposal"}},"type":"Feature"},
	{"geometry":{"coordinates":[-0.10504,38.536128],"type":"Point"},"properties":{"osm_id":"9023207764","tag":{"addr:city":"Benidorm","amenity":"recycling","recycling:glass_bottles":"yes","recycling_type":"container"}},"type":"Feature"},
	{"geometry":{"coordinates":[-0.104879,38.53595],"type":"Point"},"properties":{"osm_id":"9023207767","tag":{"addr:city":"Benidorm","amenity":"waste_disposal"}},"type":"Feature"}
]
}
