{
"type": "FeatureCollection",
"features": [
	{"geometry":{"coordinates":[-0.096852,34.765478],"type":"Point"},"properties":{"osm_id":"8022287790","tag":{"amenity":"waste_basket"}},"type":"Feature"},
	{"geometry":{"coordinates":[-0.097763,34.777915],"type":"Point"},"properties":{"osm_id":"8022287791","tag":{"amenity":"waste_basket","operator:funding":"county_government","operator:type":"county_government"}},"type":"Feature"},
	{"geometry":{"coordinates":[-0.104635,34.781073],"type":"Point"},"properties":{"osm_id":"8022287792","tag":{"amenity":"waste_basket"}},"type":"Feature"},
	{"geometry":{"coordinates":[-0.105791,34.76979],"type":"Point"},"properties":{"osm_id":"8022287793","tag":{"amenity":"waste_basket","operator:funding":"county_government","operator:type":"county_government"}},"type":"Feature"},
	{"geometry":{"coordinates":[-0.116555,34.776335],"type":"Point"},"properties":{"osm_id":"8022287794","tag":{"amenity":"waste_basket","operator:funding":"private","operator:type":"private"}},"type":"Feature"},
	{"geometry":{"coordinates":[-0.129241,34.752195],"type":"Point"},"properties":{"osm_id":"8022287795","tag":{"amenity":"waste_basket"}},"type":"Feature"}
]
}
