{
"type": "FeatureCollection",
"features": [
	{"geometry":{"coordinates":[-0.174286,5.621094],"type":"Point"},"properties":{"osm_id":"6175822500","tag":{"amenity":"waste_basket","waste":"trash"}},"type":"Feature"},
	{"geometry":{"coordinates":[-0.151832,5.64236],"type":"Point"},"properties":{"name":"Coliba Collection Point","osm_id":"6286052205","tag":{"amenity":"recycling","opening_hours":"24/7","operator":"Coliba","recycling:plastic":"yes","recycling:plastic_bottles":"yes","recycling:plastic_packaging":"yes","recycling_type":"centre"}},"type":"Feature"},
	{"geometry":{"coordinates":[-0.166521,5.629586],"type":"Point"},"properties":{"name":"Vivie's Dance Factory","osm_id":"8577168401","tag":{"addr:district":"Ayawaso West","amenity":"recycling","contact:pobox":"P. O. Box 17182, Accra","opening_hours":"Mo-Fr 09:00-17:00","operator":"Mckingtorch Africa","operator:type":"private","recycling:plastic":"yes","recycling_type":"centre"}},"type":"Feature"},
	{"geometry":{"coordinates":[-0.094748,5.662589],"type":"Point"},"properties":{"name":"Jekora Ventures Fortifer Compost Plant","osm_id":"8579482508","tag":{"addr:district":"Tema Metropolitan","addr:pobox":"P. O. Box OS 42, Osu-Accra","amenity":"recycling","email":"info@jekoraventures.com","opening_hours":"Mo-Fr 08:00-17:00","operator:type":"private","phone":"+233 27 763 2648; +233 20 546 2010; +233 28 967 3514","recycling:food_waste":"yes","recycling:green_waste":"yes","recycling_type":"centre","website":"https://jekoraventures.com/fortifer-compost/"}},"type":"Feature"}
]
}
