{
"type": "FeatureCollection",
"features": [
	{"geometry":{"coordinates":[19.6882,46.927033],"type":"Point"},"properties":{"osm_id":"3439442970","tag":{"addr:street":"R\u00c3\u00b3zsav\u00c3\u00b6lgyi t\u00c3\u00a9r","amenity":"recycling","recycling:beverage_cartons":"yes","recycling:cans":"yes","recycling:glass_bottles":"yes","recycling:paper":"yes","recycling:plastic":"yes","recycling_type":"container","source:date":"2011-04-24","url":"http://turistautak.hu/poi.php?id=71082"}},"type":"Feature"},
	{"geometry":{"coordinates":[19.727367,46.9637],"type":"Point"},"properties":{"osm_id":"3439444515","tag":{"addr:street":"441. \u00c3\u00bat - Katona Zsigmond utca","amenity":"recycling","source:date":"2011-04-24","url":"http://turistautak.hu/poi.php?id=71273"}},"type":"Feature"},
	{"geometry":{"coordinates":[19.687628,46.923464],"type":"Point"},"properties":{"name":"haszn\u00c3\u00a1ltruhagy\u00c5\u00b1jt\u00c5\u0091 kont\u00c3\u00a9ner","osm_id":"4403428873","tag":{"amenity":"recycling","recycling:clothes":"yes","recycling:shoes":"yes","recycling_type":"container"}},"type":"Feature"},
	{"geometry":{"coordinates":[19.702303,46.922517],"type":"Point"},"properties":{"osm_id":"8883873076","tag":{"amenity":"recycling","recycling_type":"container"}},"type":"Feature"},
	{"geometry":{"coordinates":[19.70334,46.920404],"type":"Point"},"properties":{"osm_id":"8883935400","tag":{"amenity":"waste_basket"}},"type":"Feature"},
	{"geometry":{"coordinates":[19.703502,46.920419],"type":"Point"},"properties":{"osm_id":"8883935403","tag":{"amenity":"waste_basket"}},"type":"Feature"},
	{"geometry":{"coordinates":[19.702154,46.92143],"type":"Point"},"properties":{"osm_id":"8883948222","tag":{"amenity":"waste_basket"}},"type":"Feature"},
	{"geometry":{"coordinates":[19.702597,46.921403],"type":"Point"},"properties":{"osm_id":"8909436479","tag":{"amenity":"waste_basket"}},"type":"Feature"},
	{"geometry":{"coordinates":[19.70294,46.921007],"type":"Point"},"properties":{"osm_id":"8909436482","tag":{"amenity":"waste_basket"}},"type":"Feature"}
]
}
