{
"type": "FeatureCollection",
"features": [
	{"geometry":{"coordinates":[41.635781,41.653774],"type":"Point"},"properties":{"osm_id":"4838326522","tag":{"amenity":"waste_basket"}},"type":"Feature"},
	{"geometry":{"coordinates":[41.615146,41.643096],"type":"Point"},"properties":{"osm_id":"5153139225","tag":{"amenity":"waste_basket"}},"type":"Feature"},
	{"geometry":{"coordinates":[41.612969,41.641637],"type":"Point"},"properties":{"osm_id":"5153139226","tag":{"amenity":"waste_basket"}},"type":"Feature"},
	{"geometry":{"coordinates":[41.613608,41.642154],"type":"Point"},"properties":{"osm_id":"5153139329","tag":{"amenity":"waste_basket"}},"type":"Feature"},
	{"geometry":{"coordinates":[41.614373,41.642782],"type":"Point"},"properties":{"osm_id":"5153139330","tag":{"amenity":"waste_basket"}},"type":"Feature"},
	{"geometry":{"coordinates":[41.612649,41.641387],"type":"Point"},"properties":{"osm_id":"5153139331","tag":{"amenity":"waste_basket"}},"type":"Feature"},
	{"geometry":{"coordinates":[41.61183,41.640708],"type":"Point"},"properties":{"osm_id":"5153139332","tag":{"amenity":"waste_basket"}},"type":"Feature"},
	{"geometry":{"coordinates":[41.642882,41.643992],"type":"Point"},"properties":{"osm_id":"5842181285","tag":{"amenity":"waste_disposal"}},"type":"Feature"},
	{"geometry":{"coordinates":[41.630511,41.640797],"type":"Point"},"properties":{"osm_id":"5842183689","tag":{"amenity":"waste_disposal"}},"type":"Feature"},
	{"geometry":{"coordinates":[41.635659,41.642482],"type":"Point"},"properties":{"osm_id":"5843348686","tag":{"amenity":"waste_disposal"}},"type":"Feature"},
	{"geometry":{"coordinates":[41.632118,41.649863],"type":"Point"},"properties":{"osm_id":"6709459285","tag":{"amenity":"waste_basket"}},"type":"Feature"},
	{"geometry":{"coordinates":[41.63194,41.650086],"type":"Point"},"properties":{"osm_id":"6709459385","tag":{"amenity":"waste_basket"}},"type":"Feature"},
	{"geometry":{"coordinates":[41.635035,41.650077],"type":"Point"},"properties":{"osm_id":"6709503985","tag":{"amenity":"waste_basket"}},"type":"Feature"},
	{"geometry":{"coordinates":[41.634956,41.650159],"type":"Point"},"properties":{"osm_id":"6709504085","tag":{"amenity":"waste_basket"}},"type":"Feature"},
	{"geometry":{"coordinates":[41.635863,41.648911],"type":"Point"},"properties":{"osm_id":"6765634285","tag":{"amenity":"recycling","name:en":"USAID Recycle piont","name:ru":"\u00d0\u009a\u00d0\u00be\u00d0\u00bd\u00d1\u0082\u00d0\u00b5\u00d0\u00b9\u00d0\u00bd\u00d0\u00b5\u00d1\u0080 \u00d0\u00bf\u00d1\u0080\u00d0\u00b8\u00d0\u00b5\u00d0\u00bc\u00d0\u00b0 \u00d0\u00a2\u00d0\u0091\u00d0\u009e \u00d0\u00bf\u00d0\u00bb\u00d0\u00b0\u00d1\u0081\u00d1\u0082\u00d0\u00b8\u00d0\u00ba \u00d1\u0081\u00d1\u0082\u00d0\u00b5\u00d0\u00ba\u00d0\u00bb\u00d0\u00be \u00d0\u00b0\u00d0\u00bb\u00d1\u008e\u00d0\u00bc\u00d0\u00b8\u00d0\u00bd\u00d0\u00b8\u00d0\u00b9 \u00d0\u00b1\u00d1\u0083\u00d0\u00bc\u00d0\u00b0\u00d0\u00b3\u00d0\u00b0"}},"type":"Feature"},
	{"geometry":{"coordinates":[41.633018,41.646264],"type":"Point"},"properties":{"osm_id":"6823769216","tag":{"amenity":"waste_disposal"}},"type":"Feature"},
	{"geometry":{"coordinates":[41.639202,41.640455],"type":"Point"},"properties":{"osm_id":"8781151217","tag":{"amenity":"waste_disposal"}},"type":"Feature"}
]
}
