{
"type": "FeatureCollection",
"features": [
	{"geometry":{"coordinates":[41.024854,50.427114],"type":"Point"},"properties":{"osm_id":"3239957170","tag":{"amenity":"waste_disposal"}},"type":"Feature"},
	{"geometry":{"coordinates":[41.019858,50.426428],"type":"Point"},"properties":{"osm_id":"3303074238","tag":{"amenity":"waste_basket"}},"type":"Feature"},
	{"geometry":{"coordinates":[41.019612,50.456164],"type":"Point"},"properties":{"osm_id":"3579154462","tag":{"amenity":"waste_basket"}},"type":"Feature"},
	{"geometry":{"coordinates":[40.975953,50.444272],"type":"Point"},"properties":{"name":"\u00d0\u009f\u00d1\u0080\u00d0\u00b8\u00d0\u00b5\u00d0\u00bc \u00d0\u00bc\u00d0\u00b5\u00d1\u0082\u00d0\u00b0\u00d0\u00bb\u00d0\u00bb\u00d0\u00be\u00d0\u00bb\u00d0\u00be\u00d0\u00bc\u00d0\u00b0","osm_id":"3647637745","tag":{"amenity":"recycling","recycling:scrap_metal":"yes","recycling_type":"centre"}},"type":"Feature"},
	{"geometry":{"coordinates":[41.036166,50.425125],"type":"Point"},"properties":{"osm_id":"3653392068","tag":{"amenity":"waste_basket"}},"type":"Feature"},
	{"geometry":{"coordinates":[41.036095,50.425186],"type":"Point"},"properties":{"osm_id":"3653392071","tag":{"amenity":"waste_basket"}},"type":"Feature"},
	{"geometry":{"coordinates":[41.036006,50.425275],"type":"Point"},"properties":{"osm_id":"3653392073","tag":{"amenity":"waste_basket"}},"type":"Feature"},
	{"geometry":{"coordinates":[41.027614,50.426237],"type":"Point"},"properties":{"osm_id":"3653392080","tag":{"amenity":"waste_basket"}},"type":"Feature"},
	{"geometry":{"coordinates":[41.027493,50.426334],"type":"Point"},"properties":{"osm_id":"3653392082","tag":{"amenity":"waste_basket"}},"type":"Feature"},
	{"geometry":{"coordinates":[41.04131,50.444051],"type":"Point"},"properties":{"name":"\u00d0\u00ad\u00d0\u00ba\u00d0\u00be\u00d1\u0082\u00d1\u0080\u00d0\u00b0\u00d0\u00bd\u00d1\u0081","osm_id":"3673897918","tag":{"amenity":"recycling","email":"buhgalter@ekotrans36.ru","fax":"8(47363) 22-0-53","opening_hours":"Mo-Fr 08:00-17:00","phone":"+7 47363 22079","recycling:cardboard":"yes","recycling:glass":"yes","recycling:glass_bottles":"yes","recycling:paper":"yes","recycling:plastic":"yes","recycling:plastic_packaging":"yes","recycling_type":"centre","website":"http://ekotrans36.ru/"}},"type":"Feature"},
	{"geometry":{"coordinates":[41.004416,50.435341],"type":"Point"},"properties":{"osm_id":"3678691823","tag":{"amenity":"waste_basket"}},"type":"Feature"},
	{"geometry":{"coordinates":[41.028622,50.412751],"type":"Point"},"properties":{"osm_id":"3694105550","tag":{"amenity":"waste_basket"}},"type":"Feature"},
	{"geometry":{"coordinates":[41.027976,50.412814],"type":"Point"},"properties":{"osm_id":"3694105553","tag":{"amenity":"waste_basket"}},"type":"Feature"},
	{"geometry":{"coordinates":[41.028615,50.41287],"type":"Point"},"properties":{"osm_id":"3694105556","tag":{"amenity":"waste_basket"}},"type":"Feature"},
	{"geometry":{"coordinates":[41.028355,50.412938],"type":"Point"},"properties":{"osm_id":"3694105558","tag":{"amenity":"waste_basket"}},"type":"Feature"},
	{"geometry":{"coordinates":[41.009143,50.419096],"type":"Point"},"properties":{"osm_id":"3694105573","tag":{"amenity":"waste_basket"}},"type":"Feature"},
	{"geometry":{"coordinates":[41.016428,50.423331],"type":"Point"},"properties":{"osm_id":"3694105576","tag":{"amenity":"waste_disposal"}},"type":"Feature"},
	{"geometry":{"coordinates":[41.016477,50.423337],"type":"Point"},"properties":{"osm_id":"3694105577","tag":{"amenity":"waste_disposal"}},"type":"Feature"},
	{"geometry":{"coordinates":[41.013254,50.424044],"type":"Point"},"properties":{"osm_id":"3695534310","tag":{"amenity":"waste_basket"}},"type":"Feature"},
	{"geometry":{"coordinates":[41.015412,50.425162],"type":"Point"},"properties":{"osm_id":"3698361126","tag":{"amenity":"waste_basket"}},"type":"Feature"},
	{"geometry":{"coordinates":[41.015307,50.425222],"type":"Point"},"properties":{"osm_id":"3698361127","tag":{"amenity":"waste_basket"}},"type":"Feature"},
	{"geometry":{"coordinates":[41.014789,50.424832],"type":"Point"},"properties":{"osm_id":"3711965572","tag":{"amenity":"waste_basket"}},"type":"Feature"},
	{"geometry":{"coordinates":[41.000535,50.437222],"type":"Point"},"properties":{"osm_id":"3711965857","tag":{"amenity":"waste_basket"}},"type":"Feature"},
	{"geometry":{"coordinates":[41.029286,50.427442],"type":"Point"},"properties":{"osm_id":"3723657202","tag":{"amenity":"waste_basket"}},"type":"Feature"},
	{"geometry":{"coordinates":[40.999078,50.430345],"type":"Point"},"properties":{"osm_id":"3734210471","tag":{"amenity":"waste_disposal"}},"type":"Feature"},
	{"geometry":{"coordinates":[41.015928,50.423504],"type":"Point"},"properties":{"osm_id":"3736333379","tag":{"amenity":"waste_basket"}},"type":"Feature"},
	{"geometry":{"coordinates":[41.01592,50.423581],"type":"Point"},"properties":{"osm_id":"3736333382","tag":{"amenity":"waste_basket"}},"type":"Feature"},
	{"geometry":{"coordinates":[41.020464,50.427423],"type":"Point"},"properties":{"osm_id":"3736333635","tag":{"amenity":"waste_disposal"}},"type":"Feature"},
	{"geometry":{"coordinates":[40.999297,50.430061],"type":"Point"},"properties":{"osm_id":"3736333675","tag":{"amenity":"waste_basket"}},"type":"Feature"},
	{"geometry":{"coordinates":[40.999184,50.430232],"type":"Point"},"properties":{"osm_id":"3736333676","tag":{"amenity":"waste_basket"}},"type":"Feature"},
	{"geometry":{"coordinates":[41.011209,50.432732],"type":"Point"},"properties":{"osm_id":"3736333677","tag":{"amenity":"waste_disposal"}},"type":"Feature"},
	{"geometry":{"coordinates":[41.015165,50.423984],"type":"Point"},"properties":{"osm_id":"3750471100","tag":{"amenity":"waste_basket"}},"type":"Feature"},
	{"geometry":{"coordinates":[41.017333,50.424444],"type":"Point"},"properties":{"osm_id":"3750471110","tag":{"amenity":"waste_basket"}},"type":"Feature"},
	{"geometry":{"coordinates":[41.017414,50.424449],"type":"Point"},"properties":{"osm_id":"3750471111","tag":{"amenity":"waste_basket"}},"type":"Feature"},
	{"geometry":{"coordinates":[41.018536,50.425029],"type":"Point"},"properties":{"osm_id":"3750471121","tag":{"amenity":"waste_basket"}},"type":"Feature"},
	{"geometry":{"coordinates":[41.013648,50.425104],"type":"Point"},"properties":{"osm_id":"3750471124","tag":{"amenity":"waste_basket"}},"type":"Feature"},
	{"geometry":{"coordinates":[41.013456,50.425104],"type":"Point"},"properties":{"osm_id":"3750471725","tag":{"amenity":"waste_basket"}},"type":"Feature"},
	{"geometry":{"coordinates":[41.013732,50.425117],"type":"Point"},"properties":{"osm_id":"3750471726","tag":{"amenity":"waste_basket"}},"type":"Feature"},
	{"geometry":{"coordinates":[41.01306,50.425208],"type":"Point"},"properties":{"osm_id":"3750471729","tag":{"amenity":"waste_basket"}},"type":"Feature"},
	{"geometry":{"coordinates":[41.016522,50.425282],"type":"Point"},"properties":{"osm_id":"3750471732","tag":{"amenity":"waste_basket"}},"type":"Feature"},
	{"geometry":{"coordinates":[41.018704,50.425542],"type":"Point"},"properties":{"osm_id":"3750471735","tag":{"amenity":"waste_basket"}},"type":"Feature"},
	{"geometry":{"coordinates":[41.012437,50.425884],"type":"Point"},"properties":{"osm_id":"3750471739","tag":{"amenity":"waste_basket"}},"type":"Feature"},
	{"geometry":{"coordinates":[41.019149,50.4259],"type":"Point"},"properties":{"osm_id":"3750471740","tag":{"amenity":"waste_basket"}},"type":"Feature"},
	{"geometry":{"coordinates":[40.9894,50.427669],"type":"Point"},"properties":{"osm_id":"3750471752","tag":{"amenity":"waste_basket"}},"type":"Feature"},
	{"geometry":{"coordinates":[41.021097,50.427847],"type":"Point"},"properties":{"osm_id":"3750471754","tag":{"amenity":"waste_basket"}},"type":"Feature"},
	{"geometry":{"coordinates":[41.02094,50.427876],"type":"Point"},"properties":{"osm_id":"3750471755","tag":{"amenity":"waste_basket"}},"type":"Feature"},
	{"geometry":{"coordinates":[41.029212,50.428259],"type":"Point"},"properties":{"osm_id":"3750471756","tag":{"amenity":"waste_basket"}},"type":"Feature"},
	{"geometry":{"coordinates":[40.982367,50.420076],"type":"Point"},"properties":{"osm_id":"3753825403","tag":{"amenity":"waste_disposal"}},"type":"Feature"},
	{"geometry":{"coordinates":[40.982807,50.420188],"type":"Point"},"properties":{"osm_id":"3753825405","tag":{"amenity":"waste_basket"}},"type":"Feature"},
	{"geometry":{"coordinates":[41.029175,50.427669],"type":"Point"},"properties":{"osm_id":"3780492588","tag":{"amenity":"waste_basket"}},"type":"Feature"},
	{"geometry":{"coordinates":[41.030364,50.422464],"type":"Point"},"properties":{"osm_id":"3870847123","tag":{"amenity":"waste_basket"}},"type":"Feature"},
	{"geometry":{"coordinates":[41.030364,50.422494],"type":"Point"},"properties":{"osm_id":"3870847126","tag":{"amenity":"waste_basket"}},"type":"Feature"},
	{"geometry":{"coordinates":[41.015402,50.42391],"type":"Point"},"properties":{"osm_id":"3909300653","tag":{"amenity":"waste_basket"}},"type":"Feature"},
	{"geometry":{"coordinates":[41.015609,50.423938],"type":"Point"},"properties":{"osm_id":"3909301159","tag":{"amenity":"waste_basket"}},"type":"Feature"},
	{"geometry":{"coordinates":[41.015376,50.423989],"type":"Point"},"properties":{"osm_id":"3909301169","tag":{"amenity":"waste_basket"}},"type":"Feature"},
	{"geometry":{"coordinates":[41.016532,50.424002],"type":"Point"},"properties":{"osm_id":"3909301174","tag":{"amenity":"waste_basket"}},"type":"Feature"},
	{"geometry":{"coordinates":[41.016745,50.424016],"type":"Point"},"properties":{"osm_id":"3909301181","tag":{"amenity":"waste_basket"}},"type":"Feature"},
	{"geometry":{"coordinates":[41.015583,50.424019],"type":"Point"},"properties":{"osm_id":"3909301183","tag":{"amenity":"waste_basket"}},"type":"Feature"},
	{"geometry":{"coordinates":[41.01535,50.424069],"type":"Point"},"properties":{"osm_id":"3909301201","tag":{"amenity":"waste_basket"}},"type":"Feature"},
	{"geometry":{"coordinates":[41.016517,50.424083],"type":"Point"},"properties":{"osm_id":"3909301207","tag":{"amenity":"waste_basket"}},"type":"Feature"},
	{"geometry":{"coordinates":[41.016728,50.424098],"type":"Point"},"properties":{"osm_id":"3909301214","tag":{"amenity":"waste_basket"}},"type":"Feature"},
	{"geometry":{"coordinates":[41.015558,50.424099],"type":"Point"},"properties":{"osm_id":"3909301215","tag":{"amenity":"waste_basket"}},"type":"Feature"},
	{"geometry":{"coordinates":[41.01532,50.424161],"type":"Point"},"properties":{"osm_id":"3909301236","tag":{"amenity":"waste_basket"}},"type":"Feature"},
	{"geometry":{"coordinates":[41.016501,50.424163],"type":"Point"},"properties":{"osm_id":"3909301237","tag":{"amenity":"waste_basket"}},"type":"Feature"},
	{"geometry":{"coordinates":[41.016713,50.424178],"type":"Point"},"properties":{"osm_id":"3909301244","tag":{"amenity":"waste_basket"}},"type":"Feature"},
	{"geometry":{"coordinates":[41.015528,50.42419],"type":"Point"},"properties":{"osm_id":"3909301251","tag":{"amenity":"waste_basket"}},"type":"Feature"},
	{"geometry":{"coordinates":[41.015294,50.424241],"type":"Point"},"properties":{"osm_id":"3909301267","tag":{"amenity":"waste_basket"}},"type":"Feature"},
	{"geometry":{"coordinates":[41.015504,50.42426],"type":"Point"},"properties":{"osm_id":"3909301272","tag":{"amenity":"waste_basket"}},"type":"Feature"},
	{"geometry":{"coordinates":[41.030702,50.437376],"type":"Point"},"properties":{"osm_id":"3955495727","tag":{"amenity":"waste_basket"}},"type":"Feature"},
	{"geometry":{"coordinates":[40.99525,50.42391],"type":"Point"},"properties":{"osm_id":"3998867675","tag":{"amenity":"waste_disposal"}},"type":"Feature"},
	{"geometry":{"coordinates":[41.024689,50.445752],"type":"Point"},"properties":{"osm_id":"3998867712","tag":{"amenity":"waste_basket"}},"type":"Feature"},
	{"geometry":{"coordinates":[41.024671,50.445841],"type":"Point"},"properties":{"osm_id":"3998867715","tag":{"amenity":"waste_basket"}},"type":"Feature"},
	{"geometry":{"coordinates":[41.015257,50.424451],"type":"Point"},"properties":{"osm_id":"4216894284","tag":{"amenity":"waste_basket"}},"type":"Feature"},
	{"geometry":{"coordinates":[41.018627,50.425781],"type":"Point"},"properties":{"osm_id":"4284859141","tag":{"amenity":"waste_basket"}},"type":"Feature"},
	{"geometry":{"coordinates":[41.018657,50.425804],"type":"Point"},"properties":{"osm_id":"4284859143","tag":{"amenity":"waste_basket"}},"type":"Feature"},
	{"geometry":{"coordinates":[41.026583,50.409385],"type":"Point"},"properties":{"osm_id":"4316775203","tag":{"amenity":"waste_basket"}},"type":"Feature"},
	{"geometry":{"coordinates":[41.029814,50.415026],"type":"Point"},"properties":{"osm_id":"4316775205","tag":{"amenity":"waste_basket"}},"type":"Feature"},
	{"geometry":{"coordinates":[41.029814,50.415182],"type":"Point"},"properties":{"osm_id":"4316775206","tag":{"amenity":"waste_basket"}},"type":"Feature"},
	{"geometry":{"coordinates":[41.02978,50.417152],"type":"Point"},"properties":{"osm_id":"4316775208","tag":{"amenity":"waste_basket"}},"type":"Feature"},
	{"geometry":{"coordinates":[41.02857,50.428064],"type":"Point"},"properties":{"osm_id":"4375896963","tag":{"amenity":"waste_basket"}},"type":"Feature"},
	{"geometry":{"coordinates":[40.99795,50.430123],"type":"Point"},"properties":{"osm_id":"6932019867","tag":{"amenity":"waste_disposal","waste":"trash"}},"type":"Feature"}
]
}
