{
"type": "FeatureCollection",
"features": [
	{"geometry":{"coordinates":[44.089426,56.265579],"type":"Point"},"properties":{"osm_id":"2873178468","tag":{"amenity":"waste_disposal"}},"type":"Feature"},
	{"geometry":{"coordinates":[44.07306,56.224082],"type":"Point"},"properties":{"osm_id":"5239885868","tag":{"amenity":"recycling","level":"0","opening_hours":"24/7","operator":"IKEA","recycling:batteries":"yes","recycling:car_batteries":"no","recycling:low_energy_bulbs":"yes","recycling_type":"container"}},"type":"Feature"},
	{"geometry":{"coordinates":[44.042235,56.249102],"type":"Point"},"properties":{"osm_id":"5275133857","tag":{"amenity":"waste_basket","layer":"1"}},"type":"Feature"},
	{"geometry":{"coordinates":[44.046609,56.249252],"type":"Point"},"properties":{"osm_id":"6842823139","tag":{"amenity":"waste_disposal"}},"type":"Feature"},
	{"geometry":{"coordinates":[44.039458,56.245346],"type":"Point"},"properties":{"osm_id":"7187318181","tag":{"amenity":"waste_disposal"}},"type":"Feature"}
]
}
