{
"type": "FeatureCollection",
"features": [
	{"geometry":{"coordinates":[13.862184,53.324035],"type":"Point"},"properties":{"osm_id":"536686079","tag":{"amenity":"recycling","recycling:glass":"yes","recycling_type":"container"}},"type":"Feature"},
	{"geometry":{"coordinates":[13.861912,53.320946],"type":"Point"},"properties":{"osm_id":"536686080","tag":{"amenity":"recycling","recycling:glass":"yes","recycling:paper":"yes","recycling_type":"container"}},"type":"Feature"},
	{"geometry":{"coordinates":[13.861799,53.319525],"type":"Point"},"properties":{"osm_id":"536686081","tag":{"amenity":"recycling","recycling:glass":"yes","recycling:paper":"yes"}},"type":"Feature"},
	{"geometry":{"coordinates":[13.859003,53.319759],"type":"Point"},"properties":{"osm_id":"539643900","tag":{"amenity":"recycling","recycling:glass":"yes","recycling:paper":"yes","recycling_type":"container"}},"type":"Feature"},
	{"geometry":{"coordinates":[13.857419,53.318332],"type":"Point"},"properties":{"osm_id":"539643904","tag":{"amenity":"recycling","recycling:glass":"yes","recycling:paper":"yes"}},"type":"Feature"},
	{"geometry":{"coordinates":[13.85786,53.317889],"type":"Point"},"properties":{"osm_id":"539643909","tag":{"amenity":"recycling","recycling:glass":"yes","recycling:paper":"yes"}},"type":"Feature"},
	{"geometry":{"coordinates":[13.866605,53.312044],"type":"Point"},"properties":{"osm_id":"548660223","tag":{"amenity":"recycling","recycling:glass":"yes","recycling_type":"container"}},"type":"Feature"},
	{"geometry":{"coordinates":[13.873312,53.322254],"type":"Point"},"properties":{"osm_id":"558508159","tag":{"amenity":"recycling","recycling:paper":"yes","recycling_type":"container"}},"type":"Feature"},
	{"geometry":{"coordinates":[13.873987,53.322458],"type":"Point"},"properties":{"osm_id":"558508161","tag":{"amenity":"recycling","recycling:clothes":"yes","recycling:glass":"yes"}},"type":"Feature"},
	{"geometry":{"coordinates":[13.865847,53.321219],"type":"Point"},"properties":{"osm_id":"559644494","tag":{"amenity":"recycling","recycling:glass_bottles":"yes","recycling:paper":"yes","recycling_type":"container"}},"type":"Feature"},
	{"geometry":{"coordinates":[13.857174,53.311319],"type":"Point"},"properties":{"osm_id":"564922503","tag":{"amenity":"recycling","recycling:glass":"yes","recycling:paper":"yes","recycling_type":"container"}},"type":"Feature"},
	{"geometry":{"coordinates":[13.852386,53.311734],"type":"Point"},"properties":{"osm_id":"564922533","tag":{"amenity":"recycling","recycling:glass":"yes","recycling_type":"container"}},"type":"Feature"},
	{"geometry":{"coordinates":[13.857743,53.311009],"type":"Point"},"properties":{"osm_id":"564922549","tag":{"amenity":"recycling","recycling:glass":"yes","recycling:paper":"yes","recycling_type":"container"}},"type":"Feature"},
	{"geometry":{"coordinates":[13.855977,53.312216],"type":"Point"},"properties":{"osm_id":"564922551","tag":{"amenity":"recycling","recycling:glass":"yes","recycling:paper":"yes","recycling_type":"container"}},"type":"Feature"},
	{"geometry":{"coordinates":[13.867932,53.314124],"type":"Point"},"properties":{"osm_id":"572278259","tag":{"amenity":"recycling","recycling:cans":"no","recycling:glass":"yes","recycling:paper":"yes","recycling_type":"container"}},"type":"Feature"},
	{"geometry":{"coordinates":[13.849927,53.319266],"type":"Point"},"properties":{"osm_id":"573338684","tag":{"amenity":"recycling","recycling:glass":"yes","recycling_type":"container"}},"type":"Feature"},
	{"geometry":{"coordinates":[13.854497,53.320895],"type":"Point"},"properties":{"osm_id":"573338725","tag":{"amenity":"recycling","recycling:clothes":"yes","recycling:glass":"yes","recycling:plastic":"yes","recycling_type":"container"}},"type":"Feature"},
	{"geometry":{"coordinates":[13.850949,53.315191],"type":"Point"},"properties":{"osm_id":"581974200","tag":{"amenity":"recycling","recycling:glass":"yes","recycling_type":"container"}},"type":"Feature"},
	{"geometry":{"coordinates":[13.852643,53.317952],"type":"Point"},"properties":{"osm_id":"581974216","tag":{"amenity":"recycling","recycling:clothes":"yes","recycling:glass":"yes","recycling_type":"container"}},"type":"Feature"},
	{"geometry":{"coordinates":[13.866502,53.321349],"type":"Point"},"properties":{"osm_id":"4451770203","tag":{"amenity":"waste_basket"}},"type":"Feature"},
	{"geometry":{"coordinates":[13.866553,53.321502],"type":"Point"},"properties":{"osm_id":"4451770213","tag":{"amenity":"waste_basket"}},"type":"Feature"},
	{"geometry":{"coordinates":[13.866289,53.321529],"type":"Point"},"properties":{"osm_id":"4451770216","tag":{"amenity":"waste_basket"}},"type":"Feature"},
	{"geometry":{"coordinates":[13.866613,53.321662],"type":"Point"},"properties":{"osm_id":"4451770227","tag":{"amenity":"waste_basket"}},"type":"Feature"},
	{"geometry":{"coordinates":[13.866343,53.321678],"type":"Point"},"properties":{"osm_id":"4451770229","tag":{"amenity":"waste_basket"}},"type":"Feature"},
	{"geometry":{"coordinates":[13.866372,53.321761],"type":"Point"},"properties":{"osm_id":"4451770238","tag":{"amenity":"waste_basket"}},"type":"Feature"},
	{"geometry":{"coordinates":[13.86666,53.32181],"type":"Point"},"properties":{"osm_id":"4451770240","tag":{"amenity":"waste_basket"}},"type":"Feature"},
	{"geometry":{"coordinates":[13.875759,53.329863],"type":"Point"},"properties":{"osm_id":"5516584853","tag":{"amenity":"recycling","recycling:glass":"yes","recycling_type":"container"}},"type":"Feature"},
	{"geometry":{"coordinates":[13.87579,53.329861],"type":"Point"},"properties":{"osm_id":"5516584854","tag":{"amenity":"recycling","recycling:glass":"yes","recycling_type":"container"}},"type":"Feature"},
	{"geometry":{"coordinates":[13.875824,53.329857],"type":"Point"},"properties":{"osm_id":"5516584855","tag":{"amenity":"recycling","recycling:clothes":"yes","recycling_type":"container"}},"type":"Feature"},
	{"geometry":{"coordinates":[13.875856,53.329854],"type":"Point"},"properties":{"osm_id":"5516584856","tag":{"amenity":"recycling","recycling:clothes":"yes","recycling_type":"container"}},"type":"Feature"},
	{"geometry":{"coordinates":[13.877869,53.329744],"type":"Point"},"properties":{"osm_id":"5516626437","tag":{"amenity":"recycling","recycling:glass":"yes","recycling_type":"container"}},"type":"Feature"},
	{"geometry":{"coordinates":[13.877896,53.329735],"type":"Point"},"properties":{"osm_id":"5516626438","tag":{"amenity":"recycling","recycling:clothes":"yes","recycling_type":"container"}},"type":"Feature"},
	{"geometry":{"coordinates":[13.877841,53.329753],"type":"Point"},"properties":{"osm_id":"5516626439","tag":{"amenity":"recycling","recycling:glass":"yes","recycling_type":"container"}},"type":"Feature"},
	{"geometry":{"coordinates":[13.871978,53.325844],"type":"Point"},"properties":{"osm_id":"5519152460","tag":{"amenity":"recycling","recycling:glass":"yes","recycling_type":"container"}},"type":"Feature"},
	{"geometry":{"coordinates":[13.871956,53.32585],"type":"Point"},"properties":{"osm_id":"5519152461","tag":{"amenity":"recycling","recycling:glass":"yes","recycling_type":"container"}},"type":"Feature"},
	{"geometry":{"coordinates":[13.871979,53.32586],"type":"Point"},"properties":{"osm_id":"5519152462","tag":{"amenity":"recycling","recycling:clothes":"yes","recycling_type":"container"}},"type":"Feature"},
	{"geometry":{"coordinates":[13.871985,53.325852],"type":"Point"},"properties":{"osm_id":"5519152463","tag":{"amenity":"recycling","recycling:glass":"yes","recycling_type":"container"}},"type":"Feature"},
	{"geometry":{"coordinates":[13.871964,53.325841],"type":"Point"},"properties":{"osm_id":"5519152464","tag":{"amenity":"recycling","recycling:clothes":"yes","recycling_type":"container"}},"type":"Feature"},
	{"geometry":{"coordinates":[13.871963,53.325858],"type":"Point"},"properties":{"osm_id":"5519152465","tag":{"amenity":"recycling","recycling:glass":"yes","recycling_type":"container"}},"type":"Feature"},
	{"geometry":{"coordinates":[13.865975,53.323563],"type":"Point"},"properties":{"osm_id":"6047586653","tag":{"amenity":"recycling","recycling:glass":"yes","recycling_type":"container"}},"type":"Feature"},
	{"geometry":{"coordinates":[13.865988,53.323592],"type":"Point"},"properties":{"osm_id":"6047586654","tag":{"amenity":"recycling","recycling:glass":"yes","recycling_type":"container"}},"type":"Feature"},
	{"geometry":{"coordinates":[13.86291,53.322561],"type":"Point"},"properties":{"osm_id":"6935939330","tag":{"amenity":"recycling","recycling:clothes":"yes","recycling_type":"container"}},"type":"Feature"},
	{"geometry":{"coordinates":[13.850977,53.315186],"type":"Point"},"properties":{"osm_id":"6937979700","tag":{"amenity":"recycling","recycling:glass":"yes","recycling_type":"container"}},"type":"Feature"},
	{"geometry":{"coordinates":[13.863974,53.310784],"type":"Point"},"properties":{"osm_id":"6939524696","tag":{"amenity":"waste_basket"}},"type":"Feature"},
	{"geometry":{"coordinates":[13.865265,53.310864],"type":"Point"},"properties":{"osm_id":"6939526453","tag":{"amenity":"waste_basket"}},"type":"Feature"},
	{"geometry":{"coordinates":[13.865068,53.310815],"type":"Point"},"properties":{"osm_id":"6939526454","tag":{"amenity":"waste_basket"}},"type":"Feature"},
	{"geometry":{"coordinates":[13.854393,53.320901],"type":"Point"},"properties":{"osm_id":"6939841609","tag":{"amenity":"recycling","recycling:plastic":"yes","recycling_type":"container"}},"type":"Feature"},
	{"geometry":{"coordinates":[13.854433,53.320898],"type":"Point"},"properties":{"osm_id":"6939841610","tag":{"amenity":"recycling","recycling:plastic":"yes","recycling_type":"container"}},"type":"Feature"},
	{"geometry":{"coordinates":[13.854538,53.320893],"type":"Point"},"properties":{"osm_id":"6939841611","tag":{"amenity":"recycling","recycling:clothes":"yes","recycling:glass":"yes","recycling:plastic":"yes","recycling_type":"container"}},"type":"Feature"},
	{"geometry":{"coordinates":[13.849956,53.319329],"type":"Point"},"properties":{"osm_id":"6939882543","tag":{"amenity":"recycling","recycling:clothes":"yes","recycling_type":"container"}},"type":"Feature"},
	{"geometry":{"coordinates":[13.849941,53.319297],"type":"Point"},"properties":{"osm_id":"6939882544","tag":{"amenity":"recycling","recycling:glass":"yes","recycling_type":"container"}},"type":"Feature"},
	{"geometry":{"coordinates":[13.852657,53.317983],"type":"Point"},"properties":{"osm_id":"6940024226","tag":{"amenity":"recycling","recycling:clothes":"yes","recycling:glass":"yes","recycling_type":"container"}},"type":"Feature"},
	{"geometry":{"coordinates":[13.848736,53.311422],"type":"Point"},"properties":{"osm_id":"6940059709","tag":{"amenity":"recycling","recycling:clothes":"yes","recycling_type":"container"}},"type":"Feature"},
	{"geometry":{"coordinates":[13.848713,53.311443],"type":"Point"},"properties":{"osm_id":"6940059710","tag":{"amenity":"recycling","recycling:glass":"yes","recycling_type":"container"}},"type":"Feature"},
	{"geometry":{"coordinates":[13.848694,53.311459],"type":"Point"},"properties":{"osm_id":"6940059711","tag":{"amenity":"recycling","recycling:glass":"yes","recycling_type":"container"}},"type":"Feature"},
	{"geometry":{"coordinates":[13.863575,53.316492],"type":"Point"},"properties":{"osm_id":"6942827039","tag":{"amenity":"waste_basket"}},"type":"Feature"},
	{"geometry":{"coordinates":[13.864566,53.31631],"type":"Point"},"properties":{"osm_id":"6942902690","tag":{"amenity":"waste_basket","winter_service":"no"}},"type":"Feature"},
	{"geometry":{"coordinates":[13.864545,53.315795],"type":"Point"},"properties":{"osm_id":"6942947872","tag":{"amenity":"waste_basket"}},"type":"Feature"},
	{"geometry":{"coordinates":[13.863785,53.316134],"type":"Point"},"properties":{"osm_id":"6942947875","tag":{"amenity":"waste_basket"}},"type":"Feature"},
	{"geometry":{"coordinates":[13.865313,53.31406],"type":"Point"},"properties":{"osm_id":"6942961822","tag":{"amenity":"waste_basket"}},"type":"Feature"},
	{"geometry":{"coordinates":[13.864733,53.314274],"type":"Point"},"properties":{"osm_id":"6942961826","tag":{"amenity":"waste_basket"}},"type":"Feature"},
	{"geometry":{"coordinates":[13.86416,53.314129],"type":"Point"},"properties":{"osm_id":"6943298343","tag":{"amenity":"waste_basket"}},"type":"Feature"},
	{"geometry":{"coordinates":[13.864481,53.314298],"type":"Point"},"properties":{"osm_id":"6943298344","tag":{"amenity":"waste_basket"}},"type":"Feature"},
	{"geometry":{"coordinates":[13.864471,53.314375],"type":"Point"},"properties":{"osm_id":"6943298346","tag":{"amenity":"waste_basket"}},"type":"Feature"},
	{"geometry":{"coordinates":[13.864461,53.314461],"type":"Point"},"properties":{"osm_id":"6943298348","tag":{"amenity":"waste_basket"}},"type":"Feature"},
	{"geometry":{"coordinates":[13.86349,53.314028],"type":"Point"},"properties":{"osm_id":"6943356411","tag":{"amenity":"waste_basket"}},"type":"Feature"},
	{"geometry":{"coordinates":[13.863274,53.316091],"type":"Point"},"properties":{"osm_id":"6943356417","tag":{"amenity":"waste_basket"}},"type":"Feature"},
	{"geometry":{"coordinates":[13.863816,53.315812],"type":"Point"},"properties":{"osm_id":"6943356419","tag":{"amenity":"waste_basket"}},"type":"Feature"},
	{"geometry":{"coordinates":[13.86388,53.315177],"type":"Point"},"properties":{"osm_id":"6943356421","tag":{"amenity":"waste_basket"}},"type":"Feature"},
	{"geometry":{"coordinates":[13.865854,53.311511],"type":"Point"},"properties":{"osm_id":"6943609478","tag":{"amenity":"waste_basket"}},"type":"Feature"},
	{"geometry":{"coordinates":[13.864585,53.310575],"type":"Point"},"properties":{"osm_id":"6943629364","tag":{"amenity":"waste_basket"}},"type":"Feature"},
	{"geometry":{"coordinates":[13.865079,53.311505],"type":"Point"},"properties":{"osm_id":"6943629367","tag":{"amenity":"waste_basket"}},"type":"Feature"},
	{"geometry":{"coordinates":[13.863603,53.311912],"type":"Point"},"properties":{"osm_id":"6943635381","tag":{"amenity":"waste_basket"}},"type":"Feature"},
	{"geometry":{"coordinates":[13.86531,53.312156],"type":"Point"},"properties":{"osm_id":"6943741870","tag":{"amenity":"waste_basket"}},"type":"Feature"},
	{"geometry":{"coordinates":[13.865119,53.312218],"type":"Point"},"properties":{"osm_id":"6943741873","tag":{"amenity":"waste_basket"}},"type":"Feature"},
	{"geometry":{"coordinates":[13.864181,53.312255],"type":"Point"},"properties":{"osm_id":"6943741876","tag":{"amenity":"waste_basket"}},"type":"Feature"},
	{"geometry":{"coordinates":[13.86476,53.310101],"type":"Point"},"properties":{"osm_id":"6943764045","tag":{"amenity":"waste_basket"}},"type":"Feature"},
	{"geometry":{"coordinates":[13.863671,53.310505],"type":"Point"},"properties":{"osm_id":"6943764047","tag":{"amenity":"waste_basket"}},"type":"Feature"},
	{"geometry":{"coordinates":[13.864934,53.312447],"type":"Point"},"properties":{"osm_id":"6943810530","tag":{"amenity":"waste_basket"}},"type":"Feature"},
	{"geometry":{"coordinates":[13.864768,53.312132],"type":"Point"},"properties":{"osm_id":"6943810887","tag":{"amenity":"waste_basket"}},"type":"Feature"},
	{"geometry":{"coordinates":[13.862808,53.304186],"type":"Point"},"properties":{"osm_id":"6943965888","tag":{"amenity":"waste_basket"}},"type":"Feature"},
	{"geometry":{"coordinates":[13.862414,53.304853],"type":"Point"},"properties":{"osm_id":"6943965890","tag":{"amenity":"waste_basket"}},"type":"Feature"},
	{"geometry":{"coordinates":[13.861589,53.306128],"type":"Point"},"properties":{"osm_id":"6943965894","tag":{"amenity":"waste_basket"}},"type":"Feature"}
]
}
