{
"type": "FeatureCollection",
"features": [
	{"geometry":{"coordinates":[13.816503,52.486593],"type":"Point"},"properties":{"barrier":"gate","osm_id":"3654875418"},"type":"Feature"},
	{"geometry":{"coordinates":[13.816623,52.486866],"type":"Point"},"properties":{"barrier":"gate","osm_id":"3654875942"},"type":"Feature"},
	{"geometry":{"coordinates":[13.816692,52.486947],"type":"Point"},"properties":{"barrier":"gate","osm_id":"3654875949"},"type":"Feature"},
	{"geometry":{"coordinates":[13.863874,52.522067],"type":"Point"},"properties":{"osm_id":"4771651823","tag":{"amenity":"waste_basket","bench":"no","table":"no","tourism":"picnic_site"}},"type":"Feature"},
	{"geometry":{"coordinates":[13.860614,52.518263],"type":"Point"},"properties":{"osm_id":"4771651824","tag":{"amenity":"waste_basket","bench":"yes","shelter":"no","table":"yes","tourism":"picnic_site"}},"type":"Feature"},
	{"geometry":{"coordinates":[13.863855,52.524209],"type":"Point"},"properties":{"osm_id":"5894665124","tag":{"amenity":"waste_basket","waste":"trash"}},"type":"Feature"},
	{"geometry":{"coordinates":[13.818896,52.533741],"type":"Point"},"properties":{"osm_id":"6208918300","tag":{"amenity":"recycling","recycling:clothes":"yes","recycling:glass_bottles":"yes","recycling:shoes":"yes","recycling_type":"container"}},"type":"Feature"},
	{"geometry":{"coordinates":[13.865928,52.5259],"type":"Point"},"properties":{"osm_id":"6535250395","tag":{"amenity":"waste_basket","waste":"trash"}},"type":"Feature"},
	{"geometry":{"coordinates":[13.838736,52.526042],"type":"Point"},"properties":{"osm_id":"8197865274","tag":{"amenity":"recycling","opening_hours:covid19":"same","operator":"Entsorgungsbetrieb MOL","recycling:glass_bottles":"yes","recycling_type":"container"}},"type":"Feature"},
	{"geometry":{"coordinates":[13.886394,52.530136],"type":"Point"},"properties":{"osm_id":"8505682008","tag":{"amenity":"recycling","recycling:clothes":"yes","recycling_type":"container"}},"type":"Feature"}
]
}
