{
"type": "FeatureCollection",
"features": [
	{"geometry":{"coordinates":[13.879311,46.602597],"type":"Point"},"properties":{"osm_id":"426869152","tag":{"amenity":"recycling","recycling:cans":"yes","recycling:glass":"yes","recycling_type":"container"}},"type":"Feature"},
	{"geometry":{"coordinates":[13.840134,46.599056],"type":"Point"},"properties":{"osm_id":"746269419","tag":{"amenity":"recycling","recycling:clothes":"yes"}},"type":"Feature"},
	{"geometry":{"coordinates":[13.845229,46.600438],"type":"Point"},"properties":{"osm_id":"746284800","tag":{"amenity":"recycling","recycling:cans":"yes","recycling:clothes":"yes","recycling:glass":"yes","recycling:scrap_metal":"yes"}},"type":"Feature"},
	{"geometry":{"coordinates":[13.850032,46.595219],"type":"Point"},"properties":{"osm_id":"763988723","tag":{"amenity":"recycling","recycling:cans":"yes","recycling:clothes":"yes","recycling:glass":"yes","recycling:paper":"yes","recycling:scrap_metal":"yes"}},"type":"Feature"},
	{"geometry":{"coordinates":[13.835824,46.615306],"type":"Point"},"properties":{"osm_id":"905466738","tag":{"amenity":"recycling","recycling:cans":"yes","recycling:glass":"yes","recycling:glass_bottles":"yes"}},"type":"Feature"},
	{"geometry":{"coordinates":[13.850608,46.601509],"type":"Point"},"properties":{"osm_id":"1208684653","tag":{"amenity":"recycling","recycling:glass":"yes","recycling:paper":"yes","recycling:scrap_metal":"yes"}},"type":"Feature"},
	{"geometry":{"coordinates":[13.841488,46.610851],"type":"Point"},"properties":{"osm_id":"2402812837","tag":{"amenity":"waste_basket"}},"type":"Feature"},
	{"geometry":{"coordinates":[13.840395,46.612879],"type":"Point"},"properties":{"osm_id":"2402812845","tag":{"amenity":"waste_basket"}},"type":"Feature"},
	{"geometry":{"coordinates":[13.861163,46.615076],"type":"Point"},"properties":{"osm_id":"2896116407","tag":{"amenity":"recycling","recycling:glass":"yes"}},"type":"Feature"},
	{"geometry":{"coordinates":[13.861359,46.617399],"type":"Point"},"properties":{"osm_id":"2896116408","tag":{"amenity":"recycling","recycling:glass":"yes"}},"type":"Feature"},
	{"geometry":{"coordinates":[13.858149,46.617251],"type":"Point"},"properties":{"osm_id":"2896116409","tag":{"amenity":"recycling","recycling:glass":"yes"}},"type":"Feature"},
	{"geometry":{"coordinates":[13.845068,46.616131],"type":"Point"},"properties":{"osm_id":"3586477385","tag":{"amenity":"recycling","recycling:cans":"yes","recycling:glass":"yes","recycling_type":"container"}},"type":"Feature"},
	{"geometry":{"coordinates":[13.845166,46.606709],"type":"Point"},"properties":{"osm_id":"3813025304","tag":{"amenity":"waste_basket"}},"type":"Feature"},
	{"geometry":{"coordinates":[13.845118,46.607335],"type":"Point"},"properties":{"osm_id":"3813735355","tag":{"amenity":"waste_basket"}},"type":"Feature"},
	{"geometry":{"coordinates":[13.845523,46.606864],"type":"Point"},"properties":{"osm_id":"3985774157","tag":{"amenity":"recycling","operator":"Villacher Saubermacher","recycling:cans":"no","recycling:clothes":"no","recycling:glass":"no","recycling:glass_bottles":"no","recycling:paper":"no","recycling:plastic":"no","recycling_type":"container"}},"type":"Feature"},
	{"geometry":{"coordinates":[13.845517,46.606844],"type":"Point"},"properties":{"osm_id":"3985774158","tag":{"amenity":"recycling","operator":"Villacher Saubermacher","recycling:cans":"no","recycling:clothes":"no","recycling:glass":"no","recycling:glass_bottles":"no","recycling:paper":"yes","recycling:plastic":"no","recycling_type":"container"}},"type":"Feature"},
	{"geometry":{"coordinates":[13.845514,46.606833],"type":"Point"},"properties":{"osm_id":"3985774159","tag":{"amenity":"recycling","operator":"Villacher Saubermacher","recycling:cans":"no","recycling:clothes":"no","recycling:glass":"no","recycling:glass_bottles":"no","recycling:paper":"no","recycling:plastic":"yes","recycling_type":"container"}},"type":"Feature"},
	{"geometry":{"coordinates":[13.844942,46.60644],"type":"Point"},"properties":{"osm_id":"3987646171","tag":{"amenity":"waste_basket"}},"type":"Feature"},
	{"geometry":{"coordinates":[13.823596,46.599803],"type":"Point"},"properties":{"osm_id":"4965976167","tag":{"amenity":"recycling","recycling:clothes":"yes","recycling:glass":"yes","recycling:glass_bottles":"yes","recycling_type":"container"}},"type":"Feature"},
	{"geometry":{"coordinates":[13.825976,46.594905],"type":"Point"},"properties":{"osm_id":"5129037703","tag":{"amenity":"waste_basket"}},"type":"Feature"},
	{"geometry":{"coordinates":[13.823573,46.599352],"type":"Point"},"properties":{"osm_id":"5129037704","tag":{"amenity":"waste_basket"}},"type":"Feature"},
	{"geometry":{"coordinates":[13.874158,46.603111],"type":"Point"},"properties":{"osm_id":"5134542809","tag":{"amenity":"waste_basket"}},"type":"Feature"},
	{"geometry":{"coordinates":[13.842131,46.612558],"type":"Point"},"properties":{"osm_id":"5135346578","tag":{"amenity":"waste_basket"}},"type":"Feature"},
	{"geometry":{"coordinates":[13.843191,46.61255],"type":"Point"},"properties":{"osm_id":"5135346579","tag":{"amenity":"waste_basket"}},"type":"Feature"},
	{"geometry":{"coordinates":[13.841249,46.612706],"type":"Point"},"properties":{"osm_id":"5135346580","tag":{"amenity":"waste_basket"}},"type":"Feature"},
	{"geometry":{"coordinates":[13.839178,46.613071],"type":"Point"},"properties":{"osm_id":"5135346582","tag":{"amenity":"waste_basket"}},"type":"Feature"},
	{"geometry":{"coordinates":[13.838724,46.613039],"type":"Point"},"properties":{"osm_id":"5135346583","tag":{"amenity":"waste_basket"}},"type":"Feature"},
	{"geometry":{"coordinates":[13.83798,46.613764],"type":"Point"},"properties":{"osm_id":"5135346587","tag":{"amenity":"waste_basket"}},"type":"Feature"},
	{"geometry":{"coordinates":[13.837296,46.615095],"type":"Point"},"properties":{"osm_id":"5135346605","tag":{"amenity":"waste_basket"}},"type":"Feature"},
	{"geometry":{"coordinates":[13.82797,46.599958],"type":"Point"},"properties":{"osm_id":"5135354518","tag":{"amenity":"waste_basket"}},"type":"Feature"},
	{"geometry":{"coordinates":[13.833271,46.616477],"type":"Point"},"properties":{"osm_id":"5137978676","tag":{"amenity":"waste_basket"}},"type":"Feature"},
	{"geometry":{"coordinates":[13.831947,46.616339],"type":"Point"},"properties":{"osm_id":"5137978677","tag":{"amenity":"waste_basket"}},"type":"Feature"},
	{"geometry":{"coordinates":[13.831183,46.614029],"type":"Point"},"properties":{"osm_id":"5137978678","tag":{"amenity":"waste_basket"}},"type":"Feature"},
	{"geometry":{"coordinates":[13.828463,46.600117],"type":"Point"},"properties":{"osm_id":"5149553600","tag":{"amenity":"waste_basket"}},"type":"Feature"},
	{"geometry":{"coordinates":[13.822789,46.599572],"type":"Point"},"properties":{"osm_id":"5149553601","tag":{"amenity":"waste_basket"}},"type":"Feature"},
	{"geometry":{"coordinates":[13.836797,46.615219],"type":"Point"},"properties":{"osm_id":"5178253221","tag":{"amenity":"waste_basket"}},"type":"Feature"},
	{"geometry":{"coordinates":[13.830437,46.614339],"type":"Point"},"properties":{"osm_id":"5178253224","tag":{"amenity":"waste_basket"}},"type":"Feature"},
	{"geometry":{"coordinates":[13.829846,46.609066],"type":"Point"},"properties":{"osm_id":"5178253229","tag":{"amenity":"recycling","recycling_type":"container"}},"type":"Feature"},
	{"geometry":{"coordinates":[13.829837,46.609031],"type":"Point"},"properties":{"osm_id":"5178253230","tag":{"amenity":"waste_basket"}},"type":"Feature"},
	{"geometry":{"coordinates":[13.828047,46.601513],"type":"Point"},"properties":{"osm_id":"5178253232","tag":{"amenity":"waste_basket"}},"type":"Feature"},
	{"geometry":{"coordinates":[13.827894,46.605145],"type":"Point"},"properties":{"osm_id":"5184147807","tag":{"amenity":"waste_basket"}},"type":"Feature"},
	{"geometry":{"coordinates":[13.826144,46.60443],"type":"Point"},"properties":{"osm_id":"5184149124","tag":{"amenity":"waste_basket"}},"type":"Feature"},
	{"geometry":{"coordinates":[13.830104,46.602391],"type":"Point"},"properties":{"osm_id":"5188978590","tag":{"amenity":"waste_basket"}},"type":"Feature"},
	{"geometry":{"coordinates":[13.830859,46.604373],"type":"Point"},"properties":{"osm_id":"5188978591","tag":{"amenity":"waste_basket"}},"type":"Feature"},
	{"geometry":{"coordinates":[13.831789,46.615637],"type":"Point"},"properties":{"osm_id":"5188996776","tag":{"amenity":"recycling","recycling_type":"container"}},"type":"Feature"},
	{"geometry":{"coordinates":[13.841599,46.60731],"type":"Point"},"properties":{"osm_id":"5195862900","tag":{"amenity":"waste_basket"}},"type":"Feature"},
	{"geometry":{"coordinates":[13.842381,46.607159],"type":"Point"},"properties":{"osm_id":"5195862901","tag":{"amenity":"waste_basket"}},"type":"Feature"},
	{"geometry":{"coordinates":[13.84175,46.607134],"type":"Point"},"properties":{"osm_id":"5195862902","tag":{"amenity":"waste_basket"}},"type":"Feature"},
	{"geometry":{"coordinates":[13.840326,46.603374],"type":"Point"},"properties":{"osm_id":"5195862903","tag":{"amenity":"waste_basket"}},"type":"Feature"},
	{"geometry":{"coordinates":[13.840196,46.603475],"type":"Point"},"properties":{"osm_id":"5195862905","tag":{"amenity":"waste_basket"}},"type":"Feature"},
	{"geometry":{"coordinates":[13.835236,46.599845],"type":"Point"},"properties":{"osm_id":"5195862909","tag":{"amenity":"waste_basket"}},"type":"Feature"},
	{"geometry":{"coordinates":[13.860062,46.616654],"type":"Point"},"properties":{"osm_id":"5196578624","tag":{"amenity":"waste_basket"}},"type":"Feature"},
	{"geometry":{"coordinates":[13.84815,46.606622],"type":"Point"},"properties":{"osm_id":"5196578631","tag":{"amenity":"waste_basket"}},"type":"Feature"},
	{"geometry":{"coordinates":[13.826534,46.595579],"type":"Point"},"properties":{"osm_id":"5234789143","tag":{"amenity":"waste_basket"}},"type":"Feature"},
	{"geometry":{"coordinates":[13.842712,46.609058],"type":"Point"},"properties":{"osm_id":"5240926143","tag":{"amenity":"waste_basket"}},"type":"Feature"},
	{"geometry":{"coordinates":[13.827178,46.600201],"type":"Point"},"properties":{"osm_id":"5244370222","tag":{"amenity":"waste_basket"}},"type":"Feature"},
	{"geometry":{"coordinates":[13.84105,46.609393],"type":"Point"},"properties":{"osm_id":"5244383937","tag":{"amenity":"waste_basket"}},"type":"Feature"},
	{"geometry":{"coordinates":[13.84111,46.609072],"type":"Point"},"properties":{"osm_id":"5244383938","tag":{"amenity":"waste_basket"}},"type":"Feature"},
	{"geometry":{"coordinates":[13.840943,46.602988],"type":"Point"},"properties":{"osm_id":"5244397940","tag":{"amenity":"waste_basket"}},"type":"Feature"},
	{"geometry":{"coordinates":[13.842023,46.602377],"type":"Point"},"properties":{"osm_id":"5244397941","tag":{"amenity":"waste_basket"}},"type":"Feature"},
	{"geometry":{"coordinates":[13.84403,46.61545],"type":"Point"},"properties":{"osm_id":"5263722531","tag":{"amenity":"waste_basket"}},"type":"Feature"},
	{"geometry":{"coordinates":[13.841598,46.612689],"type":"Point"},"properties":{"osm_id":"5263724207","tag":{"amenity":"waste_basket"}},"type":"Feature"},
	{"geometry":{"coordinates":[13.831513,46.608359],"type":"Point"},"properties":{"osm_id":"5263774476","tag":{"amenity":"waste_basket"}},"type":"Feature"},
	{"geometry":{"coordinates":[13.83371,46.613541],"type":"Point"},"properties":{"osm_id":"5263841114","tag":{"amenity":"waste_basket"}},"type":"Feature"},
	{"geometry":{"coordinates":[13.835006,46.613311],"type":"Point"},"properties":{"osm_id":"5263841115","tag":{"amenity":"waste_basket"}},"type":"Feature"},
	{"geometry":{"coordinates":[13.836862,46.613183],"type":"Point"},"properties":{"osm_id":"5263841116","tag":{"amenity":"waste_basket"}},"type":"Feature"},
	{"geometry":{"coordinates":[13.841982,46.614018],"type":"Point"},"properties":{"osm_id":"5263841117","tag":{"amenity":"waste_basket"}},"type":"Feature"},
	{"geometry":{"coordinates":[13.842928,46.615603],"type":"Point"},"properties":{"osm_id":"5263841118","tag":{"amenity":"waste_basket"}},"type":"Feature"},
	{"geometry":{"coordinates":[13.847771,46.615212],"type":"Point"},"properties":{"osm_id":"5263885437","tag":{"amenity":"waste_basket"}},"type":"Feature"},
	{"geometry":{"coordinates":[13.830907,46.599015],"type":"Point"},"properties":{"osm_id":"5285809308","tag":{"amenity":"waste_basket"}},"type":"Feature"},
	{"geometry":{"coordinates":[13.843036,46.609697],"type":"Point"},"properties":{"osm_id":"5285836640","tag":{"amenity":"recycling","recycling_type":"container"}},"type":"Feature"},
	{"geometry":{"coordinates":[13.843251,46.617758],"type":"Point"},"properties":{"osm_id":"5297876201","tag":{"amenity":"waste_basket"}},"type":"Feature"},
	{"geometry":{"coordinates":[13.845198,46.617839],"type":"Point"},"properties":{"osm_id":"5297876202","tag":{"amenity":"waste_basket"}},"type":"Feature"},
	{"geometry":{"coordinates":[13.842895,46.617346],"type":"Point"},"properties":{"osm_id":"5299333140","tag":{"amenity":"waste_basket"}},"type":"Feature"},
	{"geometry":{"coordinates":[13.835547,46.614993],"type":"Point"},"properties":{"osm_id":"5299339368","tag":{"amenity":"waste_basket"}},"type":"Feature"},
	{"geometry":{"coordinates":[13.828956,46.600846],"type":"Point"},"properties":{"osm_id":"5316199766","tag":{"amenity":"recycling","recycling_type":"container"}},"type":"Feature"},
	{"geometry":{"coordinates":[13.842885,46.614165],"type":"Point"},"properties":{"osm_id":"5333730607","tag":{"amenity":"waste_basket"}},"type":"Feature"},
	{"geometry":{"coordinates":[13.842403,46.609699],"type":"Point"},"properties":{"osm_id":"5333732418","tag":{"amenity":"waste_basket"}},"type":"Feature"},
	{"geometry":{"coordinates":[13.859339,46.589962],"type":"Point"},"properties":{"osm_id":"5337404440","tag":{"amenity":"recycling","recycling_type":"container"}},"type":"Feature"},
	{"geometry":{"coordinates":[13.845564,46.611964],"type":"Point"},"properties":{"osm_id":"5375819907","tag":{"amenity":"waste_basket"}},"type":"Feature"},
	{"geometry":{"coordinates":[13.838135,46.614344],"type":"Point"},"properties":{"osm_id":"5375822150","tag":{"amenity":"waste_basket"}},"type":"Feature"},
	{"geometry":{"coordinates":[13.839726,46.611832],"type":"Point"},"properties":{"osm_id":"5375825454","tag":{"amenity":"waste_basket"}},"type":"Feature"},
	{"geometry":{"coordinates":[13.824187,46.603377],"type":"Point"},"properties":{"osm_id":"5401130297","tag":{"amenity":"waste_basket"}},"type":"Feature"},
	{"geometry":{"coordinates":[13.843406,46.611394],"type":"Point"},"properties":{"osm_id":"5404015688","tag":{"access":"private","amenity":"recycling","recycling_type":"container"}},"type":"Feature"},
	{"geometry":{"coordinates":[13.836273,46.600435],"type":"Point"},"properties":{"osm_id":"5453855070","tag":{"amenity":"recycling","recycling_type":"container"}},"type":"Feature"},
	{"geometry":{"coordinates":[13.836002,46.61317],"type":"Point"},"properties":{"osm_id":"5506126854","tag":{"amenity":"recycling","recycling:glass":"yes","recycling:glass_bottles":"yes","recycling_type":"container"}},"type":"Feature"},
	{"geometry":{"coordinates":[13.828244,46.602642],"type":"Point"},"properties":{"osm_id":"5539993361","tag":{"amenity":"waste_basket"}},"type":"Feature"},
	{"geometry":{"coordinates":[13.8583,46.610497],"type":"Point"},"properties":{"osm_id":"5838949597","tag":{"amenity":"recycling","recycling:glass":"yes","recycling_type":"container"}},"type":"Feature"},
	{"geometry":{"coordinates":[13.856329,46.609812],"type":"Point"},"properties":{"osm_id":"5838949598","tag":{"amenity":"recycling","recycling:house_waste":"yes","recycling_type":"container"}},"type":"Feature"},
	{"geometry":{"coordinates":[13.856387,46.609831],"type":"Point"},"properties":{"osm_id":"5838949599","tag":{"amenity":"recycling","recycling:organic_waste":"yes","recycling_type":"container"}},"type":"Feature"},
	{"geometry":{"coordinates":[13.829893,46.591225],"type":"Point"},"properties":{"osm_id":"5910028013","tag":{"amenity":"waste_basket"}},"type":"Feature"},
	{"geometry":{"coordinates":[13.835444,46.615046],"type":"Point"},"properties":{"osm_id":"5943598134","tag":{"amenity":"waste_basket"}},"type":"Feature"},
	{"geometry":{"coordinates":[13.834329,46.615105],"type":"Point"},"properties":{"osm_id":"5943598140","tag":{"amenity":"waste_basket"}},"type":"Feature"},
	{"geometry":{"coordinates":[13.820682,46.591513],"type":"Point"},"properties":{"osm_id":"5961841588","tag":{"amenity":"waste_basket"}},"type":"Feature"},
	{"geometry":{"coordinates":[13.835736,46.615334],"type":"Point"},"properties":{"osm_id":"6007271515","tag":{"amenity":"waste_basket"}},"type":"Feature"},
	{"geometry":{"coordinates":[13.829424,46.59184],"type":"Point"},"properties":{"osm_id":"6020167027","tag":{"amenity":"waste_basket"}},"type":"Feature"},
	{"geometry":{"coordinates":[13.841035,46.611135],"type":"Point"},"properties":{"osm_id":"6039891444","tag":{"amenity":"recycling","recycling:glass":"yes","recycling:glass_bottles":"yes","recycling_type":"container"}},"type":"Feature"},
	{"geometry":{"coordinates":[13.840924,46.611052],"type":"Point"},"properties":{"osm_id":"6039891445","tag":{"amenity":"waste_basket"}},"type":"Feature"},
	{"geometry":{"coordinates":[13.85419,46.609365],"type":"Point"},"properties":{"osm_id":"6697477252","tag":{"amenity":"waste_basket","information":"guidepost","tourism":"information"}},"type":"Feature"},
	{"geometry":{"coordinates":[13.824215,46.600692],"type":"Point"},"properties":{"osm_id":"6858560234","tag":{"amenity":"waste_basket"}},"type":"Feature"}
]
}
