{
"type": "FeatureCollection",
"features": [
	{"geometry":{"coordinates":[-87.890122,43.051862],"type":"Point"},"properties":{"osm_id":"1339014527","tag":{"amenity":"waste_basket"}},"type":"Feature"},
	{"geometry":{"coordinates":[-87.873617,43.063754],"type":"Point"},"properties":{"osm_id":"4057040249","tag":{"amenity":"waste_basket"}},"type":"Feature"},
	{"geometry":{"coordinates":[-87.872724,43.065584],"type":"Point"},"properties":{"osm_id":"4060052068","tag":{"amenity":"waste_basket"}},"type":"Feature"},
	{"geometry":{"coordinates":[-87.870792,43.068643],"type":"Point"},"properties":{"osm_id":"4064321319","tag":{"amenity":"waste_basket"}},"type":"Feature"},
	{"geometry":{"coordinates":[-87.871229,43.068838],"type":"Point"},"properties":{"osm_id":"4064583194","tag":{"amenity":"waste_basket"}},"type":"Feature"},
	{"geometry":{"coordinates":[-87.870561,43.064781],"type":"Point"},"properties":{"osm_id":"4065830332","tag":{"amenity":"waste_basket"}},"type":"Feature"},
	{"geometry":{"coordinates":[-87.889178,43.043976],"type":"Point"},"properties":{"osm_id":"4310299488","tag":{"amenity":"waste_basket"}},"type":"Feature"},
	{"geometry":{"coordinates":[-87.886898,43.05519],"type":"Point"},"properties":{"osm_id":"4548235927","tag":{"amenity":"waste_basket"}},"type":"Feature"},
	{"geometry":{"coordinates":[-87.887931,43.054085],"type":"Point"},"properties":{"osm_id":"4548706584","tag":{"amenity":"waste_basket"}},"type":"Feature"},
	{"geometry":{"coordinates":[-87.89007,43.060289],"type":"Point"},"properties":{"osm_id":"6348446216","tag":{"amenity":"waste_basket"}},"type":"Feature"},
	{"geometry":{"coordinates":[-87.889484,43.060082],"type":"Point"},"properties":{"osm_id":"6351292201","tag":{"amenity":"waste_basket"}},"type":"Feature"},
	{"geometry":{"coordinates":[-87.890141,43.060019],"type":"Point"},"properties":{"osm_id":"6351292997","tag":{"amenity":"waste_basket"}},"type":"Feature"},
	{"geometry":{"coordinates":[-87.888214,43.059999],"type":"Point"},"properties":{"osm_id":"6351404799","tag":{"amenity":"waste_basket"}},"type":"Feature"},
	{"geometry":{"coordinates":[-87.885118,43.058598],"type":"Point"},"properties":{"osm_id":"6417099183","tag":{"amenity":"waste_basket"}},"type":"Feature"},
	{"geometry":{"coordinates":[-87.887971,43.059984],"type":"Point"},"properties":{"osm_id":"6419812782","tag":{"amenity":"waste_basket"}},"type":"Feature"},
	{"geometry":{"coordinates":[-87.886647,43.060064],"type":"Point"},"properties":{"osm_id":"6431696240","tag":{"amenity":"waste_basket"}},"type":"Feature"},
	{"geometry":{"coordinates":[-87.88626,43.059429],"type":"Point"},"properties":{"osm_id":"6431851594","tag":{"amenity":"waste_basket"}},"type":"Feature"},
	{"geometry":{"coordinates":[-87.885901,43.060051],"type":"Point"},"properties":{"osm_id":"6431992852","tag":{"amenity":"waste_basket"}},"type":"Feature"},
	{"geometry":{"coordinates":[-87.885931,43.059768],"type":"Point"},"properties":{"osm_id":"6431992991","tag":{"amenity":"waste_basket"}},"type":"Feature"},
	{"geometry":{"coordinates":[-87.886118,43.05928],"type":"Point"},"properties":{"osm_id":"6432106520","tag":{"amenity":"waste_basket"}},"type":"Feature"},
	{"geometry":{"coordinates":[-87.884656,43.060006],"type":"Point"},"properties":{"osm_id":"6515656023","tag":{"amenity":"waste_basket"}},"type":"Feature"},
	{"geometry":{"coordinates":[-87.885241,43.060038],"type":"Point"},"properties":{"osm_id":"6515656035","tag":{"amenity":"waste_basket"}},"type":"Feature"},
	{"geometry":{"coordinates":[-87.884411,43.059691],"type":"Point"},"properties":{"osm_id":"6515677623","tag":{"amenity":"waste_basket"}},"type":"Feature"},
	{"geometry":{"coordinates":[-87.887004,43.060214],"type":"Point"},"properties":{"osm_id":"6522133306","tag":{"amenity":"waste_basket"}},"type":"Feature"},
	{"geometry":{"coordinates":[-87.887414,43.060218],"type":"Point"},"properties":{"osm_id":"6522180192","tag":{"amenity":"waste_basket"}},"type":"Feature"},
	{"geometry":{"coordinates":[-87.885719,43.060866],"type":"Point"},"properties":{"osm_id":"6530558647","tag":{"amenity":"waste_basket"}},"type":"Feature"},
	{"geometry":{"coordinates":[-87.885487,43.060222],"type":"Point"},"properties":{"osm_id":"6530770701","tag":{"amenity":"waste_basket"}},"type":"Feature"},
	{"geometry":{"coordinates":[-87.883309,43.060783],"type":"Point"},"properties":{"osm_id":"6532389761","tag":{"amenity":"waste_basket","covered":"yes"}},"type":"Feature"},
	{"geometry":{"coordinates":[-87.884041,43.060251],"type":"Point"},"properties":{"osm_id":"6532389791","tag":{"amenity":"waste_basket","covered":"yes"}},"type":"Feature"},
	{"geometry":{"coordinates":[-87.883305,43.062176],"type":"Point"},"properties":{"osm_id":"6532858680","tag":{"amenity":"waste_basket"}},"type":"Feature"},
	{"geometry":{"coordinates":[-87.882868,43.063198],"type":"Point"},"properties":{"osm_id":"6532915264","tag":{"amenity":"waste_basket"}},"type":"Feature"},
	{"geometry":{"coordinates":[-87.87939,43.060146],"type":"Point"},"properties":{"osm_id":"6534520243","tag":{"amenity":"waste_basket","covered":"yes"}},"type":"Feature"},
	{"geometry":{"coordinates":[-87.878109,43.060217],"type":"Point"},"properties":{"osm_id":"6551098249","tag":{"amenity":"waste_basket"}},"type":"Feature"},
	{"geometry":{"coordinates":[-87.882085,43.055689],"type":"Point"},"properties":{"osm_id":"6593685267","tag":{"amenity":"waste_basket"}},"type":"Feature"},
	{"geometry":{"coordinates":[-87.883867,43.059175],"type":"Point"},"properties":{"osm_id":"7280429548","tag":{"amenity":"waste_basket","support":"wall_mounted","waste":"dog_excrement"}},"type":"Feature"}
]
}
