{
"type": "FeatureCollection",
"features": [
	{"geometry":{"coordinates":[52.306274,55.696661],"type":"Point"},"properties":{"name":"\u00d0\u009f\u00d1\u0083\u00d0\u00bd\u00d0\u00ba\u00d1\u0082 \u00d0\u00bf\u00d1\u0080\u00d0\u00b8\u00d1\u0091\u00d0\u00bc\u00d0\u00b0 \u00d0\u00b2\u00d1\u0082\u00d0\u00be\u00d1\u0080\u00d0\u00b8\u00d1\u0087\u00d0\u00bd\u00d0\u00be\u00d0\u00b3\u00d0\u00be \u00d1\u0081\u00d1\u008b\u00d1\u0080\u00d1\u008c\u00d1\u008f","osm_id":"1476538665","tag":{"amenity":"recycling","building":"yes","building:levels":"1","operator":"\u00d0\u009e\u00d0\u009e\u00d0\u009e \"\u00d0\u009f\u00d1\u0080\u00d0\u00be\u00d0\u00bc\u00d0\u0098\u00d0\u00bd\u00d0\u00b4\u00d1\u0083\u00d1\u0081\u00d1\u0082\u00d1\u0080\u00d0\u00b8\u00d1\u008f\"","recycling:glass":"yes","recycling:paper":"yes"}},"type":"Feature"},
	{"geometry":{"coordinates":[52.378496,55.715376],"type":"Point"},"properties":{"osm_id":"1661178476","tag":{"amenity":"waste_disposal","waste":"trash"}},"type":"Feature"},
	{"geometry":{"coordinates":[52.36291,55.726709],"type":"Point"},"properties":{"osm_id":"2328322350","tag":{"amenity":"recycling","recycling:batteries":"yes","recycling:low_energy_bulbs":"yes","recycling:thermometers":"yes","recycling_type":"container"}},"type":"Feature"},
	{"geometry":{"coordinates":[52.35314,55.700273],"type":"Point"},"properties":{"osm_id":"2336919233","tag":{"amenity":"recycling","recycling:batteries":"yes","recycling:low_energy_bulbs":"yes","recycling:thermometers":"yes","recycling_type":"container"}},"type":"Feature"},
	{"geometry":{"coordinates":[52.315218,55.696691],"type":"Point"},"properties":{"osm_id":"3691979343","tag":{"amenity":"waste_disposal"}},"type":"Feature"},
	{"geometry":{"coordinates":[52.296775,55.684707],"type":"Point"},"properties":{"osm_id":"3954835415","tag":{"amenity":"waste_disposal","waste":"trash"}},"type":"Feature"},
	{"geometry":{"coordinates":[52.296622,55.684714],"type":"Point"},"properties":{"osm_id":"3954835416","tag":{"amenity":"waste_disposal","waste":"trash"}},"type":"Feature"},
	{"geometry":{"coordinates":[52.318603,55.701843],"type":"Point"},"properties":{"osm_id":"4329837331","tag":{"amenity":"waste_disposal"}},"type":"Feature"},
	{"geometry":{"coordinates":[52.315069,55.698722],"type":"Point"},"properties":{"osm_id":"5013140122","tag":{"amenity":"recycling"}},"type":"Feature"},
	{"geometry":{"coordinates":[52.316585,55.707705],"type":"Point"},"properties":{"osm_id":"5160962128","tag":{"amenity":"waste_disposal"}},"type":"Feature"},
	{"geometry":{"coordinates":[52.318312,55.708086],"type":"Point"},"properties":{"osm_id":"5160962129","tag":{"amenity":"waste_disposal"}},"type":"Feature"},
	{"geometry":{"coordinates":[52.322075,55.710039],"type":"Point"},"properties":{"osm_id":"5160962130","tag":{"amenity":"waste_disposal"}},"type":"Feature"},
	{"geometry":{"coordinates":[52.323649,55.710828],"type":"Point"},"properties":{"osm_id":"5160962131","tag":{"amenity":"waste_disposal"}},"type":"Feature"},
	{"geometry":{"coordinates":[52.38255,55.71877],"type":"Point"},"properties":{"osm_id":"5206632453","tag":{"amenity":"waste_basket"}},"type":"Feature"},
	{"geometry":{"coordinates":[52.382755,55.718762],"type":"Point"},"properties":{"osm_id":"5206632454","tag":{"amenity":"waste_basket"}},"type":"Feature"},
	{"geometry":{"coordinates":[52.382645,55.718577],"type":"Point"},"properties":{"osm_id":"5206632455","tag":{"amenity":"waste_basket"}},"type":"Feature"},
	{"geometry":{"coordinates":[52.382717,55.718589],"type":"Point"},"properties":{"osm_id":"5206632456","tag":{"amenity":"waste_basket"}},"type":"Feature"},
	{"geometry":{"coordinates":[52.382583,55.719109],"type":"Point"},"properties":{"osm_id":"5206632459","tag":{"amenity":"waste_basket"}},"type":"Feature"},
	{"geometry":{"coordinates":[52.381941,55.718732],"type":"Point"},"properties":{"osm_id":"5206632585","tag":{"amenity":"waste_basket"}},"type":"Feature"},
	{"geometry":{"coordinates":[52.331319,55.714898],"type":"Point"},"properties":{"osm_id":"5208465944","tag":{"amenity":"waste_disposal"}},"type":"Feature"},
	{"geometry":{"coordinates":[52.332142,55.715414],"type":"Point"},"properties":{"osm_id":"5208465945","tag":{"amenity":"waste_disposal"}},"type":"Feature"},
	{"geometry":{"coordinates":[52.329169,55.713744],"type":"Point"},"properties":{"osm_id":"5208465946","tag":{"amenity":"waste_disposal"}},"type":"Feature"},
	{"geometry":{"coordinates":[52.325459,55.710721],"type":"Point"},"properties":{"osm_id":"5208465947","tag":{"amenity":"waste_disposal"}},"type":"Feature"},
	{"geometry":{"coordinates":[52.327611,55.711698],"type":"Point"},"properties":{"osm_id":"5208465948","tag":{"amenity":"waste_disposal"}},"type":"Feature"},
	{"geometry":{"coordinates":[52.327036,55.708273],"type":"Point"},"properties":{"osm_id":"5208465949","tag":{"amenity":"waste_disposal"}},"type":"Feature"},
	{"geometry":{"coordinates":[52.324577,55.709993],"type":"Point"},"properties":{"osm_id":"5208465950","tag":{"amenity":"waste_disposal"}},"type":"Feature"},
	{"geometry":{"coordinates":[52.326941,55.709767],"type":"Point"},"properties":{"osm_id":"5208465951","tag":{"amenity":"waste_disposal"}},"type":"Feature"},
	{"geometry":{"coordinates":[52.330853,55.709396],"type":"Point"},"properties":{"osm_id":"5208465952","tag":{"amenity":"waste_disposal"}},"type":"Feature"},
	{"geometry":{"coordinates":[52.325065,55.708531],"type":"Point"},"properties":{"osm_id":"5208465953","tag":{"amenity":"waste_disposal"}},"type":"Feature"},
	{"geometry":{"coordinates":[52.321347,55.70647],"type":"Point"},"properties":{"osm_id":"5208465954","tag":{"amenity":"waste_disposal"}},"type":"Feature"},
	{"geometry":{"coordinates":[52.317828,55.706018],"type":"Point"},"properties":{"osm_id":"5208465955","tag":{"amenity":"waste_disposal"}},"type":"Feature"},
	{"geometry":{"coordinates":[52.314949,55.707506],"type":"Point"},"properties":{"osm_id":"5208465956","tag":{"amenity":"waste_disposal"}},"type":"Feature"},
	{"geometry":{"coordinates":[52.313729,55.70887],"type":"Point"},"properties":{"osm_id":"5208465957","tag":{"amenity":"waste_disposal"}},"type":"Feature"},
	{"geometry":{"coordinates":[52.328031,55.707837],"type":"Point"},"properties":{"osm_id":"5208465968","tag":{"amenity":"waste_disposal"}},"type":"Feature"},
	{"geometry":{"coordinates":[52.315501,55.708134],"type":"Point"},"properties":{"osm_id":"5297513655","tag":{"amenity":"waste_disposal"}},"type":"Feature"}
]
}
