{
"type": "FeatureCollection",
"features": [
	{"geometry":{"coordinates":[5.085557,52.652882],"type":"Point"},"properties":{"osm_id":"500293444","tag":{"amenity":"recycling","operator":"HVC Groep","recycling:glass":"yes","recycling_type":"container"}},"type":"Feature"},
	{"geometry":{"coordinates":[5.086411,52.651277],"type":"Point"},"properties":{"osm_id":"500293447","tag":{"amenity":"recycling","recycling:glass":"yes","recycling_type":"container"}},"type":"Feature"},
	{"geometry":{"coordinates":[5.051585,52.64635],"type":"Point"},"properties":{"osm_id":"529536410","tag":{"amenity":"recycling","recycling:glass":"yes","recycling_type":"container"}},"type":"Feature"},
	{"geometry":{"coordinates":[5.054202,52.658206],"type":"Point"},"properties":{"osm_id":"529536411","tag":{"amenity":"recycling","recycling:glass":"yes","recycling_type":"container"}},"type":"Feature"},
	{"geometry":{"coordinates":[5.090254,52.661653],"type":"Point"},"properties":{"osm_id":"877722706","tag":{"amenity":"waste_basket"}},"type":"Feature"},
	{"geometry":{"coordinates":[5.07204,52.661678],"type":"Point"},"properties":{"osm_id":"1214710877","tag":{"amenity":"waste_basket"}},"type":"Feature"},
	{"geometry":{"coordinates":[5.074975,52.663051],"type":"Point"},"properties":{"osm_id":"1214711014","tag":{"amenity":"waste_basket"}},"type":"Feature"},
	{"geometry":{"coordinates":[5.03463,52.664698],"type":"Point"},"properties":{"osm_id":"1252526375","tag":{"amenity":"waste_basket"}},"type":"Feature"},
	{"geometry":{"coordinates":[5.072317,52.650807],"type":"Point"},"properties":{"osm_id":"2024228819","tag":{"amenity":"waste_basket","colour":"green"}},"type":"Feature"},
	{"geometry":{"coordinates":[5.056995,52.654017],"type":"Point"},"properties":{"osm_id":"2024228821","tag":{"amenity":"waste_basket","colour":"green"}},"type":"Feature"},
	{"geometry":{"coordinates":[5.08166,52.650696],"type":"Point"},"properties":{"osm_id":"2034311859","tag":{"amenity":"waste_basket","colour":"green"}},"type":"Feature"},
	{"geometry":{"coordinates":[5.083064,52.650982],"type":"Point"},"properties":{"osm_id":"2034311861","tag":{"amenity":"waste_basket"}},"type":"Feature"},
	{"geometry":{"coordinates":[5.087663,52.645798],"type":"Point"},"properties":{"osm_id":"2672515781","tag":{"amenity":"waste_basket","colour":"green"}},"type":"Feature"},
	{"geometry":{"coordinates":[5.087762,52.646173],"type":"Point"},"properties":{"osm_id":"2672515785","tag":{"amenity":"waste_basket","colour":"green"}},"type":"Feature"},
	{"geometry":{"coordinates":[5.048544,52.653238],"type":"Point"},"properties":{"osm_id":"3447457739","tag":{"amenity":"waste_basket"}},"type":"Feature"},
	{"geometry":{"coordinates":[5.048662,52.652436],"type":"Point"},"properties":{"osm_id":"3447457741","tag":{"amenity":"waste_basket"}},"type":"Feature"},
	{"geometry":{"coordinates":[5.054806,52.655517],"type":"Point"},"properties":{"osm_id":"3453783250","tag":{"amenity":"waste_basket"}},"type":"Feature"},
	{"geometry":{"coordinates":[5.064894,52.67151],"type":"Point"},"properties":{"name":"HVC Afvalbrengstation","osm_id":"4770881179","tag":{"amenity":"recycling","opening_hours":"Mo-Fr 08:30-16:15, Sa 08:30-14:30","phone":"0800 - 0700","recycling_type":"centre"}},"type":"Feature"},
	{"geometry":{"coordinates":[5.056987,52.691745],"type":"Point"},"properties":{"osm_id":"5963738727","tag":{"amenity":"recycling","recycling_type":"container"}},"type":"Feature"},
	{"geometry":{"coordinates":[5.085517,52.652923],"type":"Point"},"properties":{"osm_id":"6603383052","tag":{"amenity":"recycling","colour":"gray","material":"steel","operator":"HVC Groep","recycling:waste":"yes","recycling_type":"container"}},"type":"Feature"},
	{"geometry":{"coordinates":[5.052272,52.644747],"type":"Point"},"properties":{"osm_id":"6618880474","tag":{"amenity":"recycling","colour":"green","material":"steel","operator":"HVC Groep","recycling:glass":"yes","recycling_type":"container"}},"type":"Feature"},
	{"geometry":{"coordinates":[5.052215,52.644752],"type":"Point"},"properties":{"osm_id":"6618880475","tag":{"amenity":"recycling","colour":"white","material":"steel","operator":"HVC Groep","recycling:glass":"yes","recycling_type":"container"}},"type":"Feature"},
	{"geometry":{"coordinates":[5.092226,52.671052],"type":"Point"},"properties":{"osm_id":"6814121775","tag":{"amenity":"recycling","recycling:waste":"yes","recycling_type":"container"}},"type":"Feature"},
	{"geometry":{"coordinates":[5.09224,52.671033],"type":"Point"},"properties":{"osm_id":"6814121776","tag":{"amenity":"recycling","recycling:waste":"yes","recycling_type":"container"}},"type":"Feature"},
	{"geometry":{"coordinates":[5.092253,52.671017],"type":"Point"},"properties":{"osm_id":"6814121777","tag":{"amenity":"recycling","recycling:waste":"yes","recycling_type":"container"}},"type":"Feature"},
	{"geometry":{"coordinates":[5.054266,52.644581],"type":"Point"},"properties":{"osm_id":"6853790976","tag":{"amenity":"waste_basket"}},"type":"Feature"},
	{"geometry":{"coordinates":[5.056197,52.644079],"type":"Point"},"properties":{"osm_id":"6853792915","tag":{"amenity":"waste_basket"}},"type":"Feature"},
	{"geometry":{"coordinates":[5.059122,52.655111],"type":"Point"},"properties":{"osm_id":"6885282356","tag":{"amenity":"recycling","recycling_type":"container"}},"type":"Feature"},
	{"geometry":{"coordinates":[5.059156,52.655117],"type":"Point"},"properties":{"osm_id":"6885282357","tag":{"amenity":"recycling","recycling_type":"container"}},"type":"Feature"},
	{"geometry":{"coordinates":[5.059191,52.655125],"type":"Point"},"properties":{"osm_id":"6885282358","tag":{"amenity":"recycling","recycling_type":"container"}},"type":"Feature"},
	{"geometry":{"coordinates":[5.058194,52.656119],"type":"Point"},"properties":{"osm_id":"6897687124","tag":{"amenity":"recycling","recycling_type":"container"}},"type":"Feature"},
	{"geometry":{"coordinates":[5.05816,52.656114],"type":"Point"},"properties":{"osm_id":"6897687125","tag":{"amenity":"recycling","recycling_type":"container"}},"type":"Feature"},
	{"geometry":{"coordinates":[5.058122,52.656106],"type":"Point"},"properties":{"osm_id":"6897687126","tag":{"amenity":"recycling","recycling_type":"container"}},"type":"Feature"},
	{"geometry":{"coordinates":[5.060951,52.654367],"type":"Point"},"properties":{"osm_id":"6897687262","tag":{"amenity":"recycling","recycling_type":"container"}},"type":"Feature"},
	{"geometry":{"coordinates":[5.060915,52.654359],"type":"Point"},"properties":{"osm_id":"6897687263","tag":{"amenity":"recycling","recycling_type":"container"}},"type":"Feature"},
	{"geometry":{"coordinates":[5.06088,52.654357],"type":"Point"},"properties":{"osm_id":"6897687264","tag":{"amenity":"recycling","recycling_type":"container"}},"type":"Feature"},
	{"geometry":{"coordinates":[5.062669,52.653636],"type":"Point"},"properties":{"osm_id":"6897687275","tag":{"amenity":"recycling","recycling_type":"container"}},"type":"Feature"},
	{"geometry":{"coordinates":[5.062638,52.653631],"type":"Point"},"properties":{"osm_id":"6897687276","tag":{"amenity":"recycling","recycling_type":"container"}},"type":"Feature"},
	{"geometry":{"coordinates":[5.062604,52.653626],"type":"Point"},"properties":{"osm_id":"6897687277","tag":{"amenity":"recycling","recycling_type":"container"}},"type":"Feature"},
	{"geometry":{"coordinates":[5.059573,52.656955],"type":"Point"},"properties":{"osm_id":"6902388771","tag":{"amenity":"recycling","operator":"Gemeente Hoorn","recycling:waste":"yes","recycling_type":"container","wheelchair":"yes"}},"type":"Feature"},
	{"geometry":{"coordinates":[5.085501,52.652939],"type":"Point"},"properties":{"osm_id":"7021479543","tag":{"amenity":"recycling","colour":"gray","material":"steel","operator":"HVC Groep","recycling:waste":"yes","recycling_type":"container"}},"type":"Feature"},
	{"geometry":{"coordinates":[5.085542,52.6529],"type":"Point"},"properties":{"osm_id":"7021479544","tag":{"amenity":"recycling","operator":"HVC Groep","recycling:glass":"yes","recycling_type":"container"}},"type":"Feature"},
	{"geometry":{"coordinates":[5.085841,52.654122],"type":"Point"},"properties":{"osm_id":"7021494693","tag":{"amenity":"recycling","recycling:waste":"yes","recycling_type":"container"}},"type":"Feature"},
	{"geometry":{"coordinates":[5.085812,52.654107],"type":"Point"},"properties":{"osm_id":"7021494694","tag":{"amenity":"recycling","recycling:waste":"yes","recycling_type":"container"}},"type":"Feature"},
	{"geometry":{"coordinates":[5.089752,52.657425],"type":"Point"},"properties":{"osm_id":"7093491080","tag":{"amenity":"waste_basket"}},"type":"Feature"},
	{"geometry":{"coordinates":[5.086515,52.651311],"type":"Point"},"properties":{"osm_id":"7115287287","tag":{"amenity":"recycling","recycling:waste":"yes","recycling_type":"container"}},"type":"Feature"},
	{"geometry":{"coordinates":[5.086466,52.651294],"type":"Point"},"properties":{"osm_id":"7115287288","tag":{"amenity":"recycling","recycling:glass":"yes","recycling_type":"container"}},"type":"Feature"},
	{"geometry":{"coordinates":[5.085798,52.651059],"type":"Point"},"properties":{"osm_id":"7115287289","tag":{"amenity":"recycling","recycling:waste":"yes","recycling_type":"container"}},"type":"Feature"},
	{"geometry":{"coordinates":[5.085083,52.651687],"type":"Point"},"properties":{"osm_id":"7115287290","tag":{"amenity":"recycling","recycling:waste":"yes","recycling_type":"container"}},"type":"Feature"},
	{"geometry":{"coordinates":[5.082819,52.651091],"type":"Point"},"properties":{"osm_id":"7115287635","tag":{"amenity":"recycling","recycling:waste":"yes","recycling_type":"container"}},"type":"Feature"},
	{"geometry":{"coordinates":[5.08446,52.652358],"type":"Point"},"properties":{"osm_id":"7115287819","tag":{"amenity":"recycling","recycling:waste":"yes","recycling_type":"container"}},"type":"Feature"},
	{"geometry":{"coordinates":[5.084483,52.652342],"type":"Point"},"properties":{"osm_id":"7115287820","tag":{"amenity":"recycling","recycling:waste":"yes","recycling_type":"container"}},"type":"Feature"},
	{"geometry":{"coordinates":[5.084007,52.652084],"type":"Point"},"properties":{"osm_id":"7115287821","tag":{"amenity":"recycling","recycling:waste":"yes","recycling_type":"container"}},"type":"Feature"},
	{"geometry":{"coordinates":[5.08403,52.652068],"type":"Point"},"properties":{"osm_id":"7115287822","tag":{"amenity":"recycling","recycling:waste":"yes","recycling_type":"container"}},"type":"Feature"},
	{"geometry":{"coordinates":[5.087113,52.649543],"type":"Point"},"properties":{"osm_id":"7115288220","tag":{"amenity":"recycling","recycling:waste":"yes","recycling_type":"container"}},"type":"Feature"},
	{"geometry":{"coordinates":[5.079744,52.64869],"type":"Point"},"properties":{"osm_id":"7126106811","tag":{"amenity":"waste_basket"}},"type":"Feature"},
	{"geometry":{"coordinates":[5.048939,52.647536],"type":"Point"},"properties":{"osm_id":"7146171763","tag":{"amenity":"recycling","recycling:waste":"yes","recycling_type":"container"}},"type":"Feature"},
	{"geometry":{"coordinates":[5.048869,52.647517],"type":"Point"},"properties":{"osm_id":"7146171764","tag":{"amenity":"recycling","recycling:waste":"yes","recycling_type":"container"}},"type":"Feature"},
	{"geometry":{"coordinates":[5.090387,52.646724],"type":"Point"},"properties":{"osm_id":"7153671213","tag":{"amenity":"waste_basket"}},"type":"Feature"},
	{"geometry":{"coordinates":[5.089237,52.653777],"type":"Point"},"properties":{"osm_id":"7172230166","tag":{"amenity":"waste_basket"}},"type":"Feature"},
	{"geometry":{"coordinates":[5.091025,52.656341],"type":"Point"},"properties":{"osm_id":"7178112850","tag":{"amenity":"waste_basket"}},"type":"Feature"},
	{"geometry":{"coordinates":[5.096962,52.659438],"type":"Point"},"properties":{"osm_id":"7182421969","tag":{"amenity":"waste_basket"}},"type":"Feature"},
	{"geometry":{"coordinates":[5.095129,52.657213],"type":"Point"},"properties":{"osm_id":"7182422310","tag":{"amenity":"waste_basket"}},"type":"Feature"},
	{"geometry":{"coordinates":[5.076849,52.653941],"type":"Point"},"properties":{"osm_id":"7187320823","tag":{"amenity":"waste_basket"}},"type":"Feature"},
	{"geometry":{"coordinates":[5.095695,52.649733],"type":"Point"},"properties":{"osm_id":"7203200499","tag":{"amenity":"waste_basket"}},"type":"Feature"},
	{"geometry":{"coordinates":[5.064965,52.648497],"type":"Point"},"properties":{"osm_id":"7272594929","tag":{"amenity":"waste_basket"}},"type":"Feature"},
	{"geometry":{"coordinates":[5.063699,52.648086],"type":"Point"},"properties":{"osm_id":"7272595312","tag":{"amenity":"waste_basket"}},"type":"Feature"},
	{"geometry":{"coordinates":[5.063829,52.64835],"type":"Point"},"properties":{"osm_id":"7272595321","tag":{"amenity":"recycling","operator":"HVC","recycling:waste":"yes","recycling_type":"container"}},"type":"Feature"},
	{"geometry":{"coordinates":[5.067187,52.651361],"type":"Point"},"properties":{"osm_id":"7273066936","tag":{"amenity":"waste_basket"}},"type":"Feature"},
	{"geometry":{"coordinates":[5.068788,52.653073],"type":"Point"},"properties":{"osm_id":"7273394287","tag":{"amenity":"recycling","operator":"HVC","recycling:waste":"yes","recycling_type":"container"}},"type":"Feature"},
	{"geometry":{"coordinates":[5.068425,52.652423],"type":"Point"},"properties":{"osm_id":"7273394492","tag":{"amenity":"waste_basket"}},"type":"Feature"},
	{"geometry":{"coordinates":[5.068466,52.652186],"type":"Point"},"properties":{"osm_id":"7273394493","tag":{"amenity":"waste_basket"}},"type":"Feature"},
	{"geometry":{"coordinates":[5.068234,52.652062],"type":"Point"},"properties":{"osm_id":"7273394494","tag":{"amenity":"waste_basket"}},"type":"Feature"},
	{"geometry":{"coordinates":[5.067484,52.651765],"type":"Point"},"properties":{"osm_id":"7273394579","tag":{"amenity":"recycling","recycling:waste":"yes","recycling_type":"container"}},"type":"Feature"},
	{"geometry":{"coordinates":[5.06742,52.651754],"type":"Point"},"properties":{"osm_id":"7273394580","tag":{"amenity":"recycling","recycling:waste":"yes","recycling_type":"container"}},"type":"Feature"},
	{"geometry":{"coordinates":[5.06893,52.647919],"type":"Point"},"properties":{"osm_id":"7274126211","tag":{"amenity":"waste_basket"}},"type":"Feature"},
	{"geometry":{"coordinates":[5.04893,52.652592],"type":"Point"},"properties":{"osm_id":"7286728799","tag":{"amenity":"waste_basket"}},"type":"Feature"},
	{"geometry":{"coordinates":[5.047794,52.658796],"type":"Point"},"properties":{"osm_id":"7293199312","tag":{"amenity":"waste_basket"}},"type":"Feature"},
	{"geometry":{"coordinates":[5.044859,52.658548],"type":"Point"},"properties":{"osm_id":"7295243043","tag":{"amenity":"waste_basket"}},"type":"Feature"},
	{"geometry":{"coordinates":[5.04176,52.652462],"type":"Point"},"properties":{"osm_id":"7306245154","tag":{"amenity":"waste_basket"}},"type":"Feature"},
	{"geometry":{"coordinates":[5.041826,52.652346],"type":"Point"},"properties":{"osm_id":"7306245155","tag":{"amenity":"waste_basket"}},"type":"Feature"},
	{"geometry":{"coordinates":[5.048387,52.666307],"type":"Point"},"properties":{"osm_id":"7317056165","tag":{"amenity":"waste_basket"}},"type":"Feature"},
	{"geometry":{"coordinates":[5.051668,52.670088],"type":"Point"},"properties":{"osm_id":"7346788051","tag":{"amenity":"waste_basket"}},"type":"Feature"},
	{"geometry":{"coordinates":[5.051236,52.670012],"type":"Point"},"properties":{"osm_id":"7346788052","tag":{"amenity":"waste_basket"}},"type":"Feature"},
	{"geometry":{"coordinates":[5.063146,52.662459],"type":"Point"},"properties":{"osm_id":"7350886620","tag":{"amenity":"recycling","recycling:clothes":"yes","recycling_type":"container"}},"type":"Feature"},
	{"geometry":{"coordinates":[5.045473,52.66782],"type":"Point"},"properties":{"osm_id":"7369721140","tag":{"amenity":"waste_basket"}},"type":"Feature"},
	{"geometry":{"coordinates":[5.046721,52.668079],"type":"Point"},"properties":{"osm_id":"7377103487","tag":{"amenity":"waste_basket"}},"type":"Feature"},
	{"geometry":{"coordinates":[5.049379,52.667941],"type":"Point"},"properties":{"osm_id":"7380015479","tag":{"amenity":"waste_basket"}},"type":"Feature"},
	{"geometry":{"coordinates":[5.052163,52.66856],"type":"Point"},"properties":{"osm_id":"7385485807","tag":{"amenity":"waste_basket"}},"type":"Feature"},
	{"geometry":{"coordinates":[5.052712,52.667788],"type":"Point"},"properties":{"osm_id":"7385485872","tag":{"amenity":"waste_basket"}},"type":"Feature"},
	{"geometry":{"coordinates":[5.051465,52.668703],"type":"Point"},"properties":{"osm_id":"7385492406","tag":{"amenity":"waste_basket"}},"type":"Feature"},
	{"geometry":{"coordinates":[5.048267,52.66415],"type":"Point"},"properties":{"osm_id":"7429305024","tag":{"amenity":"waste_basket"}},"type":"Feature"},
	{"geometry":{"coordinates":[5.047702,52.665362],"type":"Point"},"properties":{"osm_id":"7429338648","tag":{"access":"private","amenity":"recycling","recycling_type":"centre"}},"type":"Feature"},
	{"geometry":{"coordinates":[5.053924,52.66458],"type":"Point"},"properties":{"osm_id":"7433274888","tag":{"amenity":"recycling","recycling:waste":"yes","recycling_type":"container","wheelchair":"yes"}},"type":"Feature"},
	{"geometry":{"coordinates":[5.056007,52.657089],"type":"Point"},"properties":{"osm_id":"7444636238","tag":{"amenity":"recycling","recycling:glass_bottles":"yes","recycling_type":"container"}},"type":"Feature"},
	{"geometry":{"coordinates":[5.056,52.657106],"type":"Point"},"properties":{"osm_id":"7444636239","tag":{"amenity":"recycling","recycling:glass_bottles":"yes","recycling_type":"container"}},"type":"Feature"},
	{"geometry":{"coordinates":[5.055994,52.657123],"type":"Point"},"properties":{"osm_id":"7444636240","tag":{"amenity":"recycling","recycling:waste":"yes","recycling_type":"container"}},"type":"Feature"},
	{"geometry":{"coordinates":[5.073792,52.660713],"type":"Point"},"properties":{"osm_id":"7510403258","tag":{"amenity":"waste_basket"}},"type":"Feature"},
	{"geometry":{"coordinates":[5.074555,52.65935],"type":"Point"},"properties":{"osm_id":"7510403259","tag":{"amenity":"waste_basket"}},"type":"Feature"},
	{"geometry":{"coordinates":[5.067624,52.659031],"type":"Point"},"properties":{"osm_id":"7525373179","tag":{"amenity":"waste_basket"}},"type":"Feature"},
	{"geometry":{"coordinates":[5.071978,52.660461],"type":"Point"},"properties":{"osm_id":"7537020471","tag":{"amenity":"recycling","recycling:waste":"yes","recycling_type":"container"}},"type":"Feature"},
	{"geometry":{"coordinates":[5.072666,52.659793],"type":"Point"},"properties":{"osm_id":"7537022994","tag":{"amenity":"recycling","recycling:waste":"yes","recycling_type":"container"}},"type":"Feature"},
	{"geometry":{"coordinates":[5.073359,52.659126],"type":"Point"},"properties":{"osm_id":"7537022995","tag":{"amenity":"recycling","recycling:waste":"yes","recycling_type":"container"}},"type":"Feature"},
	{"geometry":{"coordinates":[5.073984,52.658675],"type":"Point"},"properties":{"osm_id":"7537022996","tag":{"amenity":"recycling","recycling:waste":"yes","recycling_type":"container"}},"type":"Feature"},
	{"geometry":{"coordinates":[5.074271,52.658219],"type":"Point"},"properties":{"osm_id":"7537022997","tag":{"amenity":"recycling","recycling:waste":"yes","recycling_type":"container"}},"type":"Feature"},
	{"geometry":{"coordinates":[5.078719,52.662719],"type":"Point"},"properties":{"osm_id":"7591874581","tag":{"amenity":"waste_basket"}},"type":"Feature"},
	{"geometry":{"coordinates":[5.080732,52.66261],"type":"Point"},"properties":{"osm_id":"7594995805","tag":{"amenity":"waste_basket"}},"type":"Feature"},
	{"geometry":{"coordinates":[5.051079,52.660914],"type":"Point"},"properties":{"osm_id":"7616655086","tag":{"amenity":"waste_basket"}},"type":"Feature"},
	{"geometry":{"coordinates":[5.047204,52.666016],"type":"Point"},"properties":{"osm_id":"7616655087","tag":{"amenity":"waste_basket"}},"type":"Feature"},
	{"geometry":{"coordinates":[5.048174,52.665933],"type":"Point"},"properties":{"osm_id":"7616655088","tag":{"amenity":"waste_basket"}},"type":"Feature"},
	{"geometry":{"coordinates":[5.047728,52.662484],"type":"Point"},"properties":{"osm_id":"7616655186","tag":{"amenity":"waste_basket"}},"type":"Feature"},
	{"geometry":{"coordinates":[5.046927,52.665554],"type":"Point"},"properties":{"osm_id":"7616655189","tag":{"amenity":"waste_basket"}},"type":"Feature"},
	{"geometry":{"coordinates":[5.046884,52.665975],"type":"Point"},"properties":{"osm_id":"7616655190","tag":{"amenity":"recycling","recycling_type":"container"}},"type":"Feature"},
	{"geometry":{"coordinates":[5.048534,52.666483],"type":"Point"},"properties":{"osm_id":"7616655191","tag":{"amenity":"waste_basket"}},"type":"Feature"},
	{"geometry":{"coordinates":[5.046838,52.665734],"type":"Point"},"properties":{"osm_id":"7616655287","tag":{"amenity":"waste_basket"}},"type":"Feature"},
	{"geometry":{"coordinates":[5.047011,52.665383],"type":"Point"},"properties":{"osm_id":"7616655587","tag":{"amenity":"waste_basket"}},"type":"Feature"},
	{"geometry":{"coordinates":[5.048086,52.666156],"type":"Point"},"properties":{"osm_id":"7616655588","tag":{"amenity":"waste_basket"}},"type":"Feature"},
	{"geometry":{"coordinates":[5.056292,52.653802],"type":"Point"},"properties":{"osm_id":"7616655685","tag":{"amenity":"waste_basket"}},"type":"Feature"},
	{"geometry":{"coordinates":[5.052196,52.657392],"type":"Point"},"properties":{"osm_id":"7616655686","tag":{"amenity":"waste_basket"}},"type":"Feature"},
	{"geometry":{"coordinates":[5.047644,52.666053],"type":"Point"},"properties":{"osm_id":"7616655687","tag":{"amenity":"waste_basket"}},"type":"Feature"},
	{"geometry":{"coordinates":[5.0448,52.664609],"type":"Point"},"properties":{"osm_id":"7620651311","tag":{"access":"private","amenity":"recycling","operator":"HVC Groep","recycling:waste":"yes","recycling_type":"container"}},"type":"Feature"},
	{"geometry":{"coordinates":[5.054143,52.657827],"type":"Point"},"properties":{"osm_id":"7640042760","tag":{"amenity":"waste_basket"}},"type":"Feature"},
	{"geometry":{"coordinates":[5.054337,52.657423],"type":"Point"},"properties":{"osm_id":"7640042788","tag":{"amenity":"recycling","operator":"HVC Groep","recycling:waste":"yes","recycling_type":"container"}},"type":"Feature"},
	{"geometry":{"coordinates":[5.054829,52.656906],"type":"Point"},"properties":{"osm_id":"7640042814","tag":{"amenity":"recycling","operator":"HVC Groep","recycling:waste":"yes","recycling_type":"container"}},"type":"Feature"},
	{"geometry":{"coordinates":[5.05486,52.656886],"type":"Point"},"properties":{"osm_id":"7640042815","tag":{"amenity":"recycling","operator":"HVC Groep","recycling:waste":"yes","recycling_type":"container"}},"type":"Feature"},
	{"geometry":{"coordinates":[5.07762,52.654199],"type":"Point"},"properties":{"osm_id":"7643431418","tag":{"amenity":"waste_basket","waste":"trash"}},"type":"Feature"},
	{"geometry":{"coordinates":[5.076979,52.654865],"type":"Point"},"properties":{"osm_id":"7643431419","tag":{"amenity":"waste_basket","waste":"trash"}},"type":"Feature"},
	{"geometry":{"coordinates":[5.078324,52.655604],"type":"Point"},"properties":{"osm_id":"7643753346","tag":{"amenity":"recycling","operator":"HVC Groep","recycling:electrical_appliances":"no","recycling:waste":"yes","recycling_type":"container"}},"type":"Feature"},
	{"geometry":{"coordinates":[5.078293,52.655594],"type":"Point"},"properties":{"osm_id":"7643753347","tag":{"amenity":"recycling","operator":"HVC Groep","recycling:electrical_appliances":"no","recycling:waste":"yes","recycling_type":"container"}},"type":"Feature"},
	{"geometry":{"coordinates":[5.069492,52.657737],"type":"Point"},"properties":{"osm_id":"7646335356","tag":{"amenity":"waste_basket"}},"type":"Feature"},
	{"geometry":{"coordinates":[5.069217,52.643671],"type":"Point"},"properties":{"osm_id":"7655543181","tag":{"amenity":"waste_basket"}},"type":"Feature"},
	{"geometry":{"coordinates":[5.049248,52.661781],"type":"Point"},"properties":{"osm_id":"7667136166","tag":{"amenity":"waste_basket"}},"type":"Feature"},
	{"geometry":{"coordinates":[5.030886,52.643672],"type":"Point"},"properties":{"osm_id":"7673736963","tag":{"amenity":"waste_basket"}},"type":"Feature"},
	{"geometry":{"coordinates":[5.032166,52.643401],"type":"Point"},"properties":{"osm_id":"7673737158","tag":{"amenity":"waste_basket"}},"type":"Feature"},
	{"geometry":{"coordinates":[5.054372,52.646005],"type":"Point"},"properties":{"osm_id":"7702450354","tag":{"amenity":"waste_basket"}},"type":"Feature"},
	{"geometry":{"coordinates":[5.054448,52.646249],"type":"Point"},"properties":{"osm_id":"7702450355","tag":{"amenity":"waste_basket"}},"type":"Feature"},
	{"geometry":{"coordinates":[5.036331,52.646564],"type":"Point"},"properties":{"osm_id":"7728243248","tag":{"amenity":"waste_basket"}},"type":"Feature"},
	{"geometry":{"coordinates":[5.054309,52.645721],"type":"Point"},"properties":{"osm_id":"7728260095","tag":{"amenity":"waste_basket"}},"type":"Feature"},
	{"geometry":{"coordinates":[5.054319,52.65912],"type":"Point"},"properties":{"osm_id":"7740319251","tag":{"amenity":"waste_basket"}},"type":"Feature"},
	{"geometry":{"coordinates":[5.055968,52.657393],"type":"Point"},"properties":{"osm_id":"7740319261","tag":{"amenity":"waste_basket"}},"type":"Feature"},
	{"geometry":{"coordinates":[5.055773,52.657404],"type":"Point"},"properties":{"osm_id":"7740319263","tag":{"amenity":"waste_basket"}},"type":"Feature"},
	{"geometry":{"coordinates":[5.055442,52.65781],"type":"Point"},"properties":{"osm_id":"7740319264","tag":{"amenity":"waste_basket"}},"type":"Feature"},
	{"geometry":{"coordinates":[5.055468,52.65762],"type":"Point"},"properties":{"osm_id":"7740319266","tag":{"amenity":"waste_basket"}},"type":"Feature"},
	{"geometry":{"coordinates":[5.054762,52.658715],"type":"Point"},"properties":{"osm_id":"7740319272","tag":{"amenity":"waste_basket"}},"type":"Feature"},
	{"geometry":{"coordinates":[5.054913,52.658336],"type":"Point"},"properties":{"osm_id":"7740319273","tag":{"amenity":"waste_basket"}},"type":"Feature"},
	{"geometry":{"coordinates":[5.055316,52.658156],"type":"Point"},"properties":{"osm_id":"7740319274","tag":{"amenity":"waste_basket"}},"type":"Feature"},
	{"geometry":{"coordinates":[5.055249,52.658045],"type":"Point"},"properties":{"osm_id":"7740319275","tag":{"amenity":"waste_basket"}},"type":"Feature"},
	{"geometry":{"coordinates":[5.055055,52.658089],"type":"Point"},"properties":{"osm_id":"7740319276","tag":{"amenity":"waste_basket"}},"type":"Feature"},
	{"geometry":{"coordinates":[5.055129,52.658205],"type":"Point"},"properties":{"osm_id":"7740319277","tag":{"amenity":"waste_basket"}},"type":"Feature"},
	{"geometry":{"coordinates":[5.083909,52.680548],"type":"Point"},"properties":{"osm_id":"7740463963","tag":{"amenity":"waste_basket"}},"type":"Feature"},
	{"geometry":{"coordinates":[5.086528,52.659663],"type":"Point"},"properties":{"osm_id":"7764324241","tag":{"amenity":"recycling","recycling:waste":"yes","recycling_type":"container"}},"type":"Feature"},
	{"geometry":{"coordinates":[5.092913,52.662293],"type":"Point"},"properties":{"osm_id":"7769634671","tag":{"amenity":"recycling","recycling:waste":"yes","recycling_type":"container"}},"type":"Feature"},
	{"geometry":{"coordinates":[5.088962,52.661205],"type":"Point"},"properties":{"osm_id":"7769634801","tag":{"amenity":"waste_basket"}},"type":"Feature"},
	{"geometry":{"coordinates":[5.091132,52.663073],"type":"Point"},"properties":{"osm_id":"7769634901","tag":{"amenity":"waste_basket"}},"type":"Feature"},
	{"geometry":{"coordinates":[5.086886,52.663368],"type":"Point"},"properties":{"osm_id":"7769635371","tag":{"amenity":"waste_basket"}},"type":"Feature"},
	{"geometry":{"coordinates":[5.071578,52.652996],"type":"Point"},"properties":{"osm_id":"7772715380","tag":{"amenity":"waste_basket"}},"type":"Feature"},
	{"geometry":{"coordinates":[5.071865,52.653085],"type":"Point"},"properties":{"osm_id":"7772715384","tag":{"amenity":"waste_basket"}},"type":"Feature"},
	{"geometry":{"coordinates":[5.072167,52.652997],"type":"Point"},"properties":{"osm_id":"7772715385","tag":{"amenity":"waste_basket"}},"type":"Feature"},
	{"geometry":{"coordinates":[5.084188,52.660725],"type":"Point"},"properties":{"osm_id":"7780365511","tag":{"amenity":"waste_basket"}},"type":"Feature"},
	{"geometry":{"coordinates":[5.088697,52.660974],"type":"Point"},"properties":{"osm_id":"7780897023","tag":{"amenity":"recycling","recycling:glass":"yes","recycling_type":"container"}},"type":"Feature"},
	{"geometry":{"coordinates":[5.088681,52.660995],"type":"Point"},"properties":{"osm_id":"7780897024","tag":{"amenity":"recycling","recycling:glass":"yes","recycling_type":"container"}},"type":"Feature"},
	{"geometry":{"coordinates":[5.079446,52.666663],"type":"Point"},"properties":{"osm_id":"7783832786","tag":{"amenity":"waste_basket"}},"type":"Feature"},
	{"geometry":{"coordinates":[5.079827,52.666442],"type":"Point"},"properties":{"osm_id":"7783832856","tag":{"amenity":"waste_basket"}},"type":"Feature"},
	{"geometry":{"coordinates":[5.080563,52.665838],"type":"Point"},"properties":{"osm_id":"7783832887","tag":{"amenity":"waste_basket"}},"type":"Feature"},
	{"geometry":{"coordinates":[5.078125,52.666582],"type":"Point"},"properties":{"osm_id":"7791366531","tag":{"access":"private","amenity":"recycling","recycling:waste":"yes","recycling_type":"container"}},"type":"Feature"},
	{"geometry":{"coordinates":[5.079077,52.665231],"type":"Point"},"properties":{"osm_id":"7791366606","tag":{"amenity":"waste_basket"}},"type":"Feature"},
	{"geometry":{"coordinates":[5.078984,52.66535],"type":"Point"},"properties":{"osm_id":"7791366607","tag":{"amenity":"waste_basket"}},"type":"Feature"},
	{"geometry":{"coordinates":[5.079443,52.665149],"type":"Point"},"properties":{"osm_id":"7791366608","tag":{"amenity":"waste_basket"}},"type":"Feature"},
	{"geometry":{"coordinates":[5.079392,52.66522],"type":"Point"},"properties":{"osm_id":"7791366609","tag":{"amenity":"waste_basket"}},"type":"Feature"},
	{"geometry":{"coordinates":[5.079281,52.665358],"type":"Point"},"properties":{"osm_id":"7791366610","tag":{"amenity":"waste_basket"}},"type":"Feature"},
	{"geometry":{"coordinates":[5.079179,52.665519],"type":"Point"},"properties":{"osm_id":"7791366619","tag":{"amenity":"waste_basket"}},"type":"Feature"},
	{"geometry":{"coordinates":[5.079151,52.665768],"type":"Point"},"properties":{"osm_id":"7791366628","tag":{"amenity":"waste_basket"}},"type":"Feature"},
	{"geometry":{"coordinates":[5.076794,52.667167],"type":"Point"},"properties":{"osm_id":"7794758495","tag":{"amenity":"waste_basket"}},"type":"Feature"},
	{"geometry":{"coordinates":[5.076463,52.666661],"type":"Point"},"properties":{"osm_id":"7797203368","tag":{"amenity":"recycling","recycling:waste":"yes","recycling_type":"container"}},"type":"Feature"},
	{"geometry":{"coordinates":[5.07712,52.665821],"type":"Point"},"properties":{"osm_id":"7797203369","tag":{"amenity":"recycling","recycling:waste":"yes","recycling_type":"container"}},"type":"Feature"},
	{"geometry":{"coordinates":[5.074684,52.664027],"type":"Point"},"properties":{"osm_id":"7803780433","tag":{"amenity":"waste_basket"}},"type":"Feature"},
	{"geometry":{"coordinates":[5.08713,52.673245],"type":"Point"},"properties":{"osm_id":"7819864168","tag":{"amenity":"waste_basket"}},"type":"Feature"},
	{"geometry":{"coordinates":[5.082974,52.672694],"type":"Point"},"properties":{"osm_id":"7819864960","tag":{"amenity":"recycling","recycling:waste":"yes","recycling_type":"container"}},"type":"Feature"},
	{"geometry":{"coordinates":[5.082242,52.676127],"type":"Point"},"properties":{"osm_id":"7819865368","tag":{"amenity":"recycling","recycling:waste":"yes","recycling_type":"container"}},"type":"Feature"},
	{"geometry":{"coordinates":[5.081781,52.676146],"type":"Point"},"properties":{"osm_id":"7819865369","tag":{"amenity":"waste_basket"}},"type":"Feature"},
	{"geometry":{"coordinates":[5.085691,52.674872],"type":"Point"},"properties":{"osm_id":"7832687192","tag":{"amenity":"waste_basket"}},"type":"Feature"},
	{"geometry":{"coordinates":[5.092912,52.672964],"type":"Point"},"properties":{"osm_id":"7834727412","tag":{"amenity":"waste_basket"}},"type":"Feature"},
	{"geometry":{"coordinates":[5.088493,52.673797],"type":"Point"},"properties":{"osm_id":"7834727785","tag":{"amenity":"waste_basket"}},"type":"Feature"},
	{"geometry":{"coordinates":[5.086247,52.676387],"type":"Point"},"properties":{"osm_id":"7834728170","tag":{"amenity":"waste_basket"}},"type":"Feature"},
	{"geometry":{"coordinates":[5.090051,52.675365],"type":"Point"},"properties":{"osm_id":"7840163599","tag":{"amenity":"waste_basket"}},"type":"Feature"},
	{"geometry":{"coordinates":[5.088669,52.675592],"type":"Point"},"properties":{"osm_id":"7843027754","tag":{"amenity":"waste_basket"}},"type":"Feature"},
	{"geometry":{"coordinates":[5.089966,52.674048],"type":"Point"},"properties":{"osm_id":"7843027832","tag":{"amenity":"waste_basket"}},"type":"Feature"},
	{"geometry":{"coordinates":[5.09532,52.672288],"type":"Point"},"properties":{"osm_id":"7846205814","tag":{"amenity":"waste_basket"}},"type":"Feature"},
	{"geometry":{"coordinates":[5.091657,52.671728],"type":"Point"},"properties":{"osm_id":"7858642721","tag":{"access":"private","amenity":"recycling","recycling:waste":"yes","recycling_type":"container"}},"type":"Feature"},
	{"geometry":{"coordinates":[5.091642,52.671743],"type":"Point"},"properties":{"osm_id":"7858642722","tag":{"amenity":"recycling","recycling:glass":"yes","recycling_type":"container"}},"type":"Feature"},
	{"geometry":{"coordinates":[5.09163,52.671758],"type":"Point"},"properties":{"osm_id":"7858642723","tag":{"amenity":"recycling","recycling:glass":"yes","recycling_type":"container"}},"type":"Feature"},
	{"geometry":{"coordinates":[5.084779,52.66995],"type":"Point"},"properties":{"osm_id":"7869872228","tag":{"access":"private","amenity":"recycling","recycling:waste":"yes","recycling_type":"container"}},"type":"Feature"},
	{"geometry":{"coordinates":[5.085699,52.667918],"type":"Point"},"properties":{"osm_id":"7872076062","tag":{"amenity":"waste_basket"}},"type":"Feature"},
	{"geometry":{"coordinates":[5.094021,52.670537],"type":"Point"},"properties":{"osm_id":"7873021106","tag":{"access":"private","amenity":"recycling","recycling:waste":"yes","recycling_type":"container"}},"type":"Feature"},
	{"geometry":{"coordinates":[5.068132,52.655887],"type":"Point"},"properties":{"osm_id":"7893096062","tag":{"amenity":"waste_basket"}},"type":"Feature"},
	{"geometry":{"coordinates":[5.052127,52.643131],"type":"Point"},"properties":{"osm_id":"7906897465","tag":{"amenity":"recycling","recycling:glass":"yes","recycling_type":"container"}},"type":"Feature"},
	{"geometry":{"coordinates":[5.052097,52.643127],"type":"Point"},"properties":{"osm_id":"7906897466","tag":{"amenity":"recycling","recycling:glass":"yes","recycling_type":"container"}},"type":"Feature"}
]
}
