{
"type": "FeatureCollection",
"features": [
	{"geometry":{"coordinates":[5.057303,52.635233],"type":"Point"},"properties":{"osm_id":"1370127557","tag":{"amenity":"recycling","recycling:glass":"yes","recycling:waste":"no","recycling_type":"container"}},"type":"Feature"},
	{"geometry":{"coordinates":[5.057477,52.635401],"type":"Point"},"properties":{"osm_id":"1370127559","tag":{"amenity":"recycling","recycling:waste":"yes","recycling_type":"container"}},"type":"Feature"},
	{"geometry":{"coordinates":[5.012469,52.591971],"type":"Point"},"properties":{"osm_id":"2339714167","tag":{"amenity":"waste_basket"}},"type":"Feature"},
	{"geometry":{"coordinates":[5.048094,52.643009],"type":"Point"},"properties":{"osm_id":"6788352612","tag":{"amenity":"waste_basket"}},"type":"Feature"},
	{"geometry":{"coordinates":[5.036931,52.637955],"type":"Point"},"properties":{"osm_id":"6973602901","tag":{"amenity":"waste_basket"}},"type":"Feature"},
	{"geometry":{"coordinates":[5.09571,52.640115],"type":"Point"},"properties":{"osm_id":"6982489376","tag":{"amenity":"waste_basket","waste":"trash"}},"type":"Feature"},
	{"geometry":{"coordinates":[5.037281,52.640647],"type":"Point"},"properties":{"osm_id":"6988545469","tag":{"amenity":"waste_basket"}},"type":"Feature"},
	{"geometry":{"coordinates":[5.036016,52.641515],"type":"Point"},"properties":{"osm_id":"6989499489","tag":{"amenity":"recycling","recycling:waste":"yes","recycling_type":"container"}},"type":"Feature"},
	{"geometry":{"coordinates":[5.035032,52.640726],"type":"Point"},"properties":{"osm_id":"6989499808","tag":{"amenity":"waste_basket"}},"type":"Feature"},
	{"geometry":{"coordinates":[5.035453,52.640732],"type":"Point"},"properties":{"osm_id":"6989499809","tag":{"amenity":"waste_basket"}},"type":"Feature"},
	{"geometry":{"coordinates":[5.070722,52.642534],"type":"Point"},"properties":{"osm_id":"7245084906","tag":{"amenity":"waste_basket"}},"type":"Feature"},
	{"geometry":{"coordinates":[5.040618,52.642056],"type":"Point"},"properties":{"osm_id":"7467071601","tag":{"amenity":"recycling","recycling:waste":"yes","recycling_type":"container","wheelchair":"yes"}},"type":"Feature"},
	{"geometry":{"coordinates":[5.021784,52.63787],"type":"Point"},"properties":{"osm_id":"7651670068","tag":{"amenity":"waste_basket"}},"type":"Feature"},
	{"geometry":{"coordinates":[5.024361,52.637355],"type":"Point"},"properties":{"osm_id":"7652697382","tag":{"amenity":"waste_basket"}},"type":"Feature"},
	{"geometry":{"coordinates":[5.025573,52.63756],"type":"Point"},"properties":{"osm_id":"7668035435","tag":{"amenity":"recycling","operator":"HVC Groep","recycling:waste":"yes","recycling_type":"container","wheelchair":"yes"}},"type":"Feature"},
	{"geometry":{"coordinates":[5.031934,52.638842],"type":"Point"},"properties":{"osm_id":"7669606835","tag":{"amenity":"waste_basket"}},"type":"Feature"},
	{"geometry":{"coordinates":[5.029374,52.638725],"type":"Point"},"properties":{"osm_id":"7669629088","tag":{"amenity":"waste_basket"}},"type":"Feature"},
	{"geometry":{"coordinates":[5.031349,52.638002],"type":"Point"},"properties":{"osm_id":"7669629582","tag":{"amenity":"waste_basket"}},"type":"Feature"},
	{"geometry":{"coordinates":[5.03129,52.638166],"type":"Point"},"properties":{"osm_id":"7669629583","tag":{"amenity":"waste_basket"}},"type":"Feature"},
	{"geometry":{"coordinates":[5.032236,52.641264],"type":"Point"},"properties":{"osm_id":"7673810656","tag":{"amenity":"waste_basket"}},"type":"Feature"},
	{"geometry":{"coordinates":[5.057219,52.637909],"type":"Point"},"properties":{"osm_id":"7677224706","tag":{"amenity":"waste_basket","waste":"trash"}},"type":"Feature"},
	{"geometry":{"coordinates":[5.05671,52.63842],"type":"Point"},"properties":{"osm_id":"7677224707","tag":{"amenity":"waste_basket","waste":"trash"}},"type":"Feature"},
	{"geometry":{"coordinates":[5.055503,52.639536],"type":"Point"},"properties":{"osm_id":"7677224713","tag":{"amenity":"waste_basket","waste":"trash"}},"type":"Feature"},
	{"geometry":{"coordinates":[5.055233,52.639863],"type":"Point"},"properties":{"osm_id":"7677224716","tag":{"amenity":"waste_basket","waste":"trash"}},"type":"Feature"},
	{"geometry":{"coordinates":[5.054953,52.640141],"type":"Point"},"properties":{"osm_id":"7677224717","tag":{"amenity":"waste_basket","waste":"trash"}},"type":"Feature"},
	{"geometry":{"coordinates":[5.054693,52.640366],"type":"Point"},"properties":{"osm_id":"7677224720","tag":{"amenity":"waste_basket","waste":"trash"}},"type":"Feature"},
	{"geometry":{"coordinates":[5.053924,52.640853],"type":"Point"},"properties":{"osm_id":"7677224722","tag":{"amenity":"waste_basket","waste":"trash"}},"type":"Feature"},
	{"geometry":{"coordinates":[5.071749,52.639118],"type":"Point"},"properties":{"osm_id":"7679749166","tag":{"amenity":"waste_basket"}},"type":"Feature"},
	{"geometry":{"coordinates":[5.056082,52.633861],"type":"Point"},"properties":{"osm_id":"7682529116","tag":{"amenity":"waste_basket"}},"type":"Feature"},
	{"geometry":{"coordinates":[5.057063,52.633704],"type":"Point"},"properties":{"osm_id":"7682529124","tag":{"amenity":"waste_basket"}},"type":"Feature"},
	{"geometry":{"coordinates":[5.059026,52.6334],"type":"Point"},"properties":{"osm_id":"7682529130","tag":{"amenity":"waste_basket"}},"type":"Feature"},
	{"geometry":{"coordinates":[5.063771,52.636848],"type":"Point"},"properties":{"osm_id":"7682529153","tag":{"amenity":"waste_basket"}},"type":"Feature"},
	{"geometry":{"coordinates":[5.061974,52.63417],"type":"Point"},"properties":{"osm_id":"7686799579","tag":{"amenity":"waste_basket"}},"type":"Feature"},
	{"geometry":{"coordinates":[5.062694,52.633684],"type":"Point"},"properties":{"osm_id":"7686803224","tag":{"amenity":"waste_basket"}},"type":"Feature"},
	{"geometry":{"coordinates":[5.062539,52.633696],"type":"Point"},"properties":{"osm_id":"7686803225","tag":{"amenity":"waste_basket"}},"type":"Feature"},
	{"geometry":{"coordinates":[5.035244,52.637744],"type":"Point"},"properties":{"osm_id":"7698656584","tag":{"amenity":"recycling","operator":"HVC Groep","recycling:waste":"yes","recycling_type":"container"}},"type":"Feature"},
	{"geometry":{"coordinates":[5.036335,52.639187],"type":"Point"},"properties":{"osm_id":"7698693306","tag":{"amenity":"waste_basket"}},"type":"Feature"},
	{"geometry":{"coordinates":[5.034998,52.638841],"type":"Point"},"properties":{"osm_id":"7699569679","tag":{"amenity":"recycling","operator":"HVC Groep","recycling:waste":"yes","recycling_type":"container"}},"type":"Feature"},
	{"geometry":{"coordinates":[5.052242,52.642814],"type":"Point"},"properties":{"osm_id":"7906897464","tag":{"amenity":"waste_basket"}},"type":"Feature"},
	{"geometry":{"coordinates":[5.056525,52.634566],"type":"Point"},"properties":{"osm_id":"7907060231","tag":{"amenity":"recycling","recycling:waste":"yes","recycling_type":"container"}},"type":"Feature"},
	{"geometry":{"coordinates":[5.0571,52.635256],"type":"Point"},"properties":{"osm_id":"7907060232","tag":{"amenity":"recycling","recycling:waste":"yes","recycling_type":"container"}},"type":"Feature"},
	{"geometry":{"coordinates":[5.057137,52.63684],"type":"Point"},"properties":{"osm_id":"7907060233","tag":{"amenity":"recycling","recycling:waste":"yes","recycling_type":"container"}},"type":"Feature"},
	{"geometry":{"coordinates":[5.031754,52.637097],"type":"Point"},"properties":{"osm_id":"7917050910","tag":{"amenity":"waste_basket"}},"type":"Feature"}
]
}
