{
"type": "FeatureCollection",
"features": [
	{"geometry":{"coordinates":[5.050112,52.277333],"type":"Point"},"properties":{"osm_id":"1219947627","tag":{"amenity":"waste_basket"}},"type":"Feature"},
	{"geometry":{"coordinates":[5.047352,52.274005],"type":"Point"},"properties":{"osm_id":"1219947727","tag":{"amenity":"waste_basket"}},"type":"Feature"},
	{"geometry":{"coordinates":[5.063088,52.280012],"type":"Point"},"properties":{"osm_id":"1219948057","tag":{"amenity":"waste_basket"}},"type":"Feature"},
	{"geometry":{"coordinates":[5.064205,52.280081],"type":"Point"},"properties":{"osm_id":"1222363454","tag":{"amenity":"waste_basket"}},"type":"Feature"},
	{"geometry":{"coordinates":[5.044988,52.30433],"type":"Point"},"properties":{"osm_id":"1406569407","tag":{"amenity":"waste_basket"}},"type":"Feature"},
	{"geometry":{"coordinates":[5.04468,52.304453],"type":"Point"},"properties":{"osm_id":"1406569427","tag":{"amenity":"waste_basket"}},"type":"Feature"},
	{"geometry":{"coordinates":[5.028584,52.297947],"type":"Point"},"properties":{"osm_id":"1411441121","tag":{"amenity":"waste_basket"}},"type":"Feature"},
	{"geometry":{"coordinates":[5.033099,52.298638],"type":"Point"},"properties":{"osm_id":"1411441151","tag":{"amenity":"waste_basket"}},"type":"Feature"},
	{"geometry":{"coordinates":[5.037501,52.30268],"type":"Point"},"properties":{"osm_id":"1411483078","tag":{"amenity":"waste_basket"}},"type":"Feature"},
	{"geometry":{"coordinates":[5.043794,52.310031],"type":"Point"},"properties":{"osm_id":"1411483103","tag":{"amenity":"waste_basket"}},"type":"Feature"},
	{"geometry":{"coordinates":[5.084442,52.292541],"type":"Point"},"properties":{"osm_id":"1415438207","tag":{"amenity":"waste_basket"}},"type":"Feature"},
	{"geometry":{"coordinates":[5.084623,52.292684],"type":"Point"},"properties":{"osm_id":"1415438211","tag":{"amenity":"waste_basket"}},"type":"Feature"},
	{"geometry":{"coordinates":[5.084759,52.292777],"type":"Point"},"properties":{"osm_id":"1415438221","tag":{"amenity":"waste_basket"}},"type":"Feature"},
	{"geometry":{"coordinates":[5.066053,52.296695],"type":"Point"},"properties":{"osm_id":"1415438227","tag":{"amenity":"waste_basket"}},"type":"Feature"},
	{"geometry":{"coordinates":[5.080807,52.297108],"type":"Point"},"properties":{"osm_id":"1415438236","tag":{"amenity":"waste_basket"}},"type":"Feature"},
	{"geometry":{"coordinates":[5.052735,52.303824],"type":"Point"},"properties":{"osm_id":"1415438244","tag":{"amenity":"waste_basket"}},"type":"Feature"},
	{"geometry":{"coordinates":[5.049746,52.305242],"type":"Point"},"properties":{"osm_id":"1415438256","tag":{"amenity":"waste_basket"}},"type":"Feature"},
	{"geometry":{"coordinates":[5.043893,52.307576],"type":"Point"},"properties":{"osm_id":"1415438277","tag":{"amenity":"waste_basket"}},"type":"Feature"},
	{"geometry":{"coordinates":[5.047403,52.309287],"type":"Point"},"properties":{"osm_id":"1444969312","tag":{"amenity":"waste_basket"}},"type":"Feature"},
	{"geometry":{"coordinates":[5.045507,52.307238],"type":"Point"},"properties":{"osm_id":"1450137687","tag":{"amenity":"waste_basket"}},"type":"Feature"},
	{"geometry":{"coordinates":[5.04588,52.307946],"type":"Point"},"properties":{"osm_id":"1450137704","tag":{"amenity":"waste_basket"}},"type":"Feature"},
	{"geometry":{"coordinates":[5.026552,52.307574],"type":"Point"},"properties":{"osm_id":"1477160984","tag":{"amenity":"waste_basket"}},"type":"Feature"},
	{"geometry":{"coordinates":[5.029857,52.307707],"type":"Point"},"properties":{"osm_id":"1477161009","tag":{"amenity":"waste_basket"}},"type":"Feature"},
	{"geometry":{"coordinates":[5.033265,52.30783],"type":"Point"},"properties":{"osm_id":"1477161037","tag":{"amenity":"waste_basket"}},"type":"Feature"},
	{"geometry":{"coordinates":[5.026316,52.307844],"type":"Point"},"properties":{"osm_id":"1477161038","tag":{"amenity":"waste_basket"}},"type":"Feature"},
	{"geometry":{"coordinates":[5.030169,52.307925],"type":"Point"},"properties":{"osm_id":"1477161043","tag":{"amenity":"waste_basket"}},"type":"Feature"},
	{"geometry":{"coordinates":[5.028485,52.307942],"type":"Point"},"properties":{"osm_id":"1477161065","tag":{"amenity":"waste_basket"}},"type":"Feature"},
	{"geometry":{"coordinates":[5.039062,52.308641],"type":"Point"},"properties":{"osm_id":"1477161141","tag":{"amenity":"waste_basket"}},"type":"Feature"},
	{"geometry":{"coordinates":[5.039316,52.308644],"type":"Point"},"properties":{"osm_id":"1477161143","tag":{"amenity":"waste_basket"}},"type":"Feature"},
	{"geometry":{"coordinates":[5.035855,52.30866],"type":"Point"},"properties":{"osm_id":"1477161163","tag":{"amenity":"waste_basket"}},"type":"Feature"},
	{"geometry":{"coordinates":[5.039974,52.30874],"type":"Point"},"properties":{"osm_id":"1477161170","tag":{"amenity":"waste_basket"}},"type":"Feature"},
	{"geometry":{"coordinates":[5.040393,52.308809],"type":"Point"},"properties":{"osm_id":"1477161182","tag":{"amenity":"waste_basket"}},"type":"Feature"},
	{"geometry":{"coordinates":[5.037145,52.30888],"type":"Point"},"properties":{"osm_id":"1477161188","tag":{"amenity":"waste_basket"}},"type":"Feature"},
	{"geometry":{"coordinates":[5.041525,52.308955],"type":"Point"},"properties":{"osm_id":"1477161208","tag":{"amenity":"waste_basket"}},"type":"Feature"},
	{"geometry":{"coordinates":[5.013043,52.304506],"type":"Point"},"properties":{"osm_id":"1477227484","tag":{"amenity":"waste_basket"}},"type":"Feature"},
	{"geometry":{"coordinates":[5.017519,52.304668],"type":"Point"},"properties":{"osm_id":"1477263399","tag":{"amenity":"waste_basket"}},"type":"Feature"},
	{"geometry":{"coordinates":[5.017267,52.304669],"type":"Point"},"properties":{"osm_id":"1477263401","tag":{"amenity":"waste_basket"}},"type":"Feature"},
	{"geometry":{"coordinates":[5.017739,52.30467],"type":"Point"},"properties":{"osm_id":"1477263402","tag":{"amenity":"waste_basket"}},"type":"Feature"},
	{"geometry":{"coordinates":[5.014134,52.298789],"type":"Point"},"properties":{"osm_id":"1477315713","tag":{"amenity":"waste_basket"}},"type":"Feature"},
	{"geometry":{"coordinates":[5.014843,52.301593],"type":"Point"},"properties":{"osm_id":"1477315726","tag":{"amenity":"waste_basket"}},"type":"Feature"},
	{"geometry":{"coordinates":[5.05102,52.312349],"type":"Point"},"properties":{"name":"GAD scheidingsstation","osm_id":"3336346070","tag":{"amenity":"recycling","recycling_type":"centre"}},"type":"Feature"},
	{"geometry":{"coordinates":[5.042875,52.308485],"type":"Point"},"properties":{"osm_id":"3956368221","tag":{"amenity":"waste_basket"}},"type":"Feature"},
	{"geometry":{"coordinates":[5.084182,52.292113],"type":"Point"},"properties":{"osm_id":"5126122454","tag":{"amenity":"waste_basket"}},"type":"Feature"},
	{"geometry":{"coordinates":[5.081314,52.3205],"type":"Point"},"properties":{"osm_id":"7282971042","tag":{"amenity":"recycling","recycling:waste":"yes","recycling_type":"container"}},"type":"Feature"},
	{"geometry":{"coordinates":[5.079402,52.320698],"type":"Point"},"properties":{"osm_id":"7282971043","tag":{"amenity":"recycling","recycling:waste":"yes","recycling_type":"container"}},"type":"Feature"},
	{"geometry":{"coordinates":[5.080178,52.320458],"type":"Point"},"properties":{"osm_id":"7282971044","tag":{"amenity":"recycling","recycling:waste":"yes","recycling_type":"container"}},"type":"Feature"},
	{"geometry":{"coordinates":[5.080582,52.320323],"type":"Point"},"properties":{"osm_id":"7282971045","tag":{"amenity":"recycling","recycling:waste":"yes","recycling_type":"container"}},"type":"Feature"},
	{"geometry":{"coordinates":[5.079897,52.320406],"type":"Point"},"properties":{"osm_id":"7282971046","tag":{"amenity":"recycling","recycling:waste":"yes","recycling_type":"container"}},"type":"Feature"},
	{"geometry":{"coordinates":[5.078703,52.32078],"type":"Point"},"properties":{"osm_id":"7282971047","tag":{"amenity":"waste_basket","waste":"trash"}},"type":"Feature"},
	{"geometry":{"coordinates":[5.0786,52.320704],"type":"Point"},"properties":{"osm_id":"7282971048","tag":{"amenity":"waste_basket","waste":"trash"}},"type":"Feature"},
	{"geometry":{"coordinates":[5.078451,52.320583],"type":"Point"},"properties":{"osm_id":"7282971049","tag":{"amenity":"waste_basket","waste":"trash"}},"type":"Feature"},
	{"geometry":{"coordinates":[5.078303,52.320635],"type":"Point"},"properties":{"osm_id":"7282971050","tag":{"amenity":"waste_basket","waste":"trash"}},"type":"Feature"},
	{"geometry":{"coordinates":[5.078374,52.32071],"type":"Point"},"properties":{"osm_id":"7282971051","tag":{"amenity":"waste_basket","waste":"trash"}},"type":"Feature"},
	{"geometry":{"coordinates":[5.078467,52.320883],"type":"Point"},"properties":{"osm_id":"7282971052","tag":{"amenity":"waste_basket","waste":"trash"}},"type":"Feature"},
	{"geometry":{"coordinates":[5.078397,52.320763],"type":"Point"},"properties":{"osm_id":"7282971053","tag":{"amenity":"waste_basket","waste":"trash"}},"type":"Feature"},
	{"geometry":{"coordinates":[5.078402,52.320817],"type":"Point"},"properties":{"osm_id":"7282971054","tag":{"amenity":"waste_basket","waste":"trash"}},"type":"Feature"},
	{"geometry":{"coordinates":[5.078563,52.32093],"type":"Point"},"properties":{"osm_id":"7282971055","tag":{"amenity":"waste_basket","waste":"trash"}},"type":"Feature"},
	{"geometry":{"coordinates":[5.078883,52.321003],"type":"Point"},"properties":{"osm_id":"7282971056","tag":{"amenity":"waste_basket","waste":"trash"}},"type":"Feature"},
	{"geometry":{"coordinates":[5.078658,52.321057],"type":"Point"},"properties":{"osm_id":"7282971057","tag":{"amenity":"waste_basket","waste":"trash"}},"type":"Feature"},
	{"geometry":{"coordinates":[5.078437,52.321085],"type":"Point"},"properties":{"osm_id":"7282971058","tag":{"amenity":"waste_basket","waste":"trash"}},"type":"Feature"},
	{"geometry":{"coordinates":[5.078233,52.321108],"type":"Point"},"properties":{"osm_id":"7282971059","tag":{"amenity":"waste_basket","waste":"trash"}},"type":"Feature"},
	{"geometry":{"coordinates":[5.078009,52.321133],"type":"Point"},"properties":{"osm_id":"7282971060","tag":{"amenity":"waste_basket","waste":"trash"}},"type":"Feature"},
	{"geometry":{"coordinates":[5.077796,52.321156],"type":"Point"},"properties":{"osm_id":"7282971061","tag":{"amenity":"waste_basket","waste":"trash"}},"type":"Feature"},
	{"geometry":{"coordinates":[5.07759,52.321179],"type":"Point"},"properties":{"osm_id":"7282971062","tag":{"amenity":"waste_basket","waste":"trash"}},"type":"Feature"},
	{"geometry":{"coordinates":[5.077368,52.321207],"type":"Point"},"properties":{"osm_id":"7282971063","tag":{"amenity":"waste_basket","waste":"trash"}},"type":"Feature"},
	{"geometry":{"coordinates":[5.078191,52.320944],"type":"Point"},"properties":{"osm_id":"7282971064","tag":{"amenity":"waste_basket","waste":"trash"}},"type":"Feature"},
	{"geometry":{"coordinates":[5.081368,52.320267],"type":"Point"},"properties":{"osm_id":"7282971065","tag":{"amenity":"recycling","recycling:waste":"yes","recycling_type":"container"}},"type":"Feature"},
	{"geometry":{"coordinates":[5.081147,52.320093],"type":"Point"},"properties":{"osm_id":"7282971066","tag":{"amenity":"recycling","recycling:waste":"yes","recycling_type":"container"}},"type":"Feature"},
	{"geometry":{"coordinates":[5.080002,52.320191],"type":"Point"},"properties":{"osm_id":"7282971071","tag":{"amenity":"recycling","recycling:waste":"yes","recycling_type":"container"}},"type":"Feature"},
	{"geometry":{"coordinates":[5.080521,52.320135],"type":"Point"},"properties":{"osm_id":"7282971072","tag":{"amenity":"recycling","recycling:waste":"yes","recycling_type":"container"}},"type":"Feature"},
	{"geometry":{"coordinates":[5.080415,52.32008],"type":"Point"},"properties":{"osm_id":"7282971073","tag":{"amenity":"recycling","recycling:waste":"yes","recycling_type":"container"}},"type":"Feature"},
	{"geometry":{"coordinates":[5.080063,52.32012],"type":"Point"},"properties":{"osm_id":"7282971074","tag":{"amenity":"recycling","recycling:waste":"yes","recycling_type":"container"}},"type":"Feature"},
	{"geometry":{"coordinates":[5.080405,52.319871],"type":"Point"},"properties":{"osm_id":"7282971075","tag":{"amenity":"recycling","recycling:waste":"yes","recycling_type":"container"}},"type":"Feature"},
	{"geometry":{"coordinates":[5.079895,52.31993],"type":"Point"},"properties":{"osm_id":"7282971076","tag":{"amenity":"recycling","recycling:waste":"yes","recycling_type":"container"}},"type":"Feature"},
	{"geometry":{"coordinates":[5.079276,52.320212],"type":"Point"},"properties":{"osm_id":"7282971077","tag":{"amenity":"recycling","recycling:waste":"yes","recycling_type":"container"}},"type":"Feature"},
	{"geometry":{"coordinates":[5.079129,52.320019],"type":"Point"},"properties":{"osm_id":"7282971078","tag":{"amenity":"recycling","recycling:waste":"yes","recycling_type":"container"}},"type":"Feature"},
	{"geometry":{"coordinates":[5.078611,52.320079],"type":"Point"},"properties":{"osm_id":"7282971079","tag":{"amenity":"recycling","recycling:waste":"yes","recycling_type":"container"}},"type":"Feature"},
	{"geometry":{"coordinates":[5.078947,52.320252],"type":"Point"},"properties":{"osm_id":"7282972885","tag":{"amenity":"recycling","recycling:waste":"yes","recycling_type":"container"}},"type":"Feature"},
	{"geometry":{"coordinates":[5.078597,52.320291],"type":"Point"},"properties":{"osm_id":"7282972886","tag":{"amenity":"recycling","recycling:waste":"yes","recycling_type":"container"}},"type":"Feature"},
	{"geometry":{"coordinates":[5.077571,52.320393],"type":"Point"},"properties":{"osm_id":"7282972892","tag":{"amenity":"waste_basket","waste":"trash"}},"type":"Feature"},
	{"geometry":{"coordinates":[5.077086,52.32072],"type":"Point"},"properties":{"osm_id":"7282972913","tag":{"amenity":"waste_basket","waste":"trash"}},"type":"Feature"},
	{"geometry":{"coordinates":[5.076976,52.320827],"type":"Point"},"properties":{"osm_id":"7282972914","tag":{"amenity":"waste_basket","waste":"trash"}},"type":"Feature"},
	{"geometry":{"coordinates":[5.078418,52.32092],"type":"Point"},"properties":{"osm_id":"7282972919","tag":{"amenity":"recycling","recycling:waste":"yes","recycling_type":"container"}},"type":"Feature"},
	{"geometry":{"coordinates":[5.078392,52.320922],"type":"Point"},"properties":{"osm_id":"7282972920","tag":{"amenity":"recycling","recycling:waste":"yes","recycling_type":"container"}},"type":"Feature"},
	{"geometry":{"coordinates":[5.07836,52.320924],"type":"Point"},"properties":{"osm_id":"7282972921","tag":{"amenity":"recycling","recycling:waste":"yes","recycling_type":"container"}},"type":"Feature"}
]
}
