{
"type": "FeatureCollection",
"features": [
	{"geometry":{"coordinates":[5.083231,52.165573],"type":"Point"},"properties":{"osm_id":"759517975","tag":{"amenity":"recycling","recycling:clothes":"yes","recycling:glass":"yes","recycling_type":"container"}},"type":"Feature"},
	{"geometry":{"coordinates":[5.09488,52.17599],"type":"Point"},"properties":{"osm_id":"872722099","tag":{"amenity":"waste_basket"}},"type":"Feature"},
	{"geometry":{"coordinates":[5.02454,52.208109],"type":"Point"},"properties":{"osm_id":"1211073183","tag":{"amenity":"recycling","recycling:glass":"yes","recycling_type":"container"}},"type":"Feature"},
	{"geometry":{"coordinates":[5.02094,52.21023],"type":"Point"},"properties":{"osm_id":"1225231806","tag":{"amenity":"recycling","recycling:glass":"yes","recycling_type":"container"}},"type":"Feature"},
	{"geometry":{"coordinates":[5.022158,52.174064],"type":"Point"},"properties":{"osm_id":"1494561648","tag":{"amenity":"recycling","mapillary":"mMSAhCAAJnCOj501OgjgRQ","recycling:glass":"no","recycling:glass_bottles":"yes","recycling_type":"container","survey:date":"2019-07-23"}},"type":"Feature"},
	{"geometry":{"coordinates":[5.018725,52.183618],"type":"Point"},"properties":{"osm_id":"1494561693","tag":{"amenity":"recycling","mapillary":"5Oh7QBM_dBvax0-RqWXSMQ","recycling:glass":"no","recycling:glass_bottles":"yes","recycling_type":"container","survey:date":"2019-07-23"}},"type":"Feature"},
	{"geometry":{"coordinates":[5.07177,52.186454],"type":"Point"},"properties":{"osm_id":"2284018820","tag":{"amenity":"waste_basket"}},"type":"Feature"},
	{"geometry":{"coordinates":[5.072178,52.186449],"type":"Point"},"properties":{"osm_id":"2284018825","tag":{"amenity":"waste_basket"}},"type":"Feature"},
	{"geometry":{"coordinates":[5.082013,52.170077],"type":"Point"},"properties":{"osm_id":"3055057073","tag":{"amenity":"waste_basket"}},"type":"Feature"},
	{"geometry":{"coordinates":[5.083475,52.170426],"type":"Point"},"properties":{"osm_id":"3055057074","tag":{"amenity":"waste_basket"}},"type":"Feature"},
	{"geometry":{"coordinates":[5.08609,52.170994],"type":"Point"},"properties":{"osm_id":"3055057076","tag":{"amenity":"waste_basket"}},"type":"Feature"},
	{"geometry":{"coordinates":[5.091526,52.172073],"type":"Point"},"properties":{"osm_id":"3055057086","tag":{"amenity":"waste_basket"}},"type":"Feature"}
]
}
