{
"type": "FeatureCollection",
"features": [
	{"geometry":{"coordinates":[5.039225,52.009613],"type":"Point"},"properties":{"osm_id":"369938281","tag":{"amenity":"recycling","opening_hours":"24/7","operator":"Gemeente IJsselsteijn","recycling:clothes":"yes","recycling_type":"container","wheelchair":"yes"}},"type":"Feature"},
	{"geometry":{"coordinates":[5.075036,52.007795],"type":"Point"},"properties":{"osm_id":"826441809","tag":{"amenity":"waste_basket"}},"type":"Feature"},
	{"geometry":{"coordinates":[5.079958,52.009367],"type":"Point"},"properties":{"osm_id":"1257931934","tag":{"amenity":"waste_basket"}},"type":"Feature"},
	{"geometry":{"coordinates":[5.078129,52.008859],"type":"Point"},"properties":{"osm_id":"1258100392","tag":{"amenity":"waste_basket"}},"type":"Feature"},
	{"geometry":{"coordinates":[5.078219,52.00788],"type":"Point"},"properties":{"osm_id":"1378889065","tag":{"amenity":"waste_basket"}},"type":"Feature"},
	{"geometry":{"coordinates":[5.034761,52.013876],"type":"Point"},"properties":{"osm_id":"1777826388","tag":{"amenity":"recycling","recycling_type":"container"}},"type":"Feature"},
	{"geometry":{"coordinates":[5.082798,52.024208],"type":"Point"},"properties":{"osm_id":"1780993534","tag":{"amenity":"waste_basket"}},"type":"Feature"},
	{"geometry":{"coordinates":[5.08287,52.024139],"type":"Point"},"properties":{"osm_id":"1780993536","tag":{"amenity":"waste_basket"}},"type":"Feature"},
	{"geometry":{"coordinates":[5.082605,52.024167],"type":"Point"},"properties":{"osm_id":"1780993672","tag":{"amenity":"waste_basket"}},"type":"Feature"},
	{"geometry":{"coordinates":[5.088744,52.037442],"type":"Point"},"properties":{"osm_id":"1843181575","tag":{"amenity":"recycling","operator":"Sympany","recycling:clothes":"yes","recycling_type":"container"}},"type":"Feature"},
	{"geometry":{"coordinates":[5.088708,52.037568],"type":"Point"},"properties":{"osm_id":"1843181576","tag":{"amenity":"waste_basket"}},"type":"Feature"},
	{"geometry":{"coordinates":[5.088007,52.041063],"type":"Point"},"properties":{"osm_id":"1843181591","tag":{"amenity":"waste_basket"}},"type":"Feature"},
	{"geometry":{"coordinates":[5.091256,52.041761],"type":"Point"},"properties":{"osm_id":"1843181593","tag":{"amenity":"waste_basket"}},"type":"Feature"},
	{"geometry":{"coordinates":[5.088675,52.037444],"type":"Point"},"properties":{"osm_id":"1848987547","tag":{"amenity":"recycling","recycling:glass":"yes","recycling_type":"container"}},"type":"Feature"},
	{"geometry":{"coordinates":[5.074352,52.022958],"type":"Point"},"properties":{"osm_id":"1860181159","tag":{"amenity":"waste_basket"}},"type":"Feature"},
	{"geometry":{"coordinates":[5.075653,52.022624],"type":"Point"},"properties":{"osm_id":"1860183729","tag":{"amenity":"waste_basket"}},"type":"Feature"},
	{"geometry":{"coordinates":[5.07341,52.024919],"type":"Point"},"properties":{"osm_id":"1867830079","tag":{"amenity":"recycling","recycling:glass":"yes","recycling:glass_bottles":"yes","recycling_type":"container"}},"type":"Feature"},
	{"geometry":{"coordinates":[5.073469,52.024911],"type":"Point"},"properties":{"osm_id":"1867830923","tag":{"amenity":"recycling","recycling:books":"yes","recycling:cardboard":"yes","recycling:cartons":"yes","recycling:magazines":"yes","recycling:paper":"yes","recycling:paper_packaging":"yes","recycling_type":"container"}},"type":"Feature"},
	{"geometry":{"coordinates":[5.073766,52.021786],"type":"Point"},"properties":{"osm_id":"1870139129","tag":{"amenity":"recycling","recycling:books":"yes","recycling:cardboard":"yes","recycling:cartons":"yes","recycling:magazines":"yes","recycling:newspaper":"yes","recycling:paper":"yes","recycling:paper_packaging":"yes","recycling_type":"centre"}},"type":"Feature"},
	{"geometry":{"coordinates":[5.073827,52.021773],"type":"Point"},"properties":{"osm_id":"1870141238","tag":{"amenity":"recycling","recycling:glass":"yes","recycling:glass_bottles":"yes","recycling_type":"centre"}},"type":"Feature"},
	{"geometry":{"coordinates":[5.077996,52.030132],"type":"Point"},"properties":{"osm_id":"1899035138","tag":{"amenity":"recycling","recycling:glass":"yes","recycling:glass_bottles":"yes","recycling_type":"container"}},"type":"Feature"},
	{"geometry":{"coordinates":[5.078066,52.030119],"type":"Point"},"properties":{"osm_id":"1899036820","tag":{"amenity":"recycling","recycling:cardboard":"yes","recycling:cartons":"yes","recycling:magazines":"yes","recycling:newspaper":"yes","recycling:paper":"yes","recycling:paper_packaging":"yes","recycling_type":"container"}},"type":"Feature"},
	{"geometry":{"coordinates":[5.09614,52.051435],"type":"Point"},"properties":{"osm_id":"2050285936","tag":{"amenity":"waste_basket"}},"type":"Feature"},
	{"geometry":{"coordinates":[5.069816,52.029609],"type":"Point"},"properties":{"osm_id":"2144502285","tag":{"amenity":"recycling","recycling:glass":"yes","recycling_type":"container"}},"type":"Feature"},
	{"geometry":{"coordinates":[5.069864,52.029606],"type":"Point"},"properties":{"osm_id":"2144506040","tag":{"amenity":"recycling","recycling:books":"yes","recycling:cardboard":"yes","recycling:cartons":"yes","recycling:magazines":"yes","recycling:newspaper":"yes","recycling:paper":"yes","recycling:paper_packaging":"yes","recycling_type":"container"}},"type":"Feature"},
	{"geometry":{"coordinates":[5.071679,52.031018],"type":"Point"},"properties":{"osm_id":"2144675815","tag":{"amenity":"recycling","recycling:glass":"yes","recycling:glass_bottles":"yes","recycling_type":"container"}},"type":"Feature"},
	{"geometry":{"coordinates":[5.071759,52.031012],"type":"Point"},"properties":{"osm_id":"2144676013","tag":{"amenity":"recycling","recycling:books":"yes","recycling:cartons":"yes","recycling:magazines":"yes","recycling:newspaper":"yes","recycling:paper":"yes","recycling:paper_packaging":"yes","recycling_type":"container"}},"type":"Feature"},
	{"geometry":{"coordinates":[5.073975,52.032866],"type":"Point"},"properties":{"osm_id":"2145575042","tag":{"amenity":"waste_basket"}},"type":"Feature"},
	{"geometry":{"coordinates":[5.074697,52.032366],"type":"Point"},"properties":{"osm_id":"2145701464","tag":{"amenity":"waste_basket"}},"type":"Feature"},
	{"geometry":{"coordinates":[5.075252,52.033322],"type":"Point"},"properties":{"osm_id":"2145736411","tag":{"amenity":"waste_basket"}},"type":"Feature"},
	{"geometry":{"coordinates":[5.073821,52.034372],"type":"Point"},"properties":{"osm_id":"2145806652","tag":{"amenity":"recycling","recycling:glass":"yes","recycling:glass_bottles":"yes","recycling_type":"container"}},"type":"Feature"},
	{"geometry":{"coordinates":[5.073864,52.034369],"type":"Point"},"properties":{"osm_id":"2145807498","tag":{"amenity":"recycling","recycling:books":"yes","recycling:cardboard":"yes","recycling:cartons":"no","recycling:magazines":"yes","recycling:newspaper":"yes","recycling:paper":"yes","recycling:paper_packaging":"yes","recycling_type":"container"}},"type":"Feature"},
	{"geometry":{"coordinates":[5.083622,52.040569],"type":"Point"},"properties":{"osm_id":"2229365161","tag":{"amenity":"recycling","location":"underground","recycling:glass":"yes","recycling_type":"container"}},"type":"Feature"},
	{"geometry":{"coordinates":[5.077918,52.041661],"type":"Point"},"properties":{"osm_id":"2229367622","tag":{"amenity":"recycling","recycling_type":"container"}},"type":"Feature"},
	{"geometry":{"coordinates":[5.096265,52.005758],"type":"Point"},"properties":{"osm_id":"2579985049","tag":{"amenity":"waste_basket"}},"type":"Feature"},
	{"geometry":{"coordinates":[5.096325,52.006177],"type":"Point"},"properties":{"osm_id":"2579985056","tag":{"amenity":"waste_basket"}},"type":"Feature"},
	{"geometry":{"coordinates":[5.096663,52.006983],"type":"Point"},"properties":{"osm_id":"2579985061","tag":{"amenity":"waste_basket"}},"type":"Feature"},
	{"geometry":{"coordinates":[5.084683,52.021666],"type":"Point"},"properties":{"osm_id":"2626544501","tag":{"amenity":"waste_basket"}},"type":"Feature"},
	{"geometry":{"coordinates":[5.046688,52.016432],"type":"Point"},"properties":{"osm_id":"2631751376","tag":{"amenity":"waste_basket"}},"type":"Feature"},
	{"geometry":{"coordinates":[5.047352,52.016854],"type":"Point"},"properties":{"osm_id":"2631751393","tag":{"amenity":"waste_basket"}},"type":"Feature"},
	{"geometry":{"coordinates":[5.047929,52.017203],"type":"Point"},"properties":{"osm_id":"2631751407","tag":{"amenity":"waste_basket"}},"type":"Feature"},
	{"geometry":{"coordinates":[5.048729,52.017689],"type":"Point"},"properties":{"osm_id":"2631751418","tag":{"amenity":"waste_basket"}},"type":"Feature"},
	{"geometry":{"coordinates":[5.04917,52.017949],"type":"Point"},"properties":{"osm_id":"2631751427","tag":{"amenity":"waste_basket"}},"type":"Feature"},
	{"geometry":{"coordinates":[5.05032,52.018652],"type":"Point"},"properties":{"osm_id":"2631751439","tag":{"amenity":"waste_basket"}},"type":"Feature"},
	{"geometry":{"coordinates":[5.087668,52.043377],"type":"Point"},"properties":{"osm_id":"2641545262","tag":{"amenity":"waste_basket"}},"type":"Feature"},
	{"geometry":{"coordinates":[5.086832,52.046029],"type":"Point"},"properties":{"osm_id":"2644048418","tag":{"amenity":"waste_basket"}},"type":"Feature"},
	{"geometry":{"coordinates":[5.083663,52.04057],"type":"Point"},"properties":{"osm_id":"2646318449","tag":{"amenity":"recycling","location":"underground","recycling:paper":"yes","recycling_type":"container"}},"type":"Feature"},
	{"geometry":{"coordinates":[5.078082,52.047728],"type":"Point"},"properties":{"osm_id":"2648476861","tag":{"amenity":"recycling","recycling:paper":"yes","recycling_type":"centre"}},"type":"Feature"},
	{"geometry":{"coordinates":[5.078094,52.047751],"type":"Point"},"properties":{"osm_id":"2648476862","tag":{"amenity":"recycling","recycling:glass":"yes","recycling_type":"centre"}},"type":"Feature"},
	{"geometry":{"coordinates":[5.079628,52.043431],"type":"Point"},"properties":{"osm_id":"2649656826","tag":{"amenity":"waste_basket"}},"type":"Feature"},
	{"geometry":{"coordinates":[5.080102,52.043941],"type":"Point"},"properties":{"osm_id":"2649656835","tag":{"amenity":"waste_basket"}},"type":"Feature"},
	{"geometry":{"coordinates":[5.063257,52.01158],"type":"Point"},"properties":{"barrier":"lift_gate","osm_id":"2899115092"},"type":"Feature"},
	{"geometry":{"coordinates":[5.063304,52.011617],"type":"Point"},"properties":{"barrier":"lift_gate","osm_id":"2899115097"},"type":"Feature"},
	{"geometry":{"coordinates":[5.070838,52.020557],"type":"Point"},"properties":{"osm_id":"3044314286","tag":{"amenity":"recycling","recycling_type":"centre"}},"type":"Feature"},
	{"geometry":{"coordinates":[5.070822,52.02052],"type":"Point"},"properties":{"osm_id":"3044314287","tag":{"amenity":"recycling","recycling_type":"centre"}},"type":"Feature"},
	{"geometry":{"coordinates":[5.05637,52.017567],"type":"Point"},"properties":{"osm_id":"3517233050","tag":{"amenity":"waste_basket","waste_basket":"smoking_cigarettes"}},"type":"Feature"},
	{"geometry":{"coordinates":[5.050987,52.015736],"type":"Point"},"properties":{"osm_id":"3522466265","tag":{"amenity":"recycling","operator":"Kleding Inzameling Nederland","recycling:clothes":"yes","recycling_type":"container","website":"https://www.kledinginzameling.nl/"}},"type":"Feature"},
	{"geometry":{"coordinates":[5.051138,52.019559],"type":"Point"},"properties":{"osm_id":"3523797431","tag":{"amenity":"recycling","container":"waste_disposal","recycling_type":"container"}},"type":"Feature"},
	{"geometry":{"coordinates":[5.051157,52.019577],"type":"Point"},"properties":{"osm_id":"3523797432","tag":{"amenity":"recycling","container":"paper","recycling_type":"container"}},"type":"Feature"},
	{"geometry":{"coordinates":[5.050432,52.019858],"type":"Point"},"properties":{"osm_id":"3523797441","tag":{"amenity":"recycling","container":"waste_disposal","recycling_type":"container"}},"type":"Feature"},
	{"geometry":{"coordinates":[5.050451,52.019875],"type":"Point"},"properties":{"osm_id":"3523797442","tag":{"amenity":"recycling","container":"paper","recycling_type":"container"}},"type":"Feature"},
	{"geometry":{"coordinates":[5.049716,52.020176],"type":"Point"},"properties":{"osm_id":"3523797443","tag":{"amenity":"recycling","container":"waste_disposal","recycling_type":"container"}},"type":"Feature"},
	{"geometry":{"coordinates":[5.049735,52.020193],"type":"Point"},"properties":{"osm_id":"3523797444","tag":{"amenity":"recycling","container":"paper","recycling_type":"container"}},"type":"Feature"},
	{"geometry":{"coordinates":[5.05206,52.019422],"type":"Point"},"properties":{"osm_id":"3524523840","tag":{"amenity":"recycling","container":"paper","recycling_type":"container"}},"type":"Feature"},
	{"geometry":{"coordinates":[5.05204,52.019439],"type":"Point"},"properties":{"osm_id":"3524523841","tag":{"amenity":"recycling","container":"waste_disposal","recycling_type":"container"}},"type":"Feature"},
	{"geometry":{"coordinates":[5.052105,52.019848],"type":"Point"},"properties":{"osm_id":"3524523844","tag":{"amenity":"recycling","container":"waste_disposal","recycling_type":"container"}},"type":"Feature"},
	{"geometry":{"coordinates":[5.052138,52.01985],"type":"Point"},"properties":{"osm_id":"3524523845","tag":{"amenity":"recycling","container":"paper","recycling_type":"container"}},"type":"Feature"},
	{"geometry":{"coordinates":[5.046623,52.013397],"type":"Point"},"properties":{"osm_id":"3526166043","tag":{"amenity":"waste_basket","colour":"yellow"}},"type":"Feature"},
	{"geometry":{"coordinates":[5.096542,52.024793],"type":"Point"},"properties":{"osm_id":"3548498963","tag":{"amenity":"waste_basket","colour":"red"}},"type":"Feature"},
	{"geometry":{"coordinates":[5.095291,52.025525],"type":"Point"},"properties":{"osm_id":"3551965514","tag":{"amenity":"waste_basket","colour":"fuchsia"}},"type":"Feature"},
	{"geometry":{"coordinates":[5.096418,52.026005],"type":"Point"},"properties":{"osm_id":"3552195298","tag":{"amenity":"waste_basket","colour":"red"}},"type":"Feature"},
	{"geometry":{"coordinates":[5.088957,52.016087],"type":"Point"},"properties":{"osm_id":"3584443696","tag":{"amenity":"waste_basket","colour":"fuchsia"}},"type":"Feature"},
	{"geometry":{"coordinates":[5.090491,52.018848],"type":"Point"},"properties":{"osm_id":"3586811084","tag":{"amenity":"waste_disposal","waste_disposal:material":"concrete"}},"type":"Feature"},
	{"geometry":{"coordinates":[5.090869,52.018867],"type":"Point"},"properties":{"osm_id":"3586811085","tag":{"amenity":"recycling","location":"underground","recycling:paper":"yes","recycling_type":"container","underground":"yes"}},"type":"Feature"},
	{"geometry":{"coordinates":[5.090888,52.018868],"type":"Point"},"properties":{"osm_id":"3586811086","tag":{"amenity":"recycling","location":"underground","recycling:cans":"no","recycling:glass":"yes","recycling_type":"container","underground":"yes"}},"type":"Feature"},
	{"geometry":{"coordinates":[5.091165,52.019037],"type":"Point"},"properties":{"osm_id":"3586811087","tag":{"amenity":"waste_disposal","waste_disposal:material":"concrete"}},"type":"Feature"},
	{"geometry":{"coordinates":[5.091156,52.0193],"type":"Point"},"properties":{"osm_id":"3586811091","tag":{"amenity":"waste_disposal","waste_disposal:material":"concrete"}},"type":"Feature"},
	{"geometry":{"coordinates":[5.090456,52.018846],"type":"Point"},"properties":{"osm_id":"3586835776","tag":{"amenity":"waste_disposal","waste_disposal:material":"concrete"}},"type":"Feature"},
	{"geometry":{"coordinates":[5.091133,52.019437],"type":"Point"},"properties":{"osm_id":"3586835785","tag":{"amenity":"waste_disposal","waste_disposal:material":"concrete"}},"type":"Feature"},
	{"geometry":{"coordinates":[5.091117,52.019575],"type":"Point"},"properties":{"osm_id":"3586835786","tag":{"amenity":"waste_disposal","waste_disposal:material":"concrete"}},"type":"Feature"},
	{"geometry":{"coordinates":[5.085114,52.016739],"type":"Point"},"properties":{"osm_id":"3594999402","tag":{"amenity":"waste_basket","colour":"green","material":"steel"}},"type":"Feature"},
	{"geometry":{"coordinates":[5.086753,52.011147],"type":"Point"},"properties":{"osm_id":"3595272899","tag":{"amenity":"waste_basket","colour":"green"}},"type":"Feature"},
	{"geometry":{"coordinates":[5.096007,52.019031],"type":"Point"},"properties":{"osm_id":"3614808875","tag":{"amenity":"recycling","location":"underground","recycling:paper":"yes","recycling_type":"container"}},"type":"Feature"},
	{"geometry":{"coordinates":[5.095992,52.01903],"type":"Point"},"properties":{"osm_id":"3614808876","tag":{"amenity":"recycling","location":"underground","recycling:glass":"yes","recycling_type":"container"}},"type":"Feature"},
	{"geometry":{"coordinates":[5.039255,52.009619],"type":"Point"},"properties":{"osm_id":"4204310645","tag":{"amenity":"recycling","colour":"white;brown","opening_hours":"24/7","operator":"Gemeente IJsselsteijn","recycling:glass":"yes","recycling:glass_bottles":"yes","recycling_type":"container","wheelchair":"yes"}},"type":"Feature"},
	{"geometry":{"coordinates":[5.03929,52.009627],"type":"Point"},"properties":{"osm_id":"4204310646","tag":{"amenity":"recycling","colour":"white;green","opening_hours":"24/7","operator":"Gemeente IJsselsteijn","recycling:glass":"yes","recycling:glass_bottles":"yes","recycling_type":"container","wheelchair":"yes"}},"type":"Feature"},
	{"geometry":{"coordinates":[5.039326,52.009634],"type":"Point"},"properties":{"osm_id":"4204310647","tag":{"amenity":"recycling","colour":"white","opening_hours":"24/7","operator":"Gemeente IJsselsteijn","recycling:glass":"yes","recycling:glass_bottles":"yes","recycling_type":"container","wheelchair":"yes"}},"type":"Feature"},
	{"geometry":{"coordinates":[5.039358,52.009641],"type":"Point"},"properties":{"osm_id":"4204310648","tag":{"amenity":"recycling","colour":"white","opening_hours":"24/7","operator":"Gemeente IJsselsteijn","recycling:glass":"yes","recycling:glass_bottles":"yes","recycling_type":"container","wheelchair":"yes"}},"type":"Feature"},
	{"geometry":{"coordinates":[5.059521,52.027901],"type":"Point"},"properties":{"osm_id":"4326621365","tag":{"amenity":"waste_basket","ref:source":"1247489.0"}},"type":"Feature"},
	{"geometry":{"coordinates":[5.059005,52.028002],"type":"Point"},"properties":{"osm_id":"4326621366","tag":{"amenity":"waste_basket","ref:source":"1247490.0"}},"type":"Feature"},
	{"geometry":{"coordinates":[5.05772,52.028424],"type":"Point"},"properties":{"osm_id":"4326621367","tag":{"amenity":"waste_basket","ref:source":"1247491.0"}},"type":"Feature"},
	{"geometry":{"coordinates":[5.057073,52.028656],"type":"Point"},"properties":{"osm_id":"4326621368","tag":{"amenity":"waste_basket","ref:source":"1247492.0"}},"type":"Feature"},
	{"geometry":{"coordinates":[5.05635,52.029357],"type":"Point"},"properties":{"osm_id":"4326621369","tag":{"amenity":"waste_basket","ref:source":"1247493.0"}},"type":"Feature"},
	{"geometry":{"coordinates":[5.055585,52.029521],"type":"Point"},"properties":{"osm_id":"4326621370","tag":{"amenity":"waste_basket","ref:source":"1247454.0"}},"type":"Feature"},
	{"geometry":{"coordinates":[5.055867,52.029921],"type":"Point"},"properties":{"osm_id":"4326621371","tag":{"amenity":"waste_basket","ref:source":"1247455.0"}},"type":"Feature"},
	{"geometry":{"coordinates":[5.055454,52.030032],"type":"Point"},"properties":{"osm_id":"4326621372","tag":{"amenity":"waste_basket","ref:source":"1247457.0"}},"type":"Feature"},
	{"geometry":{"coordinates":[5.054788,52.030247],"type":"Point"},"properties":{"osm_id":"4326621373","tag":{"amenity":"waste_basket","ref:source":"1247458.0"}},"type":"Feature"},
	{"geometry":{"coordinates":[5.052324,52.034208],"type":"Point"},"properties":{"osm_id":"4326621374","tag":{"amenity":"waste_basket","ref:source":"1247448.0"}},"type":"Feature"},
	{"geometry":{"coordinates":[5.059302,52.035531],"type":"Point"},"properties":{"osm_id":"4326621375","tag":{"amenity":"waste_basket","ref:source":"1247486.0"}},"type":"Feature"},
	{"geometry":{"coordinates":[5.059741,52.036051],"type":"Point"},"properties":{"osm_id":"4326621376","tag":{"amenity":"waste_basket","ref:source":"1247488.0"}},"type":"Feature"},
	{"geometry":{"coordinates":[5.059153,52.036992],"type":"Point"},"properties":{"osm_id":"4326621377","tag":{"amenity":"waste_basket","ref:source":"1247484.0"}},"type":"Feature"},
	{"geometry":{"coordinates":[5.061319,52.039627],"type":"Point"},"properties":{"osm_id":"4326621378","tag":{"amenity":"waste_basket","ref:source":"1247482.0"}},"type":"Feature"},
	{"geometry":{"coordinates":[5.040616,52.025409],"type":"Point"},"properties":{"osm_id":"4498510154","tag":{"amenity":"waste_basket"}},"type":"Feature"},
	{"geometry":{"coordinates":[5.088711,52.037442],"type":"Point"},"properties":{"osm_id":"4854275687","tag":{"amenity":"recycling","recycling:paper":"yes","recycling_type":"container"}},"type":"Feature"},
	{"geometry":{"coordinates":[5.095681,52.008406],"type":"Point"},"properties":{"osm_id":"5035654828","tag":{"amenity":"waste_basket"}},"type":"Feature"},
	{"geometry":{"coordinates":[5.095168,52.008485],"type":"Point"},"properties":{"osm_id":"5035654847","tag":{"amenity":"waste_disposal"}},"type":"Feature"},
	{"geometry":{"coordinates":[5.094442,52.006619],"type":"Point"},"properties":{"osm_id":"5037538058","tag":{"amenity":"recycling","opening_hours":"24/7","operator":"RMN","recycling:cans":"yes","recycling:glass":"yes","recycling:glass_bottles":"yes","recycling_type":"container","wheelchair":"yes"}},"type":"Feature"},
	{"geometry":{"coordinates":[5.094445,52.006643],"type":"Point"},"properties":{"osm_id":"5037538059","tag":{"amenity":"recycling","opening_hours":"24/7","operator":"RMN","recycling:cardboard":"yes","recycling:paper":"yes","recycling_type":"container","wheelchair":"yes"}},"type":"Feature"},
	{"geometry":{"coordinates":[5.019406,52.045958],"type":"Point"},"properties":{"osm_id":"5698200457","tag":{"amenity":"recycling","recycling:glass_bottles":"yes","recycling:paper":"yes","recycling:plastic":"yes","recycling:plastic_bottles":"yes","recycling:waste":"yes","recycling_type":"container"}},"type":"Feature"},
	{"geometry":{"coordinates":[5.080651,52.007405],"type":"Point"},"properties":{"osm_id":"7375150222","tag":{"amenity":"recycling","recycling:glass_bottles":"yes","recycling_type":"container"}},"type":"Feature"},
	{"geometry":{"coordinates":[5.080162,52.007733],"type":"Point"},"properties":{"osm_id":"7375302048","tag":{"amenity":"waste_basket","waste":"trash"}},"type":"Feature"},
	{"geometry":{"coordinates":[5.075053,52.007367],"type":"Point"},"properties":{"osm_id":"7375302069","tag":{"amenity":"waste_basket","waste":"trash"}},"type":"Feature"},
	{"geometry":{"coordinates":[5.080432,52.006742],"type":"Point"},"properties":{"osm_id":"7376947624","tag":{"amenity":"waste_basket","waste":"dog_excrement"}},"type":"Feature"},
	{"geometry":{"coordinates":[5.080471,52.007875],"type":"Point"},"properties":{"osm_id":"7376947625","tag":{"amenity":"waste_basket","waste":"dog_excrement"}},"type":"Feature"},
	{"geometry":{"coordinates":[5.084812,52.006004],"type":"Point"},"properties":{"osm_id":"7383557341","tag":{"amenity":"recycling","recycling:glass_bottles":"yes","recycling_type":"container"}},"type":"Feature"},
	{"geometry":{"coordinates":[5.085423,52.005818],"type":"Point"},"properties":{"osm_id":"7383557342","tag":{"amenity":"waste_basket","waste":"trash"}},"type":"Feature"},
	{"geometry":{"coordinates":[5.085554,52.00574],"type":"Point"},"properties":{"osm_id":"7383557346","tag":{"amenity":"waste_basket","waste":"trash"}},"type":"Feature"},
	{"geometry":{"coordinates":[5.084587,52.00551],"type":"Point"},"properties":{"osm_id":"7383557347","tag":{"amenity":"waste_basket","waste":"trash"}},"type":"Feature"},
	{"geometry":{"coordinates":[5.084213,52.005581],"type":"Point"},"properties":{"osm_id":"7383557348","tag":{"amenity":"waste_basket","waste":"trash"}},"type":"Feature"},
	{"geometry":{"coordinates":[5.08285,52.006382],"type":"Point"},"properties":{"osm_id":"7383557362","tag":{"amenity":"waste_basket","waste":"trash"}},"type":"Feature"},
	{"geometry":{"coordinates":[5.085978,52.005662],"type":"Point"},"properties":{"osm_id":"7383568146","tag":{"amenity":"waste_basket","waste":"trash"}},"type":"Feature"},
	{"geometry":{"coordinates":[5.081782,52.007195],"type":"Point"},"properties":{"osm_id":"7385618609","tag":{"amenity":"waste_basket","waste":"trash"}},"type":"Feature"},
	{"geometry":{"coordinates":[5.079956,52.00617],"type":"Point"},"properties":{"osm_id":"7385618636","tag":{"amenity":"waste_basket","waste":"trash"}},"type":"Feature"},
	{"geometry":{"coordinates":[5.080658,52.006523],"type":"Point"},"properties":{"osm_id":"7385618651","tag":{"amenity":"waste_basket","waste":"dog_excrement"}},"type":"Feature"},
	{"geometry":{"coordinates":[5.0818,52.007611],"type":"Point"},"properties":{"osm_id":"7387267748","tag":{"amenity":"waste_basket","waste":"dog_excrement"}},"type":"Feature"},
	{"geometry":{"coordinates":[5.074479,52.019841],"type":"Point"},"properties":{"osm_id":"7387383449","tag":{"amenity":"waste_basket","waste":"trash"}},"type":"Feature"},
	{"geometry":{"coordinates":[5.084946,52.00614],"type":"Point"},"properties":{"osm_id":"7388771662","tag":{"amenity":"waste_basket","waste":"trash"}},"type":"Feature"},
	{"geometry":{"coordinates":[5.084368,52.00602],"type":"Point"},"properties":{"osm_id":"7388771663","tag":{"amenity":"waste_basket","waste":"trash"}},"type":"Feature"},
	{"geometry":{"coordinates":[5.081755,52.00695],"type":"Point"},"properties":{"osm_id":"7400134264","tag":{"amenity":"waste_basket","waste":"dog_excrement"}},"type":"Feature"},
	{"geometry":{"coordinates":[5.079368,52.006492],"type":"Point"},"properties":{"osm_id":"7400134275","tag":{"amenity":"waste_basket","waste":"dog_excrement"}},"type":"Feature"},
	{"geometry":{"coordinates":[5.083375,52.005493],"type":"Point"},"properties":{"osm_id":"7403500862","tag":{"amenity":"waste_basket","waste":"trash"}},"type":"Feature"},
	{"geometry":{"coordinates":[5.076521,52.007985],"type":"Point"},"properties":{"osm_id":"7412645814","tag":{"amenity":"waste_basket","waste":"dog_excrement"}},"type":"Feature"},
	{"geometry":{"coordinates":[5.08369,52.017285],"type":"Point"},"properties":{"osm_id":"7414784789","tag":{"amenity":"waste_basket","waste":"trash"}},"type":"Feature"},
	{"geometry":{"coordinates":[5.084775,52.016891],"type":"Point"},"properties":{"osm_id":"7414784842","tag":{"amenity":"waste_basket","waste":"trash"}},"type":"Feature"},
	{"geometry":{"coordinates":[5.084276,52.016337],"type":"Point"},"properties":{"osm_id":"7414784843","tag":{"amenity":"waste_basket","waste":"trash"}},"type":"Feature"},
	{"geometry":{"coordinates":[5.080478,52.005788],"type":"Point"},"properties":{"osm_id":"7415269391","tag":{"amenity":"waste_basket","waste":"dog_excrement"}},"type":"Feature"},
	{"geometry":{"coordinates":[5.085574,52.005959],"type":"Point"},"properties":{"osm_id":"7415269395","tag":{"amenity":"waste_basket","waste":"trash"}},"type":"Feature"},
	{"geometry":{"coordinates":[5.085047,52.006722],"type":"Point"},"properties":{"osm_id":"7415269396","tag":{"amenity":"waste_disposal","waste":"trash"}},"type":"Feature"},
	{"geometry":{"coordinates":[5.08521,52.006374],"type":"Point"},"properties":{"osm_id":"7415269397","tag":{"amenity":"recycling","operator":"Sympany","recycling:clothes":"yes","recycling:glass":"no","recycling:waste":"no","recycling_type":"container","website":"www.sympany.nl","wheelchair":"yes"}},"type":"Feature"},
	{"geometry":{"coordinates":[5.085858,52.005619],"type":"Point"},"properties":{"osm_id":"7415269398","tag":{"amenity":"waste_basket","waste":"trash"}},"type":"Feature"},
	{"geometry":{"coordinates":[5.096726,52.003734],"type":"Point"},"properties":{"osm_id":"7431512913","tag":{"amenity":"waste_basket","waste":"trash"}},"type":"Feature"},
	{"geometry":{"coordinates":[5.096421,52.003669],"type":"Point"},"properties":{"osm_id":"7431512921","tag":{"amenity":"waste_basket","waste":"trash"}},"type":"Feature"},
	{"geometry":{"coordinates":[5.096523,52.003711],"type":"Point"},"properties":{"osm_id":"7431512922","tag":{"amenity":"waste_basket","waste":"trash"}},"type":"Feature"},
	{"geometry":{"coordinates":[5.08409,52.008956],"type":"Point"},"properties":{"osm_id":"7434343739","tag":{"amenity":"recycling","recycling:glass_bottles":"yes","recycling_type":"container"}},"type":"Feature"},
	{"geometry":{"coordinates":[5.090659,52.018033],"type":"Point"},"properties":{"osm_id":"7471569769","tag":{"amenity":"recycling","operator":"Sympany","recycling:clothes":"yes","recycling_type":"container","website":"www.sympany.nl"}},"type":"Feature"},
	{"geometry":{"coordinates":[5.082263,52.017797],"type":"Point"},"properties":{"osm_id":"7471569815","tag":{"amenity":"waste_basket","waste":"trash"}},"type":"Feature"},
	{"geometry":{"coordinates":[5.082729,52.018157],"type":"Point"},"properties":{"osm_id":"7471569816","tag":{"amenity":"waste_basket","waste":"trash"}},"type":"Feature"},
	{"geometry":{"coordinates":[5.084007,52.016834],"type":"Point"},"properties":{"osm_id":"7471569833","tag":{"amenity":"waste_basket","waste":"trash"}},"type":"Feature"},
	{"geometry":{"coordinates":[5.083236,52.016589],"type":"Point"},"properties":{"osm_id":"7471569834","tag":{"amenity":"waste_basket","waste":"trash"}},"type":"Feature"},
	{"geometry":{"coordinates":[5.083452,52.016644],"type":"Point"},"properties":{"osm_id":"7471569835","tag":{"amenity":"waste_basket","waste":"trash"}},"type":"Feature"},
	{"geometry":{"coordinates":[5.084579,52.017443],"type":"Point"},"properties":{"osm_id":"7471569836","tag":{"amenity":"waste_basket","waste":"trash"}},"type":"Feature"},
	{"geometry":{"coordinates":[5.0951,52.003464],"type":"Point"},"properties":{"osm_id":"7479744209","tag":{"amenity":"waste_basket","waste":"trash"}},"type":"Feature"},
	{"geometry":{"coordinates":[5.095324,52.003672],"type":"Point"},"properties":{"osm_id":"7479744210","tag":{"amenity":"waste_basket","waste":"trash"}},"type":"Feature"},
	{"geometry":{"coordinates":[5.088885,52.032463],"type":"Point"},"properties":{"osm_id":"7481784279","tag":{"amenity":"waste_basket"}},"type":"Feature"},
	{"geometry":{"coordinates":[5.081725,52.010779],"type":"Point"},"properties":{"osm_id":"7483168353","tag":{"amenity":"waste_basket","waste":"dog_excrement"}},"type":"Feature"},
	{"geometry":{"coordinates":[5.084329,52.005309],"type":"Point"},"properties":{"osm_id":"7494751084","tag":{"amenity":"waste_basket","waste":"trash"}},"type":"Feature"},
	{"geometry":{"coordinates":[5.07435,52.021267],"type":"Point"},"properties":{"osm_id":"7593009230","tag":{"amenity":"waste_basket","waste":"trash"}},"type":"Feature"},
	{"geometry":{"coordinates":[5.095611,52.02433],"type":"Point"},"properties":{"osm_id":"7605444551","tag":{"amenity":"waste_basket","waste":"dog_excrement"}},"type":"Feature"},
	{"geometry":{"coordinates":[5.08092,52.01214],"type":"Point"},"properties":{"osm_id":"7623966087","tag":{"amenity":"waste_basket"}},"type":"Feature"},
	{"geometry":{"coordinates":[5.087973,52.034006],"type":"Point"},"properties":{"osm_id":"7746585021","tag":{"amenity":"waste_basket"}},"type":"Feature"},
	{"geometry":{"coordinates":[5.010589,52.043812],"type":"Point"},"properties":{"osm_id":"7818167648","tag":{"amenity":"waste_basket","waste":"trash"}},"type":"Feature"},
	{"geometry":{"coordinates":[5.084776,52.005995],"type":"Point"},"properties":{"osm_id":"7843763998","tag":{"amenity":"waste_disposal","waste":"trash"}},"type":"Feature"},
	{"geometry":{"coordinates":[5.08485,52.006011],"type":"Point"},"properties":{"osm_id":"7843763999","tag":{"amenity":"recycling","recycling:paper":"yes","recycling_type":"container"}},"type":"Feature"},
	{"geometry":{"coordinates":[5.082931,52.006657],"type":"Point"},"properties":{"osm_id":"7843770904","tag":{"amenity":"waste_basket","waste":"trash"}},"type":"Feature"},
	{"geometry":{"coordinates":[5.084325,52.006861],"type":"Point"},"properties":{"osm_id":"7843770934","tag":{"amenity":"waste_basket","waste":"dog_excrement"}},"type":"Feature"},
	{"geometry":{"coordinates":[5.082993,52.007055],"type":"Point"},"properties":{"osm_id":"7843770936","tag":{"amenity":"waste_basket","waste":"trash"}},"type":"Feature"},
	{"geometry":{"coordinates":[5.083463,52.006536],"type":"Point"},"properties":{"osm_id":"7843770937","tag":{"amenity":"waste_basket","waste":"trash"}},"type":"Feature"}
]
}
