{
"type": "FeatureCollection",
"features": [
	{"geometry":{"coordinates":[5.028728,51.821423],"type":"Point"},"properties":{"osm_id":"2347221848","tag":{"amenity":"waste_basket"}},"type":"Feature"},
	{"geometry":{"coordinates":[5.028748,51.821438],"type":"Point"},"properties":{"osm_id":"2347221849","tag":{"amenity":"waste_basket"}},"type":"Feature"},
	{"geometry":{"coordinates":[5.029646,51.82112],"type":"Point"},"properties":{"osm_id":"2347758357","tag":{"amenity":"waste_basket"}},"type":"Feature"},
	{"geometry":{"coordinates":[5.029645,51.821127],"type":"Point"},"properties":{"osm_id":"2347758361","tag":{"amenity":"waste_basket"}},"type":"Feature"},
	{"geometry":{"coordinates":[5.048979,51.832248],"type":"Point"},"properties":{"osm_id":"2374954299","tag":{"amenity":"waste_basket"}},"type":"Feature"},
	{"geometry":{"coordinates":[5.048494,51.823302],"type":"Point"},"properties":{"osm_id":"2850187965","tag":{"amenity":"waste_basket"}},"type":"Feature"},
	{"geometry":{"coordinates":[5.030084,51.821122],"type":"Point"},"properties":{"osm_id":"2850230195","tag":{"amenity":"waste_basket"}},"type":"Feature"},
	{"geometry":{"coordinates":[5.0305,51.821201],"type":"Point"},"properties":{"osm_id":"2850230196","tag":{"amenity":"waste_basket"}},"type":"Feature"},
	{"geometry":{"coordinates":[5.011237,51.823687],"type":"Point"},"properties":{"osm_id":"2850260060","tag":{"amenity":"waste_basket"}},"type":"Feature"},
	{"geometry":{"coordinates":[5.093295,51.814029],"type":"Point"},"properties":{"osm_id":"7056522315","tag":{"amenity":"waste_disposal","waste":"recycling;glass;paper;clothes"}},"type":"Feature"},
	{"geometry":{"coordinates":[5.094656,51.81403],"type":"Point"},"properties":{"osm_id":"7056522316","tag":{"access":"customers","amenity":"waste_disposal","operator":"Avri","waste":"trash","website":"https://www.avri.nl/inwoners/afval/containersafvalpas/ondergrondse-restafvalcontainers/"}},"type":"Feature"},
	{"geometry":{"coordinates":[5.094231,51.816563],"type":"Point"},"properties":{"osm_id":"7056522324","tag":{"access":"customers","amenity":"waste_disposal","operator":"Avri","waste":"trash","website":"https://www.avri.nl/inwoners/afval/containersafvalpas/ondergrondse-restafvalcontainers/"}},"type":"Feature"}
]
}
