{
"type": "FeatureCollection",
"features": [
	{"geometry":{"coordinates":[5.068981,51.691621],"type":"Point"},"properties":{"osm_id":"4003704805","tag":{"amenity":"waste_basket"}},"type":"Feature"},
	{"geometry":{"coordinates":[5.067832,51.698123],"type":"Point"},"properties":{"name":"Milieustraat Waalwijk","osm_id":"4638864629","tag":{"amenity":"recycling","recycling_type":"centre"}},"type":"Feature"},
	{"geometry":{"coordinates":[5.054201,51.682998],"type":"Point"},"properties":{"osm_id":"5072123659","tag":{"amenity":"waste_basket"}},"type":"Feature"},
	{"geometry":{"coordinates":[5.05564,51.683552],"type":"Point"},"properties":{"osm_id":"5072877659","tag":{"amenity":"waste_basket"}},"type":"Feature"},
	{"geometry":{"coordinates":[5.074147,51.712843],"type":"Point"},"properties":{"osm_id":"5075779624","tag":{"amenity":"waste_basket"}},"type":"Feature"},
	{"geometry":{"coordinates":[5.043674,51.68144],"type":"Point"},"properties":{"osm_id":"9093470767","tag":{"amenity":"waste_basket"}},"type":"Feature"}
]
}
