{
"type": "FeatureCollection",
"features": [
	{"geometry":{"coordinates":[5.047817,51.653379],"type":"Point"},"properties":{"name":"Baby Gijsje","osm_id":"697272374","tag":{"amenity":"waste_basket","website":"https://www.eftepedia.nl/lemma/Baby_Gijsje"}},"type":"Feature"},
	{"geometry":{"coordinates":[5.037492,51.645892],"type":"Point"},"properties":{"osm_id":"1915352894","tag":{"amenity":"recycling","recycling_type":"container"}},"type":"Feature"},
	{"geometry":{"coordinates":[5.042321,51.646642],"type":"Point"},"properties":{"osm_id":"1915353076","tag":{"amenity":"recycling","recycling_type":"container"}},"type":"Feature"},
	{"geometry":{"coordinates":[5.049723,51.648837],"type":"Point"},"properties":{"osm_id":"2946731360","tag":{"amenity":"waste_basket"}},"type":"Feature"},
	{"geometry":{"coordinates":[5.041618,51.643701],"type":"Point"},"properties":{"osm_id":"2959767864","tag":{"amenity":"recycling","recycling_type":"container"}},"type":"Feature"},
	{"geometry":{"coordinates":[5.076644,51.625906],"type":"Point"},"properties":{"osm_id":"5143282183","tag":{"amenity":"recycling","recycling:glass_bottles":"yes","recycling_type":"container"}},"type":"Feature"},
	{"geometry":{"coordinates":[5.0794,51.624449],"type":"Point"},"properties":{"osm_id":"5143283657","tag":{"amenity":"recycling","recycling:glass_bottles":"yes","recycling_type":"container"}},"type":"Feature"},
	{"geometry":{"coordinates":[5.048433,51.651475],"type":"Point"},"properties":{"osm_id":"5368494904","tag":{"amenity":"waste_basket"}},"type":"Feature"},
	{"geometry":{"coordinates":[5.04913,51.651577],"type":"Point"},"properties":{"osm_id":"5368494924","tag":{"amenity":"waste_basket"}},"type":"Feature"},
	{"geometry":{"coordinates":[5.047085,51.651694],"type":"Point"},"properties":{"osm_id":"5368737034","tag":{"amenity":"waste_basket"}},"type":"Feature"},
	{"geometry":{"coordinates":[5.047055,51.651734],"type":"Point"},"properties":{"osm_id":"5368737035","tag":{"amenity":"waste_basket"}},"type":"Feature"},
	{"geometry":{"coordinates":[5.047677,51.651848],"type":"Point"},"properties":{"osm_id":"5368737041","tag":{"amenity":"waste_basket"}},"type":"Feature"},
	{"geometry":{"coordinates":[5.048499,51.652388],"type":"Point"},"properties":{"osm_id":"5680540717","tag":{"amenity":"waste_basket"}},"type":"Feature"},
	{"geometry":{"coordinates":[5.047936,51.652227],"type":"Point"},"properties":{"osm_id":"5680541221","tag":{"amenity":"waste_basket"}},"type":"Feature"},
	{"geometry":{"coordinates":[5.048137,51.651996],"type":"Point"},"properties":{"osm_id":"5680541222","tag":{"amenity":"waste_basket"}},"type":"Feature"},
	{"geometry":{"coordinates":[5.04807,51.652114],"type":"Point"},"properties":{"osm_id":"5680541223","tag":{"amenity":"waste_basket"}},"type":"Feature"},
	{"geometry":{"coordinates":[5.046814,51.65265],"type":"Point"},"properties":{"osm_id":"5683316563","tag":{"amenity":"waste_basket"}},"type":"Feature"},
	{"geometry":{"coordinates":[5.048985,51.648383],"type":"Point"},"properties":{"name":"Matroos Gijs","osm_id":"5904728868","tag":{"amenity":"waste_basket","website":"https://www.eftepedia.nl/lemma/Matroos_Gijs"}},"type":"Feature"},
	{"geometry":{"coordinates":[5.04908,51.647685],"type":"Point"},"properties":{"name":"Inca Gijs","osm_id":"5935155264","tag":{"amenity":"waste_basket","website":"https://www.eftepedia.nl/lemma/Inca_Gijs"}},"type":"Feature"},
	{"geometry":{"coordinates":[5.046853,51.648125],"type":"Point"},"properties":{"name":"Oompje Gijs","osm_id":"5935209319","tag":{"amenity":"waste_basket","website":"https://www.eftepedia.nl/lemma/Tiroler_Gijs"}},"type":"Feature"},
	{"geometry":{"coordinates":[5.053452,51.651906],"type":"Point"},"properties":{"name":"Nijltje in het Teiltje","osm_id":"5935209320","tag":{"amenity":"waste_basket","website":"https://www.eftepedia.nl/lemma/Nijltje_in_het_Teiltje"}},"type":"Feature"},
	{"geometry":{"coordinates":[5.049228,51.652484],"type":"Point"},"properties":{"name":"Speeltuin Gijs","osm_id":"5937495296","tag":{"amenity":"waste_basket","website":"https://www.eftepedia.nl/lemma/Speeltuin_Gijs"}},"type":"Feature"},
	{"geometry":{"coordinates":[5.04766,51.649488],"type":"Point"},"properties":{"name":"Wagen Gijs","osm_id":"5937495297","tag":{"amenity":"waste_basket","website":"https://www.eftepedia.nl/lemma/Wagen_Gijs"}},"type":"Feature"},
	{"geometry":{"coordinates":[5.050221,51.652569],"type":"Point"},"properties":{"name":"Moeder Gijs","osm_id":"5937502354","tag":{"amenity":"waste_basket","website":"https://www.eftepedia.nl/lemma/Moeder_Gijs"}},"type":"Feature"},
	{"geometry":{"coordinates":[5.049011,51.651399],"type":"Point"},"properties":{"osm_id":"6295835215","tag":{"amenity":"waste_basket"}},"type":"Feature"},
	{"geometry":{"coordinates":[5.053383,51.648328],"type":"Point"},"properties":{"osm_id":"6295835630","tag":{"amenity":"waste_basket"}},"type":"Feature"},
	{"geometry":{"coordinates":[5.048256,51.651278],"type":"Point"},"properties":{"osm_id":"6295835631","tag":{"amenity":"waste_basket"}},"type":"Feature"},
	{"geometry":{"coordinates":[5.048626,51.651337],"type":"Point"},"properties":{"osm_id":"6295836688","tag":{"amenity":"waste_basket"}},"type":"Feature"},
	{"geometry":{"coordinates":[5.053511,51.645837],"type":"Point"},"properties":{"osm_id":"6437193131","tag":{"amenity":"waste_basket"}},"type":"Feature"},
	{"geometry":{"coordinates":[5.053519,51.645822],"type":"Point"},"properties":{"osm_id":"6437193132","tag":{"amenity":"waste_basket"}},"type":"Feature"},
	{"geometry":{"coordinates":[5.053533,51.645806],"type":"Point"},"properties":{"osm_id":"6437193133","tag":{"amenity":"waste_basket"}},"type":"Feature"},
	{"geometry":{"coordinates":[5.053544,51.645787],"type":"Point"},"properties":{"osm_id":"6437193134","tag":{"amenity":"waste_basket"}},"type":"Feature"},
	{"geometry":{"coordinates":[5.013477,51.623921],"type":"Point"},"properties":{"osm_id":"6710205120","tag":{"amenity":"waste_basket"}},"type":"Feature"},
	{"geometry":{"coordinates":[5.01357,51.623707],"type":"Point"},"properties":{"osm_id":"6710205122","tag":{"amenity":"waste_basket"}},"type":"Feature"},
	{"geometry":{"coordinates":[5.049291,51.649883],"type":"Point"},"properties":{"osm_id":"7129476204","tag":{"amenity":"waste_basket"}},"type":"Feature"},
	{"geometry":{"coordinates":[5.045674,51.649358],"type":"Point"},"properties":{"osm_id":"7161367999","tag":{"amenity":"waste_basket"}},"type":"Feature"},
	{"geometry":{"coordinates":[5.047094,51.649479],"type":"Point"},"properties":{"osm_id":"7165020184","tag":{"amenity":"waste_basket"}},"type":"Feature"},
	{"geometry":{"coordinates":[5.047492,51.649494],"type":"Point"},"properties":{"osm_id":"7165060488","tag":{"amenity":"waste_basket"}},"type":"Feature"},
	{"geometry":{"coordinates":[5.047537,51.649551],"type":"Point"},"properties":{"osm_id":"7165060493","tag":{"amenity":"waste_basket"}},"type":"Feature"},
	{"geometry":{"coordinates":[5.047794,51.649706],"type":"Point"},"properties":{"osm_id":"7165060498","tag":{"amenity":"waste_basket"}},"type":"Feature"},
	{"geometry":{"coordinates":[5.047916,51.64969],"type":"Point"},"properties":{"osm_id":"7165060502","tag":{"amenity":"waste_basket"}},"type":"Feature"},
	{"geometry":{"coordinates":[5.047828,51.649806],"type":"Point"},"properties":{"osm_id":"7165060503","tag":{"amenity":"waste_basket"}},"type":"Feature"},
	{"geometry":{"coordinates":[5.047646,51.650289],"type":"Point"},"properties":{"osm_id":"7165060511","tag":{"amenity":"waste_basket"}},"type":"Feature"},
	{"geometry":{"coordinates":[5.04764,51.650505],"type":"Point"},"properties":{"osm_id":"7165060521","tag":{"amenity":"waste_basket"}},"type":"Feature"},
	{"geometry":{"coordinates":[5.047402,51.65057],"type":"Point"},"properties":{"osm_id":"7165060554","tag":{"amenity":"waste_basket"}},"type":"Feature"},
	{"geometry":{"coordinates":[5.047515,51.650563],"type":"Point"},"properties":{"osm_id":"7165060568","tag":{"amenity":"waste_basket"}},"type":"Feature"},
	{"geometry":{"coordinates":[5.047044,51.650992],"type":"Point"},"properties":{"osm_id":"7165060618","tag":{"amenity":"waste_basket"}},"type":"Feature"},
	{"geometry":{"coordinates":[5.04728,51.651012],"type":"Point"},"properties":{"osm_id":"7165060622","tag":{"amenity":"waste_basket"}},"type":"Feature"},
	{"geometry":{"coordinates":[5.047435,51.651014],"type":"Point"},"properties":{"osm_id":"7165060624","tag":{"amenity":"waste_basket"}},"type":"Feature"},
	{"geometry":{"coordinates":[5.048152,51.651298],"type":"Point"},"properties":{"osm_id":"7165060636","tag":{"amenity":"waste_basket"}},"type":"Feature"},
	{"geometry":{"coordinates":[5.045978,51.65084],"type":"Point"},"properties":{"name":"Opa Gijs","osm_id":"7170488297","tag":{"amenity":"waste_basket","website":"https://www.eftepedia.nl/lemma/Opa_Gijs"}},"type":"Feature"},
	{"geometry":{"coordinates":[5.048678,51.651741],"type":"Point"},"properties":{"name":"Geeuwende Gijs","osm_id":"7170488298","tag":{"amenity":"waste_basket","website":"https://www.eftepedia.nl/lemma/Geeuwende_Gijs"}},"type":"Feature"},
	{"geometry":{"coordinates":[5.053518,51.649541],"type":"Point"},"properties":{"osm_id":"7487410647","tag":{"amenity":"waste_basket"}},"type":"Feature"},
	{"geometry":{"coordinates":[5.053648,51.649776],"type":"Point"},"properties":{"osm_id":"7487410673","tag":{"amenity":"waste_basket"}},"type":"Feature"},
	{"geometry":{"coordinates":[5.039495,51.643947],"type":"Point"},"properties":{"osm_id":"7502107097","tag":{"amenity":"recycling","recycling_type":"container"}},"type":"Feature"},
	{"geometry":{"coordinates":[5.037449,51.643821],"type":"Point"},"properties":{"osm_id":"7502107098","tag":{"amenity":"recycling","recycling_type":"container"}},"type":"Feature"},
	{"geometry":{"coordinates":[5.047494,51.64481],"type":"Point"},"properties":{"osm_id":"7502118724","tag":{"amenity":"recycling","recycling_type":"container"}},"type":"Feature"},
	{"geometry":{"coordinates":[5.050192,51.644528],"type":"Point"},"properties":{"osm_id":"7502118727","tag":{"amenity":"recycling","recycling_type":"container"}},"type":"Feature"},
	{"geometry":{"coordinates":[5.049115,51.645262],"type":"Point"},"properties":{"osm_id":"7502118729","tag":{"amenity":"recycling","recycling_type":"container"}},"type":"Feature"}
]
}
