{
"type": "FeatureCollection",
"lastupdate": "2020-08-04T00:00:00Z",
"features": [
	{"geometry":{"coordinates":[5.013423,51.412814],"type":"Point"},"properties":{"osm_id":"2159756361","tag":{"amenity":"waste_basket"}},"type":"Feature"},
	{"geometry":{"coordinates":[5.013446,51.41286],"type":"Point"},"properties":{"osm_id":"2159756370","tag":{"amenity":"recycling","operator":"Vlaams Inzamel Centrum Textiel","recycling:clothes":"yes","recycling_type":"container"}},"type":"Feature"},
	{"geometry":{"coordinates":[5.043418,51.446563],"type":"Point"},"properties":{"osm_id":"4310296233","tag":{"amenity":"waste_basket"}},"type":"Feature"},
	{"geometry":{"coordinates":[5.043712,51.446575],"type":"Point"},"properties":{"osm_id":"4310296235","tag":{"amenity":"waste_basket"}},"type":"Feature"},
	{"geometry":{"coordinates":[5.043364,51.446722],"type":"Point"},"properties":{"osm_id":"4310296254","tag":{"amenity":"waste_basket"}},"type":"Feature"},
	{"geometry":{"coordinates":[5.041655,51.446856],"type":"Point"},"properties":{"osm_id":"4312139654","tag":{"amenity":"waste_basket"}},"type":"Feature"},
	{"geometry":{"coordinates":[5.04155,51.446939],"type":"Point"},"properties":{"osm_id":"4333669898","tag":{"amenity":"waste_basket"}},"type":"Feature"},
	{"geometry":{"coordinates":[5.016199,51.413442],"type":"Point"},"properties":{"osm_id":"4338859735","tag":{"amenity":"waste_basket"}},"type":"Feature"},
	{"geometry":{"coordinates":[5.03883,51.445711],"type":"Point"},"properties":{"osm_id":"4342490443","tag":{"amenity":"waste_basket"}},"type":"Feature"},
	{"geometry":{"coordinates":[5.038661,51.445972],"type":"Point"},"properties":{"osm_id":"4342490716","tag":{"amenity":"recycling","operator":"Wereld Missie Hulp","recycling:clothes":"yes","recycling_type":"container"}},"type":"Feature"},
	{"geometry":{"coordinates":[5.01175,51.453753],"type":"Point"},"properties":{"osm_id":"4345725383","tag":{"amenity":"waste_basket"}},"type":"Feature"},
	{"geometry":{"coordinates":[5.043144,51.446872],"type":"Point"},"properties":{"osm_id":"4389097186","tag":{"amenity":"waste_basket"}},"type":"Feature"},
	{"geometry":{"coordinates":[5.016041,51.411837],"type":"Point"},"properties":{"osm_id":"4391630427","tag":{"amenity":"waste_basket"}},"type":"Feature"},
	{"geometry":{"coordinates":[5.038619,51.421543],"type":"Point"},"properties":{"osm_id":"4397314627","tag":{"amenity":"waste_basket"}},"type":"Feature"},
	{"geometry":{"coordinates":[5.033994,51.424758],"type":"Point"},"properties":{"osm_id":"4401015559","tag":{"amenity":"waste_basket"}},"type":"Feature"},
	{"geometry":{"coordinates":[5.015092,51.41555],"type":"Point"},"properties":{"osm_id":"4407994852","tag":{"amenity":"waste_basket"}},"type":"Feature"},
	{"geometry":{"coordinates":[5.014601,51.416383],"type":"Point"},"properties":{"osm_id":"4407994871","tag":{"amenity":"recycling","recycling:glass_bottles":"yes","recycling_type":"container"}},"type":"Feature"},
	{"geometry":{"coordinates":[5.01564,51.414974],"type":"Point"},"properties":{"osm_id":"4409468171","tag":{"amenity":"recycling","colour":"blue","operator":"Textiel Recycling","recycling:clothes":"yes","recycling_type":"container"}},"type":"Feature"},
	{"geometry":{"coordinates":[5.012282,51.412718],"type":"Point"},"properties":{"osm_id":"4414694659","tag":{"amenity":"recycling","operator":"V.H.S. Europ","recycling:clothes":"yes","recycling_type":"container"}},"type":"Feature"},
	{"geometry":{"coordinates":[5.015743,51.412936],"type":"Point"},"properties":{"osm_id":"4414694689","tag":{"amenity":"recycling","recycling:clothes":"yes","recycling_type":"container"}},"type":"Feature"},
	{"geometry":{"coordinates":[5.014727,51.41195],"type":"Point"},"properties":{"osm_id":"4418840605","tag":{"amenity":"recycling","operator":"Vlaams Inzamel Centrum Textiel","recycling:clothes":"yes","recycling_type":"container"}},"type":"Feature"},
	{"geometry":{"coordinates":[5.011755,51.406226],"type":"Point"},"properties":{"osm_id":"5532143941","tag":{"amenity":"waste_basket"}},"type":"Feature"},
	{"geometry":{"coordinates":[5.041636,51.412733],"type":"Point"},"properties":{"osm_id":"6375732888","tag":{"amenity":"waste_basket"}},"type":"Feature"}
]
}
