{
"type": "FeatureCollection",
"features": [
	{"geometry":{"coordinates":[5.087614,51.18619],"type":"Point"},"properties":{"name":"Containerpark Millegem","osm_id":"1350328941","tag":{"addr:city":"Millegem","addr:country":"BE","addr:housenumber":"27","addr:postcode":"2400","addr:street":"Vinkenstraat","amenity":"recycling","contact:phone":"+32 14 31 59 61","contact:website":"http://www.gemeentemol.be/product/890/containerpark-millegem","recycling:batteries":"yes","recycling:cans":"yes","recycling:clothes":"yes","recycling:glass":"yes","recycling:paper":"yes","recycling:scrap_metal":"yes","recycling_type":"centre"}},"type":"Feature"},
	{"geometry":{"coordinates":[5.068136,51.229681],"type":"Point"},"properties":{"osm_id":"2036528833","tag":{"amenity":"recycling"}},"type":"Feature"},
	{"geometry":{"coordinates":[5.034265,51.199559],"type":"Point"},"properties":{"osm_id":"2255250470","tag":{"amenity":"recycling","recycling:glass_bottles":"yes"}},"type":"Feature"},
	{"geometry":{"coordinates":[5.097475,51.201082],"type":"Point"},"properties":{"osm_id":"2390491761","tag":{"amenity":"recycling","recycling:clothes":"yes"}},"type":"Feature"},
	{"geometry":{"coordinates":[5.059027,51.20493],"type":"Point"},"properties":{"osm_id":"2924557224","tag":{"amenity":"waste_basket"}},"type":"Feature"},
	{"geometry":{"coordinates":[5.085327,51.204977],"type":"Point"},"properties":{"osm_id":"2924557227","tag":{"amenity":"waste_basket"}},"type":"Feature"},
	{"geometry":{"coordinates":[5.038541,51.231462],"type":"Point"},"properties":{"osm_id":"3184392924","tag":{"amenity":"waste_basket"}},"type":"Feature"},
	{"geometry":{"coordinates":[5.0453,51.232419],"type":"Point"},"properties":{"osm_id":"3184392936","tag":{"amenity":"waste_basket"}},"type":"Feature"},
	{"geometry":{"coordinates":[5.045498,51.232523],"type":"Point"},"properties":{"osm_id":"3184392940","tag":{"amenity":"waste_basket"}},"type":"Feature"},
	{"geometry":{"coordinates":[5.045562,51.232569],"type":"Point"},"properties":{"osm_id":"3184392945","tag":{"amenity":"waste_basket"}},"type":"Feature"},
	{"geometry":{"coordinates":[5.042155,51.225501],"type":"Point"},"properties":{"osm_id":"3191401514","tag":{"amenity":"waste_basket"}},"type":"Feature"},
	{"geometry":{"coordinates":[5.019143,51.183696],"type":"Point"},"properties":{"osm_id":"4079808383","tag":{"amenity":"waste_basket"}},"type":"Feature"},
	{"geometry":{"coordinates":[5.094342,51.223816],"type":"Point"},"properties":{"osm_id":"4868417565","tag":{"amenity":"waste_basket"}},"type":"Feature"},
	{"geometry":{"coordinates":[5.091188,51.234363],"type":"Point"},"properties":{"osm_id":"4868517866","tag":{"amenity":"waste_basket"}},"type":"Feature"},
	{"geometry":{"coordinates":[5.091624,51.221652],"type":"Point"},"properties":{"osm_id":"5526908851","tag":{"amenity":"waste_disposal"}},"type":"Feature"},
	{"geometry":{"coordinates":[5.017823,51.207359],"type":"Point"},"properties":{"osm_id":"8234911586","tag":{"amenity":"waste_basket","operator":"stad Geel"}},"type":"Feature"},
	{"geometry":{"coordinates":[5.018757,51.207423],"type":"Point"},"properties":{"osm_id":"8234911587","tag":{"amenity":"waste_basket","operator":"stad Geel"}},"type":"Feature"},
	{"geometry":{"coordinates":[5.025824,51.208818],"type":"Point"},"properties":{"osm_id":"8234911590","tag":{"amenity":"waste_basket","operator":"stad Geel"}},"type":"Feature"},
	{"geometry":{"coordinates":[5.026291,51.20889],"type":"Point"},"properties":{"osm_id":"8234911591","tag":{"amenity":"waste_basket","operator":"stad Geel"}},"type":"Feature"},
	{"geometry":{"coordinates":[5.027316,51.208913],"type":"Point"},"properties":{"osm_id":"8234911592","tag":{"amenity":"waste_basket","operator":"stad Geel"}},"type":"Feature"},
	{"geometry":{"coordinates":[5.019904,51.207786],"type":"Point"},"properties":{"osm_id":"8234911594","tag":{"amenity":"waste_basket","operator":"stad Geel"}},"type":"Feature"},
	{"geometry":{"coordinates":[5.020629,51.207871],"type":"Point"},"properties":{"osm_id":"8234911595","tag":{"amenity":"waste_basket","operator":"stad Geel"}},"type":"Feature"},
	{"geometry":{"coordinates":[5.022354,51.208223],"type":"Point"},"properties":{"osm_id":"8234911596","tag":{"amenity":"waste_basket","operator":"stad Geel"}},"type":"Feature"},
	{"geometry":{"coordinates":[5.021578,51.208057],"type":"Point"},"properties":{"osm_id":"8234911597","tag":{"amenity":"waste_basket","operator":"stad Geel"}},"type":"Feature"},
	{"geometry":{"coordinates":[5.024045,51.208347],"type":"Point"},"properties":{"osm_id":"8234911598","tag":{"amenity":"waste_basket"}},"type":"Feature"},
	{"geometry":{"coordinates":[5.023109,51.208312],"type":"Point"},"properties":{"osm_id":"8234911601","tag":{"amenity":"waste_basket","operator":"stad Geel"}},"type":"Feature"},
	{"geometry":{"coordinates":[5.028285,51.207826],"type":"Point"},"properties":{"osm_id":"8234911603","tag":{"amenity":"waste_basket","operator":"stad Geel"}},"type":"Feature"},
	{"geometry":{"coordinates":[5.023522,51.205254],"type":"Point"},"properties":{"osm_id":"8234911604","tag":{"amenity":"waste_basket","operator":"stad Geel"}},"type":"Feature"},
	{"geometry":{"coordinates":[5.022127,51.204978],"type":"Point"},"properties":{"osm_id":"8234911613","tag":{"amenity":"waste_basket","operator":"stad Geel"}},"type":"Feature"},
	{"geometry":{"coordinates":[5.019136,51.205196],"type":"Point"},"properties":{"osm_id":"8234911616","tag":{"amenity":"waste_basket","operator":"stad Geel"}},"type":"Feature"},
	{"geometry":{"coordinates":[5.018412,51.205889],"type":"Point"},"properties":{"osm_id":"8234937821","tag":{"amenity":"waste_basket","operator":"stad Geel"}},"type":"Feature"},
	{"geometry":{"coordinates":[5.017949,51.206577],"type":"Point"},"properties":{"osm_id":"8234937822","tag":{"amenity":"waste_basket","operator":"stad Geel"}},"type":"Feature"},
	{"geometry":{"coordinates":[5.017585,51.206934],"type":"Point"},"properties":{"osm_id":"8234937823","tag":{"amenity":"waste_basket","operator":"stad Geel"}},"type":"Feature"},
	{"geometry":{"coordinates":[5.025227,51.206122],"type":"Point"},"properties":{"osm_id":"8234937824","tag":{"amenity":"waste_basket","operator":"stad Geel"}},"type":"Feature"},
	{"geometry":{"coordinates":[5.026316,51.206727],"type":"Point"},"properties":{"osm_id":"8234937825","tag":{"amenity":"waste_basket","operator":"stad Geel"}},"type":"Feature"},
	{"geometry":{"coordinates":[5.027807,51.206855],"type":"Point"},"properties":{"osm_id":"8234937827","tag":{"amenity":"waste_basket","operator":"stad Geel"}},"type":"Feature"},
	{"geometry":{"coordinates":[5.020573,51.182982],"type":"Point"},"properties":{"osm_id":"8234985835","tag":{"amenity":"waste_basket","operator":"stad Geel"}},"type":"Feature"},
	{"geometry":{"coordinates":[5.033921,51.190827],"type":"Point"},"properties":{"osm_id":"8234985837","tag":{"amenity":"waste_basket","operator":"stad Geel"}},"type":"Feature"},
	{"geometry":{"coordinates":[5.038656,51.190616],"type":"Point"},"properties":{"osm_id":"8234985838","tag":{"amenity":"waste_basket","operator":"stad Geel"}},"type":"Feature"}
]
}
