{
"type": "FeatureCollection",
"features": [
	{"geometry":{"coordinates":[5.01911,51.069414],"type":"Point"},"properties":{"osm_id":"2566126110","tag":{"amenity":"waste_basket"}},"type":"Feature"},
	{"geometry":{"coordinates":[5.021706,51.095842],"type":"Point"},"properties":{"osm_id":"3229618403","tag":{"amenity":"waste_basket"}},"type":"Feature"},
	{"geometry":{"coordinates":[5.03179,51.098977],"type":"Point"},"properties":{"osm_id":"3231271525","tag":{"amenity":"waste_basket"}},"type":"Feature"},
	{"geometry":{"coordinates":[5.023669,51.104044],"type":"Point"},"properties":{"osm_id":"3231271857","tag":{"amenity":"waste_basket"}},"type":"Feature"},
	{"geometry":{"coordinates":[5.070322,51.083079],"type":"Point"},"properties":{"osm_id":"3238536480","tag":{"amenity":"waste_basket"}},"type":"Feature"},
	{"geometry":{"coordinates":[5.069691,51.085368],"type":"Point"},"properties":{"osm_id":"3239447251","tag":{"amenity":"waste_basket"}},"type":"Feature"},
	{"geometry":{"coordinates":[5.069787,51.085742],"type":"Point"},"properties":{"osm_id":"3239447487","tag":{"amenity":"waste_basket"}},"type":"Feature"},
	{"geometry":{"coordinates":[5.025499,51.088823],"type":"Point"},"properties":{"osm_id":"3246895534","tag":{"amenity":"waste_basket"}},"type":"Feature"},
	{"geometry":{"coordinates":[5.042132,51.078188],"type":"Point"},"properties":{"osm_id":"3248274259","tag":{"amenity":"waste_basket"}},"type":"Feature"},
	{"geometry":{"coordinates":[5.058676,51.079505],"type":"Point"},"properties":{"osm_id":"3248274670","tag":{"amenity":"waste_basket"}},"type":"Feature"},
	{"geometry":{"coordinates":[5.059413,51.088375],"type":"Point"},"properties":{"osm_id":"3248274751","tag":{"amenity":"waste_basket","description":"blikvanger"}},"type":"Feature"},
	{"geometry":{"coordinates":[5.058717,51.089154],"type":"Point"},"properties":{"osm_id":"3248274813","tag":{"amenity":"waste_basket"}},"type":"Feature"},
	{"geometry":{"coordinates":[5.062686,51.089327],"type":"Point"},"properties":{"osm_id":"3248274839","tag":{"amenity":"waste_basket","description":"blikvanger"}},"type":"Feature"},
	{"geometry":{"coordinates":[5.05913,51.089466],"type":"Point"},"properties":{"osm_id":"3248274868","tag":{"amenity":"waste_basket"}},"type":"Feature"},
	{"geometry":{"coordinates":[5.058143,51.090421],"type":"Point"},"properties":{"osm_id":"3248275203","tag":{"amenity":"waste_basket"}},"type":"Feature"},
	{"geometry":{"coordinates":[5.081267,51.09612],"type":"Point"},"properties":{"osm_id":"3249127970","tag":{"amenity":"waste_basket"}},"type":"Feature"},
	{"geometry":{"coordinates":[5.069216,51.083021],"type":"Point"},"properties":{"osm_id":"3266024476","tag":{"amenity":"waste_basket"}},"type":"Feature"},
	{"geometry":{"coordinates":[5.090747,51.074677],"type":"Point"},"properties":{"name":"Glas","osm_id":"4701562048","tag":{"amenity":"recycling","recycling:glass":"yes","recycling_type":"container"}},"type":"Feature"},
	{"geometry":{"coordinates":[5.089127,51.076177],"type":"Point"},"properties":{"name":"Glas","osm_id":"4701562050","tag":{"amenity":"recycling","recycling:glass":"yes","recycling_type":"container"}},"type":"Feature"},
	{"geometry":{"coordinates":[5.090399,51.074655],"type":"Point"},"properties":{"name":"Textiel","osm_id":"5198471726","tag":{"amenity":"recycling","recycling:clothes":"yes","recycling_type":"container"}},"type":"Feature"},
	{"geometry":{"coordinates":[5.090792,51.069863],"type":"Point"},"properties":{"name":"Textiel","osm_id":"5198471727","tag":{"amenity":"recycling","recycling:clothes":"yes","recycling:shoes":"yes","recycling_type":"container"}},"type":"Feature"},
	{"geometry":{"coordinates":[5.092678,51.069368],"type":"Point"},"properties":{"osm_id":"5859132969","tag":{"amenity":"waste_basket"}},"type":"Feature"},
	{"geometry":{"coordinates":[5.095503,51.113899],"type":"Point"},"properties":{"name":"Textiel","osm_id":"6237936460","tag":{"amenity":"recycling","recycling:clothes":"yes","recycling_type":"container"}},"type":"Feature"},
	{"geometry":{"coordinates":[5.031852,51.091008],"type":"Point"},"properties":{"osm_id":"6779460240","tag":{"amenity":"waste_basket"}},"type":"Feature"}
]
}
