{
"type": "FeatureCollection",
"features": [
	{"geometry":{"coordinates":[5.034197,50.494859],"type":"Point"},"properties":{"osm_id":"1656133484","tag":{"amenity":"recycling","recycling:clothes":"yes","recycling:glass":"yes","recycling_type":"container"}},"type":"Feature"},
	{"geometry":{"coordinates":[5.094825,50.496673],"type":"Point"},"properties":{"osm_id":"2456031353","tag":{"amenity":"recycling","check_date":"2021-08-12","recycling:clothes":"yes","recycling:glass":"yes","recycling_type":"container"}},"type":"Feature"},
	{"geometry":{"coordinates":[5.096959,50.489984],"type":"Point"},"properties":{"osm_id":"5386934196","tag":{"amenity":"waste_basket"}},"type":"Feature"},
	{"geometry":{"coordinates":[5.096812,50.489965],"type":"Point"},"properties":{"osm_id":"5386934197","tag":{"amenity":"waste_basket"}},"type":"Feature"},
	{"geometry":{"coordinates":[5.094771,50.496696],"type":"Point"},"properties":{"osm_id":"5546101070","tag":{"amenity":"waste_basket"}},"type":"Feature"},
	{"geometry":{"coordinates":[5.014629,50.494841],"type":"Point"},"properties":{"osm_id":"8092367582","tag":{"amenity":"recycling","recycling:clothes":"yes","recycling_type":"container"}},"type":"Feature"},
	{"geometry":{"coordinates":[5.014671,50.494837],"type":"Point"},"properties":{"osm_id":"8092367583","tag":{"amenity":"recycling","recycling:glass_bottles":"yes","recycling_type":"container"}},"type":"Feature"},
	{"geometry":{"coordinates":[5.096672,50.489335],"type":"Point"},"properties":{"osm_id":"8232490989","tag":{"amenity":"waste_basket","waste":"trash"}},"type":"Feature"},
	{"geometry":{"coordinates":[5.096516,50.489317],"type":"Point"},"properties":{"osm_id":"8232490990","tag":{"amenity":"waste_basket","waste":"trash"}},"type":"Feature"},
	{"geometry":{"coordinates":[5.096151,50.48942],"type":"Point"},"properties":{"osm_id":"8232490991","tag":{"amenity":"waste_basket","waste":"trash"}},"type":"Feature"},
	{"geometry":{"coordinates":[5.09631,50.489441],"type":"Point"},"properties":{"osm_id":"8232490992","tag":{"amenity":"waste_basket","waste":"trash"}},"type":"Feature"},
	{"geometry":{"coordinates":[5.096472,50.489462],"type":"Point"},"properties":{"osm_id":"8232490993","tag":{"amenity":"waste_basket","waste":"trash"}},"type":"Feature"},
	{"geometry":{"coordinates":[5.096889,50.489285],"type":"Point"},"properties":{"osm_id":"8232490994","tag":{"amenity":"waste_basket","waste":"trash"}},"type":"Feature"}
]
}
