{
"type": "FeatureCollection",
"features": [
	{"geometry":{"coordinates":[5.038985,45.953537],"type":"Point"},"properties":{"osm_id":"1373591423","tag":{"amenity":"waste_basket"}},"type":"Feature"},
	{"geometry":{"coordinates":[5.038717,45.953446],"type":"Point"},"properties":{"osm_id":"2577274155","tag":{"amenity":"recycling","operator":"Le Relais","recycling:clothes":"yes","recycling:shoes":"yes","recycling_type":"container"}},"type":"Feature"},
	{"geometry":{"coordinates":[5.031702,46.001749],"type":"Point"},"properties":{"osm_id":"4483563850","tag":{"amenity":"recycling","recycling:glass":"yes","recycling_type":"container"}},"type":"Feature"},
	{"geometry":{"coordinates":[5.038705,45.953432],"type":"Point"},"properties":{"osm_id":"6375531562","tag":{"amenity":"waste_basket"}},"type":"Feature"},
	{"geometry":{"coordinates":[5.029293,46.000942],"type":"Point"},"properties":{"osm_id":"7881145761","tag":{"amenity":"waste_basket"}},"type":"Feature"},
	{"geometry":{"coordinates":[5.029118,46.002021],"type":"Point"},"properties":{"osm_id":"7899405470","tag":{"amenity":"recycling","recycling:glass_bottles":"yes","recycling_type":"container"}},"type":"Feature"}
]
}
