{
"type": "FeatureCollection",
"features": [
	{"geometry":{"coordinates":[5.014047,45.688874],"type":"Point"},"properties":{"osm_id":"3563886298","tag":{"amenity":"recycling","recycling:glass_bottles":"yes","recycling_type":"container"}},"type":"Feature"},
	{"geometry":{"coordinates":[5.012147,45.646257],"type":"Point"},"properties":{"osm_id":"4174713601","tag":{"amenity":"recycling","location":"underground","recycling_type":"container"}},"type":"Feature"},
	{"geometry":{"coordinates":[5.077161,45.665681],"type":"Point"},"properties":{"osm_id":"4434587087","tag":{"amenity":"waste_basket"}},"type":"Feature"},
	{"geometry":{"coordinates":[5.077206,45.665685],"type":"Point"},"properties":{"osm_id":"4434587088","tag":{"amenity":"recycling","recycling:cans":"yes","recycling:cardboard":"yes","recycling:glass_bottles":"yes","recycling:plastic":"yes","recycling_type":"container"}},"type":"Feature"},
	{"geometry":{"coordinates":[5.025646,45.692135],"type":"Point"},"properties":{"osm_id":"5208786888","tag":{"amenity":"recycling","location":"underground","recycling:glass_bottles":"yes","recycling_type":"container"}},"type":"Feature"},
	{"geometry":{"coordinates":[5.028837,45.689485],"type":"Point"},"properties":{"osm_id":"5318536668","tag":{"amenity":"waste_basket"}},"type":"Feature"},
	{"geometry":{"coordinates":[5.028765,45.691056],"type":"Point"},"properties":{"osm_id":"5318536710","tag":{"amenity":"waste_basket"}},"type":"Feature"},
	{"geometry":{"coordinates":[5.025146,45.691426],"type":"Point"},"properties":{"osm_id":"5368461831","tag":{"amenity":"waste_disposal","waste":"trash"}},"type":"Feature"},
	{"geometry":{"coordinates":[5.028243,45.688469],"type":"Point"},"properties":{"osm_id":"5368461837","tag":{"amenity":"recycling","recycling:PET":"yes","recycling:cans":"yes","recycling:glass_bottles":"yes","recycling:plastic_bottles":"yes","recycling:plastic_packaging":"yes","recycling_type":"container"}},"type":"Feature"},
	{"geometry":{"coordinates":[5.028239,45.688419],"type":"Point"},"properties":{"osm_id":"5368461838","tag":{"amenity":"waste_disposal","waste":"trash"}},"type":"Feature"},
	{"geometry":{"coordinates":[5.07646,45.659914],"type":"Point"},"properties":{"osm_id":"6014948279","tag":{"amenity":"recycling","recycling_type":"container"}},"type":"Feature"},
	{"geometry":{"coordinates":[5.076522,45.659927],"type":"Point"},"properties":{"osm_id":"6014948280","tag":{"amenity":"recycling","recycling_type":"container"}},"type":"Feature"},
	{"geometry":{"coordinates":[5.07649,45.65993],"type":"Point"},"properties":{"osm_id":"6014948281","tag":{"amenity":"recycling","recycling_type":"container"}},"type":"Feature"},
	{"geometry":{"coordinates":[5.07646,45.659937],"type":"Point"},"properties":{"osm_id":"6014948282","tag":{"amenity":"recycling","recycling_type":"container"}},"type":"Feature"},
	{"geometry":{"coordinates":[5.086156,45.667776],"type":"Point"},"properties":{"osm_id":"6177264238","tag":{"amenity":"recycling","recycling:paper":"yes","recycling_type":"container"}},"type":"Feature"},
	{"geometry":{"coordinates":[5.086132,45.667794],"type":"Point"},"properties":{"osm_id":"6177264239","tag":{"amenity":"recycling","recycling:cans":"yes","recycling:cardboard":"yes","recycling:plastic_bottles":"yes","recycling:plastic_packaging":"yes","recycling_type":"container"}},"type":"Feature"},
	{"geometry":{"coordinates":[5.08611,45.667813],"type":"Point"},"properties":{"osm_id":"6177264240","tag":{"amenity":"recycling","recycling:glass_bottles":"yes","recycling_type":"container"}},"type":"Feature"},
	{"geometry":{"coordinates":[5.034508,45.700122],"type":"Point"},"properties":{"osm_id":"6197794648","tag":{"amenity":"recycling","recycling:glass_bottles":"yes","recycling:paper":"yes","recycling:plastic":"yes","recycling_type":"container"}},"type":"Feature"},
	{"geometry":{"coordinates":[5.044757,45.683419],"type":"Point"},"properties":{"osm_id":"6330423753","tag":{"amenity":"recycling","recycling:glass_bottles":"yes","recycling_type":"container"}},"type":"Feature"},
	{"geometry":{"coordinates":[5.044699,45.679682],"type":"Point"},"properties":{"osm_id":"6378234792","tag":{"amenity":"recycling","recycling:glass_bottles":"yes","recycling_type":"container"}},"type":"Feature"},
	{"geometry":{"coordinates":[5.030148,45.694006],"type":"Point"},"properties":{"osm_id":"6431568208","tag":{"amenity":"recycling","location":"underground","operator":"SMND","recycling:waste":"yes","recycling_type":"container"}},"type":"Feature"},
	{"geometry":{"coordinates":[5.030122,45.694011],"type":"Point"},"properties":{"osm_id":"6431568209","tag":{"amenity":"recycling","location":"underground","operator":"SMND","recycling:cardboard":"yes","recycling:newspaper":"yes","recycling:paper":"yes","recycling:plastic_bottles":"yes","recycling:plastic_packaging":"yes","recycling_type":"container"}},"type":"Feature"},
	{"geometry":{"coordinates":[5.030096,45.694016],"type":"Point"},"properties":{"osm_id":"6431568210","tag":{"amenity":"recycling","location":"underground","operator":"SMND","recycling:glass_bottles":"yes","recycling_type":"container"}},"type":"Feature"},
	{"geometry":{"coordinates":[5.034482,45.700126],"type":"Point"},"properties":{"osm_id":"6431639508","tag":{"amenity":"waste_basket","waste":"dog_excrement"}},"type":"Feature"},
	{"geometry":{"coordinates":[5.072803,45.693844],"type":"Point"},"properties":{"osm_id":"6657156770","tag":{"amenity":"waste_basket"}},"type":"Feature"},
	{"geometry":{"coordinates":[5.083743,45.660345],"type":"Point"},"properties":{"osm_id":"6797519976","tag":{"amenity":"recycling","location":"underground","operator":"SMND","recycling:glass_bottles":"yes","recycling_type":"container"}},"type":"Feature"},
	{"geometry":{"coordinates":[5.083759,45.660364],"type":"Point"},"properties":{"osm_id":"6797519977","tag":{"amenity":"recycling","location":"underground","operator":"SMND","recycling:paper":"yes","recycling_type":"container"}},"type":"Feature"},
	{"geometry":{"coordinates":[5.083774,45.660385],"type":"Point"},"properties":{"osm_id":"6797519978","tag":{"amenity":"recycling","location":"underground","operator":"SMND","recycling:cans":"yes","recycling:cardboard":"yes","recycling:plastic_bottles":"yes","recycling:plastic_packaging":"yes","recycling_type":"container"}},"type":"Feature"},
	{"geometry":{"coordinates":[5.081677,45.662225],"type":"Point"},"properties":{"osm_id":"6797537129","tag":{"amenity":"waste_basket","waste":"trash"}},"type":"Feature"},
	{"geometry":{"coordinates":[5.025645,45.692117],"type":"Point"},"properties":{"osm_id":"6800347844","tag":{"amenity":"recycling","location":"underground","recycling:paper":"yes","recycling_type":"container"}},"type":"Feature"},
	{"geometry":{"coordinates":[5.029693,45.687259],"type":"Point"},"properties":{"osm_id":"6800347849","tag":{"amenity":"waste_basket","waste":"trash"}},"type":"Feature"},
	{"geometry":{"coordinates":[5.027537,45.693524],"type":"Point"},"properties":{"osm_id":"7084656616","tag":{"amenity":"waste_basket","waste":"trash"}},"type":"Feature"},
	{"geometry":{"coordinates":[5.027596,45.693479],"type":"Point"},"properties":{"osm_id":"7084656617","tag":{"amenity":"recycling","location":"underground","operator":"SMND","recycling:waste":"yes","recycling_type":"container"}},"type":"Feature"},
	{"geometry":{"coordinates":[5.02757,45.693496],"type":"Point"},"properties":{"osm_id":"7084656618","tag":{"amenity":"recycling","location":"underground","operator":"SMND","recycling:cans":"yes","recycling:plastic_bottles":"yes","recycling:plastic_packaging":"yes","recycling_type":"container"}},"type":"Feature"},
	{"geometry":{"coordinates":[5.027541,45.693515],"type":"Point"},"properties":{"osm_id":"7084656619","tag":{"amenity":"recycling","location":"underground","operator":"SMND","recycling:glass_bottles":"yes","recycling_type":"container"}},"type":"Feature"},
	{"geometry":{"coordinates":[5.029029,45.691649],"type":"Point"},"properties":{"osm_id":"7161092943","tag":{"amenity":"waste_basket","waste":"trash"}},"type":"Feature"},
	{"geometry":{"coordinates":[5.029045,45.690274],"type":"Point"},"properties":{"osm_id":"7161092950","tag":{"amenity":"recycling","location":"underground","operator":"SMND","recycling:waste":"yes","recycling_type":"container","wheelchair":"yes"}},"type":"Feature"},
	{"geometry":{"coordinates":[5.029045,45.690254],"type":"Point"},"properties":{"osm_id":"7161092951","tag":{"amenity":"recycling","location":"underground","operator":"SMND","recycling:cans":"yes","recycling:paper":"yes","recycling:plastic_bottles":"yes","recycling:plastic_packaging":"yes","recycling_type":"container","wheelchair":"yes"}},"type":"Feature"},
	{"geometry":{"coordinates":[5.029043,45.690235],"type":"Point"},"properties":{"osm_id":"7161092952","tag":{"amenity":"recycling","location":"underground","operator":"SMND","recycling:glass_bottles":"yes","recycling_type":"container","wheelchair":"yes"}},"type":"Feature"}
]
}
