{
"type": "FeatureCollection",
"features": [
	{"geometry":{"coordinates":[5.030209,45.643843],"type":"Point"},"properties":{"osm_id":"4174713600","tag":{"amenity":"recycling"}},"type":"Feature"},
	{"geometry":{"coordinates":[5.093469,45.629192],"type":"Point"},"properties":{"osm_id":"4447689874","tag":{"amenity":"recycling","recycling:cans":"yes","recycling:glass_bottles":"yes","recycling_type":"container"}},"type":"Feature"},
	{"geometry":{"coordinates":[5.01639,45.612638],"type":"Point"},"properties":{"osm_id":"6419741882","tag":{"amenity":"recycling","location":"underground","opening_hours":"24/7","recycling:magazines":"yes","recycling:paper":"yes","recycling_type":"container"}},"type":"Feature"},
	{"geometry":{"coordinates":[5.016376,45.612666],"type":"Point"},"properties":{"osm_id":"6753779404","tag":{"amenity":"recycling","location":"underground","opening_hours":"07:00-22:00","recycling:glass_bottles":"yes","recycling_type":"container","wheelchair":"yes"}},"type":"Feature"},
	{"geometry":{"coordinates":[5.016384,45.612652],"type":"Point"},"properties":{"osm_id":"6753779405","tag":{"amenity":"recycling","location":"underground","opening_hours":"24/7","recycling:beverage_cartons":"yes","recycling:cardboard":"yes","recycling:plastic":"yes","recycling:plastic_bottles":"yes","recycling_type":"container"}},"type":"Feature"},
	{"geometry":{"coordinates":[5.020862,45.613359],"type":"Point"},"properties":{"osm_id":"6753779406","tag":{"amenity":"recycling","recycling_type":"container"}},"type":"Feature"},
	{"geometry":{"coordinates":[5.021304,45.613334],"type":"Point"},"properties":{"osm_id":"6753779412","tag":{"amenity":"waste_basket"}},"type":"Feature"},
	{"geometry":{"coordinates":[5.020905,45.613546],"type":"Point"},"properties":{"osm_id":"6753779413","tag":{"amenity":"waste_basket"}},"type":"Feature"},
	{"geometry":{"coordinates":[5.020866,45.613415],"type":"Point"},"properties":{"osm_id":"6753779414","tag":{"amenity":"waste_basket"}},"type":"Feature"},
	{"geometry":{"coordinates":[5.016418,45.61269],"type":"Point"},"properties":{"osm_id":"6753779429","tag":{"amenity":"waste_basket"}},"type":"Feature"},
	{"geometry":{"coordinates":[5.096409,45.591767],"type":"Point"},"properties":{"osm_id":"7137399579","tag":{"amenity":"recycling","recycling_type":"container"}},"type":"Feature"},
	{"geometry":{"coordinates":[5.029436,45.611733],"type":"Point"},"properties":{"osm_id":"7415806248","tag":{"amenity":"waste_disposal"}},"type":"Feature"},
	{"geometry":{"coordinates":[5.01679,45.612794],"type":"Point"},"properties":{"osm_id":"7415834840","tag":{"amenity":"recycling","recycling_type":"container"}},"type":"Feature"},
	{"geometry":{"coordinates":[5.068425,45.627162],"type":"Point"},"properties":{"osm_id":"8278672102","tag":{"amenity":"waste_basket"}},"type":"Feature"},
	{"geometry":{"coordinates":[5.067854,45.632503],"type":"Point"},"properties":{"osm_id":"8279147186","tag":{"amenity":"recycling","recycling:green_waste":"yes","recycling_type":"container"}},"type":"Feature"},
	{"geometry":{"coordinates":[5.067363,45.631783],"type":"Point"},"properties":{"osm_id":"8279147206","tag":{"amenity":"waste_disposal"}},"type":"Feature"},
	{"geometry":{"coordinates":[5.067149,45.631817],"type":"Point"},"properties":{"osm_id":"8279147207","tag":{"amenity":"waste_disposal"}},"type":"Feature"},
	{"geometry":{"coordinates":[5.066157,45.632253],"type":"Point"},"properties":{"osm_id":"8279147320","tag":{"amenity":"waste_basket"}},"type":"Feature"},
	{"geometry":{"coordinates":[5.066473,45.632297],"type":"Point"},"properties":{"osm_id":"8279147321","tag":{"amenity":"waste_basket"}},"type":"Feature"},
	{"geometry":{"coordinates":[5.07054,45.62914],"type":"Point"},"properties":{"osm_id":"8282005902","tag":{"access":"private","amenity":"waste_disposal"}},"type":"Feature"},
	{"geometry":{"coordinates":[5.064204,45.630038],"type":"Point"},"properties":{"osm_id":"8285019685","tag":{"amenity":"waste_basket"}},"type":"Feature"},
	{"geometry":{"coordinates":[5.063605,45.630134],"type":"Point"},"properties":{"osm_id":"8285019977","tag":{"amenity":"waste_basket"}},"type":"Feature"},
	{"geometry":{"coordinates":[5.064053,45.630057],"type":"Point"},"properties":{"osm_id":"8285019978","tag":{"amenity":"waste_basket"}},"type":"Feature"},
	{"geometry":{"coordinates":[5.063611,45.630214],"type":"Point"},"properties":{"osm_id":"8285019989","tag":{"amenity":"waste_basket"}},"type":"Feature"},
	{"geometry":{"coordinates":[5.065534,45.629978],"type":"Point"},"properties":{"osm_id":"8285020105","tag":{"amenity":"waste_basket"}},"type":"Feature"},
	{"geometry":{"coordinates":[5.090135,45.595493],"type":"Point"},"properties":{"osm_id":"8576415309","tag":{"amenity":"recycling","operator":"SMND","recycling:beverage_cartons":"yes","recycling:cans":"yes","recycling:plastic_bottles":"yes","recycling:plastic_packaging":"yes","recycling_type":"container"}},"type":"Feature"},
	{"geometry":{"coordinates":[5.090118,45.595517],"type":"Point"},"properties":{"osm_id":"8576415310","tag":{"amenity":"recycling","operator":"SMND","recycling:books":"yes","recycling:magazines":"yes","recycling:newspaper":"yes","recycling:paper":"yes","recycling_type":"container"}},"type":"Feature"},
	{"geometry":{"coordinates":[5.090104,45.595538],"type":"Point"},"properties":{"osm_id":"8576415311","tag":{"amenity":"recycling","operator":"SMND","recycling:glass_bottles":"yes","recycling_type":"container"}},"type":"Feature"}
]
}
