{
"type": "FeatureCollection",
"lastupdate": "2020-08-02T00:00:00Z",
"features": [
	{"geometry":{"coordinates":[5.094588,45.049436],"type":"Point"},"properties":{"name":"D\u00c3\u00a9chetterie intercommunale","osm_id":"26601278","tag":{"amenity":"recycling","operator":"Communaut\u00e9\u00a0d'Agglom\u00e9ration\u00a0Valence\u00a0Romans\u00a0Agglo","phone":"+33 4 75 63 76 09","recycling_type":"centre","ref:FR:SINOE":"3847","start_date":"2001"}},"type":"Feature"},
	{"geometry":{"coordinates":[5.053269,45.053504],"type":"Point"},"properties":{"osm_id":"718572915","tag":{"amenity":"recycling","recycling:glass_bottles":"yes","recycling_type":"container"}},"type":"Feature"},
	{"geometry":{"coordinates":[5.055136,45.0567],"type":"Point"},"properties":{"osm_id":"764111416","tag":{"amenity":"waste_basket"}},"type":"Feature"},
	{"geometry":{"coordinates":[5.052067,45.038388],"type":"Point"},"properties":{"osm_id":"1334799336","tag":{"amenity":"recycling","recycling_type":"container"}},"type":"Feature"},
	{"geometry":{"coordinates":[5.049906,45.038762],"type":"Point"},"properties":{"osm_id":"1681546607","tag":{"amenity":"recycling","recycling:batteries":"no","recycling:books":"yes","recycling:cartons":"yes","recycling:glass_bottles":"yes","recycling:magazines":"yes","recycling:newspaper":"yes","recycling:paper":"yes","recycling:paper_packaging":"yes","recycling:plastic":"yes","recycling:plastic_bottles":"yes","recycling:plastic_packaging":"yes","recycling_type":"container"}},"type":"Feature"},
	{"geometry":{"coordinates":[5.044894,45.035316],"type":"Point"},"properties":{"osm_id":"1681548973","tag":{"amenity":"recycling","recycling:batteries":"no","recycling:books":"yes","recycling:cartons":"yes","recycling:clothes":"no","recycling:electrical_appliances":"no","recycling:glass_bottles":"yes","recycling:magazines":"yes","recycling:newspaper":"yes","recycling:paper":"yes","recycling:paper_packaging":"yes","recycling:plastic":"yes","recycling:plastic_bottles":"yes","recycling:plastic_packaging":"yes","recycling:scrap_metal":"no","recycling:wood":"no","recycling_type":"container"}},"type":"Feature"},
	{"geometry":{"coordinates":[5.051988,45.034076],"type":"Point"},"properties":{"osm_id":"2062710452","tag":{"amenity":"recycling","recycling:cardboard":"yes","recycling:glass_bottles":"yes","recycling:paper":"yes","recycling_type":"container"}},"type":"Feature"},
	{"geometry":{"coordinates":[5.047254,45.037455],"type":"Point"},"properties":{"osm_id":"2282221327","tag":{"amenity":"recycling"}},"type":"Feature"},
	{"geometry":{"coordinates":[5.051097,45.029804],"type":"Point"},"properties":{"barrier":"gate","osm_id":"3378380190"},"type":"Feature"},
	{"geometry":{"coordinates":[5.046361,45.043557],"type":"Point"},"properties":{"osm_id":"3671246399","tag":{"amenity":"recycling","recycling:glass_bottles":"yes","recycling:paper":"yes","recycling:plastic":"yes","recycling:scrap_metal":"yes","recycling_type":"container"}},"type":"Feature"},
	{"geometry":{"coordinates":[5.059815,45.071847],"type":"Point"},"properties":{"osm_id":"3997239461","tag":{"amenity":"recycling"}},"type":"Feature"},
	{"geometry":{"coordinates":[5.059842,45.071837],"type":"Point"},"properties":{"osm_id":"3997239462","tag":{"amenity":"recycling"}},"type":"Feature"},
	{"geometry":{"coordinates":[5.059864,45.071828],"type":"Point"},"properties":{"osm_id":"3997239463","tag":{"amenity":"recycling"}},"type":"Feature"},
	{"geometry":{"coordinates":[5.059896,45.071822],"type":"Point"},"properties":{"osm_id":"3997239464","tag":{"amenity":"recycling"}},"type":"Feature"},
	{"geometry":{"coordinates":[5.059922,45.071813],"type":"Point"},"properties":{"osm_id":"3997239465","tag":{"amenity":"recycling"}},"type":"Feature"},
	{"geometry":{"coordinates":[5.059955,45.071803],"type":"Point"},"properties":{"osm_id":"3997239466","tag":{"amenity":"recycling"}},"type":"Feature"},
	{"geometry":{"coordinates":[5.059985,45.071794],"type":"Point"},"properties":{"osm_id":"3997239467","tag":{"amenity":"recycling"}},"type":"Feature"},
	{"geometry":{"coordinates":[5.060023,45.071786],"type":"Point"},"properties":{"osm_id":"3997239468","tag":{"amenity":"recycling","recycling_type":"container"}},"type":"Feature"},
	{"geometry":{"coordinates":[5.08484,45.05144],"type":"Point"},"properties":{"name":"La Ressourcerie Verte","osm_id":"4285784543","tag":{"addr:city":"Romans-sur-Is\u00e8re","addr:housenumber":"21","addr:postcode":"26100","addr:street":"Avenue de la D\u00e9portation","alt_name":"Mat\u00e9riauth\u00e8que","amenity":"recycling","description":"Collecte et revente de mat\u00e9riaux et d'outillage pour le bricolage, la construction, le jardinage et les loisirs cr\u00e9atifs : mercredi de 14h \u00e0 19h, samedi de 10h \u00e0 13h. Ateliers de partage de savoir-faire : jeudi soirs et le samedi.","operator":"Association la Ressourcerie Verte","phone":"+33 4 69 28 62 09","recycling:Planche_de_Bois":"yes","recycling_type":"centre","website":"http://laressourcerieverte.com/"}},"type":"Feature"},
	{"geometry":{"coordinates":[5.060192,45.047072],"type":"Point"},"properties":{"osm_id":"4397269990","tag":{"amenity":"recycling","recycling:glass_bottles":"yes","recycling_type":"container"}},"type":"Feature"},
	{"geometry":{"coordinates":[5.084642,45.051434],"type":"Point"},"properties":{"name":"Invent'R","osm_id":"6218435693","tag":{"addr:city":"Romans-sur-Is\u00e8re","addr:housenumber":"21","addr:postcode":"26100","addr:street":"Avenue de la D\u00e9portation","amenity":"recycling","description":"Fournisseur de mat\u00e9riaux de r\u00e9emploi pour les entreprises du BTP.","email":"luc.magnee@inventr.fr","operator":"Invent'R","phone":"+33 7 69 95 83 15","recycling_type":"centre","website":"http://www.inventr.fr"}},"type":"Feature"},
	{"geometry":{"coordinates":[5.050678,45.048516],"type":"Point"},"properties":{"osm_id":"6312439432","tag":{"amenity":"waste_basket"}},"type":"Feature"},
	{"geometry":{"coordinates":[5.050948,45.048503],"type":"Point"},"properties":{"osm_id":"6312439433","tag":{"amenity":"waste_basket"}},"type":"Feature"},
	{"geometry":{"coordinates":[5.051295,45.048481],"type":"Point"},"properties":{"osm_id":"6312439441","tag":{"amenity":"waste_basket"}},"type":"Feature"},
	{"geometry":{"coordinates":[5.050458,45.048705],"type":"Point"},"properties":{"osm_id":"6312450686","tag":{"amenity":"waste_basket"}},"type":"Feature"},
	{"geometry":{"coordinates":[5.050285,45.048715],"type":"Point"},"properties":{"osm_id":"6312450690","tag":{"amenity":"waste_basket"}},"type":"Feature"},
	{"geometry":{"coordinates":[5.054124,45.046009],"type":"Point"},"properties":{"osm_id":"6531937036","tag":{"amenity":"waste_basket"}},"type":"Feature"},
	{"geometry":{"coordinates":[5.036514,45.041891],"type":"Point"},"properties":{"osm_id":"6643291533","tag":{"amenity":"waste_basket"}},"type":"Feature"},
	{"geometry":{"coordinates":[5.037465,45.043736],"type":"Point"},"properties":{"osm_id":"6653335808","tag":{"amenity":"waste_basket"}},"type":"Feature"},
	{"geometry":{"coordinates":[5.037575,45.04291],"type":"Point"},"properties":{"osm_id":"6653335811","tag":{"amenity":"waste_basket"}},"type":"Feature"},
	{"geometry":{"coordinates":[5.037629,45.041832],"type":"Point"},"properties":{"osm_id":"6653335819","tag":{"amenity":"waste_basket"}},"type":"Feature"},
	{"geometry":{"coordinates":[5.050545,45.076615],"type":"Point"},"properties":{"osm_id":"6935809391","tag":{"amenity":"recycling","recycling_type":"container"}},"type":"Feature"},
	{"geometry":{"coordinates":[5.097238,45.046714],"type":"Point"},"properties":{"osm_id":"7130355563","tag":{"addr:city":"Romans-Sur-Is\u00e8re","addr:postcode":"26100","addr:street":"Rue des Fr\u00e8res Lumi\u00e8re","amenity":"recycling","operator":"NEGOMETAL","operator:type":"private","phone":"+33 4 75 70 06 96","recycling:aluminium":"yes","recycling:batteries":"yes","recycling:scrap_metal":"yes","recycling_type":"centre"}},"type":"Feature"},
	{"geometry":{"coordinates":[5.064224,45.050689],"type":"Point"},"properties":{"osm_id":"7190362413","tag":{"amenity":"waste_basket"}},"type":"Feature"},
	{"geometry":{"coordinates":[5.065001,45.0528],"type":"Point"},"properties":{"osm_id":"7191602194","tag":{"amenity":"recycling","recycling:glass":"yes","recycling:glass_bottles":"yes","recycling_type":"container"}},"type":"Feature"},
	{"geometry":{"coordinates":[5.064096,45.057427],"type":"Point"},"properties":{"osm_id":"7236377314","tag":{"amenity":"waste_basket"}},"type":"Feature"},
	{"geometry":{"coordinates":[5.064158,45.050474],"type":"Point"},"properties":{"osm_id":"7236496600","tag":{"amenity":"waste_basket"}},"type":"Feature"},
	{"geometry":{"coordinates":[5.060446,45.053442],"type":"Point"},"properties":{"osm_id":"7237323493","tag":{"amenity":"recycling","recycling:glass":"yes","recycling:glass_bottles":"yes","recycling_type":"container"}},"type":"Feature"},
	{"geometry":{"coordinates":[5.056669,45.056451],"type":"Point"},"properties":{"osm_id":"7237376508","tag":{"amenity":"waste_basket"}},"type":"Feature"},
	{"geometry":{"coordinates":[5.055737,45.056614],"type":"Point"},"properties":{"osm_id":"7237378897","tag":{"amenity":"waste_basket"}},"type":"Feature"},
	{"geometry":{"coordinates":[5.05512,45.056785],"type":"Point"},"properties":{"osm_id":"7237378899","tag":{"amenity":"waste_basket"}},"type":"Feature"},
	{"geometry":{"coordinates":[5.056206,45.058637],"type":"Point"},"properties":{"osm_id":"7237378916","tag":{"amenity":"recycling","recycling:glass_bottles":"yes","recycling_type":"container"}},"type":"Feature"}
]
}
