{
"type": "FeatureCollection",
"features": [
	{"geometry":{"coordinates":[5.014102,44.736054],"type":"Point"},"properties":{"osm_id":"1821257081","tag":{"amenity":"recycling","location":"overground","recycling_type":"container"}},"type":"Feature"},
	{"geometry":{"coordinates":[5.014346,44.735867],"type":"Point"},"properties":{"osm_id":"1821257109","tag":{"amenity":"recycling","location":"overground","recycling_type":"container"}},"type":"Feature"},
	{"geometry":{"coordinates":[5.016909,44.731352],"type":"Point"},"properties":{"osm_id":"2435030974","tag":{"amenity":"waste_disposal","waste":"trash"}},"type":"Feature"},
	{"geometry":{"coordinates":[5.0653,44.716528],"type":"Point"},"properties":{"osm_id":"3283813559","tag":{"amenity":"waste_basket"}},"type":"Feature"},
	{"geometry":{"coordinates":[5.056845,44.7157],"type":"Point"},"properties":{"osm_id":"3287202342","tag":{"amenity":"waste_basket"}},"type":"Feature"},
	{"geometry":{"coordinates":[5.056278,44.716047],"type":"Point"},"properties":{"osm_id":"3287202344","tag":{"amenity":"waste_basket"}},"type":"Feature"},
	{"geometry":{"coordinates":[5.057699,44.716514],"type":"Point"},"properties":{"osm_id":"3290588036","tag":{"amenity":"waste_basket"}},"type":"Feature"},
	{"geometry":{"coordinates":[5.057201,44.716571],"type":"Point"},"properties":{"osm_id":"3290588038","tag":{"amenity":"waste_basket"}},"type":"Feature"},
	{"geometry":{"coordinates":[5.056685,44.716216],"type":"Point"},"properties":{"osm_id":"3290931194","tag":{"amenity":"waste_disposal"}},"type":"Feature"},
	{"geometry":{"coordinates":[5.057042,44.716915],"type":"Point"},"properties":{"osm_id":"3290972510","tag":{"amenity":"waste_disposal"}},"type":"Feature"},
	{"geometry":{"coordinates":[5.061545,44.716655],"type":"Point"},"properties":{"osm_id":"3290972511","tag":{"amenity":"recycling","operator":"ecotextile","recycling:clothes":"yes","recycling_type":"container","website":"http://www.ecotextile.tm.fr/"}},"type":"Feature"},
	{"geometry":{"coordinates":[5.05693,44.716924],"type":"Point"},"properties":{"osm_id":"3290972512","tag":{"amenity":"recycling","recycling:beverage_cartons":"yes","recycling:cans":"yes","recycling:glass_bottles":"yes","recycling:paper":"yes","recycling_type":"container"}},"type":"Feature"},
	{"geometry":{"coordinates":[5.056917,44.717745],"type":"Point"},"properties":{"osm_id":"3291222537","tag":{"amenity":"waste_disposal"}},"type":"Feature"},
	{"geometry":{"coordinates":[5.056688,44.716878],"type":"Point"},"properties":{"osm_id":"3292074546","tag":{"amenity":"waste_basket"}},"type":"Feature"},
	{"geometry":{"coordinates":[5.062681,44.720505],"type":"Point"},"properties":{"osm_id":"3292081640","tag":{"amenity":"recycling","recycling:cans":"yes","recycling:glass_bottles":"yes","recycling:paper":"yes","recycling_type":"container"}},"type":"Feature"},
	{"geometry":{"coordinates":[5.062802,44.720495],"type":"Point"},"properties":{"osm_id":"3292081641","tag":{"amenity":"waste_disposal"}},"type":"Feature"},
	{"geometry":{"coordinates":[5.062618,44.720187],"type":"Point"},"properties":{"osm_id":"3292083406","tag":{"amenity":"waste_basket"}},"type":"Feature"},
	{"geometry":{"coordinates":[5.055783,44.720927],"type":"Point"},"properties":{"osm_id":"3293488164","tag":{"amenity":"waste_disposal","waste":"trash"}},"type":"Feature"},
	{"geometry":{"coordinates":[5.023026,44.728644],"type":"Point"},"properties":{"osm_id":"3922314725","tag":{"amenity":"recycling","recycling_type":"container"}},"type":"Feature"},
	{"geometry":{"coordinates":[5.026989,44.726827],"type":"Point"},"properties":{"osm_id":"5414316390","tag":{"amenity":"recycling","recycling:organic":"yes","recycling_type":"container","website":"http://www.mairie-crest.fr/Nouveau-compost-collectif-a-Crest.html"}},"type":"Feature"},
	{"geometry":{"coordinates":[5.027337,44.729552],"type":"Point"},"properties":{"osm_id":"6548399594","tag":{"amenity":"waste_basket"}},"type":"Feature"},
	{"geometry":{"coordinates":[5.031598,44.729506],"type":"Point"},"properties":{"osm_id":"6548436235","tag":{"amenity":"recycling","recycling_type":"container"}},"type":"Feature"},
	{"geometry":{"coordinates":[5.017892,44.729409],"type":"Point"},"properties":{"osm_id":"6814654636","tag":{"amenity":"recycling","recycling:PET":"yes","recycling:aluminium":"yes","recycling:cans":"yes","recycling:cardboard":"yes","recycling:clothes":"yes","recycling:glass":"yes","recycling:glass_bottles":"yes","recycling:paper":"yes","recycling:plastic_bottles":"yes","recycling_type":"container"}},"type":"Feature"},
	{"geometry":{"coordinates":[5.020926,44.729288],"type":"Point"},"properties":{"osm_id":"6814669266","tag":{"amenity":"recycling","recycling:organic":"yes","recycling_type":"container"}},"type":"Feature"},
	{"geometry":{"coordinates":[5.026736,44.765219],"type":"Point"},"properties":{"osm_id":"7187164458","tag":{"amenity":"recycling","recycling:beverage_cartons":"yes","recycling:cans":"yes","recycling:cardboard":"yes","recycling:cartons":"yes","recycling:glass":"yes","recycling:newspaper":"yes","recycling:paper_packaging":"yes","recycling:plastic":"yes","recycling_type":"container"}},"type":"Feature"},
	{"geometry":{"coordinates":[5.061697,44.720388],"type":"Point"},"properties":{"osm_id":"7828997713","tag":{"amenity":"waste_basket","waste":"trash"}},"type":"Feature"}
]
}
