{
"type": "FeatureCollection",
"features": [
	{"geometry":{"coordinates":[5.056813,43.408462],"type":"Point"},"properties":{"osm_id":"1767576711","tag":{"amenity":"waste_basket"}},"type":"Feature"},
	{"geometry":{"coordinates":[5.039219,43.43822],"type":"Point"},"properties":{"name":"Bennes Munoz","osm_id":"1975383178","tag":{"amenity":"recycling","recycling:batteries":"yes","recycling:scrap_metal":"yes","recycling_type":"centre"}},"type":"Feature"},
	{"geometry":{"coordinates":[5.052122,43.416624],"type":"Point"},"properties":{"osm_id":"1985791588","tag":{"amenity":"waste_basket"}},"type":"Feature"},
	{"geometry":{"coordinates":[5.051539,43.416682],"type":"Point"},"properties":{"osm_id":"1985791589","tag":{"amenity":"waste_basket"}},"type":"Feature"},
	{"geometry":{"coordinates":[5.054885,43.405859],"type":"Point"},"properties":{"osm_id":"2272408098","tag":{"amenity":"waste_basket"}},"type":"Feature"},
	{"geometry":{"coordinates":[5.054909,43.406173],"type":"Point"},"properties":{"osm_id":"2272408101","tag":{"amenity":"waste_basket"}},"type":"Feature"},
	{"geometry":{"coordinates":[5.059291,43.395232],"type":"Point"},"properties":{"osm_id":"3557793917","tag":{"amenity":"waste_basket"}},"type":"Feature"},
	{"geometry":{"coordinates":[5.058629,43.395687],"type":"Point"},"properties":{"osm_id":"3557793918","tag":{"amenity":"waste_basket"}},"type":"Feature"},
	{"geometry":{"coordinates":[5.056193,43.400609],"type":"Point"},"properties":{"osm_id":"4400982067","tag":{"amenity":"waste_basket"}},"type":"Feature"},
	{"geometry":{"coordinates":[5.056105,43.401092],"type":"Point"},"properties":{"osm_id":"4400982085","tag":{"amenity":"waste_basket"}},"type":"Feature"},
	{"geometry":{"coordinates":[5.056589,43.401109],"type":"Point"},"properties":{"osm_id":"4400982691","tag":{"amenity":"waste_basket"}},"type":"Feature"},
	{"geometry":{"coordinates":[5.058232,43.401654],"type":"Point"},"properties":{"osm_id":"4400982755","tag":{"amenity":"waste_basket"}},"type":"Feature"},
	{"geometry":{"coordinates":[5.055431,43.402362],"type":"Point"},"properties":{"osm_id":"4401183602","tag":{"amenity":"recycling","recycling_type":"container"}},"type":"Feature"},
	{"geometry":{"coordinates":[5.055415,43.402374],"type":"Point"},"properties":{"osm_id":"4401183603","tag":{"amenity":"recycling","recycling_type":"container"}},"type":"Feature"},
	{"geometry":{"coordinates":[5.055399,43.402387],"type":"Point"},"properties":{"osm_id":"4401183604","tag":{"amenity":"recycling","recycling_type":"container"}},"type":"Feature"},
	{"geometry":{"coordinates":[5.054679,43.402733],"type":"Point"},"properties":{"osm_id":"4401183607","tag":{"amenity":"recycling","recycling_type":"container"}},"type":"Feature"},
	{"geometry":{"coordinates":[5.054659,43.402742],"type":"Point"},"properties":{"osm_id":"4401183610","tag":{"amenity":"recycling","recycling_type":"container"}},"type":"Feature"},
	{"geometry":{"coordinates":[5.054638,43.402751],"type":"Point"},"properties":{"osm_id":"4401183611","tag":{"amenity":"recycling","recycling_type":"container"}},"type":"Feature"},
	{"geometry":{"coordinates":[5.056271,43.399039],"type":"Point"},"properties":{"osm_id":"4590510777","tag":{"amenity":"waste_disposal"}},"type":"Feature"},
	{"geometry":{"coordinates":[5.053513,43.403674],"type":"Point"},"properties":{"osm_id":"4725599436","tag":{"amenity":"recycling","recycling:cans":"yes","recycling:glass_bottles":"yes","recycling:paper":"yes","recycling_type":"container"}},"type":"Feature"},
	{"geometry":{"coordinates":[5.053526,43.403676],"type":"Point"},"properties":{"osm_id":"4725599437","tag":{"amenity":"recycling","recycling:glass_bottles":"yes","recycling:paper":"yes","recycling_type":"container"}},"type":"Feature"},
	{"geometry":{"coordinates":[5.0535,43.403674],"type":"Point"},"properties":{"osm_id":"4725599438","tag":{"amenity":"recycling","recycling:glass":"yes","recycling_type":"container"}},"type":"Feature"},
	{"geometry":{"coordinates":[5.058017,43.399303],"type":"Point"},"properties":{"osm_id":"4847174390","tag":{"amenity":"waste_basket"}},"type":"Feature"},
	{"geometry":{"coordinates":[5.054976,43.404785],"type":"Point"},"properties":{"osm_id":"4849958617","tag":{"amenity":"waste_disposal"}},"type":"Feature"},
	{"geometry":{"coordinates":[5.054178,43.406417],"type":"Point"},"properties":{"osm_id":"4849958618","tag":{"amenity":"waste_disposal"}},"type":"Feature"},
	{"geometry":{"coordinates":[5.052317,43.40429],"type":"Point"},"properties":{"osm_id":"4849958619","tag":{"amenity":"waste_disposal"}},"type":"Feature"},
	{"geometry":{"coordinates":[5.056675,43.399355],"type":"Point"},"properties":{"osm_id":"4916345324","tag":{"amenity":"waste_basket"}},"type":"Feature"},
	{"geometry":{"coordinates":[5.056471,43.40023],"type":"Point"},"properties":{"osm_id":"4916345325","tag":{"amenity":"waste_basket"}},"type":"Feature"},
	{"geometry":{"coordinates":[5.059653,43.39943],"type":"Point"},"properties":{"osm_id":"4916379122","tag":{"amenity":"waste_basket"}},"type":"Feature"},
	{"geometry":{"coordinates":[5.056839,43.401198],"type":"Point"},"properties":{"osm_id":"4916379822","tag":{"amenity":"waste_basket"}},"type":"Feature"},
	{"geometry":{"coordinates":[5.056225,43.399287],"type":"Point"},"properties":{"osm_id":"4916380921","tag":{"amenity":"waste_basket"}},"type":"Feature"},
	{"geometry":{"coordinates":[5.057177,43.401303],"type":"Point"},"properties":{"osm_id":"4916380922","tag":{"amenity":"waste_basket"}},"type":"Feature"},
	{"geometry":{"coordinates":[5.060872,43.400499],"type":"Point"},"properties":{"osm_id":"4916403662","tag":{"amenity":"recycling","recycling:paper":"yes","recycling_type":"container"}},"type":"Feature"},
	{"geometry":{"coordinates":[5.060905,43.400495],"type":"Point"},"properties":{"osm_id":"4916403663","tag":{"amenity":"recycling","recycling:plastic":"yes","recycling:plastic_bottles":"yes","recycling:plastic_packaging":"yes","recycling_type":"container"}},"type":"Feature"},
	{"geometry":{"coordinates":[5.060932,43.40049],"type":"Point"},"properties":{"osm_id":"4916403664","tag":{"amenity":"recycling","recycling:glass":"yes","recycling:glass_bottles":"yes","recycling_type":"container"}},"type":"Feature"},
	{"geometry":{"coordinates":[5.058223,43.420479],"type":"Point"},"properties":{"osm_id":"4916732323","ref":"verre","tag":{"amenity":"recycling","location":"overground","recycling_type":"container"}},"type":"Feature"},
	{"geometry":{"coordinates":[5.02973,43.411232],"type":"Point"},"properties":{"osm_id":"5256043308","tag":{"amenity":"recycling","recycling:glass":"yes","recycling_type":"container"}},"type":"Feature"},
	{"geometry":{"coordinates":[5.029707,43.411238],"type":"Point"},"properties":{"osm_id":"5256043309","tag":{"amenity":"recycling","recycling:plastic":"yes","recycling_type":"container"}},"type":"Feature"},
	{"geometry":{"coordinates":[5.029685,43.411143],"type":"Point"},"properties":{"osm_id":"5256043310","tag":{"amenity":"recycling","recycling:clothes":"yes","recycling:shoes":"yes","recycling_type":"container"}},"type":"Feature"},
	{"geometry":{"coordinates":[5.030929,43.410139],"type":"Point"},"properties":{"osm_id":"5284138123","tag":{"amenity":"waste_basket"}},"type":"Feature"},
	{"geometry":{"coordinates":[5.029596,43.411041],"type":"Point"},"properties":{"osm_id":"5284140325","tag":{"amenity":"waste_basket"}},"type":"Feature"},
	{"geometry":{"coordinates":[5.050839,43.407328],"type":"Point"},"properties":{"osm_id":"5389949747","tag":{"amenity":"recycling","recycling:cardboard":"yes","recycling:clothes":"yes","recycling:glass":"yes","recycling:paper":"yes","recycling_type":"container"}},"type":"Feature"},
	{"geometry":{"coordinates":[5.055344,43.402433],"type":"Point"},"properties":{"osm_id":"5418380429","tag":{"amenity":"waste_basket"}},"type":"Feature"},
	{"geometry":{"coordinates":[5.055544,43.402543],"type":"Point"},"properties":{"osm_id":"5418380430","tag":{"amenity":"waste_basket"}},"type":"Feature"},
	{"geometry":{"coordinates":[5.05693,43.402244],"type":"Point"},"properties":{"osm_id":"5418380433","tag":{"amenity":"waste_basket"}},"type":"Feature"},
	{"geometry":{"coordinates":[5.057063,43.402388],"type":"Point"},"properties":{"osm_id":"5418380434","tag":{"amenity":"waste_basket"}},"type":"Feature"},
	{"geometry":{"coordinates":[5.057395,43.402383],"type":"Point"},"properties":{"osm_id":"5418380435","tag":{"amenity":"waste_basket"}},"type":"Feature"},
	{"geometry":{"coordinates":[5.057313,43.40214],"type":"Point"},"properties":{"name":"ordures menageres","osm_id":"5418380436","tag":{"amenity":"recycling","location":"underground","recycling:cans":"yes","recycling:glass_bottles":"yes","recycling:paper":"yes","recycling_type":"container"}},"type":"Feature"},
	{"geometry":{"coordinates":[5.055237,43.402611],"type":"Point"},"properties":{"osm_id":"5418394823","tag":{"amenity":"waste_basket"}},"type":"Feature"},
	{"geometry":{"coordinates":[5.057233,43.402195],"type":"Point"},"properties":{"name":"emballages journaux","osm_id":"5418394824","tag":{"amenity":"recycling","location":"underground","recycling_type":"container"}},"type":"Feature"},
	{"geometry":{"coordinates":[5.056266,43.402115],"type":"Point"},"properties":{"osm_id":"5418394924","tag":{"amenity":"waste_basket"}},"type":"Feature"},
	{"geometry":{"coordinates":[5.054874,43.402831],"type":"Point"},"properties":{"osm_id":"5418394925","tag":{"amenity":"waste_basket"}},"type":"Feature"},
	{"geometry":{"coordinates":[5.057279,43.402165],"type":"Point"},"properties":{"name":"verre","osm_id":"5418394928","tag":{"amenity":"recycling","location":"underground","recycling_type":"container"}},"type":"Feature"},
	{"geometry":{"coordinates":[5.05772,43.402555],"type":"Point"},"properties":{"osm_id":"5418394930","tag":{"amenity":"waste_basket"}},"type":"Feature"},
	{"geometry":{"coordinates":[5.057852,43.402701],"type":"Point"},"properties":{"osm_id":"5418394932","tag":{"amenity":"waste_basket"}},"type":"Feature"},
	{"geometry":{"coordinates":[5.056518,43.40213],"type":"Point"},"properties":{"osm_id":"5418394933","tag":{"amenity":"waste_basket"}},"type":"Feature"},
	{"geometry":{"coordinates":[5.05485,43.402648],"type":"Point"},"properties":{"osm_id":"5418397323","tag":{"amenity":"waste_basket"}},"type":"Feature"},
	{"geometry":{"coordinates":[5.056679,43.404187],"type":"Point"},"properties":{"osm_id":"5426880755","tag":{"amenity":"recycling","recycling:glass":"yes","recycling:paper":"yes","recycling_type":"container"}},"type":"Feature"},
	{"geometry":{"coordinates":[5.045425,43.432273],"type":"Point"},"properties":{"osm_id":"5739168493","tag":{"amenity":"waste_basket","waste":"trash"}},"type":"Feature"},
	{"geometry":{"coordinates":[5.049276,43.43031],"type":"Point"},"properties":{"osm_id":"5739197789","tag":{"amenity":"waste_basket","waste":"trash"}},"type":"Feature"},
	{"geometry":{"coordinates":[5.050516,43.429626],"type":"Point"},"properties":{"osm_id":"5739197799","tag":{"amenity":"waste_basket","waste":"trash"}},"type":"Feature"},
	{"geometry":{"coordinates":[5.049283,43.429636],"type":"Point"},"properties":{"osm_id":"5739197818","tag":{"amenity":"waste_basket","waste":"trash"}},"type":"Feature"},
	{"geometry":{"coordinates":[5.05017,43.429148],"type":"Point"},"properties":{"osm_id":"5739197835","tag":{"amenity":"waste_basket","waste":"trash"}},"type":"Feature"},
	{"geometry":{"coordinates":[5.050774,43.430586],"type":"Point"},"properties":{"osm_id":"5739206171","tag":{"amenity":"waste_basket","waste":"trash"}},"type":"Feature"},
	{"geometry":{"coordinates":[5.047959,43.431461],"type":"Point"},"properties":{"osm_id":"5741456498","tag":{"amenity":"waste_basket","waste":"trash"}},"type":"Feature"},
	{"geometry":{"coordinates":[5.048919,43.43134],"type":"Point"},"properties":{"osm_id":"5741456501","tag":{"amenity":"recycling","recycling:glass":"yes","recycling_type":"container"}},"type":"Feature"},
	{"geometry":{"coordinates":[5.049293,43.429578],"type":"Point"},"properties":{"osm_id":"5741456518","tag":{"amenity":"recycling","recycling:glass":"yes","recycling_type":"container"}},"type":"Feature"},
	{"geometry":{"coordinates":[5.048776,43.430821],"type":"Point"},"properties":{"osm_id":"5741513361","tag":{"amenity":"waste_basket","waste":"trash"}},"type":"Feature"},
	{"geometry":{"coordinates":[5.044837,43.433399],"type":"Point"},"properties":{"osm_id":"5741573476","tag":{"amenity":"waste_disposal"}},"type":"Feature"},
	{"geometry":{"coordinates":[5.045916,43.432399],"type":"Point"},"properties":{"osm_id":"5741573506","tag":{"amenity":"waste_basket","waste":"trash"}},"type":"Feature"},
	{"geometry":{"coordinates":[5.046405,43.432278],"type":"Point"},"properties":{"osm_id":"5741611256","tag":{"amenity":"waste_disposal"}},"type":"Feature"},
	{"geometry":{"coordinates":[5.05222,43.428545],"type":"Point"},"properties":{"osm_id":"5743753908","tag":{"amenity":"waste_basket","waste":"trash"}},"type":"Feature"},
	{"geometry":{"coordinates":[5.052213,43.428518],"type":"Point"},"properties":{"osm_id":"5743753909","tag":{"amenity":"waste_basket","waste":"trash"}},"type":"Feature"},
	{"geometry":{"coordinates":[5.052256,43.429529],"type":"Point"},"properties":{"osm_id":"5743753914","tag":{"amenity":"waste_basket","waste":"trash"}},"type":"Feature"},
	{"geometry":{"coordinates":[5.051753,43.42966],"type":"Point"},"properties":{"osm_id":"5743753919","tag":{"amenity":"waste_basket","waste":"trash"}},"type":"Feature"},
	{"geometry":{"coordinates":[5.053046,43.430213],"type":"Point"},"properties":{"osm_id":"5743754439","tag":{"amenity":"waste_basket","waste":"trash"}},"type":"Feature"},
	{"geometry":{"coordinates":[5.057053,43.430314],"type":"Point"},"properties":{"osm_id":"5743779843","tag":{"amenity":"waste_basket","waste":"trash"}},"type":"Feature"},
	{"geometry":{"coordinates":[5.056259,43.429112],"type":"Point"},"properties":{"osm_id":"5743779855","tag":{"amenity":"recycling","recycling:glass":"yes","recycling_type":"container"}},"type":"Feature"},
	{"geometry":{"coordinates":[5.048703,43.406342],"type":"Point"},"properties":{"osm_id":"5977829913","tag":{"amenity":"waste_basket"}},"type":"Feature"},
	{"geometry":{"coordinates":[5.04567,43.415761],"type":"Point"},"properties":{"osm_id":"6173325627","tag":{"amenity":"waste_basket"}},"type":"Feature"},
	{"geometry":{"coordinates":[5.05617,43.405792],"type":"Point"},"properties":{"osm_id":"6173387727","tag":{"amenity":"waste_basket"}},"type":"Feature"},
	{"geometry":{"coordinates":[5.055273,43.403895],"type":"Point"},"properties":{"osm_id":"6173387731","tag":{"amenity":"waste_basket"}},"type":"Feature"},
	{"geometry":{"coordinates":[5.057076,43.407982],"type":"Point"},"properties":{"osm_id":"6258361090","tag":{"amenity":"waste_basket"}},"type":"Feature"},
	{"geometry":{"coordinates":[5.057211,43.407747],"type":"Point"},"properties":{"osm_id":"6258361097","tag":{"amenity":"waste_basket"}},"type":"Feature"},
	{"geometry":{"coordinates":[5.051826,43.405468],"type":"Point"},"properties":{"osm_id":"6376314385","tag":{"amenity":"waste_basket"}},"type":"Feature"},
	{"geometry":{"coordinates":[5.050163,43.404174],"type":"Point"},"properties":{"osm_id":"6376314386","tag":{"amenity":"waste_basket"}},"type":"Feature"},
	{"geometry":{"coordinates":[5.051528,43.404197],"type":"Point"},"properties":{"osm_id":"6376314387","tag":{"amenity":"waste_basket"}},"type":"Feature"},
	{"geometry":{"coordinates":[5.051279,43.405225],"type":"Point"},"properties":{"osm_id":"6376314485","tag":{"amenity":"waste_basket"}},"type":"Feature"},
	{"geometry":{"coordinates":[5.05048,43.404847],"type":"Point"},"properties":{"osm_id":"6376314486","tag":{"amenity":"waste_basket"}},"type":"Feature"},
	{"geometry":{"coordinates":[5.050415,43.40417],"type":"Point"},"properties":{"osm_id":"6376314487","tag":{"amenity":"waste_basket"}},"type":"Feature"},
	{"geometry":{"coordinates":[5.053338,43.405145],"type":"Point"},"properties":{"osm_id":"6376314489","tag":{"amenity":"waste_basket"}},"type":"Feature"},
	{"geometry":{"coordinates":[5.050124,43.404139],"type":"Point"},"properties":{"osm_id":"6376314587","tag":{"amenity":"waste_basket"}},"type":"Feature"},
	{"geometry":{"coordinates":[5.051607,43.404089],"type":"Point"},"properties":{"osm_id":"6376314589","tag":{"amenity":"waste_basket"}},"type":"Feature"},
	{"geometry":{"coordinates":[5.050783,43.405048],"type":"Point"},"properties":{"osm_id":"6376314785","tag":{"amenity":"waste_basket"}},"type":"Feature"},
	{"geometry":{"coordinates":[5.052309,43.404284],"type":"Point"},"properties":{"osm_id":"6376314786","tag":{"amenity":"waste_basket"}},"type":"Feature"},
	{"geometry":{"coordinates":[5.052323,43.404177],"type":"Point"},"properties":{"osm_id":"6376315085","tag":{"amenity":"waste_basket"}},"type":"Feature"},
	{"geometry":{"coordinates":[5.059007,43.407149],"type":"Point"},"properties":{"osm_id":"6647019686","tag":{"amenity":"waste_basket"}},"type":"Feature"},
	{"geometry":{"coordinates":[5.058686,43.40709],"type":"Point"},"properties":{"osm_id":"6647041886","tag":{"amenity":"waste_basket"}},"type":"Feature"},
	{"geometry":{"coordinates":[5.058765,43.406614],"type":"Point"},"properties":{"osm_id":"6647041887","tag":{"amenity":"waste_basket"}},"type":"Feature"},
	{"geometry":{"coordinates":[5.059325,43.406895],"type":"Point"},"properties":{"osm_id":"6647043789","tag":{"amenity":"waste_basket"}},"type":"Feature"},
	{"geometry":{"coordinates":[5.058585,43.406851],"type":"Point"},"properties":{"osm_id":"6647044085","tag":{"amenity":"waste_basket"}},"type":"Feature"},
	{"geometry":{"coordinates":[5.057405,43.406624],"type":"Point"},"properties":{"osm_id":"6647044087","tag":{"amenity":"waste_basket"}},"type":"Feature"},
	{"geometry":{"coordinates":[5.057678,43.406571],"type":"Point"},"properties":{"osm_id":"6647044088","tag":{"amenity":"waste_basket"}},"type":"Feature"},
	{"geometry":{"coordinates":[5.058307,43.406633],"type":"Point"},"properties":{"osm_id":"6647044186","tag":{"amenity":"waste_basket"}},"type":"Feature"},
	{"geometry":{"coordinates":[5.056718,43.408814],"type":"Point"},"properties":{"osm_id":"6865597180","tag":{"amenity":"recycling","recycling:paper":"yes","recycling_type":"container"}},"type":"Feature"},
	{"geometry":{"coordinates":[5.05675,43.408808],"type":"Point"},"properties":{"osm_id":"6865597181","tag":{"amenity":"recycling","recycling:plastic":"yes","recycling_type":"container"}},"type":"Feature"},
	{"geometry":{"coordinates":[5.045521,43.430017],"type":"Point"},"properties":{"name":"verre","osm_id":"7001407485","tag":{"amenity":"recycling"}},"type":"Feature"},
	{"geometry":{"coordinates":[5.045523,43.430013],"type":"Point"},"properties":{"name":"vetement","osm_id":"7001407585","tag":{"amenity":"recycling","operator":"Le relais"}},"type":"Feature"}
]
}
