{
"type": "FeatureCollection",
"features": [
	{"geometry":{"coordinates":[5.043324,43.331895],"type":"Point"},"properties":{"osm_id":"4779100748","tag":{"amenity":"recycling","recycling_type":"container"}},"type":"Feature"},
	{"geometry":{"coordinates":[5.0563,43.330714],"type":"Point"},"properties":{"osm_id":"5167752643","tag":{"amenity":"recycling","recycling:glass_bottles":"yes","recycling_type":"container"}},"type":"Feature"},
	{"geometry":{"coordinates":[5.042924,43.333333],"type":"Point"},"properties":{"osm_id":"5269913725","tag":{"amenity":"waste_basket"}},"type":"Feature"},
	{"geometry":{"coordinates":[5.043083,43.333417],"type":"Point"},"properties":{"osm_id":"5269913921","tag":{"amenity":"waste_basket"}},"type":"Feature"},
	{"geometry":{"coordinates":[5.042834,43.333792],"type":"Point"},"properties":{"osm_id":"5269913922","tag":{"amenity":"waste_basket"}},"type":"Feature"},
	{"geometry":{"coordinates":[5.043431,43.332002],"type":"Point"},"properties":{"osm_id":"5270146827","tag":{"amenity":"waste_basket"}},"type":"Feature"},
	{"geometry":{"coordinates":[5.043291,43.332003],"type":"Point"},"properties":{"osm_id":"5270146828","tag":{"amenity":"waste_basket"}},"type":"Feature"},
	{"geometry":{"coordinates":[5.043095,43.331957],"type":"Point"},"properties":{"osm_id":"5270146829","tag":{"amenity":"waste_basket"}},"type":"Feature"},
	{"geometry":{"coordinates":[5.043098,43.333414],"type":"Point"},"properties":{"osm_id":"5270184921","tag":{"amenity":"waste_basket"}},"type":"Feature"},
	{"geometry":{"coordinates":[5.044081,43.333662],"type":"Point"},"properties":{"osm_id":"5270184922","tag":{"amenity":"recycling","recycling:glass_bottles":"yes","recycling_type":"container"}},"type":"Feature"},
	{"geometry":{"coordinates":[5.039074,43.331446],"type":"Point"},"properties":{"osm_id":"5270185027","tag":{"amenity":"recycling","recycling:glass_bottles":"yes","recycling_type":"container"}},"type":"Feature"},
	{"geometry":{"coordinates":[5.041265,43.328776],"type":"Point"},"properties":{"osm_id":"5270335822","tag":{"amenity":"waste_basket"}},"type":"Feature"},
	{"geometry":{"coordinates":[5.041306,43.328864],"type":"Point"},"properties":{"osm_id":"5270335922","tag":{"amenity":"recycling","recycling:glass_bottles":"yes","recycling_type":"container"}},"type":"Feature"},
	{"geometry":{"coordinates":[5.041012,43.328443],"type":"Point"},"properties":{"osm_id":"5270336021","tag":{"amenity":"waste_basket"}},"type":"Feature"},
	{"geometry":{"coordinates":[5.038804,43.329263],"type":"Point"},"properties":{"osm_id":"5271894921","tag":{"amenity":"waste_basket"}},"type":"Feature"},
	{"geometry":{"coordinates":[5.039183,43.329128],"type":"Point"},"properties":{"osm_id":"5271894922","tag":{"amenity":"waste_basket"}},"type":"Feature"},
	{"geometry":{"coordinates":[5.039662,43.32893],"type":"Point"},"properties":{"osm_id":"5271895121","tag":{"amenity":"waste_basket"}},"type":"Feature"},
	{"geometry":{"coordinates":[5.042073,43.32942],"type":"Point"},"properties":{"osm_id":"5271895321","tag":{"amenity":"waste_basket"}},"type":"Feature"},
	{"geometry":{"coordinates":[5.041956,43.329298],"type":"Point"},"properties":{"osm_id":"5271895322","tag":{"amenity":"waste_basket"}},"type":"Feature"},
	{"geometry":{"coordinates":[5.044145,43.332586],"type":"Point"},"properties":{"osm_id":"5271949690","tag":{"amenity":"recycling","recycling:glass_bottles":"yes","recycling_type":"container"}},"type":"Feature"},
	{"geometry":{"coordinates":[5.044162,43.332586],"type":"Point"},"properties":{"osm_id":"5271949691","tag":{"amenity":"recycling","recycling:cans":"yes","recycling:paper":"yes","recycling:plastic":"yes","recycling:plastic_bags":"yes","recycling:plastic_bottles":"yes","recycling:plastic_packaging":"yes","recycling_type":"container"}},"type":"Feature"},
	{"geometry":{"coordinates":[5.043537,43.331877],"type":"Point"},"properties":{"osm_id":"5273620877","tag":{"amenity":"recycling","recycling_type":"container"}},"type":"Feature"},
	{"geometry":{"coordinates":[5.034236,43.332692],"type":"Point"},"properties":{"osm_id":"5273654649","tag":{"amenity":"waste_basket"}},"type":"Feature"},
	{"geometry":{"coordinates":[5.034137,43.333196],"type":"Point"},"properties":{"osm_id":"5273654650","tag":{"amenity":"waste_basket"}},"type":"Feature"},
	{"geometry":{"coordinates":[5.033123,43.333457],"type":"Point"},"properties":{"osm_id":"5273654651","tag":{"amenity":"waste_basket"}},"type":"Feature"},
	{"geometry":{"coordinates":[5.0437,43.335952],"type":"Point"},"properties":{"osm_id":"5273853824","tag":{"amenity":"recycling","recycling:glass_bottles":"yes","recycling_type":"container"}},"type":"Feature"},
	{"geometry":{"coordinates":[5.042244,43.331902],"type":"Point"},"properties":{"osm_id":"5295733154","tag":{"amenity":"waste_basket"}},"type":"Feature"},
	{"geometry":{"coordinates":[5.039606,43.331164],"type":"Point"},"properties":{"osm_id":"5295788710","tag":{"amenity":"waste_basket"}},"type":"Feature"},
	{"geometry":{"coordinates":[5.039394,43.331108],"type":"Point"},"properties":{"osm_id":"5295788714","tag":{"amenity":"waste_basket"}},"type":"Feature"},
	{"geometry":{"coordinates":[5.03924,43.33106],"type":"Point"},"properties":{"osm_id":"5295788716","tag":{"amenity":"waste_basket"}},"type":"Feature"},
	{"geometry":{"coordinates":[5.038898,43.330894],"type":"Point"},"properties":{"osm_id":"5295789823","tag":{"amenity":"waste_basket"}},"type":"Feature"},
	{"geometry":{"coordinates":[5.038964,43.330738],"type":"Point"},"properties":{"osm_id":"5295789826","tag":{"amenity":"waste_basket"}},"type":"Feature"},
	{"geometry":{"coordinates":[5.043889,43.331374],"type":"Point"},"properties":{"osm_id":"5295975313","tag":{"amenity":"waste_basket"}},"type":"Feature"},
	{"geometry":{"coordinates":[5.046223,43.332407],"type":"Point"},"properties":{"osm_id":"5297154112","tag":{"amenity":"recycling","recycling:glass_bottles":"yes","recycling_type":"container"}},"type":"Feature"},
	{"geometry":{"coordinates":[5.044643,43.329619],"type":"Point"},"properties":{"osm_id":"5297154421","tag":{"amenity":"waste_basket"}},"type":"Feature"},
	{"geometry":{"coordinates":[5.045729,43.329173],"type":"Point"},"properties":{"osm_id":"5297154427","tag":{"amenity":"waste_basket"}},"type":"Feature"},
	{"geometry":{"coordinates":[5.047012,43.330065],"type":"Point"},"properties":{"osm_id":"5297154434","tag":{"amenity":"waste_basket"}},"type":"Feature"},
	{"geometry":{"coordinates":[5.047183,43.330604],"type":"Point"},"properties":{"osm_id":"5297154438","tag":{"amenity":"waste_basket"}},"type":"Feature"},
	{"geometry":{"coordinates":[5.047705,43.331327],"type":"Point"},"properties":{"osm_id":"5297154442","tag":{"amenity":"waste_basket"}},"type":"Feature"},
	{"geometry":{"coordinates":[5.050431,43.332823],"type":"Point"},"properties":{"osm_id":"5297173478","tag":{"amenity":"waste_basket"}},"type":"Feature"},
	{"geometry":{"coordinates":[5.050666,43.333252],"type":"Point"},"properties":{"osm_id":"5297173482","tag":{"amenity":"recycling","recycling:glass_bottles":"yes","recycling_type":"container"}},"type":"Feature"},
	{"geometry":{"coordinates":[5.050714,43.333256],"type":"Point"},"properties":{"osm_id":"5297173483","tag":{"amenity":"recycling","recycling:cans":"yes","recycling:plastic":"yes","recycling:plastic_bottles":"yes","recycling:plastic_packaging":"yes","recycling_type":"container"}},"type":"Feature"},
	{"geometry":{"coordinates":[5.050253,43.33284],"type":"Point"},"properties":{"osm_id":"5297203837","tag":{"amenity":"waste_basket"}},"type":"Feature"},
	{"geometry":{"coordinates":[5.050091,43.332791],"type":"Point"},"properties":{"osm_id":"5297203838","tag":{"amenity":"waste_basket"}},"type":"Feature"},
	{"geometry":{"coordinates":[5.04995,43.332837],"type":"Point"},"properties":{"osm_id":"5297203839","tag":{"amenity":"waste_basket"}},"type":"Feature"},
	{"geometry":{"coordinates":[5.050631,43.332759],"type":"Point"},"properties":{"osm_id":"5297203840","tag":{"amenity":"waste_basket"}},"type":"Feature"},
	{"geometry":{"coordinates":[5.049697,43.332847],"type":"Point"},"properties":{"osm_id":"5297203841","tag":{"amenity":"waste_basket"}},"type":"Feature"},
	{"geometry":{"coordinates":[5.049582,43.332845],"type":"Point"},"properties":{"osm_id":"5297203842","tag":{"amenity":"waste_basket"}},"type":"Feature"},
	{"geometry":{"coordinates":[5.049439,43.332854],"type":"Point"},"properties":{"osm_id":"5297203843","tag":{"amenity":"waste_basket"}},"type":"Feature"},
	{"geometry":{"coordinates":[5.049348,43.332848],"type":"Point"},"properties":{"osm_id":"5297203844","tag":{"amenity":"waste_basket"}},"type":"Feature"},
	{"geometry":{"coordinates":[5.049224,43.332847],"type":"Point"},"properties":{"osm_id":"5297203845","tag":{"amenity":"waste_basket"}},"type":"Feature"},
	{"geometry":{"coordinates":[5.048508,43.333836],"type":"Point"},"properties":{"osm_id":"5297333029","tag":{"amenity":"waste_basket"}},"type":"Feature"},
	{"geometry":{"coordinates":[5.048925,43.334777],"type":"Point"},"properties":{"osm_id":"5297333038","tag":{"amenity":"waste_basket"}},"type":"Feature"},
	{"geometry":{"coordinates":[5.049157,43.335336],"type":"Point"},"properties":{"osm_id":"5297333044","tag":{"amenity":"waste_basket"}},"type":"Feature"},
	{"geometry":{"coordinates":[5.049398,43.334426],"type":"Point"},"properties":{"osm_id":"5297342989","tag":{"amenity":"waste_basket"}},"type":"Feature"},
	{"geometry":{"coordinates":[5.049364,43.334039],"type":"Point"},"properties":{"osm_id":"5297342992","tag":{"amenity":"waste_basket"}},"type":"Feature"},
	{"geometry":{"coordinates":[5.049584,43.333736],"type":"Point"},"properties":{"osm_id":"5297342995","tag":{"amenity":"waste_basket"}},"type":"Feature"},
	{"geometry":{"coordinates":[5.049989,43.333714],"type":"Point"},"properties":{"osm_id":"5299053850","tag":{"amenity":"waste_basket"}},"type":"Feature"},
	{"geometry":{"coordinates":[5.050045,43.334007],"type":"Point"},"properties":{"osm_id":"5299053863","tag":{"amenity":"waste_basket"}},"type":"Feature"},
	{"geometry":{"coordinates":[5.05006,43.334368],"type":"Point"},"properties":{"osm_id":"5299053864","tag":{"amenity":"waste_basket"}},"type":"Feature"},
	{"geometry":{"coordinates":[5.050048,43.334696],"type":"Point"},"properties":{"osm_id":"5299053865","tag":{"amenity":"waste_basket"}},"type":"Feature"},
	{"geometry":{"coordinates":[5.052202,43.337994],"type":"Point"},"properties":{"osm_id":"5299078261","tag":{"amenity":"waste_basket"}},"type":"Feature"},
	{"geometry":{"coordinates":[5.052186,43.337684],"type":"Point"},"properties":{"osm_id":"5299078267","tag":{"amenity":"recycling","recycling:glass_bottles":"yes","recycling_type":"container"}},"type":"Feature"},
	{"geometry":{"coordinates":[5.051857,43.337713],"type":"Point"},"properties":{"osm_id":"5299078270","tag":{"amenity":"waste_basket"}},"type":"Feature"},
	{"geometry":{"coordinates":[5.052698,43.337928],"type":"Point"},"properties":{"osm_id":"5299089351","tag":{"amenity":"waste_basket"}},"type":"Feature"},
	{"geometry":{"coordinates":[5.051816,43.339874],"type":"Point"},"properties":{"osm_id":"5299101455","tag":{"amenity":"waste_basket"}},"type":"Feature"},
	{"geometry":{"coordinates":[5.053086,43.339306],"type":"Point"},"properties":{"osm_id":"5299101483","tag":{"amenity":"recycling","recycling:glass_bottles":"yes","recycling_type":"container"}},"type":"Feature"},
	{"geometry":{"coordinates":[5.053094,43.339303],"type":"Point"},"properties":{"osm_id":"5299101484","tag":{"amenity":"recycling","recycling:glass_bottles":"yes","recycling_type":"container"}},"type":"Feature"},
	{"geometry":{"coordinates":[5.052984,43.338365],"type":"Point"},"properties":{"osm_id":"5299119805","tag":{"amenity":"waste_basket"}},"type":"Feature"},
	{"geometry":{"coordinates":[5.051727,43.336995],"type":"Point"},"properties":{"osm_id":"5299124224","tag":{"amenity":"recycling","recycling:glass_bottles":"yes","recycling_type":"container"}},"type":"Feature"},
	{"geometry":{"coordinates":[5.052309,43.334442],"type":"Point"},"properties":{"osm_id":"5299344041","tag":{"amenity":"recycling","recycling:glass_bottles":"yes","recycling_type":"container"}},"type":"Feature"},
	{"geometry":{"coordinates":[5.052219,43.332802],"type":"Point"},"properties":{"osm_id":"5299362297","tag":{"amenity":"waste_basket","backrest":"yes"}},"type":"Feature"},
	{"geometry":{"coordinates":[5.05225,43.332644],"type":"Point"},"properties":{"osm_id":"5299362300","tag":{"amenity":"waste_basket","backrest":"yes"}},"type":"Feature"},
	{"geometry":{"coordinates":[5.052287,43.332437],"type":"Point"},"properties":{"osm_id":"5299362304","tag":{"amenity":"waste_basket","backrest":"yes"}},"type":"Feature"},
	{"geometry":{"coordinates":[5.052406,43.331479],"type":"Point"},"properties":{"osm_id":"5299362312","tag":{"amenity":"waste_basket"}},"type":"Feature"},
	{"geometry":{"coordinates":[5.052404,43.331466],"type":"Point"},"properties":{"osm_id":"5299362313","tag":{"amenity":"waste_basket"}},"type":"Feature"},
	{"geometry":{"coordinates":[5.053328,43.331337],"type":"Point"},"properties":{"osm_id":"5299362327","tag":{"amenity":"waste_basket"}},"type":"Feature"},
	{"geometry":{"coordinates":[5.053209,43.325767],"type":"Point"},"properties":{"osm_id":"5299383276","tag":{"amenity":"waste_basket"}},"type":"Feature"},
	{"geometry":{"coordinates":[5.053459,43.325709],"type":"Point"},"properties":{"osm_id":"5299383277","tag":{"amenity":"waste_basket"}},"type":"Feature"},
	{"geometry":{"coordinates":[5.053586,43.327213],"type":"Point"},"properties":{"osm_id":"5299383278","tag":{"amenity":"waste_basket"}},"type":"Feature"},
	{"geometry":{"coordinates":[5.053589,43.327204],"type":"Point"},"properties":{"osm_id":"5299383279","tag":{"amenity":"waste_basket"}},"type":"Feature"},
	{"geometry":{"coordinates":[5.054483,43.328254],"type":"Point"},"properties":{"osm_id":"5299383291","tag":{"amenity":"waste_basket"}},"type":"Feature"},
	{"geometry":{"coordinates":[5.054471,43.328249],"type":"Point"},"properties":{"osm_id":"5299383292","tag":{"amenity":"waste_basket"}},"type":"Feature"},
	{"geometry":{"coordinates":[5.055634,43.329306],"type":"Point"},"properties":{"osm_id":"5299431027","tag":{"amenity":"waste_basket"}},"type":"Feature"},
	{"geometry":{"coordinates":[5.054167,43.335604],"type":"Point"},"properties":{"osm_id":"5299457660","tag":{"amenity":"waste_basket"}},"type":"Feature"},
	{"geometry":{"coordinates":[5.054097,43.335526],"type":"Point"},"properties":{"osm_id":"5299457662","tag":{"amenity":"waste_basket"}},"type":"Feature"},
	{"geometry":{"coordinates":[5.054253,43.335467],"type":"Point"},"properties":{"osm_id":"5299457672","tag":{"amenity":"waste_basket"}},"type":"Feature"},
	{"geometry":{"coordinates":[5.065306,43.334812],"type":"Point"},"properties":{"osm_id":"5300543193","tag":{"amenity":"waste_basket"}},"type":"Feature"},
	{"geometry":{"coordinates":[5.065307,43.334803],"type":"Point"},"properties":{"osm_id":"5300543194","tag":{"amenity":"waste_basket"}},"type":"Feature"},
	{"geometry":{"coordinates":[5.067796,43.335381],"type":"Point"},"properties":{"osm_id":"5300543200","tag":{"amenity":"recycling","recycling:glass_bottles":"yes","recycling_type":"container"}},"type":"Feature"},
	{"geometry":{"coordinates":[5.069816,43.332916],"type":"Point"},"properties":{"osm_id":"5300564630","tag":{"amenity":"waste_basket"}},"type":"Feature"},
	{"geometry":{"coordinates":[5.069818,43.332911],"type":"Point"},"properties":{"osm_id":"5300564631","tag":{"amenity":"waste_basket"}},"type":"Feature"},
	{"geometry":{"coordinates":[5.070347,43.333946],"type":"Point"},"properties":{"osm_id":"5300564634","tag":{"amenity":"recycling","recycling:glass_bottles":"yes","recycling_type":"container"}},"type":"Feature"},
	{"geometry":{"coordinates":[5.070346,43.333923],"type":"Point"},"properties":{"osm_id":"5300564635","tag":{"amenity":"recycling","recycling:cans":"yes","recycling:paper":"yes","recycling:plastic":"yes","recycling:plastic_bags":"yes","recycling:plastic_bottles":"yes","recycling:plastic_packaging":"yes","recycling_type":"container"}},"type":"Feature"},
	{"geometry":{"coordinates":[5.074022,43.332318],"type":"Point"},"properties":{"osm_id":"5300587230","tag":{"amenity":"waste_basket"}},"type":"Feature"},
	{"geometry":{"coordinates":[5.074357,43.332716],"type":"Point"},"properties":{"osm_id":"5300587237","tag":{"amenity":"waste_basket"}},"type":"Feature"},
	{"geometry":{"coordinates":[5.073725,43.332403],"type":"Point"},"properties":{"osm_id":"5300587240","tag":{"amenity":"waste_basket"}},"type":"Feature"},
	{"geometry":{"coordinates":[5.073425,43.332096],"type":"Point"},"properties":{"osm_id":"5300594671","tag":{"amenity":"recycling","recycling:glass_bottles":"yes","recycling_type":"container"}},"type":"Feature"},
	{"geometry":{"coordinates":[5.073451,43.332114],"type":"Point"},"properties":{"osm_id":"5300594672","tag":{"amenity":"recycling","recycling:cans":"yes","recycling:paper":"yes","recycling:plastic":"yes","recycling:plastic_bags":"yes","recycling:plastic_bottles":"yes","recycling:plastic_packaging":"yes","recycling_type":"container"}},"type":"Feature"},
	{"geometry":{"coordinates":[5.071905,43.331777],"type":"Point"},"properties":{"osm_id":"5300594674","tag":{"amenity":"waste_basket"}},"type":"Feature"},
	{"geometry":{"coordinates":[5.07192,43.331776],"type":"Point"},"properties":{"osm_id":"5300594675","tag":{"amenity":"waste_basket"}},"type":"Feature"},
	{"geometry":{"coordinates":[5.076027,43.331783],"type":"Point"},"properties":{"osm_id":"5300594687","tag":{"amenity":"recycling","recycling:glass_bottles":"yes","recycling_type":"container"}},"type":"Feature"},
	{"geometry":{"coordinates":[5.078344,43.329292],"type":"Point"},"properties":{"osm_id":"5300609940","tag":{"amenity":"waste_basket"}},"type":"Feature"},
	{"geometry":{"coordinates":[5.078338,43.329283],"type":"Point"},"properties":{"osm_id":"5300609941","tag":{"amenity":"waste_basket"}},"type":"Feature"},
	{"geometry":{"coordinates":[5.078173,43.329735],"type":"Point"},"properties":{"osm_id":"5300609942","tag":{"amenity":"waste_basket"}},"type":"Feature"},
	{"geometry":{"coordinates":[5.07816,43.329739],"type":"Point"},"properties":{"osm_id":"5300609943","tag":{"amenity":"waste_basket"}},"type":"Feature"},
	{"geometry":{"coordinates":[5.078784,43.330384],"type":"Point"},"properties":{"osm_id":"5300618729","tag":{"amenity":"recycling","recycling:glass_bottles":"yes","recycling_type":"container"}},"type":"Feature"},
	{"geometry":{"coordinates":[5.079263,43.330374],"type":"Point"},"properties":{"osm_id":"5300618731","tag":{"amenity":"waste_basket"}},"type":"Feature"},
	{"geometry":{"coordinates":[5.079536,43.330363],"type":"Point"},"properties":{"osm_id":"5300618732","tag":{"amenity":"waste_basket"}},"type":"Feature"},
	{"geometry":{"coordinates":[5.083342,43.340054],"type":"Point"},"properties":{"osm_id":"5300658467","tag":{"amenity":"recycling","recycling:glass_bottles":"yes","recycling_type":"container"}},"type":"Feature"},
	{"geometry":{"coordinates":[5.068915,43.339714],"type":"Point"},"properties":{"osm_id":"5300711206","tag":{"amenity":"recycling","recycling:glass_bottles":"yes","recycling_type":"container"}},"type":"Feature"},
	{"geometry":{"coordinates":[5.067766,43.335386],"type":"Point"},"properties":{"osm_id":"5312175871","tag":{"amenity":"recycling","recycling:books":"yes","recycling:magazines":"yes","recycling:newspaper":"yes","recycling:paper":"yes","recycling:paper_packaging":"yes","recycling_type":"container"}},"type":"Feature"},
	{"geometry":{"coordinates":[5.074436,43.333066],"type":"Point"},"properties":{"osm_id":"5336823440","tag":{"amenity":"waste_basket"}},"type":"Feature"},
	{"geometry":{"coordinates":[5.075466,43.333103],"type":"Point"},"properties":{"osm_id":"5336823441","tag":{"amenity":"waste_basket"}},"type":"Feature"},
	{"geometry":{"coordinates":[5.050138,43.340415],"type":"Point"},"properties":{"osm_id":"5580576824","ref":"verre","tag":{"amenity":"recycling","recycling_type":"container"}},"type":"Feature"},
	{"geometry":{"coordinates":[5.039569,43.331169],"type":"Point"},"properties":{"osm_id":"5690912922","tag":{"amenity":"waste_basket"}},"type":"Feature"},
	{"geometry":{"coordinates":[5.091949,43.36216],"type":"Point"},"properties":{"osm_id":"5743859241","tag":{"amenity":"waste_disposal"}},"type":"Feature"},
	{"geometry":{"coordinates":[5.091491,43.361582],"type":"Point"},"properties":{"osm_id":"5743859251","tag":{"amenity":"waste_disposal"}},"type":"Feature"},
	{"geometry":{"coordinates":[5.089905,43.360438],"type":"Point"},"properties":{"osm_id":"5743859258","tag":{"amenity":"waste_disposal"}},"type":"Feature"},
	{"geometry":{"coordinates":[5.093762,43.363837],"type":"Point"},"properties":{"osm_id":"5743865050","tag":{"amenity":"waste_disposal"}},"type":"Feature"},
	{"geometry":{"coordinates":[5.094199,43.363993],"type":"Point"},"properties":{"osm_id":"5743865056","tag":{"amenity":"waste_basket","waste":"trash"}},"type":"Feature"},
	{"geometry":{"coordinates":[5.094409,43.364502],"type":"Point"},"properties":{"osm_id":"5743865064","tag":{"amenity":"waste_disposal"}},"type":"Feature"},
	{"geometry":{"coordinates":[5.093251,43.364513],"type":"Point"},"properties":{"osm_id":"5743865069","tag":{"amenity":"waste_disposal"}},"type":"Feature"},
	{"geometry":{"coordinates":[5.079605,43.364057],"type":"Point"},"properties":{"osm_id":"5743902732","tag":{"amenity":"waste_disposal"}},"type":"Feature"},
	{"geometry":{"coordinates":[5.087061,43.363804],"type":"Point"},"properties":{"osm_id":"5743902733","tag":{"amenity":"waste_disposal"}},"type":"Feature"},
	{"geometry":{"coordinates":[5.093931,43.363565],"type":"Point"},"properties":{"osm_id":"5743902740","tag":{"amenity":"waste_basket","waste":"trash"}},"type":"Feature"},
	{"geometry":{"coordinates":[5.029902,43.371874],"type":"Point"},"properties":{"osm_id":"5745117421","tag":{"amenity":"waste_disposal"}},"type":"Feature"},
	{"geometry":{"coordinates":[5.030193,43.365352],"type":"Point"},"properties":{"osm_id":"5745117445","tag":{"amenity":"waste_disposal"}},"type":"Feature"},
	{"geometry":{"coordinates":[5.066602,43.36544],"type":"Point"},"properties":{"osm_id":"5745117466","tag":{"amenity":"waste_disposal"}},"type":"Feature"},
	{"geometry":{"coordinates":[5.05933,43.364728],"type":"Point"},"properties":{"osm_id":"5745117467","tag":{"amenity":"waste_disposal"}},"type":"Feature"},
	{"geometry":{"coordinates":[5.060052,43.365921],"type":"Point"},"properties":{"osm_id":"5745117468","tag":{"amenity":"waste_disposal"}},"type":"Feature"},
	{"geometry":{"coordinates":[5.035408,43.375861],"type":"Point"},"properties":{"osm_id":"5745133761","tag":{"amenity":"waste_disposal"}},"type":"Feature"},
	{"geometry":{"coordinates":[5.032316,43.374276],"type":"Point"},"properties":{"osm_id":"5745133768","tag":{"amenity":"waste_disposal"}},"type":"Feature"},
	{"geometry":{"coordinates":[5.025446,43.356204],"type":"Point"},"properties":{"osm_id":"5745176888","tag":{"amenity":"recycling","recycling:plastic":"yes","recycling:plastic_bottles":"yes","recycling:plastic_packaging":"yes","recycling_type":"container"}},"type":"Feature"},
	{"geometry":{"coordinates":[5.025486,43.35622],"type":"Point"},"properties":{"osm_id":"5745176889","tag":{"amenity":"recycling","recycling:glass_bottles":"yes","recycling_type":"container"}},"type":"Feature"},
	{"geometry":{"coordinates":[5.02543,43.356076],"type":"Point"},"properties":{"osm_id":"5745176891","tag":{"amenity":"waste_basket","waste":"trash"}},"type":"Feature"},
	{"geometry":{"coordinates":[5.025402,43.356071],"type":"Point"},"properties":{"osm_id":"5745176892","tag":{"amenity":"waste_basket","waste":"trash"}},"type":"Feature"},
	{"geometry":{"coordinates":[5.026048,43.35611],"type":"Point"},"properties":{"osm_id":"5745209573","tag":{"amenity":"waste_basket","waste":"trash"}},"type":"Feature"},
	{"geometry":{"coordinates":[5.026031,43.356128],"type":"Point"},"properties":{"osm_id":"5745209574","tag":{"amenity":"waste_basket","waste":"trash"}},"type":"Feature"},
	{"geometry":{"coordinates":[5.025677,43.356094],"type":"Point"},"properties":{"osm_id":"5745209575","tag":{"amenity":"waste_basket","waste":"trash"}},"type":"Feature"},
	{"geometry":{"coordinates":[5.030365,43.356336],"type":"Point"},"properties":{"osm_id":"5745224642","tag":{"amenity":"waste_disposal"}},"type":"Feature"},
	{"geometry":{"coordinates":[5.0278,43.356495],"type":"Point"},"properties":{"osm_id":"5745224651","tag":{"amenity":"waste_disposal"}},"type":"Feature"},
	{"geometry":{"coordinates":[5.026237,43.355588],"type":"Point"},"properties":{"osm_id":"5745263014","tag":{"amenity":"waste_basket","waste":"trash"}},"type":"Feature"},
	{"geometry":{"coordinates":[5.026241,43.355567],"type":"Point"},"properties":{"osm_id":"5745263015","tag":{"amenity":"waste_basket","waste":"trash"}},"type":"Feature"},
	{"geometry":{"coordinates":[5.026095,43.355135],"type":"Point"},"properties":{"osm_id":"5745263018","tag":{"amenity":"waste_basket","waste":"trash"}},"type":"Feature"},
	{"geometry":{"coordinates":[5.026076,43.355117],"type":"Point"},"properties":{"osm_id":"5745263019","tag":{"amenity":"waste_basket","waste":"trash"}},"type":"Feature"},
	{"geometry":{"coordinates":[5.025689,43.352339],"type":"Point"},"properties":{"osm_id":"5745263439","tag":{"amenity":"waste_basket","waste":"trash"}},"type":"Feature"},
	{"geometry":{"coordinates":[5.025671,43.352329],"type":"Point"},"properties":{"osm_id":"5745263440","tag":{"amenity":"waste_basket","waste":"trash"}},"type":"Feature"},
	{"geometry":{"coordinates":[5.025807,43.352171],"type":"Point"},"properties":{"osm_id":"5745263442","tag":{"amenity":"recycling","recycling:glass_bottles":"yes","recycling_type":"container"}},"type":"Feature"},
	{"geometry":{"coordinates":[5.052763,43.333753],"type":"Point"},"properties":{"osm_id":"5748983218","tag":{"amenity":"waste_disposal"}},"type":"Feature"},
	{"geometry":{"coordinates":[5.05285,43.333492],"type":"Point"},"properties":{"osm_id":"5748983219","tag":{"amenity":"waste_disposal"}},"type":"Feature"},
	{"geometry":{"coordinates":[5.054018,43.331933],"type":"Point"},"properties":{"osm_id":"5748983220","tag":{"amenity":"waste_disposal"}},"type":"Feature"},
	{"geometry":{"coordinates":[5.053769,43.327965],"type":"Point"},"properties":{"osm_id":"5748983421","tag":{"amenity":"waste_disposal"}},"type":"Feature"},
	{"geometry":{"coordinates":[5.055806,43.335237],"type":"Point"},"properties":{"osm_id":"5749384372","tag":{"amenity":"waste_disposal"}},"type":"Feature"},
	{"geometry":{"coordinates":[5.056374,43.336804],"type":"Point"},"properties":{"osm_id":"5751392293","tag":{"amenity":"waste_disposal"}},"type":"Feature"},
	{"geometry":{"coordinates":[5.056133,43.335959],"type":"Point"},"properties":{"osm_id":"5751392294","tag":{"amenity":"waste_disposal"}},"type":"Feature"},
	{"geometry":{"coordinates":[5.055053,43.33335],"type":"Point"},"properties":{"osm_id":"5751392295","tag":{"amenity":"waste_disposal"}},"type":"Feature"},
	{"geometry":{"coordinates":[5.054969,43.333392],"type":"Point"},"properties":{"osm_id":"5751392296","tag":{"amenity":"waste_disposal"}},"type":"Feature"},
	{"geometry":{"coordinates":[5.078918,43.330367],"type":"Point"},"properties":{"osm_id":"5751525299","tag":{"amenity":"waste_basket","waste":"dog_excrement"}},"type":"Feature"},
	{"geometry":{"coordinates":[5.071595,43.334044],"type":"Point"},"properties":{"osm_id":"5751525301","tag":{"amenity":"waste_disposal"}},"type":"Feature"},
	{"geometry":{"coordinates":[5.070126,43.341228],"type":"Point"},"properties":{"osm_id":"5751525309","tag":{"amenity":"waste_disposal"}},"type":"Feature"},
	{"geometry":{"coordinates":[5.063434,43.338049],"type":"Point"},"properties":{"osm_id":"5751525310","tag":{"amenity":"waste_disposal"}},"type":"Feature"},
	{"geometry":{"coordinates":[5.064856,43.339482],"type":"Point"},"properties":{"osm_id":"5751525311","tag":{"amenity":"waste_disposal"}},"type":"Feature"},
	{"geometry":{"coordinates":[5.082518,43.369275],"type":"Point"},"properties":{"osm_id":"5789959511","tag":{"amenity":"recycling","recycling:plastic":"yes","recycling:plastic_bottles":"yes","recycling:plastic_packaging":"yes","recycling_type":"container"}},"type":"Feature"},
	{"geometry":{"coordinates":[5.082523,43.369295],"type":"Point"},"properties":{"osm_id":"5789959512","tag":{"amenity":"waste_disposal"}},"type":"Feature"},
	{"geometry":{"coordinates":[5.065291,43.384435],"type":"Point"},"properties":{"osm_id":"6627813033","tag":{"amenity":"waste_basket"}},"type":"Feature"}
]
}
