{
"type": "FeatureCollection",
"features": [
	{"geometry":{"coordinates":[63.436346,-19.672755],"type":"Point"},"properties":{"name":"Poubelle","osm_id":"8046719458","tag":{"amenity":"waste_basket"}},"type":"Feature"},
	{"geometry":{"coordinates":[63.433695,-19.67453],"type":"Point"},"properties":{"name":"Recyclage","osm_id":"8046719827","tag":{"amenity":"waste_disposal"}},"type":"Feature"},
	{"geometry":{"coordinates":[63.43451,-19.673852],"type":"Point"},"properties":{"name":"Rodclean ltd","osm_id":"8046743185","tag":{"amenity":"waste_disposal"}},"type":"Feature"},
	{"geometry":{"coordinates":[63.435426,-19.673136],"type":"Point"},"properties":{"name":"Poubelle","osm_id":"8046751248","tag":{"amenity":"waste_basket"}},"type":"Feature"},
	{"geometry":{"coordinates":[63.433469,-19.67469],"type":"Point"},"properties":{"name":"Poubelle","osm_id":"8046761847","tag":{"amenity":"waste_basket"}},"type":"Feature"},
	{"geometry":{"coordinates":[63.447841,-19.67415],"type":"Point"},"properties":{"osm_id":"8058099029","tag":{"amenity":"waste_disposal"}},"type":"Feature"},
	{"geometry":{"coordinates":[63.433684,-19.674423],"type":"Point"},"properties":{"osm_id":"8093764387","tag":{"amenity":"waste_basket"}},"type":"Feature"},
	{"geometry":{"coordinates":[63.371742,-19.723325],"type":"Point"},"properties":{"osm_id":"8093825971","tag":{"amenity":"waste_basket"}},"type":"Feature"},
	{"geometry":{"coordinates":[63.374646,-19.711668],"type":"Point"},"properties":{"osm_id":"8093832890","tag":{"amenity":"recycling"}},"type":"Feature"},
	{"geometry":{"coordinates":[63.43352,-19.674527],"type":"Point"},"properties":{"osm_id":"8093864188","tag":{"amenity":"waste_basket"}},"type":"Feature"},
	{"geometry":{"coordinates":[63.43811,-19.718212],"type":"Point"},"properties":{"osm_id":"8093874294","tag":{"amenity":"waste_basket"}},"type":"Feature"},
	{"geometry":{"coordinates":[63.422176,-19.717714],"type":"Point"},"properties":{"osm_id":"8093883583","tag":{"amenity":"waste_disposal"}},"type":"Feature"},
	{"geometry":{"coordinates":[63.447977,-19.673404],"type":"Point"},"properties":{"osm_id":"8093886798","tag":{"amenity":"waste_basket"}},"type":"Feature"},
	{"geometry":{"coordinates":[63.372004,-19.709143],"type":"Point"},"properties":{"osm_id":"8093891782","tag":{"amenity":"waste_basket"}},"type":"Feature"},
	{"geometry":{"coordinates":[63.371728,-19.723079],"type":"Point"},"properties":{"osm_id":"8093895024","tag":{"amenity":"waste_basket"}},"type":"Feature"},
	{"geometry":{"coordinates":[63.42494,-19.678232],"type":"Point"},"properties":{"osm_id":"8093898189","tag":{"amenity":"waste_basket"}},"type":"Feature"},
	{"geometry":{"coordinates":[63.429919,-19.68104],"type":"Point"},"properties":{"osm_id":"8093933401","tag":{"amenity":"waste_basket"}},"type":"Feature"},
	{"geometry":{"coordinates":[63.449407,-19.676619],"type":"Point"},"properties":{"osm_id":"8093957689","tag":{"amenity":"waste_basket"}},"type":"Feature"},
	{"geometry":{"coordinates":[63.448323,-19.673608],"type":"Point"},"properties":{"osm_id":"8093960340","tag":{"amenity":"waste_basket"}},"type":"Feature"},
	{"geometry":{"coordinates":[63.424557,-19.678717],"type":"Point"},"properties":{"osm_id":"8093960346","tag":{"amenity":"waste_basket"}},"type":"Feature"},
	{"geometry":{"coordinates":[63.424326,-19.678813],"type":"Point"},"properties":{"osm_id":"8093961604","tag":{"amenity":"waste_basket"}},"type":"Feature"},
	{"geometry":{"coordinates":[63.425465,-19.678919],"type":"Point"},"properties":{"osm_id":"8093961605","tag":{"amenity":"waste_basket"}},"type":"Feature"},
	{"geometry":{"coordinates":[63.433782,-19.674275],"type":"Point"},"properties":{"osm_id":"8093962380","tag":{"amenity":"waste_basket"}},"type":"Feature"},
	{"geometry":{"coordinates":[63.447967,-19.67431],"type":"Point"},"properties":{"osm_id":"8093962430","tag":{"amenity":"recycling"}},"type":"Feature"},
	{"geometry":{"coordinates":[63.429358,-19.681248],"type":"Point"},"properties":{"osm_id":"8093962885","tag":{"amenity":"waste_basket"}},"type":"Feature"},
	{"geometry":{"coordinates":[63.439167,-19.670636],"type":"Point"},"properties":{"osm_id":"8093963272","tag":{"amenity":"waste_basket"}},"type":"Feature"},
	{"geometry":{"coordinates":[63.433206,-19.674701],"type":"Point"},"properties":{"osm_id":"8093975036","tag":{"amenity":"waste_basket"}},"type":"Feature"},
	{"geometry":{"coordinates":[63.447666,-19.673233],"type":"Point"},"properties":{"osm_id":"8093981708","tag":{"amenity":"waste_basket"}},"type":"Feature"},
	{"geometry":{"coordinates":[63.424116,-19.678612],"type":"Point"},"properties":{"osm_id":"8093982129","tag":{"amenity":"waste_basket"}},"type":"Feature"},
	{"geometry":{"coordinates":[63.425005,-19.678513],"type":"Point"},"properties":{"osm_id":"8093982130","tag":{"amenity":"waste_basket"}},"type":"Feature"},
	{"geometry":{"coordinates":[63.448159,-19.673538],"type":"Point"},"properties":{"osm_id":"8093982294","tag":{"amenity":"waste_basket"}},"type":"Feature"},
	{"geometry":{"coordinates":[63.424703,-19.678345],"type":"Point"},"properties":{"osm_id":"8093982297","tag":{"amenity":"waste_basket"}},"type":"Feature"},
	{"geometry":{"coordinates":[63.4239,-19.679858],"type":"Point"},"properties":{"osm_id":"8093985397","tag":{"amenity":"recycling"}},"type":"Feature"},
	{"geometry":{"coordinates":[63.424778,-19.678618],"type":"Point"},"properties":{"osm_id":"8093985535","tag":{"amenity":"waste_basket"}},"type":"Feature"},
	{"geometry":{"coordinates":[63.424444,-19.678764],"type":"Point"},"properties":{"osm_id":"8093990691","tag":{"amenity":"waste_basket"}},"type":"Feature"},
	{"geometry":{"coordinates":[63.425094,-19.679036],"type":"Point"},"properties":{"osm_id":"8093991278","tag":{"amenity":"waste_basket"}},"type":"Feature"},
	{"geometry":{"coordinates":[63.423964,-19.679257],"type":"Point"},"properties":{"osm_id":"8093992171","tag":{"amenity":"waste_basket"}},"type":"Feature"},
	{"geometry":{"coordinates":[63.424891,-19.678563],"type":"Point"},"properties":{"osm_id":"8093998320","tag":{"amenity":"waste_basket"}},"type":"Feature"},
	{"geometry":{"coordinates":[63.424614,-19.679267],"type":"Point"},"properties":{"osm_id":"8093999644","tag":{"amenity":"waste_basket"}},"type":"Feature"},
	{"geometry":{"coordinates":[63.42407,-19.679539],"type":"Point"},"properties":{"osm_id":"8095437585","tag":{"amenity":"recycling","recycling_type":"container"}},"type":"Feature"}
]
}
