{
"type": "FeatureCollection",
"features": [
	{"geometry":{"coordinates":[44.456466,48.659479],"type":"Point"},"properties":{"osm_id":"1778247265","tag":{"amenity":"waste_basket"}},"type":"Feature"},
	{"geometry":{"coordinates":[44.438447,48.672309],"type":"Point"},"properties":{"osm_id":"1782351032","tag":{"amenity":"waste_basket"}},"type":"Feature"},
	{"geometry":{"coordinates":[44.432673,48.6459],"type":"Point"},"properties":{"osm_id":"3258597566","tag":{"amenity":"recycling","recycling:batteries":"no","recycling:cans":"no","recycling:clothes":"no","recycling:glass":"no","recycling:paper":"yes","recycling:scrap_metal":"no","recycling_type":"container"}},"type":"Feature"},
	{"geometry":{"coordinates":[44.43177,48.646203],"type":"Point"},"properties":{"osm_id":"3274239026","tag":{"amenity":"waste_disposal"}},"type":"Feature"},
	{"geometry":{"coordinates":[44.433485,48.648155],"type":"Point"},"properties":{"osm_id":"3274246684","tag":{"amenity":"recycling","recycling:batteries":"no","recycling:cans":"no","recycling:clothes":"no","recycling:glass":"no","recycling:paper":"yes","recycling:scrap_metal":"no","recycling_type":"container"}},"type":"Feature"},
	{"geometry":{"coordinates":[44.439137,48.64702],"type":"Point"},"properties":{"osm_id":"3285576260","tag":{"amenity":"recycling","recycling:batteries":"no","recycling:cans":"no","recycling:clothes":"no","recycling:glass":"no","recycling:paper":"yes","recycling:scrap_metal":"no","recycling_type":"container"}},"type":"Feature"},
	{"geometry":{"coordinates":[44.450226,48.679279],"type":"Point"},"properties":{"osm_id":"3336767397","tag":{"amenity":"recycling","recycling:batteries":"no","recycling:cans":"no","recycling:clothes":"no","recycling:glass":"no","recycling:paper":"yes","recycling:scrap_metal":"no","recycling_type":"container"}},"type":"Feature"},
	{"geometry":{"coordinates":[44.454257,48.666648],"type":"Point"},"properties":{"osm_id":"3659661831","tag":{"amenity":"recycling","recycling:scrap_metal":"yes","recycling_type":"centre"}},"type":"Feature"},
	{"geometry":{"coordinates":[44.436812,48.648755],"type":"Point"},"properties":{"osm_id":"4319156485","tag":{"amenity":"waste_disposal"}},"type":"Feature"},
	{"geometry":{"coordinates":[44.43155,48.64495],"type":"Point"},"properties":{"osm_id":"4339475690","tag":{"amenity":"waste_basket"}},"type":"Feature"},
	{"geometry":{"coordinates":[44.431821,48.645055],"type":"Point"},"properties":{"osm_id":"4339475691","tag":{"amenity":"waste_basket"}},"type":"Feature"},
	{"geometry":{"coordinates":[44.432035,48.646498],"type":"Point"},"properties":{"osm_id":"4366697389","tag":{"amenity":"waste_basket"}},"type":"Feature"},
	{"geometry":{"coordinates":[44.431995,48.64497],"type":"Point"},"properties":{"osm_id":"4369856490","tag":{"amenity":"waste_basket"}},"type":"Feature"},
	{"geometry":{"coordinates":[44.432445,48.645118],"type":"Point"},"properties":{"osm_id":"4377271890","tag":{"amenity":"waste_disposal"}},"type":"Feature"},
	{"geometry":{"coordinates":[44.437652,48.661195],"type":"Point"},"properties":{"osm_id":"4378929691","tag":{"amenity":"waste_basket"}},"type":"Feature"},
	{"geometry":{"coordinates":[44.443645,48.663083],"type":"Point"},"properties":{"osm_id":"4387253996","tag":{"amenity":"waste_basket"}},"type":"Feature"},
	{"geometry":{"coordinates":[44.443762,48.663122],"type":"Point"},"properties":{"osm_id":"4387309295","tag":{"amenity":"waste_basket"}},"type":"Feature"},
	{"geometry":{"coordinates":[44.444837,48.676229],"type":"Point"},"properties":{"osm_id":"4437622392","tag":{"amenity":"recycling"}},"type":"Feature"},
	{"geometry":{"coordinates":[44.426253,48.644477],"type":"Point"},"properties":{"osm_id":"4476082023","tag":{"amenity":"waste_disposal"}},"type":"Feature"},
	{"geometry":{"coordinates":[44.407187,48.66248],"type":"Point"},"properties":{"osm_id":"4578196820","tag":{"amenity":"waste_disposal","operator":"\u00d0\u00a3\u00d0\u009a \u00d0\u0094\u00d0\u00be\u00d0\u00bb\u00d0\u00b8\u00d0\u00bd\u00d0\u00b0"}},"type":"Feature"},
	{"geometry":{"coordinates":[44.408879,48.66398],"type":"Point"},"properties":{"osm_id":"4602467675","tag":{"amenity":"waste_disposal"}},"type":"Feature"},
	{"geometry":{"coordinates":[44.41537,48.662685],"type":"Point"},"properties":{"osm_id":"4605438897","tag":{"amenity":"waste_disposal"}},"type":"Feature"},
	{"geometry":{"coordinates":[44.413541,48.66329],"type":"Point"},"properties":{"osm_id":"4605438901","tag":{"amenity":"waste_disposal"}},"type":"Feature"},
	{"geometry":{"coordinates":[44.410254,48.6646],"type":"Point"},"properties":{"osm_id":"4605507290","tag":{"amenity":"waste_disposal"}},"type":"Feature"},
	{"geometry":{"coordinates":[44.411878,48.663938],"type":"Point"},"properties":{"osm_id":"4605512189","tag":{"amenity":"waste_disposal"}},"type":"Feature"},
	{"geometry":{"coordinates":[44.418622,48.661251],"type":"Point"},"properties":{"osm_id":"4690221090","tag":{"amenity":"waste_disposal"}},"type":"Feature"},
	{"geometry":{"coordinates":[44.417431,48.661763],"type":"Point"},"properties":{"osm_id":"4690233790","tag":{"amenity":"waste_disposal"}},"type":"Feature"},
	{"geometry":{"coordinates":[44.401106,48.666409],"type":"Point"},"properties":{"osm_id":"4933372215","tag":{"amenity":"waste_disposal","owner":"\u00d0\u00a1\u00d0\u009d\u00d0\u00a2 \u00d0\u00a3\u00d1\u0087\u00d0\u00b8\u00d1\u0082\u00d0\u00b5\u00d0\u00bb\u00d1\u008c"}},"type":"Feature"},
	{"geometry":{"coordinates":[44.411516,48.661497],"type":"Point"},"properties":{"osm_id":"5049574784","tag":{"amenity":"waste_disposal"}},"type":"Feature"},
	{"geometry":{"coordinates":[44.410172,48.662368],"type":"Point"},"properties":{"osm_id":"5059970232","tag":{"amenity":"waste_disposal"}},"type":"Feature"},
	{"geometry":{"coordinates":[44.435765,48.649487],"type":"Point"},"properties":{"osm_id":"5173473057","tag":{"amenity":"recycling","recycling:paper":"yes","recycling_type":"container"}},"type":"Feature"},
	{"geometry":{"coordinates":[44.438046,48.667452],"type":"Point"},"properties":{"osm_id":"5173559429","tag":{"amenity":"recycling","recycling:glass":"yes","recycling_type":"centre"}},"type":"Feature"},
	{"geometry":{"coordinates":[44.412004,48.661573],"type":"Point"},"properties":{"osm_id":"5503191406","tag":{"amenity":"waste_disposal"}},"type":"Feature"},
	{"geometry":{"coordinates":[44.407003,48.663798],"type":"Point"},"properties":{"osm_id":"5509142924","tag":{"amenity":"waste_disposal","operator":"\u00d0\u00a3\u00d0\u009a \u00d0\u0094\u00d0\u00be\u00d0\u00bb\u00d0\u00b8\u00d0\u00bd\u00d0\u00b0","shelter":"yes"}},"type":"Feature"},
	{"geometry":{"coordinates":[44.410882,48.662893],"type":"Point"},"properties":{"osm_id":"5841549857","tag":{"amenity":"waste_disposal"}},"type":"Feature"}
]
}
