{
"type": "FeatureCollection",
"features": [
	{"geometry":{"coordinates":[44.457499,40.14564],"type":"Point"},"properties":{"name":"\u00d5\u008d\u00d5\u00a1\u00d5\u00b6\u00d5\u00ab\u00d5\u00bf\u00d5\u00a5\u00d6\u0084","osm_id":"5348347923","tag":{"addr:street":"\u0547\u056b\u0580\u0561\u056f\u056b 3-\u0580\u0564 \u0576\u0580\u0562\u0561\u0576\u0581\u0584","amenity":"waste_disposal","name:en":"Sanitek","name:ru":"\u0421\u0430\u043d\u0438\u0442\u0435\u043a"}},"type":"Feature"},
	{"geometry":{"coordinates":[44.465913,40.14059],"type":"Point"},"properties":{"name":"\u00c2\u00ab\u00d5\u0094\u00d4\u00bc\u00d4\u00bb\u00d5\u0086\u00d4\u00bc\u00d4\u00b5\u00d5\u0086\u00d4\u00b4\u00c2\u00bb \u00d5\u00bd\u00d5\u00a1\u00d5\u00b0\u00d5\u00b4\u00d5\u00a1\u00d5\u00b6\u00d5\u00a1\u00d6\u0083\u00d5\u00a1\u00d5\u00af \u00d5\u00ba\u00d5\u00a1\u00d5\u00bf\u00d5\u00a1\u00d5\u00bd\u00d5\u00ad\u00d5\u00a1\u00d5\u00b6\u00d5\u00a1\u00d5\u00bf\u00d5\u00be\u00d5\u00b8\u00d6\u0082\u00d5\u00a9\u00d5\u00b5\u00d5\u00a1\u00d5\u00b4\u00d5\u00a2 \u00d5\u00a8\u00d5\u00b6\u00d5\u00af\u00d5\u00a5\u00d6\u0080\u00d5\u00b8\u00d6\u0082\u00d5\u00a9\u00d5\u00b5\u00d5\u00b8\u00d6\u0082\u00d5\u00b6 (\u00d5\u008d\u00d5\u008a\u00d4\u00b8)","osm_id":"5887814320","tag":{"addr:city":"\u0535\u0580\u0587\u0561\u0576","addr:housenumber":"1/66","addr:postcode":"0043","addr:street":"\u0547\u056b\u0580\u0561\u056f\u056b \u0583\u0578\u0572\u0578\u0581","amenity":"recycling","recycling:paper":"yes","recycling:plastic":"yes","recycling_type":"centre"}},"type":"Feature"},
	{"geometry":{"coordinates":[44.456041,40.170442],"type":"Point"},"properties":{"name":"\u00c2\u00ab\u00d5\u0086\u00d5\u00b8\u00d6\u0080\u00d5\u00b8\u00d5\u00a3\u00d5\u00ab\u00c2\u00bb \u00d5\u00bc\u00d5\u00a5\u00d5\u00bd\u00d5\u00b8\u00d6\u0082\u00d6\u0080\u00d5\u00bd\u00d5\u00a1\u00d5\u00b5\u00d5\u00ab\u00d5\u00b6 \u00d5\u00af\u00d5\u00a5\u00d5\u00b6\u00d5\u00bf\u00d6\u0080\u00d5\u00b8\u00d5\u00b6","osm_id":"6277915065","tag":{"addr:city":"\u0535\u0580\u0587\u0561\u0576","addr:housenumber":"90/1","addr:postcode":"0032","addr:street":"\u054d\u0565\u0562\u0561\u057d\u057f\u056b\u0561\u0575\u056b \u0583\u0578\u0572\u0578\u0581","amenity":"recycling","opening_hours":"Mo-Sa 10:00-19:00","phone":"+374 55 10 62 13,+374 10 77 42 00","recycling_type":"centre"}},"type":"Feature"},
	{"geometry":{"coordinates":[44.456612,40.167833],"type":"Point"},"properties":{"osm_id":"6983190380","tag":{"amenity":"waste_disposal"}},"type":"Feature"},
	{"geometry":{"coordinates":[44.461609,40.140361],"type":"Point"},"properties":{"osm_id":"7527985661","tag":{"amenity":"waste_disposal"}},"type":"Feature"},
	{"geometry":{"coordinates":[44.466989,40.147614],"type":"Point"},"properties":{"osm_id":"7528206082","tag":{"amenity":"waste_disposal"}},"type":"Feature"},
	{"geometry":{"coordinates":[44.464664,40.146124],"type":"Point"},"properties":{"osm_id":"7528688849","tag":{"amenity":"waste_disposal"}},"type":"Feature"},
	{"geometry":{"coordinates":[44.468601,40.139905],"type":"Point"},"properties":{"osm_id":"7546364751","tag":{"amenity":"waste_disposal"}},"type":"Feature"}
]
}
