{
"type": "FeatureCollection",
"features": [
	{"geometry":{"coordinates":[8.616557,45.445024],"type":"Point"},"properties":{"name":"Albero viale Castello","osm_id":"2725672035","tag":{"leaf_type":"needleleaved","natural":"tree"}},"type":"Feature"},
	{"geometry":{"coordinates":[8.637123,45.431483],"type":"Point"},"properties":{"osm_id":"2929381556","tag":{"natural":"tree"}},"type":"Feature"},
	{"geometry":{"coordinates":[8.624937,45.440023],"type":"Point"},"properties":{"osm_id":"4250797499","tag":{"natural":"tree"}},"type":"Feature"},
	{"geometry":{"coordinates":[8.625024,45.44004],"type":"Point"},"properties":{"osm_id":"4250797500","tag":{"natural":"tree"}},"type":"Feature"},
	{"geometry":{"coordinates":[8.624897,45.440087],"type":"Point"},"properties":{"osm_id":"4250797503","tag":{"natural":"tree"}},"type":"Feature"},
	{"geometry":{"coordinates":[8.625256,45.440107],"type":"Point"},"properties":{"osm_id":"4250797507","tag":{"natural":"tree"}},"type":"Feature"},
	{"geometry":{"coordinates":[8.625397,45.440157],"type":"Point"},"properties":{"osm_id":"4250797511","tag":{"natural":"tree"}},"type":"Feature"},
	{"geometry":{"coordinates":[8.625631,45.440216],"type":"Point"},"properties":{"osm_id":"4250797519","tag":{"natural":"tree"}},"type":"Feature"},
	{"geometry":{"coordinates":[8.625703,45.440216],"type":"Point"},"properties":{"osm_id":"4250797520","tag":{"natural":"tree"}},"type":"Feature"},
	{"geometry":{"coordinates":[8.626282,45.440301],"type":"Point"},"properties":{"osm_id":"4250797531","tag":{"natural":"tree"}},"type":"Feature"},
	{"geometry":{"coordinates":[8.626577,45.440351],"type":"Point"},"properties":{"osm_id":"4250797536","tag":{"natural":"tree"}},"type":"Feature"},
	{"geometry":{"coordinates":[8.626062,45.440286],"type":"Point"},"properties":{"osm_id":"4250797538","tag":{"natural":"tree"}},"type":"Feature"},
	{"geometry":{"coordinates":[8.626546,45.440413],"type":"Point"},"properties":{"osm_id":"4250797540","tag":{"natural":"tree"}},"type":"Feature"},
	{"geometry":{"coordinates":[8.626247,45.440441],"type":"Point"},"properties":{"osm_id":"4250797543","tag":{"natural":"tree"}},"type":"Feature"},
	{"geometry":{"coordinates":[8.626522,45.440495],"type":"Point"},"properties":{"osm_id":"4250797546","tag":{"natural":"tree"}},"type":"Feature"},
	{"geometry":{"coordinates":[8.625157,45.44051],"type":"Point"},"properties":{"osm_id":"4250797548","tag":{"natural":"tree"}},"type":"Feature"},
	{"geometry":{"coordinates":[8.625212,45.44051],"type":"Point"},"properties":{"osm_id":"4250797549","tag":{"natural":"tree"}},"type":"Feature"},
	{"geometry":{"coordinates":[8.625315,45.440534],"type":"Point"},"properties":{"osm_id":"4250797550","tag":{"natural":"tree"}},"type":"Feature"},
	{"geometry":{"coordinates":[8.62515,45.440557],"type":"Point"},"properties":{"osm_id":"4250797554","tag":{"natural":"tree"}},"type":"Feature"},
	{"geometry":{"coordinates":[8.625836,45.440653],"type":"Point"},"properties":{"osm_id":"4250797568","tag":{"natural":"tree"}},"type":"Feature"},
	{"geometry":{"coordinates":[8.626056,45.440655],"type":"Point"},"properties":{"osm_id":"4250797569","tag":{"natural":"tree"}},"type":"Feature"},
	{"geometry":{"coordinates":[8.626076,45.440715],"type":"Point"},"properties":{"osm_id":"4250797573","tag":{"natural":"tree"}},"type":"Feature"},
	{"geometry":{"coordinates":[8.62606,45.440778],"type":"Point"},"properties":{"osm_id":"4250797576","tag":{"natural":"tree"}},"type":"Feature"},
	{"geometry":{"coordinates":[8.626012,45.440854],"type":"Point"},"properties":{"osm_id":"4250797580","tag":{"natural":"tree"}},"type":"Feature"},
	{"geometry":{"coordinates":[8.628319,45.440887],"type":"Point"},"properties":{"osm_id":"4250797583","tag":{"natural":"tree"}},"type":"Feature"},
	{"geometry":{"coordinates":[8.628361,45.440894],"type":"Point"},"properties":{"osm_id":"4250797584","tag":{"natural":"tree"}},"type":"Feature"},
	{"geometry":{"coordinates":[8.6284,45.440901],"type":"Point"},"properties":{"osm_id":"4250797586","tag":{"natural":"tree"}},"type":"Feature"},
	{"geometry":{"coordinates":[8.625972,45.440954],"type":"Point"},"properties":{"osm_id":"4250797698","tag":{"natural":"tree"}},"type":"Feature"},
	{"geometry":{"coordinates":[8.627907,45.441108],"type":"Point"},"properties":{"osm_id":"4250797719","tag":{"natural":"tree"}},"type":"Feature"},
	{"geometry":{"coordinates":[8.624663,45.441142],"type":"Point"},"properties":{"osm_id":"4250797724","tag":{"natural":"tree"}},"type":"Feature"},
	{"geometry":{"coordinates":[8.627808,45.441144],"type":"Point"},"properties":{"osm_id":"4250797725","tag":{"natural":"tree"}},"type":"Feature"},
	{"geometry":{"coordinates":[8.624353,45.441157],"type":"Point"},"properties":{"osm_id":"4250797726","tag":{"natural":"tree"}},"type":"Feature"},
	{"geometry":{"coordinates":[8.629841,45.441172],"type":"Point"},"properties":{"osm_id":"4250797729","tag":{"natural":"tree"}},"type":"Feature"},
	{"geometry":{"coordinates":[8.624857,45.441191],"type":"Point"},"properties":{"osm_id":"4250797731","tag":{"natural":"tree"}},"type":"Feature"},
	{"geometry":{"coordinates":[8.625856,45.441207],"type":"Point"},"properties":{"osm_id":"4250797737","tag":{"natural":"tree"}},"type":"Feature"},
	{"geometry":{"coordinates":[8.628672,45.441247],"type":"Point"},"properties":{"osm_id":"4250797743","tag":{"natural":"tree"}},"type":"Feature"},
	{"geometry":{"coordinates":[8.627777,45.441254],"type":"Point"},"properties":{"osm_id":"4250797746","tag":{"natural":"tree"}},"type":"Feature"},
	{"geometry":{"coordinates":[8.624357,45.441283],"type":"Point"},"properties":{"osm_id":"4250797748","tag":{"natural":"tree"}},"type":"Feature"},
	{"geometry":{"coordinates":[8.628578,45.441274],"type":"Point"},"properties":{"osm_id":"4250797749","tag":{"natural":"tree"}},"type":"Feature"},
	{"geometry":{"coordinates":[8.625425,45.441285],"type":"Point"},"properties":{"osm_id":"4250797751","tag":{"natural":"tree"}},"type":"Feature"},
	{"geometry":{"coordinates":[8.62559,45.441318],"type":"Point"},"properties":{"osm_id":"4250797756","tag":{"natural":"tree"}},"type":"Feature"},
	{"geometry":{"coordinates":[8.625696,45.441339],"type":"Point"},"properties":{"osm_id":"4250797757","tag":{"natural":"tree"}},"type":"Feature"},
	{"geometry":{"coordinates":[8.628611,45.441346],"type":"Point"},"properties":{"osm_id":"4250797758","tag":{"natural":"tree"}},"type":"Feature"},
	{"geometry":{"coordinates":[8.626661,45.441356],"type":"Point"},"properties":{"osm_id":"4250797760","tag":{"natural":"tree"}},"type":"Feature"},
	{"geometry":{"coordinates":[8.627742,45.441362],"type":"Point"},"properties":{"osm_id":"4250797762","tag":{"natural":"tree"}},"type":"Feature"},
	{"geometry":{"coordinates":[8.62856,45.441441],"type":"Point"},"properties":{"osm_id":"4250797782","tag":{"natural":"tree"}},"type":"Feature"},
	{"geometry":{"coordinates":[8.627702,45.441452],"type":"Point"},"properties":{"osm_id":"4250797784","tag":{"natural":"tree"}},"type":"Feature"},
	{"geometry":{"coordinates":[8.62612,45.441513],"type":"Point"},"properties":{"osm_id":"4250797794","tag":{"natural":"tree"}},"type":"Feature"},
	{"geometry":{"coordinates":[8.625959,45.441519],"type":"Point"},"properties":{"osm_id":"4250797795","tag":{"natural":"tree"}},"type":"Feature"},
	{"geometry":{"coordinates":[8.626569,45.441545],"type":"Point"},"properties":{"osm_id":"4250797801","tag":{"natural":"tree"}},"type":"Feature"},
	{"geometry":{"coordinates":[8.628499,45.441607],"type":"Point"},"properties":{"osm_id":"4250797809","tag":{"natural":"tree"}},"type":"Feature"},
	{"geometry":{"coordinates":[8.627538,45.441384],"type":"Point"},"properties":{"osm_id":"4250797810","tag":{"natural":"tree"}},"type":"Feature"},
	{"geometry":{"coordinates":[8.627643,45.441639],"type":"Point"},"properties":{"osm_id":"4250797816","tag":{"natural":"tree"}},"type":"Feature"},
	{"geometry":{"coordinates":[8.625964,45.441657],"type":"Point"},"properties":{"osm_id":"4250797818","tag":{"natural":"tree"}},"type":"Feature"},
	{"geometry":{"coordinates":[8.626511,45.441722],"type":"Point"},"properties":{"osm_id":"4250797822","tag":{"natural":"tree"}},"type":"Feature"},
	{"geometry":{"coordinates":[8.627693,45.441733],"type":"Point"},"properties":{"osm_id":"4250797823","tag":{"natural":"tree"}},"type":"Feature"},
	{"geometry":{"coordinates":[8.626826,45.44178],"type":"Point"},"properties":{"osm_id":"4250797829","tag":{"natural":"tree"}},"type":"Feature"},
	{"geometry":{"coordinates":[8.627891,45.441809],"type":"Point"},"properties":{"osm_id":"4250797831","tag":{"natural":"tree"}},"type":"Feature"},
	{"geometry":{"coordinates":[8.628127,45.441868],"type":"Point"},"properties":{"osm_id":"4250797837","tag":{"natural":"tree"}},"type":"Feature"},
	{"geometry":{"coordinates":[8.627152,45.441883],"type":"Point"},"properties":{"osm_id":"4250797840","tag":{"natural":"tree"}},"type":"Feature"},
	{"geometry":{"coordinates":[8.628479,45.441888],"type":"Point"},"properties":{"osm_id":"4250797841","tag":{"natural":"tree"}},"type":"Feature"},
	{"geometry":{"coordinates":[8.628202,45.441891],"type":"Point"},"properties":{"osm_id":"4250797842","tag":{"natural":"tree"}},"type":"Feature"},
	{"geometry":{"coordinates":[8.628287,45.441911],"type":"Point"},"properties":{"osm_id":"4250797845","tag":{"natural":"tree"}},"type":"Feature"},
	{"geometry":{"coordinates":[8.628354,45.441924],"type":"Point"},"properties":{"osm_id":"4250797847","tag":{"natural":"tree"}},"type":"Feature"},
	{"geometry":{"coordinates":[8.628406,45.441932],"type":"Point"},"properties":{"osm_id":"4250797848","tag":{"natural":"tree"}},"type":"Feature"},
	{"geometry":{"coordinates":[8.629375,45.442241],"type":"Point"},"properties":{"osm_id":"4250797869","tag":{"natural":"tree"}},"type":"Feature"},
	{"geometry":{"coordinates":[8.621884,45.445665],"type":"Point"},"properties":{"osm_id":"5026770507","tag":{"natural":"tree"}},"type":"Feature"},
	{"geometry":{"coordinates":[8.621887,45.445621],"type":"Point"},"properties":{"osm_id":"5026770508","tag":{"natural":"tree"}},"type":"Feature"},
	{"geometry":{"coordinates":[8.621969,45.445622],"type":"Point"},"properties":{"osm_id":"5026770509","tag":{"natural":"tree"}},"type":"Feature"},
	{"geometry":{"coordinates":[8.621965,45.445666],"type":"Point"},"properties":{"osm_id":"5026770510","tag":{"natural":"tree"}},"type":"Feature"},
	{"geometry":{"coordinates":[8.622048,45.445622],"type":"Point"},"properties":{"osm_id":"5026770511","tag":{"natural":"tree"}},"type":"Feature"},
	{"geometry":{"coordinates":[8.622045,45.445667],"type":"Point"},"properties":{"osm_id":"5026770512","tag":{"natural":"tree"}},"type":"Feature"},
	{"geometry":{"coordinates":[8.622296,45.445971],"type":"Point"},"properties":{"osm_id":"5026794519","tag":{"natural":"tree"}},"type":"Feature"},
	{"geometry":{"coordinates":[8.622289,45.445914],"type":"Point"},"properties":{"osm_id":"5026794520","tag":{"natural":"tree"}},"type":"Feature"},
	{"geometry":{"coordinates":[8.622397,45.445971],"type":"Point"},"properties":{"osm_id":"5026795021","tag":{"natural":"tree"}},"type":"Feature"},
	{"geometry":{"coordinates":[8.622386,45.445914],"type":"Point"},"properties":{"osm_id":"5026795022","tag":{"natural":"tree"}},"type":"Feature"},
	{"geometry":{"coordinates":[8.622519,45.445971],"type":"Point"},"properties":{"osm_id":"5026795023","tag":{"natural":"tree"}},"type":"Feature"},
	{"geometry":{"coordinates":[8.622524,45.445913],"type":"Point"},"properties":{"osm_id":"5026795024","tag":{"natural":"tree"}},"type":"Feature"},
	{"geometry":{"coordinates":[8.622621,45.445971],"type":"Point"},"properties":{"osm_id":"5026795025","tag":{"natural":"tree"}},"type":"Feature"},
	{"geometry":{"coordinates":[8.622615,45.445912],"type":"Point"},"properties":{"osm_id":"5026795026","tag":{"natural":"tree"}},"type":"Feature"},
	{"geometry":{"coordinates":[8.617905,45.447567],"type":"Point"},"properties":{"osm_id":"5026868463","tag":{"natural":"tree"}},"type":"Feature"},
	{"geometry":{"coordinates":[8.622499,45.449623],"type":"Point"},"properties":{"osm_id":"5327268111","tag":{"natural":"tree"}},"type":"Feature"},
	{"geometry":{"coordinates":[8.622554,45.449589],"type":"Point"},"properties":{"osm_id":"5327268112","tag":{"natural":"tree"}},"type":"Feature"},
	{"geometry":{"coordinates":[8.622617,45.449551],"type":"Point"},"properties":{"osm_id":"5327268113","tag":{"natural":"tree"}},"type":"Feature"},
	{"geometry":{"coordinates":[8.621598,45.442257],"type":"Point"},"properties":{"osm_id":"5469686901","tag":{"natural":"tree"}},"type":"Feature"},
	{"geometry":{"coordinates":[8.620827,45.444056],"type":"Point"},"properties":{"osm_id":"5469686906","tag":{"natural":"tree"}},"type":"Feature"},
	{"geometry":{"coordinates":[8.620631,45.444018],"type":"Point"},"properties":{"osm_id":"5469686907","tag":{"natural":"tree"}},"type":"Feature"},
	{"geometry":{"coordinates":[8.620525,45.443994],"type":"Point"},"properties":{"osm_id":"5469686908","tag":{"natural":"tree"}},"type":"Feature"},
	{"geometry":{"coordinates":[8.621026,45.444074],"type":"Point"},"properties":{"osm_id":"5469686909","tag":{"natural":"tree"}},"type":"Feature"},
	{"geometry":{"coordinates":[8.621101,45.443957],"type":"Point"},"properties":{"osm_id":"5469686910","tag":{"natural":"tree"}},"type":"Feature"},
	{"geometry":{"coordinates":[8.622344,45.443652],"type":"Point"},"properties":{"osm_id":"5469686911","tag":{"natural":"tree"}},"type":"Feature"},
	{"geometry":{"coordinates":[8.621425,45.443476],"type":"Point"},"properties":{"osm_id":"5469686912","tag":{"natural":"tree"}},"type":"Feature"},
	{"geometry":{"coordinates":[8.621593,45.443155],"type":"Point"},"properties":{"osm_id":"5469686913","tag":{"natural":"tree"}},"type":"Feature"},
	{"geometry":{"coordinates":[8.621515,45.443211],"type":"Point"},"properties":{"osm_id":"5469686914","tag":{"natural":"tree"}},"type":"Feature"},
	{"geometry":{"coordinates":[8.621468,45.443301],"type":"Point"},"properties":{"osm_id":"5469686915","tag":{"natural":"tree"}},"type":"Feature"},
	{"geometry":{"coordinates":[8.621609,45.442418],"type":"Point"},"properties":{"osm_id":"5469686918","tag":{"natural":"tree"}},"type":"Feature"},
	{"geometry":{"coordinates":[8.621045,45.442522],"type":"Point"},"properties":{"osm_id":"5469686919","tag":{"natural":"tree"}},"type":"Feature"},
	{"geometry":{"coordinates":[8.620911,45.442547],"type":"Point"},"properties":{"osm_id":"5469686920","tag":{"natural":"tree"}},"type":"Feature"},
	{"geometry":{"coordinates":[8.620819,45.44255],"type":"Point"},"properties":{"osm_id":"5469688621","tag":{"natural":"tree"}},"type":"Feature"},
	{"geometry":{"coordinates":[8.620739,45.442534],"type":"Point"},"properties":{"osm_id":"5469688622","tag":{"natural":"tree"}},"type":"Feature"},
	{"geometry":{"coordinates":[8.620143,45.442303],"type":"Point"},"properties":{"osm_id":"5469688623","tag":{"natural":"tree"}},"type":"Feature"},
	{"geometry":{"coordinates":[8.61988,45.442341],"type":"Point"},"properties":{"osm_id":"5469688624","tag":{"natural":"tree"}},"type":"Feature"},
	{"geometry":{"coordinates":[8.621305,45.442355],"type":"Point"},"properties":{"osm_id":"5469688681","tag":{"natural":"tree"}},"type":"Feature"},
	{"geometry":{"coordinates":[8.621273,45.442427],"type":"Point"},"properties":{"osm_id":"5469688682","tag":{"natural":"tree"}},"type":"Feature"},
	{"geometry":{"coordinates":[8.62157,45.441881],"type":"Point"},"properties":{"osm_id":"5469688683","tag":{"natural":"tree"}},"type":"Feature"},
	{"geometry":{"coordinates":[8.621345,45.442203],"type":"Point"},"properties":{"osm_id":"5469688684","tag":{"natural":"tree"}},"type":"Feature"},
	{"geometry":{"coordinates":[8.621392,45.442001],"type":"Point"},"properties":{"osm_id":"5469688685","tag":{"natural":"tree"}},"type":"Feature"},
	{"geometry":{"coordinates":[8.621384,45.442082],"type":"Point"},"properties":{"osm_id":"5469688686","tag":{"natural":"tree"}},"type":"Feature"},
	{"geometry":{"coordinates":[8.620596,45.442024],"type":"Point"},"properties":{"osm_id":"5469688687","tag":{"natural":"tree"}},"type":"Feature"},
	{"geometry":{"coordinates":[8.620528,45.442095],"type":"Point"},"properties":{"osm_id":"5469688688","tag":{"natural":"tree"}},"type":"Feature"},
	{"geometry":{"coordinates":[8.620378,45.442089],"type":"Point"},"properties":{"osm_id":"5469688689","tag":{"natural":"tree"}},"type":"Feature"},
	{"geometry":{"coordinates":[8.621213,45.442243],"type":"Point"},"properties":{"osm_id":"5475989773","tag":{"natural":"tree"}},"type":"Feature"},
	{"geometry":{"coordinates":[8.620116,45.442043],"type":"Point"},"properties":{"osm_id":"5477618819","tag":{"natural":"tree"}},"type":"Feature"},
	{"geometry":{"coordinates":[8.619711,45.441848],"type":"Point"},"properties":{"osm_id":"5477618820","tag":{"natural":"tree"}},"type":"Feature"},
	{"geometry":{"coordinates":[8.620415,45.441774],"type":"Point"},"properties":{"osm_id":"5477619221","tag":{"natural":"tree"}},"type":"Feature"},
	{"geometry":{"coordinates":[8.622273,45.443648],"type":"Point"},"properties":{"osm_id":"5488822392","tag":{"natural":"tree"}},"type":"Feature"},
	{"geometry":{"coordinates":[8.622431,45.443629],"type":"Point"},"properties":{"osm_id":"5488822394","tag":{"natural":"tree"}},"type":"Feature"},
	{"geometry":{"coordinates":[8.62242,45.443664],"type":"Point"},"properties":{"osm_id":"5488822395","tag":{"natural":"tree"}},"type":"Feature"},
	{"geometry":{"coordinates":[8.622395,45.443529],"type":"Point"},"properties":{"osm_id":"5488822396","tag":{"natural":"tree"}},"type":"Feature"},
	{"geometry":{"coordinates":[8.622442,45.44357],"type":"Point"},"properties":{"osm_id":"5488822397","tag":{"natural":"tree"}},"type":"Feature"},
	{"geometry":{"coordinates":[8.621498,45.442392],"type":"Point"},"properties":{"osm_id":"5500214496","tag":{"natural":"tree"}},"type":"Feature"},
	{"geometry":{"coordinates":[8.620666,45.442635],"type":"Point"},"properties":{"osm_id":"5500214497","tag":{"natural":"tree"}},"type":"Feature"},
	{"geometry":{"coordinates":[8.619994,45.441731],"type":"Point"},"properties":{"osm_id":"5500214498","tag":{"natural":"tree"}},"type":"Feature"},
	{"geometry":{"coordinates":[8.619932,45.441769],"type":"Point"},"properties":{"osm_id":"5500214499","tag":{"natural":"tree"}},"type":"Feature"},
	{"geometry":{"coordinates":[8.61958,45.441582],"type":"Point"},"properties":{"osm_id":"5500214500","tag":{"natural":"tree"}},"type":"Feature"},
	{"geometry":{"coordinates":[8.61944,45.441568],"type":"Point"},"properties":{"osm_id":"5500214501","tag":{"natural":"tree"}},"type":"Feature"},
	{"geometry":{"coordinates":[8.61939,45.441611],"type":"Point"},"properties":{"osm_id":"5500214502","tag":{"natural":"tree"}},"type":"Feature"},
	{"geometry":{"coordinates":[8.619398,45.441662],"type":"Point"},"properties":{"osm_id":"5500214503","tag":{"natural":"tree"}},"type":"Feature"},
	{"geometry":{"coordinates":[8.619267,45.441549],"type":"Point"},"properties":{"osm_id":"5500214504","tag":{"natural":"tree"}},"type":"Feature"},
	{"geometry":{"coordinates":[8.658979,45.41529],"type":"Point"},"properties":{"name":"Juglans nigra","osm_id":"5596899165","tag":{"circumference":"4.95","denotation":"natural_monument","description":"Albero monumentale del Piemonte a) et\u00c3\u00a0 e dimensioni","height":"30.0","leaf_cycle":"deciduous","leaf_type":"broadleaved","name:de":"Schwarznuss","name:en":"Eastern black walnut","name:es":"Nogal negro americano","name:fr":"Noyer noir","name:it":"Noce nero","natural":"tree","protected":"yes","species":"Juglans nigra","species:de":"Schwarznuss","species:en":"Eastern black walnut","species:es":"Nogal negro americano","species:fr":"Noyer noir","species:it":"Noce nero","wikidata":"Q55742330"}},"type":"Feature"},
	{"geometry":{"coordinates":[8.632792,45.438242],"type":"Point"},"properties":{"osm_id":"5596899166","tag":{"circumference":"2.60","denotation":"natural_monument","description":"Albero monumentale del Piemonte a) et\u00c3\u00a0 e dimensioni b) forma e portamento","height":"18.5","leaf_cycle":"evergreen","leaf_type":"needleleaved","natural":"tree","protected":"yes","species":"Cedrus atlantica","species:de":"Atlas-Zeder","species:en":"Atlas cedar","species:es":"Cedro del Atlas","species:fr":"C\u00c3\u00a8dre de l'Atlas Bleu","species:it":"Cedro dell'Atlante"}},"type":"Feature"},
	{"geometry":{"coordinates":[8.617911,45.443612],"type":"Point"},"properties":{"name":"Platanus acerifolia","osm_id":"5596899167","tag":{"denotation":"natural_monument","description":"Albero monumentale del Piemonte LR10 -2013 art.7","leaf_cycle":"deciduous","leaf_type":"broadleaved","natural":"tree"}},"type":"Feature"},
	{"geometry":{"coordinates":[8.624645,45.441108],"type":"Point"},"properties":{"osm_id":"7312597157","tag":{"natural":"tree"}},"type":"Feature"},
	{"geometry":{"coordinates":[8.624653,45.441087],"type":"Point"},"properties":{"osm_id":"7312597158","tag":{"natural":"tree"}},"type":"Feature"},
	{"geometry":{"coordinates":[8.639741,45.448017],"type":"Point"},"properties":{"osm_id":"7341658449","tag":{"leaf_cycle":"semi_deciduous","leaf_type":"needleleaved","natural":"tree","species:wikidata":"Q146911","species:wikipedia":"it:Cupressus"}},"type":"Feature"},
	{"geometry":{"coordinates":[8.639729,45.448038],"type":"Point"},"properties":{"osm_id":"7341658450","tag":{"leaf_cycle":"deciduous","leaf_type":"broadleaved","natural":"tree","species:wikidata":"Q3604251","species:wikipedia":"it:Acero (araldica)"}},"type":"Feature"},
	{"geometry":{"coordinates":[8.639809,45.448046],"type":"Point"},"properties":{"osm_id":"7341697889","tag":{"leaf_cycle":"evergreen","leaf_type":"needleleaved","natural":"tree"}},"type":"Feature"},
	{"geometry":{"coordinates":[8.638359,45.443535],"type":"Point"},"properties":{"osm_id":"7357129554","tag":{"natural":"tree"}},"type":"Feature"},
	{"geometry":{"coordinates":[8.638365,45.443536],"type":"Point"},"properties":{"osm_id":"7357129555","tag":{"natural":"tree"}},"type":"Feature"},
	{"geometry":{"coordinates":[8.638363,45.443534],"type":"Point"},"properties":{"osm_id":"7357129556","tag":{"natural":"tree"}},"type":"Feature"},
	{"geometry":{"coordinates":[8.638361,45.443553],"type":"Point"},"properties":{"osm_id":"7357129557","tag":{"natural":"tree"}},"type":"Feature"},
	{"geometry":{"coordinates":[8.638352,45.443565],"type":"Point"},"properties":{"osm_id":"7357129558","tag":{"natural":"tree"}},"type":"Feature"},
	{"geometry":{"coordinates":[8.638333,45.443567],"type":"Point"},"properties":{"osm_id":"7357129559","tag":{"natural":"tree"}},"type":"Feature"},
	{"geometry":{"coordinates":[8.638414,45.443532],"type":"Point"},"properties":{"osm_id":"7357129560","tag":{"natural":"tree"}},"type":"Feature"},
	{"geometry":{"coordinates":[8.638259,45.443573],"type":"Point"},"properties":{"osm_id":"7357129561","tag":{"natural":"tree"}},"type":"Feature"},
	{"geometry":{"coordinates":[8.638383,45.443452],"type":"Point"},"properties":{"osm_id":"7358301647","tag":{"natural":"tree"}},"type":"Feature"},
	{"geometry":{"coordinates":[8.63841,45.443461],"type":"Point"},"properties":{"osm_id":"7358301648","tag":{"natural":"tree"}},"type":"Feature"},
	{"geometry":{"coordinates":[8.638534,45.443297],"type":"Point"},"properties":{"osm_id":"7358301649","tag":{"natural":"tree"}},"type":"Feature"},
	{"geometry":{"coordinates":[8.638437,45.443543],"type":"Point"},"properties":{"osm_id":"7366139810","tag":{"natural":"tree"}},"type":"Feature"},
	{"geometry":{"coordinates":[8.637857,45.447842],"type":"Point"},"properties":{"osm_id":"7592533748","tag":{"natural":"tree"}},"type":"Feature"},
	{"geometry":{"coordinates":[8.63787,45.447821],"type":"Point"},"properties":{"osm_id":"7592533749","tag":{"natural":"tree"}},"type":"Feature"},
	{"geometry":{"coordinates":[8.637905,45.447856],"type":"Point"},"properties":{"osm_id":"7592533750","tag":{"natural":"tree"}},"type":"Feature"},
	{"geometry":{"coordinates":[8.63792,45.447837],"type":"Point"},"properties":{"osm_id":"7592533751","tag":{"natural":"tree"}},"type":"Feature"},
	{"geometry":{"coordinates":[8.637964,45.44787],"type":"Point"},"properties":{"osm_id":"7592533752","tag":{"natural":"tree"}},"type":"Feature"},
	{"geometry":{"coordinates":[8.637976,45.447855],"type":"Point"},"properties":{"osm_id":"7592533753","tag":{"natural":"tree"}},"type":"Feature"},
	{"geometry":{"coordinates":[8.676813,45.457279],"type":"Point"},"properties":{"osm_id":"7605449892","tag":{"natural":"tree"}},"type":"Feature"},
	{"geometry":{"coordinates":[8.629507,45.444842],"type":"Point"},"properties":{"osm_id":"7606801240","tag":{"leaf_type":"broadleaved","natural":"tree"}},"type":"Feature"},
	{"geometry":{"coordinates":[8.629954,45.444017],"type":"Point"},"properties":{"osm_id":"7774044574","tag":{"natural":"tree"}},"type":"Feature"},
	{"geometry":{"coordinates":[8.629088,45.444338],"type":"Point"},"properties":{"osm_id":"7778052042","tag":{"natural":"tree"}},"type":"Feature"},
	{"geometry":{"coordinates":[8.629094,45.444437],"type":"Point"},"properties":{"osm_id":"7778052043","tag":{"natural":"tree"}},"type":"Feature"},
	{"geometry":{"coordinates":[8.630839,45.444607],"type":"Point"},"properties":{"osm_id":"7778052051","tag":{"natural":"tree"}},"type":"Feature"},
	{"geometry":{"coordinates":[8.629818,45.442827],"type":"Point"},"properties":{"osm_id":"7778052052","tag":{"natural":"tree"}},"type":"Feature"},
	{"geometry":{"coordinates":[8.630195,45.442897],"type":"Point"},"properties":{"osm_id":"7778052053","tag":{"natural":"tree"}},"type":"Feature"},
	{"geometry":{"coordinates":[8.631166,45.443837],"type":"Point"},"properties":{"osm_id":"7778052054","tag":{"natural":"tree"}},"type":"Feature"},
	{"geometry":{"coordinates":[8.626564,45.447784],"type":"Point"},"properties":{"osm_id":"7815123363","tag":{"natural":"tree"}},"type":"Feature"},
	{"geometry":{"coordinates":[8.626625,45.44776],"type":"Point"},"properties":{"osm_id":"7815123364","tag":{"natural":"tree"}},"type":"Feature"},
	{"geometry":{"coordinates":[8.626685,45.447739],"type":"Point"},"properties":{"osm_id":"7815123365","tag":{"natural":"tree"}},"type":"Feature"},
	{"geometry":{"coordinates":[8.629397,45.445315],"type":"Point"},"properties":{"osm_id":"7826843368","tag":{"natural":"tree"}},"type":"Feature"},
	{"geometry":{"coordinates":[8.629388,45.445268],"type":"Point"},"properties":{"osm_id":"7826843369","tag":{"natural":"tree"}},"type":"Feature"},
	{"geometry":{"coordinates":[8.629383,45.445217],"type":"Point"},"properties":{"osm_id":"7826843370","tag":{"natural":"tree"}},"type":"Feature"},
	{"geometry":{"coordinates":[8.62937,45.445116],"type":"Point"},"properties":{"osm_id":"7826843371","tag":{"natural":"tree"}},"type":"Feature"},
	{"geometry":{"coordinates":[8.629144,45.444832],"type":"Point"},"properties":{"osm_id":"7826843380","tag":{"natural":"tree"}},"type":"Feature"},
	{"geometry":{"coordinates":[8.639479,45.446927],"type":"Point"},"properties":{"osm_id":"7827713597","tag":{"natural":"tree"}},"type":"Feature"},
	{"geometry":{"coordinates":[8.639369,45.446969],"type":"Point"},"properties":{"osm_id":"7827713598","tag":{"natural":"tree"}},"type":"Feature"},
	{"geometry":{"coordinates":[8.639375,45.446872],"type":"Point"},"properties":{"osm_id":"7827713599","tag":{"natural":"tree"}},"type":"Feature"},
	{"geometry":{"coordinates":[8.63931,45.446891],"type":"Point"},"properties":{"osm_id":"7827713600","tag":{"natural":"tree"}},"type":"Feature"},
	{"geometry":{"coordinates":[8.638717,45.447],"type":"Point"},"properties":{"osm_id":"7827713601","tag":{"natural":"tree"}},"type":"Feature"},
	{"geometry":{"coordinates":[8.651324,45.452029],"type":"Point"},"properties":{"osm_id":"7830335646","tag":{"natural":"tree"}},"type":"Feature"},
	{"geometry":{"coordinates":[8.65166,45.452046],"type":"Point"},"properties":{"osm_id":"7830335647","tag":{"natural":"tree"}},"type":"Feature"},
	{"geometry":{"coordinates":[8.652074,45.452188],"type":"Point"},"properties":{"osm_id":"7830335648","tag":{"natural":"tree"}},"type":"Feature"},
	{"geometry":{"coordinates":[8.652551,45.452301],"type":"Point"},"properties":{"osm_id":"7830335649","tag":{"natural":"tree"}},"type":"Feature"},
	{"geometry":{"coordinates":[8.652379,45.452476],"type":"Point"},"properties":{"osm_id":"7830335650","tag":{"natural":"tree"}},"type":"Feature"},
	{"geometry":{"coordinates":[8.652227,45.452528],"type":"Point"},"properties":{"osm_id":"7830335651","tag":{"natural":"tree"}},"type":"Feature"},
	{"geometry":{"coordinates":[8.651435,45.452374],"type":"Point"},"properties":{"osm_id":"7830335652","tag":{"natural":"tree"}},"type":"Feature"},
	{"geometry":{"coordinates":[8.652946,45.452343],"type":"Point"},"properties":{"osm_id":"7830335653","tag":{"natural":"tree"}},"type":"Feature"},
	{"geometry":{"coordinates":[8.652394,45.452615],"type":"Point"},"properties":{"osm_id":"7830335654","tag":{"natural":"tree"}},"type":"Feature"},
	{"geometry":{"coordinates":[8.652556,45.452699],"type":"Point"},"properties":{"osm_id":"7830335655","tag":{"natural":"tree"}},"type":"Feature"},
	{"geometry":{"coordinates":[8.653111,45.45202],"type":"Point"},"properties":{"osm_id":"7830335656","tag":{"natural":"tree"}},"type":"Feature"},
	{"geometry":{"coordinates":[8.653168,45.451928],"type":"Point"},"properties":{"osm_id":"7830335657","tag":{"natural":"tree"}},"type":"Feature"},
	{"geometry":{"coordinates":[8.65322,45.451802],"type":"Point"},"properties":{"osm_id":"7830335658","tag":{"natural":"tree"}},"type":"Feature"},
	{"geometry":{"coordinates":[8.652957,45.45198],"type":"Point"},"properties":{"osm_id":"7830335659","tag":{"natural":"tree"}},"type":"Feature"},
	{"geometry":{"coordinates":[8.653181,45.451572],"type":"Point"},"properties":{"osm_id":"7830335660","tag":{"natural":"tree"}},"type":"Feature"},
	{"geometry":{"coordinates":[8.653931,45.450309],"type":"Point"},"properties":{"osm_id":"7830335661","tag":{"natural":"tree"}},"type":"Feature"},
	{"geometry":{"coordinates":[8.651477,45.452055],"type":"Point"},"properties":{"osm_id":"7830335662","tag":{"natural":"tree"}},"type":"Feature"},
	{"geometry":{"coordinates":[8.650241,45.452374],"type":"Point"},"properties":{"osm_id":"7830335663","tag":{"natural":"tree"}},"type":"Feature"},
	{"geometry":{"coordinates":[8.650184,45.452347],"type":"Point"},"properties":{"osm_id":"7830335664","tag":{"natural":"tree"}},"type":"Feature"},
	{"geometry":{"coordinates":[8.650287,45.453108],"type":"Point"},"properties":{"osm_id":"7830335665","tag":{"natural":"tree"}},"type":"Feature"},
	{"geometry":{"coordinates":[8.652528,45.45256],"type":"Point"},"properties":{"osm_id":"7830366530","tag":{"natural":"tree"}},"type":"Feature"},
	{"geometry":{"coordinates":[8.652574,45.452451],"type":"Point"},"properties":{"osm_id":"7830366531","tag":{"natural":"tree"}},"type":"Feature"},
	{"geometry":{"coordinates":[8.652641,45.452569],"type":"Point"},"properties":{"osm_id":"7830366532","tag":{"natural":"tree"}},"type":"Feature"},
	{"geometry":{"coordinates":[8.649184,45.450797],"type":"Point"},"properties":{"osm_id":"7830366533","tag":{"natural":"tree"}},"type":"Feature"},
	{"geometry":{"coordinates":[8.649179,45.450883],"type":"Point"},"properties":{"osm_id":"7830366534","tag":{"natural":"tree"}},"type":"Feature"},
	{"geometry":{"coordinates":[8.649174,45.450958],"type":"Point"},"properties":{"osm_id":"7830366535","tag":{"natural":"tree"}},"type":"Feature"},
	{"geometry":{"coordinates":[8.64917,45.451034],"type":"Point"},"properties":{"osm_id":"7830366536","tag":{"natural":"tree"}},"type":"Feature"},
	{"geometry":{"coordinates":[8.649166,45.451107],"type":"Point"},"properties":{"osm_id":"7830366537","tag":{"natural":"tree"}},"type":"Feature"},
	{"geometry":{"coordinates":[8.64914,45.451196],"type":"Point"},"properties":{"osm_id":"7830366538","tag":{"natural":"tree"}},"type":"Feature"},
	{"geometry":{"coordinates":[8.649076,45.451326],"type":"Point"},"properties":{"osm_id":"7830366539","tag":{"natural":"tree"}},"type":"Feature"},
	{"geometry":{"coordinates":[8.649028,45.451404],"type":"Point"},"properties":{"osm_id":"7830366540","tag":{"natural":"tree"}},"type":"Feature"},
	{"geometry":{"coordinates":[8.64899,45.451467],"type":"Point"},"properties":{"osm_id":"7830366541","tag":{"natural":"tree"}},"type":"Feature"},
	{"geometry":{"coordinates":[8.648942,45.451545],"type":"Point"},"properties":{"osm_id":"7830366542","tag":{"natural":"tree"}},"type":"Feature"},
	{"geometry":{"coordinates":[8.648901,45.451612],"type":"Point"},"properties":{"osm_id":"7830366543","tag":{"natural":"tree"}},"type":"Feature"},
	{"geometry":{"coordinates":[8.64999,45.45137],"type":"Point"},"properties":{"osm_id":"7956273699","tag":{"natural":"tree"}},"type":"Feature"},
	{"geometry":{"coordinates":[8.650198,45.451352],"type":"Point"},"properties":{"osm_id":"7956273700","tag":{"natural":"tree"}},"type":"Feature"},
	{"geometry":{"coordinates":[8.650378,45.451471],"type":"Point"},"properties":{"osm_id":"7956273701","tag":{"natural":"tree"}},"type":"Feature"},
	{"geometry":{"coordinates":[8.650621,45.451464],"type":"Point"},"properties":{"osm_id":"7956273702","tag":{"natural":"tree"}},"type":"Feature"},
	{"geometry":{"coordinates":[8.65071,45.45149],"type":"Point"},"properties":{"osm_id":"7956273703","tag":{"natural":"tree"}},"type":"Feature"},
	{"geometry":{"coordinates":[8.650877,45.45151],"type":"Point"},"properties":{"osm_id":"7956273704","tag":{"natural":"tree"}},"type":"Feature"},
	{"geometry":{"coordinates":[8.650619,45.451528],"type":"Point"},"properties":{"osm_id":"7956273705","tag":{"natural":"tree"}},"type":"Feature"},
	{"geometry":{"coordinates":[8.650275,45.451411],"type":"Point"},"properties":{"osm_id":"7956273706","tag":{"natural":"tree"}},"type":"Feature"}
]
}
