{
"type": "FeatureCollection",
"features": [
	{"geometry":{"coordinates":[1.195322,52.026978],"type":"Point"},"properties":{"osm_id":"529449178","tag":{"natural":"tree"}},"type":"Feature"},
	{"geometry":{"coordinates":[1.197743,52.02704],"type":"Point"},"properties":{"osm_id":"532311387","tag":{"natural":"tree"}},"type":"Feature"},
	{"geometry":{"coordinates":[1.194908,52.026806],"type":"Point"},"properties":{"osm_id":"534068671","tag":{"natural":"tree"}},"type":"Feature"},
	{"geometry":{"coordinates":[1.194925,52.026864],"type":"Point"},"properties":{"osm_id":"534068672","tag":{"natural":"tree"}},"type":"Feature"},
	{"geometry":{"coordinates":[1.194882,52.026869],"type":"Point"},"properties":{"osm_id":"534068678","tag":{"natural":"tree"}},"type":"Feature"},
	{"geometry":{"coordinates":[1.194865,52.026806],"type":"Point"},"properties":{"osm_id":"534068687","tag":{"natural":"tree"}},"type":"Feature"},
	{"geometry":{"coordinates":[1.194831,52.026817],"type":"Point"},"properties":{"osm_id":"534068698","tag":{"natural":"tree"}},"type":"Feature"},
	{"geometry":{"coordinates":[1.194848,52.026875],"type":"Point"},"properties":{"osm_id":"534068752","tag":{"natural":"tree"}},"type":"Feature"},
	{"geometry":{"coordinates":[1.194813,52.02688],"type":"Point"},"properties":{"osm_id":"534068816","tag":{"natural":"tree"}},"type":"Feature"},
	{"geometry":{"coordinates":[1.194796,52.026822],"type":"Point"},"properties":{"osm_id":"534068886","tag":{"natural":"tree"}},"type":"Feature"},
	{"geometry":{"coordinates":[1.194693,52.026817],"type":"Point"},"properties":{"osm_id":"534068944","tag":{"natural":"tree"}},"type":"Feature"},
	{"geometry":{"coordinates":[1.194642,52.026827],"type":"Point"},"properties":{"osm_id":"534069004","tag":{"natural":"tree"}},"type":"Feature"},
	{"geometry":{"coordinates":[1.19464,52.026925],"type":"Point"},"properties":{"osm_id":"534069114","tag":{"natural":"tree"}},"type":"Feature"},
	{"geometry":{"coordinates":[1.194075,52.027033],"type":"Point"},"properties":{"osm_id":"534069186","tag":{"natural":"tree"}},"type":"Feature"},
	{"geometry":{"coordinates":[1.194127,52.02697],"type":"Point"},"properties":{"osm_id":"534069188","tag":{"natural":"tree"}},"type":"Feature"},
	{"geometry":{"coordinates":[1.194144,52.027028],"type":"Point"},"properties":{"osm_id":"534069191","tag":{"natural":"tree"}},"type":"Feature"},
	{"geometry":{"coordinates":[1.194316,52.027007],"type":"Point"},"properties":{"osm_id":"534069197","tag":{"natural":"tree"}},"type":"Feature"},
	{"geometry":{"coordinates":[1.19579,52.02958],"type":"Point"},"properties":{"osm_id":"534074358","tag":{"natural":"tree"}},"type":"Feature"},
	{"geometry":{"coordinates":[1.198975,52.030678],"type":"Point"},"properties":{"osm_id":"1219230604","tag":{"natural":"tree"}},"type":"Feature"},
	{"geometry":{"coordinates":[1.199307,52.030895],"type":"Point"},"properties":{"osm_id":"1219231047","tag":{"natural":"tree"}},"type":"Feature"},
	{"geometry":{"coordinates":[1.194632,52.026897],"type":"Point"},"properties":{"osm_id":"1219231130","tag":{"natural":"tree"}},"type":"Feature"},
	{"geometry":{"coordinates":[1.199222,52.030841],"type":"Point"},"properties":{"osm_id":"1219231606","tag":{"natural":"tree"}},"type":"Feature"},
	{"geometry":{"coordinates":[1.198899,52.030719],"type":"Point"},"properties":{"osm_id":"1219231628","tag":{"natural":"tree"}},"type":"Feature"},
	{"geometry":{"coordinates":[1.19923,52.030938],"type":"Point"},"properties":{"osm_id":"1219231646","tag":{"natural":"tree"}},"type":"Feature"},
	{"geometry":{"coordinates":[1.199138,52.030784],"type":"Point"},"properties":{"osm_id":"1219231672","tag":{"natural":"tree"}},"type":"Feature"},
	{"geometry":{"coordinates":[1.194659,52.026896],"type":"Point"},"properties":{"osm_id":"1219231695","tag":{"natural":"tree"}},"type":"Feature"},
	{"geometry":{"coordinates":[1.179063,52.03012],"type":"Point"},"properties":{"osm_id":"7102635812","tag":{"leaf_cycle":"deciduous","leaf_type":"broadleaved","natural":"tree"}},"type":"Feature"},
	{"geometry":{"coordinates":[1.189536,52.038556],"type":"Point"},"properties":{"osm_id":"7105300596","tag":{"addr:street":"Rands Way","denotation":"urban","leaf_cycle":"deciduous","leaf_type":"broadleaved","natural":"tree"}},"type":"Feature"},
	{"geometry":{"coordinates":[1.189447,52.038573],"type":"Point"},"properties":{"osm_id":"7105300597","tag":{"addr:street":"Rands Way","denotation":"urban","leaf_cycle":"deciduous","leaf_type":"broadleaved","natural":"tree"}},"type":"Feature"},
	{"geometry":{"coordinates":[1.190272,52.036306],"type":"Point"},"properties":{"osm_id":"7115552085","tag":{"leaf_cycle":"deciduous","leaf_type":"broadleaved","natural":"tree","species":"Oak"}},"type":"Feature"},
	{"geometry":{"coordinates":[1.17858,52.0299],"type":"Point"},"properties":{"osm_id":"7117622300","tag":{"genus":"Quercus","leaf_cycle":"deciduous","leaf_type":"broadleaved","natural":"tree"}},"type":"Feature"},
	{"geometry":{"coordinates":[1.182143,52.034882],"type":"Point"},"properties":{"osm_id":"7120027055","tag":{"leaf_cycle":"deciduous","leaf_type":"broadleaved","natural":"tree"}},"type":"Feature"},
	{"geometry":{"coordinates":[1.190643,52.041289],"type":"Point"},"properties":{"osm_id":"7120412878","tag":{"denotation":"urban","leaf_cycle":"deciduous","leaf_type":"broadleaved","natural":"tree"}},"type":"Feature"},
	{"geometry":{"coordinates":[1.190131,52.042853],"type":"Point"},"properties":{"osm_id":"7120412879","tag":{"denotation":"urban","leaf_cycle":"deciduous","leaf_type":"broadleaved","natural":"tree"}},"type":"Feature"},
	{"geometry":{"coordinates":[1.190281,52.042351],"type":"Point"},"properties":{"osm_id":"7120412881","tag":{"denotation":"urban","leaf_cycle":"deciduous","leaf_type":"broadleaved","natural":"tree"}},"type":"Feature"},
	{"geometry":{"coordinates":[1.190317,52.041913],"type":"Point"},"properties":{"osm_id":"7120412882","tag":{"denotation":"urban","leaf_cycle":"deciduous","leaf_type":"broadleaved","natural":"tree"}},"type":"Feature"},
	{"geometry":{"coordinates":[1.19016,52.042765],"type":"Point"},"properties":{"osm_id":"7120412883","tag":{"denotation":"urban","leaf_cycle":"deciduous","leaf_type":"broadleaved","natural":"tree"}},"type":"Feature"},
	{"geometry":{"coordinates":[1.189822,52.044042],"type":"Point"},"properties":{"osm_id":"7124800974","tag":{"denotation":"urban","leaf_cycle":"deciduous","leaf_type":"broadleaved","natural":"tree"}},"type":"Feature"},
	{"geometry":{"coordinates":[1.185619,52.040778],"type":"Point"},"properties":{"osm_id":"7124800975","tag":{"denotation":"urban","leaf_cycle":"deciduous","leaf_type":"broadleaved","natural":"tree"}},"type":"Feature"},
	{"geometry":{"coordinates":[1.189899,52.043654],"type":"Point"},"properties":{"osm_id":"7124800976","tag":{"denotation":"urban","leaf_cycle":"deciduous","leaf_type":"broadleaved","natural":"tree"}},"type":"Feature"},
	{"geometry":{"coordinates":[1.189487,52.044424],"type":"Point"},"properties":{"osm_id":"7124800977","tag":{"denotation":"urban","leaf_cycle":"deciduous","leaf_type":"broadleaved","natural":"tree"}},"type":"Feature"},
	{"geometry":{"coordinates":[1.18894,52.043957],"type":"Point"},"properties":{"osm_id":"7124800978","tag":{"denotation":"urban","leaf_cycle":"deciduous","leaf_type":"broadleaved","natural":"tree"}},"type":"Feature"},
	{"geometry":{"coordinates":[1.189727,52.044371],"type":"Point"},"properties":{"osm_id":"7124800979","tag":{"denotation":"urban","leaf_cycle":"deciduous","leaf_type":"broadleaved","natural":"tree"}},"type":"Feature"},
	{"geometry":{"coordinates":[1.189687,52.044432],"type":"Point"},"properties":{"osm_id":"7124800980","tag":{"denotation":"urban","leaf_cycle":"deciduous","leaf_type":"broadleaved","natural":"tree"}},"type":"Feature"},
	{"geometry":{"coordinates":[1.190627,52.042061],"type":"Point"},"properties":{"osm_id":"7124800981","tag":{"denotation":"urban","leaf_cycle":"deciduous","leaf_type":"broadleaved","natural":"tree"}},"type":"Feature"},
	{"geometry":{"coordinates":[1.190728,52.042045],"type":"Point"},"properties":{"osm_id":"7124800982","tag":{"denotation":"urban","leaf_cycle":"deciduous","leaf_type":"broadleaved","natural":"tree"}},"type":"Feature"},
	{"geometry":{"coordinates":[1.189971,52.043842],"type":"Point"},"properties":{"osm_id":"7124800983","tag":{"denotation":"urban","leaf_cycle":"deciduous","leaf_type":"broadleaved","natural":"tree"}},"type":"Feature"},
	{"geometry":{"coordinates":[1.190047,52.043593],"type":"Point"},"properties":{"osm_id":"7124800984","tag":{"denotation":"urban","leaf_cycle":"deciduous","leaf_type":"broadleaved","natural":"tree"}},"type":"Feature"},
	{"geometry":{"coordinates":[1.189776,52.044178],"type":"Point"},"properties":{"osm_id":"7124890485","tag":{"denotation":"urban","leaf_cycle":"deciduous","leaf_type":"broadleaved","natural":"tree"}},"type":"Feature"},
	{"geometry":{"coordinates":[1.189737,52.044326],"type":"Point"},"properties":{"osm_id":"7124890486","tag":{"denotation":"urban","leaf_cycle":"deciduous","leaf_type":"broadleaved","natural":"tree"}},"type":"Feature"},
	{"geometry":{"coordinates":[1.189858,52.043881],"type":"Point"},"properties":{"osm_id":"7124890487","tag":{"denotation":"urban","leaf_cycle":"deciduous","leaf_type":"broadleaved","natural":"tree"}},"type":"Feature"},
	{"geometry":{"coordinates":[1.189247,52.044208],"type":"Point"},"properties":{"osm_id":"7124890488","tag":{"denotation":"urban","leaf_cycle":"deciduous","leaf_type":"broadleaved","natural":"tree"}},"type":"Feature"},
	{"geometry":{"coordinates":[1.188099,52.043194],"type":"Point"},"properties":{"osm_id":"7149815984","tag":{"leaf_cycle":"deciduous","leaf_type":"broadleaved","natural":"tree"}},"type":"Feature"},
	{"geometry":{"coordinates":[1.192971,52.042059],"type":"Point"},"properties":{"osm_id":"7569076213","tag":{"leaf_cycle":"deciduous","leaf_type":"broadleaved","natural":"tree"}},"type":"Feature"},
	{"geometry":{"coordinates":[1.19471,52.042955],"type":"Point"},"properties":{"osm_id":"7569076214","tag":{"leaf_cycle":"deciduous","leaf_type":"broadleaved","natural":"tree"}},"type":"Feature"},
	{"geometry":{"coordinates":[1.193862,52.042514],"type":"Point"},"properties":{"osm_id":"7569076215","tag":{"leaf_cycle":"deciduous","leaf_type":"broadleaved","natural":"tree"}},"type":"Feature"},
	{"geometry":{"coordinates":[1.194721,52.043112],"type":"Point"},"properties":{"osm_id":"7569076216","tag":{"leaf_cycle":"deciduous","leaf_type":"broadleaved","natural":"tree"}},"type":"Feature"},
	{"geometry":{"coordinates":[1.192752,52.041951],"type":"Point"},"properties":{"osm_id":"7569076217","tag":{"leaf_cycle":"deciduous","leaf_type":"broadleaved","natural":"tree"}},"type":"Feature"},
	{"geometry":{"coordinates":[1.1914,52.041271],"type":"Point"},"properties":{"osm_id":"7569076218","tag":{"leaf_cycle":"deciduous","leaf_type":"broadleaved","natural":"tree"}},"type":"Feature"},
	{"geometry":{"coordinates":[1.191987,52.041456],"type":"Point"},"properties":{"osm_id":"7569076219","tag":{"leaf_cycle":"deciduous","leaf_type":"broadleaved","natural":"tree"}},"type":"Feature"},
	{"geometry":{"coordinates":[1.192697,52.043809],"type":"Point"},"properties":{"osm_id":"7569076220","tag":{"leaf_cycle":"deciduous","leaf_type":"broadleaved","natural":"tree"}},"type":"Feature"},
	{"geometry":{"coordinates":[1.191669,52.043819],"type":"Point"},"properties":{"osm_id":"7569076221","tag":{"genus":"Quercus","leaf_cycle":"deciduous","leaf_type":"broadleaved","natural":"tree"}},"type":"Feature"},
	{"geometry":{"coordinates":[1.192735,52.043738],"type":"Point"},"properties":{"osm_id":"7569076222","tag":{"leaf_cycle":"deciduous","leaf_type":"broadleaved","natural":"tree"}},"type":"Feature"},
	{"geometry":{"coordinates":[1.18948,52.041724],"type":"Point"},"properties":{"osm_id":"7592923567","tag":{"leaf_cycle":"deciduous","leaf_type":"broadleaved","natural":"tree"}},"type":"Feature"},
	{"geometry":{"coordinates":[1.189055,52.041272],"type":"Point"},"properties":{"osm_id":"7592923568","tag":{"leaf_cycle":"deciduous","leaf_type":"broadleaved","natural":"tree"}},"type":"Feature"},
	{"geometry":{"coordinates":[1.189462,52.041586],"type":"Point"},"properties":{"osm_id":"7592923569","tag":{"leaf_cycle":"deciduous","leaf_type":"broadleaved","natural":"tree"}},"type":"Feature"},
	{"geometry":{"coordinates":[1.190191,52.041987],"type":"Point"},"properties":{"osm_id":"7592923570","tag":{"leaf_cycle":"deciduous","leaf_type":"broadleaved","natural":"tree"}},"type":"Feature"},
	{"geometry":{"coordinates":[1.188959,52.040962],"type":"Point"},"properties":{"osm_id":"7592923571","tag":{"leaf_cycle":"deciduous","leaf_type":"broadleaved","natural":"tree"}},"type":"Feature"},
	{"geometry":{"coordinates":[1.189951,52.039184],"type":"Point"},"properties":{"osm_id":"7603348606","tag":{"addr:street":"Rands Way","leaf_cycle":"deciduous","leaf_type":"broadleaved","natural":"tree"}},"type":"Feature"},
	{"geometry":{"coordinates":[1.190392,52.039885],"type":"Point"},"properties":{"osm_id":"7603348607","tag":{"addr:street":"Rands Way","leaf_cycle":"deciduous","leaf_type":"broadleaved","natural":"tree"}},"type":"Feature"},
	{"geometry":{"coordinates":[1.189627,52.038667],"type":"Point"},"properties":{"osm_id":"7603348608","tag":{"addr:street":"Rands Way","leaf_cycle":"deciduous","leaf_type":"broadleaved","natural":"tree"}},"type":"Feature"},
	{"geometry":{"coordinates":[1.189686,52.038764],"type":"Point"},"properties":{"osm_id":"7603348609","tag":{"addr:street":"Rands Way","leaf_cycle":"deciduous","leaf_type":"broadleaved","natural":"tree"}},"type":"Feature"},
	{"geometry":{"coordinates":[1.189482,52.038418],"type":"Point"},"properties":{"osm_id":"7603348610","tag":{"leaf_cycle":"deciduous","leaf_type":"broadleaved","natural":"tree"}},"type":"Feature"},
	{"geometry":{"coordinates":[1.19025,52.039753],"type":"Point"},"properties":{"osm_id":"7603348611","tag":{"addr:street":"Rands Way","leaf_cycle":"deciduous","leaf_type":"broadleaved","natural":"tree"}},"type":"Feature"},
	{"geometry":{"coordinates":[1.18922,52.03731],"type":"Point"},"properties":{"osm_id":"7603348612","tag":{"leaf_cycle":"deciduous","leaf_type":"broadleaved","natural":"tree"}},"type":"Feature"},
	{"geometry":{"coordinates":[1.189891,52.03909],"type":"Point"},"properties":{"osm_id":"7603348613","tag":{"addr:street":"Rands Way","leaf_cycle":"deciduous","leaf_type":"broadleaved","natural":"tree"}},"type":"Feature"},
	{"geometry":{"coordinates":[1.190543,52.040328],"type":"Point"},"properties":{"osm_id":"7603348614","tag":{"addr:street":"Rands Way","leaf_cycle":"deciduous","leaf_type":"broadleaved","natural":"tree"}},"type":"Feature"},
	{"geometry":{"coordinates":[1.190007,52.03669],"type":"Point"},"properties":{"osm_id":"7603348615","tag":{"addr:street":"Nacton Road","leaf_cycle":"deciduous","leaf_type":"broadleaved","natural":"tree"}},"type":"Feature"},
	{"geometry":{"coordinates":[1.189831,52.036826],"type":"Point"},"properties":{"osm_id":"7603348616","tag":{"addr:street":"Nacton Road","leaf_cycle":"deciduous","leaf_type":"broadleaved","natural":"tree"}},"type":"Feature"},
	{"geometry":{"coordinates":[1.19048,52.040136],"type":"Point"},"properties":{"osm_id":"7603348617","tag":{"addr:street":"Rands Way","leaf_cycle":"deciduous","leaf_type":"broadleaved","natural":"tree"}},"type":"Feature"},
	{"geometry":{"coordinates":[1.189388,52.038217],"type":"Point"},"properties":{"osm_id":"7603348618","tag":{"leaf_cycle":"deciduous","leaf_type":"broadleaved","natural":"tree"}},"type":"Feature"},
	{"geometry":{"coordinates":[1.190386,52.040021],"type":"Point"},"properties":{"osm_id":"7603348619","tag":{"addr:street":"Rands Way","leaf_cycle":"deciduous","leaf_type":"broadleaved","natural":"tree"}},"type":"Feature"},
	{"geometry":{"coordinates":[1.190074,52.039384],"type":"Point"},"properties":{"osm_id":"7603348620","tag":{"addr:street":"Rands Way","leaf_cycle":"deciduous","leaf_type":"broadleaved","natural":"tree"}},"type":"Feature"},
	{"geometry":{"coordinates":[1.189793,52.039222],"type":"Point"},"properties":{"osm_id":"7606360886","tag":{"addr:street":"Rands Way","leaf_cycle":"deciduous","leaf_type":"broadleaved","natural":"tree"}},"type":"Feature"},
	{"geometry":{"coordinates":[1.189271,52.038246],"type":"Point"},"properties":{"osm_id":"7606360887","tag":{"leaf_cycle":"deciduous","leaf_type":"broadleaved","natural":"tree"}},"type":"Feature"},
	{"geometry":{"coordinates":[1.189822,52.040817],"type":"Point"},"properties":{"osm_id":"7616591587","tag":{"leaf_cycle":"deciduous","leaf_type":"broadleaved","natural":"tree"}},"type":"Feature"},
	{"geometry":{"coordinates":[1.18994,52.040946],"type":"Point"},"properties":{"osm_id":"7616591588","tag":{"leaf_cycle":"deciduous","leaf_type":"broadleaved","natural":"tree"}},"type":"Feature"},
	{"geometry":{"coordinates":[1.178441,52.029707],"type":"Point"},"properties":{"osm_id":"7634937357","tag":{"genus":"Quercus","leaf_cycle":"deciduous","leaf_type":"broadleaved","natural":"tree"}},"type":"Feature"},
	{"geometry":{"coordinates":[1.208273,52.045386],"type":"Point"},"properties":{"osm_id":"7667054124","tag":{"natural":"tree"}},"type":"Feature"},
	{"geometry":{"coordinates":[1.208208,52.04531],"type":"Point"},"properties":{"osm_id":"7667054125","tag":{"natural":"tree"}},"type":"Feature"},
	{"geometry":{"coordinates":[1.20816,52.04525],"type":"Point"},"properties":{"osm_id":"7667054126","tag":{"natural":"tree"}},"type":"Feature"},
	{"geometry":{"coordinates":[1.20812,52.045199],"type":"Point"},"properties":{"osm_id":"7667054127","tag":{"natural":"tree"}},"type":"Feature"}
]
}
