{
"type": "FeatureCollection",
"features": [
	{"geometry":{"coordinates":[16.50312,59.369464],"type":"Point"},"properties":{"osm_id":"437296447","tag":{"amenity":"recycling","recycling_type":"container"}},"type":"Feature"},
	{"geometry":{"coordinates":[16.513087,59.359523],"type":"Point"},"properties":{"osm_id":"2291984527","tag":{"amenity":"waste_basket"}},"type":"Feature"},
	{"geometry":{"coordinates":[16.485353,59.390027],"type":"Point"},"properties":{"osm_id":"3696262151","tag":{"amenity":"recycling","recycling_type":"centre"}},"type":"Feature"},
	{"geometry":{"coordinates":[16.505079,59.369429],"type":"Point"},"properties":{"osm_id":"4336879117","tag":{"amenity":"waste_basket"}},"type":"Feature"},
	{"geometry":{"coordinates":[16.50757,59.368811],"type":"Point"},"properties":{"osm_id":"4337094179","tag":{"amenity":"waste_basket"}},"type":"Feature"},
	{"geometry":{"coordinates":[16.506022,59.366825],"type":"Point"},"properties":{"osm_id":"5663416855","tag":{"amenity":"waste_basket"}},"type":"Feature"},
	{"geometry":{"coordinates":[16.506467,59.36987],"type":"Point"},"properties":{"osm_id":"5663528835","tag":{"amenity":"waste_basket"}},"type":"Feature"},
	{"geometry":{"coordinates":[16.506138,59.369828],"type":"Point"},"properties":{"osm_id":"5663528837","tag":{"amenity":"waste_basket"}},"type":"Feature"},
	{"geometry":{"coordinates":[16.473798,59.39983],"type":"Point"},"properties":{"osm_id":"5699780343","tag":{"amenity":"recycling","recycling_type":"container"}},"type":"Feature"},
	{"geometry":{"coordinates":[16.516797,59.359548],"type":"Point"},"properties":{"osm_id":"5741145371","tag":{"amenity":"recycling","recycling_type":"container"}},"type":"Feature"},
	{"geometry":{"coordinates":[16.499067,59.357025],"type":"Point"},"properties":{"osm_id":"5773010262","tag":{"amenity":"recycling","recycling_type":"container"}},"type":"Feature"},
	{"geometry":{"coordinates":[16.476388,59.356707],"type":"Point"},"properties":{"osm_id":"5773521017","tag":{"amenity":"recycling","recycling_type":"container"}},"type":"Feature"},
	{"geometry":{"coordinates":[16.470362,59.375211],"type":"Point"},"properties":{"osm_id":"5796871223","tag":{"amenity":"recycling","recycling_type":"container"}},"type":"Feature"},
	{"geometry":{"coordinates":[16.468181,59.376004],"type":"Point"},"properties":{"osm_id":"8836326437","tag":{"amenity":"waste_basket","colour":"green"}},"type":"Feature"},
	{"geometry":{"coordinates":[16.483932,59.374745],"type":"Point"},"properties":{"osm_id":"8836342686","tag":{"amenity":"waste_basket"}},"type":"Feature"},
	{"geometry":{"coordinates":[16.512595,59.374596],"type":"Point"},"properties":{"osm_id":"8922509603","tag":{"amenity":"waste_basket","covered":"yes","indoor":"no"}},"type":"Feature"},
	{"geometry":{"coordinates":[16.510913,59.374726],"type":"Point"},"properties":{"osm_id":"8922509610","tag":{"amenity":"waste_basket","covered":"yes","indoor":"no"}},"type":"Feature"},
	{"geometry":{"coordinates":[16.510921,59.375031],"type":"Point"},"properties":{"osm_id":"8922509613","tag":{"amenity":"waste_basket","covered":"yes","indoor":"no"}},"type":"Feature"},
	{"geometry":{"coordinates":[16.512148,59.372122],"type":"Point"},"properties":{"osm_id":"8929161276","tag":{"amenity":"waste_basket"}},"type":"Feature"},
	{"geometry":{"coordinates":[16.511447,59.360899],"type":"Point"},"properties":{"osm_id":"8930412100","tag":{"amenity":"waste_basket"}},"type":"Feature"},
	{"geometry":{"coordinates":[16.509837,59.358581],"type":"Point"},"properties":{"osm_id":"8930412101","tag":{"amenity":"waste_basket","covered":"no","indoor":"no","waste":"trash"}},"type":"Feature"},
	{"geometry":{"coordinates":[16.494719,59.367334],"type":"Point"},"properties":{"osm_id":"8930412102","tag":{"amenity":"waste_basket"}},"type":"Feature"},
	{"geometry":{"coordinates":[16.505905,59.364648],"type":"Point"},"properties":{"osm_id":"8930412104","tag":{"amenity":"waste_basket"}},"type":"Feature"},
	{"geometry":{"coordinates":[16.507894,59.362624],"type":"Point"},"properties":{"osm_id":"8930412106","tag":{"amenity":"waste_basket"}},"type":"Feature"},
	{"geometry":{"coordinates":[16.510682,59.360395],"type":"Point"},"properties":{"osm_id":"8930412107","tag":{"amenity":"waste_basket"}},"type":"Feature"},
	{"geometry":{"coordinates":[16.507744,59.362206],"type":"Point"},"properties":{"osm_id":"8930412108","tag":{"amenity":"waste_basket"}},"type":"Feature"},
	{"geometry":{"coordinates":[16.512186,59.361727],"type":"Point"},"properties":{"osm_id":"8930412112","tag":{"amenity":"waste_basket"}},"type":"Feature"},
	{"geometry":{"coordinates":[16.510485,59.35964],"type":"Point"},"properties":{"osm_id":"8930412113","tag":{"amenity":"waste_basket"}},"type":"Feature"},
	{"geometry":{"coordinates":[16.510522,59.359209],"type":"Point"},"properties":{"osm_id":"8930412115","tag":{"amenity":"waste_basket"}},"type":"Feature"},
	{"geometry":{"coordinates":[16.475102,59.371214],"type":"Point"},"properties":{"osm_id":"8930412116","tag":{"amenity":"waste_basket"}},"type":"Feature"},
	{"geometry":{"coordinates":[16.486979,59.364066],"type":"Point"},"properties":{"osm_id":"8930435319","tag":{"amenity":"waste_basket"}},"type":"Feature"}
]
}
