{
"type": "FeatureCollection",
"lastupdate": "2020-08-05T00:00:00Z",
"features": [
	{"geometry":{"coordinates":[16.448024,49.905312],"type":"Point"},"properties":{"name":"Milan \u00c5\u00a0ev\u00c4\u008d\u00c3\u00adk, Kovov\u00c3\u00bd odpad","osm_id":"457064184","tag":{"amenity":"recycling","opening_hours":"Tu-Fr 08:00-16:00; Sa 08:00-12:00; PH closed","operator":"Milan \u0160ev\u010d\u00edk","recycling:aluminium":"yes","recycling:batteries":"yes","recycling:cans":"yes","recycling:scrap_metal":"yes","recycling:small_appliances":"yes","recycling_type":"centre","wheelchair":"limited"}},"type":"Feature"},
	{"geometry":{"coordinates":[16.441887,49.895944],"type":"Point"},"properties":{"name":"Ekoline group","osm_id":"457064187","tag":{"amenity":"recycling","recycling_type":"centre"}},"type":"Feature"},
	{"geometry":{"coordinates":[16.438385,49.923293],"type":"Point"},"properties":{"osm_id":"1799107499","tag":{"amenity":"recycling","recycling_type":"container"}},"type":"Feature"},
	{"geometry":{"coordinates":[16.437036,49.9062],"type":"Point"},"properties":{"osm_id":"6482059200","tag":{"amenity":"recycling","recycling_type":"container"}},"type":"Feature"},
	{"geometry":{"coordinates":[16.44452,49.901081],"type":"Point"},"properties":{"osm_id":"6494361913","tag":{"amenity":"recycling","recycling_type":"container"}},"type":"Feature"}
]
}
