{
"type": "FeatureCollection",
"features": [
	{"geometry":{"coordinates":[16.478817,48.211553],"type":"Point"},"properties":{"osm_id":"444247967","tag":{"amenity":"recycling"}},"type":"Feature"},
	{"geometry":{"coordinates":[16.476264,48.212526],"type":"Point"},"properties":{"osm_id":"444247975","tag":{"amenity":"recycling"}},"type":"Feature"},
	{"geometry":{"coordinates":[16.476554,48.210278],"type":"Point"},"properties":{"osm_id":"444249661","tag":{"amenity":"recycling","recycling_type":"container"}},"type":"Feature"},
	{"geometry":{"coordinates":[16.476207,48.204209],"type":"Point"},"properties":{"osm_id":"444251689","tag":{"amenity":"recycling","recycling_type":"container"}},"type":"Feature"},
	{"geometry":{"coordinates":[16.465608,48.210368],"type":"Point"},"properties":{"osm_id":"444252028","tag":{"amenity":"recycling","recycling:cans":"yes","recycling:glass":"yes","recycling:paper":"yes","recycling:plastic":"yes","recycling_type":"container"}},"type":"Feature"},
	{"geometry":{"coordinates":[16.475032,48.218258],"type":"Point"},"properties":{"osm_id":"461688058","tag":{"amenity":"recycling","recycling:cans":"yes","recycling:glass":"yes","recycling:plastic_bottles":"yes","recycling_type":"container"}},"type":"Feature"},
	{"geometry":{"coordinates":[16.477617,48.218364],"type":"Point"},"properties":{"osm_id":"461688060","tag":{"amenity":"recycling","recycling:cans":"yes","recycling:clothes":"yes","recycling:glass":"yes","recycling:plastic_bottles":"yes"}},"type":"Feature"},
	{"geometry":{"coordinates":[16.476693,48.215718],"type":"Point"},"properties":{"osm_id":"599316666","tag":{"amenity":"waste_basket"}},"type":"Feature"},
	{"geometry":{"coordinates":[16.476987,48.217664],"type":"Point"},"properties":{"osm_id":"600938682","tag":{"amenity":"waste_basket"}},"type":"Feature"},
	{"geometry":{"coordinates":[16.477169,48.217648],"type":"Point"},"properties":{"osm_id":"600938691","tag":{"amenity":"waste_basket"}},"type":"Feature"},
	{"geometry":{"coordinates":[16.477621,48.217858],"type":"Point"},"properties":{"osm_id":"600938698","tag":{"amenity":"waste_basket"}},"type":"Feature"},
	{"geometry":{"coordinates":[16.476754,48.217902],"type":"Point"},"properties":{"osm_id":"600938702","tag":{"amenity":"waste_basket"}},"type":"Feature"},
	{"geometry":{"coordinates":[16.477003,48.216443],"type":"Point"},"properties":{"osm_id":"600938710","tag":{"amenity":"waste_basket"}},"type":"Feature"},
	{"geometry":{"coordinates":[16.477551,48.216465],"type":"Point"},"properties":{"osm_id":"600938715","tag":{"amenity":"waste_basket"}},"type":"Feature"},
	{"geometry":{"coordinates":[16.475909,48.215349],"type":"Point"},"properties":{"osm_id":"600938783","tag":{"amenity":"waste_basket"}},"type":"Feature"},
	{"geometry":{"coordinates":[16.47585,48.215205],"type":"Point"},"properties":{"osm_id":"600938789","tag":{"amenity":"waste_basket"}},"type":"Feature"},
	{"geometry":{"coordinates":[16.474986,48.215092],"type":"Point"},"properties":{"osm_id":"600938938","tag":{"amenity":"waste_basket"}},"type":"Feature"},
	{"geometry":{"coordinates":[16.475514,48.21352],"type":"Point"},"properties":{"osm_id":"600938970","tag":{"amenity":"waste_basket"}},"type":"Feature"},
	{"geometry":{"coordinates":[16.476133,48.21458],"type":"Point"},"properties":{"osm_id":"600939130","tag":{"amenity":"waste_basket"}},"type":"Feature"},
	{"geometry":{"coordinates":[16.473066,48.213735],"type":"Point"},"properties":{"osm_id":"600939138","tag":{"amenity":"waste_basket"}},"type":"Feature"},
	{"geometry":{"coordinates":[16.473068,48.213734],"type":"Point"},"properties":{"osm_id":"600939153","tag":{"amenity":"recycling"}},"type":"Feature"},
	{"geometry":{"coordinates":[16.473546,48.214449],"type":"Point"},"properties":{"osm_id":"600939160","tag":{"amenity":"waste_basket"}},"type":"Feature"},
	{"geometry":{"coordinates":[16.476029,48.214386],"type":"Point"},"properties":{"osm_id":"602153169","tag":{"amenity":"waste_basket"}},"type":"Feature"},
	{"geometry":{"coordinates":[16.476283,48.214337],"type":"Point"},"properties":{"osm_id":"602153172","tag":{"amenity":"waste_basket"}},"type":"Feature"},
	{"geometry":{"coordinates":[16.476003,48.214078],"type":"Point"},"properties":{"osm_id":"602153174","tag":{"amenity":"waste_basket"}},"type":"Feature"},
	{"geometry":{"coordinates":[16.47556,48.214309],"type":"Point"},"properties":{"osm_id":"602153177","tag":{"amenity":"waste_basket"}},"type":"Feature"},
	{"geometry":{"coordinates":[16.475523,48.214095],"type":"Point"},"properties":{"osm_id":"602153181","tag":{"amenity":"waste_basket"}},"type":"Feature"},
	{"geometry":{"coordinates":[16.475536,48.21448],"type":"Point"},"properties":{"osm_id":"602153186","tag":{"amenity":"waste_basket"}},"type":"Feature"},
	{"geometry":{"coordinates":[16.475811,48.214393],"type":"Point"},"properties":{"osm_id":"602153188","tag":{"amenity":"waste_basket"}},"type":"Feature"},
	{"geometry":{"coordinates":[16.473173,48.21812],"type":"Point"},"properties":{"osm_id":"604867769","tag":{"amenity":"recycling"}},"type":"Feature"},
	{"geometry":{"coordinates":[16.472821,48.201706],"type":"Point"},"properties":{"osm_id":"611636458","tag":{"amenity":"recycling","recycling_type":"container"}},"type":"Feature"},
	{"geometry":{"coordinates":[16.469044,48.199219],"type":"Point"},"properties":{"osm_id":"611636459","tag":{"amenity":"recycling","recycling_type":"container"}},"type":"Feature"},
	{"geometry":{"coordinates":[16.476806,48.215597],"type":"Point"},"properties":{"osm_id":"618575391","tag":{"amenity":"waste_basket"}},"type":"Feature"},
	{"geometry":{"coordinates":[16.475276,48.214118],"type":"Point"},"properties":{"osm_id":"620789658","tag":{"amenity":"waste_basket"}},"type":"Feature"},
	{"geometry":{"coordinates":[16.448014,48.213346],"type":"Point"},"properties":{"barrier":"gate","osm_id":"685180187","tag":{"entrance":"main"}},"type":"Feature"},
	{"geometry":{"coordinates":[16.477402,48.214095],"type":"Point"},"properties":{"osm_id":"1310751168","tag":{"amenity":"waste_basket"}},"type":"Feature"},
	{"geometry":{"coordinates":[16.47669,48.214151],"type":"Point"},"properties":{"osm_id":"1310751201","tag":{"amenity":"waste_basket"}},"type":"Feature"},
	{"geometry":{"coordinates":[16.477315,48.21421],"type":"Point"},"properties":{"osm_id":"1310751248","tag":{"amenity":"waste_basket"}},"type":"Feature"},
	{"geometry":{"coordinates":[16.476675,48.214289],"type":"Point"},"properties":{"osm_id":"1310751305","tag":{"amenity":"waste_basket"}},"type":"Feature"},
	{"geometry":{"coordinates":[16.522915,48.203165],"type":"Point"},"properties":{"osm_id":"1465342713","tag":{"amenity":"recycling","recycling:glass":"yes","recycling:paper":"yes","recycling:plastic":"yes","recycling:scrap_metal":"yes","recycling_type":"container"}},"type":"Feature"},
	{"geometry":{"coordinates":[16.518356,48.206042],"type":"Point"},"properties":{"osm_id":"1465343469","tag":{"amenity":"recycling","recycling:glass":"yes","recycling:paper":"yes","recycling:plastic":"yes","recycling:scrap_metal":"yes","recycling_type":"container"}},"type":"Feature"},
	{"geometry":{"coordinates":[16.519271,48.212604],"type":"Point"},"properties":{"osm_id":"1465347495","tag":{"amenity":"recycling","recycling:clothes":"yes","recycling:glass":"yes","recycling:paper":"yes","recycling:plastic":"yes","recycling:scrap_metal":"yes","recycling_type":"container"}},"type":"Feature"},
	{"geometry":{"coordinates":[16.519258,48.214783],"type":"Point"},"properties":{"osm_id":"1465351927","tag":{"amenity":"recycling","recycling:glass":"yes","recycling:paper":"yes","recycling:plastic":"yes","recycling:scrap_metal":"yes","recycling_type":"container"}},"type":"Feature"},
	{"geometry":{"coordinates":[16.522732,48.214749],"type":"Point"},"properties":{"osm_id":"1465351930","tag":{"amenity":"recycling","recycling:glass":"yes","recycling:paper":"yes","recycling:plastic":"yes","recycling:scrap_metal":"yes","recycling_type":"container"}},"type":"Feature"},
	{"geometry":{"coordinates":[16.511006,48.201856],"type":"Point"},"properties":{"osm_id":"1465400242","tag":{"amenity":"recycling","recycling:glass":"yes","recycling:paper":"yes","recycling:plastic":"yes","recycling:scrap_metal":"yes","recycling_type":"container"}},"type":"Feature"},
	{"geometry":{"coordinates":[16.510008,48.203667],"type":"Point"},"properties":{"osm_id":"1465402495","tag":{"amenity":"recycling","recycling:glass":"yes","recycling:paper":"no","recycling:plastic":"yes","recycling:scrap_metal":"yes","recycling_type":"container"}},"type":"Feature"},
	{"geometry":{"coordinates":[16.510715,48.206379],"type":"Point"},"properties":{"osm_id":"1465404164","tag":{"amenity":"recycling","recycling:glass":"no","recycling:paper":"yes","recycling:plastic":"yes","recycling:scrap_metal":"yes","recycling_type":"container"}},"type":"Feature"},
	{"geometry":{"coordinates":[16.511395,48.214586],"type":"Point"},"properties":{"osm_id":"1465425434","tag":{"amenity":"recycling","recycling:glass":"yes","recycling:paper":"yes","recycling:plastic":"yes","recycling:scrap_metal":"yes","recycling_type":"container"}},"type":"Feature"},
	{"geometry":{"coordinates":[16.495532,48.200036],"type":"Point"},"properties":{"osm_id":"1661270409","tag":{"amenity":"waste_basket"}},"type":"Feature"},
	{"geometry":{"coordinates":[16.476059,48.21316],"type":"Point"},"properties":{"osm_id":"1821281109","tag":{"amenity":"waste_basket"}},"type":"Feature"},
	{"geometry":{"coordinates":[16.522588,48.206122],"type":"Point"},"properties":{"osm_id":"2069775411","tag":{"access":"private","amenity":"waste_disposal"}},"type":"Feature"},
	{"geometry":{"coordinates":[16.522785,48.208287],"type":"Point"},"properties":{"osm_id":"2069775430","tag":{"access":"private","amenity":"waste_disposal"}},"type":"Feature"},
	{"geometry":{"coordinates":[16.442597,48.206585],"type":"Point"},"properties":{"osm_id":"2283152110","tag":{"amenity":"waste_basket"}},"type":"Feature"},
	{"geometry":{"coordinates":[16.440935,48.207705],"type":"Point"},"properties":{"osm_id":"2283152111","tag":{"amenity":"waste_basket"}},"type":"Feature"},
	{"geometry":{"coordinates":[16.441913,48.207038],"type":"Point"},"properties":{"osm_id":"2283152112","tag":{"amenity":"waste_basket"}},"type":"Feature"},
	{"geometry":{"coordinates":[16.442295,48.205944],"type":"Point"},"properties":{"osm_id":"2283152113","tag":{"amenity":"waste_basket"}},"type":"Feature"},
	{"geometry":{"coordinates":[16.443372,48.20536],"type":"Point"},"properties":{"osm_id":"2283152114","tag":{"amenity":"waste_basket"}},"type":"Feature"},
	{"geometry":{"coordinates":[16.444087,48.204754],"type":"Point"},"properties":{"osm_id":"2283152115","tag":{"amenity":"waste_basket"}},"type":"Feature"},
	{"geometry":{"coordinates":[16.446012,48.204018],"type":"Point"},"properties":{"osm_id":"2283152116","tag":{"amenity":"waste_basket"}},"type":"Feature"},
	{"geometry":{"coordinates":[16.443891,48.203733],"type":"Point"},"properties":{"osm_id":"2283152117","tag":{"amenity":"waste_basket"}},"type":"Feature"},
	{"geometry":{"coordinates":[16.439095,48.207173],"type":"Point"},"properties":{"osm_id":"2283152118","tag":{"amenity":"waste_basket"}},"type":"Feature"},
	{"geometry":{"coordinates":[16.438288,48.213081],"type":"Point"},"properties":{"osm_id":"2284771402","tag":{"amenity":"recycling","location":"overground","operator":"MA 48","recycling:cans":"yes","recycling:clothes":"yes","recycling:glass_bottles":"yes","recycling:plastic":"yes","recycling:plastic_bottles":"yes","recycling:scrap_metal":"yes","recycling_type":"container"}},"type":"Feature"},
	{"geometry":{"coordinates":[16.439139,48.211778],"type":"Point"},"properties":{"osm_id":"2284772472","tag":{"amenity":"recycling","location":"overground","recycling:paper":"yes","recycling:plastic_bottles":"yes","recycling_type":"container"}},"type":"Feature"},
	{"geometry":{"coordinates":[16.49243,48.217174],"type":"Point"},"properties":{"osm_id":"2293870371","tag":{"amenity":"recycling","recycling:cans":"yes","recycling:glass_bottles":"yes","recycling:plastic_bottles":"yes","recycling:scrap_metal":"yes","recycling_type":"container"}},"type":"Feature"},
	{"geometry":{"coordinates":[16.473947,48.222656],"type":"Point"},"properties":{"osm_id":"2293870372","tag":{"amenity":"recycling","recycling:cans":"yes","recycling:clothes":"yes","recycling:glass_bottles":"yes","recycling:newspaper":"yes","recycling:paper":"yes","recycling:paper_packaging":"yes","recycling:plastic_bottles":"yes","recycling:scrap_metal":"yes","recycling_type":"container"}},"type":"Feature"},
	{"geometry":{"coordinates":[16.495714,48.212285],"type":"Point"},"properties":{"osm_id":"2411562517","tag":{"amenity":"recycling","recycling:glass":"yes","recycling:paper":"yes","recycling:plastic":"yes","recycling:scrap_metal":"yes","recycling_type":"container"}},"type":"Feature"},
	{"geometry":{"coordinates":[16.486172,48.203192],"type":"Point"},"properties":{"osm_id":"2425837949","tag":{"amenity":"recycling","recycling:glass":"yes","recycling:paper":"yes","recycling:plastic":"yes","recycling:scrap_metal":"yes","recycling_type":"container"}},"type":"Feature"},
	{"geometry":{"coordinates":[16.458642,48.221873],"type":"Point"},"properties":{"osm_id":"2473155394","tag":{"amenity":"recycling","recycling:cans":"yes","recycling:clothes":"yes","recycling:glass_bottles":"yes","recycling:newspaper":"yes","recycling:paper":"yes","recycling:paper_packaging":"yes","recycling:plastic_bottles":"yes","recycling:scrap_metal":"yes","recycling_type":"container"}},"type":"Feature"},
	{"geometry":{"coordinates":[16.518471,48.206244],"type":"Point"},"properties":{"osm_id":"2546904901","tag":{"amenity":"recycling"}},"type":"Feature"},
	{"geometry":{"coordinates":[16.46464,48.219865],"type":"Point"},"properties":{"osm_id":"2571249353","tag":{"amenity":"recycling","recycling:cans":"yes","recycling:clothes":"yes","recycling:glass_bottles":"yes","recycling:newspaper":"yes","recycling:paper":"yes","recycling:paper_packaging":"yes","recycling:plastic_bottles":"yes","recycling:scrap_metal":"yes","recycling_type":"container"}},"type":"Feature"},
	{"geometry":{"coordinates":[16.460328,48.223147],"type":"Point"},"properties":{"osm_id":"2575711860","tag":{"amenity":"recycling","recycling:cans":"yes","recycling:plastic_bottles":"yes","recycling:scrap_metal":"yes","recycling_type":"container"}},"type":"Feature"},
	{"geometry":{"coordinates":[16.461489,48.224625],"type":"Point"},"properties":{"osm_id":"2575711866","tag":{"amenity":"recycling","recycling:clothes":"yes","recycling_type":"container"}},"type":"Feature"},
	{"geometry":{"coordinates":[16.451696,48.221263],"type":"Point"},"properties":{"osm_id":"2575713359","tag":{"amenity":"recycling","recycling:newspaper":"yes","recycling:paper":"yes","recycling:paper_packaging":"yes","recycling_type":"container"}},"type":"Feature"},
	{"geometry":{"coordinates":[16.452753,48.221748],"type":"Point"},"properties":{"osm_id":"2575748168","tag":{"amenity":"recycling","recycling:cans":"yes","recycling:clothes":"yes","recycling:glass_bottles":"yes","recycling:newspaper":"yes","recycling:paper":"yes","recycling:paper_packaging":"yes","recycling:plastic_bottles":"yes","recycling:scrap_metal":"yes","recycling_type":"container"}},"type":"Feature"},
	{"geometry":{"coordinates":[16.451919,48.224623],"type":"Point"},"properties":{"osm_id":"2576121305","tag":{"amenity":"recycling","recycling:clothes":"yes","recycling_type":"container"}},"type":"Feature"},
	{"geometry":{"coordinates":[16.455068,48.224383],"type":"Point"},"properties":{"osm_id":"2580582568","tag":{"amenity":"recycling","recycling:clothes":"yes","recycling_type":"container"}},"type":"Feature"},
	{"geometry":{"coordinates":[16.452943,48.223949],"type":"Point"},"properties":{"osm_id":"2580582572","tag":{"amenity":"recycling","recycling:clothes":"yes","recycling_type":"container"}},"type":"Feature"},
	{"geometry":{"coordinates":[16.456505,48.224035],"type":"Point"},"properties":{"osm_id":"2586710931","tag":{"amenity":"recycling","recycling:newspaper":"yes","recycling:paper":"yes","recycling:paper_packaging":"yes","recycling_type":"container"}},"type":"Feature"},
	{"geometry":{"coordinates":[16.474495,48.190538],"type":"Point"},"properties":{"osm_id":"2600576661","tag":{"amenity":"waste_basket"}},"type":"Feature"},
	{"geometry":{"coordinates":[16.438325,48.173806],"type":"Point"},"properties":{"osm_id":"3325553957","tag":{"amenity":"recycling","location":"overground","recycling:cans":"yes","recycling:glass":"yes","recycling:green_waste":"yes","recycling:paper":"yes","recycling:plastic_bottles":"yes","recycling_type":"container"}},"type":"Feature"},
	{"geometry":{"coordinates":[16.439026,48.175133],"type":"Point"},"properties":{"osm_id":"3325556334","tag":{"amenity":"recycling","recycling:green_waste":"yes","recycling:paper":"yes","recycling_type":"container"}},"type":"Feature"},
	{"geometry":{"coordinates":[16.437255,48.171907],"type":"Point"},"properties":{"osm_id":"3325560470","tag":{"amenity":"recycling","location":"overground","recycling:cans":"yes","recycling:green_waste":"yes","recycling:paper":"yes","recycling:plastic_bottles":"yes","recycling_type":"container"}},"type":"Feature"},
	{"geometry":{"coordinates":[16.440763,48.177524],"type":"Point"},"properties":{"osm_id":"3336383289","tag":{"amenity":"waste_basket"}},"type":"Feature"},
	{"geometry":{"coordinates":[16.440546,48.177482],"type":"Point"},"properties":{"osm_id":"3336384798","tag":{"amenity":"waste_basket"}},"type":"Feature"},
	{"geometry":{"coordinates":[16.449271,48.178031],"type":"Point"},"properties":{"osm_id":"3336384826","tag":{"amenity":"waste_basket"}},"type":"Feature"},
	{"geometry":{"coordinates":[16.438821,48.200128],"type":"Point"},"properties":{"osm_id":"3601167914","tag":{"amenity":"recycling","recycling_type":"container"}},"type":"Feature"},
	{"geometry":{"coordinates":[16.45481,48.207708],"type":"Point"},"properties":{"osm_id":"3621074438","tag":{"addr:city":"Wien","addr:country":"AT","addr:postcode":"1220","addr:street":"Zillbauerplatz","amenity":"recycling","recycling:cans":"yes","recycling:glass":"yes","recycling:paper":"yes","recycling:plastic_bottles":"yes","recycling_type":"container"}},"type":"Feature"},
	{"geometry":{"coordinates":[16.456027,48.209351],"type":"Point"},"properties":{"osm_id":"3621074439","tag":{"addr:city":"Wien","addr:country":"AT","addr:housenumber":"33","addr:postcode":"1220","addr:street":"Kanalstra\u00c3\u009fe","amenity":"recycling","recycling:cans":"yes","recycling:glass":"yes","recycling:paper":"yes","recycling:plastic_bottles":"yes","recycling_type":"container"}},"type":"Feature"},
	{"geometry":{"coordinates":[16.477327,48.219161],"type":"Point"},"properties":{"osm_id":"3621074440","tag":{"addr:city":"Wien","addr:country":"AT","addr:housenumber":"57","addr:postcode":"1220","addr:street":"Eibengasse","amenity":"recycling","recycling:clothes":"yes"}},"type":"Feature"},
	{"geometry":{"coordinates":[16.499189,48.224579],"type":"Point"},"properties":{"osm_id":"3741191603","tag":{"amenity":"recycling","recycling:glass":"yes","recycling:scrap_metal":"yes","recycling_type":"container"}},"type":"Feature"},
	{"geometry":{"coordinates":[16.502849,48.223944],"type":"Point"},"properties":{"osm_id":"3807924179","tag":{"amenity":"recycling","recycling:clothes":"yes","recycling:glass":"yes","recycling:scrap_metal":"yes","recycling_type":"container"}},"type":"Feature"},
	{"geometry":{"coordinates":[16.439205,48.192002],"type":"Point"},"properties":{"osm_id":"4199589354","tag":{"amenity":"recycling","recycling_type":"container"}},"type":"Feature"},
	{"geometry":{"coordinates":[16.439443,48.193032],"type":"Point"},"properties":{"osm_id":"4199589355","tag":{"amenity":"recycling","recycling_type":"container"}},"type":"Feature"},
	{"geometry":{"coordinates":[16.439958,48.193415],"type":"Point"},"properties":{"osm_id":"4199589358","tag":{"amenity":"waste_basket"}},"type":"Feature"},
	{"geometry":{"coordinates":[16.438628,48.197504],"type":"Point"},"properties":{"osm_id":"4199589359","tag":{"amenity":"recycling","layer":"-1","recycling_type":"container"}},"type":"Feature"},
	{"geometry":{"coordinates":[16.438876,48.20027],"type":"Point"},"properties":{"osm_id":"4199589361","tag":{"amenity":"waste_basket"}},"type":"Feature"},
	{"geometry":{"coordinates":[16.43876,48.200323],"type":"Point"},"properties":{"osm_id":"4199589362","tag":{"amenity":"waste_basket"}},"type":"Feature"},
	{"geometry":{"coordinates":[16.464271,48.191837],"type":"Point"},"properties":{"osm_id":"4270167319","tag":{"amenity":"waste_disposal"}},"type":"Feature"},
	{"geometry":{"coordinates":[16.50026,48.223326],"type":"Point"},"properties":{"osm_id":"4314217086","tag":{"amenity":"recycling","recycling:clothes":"yes","recycling:glass":"yes","recycling:scrap_metal":"yes","recycling_type":"container"}},"type":"Feature"},
	{"geometry":{"coordinates":[16.49734,48.168809],"type":"Point"},"properties":{"osm_id":"4791887222","tag":{"amenity":"waste_basket"}},"type":"Feature"},
	{"geometry":{"coordinates":[16.502375,48.166598],"type":"Point"},"properties":{"osm_id":"4791893519","ref":"1161","tag":{"amenity":"waste_basket"}},"type":"Feature"},
	{"geometry":{"coordinates":[16.442829,48.199293],"type":"Point"},"properties":{"osm_id":"4831188176","ref":"0504","tag":{"amenity":"waste_basket"}},"type":"Feature"},
	{"geometry":{"coordinates":[16.437189,48.201419],"type":"Point"},"properties":{"osm_id":"4869991886","tag":{"amenity":"recycling","recycling:cans":"yes","recycling:clothes":"yes","recycling:glass_bottles":"yes","recycling:green_waste":"yes","recycling:plastic_bottles":"yes","recycling_type":"container"}},"type":"Feature"},
	{"geometry":{"coordinates":[16.475165,48.166221],"type":"Point"},"properties":{"osm_id":"5046989690","tag":{"amenity":"recycling","recycling:cans":"yes","recycling:glass":"yes","recycling:green_waste":"yes","recycling:paper":"yes","recycling:plastic_bottles":"yes","recycling_type":"container"}},"type":"Feature"},
	{"geometry":{"coordinates":[16.478025,48.166294],"type":"Point"},"properties":{"osm_id":"5081325651","tag":{"amenity":"recycling","recycling:cans":"yes","recycling:glass":"yes","recycling:green_waste":"yes","recycling:paper":"yes","recycling:plastic_bottles":"yes","recycling_type":"container"}},"type":"Feature"},
	{"geometry":{"coordinates":[16.477843,48.223033],"type":"Point"},"properties":{"osm_id":"5206620674","tag":{"amenity":"waste_basket"}},"type":"Feature"},
	{"geometry":{"coordinates":[16.499226,48.224635],"type":"Point"},"properties":{"osm_id":"5215876723","tag":{"amenity":"waste_basket"}},"type":"Feature"},
	{"geometry":{"coordinates":[16.498941,48.223477],"type":"Point"},"properties":{"osm_id":"5215876727","tag":{"amenity":"waste_basket"}},"type":"Feature"},
	{"geometry":{"coordinates":[16.500622,48.224165],"type":"Point"},"properties":{"osm_id":"5215876765","tag":{"amenity":"waste_basket"}},"type":"Feature"},
	{"geometry":{"coordinates":[16.519719,48.221463],"type":"Point"},"properties":{"osm_id":"5293604522","tag":{"amenity":"waste_basket"}},"type":"Feature"},
	{"geometry":{"coordinates":[16.439076,48.211482],"type":"Point"},"properties":{"osm_id":"5294187911","tag":{"amenity":"waste_basket"}},"type":"Feature"},
	{"geometry":{"coordinates":[16.439002,48.211452],"type":"Point"},"properties":{"osm_id":"5294187912","tag":{"amenity":"waste_basket"}},"type":"Feature"},
	{"geometry":{"coordinates":[16.43874,48.211929],"type":"Point"},"properties":{"osm_id":"5294189242","tag":{"amenity":"waste_basket"}},"type":"Feature"},
	{"geometry":{"coordinates":[16.437768,48.212726],"type":"Point"},"properties":{"osm_id":"5294189243","tag":{"amenity":"waste_basket"}},"type":"Feature"},
	{"geometry":{"coordinates":[16.436505,48.214282],"type":"Point"},"properties":{"osm_id":"5294189355","tag":{"amenity":"waste_basket"}},"type":"Feature"},
	{"geometry":{"coordinates":[16.43774,48.213514],"type":"Point"},"properties":{"osm_id":"5294189389","tag":{"amenity":"waste_basket"}},"type":"Feature"},
	{"geometry":{"coordinates":[16.441031,48.219758],"type":"Point"},"properties":{"osm_id":"5367956848","tag":{"amenity":"recycling","recycling:paper":"yes","recycling_type":"container"}},"type":"Feature"},
	{"geometry":{"coordinates":[16.440791,48.218455],"type":"Point"},"properties":{"osm_id":"5367956849","tag":{"amenity":"recycling","recycling:glass":"yes","recycling_type":"container"}},"type":"Feature"},
	{"geometry":{"coordinates":[16.441109,48.213451],"type":"Point"},"properties":{"osm_id":"5375553361","tag":{"amenity":"recycling","operator":"MA 48","recycling:paper":"yes","recycling_type":"container"}},"type":"Feature"},
	{"geometry":{"coordinates":[16.480863,48.220084],"type":"Point"},"properties":{"osm_id":"5384191827","tag":{"amenity":"recycling","recycling:cans":"yes","recycling:clothes":"yes","recycling:glass_bottles":"yes","recycling:plastic_bottles":"yes","recycling_type":"container"}},"type":"Feature"},
	{"geometry":{"coordinates":[16.440826,48.217861],"type":"Point"},"properties":{"osm_id":"5410702942","tag":{"amenity":"recycling","recycling:paper":"yes","recycling_type":"container"}},"type":"Feature"},
	{"geometry":{"coordinates":[16.470622,48.203632],"type":"Point"},"properties":{"osm_id":"5437893688","tag":{"amenity":"recycling","recycling_type":"container"}},"type":"Feature"},
	{"geometry":{"coordinates":[16.489066,48.213188],"type":"Point"},"properties":{"osm_id":"5600421958","tag":{"amenity":"recycling","recycling:cans":"yes","recycling:glass_bottles":"yes","recycling:plastic_bottles":"yes","recycling_type":"container"}},"type":"Feature"},
	{"geometry":{"coordinates":[16.501138,48.22464],"type":"Point"},"properties":{"osm_id":"5777520275","tag":{"amenity":"waste_basket"}},"type":"Feature"},
	{"geometry":{"coordinates":[16.500977,48.224554],"type":"Point"},"properties":{"osm_id":"5777520276","tag":{"amenity":"waste_basket"}},"type":"Feature"},
	{"geometry":{"coordinates":[16.500494,48.224385],"type":"Point"},"properties":{"osm_id":"5777520279","tag":{"amenity":"waste_basket"}},"type":"Feature"},
	{"geometry":{"coordinates":[16.500005,48.22447],"type":"Point"},"properties":{"osm_id":"5777520292","tag":{"amenity":"waste_basket"}},"type":"Feature"},
	{"geometry":{"coordinates":[16.499456,48.224577],"type":"Point"},"properties":{"osm_id":"5777520297","tag":{"amenity":"waste_basket"}},"type":"Feature"},
	{"geometry":{"coordinates":[16.500467,48.224197],"type":"Point"},"properties":{"osm_id":"5777520321","tag":{"amenity":"waste_basket"}},"type":"Feature"},
	{"geometry":{"coordinates":[16.500228,48.223605],"type":"Point"},"properties":{"osm_id":"5779520239","tag":{"amenity":"waste_basket"}},"type":"Feature"},
	{"geometry":{"coordinates":[16.501303,48.224664],"type":"Point"},"properties":{"osm_id":"5781043497","tag":{"amenity":"waste_basket"}},"type":"Feature"},
	{"geometry":{"coordinates":[16.497762,48.223809],"type":"Point"},"properties":{"osm_id":"5781043546","tag":{"amenity":"waste_basket"}},"type":"Feature"},
	{"geometry":{"coordinates":[16.500244,48.223284],"type":"Point"},"properties":{"osm_id":"5781070728","tag":{"amenity":"waste_basket"}},"type":"Feature"},
	{"geometry":{"coordinates":[16.503404,48.224412],"type":"Point"},"properties":{"osm_id":"5802376810","tag":{"amenity":"waste_basket"}},"type":"Feature"},
	{"geometry":{"coordinates":[16.504639,48.223952],"type":"Point"},"properties":{"osm_id":"5802376812","tag":{"amenity":"waste_basket"}},"type":"Feature"},
	{"geometry":{"coordinates":[16.506826,48.223732],"type":"Point"},"properties":{"osm_id":"5802376817","tag":{"amenity":"waste_basket"}},"type":"Feature"},
	{"geometry":{"coordinates":[16.50769,48.223786],"type":"Point"},"properties":{"osm_id":"5802376818","tag":{"amenity":"waste_basket"}},"type":"Feature"},
	{"geometry":{"coordinates":[16.508742,48.224176],"type":"Point"},"properties":{"osm_id":"5802376819","tag":{"amenity":"waste_basket"}},"type":"Feature"},
	{"geometry":{"coordinates":[16.508999,48.224279],"type":"Point"},"properties":{"osm_id":"5802376820","tag":{"amenity":"waste_basket"}},"type":"Feature"},
	{"geometry":{"coordinates":[16.509602,48.224671],"type":"Point"},"properties":{"osm_id":"5802376822","tag":{"amenity":"waste_basket"}},"type":"Feature"},
	{"geometry":{"coordinates":[16.500615,48.22268],"type":"Point"},"properties":{"osm_id":"5876710270","tag":{"amenity":"waste_basket"}},"type":"Feature"},
	{"geometry":{"coordinates":[16.503044,48.217828],"type":"Point"},"properties":{"osm_id":"6039114640","tag":{"amenity":"waste_basket"}},"type":"Feature"},
	{"geometry":{"coordinates":[16.502825,48.21734],"type":"Point"},"properties":{"osm_id":"6039114641","tag":{"amenity":"waste_basket"}},"type":"Feature"},
	{"geometry":{"coordinates":[16.441028,48.215011],"type":"Point"},"properties":{"osm_id":"6240252710","tag":{"amenity":"recycling","recycling:cans":"yes","recycling:glass":"yes","recycling:plastic_bottles":"yes","recycling_type":"container"}},"type":"Feature"},
	{"geometry":{"coordinates":[16.440838,48.215004],"type":"Point"},"properties":{"osm_id":"6240252711","tag":{"amenity":"recycling","recycling:paper":"yes","recycling_type":"container"}},"type":"Feature"},
	{"geometry":{"coordinates":[16.440838,48.214884],"type":"Point"},"properties":{"osm_id":"6240252712","tag":{"amenity":"waste_basket"}},"type":"Feature"},
	{"geometry":{"coordinates":[16.513917,48.221281],"type":"Point"},"properties":{"osm_id":"6402950679","tag":{"amenity":"waste_basket"}},"type":"Feature"},
	{"geometry":{"coordinates":[16.514994,48.220629],"type":"Point"},"properties":{"osm_id":"6402950680","tag":{"amenity":"waste_basket"}},"type":"Feature"},
	{"geometry":{"coordinates":[16.512937,48.214557],"type":"Point"},"properties":{"osm_id":"6727820943","tag":{"amenity":"recycling","recycling:paper":"yes","recycling_type":"container"}},"type":"Feature"},
	{"geometry":{"coordinates":[16.479838,48.217587],"type":"Point"},"properties":{"osm_id":"6832551614","tag":{"amenity":"waste_basket"}},"type":"Feature"},
	{"geometry":{"coordinates":[16.47993,48.217765],"type":"Point"},"properties":{"osm_id":"6832551615","tag":{"amenity":"waste_basket"}},"type":"Feature"},
	{"geometry":{"coordinates":[16.480255,48.217241],"type":"Point"},"properties":{"osm_id":"6832551630","tag":{"amenity":"waste_basket"}},"type":"Feature"},
	{"geometry":{"coordinates":[16.480256,48.21709],"type":"Point"},"properties":{"osm_id":"6832551631","tag":{"amenity":"waste_basket"}},"type":"Feature"},
	{"geometry":{"coordinates":[16.480388,48.217118],"type":"Point"},"properties":{"osm_id":"6832551632","tag":{"amenity":"waste_basket"}},"type":"Feature"},
	{"geometry":{"coordinates":[16.48161,48.216936],"type":"Point"},"properties":{"osm_id":"6832551643","tag":{"amenity":"waste_basket"}},"type":"Feature"},
	{"geometry":{"coordinates":[16.469826,48.218797],"type":"Point"},"properties":{"osm_id":"6878340831","tag":{"amenity":"waste_basket"}},"type":"Feature"},
	{"geometry":{"coordinates":[16.470084,48.218474],"type":"Point"},"properties":{"osm_id":"6878340833","tag":{"amenity":"waste_basket"}},"type":"Feature"},
	{"geometry":{"coordinates":[16.470022,48.218365],"type":"Point"},"properties":{"osm_id":"6878340837","tag":{"amenity":"waste_basket"}},"type":"Feature"},
	{"geometry":{"coordinates":[16.469757,48.217998],"type":"Point"},"properties":{"osm_id":"6878340854","tag":{"amenity":"waste_basket"}},"type":"Feature"},
	{"geometry":{"coordinates":[16.470283,48.218396],"type":"Point"},"properties":{"osm_id":"6878340858","tag":{"amenity":"recycling","recycling:clothes":"yes","recycling_type":"container"}},"type":"Feature"},
	{"geometry":{"coordinates":[16.470391,48.218865],"type":"Point"},"properties":{"osm_id":"6878340862","tag":{"amenity":"waste_basket"}},"type":"Feature"},
	{"geometry":{"coordinates":[16.468197,48.215324],"type":"Point"},"properties":{"osm_id":"6878372616","tag":{"amenity":"waste_basket"}},"type":"Feature"},
	{"geometry":{"coordinates":[16.468251,48.215414],"type":"Point"},"properties":{"osm_id":"6878374594","tag":{"amenity":"waste_basket"}},"type":"Feature"},
	{"geometry":{"coordinates":[16.468035,48.215491],"type":"Point"},"properties":{"osm_id":"6878374595","tag":{"amenity":"recycling","recycling:glass_bottles":"yes","recycling_type":"container"}},"type":"Feature"},
	{"geometry":{"coordinates":[16.468324,48.215434],"type":"Point"},"properties":{"osm_id":"6878374596","tag":{"amenity":"recycling","recycling:cans":"yes","recycling:clothes":"yes","recycling:paper":"yes","recycling:plastic_bottles":"yes","recycling_type":"container"}},"type":"Feature"},
	{"geometry":{"coordinates":[16.446369,48.21408],"type":"Point"},"properties":{"osm_id":"6878505000","tag":{"amenity":"waste_basket"}},"type":"Feature"},
	{"geometry":{"coordinates":[16.44512,48.214458],"type":"Point"},"properties":{"osm_id":"6878505001","tag":{"amenity":"waste_basket"}},"type":"Feature"},
	{"geometry":{"coordinates":[16.444699,48.214486],"type":"Point"},"properties":{"osm_id":"6878505002","tag":{"amenity":"waste_basket"}},"type":"Feature"},
	{"geometry":{"coordinates":[16.446528,48.217966],"type":"Point"},"properties":{"osm_id":"6878510837","tag":{"amenity":"waste_basket"}},"type":"Feature"},
	{"geometry":{"coordinates":[16.44376,48.221774],"type":"Point"},"properties":{"osm_id":"6878632066","tag":{"amenity":"waste_basket"}},"type":"Feature"},
	{"geometry":{"coordinates":[16.4437,48.221571],"type":"Point"},"properties":{"osm_id":"6878661708","tag":{"amenity":"waste_basket"}},"type":"Feature"},
	{"geometry":{"coordinates":[16.44414,48.221839],"type":"Point"},"properties":{"osm_id":"6878661712","tag":{"amenity":"waste_basket"}},"type":"Feature"},
	{"geometry":{"coordinates":[16.44408,48.221529],"type":"Point"},"properties":{"osm_id":"6878661717","tag":{"amenity":"waste_basket"}},"type":"Feature"},
	{"geometry":{"coordinates":[16.475301,48.166559],"type":"Point"},"properties":{"osm_id":"7006278849","tag":{"amenity":"recycling","recycling:glass_bottles":"yes","recycling_type":"container"}},"type":"Feature"},
	{"geometry":{"coordinates":[16.475358,48.166671],"type":"Point"},"properties":{"osm_id":"7006278850","tag":{"amenity":"waste_basket"}},"type":"Feature"},
	{"geometry":{"coordinates":[16.513663,48.21135],"type":"Point"},"properties":{"osm_id":"7056591687","tag":{"access":"yes","amenity":"recycling","operator":"MA 48","recycling:clothes":"yes","recycling:glass":"yes","recycling:mixed":"yes","recycling:paper":"yes","recycling_type":"container"}},"type":"Feature"},
	{"geometry":{"coordinates":[16.46256,48.217374],"type":"Point"},"properties":{"osm_id":"7164228182","tag":{"amenity":"waste_basket"}},"type":"Feature"},
	{"geometry":{"coordinates":[16.459754,48.219402],"type":"Point"},"properties":{"osm_id":"7164228183","tag":{"amenity":"waste_basket"}},"type":"Feature"},
	{"geometry":{"coordinates":[16.457937,48.221163],"type":"Point"},"properties":{"osm_id":"7164228184","tag":{"amenity":"recycling","operator":"Ma 48","recycling:cans":"yes","recycling:clothes":"yes","recycling:glass":"yes","recycling:plastic":"yes","recycling:plastic_bottles":"yes","recycling_type":"container"}},"type":"Feature"},
	{"geometry":{"coordinates":[16.455437,48.212738],"type":"Point"},"properties":{"osm_id":"7164328387","tag":{"amenity":"recycling","operator":"MA 48","recycling:cans":"yes","recycling:clothes":"yes","recycling:glass":"yes","recycling:newspaper":"yes","recycling:paper":"yes","recycling:plastic":"yes","recycling:plastic_bottles":"yes","recycling_type":"container"}},"type":"Feature"},
	{"geometry":{"coordinates":[16.440324,48.212107],"type":"Point"},"properties":{"osm_id":"7164365546","tag":{"amenity":"waste_basket"}},"type":"Feature"},
	{"geometry":{"coordinates":[16.468651,48.215266],"type":"Point"},"properties":{"osm_id":"7170213406","tag":{"amenity":"recycling","operator":"MA 48","recycling:paper":"yes","recycling_type":"container"}},"type":"Feature"},
	{"geometry":{"coordinates":[16.438066,48.213265],"type":"Point"},"properties":{"osm_id":"7171883224","tag":{"amenity":"waste_basket","operator":"Stadt Wien"}},"type":"Feature"},
	{"geometry":{"coordinates":[16.436162,48.21452],"type":"Point"},"properties":{"osm_id":"7171883225","tag":{"amenity":"waste_basket","operator":"Stadt Wien"}},"type":"Feature"},
	{"geometry":{"coordinates":[16.436999,48.213955],"type":"Point"},"properties":{"osm_id":"7171883227","tag":{"amenity":"waste_basket","operator":"Stadt Wien"}},"type":"Feature"},
	{"geometry":{"coordinates":[16.438925,48.213006],"type":"Point"},"properties":{"osm_id":"7171883231","tag":{"amenity":"waste_basket","operator":"Stadt Wien"}},"type":"Feature"},
	{"geometry":{"coordinates":[16.441096,48.213476],"type":"Point"},"properties":{"osm_id":"7171883232","tag":{"amenity":"waste_basket","operator":"Stadt Wien"}},"type":"Feature"},
	{"geometry":{"coordinates":[16.465001,48.216453],"type":"Point"},"properties":{"osm_id":"7171883233","tag":{"amenity":"waste_basket","operator":"Stadt Wien"}},"type":"Feature"},
	{"geometry":{"coordinates":[16.458179,48.220924],"type":"Point"},"properties":{"osm_id":"7173612949","tag":{"amenity":"waste_basket"}},"type":"Feature"},
	{"geometry":{"coordinates":[16.458002,48.219912],"type":"Point"},"properties":{"osm_id":"7173612950","tag":{"amenity":"waste_basket"}},"type":"Feature"},
	{"geometry":{"coordinates":[16.456999,48.215941],"type":"Point"},"properties":{"osm_id":"7173612961","tag":{"amenity":"recycling","operator":"MA 48","recycling:cans":"yes","recycling:glass":"yes","recycling:plastic_bottles":"yes","recycling_type":"container"}},"type":"Feature"},
	{"geometry":{"coordinates":[16.456745,48.213549],"type":"Point"},"properties":{"osm_id":"7173612964","tag":{"amenity":"waste_basket","operator":"MA 48"}},"type":"Feature"},
	{"geometry":{"coordinates":[16.456755,48.213424],"type":"Point"},"properties":{"osm_id":"7173612965","tag":{"amenity":"waste_basket","operator":"MA 48"}},"type":"Feature"},
	{"geometry":{"coordinates":[16.455669,48.21283],"type":"Point"},"properties":{"osm_id":"7173612966","tag":{"amenity":"waste_basket","operator":"MA 48"}},"type":"Feature"},
	{"geometry":{"coordinates":[16.45303,48.212982],"type":"Point"},"properties":{"osm_id":"7173612967","tag":{"amenity":"waste_basket","operator":"MA 48"}},"type":"Feature"},
	{"geometry":{"coordinates":[16.451648,48.214099],"type":"Point"},"properties":{"osm_id":"7173612968","tag":{"amenity":"waste_basket","operator":"MA 48"}},"type":"Feature"},
	{"geometry":{"coordinates":[16.448746,48.213938],"type":"Point"},"properties":{"osm_id":"7173612969","tag":{"amenity":"waste_basket","operator":"MA 48"}},"type":"Feature"},
	{"geometry":{"coordinates":[16.447461,48.213922],"type":"Point"},"properties":{"osm_id":"7173612970","tag":{"amenity":"waste_basket","operator":"MA 48"}},"type":"Feature"},
	{"geometry":{"coordinates":[16.478512,48.212845],"type":"Point"},"properties":{"osm_id":"7175266815","tag":{"amenity":"recycling","operator":"MA 48","recycling:cans":"yes","recycling:clothes":"yes","recycling:glass":"yes","recycling:plastic_bottles":"yes","recycling_type":"container"}},"type":"Feature"},
	{"geometry":{"coordinates":[16.47819,48.21289],"type":"Point"},"properties":{"osm_id":"7175266816","tag":{"amenity":"recycling","operator":"MA 48","recycling:paper":"yes","recycling_type":"container"}},"type":"Feature"},
	{"geometry":{"coordinates":[16.46282,48.213879],"type":"Point"},"properties":{"osm_id":"7178945237","tag":{"amenity":"recycling","operator":"MA 48","recycling:glass_bottles":"yes","recycling:paper":"yes","recycling_type":"container"}},"type":"Feature"},
	{"geometry":{"coordinates":[16.464075,48.213426],"type":"Point"},"properties":{"osm_id":"7178945238","tag":{"amenity":"recycling","operator":"MA 48","recycling:paper":"yes","recycling_type":"container"}},"type":"Feature"},
	{"geometry":{"coordinates":[16.449853,48.192249],"type":"Point"},"properties":{"osm_id":"7344502369","tag":{"amenity":"waste_basket"}},"type":"Feature"},
	{"geometry":{"coordinates":[16.445002,48.193448],"type":"Point"},"properties":{"osm_id":"7344502370","tag":{"amenity":"waste_basket"}},"type":"Feature"},
	{"geometry":{"coordinates":[16.502892,48.217617],"type":"Point"},"properties":{"osm_id":"7661109335","tag":{"amenity":"waste_basket"}},"type":"Feature"},
	{"geometry":{"coordinates":[16.503006,48.217596],"type":"Point"},"properties":{"osm_id":"7661109336","tag":{"amenity":"waste_basket"}},"type":"Feature"},
	{"geometry":{"coordinates":[16.503115,48.217574],"type":"Point"},"properties":{"osm_id":"7661109337","tag":{"amenity":"waste_basket"}},"type":"Feature"},
	{"geometry":{"coordinates":[16.503226,48.217552],"type":"Point"},"properties":{"osm_id":"7661109338","tag":{"amenity":"waste_basket"}},"type":"Feature"},
	{"geometry":{"coordinates":[16.503337,48.217528],"type":"Point"},"properties":{"osm_id":"7661109339","tag":{"amenity":"waste_basket"}},"type":"Feature"},
	{"geometry":{"coordinates":[16.51912,48.214609],"type":"Point"},"properties":{"osm_id":"7694253862","tag":{"amenity":"recycling","recycling:glass_bottles":"yes","recycling_type":"centre"}},"type":"Feature"},
	{"geometry":{"coordinates":[16.495105,48.222306],"type":"Point"},"properties":{"osm_id":"7858439467","tag":{"amenity":"waste_basket"}},"type":"Feature"},
	{"geometry":{"coordinates":[16.436256,48.221547],"type":"Point"},"properties":{"osm_id":"7858958732","tag":{"amenity":"recycling","recycling_type":"container"}},"type":"Feature"},
	{"geometry":{"coordinates":[16.436258,48.22153],"type":"Point"},"properties":{"osm_id":"7858958733","tag":{"amenity":"waste_basket"}},"type":"Feature"},
	{"geometry":{"coordinates":[16.436266,48.221489],"type":"Point"},"properties":{"osm_id":"7858958734","tag":{"amenity":"waste_basket"}},"type":"Feature"},
	{"geometry":{"coordinates":[16.436447,48.219373],"type":"Point"},"properties":{"osm_id":"7858958739","tag":{"amenity":"recycling","recycling_type":"container"}},"type":"Feature"},
	{"geometry":{"coordinates":[16.436451,48.21849],"type":"Point"},"properties":{"osm_id":"7858958742","tag":{"amenity":"waste_basket"}},"type":"Feature"},
	{"geometry":{"coordinates":[16.436467,48.218452],"type":"Point"},"properties":{"osm_id":"7858958743","tag":{"amenity":"waste_basket"}},"type":"Feature"},
	{"geometry":{"coordinates":[16.436812,48.217776],"type":"Point"},"properties":{"osm_id":"7858958745","tag":{"amenity":"recycling","recycling_type":"container"}},"type":"Feature"},
	{"geometry":{"coordinates":[16.437299,48.216304],"type":"Point"},"properties":{"osm_id":"7858958749","tag":{"amenity":"waste_basket"}},"type":"Feature"},
	{"geometry":{"coordinates":[16.437295,48.216331],"type":"Point"},"properties":{"osm_id":"7858958750","tag":{"amenity":"recycling","recycling_type":"container"}},"type":"Feature"},
	{"geometry":{"coordinates":[16.437484,48.215918],"type":"Point"},"properties":{"osm_id":"7858958751","tag":{"amenity":"waste_basket"}},"type":"Feature"},
	{"geometry":{"coordinates":[16.437711,48.2154],"type":"Point"},"properties":{"osm_id":"7858958753","tag":{"amenity":"waste_basket"}},"type":"Feature"},
	{"geometry":{"coordinates":[16.437927,48.214923],"type":"Point"},"properties":{"osm_id":"7858958755","tag":{"amenity":"waste_basket"}},"type":"Feature"},
	{"geometry":{"coordinates":[16.43792,48.214947],"type":"Point"},"properties":{"osm_id":"7858958756","tag":{"amenity":"recycling","recycling_type":"container"}},"type":"Feature"},
	{"geometry":{"coordinates":[16.437954,48.214886],"type":"Point"},"properties":{"osm_id":"7858958757","tag":{"amenity":"waste_basket"}},"type":"Feature"},
	{"geometry":{"coordinates":[16.439834,48.212525],"type":"Point"},"properties":{"osm_id":"7858958759","tag":{"amenity":"waste_basket"}},"type":"Feature"},
	{"geometry":{"coordinates":[16.440119,48.212382],"type":"Point"},"properties":{"osm_id":"7858958762","tag":{"amenity":"waste_basket"}},"type":"Feature"},
	{"geometry":{"coordinates":[16.44095,48.212399],"type":"Point"},"properties":{"osm_id":"7858958766","tag":{"amenity":"waste_basket"}},"type":"Feature"},
	{"geometry":{"coordinates":[16.440823,48.21306],"type":"Point"},"properties":{"osm_id":"7858958767","tag":{"amenity":"waste_basket"}},"type":"Feature"},
	{"geometry":{"coordinates":[16.440779,48.22208],"type":"Point"},"properties":{"osm_id":"7858958768","tag":{"amenity":"recycling","recycling_type":"container"}},"type":"Feature"},
	{"geometry":{"coordinates":[16.440816,48.222949],"type":"Point"},"properties":{"osm_id":"7858958769","tag":{"amenity":"waste_basket"}},"type":"Feature"},
	{"geometry":{"coordinates":[16.440967,48.223088],"type":"Point"},"properties":{"osm_id":"7858958770","tag":{"amenity":"waste_basket"}},"type":"Feature"},
	{"geometry":{"coordinates":[16.438146,48.222866],"type":"Point"},"properties":{"osm_id":"7858958771","tag":{"amenity":"recycling","recycling_type":"container"}},"type":"Feature"},
	{"geometry":{"coordinates":[16.458886,48.209763],"type":"Point"},"properties":{"osm_id":"7858958772","tag":{"amenity":"waste_basket"}},"type":"Feature"},
	{"geometry":{"coordinates":[16.458918,48.20968],"type":"Point"},"properties":{"osm_id":"7858958773","tag":{"amenity":"waste_basket"}},"type":"Feature"},
	{"geometry":{"coordinates":[16.463997,48.20852],"type":"Point"},"properties":{"osm_id":"7858958774","tag":{"amenity":"waste_basket"}},"type":"Feature"},
	{"geometry":{"coordinates":[16.464972,48.208933],"type":"Point"},"properties":{"osm_id":"7858958775","tag":{"amenity":"waste_basket"}},"type":"Feature"},
	{"geometry":{"coordinates":[16.46503,48.209427],"type":"Point"},"properties":{"osm_id":"7858958776","tag":{"amenity":"waste_basket"}},"type":"Feature"},
	{"geometry":{"coordinates":[16.471298,48.210516],"type":"Point"},"properties":{"osm_id":"7858958777","tag":{"amenity":"waste_basket"}},"type":"Feature"},
	{"geometry":{"coordinates":[16.476417,48.210289],"type":"Point"},"properties":{"osm_id":"7858958778","tag":{"amenity":"waste_basket"}},"type":"Feature"},
	{"geometry":{"coordinates":[16.495783,48.21222],"type":"Point"},"properties":{"osm_id":"7859009865","tag":{"amenity":"waste_basket"}},"type":"Feature"},
	{"geometry":{"coordinates":[16.497171,48.209719],"type":"Point"},"properties":{"osm_id":"7859009866","tag":{"amenity":"recycling","recycling_type":"container"}},"type":"Feature"},
	{"geometry":{"coordinates":[16.497148,48.209738],"type":"Point"},"properties":{"osm_id":"7859009867","tag":{"amenity":"waste_basket"}},"type":"Feature"},
	{"geometry":{"coordinates":[16.504511,48.207061],"type":"Point"},"properties":{"osm_id":"7859009868","tag":{"amenity":"recycling","recycling_type":"container"}},"type":"Feature"},
	{"geometry":{"coordinates":[16.48288,48.204363],"type":"Point"},"properties":{"osm_id":"7859009873","tag":{"amenity":"recycling","recycling_type":"container"}},"type":"Feature"},
	{"geometry":{"coordinates":[16.478301,48.204927],"type":"Point"},"properties":{"osm_id":"7859009874","tag":{"amenity":"recycling","recycling_type":"container"}},"type":"Feature"},
	{"geometry":{"coordinates":[16.476984,48.205664],"type":"Point"},"properties":{"osm_id":"7859009875","tag":{"amenity":"recycling","recycling_type":"container"}},"type":"Feature"},
	{"geometry":{"coordinates":[16.476282,48.206431],"type":"Point"},"properties":{"osm_id":"7859009876","tag":{"amenity":"waste_basket"}},"type":"Feature"},
	{"geometry":{"coordinates":[16.474525,48.205163],"type":"Point"},"properties":{"osm_id":"7859009877","tag":{"amenity":"recycling","recycling_type":"container"}},"type":"Feature"},
	{"geometry":{"coordinates":[16.472457,48.2078],"type":"Point"},"properties":{"osm_id":"7859009878","tag":{"amenity":"recycling","recycling_type":"container"}},"type":"Feature"},
	{"geometry":{"coordinates":[16.470122,48.208578],"type":"Point"},"properties":{"osm_id":"7859009879","tag":{"amenity":"waste_basket"}},"type":"Feature"},
	{"geometry":{"coordinates":[16.467843,48.208852],"type":"Point"},"properties":{"osm_id":"7859009881","tag":{"amenity":"recycling","recycling_type":"container"}},"type":"Feature"},
	{"geometry":{"coordinates":[16.463321,48.208684],"type":"Point"},"properties":{"osm_id":"7859010288","tag":{"amenity":"waste_basket"}},"type":"Feature"},
	{"geometry":{"coordinates":[16.464052,48.208718],"type":"Point"},"properties":{"osm_id":"7859010289","tag":{"amenity":"waste_basket"}},"type":"Feature"},
	{"geometry":{"coordinates":[16.450864,48.210518],"type":"Point"},"properties":{"osm_id":"7859010290","tag":{"amenity":"recycling","recycling_type":"container"}},"type":"Feature"},
	{"geometry":{"coordinates":[16.454781,48.207975],"type":"Point"},"properties":{"osm_id":"7859020593","tag":{"amenity":"waste_basket"}},"type":"Feature"},
	{"geometry":{"coordinates":[16.436472,48.208655],"type":"Point"},"properties":{"osm_id":"7924860852","tag":{"amenity":"waste_basket"}},"type":"Feature"}
]
}
