{
"type": "FeatureCollection",
"features": [
	{"geometry":{"coordinates":[16.500674,48.024242],"type":"Point"},"properties":{"name":"Altstoffsammelzentrum Gramatneuusiedl","osm_id":"738200057","tag":{"amenity":"recycling","recycling_type":"centre"}},"type":"Feature"},
	{"geometry":{"coordinates":[16.458144,48.017022],"type":"Point"},"properties":{"osm_id":"1689066313","tag":{"amenity":"waste_basket"}},"type":"Feature"},
	{"geometry":{"coordinates":[16.458136,48.018228],"type":"Point"},"properties":{"osm_id":"1689066406","tag":{"amenity":"waste_basket"}},"type":"Feature"},
	{"geometry":{"coordinates":[16.458029,48.018375],"type":"Point"},"properties":{"osm_id":"1689066468","tag":{"amenity":"waste_basket"}},"type":"Feature"},
	{"geometry":{"coordinates":[16.456508,48.01819],"type":"Point"},"properties":{"osm_id":"1689185531","tag":{"amenity":"waste_basket"}},"type":"Feature"},
	{"geometry":{"coordinates":[16.453737,48.016111],"type":"Point"},"properties":{"osm_id":"1689185681","tag":{"amenity":"waste_basket"}},"type":"Feature"},
	{"geometry":{"coordinates":[16.446106,48.010532],"type":"Point"},"properties":{"osm_id":"1689185734","tag":{"amenity":"waste_basket"}},"type":"Feature"},
	{"geometry":{"coordinates":[16.462326,48.017922],"type":"Point"},"properties":{"osm_id":"4951313364","tag":{"amenity":"waste_basket"}},"type":"Feature"},
	{"geometry":{"coordinates":[16.449913,48.017039],"type":"Point"},"properties":{"osm_id":"4963253544","tag":{"amenity":"waste_basket"}},"type":"Feature"},
	{"geometry":{"coordinates":[16.449238,48.017281],"type":"Point"},"properties":{"osm_id":"4963253545","tag":{"amenity":"waste_basket"}},"type":"Feature"},
	{"geometry":{"coordinates":[16.466268,48.020136],"type":"Point"},"properties":{"osm_id":"4998705201","tag":{"amenity":"recycling","recycling:glass":"yes","recycling_type":"container"}},"type":"Feature"},
	{"geometry":{"coordinates":[16.460888,48.019705],"type":"Point"},"properties":{"osm_id":"5007343615","tag":{"amenity":"recycling","recycling:clothes":"yes","recycling:glass":"yes","recycling:shoes":"yes","recycling_type":"container"}},"type":"Feature"},
	{"geometry":{"coordinates":[16.436148,48.016771],"type":"Point"},"properties":{"name":"Abfallsammelzentrum Moosbrunn","osm_id":"5284094278","tag":{"access":"private","addr:city":"Moosbrunn","addr:country":"AT","addr:postcode":"2440","addr:street":"Am Fuchsenh\u00c3\u00bcgel","amenity":"recycling","recycling_type":"centre"}},"type":"Feature"},
	{"geometry":{"coordinates":[16.465925,48.022342],"type":"Point"},"properties":{"osm_id":"5343665210","tag":{"amenity":"recycling","recycling:glass":"yes","recycling_type":"container"}},"type":"Feature"},
	{"geometry":{"coordinates":[16.497381,48.020544],"type":"Point"},"properties":{"osm_id":"5841626425","tag":{"amenity":"waste_basket"}},"type":"Feature"},
	{"geometry":{"coordinates":[16.496642,48.021002],"type":"Point"},"properties":{"osm_id":"5841626429","tag":{"amenity":"waste_basket"}},"type":"Feature"},
	{"geometry":{"coordinates":[16.496663,48.021259],"type":"Point"},"properties":{"osm_id":"5841626438","tag":{"amenity":"recycling","recycling:glass":"yes","recycling:waste":"yes","recycling_type":"container"}},"type":"Feature"},
	{"geometry":{"coordinates":[16.493523,48.02337],"type":"Point"},"properties":{"osm_id":"5841626439","tag":{"amenity":"waste_basket"}},"type":"Feature"},
	{"geometry":{"coordinates":[16.493077,48.023687],"type":"Point"},"properties":{"osm_id":"5841626441","tag":{"amenity":"waste_basket"}},"type":"Feature"},
	{"geometry":{"coordinates":[16.521373,47.998201],"type":"Point"},"properties":{"osm_id":"5841653823","tag":{"amenity":"waste_basket"}},"type":"Feature"},
	{"geometry":{"coordinates":[16.444868,48.048053],"type":"Point"},"properties":{"osm_id":"6223139476","tag":{"amenity":"recycling","recycling:glass_bottles":"yes","recycling_type":"container"}},"type":"Feature"},
	{"geometry":{"coordinates":[16.454992,48.018012],"type":"Point"},"properties":{"osm_id":"6239962975","tag":{"amenity":"recycling","recycling:glass":"yes","recycling_type":"container"}},"type":"Feature"},
	{"geometry":{"coordinates":[16.487777,48.01734],"type":"Point"},"properties":{"osm_id":"6252081587","tag":{"amenity":"waste_basket"}},"type":"Feature"},
	{"geometry":{"coordinates":[16.47238,47.99768],"type":"Point"},"properties":{"osm_id":"6388155318","tag":{"amenity":"waste_basket"}},"type":"Feature"},
	{"geometry":{"coordinates":[16.45625,48.010607],"type":"Point"},"properties":{"osm_id":"6436666489","tag":{"amenity":"recycling","recycling:glass":"yes","recycling_type":"container"}},"type":"Feature"},
	{"geometry":{"coordinates":[16.491728,48.024684],"type":"Point"},"properties":{"osm_id":"6462504588","tag":{"amenity":"waste_basket"}},"type":"Feature"}
]
}
