{
"type": "FeatureCollection",
"features": [
	{"geometry":{"coordinates":[-79.459608,43.883016],"type":"Point"},"properties":{"osm_id":"7744586665","tag":{"amenity":"waste_basket","material":"wood"}},"type":"Feature"},
	{"geometry":{"coordinates":[-79.484131,43.86317],"type":"Point"},"properties":{"osm_id":"7767431888","tag":{"amenity":"waste_basket"}},"type":"Feature"},
	{"geometry":{"coordinates":[-79.483932,43.863196],"type":"Point"},"properties":{"osm_id":"7767431891","tag":{"amenity":"waste_basket"}},"type":"Feature"},
	{"geometry":{"coordinates":[-79.484687,43.863403],"type":"Point"},"properties":{"osm_id":"7767431894","tag":{"amenity":"waste_basket"}},"type":"Feature"},
	{"geometry":{"coordinates":[-79.4857,43.863457],"type":"Point"},"properties":{"osm_id":"7767431895","tag":{"amenity":"waste_basket"}},"type":"Feature"},
	{"geometry":{"coordinates":[-79.486357,43.863382],"type":"Point"},"properties":{"osm_id":"7767431897","tag":{"amenity":"waste_basket"}},"type":"Feature"},
	{"geometry":{"coordinates":[-79.487238,43.86315],"type":"Point"},"properties":{"osm_id":"7767431900","tag":{"amenity":"waste_basket"}},"type":"Feature"},
	{"geometry":{"coordinates":[-79.487129,43.86285],"type":"Point"},"properties":{"osm_id":"7767431901","tag":{"amenity":"waste_basket"}},"type":"Feature"},
	{"geometry":{"coordinates":[-79.486196,43.862372],"type":"Point"},"properties":{"osm_id":"7767431903","tag":{"amenity":"waste_basket"}},"type":"Feature"},
	{"geometry":{"coordinates":[-79.485747,43.862285],"type":"Point"},"properties":{"osm_id":"7767431904","tag":{"amenity":"waste_basket"}},"type":"Feature"},
	{"geometry":{"coordinates":[-79.485267,43.862233],"type":"Point"},"properties":{"osm_id":"7767431906","tag":{"amenity":"waste_basket"}},"type":"Feature"},
	{"geometry":{"coordinates":[-79.484631,43.862312],"type":"Point"},"properties":{"osm_id":"7767431907","tag":{"amenity":"waste_basket"}},"type":"Feature"},
	{"geometry":{"coordinates":[-79.482289,43.861494],"type":"Point"},"properties":{"osm_id":"7885690549","tag":{"amenity":"waste_basket"}},"type":"Feature"},
	{"geometry":{"coordinates":[-79.501985,43.858514],"type":"Point"},"properties":{"osm_id":"7888152207","tag":{"amenity":"waste_basket"}},"type":"Feature"},
	{"geometry":{"coordinates":[-79.470428,43.864142],"type":"Point"},"properties":{"osm_id":"7888471757","tag":{"amenity":"loading_dock"}},"type":"Feature"},
	{"geometry":{"coordinates":[-79.464529,43.860969],"type":"Point"},"properties":{"osm_id":"7888471770","tag":{"amenity":"waste_basket"}},"type":"Feature"},
	{"geometry":{"coordinates":[-79.488364,43.85925],"type":"Point"},"properties":{"osm_id":"7926382914","tag":{"amenity":"waste_basket"}},"type":"Feature"},
	{"geometry":{"coordinates":[-79.488218,43.858911],"type":"Point"},"properties":{"osm_id":"7926382915","tag":{"amenity":"waste_basket"}},"type":"Feature"}
]
}
