{
"type": "FeatureCollection",
"features": [
	{"geometry":{"coordinates":[-79.515786,43.595859],"type":"Point"},"properties":{"osm_id":"432776500","tag":{"amenity":"waste_basket"}},"type":"Feature"},
	{"geometry":{"coordinates":[-79.532141,43.594694],"type":"Point"},"properties":{"osm_id":"1518574559","tag":{"amenity":"waste_basket"}},"type":"Feature"},
	{"geometry":{"coordinates":[-79.511482,43.624477],"type":"Point"},"properties":{"osm_id":"1995435016","tag":{"amenity":"waste_basket"}},"type":"Feature"},
	{"geometry":{"coordinates":[-79.514504,43.623821],"type":"Point"},"properties":{"osm_id":"1995526464","tag":{"amenity":"waste_basket"}},"type":"Feature"},
	{"geometry":{"coordinates":[-79.523983,43.621733],"type":"Point"},"properties":{"osm_id":"1995548161","tag":{"amenity":"waste_basket"}},"type":"Feature"},
	{"geometry":{"coordinates":[-79.520053,43.636225],"type":"Point"},"properties":{"osm_id":"2021679964","tag":{"amenity":"waste_basket"}},"type":"Feature"},
	{"geometry":{"coordinates":[-79.517191,43.629191],"type":"Point"},"properties":{"osm_id":"2021827204","tag":{"amenity":"waste_basket"}},"type":"Feature"},
	{"geometry":{"coordinates":[-79.516277,43.626926],"type":"Point"},"properties":{"osm_id":"2021848840","tag":{"amenity":"waste_basket"}},"type":"Feature"},
	{"geometry":{"coordinates":[-79.490007,43.612986],"type":"Point"},"properties":{"osm_id":"2882047425","tag":{"amenity":"waste_basket"}},"type":"Feature"},
	{"geometry":{"coordinates":[-79.494171,43.615348],"type":"Point"},"properties":{"osm_id":"2882063542","tag":{"amenity":"recycling","recycling_type":"container"}},"type":"Feature"},
	{"geometry":{"coordinates":[-79.494189,43.61537],"type":"Point"},"properties":{"osm_id":"2882063543","tag":{"amenity":"waste_basket"}},"type":"Feature"},
	{"geometry":{"coordinates":[-79.491787,43.621892],"type":"Point"},"properties":{"osm_id":"2882184668","tag":{"amenity":"waste_basket"}},"type":"Feature"},
	{"geometry":{"coordinates":[-79.491799,43.621938],"type":"Point"},"properties":{"osm_id":"2882184669","tag":{"amenity":"recycling","recycling_type":"container"}},"type":"Feature"},
	{"geometry":{"coordinates":[-79.528204,43.595849],"type":"Point"},"properties":{"osm_id":"3908633376","tag":{"amenity":"waste_basket","colour":"black"}},"type":"Feature"},
	{"geometry":{"coordinates":[-79.471892,43.631132],"type":"Point"},"properties":{"osm_id":"4028042768","tag":{"amenity":"waste_basket","colour":"black"}},"type":"Feature"},
	{"geometry":{"coordinates":[-79.471882,43.631143],"type":"Point"},"properties":{"osm_id":"4028042769","tag":{"amenity":"recycling","colour":"blue","recycling_type":"container"}},"type":"Feature"},
	{"geometry":{"coordinates":[-79.484596,43.621339],"type":"Point"},"properties":{"osm_id":"4291144233","tag":{"amenity":"recycling","recycling_type":"container"}},"type":"Feature"},
	{"geometry":{"coordinates":[-79.513384,43.591795],"type":"Point"},"properties":{"osm_id":"4597088197","tag":{"amenity":"recycling","colour":"blue","recycling_type":"container"}},"type":"Feature"},
	{"geometry":{"coordinates":[-79.513394,43.591806],"type":"Point"},"properties":{"osm_id":"4597088198","tag":{"amenity":"waste_basket","colour":"black"}},"type":"Feature"},
	{"geometry":{"coordinates":[-79.515822,43.596741],"type":"Point"},"properties":{"osm_id":"4597150219","tag":{"amenity":"recycling","colour":"blue","recycling_type":"container"}},"type":"Feature"},
	{"geometry":{"coordinates":[-79.515822,43.596762],"type":"Point"},"properties":{"osm_id":"4597150220","tag":{"amenity":"waste_basket","colour":"black"}},"type":"Feature"},
	{"geometry":{"coordinates":[-79.515241,43.595436],"type":"Point"},"properties":{"osm_id":"4611040135","tag":{"amenity":"waste_basket","colour":"blue"}},"type":"Feature"},
	{"geometry":{"coordinates":[-79.467253,43.643793],"type":"Point"},"properties":{"osm_id":"6376856845","tag":{"amenity":"waste_basket"}},"type":"Feature"},
	{"geometry":{"coordinates":[-79.521082,43.597389],"type":"Point"},"properties":{"osm_id":"6386821109","tag":{"amenity":"waste_basket"}},"type":"Feature"},
	{"geometry":{"coordinates":[-79.517863,43.598135],"type":"Point"},"properties":{"osm_id":"6386821111","tag":{"amenity":"waste_basket"}},"type":"Feature"},
	{"geometry":{"coordinates":[-79.516632,43.598381],"type":"Point"},"properties":{"osm_id":"6386821116","tag":{"amenity":"waste_basket"}},"type":"Feature"},
	{"geometry":{"coordinates":[-79.510933,43.587997],"type":"Point"},"properties":{"osm_id":"6390076260","tag":{"amenity":"waste_basket"}},"type":"Feature"},
	{"geometry":{"coordinates":[-79.498342,43.599],"type":"Point"},"properties":{"osm_id":"6390076278","tag":{"amenity":"waste_basket"}},"type":"Feature"},
	{"geometry":{"coordinates":[-79.498292,43.598622],"type":"Point"},"properties":{"osm_id":"6390076279","tag":{"amenity":"waste_basket"}},"type":"Feature"},
	{"geometry":{"coordinates":[-79.498799,43.598264],"type":"Point"},"properties":{"osm_id":"6390076280","tag":{"amenity":"waste_basket"}},"type":"Feature"},
	{"geometry":{"coordinates":[-79.479323,43.612338],"type":"Point"},"properties":{"osm_id":"6390146549","tag":{"amenity":"waste_basket"}},"type":"Feature"},
	{"geometry":{"coordinates":[-79.477535,43.614719],"type":"Point"},"properties":{"osm_id":"6390146581","tag":{"amenity":"waste_basket"}},"type":"Feature"},
	{"geometry":{"coordinates":[-79.477744,43.614825],"type":"Point"},"properties":{"osm_id":"6390146582","tag":{"amenity":"waste_basket"}},"type":"Feature"},
	{"geometry":{"coordinates":[-79.477657,43.615593],"type":"Point"},"properties":{"osm_id":"6390146986","tag":{"amenity":"waste_basket"}},"type":"Feature"},
	{"geometry":{"coordinates":[-79.472563,43.630536],"type":"Point"},"properties":{"osm_id":"6390147012","tag":{"amenity":"waste_basket"}},"type":"Feature"},
	{"geometry":{"coordinates":[-79.472005,43.630998],"type":"Point"},"properties":{"osm_id":"6390147014","tag":{"amenity":"waste_basket"}},"type":"Feature"},
	{"geometry":{"coordinates":[-79.469483,43.633725],"type":"Point"},"properties":{"osm_id":"6390147034","tag":{"amenity":"waste_basket"}},"type":"Feature"},
	{"geometry":{"coordinates":[-79.494621,43.630134],"type":"Point"},"properties":{"osm_id":"6390308069","tag":{"amenity":"waste_basket"}},"type":"Feature"},
	{"geometry":{"coordinates":[-79.506282,43.627577],"type":"Point"},"properties":{"osm_id":"6390376111","tag":{"amenity":"waste_basket"}},"type":"Feature"},
	{"geometry":{"coordinates":[-79.476496,43.626982],"type":"Point"},"properties":{"osm_id":"6396191975","tag":{"amenity":"waste_basket"}},"type":"Feature"},
	{"geometry":{"coordinates":[-79.475822,43.628433],"type":"Point"},"properties":{"osm_id":"6396297557","tag":{"amenity":"waste_basket"}},"type":"Feature"},
	{"geometry":{"coordinates":[-79.476628,43.626562],"type":"Point"},"properties":{"osm_id":"6396297562","tag":{"amenity":"waste_basket"}},"type":"Feature"},
	{"geometry":{"coordinates":[-79.47517,43.629233],"type":"Point"},"properties":{"osm_id":"6396298362","tag":{"amenity":"waste_basket"}},"type":"Feature"},
	{"geometry":{"coordinates":[-79.515658,43.632922],"type":"Point"},"properties":{"osm_id":"6396943360","tag":{"amenity":"waste_basket"}},"type":"Feature"},
	{"geometry":{"coordinates":[-79.515773,43.633289],"type":"Point"},"properties":{"osm_id":"6396943385","tag":{"amenity":"waste_basket"}},"type":"Feature"},
	{"geometry":{"coordinates":[-79.49362,43.610302],"type":"Point"},"properties":{"osm_id":"6396943405","tag":{"amenity":"waste_basket"}},"type":"Feature"},
	{"geometry":{"coordinates":[-79.49411,43.610184],"type":"Point"},"properties":{"osm_id":"6396943406","tag":{"amenity":"waste_basket"}},"type":"Feature"},
	{"geometry":{"coordinates":[-79.500048,43.609027],"type":"Point"},"properties":{"osm_id":"6396943430","tag":{"amenity":"waste_basket"}},"type":"Feature"},
	{"geometry":{"coordinates":[-79.485322,43.616631],"type":"Point"},"properties":{"osm_id":"6397367641","tag":{"amenity":"waste_basket"}},"type":"Feature"},
	{"geometry":{"coordinates":[-79.484838,43.617604],"type":"Point"},"properties":{"osm_id":"6397367642","tag":{"amenity":"waste_basket"}},"type":"Feature"},
	{"geometry":{"coordinates":[-79.487514,43.61359],"type":"Point"},"properties":{"osm_id":"6397367925","tag":{"amenity":"waste_basket"}},"type":"Feature"},
	{"geometry":{"coordinates":[-79.488595,43.613653],"type":"Point"},"properties":{"osm_id":"6397367965","tag":{"amenity":"waste_basket"}},"type":"Feature"},
	{"geometry":{"coordinates":[-79.527812,43.600183],"type":"Point"},"properties":{"osm_id":"6398612641","tag":{"amenity":"waste_basket"}},"type":"Feature"},
	{"geometry":{"coordinates":[-79.523678,43.625718],"type":"Point"},"properties":{"osm_id":"6407760297","tag":{"amenity":"recycling","recycling_type":"container"}},"type":"Feature"},
	{"geometry":{"coordinates":[-79.523688,43.625713],"type":"Point"},"properties":{"osm_id":"6407760298","tag":{"amenity":"waste_basket"}},"type":"Feature"},
	{"geometry":{"coordinates":[-79.482921,43.61327],"type":"Point"},"properties":{"osm_id":"6407797967","tag":{"amenity":"waste_basket"}},"type":"Feature"},
	{"geometry":{"coordinates":[-79.503032,43.626366],"type":"Point"},"properties":{"osm_id":"6412984937","tag":{"amenity":"waste_basket"}},"type":"Feature"},
	{"geometry":{"coordinates":[-79.501577,43.624287],"type":"Point"},"properties":{"osm_id":"6412984948","tag":{"amenity":"waste_basket"}},"type":"Feature"},
	{"geometry":{"coordinates":[-79.52672,43.621244],"type":"Point"},"properties":{"osm_id":"6415065636","tag":{"amenity":"waste_basket"}},"type":"Feature"},
	{"geometry":{"coordinates":[-79.526359,43.621199],"type":"Point"},"properties":{"osm_id":"6415065638","tag":{"amenity":"waste_basket"}},"type":"Feature"},
	{"geometry":{"coordinates":[-79.528227,43.624798],"type":"Point"},"properties":{"osm_id":"6415245529","tag":{"amenity":"waste_basket"}},"type":"Feature"},
	{"geometry":{"coordinates":[-79.527351,43.62268],"type":"Point"},"properties":{"osm_id":"6415245530","tag":{"amenity":"waste_basket"}},"type":"Feature"},
	{"geometry":{"coordinates":[-79.538392,43.638748],"type":"Point"},"properties":{"osm_id":"6453163982","tag":{"amenity":"waste_basket"}},"type":"Feature"},
	{"geometry":{"coordinates":[-79.540341,43.6408],"type":"Point"},"properties":{"osm_id":"6456644687","tag":{"amenity":"waste_basket"}},"type":"Feature"},
	{"geometry":{"coordinates":[-79.539248,43.641044],"type":"Point"},"properties":{"osm_id":"6456644688","tag":{"amenity":"waste_basket"}},"type":"Feature"},
	{"geometry":{"coordinates":[-79.540243,43.640636],"type":"Point"},"properties":{"osm_id":"6456644697","tag":{"amenity":"waste_basket"}},"type":"Feature"},
	{"geometry":{"coordinates":[-79.531286,43.631779],"type":"Point"},"properties":{"osm_id":"6467113607","tag":{"amenity":"waste_basket"}},"type":"Feature"},
	{"geometry":{"coordinates":[-79.531979,43.633304],"type":"Point"},"properties":{"osm_id":"6467113619","tag":{"amenity":"waste_basket"}},"type":"Feature"},
	{"geometry":{"coordinates":[-79.527472,43.620651],"type":"Point"},"properties":{"osm_id":"6467153244","tag":{"amenity":"waste_basket"}},"type":"Feature"},
	{"geometry":{"coordinates":[-79.527102,43.62122],"type":"Point"},"properties":{"osm_id":"6467153265","tag":{"amenity":"waste_basket"}},"type":"Feature"},
	{"geometry":{"coordinates":[-79.528804,43.625488],"type":"Point"},"properties":{"osm_id":"6467153273","tag":{"amenity":"waste_basket"}},"type":"Feature"},
	{"geometry":{"coordinates":[-79.530768,43.631277],"type":"Point"},"properties":{"osm_id":"6467187050","tag":{"amenity":"waste_basket"}},"type":"Feature"},
	{"geometry":{"coordinates":[-79.531933,43.634019],"type":"Point"},"properties":{"osm_id":"6467322365","tag":{"amenity":"waste_basket"}},"type":"Feature"},
	{"geometry":{"coordinates":[-79.456725,43.639944],"type":"Point"},"properties":{"osm_id":"6501353030","tag":{"amenity":"waste_basket"}},"type":"Feature"},
	{"geometry":{"coordinates":[-79.460018,43.639723],"type":"Point"},"properties":{"osm_id":"6501353046","tag":{"amenity":"waste_basket"}},"type":"Feature"},
	{"geometry":{"coordinates":[-79.466123,43.638151],"type":"Point"},"properties":{"osm_id":"6501353047","tag":{"amenity":"waste_basket"}},"type":"Feature"},
	{"geometry":{"coordinates":[-79.470069,43.637481],"type":"Point"},"properties":{"osm_id":"6501353050","tag":{"amenity":"waste_basket"}},"type":"Feature"},
	{"geometry":{"coordinates":[-79.470396,43.637358],"type":"Point"},"properties":{"osm_id":"6501353051","tag":{"amenity":"waste_basket"}},"type":"Feature"},
	{"geometry":{"coordinates":[-79.47169,43.636927],"type":"Point"},"properties":{"osm_id":"6501353057","tag":{"amenity":"waste_basket"}},"type":"Feature"},
	{"geometry":{"coordinates":[-79.472804,43.636312],"type":"Point"},"properties":{"osm_id":"6501353059","tag":{"amenity":"waste_basket"}},"type":"Feature"},
	{"geometry":{"coordinates":[-79.524643,43.621292],"type":"Point"},"properties":{"osm_id":"6509946328","tag":{"amenity":"waste_basket"}},"type":"Feature"},
	{"geometry":{"coordinates":[-79.516485,43.623084],"type":"Point"},"properties":{"osm_id":"6509946338","tag":{"amenity":"waste_basket"}},"type":"Feature"},
	{"geometry":{"coordinates":[-79.515179,43.623356],"type":"Point"},"properties":{"osm_id":"6509946359","tag":{"amenity":"waste_basket"}},"type":"Feature"},
	{"geometry":{"coordinates":[-79.511916,43.624169],"type":"Point"},"properties":{"osm_id":"6509946370","tag":{"amenity":"waste_basket"}},"type":"Feature"},
	{"geometry":{"coordinates":[-79.518037,43.631193],"type":"Point"},"properties":{"osm_id":"6511222218","tag":{"amenity":"waste_basket"}},"type":"Feature"},
	{"geometry":{"coordinates":[-79.517933,43.631058],"type":"Point"},"properties":{"osm_id":"6511222225","tag":{"amenity":"waste_basket"}},"type":"Feature"},
	{"geometry":{"coordinates":[-79.517513,43.630693],"type":"Point"},"properties":{"osm_id":"6511222258","tag":{"amenity":"waste_basket"}},"type":"Feature"},
	{"geometry":{"coordinates":[-79.516933,43.629142],"type":"Point"},"properties":{"osm_id":"6511222503","tag":{"amenity":"waste_basket"}},"type":"Feature"},
	{"geometry":{"coordinates":[-79.515735,43.625659],"type":"Point"},"properties":{"osm_id":"6511438473","tag":{"amenity":"waste_basket"}},"type":"Feature"},
	{"geometry":{"coordinates":[-79.49192,43.632914],"type":"Point"},"properties":{"osm_id":"6511630597","tag":{"amenity":"waste_basket"}},"type":"Feature"},
	{"geometry":{"coordinates":[-79.491518,43.632065],"type":"Point"},"properties":{"osm_id":"6511630599","tag":{"amenity":"waste_basket"}},"type":"Feature"},
	{"geometry":{"coordinates":[-79.490341,43.629351],"type":"Point"},"properties":{"osm_id":"6511630602","tag":{"amenity":"waste_basket"}},"type":"Feature"},
	{"geometry":{"coordinates":[-79.489991,43.629275],"type":"Point"},"properties":{"osm_id":"6511630603","tag":{"amenity":"waste_basket"}},"type":"Feature"},
	{"geometry":{"coordinates":[-79.486403,43.63003],"type":"Point"},"properties":{"osm_id":"6511630612","tag":{"amenity":"waste_basket"}},"type":"Feature"},
	{"geometry":{"coordinates":[-79.484308,43.630746],"type":"Point"},"properties":{"osm_id":"6511630618","tag":{"amenity":"waste_basket"}},"type":"Feature"},
	{"geometry":{"coordinates":[-79.483757,43.630583],"type":"Point"},"properties":{"osm_id":"6511630621","tag":{"amenity":"waste_basket"}},"type":"Feature"},
	{"geometry":{"coordinates":[-79.481811,43.631053],"type":"Point"},"properties":{"osm_id":"6511630624","tag":{"amenity":"waste_basket"}},"type":"Feature"},
	{"geometry":{"coordinates":[-79.499256,43.634949],"type":"Point"},"properties":{"osm_id":"6511670440","tag":{"amenity":"waste_basket"}},"type":"Feature"},
	{"geometry":{"coordinates":[-79.495185,43.635858],"type":"Point"},"properties":{"osm_id":"6511670444","tag":{"amenity":"waste_basket"}},"type":"Feature"},
	{"geometry":{"coordinates":[-79.493077,43.636326],"type":"Point"},"properties":{"osm_id":"6511670447","tag":{"amenity":"waste_basket"}},"type":"Feature"},
	{"geometry":{"coordinates":[-79.493101,43.636145],"type":"Point"},"properties":{"osm_id":"6511670448","tag":{"amenity":"waste_basket"}},"type":"Feature"},
	{"geometry":{"coordinates":[-79.492993,43.635459],"type":"Point"},"properties":{"osm_id":"6511670450","tag":{"amenity":"waste_basket"}},"type":"Feature"},
	{"geometry":{"coordinates":[-79.502848,43.642763],"type":"Point"},"properties":{"osm_id":"6511741715","tag":{"amenity":"waste_basket"}},"type":"Feature"},
	{"geometry":{"coordinates":[-79.502172,43.641489],"type":"Point"},"properties":{"osm_id":"6511741716","tag":{"amenity":"waste_basket"}},"type":"Feature"},
	{"geometry":{"coordinates":[-79.501089,43.638628],"type":"Point"},"properties":{"osm_id":"6511741720","tag":{"amenity":"waste_basket"}},"type":"Feature"},
	{"geometry":{"coordinates":[-79.500325,43.63684],"type":"Point"},"properties":{"osm_id":"6511741722","tag":{"amenity":"waste_basket"}},"type":"Feature"},
	{"geometry":{"coordinates":[-79.537894,43.638907],"type":"Point"},"properties":{"osm_id":"6512005426","tag":{"amenity":"waste_basket"}},"type":"Feature"},
	{"geometry":{"coordinates":[-79.530411,43.643248],"type":"Point"},"properties":{"osm_id":"6512005427","tag":{"amenity":"waste_basket"}},"type":"Feature"},
	{"geometry":{"coordinates":[-79.474378,43.641246],"type":"Point"},"properties":{"osm_id":"6512390954","tag":{"amenity":"waste_basket"}},"type":"Feature"},
	{"geometry":{"coordinates":[-79.473966,43.641299],"type":"Point"},"properties":{"osm_id":"6512390955","tag":{"amenity":"waste_basket"}},"type":"Feature"},
	{"geometry":{"coordinates":[-79.498058,43.635098],"type":"Point"},"properties":{"osm_id":"6515678489","tag":{"amenity":"waste_basket"}},"type":"Feature"},
	{"geometry":{"coordinates":[-79.495923,43.635562],"type":"Point"},"properties":{"osm_id":"6515678495","tag":{"amenity":"waste_basket"}},"type":"Feature"},
	{"geometry":{"coordinates":[-79.494173,43.635909],"type":"Point"},"properties":{"osm_id":"6515678499","tag":{"amenity":"waste_basket"}},"type":"Feature"},
	{"geometry":{"coordinates":[-79.492978,43.634867],"type":"Point"},"properties":{"osm_id":"6515678503","tag":{"amenity":"waste_basket"}},"type":"Feature"},
	{"geometry":{"coordinates":[-79.489055,43.629197],"type":"Point"},"properties":{"osm_id":"6515678526","tag":{"amenity":"waste_basket"}},"type":"Feature"},
	{"geometry":{"coordinates":[-79.482277,43.630669],"type":"Point"},"properties":{"osm_id":"6515678539","tag":{"amenity":"waste_basket"}},"type":"Feature"},
	{"geometry":{"coordinates":[-79.538501,43.638644],"type":"Point"},"properties":{"osm_id":"6521478054","tag":{"amenity":"waste_basket"}},"type":"Feature"},
	{"geometry":{"coordinates":[-79.54052,43.640197],"type":"Point"},"properties":{"osm_id":"6521478057","tag":{"amenity":"waste_basket"}},"type":"Feature"},
	{"geometry":{"coordinates":[-79.469446,43.637136],"type":"Point"},"properties":{"osm_id":"6522244535","tag":{"amenity":"waste_basket"}},"type":"Feature"},
	{"geometry":{"coordinates":[-79.469521,43.636899],"type":"Point"},"properties":{"osm_id":"6522244536","tag":{"amenity":"waste_basket"}},"type":"Feature"},
	{"geometry":{"coordinates":[-79.470135,43.637043],"type":"Point"},"properties":{"osm_id":"6522244537","tag":{"amenity":"waste_basket"}},"type":"Feature"},
	{"geometry":{"coordinates":[-79.483576,43.632056],"type":"Point"},"properties":{"osm_id":"6532387302","tag":{"amenity":"waste_basket"}},"type":"Feature"},
	{"geometry":{"coordinates":[-79.48312,43.630948],"type":"Point"},"properties":{"osm_id":"6532387303","tag":{"amenity":"waste_basket"}},"type":"Feature"},
	{"geometry":{"coordinates":[-79.498423,43.627385],"type":"Point"},"properties":{"osm_id":"6532702596","tag":{"amenity":"waste_basket"}},"type":"Feature"},
	{"geometry":{"coordinates":[-79.496655,43.627778],"type":"Point"},"properties":{"osm_id":"6532702600","tag":{"amenity":"waste_basket"}},"type":"Feature"},
	{"geometry":{"coordinates":[-79.503065,43.627647],"type":"Point"},"properties":{"osm_id":"6533097161","tag":{"amenity":"waste_basket"}},"type":"Feature"},
	{"geometry":{"coordinates":[-79.50229,43.626547],"type":"Point"},"properties":{"osm_id":"6533097165","tag":{"amenity":"waste_basket"}},"type":"Feature"},
	{"geometry":{"coordinates":[-79.508459,43.639193],"type":"Point"},"properties":{"osm_id":"6533233421","tag":{"amenity":"waste_basket"}},"type":"Feature"},
	{"geometry":{"coordinates":[-79.507082,43.637314],"type":"Point"},"properties":{"osm_id":"6533233425","tag":{"amenity":"waste_basket"}},"type":"Feature"},
	{"geometry":{"coordinates":[-79.505849,43.634496],"type":"Point"},"properties":{"osm_id":"6533233429","tag":{"amenity":"waste_basket"}},"type":"Feature"},
	{"geometry":{"coordinates":[-79.505226,43.632856],"type":"Point"},"properties":{"osm_id":"6533233432","tag":{"amenity":"waste_basket"}},"type":"Feature"},
	{"geometry":{"coordinates":[-79.504255,43.630572],"type":"Point"},"properties":{"osm_id":"6533233435","tag":{"amenity":"waste_basket"}},"type":"Feature"},
	{"geometry":{"coordinates":[-79.505222,43.632263],"type":"Point"},"properties":{"osm_id":"6535435652","tag":{"amenity":"waste_basket"}},"type":"Feature"},
	{"geometry":{"coordinates":[-79.505562,43.633069],"type":"Point"},"properties":{"osm_id":"6535435653","tag":{"amenity":"waste_basket"}},"type":"Feature"},
	{"geometry":{"coordinates":[-79.506014,43.634165],"type":"Point"},"properties":{"osm_id":"6535435655","tag":{"amenity":"waste_basket"}},"type":"Feature"},
	{"geometry":{"coordinates":[-79.507351,43.637271],"type":"Point"},"properties":{"osm_id":"6535435666","tag":{"amenity":"waste_basket"}},"type":"Feature"},
	{"geometry":{"coordinates":[-79.494963,43.627925],"type":"Point"},"properties":{"osm_id":"6536131177","tag":{"amenity":"waste_basket"}},"type":"Feature"},
	{"geometry":{"coordinates":[-79.499228,43.627022],"type":"Point"},"properties":{"osm_id":"6536131182","tag":{"amenity":"waste_basket"}},"type":"Feature"},
	{"geometry":{"coordinates":[-79.499777,43.626906],"type":"Point"},"properties":{"osm_id":"6536131184","tag":{"amenity":"waste_basket"}},"type":"Feature"},
	{"geometry":{"coordinates":[-79.501961,43.6264],"type":"Point"},"properties":{"osm_id":"6536145589","tag":{"amenity":"waste_basket"}},"type":"Feature"},
	{"geometry":{"coordinates":[-79.503622,43.627879],"type":"Point"},"properties":{"osm_id":"6536145605","tag":{"amenity":"waste_basket"}},"type":"Feature"},
	{"geometry":{"coordinates":[-79.509241,43.641933],"type":"Point"},"properties":{"osm_id":"6536249118","tag":{"amenity":"waste_basket"}},"type":"Feature"},
	{"geometry":{"coordinates":[-79.508729,43.639302],"type":"Point"},"properties":{"osm_id":"6536249122","tag":{"amenity":"waste_basket"}},"type":"Feature"},
	{"geometry":{"coordinates":[-79.515905,43.626654],"type":"Point"},"properties":{"osm_id":"6543536246","tag":{"amenity":"waste_basket"}},"type":"Feature"},
	{"geometry":{"coordinates":[-79.514724,43.623963],"type":"Point"},"properties":{"osm_id":"6543536255","tag":{"amenity":"waste_basket"}},"type":"Feature"},
	{"geometry":{"coordinates":[-79.518872,43.634102],"type":"Point"},"properties":{"osm_id":"6545141868","tag":{"amenity":"waste_basket"}},"type":"Feature"},
	{"geometry":{"coordinates":[-79.519802,43.636239],"type":"Point"},"properties":{"osm_id":"6545193546","tag":{"amenity":"waste_basket"}},"type":"Feature"},
	{"geometry":{"coordinates":[-79.521933,43.641405],"type":"Point"},"properties":{"osm_id":"6546248031","tag":{"amenity":"waste_basket"}},"type":"Feature"},
	{"geometry":{"coordinates":[-79.521111,43.639639],"type":"Point"},"properties":{"osm_id":"6546248035","tag":{"amenity":"waste_basket"}},"type":"Feature"},
	{"geometry":{"coordinates":[-79.515073,43.62392],"type":"Point"},"properties":{"osm_id":"6546361927","tag":{"amenity":"waste_basket"}},"type":"Feature"},
	{"geometry":{"coordinates":[-79.519421,43.634249],"type":"Point"},"properties":{"osm_id":"6546361968","tag":{"amenity":"waste_basket"}},"type":"Feature"},
	{"geometry":{"coordinates":[-79.521396,43.639544],"type":"Point"},"properties":{"osm_id":"6546388791","tag":{"amenity":"waste_basket"}},"type":"Feature"},
	{"geometry":{"coordinates":[-79.522239,43.641662],"type":"Point"},"properties":{"osm_id":"6546388800","tag":{"amenity":"waste_basket"}},"type":"Feature"},
	{"geometry":{"coordinates":[-79.505543,43.625595],"type":"Point"},"properties":{"osm_id":"6547846722","tag":{"amenity":"waste_basket"}},"type":"Feature"},
	{"geometry":{"coordinates":[-79.508977,43.624842],"type":"Point"},"properties":{"osm_id":"6547846728","tag":{"amenity":"waste_basket"}},"type":"Feature"},
	{"geometry":{"coordinates":[-79.487215,43.610647],"type":"Point"},"properties":{"osm_id":"6554401488","tag":{"amenity":"waste_basket"}},"type":"Feature"},
	{"geometry":{"coordinates":[-79.486974,43.611251],"type":"Point"},"properties":{"osm_id":"6554401489","tag":{"amenity":"waste_basket"}},"type":"Feature"},
	{"geometry":{"coordinates":[-79.487138,43.610937],"type":"Point"},"properties":{"osm_id":"6554401490","tag":{"amenity":"waste_basket"}},"type":"Feature"},
	{"geometry":{"coordinates":[-79.475167,43.635331],"type":"Point"},"properties":{"osm_id":"6555695153","tag":{"amenity":"waste_basket"}},"type":"Feature"},
	{"geometry":{"coordinates":[-79.514685,43.643193],"type":"Point"},"properties":{"osm_id":"6556532485","tag":{"amenity":"waste_basket"}},"type":"Feature"},
	{"geometry":{"coordinates":[-79.488218,43.616],"type":"Point"},"properties":{"osm_id":"6557769547","tag":{"amenity":"waste_basket"}},"type":"Feature"},
	{"geometry":{"coordinates":[-79.488425,43.615135],"type":"Point"},"properties":{"osm_id":"6557769548","tag":{"amenity":"waste_basket"}},"type":"Feature"},
	{"geometry":{"coordinates":[-79.48889,43.614795],"type":"Point"},"properties":{"osm_id":"6557769549","tag":{"amenity":"waste_basket"}},"type":"Feature"},
	{"geometry":{"coordinates":[-79.487491,43.613121],"type":"Point"},"properties":{"osm_id":"6557806990","tag":{"amenity":"waste_basket"}},"type":"Feature"},
	{"geometry":{"coordinates":[-79.486539,43.613718],"type":"Point"},"properties":{"osm_id":"6557806991","tag":{"amenity":"waste_basket"}},"type":"Feature"},
	{"geometry":{"coordinates":[-79.51917,43.638851],"type":"Point"},"properties":{"osm_id":"6558578517","tag":{"amenity":"waste_basket"}},"type":"Feature"},
	{"geometry":{"coordinates":[-79.538996,43.637586],"type":"Point"},"properties":{"osm_id":"6561947433","tag":{"amenity":"waste_basket"}},"type":"Feature"},
	{"geometry":{"coordinates":[-79.490097,43.628716],"type":"Point"},"properties":{"osm_id":"6562651974","tag":{"amenity":"waste_basket"}},"type":"Feature"},
	{"geometry":{"coordinates":[-79.484296,43.624304],"type":"Point"},"properties":{"osm_id":"6562651977","tag":{"amenity":"waste_basket"}},"type":"Feature"},
	{"geometry":{"coordinates":[-79.486476,43.619189],"type":"Point"},"properties":{"osm_id":"6566767934","tag":{"amenity":"waste_basket"}},"type":"Feature"},
	{"geometry":{"coordinates":[-79.476905,43.626742],"type":"Point"},"properties":{"osm_id":"6568064927","tag":{"amenity":"waste_basket"}},"type":"Feature"},
	{"geometry":{"coordinates":[-79.476797,43.627047],"type":"Point"},"properties":{"osm_id":"6568064929","tag":{"amenity":"waste_basket"}},"type":"Feature"},
	{"geometry":{"coordinates":[-79.476515,43.627979],"type":"Point"},"properties":{"osm_id":"6568064932","tag":{"amenity":"waste_basket"}},"type":"Feature"},
	{"geometry":{"coordinates":[-79.468412,43.634319],"type":"Point"},"properties":{"osm_id":"6568064940","tag":{"amenity":"waste_basket"}},"type":"Feature"},
	{"geometry":{"coordinates":[-79.468116,43.634475],"type":"Point"},"properties":{"osm_id":"6568064941","tag":{"amenity":"waste_basket"}},"type":"Feature"},
	{"geometry":{"coordinates":[-79.467839,43.634619],"type":"Point"},"properties":{"osm_id":"6568064942","tag":{"amenity":"waste_basket"}},"type":"Feature"},
	{"geometry":{"coordinates":[-79.467011,43.634951],"type":"Point"},"properties":{"osm_id":"6568064943","tag":{"amenity":"waste_basket"}},"type":"Feature"},
	{"geometry":{"coordinates":[-79.466368,43.635197],"type":"Point"},"properties":{"osm_id":"6568064944","tag":{"amenity":"waste_basket"}},"type":"Feature"},
	{"geometry":{"coordinates":[-79.465176,43.635924],"type":"Point"},"properties":{"osm_id":"6568064945","tag":{"amenity":"waste_basket"}},"type":"Feature"},
	{"geometry":{"coordinates":[-79.463474,43.636358],"type":"Point"},"properties":{"osm_id":"6568064949","tag":{"amenity":"waste_basket"}},"type":"Feature"},
	{"geometry":{"coordinates":[-79.462507,43.636886],"type":"Point"},"properties":{"osm_id":"6568064951","tag":{"amenity":"waste_basket"}},"type":"Feature"},
	{"geometry":{"coordinates":[-79.463121,43.636568],"type":"Point"},"properties":{"osm_id":"6568064953","tag":{"amenity":"waste_basket"}},"type":"Feature"},
	{"geometry":{"coordinates":[-79.462732,43.63619],"type":"Point"},"properties":{"osm_id":"6568064956","tag":{"amenity":"waste_basket"}},"type":"Feature"},
	{"geometry":{"coordinates":[-79.499771,43.620052],"type":"Point"},"properties":{"osm_id":"6568686839","tag":{"amenity":"waste_basket"}},"type":"Feature"},
	{"geometry":{"coordinates":[-79.483162,43.620722],"type":"Point"},"properties":{"osm_id":"6568686843","tag":{"amenity":"waste_basket"}},"type":"Feature"},
	{"geometry":{"coordinates":[-79.482495,43.621454],"type":"Point"},"properties":{"osm_id":"6568686844","tag":{"amenity":"waste_basket"}},"type":"Feature"},
	{"geometry":{"coordinates":[-79.460637,43.637144],"type":"Point"},"properties":{"osm_id":"6575766036","tag":{"amenity":"waste_basket"}},"type":"Feature"},
	{"geometry":{"coordinates":[-79.459375,43.637078],"type":"Point"},"properties":{"osm_id":"6575766037","tag":{"amenity":"waste_basket"}},"type":"Feature"},
	{"geometry":{"coordinates":[-79.457782,43.637453],"type":"Point"},"properties":{"osm_id":"6575766045","tag":{"amenity":"waste_basket"}},"type":"Feature"},
	{"geometry":{"coordinates":[-79.457432,43.637801],"type":"Point"},"properties":{"osm_id":"6575766046","tag":{"amenity":"waste_basket"}},"type":"Feature"},
	{"geometry":{"coordinates":[-79.456906,43.637861],"type":"Point"},"properties":{"osm_id":"6575766048","tag":{"amenity":"waste_basket"}},"type":"Feature"},
	{"geometry":{"coordinates":[-79.455032,43.637924],"type":"Point"},"properties":{"osm_id":"6575766056","tag":{"amenity":"waste_basket"}},"type":"Feature"},
	{"geometry":{"coordinates":[-79.45405,43.637868],"type":"Point"},"properties":{"osm_id":"6575766057","tag":{"amenity":"waste_basket"}},"type":"Feature"},
	{"geometry":{"coordinates":[-79.47638,43.642807],"type":"Point"},"properties":{"osm_id":"6577020280","tag":{"amenity":"waste_basket"}},"type":"Feature"},
	{"geometry":{"coordinates":[-79.505638,43.621222],"type":"Point"},"properties":{"osm_id":"6581341618","tag":{"amenity":"waste_basket"}},"type":"Feature"},
	{"geometry":{"coordinates":[-79.471746,43.637639],"type":"Point"},"properties":{"osm_id":"6604009576","tag":{"amenity":"waste_basket"}},"type":"Feature"},
	{"geometry":{"coordinates":[-79.472409,43.638305],"type":"Point"},"properties":{"osm_id":"6604009579","tag":{"amenity":"waste_basket"}},"type":"Feature"},
	{"geometry":{"coordinates":[-79.473834,43.639491],"type":"Point"},"properties":{"osm_id":"6604009582","tag":{"amenity":"waste_basket"}},"type":"Feature"},
	{"geometry":{"coordinates":[-79.474309,43.640002],"type":"Point"},"properties":{"osm_id":"6604017486","tag":{"amenity":"waste_basket"}},"type":"Feature"},
	{"geometry":{"coordinates":[-79.475948,43.639177],"type":"Point"},"properties":{"osm_id":"6617867830","tag":{"amenity":"waste_basket"}},"type":"Feature"},
	{"geometry":{"coordinates":[-79.529741,43.595571],"type":"Point"},"properties":{"osm_id":"6620668055","tag":{"amenity":"waste_basket"}},"type":"Feature"},
	{"geometry":{"coordinates":[-79.512344,43.641326],"type":"Point"},"properties":{"osm_id":"6632367227","tag":{"amenity":"waste_basket"}},"type":"Feature"},
	{"geometry":{"coordinates":[-79.49563,43.630949],"type":"Point"},"properties":{"osm_id":"6632367248","tag":{"amenity":"waste_basket"}},"type":"Feature"},
	{"geometry":{"coordinates":[-79.514503,43.642279],"type":"Point"},"properties":{"osm_id":"6632481659","tag":{"amenity":"waste_basket"}},"type":"Feature"},
	{"geometry":{"coordinates":[-79.485723,43.634027],"type":"Point"},"properties":{"osm_id":"6647295367","tag":{"amenity":"waste_basket"}},"type":"Feature"},
	{"geometry":{"coordinates":[-79.486423,43.635335],"type":"Point"},"properties":{"osm_id":"6647295373","tag":{"amenity":"waste_basket"}},"type":"Feature"},
	{"geometry":{"coordinates":[-79.486186,43.635268],"type":"Point"},"properties":{"osm_id":"6647295374","tag":{"amenity":"waste_basket"}},"type":"Feature"},
	{"geometry":{"coordinates":[-79.490815,43.640904],"type":"Point"},"properties":{"osm_id":"6647305047","tag":{"amenity":"waste_basket"}},"type":"Feature"},
	{"geometry":{"coordinates":[-79.488689,43.637282],"type":"Point"},"properties":{"osm_id":"6647305050","tag":{"amenity":"waste_basket"}},"type":"Feature"},
	{"geometry":{"coordinates":[-79.489901,43.637019],"type":"Point"},"properties":{"osm_id":"6647305060","tag":{"amenity":"waste_basket"}},"type":"Feature"},
	{"geometry":{"coordinates":[-79.496072,43.638493],"type":"Point"},"properties":{"osm_id":"6648140486","tag":{"amenity":"waste_basket"}},"type":"Feature"},
	{"geometry":{"coordinates":[-79.487023,43.637296],"type":"Point"},"properties":{"osm_id":"6648140534","tag":{"amenity":"waste_basket"}},"type":"Feature"},
	{"geometry":{"coordinates":[-79.487485,43.637366],"type":"Point"},"properties":{"osm_id":"6648140536","tag":{"amenity":"waste_basket"}},"type":"Feature"},
	{"geometry":{"coordinates":[-79.490474,43.636722],"type":"Point"},"properties":{"osm_id":"6648140539","tag":{"amenity":"waste_basket"}},"type":"Feature"},
	{"geometry":{"coordinates":[-79.515132,43.638017],"type":"Point"},"properties":{"osm_id":"6648140551","tag":{"amenity":"waste_basket"}},"type":"Feature"},
	{"geometry":{"coordinates":[-79.515319,43.638638],"type":"Point"},"properties":{"osm_id":"6648140555","tag":{"amenity":"waste_basket"}},"type":"Feature"},
	{"geometry":{"coordinates":[-79.514263,43.638204],"type":"Point"},"properties":{"osm_id":"6648140556","tag":{"amenity":"waste_basket"}},"type":"Feature"},
	{"geometry":{"coordinates":[-79.540041,43.636427],"type":"Point"},"properties":{"osm_id":"6651610274","tag":{"amenity":"waste_basket"}},"type":"Feature"},
	{"geometry":{"coordinates":[-79.489108,43.635924],"type":"Point"},"properties":{"osm_id":"6652864647","tag":{"amenity":"waste_basket"}},"type":"Feature"},
	{"geometry":{"coordinates":[-79.467866,43.639193],"type":"Point"},"properties":{"osm_id":"6662989149","tag":{"amenity":"waste_basket"}},"type":"Feature"},
	{"geometry":{"coordinates":[-79.454306,43.639968],"type":"Point"},"properties":{"osm_id":"6682413162","tag":{"amenity":"waste_basket"}},"type":"Feature"},
	{"geometry":{"coordinates":[-79.539107,43.636977],"type":"Point"},"properties":{"osm_id":"6715947849","tag":{"amenity":"waste_basket"}},"type":"Feature"},
	{"geometry":{"coordinates":[-79.5401,43.63584],"type":"Point"},"properties":{"osm_id":"6717302321","tag":{"amenity":"waste_basket"}},"type":"Feature"},
	{"geometry":{"coordinates":[-79.538169,43.638052],"type":"Point"},"properties":{"osm_id":"6717302324","tag":{"amenity":"waste_basket"}},"type":"Feature"},
	{"geometry":{"coordinates":[-79.537049,43.61165],"type":"Point"},"properties":{"osm_id":"6725258728","tag":{"amenity":"waste_basket"}},"type":"Feature"},
	{"geometry":{"coordinates":[-79.536594,43.611555],"type":"Point"},"properties":{"osm_id":"6725258729","tag":{"amenity":"waste_basket"}},"type":"Feature"},
	{"geometry":{"coordinates":[-79.495104,43.638806],"type":"Point"},"properties":{"osm_id":"6727053726","tag":{"amenity":"waste_basket"}},"type":"Feature"},
	{"geometry":{"coordinates":[-79.538897,43.637754],"type":"Point"},"properties":{"osm_id":"6737220743","tag":{"amenity":"waste_basket"}},"type":"Feature"},
	{"geometry":{"coordinates":[-79.538562,43.638225],"type":"Point"},"properties":{"osm_id":"6737220744","tag":{"amenity":"waste_basket"}},"type":"Feature"},
	{"geometry":{"coordinates":[-79.538401,43.638423],"type":"Point"},"properties":{"osm_id":"6737220745","tag":{"amenity":"waste_basket"}},"type":"Feature"},
	{"geometry":{"coordinates":[-79.501116,43.64154],"type":"Point"},"properties":{"osm_id":"6758020160","tag":{"amenity":"waste_basket"}},"type":"Feature"},
	{"geometry":{"coordinates":[-79.481345,43.620184],"type":"Point"},"properties":{"osm_id":"6774611503","tag":{"amenity":"waste_basket"}},"type":"Feature"},
	{"geometry":{"coordinates":[-79.515287,43.642001],"type":"Point"},"properties":{"osm_id":"6774734454","tag":{"amenity":"waste_basket"}},"type":"Feature"},
	{"geometry":{"coordinates":[-79.458101,43.639944],"type":"Point"},"properties":{"osm_id":"6775135685","tag":{"amenity":"waste_basket"}},"type":"Feature"},
	{"geometry":{"coordinates":[-79.455199,43.640094],"type":"Point"},"properties":{"osm_id":"6775135686","tag":{"amenity":"waste_basket"}},"type":"Feature"},
	{"geometry":{"coordinates":[-79.52905,43.620586],"type":"Point"},"properties":{"osm_id":"6833575386","tag":{"amenity":"waste_basket"}},"type":"Feature"},
	{"geometry":{"coordinates":[-79.517184,43.623237],"type":"Point"},"properties":{"osm_id":"6833575394","tag":{"amenity":"waste_basket"}},"type":"Feature"},
	{"geometry":{"coordinates":[-79.529164,43.588799],"type":"Point"},"properties":{"osm_id":"6851697742","tag":{"amenity":"waste_basket"}},"type":"Feature"},
	{"geometry":{"coordinates":[-79.530044,43.588494],"type":"Point"},"properties":{"osm_id":"6851697750","tag":{"amenity":"waste_basket"}},"type":"Feature"},
	{"geometry":{"coordinates":[-79.526724,43.591311],"type":"Point"},"properties":{"osm_id":"6851697762","tag":{"amenity":"waste_basket"}},"type":"Feature"},
	{"geometry":{"coordinates":[-79.50812,43.602664],"type":"Point"},"properties":{"osm_id":"6860770684","tag":{"amenity":"waste_basket"}},"type":"Feature"},
	{"geometry":{"coordinates":[-79.50758,43.626472],"type":"Point"},"properties":{"osm_id":"6906244451","tag":{"amenity":"waste_basket"}},"type":"Feature"},
	{"geometry":{"coordinates":[-79.507305,43.626366],"type":"Point"},"properties":{"osm_id":"6906244452","tag":{"amenity":"waste_basket"}},"type":"Feature"},
	{"geometry":{"coordinates":[-79.513065,43.62326],"type":"Point"},"properties":{"osm_id":"6906921610","tag":{"amenity":"waste_basket"}},"type":"Feature"},
	{"geometry":{"coordinates":[-79.501827,43.624184],"type":"Point"},"properties":{"osm_id":"6907143485","tag":{"amenity":"waste_basket"}},"type":"Feature"},
	{"geometry":{"coordinates":[-79.540392,43.592816],"type":"Point"},"properties":{"osm_id":"6917140102","tag":{"amenity":"waste_basket"}},"type":"Feature"},
	{"geometry":{"coordinates":[-79.476938,43.625866],"type":"Point"},"properties":{"osm_id":"6924854463","tag":{"amenity":"waste_basket"}},"type":"Feature"},
	{"geometry":{"coordinates":[-79.477426,43.624533],"type":"Point"},"properties":{"osm_id":"6924854483","tag":{"amenity":"waste_basket"}},"type":"Feature"},
	{"geometry":{"coordinates":[-79.477391,43.62391],"type":"Point"},"properties":{"osm_id":"6924879787","tag":{"amenity":"waste_basket"}},"type":"Feature"},
	{"geometry":{"coordinates":[-79.479878,43.622415],"type":"Point"},"properties":{"osm_id":"6924879790","tag":{"amenity":"waste_basket"}},"type":"Feature"},
	{"geometry":{"coordinates":[-79.48028,43.620822],"type":"Point"},"properties":{"osm_id":"6924879797","tag":{"amenity":"waste_basket"}},"type":"Feature"},
	{"geometry":{"coordinates":[-79.4805,43.619652],"type":"Point"},"properties":{"osm_id":"6924879798","tag":{"amenity":"waste_basket"}},"type":"Feature"},
	{"geometry":{"coordinates":[-79.478479,43.619211],"type":"Point"},"properties":{"osm_id":"6924879800","tag":{"amenity":"waste_basket"}},"type":"Feature"},
	{"geometry":{"coordinates":[-79.481123,43.619074],"type":"Point"},"properties":{"osm_id":"6924879822","tag":{"amenity":"waste_basket"}},"type":"Feature"},
	{"geometry":{"coordinates":[-79.480961,43.620377],"type":"Point"},"properties":{"osm_id":"6924879823","tag":{"amenity":"waste_basket"}},"type":"Feature"},
	{"geometry":{"coordinates":[-79.480407,43.619765],"type":"Point"},"properties":{"osm_id":"6924879824","tag":{"amenity":"waste_basket"}},"type":"Feature"},
	{"geometry":{"coordinates":[-79.480793,43.620014],"type":"Point"},"properties":{"osm_id":"6924879825","tag":{"amenity":"waste_basket"}},"type":"Feature"},
	{"geometry":{"coordinates":[-79.480404,43.620247],"type":"Point"},"properties":{"osm_id":"6924879827","tag":{"amenity":"waste_basket"}},"type":"Feature"},
	{"geometry":{"coordinates":[-79.479948,43.620366],"type":"Point"},"properties":{"osm_id":"6924879841","tag":{"amenity":"waste_basket"}},"type":"Feature"},
	{"geometry":{"coordinates":[-79.47702,43.619131],"type":"Point"},"properties":{"osm_id":"6924879842","tag":{"amenity":"waste_basket"}},"type":"Feature"},
	{"geometry":{"coordinates":[-79.478153,43.61947],"type":"Point"},"properties":{"osm_id":"6924879845","tag":{"amenity":"waste_basket"}},"type":"Feature"},
	{"geometry":{"coordinates":[-79.478026,43.619185],"type":"Point"},"properties":{"osm_id":"6924879848","tag":{"amenity":"waste_basket"}},"type":"Feature"},
	{"geometry":{"coordinates":[-79.463818,43.64294],"type":"Point"},"properties":{"osm_id":"6924952523","tag":{"amenity":"waste_basket"}},"type":"Feature"},
	{"geometry":{"coordinates":[-79.461687,43.641473],"type":"Point"},"properties":{"osm_id":"6924952524","tag":{"amenity":"waste_basket"}},"type":"Feature"},
	{"geometry":{"coordinates":[-79.461931,43.641671],"type":"Point"},"properties":{"osm_id":"6924952535","tag":{"amenity":"waste_basket"}},"type":"Feature"},
	{"geometry":{"coordinates":[-79.4619,43.641247],"type":"Point"},"properties":{"osm_id":"6924952536","tag":{"amenity":"waste_basket"}},"type":"Feature"},
	{"geometry":{"coordinates":[-79.461204,43.64099],"type":"Point"},"properties":{"osm_id":"6924952538","tag":{"amenity":"waste_basket"}},"type":"Feature"},
	{"geometry":{"coordinates":[-79.493321,43.603453],"type":"Point"},"properties":{"osm_id":"6925658671","tag":{"amenity":"waste_basket"}},"type":"Feature"},
	{"geometry":{"coordinates":[-79.490412,43.60674],"type":"Point"},"properties":{"osm_id":"6925658672","tag":{"amenity":"waste_basket"}},"type":"Feature"},
	{"geometry":{"coordinates":[-79.487239,43.611972],"type":"Point"},"properties":{"osm_id":"6925658679","tag":{"amenity":"waste_basket"}},"type":"Feature"},
	{"geometry":{"coordinates":[-79.487101,43.612628],"type":"Point"},"properties":{"osm_id":"6925658680","tag":{"amenity":"waste_basket"}},"type":"Feature"},
	{"geometry":{"coordinates":[-79.486458,43.614313],"type":"Point"},"properties":{"osm_id":"6925678396","tag":{"amenity":"waste_basket"}},"type":"Feature"},
	{"geometry":{"coordinates":[-79.485084,43.617392],"type":"Point"},"properties":{"osm_id":"6925678404","tag":{"amenity":"waste_basket"}},"type":"Feature"},
	{"geometry":{"coordinates":[-79.482408,43.618593],"type":"Point"},"properties":{"osm_id":"6925678418","tag":{"amenity":"waste_basket"}},"type":"Feature"},
	{"geometry":{"coordinates":[-79.483159,43.642449],"type":"Point"},"properties":{"osm_id":"6957907968","tag":{"amenity":"waste_basket"}},"type":"Feature"},
	{"geometry":{"coordinates":[-79.528728,43.596357],"type":"Point"},"properties":{"osm_id":"6971962249","tag":{"amenity":"waste_basket"}},"type":"Feature"},
	{"geometry":{"coordinates":[-79.493641,43.610537],"type":"Point"},"properties":{"osm_id":"7055098595","tag":{"amenity":"waste_basket"}},"type":"Feature"},
	{"geometry":{"coordinates":[-79.494025,43.609552],"type":"Point"},"properties":{"osm_id":"7055098596","tag":{"amenity":"waste_basket"}},"type":"Feature"},
	{"geometry":{"coordinates":[-79.512771,43.618278],"type":"Point"},"properties":{"osm_id":"7516269717","tag":{"amenity":"waste_basket"}},"type":"Feature"},
	{"geometry":{"coordinates":[-79.511024,43.618576],"type":"Point"},"properties":{"osm_id":"7516269718","tag":{"amenity":"waste_basket"}},"type":"Feature"},
	{"geometry":{"coordinates":[-79.498527,43.616878],"type":"Point"},"properties":{"osm_id":"7516269760","tag":{"amenity":"waste_basket"}},"type":"Feature"},
	{"geometry":{"coordinates":[-79.497643,43.615055],"type":"Point"},"properties":{"osm_id":"7516269761","tag":{"amenity":"waste_basket"}},"type":"Feature"},
	{"geometry":{"coordinates":[-79.496253,43.612397],"type":"Point"},"properties":{"osm_id":"7516269763","tag":{"amenity":"waste_basket"}},"type":"Feature"},
	{"geometry":{"coordinates":[-79.494209,43.606803],"type":"Point"},"properties":{"osm_id":"7516269777","tag":{"amenity":"waste_basket"}},"type":"Feature"},
	{"geometry":{"coordinates":[-79.49355,43.604443],"type":"Point"},"properties":{"osm_id":"7516269783","tag":{"amenity":"waste_basket"}},"type":"Feature"},
	{"geometry":{"coordinates":[-79.494078,43.605707],"type":"Point"},"properties":{"osm_id":"7516269784","tag":{"amenity":"waste_basket"}},"type":"Feature"},
	{"geometry":{"coordinates":[-79.494889,43.607646],"type":"Point"},"properties":{"osm_id":"7516274087","tag":{"amenity":"waste_basket"}},"type":"Feature"},
	{"geometry":{"coordinates":[-79.495975,43.610252],"type":"Point"},"properties":{"osm_id":"7516274088","tag":{"amenity":"waste_basket"}},"type":"Feature"},
	{"geometry":{"coordinates":[-79.496981,43.61258],"type":"Point"},"properties":{"osm_id":"7516274098","tag":{"amenity":"waste_basket"}},"type":"Feature"},
	{"geometry":{"coordinates":[-79.498346,43.615904],"type":"Point"},"properties":{"osm_id":"7516274125","tag":{"amenity":"waste_basket"}},"type":"Feature"},
	{"geometry":{"coordinates":[-79.49885,43.617042],"type":"Point"},"properties":{"osm_id":"7516274126","tag":{"amenity":"waste_basket"}},"type":"Feature"},
	{"geometry":{"coordinates":[-79.499064,43.617627],"type":"Point"},"properties":{"osm_id":"7516274128","tag":{"amenity":"waste_basket"}},"type":"Feature"},
	{"geometry":{"coordinates":[-79.49968,43.619051],"type":"Point"},"properties":{"osm_id":"7516274129","tag":{"amenity":"waste_basket"}},"type":"Feature"},
	{"geometry":{"coordinates":[-79.499837,43.61947],"type":"Point"},"properties":{"osm_id":"7516274131","tag":{"amenity":"waste_basket"}},"type":"Feature"},
	{"geometry":{"coordinates":[-79.500313,43.620626],"type":"Point"},"properties":{"osm_id":"7516274140","tag":{"amenity":"waste_basket"}},"type":"Feature"},
	{"geometry":{"coordinates":[-79.500736,43.621481],"type":"Point"},"properties":{"osm_id":"7516274141","tag":{"amenity":"waste_basket"}},"type":"Feature"},
	{"geometry":{"coordinates":[-79.536095,43.613678],"type":"Point"},"properties":{"osm_id":"7518730388","tag":{"amenity":"waste_basket"}},"type":"Feature"},
	{"geometry":{"coordinates":[-79.530248,43.614808],"type":"Point"},"properties":{"osm_id":"7518730395","tag":{"amenity":"waste_basket"}},"type":"Feature"},
	{"geometry":{"coordinates":[-79.530224,43.614999],"type":"Point"},"properties":{"osm_id":"7518730398","tag":{"amenity":"waste_basket"}},"type":"Feature"},
	{"geometry":{"coordinates":[-79.528384,43.615408],"type":"Point"},"properties":{"osm_id":"7518730402","tag":{"amenity":"waste_basket"}},"type":"Feature"},
	{"geometry":{"coordinates":[-79.525023,43.616084],"type":"Point"},"properties":{"osm_id":"7518730408","tag":{"amenity":"waste_basket"}},"type":"Feature"},
	{"geometry":{"coordinates":[-79.52459,43.616193],"type":"Point"},"properties":{"osm_id":"7518730409","tag":{"amenity":"waste_basket"}},"type":"Feature"},
	{"geometry":{"coordinates":[-79.524094,43.616082],"type":"Point"},"properties":{"osm_id":"7518730412","tag":{"amenity":"waste_basket"}},"type":"Feature"},
	{"geometry":{"coordinates":[-79.518446,43.617177],"type":"Point"},"properties":{"osm_id":"7518730421","tag":{"amenity":"waste_basket"}},"type":"Feature"},
	{"geometry":{"coordinates":[-79.498672,43.602146],"type":"Point"},"properties":{"osm_id":"7523597225","tag":{"amenity":"waste_basket"}},"type":"Feature"},
	{"geometry":{"coordinates":[-79.49927,43.601985],"type":"Point"},"properties":{"osm_id":"7523597227","tag":{"amenity":"waste_basket"}},"type":"Feature"},
	{"geometry":{"coordinates":[-79.499622,43.601908],"type":"Point"},"properties":{"osm_id":"7523597228","tag":{"amenity":"waste_basket"}},"type":"Feature"},
	{"geometry":{"coordinates":[-79.500916,43.601627],"type":"Point"},"properties":{"osm_id":"7523597230","tag":{"amenity":"waste_basket"}},"type":"Feature"},
	{"geometry":{"coordinates":[-79.501647,43.601462],"type":"Point"},"properties":{"osm_id":"7523597233","tag":{"amenity":"waste_basket"}},"type":"Feature"},
	{"geometry":{"coordinates":[-79.50204,43.601381],"type":"Point"},"properties":{"osm_id":"7523597237","tag":{"amenity":"waste_basket"}},"type":"Feature"},
	{"geometry":{"coordinates":[-79.502822,43.601206],"type":"Point"},"properties":{"osm_id":"7523597241","tag":{"amenity":"waste_basket"}},"type":"Feature"},
	{"geometry":{"coordinates":[-79.50313,43.601137],"type":"Point"},"properties":{"osm_id":"7523597245","tag":{"amenity":"waste_basket"}},"type":"Feature"},
	{"geometry":{"coordinates":[-79.504396,43.600854],"type":"Point"},"properties":{"osm_id":"7523597246","tag":{"amenity":"waste_basket"}},"type":"Feature"},
	{"geometry":{"coordinates":[-79.504745,43.600775],"type":"Point"},"properties":{"osm_id":"7523597247","tag":{"amenity":"waste_basket"}},"type":"Feature"},
	{"geometry":{"coordinates":[-79.505548,43.600598],"type":"Point"},"properties":{"osm_id":"7523597250","tag":{"amenity":"waste_basket"}},"type":"Feature"},
	{"geometry":{"coordinates":[-79.506227,43.600452],"type":"Point"},"properties":{"osm_id":"7523597251","tag":{"amenity":"waste_basket"}},"type":"Feature"},
	{"geometry":{"coordinates":[-79.50659,43.600366],"type":"Point"},"properties":{"osm_id":"7523597253","tag":{"amenity":"waste_basket"}},"type":"Feature"},
	{"geometry":{"coordinates":[-79.507399,43.600186],"type":"Point"},"properties":{"osm_id":"7523597255","tag":{"amenity":"waste_basket"}},"type":"Feature"},
	{"geometry":{"coordinates":[-79.507721,43.600115],"type":"Point"},"properties":{"osm_id":"7523597256","tag":{"amenity":"waste_basket"}},"type":"Feature"},
	{"geometry":{"coordinates":[-79.508441,43.599968],"type":"Point"},"properties":{"osm_id":"7523597257","tag":{"amenity":"waste_basket"}},"type":"Feature"},
	{"geometry":{"coordinates":[-79.508354,43.600183],"type":"Point"},"properties":{"osm_id":"7523597260","tag":{"amenity":"waste_basket"}},"type":"Feature"},
	{"geometry":{"coordinates":[-79.507406,43.600393],"type":"Point"},"properties":{"osm_id":"7523597262","tag":{"amenity":"waste_basket"}},"type":"Feature"},
	{"geometry":{"coordinates":[-79.50671,43.600544],"type":"Point"},"properties":{"osm_id":"7523597263","tag":{"amenity":"waste_basket"}},"type":"Feature"},
	{"geometry":{"coordinates":[-79.506384,43.600694],"type":"Point"},"properties":{"osm_id":"7523597265","tag":{"amenity":"waste_basket"}},"type":"Feature"},
	{"geometry":{"coordinates":[-79.506235,43.600645],"type":"Point"},"properties":{"osm_id":"7523597266","tag":{"amenity":"waste_basket"}},"type":"Feature"},
	{"geometry":{"coordinates":[-79.503976,43.601145],"type":"Point"},"properties":{"osm_id":"7523597271","tag":{"amenity":"waste_basket"}},"type":"Feature"},
	{"geometry":{"coordinates":[-79.503187,43.601323],"type":"Point"},"properties":{"osm_id":"7523597274","tag":{"amenity":"waste_basket"}},"type":"Feature"},
	{"geometry":{"coordinates":[-79.502782,43.601404],"type":"Point"},"properties":{"osm_id":"7523597276","tag":{"amenity":"waste_basket"}},"type":"Feature"},
	{"geometry":{"coordinates":[-79.5021,43.601561],"type":"Point"},"properties":{"osm_id":"7523597279","tag":{"amenity":"waste_basket"}},"type":"Feature"},
	{"geometry":{"coordinates":[-79.501362,43.601721],"type":"Point"},"properties":{"osm_id":"7523597282","tag":{"amenity":"waste_basket"}},"type":"Feature"},
	{"geometry":{"coordinates":[-79.500439,43.601924],"type":"Point"},"properties":{"osm_id":"7523597284","tag":{"amenity":"waste_basket"}},"type":"Feature"},
	{"geometry":{"coordinates":[-79.499429,43.602174],"type":"Point"},"properties":{"osm_id":"7523671487","tag":{"amenity":"waste_basket"}},"type":"Feature"},
	{"geometry":{"coordinates":[-79.490437,43.608706],"type":"Point"},"properties":{"osm_id":"7523671492","tag":{"amenity":"waste_basket"}},"type":"Feature"},
	{"geometry":{"coordinates":[-79.532897,43.614217],"type":"Point"},"properties":{"osm_id":"7546167133","tag":{"amenity":"waste_basket"}},"type":"Feature"},
	{"geometry":{"coordinates":[-79.536572,43.613387],"type":"Point"},"properties":{"osm_id":"7546167135","tag":{"amenity":"waste_basket"}},"type":"Feature"},
	{"geometry":{"coordinates":[-79.53894,43.612853],"type":"Point"},"properties":{"osm_id":"7546167137","tag":{"amenity":"waste_basket"}},"type":"Feature"},
	{"geometry":{"coordinates":[-79.51998,43.639744],"type":"Point"},"properties":{"osm_id":"7546167151","tag":{"amenity":"waste_basket"}},"type":"Feature"},
	{"geometry":{"coordinates":[-79.519736,43.639152],"type":"Point"},"properties":{"osm_id":"7546167152","tag":{"amenity":"waste_basket"}},"type":"Feature"},
	{"geometry":{"coordinates":[-79.5193,43.638265],"type":"Point"},"properties":{"osm_id":"7546167155","tag":{"amenity":"waste_basket"}},"type":"Feature"},
	{"geometry":{"coordinates":[-79.481265,43.622667],"type":"Point"},"properties":{"osm_id":"7550276526","tag":{"amenity":"waste_basket"}},"type":"Feature"},
	{"geometry":{"coordinates":[-79.535952,43.594038],"type":"Point"},"properties":{"osm_id":"7560050863","tag":{"amenity":"waste_basket"}},"type":"Feature"},
	{"geometry":{"coordinates":[-79.515344,43.594538],"type":"Point"},"properties":{"osm_id":"7570784592","tag":{"amenity":"waste_basket"}},"type":"Feature"},
	{"geometry":{"coordinates":[-79.516106,43.594306],"type":"Point"},"properties":{"osm_id":"7570784593","tag":{"amenity":"waste_basket"}},"type":"Feature"},
	{"geometry":{"coordinates":[-79.511621,43.590907],"type":"Point"},"properties":{"osm_id":"7570784594","tag":{"amenity":"waste_basket","colour":"black"}},"type":"Feature"},
	{"geometry":{"coordinates":[-79.511077,43.591937],"type":"Point"},"properties":{"osm_id":"7570784595","tag":{"amenity":"waste_basket","colour":"black"}},"type":"Feature"},
	{"geometry":{"coordinates":[-79.51227,43.592458],"type":"Point"},"properties":{"osm_id":"7570784596","tag":{"amenity":"waste_basket"}},"type":"Feature"},
	{"geometry":{"coordinates":[-79.513055,43.592031],"type":"Point"},"properties":{"osm_id":"7570784597","tag":{"amenity":"waste_basket"}},"type":"Feature"},
	{"geometry":{"coordinates":[-79.515572,43.59229],"type":"Point"},"properties":{"osm_id":"7570784598","tag":{"amenity":"waste_basket"}},"type":"Feature"},
	{"geometry":{"coordinates":[-79.515934,43.593338],"type":"Point"},"properties":{"osm_id":"7570784599","tag":{"amenity":"waste_basket"}},"type":"Feature"},
	{"geometry":{"coordinates":[-79.516532,43.593197],"type":"Point"},"properties":{"osm_id":"7570784600","tag":{"amenity":"waste_basket"}},"type":"Feature"},
	{"geometry":{"coordinates":[-79.508942,43.599858],"type":"Point"},"properties":{"osm_id":"7570784601","tag":{"amenity":"waste_basket"}},"type":"Feature"},
	{"geometry":{"coordinates":[-79.509457,43.599737],"type":"Point"},"properties":{"osm_id":"7570784602","tag":{"amenity":"waste_basket"}},"type":"Feature"},
	{"geometry":{"coordinates":[-79.50984,43.599654],"type":"Point"},"properties":{"osm_id":"7570784603","tag":{"amenity":"waste_basket"}},"type":"Feature"},
	{"geometry":{"coordinates":[-79.51025,43.599572],"type":"Point"},"properties":{"osm_id":"7570784604","tag":{"amenity":"waste_basket"}},"type":"Feature"},
	{"geometry":{"coordinates":[-79.511517,43.599276],"type":"Point"},"properties":{"osm_id":"7570784605","tag":{"amenity":"waste_basket"}},"type":"Feature"},
	{"geometry":{"coordinates":[-79.512055,43.599155],"type":"Point"},"properties":{"osm_id":"7570784607","tag":{"amenity":"waste_basket"}},"type":"Feature"},
	{"geometry":{"coordinates":[-79.540509,43.602853],"type":"Point"},"properties":{"osm_id":"7570784639","tag":{"amenity":"waste_basket"}},"type":"Feature"},
	{"geometry":{"coordinates":[-79.538242,43.603368],"type":"Point"},"properties":{"osm_id":"7570784643","tag":{"amenity":"waste_basket"}},"type":"Feature"},
	{"geometry":{"coordinates":[-79.536872,43.603667],"type":"Point"},"properties":{"osm_id":"7570784645","tag":{"amenity":"waste_basket"}},"type":"Feature"},
	{"geometry":{"coordinates":[-79.536307,43.603802],"type":"Point"},"properties":{"osm_id":"7570784649","tag":{"amenity":"waste_basket"}},"type":"Feature"},
	{"geometry":{"coordinates":[-79.531281,43.604983],"type":"Point"},"properties":{"osm_id":"7570784658","tag":{"amenity":"waste_basket"}},"type":"Feature"},
	{"geometry":{"coordinates":[-79.528773,43.605486],"type":"Point"},"properties":{"osm_id":"7570784662","tag":{"amenity":"waste_basket"}},"type":"Feature"},
	{"geometry":{"coordinates":[-79.528798,43.605286],"type":"Point"},"properties":{"osm_id":"7570784665","tag":{"amenity":"waste_basket"}},"type":"Feature"},
	{"geometry":{"coordinates":[-79.531642,43.604659],"type":"Point"},"properties":{"osm_id":"7570784670","tag":{"amenity":"waste_basket"}},"type":"Feature"},
	{"geometry":{"coordinates":[-79.533384,43.604259],"type":"Point"},"properties":{"osm_id":"7570784672","tag":{"amenity":"waste_basket"}},"type":"Feature"},
	{"geometry":{"coordinates":[-79.534258,43.5882],"type":"Point"},"properties":{"osm_id":"7837386499","tag":{"amenity":"waste_basket"}},"type":"Feature"},
	{"geometry":{"coordinates":[-79.534301,43.588216],"type":"Point"},"properties":{"osm_id":"7837386502","tag":{"amenity":"recycling"}},"type":"Feature"},
	{"geometry":{"coordinates":[-79.531816,43.590527],"type":"Point"},"properties":{"osm_id":"7837414879","tag":{"amenity":"recycling"}},"type":"Feature"},
	{"geometry":{"coordinates":[-79.531877,43.590515],"type":"Point"},"properties":{"osm_id":"7837414882","tag":{"amenity":"waste_basket"}},"type":"Feature"},
	{"geometry":{"coordinates":[-79.512676,43.590736],"type":"Point"},"properties":{"osm_id":"7837418328","tag":{"amenity":"recycling","colour":"blue"}},"type":"Feature"},
	{"geometry":{"coordinates":[-79.51265,43.590702],"type":"Point"},"properties":{"osm_id":"7837418330","tag":{"amenity":"waste_basket","colour":"black"}},"type":"Feature"},
	{"geometry":{"coordinates":[-79.525209,43.590401],"type":"Point"},"properties":{"osm_id":"7837419397","tag":{"amenity":"waste_basket","colour":"black"}},"type":"Feature"},
	{"geometry":{"coordinates":[-79.525189,43.590373],"type":"Point"},"properties":{"osm_id":"7837419398","tag":{"amenity":"recycling","colour":"blue"}},"type":"Feature"},
	{"geometry":{"coordinates":[-79.517171,43.590748],"type":"Point"},"properties":{"osm_id":"7837419401","tag":{"amenity":"waste_basket","colour":"black"}},"type":"Feature"},
	{"geometry":{"coordinates":[-79.517145,43.590755],"type":"Point"},"properties":{"osm_id":"7837419405","tag":{"amenity":"recycling","colour":"blue"}},"type":"Feature"},
	{"geometry":{"coordinates":[-79.529167,43.588821],"type":"Point"},"properties":{"osm_id":"7837441723","tag":{"amenity":"waste_basket"}},"type":"Feature"},
	{"geometry":{"coordinates":[-79.510526,43.594247],"type":"Point"},"properties":{"osm_id":"7837458063","tag":{"amenity":"waste_basket","colour":"black"}},"type":"Feature"},
	{"geometry":{"coordinates":[-79.510475,43.59425],"type":"Point"},"properties":{"osm_id":"7837458068","tag":{"amenity":"recycling","colour":"blue"}},"type":"Feature"},
	{"geometry":{"coordinates":[-79.511671,43.590885],"type":"Point"},"properties":{"osm_id":"7837458854","tag":{"amenity":"recycling","colour":"blue"}},"type":"Feature"},
	{"geometry":{"coordinates":[-79.521198,43.590786],"type":"Point"},"properties":{"osm_id":"7837462059","tag":{"amenity":"waste_basket","colour":"black"}},"type":"Feature"},
	{"geometry":{"coordinates":[-79.521162,43.590788],"type":"Point"},"properties":{"osm_id":"7837462062","tag":{"amenity":"recycling","colour":"blue"}},"type":"Feature"},
	{"geometry":{"coordinates":[-79.518626,43.590946],"type":"Point"},"properties":{"osm_id":"7837503086","tag":{"amenity":"recycling","colour":"blue"}},"type":"Feature"},
	{"geometry":{"coordinates":[-79.518649,43.590916],"type":"Point"},"properties":{"osm_id":"7837503088","tag":{"amenity":"waste_basket","colour":"black"}},"type":"Feature"},
	{"geometry":{"coordinates":[-79.513664,43.59064],"type":"Point"},"properties":{"osm_id":"7837510478","tag":{"amenity":"waste_basket","colour":"black"}},"type":"Feature"},
	{"geometry":{"coordinates":[-79.514396,43.590455],"type":"Point"},"properties":{"osm_id":"7837510480","tag":{"amenity":"waste_basket","colour":"black"}},"type":"Feature"},
	{"geometry":{"coordinates":[-79.513635,43.59064],"type":"Point"},"properties":{"osm_id":"7837510481","tag":{"amenity":"recycling","colour":"blue"}},"type":"Feature"},
	{"geometry":{"coordinates":[-79.514376,43.590458],"type":"Point"},"properties":{"osm_id":"7837510483","tag":{"amenity":"recycling","colour":"blue"}},"type":"Feature"},
	{"geometry":{"coordinates":[-79.511125,43.591954],"type":"Point"},"properties":{"osm_id":"7837525211","tag":{"amenity":"waste_basket","colour":"black"}},"type":"Feature"},
	{"geometry":{"coordinates":[-79.511109,43.591987],"type":"Point"},"properties":{"osm_id":"7837525212","tag":{"amenity":"recycling","colour":"blue"}},"type":"Feature"},
	{"geometry":{"coordinates":[-79.511068,43.591973],"type":"Point"},"properties":{"osm_id":"7837525213","tag":{"amenity":"recycling","colour":"blue"}},"type":"Feature"},
	{"geometry":{"coordinates":[-79.512584,43.598204],"type":"Point"},"properties":{"osm_id":"7837553535","tag":{"amenity":"waste_basket","colour":"black"}},"type":"Feature"},
	{"geometry":{"coordinates":[-79.512568,43.598176],"type":"Point"},"properties":{"osm_id":"7837553536","tag":{"amenity":"recycling","colour":"blue"}},"type":"Feature"}
]
}
