{
"type": "FeatureCollection",
"features": [
	{"geometry":{"coordinates":[131.613746,33.232248],"type":"Point"},"properties":{"osm_id":"623059422","tag":{"amenity":"waste_basket","information":"braille"}},"type":"Feature"},
	{"geometry":{"coordinates":[131.650246,33.231794],"type":"Point"},"properties":{"osm_id":"1931912566","tag":{"amenity":"waste_basket","waste":"recycling"}},"type":"Feature"},
	{"geometry":{"coordinates":[131.654387,33.230052],"type":"Point"},"properties":{"osm_id":"2103428675","tag":{"amenity":"waste_basket"}},"type":"Feature"},
	{"geometry":{"coordinates":[131.606429,33.237672],"type":"Point"},"properties":{"name":"MOBIUS","osm_id":"2216220140","tag":{"amenity":"recycling","level":"0","recycling:clothes":"yes","website":"https://ameblo.jp/mobius-oita/"}},"type":"Feature"},
	{"geometry":{"coordinates":[131.605244,33.229713],"type":"Point"},"properties":{"osm_id":"4171902401","tag":{"amenity":"waste_disposal"}},"type":"Feature"},
	{"geometry":{"coordinates":[131.604809,33.229968],"type":"Point"},"properties":{"osm_id":"4171902472","tag":{"amenity":"waste_disposal"}},"type":"Feature"},
	{"geometry":{"coordinates":[131.607441,33.238622],"type":"Point"},"properties":{"osm_id":"4920816123","tag":{"amenity":"waste_basket"}},"type":"Feature"},
	{"geometry":{"coordinates":[131.653639,33.234897],"type":"Point"},"properties":{"osm_id":"5835892376","tag":{"amenity":"waste_basket"}},"type":"Feature"},
	{"geometry":{"coordinates":[131.6073,33.235061],"type":"Point"},"properties":{"osm_id":"5938823578","tag":{"amenity":"waste_basket"}},"type":"Feature"},
	{"geometry":{"coordinates":[131.607174,33.238611],"type":"Point"},"properties":{"osm_id":"6251777031","tag":{"amenity":"waste_basket"}},"type":"Feature"},
	{"geometry":{"coordinates":[131.638593,33.240508],"type":"Point"},"properties":{"osm_id":"7079619131","tag":{"access":"permit","amenity":"waste_disposal"}},"type":"Feature"},
	{"geometry":{"coordinates":[131.64825,33.218455],"type":"Point"},"properties":{"osm_id":"7087356150","tag":{"access":"private","amenity":"waste_disposal"}},"type":"Feature"},
	{"geometry":{"coordinates":[131.648787,33.218107],"type":"Point"},"properties":{"osm_id":"7087356151","tag":{"amenity":"waste_disposal"}},"type":"Feature"},
	{"geometry":{"coordinates":[131.614503,33.243275],"type":"Point"},"properties":{"osm_id":"7091765289","tag":{"access":"permit","amenity":"waste_disposal"}},"type":"Feature"},
	{"geometry":{"coordinates":[131.614371,33.244014],"type":"Point"},"properties":{"osm_id":"7091765290","tag":{"access":"permit","amenity":"waste_disposal"}},"type":"Feature"},
	{"geometry":{"coordinates":[131.6143,33.244507],"type":"Point"},"properties":{"osm_id":"7091765291","tag":{"access":"permit","amenity":"waste_disposal"}},"type":"Feature"},
	{"geometry":{"coordinates":[131.614252,33.245076],"type":"Point"},"properties":{"osm_id":"7091765292","tag":{"access":"permit","amenity":"waste_disposal"}},"type":"Feature"},
	{"geometry":{"coordinates":[131.614143,33.245633],"type":"Point"},"properties":{"osm_id":"7091765293","tag":{"access":"permit","amenity":"waste_disposal"}},"type":"Feature"},
	{"geometry":{"coordinates":[131.614595,33.242635],"type":"Point"},"properties":{"osm_id":"7091765342","tag":{"access":"permit","amenity":"waste_disposal"}},"type":"Feature"},
	{"geometry":{"coordinates":[131.614688,33.241949],"type":"Point"},"properties":{"osm_id":"7091765343","tag":{"access":"permit","amenity":"waste_disposal"}},"type":"Feature"}
]
}
