{
"type": "FeatureCollection",
"lastupdate": "2020-07-31T00:00:00Z",
"features": [
	{"geometry":{"coordinates":[20.483163,54.728615],"type":"Point"},"properties":{"osm_id":"1122002316","tag":{"amenity":"waste_basket"}},"type":"Feature"},
	{"geometry":{"coordinates":[20.482908,54.72865],"type":"Point"},"properties":{"osm_id":"1122002744","tag":{"amenity":"recycling","recycling:glass":"yes"}},"type":"Feature"},
	{"geometry":{"coordinates":[20.483071,54.728593],"type":"Point"},"properties":{"osm_id":"1122002914","tag":{"amenity":"waste_basket"}},"type":"Feature"},
	{"geometry":{"coordinates":[20.55923,54.750136],"type":"Point"},"properties":{"name":"\u00d0\u009e\u00d0\u009e\u00d0\u009e \u00d0\u009f\u00d0\u009e \u00d0\u00ad\u00d0\u009a\u00d0\u009e\u00d1\u0081\u00d0\u00b8\u00d1\u0081\u00d1\u0082\u00d0\u00b5\u00d0\u00bc\u00d0\u00b0","osm_id":"4391541889","tag":{"amenity":"recycling","name:ru":"\u041e\u041e\u041e \u041f\u041e \u042d\u041a\u041e\u0441\u0438\u0441\u0442\u0435\u043c\u0430","phone":"+7 981 4770177"}},"type":"Feature"},
	{"geometry":{"coordinates":[20.544359,54.760196],"type":"Point"},"properties":{"osm_id":"5483569116","tag":{"amenity":"waste_basket"}},"type":"Feature"},
	{"geometry":{"coordinates":[20.544418,54.760186],"type":"Point"},"properties":{"osm_id":"5483569117","tag":{"amenity":"waste_basket"}},"type":"Feature"},
	{"geometry":{"coordinates":[20.486546,54.725308],"type":"Point"},"properties":{"osm_id":"5694719096","tag":{"amenity":"recycling","opening_hours":"24/7","recycling:paper":"yes","recycling_type":"container"}},"type":"Feature"},
	{"geometry":{"coordinates":[20.490256,54.724684],"type":"Point"},"properties":{"osm_id":"5694724340","tag":{"amenity":"recycling","opening_hours":"24/7","recycling:batteries":"yes","recycling:fluorescent_tubes":"yes","recycling_type":"container","website":"http://www.rspoko.ru"}},"type":"Feature"},
	{"geometry":{"coordinates":[20.487148,54.752961],"type":"Point"},"properties":{"osm_id":"6707964064","tag":{"amenity":"recycling","recycling:plastic_bottles":"yes"}},"type":"Feature"}
]
}
