{
"type": "FeatureCollection",
"features": [
	{"geometry":{"coordinates":[20.552803,54.675104],"type":"Point"},"properties":{"osm_id":"1137925560","tag":{"amenity":"waste_basket"}},"type":"Feature"},
	{"geometry":{"coordinates":[20.515264,54.697744],"type":"Point"},"properties":{"osm_id":"3156318161","tag":{"amenity":"waste_disposal"}},"type":"Feature"},
	{"geometry":{"coordinates":[20.521969,54.690224],"type":"Point"},"properties":{"osm_id":"3486939759","tag":{"amenity":"waste_disposal"}},"type":"Feature"},
	{"geometry":{"coordinates":[20.480574,54.688743],"type":"Point"},"properties":{"osm_id":"4223623943","tag":{"amenity":"waste_disposal"}},"type":"Feature"},
	{"geometry":{"coordinates":[20.482399,54.695352],"type":"Point"},"properties":{"osm_id":"4223623944","tag":{"amenity":"waste_disposal"}},"type":"Feature"},
	{"geometry":{"coordinates":[20.486881,54.695649],"type":"Point"},"properties":{"osm_id":"4223623945","tag":{"amenity":"waste_disposal"}},"type":"Feature"},
	{"geometry":{"coordinates":[20.500125,54.698772],"type":"Point"},"properties":{"osm_id":"4223789072","tag":{"amenity":"waste_disposal"}},"type":"Feature"},
	{"geometry":{"coordinates":[20.504362,54.699844],"type":"Point"},"properties":{"osm_id":"4231674771","tag":{"amenity":"waste_disposal"}},"type":"Feature"},
	{"geometry":{"coordinates":[20.515457,54.703717],"type":"Point"},"properties":{"osm_id":"4327470193","tag":{"amenity":"waste_basket"}},"type":"Feature"},
	{"geometry":{"coordinates":[20.479716,54.719627],"type":"Point"},"properties":{"osm_id":"4442520692","tag":{"amenity":"waste_disposal"}},"type":"Feature"},
	{"geometry":{"coordinates":[20.480523,54.71952],"type":"Point"},"properties":{"osm_id":"4459637511","tag":{"amenity":"waste_disposal"}},"type":"Feature"},
	{"geometry":{"coordinates":[20.47973,54.71999],"type":"Point"},"properties":{"osm_id":"4459645097","tag":{"amenity":"waste_disposal"}},"type":"Feature"},
	{"geometry":{"coordinates":[20.530127,54.718166],"type":"Point"},"properties":{"osm_id":"4569293991","tag":{"amenity":"waste_basket"}},"type":"Feature"},
	{"geometry":{"coordinates":[20.513814,54.674287],"type":"Point"},"properties":{"osm_id":"6063435582","tag":{"amenity":"waste_disposal"}},"type":"Feature"},
	{"geometry":{"coordinates":[20.49691,54.70041],"type":"Point"},"properties":{"osm_id":"6989830553","tag":{"amenity":"recycling","operator":"\u00d0\u009e\u00d0\u009e\u00d0\u009e \"\u00d0\u00ad\u00d0\u00ba\u00d0\u00be\u00d0\u00bb\u00d0\u00be\u00d0\u00b3\u00d0\u00b8\u00d1\u0087\u00d0\u00b5\u00d1\u0081\u00d0\u00ba\u00d0\u00b0\u00d1\u008f \u00d0\u00b1\u00d0\u00b5\u00d0\u00b7\u00d0\u00be\u00d0\u00bf\u00d0\u00b0\u00d1\u0081\u00d0\u00bd\u00d0\u00be\u00d1\u0081\u00d1\u0082\u00d1\u008c\"","phone":"311-448","recycling:plastic_bottles":"yes","website":"www.ekobez-39.ru"}},"type":"Feature"},
	{"geometry":{"coordinates":[20.499044,54.696814],"type":"Point"},"properties":{"osm_id":"6989869515","tag":{"amenity":"recycling","recycling:plastic_bottles":"yes"}},"type":"Feature"},
	{"geometry":{"coordinates":[20.495903,54.699596],"type":"Point"},"properties":{"osm_id":"6989874326","tag":{"amenity":"recycling","recycling:batteries":"yes","recycling:plastic_bottles":"yes"}},"type":"Feature"},
	{"geometry":{"coordinates":[20.489591,54.715091],"type":"Point"},"properties":{"osm_id":"7255702318","tag":{"amenity":"recycling","opening_hours":"Mo-Fr 09:00-18:00","recycling:batteries":"yes","recycling:fluorescent_tubes":"yes","recycling_type":"container","website":"http://www.rspoko.ru"}},"type":"Feature"},
	{"geometry":{"coordinates":[20.517027,54.692978],"type":"Point"},"properties":{"osm_id":"7884337833","tag":{"amenity":"waste_basket"}},"type":"Feature"},
	{"geometry":{"coordinates":[20.517033,54.692897],"type":"Point"},"properties":{"osm_id":"7884337834","tag":{"amenity":"waste_basket"}},"type":"Feature"},
	{"geometry":{"coordinates":[20.516619,54.693801],"type":"Point"},"properties":{"osm_id":"7884337835","tag":{"amenity":"waste_basket"}},"type":"Feature"},
	{"geometry":{"coordinates":[20.517084,54.694108],"type":"Point"},"properties":{"osm_id":"7884337839","tag":{"amenity":"waste_basket"}},"type":"Feature"},
	{"geometry":{"coordinates":[20.516946,54.694773],"type":"Point"},"properties":{"osm_id":"7884337843","tag":{"amenity":"waste_basket"}},"type":"Feature"},
	{"geometry":{"coordinates":[20.516941,54.694851],"type":"Point"},"properties":{"osm_id":"7884337845","tag":{"amenity":"waste_basket"}},"type":"Feature"},
	{"geometry":{"coordinates":[20.516506,54.69516],"type":"Point"},"properties":{"osm_id":"7884337846","tag":{"amenity":"waste_basket"}},"type":"Feature"},
	{"geometry":{"coordinates":[20.516485,54.69542],"type":"Point"},"properties":{"osm_id":"7884337847","tag":{"amenity":"waste_basket"}},"type":"Feature"},
	{"geometry":{"coordinates":[20.516756,54.698149],"type":"Point"},"properties":{"osm_id":"7884337850","tag":{"amenity":"waste_basket"}},"type":"Feature"},
	{"geometry":{"coordinates":[20.515169,54.702603],"type":"Point"},"properties":{"osm_id":"7884376503","tag":{"amenity":"waste_basket"}},"type":"Feature"},
	{"geometry":{"coordinates":[20.51542,54.703285],"type":"Point"},"properties":{"osm_id":"7884376504","tag":{"amenity":"waste_basket"}},"type":"Feature"},
	{"geometry":{"coordinates":[20.515484,54.703531],"type":"Point"},"properties":{"osm_id":"7884376505","tag":{"amenity":"waste_basket"}},"type":"Feature"},
	{"geometry":{"coordinates":[20.515091,54.704769],"type":"Point"},"properties":{"osm_id":"7884376507","tag":{"amenity":"waste_basket"}},"type":"Feature"},
	{"geometry":{"coordinates":[20.515042,54.704813],"type":"Point"},"properties":{"osm_id":"7884376508","tag":{"amenity":"waste_basket"}},"type":"Feature"},
	{"geometry":{"coordinates":[20.517609,54.699335],"type":"Point"},"properties":{"osm_id":"7884377447","tag":{"amenity":"waste_basket"}},"type":"Feature"},
	{"geometry":{"coordinates":[20.517375,54.699042],"type":"Point"},"properties":{"osm_id":"7884377452","tag":{"amenity":"waste_basket"}},"type":"Feature"},
	{"geometry":{"coordinates":[20.517365,54.699036],"type":"Point"},"properties":{"osm_id":"7884377454","tag":{"amenity":"waste_basket"}},"type":"Feature"}
]
}
