{
"type": "FeatureCollection",
"features": [
	{"geometry":{"coordinates":[20.482415,48.710665],"type":"Point"},"properties":{"osm_id":"2741804416","tag":{"amenity":"recycling","recycling:clothes":"yes","recycling_type":"container"}},"type":"Feature"},
	{"geometry":{"coordinates":[20.545377,48.705377],"type":"Point"},"properties":{"osm_id":"5629422009","tag":{"amenity":"waste_basket","waste":"trash"}},"type":"Feature"},
	{"geometry":{"coordinates":[20.479095,48.711055],"type":"Point"},"properties":{"osm_id":"7921231563","tag":{"amenity":"recycling","recycling_type":"centre"}},"type":"Feature"},
	{"geometry":{"coordinates":[20.509624,48.705844],"type":"Point"},"properties":{"osm_id":"9049467966","tag":{"amenity":"waste_basket"}},"type":"Feature"},
	{"geometry":{"coordinates":[20.509401,48.705509],"type":"Point"},"properties":{"osm_id":"9049467968","tag":{"amenity":"waste_basket"}},"type":"Feature"},
	{"geometry":{"coordinates":[20.509221,48.70485],"type":"Point"},"properties":{"osm_id":"9049467971","tag":{"amenity":"waste_basket"}},"type":"Feature"},
	{"geometry":{"coordinates":[20.508681,48.710168],"type":"Point"},"properties":{"osm_id":"9049467973","tag":{"amenity":"waste_basket"}},"type":"Feature"},
	{"geometry":{"coordinates":[20.510636,48.708669],"type":"Point"},"properties":{"osm_id":"9049468010","tag":{"amenity":"waste_basket"}},"type":"Feature"}
]
}
