{
"type": "FeatureCollection",
"features": [
	{"geometry":{"coordinates":[20.547567,46.863017],"type":"Point"},"properties":{"name":"szelekt\u00c3\u00adv hullad\u00c3\u00a9kgy\u00c3\u00bcjt\u00c5\u0091","osm_id":"3468130996","tag":{"amenity":"recycling","recycling:glass_bottles":"yes","recycling_type":"container","source:date":"2012-08-01","url":"http://turistautak.hu/poi.php?id=58853"}},"type":"Feature"},
	{"geometry":{"coordinates":[20.562517,46.86675],"type":"Point"},"properties":{"osm_id":"3468131000","tag":{"addr:street":"D\u00f3zsa Gy\u00f6rgy utca","amenity":"recycling","source:date":"2012-08-01","url":"http://turistautak.hu/poi.php?id=55198"}},"type":"Feature"},
	{"geometry":{"coordinates":[20.5445,46.875683],"type":"Point"},"properties":{"osm_id":"3468131029","tag":{"addr:street":"Z\u00f6ldp\u00e1zsit t\u00e9r","amenity":"recycling","source:date":"2012-08-01","url":"http://turistautak.hu/poi.php?id=55197"}},"type":"Feature"},
	{"geometry":{"coordinates":[20.54159,46.861703],"type":"Point"},"properties":{"osm_id":"6926861383","tag":{"amenity":"waste_basket"}},"type":"Feature"},
	{"geometry":{"coordinates":[20.549524,46.863308],"type":"Point"},"properties":{"osm_id":"7753560226","tag":{"amenity":"waste_basket"}},"type":"Feature"},
	{"geometry":{"coordinates":[20.549734,46.86334],"type":"Point"},"properties":{"osm_id":"7753560233","tag":{"amenity":"waste_basket"}},"type":"Feature"},
	{"geometry":{"coordinates":[20.549946,46.863195],"type":"Point"},"properties":{"osm_id":"7753560236","tag":{"amenity":"waste_basket"}},"type":"Feature"},
	{"geometry":{"coordinates":[20.550643,46.863117],"type":"Point"},"properties":{"osm_id":"7753560237","tag":{"amenity":"waste_basket"}},"type":"Feature"},
	{"geometry":{"coordinates":[20.550182,46.863148],"type":"Point"},"properties":{"osm_id":"7753560240","tag":{"amenity":"waste_basket"}},"type":"Feature"},
	{"geometry":{"coordinates":[20.550343,46.863215],"type":"Point"},"properties":{"osm_id":"7753560244","tag":{"amenity":"waste_basket"}},"type":"Feature"}
]
}
