{
"type": "FeatureCollection",
"features": [
	{"geometry":{"coordinates":[172.595913,-43.512576],"type":"Point"},"properties":{"osm_id":"1698888593","tag":{"amenity":"waste_basket"}},"type":"Feature"},
	{"geometry":{"coordinates":[172.596039,-43.512546],"type":"Point"},"properties":{"name":"used clothes can be dropped off here","osm_id":"1698897193","tag":{"amenity":"recycling","location":"overground","recycling_type":"container"}},"type":"Feature"},
	{"geometry":{"coordinates":[172.548816,-43.516308],"type":"Point"},"properties":{"osm_id":"6872568087","tag":{"amenity":"waste_basket"}},"type":"Feature"},
	{"geometry":{"coordinates":[172.548122,-43.511795],"type":"Point"},"properties":{"osm_id":"6874315519","tag":{"amenity":"waste_basket"}},"type":"Feature"},
	{"geometry":{"coordinates":[172.546247,-43.516272],"type":"Point"},"properties":{"osm_id":"6874425681","tag":{"amenity":"waste_basket","material":"metal"}},"type":"Feature"},
	{"geometry":{"coordinates":[172.546528,-43.515891],"type":"Point"},"properties":{"osm_id":"6874425682","tag":{"amenity":"recycling","clothes":"yes","recycling_type":"container"}},"type":"Feature"},
	{"geometry":{"coordinates":[172.556268,-43.510892],"type":"Point"},"properties":{"osm_id":"6897078225","tag":{"amenity":"waste_basket","colour":"Green","material":"plastic"}},"type":"Feature"}
]
}
