{
"type": "FeatureCollection",
"features": [
	{"geometry":{"coordinates":[21.124052,55.705349],"type":"Point"},"properties":{"osm_id":"3557103185","tag":{"amenity":"recycling","recycling:glass":"yes","recycling:paper":"yes","recycling:plastic":"yes","recycling_type":"container"}},"type":"Feature"},
	{"geometry":{"coordinates":[21.137963,55.700722],"type":"Point"},"properties":{"osm_id":"3663033282","tag":{"amenity":"recycling","recycling_type":"container"}},"type":"Feature"},
	{"geometry":{"coordinates":[21.14386,55.708627],"type":"Point"},"properties":{"osm_id":"3826721168","tag":{"amenity":"waste_disposal"}},"type":"Feature"},
	{"geometry":{"coordinates":[21.143896,55.70864],"type":"Point"},"properties":{"osm_id":"3826721169","tag":{"amenity":"waste_disposal"}},"type":"Feature"},
	{"geometry":{"coordinates":[21.170095,55.704059],"type":"Point"},"properties":{"name":"Atliek\u00c5\u00b3 surinkimo aik\u00c5\u00a1tel\u00c4\u0097","osm_id":"4014615589","tag":{"addr:city":"Klaip\u00c4\u0097da","addr:housenumber":"66A","addr:street":"Til\u00c5\u00be\u00c4\u0097s g.","amenity":"recycling","description":"Klaip\u00c4\u0097dos miesto did\u00c5\u00bei\u00c5\u00b3j\u00c5\u00b3 atliek\u00c5\u00b3, antrini\u00c5\u00b3 \u00c5\u00bealiav\u00c5\u00b3 ir buityje susidariusi\u00c5\u00b3 pavojing\u00c5\u00b3 atliek\u00c5\u00b3 surinkimo aik\u00c5\u00a1tel\u00c4\u0097.","recycling_type":"centre"}},"type":"Feature"},
	{"geometry":{"coordinates":[21.139387,55.718696],"type":"Point"},"properties":{"osm_id":"4304747100","tag":{"amenity":"recycling"}},"type":"Feature"},
	{"geometry":{"coordinates":[21.133523,55.711442],"type":"Point"},"properties":{"osm_id":"4320515484","tag":{"amenity":"recycling","recycling:glass_bottles":"yes","recycling:paper":"yes","recycling:plastic":"yes","recycling:waste":"yes","recycling_type":"container"}},"type":"Feature"},
	{"geometry":{"coordinates":[21.112777,55.723076],"type":"Point"},"properties":{"osm_id":"4362783694","tag":{"amenity":"waste_disposal"}},"type":"Feature"},
	{"geometry":{"coordinates":[21.102194,55.697988],"type":"Point"},"properties":{"osm_id":"4683288291","tag":{"amenity":"waste_disposal"}},"type":"Feature"},
	{"geometry":{"coordinates":[21.113444,55.704089],"type":"Point"},"properties":{"osm_id":"4683780689","tag":{"amenity":"waste_disposal"}},"type":"Feature"},
	{"geometry":{"coordinates":[21.153974,55.683377],"type":"Point"},"properties":{"osm_id":"4748684846","tag":{"amenity":"recycling","recycling_type":"container"}},"type":"Feature"},
	{"geometry":{"coordinates":[21.148373,55.724745],"type":"Point"},"properties":{"osm_id":"4816066525","tag":{"amenity":"recycling","recycling_type":"container","website":"http://kratc.lt/atlieku-surinkimas/atlieku-surinkimo-aiksteles"}},"type":"Feature"},
	{"geometry":{"coordinates":[21.148269,55.724474],"type":"Point"},"properties":{"barrier":"gate","osm_id":"5155426127"},"type":"Feature"},
	{"geometry":{"coordinates":[21.167146,55.691217],"type":"Point"},"properties":{"osm_id":"5214300140","tag":{"amenity":"recycling","operator":"UAB \u00e2\u0080\u009eBaltic Metal\u00e2\u0080\u009c","phone":"+37065799755","recycling:scrap_metal":"yes","recycling_type":"centre","website":"http://www.bmetal.lt"}},"type":"Feature"},
	{"geometry":{"coordinates":[21.115383,55.722149],"type":"Point"},"properties":{"osm_id":"5236385695","tag":{"amenity":"recycling","recycling:glass_bottles":"yes","recycling:paper":"yes","recycling:plastic":"yes","recycling_type":"container"}},"type":"Feature"},
	{"geometry":{"coordinates":[21.111539,55.725097],"type":"Point"},"properties":{"osm_id":"5236385697","tag":{"amenity":"waste_basket"}},"type":"Feature"},
	{"geometry":{"coordinates":[21.111214,55.725391],"type":"Point"},"properties":{"osm_id":"5236385701","tag":{"amenity":"waste_basket"}},"type":"Feature"},
	{"geometry":{"coordinates":[21.110908,55.724885],"type":"Point"},"properties":{"osm_id":"5236385702","tag":{"amenity":"recycling","recycling:glass_bottles":"yes","recycling:paper":"yes","recycling:plastic":"yes","recycling_type":"container"}},"type":"Feature"},
	{"geometry":{"coordinates":[21.132825,55.726137],"type":"Point"},"properties":{"osm_id":"5236386176","tag":{"amenity":"recycling","recycling_type":"container"}},"type":"Feature"},
	{"geometry":{"coordinates":[21.131224,55.725448],"type":"Point"},"properties":{"osm_id":"5236386179","tag":{"amenity":"recycling","recycling_type":"container"}},"type":"Feature"},
	{"geometry":{"coordinates":[21.131119,55.724823],"type":"Point"},"properties":{"osm_id":"5236386183","tag":{"amenity":"recycling","recycling:glass_bottles":"yes","recycling:paper":"yes","recycling:plastic":"yes","recycling_type":"container"}},"type":"Feature"},
	{"geometry":{"coordinates":[21.129778,55.723851],"type":"Point"},"properties":{"osm_id":"5236386184","tag":{"amenity":"recycling","recycling:glass_bottles":"yes","recycling:paper":"yes","recycling:plastic":"yes"}},"type":"Feature"},
	{"geometry":{"coordinates":[21.125691,55.723671],"type":"Point"},"properties":{"osm_id":"5236386185","tag":{"amenity":"recycling"}},"type":"Feature"},
	{"geometry":{"coordinates":[21.136933,55.709334],"type":"Point"},"properties":{"osm_id":"5271995504","tag":{"amenity":"recycling","recycling_type":"container"}},"type":"Feature"},
	{"geometry":{"coordinates":[21.118616,55.718864],"type":"Point"},"properties":{"osm_id":"5353295913","tag":{"amenity":"recycling","recycling:glass_bottles":"yes","recycling:paper":"yes","recycling:plastic":"yes","recycling_type":"container"}},"type":"Feature"},
	{"geometry":{"coordinates":[21.137412,55.703775],"type":"Point"},"properties":{"osm_id":"5674013541","tag":{"amenity":"recycling"}},"type":"Feature"},
	{"geometry":{"coordinates":[21.111571,55.705661],"type":"Point"},"properties":{"osm_id":"5837863018","tag":{"amenity":"recycling","recycling:glass":"yes","recycling:paper":"yes","recycling:plastic":"yes","recycling_type":"container"}},"type":"Feature"},
	{"geometry":{"coordinates":[21.153174,55.694272],"type":"Point"},"properties":{"osm_id":"5940878828","tag":{"amenity":"recycling","recycling:glass_bottles":"yes","recycling:paper":"yes","recycling:plastic":"yes","recycling_type":"container"}},"type":"Feature"},
	{"geometry":{"coordinates":[21.150307,55.68735],"type":"Point"},"properties":{"osm_id":"5941137231","tag":{"amenity":"recycling","recycling:glass_bottles":"yes","recycling:paper":"yes","recycling:plastic":"yes","recycling_type":"container"}},"type":"Feature"},
	{"geometry":{"coordinates":[21.177838,55.683718],"type":"Point"},"properties":{"osm_id":"5977566318","tag":{"amenity":"waste_disposal"}},"type":"Feature"},
	{"geometry":{"coordinates":[21.142829,55.694188],"type":"Point"},"properties":{"osm_id":"6006754865","tag":{"amenity":"recycling","recycling:glass_bottles":"yes","recycling:paper":"yes","recycling:plastic":"yes","recycling_type":"container"}},"type":"Feature"},
	{"geometry":{"coordinates":[21.110749,55.722655],"type":"Point"},"properties":{"osm_id":"6027927454","tag":{"amenity":"recycling","recycling:glass_bottles":"yes","recycling:paper":"yes","recycling:plastic":"yes","recycling_type":"container"}},"type":"Feature"},
	{"geometry":{"coordinates":[21.10209,55.717215],"type":"Point"},"properties":{"osm_id":"6669816170","tag":{"amenity":"recycling","opening_hours":"24/7","recycling:cardboard":"yes","recycling:paper":"yes","recycling:plastic":"yes","recycling_type":"container","wheelchair":"yes"}},"type":"Feature"},
	{"geometry":{"coordinates":[21.168031,55.680991],"type":"Point"},"properties":{"osm_id":"6879339865","tag":{"amenity":"recycling","recycling:glass":"yes","recycling:paper":"yes","recycling:plastic":"yes","recycling_type":"container"}},"type":"Feature"},
	{"geometry":{"coordinates":[21.154397,55.713154],"type":"Point"},"properties":{"osm_id":"7255484562","tag":{"amenity":"recycling","recycling:glass":"yes","recycling:paper":"yes","recycling:plastic":"yes","recycling_type":"container"}},"type":"Feature"},
	{"geometry":{"coordinates":[21.151399,55.682122],"type":"Point"},"properties":{"name":"Taromatas","osm_id":"8603473855","tag":{"amenity":"recycling","recycling_type":"container"}},"type":"Feature"},
	{"geometry":{"coordinates":[21.115582,55.703342],"type":"Point"},"properties":{"osm_id":"8824507109","tag":{"amenity":"waste_basket"}},"type":"Feature"}
]
}
