{
"type": "FeatureCollection",
"features": [
	{"geometry":{"coordinates":[21.097026,52.252139],"type":"Point"},"properties":{"osm_id":"395474454","tag":{"amenity":"recycling"}},"type":"Feature"},
	{"geometry":{"coordinates":[21.095437,52.245215],"type":"Point"},"properties":{"osm_id":"595473586","tag":{"amenity":"recycling","recycling_type":"container"}},"type":"Feature"},
	{"geometry":{"coordinates":[21.110974,52.243252],"type":"Point"},"properties":{"osm_id":"833160537","tag":{"amenity":"waste_basket"}},"type":"Feature"},
	{"geometry":{"coordinates":[21.110984,52.243088],"type":"Point"},"properties":{"osm_id":"833160694","tag":{"amenity":"waste_basket"}},"type":"Feature"},
	{"geometry":{"coordinates":[21.111018,52.242671],"type":"Point"},"properties":{"osm_id":"833160881","tag":{"amenity":"waste_basket"}},"type":"Feature"},
	{"geometry":{"coordinates":[21.110958,52.242876],"type":"Point"},"properties":{"osm_id":"833161210","tag":{"amenity":"waste_basket"}},"type":"Feature"},
	{"geometry":{"coordinates":[21.110903,52.243029],"type":"Point"},"properties":{"osm_id":"833161216","tag":{"amenity":"waste_basket"}},"type":"Feature"},
	{"geometry":{"coordinates":[21.111071,52.243283],"type":"Point"},"properties":{"osm_id":"833161317","tag":{"amenity":"waste_basket"}},"type":"Feature"},
	{"geometry":{"coordinates":[21.110886,52.242804],"type":"Point"},"properties":{"osm_id":"833161538","tag":{"amenity":"waste_basket"}},"type":"Feature"},
	{"geometry":{"coordinates":[21.094869,52.23194],"type":"Point"},"properties":{"osm_id":"848376445","tag":{"amenity":"waste_basket"}},"type":"Feature"},
	{"geometry":{"coordinates":[21.094954,52.24531],"type":"Point"},"properties":{"osm_id":"1124447463","tag":{"amenity":"recycling","recycling_type":"container"}},"type":"Feature"},
	{"geometry":{"coordinates":[21.095638,52.246173],"type":"Point"},"properties":{"osm_id":"1816586087","tag":{"amenity":"recycling","recycling_type":"container"}},"type":"Feature"},
	{"geometry":{"coordinates":[21.174388,52.215986],"type":"Point"},"properties":{"osm_id":"2781187626","tag":{"access":"private","amenity":"waste_disposal"}},"type":"Feature"},
	{"geometry":{"coordinates":[21.172781,52.216566],"type":"Point"},"properties":{"osm_id":"2781187633","tag":{"amenity":"waste_basket"}},"type":"Feature"},
	{"geometry":{"coordinates":[21.175502,52.214511],"type":"Point"},"properties":{"osm_id":"2781187635","tag":{"access":"private","amenity":"waste_disposal"}},"type":"Feature"},
	{"geometry":{"coordinates":[21.172135,52.214505],"type":"Point"},"properties":{"osm_id":"2781187636","tag":{"amenity":"waste_disposal"}},"type":"Feature"},
	{"geometry":{"coordinates":[21.103232,52.235373],"type":"Point"},"properties":{"osm_id":"3782210781","tag":{"amenity":"waste_basket"}},"type":"Feature"},
	{"geometry":{"coordinates":[21.104929,52.235456],"type":"Point"},"properties":{"osm_id":"3796445673","tag":{"amenity":"waste_basket","material":"metal"}},"type":"Feature"},
	{"geometry":{"coordinates":[21.103506,52.234904],"type":"Point"},"properties":{"osm_id":"3799934725","tag":{"amenity":"waste_basket"}},"type":"Feature"},
	{"geometry":{"coordinates":[21.102721,52.23508],"type":"Point"},"properties":{"osm_id":"3799957168","tag":{"amenity":"waste_basket"}},"type":"Feature"},
	{"geometry":{"coordinates":[21.102225,52.235353],"type":"Point"},"properties":{"osm_id":"3799957179","tag":{"amenity":"waste_basket"}},"type":"Feature"},
	{"geometry":{"coordinates":[21.10028,52.235189],"type":"Point"},"properties":{"osm_id":"3808902685","tag":{"amenity":"waste_basket"}},"type":"Feature"},
	{"geometry":{"coordinates":[21.100244,52.23529],"type":"Point"},"properties":{"osm_id":"3808937838","tag":{"amenity":"waste_basket"}},"type":"Feature"},
	{"geometry":{"coordinates":[21.104242,52.237093],"type":"Point"},"properties":{"osm_id":"3814162358","tag":{"amenity":"waste_basket"}},"type":"Feature"},
	{"geometry":{"coordinates":[21.10319,52.236794],"type":"Point"},"properties":{"osm_id":"3817247544","tag":{"amenity":"waste_basket"}},"type":"Feature"},
	{"geometry":{"coordinates":[21.103243,52.236391],"type":"Point"},"properties":{"osm_id":"3817293701","tag":{"amenity":"waste_basket","material":"metal"}},"type":"Feature"},
	{"geometry":{"coordinates":[21.100513,52.235389],"type":"Point"},"properties":{"osm_id":"3817364599","tag":{"amenity":"waste_basket","material":"metal"}},"type":"Feature"},
	{"geometry":{"coordinates":[21.104973,52.234651],"type":"Point"},"properties":{"osm_id":"3828065957","tag":{"amenity":"waste_basket","colour":"black","material":"metal"}},"type":"Feature"},
	{"geometry":{"coordinates":[21.104358,52.23591],"type":"Point"},"properties":{"osm_id":"3840331184","tag":{"amenity":"waste_basket","colour":"black","material":"metal"}},"type":"Feature"},
	{"geometry":{"coordinates":[21.1015,52.23798],"type":"Point"},"properties":{"osm_id":"3852969479","tag":{"amenity":"waste_basket"}},"type":"Feature"},
	{"geometry":{"coordinates":[21.10137,52.237788],"type":"Point"},"properties":{"osm_id":"3855244629","tag":{"amenity":"waste_basket","source:geometry":"geoportal.gov.pl:ortofoto"}},"type":"Feature"},
	{"geometry":{"coordinates":[21.101046,52.237909],"type":"Point"},"properties":{"osm_id":"3857754926","tag":{"amenity":"waste_basket"}},"type":"Feature"},
	{"geometry":{"coordinates":[21.105512,52.236537],"type":"Point"},"properties":{"osm_id":"3860384128","tag":{"amenity":"waste_basket"}},"type":"Feature"},
	{"geometry":{"coordinates":[21.10259,52.235645],"type":"Point"},"properties":{"osm_id":"3868593815","tag":{"amenity":"waste_basket"}},"type":"Feature"},
	{"geometry":{"coordinates":[21.102476,52.236946],"type":"Point"},"properties":{"osm_id":"3888399094","tag":{"amenity":"waste_basket","material":"metal"}},"type":"Feature"},
	{"geometry":{"coordinates":[21.109993,52.235402],"type":"Point"},"properties":{"osm_id":"3981253836","tag":{"amenity":"waste_basket"}},"type":"Feature"},
	{"geometry":{"coordinates":[21.107636,52.234805],"type":"Point"},"properties":{"osm_id":"4123480239","tag":{"amenity":"waste_basket","source:geometry":"geoportal.gov.pl:ortofoto"}},"type":"Feature"},
	{"geometry":{"coordinates":[21.107736,52.234851],"type":"Point"},"properties":{"osm_id":"4123590572","tag":{"amenity":"waste_basket","source:geometry":"geoportal.gov.pl:ortofoto"}},"type":"Feature"},
	{"geometry":{"coordinates":[21.157085,52.263245],"type":"Point"},"properties":{"osm_id":"4212998669","tag":{"amenity":"waste_basket"}},"type":"Feature"},
	{"geometry":{"coordinates":[21.153042,52.267944],"type":"Point"},"properties":{"osm_id":"4212998675","tag":{"amenity":"waste_basket"}},"type":"Feature"},
	{"geometry":{"coordinates":[21.109906,52.235253],"type":"Point"},"properties":{"osm_id":"4364203795","tag":{"amenity":"waste_basket","source:position":"geoportal.gov.pl:ortofoto"}},"type":"Feature"},
	{"geometry":{"coordinates":[21.109501,52.234969],"type":"Point"},"properties":{"osm_id":"4462808033","tag":{"amenity":"waste_basket","source:position":"geoportal.gov.pl:ortofoto"}},"type":"Feature"},
	{"geometry":{"coordinates":[21.120526,52.235058],"type":"Point"},"properties":{"osm_id":"4938860450","tag":{"amenity":"waste_basket"}},"type":"Feature"},
	{"geometry":{"coordinates":[21.158187,52.253573],"type":"Point"},"properties":{"osm_id":"4984858158","tag":{"amenity":"waste_disposal"}},"type":"Feature"},
	{"geometry":{"coordinates":[21.135768,52.217744],"type":"Point"},"properties":{"name":"Skup z\u00c5\u0082omu","osm_id":"5095802917","tag":{"amenity":"recycling","recycling_type":"centre"}},"type":"Feature"},
	{"geometry":{"coordinates":[21.095194,52.251187],"type":"Point"},"properties":{"osm_id":"5431172324","tag":{"amenity":"recycling","recycling_type":"container"}},"type":"Feature"},
	{"geometry":{"coordinates":[21.096906,52.249323],"type":"Point"},"properties":{"osm_id":"5431172325","tag":{"amenity":"recycling","recycling_type":"container"}},"type":"Feature"},
	{"geometry":{"coordinates":[21.095016,52.249168],"type":"Point"},"properties":{"osm_id":"5431172328","tag":{"amenity":"recycling","recycling_type":"container"}},"type":"Feature"},
	{"geometry":{"coordinates":[21.142748,52.226328],"type":"Point"},"properties":{"osm_id":"6981120045","tag":{"amenity":"recycling","recycling:scrap_metal":"yes","recycling_type":"centre"}},"type":"Feature"},
	{"geometry":{"coordinates":[21.114602,52.232523],"type":"Point"},"properties":{"osm_id":"7126900978","tag":{"amenity":"waste_basket"}},"type":"Feature"},
	{"geometry":{"coordinates":[21.104261,52.25708],"type":"Point"},"properties":{"osm_id":"7137412011","tag":{"amenity":"waste_basket"}},"type":"Feature"},
	{"geometry":{"coordinates":[21.104529,52.257329],"type":"Point"},"properties":{"osm_id":"7137412077","tag":{"amenity":"waste_basket"}},"type":"Feature"},
	{"geometry":{"coordinates":[21.104597,52.257436],"type":"Point"},"properties":{"osm_id":"7137412078","tag":{"amenity":"waste_basket"}},"type":"Feature"},
	{"geometry":{"coordinates":[21.104712,52.257621],"type":"Point"},"properties":{"osm_id":"7137412079","tag":{"amenity":"waste_basket"}},"type":"Feature"},
	{"geometry":{"coordinates":[21.104775,52.257726],"type":"Point"},"properties":{"osm_id":"7137412080","tag":{"amenity":"waste_basket"}},"type":"Feature"},
	{"geometry":{"coordinates":[21.104692,52.257308],"type":"Point"},"properties":{"osm_id":"7137412081","tag":{"amenity":"waste_basket"}},"type":"Feature"},
	{"geometry":{"coordinates":[21.104751,52.257396],"type":"Point"},"properties":{"osm_id":"7137412082","tag":{"amenity":"waste_basket"}},"type":"Feature"},
	{"geometry":{"coordinates":[21.104873,52.25759],"type":"Point"},"properties":{"osm_id":"7137412083","tag":{"amenity":"waste_basket"}},"type":"Feature"},
	{"geometry":{"coordinates":[21.104926,52.257683],"type":"Point"},"properties":{"osm_id":"7137412084","tag":{"amenity":"waste_basket"}},"type":"Feature"},
	{"geometry":{"coordinates":[21.154256,52.261056],"type":"Point"},"properties":{"osm_id":"7147376334","tag":{"amenity":"waste_basket"}},"type":"Feature"},
	{"geometry":{"coordinates":[21.15415,52.26101],"type":"Point"},"properties":{"osm_id":"7147376335","tag":{"amenity":"waste_basket"}},"type":"Feature"},
	{"geometry":{"coordinates":[21.155009,52.260514],"type":"Point"},"properties":{"osm_id":"7147376352","tag":{"amenity":"waste_basket"}},"type":"Feature"},
	{"geometry":{"coordinates":[21.154397,52.260606],"type":"Point"},"properties":{"osm_id":"7147376357","tag":{"amenity":"waste_basket"}},"type":"Feature"},
	{"geometry":{"coordinates":[21.154635,52.260365],"type":"Point"},"properties":{"osm_id":"7147376358","tag":{"amenity":"waste_basket"}},"type":"Feature"},
	{"geometry":{"coordinates":[21.154541,52.260352],"type":"Point"},"properties":{"osm_id":"7147376361","tag":{"amenity":"waste_basket"}},"type":"Feature"},
	{"geometry":{"coordinates":[21.118863,52.236687],"type":"Point"},"properties":{"osm_id":"7164838516","tag":{"access":"yes","amenity":"recycling","recycling:batteries":"yes","recycling:electrical_appliances":"yes","recycling_type":"container"}},"type":"Feature"}
]
}
