{
"type": "FeatureCollection",
"features": [
	{"geometry":{"coordinates":[27.932694,52.699175],"type":"Point"},"properties":{"name":"\u00d0\u009b\u00d0\u00b8\u00d0\u00bf\u00d0\u00b0","osm_id":"3417428561","tag":{"leaf_cycle":"deciduous","leaf_type":"broadleaved","name:ru":"\u00d0\u009b\u00d0\u00b8\u00d0\u00bf\u00d0\u00b0","natural":"tree"}},"type":"Feature"},
	{"geometry":{"coordinates":[27.932264,52.699314],"type":"Point"},"properties":{"name":"\u00d0\u009b\u00d0\u00b8\u00d0\u00bf\u00d0\u00b0","osm_id":"3417431354","tag":{"leaf_cycle":"deciduous","leaf_type":"needleleaved","name:ru":"\u00d0\u009b\u00d0\u00b8\u00d0\u00bf\u00d0\u00b0","natural":"tree"}},"type":"Feature"},
	{"geometry":{"coordinates":[27.932169,52.699311],"type":"Point"},"properties":{"name":"\u00d0\u009b\u00d0\u00b8\u00d0\u00bf\u00d0\u00b0","osm_id":"3417432547","tag":{"leaf_cycle":"deciduous","leaf_type":"broadleaved","name:ru":"\u00d0\u009b\u00d0\u00b8\u00d0\u00bf\u00d0\u00b0","natural":"tree"}},"type":"Feature"},
	{"geometry":{"coordinates":[27.93206,52.699301],"type":"Point"},"properties":{"name":"\u00d0\u009b\u00d0\u00b8\u00d0\u00bf\u00d0\u00b0","osm_id":"3417432548","tag":{"leaf_cycle":"deciduous","leaf_type":"broadleaved","name:ru":"\u00d0\u009b\u00d0\u00b8\u00d0\u00bf\u00d0\u00b0","natural":"tree"}},"type":"Feature"},
	{"geometry":{"coordinates":[27.932481,52.699169],"type":"Point"},"properties":{"name":"\u00d0\u009b\u00d0\u00b8\u00d0\u00bf\u00d0\u00b0","osm_id":"3417434234","tag":{"leaf_cycle":"deciduous","leaf_type":"broadleaved","name:ru":"\u00d0\u009b\u00d0\u00b8\u00d0\u00bf\u00d0\u00b0","natural":"tree"}},"type":"Feature"},
	{"geometry":{"coordinates":[27.932412,52.699171],"type":"Point"},"properties":{"name":"\u00d0\u009b\u00d0\u00b8\u00d0\u00bf\u00d0\u00b0","osm_id":"3417434235","tag":{"leaf_cycle":"deciduous","leaf_type":"broadleaved","name:ru":"\u00d0\u009b\u00d0\u00b8\u00d0\u00bf\u00d0\u00b0","natural":"tree"}},"type":"Feature"},
	{"geometry":{"coordinates":[27.932349,52.699175],"type":"Point"},"properties":{"name":"\u00d0\u009b\u00d0\u00b8\u00d0\u00bf\u00d0\u00b0","osm_id":"3417434236","tag":{"leaf_cycle":"deciduous","leaf_type":"broadleaved","name:ru":"\u00d0\u009b\u00d0\u00b8\u00d0\u00bf\u00d0\u00b0","natural":"tree"}},"type":"Feature"}
]
}
