{
"type": "FeatureCollection",
"features": [
	{"geometry":{"coordinates":[23.114342,63.84117],"type":"Point"},"properties":{"name":"Ekopiste","osm_id":"206264199","tag":{"amenity":"recycling","operator":"Ekorosk Oy","recycling:batteries":"yes","recycling:cardboard":"yes","recycling:glass":"yes","recycling:paper":"yes","recycling:scrap_metal":"yes"}},"type":"Feature"},
	{"geometry":{"coordinates":[23.104336,63.82987],"type":"Point"},"properties":{"osm_id":"207073133","tag":{"addr:city":"Kokkola","addr:postcode":"67100","amenity":"recycling","operator":"Ekorosk Oy","recycling:batteries":"yes","recycling:cardboard":"yes","recycling:glass":"yes","recycling:paper":"yes","recycling:scrap_metal":"yes","url":"http://www.ekorosk.fi"}},"type":"Feature"},
	{"geometry":{"coordinates":[23.08861,63.825593],"type":"Point"},"properties":{"osm_id":"243636814","tag":{"amenity":"recycling"}},"type":"Feature"},
	{"geometry":{"coordinates":[23.099836,63.846252],"type":"Point"},"properties":{"osm_id":"252521684","tag":{"amenity":"recycling"}},"type":"Feature"},
	{"geometry":{"coordinates":[23.074638,63.82433],"type":"Point"},"properties":{"osm_id":"255183215","tag":{"amenity":"waste_basket","waste":"dog_excrement"}},"type":"Feature"},
	{"geometry":{"coordinates":[23.115221,63.828755],"type":"Point"},"properties":{"is_in":"Kokkola, Finland","osm_id":"256117742","tag":{"amenity":"recycling","operator":"Ekorosk Oy","recycling:batteries":"yes","recycling:glass":"yes","recycling:paper":"yes","recycling:scrap_metal":"yes","url":"http://www.ekorosk.fi"}},"type":"Feature"},
	{"geometry":{"coordinates":[23.05447,63.834132],"type":"Point"},"properties":{"osm_id":"265530986","tag":{"amenity":"recycling"}},"type":"Feature"},
	{"geometry":{"coordinates":[23.069897,63.82941],"type":"Point"},"properties":{"is_in":"Kokkola, Finland","osm_id":"265693587","tag":{"amenity":"recycling","operator":"Ekorosk Oy"}},"type":"Feature"},
	{"geometry":{"coordinates":[23.06482,63.836973],"type":"Point"},"properties":{"osm_id":"266222653","tag":{"amenity":"recycling"}},"type":"Feature"},
	{"geometry":{"coordinates":[23.048365,63.83861],"type":"Point"},"properties":{"is_in":"Kokkola, Finland","osm_id":"266222654","tag":{"amenity":"recycling","operator":"Ekorosk Oy"}},"type":"Feature"},
	{"geometry":{"coordinates":[23.053701,63.839913],"type":"Point"},"properties":{"osm_id":"266222655","tag":{"amenity":"recycling","url":"http://www.ekorosk.fi"}},"type":"Feature"},
	{"geometry":{"coordinates":[23.06914,63.827985],"type":"Point"},"properties":{"osm_id":"269658856","tag":{"amenity":"waste_basket"}},"type":"Feature"},
	{"geometry":{"coordinates":[23.08131,63.823111],"type":"Point"},"properties":{"osm_id":"383979488","tag":{"amenity":"waste_basket"}},"type":"Feature"},
	{"geometry":{"coordinates":[23.072651,63.822204],"type":"Point"},"properties":{"osm_id":"383982746","tag":{"amenity":"waste_basket"}},"type":"Feature"},
	{"geometry":{"coordinates":[23.099873,63.830766],"type":"Point"},"properties":{"osm_id":"765909286","tag":{"amenity":"waste_basket"}},"type":"Feature"},
	{"geometry":{"coordinates":[23.104163,63.853457],"type":"Point"},"properties":{"osm_id":"4998195667","tag":{"amenity":"recycling","opening_hours":"24/7","operator":"Rinki-ekopiste","recycling:batteries":"yes","recycling:cardboard":"yes","recycling:glass":"yes","recycling:metal":"yes","recycling:paper":"yes","recycling_type":"container"}},"type":"Feature"}
]
}
