{
"type": "FeatureCollection",
"features": [
	{"geometry":{"coordinates":[61.386074,55.242977],"type":"Point"},"properties":{"osm_id":"1484606273","tag":{"amenity":"waste_basket"}},"type":"Feature"},
	{"geometry":{"coordinates":[61.39559,55.272835],"type":"Point"},"properties":{"osm_id":"2614645698","tag":{"amenity":"waste_disposal"}},"type":"Feature"},
	{"geometry":{"coordinates":[61.370918,55.244019],"type":"Point"},"properties":{"osm_id":"3693986760","tag":{"amenity":"waste_disposal"}},"type":"Feature"},
	{"geometry":{"coordinates":[61.401667,55.242128],"type":"Point"},"properties":{"osm_id":"6669146955","tag":{"amenity":"waste_disposal"}},"type":"Feature"},
	{"geometry":{"coordinates":[61.365179,55.24161],"type":"Point"},"properties":{"osm_id":"6677591510","tag":{"amenity":"waste_disposal"}},"type":"Feature"},
	{"geometry":{"coordinates":[61.385352,55.264863],"type":"Point"},"properties":{"osm_id":"7252754833","tag":{"amenity":"waste_disposal"}},"type":"Feature"},
	{"geometry":{"coordinates":[61.403574,55.265179],"type":"Point"},"properties":{"osm_id":"8096909112","tag":{"amenity":"waste_disposal"}},"type":"Feature"},
	{"geometry":{"coordinates":[61.401748,55.255735],"type":"Point"},"properties":{"osm_id":"8098084160","tag":{"amenity":"waste_disposal"}},"type":"Feature"},
	{"geometry":{"coordinates":[61.401646,55.247108],"type":"Point"},"properties":{"osm_id":"8373201852","tag":{"amenity":"waste_disposal"}},"type":"Feature"},
	{"geometry":{"coordinates":[61.405533,55.262109],"type":"Point"},"properties":{"osm_id":"8462022423","tag":{"amenity":"waste_disposal"}},"type":"Feature"},
	{"geometry":{"coordinates":[61.371404,55.229119],"type":"Point"},"properties":{"name":"\u00d0\u0092\u00d1\u0082\u00d0\u00be\u00d1\u0080\u00d0\u009f\u00d0\u00b0\u00d1\u0080\u00d1\u0082\u00d0\u00bd\u00d0\u00b5\u00d1\u0080","osm_id":"8839210523","tag":{"amenity":"waste_disposal","contact:email":"89822819600@mail.ru","contact:phone":"+7 351 2230328;+7 982 2819600","contact:website":"https://vtorpartner.ru/","opening_hours":"24/7"}},"type":"Feature"}
]
}
