{
"type": "FeatureCollection",
"features": [
	{"geometry":{"coordinates":[28.65069,50.278714],"type":"Point"},"properties":{"name":"\u00d0\u00a1\u00d1\u0082\u00d0\u00b8\u00d0\u00bc\u00d1\u0083\u00d0\u00bb","osm_id":"1209379999","tag":{"amenity":"recycling","name:en":"Stimul","name:ru":"\u00d0\u00a1\u00d1\u0082\u00d0\u00b8\u00d0\u00bc\u00d1\u0083\u00d0\u00bb","recycling:paper":"yes"}},"type":"Feature"},
	{"geometry":{"coordinates":[28.651929,50.279209],"type":"Point"},"properties":{"osm_id":"1481351053","tag":{"amenity":"waste_basket"}},"type":"Feature"},
	{"geometry":{"coordinates":[28.631173,50.278144],"type":"Point"},"properties":{"osm_id":"4788760423","tag":{"amenity":"waste_disposal"}},"type":"Feature"},
	{"geometry":{"coordinates":[28.617221,50.279276],"type":"Point"},"properties":{"osm_id":"4788760623","tag":{"amenity":"waste_disposal"}},"type":"Feature"},
	{"geometry":{"coordinates":[28.640679,50.244664],"type":"Point"},"properties":{"osm_id":"4825765130","tag":{"amenity":"waste_basket"}},"type":"Feature"},
	{"geometry":{"coordinates":[28.642439,50.246661],"type":"Point"},"properties":{"osm_id":"4825826221","tag":{"amenity":"waste_basket"}},"type":"Feature"},
	{"geometry":{"coordinates":[28.638318,50.24641],"type":"Point"},"properties":{"osm_id":"4835405421","tag":{"amenity":"waste_basket"}},"type":"Feature"},
	{"geometry":{"coordinates":[28.640996,50.24585],"type":"Point"},"properties":{"osm_id":"4835405422","tag":{"amenity":"waste_basket"}},"type":"Feature"},
	{"geometry":{"coordinates":[28.646324,50.261406],"type":"Point"},"properties":{"osm_id":"4840160022","tag":{"amenity":"waste_basket"}},"type":"Feature"},
	{"geometry":{"coordinates":[28.620827,50.261719],"type":"Point"},"properties":{"osm_id":"4841412722","tag":{"amenity":"waste_basket"}},"type":"Feature"},
	{"geometry":{"coordinates":[28.643173,50.278749],"type":"Point"},"properties":{"osm_id":"6677083639","tag":{"amenity":"waste_basket"}},"type":"Feature"},
	{"geometry":{"coordinates":[28.643224,50.278694],"type":"Point"},"properties":{"osm_id":"6677083640","tag":{"amenity":"waste_disposal"}},"type":"Feature"},
	{"geometry":{"coordinates":[28.652289,50.26322],"type":"Point"},"properties":{"osm_id":"7426636061","tag":{"amenity":"waste_disposal"}},"type":"Feature"}
]
}
