{
"type": "FeatureCollection",
"features": [
	{"geometry":{"coordinates":[-5.660763,40.981983],"type":"Point"},"properties":{"osm_id":"617405704","tag":{"amenity":"recycling","recycling:batteries":"yes","recycling:cans":"yes","recycling:cardboard":"yes","recycling:glass_bottles":"yes","recycling:paper":"yes","recycling:plastic_bottles":"yes","recycling:plastic_packaging":"yes","recycling_type":"container"}},"type":"Feature"},
	{"geometry":{"coordinates":[-5.649338,41.007277],"type":"Point"},"properties":{"osm_id":"658722587","tag":{"amenity":"recycling","recycling:cans":"yes","recycling:glass_bottles":"yes","recycling:paper":"yes","recycling_type":"container"}},"type":"Feature"},
	{"geometry":{"coordinates":[-5.644101,41.004512],"type":"Point"},"properties":{"osm_id":"658722590","tag":{"amenity":"recycling","recycling:cans":"yes","recycling:glass":"no","recycling:paper":"yes","recycling_type":"container"}},"type":"Feature"},
	{"geometry":{"coordinates":[-5.667147,40.983468],"type":"Point"},"properties":{"barrier":"gate","osm_id":"1359156106","tag":{"bicycle":"yes","foot":"yes","motorcar":"yes"}},"type":"Feature"},
	{"geometry":{"coordinates":[-5.667152,40.983557],"type":"Point"},"properties":{"barrier":"gate","osm_id":"1359156112","tag":{"bicycle":"yes","foot":"yes","motorcar":"yes"}},"type":"Feature"},
	{"geometry":{"coordinates":[-5.664176,40.981215],"type":"Point"},"properties":{"osm_id":"2477706975","tag":{"amenity":"recycling","recycling:batteries":"yes","recycling_type":"container"}},"type":"Feature"},
	{"geometry":{"coordinates":[-5.649504,40.983113],"type":"Point"},"properties":{"osm_id":"2506975306","tag":{"amenity":"waste_disposal"}},"type":"Feature"},
	{"geometry":{"coordinates":[-5.677203,40.980728],"type":"Point"},"properties":{"osm_id":"2778985576","tag":{"amenity":"waste_disposal"}},"type":"Feature"},
	{"geometry":{"coordinates":[-5.645383,41.025703],"type":"Point"},"properties":{"osm_id":"3016063100","tag":{"amenity":"recycling","recycling:cans":"yes","recycling:glass_bottles":"yes","recycling:paper":"yes","recycling_type":"container"}},"type":"Feature"},
	{"geometry":{"coordinates":[-5.642503,41.025902],"type":"Point"},"properties":{"osm_id":"3016063106","tag":{"amenity":"recycling","recycling:cans":"yes","recycling:glass_bottles":"yes","recycling:paper":"yes","recycling_type":"container"}},"type":"Feature"},
	{"geometry":{"coordinates":[-5.644369,41.026187],"type":"Point"},"properties":{"osm_id":"3016063120","tag":{"amenity":"recycling","recycling:cans":"yes","recycling:glass_bottles":"yes","recycling:paper":"yes","recycling_type":"container"}},"type":"Feature"},
	{"geometry":{"coordinates":[-5.638056,41.026824],"type":"Point"},"properties":{"osm_id":"3016063132","tag":{"amenity":"recycling","recycling:cans":"yes","recycling:glass_bottles":"yes","recycling:paper":"yes","recycling_type":"container"}},"type":"Feature"},
	{"geometry":{"coordinates":[-5.640897,41.027177],"type":"Point"},"properties":{"osm_id":"3016063249","tag":{"amenity":"recycling","recycling:cans":"yes","recycling:glass_bottles":"yes","recycling:paper":"yes","recycling_type":"container"}},"type":"Feature"},
	{"geometry":{"coordinates":[-5.639933,41.028982],"type":"Point"},"properties":{"osm_id":"3016063296","tag":{"amenity":"recycling","recycling:cans":"yes","recycling:glass_bottles":"yes","recycling:paper":"yes","recycling_type":"container"}},"type":"Feature"},
	{"geometry":{"coordinates":[-5.66805,40.980274],"type":"Point"},"properties":{"osm_id":"3114612532","tag":{"amenity":"waste_disposal"}},"type":"Feature"},
	{"geometry":{"coordinates":[-5.668277,40.980901],"type":"Point"},"properties":{"osm_id":"3114612541","tag":{"amenity":"waste_basket"}},"type":"Feature"},
	{"geometry":{"coordinates":[-5.651853,40.980044],"type":"Point"},"properties":{"osm_id":"3166431732","tag":{"amenity":"waste_basket"}},"type":"Feature"},
	{"geometry":{"coordinates":[-5.651859,40.980249],"type":"Point"},"properties":{"osm_id":"3166431734","tag":{"amenity":"waste_disposal"}},"type":"Feature"},
	{"geometry":{"coordinates":[-5.651659,40.980283],"type":"Point"},"properties":{"osm_id":"3166431735","tag":{"amenity":"waste_basket"}},"type":"Feature"},
	{"geometry":{"coordinates":[-5.671803,40.979957],"type":"Point"},"properties":{"osm_id":"3180505026","tag":{"amenity":"waste_basket"}},"type":"Feature"},
	{"geometry":{"coordinates":[-5.672097,40.979996],"type":"Point"},"properties":{"osm_id":"3180505030","tag":{"amenity":"waste_disposal"}},"type":"Feature"},
	{"geometry":{"coordinates":[-5.671452,40.98004],"type":"Point"},"properties":{"osm_id":"3180505035","tag":{"amenity":"waste_basket"}},"type":"Feature"},
	{"geometry":{"coordinates":[-5.671254,40.980132],"type":"Point"},"properties":{"osm_id":"3180505042","tag":{"amenity":"recycling","recycling:batteries":"yes","recycling:cans":"yes","recycling:cardboard":"yes","recycling:clothes":"yes","recycling:glass_bottles":"yes","recycling:paper":"yes","recycling:plastic_bottles":"yes","recycling:plastic_packaging":"yes","recycling_type":"container"}},"type":"Feature"},
	{"geometry":{"coordinates":[-5.672548,40.980197],"type":"Point"},"properties":{"osm_id":"3180505861","tag":{"amenity":"waste_basket"}},"type":"Feature"},
	{"geometry":{"coordinates":[-5.671376,40.980465],"type":"Point"},"properties":{"osm_id":"3180505916","tag":{"amenity":"waste_basket"}},"type":"Feature"},
	{"geometry":{"coordinates":[-5.672609,40.980663],"type":"Point"},"properties":{"osm_id":"3180505943","tag":{"amenity":"waste_disposal"}},"type":"Feature"},
	{"geometry":{"coordinates":[-5.671835,40.980986],"type":"Point"},"properties":{"osm_id":"3180506117","tag":{"amenity":"waste_basket"}},"type":"Feature"},
	{"geometry":{"coordinates":[-5.672557,40.98106],"type":"Point"},"properties":{"osm_id":"3180506121","tag":{"amenity":"waste_basket"}},"type":"Feature"},
	{"geometry":{"coordinates":[-5.672793,40.981105],"type":"Point"},"properties":{"osm_id":"3180506122","tag":{"amenity":"recycling","recycling:batteries":"yes","recycling:cans":"yes","recycling:cardboard":"yes","recycling:glass_bottles":"yes","recycling:paper":"yes","recycling:plastic_bottles":"yes","recycling:plastic_packaging":"yes","recycling_type":"container"}},"type":"Feature"},
	{"geometry":{"coordinates":[-5.672282,40.981129],"type":"Point"},"properties":{"osm_id":"3180506123","tag":{"amenity":"waste_disposal"}},"type":"Feature"},
	{"geometry":{"coordinates":[-5.67229,40.981144],"type":"Point"},"properties":{"osm_id":"3180506124","tag":{"amenity":"waste_basket"}},"type":"Feature"},
	{"geometry":{"coordinates":[-5.671052,40.981044],"type":"Point"},"properties":{"osm_id":"3180539255","tag":{"amenity":"waste_basket"}},"type":"Feature"},
	{"geometry":{"coordinates":[-5.672517,40.981242],"type":"Point"},"properties":{"osm_id":"3180539258","tag":{"amenity":"waste_basket"}},"type":"Feature"},
	{"geometry":{"coordinates":[-5.67121,40.981376],"type":"Point"},"properties":{"osm_id":"3180539664","tag":{"amenity":"waste_basket"}},"type":"Feature"},
	{"geometry":{"coordinates":[-5.671273,40.981521],"type":"Point"},"properties":{"osm_id":"3180539667","tag":{"amenity":"waste_basket"}},"type":"Feature"},
	{"geometry":{"coordinates":[-5.672284,40.981623],"type":"Point"},"properties":{"osm_id":"3180539669","tag":{"amenity":"waste_basket"}},"type":"Feature"},
	{"geometry":{"coordinates":[-5.671232,40.979899],"type":"Point"},"properties":{"osm_id":"3184204221","tag":{"amenity":"waste_basket"}},"type":"Feature"},
	{"geometry":{"coordinates":[-5.670466,40.979967],"type":"Point"},"properties":{"osm_id":"3184204222","tag":{"amenity":"waste_basket"}},"type":"Feature"},
	{"geometry":{"coordinates":[-5.670298,40.980826],"type":"Point"},"properties":{"osm_id":"3184311139","tag":{"amenity":"waste_basket"}},"type":"Feature"},
	{"geometry":{"coordinates":[-5.670977,40.980896],"type":"Point"},"properties":{"osm_id":"3184311142","tag":{"amenity":"waste_disposal"}},"type":"Feature"},
	{"geometry":{"coordinates":[-5.669586,40.981296],"type":"Point"},"properties":{"osm_id":"3184361639","tag":{"amenity":"waste_basket"}},"type":"Feature"},
	{"geometry":{"coordinates":[-5.670275,40.981317],"type":"Point"},"properties":{"osm_id":"3184361651","tag":{"amenity":"waste_basket"}},"type":"Feature"},
	{"geometry":{"coordinates":[-5.669834,40.981847],"type":"Point"},"properties":{"osm_id":"3184361795","tag":{"amenity":"waste_basket"}},"type":"Feature"},
	{"geometry":{"coordinates":[-5.669604,40.981966],"type":"Point"},"properties":{"osm_id":"3184361797","tag":{"amenity":"waste_basket"}},"type":"Feature"},
	{"geometry":{"coordinates":[-5.669849,40.979936],"type":"Point"},"properties":{"osm_id":"3191206012","tag":{"amenity":"waste_basket"}},"type":"Feature"},
	{"geometry":{"coordinates":[-5.66969,40.980332],"type":"Point"},"properties":{"osm_id":"3191206016","tag":{"amenity":"waste_basket"}},"type":"Feature"},
	{"geometry":{"coordinates":[-5.67025,40.980436],"type":"Point"},"properties":{"osm_id":"3191206018","tag":{"amenity":"waste_basket"}},"type":"Feature"},
	{"geometry":{"coordinates":[-5.66917,40.980479],"type":"Point"},"properties":{"osm_id":"3191206019","tag":{"amenity":"waste_basket"}},"type":"Feature"},
	{"geometry":{"coordinates":[-5.669241,40.980706],"type":"Point"},"properties":{"osm_id":"3191206030","tag":{"amenity":"waste_disposal"}},"type":"Feature"},
	{"geometry":{"coordinates":[-5.669394,40.980819],"type":"Point"},"properties":{"osm_id":"3191206031","tag":{"amenity":"waste_basket"}},"type":"Feature"},
	{"geometry":{"coordinates":[-5.668573,40.980496],"type":"Point"},"properties":{"osm_id":"3192990664","tag":{"amenity":"waste_basket"}},"type":"Feature"},
	{"geometry":{"coordinates":[-5.669253,40.981061],"type":"Point"},"properties":{"osm_id":"3192990676","tag":{"amenity":"waste_basket"}},"type":"Feature"},
	{"geometry":{"coordinates":[-5.667881,40.981091],"type":"Point"},"properties":{"osm_id":"3192990678","tag":{"amenity":"recycling","recycling:batteries":"yes","recycling:cans":"yes","recycling:cardboard":"yes","recycling:glass_bottles":"yes","recycling:paper":"yes","recycling:plastic_bottles":"yes","recycling:plastic_packaging":"yes","recycling_type":"container"}},"type":"Feature"},
	{"geometry":{"coordinates":[-5.667938,40.981092],"type":"Point"},"properties":{"osm_id":"3192990679","tag":{"amenity":"waste_disposal"}},"type":"Feature"},
	{"geometry":{"coordinates":[-5.668106,40.981595],"type":"Point"},"properties":{"osm_id":"3192990693","tag":{"amenity":"waste_basket"}},"type":"Feature"},
	{"geometry":{"coordinates":[-5.668134,40.981844],"type":"Point"},"properties":{"osm_id":"3192990703","tag":{"amenity":"waste_disposal"}},"type":"Feature"},
	{"geometry":{"coordinates":[-5.667317,40.982558],"type":"Point"},"properties":{"osm_id":"3192990734","tag":{"amenity":"waste_disposal"}},"type":"Feature"},
	{"geometry":{"coordinates":[-5.667482,40.982778],"type":"Point"},"properties":{"osm_id":"3192990747","tag":{"amenity":"waste_basket"}},"type":"Feature"},
	{"geometry":{"coordinates":[-5.667151,40.982794],"type":"Point"},"properties":{"osm_id":"3192990748","tag":{"amenity":"waste_basket"}},"type":"Feature"},
	{"geometry":{"coordinates":[-5.667395,40.981799],"type":"Point"},"properties":{"osm_id":"3193016527","tag":{"amenity":"waste_basket"}},"type":"Feature"},
	{"geometry":{"coordinates":[-5.667397,40.981861],"type":"Point"},"properties":{"osm_id":"3193016533","tag":{"amenity":"waste_basket"}},"type":"Feature"},
	{"geometry":{"coordinates":[-5.667308,40.982029],"type":"Point"},"properties":{"osm_id":"3193016551","tag":{"amenity":"waste_basket"}},"type":"Feature"},
	{"geometry":{"coordinates":[-5.667796,40.982201],"type":"Point"},"properties":{"osm_id":"3193020765","tag":{"amenity":"waste_basket"}},"type":"Feature"},
	{"geometry":{"coordinates":[-5.667755,40.981429],"type":"Point"},"properties":{"osm_id":"3193039700","tag":{"amenity":"waste_basket"}},"type":"Feature"},
	{"geometry":{"coordinates":[-5.66733,40.981444],"type":"Point"},"properties":{"osm_id":"3193039703","tag":{"amenity":"waste_basket"}},"type":"Feature"},
	{"geometry":{"coordinates":[-5.667022,40.981461],"type":"Point"},"properties":{"osm_id":"3193039707","tag":{"amenity":"waste_basket"}},"type":"Feature"},
	{"geometry":{"coordinates":[-5.666662,40.98147],"type":"Point"},"properties":{"osm_id":"3193039712","tag":{"amenity":"waste_basket"}},"type":"Feature"},
	{"geometry":{"coordinates":[-5.667083,40.981471],"type":"Point"},"properties":{"osm_id":"3193039713","tag":{"amenity":"recycling","recycling:batteries":"yes","recycling:cans":"yes","recycling:cardboard":"yes","recycling:clothes":"no","recycling:glass_bottles":"yes","recycling:paper":"yes","recycling:plastic_bottles":"yes","recycling:plastic_packaging":"yes","recycling_type":"container"}},"type":"Feature"},
	{"geometry":{"coordinates":[-5.667079,40.981672],"type":"Point"},"properties":{"osm_id":"3193039736","tag":{"amenity":"waste_basket"}},"type":"Feature"},
	{"geometry":{"coordinates":[-5.666997,40.981805],"type":"Point"},"properties":{"osm_id":"3193047365","tag":{"amenity":"waste_basket"}},"type":"Feature"},
	{"geometry":{"coordinates":[-5.667266,40.981299],"type":"Point"},"properties":{"osm_id":"3193049801","tag":{"amenity":"waste_basket"}},"type":"Feature"},
	{"geometry":{"coordinates":[-5.667252,40.980933],"type":"Point"},"properties":{"osm_id":"3193064259","tag":{"amenity":"waste_basket"}},"type":"Feature"},
	{"geometry":{"coordinates":[-5.667048,40.98094],"type":"Point"},"properties":{"osm_id":"3193064261","tag":{"amenity":"waste_basket"}},"type":"Feature"},
	{"geometry":{"coordinates":[-5.667659,40.980963],"type":"Point"},"properties":{"osm_id":"3193064262","tag":{"amenity":"waste_disposal"}},"type":"Feature"},
	{"geometry":{"coordinates":[-5.667232,40.980007],"type":"Point"},"properties":{"osm_id":"3193540562","tag":{"amenity":"waste_basket"}},"type":"Feature"},
	{"geometry":{"coordinates":[-5.667414,40.980211],"type":"Point"},"properties":{"osm_id":"3193540583","tag":{"amenity":"waste_basket"}},"type":"Feature"},
	{"geometry":{"coordinates":[-5.667276,40.980552],"type":"Point"},"properties":{"osm_id":"3193540617","tag":{"amenity":"waste_basket"}},"type":"Feature"},
	{"geometry":{"coordinates":[-5.66722,40.980665],"type":"Point"},"properties":{"osm_id":"3193540628","tag":{"amenity":"waste_disposal"}},"type":"Feature"},
	{"geometry":{"coordinates":[-5.667049,40.980667],"type":"Point"},"properties":{"osm_id":"3193540630","tag":{"amenity":"waste_disposal"}},"type":"Feature"},
	{"geometry":{"coordinates":[-5.66692,40.980384],"type":"Point"},"properties":{"osm_id":"3193600527","tag":{"amenity":"waste_basket"}},"type":"Feature"},
	{"geometry":{"coordinates":[-5.666369,40.980384],"type":"Point"},"properties":{"osm_id":"3193600528","tag":{"amenity":"waste_basket"}},"type":"Feature"},
	{"geometry":{"coordinates":[-5.666936,40.980629],"type":"Point"},"properties":{"osm_id":"3193602164","tag":{"amenity":"waste_basket"}},"type":"Feature"},
	{"geometry":{"coordinates":[-5.666418,40.980666],"type":"Point"},"properties":{"osm_id":"3193602187","tag":{"amenity":"waste_basket"}},"type":"Feature"},
	{"geometry":{"coordinates":[-5.666016,40.980228],"type":"Point"},"properties":{"osm_id":"3195205376","tag":{"amenity":"waste_basket"}},"type":"Feature"},
	{"geometry":{"coordinates":[-5.665879,40.980424],"type":"Point"},"properties":{"osm_id":"3195205400","tag":{"amenity":"waste_basket"}},"type":"Feature"},
	{"geometry":{"coordinates":[-5.665845,40.980682],"type":"Point"},"properties":{"osm_id":"3195205418","tag":{"amenity":"waste_basket"}},"type":"Feature"},
	{"geometry":{"coordinates":[-5.666948,40.980021],"type":"Point"},"properties":{"osm_id":"3195229160","tag":{"amenity":"waste_basket"}},"type":"Feature"},
	{"geometry":{"coordinates":[-5.665835,40.980062],"type":"Point"},"properties":{"osm_id":"3195229170","tag":{"amenity":"waste_basket"}},"type":"Feature"},
	{"geometry":{"coordinates":[-5.666538,40.980148],"type":"Point"},"properties":{"osm_id":"3195229200","tag":{"amenity":"waste_basket"}},"type":"Feature"},
	{"geometry":{"coordinates":[-5.666252,40.980153],"type":"Point"},"properties":{"osm_id":"3195229202","tag":{"amenity":"waste_basket"}},"type":"Feature"},
	{"geometry":{"coordinates":[-5.666772,40.980205],"type":"Point"},"properties":{"osm_id":"3195229225","tag":{"amenity":"waste_basket"}},"type":"Feature"},
	{"geometry":{"coordinates":[-5.66634,40.98031],"type":"Point"},"properties":{"osm_id":"3195229254","tag":{"amenity":"waste_basket"}},"type":"Feature"},
	{"geometry":{"coordinates":[-5.66529,40.979974],"type":"Point"},"properties":{"osm_id":"3195299645","tag":{"amenity":"waste_disposal"}},"type":"Feature"},
	{"geometry":{"coordinates":[-5.66531,40.980164],"type":"Point"},"properties":{"osm_id":"3195299646","tag":{"amenity":"waste_basket"}},"type":"Feature"},
	{"geometry":{"coordinates":[-5.665308,40.980499],"type":"Point"},"properties":{"osm_id":"3195299647","tag":{"amenity":"waste_disposal"}},"type":"Feature"},
	{"geometry":{"coordinates":[-5.665349,40.980983],"type":"Point"},"properties":{"osm_id":"3195299648","tag":{"amenity":"waste_basket"}},"type":"Feature"},
	{"geometry":{"coordinates":[-5.666383,40.980987],"type":"Point"},"properties":{"osm_id":"3195329811","tag":{"amenity":"waste_basket"}},"type":"Feature"},
	{"geometry":{"coordinates":[-5.666218,40.981006],"type":"Point"},"properties":{"osm_id":"3195329818","tag":{"amenity":"waste_disposal"}},"type":"Feature"},
	{"geometry":{"coordinates":[-5.665922,40.981023],"type":"Point"},"properties":{"osm_id":"3195329819","tag":{"amenity":"recycling","recycling:batteries":"yes","recycling:cans":"yes","recycling:cardboard":"yes","recycling:glass_bottles":"yes","recycling:paper":"yes","recycling:plastic_bottles":"yes","recycling:plastic_packaging":"yes","recycling_type":"container"}},"type":"Feature"},
	{"geometry":{"coordinates":[-5.66643,40.981135],"type":"Point"},"properties":{"osm_id":"3195329820","tag":{"amenity":"waste_disposal"}},"type":"Feature"},
	{"geometry":{"coordinates":[-5.666303,40.981236],"type":"Point"},"properties":{"osm_id":"3195329825","tag":{"amenity":"waste_basket"}},"type":"Feature"},
	{"geometry":{"coordinates":[-5.665643,40.981242],"type":"Point"},"properties":{"osm_id":"3195329826","tag":{"amenity":"waste_basket"}},"type":"Feature"},
	{"geometry":{"coordinates":[-5.665411,40.981258],"type":"Point"},"properties":{"osm_id":"3195329834","tag":{"amenity":"waste_basket"}},"type":"Feature"},
	{"geometry":{"coordinates":[-5.665411,40.981432],"type":"Point"},"properties":{"osm_id":"3195329850","tag":{"amenity":"waste_basket"}},"type":"Feature"},
	{"geometry":{"coordinates":[-5.665192,40.981294],"type":"Point"},"properties":{"osm_id":"3195392972","tag":{"amenity":"waste_basket"}},"type":"Feature"},
	{"geometry":{"coordinates":[-5.666111,40.981607],"type":"Point"},"properties":{"osm_id":"3195392987","tag":{"amenity":"waste_basket"}},"type":"Feature"},
	{"geometry":{"coordinates":[-5.665586,40.981853],"type":"Point"},"properties":{"osm_id":"3195393007","tag":{"amenity":"waste_basket"}},"type":"Feature"},
	{"geometry":{"coordinates":[-5.66615,40.981939],"type":"Point"},"properties":{"osm_id":"3195393025","tag":{"amenity":"waste_disposal"}},"type":"Feature"},
	{"geometry":{"coordinates":[-5.666367,40.982356],"type":"Point"},"properties":{"osm_id":"3195393072","tag":{"amenity":"waste_basket"}},"type":"Feature"},
	{"geometry":{"coordinates":[-5.666207,40.982968],"type":"Point"},"properties":{"osm_id":"3195408555","tag":{"amenity":"waste_disposal"}},"type":"Feature"},
	{"geometry":{"coordinates":[-5.667174,40.983132],"type":"Point"},"properties":{"osm_id":"3195408558","tag":{"amenity":"waste_basket"}},"type":"Feature"},
	{"geometry":{"coordinates":[-5.666562,40.983138],"type":"Point"},"properties":{"osm_id":"3195408559","tag":{"amenity":"waste_basket"}},"type":"Feature"},
	{"geometry":{"coordinates":[-5.667407,40.98388],"type":"Point"},"properties":{"osm_id":"3195408574","tag":{"amenity":"waste_basket"}},"type":"Feature"},
	{"geometry":{"coordinates":[-5.667216,40.984266],"type":"Point"},"properties":{"osm_id":"3195408597","tag":{"amenity":"waste_basket"}},"type":"Feature"},
	{"geometry":{"coordinates":[-5.667253,40.984512],"type":"Point"},"properties":{"osm_id":"3195408617","tag":{"amenity":"waste_disposal"}},"type":"Feature"},
	{"geometry":{"coordinates":[-5.666286,40.984728],"type":"Point"},"properties":{"osm_id":"3195408631","tag":{"amenity":"waste_basket"}},"type":"Feature"},
	{"geometry":{"coordinates":[-5.667218,40.984842],"type":"Point"},"properties":{"osm_id":"3195408634","tag":{"amenity":"waste_basket"}},"type":"Feature"},
	{"geometry":{"coordinates":[-5.665005,40.984905],"type":"Point"},"properties":{"osm_id":"3195408635","tag":{"amenity":"waste_basket"}},"type":"Feature"},
	{"geometry":{"coordinates":[-5.666163,40.983407],"type":"Point"},"properties":{"osm_id":"3195414714","tag":{"amenity":"waste_basket"}},"type":"Feature"},
	{"geometry":{"coordinates":[-5.666457,40.984099],"type":"Point"},"properties":{"osm_id":"3195414715","tag":{"amenity":"waste_basket"}},"type":"Feature"},
	{"geometry":{"coordinates":[-5.664262,40.983216],"type":"Point"},"properties":{"osm_id":"3195421520","tag":{"amenity":"waste_disposal"}},"type":"Feature"},
	{"geometry":{"coordinates":[-5.664363,40.983596],"type":"Point"},"properties":{"osm_id":"3195421529","tag":{"amenity":"waste_basket"}},"type":"Feature"},
	{"geometry":{"coordinates":[-5.664503,40.984421],"type":"Point"},"properties":{"osm_id":"3195421541","tag":{"amenity":"waste_disposal"}},"type":"Feature"},
	{"geometry":{"coordinates":[-5.665109,40.981039],"type":"Point"},"properties":{"osm_id":"3195468609","tag":{"amenity":"waste_basket"}},"type":"Feature"},
	{"geometry":{"coordinates":[-5.66356,40.981442],"type":"Point"},"properties":{"osm_id":"3195468616","tag":{"amenity":"waste_disposal"}},"type":"Feature"},
	{"geometry":{"coordinates":[-5.664198,40.982924],"type":"Point"},"properties":{"osm_id":"3195468672","tag":{"amenity":"waste_disposal"}},"type":"Feature"},
	{"geometry":{"coordinates":[-5.651136,40.982302],"type":"Point"},"properties":{"osm_id":"3196929367","tag":{"amenity":"waste_basket"}},"type":"Feature"},
	{"geometry":{"coordinates":[-5.65166,40.982427],"type":"Point"},"properties":{"osm_id":"3196929372","tag":{"amenity":"waste_basket"}},"type":"Feature"},
	{"geometry":{"coordinates":[-5.651885,40.982503],"type":"Point"},"properties":{"osm_id":"3196929377","tag":{"amenity":"waste_basket"}},"type":"Feature"},
	{"geometry":{"coordinates":[-5.65241,40.982565],"type":"Point"},"properties":{"osm_id":"3196929381","tag":{"amenity":"waste_basket"}},"type":"Feature"},
	{"geometry":{"coordinates":[-5.652079,40.982881],"type":"Point"},"properties":{"osm_id":"3196929393","tag":{"amenity":"waste_basket"}},"type":"Feature"},
	{"geometry":{"coordinates":[-5.651297,40.983043],"type":"Point"},"properties":{"osm_id":"3196929398","tag":{"amenity":"waste_basket"}},"type":"Feature"},
	{"geometry":{"coordinates":[-5.653224,40.982374],"type":"Point"},"properties":{"osm_id":"3196993081","tag":{"amenity":"waste_basket"}},"type":"Feature"},
	{"geometry":{"coordinates":[-5.651392,40.981586],"type":"Point"},"properties":{"osm_id":"3198180421","tag":{"amenity":"waste_basket"}},"type":"Feature"},
	{"geometry":{"coordinates":[-5.651853,40.981785],"type":"Point"},"properties":{"osm_id":"3198180426","tag":{"amenity":"waste_basket"}},"type":"Feature"},
	{"geometry":{"coordinates":[-5.651511,40.981995],"type":"Point"},"properties":{"osm_id":"3198180445","tag":{"amenity":"waste_basket"}},"type":"Feature"},
	{"geometry":{"coordinates":[-5.674906,40.980112],"type":"Point"},"properties":{"osm_id":"3226204240","tag":{"amenity":"waste_disposal"}},"type":"Feature"},
	{"geometry":{"coordinates":[-5.674149,40.979968],"type":"Point"},"properties":{"osm_id":"3227767259","tag":{"amenity":"waste_basket"}},"type":"Feature"},
	{"geometry":{"coordinates":[-5.674311,40.979976],"type":"Point"},"properties":{"osm_id":"3227767260","tag":{"amenity":"waste_disposal"}},"type":"Feature"},
	{"geometry":{"coordinates":[-5.673703,40.980208],"type":"Point"},"properties":{"osm_id":"3227813597","tag":{"amenity":"waste_basket"}},"type":"Feature"},
	{"geometry":{"coordinates":[-5.673319,40.981145],"type":"Point"},"properties":{"osm_id":"3227827905","tag":{"amenity":"waste_basket"}},"type":"Feature"},
	{"geometry":{"coordinates":[-5.674265,40.981257],"type":"Point"},"properties":{"osm_id":"3227827910","tag":{"amenity":"waste_basket"}},"type":"Feature"},
	{"geometry":{"coordinates":[-5.67345,40.981272],"type":"Point"},"properties":{"osm_id":"3227827911","tag":{"amenity":"waste_basket"}},"type":"Feature"},
	{"geometry":{"coordinates":[-5.674235,40.981349],"type":"Point"},"properties":{"osm_id":"3227827914","tag":{"amenity":"waste_basket"}},"type":"Feature"},
	{"geometry":{"coordinates":[-5.674348,40.98137],"type":"Point"},"properties":{"osm_id":"3227827917","tag":{"amenity":"waste_basket"}},"type":"Feature"},
	{"geometry":{"coordinates":[-5.674297,40.981651],"type":"Point"},"properties":{"osm_id":"3227827935","tag":{"amenity":"waste_basket"}},"type":"Feature"},
	{"geometry":{"coordinates":[-5.672524,40.981522],"type":"Point"},"properties":{"osm_id":"3227836529","tag":{"amenity":"waste_basket"}},"type":"Feature"},
	{"geometry":{"coordinates":[-5.673464,40.98162],"type":"Point"},"properties":{"osm_id":"3227836547","tag":{"amenity":"recycling","recycling:batteries":"yes","recycling:cans":"yes","recycling:cardboard":"yes","recycling:clothes":"no","recycling:glass_bottles":"yes","recycling:paper":"yes","recycling:plastic_bottles":"yes","recycling:plastic_packaging":"yes","recycling_type":"container"}},"type":"Feature"},
	{"geometry":{"coordinates":[-5.673583,40.981634],"type":"Point"},"properties":{"osm_id":"3227836549","tag":{"amenity":"recycling","recycling:cans":"yes","recycling:cardboard":"yes","recycling:glass_bottles":"yes","recycling:paper":"yes","recycling:plastic_bottles":"yes","recycling:plastic_packaging":"yes","recycling_type":"container"}},"type":"Feature"},
	{"geometry":{"coordinates":[-5.674079,40.981699],"type":"Point"},"properties":{"osm_id":"3227836551","tag":{"amenity":"waste_disposal"}},"type":"Feature"},
	{"geometry":{"coordinates":[-5.673423,40.981741],"type":"Point"},"properties":{"osm_id":"3227836552","tag":{"amenity":"waste_basket"}},"type":"Feature"},
	{"geometry":{"coordinates":[-5.675109,40.98172],"type":"Point"},"properties":{"osm_id":"3227860237","tag":{"amenity":"waste_basket"}},"type":"Feature"},
	{"geometry":{"coordinates":[-5.674738,40.981097],"type":"Point"},"properties":{"osm_id":"3227866057","tag":{"amenity":"waste_basket"}},"type":"Feature"},
	{"geometry":{"coordinates":[-5.67485,40.980331],"type":"Point"},"properties":{"osm_id":"3227938904","tag":{"amenity":"waste_basket"}},"type":"Feature"},
	{"geometry":{"coordinates":[-5.674973,40.980482],"type":"Point"},"properties":{"osm_id":"3227938914","tag":{"amenity":"recycling","recycling:batteries":"yes","recycling_type":"container"}},"type":"Feature"},
	{"geometry":{"coordinates":[-5.675918,40.980526],"type":"Point"},"properties":{"osm_id":"3227938927","tag":{"amenity":"waste_disposal"}},"type":"Feature"},
	{"geometry":{"coordinates":[-5.675935,40.980567],"type":"Point"},"properties":{"osm_id":"3227938935","tag":{"amenity":"recycling","recycling:batteries":"yes","recycling:cans":"yes","recycling:cardboard":"yes","recycling:glass_bottles":"yes","recycling:paper":"yes","recycling:plastic_bottles":"yes","recycling:plastic_packaging":"yes","recycling_type":"container"}},"type":"Feature"},
	{"geometry":{"coordinates":[-5.675239,40.980633],"type":"Point"},"properties":{"osm_id":"3227938954","tag":{"amenity":"waste_basket"}},"type":"Feature"},
	{"geometry":{"coordinates":[-5.675185,40.980969],"type":"Point"},"properties":{"osm_id":"3227939312","tag":{"amenity":"waste_basket"}},"type":"Feature"},
	{"geometry":{"coordinates":[-5.675384,40.981073],"type":"Point"},"properties":{"osm_id":"3227950377","tag":{"amenity":"waste_basket"}},"type":"Feature"},
	{"geometry":{"coordinates":[-5.676109,40.981187],"type":"Point"},"properties":{"osm_id":"3227950402","tag":{"amenity":"waste_basket"}},"type":"Feature"},
	{"geometry":{"coordinates":[-5.675694,40.979999],"type":"Point"},"properties":{"osm_id":"3227966414","tag":{"amenity":"waste_basket"}},"type":"Feature"},
	{"geometry":{"coordinates":[-5.67633,40.980394],"type":"Point"},"properties":{"osm_id":"3229493404","tag":{"amenity":"waste_disposal"}},"type":"Feature"},
	{"geometry":{"coordinates":[-5.676657,40.980627],"type":"Point"},"properties":{"osm_id":"3229493420","tag":{"amenity":"recycling","recycling:batteries":"yes","recycling:cans":"yes","recycling:cardboard":"yes","recycling:glass_bottles":"yes","recycling:paper":"yes","recycling:plastic_bottles":"yes","recycling:plastic_packaging":"yes","recycling_type":"container"}},"type":"Feature"},
	{"geometry":{"coordinates":[-5.67718,40.98073],"type":"Point"},"properties":{"osm_id":"3229493431","tag":{"amenity":"waste_basket"}},"type":"Feature"},
	{"geometry":{"coordinates":[-5.676107,40.979933],"type":"Point"},"properties":{"osm_id":"3229506974","tag":{"amenity":"waste_disposal"}},"type":"Feature"},
	{"geometry":{"coordinates":[-5.679193,40.979975],"type":"Point"},"properties":{"osm_id":"3291997380","tag":{"amenity":"waste_basket"}},"type":"Feature"},
	{"geometry":{"coordinates":[-5.679077,40.980269],"type":"Point"},"properties":{"osm_id":"3292016192","tag":{"amenity":"waste_basket"}},"type":"Feature"},
	{"geometry":{"coordinates":[-5.664916,40.987432],"type":"Point"},"properties":{"osm_id":"3425318451","tag":{"amenity":"waste_disposal"}},"type":"Feature"},
	{"geometry":{"coordinates":[-5.647449,40.986467],"type":"Point"},"properties":{"osm_id":"3512894829","tag":{"amenity":"waste_disposal"}},"type":"Feature"},
	{"geometry":{"coordinates":[-5.660432,40.982258],"type":"Point"},"properties":{"osm_id":"3661323396","tag":{"amenity":"waste_basket"}},"type":"Feature"},
	{"geometry":{"coordinates":[-5.660535,40.982453],"type":"Point"},"properties":{"osm_id":"3661323416","tag":{"amenity":"waste_disposal"}},"type":"Feature"},
	{"geometry":{"coordinates":[-5.660493,40.983226],"type":"Point"},"properties":{"osm_id":"3661323745","tag":{"amenity":"waste_disposal"}},"type":"Feature"},
	{"geometry":{"coordinates":[-5.660147,40.983927],"type":"Point"},"properties":{"osm_id":"3661323998","tag":{"amenity":"waste_disposal"}},"type":"Feature"},
	{"geometry":{"coordinates":[-5.658152,40.980983],"type":"Point"},"properties":{"osm_id":"3661399440","tag":{"amenity":"waste_basket"}},"type":"Feature"},
	{"geometry":{"coordinates":[-5.658347,40.98104],"type":"Point"},"properties":{"osm_id":"3661399443","tag":{"amenity":"waste_disposal"}},"type":"Feature"},
	{"geometry":{"coordinates":[-5.658321,40.981061],"type":"Point"},"properties":{"osm_id":"3661399445","tag":{"amenity":"recycling","recycling:cans":"yes","recycling:glass_bottles":"yes","recycling:plastic_bottles":"yes","recycling:plastic_packaging":"yes","recycling:waste":"yes","recycling_type":"container"}},"type":"Feature"},
	{"geometry":{"coordinates":[-5.658412,40.981119],"type":"Point"},"properties":{"osm_id":"3661399448","tag":{"amenity":"waste_basket"}},"type":"Feature"},
	{"geometry":{"coordinates":[-5.658963,40.981142],"type":"Point"},"properties":{"osm_id":"3661399449","tag":{"amenity":"recycling","recycling:cans":"yes","recycling:glass_bottles":"yes","recycling:plastic_bottles":"yes","recycling:plastic_packaging":"yes","recycling_type":"container"}},"type":"Feature"},
	{"geometry":{"coordinates":[-5.658913,40.981198],"type":"Point"},"properties":{"osm_id":"3661399453","tag":{"amenity":"waste_basket"}},"type":"Feature"},
	{"geometry":{"coordinates":[-5.658962,40.981494],"type":"Point"},"properties":{"osm_id":"3661399481","tag":{"amenity":"waste_basket"}},"type":"Feature"},
	{"geometry":{"coordinates":[-5.659677,40.981552],"type":"Point"},"properties":{"osm_id":"3661399488","tag":{"amenity":"waste_basket"}},"type":"Feature"},
	{"geometry":{"coordinates":[-5.659119,40.981695],"type":"Point"},"properties":{"osm_id":"3661399502","tag":{"amenity":"waste_disposal"}},"type":"Feature"},
	{"geometry":{"coordinates":[-5.659898,40.981704],"type":"Point"},"properties":{"osm_id":"3661399503","tag":{"amenity":"waste_basket"}},"type":"Feature"},
	{"geometry":{"coordinates":[-5.660077,40.981899],"type":"Point"},"properties":{"osm_id":"3661399524","tag":{"amenity":"waste_disposal"}},"type":"Feature"},
	{"geometry":{"coordinates":[-5.65967,40.982058],"type":"Point"},"properties":{"osm_id":"3661399534","tag":{"amenity":"waste_basket"}},"type":"Feature"},
	{"geometry":{"coordinates":[-5.660897,40.981496],"type":"Point"},"properties":{"osm_id":"3661415304","tag":{"amenity":"waste_disposal"}},"type":"Feature"},
	{"geometry":{"coordinates":[-5.660844,40.98199],"type":"Point"},"properties":{"osm_id":"3661415318","tag":{"amenity":"waste_basket"}},"type":"Feature"},
	{"geometry":{"coordinates":[-5.661151,40.980022],"type":"Point"},"properties":{"osm_id":"3661430958","tag":{"amenity":"waste_basket"}},"type":"Feature"},
	{"geometry":{"coordinates":[-5.661,40.980718],"type":"Point"},"properties":{"osm_id":"3661430959","tag":{"amenity":"waste_disposal"}},"type":"Feature"},
	{"geometry":{"coordinates":[-5.660833,40.98124],"type":"Point"},"properties":{"osm_id":"3661430977","tag":{"amenity":"waste_basket"}},"type":"Feature"},
	{"geometry":{"coordinates":[-5.657688,40.992949],"type":"Point"},"properties":{"osm_id":"3662711621","tag":{"amenity":"recycling","recycling:glass_bottles":"yes","recycling:paper":"yes","recycling:plastic":"yes","recycling:plastic_bottles":"no","recycling_type":"container"}},"type":"Feature"},
	{"geometry":{"coordinates":[-5.655785,40.992707],"type":"Point"},"properties":{"osm_id":"3662842570","tag":{"amenity":"waste_basket"}},"type":"Feature"},
	{"geometry":{"coordinates":[-5.654908,40.992125],"type":"Point"},"properties":{"osm_id":"3662912431","tag":{"amenity":"waste_disposal"}},"type":"Feature"},
	{"geometry":{"coordinates":[-5.656893,40.99348],"type":"Point"},"properties":{"osm_id":"3664354944","tag":{"amenity":"waste_basket"}},"type":"Feature"},
	{"geometry":{"coordinates":[-5.657275,40.993733],"type":"Point"},"properties":{"osm_id":"3664355023","tag":{"amenity":"waste_basket"}},"type":"Feature"},
	{"geometry":{"coordinates":[-5.65735,40.994519],"type":"Point"},"properties":{"osm_id":"3671310629","tag":{"amenity":"waste_disposal"}},"type":"Feature"},
	{"geometry":{"coordinates":[-5.655104,40.993769],"type":"Point"},"properties":{"osm_id":"3674579867","tag":{"amenity":"waste_basket"}},"type":"Feature"},
	{"geometry":{"coordinates":[-5.655194,40.99397],"type":"Point"},"properties":{"osm_id":"3674579880","tag":{"amenity":"waste_basket"}},"type":"Feature"},
	{"geometry":{"coordinates":[-5.655241,40.994004],"type":"Point"},"properties":{"osm_id":"3674579887","tag":{"amenity":"waste_basket"}},"type":"Feature"},
	{"geometry":{"coordinates":[-5.657143,40.995391],"type":"Point"},"properties":{"osm_id":"3745434809","tag":{"amenity":"waste_disposal"}},"type":"Feature"},
	{"geometry":{"coordinates":[-5.657199,40.99443],"type":"Point"},"properties":{"osm_id":"3749081987","tag":{"amenity":"waste_basket"}},"type":"Feature"},
	{"geometry":{"coordinates":[-5.654962,40.994067],"type":"Point"},"properties":{"osm_id":"3749101583","tag":{"amenity":"recycling","recycling:cans":"yes","recycling:cardboard":"yes","recycling:glass_bottles":"yes","recycling:paper":"yes","recycling:plastic":"yes","recycling:plastic_bottles":"yes","recycling:plastic_packaging":"yes","recycling_type":"container"}},"type":"Feature"},
	{"geometry":{"coordinates":[-5.654944,40.994106],"type":"Point"},"properties":{"osm_id":"3749101584","tag":{"amenity":"waste_disposal"}},"type":"Feature"},
	{"geometry":{"coordinates":[-5.648931,41.005124],"type":"Point"},"properties":{"osm_id":"3784441108","tag":{"amenity":"waste_disposal"}},"type":"Feature"},
	{"geometry":{"coordinates":[-5.648726,41.006418],"type":"Point"},"properties":{"osm_id":"3784489263","tag":{"amenity":"waste_disposal"}},"type":"Feature"},
	{"geometry":{"coordinates":[-5.649613,41.006479],"type":"Point"},"properties":{"osm_id":"3787360699","tag":{"amenity":"waste_disposal"}},"type":"Feature"},
	{"geometry":{"coordinates":[-5.649689,41.004926],"type":"Point"},"properties":{"osm_id":"3787375126","tag":{"amenity":"waste_basket"}},"type":"Feature"},
	{"geometry":{"coordinates":[-5.649655,41.005698],"type":"Point"},"properties":{"osm_id":"3787375149","tag":{"amenity":"waste_basket"}},"type":"Feature"},
	{"geometry":{"coordinates":[-5.649432,41.006106],"type":"Point"},"properties":{"osm_id":"3787380269","tag":{"amenity":"waste_basket"}},"type":"Feature"},
	{"geometry":{"coordinates":[-5.649476,41.007113],"type":"Point"},"properties":{"osm_id":"3787425552","tag":{"amenity":"waste_basket"}},"type":"Feature"},
	{"geometry":{"coordinates":[-5.649359,41.007072],"type":"Point"},"properties":{"osm_id":"3787450362","tag":{"amenity":"recycling","recycling:batteries":"yes","recycling:cans":"yes","recycling:cardboard":"yes","recycling:glass_bottles":"yes","recycling:paper":"yes","recycling:plastic":"yes","recycling:plastic_bottles":"yes","recycling:plastic_packaging":"yes","recycling_type":"container"}},"type":"Feature"},
	{"geometry":{"coordinates":[-5.649362,41.007126],"type":"Point"},"properties":{"osm_id":"3787450363","tag":{"amenity":"waste_disposal"}},"type":"Feature"},
	{"geometry":{"coordinates":[-5.647746,41.006598],"type":"Point"},"properties":{"osm_id":"3787512728","tag":{"amenity":"waste_disposal"}},"type":"Feature"},
	{"geometry":{"coordinates":[-5.648795,41.004935],"type":"Point"},"properties":{"osm_id":"3788962828","tag":{"amenity":"waste_disposal"}},"type":"Feature"},
	{"geometry":{"coordinates":[-5.649026,41.003323],"type":"Point"},"properties":{"osm_id":"3792310886","tag":{"amenity":"waste_disposal"}},"type":"Feature"},
	{"geometry":{"coordinates":[-5.648191,41.002865],"type":"Point"},"properties":{"osm_id":"3792327315","tag":{"amenity":"waste_disposal"}},"type":"Feature"},
	{"geometry":{"coordinates":[-5.648348,41.003408],"type":"Point"},"properties":{"osm_id":"3792327330","tag":{"amenity":"waste_disposal"}},"type":"Feature"},
	{"geometry":{"coordinates":[-5.648266,41.003515],"type":"Point"},"properties":{"osm_id":"3792327332","tag":{"amenity":"waste_disposal"}},"type":"Feature"},
	{"geometry":{"coordinates":[-5.647697,41.004329],"type":"Point"},"properties":{"osm_id":"3792337246","tag":{"amenity":"waste_disposal"}},"type":"Feature"},
	{"geometry":{"coordinates":[-5.647943,41.005893],"type":"Point"},"properties":{"osm_id":"3792350736","tag":{"amenity":"waste_basket"}},"type":"Feature"},
	{"geometry":{"coordinates":[-5.647212,41.003304],"type":"Point"},"properties":{"osm_id":"3792419488","tag":{"amenity":"waste_basket"}},"type":"Feature"},
	{"geometry":{"coordinates":[-5.647331,41.00367],"type":"Point"},"properties":{"osm_id":"3792419503","tag":{"amenity":"waste_disposal"}},"type":"Feature"},
	{"geometry":{"coordinates":[-5.647471,41.004208],"type":"Point"},"properties":{"osm_id":"3792419528","tag":{"amenity":"waste_basket"}},"type":"Feature"},
	{"geometry":{"coordinates":[-5.646779,41.003484],"type":"Point"},"properties":{"osm_id":"3792472722","tag":{"amenity":"waste_disposal"}},"type":"Feature"},
	{"geometry":{"coordinates":[-5.646295,41.003562],"type":"Point"},"properties":{"osm_id":"3792472740","tag":{"amenity":"waste_basket"}},"type":"Feature"},
	{"geometry":{"coordinates":[-5.646297,41.003729],"type":"Point"},"properties":{"osm_id":"3792473079","tag":{"amenity":"waste_basket"}},"type":"Feature"},
	{"geometry":{"coordinates":[-5.646076,41.00381],"type":"Point"},"properties":{"osm_id":"3792473113","tag":{"amenity":"waste_basket"}},"type":"Feature"},
	{"geometry":{"coordinates":[-5.645395,41.003446],"type":"Point"},"properties":{"osm_id":"3792627415","tag":{"amenity":"waste_disposal"}},"type":"Feature"},
	{"geometry":{"coordinates":[-5.645462,41.003964],"type":"Point"},"properties":{"osm_id":"3792645720","tag":{"amenity":"waste_disposal"}},"type":"Feature"},
	{"geometry":{"coordinates":[-5.644035,41.003819],"type":"Point"},"properties":{"osm_id":"3793787377","tag":{"amenity":"waste_disposal"}},"type":"Feature"},
	{"geometry":{"coordinates":[-5.644123,41.004427],"type":"Point"},"properties":{"osm_id":"3794141179","tag":{"amenity":"waste_disposal"}},"type":"Feature"},
	{"geometry":{"coordinates":[-5.644092,41.004437],"type":"Point"},"properties":{"osm_id":"3794141182","tag":{"amenity":"recycling","recycling:glass_bottles":"yes","recycling_type":"container"}},"type":"Feature"},
	{"geometry":{"coordinates":[-5.643388,41.00473],"type":"Point"},"properties":{"osm_id":"3804705178","tag":{"amenity":"waste_disposal"}},"type":"Feature"},
	{"geometry":{"coordinates":[-5.643172,41.005217],"type":"Point"},"properties":{"osm_id":"3804705227","tag":{"amenity":"waste_basket"}},"type":"Feature"},
	{"geometry":{"coordinates":[-5.64397,41.004935],"type":"Point"},"properties":{"osm_id":"3804764126","tag":{"amenity":"waste_disposal"}},"type":"Feature"},
	{"geometry":{"coordinates":[-5.643948,41.00494],"type":"Point"},"properties":{"osm_id":"3804764128","tag":{"amenity":"recycling","recycling:cans":"yes","recycling:glass_bottles":"yes","recycling:paper":"yes","recycling:plastic":"yes","recycling:plastic_bottles":"yes","recycling:plastic_packaging":"yes","recycling_type":"container"}},"type":"Feature"},
	{"geometry":{"coordinates":[-5.644803,41.004435],"type":"Point"},"properties":{"osm_id":"3804795520","tag":{"amenity":"waste_disposal"}},"type":"Feature"},
	{"geometry":{"coordinates":[-5.644806,41.004443],"type":"Point"},"properties":{"osm_id":"3804795522","tag":{"amenity":"waste_disposal"}},"type":"Feature"},
	{"geometry":{"coordinates":[-5.644509,41.004931],"type":"Point"},"properties":{"osm_id":"3804866339","tag":{"amenity":"waste_disposal"}},"type":"Feature"},
	{"geometry":{"coordinates":[-5.645739,41.004591],"type":"Point"},"properties":{"osm_id":"3806638853","tag":{"amenity":"waste_disposal"}},"type":"Feature"},
	{"geometry":{"coordinates":[-5.646619,41.004422],"type":"Point"},"properties":{"osm_id":"3806655789","tag":{"amenity":"waste_disposal"}},"type":"Feature"},
	{"geometry":{"coordinates":[-5.645838,41.004672],"type":"Point"},"properties":{"osm_id":"3806655827","tag":{"amenity":"waste_basket"}},"type":"Feature"},
	{"geometry":{"coordinates":[-5.646735,41.003703],"type":"Point"},"properties":{"osm_id":"3806668136","tag":{"amenity":"waste_basket"}},"type":"Feature"},
	{"geometry":{"coordinates":[-5.647063,41.004482],"type":"Point"},"properties":{"osm_id":"3806669164","tag":{"amenity":"waste_disposal"}},"type":"Feature"},
	{"geometry":{"coordinates":[-5.646978,41.004567],"type":"Point"},"properties":{"osm_id":"3806669169","tag":{"amenity":"waste_basket"}},"type":"Feature"},
	{"geometry":{"coordinates":[-5.647002,41.004289],"type":"Point"},"properties":{"osm_id":"3806670290","tag":{"amenity":"recycling","recycling:cans":"yes","recycling:glass_bottles":"yes","recycling:paper":"yes","recycling:plastic":"yes","recycling:plastic_bottles":"yes","recycling:plastic_packaging":"yes","recycling_type":"container"}},"type":"Feature"},
	{"geometry":{"coordinates":[-5.656355,40.980568],"type":"Point"},"properties":{"osm_id":"3809582016","tag":{"amenity":"waste_disposal"}},"type":"Feature"},
	{"geometry":{"coordinates":[-5.656306,40.980651],"type":"Point"},"properties":{"osm_id":"3809582018","tag":{"amenity":"waste_disposal"}},"type":"Feature"},
	{"geometry":{"coordinates":[-5.656327,40.980663],"type":"Point"},"properties":{"osm_id":"3809582019","tag":{"amenity":"waste_disposal"}},"type":"Feature"},
	{"geometry":{"coordinates":[-5.656355,40.980683],"type":"Point"},"properties":{"osm_id":"3809582021","tag":{"amenity":"waste_disposal"}},"type":"Feature"},
	{"geometry":{"coordinates":[-5.656476,40.980953],"type":"Point"},"properties":{"osm_id":"3809582033","tag":{"amenity":"waste_basket"}},"type":"Feature"},
	{"geometry":{"coordinates":[-5.656933,40.981299],"type":"Point"},"properties":{"osm_id":"3809582161","tag":{"amenity":"waste_basket"}},"type":"Feature"},
	{"geometry":{"coordinates":[-5.657294,40.981326],"type":"Point"},"properties":{"osm_id":"3809582166","tag":{"amenity":"waste_basket"}},"type":"Feature"},
	{"geometry":{"coordinates":[-5.658235,40.981368],"type":"Point"},"properties":{"osm_id":"3809582175","tag":{"amenity":"waste_basket"}},"type":"Feature"},
	{"geometry":{"coordinates":[-5.658084,40.981554],"type":"Point"},"properties":{"osm_id":"3809582204","tag":{"amenity":"waste_basket"}},"type":"Feature"},
	{"geometry":{"coordinates":[-5.658091,40.98171],"type":"Point"},"properties":{"osm_id":"3809582242","tag":{"amenity":"waste_basket"}},"type":"Feature"},
	{"geometry":{"coordinates":[-5.654695,40.981658],"type":"Point"},"properties":{"osm_id":"3809593532","tag":{"amenity":"recycling","recycling:batteries":"yes","recycling_type":"container"}},"type":"Feature"},
	{"geometry":{"coordinates":[-5.654487,40.981524],"type":"Point"},"properties":{"osm_id":"3809617633","tag":{"amenity":"waste_basket"}},"type":"Feature"},
	{"geometry":{"coordinates":[-5.654218,40.981741],"type":"Point"},"properties":{"osm_id":"3809617637","tag":{"amenity":"waste_basket"}},"type":"Feature"},
	{"geometry":{"coordinates":[-5.653743,40.981771],"type":"Point"},"properties":{"osm_id":"3809617639","tag":{"amenity":"waste_basket"}},"type":"Feature"},
	{"geometry":{"coordinates":[-5.654044,40.981884],"type":"Point"},"properties":{"osm_id":"3809617640","tag":{"amenity":"waste_basket"}},"type":"Feature"},
	{"geometry":{"coordinates":[-5.65349,40.98231],"type":"Point"},"properties":{"osm_id":"3809617649","tag":{"amenity":"waste_basket"}},"type":"Feature"},
	{"geometry":{"coordinates":[-5.653504,40.982488],"type":"Point"},"properties":{"osm_id":"3809617652","tag":{"amenity":"waste_disposal"}},"type":"Feature"},
	{"geometry":{"coordinates":[-5.653526,40.9825],"type":"Point"},"properties":{"osm_id":"3809617653","tag":{"amenity":"waste_basket"}},"type":"Feature"},
	{"geometry":{"coordinates":[-5.651129,40.984474],"type":"Point"},"properties":{"osm_id":"3809638319","tag":{"amenity":"waste_disposal"}},"type":"Feature"},
	{"geometry":{"coordinates":[-5.667936,40.992859],"type":"Point"},"properties":{"osm_id":"3809712427","tag":{"amenity":"waste_basket"}},"type":"Feature"},
	{"geometry":{"coordinates":[-5.668016,40.993058],"type":"Point"},"properties":{"osm_id":"3809712680","tag":{"amenity":"waste_basket"}},"type":"Feature"},
	{"geometry":{"coordinates":[-5.665848,40.984981],"type":"Point"},"properties":{"osm_id":"3809729433","tag":{"amenity":"waste_basket"}},"type":"Feature"},
	{"geometry":{"coordinates":[-5.645807,41.005278],"type":"Point"},"properties":{"osm_id":"3809857919","tag":{"amenity":"waste_disposal"}},"type":"Feature"},
	{"geometry":{"coordinates":[-5.645801,41.005354],"type":"Point"},"properties":{"osm_id":"3809857922","tag":{"amenity":"waste_basket"}},"type":"Feature"},
	{"geometry":{"coordinates":[-5.645974,41.005763],"type":"Point"},"properties":{"osm_id":"3809857954","tag":{"amenity":"waste_basket"}},"type":"Feature"},
	{"geometry":{"coordinates":[-5.646234,41.006064],"type":"Point"},"properties":{"osm_id":"3809858776","tag":{"amenity":"recycling","recycling:glass_bottles":"yes","recycling:green_waste":"no","recycling:paper":"yes","recycling:plastic":"yes","recycling:plastic_bottles":"yes","recycling:plastic_packaging":"yes","recycling_type":"container"}},"type":"Feature"},
	{"geometry":{"coordinates":[-5.646255,41.006085],"type":"Point"},"properties":{"osm_id":"3809858777","tag":{"amenity":"waste_disposal"}},"type":"Feature"},
	{"geometry":{"coordinates":[-5.646536,41.006279],"type":"Point"},"properties":{"osm_id":"3809858778","tag":{"amenity":"waste_basket"}},"type":"Feature"},
	{"geometry":{"coordinates":[-5.6699,40.994072],"type":"Point"},"properties":{"osm_id":"3813929104","tag":{"amenity":"waste_basket"}},"type":"Feature"},
	{"geometry":{"coordinates":[-5.670796,40.994323],"type":"Point"},"properties":{"osm_id":"3813929128","tag":{"amenity":"waste_basket"}},"type":"Feature"},
	{"geometry":{"coordinates":[-5.669651,40.994893],"type":"Point"},"properties":{"osm_id":"3813929973","tag":{"amenity":"waste_basket"}},"type":"Feature"},
	{"geometry":{"coordinates":[-5.670487,40.995138],"type":"Point"},"properties":{"osm_id":"3813930004","tag":{"amenity":"waste_basket"}},"type":"Feature"},
	{"geometry":{"coordinates":[-5.669964,40.995941],"type":"Point"},"properties":{"osm_id":"3813930107","tag":{"amenity":"waste_basket"}},"type":"Feature"},
	{"geometry":{"coordinates":[-5.670427,40.996267],"type":"Point"},"properties":{"osm_id":"3813930199","tag":{"amenity":"waste_basket"}},"type":"Feature"},
	{"geometry":{"coordinates":[-5.647165,41.00525],"type":"Point"},"properties":{"osm_id":"3815127166","tag":{"amenity":"waste_basket"}},"type":"Feature"},
	{"geometry":{"coordinates":[-5.64736,41.005914],"type":"Point"},"properties":{"osm_id":"3815127206","tag":{"amenity":"waste_basket"}},"type":"Feature"},
	{"geometry":{"coordinates":[-5.647422,41.006144],"type":"Point"},"properties":{"osm_id":"3815127221","tag":{"amenity":"waste_basket"}},"type":"Feature"},
	{"geometry":{"coordinates":[-5.647552,41.006225],"type":"Point"},"properties":{"osm_id":"3815127230","tag":{"amenity":"waste_disposal"}},"type":"Feature"},
	{"geometry":{"coordinates":[-5.646668,41.006336],"type":"Point"},"properties":{"osm_id":"3815127243","tag":{"amenity":"waste_disposal"}},"type":"Feature"},
	{"geometry":{"coordinates":[-5.647417,41.00644],"type":"Point"},"properties":{"osm_id":"3815153269","tag":{"amenity":"waste_basket"}},"type":"Feature"},
	{"geometry":{"coordinates":[-5.647133,41.00681],"type":"Point"},"properties":{"osm_id":"3815153345","tag":{"amenity":"waste_basket"}},"type":"Feature"},
	{"geometry":{"coordinates":[-5.647217,41.006812],"type":"Point"},"properties":{"osm_id":"3815153346","tag":{"amenity":"waste_basket"}},"type":"Feature"},
	{"geometry":{"coordinates":[-5.645946,41.006394],"type":"Point"},"properties":{"osm_id":"3815178906","tag":{"amenity":"waste_disposal"}},"type":"Feature"},
	{"geometry":{"coordinates":[-5.646079,41.00561],"type":"Point"},"properties":{"osm_id":"3815180847","tag":{"amenity":"waste_basket"}},"type":"Feature"},
	{"geometry":{"coordinates":[-5.645483,41.00535],"type":"Point"},"properties":{"osm_id":"3815195923","tag":{"amenity":"waste_basket"}},"type":"Feature"},
	{"geometry":{"coordinates":[-5.645255,41.005453],"type":"Point"},"properties":{"osm_id":"3815204955","tag":{"amenity":"waste_basket"}},"type":"Feature"},
	{"geometry":{"coordinates":[-5.64586,41.005882],"type":"Point"},"properties":{"osm_id":"3815205363","tag":{"amenity":"waste_basket"}},"type":"Feature"},
	{"geometry":{"coordinates":[-5.645129,41.00535],"type":"Point"},"properties":{"osm_id":"3815237245","tag":{"amenity":"waste_disposal"}},"type":"Feature"},
	{"geometry":{"coordinates":[-5.645851,41.006252],"type":"Point"},"properties":{"osm_id":"3815258411","tag":{"amenity":"waste_basket"}},"type":"Feature"},
	{"geometry":{"coordinates":[-5.668722,40.993706],"type":"Point"},"properties":{"osm_id":"3815394187","tag":{"amenity":"waste_basket"}},"type":"Feature"},
	{"geometry":{"coordinates":[-5.667102,40.994198],"type":"Point"},"properties":{"osm_id":"3815394230","tag":{"amenity":"waste_basket"}},"type":"Feature"},
	{"geometry":{"coordinates":[-5.669038,40.994275],"type":"Point"},"properties":{"osm_id":"3815394242","tag":{"amenity":"waste_basket"}},"type":"Feature"},
	{"geometry":{"coordinates":[-5.667515,40.994862],"type":"Point"},"properties":{"osm_id":"3815394686","tag":{"amenity":"waste_basket"}},"type":"Feature"},
	{"geometry":{"coordinates":[-5.66793,40.995545],"type":"Point"},"properties":{"osm_id":"3815394751","tag":{"amenity":"waste_basket"}},"type":"Feature"},
	{"geometry":{"coordinates":[-5.667197,40.996525],"type":"Point"},"properties":{"osm_id":"3815394858","tag":{"amenity":"waste_basket"}},"type":"Feature"},
	{"geometry":{"coordinates":[-5.644324,41.008219],"type":"Point"},"properties":{"osm_id":"3816624682","tag":{"amenity":"waste_disposal"}},"type":"Feature"},
	{"geometry":{"coordinates":[-5.645365,41.008079],"type":"Point"},"properties":{"osm_id":"3816636683","tag":{"amenity":"waste_basket"}},"type":"Feature"},
	{"geometry":{"coordinates":[-5.644829,41.007429],"type":"Point"},"properties":{"osm_id":"3816737178","tag":{"amenity":"waste_basket"}},"type":"Feature"},
	{"geometry":{"coordinates":[-5.642732,41.006138],"type":"Point"},"properties":{"osm_id":"3816776352","tag":{"amenity":"waste_disposal"}},"type":"Feature"},
	{"geometry":{"coordinates":[-5.645189,41.006324],"type":"Point"},"properties":{"osm_id":"3816925221","tag":{"amenity":"waste_disposal"}},"type":"Feature"},
	{"geometry":{"coordinates":[-5.647329,41.006998],"type":"Point"},"properties":{"osm_id":"3818561465","tag":{"amenity":"waste_disposal"}},"type":"Feature"},
	{"geometry":{"coordinates":[-5.647638,41.00744],"type":"Point"},"properties":{"osm_id":"3818561485","tag":{"amenity":"waste_disposal"}},"type":"Feature"},
	{"geometry":{"coordinates":[-5.64731,41.007631],"type":"Point"},"properties":{"osm_id":"3818561513","tag":{"amenity":"waste_basket"}},"type":"Feature"},
	{"geometry":{"coordinates":[-5.646971,41.008045],"type":"Point"},"properties":{"osm_id":"3818561545","tag":{"amenity":"waste_disposal"}},"type":"Feature"},
	{"geometry":{"coordinates":[-5.647997,41.008013],"type":"Point"},"properties":{"osm_id":"3820478935","tag":{"amenity":"waste_disposal"}},"type":"Feature"},
	{"geometry":{"coordinates":[-5.648285,41.007115],"type":"Point"},"properties":{"osm_id":"3820516401","tag":{"amenity":"waste_disposal"}},"type":"Feature"},
	{"geometry":{"coordinates":[-5.648559,41.007461],"type":"Point"},"properties":{"osm_id":"3820516405","tag":{"amenity":"waste_disposal"}},"type":"Feature"},
	{"geometry":{"coordinates":[-5.650511,41.007815],"type":"Point"},"properties":{"osm_id":"3820564533","tag":{"amenity":"waste_basket"}},"type":"Feature"},
	{"geometry":{"coordinates":[-5.649405,41.007895],"type":"Point"},"properties":{"osm_id":"3820565576","tag":{"amenity":"waste_basket"}},"type":"Feature"},
	{"geometry":{"coordinates":[-5.649598,41.007335],"type":"Point"},"properties":{"osm_id":"3826178920","tag":{"amenity":"waste_disposal"}},"type":"Feature"},
	{"geometry":{"coordinates":[-5.649741,41.007365],"type":"Point"},"properties":{"osm_id":"3826178926","tag":{"amenity":"waste_basket"}},"type":"Feature"},
	{"geometry":{"coordinates":[-5.650711,41.007399],"type":"Point"},"properties":{"osm_id":"3826178935","tag":{"amenity":"waste_basket"}},"type":"Feature"},
	{"geometry":{"coordinates":[-5.650743,41.007452],"type":"Point"},"properties":{"osm_id":"3826178941","tag":{"amenity":"waste_disposal"}},"type":"Feature"},
	{"geometry":{"coordinates":[-5.650639,41.007588],"type":"Point"},"properties":{"osm_id":"3826178947","tag":{"amenity":"waste_disposal"}},"type":"Feature"},
	{"geometry":{"coordinates":[-5.651018,41.007659],"type":"Point"},"properties":{"osm_id":"3826178951","tag":{"amenity":"waste_disposal"}},"type":"Feature"},
	{"geometry":{"coordinates":[-5.653282,41.007012],"type":"Point"},"properties":{"osm_id":"3826439138","tag":{"amenity":"waste_basket"}},"type":"Feature"},
	{"geometry":{"coordinates":[-5.652744,41.007899],"type":"Point"},"properties":{"osm_id":"3828205054","tag":{"amenity":"waste_basket"}},"type":"Feature"},
	{"geometry":{"coordinates":[-5.652475,41.008525],"type":"Point"},"properties":{"osm_id":"3828205887","tag":{"amenity":"waste_disposal"}},"type":"Feature"},
	{"geometry":{"coordinates":[-5.653353,41.008668],"type":"Point"},"properties":{"osm_id":"3828205897","tag":{"amenity":"waste_basket"}},"type":"Feature"},
	{"geometry":{"coordinates":[-5.654013,41.007567],"type":"Point"},"properties":{"osm_id":"3828230921","tag":{"amenity":"waste_basket"}},"type":"Feature"},
	{"geometry":{"coordinates":[-5.653845,41.007937],"type":"Point"},"properties":{"osm_id":"3828230950","tag":{"amenity":"waste_basket"}},"type":"Feature"},
	{"geometry":{"coordinates":[-5.653737,41.008167],"type":"Point"},"properties":{"osm_id":"3828232161","tag":{"amenity":"waste_basket"}},"type":"Feature"},
	{"geometry":{"coordinates":[-5.653744,41.006947],"type":"Point"},"properties":{"osm_id":"3828268552","tag":{"amenity":"recycling","recycling:cans":"yes","recycling:cardboard":"yes","recycling:glass_bottles":"yes","recycling:paper":"yes","recycling:plastic":"yes","recycling:plastic_bottles":"yes","recycling:plastic_packaging":"yes","recycling_type":"container"}},"type":"Feature"},
	{"geometry":{"coordinates":[-5.654181,41.006885],"type":"Point"},"properties":{"osm_id":"3828268553","tag":{"amenity":"waste_basket"}},"type":"Feature"},
	{"geometry":{"coordinates":[-5.653697,41.006953],"type":"Point"},"properties":{"osm_id":"3828268554","tag":{"amenity":"waste_disposal"}},"type":"Feature"},
	{"geometry":{"coordinates":[-5.65366,41.006981],"type":"Point"},"properties":{"osm_id":"3828269165","tag":{"amenity":"waste_basket"}},"type":"Feature"},
	{"geometry":{"coordinates":[-5.65421,41.007149],"type":"Point"},"properties":{"osm_id":"3828269197","tag":{"amenity":"waste_basket"}},"type":"Feature"},
	{"geometry":{"coordinates":[-5.652675,41.009566],"type":"Point"},"properties":{"osm_id":"3828521262","tag":{"amenity":"waste_disposal"}},"type":"Feature"},
	{"geometry":{"coordinates":[-5.651775,41.009653],"type":"Point"},"properties":{"osm_id":"3828521268","tag":{"amenity":"waste_basket"}},"type":"Feature"},
	{"geometry":{"coordinates":[-5.652084,41.009661],"type":"Point"},"properties":{"osm_id":"3828521269","tag":{"amenity":"waste_basket"}},"type":"Feature"},
	{"geometry":{"coordinates":[-5.652447,41.009748],"type":"Point"},"properties":{"osm_id":"3828521276","tag":{"amenity":"waste_basket"}},"type":"Feature"},
	{"geometry":{"coordinates":[-5.652704,41.011024],"type":"Point"},"properties":{"osm_id":"3828521320","tag":{"amenity":"waste_basket"}},"type":"Feature"},
	{"geometry":{"coordinates":[-5.651523,41.009035],"type":"Point"},"properties":{"osm_id":"3828536102","tag":{"amenity":"waste_disposal"}},"type":"Feature"},
	{"geometry":{"coordinates":[-5.651261,41.00905],"type":"Point"},"properties":{"osm_id":"3828536103","tag":{"amenity":"recycling","recycling:clothes":"yes","recycling_type":"container"}},"type":"Feature"},
	{"geometry":{"coordinates":[-5.65125,41.009059],"type":"Point"},"properties":{"osm_id":"3828536104","tag":{"amenity":"waste_disposal"}},"type":"Feature"},
	{"geometry":{"coordinates":[-5.651233,41.009073],"type":"Point"},"properties":{"osm_id":"3828536105","tag":{"amenity":"recycling","recycling:cardboard":"yes","recycling:clothes":"yes","recycling:glass_bottles":"yes","recycling:green_waste":"yes","recycling:paper":"yes","recycling:plastic":"yes","recycling:plastic_bottles":"yes","recycling:plastic_packaging":"yes","recycling:waste":"yes","recycling_type":"container"}},"type":"Feature"},
	{"geometry":{"coordinates":[-5.650456,41.008491],"type":"Point"},"properties":{"osm_id":"3830292360","tag":{"amenity":"waste_disposal"}},"type":"Feature"},
	{"geometry":{"coordinates":[-5.651656,41.008857],"type":"Point"},"properties":{"osm_id":"3830292404","tag":{"amenity":"waste_basket"}},"type":"Feature"},
	{"geometry":{"coordinates":[-5.650391,41.009011],"type":"Point"},"properties":{"osm_id":"3830292449","tag":{"amenity":"waste_disposal"}},"type":"Feature"},
	{"geometry":{"coordinates":[-5.65024,41.009029],"type":"Point"},"properties":{"osm_id":"3830292459","tag":{"amenity":"waste_basket"}},"type":"Feature"},
	{"geometry":{"coordinates":[-5.651069,41.00906],"type":"Point"},"properties":{"osm_id":"3830292467","tag":{"amenity":"waste_basket"}},"type":"Feature"},
	{"geometry":{"coordinates":[-5.651601,41.009068],"type":"Point"},"properties":{"osm_id":"3830292470","tag":{"amenity":"waste_basket"}},"type":"Feature"},
	{"geometry":{"coordinates":[-5.647287,41.008346],"type":"Point"},"properties":{"osm_id":"3830584349","tag":{"amenity":"waste_disposal"}},"type":"Feature"},
	{"geometry":{"coordinates":[-5.649542,41.008018],"type":"Point"},"properties":{"osm_id":"3832324209","tag":{"amenity":"waste_disposal"}},"type":"Feature"},
	{"geometry":{"coordinates":[-5.64819,41.00846],"type":"Point"},"properties":{"osm_id":"3832475807","tag":{"amenity":"waste_disposal"}},"type":"Feature"},
	{"geometry":{"coordinates":[-5.649758,41.008744],"type":"Point"},"properties":{"osm_id":"3833916510","tag":{"amenity":"waste_disposal"}},"type":"Feature"},
	{"geometry":{"coordinates":[-5.649724,41.008793],"type":"Point"},"properties":{"osm_id":"3833916519","tag":{"amenity":"recycling","recycling:glass_bottles":"yes","recycling_type":"container"}},"type":"Feature"},
	{"geometry":{"coordinates":[-5.648016,41.011304],"type":"Point"},"properties":{"osm_id":"3838625771","tag":{"amenity":"waste_basket"}},"type":"Feature"},
	{"geometry":{"coordinates":[-5.648004,41.011361],"type":"Point"},"properties":{"osm_id":"3838625791","tag":{"amenity":"waste_disposal"}},"type":"Feature"},
	{"geometry":{"coordinates":[-5.652139,41.011617],"type":"Point"},"properties":{"osm_id":"3838625912","tag":{"amenity":"waste_basket"}},"type":"Feature"},
	{"geometry":{"coordinates":[-5.652253,41.011682],"type":"Point"},"properties":{"osm_id":"3838625938","tag":{"amenity":"waste_basket"}},"type":"Feature"},
	{"geometry":{"coordinates":[-5.64735,41.011142],"type":"Point"},"properties":{"osm_id":"3838644755","tag":{"amenity":"waste_disposal"}},"type":"Feature"},
	{"geometry":{"coordinates":[-5.64898,41.010931],"type":"Point"},"properties":{"osm_id":"3838672512","tag":{"amenity":"waste_disposal"}},"type":"Feature"},
	{"geometry":{"coordinates":[-5.649818,41.009569],"type":"Point"},"properties":{"osm_id":"3838746866","tag":{"amenity":"waste_disposal"}},"type":"Feature"},
	{"geometry":{"coordinates":[-5.64883,41.00966],"type":"Point"},"properties":{"osm_id":"3840459466","tag":{"amenity":"waste_basket"}},"type":"Feature"},
	{"geometry":{"coordinates":[-5.649512,41.009985],"type":"Point"},"properties":{"osm_id":"3840468693","tag":{"amenity":"waste_disposal"}},"type":"Feature"},
	{"geometry":{"coordinates":[-5.648652,41.01008],"type":"Point"},"properties":{"osm_id":"3840474355","tag":{"amenity":"recycling","recycling:cans":"yes","recycling:glass_bottles":"yes","recycling:green_waste":"yes","recycling:paper":"yes","recycling:plastic":"yes","recycling:plastic_bottles":"yes","recycling:plastic_packaging":"yes","recycling_type":"container"}},"type":"Feature"},
	{"geometry":{"coordinates":[-5.648919,41.009259],"type":"Point"},"properties":{"osm_id":"3840528362","tag":{"amenity":"waste_disposal"}},"type":"Feature"},
	{"geometry":{"coordinates":[-5.648675,41.010081],"type":"Point"},"properties":{"osm_id":"3840528414","tag":{"amenity":"waste_disposal"}},"type":"Feature"},
	{"geometry":{"coordinates":[-5.648733,41.008537],"type":"Point"},"properties":{"osm_id":"3840539809","tag":{"amenity":"waste_basket"}},"type":"Feature"},
	{"geometry":{"coordinates":[-5.648561,41.009602],"type":"Point"},"properties":{"osm_id":"3846265481","tag":{"amenity":"waste_disposal"}},"type":"Feature"},
	{"geometry":{"coordinates":[-5.647886,41.009977],"type":"Point"},"properties":{"osm_id":"3846450112","tag":{"amenity":"waste_disposal"}},"type":"Feature"},
	{"geometry":{"coordinates":[-5.646166,41.008627],"type":"Point"},"properties":{"osm_id":"3854020051","tag":{"amenity":"waste_disposal"}},"type":"Feature"},
	{"geometry":{"coordinates":[-5.645904,41.008749],"type":"Point"},"properties":{"osm_id":"3854020170","tag":{"amenity":"waste_basket"}},"type":"Feature"},
	{"geometry":{"coordinates":[-5.64688,41.010035],"type":"Point"},"properties":{"osm_id":"3856401559","tag":{"amenity":"waste_disposal"}},"type":"Feature"},
	{"geometry":{"coordinates":[-5.647724,41.010668],"type":"Point"},"properties":{"osm_id":"3856403801","tag":{"amenity":"recycling","recycling:cans":"yes","recycling:cardboard":"yes","recycling:glass_bottles":"yes","recycling:paper":"yes","recycling:plastic":"yes","recycling:plastic_bottles":"yes","recycling:plastic_packaging":"yes","recycling_type":"container"}},"type":"Feature"},
	{"geometry":{"coordinates":[-5.646604,41.003239],"type":"Point"},"properties":{"osm_id":"3869600188","tag":{"amenity":"waste_basket"}},"type":"Feature"},
	{"geometry":{"coordinates":[-5.653637,40.980879],"type":"Point"},"properties":{"osm_id":"3889387312","tag":{"amenity":"waste_disposal"}},"type":"Feature"},
	{"geometry":{"coordinates":[-5.653657,40.980885],"type":"Point"},"properties":{"osm_id":"3889387313","tag":{"amenity":"waste_disposal"}},"type":"Feature"},
	{"geometry":{"coordinates":[-5.66803,40.980006],"type":"Point"},"properties":{"osm_id":"3899437777","tag":{"amenity":"recycling","recycling:cans":"yes","recycling:cardboard":"yes","recycling:clothes":"yes","recycling:glass_bottles":"yes","recycling:paper":"yes","recycling:plastic_bottles":"yes","recycling:plastic_packaging":"yes","recycling_type":"container"}},"type":"Feature"},
	{"geometry":{"coordinates":[-5.668382,40.981094],"type":"Point"},"properties":{"osm_id":"3899437780","tag":{"amenity":"waste_basket"}},"type":"Feature"},
	{"geometry":{"coordinates":[-5.671244,40.980167],"type":"Point"},"properties":{"osm_id":"3948590776","tag":{"amenity":"waste_disposal"}},"type":"Feature"},
	{"geometry":{"coordinates":[-5.695756,40.998663],"type":"Point"},"properties":{"osm_id":"3948590820","tag":{"amenity":"waste_basket"}},"type":"Feature"},
	{"geometry":{"coordinates":[-5.695216,40.998809],"type":"Point"},"properties":{"osm_id":"3948590823","tag":{"amenity":"recycling","recycling:glass_bottles":"yes","recycling:paper":"yes","recycling_type":"container"}},"type":"Feature"},
	{"geometry":{"coordinates":[-5.695244,40.998815],"type":"Point"},"properties":{"osm_id":"3948590824","tag":{"amenity":"waste_disposal"}},"type":"Feature"},
	{"geometry":{"coordinates":[-5.695226,40.99882],"type":"Point"},"properties":{"osm_id":"3948590825","tag":{"amenity":"waste_disposal"}},"type":"Feature"},
	{"geometry":{"coordinates":[-5.695211,40.998831],"type":"Point"},"properties":{"osm_id":"3948590826","tag":{"amenity":"waste_disposal"}},"type":"Feature"},
	{"geometry":{"coordinates":[-5.693703,40.999328],"type":"Point"},"properties":{"osm_id":"3948590833","tag":{"amenity":"waste_disposal"}},"type":"Feature"},
	{"geometry":{"coordinates":[-5.693669,40.999334],"type":"Point"},"properties":{"osm_id":"3948590834","tag":{"amenity":"waste_disposal"}},"type":"Feature"},
	{"geometry":{"coordinates":[-5.647266,41.008353],"type":"Point"},"properties":{"osm_id":"3956638372","tag":{"amenity":"recycling","recycling:cardboard":"yes","recycling:clothes":"yes","recycling:glass_bottles":"yes","recycling:paper":"yes","recycling:plastic":"yes","recycling:plastic_bottles":"yes","recycling:plastic_packaging":"yes","recycling_type":"container"}},"type":"Feature"},
	{"geometry":{"coordinates":[-5.646675,41.008685],"type":"Point"},"properties":{"osm_id":"3956641281","tag":{"amenity":"waste_basket"}},"type":"Feature"},
	{"geometry":{"coordinates":[-5.645274,41.009653],"type":"Point"},"properties":{"osm_id":"3956641309","tag":{"amenity":"waste_basket"}},"type":"Feature"},
	{"geometry":{"coordinates":[-5.669081,40.979911],"type":"Point"},"properties":{"osm_id":"3959411973","tag":{"amenity":"waste_basket"}},"type":"Feature"},
	{"geometry":{"coordinates":[-5.659005,40.981171],"type":"Point"},"properties":{"osm_id":"4690811994","tag":{"amenity":"waste_disposal"}},"type":"Feature"},
	{"geometry":{"coordinates":[-5.644299,40.988681],"type":"Point"},"properties":{"osm_id":"5083465124","tag":{"amenity":"waste_disposal"}},"type":"Feature"},
	{"geometry":{"coordinates":[-5.644675,40.989202],"type":"Point"},"properties":{"osm_id":"5083533022","tag":{"amenity":"waste_disposal"}},"type":"Feature"},
	{"geometry":{"coordinates":[-5.644199,40.989437],"type":"Point"},"properties":{"osm_id":"5083533034","tag":{"amenity":"waste_disposal"}},"type":"Feature"},
	{"geometry":{"coordinates":[-5.64423,40.989452],"type":"Point"},"properties":{"osm_id":"5083533035","tag":{"amenity":"waste_disposal"}},"type":"Feature"},
	{"geometry":{"coordinates":[-5.644108,41.02763],"type":"Point"},"properties":{"osm_id":"5559930403","tag":{"amenity":"waste_basket"}},"type":"Feature"},
	{"geometry":{"coordinates":[-5.642729,41.027144],"type":"Point"},"properties":{"osm_id":"5559975262","tag":{"amenity":"waste_basket"}},"type":"Feature"},
	{"geometry":{"coordinates":[-5.641832,41.024793],"type":"Point"},"properties":{"osm_id":"5664005552","tag":{"amenity":"recycling","recycling:cans":"yes","recycling:glass_bottles":"yes","recycling:paper":"yes","recycling_type":"container"}},"type":"Feature"},
	{"geometry":{"coordinates":[-5.660775,40.981509],"type":"Point"},"properties":{"osm_id":"6695103781","tag":{"amenity":"waste_disposal"}},"type":"Feature"},
	{"geometry":{"coordinates":[-5.659937,40.984594],"type":"Point"},"properties":{"osm_id":"6817697969","tag":{"amenity":"waste_basket"}},"type":"Feature"},
	{"geometry":{"coordinates":[-5.672874,40.98005],"type":"Point"},"properties":{"osm_id":"6880765441","tag":{"amenity":"waste_basket"}},"type":"Feature"},
	{"geometry":{"coordinates":[-5.663864,40.98281],"type":"Point"},"properties":{"osm_id":"7038700661","tag":{"amenity":"waste_disposal"}},"type":"Feature"},
	{"geometry":{"coordinates":[-5.65475,40.981642],"type":"Point"},"properties":{"osm_id":"7452244328","tag":{"amenity":"recycling","recycling:glass_bottles":"yes","recycling_type":"container"}},"type":"Feature"},
	{"geometry":{"coordinates":[-5.654727,40.981658],"type":"Point"},"properties":{"osm_id":"7452244329","tag":{"amenity":"recycling","recycling:cans":"yes","recycling:plastic_bottles":"yes","recycling:plastic_packaging":"yes","recycling_type":"container"}},"type":"Feature"},
	{"geometry":{"coordinates":[-5.654792,40.981611],"type":"Point"},"properties":{"osm_id":"7452244330","tag":{"amenity":"waste_disposal"}},"type":"Feature"},
	{"geometry":{"coordinates":[-5.65477,40.981626],"type":"Point"},"properties":{"osm_id":"7452244331","tag":{"amenity":"recycling","recycling:cardboard":"yes","recycling:paper":"yes","recycling_type":"container"}},"type":"Feature"},
	{"geometry":{"coordinates":[-5.664136,40.981204],"type":"Point"},"properties":{"osm_id":"7452244332","tag":{"amenity":"recycling","recycling:glass_bottles":"yes","recycling_type":"container"}},"type":"Feature"},
	{"geometry":{"coordinates":[-5.664108,40.981205],"type":"Point"},"properties":{"osm_id":"7452244333","tag":{"amenity":"recycling","recycling:cans":"yes","recycling:plastic_bottles":"yes","recycling:plastic_packaging":"yes","recycling_type":"container"}},"type":"Feature"},
	{"geometry":{"coordinates":[-5.664191,40.981204],"type":"Point"},"properties":{"osm_id":"7452244334","tag":{"amenity":"waste_disposal"}},"type":"Feature"},
	{"geometry":{"coordinates":[-5.664161,40.981203],"type":"Point"},"properties":{"osm_id":"7452244335","tag":{"amenity":"recycling","recycling:cardboard":"yes","recycling:paper":"yes","recycling_type":"container"}},"type":"Feature"},
	{"geometry":{"coordinates":[-5.674954,40.980476],"type":"Point"},"properties":{"osm_id":"7452244352","tag":{"amenity":"recycling","recycling:glass_bottles":"yes","recycling_type":"container"}},"type":"Feature"},
	{"geometry":{"coordinates":[-5.674959,40.980451],"type":"Point"},"properties":{"osm_id":"7452244353","tag":{"amenity":"recycling","recycling:cans":"yes","recycling:plastic_bottles":"yes","recycling:plastic_packaging":"yes","recycling_type":"container"}},"type":"Feature"},
	{"geometry":{"coordinates":[-5.674962,40.980429],"type":"Point"},"properties":{"osm_id":"7452244354","tag":{"amenity":"recycling","recycling:cardboard":"yes","recycling:paper":"yes","recycling_type":"container"}},"type":"Feature"},
	{"geometry":{"coordinates":[-5.674857,40.981014],"type":"Point"},"properties":{"osm_id":"7452244355","tag":{"amenity":"waste_disposal"}},"type":"Feature"}
]
}
