{
"type": "FeatureCollection",
"features": [
	{"geometry":{"coordinates":[-122.551498,45.690562],"type":"Point"},"properties":{"osm_id":"3609969277","tag":{"amenity":"waste_basket"}},"type":"Feature"},
	{"geometry":{"coordinates":[-122.601032,45.685724],"type":"Point"},"properties":{"osm_id":"3630198499","tag":{"amenity":"waste_basket"}},"type":"Feature"},
	{"geometry":{"coordinates":[-122.601021,45.685876],"type":"Point"},"properties":{"osm_id":"3630198502","tag":{"amenity":"waste_basket"}},"type":"Feature"},
	{"geometry":{"coordinates":[-122.60259,45.666595],"type":"Point"},"properties":{"name":"Goodwill Donation Center","osm_id":"3934591924","tag":{"addr:city":"Vancouver","addr:housenumber":"6713","addr:postcode":"98661","addr:state":"WA","addr:street":"Northeast 63rd Street","addr:unit":"101B","amenity":"recycling","recycling:clothes":"yes","recycling_type":"centre","website":"http://www.goodwill.org/"}},"type":"Feature"},
	{"geometry":{"coordinates":[-122.554423,45.696234],"type":"Point"},"properties":{"osm_id":"4154721870","tag":{"amenity":"waste_basket"}},"type":"Feature"},
	{"geometry":{"coordinates":[-122.553934,45.696142],"type":"Point"},"properties":{"osm_id":"4162464268","tag":{"amenity":"waste_basket"}},"type":"Feature"}
]
}
