{
"type": "FeatureCollection",
"features": [
	{"geometry":{"coordinates":[-122.578958,45.45455],"type":"Point"},"properties":{"osm_id":"3568266795","tag":{"amenity":"waste_basket"}},"type":"Feature"},
	{"geometry":{"coordinates":[-122.600299,45.447244],"type":"Point"},"properties":{"name":"BottleDrop Oregon Redemption Center","osm_id":"3744750462","tag":{"addr:city":"Milwaukie","addr:housenumber":"6100","addr:postcode":"97222","addr:street":"Southeast King Road","amenity":"recycling","opening_hours":"Mo-Su 08:00-18:00","recycling_type":"centre","website":"https://www.bottledropcenters.com/Locations/Detail/RedemptionCenter/ML"}},"type":"Feature"},
	{"geometry":{"coordinates":[-122.583215,45.426899],"type":"Point"},"properties":{"name":"McFarlane's Bark Inc","osm_id":"5255355924","tag":{"addr:city":"Milwaukie","addr:housenumber":"13345","addr:postcode":"97222","addr:state":"OR","addr:street":"Southeast Johnson Road","amenity":"recycling","description":"Seller of compost, bark, dirt.","phone":"+1 503 659 4240","recycling_type":"centre","website":"http://www.mcfarlanesbark.com/"}},"type":"Feature"},
	{"geometry":{"coordinates":[-122.570715,45.43101],"type":"Point"},"properties":{"osm_id":"5334182527","tag":{"amenity":"waste_basket"}},"type":"Feature"},
	{"geometry":{"coordinates":[-122.573071,45.431109],"type":"Point"},"properties":{"osm_id":"5345820338","tag":{"amenity":"waste_basket"}},"type":"Feature"},
	{"geometry":{"coordinates":[-122.575087,45.432137],"type":"Point"},"properties":{"osm_id":"6645272104","tag":{"amenity":"waste_basket"}},"type":"Feature"},
	{"geometry":{"coordinates":[-122.575085,45.431784],"type":"Point"},"properties":{"osm_id":"6645272105","tag":{"amenity":"waste_basket"}},"type":"Feature"}
]
}
