{
"type": "FeatureCollection",
"features": [
	{"geometry":{"coordinates":[-72.908214,41.314905],"type":"Point"},"properties":{"highway":"motorway_junction","osm_id":"178594972","ref":"5"},"type":"Feature"},
	{"geometry":{"coordinates":[-72.922922,41.31246],"type":"Point"},"properties":{"osm_id":"2719666534","tag":{"amenity":"waste_basket"}},"type":"Feature"},
	{"geometry":{"coordinates":[-72.929857,41.311087],"type":"Point"},"properties":{"osm_id":"2719756866","tag":{"amenity":"waste_basket"}},"type":"Feature"},
	{"geometry":{"coordinates":[-72.921966,41.313244],"type":"Point"},"properties":{"osm_id":"2774091661","tag":{"amenity":"waste_basket"}},"type":"Feature"},
	{"geometry":{"coordinates":[-72.921914,41.313232],"type":"Point"},"properties":{"osm_id":"2774091668","tag":{"amenity":"waste_basket"}},"type":"Feature"},
	{"geometry":{"coordinates":[-72.917377,41.314789],"type":"Point"},"properties":{"osm_id":"2927965732","tag":{"amenity":"waste_basket"}},"type":"Feature"},
	{"geometry":{"coordinates":[-72.921762,41.315518],"type":"Point"},"properties":{"osm_id":"2928233045","tag":{"amenity":"recycling"}},"type":"Feature"},
	{"geometry":{"coordinates":[-72.921717,41.315513],"type":"Point"},"properties":{"osm_id":"2928233046","tag":{"amenity":"waste_basket"}},"type":"Feature"},
	{"geometry":{"coordinates":[-72.923318,41.313758],"type":"Point"},"properties":{"osm_id":"2928247636","tag":{"amenity":"recycling"}},"type":"Feature"},
	{"geometry":{"coordinates":[-72.924277,41.311493],"type":"Point"},"properties":{"osm_id":"2928259797","tag":{"amenity":"waste_basket"}},"type":"Feature"},
	{"geometry":{"coordinates":[-72.923342,41.313772],"type":"Point"},"properties":{"osm_id":"2928259800","tag":{"amenity":"waste_basket"}},"type":"Feature"},
	{"geometry":{"coordinates":[-72.92452,41.311655],"type":"Point"},"properties":{"osm_id":"2928265202","tag":{"amenity":"recycling","location":"overground","recycling_type":"container"}},"type":"Feature"},
	{"geometry":{"coordinates":[-72.924541,41.311666],"type":"Point"},"properties":{"osm_id":"2928265203","tag":{"amenity":"waste_basket"}},"type":"Feature"},
	{"geometry":{"coordinates":[-72.924254,41.311489],"type":"Point"},"properties":{"osm_id":"2928265204","tag":{"amenity":"recycling","location":"overground","recycling_type":"container"}},"type":"Feature"},
	{"geometry":{"coordinates":[-72.923614,41.311022],"type":"Point"},"properties":{"osm_id":"2928267424","tag":{"amenity":"recycling","location":"overground","recycling_type":"container"}},"type":"Feature"},
	{"geometry":{"coordinates":[-72.923632,41.31107],"type":"Point"},"properties":{"osm_id":"2928267425","tag":{"amenity":"waste_basket"}},"type":"Feature"},
	{"geometry":{"coordinates":[-72.927827,41.315781],"type":"Point"},"properties":{"osm_id":"2929381573","tag":{"amenity":"recycling"}},"type":"Feature"},
	{"geometry":{"coordinates":[-72.927845,41.315764],"type":"Point"},"properties":{"osm_id":"2929381574","tag":{"amenity":"waste_basket"}},"type":"Feature"},
	{"geometry":{"coordinates":[-72.931039,41.311166],"type":"Point"},"properties":{"osm_id":"2931972148","tag":{"amenity":"waste_basket"}},"type":"Feature"},
	{"geometry":{"coordinates":[-72.931297,41.311254],"type":"Point"},"properties":{"osm_id":"2931972149","tag":{"amenity":"waste_basket"}},"type":"Feature"},
	{"geometry":{"coordinates":[-72.915804,41.316614],"type":"Point"},"properties":{"osm_id":"2933525176","tag":{"amenity":"waste_basket"}},"type":"Feature"},
	{"geometry":{"coordinates":[-72.919373,41.313384],"type":"Point"},"properties":{"osm_id":"2946635405","tag":{"amenity":"waste_basket"}},"type":"Feature"},
	{"geometry":{"coordinates":[-72.91863,41.313062],"type":"Point"},"properties":{"osm_id":"2946645478","tag":{"amenity":"waste_basket"}},"type":"Feature"},
	{"geometry":{"coordinates":[-72.928795,41.312537],"type":"Point"},"properties":{"osm_id":"2959298920","tag":{"amenity":"waste_basket"}},"type":"Feature"},
	{"geometry":{"coordinates":[-72.930322,41.313783],"type":"Point"},"properties":{"osm_id":"2959305476","tag":{"amenity":"waste_basket"}},"type":"Feature"},
	{"geometry":{"coordinates":[-72.930288,41.313786],"type":"Point"},"properties":{"osm_id":"2959305479","tag":{"amenity":"recycling"}},"type":"Feature"},
	{"geometry":{"coordinates":[-72.925307,41.31242],"type":"Point"},"properties":{"osm_id":"2959314676","tag":{"amenity":"recycling","location":"overground","recycling_type":"container"}},"type":"Feature"},
	{"geometry":{"coordinates":[-72.925316,41.312401],"type":"Point"},"properties":{"osm_id":"2959314677","tag":{"amenity":"waste_basket"}},"type":"Feature"},
	{"geometry":{"coordinates":[-72.917985,41.313905],"type":"Point"},"properties":{"osm_id":"2960427011","tag":{"amenity":"waste_basket"}},"type":"Feature"},
	{"geometry":{"coordinates":[-72.922332,41.317556],"type":"Point"},"properties":{"osm_id":"2968166314","tag":{"amenity":"waste_basket"}},"type":"Feature"},
	{"geometry":{"coordinates":[-72.922355,41.317555],"type":"Point"},"properties":{"osm_id":"2968166322","tag":{"amenity":"recycling"}},"type":"Feature"},
	{"geometry":{"coordinates":[-72.924927,41.316329],"type":"Point"},"properties":{"osm_id":"2968177740","tag":{"amenity":"waste_basket"}},"type":"Feature"},
	{"geometry":{"coordinates":[-72.925226,41.316338],"type":"Point"},"properties":{"osm_id":"2968177741","tag":{"amenity":"recycling"}},"type":"Feature"},
	{"geometry":{"coordinates":[-72.924892,41.316308],"type":"Point"},"properties":{"osm_id":"2968177745","tag":{"amenity":"recycling"}},"type":"Feature"},
	{"geometry":{"coordinates":[-72.925205,41.316358],"type":"Point"},"properties":{"osm_id":"2968177750","tag":{"amenity":"waste_basket"}},"type":"Feature"},
	{"geometry":{"coordinates":[-72.908594,41.316575],"type":"Point"},"properties":{"osm_id":"2970446873","tag":{"amenity":"waste_basket"}},"type":"Feature"},
	{"geometry":{"coordinates":[-72.910298,41.315165],"type":"Point"},"properties":{"osm_id":"2970460000","tag":{"amenity":"waste_basket"}},"type":"Feature"},
	{"geometry":{"coordinates":[-72.910519,41.315245],"type":"Point"},"properties":{"osm_id":"2970460001","tag":{"amenity":"waste_basket"}},"type":"Feature"},
	{"geometry":{"coordinates":[-72.910659,41.31496],"type":"Point"},"properties":{"osm_id":"2970460004","tag":{"amenity":"waste_basket"}},"type":"Feature"},
	{"geometry":{"coordinates":[-72.912563,41.313919],"type":"Point"},"properties":{"osm_id":"2970465233","tag":{"amenity":"waste_basket"}},"type":"Feature"},
	{"geometry":{"coordinates":[-72.913325,41.313446],"type":"Point"},"properties":{"osm_id":"2970465235","tag":{"amenity":"waste_basket"}},"type":"Feature"},
	{"geometry":{"coordinates":[-72.92242,41.32337],"type":"Point"},"properties":{"osm_id":"3046578575","tag":{"amenity":"recycling"}},"type":"Feature"},
	{"geometry":{"coordinates":[-72.922327,41.323614],"type":"Point"},"properties":{"osm_id":"3046578580","tag":{"amenity":"waste_basket"}},"type":"Feature"},
	{"geometry":{"coordinates":[-72.922377,41.323618],"type":"Point"},"properties":{"osm_id":"3046578584","tag":{"amenity":"recycling"}},"type":"Feature"},
	{"geometry":{"coordinates":[-72.922361,41.323372],"type":"Point"},"properties":{"osm_id":"3046578585","tag":{"amenity":"waste_basket"}},"type":"Feature"},
	{"geometry":{"coordinates":[-72.928258,41.316696],"type":"Point"},"properties":{"osm_id":"3075642103","tag":{"amenity":"waste_basket"}},"type":"Feature"},
	{"geometry":{"coordinates":[-72.929094,41.321445],"type":"Point"},"properties":{"osm_id":"3075666344","tag":{"amenity":"waste_basket"}},"type":"Feature"},
	{"geometry":{"coordinates":[-72.929262,41.321455],"type":"Point"},"properties":{"osm_id":"3075666345","tag":{"amenity":"waste_basket"}},"type":"Feature"},
	{"geometry":{"coordinates":[-72.929585,41.322042],"type":"Point"},"properties":{"osm_id":"3075667370","tag":{"amenity":"waste_basket"}},"type":"Feature"},
	{"geometry":{"coordinates":[-72.929204,41.321746],"type":"Point"},"properties":{"osm_id":"3075667377","tag":{"amenity":"waste_basket"}},"type":"Feature"},
	{"geometry":{"coordinates":[-72.929258,41.321865],"type":"Point"},"properties":{"osm_id":"3075667378","tag":{"amenity":"waste_basket"}},"type":"Feature"},
	{"geometry":{"coordinates":[-72.929381,41.32191],"type":"Point"},"properties":{"osm_id":"3075667380","tag":{"amenity":"waste_basket"}},"type":"Feature"},
	{"geometry":{"coordinates":[-72.913152,41.319858],"type":"Point"},"properties":{"osm_id":"3085338279","tag":{"amenity":"waste_basket"}},"type":"Feature"},
	{"geometry":{"coordinates":[-72.913171,41.32006],"type":"Point"},"properties":{"osm_id":"3085341933","tag":{"amenity":"waste_basket"}},"type":"Feature"},
	{"geometry":{"coordinates":[-72.910861,41.323036],"type":"Point"},"properties":{"osm_id":"3085407138","tag":{"amenity":"waste_basket"}},"type":"Feature"},
	{"geometry":{"coordinates":[-72.923912,41.316383],"type":"Point"},"properties":{"osm_id":"3237115315","tag":{"amenity":"waste_basket"}},"type":"Feature"},
	{"geometry":{"coordinates":[-72.923158,41.316394],"type":"Point"},"properties":{"osm_id":"3237115316","tag":{"amenity":"waste_basket"}},"type":"Feature"},
	{"geometry":{"coordinates":[-72.923563,41.316463],"type":"Point"},"properties":{"osm_id":"3237115324","tag":{"amenity":"recycling"}},"type":"Feature"},
	{"geometry":{"coordinates":[-72.923586,41.316472],"type":"Point"},"properties":{"osm_id":"3237115326","tag":{"amenity":"waste_basket"}},"type":"Feature"},
	{"geometry":{"coordinates":[-72.923586,41.316678],"type":"Point"},"properties":{"osm_id":"3237115328","tag":{"amenity":"waste_basket"}},"type":"Feature"},
	{"geometry":{"coordinates":[-72.918679,41.320379],"type":"Point"},"properties":{"osm_id":"3281055965","tag":{"amenity":"waste_basket"}},"type":"Feature"},
	{"geometry":{"coordinates":[-72.922118,41.328594],"type":"Point"},"properties":{"osm_id":"3450926362","tag":{"amenity":"waste_basket"}},"type":"Feature"},
	{"geometry":{"coordinates":[-72.92252,41.312704],"type":"Point"},"properties":{"osm_id":"3687312249","tag":{"amenity":"recycling"}},"type":"Feature"},
	{"geometry":{"coordinates":[-72.92422,41.314966],"type":"Point"},"properties":{"osm_id":"4130858475","tag":{"amenity":"recycling"}},"type":"Feature"},
	{"geometry":{"coordinates":[-72.922146,41.315888],"type":"Point"},"properties":{"osm_id":"4130881389","tag":{"amenity":"recycling"}},"type":"Feature"},
	{"geometry":{"coordinates":[-72.922131,41.315898],"type":"Point"},"properties":{"osm_id":"4130881391","tag":{"amenity":"waste_basket"}},"type":"Feature"},
	{"geometry":{"coordinates":[-72.912122,41.321391],"type":"Point"},"properties":{"osm_id":"4307270477","tag":{"amenity":"waste_basket"}},"type":"Feature"},
	{"geometry":{"coordinates":[-72.911726,41.321928],"type":"Point"},"properties":{"osm_id":"4307270478","tag":{"amenity":"waste_basket"}},"type":"Feature"},
	{"geometry":{"coordinates":[-72.909404,41.325355],"type":"Point"},"properties":{"osm_id":"4307278086","tag":{"amenity":"waste_basket"}},"type":"Feature"},
	{"geometry":{"coordinates":[-72.909185,41.32564],"type":"Point"},"properties":{"osm_id":"4307278492","tag":{"amenity":"waste_basket"}},"type":"Feature"},
	{"geometry":{"coordinates":[-72.909659,41.324567],"type":"Point"},"properties":{"osm_id":"4307278493","tag":{"amenity":"waste_basket"}},"type":"Feature"},
	{"geometry":{"coordinates":[-72.909003,41.325881],"type":"Point"},"properties":{"osm_id":"4307278494","tag":{"amenity":"waste_basket"}},"type":"Feature"},
	{"geometry":{"coordinates":[-72.910271,41.325589],"type":"Point"},"properties":{"osm_id":"4307283994","tag":{"amenity":"waste_basket"}},"type":"Feature"},
	{"geometry":{"coordinates":[-72.910126,41.325605],"type":"Point"},"properties":{"osm_id":"4307284000","tag":{"amenity":"waste_basket"}},"type":"Feature"},
	{"geometry":{"coordinates":[-72.927355,41.317832],"type":"Point"},"properties":{"osm_id":"4324456900","tag":{"amenity":"waste_basket"}},"type":"Feature"},
	{"geometry":{"coordinates":[-72.910344,41.315357],"type":"Point"},"properties":{"osm_id":"4360643445","tag":{"amenity":"waste_basket"}},"type":"Feature"},
	{"geometry":{"coordinates":[-72.914798,41.328047],"type":"Point"},"properties":{"osm_id":"4702370697","tag":{"amenity":"waste_basket"}},"type":"Feature"},
	{"geometry":{"coordinates":[-72.913941,41.329227],"type":"Point"},"properties":{"osm_id":"4702374302","tag":{"amenity":"waste_basket"}},"type":"Feature"},
	{"geometry":{"coordinates":[-72.913989,41.32924],"type":"Point"},"properties":{"osm_id":"4702374304","tag":{"amenity":"waste_basket"}},"type":"Feature"},
	{"geometry":{"coordinates":[-72.90954,41.31566],"type":"Point"},"properties":{"osm_id":"4755307399","tag":{"amenity":"waste_basket"}},"type":"Feature"},
	{"geometry":{"coordinates":[-72.909305,41.316001],"type":"Point"},"properties":{"osm_id":"4755307400","tag":{"amenity":"waste_basket"}},"type":"Feature"},
	{"geometry":{"coordinates":[-72.909521,41.315867],"type":"Point"},"properties":{"osm_id":"4755307401","tag":{"amenity":"waste_basket"}},"type":"Feature"},
	{"geometry":{"coordinates":[-72.907865,41.31671],"type":"Point"},"properties":{"osm_id":"4755316966","tag":{"amenity":"waste_basket"}},"type":"Feature"},
	{"geometry":{"coordinates":[-72.908545,41.316864],"type":"Point"},"properties":{"osm_id":"4755362112","tag":{"amenity":"waste_basket"}},"type":"Feature"},
	{"geometry":{"coordinates":[-72.91228,41.321245],"type":"Point"},"properties":{"osm_id":"4923033363","tag":{"amenity":"waste_basket"}},"type":"Feature"},
	{"geometry":{"coordinates":[-72.911918,41.322052],"type":"Point"},"properties":{"osm_id":"4923034739","tag":{"amenity":"waste_basket"}},"type":"Feature"},
	{"geometry":{"coordinates":[-72.926868,41.316016],"type":"Point"},"properties":{"osm_id":"5357782561","tag":{"amenity":"waste_basket"}},"type":"Feature"},
	{"geometry":{"coordinates":[-72.926913,41.316011],"type":"Point"},"properties":{"osm_id":"5357782563","tag":{"amenity":"recycling"}},"type":"Feature"},
	{"geometry":{"coordinates":[-72.924907,41.315356],"type":"Point"},"properties":{"osm_id":"5357797037","tag":{"amenity":"waste_basket"}},"type":"Feature"},
	{"geometry":{"coordinates":[-72.926322,41.3153],"type":"Point"},"properties":{"osm_id":"5357797038","tag":{"amenity":"waste_basket"}},"type":"Feature"},
	{"geometry":{"coordinates":[-72.924958,41.315368],"type":"Point"},"properties":{"osm_id":"5357797039","tag":{"amenity":"recycling"}},"type":"Feature"},
	{"geometry":{"coordinates":[-72.926352,41.3153],"type":"Point"},"properties":{"osm_id":"5357797040","tag":{"amenity":"recycling"}},"type":"Feature"},
	{"geometry":{"coordinates":[-72.925789,41.315281],"type":"Point"},"properties":{"osm_id":"5357797045","tag":{"amenity":"recycling"}},"type":"Feature"},
	{"geometry":{"coordinates":[-72.925782,41.315298],"type":"Point"},"properties":{"osm_id":"5357797046","tag":{"amenity":"waste_basket"}},"type":"Feature"},
	{"geometry":{"coordinates":[-72.910057,41.315324],"type":"Point"},"properties":{"osm_id":"5939819745","tag":{"amenity":"waste_basket"}},"type":"Feature"},
	{"geometry":{"coordinates":[-72.923675,41.316952],"type":"Point"},"properties":{"osm_id":"6070910503","tag":{"amenity":"waste_basket"}},"type":"Feature"},
	{"geometry":{"coordinates":[-72.923695,41.316958],"type":"Point"},"properties":{"osm_id":"6070910504","tag":{"amenity":"recycling","recycling_type":"container"}},"type":"Feature"},
	{"geometry":{"coordinates":[-72.942495,41.316843],"type":"Point"},"properties":{"osm_id":"7004625243","tag":{"amenity":"waste_basket"}},"type":"Feature"},
	{"geometry":{"coordinates":[-72.918738,41.313185],"type":"Point"},"properties":{"osm_id":"7242795668","tag":{"amenity":"waste_basket"}},"type":"Feature"},
	{"geometry":{"coordinates":[-72.910331,41.325717],"type":"Point"},"properties":{"osm_id":"7313100624","tag":{"amenity":"waste_basket"}},"type":"Feature"},
	{"geometry":{"coordinates":[-72.910471,41.316234],"type":"Point"},"properties":{"osm_id":"7705187495","tag":{"amenity":"waste_basket"}},"type":"Feature"},
	{"geometry":{"coordinates":[-72.916891,41.373948],"type":"Point"},"properties":{"osm_id":"7747853908","tag":{"amenity":"recycling","colour":"blue","covered":"no","indoor":"no","recycling:clothes":"yes","recycling_type":"container"}},"type":"Feature"},
	{"geometry":{"coordinates":[-72.872586,41.349185],"type":"Point"},"properties":{"osm_id":"7752796252","tag":{"amenity":"waste_basket"}},"type":"Feature"},
	{"geometry":{"coordinates":[-72.921804,41.312711],"type":"Point"},"properties":{"osm_id":"7758145020","tag":{"amenity":"waste_basket"}},"type":"Feature"},
	{"geometry":{"coordinates":[-72.907153,41.328875],"type":"Point"},"properties":{"osm_id":"7881407436","tag":{"amenity":"waste_basket"}},"type":"Feature"},
	{"geometry":{"coordinates":[-72.904988,41.326976],"type":"Point"},"properties":{"osm_id":"7881464884","tag":{"amenity":"waste_basket"}},"type":"Feature"},
	{"geometry":{"coordinates":[-72.905499,41.327247],"type":"Point"},"properties":{"osm_id":"7881483352","tag":{"amenity":"waste_basket"}},"type":"Feature"},
	{"geometry":{"coordinates":[-72.906251,41.328807],"type":"Point"},"properties":{"osm_id":"7881485857","tag":{"amenity":"waste_basket"}},"type":"Feature"},
	{"geometry":{"coordinates":[-72.905169,41.327049],"type":"Point"},"properties":{"osm_id":"7881486632","tag":{"amenity":"waste_basket"}},"type":"Feature"},
	{"geometry":{"coordinates":[-72.905708,41.328099],"type":"Point"},"properties":{"osm_id":"7881520099","tag":{"amenity":"waste_basket"}},"type":"Feature"},
	{"geometry":{"coordinates":[-72.905671,41.328223],"type":"Point"},"properties":{"osm_id":"7881528743","tag":{"amenity":"waste_basket"}},"type":"Feature"},
	{"geometry":{"coordinates":[-72.907004,41.328863],"type":"Point"},"properties":{"osm_id":"7881529083","tag":{"amenity":"waste_basket"}},"type":"Feature"}
]
}
