{
"type": "FeatureCollection",
"features": [
	{"geometry":{"coordinates":[-85.755762,38.250518],"type":"Point"},"properties":{"name":"Center For Neighborhoods","osm_id":"4247042091","tag":{"addr:city":"Louisville","addr:housenumber":"507","addr:postcode":"40204","addr:street":"South 3rd Street","amenity":"waste_basket","contact:email":"info@centerforneighborhoods.org","office":"ngo","phone":"502-589-0343","waste":"trash","website":"https://www.centerforneighborhoods.org/"}},"type":"Feature"},
	{"geometry":{"coordinates":[-85.763054,38.257259],"type":"Point"},"properties":{"osm_id":"4546987373","tag":{"amenity":"waste_basket"}},"type":"Feature"},
	{"geometry":{"coordinates":[-85.763288,38.257438],"type":"Point"},"properties":{"osm_id":"4546987374","tag":{"amenity":"waste_basket"}},"type":"Feature"},
	{"geometry":{"coordinates":[-85.763287,38.257276],"type":"Point"},"properties":{"osm_id":"4554381048","tag":{"amenity":"waste_basket"}},"type":"Feature"},
	{"geometry":{"coordinates":[-85.763042,38.257411],"type":"Point"},"properties":{"osm_id":"4554381049","tag":{"amenity":"waste_basket"}},"type":"Feature"},
	{"geometry":{"coordinates":[-85.76342,38.204742],"type":"Point"},"properties":{"osm_id":"5121700740","tag":{"amenity":"waste_basket"}},"type":"Feature"},
	{"geometry":{"coordinates":[-85.764747,38.20485],"type":"Point"},"properties":{"osm_id":"5121930866","tag":{"amenity":"waste_basket"}},"type":"Feature"},
	{"geometry":{"coordinates":[-85.765406,38.205224],"type":"Point"},"properties":{"osm_id":"5121930867","tag":{"amenity":"waste_basket"}},"type":"Feature"},
	{"geometry":{"coordinates":[-85.76539,38.206654],"type":"Point"},"properties":{"osm_id":"5121945046","tag":{"amenity":"waste_basket"}},"type":"Feature"},
	{"geometry":{"coordinates":[-85.764624,38.210107],"type":"Point"},"properties":{"osm_id":"5121963675","tag":{"amenity":"waste_basket"}},"type":"Feature"},
	{"geometry":{"coordinates":[-85.764822,38.209986],"type":"Point"},"properties":{"osm_id":"5121963678","tag":{"amenity":"waste_basket"}},"type":"Feature"},
	{"geometry":{"coordinates":[-85.764902,38.210283],"type":"Point"},"properties":{"osm_id":"5121980624","tag":{"amenity":"waste_basket"}},"type":"Feature"},
	{"geometry":{"coordinates":[-85.765086,38.210449],"type":"Point"},"properties":{"osm_id":"5121980625","tag":{"amenity":"waste_basket"}},"type":"Feature"},
	{"geometry":{"coordinates":[-85.764417,38.211294],"type":"Point"},"properties":{"osm_id":"5121999528","tag":{"amenity":"waste_basket"}},"type":"Feature"},
	{"geometry":{"coordinates":[-85.763994,38.213609],"type":"Point"},"properties":{"osm_id":"5122011027","tag":{"amenity":"waste_basket"}},"type":"Feature"},
	{"geometry":{"coordinates":[-85.76371,38.216429],"type":"Point"},"properties":{"osm_id":"5122036214","tag":{"amenity":"waste_basket"}},"type":"Feature"},
	{"geometry":{"coordinates":[-85.76345,38.216742],"type":"Point"},"properties":{"osm_id":"5122036216","tag":{"amenity":"waste_basket"}},"type":"Feature"},
	{"geometry":{"coordinates":[-85.762342,38.223244],"type":"Point"},"properties":{"osm_id":"5127783205","tag":{"amenity":"waste_basket"}},"type":"Feature"},
	{"geometry":{"coordinates":[-85.762441,38.223498],"type":"Point"},"properties":{"osm_id":"5127783211","tag":{"amenity":"waste_basket"}},"type":"Feature"},
	{"geometry":{"coordinates":[-85.762207,38.224867],"type":"Point"},"properties":{"osm_id":"5127855041","tag":{"amenity":"waste_basket"}},"type":"Feature"},
	{"geometry":{"coordinates":[-85.762083,38.224559],"type":"Point"},"properties":{"osm_id":"5127855045","tag":{"amenity":"waste_basket"}},"type":"Feature"},
	{"geometry":{"coordinates":[-85.761968,38.226168],"type":"Point"},"properties":{"osm_id":"5127890614","tag":{"amenity":"waste_basket"}},"type":"Feature"},
	{"geometry":{"coordinates":[-85.761864,38.225896],"type":"Point"},"properties":{"osm_id":"5127895080","tag":{"amenity":"waste_basket"}},"type":"Feature"},
	{"geometry":{"coordinates":[-85.761691,38.226047],"type":"Point"},"properties":{"osm_id":"5127901931","tag":{"amenity":"waste_basket"}},"type":"Feature"},
	{"geometry":{"coordinates":[-85.761679,38.225914],"type":"Point"},"properties":{"osm_id":"5127901933","tag":{"amenity":"waste_basket"}},"type":"Feature"},
	{"geometry":{"coordinates":[-85.761497,38.227837],"type":"Point"},"properties":{"osm_id":"5127929177","tag":{"amenity":"waste_basket"}},"type":"Feature"},
	{"geometry":{"coordinates":[-85.761693,38.227898],"type":"Point"},"properties":{"osm_id":"5127929185","tag":{"amenity":"waste_basket"}},"type":"Feature"},
	{"geometry":{"coordinates":[-85.761435,38.22925],"type":"Point"},"properties":{"osm_id":"5127942778","tag":{"amenity":"waste_basket"}},"type":"Feature"},
	{"geometry":{"coordinates":[-85.761282,38.229111],"type":"Point"},"properties":{"osm_id":"5127942780","tag":{"amenity":"waste_basket"}},"type":"Feature"},
	{"geometry":{"coordinates":[-85.761095,38.230291],"type":"Point"},"properties":{"osm_id":"5127955065","tag":{"amenity":"waste_basket"}},"type":"Feature"},
	{"geometry":{"coordinates":[-85.761142,38.231119],"type":"Point"},"properties":{"osm_id":"5127975169","tag":{"amenity":"waste_basket"}},"type":"Feature"},
	{"geometry":{"coordinates":[-85.760914,38.231177],"type":"Point"},"properties":{"osm_id":"5127975170","tag":{"amenity":"waste_basket"}},"type":"Feature"},
	{"geometry":{"coordinates":[-85.760776,38.232991],"type":"Point"},"properties":{"osm_id":"5127994482","tag":{"amenity":"waste_basket"}},"type":"Feature"},
	{"geometry":{"coordinates":[-85.760659,38.232712],"type":"Point"},"properties":{"osm_id":"5127994488","tag":{"amenity":"waste_basket"}},"type":"Feature"},
	{"geometry":{"coordinates":[-85.760296,38.234874],"type":"Point"},"properties":{"osm_id":"5128016227","tag":{"amenity":"waste_basket"}},"type":"Feature"},
	{"geometry":{"coordinates":[-85.760463,38.234828],"type":"Point"},"properties":{"osm_id":"5128016230","tag":{"amenity":"waste_basket"}},"type":"Feature"},
	{"geometry":{"coordinates":[-85.76009,38.234938],"type":"Point"},"properties":{"osm_id":"5128031008","tag":{"amenity":"waste_basket"}},"type":"Feature"},
	{"geometry":{"coordinates":[-85.759909,38.237064],"type":"Point"},"properties":{"osm_id":"5128040387","tag":{"amenity":"waste_basket"}},"type":"Feature"},
	{"geometry":{"coordinates":[-85.759538,38.239165],"type":"Point"},"properties":{"osm_id":"5128054947","tag":{"amenity":"waste_basket"}},"type":"Feature"},
	{"geometry":{"coordinates":[-85.759702,38.239074],"type":"Point"},"properties":{"osm_id":"5128054957","tag":{"amenity":"waste_basket"}},"type":"Feature"},
	{"geometry":{"coordinates":[-85.759302,38.240266],"type":"Point"},"properties":{"osm_id":"5128186706","tag":{"amenity":"waste_basket"}},"type":"Feature"},
	{"geometry":{"coordinates":[-85.759209,38.242062],"type":"Point"},"properties":{"osm_id":"5128190832","tag":{"amenity":"waste_basket"}},"type":"Feature"},
	{"geometry":{"coordinates":[-85.758548,38.245803],"type":"Point"},"properties":{"osm_id":"5128216534","tag":{"amenity":"waste_basket"}},"type":"Feature"},
	{"geometry":{"coordinates":[-85.757914,38.245939],"type":"Point"},"properties":{"osm_id":"5128287036","tag":{"amenity":"waste_basket"}},"type":"Feature"},
	{"geometry":{"coordinates":[-85.758818,38.24624],"type":"Point"},"properties":{"osm_id":"5128311488","tag":{"amenity":"waste_basket"}},"type":"Feature"},
	{"geometry":{"coordinates":[-85.759413,38.2495],"type":"Point"},"properties":{"osm_id":"5128368837","tag":{"amenity":"waste_basket"}},"type":"Feature"},
	{"geometry":{"coordinates":[-85.759118,38.249013],"type":"Point"},"properties":{"osm_id":"5128377965","tag":{"amenity":"waste_basket"}},"type":"Feature"},
	{"geometry":{"coordinates":[-85.759102,38.249008],"type":"Point"},"properties":{"osm_id":"5128389466","tag":{"amenity":"waste_basket"}},"type":"Feature"},
	{"geometry":{"coordinates":[-85.758633,38.253828],"type":"Point"},"properties":{"osm_id":"5130169439","tag":{"amenity":"waste_basket"}},"type":"Feature"},
	{"geometry":{"coordinates":[-85.757485,38.255493],"type":"Point"},"properties":{"osm_id":"5130219853","tag":{"amenity":"waste_basket"}},"type":"Feature"},
	{"geometry":{"coordinates":[-85.7584,38.25525],"type":"Point"},"properties":{"osm_id":"5130219855","tag":{"amenity":"waste_basket"}},"type":"Feature"},
	{"geometry":{"coordinates":[-85.756629,38.255613],"type":"Point"},"properties":{"osm_id":"5130537036","tag":{"amenity":"waste_basket"}},"type":"Feature"},
	{"geometry":{"coordinates":[-85.756543,38.25617],"type":"Point"},"properties":{"osm_id":"5130554628","tag":{"amenity":"waste_basket"}},"type":"Feature"},
	{"geometry":{"coordinates":[-85.756351,38.256682],"type":"Point"},"properties":{"osm_id":"5130562914","tag":{"amenity":"waste_basket"}},"type":"Feature"},
	{"geometry":{"coordinates":[-85.758001,38.256892],"type":"Point"},"properties":{"osm_id":"5130591036","tag":{"amenity":"waste_basket"}},"type":"Feature"},
	{"geometry":{"coordinates":[-85.761682,38.257252],"type":"Point"},"properties":{"osm_id":"5130619728","tag":{"amenity":"waste_basket"}},"type":"Feature"},
	{"geometry":{"coordinates":[-85.763491,38.256055],"type":"Point"},"properties":{"osm_id":"5130674102","tag":{"amenity":"waste_basket"}},"type":"Feature"},
	{"geometry":{"coordinates":[-85.761361,38.255625],"type":"Point"},"properties":{"osm_id":"5130677382","tag":{"amenity":"waste_basket"}},"type":"Feature"},
	{"geometry":{"coordinates":[-85.760429,38.25552],"type":"Point"},"properties":{"osm_id":"5130701747","tag":{"amenity":"waste_basket"}},"type":"Feature"},
	{"geometry":{"coordinates":[-85.760697,38.254357],"type":"Point"},"properties":{"osm_id":"5130753524","tag":{"amenity":"waste_basket"}},"type":"Feature"},
	{"geometry":{"coordinates":[-85.760451,38.254401],"type":"Point"},"properties":{"osm_id":"5130753525","tag":{"amenity":"waste_basket"}},"type":"Feature"},
	{"geometry":{"coordinates":[-85.760699,38.251541],"type":"Point"},"properties":{"osm_id":"5130911131","tag":{"amenity":"waste_basket"}},"type":"Feature"},
	{"geometry":{"coordinates":[-85.760998,38.250908],"type":"Point"},"properties":{"osm_id":"5130911133","tag":{"amenity":"waste_basket"}},"type":"Feature"},
	{"geometry":{"coordinates":[-85.761307,38.249203],"type":"Point"},"properties":{"osm_id":"5130935003","tag":{"amenity":"waste_basket"}},"type":"Feature"},
	{"geometry":{"coordinates":[-85.761355,38.249264],"type":"Point"},"properties":{"osm_id":"5130935016","tag":{"amenity":"waste_basket"}},"type":"Feature"},
	{"geometry":{"coordinates":[-85.757902,38.248676],"type":"Point"},"properties":{"osm_id":"5141619967","tag":{"amenity":"waste_basket"}},"type":"Feature"},
	{"geometry":{"coordinates":[-85.757808,38.251228],"type":"Point"},"properties":{"osm_id":"5141663097","tag":{"amenity":"waste_basket"}},"type":"Feature"},
	{"geometry":{"coordinates":[-85.757912,38.251241],"type":"Point"},"properties":{"osm_id":"5141663102","tag":{"amenity":"waste_basket"}},"type":"Feature"},
	{"geometry":{"coordinates":[-85.754012,38.254838],"type":"Point"},"properties":{"osm_id":"5146779004","tag":{"amenity":"waste_basket"}},"type":"Feature"},
	{"geometry":{"coordinates":[-85.753973,38.254835],"type":"Point"},"properties":{"osm_id":"5146779005","tag":{"amenity":"waste_basket"}},"type":"Feature"},
	{"geometry":{"coordinates":[-85.755706,38.250997],"type":"Point"},"properties":{"osm_id":"5147141877","tag":{"amenity":"waste_basket"}},"type":"Feature"},
	{"geometry":{"coordinates":[-85.750524,38.204372],"type":"Point"},"properties":{"osm_id":"5148201817","tag":{"amenity":"waste_basket"}},"type":"Feature"},
	{"geometry":{"coordinates":[-85.755335,38.214028],"type":"Point"},"properties":{"osm_id":"5149037116","tag":{"amenity":"waste_basket"}},"type":"Feature"},
	{"geometry":{"coordinates":[-85.760059,38.213395],"type":"Point"},"properties":{"osm_id":"5149071983","tag":{"amenity":"waste_basket"}},"type":"Feature"},
	{"geometry":{"coordinates":[-85.760253,38.213628],"type":"Point"},"properties":{"osm_id":"5149094848","tag":{"amenity":"waste_basket"}},"type":"Feature"},
	{"geometry":{"coordinates":[-85.760271,38.213642],"type":"Point"},"properties":{"osm_id":"5149094849","tag":{"amenity":"waste_basket"}},"type":"Feature"},
	{"geometry":{"coordinates":[-85.760305,38.213632],"type":"Point"},"properties":{"osm_id":"5149094850","tag":{"amenity":"waste_basket"}},"type":"Feature"},
	{"geometry":{"coordinates":[-85.760291,38.213644],"type":"Point"},"properties":{"osm_id":"5149094851","tag":{"amenity":"waste_basket"}},"type":"Feature"},
	{"geometry":{"coordinates":[-85.760292,38.213632],"type":"Point"},"properties":{"osm_id":"5149094855","tag":{"amenity":"waste_basket"}},"type":"Feature"},
	{"geometry":{"coordinates":[-85.760252,38.213641],"type":"Point"},"properties":{"osm_id":"5149094857","tag":{"amenity":"waste_basket"}},"type":"Feature"},
	{"geometry":{"coordinates":[-85.761828,38.216286],"type":"Point"},"properties":{"osm_id":"5149101039","tag":{"amenity":"waste_basket"}},"type":"Feature"},
	{"geometry":{"coordinates":[-85.762072,38.214321],"type":"Point"},"properties":{"osm_id":"5149101187","tag":{"amenity":"waste_basket"}},"type":"Feature"},
	{"geometry":{"coordinates":[-85.761135,38.219069],"type":"Point"},"properties":{"osm_id":"5149159376","tag":{"amenity":"waste_basket"}},"type":"Feature"},
	{"geometry":{"coordinates":[-85.759531,38.220661],"type":"Point"},"properties":{"osm_id":"5149165889","tag":{"amenity":"waste_basket"}},"type":"Feature"},
	{"geometry":{"coordinates":[-85.758965,38.222963],"type":"Point"},"properties":{"osm_id":"5149173964","tag":{"amenity":"waste_basket"}},"type":"Feature"},
	{"geometry":{"coordinates":[-85.758422,38.225698],"type":"Point"},"properties":{"osm_id":"5149187169","tag":{"amenity":"waste_basket"}},"type":"Feature"},
	{"geometry":{"coordinates":[-85.758325,38.226785],"type":"Point"},"properties":{"osm_id":"5149194099","tag":{"amenity":"waste_basket"}},"type":"Feature"},
	{"geometry":{"coordinates":[-85.758003,38.228662],"type":"Point"},"properties":{"osm_id":"5149204470","tag":{"amenity":"waste_basket"}},"type":"Feature"},
	{"geometry":{"coordinates":[-85.757294,38.232751],"type":"Point"},"properties":{"osm_id":"5149208973","tag":{"amenity":"waste_basket"}},"type":"Feature"},
	{"geometry":{"coordinates":[-85.756209,38.238859],"type":"Point"},"properties":{"osm_id":"5149631674","tag":{"amenity":"waste_basket"}},"type":"Feature"},
	{"geometry":{"coordinates":[-85.756526,38.246068],"type":"Point"},"properties":{"osm_id":"5149792312","tag":{"amenity":"waste_basket"}},"type":"Feature"},
	{"geometry":{"coordinates":[-85.756366,38.245828],"type":"Point"},"properties":{"osm_id":"5149792611","tag":{"amenity":"waste_basket"}},"type":"Feature"},
	{"geometry":{"coordinates":[-85.751248,38.252331],"type":"Point"},"properties":{"osm_id":"5149877396","tag":{"amenity":"waste_basket"}},"type":"Feature"},
	{"geometry":{"coordinates":[-85.753463,38.245866],"type":"Point"},"properties":{"osm_id":"5149922239","tag":{"amenity":"waste_basket"}},"type":"Feature"},
	{"geometry":{"coordinates":[-85.753183,38.245808],"type":"Point"},"properties":{"osm_id":"5149922246","tag":{"amenity":"waste_basket"}},"type":"Feature"},
	{"geometry":{"coordinates":[-85.752981,38.245589],"type":"Point"},"properties":{"osm_id":"5149928485","tag":{"amenity":"waste_basket"}},"type":"Feature"},
	{"geometry":{"coordinates":[-85.771798,38.247479],"type":"Point"},"properties":{"osm_id":"5156901265","tag":{"amenity":"waste_basket"}},"type":"Feature"},
	{"geometry":{"coordinates":[-85.772231,38.252826],"type":"Point"},"properties":{"osm_id":"5157024705","tag":{"amenity":"waste_basket"}},"type":"Feature"},
	{"geometry":{"coordinates":[-85.771491,38.255492],"type":"Point"},"properties":{"osm_id":"5157050789","tag":{"amenity":"waste_basket"}},"type":"Feature"},
	{"geometry":{"coordinates":[-85.774722,38.257298],"type":"Point"},"properties":{"osm_id":"5157088435","tag":{"amenity":"waste_basket"}},"type":"Feature"},
	{"geometry":{"coordinates":[-85.774936,38.257098],"type":"Point"},"properties":{"osm_id":"5157088439","tag":{"amenity":"waste_basket"}},"type":"Feature"},
	{"geometry":{"coordinates":[-85.776257,38.258916],"type":"Point"},"properties":{"osm_id":"5157119451","tag":{"amenity":"waste_basket"}},"type":"Feature"},
	{"geometry":{"coordinates":[-85.776447,38.258945],"type":"Point"},"properties":{"osm_id":"5157125841","tag":{"amenity":"waste_basket"}},"type":"Feature"},
	{"geometry":{"coordinates":[-85.777899,38.25907],"type":"Point"},"properties":{"osm_id":"5157179938","tag":{"amenity":"waste_basket"}},"type":"Feature"},
	{"geometry":{"coordinates":[-85.779415,38.260448],"type":"Point"},"properties":{"osm_id":"5157193886","tag":{"amenity":"waste_basket"}},"type":"Feature"},
	{"geometry":{"coordinates":[-85.78095,38.262111],"type":"Point"},"properties":{"osm_id":"5157206511","tag":{"amenity":"waste_basket"}},"type":"Feature"},
	{"geometry":{"coordinates":[-85.751319,38.254545],"type":"Point"},"properties":{"osm_id":"5160282086","tag":{"amenity":"waste_basket"}},"type":"Feature"},
	{"geometry":{"coordinates":[-85.747925,38.254163],"type":"Point"},"properties":{"osm_id":"5160288977","tag":{"amenity":"waste_basket"}},"type":"Feature"},
	{"geometry":{"coordinates":[-85.741696,38.253499],"type":"Point"},"properties":{"osm_id":"5160297679","tag":{"amenity":"waste_basket"}},"type":"Feature"},
	{"geometry":{"coordinates":[-85.740232,38.253516],"type":"Point"},"properties":{"osm_id":"5160304716","tag":{"amenity":"waste_basket"}},"type":"Feature"},
	{"geometry":{"coordinates":[-85.738195,38.253106],"type":"Point"},"properties":{"osm_id":"5160309844","tag":{"amenity":"waste_basket"}},"type":"Feature"},
	{"geometry":{"coordinates":[-85.738155,38.253288],"type":"Point"},"properties":{"osm_id":"5160309850","tag":{"amenity":"waste_basket"}},"type":"Feature"},
	{"geometry":{"coordinates":[-85.735893,38.253044],"type":"Point"},"properties":{"osm_id":"5160317058","tag":{"amenity":"waste_basket"}},"type":"Feature"},
	{"geometry":{"coordinates":[-85.735903,38.252859],"type":"Point"},"properties":{"osm_id":"5160317059","tag":{"amenity":"waste_basket"}},"type":"Feature"},
	{"geometry":{"coordinates":[-85.736307,38.254504],"type":"Point"},"properties":{"osm_id":"5160335376","tag":{"amenity":"waste_basket"}},"type":"Feature"},
	{"geometry":{"coordinates":[-85.766892,38.256242],"type":"Point"},"properties":{"osm_id":"5160910873","tag":{"amenity":"waste_basket"}},"type":"Feature"},
	{"geometry":{"coordinates":[-85.767248,38.252288],"type":"Point"},"properties":{"osm_id":"5160961059","tag":{"amenity":"waste_basket"}},"type":"Feature"},
	{"geometry":{"coordinates":[-85.762346,38.253569],"type":"Point"},"properties":{"osm_id":"5162485897","tag":{"amenity":"waste_basket"}},"type":"Feature"},
	{"geometry":{"coordinates":[-85.758351,38.253146],"type":"Point"},"properties":{"osm_id":"5162496117","tag":{"amenity":"waste_basket"}},"type":"Feature"},
	{"geometry":{"coordinates":[-85.748843,38.247901],"type":"Point"},"properties":{"osm_id":"5162659529","tag":{"amenity":"waste_basket"}},"type":"Feature"},
	{"geometry":{"coordinates":[-85.74502,38.247975],"type":"Point"},"properties":{"osm_id":"5162676677","tag":{"amenity":"waste_basket"}},"type":"Feature"},
	{"geometry":{"coordinates":[-85.759693,38.251461],"type":"Point"},"properties":{"osm_id":"5162717029","tag":{"amenity":"waste_basket"}},"type":"Feature"},
	{"geometry":{"coordinates":[-85.701804,38.25802],"type":"Point"},"properties":{"osm_id":"5171013713","tag":{"amenity":"waste_basket"}},"type":"Feature"},
	{"geometry":{"coordinates":[-85.701934,38.253542],"type":"Point"},"properties":{"osm_id":"5171026058","tag":{"amenity":"waste_basket"}},"type":"Feature"},
	{"geometry":{"coordinates":[-85.706552,38.253606],"type":"Point"},"properties":{"osm_id":"5171195281","tag":{"amenity":"waste_basket"}},"type":"Feature"},
	{"geometry":{"coordinates":[-85.706488,38.253722],"type":"Point"},"properties":{"osm_id":"5171201704","tag":{"amenity":"waste_basket"}},"type":"Feature"},
	{"geometry":{"coordinates":[-85.712478,38.255358],"type":"Point"},"properties":{"osm_id":"5171276535","tag":{"amenity":"waste_basket"}},"type":"Feature"},
	{"geometry":{"coordinates":[-85.712531,38.255521],"type":"Point"},"properties":{"osm_id":"5171278781","tag":{"amenity":"waste_basket"}},"type":"Feature"},
	{"geometry":{"coordinates":[-85.727868,38.256114],"type":"Point"},"properties":{"osm_id":"5172553946","tag":{"amenity":"waste_basket"}},"type":"Feature"},
	{"geometry":{"coordinates":[-85.750299,38.253254],"type":"Point"},"properties":{"osm_id":"5172758582","tag":{"amenity":"waste_basket"}},"type":"Feature"},
	{"geometry":{"coordinates":[-85.752339,38.25342],"type":"Point"},"properties":{"osm_id":"5172820893","tag":{"amenity":"waste_basket"}},"type":"Feature"},
	{"geometry":{"coordinates":[-85.757525,38.253987],"type":"Point"},"properties":{"osm_id":"5172832274","tag":{"amenity":"waste_basket"}},"type":"Feature"},
	{"geometry":{"coordinates":[-85.763702,38.254725],"type":"Point"},"properties":{"osm_id":"5172850839","tag":{"amenity":"waste_basket"}},"type":"Feature"},
	{"geometry":{"coordinates":[-85.778125,38.257719],"type":"Point"},"properties":{"osm_id":"5172883355","tag":{"amenity":"waste_basket"}},"type":"Feature"},
	{"geometry":{"coordinates":[-85.696311,38.265554],"type":"Point"},"properties":{"osm_id":"5201524965","tag":{"amenity":"waste_basket"}},"type":"Feature"},
	{"geometry":{"coordinates":[-85.707527,38.259884],"type":"Point"},"properties":{"osm_id":"5201569841","tag":{"amenity":"waste_basket"}},"type":"Feature"},
	{"geometry":{"coordinates":[-85.703108,38.258532],"type":"Point"},"properties":{"osm_id":"5201577241","tag":{"amenity":"waste_basket"}},"type":"Feature"},
	{"geometry":{"coordinates":[-85.776355,38.206099],"type":"Point"},"properties":{"osm_id":"5215945137","tag":{"amenity":"waste_basket"}},"type":"Feature"},
	{"geometry":{"coordinates":[-85.766182,38.210568],"type":"Point"},"properties":{"osm_id":"5215991763","tag":{"amenity":"waste_basket"}},"type":"Feature"},
	{"geometry":{"coordinates":[-85.743341,38.214688],"type":"Point"},"properties":{"osm_id":"5216146712","tag":{"amenity":"waste_basket"}},"type":"Feature"},
	{"geometry":{"coordinates":[-85.743179,38.21446],"type":"Point"},"properties":{"osm_id":"5216149010","tag":{"amenity":"waste_basket"}},"type":"Feature"},
	{"geometry":{"coordinates":[-85.743397,38.214607],"type":"Point"},"properties":{"osm_id":"5216149824","tag":{"amenity":"waste_basket"}},"type":"Feature"},
	{"geometry":{"coordinates":[-85.742295,38.214902],"type":"Point"},"properties":{"osm_id":"5216151506","tag":{"amenity":"waste_basket"}},"type":"Feature"},
	{"geometry":{"coordinates":[-85.730125,38.223802],"type":"Point"},"properties":{"osm_id":"5216208849","tag":{"amenity":"waste_basket"}},"type":"Feature"},
	{"geometry":{"coordinates":[-85.726221,38.225442],"type":"Point"},"properties":{"osm_id":"5216224405","tag":{"amenity":"waste_basket"}},"type":"Feature"},
	{"geometry":{"coordinates":[-85.709986,38.232431],"type":"Point"},"properties":{"osm_id":"5216507809","tag":{"amenity":"waste_basket"}},"type":"Feature"},
	{"geometry":{"coordinates":[-85.709615,38.232035],"type":"Point"},"properties":{"osm_id":"5216507815","tag":{"amenity":"waste_basket"}},"type":"Feature"},
	{"geometry":{"coordinates":[-85.709322,38.231889],"type":"Point"},"properties":{"osm_id":"5216508722","tag":{"amenity":"waste_basket"}},"type":"Feature"},
	{"geometry":{"coordinates":[-85.709434,38.231837],"type":"Point"},"properties":{"osm_id":"5216508723","tag":{"amenity":"waste_basket"}},"type":"Feature"},
	{"geometry":{"coordinates":[-85.709802,38.231795],"type":"Point"},"properties":{"osm_id":"5216508738","tag":{"amenity":"waste_basket"}},"type":"Feature"},
	{"geometry":{"coordinates":[-85.709835,38.23178],"type":"Point"},"properties":{"osm_id":"5216508739","tag":{"amenity":"waste_basket"}},"type":"Feature"},
	{"geometry":{"coordinates":[-85.735967,38.204153],"type":"Point"},"properties":{"osm_id":"5242436985","tag":{"amenity":"waste_basket"}},"type":"Feature"},
	{"geometry":{"coordinates":[-85.735556,38.203986],"type":"Point"},"properties":{"osm_id":"5242436992","tag":{"amenity":"waste_basket"}},"type":"Feature"},
	{"geometry":{"coordinates":[-85.768762,38.227085],"type":"Point"},"properties":{"osm_id":"5488479452","tag":{"amenity":"waste_basket"}},"type":"Feature"},
	{"geometry":{"coordinates":[-85.764088,38.233282],"type":"Point"},"properties":{"osm_id":"5488501300","tag":{"amenity":"waste_basket"}},"type":"Feature"},
	{"geometry":{"coordinates":[-85.764356,38.231848],"type":"Point"},"properties":{"osm_id":"5488502835","tag":{"amenity":"waste_basket"}},"type":"Feature"},
	{"geometry":{"coordinates":[-85.761864,38.245968],"type":"Point"},"properties":{"osm_id":"5488578807","tag":{"amenity":"waste_basket"}},"type":"Feature"},
	{"geometry":{"coordinates":[-85.768142,38.247199],"type":"Point"},"properties":{"osm_id":"5489002420","tag":{"amenity":"waste_basket"}},"type":"Feature"},
	{"geometry":{"coordinates":[-85.768625,38.24705],"type":"Point"},"properties":{"osm_id":"5489003325","tag":{"amenity":"waste_basket"}},"type":"Feature"},
	{"geometry":{"coordinates":[-85.769726,38.247416],"type":"Point"},"properties":{"osm_id":"5489012190","tag":{"amenity":"waste_basket"}},"type":"Feature"},
	{"geometry":{"coordinates":[-85.773476,38.247709],"type":"Point"},"properties":{"osm_id":"5489024404","tag":{"amenity":"waste_basket"}},"type":"Feature"},
	{"geometry":{"coordinates":[-85.778428,38.248398],"type":"Point"},"properties":{"osm_id":"5489046909","tag":{"amenity":"waste_basket"}},"type":"Feature"},
	{"geometry":{"coordinates":[-85.777957,38.248552],"type":"Point"},"properties":{"osm_id":"5489046916","tag":{"amenity":"waste_basket"}},"type":"Feature"},
	{"geometry":{"coordinates":[-85.704021,38.256894],"type":"Point"},"properties":{"osm_id":"6562729145","tag":{"amenity":"waste_disposal"}},"type":"Feature"},
	{"geometry":{"coordinates":[-85.749371,38.254326],"type":"Point"},"properties":{"osm_id":"7360055020","tag":{"amenity":"waste_basket"}},"type":"Feature"},
	{"geometry":{"coordinates":[-85.710056,38.254746],"type":"Point"},"properties":{"osm_id":"7373914638","tag":{"amenity":"waste_basket","waste":"trash"}},"type":"Feature"},
	{"geometry":{"coordinates":[-85.715229,38.256415],"type":"Point"},"properties":{"osm_id":"7373914639","tag":{"amenity":"waste_basket","waste":"trash"}},"type":"Feature"},
	{"geometry":{"coordinates":[-85.719152,38.257687],"type":"Point"},"properties":{"osm_id":"7373914640","tag":{"amenity":"waste_basket","waste":"trash"}},"type":"Feature"},
	{"geometry":{"coordinates":[-85.71037,38.254831],"type":"Point"},"properties":{"osm_id":"7373914641","tag":{"amenity":"waste_basket","waste":"trash"}},"type":"Feature"},
	{"geometry":{"coordinates":[-85.7084,38.254223],"type":"Point"},"properties":{"osm_id":"7373914642","tag":{"amenity":"waste_basket","waste":"trash"}},"type":"Feature"},
	{"geometry":{"coordinates":[-85.748253,38.254151],"type":"Point"},"properties":{"osm_id":"7387049922","tag":{"amenity":"waste_basket"}},"type":"Feature"},
	{"geometry":{"coordinates":[-85.721494,38.258711],"type":"Point"},"properties":{"osm_id":"7387268658","tag":{"amenity":"waste_basket","waste":"trash"}},"type":"Feature"},
	{"geometry":{"coordinates":[-85.703331,38.253423],"type":"Point"},"properties":{"osm_id":"7387268662","tag":{"amenity":"waste_basket","waste":"trash"}},"type":"Feature"},
	{"geometry":{"coordinates":[-85.694948,38.25433],"type":"Point"},"properties":{"osm_id":"7387268663","tag":{"amenity":"waste_basket","waste":"trash"}},"type":"Feature"},
	{"geometry":{"coordinates":[-85.702026,38.253412],"type":"Point"},"properties":{"osm_id":"7387268664","tag":{"amenity":"waste_basket","waste":"trash"}},"type":"Feature"},
	{"geometry":{"coordinates":[-85.704804,38.253367],"type":"Point"},"properties":{"osm_id":"7387268665","tag":{"amenity":"waste_basket","waste":"trash"}},"type":"Feature"},
	{"geometry":{"coordinates":[-85.707995,38.253964],"type":"Point"},"properties":{"osm_id":"7387268666","tag":{"amenity":"waste_basket","waste":"trash"}},"type":"Feature"},
	{"geometry":{"coordinates":[-85.716993,38.256825],"type":"Point"},"properties":{"osm_id":"7387268667","tag":{"amenity":"waste_basket","waste":"trash"}},"type":"Feature"},
	{"geometry":{"coordinates":[-85.717998,38.257152],"type":"Point"},"properties":{"osm_id":"7387268668","tag":{"amenity":"waste_basket","waste":"trash"}},"type":"Feature"},
	{"geometry":{"coordinates":[-85.72124,38.258714],"type":"Point"},"properties":{"osm_id":"7387268669","tag":{"amenity":"waste_basket","waste":"trash"}},"type":"Feature"},
	{"geometry":{"coordinates":[-85.693931,38.254466],"type":"Point"},"properties":{"osm_id":"7393461698","tag":{"amenity":"waste_basket","waste":"trash"}},"type":"Feature"},
	{"geometry":{"coordinates":[-85.696865,38.254218],"type":"Point"},"properties":{"osm_id":"7407673330","tag":{"amenity":"waste_basket","waste":"trash"}},"type":"Feature"},
	{"geometry":{"coordinates":[-85.694206,38.254567],"type":"Point"},"properties":{"osm_id":"7408406210","tag":{"amenity":"waste_basket"}},"type":"Feature"},
	{"geometry":{"coordinates":[-85.697967,38.25392],"type":"Point"},"properties":{"osm_id":"7412935740","tag":{"amenity":"waste_basket","waste":"trash"}},"type":"Feature"},
	{"geometry":{"coordinates":[-85.697984,38.254066],"type":"Point"},"properties":{"osm_id":"7412935741","tag":{"amenity":"waste_basket","waste":"trash"}},"type":"Feature"},
	{"geometry":{"coordinates":[-85.695264,38.254429],"type":"Point"},"properties":{"osm_id":"7412935743","tag":{"amenity":"waste_basket","waste":"trash"}},"type":"Feature"},
	{"geometry":{"coordinates":[-85.70008,38.25434],"type":"Point"},"properties":{"osm_id":"7427465384","tag":{"amenity":"waste_basket"}},"type":"Feature"},
	{"geometry":{"coordinates":[-85.715681,38.256399],"type":"Point"},"properties":{"osm_id":"7447804435","tag":{"amenity":"waste_basket"}},"type":"Feature"},
	{"geometry":{"coordinates":[-85.756536,38.210589],"type":"Point"},"properties":{"osm_id":"7549866816","tag":{"amenity":"waste_basket"}},"type":"Feature"},
	{"geometry":{"coordinates":[-85.756348,38.21057],"type":"Point"},"properties":{"osm_id":"7549866817","tag":{"amenity":"waste_basket"}},"type":"Feature"},
	{"geometry":{"coordinates":[-85.756594,38.210404],"type":"Point"},"properties":{"osm_id":"7549866818","tag":{"amenity":"waste_basket"}},"type":"Feature"},
	{"geometry":{"coordinates":[-85.756257,38.210256],"type":"Point"},"properties":{"osm_id":"7549866819","tag":{"amenity":"waste_basket"}},"type":"Feature"},
	{"geometry":{"coordinates":[-85.756106,38.21028],"type":"Point"},"properties":{"osm_id":"7549866820","tag":{"amenity":"waste_basket"}},"type":"Feature"},
	{"geometry":{"coordinates":[-85.763691,38.213949],"type":"Point"},"properties":{"osm_id":"7549932891","tag":{"amenity":"waste_disposal"}},"type":"Feature"},
	{"geometry":{"coordinates":[-85.76306,38.211257],"type":"Point"},"properties":{"osm_id":"7549932892","tag":{"amenity":"waste_disposal"}},"type":"Feature"},
	{"geometry":{"coordinates":[-85.716642,38.252322],"type":"Point"},"properties":{"osm_id":"7556842161","tag":{"amenity":"waste_basket","waste":"trash"}},"type":"Feature"},
	{"geometry":{"coordinates":[-85.728987,38.249402],"type":"Point"},"properties":{"osm_id":"7556842163","tag":{"amenity":"waste_basket","waste":"trash"}},"type":"Feature"},
	{"geometry":{"coordinates":[-85.732053,38.249673],"type":"Point"},"properties":{"osm_id":"7556842165","tag":{"amenity":"waste_basket","waste":"trash"}},"type":"Feature"},
	{"geometry":{"coordinates":[-85.733375,38.249833],"type":"Point"},"properties":{"osm_id":"7556842166","tag":{"amenity":"waste_basket","waste":"trash"}},"type":"Feature"},
	{"geometry":{"coordinates":[-85.736975,38.246626],"type":"Point"},"properties":{"osm_id":"7556842167","tag":{"amenity":"waste_basket","waste":"trash"}},"type":"Feature"},
	{"geometry":{"coordinates":[-85.739295,38.246872],"type":"Point"},"properties":{"osm_id":"7556842168","tag":{"amenity":"waste_basket","waste":"trash"}},"type":"Feature"},
	{"geometry":{"coordinates":[-85.769671,38.250328],"type":"Point"},"properties":{"osm_id":"7556842169","tag":{"amenity":"waste_basket","waste":"trash"}},"type":"Feature"},
	{"geometry":{"coordinates":[-85.769637,38.250163],"type":"Point"},"properties":{"osm_id":"7556842171","tag":{"amenity":"waste_basket","waste":"trash"}},"type":"Feature"},
	{"geometry":{"coordinates":[-85.775556,38.250826],"type":"Point"},"properties":{"osm_id":"7556842172","tag":{"amenity":"waste_basket","waste":"trash"}},"type":"Feature"},
	{"geometry":{"coordinates":[-85.776256,38.250911],"type":"Point"},"properties":{"osm_id":"7556842174","tag":{"amenity":"waste_basket","waste":"trash"}},"type":"Feature"},
	{"geometry":{"coordinates":[-85.781023,38.251381],"type":"Point"},"properties":{"osm_id":"7556842175","tag":{"amenity":"waste_basket","waste":"trash"}},"type":"Feature"},
	{"geometry":{"coordinates":[-85.781111,38.251701],"type":"Point"},"properties":{"osm_id":"7556842176","tag":{"amenity":"waste_basket","waste":"trash"}},"type":"Feature"},
	{"geometry":{"coordinates":[-85.781209,38.251454],"type":"Point"},"properties":{"osm_id":"7556842177","tag":{"amenity":"waste_basket","waste":"trash"}},"type":"Feature"},
	{"geometry":{"coordinates":[-85.746255,38.251237],"type":"Point"},"properties":{"osm_id":"7557411249","tag":{"amenity":"waste_basket","waste":"trash"}},"type":"Feature"},
	{"geometry":{"coordinates":[-85.777156,38.253355],"type":"Point"},"properties":{"osm_id":"7557411264","tag":{"amenity":"waste_basket","waste":"trash"}},"type":"Feature"},
	{"geometry":{"coordinates":[-85.778628,38.253516],"type":"Point"},"properties":{"osm_id":"7557411266","tag":{"amenity":"waste_basket","waste":"trash"}},"type":"Feature"},
	{"geometry":{"coordinates":[-85.780602,38.253573],"type":"Point"},"properties":{"osm_id":"7557411268","tag":{"amenity":"waste_basket","waste":"trash"}},"type":"Feature"},
	{"geometry":{"coordinates":[-85.780735,38.253782],"type":"Point"},"properties":{"osm_id":"7557411271","tag":{"amenity":"waste_basket","waste":"trash"}},"type":"Feature"},
	{"geometry":{"coordinates":[-85.70684,38.259926],"type":"Point"},"properties":{"osm_id":"7618112187","tag":{"amenity":"waste_basket"}},"type":"Feature"},
	{"geometry":{"coordinates":[-85.709777,38.259886],"type":"Point"},"properties":{"osm_id":"7619070089","tag":{"amenity":"waste_basket"}},"type":"Feature"},
	{"geometry":{"coordinates":[-85.709012,38.260259],"type":"Point"},"properties":{"osm_id":"7619070090","tag":{"amenity":"waste_basket"}},"type":"Feature"},
	{"geometry":{"coordinates":[-85.707522,38.259828],"type":"Point"},"properties":{"osm_id":"7619070286","tag":{"amenity":"waste_basket"}},"type":"Feature"},
	{"geometry":{"coordinates":[-85.70951,38.260214],"type":"Point"},"properties":{"osm_id":"7619070287","tag":{"amenity":"waste_basket"}},"type":"Feature"},
	{"geometry":{"coordinates":[-85.70736,38.260102],"type":"Point"},"properties":{"osm_id":"7619070386","tag":{"amenity":"waste_disposal","operator":"Waste Management"}},"type":"Feature"},
	{"geometry":{"coordinates":[-85.720007,38.256802],"type":"Point"},"properties":{"osm_id":"7649707985","tag":{"amenity":"waste_disposal"}},"type":"Feature"},
	{"geometry":{"coordinates":[-85.719555,38.256806],"type":"Point"},"properties":{"osm_id":"7649708085","tag":{"amenity":"waste_disposal"}},"type":"Feature"},
	{"geometry":{"coordinates":[-85.745438,38.23964],"type":"Point"},"properties":{"osm_id":"7651019258","tag":{"amenity":"waste_basket","waste":"trash"}},"type":"Feature"},
	{"geometry":{"coordinates":[-85.723955,38.257829],"type":"Point"},"properties":{"osm_id":"7651026073","tag":{"amenity":"waste_basket","waste":"trash"}},"type":"Feature"},
	{"geometry":{"coordinates":[-85.723968,38.257824],"type":"Point"},"properties":{"osm_id":"7651026074","tag":{"amenity":"recycling","operator":"River Metals Recycling","recycling_type":"container"}},"type":"Feature"},
	{"geometry":{"coordinates":[-85.724258,38.258282],"type":"Point"},"properties":{"osm_id":"7651026078","tag":{"amenity":"waste_basket","waste":"trash"}},"type":"Feature"},
	{"geometry":{"coordinates":[-85.732409,38.244814],"type":"Point"},"properties":{"osm_id":"7660223632","tag":{"amenity":"waste_basket","waste":"trash"}},"type":"Feature"},
	{"geometry":{"coordinates":[-85.761812,38.231275],"type":"Point"},"properties":{"osm_id":"7666774454","tag":{"amenity":"waste_basket","waste":"trash"}},"type":"Feature"},
	{"geometry":{"coordinates":[-85.76252,38.231437],"type":"Point"},"properties":{"osm_id":"7666774456","tag":{"amenity":"waste_basket","waste":"trash"}},"type":"Feature"},
	{"geometry":{"coordinates":[-85.762976,38.231485],"type":"Point"},"properties":{"osm_id":"7666774457","tag":{"amenity":"waste_basket","waste":"trash"}},"type":"Feature"},
	{"geometry":{"coordinates":[-85.744893,38.232479],"type":"Point"},"properties":{"osm_id":"7667516203","tag":{"amenity":"waste_basket","waste":"trash"}},"type":"Feature"},
	{"geometry":{"coordinates":[-85.736761,38.261269],"type":"Point"},"properties":{"osm_id":"7692194428","tag":{"amenity":"waste_basket","waste":"trash"}},"type":"Feature"},
	{"geometry":{"coordinates":[-85.736851,38.261284],"type":"Point"},"properties":{"osm_id":"7692194429","tag":{"amenity":"waste_basket","waste":"trash"}},"type":"Feature"},
	{"geometry":{"coordinates":[-85.709367,38.260236],"type":"Point"},"properties":{"osm_id":"7700692687","tag":{"amenity":"waste_basket"}},"type":"Feature"},
	{"geometry":{"coordinates":[-85.704511,38.258872],"type":"Point"},"properties":{"osm_id":"7700707985","tag":{"amenity":"waste_basket"}},"type":"Feature"},
	{"geometry":{"coordinates":[-85.709776,38.259901],"type":"Point"},"properties":{"osm_id":"7700707986","tag":{"amenity":"waste_basket"}},"type":"Feature"},
	{"geometry":{"coordinates":[-85.709682,38.26005],"type":"Point"},"properties":{"osm_id":"7700707987","tag":{"amenity":"waste_basket"}},"type":"Feature"},
	{"geometry":{"coordinates":[-85.709664,38.260077],"type":"Point"},"properties":{"osm_id":"7700708185","tag":{"amenity":"waste_basket"}},"type":"Feature"},
	{"geometry":{"coordinates":[-85.699652,38.253782],"type":"Point"},"properties":{"osm_id":"7705668785","tag":{"amenity":"waste_basket"}},"type":"Feature"},
	{"geometry":{"coordinates":[-85.720157,38.249965],"type":"Point"},"properties":{"osm_id":"7713913925","tag":{"amenity":"waste_basket","waste":"trash"}},"type":"Feature"},
	{"geometry":{"coordinates":[-85.757868,38.24422],"type":"Point"},"properties":{"osm_id":"7722861210","tag":{"amenity":"waste_basket","waste":"trash"}},"type":"Feature"},
	{"geometry":{"coordinates":[-85.757904,38.244223],"type":"Point"},"properties":{"osm_id":"7722861211","tag":{"amenity":"waste_basket","waste":"trash"}},"type":"Feature"}
]
}
