{
"type": "FeatureCollection",
"features": [
	{"geometry":{"coordinates":[-85.703387,38.19701],"type":"Point"},"properties":{"name":"Paper recycling bin","osm_id":"1205828322","tag":{"amenity":"recycling"}},"type":"Feature"},
	{"geometry":{"coordinates":[-85.773593,38.16133],"type":"Point"},"properties":{"osm_id":"5119355582","tag":{"amenity":"waste_basket"}},"type":"Feature"},
	{"geometry":{"coordinates":[-85.767602,38.173307],"type":"Point"},"properties":{"osm_id":"5119469659","tag":{"amenity":"waste_basket"}},"type":"Feature"},
	{"geometry":{"coordinates":[-85.767797,38.173243],"type":"Point"},"properties":{"osm_id":"5119473131","tag":{"amenity":"waste_basket"}},"type":"Feature"},
	{"geometry":{"coordinates":[-85.767367,38.174598],"type":"Point"},"properties":{"osm_id":"5119773650","tag":{"amenity":"waste_basket"}},"type":"Feature"},
	{"geometry":{"coordinates":[-85.767521,38.174843],"type":"Point"},"properties":{"osm_id":"5121426928","tag":{"amenity":"waste_basket"}},"type":"Feature"},
	{"geometry":{"coordinates":[-85.76695,38.177058],"type":"Point"},"properties":{"osm_id":"5121442604","tag":{"amenity":"waste_basket"}},"type":"Feature"},
	{"geometry":{"coordinates":[-85.766655,38.178639],"type":"Point"},"properties":{"osm_id":"5121455522","tag":{"amenity":"waste_basket"}},"type":"Feature"},
	{"geometry":{"coordinates":[-85.766804,38.178834],"type":"Point"},"properties":{"osm_id":"5121476639","tag":{"amenity":"waste_basket"}},"type":"Feature"},
	{"geometry":{"coordinates":[-85.766148,38.18147],"type":"Point"},"properties":{"osm_id":"5121476641","tag":{"amenity":"waste_basket"}},"type":"Feature"},
	{"geometry":{"coordinates":[-85.764806,38.188912],"type":"Point"},"properties":{"osm_id":"5121569621","tag":{"amenity":"waste_basket"}},"type":"Feature"},
	{"geometry":{"coordinates":[-85.773576,38.161326],"type":"Point"},"properties":{"osm_id":"5132499705","tag":{"amenity":"waste_basket"}},"type":"Feature"},
	{"geometry":{"coordinates":[-85.779158,38.161991],"type":"Point"},"properties":{"osm_id":"5132626090","tag":{"amenity":"waste_basket"}},"type":"Feature"},
	{"geometry":{"coordinates":[-85.764687,38.178933],"type":"Point"},"properties":{"osm_id":"5135041326","tag":{"amenity":"waste_basket"}},"type":"Feature"},
	{"geometry":{"coordinates":[-85.770752,38.182191],"type":"Point"},"properties":{"osm_id":"5135072252","tag":{"amenity":"waste_basket"}},"type":"Feature"},
	{"geometry":{"coordinates":[-85.768347,38.196559],"type":"Point"},"properties":{"osm_id":"5135186715","tag":{"amenity":"waste_basket"}},"type":"Feature"},
	{"geometry":{"coordinates":[-85.739977,38.193437],"type":"Point"},"properties":{"osm_id":"5147629162","tag":{"amenity":"waste_basket"}},"type":"Feature"},
	{"geometry":{"coordinates":[-85.750627,38.202451],"type":"Point"},"properties":{"osm_id":"5148182088","tag":{"amenity":"waste_basket"}},"type":"Feature"},
	{"geometry":{"coordinates":[-85.781221,38.202479],"type":"Point"},"properties":{"osm_id":"5215904846","tag":{"amenity":"waste_basket"}},"type":"Feature"},
	{"geometry":{"coordinates":[-85.7809,38.202451],"type":"Point"},"properties":{"osm_id":"5215914071","tag":{"amenity":"waste_basket"}},"type":"Feature"},
	{"geometry":{"coordinates":[-85.700309,38.162301],"type":"Point"},"properties":{"osm_id":"5232638561","tag":{"amenity":"waste_basket"}},"type":"Feature"},
	{"geometry":{"coordinates":[-85.700157,38.162587],"type":"Point"},"properties":{"osm_id":"5232638568","tag":{"amenity":"waste_basket"}},"type":"Feature"},
	{"geometry":{"coordinates":[-85.704969,38.167043],"type":"Point"},"properties":{"osm_id":"5234525489","tag":{"amenity":"waste_basket"}},"type":"Feature"},
	{"geometry":{"coordinates":[-85.708989,38.17125],"type":"Point"},"properties":{"osm_id":"5234547560","tag":{"amenity":"waste_basket"}},"type":"Feature"},
	{"geometry":{"coordinates":[-85.708667,38.170589],"type":"Point"},"properties":{"osm_id":"5234547561","tag":{"amenity":"waste_basket"}},"type":"Feature"},
	{"geometry":{"coordinates":[-85.710475,38.17229],"type":"Point"},"properties":{"osm_id":"5234596103","tag":{"amenity":"waste_basket"}},"type":"Feature"},
	{"geometry":{"coordinates":[-85.713003,38.174685],"type":"Point"},"properties":{"osm_id":"5234598579","tag":{"amenity":"waste_basket"}},"type":"Feature"},
	{"geometry":{"coordinates":[-85.713847,38.175889],"type":"Point"},"properties":{"osm_id":"5234606060","tag":{"amenity":"waste_basket"}},"type":"Feature"},
	{"geometry":{"coordinates":[-85.716713,38.178233],"type":"Point"},"properties":{"osm_id":"5234779888","tag":{"amenity":"waste_basket"}},"type":"Feature"},
	{"geometry":{"coordinates":[-85.720993,38.182695],"type":"Point"},"properties":{"osm_id":"5234852834","tag":{"amenity":"waste_basket"}},"type":"Feature"},
	{"geometry":{"coordinates":[-85.731934,38.197923],"type":"Point"},"properties":{"osm_id":"5242397528","tag":{"amenity":"waste_basket"}},"type":"Feature"},
	{"geometry":{"coordinates":[-85.731645,38.197979],"type":"Point"},"properties":{"osm_id":"5242397531","tag":{"amenity":"waste_basket"}},"type":"Feature"}
]
}
