{
"type": "FeatureCollection",
"features": [
	{"geometry":{"coordinates":[-88.327718,42.133865],"type":"Point"},"properties":{"osm_id":"4145714615","tag":{"amenity":"waste_basket"}},"type":"Feature"},
	{"geometry":{"coordinates":[-88.325784,42.134196],"type":"Point"},"properties":{"osm_id":"4160313610","tag":{"amenity":"waste_basket"}},"type":"Feature"},
	{"geometry":{"coordinates":[-88.281133,42.10184],"type":"Point"},"properties":{"osm_id":"4326343716","tag":{"amenity":"waste_basket"}},"type":"Feature"},
	{"geometry":{"coordinates":[-88.282021,42.101135],"type":"Point"},"properties":{"osm_id":"4326343724","tag":{"amenity":"waste_basket"}},"type":"Feature"},
	{"geometry":{"coordinates":[-88.282886,42.101779],"type":"Point"},"properties":{"osm_id":"4326343727","tag":{"amenity":"waste_basket"}},"type":"Feature"},
	{"geometry":{"coordinates":[-88.280897,42.100517],"type":"Point"},"properties":{"osm_id":"4326343731","tag":{"amenity":"waste_basket"}},"type":"Feature"},
	{"geometry":{"coordinates":[-88.279843,42.100041],"type":"Point"},"properties":{"osm_id":"4326343733","tag":{"amenity":"waste_basket"}},"type":"Feature"},
	{"geometry":{"coordinates":[-88.312516,42.162627],"type":"Point"},"properties":{"osm_id":"4408993788","tag":{"amenity":"waste_basket"}},"type":"Feature"},
	{"geometry":{"coordinates":[-88.283543,42.162764],"type":"Point"},"properties":{"osm_id":"5082851211","tag":{"amenity":"recycling","recycling:eyeglasses":"yes","recycling_type":"container"}},"type":"Feature"},
	{"geometry":{"coordinates":[-88.297981,42.163304],"type":"Point"},"properties":{"osm_id":"5194603348","tag":{"amenity":"waste_basket"}},"type":"Feature"},
	{"geometry":{"coordinates":[-88.298814,42.162975],"type":"Point"},"properties":{"osm_id":"5194603349","tag":{"amenity":"waste_basket"}},"type":"Feature"},
	{"geometry":{"coordinates":[-88.298602,42.162942],"type":"Point"},"properties":{"osm_id":"5194603361","tag":{"amenity":"waste_basket"}},"type":"Feature"},
	{"geometry":{"coordinates":[-88.299181,42.161591],"type":"Point"},"properties":{"osm_id":"5194603398","tag":{"amenity":"waste_basket"}},"type":"Feature"},
	{"geometry":{"coordinates":[-88.264008,42.105045],"type":"Point"},"properties":{"osm_id":"5643009883","tag":{"amenity":"waste_basket"}},"type":"Feature"}
]
}
