{
"type": "FeatureCollection",
"features": [
	{"geometry":{"coordinates":[5.098744,52.265702],"type":"Point"},"properties":{"osm_id":"500822037","tag":{"amenity":"recycling","recycling:glass_bottles":"yes","recycling:textiles":"yes","recycling_type":"container"}},"type":"Feature"},
	{"geometry":{"coordinates":[5.122292,52.218626],"type":"Point"},"properties":{"osm_id":"1225231719","tag":{"amenity":"waste_basket"}},"type":"Feature"},
	{"geometry":{"coordinates":[5.122051,52.218382],"type":"Point"},"properties":{"osm_id":"1225231962","tag":{"amenity":"waste_basket"}},"type":"Feature"},
	{"geometry":{"coordinates":[5.120564,52.216978],"type":"Point"},"properties":{"osm_id":"1225232043","tag":{"amenity":"waste_basket"}},"type":"Feature"},
	{"geometry":{"coordinates":[5.111718,52.244278],"type":"Point"},"properties":{"osm_id":"1225536182","tag":{"amenity":"waste_basket"}},"type":"Feature"},
	{"geometry":{"coordinates":[5.161941,52.253405],"type":"Point"},"properties":{"osm_id":"1237839252","tag":{"amenity":"waste_basket"}},"type":"Feature"},
	{"geometry":{"coordinates":[5.161559,52.246039],"type":"Point"},"properties":{"osm_id":"1406347240","tag":{"amenity":"waste_basket"}},"type":"Feature"},
	{"geometry":{"coordinates":[5.137201,52.26336],"type":"Point"},"properties":{"osm_id":"1406347310","tag":{"amenity":"waste_basket"}},"type":"Feature"},
	{"geometry":{"coordinates":[5.136848,52.263645],"type":"Point"},"properties":{"osm_id":"1406347322","tag":{"amenity":"waste_basket"}},"type":"Feature"},
	{"geometry":{"coordinates":[5.135094,52.265055],"type":"Point"},"properties":{"osm_id":"1406347327","tag":{"amenity":"waste_basket"}},"type":"Feature"},
	{"geometry":{"coordinates":[5.133043,52.266463],"type":"Point"},"properties":{"osm_id":"1406347339","tag":{"amenity":"waste_basket"}},"type":"Feature"},
	{"geometry":{"coordinates":[5.13296,52.26686],"type":"Point"},"properties":{"osm_id":"1406347343","tag":{"amenity":"waste_basket"}},"type":"Feature"},
	{"geometry":{"coordinates":[5.098603,52.265793],"type":"Point"},"properties":{"osm_id":"1406569200","tag":{"amenity":"waste_basket"}},"type":"Feature"},
	{"geometry":{"coordinates":[5.167074,52.239044],"type":"Point"},"properties":{"osm_id":"1747127109","tag":{"amenity":"waste_basket"}},"type":"Feature"},
	{"geometry":{"coordinates":[5.165669,52.235291],"type":"Point"},"properties":{"osm_id":"1747866501","tag":{"amenity":"waste_basket"}},"type":"Feature"},
	{"geometry":{"coordinates":[5.167726,52.235761],"type":"Point"},"properties":{"osm_id":"1747866512","tag":{"amenity":"waste_basket"}},"type":"Feature"},
	{"geometry":{"coordinates":[5.166026,52.235988],"type":"Point"},"properties":{"osm_id":"1747866515","tag":{"amenity":"waste_basket"}},"type":"Feature"},
	{"geometry":{"coordinates":[5.166536,52.236434],"type":"Point"},"properties":{"osm_id":"1747866528","tag":{"amenity":"waste_basket"}},"type":"Feature"},
	{"geometry":{"coordinates":[5.166484,52.239228],"type":"Point"},"properties":{"osm_id":"1747866538","tag":{"amenity":"waste_basket"}},"type":"Feature"},
	{"geometry":{"coordinates":[5.140683,52.225819],"type":"Point"},"properties":{"osm_id":"3210958848","tag":{"amenity":"waste_basket"}},"type":"Feature"},
	{"geometry":{"coordinates":[5.17093,52.246648],"type":"Point"},"properties":{"name":"GAD Hilversum","osm_id":"3410186734","tag":{"amenity":"recycling","recycling:batteries":"yes","recycling:cans":"yes","recycling:clothes":"yes","recycling:glass":"yes","recycling:paper":"yes","recycling:scrap_metal":"yes","recycling_type":"centre"}},"type":"Feature"},
	{"geometry":{"coordinates":[5.100733,52.266262],"type":"Point"},"properties":{"osm_id":"4192416074","tag":{"addr:street":"van Blarcumlaan","amenity":"recycling","recycling:green_waste":"yes","recycling:waste":"yes","recycling_type":"container"}},"type":"Feature"},
	{"geometry":{"coordinates":[5.142546,52.215822],"type":"Point"},"properties":{"osm_id":"4894217426","tag":{"amenity":"recycling","recycling:glass":"yes","recycling_type":"container"}},"type":"Feature"},
	{"geometry":{"coordinates":[5.14252,52.2158],"type":"Point"},"properties":{"osm_id":"4894217427","tag":{"amenity":"recycling","recycling:plastic":"yes","recycling_type":"container"}},"type":"Feature"},
	{"geometry":{"coordinates":[5.142496,52.215781],"type":"Point"},"properties":{"osm_id":"4894217428","tag":{"amenity":"recycling","recycling:clothes":"yes","recycling_type":"container"}},"type":"Feature"},
	{"geometry":{"coordinates":[5.181697,52.226477],"type":"Point"},"properties":{"osm_id":"5562508097","tag":{"amenity":"waste_basket","backrest":"yes"}},"type":"Feature"},
	{"geometry":{"coordinates":[5.181892,52.226586],"type":"Point"},"properties":{"osm_id":"5562508098","tag":{"amenity":"waste_basket","backrest":"yes"}},"type":"Feature"},
	{"geometry":{"coordinates":[5.182071,52.226034],"type":"Point"},"properties":{"osm_id":"5562508107","tag":{"amenity":"waste_basket"}},"type":"Feature"},
	{"geometry":{"coordinates":[5.182722,52.227025],"type":"Point"},"properties":{"osm_id":"5562508115","tag":{"amenity":"waste_basket"}},"type":"Feature"},
	{"geometry":{"coordinates":[5.182257,52.227089],"type":"Point"},"properties":{"osm_id":"5562508116","tag":{"amenity":"waste_basket"}},"type":"Feature"},
	{"geometry":{"coordinates":[5.181991,52.226773],"type":"Point"},"properties":{"osm_id":"5562508117","tag":{"amenity":"waste_basket"}},"type":"Feature"},
	{"geometry":{"coordinates":[5.181852,52.226853],"type":"Point"},"properties":{"osm_id":"5562508118","tag":{"amenity":"waste_basket"}},"type":"Feature"},
	{"geometry":{"coordinates":[5.182029,52.226736],"type":"Point"},"properties":{"osm_id":"5562508119","tag":{"amenity":"waste_basket"}},"type":"Feature"},
	{"geometry":{"coordinates":[5.182296,52.226422],"type":"Point"},"properties":{"osm_id":"5562508120","tag":{"amenity":"waste_basket"}},"type":"Feature"},
	{"geometry":{"coordinates":[5.171347,52.225671],"type":"Point"},"properties":{"osm_id":"5694299693","tag":{"access":"private","amenity":"recycling","description":"Recycling containers","location":"underground","recycling_type":"container"}},"type":"Feature"},
	{"geometry":{"coordinates":[5.169477,52.22982],"type":"Point"},"properties":{"osm_id":"5765047077","tag":{"amenity":"waste_basket"}},"type":"Feature"},
	{"geometry":{"coordinates":[5.169116,52.228265],"type":"Point"},"properties":{"osm_id":"5765047078","tag":{"amenity":"waste_basket"}},"type":"Feature"},
	{"geometry":{"coordinates":[5.169844,52.228472],"type":"Point"},"properties":{"osm_id":"5765047080","tag":{"amenity":"waste_basket"}},"type":"Feature"},
	{"geometry":{"coordinates":[5.169793,52.22794],"type":"Point"},"properties":{"osm_id":"5765047086","tag":{"amenity":"waste_basket"}},"type":"Feature"},
	{"geometry":{"coordinates":[5.161439,52.225066],"type":"Point"},"properties":{"osm_id":"5765125432","tag":{"amenity":"waste_basket"}},"type":"Feature"},
	{"geometry":{"coordinates":[5.155775,52.225894],"type":"Point"},"properties":{"osm_id":"5765125433","tag":{"amenity":"waste_basket"}},"type":"Feature"},
	{"geometry":{"coordinates":[5.163985,52.224569],"type":"Point"},"properties":{"osm_id":"5765125437","tag":{"amenity":"waste_basket"}},"type":"Feature"},
	{"geometry":{"coordinates":[5.166147,52.225088],"type":"Point"},"properties":{"osm_id":"5765125438","tag":{"amenity":"waste_basket"}},"type":"Feature"},
	{"geometry":{"coordinates":[5.155547,52.225065],"type":"Point"},"properties":{"osm_id":"5765125440","tag":{"amenity":"waste_basket"}},"type":"Feature"},
	{"geometry":{"coordinates":[5.165754,52.225088],"type":"Point"},"properties":{"osm_id":"5765125441","tag":{"amenity":"waste_basket"}},"type":"Feature"},
	{"geometry":{"coordinates":[5.166668,52.224639],"type":"Point"},"properties":{"osm_id":"5765125443","tag":{"amenity":"waste_basket"}},"type":"Feature"},
	{"geometry":{"coordinates":[5.166366,52.224439],"type":"Point"},"properties":{"osm_id":"5765125446","tag":{"amenity":"waste_basket"}},"type":"Feature"},
	{"geometry":{"coordinates":[5.166042,52.224423],"type":"Point"},"properties":{"osm_id":"5765125448","tag":{"amenity":"waste_basket"}},"type":"Feature"},
	{"geometry":{"coordinates":[5.160747,52.225303],"type":"Point"},"properties":{"osm_id":"5765125449","tag":{"amenity":"waste_basket"}},"type":"Feature"},
	{"geometry":{"coordinates":[5.166445,52.224902],"type":"Point"},"properties":{"osm_id":"5765125450","tag":{"amenity":"waste_basket"}},"type":"Feature"},
	{"geometry":{"coordinates":[5.169261,52.222223],"type":"Point"},"properties":{"osm_id":"5765362887","tag":{"amenity":"waste_basket"}},"type":"Feature"},
	{"geometry":{"coordinates":[5.170288,52.223657],"type":"Point"},"properties":{"osm_id":"5765362889","tag":{"amenity":"waste_basket"}},"type":"Feature"},
	{"geometry":{"coordinates":[5.169843,52.225145],"type":"Point"},"properties":{"osm_id":"5765362892","tag":{"amenity":"waste_basket"}},"type":"Feature"},
	{"geometry":{"coordinates":[5.167741,52.223644],"type":"Point"},"properties":{"osm_id":"5765362893","tag":{"amenity":"waste_basket"}},"type":"Feature"},
	{"geometry":{"coordinates":[5.159568,52.222931],"type":"Point"},"properties":{"osm_id":"5765362894","tag":{"amenity":"waste_basket"}},"type":"Feature"},
	{"geometry":{"coordinates":[5.163954,52.222731],"type":"Point"},"properties":{"osm_id":"5765362895","tag":{"amenity":"waste_basket"}},"type":"Feature"},
	{"geometry":{"coordinates":[5.16759,52.22267],"type":"Point"},"properties":{"osm_id":"5765362896","tag":{"amenity":"waste_basket"}},"type":"Feature"},
	{"geometry":{"coordinates":[5.139798,52.218558],"type":"Point"},"properties":{"osm_id":"7179864018","tag":{"amenity":"recycling","recycling:waste":"yes","recycling_type":"container"}},"type":"Feature"},
	{"geometry":{"coordinates":[5.116654,52.236536],"type":"Point"},"properties":{"osm_id":"7920432750","tag":{"amenity":"recycling","recycling:glass":"yes","recycling:glass_bottles":"yes","recycling_type":"container"}},"type":"Feature"}
]
}
