{
"type": "FeatureCollection",
"features": [
	{"geometry":{"coordinates":[5.132343,52.002212],"type":"Point"},"properties":{"osm_id":"301293018","tag":{"amenity":"recycling","recycling:glass":"yes","recycling_type":"container"}},"type":"Feature"},
	{"geometry":{"coordinates":[5.124282,52.051408],"type":"Point"},"properties":{"osm_id":"1771919216","tag":{"amenity":"waste_basket"}},"type":"Feature"},
	{"geometry":{"coordinates":[5.17301,52.022863],"type":"Point"},"properties":{"osm_id":"1811078645","tag":{"amenity":"recycling","recycling:batteries":"no","recycling:books":"no","recycling:cans":"no","recycling:cardboard":"no","recycling:cartons":"no","recycling:clothes":"no","recycling:electrical_appliances":"no","recycling:glass":"no","recycling:glass_bottles":"yes","recycling:green_waste":"no","recycling:magazines":"no","recycling:newspaper":"no","recycling:paper":"no","recycling:paper_packaging":"no","recycling:plastic":"no","recycling:plastic_bottles":"no","recycling:plastic_packaging":"no","recycling:scrap_metal":"no","recycling:small_appliances":"no","recycling:waste":"no","recycling:wood":"no","recycling_type":"container"}},"type":"Feature"},
	{"geometry":{"coordinates":[5.170742,52.029391],"type":"Point"},"properties":{"osm_id":"2007272521","tag":{"amenity":"waste_basket"}},"type":"Feature"},
	{"geometry":{"coordinates":[5.126053,52.032633],"type":"Point"},"properties":{"osm_id":"2017121936","tag":{"amenity":"recycling","recycling:glass":"yes","recycling:plastic_packaging":"yes","recycling:waste":"yes","recycling_type":"container"}},"type":"Feature"},
	{"geometry":{"coordinates":[5.183935,52.028602],"type":"Point"},"properties":{"osm_id":"2018459879","tag":{"amenity":"waste_basket"}},"type":"Feature"},
	{"geometry":{"coordinates":[5.182634,52.032502],"type":"Point"},"properties":{"osm_id":"2018571302","tag":{"amenity":"waste_basket"}},"type":"Feature"},
	{"geometry":{"coordinates":[5.179659,52.033118],"type":"Point"},"properties":{"osm_id":"2018571312","tag":{"amenity":"waste_basket"}},"type":"Feature"},
	{"geometry":{"coordinates":[5.169125,52.025234],"type":"Point"},"properties":{"osm_id":"2021477057","tag":{"amenity":"waste_basket"}},"type":"Feature"},
	{"geometry":{"coordinates":[5.161922,52.03648],"type":"Point"},"properties":{"osm_id":"2021543592","tag":{"amenity":"recycling","recycling:glass":"yes","recycling_type":"container"}},"type":"Feature"},
	{"geometry":{"coordinates":[5.163805,52.038568],"type":"Point"},"properties":{"osm_id":"2021611224","tag":{"amenity":"waste_basket"}},"type":"Feature"},
	{"geometry":{"coordinates":[5.177509,52.03924],"type":"Point"},"properties":{"osm_id":"2034637513","tag":{"amenity":"waste_basket"}},"type":"Feature"},
	{"geometry":{"coordinates":[5.177886,52.040885],"type":"Point"},"properties":{"osm_id":"2034637533","tag":{"amenity":"waste_basket"}},"type":"Feature"},
	{"geometry":{"coordinates":[5.181122,52.039307],"type":"Point"},"properties":{"osm_id":"2041809044","tag":{"amenity":"waste_basket"}},"type":"Feature"},
	{"geometry":{"coordinates":[5.184048,52.041028],"type":"Point"},"properties":{"osm_id":"2041809047","tag":{"amenity":"waste_basket"}},"type":"Feature"},
	{"geometry":{"coordinates":[5.167244,52.034235],"type":"Point"},"properties":{"osm_id":"2088392577","tag":{"amenity":"waste_basket"}},"type":"Feature"},
	{"geometry":{"coordinates":[5.167476,52.034445],"type":"Point"},"properties":{"osm_id":"2088392579","tag":{"amenity":"waste_basket"}},"type":"Feature"},
	{"geometry":{"coordinates":[5.168564,52.034578],"type":"Point"},"properties":{"osm_id":"2088392583","tag":{"amenity":"waste_basket"}},"type":"Feature"},
	{"geometry":{"coordinates":[5.16813,52.034617],"type":"Point"},"properties":{"osm_id":"2088392588","tag":{"amenity":"waste_basket"}},"type":"Feature"},
	{"geometry":{"coordinates":[5.163382,52.034371],"type":"Point"},"properties":{"osm_id":"2088577963","tag":{"amenity":"waste_basket"}},"type":"Feature"},
	{"geometry":{"coordinates":[5.16017,52.033346],"type":"Point"},"properties":{"osm_id":"2088688866","tag":{"amenity":"waste_basket"}},"type":"Feature"},
	{"geometry":{"coordinates":[5.159353,52.034751],"type":"Point"},"properties":{"osm_id":"2088688878","tag":{"amenity":"waste_basket"}},"type":"Feature"},
	{"geometry":{"coordinates":[5.160959,52.035173],"type":"Point"},"properties":{"osm_id":"2088688883","tag":{"amenity":"waste_basket"}},"type":"Feature"},
	{"geometry":{"coordinates":[5.162361,52.033795],"type":"Point"},"properties":{"osm_id":"2091061316","tag":{"amenity":"waste_basket"}},"type":"Feature"},
	{"geometry":{"coordinates":[5.160744,52.036675],"type":"Point"},"properties":{"osm_id":"2091431454","tag":{"amenity":"waste_basket"}},"type":"Feature"},
	{"geometry":{"coordinates":[5.160557,52.037096],"type":"Point"},"properties":{"osm_id":"2091431537","tag":{"amenity":"waste_basket"}},"type":"Feature"},
	{"geometry":{"coordinates":[5.161119,52.037354],"type":"Point"},"properties":{"osm_id":"2091431695","tag":{"amenity":"waste_basket"}},"type":"Feature"},
	{"geometry":{"coordinates":[5.170281,52.017199],"type":"Point"},"properties":{"osm_id":"2091503764","tag":{"amenity":"waste_basket"}},"type":"Feature"},
	{"geometry":{"coordinates":[5.156744,52.032822],"type":"Point"},"properties":{"osm_id":"2095345029","tag":{"amenity":"waste_basket"}},"type":"Feature"},
	{"geometry":{"coordinates":[5.155443,52.033993],"type":"Point"},"properties":{"osm_id":"2095422232","tag":{"amenity":"waste_basket"}},"type":"Feature"},
	{"geometry":{"coordinates":[5.15506,52.034966],"type":"Point"},"properties":{"osm_id":"2095422236","tag":{"amenity":"waste_basket"}},"type":"Feature"},
	{"geometry":{"coordinates":[5.152704,52.036988],"type":"Point"},"properties":{"osm_id":"2095422284","tag":{"amenity":"waste_basket"}},"type":"Feature"},
	{"geometry":{"coordinates":[5.157271,52.03724],"type":"Point"},"properties":{"osm_id":"2095422292","tag":{"amenity":"waste_basket"}},"type":"Feature"},
	{"geometry":{"coordinates":[5.151145,52.035051],"type":"Point"},"properties":{"osm_id":"2098935294","tag":{"amenity":"recycling","recycling:clothes":"yes","recycling_type":"container"}},"type":"Feature"},
	{"geometry":{"coordinates":[5.148634,52.035138],"type":"Point"},"properties":{"osm_id":"2098935325","tag":{"amenity":"waste_basket"}},"type":"Feature"},
	{"geometry":{"coordinates":[5.151129,52.035203],"type":"Point"},"properties":{"osm_id":"2098935356","tag":{"amenity":"waste_basket"}},"type":"Feature"},
	{"geometry":{"coordinates":[5.151071,52.035229],"type":"Point"},"properties":{"osm_id":"2098935358","tag":{"amenity":"recycling","recycling:glass_bottles":"yes","recycling_type":"container"}},"type":"Feature"},
	{"geometry":{"coordinates":[5.147625,52.036584],"type":"Point"},"properties":{"osm_id":"2098935410","tag":{"amenity":"waste_basket"}},"type":"Feature"},
	{"geometry":{"coordinates":[5.140883,52.03685],"type":"Point"},"properties":{"osm_id":"2099020098","tag":{"amenity":"waste_basket"}},"type":"Feature"},
	{"geometry":{"coordinates":[5.143456,52.037457],"type":"Point"},"properties":{"osm_id":"2099020108","tag":{"amenity":"waste_basket"}},"type":"Feature"},
	{"geometry":{"coordinates":[5.145881,52.038061],"type":"Point"},"properties":{"osm_id":"2099020114","tag":{"amenity":"waste_basket"}},"type":"Feature"},
	{"geometry":{"coordinates":[5.147053,52.038361],"type":"Point"},"properties":{"osm_id":"2099020116","tag":{"amenity":"waste_basket"}},"type":"Feature"},
	{"geometry":{"coordinates":[5.141185,52.029942],"type":"Point"},"properties":{"osm_id":"2099062798","tag":{"amenity":"waste_basket"}},"type":"Feature"},
	{"geometry":{"coordinates":[5.141201,52.030013],"type":"Point"},"properties":{"osm_id":"2099062799","tag":{"amenity":"waste_basket"}},"type":"Feature"},
	{"geometry":{"coordinates":[5.142679,52.033681],"type":"Point"},"properties":{"osm_id":"2099062848","tag":{"amenity":"waste_basket"}},"type":"Feature"},
	{"geometry":{"coordinates":[5.142631,52.033732],"type":"Point"},"properties":{"osm_id":"2099062849","tag":{"amenity":"waste_basket"}},"type":"Feature"},
	{"geometry":{"coordinates":[5.144006,52.028891],"type":"Point"},"properties":{"osm_id":"2106337721","tag":{"amenity":"waste_basket"}},"type":"Feature"},
	{"geometry":{"coordinates":[5.145368,52.029871],"type":"Point"},"properties":{"osm_id":"2106337731","tag":{"amenity":"waste_basket"}},"type":"Feature"},
	{"geometry":{"coordinates":[5.146569,52.03068],"type":"Point"},"properties":{"osm_id":"2106337754","tag":{"amenity":"waste_basket"}},"type":"Feature"},
	{"geometry":{"coordinates":[5.142998,52.028126],"type":"Point"},"properties":{"osm_id":"2106552861","tag":{"amenity":"waste_basket"}},"type":"Feature"},
	{"geometry":{"coordinates":[5.142495,52.028347],"type":"Point"},"properties":{"osm_id":"2106552879","tag":{"amenity":"waste_basket"}},"type":"Feature"},
	{"geometry":{"coordinates":[5.154214,52.0267],"type":"Point"},"properties":{"osm_id":"2109023373","tag":{"amenity":"waste_basket"}},"type":"Feature"},
	{"geometry":{"coordinates":[5.148377,52.029681],"type":"Point"},"properties":{"osm_id":"2109023424","tag":{"amenity":"waste_basket"}},"type":"Feature"},
	{"geometry":{"coordinates":[5.148392,52.02971],"type":"Point"},"properties":{"osm_id":"2109023425","tag":{"amenity":"recycling","recycling:glass":"yes","recycling_type":"container"}},"type":"Feature"},
	{"geometry":{"coordinates":[5.164734,52.018907],"type":"Point"},"properties":{"osm_id":"2109381252","tag":{"amenity":"waste_basket"}},"type":"Feature"},
	{"geometry":{"coordinates":[5.148824,52.03141],"type":"Point"},"properties":{"osm_id":"2139832417","tag":{"amenity":"waste_basket"}},"type":"Feature"},
	{"geometry":{"coordinates":[5.146184,52.031597],"type":"Point"},"properties":{"osm_id":"2139832431","tag":{"amenity":"waste_basket"}},"type":"Feature"},
	{"geometry":{"coordinates":[5.152526,52.032263],"type":"Point"},"properties":{"osm_id":"2139832462","tag":{"amenity":"waste_basket"}},"type":"Feature"},
	{"geometry":{"coordinates":[5.145596,52.035039],"type":"Point"},"properties":{"osm_id":"2139873431","tag":{"amenity":"waste_basket"}},"type":"Feature"},
	{"geometry":{"coordinates":[5.098957,52.021545],"type":"Point"},"properties":{"name":"Gemeentewerf Nieuwegein","osm_id":"2232509153","tag":{"amenity":"recycling","recycling_type":"centre"}},"type":"Feature"},
	{"geometry":{"coordinates":[5.181653,52.028756],"type":"Point"},"properties":{"osm_id":"2290945023","tag":{"amenity":"recycling","recycling:glass_bottles":"yes","recycling_type":"container"}},"type":"Feature"},
	{"geometry":{"coordinates":[5.18067,52.035652],"type":"Point"},"properties":{"osm_id":"2290945075","tag":{"amenity":"waste_basket"}},"type":"Feature"},
	{"geometry":{"coordinates":[5.178652,52.03623],"type":"Point"},"properties":{"osm_id":"2290945093","tag":{"amenity":"waste_basket"}},"type":"Feature"},
	{"geometry":{"coordinates":[5.175651,52.036837],"type":"Point"},"properties":{"osm_id":"2290945113","tag":{"amenity":"waste_basket"}},"type":"Feature"},
	{"geometry":{"coordinates":[5.176139,52.037382],"type":"Point"},"properties":{"osm_id":"2290945118","tag":{"amenity":"waste_basket"}},"type":"Feature"},
	{"geometry":{"coordinates":[5.17919,52.038511],"type":"Point"},"properties":{"osm_id":"2290945146","tag":{"amenity":"waste_basket"}},"type":"Feature"},
	{"geometry":{"coordinates":[5.181795,52.03969],"type":"Point"},"properties":{"osm_id":"2290945162","tag":{"amenity":"waste_basket"}},"type":"Feature"},
	{"geometry":{"coordinates":[5.180621,52.039944],"type":"Point"},"properties":{"osm_id":"2290945164","tag":{"amenity":"waste_basket"}},"type":"Feature"},
	{"geometry":{"coordinates":[5.182712,52.040297],"type":"Point"},"properties":{"osm_id":"2290945166","tag":{"amenity":"waste_basket"}},"type":"Feature"},
	{"geometry":{"coordinates":[5.183568,52.040546],"type":"Point"},"properties":{"osm_id":"2290945168","tag":{"amenity":"waste_basket"}},"type":"Feature"},
	{"geometry":{"coordinates":[5.179562,52.017106],"type":"Point"},"properties":{"osm_id":"2291677267","tag":{"amenity":"waste_basket"}},"type":"Feature"},
	{"geometry":{"coordinates":[5.18151,52.019469],"type":"Point"},"properties":{"osm_id":"2291677299","tag":{"amenity":"waste_basket"}},"type":"Feature"},
	{"geometry":{"coordinates":[5.184873,52.020823],"type":"Point"},"properties":{"osm_id":"2291677326","tag":{"amenity":"waste_basket"}},"type":"Feature"},
	{"geometry":{"coordinates":[5.183784,52.021021],"type":"Point"},"properties":{"osm_id":"2291677332","tag":{"amenity":"waste_basket"}},"type":"Feature"},
	{"geometry":{"coordinates":[5.184292,52.0211],"type":"Point"},"properties":{"osm_id":"2291677338","tag":{"amenity":"waste_basket"}},"type":"Feature"},
	{"geometry":{"coordinates":[5.184233,52.02554],"type":"Point"},"properties":{"osm_id":"2291677385","tag":{"amenity":"waste_basket"}},"type":"Feature"},
	{"geometry":{"coordinates":[5.177507,52.009599],"type":"Point"},"properties":{"osm_id":"2305715724","tag":{"amenity":"waste_basket"}},"type":"Feature"},
	{"geometry":{"coordinates":[5.179284,52.010128],"type":"Point"},"properties":{"osm_id":"2305715731","tag":{"amenity":"waste_basket"}},"type":"Feature"},
	{"geometry":{"coordinates":[5.181936,52.010734],"type":"Point"},"properties":{"osm_id":"2305715747","tag":{"amenity":"waste_basket"}},"type":"Feature"},
	{"geometry":{"coordinates":[5.176154,52.013869],"type":"Point"},"properties":{"osm_id":"2305715901","tag":{"amenity":"waste_basket"}},"type":"Feature"},
	{"geometry":{"coordinates":[5.152285,52.028677],"type":"Point"},"properties":{"osm_id":"2310461615","tag":{"amenity":"waste_basket"}},"type":"Feature"},
	{"geometry":{"coordinates":[5.163405,52.027076],"type":"Point"},"properties":{"osm_id":"2311185579","tag":{"amenity":"waste_basket"}},"type":"Feature"},
	{"geometry":{"coordinates":[5.157532,52.029193],"type":"Point"},"properties":{"osm_id":"2311185590","tag":{"amenity":"waste_basket"}},"type":"Feature"},
	{"geometry":{"coordinates":[5.151528,52.031857],"type":"Point"},"properties":{"osm_id":"2311185604","tag":{"amenity":"waste_basket"}},"type":"Feature"},
	{"geometry":{"coordinates":[5.147531,52.031896],"type":"Point"},"properties":{"osm_id":"2311185608","tag":{"amenity":"waste_basket"}},"type":"Feature"},
	{"geometry":{"coordinates":[5.15358,52.03201],"type":"Point"},"properties":{"osm_id":"2311185609","tag":{"amenity":"waste_basket"}},"type":"Feature"},
	{"geometry":{"coordinates":[5.154379,52.032189],"type":"Point"},"properties":{"osm_id":"2311185611","tag":{"amenity":"waste_basket"}},"type":"Feature"},
	{"geometry":{"coordinates":[5.150202,52.032527],"type":"Point"},"properties":{"osm_id":"2311185612","tag":{"amenity":"waste_basket"}},"type":"Feature"},
	{"geometry":{"coordinates":[5.150251,52.032527],"type":"Point"},"properties":{"osm_id":"2311185613","tag":{"amenity":"recycling","recycling:glass":"yes","recycling_type":"container"}},"type":"Feature"},
	{"geometry":{"coordinates":[5.16324,52.033541],"type":"Point"},"properties":{"osm_id":"2311185615","tag":{"amenity":"waste_basket"}},"type":"Feature"},
	{"geometry":{"coordinates":[5.163998,52.033782],"type":"Point"},"properties":{"osm_id":"2311185619","tag":{"amenity":"waste_basket"}},"type":"Feature"},
	{"geometry":{"coordinates":[5.185111,52.012006],"type":"Point"},"properties":{"osm_id":"2311729057","tag":{"amenity":"waste_basket"}},"type":"Feature"},
	{"geometry":{"coordinates":[5.184699,52.013137],"type":"Point"},"properties":{"osm_id":"2311729079","tag":{"amenity":"waste_basket"}},"type":"Feature"},
	{"geometry":{"coordinates":[5.184223,52.014198],"type":"Point"},"properties":{"osm_id":"2311729110","tag":{"amenity":"waste_basket"}},"type":"Feature"},
	{"geometry":{"coordinates":[5.099164,52.005216],"type":"Point"},"properties":{"osm_id":"2579985043","tag":{"amenity":"waste_basket"}},"type":"Feature"},
	{"geometry":{"coordinates":[5.099811,52.005632],"type":"Point"},"properties":{"osm_id":"2579985048","tag":{"amenity":"waste_basket"}},"type":"Feature"},
	{"geometry":{"coordinates":[5.099852,52.005979],"type":"Point"},"properties":{"osm_id":"2579985052","tag":{"amenity":"waste_basket"}},"type":"Feature"},
	{"geometry":{"coordinates":[5.098788,52.006174],"type":"Point"},"properties":{"osm_id":"2579985055","tag":{"amenity":"waste_basket"}},"type":"Feature"},
	{"geometry":{"coordinates":[5.110286,52.037405],"type":"Point"},"properties":{"osm_id":"2634464876","tag":{"amenity":"waste_basket"}},"type":"Feature"},
	{"geometry":{"coordinates":[5.109829,52.038405],"type":"Point"},"properties":{"osm_id":"2634464877","tag":{"amenity":"waste_basket"}},"type":"Feature"},
	{"geometry":{"coordinates":[5.1094,52.039322],"type":"Point"},"properties":{"osm_id":"2634464879","tag":{"amenity":"waste_basket"}},"type":"Feature"},
	{"geometry":{"coordinates":[5.10858,52.041063],"type":"Point"},"properties":{"osm_id":"2634464881","tag":{"amenity":"waste_basket"}},"type":"Feature"},
	{"geometry":{"coordinates":[5.1073,52.043846],"type":"Point"},"properties":{"osm_id":"2634464884","tag":{"amenity":"waste_basket"}},"type":"Feature"},
	{"geometry":{"coordinates":[5.106565,52.045299],"type":"Point"},"properties":{"osm_id":"2634464889","tag":{"amenity":"waste_basket"}},"type":"Feature"},
	{"geometry":{"coordinates":[5.160723,52.029737],"type":"Point"},"properties":{"osm_id":"2837619819","tag":{"amenity":"waste_basket"}},"type":"Feature"},
	{"geometry":{"coordinates":[5.108416,52.012986],"type":"Point"},"properties":{"osm_id":"2944731302","tag":{"amenity":"waste_basket"}},"type":"Feature"},
	{"geometry":{"coordinates":[5.097994,52.025309],"type":"Point"},"properties":{"osm_id":"3552105032","tag":{"amenity":"recycling","recycling:paper":"yes","recycling_type":"container","underground":"yes"}},"type":"Feature"},
	{"geometry":{"coordinates":[5.098033,52.025309],"type":"Point"},"properties":{"osm_id":"3552105033","tag":{"amenity":"recycling","recycling:cans":"yes","recycling:glass":"yes","recycling_type":"container","underground":"yes"}},"type":"Feature"},
	{"geometry":{"coordinates":[5.10293,52.005048],"type":"Point"},"properties":{"osm_id":"4344116608","tag":{"amenity":"waste_basket"}},"type":"Feature"},
	{"geometry":{"coordinates":[5.154765,52.005287],"type":"Point"},"properties":{"osm_id":"5682499196","tag":{"amenity":"waste_basket"}},"type":"Feature"},
	{"geometry":{"coordinates":[5.15506,52.005501],"type":"Point"},"properties":{"osm_id":"5682499197","tag":{"amenity":"waste_basket"}},"type":"Feature"},
	{"geometry":{"coordinates":[5.161876,52.002631],"type":"Point"},"properties":{"osm_id":"5682499198","tag":{"amenity":"waste_basket"}},"type":"Feature"},
	{"geometry":{"coordinates":[5.162925,52.002201],"type":"Point"},"properties":{"osm_id":"5682499200","tag":{"amenity":"waste_basket"}},"type":"Feature"},
	{"geometry":{"coordinates":[5.166196,52.034475],"type":"Point"},"properties":{"osm_id":"5812765200","tag":{"amenity":"waste_basket"}},"type":"Feature"},
	{"geometry":{"coordinates":[5.166035,52.034356],"type":"Point"},"properties":{"osm_id":"5812765201","tag":{"amenity":"recycling","recycling:glass_bottles":"yes","recycling_type":"container"}},"type":"Feature"},
	{"geometry":{"coordinates":[5.163072,52.036295],"type":"Point"},"properties":{"osm_id":"5812765204","tag":{"amenity":"waste_basket"}},"type":"Feature"},
	{"geometry":{"coordinates":[5.173108,52.029867],"type":"Point"},"properties":{"osm_id":"5910544990","tag":{"amenity":"recycling","recycling:waste":"yes","recycling_type":"container"}},"type":"Feature"},
	{"geometry":{"coordinates":[5.180838,52.037525],"type":"Point"},"properties":{"osm_id":"6312543407","tag":{"amenity":"waste_disposal"}},"type":"Feature"},
	{"geometry":{"coordinates":[5.114824,52.031435],"type":"Point"},"properties":{"osm_id":"6662829559","tag":{"amenity":"waste_basket","colour":"black","waste":"trash"}},"type":"Feature"},
	{"geometry":{"coordinates":[5.184783,52.012043],"type":"Point"},"properties":{"osm_id":"6776219707","tag":{"amenity":"recycling","recycling:clothes":"yes","recycling:glass_bottles":"yes","recycling:shoes":"yes","recycling_type":"container"}},"type":"Feature"},
	{"geometry":{"coordinates":[5.161759,52.027143],"type":"Point"},"properties":{"osm_id":"6920096021","tag":{"amenity":"recycling","recycling:glass":"yes","recycling_type":"underfloor-container"}},"type":"Feature"},
	{"geometry":{"coordinates":[5.157316,52.027918],"type":"Point"},"properties":{"osm_id":"6954549236","tag":{"amenity":"recycling","recycling:diapers":"yes","recycling_type":"container"}},"type":"Feature"},
	{"geometry":{"coordinates":[5.110768,52.022804],"type":"Point"},"properties":{"osm_id":"7421519805","tag":{"amenity":"waste_disposal","waste":"trash"}},"type":"Feature"}
]
}
