{
"type": "FeatureCollection",
"features": [
	{"geometry":{"coordinates":[5.146805,51.676603],"type":"Point"},"properties":{"name":"Milieustraat","osm_id":"1737221805","tag":{"amenity":"recycling","recycling_type":"centre"}},"type":"Feature"},
	{"geometry":{"coordinates":[5.1176,51.685625],"type":"Point"},"properties":{"osm_id":"2134259261","tag":{"amenity":"waste_disposal"}},"type":"Feature"},
	{"geometry":{"coordinates":[5.118575,51.685832],"type":"Point"},"properties":{"osm_id":"2134259262","tag":{"amenity":"waste_disposal"}},"type":"Feature"},
	{"geometry":{"coordinates":[5.119315,51.685987],"type":"Point"},"properties":{"osm_id":"2134259263","tag":{"amenity":"waste_disposal"}},"type":"Feature"},
	{"geometry":{"coordinates":[5.101004,51.68926],"type":"Point"},"properties":{"osm_id":"2531461055","tag":{"amenity":"waste_basket"}},"type":"Feature"},
	{"geometry":{"coordinates":[5.101451,51.68941],"type":"Point"},"properties":{"osm_id":"2531461063","tag":{"amenity":"waste_basket"}},"type":"Feature"},
	{"geometry":{"coordinates":[5.163537,51.697072],"type":"Point"},"properties":{"osm_id":"3977225877","tag":{"amenity":"waste_basket"}},"type":"Feature"},
	{"geometry":{"coordinates":[5.18419,51.721543],"type":"Point"},"properties":{"osm_id":"4083483556","tag":{"amenity":"waste_basket"}},"type":"Feature"},
	{"geometry":{"coordinates":[5.12262,51.678642],"type":"Point"},"properties":{"osm_id":"5638399126","tag":{"amenity":"waste_basket"}},"type":"Feature"},
	{"geometry":{"coordinates":[5.135485,51.678785],"type":"Point"},"properties":{"osm_id":"7551816497","tag":{"amenity":"recycling","recycling:glass_bottles":"yes","recycling:waste":"yes","recycling_type":"underground"}},"type":"Feature"},
	{"geometry":{"coordinates":[5.140983,51.679097],"type":"Point"},"properties":{"osm_id":"7551816498","tag":{"amenity":"recycling","recycling:waste":"yes","recycling_type":"underground"}},"type":"Feature"},
	{"geometry":{"coordinates":[5.132047,51.678349],"type":"Point"},"properties":{"osm_id":"7551816499","tag":{"amenity":"recycling","recycling:waste":"yes","recycling_type":"underground"}},"type":"Feature"},
	{"geometry":{"coordinates":[5.129101,51.679506],"type":"Point"},"properties":{"osm_id":"7551816500","tag":{"amenity":"recycling","recycling:waste":"yes","recycling_type":"underground"}},"type":"Feature"},
	{"geometry":{"coordinates":[5.121397,51.67894],"type":"Point"},"properties":{"osm_id":"7551816501","tag":{"amenity":"recycling","recycling:waste":"yes","recycling_type":"underground"}},"type":"Feature"},
	{"geometry":{"coordinates":[5.119379,51.682184],"type":"Point"},"properties":{"osm_id":"7551816502","tag":{"amenity":"recycling","recycling:waste":"yes","recycling_type":"underground"}},"type":"Feature"},
	{"geometry":{"coordinates":[5.125765,51.680229],"type":"Point"},"properties":{"osm_id":"7551816503","tag":{"amenity":"recycling","recycling:waste":"yes","recycling_type":"underground"}},"type":"Feature"},
	{"geometry":{"coordinates":[5.129692,51.682272],"type":"Point"},"properties":{"osm_id":"7551816504","tag":{"amenity":"recycling","recycling:waste":"yes","recycling_type":"container"}},"type":"Feature"},
	{"geometry":{"coordinates":[5.124588,51.684243],"type":"Point"},"properties":{"osm_id":"7551816505","tag":{"amenity":"recycling","recycling:waste":"yes","recycling_type":"underground"}},"type":"Feature"},
	{"geometry":{"coordinates":[5.128077,51.685128],"type":"Point"},"properties":{"osm_id":"7551816506","tag":{"amenity":"recycling","recycling:waste":"yes","recycling_type":"underground"}},"type":"Feature"},
	{"geometry":{"coordinates":[5.121551,51.686366],"type":"Point"},"properties":{"osm_id":"7551816507","tag":{"amenity":"recycling","recycling:waste":"yes","recycling_type":"underground"}},"type":"Feature"},
	{"geometry":{"coordinates":[5.119248,51.685977],"type":"Point"},"properties":{"osm_id":"7551816508","tag":{"amenity":"recycling","recycling:waste":"yes","recycling_type":"underground"}},"type":"Feature"},
	{"geometry":{"coordinates":[5.118033,51.689322],"type":"Point"},"properties":{"osm_id":"7551816509","tag":{"amenity":"recycling","recycling:waste":"yes","recycling_type":"underground"}},"type":"Feature"},
	{"geometry":{"coordinates":[5.121547,51.690415],"type":"Point"},"properties":{"osm_id":"7551816510","tag":{"amenity":"recycling","recycling:waste":"yes","recycling_type":"underground"}},"type":"Feature"},
	{"geometry":{"coordinates":[5.124989,51.690096],"type":"Point"},"properties":{"osm_id":"7551816511","tag":{"amenity":"recycling","recycling:waste":"yes","recycling_type":"underground"}},"type":"Feature"},
	{"geometry":{"coordinates":[5.128863,51.690716],"type":"Point"},"properties":{"osm_id":"7551816512","tag":{"amenity":"recycling","recycling:waste":"yes","recycling_type":"underground"}},"type":"Feature"},
	{"geometry":{"coordinates":[5.133177,51.690432],"type":"Point"},"properties":{"osm_id":"7551816513","tag":{"amenity":"recycling","recycling:waste":"yes","recycling_type":"underground"}},"type":"Feature"},
	{"geometry":{"coordinates":[5.131883,51.693117],"type":"Point"},"properties":{"osm_id":"7551816514","tag":{"amenity":"recycling","recycling:waste":"yes","recycling_type":"underground"}},"type":"Feature"},
	{"geometry":{"coordinates":[5.136098,51.692688],"type":"Point"},"properties":{"osm_id":"7551816515","tag":{"amenity":"recycling","recycling:waste":"yes","recycling_type":"underground"}},"type":"Feature"},
	{"geometry":{"coordinates":[5.138487,51.690484],"type":"Point"},"properties":{"osm_id":"7551816516","tag":{"amenity":"recycling","recycling:waste":"yes","recycling_type":"underground"}},"type":"Feature"},
	{"geometry":{"coordinates":[5.141389,51.689447],"type":"Point"},"properties":{"osm_id":"7551816517","tag":{"amenity":"recycling","recycling:waste":"yes","recycling_type":"underground"}},"type":"Feature"},
	{"geometry":{"coordinates":[5.135028,51.687438],"type":"Point"},"properties":{"osm_id":"7551816518","tag":{"amenity":"recycling","recycling:waste":"yes","recycling_type":"underground"}},"type":"Feature"},
	{"geometry":{"coordinates":[5.13981,51.685348],"type":"Point"},"properties":{"osm_id":"7551816519","tag":{"amenity":"recycling","recycling:waste":"yes","recycling_type":"underground"}},"type":"Feature"},
	{"geometry":{"coordinates":[5.139477,51.68241],"type":"Point"},"properties":{"osm_id":"7551816520","tag":{"amenity":"recycling","recycling:waste":"yes","recycling_type":"underground"}},"type":"Feature"},
	{"geometry":{"coordinates":[5.135185,51.6814],"type":"Point"},"properties":{"osm_id":"7551816521","tag":{"amenity":"recycling","recycling:waste":"yes","recycling_type":"underground"}},"type":"Feature"},
	{"geometry":{"coordinates":[5.136082,51.683107],"type":"Point"},"properties":{"osm_id":"7551816522","tag":{"amenity":"recycling","recycling:waste":"yes","recycling_type":"underground"}},"type":"Feature"},
	{"geometry":{"coordinates":[5.132413,51.685194],"type":"Point"},"properties":{"osm_id":"7551816523","tag":{"amenity":"recycling","recycling:glass":"yes","recycling:waste":"yes","recycling_type":"underground"}},"type":"Feature"},
	{"geometry":{"coordinates":[5.144368,51.683175],"type":"Point"},"properties":{"osm_id":"7551816524","tag":{"amenity":"recycling","recycling:waste":"yes","recycling_type":"underground"}},"type":"Feature"},
	{"geometry":{"coordinates":[5.143428,51.680956],"type":"Point"},"properties":{"osm_id":"7551816525","tag":{"amenity":"recycling","recycling:waste":"yes","recycling_type":"underground"}},"type":"Feature"}
]
}
