{
"type": "FeatureCollection",
"features": [
	{"geometry":{"coordinates":[5.158849,51.362731],"type":"Point"},"properties":{"osm_id":"4282805590","tag":{"amenity":"recycling","opening_hours":"Mo-We 08:00-20:00; Th-Fr 08:00-21:00; Sa 08:00-20:00; Su 10:00-18:00","recycling:clothes":"yes","recycling:cooking_oil":"yes","recycling:glass_bottles":"yes","recycling_type":"container"}},"type":"Feature"},
	{"geometry":{"coordinates":[5.165763,51.361232],"type":"Point"},"properties":{"osm_id":"4298945591","tag":{"amenity":"recycling","opening_hours":"24/7","recycling:clothes":"yes","recycling:glass_bottles":"yes","recycling_type":"container"}},"type":"Feature"},
	{"geometry":{"coordinates":[5.102737,51.380792],"type":"Point"},"properties":{"osm_id":"6306236474","tag":{"amenity":"waste_basket"}},"type":"Feature"},
	{"geometry":{"coordinates":[5.128878,51.38705],"type":"Point"},"properties":{"osm_id":"6306237293","tag":{"amenity":"waste_basket"}},"type":"Feature"},
	{"geometry":{"coordinates":[5.100565,51.373363],"type":"Point"},"properties":{"osm_id":"6306239159","tag":{"amenity":"waste_basket"}},"type":"Feature"},
	{"geometry":{"coordinates":[5.180393,51.389425],"type":"Point"},"properties":{"osm_id":"6354807503","tag":{"amenity":"waste_basket"}},"type":"Feature"},
	{"geometry":{"coordinates":[5.112454,51.36665],"type":"Point"},"properties":{"osm_id":"6416411393","tag":{"amenity":"waste_basket"}},"type":"Feature"},
	{"geometry":{"coordinates":[5.156508,51.395654],"type":"Point"},"properties":{"osm_id":"6739904215","tag":{"amenity":"waste_basket"}},"type":"Feature"},
	{"geometry":{"coordinates":[5.179217,51.387731],"type":"Point"},"properties":{"osm_id":"6746899921","tag":{"amenity":"waste_basket"}},"type":"Feature"},
	{"geometry":{"coordinates":[5.157992,51.355437],"type":"Point"},"properties":{"osm_id":"7932230444","tag":{"amenity":"waste_basket"}},"type":"Feature"}
]
}
