{
"type": "FeatureCollection",
"features": [
	{"geometry":{"coordinates":[5.112695,51.239495],"type":"Point"},"properties":{"osm_id":"2057561735","tag":{"amenity":"waste_basket"}},"type":"Feature"},
	{"geometry":{"coordinates":[5.113031,51.239668],"type":"Point"},"properties":{"osm_id":"2057561749","tag":{"amenity":"waste_basket"}},"type":"Feature"},
	{"geometry":{"coordinates":[5.138546,51.240357],"type":"Point"},"properties":{"osm_id":"2157734729","tag":{"amenity":"waste_basket"}},"type":"Feature"},
	{"geometry":{"coordinates":[5.139518,51.240486],"type":"Point"},"properties":{"osm_id":"2157734730","tag":{"amenity":"waste_basket"}},"type":"Feature"},
	{"geometry":{"coordinates":[5.154785,51.258753],"type":"Point"},"properties":{"osm_id":"3138629003","tag":{"amenity":"waste_basket"}},"type":"Feature"},
	{"geometry":{"coordinates":[5.153507,51.262503],"type":"Point"},"properties":{"osm_id":"3138629004","tag":{"amenity":"waste_basket"}},"type":"Feature"},
	{"geometry":{"coordinates":[5.134842,51.256042],"type":"Point"},"properties":{"osm_id":"3182599630","tag":{"amenity":"waste_basket"}},"type":"Feature"},
	{"geometry":{"coordinates":[5.140201,51.260955],"type":"Point"},"properties":{"osm_id":"3182599650","tag":{"amenity":"waste_basket"}},"type":"Feature"},
	{"geometry":{"coordinates":[5.140414,51.262347],"type":"Point"},"properties":{"osm_id":"3182599671","tag":{"amenity":"waste_basket"}},"type":"Feature"},
	{"geometry":{"coordinates":[5.140376,51.26264],"type":"Point"},"properties":{"osm_id":"3182599677","tag":{"amenity":"waste_basket"}},"type":"Feature"},
	{"geometry":{"coordinates":[5.153302,51.267659],"type":"Point"},"properties":{"osm_id":"3193450383","tag":{"amenity":"waste_basket"}},"type":"Feature"},
	{"geometry":{"coordinates":[5.153379,51.267728],"type":"Point"},"properties":{"osm_id":"3193450387","tag":{"amenity":"waste_basket"}},"type":"Feature"},
	{"geometry":{"coordinates":[5.153918,51.26778],"type":"Point"},"properties":{"osm_id":"3193450390","tag":{"amenity":"waste_basket"}},"type":"Feature"},
	{"geometry":{"coordinates":[5.161286,51.249939],"type":"Point"},"properties":{"osm_id":"3195430122","tag":{"amenity":"waste_basket"}},"type":"Feature"},
	{"geometry":{"coordinates":[5.165509,51.25066],"type":"Point"},"properties":{"osm_id":"3195430130","tag":{"amenity":"waste_basket"}},"type":"Feature"},
	{"geometry":{"coordinates":[5.164525,51.254769],"type":"Point"},"properties":{"osm_id":"3195430143","tag":{"amenity":"waste_basket"}},"type":"Feature"},
	{"geometry":{"coordinates":[5.157182,51.268161],"type":"Point"},"properties":{"osm_id":"3195430464","tag":{"amenity":"waste_basket"}},"type":"Feature"},
	{"geometry":{"coordinates":[5.15878,51.240878],"type":"Point"},"properties":{"osm_id":"3196871218","tag":{"amenity":"waste_basket"}},"type":"Feature"},
	{"geometry":{"coordinates":[5.158775,51.240975],"type":"Point"},"properties":{"osm_id":"3196871226","tag":{"amenity":"waste_basket"}},"type":"Feature"},
	{"geometry":{"coordinates":[5.16597,51.241619],"type":"Point"},"properties":{"osm_id":"3196871253","tag":{"amenity":"waste_basket"}},"type":"Feature"},
	{"geometry":{"coordinates":[5.164611,51.24467],"type":"Point"},"properties":{"osm_id":"3196871684","tag":{"amenity":"waste_basket"}},"type":"Feature"},
	{"geometry":{"coordinates":[5.161452,51.242932],"type":"Point"},"properties":{"osm_id":"3204450497","tag":{"amenity":"waste_basket"}},"type":"Feature"},
	{"geometry":{"coordinates":[5.156942,51.251193],"type":"Point"},"properties":{"osm_id":"3204450506","tag":{"amenity":"waste_basket"}},"type":"Feature"},
	{"geometry":{"coordinates":[5.141638,51.256274],"type":"Point"},"properties":{"osm_id":"3204450537","tag":{"amenity":"waste_basket"}},"type":"Feature"},
	{"geometry":{"coordinates":[5.135488,51.256293],"type":"Point"},"properties":{"osm_id":"3204450540","tag":{"amenity":"waste_basket"}},"type":"Feature"},
	{"geometry":{"coordinates":[5.131825,51.239707],"type":"Point"},"properties":{"osm_id":"4830672021","tag":{"amenity":"waste_basket"}},"type":"Feature"},
	{"geometry":{"coordinates":[5.128799,51.245953],"type":"Point"},"properties":{"osm_id":"4830672137","tag":{"amenity":"waste_basket"}},"type":"Feature"},
	{"geometry":{"coordinates":[5.152415,51.252926],"type":"Point"},"properties":{"osm_id":"4841488082","tag":{"amenity":"waste_basket"}},"type":"Feature"},
	{"geometry":{"coordinates":[5.099559,51.257798],"type":"Point"},"properties":{"osm_id":"4854084501","tag":{"amenity":"waste_basket"}},"type":"Feature"},
	{"geometry":{"coordinates":[5.139913,51.263743],"type":"Point"},"properties":{"osm_id":"4873985962","tag":{"amenity":"recycling","operator":"V.H.S. Europ","recycling:clothes":"yes","recycling_type":"container"}},"type":"Feature"},
	{"geometry":{"coordinates":[5.140193,51.263155],"type":"Point"},"properties":{"osm_id":"4873986015","tag":{"amenity":"waste_basket"}},"type":"Feature"},
	{"geometry":{"coordinates":[5.119331,51.269387],"type":"Point"},"properties":{"osm_id":"4883308677","tag":{"amenity":"recycling","operator":"OlioBox","recycling:oil":"yes","recycling_type":"container"}},"type":"Feature"},
	{"geometry":{"coordinates":[5.11964,51.269445],"type":"Point"},"properties":{"osm_id":"4883308681","tag":{"amenity":"waste_basket"}},"type":"Feature"},
	{"geometry":{"coordinates":[5.09792,51.258401],"type":"Point"},"properties":{"osm_id":"4883388546","tag":{"amenity":"waste_basket"}},"type":"Feature"},
	{"geometry":{"coordinates":[5.121323,51.25128],"type":"Point"},"properties":{"osm_id":"4891826998","tag":{"amenity":"waste_basket"}},"type":"Feature"},
	{"geometry":{"coordinates":[5.121856,51.251662],"type":"Point"},"properties":{"osm_id":"4899476635","tag":{"amenity":"waste_basket"}},"type":"Feature"},
	{"geometry":{"coordinates":[5.111571,51.238761],"type":"Point"},"properties":{"osm_id":"5240959145","tag":{"amenity":"recycling","recycling:clothes":"yes","recycling_type":"container"}},"type":"Feature"},
	{"geometry":{"coordinates":[5.113297,51.236231],"type":"Point"},"properties":{"osm_id":"5244165917","tag":{"amenity":"waste_basket"}},"type":"Feature"},
	{"geometry":{"coordinates":[5.110756,51.234906],"type":"Point"},"properties":{"osm_id":"5245630571","tag":{"amenity":"waste_basket"}},"type":"Feature"},
	{"geometry":{"coordinates":[5.113901,51.23976],"type":"Point"},"properties":{"osm_id":"5293617334","tag":{"amenity":"waste_basket"}},"type":"Feature"},
	{"geometry":{"coordinates":[5.113537,51.239551],"type":"Point"},"properties":{"osm_id":"5293617415","tag":{"amenity":"waste_basket"}},"type":"Feature"},
	{"geometry":{"coordinates":[5.113921,51.240612],"type":"Point"},"properties":{"osm_id":"5293617580","tag":{"amenity":"waste_basket"}},"type":"Feature"},
	{"geometry":{"coordinates":[5.113875,51.240283],"type":"Point"},"properties":{"osm_id":"5293617599","tag":{"amenity":"waste_basket"}},"type":"Feature"},
	{"geometry":{"coordinates":[5.114296,51.240592],"type":"Point"},"properties":{"osm_id":"5293617640","tag":{"amenity":"waste_basket"}},"type":"Feature"},
	{"geometry":{"coordinates":[5.112989,51.23985],"type":"Point"},"properties":{"osm_id":"5295567743","tag":{"amenity":"waste_basket"}},"type":"Feature"},
	{"geometry":{"coordinates":[5.113063,51.239416],"type":"Point"},"properties":{"osm_id":"5295567793","tag":{"amenity":"waste_basket"}},"type":"Feature"},
	{"geometry":{"coordinates":[5.150194,51.277267],"type":"Point"},"properties":{"osm_id":"5321906939","tag":{"access":"private","amenity":"waste_disposal","description":"Huisvuil Schipperij"}},"type":"Feature"},
	{"geometry":{"coordinates":[5.128426,51.263493],"type":"Point"},"properties":{"osm_id":"5389637388","tag":{"amenity":"waste_basket"}},"type":"Feature"},
	{"geometry":{"coordinates":[5.120833,51.275504],"type":"Point"},"properties":{"osm_id":"5392830313","tag":{"amenity":"waste_basket"}},"type":"Feature"},
	{"geometry":{"coordinates":[5.123403,51.273789],"type":"Point"},"properties":{"osm_id":"5392840552","tag":{"amenity":"waste_basket"}},"type":"Feature"},
	{"geometry":{"coordinates":[5.125877,51.270341],"type":"Point"},"properties":{"osm_id":"5392840576","tag":{"amenity":"waste_basket"}},"type":"Feature"},
	{"geometry":{"coordinates":[5.117812,51.280938],"type":"Point"},"properties":{"osm_id":"5398231753","tag":{"amenity":"waste_basket"}},"type":"Feature"},
	{"geometry":{"coordinates":[5.120659,51.286565],"type":"Point"},"properties":{"osm_id":"5401088782","tag":{"amenity":"waste_basket"}},"type":"Feature"},
	{"geometry":{"coordinates":[5.184427,51.237165],"type":"Point"},"properties":{"osm_id":"7001527146","tag":{"amenity":"waste_basket","colour":"gray","waste":"trash"}},"type":"Feature"}
]
}
