{
"type": "FeatureCollection",
"features": [
	{"geometry":{"coordinates":[5.110677,51.145399],"type":"Point"},"properties":{"osm_id":"3090569984","tag":{"amenity":"recycling","operator":"Vlaams Inzamel Centrum Textiel","recycling:clothes":"yes","recycling_type":"container"}},"type":"Feature"},
	{"geometry":{"coordinates":[5.178238,51.12936],"type":"Point"},"properties":{"osm_id":"4081698594","tag":{"amenity":"recycling","operator":"Wereld Missie Hulp","recycling:clothes":"yes","recycling_type":"container"}},"type":"Feature"},
	{"geometry":{"coordinates":[5.180561,51.136152],"type":"Point"},"properties":{"osm_id":"4180914753","ref":"05","tag":{"amenity":"waste_basket"}},"type":"Feature"},
	{"geometry":{"coordinates":[5.169476,51.126383],"type":"Point"},"properties":{"osm_id":"4204440443","tag":{"amenity":"recycling","operator":"Vlaams Inzamel Centrum Textiel","recycling:clothes":"yes","recycling_type":"container"}},"type":"Feature"},
	{"geometry":{"coordinates":[5.175211,51.153036],"type":"Point"},"properties":{"osm_id":"5119445821","tag":{"amenity":"waste_basket"}},"type":"Feature"},
	{"geometry":{"coordinates":[5.151424,51.141284],"type":"Point"},"properties":{"osm_id":"5128225965","tag":{"amenity":"recycling","recycling:clothes":"yes","recycling_type":"container"}},"type":"Feature"},
	{"geometry":{"coordinates":[5.154425,51.139233],"type":"Point"},"properties":{"osm_id":"5128226002","tag":{"amenity":"recycling","operator":"Salvatoriaanse Hulpactie & Ontwikkelingshulp","recycling:clothes":"yes","recycling_type":"container"}},"type":"Feature"}
]
}
