{
"type": "FeatureCollection",
"features": [
	{"geometry":{"coordinates":[5.114275,50.986414],"type":"Point"},"properties":{"osm_id":"1304095816","tag":{"amenity":"waste_basket"}},"type":"Feature"},
	{"geometry":{"coordinates":[5.131822,50.960942],"type":"Point"},"properties":{"osm_id":"2157444018","tag":{"amenity":"waste_basket"}},"type":"Feature"},
	{"geometry":{"coordinates":[5.145716,50.987873],"type":"Point"},"properties":{"osm_id":"2157578606","tag":{"amenity":"waste_basket"}},"type":"Feature"},
	{"geometry":{"coordinates":[5.137837,50.98777],"type":"Point"},"properties":{"osm_id":"2157624982","tag":{"amenity":"waste_basket"}},"type":"Feature"},
	{"geometry":{"coordinates":[5.136741,50.965524],"type":"Point"},"properties":{"name":"Textiel","osm_id":"2157878808","tag":{"amenity":"recycling","operator":"Salvatoriaanse Actie en Ontwikkelingshulp","recycling:clothes":"yes","recycling_type":"container"}},"type":"Feature"},
	{"geometry":{"coordinates":[5.137426,50.965675],"type":"Point"},"properties":{"osm_id":"2157878812","tag":{"amenity":"waste_basket"}},"type":"Feature"},
	{"geometry":{"coordinates":[5.137554,50.965989],"type":"Point"},"properties":{"osm_id":"2157878834","tag":{"amenity":"waste_basket"}},"type":"Feature"},
	{"geometry":{"coordinates":[5.132771,50.958474],"type":"Point"},"properties":{"osm_id":"2504393793","tag":{"amenity":"waste_basket"}},"type":"Feature"},
	{"geometry":{"coordinates":[5.132235,50.958769],"type":"Point"},"properties":{"osm_id":"2504448143","tag":{"amenity":"waste_basket"}},"type":"Feature"},
	{"geometry":{"coordinates":[5.114423,50.986917],"type":"Point"},"properties":{"osm_id":"2627144749","tag":{"amenity":"waste_basket"}},"type":"Feature"},
	{"geometry":{"coordinates":[5.100575,50.978676],"type":"Point"},"properties":{"name":"Glas","osm_id":"4040004865","tag":{"amenity":"recycling","recycling:glass_bottles":"yes","recycling_type":"container"}},"type":"Feature"},
	{"geometry":{"coordinates":[5.100608,50.978689],"type":"Point"},"properties":{"name":"Glas","osm_id":"4040004867","tag":{"amenity":"recycling","recycling:glass_bottles":"yes","recycling_type":"container"}},"type":"Feature"},
	{"geometry":{"coordinates":[5.103977,50.979716],"type":"Point"},"properties":{"osm_id":"4040004883","tag":{"amenity":"recycling","operator":"Salvatorlaanse Hulpactie & Ontwikkelingshulp","recycling:clothes":"yes","recycling_type":"container"}},"type":"Feature"},
	{"geometry":{"coordinates":[5.103977,50.979724],"type":"Point"},"properties":{"osm_id":"4040004884","tag":{"amenity":"recycling","operator":"Salvatorlaanse Hulpactie & Ontwikkelingshulp","recycling:clothes":"yes","recycling_type":"container"}},"type":"Feature"},
	{"geometry":{"coordinates":[5.146241,50.963262],"type":"Point"},"properties":{"osm_id":"4420211573","tag":{"amenity":"waste_basket","colour":"orange"}},"type":"Feature"},
	{"geometry":{"coordinates":[5.14621,50.963665],"type":"Point"},"properties":{"osm_id":"4420214894","tag":{"amenity":"waste_basket"}},"type":"Feature"},
	{"geometry":{"coordinates":[5.146275,50.963827],"type":"Point"},"properties":{"osm_id":"4420214919","tag":{"amenity":"waste_basket","colour":"green"}},"type":"Feature"},
	{"geometry":{"coordinates":[5.145846,50.962729],"type":"Point"},"properties":{"osm_id":"4421857480","tag":{"amenity":"waste_basket"}},"type":"Feature"},
	{"geometry":{"coordinates":[5.163319,50.967071],"type":"Point"},"properties":{"osm_id":"4430567637","tag":{"amenity":"waste_basket"}},"type":"Feature"},
	{"geometry":{"coordinates":[5.16812,50.967317],"type":"Point"},"properties":{"osm_id":"4430567643","tag":{"amenity":"waste_basket"}},"type":"Feature"}
]
}
