{
"type": "FeatureCollection",
"features": [
	{"geometry":{"coordinates":[5.159959,50.947293],"type":"Point"},"properties":{"name":"Recyclagepark Herk-de-Stad","osm_id":"1016796411","tag":{"addr:city":"Herk-de-Stad","addr:housenumber":"1412","addr:postcode":"3540","addr:street":"Industrieweg","amenity":"recycling","recycling_type":"centre"}},"type":"Feature"},
	{"geometry":{"coordinates":[5.112388,50.944879],"type":"Point"},"properties":{"name":"Glas Containers","osm_id":"1990869125","tag":{"amenity":"recycling","recycling:glass_bottles":"yes","recycling_type":"container"}},"type":"Feature"},
	{"geometry":{"coordinates":[5.167307,50.93439],"type":"Point"},"properties":{"osm_id":"3837246540","tag":{"amenity":"waste_basket"}},"type":"Feature"},
	{"geometry":{"coordinates":[5.168498,50.941256],"type":"Point"},"properties":{"osm_id":"3837246556","tag":{"amenity":"waste_basket"}},"type":"Feature"},
	{"geometry":{"coordinates":[5.167733,50.934398],"type":"Point"},"properties":{"osm_id":"3837246581","tag":{"amenity":"waste_basket"}},"type":"Feature"},
	{"geometry":{"coordinates":[5.168114,50.93455],"type":"Point"},"properties":{"osm_id":"3837246582","tag":{"amenity":"waste_basket"}},"type":"Feature"},
	{"geometry":{"coordinates":[5.166875,50.934652],"type":"Point"},"properties":{"osm_id":"3837246584","tag":{"amenity":"waste_basket"}},"type":"Feature"},
	{"geometry":{"coordinates":[5.168045,50.934813],"type":"Point"},"properties":{"osm_id":"3837246585","tag":{"amenity":"waste_basket"}},"type":"Feature"},
	{"geometry":{"coordinates":[5.168483,50.9351],"type":"Point"},"properties":{"osm_id":"3837246586","tag":{"amenity":"waste_basket"}},"type":"Feature"},
	{"geometry":{"coordinates":[5.167589,50.94032],"type":"Point"},"properties":{"osm_id":"3837246589","tag":{"amenity":"waste_basket"}},"type":"Feature"},
	{"geometry":{"coordinates":[5.169199,50.941336],"type":"Point"},"properties":{"osm_id":"3837246592","tag":{"amenity":"waste_basket"}},"type":"Feature"},
	{"geometry":{"coordinates":[5.168813,50.942221],"type":"Point"},"properties":{"osm_id":"3837246594","tag":{"amenity":"waste_basket"}},"type":"Feature"},
	{"geometry":{"coordinates":[5.166598,50.934829],"type":"Point"},"properties":{"osm_id":"3837247417","tag":{"amenity":"waste_basket"}},"type":"Feature"},
	{"geometry":{"coordinates":[5.169466,50.941451],"type":"Point"},"properties":{"osm_id":"3837247424","tag":{"amenity":"waste_basket"}},"type":"Feature"},
	{"geometry":{"coordinates":[5.17668,50.956484],"type":"Point"},"properties":{"osm_id":"4424845623","tag":{"amenity":"recycling","operator":"Wereld Missie Hulp","recycling:clothes":"yes","recycling_type":"container"}},"type":"Feature"},
	{"geometry":{"coordinates":[5.176678,50.956493],"type":"Point"},"properties":{"osm_id":"4424845628","tag":{"amenity":"recycling","operator":"Wereld Missie Hulp","recycling:clothes":"yes","recycling_type":"container"}},"type":"Feature"},
	{"geometry":{"coordinates":[5.176854,50.956568],"type":"Point"},"properties":{"osm_id":"4424845648","tag":{"amenity":"waste_basket"}},"type":"Feature"},
	{"geometry":{"coordinates":[5.176901,50.957382],"type":"Point"},"properties":{"osm_id":"4428812461","tag":{"amenity":"waste_basket"}},"type":"Feature"},
	{"geometry":{"coordinates":[5.111903,50.906934],"type":"Point"},"properties":{"osm_id":"5040215292","tag":{"amenity":"waste_basket"}},"type":"Feature"},
	{"geometry":{"coordinates":[5.111998,50.906058],"type":"Point"},"properties":{"osm_id":"5040215295","tag":{"amenity":"waste_basket"}},"type":"Feature"},
	{"geometry":{"coordinates":[5.112067,50.906921],"type":"Point"},"properties":{"osm_id":"5081298244","tag":{"amenity":"waste_basket"}},"type":"Feature"},
	{"geometry":{"coordinates":[5.14227,50.932961],"type":"Point"},"properties":{"osm_id":"5300878538","tag":{"amenity":"waste_basket"}},"type":"Feature"},
	{"geometry":{"coordinates":[5.144856,50.935991],"type":"Point"},"properties":{"osm_id":"5300878601","tag":{"amenity":"waste_basket"}},"type":"Feature"},
	{"geometry":{"coordinates":[5.112489,50.94492],"type":"Point"},"properties":{"name":"Textiel","osm_id":"7756255842","tag":{"amenity":"recycling","recycling:clothes":"yes","recycling_type":"container"}},"type":"Feature"},
	{"geometry":{"coordinates":[5.134245,50.939826],"type":"Point"},"properties":{"osm_id":"7925656037","tag":{"amenity":"waste_basket"}},"type":"Feature"}
]
}
