{
"type": "FeatureCollection",
"features": [
	{"geometry":{"coordinates":[5.182748,50.865298],"type":"Point"},"properties":{"osm_id":"1863430344","tag":{"amenity":"waste_basket"}},"type":"Feature"},
	{"geometry":{"coordinates":[5.160509,50.891075],"type":"Point"},"properties":{"osm_id":"1905698221","tag":{"amenity":"waste_basket"}},"type":"Feature"},
	{"geometry":{"coordinates":[5.115003,50.886731],"type":"Point"},"properties":{"osm_id":"2176678308","tag":{"amenity":"waste_basket"}},"type":"Feature"},
	{"geometry":{"coordinates":[5.099686,50.893457],"type":"Point"},"properties":{"osm_id":"2756037050","tag":{"amenity":"waste_basket"}},"type":"Feature"},
	{"geometry":{"coordinates":[5.111752,50.885587],"type":"Point"},"properties":{"osm_id":"3426653909","tag":{"amenity":"waste_basket"}},"type":"Feature"},
	{"geometry":{"coordinates":[5.110274,50.855025],"type":"Point"},"properties":{"osm_id":"3860792898","tag":{"amenity":"waste_basket"}},"type":"Feature"},
	{"geometry":{"coordinates":[5.110227,50.855141],"type":"Point"},"properties":{"osm_id":"3860792901","tag":{"amenity":"waste_basket"}},"type":"Feature"},
	{"geometry":{"coordinates":[5.167838,50.878362],"type":"Point"},"properties":{"osm_id":"4125767782","tag":{"amenity":"waste_basket"}},"type":"Feature"},
	{"geometry":{"coordinates":[5.162835,50.888977],"type":"Point"},"properties":{"osm_id":"4125769091","tag":{"amenity":"waste_basket"}},"type":"Feature"},
	{"geometry":{"coordinates":[5.110095,50.880078],"type":"Point"},"properties":{"osm_id":"4644203998","tag":{"amenity":"waste_basket"}},"type":"Feature"},
	{"geometry":{"coordinates":[5.111457,50.890675],"type":"Point"},"properties":{"osm_id":"4644281536","tag":{"amenity":"waste_basket"}},"type":"Feature"},
	{"geometry":{"coordinates":[5.11178,50.89419],"type":"Point"},"properties":{"osm_id":"5033577012","tag":{"amenity":"waste_basket"}},"type":"Feature"},
	{"geometry":{"coordinates":[5.11184,50.896313],"type":"Point"},"properties":{"osm_id":"5038020242","tag":{"amenity":"waste_basket"}},"type":"Feature"},
	{"geometry":{"coordinates":[5.110949,50.895088],"type":"Point"},"properties":{"osm_id":"5038020246","tag":{"amenity":"recycling","recycling:clothes":"yes","recycling_type":"container"}},"type":"Feature"},
	{"geometry":{"coordinates":[5.111855,50.89397],"type":"Point"},"properties":{"osm_id":"5081298248","tag":{"amenity":"recycling","operator":"Vlaams Inzamel Centrum Textiel","recycling:clothes":"yes","recycling_type":"container"}},"type":"Feature"},
	{"geometry":{"coordinates":[5.111987,50.894913],"type":"Point"},"properties":{"barrier":"gate","osm_id":"5081298249","tag":{"access":"customers"}},"type":"Feature"},
	{"geometry":{"coordinates":[5.124937,50.88243],"type":"Point"},"properties":{"osm_id":"5110090354","tag":{"amenity":"waste_basket"}},"type":"Feature"},
	{"geometry":{"coordinates":[5.109077,50.894878],"type":"Point"},"properties":{"osm_id":"5112792105","tag":{"amenity":"waste_basket"}},"type":"Feature"},
	{"geometry":{"coordinates":[5.111668,50.890364],"type":"Point"},"properties":{"osm_id":"5370333845","tag":{"amenity":"waste_basket"}},"type":"Feature"},
	{"geometry":{"coordinates":[5.102377,50.894065],"type":"Point"},"properties":{"osm_id":"6435748019","tag":{"amenity":"waste_basket"}},"type":"Feature"}
]
}
