{
"type": "FeatureCollection",
"features": [
	{"geometry":{"coordinates":[5.115894,50.617889],"type":"Point"},"properties":{"name":"Bulles \u00c3\u00a0 verres","osm_id":"3018120591","tag":{"amenity":"recycling","recycling:cans":"no","recycling:glass":"yes","recycling:paper":"no"}},"type":"Feature"},
	{"geometry":{"coordinates":[5.15231,50.574483],"type":"Point"},"properties":{"osm_id":"3426616006","tag":{"amenity":"waste_basket"}},"type":"Feature"},
	{"geometry":{"coordinates":[5.14296,50.579386],"type":"Point"},"properties":{"osm_id":"3426630591","tag":{"amenity":"waste_basket"}},"type":"Feature"},
	{"geometry":{"coordinates":[5.179824,50.597788],"type":"Point"},"properties":{"osm_id":"4716714474","tag":{"amenity":"waste_basket"}},"type":"Feature"},
	{"geometry":{"coordinates":[5.18219,50.614583],"type":"Point"},"properties":{"osm_id":"8990596158","tag":{"amenity":"waste_basket"}},"type":"Feature"},
	{"geometry":{"coordinates":[5.174899,50.60729],"type":"Point"},"properties":{"osm_id":"8990602224","tag":{"amenity":"waste_basket"}},"type":"Feature"},
	{"geometry":{"coordinates":[5.170412,50.614616],"type":"Point"},"properties":{"osm_id":"8990602245","tag":{"amenity":"waste_basket"}},"type":"Feature"},
	{"geometry":{"coordinates":[5.163844,50.61445],"type":"Point"},"properties":{"osm_id":"8990602257","tag":{"amenity":"waste_basket"}},"type":"Feature"},
	{"geometry":{"coordinates":[5.144749,50.619867],"type":"Point"},"properties":{"osm_id":"8990602280","tag":{"amenity":"waste_basket"}},"type":"Feature"},
	{"geometry":{"coordinates":[5.117048,50.616087],"type":"Point"},"properties":{"osm_id":"8990602348","tag":{"amenity":"waste_basket"}},"type":"Feature"}
]
}
