{
"type": "FeatureCollection",
"features": [
	{"geometry":{"coordinates":[5.104475,50.315687],"type":"Point"},"properties":{"osm_id":"1191338792","tag":{"amenity":"waste_basket"}},"type":"Feature"},
	{"geometry":{"coordinates":[5.113518,50.302378],"type":"Point"},"properties":{"osm_id":"1296571721","tag":{"amenity":"recycling","recycling:clothes":"yes","recycling:glass":"yes","recycling_type":"container"}},"type":"Feature"},
	{"geometry":{"coordinates":[5.17221,50.342951],"type":"Point"},"properties":{"osm_id":"1636238890","tag":{"amenity":"recycling","recycling:glass":"yes","recycling_type":"container"}},"type":"Feature"},
	{"geometry":{"coordinates":[5.179228,50.335575],"type":"Point"},"properties":{"osm_id":"1638726632","tag":{"amenity":"recycling","recycling:glass":"yes","recycling_type":"container"}},"type":"Feature"},
	{"geometry":{"coordinates":[5.100028,50.300207],"type":"Point"},"properties":{"osm_id":"4711598953","tag":{"amenity":"recycling","recycling:glass_bottles":"yes","recycling_type":"container"}},"type":"Feature"},
	{"geometry":{"coordinates":[5.117896,50.299155],"type":"Point"},"properties":{"osm_id":"5169006814","tag":{"amenity":"waste_basket"}},"type":"Feature"},
	{"geometry":{"coordinates":[5.117771,50.299077],"type":"Point"},"properties":{"osm_id":"5169006815","tag":{"amenity":"waste_basket"}},"type":"Feature"},
	{"geometry":{"coordinates":[5.108668,50.290714],"type":"Point"},"properties":{"osm_id":"5169007311","tag":{"amenity":"waste_basket"}},"type":"Feature"},
	{"geometry":{"coordinates":[5.159651,50.340171],"type":"Point"},"properties":{"osm_id":"7255672369","tag":{"amenity":"recycling","collection_times":"24/7","operator":"BEP Namur","recycling:glass_bottles":"yes","recycling_type":"container"}},"type":"Feature"},
	{"geometry":{"coordinates":[5.150083,50.340072],"type":"Point"},"properties":{"osm_id":"7255672376","tag":{"amenity":"waste_basket","colour":"wood","material":"wood","waste":"mixed"}},"type":"Feature"}
]
}
