{
"type": "FeatureCollection",
"features": [
	{"geometry":{"coordinates":[5.112858,47.312274],"type":"Point"},"properties":{"osm_id":"1871443330","tag":{"amenity":"waste_basket"}},"type":"Feature"},
	{"geometry":{"coordinates":[5.107533,47.279476],"type":"Point"},"properties":{"name":"PAV Verre","osm_id":"2013409878","tag":{"amenity":"recycling","recycling_type":"container"}},"type":"Feature"},
	{"geometry":{"coordinates":[5.13531,47.294451],"type":"Point"},"properties":{"osm_id":"2074465942","tag":{"amenity":"recycling","recycling_type":"container"}},"type":"Feature"},
	{"geometry":{"coordinates":[5.137054,47.299184],"type":"Point"},"properties":{"osm_id":"2074465944","tag":{"amenity":"recycling","recycling_type":"container"}},"type":"Feature"},
	{"geometry":{"coordinates":[5.170182,47.319375],"type":"Point"},"properties":{"osm_id":"3191170728","tag":{"amenity":"waste_basket"}},"type":"Feature"},
	{"geometry":{"coordinates":[5.112924,47.312234],"type":"Point"},"properties":{"osm_id":"4939092093","tag":{"amenity":"waste_basket"}},"type":"Feature"},
	{"geometry":{"coordinates":[5.112658,47.31224],"type":"Point"},"properties":{"osm_id":"4939092094","tag":{"amenity":"waste_basket"}},"type":"Feature"},
	{"geometry":{"coordinates":[5.113015,47.311765],"type":"Point"},"properties":{"osm_id":"4939092095","tag":{"amenity":"waste_basket"}},"type":"Feature"},
	{"geometry":{"coordinates":[5.107306,47.318025],"type":"Point"},"properties":{"osm_id":"5468940555","tag":{"amenity":"waste_basket","waste":"trash"}},"type":"Feature"},
	{"geometry":{"coordinates":[5.107454,47.318102],"type":"Point"},"properties":{"osm_id":"5468940556","tag":{"amenity":"waste_basket","waste":"trash"}},"type":"Feature"},
	{"geometry":{"coordinates":[5.109768,47.312923],"type":"Point"},"properties":{"osm_id":"5856671717","tag":{"amenity":"waste_basket","waste":"trash"}},"type":"Feature"},
	{"geometry":{"coordinates":[5.119187,47.316944],"type":"Point"},"properties":{"osm_id":"5940204661","tag":{"amenity":"waste_basket","waste":"trash"}},"type":"Feature"},
	{"geometry":{"coordinates":[5.106228,47.318262],"type":"Point"},"properties":{"osm_id":"6044311897","tag":{"amenity":"recycling","recycling:glass":"yes","recycling_type":"container"}},"type":"Feature"},
	{"geometry":{"coordinates":[5.110437,47.315002],"type":"Point"},"properties":{"osm_id":"7500358013","tag":{"amenity":"recycling","recycling:organic":"yes","recycling_type":"container"}},"type":"Feature"},
	{"geometry":{"coordinates":[5.112731,47.318137],"type":"Point"},"properties":{"osm_id":"7500358014","tag":{"amenity":"recycling","recycling:organic":"yes","recycling_type":"container"}},"type":"Feature"}
]
}
