{
"type": "FeatureCollection",
"lastupdate": "2020-08-03T00:00:00Z",
"features": [
	{"geometry":{"coordinates":[5.18377,45.751787],"type":"Point"},"properties":{"osm_id":"2467924522","tag":{"amenity":"recycling","recycling:cans":"yes"}},"type":"Feature"},
	{"geometry":{"coordinates":[5.183693,45.751954],"type":"Point"},"properties":{"osm_id":"2467924550","tag":{"amenity":"recycling","recycling:clothes":"yes"}},"type":"Feature"},
	{"geometry":{"coordinates":[5.109175,45.75221],"type":"Point"},"properties":{"osm_id":"2469053207","tag":{"amenity":"recycling","recycling:clothes":"yes","recycling_type":"container"}},"type":"Feature"},
	{"geometry":{"coordinates":[5.109228,45.752211],"type":"Point"},"properties":{"osm_id":"2469053218","tag":{"amenity":"recycling","recycling:cans":"yes","recycling_type":"container"}},"type":"Feature"},
	{"geometry":{"coordinates":[5.108135,45.751398],"type":"Point"},"properties":{"osm_id":"4231503299","tag":{"amenity":"recycling","recycling:cans":"yes","recycling:glass_bottles":"yes","recycling_type":"container"}},"type":"Feature"},
	{"geometry":{"coordinates":[5.118668,45.753165],"type":"Point"},"properties":{"osm_id":"4231503338","tag":{"amenity":"waste_basket"}},"type":"Feature"},
	{"geometry":{"coordinates":[5.180374,45.761615],"type":"Point"},"properties":{"osm_id":"4252200461","tag":{"amenity":"recycling","recycling:cans":"yes","recycling_type":"container"}},"type":"Feature"},
	{"geometry":{"coordinates":[5.181243,45.765497],"type":"Point"},"properties":{"osm_id":"4255862190","tag":{"amenity":"recycling","recycling:cans":"yes","recycling_type":"container"}},"type":"Feature"},
	{"geometry":{"coordinates":[5.162823,45.752912],"type":"Point"},"properties":{"osm_id":"4302526593","tag":{"amenity":"recycling","recycling:glass_bottles":"yes","recycling_type":"container"}},"type":"Feature"},
	{"geometry":{"coordinates":[5.184754,45.736785],"type":"Point"},"properties":{"osm_id":"4312304567","tag":{"amenity":"recycling","recycling:cans":"yes","recycling_type":"container"}},"type":"Feature"},
	{"geometry":{"coordinates":[5.176086,45.746452],"type":"Point"},"properties":{"osm_id":"4315533849","tag":{"amenity":"recycling","recycling:cans":"yes","recycling_type":"container"}},"type":"Feature"},
	{"geometry":{"coordinates":[5.140967,45.730143],"type":"Point"},"properties":{"osm_id":"5234986145","tag":{"amenity":"recycling","recycling:glass_bottles":"yes","recycling_type":"container"}},"type":"Feature"},
	{"geometry":{"coordinates":[5.144917,45.727926],"type":"Point"},"properties":{"osm_id":"5894863138","tag":{"amenity":"recycling","recycling:glass_bottles":"yes","recycling_type":"container"}},"type":"Feature"},
	{"geometry":{"coordinates":[5.140677,45.732313],"type":"Point"},"properties":{"osm_id":"5926073111","tag":{"amenity":"recycling","recycling:glass_bottles":"yes","recycling_type":"container"}},"type":"Feature"},
	{"geometry":{"coordinates":[5.171156,45.749399],"type":"Point"},"properties":{"osm_id":"6407224063","tag":{"amenity":"recycling","recycling:glass_bottles":"yes","recycling_type":"container"}},"type":"Feature"},
	{"geometry":{"coordinates":[5.13351,45.720359],"type":"Point"},"properties":{"osm_id":"6430245755","tag":{"amenity":"recycling","recycling:glass_bottles":"yes","recycling_type":"container"}},"type":"Feature"},
	{"geometry":{"coordinates":[5.127062,45.716477],"type":"Point"},"properties":{"osm_id":"6430246385","tag":{"amenity":"recycling","recycling:glass_bottles":"yes","recycling_type":"container"}},"type":"Feature"},
	{"geometry":{"coordinates":[5.12706,45.716499],"type":"Point"},"properties":{"osm_id":"6430246386","tag":{"amenity":"recycling","recycling:glass_bottles":"yes","recycling_type":"container"}},"type":"Feature"},
	{"geometry":{"coordinates":[5.127067,45.71652],"type":"Point"},"properties":{"osm_id":"6430246387","tag":{"amenity":"recycling","recycling:clothes":"yes","recycling:shoes":"yes","recycling_type":"container"}},"type":"Feature"},
	{"geometry":{"coordinates":[5.105283,45.70813],"type":"Point"},"properties":{"osm_id":"6657169316","tag":{"amenity":"waste_basket"}},"type":"Feature"},
	{"geometry":{"coordinates":[5.127288,45.714013],"type":"Point"},"properties":{"osm_id":"7033790059","tag":{"amenity":"recycling","location":"underground","operator":"SMND","recycling:aluminium":"yes","recycling:beverage_carton":"yes","recycling:cans":"yes","recycling:glass_bottles":"yes","recycling:paper":"yes","recycling:plastic_bottles":"yes","recycling:plastic_packaging":"yes","recycling_type":"container"}},"type":"Feature"},
	{"geometry":{"coordinates":[5.127283,45.714034],"type":"Point"},"properties":{"osm_id":"7033790060","tag":{"amenity":"recycling","location":"underground","operator":"SMND","recycling:aluminium":"yes","recycling:beverage_carton":"yes","recycling:cans":"yes","recycling:glass_bottles":"yes","recycling:paper":"yes","recycling:plastic_bottles":"yes","recycling:plastic_packaging":"yes","recycling_type":"container"}},"type":"Feature"},
	{"geometry":{"coordinates":[5.126945,45.719639],"type":"Point"},"properties":{"osm_id":"7047083479","tag":{"amenity":"waste_basket"}},"type":"Feature"},
	{"geometry":{"coordinates":[5.125834,45.719189],"type":"Point"},"properties":{"osm_id":"7047083480","tag":{"amenity":"waste_basket"}},"type":"Feature"},
	{"geometry":{"coordinates":[5.12839,45.719455],"type":"Point"},"properties":{"osm_id":"7047083481","tag":{"amenity":"waste_basket"}},"type":"Feature"},
	{"geometry":{"coordinates":[5.12839,45.719037],"type":"Point"},"properties":{"osm_id":"7047083482","tag":{"amenity":"waste_basket"}},"type":"Feature"},
	{"geometry":{"coordinates":[5.127245,45.719557],"type":"Point"},"properties":{"osm_id":"7047083483","tag":{"amenity":"waste_basket"}},"type":"Feature"},
	{"geometry":{"coordinates":[5.126123,45.719732],"type":"Point"},"properties":{"osm_id":"7047083484","tag":{"amenity":"waste_basket"}},"type":"Feature"}
]
}
