{
"type": "FeatureCollection",
"features": [
	{"geometry":{"coordinates":[5.161632,45.590122],"type":"Point"},"properties":{"osm_id":"274970656","tag":{"traffic_calming":"table"}},"type":"Feature"},
	{"geometry":{"coordinates":[5.156078,45.613244],"type":"Point"},"properties":{"osm_id":"463767694","tag":{"amenity":"recycling","recycling:cans":"yes","recycling:clothes":"yes","recycling:glass_bottles":"yes","recycling:paper":"yes","recycling:plastic_bottles":"yes","recycling:plastic_packaging":"yes","recycling_type":"container"}},"type":"Feature"},
	{"geometry":{"coordinates":[5.158835,45.588096],"type":"Point"},"properties":{"osm_id":"2325178400","tag":{"amenity":"recycling","recycling:cans":"yes","recycling:paper":"yes","recycling_type":"container"}},"type":"Feature"},
	{"geometry":{"coordinates":[5.170604,45.600852],"type":"Point"},"properties":{"osm_id":"2485085926","tag":{"amenity":"recycling","recycling:glass_bottles":"yes","recycling_type":"container"}},"type":"Feature"},
	{"geometry":{"coordinates":[5.152342,45.617797],"type":"Point"},"properties":{"osm_id":"2488161954","tag":{"amenity":"recycling","recycling:cans":"yes","recycling:cardboard":"yes","recycling:glass_bottles":"yes","recycling:paper":"yes","recycling:plastic_bottles":"yes","recycling_type":"container"}},"type":"Feature"},
	{"geometry":{"coordinates":[5.141302,45.615659],"type":"Point"},"properties":{"osm_id":"3675605068","tag":{"amenity":"recycling","recycling:cans":"no","recycling:clothes":"no","recycling:glass_bottles":"yes","recycling:paper":"no","recycling_type":"container"}},"type":"Feature"},
	{"geometry":{"coordinates":[5.137612,45.618445],"type":"Point"},"properties":{"osm_id":"3675605069","tag":{"amenity":"recycling","recycling:cans":"yes","recycling:clothes":"yes","recycling:glass_bottles":"yes","recycling:paper":"yes","recycling_type":"container"}},"type":"Feature"},
	{"geometry":{"coordinates":[5.150832,45.627627],"type":"Point"},"properties":{"osm_id":"4118500297","tag":{"amenity":"waste_basket","survey:date":"2018-06-30"}},"type":"Feature"},
	{"geometry":{"coordinates":[5.151009,45.627596],"type":"Point"},"properties":{"osm_id":"4118500298","tag":{"amenity":"waste_basket"}},"type":"Feature"},
	{"geometry":{"coordinates":[5.124534,45.602704],"type":"Point"},"properties":{"osm_id":"4296633696","tag":{"amenity":"waste_basket"}},"type":"Feature"},
	{"geometry":{"coordinates":[5.155487,45.611151],"type":"Point"},"properties":{"osm_id":"4315628515","tag":{"amenity":"recycling","recycling:cans":"yes","recycling:cartons":"yes","recycling:glass_bottles":"yes","recycling:magazines":"yes","recycling:newspaper":"yes","recycling:paper":"yes","recycling:plastic_bottles":"yes","recycling_type":"container"}},"type":"Feature"},
	{"geometry":{"coordinates":[5.172882,45.614507],"type":"Point"},"properties":{"osm_id":"4315811397","tag":{"amenity":"recycling","recycling:beverage_cartons":"yes","recycling:cans":"yes","recycling:cartons":"yes","recycling:clothes":"yes","recycling:glass_bottles":"yes","recycling:magazines":"yes","recycling:newspaper":"yes","recycling:paper":"yes","recycling:plastic_bottles":"yes","recycling_type":"container"}},"type":"Feature"},
	{"geometry":{"coordinates":[5.181611,45.612387],"type":"Point"},"properties":{"osm_id":"4382238073","tag":{"amenity":"waste_basket"}},"type":"Feature"},
	{"geometry":{"coordinates":[5.159746,45.61139],"type":"Point"},"properties":{"osm_id":"4383690809","tag":{"amenity":"recycling","recycling:glass_bottles":"yes","recycling_type":"container"}},"type":"Feature"},
	{"geometry":{"coordinates":[5.172104,45.604688],"type":"Point"},"properties":{"osm_id":"4387255932","tag":{"amenity":"recycling","recycling:clothes":"yes","recycling:glass_bottles":"yes","recycling_type":"container"}},"type":"Feature"},
	{"geometry":{"coordinates":[5.142317,45.622997],"type":"Point"},"properties":{"osm_id":"4395914099","tag":{"amenity":"recycling","recycling:cans":"yes","recycling:cardboard":"yes","recycling:plastic":"yes","recycling_type":"container"}},"type":"Feature"},
	{"geometry":{"coordinates":[5.099261,45.606964],"type":"Point"},"properties":{"osm_id":"4401245310","tag":{"amenity":"recycling","recycling:cans":"yes","recycling:cardboard":"yes","recycling:glass_bottles":"yes","recycling_type":"container"}},"type":"Feature"},
	{"geometry":{"coordinates":[5.149882,45.6076],"type":"Point"},"properties":{"osm_id":"4414637040","tag":{"amenity":"waste_basket"}},"type":"Feature"},
	{"geometry":{"coordinates":[5.18285,45.605098],"type":"Point"},"properties":{"osm_id":"4415161092","tag":{"amenity":"recycling","recycling:cans":"yes","recycling:cardboard":"yes","recycling:paper":"yes","recycling_type":"container"}},"type":"Feature"},
	{"geometry":{"coordinates":[5.175432,45.60526],"type":"Point"},"properties":{"osm_id":"4417640629","tag":{"amenity":"recycling","recycling:glass_bottles":"yes","recycling_type":"container"}},"type":"Feature"},
	{"geometry":{"coordinates":[5.131171,45.639669],"type":"Point"},"properties":{"osm_id":"4420154083","tag":{"amenity":"recycling","recycling:glass_bottles":"yes","recycling_type":"container"}},"type":"Feature"},
	{"geometry":{"coordinates":[5.163207,45.617614],"type":"Point"},"properties":{"osm_id":"4440631945","tag":{"amenity":"recycling","recycling:glass_bottles":"yes","recycling_type":"container"}},"type":"Feature"},
	{"geometry":{"coordinates":[5.128072,45.641124],"type":"Point"},"properties":{"osm_id":"4450209137","tag":{"amenity":"waste_basket"}},"type":"Feature"},
	{"geometry":{"coordinates":[5.160564,45.612121],"type":"Point"},"properties":{"osm_id":"5076825009","tag":{"amenity":"recycling","ele:msl":"302.7","ele:source":"GPS","recycling:glass_bottles":"yes","recycling_type":"container"}},"type":"Feature"},
	{"geometry":{"coordinates":[5.151339,45.617001],"type":"Point"},"properties":{"osm_id":"5118180511","tag":{"amenity":"recycling","recycling:glass_bottles":"yes","recycling_type":"container"}},"type":"Feature"},
	{"geometry":{"coordinates":[5.129746,45.596912],"type":"Point"},"properties":{"osm_id":"5200488611","tag":{"amenity":"recycling","recycling:glass_bottles":"yes","recycling_type":"container"}},"type":"Feature"},
	{"geometry":{"coordinates":[5.153634,45.605468],"type":"Point"},"properties":{"osm_id":"5212312324","tag":{"amenity":"waste_basket"}},"type":"Feature"},
	{"geometry":{"coordinates":[5.154528,45.60573],"type":"Point"},"properties":{"osm_id":"5212312326","tag":{"amenity":"waste_basket"}},"type":"Feature"},
	{"geometry":{"coordinates":[5.154321,45.605448],"type":"Point"},"properties":{"osm_id":"5212312328","tag":{"amenity":"waste_basket","ele:msl":"325.9","ele:source":"GPS"}},"type":"Feature"},
	{"geometry":{"coordinates":[5.154896,45.604294],"type":"Point"},"properties":{"osm_id":"5212312329","tag":{"amenity":"waste_basket"}},"type":"Feature"},
	{"geometry":{"coordinates":[5.154662,45.604261],"type":"Point"},"properties":{"osm_id":"5212312332","tag":{"amenity":"waste_basket","ele:msl":"322.2","ele:source":"GPS"}},"type":"Feature"},
	{"geometry":{"coordinates":[5.148731,45.613967],"type":"Point"},"properties":{"osm_id":"5213144351","tag":{"amenity":"recycling","recycling:glass_bottles":"yes","recycling_type":"container"}},"type":"Feature"},
	{"geometry":{"coordinates":[5.172925,45.606968],"type":"Point"},"properties":{"osm_id":"5282827124","tag":{"amenity":"waste_basket"}},"type":"Feature"},
	{"geometry":{"coordinates":[5.12307,45.627824],"type":"Point"},"properties":{"osm_id":"5340538528","tag":{"amenity":"waste_basket"}},"type":"Feature"},
	{"geometry":{"coordinates":[5.12245,45.626909],"type":"Point"},"properties":{"osm_id":"5340538547","tag":{"amenity":"waste_basket"}},"type":"Feature"},
	{"geometry":{"coordinates":[5.154549,45.602996],"type":"Point"},"properties":{"osm_id":"5432936899","tag":{"amenity":"waste_basket","waste":"trash"}},"type":"Feature"},
	{"geometry":{"coordinates":[5.184991,45.614529],"type":"Point"},"properties":{"osm_id":"5471579429","tag":{"amenity":"recycling","operator":"SMND","recycling:magazines":"yes","recycling:paper":"yes","recycling_type":"container"}},"type":"Feature"},
	{"geometry":{"coordinates":[5.184985,45.61451],"type":"Point"},"properties":{"osm_id":"5471579430","tag":{"amenity":"recycling","operator":"SMND","recycling:beverage_carton":"yes","recycling:cans":"yes","recycling:cartons":"yes","recycling:plastic_bottles":"yes","recycling:plastic_packaging":"yes","recycling_type":"container"}},"type":"Feature"},
	{"geometry":{"coordinates":[5.184982,45.614491],"type":"Point"},"properties":{"osm_id":"5471579431","tag":{"amenity":"recycling","operator":"SMND","recycling:beverage_carton":"yes","recycling:cans":"yes","recycling:cartons":"yes","recycling:plastic_bottles":"yes","recycling:plastic_packaging":"yes","recycling_type":"container"}},"type":"Feature"},
	{"geometry":{"coordinates":[5.184976,45.614467],"type":"Point"},"properties":{"osm_id":"5471579432","tag":{"amenity":"recycling","operator":"SMND","recycling:clothes":"yes","recycling_type":"container"}},"type":"Feature"},
	{"geometry":{"coordinates":[5.180643,45.59776],"type":"Point"},"properties":{"osm_id":"5501886024","tag":{"amenity":"waste_basket","waste":"trash"}},"type":"Feature"},
	{"geometry":{"coordinates":[5.179576,45.607523],"type":"Point"},"properties":{"osm_id":"5502182001","tag":{"amenity":"waste_basket","waste":"trash"}},"type":"Feature"},
	{"geometry":{"coordinates":[5.155616,45.61204],"type":"Point"},"properties":{"osm_id":"5545059771","tag":{"amenity":"waste_basket","waste":"trash"}},"type":"Feature"},
	{"geometry":{"coordinates":[5.108287,45.636634],"type":"Point"},"properties":{"osm_id":"5590204622","tag":{"amenity":"recycling","recycling:beverage_cartons":"yes","recycling:cans":"yes","recycling:glass_bottles":"yes","recycling:magazines":"yes","recycling:newspaper":"yes","recycling:plastic_bottles":"yes","recycling_type":"container"}},"type":"Feature"},
	{"geometry":{"coordinates":[5.172804,45.606745],"type":"Point"},"properties":{"osm_id":"5611815122","tag":{"amenity":"waste_basket"}},"type":"Feature"},
	{"geometry":{"coordinates":[5.182165,45.596615],"type":"Point"},"properties":{"osm_id":"5617465750","tag":{"amenity":"waste_basket"}},"type":"Feature"},
	{"geometry":{"coordinates":[5.147383,45.610157],"type":"Point"},"properties":{"osm_id":"5631118767","tag":{"amenity":"waste_basket","waste":"trash"}},"type":"Feature"},
	{"geometry":{"coordinates":[5.147395,45.610139],"type":"Point"},"properties":{"osm_id":"5631118768","tag":{"amenity":"recycling","recycling:cans":"yes","recycling:clothes":"yes","recycling:glass_bottles":"yes","recycling:paper":"yes","recycling:plastic_bottles":"yes","recycling:plastic_packaging":"yes","recycling_type":"container"}},"type":"Feature"},
	{"geometry":{"coordinates":[5.151298,45.606508],"type":"Point"},"properties":{"osm_id":"5673222349","tag":{"amenity":"waste_basket","waste":"trash"}},"type":"Feature"},
	{"geometry":{"coordinates":[5.177199,45.596738],"type":"Point"},"properties":{"osm_id":"5744391710","tag":{"amenity":"recycling","recycling:glass_bottles":"yes","recycling_type":"container"}},"type":"Feature"},
	{"geometry":{"coordinates":[5.180429,45.597679],"type":"Point"},"properties":{"osm_id":"5744394022","tag":{"amenity":"recycling","recycling:cans":"yes","recycling:cardboard":"yes","recycling:paper":"yes","recycling:plastic_bottles":"yes","recycling:plastic_packaging":"yes","recycling_type":"container"}},"type":"Feature"},
	{"geometry":{"coordinates":[5.184962,45.602574],"type":"Point"},"properties":{"osm_id":"5744394056","tag":{"amenity":"waste_basket","waste":"trash"}},"type":"Feature"},
	{"geometry":{"coordinates":[5.184984,45.602569],"type":"Point"},"properties":{"osm_id":"5744394057","tag":{"amenity":"recycling","recycling:glass_bottles":"yes","recycling_type":"container"}},"type":"Feature"},
	{"geometry":{"coordinates":[5.155471,45.611175],"type":"Point"},"properties":{"osm_id":"5747863859","tag":{"amenity":"recycling","recycling:clothes":"yes","recycling_type":"container"}},"type":"Feature"},
	{"geometry":{"coordinates":[5.129005,45.618848],"type":"Point"},"properties":{"osm_id":"5752701051","tag":{"amenity":"waste_basket"}},"type":"Feature"},
	{"geometry":{"coordinates":[5.12972,45.619709],"type":"Point"},"properties":{"osm_id":"5753998551","tag":{"amenity":"waste_basket"}},"type":"Feature"},
	{"geometry":{"coordinates":[5.126644,45.618289],"type":"Point"},"properties":{"osm_id":"5753998552","tag":{"amenity":"waste_basket"}},"type":"Feature"},
	{"geometry":{"coordinates":[5.128365,45.618391],"type":"Point"},"properties":{"osm_id":"5753998568","tag":{"amenity":"waste_basket"}},"type":"Feature"},
	{"geometry":{"coordinates":[5.127615,45.618393],"type":"Point"},"properties":{"osm_id":"5753998569","tag":{"amenity":"waste_basket"}},"type":"Feature"},
	{"geometry":{"coordinates":[5.129249,45.618396],"type":"Point"},"properties":{"osm_id":"5753998570","tag":{"amenity":"waste_basket"}},"type":"Feature"},
	{"geometry":{"coordinates":[5.129777,45.618586],"type":"Point"},"properties":{"osm_id":"5753998572","tag":{"amenity":"waste_basket"}},"type":"Feature"},
	{"geometry":{"coordinates":[5.130005,45.619183],"type":"Point"},"properties":{"osm_id":"5753998573","tag":{"amenity":"waste_basket"}},"type":"Feature"},
	{"geometry":{"coordinates":[5.12941,45.61864],"type":"Point"},"properties":{"osm_id":"5753998574","tag":{"amenity":"waste_basket"}},"type":"Feature"},
	{"geometry":{"coordinates":[5.129073,45.618959],"type":"Point"},"properties":{"osm_id":"5753998575","tag":{"amenity":"waste_basket"}},"type":"Feature"},
	{"geometry":{"coordinates":[5.129071,45.618946],"type":"Point"},"properties":{"osm_id":"5753998576","tag":{"amenity":"waste_basket"}},"type":"Feature"},
	{"geometry":{"coordinates":[5.129386,45.618752],"type":"Point"},"properties":{"osm_id":"5753998577","tag":{"amenity":"waste_basket"}},"type":"Feature"},
	{"geometry":{"coordinates":[5.129325,45.619141],"type":"Point"},"properties":{"osm_id":"5753998578","tag":{"amenity":"waste_basket"}},"type":"Feature"},
	{"geometry":{"coordinates":[5.129656,45.618091],"type":"Point"},"properties":{"osm_id":"5754061102","tag":{"amenity":"recycling","recycling:glass_bottles":"yes","recycling_type":"container"}},"type":"Feature"},
	{"geometry":{"coordinates":[5.178705,45.607526],"type":"Point"},"properties":{"osm_id":"5764545562","tag":{"amenity":"waste_basket"}},"type":"Feature"},
	{"geometry":{"coordinates":[5.155818,45.606426],"type":"Point"},"properties":{"osm_id":"5768180963","tag":{"amenity":"recycling","recycling:glass_bottles":"yes","recycling_type":"container"}},"type":"Feature"},
	{"geometry":{"coordinates":[5.160296,45.618754],"type":"Point"},"properties":{"osm_id":"5786040354","tag":{"amenity":"recycling","recycling:glass_bottles":"yes","recycling_type":"container"}},"type":"Feature"},
	{"geometry":{"coordinates":[5.151525,45.604719],"type":"Point"},"properties":{"osm_id":"5809434354","tag":{"amenity":"waste_basket"}},"type":"Feature"},
	{"geometry":{"coordinates":[5.153171,45.603956],"type":"Point"},"properties":{"osm_id":"5809449853","tag":{"amenity":"waste_basket"}},"type":"Feature"},
	{"geometry":{"coordinates":[5.151252,45.605728],"type":"Point"},"properties":{"osm_id":"5809449953","tag":{"amenity":"waste_basket"}},"type":"Feature"},
	{"geometry":{"coordinates":[5.15464,45.611923],"type":"Point"},"properties":{"osm_id":"5823735255","tag":{"amenity":"waste_basket"}},"type":"Feature"},
	{"geometry":{"coordinates":[5.154729,45.611968],"type":"Point"},"properties":{"osm_id":"5823735256","tag":{"amenity":"waste_basket"}},"type":"Feature"},
	{"geometry":{"coordinates":[5.155049,45.611583],"type":"Point"},"properties":{"osm_id":"5823762353","tag":{"amenity":"waste_basket"}},"type":"Feature"},
	{"geometry":{"coordinates":[5.155554,45.611283],"type":"Point"},"properties":{"osm_id":"5823797287","tag":{"amenity":"waste_basket","waste":"trash"}},"type":"Feature"},
	{"geometry":{"coordinates":[5.146763,45.612279],"type":"Point"},"properties":{"osm_id":"5849573190","tag":{"amenity":"recycling","recycling:glass_bottles":"yes","recycling_type":"container"}},"type":"Feature"},
	{"geometry":{"coordinates":[5.14392,45.614064],"type":"Point"},"properties":{"osm_id":"5855940154","tag":{"amenity":"recycling","recycling:glass_bottles":"yes","recycling_type":"container"}},"type":"Feature"},
	{"geometry":{"coordinates":[5.144998,45.611013],"type":"Point"},"properties":{"osm_id":"5855940160","tag":{"amenity":"waste_basket","waste":"trash"}},"type":"Feature"},
	{"geometry":{"coordinates":[5.152502,45.608996],"type":"Point"},"properties":{"osm_id":"5884030039","tag":{"amenity":"recycling","recycling:glass_bottles":"yes","recycling_type":"container"}},"type":"Feature"},
	{"geometry":{"coordinates":[5.152932,45.614161],"type":"Point"},"properties":{"osm_id":"5955689096","tag":{"amenity":"recycling","recycling:glass_bottles":"yes","recycling_type":"container"}},"type":"Feature"},
	{"geometry":{"coordinates":[5.143025,45.623336],"type":"Point"},"properties":{"osm_id":"5981731470","tag":{"amenity":"waste_basket","waste":"trash"}},"type":"Feature"},
	{"geometry":{"coordinates":[5.15106,45.606698],"type":"Point"},"properties":{"osm_id":"5981774621","tag":{"amenity":"recycling","recycling:glass_bottles":"yes","recycling_type":"container"}},"type":"Feature"},
	{"geometry":{"coordinates":[5.155325,45.60405],"type":"Point"},"properties":{"osm_id":"5983098995","tag":{"amenity":"waste_basket","waste":"trash"}},"type":"Feature"},
	{"geometry":{"coordinates":[5.183387,45.614815],"type":"Point"},"properties":{"osm_id":"6111072483","tag":{"amenity":"waste_basket"}},"type":"Feature"},
	{"geometry":{"coordinates":[5.142015,45.640702],"type":"Point"},"properties":{"osm_id":"6122402927","tag":{"amenity":"recycling","recycling:cans":"yes","recycling:cardboard":"yes","recycling:paper":"yes","recycling:plastic_bottles":"yes","recycling:plastic_packaging":"yes","recycling_type":"container"}},"type":"Feature"},
	{"geometry":{"coordinates":[5.142108,45.640759],"type":"Point"},"properties":{"osm_id":"6122402931","tag":{"amenity":"recycling","recycling:clothes":"yes","recycling:shoes":"yes","recycling_type":"container"}},"type":"Feature"},
	{"geometry":{"coordinates":[5.142048,45.64072],"type":"Point"},"properties":{"osm_id":"6122402935","tag":{"amenity":"recycling","recycling:glass_bottles":"yes","recycling_type":"container"}},"type":"Feature"},
	{"geometry":{"coordinates":[5.157821,45.609367],"type":"Point"},"properties":{"osm_id":"6153557858","tag":{"amenity":"waste_disposal","location":"underground"}},"type":"Feature"},
	{"geometry":{"coordinates":[5.157788,45.609338],"type":"Point"},"properties":{"osm_id":"6153557859","tag":{"amenity":"waste_disposal","location":"underground"}},"type":"Feature"},
	{"geometry":{"coordinates":[5.157805,45.609353],"type":"Point"},"properties":{"osm_id":"6153557860","tag":{"amenity":"recycling","location":"underground","recycling:cans":"yes","recycling:cartons":"yes","recycling:paper":"yes","recycling:plastic_bottles":"yes","recycling:plastic_packaging":"yes","recycling_type":"container"}},"type":"Feature"},
	{"geometry":{"coordinates":[5.170634,45.600883],"type":"Point"},"properties":{"osm_id":"6181463332","tag":{"amenity":"recycling","operator":"Le Relais","recycling:clothes":"yes","recycling_type":"container"}},"type":"Feature"},
	{"geometry":{"coordinates":[5.165264,45.604273],"type":"Point"},"properties":{"osm_id":"6181463335","tag":{"amenity":"recycling","location":"underground","operator":"SMND","recycling:glass_bottles":"yes","recycling_type":"container"}},"type":"Feature"},
	{"geometry":{"coordinates":[5.165247,45.604283],"type":"Point"},"properties":{"osm_id":"6181463336","tag":{"amenity":"recycling","location":"underground","operator":"SMND","recycling:paper":"yes","recycling_type":"container"}},"type":"Feature"},
	{"geometry":{"coordinates":[5.165232,45.60429],"type":"Point"},"properties":{"osm_id":"6181463337","tag":{"amenity":"recycling","location":"underground","operator":"SMND","recycling:cans":"yes","recycling:cardboard":"yes","recycling:plastic_bottles":"yes","recycling:plastic_packaging":"yes","recycling_type":"container"}},"type":"Feature"},
	{"geometry":{"coordinates":[5.164267,45.60571],"type":"Point"},"properties":{"osm_id":"6183937186","tag":{"amenity":"recycling","recycling:glass_bottles":"yes","recycling_type":"container"}},"type":"Feature"},
	{"geometry":{"coordinates":[5.161757,45.606206],"type":"Point"},"properties":{"osm_id":"6183937285","tag":{"amenity":"waste_basket"}},"type":"Feature"},
	{"geometry":{"coordinates":[5.137279,45.62686],"type":"Point"},"properties":{"osm_id":"6225926387","tag":{"amenity":"recycling","operator":"SMND","recycling:glass_bottles":"yes","recycling_type":"container"}},"type":"Feature"},
	{"geometry":{"coordinates":[5.137258,45.626846],"type":"Point"},"properties":{"osm_id":"6225926388","tag":{"amenity":"recycling","operator":"SMND","recycling:cans":"yes","recycling:cardboard":"yes","recycling:paper":"yes","recycling:plastic_bottles":"yes","recycling:plastic_packaging":"yes","recycling_type":"container"}},"type":"Feature"},
	{"geometry":{"coordinates":[5.137254,45.626793],"type":"Point"},"properties":{"osm_id":"6225926389","tag":{"amenity":"recycling","operator":"Le Relais","recycling:clothes":"yes","recycling:shoes":"yes","recycling_type":"container"}},"type":"Feature"},
	{"geometry":{"coordinates":[5.155087,45.603083],"type":"Point"},"properties":{"osm_id":"6297750785","tag":{"amenity":"recycling","recycling:glass_bottles":"yes","recycling_type":"container"}},"type":"Feature"},
	{"geometry":{"coordinates":[5.17143,45.602318],"type":"Point"},"properties":{"osm_id":"6314372011","tag":{"amenity":"recycling","operator":"SMND","recycling:glass_bottles":"yes","recycling_type":"container"}},"type":"Feature"},
	{"geometry":{"coordinates":[5.163615,45.583838],"type":"Point"},"properties":{"osm_id":"6332019637","tag":{"amenity":"recycling","location":"underground","operator":"SMND","recycling:cans":"yes","recycling:cardboard":"yes","recycling:plastic_bottles":"yes","recycling:plastic_packaging":"yes","recycling_type":"container"}},"type":"Feature"},
	{"geometry":{"coordinates":[5.163586,45.583834],"type":"Point"},"properties":{"osm_id":"6332019638","tag":{"amenity":"recycling","location":"underground","operator":"SMND","recycling:newspaper":"yes","recycling:paper":"yes","recycling_type":"container"}},"type":"Feature"},
	{"geometry":{"coordinates":[5.163547,45.583829],"type":"Point"},"properties":{"osm_id":"6332019639","tag":{"amenity":"recycling","location":"underground","operator":"SMND","recycling:glass_bottles":"yes","recycling_type":"container"}},"type":"Feature"},
	{"geometry":{"coordinates":[5.147128,45.633256],"type":"Point"},"properties":{"osm_id":"6371075278","tag":{"amenity":"recycling","location":"underground","recycling:glass_bottles":"yes","recycling_type":"container"}},"type":"Feature"},
	{"geometry":{"coordinates":[5.147108,45.63327],"type":"Point"},"properties":{"osm_id":"6371075279","tag":{"amenity":"recycling","location":"underground","recycling:cans":"yes","recycling:paper":"yes","recycling:plastic_bottles":"yes","recycling:plastic_packaging":"yes","recycling_type":"container"}},"type":"Feature"},
	{"geometry":{"coordinates":[5.147088,45.63328],"type":"Point"},"properties":{"osm_id":"6371075280","tag":{"amenity":"recycling","location":"underground","recycling:waste":"yes","recycling_type":"container"}},"type":"Feature"},
	{"geometry":{"coordinates":[5.134848,45.633626],"type":"Point"},"properties":{"osm_id":"6373574878","tag":{"amenity":"recycling","operator":"SMND","recycling:glass_bottles":"yes","recycling_type":"container"}},"type":"Feature"},
	{"geometry":{"coordinates":[5.131773,45.636051],"type":"Point"},"properties":{"osm_id":"6373574880","tag":{"amenity":"recycling","operator":"SMND","recycling:glass_bottles":"yes","recycling_type":"container"}},"type":"Feature"},
	{"geometry":{"coordinates":[5.129978,45.600171],"type":"Point"},"properties":{"osm_id":"6391923137","tag":{"amenity":"recycling","operator":"SMND","recycling:glass_bottles":"yes","recycling_type":"container"}},"type":"Feature"},
	{"geometry":{"coordinates":[5.129968,45.600193],"type":"Point"},"properties":{"osm_id":"6391923138","tag":{"amenity":"recycling","operator":"SMND","recycling:paper":"yes","recycling_type":"container"}},"type":"Feature"},
	{"geometry":{"coordinates":[5.129957,45.600213],"type":"Point"},"properties":{"osm_id":"6391923139","tag":{"amenity":"recycling","operator":"SMND","recycling:cans":"yes","recycling:plastic_bottles":"yes","recycling:plastic_packaging":"yes","recycling_type":"container"}},"type":"Feature"},
	{"geometry":{"coordinates":[5.129947,45.600231],"type":"Point"},"properties":{"osm_id":"6391923140","tag":{"amenity":"recycling","operator":"SMND","recycling:waste":"yes","recycling_type":"container"}},"type":"Feature"},
	{"geometry":{"coordinates":[5.128979,45.597012],"type":"Point"},"properties":{"osm_id":"6391923146","tag":{"amenity":"recycling","operator":"SMND","recycling:glass_bottles":"yes","recycling_type":"container"}},"type":"Feature"},
	{"geometry":{"coordinates":[5.147158,45.604204],"type":"Point"},"properties":{"osm_id":"6404730193","tag":{"amenity":"waste_basket"}},"type":"Feature"},
	{"geometry":{"coordinates":[5.130226,45.59487],"type":"Point"},"properties":{"osm_id":"6404784395","tag":{"amenity":"recycling","location":"underground","operator":"SMND","recycling:glass_bottles":"yes","recycling_type":"container"}},"type":"Feature"},
	{"geometry":{"coordinates":[5.13022,45.594885],"type":"Point"},"properties":{"osm_id":"6404784396","tag":{"amenity":"recycling","location":"underground","operator":"SMND","recycling:cans":"yes","recycling:cardboard":"yes","recycling:paper":"yes","recycling:plastic_bottles":"yes","recycling:plastic_packaging":"yes","recycling_type":"container"}},"type":"Feature"},
	{"geometry":{"coordinates":[5.130212,45.594903],"type":"Point"},"properties":{"osm_id":"6404784397","tag":{"amenity":"recycling","location":"underground","operator":"SMND","recycling:waste":"yes","recycling_type":"container"}},"type":"Feature"},
	{"geometry":{"coordinates":[5.129866,45.639838],"type":"Point"},"properties":{"osm_id":"6564455581","tag":{"amenity":"recycling","operator":"SMND","recycling:glass_bottles":"yes","recycling_type":"container"}},"type":"Feature"},
	{"geometry":{"coordinates":[5.136579,45.644057],"type":"Point"},"properties":{"osm_id":"6569988029","tag":{"amenity":"recycling","operator":"SMND","recycling:glass_bottles":"yes","recycling_type":"container"}},"type":"Feature"},
	{"geometry":{"coordinates":[5.132615,45.640794],"type":"Point"},"properties":{"osm_id":"6578987531","tag":{"amenity":"recycling","operator":"SMND","recycling:cans":"yes","recycling:cardboard":"yes","recycling:paper":"yes","recycling:plastic_bottles":"yes","recycling:plastic_packaging":"yes","recycling_type":"container"}},"type":"Feature"},
	{"geometry":{"coordinates":[5.132587,45.640799],"type":"Point"},"properties":{"osm_id":"6578987532","tag":{"amenity":"recycling","operator":"SMND","recycling:glass_bottles":"yes","recycling_type":"container"}},"type":"Feature"},
	{"geometry":{"coordinates":[5.146042,45.604221],"type":"Point"},"properties":{"osm_id":"6630804532","tag":{"amenity":"waste_basket","waste":"trash"}},"type":"Feature"},
	{"geometry":{"coordinates":[5.142444,45.635224],"type":"Point"},"properties":{"osm_id":"6734418180","tag":{"amenity":"waste_basket","waste":"dog_excrement"}},"type":"Feature"},
	{"geometry":{"coordinates":[5.141969,45.634953],"type":"Point"},"properties":{"osm_id":"6734418181","tag":{"amenity":"waste_basket","waste":"trash"}},"type":"Feature"},
	{"geometry":{"coordinates":[5.153884,45.62476],"type":"Point"},"properties":{"osm_id":"6825314384","tag":{"amenity":"waste_basket","waste":"trash"}},"type":"Feature"},
	{"geometry":{"coordinates":[5.140539,45.621723],"type":"Point"},"properties":{"osm_id":"6827335415","tag":{"amenity":"waste_basket","waste":"trash"}},"type":"Feature"},
	{"geometry":{"coordinates":[5.140744,45.621667],"type":"Point"},"properties":{"osm_id":"6827335416","tag":{"amenity":"recycling","operator":"SMND","recycling:glass_bottles":"yes","recycling_type":"container"}},"type":"Feature"},
	{"geometry":{"coordinates":[5.138181,45.623561],"type":"Point"},"properties":{"osm_id":"6827354268","tag":{"amenity":"waste_basket","waste":"trash"}},"type":"Feature"},
	{"geometry":{"coordinates":[5.138339,45.623426],"type":"Point"},"properties":{"osm_id":"6827354270","tag":{"amenity":"waste_basket","waste":"trash"}},"type":"Feature"},
	{"geometry":{"coordinates":[5.139736,45.622377],"type":"Point"},"properties":{"osm_id":"6827362586","tag":{"amenity":"waste_basket","waste":"trash"}},"type":"Feature"},
	{"geometry":{"coordinates":[5.14104,45.622886],"type":"Point"},"properties":{"osm_id":"6827362591","tag":{"amenity":"waste_basket","waste":"trash"}},"type":"Feature"},
	{"geometry":{"coordinates":[5.14615,45.62971],"type":"Point"},"properties":{"osm_id":"6970320223","tag":{"amenity":"recycling","operator":"SMND","recycling:glass_bottles":"yes","recycling_type":"container"}},"type":"Feature"},
	{"geometry":{"coordinates":[5.15507,45.602911],"type":"Point"},"properties":{"osm_id":"7022037316","tag":{"amenity":"waste_basket","waste":"trash"}},"type":"Feature"},
	{"geometry":{"coordinates":[5.156655,45.609265],"type":"Point"},"properties":{"osm_id":"7107672711","tag":{"amenity":"waste_basket","waste":"trash"}},"type":"Feature"},
	{"geometry":{"coordinates":[5.185012,45.614438],"type":"Point"},"properties":{"osm_id":"7132856631","tag":{"amenity":"recycling","operator":"SMND","recycling:glass_bottles":"yes","recycling_type":"container"}},"type":"Feature"},
	{"geometry":{"coordinates":[5.18501,45.61446],"type":"Point"},"properties":{"osm_id":"7132856632","tag":{"amenity":"recycling","operator":"Le Relais","recycling:clothes":"yes","recycling_type":"container"}},"type":"Feature"},
	{"geometry":{"coordinates":[5.153845,45.610738],"type":"Point"},"properties":{"osm_id":"7162426111","tag":{"amenity":"recycling","location":"underground","operator":"SMND","recycling:cans":"yes","recycling:paper":"yes","recycling:plastic_bottles":"yes","recycling:plastic_packaging":"yes","recycling_type":"container"}},"type":"Feature"},
	{"geometry":{"coordinates":[5.153869,45.610749],"type":"Point"},"properties":{"osm_id":"7162426112","tag":{"amenity":"recycling","location":"underground","operator":"SMND","recycling:glass_bottles":"yes","recycling_type":"container"}},"type":"Feature"},
	{"geometry":{"coordinates":[5.153852,45.610765],"type":"Point"},"properties":{"osm_id":"7162426113","tag":{"amenity":"recycling","location":"underground","operator":"SMND","recycling:waste":"yes","recycling_type":"container"}},"type":"Feature"},
	{"geometry":{"coordinates":[5.153829,45.610753],"type":"Point"},"properties":{"osm_id":"7162426114","tag":{"amenity":"recycling","location":"underground","operator":"SMND","recycling:waste":"yes","recycling_type":"container"}},"type":"Feature"},
	{"geometry":{"coordinates":[5.152416,45.617792],"type":"Point"},"properties":{"osm_id":"7164372865","tag":{"amenity":"recycling","recycling:clothes":"yes","recycling_type":"container"}},"type":"Feature"},
	{"geometry":{"coordinates":[5.129057,45.596558],"type":"Point"},"properties":{"osm_id":"7246213427","tag":{"amenity":"recycling","operator":"SMND","recycling:glass_bottles":"yes","recycling_type":"container"}},"type":"Feature"},
	{"geometry":{"coordinates":[5.112428,45.63204],"type":"Point"},"properties":{"osm_id":"7296320549","tag":{"amenity":"recycling","operator":"SMND","recycling:glass_bottles":"yes","recycling_type":"container"}},"type":"Feature"},
	{"geometry":{"coordinates":[5.150226,45.606187],"type":"Point"},"properties":{"osm_id":"7303106995","tag":{"amenity":"recycling","location":"underground","operator":"SMND","recycling:beverage_carton":"yes","recycling:cans":"yes","recycling:paper":"yes","recycling:plastic_bottles":"yes","recycling_type":"container"}},"type":"Feature"},
	{"geometry":{"coordinates":[5.150194,45.606186],"type":"Point"},"properties":{"osm_id":"7303106998","tag":{"amenity":"waste_disposal","location":"underground","operator":"SMND"}},"type":"Feature"},
	{"geometry":{"coordinates":[5.148636,45.603576],"type":"Point"},"properties":{"osm_id":"7303656861","tag":{"amenity":"recycling","operator":"SMND","recycling:glass_bottles":"yes","recycling_type":"container"}},"type":"Feature"},
	{"geometry":{"coordinates":[5.14987,45.605193],"type":"Point"},"properties":{"osm_id":"7335497924","tag":{"amenity":"waste_disposal","location":"underground","operator":"SMND"}},"type":"Feature"},
	{"geometry":{"coordinates":[5.149904,45.605197],"type":"Point"},"properties":{"osm_id":"7335497926","tag":{"amenity":"recycling","location":"underground","operator":"SMND","recycling:beverage_carton":"yes","recycling:cans":"yes","recycling:newspaper":"yes","recycling:paper":"yes","recycling:plastic_bottles":"yes","recycling_type":"container"}},"type":"Feature"},
	{"geometry":{"coordinates":[5.145908,45.616794],"type":"Point"},"properties":{"osm_id":"7407357403","tag":{"amenity":"waste_basket","waste":"trash"}},"type":"Feature"}
]
}
