{
"type": "FeatureCollection",
"features": [
	{"geometry":{"coordinates":[5.106038,43.878327],"type":"Point"},"properties":{"osm_id":"652972055","tag":{"amenity":"recycling","recycling:glass_bottles":"yes","recycling:paper":"yes","recycling:plastic_packaging":"yes","recycling_type":"container"}},"type":"Feature"},
	{"geometry":{"coordinates":[5.109859,43.89106],"type":"Point"},"properties":{"osm_id":"652972139","tag":{"amenity":"recycling","recycling:glass_bottles":"yes","recycling_type":"container"}},"type":"Feature"},
	{"geometry":{"coordinates":[5.11326,43.843385],"type":"Point"},"properties":{"osm_id":"2391735193","tag":{"amenity":"recycling","recycling:glass_bottles":"yes","recycling_type":"container"}},"type":"Feature"},
	{"geometry":{"coordinates":[5.152274,43.888075],"type":"Point"},"properties":{"osm_id":"4033405803","tag":{"amenity":"recycling","recycling:clothes":"yes","recycling_type":"container","website":"http://www.lerelais.org"}},"type":"Feature"},
	{"geometry":{"coordinates":[5.152324,43.888091],"type":"Point"},"properties":{"osm_id":"4033405804","tag":{"amenity":"recycling","recycling:glass_bottles":"yes","recycling:paper":"yes","recycling_type":"container"}},"type":"Feature"},
	{"geometry":{"coordinates":[5.142984,43.867594],"type":"Point"},"properties":{"osm_id":"4898329001","tag":{"amenity":"recycling","operator":"Le Relais","recycling:clothes":"yes","recycling:shoes":"yes","recycling_type":"container"}},"type":"Feature"},
	{"geometry":{"coordinates":[5.141623,43.867362],"type":"Point"},"properties":{"name":"Poubelles & bacs de tri","osm_id":"7207702977","tag":{"amenity":"waste_disposal"}},"type":"Feature"},
	{"geometry":{"coordinates":[5.141521,43.867388],"type":"Point"},"properties":{"osm_id":"7433096792","tag":{"amenity":"recycling","location":"underground","recycling_type":"container"}},"type":"Feature"}
]
}
