{
"type": "FeatureCollection",
"features": [
	{"geometry":{"coordinates":[10.833106,44.526893],"type":"Point"},"properties":{"osm_id":"2527784257","tag":{"denotation":"urban","leaf_cycle":"deciduous","leaf_type":"broadleaved","natural":"tree","species":"Quercus robur","species:it":"Farnia"}},"type":"Feature"},
	{"geometry":{"coordinates":[10.833479,44.526938],"type":"Point"},"properties":{"osm_id":"2527784258","tag":{"denotation":"urban","leaf_cycle":"deciduous","leaf_type":"broadleaved","natural":"tree","species":"Quercus robur","species:it":"Farnia"}},"type":"Feature"},
	{"geometry":{"coordinates":[10.833283,44.526945],"type":"Point"},"properties":{"osm_id":"2527784259","tag":{"denotation":"urban","leaf_cycle":"deciduous","leaf_type":"broadleaved","natural":"tree","species":"Quercus robur","species:it":"Farnia"}},"type":"Feature"},
	{"geometry":{"coordinates":[10.833579,44.52696],"type":"Point"},"properties":{"osm_id":"2527784260","tag":{"denotation":"urban","leaf_cycle":"deciduous","leaf_type":"broadleaved","natural":"tree","species":"Quercus robur","species:it":"Farnia"}},"type":"Feature"},
	{"geometry":{"coordinates":[10.833354,44.526962],"type":"Point"},"properties":{"osm_id":"2527784261","tag":{"denotation":"urban","leaf_cycle":"deciduous","leaf_type":"broadleaved","natural":"tree","species":"Quercus robur","species:it":"Farnia"}},"type":"Feature"},
	{"geometry":{"coordinates":[10.833687,44.526981],"type":"Point"},"properties":{"osm_id":"2527784262","tag":{"denotation":"urban","leaf_cycle":"deciduous","leaf_type":"broadleaved","natural":"tree","species":"Quercus robur","species:it":"Farnia"}},"type":"Feature"},
	{"geometry":{"coordinates":[10.833737,44.526993],"type":"Point"},"properties":{"osm_id":"2527784263","tag":{"denotation":"urban","leaf_cycle":"deciduous","leaf_type":"broadleaved","natural":"tree","species":"Quercus robur","species:it":"Farnia"}},"type":"Feature"},
	{"geometry":{"coordinates":[10.833445,44.527006],"type":"Point"},"properties":{"osm_id":"2527784264","tag":{"denotation":"urban","leaf_cycle":"deciduous","leaf_type":"broadleaved","natural":"tree","species":"Quercus robur","species:it":"Farnia"}},"type":"Feature"},
	{"geometry":{"coordinates":[10.833495,44.527011],"type":"Point"},"properties":{"osm_id":"2527784265","tag":{"denotation":"urban","leaf_cycle":"deciduous","leaf_type":"broadleaved","natural":"tree","species":"Quercus robur","species:it":"Farnia"}},"type":"Feature"},
	{"geometry":{"coordinates":[10.833194,44.525592],"type":"Point"},"properties":{"osm_id":"2532586477","tag":{"denotation":"urban","genus":"Tilia","genus:it":"Tiglio","leaf_cycle":"deciduous","leaf_type":"broadleaved","natural":"tree"}},"type":"Feature"},
	{"geometry":{"coordinates":[10.833886,44.525599],"type":"Point"},"properties":{"osm_id":"2532586482","tag":{"denotation":"urban","genus":"Tilia","genus:it":"Tiglio","leaf_cycle":"deciduous","leaf_type":"broadleaved","natural":"tree"}},"type":"Feature"},
	{"geometry":{"coordinates":[10.833009,44.525608],"type":"Point"},"properties":{"osm_id":"2532586487","tag":{"denotation":"urban","genus":"Tilia","genus:it":"Tiglio","leaf_cycle":"deciduous","leaf_type":"broadleaved","natural":"tree"}},"type":"Feature"},
	{"geometry":{"coordinates":[10.832838,44.525622],"type":"Point"},"properties":{"osm_id":"2532586492","tag":{"denotation":"urban","genus":"Tilia","genus:it":"Tiglio","leaf_cycle":"deciduous","natural":"tree"}},"type":"Feature"},
	{"geometry":{"coordinates":[10.832701,44.525632],"type":"Point"},"properties":{"osm_id":"2532586497","tag":{"denotation":"urban","genus":"Tilia","genus:it":"Tiglio","leaf_cycle":"deciduous","natural":"tree"}},"type":"Feature"},
	{"geometry":{"coordinates":[10.832524,44.525647],"type":"Point"},"properties":{"osm_id":"2532586502","tag":{"denotation":"urban","genus":"Tilia","genus:it":"Tiglio","leaf_cycle":"deciduous","natural":"tree"}},"type":"Feature"},
	{"geometry":{"coordinates":[10.832358,44.525663],"type":"Point"},"properties":{"osm_id":"2532586506","tag":{"denotation":"urban","genus":"Tilia","genus:it":"Tiglio","leaf_cycle":"deciduous","natural":"tree"}},"type":"Feature"},
	{"geometry":{"coordinates":[10.83225,44.525743],"type":"Point"},"properties":{"osm_id":"2532586511","tag":{"denotation":"urban","genus":"Tilia","genus:it":"Tiglio","leaf_cycle":"deciduous","natural":"tree"}},"type":"Feature"},
	{"geometry":{"coordinates":[10.832672,44.525716],"type":"Point"},"properties":{"osm_id":"2533248520","tag":{"denotation":"urban","genus":"Cupressus","genus:it":"Cipresso","leaf_cycle":"evergreen","leaf_type":"needleleaved","natural":"tree"}},"type":"Feature"},
	{"geometry":{"coordinates":[10.832678,44.52575],"type":"Point"},"properties":{"osm_id":"2533248526","tag":{"denotation":"urban","genus":"Cupressus","genus:it":"Cipresso","leaf_cycle":"evergreen","leaf_type":"needleleaved","natural":"tree"}},"type":"Feature"},
	{"geometry":{"coordinates":[10.832573,44.525972],"type":"Point"},"properties":{"osm_id":"2533248531","tag":{"denotation":"urban","leaf_type":"needleleaved","name:botanical":"Picea","name:it":"Pino","natural":"tree"}},"type":"Feature"},
	{"geometry":{"coordinates":[10.832393,44.526007],"type":"Point"},"properties":{"osm_id":"2533248536","tag":{"denotation":"urban","genus":"Picea","genus:it":"Pino","leaf_cycle":"evergreen","leaf_type":"needleleaved","natural":"tree"}},"type":"Feature"},
	{"geometry":{"coordinates":[10.832441,44.526053],"type":"Point"},"properties":{"osm_id":"2533248541","tag":{"denotation":"urban","genus":"Picea","genus:it":"Pino","leaf_cycle":"evergreen","leaf_type":"needleleaved","natural":"tree"}},"type":"Feature"},
	{"geometry":{"coordinates":[10.832376,44.526093],"type":"Point"},"properties":{"osm_id":"2533248546","tag":{"denotation":"urban","genus":"Picea","genus:it":"Pino","leaf_cycle":"evergreen","leaf_type":"needleleaved","natural":"tree"}},"type":"Feature"},
	{"geometry":{"coordinates":[10.833302,44.525644],"type":"Point"},"properties":{"osm_id":"2533248550","tag":{"denotation":"urban","genus":"Tilia","genus:it":"Tiglio","leaf_cycle":"deciduous","leaf_type":"broadleaved","natural":"tree"}},"type":"Feature"},
	{"geometry":{"coordinates":[10.83328,44.525801],"type":"Point"},"properties":{"osm_id":"2533248555","tag":{"denotation":"urban","genus":"Tilia","genus:it":"Tiglio","leaf_cycle":"deciduous","leaf_type":"broadleaved","natural":"tree"}},"type":"Feature"},
	{"geometry":{"coordinates":[10.83274,44.525844],"type":"Point"},"properties":{"osm_id":"2533248559","tag":{"amenity":"bench","backrest":"yes","colour":"green","denotation":"urban","genus":"Tilia","genus:it":"Tiglio","leaf_cycle":"deciduous","material":"metal","natural":"tree","seats":"4"}},"type":"Feature"},
	{"geometry":{"coordinates":[10.832215,44.52586],"type":"Point"},"properties":{"osm_id":"2533248566","tag":{"amenity":"bench","backrest":"yes","colour":"green","denotation":"urban","genus":"Tilia","genus:it":"Tiglio","leaf_cycle":"deciduous","material":"metal","natural":"tree","seats":"4"}},"type":"Feature"},
	{"geometry":{"coordinates":[10.832866,44.525883],"type":"Point"},"properties":{"osm_id":"2533248577","tag":{"amenity":"bench","backrest":"yes","colour":"green","denotation":"urban","genus":"Tilia","genus:it":"Tiglio","leaf_cycle":"deciduous","leaf_type":"broadleaved","material":"metal","natural":"tree","seats":"4"}},"type":"Feature"},
	{"geometry":{"coordinates":[10.832708,44.52589],"type":"Point"},"properties":{"osm_id":"2533248579","tag":{"amenity":"bench","backrest":"yes","colour":"green","denotation":"urban","genus":"Tilia","genus:it":"Tiglio","leaf_cycle":"deciduous","material":"metal","natural":"tree","seats":"4"}},"type":"Feature"},
	{"geometry":{"coordinates":[10.833264,44.525906],"type":"Point"},"properties":{"osm_id":"2533248580","tag":{"denotation":"urban","genus":"Tilia","genus:it":"Tiglio","leaf_cycle":"deciduous","leaf_type":"broadleaved","natural":"tree"}},"type":"Feature"},
	{"geometry":{"coordinates":[10.832267,44.525941],"type":"Point"},"properties":{"osm_id":"2533248581","tag":{"amenity":"bench","backrest":"yes","colour":"green","denotation":"urban","genus":"Tilia","genus:it":"Tiglio","leaf_cycle":"deciduous","material":"metal","natural":"tree","seats":"4"}},"type":"Feature"},
	{"geometry":{"coordinates":[10.832826,44.525943],"type":"Point"},"properties":{"osm_id":"2533248582","tag":{"amenity":"bench","backrest":"yes","colour":"green","denotation":"urban","genus":"Tilia","genus:it":"Tiglio","leaf_cycle":"deciduous","leaf_type":"broadleaved","material":"metal","natural":"tree","seats":"4"}},"type":"Feature"},
	{"geometry":{"coordinates":[10.832181,44.525977],"type":"Point"},"properties":{"osm_id":"2533248583","tag":{"amenity":"bench","backrest":"yes","colour":"green","denotation":"urban","genus":"Tilia","genus:it":"Tiglio","leaf_cycle":"deciduous","material":"metal","natural":"tree","seats":"4"}},"type":"Feature"},
	{"geometry":{"coordinates":[10.832781,44.526001],"type":"Point"},"properties":{"osm_id":"2533248584","tag":{"amenity":"bench","backrest":"yes","colour":"green","denotation":"urban","genus":"Tilia","genus:it":"Tiglio","leaf_cycle":"deciduous","leaf_type":"broadleaved","material":"metal","natural":"tree","seats":"4"}},"type":"Feature"},
	{"geometry":{"coordinates":[10.833251,44.526003],"type":"Point"},"properties":{"osm_id":"2533248585","tag":{"denotation":"urban","genus":"Tilia","genus:it":"Tiglio","leaf_cycle":"deciduous","leaf_type":"broadleaved","natural":"tree"}},"type":"Feature"},
	{"geometry":{"coordinates":[10.832253,44.526032],"type":"Point"},"properties":{"osm_id":"2533248586","tag":{"amenity":"bench","backrest":"yes","colour":"green","denotation":"urban","genus":"Tilia","genus:it":"Tiglio","leaf_cycle":"deciduous","material":"metal","natural":"tree","seats":"4"}},"type":"Feature"},
	{"geometry":{"coordinates":[10.832781,44.526071],"type":"Point"},"properties":{"osm_id":"2533248587","tag":{"amenity":"bench","backrest":"yes","colour":"green","denotation":"urban","genus":"Tilia","genus:it":"Tiglio","leaf_cycle":"deciduous","leaf_type":"broadleaved","material":"metal","natural":"tree","seats":"4"}},"type":"Feature"},
	{"geometry":{"coordinates":[10.832155,44.52608],"type":"Point"},"properties":{"osm_id":"2533248588","tag":{"amenity":"bench","backrest":"yes","colour":"green","denotation":"urban","genus":"Tilia","genus:it":"Tiglio","leaf_cycle":"deciduous","material":"metal","natural":"tree","seats":"4"}},"type":"Feature"},
	{"geometry":{"coordinates":[10.83324,44.526087],"type":"Point"},"properties":{"osm_id":"2533248589","tag":{"denotation":"urban","genus":"Tilia","genus:it":"Tiglio","leaf_cycle":"deciduous","leaf_type":"broadleaved","natural":"tree"}},"type":"Feature"},
	{"geometry":{"coordinates":[10.832223,44.526113],"type":"Point"},"properties":{"osm_id":"2533248590","tag":{"amenity":"bench","backrest":"yes","colour":"green","denotation":"urban","genus":"Tilia","genus:it":"Tiglio","leaf_cycle":"deciduous","material":"metal","natural":"tree","seats":"4"}},"type":"Feature"},
	{"geometry":{"coordinates":[10.832796,44.526138],"type":"Point"},"properties":{"osm_id":"2533248591","tag":{"amenity":"bench","backrest":"yes","colour":"green","denotation":"urban","genus":"Tilia","genus:it":"Tiglio","leaf_cycle":"deciduous","leaf_type":"broadleaved","material":"metal","natural":"tree","seats":"4"}},"type":"Feature"},
	{"geometry":{"coordinates":[10.832816,44.526186],"type":"Point"},"properties":{"osm_id":"2533248592","tag":{"amenity":"bench","backrest":"yes","colour":"green","denotation":"urban","genus":"Tilia","genus:it":"Tiglio","leaf_cycle":"deciduous","leaf_type":"broadleaved","material":"metal","natural":"tree","seats":"4"}},"type":"Feature"},
	{"geometry":{"coordinates":[10.832341,44.526195],"type":"Point"},"properties":{"osm_id":"2533248593","tag":{"amenity":"bench","backrest":"yes","colour":"green","denotation":"urban","genus":"Tilia","genus:it":"Tiglio","leaf_cycle":"deciduous","material":"metal","natural":"tree","seats":"4"}},"type":"Feature"},
	{"geometry":{"coordinates":[10.832116,44.526217],"type":"Point"},"properties":{"osm_id":"2533248594","tag":{"amenity":"bench","backrest":"yes","colour":"green","denotation":"urban","genus":"Tilia","genus:it":"Tiglio","leaf_cycle":"deciduous","material":"metal","natural":"tree","seats":"4"}},"type":"Feature"},
	{"geometry":{"coordinates":[10.832838,44.526242],"type":"Point"},"properties":{"osm_id":"2533248595","tag":{"amenity":"bench","backrest":"yes","colour":"green","denotation":"urban","genus":"Tilia","genus:it":"Tiglio","leaf_cycle":"deciduous","leaf_type":"broadleaved","material":"metal","natural":"tree","seats":"4"}},"type":"Feature"},
	{"geometry":{"coordinates":[10.832093,44.526294],"type":"Point"},"properties":{"osm_id":"2533248596","tag":{"amenity":"bench","backrest":"yes","colour":"green","denotation":"urban","genus":"Tilia","genus:it":"Tiglio","leaf_cycle":"deciduous","material":"metal","natural":"tree","seats":"4"}},"type":"Feature"},
	{"geometry":{"coordinates":[10.832296,44.526294],"type":"Point"},"properties":{"osm_id":"2533248597","tag":{"amenity":"bench","backrest":"yes","colour":"green","denotation":"urban","genus":"Tilia","genus:it":"Tiglio","leaf_cycle":"deciduous","material":"metal","natural":"tree","seats":"4"}},"type":"Feature"},
	{"geometry":{"coordinates":[10.832844,44.526301],"type":"Point"},"properties":{"osm_id":"2533248599","tag":{"amenity":"bench","backrest":"yes","colour":"green","denotation":"urban","genus":"Tilia","genus:it":"Tiglio","leaf_cycle":"deciduous","leaf_type":"broadleaved","material":"metal","natural":"tree","seats":"4"}},"type":"Feature"},
	{"geometry":{"coordinates":[10.833198,44.526345],"type":"Point"},"properties":{"osm_id":"2533248600","tag":{"denotation":"urban","genus":"Tilia","genus:it":"Tiglio","leaf_cycle":"deciduous","leaf_type":"broadleaved","natural":"tree"}},"type":"Feature"},
	{"geometry":{"coordinates":[10.832038,44.526495],"type":"Point"},"properties":{"osm_id":"2533248601","tag":{"amenity":"bench","backrest":"yes","colour":"green","denotation":"urban","genus":"Tilia","genus:it":"Tiglio","leaf_cycle":"deciduous","material":"metal","natural":"tree","seats":"4"}},"type":"Feature"},
	{"geometry":{"coordinates":[10.833174,44.526544],"type":"Point"},"properties":{"osm_id":"2533248602","tag":{"denotation":"urban","genus":"Tilia","genus:it":"Tiglio","leaf_cycle":"deciduous","leaf_type":"broadleaved","natural":"tree"}},"type":"Feature"},
	{"geometry":{"coordinates":[10.832014,44.526593],"type":"Point"},"properties":{"osm_id":"2533248603","tag":{"amenity":"bench","backrest":"yes","colour":"green","denotation":"urban","genus":"Tilia","genus:it":"Tiglio","leaf_cycle":"deciduous","material":"metal","natural":"tree","seats":"4"}},"type":"Feature"},
	{"geometry":{"coordinates":[10.833161,44.526648],"type":"Point"},"properties":{"osm_id":"2533248604","tag":{"denotation":"urban","genus":"Tilia","genus:it":"Tiglio","leaf_cycle":"deciduous","leaf_type":"broadleaved","material":"metal","natural":"tree"}},"type":"Feature"},
	{"geometry":{"coordinates":[10.831991,44.526679],"type":"Point"},"properties":{"osm_id":"2533248605","tag":{"amenity":"bench","backrest":"yes","colour":"green","denotation":"urban","genus":"Tilia","genus:it":"Tiglio","leaf_cycle":"deciduous","material":"metal","natural":"tree","seats":"4"}},"type":"Feature"},
	{"geometry":{"coordinates":[10.833147,44.526711],"type":"Point"},"properties":{"osm_id":"2533248606","tag":{"denotation":"urban","genus":"Tilia","genus:it":"Tiglio","leaf_cycle":"deciduous","leaf_type":"broadleaved","natural":"tree"}},"type":"Feature"},
	{"geometry":{"coordinates":[10.831966,44.526772],"type":"Point"},"properties":{"osm_id":"2533248607","tag":{"amenity":"bench","backrest":"yes","colour":"green","denotation":"urban","genus":"Tilia","genus:it":"Tiglio","leaf_cycle":"deciduous","material":"metal","natural":"tree","seats":"4"}},"type":"Feature"},
	{"geometry":{"coordinates":[10.833027,44.526777],"type":"Point"},"properties":{"osm_id":"2533248608","tag":{"backrest":"yes","denotation":"urban","genus":"Tilia","genus:it":"Tiglio","leaf_cycle":"deciduous","leaf_type":"broadleaved","natural":"tree"}},"type":"Feature"},
	{"geometry":{"coordinates":[10.831942,44.526871],"type":"Point"},"properties":{"osm_id":"2533248609","tag":{"amenity":"bench","backrest":"yes","colour":"green","denotation":"urban","genus":"Tilia","genus:it":"Tiglio","leaf_cycle":"deciduous","material":"metal","natural":"tree","seats":"4"}},"type":"Feature"},
	{"geometry":{"coordinates":[10.831919,44.526963],"type":"Point"},"properties":{"osm_id":"2533248612","tag":{"amenity":"bench","backrest":"yes","colour":"green","denotation":"urban","genus":"Tilia","genus:it":"Tiglio","leaf_cycle":"deciduous","material":"metal","natural":"tree","seats":"4"}},"type":"Feature"},
	{"geometry":{"coordinates":[10.831893,44.527057],"type":"Point"},"properties":{"osm_id":"2533248618","tag":{"amenity":"bench","backrest":"yes","colour":"green","denotation":"urban","genus":"Tilia","genus:it":"Tiglio","leaf_cycle":"deciduous","material":"metal","natural":"tree","seats":"4"}},"type":"Feature"},
	{"geometry":{"coordinates":[10.831874,44.527137],"type":"Point"},"properties":{"osm_id":"2533248625","tag":{"amenity":"bench","backrest":"yes","colour":"green","denotation":"urban","genus":"Tilia","genus:it":"Tiglio","leaf_cycle":"deciduous","material":"metal","natural":"tree","seats":"4"}},"type":"Feature"},
	{"geometry":{"coordinates":[10.833096,44.52698],"type":"Point"},"properties":{"osm_id":"2533452248","tag":{"denotation":"urban","genus":"Tilia","genus:it":"Tiglio","leaf_cycle":"deciduous","leaf_type":"broadleaved","natural":"tree"}},"type":"Feature"},
	{"geometry":{"coordinates":[10.832997,44.527194],"type":"Point"},"properties":{"osm_id":"2533452250","tag":{"denotation":"urban","genus":"Tilia","genus:it":"Tiglio","leaf_cycle":"deciduous","leaf_type":"broadleaved","natural":"tree"}},"type":"Feature"},
	{"geometry":{"coordinates":[10.832945,44.527304],"type":"Point"},"properties":{"osm_id":"2533452251","tag":{"denotation":"urban","genus":"Tilia","genus:it":"Tiglio","leaf_cycle":"deciduous","leaf_type":"broadleaved","natural":"tree"}},"type":"Feature"},
	{"geometry":{"coordinates":[10.834043,44.526553],"type":"Point"},"properties":{"osm_id":"2533546828","tag":{"denotation":"urban","genus":"Tilia","genus:it":"Tiglio","leaf_cycle":"deciduous","leaf_type":"broadleaved","natural":"tree"}},"type":"Feature"},
	{"geometry":{"coordinates":[10.834,44.526588],"type":"Point"},"properties":{"osm_id":"2533546829","tag":{"denotation":"urban","genus":"Tilia","genus:it":"Tiglio","leaf_cycle":"deciduous","leaf_type":"broadleaved","natural":"tree"}},"type":"Feature"},
	{"geometry":{"coordinates":[10.834,44.526633],"type":"Point"},"properties":{"osm_id":"2533546830","tag":{"denotation":"urban","genus":"Tilia","genus:it":"Tiglio","leaf_cycle":"deciduous","leaf_type":"broadleaved","natural":"tree"}},"type":"Feature"},
	{"geometry":{"coordinates":[10.83399,44.526695],"type":"Point"},"properties":{"osm_id":"2533546831","tag":{"denotation":"urban","genus":"Tilia","genus:it":"Tiglio","leaf_cycle":"deciduous","leaf_type":"broadleaved","natural":"tree"}},"type":"Feature"},
	{"geometry":{"coordinates":[10.833993,44.526759],"type":"Point"},"properties":{"osm_id":"2533546832","tag":{"denotation":"urban","genus":"Tilia","genus:it":"Tiglio","leaf_cycle":"deciduous","leaf_type":"broadleaved","natural":"tree"}},"type":"Feature"},
	{"geometry":{"coordinates":[10.834079,44.526829],"type":"Point"},"properties":{"osm_id":"2533546833","tag":{"denotation":"urban","genus":"Tilia","genus:it":"Tiglio","leaf_cycle":"deciduous","leaf_type":"broadleaved","natural":"tree"}},"type":"Feature"},
	{"geometry":{"coordinates":[10.834659,44.526841],"type":"Point"},"properties":{"osm_id":"2533546836","tag":{"denotation":"urban","genus":"Tilia","genus:it":"Tiglio","leaf_cycle":"deciduous","leaf_type":"broadleaved","natural":"tree"}},"type":"Feature"},
	{"geometry":{"coordinates":[10.834157,44.526846],"type":"Point"},"properties":{"osm_id":"2533546837","tag":{"denotation":"urban","genus":"Tilia","genus:it":"Tiglio","leaf_cycle":"deciduous","leaf_type":"broadleaved","natural":"tree"}},"type":"Feature"},
	{"geometry":{"coordinates":[10.834221,44.526848],"type":"Point"},"properties":{"osm_id":"2533546839","tag":{"denotation":"urban","genus":"Tilia","genus:it":"Tiglio","leaf_cycle":"deciduous","leaf_type":"broadleaved","natural":"tree"}},"type":"Feature"},
	{"geometry":{"coordinates":[10.834306,44.526851],"type":"Point"},"properties":{"osm_id":"2533546840","tag":{"denotation":"urban","genus":"Tilia","genus:it":"Tiglio","leaf_cycle":"deciduous","leaf_type":"broadleaved","natural":"tree"}},"type":"Feature"},
	{"geometry":{"coordinates":[10.834435,44.526854],"type":"Point"},"properties":{"osm_id":"2533546841","tag":{"denotation":"urban","genus":"Tilia","genus:it":"Tiglio","leaf_cycle":"deciduous","leaf_type":"broadleaved","natural":"tree"}},"type":"Feature"},
	{"geometry":{"coordinates":[10.834575,44.526859],"type":"Point"},"properties":{"osm_id":"2533546842","tag":{"denotation":"urban","genus":"Tilia","genus:it":"Tiglio","leaf_cycle":"deciduous","leaf_type":"broadleaved","natural":"tree"}},"type":"Feature"},
	{"geometry":{"coordinates":[10.834408,44.527021],"type":"Point"},"properties":{"osm_id":"2533845189","tag":{"denotation":"urban","leaf_cycle":"deciduous","leaf_type":"broadleaved","natural":"tree","species":"Aesculus hippocastanum","species:it":"Ippocastano"}},"type":"Feature"},
	{"geometry":{"coordinates":[10.834504,44.527032],"type":"Point"},"properties":{"osm_id":"2533845194","tag":{"denotation":"urban","leaf_cycle":"deciduous","leaf_type":"broadleaved","natural":"tree","species":"Aesculus hippocastanum","species:it":"Ippocastano"}},"type":"Feature"},
	{"geometry":{"coordinates":[10.834605,44.52704],"type":"Point"},"properties":{"osm_id":"2533845199","tag":{"denotation":"urban","leaf_cycle":"deciduous","leaf_type":"broadleaved","natural":"tree","species":"Aesculus hippocastanum","species:it":"Ippocastano"}},"type":"Feature"},
	{"geometry":{"coordinates":[10.834391,44.527058],"type":"Point"},"properties":{"osm_id":"2533845204","tag":{"denotation":"urban","leaf_cycle":"deciduous","leaf_type":"broadleaved","natural":"tree","species":"Aesculus hippocastanum","species:it":"Ippocastano"}},"type":"Feature"},
	{"geometry":{"coordinates":[10.834086,44.527068],"type":"Point"},"properties":{"osm_id":"2533845209","tag":{"denotation":"urban","leaf_cycle":"deciduous","leaf_type":"broadleaved","natural":"tree","species":"Aesculus hippocastanum","species:it":"Ippocastano"}},"type":"Feature"},
	{"geometry":{"coordinates":[10.83447,44.527068],"type":"Point"},"properties":{"osm_id":"2533845213","tag":{"denotation":"urban","leaf_cycle":"deciduous","leaf_type":"broadleaved","natural":"tree","species":"Aesculus hippocastanum","species:it":"Ippocastano"}},"type":"Feature"},
	{"geometry":{"coordinates":[10.834155,44.527081],"type":"Point"},"properties":{"osm_id":"2533845218","tag":{"denotation":"urban","leaf_cycle":"deciduous","leaf_type":"broadleaved","natural":"tree","species":"Aesculus hippocastanum","species:it":"Ippocastano"}},"type":"Feature"},
	{"geometry":{"coordinates":[10.834245,44.527095],"type":"Point"},"properties":{"osm_id":"2533845223","tag":{"denotation":"urban","leaf_cycle":"deciduous","leaf_type":"broadleaved","natural":"tree","species":"Aesculus hippocastanum","species:it":"Ippocastano"}},"type":"Feature"},
	{"geometry":{"coordinates":[10.834433,44.527095],"type":"Point"},"properties":{"osm_id":"2533845228","tag":{"denotation":"urban","leaf_cycle":"deciduous","leaf_type":"broadleaved","natural":"tree","species":"Aesculus hippocastanum","species:it":"Ippocastano"}},"type":"Feature"},
	{"geometry":{"coordinates":[10.834316,44.527109],"type":"Point"},"properties":{"osm_id":"2533845233","tag":{"denotation":"urban","leaf_cycle":"deciduous","leaf_type":"broadleaved","natural":"tree","species":"Aesculus hippocastanum","species:it":"Ippocastano"}},"type":"Feature"},
	{"geometry":{"coordinates":[10.834383,44.527122],"type":"Point"},"properties":{"osm_id":"2533845236","tag":{"denotation":"urban","leaf_cycle":"deciduous","leaf_type":"broadleaved","natural":"tree","species":"Aesculus hippocastanum","species:it":"Ippocastano"}},"type":"Feature"},
	{"geometry":{"coordinates":[10.834461,44.527143],"type":"Point"},"properties":{"osm_id":"2533845237","tag":{"denotation":"urban","leaf_cycle":"deciduous","leaf_type":"broadleaved","natural":"tree","species":"Aesculus hippocastanum","species:it":"Ippocastano"}},"type":"Feature"},
	{"geometry":{"coordinates":[10.835381,44.524934],"type":"Point"},"properties":{"osm_id":"2536050633","tag":{"denotation":"urban","leaf_cycle":"deciduous","natural":"tree","species":"Aesculus hippocastanum","species:it":"Ippocastano"}},"type":"Feature"},
	{"geometry":{"coordinates":[10.835441,44.525057],"type":"Point"},"properties":{"osm_id":"2536050639","tag":{"denotation":"urban","leaf_cycle":"deciduous","natural":"tree","species":"Aesculus hippocastanum","species:it":"Ippocastano"}},"type":"Feature"},
	{"geometry":{"coordinates":[10.835531,44.525234],"type":"Point"},"properties":{"osm_id":"2536050644","tag":{"denotation":"urban","leaf_cycle":"deciduous","natural":"tree","species":"Aesculus hippocastanum","species:it":"Ippocastano"}},"type":"Feature"},
	{"geometry":{"coordinates":[10.835494,44.525499],"type":"Point"},"properties":{"osm_id":"2536050649","tag":{"denotation":"urban","leaf_cycle":"deciduous","natural":"tree","species":"Aesculus hippocastanum","species:it":"Ippocastano"}},"type":"Feature"},
	{"geometry":{"coordinates":[10.83546,44.525719],"type":"Point"},"properties":{"osm_id":"2536050654","tag":{"denotation":"urban","leaf_cycle":"deciduous","natural":"tree","species":"Aesculus hippocastanum","species:it":"Ippocastano"}},"type":"Feature"},
	{"geometry":{"coordinates":[10.83545,44.52579],"type":"Point"},"properties":{"osm_id":"2536050658","tag":{"denotation":"urban","leaf_cycle":"deciduous","natural":"tree","species":"Aesculus hippocastanum","species:it":"Ippocastano"}},"type":"Feature"},
	{"geometry":{"coordinates":[10.835422,44.525968],"type":"Point"},"properties":{"osm_id":"2536050659","tag":{"denotation":"urban","leaf_cycle":"deciduous","natural":"tree","species":"Aesculus hippocastanum","species:it":"Ippocastano"}},"type":"Feature"},
	{"geometry":{"coordinates":[10.835408,44.526078],"type":"Point"},"properties":{"osm_id":"2536050669","tag":{"denotation":"urban","leaf_cycle":"deciduous","natural":"tree","species":"Aesculus hippocastanum","species:it":"Ippocastano"}},"type":"Feature"},
	{"geometry":{"coordinates":[10.835323,44.52619],"type":"Point"},"properties":{"osm_id":"2536050674","tag":{"denotation":"urban","leaf_cycle":"deciduous","natural":"tree","species":"Aesculus hippocastanum","species:it":"Ippocastano"}},"type":"Feature"},
	{"geometry":{"coordinates":[10.835351,44.52631],"type":"Point"},"properties":{"osm_id":"2536050679","tag":{"denotation":"urban","leaf_cycle":"deciduous","natural":"tree","species":"Aesculus hippocastanum","species:it":"Ippocastano"}},"type":"Feature"},
	{"geometry":{"coordinates":[10.835335,44.526424],"type":"Point"},"properties":{"osm_id":"2536050682","tag":{"denotation":"urban","leaf_cycle":"deciduous","natural":"tree","species":"Aesculus hippocastanum","species:it":"Ippocastano"}},"type":"Feature"},
	{"geometry":{"coordinates":[10.835309,44.526599],"type":"Point"},"properties":{"osm_id":"2536050683","tag":{"denotation":"urban","leaf_cycle":"deciduous","natural":"tree","species":"Aesculus hippocastanum","species:it":"Ippocastano"}},"type":"Feature"},
	{"geometry":{"coordinates":[10.835289,44.526728],"type":"Point"},"properties":{"osm_id":"2536050684","tag":{"denotation":"urban","leaf_cycle":"deciduous","natural":"tree","species":"Aesculus hippocastanum","species:it":"Ippocastano"}},"type":"Feature"},
	{"geometry":{"coordinates":[10.835267,44.52687],"type":"Point"},"properties":{"osm_id":"2536050686","tag":{"denotation":"urban","leaf_cycle":"deciduous","natural":"tree","species":"Aesculus hippocastanum","species:it":"Ippocastano"}},"type":"Feature"},
	{"geometry":{"coordinates":[10.834336,44.525602],"type":"Point"},"properties":{"osm_id":"2537039221","tag":{"denotation":"urban","leaf_cycle":"deciduous","leaf_type":"broadleaved","natural":"tree","species":"Aesculus hippocastanum","species:it":"Ippocastano"}},"type":"Feature"},
	{"geometry":{"coordinates":[10.834167,44.525606],"type":"Point"},"properties":{"osm_id":"2537039228","tag":{"denotation":"urban","leaf_cycle":"deciduous","leaf_type":"broadleaved","natural":"tree","species":"Aesculus hippocastanum","species:it":"Ippocastano"}},"type":"Feature"},
	{"geometry":{"coordinates":[10.834646,44.52561],"type":"Point"},"properties":{"osm_id":"2537039233","tag":{"denotation":"urban","leaf_cycle":"deciduous","leaf_type":"broadleaved","natural":"tree","species":"Aesculus hippocastanum","species:it":"Ippocastano"}},"type":"Feature"},
	{"geometry":{"coordinates":[10.834838,44.525615],"type":"Point"},"properties":{"osm_id":"2537039234","tag":{"denotation":"urban","leaf_cycle":"deciduous","leaf_type":"broadleaved","natural":"tree","species":"Aesculus hippocastanum","species:it":"Ippocastano"}},"type":"Feature"},
	{"geometry":{"coordinates":[10.835156,44.525617],"type":"Point"},"properties":{"osm_id":"2537039243","tag":{"denotation":"urban","leaf_cycle":"deciduous","natural":"tree","species":"Aesculus hippocastanum","species:it":"Ippocastano"}},"type":"Feature"},
	{"geometry":{"coordinates":[10.835324,44.525619],"type":"Point"},"properties":{"osm_id":"2537039248","tag":{"denotation":"urban","leaf_cycle":"deciduous","natural":"tree","species":"Aesculus hippocastanum","species:it":"Ippocastano"}},"type":"Feature"},
	{"geometry":{"coordinates":[10.834095,44.525679],"type":"Point"},"properties":{"osm_id":"2537039253","tag":{"denotation":"urban","leaf_cycle":"deciduous","leaf_type":"broadleaved","natural":"tree","species":"Aesculus hippocastanum","species:it":"Ippocastano"}},"type":"Feature"},
	{"geometry":{"coordinates":[10.834029,44.526057],"type":"Point"},"properties":{"osm_id":"2537039258","tag":{"denotation":"urban","leaf_cycle":"deciduous","leaf_type":"broadleaved","natural":"tree","species":"Aesculus hippocastanum","species:it":"Ippocastano"}},"type":"Feature"},
	{"geometry":{"coordinates":[10.834013,44.52617],"type":"Point"},"properties":{"osm_id":"2537039263","tag":{"denotation":"urban","leaf_cycle":"deciduous","leaf_type":"broadleaved","natural":"tree","species":"Aesculus hippocastanum","species:it":"Ippocastano"}},"type":"Feature"},
	{"geometry":{"coordinates":[10.834002,44.526285],"type":"Point"},"properties":{"osm_id":"2537039268","tag":{"denotation":"urban","leaf_cycle":"deciduous","leaf_type":"broadleaved","natural":"tree","species":"Aesculus hippocastanum","species:it":"Ippocastano"}},"type":"Feature"},
	{"geometry":{"coordinates":[10.839498,44.527822],"type":"Point"},"properties":{"osm_id":"2553879653","tag":{"denotation":"urban","genus":"Tilia","genus:it":"Tiglio","leaf_cycle":"deciduous","natural":"tree"}},"type":"Feature"},
	{"geometry":{"coordinates":[10.839673,44.527825],"type":"Point"},"properties":{"osm_id":"2553879654","tag":{"denotation":"urban","genus":"Tilia","genus:it":"Tiglio","leaf_cycle":"deciduous","natural":"tree"}},"type":"Feature"},
	{"geometry":{"coordinates":[10.839436,44.527835],"type":"Point"},"properties":{"osm_id":"2553879655","tag":{"denotation":"urban","genus":"Tilia","genus:it":"Tiglio","leaf_cycle":"deciduous","natural":"tree"}},"type":"Feature"},
	{"geometry":{"coordinates":[10.840533,44.527305],"type":"Point"},"properties":{"osm_id":"2557008805","tag":{"denotation":"urban","genus":"Cupressus","genus:it":"Cipresso","leaf_cycle":"evergreen","leaf_type":"needleleaved","natural":"tree"}},"type":"Feature"},
	{"geometry":{"coordinates":[10.841117,44.527319],"type":"Point"},"properties":{"osm_id":"2557008811","tag":{"denotation":"urban","genus":"Cupressus","genus:it":"Cipresso","leaf_cycle":"evergreen","leaf_type":"needleleaved","natural":"tree"}},"type":"Feature"},
	{"geometry":{"coordinates":[10.841106,44.527323],"type":"Point"},"properties":{"osm_id":"2557008817","tag":{"denotation":"urban","genus":"Cupressus","genus:it":"Cipresso","leaf_cycle":"evergreen","leaf_type":"needleleaved","natural":"tree"}},"type":"Feature"},
	{"geometry":{"coordinates":[10.84109,44.527328],"type":"Point"},"properties":{"osm_id":"2557008823","tag":{"denotation":"urban","genus":"Cupressus","genus:it":"Cipresso","leaf_cycle":"evergreen","leaf_type":"needleleaved","natural":"tree"}},"type":"Feature"},
	{"geometry":{"coordinates":[10.840549,44.52733],"type":"Point"},"properties":{"osm_id":"2557008829","tag":{"denotation":"urban","genus":"Cupressus","genus:it":"Cipresso","leaf_cycle":"evergreen","leaf_type":"needleleaved","natural":"tree"}},"type":"Feature"},
	{"geometry":{"coordinates":[10.841072,44.527334],"type":"Point"},"properties":{"osm_id":"2557008834","tag":{"denotation":"urban","genus":"Cupressus","genus:it":"Cipresso","leaf_cycle":"evergreen","leaf_type":"needleleaved","natural":"tree"}},"type":"Feature"},
	{"geometry":{"coordinates":[10.841057,44.527339],"type":"Point"},"properties":{"osm_id":"2557008835","tag":{"denotation":"urban","genus":"Cupressus","genus:it":"Cipresso","leaf_cycle":"evergreen","leaf_type":"needleleaved","natural":"tree"}},"type":"Feature"},
	{"geometry":{"coordinates":[10.84104,44.527345],"type":"Point"},"properties":{"osm_id":"2557008837","tag":{"denotation":"urban","genus":"Cupressus","genus:it":"Cipresso","leaf_cycle":"evergreen","leaf_type":"needleleaved","natural":"tree"}},"type":"Feature"},
	{"geometry":{"coordinates":[10.840558,44.527349],"type":"Point"},"properties":{"osm_id":"2557008838","tag":{"denotation":"urban","genus":"Cupressus","genus:it":"Cipresso","leaf_cycle":"evergreen","leaf_type":"needleleaved","natural":"tree"}},"type":"Feature"},
	{"geometry":{"coordinates":[10.841026,44.52735],"type":"Point"},"properties":{"osm_id":"2557008839","tag":{"denotation":"urban","genus":"Cupressus","genus:it":"Cipresso","leaf_cycle":"evergreen","leaf_type":"needleleaved","natural":"tree"}},"type":"Feature"},
	{"geometry":{"coordinates":[10.841009,44.527356],"type":"Point"},"properties":{"osm_id":"2557008840","tag":{"denotation":"urban","genus":"Cupressus","genus:it":"Cipresso","leaf_cycle":"evergreen","leaf_type":"needleleaved","natural":"tree"}},"type":"Feature"},
	{"geometry":{"coordinates":[10.840993,44.527361],"type":"Point"},"properties":{"osm_id":"2557008842","tag":{"denotation":"urban","genus":"Cupressus","genus:it":"Cipresso","leaf_cycle":"evergreen","leaf_type":"needleleaved","natural":"tree"}},"type":"Feature"},
	{"geometry":{"coordinates":[10.840976,44.527367],"type":"Point"},"properties":{"osm_id":"2557008843","tag":{"denotation":"urban","genus":"Cupressus","genus:it":"Cipresso","leaf_cycle":"evergreen","leaf_type":"needleleaved","natural":"tree"}},"type":"Feature"},
	{"geometry":{"coordinates":[10.84096,44.527373],"type":"Point"},"properties":{"osm_id":"2557008844","tag":{"denotation":"urban","genus":"Cupressus","genus:it":"Cipresso","leaf_cycle":"evergreen","leaf_type":"needleleaved","natural":"tree"}},"type":"Feature"},
	{"geometry":{"coordinates":[10.840943,44.527379],"type":"Point"},"properties":{"osm_id":"2557008845","tag":{"denotation":"urban","genus":"Cupressus","genus:it":"Cipresso","leaf_cycle":"evergreen","leaf_type":"needleleaved","natural":"tree"}},"type":"Feature"},
	{"geometry":{"coordinates":[10.840924,44.527385],"type":"Point"},"properties":{"osm_id":"2557008846","tag":{"denotation":"urban","genus":"Cupressus","genus:it":"Cipresso","leaf_cycle":"evergreen","leaf_type":"needleleaved","natural":"tree"}},"type":"Feature"},
	{"geometry":{"coordinates":[10.84091,44.52739],"type":"Point"},"properties":{"osm_id":"2557008847","tag":{"denotation":"urban","genus":"Cupressus","genus:it":"Cipresso","leaf_cycle":"evergreen","leaf_type":"needleleaved","natural":"tree"}},"type":"Feature"},
	{"geometry":{"coordinates":[10.840892,44.527396],"type":"Point"},"properties":{"osm_id":"2557008848","tag":{"denotation":"urban","genus":"Cupressus","genus:it":"Cipresso","leaf_cycle":"evergreen","leaf_type":"needleleaved","natural":"tree"}},"type":"Feature"},
	{"geometry":{"coordinates":[10.840872,44.527403],"type":"Point"},"properties":{"osm_id":"2557008849","tag":{"denotation":"urban","genus":"Cupressus","genus:it":"Cipresso","leaf_cycle":"evergreen","leaf_type":"needleleaved","natural":"tree"}},"type":"Feature"},
	{"geometry":{"coordinates":[10.840535,44.527419],"type":"Point"},"properties":{"osm_id":"2557008850","tag":{"denotation":"urban","genus":"Cupressus","genus:it":"Cipresso","leaf_cycle":"evergreen","leaf_type":"needleleaved","natural":"tree"}},"type":"Feature"},
	{"geometry":{"coordinates":[10.840564,44.527435],"type":"Point"},"properties":{"osm_id":"2557008851","tag":{"denotation":"urban","genus":"Cupressus","genus:it":"Cipresso","leaf_cycle":"evergreen","leaf_type":"needleleaved","natural":"tree"}},"type":"Feature"},
	{"geometry":{"coordinates":[10.840734,44.527563],"type":"Point"},"properties":{"osm_id":"2557008852","tag":{"denotation":"urban","genus":"Cupressus","genus:it":"Cipresso","leaf_cycle":"evergreen","leaf_type":"needleleaved","natural":"tree"}},"type":"Feature"},
	{"geometry":{"coordinates":[10.840806,44.527569],"type":"Point"},"properties":{"osm_id":"2557008853","tag":{"denotation":"urban","genus":"Cupressus","genus:it":"Cipresso","leaf_cycle":"evergreen","leaf_type":"needleleaved","natural":"tree"}},"type":"Feature"},
	{"geometry":{"coordinates":[10.840852,44.527577],"type":"Point"},"properties":{"osm_id":"2557008854","tag":{"denotation":"urban","genus":"Cupressus","genus:it":"Cipresso","leaf_cycle":"evergreen","leaf_type":"needleleaved","natural":"tree"}},"type":"Feature"},
	{"geometry":{"coordinates":[10.840916,44.527596],"type":"Point"},"properties":{"osm_id":"2557008855","tag":{"denotation":"urban","genus":"Cupressus","genus:it":"Cipresso","leaf_cycle":"evergreen","leaf_type":"needleleaved","natural":"tree"}},"type":"Feature"},
	{"geometry":{"coordinates":[10.84096,44.527612],"type":"Point"},"properties":{"osm_id":"2557008856","tag":{"denotation":"urban","genus":"Cupressus","genus:it":"Cipresso","leaf_cycle":"evergreen","leaf_type":"needleleaved","natural":"tree"}},"type":"Feature"},
	{"geometry":{"coordinates":[10.841009,44.52764],"type":"Point"},"properties":{"osm_id":"2557008857","tag":{"denotation":"urban","genus":"Cupressus","genus:it":"Cipresso","leaf_cycle":"evergreen","leaf_type":"needleleaved","natural":"tree"}},"type":"Feature"},
	{"geometry":{"coordinates":[10.841061,44.527666],"type":"Point"},"properties":{"osm_id":"2557008858","tag":{"denotation":"urban","genus":"Cupressus","genus:it":"Cipresso","leaf_cycle":"evergreen","leaf_type":"needleleaved","natural":"tree"}},"type":"Feature"},
	{"geometry":{"coordinates":[10.841104,44.527692],"type":"Point"},"properties":{"osm_id":"2557008859","tag":{"denotation":"urban","genus":"Cupressus","genus:it":"Cipresso","leaf_cycle":"evergreen","leaf_type":"needleleaved","natural":"tree"}},"type":"Feature"},
	{"geometry":{"coordinates":[10.84115,44.527713],"type":"Point"},"properties":{"osm_id":"2557008860","tag":{"denotation":"urban","genus":"Cupressus","genus:it":"Cipresso","leaf_cycle":"evergreen","leaf_type":"needleleaved","natural":"tree"}},"type":"Feature"},
	{"geometry":{"coordinates":[10.841187,44.527737],"type":"Point"},"properties":{"osm_id":"2557008861","tag":{"denotation":"urban","genus":"Cupressus","genus:it":"Cipresso","leaf_cycle":"evergreen","leaf_type":"needleleaved","natural":"tree"}},"type":"Feature"},
	{"geometry":{"coordinates":[10.840428,44.527448],"type":"Point"},"properties":{"osm_id":"2557008868","tag":{"denotation":"urban","genus":"Tilia","genus:it":"Tiglio","leaf_cycle":"deciduous","natural":"tree"}},"type":"Feature"},
	{"geometry":{"coordinates":[10.841267,44.527478],"type":"Point"},"properties":{"osm_id":"2557008873","tag":{"denotation":"urban","genus":"Tilia","genus:it":"Tiglio","leaf_cycle":"deciduous","natural":"tree"}},"type":"Feature"},
	{"geometry":{"coordinates":[10.841217,44.527495],"type":"Point"},"properties":{"osm_id":"2557008878","tag":{"denotation":"urban","genus":"Tilia","genus:it":"Tiglio","leaf_cycle":"deciduous","natural":"tree"}},"type":"Feature"},
	{"geometry":{"coordinates":[10.84131,44.527512],"type":"Point"},"properties":{"osm_id":"2557008882","tag":{"denotation":"urban","genus":"Tilia","genus:it":"Tiglio","leaf_cycle":"deciduous","natural":"tree"}},"type":"Feature"},
	{"geometry":{"coordinates":[10.841165,44.527515],"type":"Point"},"properties":{"osm_id":"2557008887","tag":{"denotation":"urban","genus":"Tilia","genus:it":"Tiglio","leaf_cycle":"deciduous","natural":"tree"}},"type":"Feature"},
	{"geometry":{"coordinates":[10.841104,44.527534],"type":"Point"},"properties":{"osm_id":"2557008891","tag":{"denotation":"urban","genus":"Tilia","genus:it":"Tiglio","leaf_cycle":"deciduous","natural":"tree"}},"type":"Feature"},
	{"geometry":{"coordinates":[10.841244,44.527539],"type":"Point"},"properties":{"osm_id":"2557008895","tag":{"denotation":"urban","genus":"Tilia","genus:it":"Tiglio","leaf_cycle":"deciduous","natural":"tree"}},"type":"Feature"},
	{"geometry":{"coordinates":[10.841195,44.527556],"type":"Point"},"properties":{"osm_id":"2557008900","tag":{"denotation":"urban","genus":"Tilia","genus:it":"Tiglio","leaf_cycle":"deciduous","natural":"tree"}},"type":"Feature"},
	{"geometry":{"coordinates":[10.841135,44.527575],"type":"Point"},"properties":{"osm_id":"2557008905","tag":{"denotation":"urban","genus":"Tilia","genus:it":"Tiglio","leaf_cycle":"deciduous","natural":"tree"}},"type":"Feature"},
	{"geometry":{"coordinates":[10.842204,44.527518],"type":"Point"},"properties":{"osm_id":"2565038799","tag":{"denotation":"urban","genus":"Tilia","genus:it":"Tiglio","leaf_cycle":"deciduous","natural":"tree"}},"type":"Feature"},
	{"geometry":{"coordinates":[10.842265,44.527602],"type":"Point"},"properties":{"osm_id":"2565038810","tag":{"denotation":"urban","genus":"Tilia","genus:it":"Tiglio","leaf_cycle":"deciduous","natural":"tree"}},"type":"Feature"},
	{"geometry":{"coordinates":[10.842307,44.527628],"type":"Point"},"properties":{"osm_id":"2565038817","tag":{"denotation":"urban","genus":"Tilia","genus:it":"Tiglio","leaf_cycle":"deciduous","natural":"tree"}},"type":"Feature"},
	{"geometry":{"coordinates":[10.842197,44.527641],"type":"Point"},"properties":{"osm_id":"2565038824","tag":{"denotation":"urban","genus":"Tilia","genus:it":"Tiglio","leaf_cycle":"deciduous","natural":"tree"}},"type":"Feature"},
	{"geometry":{"coordinates":[10.84211,44.52765],"type":"Point"},"properties":{"osm_id":"2565038830","tag":{"denotation":"urban","genus":"Tilia","genus:it":"Tiglio","leaf_cycle":"deciduous","natural":"tree"}},"type":"Feature"},
	{"geometry":{"coordinates":[10.841238,44.527654],"type":"Point"},"properties":{"osm_id":"2565038838","tag":{"denotation":"urban","genus":"Tilia","genus:it":"Tiglio","leaf_cycle":"deciduous","natural":"tree"}},"type":"Feature"},
	{"geometry":{"coordinates":[10.842029,44.52766],"type":"Point"},"properties":{"osm_id":"2565038858","tag":{"denotation":"urban","genus":"Tilia","genus:it":"Tiglio","leaf_cycle":"deciduous","natural":"tree"}},"type":"Feature"},
	{"geometry":{"coordinates":[10.841964,44.527667],"type":"Point"},"properties":{"osm_id":"2565038869","tag":{"denotation":"urban","genus":"Tilia","genus:it":"Tiglio","leaf_cycle":"deciduous","natural":"tree"}},"type":"Feature"},
	{"geometry":{"coordinates":[10.841894,44.527675],"type":"Point"},"properties":{"osm_id":"2565038878","tag":{"denotation":"urban","genus":"Tilia","genus:it":"Tiglio","leaf_cycle":"deciduous","natural":"tree"}},"type":"Feature"},
	{"geometry":{"coordinates":[10.841289,44.527681],"type":"Point"},"properties":{"osm_id":"2565038887","tag":{"denotation":"urban","genus":"Tilia","genus:it":"Tiglio","leaf_cycle":"deciduous","natural":"tree"}},"type":"Feature"},
	{"geometry":{"coordinates":[10.841751,44.527685],"type":"Point"},"properties":{"osm_id":"2565038899","tag":{"denotation":"urban","genus":"Tilia","genus:it":"Tiglio","leaf_cycle":"deciduous","natural":"tree"}},"type":"Feature"},
	{"geometry":{"coordinates":[10.841658,44.527695],"type":"Point"},"properties":{"osm_id":"2565038913","tag":{"denotation":"urban","genus":"Tilia","genus:it":"Tiglio","leaf_cycle":"deciduous","natural":"tree"}},"type":"Feature"},
	{"geometry":{"coordinates":[10.841358,44.527704],"type":"Point"},"properties":{"osm_id":"2565038927","tag":{"denotation":"urban","genus":"Tilia","genus:it":"Tiglio","leaf_cycle":"deciduous","natural":"tree"}},"type":"Feature"},
	{"geometry":{"coordinates":[10.841523,44.527712],"type":"Point"},"properties":{"osm_id":"2565038940","tag":{"denotation":"urban","genus":"Tilia","genus:it":"Tiglio","leaf_cycle":"deciduous","natural":"tree"}},"type":"Feature"},
	{"geometry":{"coordinates":[10.841441,44.527715],"type":"Point"},"properties":{"osm_id":"2565038956","tag":{"denotation":"urban","genus":"Tilia","genus:it":"Tiglio","leaf_cycle":"deciduous","natural":"tree"}},"type":"Feature"},
	{"geometry":{"coordinates":[10.840098,44.526418],"type":"Point"},"properties":{"osm_id":"2566372584","tag":{"denotation":"urban","leaf_cycle":"deciduous","leaf_type":"broadleaved","natural":"tree","species":"Quercus robur","species:it":"Farnia"}},"type":"Feature"},
	{"geometry":{"coordinates":[10.840274,44.526457],"type":"Point"},"properties":{"osm_id":"2566372585","tag":{"denotation":"urban","leaf_cycle":"deciduous","leaf_type":"broadleaved","natural":"tree","species":"Quercus robur","species:it":"Farnia"}},"type":"Feature"},
	{"geometry":{"coordinates":[10.84001,44.526506],"type":"Point"},"properties":{"osm_id":"2566372586","tag":{"denotation":"urban","leaf_cycle":"deciduous","leaf_type":"broadleaved","natural":"tree","species":"Quercus robur","species:it":"Farnia"}},"type":"Feature"},
	{"geometry":{"coordinates":[10.840126,44.526523],"type":"Point"},"properties":{"osm_id":"2566372587","tag":{"denotation":"urban","leaf_cycle":"deciduous","leaf_type":"broadleaved","natural":"tree","species":"Quercus robur","species:it":"Farnia"}},"type":"Feature"},
	{"geometry":{"coordinates":[10.839876,44.526638],"type":"Point"},"properties":{"osm_id":"2566372588","tag":{"denotation":"urban","leaf_cycle":"deciduous","leaf_type":"broadleaved","natural":"tree","species":"Quercus robur","species:it":"Farnia"}},"type":"Feature"},
	{"geometry":{"coordinates":[10.839921,44.526668],"type":"Point"},"properties":{"osm_id":"2566372590","tag":{"denotation":"urban","leaf_cycle":"deciduous","leaf_type":"broadleaved","natural":"tree","species":"Quercus robur","species:it":"Farnia"}},"type":"Feature"},
	{"geometry":{"coordinates":[10.839881,44.526714],"type":"Point"},"properties":{"osm_id":"2566372595","tag":{"denotation":"urban","leaf_cycle":"deciduous","leaf_type":"broadleaved","natural":"tree","species":"Quercus robur","species:it":"Farnia"}},"type":"Feature"},
	{"geometry":{"coordinates":[10.839969,44.526726],"type":"Point"},"properties":{"osm_id":"2566372599","tag":{"denotation":"urban","leaf_cycle":"deciduous","leaf_type":"broadleaved","natural":"tree","species":"Quercus robur","species:it":"Farnia"}},"type":"Feature"},
	{"geometry":{"coordinates":[10.839978,44.526758],"type":"Point"},"properties":{"osm_id":"2566372604","tag":{"denotation":"urban","leaf_cycle":"deciduous","leaf_type":"broadleaved","natural":"tree","species":"Quercus robur","species:it":"Farnia"}},"type":"Feature"},
	{"geometry":{"coordinates":[10.839874,44.526761],"type":"Point"},"properties":{"osm_id":"2566372608","tag":{"denotation":"urban","leaf_cycle":"deciduous","leaf_type":"broadleaved","natural":"tree","species":"Quercus robur","species:it":"Farnia"}},"type":"Feature"},
	{"geometry":{"coordinates":[10.840004,44.526787],"type":"Point"},"properties":{"osm_id":"2566372612","tag":{"denotation":"urban","leaf_cycle":"deciduous","leaf_type":"broadleaved","natural":"tree","species":"Quercus robur","species:it":"Farnia"}},"type":"Feature"},
	{"geometry":{"coordinates":[10.840045,44.526827],"type":"Point"},"properties":{"osm_id":"2566372617","tag":{"denotation":"urban","leaf_cycle":"deciduous","leaf_type":"broadleaved","natural":"tree","species":"Quercus robur","species:it":"Farnia"}},"type":"Feature"},
	{"geometry":{"coordinates":[10.840067,44.526865],"type":"Point"},"properties":{"osm_id":"2566372622","tag":{"denotation":"urban","leaf_cycle":"deciduous","leaf_type":"broadleaved","natural":"tree","species":"Quercus robur","species:it":"Farnia"}},"type":"Feature"},
	{"geometry":{"coordinates":[10.840149,44.526967],"type":"Point"},"properties":{"osm_id":"2566372626","tag":{"denotation":"urban","leaf_cycle":"deciduous","leaf_type":"broadleaved","natural":"tree","species":"Quercus robur","species:it":"Farnia"}},"type":"Feature"},
	{"geometry":{"coordinates":[10.840433,44.527166],"type":"Point"},"properties":{"osm_id":"2566372631","tag":{"denotation":"urban","leaf_cycle":"deciduous","leaf_type":"broadleaved","natural":"tree","species":"Quercus robur","species:it":"Farnia"}},"type":"Feature"},
	{"geometry":{"coordinates":[10.83998,44.526581],"type":"Point"},"properties":{"osm_id":"2566372636","tag":{"denotation":"urban","genus":"Picea","genus:it":"Pino","leaf_cycle":"evergreen","leaf_type":"needleleaved","natural":"tree"}},"type":"Feature"},
	{"geometry":{"coordinates":[10.839893,44.526802],"type":"Point"},"properties":{"osm_id":"2566372640","tag":{"denotation":"urban","genus":"Tilia","genus:it":"Tiglio","leaf_cycle":"deciduous","natural":"tree"}},"type":"Feature"},
	{"geometry":{"coordinates":[10.839974,44.52693],"type":"Point"},"properties":{"osm_id":"2566372645","tag":{"denotation":"urban","genus":"Tilia","genus:it":"Tiglio","leaf_cycle":"deciduous","natural":"tree"}},"type":"Feature"},
	{"geometry":{"coordinates":[10.84003,44.527028],"type":"Point"},"properties":{"osm_id":"2566372650","tag":{"denotation":"urban","genus":"Tilia","genus:it":"Tiglio","leaf_cycle":"deciduous","natural":"tree"}},"type":"Feature"},
	{"geometry":{"coordinates":[10.840095,44.527145],"type":"Point"},"properties":{"osm_id":"2566372655","tag":{"denotation":"urban","genus":"Tilia","genus:it":"Tiglio","leaf_cycle":"deciduous","natural":"tree"}},"type":"Feature"},
	{"geometry":{"coordinates":[10.842267,44.525394],"type":"Point"},"properties":{"osm_id":"2569331835","tag":{"denotation":"urban","leaf_cycle":"deciduous","leaf_type":"broadleaved","natural":"tree","species":"Quercus robur","species:it":"Farnia"}},"type":"Feature"},
	{"geometry":{"coordinates":[10.840335,44.524413],"type":"Point"},"properties":{"osm_id":"2586765626","tag":{"denotation":"urban","genus":"Morus","genus:it":"Gelso","leaf_cycle":"deciduous","natural":"tree"}},"type":"Feature"},
	{"geometry":{"coordinates":[10.840388,44.524513],"type":"Point"},"properties":{"osm_id":"2586765637","tag":{"denotation":"urban","genus":"Morus","genus:it":"Gelso","leaf_cycle":"deciduous","natural":"tree"}},"type":"Feature"},
	{"geometry":{"coordinates":[10.840443,44.524618],"type":"Point"},"properties":{"osm_id":"2586765645","tag":{"denotation":"urban","genus":"Morus","genus:it":"Gelso","leaf_cycle":"deciduous","natural":"tree"}},"type":"Feature"},
	{"geometry":{"coordinates":[10.840485,44.524696],"type":"Point"},"properties":{"osm_id":"2586765650","tag":{"denotation":"urban","genus":"Morus","genus:it":"Gelso","leaf_cycle":"deciduous","natural":"tree"}},"type":"Feature"},
	{"geometry":{"coordinates":[10.840519,44.524766],"type":"Point"},"properties":{"osm_id":"2586765658","tag":{"denotation":"urban","genus":"Morus","genus:it":"Gelso","leaf_cycle":"deciduous","natural":"tree"}},"type":"Feature"},
	{"geometry":{"coordinates":[10.840555,44.524905],"type":"Point"},"properties":{"osm_id":"2586765666","tag":{"denotation":"urban","genus":"Morus","genus:it":"Gelso","leaf_cycle":"deciduous","natural":"tree"}},"type":"Feature"},
	{"geometry":{"coordinates":[10.840601,44.524994],"type":"Point"},"properties":{"osm_id":"2586765674","tag":{"denotation":"urban","genus":"Morus","genus:it":"Gelso","leaf_cycle":"deciduous","natural":"tree"}},"type":"Feature"},
	{"geometry":{"coordinates":[10.840185,44.526353],"type":"Point"},"properties":{"osm_id":"2586765683","tag":{"denotation":"urban","genus":"Morus","genus:it":"Gelso","leaf_cycle":"deciduous","natural":"tree"}},"type":"Feature"},
	{"geometry":{"coordinates":[10.840148,44.524395],"type":"Point"},"properties":{"osm_id":"2587946492","tag":{"denotation":"urban","genus":"Morus","genus:it":"Gelso","leaf_cycle":"deciduous","natural":"tree"}},"type":"Feature"},
	{"geometry":{"coordinates":[10.83988,44.524402],"type":"Point"},"properties":{"osm_id":"2587946493","tag":{"denotation":"urban","genus":"Morus","genus:it":"Gelso","leaf_cycle":"deciduous","natural":"tree"}},"type":"Feature"},
	{"geometry":{"coordinates":[10.83972,44.524518],"type":"Point"},"properties":{"osm_id":"2588771793","tag":{"denotation":"urban","genus":"Morus","genus:it":"Gelso","leaf_cycle":"deciduous","natural":"tree"}},"type":"Feature"},
	{"geometry":{"coordinates":[10.839743,44.5246],"type":"Point"},"properties":{"osm_id":"2588771795","tag":{"denotation":"urban","genus":"Morus","genus:it":"Gelso","leaf_cycle":"deciduous","natural":"tree"}},"type":"Feature"},
	{"geometry":{"coordinates":[10.83976,44.524658],"type":"Point"},"properties":{"osm_id":"2588771799","tag":{"denotation":"urban","genus":"Morus","genus:it":"Gelso","leaf_cycle":"deciduous","natural":"tree"}},"type":"Feature"},
	{"geometry":{"coordinates":[10.839785,44.52475],"type":"Point"},"properties":{"osm_id":"2588771800","tag":{"denotation":"urban","genus":"Morus","genus:it":"Gelso","leaf_cycle":"deciduous","natural":"tree"}},"type":"Feature"},
	{"geometry":{"coordinates":[10.839814,44.524858],"type":"Point"},"properties":{"osm_id":"2588771801","tag":{"denotation":"urban","genus":"Morus","genus:it":"Gelso","leaf_cycle":"deciduous","natural":"tree"}},"type":"Feature"},
	{"geometry":{"coordinates":[10.839899,44.524957],"type":"Point"},"properties":{"osm_id":"2588771802","tag":{"denotation":"urban","genus":"Morus","genus:it":"Gelso","leaf_cycle":"deciduous","natural":"tree"}},"type":"Feature"},
	{"geometry":{"coordinates":[10.839908,44.524994],"type":"Point"},"properties":{"osm_id":"2588771803","tag":{"denotation":"urban","genus":"Morus","genus:it":"Gelso","leaf_cycle":"deciduous","natural":"tree"}},"type":"Feature"},
	{"geometry":{"coordinates":[10.840745,44.525138],"type":"Point"},"properties":{"osm_id":"2588771804","tag":{"denotation":"urban","genus":"Morus","genus:it":"Gelso","leaf_cycle":"deciduous","natural":"tree"}},"type":"Feature"},
	{"geometry":{"coordinates":[10.839952,44.525144],"type":"Point"},"properties":{"osm_id":"2588771805","tag":{"denotation":"urban","genus":"Morus","genus:it":"Gelso","leaf_cycle":"deciduous","natural":"tree"}},"type":"Feature"},
	{"geometry":{"coordinates":[10.839955,44.525249],"type":"Point"},"properties":{"osm_id":"2588771806","tag":{"denotation":"urban","genus":"Morus","genus:it":"Gelso","leaf_cycle":"deciduous","natural":"tree"}},"type":"Feature"},
	{"geometry":{"coordinates":[10.840791,44.525289],"type":"Point"},"properties":{"osm_id":"2588771807","tag":{"denotation":"urban","genus":"Morus","genus:it":"Gelso","leaf_cycle":"deciduous","natural":"tree"}},"type":"Feature"},
	{"geometry":{"coordinates":[10.840663,44.525347],"type":"Point"},"properties":{"osm_id":"2588771808","tag":{"denotation":"urban","genus":"Morus","genus:it":"Gelso","leaf_cycle":"deciduous","natural":"tree"}},"type":"Feature"},
	{"geometry":{"coordinates":[10.840513,44.525397],"type":"Point"},"properties":{"osm_id":"2588771809","tag":{"denotation":"urban","genus":"Morus","genus:it":"Gelso","leaf_cycle":"deciduous","natural":"tree"}},"type":"Feature"},
	{"geometry":{"coordinates":[10.840373,44.525445],"type":"Point"},"properties":{"osm_id":"2588771810","tag":{"denotation":"urban","genus":"Morus","genus:it":"Gelso","leaf_cycle":"deciduous","natural":"tree"}},"type":"Feature"},
	{"geometry":{"coordinates":[10.839966,44.525463],"type":"Point"},"properties":{"osm_id":"2588771811","tag":{"denotation":"urban","genus":"Morus","genus:it":"Gelso","leaf_cycle":"deciduous","natural":"tree"}},"type":"Feature"},
	{"geometry":{"coordinates":[10.84023,44.525496],"type":"Point"},"properties":{"osm_id":"2588771812","tag":{"denotation":"urban","genus":"Morus","genus:it":"Gelso","leaf_cycle":"deciduous","natural":"tree"}},"type":"Feature"},
	{"geometry":{"coordinates":[10.839978,44.525504],"type":"Point"},"properties":{"osm_id":"2588771813","tag":{"denotation":"urban","genus":"Morus","genus:it":"Gelso","leaf_cycle":"deciduous","natural":"tree"}},"type":"Feature"},
	{"geometry":{"coordinates":[10.840171,44.525516],"type":"Point"},"properties":{"osm_id":"2588771814","tag":{"denotation":"urban","genus":"Morus","genus:it":"Gelso","leaf_cycle":"deciduous","natural":"tree"}},"type":"Feature"},
	{"geometry":{"coordinates":[10.84011,44.525538],"type":"Point"},"properties":{"osm_id":"2588771815","tag":{"denotation":"urban","genus":"Morus","genus:it":"Gelso","leaf_cycle":"deciduous","natural":"tree"}},"type":"Feature"},
	{"geometry":{"coordinates":[10.840041,44.525548],"type":"Point"},"properties":{"osm_id":"2588771816","tag":{"denotation":"urban","genus":"Morus","genus:it":"Gelso","leaf_cycle":"deciduous","natural":"tree"}},"type":"Feature"},
	{"geometry":{"coordinates":[10.866963,44.525531],"type":"Point"},"properties":{"osm_id":"3862581257","tag":{"denotation":"landmark","leaf_cycle":"evergreen","leaf_type":"needleleaved","natural":"tree","taxon:family":"pinaceae"}},"type":"Feature"},
	{"geometry":{"coordinates":[10.866783,44.52521],"type":"Point"},"properties":{"osm_id":"3862581258","tag":{"denotation":"urban","leaf_cycle":"evergreen","leaf_type":"needleleaved","natural":"tree","taxon:family":"pinaceae"}},"type":"Feature"},
	{"geometry":{"coordinates":[10.860822,44.525006],"type":"Point"},"properties":{"osm_id":"3878528619","tag":{"leaf_cycle":"deciduous","natural":"tree"}},"type":"Feature"},
	{"geometry":{"coordinates":[10.860866,44.525008],"type":"Point"},"properties":{"osm_id":"3878528620","tag":{"leaf_cycle":"deciduous","natural":"tree"}},"type":"Feature"},
	{"geometry":{"coordinates":[10.860861,44.525687],"type":"Point"},"properties":{"osm_id":"3881060625","tag":{"leaf_cycle":"deciduous","leaf_type":"broadleaved","natural":"tree"}},"type":"Feature"}
]
}
