{
"type": "FeatureCollection",
"features": [
	{"geometry":{"coordinates":[18.531359,54.521845],"type":"Point"},"properties":{"osm_id":"1784918592","tag":{"amenity":"waste_basket"}},"type":"Feature"},
	{"geometry":{"coordinates":[18.532358,54.521971],"type":"Point"},"properties":{"osm_id":"1785069108","tag":{"amenity":"waste_basket"}},"type":"Feature"},
	{"geometry":{"coordinates":[18.540489,54.522298],"type":"Point"},"properties":{"osm_id":"1785594247","tag":{"amenity":"waste_basket"}},"type":"Feature"},
	{"geometry":{"coordinates":[18.517112,54.524971],"type":"Point"},"properties":{"osm_id":"1785602025","tag":{"amenity":"waste_basket"}},"type":"Feature"},
	{"geometry":{"coordinates":[18.4824,54.534872],"type":"Point"},"properties":{"osm_id":"1785622167","tag":{"amenity":"waste_basket"}},"type":"Feature"},
	{"geometry":{"coordinates":[18.477876,54.536422],"type":"Point"},"properties":{"osm_id":"1785622174","tag":{"amenity":"waste_basket"}},"type":"Feature"},
	{"geometry":{"coordinates":[18.460109,54.542175],"type":"Point"},"properties":{"osm_id":"1785634474","tag":{"amenity":"waste_basket"}},"type":"Feature"},
	{"geometry":{"coordinates":[18.480473,54.53516],"type":"Point"},"properties":{"osm_id":"1786943606","tag":{"amenity":"waste_basket"}},"type":"Feature"},
	{"geometry":{"coordinates":[18.535647,54.542622],"type":"Point"},"properties":{"osm_id":"1870647310","tag":{"amenity":"waste_basket"}},"type":"Feature"},
	{"geometry":{"coordinates":[18.507001,54.550715],"type":"Point"},"properties":{"osm_id":"1870647373","tag":{"amenity":"waste_basket"}},"type":"Feature"},
	{"geometry":{"coordinates":[18.535195,54.541837],"type":"Point"},"properties":{"osm_id":"1871788163","tag":{"amenity":"waste_basket"}},"type":"Feature"},
	{"geometry":{"coordinates":[18.510205,54.550575],"type":"Point"},"properties":{"osm_id":"1882961137","tag":{"amenity":"waste_basket"}},"type":"Feature"},
	{"geometry":{"coordinates":[18.531879,54.544],"type":"Point"},"properties":{"osm_id":"1913408220","tag":{"amenity":"waste_basket"}},"type":"Feature"},
	{"geometry":{"coordinates":[18.540416,54.521271],"type":"Point"},"properties":{"osm_id":"1935798988","tag":{"amenity":"waste_basket"}},"type":"Feature"},
	{"geometry":{"coordinates":[18.54085,54.521299],"type":"Point"},"properties":{"osm_id":"1935798991","tag":{"amenity":"waste_basket"}},"type":"Feature"},
	{"geometry":{"coordinates":[18.540477,54.521348],"type":"Point"},"properties":{"osm_id":"1935798993","tag":{"amenity":"waste_basket"}},"type":"Feature"},
	{"geometry":{"coordinates":[18.542304,54.521595],"type":"Point"},"properties":{"osm_id":"1935799021","tag":{"amenity":"waste_basket"}},"type":"Feature"},
	{"geometry":{"coordinates":[18.544414,54.547726],"type":"Point"},"properties":{"osm_id":"1938600750","tag":{"amenity":"waste_basket"}},"type":"Feature"},
	{"geometry":{"coordinates":[18.544377,54.548158],"type":"Point"},"properties":{"osm_id":"1938600841","tag":{"amenity":"waste_basket"}},"type":"Feature"},
	{"geometry":{"coordinates":[18.506912,54.5623],"type":"Point"},"properties":{"osm_id":"1940633008","tag":{"amenity":"waste_basket"}},"type":"Feature"},
	{"geometry":{"coordinates":[18.534221,54.549395],"type":"Point"},"properties":{"osm_id":"1947979612","tag":{"amenity":"waste_basket"}},"type":"Feature"},
	{"geometry":{"coordinates":[18.53484,54.549489],"type":"Point"},"properties":{"osm_id":"1947979618","tag":{"amenity":"waste_basket"}},"type":"Feature"},
	{"geometry":{"coordinates":[18.530323,54.553381],"type":"Point"},"properties":{"osm_id":"1947979712","tag":{"amenity":"waste_basket"}},"type":"Feature"},
	{"geometry":{"coordinates":[18.480028,54.535398],"type":"Point"},"properties":{"osm_id":"1955686333","tag":{"amenity":"waste_basket","material":"concrete"}},"type":"Feature"},
	{"geometry":{"coordinates":[18.530398,54.554591],"type":"Point"},"properties":{"osm_id":"1963817463","tag":{"amenity":"waste_basket","material":"concrete"}},"type":"Feature"},
	{"geometry":{"coordinates":[18.517435,54.522746],"type":"Point"},"properties":{"osm_id":"2111283528","tag":{"amenity":"waste_basket"}},"type":"Feature"},
	{"geometry":{"coordinates":[18.536095,54.55136],"type":"Point"},"properties":{"osm_id":"2139243276","tag":{"amenity":"waste_basket","material":"concrete","survey:date":"2013-02-02"}},"type":"Feature"},
	{"geometry":{"coordinates":[18.536131,54.551667],"type":"Point"},"properties":{"osm_id":"2139243280","tag":{"amenity":"waste_basket","material":"concrete","survey:date":"2013-02-02"}},"type":"Feature"},
	{"geometry":{"coordinates":[18.534809,54.552095],"type":"Point"},"properties":{"osm_id":"2139243305","tag":{"amenity":"waste_basket","material":"concrete","survey:date":"2013-02-02"}},"type":"Feature"},
	{"geometry":{"coordinates":[18.535036,54.552143],"type":"Point"},"properties":{"osm_id":"2139243310","tag":{"amenity":"waste_basket","material":"concrete","survey:date":"2013-02-02"}},"type":"Feature"},
	{"geometry":{"coordinates":[18.535075,54.552122],"type":"Point"},"properties":{"osm_id":"2140271095","tag":{"amenity":"waste_basket","material":"concrete","survey:date":"2013-02-03"}},"type":"Feature"},
	{"geometry":{"coordinates":[18.466607,54.560681],"type":"Point"},"properties":{"osm_id":"2162302237","tag":{"amenity":"waste_basket"}},"type":"Feature"},
	{"geometry":{"coordinates":[18.542694,54.551169],"type":"Point"},"properties":{"osm_id":"2535120661","tag":{"amenity":"waste_basket"}},"type":"Feature"},
	{"geometry":{"coordinates":[18.519511,54.550642],"type":"Point"},"properties":{"osm_id":"3034503478","tag":{"amenity":"waste_basket"}},"type":"Feature"},
	{"geometry":{"coordinates":[18.519064,54.551039],"type":"Point"},"properties":{"osm_id":"3034503526","tag":{"amenity":"waste_basket"}},"type":"Feature"},
	{"geometry":{"coordinates":[18.515292,54.551926],"type":"Point"},"properties":{"osm_id":"3034503752","tag":{"amenity":"waste_basket"}},"type":"Feature"},
	{"geometry":{"coordinates":[18.457699,54.545871],"type":"Point"},"properties":{"osm_id":"3207968354","tag":{"amenity":"waste_basket"}},"type":"Feature"},
	{"geometry":{"coordinates":[18.457882,54.545989],"type":"Point"},"properties":{"osm_id":"3207968355","tag":{"amenity":"waste_basket"}},"type":"Feature"},
	{"geometry":{"coordinates":[18.460441,54.542031],"type":"Point"},"properties":{"osm_id":"3613934050","tag":{"amenity":"waste_basket"}},"type":"Feature"},
	{"geometry":{"coordinates":[18.458765,54.545584],"type":"Point"},"properties":{"osm_id":"3615147894","tag":{"amenity":"waste_basket"}},"type":"Feature"},
	{"geometry":{"coordinates":[18.534839,54.551311],"type":"Point"},"properties":{"osm_id":"3791764556","tag":{"amenity":"recycling","recycling:glass":"yes","recycling:paper":"yes","recycling:plastic":"yes","recycling_type":"container"}},"type":"Feature"},
	{"geometry":{"coordinates":[18.462867,54.548578],"type":"Point"},"properties":{"osm_id":"4299967533","tag":{"amenity":"waste_basket"}},"type":"Feature"},
	{"geometry":{"coordinates":[18.500957,54.547084],"type":"Point"},"properties":{"osm_id":"4300308571","tag":{"amenity":"waste_basket","source:position":"geoportal.gov.pl:ortofoto"}},"type":"Feature"},
	{"geometry":{"coordinates":[18.501359,54.547959],"type":"Point"},"properties":{"osm_id":"4300308654","tag":{"amenity":"waste_basket"}},"type":"Feature"},
	{"geometry":{"coordinates":[18.516719,54.524792],"type":"Point"},"properties":{"osm_id":"4308862136","tag":{"amenity":"waste_basket"}},"type":"Feature"},
	{"geometry":{"coordinates":[18.493827,54.562861],"type":"Point"},"properties":{"osm_id":"4316773237","tag":{"amenity":"waste_basket"}},"type":"Feature"},
	{"geometry":{"coordinates":[18.493989,54.562861],"type":"Point"},"properties":{"osm_id":"4316773238","tag":{"amenity":"waste_basket"}},"type":"Feature"},
	{"geometry":{"coordinates":[18.499833,54.563028],"type":"Point"},"properties":{"osm_id":"4316773267","tag":{"amenity":"waste_basket"}},"type":"Feature"},
	{"geometry":{"coordinates":[18.49395,54.5631],"type":"Point"},"properties":{"osm_id":"4316773271","tag":{"amenity":"waste_basket"}},"type":"Feature"},
	{"geometry":{"coordinates":[18.498635,54.563216],"type":"Point"},"properties":{"osm_id":"4316773274","tag":{"amenity":"waste_basket"}},"type":"Feature"},
	{"geometry":{"coordinates":[18.509357,54.559258],"type":"Point"},"properties":{"osm_id":"4323168886","tag":{"amenity":"waste_basket"}},"type":"Feature"},
	{"geometry":{"coordinates":[18.510073,54.55936],"type":"Point"},"properties":{"osm_id":"4323168995","tag":{"amenity":"waste_basket"}},"type":"Feature"},
	{"geometry":{"coordinates":[18.509436,54.559492],"type":"Point"},"properties":{"osm_id":"4323169006","tag":{"amenity":"waste_basket"}},"type":"Feature"},
	{"geometry":{"coordinates":[18.50955,54.559528],"type":"Point"},"properties":{"osm_id":"4323169007","tag":{"amenity":"waste_basket"}},"type":"Feature"},
	{"geometry":{"coordinates":[18.509281,54.559606],"type":"Point"},"properties":{"osm_id":"4323169014","tag":{"amenity":"waste_basket"}},"type":"Feature"},
	{"geometry":{"coordinates":[18.509392,54.559752],"type":"Point"},"properties":{"osm_id":"4323169025","tag":{"amenity":"waste_basket"}},"type":"Feature"},
	{"geometry":{"coordinates":[18.508901,54.5598],"type":"Point"},"properties":{"osm_id":"4323169029","tag":{"amenity":"waste_basket"}},"type":"Feature"},
	{"geometry":{"coordinates":[18.508783,54.559909],"type":"Point"},"properties":{"osm_id":"4323169050","tag":{"amenity":"waste_basket"}},"type":"Feature"},
	{"geometry":{"coordinates":[18.508763,54.560096],"type":"Point"},"properties":{"osm_id":"4323169060","tag":{"amenity":"waste_basket"}},"type":"Feature"},
	{"geometry":{"coordinates":[18.459803,54.526788],"type":"Point"},"properties":{"osm_id":"4325805700","tag":{"amenity":"waste_basket"}},"type":"Feature"},
	{"geometry":{"coordinates":[18.460104,54.540701],"type":"Point"},"properties":{"osm_id":"4325865774","tag":{"amenity":"waste_basket"}},"type":"Feature"},
	{"geometry":{"coordinates":[18.460054,54.54117],"type":"Point"},"properties":{"osm_id":"4325865779","tag":{"amenity":"waste_basket"}},"type":"Feature"},
	{"geometry":{"coordinates":[18.458496,54.537921],"type":"Point"},"properties":{"osm_id":"4326549305","tag":{"amenity":"waste_basket"}},"type":"Feature"},
	{"geometry":{"coordinates":[18.458217,54.537989],"type":"Point"},"properties":{"osm_id":"4326549313","tag":{"amenity":"waste_basket"}},"type":"Feature"},
	{"geometry":{"coordinates":[18.460498,54.540756],"type":"Point"},"properties":{"osm_id":"4326549762","tag":{"amenity":"waste_basket"}},"type":"Feature"},
	{"geometry":{"coordinates":[18.461396,54.541431],"type":"Point"},"properties":{"osm_id":"4326549810","tag":{"amenity":"waste_basket"}},"type":"Feature"},
	{"geometry":{"coordinates":[18.470665,54.538916],"type":"Point"},"properties":{"osm_id":"4330668811","tag":{"amenity":"waste_basket"}},"type":"Feature"},
	{"geometry":{"coordinates":[18.502715,54.529621],"type":"Point"},"properties":{"osm_id":"4368448688","tag":{"amenity":"waste_basket"}},"type":"Feature"},
	{"geometry":{"coordinates":[18.502352,54.529655],"type":"Point"},"properties":{"osm_id":"4368448889","tag":{"amenity":"waste_basket"}},"type":"Feature"},
	{"geometry":{"coordinates":[18.502098,54.529737],"type":"Point"},"properties":{"osm_id":"4368448893","tag":{"amenity":"waste_basket"}},"type":"Feature"},
	{"geometry":{"coordinates":[18.535734,54.542445],"type":"Point"},"properties":{"osm_id":"4370755303","tag":{"amenity":"waste_basket"}},"type":"Feature"},
	{"geometry":{"coordinates":[18.537412,54.521166],"type":"Point"},"properties":{"osm_id":"4375278792","tag":{"amenity":"waste_basket"}},"type":"Feature"},
	{"geometry":{"coordinates":[18.536684,54.52123],"type":"Point"},"properties":{"osm_id":"4375278794","tag":{"amenity":"waste_basket"}},"type":"Feature"},
	{"geometry":{"coordinates":[18.537426,54.521251],"type":"Point"},"properties":{"osm_id":"4375278796","tag":{"amenity":"waste_basket"}},"type":"Feature"},
	{"geometry":{"coordinates":[18.539009,54.521161],"type":"Point"},"properties":{"osm_id":"4375353907","tag":{"amenity":"waste_basket"}},"type":"Feature"},
	{"geometry":{"coordinates":[18.538671,54.521201],"type":"Point"},"properties":{"osm_id":"4375353908","tag":{"amenity":"waste_basket"}},"type":"Feature"},
	{"geometry":{"coordinates":[18.538657,54.521295],"type":"Point"},"properties":{"osm_id":"4375353910","tag":{"amenity":"waste_basket"}},"type":"Feature"},
	{"geometry":{"coordinates":[18.539124,54.52131],"type":"Point"},"properties":{"osm_id":"4375353911","tag":{"amenity":"waste_basket"}},"type":"Feature"},
	{"geometry":{"coordinates":[18.539516,54.521327],"type":"Point"},"properties":{"osm_id":"4375353914","tag":{"amenity":"waste_basket"}},"type":"Feature"},
	{"geometry":{"coordinates":[18.540214,54.521346],"type":"Point"},"properties":{"osm_id":"4375353915","tag":{"amenity":"waste_basket"}},"type":"Feature"},
	{"geometry":{"coordinates":[18.540087,54.549471],"type":"Point"},"properties":{"osm_id":"4376850468","tag":{"amenity":"waste_basket"}},"type":"Feature"},
	{"geometry":{"coordinates":[18.539068,54.549612],"type":"Point"},"properties":{"osm_id":"4376850694","tag":{"amenity":"waste_basket"}},"type":"Feature"},
	{"geometry":{"coordinates":[18.52992,54.552868],"type":"Point"},"properties":{"osm_id":"4380777394","tag":{"amenity":"waste_basket"}},"type":"Feature"},
	{"geometry":{"coordinates":[18.52872,54.553662],"type":"Point"},"properties":{"osm_id":"4380777745","tag":{"amenity":"waste_basket"}},"type":"Feature"},
	{"geometry":{"coordinates":[18.530407,54.55385],"type":"Point"},"properties":{"osm_id":"4380777768","tag":{"amenity":"waste_basket"}},"type":"Feature"},
	{"geometry":{"coordinates":[18.530418,54.52151],"type":"Point"},"properties":{"osm_id":"4381079462","tag":{"amenity":"waste_basket"}},"type":"Feature"},
	{"geometry":{"coordinates":[18.530666,54.522385],"type":"Point"},"properties":{"osm_id":"4381079465","tag":{"amenity":"waste_basket"}},"type":"Feature"},
	{"geometry":{"coordinates":[18.531977,54.522926],"type":"Point"},"properties":{"osm_id":"4381079468","tag":{"amenity":"waste_basket"}},"type":"Feature"},
	{"geometry":{"coordinates":[18.516817,54.527874],"type":"Point"},"properties":{"osm_id":"4381079470","tag":{"amenity":"waste_basket"}},"type":"Feature"},
	{"geometry":{"coordinates":[18.516834,54.528369],"type":"Point"},"properties":{"osm_id":"4381079472","tag":{"amenity":"waste_basket"}},"type":"Feature"},
	{"geometry":{"coordinates":[18.510419,54.53124],"type":"Point"},"properties":{"osm_id":"4381079476","tag":{"amenity":"waste_basket"}},"type":"Feature"},
	{"geometry":{"coordinates":[18.543463,54.54268],"type":"Point"},"properties":{"osm_id":"4381079478","tag":{"amenity":"waste_basket"}},"type":"Feature"},
	{"geometry":{"coordinates":[18.541868,54.542723],"type":"Point"},"properties":{"osm_id":"4381079479","tag":{"amenity":"waste_basket"}},"type":"Feature"},
	{"geometry":{"coordinates":[18.534644,54.542751],"type":"Point"},"properties":{"osm_id":"4381079481","tag":{"amenity":"waste_basket"}},"type":"Feature"},
	{"geometry":{"coordinates":[18.512288,54.550026],"type":"Point"},"properties":{"osm_id":"4381079505","tag":{"amenity":"waste_basket"}},"type":"Feature"},
	{"geometry":{"coordinates":[18.505959,54.550812],"type":"Point"},"properties":{"osm_id":"4381079512","tag":{"amenity":"waste_basket","source:position":"geoportal.gov.pl:ortofoto"}},"type":"Feature"},
	{"geometry":{"coordinates":[18.486045,54.563398],"type":"Point"},"properties":{"osm_id":"4381118980","tag":{"amenity":"waste_basket"}},"type":"Feature"},
	{"geometry":{"coordinates":[18.48144,54.563165],"type":"Point"},"properties":{"osm_id":"4381119472","tag":{"amenity":"waste_basket"}},"type":"Feature"},
	{"geometry":{"coordinates":[18.481474,54.563387],"type":"Point"},"properties":{"osm_id":"4381119474","tag":{"amenity":"waste_basket"}},"type":"Feature"},
	{"geometry":{"coordinates":[18.522426,54.522709],"type":"Point"},"properties":{"osm_id":"4381991969","tag":{"amenity":"waste_basket"}},"type":"Feature"},
	{"geometry":{"coordinates":[18.521862,54.523225],"type":"Point"},"properties":{"osm_id":"4381991972","tag":{"amenity":"waste_basket"}},"type":"Feature"},
	{"geometry":{"coordinates":[18.511013,54.526924],"type":"Point"},"properties":{"osm_id":"4381991975","tag":{"amenity":"waste_basket"}},"type":"Feature"},
	{"geometry":{"coordinates":[18.508923,54.527908],"type":"Point"},"properties":{"osm_id":"4381991976","tag":{"amenity":"waste_basket"}},"type":"Feature"},
	{"geometry":{"coordinates":[18.504704,54.528744],"type":"Point"},"properties":{"osm_id":"4381991980","tag":{"amenity":"waste_basket"}},"type":"Feature"},
	{"geometry":{"coordinates":[18.504052,54.528901],"type":"Point"},"properties":{"osm_id":"4381992291","tag":{"amenity":"waste_basket"}},"type":"Feature"},
	{"geometry":{"coordinates":[18.496982,54.530743],"type":"Point"},"properties":{"osm_id":"4381992292","tag":{"amenity":"waste_basket"}},"type":"Feature"},
	{"geometry":{"coordinates":[18.489932,54.532363],"type":"Point"},"properties":{"osm_id":"4381992301","tag":{"amenity":"waste_basket"}},"type":"Feature"},
	{"geometry":{"coordinates":[18.487948,54.53259],"type":"Point"},"properties":{"osm_id":"4381992304","tag":{"amenity":"waste_basket"}},"type":"Feature"},
	{"geometry":{"coordinates":[18.489621,54.533259],"type":"Point"},"properties":{"osm_id":"4381992306","tag":{"amenity":"waste_basket"}},"type":"Feature"},
	{"geometry":{"coordinates":[18.493365,54.53802],"type":"Point"},"properties":{"osm_id":"4381992327","tag":{"amenity":"waste_basket"}},"type":"Feature"},
	{"geometry":{"coordinates":[18.494734,54.538508],"type":"Point"},"properties":{"osm_id":"4381992353","tag":{"amenity":"waste_basket"}},"type":"Feature"},
	{"geometry":{"coordinates":[18.525889,54.554095],"type":"Point"},"properties":{"osm_id":"4381992695","tag":{"amenity":"waste_basket"}},"type":"Feature"},
	{"geometry":{"coordinates":[18.524177,54.554283],"type":"Point"},"properties":{"osm_id":"4381992741","tag":{"amenity":"waste_basket"}},"type":"Feature"},
	{"geometry":{"coordinates":[18.520585,54.555855],"type":"Point"},"properties":{"osm_id":"4381992854","tag":{"amenity":"waste_basket"}},"type":"Feature"},
	{"geometry":{"coordinates":[18.519927,54.556289],"type":"Point"},"properties":{"osm_id":"4381992857","tag":{"amenity":"waste_basket"}},"type":"Feature"},
	{"geometry":{"coordinates":[18.516078,54.55742],"type":"Point"},"properties":{"osm_id":"4381992858","tag":{"amenity":"waste_basket"}},"type":"Feature"},
	{"geometry":{"coordinates":[18.514935,54.557951],"type":"Point"},"properties":{"osm_id":"4381992860","tag":{"amenity":"waste_basket"}},"type":"Feature"},
	{"geometry":{"coordinates":[18.510224,54.559995],"type":"Point"},"properties":{"osm_id":"4381992861","tag":{"amenity":"waste_basket"}},"type":"Feature"},
	{"geometry":{"coordinates":[18.508722,54.562576],"type":"Point"},"properties":{"osm_id":"4381992871","tag":{"amenity":"waste_basket"}},"type":"Feature"},
	{"geometry":{"coordinates":[18.486786,54.562781],"type":"Point"},"properties":{"osm_id":"4381992878","tag":{"amenity":"waste_basket"}},"type":"Feature"},
	{"geometry":{"coordinates":[18.508748,54.562866],"type":"Point"},"properties":{"osm_id":"4381992881","tag":{"amenity":"waste_basket"}},"type":"Feature"},
	{"geometry":{"coordinates":[18.495101,54.531569],"type":"Point"},"properties":{"osm_id":"4381996878","tag":{"amenity":"waste_basket"}},"type":"Feature"},
	{"geometry":{"coordinates":[18.507578,54.550691],"type":"Point"},"properties":{"osm_id":"4381996881","tag":{"amenity":"waste_basket"}},"type":"Feature"},
	{"geometry":{"coordinates":[18.531103,54.556227],"type":"Point"},"properties":{"osm_id":"4382055705","tag":{"amenity":"waste_basket"}},"type":"Feature"},
	{"geometry":{"coordinates":[18.533098,54.560534],"type":"Point"},"properties":{"osm_id":"4382055714","tag":{"amenity":"waste_basket"}},"type":"Feature"},
	{"geometry":{"coordinates":[18.538853,54.52276],"type":"Point"},"properties":{"osm_id":"4382068953","tag":{"amenity":"waste_basket"}},"type":"Feature"},
	{"geometry":{"coordinates":[18.51433,54.54912],"type":"Point"},"properties":{"osm_id":"4382068955","tag":{"amenity":"waste_basket"}},"type":"Feature"},
	{"geometry":{"coordinates":[18.508455,54.550604],"type":"Point"},"properties":{"osm_id":"4382068958","tag":{"amenity":"waste_basket"}},"type":"Feature"},
	{"geometry":{"coordinates":[18.520791,54.548648],"type":"Point"},"properties":{"osm_id":"4382081237","tag":{"amenity":"waste_basket"}},"type":"Feature"},
	{"geometry":{"coordinates":[18.529605,54.54882],"type":"Point"},"properties":{"osm_id":"4382081239","tag":{"amenity":"waste_basket"}},"type":"Feature"},
	{"geometry":{"coordinates":[18.53154,54.548784],"type":"Point"},"properties":{"osm_id":"4382118090","tag":{"amenity":"waste_basket"}},"type":"Feature"},
	{"geometry":{"coordinates":[18.520115,54.526775],"type":"Point"},"properties":{"osm_id":"4382449395","tag":{"amenity":"waste_basket"}},"type":"Feature"},
	{"geometry":{"coordinates":[18.519618,54.527011],"type":"Point"},"properties":{"osm_id":"4382449398","tag":{"amenity":"waste_basket"}},"type":"Feature"},
	{"geometry":{"coordinates":[18.509127,54.532603],"type":"Point"},"properties":{"osm_id":"4382449400","tag":{"amenity":"waste_basket"}},"type":"Feature"},
	{"geometry":{"coordinates":[18.498706,54.539684],"type":"Point"},"properties":{"osm_id":"4382449402","tag":{"amenity":"waste_basket","source:position":"geoportal.gov.pl:ortofoto"}},"type":"Feature"},
	{"geometry":{"coordinates":[18.49943,54.539688],"type":"Point"},"properties":{"osm_id":"4382449403","tag":{"amenity":"waste_basket","source:position":"geoportal.gov.pl:ortofoto"}},"type":"Feature"},
	{"geometry":{"coordinates":[18.542497,54.523446],"type":"Point"},"properties":{"osm_id":"4383080304","tag":{"amenity":"waste_basket"}},"type":"Feature"},
	{"geometry":{"coordinates":[18.471919,54.538137],"type":"Point"},"properties":{"osm_id":"4383080312","tag":{"amenity":"waste_basket"}},"type":"Feature"},
	{"geometry":{"coordinates":[18.463079,54.544485],"type":"Point"},"properties":{"osm_id":"4383080315","tag":{"amenity":"waste_basket"}},"type":"Feature"},
	{"geometry":{"coordinates":[18.460702,54.545251],"type":"Point"},"properties":{"osm_id":"4383080318","tag":{"amenity":"waste_basket"}},"type":"Feature"},
	{"geometry":{"coordinates":[18.461628,54.545311],"type":"Point"},"properties":{"osm_id":"4383080319","tag":{"amenity":"waste_basket"}},"type":"Feature"},
	{"geometry":{"coordinates":[18.462316,54.545751],"type":"Point"},"properties":{"osm_id":"4383080321","tag":{"amenity":"waste_basket"}},"type":"Feature"},
	{"geometry":{"coordinates":[18.507035,54.562793],"type":"Point"},"properties":{"osm_id":"4383203163","tag":{"amenity":"waste_basket"}},"type":"Feature"},
	{"geometry":{"coordinates":[18.507367,54.562948],"type":"Point"},"properties":{"osm_id":"4383203178","tag":{"amenity":"waste_basket"}},"type":"Feature"},
	{"geometry":{"coordinates":[18.50776,54.554168],"type":"Point"},"properties":{"osm_id":"4385220571","tag":{"amenity":"waste_basket"}},"type":"Feature"},
	{"geometry":{"coordinates":[18.507416,54.555747],"type":"Point"},"properties":{"osm_id":"4397527727","tag":{"amenity":"waste_basket"}},"type":"Feature"},
	{"geometry":{"coordinates":[18.498764,54.529488],"type":"Point"},"properties":{"osm_id":"4398502206","tag":{"amenity":"waste_basket"}},"type":"Feature"},
	{"geometry":{"coordinates":[18.50822,54.523931],"type":"Point"},"properties":{"osm_id":"4398552018","tag":{"amenity":"waste_basket"}},"type":"Feature"},
	{"geometry":{"coordinates":[18.508421,54.523949],"type":"Point"},"properties":{"osm_id":"4398552019","tag":{"amenity":"waste_basket"}},"type":"Feature"},
	{"geometry":{"coordinates":[18.530232,54.521321],"type":"Point"},"properties":{"osm_id":"5036269716","tag":{"amenity":"waste_basket"}},"type":"Feature"},
	{"geometry":{"coordinates":[18.498454,54.553735],"type":"Point"},"properties":{"osm_id":"5054289334","tag":{"amenity":"waste_basket"}},"type":"Feature"},
	{"geometry":{"coordinates":[18.537294,54.522177],"type":"Point"},"properties":{"osm_id":"5168443211","tag":{"amenity":"waste_basket"}},"type":"Feature"},
	{"geometry":{"coordinates":[18.536852,54.522133],"type":"Point"},"properties":{"osm_id":"5168443213","tag":{"amenity":"waste_basket"}},"type":"Feature"},
	{"geometry":{"coordinates":[18.538903,54.521928],"type":"Point"},"properties":{"osm_id":"5168443851","tag":{"amenity":"waste_basket"}},"type":"Feature"},
	{"geometry":{"coordinates":[18.541457,54.522357],"type":"Point"},"properties":{"osm_id":"5168443874","tag":{"amenity":"waste_basket"}},"type":"Feature"},
	{"geometry":{"coordinates":[18.535521,54.522121],"type":"Point"},"properties":{"osm_id":"5168452095","tag":{"amenity":"waste_basket"}},"type":"Feature"},
	{"geometry":{"coordinates":[18.478356,54.537644],"type":"Point"},"properties":{"osm_id":"5168683220","tag":{"amenity":"waste_basket"}},"type":"Feature"},
	{"geometry":{"coordinates":[18.478616,54.537786],"type":"Point"},"properties":{"osm_id":"5168683532","tag":{"amenity":"waste_basket"}},"type":"Feature"},
	{"geometry":{"coordinates":[18.477699,54.540424],"type":"Point"},"properties":{"osm_id":"5169948523","tag":{"amenity":"waste_basket"}},"type":"Feature"},
	{"geometry":{"coordinates":[18.53995,54.530976],"type":"Point"},"properties":{"osm_id":"5319001258","tag":{"amenity":"waste_basket"}},"type":"Feature"},
	{"geometry":{"coordinates":[18.542408,54.529974],"type":"Point"},"properties":{"osm_id":"5319001262","tag":{"amenity":"waste_basket"}},"type":"Feature"},
	{"geometry":{"coordinates":[18.54216,54.529956],"type":"Point"},"properties":{"osm_id":"5319001264","tag":{"amenity":"waste_basket"}},"type":"Feature"},
	{"geometry":{"coordinates":[18.542618,54.531141],"type":"Point"},"properties":{"osm_id":"5319001270","tag":{"amenity":"waste_basket"}},"type":"Feature"},
	{"geometry":{"coordinates":[18.49084,54.532686],"type":"Point"},"properties":{"osm_id":"5639309325","tag":{"amenity":"waste_basket"}},"type":"Feature"},
	{"geometry":{"coordinates":[18.472445,54.559093],"type":"Point"},"properties":{"osm_id":"5643691516","tag":{"amenity":"waste_basket"}},"type":"Feature"},
	{"geometry":{"coordinates":[18.478089,54.557722],"type":"Point"},"properties":{"osm_id":"5645273608","tag":{"amenity":"waste_basket"}},"type":"Feature"},
	{"geometry":{"coordinates":[18.50341,54.552305],"type":"Point"},"properties":{"osm_id":"5645286704","tag":{"amenity":"waste_basket"}},"type":"Feature"},
	{"geometry":{"coordinates":[18.503337,54.552756],"type":"Point"},"properties":{"osm_id":"5645286707","tag":{"amenity":"waste_basket"}},"type":"Feature"},
	{"geometry":{"coordinates":[18.499768,54.553302],"type":"Point"},"properties":{"osm_id":"5645286710","tag":{"amenity":"waste_basket"}},"type":"Feature"},
	{"geometry":{"coordinates":[18.478812,54.567212],"type":"Point"},"properties":{"osm_id":"5659076225","tag":{"amenity":"waste_basket"}},"type":"Feature"},
	{"geometry":{"coordinates":[18.478054,54.567797],"type":"Point"},"properties":{"osm_id":"5659076227","tag":{"amenity":"waste_basket"}},"type":"Feature"},
	{"geometry":{"coordinates":[18.476788,54.568876],"type":"Point"},"properties":{"osm_id":"5659076229","tag":{"amenity":"waste_basket"}},"type":"Feature"},
	{"geometry":{"coordinates":[18.475786,54.569731],"type":"Point"},"properties":{"osm_id":"5659076231","tag":{"amenity":"waste_basket"}},"type":"Feature"},
	{"geometry":{"coordinates":[18.478544,54.557275],"type":"Point"},"properties":{"osm_id":"5673174572","tag":{"amenity":"waste_basket"}},"type":"Feature"},
	{"geometry":{"coordinates":[18.478194,54.557586],"type":"Point"},"properties":{"osm_id":"5673174576","tag":{"amenity":"waste_basket"}},"type":"Feature"},
	{"geometry":{"coordinates":[18.492174,54.554709],"type":"Point"},"properties":{"osm_id":"5673174578","tag":{"amenity":"waste_basket"}},"type":"Feature"},
	{"geometry":{"coordinates":[18.481559,54.556331],"type":"Point"},"properties":{"osm_id":"5673176653","tag":{"amenity":"waste_basket"}},"type":"Feature"},
	{"geometry":{"coordinates":[18.483949,54.55565],"type":"Point"},"properties":{"osm_id":"5673176658","tag":{"amenity":"waste_basket"}},"type":"Feature"},
	{"geometry":{"coordinates":[18.49092,54.555036],"type":"Point"},"properties":{"osm_id":"5673176676","tag":{"amenity":"waste_basket"}},"type":"Feature"},
	{"geometry":{"coordinates":[18.543375,54.52255],"type":"Point"},"properties":{"osm_id":"5674295637","tag":{"amenity":"waste_basket"}},"type":"Feature"},
	{"geometry":{"coordinates":[18.523495,54.526879],"type":"Point"},"properties":{"osm_id":"5674552553","tag":{"amenity":"waste_basket"}},"type":"Feature"},
	{"geometry":{"coordinates":[18.461228,54.549239],"type":"Point"},"properties":{"osm_id":"5677752025","tag":{"amenity":"waste_basket"}},"type":"Feature"},
	{"geometry":{"coordinates":[18.471927,54.547786],"type":"Point"},"properties":{"osm_id":"5677752027","tag":{"amenity":"waste_basket"}},"type":"Feature"},
	{"geometry":{"coordinates":[18.471461,54.54775],"type":"Point"},"properties":{"osm_id":"5677752029","tag":{"amenity":"waste_basket"}},"type":"Feature"},
	{"geometry":{"coordinates":[18.484456,54.542479],"type":"Point"},"properties":{"osm_id":"5677752031","tag":{"amenity":"waste_basket"}},"type":"Feature"},
	{"geometry":{"coordinates":[18.484907,54.542079],"type":"Point"},"properties":{"osm_id":"5677752033","tag":{"amenity":"waste_basket"}},"type":"Feature"},
	{"geometry":{"coordinates":[18.492506,54.539085],"type":"Point"},"properties":{"osm_id":"5677752035","tag":{"amenity":"waste_basket"}},"type":"Feature"},
	{"geometry":{"coordinates":[18.467883,54.543429],"type":"Point"},"properties":{"osm_id":"5678099278","tag":{"amenity":"waste_basket"}},"type":"Feature"},
	{"geometry":{"coordinates":[18.47036,54.542609],"type":"Point"},"properties":{"osm_id":"5678099280","tag":{"amenity":"waste_basket"}},"type":"Feature"},
	{"geometry":{"coordinates":[18.476548,54.541142],"type":"Point"},"properties":{"osm_id":"5678099316","tag":{"amenity":"waste_basket"}},"type":"Feature"},
	{"geometry":{"coordinates":[18.517174,54.532115],"type":"Point"},"properties":{"osm_id":"5678099601","tag":{"amenity":"waste_basket"}},"type":"Feature"},
	{"geometry":{"coordinates":[18.518277,54.527892],"type":"Point"},"properties":{"osm_id":"5678099602","tag":{"amenity":"waste_basket"}},"type":"Feature"},
	{"geometry":{"coordinates":[18.51851,54.527842],"type":"Point"},"properties":{"osm_id":"5678099603","tag":{"amenity":"waste_basket"}},"type":"Feature"},
	{"geometry":{"coordinates":[18.542864,54.528188],"type":"Point"},"properties":{"osm_id":"5678210781","tag":{"amenity":"waste_basket"}},"type":"Feature"},
	{"geometry":{"coordinates":[18.543159,54.524348],"type":"Point"},"properties":{"osm_id":"5678283039","tag":{"amenity":"waste_basket"}},"type":"Feature"},
	{"geometry":{"coordinates":[18.531308,54.527069],"type":"Point"},"properties":{"osm_id":"5678283040","tag":{"amenity":"waste_basket"}},"type":"Feature"},
	{"geometry":{"coordinates":[18.534517,54.522034],"type":"Point"},"properties":{"osm_id":"5679088610","tag":{"amenity":"waste_basket"}},"type":"Feature"},
	{"geometry":{"coordinates":[18.52499,54.526503],"type":"Point"},"properties":{"osm_id":"5679104980","tag":{"amenity":"waste_basket"}},"type":"Feature"},
	{"geometry":{"coordinates":[18.508578,54.526121],"type":"Point"},"properties":{"osm_id":"5680145960","tag":{"amenity":"waste_basket"}},"type":"Feature"},
	{"geometry":{"coordinates":[18.51315,54.523561],"type":"Point"},"properties":{"osm_id":"5680145961","tag":{"amenity":"waste_basket"}},"type":"Feature"},
	{"geometry":{"coordinates":[18.518003,54.522708],"type":"Point"},"properties":{"osm_id":"5680145962","tag":{"amenity":"waste_basket"}},"type":"Feature"},
	{"geometry":{"coordinates":[18.523692,54.521282],"type":"Point"},"properties":{"osm_id":"5680145963","tag":{"amenity":"waste_basket"}},"type":"Feature"},
	{"geometry":{"coordinates":[18.5083,54.526723],"type":"Point"},"properties":{"osm_id":"5681349134","tag":{"amenity":"waste_basket"}},"type":"Feature"},
	{"geometry":{"coordinates":[18.51316,54.523643],"type":"Point"},"properties":{"osm_id":"5681349135","tag":{"amenity":"waste_basket"}},"type":"Feature"},
	{"geometry":{"coordinates":[18.519794,54.522786],"type":"Point"},"properties":{"osm_id":"5681349136","tag":{"amenity":"waste_basket"}},"type":"Feature"},
	{"geometry":{"coordinates":[18.523958,54.521288],"type":"Point"},"properties":{"osm_id":"5681349137","tag":{"amenity":"waste_basket"}},"type":"Feature"},
	{"geometry":{"coordinates":[18.517884,54.522077],"type":"Point"},"properties":{"osm_id":"6351900206","tag":{"amenity":"recycling","recycling:glass":"yes","recycling:paper":"yes","recycling:plastic":"yes","recycling:plastic_packaging":"yes","recycling_type":"container"}},"type":"Feature"},
	{"geometry":{"coordinates":[18.522506,54.521814],"type":"Point"},"properties":{"osm_id":"6831036986","tag":{"amenity":"waste_basket"}},"type":"Feature"},
	{"geometry":{"coordinates":[18.521279,54.52311],"type":"Point"},"properties":{"osm_id":"6831044886","tag":{"amenity":"waste_basket"}},"type":"Feature"},
	{"geometry":{"coordinates":[18.521979,54.522873],"type":"Point"},"properties":{"osm_id":"6831044985","tag":{"amenity":"waste_basket"}},"type":"Feature"},
	{"geometry":{"coordinates":[18.502209,54.528246],"type":"Point"},"properties":{"osm_id":"6831526288","tag":{"amenity":"waste_basket"}},"type":"Feature"},
	{"geometry":{"coordinates":[18.50249,54.528468],"type":"Point"},"properties":{"osm_id":"6831526289","tag":{"amenity":"waste_basket"}},"type":"Feature"},
	{"geometry":{"coordinates":[18.52144,54.522614],"type":"Point"},"properties":{"osm_id":"6832242984","tag":{"amenity":"waste_basket","material":"concrete"}},"type":"Feature"},
	{"geometry":{"coordinates":[18.509039,54.550856],"type":"Point"},"properties":{"osm_id":"6842739627","tag":{"amenity":"waste_basket"}},"type":"Feature"},
	{"geometry":{"coordinates":[18.525483,54.521581],"type":"Point"},"properties":{"osm_id":"6848316689","tag":{"amenity":"waste_basket"}},"type":"Feature"},
	{"geometry":{"coordinates":[18.524776,54.521861],"type":"Point"},"properties":{"osm_id":"6848335486","tag":{"amenity":"waste_basket"}},"type":"Feature"},
	{"geometry":{"coordinates":[18.509867,54.523858],"type":"Point"},"properties":{"osm_id":"7320561753","tag":{"amenity":"waste_basket"}},"type":"Feature"}
]
}
