{
"type": "FeatureCollection",
"features": [
	{"geometry":{"coordinates":[18.543076,54.502363],"type":"Point"},"properties":{"osm_id":"1827366113","tag":{"amenity":"waste_basket"}},"type":"Feature"},
	{"geometry":{"coordinates":[18.538878,54.511247],"type":"Point"},"properties":{"osm_id":"1935798539","tag":{"amenity":"waste_basket"}},"type":"Feature"},
	{"geometry":{"coordinates":[18.539151,54.511347],"type":"Point"},"properties":{"osm_id":"1935798542","tag":{"amenity":"waste_basket"}},"type":"Feature"},
	{"geometry":{"coordinates":[18.53893,54.511359],"type":"Point"},"properties":{"osm_id":"1935798546","tag":{"amenity":"waste_basket"}},"type":"Feature"},
	{"geometry":{"coordinates":[18.539749,54.513332],"type":"Point"},"properties":{"osm_id":"1935798638","tag":{"amenity":"waste_basket"}},"type":"Feature"},
	{"geometry":{"coordinates":[18.539948,54.513343],"type":"Point"},"properties":{"osm_id":"1935798639","tag":{"amenity":"waste_basket"}},"type":"Feature"},
	{"geometry":{"coordinates":[18.540141,54.513745],"type":"Point"},"properties":{"osm_id":"1935798672","tag":{"amenity":"waste_basket"}},"type":"Feature"},
	{"geometry":{"coordinates":[18.540197,54.513928],"type":"Point"},"properties":{"osm_id":"1935798684","tag":{"amenity":"waste_basket"}},"type":"Feature"},
	{"geometry":{"coordinates":[18.540302,54.514576],"type":"Point"},"properties":{"osm_id":"1935798719","tag":{"amenity":"waste_basket"}},"type":"Feature"},
	{"geometry":{"coordinates":[18.540776,54.514703],"type":"Point"},"properties":{"osm_id":"1935798727","tag":{"amenity":"waste_basket"}},"type":"Feature"},
	{"geometry":{"coordinates":[18.540805,54.514813],"type":"Point"},"properties":{"osm_id":"1935798775","tag":{"amenity":"waste_basket"}},"type":"Feature"},
	{"geometry":{"coordinates":[18.540499,54.515025],"type":"Point"},"properties":{"osm_id":"1935798782","tag":{"amenity":"waste_basket"}},"type":"Feature"},
	{"geometry":{"coordinates":[18.540607,54.515208],"type":"Point"},"properties":{"osm_id":"1935798786","tag":{"amenity":"waste_basket"}},"type":"Feature"},
	{"geometry":{"coordinates":[18.54081,54.515258],"type":"Point"},"properties":{"osm_id":"1935798787","tag":{"amenity":"waste_basket"}},"type":"Feature"},
	{"geometry":{"coordinates":[18.540633,54.51534],"type":"Point"},"properties":{"osm_id":"1935798788","tag":{"amenity":"waste_basket"}},"type":"Feature"},
	{"geometry":{"coordinates":[18.540701,54.515377],"type":"Point"},"properties":{"osm_id":"1935798813","tag":{"amenity":"waste_basket"}},"type":"Feature"},
	{"geometry":{"coordinates":[18.541418,54.516547],"type":"Point"},"properties":{"osm_id":"1935798879","tag":{"amenity":"waste_basket"}},"type":"Feature"},
	{"geometry":{"coordinates":[18.541272,54.516722],"type":"Point"},"properties":{"osm_id":"1935798907","tag":{"amenity":"waste_basket"}},"type":"Feature"},
	{"geometry":{"coordinates":[18.541527,54.51682],"type":"Point"},"properties":{"osm_id":"1935798911","tag":{"amenity":"waste_basket"}},"type":"Feature"},
	{"geometry":{"coordinates":[18.541583,54.516963],"type":"Point"},"properties":{"osm_id":"1935798940","tag":{"amenity":"waste_basket"}},"type":"Feature"},
	{"geometry":{"coordinates":[18.539467,54.509413],"type":"Point"},"properties":{"osm_id":"1936300480","tag":{"amenity":"waste_basket"}},"type":"Feature"},
	{"geometry":{"coordinates":[18.540014,54.511447],"type":"Point"},"properties":{"osm_id":"1936300554","tag":{"amenity":"waste_basket"}},"type":"Feature"},
	{"geometry":{"coordinates":[18.540522,54.513508],"type":"Point"},"properties":{"osm_id":"1936300560","tag":{"amenity":"waste_basket"}},"type":"Feature"},
	{"geometry":{"coordinates":[18.540355,54.513527],"type":"Point"},"properties":{"osm_id":"1936300562","tag":{"amenity":"waste_basket"}},"type":"Feature"},
	{"geometry":{"coordinates":[18.539347,54.514903],"type":"Point"},"properties":{"osm_id":"1936510269","tag":{"amenity":"waste_basket"}},"type":"Feature"},
	{"geometry":{"coordinates":[18.539159,54.51493],"type":"Point"},"properties":{"osm_id":"1936510294","tag":{"amenity":"waste_basket"}},"type":"Feature"},
	{"geometry":{"coordinates":[18.539407,54.515027],"type":"Point"},"properties":{"osm_id":"1936510299","tag":{"amenity":"waste_basket"}},"type":"Feature"},
	{"geometry":{"coordinates":[18.539211,54.515041],"type":"Point"},"properties":{"osm_id":"1936510303","tag":{"amenity":"waste_basket"}},"type":"Feature"},
	{"geometry":{"coordinates":[18.514947,54.507455],"type":"Point"},"properties":{"osm_id":"1944357440","tag":{"amenity":"recycling","recycling:glass":"yes","recycling:green_waste":"yes","recycling:plastic":"yes","recycling_type":"container"}},"type":"Feature"},
	{"geometry":{"coordinates":[18.509482,54.494289],"type":"Point"},"properties":{"osm_id":"1955562728","tag":{"amenity":"waste_basket"}},"type":"Feature"},
	{"geometry":{"coordinates":[18.509586,54.49427],"type":"Point"},"properties":{"osm_id":"1955562733","tag":{"amenity":"waste_basket"}},"type":"Feature"},
	{"geometry":{"coordinates":[18.50932,54.49435],"type":"Point"},"properties":{"osm_id":"1955562810","tag":{"amenity":"waste_basket"}},"type":"Feature"},
	{"geometry":{"coordinates":[18.509653,54.494418],"type":"Point"},"properties":{"osm_id":"1955562827","tag":{"amenity":"waste_basket"}},"type":"Feature"},
	{"geometry":{"coordinates":[18.509485,54.494708],"type":"Point"},"properties":{"osm_id":"1955562867","tag":{"amenity":"waste_basket"}},"type":"Feature"},
	{"geometry":{"coordinates":[18.508502,54.495259],"type":"Point"},"properties":{"osm_id":"1955562872","tag":{"amenity":"waste_basket"}},"type":"Feature"},
	{"geometry":{"coordinates":[18.512038,54.475644],"type":"Point"},"properties":{"osm_id":"1956641062","tag":{"amenity":"waste_basket"}},"type":"Feature"},
	{"geometry":{"coordinates":[18.538197,54.493762],"type":"Point"},"properties":{"osm_id":"2295410616","tag":{"amenity":"waste_basket"}},"type":"Feature"},
	{"geometry":{"coordinates":[18.538183,54.493806],"type":"Point"},"properties":{"osm_id":"2295410624","tag":{"amenity":"waste_basket"}},"type":"Feature"},
	{"geometry":{"coordinates":[18.538119,54.493983],"type":"Point"},"properties":{"osm_id":"2295410630","tag":{"amenity":"waste_basket"}},"type":"Feature"},
	{"geometry":{"coordinates":[18.5381,54.494059],"type":"Point"},"properties":{"osm_id":"2295410634","tag":{"amenity":"waste_basket"}},"type":"Feature"},
	{"geometry":{"coordinates":[18.53891,54.494059],"type":"Point"},"properties":{"osm_id":"2295410642","tag":{"amenity":"waste_basket"}},"type":"Feature"},
	{"geometry":{"coordinates":[18.53889,54.494103],"type":"Point"},"properties":{"osm_id":"2295410649","tag":{"amenity":"waste_basket"}},"type":"Feature"},
	{"geometry":{"coordinates":[18.489355,54.472413],"type":"Point"},"properties":{"name":"Punkt zbi\u00c3\u00b3rki niebezpiecznych odpad\u00c3\u00b3w","osm_id":"2472393063","tag":{"amenity":"recycling","opening_hours":"Tu,Th 14:00-17:00; Sa 10:00-14:00","recycling:batteries":"yes","recycling_type":"centre"}},"type":"Feature"},
	{"geometry":{"coordinates":[18.540242,54.511488],"type":"Point"},"properties":{"osm_id":"2984437369","tag":{"amenity":"waste_basket"}},"type":"Feature"},
	{"geometry":{"coordinates":[18.533515,54.519853],"type":"Point"},"properties":{"osm_id":"3090325319","tag":{"amenity":"waste_basket"}},"type":"Feature"},
	{"geometry":{"coordinates":[18.538352,54.51755],"type":"Point"},"properties":{"osm_id":"3774619195","tag":{"amenity":"waste_basket"}},"type":"Feature"},
	{"geometry":{"coordinates":[18.538611,54.517887],"type":"Point"},"properties":{"osm_id":"3774619197","tag":{"amenity":"waste_basket"}},"type":"Feature"},
	{"geometry":{"coordinates":[18.540872,54.515891],"type":"Point"},"properties":{"osm_id":"4052529004","tag":{"amenity":"waste_basket"}},"type":"Feature"},
	{"geometry":{"coordinates":[18.540768,54.516038],"type":"Point"},"properties":{"osm_id":"4052529013","tag":{"amenity":"waste_basket"}},"type":"Feature"},
	{"geometry":{"coordinates":[18.541447,54.517199],"type":"Point"},"properties":{"osm_id":"4052559891","tag":{"amenity":"waste_basket"}},"type":"Feature"},
	{"geometry":{"coordinates":[18.541247,54.5174],"type":"Point"},"properties":{"osm_id":"4052559906","tag":{"amenity":"waste_basket"}},"type":"Feature"},
	{"geometry":{"coordinates":[18.50838,54.494788],"type":"Point"},"properties":{"osm_id":"4276399067","tag":{"amenity":"waste_basket"}},"type":"Feature"},
	{"geometry":{"coordinates":[18.508139,54.494344],"type":"Point"},"properties":{"osm_id":"4276399072","tag":{"amenity":"waste_basket"}},"type":"Feature"},
	{"geometry":{"coordinates":[18.529644,54.520003],"type":"Point"},"properties":{"osm_id":"4314176806","tag":{"amenity":"waste_basket"}},"type":"Feature"},
	{"geometry":{"coordinates":[18.538455,54.510179],"type":"Point"},"properties":{"osm_id":"4314228994","tag":{"amenity":"waste_basket"}},"type":"Feature"},
	{"geometry":{"coordinates":[18.532829,54.502993],"type":"Point"},"properties":{"osm_id":"4314287027","tag":{"amenity":"waste_basket"}},"type":"Feature"},
	{"geometry":{"coordinates":[18.532795,54.503125],"type":"Point"},"properties":{"osm_id":"4314287033","tag":{"amenity":"waste_basket"}},"type":"Feature"},
	{"geometry":{"coordinates":[18.532799,54.503183],"type":"Point"},"properties":{"osm_id":"4314287037","tag":{"amenity":"waste_basket"}},"type":"Feature"},
	{"geometry":{"coordinates":[18.532998,54.503759],"type":"Point"},"properties":{"osm_id":"4314287057","tag":{"amenity":"waste_basket"}},"type":"Feature"},
	{"geometry":{"coordinates":[18.533247,54.503797],"type":"Point"},"properties":{"osm_id":"4314287061","tag":{"amenity":"waste_basket"}},"type":"Feature"},
	{"geometry":{"coordinates":[18.533013,54.504018],"type":"Point"},"properties":{"osm_id":"4314287070","tag":{"amenity":"waste_basket"}},"type":"Feature"},
	{"geometry":{"coordinates":[18.532823,54.504438],"type":"Point"},"properties":{"osm_id":"4314287080","tag":{"amenity":"waste_basket"}},"type":"Feature"},
	{"geometry":{"coordinates":[18.533086,54.504768],"type":"Point"},"properties":{"osm_id":"4314288705","tag":{"amenity":"waste_basket"}},"type":"Feature"},
	{"geometry":{"coordinates":[18.533152,54.504795],"type":"Point"},"properties":{"osm_id":"4314288707","tag":{"amenity":"waste_basket"}},"type":"Feature"},
	{"geometry":{"coordinates":[18.533377,54.505295],"type":"Point"},"properties":{"osm_id":"4314288742","tag":{"amenity":"waste_basket"}},"type":"Feature"},
	{"geometry":{"coordinates":[18.533599,54.505961],"type":"Point"},"properties":{"osm_id":"4314288749","tag":{"amenity":"waste_basket"}},"type":"Feature"},
	{"geometry":{"coordinates":[18.515566,54.484032],"type":"Point"},"properties":{"osm_id":"4315400849","tag":{"amenity":"waste_basket"}},"type":"Feature"},
	{"geometry":{"coordinates":[18.516614,54.48404],"type":"Point"},"properties":{"osm_id":"4315400851","tag":{"amenity":"waste_basket"}},"type":"Feature"},
	{"geometry":{"coordinates":[18.51683,54.484081],"type":"Point"},"properties":{"osm_id":"4315400854","tag":{"amenity":"waste_basket"}},"type":"Feature"},
	{"geometry":{"coordinates":[18.515659,54.484116],"type":"Point"},"properties":{"osm_id":"4315400859","tag":{"amenity":"waste_basket"}},"type":"Feature"},
	{"geometry":{"coordinates":[18.489705,54.47274],"type":"Point"},"properties":{"osm_id":"4317421500","tag":{"amenity":"waste_basket"}},"type":"Feature"},
	{"geometry":{"coordinates":[18.470606,54.499862],"type":"Point"},"properties":{"osm_id":"4324858812","tag":{"amenity":"waste_basket"}},"type":"Feature"},
	{"geometry":{"coordinates":[18.513027,54.472269],"type":"Point"},"properties":{"osm_id":"4324911140","tag":{"amenity":"waste_basket"}},"type":"Feature"},
	{"geometry":{"coordinates":[18.537081,54.491186],"type":"Point"},"properties":{"osm_id":"4325430520","tag":{"amenity":"waste_basket"}},"type":"Feature"},
	{"geometry":{"coordinates":[18.537244,54.491221],"type":"Point"},"properties":{"osm_id":"4325430521","tag":{"amenity":"waste_basket"}},"type":"Feature"},
	{"geometry":{"coordinates":[18.54133,54.516938],"type":"Point"},"properties":{"osm_id":"4325882806","tag":{"amenity":"waste_basket"}},"type":"Feature"},
	{"geometry":{"coordinates":[18.54271,54.507884],"type":"Point"},"properties":{"osm_id":"4329176900","tag":{"amenity":"waste_basket"}},"type":"Feature"},
	{"geometry":{"coordinates":[18.542931,54.5079],"type":"Point"},"properties":{"osm_id":"4329176903","tag":{"amenity":"waste_basket"}},"type":"Feature"},
	{"geometry":{"coordinates":[18.54249,54.508159],"type":"Point"},"properties":{"osm_id":"4329176907","tag":{"amenity":"waste_basket"}},"type":"Feature"},
	{"geometry":{"coordinates":[18.543132,54.508119],"type":"Point"},"properties":{"osm_id":"4329176909","tag":{"amenity":"waste_basket"}},"type":"Feature"},
	{"geometry":{"coordinates":[18.542632,54.508207],"type":"Point"},"properties":{"osm_id":"4329176912","tag":{"amenity":"waste_basket"}},"type":"Feature"},
	{"geometry":{"coordinates":[18.542727,54.508285],"type":"Point"},"properties":{"osm_id":"4329176915","tag":{"amenity":"waste_basket"}},"type":"Feature"},
	{"geometry":{"coordinates":[18.540546,54.492854],"type":"Point"},"properties":{"osm_id":"4331832028","tag":{"amenity":"waste_basket"}},"type":"Feature"},
	{"geometry":{"coordinates":[18.541652,54.493612],"type":"Point"},"properties":{"osm_id":"4331832069","tag":{"amenity":"waste_basket"}},"type":"Feature"},
	{"geometry":{"coordinates":[18.538447,54.483279],"type":"Point"},"properties":{"osm_id":"4331866370","tag":{"amenity":"waste_basket"}},"type":"Feature"},
	{"geometry":{"coordinates":[18.538587,54.483554],"type":"Point"},"properties":{"osm_id":"4331866371","tag":{"amenity":"waste_basket"}},"type":"Feature"},
	{"geometry":{"coordinates":[18.536743,54.49177],"type":"Point"},"properties":{"osm_id":"4353799333","tag":{"amenity":"waste_basket"}},"type":"Feature"},
	{"geometry":{"coordinates":[18.530794,54.492028],"type":"Point"},"properties":{"osm_id":"4353799340","tag":{"amenity":"waste_basket"}},"type":"Feature"},
	{"geometry":{"coordinates":[18.530513,54.492269],"type":"Point"},"properties":{"osm_id":"4353799344","tag":{"amenity":"waste_basket"}},"type":"Feature"},
	{"geometry":{"coordinates":[18.534985,54.494234],"type":"Point"},"properties":{"osm_id":"4353799992","tag":{"amenity":"waste_basket"}},"type":"Feature"},
	{"geometry":{"coordinates":[18.534705,54.494873],"type":"Point"},"properties":{"osm_id":"4353800003","tag":{"amenity":"waste_basket"}},"type":"Feature"},
	{"geometry":{"coordinates":[18.532394,54.498772],"type":"Point"},"properties":{"osm_id":"4353800285","tag":{"amenity":"waste_basket"}},"type":"Feature"},
	{"geometry":{"coordinates":[18.53743,54.510218],"type":"Point"},"properties":{"osm_id":"4370696219","tag":{"amenity":"waste_basket"}},"type":"Feature"},
	{"geometry":{"coordinates":[18.536939,54.510576],"type":"Point"},"properties":{"osm_id":"4370696236","tag":{"amenity":"waste_basket"}},"type":"Feature"},
	{"geometry":{"coordinates":[18.531985,54.512582],"type":"Point"},"properties":{"osm_id":"4381064069","tag":{"amenity":"waste_basket"}},"type":"Feature"},
	{"geometry":{"coordinates":[18.532233,54.512593],"type":"Point"},"properties":{"osm_id":"4381064070","tag":{"amenity":"waste_basket"}},"type":"Feature"},
	{"geometry":{"coordinates":[18.512307,54.491248],"type":"Point"},"properties":{"osm_id":"4381079433","tag":{"amenity":"waste_basket"}},"type":"Feature"},
	{"geometry":{"coordinates":[18.507933,54.494756],"type":"Point"},"properties":{"osm_id":"4381079434","tag":{"amenity":"waste_basket"}},"type":"Feature"},
	{"geometry":{"coordinates":[18.508454,54.49552],"type":"Point"},"properties":{"osm_id":"4381079436","tag":{"amenity":"waste_basket"}},"type":"Feature"},
	{"geometry":{"coordinates":[18.509235,54.497789],"type":"Point"},"properties":{"osm_id":"4381079437","tag":{"amenity":"waste_basket"}},"type":"Feature"},
	{"geometry":{"coordinates":[18.512093,54.500091],"type":"Point"},"properties":{"osm_id":"4381079444","tag":{"amenity":"waste_basket"}},"type":"Feature"},
	{"geometry":{"coordinates":[18.531773,54.508271],"type":"Point"},"properties":{"osm_id":"4381079447","tag":{"amenity":"waste_basket"}},"type":"Feature"},
	{"geometry":{"coordinates":[18.538449,54.517425],"type":"Point"},"properties":{"osm_id":"4381079453","tag":{"amenity":"waste_basket"}},"type":"Feature"},
	{"geometry":{"coordinates":[18.536634,54.51954],"type":"Point"},"properties":{"osm_id":"4381079456","tag":{"amenity":"waste_basket"}},"type":"Feature"},
	{"geometry":{"coordinates":[18.536774,54.519747],"type":"Point"},"properties":{"osm_id":"4381079457","tag":{"amenity":"waste_basket"}},"type":"Feature"},
	{"geometry":{"coordinates":[18.531543,54.520841],"type":"Point"},"properties":{"osm_id":"4381079459","tag":{"amenity":"waste_basket"}},"type":"Feature"},
	{"geometry":{"coordinates":[18.494156,54.49838],"type":"Point"},"properties":{"osm_id":"4381114379","tag":{"amenity":"waste_basket"}},"type":"Feature"},
	{"geometry":{"coordinates":[18.496804,54.498393],"type":"Point"},"properties":{"osm_id":"4381114380","tag":{"amenity":"waste_basket"}},"type":"Feature"},
	{"geometry":{"coordinates":[18.50774,54.498658],"type":"Point"},"properties":{"osm_id":"4381114387","tag":{"amenity":"waste_basket"}},"type":"Feature"},
	{"geometry":{"coordinates":[18.502965,54.498708],"type":"Point"},"properties":{"osm_id":"4381114489","tag":{"amenity":"waste_basket"}},"type":"Feature"},
	{"geometry":{"coordinates":[18.51087,54.498872],"type":"Point"},"properties":{"osm_id":"4381114492","tag":{"amenity":"waste_basket"}},"type":"Feature"},
	{"geometry":{"coordinates":[18.513642,54.500725],"type":"Point"},"properties":{"osm_id":"4381114500","tag":{"amenity":"waste_basket"}},"type":"Feature"},
	{"geometry":{"coordinates":[18.521308,54.510223],"type":"Point"},"properties":{"osm_id":"4381991923","tag":{"amenity":"waste_basket"}},"type":"Feature"},
	{"geometry":{"coordinates":[18.530493,54.511013],"type":"Point"},"properties":{"osm_id":"4381991931","tag":{"amenity":"waste_basket"}},"type":"Feature"},
	{"geometry":{"coordinates":[18.531079,54.511015],"type":"Point"},"properties":{"osm_id":"4381991932","tag":{"amenity":"waste_basket"}},"type":"Feature"},
	{"geometry":{"coordinates":[18.530077,54.517219],"type":"Point"},"properties":{"osm_id":"4381991962","tag":{"amenity":"waste_basket"}},"type":"Feature"},
	{"geometry":{"coordinates":[18.530644,54.516791],"type":"Point"},"properties":{"osm_id":"4381991963","tag":{"amenity":"waste_basket"}},"type":"Feature"},
	{"geometry":{"coordinates":[18.528127,54.519331],"type":"Point"},"properties":{"osm_id":"4381991965","tag":{"amenity":"waste_basket"}},"type":"Feature"},
	{"geometry":{"coordinates":[18.527831,54.519861],"type":"Point"},"properties":{"osm_id":"4381991967","tag":{"amenity":"waste_basket"}},"type":"Feature"},
	{"geometry":{"coordinates":[18.520771,54.509992],"type":"Point"},"properties":{"osm_id":"4381996877","tag":{"amenity":"waste_basket"}},"type":"Feature"},
	{"geometry":{"coordinates":[18.510281,54.497759],"type":"Point"},"properties":{"osm_id":"4382005492","tag":{"amenity":"waste_basket"}},"type":"Feature"},
	{"geometry":{"coordinates":[18.537148,54.508618],"type":"Point"},"properties":{"osm_id":"4382068947","tag":{"amenity":"waste_basket"}},"type":"Feature"},
	{"geometry":{"coordinates":[18.538437,54.514373],"type":"Point"},"properties":{"osm_id":"4382068949","tag":{"amenity":"waste_basket"}},"type":"Feature"},
	{"geometry":{"coordinates":[18.539042,54.518063],"type":"Point"},"properties":{"osm_id":"4382068951","tag":{"amenity":"waste_basket"}},"type":"Feature"},
	{"geometry":{"coordinates":[18.53432,54.508529],"type":"Point"},"properties":{"osm_id":"4382081232","tag":{"amenity":"waste_basket"}},"type":"Feature"},
	{"geometry":{"coordinates":[18.52809,54.520467],"type":"Point"},"properties":{"osm_id":"4382081234","tag":{"amenity":"waste_basket"}},"type":"Feature"},
	{"geometry":{"coordinates":[18.532537,54.497721],"type":"Point"},"properties":{"osm_id":"4382096913","tag":{"amenity":"waste_basket"}},"type":"Feature"},
	{"geometry":{"coordinates":[18.53653,54.507598],"type":"Point"},"properties":{"osm_id":"4382117882","tag":{"amenity":"waste_basket"}},"type":"Feature"},
	{"geometry":{"coordinates":[18.536532,54.508143],"type":"Point"},"properties":{"osm_id":"4382117885","tag":{"amenity":"waste_basket"}},"type":"Feature"},
	{"geometry":{"coordinates":[18.538114,54.50858],"type":"Point"},"properties":{"osm_id":"4382117888","tag":{"amenity":"waste_basket"}},"type":"Feature"},
	{"geometry":{"coordinates":[18.537635,54.513337],"type":"Point"},"properties":{"osm_id":"4382426582","tag":{"amenity":"waste_basket"}},"type":"Feature"},
	{"geometry":{"coordinates":[18.544145,54.508669],"type":"Point"},"properties":{"osm_id":"4382449392","tag":{"amenity":"waste_basket"}},"type":"Feature"},
	{"geometry":{"coordinates":[18.457661,54.50034],"type":"Point"},"properties":{"osm_id":"4383203142","tag":{"amenity":"waste_basket"}},"type":"Feature"},
	{"geometry":{"coordinates":[18.533193,54.507978],"type":"Point"},"properties":{"osm_id":"4383203144","tag":{"amenity":"waste_basket"}},"type":"Feature"},
	{"geometry":{"coordinates":[18.46673,54.500189],"type":"Point"},"properties":{"osm_id":"4383275078","tag":{"amenity":"waste_basket"}},"type":"Feature"},
	{"geometry":{"coordinates":[18.470608,54.500103],"type":"Point"},"properties":{"osm_id":"4385106395","tag":{"amenity":"waste_basket"}},"type":"Feature"},
	{"geometry":{"coordinates":[18.466164,54.500481],"type":"Point"},"properties":{"osm_id":"4385106404","tag":{"amenity":"waste_basket"}},"type":"Feature"},
	{"geometry":{"coordinates":[18.54342,54.513299],"type":"Point"},"properties":{"osm_id":"4386037042","tag":{"amenity":"waste_basket"}},"type":"Feature"},
	{"geometry":{"coordinates":[18.543929,54.514058],"type":"Point"},"properties":{"osm_id":"4386037055","tag":{"amenity":"waste_basket"}},"type":"Feature"},
	{"geometry":{"coordinates":[18.54391,54.51414],"type":"Point"},"properties":{"osm_id":"4386037059","tag":{"amenity":"waste_basket"}},"type":"Feature"},
	{"geometry":{"coordinates":[18.54375,54.514784],"type":"Point"},"properties":{"osm_id":"4386037069","tag":{"amenity":"waste_basket"}},"type":"Feature"},
	{"geometry":{"coordinates":[18.543444,54.515378],"type":"Point"},"properties":{"osm_id":"4386037075","tag":{"amenity":"waste_basket"}},"type":"Feature"},
	{"geometry":{"coordinates":[18.543118,54.515379],"type":"Point"},"properties":{"osm_id":"4386037079","tag":{"amenity":"waste_basket"}},"type":"Feature"},
	{"geometry":{"coordinates":[18.543055,54.51553],"type":"Point"},"properties":{"osm_id":"4386037391","tag":{"amenity":"waste_basket"}},"type":"Feature"},
	{"geometry":{"coordinates":[18.543471,54.515539],"type":"Point"},"properties":{"osm_id":"4386037393","tag":{"amenity":"waste_basket"}},"type":"Feature"},
	{"geometry":{"coordinates":[18.543385,54.515567],"type":"Point"},"properties":{"osm_id":"4386037396","tag":{"amenity":"waste_basket"}},"type":"Feature"},
	{"geometry":{"coordinates":[18.544849,54.514304],"type":"Point"},"properties":{"osm_id":"4386040247","tag":{"amenity":"waste_basket"}},"type":"Feature"},
	{"geometry":{"coordinates":[18.544759,54.514383],"type":"Point"},"properties":{"osm_id":"4386040249","tag":{"amenity":"waste_basket"}},"type":"Feature"},
	{"geometry":{"coordinates":[18.536285,54.501926],"type":"Point"},"properties":{"osm_id":"4416159588","tag":{"amenity":"waste_basket"}},"type":"Feature"},
	{"geometry":{"coordinates":[18.53651,54.503379],"type":"Point"},"properties":{"osm_id":"4416168592","tag":{"amenity":"waste_basket"}},"type":"Feature"},
	{"geometry":{"coordinates":[18.489669,54.473719],"type":"Point"},"properties":{"osm_id":"5041609682","tag":{"amenity":"waste_basket"}},"type":"Feature"},
	{"geometry":{"coordinates":[18.464221,54.474547],"type":"Point"},"properties":{"osm_id":"5051591223","tag":{"amenity":"waste_basket"}},"type":"Feature"},
	{"geometry":{"coordinates":[18.539988,54.519379],"type":"Point"},"properties":{"osm_id":"5053024027","tag":{"amenity":"waste_basket"}},"type":"Feature"},
	{"geometry":{"coordinates":[18.538906,54.497024],"type":"Point"},"properties":{"osm_id":"5138461673","tag":{"amenity":"waste_basket"}},"type":"Feature"},
	{"geometry":{"coordinates":[18.538313,54.497548],"type":"Point"},"properties":{"osm_id":"5138461674","tag":{"amenity":"waste_basket"}},"type":"Feature"},
	{"geometry":{"coordinates":[18.538177,54.496722],"type":"Point"},"properties":{"osm_id":"5138461675","tag":{"amenity":"waste_basket"}},"type":"Feature"},
	{"geometry":{"coordinates":[18.541734,54.519472],"type":"Point"},"properties":{"osm_id":"5140927041","tag":{"amenity":"waste_basket"}},"type":"Feature"},
	{"geometry":{"coordinates":[18.539523,54.51222],"type":"Point"},"properties":{"osm_id":"5188175146","tag":{"amenity":"waste_basket"}},"type":"Feature"},
	{"geometry":{"coordinates":[18.531441,54.486196],"type":"Point"},"properties":{"osm_id":"5615265761","tag":{"amenity":"waste_basket"}},"type":"Feature"},
	{"geometry":{"coordinates":[18.542112,54.518846],"type":"Point"},"properties":{"osm_id":"5648957135","tag":{"amenity":"waste_basket"}},"type":"Feature"},
	{"geometry":{"coordinates":[18.542074,54.518006],"type":"Point"},"properties":{"osm_id":"5648957140","tag":{"amenity":"waste_basket"}},"type":"Feature"},
	{"geometry":{"coordinates":[18.533576,54.49115],"type":"Point"},"properties":{"osm_id":"5649146930","tag":{"amenity":"waste_basket"}},"type":"Feature"},
	{"geometry":{"coordinates":[18.532976,54.490683],"type":"Point"},"properties":{"osm_id":"5649146944","tag":{"amenity":"waste_basket"}},"type":"Feature"},
	{"geometry":{"coordinates":[18.535834,54.505529],"type":"Point"},"properties":{"osm_id":"5673373552","tag":{"amenity":"waste_basket"}},"type":"Feature"},
	{"geometry":{"coordinates":[18.540646,54.492023],"type":"Point"},"properties":{"osm_id":"5674514468","tag":{"amenity":"waste_basket"}},"type":"Feature"},
	{"geometry":{"coordinates":[18.544529,54.484978],"type":"Point"},"properties":{"osm_id":"5674514472","tag":{"amenity":"waste_basket"}},"type":"Feature"},
	{"geometry":{"coordinates":[18.524083,54.478189],"type":"Point"},"properties":{"osm_id":"5674514473","tag":{"amenity":"waste_basket"}},"type":"Feature"},
	{"geometry":{"coordinates":[18.52373,54.478435],"type":"Point"},"properties":{"osm_id":"5674514476","tag":{"amenity":"waste_basket"}},"type":"Feature"},
	{"geometry":{"coordinates":[18.531073,54.481283],"type":"Point"},"properties":{"osm_id":"5674514486","tag":{"amenity":"waste_basket"}},"type":"Feature"},
	{"geometry":{"coordinates":[18.538986,54.491972],"type":"Point"},"properties":{"osm_id":"5674552542","tag":{"amenity":"waste_basket"}},"type":"Feature"},
	{"geometry":{"coordinates":[18.484823,54.473903],"type":"Point"},"properties":{"osm_id":"5674552546","tag":{"amenity":"waste_basket"}},"type":"Feature"},
	{"geometry":{"coordinates":[18.516082,54.475618],"type":"Point"},"properties":{"osm_id":"5674552555","tag":{"amenity":"waste_basket"}},"type":"Feature"},
	{"geometry":{"coordinates":[18.53119,54.48091],"type":"Point"},"properties":{"osm_id":"5674785994","tag":{"amenity":"waste_basket"}},"type":"Feature"},
	{"geometry":{"coordinates":[18.517303,54.475666],"type":"Point"},"properties":{"osm_id":"5674785996","tag":{"amenity":"waste_basket"}},"type":"Feature"},
	{"geometry":{"coordinates":[18.514798,54.473486],"type":"Point"},"properties":{"osm_id":"5674785998","tag":{"amenity":"waste_basket"}},"type":"Feature"},
	{"geometry":{"coordinates":[18.540931,54.515459],"type":"Point"},"properties":{"osm_id":"5674868539","tag":{"amenity":"waste_basket"}},"type":"Feature"},
	{"geometry":{"coordinates":[18.457941,54.474254],"type":"Point"},"properties":{"osm_id":"5678099319","tag":{"amenity":"waste_basket"}},"type":"Feature"},
	{"geometry":{"coordinates":[18.54015,54.514265],"type":"Point"},"properties":{"osm_id":"5678099525","tag":{"amenity":"waste_basket"}},"type":"Feature"},
	{"geometry":{"coordinates":[18.53879,54.511042],"type":"Point"},"properties":{"osm_id":"5678099527","tag":{"amenity":"waste_basket"}},"type":"Feature"},
	{"geometry":{"coordinates":[18.54303,54.52097],"type":"Point"},"properties":{"osm_id":"5678099609","tag":{"amenity":"waste_basket"}},"type":"Feature"},
	{"geometry":{"coordinates":[18.508713,54.494931],"type":"Point"},"properties":{"osm_id":"5678210777","tag":{"amenity":"waste_basket"}},"type":"Feature"},
	{"geometry":{"coordinates":[18.512042,54.496198],"type":"Point"},"properties":{"osm_id":"5678210782","tag":{"amenity":"waste_basket"}},"type":"Feature"},
	{"geometry":{"coordinates":[18.51487,54.495018],"type":"Point"},"properties":{"osm_id":"5678210784","tag":{"amenity":"waste_basket"}},"type":"Feature"},
	{"geometry":{"coordinates":[18.544518,54.496364],"type":"Point"},"properties":{"osm_id":"5679104972","tag":{"amenity":"waste_basket"}},"type":"Feature"},
	{"geometry":{"coordinates":[18.542229,54.503258],"type":"Point"},"properties":{"osm_id":"5679104982","tag":{"amenity":"waste_basket"}},"type":"Feature"},
	{"geometry":{"coordinates":[18.528286,54.486731],"type":"Point"},"properties":{"osm_id":"5682530231","tag":{"amenity":"waste_basket"}},"type":"Feature"},
	{"geometry":{"coordinates":[18.514813,54.490021],"type":"Point"},"properties":{"osm_id":"6696844183","tag":{"amenity":"waste_basket"}},"type":"Feature"},
	{"geometry":{"coordinates":[18.514997,54.490307],"type":"Point"},"properties":{"osm_id":"6696844184","tag":{"amenity":"waste_basket"}},"type":"Feature"},
	{"geometry":{"coordinates":[18.515254,54.490146],"type":"Point"},"properties":{"osm_id":"6696866585","tag":{"amenity":"waste_basket"}},"type":"Feature"},
	{"geometry":{"coordinates":[18.518827,54.520741],"type":"Point"},"properties":{"osm_id":"6796976879","tag":{"amenity":"waste_basket"}},"type":"Feature"},
	{"geometry":{"coordinates":[18.526599,54.520968],"type":"Point"},"properties":{"osm_id":"6848339385","tag":{"amenity":"waste_basket"}},"type":"Feature"},
	{"geometry":{"coordinates":[18.515364,54.516412],"type":"Point"},"properties":{"osm_id":"7221393817","tag":{"amenity":"waste_basket"}},"type":"Feature"}
]
}
