{
"type": "FeatureCollection",
"features": [
	{"geometry":{"coordinates":[18.501867,52.015348],"type":"Point"},"properties":{"osm_id":"2419156647","tag":{"amenity":"waste_basket"}},"type":"Feature"},
	{"geometry":{"coordinates":[18.501811,52.015457],"type":"Point"},"properties":{"osm_id":"2419156648","tag":{"amenity":"waste_basket"}},"type":"Feature"},
	{"geometry":{"coordinates":[18.507948,52.015336],"type":"Point"},"properties":{"osm_id":"2419157469","tag":{"amenity":"waste_basket"}},"type":"Feature"},
	{"geometry":{"coordinates":[18.508516,52.015365],"type":"Point"},"properties":{"osm_id":"2419157470","tag":{"amenity":"waste_basket"}},"type":"Feature"},
	{"geometry":{"coordinates":[18.509101,52.015398],"type":"Point"},"properties":{"osm_id":"2419157471","tag":{"amenity":"waste_basket"}},"type":"Feature"},
	{"geometry":{"coordinates":[18.509111,52.015336],"type":"Point"},"properties":{"osm_id":"2421047360","tag":{"amenity":"waste_basket"}},"type":"Feature"},
	{"geometry":{"coordinates":[18.508677,52.015299],"type":"Point"},"properties":{"osm_id":"2421047361","tag":{"amenity":"waste_basket"}},"type":"Feature"},
	{"geometry":{"coordinates":[18.508088,52.015252],"type":"Point"},"properties":{"osm_id":"2421047362","tag":{"amenity":"waste_basket"}},"type":"Feature"},
	{"geometry":{"coordinates":[18.513938,52.01508],"type":"Point"},"properties":{"osm_id":"2421228827","tag":{"amenity":"waste_basket"}},"type":"Feature"},
	{"geometry":{"coordinates":[18.513888,52.014263],"type":"Point"},"properties":{"osm_id":"2429925784","tag":{"amenity":"waste_basket"}},"type":"Feature"},
	{"geometry":{"coordinates":[18.512447,52.014182],"type":"Point"},"properties":{"osm_id":"2435172376","tag":{"amenity":"recycling","recycling_type":"container"}},"type":"Feature"},
	{"geometry":{"coordinates":[18.51511,52.014313],"type":"Point"},"properties":{"osm_id":"2435175719","tag":{"amenity":"recycling","recycling_type":"container"}},"type":"Feature"},
	{"geometry":{"coordinates":[18.518539,52.011829],"type":"Point"},"properties":{"osm_id":"2437761333","tag":{"amenity":"recycling","recycling_type":"container"}},"type":"Feature"},
	{"geometry":{"coordinates":[18.519801,52.011955],"type":"Point"},"properties":{"osm_id":"2437761338","tag":{"amenity":"recycling","recycling_type":"container"}},"type":"Feature"},
	{"geometry":{"coordinates":[18.521877,52.012564],"type":"Point"},"properties":{"osm_id":"2437761342","tag":{"amenity":"recycling","recycling_type":"container"}},"type":"Feature"},
	{"geometry":{"coordinates":[18.522794,52.012667],"type":"Point"},"properties":{"osm_id":"2439062590","tag":{"amenity":"recycling","recycling_type":"container"}},"type":"Feature"},
	{"geometry":{"coordinates":[18.523468,52.012697],"type":"Point"},"properties":{"osm_id":"2439062591","tag":{"amenity":"recycling","recycling_type":"container"}},"type":"Feature"},
	{"geometry":{"coordinates":[18.526525,52.013051],"type":"Point"},"properties":{"osm_id":"2439077760","tag":{"amenity":"waste_basket"}},"type":"Feature"},
	{"geometry":{"coordinates":[18.528272,52.009442],"type":"Point"},"properties":{"osm_id":"2444983346","tag":{"amenity":"waste_basket"}},"type":"Feature"},
	{"geometry":{"coordinates":[18.528186,52.010486],"type":"Point"},"properties":{"osm_id":"2444983348","tag":{"amenity":"waste_basket"}},"type":"Feature"},
	{"geometry":{"coordinates":[18.525871,52.013591],"type":"Point"},"properties":{"osm_id":"2444983351","tag":{"amenity":"waste_basket"}},"type":"Feature"},
	{"geometry":{"coordinates":[18.521268,52.018496],"type":"Point"},"properties":{"osm_id":"2444983363","tag":{"amenity":"waste_basket"}},"type":"Feature"},
	{"geometry":{"coordinates":[18.521674,52.017968],"type":"Point"},"properties":{"osm_id":"2446201714","tag":{"amenity":"waste_basket"}},"type":"Feature"},
	{"geometry":{"coordinates":[18.506948,52.018423],"type":"Point"},"properties":{"osm_id":"2451301496","tag":{"amenity":"waste_basket"}},"type":"Feature"},
	{"geometry":{"coordinates":[18.507374,52.018471],"type":"Point"},"properties":{"osm_id":"2451301497","tag":{"amenity":"waste_basket"}},"type":"Feature"},
	{"geometry":{"coordinates":[18.501159,52.0201],"type":"Point"},"properties":{"osm_id":"2492256960","tag":{"amenity":"waste_basket"}},"type":"Feature"},
	{"geometry":{"coordinates":[18.502558,52.020167],"type":"Point"},"properties":{"osm_id":"2492256961","tag":{"amenity":"waste_basket"}},"type":"Feature"},
	{"geometry":{"coordinates":[18.502534,52.020355],"type":"Point"},"properties":{"osm_id":"2492256965","tag":{"amenity":"waste_basket"}},"type":"Feature"},
	{"geometry":{"coordinates":[18.502744,52.020542],"type":"Point"},"properties":{"osm_id":"2492256975","tag":{"amenity":"waste_basket"}},"type":"Feature"},
	{"geometry":{"coordinates":[18.503018,52.020488],"type":"Point"},"properties":{"osm_id":"2492256987","tag":{"amenity":"waste_basket"}},"type":"Feature"},
	{"geometry":{"coordinates":[18.520931,52.013752],"type":"Point"},"properties":{"osm_id":"2881857668","tag":{"amenity":"recycling","recycling_type":"container"}},"type":"Feature"},
	{"geometry":{"coordinates":[18.520046,52.01379],"type":"Point"},"properties":{"osm_id":"2881857669","tag":{"amenity":"recycling","recycling_type":"container"}},"type":"Feature"},
	{"geometry":{"coordinates":[18.519889,52.019952],"type":"Point"},"properties":{"osm_id":"2881900488","tag":{"amenity":"waste_basket"}},"type":"Feature"},
	{"geometry":{"coordinates":[18.519326,52.020559],"type":"Point"},"properties":{"osm_id":"2881900490","tag":{"amenity":"waste_basket"}},"type":"Feature"},
	{"geometry":{"coordinates":[18.524093,52.015347],"type":"Point"},"properties":{"osm_id":"2885751643","tag":{"amenity":"waste_basket"}},"type":"Feature"},
	{"geometry":{"coordinates":[18.522966,52.016658],"type":"Point"},"properties":{"osm_id":"2885751645","tag":{"amenity":"waste_basket"}},"type":"Feature"},
	{"geometry":{"coordinates":[18.502219,52.021692],"type":"Point"},"properties":{"osm_id":"3935858103","tag":{"amenity":"waste_basket"}},"type":"Feature"},
	{"geometry":{"coordinates":[18.503521,52.021277],"type":"Point"},"properties":{"osm_id":"3935859023","tag":{"amenity":"waste_basket"}},"type":"Feature"},
	{"geometry":{"coordinates":[18.503834,52.021331],"type":"Point"},"properties":{"osm_id":"3935859024","tag":{"amenity":"waste_basket"}},"type":"Feature"},
	{"geometry":{"coordinates":[18.504139,52.02108],"type":"Point"},"properties":{"osm_id":"3935859029","tag":{"amenity":"waste_basket"}},"type":"Feature"},
	{"geometry":{"coordinates":[18.504224,52.020871],"type":"Point"},"properties":{"osm_id":"3935859032","tag":{"amenity":"waste_basket"}},"type":"Feature"},
	{"geometry":{"coordinates":[18.50507,52.017668],"type":"Point"},"properties":{"osm_id":"3940142243","tag":{"amenity":"waste_basket"}},"type":"Feature"},
	{"geometry":{"coordinates":[18.503764,52.020066],"type":"Point"},"properties":{"osm_id":"3946583423","tag":{"amenity":"waste_basket"}},"type":"Feature"},
	{"geometry":{"coordinates":[18.503796,52.019861],"type":"Point"},"properties":{"osm_id":"3946590086","tag":{"amenity":"waste_basket"}},"type":"Feature"},
	{"geometry":{"coordinates":[18.504229,52.019089],"type":"Point"},"properties":{"osm_id":"3946590189","tag":{"amenity":"waste_basket"}},"type":"Feature"},
	{"geometry":{"coordinates":[18.50852,52.019091],"type":"Point"},"properties":{"osm_id":"4234029292","tag":{"amenity":"recycling","indoor":"yes","recycling:batteries":"yes","recycling:glass":"yes","recycling:light_bulbs":"yes","recycling:paper":"yes","recycling:plastic_foil":"yes","recycling:small_appliances":"yes","recycling_type":"container"}},"type":"Feature"},
	{"geometry":{"coordinates":[18.459789,52.017093],"type":"Point"},"properties":{"osm_id":"5001149064","tag":{"amenity":"recycling","opening_hours":"Mo-Fr 08:00-16:00","recycling:cars":"yes","recycling_type":"centre"}},"type":"Feature"},
	{"geometry":{"coordinates":[18.504586,52.018736],"type":"Point"},"properties":{"osm_id":"5160327663","tag":{"amenity":"waste_basket"}},"type":"Feature"},
	{"geometry":{"coordinates":[18.506171,52.008819],"type":"Point"},"properties":{"osm_id":"6474727345","tag":{"amenity":"waste_basket","waste":"trash"}},"type":"Feature"},
	{"geometry":{"coordinates":[18.505773,52.010213],"type":"Point"},"properties":{"osm_id":"6474759669","tag":{"amenity":"waste_basket","waste":"trash"}},"type":"Feature"},
	{"geometry":{"coordinates":[18.49543,52.015277],"type":"Point"},"properties":{"osm_id":"6709543038","tag":{"amenity":"waste_basket","waste":"trash"}},"type":"Feature"}
]
}
