{
"type": "FeatureCollection",
"features": [
	{"geometry":{"coordinates":[18.471348,50.611515],"type":"Point"},"properties":{"barrier":"gate","osm_id":"8109601872"},"type":"Feature"},
	{"geometry":{"coordinates":[18.480235,50.615172],"type":"Point"},"properties":{"osm_id":"8344152403","tag":{"amenity":"waste_disposal","waste":"mixed"}},"type":"Feature"},
	{"geometry":{"coordinates":[18.480216,50.615161],"type":"Point"},"properties":{"osm_id":"8344152404","tag":{"amenity":"waste_disposal","waste":"recycling"}},"type":"Feature"},
	{"geometry":{"coordinates":[18.481426,50.614427],"type":"Point"},"properties":{"osm_id":"8344152405","tag":{"amenity":"waste_disposal","waste":"mixed"}},"type":"Feature"},
	{"geometry":{"coordinates":[18.481414,50.614414],"type":"Point"},"properties":{"osm_id":"8344152406","tag":{"amenity":"waste_disposal","waste":"mixed"}},"type":"Feature"},
	{"geometry":{"coordinates":[18.481402,50.6144],"type":"Point"},"properties":{"osm_id":"8344152407","tag":{"amenity":"waste_disposal","waste":"recycling"}},"type":"Feature"},
	{"geometry":{"coordinates":[18.486914,50.604761],"type":"Point"},"properties":{"osm_id":"8981393629","tag":{"access":"private","amenity":"waste_disposal"}},"type":"Feature"},
	{"geometry":{"coordinates":[18.473419,50.611858],"type":"Point"},"properties":{"osm_id":"8981424494","tag":{"access":"private","amenity":"waste_disposal"}},"type":"Feature"},
	{"geometry":{"coordinates":[18.513765,50.58277],"type":"Point"},"properties":{"osm_id":"9027259315","tag":{"amenity":"recycling","opening_hours":"24/7","recycling:clothes":"yes","recycling_type":"container"}},"type":"Feature"},
	{"geometry":{"coordinates":[18.50909,50.583096],"type":"Point"},"properties":{"osm_id":"9027273987","tag":{"amenity":"waste_basket","colour":"green","material":"metal","waste":"mixed"}},"type":"Feature"},
	{"geometry":{"coordinates":[18.497493,50.594685],"type":"Point"},"properties":{"osm_id":"9037362818","tag":{"amenity":"waste_basket","colour":"green","material":"metal","waste":"mixed"}},"type":"Feature"}
]
}
