{
"type": "FeatureCollection",
"features": [
	{"geometry":{"coordinates":[18.519015,50.144456],"type":"Point"},"properties":{"osm_id":"3233161459","tag":{"amenity":"waste_basket"}},"type":"Feature"},
	{"geometry":{"coordinates":[18.496517,50.132401],"type":"Point"},"properties":{"osm_id":"4214212411","tag":{"amenity":"waste_basket"}},"type":"Feature"},
	{"geometry":{"coordinates":[18.522633,50.124644],"type":"Point"},"properties":{"osm_id":"4895425533","tag":{"amenity":"waste_basket"}},"type":"Feature"},
	{"geometry":{"coordinates":[18.52282,50.124469],"type":"Point"},"properties":{"osm_id":"4895425535","tag":{"amenity":"waste_basket"}},"type":"Feature"},
	{"geometry":{"coordinates":[18.523388,50.125104],"type":"Point"},"properties":{"osm_id":"4895425537","tag":{"amenity":"waste_basket"}},"type":"Feature"},
	{"geometry":{"coordinates":[18.518621,50.127299],"type":"Point"},"properties":{"osm_id":"4895425539","tag":{"amenity":"waste_basket"}},"type":"Feature"},
	{"geometry":{"coordinates":[18.518652,50.127238],"type":"Point"},"properties":{"osm_id":"4895425540","tag":{"amenity":"waste_basket"}},"type":"Feature"},
	{"geometry":{"coordinates":[18.522992,50.124315],"type":"Point"},"properties":{"osm_id":"4895425560","tag":{"amenity":"waste_basket"}},"type":"Feature"},
	{"geometry":{"coordinates":[18.513235,50.12246],"type":"Point"},"properties":{"osm_id":"4895496453","tag":{"amenity":"waste_basket"}},"type":"Feature"},
	{"geometry":{"coordinates":[18.536682,50.132778],"type":"Point"},"properties":{"name":"Olmet","osm_id":"5565920550","tag":{"amenity":"recycling","email":"rybnik@olmet.pl","fax":"32 739 61 46","opening_hours":"Mo-Fr 08:00-17:00; Sa 08:00-15:00","phone":"32 739 61 45","website":"http://olmet.pl"}},"type":"Feature"},
	{"geometry":{"coordinates":[18.468139,50.148635],"type":"Point"},"properties":{"osm_id":"6782514674","tag":{"amenity":"waste_basket"}},"type":"Feature"},
	{"geometry":{"coordinates":[18.468359,50.148538],"type":"Point"},"properties":{"osm_id":"6782514675","tag":{"amenity":"waste_basket"}},"type":"Feature"},
	{"geometry":{"coordinates":[18.524322,50.170116],"type":"Point"},"properties":{"osm_id":"8736523405","tag":{"amenity":"waste_basket"}},"type":"Feature"},
	{"geometry":{"coordinates":[18.530726,50.122044],"type":"Point"},"properties":{"osm_id":"8809902581","tag":{"amenity":"waste_basket","waste":"trash"}},"type":"Feature"},
	{"geometry":{"coordinates":[18.530682,50.122049],"type":"Point"},"properties":{"osm_id":"8809902583","tag":{"amenity":"waste_basket","waste":"trash"}},"type":"Feature"},
	{"geometry":{"coordinates":[18.480535,50.142232],"type":"Point"},"properties":{"osm_id":"8892126456","tag":{"amenity":"waste_basket","waste":"trash"}},"type":"Feature"},
	{"geometry":{"coordinates":[18.480555,50.142189],"type":"Point"},"properties":{"osm_id":"8892126457","tag":{"amenity":"waste_basket","waste":"trash"}},"type":"Feature"}
]
}
