{
"type": "FeatureCollection",
"features": [
	{"geometry":{"coordinates":[18.476591,49.220171],"type":"Point"},"properties":{"osm_id":"7616813096","tag":{"amenity":"recycling","recycling:beverage_cartons":"yes","recycling:cans":"yes","recycling:glass":"yes","recycling:paper":"yes","recycling:plastic":"yes","recycling_type":"container"}},"type":"Feature"},
	{"geometry":{"coordinates":[18.476582,49.220212],"type":"Point"},"properties":{"osm_id":"7616813097","tag":{"amenity":"recycling","operator":"ECO textil","recycling:clothes":"yes","recycling:shoes":"yes","recycling_type":"container"}},"type":"Feature"},
	{"geometry":{"coordinates":[18.467709,49.236465],"type":"Point"},"properties":{"osm_id":"7683977962","tag":{"amenity":"recycling","recycling:glass":"yes","recycling_type":"container"}},"type":"Feature"},
	{"geometry":{"coordinates":[18.470217,49.231418],"type":"Point"},"properties":{"osm_id":"7683978057","tag":{"amenity":"recycling","recycling:glass":"yes","recycling_type":"container"}},"type":"Feature"},
	{"geometry":{"coordinates":[18.470189,49.231414],"type":"Point"},"properties":{"osm_id":"7683978058","tag":{"amenity":"recycling","operator":"Nad\u00c3\u00a1cia ECO","recycling:clothes":"yes","recycling:shoes":"yes","recycling_type":"container"}},"type":"Feature"},
	{"geometry":{"coordinates":[18.470648,49.229773],"type":"Point"},"properties":{"osm_id":"7683978151","tag":{"amenity":"recycling","recycling:glass":"yes","recycling_type":"container"}},"type":"Feature"},
	{"geometry":{"coordinates":[18.471703,49.225386],"type":"Point"},"properties":{"osm_id":"7683978291","tag":{"amenity":"recycling","recycling:glass":"yes","recycling_type":"container"}},"type":"Feature"},
	{"geometry":{"coordinates":[18.471708,49.225361],"type":"Point"},"properties":{"osm_id":"7683978292","tag":{"amenity":"recycling","operator":"Nad\u00c3\u00a1cia ECO","recycling:clothes":"yes","recycling:shoes":"yes","recycling_type":"container"}},"type":"Feature"},
	{"geometry":{"coordinates":[18.464818,49.243366],"type":"Point"},"properties":{"osm_id":"7684634484","tag":{"amenity":"recycling","recycling:glass":"yes","recycling_type":"container"}},"type":"Feature"},
	{"geometry":{"coordinates":[18.464811,49.243272],"type":"Point"},"properties":{"osm_id":"7684642486","tag":{"amenity":"recycling","operator":"Nad\u00c3\u00a1cia ECO","recycling:clothes":"yes","recycling:shoes":"yes","recycling_type":"container"}},"type":"Feature"},
	{"geometry":{"coordinates":[18.466005,49.242978],"type":"Point"},"properties":{"osm_id":"7684642493","tag":{"amenity":"waste_basket"}},"type":"Feature"},
	{"geometry":{"coordinates":[18.467072,49.243849],"type":"Point"},"properties":{"osm_id":"7684642578","tag":{"amenity":"recycling","recycling:glass":"yes","recycling:plastic":"yes","recycling_type":"container"}},"type":"Feature"},
	{"geometry":{"coordinates":[18.466596,49.241898],"type":"Point"},"properties":{"osm_id":"7684642636","tag":{"amenity":"recycling","recycling:glass":"yes","recycling:plastic":"yes","recycling_type":"container"}},"type":"Feature"},
	{"geometry":{"coordinates":[18.464649,49.247097],"type":"Point"},"properties":{"osm_id":"7685923606","tag":{"amenity":"recycling","operator":"Nad\u00c3\u00a1cia ECO","recycling:clothes":"yes","recycling:shoes":"yes","recycling_type":"container"}},"type":"Feature"},
	{"geometry":{"coordinates":[18.464679,49.247121],"type":"Point"},"properties":{"osm_id":"7685923607","tag":{"amenity":"recycling","recycling:glass":"yes","recycling_type":"container"}},"type":"Feature"},
	{"geometry":{"coordinates":[18.465514,49.244322],"type":"Point"},"properties":{"osm_id":"7685923666","tag":{"amenity":"recycling","recycling:glass":"yes","recycling_type":"container"}},"type":"Feature"},
	{"geometry":{"coordinates":[18.463208,49.248815],"type":"Point"},"properties":{"osm_id":"7689418031","tag":{"amenity":"recycling","recycling:glass":"yes","recycling_type":"container"}},"type":"Feature"},
	{"geometry":{"coordinates":[18.459955,49.255037],"type":"Point"},"properties":{"osm_id":"7689418232","tag":{"amenity":"recycling","recycling:glass":"yes","recycling_type":"container"}},"type":"Feature"},
	{"geometry":{"coordinates":[18.462262,49.252525],"type":"Point"},"properties":{"osm_id":"7689418259","tag":{"amenity":"recycling","recycling:glass":"yes","recycling_type":"container"}},"type":"Feature"},
	{"geometry":{"coordinates":[18.471217,49.251595],"type":"Point"},"properties":{"barrier":"gate","osm_id":"7703866033","tag":{"access":"customers"}},"type":"Feature"},
	{"geometry":{"coordinates":[18.472231,49.251917],"type":"Point"},"properties":{"barrier":"gate","osm_id":"7703866042","tag":{"access":"customers"}},"type":"Feature"},
	{"geometry":{"coordinates":[18.459239,49.256661],"type":"Point"},"properties":{"osm_id":"7706106853","tag":{"amenity":"recycling","recycling:glass":"yes","recycling_type":"container"}},"type":"Feature"},
	{"geometry":{"coordinates":[18.465399,49.24282],"type":"Point"},"properties":{"osm_id":"7873846068","tag":{"amenity":"waste_basket"}},"type":"Feature"}
]
}
