{
"type": "FeatureCollection",
"features": [
	{"geometry":{"coordinates":[18.517872,47.607334],"type":"Point"},"properties":{"name":"Szelekt\u00c3\u00adv sziget","osm_id":"2338639571","tag":{"amenity":"recycling","operator":"AVE Tatab\u00c3\u00a1nya","recycling:glass":"yes","recycling:paper":"yes","recycling:plastic":"yes","recycling_type":"container"}},"type":"Feature"},
	{"geometry":{"coordinates":[18.504703,47.600717],"type":"Point"},"properties":{"osm_id":"3468026373","tag":{"amenity":"waste_disposal","source:date":"2013-03-30","url":"http://turistautak.hu/poi.php?id=12228"}},"type":"Feature"},
	{"geometry":{"coordinates":[18.459609,47.576685],"type":"Point"},"properties":{"osm_id":"3470068539","tag":{"amenity":"recycling","recycling_type":"container","source:date":"2013-03-30","url":"http://turistautak.hu/poi.php?id=12207"}},"type":"Feature"},
	{"geometry":{"coordinates":[18.461101,47.62484],"type":"Point"},"properties":{"osm_id":"3470078946","tag":{"addr:street":"?","amenity":"recycling","source:date":"2011-05-08","url":"http://turistautak.hu/poi.php?id=3269"}},"type":"Feature"}
]
}
