{
"type": "FeatureCollection",
"lastupdate": "2020-08-03T00:00:00Z",
"features": [
	{"geometry":{"coordinates":[18.465349,47.214625],"type":"Point"},"properties":{"osm_id":"313054393","tag":{"amenity":"recycling","recycling:cans":"yes","recycling:glass":"yes","recycling:paper":"yes","recycling:plastic":"yes"}},"type":"Feature"},
	{"geometry":{"coordinates":[18.470353,47.205662],"type":"Point"},"properties":{"osm_id":"345722594","tag":{"amenity":"recycling","recycling:cans":"yes","recycling:glass":"yes","recycling:paper":"yes","recycling:plastic":"yes"}},"type":"Feature"},
	{"geometry":{"coordinates":[18.464224,47.192572],"type":"Point"},"properties":{"osm_id":"406372683","tag":{"amenity":"recycling","recycling:cans":"yes","recycling:glass":"yes","recycling:paper":"yes"}},"type":"Feature"},
	{"geometry":{"coordinates":[18.494035,47.203568],"type":"Point"},"properties":{"osm_id":"406372732","tag":{"amenity":"recycling","recycling:cans":"yes","recycling:glass":"yes","recycling:paper":"yes","recycling:plastic":"yes"}},"type":"Feature"},
	{"geometry":{"coordinates":[18.460499,47.199943],"type":"Point"},"properties":{"osm_id":"2079078422","tag":{"amenity":"recycling"}},"type":"Feature"},
	{"geometry":{"coordinates":[18.460795,47.205037],"type":"Point"},"properties":{"osm_id":"2079088594","tag":{"amenity":"recycling"}},"type":"Feature"},
	{"geometry":{"coordinates":[18.46342,47.201628],"type":"Point"},"properties":{"osm_id":"2309461509","tag":{"amenity":"waste_basket"}},"type":"Feature"},
	{"geometry":{"coordinates":[18.521554,47.164455],"type":"Point"},"properties":{"osm_id":"2329413258","tag":{"amenity":"recycling","recycling:cans":"yes","recycling:glass":"yes","recycling:glass_bottles":"yes","recycling_type":"centre"}},"type":"Feature"},
	{"geometry":{"coordinates":[18.457617,47.1847],"type":"Point"},"properties":{"osm_id":"3463077696","tag":{"addr:street":"Sereg\u00e9lyesi \u00fat, InterFruct","amenity":"recycling","source:date":"2011-06-25","url":"http://turistautak.hu/poi.php?id=9720"}},"type":"Feature"},
	{"geometry":{"coordinates":[18.457933,47.188767],"type":"Point"},"properties":{"osm_id":"3463077711","tag":{"addr:street":"Berkes lak\u00f3telep sportp\u00e1lya","amenity":"recycling","source:date":"2012-03-29","url":"http://turistautak.hu/poi.php?id=4563"}},"type":"Feature"},
	{"geometry":{"coordinates":[18.463433,47.192083],"type":"Point"},"properties":{"osm_id":"3463077722","tag":{"addr:street":"K\u00f6f\u00e9m Lnd. Coop m\u00f6g\u00f6tt","amenity":"recycling","description":"A K\u00f6f\u00e9m lak\u00f3negyedben, a Coop \u00e1ruh\u00e1z m\u00f6g\u00f6tt.","source:date":"2012-03-29","url":"http://turistautak.hu/poi.php?id=4450"}},"type":"Feature"}
]
}
