{
"type": "FeatureCollection",
"features": [
	{"geometry":{"coordinates":[18.480061,-33.827376],"type":"Point"},"properties":{"osm_id":"269061818","tag":{"amenity":"parking","fee":"no"}},"type":"Feature"},
	{"geometry":{"coordinates":[18.493405,-33.802637],"type":"Point"},"properties":{"osm_id":"2180701938","tag":{"amenity":"waste_basket"}},"type":"Feature"},
	{"geometry":{"coordinates":[18.486808,-33.800267],"type":"Point"},"properties":{"osm_id":"2194171136","tag":{"amenity":"waste_basket"}},"type":"Feature"},
	{"geometry":{"coordinates":[18.476763,-33.821979],"type":"Point"},"properties":{"osm_id":"2291484472","tag":{"amenity":"waste_basket"}},"type":"Feature"},
	{"geometry":{"coordinates":[18.477162,-33.822533],"type":"Point"},"properties":{"osm_id":"2291484481","tag":{"amenity":"waste_basket"}},"type":"Feature"},
	{"geometry":{"coordinates":[18.47717,-33.823],"type":"Point"},"properties":{"osm_id":"2291484490","tag":{"amenity":"waste_basket"}},"type":"Feature"},
	{"geometry":{"coordinates":[18.477646,-33.823171],"type":"Point"},"properties":{"osm_id":"2291484493","tag":{"amenity":"waste_basket"}},"type":"Feature"},
	{"geometry":{"coordinates":[18.477071,-33.823239],"type":"Point"},"properties":{"osm_id":"2291484496","tag":{"amenity":"waste_basket"}},"type":"Feature"},
	{"geometry":{"coordinates":[18.477334,-33.823589],"type":"Point"},"properties":{"osm_id":"2291484499","tag":{"amenity":"waste_basket"}},"type":"Feature"},
	{"geometry":{"coordinates":[18.477826,-33.824261],"type":"Point"},"properties":{"osm_id":"2291484516","tag":{"amenity":"waste_basket"}},"type":"Feature"},
	{"geometry":{"coordinates":[18.478032,-33.824276],"type":"Point"},"properties":{"osm_id":"2291484517","tag":{"amenity":"waste_basket"}},"type":"Feature"},
	{"geometry":{"coordinates":[18.479751,-33.828042],"type":"Point"},"properties":{"osm_id":"2291484559","tag":{"amenity":"waste_basket"}},"type":"Feature"},
	{"geometry":{"coordinates":[18.487533,-33.843848],"type":"Point"},"properties":{"osm_id":"2291484580","tag":{"amenity":"waste_basket"}},"type":"Feature"},
	{"geometry":{"coordinates":[18.48931,-33.852326],"type":"Point"},"properties":{"osm_id":"2291484587","tag":{"amenity":"waste_basket"}},"type":"Feature"},
	{"geometry":{"coordinates":[18.489067,-33.85233],"type":"Point"},"properties":{"osm_id":"2291484588","tag":{"amenity":"waste_basket"}},"type":"Feature"},
	{"geometry":{"coordinates":[18.489077,-33.852384],"type":"Point"},"properties":{"osm_id":"2291484589","tag":{"amenity":"waste_basket"}},"type":"Feature"},
	{"geometry":{"coordinates":[18.489173,-33.854232],"type":"Point"},"properties":{"osm_id":"2291484597","tag":{"amenity":"waste_basket"}},"type":"Feature"},
	{"geometry":{"coordinates":[18.489167,-33.854259],"type":"Point"},"properties":{"osm_id":"2291484598","tag":{"amenity":"waste_basket"}},"type":"Feature"},
	{"geometry":{"coordinates":[18.499902,-33.86162],"type":"Point"},"properties":{"osm_id":"2291484637","tag":{"amenity":"waste_basket"}},"type":"Feature"},
	{"geometry":{"coordinates":[18.504286,-33.863659],"type":"Point"},"properties":{"osm_id":"2291484653","tag":{"amenity":"waste_basket"}},"type":"Feature"},
	{"geometry":{"coordinates":[18.507429,-33.867841],"type":"Point"},"properties":{"osm_id":"2291484681","tag":{"amenity":"waste_basket"}},"type":"Feature"},
	{"geometry":{"coordinates":[18.506087,-33.869112],"type":"Point"},"properties":{"osm_id":"2291484685","tag":{"amenity":"waste_basket"}},"type":"Feature"},
	{"geometry":{"coordinates":[18.494661,-33.802352],"type":"Point"},"properties":{"osm_id":"2621635935","tag":{"amenity":"waste_basket"}},"type":"Feature"},
	{"geometry":{"coordinates":[18.478298,-33.817585],"type":"Point"},"properties":{"osm_id":"5086452986","tag":{"amenity":"waste_basket"}},"type":"Feature"},
	{"geometry":{"coordinates":[18.47828,-33.817802],"type":"Point"},"properties":{"osm_id":"5086452987","tag":{"amenity":"waste_basket"}},"type":"Feature"},
	{"geometry":{"coordinates":[18.478095,-33.817988],"type":"Point"},"properties":{"osm_id":"5086452988","tag":{"amenity":"waste_basket"}},"type":"Feature"},
	{"geometry":{"coordinates":[18.476818,-33.81704],"type":"Point"},"properties":{"osm_id":"5086490364","tag":{"amenity":"waste_basket"}},"type":"Feature"},
	{"geometry":{"coordinates":[18.477052,-33.817718],"type":"Point"},"properties":{"osm_id":"5086490366","tag":{"amenity":"waste_basket"}},"type":"Feature"},
	{"geometry":{"coordinates":[18.48506,-33.815749],"type":"Point"},"properties":{"osm_id":"5088018948","tag":{"amenity":"waste_basket"}},"type":"Feature"}
]
}
