{
"type": "FeatureCollection",
"features": [
	{"geometry":{"coordinates":[-98.642043,29.669318],"type":"Point"},"properties":{"osm_id":"2466498772","tag":{"amenity":"waste_basket","operator":"Stage Run HOA"}},"type":"Feature"},
	{"geometry":{"coordinates":[-98.642674,29.669237],"type":"Point"},"properties":{"osm_id":"2467142502","tag":{"amenity":"waste_basket","operator":"Stage Run HOA","vending":"excrement_bags","waste":"dog_excrement"}},"type":"Feature"},
	{"geometry":{"coordinates":[-98.64127,29.669833],"type":"Point"},"properties":{"osm_id":"2467142503","tag":{"amenity":"waste_basket","operator":"Stage Run HOA","vending":"excrement_bags","waste":"dog_excrement"}},"type":"Feature"},
	{"geometry":{"coordinates":[-98.637228,29.667641],"type":"Point"},"properties":{"osm_id":"2467142504","tag":{"amenity":"waste_basket","operator":"Stage Run HOA","vending":"excrement_bags","waste":"dog_excrement"}},"type":"Feature"},
	{"geometry":{"coordinates":[-98.642123,29.66972],"type":"Point"},"properties":{"osm_id":"2467142505","tag":{"amenity":"waste_basket","operator":"Stage Run HOA","vending":"excrement_bags","waste":"dog_excrement"}},"type":"Feature"},
	{"geometry":{"coordinates":[-98.646626,29.671878],"type":"Point"},"properties":{"osm_id":"2467142506","tag":{"amenity":"waste_basket","operator":"Two Creeks HOA","waste":"dog_excrement"}},"type":"Feature"},
	{"geometry":{"coordinates":[-98.642336,29.669377],"type":"Point"},"properties":{"osm_id":"3522546574","tag":{"amenity":"waste_basket","operator":"Stage Run HOA"}},"type":"Feature"},
	{"geometry":{"coordinates":[-98.641514,29.670245],"type":"Point"},"properties":{"osm_id":"3522546575","tag":{"amenity":"waste_basket","operator":"Stage Run HOA"}},"type":"Feature"}
]
}
