{
"type": "FeatureCollection",
"features": [
	{"geometry":{"coordinates":[150.798719,-34.075313],"type":"Point"},"properties":{"osm_id":"448114882","tag":{"amenity":"waste_basket"}},"type":"Feature"},
	{"geometry":{"coordinates":[150.803802,-34.075067],"type":"Point"},"properties":{"osm_id":"448140276","tag":{"amenity":"waste_basket"}},"type":"Feature"},
	{"geometry":{"coordinates":[150.804362,-34.075401],"type":"Point"},"properties":{"osm_id":"448140280","tag":{"amenity":"waste_basket"}},"type":"Feature"},
	{"geometry":{"coordinates":[150.804361,-34.075721],"type":"Point"},"properties":{"osm_id":"448140282","tag":{"amenity":"waste_basket"}},"type":"Feature"},
	{"geometry":{"coordinates":[150.804573,-34.076228],"type":"Point"},"properties":{"osm_id":"448140287","tag":{"amenity":"waste_basket"}},"type":"Feature"},
	{"geometry":{"coordinates":[150.804163,-34.076946],"type":"Point"},"properties":{"osm_id":"448150053","tag":{"amenity":"waste_basket"}},"type":"Feature"},
	{"geometry":{"coordinates":[150.804365,-34.076414],"type":"Point"},"properties":{"osm_id":"448150056","tag":{"amenity":"waste_basket"}},"type":"Feature"},
	{"geometry":{"coordinates":[150.804017,-34.076546],"type":"Point"},"properties":{"osm_id":"448150061","tag":{"amenity":"waste_basket"}},"type":"Feature"},
	{"geometry":{"coordinates":[150.803503,-34.075934],"type":"Point"},"properties":{"osm_id":"448150995","tag":{"amenity":"waste_basket"}},"type":"Feature"},
	{"geometry":{"coordinates":[150.803725,-34.075891],"type":"Point"},"properties":{"osm_id":"448150996","tag":{"amenity":"waste_basket"}},"type":"Feature"},
	{"geometry":{"coordinates":[150.80503,-34.072803],"type":"Point"},"properties":{"osm_id":"454093651","tag":{"amenity":"waste_basket"}},"type":"Feature"},
	{"geometry":{"coordinates":[150.80451,-34.075139],"type":"Point"},"properties":{"osm_id":"454093656","tag":{"amenity":"waste_basket"}},"type":"Feature"},
	{"geometry":{"coordinates":[150.80276,-34.075295],"type":"Point"},"properties":{"osm_id":"454114178","tag":{"amenity":"waste_basket"}},"type":"Feature"},
	{"geometry":{"coordinates":[150.802619,-34.076648],"type":"Point"},"properties":{"osm_id":"454114201","tag":{"amenity":"waste_basket"}},"type":"Feature"},
	{"geometry":{"coordinates":[150.803329,-34.075196],"type":"Point"},"properties":{"osm_id":"454114205","tag":{"amenity":"waste_basket"}},"type":"Feature"},
	{"geometry":{"coordinates":[150.803419,-34.075583],"type":"Point"},"properties":{"osm_id":"454114206","tag":{"amenity":"waste_basket"}},"type":"Feature"},
	{"geometry":{"coordinates":[150.803029,-34.07557],"type":"Point"},"properties":{"osm_id":"454114209","tag":{"amenity":"waste_basket"}},"type":"Feature"},
	{"geometry":{"coordinates":[150.802343,-34.075814],"type":"Point"},"properties":{"osm_id":"454114285","tag":{"amenity":"waste_basket"}},"type":"Feature"},
	{"geometry":{"coordinates":[150.802895,-34.080176],"type":"Point"},"properties":{"osm_id":"454124389","tag":{"amenity":"waste_basket"}},"type":"Feature"},
	{"geometry":{"coordinates":[150.802062,-34.085439],"type":"Point"},"properties":{"osm_id":"454158673","tag":{"amenity":"waste_basket"}},"type":"Feature"},
	{"geometry":{"coordinates":[150.801792,-34.085585],"type":"Point"},"properties":{"osm_id":"454158674","tag":{"amenity":"waste_basket"}},"type":"Feature"},
	{"geometry":{"coordinates":[150.799665,-34.087561],"type":"Point"},"properties":{"osm_id":"454158705","tag":{"amenity":"waste_basket"}},"type":"Feature"},
	{"geometry":{"coordinates":[150.802679,-34.076104],"type":"Point"},"properties":{"osm_id":"469715716","tag":{"amenity":"waste_basket"}},"type":"Feature"},
	{"geometry":{"coordinates":[150.762207,-34.050568],"type":"Point"},"properties":{"osm_id":"482026007","tag":{"amenity":"waste_basket"}},"type":"Feature"},
	{"geometry":{"coordinates":[150.740304,-34.048948],"type":"Point"},"properties":{"osm_id":"588288097","tag":{"amenity":"waste_basket"}},"type":"Feature"},
	{"geometry":{"coordinates":[150.736729,-34.043549],"type":"Point"},"properties":{"osm_id":"594479651","tag":{"amenity":"waste_basket"}},"type":"Feature"},
	{"geometry":{"coordinates":[150.737651,-34.043695],"type":"Point"},"properties":{"osm_id":"594479725","tag":{"amenity":"waste_basket"}},"type":"Feature"},
	{"geometry":{"coordinates":[150.737882,-34.043593],"type":"Point"},"properties":{"osm_id":"594479735","tag":{"amenity":"waste_basket"}},"type":"Feature"},
	{"geometry":{"coordinates":[150.734359,-34.044909],"type":"Point"},"properties":{"osm_id":"597058425","tag":{"amenity":"waste_basket"}},"type":"Feature"},
	{"geometry":{"coordinates":[150.735475,-34.0459],"type":"Point"},"properties":{"osm_id":"597058481","tag":{"amenity":"waste_basket"}},"type":"Feature"},
	{"geometry":{"coordinates":[150.73574,-34.045835],"type":"Point"},"properties":{"osm_id":"597058530","tag":{"amenity":"waste_basket"}},"type":"Feature"},
	{"geometry":{"coordinates":[150.735916,-34.045642],"type":"Point"},"properties":{"osm_id":"597058594","tag":{"amenity":"waste_basket"}},"type":"Feature"},
	{"geometry":{"coordinates":[150.735591,-34.044989],"type":"Point"},"properties":{"osm_id":"597058617","tag":{"amenity":"waste_basket"}},"type":"Feature"},
	{"geometry":{"coordinates":[150.735519,-34.044859],"type":"Point"},"properties":{"osm_id":"597058637","tag":{"amenity":"waste_basket"}},"type":"Feature"},
	{"geometry":{"coordinates":[150.735066,-34.05215],"type":"Point"},"properties":{"osm_id":"600227868","tag":{"amenity":"waste_basket"}},"type":"Feature"},
	{"geometry":{"coordinates":[150.741877,-34.018662],"type":"Point"},"properties":{"osm_id":"839699287","tag":{"amenity":"waste_basket"}},"type":"Feature"},
	{"geometry":{"coordinates":[150.741907,-34.018958],"type":"Point"},"properties":{"osm_id":"839699307","tag":{"amenity":"waste_basket"}},"type":"Feature"},
	{"geometry":{"coordinates":[150.73573,-34.031828],"type":"Point"},"properties":{"osm_id":"840175528","tag":{"amenity":"waste_basket"}},"type":"Feature"},
	{"geometry":{"coordinates":[150.745635,-34.071946],"type":"Point"},"properties":{"name":"E-Waste (Electronic Waste) dump","osm_id":"3166396966","tag":{"amenity":"waste_basket"}},"type":"Feature"}
]
}
