{
"type": "FeatureCollection",
"features": [
	{"geometry":{"coordinates":[76.146755,10.627662],"type":"Point"},"properties":{"osm_id":"4250309699","tag":{"natural":"tree","species":"coconut tree","survey:date":"2016-06-18"}},"type":"Feature"},
	{"geometry":{"coordinates":[76.146027,10.62633],"type":"Point"},"properties":{"osm_id":"4250309700","tag":{"natural":"tree","survey:date":"2016-06-18"}},"type":"Feature"},
	{"geometry":{"coordinates":[76.146575,10.627702],"type":"Point"},"properties":{"osm_id":"4250309702","tag":{"natural":"tree","survey:date":"2016-06-18"}},"type":"Feature"},
	{"geometry":{"coordinates":[76.146281,10.627115],"type":"Point"},"properties":{"osm_id":"4250309704","tag":{"addr:housenumber":"tree","natural":"tree","survey:date":"2016-06-18"}},"type":"Feature"},
	{"geometry":{"coordinates":[76.146227,10.627267],"type":"Point"},"properties":{"osm_id":"4250309707","tag":{"natural":"tree","survey:date":"2016-06-18"}},"type":"Feature"},
	{"geometry":{"coordinates":[76.146174,10.627438],"type":"Point"},"properties":{"osm_id":"4250309710","tag":{"natural":"tree","survey:date":"2016-06-18"}},"type":"Feature"},
	{"geometry":{"coordinates":[76.14619,10.627384],"type":"Point"},"properties":{"osm_id":"4250309712","tag":{"natural":"tree","survey:date":"2016-06-18"}},"type":"Feature"},
	{"geometry":{"coordinates":[76.146217,10.627507],"type":"Point"},"properties":{"osm_id":"4250309714","tag":{"natural":"tree","survey:date":"2016-06-18"}},"type":"Feature"},
	{"geometry":{"coordinates":[76.146196,10.627559],"type":"Point"},"properties":{"osm_id":"4250309716","tag":{"natural":"tree","survey:date":"2016-06-18"}},"type":"Feature"},
	{"geometry":{"coordinates":[76.146331,10.6276],"type":"Point"},"properties":{"osm_id":"4250309717","tag":{"natural":"tree","survey:date":"2016-06-18"}},"type":"Feature"},
	{"geometry":{"coordinates":[76.146524,10.627661],"type":"Point"},"properties":{"osm_id":"4250309718","tag":{"natural":"tree","survey:date":"2016-06-18"}},"type":"Feature"},
	{"geometry":{"coordinates":[76.146531,10.627669],"type":"Point"},"properties":{"osm_id":"4250309719","tag":{"natural":"tree","survey:date":"2016-06-18"}},"type":"Feature"},
	{"geometry":{"coordinates":[76.146525,10.627675],"type":"Point"},"properties":{"osm_id":"4250309720","tag":{"natural":"tree","survey:date":"2016-06-18"}},"type":"Feature"},
	{"geometry":{"coordinates":[76.146522,10.627691],"type":"Point"},"properties":{"osm_id":"4250309722","tag":{"natural":"tree","survey:date":"2016-06-18"}},"type":"Feature"},
	{"geometry":{"coordinates":[76.146682,10.627711],"type":"Point"},"properties":{"osm_id":"4250309723","tag":{"natural":"tree","survey:date":"2016-06-18"}},"type":"Feature"},
	{"geometry":{"coordinates":[76.146758,10.627719],"type":"Point"},"properties":{"osm_id":"4250309724","tag":{"natural":"tree","survey:date":"2016-06-18"}},"type":"Feature"},
	{"geometry":{"coordinates":[76.146836,10.627687],"type":"Point"},"properties":{"osm_id":"4250309725","tag":{"natural":"tree","survey:date":"2016-06-18"}},"type":"Feature"},
	{"geometry":{"coordinates":[76.14548,10.626396],"type":"Point"},"properties":{"name":"araly","osm_id":"4250311328","tag":{"leaf_type":"needleleaved","natural":"tree","survey:date":"2016-06-18"}},"type":"Feature"},
	{"geometry":{"coordinates":[76.145218,10.626524],"type":"Point"},"properties":{"name":"Ambazham","osm_id":"4250386001","tag":{"natural":"tree"}},"type":"Feature"},
	{"geometry":{"coordinates":[76.145403,10.626602],"type":"Point"},"properties":{"name":"Vayankatha","osm_id":"4250425705","tag":{"natural":"tree"}},"type":"Feature"},
	{"geometry":{"coordinates":[76.145314,10.626571],"type":"Point"},"properties":{"name":"Koovalam","osm_id":"4250426425","tag":{"natural":"tree"}},"type":"Feature"},
	{"geometry":{"coordinates":[76.145375,10.62653],"type":"Point"},"properties":{"name":"aattuvanchi","osm_id":"4250426426","tag":{"natural":"tree"}},"type":"Feature"},
	{"geometry":{"coordinates":[76.145403,10.626472],"type":"Point"},"properties":{"name":"Maavu","osm_id":"4250426428","tag":{"natural":"tree"}},"type":"Feature"},
	{"geometry":{"coordinates":[76.145313,10.626535],"type":"Point"},"properties":{"name":"Plavu","osm_id":"4250426429","tag":{"natural":"tree"}},"type":"Feature"},
	{"geometry":{"coordinates":[76.144424,10.626741],"type":"Point"},"properties":{"name":"plam tree","osm_id":"4250450497","tag":{"natural":"tree"}},"type":"Feature"},
	{"geometry":{"coordinates":[76.145611,10.626707],"type":"Point"},"properties":{"name":"Bamboo","osm_id":"4250450931","tag":{"natural":"tree","survey:date":"2016-06-18"}},"type":"Feature"},
	{"geometry":{"coordinates":[76.144297,10.62781],"type":"Point"},"properties":{"name":"Bael","osm_id":"4250450936","tag":{"natural":"tree","survey:date":"2016-06-18"}},"type":"Feature"},
	{"geometry":{"coordinates":[76.145608,10.626734],"type":"Point"},"properties":{"osm_id":"4250450938","tag":{"natural":"tree","species":"bamboo","survey:date":"2016-06-18"}},"type":"Feature"},
	{"geometry":{"coordinates":[76.145143,10.627154],"type":"Point"},"properties":{"osm_id":"4250450940","tag":{"natural":"tree","survey:date":"2016-06-18"}},"type":"Feature"},
	{"geometry":{"coordinates":[76.145327,10.625867],"type":"Point"},"properties":{"osm_id":"4250450941","tag":{"natural":"tree","species":"coconut tree","survey:date":"2016-06-18"}},"type":"Feature"},
	{"geometry":{"coordinates":[76.145433,10.628149],"type":"Point"},"properties":{"name":"Teak","osm_id":"4250450946","tag":{"leaf_cycle":"deciduous","natural":"tree","survey:date":"2016-06-18"}},"type":"Feature"},
	{"geometry":{"coordinates":[76.144353,10.626763],"type":"Point"},"properties":{"osm_id":"4250450948","tag":{"natural":"tree","survey:date":"2016-06-18"}},"type":"Feature"},
	{"geometry":{"coordinates":[76.144891,10.625653],"type":"Point"},"properties":{"osm_id":"4250450950","tag":{"natural":"tree","species":"mango tree","survey:date":"2016-06-18"}},"type":"Feature"},
	{"geometry":{"coordinates":[76.144961,10.627084],"type":"Point"},"properties":{"osm_id":"4250450953","tag":{"addr:housenumber":"mango tree","natural":"tree","survey:date":"2016-06-18"}},"type":"Feature"},
	{"geometry":{"coordinates":[76.145446,10.626384],"type":"Point"},"properties":{"name":"araly","osm_id":"4250450956","tag":{"addr:housenumber":"nelli","leaf_type":"needleleaved","natural":"tree","survey:date":"2016-06-18"}},"type":"Feature"},
	{"geometry":{"coordinates":[76.144659,10.62591],"type":"Point"},"properties":{"osm_id":"4250450958","tag":{"natural":"tree","survey:date":"2016-06-18"}},"type":"Feature"},
	{"geometry":{"coordinates":[76.146231,10.626168],"type":"Point"},"properties":{"osm_id":"4250450962","tag":{"natural":"tree","survey:date":"2016-06-18"}},"type":"Feature"},
	{"geometry":{"coordinates":[76.145142,10.627101],"type":"Point"},"properties":{"osm_id":"4250450963","tag":{"natural":"tree","survey:date":"2016-06-18"}},"type":"Feature"},
	{"geometry":{"coordinates":[76.144121,10.627459],"type":"Point"},"properties":{"osm_id":"4250450965","tag":{"natural":"tree","survey:date":"2016-06-18"}},"type":"Feature"},
	{"geometry":{"coordinates":[76.144211,10.627786],"type":"Point"},"properties":{"osm_id":"4250450967","tag":{"natural":"tree","survey:date":"2016-06-18"}},"type":"Feature"},
	{"geometry":{"coordinates":[76.144467,10.627862],"type":"Point"},"properties":{"name":"Teak","osm_id":"4250450968","tag":{"natural":"tree","survey:date":"2016-06-18"}},"type":"Feature"},
	{"geometry":{"coordinates":[76.144527,10.627878],"type":"Point"},"properties":{"osm_id":"4250450969","tag":{"natural":"tree","survey:date":"2016-06-18"}},"type":"Feature"},
	{"geometry":{"coordinates":[76.144882,10.627981],"type":"Point"},"properties":{"osm_id":"4250450970","tag":{"natural":"tree","survey:date":"2016-06-18"}},"type":"Feature"},
	{"geometry":{"coordinates":[76.145773,10.628256],"type":"Point"},"properties":{"name":"Mango tree","osm_id":"4250450971","tag":{"leaf_cycle":"evergreen","natural":"tree","survey:date":"2016-06-18"}},"type":"Feature"},
	{"geometry":{"coordinates":[76.144748,10.62708],"type":"Point"},"properties":{"osm_id":"4250475310","tag":{"addr:housenumber":"tree","natural":"tree","survey:date":"2016-06-18"}},"type":"Feature"},
	{"geometry":{"coordinates":[76.145176,10.625909],"type":"Point"},"properties":{"name":"Araly","osm_id":"4250476718","tag":{"leaf_cycle":"evergreen","leaf_type":"needleleaved","natural":"tree","survey:date":"2016-06-18"}},"type":"Feature"},
	{"geometry":{"coordinates":[76.14521,10.625919],"type":"Point"},"properties":{"name":"araly","osm_id":"4250476719","tag":{"leaf_cycle":"evergreen","leaf_type":"needleleaved","natural":"tree","survey:date":"2016-06-18"}},"type":"Feature"},
	{"geometry":{"coordinates":[76.145246,10.625927],"type":"Point"},"properties":{"name":"araly","osm_id":"4250476721","tag":{"leaf_type":"needleleaved","natural":"tree","survey:date":"2016-06-18"}},"type":"Feature"},
	{"geometry":{"coordinates":[76.145278,10.625938],"type":"Point"},"properties":{"name":"araly","osm_id":"4250476723","tag":{"leaf_cycle":"evergreen","leaf_type":"needleleaved","natural":"tree","survey:date":"2016-06-18"}},"type":"Feature"},
	{"geometry":{"coordinates":[76.145311,10.625947],"type":"Point"},"properties":{"name":"araly","osm_id":"4250476724","tag":{"leaf_cycle":"evergreen","leaf_type":"needleleaved","natural":"tree","survey:date":"2016-06-18"}},"type":"Feature"},
	{"geometry":{"coordinates":[76.145346,10.625959],"type":"Point"},"properties":{"name":"araly","osm_id":"4250476725","tag":{"leaf_type":"needleleaved","natural":"tree","survey:date":"2016-06-18"}},"type":"Feature"},
	{"geometry":{"coordinates":[76.145382,10.625973],"type":"Point"},"properties":{"name":"araly","osm_id":"4250476726","tag":{"leaf_cycle":"evergreen","leaf_type":"needleleaved","natural":"tree","survey:date":"2016-06-18"}},"type":"Feature"},
	{"geometry":{"coordinates":[76.145415,10.625983],"type":"Point"},"properties":{"name":"aral","osm_id":"4250476728","tag":{"leaf_cycle":"evergreen","leaf_type":"needleleaved","natural":"tree","survey:date":"2016-06-18"}},"type":"Feature"},
	{"geometry":{"coordinates":[76.145486,10.626003],"type":"Point"},"properties":{"name":"araly","osm_id":"4250476729","tag":{"leaf_type":"needleleaved","natural":"tree","survey:date":"2016-06-18"}},"type":"Feature"},
	{"geometry":{"coordinates":[76.145518,10.626017],"type":"Point"},"properties":{"name":"araly","osm_id":"4250476730","tag":{"leaf_type":"needleleaved","natural":"tree","survey:date":"2016-06-18"}},"type":"Feature"},
	{"geometry":{"coordinates":[76.145582,10.626039],"type":"Point"},"properties":{"name":"araly","osm_id":"4250476735","tag":{"leaf_type":"needleleaved","natural":"tree","survey:date":"2016-06-18"}},"type":"Feature"},
	{"geometry":{"coordinates":[76.145606,10.626049],"type":"Point"},"properties":{"name":"araly","osm_id":"4250476736","tag":{"leaf_type":"needleleaved","natural":"tree","survey:date":"2016-06-18"}},"type":"Feature"},
	{"geometry":{"coordinates":[76.145635,10.62606],"type":"Point"},"properties":{"name":"araly","osm_id":"4250476737","tag":{"leaf_cycle":"evergreen","leaf_type":"needleleaved","natural":"tree","survey:date":"2016-06-18"}},"type":"Feature"},
	{"geometry":{"coordinates":[76.145675,10.626113],"type":"Point"},"properties":{"name":"badam tree","osm_id":"4250476738","tag":{"leaf_type":"broadleaved","natural":"tree","survey:date":"2016-06-18"}},"type":"Feature"},
	{"geometry":{"coordinates":[76.145149,10.626275],"type":"Point"},"properties":{"name":"araly","osm_id":"4250476745","tag":{"leaf_type":"needleleaved","natural":"tree","survey:date":"2016-06-18"}},"type":"Feature"},
	{"geometry":{"coordinates":[76.145182,10.62629],"type":"Point"},"properties":{"name":"araly","osm_id":"4250476746","tag":{"leaf_type":"needleleaved","natural":"tree","survey:date":"2016-06-18"}},"type":"Feature"},
	{"geometry":{"coordinates":[76.145567,10.626292],"type":"Point"},"properties":{"name":"guava tree","osm_id":"4250476747","tag":{"leaf_type":"broadleaved","natural":"tree","survey:date":"2016-06-18"}},"type":"Feature"},
	{"geometry":{"coordinates":[76.14522,10.626303],"type":"Point"},"properties":{"name":"guava tree","osm_id":"4250476748","tag":{"leaf_type":"broadleaved","natural":"tree","survey:date":"2016-06-18"}},"type":"Feature"},
	{"geometry":{"coordinates":[76.145262,10.626315],"type":"Point"},"properties":{"osm_id":"4250476750","tag":{"natural":"tree","survey:date":"2016-06-18"}},"type":"Feature"},
	{"geometry":{"coordinates":[76.145302,10.626331],"type":"Point"},"properties":{"name":"araly","osm_id":"4250476752","tag":{"leaf_type":"needleleaved","natural":"tree","survey:date":"2016-06-18"}},"type":"Feature"},
	{"geometry":{"coordinates":[76.145385,10.62636],"type":"Point"},"properties":{"name":"araly","osm_id":"4250476753","tag":{"leaf_type":"needleleaved","natural":"tree","survey:date":"2016-06-18"}},"type":"Feature"},
	{"geometry":{"coordinates":[76.145301,10.626737],"type":"Point"},"properties":{"name":"Athi","osm_id":"4250488195","tag":{"natural":"tree"}},"type":"Feature"},
	{"geometry":{"coordinates":[76.145544,10.626525],"type":"Point"},"properties":{"name":"Elappa","osm_id":"4250488196","tag":{"natural":"tree"}},"type":"Feature"},
	{"geometry":{"coordinates":[76.145498,10.626672],"type":"Point"},"properties":{"name":"Illanji","osm_id":"4250488197","tag":{"natural":"tree"}},"type":"Feature"},
	{"geometry":{"coordinates":[76.145245,10.62666],"type":"Point"},"properties":{"name":"Ithi","osm_id":"4250488198","tag":{"natural":"tree"}},"type":"Feature"},
	{"geometry":{"coordinates":[76.145287,10.626459],"type":"Point"},"properties":{"name":"Kadambu","osm_id":"4250488199","tag":{"natural":"tree"}},"type":"Feature"},
	{"geometry":{"coordinates":[76.145518,10.626768],"type":"Point"},"properties":{"name":"Karimaram","osm_id":"4250488200","tag":{"natural":"tree"}},"type":"Feature"},
	{"geometry":{"coordinates":[76.14547,10.626482],"type":"Point"},"properties":{"name":"Karimpana","osm_id":"4250488201","tag":{"natural":"tree"}},"type":"Feature"},
	{"geometry":{"coordinates":[76.145427,10.626775],"type":"Point"},"properties":{"name":"Karingali","osm_id":"4250488202","tag":{"natural":"tree"}},"type":"Feature"},
	{"geometry":{"coordinates":[76.145334,10.62658],"type":"Point"},"properties":{"name":"Maruth","osm_id":"4250488203","tag":{"natural":"tree"}},"type":"Feature"},
	{"geometry":{"coordinates":[76.145515,10.626792],"type":"Point"},"properties":{"name":"Bamboo","osm_id":"4250488204","tag":{"natural":"tree"}},"type":"Feature"},
	{"geometry":{"coordinates":[76.145447,10.626713],"type":"Point"},"properties":{"name":"Nagam","osm_id":"4250488205","tag":{"natural":"tree"}},"type":"Feature"},
	{"geometry":{"coordinates":[76.145252,10.626714],"type":"Point"},"properties":{"name":"Nelli","osm_id":"4250488207","tag":{"natural":"tree"}},"type":"Feature"},
	{"geometry":{"coordinates":[76.145362,10.626765],"type":"Point"},"properties":{"name":"Njaval","osm_id":"4250488208","tag":{"natural":"tree"}},"type":"Feature"},
	{"geometry":{"coordinates":[76.145281,10.626465],"type":"Point"},"properties":{"osm_id":"4250488209","tag":{"natural":"tree"}},"type":"Feature"},
	{"geometry":{"coordinates":[76.145466,10.626767],"type":"Point"},"properties":{"osm_id":"4250488210","tag":{"natural":"tree"}},"type":"Feature"},
	{"geometry":{"coordinates":[76.145344,10.626692],"type":"Point"},"properties":{"name":"Peral","osm_id":"4250488211","tag":{"natural":"tree"}},"type":"Feature"},
	{"geometry":{"coordinates":[76.145486,10.626562],"type":"Point"},"properties":{"name":"Pine","osm_id":"4250488212","tag":{"natural":"tree"}},"type":"Feature"},
	{"geometry":{"coordinates":[76.145281,10.62667],"type":"Point"},"properties":{"name":"Plaasu","osm_id":"4250488213","tag":{"natural":"tree"}},"type":"Feature"},
	{"geometry":{"coordinates":[76.145248,10.626423],"type":"Point"},"properties":{"name":"Vahni","osm_id":"4250488214","tag":{"natural":"tree"}},"type":"Feature"},
	{"geometry":{"coordinates":[76.145573,10.626606],"type":"Point"},"properties":{"name":"Vetti","osm_id":"4250488215","tag":{"natural":"tree"}},"type":"Feature"},
	{"geometry":{"coordinates":[76.144505,10.62649],"type":"Point"},"properties":{"osm_id":"4250514689","tag":{"addr:housenumber":"Tre22","natural":"tree","survey:date":"2016-06-18"}},"type":"Feature"},
	{"geometry":{"coordinates":[76.145211,10.625857],"type":"Point"},"properties":{"name":"tree1","osm_id":"4250514693","tag":{"natural":"tree","survey:date":"2016-06-18"}},"type":"Feature"},
	{"geometry":{"coordinates":[76.145336,10.625946],"type":"Point"},"properties":{"name":"araly","osm_id":"4250514694","tag":{"leaf_cycle":"evergreen","leaf_type":"needleleaved","natural":"tree","survey:date":"2016-06-18"}},"type":"Feature"},
	{"geometry":{"coordinates":[76.145365,10.627152],"type":"Point"},"properties":{"osm_id":"4250514696","tag":{"natural":"tree","survey:date":"2016-06-18"}},"type":"Feature"},
	{"geometry":{"coordinates":[76.145151,10.627519],"type":"Point"},"properties":{"osm_id":"4250514697","tag":{"natural":"tree","survey:date":"2016-06-18"}},"type":"Feature"},
	{"geometry":{"coordinates":[76.144905,10.627877],"type":"Point"},"properties":{"osm_id":"4250514698","tag":{"natural":"tree","survey:date":"2016-06-18"}},"type":"Feature"},
	{"geometry":{"coordinates":[76.144786,10.6276],"type":"Point"},"properties":{"osm_id":"4250514699","tag":{"natural":"tree","survey:date":"2016-06-18"}},"type":"Feature"},
	{"geometry":{"coordinates":[76.144723,10.627556],"type":"Point"},"properties":{"osm_id":"4250514700","tag":{"natural":"tree","survey:date":"2016-06-18"}},"type":"Feature"},
	{"geometry":{"coordinates":[76.144632,10.62752],"type":"Point"},"properties":{"osm_id":"4250514701","tag":{"natural":"tree","survey:date":"2016-06-18"}},"type":"Feature"},
	{"geometry":{"coordinates":[76.144538,10.627482],"type":"Point"},"properties":{"osm_id":"4250514702","tag":{"natural":"tree","survey:date":"2016-06-18"}},"type":"Feature"},
	{"geometry":{"coordinates":[76.144131,10.627086],"type":"Point"},"properties":{"name":"Mahogony","osm_id":"4250514703","tag":{"natural":"tree","survey:date":"2016-06-18"}},"type":"Feature"},
	{"geometry":{"coordinates":[76.144165,10.627023],"type":"Point"},"properties":{"name":"Kanikonna","osm_id":"4250514704","tag":{"natural":"tree","survey:date":"2016-06-18"}},"type":"Feature"},
	{"geometry":{"coordinates":[76.144346,10.626415],"type":"Point"},"properties":{"name":"Kanikonna","osm_id":"4250514705","tag":{"natural":"tree","survey:date":"2016-06-18"}},"type":"Feature"},
	{"geometry":{"coordinates":[76.144749,10.626051],"type":"Point"},"properties":{"name":"Tree1","osm_id":"4250514706","tag":{"natural":"tree","survey:date":"2016-06-18"}},"type":"Feature"},
	{"geometry":{"coordinates":[76.145236,10.625861],"type":"Point"},"properties":{"osm_id":"4250514707","tag":{"addr:housenumber":"Tree3","natural":"tree","survey:date":"2016-06-18"}},"type":"Feature"},
	{"geometry":{"coordinates":[76.145279,10.625872],"type":"Point"},"properties":{"osm_id":"4250514708","tag":{"natural":"tree","survey:date":"2016-06-18"}},"type":"Feature"},
	{"geometry":{"coordinates":[76.145448,10.62599],"type":"Point"},"properties":{"name":"araly","osm_id":"4250514711","tag":{"leaf_type":"needleleaved","natural":"tree","survey:date":"2016-06-18"}},"type":"Feature"},
	{"geometry":{"coordinates":[76.145616,10.625978],"type":"Point"},"properties":{"osm_id":"4250514712","tag":{"natural":"tree","survey:date":"2016-06-18;2016-06-19"}},"type":"Feature"},
	{"geometry":{"coordinates":[76.148412,10.628938],"type":"Point"},"properties":{"osm_id":"4251946222","tag":{"natural":"tree"}},"type":"Feature"},
	{"geometry":{"coordinates":[76.148617,10.62832],"type":"Point"},"properties":{"osm_id":"4251947269","tag":{"natural":"tree"}},"type":"Feature"},
	{"geometry":{"coordinates":[76.146051,10.628101],"type":"Point"},"properties":{"osm_id":"4251949959","tag":{"natural":"tree"}},"type":"Feature"},
	{"geometry":{"coordinates":[76.146082,10.627979],"type":"Point"},"properties":{"osm_id":"4251949970","tag":{"natural":"tree"}},"type":"Feature"},
	{"geometry":{"coordinates":[76.145985,10.627894],"type":"Point"},"properties":{"osm_id":"4251950055","tag":{"natural":"tree"}},"type":"Feature"},
	{"geometry":{"coordinates":[76.148312,10.629228],"type":"Point"},"properties":{"osm_id":"4251950364","tag":{"natural":"tree"}},"type":"Feature"},
	{"geometry":{"coordinates":[76.148438,10.628152],"type":"Point"},"properties":{"osm_id":"4251951460","tag":{"natural":"tree"}},"type":"Feature"},
	{"geometry":{"coordinates":[76.148204,10.628009],"type":"Point"},"properties":{"osm_id":"4251953325","tag":{"natural":"tree"}},"type":"Feature"},
	{"geometry":{"coordinates":[76.145117,10.626265],"type":"Point"},"properties":{"name":"guava tree","osm_id":"4252005935","tag":{"natural":"tree","survey:date":"2016-06-18"}},"type":"Feature"},
	{"geometry":{"coordinates":[76.14491,10.627144],"type":"Point"},"properties":{"name":"Mango tree","osm_id":"4252065626","tag":{"addr:housenumber":"Mangotree","natural":"tree","survey:date":"2016-06-19"}},"type":"Feature"},
	{"geometry":{"coordinates":[76.1451,10.62722],"type":"Point"},"properties":{"name":"Mango Tree","osm_id":"4252065627","tag":{"natural":"tree","survey:date":"2016-06-19"}},"type":"Feature"},
	{"geometry":{"coordinates":[76.144562,10.627352],"type":"Point"},"properties":{"name":"Mahagani","osm_id":"4252065629","tag":{"natural":"tree","survey:date":"2016-06-19"}},"type":"Feature"},
	{"geometry":{"coordinates":[76.144719,10.627461],"type":"Point"},"properties":{"name":"Pinetree","osm_id":"4252065630","tag":{"addr:housenumber":"Pinetree","natural":"tree","survey:date":"2016-06-19"}},"type":"Feature"},
	{"geometry":{"coordinates":[76.144912,10.627531],"type":"Point"},"properties":{"name":"Pinetree2","osm_id":"4252065631","tag":{"addr:housenumber":"Pinetree2","natural":"tree","survey:date":"2016-06-19"}},"type":"Feature"},
	{"geometry":{"coordinates":[76.144427,10.627123],"type":"Point"},"properties":{"osm_id":"4252087670","tag":{"natural":"tree","survey:date":"2016-06-19"}},"type":"Feature"},
	{"geometry":{"coordinates":[76.144503,10.627165],"type":"Point"},"properties":{"osm_id":"4252087671","tag":{"natural":"tree","survey:date":"2016-06-19"}},"type":"Feature"},
	{"geometry":{"coordinates":[76.144428,10.627256],"type":"Point"},"properties":{"osm_id":"4252087672","tag":{"natural":"tree","survey:date":"2016-06-19"}},"type":"Feature"},
	{"geometry":{"coordinates":[76.144487,10.627243],"type":"Point"},"properties":{"osm_id":"4252087674","tag":{"natural":"tree","survey:date":"2016-06-19"}},"type":"Feature"},
	{"geometry":{"coordinates":[76.144852,10.626149],"type":"Point"},"properties":{"osm_id":"4252087678","tag":{"natural":"tree","survey:date":"2016-06-19"}},"type":"Feature"},
	{"geometry":{"coordinates":[76.144784,10.626216],"type":"Point"},"properties":{"osm_id":"4252087679","tag":{"natural":"tree","survey:date":"2016-06-19"}},"type":"Feature"},
	{"geometry":{"coordinates":[76.144799,10.626466],"type":"Point"},"properties":{"osm_id":"4252087682","tag":{"natural":"tree","survey:date":"2016-06-19"}},"type":"Feature"},
	{"geometry":{"coordinates":[76.144635,10.626358],"type":"Point"},"properties":{"name":"Whitetree1","osm_id":"4252087683","tag":{"natural":"tree","survey:date":"2016-06-19"}},"type":"Feature"},
	{"geometry":{"coordinates":[76.144582,10.626426],"type":"Point"},"properties":{"name":"Whitetree2","osm_id":"4252087684","tag":{"natural":"tree","survey:date":"2016-06-19"}},"type":"Feature"},
	{"geometry":{"coordinates":[76.144707,10.626522],"type":"Point"},"properties":{"name":"Whitetree3","osm_id":"4252087685","tag":{"natural":"tree","survey:date":"2016-06-19"}},"type":"Feature"},
	{"geometry":{"coordinates":[76.144523,10.626749],"type":"Point"},"properties":{"name":"palm tree","osm_id":"4252087687","tag":{"natural":"tree","survey:date":"2016-06-19"}},"type":"Feature"},
	{"geometry":{"coordinates":[76.144385,10.627152],"type":"Point"},"properties":{"osm_id":"4252088194","tag":{"natural":"tree","survey:date":"2016-06-19"}},"type":"Feature"},
	{"geometry":{"coordinates":[76.144808,10.625952],"type":"Point"},"properties":{"name":"Tree 1","osm_id":"4252108756","tag":{"natural":"tree"}},"type":"Feature"},
	{"geometry":{"coordinates":[76.144778,10.625999],"type":"Point"},"properties":{"name":"Tree 1","osm_id":"4252108757","tag":{"natural":"tree"}},"type":"Feature"},
	{"geometry":{"coordinates":[76.144725,10.626101],"type":"Point"},"properties":{"name":"Tree 1","osm_id":"4252108766","tag":{"natural":"tree","survey:date":"2016-06-18"}},"type":"Feature"},
	{"geometry":{"coordinates":[76.144703,10.626146],"type":"Point"},"properties":{"name":"Tree 1","osm_id":"4252108800","tag":{"natural":"tree","survey:date":"2016-06-18"}},"type":"Feature"},
	{"geometry":{"coordinates":[76.144848,10.625907],"type":"Point"},"properties":{"name":"Tree 1","osm_id":"4252111898","tag":{"natural":"tree"}},"type":"Feature"},
	{"geometry":{"coordinates":[76.144888,10.625881],"type":"Point"},"properties":{"name":"Tree 1","osm_id":"4252111899","tag":{"natural":"tree"}},"type":"Feature"},
	{"geometry":{"coordinates":[76.146185,10.627615],"type":"Point"},"properties":{"name":"Lemon tree","osm_id":"4252115696","tag":{"denotation":"natural_monument","leaf_cycle":"evergreen","leaf_type":"broadleaved","natural":"tree"}},"type":"Feature"},
	{"geometry":{"coordinates":[76.146469,10.628531],"type":"Point"},"properties":{"osm_id":"4252118354","tag":{"natural":"tree"}},"type":"Feature"},
	{"geometry":{"coordinates":[76.146466,10.628608],"type":"Point"},"properties":{"osm_id":"4252118355","tag":{"natural":"tree","species":"Guava"}},"type":"Feature"},
	{"geometry":{"coordinates":[76.146394,10.629177],"type":"Point"},"properties":{"name":"Guava","osm_id":"4252118356","tag":{"natural":"tree"}},"type":"Feature"},
	{"geometry":{"coordinates":[76.14634,10.629219],"type":"Point"},"properties":{"name":"Guava","osm_id":"4252118357","tag":{"natural":"tree"}},"type":"Feature"},
	{"geometry":{"coordinates":[76.146265,10.62924],"type":"Point"},"properties":{"name":"Guava","osm_id":"4252118358","tag":{"natural":"tree"}},"type":"Feature"},
	{"geometry":{"coordinates":[76.146182,10.629227],"type":"Point"},"properties":{"name":"Papaya","osm_id":"4252118359","tag":{"natural":"tree"}},"type":"Feature"},
	{"geometry":{"coordinates":[76.146031,10.629219],"type":"Point"},"properties":{"name":"Custard Apple","osm_id":"4252118361","tag":{"natural":"tree"}},"type":"Feature"},
	{"geometry":{"coordinates":[76.14593,10.629231],"type":"Point"},"properties":{"name":"Mango","osm_id":"4252118362","tag":{"natural":"tree"}},"type":"Feature"},
	{"geometry":{"coordinates":[76.145866,10.629009],"type":"Point"},"properties":{"name":"Custard Apple","osm_id":"4252118363","tag":{"natural":"tree"}},"type":"Feature"},
	{"geometry":{"coordinates":[76.14585,10.628929],"type":"Point"},"properties":{"name":"Njaval","osm_id":"4252118366","tag":{"natural":"tree"}},"type":"Feature"},
	{"geometry":{"coordinates":[76.145974,10.628911],"type":"Point"},"properties":{"name":"Mango Tree","osm_id":"4252118367","tag":{"natural":"tree"}},"type":"Feature"},
	{"geometry":{"coordinates":[76.146031,10.6289],"type":"Point"},"properties":{"name":"Mango Tree","osm_id":"4252118368","tag":{"natural":"tree"}},"type":"Feature"},
	{"geometry":{"coordinates":[76.146078,10.628896],"type":"Point"},"properties":{"name":"Mango Tree","osm_id":"4252118369","tag":{"natural":"tree"}},"type":"Feature"},
	{"geometry":{"coordinates":[76.14614,10.628891],"type":"Point"},"properties":{"name":"Guava","osm_id":"4252118370","tag":{"natural":"tree"}},"type":"Feature"},
	{"geometry":{"coordinates":[76.146203,10.628882],"type":"Point"},"properties":{"osm_id":"4252118371","tag":{"natural":"tree","species":"Cherry"}},"type":"Feature"},
	{"geometry":{"coordinates":[76.146166,10.628798],"type":"Point"},"properties":{"name":"Teak","osm_id":"4252118372","tag":{"natural":"tree"}},"type":"Feature"},
	{"geometry":{"coordinates":[76.146217,10.62874],"type":"Point"},"properties":{"osm_id":"4252118373","tag":{"natural":"tree"}},"type":"Feature"},
	{"geometry":{"coordinates":[76.146176,10.628676],"type":"Point"},"properties":{"osm_id":"4252118374","tag":{"natural":"tree"}},"type":"Feature"},
	{"geometry":{"coordinates":[76.146279,10.628681],"type":"Point"},"properties":{"osm_id":"4252118375","tag":{"natural":"tree"}},"type":"Feature"},
	{"geometry":{"coordinates":[76.146391,10.62846],"type":"Point"},"properties":{"name":"Koovalam","osm_id":"4252118376","tag":{"natural":"tree"}},"type":"Feature"},
	{"geometry":{"coordinates":[76.146375,10.628547],"type":"Point"},"properties":{"osm_id":"4252118377","tag":{"natural":"tree"}},"type":"Feature"},
	{"geometry":{"coordinates":[76.146001,10.628654],"type":"Point"},"properties":{"name":"Jack Tree","osm_id":"4252118378","tag":{"natural":"tree"}},"type":"Feature"},
	{"geometry":{"coordinates":[76.146059,10.628534],"type":"Point"},"properties":{"name":"Nelli","osm_id":"4252118379","tag":{"natural":"tree"}},"type":"Feature"},
	{"geometry":{"coordinates":[76.146048,10.628416],"type":"Point"},"properties":{"name":"Seemakonna","osm_id":"4252118380","tag":{"natural":"tree"}},"type":"Feature"},
	{"geometry":{"coordinates":[76.145994,10.628556],"type":"Point"},"properties":{"osm_id":"4252118381","tag":{"natural":"tree"}},"type":"Feature"},
	{"geometry":{"coordinates":[76.14625,10.628601],"type":"Point"},"properties":{"osm_id":"4252118382","tag":{"natural":"tree"}},"type":"Feature"},
	{"geometry":{"coordinates":[76.144276,10.626621],"type":"Point"},"properties":{"name":"Golden Shower Tree","osm_id":"4252118383","tag":{"denotation":"decoration","leaf_cycle":"semi_evergreen","leaf_type":"needleleaved","natural":"tree"}},"type":"Feature"},
	{"geometry":{"coordinates":[76.145837,10.626355],"type":"Point"},"properties":{"osm_id":"4252120190","tag":{"natural":"tree"}},"type":"Feature"},
	{"geometry":{"coordinates":[76.145933,10.626351],"type":"Point"},"properties":{"osm_id":"4252120632","tag":{"natural":"tree"}},"type":"Feature"},
	{"geometry":{"coordinates":[76.145863,10.626327],"type":"Point"},"properties":{"osm_id":"4252120633","tag":{"natural":"tree"}},"type":"Feature"},
	{"geometry":{"coordinates":[76.14587,10.626395],"type":"Point"},"properties":{"osm_id":"4252120634","tag":{"natural":"tree"}},"type":"Feature"},
	{"geometry":{"coordinates":[76.144267,10.626715],"type":"Point"},"properties":{"name":"Golden Shower Tree","osm_id":"4252120635","tag":{"natural":"tree"}},"type":"Feature"},
	{"geometry":{"coordinates":[76.144231,10.626787],"type":"Point"},"properties":{"name":"Teak","osm_id":"4252120636","tag":{"natural":"tree"}},"type":"Feature"},
	{"geometry":{"coordinates":[76.144201,10.626882],"type":"Point"},"properties":{"name":"Golden Showering Tree","osm_id":"4252120637","tag":{"natural":"tree"}},"type":"Feature"},
	{"geometry":{"coordinates":[76.14418,10.62695],"type":"Point"},"properties":{"name":"Teak","osm_id":"4252120638","tag":{"natural":"tree"}},"type":"Feature"},
	{"geometry":{"coordinates":[76.145955,10.626384],"type":"Point"},"properties":{"osm_id":"4252121637","tag":{"natural":"tree"}},"type":"Feature"},
	{"geometry":{"coordinates":[76.14438,10.627835],"type":"Point"},"properties":{"name":"Teak","osm_id":"4252126550","tag":{"natural":"tree"}},"type":"Feature"},
	{"geometry":{"coordinates":[76.144581,10.627894],"type":"Point"},"properties":{"name":"Teak","osm_id":"4252126551","tag":{"natural":"tree"}},"type":"Feature"},
	{"geometry":{"coordinates":[76.144993,10.627905],"type":"Point"},"properties":{"osm_id":"4252132727","tag":{"natural":"tree"}},"type":"Feature"},
	{"geometry":{"coordinates":[76.144756,10.627833],"type":"Point"},"properties":{"osm_id":"4252132728","tag":{"natural":"tree"}},"type":"Feature"},
	{"geometry":{"coordinates":[76.144111,10.627145],"type":"Point"},"properties":{"name":"Mahogony","osm_id":"4252141473","tag":{"natural":"tree"}},"type":"Feature"},
	{"geometry":{"coordinates":[76.144093,10.627202],"type":"Point"},"properties":{"name":"Teak","osm_id":"4252141474","tag":{"natural":"tree"}},"type":"Feature"},
	{"geometry":{"coordinates":[76.144073,10.627267],"type":"Point"},"properties":{"name":"Acacia","osm_id":"4252141475","tag":{"natural":"tree"}},"type":"Feature"},
	{"geometry":{"coordinates":[76.144055,10.627325],"type":"Point"},"properties":{"name":"Acacia","osm_id":"4252141476","tag":{"natural":"tree"}},"type":"Feature"},
	{"geometry":{"coordinates":[76.144036,10.627381],"type":"Point"},"properties":{"name":"Teak","osm_id":"4252141477","tag":{"natural":"tree"}},"type":"Feature"},
	{"geometry":{"coordinates":[76.144021,10.627431],"type":"Point"},"properties":{"name":"Teak","osm_id":"4252141478","tag":{"natural":"tree"}},"type":"Feature"},
	{"geometry":{"coordinates":[76.14501,10.627838],"type":"Point"},"properties":{"osm_id":"4252146865","tag":{"natural":"tree"}},"type":"Feature"},
	{"geometry":{"coordinates":[76.145001,10.627874],"type":"Point"},"properties":{"osm_id":"4252146866","tag":{"natural":"tree"}},"type":"Feature"},
	{"geometry":{"coordinates":[76.144999,10.627899],"type":"Point"},"properties":{"osm_id":"4252146867","tag":{"natural":"tree"}},"type":"Feature"},
	{"geometry":{"coordinates":[76.144894,10.627863],"type":"Point"},"properties":{"osm_id":"4252150434","tag":{"leaf_cycle":"evergreen","natural":"tree"}},"type":"Feature"},
	{"geometry":{"coordinates":[76.144866,10.626334],"type":"Point"},"properties":{"osm_id":"4252155370","tag":{"natural":"tree"}},"type":"Feature"},
	{"geometry":{"coordinates":[76.144852,10.626359],"type":"Point"},"properties":{"osm_id":"4252155371","tag":{"natural":"tree"}},"type":"Feature"},
	{"geometry":{"coordinates":[76.144842,10.626392],"type":"Point"},"properties":{"osm_id":"4252155372","tag":{"natural":"tree"}},"type":"Feature"},
	{"geometry":{"coordinates":[76.144833,10.626408],"type":"Point"},"properties":{"osm_id":"4252155373","tag":{"natural":"tree"}},"type":"Feature"},
	{"geometry":{"coordinates":[76.144823,10.626427],"type":"Point"},"properties":{"osm_id":"4252155374","tag":{"natural":"tree"}},"type":"Feature"},
	{"geometry":{"coordinates":[76.144809,10.626452],"type":"Point"},"properties":{"osm_id":"4252155375","tag":{"natural":"tree"}},"type":"Feature"},
	{"geometry":{"coordinates":[76.145062,10.626455],"type":"Point"},"properties":{"osm_id":"4252155376","tag":{"natural":"tree"}},"type":"Feature"},
	{"geometry":{"coordinates":[76.145048,10.626476],"type":"Point"},"properties":{"osm_id":"4252155377","tag":{"natural":"tree"}},"type":"Feature"},
	{"geometry":{"coordinates":[76.145039,10.626497],"type":"Point"},"properties":{"osm_id":"4252155380","tag":{"natural":"tree"}},"type":"Feature"},
	{"geometry":{"coordinates":[76.145032,10.626527],"type":"Point"},"properties":{"osm_id":"4252155381","tag":{"natural":"tree"}},"type":"Feature"},
	{"geometry":{"coordinates":[76.145017,10.626553],"type":"Point"},"properties":{"osm_id":"4252155382","tag":{"natural":"tree"}},"type":"Feature"},
	{"geometry":{"coordinates":[76.14501,10.626578],"type":"Point"},"properties":{"osm_id":"4252155383","tag":{"natural":"tree"}},"type":"Feature"},
	{"geometry":{"coordinates":[76.144999,10.626601],"type":"Point"},"properties":{"osm_id":"4252155384","tag":{"natural":"tree"}},"type":"Feature"},
	{"geometry":{"coordinates":[76.145079,10.62666],"type":"Point"},"properties":{"osm_id":"4252155385","tag":{"natural":"tree"}},"type":"Feature"},
	{"geometry":{"coordinates":[76.144997,10.626834],"type":"Point"},"properties":{"name":"neem tree","osm_id":"4252155387","tag":{"natural":"tree"}},"type":"Feature"},
	{"geometry":{"coordinates":[76.144665,10.626816],"type":"Point"},"properties":{"osm_id":"4252155388","tag":{"natural":"tree"}},"type":"Feature"},
	{"geometry":{"coordinates":[76.144655,10.626839],"type":"Point"},"properties":{"osm_id":"4252155389","tag":{"natural":"tree"}},"type":"Feature"},
	{"geometry":{"coordinates":[76.144605,10.626867],"type":"Point"},"properties":{"osm_id":"4252155390","tag":{"natural":"tree"}},"type":"Feature"},
	{"geometry":{"coordinates":[76.144643,10.626867],"type":"Point"},"properties":{"osm_id":"4252155391","tag":{"natural":"tree"}},"type":"Feature"},
	{"geometry":{"coordinates":[76.144892,10.626888],"type":"Point"},"properties":{"osm_id":"4252155392","tag":{"natural":"tree"}},"type":"Feature"},
	{"geometry":{"coordinates":[76.144627,10.626899],"type":"Point"},"properties":{"osm_id":"4252155393","tag":{"natural":"tree"}},"type":"Feature"},
	{"geometry":{"coordinates":[76.144887,10.626918],"type":"Point"},"properties":{"osm_id":"4252155394","tag":{"natural":"tree"}},"type":"Feature"},
	{"geometry":{"coordinates":[76.144589,10.62692],"type":"Point"},"properties":{"osm_id":"4252155395","tag":{"natural":"tree"}},"type":"Feature"},
	{"geometry":{"coordinates":[76.144878,10.626944],"type":"Point"},"properties":{"osm_id":"4252155396","tag":{"natural":"tree"}},"type":"Feature"},
	{"geometry":{"coordinates":[76.144584,10.626972],"type":"Point"},"properties":{"osm_id":"4252155397","tag":{"natural":"tree"}},"type":"Feature"},
	{"geometry":{"coordinates":[76.145903,10.62923],"type":"Point"},"properties":{"name":"Banana Plant","osm_id":"4252158068","tag":{"leaf_type":"broadleaved","natural":"tree"}},"type":"Feature"},
	{"geometry":{"coordinates":[76.145874,10.629231],"type":"Point"},"properties":{"name":"Banana Plant","osm_id":"4252158069","tag":{"leaf_type":"broadleaved","natural":"tree"}},"type":"Feature"},
	{"geometry":{"coordinates":[76.14588,10.629231],"type":"Point"},"properties":{"name":"Banana Plant","osm_id":"4252158070","tag":{"leaf_type":"broadleaved","natural":"tree"}},"type":"Feature"},
	{"geometry":{"coordinates":[76.14588,10.629231],"type":"Point"},"properties":{"name":"Banana","osm_id":"4252158071","tag":{"leaf_type":"broadleaved","natural":"tree"}},"type":"Feature"},
	{"geometry":{"coordinates":[76.145891,10.629237],"type":"Point"},"properties":{"name":"Banana Plant","osm_id":"4252158072","tag":{"leaf_type":"broadleaved","natural":"tree"}},"type":"Feature"},
	{"geometry":{"coordinates":[76.144973,10.62801],"type":"Point"},"properties":{"osm_id":"4252178495","tag":{"natural":"tree"}},"type":"Feature"},
	{"geometry":{"coordinates":[76.145039,10.628031],"type":"Point"},"properties":{"osm_id":"4252178496","tag":{"natural":"tree"}},"type":"Feature"},
	{"geometry":{"coordinates":[76.144629,10.627906],"type":"Point"},"properties":{"name":"Teak","osm_id":"4252179551","tag":{"natural":"tree"}},"type":"Feature"},
	{"geometry":{"coordinates":[76.145993,10.627559],"type":"Point"},"properties":{"osm_id":"4252181331","tag":{"natural":"tree"}},"type":"Feature"},
	{"geometry":{"coordinates":[76.145898,10.62756],"type":"Point"},"properties":{"name":"Jackfruit Tree","osm_id":"4252184665","tag":{"denotation":"single","leaf_cycle":"semi_evergreen","leaf_type":"broadleaved","natural":"tree"}},"type":"Feature"},
	{"geometry":{"coordinates":[76.146371,10.627668],"type":"Point"},"properties":{"name":"Guava Tree","osm_id":"4252187621","tag":{"denotation":"single","leaf_cycle":"semi_evergreen","leaf_type":"broadleaved","natural":"tree"}},"type":"Feature"},
	{"geometry":{"coordinates":[76.146507,10.627703],"type":"Point"},"properties":{"name":"Mango Tree","osm_id":"4252187622","tag":{"denotation":"single","leaf_cycle":"evergreen","leaf_type":"broadleaved","natural":"tree"}},"type":"Feature"},
	{"geometry":{"coordinates":[76.144676,10.625498],"type":"Point"},"properties":{"name":"Tamarind","osm_id":"4252188491","tag":{"leaf_type":"needleleaved","natural":"tree"}},"type":"Feature"},
	{"geometry":{"coordinates":[76.144644,10.625592],"type":"Point"},"properties":{"name":"Guava","osm_id":"4252188492","tag":{"natural":"tree"}},"type":"Feature"},
	{"geometry":{"coordinates":[76.14461,10.625691],"type":"Point"},"properties":{"name":"Jack Tree","osm_id":"4252188493","tag":{"denotation":"urban","leaf_cycle":"evergreen","leaf_type":"broadleaved","natural":"tree"}},"type":"Feature"},
	{"geometry":{"coordinates":[76.144581,10.625771],"type":"Point"},"properties":{"name":"Mango Tree","osm_id":"4252188494","tag":{"denotation":"urban","leaf_cycle":"evergreen","leaf_type":"needleleaved","natural":"tree"}},"type":"Feature"},
	{"geometry":{"coordinates":[76.144541,10.625863],"type":"Point"},"properties":{"name":"Jack Tree","osm_id":"4252188495","tag":{"denotation":"urban","leaf_cycle":"evergreen","leaf_type":"broadleaved","natural":"tree"}},"type":"Feature"},
	{"geometry":{"coordinates":[76.144515,10.625943],"type":"Point"},"properties":{"name":"Teak","osm_id":"4252188496","tag":{"denotation":"urban","leaf_cycle":"deciduous","leaf_type":"broadleaved","natural":"tree"}},"type":"Feature"},
	{"geometry":{"coordinates":[76.144477,10.626044],"type":"Point"},"properties":{"name":"Elengi","osm_id":"4252188497","tag":{"denotation":"urban","leaf_cycle":"evergreen","leaf_type":"needleleaved","natural":"tree"}},"type":"Feature"},
	{"geometry":{"coordinates":[76.144447,10.626124],"type":"Point"},"properties":{"name":"Mantharam","osm_id":"4252188498","tag":{"denotation":"urban","leaf_cycle":"evergreen","leaf_type":"broadleaved","natural":"tree"}},"type":"Feature"},
	{"geometry":{"coordinates":[76.144418,10.626194],"type":"Point"},"properties":{"name":"Mahogony","osm_id":"4252188499","tag":{"natural":"tree"}},"type":"Feature"},
	{"geometry":{"coordinates":[76.144393,10.626271],"type":"Point"},"properties":{"name":"Tamarind","osm_id":"4252188500","tag":{"natural":"tree"}},"type":"Feature"},
	{"geometry":{"coordinates":[76.144332,10.626436],"type":"Point"},"properties":{"name":"Jack Tree","osm_id":"4252188501","tag":{"natural":"tree"}},"type":"Feature"},
	{"geometry":{"coordinates":[76.144292,10.626496],"type":"Point"},"properties":{"name":"Mahagony","osm_id":"4252188775","tag":{"denotation":"urban","leaf_cycle":"evergreen","leaf_type":"needleleaved","natural":"tree"}},"type":"Feature"},
	{"geometry":{"coordinates":[76.145859,10.62897],"type":"Point"},"properties":{"name":"Chamba","osm_id":"4252190322","tag":{"natural":"tree"}},"type":"Feature"},
	{"geometry":{"coordinates":[76.144145,10.627373],"type":"Point"},"properties":{"osm_id":"4252190381","tag":{"natural":"tree","survey:date":"2016-06-18"}},"type":"Feature"},
	{"geometry":{"coordinates":[76.145845,10.627995],"type":"Point"},"properties":{"osm_id":"4252251685","tag":{"natural":"tree"}},"type":"Feature"},
	{"geometry":{"coordinates":[76.144865,10.626976],"type":"Point"},"properties":{"name":"arali","osm_id":"4252251921","tag":{"natural":"tree"}},"type":"Feature"},
	{"geometry":{"coordinates":[76.144904,10.626862],"type":"Point"},"properties":{"name":"arali","osm_id":"4252252229","tag":{"natural":"tree"}},"type":"Feature"},
	{"geometry":{"coordinates":[76.145825,10.628053],"type":"Point"},"properties":{"osm_id":"4252253391","tag":{"natural":"tree"}},"type":"Feature"},
	{"geometry":{"coordinates":[76.146004,10.627529],"type":"Point"},"properties":{"osm_id":"4252253409","tag":{"natural":"tree"}},"type":"Feature"},
	{"geometry":{"coordinates":[76.148334,10.629127],"type":"Point"},"properties":{"osm_id":"4252253436","tag":{"natural":"tree"}},"type":"Feature"},
	{"geometry":{"coordinates":[76.144931,10.627117],"type":"Point"},"properties":{"name":"mango tree","osm_id":"4252257565","tag":{"natural":"tree"}},"type":"Feature"},
	{"geometry":{"coordinates":[76.146011,10.627528],"type":"Point"},"properties":{"osm_id":"4252260064","tag":{"natural":"tree"}},"type":"Feature"},
	{"geometry":{"coordinates":[76.146037,10.627444],"type":"Point"},"properties":{"osm_id":"4252260074","tag":{"natural":"tree"}},"type":"Feature"},
	{"geometry":{"coordinates":[76.146246,10.626783],"type":"Point"},"properties":{"osm_id":"4252261589","tag":{"natural":"tree"}},"type":"Feature"},
	{"geometry":{"coordinates":[76.146015,10.627493],"type":"Point"},"properties":{"name":"pipe","osm_id":"4252261974","tag":{"natural":"tree","survey:date":"2016-06-19"}},"type":"Feature"},
	{"geometry":{"coordinates":[76.14465,10.626469],"type":"Point"},"properties":{"name":"palm tree","osm_id":"4252266789","tag":{"natural":"tree"}},"type":"Feature"},
	{"geometry":{"coordinates":[76.144667,10.626434],"type":"Point"},"properties":{"name":"palm tree","osm_id":"4252267789","tag":{"natural":"tree"}},"type":"Feature"},
	{"geometry":{"coordinates":[76.14587,10.628765],"type":"Point"},"properties":{"name":"Nelli","osm_id":"4252267805","tag":{"natural":"tree"}},"type":"Feature"},
	{"geometry":{"coordinates":[76.14589,10.628488],"type":"Point"},"properties":{"name":"Seemakkonna","osm_id":"4252267806","tag":{"natural":"tree"}},"type":"Feature"},
	{"geometry":{"coordinates":[76.14586,10.628659],"type":"Point"},"properties":{"osm_id":"4252267807","tag":{"natural":"tree"}},"type":"Feature"},
	{"geometry":{"coordinates":[76.146079,10.628754],"type":"Point"},"properties":{"name":"Teak","osm_id":"4252267808","tag":{"natural":"tree"}},"type":"Feature"},
	{"geometry":{"coordinates":[76.144669,10.62638],"type":"Point"},"properties":{"name":"palm tree","osm_id":"4252268259","tag":{"natural":"tree"}},"type":"Feature"},
	{"geometry":{"coordinates":[76.144649,10.626342],"type":"Point"},"properties":{"name":"plam tree","osm_id":"4252268421","tag":{"natural":"tree"}},"type":"Feature"},
	{"geometry":{"coordinates":[76.144567,10.626341],"type":"Point"},"properties":{"name":"plam tree","osm_id":"4252271700","tag":{"natural":"tree"}},"type":"Feature"},
	{"geometry":{"coordinates":[76.14461,10.626314],"type":"Point"},"properties":{"name":"plam tree","osm_id":"4252272289","tag":{"natural":"tree"}},"type":"Feature"},
	{"geometry":{"coordinates":[76.144539,10.626397],"type":"Point"},"properties":{"name":"plam tree","osm_id":"4252274452","tag":{"natural":"tree"}},"type":"Feature"},
	{"geometry":{"coordinates":[76.144513,10.626447],"type":"Point"},"properties":{"name":"plam tree","osm_id":"4252277482","tag":{"natural":"tree"}},"type":"Feature"},
	{"geometry":{"coordinates":[76.144467,10.626569],"type":"Point"},"properties":{"name":"plam tree","osm_id":"4252295997","tag":{"natural":"tree"}},"type":"Feature"},
	{"geometry":{"coordinates":[76.144458,10.626612],"type":"Point"},"properties":{"name":"palm tree","osm_id":"4252304648","tag":{"natural":"tree"}},"type":"Feature"},
	{"geometry":{"coordinates":[76.144452,10.626654],"type":"Point"},"properties":{"name":"palm tree","osm_id":"4252305455","tag":{"natural":"tree"}},"type":"Feature"},
	{"geometry":{"coordinates":[76.144443,10.626695],"type":"Point"},"properties":{"name":"palm tree","osm_id":"4252305462","tag":{"natural":"tree"}},"type":"Feature"},
	{"geometry":{"coordinates":[76.144455,10.626766],"type":"Point"},"properties":{"name":"palm tree","osm_id":"4252306969","tag":{"natural":"tree"}},"type":"Feature"},
	{"geometry":{"coordinates":[76.14449,10.626761],"type":"Point"},"properties":{"name":"palm tree","osm_id":"4252307545","tag":{"natural":"tree"}},"type":"Feature"},
	{"geometry":{"coordinates":[76.144548,10.626726],"type":"Point"},"properties":{"name":"plam tree","osm_id":"4252308579","tag":{"natural":"tree"}},"type":"Feature"},
	{"geometry":{"coordinates":[76.134877,10.622494],"type":"Point"},"properties":{"name":"Sacred Fig","osm_id":"4254423206","tag":{"leaf_cycle":"semi_evergreen","leaf_type":"broadleaved","natural":"tree"}},"type":"Feature"},
	{"geometry":{"coordinates":[76.135352,10.62256],"type":"Point"},"properties":{"name":"Sacred fig","osm_id":"4254423698","tag":{"leaf_cycle":"semi_evergreen","leaf_type":"broadleaved","natural":"tree"}},"type":"Feature"},
	{"geometry":{"coordinates":[76.144735,10.625099],"type":"Point"},"properties":{"osm_id":"4304239516","tag":{"natural":"tree","survey:date":"2016-07-15"}},"type":"Feature"},
	{"geometry":{"coordinates":[76.141579,10.64762],"type":"Point"},"properties":{"name":"Banyan tree","osm_id":"4317005849","tag":{"natural":"tree"}},"type":"Feature"},
	{"geometry":{"coordinates":[76.148739,10.64792],"type":"Point"},"properties":{"name":"Banyan tree","osm_id":"4317040625","tag":{"natural":"tree"}},"type":"Feature"},
	{"geometry":{"coordinates":[76.14708,10.630212],"type":"Point"},"properties":{"osm_id":"4317145130","tag":{"natural":"tree"}},"type":"Feature"},
	{"geometry":{"coordinates":[76.147173,10.630408],"type":"Point"},"properties":{"name":"bamboo tree","osm_id":"4317145463","tag":{"natural":"tree"}},"type":"Feature"},
	{"geometry":{"coordinates":[76.163008,10.656737],"type":"Point"},"properties":{"name":"Banayan Tree","osm_id":"4319815151","tag":{"natural":"tree"}},"type":"Feature"},
	{"geometry":{"coordinates":[76.144333,10.62736],"type":"Point"},"properties":{"osm_id":"4321273586","tag":{"natural":"tree"}},"type":"Feature"},
	{"geometry":{"coordinates":[76.19646,10.61399],"type":"Point"},"properties":{"osm_id":"5082914128","tag":{"leaf_type":"broadleaved","natural":"tree"}},"type":"Feature"},
	{"geometry":{"coordinates":[76.196416,10.61394],"type":"Point"},"properties":{"osm_id":"5082914129","tag":{"leaf_type":"needleleaved","natural":"tree"}},"type":"Feature"},
	{"geometry":{"coordinates":[76.196474,10.613912],"type":"Point"},"properties":{"osm_id":"5082914130","tag":{"leaf_type":"broadleaved","natural":"tree"}},"type":"Feature"},
	{"geometry":{"coordinates":[76.196424,10.613879],"type":"Point"},"properties":{"osm_id":"5082914131","tag":{"natural":"tree"}},"type":"Feature"},
	{"geometry":{"coordinates":[76.196472,10.613848],"type":"Point"},"properties":{"osm_id":"5082914132","tag":{"natural":"tree"}},"type":"Feature"},
	{"geometry":{"coordinates":[76.196436,10.613801],"type":"Point"},"properties":{"osm_id":"5082914133","tag":{"leaf_type":"broadleaved","natural":"tree"}},"type":"Feature"},
	{"geometry":{"coordinates":[76.196486,10.61377],"type":"Point"},"properties":{"osm_id":"5082914134","tag":{"leaf_type":"needleleaved","natural":"tree"}},"type":"Feature"},
	{"geometry":{"coordinates":[76.196463,10.613734],"type":"Point"},"properties":{"osm_id":"5082914135","tag":{"natural":"tree"}},"type":"Feature"},
	{"geometry":{"coordinates":[76.1965,10.614056],"type":"Point"},"properties":{"osm_id":"5082914136","tag":{"leaf_type":"needleleaved","natural":"tree"}},"type":"Feature"},
	{"geometry":{"coordinates":[76.196461,10.614096],"type":"Point"},"properties":{"osm_id":"5082914137","tag":{"natural":"tree"}},"type":"Feature"},
	{"geometry":{"coordinates":[76.199258,10.618805],"type":"Point"},"properties":{"osm_id":"5083089124","tag":{"leaf_type":"broadleaved","natural":"tree"}},"type":"Feature"},
	{"geometry":{"coordinates":[76.166585,10.597772],"type":"Point"},"properties":{"osm_id":"5907618450","tag":{"natural":"tree"}},"type":"Feature"},
	{"geometry":{"coordinates":[76.167513,10.575036],"type":"Point"},"properties":{"osm_id":"7111525044","tag":{"natural":"tree"}},"type":"Feature"}
]
}
