{
"type": "FeatureCollection",
"features": [
	{"geometry":{"coordinates":[43.092057,36.343387],"type":"Point"},"properties":{"name":"\u00d8\u00af\u00d9\u0088\u00d8\u00b1\u00d8\u00a9 \u00d8\u00a7\u00d9\u0084\u00d9\u008a\u00d8\u00b1\u00d9\u0085\u00d9\u0088\u00d9\u0083","osm_id":"5913831285","tag":{"amenity":"recycling"}},"type":"Feature"},
	{"geometry":{"coordinates":[43.110599,36.321188],"type":"Point"},"properties":{"osm_id":"6064400892","tag":{"amenity":"waste_disposal","operator":"\u0642\u0645\u0627\u0645\u0647"}},"type":"Feature"},
	{"geometry":{"coordinates":[43.117028,36.321979],"type":"Point"},"properties":{"osm_id":"6064400897","tag":{"amenity":"waste_disposal","operator":"\u0642\u0645\u0627\u0645\u0647"}},"type":"Feature"},
	{"geometry":{"coordinates":[43.106334,36.322771],"type":"Point"},"properties":{"osm_id":"6064401187","tag":{"amenity":"waste_disposal","operator":"\u0642\u0645\u0627\u0645\u0647"}},"type":"Feature"},
	{"geometry":{"coordinates":[43.113632,36.322811],"type":"Point"},"properties":{"osm_id":"6064402086","tag":{"amenity":"waste_disposal","operator":"\u0642\u0645\u0627\u0645\u0647"}},"type":"Feature"},
	{"geometry":{"coordinates":[43.112305,36.319381],"type":"Point"},"properties":{"osm_id":"6064402087","tag":{"amenity":"waste_disposal","operator":"\u0642\u0645\u0627\u0645\u0647"}},"type":"Feature"}
]
}
