{
"type": "FeatureCollection",
"lastupdate": "2020-08-04T00:00:00Z",
"features": [
	{"geometry":{"coordinates":[26.605358,60.846138],"type":"Point"},"properties":{"osm_id":"439832988","tag":{"addr:city":"Koria","addr:country":"FI","amenity":"recycling","recycling:batteries":"yes","recycling:beverage_cartons":"yes","recycling:clothes":"yes","recycling:glass":"yes","recycling:paper":"yes"}},"type":"Feature"},
	{"geometry":{"coordinates":[26.566778,60.858547],"type":"Point"},"properties":{"osm_id":"1752313472","tag":{"amenity":"waste_basket"}},"type":"Feature"},
	{"geometry":{"coordinates":[26.566757,60.858564],"type":"Point"},"properties":{"osm_id":"1752314421","tag":{"amenity":"recycling"}},"type":"Feature"},
	{"geometry":{"coordinates":[26.618199,60.854223],"type":"Point"},"properties":{"osm_id":"6900294159","tag":{"amenity":"waste_basket"}},"type":"Feature"},
	{"geometry":{"coordinates":[26.61673,60.854492],"type":"Point"},"properties":{"osm_id":"6900294163","tag":{"amenity":"waste_basket"}},"type":"Feature"}
]
}
