{
"type": "FeatureCollection",
"features": [
	{"geometry":{"coordinates":[151.086762,-33.728921],"type":"Point"},"properties":{"osm_id":"2426793532","tag":{"amenity":"waste_basket"}},"type":"Feature"},
	{"geometry":{"coordinates":[151.154558,-33.755268],"type":"Point"},"properties":{"osm_id":"4230049199","tag":{"amenity":"waste_basket"}},"type":"Feature"},
	{"geometry":{"coordinates":[151.151153,-33.791692],"type":"Point"},"properties":{"osm_id":"4650876146","tag":{"amenity":"waste_basket","source:position":"NSW LPI Imagery"}},"type":"Feature"},
	{"geometry":{"coordinates":[151.143517,-33.789678],"type":"Point"},"properties":{"osm_id":"5235929297","tag":{"amenity":"waste_basket","waste":"trash"}},"type":"Feature"},
	{"geometry":{"coordinates":[151.144038,-33.790307],"type":"Point"},"properties":{"osm_id":"5236004598","tag":{"amenity":"waste_basket","waste":"trash"}},"type":"Feature"},
	{"geometry":{"coordinates":[151.144067,-33.790054],"type":"Point"},"properties":{"osm_id":"5236004599","tag":{"amenity":"waste_basket","waste":"trash"}},"type":"Feature"},
	{"geometry":{"coordinates":[151.108022,-33.795072],"type":"Point"},"properties":{"osm_id":"5487723923","tag":{"amenity":"waste_basket","waste":"dog_excrement"}},"type":"Feature"},
	{"geometry":{"coordinates":[151.154387,-33.755291],"type":"Point"},"properties":{"osm_id":"5571253506","tag":{"amenity":"waste_basket"}},"type":"Feature"},
	{"geometry":{"coordinates":[151.102323,-33.748714],"type":"Point"},"properties":{"osm_id":"5965552389","tag":{"amenity":"waste_basket"}},"type":"Feature"},
	{"geometry":{"coordinates":[151.101656,-33.748774],"type":"Point"},"properties":{"osm_id":"5965552390","tag":{"amenity":"waste_basket"}},"type":"Feature"},
	{"geometry":{"coordinates":[151.101635,-33.748889],"type":"Point"},"properties":{"osm_id":"5965552391","tag":{"amenity":"waste_basket"}},"type":"Feature"},
	{"geometry":{"coordinates":[151.100513,-33.772398],"type":"Point"},"properties":{"osm_id":"7093123658","tag":{"amenity":"waste_basket"}},"type":"Feature"},
	{"geometry":{"coordinates":[151.101332,-33.785785],"type":"Point"},"properties":{"osm_id":"7095203578","tag":{"amenity":"waste_basket"}},"type":"Feature"},
	{"geometry":{"coordinates":[151.13329,-33.77869],"type":"Point"},"properties":{"osm_id":"7831029849","tag":{"amenity":"waste_basket","waste":"trash"}},"type":"Feature"},
	{"geometry":{"coordinates":[151.133299,-33.778691],"type":"Point"},"properties":{"osm_id":"7831029850","tag":{"amenity":"waste_basket","waste":"recycling"}},"type":"Feature"},
	{"geometry":{"coordinates":[151.133448,-33.778613],"type":"Point"},"properties":{"osm_id":"7831029851","tag":{"amenity":"waste_basket","waste":"trash"}},"type":"Feature"},
	{"geometry":{"coordinates":[151.133458,-33.778614],"type":"Point"},"properties":{"osm_id":"7831029852","tag":{"amenity":"waste_basket","waste":"recycling"}},"type":"Feature"}
]
}
