{
"type": "FeatureCollection",
"features": [
	{"geometry":{"coordinates":[151.101061,-33.940984],"type":"Point"},"properties":{"osm_id":"1440034489","tag":{"amenity":"waste_basket"}},"type":"Feature"},
	{"geometry":{"coordinates":[151.117596,-33.926311],"type":"Point"},"properties":{"osm_id":"1441100598","tag":{"amenity":"waste_basket"}},"type":"Feature"},
	{"geometry":{"coordinates":[151.123152,-33.913785],"type":"Point"},"properties":{"osm_id":"1441753035","tag":{"amenity":"waste_basket"}},"type":"Feature"},
	{"geometry":{"coordinates":[151.126787,-33.914582],"type":"Point"},"properties":{"osm_id":"1441753169","tag":{"amenity":"waste_basket"}},"type":"Feature"},
	{"geometry":{"coordinates":[151.154556,-33.920808],"type":"Point"},"properties":{"osm_id":"3925038130","tag":{"amenity":"waste_basket"}},"type":"Feature"},
	{"geometry":{"coordinates":[151.166091,-33.93749],"type":"Point"},"properties":{"osm_id":"3960768722","tag":{"amenity":"waste_basket"}},"type":"Feature"},
	{"geometry":{"coordinates":[151.168295,-33.919047],"type":"Point"},"properties":{"osm_id":"4733121159","tag":{"amenity":"waste_basket"}},"type":"Feature"},
	{"geometry":{"coordinates":[151.155317,-33.911249],"type":"Point"},"properties":{"osm_id":"5326194311","tag":{"amenity":"recycling","description":"Banana Joe's","recycling:glass_bottles":"yes","recycling:soft_drink_cans":"yes","recycling_type":"container","website":"https://returnandearn.org.au/"}},"type":"Feature"},
	{"geometry":{"coordinates":[151.164944,-33.880426],"type":"Point"},"properties":{"name":"Leichhardt Community Recycling Centre","osm_id":"5326851298","tag":{"addr:city":"Leichhardt","addr:housenumber":"50-54","addr:postcode":"2040","addr:street":"Moore Street","amenity":"recycling","opening_hours":"Sa-Su 07:45-11:30, 13:00-15:45","recycling_type":"centre"}},"type":"Feature"},
	{"geometry":{"coordinates":[151.161011,-33.902558],"type":"Point"},"properties":{"osm_id":"5767240382","ref":"#0052","tag":{"accepts":"returnandearn containers","accepts:count":"500","accepts:glass":"2 stations","accepts:other":"2 stations","addr:housenumber":"142","addr:state":"NSW","addr:street":"Addison Road","addr:suburb":"Marrickville","amenity":"recycling","deposit_return":"yes","opening_hours":"0700-2200","operator":"Tomra","recycling:beverage_cartons":"yes","recycling:cans":"yes","recycling:glass_bottles":"yes","recycling:plastic_bottles":"yes","recycling_type":"centre","vending":"bottle_return"}},"type":"Feature"},
	{"geometry":{"coordinates":[151.170023,-33.905407],"type":"Point"},"properties":{"osm_id":"5773263420","tag":{"amenity":"waste_basket","waste":"trash"}},"type":"Feature"},
	{"geometry":{"coordinates":[151.169237,-33.904539],"type":"Point"},"properties":{"osm_id":"5773263451","tag":{"amenity":"waste_basket","waste":"trash"}},"type":"Feature"},
	{"geometry":{"coordinates":[151.159872,-33.912275],"type":"Point"},"properties":{"osm_id":"6564241015","tag":{"amenity":"waste_basket"}},"type":"Feature"},
	{"geometry":{"coordinates":[151.159533,-33.912106],"type":"Point"},"properties":{"osm_id":"6564241256","tag":{"amenity":"waste_basket"}},"type":"Feature"},
	{"geometry":{"coordinates":[151.159701,-33.912064],"type":"Point"},"properties":{"osm_id":"6564241257","tag":{"amenity":"waste_basket"}},"type":"Feature"},
	{"geometry":{"coordinates":[151.097189,-33.901887],"type":"Point"},"properties":{"osm_id":"7785872058","tag":{"amenity":"waste_basket"}},"type":"Feature"},
	{"geometry":{"coordinates":[151.096251,-33.903103],"type":"Point"},"properties":{"osm_id":"7785889518","tag":{"amenity":"waste_basket"}},"type":"Feature"},
	{"geometry":{"coordinates":[151.098099,-33.903228],"type":"Point"},"properties":{"osm_id":"7785891184","tag":{"amenity":"waste_basket"}},"type":"Feature"},
	{"geometry":{"coordinates":[151.097719,-33.901514],"type":"Point"},"properties":{"osm_id":"7785906780","tag":{"amenity":"waste_basket"}},"type":"Feature"},
	{"geometry":{"coordinates":[151.099348,-33.902418],"type":"Point"},"properties":{"osm_id":"7785907255","tag":{"amenity":"waste_basket"}},"type":"Feature"},
	{"geometry":{"coordinates":[151.096768,-33.902951],"type":"Point"},"properties":{"osm_id":"7785910127","tag":{"amenity":"waste_basket"}},"type":"Feature"},
	{"geometry":{"coordinates":[151.097928,-33.901407],"type":"Point"},"properties":{"osm_id":"7785910920","tag":{"amenity":"waste_basket"}},"type":"Feature"},
	{"geometry":{"coordinates":[151.131049,-33.936102],"type":"Point"},"properties":{"osm_id":"7885798987","tag":{"amenity":"waste_basket","waste":"dog_excrement"}},"type":"Feature"}
]
}
