{
"type": "FeatureCollection",
"features": [
	{"geometry":{"coordinates":[151.156429,-34.050168],"type":"Point"},"properties":{"osm_id":"1259073017","tag":{"amenity":"waste_basket","source:location":"nearmap"}},"type":"Feature"},
	{"geometry":{"coordinates":[151.159762,-34.044493],"type":"Point"},"properties":{"osm_id":"1259073018","tag":{"amenity":"waste_basket","source:location":"nearmap"}},"type":"Feature"},
	{"geometry":{"coordinates":[151.154079,-34.055916],"type":"Point"},"properties":{"osm_id":"1259073019","tag":{"amenity":"waste_basket"}},"type":"Feature"},
	{"geometry":{"coordinates":[151.154102,-34.055769],"type":"Point"},"properties":{"osm_id":"1259073021","tag":{"amenity":"waste_basket"}},"type":"Feature"},
	{"geometry":{"coordinates":[151.157221,-34.048951],"type":"Point"},"properties":{"osm_id":"1259073022","tag":{"amenity":"waste_basket","source:location":"nearmap"}},"type":"Feature"},
	{"geometry":{"coordinates":[151.153831,-34.055984],"type":"Point"},"properties":{"osm_id":"1259073023","tag":{"amenity":"waste_basket"}},"type":"Feature"},
	{"geometry":{"coordinates":[151.157152,-34.049062],"type":"Point"},"properties":{"osm_id":"1259073024","tag":{"amenity":"waste_basket","source:location":"nearmap"}},"type":"Feature"},
	{"geometry":{"coordinates":[151.160084,-34.043821],"type":"Point"},"properties":{"osm_id":"1259073025","tag":{"amenity":"waste_basket","source:location":"nearmap"}},"type":"Feature"},
	{"geometry":{"coordinates":[151.156134,-34.050536],"type":"Point"},"properties":{"osm_id":"1259073026","tag":{"amenity":"waste_basket","source:location":"nearmap"}},"type":"Feature"},
	{"geometry":{"coordinates":[151.155082,-34.051519],"type":"Point"},"properties":{"osm_id":"1259073027","tag":{"amenity":"waste_basket","source:location":"nearmap"}},"type":"Feature"},
	{"geometry":{"coordinates":[151.155472,-34.051554],"type":"Point"},"properties":{"osm_id":"1259073029","tag":{"amenity":"waste_basket","source:location":"nearmap"}},"type":"Feature"},
	{"geometry":{"coordinates":[151.155544,-34.051038],"type":"Point"},"properties":{"osm_id":"1259073031","tag":{"amenity":"waste_basket","source:location":"nearmap"}},"type":"Feature"},
	{"geometry":{"coordinates":[151.158931,-34.045732],"type":"Point"},"properties":{"osm_id":"1259073032","tag":{"amenity":"waste_basket","source:location":"nearmap"}},"type":"Feature"},
	{"geometry":{"coordinates":[151.156496,-34.050107],"type":"Point"},"properties":{"osm_id":"1259073033","tag":{"amenity":"waste_basket","source:location":"nearmap"}},"type":"Feature"},
	{"geometry":{"coordinates":[151.153809,-34.055059],"type":"Point"},"properties":{"osm_id":"1259073034","tag":{"amenity":"waste_basket","source:location":"nearmap"}},"type":"Feature"},
	{"geometry":{"coordinates":[151.155269,-34.050484],"type":"Point"},"properties":{"osm_id":"1268487027","tag":{"amenity":"waste_basket"}},"type":"Feature"},
	{"geometry":{"coordinates":[151.121876,-34.042009],"type":"Point"},"properties":{"osm_id":"1280106723","tag":{"amenity":"waste_basket"}},"type":"Feature"},
	{"geometry":{"coordinates":[151.125273,-34.048231],"type":"Point"},"properties":{"osm_id":"1302890256","tag":{"amenity":"waste_basket"}},"type":"Feature"},
	{"geometry":{"coordinates":[151.084714,-34.035274],"type":"Point"},"properties":{"name":"Gymea Fresh Deli","osm_id":"5362532957","tag":{"addr:city":"Gymea","addr:housenumber":"63","addr:postcode":"2227","addr:province":"NSW","addr:street":"Gymea Bay Road","amenity":"recycling","opening_hours":"Mo-Fr 09:00-17:00","operator":"Return and Earn","recycling:drink_cans":"yes","recycling:glass_bottles":"yes","recycling:soft_drink_bottles":"yes","recycling_type":"container","website":"https://returnandearn.org.au/"}},"type":"Feature"},
	{"geometry":{"coordinates":[151.104206,-34.03817],"type":"Point"},"properties":{"osm_id":"5367352219","tag":{"amenity":"waste_basket"}},"type":"Feature"},
	{"geometry":{"coordinates":[151.111767,-34.027389],"type":"Point"},"properties":{"osm_id":"5428321268","tag":{"amenity":"waste_basket"}},"type":"Feature"},
	{"geometry":{"coordinates":[151.129096,-34.027064],"type":"Point"},"properties":{"osm_id":"5506969107","tag":{"amenity":"recycling","recycling_type":"container","website":"https://returnandearn.org.au/"}},"type":"Feature"},
	{"geometry":{"coordinates":[151.118161,-34.026063],"type":"Point"},"properties":{"osm_id":"5608313111","tag":{"amenity":"recycling","recycling:batteries":"no","recycling:cans":"no","recycling:clothes":"no","recycling:glass":"no","recycling:glass_bottles":"no","recycling:paper":"no","recycling:plastic":"plastic bags","recycling:plastic_bottles":"no","recycling:scrap_metal":"no","recycling:soft_plastics":"yes","recycling:waste":"no","recycling_type":"container"}},"type":"Feature"},
	{"geometry":{"coordinates":[151.121654,-34.02968],"type":"Point"},"properties":{"osm_id":"5625907468","tag":{"amenity":"waste_basket"}},"type":"Feature"},
	{"geometry":{"coordinates":[151.121614,-34.029417],"type":"Point"},"properties":{"osm_id":"5625908525","tag":{"amenity":"waste_basket"}},"type":"Feature"},
	{"geometry":{"coordinates":[151.101922,-34.036825],"type":"Point"},"properties":{"osm_id":"5647424378","tag":{"amenity":"recycling","operator":"return and earn","recycling_type":"centre"}},"type":"Feature"},
	{"geometry":{"coordinates":[151.097878,-34.035095],"type":"Point"},"properties":{"osm_id":"5746189010","tag":{"amenity":"waste_basket"}},"type":"Feature"},
	{"geometry":{"coordinates":[151.110367,-34.028609],"type":"Point"},"properties":{"osm_id":"5835703052","tag":{"amenity":"waste_basket"}},"type":"Feature"},
	{"geometry":{"coordinates":[151.120295,-34.042087],"type":"Point"},"properties":{"osm_id":"5909019727","tag":{"amenity":"recycling","recycling:bread_bags":"yes","recycling:soft_plastic":"yes","recycling_type":"container","website":"https://www.redcycle.net.au/"}},"type":"Feature"},
	{"geometry":{"coordinates":[151.102492,-34.034773],"type":"Point"},"properties":{"name":"Redcycle","osm_id":"5926265751","tag":{"amenity":"recycling","recycling:plastic_bags":"yes","recycling:plastic_packaging":"yes","recycling:soft_plastic":"yes","recycling_type":"container","website":"https://www.redcycle.net.au/"}},"type":"Feature"},
	{"geometry":{"coordinates":[151.118484,-34.043323],"type":"Point"},"properties":{"osm_id":"5999671694","tag":{"amenity":"recycling","recycling_type":"container"}},"type":"Feature"},
	{"geometry":{"coordinates":[151.12194,-34.042574],"type":"Point"},"properties":{"osm_id":"7409100267","tag":{"amenity":"waste_basket"}},"type":"Feature"},
	{"geometry":{"coordinates":[151.12327,-34.044614],"type":"Point"},"properties":{"osm_id":"7409110203","tag":{"amenity":"waste_basket"}},"type":"Feature"},
	{"geometry":{"coordinates":[151.123496,-34.044794],"type":"Point"},"properties":{"osm_id":"7413971970","tag":{"amenity":"recycling","recycling_type":"container"}},"type":"Feature"},
	{"geometry":{"coordinates":[151.120076,-34.035567],"type":"Point"},"properties":{"osm_id":"7414604350","tag":{"amenity":"recycling","recycling:glass_bottles":"yes","recycling:plastic_bottles":"yes","recycling_type":"container"}},"type":"Feature"},
	{"geometry":{"coordinates":[151.121066,-34.036393],"type":"Point"},"properties":{"osm_id":"7416176520","tag":{"amenity":"recycling","recycling:clothes":"yes","recycling_type":"container"}},"type":"Feature"},
	{"geometry":{"coordinates":[151.12204,-34.043126],"type":"Point"},"properties":{"osm_id":"7435769695","tag":{"amenity":"waste_basket"}},"type":"Feature"},
	{"geometry":{"coordinates":[151.121638,-34.04291],"type":"Point"},"properties":{"osm_id":"7435769696","tag":{"amenity":"waste_basket"}},"type":"Feature"},
	{"geometry":{"coordinates":[151.12077,-34.042796],"type":"Point"},"properties":{"osm_id":"7435769702","tag":{"amenity":"waste_basket"}},"type":"Feature"},
	{"geometry":{"coordinates":[151.123479,-34.044227],"type":"Point"},"properties":{"osm_id":"7435775969","tag":{"amenity":"waste_basket"}},"type":"Feature"},
	{"geometry":{"coordinates":[151.120916,-34.041761],"type":"Point"},"properties":{"osm_id":"7484324112","tag":{"amenity":"waste_basket","waste":"trash"}},"type":"Feature"},
	{"geometry":{"coordinates":[151.120675,-34.040577],"type":"Point"},"properties":{"osm_id":"7486452073","tag":{"amenity":"waste_basket","waste":"trash"}},"type":"Feature"},
	{"geometry":{"coordinates":[151.14997,-34.054888],"type":"Point"},"properties":{"osm_id":"7489413046","tag":{"amenity":"waste_basket","waste":"trash"}},"type":"Feature"},
	{"geometry":{"coordinates":[151.121295,-34.042261],"type":"Point"},"properties":{"osm_id":"7571848170","tag":{"amenity":"recycling","recycling:clothes":"yes","recycling_type":"container"}},"type":"Feature"},
	{"geometry":{"coordinates":[151.131686,-34.053711],"type":"Point"},"properties":{"osm_id":"7740105723","tag":{"amenity":"waste_basket","waste":"trash"}},"type":"Feature"}
]
}
