{
"type": "FeatureCollection",
"lastupdate": "2020-08-01T00:00:00Z",
"features": [
	{"geometry":{"coordinates":[-83.265965,33.924434],"type":"Point"},"properties":{"name":"Athens-Clarke County Landfill","osm_id":"2457106691","tag":{"addr:city":"Athens","addr:housenumber":"5700","addr:postcode":"30601","addr:street":"Lexington Road","amenity":"recycling","phone":"+1 706 613 3508","recycling:batteries":"yes","recycling:books":"yes","recycling:cans":"yes","recycling:cardboard":"yes","recycling:cartons":"yes","recycling:electrical_appliances":"yes","recycling:glass":"yes","recycling:glass_bottles":"yes","recycling:magazines":"yes","recycling:newspaper":"yes","recycling:paper":"yes","recycling:paper_packaging":"yes","recycling:plastic":"yes","recycling:plastic_bottles":"yes","recycling:plastic_packaging":"yes","recycling:scrap_metal":"yes","recycling:small_appliances":"yes","recycling:waste":"yes","recycling:wood":"yes","recycling_type":"centre","website":"http://www.athensclarkecounty.com/index.aspx?NID=1329"}},"type":"Feature"}
]
}
