{
"type": "FeatureCollection",
"features": [
	{"geometry":{"coordinates":[-112.099236,33.683551],"type":"Point"},"properties":{"osm_id":"4640866208","tag":{"amenity":"waste_basket"}},"type":"Feature"},
	{"geometry":{"coordinates":[-112.06506,33.654648],"type":"Point"},"properties":{"osm_id":"4810625749","tag":{"amenity":"waste_basket"}},"type":"Feature"},
	{"geometry":{"coordinates":[-112.084712,33.68359],"type":"Point"},"properties":{"osm_id":"4834832430","tag":{"amenity":"waste_basket"}},"type":"Feature"},
	{"geometry":{"coordinates":[-112.085599,33.683903],"type":"Point"},"properties":{"osm_id":"4834832437","tag":{"amenity":"waste_basket"}},"type":"Feature"},
	{"geometry":{"coordinates":[-112.088876,33.68391],"type":"Point"},"properties":{"osm_id":"4834832447","tag":{"amenity":"waste_basket"}},"type":"Feature"},
	{"geometry":{"coordinates":[-112.083588,33.683924],"type":"Point"},"properties":{"osm_id":"4834832460","tag":{"amenity":"waste_basket"}},"type":"Feature"},
	{"geometry":{"coordinates":[-112.082454,33.68357],"type":"Point"},"properties":{"osm_id":"4834832468","tag":{"amenity":"waste_basket"}},"type":"Feature"},
	{"geometry":{"coordinates":[-112.088038,33.683605],"type":"Point"},"properties":{"osm_id":"4834832476","tag":{"amenity":"waste_basket"}},"type":"Feature"},
	{"geometry":{"coordinates":[-112.09278,33.683612],"type":"Point"},"properties":{"osm_id":"4834832483","tag":{"amenity":"waste_basket"}},"type":"Feature"},
	{"geometry":{"coordinates":[-112.096158,33.683619],"type":"Point"},"properties":{"osm_id":"4834832490","tag":{"amenity":"waste_basket"}},"type":"Feature"},
	{"geometry":{"coordinates":[-112.097059,33.683437],"type":"Point"},"properties":{"osm_id":"4834832501","tag":{"amenity":"waste_basket"}},"type":"Feature"},
	{"geometry":{"coordinates":[-112.097345,33.683919],"type":"Point"},"properties":{"osm_id":"4834832508","tag":{"amenity":"waste_basket"}},"type":"Feature"},
	{"geometry":{"coordinates":[-112.100128,33.683209],"type":"Point"},"properties":{"osm_id":"4834832512","tag":{"amenity":"waste_basket"}},"type":"Feature"},
	{"geometry":{"coordinates":[-112.099649,33.684401],"type":"Point"},"properties":{"osm_id":"4834832518","tag":{"amenity":"waste_basket"}},"type":"Feature"},
	{"geometry":{"coordinates":[-112.117535,33.683367],"type":"Point"},"properties":{"osm_id":"4834832532","tag":{"amenity":"waste_basket"}},"type":"Feature"},
	{"geometry":{"coordinates":[-112.134562,33.684493],"type":"Point"},"properties":{"osm_id":"4834832549","tag":{"amenity":"waste_basket"}},"type":"Feature"},
	{"geometry":{"coordinates":[-112.134929,33.683416],"type":"Point"},"properties":{"osm_id":"4834832551","tag":{"amenity":"waste_basket"}},"type":"Feature"},
	{"geometry":{"coordinates":[-112.065765,33.654378],"type":"Point"},"properties":{"osm_id":"5231963895","tag":{"amenity":"waste_basket"}},"type":"Feature"},
	{"geometry":{"coordinates":[-112.066102,33.654978],"type":"Point"},"properties":{"osm_id":"5231963903","tag":{"amenity":"waste_basket"}},"type":"Feature"},
	{"geometry":{"coordinates":[-112.134442,33.662569],"type":"Point"},"properties":{"osm_id":"5423234087","tag":{"amenity":"waste_basket"}},"type":"Feature"},
	{"geometry":{"coordinates":[-112.109211,33.654857],"type":"Point"},"properties":{"osm_id":"5828039169","tag":{"amenity":"waste_basket"}},"type":"Feature"},
	{"geometry":{"coordinates":[-112.110043,33.654543],"type":"Point"},"properties":{"osm_id":"5828039176","tag":{"amenity":"waste_basket"}},"type":"Feature"},
	{"geometry":{"coordinates":[-112.117632,33.654537],"type":"Point"},"properties":{"osm_id":"5828039197","tag":{"amenity":"waste_basket"}},"type":"Feature"},
	{"geometry":{"coordinates":[-112.117258,33.654192],"type":"Point"},"properties":{"osm_id":"5828039203","tag":{"amenity":"waste_basket"}},"type":"Feature"},
	{"geometry":{"coordinates":[-112.117872,33.654837],"type":"Point"},"properties":{"osm_id":"5828039212","tag":{"amenity":"waste_basket"}},"type":"Feature"},
	{"geometry":{"coordinates":[-112.121439,33.654535],"type":"Point"},"properties":{"osm_id":"5828039222","tag":{"amenity":"waste_basket"}},"type":"Feature"},
	{"geometry":{"coordinates":[-112.122102,33.654776],"type":"Point"},"properties":{"osm_id":"5828039224","tag":{"amenity":"waste_basket"}},"type":"Feature"},
	{"geometry":{"coordinates":[-112.125336,33.654545],"type":"Point"},"properties":{"osm_id":"5828039244","tag":{"amenity":"waste_basket"}},"type":"Feature"},
	{"geometry":{"coordinates":[-112.126375,33.654783],"type":"Point"},"properties":{"osm_id":"5828039246","tag":{"amenity":"waste_basket"}},"type":"Feature"},
	{"geometry":{"coordinates":[-112.129796,33.654777],"type":"Point"},"properties":{"osm_id":"5828039254","tag":{"amenity":"waste_basket"}},"type":"Feature"},
	{"geometry":{"coordinates":[-112.129863,33.654533],"type":"Point"},"properties":{"osm_id":"5828039256","tag":{"amenity":"waste_basket"}},"type":"Feature"},
	{"geometry":{"coordinates":[-112.134276,33.655207],"type":"Point"},"properties":{"osm_id":"5828039279","tag":{"amenity":"waste_basket"}},"type":"Feature"},
	{"geometry":{"coordinates":[-112.134278,33.65522],"type":"Point"},"properties":{"osm_id":"5828039385","tag":{"amenity":"waste_basket"}},"type":"Feature"},
	{"geometry":{"coordinates":[-112.13467,33.653894],"type":"Point"},"properties":{"osm_id":"5828039386","tag":{"amenity":"waste_basket"}},"type":"Feature"},
	{"geometry":{"coordinates":[-112.13527,33.654816],"type":"Point"},"properties":{"osm_id":"5828039398","tag":{"amenity":"waste_basket"}},"type":"Feature"},
	{"geometry":{"coordinates":[-112.133906,33.65448],"type":"Point"},"properties":{"osm_id":"5828039407","tag":{"amenity":"waste_basket"}},"type":"Feature"},
	{"geometry":{"coordinates":[-112.139195,33.654735],"type":"Point"},"properties":{"osm_id":"5828039418","tag":{"amenity":"waste_basket"}},"type":"Feature"},
	{"geometry":{"coordinates":[-112.138914,33.654494],"type":"Point"},"properties":{"osm_id":"5828039425","tag":{"amenity":"waste_basket"}},"type":"Feature"},
	{"geometry":{"coordinates":[-112.142769,33.654487],"type":"Point"},"properties":{"osm_id":"5828039433","tag":{"amenity":"waste_basket"}},"type":"Feature"},
	{"geometry":{"coordinates":[-112.147894,33.654736],"type":"Point"},"properties":{"osm_id":"5828039441","tag":{"amenity":"waste_basket"}},"type":"Feature"},
	{"geometry":{"coordinates":[-112.147637,33.65447],"type":"Point"},"properties":{"osm_id":"5828039447","tag":{"amenity":"waste_basket"}},"type":"Feature"},
	{"geometry":{"coordinates":[-112.09998,33.654288],"type":"Point"},"properties":{"osm_id":"5828071861","tag":{"amenity":"waste_basket"}},"type":"Feature"},
	{"geometry":{"coordinates":[-112.099559,33.655125],"type":"Point"},"properties":{"osm_id":"5828071867","tag":{"amenity":"waste_basket"}},"type":"Feature"},
	{"geometry":{"coordinates":[-112.099162,33.654542],"type":"Point"},"properties":{"osm_id":"5828071868","tag":{"amenity":"waste_basket"}},"type":"Feature"},
	{"geometry":{"coordinates":[-112.100552,33.654895],"type":"Point"},"properties":{"osm_id":"5828071874","tag":{"amenity":"waste_basket"}},"type":"Feature"},
	{"geometry":{"coordinates":[-112.104959,33.654561],"type":"Point"},"properties":{"osm_id":"5828071995","tag":{"amenity":"waste_basket"}},"type":"Feature"},
	{"geometry":{"coordinates":[-112.106031,33.65484],"type":"Point"},"properties":{"osm_id":"5828072003","tag":{"amenity":"waste_basket"}},"type":"Feature"},
	{"geometry":{"coordinates":[-112.073781,33.654618],"type":"Point"},"properties":{"osm_id":"5828309823","tag":{"amenity":"waste_basket"}},"type":"Feature"},
	{"geometry":{"coordinates":[-112.074695,33.654848],"type":"Point"},"properties":{"osm_id":"5828309828","tag":{"amenity":"waste_basket"}},"type":"Feature"},
	{"geometry":{"coordinates":[-112.076997,33.654576],"type":"Point"},"properties":{"osm_id":"5828309834","tag":{"amenity":"waste_basket"}},"type":"Feature"},
	{"geometry":{"coordinates":[-112.077899,33.654814],"type":"Point"},"properties":{"osm_id":"5828309841","tag":{"amenity":"waste_basket"}},"type":"Feature"},
	{"geometry":{"coordinates":[-112.082412,33.654489],"type":"Point"},"properties":{"osm_id":"5828309848","tag":{"amenity":"waste_basket"}},"type":"Feature"},
	{"geometry":{"coordinates":[-112.083449,33.654758],"type":"Point"},"properties":{"osm_id":"5828309854","tag":{"amenity":"waste_basket"}},"type":"Feature"},
	{"geometry":{"coordinates":[-112.08678,33.654505],"type":"Point"},"properties":{"osm_id":"5828309871","tag":{"amenity":"waste_basket"}},"type":"Feature"},
	{"geometry":{"coordinates":[-112.087636,33.65475],"type":"Point"},"properties":{"osm_id":"5828309873","tag":{"amenity":"waste_basket"}},"type":"Feature"},
	{"geometry":{"coordinates":[-112.095466,33.654541],"type":"Point"},"properties":{"osm_id":"5828311185","tag":{"amenity":"waste_basket"}},"type":"Feature"},
	{"geometry":{"coordinates":[-112.096222,33.654795],"type":"Point"},"properties":{"osm_id":"5828311191","tag":{"amenity":"waste_basket"}},"type":"Feature"},
	{"geometry":{"coordinates":[-112.091957,33.654749],"type":"Point"},"properties":{"osm_id":"5828311199","tag":{"amenity":"waste_basket"}},"type":"Feature"},
	{"geometry":{"coordinates":[-112.091162,33.654487],"type":"Point"},"properties":{"osm_id":"5828311201","tag":{"amenity":"waste_basket"}},"type":"Feature"},
	{"geometry":{"coordinates":[-112.061046,33.654952],"type":"Point"},"properties":{"osm_id":"5832234596","tag":{"amenity":"waste_basket"}},"type":"Feature"},
	{"geometry":{"coordinates":[-112.060938,33.654692],"type":"Point"},"properties":{"osm_id":"5832234607","tag":{"amenity":"waste_basket"}},"type":"Feature"},
	{"geometry":{"coordinates":[-112.100148,33.697744],"type":"Point"},"properties":{"osm_id":"6258682184","tag":{"amenity":"waste_basket"}},"type":"Feature"},
	{"geometry":{"coordinates":[-112.100039,33.668229],"type":"Point"},"properties":{"osm_id":"6259005727","tag":{"amenity":"waste_basket"}},"type":"Feature"},
	{"geometry":{"coordinates":[-112.09965,33.670563],"type":"Point"},"properties":{"osm_id":"6259005733","tag":{"amenity":"waste_basket"}},"type":"Feature"},
	{"geometry":{"coordinates":[-112.100005,33.672675],"type":"Point"},"properties":{"osm_id":"6259005743","tag":{"amenity":"waste_basket"}},"type":"Feature"},
	{"geometry":{"coordinates":[-112.099716,33.673207],"type":"Point"},"properties":{"osm_id":"6259005747","tag":{"amenity":"waste_basket"}},"type":"Feature"},
	{"geometry":{"coordinates":[-112.100039,33.676106],"type":"Point"},"properties":{"osm_id":"6259005754","tag":{"amenity":"waste_basket"}},"type":"Feature"},
	{"geometry":{"coordinates":[-112.099715,33.676979],"type":"Point"},"properties":{"osm_id":"6259005765","tag":{"amenity":"waste_basket"}},"type":"Feature"},
	{"geometry":{"coordinates":[-112.099727,33.680511],"type":"Point"},"properties":{"osm_id":"6259005773","tag":{"amenity":"waste_basket"}},"type":"Feature"},
	{"geometry":{"coordinates":[-112.100032,33.679782],"type":"Point"},"properties":{"osm_id":"6259005775","tag":{"amenity":"waste_basket"}},"type":"Feature"},
	{"geometry":{"coordinates":[-112.099653,33.658713],"type":"Point"},"properties":{"osm_id":"6259052673","tag":{"amenity":"waste_basket"}},"type":"Feature"},
	{"geometry":{"coordinates":[-112.099948,33.657675],"type":"Point"},"properties":{"osm_id":"6259052675","tag":{"amenity":"waste_basket"}},"type":"Feature"},
	{"geometry":{"coordinates":[-112.099961,33.661519],"type":"Point"},"properties":{"osm_id":"6259053097","tag":{"amenity":"waste_basket"}},"type":"Feature"},
	{"geometry":{"coordinates":[-112.099663,33.662357],"type":"Point"},"properties":{"osm_id":"6259053104","tag":{"amenity":"waste_basket"}},"type":"Feature"},
	{"geometry":{"coordinates":[-112.099691,33.665971],"type":"Point"},"properties":{"osm_id":"6259053121","tag":{"amenity":"waste_basket"}},"type":"Feature"},
	{"geometry":{"coordinates":[-112.099989,33.665307],"type":"Point"},"properties":{"osm_id":"6259053145","tag":{"amenity":"waste_basket"}},"type":"Feature"},
	{"geometry":{"coordinates":[-112.099907,33.651331],"type":"Point"},"properties":{"osm_id":"6261823361","tag":{"amenity":"waste_basket"}},"type":"Feature"},
	{"geometry":{"coordinates":[-112.099584,33.6515],"type":"Point"},"properties":{"osm_id":"6261823363","tag":{"amenity":"waste_basket"}},"type":"Feature"},
	{"geometry":{"coordinates":[-112.121773,33.710472],"type":"Point"},"properties":{"osm_id":"6266723082","tag":{"amenity":"waste_basket"}},"type":"Feature"},
	{"geometry":{"coordinates":[-112.117509,33.672464],"type":"Point"},"properties":{"osm_id":"6269719974","tag":{"amenity":"waste_basket"}},"type":"Feature"},
	{"geometry":{"coordinates":[-112.117248,33.680195],"type":"Point"},"properties":{"osm_id":"6269720531","tag":{"amenity":"waste_basket"}},"type":"Feature"},
	{"geometry":{"coordinates":[-112.117501,33.679314],"type":"Point"},"properties":{"osm_id":"6269720538","tag":{"amenity":"waste_basket"}},"type":"Feature"},
	{"geometry":{"coordinates":[-112.117537,33.676035],"type":"Point"},"properties":{"osm_id":"6269720562","tag":{"amenity":"waste_basket"}},"type":"Feature"},
	{"geometry":{"coordinates":[-112.117603,33.662604],"type":"Point"},"properties":{"osm_id":"6313124698","tag":{"amenity":"waste_basket"}},"type":"Feature"},
	{"geometry":{"coordinates":[-112.118067,33.662872],"type":"Point"},"properties":{"osm_id":"6313124699","tag":{"amenity":"waste_basket"}},"type":"Feature"},
	{"geometry":{"coordinates":[-112.126385,33.662887],"type":"Point"},"properties":{"osm_id":"6313124722","tag":{"amenity":"waste_basket"}},"type":"Feature"},
	{"geometry":{"coordinates":[-112.125135,33.662681],"type":"Point"},"properties":{"osm_id":"6313124727","tag":{"amenity":"waste_basket"}},"type":"Feature"},
	{"geometry":{"coordinates":[-112.133843,33.661906],"type":"Point"},"properties":{"osm_id":"6313124738","tag":{"amenity":"waste_basket"}},"type":"Feature"},
	{"geometry":{"coordinates":[-112.134405,33.658062],"type":"Point"},"properties":{"osm_id":"6313124740","tag":{"amenity":"waste_basket"}},"type":"Feature"},
	{"geometry":{"coordinates":[-112.134687,33.657445],"type":"Point"},"properties":{"osm_id":"6313124746","tag":{"amenity":"waste_basket"}},"type":"Feature"},
	{"geometry":{"coordinates":[-112.134728,33.661508],"type":"Point"},"properties":{"osm_id":"6313124752","tag":{"amenity":"waste_basket"}},"type":"Feature"},
	{"geometry":{"coordinates":[-112.130607,33.661984],"type":"Point"},"properties":{"osm_id":"6313124760","tag":{"amenity":"waste_basket"}},"type":"Feature"},
	{"geometry":{"coordinates":[-112.131719,33.662178],"type":"Point"},"properties":{"osm_id":"6313124762","tag":{"amenity":"waste_basket"}},"type":"Feature"},
	{"geometry":{"coordinates":[-112.138595,33.69899],"type":"Point"},"properties":{"osm_id":"6601580879","tag":{"amenity":"waste_disposal"}},"type":"Feature"},
	{"geometry":{"coordinates":[-112.137851,33.698859],"type":"Point"},"properties":{"osm_id":"6601580880","tag":{"amenity":"waste_disposal"}},"type":"Feature"},
	{"geometry":{"coordinates":[-112.140148,33.698993],"type":"Point"},"properties":{"osm_id":"6601580881","tag":{"amenity":"waste_disposal"}},"type":"Feature"},
	{"geometry":{"coordinates":[-112.140039,33.698984],"type":"Point"},"properties":{"osm_id":"6601580882","tag":{"amenity":"waste_disposal"}},"type":"Feature"},
	{"geometry":{"coordinates":[-112.134968,33.690407],"type":"Point"},"properties":{"osm_id":"6715803983","tag":{"amenity":"waste_basket"}},"type":"Feature"},
	{"geometry":{"coordinates":[-112.13468,33.691247],"type":"Point"},"properties":{"osm_id":"6715842885","tag":{"amenity":"waste_basket"}},"type":"Feature"},
	{"geometry":{"coordinates":[-112.134998,33.693449],"type":"Point"},"properties":{"osm_id":"6715842924","tag":{"amenity":"waste_basket"}},"type":"Feature"},
	{"geometry":{"coordinates":[-112.134712,33.694262],"type":"Point"},"properties":{"osm_id":"6715842930","tag":{"amenity":"waste_basket"}},"type":"Feature"},
	{"geometry":{"coordinates":[-112.135091,33.697986],"type":"Point"},"properties":{"osm_id":"6715842936","tag":{"amenity":"waste_basket"}},"type":"Feature"},
	{"geometry":{"coordinates":[-112.131302,33.698479],"type":"Point"},"properties":{"osm_id":"6715842950","tag":{"amenity":"waste_basket"}},"type":"Feature"},
	{"geometry":{"coordinates":[-112.13447,33.698168],"type":"Point"},"properties":{"osm_id":"6715842952","tag":{"amenity":"waste_basket"}},"type":"Feature"},
	{"geometry":{"coordinates":[-112.13042,33.698396],"type":"Point"},"properties":{"osm_id":"6715843135","tag":{"amenity":"waste_basket"}},"type":"Feature"},
	{"geometry":{"coordinates":[-112.134809,33.668046],"type":"Point"},"properties":{"osm_id":"6717774512","tag":{"amenity":"waste_basket"}},"type":"Feature"},
	{"geometry":{"coordinates":[-112.134838,33.673188],"type":"Point"},"properties":{"osm_id":"6717774544","tag":{"amenity":"waste_basket"}},"type":"Feature"},
	{"geometry":{"coordinates":[-112.134548,33.675104],"type":"Point"},"properties":{"osm_id":"6717774546","tag":{"amenity":"waste_basket"}},"type":"Feature"},
	{"geometry":{"coordinates":[-112.134572,33.679245],"type":"Point"},"properties":{"osm_id":"6717774552","tag":{"amenity":"waste_basket"}},"type":"Feature"},
	{"geometry":{"coordinates":[-112.134876,33.678291],"type":"Point"},"properties":{"osm_id":"6717774559","tag":{"amenity":"waste_basket"}},"type":"Feature"},
	{"geometry":{"coordinates":[-112.134602,33.680793],"type":"Point"},"properties":{"osm_id":"6717774560","tag":{"amenity":"waste_basket"}},"type":"Feature"},
	{"geometry":{"coordinates":[-112.134886,33.68009],"type":"Point"},"properties":{"osm_id":"6717774567","tag":{"amenity":"waste_basket"}},"type":"Feature"},
	{"geometry":{"coordinates":[-112.103743,33.711895],"type":"Point"},"properties":{"osm_id":"7627477974","tag":{"amenity":"waste_disposal"}},"type":"Feature"},
	{"geometry":{"coordinates":[-112.103215,33.711988],"type":"Point"},"properties":{"osm_id":"7627477975","tag":{"amenity":"waste_disposal"}},"type":"Feature"},
	{"geometry":{"coordinates":[-112.103198,33.711963],"type":"Point"},"properties":{"osm_id":"7627477976","tag":{"amenity":"waste_disposal"}},"type":"Feature"},
	{"geometry":{"coordinates":[-112.105331,33.711877],"type":"Point"},"properties":{"osm_id":"7627477977","tag":{"amenity":"waste_disposal"}},"type":"Feature"},
	{"geometry":{"coordinates":[-112.10559,33.711997],"type":"Point"},"properties":{"osm_id":"7627477978","tag":{"amenity":"waste_disposal"}},"type":"Feature"},
	{"geometry":{"coordinates":[-112.114542,33.72018],"type":"Point"},"properties":{"osm_id":"7627512686","tag":{"amenity":"waste_disposal"}},"type":"Feature"},
	{"geometry":{"coordinates":[-112.114559,33.720148],"type":"Point"},"properties":{"osm_id":"7627512687","tag":{"amenity":"waste_disposal"}},"type":"Feature"},
	{"geometry":{"coordinates":[-112.114618,33.711764],"type":"Point"},"properties":{"osm_id":"7627512800","tag":{"amenity":"waste_disposal"}},"type":"Feature"},
	{"geometry":{"coordinates":[-112.11466,33.711766],"type":"Point"},"properties":{"osm_id":"7627512801","tag":{"amenity":"waste_disposal"}},"type":"Feature"},
	{"geometry":{"coordinates":[-112.114517,33.711896],"type":"Point"},"properties":{"osm_id":"7627512802","tag":{"amenity":"waste_disposal"}},"type":"Feature"},
	{"geometry":{"coordinates":[-112.112203,33.712236],"type":"Point"},"properties":{"osm_id":"7627512803","tag":{"amenity":"waste_disposal"}},"type":"Feature"},
	{"geometry":{"coordinates":[-112.112206,33.71221],"type":"Point"},"properties":{"osm_id":"7627512804","tag":{"amenity":"waste_disposal"}},"type":"Feature"},
	{"geometry":{"coordinates":[-112.11206,33.712294],"type":"Point"},"properties":{"osm_id":"7627512805","tag":{"amenity":"waste_disposal"}},"type":"Feature"},
	{"geometry":{"coordinates":[-112.112092,33.712297],"type":"Point"},"properties":{"osm_id":"7627512806","tag":{"amenity":"waste_disposal"}},"type":"Feature"},
	{"geometry":{"coordinates":[-112.111407,33.712053],"type":"Point"},"properties":{"osm_id":"7627512807","tag":{"amenity":"waste_disposal"}},"type":"Feature"},
	{"geometry":{"coordinates":[-112.111444,33.712055],"type":"Point"},"properties":{"osm_id":"7627512808","tag":{"amenity":"waste_disposal"}},"type":"Feature"},
	{"geometry":{"coordinates":[-112.110405,33.712123],"type":"Point"},"properties":{"osm_id":"7627512809","tag":{"amenity":"waste_disposal"}},"type":"Feature"},
	{"geometry":{"coordinates":[-112.106839,33.694855],"type":"Point"},"properties":{"osm_id":"7627606996","tag":{"amenity":"waste_disposal"}},"type":"Feature"},
	{"geometry":{"coordinates":[-112.106899,33.694861],"type":"Point"},"properties":{"osm_id":"7627606997","tag":{"amenity":"waste_disposal"}},"type":"Feature"},
	{"geometry":{"coordinates":[-112.107444,33.694854],"type":"Point"},"properties":{"osm_id":"7627606998","tag":{"amenity":"waste_disposal"}},"type":"Feature"},
	{"geometry":{"coordinates":[-112.108006,33.694883],"type":"Point"},"properties":{"osm_id":"7627606999","tag":{"amenity":"waste_disposal"}},"type":"Feature"},
	{"geometry":{"coordinates":[-112.107866,33.696463],"type":"Point"},"properties":{"osm_id":"7627607000","tag":{"amenity":"waste_disposal"}},"type":"Feature"},
	{"geometry":{"coordinates":[-112.112024,33.704301],"type":"Point"},"properties":{"osm_id":"7627607001","tag":{"amenity":"waste_disposal"}},"type":"Feature"},
	{"geometry":{"coordinates":[-112.112005,33.704325],"type":"Point"},"properties":{"osm_id":"7627607002","tag":{"amenity":"waste_disposal"}},"type":"Feature"},
	{"geometry":{"coordinates":[-112.112262,33.704759],"type":"Point"},"properties":{"osm_id":"7627607003","tag":{"amenity":"waste_disposal"}},"type":"Feature"},
	{"geometry":{"coordinates":[-112.112296,33.704735],"type":"Point"},"properties":{"osm_id":"7627607004","tag":{"amenity":"waste_disposal"}},"type":"Feature"},
	{"geometry":{"coordinates":[-112.111158,33.70493],"type":"Point"},"properties":{"osm_id":"7627607005","tag":{"amenity":"waste_disposal"}},"type":"Feature"},
	{"geometry":{"coordinates":[-112.111195,33.704944],"type":"Point"},"properties":{"osm_id":"7627607006","tag":{"amenity":"waste_disposal"}},"type":"Feature"},
	{"geometry":{"coordinates":[-112.111838,33.705574],"type":"Point"},"properties":{"osm_id":"7627607007","tag":{"amenity":"waste_disposal"}},"type":"Feature"},
	{"geometry":{"coordinates":[-112.111869,33.70559],"type":"Point"},"properties":{"osm_id":"7627607008","tag":{"amenity":"waste_disposal"}},"type":"Feature"},
	{"geometry":{"coordinates":[-112.112599,33.705677],"type":"Point"},"properties":{"osm_id":"7627607009","tag":{"amenity":"waste_disposal"}},"type":"Feature"},
	{"geometry":{"coordinates":[-112.1126,33.705647],"type":"Point"},"properties":{"osm_id":"7627607010","tag":{"amenity":"waste_disposal"}},"type":"Feature"},
	{"geometry":{"coordinates":[-112.112082,33.706889],"type":"Point"},"properties":{"osm_id":"7627607011","tag":{"amenity":"waste_disposal"}},"type":"Feature"},
	{"geometry":{"coordinates":[-112.112114,33.706888],"type":"Point"},"properties":{"osm_id":"7627607012","tag":{"amenity":"waste_disposal"}},"type":"Feature"},
	{"geometry":{"coordinates":[-112.115608,33.707004],"type":"Point"},"properties":{"osm_id":"7627607013","tag":{"amenity":"waste_disposal"}},"type":"Feature"},
	{"geometry":{"coordinates":[-112.110964,33.707632],"type":"Point"},"properties":{"osm_id":"7627607014","tag":{"amenity":"waste_disposal"}},"type":"Feature"},
	{"geometry":{"coordinates":[-112.110949,33.707607],"type":"Point"},"properties":{"osm_id":"7627607015","tag":{"amenity":"waste_disposal"}},"type":"Feature"},
	{"geometry":{"coordinates":[-112.109679,33.707753],"type":"Point"},"properties":{"osm_id":"7627607016","tag":{"amenity":"waste_disposal"}},"type":"Feature"},
	{"geometry":{"coordinates":[-112.109643,33.707751],"type":"Point"},"properties":{"osm_id":"7627607017","tag":{"amenity":"waste_disposal"}},"type":"Feature"},
	{"geometry":{"coordinates":[-112.109546,33.707102],"type":"Point"},"properties":{"osm_id":"7627607018","tag":{"amenity":"waste_disposal"}},"type":"Feature"},
	{"geometry":{"coordinates":[-112.109578,33.707113],"type":"Point"},"properties":{"osm_id":"7627607019","tag":{"amenity":"waste_disposal"}},"type":"Feature"},
	{"geometry":{"coordinates":[-112.109556,33.706414],"type":"Point"},"properties":{"osm_id":"7627607020","tag":{"amenity":"waste_disposal"}},"type":"Feature"},
	{"geometry":{"coordinates":[-112.109583,33.706434],"type":"Point"},"properties":{"osm_id":"7627607021","tag":{"amenity":"waste_disposal"}},"type":"Feature"},
	{"geometry":{"coordinates":[-112.110099,33.705326],"type":"Point"},"properties":{"osm_id":"7627607022","tag":{"amenity":"waste_disposal"}},"type":"Feature"},
	{"geometry":{"coordinates":[-112.1101,33.705296],"type":"Point"},"properties":{"osm_id":"7627607023","tag":{"amenity":"waste_disposal"}},"type":"Feature"},
	{"geometry":{"coordinates":[-112.110598,33.705067],"type":"Point"},"properties":{"osm_id":"7627607024","tag":{"amenity":"waste_disposal"}},"type":"Feature"},
	{"geometry":{"coordinates":[-112.110599,33.705036],"type":"Point"},"properties":{"osm_id":"7627607025","tag":{"amenity":"waste_disposal"}},"type":"Feature"},
	{"geometry":{"coordinates":[-112.111191,33.705967],"type":"Point"},"properties":{"osm_id":"7627607026","tag":{"amenity":"waste_disposal"}},"type":"Feature"},
	{"geometry":{"coordinates":[-112.111224,33.705973],"type":"Point"},"properties":{"osm_id":"7627607027","tag":{"amenity":"waste_disposal"}},"type":"Feature"},
	{"geometry":{"coordinates":[-112.110868,33.706511],"type":"Point"},"properties":{"osm_id":"7627607028","tag":{"amenity":"waste_disposal"}},"type":"Feature"},
	{"geometry":{"coordinates":[-112.110898,33.706502],"type":"Point"},"properties":{"osm_id":"7627607029","tag":{"amenity":"waste_disposal"}},"type":"Feature"},
	{"geometry":{"coordinates":[-112.111318,33.706708],"type":"Point"},"properties":{"osm_id":"7627607030","tag":{"amenity":"waste_disposal"}},"type":"Feature"},
	{"geometry":{"coordinates":[-112.111345,33.7067],"type":"Point"},"properties":{"osm_id":"7627607031","tag":{"amenity":"waste_disposal"}},"type":"Feature"},
	{"geometry":{"coordinates":[-112.10725,33.70656],"type":"Point"},"properties":{"osm_id":"7627607032","tag":{"amenity":"waste_disposal"}},"type":"Feature"},
	{"geometry":{"coordinates":[-112.107233,33.706047],"type":"Point"},"properties":{"osm_id":"7627607033","tag":{"amenity":"waste_disposal"}},"type":"Feature"},
	{"geometry":{"coordinates":[-112.107206,33.706021],"type":"Point"},"properties":{"osm_id":"7627607034","tag":{"amenity":"waste_disposal"}},"type":"Feature"},
	{"geometry":{"coordinates":[-112.106625,33.706096],"type":"Point"},"properties":{"osm_id":"7627607039","tag":{"amenity":"waste_disposal"}},"type":"Feature"},
	{"geometry":{"coordinates":[-112.106631,33.706533],"type":"Point"},"properties":{"osm_id":"7627607040","tag":{"amenity":"waste_disposal"}},"type":"Feature"},
	{"geometry":{"coordinates":[-112.105748,33.706101],"type":"Point"},"properties":{"osm_id":"7627607041","tag":{"amenity":"waste_disposal"}},"type":"Feature"},
	{"geometry":{"coordinates":[-112.104804,33.706105],"type":"Point"},"properties":{"osm_id":"7627607048","tag":{"amenity":"waste_disposal"}},"type":"Feature"},
	{"geometry":{"coordinates":[-112.104824,33.706139],"type":"Point"},"properties":{"osm_id":"7627607049","tag":{"amenity":"waste_disposal"}},"type":"Feature"},
	{"geometry":{"coordinates":[-112.104938,33.706882],"type":"Point"},"properties":{"osm_id":"7627607050","tag":{"amenity":"waste_disposal"}},"type":"Feature"},
	{"geometry":{"coordinates":[-112.104946,33.706836],"type":"Point"},"properties":{"osm_id":"7627607051","tag":{"amenity":"waste_disposal"}},"type":"Feature"},
	{"geometry":{"coordinates":[-112.104881,33.707529],"type":"Point"},"properties":{"osm_id":"7627607052","tag":{"amenity":"waste_disposal"}},"type":"Feature"},
	{"geometry":{"coordinates":[-112.105071,33.70749],"type":"Point"},"properties":{"osm_id":"7627607053","tag":{"amenity":"waste_disposal"}},"type":"Feature"},
	{"geometry":{"coordinates":[-112.105466,33.707485],"type":"Point"},"properties":{"osm_id":"7627607054","tag":{"amenity":"waste_disposal"}},"type":"Feature"},
	{"geometry":{"coordinates":[-112.105521,33.707496],"type":"Point"},"properties":{"osm_id":"7627607055","tag":{"amenity":"waste_disposal"}},"type":"Feature"},
	{"geometry":{"coordinates":[-112.105733,33.706824],"type":"Point"},"properties":{"osm_id":"7627607056","tag":{"amenity":"waste_disposal"}},"type":"Feature"},
	{"geometry":{"coordinates":[-112.106625,33.707003],"type":"Point"},"properties":{"osm_id":"7627607057","tag":{"amenity":"waste_disposal"}},"type":"Feature"},
	{"geometry":{"coordinates":[-112.107244,33.706982],"type":"Point"},"properties":{"osm_id":"7627607058","tag":{"amenity":"waste_disposal"}},"type":"Feature"},
	{"geometry":{"coordinates":[-112.107243,33.70706],"type":"Point"},"properties":{"osm_id":"7627607059","tag":{"amenity":"waste_disposal"}},"type":"Feature"},
	{"geometry":{"coordinates":[-112.10484,33.708051],"type":"Point"},"properties":{"osm_id":"7627607060","tag":{"amenity":"waste_disposal"}},"type":"Feature"},
	{"geometry":{"coordinates":[-112.104839,33.708125],"type":"Point"},"properties":{"osm_id":"7627607061","tag":{"amenity":"waste_disposal"}},"type":"Feature"},
	{"geometry":{"coordinates":[-112.104903,33.708522],"type":"Point"},"properties":{"osm_id":"7627607062","tag":{"amenity":"waste_disposal"}},"type":"Feature"},
	{"geometry":{"coordinates":[-112.104846,33.708532],"type":"Point"},"properties":{"osm_id":"7627607063","tag":{"amenity":"waste_disposal"}},"type":"Feature"},
	{"geometry":{"coordinates":[-112.10516,33.708523],"type":"Point"},"properties":{"osm_id":"7627607064","tag":{"amenity":"waste_disposal"}},"type":"Feature"},
	{"geometry":{"coordinates":[-112.105604,33.708523],"type":"Point"},"properties":{"osm_id":"7627607065","tag":{"amenity":"waste_disposal"}},"type":"Feature"},
	{"geometry":{"coordinates":[-112.106049,33.709027],"type":"Point"},"properties":{"osm_id":"7627607066","tag":{"amenity":"waste_disposal"}},"type":"Feature"},
	{"geometry":{"coordinates":[-112.106135,33.709025],"type":"Point"},"properties":{"osm_id":"7627607067","tag":{"amenity":"waste_disposal"}},"type":"Feature"},
	{"geometry":{"coordinates":[-112.106065,33.708522],"type":"Point"},"properties":{"osm_id":"7627607068","tag":{"amenity":"waste_disposal"}},"type":"Feature"},
	{"geometry":{"coordinates":[-112.106992,33.708519],"type":"Point"},"properties":{"osm_id":"7627607069","tag":{"amenity":"waste_disposal"}},"type":"Feature"},
	{"geometry":{"coordinates":[-112.10728,33.709151],"type":"Point"},"properties":{"osm_id":"7627607070","tag":{"amenity":"waste_disposal"}},"type":"Feature"},
	{"geometry":{"coordinates":[-112.10521,33.709025],"type":"Point"},"properties":{"osm_id":"7627607071","tag":{"amenity":"waste_disposal"}},"type":"Feature"},
	{"geometry":{"coordinates":[-112.105125,33.709027],"type":"Point"},"properties":{"osm_id":"7627607072","tag":{"amenity":"waste_disposal"}},"type":"Feature"},
	{"geometry":{"coordinates":[-112.107248,33.708082],"type":"Point"},"properties":{"osm_id":"7627607073","tag":{"amenity":"waste_disposal"}},"type":"Feature"},
	{"geometry":{"coordinates":[-112.107241,33.70801],"type":"Point"},"properties":{"osm_id":"7627607074","tag":{"amenity":"waste_disposal"}},"type":"Feature"},
	{"geometry":{"coordinates":[-112.106627,33.707389],"type":"Point"},"properties":{"osm_id":"7627607075","tag":{"amenity":"waste_disposal"}},"type":"Feature"},
	{"geometry":{"coordinates":[-112.106631,33.707317],"type":"Point"},"properties":{"osm_id":"7627607076","tag":{"amenity":"waste_disposal"}},"type":"Feature"},
	{"geometry":{"coordinates":[-112.106631,33.70778],"type":"Point"},"properties":{"osm_id":"7627607077","tag":{"amenity":"waste_disposal"}},"type":"Feature"},
	{"geometry":{"coordinates":[-112.105923,33.707984],"type":"Point"},"properties":{"osm_id":"7627607078","tag":{"amenity":"waste_disposal"}},"type":"Feature"},
	{"geometry":{"coordinates":[-112.101308,33.71182],"type":"Point"},"properties":{"osm_id":"7627607079","tag":{"amenity":"waste_disposal"}},"type":"Feature"},
	{"geometry":{"coordinates":[-112.101243,33.71169],"type":"Point"},"properties":{"osm_id":"7627607080","tag":{"amenity":"waste_disposal"}},"type":"Feature"},
	{"geometry":{"coordinates":[-112.101535,33.711939],"type":"Point"},"properties":{"osm_id":"7627607081","tag":{"amenity":"waste_disposal"}},"type":"Feature"},
	{"geometry":{"coordinates":[-112.102325,33.711928],"type":"Point"},"properties":{"osm_id":"7627607082","tag":{"amenity":"waste_disposal"}},"type":"Feature"},
	{"geometry":{"coordinates":[-112.102338,33.711954],"type":"Point"},"properties":{"osm_id":"7627607083","tag":{"amenity":"waste_disposal"}},"type":"Feature"},
	{"geometry":{"coordinates":[-112.101241,33.711199],"type":"Point"},"properties":{"osm_id":"7627607084","tag":{"amenity":"waste_disposal"}},"type":"Feature"},
	{"geometry":{"coordinates":[-112.101829,33.699124],"type":"Point"},"properties":{"osm_id":"7627608787","tag":{"amenity":"waste_disposal"}},"type":"Feature"},
	{"geometry":{"coordinates":[-112.101217,33.69909],"type":"Point"},"properties":{"osm_id":"7627608788","tag":{"amenity":"waste_disposal"}},"type":"Feature"},
	{"geometry":{"coordinates":[-112.101026,33.699968],"type":"Point"},"properties":{"osm_id":"7627608789","tag":{"amenity":"waste_disposal"}},"type":"Feature"},
	{"geometry":{"coordinates":[-112.100693,33.699965],"type":"Point"},"properties":{"osm_id":"7627608790","tag":{"amenity":"waste_disposal"}},"type":"Feature"},
	{"geometry":{"coordinates":[-112.097728,33.713742],"type":"Point"},"properties":{"osm_id":"7627608792","tag":{"amenity":"waste_disposal"}},"type":"Feature"},
	{"geometry":{"coordinates":[-112.0985,33.713701],"type":"Point"},"properties":{"osm_id":"7627608793","tag":{"amenity":"waste_disposal"}},"type":"Feature"},
	{"geometry":{"coordinates":[-112.098796,33.713649],"type":"Point"},"properties":{"osm_id":"7627608794","tag":{"amenity":"waste_disposal"}},"type":"Feature"},
	{"geometry":{"coordinates":[-112.094985,33.712261],"type":"Point"},"properties":{"osm_id":"7627608795","tag":{"amenity":"waste_disposal"}},"type":"Feature"},
	{"geometry":{"coordinates":[-112.09301,33.70998],"type":"Point"},"properties":{"osm_id":"7627608800","tag":{"amenity":"waste_disposal"}},"type":"Feature"},
	{"geometry":{"coordinates":[-112.095363,33.709931],"type":"Point"},"properties":{"osm_id":"7627608812","tag":{"amenity":"waste_disposal"}},"type":"Feature"},
	{"geometry":{"coordinates":[-112.092705,33.711076],"type":"Point"},"properties":{"osm_id":"7627608813","tag":{"amenity":"waste_disposal"}},"type":"Feature"},
	{"geometry":{"coordinates":[-112.092745,33.711075],"type":"Point"},"properties":{"osm_id":"7627608814","tag":{"amenity":"waste_disposal"}},"type":"Feature"},
	{"geometry":{"coordinates":[-112.09157,33.711084],"type":"Point"},"properties":{"osm_id":"7627608815","tag":{"amenity":"waste_disposal"}},"type":"Feature"},
	{"geometry":{"coordinates":[-112.091983,33.710008],"type":"Point"},"properties":{"osm_id":"7627608821","tag":{"amenity":"waste_disposal"}},"type":"Feature"},
	{"geometry":{"coordinates":[-112.092018,33.710004],"type":"Point"},"properties":{"osm_id":"7627608822","tag":{"amenity":"waste_disposal"}},"type":"Feature"},
	{"geometry":{"coordinates":[-112.090627,33.710504],"type":"Point"},"properties":{"osm_id":"7627608827","tag":{"amenity":"waste_disposal"}},"type":"Feature"},
	{"geometry":{"coordinates":[-112.110418,33.699457],"type":"Point"},"properties":{"osm_id":"7627608829","tag":{"amenity":"waste_disposal"}},"type":"Feature"},
	{"geometry":{"coordinates":[-112.111786,33.698726],"type":"Point"},"properties":{"osm_id":"7627608830","tag":{"amenity":"waste_disposal"}},"type":"Feature"},
	{"geometry":{"coordinates":[-112.112835,33.70434],"type":"Point"},"properties":{"osm_id":"7627608831","tag":{"amenity":"waste_disposal"}},"type":"Feature"},
	{"geometry":{"coordinates":[-112.112819,33.704306],"type":"Point"},"properties":{"osm_id":"7627608832","tag":{"amenity":"waste_disposal"}},"type":"Feature"},
	{"geometry":{"coordinates":[-112.114168,33.707593],"type":"Point"},"properties":{"osm_id":"7627608833","tag":{"amenity":"waste_disposal"}},"type":"Feature"},
	{"geometry":{"coordinates":[-112.114189,33.707809],"type":"Point"},"properties":{"osm_id":"7627608834","tag":{"amenity":"waste_disposal"}},"type":"Feature"},
	{"geometry":{"coordinates":[-112.114207,33.707832],"type":"Point"},"properties":{"osm_id":"7627608835","tag":{"amenity":"waste_disposal"}},"type":"Feature"},
	{"geometry":{"coordinates":[-112.114828,33.707836],"type":"Point"},"properties":{"osm_id":"7627608836","tag":{"amenity":"waste_disposal"}},"type":"Feature"},
	{"geometry":{"coordinates":[-112.114844,33.707855],"type":"Point"},"properties":{"osm_id":"7627608837","tag":{"amenity":"waste_disposal"}},"type":"Feature"},
	{"geometry":{"coordinates":[-112.098931,33.712077],"type":"Point"},"properties":{"osm_id":"7636715391","tag":{"amenity":"waste_disposal"}},"type":"Feature"},
	{"geometry":{"coordinates":[-112.118121,33.666284],"type":"Point"},"properties":{"osm_id":"7684364872","tag":{"amenity":"waste_disposal"}},"type":"Feature"},
	{"geometry":{"coordinates":[-112.117802,33.667492],"type":"Point"},"properties":{"osm_id":"7684364877","tag":{"amenity":"waste_disposal"}},"type":"Feature"},
	{"geometry":{"coordinates":[-112.122811,33.666525],"type":"Point"},"properties":{"osm_id":"7684364878","tag":{"amenity":"waste_disposal"}},"type":"Feature"},
	{"geometry":{"coordinates":[-112.122795,33.666477],"type":"Point"},"properties":{"osm_id":"7684364879","tag":{"amenity":"waste_disposal"}},"type":"Feature"},
	{"geometry":{"coordinates":[-112.125324,33.666604],"type":"Point"},"properties":{"osm_id":"7684364880","tag":{"amenity":"waste_disposal"}},"type":"Feature"},
	{"geometry":{"coordinates":[-112.12533,33.66669],"type":"Point"},"properties":{"osm_id":"7684364881","tag":{"amenity":"waste_disposal"}},"type":"Feature"},
	{"geometry":{"coordinates":[-112.121586,33.665536],"type":"Point"},"properties":{"osm_id":"7684364882","tag":{"amenity":"waste_disposal"}},"type":"Feature"},
	{"geometry":{"coordinates":[-112.121531,33.665534],"type":"Point"},"properties":{"osm_id":"7684364883","tag":{"amenity":"waste_disposal"}},"type":"Feature"},
	{"geometry":{"coordinates":[-112.122027,33.664537],"type":"Point"},"properties":{"osm_id":"7684364886","tag":{"amenity":"waste_disposal"}},"type":"Feature"},
	{"geometry":{"coordinates":[-112.122077,33.664533],"type":"Point"},"properties":{"osm_id":"7684364887","tag":{"amenity":"waste_disposal"}},"type":"Feature"},
	{"geometry":{"coordinates":[-112.123472,33.664991],"type":"Point"},"properties":{"osm_id":"7684364888","tag":{"amenity":"waste_disposal"}},"type":"Feature"},
	{"geometry":{"coordinates":[-112.12344,33.664998],"type":"Point"},"properties":{"osm_id":"7684364889","tag":{"amenity":"waste_disposal"}},"type":"Feature"},
	{"geometry":{"coordinates":[-112.125146,33.665383],"type":"Point"},"properties":{"osm_id":"7684364892","tag":{"amenity":"waste_disposal"}},"type":"Feature"},
	{"geometry":{"coordinates":[-112.125099,33.665405],"type":"Point"},"properties":{"osm_id":"7684364893","tag":{"amenity":"waste_disposal"}},"type":"Feature"},
	{"geometry":{"coordinates":[-112.125097,33.664328],"type":"Point"},"properties":{"osm_id":"7684364894","tag":{"amenity":"waste_disposal"}},"type":"Feature"},
	{"geometry":{"coordinates":[-112.12398,33.664678],"type":"Point"},"properties":{"osm_id":"7684364898","tag":{"amenity":"waste_disposal"}},"type":"Feature"},
	{"geometry":{"coordinates":[-112.123944,33.664715],"type":"Point"},"properties":{"osm_id":"7684364899","tag":{"amenity":"waste_disposal"}},"type":"Feature"},
	{"geometry":{"coordinates":[-112.12288,33.664581],"type":"Point"},"properties":{"osm_id":"7684364900","tag":{"amenity":"waste_disposal"}},"type":"Feature"},
	{"geometry":{"coordinates":[-112.119848,33.664323],"type":"Point"},"properties":{"osm_id":"7684364903","tag":{"amenity":"waste_disposal"}},"type":"Feature"},
	{"geometry":{"coordinates":[-112.120371,33.66301],"type":"Point"},"properties":{"osm_id":"7684364924","tag":{"amenity":"waste_disposal"}},"type":"Feature"},
	{"geometry":{"coordinates":[-112.120401,33.66301],"type":"Point"},"properties":{"osm_id":"7684364925","tag":{"amenity":"waste_disposal"}},"type":"Feature"},
	{"geometry":{"coordinates":[-112.121021,33.663651],"type":"Point"},"properties":{"osm_id":"7684364926","tag":{"amenity":"waste_disposal"}},"type":"Feature"},
	{"geometry":{"coordinates":[-112.121097,33.663651],"type":"Point"},"properties":{"osm_id":"7684364927","tag":{"amenity":"waste_disposal"}},"type":"Feature"},
	{"geometry":{"coordinates":[-112.123845,33.663215],"type":"Point"},"properties":{"osm_id":"7684364930","tag":{"amenity":"waste_disposal"}},"type":"Feature"},
	{"geometry":{"coordinates":[-112.123875,33.663217],"type":"Point"},"properties":{"osm_id":"7684364931","tag":{"amenity":"waste_disposal"}},"type":"Feature"},
	{"geometry":{"coordinates":[-112.122463,33.663664],"type":"Point"},"properties":{"osm_id":"7684364932","tag":{"amenity":"waste_disposal"}},"type":"Feature"},
	{"geometry":{"coordinates":[-112.122385,33.663675],"type":"Point"},"properties":{"osm_id":"7684364933","tag":{"amenity":"waste_disposal"}},"type":"Feature"},
	{"geometry":{"coordinates":[-112.124637,33.664231],"type":"Point"},"properties":{"osm_id":"7684364936","tag":{"amenity":"waste_disposal"}},"type":"Feature"},
	{"geometry":{"coordinates":[-112.12568,33.663763],"type":"Point"},"properties":{"osm_id":"7684364938","tag":{"amenity":"waste_disposal"}},"type":"Feature"},
	{"geometry":{"coordinates":[-112.12007,33.665478],"type":"Point"},"properties":{"osm_id":"7684364941","tag":{"amenity":"waste_disposal"}},"type":"Feature"},
	{"geometry":{"coordinates":[-112.12007,33.665436],"type":"Point"},"properties":{"osm_id":"7684364942","tag":{"amenity":"waste_disposal"}},"type":"Feature"},
	{"geometry":{"coordinates":[-112.119695,33.664346],"type":"Point"},"properties":{"osm_id":"7684364945","tag":{"amenity":"waste_disposal"}},"type":"Feature"},
	{"geometry":{"coordinates":[-112.117837,33.664466],"type":"Point"},"properties":{"osm_id":"7684364946","tag":{"amenity":"waste_disposal"}},"type":"Feature"},
	{"geometry":{"coordinates":[-112.117926,33.663716],"type":"Point"},"properties":{"osm_id":"7684364947","tag":{"amenity":"waste_disposal"}},"type":"Feature"},
	{"geometry":{"coordinates":[-112.115892,33.664601],"type":"Point"},"properties":{"osm_id":"7684364956","tag":{"amenity":"waste_disposal"}},"type":"Feature"},
	{"geometry":{"coordinates":[-112.115856,33.664616],"type":"Point"},"properties":{"osm_id":"7684364957","tag":{"amenity":"waste_disposal"}},"type":"Feature"}
]
}
