{
"type": "FeatureCollection",
"features": [
	{"geometry":{"coordinates":[-112.129355,33.573765],"type":"Point"},"properties":{"highway":"turning_circle","osm_id":"41727856"},"type":"Feature"},
	{"geometry":{"coordinates":[-112.082728,33.552599],"type":"Point"},"properties":{"osm_id":"986196845","tag":{"amenity":"waste_basket"}},"type":"Feature"},
	{"geometry":{"coordinates":[-112.075273,33.508593],"type":"Point"},"properties":{"osm_id":"2299632866","tag":{"amenity":"waste_basket"}},"type":"Feature"},
	{"geometry":{"coordinates":[-112.075416,33.508655],"type":"Point"},"properties":{"osm_id":"2299632867","tag":{"amenity":"waste_basket"}},"type":"Feature"},
	{"geometry":{"coordinates":[-112.075183,33.508665],"type":"Point"},"properties":{"osm_id":"2299632868","tag":{"amenity":"waste_basket"}},"type":"Feature"},
	{"geometry":{"coordinates":[-112.074849,33.508679],"type":"Point"},"properties":{"osm_id":"2299632869","tag":{"amenity":"waste_basket"}},"type":"Feature"},
	{"geometry":{"coordinates":[-112.07555,33.508712],"type":"Point"},"properties":{"osm_id":"2299632870","tag":{"amenity":"waste_basket"}},"type":"Feature"},
	{"geometry":{"coordinates":[-112.075441,33.508776],"type":"Point"},"properties":{"osm_id":"2299632873","tag":{"amenity":"waste_basket"}},"type":"Feature"},
	{"geometry":{"coordinates":[-112.075053,33.508777],"type":"Point"},"properties":{"osm_id":"2299632875","tag":{"amenity":"waste_basket"}},"type":"Feature"},
	{"geometry":{"coordinates":[-112.075214,33.508837],"type":"Point"},"properties":{"osm_id":"2299632878","tag":{"amenity":"waste_basket"}},"type":"Feature"},
	{"geometry":{"coordinates":[-112.073935,33.508885],"type":"Point"},"properties":{"osm_id":"2299632880","tag":{"amenity":"waste_basket"}},"type":"Feature"},
	{"geometry":{"coordinates":[-112.073132,33.509123],"type":"Point"},"properties":{"osm_id":"2299632882","tag":{"amenity":"waste_basket"}},"type":"Feature"},
	{"geometry":{"coordinates":[-112.072493,33.509132],"type":"Point"},"properties":{"osm_id":"2299632885","tag":{"amenity":"waste_basket"}},"type":"Feature"},
	{"geometry":{"coordinates":[-112.065355,33.552273],"type":"Point"},"properties":{"osm_id":"3916649561","tag":{"amenity":"waste_basket"}},"type":"Feature"},
	{"geometry":{"coordinates":[-112.065079,33.55335],"type":"Point"},"properties":{"osm_id":"3916649579","tag":{"amenity":"waste_basket"}},"type":"Feature"},
	{"geometry":{"coordinates":[-112.06521,33.537836],"type":"Point"},"properties":{"osm_id":"3917988042","tag":{"amenity":"waste_basket"}},"type":"Feature"},
	{"geometry":{"coordinates":[-112.064927,33.538628],"type":"Point"},"properties":{"osm_id":"3917988100","tag":{"amenity":"waste_basket"}},"type":"Feature"},
	{"geometry":{"coordinates":[-112.065243,33.542204],"type":"Point"},"properties":{"osm_id":"3917988269","tag":{"amenity":"waste_basket"}},"type":"Feature"},
	{"geometry":{"coordinates":[-112.064582,33.552585],"type":"Point"},"properties":{"osm_id":"3917988323","tag":{"amenity":"waste_basket"}},"type":"Feature"},
	{"geometry":{"coordinates":[-112.065623,33.552834],"type":"Point"},"properties":{"osm_id":"3917988332","tag":{"amenity":"waste_basket"}},"type":"Feature"},
	{"geometry":{"coordinates":[-112.081893,33.509044],"type":"Point"},"properties":{"osm_id":"4265678049","tag":{"amenity":"waste_basket"}},"type":"Feature"},
	{"geometry":{"coordinates":[-112.083179,33.509506],"type":"Point"},"properties":{"osm_id":"4265678059","tag":{"amenity":"waste_basket"}},"type":"Feature"},
	{"geometry":{"coordinates":[-112.083129,33.509506],"type":"Point"},"properties":{"osm_id":"4265678061","tag":{"amenity":"waste_basket"}},"type":"Feature"},
	{"geometry":{"coordinates":[-112.087326,33.509642],"type":"Point"},"properties":{"osm_id":"4265678077","tag":{"amenity":"waste_basket"}},"type":"Feature"},
	{"geometry":{"coordinates":[-112.091876,33.509642],"type":"Point"},"properties":{"osm_id":"4265678078","tag":{"amenity":"waste_basket"}},"type":"Feature"},
	{"geometry":{"coordinates":[-112.096192,33.509697],"type":"Point"},"properties":{"osm_id":"4265678099","tag":{"amenity":"waste_basket"}},"type":"Feature"},
	{"geometry":{"coordinates":[-112.100083,33.50901],"type":"Point"},"properties":{"osm_id":"4270807190","tag":{"amenity":"waste_basket"}},"type":"Feature"},
	{"geometry":{"coordinates":[-112.099125,33.509353],"type":"Point"},"properties":{"osm_id":"4270807193","tag":{"amenity":"waste_basket"}},"type":"Feature"},
	{"geometry":{"coordinates":[-112.100337,33.509783],"type":"Point"},"properties":{"osm_id":"4270807203","tag":{"amenity":"waste_basket"}},"type":"Feature"},
	{"geometry":{"coordinates":[-112.099667,33.50999],"type":"Point"},"properties":{"osm_id":"4270807207","tag":{"amenity":"waste_basket"}},"type":"Feature"},
	{"geometry":{"coordinates":[-112.099592,33.517734],"type":"Point"},"properties":{"osm_id":"4271545211","tag":{"amenity":"waste_basket"}},"type":"Feature"},
	{"geometry":{"coordinates":[-112.09996,33.516475],"type":"Point"},"properties":{"osm_id":"4290956040","tag":{"amenity":"waste_basket"}},"type":"Feature"},
	{"geometry":{"coordinates":[-112.131639,33.524828],"type":"Point"},"properties":{"osm_id":"4458561631","tag":{"amenity":"waste_disposal"}},"type":"Feature"},
	{"geometry":{"coordinates":[-112.131641,33.524758],"type":"Point"},"properties":{"osm_id":"4458561632","tag":{"amenity":"waste_disposal"}},"type":"Feature"},
	{"geometry":{"coordinates":[-112.130956,33.524846],"type":"Point"},"properties":{"osm_id":"4458561633","tag":{"amenity":"waste_disposal"}},"type":"Feature"},
	{"geometry":{"coordinates":[-112.130137,33.524645],"type":"Point"},"properties":{"osm_id":"4458561634","tag":{"amenity":"waste_disposal"}},"type":"Feature"},
	{"geometry":{"coordinates":[-112.130105,33.524647],"type":"Point"},"properties":{"osm_id":"4458561635","tag":{"amenity":"waste_disposal"}},"type":"Feature"},
	{"geometry":{"coordinates":[-112.130239,33.525261],"type":"Point"},"properties":{"osm_id":"4458561636","tag":{"amenity":"waste_disposal"}},"type":"Feature"},
	{"geometry":{"coordinates":[-112.130241,33.526008],"type":"Point"},"properties":{"osm_id":"4458561637","tag":{"amenity":"waste_disposal"}},"type":"Feature"},
	{"geometry":{"coordinates":[-112.130614,33.526581],"type":"Point"},"properties":{"osm_id":"4458561638","tag":{"amenity":"waste_disposal"}},"type":"Feature"},
	{"geometry":{"coordinates":[-112.130538,33.526533],"type":"Point"},"properties":{"osm_id":"4458561639","tag":{"amenity":"waste_disposal"}},"type":"Feature"},
	{"geometry":{"coordinates":[-112.133669,33.524485],"type":"Point"},"properties":{"osm_id":"4458561640","tag":{"amenity":"waste_disposal"}},"type":"Feature"},
	{"geometry":{"coordinates":[-112.133169,33.524686],"type":"Point"},"properties":{"osm_id":"4458561641","tag":{"amenity":"waste_disposal"}},"type":"Feature"},
	{"geometry":{"coordinates":[-112.132314,33.524601],"type":"Point"},"properties":{"osm_id":"4458561642","tag":{"amenity":"waste_disposal"}},"type":"Feature"},
	{"geometry":{"coordinates":[-112.143299,33.567636],"type":"Point"},"properties":{"osm_id":"4682148982","tag":{"amenity":"waste_basket"}},"type":"Feature"},
	{"geometry":{"coordinates":[-112.065157,33.505353],"type":"Point"},"properties":{"osm_id":"4810625195","tag":{"amenity":"waste_basket"}},"type":"Feature"},
	{"geometry":{"coordinates":[-112.064906,33.506064],"type":"Point"},"properties":{"osm_id":"4810625198","tag":{"amenity":"waste_basket"}},"type":"Feature"},
	{"geometry":{"coordinates":[-112.06489,33.509805],"type":"Point"},"properties":{"osm_id":"4810625211","tag":{"amenity":"waste_basket"}},"type":"Feature"},
	{"geometry":{"coordinates":[-112.06489,33.50979],"type":"Point"},"properties":{"osm_id":"4810625212","tag":{"amenity":"waste_basket"}},"type":"Feature"},
	{"geometry":{"coordinates":[-112.065151,33.508871],"type":"Point"},"properties":{"osm_id":"4810625216","tag":{"amenity":"waste_basket"}},"type":"Feature"},
	{"geometry":{"coordinates":[-112.065144,33.512425],"type":"Point"},"properties":{"osm_id":"4810625325","tag":{"amenity":"waste_basket"}},"type":"Feature"},
	{"geometry":{"coordinates":[-112.064878,33.517052],"type":"Point"},"properties":{"osm_id":"4810625332","tag":{"amenity":"waste_basket"}},"type":"Feature"},
	{"geometry":{"coordinates":[-112.065165,33.516078],"type":"Point"},"properties":{"osm_id":"4810625339","tag":{"amenity":"waste_basket"}},"type":"Feature"},
	{"geometry":{"coordinates":[-112.065135,33.519676],"type":"Point"},"properties":{"osm_id":"4810625343","tag":{"amenity":"waste_basket"}},"type":"Feature"},
	{"geometry":{"coordinates":[-112.065136,33.52342],"type":"Point"},"properties":{"osm_id":"4810625356","tag":{"amenity":"waste_basket"}},"type":"Feature"},
	{"geometry":{"coordinates":[-112.064852,33.524125],"type":"Point"},"properties":{"osm_id":"4810625361","tag":{"amenity":"waste_basket"}},"type":"Feature"},
	{"geometry":{"coordinates":[-112.064453,33.523636],"type":"Point"},"properties":{"osm_id":"4810625366","tag":{"amenity":"waste_basket"}},"type":"Feature"},
	{"geometry":{"coordinates":[-112.065602,33.52386],"type":"Point"},"properties":{"osm_id":"4810625374","tag":{"amenity":"waste_basket"}},"type":"Feature"},
	{"geometry":{"coordinates":[-112.0649,33.527711],"type":"Point"},"properties":{"osm_id":"4810625380","tag":{"amenity":"waste_basket"}},"type":"Feature"},
	{"geometry":{"coordinates":[-112.065147,33.526828],"type":"Point"},"properties":{"osm_id":"4810625382","tag":{"amenity":"waste_basket"}},"type":"Feature"},
	{"geometry":{"coordinates":[-112.065157,33.530658],"type":"Point"},"properties":{"osm_id":"4810625391","tag":{"amenity":"waste_basket"}},"type":"Feature"},
	{"geometry":{"coordinates":[-112.065173,33.534086],"type":"Point"},"properties":{"osm_id":"4810625398","tag":{"amenity":"waste_basket"}},"type":"Feature"},
	{"geometry":{"coordinates":[-112.064924,33.534988],"type":"Point"},"properties":{"osm_id":"4810625401","tag":{"amenity":"waste_basket"}},"type":"Feature"},
	{"geometry":{"coordinates":[-112.065751,33.538412],"type":"Point"},"properties":{"osm_id":"4810625406","tag":{"amenity":"waste_basket"}},"type":"Feature"},
	{"geometry":{"coordinates":[-112.064988,33.542647],"type":"Point"},"properties":{"osm_id":"4810625412","tag":{"amenity":"waste_basket"}},"type":"Feature"},
	{"geometry":{"coordinates":[-112.065275,33.54512],"type":"Point"},"properties":{"osm_id":"4810625422","tag":{"amenity":"waste_basket"}},"type":"Feature"},
	{"geometry":{"coordinates":[-112.065024,33.545857],"type":"Point"},"properties":{"osm_id":"4810625425","tag":{"amenity":"waste_basket"}},"type":"Feature"},
	{"geometry":{"coordinates":[-112.065309,33.548133],"type":"Point"},"properties":{"osm_id":"4810625433","tag":{"amenity":"waste_basket"}},"type":"Feature"},
	{"geometry":{"coordinates":[-112.065063,33.549016],"type":"Point"},"properties":{"osm_id":"4810625439","tag":{"amenity":"waste_basket"}},"type":"Feature"},
	{"geometry":{"coordinates":[-112.064689,33.557451],"type":"Point"},"properties":{"osm_id":"4810625457","tag":{"amenity":"waste_basket"}},"type":"Feature"},
	{"geometry":{"coordinates":[-112.065142,33.558816],"type":"Point"},"properties":{"osm_id":"4810625465","tag":{"amenity":"waste_basket"}},"type":"Feature"},
	{"geometry":{"coordinates":[-112.065418,33.560196],"type":"Point"},"properties":{"osm_id":"4810625466","tag":{"amenity":"waste_basket"}},"type":"Feature"},
	{"geometry":{"coordinates":[-112.065117,33.566497],"type":"Point"},"properties":{"osm_id":"4810625482","tag":{"amenity":"waste_basket"}},"type":"Feature"},
	{"geometry":{"coordinates":[-112.065686,33.56801],"type":"Point"},"properties":{"osm_id":"4810625483","tag":{"amenity":"waste_basket"}},"type":"Feature"},
	{"geometry":{"coordinates":[-112.065434,33.567292],"type":"Point"},"properties":{"osm_id":"4810625486","tag":{"amenity":"waste_basket"}},"type":"Feature"},
	{"geometry":{"coordinates":[-112.064635,33.568107],"type":"Point"},"properties":{"osm_id":"4810625493","tag":{"amenity":"waste_basket"}},"type":"Feature"},
	{"geometry":{"coordinates":[-112.06507,33.568607],"type":"Point"},"properties":{"osm_id":"4810625506","tag":{"amenity":"waste_basket"}},"type":"Feature"},
	{"geometry":{"coordinates":[-112.065627,33.571502],"type":"Point"},"properties":{"osm_id":"4810625518","tag":{"amenity":"waste_basket"}},"type":"Feature"},
	{"geometry":{"coordinates":[-112.06507,33.57165],"type":"Point"},"properties":{"osm_id":"4810625526","tag":{"amenity":"waste_basket"}},"type":"Feature"},
	{"geometry":{"coordinates":[-112.065337,33.571176],"type":"Point"},"properties":{"osm_id":"4810625529","tag":{"amenity":"waste_basket"}},"type":"Feature"},
	{"geometry":{"coordinates":[-112.065039,33.575523],"type":"Point"},"properties":{"osm_id":"4810625536","tag":{"amenity":"waste_basket"}},"type":"Feature"},
	{"geometry":{"coordinates":[-112.065306,33.574718],"type":"Point"},"properties":{"osm_id":"4810625541","tag":{"amenity":"waste_basket"}},"type":"Feature"},
	{"geometry":{"coordinates":[-112.117355,33.509586],"type":"Point"},"properties":{"osm_id":"4914111412","tag":{"amenity":"waste_basket"}},"type":"Feature"},
	{"geometry":{"coordinates":[-112.134175,33.549456],"type":"Point"},"properties":{"osm_id":"5041227258","tag":{"amenity":"waste_basket"}},"type":"Feature"},
	{"geometry":{"coordinates":[-112.099875,33.552735],"type":"Point"},"properties":{"osm_id":"5148959533","tag":{"amenity":"waste_basket"}},"type":"Feature"},
	{"geometry":{"coordinates":[-112.099874,33.552726],"type":"Point"},"properties":{"osm_id":"5148959534","tag":{"amenity":"waste_basket"}},"type":"Feature"},
	{"geometry":{"coordinates":[-112.099395,33.553561],"type":"Point"},"properties":{"osm_id":"5153763338","tag":{"amenity":"waste_basket"}},"type":"Feature"},
	{"geometry":{"coordinates":[-112.099125,33.552967],"type":"Point"},"properties":{"osm_id":"5153763345","tag":{"amenity":"waste_basket"}},"type":"Feature"},
	{"geometry":{"coordinates":[-112.100536,33.55325],"type":"Point"},"properties":{"osm_id":"5153763352","tag":{"amenity":"waste_basket"}},"type":"Feature"},
	{"geometry":{"coordinates":[-112.074031,33.552556],"type":"Point"},"properties":{"osm_id":"5153763361","tag":{"amenity":"waste_basket"}},"type":"Feature"},
	{"geometry":{"coordinates":[-112.073341,33.552673],"type":"Point"},"properties":{"osm_id":"5153763362","tag":{"amenity":"waste_basket"}},"type":"Feature"},
	{"geometry":{"coordinates":[-112.074448,33.552936],"type":"Point"},"properties":{"osm_id":"5153763369","tag":{"amenity":"waste_basket"}},"type":"Feature"},
	{"geometry":{"coordinates":[-112.090763,33.552888],"type":"Point"},"properties":{"osm_id":"5153763376","tag":{"amenity":"waste_basket"}},"type":"Feature"},
	{"geometry":{"coordinates":[-112.09584,33.553144],"type":"Point"},"properties":{"osm_id":"5153763390","tag":{"amenity":"waste_basket"}},"type":"Feature"},
	{"geometry":{"coordinates":[-112.087752,33.55286],"type":"Point"},"properties":{"osm_id":"5153763399","tag":{"amenity":"waste_basket"}},"type":"Feature"},
	{"geometry":{"coordinates":[-112.087363,33.553063],"type":"Point"},"properties":{"osm_id":"5153763405","tag":{"amenity":"waste_basket"}},"type":"Feature"},
	{"geometry":{"coordinates":[-112.082038,33.552757],"type":"Point"},"properties":{"osm_id":"5153763422","tag":{"amenity":"waste_basket"}},"type":"Feature"},
	{"geometry":{"coordinates":[-112.082471,33.553282],"type":"Point"},"properties":{"osm_id":"5153763429","tag":{"amenity":"waste_basket"}},"type":"Feature"},
	{"geometry":{"coordinates":[-112.083325,33.553036],"type":"Point"},"properties":{"osm_id":"5153763431","tag":{"amenity":"waste_basket"}},"type":"Feature"},
	{"geometry":{"coordinates":[-112.077965,33.552755],"type":"Point"},"properties":{"osm_id":"5153763439","tag":{"amenity":"waste_basket"}},"type":"Feature"},
	{"geometry":{"coordinates":[-112.073602,33.517045],"type":"Point"},"properties":{"osm_id":"5154168594","tag":{"amenity":"waste_basket"}},"type":"Feature"},
	{"geometry":{"coordinates":[-112.073909,33.515848],"type":"Point"},"properties":{"osm_id":"5154168600","tag":{"amenity":"waste_basket"}},"type":"Feature"},
	{"geometry":{"coordinates":[-112.07389,33.514304],"type":"Point"},"properties":{"osm_id":"5154168606","tag":{"amenity":"waste_basket"}},"type":"Feature"},
	{"geometry":{"coordinates":[-112.073602,33.515012],"type":"Point"},"properties":{"osm_id":"5154168612","tag":{"amenity":"waste_basket"}},"type":"Feature"},
	{"geometry":{"coordinates":[-112.073611,33.512364],"type":"Point"},"properties":{"osm_id":"5154168618","tag":{"amenity":"waste_basket"}},"type":"Feature"},
	{"geometry":{"coordinates":[-112.073565,33.509719],"type":"Point"},"properties":{"osm_id":"5154169124","tag":{"amenity":"waste_basket"}},"type":"Feature"},
	{"geometry":{"coordinates":[-112.07394,33.505183],"type":"Point"},"properties":{"osm_id":"5154169131","tag":{"amenity":"waste_basket"}},"type":"Feature"},
	{"geometry":{"coordinates":[-112.073593,33.505341],"type":"Point"},"properties":{"osm_id":"5154169138","tag":{"amenity":"waste_basket"}},"type":"Feature"},
	{"geometry":{"coordinates":[-112.0823,33.524365],"type":"Point"},"properties":{"osm_id":"5156197427","tag":{"amenity":"waste_basket"}},"type":"Feature"},
	{"geometry":{"coordinates":[-112.08233,33.518244],"type":"Point"},"properties":{"osm_id":"5156197440","tag":{"amenity":"waste_basket"}},"type":"Feature"},
	{"geometry":{"coordinates":[-112.07387,33.523472],"type":"Point"},"properties":{"osm_id":"5157212997","tag":{"amenity":"waste_basket"}},"type":"Feature"},
	{"geometry":{"coordinates":[-112.073081,33.523691],"type":"Point"},"properties":{"osm_id":"5157213003","tag":{"amenity":"waste_basket"}},"type":"Feature"},
	{"geometry":{"coordinates":[-112.074336,33.523912],"type":"Point"},"properties":{"osm_id":"5157213005","tag":{"amenity":"waste_basket"}},"type":"Feature"},
	{"geometry":{"coordinates":[-112.09977,33.507202],"type":"Point"},"properties":{"osm_id":"5157931912","tag":{"amenity":"waste_basket"}},"type":"Feature"},
	{"geometry":{"coordinates":[-112.099551,33.528033],"type":"Point"},"properties":{"osm_id":"5158164215","tag":{"amenity":"waste_basket"}},"type":"Feature"},
	{"geometry":{"coordinates":[-112.095846,33.524183],"type":"Point"},"properties":{"osm_id":"5164380290","tag":{"amenity":"waste_basket"}},"type":"Feature"},
	{"geometry":{"coordinates":[-112.091809,33.524116],"type":"Point"},"properties":{"osm_id":"5164381042","tag":{"amenity":"waste_basket"}},"type":"Feature"},
	{"geometry":{"coordinates":[-112.087474,33.524046],"type":"Point"},"properties":{"osm_id":"5164381139","tag":{"amenity":"waste_basket"}},"type":"Feature"},
	{"geometry":{"coordinates":[-112.083394,33.523977],"type":"Point"},"properties":{"osm_id":"5164381163","tag":{"amenity":"waste_basket"}},"type":"Feature"},
	{"geometry":{"coordinates":[-112.093096,33.523851],"type":"Point"},"properties":{"osm_id":"5164432397","tag":{"amenity":"waste_basket"}},"type":"Feature"},
	{"geometry":{"coordinates":[-112.095158,33.523857],"type":"Point"},"properties":{"osm_id":"5164432409","tag":{"amenity":"waste_basket"}},"type":"Feature"},
	{"geometry":{"coordinates":[-112.07401,33.570976],"type":"Point"},"properties":{"osm_id":"5166795133","tag":{"amenity":"waste_basket"}},"type":"Feature"},
	{"geometry":{"coordinates":[-112.073006,33.568568],"type":"Point"},"properties":{"osm_id":"5166795144","tag":{"amenity":"waste_basket"}},"type":"Feature"},
	{"geometry":{"coordinates":[-112.073737,33.568208],"type":"Point"},"properties":{"osm_id":"5166795146","tag":{"amenity":"waste_basket"}},"type":"Feature"},
	{"geometry":{"coordinates":[-112.0746,33.567838],"type":"Point"},"properties":{"osm_id":"5166795153","tag":{"amenity":"waste_basket"}},"type":"Feature"},
	{"geometry":{"coordinates":[-112.073337,33.567635],"type":"Point"},"properties":{"osm_id":"5166795160","tag":{"amenity":"waste_basket"}},"type":"Feature"},
	{"geometry":{"coordinates":[-112.074076,33.56732],"type":"Point"},"properties":{"osm_id":"5166799772","tag":{"amenity":"waste_basket"}},"type":"Feature"},
	{"geometry":{"coordinates":[-112.074056,33.563646],"type":"Point"},"properties":{"osm_id":"5166799780","tag":{"amenity":"waste_basket"}},"type":"Feature"},
	{"geometry":{"coordinates":[-112.094291,33.567482],"type":"Point"},"properties":{"osm_id":"5185131121","tag":{"amenity":"waste_basket"}},"type":"Feature"},
	{"geometry":{"coordinates":[-112.095234,33.567701],"type":"Point"},"properties":{"osm_id":"5185131127","tag":{"amenity":"waste_basket"}},"type":"Feature"},
	{"geometry":{"coordinates":[-112.0994,33.568174],"type":"Point"},"properties":{"osm_id":"5185131134","tag":{"amenity":"waste_basket"}},"type":"Feature"},
	{"geometry":{"coordinates":[-112.100535,33.567751],"type":"Point"},"properties":{"osm_id":"5185131135","tag":{"amenity":"waste_basket"}},"type":"Feature"},
	{"geometry":{"coordinates":[-112.100487,33.567754],"type":"Point"},"properties":{"osm_id":"5185131141","tag":{"amenity":"waste_basket"}},"type":"Feature"},
	{"geometry":{"coordinates":[-112.099806,33.566994],"type":"Point"},"properties":{"osm_id":"5185131148","tag":{"amenity":"waste_basket"}},"type":"Feature"},
	{"geometry":{"coordinates":[-112.099053,33.567478],"type":"Point"},"properties":{"osm_id":"5185131154","tag":{"amenity":"waste_basket"}},"type":"Feature"},
	{"geometry":{"coordinates":[-112.10342,33.567482],"type":"Point"},"properties":{"osm_id":"5185131158","tag":{"amenity":"waste_basket"}},"type":"Feature"},
	{"geometry":{"coordinates":[-112.073732,33.569918],"type":"Point"},"properties":{"osm_id":"5187764657","tag":{"amenity":"waste_basket"}},"type":"Feature"},
	{"geometry":{"coordinates":[-112.073424,33.562825],"type":"Point"},"properties":{"osm_id":"5187764710","tag":{"amenity":"waste_basket"}},"type":"Feature"},
	{"geometry":{"coordinates":[-112.073746,33.562623],"type":"Point"},"properties":{"osm_id":"5187764719","tag":{"amenity":"waste_basket"}},"type":"Feature"},
	{"geometry":{"coordinates":[-112.119758,33.567416],"type":"Point"},"properties":{"osm_id":"5194337075","tag":{"amenity":"waste_basket"}},"type":"Feature"},
	{"geometry":{"coordinates":[-112.125911,33.567719],"type":"Point"},"properties":{"osm_id":"5199300381","tag":{"amenity":"waste_basket"}},"type":"Feature"},
	{"geometry":{"coordinates":[-112.10772,33.567419],"type":"Point"},"properties":{"osm_id":"5199300406","tag":{"amenity":"waste_basket"}},"type":"Feature"},
	{"geometry":{"coordinates":[-112.108553,33.567655],"type":"Point"},"properties":{"osm_id":"5199300414","tag":{"amenity":"waste_basket"}},"type":"Feature"},
	{"geometry":{"coordinates":[-112.103768,33.567689],"type":"Point"},"properties":{"osm_id":"5199300621","tag":{"amenity":"waste_basket"}},"type":"Feature"},
	{"geometry":{"coordinates":[-112.06127,33.570937],"type":"Point"},"properties":{"osm_id":"5211705677","tag":{"amenity":"waste_basket"}},"type":"Feature"},
	{"geometry":{"coordinates":[-112.06792,33.567885],"type":"Point"},"properties":{"osm_id":"5211705684","tag":{"amenity":"waste_basket"}},"type":"Feature"},
	{"geometry":{"coordinates":[-112.113112,33.567705],"type":"Point"},"properties":{"osm_id":"5211705702","tag":{"amenity":"waste_basket"}},"type":"Feature"},
	{"geometry":{"coordinates":[-112.061019,33.571447],"type":"Point"},"properties":{"osm_id":"5211706152","tag":{"amenity":"waste_basket"}},"type":"Feature"},
	{"geometry":{"coordinates":[-112.066956,33.567655],"type":"Point"},"properties":{"osm_id":"5211706157","tag":{"amenity":"waste_basket"}},"type":"Feature"},
	{"geometry":{"coordinates":[-112.083208,33.567658],"type":"Point"},"properties":{"osm_id":"5211706164","tag":{"amenity":"waste_basket"}},"type":"Feature"},
	{"geometry":{"coordinates":[-112.081686,33.56746],"type":"Point"},"properties":{"osm_id":"5211706171","tag":{"amenity":"waste_basket"}},"type":"Feature"},
	{"geometry":{"coordinates":[-112.086618,33.567453],"type":"Point"},"properties":{"osm_id":"5211706178","tag":{"amenity":"waste_basket"}},"type":"Feature"},
	{"geometry":{"coordinates":[-112.087789,33.567671],"type":"Point"},"properties":{"osm_id":"5211706181","tag":{"amenity":"waste_basket"}},"type":"Feature"},
	{"geometry":{"coordinates":[-112.09079,33.567466],"type":"Point"},"properties":{"osm_id":"5211706193","tag":{"amenity":"waste_basket"}},"type":"Feature"},
	{"geometry":{"coordinates":[-112.112005,33.567428],"type":"Point"},"properties":{"osm_id":"5211706199","tag":{"amenity":"waste_basket"}},"type":"Feature"},
	{"geometry":{"coordinates":[-112.082613,33.512737],"type":"Point"},"properties":{"osm_id":"5213210422","tag":{"amenity":"waste_basket"}},"type":"Feature"},
	{"geometry":{"coordinates":[-112.082648,33.508901],"type":"Point"},"properties":{"osm_id":"5213210432","tag":{"amenity":"waste_basket"}},"type":"Feature"},
	{"geometry":{"coordinates":[-112.082376,33.509885],"type":"Point"},"properties":{"osm_id":"5213210433","tag":{"amenity":"waste_basket"}},"type":"Feature"},
	{"geometry":{"coordinates":[-112.082376,33.509894],"type":"Point"},"properties":{"osm_id":"5213210434","tag":{"amenity":"waste_basket"}},"type":"Feature"},
	{"geometry":{"coordinates":[-112.082614,33.506307],"type":"Point"},"properties":{"osm_id":"5213210444","tag":{"amenity":"waste_basket"}},"type":"Feature"},
	{"geometry":{"coordinates":[-112.08235,33.506174],"type":"Point"},"properties":{"osm_id":"5213210450","tag":{"amenity":"waste_basket"}},"type":"Feature"},
	{"geometry":{"coordinates":[-112.064909,33.531283],"type":"Point"},"properties":{"osm_id":"5231963704","tag":{"amenity":"waste_basket"}},"type":"Feature"},
	{"geometry":{"coordinates":[-112.064368,33.538162],"type":"Point"},"properties":{"osm_id":"5231963836","tag":{"amenity":"waste_basket"}},"type":"Feature"},
	{"geometry":{"coordinates":[-112.100724,33.524277],"type":"Point"},"properties":{"osm_id":"5237421319","tag":{"amenity":"waste_basket"}},"type":"Feature"},
	{"geometry":{"coordinates":[-112.099007,33.523932],"type":"Point"},"properties":{"osm_id":"5237421821","tag":{"amenity":"waste_basket"}},"type":"Feature"},
	{"geometry":{"coordinates":[-112.074744,33.509118],"type":"Point"},"properties":{"osm_id":"5237461175","tag":{"amenity":"waste_basket"}},"type":"Feature"},
	{"geometry":{"coordinates":[-112.074305,33.509458],"type":"Point"},"properties":{"osm_id":"5237461177","tag":{"amenity":"waste_basket"}},"type":"Feature"},
	{"geometry":{"coordinates":[-112.116738,33.538953],"type":"Point"},"properties":{"osm_id":"5238423033","tag":{"amenity":"waste_basket"}},"type":"Feature"},
	{"geometry":{"coordinates":[-112.117047,33.538187],"type":"Point"},"properties":{"osm_id":"5238423039","tag":{"amenity":"waste_basket"}},"type":"Feature"},
	{"geometry":{"coordinates":[-112.117046,33.538197],"type":"Point"},"properties":{"osm_id":"5238423040","tag":{"amenity":"waste_basket"}},"type":"Feature"},
	{"geometry":{"coordinates":[-112.060891,33.509339],"type":"Point"},"properties":{"osm_id":"5436584613","tag":{"amenity":"waste_basket"}},"type":"Feature"},
	{"geometry":{"coordinates":[-112.060965,33.538366],"type":"Point"},"properties":{"osm_id":"5458226448","tag":{"amenity":"waste_basket"}},"type":"Feature"},
	{"geometry":{"coordinates":[-112.091165,33.506016],"type":"Point"},"properties":{"osm_id":"5461302972","tag":{"amenity":"waste_basket"}},"type":"Feature"},
	{"geometry":{"coordinates":[-112.091352,33.505509],"type":"Point"},"properties":{"osm_id":"5461302996","tag":{"amenity":"waste_basket"}},"type":"Feature"},
	{"geometry":{"coordinates":[-112.090255,33.509323],"type":"Point"},"properties":{"osm_id":"5461303006","tag":{"amenity":"waste_basket"}},"type":"Feature"},
	{"geometry":{"coordinates":[-112.091157,33.510016],"type":"Point"},"properties":{"osm_id":"5461303014","tag":{"amenity":"waste_basket"}},"type":"Feature"},
	{"geometry":{"coordinates":[-112.091368,33.510723],"type":"Point"},"properties":{"osm_id":"5461303020","tag":{"amenity":"waste_basket"}},"type":"Feature"},
	{"geometry":{"coordinates":[-112.091356,33.512501],"type":"Point"},"properties":{"osm_id":"5461305937","tag":{"amenity":"waste_basket"}},"type":"Feature"},
	{"geometry":{"coordinates":[-112.091332,33.515564],"type":"Point"},"properties":{"osm_id":"5461305939","tag":{"amenity":"waste_basket"}},"type":"Feature"},
	{"geometry":{"coordinates":[-112.091135,33.513392],"type":"Point"},"properties":{"osm_id":"5461305951","tag":{"amenity":"waste_basket"}},"type":"Feature"},
	{"geometry":{"coordinates":[-112.091296,33.519237],"type":"Point"},"properties":{"osm_id":"5461305966","tag":{"amenity":"waste_basket"}},"type":"Feature"},
	{"geometry":{"coordinates":[-112.099408,33.539212],"type":"Point"},"properties":{"osm_id":"5570069611","tag":{"amenity":"waste_basket"}},"type":"Feature"},
	{"geometry":{"coordinates":[-112.099516,33.532106],"type":"Point"},"properties":{"osm_id":"5570069618","tag":{"amenity":"waste_basket"}},"type":"Feature"},
	{"geometry":{"coordinates":[-112.099887,33.523424],"type":"Point"},"properties":{"osm_id":"5570070131","tag":{"amenity":"waste_basket"}},"type":"Feature"},
	{"geometry":{"coordinates":[-112.099562,33.524753],"type":"Point"},"properties":{"osm_id":"5570070140","tag":{"amenity":"waste_basket"}},"type":"Feature"},
	{"geometry":{"coordinates":[-112.099931,33.51935],"type":"Point"},"properties":{"osm_id":"5570070149","tag":{"amenity":"waste_basket"}},"type":"Feature"},
	{"geometry":{"coordinates":[-112.099538,33.520283],"type":"Point"},"properties":{"osm_id":"5570070151","tag":{"amenity":"waste_basket"}},"type":"Feature"},
	{"geometry":{"coordinates":[-112.099538,33.5203],"type":"Point"},"properties":{"osm_id":"5570070158","tag":{"amenity":"waste_basket"}},"type":"Feature"},
	{"geometry":{"coordinates":[-112.10003,33.512756],"type":"Point"},"properties":{"osm_id":"5570070173","tag":{"amenity":"waste_basket"}},"type":"Feature"},
	{"geometry":{"coordinates":[-112.099636,33.513688],"type":"Point"},"properties":{"osm_id":"5570070178","tag":{"amenity":"waste_basket"}},"type":"Feature"},
	{"geometry":{"coordinates":[-112.099667,33.509979],"type":"Point"},"properties":{"osm_id":"5570070185","tag":{"amenity":"waste_basket"}},"type":"Feature"},
	{"geometry":{"coordinates":[-112.100322,33.509782],"type":"Point"},"properties":{"osm_id":"5570070186","tag":{"amenity":"waste_basket"}},"type":"Feature"},
	{"geometry":{"coordinates":[-112.116872,33.506284],"type":"Point"},"properties":{"osm_id":"5638905837","tag":{"amenity":"waste_basket"}},"type":"Feature"},
	{"geometry":{"coordinates":[-112.117141,33.505604],"type":"Point"},"properties":{"osm_id":"5638905853","tag":{"amenity":"waste_basket"}},"type":"Feature"},
	{"geometry":{"coordinates":[-112.11713,33.508897],"type":"Point"},"properties":{"osm_id":"5638905885","tag":{"amenity":"waste_basket"}},"type":"Feature"},
	{"geometry":{"coordinates":[-112.116844,33.50975],"type":"Point"},"properties":{"osm_id":"5638905891","tag":{"amenity":"waste_basket"}},"type":"Feature"},
	{"geometry":{"coordinates":[-112.116418,33.509319],"type":"Point"},"properties":{"osm_id":"5638905897","tag":{"amenity":"waste_basket"}},"type":"Feature"},
	{"geometry":{"coordinates":[-112.133761,33.509307],"type":"Point"},"properties":{"osm_id":"5647381841","tag":{"amenity":"waste_basket"}},"type":"Feature"},
	{"geometry":{"coordinates":[-112.14511,33.509323],"type":"Point"},"properties":{"osm_id":"5647382492","tag":{"amenity":"waste_basket"}},"type":"Feature"},
	{"geometry":{"coordinates":[-112.146576,33.509548],"type":"Point"},"properties":{"osm_id":"5647382494","tag":{"amenity":"waste_basket"}},"type":"Feature"},
	{"geometry":{"coordinates":[-112.142161,33.509306],"type":"Point"},"properties":{"osm_id":"5647382511","tag":{"amenity":"waste_basket"}},"type":"Feature"},
	{"geometry":{"coordinates":[-112.143425,33.509562],"type":"Point"},"properties":{"osm_id":"5647382518","tag":{"amenity":"waste_basket"}},"type":"Feature"},
	{"geometry":{"coordinates":[-112.137878,33.50934],"type":"Point"},"properties":{"osm_id":"5647382624","tag":{"amenity":"waste_basket"}},"type":"Feature"},
	{"geometry":{"coordinates":[-112.138886,33.509565],"type":"Point"},"properties":{"osm_id":"5647382630","tag":{"amenity":"waste_basket"}},"type":"Feature"},
	{"geometry":{"coordinates":[-112.134053,33.510009],"type":"Point"},"properties":{"osm_id":"5647382636","tag":{"amenity":"waste_basket"}},"type":"Feature"},
	{"geometry":{"coordinates":[-112.134323,33.508926],"type":"Point"},"properties":{"osm_id":"5647382637","tag":{"amenity":"waste_basket"}},"type":"Feature"},
	{"geometry":{"coordinates":[-112.134809,33.509595],"type":"Point"},"properties":{"osm_id":"5647382644","tag":{"amenity":"waste_basket"}},"type":"Feature"},
	{"geometry":{"coordinates":[-112.129368,33.509351],"type":"Point"},"properties":{"osm_id":"5647382655","tag":{"amenity":"waste_basket"}},"type":"Feature"},
	{"geometry":{"coordinates":[-112.130408,33.509565],"type":"Point"},"properties":{"osm_id":"5647382659","tag":{"amenity":"waste_basket"}},"type":"Feature"},
	{"geometry":{"coordinates":[-112.126028,33.509564],"type":"Point"},"properties":{"osm_id":"5647382668","tag":{"amenity":"waste_basket"}},"type":"Feature"},
	{"geometry":{"coordinates":[-112.125202,33.509353],"type":"Point"},"properties":{"osm_id":"5647382670","tag":{"amenity":"waste_basket"}},"type":"Feature"},
	{"geometry":{"coordinates":[-112.121611,33.509355],"type":"Point"},"properties":{"osm_id":"5647382682","tag":{"amenity":"waste_basket"}},"type":"Feature"},
	{"geometry":{"coordinates":[-112.1137,33.509611],"type":"Point"},"properties":{"osm_id":"5647382695","tag":{"amenity":"waste_basket"}},"type":"Feature"},
	{"geometry":{"coordinates":[-112.107991,33.509428],"type":"Point"},"properties":{"osm_id":"5647382702","tag":{"amenity":"waste_basket"}},"type":"Feature"},
	{"geometry":{"coordinates":[-112.10902,33.509651],"type":"Point"},"properties":{"osm_id":"5647382708","tag":{"amenity":"waste_basket"}},"type":"Feature"},
	{"geometry":{"coordinates":[-112.103775,33.509474],"type":"Point"},"properties":{"osm_id":"5647382717","tag":{"amenity":"waste_basket"}},"type":"Feature"},
	{"geometry":{"coordinates":[-112.104671,33.509691],"type":"Point"},"properties":{"osm_id":"5647382720","tag":{"amenity":"waste_basket"}},"type":"Feature"},
	{"geometry":{"coordinates":[-112.099116,33.509349],"type":"Point"},"properties":{"osm_id":"5647382726","tag":{"amenity":"waste_basket"}},"type":"Feature"},
	{"geometry":{"coordinates":[-112.095141,33.509383],"type":"Point"},"properties":{"osm_id":"5647382739","tag":{"amenity":"waste_basket"}},"type":"Feature"},
	{"geometry":{"coordinates":[-112.085514,33.509228],"type":"Point"},"properties":{"osm_id":"5647382748","tag":{"amenity":"waste_basket"}},"type":"Feature"},
	{"geometry":{"coordinates":[-112.077603,33.509098],"type":"Point"},"properties":{"osm_id":"5647382758","tag":{"amenity":"waste_basket"}},"type":"Feature"},
	{"geometry":{"coordinates":[-112.079336,33.509443],"type":"Point"},"properties":{"osm_id":"5647382761","tag":{"amenity":"waste_basket"}},"type":"Feature"},
	{"geometry":{"coordinates":[-112.073934,33.508885],"type":"Point"},"properties":{"osm_id":"5647382770","tag":{"amenity":"waste_basket"}},"type":"Feature"},
	{"geometry":{"coordinates":[-112.07308,33.509138],"type":"Point"},"properties":{"osm_id":"5647382776","tag":{"amenity":"waste_basket"}},"type":"Feature"},
	{"geometry":{"coordinates":[-112.064417,33.509122],"type":"Point"},"properties":{"osm_id":"5647382784","tag":{"amenity":"waste_basket"}},"type":"Feature"},
	{"geometry":{"coordinates":[-112.064897,33.509782],"type":"Point"},"properties":{"osm_id":"5647382789","tag":{"amenity":"waste_basket"}},"type":"Feature"},
	{"geometry":{"coordinates":[-112.065777,33.509356],"type":"Point"},"properties":{"osm_id":"5647382795","tag":{"amenity":"waste_basket"}},"type":"Feature"},
	{"geometry":{"coordinates":[-112.114361,33.572592],"type":"Point"},"properties":{"osm_id":"5652639269","tag":{"amenity":"waste_disposal"}},"type":"Feature"},
	{"geometry":{"coordinates":[-112.11546,33.571989],"type":"Point"},"properties":{"osm_id":"5652639271","tag":{"amenity":"waste_disposal"}},"type":"Feature"},
	{"geometry":{"coordinates":[-112.113466,33.572333],"type":"Point"},"properties":{"osm_id":"5652639272","tag":{"amenity":"waste_disposal"}},"type":"Feature"},
	{"geometry":{"coordinates":[-112.114299,33.573285],"type":"Point"},"properties":{"osm_id":"5652639273","tag":{"amenity":"waste_disposal"}},"type":"Feature"},
	{"geometry":{"coordinates":[-112.115975,33.573348],"type":"Point"},"properties":{"osm_id":"5652639274","tag":{"amenity":"waste_disposal"}},"type":"Feature"},
	{"geometry":{"coordinates":[-112.068536,33.552646],"type":"Point"},"properties":{"osm_id":"5731161844","tag":{"amenity":"waste_basket"}},"type":"Feature"},
	{"geometry":{"coordinates":[-112.069577,33.552884],"type":"Point"},"properties":{"osm_id":"5731161882","tag":{"amenity":"waste_basket"}},"type":"Feature"},
	{"geometry":{"coordinates":[-112.069904,33.523884],"type":"Point"},"properties":{"osm_id":"5755229133","tag":{"amenity":"waste_basket"}},"type":"Feature"},
	{"geometry":{"coordinates":[-112.061024,33.523846],"type":"Point"},"properties":{"osm_id":"5755229162","tag":{"amenity":"waste_basket"}},"type":"Feature"},
	{"geometry":{"coordinates":[-112.082567,33.523544],"type":"Point"},"properties":{"osm_id":"5755229174","tag":{"amenity":"waste_basket"}},"type":"Feature"},
	{"geometry":{"coordinates":[-112.098718,33.538445],"type":"Point"},"properties":{"osm_id":"5768448443","tag":{"amenity":"waste_basket"}},"type":"Feature"},
	{"geometry":{"coordinates":[-112.100331,33.538828],"type":"Point"},"properties":{"osm_id":"5768448449","tag":{"amenity":"waste_basket"}},"type":"Feature"},
	{"geometry":{"coordinates":[-112.09993,33.538089],"type":"Point"},"properties":{"osm_id":"5768449255","tag":{"amenity":"waste_basket"}},"type":"Feature"},
	{"geometry":{"coordinates":[-112.082311,33.53885],"type":"Point"},"properties":{"osm_id":"5862724861","tag":{"amenity":"waste_basket"}},"type":"Feature"},
	{"geometry":{"coordinates":[-112.081604,33.53825],"type":"Point"},"properties":{"osm_id":"5862724863","tag":{"amenity":"waste_basket"}},"type":"Feature"},
	{"geometry":{"coordinates":[-112.083061,33.538514],"type":"Point"},"properties":{"osm_id":"5862724873","tag":{"amenity":"waste_basket"}},"type":"Feature"},
	{"geometry":{"coordinates":[-112.082362,33.542184],"type":"Point"},"properties":{"osm_id":"5862724882","tag":{"amenity":"waste_basket"}},"type":"Feature"},
	{"geometry":{"coordinates":[-112.082615,33.541739],"type":"Point"},"properties":{"osm_id":"5862727091","tag":{"amenity":"waste_basket"}},"type":"Feature"},
	{"geometry":{"coordinates":[-112.082686,33.548745],"type":"Point"},"properties":{"osm_id":"5862727129","tag":{"amenity":"waste_basket"}},"type":"Feature"},
	{"geometry":{"coordinates":[-112.082448,33.557575],"type":"Point"},"properties":{"osm_id":"5862727134","tag":{"amenity":"waste_basket"}},"type":"Feature"},
	{"geometry":{"coordinates":[-112.082711,33.556694],"type":"Point"},"properties":{"osm_id":"5862727141","tag":{"amenity":"waste_basket"}},"type":"Feature"},
	{"geometry":{"coordinates":[-112.082691,33.559916],"type":"Point"},"properties":{"osm_id":"5862727149","tag":{"amenity":"waste_basket"}},"type":"Feature"},
	{"geometry":{"coordinates":[-112.082684,33.563034],"type":"Point"},"properties":{"osm_id":"5862727162","tag":{"amenity":"waste_basket"}},"type":"Feature"},
	{"geometry":{"coordinates":[-112.08267,33.567248],"type":"Point"},"properties":{"osm_id":"5862727175","tag":{"amenity":"waste_basket"}},"type":"Feature"},
	{"geometry":{"coordinates":[-112.082561,33.527217],"type":"Point"},"properties":{"osm_id":"5862817729","tag":{"amenity":"waste_basket"}},"type":"Feature"},
	{"geometry":{"coordinates":[-112.082303,33.531375],"type":"Point"},"properties":{"osm_id":"5862817736","tag":{"amenity":"waste_basket"}},"type":"Feature"},
	{"geometry":{"coordinates":[-112.082568,33.530785],"type":"Point"},"properties":{"osm_id":"5862817742","tag":{"amenity":"waste_basket"}},"type":"Feature"},
	{"geometry":{"coordinates":[-112.082316,33.53477],"type":"Point"},"properties":{"osm_id":"5862817748","tag":{"amenity":"waste_basket"}},"type":"Feature"},
	{"geometry":{"coordinates":[-112.082622,33.515937],"type":"Point"},"properties":{"osm_id":"5948711321","tag":{"amenity":"waste_basket"}},"type":"Feature"},
	{"geometry":{"coordinates":[-112.069837,33.538406],"type":"Point"},"properties":{"osm_id":"6115956413","tag":{"amenity":"waste_basket"}},"type":"Feature"},
	{"geometry":{"coordinates":[-112.069304,33.538187],"type":"Point"},"properties":{"osm_id":"6115956416","tag":{"amenity":"waste_basket"}},"type":"Feature"},
	{"geometry":{"coordinates":[-112.069086,33.571322],"type":"Point"},"properties":{"osm_id":"6125028237","tag":{"amenity":"waste_basket"}},"type":"Feature"},
	{"geometry":{"coordinates":[-112.069656,33.570812],"type":"Point"},"properties":{"osm_id":"6125028243","tag":{"amenity":"waste_basket"}},"type":"Feature"},
	{"geometry":{"coordinates":[-112.069501,33.569664],"type":"Point"},"properties":{"osm_id":"6125028249","tag":{"amenity":"waste_basket"}},"type":"Feature"},
	{"geometry":{"coordinates":[-112.069668,33.569292],"type":"Point"},"properties":{"osm_id":"6125028250","tag":{"amenity":"waste_basket"}},"type":"Feature"},
	{"geometry":{"coordinates":[-112.099814,33.574331],"type":"Point"},"properties":{"osm_id":"6186160612","tag":{"amenity":"waste_basket"}},"type":"Feature"},
	{"geometry":{"coordinates":[-112.099464,33.575472],"type":"Point"},"properties":{"osm_id":"6186160614","tag":{"amenity":"waste_basket"}},"type":"Feature"},
	{"geometry":{"coordinates":[-112.090722,33.571151],"type":"Point"},"properties":{"osm_id":"6194061688","tag":{"amenity":"waste_basket"}},"type":"Feature"},
	{"geometry":{"coordinates":[-112.091335,33.574657],"type":"Point"},"properties":{"osm_id":"6194061698","tag":{"amenity":"waste_basket"}},"type":"Feature"},
	{"geometry":{"coordinates":[-112.091151,33.575216],"type":"Point"},"properties":{"osm_id":"6194061700","tag":{"amenity":"waste_basket"}},"type":"Feature"},
	{"geometry":{"coordinates":[-112.091162,33.577285],"type":"Point"},"properties":{"osm_id":"6194061713","tag":{"amenity":"waste_basket"}},"type":"Feature"},
	{"geometry":{"coordinates":[-112.085704,33.571344],"type":"Point"},"properties":{"osm_id":"6206614764","tag":{"amenity":"waste_basket"}},"type":"Feature"},
	{"geometry":{"coordinates":[-112.086745,33.571164],"type":"Point"},"properties":{"osm_id":"6206614766","tag":{"amenity":"waste_basket"}},"type":"Feature"},
	{"geometry":{"coordinates":[-112.088352,33.571336],"type":"Point"},"properties":{"osm_id":"6206614777","tag":{"amenity":"waste_basket"}},"type":"Feature"},
	{"geometry":{"coordinates":[-112.088833,33.571155],"type":"Point"},"properties":{"osm_id":"6206614778","tag":{"amenity":"waste_basket"}},"type":"Feature"},
	{"geometry":{"coordinates":[-112.074556,33.571471],"type":"Point"},"properties":{"osm_id":"6207721317","tag":{"amenity":"waste_basket"}},"type":"Feature"},
	{"geometry":{"coordinates":[-112.077543,33.57141],"type":"Point"},"properties":{"osm_id":"6207721344","tag":{"amenity":"waste_basket"}},"type":"Feature"},
	{"geometry":{"coordinates":[-112.078493,33.571225],"type":"Point"},"properties":{"osm_id":"6207721350","tag":{"amenity":"waste_basket"}},"type":"Feature"},
	{"geometry":{"coordinates":[-112.082175,33.571132],"type":"Point"},"properties":{"osm_id":"6207721356","tag":{"amenity":"waste_basket"}},"type":"Feature"},
	{"geometry":{"coordinates":[-112.083213,33.571314],"type":"Point"},"properties":{"osm_id":"6207721363","tag":{"amenity":"waste_basket"}},"type":"Feature"},
	{"geometry":{"coordinates":[-112.121642,33.56779],"type":"Point"},"properties":{"osm_id":"6274339358","tag":{"amenity":"waste_basket"}},"type":"Feature"},
	{"geometry":{"coordinates":[-112.11707,33.559995],"type":"Point"},"properties":{"osm_id":"6274340111","tag":{"amenity":"waste_basket"}},"type":"Feature"},
	{"geometry":{"coordinates":[-112.117507,33.560428],"type":"Point"},"properties":{"osm_id":"6274340186","tag":{"amenity":"waste_basket"}},"type":"Feature"},
	{"geometry":{"coordinates":[-112.124645,33.576261],"type":"Point"},"properties":{"osm_id":"6276669509","tag":{"amenity":"waste_basket"}},"type":"Feature"},
	{"geometry":{"coordinates":[-112.124915,33.575251],"type":"Point"},"properties":{"osm_id":"6276669514","tag":{"amenity":"waste_basket"}},"type":"Feature"},
	{"geometry":{"coordinates":[-112.143447,33.538589],"type":"Point"},"properties":{"osm_id":"6278572612","tag":{"amenity":"waste_basket"}},"type":"Feature"},
	{"geometry":{"coordinates":[-112.142422,33.538376],"type":"Point"},"properties":{"osm_id":"6278572614","tag":{"amenity":"waste_basket"}},"type":"Feature"},
	{"geometry":{"coordinates":[-112.135416,33.538695],"type":"Point"},"properties":{"osm_id":"6278572625","tag":{"amenity":"waste_basket"}},"type":"Feature"},
	{"geometry":{"coordinates":[-112.13412,33.539046],"type":"Point"},"properties":{"osm_id":"6278572630","tag":{"amenity":"waste_basket"}},"type":"Feature"},
	{"geometry":{"coordinates":[-112.133435,33.538336],"type":"Point"},"properties":{"osm_id":"6278572636","tag":{"amenity":"waste_basket"}},"type":"Feature"},
	{"geometry":{"coordinates":[-112.13452,33.538167],"type":"Point"},"properties":{"osm_id":"6278572638","tag":{"amenity":"waste_basket"}},"type":"Feature"},
	{"geometry":{"coordinates":[-112.109012,33.538719],"type":"Point"},"properties":{"osm_id":"6292541124","tag":{"amenity":"waste_basket"}},"type":"Feature"},
	{"geometry":{"coordinates":[-112.110853,33.538473],"type":"Point"},"properties":{"osm_id":"6292541134","tag":{"amenity":"waste_basket"}},"type":"Feature"},
	{"geometry":{"coordinates":[-112.116295,33.538449],"type":"Point"},"properties":{"osm_id":"6292541145","tag":{"amenity":"waste_basket"}},"type":"Feature"},
	{"geometry":{"coordinates":[-112.117079,33.523184],"type":"Point"},"properties":{"osm_id":"6295748970","tag":{"amenity":"waste_basket"}},"type":"Feature"},
	{"geometry":{"coordinates":[-112.11594,33.523903],"type":"Point"},"properties":{"osm_id":"6295748980","tag":{"amenity":"waste_basket"}},"type":"Feature"},
	{"geometry":{"coordinates":[-112.116731,33.524545],"type":"Point"},"properties":{"osm_id":"6295748982","tag":{"amenity":"waste_basket"}},"type":"Feature"},
	{"geometry":{"coordinates":[-112.11752,33.524169],"type":"Point"},"properties":{"osm_id":"6295750188","tag":{"amenity":"waste_basket"}},"type":"Feature"},
	{"geometry":{"coordinates":[-112.116798,33.520674],"type":"Point"},"properties":{"osm_id":"6295750202","tag":{"amenity":"waste_basket"}},"type":"Feature"},
	{"geometry":{"coordinates":[-112.116822,33.517196],"type":"Point"},"properties":{"osm_id":"6295750212","tag":{"amenity":"waste_basket"}},"type":"Feature"},
	{"geometry":{"coordinates":[-112.116842,33.513574],"type":"Point"},"properties":{"osm_id":"6295750268","tag":{"amenity":"waste_basket"}},"type":"Feature"},
	{"geometry":{"coordinates":[-112.111571,33.524888],"type":"Point"},"properties":{"osm_id":"6377385948","tag":{"amenity":"waste_disposal"}},"type":"Feature"},
	{"geometry":{"coordinates":[-112.113021,33.524588],"type":"Point"},"properties":{"osm_id":"6377385949","tag":{"amenity":"waste_disposal"}},"type":"Feature"},
	{"geometry":{"coordinates":[-112.110622,33.524787],"type":"Point"},"properties":{"osm_id":"6377385950","tag":{"amenity":"waste_disposal"}},"type":"Feature"},
	{"geometry":{"coordinates":[-112.111236,33.525497],"type":"Point"},"properties":{"osm_id":"6377385951","tag":{"amenity":"waste_disposal"}},"type":"Feature"},
	{"geometry":{"coordinates":[-112.134717,33.539088],"type":"Point"},"properties":{"osm_id":"6479390475","tag":{"amenity":"waste_disposal"}},"type":"Feature"},
	{"geometry":{"coordinates":[-112.133064,33.539239],"type":"Point"},"properties":{"osm_id":"6479390476","tag":{"amenity":"waste_disposal"}},"type":"Feature"},
	{"geometry":{"coordinates":[-112.133759,33.523809],"type":"Point"},"properties":{"osm_id":"6600257716","tag":{"amenity":"waste_disposal"}},"type":"Feature"},
	{"geometry":{"coordinates":[-112.140254,33.51009],"type":"Point"},"properties":{"osm_id":"6669156226","tag":{"amenity":"waste_disposal"}},"type":"Feature"},
	{"geometry":{"coordinates":[-112.13805,33.510284],"type":"Point"},"properties":{"osm_id":"6669156231","tag":{"amenity":"waste_disposal"}},"type":"Feature"},
	{"geometry":{"coordinates":[-112.134513,33.508965],"type":"Point"},"properties":{"osm_id":"6669195070","tag":{"amenity":"waste_disposal"}},"type":"Feature"},
	{"geometry":{"coordinates":[-112.135154,33.508871],"type":"Point"},"properties":{"osm_id":"6669195071","tag":{"amenity":"waste_disposal"}},"type":"Feature"},
	{"geometry":{"coordinates":[-112.135689,33.508231],"type":"Point"},"properties":{"osm_id":"6669195072","tag":{"amenity":"waste_disposal"}},"type":"Feature"},
	{"geometry":{"coordinates":[-112.136129,33.508822],"type":"Point"},"properties":{"osm_id":"6669195073","tag":{"amenity":"waste_disposal"}},"type":"Feature"},
	{"geometry":{"coordinates":[-112.145151,33.50849],"type":"Point"},"properties":{"osm_id":"6669195078","tag":{"amenity":"waste_disposal"}},"type":"Feature"},
	{"geometry":{"coordinates":[-112.133363,33.518262],"type":"Point"},"properties":{"osm_id":"6669195082","tag":{"amenity":"waste_disposal"}},"type":"Feature"},
	{"geometry":{"coordinates":[-112.133405,33.517583],"type":"Point"},"properties":{"osm_id":"6669195083","tag":{"amenity":"waste_disposal"}},"type":"Feature"},
	{"geometry":{"coordinates":[-112.13338,33.51703],"type":"Point"},"properties":{"osm_id":"6669195084","tag":{"amenity":"waste_disposal"}},"type":"Feature"},
	{"geometry":{"coordinates":[-112.100103,33.540421],"type":"Point"},"properties":{"osm_id":"6683938226","tag":{"amenity":"waste_disposal"}},"type":"Feature"},
	{"geometry":{"coordinates":[-112.100839,33.540426],"type":"Point"},"properties":{"osm_id":"6683938227","tag":{"amenity":"waste_disposal"}},"type":"Feature"},
	{"geometry":{"coordinates":[-112.101586,33.540414],"type":"Point"},"properties":{"osm_id":"6683938228","tag":{"amenity":"waste_disposal"}},"type":"Feature"},
	{"geometry":{"coordinates":[-112.102304,33.540415],"type":"Point"},"properties":{"osm_id":"6683938229","tag":{"amenity":"waste_disposal"}},"type":"Feature"},
	{"geometry":{"coordinates":[-112.103027,33.540409],"type":"Point"},"properties":{"osm_id":"6683938230","tag":{"amenity":"waste_disposal"}},"type":"Feature"},
	{"geometry":{"coordinates":[-112.101917,33.553605],"type":"Point"},"properties":{"osm_id":"6689988638","tag":{"amenity":"waste_disposal"}},"type":"Feature"},
	{"geometry":{"coordinates":[-112.101918,33.553576],"type":"Point"},"properties":{"osm_id":"6689988639","tag":{"amenity":"waste_disposal"}},"type":"Feature"},
	{"geometry":{"coordinates":[-112.102621,33.553891],"type":"Point"},"properties":{"osm_id":"6689988640","tag":{"amenity":"waste_disposal"}},"type":"Feature"},
	{"geometry":{"coordinates":[-112.098312,33.556652],"type":"Point"},"properties":{"osm_id":"6689988652","tag":{"amenity":"waste_disposal"}},"type":"Feature"},
	{"geometry":{"coordinates":[-112.098293,33.556652],"type":"Point"},"properties":{"osm_id":"6689988653","tag":{"amenity":"waste_disposal"}},"type":"Feature"},
	{"geometry":{"coordinates":[-112.09904,33.556666],"type":"Point"},"properties":{"osm_id":"6689988654","tag":{"amenity":"waste_disposal"}},"type":"Feature"},
	{"geometry":{"coordinates":[-112.099059,33.556668],"type":"Point"},"properties":{"osm_id":"6689988655","tag":{"amenity":"waste_disposal"}},"type":"Feature"},
	{"geometry":{"coordinates":[-112.100028,33.557197],"type":"Point"},"properties":{"osm_id":"6689988667","tag":{"amenity":"waste_disposal"}},"type":"Feature"},
	{"geometry":{"coordinates":[-112.100262,33.559965],"type":"Point"},"properties":{"osm_id":"6690005490","tag":{"amenity":"waste_disposal"}},"type":"Feature"},
	{"geometry":{"coordinates":[-112.100284,33.559953],"type":"Point"},"properties":{"osm_id":"6690005491","tag":{"amenity":"waste_disposal"}},"type":"Feature"},
	{"geometry":{"coordinates":[-112.100134,33.566362],"type":"Point"},"properties":{"osm_id":"6690005522","tag":{"amenity":"waste_disposal"}},"type":"Feature"},
	{"geometry":{"coordinates":[-112.102883,33.566345],"type":"Point"},"properties":{"osm_id":"6690021980","tag":{"amenity":"waste_disposal"}},"type":"Feature"},
	{"geometry":{"coordinates":[-112.102879,33.565411],"type":"Point"},"properties":{"osm_id":"6690021981","tag":{"amenity":"waste_disposal"}},"type":"Feature"},
	{"geometry":{"coordinates":[-112.101964,33.566345],"type":"Point"},"properties":{"osm_id":"6690021982","tag":{"amenity":"waste_disposal"}},"type":"Feature"},
	{"geometry":{"coordinates":[-112.101044,33.565412],"type":"Point"},"properties":{"osm_id":"6690021983","tag":{"amenity":"waste_disposal"}},"type":"Feature"},
	{"geometry":{"coordinates":[-112.099112,33.566681],"type":"Point"},"properties":{"osm_id":"6690028385","tag":{"amenity":"waste_disposal"}},"type":"Feature"},
	{"geometry":{"coordinates":[-112.09896,33.567358],"type":"Point"},"properties":{"osm_id":"6690028386","tag":{"amenity":"waste_disposal"}},"type":"Feature"},
	{"geometry":{"coordinates":[-112.100394,33.568708],"type":"Point"},"properties":{"osm_id":"6690028389","tag":{"amenity":"waste_disposal"}},"type":"Feature"},
	{"geometry":{"coordinates":[-112.098522,33.568346],"type":"Point"},"properties":{"osm_id":"6690028393","tag":{"amenity":"waste_disposal"}},"type":"Feature"},
	{"geometry":{"coordinates":[-112.112697,33.568391],"type":"Point"},"properties":{"osm_id":"6690028408","tag":{"amenity":"waste_disposal"}},"type":"Feature"},
	{"geometry":{"coordinates":[-112.064537,33.571927],"type":"Point"},"properties":{"osm_id":"6690042807","tag":{"amenity":"waste_disposal"}},"type":"Feature"},
	{"geometry":{"coordinates":[-112.0657,33.570945],"type":"Point"},"properties":{"osm_id":"6690042813","tag":{"amenity":"waste_disposal"}},"type":"Feature"},
	{"geometry":{"coordinates":[-112.107705,33.562202],"type":"Point"},"properties":{"osm_id":"6690042882","tag":{"amenity":"waste_disposal"}},"type":"Feature"},
	{"geometry":{"coordinates":[-112.107452,33.561011],"type":"Point"},"properties":{"osm_id":"6690042883","tag":{"amenity":"waste_disposal"}},"type":"Feature"},
	{"geometry":{"coordinates":[-112.106311,33.562137],"type":"Point"},"properties":{"osm_id":"6690042884","tag":{"amenity":"waste_disposal"}},"type":"Feature"},
	{"geometry":{"coordinates":[-112.106008,33.560786],"type":"Point"},"properties":{"osm_id":"6690049086","tag":{"amenity":"waste_disposal"}},"type":"Feature"},
	{"geometry":{"coordinates":[-112.102979,33.558902],"type":"Point"},"properties":{"osm_id":"6690049099","tag":{"amenity":"waste_disposal"}},"type":"Feature"},
	{"geometry":{"coordinates":[-112.10303,33.559944],"type":"Point"},"properties":{"osm_id":"6690049100","tag":{"amenity":"waste_disposal"}},"type":"Feature"},
	{"geometry":{"coordinates":[-112.120355,33.569917],"type":"Point"},"properties":{"osm_id":"6690058399","tag":{"amenity":"waste_disposal"}},"type":"Feature"},
	{"geometry":{"coordinates":[-112.118434,33.568635],"type":"Point"},"properties":{"osm_id":"6690058400","tag":{"amenity":"waste_disposal"}},"type":"Feature"},
	{"geometry":{"coordinates":[-112.120278,33.568865],"type":"Point"},"properties":{"osm_id":"6690058401","tag":{"amenity":"waste_disposal"}},"type":"Feature"},
	{"geometry":{"coordinates":[-112.120381,33.5699],"type":"Point"},"properties":{"osm_id":"6690058402","tag":{"amenity":"waste_disposal"}},"type":"Feature"},
	{"geometry":{"coordinates":[-112.133739,33.552969],"type":"Point"},"properties":{"osm_id":"6699134611","tag":{"amenity":"waste_basket"}},"type":"Feature"},
	{"geometry":{"coordinates":[-112.134058,33.553641],"type":"Point"},"properties":{"osm_id":"6699134621","tag":{"amenity":"waste_basket"}},"type":"Feature"},
	{"geometry":{"coordinates":[-112.135042,33.553266],"type":"Point"},"properties":{"osm_id":"6699134623","tag":{"amenity":"waste_basket"}},"type":"Feature"},
	{"geometry":{"coordinates":[-112.134457,33.552451],"type":"Point"},"properties":{"osm_id":"6699134628","tag":{"amenity":"waste_basket"}},"type":"Feature"},
	{"geometry":{"coordinates":[-112.107951,33.552986],"type":"Point"},"properties":{"osm_id":"6700734685","tag":{"amenity":"waste_basket"}},"type":"Feature"},
	{"geometry":{"coordinates":[-112.129472,33.55299],"type":"Point"},"properties":{"osm_id":"6703279106","tag":{"amenity":"waste_basket"}},"type":"Feature"},
	{"geometry":{"coordinates":[-112.125017,33.552987],"type":"Point"},"properties":{"osm_id":"6703279134","tag":{"amenity":"waste_basket"}},"type":"Feature"},
	{"geometry":{"coordinates":[-112.126124,33.553206],"type":"Point"},"properties":{"osm_id":"6703279135","tag":{"amenity":"waste_basket"}},"type":"Feature"},
	{"geometry":{"coordinates":[-112.120979,33.552998],"type":"Point"},"properties":{"osm_id":"6703279206","tag":{"amenity":"waste_basket"}},"type":"Feature"},
	{"geometry":{"coordinates":[-112.117157,33.552646],"type":"Point"},"properties":{"osm_id":"6703279217","tag":{"amenity":"waste_basket"}},"type":"Feature"},
	{"geometry":{"coordinates":[-112.11679,33.553726],"type":"Point"},"properties":{"osm_id":"6703279224","tag":{"amenity":"waste_basket"}},"type":"Feature"},
	{"geometry":{"coordinates":[-112.117444,33.553254],"type":"Point"},"properties":{"osm_id":"6703279230","tag":{"amenity":"waste_basket"}},"type":"Feature"},
	{"geometry":{"coordinates":[-112.11653,33.552987],"type":"Point"},"properties":{"osm_id":"6703279236","tag":{"amenity":"waste_basket"}},"type":"Feature"},
	{"geometry":{"coordinates":[-112.113352,33.553314],"type":"Point"},"properties":{"osm_id":"6703279243","tag":{"amenity":"waste_basket"}},"type":"Feature"},
	{"geometry":{"coordinates":[-112.111389,33.55293],"type":"Point"},"properties":{"osm_id":"6703279274","tag":{"amenity":"waste_basket"}},"type":"Feature"},
	{"geometry":{"coordinates":[-112.109667,33.553265],"type":"Point"},"properties":{"osm_id":"6703279277","tag":{"amenity":"waste_basket"}},"type":"Feature"},
	{"geometry":{"coordinates":[-112.103769,33.552976],"type":"Point"},"properties":{"osm_id":"6703279300","tag":{"amenity":"waste_basket"}},"type":"Feature"},
	{"geometry":{"coordinates":[-112.104396,33.553224],"type":"Point"},"properties":{"osm_id":"6703279310","tag":{"amenity":"waste_basket"}},"type":"Feature"},
	{"geometry":{"coordinates":[-112.134463,33.541759],"type":"Point"},"properties":{"osm_id":"6707730067","tag":{"amenity":"waste_basket"}},"type":"Feature"},
	{"geometry":{"coordinates":[-112.134199,33.542504],"type":"Point"},"properties":{"osm_id":"6707730073","tag":{"amenity":"waste_basket"}},"type":"Feature"},
	{"geometry":{"coordinates":[-112.134182,33.546303],"type":"Point"},"properties":{"osm_id":"6707742887","tag":{"amenity":"waste_basket"}},"type":"Feature"},
	{"geometry":{"coordinates":[-112.134444,33.545529],"type":"Point"},"properties":{"osm_id":"6707742889","tag":{"amenity":"waste_basket"}},"type":"Feature"},
	{"geometry":{"coordinates":[-112.134426,33.549753],"type":"Point"},"properties":{"osm_id":"6707742890","tag":{"amenity":"waste_basket"}},"type":"Feature"},
	{"geometry":{"coordinates":[-112.134394,33.556707],"type":"Point"},"properties":{"osm_id":"6707742906","tag":{"amenity":"waste_basket"}},"type":"Feature"},
	{"geometry":{"coordinates":[-112.13414,33.557402],"type":"Point"},"properties":{"osm_id":"6707742908","tag":{"amenity":"waste_basket"}},"type":"Feature"},
	{"geometry":{"coordinates":[-112.134386,33.559981],"type":"Point"},"properties":{"osm_id":"6707742914","tag":{"amenity":"waste_basket"}},"type":"Feature"},
	{"geometry":{"coordinates":[-112.134095,33.56078],"type":"Point"},"properties":{"osm_id":"6707742920","tag":{"amenity":"waste_basket"}},"type":"Feature"},
	{"geometry":{"coordinates":[-112.134109,33.564153],"type":"Point"},"properties":{"osm_id":"6707742924","tag":{"amenity":"waste_basket"}},"type":"Feature"},
	{"geometry":{"coordinates":[-112.134471,33.566806],"type":"Point"},"properties":{"osm_id":"6707742935","tag":{"amenity":"waste_basket"}},"type":"Feature"},
	{"geometry":{"coordinates":[-112.134097,33.56795],"type":"Point"},"properties":{"osm_id":"6707742936","tag":{"amenity":"waste_basket"}},"type":"Feature"},
	{"geometry":{"coordinates":[-112.134711,33.567682],"type":"Point"},"properties":{"osm_id":"6707742946","tag":{"amenity":"waste_basket"}},"type":"Feature"},
	{"geometry":{"coordinates":[-112.13337,33.567396],"type":"Point"},"properties":{"osm_id":"6707742949","tag":{"amenity":"waste_basket"}},"type":"Feature"},
	{"geometry":{"coordinates":[-112.13374,33.523861],"type":"Point"},"properties":{"osm_id":"6712167366","tag":{"amenity":"waste_basket"}},"type":"Feature"},
	{"geometry":{"coordinates":[-112.134113,33.524818],"type":"Point"},"properties":{"osm_id":"6712167372","tag":{"amenity":"waste_basket"}},"type":"Feature"},
	{"geometry":{"coordinates":[-112.134678,33.524133],"type":"Point"},"properties":{"osm_id":"6712167378","tag":{"amenity":"waste_basket"}},"type":"Feature"},
	{"geometry":{"coordinates":[-112.134419,33.523653],"type":"Point"},"properties":{"osm_id":"6712167380","tag":{"amenity":"waste_basket"}},"type":"Feature"},
	{"geometry":{"coordinates":[-112.125574,33.5757],"type":"Point"},"properties":{"osm_id":"6978226190","tag":{"amenity":"waste_disposal"}},"type":"Feature"},
	{"geometry":{"coordinates":[-112.117693,33.574271],"type":"Point"},"properties":{"osm_id":"6988577805","tag":{"amenity":"waste_disposal"}},"type":"Feature"},
	{"geometry":{"coordinates":[-112.125556,33.57381],"type":"Point"},"properties":{"osm_id":"7159947055","tag":{"amenity":"waste_basket","waste":"trash"}},"type":"Feature"},
	{"geometry":{"coordinates":[-112.125528,33.573469],"type":"Point"},"properties":{"osm_id":"7159947058","tag":{"amenity":"waste_basket","waste":"trash"}},"type":"Feature"},
	{"geometry":{"coordinates":[-112.099098,33.568004],"type":"Point"},"properties":{"osm_id":"7174753295","tag":{"amenity":"waste_basket"}},"type":"Feature"},
	{"geometry":{"coordinates":[-112.099138,33.568038],"type":"Point"},"properties":{"osm_id":"7174753296","tag":{"amenity":"waste_basket"}},"type":"Feature"},
	{"geometry":{"coordinates":[-112.146931,33.510496],"type":"Point"},"properties":{"osm_id":"7207235844","tag":{"amenity":"waste_disposal"}},"type":"Feature"},
	{"geometry":{"coordinates":[-112.146874,33.510495],"type":"Point"},"properties":{"osm_id":"7207235845","tag":{"amenity":"waste_disposal"}},"type":"Feature"},
	{"geometry":{"coordinates":[-112.142757,33.512715],"type":"Point"},"properties":{"osm_id":"7207235847","tag":{"amenity":"waste_disposal"}},"type":"Feature"},
	{"geometry":{"coordinates":[-112.13499,33.510323],"type":"Point"},"properties":{"osm_id":"7424495642","tag":{"amenity":"waste_disposal"}},"type":"Feature"},
	{"geometry":{"coordinates":[-112.133977,33.509965],"type":"Point"},"properties":{"osm_id":"7424495643","tag":{"amenity":"waste_disposal"}},"type":"Feature"},
	{"geometry":{"coordinates":[-112.062669,33.518254],"type":"Point"},"properties":{"osm_id":"7499859865","tag":{"amenity":"waste_disposal"}},"type":"Feature"},
	{"geometry":{"coordinates":[-112.062626,33.518247],"type":"Point"},"properties":{"osm_id":"7499859866","tag":{"amenity":"waste_disposal"}},"type":"Feature"},
	{"geometry":{"coordinates":[-112.062774,33.516713],"type":"Point"},"properties":{"osm_id":"7499859868","tag":{"amenity":"waste_disposal"}},"type":"Feature"},
	{"geometry":{"coordinates":[-112.062774,33.516677],"type":"Point"},"properties":{"osm_id":"7499859869","tag":{"amenity":"waste_disposal"}},"type":"Feature"},
	{"geometry":{"coordinates":[-112.062858,33.518416],"type":"Point"},"properties":{"osm_id":"7499859871","tag":{"amenity":"waste_disposal"}},"type":"Feature"},
	{"geometry":{"coordinates":[-112.06285,33.518396],"type":"Point"},"properties":{"osm_id":"7499859872","tag":{"amenity":"waste_disposal"}},"type":"Feature"},
	{"geometry":{"coordinates":[-112.091747,33.508711],"type":"Point"},"properties":{"osm_id":"7499859881","tag":{"amenity":"waste_disposal"}},"type":"Feature"},
	{"geometry":{"coordinates":[-112.061074,33.50834],"type":"Point"},"properties":{"osm_id":"7684585343","tag":{"amenity":"waste_disposal","direction":"both","surface":"asphalt","traffic_calming":"hump"}},"type":"Feature"},
	{"geometry":{"coordinates":[-112.061095,33.508321],"type":"Point"},"properties":{"osm_id":"7684585344","tag":{"amenity":"waste_disposal","direction":"both","surface":"asphalt","traffic_calming":"hump"}},"type":"Feature"},
	{"geometry":{"coordinates":[-112.063106,33.50747],"type":"Point"},"properties":{"osm_id":"7684585368","tag":{"amenity":"waste_disposal","direction":"both","surface":"asphalt","traffic_calming":"hump"}},"type":"Feature"},
	{"geometry":{"coordinates":[-112.063904,33.511085],"type":"Point"},"properties":{"osm_id":"7684585370","tag":{"amenity":"waste_disposal","direction":"both","surface":"asphalt","traffic_calming":"hump"}},"type":"Feature"},
	{"geometry":{"coordinates":[-112.063866,33.511067],"type":"Point"},"properties":{"osm_id":"7684585371","tag":{"amenity":"waste_disposal","direction":"both","surface":"asphalt","traffic_calming":"hump"}},"type":"Feature"},
	{"geometry":{"coordinates":[-112.065492,33.51016],"type":"Point"},"properties":{"osm_id":"7684585372","tag":{"amenity":"waste_disposal","direction":"both","surface":"asphalt","traffic_calming":"hump"}},"type":"Feature"},
	{"geometry":{"coordinates":[-112.063929,33.512103],"type":"Point"},"properties":{"osm_id":"7685789745","tag":{"amenity":"waste_disposal"}},"type":"Feature"},
	{"geometry":{"coordinates":[-112.063904,33.512103],"type":"Point"},"properties":{"osm_id":"7685789746","tag":{"amenity":"waste_disposal"}},"type":"Feature"},
	{"geometry":{"coordinates":[-112.063874,33.512103],"type":"Point"},"properties":{"osm_id":"7685789747","tag":{"amenity":"waste_disposal"}},"type":"Feature"},
	{"geometry":{"coordinates":[-112.063846,33.512104],"type":"Point"},"properties":{"osm_id":"7685789748","tag":{"amenity":"waste_disposal"}},"type":"Feature"},
	{"geometry":{"coordinates":[-112.073495,33.512524],"type":"Point"},"properties":{"osm_id":"7685789753","tag":{"amenity":"waste_disposal"}},"type":"Feature"},
	{"geometry":{"coordinates":[-112.064393,33.519317],"type":"Point"},"properties":{"osm_id":"7685789757","tag":{"amenity":"waste_disposal"}},"type":"Feature"},
	{"geometry":{"coordinates":[-112.066144,33.52292],"type":"Point"},"properties":{"osm_id":"7685818342","tag":{"amenity":"waste_disposal"}},"type":"Feature"},
	{"geometry":{"coordinates":[-112.064172,33.523272],"type":"Point"},"properties":{"osm_id":"7685818348","tag":{"amenity":"waste_disposal"}},"type":"Feature"},
	{"geometry":{"coordinates":[-112.064139,33.526859],"type":"Point"},"properties":{"osm_id":"7686191304","tag":{"amenity":"waste_disposal"}},"type":"Feature"},
	{"geometry":{"coordinates":[-112.064522,33.528714],"type":"Point"},"properties":{"osm_id":"7686191313","tag":{"amenity":"waste_disposal"}},"type":"Feature"},
	{"geometry":{"coordinates":[-112.072681,33.526062],"type":"Point"},"properties":{"osm_id":"7686191338","tag":{"amenity":"waste_disposal"}},"type":"Feature"},
	{"geometry":{"coordinates":[-112.07557,33.530639],"type":"Point"},"properties":{"osm_id":"7686191363","tag":{"amenity":"waste_disposal"}},"type":"Feature"},
	{"geometry":{"coordinates":[-112.075589,33.530606],"type":"Point"},"properties":{"osm_id":"7686191364","tag":{"amenity":"waste_disposal"}},"type":"Feature"},
	{"geometry":{"coordinates":[-112.075614,33.530575],"type":"Point"},"properties":{"osm_id":"7686191365","tag":{"amenity":"waste_disposal"}},"type":"Feature"},
	{"geometry":{"coordinates":[-112.081514,33.531491],"type":"Point"},"properties":{"osm_id":"7686191378","tag":{"amenity":"waste_disposal"}},"type":"Feature"},
	{"geometry":{"coordinates":[-112.133481,33.536138],"type":"Point"},"properties":{"osm_id":"7762899396","tag":{"amenity":"waste_disposal"}},"type":"Feature"},
	{"geometry":{"coordinates":[-112.13349,33.536099],"type":"Point"},"properties":{"osm_id":"7762899397","tag":{"amenity":"waste_disposal"}},"type":"Feature"},
	{"geometry":{"coordinates":[-112.132249,33.536551],"type":"Point"},"properties":{"osm_id":"7762899399","tag":{"amenity":"waste_disposal"}},"type":"Feature"},
	{"geometry":{"coordinates":[-112.136923,33.53783],"type":"Point"},"properties":{"osm_id":"7762899400","tag":{"amenity":"waste_disposal"}},"type":"Feature"},
	{"geometry":{"coordinates":[-112.117654,33.53415],"type":"Point"},"properties":{"osm_id":"7762899409","tag":{"amenity":"waste_disposal"}},"type":"Feature"},
	{"geometry":{"coordinates":[-112.116032,33.529464],"type":"Point"},"properties":{"osm_id":"7762899416","tag":{"amenity":"waste_disposal"}},"type":"Feature"},
	{"geometry":{"coordinates":[-112.115996,33.529465],"type":"Point"},"properties":{"osm_id":"7762899417","tag":{"amenity":"waste_disposal"}},"type":"Feature"},
	{"geometry":{"coordinates":[-112.114572,33.529612],"type":"Point"},"properties":{"osm_id":"7762899419","tag":{"amenity":"waste_disposal"}},"type":"Feature"},
	{"geometry":{"coordinates":[-112.114573,33.529575],"type":"Point"},"properties":{"osm_id":"7762899420","tag":{"amenity":"waste_disposal"}},"type":"Feature"},
	{"geometry":{"coordinates":[-112.114573,33.529533],"type":"Point"},"properties":{"osm_id":"7762899421","tag":{"amenity":"waste_disposal"}},"type":"Feature"},
	{"geometry":{"coordinates":[-112.115165,33.528387],"type":"Point"},"properties":{"osm_id":"7762899422","tag":{"amenity":"waste_disposal"}},"type":"Feature"},
	{"geometry":{"coordinates":[-112.115428,33.528336],"type":"Point"},"properties":{"osm_id":"7762899423","tag":{"amenity":"waste_disposal"}},"type":"Feature"},
	{"geometry":{"coordinates":[-112.115989,33.527749],"type":"Point"},"properties":{"osm_id":"7762899424","tag":{"amenity":"waste_disposal"}},"type":"Feature"},
	{"geometry":{"coordinates":[-112.114292,33.528391],"type":"Point"},"properties":{"osm_id":"7762899425","tag":{"amenity":"waste_disposal"}},"type":"Feature"},
	{"geometry":{"coordinates":[-112.113434,33.527746],"type":"Point"},"properties":{"osm_id":"7762899427","tag":{"amenity":"waste_disposal"}},"type":"Feature"},
	{"geometry":{"coordinates":[-112.116021,33.539064],"type":"Point"},"properties":{"osm_id":"7762899437","tag":{"amenity":"waste_disposal"}},"type":"Feature"},
	{"geometry":{"coordinates":[-112.119666,33.530585],"type":"Point"},"properties":{"osm_id":"7762899442","tag":{"amenity":"waste_disposal"}},"type":"Feature"},
	{"geometry":{"coordinates":[-112.119664,33.53056],"type":"Point"},"properties":{"osm_id":"7762899443","tag":{"amenity":"waste_disposal"}},"type":"Feature"},
	{"geometry":{"coordinates":[-112.116371,33.523519],"type":"Point"},"properties":{"osm_id":"7762899451","tag":{"amenity":"waste_disposal"}},"type":"Feature"},
	{"geometry":{"coordinates":[-112.139633,33.567633],"type":"Point"},"properties":{"osm_id":"7799279924","tag":{"amenity":"waste_basket"}},"type":"Feature"},
	{"geometry":{"coordinates":[-112.142366,33.567418],"type":"Point"},"properties":{"osm_id":"7799280270","tag":{"amenity":"waste_basket"}},"type":"Feature"},
	{"geometry":{"coordinates":[-112.134877,33.524864],"type":"Point"},"properties":{"osm_id":"7830866177","tag":{"amenity":"waste_disposal"}},"type":"Feature"},
	{"geometry":{"coordinates":[-112.134856,33.523146],"type":"Point"},"properties":{"osm_id":"7830866182","tag":{"amenity":"waste_disposal"}},"type":"Feature"},
	{"geometry":{"coordinates":[-112.134761,33.527064],"type":"Point"},"properties":{"osm_id":"7830938591","tag":{"amenity":"waste_disposal"}},"type":"Feature"},
	{"geometry":{"coordinates":[-112.134025,33.522987],"type":"Point"},"properties":{"osm_id":"7830938595","tag":{"amenity":"waste_disposal"}},"type":"Feature"},
	{"geometry":{"coordinates":[-112.125562,33.513481],"type":"Point"},"properties":{"osm_id":"7830938606","tag":{"amenity":"waste_disposal"}},"type":"Feature"},
	{"geometry":{"coordinates":[-112.103123,33.524014],"type":"Point"},"properties":{"osm_id":"7845071278","tag":{"amenity":"waste_basket"}},"type":"Feature"},
	{"geometry":{"coordinates":[-112.108767,33.52419],"type":"Point"},"properties":{"osm_id":"7845071433","tag":{"amenity":"waste_basket"}},"type":"Feature"},
	{"geometry":{"coordinates":[-112.107936,33.523977],"type":"Point"},"properties":{"osm_id":"7845071434","tag":{"amenity":"waste_basket"}},"type":"Feature"},
	{"geometry":{"coordinates":[-112.08299,33.532857],"type":"Point"},"properties":{"osm_id":"7952948323","tag":{"amenity":"waste_disposal"}},"type":"Feature"},
	{"geometry":{"coordinates":[-112.08374,33.532321],"type":"Point"},"properties":{"osm_id":"7952948324","tag":{"amenity":"waste_disposal"}},"type":"Feature"},
	{"geometry":{"coordinates":[-112.083431,33.531829],"type":"Point"},"properties":{"osm_id":"7952948325","tag":{"amenity":"waste_disposal"}},"type":"Feature"},
	{"geometry":{"coordinates":[-112.082632,33.531946],"type":"Point"},"properties":{"osm_id":"7952948326","tag":{"amenity":"waste_disposal"}},"type":"Feature"},
	{"geometry":{"coordinates":[-112.091009,33.532976],"type":"Point"},"properties":{"osm_id":"7952948408","tag":{"amenity":"waste_disposal","direction":"both","traffic_calming":"hump"}},"type":"Feature"},
	{"geometry":{"coordinates":[-112.091008,33.532953],"type":"Point"},"properties":{"osm_id":"7952948409","tag":{"amenity":"waste_disposal","direction":"both","traffic_calming":"hump"}},"type":"Feature"},
	{"geometry":{"coordinates":[-112.090693,33.53179],"type":"Point"},"properties":{"osm_id":"7952948410","tag":{"amenity":"waste_disposal","direction":"both","traffic_calming":"hump"}},"type":"Feature"},
	{"geometry":{"coordinates":[-112.090665,33.5318],"type":"Point"},"properties":{"osm_id":"7952948411","tag":{"amenity":"waste_disposal","direction":"both","traffic_calming":"hump"}},"type":"Feature"},
	{"geometry":{"coordinates":[-112.092377,33.539409],"type":"Point"},"properties":{"osm_id":"7952948426","tag":{"amenity":"waste_disposal"}},"type":"Feature"},
	{"geometry":{"coordinates":[-112.091934,33.539464],"type":"Point"},"properties":{"osm_id":"7952948427","tag":{"amenity":"waste_disposal"}},"type":"Feature"},
	{"geometry":{"coordinates":[-112.091958,33.539466],"type":"Point"},"properties":{"osm_id":"7952948428","tag":{"amenity":"waste_disposal"}},"type":"Feature"},
	{"geometry":{"coordinates":[-112.091984,33.539465],"type":"Point"},"properties":{"osm_id":"7952948429","tag":{"amenity":"waste_disposal"}},"type":"Feature"},
	{"geometry":{"coordinates":[-112.092477,33.539464],"type":"Point"},"properties":{"osm_id":"7952948430","tag":{"amenity":"waste_disposal"}},"type":"Feature"},
	{"geometry":{"coordinates":[-112.095272,33.540282],"type":"Point"},"properties":{"osm_id":"7952948434","tag":{"amenity":"waste_disposal"}},"type":"Feature"}
]
}
