{
"type": "FeatureCollection",
"features": [
	{"geometry":{"coordinates":[-112.073817,33.473484],"type":"Point"},"properties":{"osm_id":"2143425685","tag":{"amenity":"waste_basket"}},"type":"Feature"},
	{"geometry":{"coordinates":[-112.073817,33.473572],"type":"Point"},"properties":{"osm_id":"2143425686","tag":{"amenity":"waste_basket"}},"type":"Feature"},
	{"geometry":{"coordinates":[-112.075234,33.447719],"type":"Point"},"properties":{"osm_id":"2299632828","tag":{"amenity":"waste_basket"}},"type":"Feature"},
	{"geometry":{"coordinates":[-112.075235,33.447736],"type":"Point"},"properties":{"osm_id":"2299632832","tag":{"amenity":"waste_basket"}},"type":"Feature"},
	{"geometry":{"coordinates":[-112.075238,33.447944],"type":"Point"},"properties":{"osm_id":"2299632836","tag":{"amenity":"waste_basket"}},"type":"Feature"},
	{"geometry":{"coordinates":[-112.076748,33.448321],"type":"Point"},"properties":{"osm_id":"2299632840","tag":{"amenity":"recycling","recycling_type":"container"}},"type":"Feature"},
	{"geometry":{"coordinates":[-112.076723,33.448322],"type":"Point"},"properties":{"osm_id":"2299632843","tag":{"amenity":"waste_basket"}},"type":"Feature"},
	{"geometry":{"coordinates":[-112.076196,33.448354],"type":"Point"},"properties":{"osm_id":"2299632850","tag":{"amenity":"waste_basket"}},"type":"Feature"},
	{"geometry":{"coordinates":[-112.075439,33.448354],"type":"Point"},"properties":{"osm_id":"2299632851","tag":{"amenity":"waste_basket"}},"type":"Feature"},
	{"geometry":{"coordinates":[-112.075438,33.44837],"type":"Point"},"properties":{"osm_id":"2299632852","tag":{"amenity":"waste_basket"}},"type":"Feature"},
	{"geometry":{"coordinates":[-112.077292,33.44843],"type":"Point"},"properties":{"osm_id":"2299632855","tag":{"amenity":"waste_basket"}},"type":"Feature"},
	{"geometry":{"coordinates":[-112.077027,33.44843],"type":"Point"},"properties":{"osm_id":"2299632858","tag":{"amenity":"waste_basket"}},"type":"Feature"},
	{"geometry":{"coordinates":[-112.073982,33.452048],"type":"Point"},"properties":{"osm_id":"2299632860","tag":{"amenity":"waste_basket"}},"type":"Feature"},
	{"geometry":{"coordinates":[-112.073982,33.452094],"type":"Point"},"properties":{"osm_id":"2299632862","tag":{"amenity":"waste_basket"}},"type":"Feature"},
	{"geometry":{"coordinates":[-112.118027,33.442582],"type":"Point"},"properties":{"osm_id":"3119009535","tag":{"amenity":"waste_basket"}},"type":"Feature"},
	{"geometry":{"coordinates":[-112.082046,33.447006],"type":"Point"},"properties":{"osm_id":"3900228150","tag":{"amenity":"waste_basket"}},"type":"Feature"},
	{"geometry":{"coordinates":[-112.089419,33.446897],"type":"Point"},"properties":{"osm_id":"4139884367","tag":{"amenity":"waste_basket"}},"type":"Feature"},
	{"geometry":{"coordinates":[-112.089712,33.446961],"type":"Point"},"properties":{"osm_id":"4139884376","tag":{"amenity":"waste_basket"}},"type":"Feature"},
	{"geometry":{"coordinates":[-112.100212,33.450849],"type":"Point"},"properties":{"osm_id":"4231981775","tag":{"amenity":"waste_basket"}},"type":"Feature"},
	{"geometry":{"coordinates":[-112.099637,33.451161],"type":"Point"},"properties":{"osm_id":"4231982192","tag":{"amenity":"waste_basket"}},"type":"Feature"},
	{"geometry":{"coordinates":[-112.100704,33.451359],"type":"Point"},"properties":{"osm_id":"4231982204","tag":{"amenity":"waste_basket"}},"type":"Feature"},
	{"geometry":{"coordinates":[-112.099926,33.451769],"type":"Point"},"properties":{"osm_id":"4231982207","tag":{"amenity":"waste_basket"}},"type":"Feature"},
	{"geometry":{"coordinates":[-112.096249,33.451408],"type":"Point"},"properties":{"osm_id":"4243816927","tag":{"amenity":"waste_basket"}},"type":"Feature"},
	{"geometry":{"coordinates":[-112.091776,33.451452],"type":"Point"},"properties":{"osm_id":"4243816936","tag":{"amenity":"waste_basket"}},"type":"Feature"},
	{"geometry":{"coordinates":[-112.067351,33.451633],"type":"Point"},"properties":{"osm_id":"4265677908","tag":{"amenity":"waste_basket"}},"type":"Feature"},
	{"geometry":{"coordinates":[-112.073997,33.497698],"type":"Point"},"properties":{"osm_id":"4265678038","tag":{"amenity":"waste_basket"}},"type":"Feature"},
	{"geometry":{"coordinates":[-112.074003,33.501676],"type":"Point"},"properties":{"osm_id":"4265678042","tag":{"amenity":"waste_basket"}},"type":"Feature"},
	{"geometry":{"coordinates":[-112.100077,33.489201],"type":"Point"},"properties":{"osm_id":"4642045576","tag":{"amenity":"waste_basket"}},"type":"Feature"},
	{"geometry":{"coordinates":[-112.099838,33.484614],"type":"Point"},"properties":{"osm_id":"4642047916","tag":{"amenity":"waste_basket"}},"type":"Feature"},
	{"geometry":{"coordinates":[-112.096186,33.449335],"type":"Point"},"properties":{"osm_id":"4648336988","tag":{"amenity":"waste_basket"}},"type":"Feature"},
	{"geometry":{"coordinates":[-112.08448,33.450147],"type":"Point"},"properties":{"osm_id":"4649117325","tag":{"amenity":"waste_disposal"}},"type":"Feature"},
	{"geometry":{"coordinates":[-112.065308,33.46538],"type":"Point"},"properties":{"osm_id":"4810857155","tag":{"amenity":"waste_basket"}},"type":"Feature"},
	{"geometry":{"coordinates":[-112.064354,33.465572],"type":"Point"},"properties":{"osm_id":"4810857166","tag":{"amenity":"waste_basket"}},"type":"Feature"},
	{"geometry":{"coordinates":[-112.065787,33.465895],"type":"Point"},"properties":{"osm_id":"4810857172","tag":{"amenity":"waste_basket"}},"type":"Feature"},
	{"geometry":{"coordinates":[-112.064922,33.466125],"type":"Point"},"properties":{"osm_id":"4810857173","tag":{"amenity":"waste_basket"}},"type":"Feature"},
	{"geometry":{"coordinates":[-112.064998,33.468623],"type":"Point"},"properties":{"osm_id":"4810857183","tag":{"amenity":"waste_basket"}},"type":"Feature"},
	{"geometry":{"coordinates":[-112.065253,33.468797],"type":"Point"},"properties":{"osm_id":"4810857186","tag":{"amenity":"waste_basket"}},"type":"Feature"},
	{"geometry":{"coordinates":[-112.06499,33.473433],"type":"Point"},"properties":{"osm_id":"4810857200","tag":{"amenity":"waste_basket"}},"type":"Feature"},
	{"geometry":{"coordinates":[-112.064974,33.476275],"type":"Point"},"properties":{"osm_id":"4810857205","tag":{"amenity":"waste_basket"}},"type":"Feature"},
	{"geometry":{"coordinates":[-112.065233,33.476087],"type":"Point"},"properties":{"osm_id":"4810857208","tag":{"amenity":"waste_basket"}},"type":"Feature"},
	{"geometry":{"coordinates":[-112.064932,33.480527],"type":"Point"},"properties":{"osm_id":"4810857215","tag":{"amenity":"waste_basket"}},"type":"Feature"},
	{"geometry":{"coordinates":[-112.065256,33.479847],"type":"Point"},"properties":{"osm_id":"4810857221","tag":{"amenity":"waste_basket"}},"type":"Feature"},
	{"geometry":{"coordinates":[-112.064647,33.480064],"type":"Point"},"properties":{"osm_id":"4810857232","tag":{"amenity":"waste_basket"}},"type":"Feature"},
	{"geometry":{"coordinates":[-112.065534,33.480347],"type":"Point"},"properties":{"osm_id":"4810857233","tag":{"amenity":"waste_basket"}},"type":"Feature"},
	{"geometry":{"coordinates":[-112.06521,33.483316],"type":"Point"},"properties":{"osm_id":"4810857239","tag":{"amenity":"waste_basket"}},"type":"Feature"},
	{"geometry":{"coordinates":[-112.065202,33.486878],"type":"Point"},"properties":{"osm_id":"4810857250","tag":{"amenity":"waste_basket"}},"type":"Feature"},
	{"geometry":{"coordinates":[-112.064939,33.487977],"type":"Point"},"properties":{"osm_id":"4810857258","tag":{"amenity":"waste_basket"}},"type":"Feature"},
	{"geometry":{"coordinates":[-112.064932,33.490589],"type":"Point"},"properties":{"osm_id":"4810857266","tag":{"amenity":"waste_basket"}},"type":"Feature"},
	{"geometry":{"coordinates":[-112.065194,33.494303],"type":"Point"},"properties":{"osm_id":"4810857271","tag":{"amenity":"waste_basket"}},"type":"Feature"},
	{"geometry":{"coordinates":[-112.064486,33.494618],"type":"Point"},"properties":{"osm_id":"4810857277","tag":{"amenity":"waste_basket"}},"type":"Feature"},
	{"geometry":{"coordinates":[-112.065898,33.494887],"type":"Point"},"properties":{"osm_id":"4810857284","tag":{"amenity":"waste_basket"}},"type":"Feature"},
	{"geometry":{"coordinates":[-112.065906,33.494886],"type":"Point"},"properties":{"osm_id":"4810857285","tag":{"amenity":"waste_basket"}},"type":"Feature"},
	{"geometry":{"coordinates":[-112.065171,33.497724],"type":"Point"},"properties":{"osm_id":"4810857296","tag":{"amenity":"waste_basket"}},"type":"Feature"},
	{"geometry":{"coordinates":[-112.064915,33.498507],"type":"Point"},"properties":{"osm_id":"4810857300","tag":{"amenity":"waste_basket"}},"type":"Feature"},
	{"geometry":{"coordinates":[-112.065331,33.450878],"type":"Point"},"properties":{"osm_id":"4818308225","tag":{"amenity":"waste_basket"}},"type":"Feature"},
	{"geometry":{"coordinates":[-112.066978,33.451252],"type":"Point"},"properties":{"osm_id":"4818308238","tag":{"amenity":"waste_basket"}},"type":"Feature"},
	{"geometry":{"coordinates":[-112.065726,33.451521],"type":"Point"},"properties":{"osm_id":"4818308239","tag":{"amenity":"waste_basket"}},"type":"Feature"},
	{"geometry":{"coordinates":[-112.064752,33.451255],"type":"Point"},"properties":{"osm_id":"4818308246","tag":{"amenity":"waste_basket"}},"type":"Feature"},
	{"geometry":{"coordinates":[-112.065074,33.455011],"type":"Point"},"properties":{"osm_id":"4818308263","tag":{"amenity":"waste_basket"}},"type":"Feature"},
	{"geometry":{"coordinates":[-112.066013,33.458753],"type":"Point"},"properties":{"osm_id":"4818308270","tag":{"amenity":"waste_basket"}},"type":"Feature"},
	{"geometry":{"coordinates":[-112.064571,33.458605],"type":"Point"},"properties":{"osm_id":"4818308273","tag":{"amenity":"waste_basket"}},"type":"Feature"},
	{"geometry":{"coordinates":[-112.065418,33.458067],"type":"Point"},"properties":{"osm_id":"4818308276","tag":{"amenity":"waste_basket"}},"type":"Feature"},
	{"geometry":{"coordinates":[-112.065065,33.459137],"type":"Point"},"properties":{"osm_id":"4818308284","tag":{"amenity":"waste_basket"}},"type":"Feature"},
	{"geometry":{"coordinates":[-112.064944,33.43173],"type":"Point"},"properties":{"osm_id":"4825953396","tag":{"amenity":"waste_basket"}},"type":"Feature"},
	{"geometry":{"coordinates":[-112.065398,33.436353],"type":"Point"},"properties":{"osm_id":"4825953405","tag":{"amenity":"waste_basket"}},"type":"Feature"},
	{"geometry":{"coordinates":[-112.065672,33.436976],"type":"Point"},"properties":{"osm_id":"4825953415","tag":{"amenity":"waste_basket"}},"type":"Feature"},
	{"geometry":{"coordinates":[-112.064926,33.437617],"type":"Point"},"properties":{"osm_id":"4825953417","tag":{"amenity":"waste_basket"}},"type":"Feature"},
	{"geometry":{"coordinates":[-112.06552,33.441546],"type":"Point"},"properties":{"osm_id":"4825953431","tag":{"amenity":"waste_basket"}},"type":"Feature"},
	{"geometry":{"coordinates":[-112.06514,33.441782],"type":"Point"},"properties":{"osm_id":"4825953437","tag":{"amenity":"waste_basket"}},"type":"Feature"},
	{"geometry":{"coordinates":[-112.064658,33.447049],"type":"Point"},"properties":{"osm_id":"4825953449","tag":{"amenity":"waste_basket"}},"type":"Feature"},
	{"geometry":{"coordinates":[-112.064903,33.448636],"type":"Point"},"properties":{"osm_id":"4825953455","tag":{"amenity":"waste_basket"}},"type":"Feature"},
	{"geometry":{"coordinates":[-112.06528,33.447596],"type":"Point"},"properties":{"osm_id":"4825953456","tag":{"amenity":"waste_basket"}},"type":"Feature"},
	{"geometry":{"coordinates":[-112.067941,33.451541],"type":"Point"},"properties":{"osm_id":"4825953464","tag":{"amenity":"waste_basket"}},"type":"Feature"},
	{"geometry":{"coordinates":[-112.069564,33.451287],"type":"Point"},"properties":{"osm_id":"4825953472","tag":{"amenity":"waste_basket"}},"type":"Feature"},
	{"geometry":{"coordinates":[-112.073317,33.451305],"type":"Point"},"properties":{"osm_id":"4825953481","tag":{"amenity":"waste_basket"}},"type":"Feature"},
	{"geometry":{"coordinates":[-112.074249,33.451568],"type":"Point"},"properties":{"osm_id":"4825953503","tag":{"amenity":"waste_basket"}},"type":"Feature"},
	{"geometry":{"coordinates":[-112.074178,33.451569],"type":"Point"},"properties":{"osm_id":"4825953504","tag":{"amenity":"recycling","recycling_type":"container"}},"type":"Feature"},
	{"geometry":{"coordinates":[-112.074321,33.451568],"type":"Point"},"properties":{"osm_id":"4825953517","tag":{"amenity":"recycling","recycling_type":"container"}},"type":"Feature"},
	{"geometry":{"coordinates":[-112.074396,33.451567],"type":"Point"},"properties":{"osm_id":"4825953734","tag":{"amenity":"waste_basket"}},"type":"Feature"},
	{"geometry":{"coordinates":[-112.067311,33.454379],"type":"Point"},"properties":{"osm_id":"4825954008","tag":{"amenity":"waste_basket"}},"type":"Feature"},
	{"geometry":{"coordinates":[-112.068028,33.454769],"type":"Point"},"properties":{"osm_id":"4825954009","tag":{"amenity":"waste_basket"}},"type":"Feature"},
	{"geometry":{"coordinates":[-112.068611,33.454604],"type":"Point"},"properties":{"osm_id":"4825954022","tag":{"amenity":"waste_basket"}},"type":"Feature"},
	{"geometry":{"coordinates":[-112.069772,33.45439],"type":"Point"},"properties":{"osm_id":"4825954023","tag":{"amenity":"waste_basket"}},"type":"Feature"},
	{"geometry":{"coordinates":[-112.070323,33.454591],"type":"Point"},"properties":{"osm_id":"4825954026","tag":{"amenity":"waste_basket"}},"type":"Feature"},
	{"geometry":{"coordinates":[-112.07348,33.45441],"type":"Point"},"properties":{"osm_id":"4825954035","tag":{"amenity":"waste_basket"}},"type":"Feature"},
	{"geometry":{"coordinates":[-112.073712,33.455019],"type":"Point"},"properties":{"osm_id":"4825954041","tag":{"amenity":"waste_basket"}},"type":"Feature"},
	{"geometry":{"coordinates":[-112.074576,33.454785],"type":"Point"},"properties":{"osm_id":"4825954050","tag":{"amenity":"waste_basket"}},"type":"Feature"},
	{"geometry":{"coordinates":[-112.074157,33.45458],"type":"Point"},"properties":{"osm_id":"4825954057","tag":{"amenity":"waste_basket"}},"type":"Feature"},
	{"geometry":{"coordinates":[-112.07529,33.455347],"type":"Point"},"properties":{"osm_id":"4825954072","tag":{"amenity":"waste_basket"}},"type":"Feature"},
	{"geometry":{"coordinates":[-112.078044,33.454811],"type":"Point"},"properties":{"osm_id":"4825954079","tag":{"amenity":"waste_basket"}},"type":"Feature"},
	{"geometry":{"coordinates":[-112.077268,33.454661],"type":"Point"},"properties":{"osm_id":"4825954114","tag":{"amenity":"waste_basket"}},"type":"Feature"},
	{"geometry":{"coordinates":[-112.079216,33.454645],"type":"Point"},"properties":{"osm_id":"4825954121","tag":{"amenity":"waste_basket"}},"type":"Feature"},
	{"geometry":{"coordinates":[-112.079273,33.454807],"type":"Point"},"properties":{"osm_id":"4825954126","tag":{"amenity":"waste_basket"}},"type":"Feature"},
	{"geometry":{"coordinates":[-112.080942,33.454677],"type":"Point"},"properties":{"osm_id":"4825954131","tag":{"amenity":"waste_basket"}},"type":"Feature"},
	{"geometry":{"coordinates":[-112.081744,33.454807],"type":"Point"},"properties":{"osm_id":"4825954134","tag":{"amenity":"waste_basket"}},"type":"Feature"},
	{"geometry":{"coordinates":[-112.082446,33.455305],"type":"Point"},"properties":{"osm_id":"4825954137","tag":{"amenity":"waste_basket"}},"type":"Feature"},
	{"geometry":{"coordinates":[-112.091342,33.454722],"type":"Point"},"properties":{"osm_id":"4825954145","tag":{"amenity":"waste_basket"}},"type":"Feature"},
	{"geometry":{"coordinates":[-112.134611,33.45471],"type":"Point"},"properties":{"osm_id":"4825954187","tag":{"amenity":"waste_basket"}},"type":"Feature"},
	{"geometry":{"coordinates":[-112.079853,33.447013],"type":"Point"},"properties":{"osm_id":"4950071103","tag":{"amenity":"waste_basket"}},"type":"Feature"},
	{"geometry":{"coordinates":[-112.081556,33.444884],"type":"Point"},"properties":{"osm_id":"4950087224","tag":{"amenity":"waste_basket"}},"type":"Feature"},
	{"geometry":{"coordinates":[-112.081455,33.444813],"type":"Point"},"properties":{"osm_id":"4950087225","tag":{"amenity":"waste_basket"}},"type":"Feature"},
	{"geometry":{"coordinates":[-112.081397,33.444806],"type":"Point"},"properties":{"osm_id":"4950087226","tag":{"amenity":"waste_basket"}},"type":"Feature"},
	{"geometry":{"coordinates":[-112.067157,33.479604],"type":"Point"},"properties":{"osm_id":"4957707902","tag":{"amenity":"waste_basket"}},"type":"Feature"},
	{"geometry":{"coordinates":[-112.08284,33.499006],"type":"Point"},"properties":{"osm_id":"5103364978","tag":{"amenity":"waste_basket"}},"type":"Feature"},
	{"geometry":{"coordinates":[-112.099776,33.503051],"type":"Point"},"properties":{"osm_id":"5157933445","tag":{"amenity":"waste_basket"}},"type":"Feature"},
	{"geometry":{"coordinates":[-112.099786,33.498702],"type":"Point"},"properties":{"osm_id":"5157933474","tag":{"amenity":"waste_basket"}},"type":"Feature"},
	{"geometry":{"coordinates":[-112.099745,33.495579],"type":"Point"},"properties":{"osm_id":"5157933479","tag":{"amenity":"waste_basket"}},"type":"Feature"},
	{"geometry":{"coordinates":[-112.100086,33.487168],"type":"Point"},"properties":{"osm_id":"5157933506","tag":{"amenity":"waste_basket"}},"type":"Feature"},
	{"geometry":{"coordinates":[-112.099779,33.488116],"type":"Point"},"properties":{"osm_id":"5157933507","tag":{"amenity":"waste_basket"}},"type":"Feature"},
	{"geometry":{"coordinates":[-112.090951,33.451259],"type":"Point"},"properties":{"osm_id":"5160971001","tag":{"amenity":"waste_basket"}},"type":"Feature"},
	{"geometry":{"coordinates":[-112.083583,33.494303],"type":"Point"},"properties":{"osm_id":"5190131880","tag":{"amenity":"waste_basket"}},"type":"Feature"},
	{"geometry":{"coordinates":[-112.082763,33.494718],"type":"Point"},"properties":{"osm_id":"5190131886","tag":{"amenity":"waste_basket"}},"type":"Feature"},
	{"geometry":{"coordinates":[-112.083932,33.495055],"type":"Point"},"properties":{"osm_id":"5190131888","tag":{"amenity":"waste_basket"}},"type":"Feature"},
	{"geometry":{"coordinates":[-112.083937,33.495063],"type":"Point"},"properties":{"osm_id":"5190131894","tag":{"amenity":"waste_basket"}},"type":"Feature"},
	{"geometry":{"coordinates":[-112.08336,33.495327],"type":"Point"},"properties":{"osm_id":"5190131901","tag":{"amenity":"waste_basket"}},"type":"Feature"},
	{"geometry":{"coordinates":[-112.083257,33.49235],"type":"Point"},"properties":{"osm_id":"5190131909","tag":{"amenity":"waste_basket"}},"type":"Feature"},
	{"geometry":{"coordinates":[-112.083453,33.490427],"type":"Point"},"properties":{"osm_id":"5190131916","tag":{"amenity":"waste_basket"}},"type":"Feature"},
	{"geometry":{"coordinates":[-112.083104,33.48801],"type":"Point"},"properties":{"osm_id":"5190132743","tag":{"amenity":"waste_basket"}},"type":"Feature"},
	{"geometry":{"coordinates":[-112.083269,33.484238],"type":"Point"},"properties":{"osm_id":"5190132753","tag":{"amenity":"waste_basket"}},"type":"Feature"},
	{"geometry":{"coordinates":[-112.083377,33.487161],"type":"Point"},"properties":{"osm_id":"5190132787","tag":{"amenity":"waste_basket"}},"type":"Feature"},
	{"geometry":{"coordinates":[-112.082493,33.466428],"type":"Point"},"properties":{"highway":"bus_stop","name":"10666","osm_id":"5190132796","ref":"10666","tag":{"alt_name":"North 7th Avenue and West McDowell Road","amenity":"waste_basket","network":"US National Transit Database id is 90032","operator":"Valley Metro Org","public_transport":"platform","public_transport:version":"2"}},"type":"Feature"},
	{"geometry":{"coordinates":[-112.082487,33.466395],"type":"Point"},"properties":{"osm_id":"5190132798","tag":{"amenity":"waste_basket"}},"type":"Feature"},
	{"geometry":{"coordinates":[-112.082801,33.465128],"type":"Point"},"properties":{"highway":"bus_stop","name":"10729","osm_id":"5190132804","ref":"10729","tag":{"alt_name":"North 7th Avenue and West McDowell Road","amenity":"waste_basket","network":"US National Transit Database id is 90032","operator":"Valley Metro Org","public_transport":"platform","public_transport:version":"2"}},"type":"Feature"},
	{"geometry":{"coordinates":[-112.082805,33.465161],"type":"Point"},"properties":{"osm_id":"5190132805","tag":{"amenity":"waste_basket"}},"type":"Feature"},
	{"geometry":{"coordinates":[-112.082201,33.465724],"type":"Point"},"properties":{"highway":"bus_stop","name":"11346","osm_id":"5190132812","ref":"11346","tag":{"alt_name":"West McDowell Road and North 7th Avenue","amenity":"waste_basket","network":"US National Transit Database id is 90032","operator":"Valley Metro Org","public_transport":"platform","public_transport:version":"2","shelter":"yes"}},"type":"Feature"},
	{"geometry":{"coordinates":[-112.082266,33.465722],"type":"Point"},"properties":{"osm_id":"5190132814","tag":{"amenity":"waste_basket"}},"type":"Feature"},
	{"geometry":{"coordinates":[-112.083458,33.465939],"type":"Point"},"properties":{"highway":"bus_stop","name":"11454","osm_id":"5190132815","ref":"11454","tag":{"alt_name":"West McDowell Road and North 7th Avenue","amenity":"waste_basket","network":"US National Transit Database id is 90032","operator":"Valley Metro Org","public_transport":"platform","public_transport:version":"2"}},"type":"Feature"},
	{"geometry":{"coordinates":[-112.083412,33.465941],"type":"Point"},"properties":{"osm_id":"5190132817","tag":{"amenity":"waste_basket"}},"type":"Feature"},
	{"geometry":{"coordinates":[-112.082881,33.469105],"type":"Point"},"properties":{"osm_id":"5190132829","tag":{"amenity":"waste_basket"}},"type":"Feature"},
	{"geometry":{"coordinates":[-112.082643,33.480195],"type":"Point"},"properties":{"osm_id":"5190133005","tag":{"amenity":"waste_basket"}},"type":"Feature"},
	{"geometry":{"coordinates":[-112.082866,33.480678],"type":"Point"},"properties":{"osm_id":"5190133016","tag":{"amenity":"waste_basket"}},"type":"Feature"},
	{"geometry":{"coordinates":[-112.083408,33.480501],"type":"Point"},"properties":{"osm_id":"5190133022","tag":{"amenity":"waste_basket"}},"type":"Feature"},
	{"geometry":{"coordinates":[-112.083132,33.47925],"type":"Point"},"properties":{"osm_id":"5190133040","tag":{"amenity":"waste_basket"}},"type":"Feature"},
	{"geometry":{"coordinates":[-112.082995,33.483976],"type":"Point"},"properties":{"osm_id":"5190158527","tag":{"amenity":"waste_basket"}},"type":"Feature"},
	{"geometry":{"coordinates":[-112.082643,33.469768],"type":"Point"},"properties":{"osm_id":"5190158534","tag":{"amenity":"waste_basket"}},"type":"Feature"},
	{"geometry":{"coordinates":[-112.079789,33.451307],"type":"Point"},"properties":{"osm_id":"5196561920","tag":{"amenity":"waste_basket"}},"type":"Feature"},
	{"geometry":{"coordinates":[-112.073533,33.451525],"type":"Point"},"properties":{"osm_id":"5197114666","tag":{"amenity":"waste_basket"}},"type":"Feature"},
	{"geometry":{"coordinates":[-112.075657,33.451295],"type":"Point"},"properties":{"osm_id":"5197114675","tag":{"amenity":"waste_basket"}},"type":"Feature"},
	{"geometry":{"coordinates":[-112.077356,33.451304],"type":"Point"},"properties":{"osm_id":"5197114680","tag":{"amenity":"waste_basket"}},"type":"Feature"},
	{"geometry":{"coordinates":[-112.078642,33.451515],"type":"Point"},"properties":{"osm_id":"5197114683","tag":{"amenity":"waste_basket"}},"type":"Feature"},
	{"geometry":{"coordinates":[-112.095169,33.451228],"type":"Point"},"properties":{"osm_id":"5204297044","tag":{"amenity":"waste_basket"}},"type":"Feature"},
	{"geometry":{"coordinates":[-112.091716,33.446962],"type":"Point"},"properties":{"osm_id":"5205637051","tag":{"amenity":"waste_basket"}},"type":"Feature"},
	{"geometry":{"coordinates":[-112.090901,33.446953],"type":"Point"},"properties":{"osm_id":"5205637063","tag":{"amenity":"waste_basket"}},"type":"Feature"},
	{"geometry":{"coordinates":[-112.091545,33.448982],"type":"Point"},"properties":{"osm_id":"5205637072","tag":{"amenity":"waste_basket"}},"type":"Feature"},
	{"geometry":{"coordinates":[-112.091184,33.437294],"type":"Point"},"properties":{"osm_id":"5205638535","tag":{"amenity":"waste_basket"}},"type":"Feature"},
	{"geometry":{"coordinates":[-112.09953,33.436642],"type":"Point"},"properties":{"osm_id":"5205638560","tag":{"amenity":"waste_basket"}},"type":"Feature"},
	{"geometry":{"coordinates":[-112.100654,33.436839],"type":"Point"},"properties":{"osm_id":"5205638563","tag":{"amenity":"waste_basket"}},"type":"Feature"},
	{"geometry":{"coordinates":[-112.090814,33.436656],"type":"Point"},"properties":{"osm_id":"5205638593","tag":{"amenity":"waste_basket"}},"type":"Feature"},
	{"geometry":{"coordinates":[-112.091384,33.440031],"type":"Point"},"properties":{"osm_id":"5205638620","tag":{"amenity":"waste_basket"}},"type":"Feature"},
	{"geometry":{"coordinates":[-112.082575,33.501898],"type":"Point"},"properties":{"osm_id":"5213210468","tag":{"amenity":"waste_basket"}},"type":"Feature"},
	{"geometry":{"coordinates":[-112.082316,33.502454],"type":"Point"},"properties":{"osm_id":"5213210476","tag":{"amenity":"waste_basket"}},"type":"Feature"},
	{"geometry":{"coordinates":[-112.09972,33.446892],"type":"Point"},"properties":{"osm_id":"5219902903","tag":{"amenity":"waste_basket"}},"type":"Feature"},
	{"geometry":{"coordinates":[-112.100228,33.447261],"type":"Point"},"properties":{"osm_id":"5219902905","tag":{"amenity":"waste_basket"}},"type":"Feature"},
	{"geometry":{"coordinates":[-112.099998,33.449615],"type":"Point"},"properties":{"osm_id":"5219902911","tag":{"amenity":"waste_basket"}},"type":"Feature"},
	{"geometry":{"coordinates":[-112.07736,33.447053],"type":"Point"},"properties":{"osm_id":"5224154412","tag":{"amenity":"waste_basket"}},"type":"Feature"},
	{"geometry":{"coordinates":[-112.070033,33.465843],"type":"Point"},"properties":{"osm_id":"5231963671","tag":{"amenity":"waste_basket"}},"type":"Feature"},
	{"geometry":{"coordinates":[-112.06897,33.465623],"type":"Point"},"properties":{"osm_id":"5231963679","tag":{"amenity":"waste_basket"}},"type":"Feature"},
	{"geometry":{"coordinates":[-112.067658,33.465835],"type":"Point"},"properties":{"osm_id":"5231963687","tag":{"amenity":"waste_basket"}},"type":"Feature"},
	{"geometry":{"coordinates":[-112.067149,33.465622],"type":"Point"},"properties":{"osm_id":"5231963695","tag":{"amenity":"waste_basket"}},"type":"Feature"},
	{"geometry":{"coordinates":[-112.062407,33.458738],"type":"Point"},"properties":{"osm_id":"5240586187","tag":{"amenity":"waste_basket"}},"type":"Feature"},
	{"geometry":{"coordinates":[-112.061807,33.458614],"type":"Point"},"properties":{"osm_id":"5240586190","tag":{"amenity":"waste_basket"}},"type":"Feature"},
	{"geometry":{"coordinates":[-112.092007,33.465951],"type":"Point"},"properties":{"osm_id":"5374152631","tag":{"amenity":"waste_basket"}},"type":"Feature"},
	{"geometry":{"coordinates":[-112.090691,33.46574],"type":"Point"},"properties":{"osm_id":"5374152664","tag":{"amenity":"waste_basket"}},"type":"Feature"},
	{"geometry":{"coordinates":[-112.091232,33.466143],"type":"Point"},"properties":{"osm_id":"5374152672","tag":{"amenity":"waste_basket"}},"type":"Feature"},
	{"geometry":{"coordinates":[-112.09141,33.465356],"type":"Point"},"properties":{"osm_id":"5374152674","tag":{"amenity":"waste_basket"}},"type":"Feature"},
	{"geometry":{"coordinates":[-112.086519,33.494779],"type":"Point"},"properties":{"osm_id":"5377338504","tag":{"amenity":"waste_basket"}},"type":"Feature"},
	{"geometry":{"coordinates":[-112.090809,33.494807],"type":"Point"},"properties":{"osm_id":"5377338513","tag":{"amenity":"waste_basket"}},"type":"Feature"},
	{"geometry":{"coordinates":[-112.091483,33.494588],"type":"Point"},"properties":{"osm_id":"5377338516","tag":{"amenity":"waste_basket"}},"type":"Feature"},
	{"geometry":{"coordinates":[-112.095257,33.494859],"type":"Point"},"properties":{"osm_id":"5377345226","tag":{"amenity":"waste_basket"}},"type":"Feature"},
	{"geometry":{"coordinates":[-112.095925,33.495137],"type":"Point"},"properties":{"osm_id":"5377345233","tag":{"amenity":"waste_basket"}},"type":"Feature"},
	{"geometry":{"coordinates":[-112.091862,33.495098],"type":"Point"},"properties":{"osm_id":"5377345251","tag":{"amenity":"waste_basket"}},"type":"Feature"},
	{"geometry":{"coordinates":[-112.091147,33.495299],"type":"Point"},"properties":{"osm_id":"5377345253","tag":{"amenity":"waste_basket"}},"type":"Feature"},
	{"geometry":{"coordinates":[-112.091204,33.498966],"type":"Point"},"properties":{"osm_id":"5461302964","tag":{"amenity":"waste_basket"}},"type":"Feature"},
	{"geometry":{"coordinates":[-112.09141,33.501866],"type":"Point"},"properties":{"osm_id":"5461302979","tag":{"amenity":"waste_basket"}},"type":"Feature"},
	{"geometry":{"coordinates":[-112.091175,33.50261],"type":"Point"},"properties":{"osm_id":"5461302986","tag":{"amenity":"waste_basket"}},"type":"Feature"},
	{"geometry":{"coordinates":[-112.073403,33.465595],"type":"Point"},"properties":{"osm_id":"5522801511","tag":{"amenity":"waste_basket"}},"type":"Feature"},
	{"geometry":{"coordinates":[-112.074498,33.465901],"type":"Point"},"properties":{"osm_id":"5522801517","tag":{"amenity":"waste_basket"}},"type":"Feature"},
	{"geometry":{"coordinates":[-112.080515,33.494967],"type":"Point"},"properties":{"osm_id":"5544275980","tag":{"amenity":"waste_basket"}},"type":"Feature"},
	{"geometry":{"coordinates":[-112.103917,33.494903],"type":"Point"},"properties":{"osm_id":"5544276122","tag":{"amenity":"waste_basket"}},"type":"Feature"},
	{"geometry":{"coordinates":[-112.100375,33.495196],"type":"Point"},"properties":{"osm_id":"5544276128","tag":{"amenity":"waste_basket"}},"type":"Feature"},
	{"geometry":{"coordinates":[-112.100097,33.494494],"type":"Point"},"properties":{"osm_id":"5544276133","tag":{"amenity":"waste_basket"}},"type":"Feature"},
	{"geometry":{"coordinates":[-112.098919,33.494881],"type":"Point"},"properties":{"osm_id":"5544276140","tag":{"amenity":"waste_basket"}},"type":"Feature"},
	{"geometry":{"coordinates":[-112.091295,33.473504],"type":"Point"},"properties":{"osm_id":"5547035979","tag":{"amenity":"waste_basket"}},"type":"Feature"},
	{"geometry":{"coordinates":[-112.091302,33.476956],"type":"Point"},"properties":{"osm_id":"5547036015","tag":{"amenity":"waste_basket"}},"type":"Feature"},
	{"geometry":{"coordinates":[-112.091478,33.476517],"type":"Point"},"properties":{"osm_id":"5547036018","tag":{"amenity":"waste_basket"}},"type":"Feature"},
	{"geometry":{"coordinates":[-112.140717,33.465496],"type":"Point"},"properties":{"osm_id":"5551666911","tag":{"amenity":"waste_disposal"}},"type":"Feature"},
	{"geometry":{"coordinates":[-112.140662,33.465049],"type":"Point"},"properties":{"osm_id":"5551666912","tag":{"amenity":"waste_disposal"}},"type":"Feature"},
	{"geometry":{"coordinates":[-112.077844,33.480155],"type":"Point"},"properties":{"osm_id":"5555150822","tag":{"amenity":"waste_basket"}},"type":"Feature"},
	{"geometry":{"coordinates":[-112.07979,33.480178],"type":"Point"},"properties":{"osm_id":"5555150829","tag":{"amenity":"waste_basket"}},"type":"Feature"},
	{"geometry":{"coordinates":[-112.080927,33.480465],"type":"Point"},"properties":{"osm_id":"5555150835","tag":{"amenity":"waste_basket"}},"type":"Feature"},
	{"geometry":{"coordinates":[-112.075545,33.480404],"type":"Point"},"properties":{"osm_id":"5555150848","tag":{"amenity":"waste_basket"}},"type":"Feature"},
	{"geometry":{"coordinates":[-112.073569,33.480797],"type":"Point"},"properties":{"osm_id":"5555150856","tag":{"amenity":"waste_basket"}},"type":"Feature"},
	{"geometry":{"coordinates":[-112.073977,33.479906],"type":"Point"},"properties":{"osm_id":"5555150862","tag":{"amenity":"waste_basket"}},"type":"Feature"},
	{"geometry":{"coordinates":[-112.074388,33.480403],"type":"Point"},"properties":{"osm_id":"5555150872","tag":{"amenity":"waste_basket"}},"type":"Feature"},
	{"geometry":{"coordinates":[-112.07281,33.48008],"type":"Point"},"properties":{"osm_id":"5555150875","tag":{"amenity":"waste_basket"}},"type":"Feature"},
	{"geometry":{"coordinates":[-112.072865,33.480081],"type":"Point"},"properties":{"osm_id":"5555150876","tag":{"amenity":"waste_basket"}},"type":"Feature"},
	{"geometry":{"coordinates":[-112.100117,33.476607],"type":"Point"},"properties":{"osm_id":"5562178732","tag":{"amenity":"waste_basket"}},"type":"Feature"},
	{"geometry":{"coordinates":[-112.099862,33.473732],"type":"Point"},"properties":{"osm_id":"5562178743","tag":{"amenity":"waste_basket"}},"type":"Feature"},
	{"geometry":{"coordinates":[-112.100112,33.472775],"type":"Point"},"properties":{"osm_id":"5562178745","tag":{"amenity":"waste_basket"}},"type":"Feature"},
	{"geometry":{"coordinates":[-112.099835,33.471343],"type":"Point"},"properties":{"osm_id":"5563943381","tag":{"amenity":"waste_basket"}},"type":"Feature"},
	{"geometry":{"coordinates":[-112.101325,33.46599],"type":"Point"},"properties":{"osm_id":"5563943400","tag":{"amenity":"waste_basket"}},"type":"Feature"},
	{"geometry":{"coordinates":[-112.099822,33.466698],"type":"Point"},"properties":{"osm_id":"5563943414","tag":{"amenity":"waste_basket"}},"type":"Feature"},
	{"geometry":{"coordinates":[-112.10018,33.465204],"type":"Point"},"properties":{"osm_id":"5563943416","tag":{"amenity":"waste_basket"}},"type":"Feature"},
	{"geometry":{"coordinates":[-112.082165,33.451301],"type":"Point"},"properties":{"osm_id":"5566908172","tag":{"amenity":"waste_basket"}},"type":"Feature"},
	{"geometry":{"coordinates":[-112.083407,33.451497],"type":"Point"},"properties":{"osm_id":"5566908176","tag":{"amenity":"waste_basket"}},"type":"Feature"},
	{"geometry":{"coordinates":[-112.091178,33.451732],"type":"Point"},"properties":{"osm_id":"5566908180","tag":{"amenity":"waste_basket"}},"type":"Feature"},
	{"geometry":{"coordinates":[-112.088886,33.451471],"type":"Point"},"properties":{"osm_id":"5568642627","tag":{"amenity":"waste_basket"}},"type":"Feature"},
	{"geometry":{"coordinates":[-112.086723,33.451478],"type":"Point"},"properties":{"osm_id":"5568642635","tag":{"amenity":"waste_basket"}},"type":"Feature"},
	{"geometry":{"coordinates":[-112.085623,33.451289],"type":"Point"},"properties":{"osm_id":"5568642652","tag":{"amenity":"waste_basket"}},"type":"Feature"},
	{"geometry":{"coordinates":[-112.088977,33.451268],"type":"Point"},"properties":{"osm_id":"5568642659","tag":{"amenity":"waste_basket"}},"type":"Feature"},
	{"geometry":{"coordinates":[-112.100062,33.491059],"type":"Point"},"properties":{"osm_id":"5569648228","tag":{"amenity":"waste_basket"}},"type":"Feature"},
	{"geometry":{"coordinates":[-112.100103,33.483939],"type":"Point"},"properties":{"osm_id":"5569648243","tag":{"amenity":"waste_basket"}},"type":"Feature"},
	{"geometry":{"coordinates":[-112.100155,33.480292],"type":"Point"},"properties":{"osm_id":"5569648254","tag":{"amenity":"waste_basket"}},"type":"Feature"},
	{"geometry":{"coordinates":[-112.099835,33.480979],"type":"Point"},"properties":{"osm_id":"5569648261","tag":{"amenity":"waste_basket"}},"type":"Feature"},
	{"geometry":{"coordinates":[-112.099575,33.480479],"type":"Point"},"properties":{"osm_id":"5569648268","tag":{"amenity":"waste_basket"}},"type":"Feature"},
	{"geometry":{"coordinates":[-112.100421,33.480763],"type":"Point"},"properties":{"osm_id":"5569648270","tag":{"amenity":"waste_basket"}},"type":"Feature"},
	{"geometry":{"coordinates":[-112.100041,33.502063],"type":"Point"},"properties":{"osm_id":"5570070199","tag":{"amenity":"waste_basket"}},"type":"Feature"},
	{"geometry":{"coordinates":[-112.091262,33.481071],"type":"Point"},"properties":{"osm_id":"5582622711","tag":{"amenity":"waste_basket"}},"type":"Feature"},
	{"geometry":{"coordinates":[-112.09106,33.480322],"type":"Point"},"properties":{"osm_id":"5582622719","tag":{"amenity":"waste_basket"}},"type":"Feature"},
	{"geometry":{"coordinates":[-112.091746,33.480635],"type":"Point"},"properties":{"osm_id":"5582622822","tag":{"amenity":"waste_basket"}},"type":"Feature"},
	{"geometry":{"coordinates":[-112.091499,33.479922],"type":"Point"},"properties":{"osm_id":"5582622828","tag":{"amenity":"waste_basket"}},"type":"Feature"},
	{"geometry":{"coordinates":[-112.086683,33.480289],"type":"Point"},"properties":{"osm_id":"5595726350","tag":{"amenity":"waste_basket"}},"type":"Feature"},
	{"geometry":{"coordinates":[-112.09619,33.480628],"type":"Point"},"properties":{"osm_id":"5595726354","tag":{"amenity":"waste_basket"}},"type":"Feature"},
	{"geometry":{"coordinates":[-112.095301,33.480401],"type":"Point"},"properties":{"osm_id":"5595726391","tag":{"amenity":"waste_basket"}},"type":"Feature"},
	{"geometry":{"coordinates":[-112.105446,33.480777],"type":"Point"},"properties":{"osm_id":"5606282254","tag":{"amenity":"waste_basket"}},"type":"Feature"},
	{"geometry":{"coordinates":[-112.104392,33.480553],"type":"Point"},"properties":{"osm_id":"5606282260","tag":{"amenity":"waste_basket"}},"type":"Feature"},
	{"geometry":{"coordinates":[-112.108962,33.480791],"type":"Point"},"properties":{"osm_id":"5606282292","tag":{"amenity":"waste_basket"}},"type":"Feature"},
	{"geometry":{"coordinates":[-112.108874,33.480574],"type":"Point"},"properties":{"osm_id":"5606282294","tag":{"amenity":"waste_basket"}},"type":"Feature"},
	{"geometry":{"coordinates":[-112.118464,33.480542],"type":"Point"},"properties":{"osm_id":"5610776636","tag":{"amenity":"waste_basket"}},"type":"Feature"},
	{"geometry":{"coordinates":[-112.116322,33.480278],"type":"Point"},"properties":{"osm_id":"5610776641","tag":{"amenity":"waste_basket"}},"type":"Feature"},
	{"geometry":{"coordinates":[-112.117192,33.47986],"type":"Point"},"properties":{"osm_id":"5610776648","tag":{"amenity":"waste_basket"}},"type":"Feature"},
	{"geometry":{"coordinates":[-112.087496,33.480521],"type":"Point"},"properties":{"osm_id":"5610776659","tag":{"amenity":"waste_basket"}},"type":"Feature"},
	{"geometry":{"coordinates":[-112.06136,33.494836],"type":"Point"},"properties":{"osm_id":"5629042380","tag":{"amenity":"waste_basket"}},"type":"Feature"},
	{"geometry":{"coordinates":[-112.060631,33.494614],"type":"Point"},"properties":{"osm_id":"5629042386","tag":{"amenity":"waste_basket"}},"type":"Feature"},
	{"geometry":{"coordinates":[-112.067789,33.494879],"type":"Point"},"properties":{"osm_id":"5629042401","tag":{"amenity":"waste_basket"}},"type":"Feature"},
	{"geometry":{"coordinates":[-112.069046,33.494665],"type":"Point"},"properties":{"osm_id":"5629042407","tag":{"amenity":"waste_basket"}},"type":"Feature"},
	{"geometry":{"coordinates":[-112.070022,33.494915],"type":"Point"},"properties":{"osm_id":"5629042415","tag":{"amenity":"waste_basket"}},"type":"Feature"},
	{"geometry":{"coordinates":[-112.073572,33.495332],"type":"Point"},"properties":{"osm_id":"5629042416","tag":{"amenity":"waste_basket"}},"type":"Feature"},
	{"geometry":{"coordinates":[-112.074807,33.494974],"type":"Point"},"properties":{"osm_id":"5629043123","tag":{"amenity":"waste_basket"}},"type":"Feature"},
	{"geometry":{"coordinates":[-112.117083,33.462844],"type":"Point"},"properties":{"osm_id":"5634504249","tag":{"amenity":"waste_basket"}},"type":"Feature"},
	{"geometry":{"coordinates":[-112.122266,33.466058],"type":"Point"},"properties":{"osm_id":"5634504275","tag":{"amenity":"waste_basket"}},"type":"Feature"},
	{"geometry":{"coordinates":[-112.116988,33.466333],"type":"Point"},"properties":{"osm_id":"5634504276","tag":{"amenity":"waste_basket"}},"type":"Feature"},
	{"geometry":{"coordinates":[-112.116478,33.465841],"type":"Point"},"properties":{"osm_id":"5634504284","tag":{"amenity":"waste_basket"}},"type":"Feature"},
	{"geometry":{"coordinates":[-112.117589,33.466062],"type":"Point"},"properties":{"osm_id":"5634504290","tag":{"amenity":"waste_basket"}},"type":"Feature"},
	{"geometry":{"coordinates":[-112.117291,33.465217],"type":"Point"},"properties":{"osm_id":"5634504296","tag":{"amenity":"waste_basket"}},"type":"Feature"},
	{"geometry":{"coordinates":[-112.105027,33.451333],"type":"Point"},"properties":{"osm_id":"5634504309","tag":{"amenity":"waste_basket"}},"type":"Feature"},
	{"geometry":{"coordinates":[-112.10402,33.451112],"type":"Point"},"properties":{"osm_id":"5634504312","tag":{"amenity":"waste_basket"}},"type":"Feature"},
	{"geometry":{"coordinates":[-112.108413,33.46577],"type":"Point"},"properties":{"osm_id":"5634504430","tag":{"amenity":"waste_basket"}},"type":"Feature"},
	{"geometry":{"coordinates":[-112.070865,33.465622],"type":"Point"},"properties":{"osm_id":"5636686388","tag":{"amenity":"waste_basket"}},"type":"Feature"},
	{"geometry":{"coordinates":[-112.073637,33.466146],"type":"Point"},"properties":{"osm_id":"5636686395","tag":{"amenity":"waste_basket"}},"type":"Feature"},
	{"geometry":{"coordinates":[-112.073993,33.4652],"type":"Point"},"properties":{"osm_id":"5636686399","tag":{"amenity":"waste_basket"}},"type":"Feature"},
	{"geometry":{"coordinates":[-112.073391,33.465595],"type":"Point"},"properties":{"osm_id":"5636686400","tag":{"amenity":"waste_basket"}},"type":"Feature"},
	{"geometry":{"coordinates":[-112.07864,33.465896],"type":"Point"},"properties":{"osm_id":"5636686405","tag":{"amenity":"waste_basket"}},"type":"Feature"},
	{"geometry":{"coordinates":[-112.077592,33.465672],"type":"Point"},"properties":{"osm_id":"5636686407","tag":{"amenity":"waste_basket"}},"type":"Feature"},
	{"geometry":{"coordinates":[-112.080443,33.465936],"type":"Point"},"properties":{"osm_id":"5636687527","tag":{"amenity":"waste_basket"}},"type":"Feature"},
	{"geometry":{"coordinates":[-112.086621,33.465733],"type":"Point"},"properties":{"osm_id":"5636687543","tag":{"amenity":"waste_basket"}},"type":"Feature"},
	{"geometry":{"coordinates":[-112.087397,33.465946],"type":"Point"},"properties":{"osm_id":"5636687548","tag":{"amenity":"waste_basket"}},"type":"Feature"},
	{"geometry":{"coordinates":[-112.095226,33.465746],"type":"Point"},"properties":{"osm_id":"5636687561","tag":{"amenity":"waste_basket"}},"type":"Feature"},
	{"geometry":{"coordinates":[-112.116877,33.480978],"type":"Point"},"properties":{"osm_id":"5638904768","tag":{"amenity":"waste_basket"}},"type":"Feature"},
	{"geometry":{"coordinates":[-112.116935,33.490955],"type":"Point"},"properties":{"osm_id":"5638904775","tag":{"amenity":"waste_basket"}},"type":"Feature"},
	{"geometry":{"coordinates":[-112.117245,33.494453],"type":"Point"},"properties":{"osm_id":"5638904783","tag":{"amenity":"waste_basket"}},"type":"Feature"},
	{"geometry":{"coordinates":[-112.11665,33.494756],"type":"Point"},"properties":{"osm_id":"5638904789","tag":{"amenity":"waste_basket"}},"type":"Feature"},
	{"geometry":{"coordinates":[-112.117484,33.495147],"type":"Point"},"properties":{"osm_id":"5638904799","tag":{"amenity":"waste_basket"}},"type":"Feature"},
	{"geometry":{"coordinates":[-112.116889,33.495382],"type":"Point"},"properties":{"osm_id":"5638904806","tag":{"amenity":"waste_basket"}},"type":"Feature"},
	{"geometry":{"coordinates":[-112.117178,33.498202],"type":"Point"},"properties":{"osm_id":"5638904815","tag":{"amenity":"waste_basket"}},"type":"Feature"},
	{"geometry":{"coordinates":[-112.11691,33.498905],"type":"Point"},"properties":{"osm_id":"5638905822","tag":{"amenity":"waste_basket"}},"type":"Feature"},
	{"geometry":{"coordinates":[-112.11716,33.501858],"type":"Point"},"properties":{"osm_id":"5638905828","tag":{"amenity":"waste_basket"}},"type":"Feature"},
	{"geometry":{"coordinates":[-112.116892,33.502798],"type":"Point"},"properties":{"osm_id":"5638905830","tag":{"amenity":"waste_basket"}},"type":"Feature"},
	{"geometry":{"coordinates":[-112.107632,33.494903],"type":"Point"},"properties":{"osm_id":"5680876105","tag":{"amenity":"waste_basket"}},"type":"Feature"},
	{"geometry":{"coordinates":[-112.108963,33.49517],"type":"Point"},"properties":{"osm_id":"5680876110","tag":{"amenity":"waste_basket"}},"type":"Feature"},
	{"geometry":{"coordinates":[-112.095369,33.446916],"type":"Point"},"properties":{"osm_id":"5695642381","tag":{"amenity":"waste_basket"}},"type":"Feature"},
	{"geometry":{"coordinates":[-112.061185,33.465844],"type":"Point"},"properties":{"osm_id":"5695973701","tag":{"amenity":"waste_basket"}},"type":"Feature"},
	{"geometry":{"coordinates":[-112.06277,33.465584],"type":"Point"},"properties":{"osm_id":"5695974855","tag":{"amenity":"waste_basket"}},"type":"Feature"},
	{"geometry":{"coordinates":[-112.098246,33.466008],"type":"Point"},"properties":{"osm_id":"5698701032","tag":{"amenity":"waste_basket"}},"type":"Feature"},
	{"geometry":{"coordinates":[-112.091138,33.433355],"type":"Point"},"properties":{"osm_id":"5699720555","tag":{"amenity":"waste_basket"}},"type":"Feature"},
	{"geometry":{"coordinates":[-112.091472,33.483724],"type":"Point"},"properties":{"osm_id":"5702745790","tag":{"amenity":"waste_basket"}},"type":"Feature"},
	{"geometry":{"coordinates":[-112.091256,33.483901],"type":"Point"},"properties":{"osm_id":"5702745794","tag":{"amenity":"waste_basket"}},"type":"Feature"},
	{"geometry":{"coordinates":[-112.091484,33.487345],"type":"Point"},"properties":{"osm_id":"5702745805","tag":{"amenity":"waste_basket"}},"type":"Feature"},
	{"geometry":{"coordinates":[-112.091244,33.488195],"type":"Point"},"properties":{"osm_id":"5702745812","tag":{"amenity":"waste_basket"}},"type":"Feature"},
	{"geometry":{"coordinates":[-112.091295,33.469587],"type":"Point"},"properties":{"osm_id":"5702745820","tag":{"amenity":"waste_basket"}},"type":"Feature"},
	{"geometry":{"coordinates":[-112.091233,33.491706],"type":"Point"},"properties":{"osm_id":"5703891953","tag":{"amenity":"waste_basket"}},"type":"Feature"},
	{"geometry":{"coordinates":[-112.091457,33.490822],"type":"Point"},"properties":{"osm_id":"5703891958","tag":{"amenity":"waste_basket"}},"type":"Feature"},
	{"geometry":{"coordinates":[-112.08046,33.451519],"type":"Point"},"properties":{"osm_id":"5755229095","tag":{"amenity":"waste_basket"}},"type":"Feature"},
	{"geometry":{"coordinates":[-112.06154,33.451258],"type":"Point"},"properties":{"osm_id":"5755229101","tag":{"amenity":"waste_basket"}},"type":"Feature"},
	{"geometry":{"coordinates":[-112.062579,33.451454],"type":"Point"},"properties":{"osm_id":"5755229104","tag":{"amenity":"waste_basket"}},"type":"Feature"},
	{"geometry":{"coordinates":[-112.099807,33.432386],"type":"Point"},"properties":{"osm_id":"5755229184","tag":{"amenity":"waste_basket"}},"type":"Feature"},
	{"geometry":{"coordinates":[-112.100057,33.431798],"type":"Point"},"properties":{"osm_id":"5755229186","tag":{"amenity":"waste_basket"}},"type":"Feature"},
	{"geometry":{"coordinates":[-112.125458,33.451224],"type":"Point"},"properties":{"osm_id":"5859503913","tag":{"amenity":"waste_basket"}},"type":"Feature"},
	{"geometry":{"coordinates":[-112.126759,33.451456],"type":"Point"},"properties":{"osm_id":"5859503914","tag":{"amenity":"waste_basket"}},"type":"Feature"},
	{"geometry":{"coordinates":[-112.121735,33.451107],"type":"Point"},"properties":{"osm_id":"5859503931","tag":{"amenity":"waste_basket"}},"type":"Feature"},
	{"geometry":{"coordinates":[-112.122388,33.451345],"type":"Point"},"properties":{"osm_id":"5859503933","tag":{"amenity":"waste_basket"}},"type":"Feature"},
	{"geometry":{"coordinates":[-112.112792,33.451053],"type":"Point"},"properties":{"osm_id":"5859858698","tag":{"amenity":"waste_basket"}},"type":"Feature"},
	{"geometry":{"coordinates":[-112.113552,33.451258],"type":"Point"},"properties":{"osm_id":"5859858703","tag":{"amenity":"waste_basket"}},"type":"Feature"},
	{"geometry":{"coordinates":[-112.117398,33.451671],"type":"Point"},"properties":{"osm_id":"5859858732","tag":{"amenity":"waste_basket"}},"type":"Feature"},
	{"geometry":{"coordinates":[-112.117659,33.450554],"type":"Point"},"properties":{"osm_id":"5859858738","tag":{"amenity":"waste_basket"}},"type":"Feature"},
	{"geometry":{"coordinates":[-112.116888,33.450972],"type":"Point"},"properties":{"osm_id":"5859858739","tag":{"amenity":"waste_basket"}},"type":"Feature"},
	{"geometry":{"coordinates":[-112.116876,33.450972],"type":"Point"},"properties":{"osm_id":"5859858745","tag":{"amenity":"waste_basket"}},"type":"Feature"},
	{"geometry":{"coordinates":[-112.118161,33.451218],"type":"Point"},"properties":{"osm_id":"5859858751","tag":{"amenity":"waste_basket"}},"type":"Feature"},
	{"geometry":{"coordinates":[-112.08635,33.448298],"type":"Point"},"properties":{"osm_id":"5861035970","tag":{"amenity":"waste_basket"}},"type":"Feature"},
	{"geometry":{"coordinates":[-112.098602,33.449322],"type":"Point"},"properties":{"osm_id":"5861035977","tag":{"amenity":"waste_basket"}},"type":"Feature"},
	{"geometry":{"coordinates":[-112.097942,33.446891],"type":"Point"},"properties":{"osm_id":"5923092784","tag":{"amenity":"waste_basket"}},"type":"Feature"},
	{"geometry":{"coordinates":[-112.096556,33.449334],"type":"Point"},"properties":{"osm_id":"5931183421","tag":{"amenity":"waste_basket"}},"type":"Feature"},
	{"geometry":{"coordinates":[-112.073637,33.488242],"type":"Point"},"properties":{"osm_id":"6170861371","tag":{"amenity":"waste_basket"}},"type":"Feature"},
	{"geometry":{"coordinates":[-112.073641,33.49018],"type":"Point"},"properties":{"osm_id":"6170861381","tag":{"amenity":"waste_basket"}},"type":"Feature"},
	{"geometry":{"coordinates":[-112.142111,33.495097],"type":"Point"},"properties":{"osm_id":"6180989617","tag":{"amenity":"waste_basket"}},"type":"Feature"},
	{"geometry":{"coordinates":[-112.117198,33.437226],"type":"Point"},"properties":{"osm_id":"6287382970","tag":{"amenity":"waste_basket"}},"type":"Feature"},
	{"geometry":{"coordinates":[-112.116708,33.436676],"type":"Point"},"properties":{"osm_id":"6287382976","tag":{"amenity":"waste_basket"}},"type":"Feature"},
	{"geometry":{"coordinates":[-112.117939,33.436953],"type":"Point"},"properties":{"osm_id":"6287382977","tag":{"amenity":"waste_basket"}},"type":"Feature"},
	{"geometry":{"coordinates":[-112.1172,33.459043],"type":"Point"},"properties":{"osm_id":"6292478126","tag":{"amenity":"waste_basket"}},"type":"Feature"},
	{"geometry":{"coordinates":[-112.117471,33.4583],"type":"Point"},"properties":{"osm_id":"6292478128","tag":{"amenity":"waste_basket"}},"type":"Feature"},
	{"geometry":{"coordinates":[-112.082771,33.456547],"type":"Point"},"properties":{"osm_id":"6333170395","tag":{"amenity":"waste_basket"}},"type":"Feature"},
	{"geometry":{"coordinates":[-112.138139,33.500324],"type":"Point"},"properties":{"osm_id":"6369088034","tag":{"amenity":"waste_disposal"}},"type":"Feature"},
	{"geometry":{"coordinates":[-112.138118,33.499283],"type":"Point"},"properties":{"osm_id":"6369088035","tag":{"amenity":"waste_disposal"}},"type":"Feature"},
	{"geometry":{"coordinates":[-112.137128,33.499278],"type":"Point"},"properties":{"osm_id":"6369088036","tag":{"amenity":"waste_disposal"}},"type":"Feature"},
	{"geometry":{"coordinates":[-112.136288,33.499265],"type":"Point"},"properties":{"osm_id":"6369088037","tag":{"amenity":"waste_disposal"}},"type":"Feature"},
	{"geometry":{"coordinates":[-112.135769,33.499663],"type":"Point"},"properties":{"osm_id":"6369088038","tag":{"amenity":"waste_disposal"}},"type":"Feature"},
	{"geometry":{"coordinates":[-112.136115,33.500602],"type":"Point"},"properties":{"osm_id":"6369088039","tag":{"amenity":"waste_disposal"}},"type":"Feature"},
	{"geometry":{"coordinates":[-112.065728,33.485251],"type":"Point"},"properties":{"osm_id":"6632476419","tag":{"amenity":"waste_disposal"}},"type":"Feature"},
	{"geometry":{"coordinates":[-112.070499,33.48451],"type":"Point"},"properties":{"osm_id":"6632476436","tag":{"amenity":"waste_disposal"}},"type":"Feature"},
	{"geometry":{"coordinates":[-112.070466,33.484487],"type":"Point"},"properties":{"osm_id":"6632476437","tag":{"amenity":"waste_disposal"}},"type":"Feature"},
	{"geometry":{"coordinates":[-112.070438,33.484464],"type":"Point"},"properties":{"osm_id":"6632476438","tag":{"amenity":"waste_disposal"}},"type":"Feature"},
	{"geometry":{"coordinates":[-112.067876,33.482694],"type":"Point"},"properties":{"osm_id":"6632476459","tag":{"amenity":"waste_disposal"}},"type":"Feature"},
	{"geometry":{"coordinates":[-112.067932,33.482685],"type":"Point"},"properties":{"osm_id":"6632476460","tag":{"amenity":"waste_disposal"}},"type":"Feature"},
	{"geometry":{"coordinates":[-112.066978,33.475724],"type":"Point"},"properties":{"osm_id":"6639521722","tag":{"amenity":"waste_disposal"}},"type":"Feature"},
	{"geometry":{"coordinates":[-112.066949,33.475746],"type":"Point"},"properties":{"osm_id":"6639521723","tag":{"amenity":"waste_disposal"}},"type":"Feature"},
	{"geometry":{"coordinates":[-112.066094,33.475828],"type":"Point"},"properties":{"osm_id":"6639521724","tag":{"amenity":"waste_disposal"}},"type":"Feature"},
	{"geometry":{"coordinates":[-112.128812,33.495637],"type":"Point"},"properties":{"osm_id":"6669421921","tag":{"amenity":"waste_disposal"}},"type":"Feature"},
	{"geometry":{"coordinates":[-112.129477,33.495675],"type":"Point"},"properties":{"osm_id":"6669421927","tag":{"amenity":"waste_disposal"}},"type":"Feature"},
	{"geometry":{"coordinates":[-112.129279,33.49584],"type":"Point"},"properties":{"osm_id":"6669421928","tag":{"amenity":"waste_disposal"}},"type":"Feature"},
	{"geometry":{"coordinates":[-112.129543,33.495674],"type":"Point"},"properties":{"osm_id":"6669421929","tag":{"amenity":"waste_disposal"}},"type":"Feature"},
	{"geometry":{"coordinates":[-112.129602,33.495675],"type":"Point"},"properties":{"osm_id":"6669421930","tag":{"amenity":"waste_disposal"}},"type":"Feature"},
	{"geometry":{"coordinates":[-112.127769,33.494398],"type":"Point"},"properties":{"osm_id":"6669421932","tag":{"amenity":"waste_disposal"}},"type":"Feature"},
	{"geometry":{"coordinates":[-112.127147,33.494092],"type":"Point"},"properties":{"osm_id":"6669421934","tag":{"amenity":"waste_disposal"}},"type":"Feature"},
	{"geometry":{"coordinates":[-112.068781,33.480119],"type":"Point"},"properties":{"osm_id":"6710217824","tag":{"amenity":"waste_basket"}},"type":"Feature"},
	{"geometry":{"coordinates":[-112.070002,33.480348],"type":"Point"},"properties":{"osm_id":"6710217829","tag":{"amenity":"waste_basket"}},"type":"Feature"},
	{"geometry":{"coordinates":[-112.06343,33.4665],"type":"Point"},"properties":{"osm_id":"6714923044","tag":{"amenity":"waste_disposal"}},"type":"Feature"},
	{"geometry":{"coordinates":[-112.065728,33.480593],"type":"Point"},"properties":{"osm_id":"6737220882","tag":{"amenity":"waste_disposal"}},"type":"Feature"},
	{"geometry":{"coordinates":[-112.065757,33.480594],"type":"Point"},"properties":{"osm_id":"6737220883","tag":{"amenity":"waste_disposal"}},"type":"Feature"},
	{"geometry":{"coordinates":[-112.068767,33.479889],"type":"Point"},"properties":{"osm_id":"6737220945","tag":{"amenity":"waste_disposal"}},"type":"Feature"},
	{"geometry":{"coordinates":[-112.062088,33.495385],"type":"Point"},"properties":{"osm_id":"6737285209","tag":{"amenity":"waste_disposal"}},"type":"Feature"},
	{"geometry":{"coordinates":[-112.061351,33.495264],"type":"Point"},"properties":{"osm_id":"6737285210","tag":{"amenity":"waste_disposal"}},"type":"Feature"},
	{"geometry":{"coordinates":[-112.064096,33.493966],"type":"Point"},"properties":{"osm_id":"6737285219","tag":{"amenity":"waste_disposal"}},"type":"Feature"},
	{"geometry":{"coordinates":[-112.11217,33.465792],"type":"Point"},"properties":{"osm_id":"6751332882","tag":{"amenity":"waste_basket"}},"type":"Feature"},
	{"geometry":{"coordinates":[-112.12094,33.465843],"type":"Point"},"properties":{"osm_id":"6751338926","tag":{"amenity":"waste_basket"}},"type":"Feature"},
	{"geometry":{"coordinates":[-112.125415,33.465847],"type":"Point"},"properties":{"osm_id":"6751338933","tag":{"amenity":"waste_basket"}},"type":"Feature"},
	{"geometry":{"coordinates":[-112.126255,33.46606],"type":"Point"},"properties":{"osm_id":"6751338934","tag":{"amenity":"waste_basket"}},"type":"Feature"},
	{"geometry":{"coordinates":[-112.128532,33.466063],"type":"Point"},"properties":{"osm_id":"6751338941","tag":{"amenity":"waste_basket"}},"type":"Feature"},
	{"geometry":{"coordinates":[-112.129036,33.465849],"type":"Point"},"properties":{"osm_id":"6751338946","tag":{"amenity":"waste_basket"}},"type":"Feature"},
	{"geometry":{"coordinates":[-112.108842,33.434589],"type":"Point"},"properties":{"osm_id":"6831902603","tag":{"amenity":"waste_disposal"}},"type":"Feature"},
	{"geometry":{"coordinates":[-112.117696,33.495361],"type":"Point"},"properties":{"osm_id":"6978056693","tag":{"amenity":"waste_disposal"}},"type":"Feature"},
	{"geometry":{"coordinates":[-112.08236,33.481767],"type":"Point"},"properties":{"osm_id":"7023040409","tag":{"amenity":"waste_disposal"}},"type":"Feature"},
	{"geometry":{"coordinates":[-112.083584,33.480737],"type":"Point"},"properties":{"osm_id":"7023040410","tag":{"amenity":"waste_disposal"}},"type":"Feature"},
	{"geometry":{"coordinates":[-112.083586,33.480721],"type":"Point"},"properties":{"osm_id":"7023040411","tag":{"amenity":"waste_disposal"}},"type":"Feature"},
	{"geometry":{"coordinates":[-112.082196,33.479818],"type":"Point"},"properties":{"osm_id":"7023040412","tag":{"amenity":"waste_disposal"}},"type":"Feature"},
	{"geometry":{"coordinates":[-112.082169,33.479803],"type":"Point"},"properties":{"osm_id":"7023040413","tag":{"amenity":"waste_disposal"}},"type":"Feature"},
	{"geometry":{"coordinates":[-112.082235,33.466369],"type":"Point"},"properties":{"osm_id":"7023040423","tag":{"amenity":"waste_disposal"}},"type":"Feature"},
	{"geometry":{"coordinates":[-112.082964,33.466309],"type":"Point"},"properties":{"osm_id":"7023040424","tag":{"amenity":"waste_disposal"}},"type":"Feature"},
	{"geometry":{"coordinates":[-112.081336,33.466259],"type":"Point"},"properties":{"osm_id":"7023040425","tag":{"amenity":"waste_disposal"}},"type":"Feature"},
	{"geometry":{"coordinates":[-112.079886,33.466223],"type":"Point"},"properties":{"osm_id":"7023040426","tag":{"amenity":"waste_disposal"}},"type":"Feature"},
	{"geometry":{"coordinates":[-112.090159,33.448821],"type":"Point"},"properties":{"osm_id":"7023054951","tag":{"amenity":"waste_disposal"}},"type":"Feature"},
	{"geometry":{"coordinates":[-112.090137,33.448822],"type":"Point"},"properties":{"osm_id":"7023054952","tag":{"amenity":"waste_disposal"}},"type":"Feature"},
	{"geometry":{"coordinates":[-112.089854,33.451781],"type":"Point"},"properties":{"osm_id":"7023054953","tag":{"amenity":"waste_disposal"}},"type":"Feature"},
	{"geometry":{"coordinates":[-112.089832,33.451777],"type":"Point"},"properties":{"osm_id":"7023054954","tag":{"amenity":"waste_disposal"}},"type":"Feature"},
	{"geometry":{"coordinates":[-112.088939,33.451799],"type":"Point"},"properties":{"osm_id":"7023054961","tag":{"amenity":"waste_disposal"}},"type":"Feature"},
	{"geometry":{"coordinates":[-112.088963,33.451798],"type":"Point"},"properties":{"osm_id":"7023054962","tag":{"amenity":"waste_disposal"}},"type":"Feature"},
	{"geometry":{"coordinates":[-112.088843,33.452722],"type":"Point"},"properties":{"osm_id":"7023054963","tag":{"amenity":"waste_disposal"}},"type":"Feature"},
	{"geometry":{"coordinates":[-112.088839,33.452704],"type":"Point"},"properties":{"osm_id":"7023054964","tag":{"amenity":"waste_disposal"}},"type":"Feature"},
	{"geometry":{"coordinates":[-112.099362,33.435969],"type":"Point"},"properties":{"osm_id":"7023090985","tag":{"amenity":"waste_disposal"}},"type":"Feature"},
	{"geometry":{"coordinates":[-112.094189,33.435867],"type":"Point"},"properties":{"osm_id":"7023090987","tag":{"amenity":"waste_disposal"}},"type":"Feature"},
	{"geometry":{"coordinates":[-112.094194,33.435821],"type":"Point"},"properties":{"osm_id":"7023090988","tag":{"amenity":"waste_disposal"}},"type":"Feature"},
	{"geometry":{"coordinates":[-112.085482,33.437351],"type":"Point"},"properties":{"osm_id":"7023090990","tag":{"amenity":"waste_disposal"}},"type":"Feature"},
	{"geometry":{"coordinates":[-112.086098,33.437345],"type":"Point"},"properties":{"osm_id":"7023090991","tag":{"amenity":"waste_disposal"}},"type":"Feature"},
	{"geometry":{"coordinates":[-112.085362,33.437749],"type":"Point"},"properties":{"osm_id":"7023090999","tag":{"amenity":"waste_disposal"}},"type":"Feature"},
	{"geometry":{"coordinates":[-112.086158,33.437751],"type":"Point"},"properties":{"osm_id":"7023091004","tag":{"amenity":"waste_disposal"}},"type":"Feature"},
	{"geometry":{"coordinates":[-112.08789,33.438254],"type":"Point"},"properties":{"osm_id":"7023091008","tag":{"amenity":"waste_disposal"}},"type":"Feature"},
	{"geometry":{"coordinates":[-112.087928,33.43826],"type":"Point"},"properties":{"osm_id":"7023091009","tag":{"amenity":"waste_disposal"}},"type":"Feature"},
	{"geometry":{"coordinates":[-112.089866,33.438246],"type":"Point"},"properties":{"osm_id":"7023091010","tag":{"amenity":"waste_disposal"}},"type":"Feature"},
	{"geometry":{"coordinates":[-112.089828,33.438251],"type":"Point"},"properties":{"osm_id":"7023091011","tag":{"amenity":"waste_disposal"}},"type":"Feature"},
	{"geometry":{"coordinates":[-112.126147,33.459086],"type":"Point"},"properties":{"osm_id":"7154856263","tag":{"amenity":"waste_disposal"}},"type":"Feature"},
	{"geometry":{"coordinates":[-112.13218,33.47531],"type":"Point"},"properties":{"osm_id":"7155758507","tag":{"amenity":"waste_disposal"}},"type":"Feature"},
	{"geometry":{"coordinates":[-112.132178,33.475276],"type":"Point"},"properties":{"osm_id":"7155758508","tag":{"amenity":"waste_disposal"}},"type":"Feature"},
	{"geometry":{"coordinates":[-112.133518,33.475994],"type":"Point"},"properties":{"osm_id":"7155758512","tag":{"amenity":"waste_disposal"}},"type":"Feature"},
	{"geometry":{"coordinates":[-112.133536,33.47588],"type":"Point"},"properties":{"osm_id":"7155758513","tag":{"amenity":"waste_disposal"}},"type":"Feature"},
	{"geometry":{"coordinates":[-112.133692,33.475998],"type":"Point"},"properties":{"osm_id":"7155758514","tag":{"amenity":"waste_disposal"}},"type":"Feature"},
	{"geometry":{"coordinates":[-112.132471,33.476624],"type":"Point"},"properties":{"osm_id":"7155758515","tag":{"amenity":"waste_disposal"}},"type":"Feature"},
	{"geometry":{"coordinates":[-112.13156,33.476611],"type":"Point"},"properties":{"osm_id":"7155758516","tag":{"amenity":"waste_disposal"}},"type":"Feature"},
	{"geometry":{"coordinates":[-112.131255,33.476624],"type":"Point"},"properties":{"osm_id":"7155758517","tag":{"amenity":"waste_disposal"}},"type":"Feature"},
	{"geometry":{"coordinates":[-112.131628,33.450773],"type":"Point"},"properties":{"osm_id":"7203044717","tag":{"amenity":"waste_disposal"}},"type":"Feature"},
	{"geometry":{"coordinates":[-112.126972,33.495289],"type":"Point"},"properties":{"osm_id":"7409406329","tag":{"amenity":"waste_disposal"}},"type":"Feature"},
	{"geometry":{"coordinates":[-112.084659,33.487177],"type":"Point"},"properties":{"osm_id":"7409532928","tag":{"amenity":"waste_disposal"}},"type":"Feature"},
	{"geometry":{"coordinates":[-112.084673,33.487125],"type":"Point"},"properties":{"osm_id":"7409532929","tag":{"amenity":"waste_disposal"}},"type":"Feature"},
	{"geometry":{"coordinates":[-112.084396,33.485234],"type":"Point"},"properties":{"osm_id":"7409532938","tag":{"amenity":"waste_disposal"}},"type":"Feature"},
	{"geometry":{"coordinates":[-112.084353,33.485235],"type":"Point"},"properties":{"osm_id":"7409532939","tag":{"amenity":"waste_disposal"}},"type":"Feature"},
	{"geometry":{"coordinates":[-112.083874,33.488119],"type":"Point"},"properties":{"osm_id":"7409532981","tag":{"amenity":"waste_disposal"}},"type":"Feature"},
	{"geometry":{"coordinates":[-112.135071,33.496986],"type":"Point"},"properties":{"osm_id":"7424495662","tag":{"amenity":"waste_disposal"}},"type":"Feature"},
	{"geometry":{"coordinates":[-112.132113,33.49674],"type":"Point"},"properties":{"osm_id":"7424495664","tag":{"amenity":"waste_disposal"}},"type":"Feature"},
	{"geometry":{"coordinates":[-112.133932,33.497205],"type":"Point"},"properties":{"osm_id":"7424495665","tag":{"amenity":"waste_disposal"}},"type":"Feature"},
	{"geometry":{"coordinates":[-112.133502,33.495904],"type":"Point"},"properties":{"osm_id":"7424495666","tag":{"amenity":"waste_disposal"}},"type":"Feature"},
	{"geometry":{"coordinates":[-112.133475,33.495901],"type":"Point"},"properties":{"osm_id":"7424495667","tag":{"amenity":"waste_disposal"}},"type":"Feature"},
	{"geometry":{"coordinates":[-112.128161,33.494197],"type":"Point"},"properties":{"osm_id":"7424495669","tag":{"amenity":"waste_disposal"}},"type":"Feature"},
	{"geometry":{"coordinates":[-112.128166,33.494172],"type":"Point"},"properties":{"osm_id":"7424495670","tag":{"amenity":"waste_disposal"}},"type":"Feature"},
	{"geometry":{"coordinates":[-112.129721,33.491618],"type":"Point"},"properties":{"osm_id":"7424495671","tag":{"amenity":"waste_disposal"}},"type":"Feature"},
	{"geometry":{"coordinates":[-112.129715,33.491605],"type":"Point"},"properties":{"osm_id":"7424495672","tag":{"amenity":"waste_disposal"}},"type":"Feature"},
	{"geometry":{"coordinates":[-112.127144,33.493192],"type":"Point"},"properties":{"osm_id":"7424495673","tag":{"amenity":"waste_disposal"}},"type":"Feature"},
	{"geometry":{"coordinates":[-112.127147,33.493169],"type":"Point"},"properties":{"osm_id":"7424495674","tag":{"amenity":"waste_disposal"}},"type":"Feature"},
	{"geometry":{"coordinates":[-112.127148,33.493575],"type":"Point"},"properties":{"osm_id":"7424495675","tag":{"amenity":"waste_disposal"}},"type":"Feature"},
	{"geometry":{"coordinates":[-112.12715,33.49389],"type":"Point"},"properties":{"osm_id":"7424495676","tag":{"amenity":"waste_disposal"}},"type":"Feature"},
	{"geometry":{"coordinates":[-112.127148,33.494067],"type":"Point"},"properties":{"osm_id":"7424495677","tag":{"amenity":"waste_disposal"}},"type":"Feature"},
	{"geometry":{"coordinates":[-112.075937,33.480836],"type":"Point"},"properties":{"osm_id":"7495366572","tag":{"amenity":"waste_disposal"}},"type":"Feature"},
	{"geometry":{"coordinates":[-112.080075,33.493713],"type":"Point"},"properties":{"osm_id":"7495372522","tag":{"amenity":"waste_disposal"}},"type":"Feature"},
	{"geometry":{"coordinates":[-112.080079,33.493682],"type":"Point"},"properties":{"osm_id":"7495372523","tag":{"amenity":"waste_disposal"}},"type":"Feature"},
	{"geometry":{"coordinates":[-112.080307,33.49392],"type":"Point"},"properties":{"osm_id":"7495372524","tag":{"amenity":"waste_disposal"}},"type":"Feature"},
	{"geometry":{"coordinates":[-112.07896,33.493533],"type":"Point"},"properties":{"osm_id":"7495372525","tag":{"amenity":"waste_disposal"}},"type":"Feature"},
	{"geometry":{"coordinates":[-112.079099,33.492616],"type":"Point"},"properties":{"osm_id":"7495372527","tag":{"amenity":"waste_disposal"}},"type":"Feature"},
	{"geometry":{"coordinates":[-112.081201,33.492649],"type":"Point"},"properties":{"osm_id":"7495372528","tag":{"amenity":"waste_disposal"}},"type":"Feature"},
	{"geometry":{"coordinates":[-112.079979,33.492569],"type":"Point"},"properties":{"osm_id":"7495372529","tag":{"amenity":"waste_disposal"}},"type":"Feature"},
	{"geometry":{"coordinates":[-112.081198,33.494605],"type":"Point"},"properties":{"osm_id":"7495372530","tag":{"amenity":"waste_disposal"}},"type":"Feature"},
	{"geometry":{"coordinates":[-112.081383,33.494317],"type":"Point"},"properties":{"osm_id":"7495372531","tag":{"amenity":"waste_disposal"}},"type":"Feature"},
	{"geometry":{"coordinates":[-112.081197,33.493625],"type":"Point"},"properties":{"osm_id":"7495372532","tag":{"amenity":"waste_disposal"}},"type":"Feature"},
	{"geometry":{"coordinates":[-112.081383,33.492843],"type":"Point"},"properties":{"osm_id":"7495372533","tag":{"amenity":"waste_disposal"}},"type":"Feature"},
	{"geometry":{"coordinates":[-112.082192,33.492868],"type":"Point"},"properties":{"osm_id":"7495372540","tag":{"amenity":"waste_disposal"}},"type":"Feature"},
	{"geometry":{"coordinates":[-112.082072,33.492499],"type":"Point"},"properties":{"osm_id":"7495372541","tag":{"amenity":"waste_disposal"}},"type":"Feature"},
	{"geometry":{"coordinates":[-112.082802,33.49426],"type":"Point"},"properties":{"osm_id":"7499896110","tag":{"amenity":"waste_disposal"}},"type":"Feature"},
	{"geometry":{"coordinates":[-112.082653,33.493918],"type":"Point"},"properties":{"osm_id":"7499896111","tag":{"amenity":"waste_disposal"}},"type":"Feature"},
	{"geometry":{"coordinates":[-112.083698,33.488308],"type":"Point"},"properties":{"osm_id":"7499896112","tag":{"amenity":"waste_disposal"}},"type":"Feature"},
	{"geometry":{"coordinates":[-112.148168,33.464585],"type":"Point"},"properties":{"osm_id":"7604952067","tag":{"amenity":"waste_disposal"}},"type":"Feature"},
	{"geometry":{"coordinates":[-112.139191,33.465402],"type":"Point"},"properties":{"osm_id":"7604952068","tag":{"amenity":"waste_disposal"}},"type":"Feature"},
	{"geometry":{"coordinates":[-112.103748,33.450924],"type":"Point"},"properties":{"osm_id":"7712808148","tag":{"amenity":"waste_disposal"}},"type":"Feature"},
	{"geometry":{"coordinates":[-112.100537,33.448738],"type":"Point"},"properties":{"osm_id":"7712808168","tag":{"amenity":"waste_disposal"}},"type":"Feature"},
	{"geometry":{"coordinates":[-112.092375,33.451897],"type":"Point"},"properties":{"osm_id":"7712808179","tag":{"amenity":"waste_disposal"}},"type":"Feature"},
	{"geometry":{"coordinates":[-112.091977,33.453008],"type":"Point"},"properties":{"osm_id":"7712808183","tag":{"amenity":"waste_disposal"}},"type":"Feature"},
	{"geometry":{"coordinates":[-112.09215,33.452994],"type":"Point"},"properties":{"osm_id":"7712808184","tag":{"amenity":"waste_disposal"}},"type":"Feature"}
]
}
