{
"type": "FeatureCollection",
"features": [
	{"geometry":{"coordinates":[176.13667,-37.735596],"type":"Point"},"properties":{"osm_id":"836792100","tag":{"amenity":"recycling"}},"type":"Feature"},
	{"geometry":{"coordinates":[176.136601,-37.735489],"type":"Point"},"properties":{"name":"Tauranga Transfer and Refuse Station","osm_id":"5104396523","tag":{"amenity":"recycling","operator":"Waste Management"}},"type":"Feature"},
	{"geometry":{"coordinates":[176.143783,-37.726095],"type":"Point"},"properties":{"osm_id":"8377399209","tag":{"amenity":"waste_basket"}},"type":"Feature"},
	{"geometry":{"coordinates":[176.143645,-37.725897],"type":"Point"},"properties":{"osm_id":"8377441578","tag":{"amenity":"waste_basket"}},"type":"Feature"},
	{"geometry":{"coordinates":[176.146427,-37.72484],"type":"Point"},"properties":{"osm_id":"8377445346","tag":{"amenity":"waste_basket"}},"type":"Feature"},
	{"geometry":{"coordinates":[176.144092,-37.72486],"type":"Point"},"properties":{"osm_id":"8377445347","tag":{"amenity":"waste_basket"}},"type":"Feature"},
	{"geometry":{"coordinates":[176.144144,-37.726034],"type":"Point"},"properties":{"osm_id":"8377445348","tag":{"amenity":"waste_basket"}},"type":"Feature"},
	{"geometry":{"coordinates":[176.145189,-37.725545],"type":"Point"},"properties":{"osm_id":"8377445349","tag":{"amenity":"waste_basket"}},"type":"Feature"}
]
}
