{
"type": "FeatureCollection",
"features": [
	{"geometry":{"coordinates":[-117.899688,33.602941],"type":"Point"},"properties":{"osm_id":"4573522501","tag":{"amenity":"waste_basket"}},"type":"Feature"},
	{"geometry":{"coordinates":[-117.934805,33.62308],"type":"Point"},"properties":{"osm_id":"4631059497","tag":{"amenity":"waste_basket"}},"type":"Feature"},
	{"geometry":{"coordinates":[-117.932894,33.623106],"type":"Point"},"properties":{"osm_id":"4643330170","tag":{"amenity":"waste_basket"}},"type":"Feature"},
	{"geometry":{"coordinates":[-117.937731,33.623917],"type":"Point"},"properties":{"osm_id":"4687888690","tag":{"amenity":"waste_basket"}},"type":"Feature"},
	{"geometry":{"coordinates":[-117.936576,33.623588],"type":"Point"},"properties":{"osm_id":"4687888691","tag":{"amenity":"waste_basket"}},"type":"Feature"},
	{"geometry":{"coordinates":[-117.936966,33.623971],"type":"Point"},"properties":{"osm_id":"4687892365","tag":{"amenity":"waste_basket"}},"type":"Feature"},
	{"geometry":{"coordinates":[-117.939231,33.623677],"type":"Point"},"properties":{"osm_id":"4687892367","tag":{"amenity":"waste_basket"}},"type":"Feature"},
	{"geometry":{"coordinates":[-117.939605,33.623798],"type":"Point"},"properties":{"osm_id":"4687893015","tag":{"amenity":"waste_basket"}},"type":"Feature"},
	{"geometry":{"coordinates":[-117.939971,33.62404],"type":"Point"},"properties":{"osm_id":"4687893016","tag":{"amenity":"waste_basket"}},"type":"Feature"},
	{"geometry":{"coordinates":[-117.939754,33.624944],"type":"Point"},"properties":{"osm_id":"4687901446","tag":{"amenity":"waste_basket"}},"type":"Feature"},
	{"geometry":{"coordinates":[-117.93909,33.624797],"type":"Point"},"properties":{"osm_id":"4687911857","tag":{"amenity":"waste_basket"}},"type":"Feature"},
	{"geometry":{"coordinates":[-117.938498,33.624767],"type":"Point"},"properties":{"osm_id":"4687911860","tag":{"amenity":"waste_basket"}},"type":"Feature"},
	{"geometry":{"coordinates":[-117.937876,33.624523],"type":"Point"},"properties":{"osm_id":"4687911862","tag":{"amenity":"waste_basket"}},"type":"Feature"},
	{"geometry":{"coordinates":[-117.936395,33.6231],"type":"Point"},"properties":{"osm_id":"4687986797","tag":{"amenity":"waste_basket"}},"type":"Feature"},
	{"geometry":{"coordinates":[-117.932222,33.623846],"type":"Point"},"properties":{"osm_id":"4696542419","tag":{"amenity":"waste_basket"}},"type":"Feature"},
	{"geometry":{"coordinates":[-117.931693,33.624905],"type":"Point"},"properties":{"osm_id":"4696553102","tag":{"amenity":"waste_basket"}},"type":"Feature"},
	{"geometry":{"coordinates":[-117.9384,33.622972],"type":"Point"},"properties":{"osm_id":"4696563129","tag":{"amenity":"waste_basket"}},"type":"Feature"},
	{"geometry":{"coordinates":[-117.93787,33.62277],"type":"Point"},"properties":{"osm_id":"4700449398","tag":{"amenity":"waste_basket"}},"type":"Feature"},
	{"geometry":{"coordinates":[-117.930016,33.624722],"type":"Point"},"properties":{"osm_id":"5317566626","tag":{"amenity":"waste_basket"}},"type":"Feature"},
	{"geometry":{"coordinates":[-117.930196,33.622457],"type":"Point"},"properties":{"osm_id":"5317598325","tag":{"amenity":"waste_basket"}},"type":"Feature"},
	{"geometry":{"coordinates":[-117.886655,33.604484],"type":"Point"},"properties":{"osm_id":"5324894728","tag":{"amenity":"waste_basket"}},"type":"Feature"},
	{"geometry":{"coordinates":[-117.920839,33.620888],"type":"Point"},"properties":{"osm_id":"5324971108","tag":{"amenity":"waste_basket"}},"type":"Feature"},
	{"geometry":{"coordinates":[-117.920972,33.620537],"type":"Point"},"properties":{"osm_id":"5324971110","tag":{"amenity":"waste_basket"}},"type":"Feature"},
	{"geometry":{"coordinates":[-117.920922,33.620849],"type":"Point"},"properties":{"osm_id":"5324971113","tag":{"amenity":"waste_basket"}},"type":"Feature"},
	{"geometry":{"coordinates":[-117.921046,33.620556],"type":"Point"},"properties":{"osm_id":"5324971115","tag":{"amenity":"waste_basket"}},"type":"Feature"},
	{"geometry":{"coordinates":[-117.92118,33.620636],"type":"Point"},"properties":{"osm_id":"5324971118","tag":{"amenity":"waste_basket"}},"type":"Feature"},
	{"geometry":{"coordinates":[-117.920881,33.620899],"type":"Point"},"properties":{"name":"Ashtray","osm_id":"5324972329","tag":{"amenity":"waste_basket"}},"type":"Feature"},
	{"geometry":{"coordinates":[-117.920934,33.620856],"type":"Point"},"properties":{"name":"Ashtray","osm_id":"5324972334","tag":{"amenity":"waste_basket"}},"type":"Feature"},
	{"geometry":{"coordinates":[-117.930426,33.62219],"type":"Point"},"properties":{"osm_id":"5326464548","tag":{"amenity":"waste_basket"}},"type":"Feature"},
	{"geometry":{"coordinates":[-117.930225,33.622961],"type":"Point"},"properties":{"osm_id":"5326464550","tag":{"amenity":"waste_basket"}},"type":"Feature"},
	{"geometry":{"coordinates":[-117.929395,33.624033],"type":"Point"},"properties":{"osm_id":"5326520006","tag":{"amenity":"waste_basket"}},"type":"Feature"},
	{"geometry":{"coordinates":[-117.929223,33.623928],"type":"Point"},"properties":{"osm_id":"5326520014","tag":{"amenity":"waste_basket"}},"type":"Feature"},
	{"geometry":{"coordinates":[-117.929405,33.624031],"type":"Point"},"properties":{"osm_id":"5326522831","tag":{"amenity":"recycling","recycling:cans":"yes","recycling:glass_bottles":"yes","recycling:plastic":"yes","recycling_type":"container"}},"type":"Feature"},
	{"geometry":{"coordinates":[-117.929228,33.623935],"type":"Point"},"properties":{"osm_id":"5326522837","tag":{"amenity":"recycling","recycling:cans":"yes","recycling:glass_bottles":"yes","recycling_type":"container"}},"type":"Feature"},
	{"geometry":{"coordinates":[-117.934732,33.624375],"type":"Point"},"properties":{"osm_id":"5326761830","tag":{"amenity":"waste_basket"}},"type":"Feature"},
	{"geometry":{"coordinates":[-117.938357,33.621788],"type":"Point"},"properties":{"osm_id":"5329917564","tag":{"amenity":"waste_basket"}},"type":"Feature"},
	{"geometry":{"coordinates":[-117.938414,33.621797],"type":"Point"},"properties":{"osm_id":"5329917565","tag":{"amenity":"waste_basket"}},"type":"Feature"},
	{"geometry":{"coordinates":[-117.94543,33.647671],"type":"Point"},"properties":{"osm_id":"5335866271","tag":{"amenity":"waste_basket"}},"type":"Feature"},
	{"geometry":{"coordinates":[-117.945444,33.647674],"type":"Point"},"properties":{"osm_id":"5335871124","tag":{"amenity":"waste_basket"}},"type":"Feature"},
	{"geometry":{"coordinates":[-117.943105,33.64843],"type":"Point"},"properties":{"osm_id":"5335903236","tag":{"amenity":"waste_basket"}},"type":"Feature"},
	{"geometry":{"coordinates":[-117.941512,33.64781],"type":"Point"},"properties":{"osm_id":"5335916482","tag":{"amenity":"waste_basket"}},"type":"Feature"},
	{"geometry":{"coordinates":[-117.940446,33.647241],"type":"Point"},"properties":{"osm_id":"5335918554","tag":{"amenity":"waste_basket"}},"type":"Feature"},
	{"geometry":{"coordinates":[-117.941197,33.646997],"type":"Point"},"properties":{"osm_id":"5335920451","tag":{"amenity":"waste_basket"}},"type":"Feature"},
	{"geometry":{"coordinates":[-117.941614,33.646633],"type":"Point"},"properties":{"osm_id":"5335926388","tag":{"amenity":"waste_basket"}},"type":"Feature"},
	{"geometry":{"coordinates":[-117.893462,33.608499],"type":"Point"},"properties":{"osm_id":"5338255081","tag":{"amenity":"waste_basket"}},"type":"Feature"},
	{"geometry":{"coordinates":[-117.893447,33.608664],"type":"Point"},"properties":{"osm_id":"5338255083","tag":{"amenity":"waste_basket"}},"type":"Feature"},
	{"geometry":{"coordinates":[-117.894906,33.604472],"type":"Point"},"properties":{"osm_id":"5338255085","tag":{"amenity":"waste_basket"}},"type":"Feature"},
	{"geometry":{"coordinates":[-117.894897,33.604474],"type":"Point"},"properties":{"osm_id":"5338255093","tag":{"amenity":"waste_basket"}},"type":"Feature"},
	{"geometry":{"coordinates":[-117.8934,33.608505],"type":"Point"},"properties":{"osm_id":"5338255094","tag":{"amenity":"waste_basket"}},"type":"Feature"},
	{"geometry":{"coordinates":[-117.868707,33.590721],"type":"Point"},"properties":{"osm_id":"6595295442","tag":{"amenity":"waste_basket"}},"type":"Feature"},
	{"geometry":{"coordinates":[-117.871362,33.595011],"type":"Point"},"properties":{"osm_id":"7866178205","tag":{"building":"yes","height":"3.06"}},"type":"Feature"},
	{"geometry":{"coordinates":[-117.911581,33.614336],"type":"Point"},"properties":{"osm_id":"7882187521","tag":{"addr:city":"Newport Beach","addr:housenumber":"2481","addr:postcode":"92663","addr:street":"Bayshore Drive","building":"yes","height":"0.24"}},"type":"Feature"},
	{"geometry":{"coordinates":[-117.907527,33.615493],"type":"Point"},"properties":{"osm_id":"7882200412","tag":{"addr:city":"Newport Beach","addr:housenumber":"2871","addr:postcode":"92663","addr:street":"Bayshore Drive","building":"yes","height":"13.71"}},"type":"Feature"},
	{"geometry":{"coordinates":[-117.921177,33.62841],"type":"Point"},"properties":{"osm_id":"7885217034","tag":{"building":"yes","height":"3.09"}},"type":"Feature"},
	{"geometry":{"coordinates":[-117.926261,33.624764],"type":"Point"},"properties":{"osm_id":"7885217067","tag":{"addr:city":"Newport Beach","addr:housenumber":"338","addr:postcode":"92663","addr:street":"Holmwood Drive","building":"yes"}},"type":"Feature"}
]
}
