{
"type": "FeatureCollection",
"features": [
	{"geometry":{"coordinates":[-0.185766,5.650179],"type":"Point"},"properties":{"osm_id":"5751454645","tag":{"natural":"tree"}},"type":"Feature"},
	{"geometry":{"coordinates":[-0.181671,5.649975],"type":"Point"},"properties":{"osm_id":"5813545132","tag":{"natural":"tree"}},"type":"Feature"},
	{"geometry":{"coordinates":[-0.235766,5.629155],"type":"Point"},"properties":{"osm_id":"5819358795","tag":{"addr:city":"Accra","natural":"tree"}},"type":"Feature"},
	{"geometry":{"coordinates":[-0.231052,5.633524],"type":"Point"},"properties":{"osm_id":"5918220959","tag":{"addr:city":"Accra","natural":"tree"}},"type":"Feature"},
	{"geometry":{"coordinates":[-0.182072,5.651846],"type":"Point"},"properties":{"osm_id":"5928332872","tag":{"natural":"tree"}},"type":"Feature"},
	{"geometry":{"coordinates":[-0.181814,5.65162],"type":"Point"},"properties":{"osm_id":"5928332873","tag":{"natural":"tree"}},"type":"Feature"},
	{"geometry":{"coordinates":[-0.181708,5.651862],"type":"Point"},"properties":{"osm_id":"5928332874","tag":{"natural":"tree"}},"type":"Feature"},
	{"geometry":{"coordinates":[-0.230989,5.629609],"type":"Point"},"properties":{"osm_id":"5967583716","tag":{"addr:city":"Accra","natural":"tree"}},"type":"Feature"},
	{"geometry":{"coordinates":[-0.231115,5.629308],"type":"Point"},"properties":{"osm_id":"5967583717","tag":{"addr:city":"Accra","natural":"tree"}},"type":"Feature"},
	{"geometry":{"coordinates":[-0.23686,5.61647],"type":"Point"},"properties":{"osm_id":"5980246867","tag":{"natural":"tree"}},"type":"Feature"},
	{"geometry":{"coordinates":[-0.247112,5.617421],"type":"Point"},"properties":{"osm_id":"5981822937","tag":{"natural":"tree"}},"type":"Feature"},
	{"geometry":{"coordinates":[-0.246551,5.618254],"type":"Point"},"properties":{"osm_id":"5981881833","tag":{"natural":"tree"}},"type":"Feature"},
	{"geometry":{"coordinates":[-0.246756,5.618239],"type":"Point"},"properties":{"osm_id":"5981881985","tag":{"natural":"tree"}},"type":"Feature"},
	{"geometry":{"coordinates":[-0.242956,5.616117],"type":"Point"},"properties":{"osm_id":"5986071778","tag":{"natural":"tree"}},"type":"Feature"},
	{"geometry":{"coordinates":[-0.242966,5.616085],"type":"Point"},"properties":{"osm_id":"5986071779","tag":{"natural":"tree"}},"type":"Feature"},
	{"geometry":{"coordinates":[-0.242774,5.616066],"type":"Point"},"properties":{"osm_id":"5986071814","tag":{"natural":"tree"}},"type":"Feature"},
	{"geometry":{"coordinates":[-0.242749,5.616355],"type":"Point"},"properties":{"osm_id":"5986071824","tag":{"natural":"tree"}},"type":"Feature"},
	{"geometry":{"coordinates":[-0.242902,5.616572],"type":"Point"},"properties":{"osm_id":"5988176999","tag":{"natural":"tree"}},"type":"Feature"},
	{"geometry":{"coordinates":[-0.243012,5.616621],"type":"Point"},"properties":{"osm_id":"5988225288","tag":{"natural":"tree"}},"type":"Feature"},
	{"geometry":{"coordinates":[-0.261816,5.623476],"type":"Point"},"properties":{"osm_id":"5999692588","tag":{"natural":"tree"}},"type":"Feature"},
	{"geometry":{"coordinates":[-0.230996,5.629606],"type":"Point"},"properties":{"osm_id":"6064257885","tag":{"addr:city":"Accra","natural":"tree"}},"type":"Feature"},
	{"geometry":{"coordinates":[-0.231984,5.628897],"type":"Point"},"properties":{"osm_id":"6064257912","tag":{"addr:city":"Accra","natural":"tree"}},"type":"Feature"},
	{"geometry":{"coordinates":[-0.231822,5.629916],"type":"Point"},"properties":{"osm_id":"6064257913","tag":{"addr:city":"Accra","natural":"tree"}},"type":"Feature"},
	{"geometry":{"coordinates":[-0.231115,5.629331],"type":"Point"},"properties":{"osm_id":"6064257914","tag":{"addr:city":"Accra","natural":"tree"}},"type":"Feature"},
	{"geometry":{"coordinates":[-0.232143,5.629428],"type":"Point"},"properties":{"osm_id":"6064257915","tag":{"addr:city":"Accra","natural":"tree"}},"type":"Feature"},
	{"geometry":{"coordinates":[-0.232069,5.629477],"type":"Point"},"properties":{"osm_id":"6064257916","tag":{"addr:city":"Accra","natural":"tree"}},"type":"Feature"},
	{"geometry":{"coordinates":[-0.229325,5.621118],"type":"Point"},"properties":{"osm_id":"6166716722","tag":{"addr:city":"Accra","denotation":"urban","leaf_cycle":"semi_deciduous","leaf_type":"broadleaved","natural":"tree"}},"type":"Feature"},
	{"geometry":{"coordinates":[-0.228629,5.626315],"type":"Point"},"properties":{"osm_id":"6166728477","tag":{"addr:city":"Accra","natural":"tree"}},"type":"Feature"},
	{"geometry":{"coordinates":[-0.229609,5.622579],"type":"Point"},"properties":{"osm_id":"6166728619","tag":{"addr:city":"Accra","natural":"tree"}},"type":"Feature"},
	{"geometry":{"coordinates":[-0.234197,5.628359],"type":"Point"},"properties":{"osm_id":"6166740693","tag":{"addr:city":"Accra","natural":"tree"}},"type":"Feature"},
	{"geometry":{"coordinates":[-0.234497,5.628437],"type":"Point"},"properties":{"osm_id":"6166740699","tag":{"addr:city":"Accra","natural":"tree"}},"type":"Feature"},
	{"geometry":{"coordinates":[-0.234523,5.628402],"type":"Point"},"properties":{"osm_id":"6166740700","tag":{"addr:city":"Accra","natural":"tree"}},"type":"Feature"},
	{"geometry":{"coordinates":[-0.234421,5.628243],"type":"Point"},"properties":{"osm_id":"6166740701","tag":{"addr:city":"Accra","natural":"tree"}},"type":"Feature"},
	{"geometry":{"coordinates":[-0.234443,5.628277],"type":"Point"},"properties":{"osm_id":"6166740702","tag":{"addr:city":"Accra","natural":"tree"}},"type":"Feature"},
	{"geometry":{"coordinates":[-0.234471,5.628319],"type":"Point"},"properties":{"osm_id":"6166740703","tag":{"addr:city":"Accra","natural":"tree"}},"type":"Feature"},
	{"geometry":{"coordinates":[-0.234499,5.628353],"type":"Point"},"properties":{"osm_id":"6166740704","tag":{"addr:city":"Accra","natural":"tree"}},"type":"Feature"},
	{"geometry":{"coordinates":[-0.234631,5.627979],"type":"Point"},"properties":{"osm_id":"6166740706","tag":{"addr:city":"Accra","natural":"tree"}},"type":"Feature"},
	{"geometry":{"coordinates":[-0.234524,5.628],"type":"Point"},"properties":{"osm_id":"6166740707","tag":{"addr:city":"Accra","natural":"tree"}},"type":"Feature"},
	{"geometry":{"coordinates":[-0.234696,5.628084],"type":"Point"},"properties":{"osm_id":"6166740708","tag":{"addr:city":"Accra","natural":"tree"}},"type":"Feature"},
	{"geometry":{"coordinates":[-0.234842,5.628318],"type":"Point"},"properties":{"osm_id":"6166740709","tag":{"addr:city":"Accra","natural":"tree"}},"type":"Feature"},
	{"geometry":{"coordinates":[-0.234758,5.62837],"type":"Point"},"properties":{"osm_id":"6166740710","tag":{"addr:city":"Accra","natural":"tree"}},"type":"Feature"},
	{"geometry":{"coordinates":[-0.234671,5.628425],"type":"Point"},"properties":{"osm_id":"6166740711","tag":{"addr:city":"Accra","natural":"tree"}},"type":"Feature"},
	{"geometry":{"coordinates":[-0.234514,5.628513],"type":"Point"},"properties":{"osm_id":"6166740712","tag":{"addr:city":"Accra","natural":"tree"}},"type":"Feature"},
	{"geometry":{"coordinates":[-0.234386,5.628594],"type":"Point"},"properties":{"osm_id":"6166740713","tag":{"addr:city":"Accra","natural":"tree"}},"type":"Feature"},
	{"geometry":{"coordinates":[-0.234135,5.62825],"type":"Point"},"properties":{"osm_id":"6166740714","tag":{"addr:city":"Accra","natural":"tree"}},"type":"Feature"},
	{"geometry":{"coordinates":[-0.230069,5.627643],"type":"Point"},"properties":{"osm_id":"6166740733","tag":{"addr:city":"Accra","natural":"tree"}},"type":"Feature"},
	{"geometry":{"coordinates":[-0.234291,5.627356],"type":"Point"},"properties":{"osm_id":"6166749939","tag":{"addr:city":"Accra","natural":"tree"}},"type":"Feature"},
	{"geometry":{"coordinates":[-0.234219,5.627438],"type":"Point"},"properties":{"osm_id":"6166749940","tag":{"addr:city":"Accra","natural":"tree"}},"type":"Feature"},
	{"geometry":{"coordinates":[-0.234559,5.627565],"type":"Point"},"properties":{"osm_id":"6166749945","tag":{"addr:city":"Accra","natural":"tree"}},"type":"Feature"},
	{"geometry":{"coordinates":[-0.23441,5.627459],"type":"Point"},"properties":{"osm_id":"6166749946","tag":{"addr:city":"Accra","natural":"tree"}},"type":"Feature"},
	{"geometry":{"coordinates":[-0.234158,5.627481],"type":"Point"},"properties":{"osm_id":"6166749947","tag":{"addr:city":"Accra","natural":"tree"}},"type":"Feature"},
	{"geometry":{"coordinates":[-0.233734,5.62849],"type":"Point"},"properties":{"osm_id":"6166749948","tag":{"addr:city":"Accra","natural":"tree"}},"type":"Feature"},
	{"geometry":{"coordinates":[-0.232177,5.627423],"type":"Point"},"properties":{"osm_id":"6166755652","tag":{"addr:city":"Accra","natural":"tree"}},"type":"Feature"},
	{"geometry":{"coordinates":[-0.232381,5.627433],"type":"Point"},"properties":{"osm_id":"6166755653","tag":{"addr:city":"Accra","natural":"tree"}},"type":"Feature"},
	{"geometry":{"coordinates":[-0.23337,5.62651],"type":"Point"},"properties":{"osm_id":"6166755654","tag":{"addr:city":"Accra","natural":"tree"}},"type":"Feature"},
	{"geometry":{"coordinates":[-0.233203,5.626644],"type":"Point"},"properties":{"osm_id":"6166755655","tag":{"addr:city":"Accra","natural":"tree"}},"type":"Feature"},
	{"geometry":{"coordinates":[-0.233319,5.626696],"type":"Point"},"properties":{"osm_id":"6166755656","tag":{"addr:city":"Accra","natural":"tree"}},"type":"Feature"},
	{"geometry":{"coordinates":[-0.233221,5.626763],"type":"Point"},"properties":{"osm_id":"6166755657","tag":{"addr:city":"Accra","natural":"tree"}},"type":"Feature"},
	{"geometry":{"coordinates":[-0.234512,5.62677],"type":"Point"},"properties":{"osm_id":"6166755658","tag":{"addr:city":"Accra","natural":"tree"}},"type":"Feature"},
	{"geometry":{"coordinates":[-0.235396,5.628032],"type":"Point"},"properties":{"osm_id":"6166779046","tag":{"addr:city":"Accra","natural":"tree"}},"type":"Feature"},
	{"geometry":{"coordinates":[-0.235375,5.627934],"type":"Point"},"properties":{"osm_id":"6166779047","tag":{"addr:city":"Accra","natural":"tree"}},"type":"Feature"},
	{"geometry":{"coordinates":[-0.235326,5.627851],"type":"Point"},"properties":{"osm_id":"6166779048","tag":{"addr:city":"Accra","natural":"tree"}},"type":"Feature"},
	{"geometry":{"coordinates":[-0.234973,5.628732],"type":"Point"},"properties":{"osm_id":"6166779049","tag":{"addr:city":"Accra","natural":"tree"}},"type":"Feature"},
	{"geometry":{"coordinates":[-0.234864,5.628785],"type":"Point"},"properties":{"osm_id":"6166779050","tag":{"addr:city":"Accra","natural":"tree"}},"type":"Feature"},
	{"geometry":{"coordinates":[-0.234867,5.628696],"type":"Point"},"properties":{"osm_id":"6166779051","tag":{"addr:city":"Accra","natural":"tree"}},"type":"Feature"},
	{"geometry":{"coordinates":[-0.234827,5.628612],"type":"Point"},"properties":{"osm_id":"6166779052","tag":{"addr:city":"Accra","natural":"tree"}},"type":"Feature"},
	{"geometry":{"coordinates":[-0.234883,5.628517],"type":"Point"},"properties":{"osm_id":"6166779053","tag":{"addr:city":"Accra","natural":"tree"}},"type":"Feature"},
	{"geometry":{"coordinates":[-0.235943,5.629659],"type":"Point"},"properties":{"osm_id":"6166779054","tag":{"addr:city":"Accra","natural":"tree"}},"type":"Feature"},
	{"geometry":{"coordinates":[-0.235817,5.629722],"type":"Point"},"properties":{"osm_id":"6166779055","tag":{"addr:city":"Accra","natural":"tree"}},"type":"Feature"},
	{"geometry":{"coordinates":[-0.233504,5.627385],"type":"Point"},"properties":{"osm_id":"6166779061","tag":{"addr:city":"Accra","natural":"tree"}},"type":"Feature"},
	{"geometry":{"coordinates":[-0.233553,5.627445],"type":"Point"},"properties":{"osm_id":"6166779062","tag":{"addr:city":"Accra","natural":"tree"}},"type":"Feature"},
	{"geometry":{"coordinates":[-0.232807,5.627166],"type":"Point"},"properties":{"osm_id":"6166779063","tag":{"addr:city":"Accra","natural":"tree"}},"type":"Feature"},
	{"geometry":{"coordinates":[-0.232753,5.627131],"type":"Point"},"properties":{"osm_id":"6166779064","tag":{"addr:city":"Accra","natural":"tree"}},"type":"Feature"},
	{"geometry":{"coordinates":[-0.232853,5.627148],"type":"Point"},"properties":{"osm_id":"6166779065","tag":{"addr:city":"Accra","natural":"tree"}},"type":"Feature"},
	{"geometry":{"coordinates":[-0.232968,5.627168],"type":"Point"},"properties":{"osm_id":"6166779066","tag":{"addr:city":"Accra","natural":"tree"}},"type":"Feature"},
	{"geometry":{"coordinates":[-0.232983,5.627218],"type":"Point"},"properties":{"osm_id":"6166779067","tag":{"addr:city":"Accra","natural":"tree"}},"type":"Feature"},
	{"geometry":{"coordinates":[-0.233001,5.627291],"type":"Point"},"properties":{"osm_id":"6166779068","tag":{"addr:city":"Accra","natural":"tree"}},"type":"Feature"},
	{"geometry":{"coordinates":[-0.233154,5.626956],"type":"Point"},"properties":{"osm_id":"6166779069","tag":{"addr:city":"Accra","natural":"tree"}},"type":"Feature"},
	{"geometry":{"coordinates":[-0.232807,5.62701],"type":"Point"},"properties":{"osm_id":"6166779070","tag":{"addr:city":"Accra","natural":"tree"}},"type":"Feature"},
	{"geometry":{"coordinates":[-0.232878,5.627005],"type":"Point"},"properties":{"osm_id":"6166779071","tag":{"addr:city":"Accra","natural":"tree"}},"type":"Feature"},
	{"geometry":{"coordinates":[-0.233305,5.626002],"type":"Point"},"properties":{"osm_id":"6166779072","tag":{"addr:city":"Accra","natural":"tree"}},"type":"Feature"},
	{"geometry":{"coordinates":[-0.234112,5.626804],"type":"Point"},"properties":{"osm_id":"6166779073","tag":{"addr:city":"Accra","natural":"tree"}},"type":"Feature"},
	{"geometry":{"coordinates":[-0.23421,5.626864],"type":"Point"},"properties":{"osm_id":"6166779074","tag":{"addr:city":"Accra","natural":"tree"}},"type":"Feature"},
	{"geometry":{"coordinates":[-0.234309,5.62679],"type":"Point"},"properties":{"osm_id":"6166779075","tag":{"addr:city":"Accra","natural":"tree"}},"type":"Feature"},
	{"geometry":{"coordinates":[-0.236486,5.631124],"type":"Point"},"properties":{"osm_id":"6167060055","tag":{"addr:city":"Accra","natural":"tree"}},"type":"Feature"},
	{"geometry":{"coordinates":[-0.235769,5.631353],"type":"Point"},"properties":{"osm_id":"6167060057","tag":{"addr:city":"Accra","natural":"tree"}},"type":"Feature"},
	{"geometry":{"coordinates":[-0.23581,5.63101],"type":"Point"},"properties":{"osm_id":"6167060058","tag":{"addr:city":"Accra","natural":"tree"}},"type":"Feature"},
	{"geometry":{"coordinates":[-0.236368,5.631007],"type":"Point"},"properties":{"osm_id":"6167060059","tag":{"addr:city":"Accra","natural":"tree"}},"type":"Feature"},
	{"geometry":{"coordinates":[-0.236158,5.630666],"type":"Point"},"properties":{"osm_id":"6167060060","tag":{"addr:city":"Accra","natural":"tree"}},"type":"Feature"},
	{"geometry":{"coordinates":[-0.236257,5.630484],"type":"Point"},"properties":{"osm_id":"6167060061","tag":{"addr:city":"Accra","natural":"tree"}},"type":"Feature"},
	{"geometry":{"coordinates":[-0.236323,5.630662],"type":"Point"},"properties":{"osm_id":"6167060062","tag":{"addr:city":"Accra","natural":"tree"}},"type":"Feature"},
	{"geometry":{"coordinates":[-0.239504,5.617335],"type":"Point"},"properties":{"osm_id":"6279110120","tag":{"natural":"tree"}},"type":"Feature"},
	{"geometry":{"coordinates":[-0.239439,5.617394],"type":"Point"},"properties":{"osm_id":"6279110121","tag":{"natural":"tree"}},"type":"Feature"},
	{"geometry":{"coordinates":[-0.244381,5.616902],"type":"Point"},"properties":{"osm_id":"6279110122","tag":{"natural":"tree"}},"type":"Feature"},
	{"geometry":{"coordinates":[-0.24432,5.616883],"type":"Point"},"properties":{"osm_id":"6279110123","tag":{"natural":"tree"}},"type":"Feature"},
	{"geometry":{"coordinates":[-0.244284,5.616981],"type":"Point"},"properties":{"osm_id":"6279110124","tag":{"natural":"tree"}},"type":"Feature"},
	{"geometry":{"coordinates":[-0.236793,5.617086],"type":"Point"},"properties":{"osm_id":"6279110224","tag":{"denotation":"urban","leaf_cycle":"semi_deciduous","leaf_type":"broadleaved","natural":"tree"}},"type":"Feature"},
	{"geometry":{"coordinates":[-0.236973,5.617059],"type":"Point"},"properties":{"osm_id":"6279110225","tag":{"natural":"tree"}},"type":"Feature"},
	{"geometry":{"coordinates":[-0.237813,5.617597],"type":"Point"},"properties":{"osm_id":"6279110234","tag":{"natural":"tree"}},"type":"Feature"},
	{"geometry":{"coordinates":[-0.237687,5.617596],"type":"Point"},"properties":{"osm_id":"6279110235","tag":{"natural":"tree"}},"type":"Feature"},
	{"geometry":{"coordinates":[-0.24146,5.616311],"type":"Point"},"properties":{"osm_id":"6279110237","tag":{"natural":"tree"}},"type":"Feature"},
	{"geometry":{"coordinates":[-0.241628,5.616102],"type":"Point"},"properties":{"osm_id":"6279110238","tag":{"natural":"tree"}},"type":"Feature"},
	{"geometry":{"coordinates":[-0.241437,5.616136],"type":"Point"},"properties":{"osm_id":"6279110239","tag":{"natural":"tree"}},"type":"Feature"},
	{"geometry":{"coordinates":[-0.241494,5.616156],"type":"Point"},"properties":{"osm_id":"6279110240","tag":{"natural":"tree"}},"type":"Feature"},
	{"geometry":{"coordinates":[-0.241964,5.616016],"type":"Point"},"properties":{"osm_id":"6279110241","tag":{"natural":"tree"}},"type":"Feature"},
	{"geometry":{"coordinates":[-0.238374,5.616113],"type":"Point"},"properties":{"osm_id":"6279110271","tag":{"natural":"tree"}},"type":"Feature"},
	{"geometry":{"coordinates":[-0.238276,5.616172],"type":"Point"},"properties":{"osm_id":"6279110272","tag":{"natural":"tree"}},"type":"Feature"},
	{"geometry":{"coordinates":[-0.23834,5.616165],"type":"Point"},"properties":{"osm_id":"6279110273","tag":{"natural":"tree"}},"type":"Feature"},
	{"geometry":{"coordinates":[-0.238407,5.616165],"type":"Point"},"properties":{"osm_id":"6279110274","tag":{"natural":"tree"}},"type":"Feature"},
	{"geometry":{"coordinates":[-0.238745,5.616315],"type":"Point"},"properties":{"osm_id":"6279110275","tag":{"addr:street":"Lomani Link","natural":"tree"}},"type":"Feature"},
	{"geometry":{"coordinates":[-0.238646,5.616683],"type":"Point"},"properties":{"osm_id":"6279110276","tag":{"natural":"tree"}},"type":"Feature"},
	{"geometry":{"coordinates":[-0.239353,5.616328],"type":"Point"},"properties":{"osm_id":"6279110277","tag":{"natural":"tree"}},"type":"Feature"},
	{"geometry":{"coordinates":[-0.239272,5.616456],"type":"Point"},"properties":{"osm_id":"6279110278","tag":{"natural":"tree"}},"type":"Feature"},
	{"geometry":{"coordinates":[-0.239161,5.616405],"type":"Point"},"properties":{"osm_id":"6279110279","tag":{"natural":"tree"}},"type":"Feature"},
	{"geometry":{"coordinates":[-0.239476,5.617015],"type":"Point"},"properties":{"osm_id":"6279110280","tag":{"natural":"tree"}},"type":"Feature"},
	{"geometry":{"coordinates":[-0.239425,5.617009],"type":"Point"},"properties":{"osm_id":"6279110281","tag":{"natural":"tree"}},"type":"Feature"},
	{"geometry":{"coordinates":[-0.239514,5.617082],"type":"Point"},"properties":{"osm_id":"6279110282","tag":{"natural":"tree"}},"type":"Feature"},
	{"geometry":{"coordinates":[-0.239514,5.617014],"type":"Point"},"properties":{"osm_id":"6279110283","tag":{"natural":"tree"}},"type":"Feature"},
	{"geometry":{"coordinates":[-0.239498,5.616915],"type":"Point"},"properties":{"osm_id":"6279110284","tag":{"natural":"tree"}},"type":"Feature"},
	{"geometry":{"coordinates":[-0.239488,5.616951],"type":"Point"},"properties":{"osm_id":"6279110285","tag":{"natural":"tree"}},"type":"Feature"},
	{"geometry":{"coordinates":[-0.239447,5.616937],"type":"Point"},"properties":{"osm_id":"6279110286","tag":{"natural":"tree"}},"type":"Feature"},
	{"geometry":{"coordinates":[-0.239383,5.616943],"type":"Point"},"properties":{"osm_id":"6279110287","tag":{"natural":"tree"}},"type":"Feature"},
	{"geometry":{"coordinates":[-0.239259,5.616979],"type":"Point"},"properties":{"osm_id":"6279110288","tag":{"natural":"tree"}},"type":"Feature"},
	{"geometry":{"coordinates":[-0.239256,5.616946],"type":"Point"},"properties":{"osm_id":"6279110289","tag":{"natural":"tree"}},"type":"Feature"},
	{"geometry":{"coordinates":[-0.239321,5.616955],"type":"Point"},"properties":{"osm_id":"6279110290","tag":{"natural":"tree"}},"type":"Feature"},
	{"geometry":{"coordinates":[-0.239329,5.617012],"type":"Point"},"properties":{"osm_id":"6279110291","tag":{"natural":"tree"}},"type":"Feature"},
	{"geometry":{"coordinates":[-0.239887,5.617031],"type":"Point"},"properties":{"osm_id":"6279110292","tag":{"natural":"tree"}},"type":"Feature"},
	{"geometry":{"coordinates":[-0.240133,5.617067],"type":"Point"},"properties":{"osm_id":"6279110293","tag":{"natural":"tree"}},"type":"Feature"},
	{"geometry":{"coordinates":[-0.240035,5.617158],"type":"Point"},"properties":{"osm_id":"6279110294","tag":{"natural":"tree"}},"type":"Feature"},
	{"geometry":{"coordinates":[-0.240088,5.616932],"type":"Point"},"properties":{"osm_id":"6279110295","tag":{"natural":"tree"}},"type":"Feature"},
	{"geometry":{"coordinates":[-0.240147,5.616894],"type":"Point"},"properties":{"osm_id":"6279110296","tag":{"natural":"tree"}},"type":"Feature"},
	{"geometry":{"coordinates":[-0.239992,5.616716],"type":"Point"},"properties":{"osm_id":"6279110297","tag":{"natural":"tree"}},"type":"Feature"},
	{"geometry":{"coordinates":[-0.239833,5.616723],"type":"Point"},"properties":{"osm_id":"6279110298","tag":{"natural":"tree"}},"type":"Feature"},
	{"geometry":{"coordinates":[-0.239771,5.616731],"type":"Point"},"properties":{"osm_id":"6279110299","tag":{"natural":"tree"}},"type":"Feature"},
	{"geometry":{"coordinates":[-0.240074,5.616833],"type":"Point"},"properties":{"osm_id":"6279110300","tag":{"natural":"tree"}},"type":"Feature"},
	{"geometry":{"coordinates":[-0.239756,5.616955],"type":"Point"},"properties":{"osm_id":"6279110301","tag":{"natural":"tree"}},"type":"Feature"},
	{"geometry":{"coordinates":[-0.239877,5.616907],"type":"Point"},"properties":{"osm_id":"6279110302","tag":{"natural":"tree"}},"type":"Feature"},
	{"geometry":{"coordinates":[-0.237613,5.616177],"type":"Point"},"properties":{"osm_id":"6279110303","tag":{"natural":"tree"}},"type":"Feature"},
	{"geometry":{"coordinates":[-0.237792,5.616379],"type":"Point"},"properties":{"osm_id":"6279110304","tag":{"natural":"tree"}},"type":"Feature"},
	{"geometry":{"coordinates":[-0.237681,5.616249],"type":"Point"},"properties":{"osm_id":"6279110305","tag":{"natural":"tree"}},"type":"Feature"},
	{"geometry":{"coordinates":[-0.237821,5.616291],"type":"Point"},"properties":{"osm_id":"6279110306","tag":{"natural":"tree"}},"type":"Feature"},
	{"geometry":{"coordinates":[-0.237957,5.616276],"type":"Point"},"properties":{"osm_id":"6279110307","tag":{"natural":"tree"}},"type":"Feature"},
	{"geometry":{"coordinates":[-0.237979,5.616597],"type":"Point"},"properties":{"osm_id":"6279110308","tag":{"natural":"tree"}},"type":"Feature"},
	{"geometry":{"coordinates":[-0.237243,5.616149],"type":"Point"},"properties":{"osm_id":"6279110309","tag":{"natural":"tree"}},"type":"Feature"},
	{"geometry":{"coordinates":[-0.237272,5.616201],"type":"Point"},"properties":{"osm_id":"6279110310","tag":{"natural":"tree"}},"type":"Feature"},
	{"geometry":{"coordinates":[-0.237221,5.616185],"type":"Point"},"properties":{"osm_id":"6279110311","tag":{"natural":"tree"}},"type":"Feature"},
	{"geometry":{"coordinates":[-0.237154,5.616127],"type":"Point"},"properties":{"osm_id":"6279110312","tag":{"natural":"tree"}},"type":"Feature"},
	{"geometry":{"coordinates":[-0.237581,5.616042],"type":"Point"},"properties":{"osm_id":"6279110313","tag":{"natural":"tree"}},"type":"Feature"},
	{"geometry":{"coordinates":[-0.237683,5.616007],"type":"Point"},"properties":{"osm_id":"6279110315","tag":{"natural":"tree"}},"type":"Feature"},
	{"geometry":{"coordinates":[-0.240962,5.61635],"type":"Point"},"properties":{"osm_id":"6279110328","tag":{"natural":"tree"}},"type":"Feature"},
	{"geometry":{"coordinates":[-0.241074,5.616543],"type":"Point"},"properties":{"osm_id":"6279110329","tag":{"natural":"tree"}},"type":"Feature"},
	{"geometry":{"coordinates":[-0.183193,5.650842],"type":"Point"},"properties":{"osm_id":"6340349638","tag":{"natural":"tree"}},"type":"Feature"},
	{"geometry":{"coordinates":[-0.1832,5.652233],"type":"Point"},"properties":{"osm_id":"6340350098","tag":{"natural":"tree"}},"type":"Feature"},
	{"geometry":{"coordinates":[-0.263401,5.658865],"type":"Point"},"properties":{"osm_id":"6341714159","tag":{"leaf_type":"broadleaved","natural":"tree"}},"type":"Feature"},
	{"geometry":{"coordinates":[-0.263284,5.658773],"type":"Point"},"properties":{"osm_id":"6341714160","tag":{"leaf_type":"broadleaved","natural":"tree"}},"type":"Feature"},
	{"geometry":{"coordinates":[-0.263176,5.658654],"type":"Point"},"properties":{"osm_id":"6341714161","tag":{"leaf_type":"broadleaved","natural":"tree"}},"type":"Feature"},
	{"geometry":{"coordinates":[-0.263229,5.658592],"type":"Point"},"properties":{"osm_id":"6341714162","tag":{"leaf_type":"broadleaved","natural":"tree"}},"type":"Feature"},
	{"geometry":{"coordinates":[-0.263509,5.658727],"type":"Point"},"properties":{"osm_id":"6341714163","tag":{"leaf_type":"broadleaved","natural":"tree"}},"type":"Feature"},
	{"geometry":{"coordinates":[-0.263216,5.658883],"type":"Point"},"properties":{"osm_id":"6341714164","tag":{"leaf_type":"broadleaved","natural":"tree"}},"type":"Feature"},
	{"geometry":{"coordinates":[-0.263109,5.658344],"type":"Point"},"properties":{"osm_id":"6341714166","tag":{"leaf_type":"broadleaved","natural":"tree"}},"type":"Feature"},
	{"geometry":{"coordinates":[-0.243996,5.638936],"type":"Point"},"properties":{"osm_id":"6341841813","tag":{"leaf_type":"broadleaved","natural":"tree"}},"type":"Feature"},
	{"geometry":{"coordinates":[-0.247078,5.644405],"type":"Point"},"properties":{"osm_id":"7526198586","tag":{"natural":"tree"}},"type":"Feature"},
	{"geometry":{"coordinates":[-0.246925,5.644508],"type":"Point"},"properties":{"osm_id":"7526198587","tag":{"natural":"tree"}},"type":"Feature"},
	{"geometry":{"coordinates":[-0.241371,5.62714],"type":"Point"},"properties":{"osm_id":"7740177327","tag":{"natural":"tree"}},"type":"Feature"}
]
}
