{
"type": "FeatureCollection",
"features": [
	{"geometry":{"coordinates":[-43.19553,-22.914424],"type":"Point"},"properties":{"osm_id":"2013528718","tag":{"amenity":"waste_basket","description":"Garagem COMLURB"}},"type":"Feature"},
	{"geometry":{"coordinates":[-43.188152,-22.911206],"type":"Point"},"properties":{"osm_id":"4166075591","tag":{"amenity":"waste_disposal"}},"type":"Feature"},
	{"geometry":{"coordinates":[-43.187679,-22.910855],"type":"Point"},"properties":{"osm_id":"4166075592","tag":{"amenity":"waste_disposal"}},"type":"Feature"},
	{"geometry":{"coordinates":[-43.186946,-22.910823],"type":"Point"},"properties":{"osm_id":"4166312689","tag":{"amenity":"waste_disposal"}},"type":"Feature"},
	{"geometry":{"coordinates":[-43.179252,-22.894741],"type":"Point"},"properties":{"osm_id":"4264550868","tag":{"amenity":"waste_basket"}},"type":"Feature"},
	{"geometry":{"coordinates":[-43.17939,-22.89508],"type":"Point"},"properties":{"osm_id":"4264550871","tag":{"amenity":"waste_basket"}},"type":"Feature"},
	{"geometry":{"coordinates":[-43.178967,-22.894064],"type":"Point"},"properties":{"osm_id":"4264550878","tag":{"amenity":"waste_basket"}},"type":"Feature"},
	{"geometry":{"coordinates":[-43.179201,-22.894637],"type":"Point"},"properties":{"osm_id":"4264550882","tag":{"amenity":"waste_basket"}},"type":"Feature"},
	{"geometry":{"coordinates":[-43.178812,-22.893685],"type":"Point"},"properties":{"osm_id":"4264550884","tag":{"amenity":"waste_basket"}},"type":"Feature"},
	{"geometry":{"coordinates":[-43.186465,-22.912114],"type":"Point"},"properties":{"osm_id":"5084915062","tag":{"addr:city":"Rio de Janeiro","addr:postcode":"20231-016","addr:street":"Rua Ubaldino do Amaral","addr:suburb":"Lapa","amenity":"waste_disposal"}},"type":"Feature"},
	{"geometry":{"coordinates":[-43.188248,-22.910472],"type":"Point"},"properties":{"osm_id":"5088912265","tag":{"amenity":"waste_disposal"}},"type":"Feature"},
	{"geometry":{"coordinates":[-43.188754,-22.911177],"type":"Point"},"properties":{"osm_id":"5093488037","tag":{"amenity":"waste_disposal"}},"type":"Feature"},
	{"geometry":{"coordinates":[-43.189054,-22.913332],"type":"Point"},"properties":{"osm_id":"5102031243","tag":{"amenity":"waste_disposal"}},"type":"Feature"},
	{"geometry":{"coordinates":[-43.18444,-22.910614],"type":"Point"},"properties":{"osm_id":"5161123015","tag":{"amenity":"waste_disposal"}},"type":"Feature"},
	{"geometry":{"coordinates":[-43.183263,-22.912411],"type":"Point"},"properties":{"osm_id":"5161154206","tag":{"addr:city":"Rio de Janeiro","addr:housenumber":"642","addr:street":"Avenida Gomes Freire","addr:suburb":"Lapa","amenity":"waste_disposal"}},"type":"Feature"},
	{"geometry":{"coordinates":[-43.20063,-22.914082],"type":"Point"},"properties":{"osm_id":"5691820382","tag":{"amenity":"waste_disposal"}},"type":"Feature"},
	{"geometry":{"coordinates":[-43.200023,-22.912477],"type":"Point"},"properties":{"osm_id":"5691821536","tag":{"amenity":"waste_disposal"}},"type":"Feature"},
	{"geometry":{"coordinates":[-43.20091,-22.91266],"type":"Point"},"properties":{"osm_id":"5691822842","tag":{"amenity":"waste_disposal"}},"type":"Feature"},
	{"geometry":{"coordinates":[-43.177864,-22.906538],"type":"Point"},"properties":{"osm_id":"6103112009","tag":{"amenity":"waste_disposal"}},"type":"Feature"},
	{"geometry":{"coordinates":[-43.177848,-22.906537],"type":"Point"},"properties":{"osm_id":"6103119644","tag":{"amenity":"waste_disposal"}},"type":"Feature"},
	{"geometry":{"coordinates":[-43.177837,-22.906534],"type":"Point"},"properties":{"osm_id":"6103123679","tag":{"amenity":"waste_disposal"}},"type":"Feature"},
	{"geometry":{"coordinates":[-43.169575,-22.90884],"type":"Point"},"properties":{"osm_id":"6146058217","tag":{"amenity":"waste_basket"}},"type":"Feature"},
	{"geometry":{"coordinates":[-43.169672,-22.908616],"type":"Point"},"properties":{"osm_id":"6146058218","tag":{"amenity":"waste_basket"}},"type":"Feature"},
	{"geometry":{"coordinates":[-43.208028,-22.915522],"type":"Point"},"properties":{"osm_id":"6152485380","tag":{"amenity":"waste_disposal"}},"type":"Feature"}
]
}
