{
"type": "FeatureCollection",
"features": [
	{"geometry":{"coordinates":[-43.233478,-22.920395],"type":"Point"},"properties":{"name":"Comlurb","osm_id":"816173263","tag":{"amenity":"recycling"}},"type":"Feature"},
	{"geometry":{"coordinates":[-43.177056,-22.962935],"type":"Point"},"properties":{"osm_id":"2172964172","tag":{"amenity":"waste_basket"}},"type":"Feature"},
	{"geometry":{"coordinates":[-43.178614,-22.963937],"type":"Point"},"properties":{"osm_id":"2172988828","tag":{"amenity":"waste_basket"}},"type":"Feature"},
	{"geometry":{"coordinates":[-43.217269,-22.968997],"type":"Point"},"properties":{"osm_id":"2182251501","tag":{"amenity":"waste_basket"}},"type":"Feature"},
	{"geometry":{"coordinates":[-43.217184,-22.969094],"type":"Point"},"properties":{"osm_id":"2182251580","tag":{"amenity":"waste_basket"}},"type":"Feature"},
	{"geometry":{"coordinates":[-43.216735,-22.969439],"type":"Point"},"properties":{"highway":"street_lamp","osm_id":"2182251651","tag":{"amenity":"waste_basket"}},"type":"Feature"},
	{"geometry":{"coordinates":[-43.216673,-22.969871],"type":"Point"},"properties":{"highway":"street_lamp","osm_id":"2182251721","tag":{"amenity":"waste_basket"}},"type":"Feature"},
	{"geometry":{"coordinates":[-43.21668,-22.970124],"type":"Point"},"properties":{"highway":"street_lamp","osm_id":"2182251762","tag":{"amenity":"waste_basket"}},"type":"Feature"},
	{"geometry":{"coordinates":[-43.216706,-22.970455],"type":"Point"},"properties":{"highway":"street_lamp","osm_id":"2182252134","tag":{"amenity":"waste_basket"}},"type":"Feature"},
	{"geometry":{"coordinates":[-43.216515,-22.970684],"type":"Point"},"properties":{"osm_id":"2182252431","tag":{"amenity":"waste_basket"}},"type":"Feature"},
	{"geometry":{"coordinates":[-43.216068,-22.97132],"type":"Point"},"properties":{"osm_id":"2182252576","tag":{"amenity":"waste_basket"}},"type":"Feature"},
	{"geometry":{"coordinates":[-43.216343,-22.972068],"type":"Point"},"properties":{"highway":"street_lamp","osm_id":"2182332438","tag":{"amenity":"waste_basket"}},"type":"Feature"},
	{"geometry":{"coordinates":[-43.216228,-22.973256],"type":"Point"},"properties":{"highway":"street_lamp","osm_id":"2182332575","tag":{"amenity":"waste_basket"}},"type":"Feature"},
	{"geometry":{"coordinates":[-43.216292,-22.973683],"type":"Point"},"properties":{"highway":"street_lamp","osm_id":"2182332891","tag":{"amenity":"waste_basket"}},"type":"Feature"},
	{"geometry":{"coordinates":[-43.21707,-22.97386],"type":"Point"},"properties":{"highway":"street_lamp","osm_id":"2182332896","tag":{"amenity":"waste_basket"}},"type":"Feature"},
	{"geometry":{"coordinates":[-43.21757,-22.973859],"type":"Point"},"properties":{"highway":"street_lamp","osm_id":"2182332900","tag":{"amenity":"waste_basket"}},"type":"Feature"},
	{"geometry":{"coordinates":[-43.217442,-22.972333],"type":"Point"},"properties":{"osm_id":"2182332904","tag":{"amenity":"waste_basket"}},"type":"Feature"},
	{"geometry":{"coordinates":[-43.217404,-22.97146],"type":"Point"},"properties":{"osm_id":"2182332964","tag":{"amenity":"waste_basket"}},"type":"Feature"},
	{"geometry":{"coordinates":[-43.216939,-22.972322],"type":"Point"},"properties":{"highway":"street_lamp","osm_id":"2182333056","tag":{"amenity":"waste_basket"}},"type":"Feature"},
	{"geometry":{"coordinates":[-43.218094,-22.974553],"type":"Point"},"properties":{"highway":"street_lamp","osm_id":"2182333212","tag":{"amenity":"waste_basket"}},"type":"Feature"},
	{"geometry":{"coordinates":[-43.218622,-22.975874],"type":"Point"},"properties":{"highway":"street_lamp","osm_id":"2182353082","tag":{"amenity":"waste_basket"}},"type":"Feature"},
	{"geometry":{"coordinates":[-43.217469,-22.978915],"type":"Point"},"properties":{"highway":"street_lamp","osm_id":"2182353118","tag":{"amenity":"waste_basket"}},"type":"Feature"},
	{"geometry":{"coordinates":[-43.216827,-22.979018],"type":"Point"},"properties":{"highway":"street_lamp","osm_id":"2182364966","tag":{"amenity":"waste_basket"}},"type":"Feature"},
	{"geometry":{"coordinates":[-43.216104,-22.979271],"type":"Point"},"properties":{"highway":"street_lamp","osm_id":"2182364970","tag":{"amenity":"waste_basket"}},"type":"Feature"},
	{"geometry":{"coordinates":[-43.215639,-22.979486],"type":"Point"},"properties":{"highway":"street_lamp","osm_id":"2182365000","tag":{"amenity":"waste_basket"}},"type":"Feature"},
	{"geometry":{"coordinates":[-43.215244,-22.97968],"type":"Point"},"properties":{"highway":"street_lamp","osm_id":"2182365025","tag":{"amenity":"waste_basket"}},"type":"Feature"},
	{"geometry":{"coordinates":[-43.215886,-22.979605],"type":"Point"},"properties":{"highway":"street_lamp","osm_id":"2182381617","tag":{"amenity":"waste_basket"}},"type":"Feature"},
	{"geometry":{"coordinates":[-43.21543,-22.979793],"type":"Point"},"properties":{"highway":"street_lamp","osm_id":"2182381642","tag":{"amenity":"waste_basket"}},"type":"Feature"},
	{"geometry":{"coordinates":[-43.214617,-22.97996],"type":"Point"},"properties":{"highway":"street_lamp","osm_id":"2182381680","tag":{"amenity":"waste_basket"}},"type":"Feature"},
	{"geometry":{"coordinates":[-43.212106,-22.980342],"type":"Point"},"properties":{"osm_id":"2182536295","tag":{"amenity":"waste_basket"}},"type":"Feature"},
	{"geometry":{"coordinates":[-43.211715,-22.98023],"type":"Point"},"properties":{"highway":"street_lamp","osm_id":"2182536297","tag":{"amenity":"waste_basket"}},"type":"Feature"},
	{"geometry":{"coordinates":[-43.210849,-22.980263],"type":"Point"},"properties":{"highway":"street_lamp","osm_id":"2182536304","tag":{"amenity":"waste_basket"}},"type":"Feature"},
	{"geometry":{"coordinates":[-43.209949,-22.980319],"type":"Point"},"properties":{"highway":"street_lamp","osm_id":"2182536306","tag":{"amenity":"waste_basket"}},"type":"Feature"},
	{"geometry":{"coordinates":[-43.209111,-22.980353],"type":"Point"},"properties":{"highway":"street_lamp","osm_id":"2182536307","tag":{"amenity":"waste_basket"}},"type":"Feature"},
	{"geometry":{"coordinates":[-43.184925,-22.949424],"type":"Point"},"properties":{"osm_id":"2197875875","tag":{"amenity":"waste_basket"}},"type":"Feature"},
	{"geometry":{"coordinates":[-43.184899,-22.949546],"type":"Point"},"properties":{"osm_id":"2197875982","tag":{"amenity":"waste_basket"}},"type":"Feature"},
	{"geometry":{"coordinates":[-43.192751,-22.950601],"type":"Point"},"properties":{"osm_id":"2197900449","tag":{"amenity":"waste_basket"}},"type":"Feature"},
	{"geometry":{"coordinates":[-43.192893,-22.950652],"type":"Point"},"properties":{"osm_id":"2197900536","tag":{"amenity":"waste_basket"}},"type":"Feature"},
	{"geometry":{"coordinates":[-43.176098,-22.962318],"type":"Point"},"properties":{"osm_id":"2203247638","tag":{"amenity":"waste_basket"}},"type":"Feature"},
	{"geometry":{"coordinates":[-43.176601,-22.962659],"type":"Point"},"properties":{"osm_id":"2203247639","tag":{"amenity":"waste_basket"}},"type":"Feature"},
	{"geometry":{"coordinates":[-43.174719,-22.963002],"type":"Point"},"properties":{"osm_id":"2203304020","tag":{"amenity":"waste_basket"}},"type":"Feature"},
	{"geometry":{"coordinates":[-43.175207,-22.962135],"type":"Point"},"properties":{"osm_id":"2203304100","tag":{"amenity":"waste_basket"}},"type":"Feature"},
	{"geometry":{"coordinates":[-43.179464,-22.964469],"type":"Point"},"properties":{"osm_id":"2203327801","tag":{"amenity":"waste_basket"}},"type":"Feature"},
	{"geometry":{"coordinates":[-43.179204,-22.964303],"type":"Point"},"properties":{"osm_id":"2203327805","tag":{"amenity":"waste_basket"}},"type":"Feature"},
	{"geometry":{"coordinates":[-43.203698,-22.965275],"type":"Point"},"properties":{"osm_id":"2629280761","tag":{"amenity":"waste_basket"}},"type":"Feature"},
	{"geometry":{"coordinates":[-43.203626,-22.966233],"type":"Point"},"properties":{"osm_id":"2629280765","tag":{"amenity":"waste_basket"}},"type":"Feature"},
	{"geometry":{"coordinates":[-43.203761,-22.967167],"type":"Point"},"properties":{"osm_id":"2629280767","tag":{"amenity":"waste_basket"}},"type":"Feature"},
	{"geometry":{"coordinates":[-43.204716,-22.968337],"type":"Point"},"properties":{"osm_id":"2629280769","tag":{"amenity":"waste_basket"}},"type":"Feature"},
	{"geometry":{"coordinates":[-43.205572,-22.969168],"type":"Point"},"properties":{"osm_id":"2629280772","tag":{"amenity":"waste_basket"}},"type":"Feature"},
	{"geometry":{"coordinates":[-43.206199,-22.96982],"type":"Point"},"properties":{"osm_id":"2629280775","tag":{"amenity":"waste_basket"}},"type":"Feature"},
	{"geometry":{"coordinates":[-43.206826,-22.970466],"type":"Point"},"properties":{"osm_id":"2629280777","tag":{"amenity":"waste_basket"}},"type":"Feature"},
	{"geometry":{"coordinates":[-43.207447,-22.971121],"type":"Point"},"properties":{"osm_id":"2629280779","tag":{"amenity":"waste_basket"}},"type":"Feature"},
	{"geometry":{"coordinates":[-43.208216,-22.971935],"type":"Point"},"properties":{"osm_id":"2629280780","tag":{"amenity":"waste_basket"}},"type":"Feature"},
	{"geometry":{"coordinates":[-43.208305,-22.972824],"type":"Point"},"properties":{"osm_id":"2629280781","tag":{"amenity":"waste_basket"}},"type":"Feature"},
	{"geometry":{"coordinates":[-43.207949,-22.973722],"type":"Point"},"properties":{"osm_id":"2629280783","tag":{"amenity":"waste_basket"}},"type":"Feature"},
	{"geometry":{"coordinates":[-43.207693,-22.974339],"type":"Point"},"properties":{"osm_id":"2629280786","tag":{"amenity":"waste_basket"}},"type":"Feature"},
	{"geometry":{"coordinates":[-43.20709,-22.97461],"type":"Point"},"properties":{"osm_id":"2629280789","tag":{"amenity":"waste_basket"}},"type":"Feature"},
	{"geometry":{"coordinates":[-43.206382,-22.974403],"type":"Point"},"properties":{"osm_id":"2629280791","tag":{"amenity":"waste_basket"}},"type":"Feature"},
	{"geometry":{"coordinates":[-43.205564,-22.974065],"type":"Point"},"properties":{"osm_id":"2629280794","tag":{"amenity":"waste_basket"}},"type":"Feature"},
	{"geometry":{"coordinates":[-43.204836,-22.973792],"type":"Point"},"properties":{"osm_id":"2629280796","tag":{"amenity":"waste_basket"}},"type":"Feature"},
	{"geometry":{"coordinates":[-43.204386,-22.97357],"type":"Point"},"properties":{"osm_id":"2629280799","tag":{"amenity":"waste_basket"}},"type":"Feature"},
	{"geometry":{"coordinates":[-43.204096,-22.973751],"type":"Point"},"properties":{"osm_id":"2629280801","tag":{"amenity":"waste_basket"}},"type":"Feature"},
	{"geometry":{"coordinates":[-43.203556,-22.973602],"type":"Point"},"properties":{"osm_id":"2629280804","tag":{"amenity":"waste_basket"}},"type":"Feature"},
	{"geometry":{"coordinates":[-43.203346,-22.973344],"type":"Point"},"properties":{"osm_id":"2629280807","tag":{"amenity":"waste_basket"}},"type":"Feature"},
	{"geometry":{"coordinates":[-43.203018,-22.973389],"type":"Point"},"properties":{"osm_id":"2629280809","tag":{"amenity":"waste_basket"}},"type":"Feature"},
	{"geometry":{"coordinates":[-43.202929,-22.973902],"type":"Point"},"properties":{"osm_id":"2629280812","tag":{"amenity":"waste_basket"}},"type":"Feature"},
	{"geometry":{"coordinates":[-43.202425,-22.973978],"type":"Point"},"properties":{"osm_id":"2629280814","tag":{"amenity":"waste_basket"}},"type":"Feature"},
	{"geometry":{"coordinates":[-43.202135,-22.974087],"type":"Point"},"properties":{"osm_id":"2629280817","tag":{"amenity":"waste_basket"}},"type":"Feature"},
	{"geometry":{"coordinates":[-43.202115,-22.974372],"type":"Point"},"properties":{"osm_id":"2629280819","tag":{"amenity":"waste_basket"}},"type":"Feature"},
	{"geometry":{"coordinates":[-43.201584,-22.974525],"type":"Point"},"properties":{"osm_id":"2629280822","tag":{"amenity":"waste_basket"}},"type":"Feature"},
	{"geometry":{"coordinates":[-43.201587,-22.974705],"type":"Point"},"properties":{"osm_id":"2629280824","tag":{"amenity":"waste_basket"}},"type":"Feature"},
	{"geometry":{"coordinates":[-43.200872,-22.975549],"type":"Point"},"properties":{"osm_id":"2629280832","tag":{"amenity":"waste_basket"}},"type":"Feature"},
	{"geometry":{"coordinates":[-43.200556,-22.975772],"type":"Point"},"properties":{"osm_id":"2629280834","tag":{"amenity":"waste_basket"}},"type":"Feature"},
	{"geometry":{"coordinates":[-43.200336,-22.975555],"type":"Point"},"properties":{"osm_id":"2629280837","tag":{"amenity":"waste_basket"}},"type":"Feature"},
	{"geometry":{"coordinates":[-43.202889,-22.962841],"type":"Point"},"properties":{"osm_id":"2649546739","tag":{"amenity":"waste_basket"}},"type":"Feature"},
	{"geometry":{"coordinates":[-43.202741,-22.965233],"type":"Point"},"properties":{"osm_id":"2649556911","tag":{"amenity":"waste_basket"}},"type":"Feature"},
	{"geometry":{"coordinates":[-43.202794,-22.966732],"type":"Point"},"properties":{"osm_id":"2649556912","tag":{"amenity":"waste_basket"}},"type":"Feature"},
	{"geometry":{"coordinates":[-43.202961,-22.966762],"type":"Point"},"properties":{"osm_id":"2649562255","tag":{"amenity":"waste_basket"}},"type":"Feature"},
	{"geometry":{"coordinates":[-43.204882,-22.968899],"type":"Point"},"properties":{"osm_id":"2649562258","tag":{"amenity":"waste_basket"}},"type":"Feature"},
	{"geometry":{"coordinates":[-43.204338,-22.968353],"type":"Point"},"properties":{"osm_id":"2659078525","tag":{"amenity":"waste_basket"}},"type":"Feature"},
	{"geometry":{"coordinates":[-43.172949,-22.925257],"type":"Point"},"properties":{"osm_id":"3358677476","tag":{"amenity":"waste_basket"}},"type":"Feature"},
	{"geometry":{"coordinates":[-43.201274,-22.932341],"type":"Point"},"properties":{"name":"Ca\u00c3\u00a7amba da Comlurb","osm_id":"4151278645","tag":{"amenity":"waste_basket"}},"type":"Feature"},
	{"geometry":{"coordinates":[-43.160724,-22.952578],"type":"Point"},"properties":{"osm_id":"4524090869","tag":{"amenity":"waste_basket"}},"type":"Feature"},
	{"geometry":{"coordinates":[-43.156185,-22.952322],"type":"Point"},"properties":{"osm_id":"4524090871","tag":{"amenity":"waste_basket"}},"type":"Feature"},
	{"geometry":{"coordinates":[-43.186097,-22.921537],"type":"Point"},"properties":{"osm_id":"4869964832","tag":{"amenity":"waste_basket"}},"type":"Feature"},
	{"geometry":{"coordinates":[-43.165198,-22.951508],"type":"Point"},"properties":{"osm_id":"7096244291","tag":{"amenity":"waste_basket"}},"type":"Feature"},
	{"geometry":{"coordinates":[-43.183847,-22.953383],"type":"Point"},"properties":{"osm_id":"7201716008","tag":{"amenity":"recycling","operator":"Comlurb","recycling:glass":"yes","recycling:metal":"yes","recycling:paper":"yes","recycling:plastic":"yes","recycling_type":"container"}},"type":"Feature"}
]
}
