{
"type": "FeatureCollection",
"features": [
	{"geometry":{"coordinates":[-97.443567,20.534087],"type":"Point"},"properties":{"osm_id":"5299605946","tag":{"SEP:CLAVEESC":"30PJN1054Q","addr:city":"Poza Rica de Hidalgo","natural":"tree","operator:type":"private","source:date":"2016"}},"type":"Feature"},
	{"geometry":{"coordinates":[-97.442415,20.533815],"type":"Point"},"properties":{"osm_id":"5299606957","tag":{"SEP:CLAVEESC":"30ETV0464W","addr:city":"Poza Rica de Hidalgo","addr:housenumber":"SN","addr:postcode":"93261","addr:street":"Principal","natural":"tree","operator:type":"public","source:date":"2016"}},"type":"Feature"},
	{"geometry":{"coordinates":[-97.442406,20.533368],"type":"Point"},"properties":{"osm_id":"5299606991","tag":{"SEP:CLAVEESC":"30XUD0003K","addr:city":"Poza Rica de Hidalgo","addr:housenumber":"0","addr:postcode":"93240","addr:street":"Josefa Ortiz de Dominguez","contact:phone":"8342844","natural":"tree","operator:type":"public","source:date":"2016"}},"type":"Feature"},
	{"geometry":{"coordinates":[-97.44301,20.53379],"type":"Point"},"properties":{"osm_id":"5299607024","tag":{"SEP:CLAVEESC":"30ESU0243X","addr:city":"Poza Rica de Hidalgo","addr:postcode":"95870","addr:street":"Carretera Coatzintla Kilometro 1.5","contact:phone":"3277309","natural":"tree","operator:type":"public","source:date":"2016"}},"type":"Feature"},
	{"geometry":{"coordinates":[-97.443415,20.534002],"type":"Point"},"properties":{"osm_id":"5299607349","tag":{"SEP:CLAVEESC":"30PES0413P","addr:city":"Poza Rica de Hidalgo","addr:housenumber":"408","addr:postcode":"93320","addr:street":"Peru","contact:phone":"8227905","natural":"tree","operator:type":"private","source:date":"2016"}},"type":"Feature"},
	{"geometry":{"coordinates":[-97.442236,20.533905],"type":"Point"},"properties":{"osm_id":"5299607371","tag":{"SEP:CLAVEESC":"30PJN0977L","addr:city":"Poza Rica de Hidalgo","addr:housenumber":"408","addr:postcode":"93240","addr:street":"Nogal Lote 15 Manzana 32","contact:phone":"8247201","natural":"tree","operator:type":"private","source:date":"2016"}},"type":"Feature"},
	{"geometry":{"coordinates":[-97.442144,20.533804],"type":"Point"},"properties":{"osm_id":"5299607373","tag":{"SEP:CLAVEESC":"30PBT0697D","addr:city":"Poza Rica de Hidalgo","addr:housenumber":"18 ALTOS","addr:postcode":"93260","addr:street":"Avenida 6 Norte","contact:phone":"8224657","natural":"tree","operator:type":"private","source:date":"2016"}},"type":"Feature"},
	{"geometry":{"coordinates":[-97.443003,20.533967],"type":"Point"},"properties":{"osm_id":"5299607383","tag":{"SEP:CLAVEESC":"30PDI0067R","addr:city":"Poza Rica de Hidalgo","addr:housenumber":"613","addr:postcode":"93279","addr:street":"Limon","contact:phone":"8244322","natural":"tree","operator:type":"private","source:date":"2016"}},"type":"Feature"},
	{"geometry":{"coordinates":[-97.442546,20.533847],"type":"Point"},"properties":{"osm_id":"9020779557","tag":{"natural":"tree"}},"type":"Feature"},
	{"geometry":{"coordinates":[-97.44226,20.533845],"type":"Point"},"properties":{"osm_id":"9020834382","tag":{"natural":"tree"}},"type":"Feature"},
	{"geometry":{"coordinates":[-97.442036,20.533467],"type":"Point"},"properties":{"osm_id":"9020856931","tag":{"SEP:CLAVEESC":"30ESU0243X","addr:city":"Poza Rica de Hidalgo","addr:postcode":"95870","addr:street":"Carretera Coatzintla Kilometro 1.5","contact:phone":"3277309","natural":"tree","operator:type":"public","source:date":"2016"}},"type":"Feature"},
	{"geometry":{"coordinates":[-97.443432,20.533771],"type":"Point"},"properties":{"osm_id":"9020856932","tag":{"SEP:CLAVEESC":"30ESU0243X","addr:city":"Poza Rica de Hidalgo","addr:postcode":"95870","addr:street":"Carretera Coatzintla Kilometro 1.5","contact:phone":"3277309","natural":"tree","operator:type":"public","source:date":"2016"}},"type":"Feature"},
	{"geometry":{"coordinates":[-97.442967,20.533698],"type":"Point"},"properties":{"osm_id":"9020856933","tag":{"SEP:CLAVEESC":"30ESU0243X","addr:city":"Poza Rica de Hidalgo","addr:postcode":"95870","addr:street":"Carretera Coatzintla Kilometro 1.5","contact:phone":"3277309","natural":"tree","operator:type":"public","source:date":"2016"}},"type":"Feature"},
	{"geometry":{"coordinates":[-97.4423,20.534382],"type":"Point"},"properties":{"osm_id":"9020856934","tag":{"SEP:CLAVEESC":"30ESU0243X","addr:city":"Poza Rica de Hidalgo","addr:postcode":"95870","addr:street":"Carretera Coatzintla Kilometro 1.5","contact:phone":"3277309","natural":"tree","operator:type":"public","source:date":"2016"}},"type":"Feature"},
	{"geometry":{"coordinates":[-97.442013,20.534301],"type":"Point"},"properties":{"osm_id":"9020856935","tag":{"SEP:CLAVEESC":"30ESU0243X","addr:city":"Poza Rica de Hidalgo","addr:postcode":"95870","addr:street":"Carretera Coatzintla Kilometro 1.5","contact:phone":"3277309","natural":"tree","operator:type":"public","source:date":"2016"}},"type":"Feature"},
	{"geometry":{"coordinates":[-97.442645,20.533976],"type":"Point"},"properties":{"osm_id":"9020856936","tag":{"SEP:CLAVEESC":"30ESU0243X","addr:city":"Poza Rica de Hidalgo","addr:postcode":"95870","addr:street":"Carretera Coatzintla Kilometro 1.5","contact:phone":"3277309","natural":"tree","operator:type":"public","source:date":"2016"}},"type":"Feature"},
	{"geometry":{"coordinates":[-97.442483,20.533819],"type":"Point"},"properties":{"osm_id":"9020856937","tag":{"SEP:CLAVEESC":"30ESU0243X","addr:city":"Poza Rica de Hidalgo","addr:postcode":"95870","addr:street":"Carretera Coatzintla Kilometro 1.5","contact:phone":"3277309","natural":"tree","operator:type":"public","source:date":"2016"}},"type":"Feature"},
	{"geometry":{"coordinates":[-97.44261,20.533687],"type":"Point"},"properties":{"osm_id":"9020856938","tag":{"SEP:CLAVEESC":"30ESU0243X","addr:city":"Poza Rica de Hidalgo","addr:postcode":"95870","addr:street":"Carretera Coatzintla Kilometro 1.5","contact:phone":"3277309","natural":"tree","operator:type":"public","source:date":"2016"}},"type":"Feature"},
	{"geometry":{"coordinates":[-97.443538,20.534798],"type":"Point"},"properties":{"osm_id":"9020856939","tag":{"SEP:CLAVEESC":"30ESU0243X","addr:city":"Poza Rica de Hidalgo","addr:postcode":"95870","addr:street":"Carretera Coatzintla Kilometro 1.5","contact:phone":"3277309","natural":"tree","operator:type":"public","source:date":"2016"}},"type":"Feature"},
	{"geometry":{"coordinates":[-97.443423,20.53482],"type":"Point"},"properties":{"osm_id":"9020856940","tag":{"SEP:CLAVEESC":"30ESU0243X","addr:city":"Poza Rica de Hidalgo","addr:postcode":"95870","addr:street":"Carretera Coatzintla Kilometro 1.5","contact:phone":"3277309","natural":"tree","operator:type":"public","source:date":"2016"}},"type":"Feature"},
	{"geometry":{"coordinates":[-97.443642,20.534422],"type":"Point"},"properties":{"osm_id":"9020856941","tag":{"SEP:CLAVEESC":"30ESU0243X","addr:city":"Poza Rica de Hidalgo","addr:postcode":"95870","addr:street":"Carretera Coatzintla Kilometro 1.5","contact:phone":"3277309","natural":"tree","operator:type":"public","source:date":"2016"}},"type":"Feature"},
	{"geometry":{"coordinates":[-97.443499,20.534494],"type":"Point"},"properties":{"osm_id":"9020856942","tag":{"SEP:CLAVEESC":"30ESU0243X","addr:city":"Poza Rica de Hidalgo","addr:postcode":"95870","addr:street":"Carretera Coatzintla Kilometro 1.5","contact:phone":"3277309","natural":"tree","operator:type":"public","source:date":"2016"}},"type":"Feature"},
	{"geometry":{"coordinates":[-97.44379,20.534367],"type":"Point"},"properties":{"osm_id":"9020856943","tag":{"SEP:CLAVEESC":"30ESU0243X","addr:city":"Poza Rica de Hidalgo","addr:postcode":"95870","addr:street":"Carretera Coatzintla Kilometro 1.5","contact:phone":"3277309","natural":"tree","operator:type":"public","source:date":"2016"}},"type":"Feature"},
	{"geometry":{"coordinates":[-97.443871,20.534893],"type":"Point"},"properties":{"osm_id":"9020856944","tag":{"SEP:CLAVEESC":"30ESU0243X","addr:city":"Poza Rica de Hidalgo","addr:postcode":"95870","addr:street":"Carretera Coatzintla Kilometro 1.5","contact:phone":"3277309","natural":"tree","operator:type":"public","source:date":"2016"}},"type":"Feature"},
	{"geometry":{"coordinates":[-97.443702,20.534953],"type":"Point"},"properties":{"osm_id":"9020856945","tag":{"SEP:CLAVEESC":"30ESU0243X","addr:city":"Poza Rica de Hidalgo","addr:postcode":"95870","addr:street":"Carretera Coatzintla Kilometro 1.5","contact:phone":"3277309","natural":"tree","operator:type":"public","source:date":"2016"}},"type":"Feature"},
	{"geometry":{"coordinates":[-97.444016,20.534707],"type":"Point"},"properties":{"osm_id":"9020856946","tag":{"SEP:CLAVEESC":"30ESU0243X","addr:city":"Poza Rica de Hidalgo","addr:postcode":"95870","addr:street":"Carretera Coatzintla Kilometro 1.5","contact:phone":"3277309","natural":"tree","operator:type":"public","source:date":"2016"}},"type":"Feature"},
	{"geometry":{"coordinates":[-97.443384,20.534657],"type":"Point"},"properties":{"osm_id":"9020856947","tag":{"SEP:CLAVEESC":"30ESU0243X","addr:city":"Poza Rica de Hidalgo","addr:postcode":"95870","addr:street":"Carretera Coatzintla Kilometro 1.5","contact:phone":"3277309","natural":"tree","operator:type":"public","source:date":"2016"}},"type":"Feature"},
	{"geometry":{"coordinates":[-97.442232,20.534556],"type":"Point"},"properties":{"osm_id":"9020856948","tag":{"SEP:CLAVEESC":"30ESU0243X","addr:city":"Poza Rica de Hidalgo","addr:postcode":"95870","addr:street":"Carretera Coatzintla Kilometro 1.5","contact:phone":"3277309","natural":"tree","operator:type":"public","source:date":"2016"}},"type":"Feature"},
	{"geometry":{"coordinates":[-97.442789,20.533328],"type":"Point"},"properties":{"osm_id":"9020856949","tag":{"SEP:CLAVEESC":"30ESU0243X","addr:city":"Poza Rica de Hidalgo","addr:postcode":"95870","addr:street":"Carretera Coatzintla Kilometro 1.5","contact:phone":"3277309","natural":"tree","operator:type":"public","source:date":"2016"}},"type":"Feature"},
	{"geometry":{"coordinates":[-97.442691,20.533568],"type":"Point"},"properties":{"osm_id":"9020856950","tag":{"SEP:CLAVEESC":"30ESU0243X","addr:city":"Poza Rica de Hidalgo","addr:postcode":"95870","addr:street":"Carretera Coatzintla Kilometro 1.5","contact:phone":"3277309","natural":"tree","operator:type":"public","source:date":"2016"}},"type":"Feature"},
	{"geometry":{"coordinates":[-97.442743,20.53358],"type":"Point"},"properties":{"osm_id":"9020856951","tag":{"SEP:CLAVEESC":"30ESU0243X","addr:city":"Poza Rica de Hidalgo","addr:postcode":"95870","addr:street":"Carretera Coatzintla Kilometro 1.5","contact:phone":"3277309","natural":"tree","operator:type":"public","source:date":"2016"}},"type":"Feature"},
	{"geometry":{"coordinates":[-97.443953,20.534502],"type":"Point"},"properties":{"osm_id":"9020856952","tag":{"SEP:CLAVEESC":"30ESU0243X","addr:city":"Poza Rica de Hidalgo","addr:postcode":"95870","addr:street":"Carretera Coatzintla Kilometro 1.5","contact:phone":"3277309","natural":"tree","operator:type":"public","source:date":"2016"}},"type":"Feature"}
]
}
