{
"type": "FeatureCollection",
"features": [
	{"geometry":{"coordinates":[-72.313627,18.58296],"type":"Point"},"properties":{"osm_id":"877652779","tag":{"amenity":"waste_basket","operational_status":"open","operator:type":"private_for_profit"}},"type":"Feature"},
	{"geometry":{"coordinates":[-72.312063,18.584746],"type":"Point"},"properties":{"osm_id":"877653099","tag":{"amenity":"waste_basket","operational_status":"open","operator:type":"private_for_profit"}},"type":"Feature"},
	{"geometry":{"coordinates":[-72.324976,18.574795],"type":"Point"},"properties":{"osm_id":"882825878","tag":{"amenity":"waste_basket","operational_status":"open"}},"type":"Feature"},
	{"geometry":{"coordinates":[-72.324899,18.575109],"type":"Point"},"properties":{"osm_id":"882825902","tag":{"amenity":"waste_basket","operational_status":"open"}},"type":"Feature"},
	{"geometry":{"coordinates":[-72.326511,18.575674],"type":"Point"},"properties":{"osm_id":"882826386","tag":{"amenity":"waste_basket","operational_status":"open","operator":"MSF","operator:type":"private_non_profit"}},"type":"Feature"},
	{"geometry":{"coordinates":[-72.325579,18.575239],"type":"Point"},"properties":{"osm_id":"882826815","tag":{"amenity":"waste_basket","operational_status":"open","operator":"MSF","operator:type":"private_non_profit"}},"type":"Feature"},
	{"geometry":{"coordinates":[-72.325582,18.575245],"type":"Point"},"properties":{"osm_id":"882826882","tag":{"amenity":"waste_basket","operational_status":"open","operator":"MSF","operator:type":"private_non_profit"}},"type":"Feature"},
	{"geometry":{"coordinates":[-72.324916,18.575082],"type":"Point"},"properties":{"osm_id":"882827056","tag":{"amenity":"waste_basket","operational_status":"open"}},"type":"Feature"},
	{"geometry":{"coordinates":[-72.325236,18.576634],"type":"Point"},"properties":{"osm_id":"883450447","tag":{"amenity":"waste_basket","operational_status":"open"}},"type":"Feature"},
	{"geometry":{"coordinates":[-72.325178,18.576696],"type":"Point"},"properties":{"osm_id":"883450522","tag":{"amenity":"waste_basket","operational_status":"open","operator":"MSF","operator:type":"private_non_profit"}},"type":"Feature"},
	{"geometry":{"coordinates":[-72.324882,18.576933],"type":"Point"},"properties":{"osm_id":"883450587","tag":{"amenity":"waste_basket","operational_status":"open","operator":"MSF","operator:type":"private_non_profit"}},"type":"Feature"},
	{"geometry":{"coordinates":[-72.325238,18.57664],"type":"Point"},"properties":{"osm_id":"883450610","tag":{"amenity":"waste_basket","operational_status":"open"}},"type":"Feature"},
	{"geometry":{"coordinates":[-72.306287,18.584167],"type":"Point"},"properties":{"osm_id":"931020919","tag":{"amenity":"waste_basket"}},"type":"Feature"},
	{"geometry":{"coordinates":[-72.306416,18.584106],"type":"Point"},"properties":{"osm_id":"931020922","tag":{"amenity":"waste_basket"}},"type":"Feature"},
	{"geometry":{"coordinates":[-72.291583,18.57233],"type":"Point"},"properties":{"osm_id":"938713967","tag":{"amenity":"waste_basket","operational_status":"open","operator":"croix-rouge espagnol","operator:type":"private_non_profit"}},"type":"Feature"},
	{"geometry":{"coordinates":[-72.29145,18.571846],"type":"Point"},"properties":{"osm_id":"938713977","tag":{"amenity":"waste_basket","operational_status":"open","operator":"croix-rouge espagnol","operator:type":"private_non_profit"}},"type":"Feature"},
	{"geometry":{"coordinates":[-72.301954,18.585002],"type":"Point"},"properties":{"osm_id":"938728766","tag":{"amenity":"waste_basket","operational_status":"restricted","operator:type":"private_non_profit"}},"type":"Feature"},
	{"geometry":{"coordinates":[-72.301788,18.584571],"type":"Point"},"properties":{"osm_id":"938729030","tag":{"amenity":"waste_basket","operational_status":"restricted","operator:type":"private_non_profit"}},"type":"Feature"},
	{"geometry":{"coordinates":[-72.31412,18.563325],"type":"Point"},"properties":{"osm_id":"948126214","tag":{"amenity":"waste_basket","operational_status":"open","operator:type":"private_non_profit"}},"type":"Feature"},
	{"geometry":{"coordinates":[-72.320529,18.564172],"type":"Point"},"properties":{"osm_id":"957362939","tag":{"amenity":"waste_basket","operational_status":"open","operator":"SMCRS","operator:type":"government_facility-public"}},"type":"Feature"},
	{"geometry":{"coordinates":[-72.320555,18.565741],"type":"Point"},"properties":{"osm_id":"957363449","tag":{"amenity":"waste_basket","operational_status":"open","operator":"SMCRS","operator:type":"government_facility-public"}},"type":"Feature"},
	{"geometry":{"coordinates":[-72.257739,18.598505],"type":"Point"},"properties":{"osm_id":"1000043185","tag":{"amenity":"waste_basket","operational_status":"open","operational_status_quality":"confirmed","operator_type":"private_non_profit"}},"type":"Feature"},
	{"geometry":{"coordinates":[-72.256311,18.596792],"type":"Point"},"properties":{"osm_id":"1000043200","tag":{"amenity":"waste_basket","operational_status":"open","operational_status_quality":"confirmed","operator_type":"private_non_profit"}},"type":"Feature"},
	{"geometry":{"coordinates":[-72.257732,18.598512],"type":"Point"},"properties":{"osm_id":"1000043217","tag":{"amenity":"waste_basket","operational_status":"open","operational_status_quality":"confirmed","operator_type":"private_non_profit"}},"type":"Feature"},
	{"geometry":{"coordinates":[-72.257541,18.598944],"type":"Point"},"properties":{"osm_id":"1000043228","tag":{"amenity":"waste_basket","operational_status":"open","operational_status_quality":"confirmed","operator_type":"private_non_profit"}},"type":"Feature"},
	{"geometry":{"coordinates":[-72.256301,18.596963],"type":"Point"},"properties":{"osm_id":"1000043271","tag":{"amenity":"waste_basket","operational_status":"open","operational_status_quality":"confirmed","operator_type":"private_non_profit"}},"type":"Feature"},
	{"geometry":{"coordinates":[-72.281692,18.573944],"type":"Point"},"properties":{"osm_id":"1254060066","tag":{"amenity":"recycling"}},"type":"Feature"},
	{"geometry":{"coordinates":[-72.284774,18.571753],"type":"Point"},"properties":{"osm_id":"1317303691","tag":{"amenity":"recycling","description":"3HTG per lb of plastic bottle. Must pre-sort color. Does not except tampico.","designation":"local","recycling:plastic":"yes","recycling_type":"centre"}},"type":"Feature"},
	{"geometry":{"coordinates":[-72.325472,18.57706],"type":"Point"},"properties":{"osm_id":"1420315065","tag":{"amenity":"waste_basket","operational_status":"open","operational_status_quality":"confirmed","operator:type":"private_non_profit","service_quality":"medium"}},"type":"Feature"},
	{"geometry":{"coordinates":[-72.322458,18.57542],"type":"Point"},"properties":{"osm_id":"1421277508","tag":{"amenity":"recycling","recycling_type":"centre"}},"type":"Feature"},
	{"geometry":{"coordinates":[-72.327265,18.586628],"type":"Point"},"properties":{"name":"centre recycle Bois 9 # 3","osm_id":"1968957662","tag":{"amenity":"recycling","contact_person":"Lageurre Maniques","phone":"3714-6598","recycling_type":"container"}},"type":"Feature"},
	{"geometry":{"coordinates":[-72.267985,18.645343],"type":"Point"},"properties":{"osm_id":"4682408474","tag":{"amenity":"waste_disposal"}},"type":"Feature"},
	{"geometry":{"coordinates":[-72.325636,18.586463],"type":"Point"},"properties":{"osm_id":"5425520638","tag":{"amenity":"recycling","operator":"Fondation L'Athletique d'Haiti","recycling_type":"centre"}},"type":"Feature"},
	{"geometry":{"coordinates":[-72.31456,18.604711],"type":"Point"},"properties":{"name":"Point de decharge","osm_id":"5464889766","tag":{"addr:street":"route but duvivier","amenity":"waste_disposal"}},"type":"Feature"},
	{"geometry":{"coordinates":[-72.316362,18.606877],"type":"Point"},"properties":{"name":"Riviere grise","osm_id":"5464891439","tag":{"addr:street":"Ri","amenity":"waste_disposal","operator_type":"None"}},"type":"Feature"},
	{"geometry":{"coordinates":[-72.319352,18.607374],"type":"Point"},"properties":{"name":"Point de decharge","osm_id":"5464899323","tag":{"addr:street":"10m du lycee de duvivier blvd des americains","amenity":"waste_disposal"}},"type":"Feature"},
	{"geometry":{"coordinates":[-72.319885,18.606311],"type":"Point"},"properties":{"name":"Point de decharge","osm_id":"5464900636","tag":{"addr:street":"Blvd des americains","amenity":"waste_disposal"}},"type":"Feature"}
]
}
