{
"type": "FeatureCollection",
"features": [
	{"geometry":{"coordinates":[-72.300411,18.537823],"type":"Point"},"properties":{"osm_id":"912303462","tag":{"amenity":"waste_basket","operational_status":"open","operator:type":"private_non_profit"}},"type":"Feature"},
	{"geometry":{"coordinates":[-72.299735,18.539005],"type":"Point"},"properties":{"osm_id":"912303494","tag":{"amenity":"waste_basket","operational_status":"open"}},"type":"Feature"},
	{"geometry":{"coordinates":[-72.300426,18.537827],"type":"Point"},"properties":{"osm_id":"912303613","tag":{"amenity":"waste_basket","operational_status":"open","operator:type":"private_non_profit"}},"type":"Feature"},
	{"geometry":{"coordinates":[-72.300412,18.537808],"type":"Point"},"properties":{"osm_id":"912303877","tag":{"amenity":"waste_basket","operational_status":"open","operator:type":"private_non_profit"}},"type":"Feature"},
	{"geometry":{"coordinates":[-72.299754,18.538973],"type":"Point"},"properties":{"osm_id":"912304023","tag":{"amenity":"waste_basket","operational_status":"open"}},"type":"Feature"},
	{"geometry":{"coordinates":[-72.301454,18.539137],"type":"Point"},"properties":{"osm_id":"912323488","tag":{"amenity":"waste_basket","operational_status":"open","operator":"Oxfam","operator:type":"private_non_profit"}},"type":"Feature"},
	{"geometry":{"coordinates":[-72.282809,18.513137],"type":"Point"},"properties":{"osm_id":"919832818","tag":{"amenity":"waste_basket","operational_status":"open","operator":"SMCRS","operator:type":"government_facility-public"}},"type":"Feature"},
	{"geometry":{"coordinates":[-72.292578,18.530766],"type":"Point"},"properties":{"osm_id":"919842176","tag":{"amenity":"waste_basket","operational_status":"open"}},"type":"Feature"},
	{"geometry":{"coordinates":[-72.264885,18.560011],"type":"Point"},"properties":{"osm_id":"937726339","tag":{"amenity":"waste_basket","operational_status":"open","operator:type":"private_non_profit"}},"type":"Feature"},
	{"geometry":{"coordinates":[-72.264667,18.560366],"type":"Point"},"properties":{"osm_id":"937726493","tag":{"amenity":"waste_basket","operational_status":"open","operator:type":"private_non_profit"}},"type":"Feature"},
	{"geometry":{"coordinates":[-72.264605,18.560337],"type":"Point"},"properties":{"osm_id":"937726565","tag":{"amenity":"waste_basket","operational_status":"open","operator:type":"private_non_profit"}},"type":"Feature"},
	{"geometry":{"coordinates":[-72.301743,18.555058],"type":"Point"},"properties":{"osm_id":"938760220","tag":{"amenity":"waste_basket","height":"8.5m","natural":"tree","operator:type":"private_non_profit","type":"non precices"}},"type":"Feature"},
	{"geometry":{"coordinates":[-72.313303,18.562939],"type":"Point"},"properties":{"osm_id":"948125497","tag":{"amenity":"waste_basket","operational_status":"open","operator:type":"private_non_profit"}},"type":"Feature"},
	{"geometry":{"coordinates":[-72.313129,18.562832],"type":"Point"},"properties":{"osm_id":"948125751","tag":{"amenity":"waste_basket","operational_status":"open","operator:type":"private_non_profit"}},"type":"Feature"},
	{"geometry":{"coordinates":[-72.313426,18.562534],"type":"Point"},"properties":{"osm_id":"948125985","tag":{"amenity":"waste_basket","operational_status":"open","operator:type":"private_non_profit"}},"type":"Feature"},
	{"geometry":{"coordinates":[-72.324259,18.560507],"type":"Point"},"properties":{"osm_id":"958297009","tag":{"amenity":"waste_basket","operational_status":"open","operator:type":"private_non_profit"}},"type":"Feature"},
	{"geometry":{"coordinates":[-72.324613,18.560569],"type":"Point"},"properties":{"osm_id":"958297843","tag":{"amenity":"waste_basket","operational_status":"open","operator:type":"private_non_profit"}},"type":"Feature"},
	{"geometry":{"coordinates":[-72.299517,18.535561],"type":"Point"},"properties":{"osm_id":"1244885683","tag":{"amenity":"waste_basket","operational_status":"open","operational_status_quality":"confirmed","operator":"oxfam","operator:type":"private_non_profit","service_quality":"bad"}},"type":"Feature"},
	{"geometry":{"coordinates":[-72.300879,18.536767],"type":"Point"},"properties":{"osm_id":"1244927421","tag":{"amenity":"waste_basket","operational_status":"open","operational_status_quality":"confirmed","operator:type":"private_non_profit","service_quality":"good"}},"type":"Feature"},
	{"geometry":{"coordinates":[-72.330924,18.544647],"type":"Point"},"properties":{"osm_id":"1439456910","tag":{"amenity":"waste_basket"}},"type":"Feature"},
	{"geometry":{"coordinates":[-72.30539,18.519168],"type":"Point"},"properties":{"osm_id":"1720081253","tag":{"amenity":"waste_disposal"}},"type":"Feature"},
	{"geometry":{"coordinates":[-72.296595,18.548705],"type":"Point"},"properties":{"osm_id":"2504824393","tag":{"amenity":"recycling","description":"Collection point of plastic (at least)"}},"type":"Feature"},
	{"geometry":{"coordinates":[-72.310318,18.5622],"type":"Point"},"properties":{"osm_id":"6875933785","tag":{"amenity":"waste_disposal","operator":"Dumpster 1"}},"type":"Feature"},
	{"geometry":{"coordinates":[-72.311163,18.55099],"type":"Point"},"properties":{"osm_id":"6875933786","tag":{"amenity":"waste_disposal","operator":"Dumpster 4"}},"type":"Feature"},
	{"geometry":{"coordinates":[-72.317249,18.541902],"type":"Point"},"properties":{"osm_id":"6875933787","tag":{"amenity":"waste_disposal","operator":"Dumpster 7"}},"type":"Feature"},
	{"geometry":{"coordinates":[-72.319726,18.537875],"type":"Point"},"properties":{"osm_id":"6875933788","tag":{"amenity":"waste_disposal","operator":"Dumpster 8"}},"type":"Feature"},
	{"geometry":{"coordinates":[-72.308663,18.559357],"type":"Point"},"properties":{"osm_id":"6875933885","tag":{"amenity":"waste_disposal","operator":"Dumpster 2"}},"type":"Feature"},
	{"geometry":{"coordinates":[-72.311409,18.552753],"type":"Point"},"properties":{"osm_id":"6875933886","tag":{"amenity":"waste_disposal","operator":"Dumpster 3"}},"type":"Feature"},
	{"geometry":{"coordinates":[-72.313712,18.548039],"type":"Point"},"properties":{"osm_id":"6875933887","tag":{"amenity":"waste_disposal","operator":"Dumpster 5"}},"type":"Feature"},
	{"geometry":{"coordinates":[-72.314076,18.546272],"type":"Point"},"properties":{"osm_id":"6875933888","tag":{"amenity":"waste_disposal","operator":"Dumpster 6"}},"type":"Feature"}
]
}
