{
"type": "FeatureCollection",
"features": [
	{"geometry":{"coordinates":[-104.858241,39.683622],"type":"Point"},"properties":{"osm_id":"2025924798","tag":{"amenity":"recycling","recycling:batteries":"no","recycling:books":"no","recycling:cans":"yes","recycling:cardboard":"yes","recycling:cartons":"yes","recycling:clothes":"no","recycling:electrical_appliances":"no","recycling:glass":"yes","recycling:glass_bottles":"yes","recycling:green_waste":"no","recycling:magazines":"yes","recycling:newspaper":"yes","recycling:paper":"yes","recycling:paper_packaging":"yes","recycling:plastic":"yes","recycling:plastic_bottles":"yes","recycling:plastic_packaging":"yes","recycling:scrap_metal":"no","recycling:small_appliances":"no","recycling:waste":"no","recycling:wood":"no","recycling_type":"container"}},"type":"Feature"},
	{"geometry":{"coordinates":[-104.868623,39.670428],"type":"Point"},"properties":{"osm_id":"2625448663","tag":{"amenity":"recycling","recycling_type":"container"}},"type":"Feature"},
	{"geometry":{"coordinates":[-104.868543,39.670408],"type":"Point"},"properties":{"osm_id":"2625448666","tag":{"amenity":"waste_basket"}},"type":"Feature"},
	{"geometry":{"coordinates":[-104.884461,39.652889],"type":"Point"},"properties":{"osm_id":"2755158404","tag":{"amenity":"recycling","recycling:books":"yes","recycling:clothes":"yes","recycling_type":"container"}},"type":"Feature"},
	{"geometry":{"coordinates":[-104.880794,39.65289],"type":"Point"},"properties":{"osm_id":"2762916086","tag":{"amenity":"recycling","recycling:clothes":"yes","recycling_type":"container"}},"type":"Feature"},
	{"geometry":{"coordinates":[-104.863492,39.693456],"type":"Point"},"properties":{"osm_id":"2896406751","tag":{"amenity":"waste_basket"}},"type":"Feature"},
	{"geometry":{"coordinates":[-104.891973,39.660203],"type":"Point"},"properties":{"osm_id":"3013584959","tag":{"amenity":"waste_basket"}},"type":"Feature"},
	{"geometry":{"coordinates":[-104.893164,39.660198],"type":"Point"},"properties":{"osm_id":"3013585024","tag":{"amenity":"recycling","recycling_type":"container"}},"type":"Feature"},
	{"geometry":{"coordinates":[-104.879084,39.687316],"type":"Point"},"properties":{"osm_id":"3427866366","tag":{"amenity":"waste_basket"}},"type":"Feature"},
	{"geometry":{"coordinates":[-104.880344,39.640617],"type":"Point"},"properties":{"osm_id":"3430537829","tag":{"amenity":"waste_basket","waste":"dog_excrement"}},"type":"Feature"},
	{"geometry":{"coordinates":[-104.876966,39.642073],"type":"Point"},"properties":{"osm_id":"3430538705","tag":{"amenity":"waste_basket","waste":"dog_excrement"}},"type":"Feature"},
	{"geometry":{"coordinates":[-104.903314,39.675367],"type":"Point"},"properties":{"osm_id":"3451484999","tag":{"amenity":"waste_basket"}},"type":"Feature"},
	{"geometry":{"coordinates":[-104.91803,39.697993],"type":"Point"},"properties":{"osm_id":"3748727628","tag":{"amenity":"waste_basket"}},"type":"Feature"},
	{"geometry":{"coordinates":[-104.916135,39.693543],"type":"Point"},"properties":{"osm_id":"3750043181","tag":{"amenity":"waste_basket"}},"type":"Feature"},
	{"geometry":{"coordinates":[-104.866787,39.669839],"type":"Point"},"properties":{"osm_id":"3957535403","tag":{"amenity":"waste_basket"}},"type":"Feature"},
	{"geometry":{"coordinates":[-104.903067,39.687209],"type":"Point"},"properties":{"osm_id":"4367194593","tag":{"amenity":"waste_basket"}},"type":"Feature"},
	{"geometry":{"coordinates":[-104.900387,39.682906],"type":"Point"},"properties":{"name":"City of Denver Recycling Center","osm_id":"4368609589","tag":{"amenity":"recycling","latitude":"39.6830983","longitude":"-104.9004593","opening_hours":"Tu-Fr 10:00-17:00, Sa 09:00-15:00, Su-Mo closed","operator":"City of Denver","recycling:batteries":"no","recycling:books":"yes","recycling:cans":"yes","recycling:cardboard":"yes","recycling:cartons":"yes","recycling:clothes":"no","recycling:electrical_appliances":"no","recycling:glass":"yes","recycling:glass_bottles":"yes","recycling:green_waste":"yes","recycling:magazines":"yes","recycling:newspaper":"yes","recycling:paper":"yes","recycling:paper_packaging":"yes","recycling:plastic":"yes","recycling:plastic_bottles":"yes","recycling:plastic_packaging":"no","recycling:scrap_metal":"no","recycling:small_appliances":"no","recycling:waste":"no","recycling:wood":"yes","recycling_type":"centre","website":"https://www.denvergov.org/content/denvergov/en/trash-and-recycling/recycling/dropoff.html"}},"type":"Feature"},
	{"geometry":{"coordinates":[-104.939415,39.667923],"type":"Point"},"properties":{"osm_id":"4391132288","tag":{"amenity":"recycling","recycling_type":"container"}},"type":"Feature"},
	{"geometry":{"coordinates":[-104.939415,39.667959],"type":"Point"},"properties":{"osm_id":"4391133490","tag":{"amenity":"waste_basket"}},"type":"Feature"},
	{"geometry":{"coordinates":[-104.903121,39.659683],"type":"Point"},"properties":{"osm_id":"4486236536","tag":{"amenity":"waste_basket"}},"type":"Feature"},
	{"geometry":{"coordinates":[-104.860495,39.701799],"type":"Point"},"properties":{"osm_id":"5076416527","tag":{"amenity":"waste_basket"}},"type":"Feature"},
	{"geometry":{"coordinates":[-104.870788,39.685119],"type":"Point"},"properties":{"osm_id":"5225916165","tag":{"amenity":"waste_basket"}},"type":"Feature"},
	{"geometry":{"coordinates":[-104.908935,39.640342],"type":"Point"},"properties":{"osm_id":"5247966660","tag":{"amenity":"waste_basket"}},"type":"Feature"},
	{"geometry":{"coordinates":[-104.867221,39.658918],"type":"Point"},"properties":{"osm_id":"5274472167","tag":{"amenity":"waste_basket"}},"type":"Feature"},
	{"geometry":{"coordinates":[-104.867221,39.658965],"type":"Point"},"properties":{"osm_id":"5274475559","tag":{"amenity":"recycling","recycling_type":"container"}},"type":"Feature"},
	{"geometry":{"coordinates":[-104.869954,39.675345],"type":"Point"},"properties":{"osm_id":"5311097765","tag":{"amenity":"waste_basket"}},"type":"Feature"},
	{"geometry":{"coordinates":[-104.888656,39.650126],"type":"Point"},"properties":{"osm_id":"5413274297","tag":{"amenity":"waste_basket"}},"type":"Feature"},
	{"geometry":{"coordinates":[-104.893268,39.650857],"type":"Point"},"properties":{"osm_id":"5413593406","tag":{"amenity":"waste_basket"}},"type":"Feature"},
	{"geometry":{"coordinates":[-104.892672,39.650493],"type":"Point"},"properties":{"osm_id":"5417692469","tag":{"amenity":"waste_basket"}},"type":"Feature"},
	{"geometry":{"coordinates":[-104.893086,39.650588],"type":"Point"},"properties":{"osm_id":"5417697825","tag":{"amenity":"waste_basket"}},"type":"Feature"},
	{"geometry":{"coordinates":[-104.891896,39.649777],"type":"Point"},"properties":{"osm_id":"5417697826","tag":{"amenity":"waste_basket"}},"type":"Feature"},
	{"geometry":{"coordinates":[-104.894205,39.650277],"type":"Point"},"properties":{"osm_id":"5417697830","tag":{"amenity":"waste_basket"}},"type":"Feature"},
	{"geometry":{"coordinates":[-104.889477,39.650119],"type":"Point"},"properties":{"osm_id":"5417711654","tag":{"amenity":"waste_basket"}},"type":"Feature"},
	{"geometry":{"coordinates":[-104.857247,39.66361],"type":"Point"},"properties":{"osm_id":"5441314039","tag":{"amenity":"waste_basket"}},"type":"Feature"},
	{"geometry":{"coordinates":[-104.858196,39.665686],"type":"Point"},"properties":{"osm_id":"5441332889","tag":{"amenity":"waste_basket"}},"type":"Feature"},
	{"geometry":{"coordinates":[-104.858472,39.666484],"type":"Point"},"properties":{"osm_id":"5441340569","tag":{"amenity":"waste_basket"}},"type":"Feature"},
	{"geometry":{"coordinates":[-104.859049,39.666413],"type":"Point"},"properties":{"osm_id":"5441340591","tag":{"amenity":"waste_basket"}},"type":"Feature"},
	{"geometry":{"coordinates":[-104.857563,39.663837],"type":"Point"},"properties":{"osm_id":"5441925799","tag":{"amenity":"waste_basket"}},"type":"Feature"},
	{"geometry":{"coordinates":[-104.856663,39.662831],"type":"Point"},"properties":{"osm_id":"5443931936","tag":{"amenity":"waste_basket"}},"type":"Feature"},
	{"geometry":{"coordinates":[-104.855638,39.662845],"type":"Point"},"properties":{"osm_id":"5443931967","tag":{"amenity":"waste_basket"}},"type":"Feature"},
	{"geometry":{"coordinates":[-104.85687,39.664542],"type":"Point"},"properties":{"osm_id":"5444009179","tag":{"amenity":"waste_basket"}},"type":"Feature"},
	{"geometry":{"coordinates":[-104.856194,39.662079],"type":"Point"},"properties":{"osm_id":"5444024490","tag":{"amenity":"waste_basket"}},"type":"Feature"},
	{"geometry":{"coordinates":[-104.855392,39.661785],"type":"Point"},"properties":{"osm_id":"5444024501","tag":{"amenity":"waste_basket"}},"type":"Feature"},
	{"geometry":{"coordinates":[-104.855343,39.661413],"type":"Point"},"properties":{"osm_id":"5444039417","tag":{"amenity":"waste_basket"}},"type":"Feature"},
	{"geometry":{"coordinates":[-104.890118,39.66755],"type":"Point"},"properties":{"osm_id":"5519590180","tag":{"amenity":"waste_basket"}},"type":"Feature"},
	{"geometry":{"coordinates":[-104.927366,39.66762],"type":"Point"},"properties":{"osm_id":"5532005703","tag":{"amenity":"waste_basket"}},"type":"Feature"},
	{"geometry":{"coordinates":[-104.927416,39.66893],"type":"Point"},"properties":{"osm_id":"5532083102","tag":{"amenity":"waste_basket"}},"type":"Feature"},
	{"geometry":{"coordinates":[-104.927574,39.668967],"type":"Point"},"properties":{"osm_id":"5532083105","tag":{"amenity":"waste_basket"}},"type":"Feature"},
	{"geometry":{"coordinates":[-104.927291,39.668665],"type":"Point"},"properties":{"osm_id":"5532083112","tag":{"amenity":"waste_basket"}},"type":"Feature"},
	{"geometry":{"coordinates":[-104.861988,39.693184],"type":"Point"},"properties":{"osm_id":"5536839859","tag":{"amenity":"waste_basket"}},"type":"Feature"},
	{"geometry":{"coordinates":[-104.861888,39.692951],"type":"Point"},"properties":{"osm_id":"5536839875","tag":{"amenity":"waste_basket"}},"type":"Feature"},
	{"geometry":{"coordinates":[-104.861609,39.693624],"type":"Point"},"properties":{"osm_id":"5536847121","tag":{"amenity":"waste_basket"}},"type":"Feature"},
	{"geometry":{"coordinates":[-104.862648,39.693424],"type":"Point"},"properties":{"osm_id":"5536876291","tag":{"amenity":"waste_basket"}},"type":"Feature"},
	{"geometry":{"coordinates":[-104.862662,39.693606],"type":"Point"},"properties":{"osm_id":"5536876296","tag":{"amenity":"waste_basket"}},"type":"Feature"},
	{"geometry":{"coordinates":[-104.862289,39.693609],"type":"Point"},"properties":{"osm_id":"5536876300","tag":{"amenity":"waste_basket"}},"type":"Feature"},
	{"geometry":{"coordinates":[-104.862417,39.693482],"type":"Point"},"properties":{"osm_id":"5536876301","tag":{"amenity":"waste_basket"}},"type":"Feature"},
	{"geometry":{"coordinates":[-104.862538,39.693658],"type":"Point"},"properties":{"osm_id":"5536876303","tag":{"amenity":"waste_basket"}},"type":"Feature"},
	{"geometry":{"coordinates":[-104.86337,39.693801],"type":"Point"},"properties":{"osm_id":"5536886678","tag":{"amenity":"waste_basket"}},"type":"Feature"},
	{"geometry":{"coordinates":[-104.863479,39.694052],"type":"Point"},"properties":{"osm_id":"5536886690","tag":{"amenity":"waste_basket"}},"type":"Feature"},
	{"geometry":{"coordinates":[-104.863163,39.693775],"type":"Point"},"properties":{"osm_id":"5536886693","tag":{"amenity":"waste_basket"}},"type":"Feature"},
	{"geometry":{"coordinates":[-104.863121,39.693999],"type":"Point"},"properties":{"osm_id":"5536886696","tag":{"amenity":"waste_basket"}},"type":"Feature"},
	{"geometry":{"coordinates":[-104.863417,39.693657],"type":"Point"},"properties":{"osm_id":"5536886699","tag":{"amenity":"waste_basket"}},"type":"Feature"},
	{"geometry":{"coordinates":[-104.863353,39.693969],"type":"Point"},"properties":{"osm_id":"5536886705","tag":{"amenity":"waste_basket"}},"type":"Feature"},
	{"geometry":{"coordinates":[-104.86345,39.693212],"type":"Point"},"properties":{"osm_id":"5536889412","tag":{"amenity":"waste_basket"}},"type":"Feature"},
	{"geometry":{"coordinates":[-104.863239,39.693308],"type":"Point"},"properties":{"osm_id":"5536889415","tag":{"amenity":"waste_basket"}},"type":"Feature"},
	{"geometry":{"coordinates":[-104.863158,39.693416],"type":"Point"},"properties":{"osm_id":"5536889419","tag":{"amenity":"waste_basket"}},"type":"Feature"},
	{"geometry":{"coordinates":[-104.862958,39.693399],"type":"Point"},"properties":{"osm_id":"5536889420","tag":{"amenity":"waste_basket"}},"type":"Feature"},
	{"geometry":{"coordinates":[-104.863122,39.693593],"type":"Point"},"properties":{"osm_id":"5536892970","tag":{"amenity":"waste_basket"}},"type":"Feature"},
	{"geometry":{"coordinates":[-104.862281,39.693423],"type":"Point"},"properties":{"osm_id":"5536892974","tag":{"amenity":"waste_basket"}},"type":"Feature"},
	{"geometry":{"coordinates":[-104.863175,39.693503],"type":"Point"},"properties":{"osm_id":"5536892980","tag":{"amenity":"waste_basket"}},"type":"Feature"},
	{"geometry":{"coordinates":[-104.863136,39.69531],"type":"Point"},"properties":{"osm_id":"5539182252","tag":{"amenity":"waste_basket"}},"type":"Feature"},
	{"geometry":{"coordinates":[-104.863138,39.695351],"type":"Point"},"properties":{"osm_id":"5539182256","tag":{"amenity":"waste_basket"}},"type":"Feature"},
	{"geometry":{"coordinates":[-104.86316,39.694899],"type":"Point"},"properties":{"osm_id":"5539182260","tag":{"amenity":"waste_basket"}},"type":"Feature"},
	{"geometry":{"coordinates":[-104.863157,39.695235],"type":"Point"},"properties":{"osm_id":"5539182273","tag":{"amenity":"waste_basket"}},"type":"Feature"},
	{"geometry":{"coordinates":[-104.905895,39.695765],"type":"Point"},"properties":{"osm_id":"5546725345","tag":{"amenity":"waste_basket"}},"type":"Feature"},
	{"geometry":{"coordinates":[-104.905565,39.696851],"type":"Point"},"properties":{"osm_id":"5546739129","tag":{"amenity":"waste_basket"}},"type":"Feature"},
	{"geometry":{"coordinates":[-104.906979,39.697208],"type":"Point"},"properties":{"osm_id":"5546739137","tag":{"amenity":"waste_basket"}},"type":"Feature"},
	{"geometry":{"coordinates":[-104.907469,39.697081],"type":"Point"},"properties":{"osm_id":"5546739146","tag":{"amenity":"waste_basket"}},"type":"Feature"},
	{"geometry":{"coordinates":[-104.905229,39.696192],"type":"Point"},"properties":{"osm_id":"5546739150","tag":{"amenity":"waste_basket"}},"type":"Feature"},
	{"geometry":{"coordinates":[-104.905027,39.696448],"type":"Point"},"properties":{"osm_id":"5546739153","tag":{"amenity":"waste_basket"}},"type":"Feature"},
	{"geometry":{"coordinates":[-104.904116,39.656626],"type":"Point"},"properties":{"osm_id":"5601005962","tag":{"amenity":"waste_basket"}},"type":"Feature"},
	{"geometry":{"coordinates":[-104.905819,39.654095],"type":"Point"},"properties":{"osm_id":"5601032554","tag":{"amenity":"waste_basket"}},"type":"Feature"},
	{"geometry":{"coordinates":[-104.90432,39.657014],"type":"Point"},"properties":{"osm_id":"5601058244","tag":{"amenity":"waste_basket"}},"type":"Feature"},
	{"geometry":{"coordinates":[-104.904601,39.657242],"type":"Point"},"properties":{"osm_id":"5603239110","tag":{"amenity":"waste_basket"}},"type":"Feature"},
	{"geometry":{"coordinates":[-104.904409,39.657343],"type":"Point"},"properties":{"osm_id":"5603324049","tag":{"amenity":"waste_basket"}},"type":"Feature"},
	{"geometry":{"coordinates":[-104.914959,39.666929],"type":"Point"},"properties":{"osm_id":"5603398478","tag":{"amenity":"waste_basket"}},"type":"Feature"},
	{"geometry":{"coordinates":[-104.914654,39.666767],"type":"Point"},"properties":{"osm_id":"5603398486","tag":{"amenity":"waste_basket"}},"type":"Feature"},
	{"geometry":{"coordinates":[-104.914352,39.666229],"type":"Point"},"properties":{"osm_id":"5603398495","tag":{"amenity":"waste_basket"}},"type":"Feature"},
	{"geometry":{"coordinates":[-104.915616,39.667134],"type":"Point"},"properties":{"osm_id":"5606150802","tag":{"amenity":"recycling","recycling_type":"centre"}},"type":"Feature"},
	{"geometry":{"coordinates":[-104.915692,39.667133],"type":"Point"},"properties":{"osm_id":"5606150928","tag":{"amenity":"waste_basket"}},"type":"Feature"},
	{"geometry":{"coordinates":[-104.89104,39.689901],"type":"Point"},"properties":{"osm_id":"5633711087","tag":{"amenity":"recycling","recycling_type":"container"}},"type":"Feature"},
	{"geometry":{"coordinates":[-104.89105,39.689921],"type":"Point"},"properties":{"osm_id":"5633711088","tag":{"amenity":"waste_basket"}},"type":"Feature"},
	{"geometry":{"coordinates":[-104.91237,39.695163],"type":"Point"},"properties":{"osm_id":"5662153240","tag":{"amenity":"recycling","recycling_type":"container"}},"type":"Feature"},
	{"geometry":{"coordinates":[-104.910113,39.693537],"type":"Point"},"properties":{"osm_id":"5662192576","tag":{"amenity":"waste_basket"}},"type":"Feature"},
	{"geometry":{"coordinates":[-104.910107,39.694043],"type":"Point"},"properties":{"osm_id":"5662192579","tag":{"amenity":"waste_basket"}},"type":"Feature"},
	{"geometry":{"coordinates":[-104.889787,39.690791],"type":"Point"},"properties":{"osm_id":"5689357541","tag":{"amenity":"waste_basket"}},"type":"Feature"},
	{"geometry":{"coordinates":[-104.889307,39.690792],"type":"Point"},"properties":{"osm_id":"5689357542","tag":{"amenity":"waste_basket"}},"type":"Feature"},
	{"geometry":{"coordinates":[-104.890762,39.69082],"type":"Point"},"properties":{"osm_id":"5689357543","tag":{"amenity":"waste_basket"}},"type":"Feature"},
	{"geometry":{"coordinates":[-104.89022,39.690856],"type":"Point"},"properties":{"osm_id":"5689357544","tag":{"amenity":"waste_basket"}},"type":"Feature"},
	{"geometry":{"coordinates":[-104.879865,39.686895],"type":"Point"},"properties":{"osm_id":"5893765228","tag":{"amenity":"waste_basket"}},"type":"Feature"},
	{"geometry":{"coordinates":[-104.880443,39.687211],"type":"Point"},"properties":{"osm_id":"5893767831","tag":{"amenity":"waste_basket"}},"type":"Feature"},
	{"geometry":{"coordinates":[-104.892039,39.680093],"type":"Point"},"properties":{"name":"Genesis Electronics Recycling","osm_id":"5963355036","tag":{"addr:city":"Denver","addr:housenumber":"2045","addr:postcode":"80231","addr:state":"CO","addr:street":"South Valentia Street","addr:unit":"Unit 15","alt_name":"Genesis Electronics Recycling of Colorado","amenity":"recycling","email":"cs@genesisrecyclingco.com","fax":"(720) 477-9818","opening_hours":"Mo-Fr 09:00-16:00, Sa-Su closed","phone":"(720) 881-7238","recycling:batteries":"yes","recycling:computers":"yes","recycling:electrical_appliances":"yes","recycling_type":"centre","website":"http://www.genesisrecyclingco.com"}},"type":"Feature"},
	{"geometry":{"coordinates":[-104.875922,39.686856],"type":"Point"},"properties":{"osm_id":"6173780421","tag":{"amenity":"waste_basket"}},"type":"Feature"},
	{"geometry":{"coordinates":[-104.876046,39.686095],"type":"Point"},"properties":{"osm_id":"6173780422","tag":{"amenity":"waste_basket"}},"type":"Feature"},
	{"geometry":{"coordinates":[-104.876022,39.68697],"type":"Point"},"properties":{"osm_id":"6173780426","tag":{"amenity":"waste_basket"}},"type":"Feature"},
	{"geometry":{"coordinates":[-104.875616,39.686777],"type":"Point"},"properties":{"osm_id":"6173780429","tag":{"amenity":"waste_basket"}},"type":"Feature"},
	{"geometry":{"coordinates":[-104.876327,39.686544],"type":"Point"},"properties":{"osm_id":"6173780430","tag":{"amenity":"waste_basket"}},"type":"Feature"},
	{"geometry":{"coordinates":[-104.876049,39.686579],"type":"Point"},"properties":{"osm_id":"6173780431","tag":{"amenity":"waste_basket"}},"type":"Feature"},
	{"geometry":{"coordinates":[-104.877889,39.706617],"type":"Point"},"properties":{"osm_id":"6204639790","tag":{"amenity":"recycling","recycling:magazines":"yes","recycling:newspaper":"yes","recycling:paper":"no","recycling_type":"container"}},"type":"Feature"},
	{"geometry":{"coordinates":[-104.884468,39.703005],"type":"Point"},"properties":{"osm_id":"6206930787","tag":{"amenity":"waste_basket"}},"type":"Feature"},
	{"geometry":{"coordinates":[-104.884438,39.702971],"type":"Point"},"properties":{"osm_id":"6206930789","tag":{"amenity":"recycling","recycling_type":"container"}},"type":"Feature"},
	{"geometry":{"coordinates":[-104.88009,39.699481],"type":"Point"},"properties":{"osm_id":"6215195827","tag":{"amenity":"waste_basket"}},"type":"Feature"},
	{"geometry":{"coordinates":[-104.876548,39.698314],"type":"Point"},"properties":{"osm_id":"6224238522","tag":{"amenity":"waste_basket"}},"type":"Feature"},
	{"geometry":{"coordinates":[-104.912313,39.693831],"type":"Point"},"properties":{"osm_id":"6791569507","tag":{"amenity":"waste_disposal"}},"type":"Feature"},
	{"geometry":{"coordinates":[-104.912235,39.693831],"type":"Point"},"properties":{"osm_id":"6791569508","tag":{"amenity":"waste_disposal"}},"type":"Feature"},
	{"geometry":{"coordinates":[-104.884122,39.681651],"type":"Point"},"properties":{"osm_id":"7946425802","tag":{"amenity":"waste_basket"}},"type":"Feature"},
	{"geometry":{"coordinates":[-104.883848,39.681247],"type":"Point"},"properties":{"osm_id":"7946431629","tag":{"amenity":"waste_basket"}},"type":"Feature"},
	{"geometry":{"coordinates":[-104.883636,39.681231],"type":"Point"},"properties":{"osm_id":"7946431630","tag":{"amenity":"waste_basket"}},"type":"Feature"},
	{"geometry":{"coordinates":[-104.883025,39.681374],"type":"Point"},"properties":{"osm_id":"7946432728","tag":{"amenity":"waste_basket"}},"type":"Feature"},
	{"geometry":{"coordinates":[-104.89318,39.689183],"type":"Point"},"properties":{"osm_id":"8558324074","tag":{"amenity":"waste_basket"}},"type":"Feature"},
	{"geometry":{"coordinates":[-104.893365,39.688965],"type":"Point"},"properties":{"osm_id":"8558324076","tag":{"amenity":"waste_basket"}},"type":"Feature"},
	{"geometry":{"coordinates":[-104.893435,39.688629],"type":"Point"},"properties":{"osm_id":"8558324092","tag":{"amenity":"waste_basket"}},"type":"Feature"},
	{"geometry":{"coordinates":[-104.892866,39.689131],"type":"Point"},"properties":{"osm_id":"8558324120","tag":{"amenity":"waste_basket"}},"type":"Feature"},
	{"geometry":{"coordinates":[-104.897046,39.695596],"type":"Point"},"properties":{"osm_id":"8573299476","tag":{"amenity":"waste_basket","material":"steel"}},"type":"Feature"},
	{"geometry":{"coordinates":[-104.895772,39.692302],"type":"Point"},"properties":{"osm_id":"8573309484","tag":{"amenity":"waste_basket","colour":"green","material":"steel"}},"type":"Feature"},
	{"geometry":{"coordinates":[-104.892894,39.688726],"type":"Point"},"properties":{"osm_id":"8573320865","tag":{"amenity":"waste_basket"}},"type":"Feature"},
	{"geometry":{"coordinates":[-104.892766,39.688935],"type":"Point"},"properties":{"osm_id":"8573320867","tag":{"amenity":"waste_basket"}},"type":"Feature"},
	{"geometry":{"coordinates":[-104.890594,39.671054],"type":"Point"},"properties":{"osm_id":"9198384207","tag":{"amenity":"waste_basket","colour":"brown","material":"steel"}},"type":"Feature"}
]
}
