{
"type": "FeatureCollection",
"features": [
	{"geometry":{"coordinates":[-104.879957,38.879408],"type":"Point"},"properties":{"osm_id":"433513778","tag":{"amenity":"waste_basket","tourism":"information"}},"type":"Feature"},
	{"geometry":{"coordinates":[-104.879628,38.829178],"type":"Point"},"properties":{"osm_id":"439946049","tag":{"amenity":"waste_basket"}},"type":"Feature"},
	{"geometry":{"coordinates":[-104.879388,38.829145],"type":"Point"},"properties":{"osm_id":"439946147","tag":{"amenity":"waste_basket"}},"type":"Feature"},
	{"geometry":{"coordinates":[-104.912073,38.857904],"type":"Point"},"properties":{"osm_id":"661106651","tag":{"amenity":"waste_basket"}},"type":"Feature"},
	{"geometry":{"coordinates":[-104.911504,38.858167],"type":"Point"},"properties":{"osm_id":"661106653","tag":{"amenity":"waste_basket"}},"type":"Feature"},
	{"geometry":{"coordinates":[-104.910426,38.857894],"type":"Point"},"properties":{"osm_id":"661106659","tag":{"amenity":"waste_basket"}},"type":"Feature"},
	{"geometry":{"coordinates":[-104.910418,38.858395],"type":"Point"},"properties":{"osm_id":"661106660","tag":{"amenity":"waste_basket"}},"type":"Feature"},
	{"geometry":{"coordinates":[-104.878534,38.851349],"type":"Point"},"properties":{"osm_id":"2336773322","tag":{"amenity":"waste_basket"}},"type":"Feature"},
	{"geometry":{"coordinates":[-104.879229,38.85325],"type":"Point"},"properties":{"osm_id":"2336773570","tag":{"amenity":"waste_basket"}},"type":"Feature"},
	{"geometry":{"coordinates":[-104.873285,38.848167],"type":"Point"},"properties":{"osm_id":"2338920852","tag":{"amenity":"waste_basket"}},"type":"Feature"},
	{"geometry":{"coordinates":[-104.890222,38.823009],"type":"Point"},"properties":{"osm_id":"5157806968","tag":{"amenity":"waste_basket"}},"type":"Feature"},
	{"geometry":{"coordinates":[-104.880646,38.880973],"type":"Point"},"properties":{"osm_id":"6759508304","tag":{"amenity":"waste_basket"}},"type":"Feature"},
	{"geometry":{"coordinates":[-104.879822,38.88025],"type":"Point"},"properties":{"osm_id":"6759508305","tag":{"amenity":"waste_basket","waste":"dog_excrement"}},"type":"Feature"}
]
}
