{
"type": "FeatureCollection",
"features": [
	{"geometry":{"coordinates":[20.025233,47.90385],"type":"Point"},"properties":{"osm_id":"3459966352","tag":{"amenity":"recycling","source:date":"2013-06-22","url":"http://turistautak.hu/poi.php?id=143045"}},"type":"Feature"},
	{"geometry":{"coordinates":[20.02215,47.908417],"type":"Point"},"properties":{"osm_id":"3459966365","tag":{"amenity":"recycling","recycling:glass_bottles":"yes","recycling_type":"container","source:date":"2012-09-24","url":"http://turistautak.hu/poi.php?id=143046"}},"type":"Feature"},
	{"geometry":{"coordinates":[20.03627,47.92327],"type":"Point"},"properties":{"osm_id":"3459966385","tag":{"addr:city":"Par\u00c3\u00a1d","addr:housenumber":"220","addr:postcode":"3244","addr:street":"Kossuth Lajos \u00c3\u00bat","addr:suburb":"Par\u00c3\u00a1df\u00c3\u00bcrd\u00c5\u0091","amenity":"recycling","source:date":"2013-06-22","url":"http://turistautak.hu/poi.php?id=2739"}},"type":"Feature"},
	{"geometry":{"coordinates":[20.023866,47.901123],"type":"Point"},"properties":{"osm_id":"7515382226","tag":{"amenity":"waste_basket"}},"type":"Feature"}
]
}
