{
"type": "FeatureCollection",
"features": [
	{"geometry":{"coordinates":[20.009844,47.870939],"type":"Point"},"properties":{"osm_id":"2615661555","tag":{"amenity":"waste_basket"}},"type":"Feature"},
	{"geometry":{"coordinates":[20.006566,47.871654],"type":"Point"},"properties":{"osm_id":"2615661580","tag":{"amenity":"waste_basket"}},"type":"Feature"},
	{"geometry":{"coordinates":[19.971617,47.824243],"type":"Point"},"properties":{"osm_id":"3468117429","tag":{"amenity":"recycling","recycling:glass_bottles":"yes","recycling_type":"container"}},"type":"Feature"},
	{"geometry":{"coordinates":[19.964784,47.8303],"type":"Point"},"properties":{"osm_id":"3468117433","tag":{"amenity":"recycling","recycling:glass_bottles":"yes","recycling_type":"container","source:date":"2013-09-16","url":"http://turistautak.hu/poi.php?id=159426"}},"type":"Feature"},
	{"geometry":{"coordinates":[19.958267,47.842962],"type":"Point"},"properties":{"osm_id":"3468117442","tag":{"amenity":"recycling","description":"Szelekt\u00c3\u00adv hullad\u00c3\u00a9kgy\u00c5\u00b1jt\u00c5\u0091 kont\u00c3\u00a9nerek.","recycling:glass_bottles":"yes","recycling_type":"container","source:date":"2013-06-22","url":"http://turistautak.hu/poi.php?id=148844"}},"type":"Feature"},
	{"geometry":{"coordinates":[19.96588,47.8307],"type":"Point"},"properties":{"osm_id":"3724265396","tag":{"amenity":"recycling","recycling:glass_bottles":"yes","recycling_type":"container"}},"type":"Feature"},
	{"geometry":{"coordinates":[19.958797,47.842146],"type":"Point"},"properties":{"osm_id":"3790273275","tag":{"amenity":"recycling","recycling:glass_bottles":"yes","recycling_type":"container"}},"type":"Feature"},
	{"geometry":{"coordinates":[19.969475,47.831838],"type":"Point"},"properties":{"osm_id":"9173475665","tag":{"amenity":"waste_basket","material":"metal","waste":"trash"}},"type":"Feature"},
	{"geometry":{"coordinates":[19.968226,47.831044],"type":"Point"},"properties":{"osm_id":"9178992757","tag":{"amenity":"waste_basket","waste":"trash"}},"type":"Feature"},
	{"geometry":{"coordinates":[19.966432,47.832556],"type":"Point"},"properties":{"osm_id":"9178992765","tag":{"amenity":"waste_basket","waste":"trash"}},"type":"Feature"},
	{"geometry":{"coordinates":[19.965767,47.833323],"type":"Point"},"properties":{"osm_id":"9178992782","tag":{"amenity":"waste_basket","colour":"black","waste":"trash"}},"type":"Feature"},
	{"geometry":{"coordinates":[19.967904,47.830862],"type":"Point"},"properties":{"osm_id":"9178992799","tag":{"amenity":"waste_basket","colour":"green","material":"metal","waste":"trash"}},"type":"Feature"},
	{"geometry":{"coordinates":[19.964467,47.828455],"type":"Point"},"properties":{"osm_id":"9179729382","tag":{"amenity":"waste_basket"}},"type":"Feature"},
	{"geometry":{"coordinates":[19.96551,47.822578],"type":"Point"},"properties":{"osm_id":"9181464650","tag":{"amenity":"waste_basket","colour":"black","waste":"trash"}},"type":"Feature"},
	{"geometry":{"coordinates":[19.977636,47.868833],"type":"Point"},"properties":{"osm_id":"9186718900","tag":{"amenity":"waste_basket"}},"type":"Feature"},
	{"geometry":{"coordinates":[19.96622,47.827716],"type":"Point"},"properties":{"osm_id":"9188560109","tag":{"amenity":"waste_basket","colour":"green","material":"metal","waste":"trash"}},"type":"Feature"},
	{"geometry":{"coordinates":[19.967252,47.825095],"type":"Point"},"properties":{"osm_id":"9191892000","tag":{"amenity":"waste_basket","colour":"black","material":"metal","waste":"trash"}},"type":"Feature"},
	{"geometry":{"coordinates":[19.968104,47.825115],"type":"Point"},"properties":{"osm_id":"9191892001","tag":{"amenity":"waste_basket","waste":"trash"}},"type":"Feature"},
	{"geometry":{"coordinates":[19.970428,47.830292],"type":"Point"},"properties":{"osm_id":"9194723928","tag":{"amenity":"waste_basket","waste":"trash"}},"type":"Feature"},
	{"geometry":{"coordinates":[19.970458,47.83075],"type":"Point"},"properties":{"osm_id":"9194723933","tag":{"amenity":"waste_basket","waste":"trash"}},"type":"Feature"},
	{"geometry":{"coordinates":[19.970611,47.830599],"type":"Point"},"properties":{"osm_id":"9194723972","tag":{"amenity":"waste_basket","waste":"trash"}},"type":"Feature"},
	{"geometry":{"coordinates":[19.968641,47.829884],"type":"Point"},"properties":{"osm_id":"9196403349","tag":{"amenity":"waste_basket","waste":"trash"}},"type":"Feature"},
	{"geometry":{"coordinates":[19.967156,47.830752],"type":"Point"},"properties":{"osm_id":"9196403364","tag":{"amenity":"waste_basket","waste":"trash"}},"type":"Feature"},
	{"geometry":{"coordinates":[19.967536,47.826064],"type":"Point"},"properties":{"osm_id":"9201068822","tag":{"amenity":"waste_basket","waste":"trash"}},"type":"Feature"}
]
}
