{
"type": "FeatureCollection",
"features": [
	{"geometry":{"coordinates":[19.975117,46.474148],"type":"Point"},"properties":{"osm_id":"5906753617","tag":{"amenity":"recycling","description":"Kistelek, Bolt parkol\u00c3\u00b3","operator":"Szegedi Hullad\u00c3\u00a9kgazd\u00c3\u00a1lkod\u00c3\u00a1si Nonprofit Kft.","recycling_type":"container"}},"type":"Feature"},
	{"geometry":{"coordinates":[19.974642,46.473606],"type":"Point"},"properties":{"osm_id":"5906753687","tag":{"amenity":"recycling","description":"Kistelek, Ifj\u00c3\u00bas\u00c3\u00a1g t\u00c3\u00a9r","operator":"Szegedi Hullad\u00c3\u00a9kgazd\u00c3\u00a1lkod\u00c3\u00a1si Nonprofit Kft.","recycling_type":"container"}},"type":"Feature"},
	{"geometry":{"coordinates":[19.985502,46.464153],"type":"Point"},"properties":{"osm_id":"5906753709","tag":{"amenity":"recycling","description":"Kistelek, Pet\u00c5\u0091fi S\u00c3\u00a1ndor u","operator":"Szegedi Hullad\u00c3\u00a9kgazd\u00c3\u00a1lkod\u00c3\u00a1si Nonprofit Kft.","recycling_type":"container"}},"type":"Feature"},
	{"geometry":{"coordinates":[19.960508,46.487018],"type":"Point"},"properties":{"name":"Hullad\u00c3\u00a9kudvar Kistelek","osm_id":"5906757008","tag":{"amenity":"recycling","description":"T\u00c3\u00a9li nyitvatart\u00c3\u00a1s (10.01-03.31): Kedd,Cs\u00c3\u00bct\u00c3\u00b6rt\u00c3\u00b6k,Szombat: 8-16 | Ny\u00c3\u00a1ri nyitvatart\u00c3\u00a1s (04.01-09.30): Kedd,Cs\u00c3\u00bct\u00c3\u00b6rt\u00c3\u00b6k: 11-19, Szombat: 8-16","email":"hulladek@szegedihulladek.hu","opening_hours":"Apr 01-Sep 30 Tu,Th 11:00-19:00; Sa 08:00-16:00; Oct 01-Mar 31 Tu,Th,Sa 08:00-16:00","operator":"Szegedi Hullad\u00c3\u00a9kgazd\u00c3\u00a1lkod\u00c3\u00a1si Nonprofit Kft.","phone":"+36 30 508 5135","recycling_type":"centre","website":"https://www.szegedihulladek.hu"}},"type":"Feature"},
	{"geometry":{"coordinates":[19.983026,46.470773],"type":"Point"},"properties":{"osm_id":"6798239786","tag":{"amenity":"waste_basket","colour":"ocher","material":"steel"}},"type":"Feature"},
	{"geometry":{"coordinates":[19.983919,46.471192],"type":"Point"},"properties":{"osm_id":"6798239794","tag":{"amenity":"waste_basket","colour":"ocher","material":"steel"}},"type":"Feature"}
]
}
