{
"type": "FeatureCollection",
"features": [
	{"geometry":{"coordinates":[20.013521,44.128964],"type":"Point"},"properties":{"osm_id":"7445492253","tag":{"amenity":"waste_disposal"}},"type":"Feature"},
	{"geometry":{"coordinates":[19.99711,44.113499],"type":"Point"},"properties":{"osm_id":"7448208205","tag":{"amenity":"waste_disposal"}},"type":"Feature"},
	{"geometry":{"coordinates":[19.999077,44.11057],"type":"Point"},"properties":{"osm_id":"8026566314","tag":{"amenity":"waste_disposal"}},"type":"Feature"},
	{"geometry":{"coordinates":[20.001919,44.108494],"type":"Point"},"properties":{"osm_id":"8227794982","tag":{"amenity":"waste_disposal","operator":"JKP Vidrak Valjevo"}},"type":"Feature"},
	{"geometry":{"coordinates":[19.99728,44.107437],"type":"Point"},"properties":{"osm_id":"8285739174","tag":{"amenity":"waste_disposal"}},"type":"Feature"},
	{"geometry":{"coordinates":[19.993031,44.109314],"type":"Point"},"properties":{"osm_id":"8285739208","tag":{"amenity":"waste_disposal"}},"type":"Feature"},
	{"geometry":{"coordinates":[19.994467,44.110648],"type":"Point"},"properties":{"osm_id":"8285742051","tag":{"amenity":"waste_disposal"}},"type":"Feature"},
	{"geometry":{"coordinates":[19.977548,44.105512],"type":"Point"},"properties":{"osm_id":"8287607978","tag":{"amenity":"waste_disposal"}},"type":"Feature"},
	{"geometry":{"coordinates":[19.985288,44.113269],"type":"Point"},"properties":{"osm_id":"8287608007","tag":{"amenity":"waste_disposal"}},"type":"Feature"},
	{"geometry":{"coordinates":[19.983507,44.112837],"type":"Point"},"properties":{"osm_id":"8287608008","tag":{"amenity":"waste_disposal"}},"type":"Feature"},
	{"geometry":{"coordinates":[19.983823,44.111696],"type":"Point"},"properties":{"osm_id":"8287608009","tag":{"amenity":"waste_disposal"}},"type":"Feature"},
	{"geometry":{"coordinates":[20.003314,44.113659],"type":"Point"},"properties":{"osm_id":"8292615579","tag":{"amenity":"waste_disposal"}},"type":"Feature"},
	{"geometry":{"coordinates":[20.02032,44.119769],"type":"Point"},"properties":{"osm_id":"8379018928","tag":{"amenity":"waste_disposal","operator":"JKP Vidrak Valjevo"}},"type":"Feature"},
	{"geometry":{"coordinates":[19.98682,44.098053],"type":"Point"},"properties":{"osm_id":"8420724887","tag":{"amenity":"waste_disposal"}},"type":"Feature"},
	{"geometry":{"coordinates":[19.98548,44.098418],"type":"Point"},"properties":{"osm_id":"8420724888","tag":{"amenity":"waste_disposal"}},"type":"Feature"},
	{"geometry":{"coordinates":[19.992911,44.105901],"type":"Point"},"properties":{"osm_id":"8420733026","tag":{"amenity":"waste_disposal"}},"type":"Feature"},
	{"geometry":{"coordinates":[19.977648,44.099413],"type":"Point"},"properties":{"osm_id":"8427198275","tag":{"amenity":"waste_disposal"}},"type":"Feature"},
	{"geometry":{"coordinates":[19.992237,44.104492],"type":"Point"},"properties":{"osm_id":"8517996665","tag":{"amenity":"waste_disposal"}},"type":"Feature"},
	{"geometry":{"coordinates":[19.986559,44.105604],"type":"Point"},"properties":{"osm_id":"8518868779","tag":{"amenity":"waste_disposal"}},"type":"Feature"},
	{"geometry":{"coordinates":[19.986529,44.100505],"type":"Point"},"properties":{"osm_id":"8638150944","tag":{"amenity":"waste_disposal"}},"type":"Feature"},
	{"geometry":{"coordinates":[19.985649,44.100686],"type":"Point"},"properties":{"osm_id":"8638150960","tag":{"amenity":"waste_disposal"}},"type":"Feature"},
	{"geometry":{"coordinates":[19.99295,44.11357],"type":"Point"},"properties":{"osm_id":"8811378473","tag":{"amenity":"waste_disposal"}},"type":"Feature"},
	{"geometry":{"coordinates":[19.995213,44.114229],"type":"Point"},"properties":{"osm_id":"8867473485","tag":{"amenity":"waste_disposal"}},"type":"Feature"},
	{"geometry":{"coordinates":[20.000024,44.104395],"type":"Point"},"properties":{"osm_id":"9124983594","tag":{"amenity":"waste_disposal"}},"type":"Feature"},
	{"geometry":{"coordinates":[19.98776,44.104381],"type":"Point"},"properties":{"osm_id":"9124983611","tag":{"amenity":"waste_basket"}},"type":"Feature"}
]
}
