{
"type": "FeatureCollection",
"features": [
	{"geometry":{"coordinates":[18.713846,59.766821],"type":"Point"},"properties":{"osm_id":"1217150272","tag":{"amenity":"recycling","location":"overground","recycling:glass_bottles":"yes","recycling:paper":"yes","recycling_type":"container"}},"type":"Feature"},
	{"geometry":{"coordinates":[18.693348,59.763726],"type":"Point"},"properties":{"osm_id":"2611641279","tag":{"addr:city":"Norrt\u00c3\u00a4lje","addr:country":"SE","addr:street":"Knutby torg","amenity":"recycling","location":"overground","recycling:cans":"yes","recycling:glass_bottles":"yes","recycling:paper":"yes","recycling:plastic":"yes","recycling_type":"container"}},"type":"Feature"},
	{"geometry":{"coordinates":[18.694056,59.766051],"type":"Point"},"properties":{"osm_id":"2611642142","tag":{"amenity":"recycling","location":"overground","recycling:cans":"yes","recycling:glass_bottles":"yes","recycling:paper":"yes","recycling_type":"container"}},"type":"Feature"},
	{"geometry":{"coordinates":[18.702995,59.759475],"type":"Point"},"properties":{"osm_id":"8986489709","tag":{"amenity":"recycling"}},"type":"Feature"}
]
}
