{
"type": "FeatureCollection",
"features": [
	{"geometry":{"coordinates":[18.661628,54.347262],"type":"Point"},"properties":{"osm_id":"1776917480","tag":{"amenity":"waste_basket"}},"type":"Feature"},
	{"geometry":{"coordinates":[18.646166,54.350441],"type":"Point"},"properties":{"osm_id":"1937254460","tag":{"amenity":"waste_basket"}},"type":"Feature"},
	{"geometry":{"coordinates":[18.646016,54.350456],"type":"Point"},"properties":{"osm_id":"1937254463","tag":{"amenity":"waste_basket"}},"type":"Feature"},
	{"geometry":{"coordinates":[18.645458,54.351825],"type":"Point"},"properties":{"osm_id":"1937254466","tag":{"amenity":"waste_basket"}},"type":"Feature"},
	{"geometry":{"coordinates":[18.64543,54.351918],"type":"Point"},"properties":{"osm_id":"1937254469","tag":{"amenity":"waste_basket"}},"type":"Feature"},
	{"geometry":{"coordinates":[18.644893,54.352007],"type":"Point"},"properties":{"osm_id":"1937254474","tag":{"amenity":"waste_basket"}},"type":"Feature"},
	{"geometry":{"coordinates":[18.64567,54.355462],"type":"Point"},"properties":{"osm_id":"1937254477","tag":{"amenity":"waste_basket"}},"type":"Feature"},
	{"geometry":{"coordinates":[18.645488,54.355481],"type":"Point"},"properties":{"osm_id":"1937254482","tag":{"amenity":"waste_basket"}},"type":"Feature"},
	{"geometry":{"coordinates":[18.661276,54.347156],"type":"Point"},"properties":{"osm_id":"1937268811","tag":{"amenity":"waste_basket"}},"type":"Feature"},
	{"geometry":{"coordinates":[18.662895,54.34735],"type":"Point"},"properties":{"osm_id":"1937268812","tag":{"amenity":"waste_basket"}},"type":"Feature"},
	{"geometry":{"coordinates":[18.663533,54.347511],"type":"Point"},"properties":{"osm_id":"1937268813","tag":{"amenity":"waste_basket"}},"type":"Feature"},
	{"geometry":{"coordinates":[18.664441,54.347899],"type":"Point"},"properties":{"osm_id":"1937268814","tag":{"amenity":"waste_basket"}},"type":"Feature"},
	{"geometry":{"coordinates":[18.647611,54.349888],"type":"Point"},"properties":{"osm_id":"1937268815","tag":{"amenity":"waste_basket"}},"type":"Feature"},
	{"geometry":{"coordinates":[18.646431,54.350169],"type":"Point"},"properties":{"osm_id":"1937268817","tag":{"amenity":"waste_basket"}},"type":"Feature"},
	{"geometry":{"coordinates":[18.645133,54.355349],"type":"Point"},"properties":{"osm_id":"1937268819","tag":{"amenity":"waste_basket"}},"type":"Feature"},
	{"geometry":{"coordinates":[18.664395,54.344562],"type":"Point"},"properties":{"osm_id":"1937278727","tag":{"amenity":"waste_basket"}},"type":"Feature"},
	{"geometry":{"coordinates":[18.664299,54.344682],"type":"Point"},"properties":{"osm_id":"1937278728","tag":{"amenity":"waste_basket"}},"type":"Feature"},
	{"geometry":{"coordinates":[18.646671,54.347481],"type":"Point"},"properties":{"osm_id":"1937278730","tag":{"amenity":"waste_basket"}},"type":"Feature"},
	{"geometry":{"coordinates":[18.646823,54.347574],"type":"Point"},"properties":{"osm_id":"1937278731","tag":{"amenity":"waste_basket"}},"type":"Feature"},
	{"geometry":{"coordinates":[18.64431,54.347781],"type":"Point"},"properties":{"osm_id":"1937278733","tag":{"amenity":"waste_basket"}},"type":"Feature"},
	{"geometry":{"coordinates":[18.645686,54.350396],"type":"Point"},"properties":{"osm_id":"1939592985","tag":{"amenity":"waste_basket"}},"type":"Feature"},
	{"geometry":{"coordinates":[18.645931,54.351407],"type":"Point"},"properties":{"osm_id":"1939592989","tag":{"amenity":"waste_basket"}},"type":"Feature"},
	{"geometry":{"coordinates":[18.648487,54.355191],"type":"Point"},"properties":{"osm_id":"2069750701","tag":{"amenity":"waste_disposal"}},"type":"Feature"},
	{"geometry":{"coordinates":[18.714857,54.359351],"type":"Point"},"properties":{"osm_id":"2495028593","tag":{"access":"private","amenity":"waste_disposal"}},"type":"Feature"},
	{"geometry":{"coordinates":[18.718972,54.364423],"type":"Point"},"properties":{"osm_id":"2714159610","tag":{"amenity":"waste_basket"}},"type":"Feature"},
	{"geometry":{"coordinates":[18.657104,54.34536],"type":"Point"},"properties":{"osm_id":"4326634331","tag":{"amenity":"waste_basket"}},"type":"Feature"},
	{"geometry":{"coordinates":[18.657308,54.345477],"type":"Point"},"properties":{"osm_id":"4326634337","tag":{"amenity":"waste_basket"}},"type":"Feature"},
	{"geometry":{"coordinates":[18.648001,54.354395],"type":"Point"},"properties":{"osm_id":"4339624293","tag":{"amenity":"waste_basket"}},"type":"Feature"},
	{"geometry":{"coordinates":[18.659544,54.350671],"type":"Point"},"properties":{"osm_id":"4924997991","tag":{"amenity":"waste_basket"}},"type":"Feature"},
	{"geometry":{"coordinates":[18.659512,54.350883],"type":"Point"},"properties":{"osm_id":"4925004025","tag":{"amenity":"waste_basket"}},"type":"Feature"},
	{"geometry":{"coordinates":[18.655621,54.347963],"type":"Point"},"properties":{"osm_id":"4990471145","tag":{"amenity":"waste_basket"}},"type":"Feature"},
	{"geometry":{"coordinates":[18.650869,54.350106],"type":"Point"},"properties":{"osm_id":"5793601386","tag":{"amenity":"waste_basket"}},"type":"Feature"},
	{"geometry":{"coordinates":[18.650808,54.350222],"type":"Point"},"properties":{"osm_id":"5793601546","tag":{"amenity":"waste_basket"}},"type":"Feature"},
	{"geometry":{"coordinates":[18.655572,54.351748],"type":"Point"},"properties":{"osm_id":"5793601550","tag":{"amenity":"waste_basket"}},"type":"Feature"},
	{"geometry":{"coordinates":[18.640797,54.358771],"type":"Point"},"properties":{"osm_id":"7235351980","tag":{"amenity":"recycling","opening_hours":"24/7","recycling:PET":"yes","recycling:aluminium":"yes","recycling:cans":"yes","recycling:plastic":"yes","recycling:plastic_bottles":"yes","recycling:plastic_packaging":"yes","recycling_type":"container","wheelchair":"limited"}},"type":"Feature"},
	{"geometry":{"coordinates":[18.640774,54.358787],"type":"Point"},"properties":{"osm_id":"7249267065","tag":{"amenity":"recycling","opening_hours":"24/7","recycling:green_waste":"yes","recycling_type":"container","wheelchair":"limited"}},"type":"Feature"},
	{"geometry":{"coordinates":[18.640856,54.358729],"type":"Point"},"properties":{"osm_id":"7249267066","tag":{"amenity":"recycling","opening_hours":"24/7","recycling:waste":"yes","recycling_type":"container","wheelchair":"limited"}},"type":"Feature"},
	{"geometry":{"coordinates":[18.640835,54.358744],"type":"Point"},"properties":{"osm_id":"7249267067","tag":{"amenity":"recycling","opening_hours":"24/7","recycling:cardboard":"yes","recycling:paper":"yes","recycling_type":"container","wheelchair":"limited"}},"type":"Feature"},
	{"geometry":{"coordinates":[18.640816,54.358756],"type":"Point"},"properties":{"osm_id":"7249267068","tag":{"amenity":"recycling","opening_hours":"24/7","recycling:glass":"yes","recycling:glass_bottles":"yes","recycling_type":"container","wheelchair":"limited"}},"type":"Feature"}
]
}
