{
"type": "FeatureCollection",
"lastupdate": "2020-08-01T00:00:00Z",
"features": [
	{"geometry":{"coordinates":[18.719556,51.589049],"type":"Point"},"properties":{"osm_id":"1558408361","tag":{"amenity":"waste_basket"}},"type":"Feature"},
	{"geometry":{"coordinates":[18.709333,51.582678],"type":"Point"},"properties":{"osm_id":"1937338371","tag":{"amenity":"waste_basket"}},"type":"Feature"},
	{"geometry":{"coordinates":[18.708193,51.589215],"type":"Point"},"properties":{"osm_id":"3027997013","tag":{"amenity":"waste_basket"}},"type":"Feature"},
	{"geometry":{"coordinates":[18.709802,51.589062],"type":"Point"},"properties":{"osm_id":"3027997014","tag":{"amenity":"waste_basket"}},"type":"Feature"},
	{"geometry":{"coordinates":[18.706825,51.589005],"type":"Point"},"properties":{"osm_id":"3027997016","tag":{"amenity":"waste_basket"}},"type":"Feature"},
	{"geometry":{"coordinates":[18.710649,51.588196],"type":"Point"},"properties":{"osm_id":"3027997018","tag":{"amenity":"waste_basket"}},"type":"Feature"},
	{"geometry":{"coordinates":[18.707029,51.590289],"type":"Point"},"properties":{"osm_id":"3029368386","tag":{"amenity":"waste_basket"}},"type":"Feature"},
	{"geometry":{"coordinates":[18.70696,51.591159],"type":"Point"},"properties":{"osm_id":"3029368402","tag":{"amenity":"waste_basket"}},"type":"Feature"},
	{"geometry":{"coordinates":[18.709427,51.590208],"type":"Point"},"properties":{"osm_id":"3499545544","tag":{"amenity":"waste_basket"}},"type":"Feature"},
	{"geometry":{"coordinates":[18.708286,51.590234],"type":"Point"},"properties":{"osm_id":"3499545545","tag":{"amenity":"waste_basket"}},"type":"Feature"},
	{"geometry":{"coordinates":[18.719864,51.590421],"type":"Point"},"properties":{"osm_id":"7204572548","tag":{"amenity":"waste_basket"}},"type":"Feature"},
	{"geometry":{"coordinates":[18.718137,51.588937],"type":"Point"},"properties":{"osm_id":"7206551006","tag":{"amenity":"waste_basket"}},"type":"Feature"},
	{"geometry":{"coordinates":[18.718789,51.589377],"type":"Point"},"properties":{"osm_id":"7292795849","tag":{"amenity":"waste_basket"}},"type":"Feature"},
	{"geometry":{"coordinates":[18.714305,51.587545],"type":"Point"},"properties":{"osm_id":"7292795850","tag":{"amenity":"waste_basket"}},"type":"Feature"},
	{"geometry":{"coordinates":[18.714005,51.58722],"type":"Point"},"properties":{"osm_id":"7292795851","tag":{"amenity":"waste_basket"}},"type":"Feature"},
	{"geometry":{"coordinates":[18.713713,51.586693],"type":"Point"},"properties":{"osm_id":"7292795852","tag":{"amenity":"waste_basket"}},"type":"Feature"},
	{"geometry":{"coordinates":[18.712092,51.584832],"type":"Point"},"properties":{"osm_id":"7292795853","tag":{"amenity":"waste_basket"}},"type":"Feature"},
	{"geometry":{"coordinates":[18.709976,51.58235],"type":"Point"},"properties":{"osm_id":"7330183417","tag":{"amenity":"waste_basket"}},"type":"Feature"},
	{"geometry":{"coordinates":[18.713167,51.591281],"type":"Point"},"properties":{"osm_id":"7330183418","tag":{"amenity":"waste_basket"}},"type":"Feature"},
	{"geometry":{"coordinates":[18.712782,51.591381],"type":"Point"},"properties":{"osm_id":"7340758304","tag":{"amenity":"waste_basket"}},"type":"Feature"},
	{"geometry":{"coordinates":[18.712914,51.591505],"type":"Point"},"properties":{"osm_id":"7340758305","tag":{"amenity":"waste_basket"}},"type":"Feature"},
	{"geometry":{"coordinates":[18.712816,51.591098],"type":"Point"},"properties":{"osm_id":"7340758306","tag":{"amenity":"waste_basket"}},"type":"Feature"},
	{"geometry":{"coordinates":[18.710308,51.582657],"type":"Point"},"properties":{"osm_id":"7340758358","tag":{"amenity":"waste_basket"}},"type":"Feature"},
	{"geometry":{"coordinates":[18.714452,51.587425],"type":"Point"},"properties":{"osm_id":"7364306484","tag":{"amenity":"waste_basket"}},"type":"Feature"},
	{"geometry":{"coordinates":[18.710267,51.585737],"type":"Point"},"properties":{"osm_id":"7500465845","tag":{"amenity":"waste_basket","colour":"gray","material":"steel"}},"type":"Feature"},
	{"geometry":{"coordinates":[18.708295,51.585692],"type":"Point"},"properties":{"osm_id":"7500465855","tag":{"amenity":"waste_basket","colour":"gray","material":"steel"}},"type":"Feature"}
]
}
