{
"type": "FeatureCollection",
"lastupdate": "2020-07-31T00:00:00Z",
"features": [
	{"geometry":{"coordinates":[18.654568,47.718856],"type":"Point"},"properties":{"osm_id":"3454425213","tag":{"amenity":"recycling","source:date":"2011-05-08","url":"http://turistautak.hu/poi.php?id=60227"}},"type":"Feature"},
	{"geometry":{"coordinates":[18.64328,47.73693],"type":"Point"},"properties":{"osm_id":"3454425583","tag":{"addr:street":"T\u00e1t-kertv\u00e1ros,","amenity":"recycling","source:date":"2011-05-08","url":"http://turistautak.hu/poi.php?id=2254"}},"type":"Feature"},
	{"geometry":{"coordinates":[18.65803,47.73873],"type":"Point"},"properties":{"osm_id":"3454425586","tag":{"addr:city":"T\u00e1t-\u00dajtelep","addr:street":"10-es f\u0151\u00fat","amenity":"recycling","source:date":"2011-05-08","url":"http://turistautak.hu/poi.php?id=2256"}},"type":"Feature"},
	{"geometry":{"coordinates":[18.662467,47.740933],"type":"Point"},"properties":{"osm_id":"3454425592","tag":{"addr:street":"B\u00e9ke t\u00e9r - Vak Botty\u00e1n utca","amenity":"recycling","source:date":"2011-05-08","url":"http://turistautak.hu/poi.php?id=19156"}},"type":"Feature"},
	{"geometry":{"coordinates":[18.648795,47.743222],"type":"Point"},"properties":{"osm_id":"3454425896","tag":{"addr:city":"T\u00e1t","addr:street":"Csokonai utca","amenity":"recycling","source:date":"2011-05-08","url":"http://turistautak.hu/poi.php?id=2252"}},"type":"Feature"}
]
}
