{
"type": "FeatureCollection",
"features": [
	{"geometry":{"coordinates":[18.719139,46.35618],"type":"Point"},"properties":{"name":"\u00c3\u0096ko udvar","osm_id":"6609390302","tag":{"amenity":"recycling","opening_hours":"Tu,Fr 09:30-17:00; We,Th 08:00-15:30; Sa 08:00-12:00","operator":"Alisca terra","recycling:batteries":"yes","recycling:cans":"yes","recycling:cardboard":"yes","recycling:clothes":"yes","recycling:electrical_appliances":"yes","recycling:glass":"yes","recycling:glass_bottles":"yes","recycling:green_waste":"yes","recycling:paper":"yes","recycling:plastic":"yes","recycling:plastic_bottles":"yes","recycling:plastic_packaging":"yes","recycling:scrap_metal":"yes","recycling:shoes":"no","recycling:small_appliances":"yes","recycling:waste":"no","recycling_type":"centre","website":"https://www.aliscaterra.hu/?p=9"}},"type":"Feature"},
	{"geometry":{"coordinates":[18.703787,46.353501],"type":"Point"},"properties":{"name":"KT-Dinamic elektronikai hullad\u00c3\u00a9k lead\u00c3\u00a1s","osm_id":"6609390303","tag":{"addr:city":"Szeksz\u00c3\u00a1rd","addr:country":"HU","addr:housenumber":"19","addr:postcode":"7100","addr:street":"R\u00c3\u00a1k\u00c3\u00b3czi utca","amenity":"recycling","email":"ktdinamic@freemail.hu","fax":"+36 74 315 103","opening_hours":"Mo-Fr 07:00-14:00","phone":"+36 74 315 103","recycling:batteries":"yes","recycling:cans":"no","recycling:cardboard":"no","recycling:clothes":"no","recycling:electrical_appliances":"yes","recycling:glass":"no","recycling:glass_bottles":"no","recycling:green_waste":"no","recycling:paper":"no","recycling:plastic":"no","recycling:plastic_bottles":"no","recycling:plastic_packaging":"no","recycling:scrap_metal":"no","recycling:shoes":"no","recycling:small_appliances":"yes","recycling:waste":"no","recycling_type":"centre","website":"http://www.5mp.eu/web.php?a=ktdinamic"}},"type":"Feature"},
	{"geometry":{"coordinates":[18.705773,46.349764],"type":"Point"},"properties":{"osm_id":"8132029214","tag":{"amenity":"recycling","recycling:cardboard":"yes","recycling:glass":"yes","recycling:glass_bottles":"yes","recycling:paper":"yes","recycling:plastic":"yes","recycling:plastic_packaging":"yes","recycling_type":"container","survey:date":"2020-11-02"}},"type":"Feature"}
]
}
