{
"type": "FeatureCollection",
"lastupdate": "2020-08-02T00:00:00Z",
"features": [
	{"geometry":{"coordinates":[18.687953,45.989464],"type":"Point"},"properties":{"osm_id":"3464291925","tag":{"addr:city":"Moh\u00e1cs","addr:street":"Arany J\u00e1nos utca","amenity":"recycling","lastcheck":"2018-12-26","recycling:clothes":"yes","recycling_type":"container","source:date":"2011-09-08","url":"http://turistautak.hu/poi.php?id=97222"}},"type":"Feature"},
	{"geometry":{"coordinates":[18.667805,45.991493],"type":"Point"},"properties":{"osm_id":"3464291930","tag":{"amenity":"recycling","source:date":"2014-03-04","url":"http://turistautak.hu/poi.php?id=166392"}},"type":"Feature"},
	{"geometry":{"coordinates":[18.69075,45.995905],"type":"Point"},"properties":{"osm_id":"3464291935","tag":{"addr:city":"Moh\u00e1cs","addr:street":"Szenth\u00e1roms\u00e1g utca","amenity":"recycling","source:date":"2011-09-08","url":"http://turistautak.hu/poi.php?id=91537"}},"type":"Feature"},
	{"geometry":{"coordinates":[18.680216,45.998447],"type":"Point"},"properties":{"osm_id":"3464291940","tag":{"addr:city":"Moh\u00e1cs","addr:street":"Kossuth utca","amenity":"recycling","source:date":"2011-09-08","url":"http://turistautak.hu/poi.php?id=97195"}},"type":"Feature"}
]
}
