{
"type": "FeatureCollection",
"features": [
	{"geometry":{"coordinates":[38.233475,55.571453],"type":"Point"},"properties":{"osm_id":"614182324","tag":{"amenity":"recycling"}},"type":"Feature"},
	{"geometry":{"coordinates":[38.242298,55.578067],"type":"Point"},"properties":{"osm_id":"1617381531","tag":{"amenity":"waste_disposal"}},"type":"Feature"},
	{"geometry":{"coordinates":[38.240571,55.576589],"type":"Point"},"properties":{"osm_id":"1673700720","tag":{"amenity":"waste_disposal"}},"type":"Feature"},
	{"geometry":{"coordinates":[38.236491,55.574109],"type":"Point"},"properties":{"osm_id":"1682043844","tag":{"amenity":"waste_disposal"}},"type":"Feature"},
	{"geometry":{"coordinates":[38.235164,55.568547],"type":"Point"},"properties":{"osm_id":"1685098520","tag":{"amenity":"waste_disposal"}},"type":"Feature"},
	{"geometry":{"coordinates":[38.246293,55.56146],"type":"Point"},"properties":{"osm_id":"1779195281","tag":{"amenity":"waste_disposal"}},"type":"Feature"},
	{"geometry":{"coordinates":[38.247954,55.551835],"type":"Point"},"properties":{"osm_id":"2997810811","tag":{"amenity":"waste_disposal"}},"type":"Feature"},
	{"geometry":{"coordinates":[38.250449,55.550302],"type":"Point"},"properties":{"osm_id":"2999500226","tag":{"amenity":"waste_disposal"}},"type":"Feature"},
	{"geometry":{"coordinates":[38.25017,55.549306],"type":"Point"},"properties":{"osm_id":"3008235682","tag":{"amenity":"waste_disposal"}},"type":"Feature"},
	{"geometry":{"coordinates":[38.247267,55.552375],"type":"Point"},"properties":{"osm_id":"3008277335","tag":{"amenity":"waste_disposal"}},"type":"Feature"},
	{"geometry":{"coordinates":[38.249359,55.554714],"type":"Point"},"properties":{"osm_id":"3008277336","tag":{"amenity":"waste_disposal"}},"type":"Feature"},
	{"geometry":{"coordinates":[38.252218,55.55104],"type":"Point"},"properties":{"osm_id":"3008277337","tag":{"amenity":"waste_disposal"}},"type":"Feature"},
	{"geometry":{"coordinates":[38.237786,55.556958],"type":"Point"},"properties":{"osm_id":"3150325293","tag":{"amenity":"waste_basket"}},"type":"Feature"},
	{"geometry":{"coordinates":[38.284655,55.546668],"type":"Point"},"properties":{"osm_id":"3218121312","tag":{"amenity":"recycling","recycling:scrap_metal":"yes","recycling_type":"centre"}},"type":"Feature"},
	{"geometry":{"coordinates":[38.282241,55.546953],"type":"Point"},"properties":{"osm_id":"3218121313","tag":{"amenity":"recycling","recycling:scrap_metal":"yes","recycling_type":"centre"}},"type":"Feature"},
	{"geometry":{"coordinates":[38.257411,55.569141],"type":"Point"},"properties":{"osm_id":"3218121314","tag":{"amenity":"recycling","recycling:scrap_metal":"yes","recycling_type":"centre"}},"type":"Feature"},
	{"geometry":{"coordinates":[38.238865,55.563294],"type":"Point"},"properties":{"osm_id":"3274966299","tag":{"amenity":"waste_disposal"}},"type":"Feature"},
	{"geometry":{"coordinates":[38.240599,55.561808],"type":"Point"},"properties":{"osm_id":"3359870048","tag":{"amenity":"waste_disposal"}},"type":"Feature"},
	{"geometry":{"coordinates":[38.237099,55.563028],"type":"Point"},"properties":{"osm_id":"3359870075","tag":{"amenity":"waste_disposal"}},"type":"Feature"},
	{"geometry":{"coordinates":[38.239122,55.555383],"type":"Point"},"properties":{"osm_id":"3754741408","tag":{"amenity":"waste_basket"}},"type":"Feature"},
	{"geometry":{"coordinates":[38.239332,55.570744],"type":"Point"},"properties":{"osm_id":"4303710081","tag":{"amenity":"waste_disposal"}},"type":"Feature"},
	{"geometry":{"coordinates":[38.260037,55.549831],"type":"Point"},"properties":{"osm_id":"4681537492","tag":{"amenity":"waste_disposal"}},"type":"Feature"},
	{"geometry":{"coordinates":[38.313043,55.542172],"type":"Point"},"properties":{"osm_id":"5082627000","tag":{"amenity":"waste_disposal"}},"type":"Feature"},
	{"geometry":{"coordinates":[38.234211,55.564187],"type":"Point"},"properties":{"osm_id":"5200060357","tag":{"amenity":"recycling","recycling:batteries":"yes","recycling_type":"container"}},"type":"Feature"},
	{"geometry":{"coordinates":[38.301637,55.55345],"type":"Point"},"properties":{"osm_id":"6534083217","tag":{"amenity":"waste_disposal"}},"type":"Feature"},
	{"geometry":{"coordinates":[38.287745,55.545074],"type":"Point"},"properties":{"osm_id":"7354729146","tag":{"amenity":"recycling","opening_hours":"24/7","recycling:scrap_metal":"yes","recycling_type":"centre"}},"type":"Feature"},
	{"geometry":{"coordinates":[38.301692,55.540108],"type":"Point"},"properties":{"osm_id":"7354998745","tag":{"amenity":"waste_disposal"}},"type":"Feature"},
	{"geometry":{"coordinates":[38.293262,55.543535],"type":"Point"},"properties":{"name":"\u00d0\u009f\u00d1\u0080\u00d0\u00b8\u00d1\u0091\u00d0\u00bc \u00d0\u00bb\u00d0\u00be\u00d0\u00bc\u00d0\u00b0","osm_id":"7354998749","tag":{"amenity":"recycling","recycling:scrap_metal":"yes","recycling_type":"centre"}},"type":"Feature"},
	{"geometry":{"coordinates":[38.312232,55.555335],"type":"Point"},"properties":{"osm_id":"7369074749","tag":{"amenity":"waste_disposal"}},"type":"Feature"},
	{"geometry":{"coordinates":[38.30222,55.54637],"type":"Point"},"properties":{"osm_id":"7376067085","tag":{"amenity":"waste_disposal"}},"type":"Feature"},
	{"geometry":{"coordinates":[38.295755,55.544274],"type":"Point"},"properties":{"osm_id":"7376073532","tag":{"amenity":"waste_disposal"}},"type":"Feature"},
	{"geometry":{"coordinates":[38.287241,55.553577],"type":"Point"},"properties":{"osm_id":"7384351484","tag":{"amenity":"waste_disposal"}},"type":"Feature"},
	{"geometry":{"coordinates":[38.284655,55.547889],"type":"Point"},"properties":{"osm_id":"7384392430","tag":{"amenity":"waste_disposal"}},"type":"Feature"},
	{"geometry":{"coordinates":[38.307671,55.5441],"type":"Point"},"properties":{"osm_id":"7403055372","tag":{"amenity":"waste_disposal"}},"type":"Feature"},
	{"geometry":{"coordinates":[38.277324,55.555965],"type":"Point"},"properties":{"osm_id":"7412000601","tag":{"amenity":"waste_disposal"}},"type":"Feature"},
	{"geometry":{"coordinates":[38.293646,55.541349],"type":"Point"},"properties":{"osm_id":"7446459944","tag":{"amenity":"waste_disposal"}},"type":"Feature"},
	{"geometry":{"coordinates":[38.314197,55.540357],"type":"Point"},"properties":{"osm_id":"7446470086","tag":{"amenity":"waste_disposal"}},"type":"Feature"},
	{"geometry":{"coordinates":[38.270499,55.57399],"type":"Point"},"properties":{"osm_id":"7448636522","tag":{"amenity":"waste_disposal"}},"type":"Feature"},
	{"geometry":{"coordinates":[38.255617,55.556858],"type":"Point"},"properties":{"osm_id":"7449751844","tag":{"amenity":"waste_disposal"}},"type":"Feature"},
	{"geometry":{"coordinates":[38.253496,55.556698],"type":"Point"},"properties":{"name":"\u00d0\u00a7\u00d0\u00b5\u00d1\u0080\u00d0\u00bc\u00d0\u00b5\u00d1\u0082-\u00d1\u0086\u00d0\u00b2\u00d0\u00b5\u00d1\u0082\u00d0\u00bc\u00d0\u00b5\u00d1\u0082","osm_id":"7449751845","tag":{"amenity":"recycling","recycling:scrap_metal":"yes","recycling_type":"centre"}},"type":"Feature"},
	{"geometry":{"coordinates":[38.309629,55.538922],"type":"Point"},"properties":{"osm_id":"7470755448","tag":{"amenity":"waste_disposal"}},"type":"Feature"},
	{"geometry":{"coordinates":[38.315215,55.536039],"type":"Point"},"properties":{"osm_id":"7470757794","tag":{"amenity":"waste_disposal"}},"type":"Feature"},
	{"geometry":{"coordinates":[38.309462,55.545526],"type":"Point"},"properties":{"osm_id":"7470762283","tag":{"amenity":"waste_disposal"}},"type":"Feature"},
	{"geometry":{"coordinates":[38.300455,55.555866],"type":"Point"},"properties":{"osm_id":"7473411938","tag":{"amenity":"waste_disposal"}},"type":"Feature"},
	{"geometry":{"coordinates":[38.302225,55.577044],"type":"Point"},"properties":{"osm_id":"7473708778","tag":{"amenity":"waste_disposal"}},"type":"Feature"},
	{"geometry":{"coordinates":[38.280742,55.573854],"type":"Point"},"properties":{"osm_id":"7473760268","tag":{"amenity":"waste_disposal"}},"type":"Feature"},
	{"geometry":{"coordinates":[38.28749,55.570113],"type":"Point"},"properties":{"osm_id":"7473836451","tag":{"amenity":"waste_disposal"}},"type":"Feature"},
	{"geometry":{"coordinates":[38.316643,55.533176],"type":"Point"},"properties":{"osm_id":"7572110780","tag":{"amenity":"waste_disposal"}},"type":"Feature"}
]
}
