{
"type": "FeatureCollection",
"features": [
	{"geometry":{"coordinates":[38.272904,54.014507],"type":"Point"},"properties":{"osm_id":"714138973","tag":{"amenity":"waste_disposal"}},"type":"Feature"},
	{"geometry":{"coordinates":[38.317627,54.029463],"type":"Point"},"properties":{"osm_id":"714926543","tag":{"amenity":"waste_disposal"}},"type":"Feature"},
	{"geometry":{"coordinates":[38.314737,54.029765],"type":"Point"},"properties":{"osm_id":"714926559","tag":{"amenity":"waste_disposal"}},"type":"Feature"},
	{"geometry":{"coordinates":[38.276529,54.037277],"type":"Point"},"properties":{"osm_id":"714926617","tag":{"amenity":"waste_disposal"}},"type":"Feature"},
	{"geometry":{"coordinates":[38.277226,54.037894],"type":"Point"},"properties":{"osm_id":"714926633","tag":{"amenity":"waste_disposal"}},"type":"Feature"},
	{"geometry":{"coordinates":[38.315836,54.028509],"type":"Point"},"properties":{"osm_id":"714926645","tag":{"amenity":"waste_disposal"}},"type":"Feature"},
	{"geometry":{"coordinates":[38.310794,54.027539],"type":"Point"},"properties":{"osm_id":"714926650","tag":{"amenity":"waste_disposal"}},"type":"Feature"},
	{"geometry":{"coordinates":[38.313993,54.02667],"type":"Point"},"properties":{"osm_id":"714926655","tag":{"amenity":"waste_disposal"}},"type":"Feature"},
	{"geometry":{"coordinates":[38.278307,54.030626],"type":"Point"},"properties":{"osm_id":"714926674","tag":{"amenity":"waste_disposal"}},"type":"Feature"},
	{"geometry":{"coordinates":[38.277643,54.017851],"type":"Point"},"properties":{"osm_id":"721208339","tag":{"amenity":"waste_basket"}},"type":"Feature"},
	{"geometry":{"coordinates":[38.265508,54.029047],"type":"Point"},"properties":{"osm_id":"920458199","tag":{"amenity":"waste_disposal"}},"type":"Feature"},
	{"geometry":{"coordinates":[38.267404,54.030181],"type":"Point"},"properties":{"osm_id":"920458466","tag":{"amenity":"waste_disposal"}},"type":"Feature"},
	{"geometry":{"coordinates":[38.26772,54.021586],"type":"Point"},"properties":{"osm_id":"921450798","tag":{"amenity":"recycling","recycling:plastic_bottles":"yes","recycling_type":"container"}},"type":"Feature"},
	{"geometry":{"coordinates":[38.275986,54.036884],"type":"Point"},"properties":{"osm_id":"939296556","tag":{"amenity":"waste_disposal"}},"type":"Feature"},
	{"geometry":{"coordinates":[38.307153,54.03032],"type":"Point"},"properties":{"osm_id":"944082182","tag":{"amenity":"waste_disposal"}},"type":"Feature"},
	{"geometry":{"coordinates":[38.282437,54.032182],"type":"Point"},"properties":{"osm_id":"1062323628","tag":{"amenity":"waste_disposal"}},"type":"Feature"},
	{"geometry":{"coordinates":[38.261538,54.009571],"type":"Point"},"properties":{"osm_id":"1086078838","tag":{"amenity":"waste_disposal"}},"type":"Feature"},
	{"geometry":{"coordinates":[38.267631,54.010883],"type":"Point"},"properties":{"osm_id":"1086133848","tag":{"amenity":"waste_disposal"}},"type":"Feature"},
	{"geometry":{"coordinates":[38.266829,54.010052],"type":"Point"},"properties":{"osm_id":"1086133856","tag":{"amenity":"waste_disposal"}},"type":"Feature"},
	{"geometry":{"coordinates":[38.270271,54.034795],"type":"Point"},"properties":{"osm_id":"1173081584","tag":{"amenity":"waste_disposal"}},"type":"Feature"},
	{"geometry":{"coordinates":[38.264148,54.034679],"type":"Point"},"properties":{"osm_id":"1173081588","tag":{"amenity":"waste_disposal"}},"type":"Feature"},
	{"geometry":{"coordinates":[38.26666,54.033633],"type":"Point"},"properties":{"osm_id":"1173081610","tag":{"amenity":"waste_disposal"}},"type":"Feature"},
	{"geometry":{"coordinates":[38.265032,54.035295],"type":"Point"},"properties":{"osm_id":"1197319557","tag":{"amenity":"waste_disposal"}},"type":"Feature"},
	{"geometry":{"coordinates":[38.269797,54.023213],"type":"Point"},"properties":{"osm_id":"1209334861","tag":{"amenity":"recycling","recycling:plastic_bottles":"yes","recycling_type":"container"}},"type":"Feature"},
	{"geometry":{"coordinates":[38.281916,54.015531],"type":"Point"},"properties":{"osm_id":"1214003450","tag":{"amenity":"waste_disposal"}},"type":"Feature"},
	{"geometry":{"coordinates":[38.265853,54.026522],"type":"Point"},"properties":{"osm_id":"1260428158","tag":{"amenity":"waste_disposal"}},"type":"Feature"},
	{"geometry":{"coordinates":[38.264555,54.026021],"type":"Point"},"properties":{"osm_id":"1260428163","tag":{"amenity":"waste_disposal"}},"type":"Feature"},
	{"geometry":{"coordinates":[38.268998,54.020939],"type":"Point"},"properties":{"osm_id":"1449312017","tag":{"amenity":"recycling","recycling_type":"container"}},"type":"Feature"},
	{"geometry":{"coordinates":[38.298351,54.013582],"type":"Point"},"properties":{"osm_id":"1574105442","tag":{"amenity":"waste_disposal"}},"type":"Feature"},
	{"geometry":{"coordinates":[38.317031,54.033871],"type":"Point"},"properties":{"osm_id":"1711714956","tag":{"amenity":"waste_disposal"}},"type":"Feature"},
	{"geometry":{"coordinates":[38.316567,54.033451],"type":"Point"},"properties":{"osm_id":"1711714969","tag":{"amenity":"waste_disposal"}},"type":"Feature"},
	{"geometry":{"coordinates":[38.276268,54.01128],"type":"Point"},"properties":{"osm_id":"1754692774","tag":{"amenity":"waste_basket"}},"type":"Feature"},
	{"geometry":{"coordinates":[38.278408,54.011258],"type":"Point"},"properties":{"osm_id":"1754692775","tag":{"amenity":"waste_basket"}},"type":"Feature"},
	{"geometry":{"coordinates":[38.273714,54.012411],"type":"Point"},"properties":{"osm_id":"1754692778","tag":{"amenity":"waste_disposal"}},"type":"Feature"},
	{"geometry":{"coordinates":[38.275455,54.011264],"type":"Point"},"properties":{"osm_id":"1754692783","tag":{"amenity":"waste_basket"}},"type":"Feature"},
	{"geometry":{"coordinates":[38.279274,54.010042],"type":"Point"},"properties":{"osm_id":"1754692837","tag":{"amenity":"waste_disposal"}},"type":"Feature"},
	{"geometry":{"coordinates":[38.280707,54.011489],"type":"Point"},"properties":{"osm_id":"1754692846","tag":{"amenity":"waste_basket"}},"type":"Feature"},
	{"geometry":{"coordinates":[38.280954,54.010281],"type":"Point"},"properties":{"osm_id":"1754711996","tag":{"amenity":"waste_disposal"}},"type":"Feature"},
	{"geometry":{"coordinates":[38.270587,54.008722],"type":"Point"},"properties":{"osm_id":"1754712003","tag":{"amenity":"waste_disposal"}},"type":"Feature"},
	{"geometry":{"coordinates":[38.268768,54.013162],"type":"Point"},"properties":{"osm_id":"1754712009","tag":{"amenity":"waste_disposal"}},"type":"Feature"},
	{"geometry":{"coordinates":[38.271944,54.010482],"type":"Point"},"properties":{"osm_id":"1754712022","tag":{"amenity":"waste_disposal"}},"type":"Feature"},
	{"geometry":{"coordinates":[38.284491,54.012169],"type":"Point"},"properties":{"osm_id":"1754712031","tag":{"amenity":"waste_disposal"}},"type":"Feature"},
	{"geometry":{"coordinates":[38.270216,54.00953],"type":"Point"},"properties":{"osm_id":"1754712055","tag":{"amenity":"waste_disposal"}},"type":"Feature"},
	{"geometry":{"coordinates":[38.270023,54.01278],"type":"Point"},"properties":{"osm_id":"1754712067","tag":{"amenity":"waste_disposal"}},"type":"Feature"},
	{"geometry":{"coordinates":[38.294533,54.017609],"type":"Point"},"properties":{"osm_id":"1754718414","tag":{"amenity":"waste_disposal"}},"type":"Feature"},
	{"geometry":{"coordinates":[38.275276,54.010056],"type":"Point"},"properties":{"osm_id":"1754718427","tag":{"amenity":"waste_disposal"}},"type":"Feature"},
	{"geometry":{"coordinates":[38.28944,54.011995],"type":"Point"},"properties":{"osm_id":"1754718429","tag":{"amenity":"waste_disposal"}},"type":"Feature"},
	{"geometry":{"coordinates":[38.293056,54.011794],"type":"Point"},"properties":{"osm_id":"1754718431","tag":{"amenity":"waste_disposal"}},"type":"Feature"},
	{"geometry":{"coordinates":[38.288532,54.017164],"type":"Point"},"properties":{"osm_id":"1754718433","tag":{"amenity":"waste_disposal"}},"type":"Feature"},
	{"geometry":{"coordinates":[38.292259,54.009855],"type":"Point"},"properties":{"osm_id":"1754718434","tag":{"amenity":"waste_disposal"}},"type":"Feature"},
	{"geometry":{"coordinates":[38.297765,54.018282],"type":"Point"},"properties":{"osm_id":"1754718435","tag":{"amenity":"waste_disposal"}},"type":"Feature"},
	{"geometry":{"coordinates":[38.294504,54.009705],"type":"Point"},"properties":{"osm_id":"1754718436","tag":{"amenity":"waste_disposal"}},"type":"Feature"},
	{"geometry":{"coordinates":[38.246327,54.043347],"type":"Point"},"properties":{"osm_id":"1802962115","tag":{"amenity":"waste_basket"}},"type":"Feature"},
	{"geometry":{"coordinates":[38.249934,54.044745],"type":"Point"},"properties":{"osm_id":"1817817395","tag":{"amenity":"waste_disposal"}},"type":"Feature"},
	{"geometry":{"coordinates":[38.29835,54.012075],"type":"Point"},"properties":{"osm_id":"1898946827","tag":{"amenity":"waste_disposal"}},"type":"Feature"},
	{"geometry":{"coordinates":[38.30343,54.011962],"type":"Point"},"properties":{"osm_id":"2200263923","tag":{"amenity":"waste_disposal"}},"type":"Feature"},
	{"geometry":{"coordinates":[38.248196,54.046531],"type":"Point"},"properties":{"osm_id":"2351458952","tag":{"amenity":"waste_disposal"}},"type":"Feature"},
	{"geometry":{"coordinates":[38.299802,54.027204],"type":"Point"},"properties":{"osm_id":"2555824490","tag":{"amenity":"waste_disposal"}},"type":"Feature"},
	{"geometry":{"coordinates":[38.28642,54.031585],"type":"Point"},"properties":{"osm_id":"3044105458","tag":{"amenity":"waste_disposal"}},"type":"Feature"},
	{"geometry":{"coordinates":[38.256647,54.030089],"type":"Point"},"properties":{"osm_id":"3047090843","tag":{"amenity":"waste_disposal"}},"type":"Feature"},
	{"geometry":{"coordinates":[38.308455,54.029104],"type":"Point"},"properties":{"osm_id":"3433483515","tag":{"amenity":"waste_disposal"}},"type":"Feature"},
	{"geometry":{"coordinates":[38.309603,54.029818],"type":"Point"},"properties":{"osm_id":"3433483516","tag":{"amenity":"waste_disposal"}},"type":"Feature"},
	{"geometry":{"coordinates":[38.277272,54.033557],"type":"Point"},"properties":{"osm_id":"4459108646","tag":{"amenity":"waste_disposal"}},"type":"Feature"},
	{"geometry":{"coordinates":[38.282001,54.034756],"type":"Point"},"properties":{"osm_id":"4459201855","tag":{"amenity":"waste_disposal"}},"type":"Feature"},
	{"geometry":{"coordinates":[38.25538,54.032108],"type":"Point"},"properties":{"osm_id":"4477913052","tag":{"amenity":"waste_disposal"}},"type":"Feature"},
	{"geometry":{"coordinates":[38.259958,54.031265],"type":"Point"},"properties":{"osm_id":"4826660970","tag":{"amenity":"waste_disposal"}},"type":"Feature"},
	{"geometry":{"coordinates":[38.251534,54.038517],"type":"Point"},"properties":{"osm_id":"5089832710","tag":{"amenity":"waste_disposal"}},"type":"Feature"},
	{"geometry":{"coordinates":[38.262905,54.032774],"type":"Point"},"properties":{"osm_id":"5103777312","tag":{"amenity":"waste_basket"}},"type":"Feature"},
	{"geometry":{"coordinates":[38.268532,54.036793],"type":"Point"},"properties":{"osm_id":"5103777318","tag":{"amenity":"waste_disposal"}},"type":"Feature"},
	{"geometry":{"coordinates":[38.274229,54.037905],"type":"Point"},"properties":{"osm_id":"5105884862","tag":{"amenity":"waste_disposal"}},"type":"Feature"},
	{"geometry":{"coordinates":[38.29936,54.014866],"type":"Point"},"properties":{"osm_id":"5113922594","tag":{"amenity":"waste_disposal"}},"type":"Feature"},
	{"geometry":{"coordinates":[38.262409,54.021993],"type":"Point"},"properties":{"osm_id":"5136548949","tag":{"amenity":"waste_disposal"}},"type":"Feature"},
	{"geometry":{"coordinates":[38.317489,54.010364],"type":"Point"},"properties":{"osm_id":"5146144295","tag":{"amenity":"waste_disposal"}},"type":"Feature"},
	{"geometry":{"coordinates":[38.308899,54.008511],"type":"Point"},"properties":{"osm_id":"5146267371","tag":{"amenity":"waste_basket"}},"type":"Feature"},
	{"geometry":{"coordinates":[38.305682,54.008317],"type":"Point"},"properties":{"osm_id":"5146303291","tag":{"amenity":"waste_disposal"}},"type":"Feature"},
	{"geometry":{"coordinates":[38.313925,54.024331],"type":"Point"},"properties":{"osm_id":"5158060079","tag":{"amenity":"waste_disposal"}},"type":"Feature"},
	{"geometry":{"coordinates":[38.299175,54.020839],"type":"Point"},"properties":{"osm_id":"5158957994","tag":{"amenity":"waste_disposal"}},"type":"Feature"},
	{"geometry":{"coordinates":[38.280269,54.034755],"type":"Point"},"properties":{"osm_id":"5159396636","tag":{"amenity":"waste_disposal"}},"type":"Feature"},
	{"geometry":{"coordinates":[38.314211,54.031937],"type":"Point"},"properties":{"osm_id":"5161500799","tag":{"amenity":"waste_disposal"}},"type":"Feature"},
	{"geometry":{"coordinates":[38.312184,54.031158],"type":"Point"},"properties":{"osm_id":"5161500804","tag":{"amenity":"waste_disposal"}},"type":"Feature"},
	{"geometry":{"coordinates":[38.312205,54.031124],"type":"Point"},"properties":{"osm_id":"5161671080","tag":{"amenity":"recycling","recycling:plastic_bottles":"yes","recycling_type":"container"}},"type":"Feature"},
	{"geometry":{"coordinates":[38.311869,54.030936],"type":"Point"},"properties":{"osm_id":"5161671087","tag":{"amenity":"waste_basket"}},"type":"Feature"},
	{"geometry":{"coordinates":[38.312218,54.030256],"type":"Point"},"properties":{"osm_id":"5161671330","tag":{"amenity":"waste_basket"}},"type":"Feature"},
	{"geometry":{"coordinates":[38.309615,54.029795],"type":"Point"},"properties":{"osm_id":"5161671332","tag":{"amenity":"recycling","recycling:plastic_bottles":"yes","recycling_type":"container"}},"type":"Feature"},
	{"geometry":{"coordinates":[38.310364,54.028952],"type":"Point"},"properties":{"osm_id":"5161671352","tag":{"amenity":"waste_basket"}},"type":"Feature"},
	{"geometry":{"coordinates":[38.307405,54.029248],"type":"Point"},"properties":{"osm_id":"5161671367","tag":{"amenity":"waste_basket"}},"type":"Feature"},
	{"geometry":{"coordinates":[38.277162,54.037898],"type":"Point"},"properties":{"osm_id":"5163653228","tag":{"amenity":"recycling","recycling:plastic_bottles":"yes","recycling_type":"container"}},"type":"Feature"},
	{"geometry":{"coordinates":[38.274164,54.0379],"type":"Point"},"properties":{"osm_id":"5163653229","tag":{"amenity":"recycling","recycling:plastic_bottles":"yes","recycling_type":"container"}},"type":"Feature"},
	{"geometry":{"coordinates":[38.280284,54.037822],"type":"Point"},"properties":{"osm_id":"5163653230","tag":{"amenity":"recycling","recycling:plastic_bottles":"yes","recycling_type":"container"}},"type":"Feature"},
	{"geometry":{"coordinates":[38.280341,54.037878],"type":"Point"},"properties":{"osm_id":"5163653231","tag":{"amenity":"waste_disposal"}},"type":"Feature"},
	{"geometry":{"coordinates":[38.281961,54.03474],"type":"Point"},"properties":{"osm_id":"5163653232","tag":{"amenity":"recycling","recycling:plastic_bottles":"yes","recycling_type":"container"}},"type":"Feature"},
	{"geometry":{"coordinates":[38.265588,54.036991],"type":"Point"},"properties":{"name":"\u00d0\u009f\u00d1\u0083\u00d0\u00bd\u00d0\u00ba\u00d1\u0082 \u00d0\u00bf\u00d1\u0080\u00d0\u00b8\u00d0\u00b5\u00d0\u00bc\u00d0\u00b0 \u00d0\u00bb\u00d1\u008e\u00d0\u00bc\u00d0\u00b8\u00d0\u00bd\u00d0\u00b5\u00d1\u0081\u00d1\u0086\u00d0\u00b5\u00d0\u00bd\u00d1\u0082\u00d0\u00bd\u00d1\u008b\u00d1\u0085 \u00d0\u00bb\u00d0\u00b0\u00d0\u00bc\u00d0\u00bf \u00d0\u00bf\u00d1\u0080\u00d0\u00b8 \u00d0\u0096\u00d0\u00a1\u00d0\u009a \u00e2\u0084\u00962","osm_id":"5163777456","tag":{"amenity":"recycling","recycling:fluorescent_tubes":"yes","recycling_type":"centre"}},"type":"Feature"},
	{"geometry":{"coordinates":[38.269829,54.023269],"type":"Point"},"properties":{"osm_id":"5163819580","tag":{"amenity":"waste_disposal"}},"type":"Feature"},
	{"geometry":{"coordinates":[38.267774,54.021613],"type":"Point"},"properties":{"osm_id":"5163819581","tag":{"amenity":"waste_disposal"}},"type":"Feature"},
	{"geometry":{"coordinates":[38.265463,54.029049],"type":"Point"},"properties":{"osm_id":"5166166768","tag":{"amenity":"recycling","recycling:plastic_bottles":"yes","recycling_type":"container"}},"type":"Feature"},
	{"geometry":{"coordinates":[38.263683,54.010164],"type":"Point"},"properties":{"osm_id":"5166416765","tag":{"amenity":"waste_disposal"}},"type":"Feature"},
	{"geometry":{"coordinates":[38.261489,54.009563],"type":"Point"},"properties":{"osm_id":"5166416766","tag":{"amenity":"recycling","recycling:plastic_bottles":"yes","recycling_type":"container"}},"type":"Feature"},
	{"geometry":{"coordinates":[38.26363,54.010157],"type":"Point"},"properties":{"osm_id":"5166416767","tag":{"amenity":"recycling","recycling:plastic_bottles":"yes","recycling_type":"container"}},"type":"Feature"},
	{"geometry":{"coordinates":[38.2803,54.034738],"type":"Point"},"properties":{"osm_id":"5168313473","tag":{"amenity":"recycling","recycling:cardboard":"yes","recycling:glass":"yes","recycling:paper":"yes","recycling:plastic":"yes","recycling:plastic_bottles":"yes","recycling_type":"container"}},"type":"Feature"},
	{"geometry":{"coordinates":[38.28004,54.014159],"type":"Point"},"properties":{"osm_id":"5170245648","tag":{"amenity":"waste_basket"}},"type":"Feature"},
	{"geometry":{"coordinates":[38.279929,54.014217],"type":"Point"},"properties":{"osm_id":"5170245649","tag":{"amenity":"waste_basket"}},"type":"Feature"},
	{"geometry":{"coordinates":[38.2696,54.025818],"type":"Point"},"properties":{"osm_id":"5196921872","tag":{"amenity":"waste_disposal"}},"type":"Feature"},
	{"geometry":{"coordinates":[38.304544,54.017161],"type":"Point"},"properties":{"osm_id":"5252849040","tag":{"amenity":"waste_basket"}},"type":"Feature"},
	{"geometry":{"coordinates":[38.30536,54.017317],"type":"Point"},"properties":{"osm_id":"5252849047","tag":{"amenity":"waste_disposal"}},"type":"Feature"},
	{"geometry":{"coordinates":[38.2625,54.035048],"type":"Point"},"properties":{"osm_id":"5333501485","tag":{"amenity":"recycling","recycling:plastic_bottles":"yes","recycling_type":"container"}},"type":"Feature"},
	{"geometry":{"coordinates":[38.262503,54.035099],"type":"Point"},"properties":{"osm_id":"5333501486","tag":{"amenity":"waste_disposal"}},"type":"Feature"},
	{"geometry":{"coordinates":[38.292188,54.009851],"type":"Point"},"properties":{"osm_id":"5349849476","tag":{"amenity":"recycling","recycling:plastic_bottles":"yes","recycling_type":"container"}},"type":"Feature"},
	{"geometry":{"coordinates":[38.259962,54.031293],"type":"Point"},"properties":{"osm_id":"5390740414","tag":{"amenity":"recycling","recycling:plastic_bottles":"yes","recycling_type":"container"}},"type":"Feature"},
	{"geometry":{"coordinates":[38.266574,54.03363],"type":"Point"},"properties":{"osm_id":"5405024855","tag":{"amenity":"recycling","recycling:plastic_bottles":"yes","recycling_type":"container"}},"type":"Feature"},
	{"geometry":{"coordinates":[38.277308,54.033564],"type":"Point"},"properties":{"osm_id":"5513712093","tag":{"amenity":"recycling","recycling:plastic_bottles":"yes","recycling_type":"container"}},"type":"Feature"},
	{"geometry":{"coordinates":[38.281068,54.029646],"type":"Point"},"properties":{"osm_id":"5675674523","tag":{"amenity":"waste_disposal"}},"type":"Feature"},
	{"geometry":{"coordinates":[38.281091,54.029631],"type":"Point"},"properties":{"osm_id":"5675674524","tag":{"amenity":"recycling","recycling:cardboard":"yes","recycling:glass":"yes","recycling:paper":"yes","recycling:plastic":"yes","recycling:plastic_bottles":"yes","recycling_type":"container"}},"type":"Feature"},
	{"geometry":{"coordinates":[38.278116,54.031242],"type":"Point"},"properties":{"osm_id":"5675674525","tag":{"amenity":"waste_disposal"}},"type":"Feature"},
	{"geometry":{"coordinates":[38.275565,54.031765],"type":"Point"},"properties":{"osm_id":"5697449384","tag":{"amenity":"waste_disposal"}},"type":"Feature"},
	{"geometry":{"coordinates":[38.27552,54.031765],"type":"Point"},"properties":{"osm_id":"5697449385","tag":{"amenity":"recycling","recycling:plastic_bottles":"yes","recycling_type":"container"}},"type":"Feature"},
	{"geometry":{"coordinates":[38.28853,54.017138],"type":"Point"},"properties":{"osm_id":"5734332929","tag":{"amenity":"recycling","recycling:plastic_bottles":"yes","recycling_type":"container"}},"type":"Feature"},
	{"geometry":{"coordinates":[38.318647,54.028388],"type":"Point"},"properties":{"osm_id":"5760274628","tag":{"amenity":"waste_disposal"}},"type":"Feature"},
	{"geometry":{"coordinates":[38.319107,54.027399],"type":"Point"},"properties":{"osm_id":"5760274629","tag":{"amenity":"waste_disposal"}},"type":"Feature"},
	{"geometry":{"coordinates":[38.269867,54.023336],"type":"Point"},"properties":{"name":"\u00d0\u009f\u00d1\u0083\u00d0\u00bd\u00d0\u00ba\u00d1\u0082 \u00d0\u00bf\u00d1\u0080\u00d0\u00b8\u00d0\u00b5\u00d0\u00bc\u00d0\u00b0 \u00d1\u0082\u00d0\u00b2\u00d0\u00b5\u00d1\u0080\u00d0\u00b4\u00d1\u008b\u00d1\u0085 \u00d0\u00b1\u00d1\u008b\u00d1\u0082\u00d0\u00be\u00d0\u00b2\u00d1\u008b\u00d1\u0085 \u00d0\u00be\u00d1\u0082\u00d1\u0085\u00d0\u00be\u00d0\u00b4\u00d0\u00be\u00d0\u00b2","osm_id":"5818539860","tag":{"amenity":"recycling","description":"\u00d0\u009d\u00d0\u00b5\u00d0\u00b1\u00d0\u00be\u00d0\u00bb\u00d1\u008c\u00d1\u0088\u00d0\u00b0\u00d1\u008f \u00d0\u00b1\u00d1\u0083\u00d0\u00b4\u00d0\u00ba\u00d0\u00b0.","opening_hours":"Mo-Sa 08:00-14:00","recycling_type":"centre"}},"type":"Feature"},
	{"geometry":{"coordinates":[38.26245,54.021963],"type":"Point"},"properties":{"osm_id":"5842393544","tag":{"amenity":"recycling","recycling:plastic_bottles":"yes","recycling_type":"container"}},"type":"Feature"},
	{"geometry":{"coordinates":[38.240235,54.044407],"type":"Point"},"properties":{"osm_id":"5862879238","tag":{"amenity":"waste_disposal"}},"type":"Feature"},
	{"geometry":{"coordinates":[38.278246,54.030629],"type":"Point"},"properties":{"osm_id":"5866969990","tag":{"amenity":"recycling","recycling:cardboard":"yes","recycling:glass":"yes","recycling:paper":"yes","recycling:plastic":"yes","recycling:plastic_bottles":"yes","recycling_type":"container"}},"type":"Feature"},
	{"geometry":{"coordinates":[38.239098,54.05864],"type":"Point"},"properties":{"osm_id":"5867678143","tag":{"amenity":"waste_disposal"}},"type":"Feature"},
	{"geometry":{"coordinates":[38.297763,54.018226],"type":"Point"},"properties":{"osm_id":"5893987160","tag":{"amenity":"recycling","recycling:plastic_bottles":"yes","recycling_type":"container"}},"type":"Feature"},
	{"geometry":{"coordinates":[38.278739,54.028404],"type":"Point"},"properties":{"osm_id":"5894018831","tag":{"amenity":"recycling","recycling:plastic_bottles":"yes","recycling_type":"container"}},"type":"Feature"},
	{"geometry":{"coordinates":[38.278788,54.028427],"type":"Point"},"properties":{"osm_id":"5894018832","tag":{"amenity":"waste_disposal"}},"type":"Feature"},
	{"geometry":{"coordinates":[38.265033,54.035261],"type":"Point"},"properties":{"osm_id":"6021694480","tag":{"amenity":"recycling","recycling:cardboard":"yes","recycling:glass":"yes","recycling:paper":"yes","recycling:plastic":"yes","recycling:plastic_bottles":"yes","recycling_type":"container"}},"type":"Feature"},
	{"geometry":{"coordinates":[38.294491,54.017608],"type":"Point"},"properties":{"osm_id":"6470722070","tag":{"amenity":"recycling","recycling:plastic_bottles":"yes","recycling_type":"container"}},"type":"Feature"},
	{"geometry":{"coordinates":[38.289387,54.011996],"type":"Point"},"properties":{"osm_id":"6542214836","tag":{"amenity":"recycling","recycling:plastic_bottles":"yes","recycling_type":"container"}},"type":"Feature"},
	{"geometry":{"coordinates":[38.298328,54.013581],"type":"Point"},"properties":{"osm_id":"6609177502","tag":{"amenity":"recycling","recycling:plastic_bottles":"yes","recycling_type":"container"}},"type":"Feature"}
]
}
