{
"type": "FeatureCollection",
"features": [
	{"geometry":{"coordinates":[-68.067868,-16.539387],"type":"Point"},"properties":{"osm_id":"3646860938","tag":{"amenity":"waste_basket"}},"type":"Feature"},
	{"geometry":{"coordinates":[-68.068463,-16.539127],"type":"Point"},"properties":{"name":"Basurero","osm_id":"3672395949","tag":{"amenity":"waste_basket"}},"type":"Feature"},
	{"geometry":{"coordinates":[-68.068569,-16.538558],"type":"Point"},"properties":{"osm_id":"3672402325","tag":{"amenity":"waste_basket"}},"type":"Feature"},
	{"geometry":{"coordinates":[-68.068827,-16.53875],"type":"Point"},"properties":{"osm_id":"3672403829","tag":{"amenity":"waste_basket"}},"type":"Feature"},
	{"geometry":{"coordinates":[-68.067513,-16.539189],"type":"Point"},"properties":{"osm_id":"3672415988","tag":{"amenity":"waste_basket"}},"type":"Feature"},
	{"geometry":{"coordinates":[-68.069125,-16.53933],"type":"Point"},"properties":{"osm_id":"4163553240","tag":{"amenity":"waste_disposal"}},"type":"Feature"},
	{"geometry":{"coordinates":[-68.069084,-16.538801],"type":"Point"},"properties":{"osm_id":"4163563009","tag":{"amenity":"waste_disposal"}},"type":"Feature"},
	{"geometry":{"coordinates":[-68.066187,-16.539152],"type":"Point"},"properties":{"osm_id":"4168419598","tag":{"amenity":"waste_disposal"}},"type":"Feature"},
	{"geometry":{"coordinates":[-68.06603,-16.539299],"type":"Point"},"properties":{"osm_id":"4168419599","tag":{"amenity":"waste_disposal"}},"type":"Feature"},
	{"geometry":{"coordinates":[-68.066698,-16.538993],"type":"Point"},"properties":{"osm_id":"4168419600","tag":{"amenity":"waste_disposal"}},"type":"Feature"},
	{"geometry":{"coordinates":[-68.065854,-16.538944],"type":"Point"},"properties":{"osm_id":"4168419601","tag":{"amenity":"waste_disposal"}},"type":"Feature"},
	{"geometry":{"coordinates":[-68.067767,-16.538381],"type":"Point"},"properties":{"osm_id":"4170212100","tag":{"amenity":"waste_basket"}},"type":"Feature"},
	{"geometry":{"coordinates":[-68.068783,-16.538336],"type":"Point"},"properties":{"osm_id":"4170212102","tag":{"amenity":"waste_basket"}},"type":"Feature"},
	{"geometry":{"coordinates":[-68.068673,-16.538457],"type":"Point"},"properties":{"osm_id":"4170212104","tag":{"amenity":"waste_basket"}},"type":"Feature"},
	{"geometry":{"coordinates":[-68.107111,-16.490687],"type":"Point"},"properties":{"osm_id":"4249903193","tag":{"amenity":"waste_basket"}},"type":"Feature"},
	{"geometry":{"coordinates":[-68.107252,-16.490783],"type":"Point"},"properties":{"osm_id":"4249903230","tag":{"amenity":"waste_basket"}},"type":"Feature"},
	{"geometry":{"coordinates":[-68.105737,-16.489231],"type":"Point"},"properties":{"osm_id":"4609562889","tag":{"amenity":"waste_disposal","operator":"GAMLP"}},"type":"Feature"},
	{"geometry":{"coordinates":[-68.10589,-16.527802],"type":"Point"},"properties":{"name":"Botellas Pett","osm_id":"4668256089","tag":{"amenity":"recycling"}},"type":"Feature"},
	{"geometry":{"coordinates":[-68.107198,-16.490732],"type":"Point"},"properties":{"osm_id":"4677299953","tag":{"amenity":"waste_disposal"}},"type":"Feature"},
	{"geometry":{"coordinates":[-68.10533,-16.531008],"type":"Point"},"properties":{"osm_id":"4826316721","tag":{"amenity":"waste_disposal","operator":"Contenedor de basura"}},"type":"Feature"},
	{"geometry":{"coordinates":[-68.104974,-16.491092],"type":"Point"},"properties":{"osm_id":"4837011065","tag":{"amenity":"waste_disposal"}},"type":"Feature"},
	{"geometry":{"coordinates":[-68.066007,-16.542103],"type":"Point"},"properties":{"osm_id":"5049837022","tag":{"amenity":"recycling","location":"overground","operator":"GAMLP","recycling_type":"container"}},"type":"Feature"},
	{"geometry":{"coordinates":[-68.068172,-16.54044],"type":"Point"},"properties":{"osm_id":"5049839421","tag":{"amenity":"recycling","location":"overground","operator":"GAMLP","recycling_type":"container"}},"type":"Feature"},
	{"geometry":{"coordinates":[-68.106547,-16.527843],"type":"Point"},"properties":{"osm_id":"5058259321","tag":{"amenity":"waste_disposal","operator":"GAMLP"}},"type":"Feature"},
	{"geometry":{"coordinates":[-68.104921,-16.528677],"type":"Point"},"properties":{"osm_id":"5058259322","tag":{"amenity":"waste_disposal","operator":"GAMLP"}},"type":"Feature"},
	{"geometry":{"coordinates":[-68.099403,-16.531902],"type":"Point"},"properties":{"osm_id":"5058262133","tag":{"amenity":"waste_disposal","operator":"GAMLP"}},"type":"Feature"},
	{"geometry":{"coordinates":[-68.090307,-16.545075],"type":"Point"},"properties":{"osm_id":"5058267721","tag":{"amenity":"waste_disposal","operator":"GAMLP"}},"type":"Feature"},
	{"geometry":{"coordinates":[-68.086392,-16.544108],"type":"Point"},"properties":{"osm_id":"5058269721","tag":{"amenity":"waste_disposal","operator":"GAMLP"}},"type":"Feature"},
	{"geometry":{"coordinates":[-68.082919,-16.544243],"type":"Point"},"properties":{"osm_id":"5058270121","tag":{"amenity":"waste_disposal","operator":"GAMLP"}},"type":"Feature"},
	{"geometry":{"coordinates":[-68.06726,-16.544723],"type":"Point"},"properties":{"osm_id":"5058283623","tag":{"amenity":"waste_disposal","operator":"GAMLP"}},"type":"Feature"},
	{"geometry":{"coordinates":[-68.064148,-16.545592],"type":"Point"},"properties":{"osm_id":"5058288821","tag":{"amenity":"waste_disposal","operator":"GAMLP"}},"type":"Feature"},
	{"geometry":{"coordinates":[-68.108341,-16.526855],"type":"Point"},"properties":{"osm_id":"5075237222","tag":{"amenity":"waste_disposal","operator":"GAMLP"}},"type":"Feature"},
	{"geometry":{"coordinates":[-68.069912,-16.545354],"type":"Point"},"properties":{"osm_id":"5075237223","tag":{"amenity":"waste_disposal","operator":"GAMLP"}},"type":"Feature"},
	{"geometry":{"coordinates":[-68.080836,-16.545896],"type":"Point"},"properties":{"osm_id":"5075237621","tag":{"amenity":"waste_disposal","operator":"GAMLP"}},"type":"Feature"},
	{"geometry":{"coordinates":[-68.067089,-16.540791],"type":"Point"},"properties":{"osm_id":"5075316322","tag":{"amenity":"waste_disposal","operator":"GAMLP"}},"type":"Feature"},
	{"geometry":{"coordinates":[-68.06709,-16.539555],"type":"Point"},"properties":{"osm_id":"5075316323","tag":{"amenity":"waste_disposal","operator":"GAMLP"}},"type":"Feature"},
	{"geometry":{"coordinates":[-68.066033,-16.540468],"type":"Point"},"properties":{"osm_id":"5075334422","tag":{"amenity":"waste_disposal","operator":"GAMLP"}},"type":"Feature"},
	{"geometry":{"coordinates":[-68.065098,-16.539455],"type":"Point"},"properties":{"osm_id":"5075362321","tag":{"amenity":"waste_disposal","operator":"GAMLP"}},"type":"Feature"},
	{"geometry":{"coordinates":[-68.062929,-16.539333],"type":"Point"},"properties":{"osm_id":"5075400522","tag":{"amenity":"waste_disposal","operator":"GAMLP"}},"type":"Feature"},
	{"geometry":{"coordinates":[-68.103268,-16.529398],"type":"Point"},"properties":{"osm_id":"5098200321","tag":{"amenity":"waste_disposal","operator":"GAMLP"}},"type":"Feature"},
	{"geometry":{"coordinates":[-68.071039,-16.539463],"type":"Point"},"properties":{"osm_id":"5098345024","tag":{"amenity":"waste_disposal","operator":"GAMLP"}},"type":"Feature"},
	{"geometry":{"coordinates":[-68.073186,-16.539701],"type":"Point"},"properties":{"osm_id":"5098345622","tag":{"amenity":"waste_disposal","operator":"GAMLP"}},"type":"Feature"},
	{"geometry":{"coordinates":[-68.07796,-16.539083],"type":"Point"},"properties":{"osm_id":"5098367424","tag":{"amenity":"waste_disposal","operator":"GAMLP"}},"type":"Feature"},
	{"geometry":{"coordinates":[-68.081146,-16.538714],"type":"Point"},"properties":{"osm_id":"5098367426","tag":{"amenity":"waste_disposal","operator":"GAMLP"}},"type":"Feature"},
	{"geometry":{"coordinates":[-68.07693,-16.539988],"type":"Point"},"properties":{"osm_id":"5098391921","tag":{"amenity":"waste_disposal","operator":"GAMLP"}},"type":"Feature"},
	{"geometry":{"coordinates":[-68.085936,-16.539132],"type":"Point"},"properties":{"osm_id":"5098407726","tag":{"amenity":"waste_disposal","operator":"GAMLP"}},"type":"Feature"},
	{"geometry":{"coordinates":[-68.066083,-16.540531],"type":"Point"},"properties":{"osm_id":"5109793521","tag":{"amenity":"waste_disposal","operator":"GAMLP"}},"type":"Feature"},
	{"geometry":{"coordinates":[-68.066109,-16.54055],"type":"Point"},"properties":{"osm_id":"5109896422","tag":{"amenity":"waste_disposal","operator":"GAMLP"}},"type":"Feature"},
	{"geometry":{"coordinates":[-68.08814,-16.530442],"type":"Point"},"properties":{"osm_id":"5124402425","tag":{"amenity":"waste_disposal","backrest":"yes"}},"type":"Feature"},
	{"geometry":{"coordinates":[-68.061768,-16.51672],"type":"Point"},"properties":{"osm_id":"5124668224","tag":{"amenity":"waste_disposal"}},"type":"Feature"},
	{"geometry":{"coordinates":[-68.064408,-16.517323],"type":"Point"},"properties":{"osm_id":"5136807743","tag":{"amenity":"waste_disposal","collection_times":"14:30"}},"type":"Feature"},
	{"geometry":{"coordinates":[-68.066557,-16.518524],"type":"Point"},"properties":{"osm_id":"5136807744","tag":{"amenity":"waste_disposal"}},"type":"Feature"},
	{"geometry":{"coordinates":[-68.065857,-16.516761],"type":"Point"},"properties":{"osm_id":"5136807745","tag":{"amenity":"waste_disposal"}},"type":"Feature"},
	{"geometry":{"coordinates":[-68.062437,-16.518305],"type":"Point"},"properties":{"osm_id":"5136807746","tag":{"amenity":"waste_disposal"}},"type":"Feature"},
	{"geometry":{"coordinates":[-68.082375,-16.504262],"type":"Point"},"properties":{"osm_id":"5149806405","tag":{"amenity":"waste_disposal"}},"type":"Feature"},
	{"geometry":{"coordinates":[-68.069799,-16.540368],"type":"Point"},"properties":{"osm_id":"5173156621","tag":{"amenity":"waste_disposal","operator":"GAMLP"}},"type":"Feature"},
	{"geometry":{"coordinates":[-68.114898,-16.493012],"type":"Point"},"properties":{"osm_id":"5203017524","tag":{"amenity":"waste_disposal"}},"type":"Feature"},
	{"geometry":{"coordinates":[-68.073914,-16.545164],"type":"Point"},"properties":{"osm_id":"5221614821","tag":{"amenity":"waste_disposal","operator":"GAMLP"}},"type":"Feature"},
	{"geometry":{"coordinates":[-68.072251,-16.545207],"type":"Point"},"properties":{"osm_id":"5221615021","tag":{"amenity":"waste_disposal","operator":"GAMLP"}},"type":"Feature"},
	{"geometry":{"coordinates":[-68.107907,-16.520266],"type":"Point"},"properties":{"osm_id":"5222159521","tag":{"amenity":"waste_disposal","operator":"GAMLP"}},"type":"Feature"},
	{"geometry":{"coordinates":[-68.113479,-16.519347],"type":"Point"},"properties":{"osm_id":"5233415221","tag":{"amenity":"waste_disposal","operator":"GAMLP"}},"type":"Feature"},
	{"geometry":{"coordinates":[-68.111995,-16.520513],"type":"Point"},"properties":{"osm_id":"5233419621","tag":{"amenity":"waste_disposal","operator":"GAMLP"}},"type":"Feature"},
	{"geometry":{"coordinates":[-68.104827,-16.522461],"type":"Point"},"properties":{"osm_id":"5256610121","tag":{"amenity":"waste_disposal","operator":"GAMLP"}},"type":"Feature"},
	{"geometry":{"coordinates":[-68.086212,-16.539848],"type":"Point"},"properties":{"osm_id":"5281377824","tag":{"amenity":"waste_disposal"}},"type":"Feature"},
	{"geometry":{"coordinates":[-68.105775,-16.510699],"type":"Point"},"properties":{"osm_id":"5310226862","tag":{"amenity":"waste_disposal"}},"type":"Feature"},
	{"geometry":{"coordinates":[-68.066231,-16.539222],"type":"Point"},"properties":{"name":"basurero","osm_id":"5417447533","tag":{"amenity":"waste_disposal"}},"type":"Feature"},
	{"geometry":{"coordinates":[-68.1091,-16.49577],"type":"Point"},"properties":{"osm_id":"5481665823","tag":{"amenity":"waste_disposal"}},"type":"Feature"},
	{"geometry":{"coordinates":[-68.109925,-16.496247],"type":"Point"},"properties":{"osm_id":"5481665929","tag":{"amenity":"waste_disposal"}},"type":"Feature"},
	{"geometry":{"coordinates":[-68.107968,-16.496568],"type":"Point"},"properties":{"osm_id":"5481665930","tag":{"amenity":"waste_disposal"}},"type":"Feature"},
	{"geometry":{"coordinates":[-68.107554,-16.495021],"type":"Point"},"properties":{"osm_id":"5481665931","tag":{"amenity":"waste_disposal"}},"type":"Feature"},
	{"geometry":{"coordinates":[-68.108043,-16.520272],"type":"Point"},"properties":{"osm_id":"5481665939","tag":{"amenity":"waste_disposal"}},"type":"Feature"},
	{"geometry":{"coordinates":[-68.107518,-16.495009],"type":"Point"},"properties":{"osm_id":"5481666024","tag":{"amenity":"waste_disposal"}},"type":"Feature"},
	{"geometry":{"coordinates":[-68.108594,-16.495105],"type":"Point"},"properties":{"osm_id":"5481666222","tag":{"amenity":"waste_disposal"}},"type":"Feature"},
	{"geometry":{"coordinates":[-68.099704,-16.524514],"type":"Point"},"properties":{"osm_id":"5481666521","tag":{"amenity":"waste_disposal"}},"type":"Feature"},
	{"geometry":{"coordinates":[-68.10471,-16.520336],"type":"Point"},"properties":{"osm_id":"5497694524","tag":{"amenity":"waste_disposal"}},"type":"Feature"},
	{"geometry":{"coordinates":[-68.114216,-16.509094],"type":"Point"},"properties":{"osm_id":"5497694725","tag":{"amenity":"recycling"}},"type":"Feature"},
	{"geometry":{"coordinates":[-68.088886,-16.538738],"type":"Point"},"properties":{"osm_id":"5502216024","tag":{"amenity":"waste_disposal","operator":"GAMLP"}},"type":"Feature"},
	{"geometry":{"coordinates":[-68.065524,-16.541739],"type":"Point"},"properties":{"osm_id":"5615370621","tag":{"amenity":"waste_disposal","operator":"Maribel Chambi"}},"type":"Feature"},
	{"geometry":{"coordinates":[-68.063525,-16.54203],"type":"Point"},"properties":{"osm_id":"5616447536","tag":{"amenity":"waste_disposal","operator":"La Paz Limpia"}},"type":"Feature"},
	{"geometry":{"coordinates":[-68.083052,-16.538764],"type":"Point"},"properties":{"osm_id":"5625572322","tag":{"amenity":"waste_disposal","operator":"GAMLP"}},"type":"Feature"},
	{"geometry":{"coordinates":[-68.081478,-16.538206],"type":"Point"},"properties":{"osm_id":"5625582621","tag":{"amenity":"waste_disposal","operator":"GAMLP"}},"type":"Feature"},
	{"geometry":{"coordinates":[-68.109291,-16.521429],"type":"Point"},"properties":{"osm_id":"5631126834","tag":{"amenity":"waste_disposal","operator":"GAMLP"}},"type":"Feature"},
	{"geometry":{"coordinates":[-68.077844,-16.539444],"type":"Point"},"properties":{"osm_id":"5650165927","tag":{"amenity":"waste_disposal"}},"type":"Feature"},
	{"geometry":{"coordinates":[-68.077645,-16.539191],"type":"Point"},"properties":{"osm_id":"5650176621","tag":{"amenity":"waste_disposal"}},"type":"Feature"},
	{"geometry":{"coordinates":[-68.093904,-16.507341],"type":"Point"},"properties":{"osm_id":"5664175122","tag":{"amenity":"waste_disposal","collection_times":"lunes sabado jueves"}},"type":"Feature"},
	{"geometry":{"coordinates":[-68.109135,-16.520201],"type":"Point"},"properties":{"osm_id":"5745852029","tag":{"amenity":"waste_disposal","operator":"GAMLP"}},"type":"Feature"},
	{"geometry":{"coordinates":[-68.106625,-16.520283],"type":"Point"},"properties":{"osm_id":"5745852226","tag":{"amenity":"waste_disposal","operator":"GAMLP"}},"type":"Feature"},
	{"geometry":{"coordinates":[-68.113641,-16.493365],"type":"Point"},"properties":{"osm_id":"6178361685","tag":{"amenity":"waste_disposal"}},"type":"Feature"},
	{"geometry":{"coordinates":[-68.114863,-16.493056],"type":"Point"},"properties":{"osm_id":"6178361785","tag":{"amenity":"waste_disposal"}},"type":"Feature"},
	{"geometry":{"coordinates":[-68.083378,-16.541367],"type":"Point"},"properties":{"osm_id":"6199735785","tag":{"amenity":"waste_disposal","operator":"Ciudad de La Paz"}},"type":"Feature"},
	{"geometry":{"coordinates":[-68.095803,-16.54159],"type":"Point"},"properties":{"osm_id":"6346410619","tag":{"amenity":"waste_disposal"}},"type":"Feature"},
	{"geometry":{"coordinates":[-68.05344,-16.540227],"type":"Point"},"properties":{"osm_id":"6561006001","tag":{"amenity":"recycling","operator":"GAMLP","recycling_type":"container"}},"type":"Feature"},
	{"geometry":{"coordinates":[-68.053653,-16.541479],"type":"Point"},"properties":{"osm_id":"6561006058","tag":{"amenity":"recycling","recycling_type":"container"}},"type":"Feature"},
	{"geometry":{"coordinates":[-68.040118,-16.530203],"type":"Point"},"properties":{"osm_id":"7412387131","tag":{"amenity":"waste_disposal"}},"type":"Feature"}
]
}
