{
"type": "FeatureCollection",
"features": [
	{"geometry":{"coordinates":[41.802115,48.354537],"type":"Point"},"properties":{"osm_id":"2222968101","tag":{"amenity":"waste_disposal"}},"type":"Feature"},
	{"geometry":{"coordinates":[41.801925,48.355378],"type":"Point"},"properties":{"osm_id":"2222968137","ref":"38","tag":{"amenity":"waste_disposal"}},"type":"Feature"},
	{"geometry":{"coordinates":[41.803501,48.353628],"type":"Point"},"properties":{"osm_id":"2223037573","tag":{"amenity":"waste_disposal"}},"type":"Feature"},
	{"geometry":{"coordinates":[41.802964,48.355286],"type":"Point"},"properties":{"highway":"bus_stop","osm_id":"2223057752","tag":{"amenity":"waste_basket","public_transport":"platform","shelter":"yes"}},"type":"Feature"},
	{"geometry":{"coordinates":[41.803953,48.353454],"type":"Point"},"properties":{"osm_id":"2223411227","tag":{"amenity":"waste_disposal"}},"type":"Feature"},
	{"geometry":{"coordinates":[41.76926,48.358729],"type":"Point"},"properties":{"osm_id":"2223411230","tag":{"amenity":"waste_basket"}},"type":"Feature"},
	{"geometry":{"coordinates":[41.780574,48.359861],"type":"Point"},"properties":{"osm_id":"2223411231","tag":{"amenity":"waste_basket"}},"type":"Feature"},
	{"geometry":{"coordinates":[41.82544,48.35303],"type":"Point"},"properties":{"highway":"bus_stop","name":"\u00d0\u00a3\u00d0\u00b7\u00d0\u00b5\u00d0\u00bb \u00d1\u0081\u00d0\u00b2\u00d1\u008f\u00d0\u00b7\u00d0\u00b8","osm_id":"2223478871","tag":{"amenity":"waste_basket","bench":"yes","public_transport":"platform","shelter":"yes"}},"type":"Feature"},
	{"geometry":{"coordinates":[41.815377,48.353169],"type":"Point"},"properties":{"osm_id":"2223478876","ref":"15","tag":{"amenity":"waste_disposal"}},"type":"Feature"},
	{"geometry":{"coordinates":[41.822259,48.353204],"type":"Point"},"properties":{"osm_id":"2223478878","tag":{"amenity":"waste_disposal"}},"type":"Feature"},
	{"geometry":{"coordinates":[41.818004,48.353318],"type":"Point"},"properties":{"osm_id":"2223478884","tag":{"amenity":"waste_disposal"}},"type":"Feature"},
	{"geometry":{"coordinates":[41.816732,48.353319],"type":"Point"},"properties":{"osm_id":"2223478885","tag":{"amenity":"waste_disposal"}},"type":"Feature"},
	{"geometry":{"coordinates":[41.808378,48.353347],"type":"Point"},"properties":{"osm_id":"2223478887","ref":"11","tag":{"amenity":"waste_disposal"}},"type":"Feature"},
	{"geometry":{"coordinates":[41.809371,48.353458],"type":"Point"},"properties":{"osm_id":"2223478891","tag":{"amenity":"waste_disposal"}},"type":"Feature"},
	{"geometry":{"coordinates":[41.812063,48.353219],"type":"Point"},"properties":{"osm_id":"2323143480","ref":"13","tag":{"amenity":"waste_disposal"}},"type":"Feature"},
	{"geometry":{"coordinates":[41.806022,48.353427],"type":"Point"},"properties":{"osm_id":"2323143481","ref":"9","tag":{"amenity":"waste_disposal"}},"type":"Feature"},
	{"geometry":{"coordinates":[41.829375,48.352949],"type":"Point"},"properties":{"osm_id":"2323377440","tag":{"amenity":"waste_basket"}},"type":"Feature"},
	{"geometry":{"coordinates":[41.829063,48.352952],"type":"Point"},"properties":{"osm_id":"2323377441","tag":{"amenity":"waste_basket"}},"type":"Feature"},
	{"geometry":{"coordinates":[41.827826,48.352981],"type":"Point"},"properties":{"osm_id":"2323377444","tag":{"amenity":"waste_basket"}},"type":"Feature"},
	{"geometry":{"coordinates":[41.827333,48.352982],"type":"Point"},"properties":{"osm_id":"2323377446","tag":{"amenity":"waste_basket"}},"type":"Feature"},
	{"geometry":{"coordinates":[41.826092,48.353968],"type":"Point"},"properties":{"osm_id":"2323377465","tag":{"amenity":"waste_disposal"}},"type":"Feature"},
	{"geometry":{"coordinates":[41.823191,48.354608],"type":"Point"},"properties":{"osm_id":"2323377475","ref":"24","tag":{"amenity":"waste_disposal"}},"type":"Feature"},
	{"geometry":{"coordinates":[41.823217,48.354608],"type":"Point"},"properties":{"osm_id":"2323377478","ref":"22","tag":{"amenity":"waste_disposal"}},"type":"Feature"},
	{"geometry":{"coordinates":[41.825323,48.354608],"type":"Point"},"properties":{"osm_id":"2323377481","ref":"23","tag":{"amenity":"waste_basket"}},"type":"Feature"},
	{"geometry":{"coordinates":[41.821744,48.354636],"type":"Point"},"properties":{"osm_id":"2323377485","ref":"25","tag":{"amenity":"waste_disposal"}},"type":"Feature"},
	{"geometry":{"coordinates":[41.818766,48.35472],"type":"Point"},"properties":{"osm_id":"2323377517","ref":"27","tag":{"amenity":"waste_disposal"}},"type":"Feature"},
	{"geometry":{"coordinates":[41.824899,48.354732],"type":"Point"},"properties":{"highway":"bus_stop","osm_id":"2323377528","tag":{"amenity":"waste_basket","public_transport":"platform","shelter":"yes"}},"type":"Feature"},
	{"geometry":{"coordinates":[41.815044,48.354805],"type":"Point"},"properties":{"osm_id":"2323377542","ref":"29","tag":{"amenity":"waste_disposal"}},"type":"Feature"},
	{"geometry":{"coordinates":[41.819764,48.354834],"type":"Point"},"properties":{"osm_id":"2323377562","ref":"26","tag":{"amenity":"waste_disposal"}},"type":"Feature"},
	{"geometry":{"coordinates":[41.813283,48.354853],"type":"Point"},"properties":{"osm_id":"2323377564","tag":{"amenity":"waste_disposal"}},"type":"Feature"},
	{"geometry":{"coordinates":[41.816556,48.354879],"type":"Point"},"properties":{"osm_id":"2323377579","ref":"28","tag":{"amenity":"waste_disposal"}},"type":"Feature"},
	{"geometry":{"coordinates":[41.81594,48.3549],"type":"Point"},"properties":{"osm_id":"2323377582","tag":{"amenity":"waste_basket"}},"type":"Feature"},
	{"geometry":{"coordinates":[41.813775,48.354975],"type":"Point"},"properties":{"osm_id":"2323377587","ref":"30","tag":{"amenity":"waste_disposal"}},"type":"Feature"},
	{"geometry":{"coordinates":[41.812534,48.354987],"type":"Point"},"properties":{"osm_id":"2323377590","ref":"31","tag":{"amenity":"waste_disposal"}},"type":"Feature"},
	{"geometry":{"coordinates":[41.810946,48.355011],"type":"Point"},"properties":{"osm_id":"2323377608","ref":"32","tag":{"amenity":"waste_disposal"}},"type":"Feature"},
	{"geometry":{"coordinates":[41.80606,48.355012],"type":"Point"},"properties":{"osm_id":"2323377614","ref":"34","tag":{"amenity":"waste_disposal"}},"type":"Feature"},
	{"geometry":{"coordinates":[41.808943,48.355028],"type":"Point"},"properties":{"osm_id":"2323377622","tag":{"amenity":"waste_basket"}},"type":"Feature"},
	{"geometry":{"coordinates":[41.805062,48.355055],"type":"Point"},"properties":{"osm_id":"2323377636","ref":"35","tag":{"amenity":"waste_disposal"}},"type":"Feature"},
	{"geometry":{"coordinates":[41.804231,48.355104],"type":"Point"},"properties":{"osm_id":"2323377647","ref":"36","tag":{"amenity":"waste_disposal"}},"type":"Feature"},
	{"geometry":{"coordinates":[41.802909,48.35528],"type":"Point"},"properties":{"osm_id":"2323377667","ref":"37","tag":{"amenity":"waste_disposal"}},"type":"Feature"},
	{"geometry":{"coordinates":[41.825532,48.350581],"type":"Point"},"properties":{"highway":"bus_stop","name":"\u00d0\u00a0\u00d1\u008b\u00d0\u00bd\u00d0\u00be\u00d0\u00ba","osm_id":"2331744414","tag":{"amenity":"waste_basket","public_transport":"platform","shelter":"yes"}},"type":"Feature"},
	{"geometry":{"coordinates":[41.825403,48.351589],"type":"Point"},"properties":{"osm_id":"2333090559","tag":{"amenity":"waste_basket"}},"type":"Feature"},
	{"geometry":{"coordinates":[41.825452,48.351589],"type":"Point"},"properties":{"osm_id":"2333090560","tag":{"amenity":"waste_basket"}},"type":"Feature"},
	{"geometry":{"coordinates":[41.825511,48.351632],"type":"Point"},"properties":{"osm_id":"2333090561","tag":{"amenity":"waste_basket"}},"type":"Feature"},
	{"geometry":{"coordinates":[41.822285,48.35326],"type":"Point"},"properties":{"osm_id":"2333090569","tag":{"amenity":"waste_basket"}},"type":"Feature"},
	{"geometry":{"coordinates":[41.822329,48.353261],"type":"Point"},"properties":{"osm_id":"2333090570","tag":{"amenity":"waste_basket"}},"type":"Feature"},
	{"geometry":{"coordinates":[41.789032,48.358262],"type":"Point"},"properties":{"osm_id":"2831548890","tag":{"amenity":"waste_basket"}},"type":"Feature"},
	{"geometry":{"coordinates":[41.781477,48.360119],"type":"Point"},"properties":{"osm_id":"2831549109","tag":{"amenity":"waste_basket"}},"type":"Feature"},
	{"geometry":{"coordinates":[41.782489,48.36015],"type":"Point"},"properties":{"osm_id":"2831549110","tag":{"amenity":"waste_basket"}},"type":"Feature"},
	{"geometry":{"coordinates":[41.781759,48.360195],"type":"Point"},"properties":{"osm_id":"2831549112","tag":{"amenity":"waste_basket"}},"type":"Feature"},
	{"geometry":{"coordinates":[41.790681,48.35841],"type":"Point"},"properties":{"osm_id":"2844730797","tag":{"amenity":"waste_basket"}},"type":"Feature"},
	{"geometry":{"coordinates":[41.790585,48.358427],"type":"Point"},"properties":{"osm_id":"2844730800","tag":{"amenity":"waste_basket"}},"type":"Feature"}
]
}
