{
"type": "FeatureCollection",
"lastupdate": "2020-08-02T00:00:00Z",
"features": [
	{"geometry":{"coordinates":[19.572234,47.019595],"type":"Point"},"properties":{"osm_id":"3432048482","tag":{"amenity":"recycling","url":"http://turistautak.hu/poi.php?id=87083"}},"type":"Feature"},
	{"geometry":{"coordinates":[19.550846,47.02259],"type":"Point"},"properties":{"osm_id":"3432048492","tag":{"amenity":"recycling","url":"http://turistautak.hu/poi.php?id=87084"}},"type":"Feature"},
	{"geometry":{"coordinates":[19.561433,47.025833],"type":"Point"},"properties":{"osm_id":"3432048506","tag":{"addr:street":"Lajosmizse","amenity":"recycling","url":"http://turistautak.hu/poi.php?id=75026"}},"type":"Feature"},
	{"geometry":{"coordinates":[19.56736,47.028043],"type":"Point"},"properties":{"osm_id":"3432048517","tag":{"amenity":"recycling","url":"http://turistautak.hu/poi.php?id=87124"}},"type":"Feature"},
	{"geometry":{"coordinates":[19.54365,47.02855],"type":"Point"},"properties":{"osm_id":"3432048518","tag":{"addr:street":"Baross t\u00e9r","amenity":"recycling","url":"http://turistautak.hu/poi.php?id=71295"}},"type":"Feature"},
	{"geometry":{"coordinates":[19.55699,47.02909],"type":"Point"},"properties":{"osm_id":"3432048519","tag":{"addr:street":"M\u00f3ra Ferenc utca","amenity":"recycling","url":"http://turistautak.hu/poi.php?id=79991"}},"type":"Feature"},
	{"geometry":{"coordinates":[19.552208,47.029868],"type":"Point"},"properties":{"osm_id":"3432048520","tag":{"addr:city":"Lajosmizse","addr:housenumber":"77","addr:postcode":"6050","addr:street":"D\u00f3zsa Gy\u00f6rgy \u00fat","amenity":"recycling","url":"http://turistautak.hu/poi.php?id=4062"}},"type":"Feature"},
	{"geometry":{"coordinates":[19.550007,47.032719],"type":"Point"},"properties":{"osm_id":"3432048528","tag":{"amenity":"recycling","url":"http://turistautak.hu/poi.php?id=126392"}},"type":"Feature"}
]
}
