{
"type": "FeatureCollection",
"features": [
	{"geometry":{"coordinates":[9.241729,54.104877],"type":"Point"},"properties":{"osm_id":"1864280553","tag":{"amenity":"recycling","operator":"Abfallwirtschaft Dithmarschen","recycling:glass_bottles":"yes","recycling_type":"container"}},"type":"Feature"},
	{"geometry":{"coordinates":[9.307612,54.062315],"type":"Point"},"properties":{"osm_id":"2406952950","tag":{"amenity":"recycling","operator":"Abfallwirtschaft Dithmarschen","recycling:glass_bottles":"yes","recycling_type":"container"}},"type":"Feature"},
	{"geometry":{"coordinates":[9.241787,54.104864],"type":"Point"},"properties":{"osm_id":"3532349947","tag":{"amenity":"recycling","operator":"Deutsches Rotes Kreuz","recycling:clothes":"yes","recycling_type":"container"}},"type":"Feature"},
	{"geometry":{"coordinates":[9.241758,54.10487],"type":"Point"},"properties":{"osm_id":"3532349948","tag":{"amenity":"recycling","operator":"hoelp","recycling:clothes":"yes","recycling_type":"container","website":"https://hoelp.de/"}},"type":"Feature"},
	{"geometry":{"coordinates":[9.307625,54.062347],"type":"Point"},"properties":{"osm_id":"3734690812","tag":{"amenity":"recycling","operator":"Deutsches Rotes Kreuz","recycling:clothes":"yes","recycling_type":"container"}},"type":"Feature"},
	{"geometry":{"coordinates":[9.299314,54.086276],"type":"Point"},"properties":{"osm_id":"3734891710","tag":{"amenity":"recycling","operator":"Abfallwirtschaft Dithmarschen","recycling:glass_bottles":"yes","recycling:small_appliances":"yes","recycling_type":"container"}},"type":"Feature"},
	{"geometry":{"coordinates":[9.299333,54.086319],"type":"Point"},"properties":{"osm_id":"3734891712","tag":{"amenity":"recycling","operator":"Deutsches Rotes Kreuz","recycling:clothes":"yes","recycling_type":"container"}},"type":"Feature"},
	{"geometry":{"coordinates":[9.299301,54.086332],"type":"Point"},"properties":{"osm_id":"3734891713","tag":{"amenity":"recycling","operator":"hoelp","recycling:clothes":"yes","recycling_type":"container","website":"https://hoelp.de/"}},"type":"Feature"}
]
}
