{
"type": "FeatureCollection",
"features": [
	{"geometry":{"coordinates":[9.259638,54.007736],"type":"Point"},"properties":{"osm_id":"2917260287","tag":{"amenity":"recycling","operator":"Abfallwirtschaft Dithmarschen","recycling:electrical_appliances":"yes","recycling:glass_bottles":"yes","recycling:paper":"no","recycling_type":"container"}},"type":"Feature"},
	{"geometry":{"coordinates":[9.259702,54.007698],"type":"Point"},"properties":{"osm_id":"3541853575","tag":{"amenity":"recycling","operator":"Textil Recycling K&A Wenkhaus","recycling:clothes":"yes","recycling_type":"container"}},"type":"Feature"},
	{"geometry":{"coordinates":[9.262777,53.998604],"type":"Point"},"properties":{"osm_id":"3541854717","tag":{"amenity":"recycling","operator":"hoelp","recycling:clothes":"yes","recycling_type":"container","website":"https://hoelp.de/"}},"type":"Feature"},
	{"geometry":{"coordinates":[9.262057,53.999251],"type":"Point"},"properties":{"osm_id":"3541854718","tag":{"amenity":"recycling","operator":"Tex Group","recycling:clothes":"yes","recycling_type":"container"}},"type":"Feature"},
	{"geometry":{"coordinates":[9.260587,53.999368],"type":"Point"},"properties":{"osm_id":"5789587889","tag":{"amenity":"recycling","operator":"Humana","recycling:clothes":"yes","recycling_type":"container","website":"https://www.humana-kleidersammlung.de/"}},"type":"Feature"}
]
}
