{
"type": "FeatureCollection",
"features": [
	{"geometry":{"coordinates":[9.254684,52.918472],"type":"Point"},"properties":{"osm_id":"1262191234","tag":{"amenity":"recycling","recycling:cans":"no","recycling:clothes":"yes","recycling:glass":"yes","recycling:paper":"no","recycling:plastic":"no","recycling_type":"container"}},"type":"Feature"},
	{"geometry":{"coordinates":[9.246929,52.926053],"type":"Point"},"properties":{"osm_id":"1262191245","tag":{"amenity":"recycling","recycling:clothes":"yes","recycling:glass_bottles":"yes","recycling_type":"container"}},"type":"Feature"},
	{"geometry":{"coordinates":[9.254212,52.914769],"type":"Point"},"properties":{"osm_id":"1262191967","tag":{"amenity":"recycling","location":"overground","recycling:clothes":"yes","recycling:glass_bottles":"yes","recycling_type":"container"}},"type":"Feature"},
	{"geometry":{"coordinates":[9.232786,52.942233],"type":"Point"},"properties":{"osm_id":"1262192692","tag":{"amenity":"recycling","location":"overground","recycling_type":"container"}},"type":"Feature"},
	{"geometry":{"coordinates":[9.255411,52.943486],"type":"Point"},"properties":{"osm_id":"1478901152","tag":{"amenity":"waste_basket"}},"type":"Feature"},
	{"geometry":{"coordinates":[9.250745,52.92172],"type":"Point"},"properties":{"osm_id":"3716707264","tag":{"amenity":"recycling","recycling:glass_bottles":"yes","recycling_type":"container"}},"type":"Feature"},
	{"geometry":{"coordinates":[9.236373,52.922711],"type":"Point"},"properties":{"osm_id":"3716707265","tag":{"amenity":"recycling","recycling:glass":"yes","recycling_type":"container"}},"type":"Feature"},
	{"geometry":{"coordinates":[9.235441,52.941611],"type":"Point"},"properties":{"osm_id":"4077694483","tag":{"amenity":"waste_basket"}},"type":"Feature"},
	{"geometry":{"coordinates":[9.234106,52.942165],"type":"Point"},"properties":{"osm_id":"4077694485","tag":{"amenity":"waste_basket"}},"type":"Feature"},
	{"geometry":{"coordinates":[9.230304,52.943191],"type":"Point"},"properties":{"osm_id":"4077694488","tag":{"amenity":"waste_basket"}},"type":"Feature"},
	{"geometry":{"coordinates":[9.259093,52.923896],"type":"Point"},"properties":{"osm_id":"4575689852","tag":{"amenity":"recycling","recycling:cans":"no","recycling:clothes":"yes","recycling:glass":"yes","recycling:paper":"no","recycling:plastic":"no","recycling_type":"container"}},"type":"Feature"},
	{"geometry":{"coordinates":[9.307007,52.949049],"type":"Point"},"properties":{"name":"Oelrichs Werk Kirchlinteln","osm_id":"4585119493","tag":{"addr:street":"Bahnhofstra\u00c3\u009fe","amenity":"recycling","recycling_type":"centre"}},"type":"Feature"},
	{"geometry":{"coordinates":[9.309295,52.947319],"type":"Point"},"properties":{"name":"Abfallhof","osm_id":"4585119497","tag":{"addr:housenumber":"12 B","addr:street":"Bahnhofstra\u00c3\u009fe","amenity":"recycling","email":"abfallberatung@landkreis-verden.de","opening_hours":"Tu,Th 08:00-12:00,13:00-17:00; Sa 08:00-13:00","operator":"Landkreis Verden","phone":"+49 4231 15 0","recycling:clothes":"yes","recycling:glass":"yes","recycling:glass_bottles":"yes","recycling:paper":"yes","recycling:plastic":"yes","recycling_type":"centre","website":"https://www.landkreis-verden.de/portal/seiten/abfallhoefe-901000185-20600.html"}},"type":"Feature"},
	{"geometry":{"coordinates":[9.236048,52.915319],"type":"Point"},"properties":{"osm_id":"4607786330","tag":{"amenity":"waste_basket"}},"type":"Feature"},
	{"geometry":{"coordinates":[9.23571,52.915258],"type":"Point"},"properties":{"osm_id":"4607786331","tag":{"amenity":"waste_basket"}},"type":"Feature"},
	{"geometry":{"coordinates":[9.236539,52.915339],"type":"Point"},"properties":{"osm_id":"4607786332","tag":{"amenity":"waste_basket"}},"type":"Feature"},
	{"geometry":{"coordinates":[9.238617,52.914485],"type":"Point"},"properties":{"osm_id":"4670972653","tag":{"amenity":"recycling","recycling:clothes":"yes","recycling:glass":"yes","recycling_type":"container"}},"type":"Feature"},
	{"geometry":{"coordinates":[9.248802,52.960693],"type":"Point"},"properties":{"name":"Oehlrichs","osm_id":"4696367772","tag":{"addr:city":"Verden","addr:housenumber":"2","addr:postcode":"27283","addr:street":"Waller Heerstra\u00c3\u009fe","amenity":"recycling","contact:email":"info@oehlrich-verden.de","contact:fax":"+49 4230 954598","contact:phone":"+49 4230 954590","contact:website":"http://oehlrich-verden.de","opening_hours":"-im Sommer (ab Zeitumstellung)- Montag \u00e2\u0080\u0093 Freitag:                7.00 \u00e2\u0080\u0093 18.00 Uhr Samstags:                           8.00 \u00e2\u0080\u0093 16.00 Uhr  -im Winter (ab Zeitumstellung)- Montag \u00e2\u0080\u0093 Freitag:               8.00 \u00e2\u0080\u0093 17.00 Uhr Samstags:                          8.0","operator":"Oehlrichs Handel & Transport GmbH & Co. KG","recycling:alles":"yes","recycling_type":"centre","shop":"doityourself"}},"type":"Feature"},
	{"geometry":{"coordinates":[9.259359,52.915937],"type":"Point"},"properties":{"osm_id":"4745904393","tag":{"amenity":"waste_basket"}},"type":"Feature"},
	{"geometry":{"coordinates":[9.251697,52.928345],"type":"Point"},"properties":{"osm_id":"5292633321","tag":{"amenity":"recycling","recycling:clothes":"yes","recycling_type":"container"}},"type":"Feature"},
	{"geometry":{"coordinates":[9.251677,52.928377],"type":"Point"},"properties":{"osm_id":"5292633322","tag":{"amenity":"recycling","recycling:glass":"no","recycling:glass_bottles":"yes","recycling_type":"container"}},"type":"Feature"},
	{"geometry":{"coordinates":[9.236514,52.952854],"type":"Point"},"properties":{"osm_id":"5432513187","tag":{"amenity":"recycling","recycling:clothes":"yes","recycling:shoes":"yes","recycling_type":"container"}},"type":"Feature"},
	{"geometry":{"coordinates":[9.236477,52.952863],"type":"Point"},"properties":{"osm_id":"5432513188","tag":{"amenity":"recycling","recycling:glass_bottles":"yes","recycling_type":"container"}},"type":"Feature"},
	{"geometry":{"coordinates":[9.260316,52.928773],"type":"Point"},"properties":{"osm_id":"5614086851","tag":{"amenity":"waste_basket"}},"type":"Feature"},
	{"geometry":{"coordinates":[9.259779,52.928674],"type":"Point"},"properties":{"osm_id":"5614086876","tag":{"amenity":"waste_basket"}},"type":"Feature"},
	{"geometry":{"coordinates":[9.238257,52.95689],"type":"Point"},"properties":{"osm_id":"6103944448","tag":{"amenity":"recycling","recycling:paper":"yes","recycling_type":"container"}},"type":"Feature"}
]
}
