{
"type": "FeatureCollection",
"features": [
	{"geometry":{"coordinates":[9.269135,51.13164],"type":"Point"},"properties":{"osm_id":"274775745","tag":{"amenity":"recycling","location":"overground","recycling:glass":"yes","recycling_type":"container"}},"type":"Feature"},
	{"geometry":{"coordinates":[9.278077,51.124381],"type":"Point"},"properties":{"osm_id":"274793200","tag":{"amenity":"recycling","recycling:glass":"yes"}},"type":"Feature"},
	{"geometry":{"coordinates":[9.281883,51.128467],"type":"Point"},"properties":{"osm_id":"274800390","tag":{"amenity":"recycling","recycling:clothes":"yes","recycling:glass_bottles":"yes","recycling_type":"container"}},"type":"Feature"},
	{"geometry":{"coordinates":[9.293245,51.132614],"type":"Point"},"properties":{"osm_id":"276239546","tag":{"amenity":"recycling","recycling:clothes":"yes","recycling:glass":"yes"}},"type":"Feature"},
	{"geometry":{"coordinates":[9.294159,51.134669],"type":"Point"},"properties":{"osm_id":"276239565","tag":{"amenity":"recycling","recycling:clothes":"yes","recycling:glass":"yes"}},"type":"Feature"},
	{"geometry":{"coordinates":[9.294421,51.168703],"type":"Point"},"properties":{"osm_id":"282739872","tag":{"amenity":"recycling","recycling:clothes":"yes"}},"type":"Feature"},
	{"geometry":{"coordinates":[9.294184,51.168497],"type":"Point"},"properties":{"osm_id":"282739874","tag":{"amenity":"recycling","recycling:glass":"yes"}},"type":"Feature"},
	{"geometry":{"coordinates":[9.263674,51.160924],"type":"Point"},"properties":{"osm_id":"283117255","tag":{"amenity":"recycling","recycling:clothes":"yes"}},"type":"Feature"},
	{"geometry":{"coordinates":[9.264251,51.158602],"type":"Point"},"properties":{"osm_id":"283124735","tag":{"amenity":"recycling","location":"overground","recycling:clothes":"yes","recycling:glass":"yes","recycling_type":"container"}},"type":"Feature"},
	{"geometry":{"coordinates":[9.28281,51.136713],"type":"Point"},"properties":{"osm_id":"283817236","tag":{"amenity":"recycling","mapillary":"dyJ8whKuviKqe71LJoMlfQ","recycling:clothes":"yes","recycling:glass":"yes","recycling_type":"container","survey:date":"2018-06-27"}},"type":"Feature"},
	{"geometry":{"coordinates":[9.31002,51.155987],"type":"Point"},"properties":{"osm_id":"285570603","tag":{"amenity":"recycling","recycling:clothes":"yes","recycling:glass":"yes"}},"type":"Feature"},
	{"geometry":{"coordinates":[9.22865,51.172394],"type":"Point"},"properties":{"osm_id":"291051952","tag":{"amenity":"recycling","recycling:clothes":"yes","recycling:glass":"yes"}},"type":"Feature"},
	{"geometry":{"coordinates":[9.279704,51.139239],"type":"Point"},"properties":{"osm_id":"2598868554","tag":{"amenity":"recycling","mapillary":"osVLqp6gdgUnaXS4q65OUA","recycling:glass":"yes","recycling_type":"container","survey:date":"2018-08-25"}},"type":"Feature"},
	{"geometry":{"coordinates":[9.251827,51.136881],"type":"Point"},"properties":{"osm_id":"3493966362","tag":{"amenity":"recycling","recycling:cans":"no","recycling:clothes":"yes","recycling:glass":"yes","recycling:paper":"no"}},"type":"Feature"},
	{"geometry":{"coordinates":[9.26141,51.137551],"type":"Point"},"properties":{"osm_id":"3677641535","tag":{"amenity":"waste_basket","waste":"trash"}},"type":"Feature"},
	{"geometry":{"coordinates":[9.279117,51.136714],"type":"Point"},"properties":{"osm_id":"5774642315","tag":{"access":"private","amenity":"waste_disposal"}},"type":"Feature"},
	{"geometry":{"coordinates":[9.27849,51.136758],"type":"Point"},"properties":{"osm_id":"5774642316","tag":{"access":"private","amenity":"waste_disposal"}},"type":"Feature"},
	{"geometry":{"coordinates":[9.279772,51.136757],"type":"Point"},"properties":{"osm_id":"5774642317","tag":{"access":"private","amenity":"waste_disposal"}},"type":"Feature"},
	{"geometry":{"coordinates":[9.279984,51.136341],"type":"Point"},"properties":{"osm_id":"5774642318","tag":{"access":"private","amenity":"waste_disposal"}},"type":"Feature"},
	{"geometry":{"coordinates":[9.280302,51.135469],"type":"Point"},"properties":{"osm_id":"5774642319","tag":{"access":"private","amenity":"waste_disposal"}},"type":"Feature"},
	{"geometry":{"coordinates":[9.280945,51.13616],"type":"Point"},"properties":{"osm_id":"5774642320","tag":{"access":"private","amenity":"waste_disposal"}},"type":"Feature"},
	{"geometry":{"coordinates":[9.277982,51.136378],"type":"Point"},"properties":{"osm_id":"5774642321","tag":{"access":"private","amenity":"waste_disposal"}},"type":"Feature"},
	{"geometry":{"coordinates":[9.278987,51.135632],"type":"Point"},"properties":{"osm_id":"5774642322","tag":{"access":"private","amenity":"waste_disposal"}},"type":"Feature"},
	{"geometry":{"coordinates":[9.279756,51.135975],"type":"Point"},"properties":{"osm_id":"5774642323","tag":{"access":"private","amenity":"waste_disposal"}},"type":"Feature"},
	{"geometry":{"coordinates":[9.279791,51.13628],"type":"Point"},"properties":{"osm_id":"5774642324","tag":{"access":"private","amenity":"waste_disposal"}},"type":"Feature"},
	{"geometry":{"coordinates":[9.2813,51.136846],"type":"Point"},"properties":{"osm_id":"5774642325","tag":{"access":"private","amenity":"waste_disposal"}},"type":"Feature"},
	{"geometry":{"coordinates":[9.280831,51.137269],"type":"Point"},"properties":{"osm_id":"5774642326","tag":{"access":"private","amenity":"waste_disposal"}},"type":"Feature"},
	{"geometry":{"coordinates":[9.279662,51.137752],"type":"Point"},"properties":{"osm_id":"5774642327","tag":{"access":"private","amenity":"waste_disposal"}},"type":"Feature"},
	{"geometry":{"coordinates":[9.27819,51.137748],"type":"Point"},"properties":{"osm_id":"5774642328","tag":{"access":"private","amenity":"waste_disposal"}},"type":"Feature"},
	{"geometry":{"coordinates":[9.280903,51.138606],"type":"Point"},"properties":{"osm_id":"5774642329","tag":{"access":"private","amenity":"waste_disposal"}},"type":"Feature"},
	{"geometry":{"coordinates":[9.279399,51.13837],"type":"Point"},"properties":{"osm_id":"5774642330","tag":{"access":"private","amenity":"waste_disposal"}},"type":"Feature"},
	{"geometry":{"coordinates":[9.279098,51.139287],"type":"Point"},"properties":{"osm_id":"5774642331","tag":{"access":"private","amenity":"waste_disposal"}},"type":"Feature"},
	{"geometry":{"coordinates":[9.27948,51.138993],"type":"Point"},"properties":{"osm_id":"5774642332","tag":{"access":"private","amenity":"waste_disposal"}},"type":"Feature"},
	{"geometry":{"coordinates":[9.281419,51.13894],"type":"Point"},"properties":{"osm_id":"5774642333","tag":{"access":"private","amenity":"waste_disposal"}},"type":"Feature"},
	{"geometry":{"coordinates":[9.281607,51.138508],"type":"Point"},"properties":{"osm_id":"5791648436","tag":{"amenity":"recycling","recycling:clothes":"yes","recycling_type":"container"}},"type":"Feature"},
	{"geometry":{"coordinates":[9.278683,51.136759],"type":"Point"},"properties":{"osm_id":"5791648437","tag":{"amenity":"recycling","recycling:clothes":"yes","recycling_type":"container"}},"type":"Feature"},
	{"geometry":{"coordinates":[9.27886,51.135522],"type":"Point"},"properties":{"osm_id":"5791896193","tag":{"amenity":"waste_disposal"}},"type":"Feature"},
	{"geometry":{"coordinates":[9.280346,51.135462],"type":"Point"},"properties":{"osm_id":"5791896197","tag":{"amenity":"recycling","recycling:clothes":"yes","recycling_type":"container"}},"type":"Feature"},
	{"geometry":{"coordinates":[9.275607,51.13716],"type":"Point"},"properties":{"osm_id":"5791896205","tag":{"amenity":"waste_disposal"}},"type":"Feature"},
	{"geometry":{"coordinates":[9.278158,51.137751],"type":"Point"},"properties":{"osm_id":"5810874099","tag":{"amenity":"recycling","recycling:clothes":"yes","recycling:shoes":"yes","recycling_type":"container"}},"type":"Feature"},
	{"geometry":{"coordinates":[9.269672,51.13799],"type":"Point"},"properties":{"osm_id":"5892623059","tag":{"amenity":"recycling","recycling:clothes":"yes","recycling:glass":"yes","recycling_type":"container"}},"type":"Feature"},
	{"geometry":{"coordinates":[9.280627,51.139212],"type":"Point"},"properties":{"osm_id":"5908309915","tag":{"amenity":"waste_disposal"}},"type":"Feature"},
	{"geometry":{"coordinates":[9.278684,51.138555],"type":"Point"},"properties":{"osm_id":"5914643746","tag":{"access":"private","amenity":"waste_disposal"}},"type":"Feature"},
	{"geometry":{"coordinates":[9.256317,51.132919],"type":"Point"},"properties":{"osm_id":"6166324118","tag":{"amenity":"waste_basket"}},"type":"Feature"},
	{"geometry":{"coordinates":[9.255684,51.133551],"type":"Point"},"properties":{"osm_id":"6166324119","tag":{"amenity":"waste_basket"}},"type":"Feature"},
	{"geometry":{"coordinates":[9.259475,51.128672],"type":"Point"},"properties":{"osm_id":"6167871984","tag":{"amenity":"waste_basket"}},"type":"Feature"},
	{"geometry":{"coordinates":[9.274083,51.13346],"type":"Point"},"properties":{"osm_id":"6535899592","tag":{"amenity":"waste_basket"}},"type":"Feature"},
	{"geometry":{"coordinates":[9.271876,51.130407],"type":"Point"},"properties":{"osm_id":"6952726805","tag":{"amenity":"waste_basket","waste":"trash"}},"type":"Feature"},
	{"geometry":{"coordinates":[9.252811,51.13736],"type":"Point"},"properties":{"osm_id":"6975012610","tag":{"amenity":"recycling","recycling:clothes":"yes","recycling_type":"container"}},"type":"Feature"},
	{"geometry":{"coordinates":[9.23391,51.13035],"type":"Point"},"properties":{"osm_id":"7427743318","tag":{"amenity":"waste_basket"}},"type":"Feature"},
	{"geometry":{"coordinates":[9.23384,51.130436],"type":"Point"},"properties":{"osm_id":"7427743319","tag":{"amenity":"waste_basket"}},"type":"Feature"},
	{"geometry":{"coordinates":[9.274647,51.129902],"type":"Point"},"properties":{"osm_id":"7889615415","tag":{"amenity":"waste_basket","waste":"trash"}},"type":"Feature"}
]
}
