{
"type": "FeatureCollection",
"features": [
	{"geometry":{"coordinates":[9.240662,50.089895],"type":"Point"},"properties":{"osm_id":"2333701615","tag":{"amenity":"recycling","recycling:cans":"yes","recycling:clothes":"yes","recycling:glass_bottles":"yes","recycling:paper":"no","recycling_type":"container"}},"type":"Feature"},
	{"geometry":{"coordinates":[9.231551,50.095316],"type":"Point"},"properties":{"osm_id":"2480248474","tag":{"amenity":"recycling","recycling:cans":"yes","recycling:clothes":"yes","recycling:glass_bottles":"yes","recycling:scrap_metal":"no","recycling_type":"container"}},"type":"Feature"},
	{"geometry":{"coordinates":[9.273539,50.072655],"type":"Point"},"properties":{"osm_id":"4300144992","tag":{"amenity":"recycling","recycling:glass_bottles":"yes","recycling_type":"container"}},"type":"Feature"},
	{"geometry":{"coordinates":[9.283246,50.100364],"type":"Point"},"properties":{"barrier":"gate","osm_id":"4407723442","tag":{"bicycle":"yes","foot":"yes"}},"type":"Feature"},
	{"geometry":{"coordinates":[9.280469,50.068404],"type":"Point"},"properties":{"osm_id":"4783488253","tag":{"amenity":"waste_basket"}},"type":"Feature"},
	{"geometry":{"coordinates":[9.273535,50.0727],"type":"Point"},"properties":{"osm_id":"4844405270","tag":{"amenity":"recycling","recycling:clothes":"yes","recycling_type":"container"}},"type":"Feature"},
	{"geometry":{"coordinates":[9.273615,50.072681],"type":"Point"},"properties":{"osm_id":"4844405271","tag":{"amenity":"recycling","recycling:cans":"yes","recycling_type":"container"}},"type":"Feature"},
	{"geometry":{"coordinates":[9.248626,50.079647],"type":"Point"},"properties":{"osm_id":"5034446675","tag":{"amenity":"recycling","recycling:cans":"yes","recycling:clothes":"yes","recycling:glass_bottles":"yes","recycling:shoes":"yes","recycling_type":"container"}},"type":"Feature"},
	{"geometry":{"coordinates":[9.244279,50.079468],"type":"Point"},"properties":{"name":"Recyclinghof","osm_id":"6504225994","tag":{"addr:city":"Sch\u00c3\u00b6llkrippen","addr:postcode":"63825","addr:street":"Aschaffenburger Stra\u00c3\u009fe","amenity":"recycling","operator":"Markt Sch\u00c3\u00b6llkrippen","recycling_type":"centre","website":"https://www.recyclinghofwertstoffhof.de/Aschaffenburg_Schoellkrippen.html"}},"type":"Feature"}
]
}
