{
"type": "FeatureCollection",
"features": [
	{"geometry":{"coordinates":[9.263319,49.878959],"type":"Point"},"properties":{"osm_id":"3539026942","tag":{"amenity":"waste_basket"}},"type":"Feature"},
	{"geometry":{"coordinates":[9.243132,49.883923],"type":"Point"},"properties":{"osm_id":"3865471992","tag":{"amenity":"recycling","recycling:clothes":"yes","recycling_type":"container"}},"type":"Feature"},
	{"geometry":{"coordinates":[9.243127,49.883967],"type":"Point"},"properties":{"osm_id":"3865471996","tag":{"amenity":"recycling","recycling:glass_bottles":"yes","recycling_type":"container"}},"type":"Feature"},
	{"geometry":{"coordinates":[9.29574,49.886743],"type":"Point"},"properties":{"osm_id":"4080112571","tag":{"amenity":"waste_basket"}},"type":"Feature"},
	{"geometry":{"coordinates":[9.296079,49.885367],"type":"Point"},"properties":{"osm_id":"4080112676","tag":{"amenity":"waste_basket"}},"type":"Feature"},
	{"geometry":{"coordinates":[9.29655,49.886039],"type":"Point"},"properties":{"osm_id":"4080112707","tag":{"amenity":"waste_basket"}},"type":"Feature"},
	{"geometry":{"coordinates":[9.297201,49.87728],"type":"Point"},"properties":{"osm_id":"4080207749","tag":{"amenity":"waste_basket"}},"type":"Feature"},
	{"geometry":{"coordinates":[9.293959,49.881423],"type":"Point"},"properties":{"osm_id":"4080207771","tag":{"amenity":"recycling","recycling:glass":"yes","recycling:paper":"yes","recycling:tin":"yes"}},"type":"Feature"},
	{"geometry":{"coordinates":[9.294453,49.882128],"type":"Point"},"properties":{"osm_id":"4080207859","tag":{"amenity":"waste_basket"}},"type":"Feature"},
	{"geometry":{"coordinates":[9.297339,49.889475],"type":"Point"},"properties":{"osm_id":"4080358370","tag":{"amenity":"waste_basket"}},"type":"Feature"},
	{"geometry":{"coordinates":[9.299947,49.888388],"type":"Point"},"properties":{"osm_id":"4080358868","tag":{"amenity":"waste_basket"}},"type":"Feature"},
	{"geometry":{"coordinates":[9.256459,49.872084],"type":"Point"},"properties":{"osm_id":"4210983008","tag":{"amenity":"waste_basket"}},"type":"Feature"},
	{"geometry":{"coordinates":[9.235702,49.850246],"type":"Point"},"properties":{"osm_id":"4716931444","tag":{"amenity":"recycling","recycling:clothes":"yes","recycling:glass_bottles":"yes"}},"type":"Feature"},
	{"geometry":{"coordinates":[9.239872,49.891386],"type":"Point"},"properties":{"osm_id":"4876740656","tag":{"amenity":"recycling","location":"overground","recycling:bottles":"yes","recycling_type":"container"}},"type":"Feature"},
	{"geometry":{"coordinates":[9.29255,49.890234],"type":"Point"},"properties":{"osm_id":"5516092157","tag":{"amenity":"waste_basket"}},"type":"Feature"},
	{"geometry":{"coordinates":[9.24346,49.880585],"type":"Point"},"properties":{"osm_id":"5580503705","tag":{"amenity":"recycling","recycling:glass":"yes","recycling_type":"container"}},"type":"Feature"},
	{"geometry":{"coordinates":[9.300127,49.880991],"type":"Point"},"properties":{"osm_id":"7026541804","tag":{"amenity":"waste_basket"}},"type":"Feature"},
	{"geometry":{"coordinates":[9.276452,49.850448],"type":"Point"},"properties":{"osm_id":"7177277205","tag":{"amenity":"recycling","recycling:glass_bottles":"yes","recycling_type":"container"}},"type":"Feature"},
	{"geometry":{"coordinates":[9.276517,49.850434],"type":"Point"},"properties":{"osm_id":"7177277206","tag":{"amenity":"recycling","contact:email":"info@fws.de","operator":"Malteser Hilfsdienst","recycling:clothes":"only","recycling_type":"container","website":"http://www.fws.de"}},"type":"Feature"},
	{"geometry":{"coordinates":[9.294234,49.889724],"type":"Point"},"properties":{"osm_id":"7362703514","tag":{"amenity":"waste_basket"}},"type":"Feature"},
	{"geometry":{"coordinates":[9.293131,49.886717],"type":"Point"},"properties":{"osm_id":"7362703515","tag":{"amenity":"waste_basket"}},"type":"Feature"}
]
}
