{
"type": "FeatureCollection",
"features": [
	{"geometry":{"coordinates":[9.243033,49.242723],"type":"Point"},"properties":{"osm_id":"431520179","tag":{"amenity":"recycling"}},"type":"Feature"},
	{"geometry":{"coordinates":[9.250516,49.239155],"type":"Point"},"properties":{"osm_id":"1581118971","tag":{"amenity":"recycling","recycling_type":"container"}},"type":"Feature"},
	{"geometry":{"coordinates":[9.311715,49.211115],"type":"Point"},"properties":{"osm_id":"1611100506","tag":{"amenity":"waste_basket"}},"type":"Feature"},
	{"geometry":{"coordinates":[9.250625,49.214656],"type":"Point"},"properties":{"osm_id":"1829111920","tag":{"amenity":"recycling","mapillary":"HRdgfE08t-QiH4ouk_swAg","recycling:cans":"yes","recycling:glass":"no","recycling:glass_bottles":"yes","recycling:paper":"yes","recycling_type":"container","survey:date":"2019-06-23"}},"type":"Feature"},
	{"geometry":{"coordinates":[9.295644,49.26352],"type":"Point"},"properties":{"osm_id":"1829113144","tag":{"amenity":"recycling","recycling_type":"container"}},"type":"Feature"},
	{"geometry":{"coordinates":[9.24993,49.239122],"type":"Point"},"properties":{"osm_id":"8852778558","tag":{"amenity":"waste_basket"}},"type":"Feature"},
	{"geometry":{"coordinates":[9.250971,49.240705],"type":"Point"},"properties":{"osm_id":"8852970994","tag":{"amenity":"waste_basket"}},"type":"Feature"},
	{"geometry":{"coordinates":[9.312474,49.227697],"type":"Point"},"properties":{"osm_id":"8853942806","tag":{"amenity":"waste_basket"}},"type":"Feature"},
	{"geometry":{"coordinates":[9.246628,49.211968],"type":"Point"},"properties":{"osm_id":"9028809314","tag":{"amenity":"recycling","recycling:cans":"yes","recycling:glass_bottles":"yes","recycling:paper":"yes","recycling_type":"container"}},"type":"Feature"},
	{"geometry":{"coordinates":[9.249985,49.212268],"type":"Point"},"properties":{"name":"Altkleidercontainer","osm_id":"9037311852","tag":{"amenity":"recycling","recycling:clothes":"yes","recycling_type":"container"}},"type":"Feature"},
	{"geometry":{"coordinates":[9.265602,49.239447],"type":"Point"},"properties":{"osm_id":"9120793417","tag":{"amenity":"waste_basket","material":"metal"}},"type":"Feature"}
]
}
