{
"type": "FeatureCollection",
"features": [
	{"geometry":{"coordinates":[9.231552,49.138671],"type":"Point"},"properties":{"osm_id":"277028539","tag":{"amenity":"recycling"}},"type":"Feature"},
	{"geometry":{"coordinates":[9.257402,49.136017],"type":"Point"},"properties":{"osm_id":"309941413","tag":{"amenity":"recycling","recycling:clothes":"yes","recycling:glass_bottles":"yes","recycling_type":"container"}},"type":"Feature"},
	{"geometry":{"coordinates":[9.234215,49.140188],"type":"Point"},"properties":{"osm_id":"319759578","tag":{"amenity":"recycling","location":"overground","recycling:glass":"yes","recycling_type":"container"}},"type":"Feature"},
	{"geometry":{"coordinates":[9.249008,49.134053],"type":"Point"},"properties":{"osm_id":"319832472","tag":{"amenity":"recycling","recycling:glass":"yes","recycling_type":"container"}},"type":"Feature"},
	{"geometry":{"coordinates":[9.234134,49.141248],"type":"Point"},"properties":{"osm_id":"354583809","tag":{"amenity":"recycling","recycling_type":"container"}},"type":"Feature"},
	{"geometry":{"coordinates":[9.229521,49.131584],"type":"Point"},"properties":{"osm_id":"362483409","tag":{"amenity":"recycling","location":"overground","recycling_type":"container"}},"type":"Feature"},
	{"geometry":{"coordinates":[9.244494,49.133122],"type":"Point"},"properties":{"osm_id":"362493743","tag":{"amenity":"recycling","location":"overground","recycling:glass_bottles":"yes","recycling_type":"container"}},"type":"Feature"},
	{"geometry":{"coordinates":[9.246984,49.138476],"type":"Point"},"properties":{"osm_id":"362495213","tag":{"amenity":"recycling","location":"overground","recycling:glass":"yes","recycling_type":"container"}},"type":"Feature"},
	{"geometry":{"coordinates":[9.230632,49.150831],"type":"Point"},"properties":{"osm_id":"373102818","tag":{"amenity":"recycling"}},"type":"Feature"},
	{"geometry":{"coordinates":[9.236422,49.144634],"type":"Point"},"properties":{"osm_id":"409670315","tag":{"amenity":"recycling","location":"overground","recycling_type":"container"}},"type":"Feature"},
	{"geometry":{"coordinates":[9.236899,49.133149],"type":"Point"},"properties":{"osm_id":"440296920","tag":{"amenity":"recycling","location":"overground","recycling_type":"container"}},"type":"Feature"},
	{"geometry":{"coordinates":[9.286061,49.144582],"type":"Point"},"properties":{"osm_id":"443458613","tag":{"amenity":"recycling","recycling:cans":"yes","recycling:clothes":"yes","recycling:glass":"yes","recycling:paper":"yes","recycling_type":"container"}},"type":"Feature"},
	{"geometry":{"coordinates":[9.262815,49.10261],"type":"Point"},"properties":{"osm_id":"540377904","tag":{"amenity":"recycling","note:de":"nur Gr\u00c3\u00bcn- und Braunglas","note:en":"only green and brown glass (no white glass)","opening_hours":"Mo-Sa 08:00-19:00; Su off","recycling:glass":"yes","recycling:glass_bottles":"yes","recycling:paper":"yes"}},"type":"Feature"},
	{"geometry":{"coordinates":[9.230343,49.143856],"type":"Point"},"properties":{"osm_id":"715836489","tag":{"amenity":"recycling"}},"type":"Feature"},
	{"geometry":{"coordinates":[9.237236,49.137953],"type":"Point"},"properties":{"osm_id":"779181228","tag":{"amenity":"waste_basket"}},"type":"Feature"},
	{"geometry":{"coordinates":[9.236925,49.137967],"type":"Point"},"properties":{"osm_id":"779181229","tag":{"amenity":"waste_basket"}},"type":"Feature"},
	{"geometry":{"coordinates":[9.289001,49.147575],"type":"Point"},"properties":{"osm_id":"975275137","tag":{"amenity":"recycling","recycling:cans":"yes","recycling:clothes":"yes","recycling:glass":"yes","recycling:paper":"yes","recycling_type":"container"}},"type":"Feature"},
	{"geometry":{"coordinates":[9.240402,49.139783],"type":"Point"},"properties":{"barrier":"gate","osm_id":"1177093152"},"type":"Feature"},
	{"geometry":{"coordinates":[9.284606,49.14328],"type":"Point"},"properties":{"osm_id":"1263329377","tag":{"amenity":"waste_basket"}},"type":"Feature"},
	{"geometry":{"coordinates":[9.266649,49.10646],"type":"Point"},"properties":{"osm_id":"1297367742","tag":{"amenity":"recycling","recycling:cans":"yes","recycling:glass":"yes","recycling:paper":"yes"}},"type":"Feature"},
	{"geometry":{"coordinates":[9.288226,49.105362],"type":"Point"},"properties":{"osm_id":"1305325294","tag":{"amenity":"recycling","recycling:glass":"yes","recycling:paper":"yes"}},"type":"Feature"},
	{"geometry":{"coordinates":[9.240252,49.144051],"type":"Point"},"properties":{"osm_id":"1743495193","tag":{"amenity":"recycling","recycling_type":"container"}},"type":"Feature"},
	{"geometry":{"coordinates":[9.233323,49.133905],"type":"Point"},"properties":{"osm_id":"1842522586","tag":{"amenity":"recycling","location":"overground","recycling_type":"container"}},"type":"Feature"},
	{"geometry":{"coordinates":[9.240884,49.139973],"type":"Point"},"properties":{"osm_id":"2925159977","tag":{"amenity":"waste_basket"}},"type":"Feature"},
	{"geometry":{"coordinates":[9.239668,49.141997],"type":"Point"},"properties":{"osm_id":"3542083829","tag":{"amenity":"waste_basket"}},"type":"Feature"},
	{"geometry":{"coordinates":[9.278171,49.143791],"type":"Point"},"properties":{"osm_id":"4173219345","tag":{"amenity":"recycling"}},"type":"Feature"},
	{"geometry":{"coordinates":[9.284187,49.148972],"type":"Point"},"properties":{"osm_id":"4616457218","tag":{"amenity":"waste_basket"}},"type":"Feature"},
	{"geometry":{"coordinates":[9.283595,49.148926],"type":"Point"},"properties":{"name":"Abfalleimer","osm_id":"4616457219","tag":{"amenity":"waste_basket"}},"type":"Feature"},
	{"geometry":{"coordinates":[9.278677,49.146927],"type":"Point"},"properties":{"osm_id":"4988190925","tag":{"amenity":"waste_basket"}},"type":"Feature"},
	{"geometry":{"coordinates":[9.239161,49.148519],"type":"Point"},"properties":{"osm_id":"6349725246","tag":{"amenity":"recycling","recycling:clothes":"yes","recycling:glass":"yes","recycling:glass_bottles":"yes","recycling:shoes":"yes","recycling_type":"container"}},"type":"Feature"},
	{"geometry":{"coordinates":[9.285736,49.152275],"type":"Point"},"properties":{"osm_id":"6376765615","tag":{"amenity":"waste_basket"}},"type":"Feature"},
	{"geometry":{"coordinates":[9.285774,49.152922],"type":"Point"},"properties":{"osm_id":"6379200822","tag":{"amenity":"waste_basket"}},"type":"Feature"},
	{"geometry":{"coordinates":[9.287264,49.147204],"type":"Point"},"properties":{"osm_id":"6456242721","tag":{"amenity":"waste_basket"}},"type":"Feature"},
	{"geometry":{"coordinates":[9.284074,49.150808],"type":"Point"},"properties":{"osm_id":"6830525635","tag":{"amenity":"recycling","recycling_type":"container"}},"type":"Feature"}
]
}
