{
"type": "FeatureCollection",
"features": [
	{"geometry":{"coordinates":[9.284735,49.067057],"type":"Point"},"properties":{"osm_id":"276780008","tag":{"amenity":"recycling","recycling:glass":"yes"}},"type":"Feature"},
	{"geometry":{"coordinates":[9.278905,49.060904],"type":"Point"},"properties":{"osm_id":"350193850","tag":{"amenity":"recycling","recycling:glass_bottles":"yes","recycling:paper":"yes"}},"type":"Feature"},
	{"geometry":{"coordinates":[9.294974,49.085114],"type":"Point"},"properties":{"osm_id":"411067636","tag":{"amenity":"recycling","recycling:cans":"yes","recycling:glass_bottles":"yes","recycling:magazines":"yes","recycling:newspaper":"yes","recycling:paper":"yes"}},"type":"Feature"},
	{"geometry":{"coordinates":[9.291807,49.066663],"type":"Point"},"properties":{"osm_id":"419628810","tag":{"amenity":"waste_basket"}},"type":"Feature"},
	{"geometry":{"coordinates":[9.293478,49.066948],"type":"Point"},"properties":{"osm_id":"419628811","tag":{"amenity":"waste_basket"}},"type":"Feature"},
	{"geometry":{"coordinates":[9.287114,49.05469],"type":"Point"},"properties":{"osm_id":"427804190","tag":{"amenity":"waste_basket"}},"type":"Feature"},
	{"geometry":{"coordinates":[9.286949,49.054187],"type":"Point"},"properties":{"osm_id":"427815797","tag":{"amenity":"waste_basket"}},"type":"Feature"},
	{"geometry":{"coordinates":[9.287806,49.076777],"type":"Point"},"properties":{"osm_id":"429705357","tag":{"amenity":"recycling","operator":"Humana Kleidersammlung GmbH","recycling:clothes":"yes","recycling:shoes":"yes"}},"type":"Feature"},
	{"geometry":{"coordinates":[9.289265,49.077757],"type":"Point"},"properties":{"osm_id":"429705361","tag":{"amenity":"recycling","recycling:clothes":"yes","recycling:shoes":"yes"}},"type":"Feature"},
	{"geometry":{"coordinates":[9.296657,49.068981],"type":"Point"},"properties":{"osm_id":"456141544","tag":{"amenity":"waste_basket"}},"type":"Feature"},
	{"geometry":{"coordinates":[9.297128,49.069068],"type":"Point"},"properties":{"osm_id":"456146343","tag":{"amenity":"waste_basket"}},"type":"Feature"},
	{"geometry":{"coordinates":[9.295138,49.067289],"type":"Point"},"properties":{"osm_id":"456812480","tag":{"amenity":"waste_basket"}},"type":"Feature"},
	{"geometry":{"coordinates":[9.311567,49.065784],"type":"Point"},"properties":{"osm_id":"460045799","tag":{"amenity":"waste_basket"}},"type":"Feature"},
	{"geometry":{"coordinates":[9.307647,49.074595],"type":"Point"},"properties":{"osm_id":"460045827","tag":{"amenity":"waste_basket","waste":"trash"}},"type":"Feature"},
	{"geometry":{"coordinates":[9.280541,49.074842],"type":"Point"},"properties":{"osm_id":"564890940","tag":{"amenity":"waste_basket"}},"type":"Feature"},
	{"geometry":{"coordinates":[9.29144,49.066916],"type":"Point"},"properties":{"osm_id":"588119641","tag":{"amenity":"waste_basket"}},"type":"Feature"},
	{"geometry":{"coordinates":[9.291992,49.066908],"type":"Point"},"properties":{"osm_id":"588119644","tag":{"amenity":"waste_basket"}},"type":"Feature"},
	{"geometry":{"coordinates":[9.292995,49.066833],"type":"Point"},"properties":{"osm_id":"588119647","tag":{"amenity":"waste_basket"}},"type":"Feature"},
	{"geometry":{"coordinates":[9.291188,49.067008],"type":"Point"},"properties":{"osm_id":"588461755","tag":{"amenity":"waste_basket","check_date":"2021-09-28"}},"type":"Feature"},
	{"geometry":{"coordinates":[9.29137,49.067211],"type":"Point"},"properties":{"osm_id":"588461760","tag":{"amenity":"waste_basket","check_date":"2021-09-28"}},"type":"Feature"},
	{"geometry":{"coordinates":[9.291589,49.067319],"type":"Point"},"properties":{"osm_id":"588461761","tag":{"amenity":"waste_basket","check_date":"2021-09-28"}},"type":"Feature"},
	{"geometry":{"coordinates":[9.291906,49.067156],"type":"Point"},"properties":{"osm_id":"588461812","tag":{"amenity":"waste_basket"}},"type":"Feature"},
	{"geometry":{"coordinates":[9.292128,49.067266],"type":"Point"},"properties":{"osm_id":"588461814","tag":{"amenity":"waste_basket"}},"type":"Feature"},
	{"geometry":{"coordinates":[9.291985,49.067511],"type":"Point"},"properties":{"osm_id":"588461815","tag":{"amenity":"waste_basket"}},"type":"Feature"},
	{"geometry":{"coordinates":[9.292174,49.067604],"type":"Point"},"properties":{"osm_id":"588461817","tag":{"amenity":"waste_basket"}},"type":"Feature"},
	{"geometry":{"coordinates":[9.292552,49.067395],"type":"Point"},"properties":{"osm_id":"588461825","tag":{"amenity":"waste_basket"}},"type":"Feature"},
	{"geometry":{"coordinates":[9.310691,49.059603],"type":"Point"},"properties":{"osm_id":"603781994","tag":{"amenity":"recycling","opening_hours":"Mo-Sa 08:00-19:00; Su off","recycling:cans":"yes","recycling:glass_bottles":"yes","recycling:magazines":"yes","recycling:newspaper":"yes","recycling:paper":"yes"}},"type":"Feature"},
	{"geometry":{"coordinates":[9.250276,49.056242],"type":"Point"},"properties":{"osm_id":"690891257","tag":{"amenity":"waste_basket"}},"type":"Feature"},
	{"geometry":{"coordinates":[9.247549,49.057005],"type":"Point"},"properties":{"osm_id":"697494378","tag":{"amenity":"recycling","recycling:glass":"no","recycling:paper":"yes"}},"type":"Feature"},
	{"geometry":{"coordinates":[9.248272,49.052436],"type":"Point"},"properties":{"osm_id":"699895690","tag":{"amenity":"waste_basket"}},"type":"Feature"},
	{"geometry":{"coordinates":[9.248755,49.052466],"type":"Point"},"properties":{"osm_id":"699895694","tag":{"amenity":"waste_basket"}},"type":"Feature"},
	{"geometry":{"coordinates":[9.247773,49.057503],"type":"Point"},"properties":{"osm_id":"700034888","tag":{"amenity":"waste_basket"}},"type":"Feature"},
	{"geometry":{"coordinates":[9.247712,49.057636],"type":"Point"},"properties":{"osm_id":"700034894","tag":{"amenity":"waste_basket"}},"type":"Feature"},
	{"geometry":{"coordinates":[9.247791,49.057397],"type":"Point"},"properties":{"osm_id":"700034916","tag":{"amenity":"waste_basket"}},"type":"Feature"},
	{"geometry":{"coordinates":[9.246626,49.056694],"type":"Point"},"properties":{"osm_id":"700034976","tag":{"amenity":"waste_basket"}},"type":"Feature"},
	{"geometry":{"coordinates":[9.247457,49.056706],"type":"Point"},"properties":{"osm_id":"700034987","tag":{"amenity":"waste_basket"}},"type":"Feature"},
	{"geometry":{"coordinates":[9.247687,49.057005],"type":"Point"},"properties":{"osm_id":"700034994","tag":{"amenity":"waste_basket"}},"type":"Feature"},
	{"geometry":{"coordinates":[9.248134,49.057461],"type":"Point"},"properties":{"osm_id":"700035035","tag":{"amenity":"waste_basket"}},"type":"Feature"},
	{"geometry":{"coordinates":[9.24568,49.055387],"type":"Point"},"properties":{"osm_id":"700035078","tag":{"amenity":"waste_basket"}},"type":"Feature"},
	{"geometry":{"coordinates":[9.245292,49.055347],"type":"Point"},"properties":{"osm_id":"700035086","tag":{"amenity":"waste_basket"}},"type":"Feature"},
	{"geometry":{"coordinates":[9.246454,49.055586],"type":"Point"},"properties":{"osm_id":"700035095","tag":{"amenity":"waste_basket"}},"type":"Feature"},
	{"geometry":{"coordinates":[9.24611,49.056468],"type":"Point"},"properties":{"osm_id":"700035116","tag":{"amenity":"waste_basket"}},"type":"Feature"},
	{"geometry":{"coordinates":[9.245734,49.055538],"type":"Point"},"properties":{"osm_id":"700035143","tag":{"amenity":"waste_basket"}},"type":"Feature"},
	{"geometry":{"coordinates":[9.248679,49.057527],"type":"Point"},"properties":{"osm_id":"700219173","tag":{"amenity":"waste_basket"}},"type":"Feature"},
	{"geometry":{"coordinates":[9.24874,49.056051],"type":"Point"},"properties":{"osm_id":"700219177","tag":{"amenity":"waste_basket"}},"type":"Feature"},
	{"geometry":{"coordinates":[9.250241,49.056211],"type":"Point"},"properties":{"osm_id":"700219184","tag":{"amenity":"waste_basket"}},"type":"Feature"},
	{"geometry":{"coordinates":[9.248677,49.056417],"type":"Point"},"properties":{"osm_id":"700219188","tag":{"amenity":"waste_basket"}},"type":"Feature"},
	{"geometry":{"coordinates":[9.242662,49.057537],"type":"Point"},"properties":{"osm_id":"700721108","tag":{"amenity":"waste_basket"}},"type":"Feature"},
	{"geometry":{"coordinates":[9.237918,49.039895],"type":"Point"},"properties":{"osm_id":"701853491","tag":{"amenity":"waste_basket"}},"type":"Feature"},
	{"geometry":{"coordinates":[9.236758,49.056108],"type":"Point"},"properties":{"osm_id":"706220452","tag":{"amenity":"recycling","recycling_type":"container"}},"type":"Feature"},
	{"geometry":{"coordinates":[9.239257,49.039508],"type":"Point"},"properties":{"osm_id":"707910168","tag":{"amenity":"waste_basket"}},"type":"Feature"},
	{"geometry":{"coordinates":[9.241526,49.042114],"type":"Point"},"properties":{"osm_id":"707913838","tag":{"amenity":"waste_basket"}},"type":"Feature"},
	{"geometry":{"coordinates":[9.233617,49.076367],"type":"Point"},"properties":{"osm_id":"713638721","tag":{"amenity":"waste_basket"}},"type":"Feature"},
	{"geometry":{"coordinates":[9.245405,49.054292],"type":"Point"},"properties":{"osm_id":"714101680","tag":{"amenity":"waste_basket"}},"type":"Feature"},
	{"geometry":{"coordinates":[9.26154,49.060084],"type":"Point"},"properties":{"osm_id":"715006212","tag":{"amenity":"recycling"}},"type":"Feature"},
	{"geometry":{"coordinates":[9.301992,49.066487],"type":"Point"},"properties":{"osm_id":"717852435","tag":{"amenity":"waste_basket"}},"type":"Feature"},
	{"geometry":{"coordinates":[9.247235,49.055425],"type":"Point"},"properties":{"osm_id":"726434395","tag":{"amenity":"waste_basket"}},"type":"Feature"},
	{"geometry":{"coordinates":[9.294858,49.067864],"type":"Point"},"properties":{"osm_id":"727754056","tag":{"amenity":"waste_basket"}},"type":"Feature"},
	{"geometry":{"coordinates":[9.247475,49.051286],"type":"Point"},"properties":{"osm_id":"732086550","tag":{"amenity":"recycling","recycling:cans":"yes","recycling:glass":"yes","recycling:paper":"yes","recycling:scrap_metal":"no"}},"type":"Feature"},
	{"geometry":{"coordinates":[9.24806,49.051293],"type":"Point"},"properties":{"osm_id":"732086556","tag":{"amenity":"waste_basket"}},"type":"Feature"},
	{"geometry":{"coordinates":[9.248494,49.05104],"type":"Point"},"properties":{"osm_id":"732088815","tag":{"amenity":"waste_basket"}},"type":"Feature"},
	{"geometry":{"coordinates":[9.248615,49.056727],"type":"Point"},"properties":{"osm_id":"747198834","tag":{"amenity":"waste_basket"}},"type":"Feature"},
	{"geometry":{"coordinates":[9.248247,49.057095],"type":"Point"},"properties":{"osm_id":"752013686","tag":{"amenity":"waste_basket"}},"type":"Feature"},
	{"geometry":{"coordinates":[9.293955,49.063809],"type":"Point"},"properties":{"osm_id":"762429485","tag":{"amenity":"waste_basket"}},"type":"Feature"},
	{"geometry":{"coordinates":[9.244707,49.056297],"type":"Point"},"properties":{"osm_id":"763630943","tag":{"amenity":"waste_basket"}},"type":"Feature"},
	{"geometry":{"coordinates":[9.243269,49.055046],"type":"Point"},"properties":{"osm_id":"765049846","tag":{"amenity":"waste_basket"}},"type":"Feature"},
	{"geometry":{"coordinates":[9.249628,49.057442],"type":"Point"},"properties":{"osm_id":"784210072","tag":{"amenity":"waste_basket"}},"type":"Feature"},
	{"geometry":{"coordinates":[9.244456,49.057137],"type":"Point"},"properties":{"osm_id":"785141353","tag":{"amenity":"waste_basket"}},"type":"Feature"},
	{"geometry":{"coordinates":[9.247515,49.056982],"type":"Point"},"properties":{"osm_id":"793002338","tag":{"amenity":"waste_basket"}},"type":"Feature"},
	{"geometry":{"coordinates":[9.246644,49.055341],"type":"Point"},"properties":{"osm_id":"793002355","tag":{"amenity":"waste_basket"}},"type":"Feature"},
	{"geometry":{"coordinates":[9.24612,49.055354],"type":"Point"},"properties":{"osm_id":"798716073","tag":{"amenity":"waste_basket"}},"type":"Feature"},
	{"geometry":{"coordinates":[9.242548,49.059504],"type":"Point"},"properties":{"osm_id":"813335694","tag":{"amenity":"waste_basket"}},"type":"Feature"},
	{"geometry":{"coordinates":[9.248495,49.057031],"type":"Point"},"properties":{"osm_id":"813335697","tag":{"amenity":"waste_basket"}},"type":"Feature"},
	{"geometry":{"coordinates":[9.241727,49.051956],"type":"Point"},"properties":{"osm_id":"851049663","tag":{"amenity":"waste_basket"}},"type":"Feature"},
	{"geometry":{"coordinates":[9.243045,49.052048],"type":"Point"},"properties":{"osm_id":"851254790","tag":{"amenity":"waste_basket"}},"type":"Feature"},
	{"geometry":{"coordinates":[9.282562,49.057073],"type":"Point"},"properties":{"osm_id":"871063866","tag":{"amenity":"waste_basket"}},"type":"Feature"},
	{"geometry":{"coordinates":[9.246328,49.054338],"type":"Point"},"properties":{"osm_id":"911869394","tag":{"amenity":"waste_basket"}},"type":"Feature"},
	{"geometry":{"coordinates":[9.259585,49.05347],"type":"Point"},"properties":{"osm_id":"914358920","tag":{"amenity":"waste_basket"}},"type":"Feature"},
	{"geometry":{"coordinates":[9.250497,49.05629],"type":"Point"},"properties":{"osm_id":"919595185","tag":{"amenity":"waste_basket"}},"type":"Feature"},
	{"geometry":{"coordinates":[9.2451,49.054708],"type":"Point"},"properties":{"osm_id":"920231642","tag":{"amenity":"waste_basket"}},"type":"Feature"},
	{"geometry":{"coordinates":[9.307881,49.045168],"type":"Point"},"properties":{"osm_id":"922637792","tag":{"amenity":"recycling","recycling:cans":"yes","recycling:glass":"yes","recycling:paper":"yes","recycling_type":"container"}},"type":"Feature"},
	{"geometry":{"coordinates":[9.242258,49.05493],"type":"Point"},"properties":{"osm_id":"928099638","tag":{"amenity":"waste_basket"}},"type":"Feature"},
	{"geometry":{"coordinates":[9.308413,49.044308],"type":"Point"},"properties":{"osm_id":"941376972","tag":{"amenity":"waste_basket"}},"type":"Feature"},
	{"geometry":{"coordinates":[9.311914,49.041612],"type":"Point"},"properties":{"osm_id":"959740847","tag":{"amenity":"waste_basket"}},"type":"Feature"},
	{"geometry":{"coordinates":[9.244172,49.055205],"type":"Point"},"properties":{"osm_id":"960167333","tag":{"amenity":"waste_basket"}},"type":"Feature"},
	{"geometry":{"coordinates":[9.248398,49.05554],"type":"Point"},"properties":{"osm_id":"992874284","tag":{"amenity":"waste_basket"}},"type":"Feature"},
	{"geometry":{"coordinates":[9.250965,49.054765],"type":"Point"},"properties":{"osm_id":"992874286","tag":{"amenity":"recycling","recycling:clothes":"yes"}},"type":"Feature"},
	{"geometry":{"coordinates":[9.24293,49.055149],"type":"Point"},"properties":{"osm_id":"992874290","tag":{"amenity":"waste_basket"}},"type":"Feature"},
	{"geometry":{"coordinates":[9.246555,49.055225],"type":"Point"},"properties":{"osm_id":"992874295","tag":{"amenity":"waste_basket"}},"type":"Feature"},
	{"geometry":{"coordinates":[9.243149,49.05504],"type":"Point"},"properties":{"osm_id":"992874296","tag":{"amenity":"waste_basket"}},"type":"Feature"},
	{"geometry":{"coordinates":[9.29315,49.078681],"type":"Point"},"properties":{"barrier":"gate","osm_id":"1012867940","tag":{"access":"permissive"}},"type":"Feature"},
	{"geometry":{"coordinates":[9.293295,49.078662],"type":"Point"},"properties":{"osm_id":"1012867977","tag":{"amenity":"recycling","recycling:cans":"yes","recycling:glass":"yes","recycling:magazines":"yes","recycling:newspaper":"yes","recycling:paper":"yes"}},"type":"Feature"},
	{"geometry":{"coordinates":[9.249535,49.057857],"type":"Point"},"properties":{"osm_id":"1108147332","tag":{"amenity":"recycling","recycling:clothes":"yes"}},"type":"Feature"},
	{"geometry":{"coordinates":[9.249805,49.051989],"type":"Point"},"properties":{"osm_id":"1116905186","tag":{"amenity":"recycling","recycling:clothes":"yes"}},"type":"Feature"},
	{"geometry":{"coordinates":[9.247896,49.058937],"type":"Point"},"properties":{"osm_id":"1120013342","tag":{"amenity":"recycling","recycling:clothes":"yes","recycling_type":"container"}},"type":"Feature"},
	{"geometry":{"coordinates":[9.247698,49.052386],"type":"Point"},"properties":{"osm_id":"1211917816","tag":{"amenity":"waste_basket"}},"type":"Feature"},
	{"geometry":{"coordinates":[9.247126,49.052348],"type":"Point"},"properties":{"osm_id":"1211917841","tag":{"amenity":"waste_basket"}},"type":"Feature"},
	{"geometry":{"coordinates":[9.274582,49.093464],"type":"Point"},"properties":{"osm_id":"1271531430","tag":{"FIXME:de":"vor Ort pr\u00c3\u00bcfen","amenity":"recycling","mapillary":"MzOy5n1l7EN-HD2dgcsUVQ","recycling:cans":"yes","recycling:glass":"yes","recycling:paper":"yes","recycling_type":"container","survey:date":"2016-05-26"}},"type":"Feature"},
	{"geometry":{"coordinates":[9.250415,49.056355],"type":"Point"},"properties":{"osm_id":"1304897973","tag":{"amenity":"waste_basket"}},"type":"Feature"},
	{"geometry":{"coordinates":[9.260535,49.055335],"type":"Point"},"properties":{"osm_id":"1402528095","tag":{"amenity":"waste_basket"}},"type":"Feature"},
	{"geometry":{"coordinates":[9.282607,49.056267],"type":"Point"},"properties":{"osm_id":"1456141413","tag":{"amenity":"recycling","recycling:glass_bottles":"yes","recycling:paper":"yes"}},"type":"Feature"},
	{"geometry":{"coordinates":[9.245593,49.056234],"type":"Point"},"properties":{"osm_id":"1474465781","tag":{"amenity":"waste_basket"}},"type":"Feature"},
	{"geometry":{"coordinates":[9.246305,49.056252],"type":"Point"},"properties":{"osm_id":"1474465797","tag":{"amenity":"waste_basket"}},"type":"Feature"},
	{"geometry":{"coordinates":[9.261663,49.058083],"type":"Point"},"properties":{"osm_id":"1476136974","tag":{"amenity":"recycling","recycling:clothes":"yes","recycling_type":"container"}},"type":"Feature"},
	{"geometry":{"coordinates":[9.277785,49.092943],"type":"Point"},"properties":{"osm_id":"1580678499","tag":{"amenity":"recycling","recycling:cans":"yes","recycling:clothes":"yes","recycling:glass":"yes","recycling:paper":"yes","recycling_type":"container"}},"type":"Feature"},
	{"geometry":{"coordinates":[9.255386,49.052942],"type":"Point"},"properties":{"osm_id":"1690918692","tag":{"amenity":"waste_basket"}},"type":"Feature"},
	{"geometry":{"coordinates":[9.264736,49.044243],"type":"Point"},"properties":{"osm_id":"1825721582","tag":{"amenity":"waste_basket","check_date":"2021-07-10"}},"type":"Feature"},
	{"geometry":{"coordinates":[9.291281,49.066616],"type":"Point"},"properties":{"osm_id":"1850658481","tag":{"amenity":"waste_basket"}},"type":"Feature"},
	{"geometry":{"coordinates":[9.29406,49.067637],"type":"Point"},"properties":{"osm_id":"2028805221","tag":{"amenity":"waste_basket"}},"type":"Feature"},
	{"geometry":{"coordinates":[9.248708,49.058129],"type":"Point"},"properties":{"osm_id":"2042057458","tag":{"amenity":"waste_basket"}},"type":"Feature"},
	{"geometry":{"coordinates":[9.260228,49.055296],"type":"Point"},"properties":{"osm_id":"2056193735","tag":{"amenity":"waste_basket"}},"type":"Feature"},
	{"geometry":{"coordinates":[9.296012,49.065061],"type":"Point"},"properties":{"osm_id":"2078189909","tag":{"amenity":"waste_basket"}},"type":"Feature"},
	{"geometry":{"coordinates":[9.28951,49.068016],"type":"Point"},"properties":{"osm_id":"2116442777","tag":{"amenity":"waste_basket"}},"type":"Feature"},
	{"geometry":{"coordinates":[9.276974,49.059068],"type":"Point"},"properties":{"osm_id":"2116494920","tag":{"amenity":"waste_basket"}},"type":"Feature"},
	{"geometry":{"coordinates":[9.24238,49.052271],"type":"Point"},"properties":{"osm_id":"2943366187","tag":{"amenity":"waste_basket"}},"type":"Feature"},
	{"geometry":{"coordinates":[9.244089,49.053185],"type":"Point"},"properties":{"osm_id":"3050235486","tag":{"amenity":"waste_basket"}},"type":"Feature"},
	{"geometry":{"coordinates":[9.25391,49.054532],"type":"Point"},"properties":{"osm_id":"3102217712","tag":{"amenity":"waste_basket"}},"type":"Feature"},
	{"geometry":{"coordinates":[9.261898,49.054785],"type":"Point"},"properties":{"osm_id":"3102217716","tag":{"amenity":"waste_basket"}},"type":"Feature"},
	{"geometry":{"coordinates":[9.293029,49.09224],"type":"Point"},"properties":{"osm_id":"3106383079","tag":{"amenity":"waste_disposal"}},"type":"Feature"},
	{"geometry":{"coordinates":[9.266639,49.053947],"type":"Point"},"properties":{"osm_id":"3122662126","tag":{"amenity":"waste_basket"}},"type":"Feature"},
	{"geometry":{"coordinates":[9.262615,49.055185],"type":"Point"},"properties":{"barrier":"gate","osm_id":"3236734101"},"type":"Feature"},
	{"geometry":{"coordinates":[9.267566,49.057288],"type":"Point"},"properties":{"osm_id":"3349730158","tag":{"amenity":"recycling","recycling:clothes":"yes"}},"type":"Feature"},
	{"geometry":{"coordinates":[9.265802,49.04514],"type":"Point"},"properties":{"osm_id":"3687819530","tag":{"amenity":"waste_basket"}},"type":"Feature"},
	{"geometry":{"coordinates":[9.27116,49.094519],"type":"Point"},"properties":{"osm_id":"4629408961","tag":{"amenity":"recycling","recycling:clothes":"yes","recycling:glass":"yes","recycling:glass_bottles":"yes","recycling:paper":"yes","recycling_type":"container"}},"type":"Feature"},
	{"geometry":{"coordinates":[9.315278,49.063251],"type":"Point"},"properties":{"osm_id":"4999818622","tag":{"amenity":"waste_basket"}},"type":"Feature"},
	{"geometry":{"coordinates":[9.315501,49.061215],"type":"Point"},"properties":{"osm_id":"5000204621","tag":{"amenity":"waste_basket"}},"type":"Feature"},
	{"geometry":{"coordinates":[9.301936,49.04562],"type":"Point"},"properties":{"osm_id":"5960882726","tag":{"amenity":"waste_basket","waste":"dog_excrement"}},"type":"Feature"},
	{"geometry":{"coordinates":[9.301599,49.042404],"type":"Point"},"properties":{"osm_id":"5960882727","tag":{"amenity":"waste_basket","waste":"dog_excrement"}},"type":"Feature"},
	{"geometry":{"coordinates":[9.242184,49.052607],"type":"Point"},"properties":{"osm_id":"6201809155","tag":{"amenity":"recycling","operator":"DRK","recycling:clothes":"yes","recycling_type":"container"}},"type":"Feature"},
	{"geometry":{"coordinates":[9.280903,49.091483],"type":"Point"},"properties":{"name":"H\u00c3\u00a4ckselplatz","osm_id":"6404596839","tag":{"amenity":"recycling","recycling_type":"centre"}},"type":"Feature"},
	{"geometry":{"coordinates":[9.286118,49.075279],"type":"Point"},"properties":{"osm_id":"6416897286","tag":{"amenity":"recycling","recycling_type":"container"}},"type":"Feature"},
	{"geometry":{"coordinates":[9.300169,49.057222],"type":"Point"},"properties":{"osm_id":"6544753641","tag":{"amenity":"waste_basket"}},"type":"Feature"},
	{"geometry":{"coordinates":[9.304887,49.057845],"type":"Point"},"properties":{"osm_id":"6544753642","tag":{"amenity":"waste_basket","material":"steel"}},"type":"Feature"},
	{"geometry":{"coordinates":[9.261406,49.091558],"type":"Point"},"properties":{"osm_id":"6582375639","tag":{"amenity":"waste_basket"}},"type":"Feature"},
	{"geometry":{"coordinates":[9.311617,49.074756],"type":"Point"},"properties":{"osm_id":"6638139554","tag":{"amenity":"waste_basket","waste":"trash"}},"type":"Feature"},
	{"geometry":{"coordinates":[9.25419,49.0394],"type":"Point"},"properties":{"osm_id":"6658673248","tag":{"amenity":"waste_basket"}},"type":"Feature"},
	{"geometry":{"coordinates":[9.314096,49.038571],"type":"Point"},"properties":{"osm_id":"6761309174","tag":{"amenity":"waste_basket"}},"type":"Feature"},
	{"geometry":{"coordinates":[9.314324,49.038525],"type":"Point"},"properties":{"osm_id":"6761309175","tag":{"amenity":"waste_basket"}},"type":"Feature"},
	{"geometry":{"coordinates":[9.241527,49.051683],"type":"Point"},"properties":{"osm_id":"6950360457","tag":{"amenity":"waste_basket"}},"type":"Feature"},
	{"geometry":{"coordinates":[9.251835,49.054109],"type":"Point"},"properties":{"osm_id":"6950535486","tag":{"amenity":"waste_basket"}},"type":"Feature"},
	{"geometry":{"coordinates":[9.251556,49.053839],"type":"Point"},"properties":{"osm_id":"6950535488","tag":{"amenity":"waste_basket"}},"type":"Feature"},
	{"geometry":{"coordinates":[9.259522,49.054887],"type":"Point"},"properties":{"osm_id":"6950540440","tag":{"amenity":"waste_basket"}},"type":"Feature"},
	{"geometry":{"coordinates":[9.291411,49.066299],"type":"Point"},"properties":{"osm_id":"7386307612","tag":{"amenity":"recycling","operator":"Deutsches Rotes Kreuz","recycling:clothes":"yes","recycling_type":"container"}},"type":"Feature"},
	{"geometry":{"coordinates":[9.291732,49.066184],"type":"Point"},"properties":{"osm_id":"7386307613","tag":{"amenity":"waste_basket","waste":"trash"}},"type":"Feature"},
	{"geometry":{"coordinates":[9.272565,49.089235],"type":"Point"},"properties":{"osm_id":"7472886431","tag":{"amenity":"recycling","recycling:cans":"yes","recycling:glass":"yes","recycling:paper":"yes","recycling_type":"container"}},"type":"Feature"},
	{"geometry":{"coordinates":[9.279526,49.087034],"type":"Point"},"properties":{"osm_id":"7476314800","tag":{"amenity":"recycling","recycling:clothes":"yes","recycling_type":"container"}},"type":"Feature"},
	{"geometry":{"coordinates":[9.295167,49.073889],"type":"Point"},"properties":{"osm_id":"7540853123","tag":{"amenity":"waste_basket","waste":"dog_excrement"}},"type":"Feature"}
]
}
