{
"type": "FeatureCollection",
"features": [
	{"geometry":{"coordinates":[9.314746,49.01645],"type":"Point"},"properties":{"osm_id":"438138378","tag":{"amenity":"waste_basket"}},"type":"Feature"},
	{"geometry":{"coordinates":[9.302351,49.00427],"type":"Point"},"properties":{"osm_id":"438138401","tag":{"amenity":"waste_basket"}},"type":"Feature"},
	{"geometry":{"coordinates":[9.26952,49.029803],"type":"Point"},"properties":{"osm_id":"504416630","tag":{"amenity":"waste_basket"}},"type":"Feature"},
	{"geometry":{"coordinates":[9.268836,49.030075],"type":"Point"},"properties":{"osm_id":"504416644","tag":{"amenity":"waste_basket"}},"type":"Feature"},
	{"geometry":{"coordinates":[9.263465,49.030149],"type":"Point"},"properties":{"osm_id":"504416683","tag":{"amenity":"waste_basket"}},"type":"Feature"},
	{"geometry":{"coordinates":[9.263444,49.028417],"type":"Point"},"properties":{"osm_id":"506360111","tag":{"amenity":"waste_basket"}},"type":"Feature"},
	{"geometry":{"coordinates":[9.267594,49.022854],"type":"Point"},"properties":{"osm_id":"511145126","tag":{"amenity":"waste_basket"}},"type":"Feature"},
	{"geometry":{"coordinates":[9.264647,49.023787],"type":"Point"},"properties":{"osm_id":"516006362","tag":{"amenity":"waste_basket"}},"type":"Feature"},
	{"geometry":{"coordinates":[9.23859,49.035717],"type":"Point"},"properties":{"osm_id":"763491076","tag":{"amenity":"waste_basket"}},"type":"Feature"},
	{"geometry":{"coordinates":[9.289428,49.004231],"type":"Point"},"properties":{"osm_id":"1467495168","tag":{"amenity":"recycling","mapillary":"I6PKartx-otD_q1HDmexDg","recycling:batteries":"no","recycling:cans":"no","recycling:clothes":"yes","recycling:glass":"no","recycling:paper":"no","recycling:scrap_metal":"no","recycling_type":"container","survey:date":"2019-03-22"}},"type":"Feature"},
	{"geometry":{"coordinates":[9.268045,49.026884],"type":"Point"},"properties":{"osm_id":"1576891047","tag":{"amenity":"waste_basket"}},"type":"Feature"},
	{"geometry":{"coordinates":[9.29144,48.998168],"type":"Point"},"properties":{"osm_id":"1597908735","tag":{"amenity":"recycling","recycling:clothes":"yes","recycling_type":"container"}},"type":"Feature"},
	{"geometry":{"coordinates":[9.292846,48.999776],"type":"Point"},"properties":{"highway":"street_lamp","osm_id":"1597908747","tag":{"amenity":"waste_basket"}},"type":"Feature"},
	{"geometry":{"coordinates":[9.290809,48.999898],"type":"Point"},"properties":{"osm_id":"1597908748","tag":{"amenity":"recycling","recycling:clothes":"yes","recycling_type":"container"}},"type":"Feature"},
	{"geometry":{"coordinates":[9.294567,49.000891],"type":"Point"},"properties":{"osm_id":"1597908764","tag":{"amenity":"recycling","recycling:clothes":"yes","recycling_type":"container"}},"type":"Feature"},
	{"geometry":{"coordinates":[9.297449,49.006255],"type":"Point"},"properties":{"osm_id":"1768767602","tag":{"amenity":"recycling","recycling:clothes":"yes","recycling_type":"container"}},"type":"Feature"},
	{"geometry":{"coordinates":[9.298849,49.007613],"type":"Point"},"properties":{"osm_id":"1768767606","tag":{"amenity":"recycling","operator":"Deutsches Rotes Kreuz","recycling:clothes":"yes","recycling_type":"container"}},"type":"Feature"},
	{"geometry":{"coordinates":[9.300899,49.007816],"type":"Point"},"properties":{"osm_id":"1768767611","tag":{"amenity":"recycling","operator":"Deutsches Rotes Kreutz","recycling:clothes":"yes","recycling_type":"container"}},"type":"Feature"},
	{"geometry":{"coordinates":[9.275423,49.028676],"type":"Point"},"properties":{"osm_id":"2035485530","tag":{"amenity":"waste_basket"}},"type":"Feature"},
	{"geometry":{"coordinates":[9.277188,49.024258],"type":"Point"},"properties":{"osm_id":"2035521323","tag":{"amenity":"waste_basket"}},"type":"Feature"},
	{"geometry":{"coordinates":[9.286095,49.009622],"type":"Point"},"properties":{"osm_id":"2098869745","tag":{"amenity":"waste_basket"}},"type":"Feature"},
	{"geometry":{"coordinates":[9.285955,48.980708],"type":"Point"},"properties":{"osm_id":"2413274761","tag":{"amenity":"waste_basket"}},"type":"Feature"},
	{"geometry":{"coordinates":[9.289947,48.985077],"type":"Point"},"properties":{"osm_id":"2413274772","tag":{"amenity":"waste_basket"}},"type":"Feature"},
	{"geometry":{"coordinates":[9.23169,48.990057],"type":"Point"},"properties":{"osm_id":"3058604774","tag":{"amenity":"waste_disposal"}},"type":"Feature"},
	{"geometry":{"coordinates":[9.231707,48.99062],"type":"Point"},"properties":{"osm_id":"3058604775","tag":{"amenity":"waste_disposal"}},"type":"Feature"},
	{"geometry":{"coordinates":[9.231998,48.991055],"type":"Point"},"properties":{"osm_id":"3058604776","tag":{"amenity":"waste_disposal"}},"type":"Feature"},
	{"geometry":{"coordinates":[9.233142,48.991537],"type":"Point"},"properties":{"osm_id":"3105684510","tag":{"amenity":"waste_disposal"}},"type":"Feature"},
	{"geometry":{"coordinates":[9.29038,48.994746],"type":"Point"},"properties":{"osm_id":"3790849758","tag":{"amenity":"waste_basket"}},"type":"Feature"},
	{"geometry":{"coordinates":[9.296767,48.999442],"type":"Point"},"properties":{"osm_id":"3791122397","tag":{"amenity":"recycling","recycling:clothes":"yes","recycling_type":"container"}},"type":"Feature"},
	{"geometry":{"coordinates":[9.304477,49.006411],"type":"Point"},"properties":{"osm_id":"3791342262","tag":{"amenity":"waste_basket"}},"type":"Feature"},
	{"geometry":{"coordinates":[9.298562,49.00114],"type":"Point"},"properties":{"osm_id":"3791996108","tag":{"amenity":"waste_basket"}},"type":"Feature"},
	{"geometry":{"coordinates":[9.30945,48.988469],"type":"Point"},"properties":{"name":"H\u00c3\u00a4ckselplatz","osm_id":"4001165957","tag":{"amenity":"recycling","recycling:green_waste":"yes","recycling_type":"centre"}},"type":"Feature"},
	{"geometry":{"coordinates":[9.285983,49.005777],"type":"Point"},"properties":{"osm_id":"4112115248","tag":{"amenity":"waste_basket"}},"type":"Feature"},
	{"geometry":{"coordinates":[9.285939,48.980265],"type":"Point"},"properties":{"osm_id":"4194329754","tag":{"amenity":"recycling","recycling:glass":"yes","recycling_type":"container"}},"type":"Feature"},
	{"geometry":{"coordinates":[9.276984,48.985955],"type":"Point"},"properties":{"osm_id":"4510781794","tag":{"amenity":"waste_basket"}},"type":"Feature"},
	{"geometry":{"coordinates":[9.306509,49.005932],"type":"Point"},"properties":{"osm_id":"4771357332","tag":{"amenity":"waste_basket"}},"type":"Feature"},
	{"geometry":{"coordinates":[9.297226,48.988161],"type":"Point"},"properties":{"osm_id":"5109625626","tag":{"amenity":"waste_basket"}},"type":"Feature"},
	{"geometry":{"coordinates":[9.310969,48.993942],"type":"Point"},"properties":{"osm_id":"5112974591","tag":{"amenity":"waste_basket"}},"type":"Feature"},
	{"geometry":{"coordinates":[9.292734,49.021862],"type":"Point"},"properties":{"osm_id":"6658673253","tag":{"amenity":"waste_basket"}},"type":"Feature"}
]
}
