{
"type": "FeatureCollection",
"lastupdate": "2020-08-05T00:00:00Z",
"features": [
	{"geometry":{"coordinates":[9.251906,48.952094],"type":"Point"},"properties":{"name":"Kompostieranlage H\u00c3\u00a4ldenm\u00c3\u00bchle","osm_id":"379525395","tag":{"amenity":"recycling","opening_hours":"Mo-Fr 07:30-16:30; Sa 08:00-13:00","operator":"Gesellschaft f\u00fcr Wertstoffverwertung mbH (GWV)","recycling:green_waste":"yes","recycling_type":"centre"}},"type":"Feature"},
	{"geometry":{"coordinates":[9.268003,48.964615],"type":"Point"},"properties":{"name":"Wertstoffhof Bottwartal","osm_id":"429597619","tag":{"amenity":"recycling","recycling:batteries":"yes","recycling:cans":"yes","recycling:glass":"yes","recycling:paper":"yes","recycling:scrap_metal":"yes","recycling_type":"centre"}},"type":"Feature"},
	{"geometry":{"coordinates":[9.255297,48.942093],"type":"Point"},"properties":{"osm_id":"920685005","tag":{"amenity":"recycling","recycling:clothes":"yes","recycling_type":"container"}},"type":"Feature"},
	{"geometry":{"coordinates":[9.245057,48.945406],"type":"Point"},"properties":{"osm_id":"944581738","tag":{"amenity":"recycling","recycling:clothes":"yes","recycling:shoes":"yes"}},"type":"Feature"},
	{"geometry":{"coordinates":[9.257427,48.941941],"type":"Point"},"properties":{"osm_id":"1563371056","tag":{"amenity":"waste_basket"}},"type":"Feature"},
	{"geometry":{"coordinates":[9.265886,48.969206],"type":"Point"},"properties":{"osm_id":"1585499436","tag":{"amenity":"recycling","recycling:clothes":"yes","recycling:glass":"yes","recycling_type":"container"}},"type":"Feature"},
	{"geometry":{"coordinates":[9.301279,48.971988],"type":"Point"},"properties":{"osm_id":"2094079931","tag":{"amenity":"waste_basket"}},"type":"Feature"},
	{"geometry":{"coordinates":[9.253448,48.941925],"type":"Point"},"properties":{"osm_id":"3053988440","tag":{"amenity":"waste_basket"}},"type":"Feature"},
	{"geometry":{"coordinates":[9.251597,48.94217],"type":"Point"},"properties":{"osm_id":"3054154643","tag":{"amenity":"waste_basket"}},"type":"Feature"},
	{"geometry":{"coordinates":[9.249315,48.94388],"type":"Point"},"properties":{"osm_id":"3054154644","tag":{"amenity":"waste_basket"}},"type":"Feature"},
	{"geometry":{"coordinates":[9.252718,48.939834],"type":"Point"},"properties":{"osm_id":"3054451707","tag":{"amenity":"waste_basket"}},"type":"Feature"},
	{"geometry":{"coordinates":[9.252824,48.94018],"type":"Point"},"properties":{"osm_id":"3054451716","tag":{"amenity":"waste_basket"}},"type":"Feature"},
	{"geometry":{"coordinates":[9.252847,48.940304],"type":"Point"},"properties":{"osm_id":"3054451719","tag":{"amenity":"waste_basket"}},"type":"Feature"},
	{"geometry":{"coordinates":[9.24561,48.932079],"type":"Point"},"properties":{"osm_id":"3788144769","tag":{"amenity":"waste_basket"}},"type":"Feature"},
	{"geometry":{"coordinates":[9.247737,48.933957],"type":"Point"},"properties":{"osm_id":"3788144772","tag":{"amenity":"waste_basket"}},"type":"Feature"},
	{"geometry":{"coordinates":[9.250641,48.939005],"type":"Point"},"properties":{"osm_id":"3788184329","tag":{"amenity":"waste_basket"}},"type":"Feature"},
	{"geometry":{"coordinates":[9.262793,48.960375],"type":"Point"},"properties":{"osm_id":"3791996093","tag":{"amenity":"waste_basket"}},"type":"Feature"},
	{"geometry":{"coordinates":[9.262739,48.961424],"type":"Point"},"properties":{"osm_id":"3791996095","tag":{"amenity":"waste_basket"}},"type":"Feature"},
	{"geometry":{"coordinates":[9.244291,48.943601],"type":"Point"},"properties":{"osm_id":"4222404489","tag":{"amenity":"recycling","recycling:clothes":"yes","recycling_type":"container"}},"type":"Feature"},
	{"geometry":{"coordinates":[9.244156,48.943793],"type":"Point"},"properties":{"osm_id":"4222404492","tag":{"amenity":"waste_basket"}},"type":"Feature"},
	{"geometry":{"coordinates":[9.250269,48.941767],"type":"Point"},"properties":{"osm_id":"4222479453","tag":{"amenity":"waste_basket"}},"type":"Feature"},
	{"geometry":{"coordinates":[9.254118,48.941805],"type":"Point"},"properties":{"osm_id":"4222523271","tag":{"amenity":"waste_basket"}},"type":"Feature"},
	{"geometry":{"coordinates":[9.262775,48.940829],"type":"Point"},"properties":{"osm_id":"4223444752","tag":{"amenity":"waste_basket"}},"type":"Feature"},
	{"geometry":{"coordinates":[9.257295,48.934777],"type":"Point"},"properties":{"osm_id":"4223468358","tag":{"amenity":"waste_basket"}},"type":"Feature"},
	{"geometry":{"coordinates":[9.264143,48.934512],"type":"Point"},"properties":{"osm_id":"4223786433","tag":{"amenity":"waste_basket"}},"type":"Feature"},
	{"geometry":{"coordinates":[9.272509,48.935697],"type":"Point"},"properties":{"osm_id":"4223853747","tag":{"amenity":"waste_basket"}},"type":"Feature"},
	{"geometry":{"coordinates":[9.296245,48.940653],"type":"Point"},"properties":{"osm_id":"4223955182","tag":{"amenity":"waste_basket"}},"type":"Feature"},
	{"geometry":{"coordinates":[9.243689,48.94095],"type":"Point"},"properties":{"osm_id":"4231510454","tag":{"amenity":"waste_basket"}},"type":"Feature"},
	{"geometry":{"coordinates":[9.276922,48.937407],"type":"Point"},"properties":{"osm_id":"4324913336","tag":{"amenity":"waste_basket"}},"type":"Feature"},
	{"geometry":{"coordinates":[9.266605,48.962079],"type":"Point"},"properties":{"osm_id":"4377491785","tag":{"amenity":"waste_basket"}},"type":"Feature"},
	{"geometry":{"coordinates":[9.246992,48.942857],"type":"Point"},"properties":{"osm_id":"4388307760","tag":{"amenity":"recycling","operator":"Humana","recycling:clothes":"yes","recycling:shoes":"yes","recycling_type":"container"}},"type":"Feature"},
	{"geometry":{"coordinates":[9.247382,48.946168],"type":"Point"},"properties":{"osm_id":"4388794412","tag":{"amenity":"waste_basket"}},"type":"Feature"},
	{"geometry":{"coordinates":[9.282324,48.978297],"type":"Point"},"properties":{"osm_id":"4510781796","tag":{"amenity":"waste_basket"}},"type":"Feature"},
	{"geometry":{"coordinates":[9.262079,48.935887],"type":"Point"},"properties":{"osm_id":"5256211010","tag":{"amenity":"waste_basket","covered":"no","indoor":"no","material":"metal"}},"type":"Feature"},
	{"geometry":{"coordinates":[9.281982,48.964798],"type":"Point"},"properties":{"osm_id":"5317140114","tag":{"amenity":"waste_basket"}},"type":"Feature"},
	{"geometry":{"coordinates":[9.280837,48.964674],"type":"Point"},"properties":{"osm_id":"5317140116","tag":{"amenity":"waste_basket"}},"type":"Feature"},
	{"geometry":{"coordinates":[9.256213,48.928989],"type":"Point"},"properties":{"osm_id":"6285063180","tag":{"amenity":"waste_basket","waste":"trash"}},"type":"Feature"},
	{"geometry":{"coordinates":[9.274704,48.941531],"type":"Point"},"properties":{"osm_id":"6299707703","tag":{"amenity":"recycling","recycling:clothes":"yes","recycling_type":"container"}},"type":"Feature"},
	{"geometry":{"coordinates":[9.254444,48.944931],"type":"Point"},"properties":{"osm_id":"6468376549","tag":{"amenity":"waste_basket","waste":"trash"}},"type":"Feature"},
	{"geometry":{"coordinates":[9.257682,48.929707],"type":"Point"},"properties":{"osm_id":"6612760617","tag":{"amenity":"waste_basket"}},"type":"Feature"},
	{"geometry":{"coordinates":[9.264827,48.94367],"type":"Point"},"properties":{"osm_id":"6937127769","tag":{"amenity":"waste_basket"}},"type":"Feature"},
	{"geometry":{"coordinates":[9.295137,48.942499],"type":"Point"},"properties":{"osm_id":"6937133557","tag":{"amenity":"waste_basket"}},"type":"Feature"},
	{"geometry":{"coordinates":[9.265103,48.943571],"type":"Point"},"properties":{"osm_id":"7029484618","tag":{"amenity":"waste_basket"}},"type":"Feature"},
	{"geometry":{"coordinates":[9.258359,48.937968],"type":"Point"},"properties":{"osm_id":"7371941284","tag":{"amenity":"waste_basket"}},"type":"Feature"},
	{"geometry":{"coordinates":[9.257902,48.934248],"type":"Point"},"properties":{"osm_id":"7379445016","tag":{"amenity":"waste_basket"}},"type":"Feature"}
]
}
