{
"type": "FeatureCollection",
"features": [
	{"geometry":{"coordinates":[9.296015,48.816846],"type":"Point"},"properties":{"name":"Recyclinghof Waiblingen","osm_id":"36914377","tag":{"amenity":"recycling","opening_hours":"Tu 14:00-18:00; Fr 13:00-18:00; Sa 09:00-12:00","recycling:batteries":"yes","recycling:cans":"yes","recycling:glass":"yes","recycling:paper":"yes","recycling:scrap_metal":"yes","recycling_type":"centre"}},"type":"Feature"},
	{"geometry":{"coordinates":[9.308466,48.832039],"type":"Point"},"properties":{"osm_id":"36989626","tag":{"amenity":"recycling"}},"type":"Feature"},
	{"geometry":{"coordinates":[9.301191,48.831999],"type":"Point"},"properties":{"osm_id":"37937242","tag":{"amenity":"recycling","recycling_type":"container"}},"type":"Feature"},
	{"geometry":{"coordinates":[9.314575,48.837352],"type":"Point"},"properties":{"osm_id":"61279430","tag":{"amenity":"recycling","recycling_type":"container"}},"type":"Feature"},
	{"geometry":{"coordinates":[9.302239,48.829217],"type":"Point"},"properties":{"osm_id":"252480020","tag":{"amenity":"recycling","recycling_type":"container"}},"type":"Feature"},
	{"geometry":{"coordinates":[9.24701,48.815171],"type":"Point"},"properties":{"osm_id":"264484017","tag":{"amenity":"recycling","operator":"Rhenus","recycling:glass_bottles":"yes","recycling_type":"container"}},"type":"Feature"},
	{"geometry":{"coordinates":[9.24481,48.808506],"type":"Point"},"properties":{"osm_id":"267166725","tag":{"amenity":"recycling","opening_hours":"Mo-Sa 08:00-19:00","recycling:clothes":"yes","recycling:glass":"yes","recycling:glass_bottles":"yes","recycling:paper":"no","recycling:scrap_metal":"no","recycling_type":"container"}},"type":"Feature"},
	{"geometry":{"coordinates":[9.249722,48.807754],"type":"Point"},"properties":{"osm_id":"267167168","tag":{"amenity":"recycling","recycling:clothes":"yes","recycling:glass_bottles":"yes","recycling_type":"container"}},"type":"Feature"},
	{"geometry":{"coordinates":[9.285942,48.809526],"type":"Point"},"properties":{"osm_id":"295108917","tag":{"amenity":"recycling","recycling:clothes":"no","recycling:glass":"yes","recycling:paper":"yes","recycling_type":"container"}},"type":"Feature"},
	{"geometry":{"coordinates":[9.274065,48.807414],"type":"Point"},"properties":{"osm_id":"297289574","tag":{"amenity":"recycling","recycling:clothes":"no","recycling:glass":"yes","recycling:paper":"yes","recycling_type":"container"}},"type":"Feature"},
	{"geometry":{"coordinates":[9.270445,48.833362],"type":"Point"},"properties":{"osm_id":"425319289","tag":{"amenity":"recycling","recycling:clothes":"no","recycling:glass":"yes","recycling:paper":"yes","recycling_type":"container"}},"type":"Feature"},
	{"geometry":{"coordinates":[9.270915,48.829534],"type":"Point"},"properties":{"osm_id":"433727941","tag":{"amenity":"recycling","recycling:clothes":"no","recycling:glass":"yes","recycling:paper":"yes","recycling_type":"container"}},"type":"Feature"},
	{"geometry":{"coordinates":[9.268247,48.826522],"type":"Point"},"properties":{"osm_id":"433727942","tag":{"amenity":"recycling","recycling:clothes":"no","recycling:glass":"yes","recycling:paper":"yes","recycling_type":"container"}},"type":"Feature"},
	{"geometry":{"coordinates":[9.314663,48.864625],"type":"Point"},"properties":{"osm_id":"462253535","tag":{"amenity":"recycling","location":"overground","recycling:glass":"yes","recycling:paper":"yes","recycling_type":"container"}},"type":"Feature"},
	{"geometry":{"coordinates":[9.231229,48.807863],"type":"Point"},"properties":{"osm_id":"533240214","tag":{"amenity":"recycling","operator":"Rhenus","recycling:glass_bottles":"yes","recycling_type":"container"}},"type":"Feature"},
	{"geometry":{"coordinates":[9.29689,48.820078],"type":"Point"},"properties":{"osm_id":"595730381","tag":{"amenity":"recycling","recycling:clothes":"yes","recycling_type":"container"}},"type":"Feature"},
	{"geometry":{"coordinates":[9.272275,48.818986],"type":"Point"},"properties":{"osm_id":"610205916","tag":{"amenity":"waste_basket"}},"type":"Feature"},
	{"geometry":{"coordinates":[9.272399,48.818981],"type":"Point"},"properties":{"osm_id":"610205918","tag":{"amenity":"waste_basket"}},"type":"Feature"},
	{"geometry":{"coordinates":[9.272011,48.819594],"type":"Point"},"properties":{"osm_id":"610205919","tag":{"amenity":"waste_basket"}},"type":"Feature"},
	{"geometry":{"coordinates":[9.274143,48.819268],"type":"Point"},"properties":{"osm_id":"610205920","tag":{"amenity":"waste_basket"}},"type":"Feature"},
	{"geometry":{"coordinates":[9.253135,48.809412],"type":"Point"},"properties":{"osm_id":"621557592","tag":{"amenity":"recycling","recycling:glass":"yes","recycling:glass_bottles":"yes","recycling_type":"container"}},"type":"Feature"},
	{"geometry":{"coordinates":[9.312054,48.860374],"type":"Point"},"properties":{"osm_id":"849790096","tag":{"amenity":"waste_basket"}},"type":"Feature"},
	{"geometry":{"coordinates":[9.310873,48.855968],"type":"Point"},"properties":{"osm_id":"849790133","tag":{"amenity":"waste_basket"}},"type":"Feature"},
	{"geometry":{"coordinates":[9.294074,48.81725],"type":"Point"},"properties":{"osm_id":"1493290285","tag":{"amenity":"waste_basket"}},"type":"Feature"},
	{"geometry":{"coordinates":[9.265694,48.838612],"type":"Point"},"properties":{"osm_id":"1624909009","tag":{"amenity":"recycling","recycling:clothes":"no","recycling:glass":"yes","recycling:paper":"yes","recycling_type":"container"}},"type":"Feature"},
	{"geometry":{"coordinates":[9.253587,48.839077],"type":"Point"},"properties":{"osm_id":"1624909014","tag":{"amenity":"recycling","recycling:clothes":"no","recycling:glass":"yes","recycling:paper":"yes","recycling_type":"container"}},"type":"Feature"},
	{"geometry":{"coordinates":[9.263202,48.840235],"type":"Point"},"properties":{"osm_id":"1624909027","tag":{"amenity":"recycling","recycling:glass":"yes","recycling:paper":"yes","recycling_type":"container"}},"type":"Feature"},
	{"geometry":{"coordinates":[9.258099,48.840497],"type":"Point"},"properties":{"osm_id":"1624909038","tag":{"amenity":"recycling","recycling:clothes":"yes","recycling:glass":"yes","recycling:paper":"yes","recycling_type":"container"}},"type":"Feature"},
	{"geometry":{"coordinates":[9.268828,48.842743],"type":"Point"},"properties":{"osm_id":"1624909148","tag":{"amenity":"recycling","recycling:glass":"yes","recycling:paper":"yes","recycling_type":"container"}},"type":"Feature"},
	{"geometry":{"coordinates":[9.259093,48.844073],"type":"Point"},"properties":{"osm_id":"1624909216","tag":{"amenity":"recycling","recycling:clothes":"no","recycling:glass":"yes","recycling:paper":"yes","recycling_type":"container"}},"type":"Feature"},
	{"geometry":{"coordinates":[9.293117,48.852144],"type":"Point"},"properties":{"osm_id":"1624909253","tag":{"amenity":"recycling","recycling:glass":"yes","recycling:paper":"yes","recycling_type":"container"}},"type":"Feature"},
	{"geometry":{"coordinates":[9.298113,48.854222],"type":"Point"},"properties":{"osm_id":"1624909258","tag":{"amenity":"recycling","opening_hours":"Mo-Sa 08:00-20:00; PH off","operator":"ALBA Recycling GmbH","recycling:glass":"yes","recycling:paper":"yes","recycling_type":"container"}},"type":"Feature"},
	{"geometry":{"coordinates":[9.301803,48.855477],"type":"Point"},"properties":{"osm_id":"1624909268","tag":{"amenity":"recycling","recycling:glass":"yes","recycling:paper":"yes"}},"type":"Feature"},
	{"geometry":{"coordinates":[9.289537,48.856099],"type":"Point"},"properties":{"osm_id":"1624909271","tag":{"amenity":"recycling","recycling:clothes":"yes","recycling:glass":"yes","recycling:paper":"yes","recycling_type":"container"}},"type":"Feature"},
	{"geometry":{"coordinates":[9.294038,48.856588],"type":"Point"},"properties":{"osm_id":"1624909274","tag":{"amenity":"recycling","recycling:clothes":"yes","recycling:glass":"yes","recycling:paper":"yes","recycling_type":"container"}},"type":"Feature"},
	{"geometry":{"coordinates":[9.297751,48.857538],"type":"Point"},"properties":{"osm_id":"1624909275","tag":{"amenity":"recycling","recycling:clothes":"yes","recycling:glass":"yes","recycling:paper":"yes"}},"type":"Feature"},
	{"geometry":{"coordinates":[9.297089,48.859501],"type":"Point"},"properties":{"osm_id":"1624909280","tag":{"amenity":"recycling","recycling:glass":"yes","recycling:paper":"yes","recycling_type":"container"}},"type":"Feature"},
	{"geometry":{"coordinates":[9.306187,48.8242],"type":"Point"},"properties":{"osm_id":"1631512808","tag":{"amenity":"recycling","recycling:cans":"yes","recycling:clothes":"yes","recycling:glass":"yes","recycling:glass_bottles":"yes","recycling:paper":"yes","recycling:plastic":"no","recycling_type":"container"}},"type":"Feature"},
	{"geometry":{"coordinates":[9.302616,48.825111],"type":"Point"},"properties":{"osm_id":"1631512840","tag":{"amenity":"recycling","recycling:cans":"no","recycling:clothes":"no","recycling:glass":"yes","recycling:glass_bottles":"yes","recycling:paper":"yes","recycling:plastic":"no","recycling_type":"container"}},"type":"Feature"},
	{"geometry":{"coordinates":[9.314113,48.82682],"type":"Point"},"properties":{"osm_id":"1631512906","tag":{"amenity":"recycling","mapillary":"4xvjpd2eo2YJI8LzIwzylQ","recycling:clothes":"yes","recycling:glass":"no","recycling:glass_bottles":"yes","recycling:paper":"yes","recycling_type":"container","survey:date":"2020-04-22"}},"type":"Feature"},
	{"geometry":{"coordinates":[9.307554,48.826924],"type":"Point"},"properties":{"osm_id":"1631512928","tag":{"amenity":"recycling","recycling:glass":"yes","recycling:paper":"yes","recycling_type":"container"}},"type":"Feature"},
	{"geometry":{"coordinates":[9.305772,48.828488],"type":"Point"},"properties":{"osm_id":"1631512953","tag":{"amenity":"recycling","recycling:glass":"yes","recycling:paper":"yes","recycling_type":"container"}},"type":"Feature"},
	{"geometry":{"coordinates":[9.308345,48.830035],"type":"Point"},"properties":{"osm_id":"1631512978","tag":{"amenity":"recycling","recycling:glass":"yes","recycling:paper":"yes"}},"type":"Feature"},
	{"geometry":{"coordinates":[9.311352,48.830234],"type":"Point"},"properties":{"osm_id":"1631512991","tag":{"amenity":"recycling","recycling:glass":"yes","recycling:paper":"yes","recycling_type":"container"}},"type":"Feature"},
	{"geometry":{"coordinates":[9.304387,48.83046],"type":"Point"},"properties":{"osm_id":"1631513013","tag":{"amenity":"recycling","recycling:clothes":"yes","recycling:glass":"yes","recycling:paper":"yes","recycling_type":"container"}},"type":"Feature"},
	{"geometry":{"coordinates":[9.313689,48.832685],"type":"Point"},"properties":{"osm_id":"1631513065","tag":{"amenity":"recycling","opening_hours":"Mo-Sa 07:00-20:00; PH off","recycling:cans":"no","recycling:clothes":"no","recycling:glass":"yes","recycling:paper":"yes","recycling_type":"container"}},"type":"Feature"},
	{"geometry":{"coordinates":[9.315676,48.834881],"type":"Point"},"properties":{"osm_id":"1631513251","tag":{"amenity":"recycling","recycling:glass":"yes","recycling:paper":"yes"}},"type":"Feature"},
	{"geometry":{"coordinates":[9.313041,48.836935],"type":"Point"},"properties":{"osm_id":"1631513508","tag":{"amenity":"recycling","recycling:glass":"yes","recycling:paper":"yes"}},"type":"Feature"},
	{"geometry":{"coordinates":[9.308287,48.837074],"type":"Point"},"properties":{"osm_id":"1631513521","tag":{"amenity":"recycling","recycling:clothes":"yes","recycling:glass":"yes","recycling:paper":"yes","recycling_type":"container"}},"type":"Feature"},
	{"geometry":{"coordinates":[9.305704,48.821794],"type":"Point"},"properties":{"osm_id":"1632543580","tag":{"amenity":"recycling","recycling:glass":"yes","recycling:paper":"yes"}},"type":"Feature"},
	{"geometry":{"coordinates":[9.303424,48.82203],"type":"Point"},"properties":{"osm_id":"1632543586","tag":{"amenity":"recycling","recycling:glass":"yes","recycling:paper":"yes"}},"type":"Feature"},
	{"geometry":{"coordinates":[9.234175,48.843994],"type":"Point"},"properties":{"osm_id":"1664549501","tag":{"amenity":"waste_basket"}},"type":"Feature"},
	{"geometry":{"coordinates":[9.242164,48.818572],"type":"Point"},"properties":{"osm_id":"1666493721","tag":{"amenity":"waste_basket"}},"type":"Feature"},
	{"geometry":{"coordinates":[9.242125,48.818576],"type":"Point"},"properties":{"osm_id":"1666493724","tag":{"amenity":"recycling","recycling:glass":"yes","recycling_type":"container"}},"type":"Feature"},
	{"geometry":{"coordinates":[9.232709,48.807888],"type":"Point"},"properties":{"osm_id":"1666834190","tag":{"amenity":"waste_basket"}},"type":"Feature"},
	{"geometry":{"coordinates":[9.236992,48.832378],"type":"Point"},"properties":{"osm_id":"1668070583","tag":{"amenity":"waste_basket"}},"type":"Feature"},
	{"geometry":{"coordinates":[9.236658,48.83244],"type":"Point"},"properties":{"osm_id":"1668078196","tag":{"amenity":"waste_basket"}},"type":"Feature"},
	{"geometry":{"coordinates":[9.22862,48.838137],"type":"Point"},"properties":{"osm_id":"1669956996","tag":{"amenity":"waste_basket"}},"type":"Feature"},
	{"geometry":{"coordinates":[9.228693,48.838421],"type":"Point"},"properties":{"osm_id":"1669957024","tag":{"amenity":"waste_basket"}},"type":"Feature"},
	{"geometry":{"coordinates":[9.229581,48.838255],"type":"Point"},"properties":{"osm_id":"1669986664","tag":{"amenity":"waste_basket"}},"type":"Feature"},
	{"geometry":{"coordinates":[9.243064,48.808644],"type":"Point"},"properties":{"osm_id":"1697865263","tag":{"amenity":"waste_basket"}},"type":"Feature"},
	{"geometry":{"coordinates":[9.236117,48.818883],"type":"Point"},"properties":{"osm_id":"1710573672","tag":{"amenity":"recycling","recycling:glass_bottles":"yes","recycling_type":"container"}},"type":"Feature"},
	{"geometry":{"coordinates":[9.236619,48.80943],"type":"Point"},"properties":{"osm_id":"1851235967","tag":{"amenity":"recycling","recycling:batteries":"no","recycling:cans":"no","recycling:clothes":"no","recycling:glass":"yes","recycling:paper":"no","recycling:scrap_metal":"no","recycling_type":"container"}},"type":"Feature"},
	{"geometry":{"coordinates":[9.233929,48.808245],"type":"Point"},"properties":{"osm_id":"1937783408","tag":{"amenity":"recycling","recycling:batteries":"no","recycling:cans":"no","recycling:clothes":"yes","recycling:glass":"no","recycling:paper":"no","recycling:scrap_metal":"no","recycling_type":"container"}},"type":"Feature"},
	{"geometry":{"coordinates":[9.292609,48.813657],"type":"Point"},"properties":{"name":"H\u00c3\u00a4ckselplatz","osm_id":"2042060664","tag":{"amenity":"recycling","recycling:green_waste":"yes","recycling_type":"centre"}},"type":"Feature"},
	{"geometry":{"coordinates":[9.270164,48.864383],"type":"Point"},"properties":{"osm_id":"2069813518","tag":{"amenity":"waste_basket"}},"type":"Feature"},
	{"geometry":{"coordinates":[9.284729,48.812276],"type":"Point"},"properties":{"osm_id":"2188595879","tag":{"amenity":"recycling","recycling:clothes":"no","recycling:glass":"yes","recycling:paper":"yes","recycling_type":"container"}},"type":"Feature"},
	{"geometry":{"coordinates":[9.277584,48.812166],"type":"Point"},"properties":{"osm_id":"2195348597","tag":{"amenity":"recycling","recycling:clothes":"no","recycling:glass":"yes","recycling:paper":"yes","recycling_type":"container"}},"type":"Feature"},
	{"geometry":{"coordinates":[9.23093,48.808971],"type":"Point"},"properties":{"osm_id":"2196986688","tag":{"amenity":"waste_basket"}},"type":"Feature"},
	{"geometry":{"coordinates":[9.230578,48.841651],"type":"Point"},"properties":{"osm_id":"2449525885","tag":{"amenity":"waste_basket"}},"type":"Feature"},
	{"geometry":{"coordinates":[9.264846,48.833847],"type":"Point"},"properties":{"osm_id":"2621964439","tag":{"amenity":"recycling","recycling:glass":"yes","recycling:paper":"yes","recycling_type":"container"}},"type":"Feature"},
	{"geometry":{"coordinates":[9.261245,48.826116],"type":"Point"},"properties":{"osm_id":"2680892770","tag":{"amenity":"recycling","recycling:glass":"yes","recycling:paper":"yes","recycling_type":"container"}},"type":"Feature"},
	{"geometry":{"coordinates":[9.262729,48.826824],"type":"Point"},"properties":{"osm_id":"2680894418","tag":{"amenity":"waste_basket"}},"type":"Feature"},
	{"geometry":{"coordinates":[9.276225,48.813261],"type":"Point"},"properties":{"osm_id":"2723397727","tag":{"amenity":"recycling","recycling:clothes":"no","recycling:glass":"yes","recycling:paper":"yes","recycling_type":"container"}},"type":"Feature"},
	{"geometry":{"coordinates":[9.270018,48.814543],"type":"Point"},"properties":{"osm_id":"2775473288","tag":{"amenity":"recycling","location":"overground","recycling:paper":"yes","recycling_type":"container"}},"type":"Feature"},
	{"geometry":{"coordinates":[9.286557,48.808692],"type":"Point"},"properties":{"osm_id":"2822359620","tag":{"amenity":"waste_basket"}},"type":"Feature"},
	{"geometry":{"coordinates":[9.237987,48.834881],"type":"Point"},"properties":{"osm_id":"2863059912","tag":{"amenity":"recycling","recycling:clothes":"yes","recycling:glass":"yes","recycling_type":"container"}},"type":"Feature"},
	{"geometry":{"coordinates":[9.236607,48.835784],"type":"Point"},"properties":{"osm_id":"2864129549","tag":{"amenity":"waste_basket"}},"type":"Feature"},
	{"geometry":{"coordinates":[9.23679,48.835721],"type":"Point"},"properties":{"osm_id":"2864129552","tag":{"amenity":"waste_basket"}},"type":"Feature"},
	{"geometry":{"coordinates":[9.229312,48.842473],"type":"Point"},"properties":{"osm_id":"2880168022","tag":{"amenity":"waste_basket"}},"type":"Feature"},
	{"geometry":{"coordinates":[9.229551,48.842526],"type":"Point"},"properties":{"osm_id":"2880168024","tag":{"amenity":"waste_basket"}},"type":"Feature"},
	{"geometry":{"coordinates":[9.237226,48.835009],"type":"Point"},"properties":{"osm_id":"2911814145","tag":{"amenity":"waste_basket"}},"type":"Feature"},
	{"geometry":{"coordinates":[9.236991,48.835253],"type":"Point"},"properties":{"osm_id":"2911814148","tag":{"amenity":"waste_basket"}},"type":"Feature"},
	{"geometry":{"coordinates":[9.237422,48.83538],"type":"Point"},"properties":{"osm_id":"2911814153","tag":{"amenity":"waste_basket"}},"type":"Feature"},
	{"geometry":{"coordinates":[9.24368,48.808373],"type":"Point"},"properties":{"osm_id":"2926603942","tag":{"amenity":"waste_basket"}},"type":"Feature"},
	{"geometry":{"coordinates":[9.242385,48.811649],"type":"Point"},"properties":{"osm_id":"2926659796","tag":{"amenity":"waste_basket"}},"type":"Feature"},
	{"geometry":{"coordinates":[9.236941,48.812476],"type":"Point"},"properties":{"osm_id":"2926673829","tag":{"amenity":"waste_basket"}},"type":"Feature"},
	{"geometry":{"coordinates":[9.235834,48.812065],"type":"Point"},"properties":{"osm_id":"2927151380","tag":{"amenity":"waste_basket"}},"type":"Feature"},
	{"geometry":{"coordinates":[9.235293,48.812207],"type":"Point"},"properties":{"osm_id":"2927151383","tag":{"amenity":"waste_basket"}},"type":"Feature"},
	{"geometry":{"coordinates":[9.235658,48.812268],"type":"Point"},"properties":{"osm_id":"2927151385","tag":{"amenity":"waste_basket"}},"type":"Feature"},
	{"geometry":{"coordinates":[9.233763,48.812364],"type":"Point"},"properties":{"osm_id":"2927225135","tag":{"amenity":"waste_basket"}},"type":"Feature"},
	{"geometry":{"coordinates":[9.233855,48.813183],"type":"Point"},"properties":{"osm_id":"2927251055","tag":{"amenity":"waste_basket"}},"type":"Feature"},
	{"geometry":{"coordinates":[9.23398,48.813642],"type":"Point"},"properties":{"osm_id":"2927297075","tag":{"amenity":"waste_basket"}},"type":"Feature"},
	{"geometry":{"coordinates":[9.235857,48.814101],"type":"Point"},"properties":{"osm_id":"2927297082","tag":{"amenity":"waste_basket"}},"type":"Feature"},
	{"geometry":{"coordinates":[9.235192,48.814736],"type":"Point"},"properties":{"osm_id":"2927432097","tag":{"amenity":"recycling","recycling:glass":"yes","recycling_type":"container"}},"type":"Feature"},
	{"geometry":{"coordinates":[9.234728,48.814961],"type":"Point"},"properties":{"osm_id":"2927432286","tag":{"amenity":"waste_basket"}},"type":"Feature"},
	{"geometry":{"coordinates":[9.230959,48.818168],"type":"Point"},"properties":{"osm_id":"2928228680","tag":{"amenity":"waste_basket"}},"type":"Feature"},
	{"geometry":{"coordinates":[9.231204,48.818209],"type":"Point"},"properties":{"osm_id":"2928228688","tag":{"amenity":"waste_basket"}},"type":"Feature"},
	{"geometry":{"coordinates":[9.264431,48.836068],"type":"Point"},"properties":{"osm_id":"2936814688","tag":{"amenity":"recycling","recycling:glass":"yes","recycling:paper":"yes","recycling_type":"container"}},"type":"Feature"},
	{"geometry":{"coordinates":[9.259284,48.828253],"type":"Point"},"properties":{"osm_id":"2936837026","tag":{"amenity":"recycling","recycling:glass":"yes","recycling:paper":"yes","recycling_type":"container"}},"type":"Feature"},
	{"geometry":{"coordinates":[9.275549,48.825625],"type":"Point"},"properties":{"osm_id":"2936843195","tag":{"amenity":"recycling","recycling:clothes":"yes","recycling:glass":"yes","recycling:paper":"yes","recycling_type":"container"}},"type":"Feature"},
	{"geometry":{"coordinates":[9.256713,48.831056],"type":"Point"},"properties":{"osm_id":"2936843196","tag":{"amenity":"recycling","recycling:clothes":"no","recycling:glass":"yes","recycling:paper":"yes","recycling_type":"container"}},"type":"Feature"},
	{"geometry":{"coordinates":[9.272271,48.827207],"type":"Point"},"properties":{"osm_id":"2936855916","tag":{"amenity":"recycling","recycling:clothes":"no","recycling:glass":"yes","recycling:paper":"yes","recycling_type":"container"}},"type":"Feature"},
	{"geometry":{"coordinates":[9.28979,48.814666],"type":"Point"},"properties":{"osm_id":"2936922663","tag":{"amenity":"recycling","recycling:clothes":"no","recycling:glass":"yes","recycling:paper":"yes","recycling_type":"container"}},"type":"Feature"},
	{"geometry":{"coordinates":[9.267437,48.832351],"type":"Point"},"properties":{"osm_id":"2936922664","tag":{"amenity":"recycling","recycling:clothes":"no","recycling:glass":"yes","recycling:paper":"yes","recycling_type":"container"}},"type":"Feature"},
	{"geometry":{"coordinates":[9.25759,48.809673],"type":"Point"},"properties":{"osm_id":"2936928624","tag":{"amenity":"recycling","recycling:clothes":"no","recycling:glass":"yes","recycling:paper":"yes","recycling_type":"container"}},"type":"Feature"},
	{"geometry":{"coordinates":[9.281887,48.814609],"type":"Point"},"properties":{"osm_id":"2936928625","tag":{"amenity":"recycling","recycling:clothes":"no","recycling:glass":"yes","recycling:paper":"yes","recycling_type":"container"}},"type":"Feature"},
	{"geometry":{"coordinates":[9.268826,48.806977],"type":"Point"},"properties":{"osm_id":"2936966550","tag":{"amenity":"recycling","recycling:clothes":"no","recycling:glass":"yes","recycling:paper":"yes","recycling_type":"container"}},"type":"Feature"},
	{"geometry":{"coordinates":[9.273186,48.81365],"type":"Point"},"properties":{"osm_id":"2936966551","tag":{"amenity":"recycling","recycling:clothes":"yes","recycling:glass":"yes","recycling:paper":"yes","recycling_type":"container"}},"type":"Feature"},
	{"geometry":{"coordinates":[9.267463,48.815232],"type":"Point"},"properties":{"osm_id":"2936966552","tag":{"amenity":"recycling","recycling:clothes":"no","recycling:glass":"yes","recycling:paper":"yes","recycling_type":"container"}},"type":"Feature"},
	{"geometry":{"coordinates":[9.278862,48.817929],"type":"Point"},"properties":{"osm_id":"2936966553","tag":{"amenity":"recycling","recycling:clothes":"no","recycling:glass":"yes","recycling:paper":"yes","recycling_type":"container"}},"type":"Feature"},
	{"geometry":{"coordinates":[9.267979,48.819256],"type":"Point"},"properties":{"osm_id":"2936966554","tag":{"amenity":"recycling","recycling:clothes":"no","recycling:glass":"yes","recycling:paper":"yes","recycling_type":"container"}},"type":"Feature"},
	{"geometry":{"coordinates":[9.283197,48.821831],"type":"Point"},"properties":{"osm_id":"2936966555","tag":{"amenity":"recycling","recycling:clothes":"no","recycling:glass":"yes","recycling:paper":"yes","recycling_type":"container"}},"type":"Feature"},
	{"geometry":{"coordinates":[9.235563,48.833136],"type":"Point"},"properties":{"osm_id":"2995384033","tag":{"amenity":"waste_basket"}},"type":"Feature"},
	{"geometry":{"coordinates":[9.25164,48.8503],"type":"Point"},"properties":{"osm_id":"3002784097","tag":{"amenity":"waste_basket"}},"type":"Feature"},
	{"geometry":{"coordinates":[9.230934,48.830668],"type":"Point"},"properties":{"osm_id":"3003594516","tag":{"amenity":"waste_basket"}},"type":"Feature"},
	{"geometry":{"coordinates":[9.230903,48.830689],"type":"Point"},"properties":{"osm_id":"3003594517","tag":{"amenity":"recycling","recycling:glass":"yes"}},"type":"Feature"},
	{"geometry":{"coordinates":[9.230479,48.83135],"type":"Point"},"properties":{"osm_id":"3003594941","tag":{"amenity":"waste_basket"}},"type":"Feature"},
	{"geometry":{"coordinates":[9.230623,48.831372],"type":"Point"},"properties":{"osm_id":"3003594944","tag":{"amenity":"waste_basket"}},"type":"Feature"},
	{"geometry":{"coordinates":[9.230747,48.831496],"type":"Point"},"properties":{"osm_id":"3003594956","tag":{"amenity":"waste_basket"}},"type":"Feature"},
	{"geometry":{"coordinates":[9.235724,48.834659],"type":"Point"},"properties":{"osm_id":"3003716481","tag":{"amenity":"waste_basket"}},"type":"Feature"},
	{"geometry":{"coordinates":[9.235797,48.834772],"type":"Point"},"properties":{"osm_id":"3003716485","tag":{"amenity":"waste_basket"}},"type":"Feature"},
	{"geometry":{"coordinates":[9.231994,48.835641],"type":"Point"},"properties":{"osm_id":"3018424329","tag":{"amenity":"waste_basket"}},"type":"Feature"},
	{"geometry":{"coordinates":[9.244051,48.834864],"type":"Point"},"properties":{"osm_id":"3062860634","tag":{"amenity":"waste_basket"}},"type":"Feature"},
	{"geometry":{"coordinates":[9.243244,48.835057],"type":"Point"},"properties":{"osm_id":"3062860933","tag":{"amenity":"waste_basket"}},"type":"Feature"},
	{"geometry":{"coordinates":[9.238007,48.834847],"type":"Point"},"properties":{"osm_id":"3109361229","tag":{"amenity":"waste_basket"}},"type":"Feature"},
	{"geometry":{"coordinates":[9.279648,48.821351],"type":"Point"},"properties":{"osm_id":"3131896035","tag":{"amenity":"recycling","recycling:glass":"yes","recycling:paper":"yes","recycling_type":"container"}},"type":"Feature"},
	{"geometry":{"coordinates":[9.308207,48.819125],"type":"Point"},"properties":{"osm_id":"3292948361","tag":{"amenity":"recycling","recycling:cans":"no","recycling:clothes":"yes","recycling:glass":"yes","recycling:glass_bottles":"yes","recycling:paper":"yes","recycling:plastic":"no","recycling_type":"container"}},"type":"Feature"},
	{"geometry":{"coordinates":[9.229721,48.842426],"type":"Point"},"properties":{"osm_id":"3477484153","tag":{"amenity":"waste_basket"}},"type":"Feature"},
	{"geometry":{"coordinates":[9.230033,48.842527],"type":"Point"},"properties":{"osm_id":"3477484155","tag":{"amenity":"waste_basket"}},"type":"Feature"},
	{"geometry":{"coordinates":[9.304707,48.862664],"type":"Point"},"properties":{"osm_id":"3601463280","tag":{"amenity":"waste_basket"}},"type":"Feature"},
	{"geometry":{"coordinates":[9.293286,48.864488],"type":"Point"},"properties":{"osm_id":"3601463283","tag":{"amenity":"waste_basket"}},"type":"Feature"},
	{"geometry":{"coordinates":[9.230278,48.840321],"type":"Point"},"properties":{"osm_id":"3628839901","tag":{"amenity":"waste_basket"}},"type":"Feature"},
	{"geometry":{"coordinates":[9.250919,48.855927],"type":"Point"},"properties":{"osm_id":"3628957160","tag":{"amenity":"waste_basket"}},"type":"Feature"},
	{"geometry":{"coordinates":[9.26154,48.811912],"type":"Point"},"properties":{"osm_id":"3656037169","tag":{"amenity":"waste_basket"}},"type":"Feature"},
	{"geometry":{"coordinates":[9.253835,48.861623],"type":"Point"},"properties":{"osm_id":"3784995291","tag":{"amenity":"waste_basket"}},"type":"Feature"},
	{"geometry":{"coordinates":[9.229553,48.842272],"type":"Point"},"properties":{"osm_id":"3792059459","tag":{"amenity":"waste_basket"}},"type":"Feature"},
	{"geometry":{"coordinates":[9.244257,48.855173],"type":"Point"},"properties":{"osm_id":"4046116125","tag":{"amenity":"waste_basket"}},"type":"Feature"},
	{"geometry":{"coordinates":[9.232212,48.857373],"type":"Point"},"properties":{"osm_id":"4048998260","tag":{"amenity":"waste_basket"}},"type":"Feature"},
	{"geometry":{"coordinates":[9.234831,48.82983],"type":"Point"},"properties":{"osm_id":"4114515840","tag":{"amenity":"waste_basket"}},"type":"Feature"},
	{"geometry":{"coordinates":[9.237963,48.831943],"type":"Point"},"properties":{"osm_id":"4119561977","tag":{"amenity":"waste_disposal"}},"type":"Feature"},
	{"geometry":{"coordinates":[9.301766,48.823356],"type":"Point"},"properties":{"osm_id":"4146699674","tag":{"amenity":"waste_basket"}},"type":"Feature"},
	{"geometry":{"coordinates":[9.261983,48.811582],"type":"Point"},"properties":{"osm_id":"4274488758","tag":{"amenity":"waste_basket"}},"type":"Feature"},
	{"geometry":{"coordinates":[9.297092,48.82157],"type":"Point"},"properties":{"osm_id":"4339099008","tag":{"amenity":"waste_basket"}},"type":"Feature"},
	{"geometry":{"coordinates":[9.297035,48.821742],"type":"Point"},"properties":{"osm_id":"4339099040","tag":{"amenity":"waste_basket"}},"type":"Feature"},
	{"geometry":{"coordinates":[9.297161,48.82188],"type":"Point"},"properties":{"osm_id":"4339099072","tag":{"amenity":"waste_basket"}},"type":"Feature"},
	{"geometry":{"coordinates":[9.311349,48.822777],"type":"Point"},"properties":{"osm_id":"4360440283","tag":{"amenity":"recycling","recycling:clothes":"yes","recycling:glass":"yes","recycling:paper":"yes","recycling_type":"container","website":"https://www.awg-rems-murr.de/generator/container_waiblingen.php"}},"type":"Feature"},
	{"geometry":{"coordinates":[9.249303,48.851418],"type":"Point"},"properties":{"osm_id":"4408691850","tag":{"amenity":"waste_basket"}},"type":"Feature"},
	{"geometry":{"coordinates":[9.231528,48.841969],"type":"Point"},"properties":{"osm_id":"4642271689","tag":{"amenity":"recycling","operator":"Stadt Stuttgart","recycling:clothes":"yes","recycling:shoes":"yes","recycling_type":"container"}},"type":"Feature"},
	{"geometry":{"coordinates":[9.231534,48.841949],"type":"Point"},"properties":{"osm_id":"4642271690","tag":{"amenity":"recycling","operator":"Rhenus","recycling:glass":"yes","recycling_type":"container"}},"type":"Feature"},
	{"geometry":{"coordinates":[9.266198,48.814896],"type":"Point"},"properties":{"osm_id":"4756097233","tag":{"amenity":"recycling","capacity":"3","check_date":"2019-01","description":"Drei Altkleidercontainer","recycling:clothes":"yes","recycling_type":"container"}},"type":"Feature"},
	{"geometry":{"coordinates":[9.300651,48.819171],"type":"Point"},"properties":{"osm_id":"4851369395","tag":{"amenity":"recycling","recycling:glass":"yes","recycling_type":"container"}},"type":"Feature"},
	{"geometry":{"coordinates":[9.300603,48.819165],"type":"Point"},"properties":{"osm_id":"4851369396","tag":{"amenity":"recycling","recycling_type":"container"}},"type":"Feature"},
	{"geometry":{"coordinates":[9.271035,48.808928],"type":"Point"},"properties":{"osm_id":"5173784991","tag":{"amenity":"waste_basket"}},"type":"Feature"},
	{"geometry":{"coordinates":[9.276188,48.807958],"type":"Point"},"properties":{"osm_id":"5174237826","tag":{"amenity":"waste_basket"}},"type":"Feature"},
	{"geometry":{"coordinates":[9.27699,48.808659],"type":"Point"},"properties":{"osm_id":"5174237836","tag":{"amenity":"waste_basket"}},"type":"Feature"},
	{"geometry":{"coordinates":[9.273291,48.808449],"type":"Point"},"properties":{"osm_id":"5275047118","tag":{"amenity":"waste_basket"}},"type":"Feature"},
	{"geometry":{"coordinates":[9.274117,48.808541],"type":"Point"},"properties":{"osm_id":"5275061825","tag":{"amenity":"waste_basket"}},"type":"Feature"},
	{"geometry":{"coordinates":[9.231265,48.807829],"type":"Point"},"properties":{"osm_id":"5305128006","tag":{"amenity":"waste_basket"}},"type":"Feature"},
	{"geometry":{"coordinates":[9.236236,48.818874],"type":"Point"},"properties":{"osm_id":"5425553209","tag":{"amenity":"waste_basket"}},"type":"Feature"},
	{"geometry":{"coordinates":[9.306597,48.819336],"type":"Point"},"properties":{"osm_id":"5451446098","tag":{"amenity":"waste_basket"}},"type":"Feature"},
	{"geometry":{"coordinates":[9.306856,48.821724],"type":"Point"},"properties":{"osm_id":"5451446099","tag":{"amenity":"waste_basket"}},"type":"Feature"},
	{"geometry":{"coordinates":[9.307035,48.82236],"type":"Point"},"properties":{"osm_id":"5451446100","tag":{"amenity":"waste_basket"}},"type":"Feature"},
	{"geometry":{"coordinates":[9.307341,48.824214],"type":"Point"},"properties":{"osm_id":"5451446101","tag":{"amenity":"waste_basket"}},"type":"Feature"},
	{"geometry":{"coordinates":[9.30686,48.826074],"type":"Point"},"properties":{"osm_id":"5451446102","tag":{"amenity":"waste_basket"}},"type":"Feature"},
	{"geometry":{"coordinates":[9.306938,48.820522],"type":"Point"},"properties":{"osm_id":"5487372712","tag":{"amenity":"waste_basket"}},"type":"Feature"},
	{"geometry":{"coordinates":[9.30106,48.826264],"type":"Point"},"properties":{"osm_id":"5494823630","tag":{"amenity":"waste_basket"}},"type":"Feature"},
	{"geometry":{"coordinates":[9.301168,48.826274],"type":"Point"},"properties":{"osm_id":"5494823631","tag":{"amenity":"waste_basket"}},"type":"Feature"},
	{"geometry":{"coordinates":[9.230087,48.810828],"type":"Point"},"properties":{"osm_id":"5496888784","tag":{"amenity":"waste_basket"}},"type":"Feature"},
	{"geometry":{"coordinates":[9.228903,48.812837],"type":"Point"},"properties":{"osm_id":"5497303381","tag":{"amenity":"waste_basket"}},"type":"Feature"},
	{"geometry":{"coordinates":[9.228899,48.812876],"type":"Point"},"properties":{"osm_id":"5497303382","tag":{"amenity":"recycling","recycling:glass_bottles":"yes","recycling_type":"container"}},"type":"Feature"},
	{"geometry":{"coordinates":[9.23511,48.820225],"type":"Point"},"properties":{"osm_id":"5499920983","tag":{"amenity":"waste_basket"}},"type":"Feature"},
	{"geometry":{"coordinates":[9.235139,48.820082],"type":"Point"},"properties":{"osm_id":"5499920984","tag":{"amenity":"waste_basket"}},"type":"Feature"},
	{"geometry":{"coordinates":[9.236498,48.818328],"type":"Point"},"properties":{"osm_id":"5499920991","tag":{"amenity":"waste_basket"}},"type":"Feature"},
	{"geometry":{"coordinates":[9.300081,48.82631],"type":"Point"},"properties":{"osm_id":"5501356780","tag":{"amenity":"waste_basket"}},"type":"Feature"},
	{"geometry":{"coordinates":[9.300374,48.826438],"type":"Point"},"properties":{"osm_id":"5501356781","tag":{"amenity":"waste_basket"}},"type":"Feature"},
	{"geometry":{"coordinates":[9.302604,48.826191],"type":"Point"},"properties":{"osm_id":"5501356782","tag":{"amenity":"waste_basket"}},"type":"Feature"},
	{"geometry":{"coordinates":[9.300285,48.825855],"type":"Point"},"properties":{"osm_id":"5501356783","tag":{"amenity":"waste_basket"}},"type":"Feature"},
	{"geometry":{"coordinates":[9.300141,48.826638],"type":"Point"},"properties":{"osm_id":"5501356784","tag":{"amenity":"waste_basket"}},"type":"Feature"},
	{"geometry":{"coordinates":[9.302342,48.826356],"type":"Point"},"properties":{"osm_id":"5501356785","tag":{"amenity":"waste_basket"}},"type":"Feature"},
	{"geometry":{"coordinates":[9.299693,48.826349],"type":"Point"},"properties":{"osm_id":"5501356786","tag":{"amenity":"waste_basket"}},"type":"Feature"},
	{"geometry":{"coordinates":[9.300881,48.826346],"type":"Point"},"properties":{"osm_id":"5501356787","tag":{"amenity":"waste_basket"}},"type":"Feature"},
	{"geometry":{"coordinates":[9.3028,48.825836],"type":"Point"},"properties":{"osm_id":"5501356788","tag":{"amenity":"waste_basket"}},"type":"Feature"},
	{"geometry":{"coordinates":[9.300678,48.826601],"type":"Point"},"properties":{"osm_id":"5501356789","tag":{"amenity":"waste_basket"}},"type":"Feature"},
	{"geometry":{"coordinates":[9.300187,48.826595],"type":"Point"},"properties":{"osm_id":"5501356790","tag":{"amenity":"waste_basket"}},"type":"Feature"},
	{"geometry":{"coordinates":[9.302659,48.826246],"type":"Point"},"properties":{"osm_id":"5501356791","tag":{"amenity":"waste_basket"}},"type":"Feature"},
	{"geometry":{"coordinates":[9.30026,48.826012],"type":"Point"},"properties":{"osm_id":"5501356792","tag":{"amenity":"waste_basket"}},"type":"Feature"},
	{"geometry":{"coordinates":[9.300078,48.826554],"type":"Point"},"properties":{"osm_id":"5501356793","tag":{"amenity":"waste_basket"}},"type":"Feature"},
	{"geometry":{"coordinates":[9.301937,48.826362],"type":"Point"},"properties":{"osm_id":"5501356794","tag":{"amenity":"waste_basket"}},"type":"Feature"},
	{"geometry":{"coordinates":[9.301061,48.826642],"type":"Point"},"properties":{"osm_id":"5507400364","tag":{"amenity":"waste_basket"}},"type":"Feature"},
	{"geometry":{"coordinates":[9.30113,48.826709],"type":"Point"},"properties":{"osm_id":"5507400365","tag":{"amenity":"waste_basket"}},"type":"Feature"},
	{"geometry":{"coordinates":[9.300885,48.826528],"type":"Point"},"properties":{"osm_id":"5507400371","tag":{"amenity":"waste_basket"}},"type":"Feature"},
	{"geometry":{"coordinates":[9.301421,48.826707],"type":"Point"},"properties":{"osm_id":"5507400372","tag":{"amenity":"waste_basket"}},"type":"Feature"},
	{"geometry":{"coordinates":[9.306388,48.81902],"type":"Point"},"properties":{"osm_id":"5616995847","tag":{"amenity":"waste_basket","wheelchair":"yes"}},"type":"Feature"},
	{"geometry":{"coordinates":[9.229715,48.809688],"type":"Point"},"properties":{"osm_id":"5739899977","tag":{"amenity":"waste_basket"}},"type":"Feature"},
	{"geometry":{"coordinates":[9.229123,48.807278],"type":"Point"},"properties":{"osm_id":"5858478399","tag":{"amenity":"waste_basket"}},"type":"Feature"},
	{"geometry":{"coordinates":[9.231268,48.807834],"type":"Point"},"properties":{"osm_id":"5858503534","tag":{"amenity":"waste_basket"}},"type":"Feature"},
	{"geometry":{"coordinates":[9.253154,48.809426],"type":"Point"},"properties":{"osm_id":"5860399268","tag":{"amenity":"waste_basket"}},"type":"Feature"},
	{"geometry":{"coordinates":[9.24701,48.814844],"type":"Point"},"properties":{"osm_id":"5860696977","tag":{"amenity":"waste_basket"}},"type":"Feature"},
	{"geometry":{"coordinates":[9.247067,48.814733],"type":"Point"},"properties":{"osm_id":"5860698689","tag":{"amenity":"waste_basket"}},"type":"Feature"},
	{"geometry":{"coordinates":[9.241701,48.812969],"type":"Point"},"properties":{"osm_id":"5862909046","tag":{"amenity":"waste_basket"}},"type":"Feature"},
	{"geometry":{"coordinates":[9.251575,48.816062],"type":"Point"},"properties":{"osm_id":"5862968662","tag":{"amenity":"waste_basket"}},"type":"Feature"},
	{"geometry":{"coordinates":[9.244802,48.818092],"type":"Point"},"properties":{"osm_id":"5863613344","tag":{"amenity":"waste_basket"}},"type":"Feature"},
	{"geometry":{"coordinates":[9.245047,48.818156],"type":"Point"},"properties":{"osm_id":"5863613348","tag":{"amenity":"waste_basket"}},"type":"Feature"},
	{"geometry":{"coordinates":[9.245329,48.817369],"type":"Point"},"properties":{"osm_id":"5863613372","tag":{"amenity":"waste_basket"}},"type":"Feature"},
	{"geometry":{"coordinates":[9.247054,48.815177],"type":"Point"},"properties":{"osm_id":"5863656955","tag":{"amenity":"recycling","operator":"Stadt Stuttgart","recycling:clothes":"yes","recycling:shoes":"yes","recycling_type":"container"}},"type":"Feature"},
	{"geometry":{"coordinates":[9.246853,48.815164],"type":"Point"},"properties":{"osm_id":"5863656956","tag":{"amenity":"waste_basket"}},"type":"Feature"},
	{"geometry":{"coordinates":[9.246843,48.815162],"type":"Point"},"properties":{"osm_id":"5863656957","tag":{"amenity":"waste_basket"}},"type":"Feature"},
	{"geometry":{"coordinates":[9.234757,48.811994],"type":"Point"},"properties":{"osm_id":"5864414190","tag":{"amenity":"waste_basket"}},"type":"Feature"},
	{"geometry":{"coordinates":[9.315029,48.817138],"type":"Point"},"properties":{"osm_id":"5909697856","tag":{"amenity":"waste_basket"}},"type":"Feature"},
	{"geometry":{"coordinates":[9.228885,48.809577],"type":"Point"},"properties":{"osm_id":"5948874829","tag":{"amenity":"waste_basket"}},"type":"Feature"},
	{"geometry":{"coordinates":[9.228647,48.809475],"type":"Point"},"properties":{"osm_id":"5948874850","tag":{"amenity":"waste_basket"}},"type":"Feature"},
	{"geometry":{"coordinates":[9.229251,48.809705],"type":"Point"},"properties":{"osm_id":"5948887476","tag":{"amenity":"waste_basket"}},"type":"Feature"},
	{"geometry":{"coordinates":[9.232174,48.809145],"type":"Point"},"properties":{"osm_id":"5949135925","tag":{"amenity":"waste_basket"}},"type":"Feature"},
	{"geometry":{"coordinates":[9.249846,48.807557],"type":"Point"},"properties":{"osm_id":"5981149908","tag":{"amenity":"waste_basket"}},"type":"Feature"},
	{"geometry":{"coordinates":[9.26512,48.813649],"type":"Point"},"properties":{"osm_id":"5981559572","tag":{"amenity":"recycling","description":"Container f\u00c3\u00bcr Altkleider","recycling:clothes":"yes","recycling_type":"container"}},"type":"Feature"},
	{"geometry":{"coordinates":[9.265147,48.813532],"type":"Point"},"properties":{"osm_id":"5981559573","tag":{"amenity":"recycling","description":"Container f\u00c3\u00bcr Altkleider und Schuhe","recycling:clothes":"yes","recycling_type":"container"}},"type":"Feature"},
	{"geometry":{"coordinates":[9.231518,48.84199],"type":"Point"},"properties":{"osm_id":"5985054029","tag":{"amenity":"waste_basket"}},"type":"Feature"},
	{"geometry":{"coordinates":[9.230641,48.84135],"type":"Point"},"properties":{"osm_id":"5985174587","tag":{"amenity":"waste_basket"}},"type":"Feature"},
	{"geometry":{"coordinates":[9.255145,48.826055],"type":"Point"},"properties":{"osm_id":"5995322144","tag":{"amenity":"waste_basket"}},"type":"Feature"},
	{"geometry":{"coordinates":[9.255271,48.847228],"type":"Point"},"properties":{"osm_id":"5997148970","tag":{"amenity":"waste_basket"}},"type":"Feature"},
	{"geometry":{"coordinates":[9.254392,48.846895],"type":"Point"},"properties":{"osm_id":"5997158402","tag":{"amenity":"waste_basket"}},"type":"Feature"},
	{"geometry":{"coordinates":[9.253702,48.845145],"type":"Point"},"properties":{"osm_id":"5997169062","tag":{"amenity":"waste_basket"}},"type":"Feature"},
	{"geometry":{"coordinates":[9.258052,48.843159],"type":"Point"},"properties":{"osm_id":"5997413844","tag":{"amenity":"waste_basket"}},"type":"Feature"},
	{"geometry":{"coordinates":[9.258245,48.843514],"type":"Point"},"properties":{"osm_id":"5997413846","tag":{"amenity":"waste_basket"}},"type":"Feature"},
	{"geometry":{"coordinates":[9.262335,48.842665],"type":"Point"},"properties":{"osm_id":"5997827211","tag":{"amenity":"waste_basket"}},"type":"Feature"},
	{"geometry":{"coordinates":[9.265332,48.843698],"type":"Point"},"properties":{"osm_id":"5998070781","tag":{"amenity":"waste_basket"}},"type":"Feature"},
	{"geometry":{"coordinates":[9.26844,48.841333],"type":"Point"},"properties":{"osm_id":"5998966231","tag":{"amenity":"waste_basket"}},"type":"Feature"},
	{"geometry":{"coordinates":[9.263721,48.834204],"type":"Point"},"properties":{"osm_id":"6003504721","tag":{"amenity":"waste_basket"}},"type":"Feature"},
	{"geometry":{"coordinates":[9.260413,48.83868],"type":"Point"},"properties":{"osm_id":"6004313220","tag":{"amenity":"waste_basket"}},"type":"Feature"},
	{"geometry":{"coordinates":[9.259423,48.839931],"type":"Point"},"properties":{"osm_id":"6004313232","tag":{"amenity":"waste_basket"}},"type":"Feature"},
	{"geometry":{"coordinates":[9.259259,48.840057],"type":"Point"},"properties":{"osm_id":"6004313233","tag":{"amenity":"waste_basket"}},"type":"Feature"},
	{"geometry":{"coordinates":[9.260052,48.837032],"type":"Point"},"properties":{"osm_id":"6004484534","tag":{"amenity":"waste_basket"}},"type":"Feature"},
	{"geometry":{"coordinates":[9.263414,48.832211],"type":"Point"},"properties":{"osm_id":"6005878926","tag":{"amenity":"waste_basket"}},"type":"Feature"},
	{"geometry":{"coordinates":[9.266816,48.828031],"type":"Point"},"properties":{"osm_id":"6006644497","tag":{"amenity":"waste_basket"}},"type":"Feature"},
	{"geometry":{"coordinates":[9.273539,48.816293],"type":"Point"},"properties":{"osm_id":"6009259163","tag":{"amenity":"waste_basket"}},"type":"Feature"},
	{"geometry":{"coordinates":[9.273207,48.816772],"type":"Point"},"properties":{"osm_id":"6009259175","tag":{"amenity":"waste_basket"}},"type":"Feature"},
	{"geometry":{"coordinates":[9.247093,48.815179],"type":"Point"},"properties":{"osm_id":"6009997894","tag":{"amenity":"waste_basket"}},"type":"Feature"},
	{"geometry":{"coordinates":[9.267991,48.807827],"type":"Point"},"properties":{"osm_id":"6092885017","tag":{"amenity":"waste_basket"}},"type":"Feature"},
	{"geometry":{"coordinates":[9.249608,48.831752],"type":"Point"},"properties":{"osm_id":"6094857097","tag":{"amenity":"waste_basket"}},"type":"Feature"},
	{"geometry":{"coordinates":[9.240255,48.828773],"type":"Point"},"properties":{"osm_id":"6094867703","tag":{"amenity":"waste_basket"}},"type":"Feature"},
	{"geometry":{"coordinates":[9.231563,48.829251],"type":"Point"},"properties":{"osm_id":"6094890396","tag":{"amenity":"waste_basket"}},"type":"Feature"},
	{"geometry":{"coordinates":[9.229155,48.833522],"type":"Point"},"properties":{"osm_id":"6100130590","tag":{"amenity":"waste_basket"}},"type":"Feature"},
	{"geometry":{"coordinates":[9.251114,48.835621],"type":"Point"},"properties":{"osm_id":"6100207786","tag":{"amenity":"waste_basket"}},"type":"Feature"},
	{"geometry":{"coordinates":[9.251051,48.835246],"type":"Point"},"properties":{"osm_id":"6100207787","tag":{"amenity":"waste_basket"}},"type":"Feature"},
	{"geometry":{"coordinates":[9.265785,48.813772],"type":"Point"},"properties":{"osm_id":"6424297278","tag":{"amenity":"recycling","description":"Container f\u00c3\u00bcr Altkleider","recycling:clothes":"yes","recycling_type":"container"}},"type":"Feature"},
	{"geometry":{"coordinates":[9.312942,48.852646],"type":"Point"},"properties":{"osm_id":"6450312490","tag":{"amenity":"waste_basket"}},"type":"Feature"},
	{"geometry":{"coordinates":[9.304971,48.834517],"type":"Point"},"properties":{"osm_id":"6476375555","tag":{"amenity":"waste_basket"}},"type":"Feature"},
	{"geometry":{"coordinates":[9.30984,48.851298],"type":"Point"},"properties":{"osm_id":"6476375557","tag":{"amenity":"waste_basket"}},"type":"Feature"},
	{"geometry":{"coordinates":[9.304357,48.832779],"type":"Point"},"properties":{"osm_id":"6476375559","tag":{"amenity":"waste_basket"}},"type":"Feature"},
	{"geometry":{"coordinates":[9.309108,48.842539],"type":"Point"},"properties":{"osm_id":"6476375560","tag":{"amenity":"waste_basket"}},"type":"Feature"},
	{"geometry":{"coordinates":[9.304276,48.830666],"type":"Point"},"properties":{"osm_id":"6476375562","tag":{"amenity":"waste_basket"}},"type":"Feature"},
	{"geometry":{"coordinates":[9.305368,48.83629],"type":"Point"},"properties":{"osm_id":"6476375563","tag":{"amenity":"recycling","recycling:glass_bottles":"yes","recycling:paper":"yes","recycling_type":"container"}},"type":"Feature"},
	{"geometry":{"coordinates":[9.305427,48.835319],"type":"Point"},"properties":{"osm_id":"6476375565","tag":{"amenity":"waste_basket"}},"type":"Feature"},
	{"geometry":{"coordinates":[9.310568,48.843438],"type":"Point"},"properties":{"osm_id":"6476375568","tag":{"amenity":"waste_basket"}},"type":"Feature"},
	{"geometry":{"coordinates":[9.304234,48.831274],"type":"Point"},"properties":{"osm_id":"6476375572","tag":{"amenity":"waste_basket"}},"type":"Feature"},
	{"geometry":{"coordinates":[9.307341,48.840827],"type":"Point"},"properties":{"osm_id":"6476375582","tag":{"amenity":"waste_basket"}},"type":"Feature"},
	{"geometry":{"coordinates":[9.311311,48.817081],"type":"Point"},"properties":{"osm_id":"6521061353","tag":{"amenity":"waste_basket"}},"type":"Feature"},
	{"geometry":{"coordinates":[9.305661,48.852716],"type":"Point"},"properties":{"osm_id":"6553718740","tag":{"amenity":"waste_basket"}},"type":"Feature"},
	{"geometry":{"coordinates":[9.237001,48.819855],"type":"Point"},"properties":{"osm_id":"6585854942","tag":{"amenity":"waste_basket"}},"type":"Feature"},
	{"geometry":{"coordinates":[9.237163,48.819047],"type":"Point"},"properties":{"osm_id":"6585854952","tag":{"amenity":"waste_basket"}},"type":"Feature"},
	{"geometry":{"coordinates":[9.237172,48.819048],"type":"Point"},"properties":{"osm_id":"6585854953","tag":{"amenity":"waste_basket"}},"type":"Feature"},
	{"geometry":{"coordinates":[9.237209,48.81889],"type":"Point"},"properties":{"osm_id":"6585854956","tag":{"amenity":"waste_basket"}},"type":"Feature"},
	{"geometry":{"coordinates":[9.238388,48.819735],"type":"Point"},"properties":{"osm_id":"6585869795","tag":{"amenity":"waste_basket"}},"type":"Feature"},
	{"geometry":{"coordinates":[9.240284,48.828789],"type":"Point"},"properties":{"osm_id":"6586043735","tag":{"amenity":"waste_basket"}},"type":"Feature"},
	{"geometry":{"coordinates":[9.239041,48.82958],"type":"Point"},"properties":{"osm_id":"6586093679","tag":{"amenity":"waste_basket"}},"type":"Feature"},
	{"geometry":{"coordinates":[9.243423,48.834949],"type":"Point"},"properties":{"osm_id":"6586107982","tag":{"amenity":"waste_basket"}},"type":"Feature"},
	{"geometry":{"coordinates":[9.239387,48.829345],"type":"Point"},"properties":{"osm_id":"6586118988","tag":{"amenity":"waste_basket"}},"type":"Feature"},
	{"geometry":{"coordinates":[9.240167,48.82935],"type":"Point"},"properties":{"osm_id":"6586118994","tag":{"amenity":"waste_basket"}},"type":"Feature"},
	{"geometry":{"coordinates":[9.269929,48.819976],"type":"Point"},"properties":{"osm_id":"6594174505","tag":{"amenity":"waste_basket"}},"type":"Feature"},
	{"geometry":{"coordinates":[9.299095,48.860843],"type":"Point"},"properties":{"osm_id":"6815161440","tag":{"amenity":"waste_basket"}},"type":"Feature"},
	{"geometry":{"coordinates":[9.299102,48.860818],"type":"Point"},"properties":{"osm_id":"6815193291","tag":{"amenity":"waste_basket"}},"type":"Feature"},
	{"geometry":{"coordinates":[9.298331,48.857765],"type":"Point"},"properties":{"osm_id":"6815193757","tag":{"amenity":"waste_basket"}},"type":"Feature"},
	{"geometry":{"coordinates":[9.23042,48.815977],"type":"Point"},"properties":{"osm_id":"6935050263","tag":{"amenity":"waste_basket"}},"type":"Feature"},
	{"geometry":{"coordinates":[9.27116,48.809155],"type":"Point"},"properties":{"osm_id":"6935378223","tag":{"amenity":"waste_basket"}},"type":"Feature"},
	{"geometry":{"coordinates":[9.232121,48.841239],"type":"Point"},"properties":{"osm_id":"6957928833","tag":{"amenity":"waste_basket"}},"type":"Feature"},
	{"geometry":{"coordinates":[9.230765,48.842027],"type":"Point"},"properties":{"osm_id":"6958004622","tag":{"amenity":"waste_basket"}},"type":"Feature"},
	{"geometry":{"coordinates":[9.247275,48.83567],"type":"Point"},"properties":{"osm_id":"6969396074","tag":{"amenity":"waste_basket"}},"type":"Feature"},
	{"geometry":{"coordinates":[9.250368,48.835461],"type":"Point"},"properties":{"osm_id":"6969409805","tag":{"amenity":"waste_basket"}},"type":"Feature"},
	{"geometry":{"coordinates":[9.293872,48.855971],"type":"Point"},"properties":{"osm_id":"7096023179","tag":{"amenity":"waste_basket"}},"type":"Feature"},
	{"geometry":{"coordinates":[9.306071,48.855294],"type":"Point"},"properties":{"osm_id":"7096023181","tag":{"amenity":"waste_basket"}},"type":"Feature"},
	{"geometry":{"coordinates":[9.310101,48.859946],"type":"Point"},"properties":{"osm_id":"7096023183","tag":{"amenity":"waste_basket"}},"type":"Feature"},
	{"geometry":{"coordinates":[9.288427,48.856072],"type":"Point"},"properties":{"osm_id":"7096052989","tag":{"amenity":"waste_basket"}},"type":"Feature"},
	{"geometry":{"coordinates":[9.25438,48.850965],"type":"Point"},"properties":{"osm_id":"7096052990","tag":{"amenity":"waste_basket"}},"type":"Feature"},
	{"geometry":{"coordinates":[9.302864,48.856246],"type":"Point"},"properties":{"osm_id":"7096052991","tag":{"amenity":"waste_basket"}},"type":"Feature"},
	{"geometry":{"coordinates":[9.259564,48.851471],"type":"Point"},"properties":{"osm_id":"7096052992","tag":{"amenity":"waste_basket"}},"type":"Feature"},
	{"geometry":{"coordinates":[9.267135,48.8556],"type":"Point"},"properties":{"osm_id":"7096052994","tag":{"amenity":"waste_basket"}},"type":"Feature"},
	{"geometry":{"coordinates":[9.282778,48.843421],"type":"Point"},"properties":{"osm_id":"7158862432","tag":{"amenity":"waste_basket"}},"type":"Feature"},
	{"geometry":{"coordinates":[9.314956,48.830555],"type":"Point"},"properties":{"osm_id":"7553558810","tag":{"amenity":"waste_basket","waste":"trash"}},"type":"Feature"},
	{"geometry":{"coordinates":[9.294039,48.855787],"type":"Point"},"properties":{"osm_id":"7668798686","tag":{"amenity":"waste_basket"}},"type":"Feature"},
	{"geometry":{"coordinates":[9.29798,48.857596],"type":"Point"},"properties":{"osm_id":"7707799161","tag":{"amenity":"waste_basket"}},"type":"Feature"},
	{"geometry":{"coordinates":[9.298198,48.854208],"type":"Point"},"properties":{"osm_id":"7714589116","tag":{"amenity":"recycling","operator":"Malteser Hilfsdienst e.V.","recycling:clothes":"yes","recycling_type":"container"}},"type":"Feature"}
]
}
