{
"type": "FeatureCollection",
"features": [
	{"geometry":{"coordinates":[9.307501,48.752456],"type":"Point"},"properties":{"osm_id":"274917339","tag":{"amenity":"recycling","recycling:glass":"yes"}},"type":"Feature"},
	{"geometry":{"coordinates":[9.309043,48.752793],"type":"Point"},"properties":{"osm_id":"274917340","tag":{"amenity":"recycling","recycling:clothes":"yes"}},"type":"Feature"},
	{"geometry":{"coordinates":[9.272287,48.801229],"type":"Point"},"properties":{"osm_id":"275654172","tag":{"amenity":"recycling","recycling:clothes":"no","recycling:glass_bottles":"yes","recycling:paper":"yes","recycling_type":"container"}},"type":"Feature"},
	{"geometry":{"coordinates":[9.278669,48.775692],"type":"Point"},"properties":{"osm_id":"278558115","tag":{"amenity":"recycling","recycling:clothes":"yes","recycling:glass":"no","recycling:glass_bottles":"yes","recycling_type":"container"}},"type":"Feature"},
	{"geometry":{"coordinates":[9.263672,48.749426],"type":"Point"},"properties":{"name":"Wertstoffhof Hedelfingen","osm_id":"282255781","tag":{"addr:city":"Stuttgart","addr:country":"DE","addr:housenumber":"50","addr:postcode":"70329","addr:street":"Ein\u00c3\u00b6dstra\u00c3\u009fe","amenity":"recycling","recycling:aluminium":"yes","recycling:batteries":"yes","recycling:bicycles":"yes","recycling:cardboard":"yes","recycling:cork":"yes","recycling:engine_oil":"no","recycling:fluorescent_tubes":"yes","recycling:glass":"yes","recycling:green_waste":"yes","recycling:magazines":"yes","recycling:music":"yes","recycling:newspaper":"yes","recycling:paper":"yes","recycling:printer_cartridges":"yes","recycling:scrap_metal":"yes","recycling:sheet_metal":"yes","recycling:small_appliances":"yes","recycling:small_electrical_appliances":"yes","recycling:tyres":"no","recycling:waste_oil":"no","recycling:white_goods":"yes","recycling_type":"centre","website":"https://www.stuttgart.de/item/show/189058/1/dept/136191"}},"type":"Feature"},
	{"geometry":{"coordinates":[9.242208,48.751927],"type":"Point"},"properties":{"osm_id":"286582327","tag":{"addr:city":"Stuttgart","addr:country":"DE","addr:postcode":"70619","amenity":"recycling","recycling:clothes":"yes","recycling:glass_bottles":"yes","recycling:shoes":"yes","recycling_type":"container"}},"type":"Feature"},
	{"geometry":{"coordinates":[9.228763,48.75641],"type":"Point"},"properties":{"osm_id":"301832995","tag":{"amenity":"recycling","recycling:glass":"yes"}},"type":"Feature"},
	{"geometry":{"coordinates":[9.249912,48.756503],"type":"Point"},"properties":{"osm_id":"302690303","tag":{"addr:city":"Stuttgart","addr:country":"DE","addr:postcode":"70329","addr:street":"Heumadener Stra\u00c3\u009fe","amenity":"recycling","recycling:glass":"yes","recycling:glass_bottles":"yes","recycling_type":"container"}},"type":"Feature"},
	{"geometry":{"coordinates":[9.256177,48.758783],"type":"Point"},"properties":{"osm_id":"302692819","tag":{"addr:city":"Stuttgart","addr:country":"DE","addr:postcode":"70329","addr:street":"Friedrichshafener Stra\u00c3\u009fe","amenity":"recycling","recycling:clothes":"yes","recycling:glass_bottles":"yes","recycling_type":"container"}},"type":"Feature"},
	{"geometry":{"coordinates":[9.235421,48.800199],"type":"Point"},"properties":{"osm_id":"319144181","tag":{"amenity":"recycling","recycling:glass":"yes","recycling:paper":"yes"}},"type":"Feature"},
	{"geometry":{"coordinates":[9.235978,48.80049],"type":"Point"},"properties":{"osm_id":"319144182","tag":{"amenity":"recycling","recycling:clothes":"yes"}},"type":"Feature"},
	{"geometry":{"coordinates":[9.285437,48.767723],"type":"Point"},"properties":{"osm_id":"418788974","tag":{"amenity":"recycling","recycling:glass":"yes"}},"type":"Feature"},
	{"geometry":{"coordinates":[9.258807,48.755179],"type":"Point"},"properties":{"osm_id":"685171417","tag":{"addr:city":"Stuttgart","addr:country":"DE","addr:postcode":"70329","addr:street":"Amstetter Stra\u00c3\u009fe","amenity":"recycling","recycling:clothes":"yes","recycling:glass_bottles":"yes","recycling_type":"container"}},"type":"Feature"},
	{"geometry":{"coordinates":[9.250056,48.785171],"type":"Point"},"properties":{"osm_id":"692261562","tag":{"amenity":"recycling","recycling:clothes":"fixme","recycling:glass":"yes","recycling:paper":"no","recycling:shoes":"yes"}},"type":"Feature"},
	{"geometry":{"coordinates":[9.260485,48.786308],"type":"Point"},"properties":{"osm_id":"704755030","tag":{"amenity":"recycling","recycling:glass":"yes","recycling_type":"container"}},"type":"Feature"},
	{"geometry":{"coordinates":[9.251528,48.755991],"type":"Point"},"properties":{"osm_id":"720592994","tag":{"amenity":"waste_basket"}},"type":"Feature"},
	{"geometry":{"coordinates":[9.250203,48.756633],"type":"Point"},"properties":{"osm_id":"767249598","tag":{"amenity":"waste_basket"}},"type":"Feature"},
	{"geometry":{"coordinates":[9.248596,48.776571],"type":"Point"},"properties":{"osm_id":"849898344","tag":{"amenity":"recycling","recycling:glass":"yes","recycling_type":"container"}},"type":"Feature"},
	{"geometry":{"coordinates":[9.264059,48.771397],"type":"Point"},"properties":{"osm_id":"956872197","tag":{"amenity":"recycling"}},"type":"Feature"},
	{"geometry":{"coordinates":[9.247699,48.768607],"type":"Point"},"properties":{"osm_id":"1037107404","tag":{"crossing:barrier":"no","railway":"level_crossing"}},"type":"Feature"},
	{"geometry":{"coordinates":[9.247728,48.768635],"type":"Point"},"properties":{"osm_id":"1037107407","tag":{"crossing:barrier":"no","railway":"level_crossing"}},"type":"Feature"},
	{"geometry":{"coordinates":[9.256329,48.757108],"type":"Point"},"properties":{"osm_id":"1057781528","tag":{"amenity":"recycling","recycling:clothes":"yes","recycling_type":"container"}},"type":"Feature"},
	{"geometry":{"coordinates":[9.255424,48.792525],"type":"Point"},"properties":{"osm_id":"1153845409","tag":{"amenity":"recycling","recycling:clothes":"yes","recycling:glass":"yes","recycling_type":"container"}},"type":"Feature"},
	{"geometry":{"coordinates":[9.267198,48.786919],"type":"Point"},"properties":{"osm_id":"1153845426","tag":{"amenity":"recycling","mapillary":"n66DoL0-es2F_0ZoLqDQMg","recycling:glass":"no","recycling:glass_bottles":"yes","recycling_type":"container","survey:date":"2020-04-22"}},"type":"Feature"},
	{"geometry":{"coordinates":[9.264776,48.788219],"type":"Point"},"properties":{"osm_id":"1300231721","tag":{"amenity":"waste_basket"}},"type":"Feature"},
	{"geometry":{"coordinates":[9.262599,48.787099],"type":"Point"},"properties":{"osm_id":"1300231724","tag":{"amenity":"waste_basket"}},"type":"Feature"},
	{"geometry":{"coordinates":[9.25222,48.757384],"type":"Point"},"properties":{"osm_id":"1369310733","tag":{"amenity":"waste_basket"}},"type":"Feature"},
	{"geometry":{"coordinates":[9.251237,48.756915],"type":"Point"},"properties":{"osm_id":"1369312265","tag":{"amenity":"waste_basket"}},"type":"Feature"},
	{"geometry":{"coordinates":[9.255265,48.758408],"type":"Point"},"properties":{"osm_id":"1369313261","tag":{"amenity":"waste_basket"}},"type":"Feature"},
	{"geometry":{"coordinates":[9.255326,48.758447],"type":"Point"},"properties":{"osm_id":"1369313890","tag":{"amenity":"waste_basket"}},"type":"Feature"},
	{"geometry":{"coordinates":[9.256233,48.758779],"type":"Point"},"properties":{"osm_id":"1369314992","tag":{"amenity":"waste_basket"}},"type":"Feature"},
	{"geometry":{"coordinates":[9.25596,48.758629],"type":"Point"},"properties":{"osm_id":"1369314993","tag":{"amenity":"waste_basket"}},"type":"Feature"},
	{"geometry":{"coordinates":[9.250472,48.755407],"type":"Point"},"properties":{"osm_id":"1371206574","tag":{"amenity":"waste_basket","colour":"black","material":"metal","payment:none":"yes","waste":"trash;dog_excrement"}},"type":"Feature"},
	{"geometry":{"coordinates":[9.271809,48.765045],"type":"Point"},"properties":{"osm_id":"1403970433","tag":{"amenity":"recycling","recycling:glass":"yes","recycling:glass_bottles":"yes","recycling_type":"container"}},"type":"Feature"},
	{"geometry":{"coordinates":[9.286693,48.804453],"type":"Point"},"properties":{"osm_id":"1503953297","tag":{"amenity":"waste_basket"}},"type":"Feature"},
	{"geometry":{"coordinates":[9.287251,48.805071],"type":"Point"},"properties":{"osm_id":"1503953318","tag":{"amenity":"waste_basket"}},"type":"Feature"},
	{"geometry":{"coordinates":[9.233652,48.805876],"type":"Point"},"properties":{"osm_id":"1521793844","tag":{"amenity":"recycling","recycling:batteries":"no","recycling:cans":"no","recycling:glass_bottles":"yes","recycling:paper":"no","recycling:scrap_metal":"no","recycling_type":"container"}},"type":"Feature"},
	{"geometry":{"coordinates":[9.253111,48.762627],"type":"Point"},"properties":{"osm_id":"1576518016","tag":{"amenity":"recycling","recycling:plastic_bottles":"yes","recycling_type":"container"}},"type":"Feature"},
	{"geometry":{"coordinates":[9.256092,48.777075],"type":"Point"},"properties":{"osm_id":"1667767030","tag":{"amenity":"waste_basket"}},"type":"Feature"},
	{"geometry":{"coordinates":[9.256256,48.777326],"type":"Point"},"properties":{"osm_id":"1667767042","tag":{"amenity":"waste_basket"}},"type":"Feature"},
	{"geometry":{"coordinates":[9.244133,48.768805],"type":"Point"},"properties":{"osm_id":"1671549607","tag":{"amenity":"waste_basket"}},"type":"Feature"},
	{"geometry":{"coordinates":[9.236527,48.758429],"type":"Point"},"properties":{"osm_id":"1672168677","tag":{"amenity":"recycling","recycling:glass_bottles":"yes","recycling_type":"container"}},"type":"Feature"},
	{"geometry":{"coordinates":[9.236437,48.758399],"type":"Point"},"properties":{"osm_id":"1672767948","tag":{"amenity":"waste_basket"}},"type":"Feature"},
	{"geometry":{"coordinates":[9.236239,48.806599],"type":"Point"},"properties":{"osm_id":"1693494653","tag":{"amenity":"waste_basket"}},"type":"Feature"},
	{"geometry":{"coordinates":[9.234009,48.806682],"type":"Point"},"properties":{"osm_id":"1779123838","tag":{"amenity":"waste_basket"}},"type":"Feature"},
	{"geometry":{"coordinates":[9.313463,48.756964],"type":"Point"},"properties":{"osm_id":"1802931357","tag":{"amenity":"recycling","recycling:clothes":"yes","recycling:glass":"yes","recycling_type":"container"}},"type":"Feature"},
	{"geometry":{"coordinates":[9.255836,48.756763],"type":"Point"},"properties":{"osm_id":"1828856795","tag":{"amenity":"waste_basket"}},"type":"Feature"},
	{"geometry":{"coordinates":[9.267905,48.762668],"type":"Point"},"properties":{"osm_id":"1892867418","tag":{"amenity":"recycling","recycling:clothes":"yes","recycling_type":"container"}},"type":"Feature"},
	{"geometry":{"coordinates":[9.24703,48.778783],"type":"Point"},"properties":{"osm_id":"1892867422","tag":{"amenity":"recycling","recycling:glass":"yes","recycling_type":"container"}},"type":"Feature"},
	{"geometry":{"coordinates":[9.232533,48.777502],"type":"Point"},"properties":{"osm_id":"2082990383","tag":{"amenity":"recycling","recycling:glass":"yes","recycling_type":"container"}},"type":"Feature"},
	{"geometry":{"coordinates":[9.24219,48.773006],"type":"Point"},"properties":{"osm_id":"2083004732","tag":{"amenity":"recycling","recycling:glass":"yes","recycling_type":"container"}},"type":"Feature"},
	{"geometry":{"coordinates":[9.240043,48.774223],"type":"Point"},"properties":{"osm_id":"2083004754","tag":{"amenity":"waste_basket"}},"type":"Feature"},
	{"geometry":{"coordinates":[9.24444,48.772136],"type":"Point"},"properties":{"osm_id":"2083030654","tag":{"amenity":"waste_basket"}},"type":"Feature"},
	{"geometry":{"coordinates":[9.2452,48.771514],"type":"Point"},"properties":{"osm_id":"2083067145","tag":{"amenity":"waste_basket"}},"type":"Feature"},
	{"geometry":{"coordinates":[9.243018,48.772435],"type":"Point"},"properties":{"osm_id":"2083967347","tag":{"amenity":"waste_basket"}},"type":"Feature"},
	{"geometry":{"coordinates":[9.255013,48.758235],"type":"Point"},"properties":{"osm_id":"2118009430","tag":{"amenity":"recycling","recycling:cds":"yes","recycling:dvds":"yes","recycling:mobile_phones":"yes","recycling_type":"container"}},"type":"Feature"},
	{"geometry":{"coordinates":[9.256031,48.757946],"type":"Point"},"properties":{"osm_id":"2161990610","tag":{"amenity":"waste_basket"}},"type":"Feature"},
	{"geometry":{"coordinates":[9.234354,48.806176],"type":"Point"},"properties":{"osm_id":"2166912434","tag":{"amenity":"waste_basket"}},"type":"Feature"},
	{"geometry":{"coordinates":[9.283195,48.806234],"type":"Point"},"properties":{"osm_id":"2185668633","tag":{"amenity":"recycling","recycling:cartons":"no","recycling:glass":"yes","recycling:newspaper":"yes","recycling:paper":"yes","recycling:paper_packaging":"yes","recycling_type":"container"}},"type":"Feature"},
	{"geometry":{"coordinates":[9.254648,48.758303],"type":"Point"},"properties":{"osm_id":"2191176229","tag":{"amenity":"waste_basket"}},"type":"Feature"},
	{"geometry":{"coordinates":[9.287202,48.805146],"type":"Point"},"properties":{"osm_id":"2209769102","tag":{"amenity":"recycling","recycling:glass":"yes","recycling:paper":"yes","recycling_type":"container"}},"type":"Feature"},
	{"geometry":{"coordinates":[9.233817,48.802731],"type":"Point"},"properties":{"osm_id":"2254571178","tag":{"amenity":"recycling","recycling:batteries":"no","recycling:cans":"no","recycling:clothes":"yes","recycling:glass":"no","recycling:paper":"no","recycling:scrap_metal":"no","recycling_type":"container"}},"type":"Feature"},
	{"geometry":{"coordinates":[9.277908,48.795966],"type":"Point"},"properties":{"osm_id":"2265976347","tag":{"amenity":"waste_basket"}},"type":"Feature"},
	{"geometry":{"coordinates":[9.281772,48.79813],"type":"Point"},"properties":{"osm_id":"2265976351","tag":{"amenity":"waste_basket"}},"type":"Feature"},
	{"geometry":{"coordinates":[9.28301,48.799748],"type":"Point"},"properties":{"osm_id":"2265976366","tag":{"amenity":"waste_basket"}},"type":"Feature"},
	{"geometry":{"coordinates":[9.268978,48.761717],"type":"Point"},"properties":{"name":"Altglascontainer","osm_id":"2266890380","tag":{"amenity":"recycling","recycling:clothes":"yes","recycling:glass":"yes","recycling_type":"container"}},"type":"Feature"},
	{"geometry":{"coordinates":[9.268901,48.761866],"type":"Point"},"properties":{"osm_id":"2266890381","tag":{"amenity":"waste_basket"}},"type":"Feature"},
	{"geometry":{"coordinates":[9.286688,48.784669],"type":"Point"},"properties":{"osm_id":"2367375247","tag":{"amenity":"waste_basket"}},"type":"Feature"},
	{"geometry":{"coordinates":[9.295566,48.788831],"type":"Point"},"properties":{"osm_id":"2367375260","tag":{"amenity":"waste_basket"}},"type":"Feature"},
	{"geometry":{"coordinates":[9.288351,48.793072],"type":"Point"},"properties":{"osm_id":"2367375263","tag":{"amenity":"waste_basket"}},"type":"Feature"},
	{"geometry":{"coordinates":[9.285031,48.798009],"type":"Point"},"properties":{"osm_id":"2367375267","tag":{"amenity":"waste_basket"}},"type":"Feature"},
	{"geometry":{"coordinates":[9.253287,48.780746],"type":"Point"},"properties":{"osm_id":"2452017112","tag":{"amenity":"waste_basket"}},"type":"Feature"},
	{"geometry":{"coordinates":[9.254954,48.778252],"type":"Point"},"properties":{"osm_id":"2452037108","tag":{"amenity":"waste_basket"}},"type":"Feature"},
	{"geometry":{"coordinates":[9.230243,48.805664],"type":"Point"},"properties":{"osm_id":"2452114801","tag":{"amenity":"waste_basket"}},"type":"Feature"},
	{"geometry":{"coordinates":[9.254915,48.781012],"type":"Point"},"properties":{"osm_id":"2669753495","tag":{"amenity":"recycling","recycling:glass":"yes","recycling_type":"container"}},"type":"Feature"},
	{"geometry":{"coordinates":[9.253845,48.782939],"type":"Point"},"properties":{"osm_id":"2669791763","tag":{"amenity":"waste_basket"}},"type":"Feature"},
	{"geometry":{"coordinates":[9.251507,48.780052],"type":"Point"},"properties":{"osm_id":"2675508484","tag":{"amenity":"waste_basket"}},"type":"Feature"},
	{"geometry":{"coordinates":[9.25129,48.77995],"type":"Point"},"properties":{"osm_id":"2675508487","tag":{"amenity":"waste_basket"}},"type":"Feature"},
	{"geometry":{"coordinates":[9.251943,48.782119],"type":"Point"},"properties":{"osm_id":"2675576537","tag":{"amenity":"waste_basket"}},"type":"Feature"},
	{"geometry":{"coordinates":[9.252736,48.785195],"type":"Point"},"properties":{"osm_id":"2675730493","tag":{"amenity":"waste_basket"}},"type":"Feature"},
	{"geometry":{"coordinates":[9.250583,48.785631],"type":"Point"},"properties":{"osm_id":"2675730530","tag":{"amenity":"waste_basket"}},"type":"Feature"},
	{"geometry":{"coordinates":[9.255113,48.777964],"type":"Point"},"properties":{"osm_id":"2676181767","tag":{"amenity":"waste_basket"}},"type":"Feature"},
	{"geometry":{"coordinates":[9.251434,48.784895],"type":"Point"},"properties":{"osm_id":"2678950811","tag":{"amenity":"waste_basket"}},"type":"Feature"},
	{"geometry":{"coordinates":[9.253743,48.782028],"type":"Point"},"properties":{"osm_id":"2679283673","tag":{"amenity":"waste_basket"}},"type":"Feature"},
	{"geometry":{"coordinates":[9.254835,48.780929],"type":"Point"},"properties":{"osm_id":"2681322805","tag":{"amenity":"waste_basket"}},"type":"Feature"},
	{"geometry":{"coordinates":[9.254613,48.780777],"type":"Point"},"properties":{"osm_id":"2681322814","tag":{"amenity":"waste_basket"}},"type":"Feature"},
	{"geometry":{"coordinates":[9.268681,48.802425],"type":"Point"},"properties":{"osm_id":"2723369156","tag":{"amenity":"recycling","recycling:clothes":"no","recycling:glass_bottles":"yes","recycling:paper":"yes","recycling_type":"container"}},"type":"Feature"},
	{"geometry":{"coordinates":[9.251485,48.757328],"type":"Point"},"properties":{"osm_id":"2824585068","tag":{"amenity":"waste_basket"}},"type":"Feature"},
	{"geometry":{"coordinates":[9.287471,48.802482],"type":"Point"},"properties":{"osm_id":"2861680900","tag":{"amenity":"waste_basket"}},"type":"Feature"},
	{"geometry":{"coordinates":[9.249416,48.759603],"type":"Point"},"properties":{"osm_id":"2883954985","tag":{"amenity":"waste_basket"}},"type":"Feature"},
	{"geometry":{"coordinates":[9.255605,48.801198],"type":"Point"},"properties":{"osm_id":"2922662128","tag":{"amenity":"waste_basket"}},"type":"Feature"},
	{"geometry":{"coordinates":[9.258531,48.800569],"type":"Point"},"properties":{"osm_id":"2922674937","tag":{"amenity":"waste_basket"}},"type":"Feature"},
	{"geometry":{"coordinates":[9.25848,48.800619],"type":"Point"},"properties":{"osm_id":"2922674940","tag":{"amenity":"waste_basket"}},"type":"Feature"},
	{"geometry":{"coordinates":[9.266156,48.800697],"type":"Point"},"properties":{"osm_id":"2922677708","tag":{"amenity":"waste_basket"}},"type":"Feature"},
	{"geometry":{"coordinates":[9.267178,48.800992],"type":"Point"},"properties":{"osm_id":"2922677746","tag":{"amenity":"waste_basket"}},"type":"Feature"},
	{"geometry":{"coordinates":[9.268231,48.798359],"type":"Point"},"properties":{"osm_id":"2923036425","tag":{"amenity":"waste_basket"}},"type":"Feature"},
	{"geometry":{"coordinates":[9.264443,48.782419],"type":"Point"},"properties":{"osm_id":"2923439546","tag":{"amenity":"waste_basket"}},"type":"Feature"},
	{"geometry":{"coordinates":[9.268641,48.767908],"type":"Point"},"properties":{"osm_id":"2923494135","tag":{"amenity":"waste_basket"}},"type":"Feature"},
	{"geometry":{"coordinates":[9.238679,48.803868],"type":"Point"},"properties":{"osm_id":"2923642539","tag":{"amenity":"waste_basket"}},"type":"Feature"},
	{"geometry":{"coordinates":[9.232561,48.803841],"type":"Point"},"properties":{"osm_id":"2923907068","tag":{"amenity":"waste_basket"}},"type":"Feature"},
	{"geometry":{"coordinates":[9.283426,48.802788],"type":"Point"},"properties":{"osm_id":"2936966547","tag":{"amenity":"recycling","recycling:clothes":"no","recycling:glass":"yes","recycling:paper":"yes","recycling_type":"container"}},"type":"Feature"},
	{"geometry":{"coordinates":[9.285513,48.803549],"type":"Point"},"properties":{"osm_id":"2936966548","tag":{"amenity":"recycling","recycling:clothes":"no","recycling:glass":"yes","recycling:paper":"yes","recycling_type":"container"}},"type":"Feature"},
	{"geometry":{"coordinates":[9.268998,48.804754],"type":"Point"},"properties":{"osm_id":"2936966549","tag":{"amenity":"recycling","recycling:clothes":"no","recycling:glass":"yes","recycling:paper":"yes","recycling_type":"container"}},"type":"Feature"},
	{"geometry":{"coordinates":[9.254214,48.78179],"type":"Point"},"properties":{"osm_id":"2946356504","tag":{"amenity":"waste_basket"}},"type":"Feature"},
	{"geometry":{"coordinates":[9.23171,48.805877],"type":"Point"},"properties":{"osm_id":"2952788914","tag":{"amenity":"waste_basket"}},"type":"Feature"},
	{"geometry":{"coordinates":[9.252736,48.779143],"type":"Point"},"properties":{"osm_id":"3001453905","tag":{"amenity":"waste_basket"}},"type":"Feature"},
	{"geometry":{"coordinates":[9.314093,48.803034],"type":"Point"},"properties":{"name":"Recyclinghof Kernen-Rommelshausen","osm_id":"3002452333","tag":{"addr:city":"Kernen im Remstal","addr:housenumber":"48","addr:postcode":"71394","addr:street":"Seestra\u00c3\u009fe","addr:suburb":"Rommelshausen","amenity":"recycling","description":"mit Gr\u00c3\u00bcngutannahme","opening_hours":"We 14:00-18:00, Sa 9:00-15:00","recycling:batteries":"yes","recycling:beverage_cartons":"yes","recycling:cans":"yes","recycling:cardboard":"yes","recycling:cds":"yes","recycling:computers":"yes","recycling:cork":"yes","recycling:glass":"yes","recycling:green_waste":"yes","recycling:low_energy_bulbs":"yes","recycling:paper":"yes","recycling:plastic":"yes","recycling:scrap_metal":"yes","recycling_type":"centre"}},"type":"Feature"},
	{"geometry":{"coordinates":[9.252314,48.780408],"type":"Point"},"properties":{"osm_id":"3009016818","tag":{"amenity":"waste_basket"}},"type":"Feature"},
	{"geometry":{"coordinates":[9.251878,48.782924],"type":"Point"},"properties":{"osm_id":"3011172989","tag":{"amenity":"waste_basket"}},"type":"Feature"},
	{"geometry":{"coordinates":[9.251635,48.780111],"type":"Point"},"properties":{"osm_id":"3011286280","tag":{"amenity":"waste_basket"}},"type":"Feature"},
	{"geometry":{"coordinates":[9.252005,48.780199],"type":"Point"},"properties":{"osm_id":"3011286283","tag":{"amenity":"waste_basket"}},"type":"Feature"},
	{"geometry":{"coordinates":[9.252162,48.780348],"type":"Point"},"properties":{"osm_id":"3011286284","tag":{"amenity":"waste_basket"}},"type":"Feature"},
	{"geometry":{"coordinates":[9.252177,48.780282],"type":"Point"},"properties":{"osm_id":"3011286285","tag":{"amenity":"waste_basket"}},"type":"Feature"},
	{"geometry":{"coordinates":[9.254176,48.782293],"type":"Point"},"properties":{"osm_id":"3015497516","tag":{"amenity":"waste_basket"}},"type":"Feature"},
	{"geometry":{"coordinates":[9.254653,48.782234],"type":"Point"},"properties":{"osm_id":"3015497520","tag":{"amenity":"waste_basket"}},"type":"Feature"},
	{"geometry":{"coordinates":[9.252343,48.778813],"type":"Point"},"properties":{"osm_id":"3015528425","tag":{"amenity":"waste_basket"}},"type":"Feature"},
	{"geometry":{"coordinates":[9.2523,48.778813],"type":"Point"},"properties":{"osm_id":"3015528431","tag":{"amenity":"recycling","recycling:cans":"no","recycling:clothes":"no","recycling:glass":"yes","recycling:paper":"no","recycling_type":"container"}},"type":"Feature"},
	{"geometry":{"coordinates":[9.254776,48.782056],"type":"Point"},"properties":{"osm_id":"3042036255","tag":{"amenity":"waste_basket"}},"type":"Feature"},
	{"geometry":{"coordinates":[9.251544,48.780339],"type":"Point"},"properties":{"osm_id":"3042153343","tag":{"amenity":"waste_basket"}},"type":"Feature"},
	{"geometry":{"coordinates":[9.294611,48.80099],"type":"Point"},"properties":{"osm_id":"3064919713","tag":{"amenity":"waste_basket"}},"type":"Feature"},
	{"geometry":{"coordinates":[9.238741,48.776699],"type":"Point"},"properties":{"osm_id":"3297756375","tag":{"amenity":"recycling","recycling:glass":"yes","recycling_type":"container"}},"type":"Feature"},
	{"geometry":{"coordinates":[9.251884,48.788985],"type":"Point"},"properties":{"osm_id":"3299261575","tag":{"amenity":"waste_basket"}},"type":"Feature"},
	{"geometry":{"coordinates":[9.258749,48.755205],"type":"Point"},"properties":{"osm_id":"3472034207","tag":{"amenity":"waste_basket","recycling_type":"container"}},"type":"Feature"},
	{"geometry":{"coordinates":[9.256176,48.775515],"type":"Point"},"properties":{"osm_id":"3474124810","tag":{"amenity":"waste_basket"}},"type":"Feature"},
	{"geometry":{"coordinates":[9.303612,48.751917],"type":"Point"},"properties":{"osm_id":"3653522862","tag":{"amenity":"recycling","recycling:cans":"no","recycling:clothes":"yes","recycling:glass":"yes","recycling:paper":"no","recycling_type":"container"}},"type":"Feature"},
	{"geometry":{"coordinates":[9.233644,48.805906],"type":"Point"},"properties":{"osm_id":"3655220185","tag":{"amenity":"waste_basket"}},"type":"Feature"},
	{"geometry":{"coordinates":[9.234775,48.806789],"type":"Point"},"properties":{"osm_id":"3655544270","tag":{"amenity":"waste_basket"}},"type":"Feature"},
	{"geometry":{"coordinates":[9.234349,48.806445],"type":"Point"},"properties":{"osm_id":"3656461800","tag":{"amenity":"waste_basket"}},"type":"Feature"},
	{"geometry":{"coordinates":[9.228927,48.799348],"type":"Point"},"properties":{"osm_id":"3680978107","tag":{"amenity":"waste_basket"}},"type":"Feature"},
	{"geometry":{"coordinates":[9.236463,48.798457],"type":"Point"},"properties":{"osm_id":"3681042067","tag":{"amenity":"waste_basket"}},"type":"Feature"},
	{"geometry":{"coordinates":[9.234605,48.798447],"type":"Point"},"properties":{"osm_id":"3681060073","tag":{"amenity":"waste_basket"}},"type":"Feature"},
	{"geometry":{"coordinates":[9.234096,48.798686],"type":"Point"},"properties":{"osm_id":"3681238548","tag":{"amenity":"waste_basket"}},"type":"Feature"},
	{"geometry":{"coordinates":[9.232625,48.798969],"type":"Point"},"properties":{"osm_id":"3681315616","tag":{"amenity":"waste_basket"}},"type":"Feature"},
	{"geometry":{"coordinates":[9.240227,48.791985],"type":"Point"},"properties":{"osm_id":"3736799174","tag":{"amenity":"waste_basket"}},"type":"Feature"},
	{"geometry":{"coordinates":[9.278915,48.806471],"type":"Point"},"properties":{"osm_id":"3768735049","tag":{"amenity":"waste_basket"}},"type":"Feature"},
	{"geometry":{"coordinates":[9.242588,48.77601],"type":"Point"},"properties":{"osm_id":"3811343764","tag":{"amenity":"waste_basket"}},"type":"Feature"},
	{"geometry":{"coordinates":[9.246217,48.766705],"type":"Point"},"properties":{"osm_id":"3811676943","tag":{"amenity":"waste_basket"}},"type":"Feature"},
	{"geometry":{"coordinates":[9.251926,48.777842],"type":"Point"},"properties":{"osm_id":"3828898276","tag":{"amenity":"waste_basket"}},"type":"Feature"},
	{"geometry":{"coordinates":[9.249283,48.779],"type":"Point"},"properties":{"osm_id":"3828898287","tag":{"amenity":"waste_basket"}},"type":"Feature"},
	{"geometry":{"coordinates":[9.248464,48.779136],"type":"Point"},"properties":{"osm_id":"3829122505","tag":{"amenity":"waste_basket"}},"type":"Feature"},
	{"geometry":{"coordinates":[9.248232,48.779477],"type":"Point"},"properties":{"osm_id":"3829122513","tag":{"amenity":"waste_basket"}},"type":"Feature"},
	{"geometry":{"coordinates":[9.249781,48.77964],"type":"Point"},"properties":{"osm_id":"3829122520","tag":{"amenity":"waste_basket"}},"type":"Feature"},
	{"geometry":{"coordinates":[9.249794,48.779701],"type":"Point"},"properties":{"osm_id":"3829122521","tag":{"amenity":"waste_basket"}},"type":"Feature"},
	{"geometry":{"coordinates":[9.249821,48.779762],"type":"Point"},"properties":{"osm_id":"3829122526","tag":{"amenity":"waste_basket"}},"type":"Feature"},
	{"geometry":{"coordinates":[9.248512,48.77977],"type":"Point"},"properties":{"osm_id":"3829122527","tag":{"amenity":"waste_basket"}},"type":"Feature"},
	{"geometry":{"coordinates":[9.249595,48.780049],"type":"Point"},"properties":{"osm_id":"3829122529","tag":{"amenity":"waste_basket"}},"type":"Feature"},
	{"geometry":{"coordinates":[9.230807,48.786227],"type":"Point"},"properties":{"osm_id":"3829299602","tag":{"amenity":"waste_basket"}},"type":"Feature"},
	{"geometry":{"coordinates":[9.22963,48.786803],"type":"Point"},"properties":{"osm_id":"3829299607","tag":{"amenity":"waste_basket"}},"type":"Feature"},
	{"geometry":{"coordinates":[9.229068,48.799535],"type":"Point"},"properties":{"osm_id":"4127021354","tag":{"amenity":"waste_basket"}},"type":"Feature"},
	{"geometry":{"coordinates":[9.239145,48.792786],"type":"Point"},"properties":{"name":"agra Wertstoff-Recycling GmbH","osm_id":"4223994950","tag":{"addr:city":"Stuttgart","addr:country":"DE","addr:housenumber":"70","addr:postcode":"70372","addr:street":"Alte Untert\u00c3\u00bcrkheimer Stra\u00c3\u009fe","amenity":"recycling","office":"yes","opening_hours":"Mo-Fr 07:00-17:00","recycling_type":"centre","website":"http://www.agra-wertstoffhof.de"}},"type":"Feature"},
	{"geometry":{"coordinates":[9.265644,48.786458],"type":"Point"},"properties":{"osm_id":"4342652812","tag":{"amenity":"waste_disposal"}},"type":"Feature"},
	{"geometry":{"coordinates":[9.242029,48.776469],"type":"Point"},"properties":{"osm_id":"4561536632","tag":{"amenity":"recycling","recycling:clothes":"yes","recycling:shoes":"yes","recycling_type":"container"}},"type":"Feature"},
	{"geometry":{"coordinates":[9.279908,48.791858],"type":"Point"},"properties":{"osm_id":"4596211000","tag":{"amenity":"waste_basket"}},"type":"Feature"},
	{"geometry":{"coordinates":[9.229533,48.755946],"type":"Point"},"properties":{"osm_id":"4815373568","tag":{"amenity":"waste_basket"}},"type":"Feature"},
	{"geometry":{"coordinates":[9.250923,48.780171],"type":"Point"},"properties":{"osm_id":"5017353980","tag":{"amenity":"waste_basket"}},"type":"Feature"},
	{"geometry":{"coordinates":[9.254345,48.779915],"type":"Point"},"properties":{"osm_id":"5017359879","tag":{"amenity":"waste_basket"}},"type":"Feature"},
	{"geometry":{"coordinates":[9.276215,48.806398],"type":"Point"},"properties":{"osm_id":"5174260873","tag":{"amenity":"waste_basket"}},"type":"Feature"},
	{"geometry":{"coordinates":[9.301814,48.798449],"type":"Point"},"properties":{"osm_id":"5174849809","tag":{"amenity":"waste_basket"}},"type":"Feature"},
	{"geometry":{"coordinates":[9.29254,48.800135],"type":"Point"},"properties":{"osm_id":"5174851152","tag":{"amenity":"waste_basket"}},"type":"Feature"},
	{"geometry":{"coordinates":[9.315707,48.752601],"type":"Point"},"properties":{"osm_id":"5179440825","tag":{"amenity":"recycling","recycling:clothes":"yes","recycling:glass_bottles":"yes","recycling_type":"container"}},"type":"Feature"},
	{"geometry":{"coordinates":[9.26463,48.768123],"type":"Point"},"properties":{"osm_id":"5300018159","tag":{"amenity":"recycling","recycling:clothes":"yes","recycling:glass_bottles":"yes","recycling_type":"container"}},"type":"Feature"},
	{"geometry":{"coordinates":[9.245748,48.771331],"type":"Point"},"properties":{"osm_id":"5302298896","tag":{"amenity":"waste_basket"}},"type":"Feature"},
	{"geometry":{"coordinates":[9.255214,48.759567],"type":"Point"},"properties":{"osm_id":"5479732881","tag":{"amenity":"waste_basket"}},"type":"Feature"},
	{"geometry":{"coordinates":[9.27403,48.770859],"type":"Point"},"properties":{"osm_id":"5484143476","tag":{"amenity":"recycling","recycling:glass_bottles":"yes","recycling_type":"container"}},"type":"Feature"},
	{"geometry":{"coordinates":[9.278347,48.775273],"type":"Point"},"properties":{"osm_id":"5484192860","tag":{"amenity":"waste_basket"}},"type":"Feature"},
	{"geometry":{"coordinates":[9.263045,48.770039],"type":"Point"},"properties":{"osm_id":"5484623135","tag":{"amenity":"waste_basket"}},"type":"Feature"},
	{"geometry":{"coordinates":[9.254785,48.780666],"type":"Point"},"properties":{"osm_id":"5485070923","tag":{"amenity":"waste_basket"}},"type":"Feature"},
	{"geometry":{"coordinates":[9.257687,48.790492],"type":"Point"},"properties":{"osm_id":"5660550950","tag":{"amenity":"recycling","recycling:clothes":"yes","recycling_type":"container"}},"type":"Feature"},
	{"geometry":{"coordinates":[9.262307,48.79475],"type":"Point"},"properties":{"osm_id":"5660550951","tag":{"amenity":"recycling","recycling:glass":"yes","recycling_type":"container"}},"type":"Feature"},
	{"geometry":{"coordinates":[9.287169,48.802851],"type":"Point"},"properties":{"osm_id":"5739811922","tag":{"amenity":"waste_basket","waste":"trash"}},"type":"Feature"},
	{"geometry":{"coordinates":[9.282095,48.801745],"type":"Point"},"properties":{"osm_id":"5739811923","tag":{"amenity":"waste_basket","waste":"trash"}},"type":"Feature"},
	{"geometry":{"coordinates":[9.235236,48.799003],"type":"Point"},"properties":{"osm_id":"5740683675","tag":{"amenity":"waste_basket"}},"type":"Feature"},
	{"geometry":{"coordinates":[9.314393,48.794367],"type":"Point"},"properties":{"osm_id":"5759444540","tag":{"amenity":"waste_disposal","waste":"trash"}},"type":"Feature"},
	{"geometry":{"coordinates":[9.232521,48.79887],"type":"Point"},"properties":{"osm_id":"5851891316","tag":{"amenity":"waste_basket"}},"type":"Feature"},
	{"geometry":{"coordinates":[9.230239,48.801645],"type":"Point"},"properties":{"osm_id":"5853047611","tag":{"amenity":"waste_basket"}},"type":"Feature"},
	{"geometry":{"coordinates":[9.228534,48.803506],"type":"Point"},"properties":{"osm_id":"5853068396","tag":{"amenity":"waste_basket"}},"type":"Feature"},
	{"geometry":{"coordinates":[9.236233,48.805982],"type":"Point"},"properties":{"osm_id":"5859265190","tag":{"amenity":"waste_basket"}},"type":"Feature"},
	{"geometry":{"coordinates":[9.239524,48.804014],"type":"Point"},"properties":{"osm_id":"5859311993","tag":{"amenity":"recycling","recycling:clothes":"yes","recycling:glass":"yes","recycling_type":"container"}},"type":"Feature"},
	{"geometry":{"coordinates":[9.240704,48.802335],"type":"Point"},"properties":{"osm_id":"5859612705","tag":{"amenity":"waste_basket"}},"type":"Feature"},
	{"geometry":{"coordinates":[9.248548,48.753269],"type":"Point"},"properties":{"osm_id":"5923771820","tag":{"amenity":"waste_basket","colour":"black","material":"metal","waste":"trash;dog_excrement"}},"type":"Feature"},
	{"geometry":{"coordinates":[9.281269,48.802238],"type":"Point"},"properties":{"osm_id":"5996409634","tag":{"amenity":"waste_basket","waste":"trash"}},"type":"Feature"},
	{"geometry":{"coordinates":[9.281172,48.802348],"type":"Point"},"properties":{"osm_id":"5996409635","tag":{"amenity":"waste_basket","waste":"trash"}},"type":"Feature"},
	{"geometry":{"coordinates":[9.28107,48.80242],"type":"Point"},"properties":{"osm_id":"5996409636","tag":{"amenity":"waste_basket","waste":"trash"}},"type":"Feature"},
	{"geometry":{"coordinates":[9.25902,48.754973],"type":"Point"},"properties":{"osm_id":"6002922474","tag":{"amenity":"waste_basket"}},"type":"Feature"},
	{"geometry":{"coordinates":[9.235164,48.805967],"type":"Point"},"properties":{"osm_id":"6066408129","tag":{"amenity":"waste_basket"}},"type":"Feature"},
	{"geometry":{"coordinates":[9.242609,48.772438],"type":"Point"},"properties":{"osm_id":"6228260921","tag":{"amenity":"waste_basket"}},"type":"Feature"},
	{"geometry":{"coordinates":[9.245515,48.780385],"type":"Point"},"properties":{"osm_id":"6370964337","tag":{"amenity":"waste_basket"}},"type":"Feature"},
	{"geometry":{"coordinates":[9.245657,48.780357],"type":"Point"},"properties":{"osm_id":"6370964338","tag":{"amenity":"waste_basket"}},"type":"Feature"},
	{"geometry":{"coordinates":[9.245845,48.780301],"type":"Point"},"properties":{"osm_id":"6370964339","tag":{"amenity":"waste_basket"}},"type":"Feature"},
	{"geometry":{"coordinates":[9.245772,48.780398],"type":"Point"},"properties":{"osm_id":"6370964340","tag":{"amenity":"waste_basket"}},"type":"Feature"},
	{"geometry":{"coordinates":[9.245759,48.780361],"type":"Point"},"properties":{"osm_id":"6370964341","tag":{"amenity":"waste_basket"}},"type":"Feature"},
	{"geometry":{"coordinates":[9.245082,48.806836],"type":"Point"},"properties":{"osm_id":"6424297280","tag":{"amenity":"waste_basket"}},"type":"Feature"},
	{"geometry":{"coordinates":[9.30466,48.757661],"type":"Point"},"properties":{"osm_id":"6450776821","tag":{"amenity":"recycling","recycling:clothes":"yes","recycling:glass":"yes"}},"type":"Feature"},
	{"geometry":{"coordinates":[9.290087,48.753264],"type":"Point"},"properties":{"osm_id":"6453009040","tag":{"amenity":"recycling","recycling:glass":"yes"}},"type":"Feature"},
	{"geometry":{"coordinates":[9.268239,48.761435],"type":"Point"},"properties":{"osm_id":"6482536050","tag":{"amenity":"waste_basket","waste":"trash"}},"type":"Feature"},
	{"geometry":{"coordinates":[9.267916,48.761828],"type":"Point"},"properties":{"osm_id":"6482536059","tag":{"amenity":"waste_basket","waste":"trash"}},"type":"Feature"},
	{"geometry":{"coordinates":[9.267787,48.761976],"type":"Point"},"properties":{"osm_id":"6482536060","tag":{"amenity":"waste_basket","waste":"trash"}},"type":"Feature"},
	{"geometry":{"coordinates":[9.267657,48.762148],"type":"Point"},"properties":{"osm_id":"6482536061","tag":{"amenity":"waste_basket","waste":"trash"}},"type":"Feature"},
	{"geometry":{"coordinates":[9.260714,48.753567],"type":"Point"},"properties":{"osm_id":"6557280768","tag":{"amenity":"waste_basket"}},"type":"Feature"},
	{"geometry":{"coordinates":[9.236468,48.758418],"type":"Point"},"properties":{"osm_id":"6595198067","tag":{"amenity":"recycling","recycling:clothes":"yes","recycling:shoes":"yes","recycling_type":"container"}},"type":"Feature"},
	{"geometry":{"coordinates":[9.243268,48.78338],"type":"Point"},"properties":{"osm_id":"6739117055","tag":{"access":"private","amenity":"recycling","recycling:glass_bottles":"yes","recycling_type":"container"}},"type":"Feature"},
	{"geometry":{"coordinates":[9.244467,48.780743],"type":"Point"},"properties":{"osm_id":"6739117056","tag":{"amenity":"recycling","recycling:electrical_appliances":"yes","recycling:fluorescent_tubes":"yes","recycling:low_energy_bulbs":"yes","recycling_type":"centre"}},"type":"Feature"},
	{"geometry":{"coordinates":[9.285467,48.76783],"type":"Point"},"properties":{"osm_id":"6744581041","tag":{"amenity":"waste_basket","waste":"dog_excrement"}},"type":"Feature"},
	{"geometry":{"coordinates":[9.251909,48.765039],"type":"Point"},"properties":{"osm_id":"6769983253","tag":{"amenity":"waste_basket","colour":"grey"}},"type":"Feature"},
	{"geometry":{"coordinates":[9.249019,48.758297],"type":"Point"},"properties":{"osm_id":"6788475445","tag":{"amenity":"waste_basket"}},"type":"Feature"},
	{"geometry":{"coordinates":[9.238375,48.789442],"type":"Point"},"properties":{"osm_id":"6795822846","tag":{"amenity":"waste_basket"}},"type":"Feature"},
	{"geometry":{"coordinates":[9.284187,48.761632],"type":"Point"},"properties":{"osm_id":"6835057571","tag":{"amenity":"waste_basket"}},"type":"Feature"},
	{"geometry":{"coordinates":[9.284914,48.754631],"type":"Point"},"properties":{"osm_id":"6835134678","tag":{"amenity":"waste_basket"}},"type":"Feature"},
	{"geometry":{"coordinates":[9.253443,48.758649],"type":"Point"},"properties":{"osm_id":"6845345997","tag":{"amenity":"waste_basket"}},"type":"Feature"},
	{"geometry":{"coordinates":[9.245907,48.782682],"type":"Point"},"properties":{"osm_id":"6906244221","tag":{"amenity":"waste_basket"}},"type":"Feature"},
	{"geometry":{"coordinates":[9.259733,48.800346],"type":"Point"},"properties":{"osm_id":"6944529454","tag":{"amenity":"waste_basket"}},"type":"Feature"},
	{"geometry":{"coordinates":[9.25581,48.75675],"type":"Point"},"properties":{"osm_id":"6964140789","tag":{"amenity":"waste_basket"}},"type":"Feature"},
	{"geometry":{"coordinates":[9.232342,48.79],"type":"Point"},"properties":{"osm_id":"6996519740","tag":{"amenity":"waste_basket"}},"type":"Feature"},
	{"geometry":{"coordinates":[9.2324,48.788852],"type":"Point"},"properties":{"osm_id":"6996553339","tag":{"amenity":"waste_basket"}},"type":"Feature"},
	{"geometry":{"coordinates":[9.253515,48.757803],"type":"Point"},"properties":{"osm_id":"7093350520","tag":{"amenity":"recycling","recycling:clothes":"yes","recycling_type":"container"}},"type":"Feature"},
	{"geometry":{"coordinates":[9.235813,48.806481],"type":"Point"},"properties":{"osm_id":"7093498867","tag":{"amenity":"waste_basket"}},"type":"Feature"},
	{"geometry":{"coordinates":[9.255193,48.759455],"type":"Point"},"properties":{"osm_id":"7098057027","tag":{"amenity":"waste_basket"}},"type":"Feature"},
	{"geometry":{"coordinates":[9.255153,48.759501],"type":"Point"},"properties":{"osm_id":"7098057028","tag":{"amenity":"waste_basket"}},"type":"Feature"},
	{"geometry":{"coordinates":[9.25106,48.758101],"type":"Point"},"properties":{"osm_id":"7133436142","tag":{"amenity":"waste_basket"}},"type":"Feature"},
	{"geometry":{"coordinates":[9.24978,48.759601],"type":"Point"},"properties":{"osm_id":"7133436184","tag":{"amenity":"waste_basket"}},"type":"Feature"},
	{"geometry":{"coordinates":[9.268854,48.755364],"type":"Point"},"properties":{"osm_id":"7154966377","tag":{"amenity":"recycling","mapillary":"iWDv-SB29DVQxzjSt8Sqcg","recycling:clothes":"yes","recycling_type":"container","survey:date":"2019-06-23"}},"type":"Feature"},
	{"geometry":{"coordinates":[9.25467,48.759959],"type":"Point"},"properties":{"osm_id":"7218175616","tag":{"amenity":"waste_basket"}},"type":"Feature"},
	{"geometry":{"coordinates":[9.256169,48.760111],"type":"Point"},"properties":{"osm_id":"7305557282","tag":{"amenity":"recycling","recycling:clothes":"yes","recycling:shoes":"yes","recycling_type":"container"}},"type":"Feature"},
	{"geometry":{"coordinates":[9.275584,48.800151],"type":"Point"},"properties":{"osm_id":"7309325460","tag":{"amenity":"waste_basket"}},"type":"Feature"},
	{"geometry":{"coordinates":[9.281996,48.798524],"type":"Point"},"properties":{"osm_id":"7309367557","tag":{"amenity":"waste_basket"}},"type":"Feature"},
	{"geometry":{"coordinates":[9.273407,48.800308],"type":"Point"},"properties":{"osm_id":"7309368773","tag":{"amenity":"waste_basket"}},"type":"Feature"},
	{"geometry":{"coordinates":[9.277737,48.797275],"type":"Point"},"properties":{"osm_id":"7309395153","tag":{"amenity":"waste_basket"}},"type":"Feature"},
	{"geometry":{"coordinates":[9.277839,48.79783],"type":"Point"},"properties":{"osm_id":"7309397084","tag":{"amenity":"waste_basket"}},"type":"Feature"},
	{"geometry":{"coordinates":[9.283268,48.79127],"type":"Point"},"properties":{"osm_id":"7309438821","tag":{"amenity":"waste_basket"}},"type":"Feature"},
	{"geometry":{"coordinates":[9.280143,48.79441],"type":"Point"},"properties":{"osm_id":"7309543925","tag":{"amenity":"waste_basket"}},"type":"Feature"},
	{"geometry":{"coordinates":[9.271198,48.797883],"type":"Point"},"properties":{"osm_id":"7309616459","tag":{"amenity":"waste_basket"}},"type":"Feature"},
	{"geometry":{"coordinates":[9.254386,48.755118],"type":"Point"},"properties":{"osm_id":"7335085696","tag":{"amenity":"waste_basket"}},"type":"Feature"},
	{"geometry":{"coordinates":[9.252937,48.754845],"type":"Point"},"properties":{"osm_id":"7335085698","tag":{"amenity":"waste_basket"}},"type":"Feature"},
	{"geometry":{"coordinates":[9.25307,48.755019],"type":"Point"},"properties":{"osm_id":"7335085702","tag":{"amenity":"waste_basket"}},"type":"Feature"},
	{"geometry":{"coordinates":[9.259113,48.753474],"type":"Point"},"properties":{"osm_id":"7351514981","tag":{"amenity":"waste_basket"}},"type":"Feature"},
	{"geometry":{"coordinates":[9.265782,48.772985],"type":"Point"},"properties":{"osm_id":"7558411314","tag":{"amenity":"waste_basket"}},"type":"Feature"},
	{"geometry":{"coordinates":[9.25387,48.759337],"type":"Point"},"properties":{"osm_id":"7614897259","tag":{"amenity":"waste_basket"}},"type":"Feature"},
	{"geometry":{"coordinates":[9.2642,48.766633],"type":"Point"},"properties":{"osm_id":"7845927197","tag":{"description":"Geschwindigkeitssignal (Lf 7 \"10\") in nordwestlicher Richtung","last_check":"2020-06","operator":"DB Netz","railway":"signal","railway:signal:direction":"backward","railway:signal:position":"left","railway:signal:speed_limit":"DE-ESO:lf7","railway:signal:speed_limit:form":"sign","railway:signal:speed_limit:height":"normal","railway:signal:speed_limit:speed":"100"}},"type":"Feature"}
]
}
