{
"type": "FeatureCollection",
"features": [
	{"geometry":{"coordinates":[9.237911,48.671701],"type":"Point"},"properties":{"osm_id":"244428834","tag":{"amenity":"recycling","recycling:glass_bottles":"yes","recycling_type":"container"}},"type":"Feature"},
	{"geometry":{"coordinates":[9.245268,48.646432],"type":"Point"},"properties":{"osm_id":"263949206","tag":{"amenity":"recycling","recycling:clothes":"yes","recycling:glass_bottles":"yes","recycling_type":"container"}},"type":"Feature"},
	{"geometry":{"coordinates":[9.236026,48.668372],"type":"Point"},"properties":{"osm_id":"271241810","tag":{"amenity":"recycling","recycling:glass_bottles":"yes","recycling_type":"container"}},"type":"Feature"},
	{"geometry":{"coordinates":[9.242846,48.668959],"type":"Point"},"properties":{"osm_id":"274989207","tag":{"amenity":"recycling","recycling:glass_bottles":"yes","recycling_type":"container"}},"type":"Feature"},
	{"geometry":{"coordinates":[9.242752,48.67619],"type":"Point"},"properties":{"osm_id":"276066694","tag":{"amenity":"recycling","recycling:glass_bottles":"yes","recycling_type":"container"}},"type":"Feature"},
	{"geometry":{"coordinates":[9.250955,48.651429],"type":"Point"},"properties":{"osm_id":"306500304","tag":{"amenity":"recycling","recycling:clothes":"yes","recycling:glass_bottles":"yes","recycling_type":"container"}},"type":"Feature"},
	{"geometry":{"coordinates":[9.267034,48.677139],"type":"Point"},"properties":{"name":"Gr\u00c3\u00bcnschnitt-Sammelplatz","osm_id":"390067169","tag":{"amenity":"recycling","opening_hours":"Tu 15:00-18:00; Sa 09:00-12:00","recycling_type":"centre"}},"type":"Feature"},
	{"geometry":{"coordinates":[9.31388,48.683903],"type":"Point"},"properties":{"osm_id":"659529675","tag":{"amenity":"waste_basket"}},"type":"Feature"},
	{"geometry":{"coordinates":[9.243037,48.681079],"type":"Point"},"properties":{"osm_id":"696502317","tag":{"amenity":"recycling","recycling:glass":"yes","recycling_type":"container"}},"type":"Feature"},
	{"geometry":{"coordinates":[9.250244,48.654656],"type":"Point"},"properties":{"osm_id":"792824214","tag":{"amenity":"recycling","recycling:clothes":"yes","recycling:glass_bottles":"yes","recycling_type":"container"}},"type":"Feature"},
	{"geometry":{"coordinates":[9.270272,48.68077],"type":"Point"},"properties":{"osm_id":"1600261271","tag":{"amenity":"recycling","recycling:glass_bottles":"yes","recycling_type":"container"}},"type":"Feature"},
	{"geometry":{"coordinates":[9.271066,48.683658],"type":"Point"},"properties":{"osm_id":"1600261797","tag":{"amenity":"recycling","recycling:paper":"yes","recycling_type":"container"}},"type":"Feature"},
	{"geometry":{"coordinates":[9.274461,48.68706],"type":"Point"},"properties":{"osm_id":"1600265644","tag":{"amenity":"recycling","recycling:glass_bottles":"yes","recycling_type":"container"}},"type":"Feature"},
	{"geometry":{"coordinates":[9.282375,48.678115],"type":"Point"},"properties":{"osm_id":"1600281086","tag":{"amenity":"recycling","recycling:glass_bottles":"yes","recycling_type":"container"}},"type":"Feature"},
	{"geometry":{"coordinates":[9.28367,48.681464],"type":"Point"},"properties":{"osm_id":"1606527320","tag":{"amenity":"recycling","recycling:glass_bottles":"yes","recycling_type":"container"}},"type":"Feature"},
	{"geometry":{"coordinates":[9.271234,48.683658],"type":"Point"},"properties":{"osm_id":"1606529725","tag":{"amenity":"recycling","recycling:clothes":"yes","recycling_type":"container"}},"type":"Feature"},
	{"geometry":{"coordinates":[9.234588,48.673351],"type":"Point"},"properties":{"osm_id":"1979739676","tag":{"amenity":"recycling","operator":"H. Evsen","phone":"+491773723257","recycling:clothes":"yes","recycling_type":"container"}},"type":"Feature"},
	{"geometry":{"coordinates":[9.240496,48.670257],"type":"Point"},"properties":{"osm_id":"1992448158","tag":{"amenity":"recycling","recycling:glass_bottles":"yes","recycling_type":"container"}},"type":"Feature"},
	{"geometry":{"coordinates":[9.263512,48.635141],"type":"Point"},"properties":{"barrier":"gate","osm_id":"2007157335"},"type":"Feature"},
	{"geometry":{"coordinates":[9.271158,48.689116],"type":"Point"},"properties":{"osm_id":"2812057587","tag":{"access":"private","amenity":"recycling","description":"Not for the public. Only accessable for the company.","recycling:paper":"yes","recycling_type":"centre"}},"type":"Feature"},
	{"geometry":{"coordinates":[9.272326,48.689273],"type":"Point"},"properties":{"osm_id":"2812057590","tag":{"access":"private","amenity":"recycling","recycling:glass_bottles":"yes","recycling_type":"container"}},"type":"Feature"},
	{"geometry":{"coordinates":[9.279585,48.683722],"type":"Point"},"properties":{"osm_id":"3840024476","tag":{"amenity":"waste_basket"}},"type":"Feature"},
	{"geometry":{"coordinates":[9.284107,48.659092],"type":"Point"},"properties":{"osm_id":"4069901589","tag":{"amenity":"recycling","opening_hours":"Sa 10:00-13:00","recycling:cartons":"yes","recycling:paper":"yes"}},"type":"Feature"},
	{"geometry":{"coordinates":[9.288494,48.653249],"type":"Point"},"properties":{"osm_id":"4069922382","tag":{"amenity":"waste_basket"}},"type":"Feature"},
	{"geometry":{"coordinates":[9.286437,48.652498],"type":"Point"},"properties":{"osm_id":"4069932151","tag":{"amenity":"waste_basket"}},"type":"Feature"},
	{"geometry":{"coordinates":[9.277453,48.68222],"type":"Point"},"properties":{"osm_id":"4070369890","tag":{"amenity":"waste_basket"}},"type":"Feature"},
	{"geometry":{"coordinates":[9.240983,48.681513],"type":"Point"},"properties":{"osm_id":"4174239066","tag":{"amenity":"recycling","recycling:clothes":"yes","recycling_type":"container"}},"type":"Feature"},
	{"geometry":{"coordinates":[9.27293,48.685228],"type":"Point"},"properties":{"osm_id":"4268268826","tag":{"amenity":"recycling","recycling:clothes":"yes","recycling:shoes":"yes","recycling_type":"container"}},"type":"Feature"},
	{"geometry":{"coordinates":[9.238563,48.681013],"type":"Point"},"properties":{"osm_id":"4268269241","tag":{"amenity":"waste_basket"}},"type":"Feature"},
	{"geometry":{"coordinates":[9.285853,48.656996],"type":"Point"},"properties":{"osm_id":"4381907124","tag":{"amenity":"recycling","operator":"Sedita GmbH","phone":"+497361931418","recycling:clothes":"yes","recycling_type":"container","website":"http://www.kleider-schuhe-sammlung.de"}},"type":"Feature"},
	{"geometry":{"coordinates":[9.289715,48.652666],"type":"Point"},"properties":{"osm_id":"4381918317","tag":{"amenity":"recycling","operator":"Sedita GmbH","phone":"+497361931418","recycling:clothes":"yes","recycling_type":"container","website":"http://www.kleider-schuhe-sammlung.de"}},"type":"Feature"},
	{"geometry":{"coordinates":[9.238064,48.668774],"type":"Point"},"properties":{"osm_id":"4382560312","tag":{"amenity":"recycling","recycling:clothes":"yes","recycling_type":"container"}},"type":"Feature"},
	{"geometry":{"coordinates":[9.244167,48.670259],"type":"Point"},"properties":{"osm_id":"4382564405","tag":{"amenity":"recycling","recycling:clothes":"yes","recycling_type":"container"}},"type":"Feature"},
	{"geometry":{"coordinates":[9.298897,48.650693],"type":"Point"},"properties":{"osm_id":"4382602043","tag":{"amenity":"waste_basket"}},"type":"Feature"},
	{"geometry":{"coordinates":[9.229555,48.678571],"type":"Point"},"properties":{"osm_id":"4419501350","tag":{"amenity":"waste_basket"}},"type":"Feature"},
	{"geometry":{"coordinates":[9.229878,48.6732],"type":"Point"},"properties":{"osm_id":"4419602347","tag":{"amenity":"recycling","recycling:clothes":"yes","recycling:shoes":"yes","recycling_type":"container"}},"type":"Feature"},
	{"geometry":{"coordinates":[9.229936,48.673754],"type":"Point"},"properties":{"osm_id":"4419605544","tag":{"amenity":"waste_basket"}},"type":"Feature"},
	{"geometry":{"coordinates":[9.23785,48.675038],"type":"Point"},"properties":{"osm_id":"4419631918","tag":{"amenity":"waste_basket"}},"type":"Feature"},
	{"geometry":{"coordinates":[9.228982,48.669793],"type":"Point"},"properties":{"osm_id":"4904526121","tag":{"amenity":"recycling","recycling:clothes":"yes","recycling:shoes":"yes"}},"type":"Feature"},
	{"geometry":{"coordinates":[9.281885,48.682783],"type":"Point"},"properties":{"osm_id":"4911318321","tag":{"amenity":"recycling","clothes":"yes","operator":"Sedita","phone":"+49736193148","shoes":"yes","website":"http://www.kleider-schuhe-sammlung.de"}},"type":"Feature"},
	{"geometry":{"coordinates":[9.273604,48.680466],"type":"Point"},"properties":{"osm_id":"4913651992","tag":{"amenity":"recycling","clothes":"yes","location":"overground","recycling_type":"container","shoes":"yes"}},"type":"Feature"},
	{"geometry":{"coordinates":[9.283648,48.681481],"type":"Point"},"properties":{"osm_id":"5055295045","tag":{"amenity":"recycling","recycling:brown_glass":"yes","recycling:glass":"yes","recycling:green_glass":"yes","recycling:white_glass":"yes","recycling_type":"container"}},"type":"Feature"},
	{"geometry":{"coordinates":[9.297389,48.663099],"type":"Point"},"properties":{"osm_id":"5108451565","tag":{"amenity":"waste_basket"}},"type":"Feature"},
	{"geometry":{"coordinates":[9.287483,48.652722],"type":"Point"},"properties":{"osm_id":"5182366521","tag":{"amenity":"recycling","clothes":"yes","recycling_type":"container","shoes":"yes"}},"type":"Feature"},
	{"geometry":{"coordinates":[9.244321,48.656626],"type":"Point"},"properties":{"osm_id":"5455135896","tag":{"amenity":"waste_basket"}},"type":"Feature"},
	{"geometry":{"coordinates":[9.246026,48.652584],"type":"Point"},"properties":{"osm_id":"5638438232","tag":{"amenity":"recycling","recycling:clothes":"yes","recycling:glass_bottles":"yes","recycling_type":"container"}},"type":"Feature"},
	{"geometry":{"coordinates":[9.26721,48.671984],"type":"Point"},"properties":{"osm_id":"5714082099","tag":{"amenity":"waste_basket"}},"type":"Feature"},
	{"geometry":{"coordinates":[9.251352,48.649884],"type":"Point"},"properties":{"osm_id":"5961355530","tag":{"amenity":"waste_basket"}},"type":"Feature"},
	{"geometry":{"coordinates":[9.288992,48.651368],"type":"Point"},"properties":{"osm_id":"6237827930","tag":{"amenity":"recycling","recycling:clothes":"yes","recycling:shoes":"yes"}},"type":"Feature"},
	{"geometry":{"coordinates":[9.238628,48.672557],"type":"Point"},"properties":{"osm_id":"6838769321","tag":{"amenity":"waste_basket"}},"type":"Feature"},
	{"geometry":{"coordinates":[9.278506,48.67365],"type":"Point"},"properties":{"osm_id":"6943334920","tag":{"amenity":"recycling","recycling:clothes":"yes","recycling:glass_bottles":"yes","recycling:shoes":"yes"}},"type":"Feature"},
	{"geometry":{"coordinates":[9.236675,48.669333],"type":"Point"},"properties":{"osm_id":"7491604172","tag":{"amenity":"waste_basket","colour":"grey","material":"metal","waste":"trash"}},"type":"Feature"}
]
}
