{
"type": "FeatureCollection",
"features": [
	{"geometry":{"coordinates":[9.273362,48.551186],"type":"Point"},"properties":{"name":"H\u00c3\u00a4ckselplatz","osm_id":"339920725","tag":{"amenity":"recycling","recycling:green_waste":"yes","recycling:wood":"yes","recycling_type":"centre"}},"type":"Feature"},
	{"geometry":{"coordinates":[9.263535,48.56854],"type":"Point"},"properties":{"osm_id":"348001985","tag":{"amenity":"recycling","recycling:glass":"yes","recycling_type":"container"}},"type":"Feature"},
	{"geometry":{"coordinates":[9.234627,48.560085],"type":"Point"},"properties":{"osm_id":"348002165","tag":{"amenity":"recycling","recycling:clothes":"yes","recycling:glass":"yes"}},"type":"Feature"},
	{"geometry":{"coordinates":[9.228557,48.525601],"type":"Point"},"properties":{"osm_id":"355021253","tag":{"amenity":"recycling","location":"overground","recycling:clothes":"yes","recycling:glass":"yes","recycling_type":"container"}},"type":"Feature"},
	{"geometry":{"coordinates":[9.28825,48.571011],"type":"Point"},"properties":{"osm_id":"620817345","tag":{"amenity":"recycling","location":"overground","recycling_type":"container"}},"type":"Feature"},
	{"geometry":{"coordinates":[9.253612,48.556589],"type":"Point"},"properties":{"name":"H\u00c3\u00a4ckselplatz Riederich","osm_id":"2218431097","tag":{"amenity":"recycling","recycling:green_waste":"yes","recycling_type":"centre"}},"type":"Feature"},
	{"geometry":{"coordinates":[9.264683,48.55615],"type":"Point"},"properties":{"osm_id":"2286167247","tag":{"amenity":"recycling","location":"overground","recycling:clothes":"yes","recycling:glass_bottles":"yes","recycling:shoes":"yes","recycling_type":"container"}},"type":"Feature"},
	{"geometry":{"coordinates":[9.269223,48.560287],"type":"Point"},"properties":{"osm_id":"2286167543","tag":{"amenity":"recycling","location":"overground","recycling:clothes":"yes","recycling:glass_bottles":"yes","recycling_type":"container"}},"type":"Feature"},
	{"geometry":{"coordinates":[9.264141,48.564221],"type":"Point"},"properties":{"osm_id":"2286167559","tag":{"amenity":"recycling","location":"overground","recycling:glass":"yes","recycling_type":"container"}},"type":"Feature"},
	{"geometry":{"coordinates":[9.270332,48.558367],"type":"Point"},"properties":{"osm_id":"2288514964","tag":{"amenity":"recycling","location":"overground","recycling:glass":"no","recycling:glass_bottles":"yes","recycling_type":"container"}},"type":"Feature"},
	{"geometry":{"coordinates":[9.311268,48.56287],"type":"Point"},"properties":{"osm_id":"3133639844","tag":{"amenity":"waste_basket"}},"type":"Feature"},
	{"geometry":{"coordinates":[9.297159,48.56311],"type":"Point"},"properties":{"osm_id":"4375449078","tag":{"amenity":"recycling","operator":"ALBA","recycling:glass":"yes","recycling_type":"container"}},"type":"Feature"},
	{"geometry":{"coordinates":[9.297122,48.563103],"type":"Point"},"properties":{"osm_id":"4375449079","tag":{"amenity":"recycling","recycling:clothes":"yes","recycling:shoes":"yes","recycling_type":"container"}},"type":"Feature"},
	{"geometry":{"coordinates":[9.232097,48.562362],"type":"Point"},"properties":{"osm_id":"5884362706","tag":{"amenity":"recycling","recycling:glass":"yes","recycling_type":"container"}},"type":"Feature"},
	{"geometry":{"coordinates":[9.30747,48.529581],"type":"Point"},"properties":{"osm_id":"7257502722","tag":{"amenity":"recycling","recycling:clothes":"yes","recycling:glass_bottles":"yes","recycling_type":"container"}},"type":"Feature"},
	{"geometry":{"coordinates":[9.306382,48.527212],"type":"Point"},"properties":{"osm_id":"7257502723","tag":{"amenity":"recycling","recycling:glass_bottles":"yes","recycling_type":"container"}},"type":"Feature"},
	{"geometry":{"coordinates":[9.290075,48.540411],"type":"Point"},"properties":{"osm_id":"7597402684","tag":{"amenity":"waste_basket","waste":"trash"}},"type":"Feature"},
	{"geometry":{"coordinates":[9.290842,48.540141],"type":"Point"},"properties":{"osm_id":"7597447791","tag":{"amenity":"waste_basket","waste":"trash"}},"type":"Feature"},
	{"geometry":{"coordinates":[9.266315,48.574119],"type":"Point"},"properties":{"osm_id":"8268483723","tag":{"amenity":"waste_basket"}},"type":"Feature"},
	{"geometry":{"coordinates":[9.27946,48.56845],"type":"Point"},"properties":{"osm_id":"8569275032","tag":{"amenity":"waste_basket","covered":"no","indoor":"no"}},"type":"Feature"},
	{"geometry":{"coordinates":[9.307194,48.532678],"type":"Point"},"properties":{"osm_id":"8658576007","tag":{"amenity":"waste_basket","waste":"trash"}},"type":"Feature"},
	{"geometry":{"coordinates":[9.240774,48.524702],"type":"Point"},"properties":{"osm_id":"8687608679","tag":{"amenity":"waste_basket","vending":"excrement_bags"}},"type":"Feature"},
	{"geometry":{"coordinates":[9.245163,48.521051],"type":"Point"},"properties":{"osm_id":"8690929154","tag":{"amenity":"waste_basket","vending":"excrement_bags","waste":"cigarettes"}},"type":"Feature"},
	{"geometry":{"coordinates":[9.310589,48.529325],"type":"Point"},"properties":{"osm_id":"8725492297","tag":{"amenity":"waste_basket","waste":"trash"}},"type":"Feature"},
	{"geometry":{"coordinates":[9.289879,48.539702],"type":"Point"},"properties":{"osm_id":"9031755219","tag":{"amenity":"waste_basket","indoor":"yes","waste":"trash"}},"type":"Feature"},
	{"geometry":{"coordinates":[9.290152,48.539864],"type":"Point"},"properties":{"osm_id":"9031755221","tag":{"amenity":"waste_basket","level":"0","waste":"trash"}},"type":"Feature"},
	{"geometry":{"coordinates":[9.290145,48.540008],"type":"Point"},"properties":{"osm_id":"9031755222","tag":{"amenity":"waste_basket","level":"0","waste":"trash"}},"type":"Feature"},
	{"geometry":{"coordinates":[9.290132,48.54008],"type":"Point"},"properties":{"osm_id":"9031755223","tag":{"amenity":"waste_basket","level":"0","waste":"trash"}},"type":"Feature"},
	{"geometry":{"coordinates":[9.290124,48.540006],"type":"Point"},"properties":{"osm_id":"9031755230","tag":{"amenity":"waste_basket","level":"0","waste":"trash"}},"type":"Feature"},
	{"geometry":{"coordinates":[9.290111,48.540079],"type":"Point"},"properties":{"osm_id":"9031755233","tag":{"amenity":"waste_basket","level":"0","waste":"trash"}},"type":"Feature"},
	{"geometry":{"coordinates":[9.290093,48.540269],"type":"Point"},"properties":{"osm_id":"9031755236","tag":{"amenity":"waste_basket","level":"0","waste":"trash"}},"type":"Feature"},
	{"geometry":{"coordinates":[9.289892,48.539743],"type":"Point"},"properties":{"osm_id":"9031755239","tag":{"amenity":"waste_basket","covered":"yes","level":"0","waste":"trash"}},"type":"Feature"},
	{"geometry":{"coordinates":[9.289974,48.539608],"type":"Point"},"properties":{"osm_id":"9031755244","tag":{"amenity":"waste_basket","waste":"trash"}},"type":"Feature"},
	{"geometry":{"coordinates":[9.28991,48.540088],"type":"Point"},"properties":{"osm_id":"9031755246","tag":{"amenity":"waste_basket","waste":"trash"}},"type":"Feature"},
	{"geometry":{"coordinates":[9.289771,48.539745],"type":"Point"},"properties":{"osm_id":"9031755250","tag":{"amenity":"waste_basket","indoor":"yes","waste":"trash"}},"type":"Feature"},
	{"geometry":{"coordinates":[9.289777,48.539693],"type":"Point"},"properties":{"osm_id":"9031755251","tag":{"amenity":"waste_basket","indoor":"yes","waste":"trash"}},"type":"Feature"},
	{"geometry":{"coordinates":[9.289988,48.5395],"type":"Point"},"properties":{"osm_id":"9031755259","tag":{"amenity":"waste_basket","waste":"trash"}},"type":"Feature"},
	{"geometry":{"coordinates":[9.289596,48.540077],"type":"Point"},"properties":{"osm_id":"9031755262","tag":{"amenity":"waste_basket","waste":"trash"}},"type":"Feature"},
	{"geometry":{"coordinates":[9.28978,48.540087],"type":"Point"},"properties":{"osm_id":"9031755263","tag":{"amenity":"waste_basket","waste":"trash"}},"type":"Feature"}
]
}
