{
"type": "FeatureCollection",
"features": [
	{"geometry":{"coordinates":[9.250382,48.47763],"type":"Point"},"properties":{"osm_id":"259198090","tag":{"amenity":"recycling"}},"type":"Feature"},
	{"geometry":{"coordinates":[9.254043,48.483123],"type":"Point"},"properties":{"osm_id":"259198091","tag":{"amenity":"recycling","recycling:glass":"yes","recycling_type":"container"}},"type":"Feature"},
	{"geometry":{"coordinates":[9.239111,48.511749],"type":"Point"},"properties":{"osm_id":"355021285","tag":{"amenity":"recycling","recycling:clothes":"yes","recycling:glass":"yes"}},"type":"Feature"},
	{"geometry":{"coordinates":[9.259434,48.503139],"type":"Point"},"properties":{"name":"H\u00c3\u00a4ckselplatz","osm_id":"429854170","tag":{"amenity":"recycling","landuse":"landfill","recycling:green_waste":"yes","recycling:wood":"yes","recycling_type":"centre"}},"type":"Feature"},
	{"geometry":{"coordinates":[9.265082,48.491286],"type":"Point"},"properties":{"osm_id":"1447934377","tag":{"amenity":"recycling","location":"overground","recycling_type":"container"}},"type":"Feature"},
	{"geometry":{"coordinates":[9.252295,48.49865],"type":"Point"},"properties":{"osm_id":"2990875297","tag":{"amenity":"waste_basket"}},"type":"Feature"},
	{"geometry":{"coordinates":[9.267917,48.499989],"type":"Point"},"properties":{"osm_id":"2991110754","tag":{"amenity":"waste_basket"}},"type":"Feature"},
	{"geometry":{"coordinates":[9.235335,48.477518],"type":"Point"},"properties":{"osm_id":"3100864517","tag":{"amenity":"waste_basket"}},"type":"Feature"},
	{"geometry":{"coordinates":[9.277029,48.490578],"type":"Point"},"properties":{"osm_id":"3238249291","tag":{"amenity":"waste_basket"}},"type":"Feature"},
	{"geometry":{"coordinates":[9.230378,48.47214],"type":"Point"},"properties":{"osm_id":"3410648911","tag":{"amenity":"recycling","recycling:glass_bottles":"yes","recycling_type":"container"}},"type":"Feature"},
	{"geometry":{"coordinates":[9.233365,48.459397],"type":"Point"},"properties":{"osm_id":"3435153297","tag":{"amenity":"recycling","recycling:glass_bottles":"yes","recycling_type":"container"}},"type":"Feature"},
	{"geometry":{"coordinates":[9.259901,48.496037],"type":"Point"},"properties":{"osm_id":"7578358838","tag":{"amenity":"waste_basket"}},"type":"Feature"},
	{"geometry":{"coordinates":[9.236605,48.515151],"type":"Point"},"properties":{"osm_id":"7838901431","tag":{"amenity":"waste_basket","waste":"trash"}},"type":"Feature"},
	{"geometry":{"coordinates":[9.237224,48.515139],"type":"Point"},"properties":{"osm_id":"7838901483","tag":{"amenity":"waste_basket","waste":"trash"}},"type":"Feature"}
]
}
