{
"type": "FeatureCollection",
"features": [
	{"geometry":{"coordinates":[9.292084,48.387159],"type":"Point"},"properties":{"osm_id":"359048395","tag":{"amenity":"recycling","recycling:glass":"yes","recycling_type":"container"}},"type":"Feature"},
	{"geometry":{"coordinates":[9.282628,48.388785],"type":"Point"},"properties":{"osm_id":"2086214539","tag":{"amenity":"recycling","recycling:clothes":"yes","recycling_type":"container"}},"type":"Feature"},
	{"geometry":{"coordinates":[9.284032,48.386775],"type":"Point"},"properties":{"osm_id":"3089056086","tag":{"amenity":"waste_basket"}},"type":"Feature"},
	{"geometry":{"coordinates":[9.282704,48.386372],"type":"Point"},"properties":{"osm_id":"7685973934","tag":{"amenity":"recycling","recycling:clothes":"yes","recycling_type":"container"}},"type":"Feature"},
	{"geometry":{"coordinates":[9.253465,48.35015],"type":"Point"},"properties":{"osm_id":"8044328386","tag":{"amenity":"recycling","recycling:glass":"yes","recycling_type":"container"}},"type":"Feature"},
	{"geometry":{"coordinates":[9.292551,48.392431],"type":"Point"},"properties":{"osm_id":"8652722483","tag":{"amenity":"waste_basket","waste":"trash"}},"type":"Feature"},
	{"geometry":{"coordinates":[9.309725,48.346809],"type":"Point"},"properties":{"osm_id":"8840754793","tag":{"amenity":"recycling","collection_times":"*","opening_hours":"*","recycling:glass_bottles":"yes","recycling_type":"container"}},"type":"Feature"}
]
}
