{
"type": "FeatureCollection",
"features": [
	{"geometry":{"coordinates":[9.252221,47.627247],"type":"Point"},"properties":{"osm_id":"494323395","tag":{"amenity":"recycling","recycling:glass":"yes"}},"type":"Feature"},
	{"geometry":{"coordinates":[9.295478,47.611756],"type":"Point"},"properties":{"osm_id":"4124476901","tag":{"amenity":"recycling","recycling:batteries":"yes","recycling:glass":"yes","recycling_type":"container"}},"type":"Feature"},
	{"geometry":{"coordinates":[9.234681,47.592856],"type":"Point"},"properties":{"osm_id":"5198667026","tag":{"amenity":"waste_basket","vending":"excrement_bags"}},"type":"Feature"},
	{"geometry":{"coordinates":[9.237489,47.601769],"type":"Point"},"properties":{"osm_id":"5198667043","tag":{"amenity":"waste_basket","vending":"excrement_bags"}},"type":"Feature"},
	{"geometry":{"coordinates":[9.269362,47.617445],"type":"Point"},"properties":{"osm_id":"5338678437","tag":{"amenity":"waste_basket"}},"type":"Feature"},
	{"geometry":{"coordinates":[9.232408,47.631974],"type":"Point"},"properties":{"osm_id":"5339039083","tag":{"amenity":"waste_basket"}},"type":"Feature"},
	{"geometry":{"coordinates":[9.278741,47.598937],"type":"Point"},"properties":{"osm_id":"5555874580","tag":{"amenity":"waste_basket","waste":"trash"}},"type":"Feature"},
	{"geometry":{"coordinates":[9.315477,47.599924],"type":"Point"},"properties":{"osm_id":"5557652886","tag":{"amenity":"waste_basket","waste":"trash"}},"type":"Feature"},
	{"geometry":{"coordinates":[9.315791,47.599714],"type":"Point"},"properties":{"osm_id":"5557652893","tag":{"amenity":"waste_basket","waste":"trash"}},"type":"Feature"},
	{"geometry":{"coordinates":[9.316027,47.599581],"type":"Point"},"properties":{"osm_id":"5557658665","tag":{"amenity":"waste_basket","waste":"trash"}},"type":"Feature"},
	{"geometry":{"coordinates":[9.247521,47.612606],"type":"Point"},"properties":{"osm_id":"5559371694","tag":{"amenity":"waste_basket","waste":"trash"}},"type":"Feature"},
	{"geometry":{"coordinates":[9.247396,47.595934],"type":"Point"},"properties":{"osm_id":"6540207874","tag":{"amenity":"waste_basket","vending":"excrement_bags"}},"type":"Feature"},
	{"geometry":{"coordinates":[9.307985,47.588748],"type":"Point"},"properties":{"osm_id":"7572804340","tag":{"amenity":"waste_basket","waste":"dog_excrement"}},"type":"Feature"},
	{"geometry":{"coordinates":[9.266138,47.62132],"type":"Point"},"properties":{"osm_id":"7573122191","tag":{"amenity":"waste_basket","waste":"cigarettes"}},"type":"Feature"},
	{"geometry":{"coordinates":[9.268595,47.622469],"type":"Point"},"properties":{"name":"Reststoffsammelstelle","osm_id":"7573122192","tag":{"amenity":"recycling","recycling:glass":"yes","recycling:glass_bottles":"yes","recycling_type":"centre","wheelchair":"yes"}},"type":"Feature"},
	{"geometry":{"coordinates":[9.248727,47.625638],"type":"Point"},"properties":{"osm_id":"7607903529","tag":{"amenity":"recycling","recycling_type":"container"}},"type":"Feature"},
	{"geometry":{"coordinates":[9.268918,47.622695],"type":"Point"},"properties":{"osm_id":"7925599536","tag":{"amenity":"waste_basket"}},"type":"Feature"}
]
}
