{
"type": "FeatureCollection",
"lastupdate": "2020-08-02T00:00:00Z",
"features": [
	{"geometry":{"coordinates":[9.294118,47.407144],"type":"Point"},"properties":{"osm_id":"3376295428","tag":{"amenity":"recycling","recycling:paper":"yes"}},"type":"Feature"},
	{"geometry":{"coordinates":[9.256213,47.418114],"type":"Point"},"properties":{"name":"Sammelstelle: Altglas, Alt\u00c3\u00b6l, Weissblech, Konservendosen, Alu.","osm_id":"3429805716","tag":{"addr:city":"Gossau","addr:postcode":"9200","addr:street":"Haldenstrasse","amenity":"recycling","operator":"Gossau","recycling:alu":"yes","recycling:cans":"yes","recycling:glass_bottles":"yes","recycling:oil":"yes"}},"type":"Feature"},
	{"geometry":{"coordinates":[9.254727,47.411049],"type":"Point"},"properties":{"osm_id":"3444476656","tag":{"amenity":"recycling","recycling:cans":"yes","recycling:glass_bottles":"yes","recycling_type":"container"}},"type":"Feature"},
	{"geometry":{"coordinates":[9.252369,47.411884],"type":"Point"},"properties":{"osm_id":"4467385310","tag":{"amenity":"recycling","recycling:clothes":"yes","recycling_type":"container"}},"type":"Feature"},
	{"geometry":{"coordinates":[9.252493,47.411953],"type":"Point"},"properties":{"osm_id":"5315190523","tag":{"amenity":"waste_basket"}},"type":"Feature"},
	{"geometry":{"coordinates":[9.314675,47.428483],"type":"Point"},"properties":{"osm_id":"6163136262","tag":{"amenity":"waste_basket"}},"type":"Feature"},
	{"geometry":{"coordinates":[9.314607,47.40833],"type":"Point"},"properties":{"name":"Labdoo Annahmestelle f\u00c3\u00bcr Laptops","osm_id":"6543076048","tag":{"addr:city":"St. Gallen","addr:housenumber":"5","addr:postcode":"9001","addr:street":"Bionstrasse","amenity":"recycling","brand":"Labdoo","charity":"yes","description":"Bei Process Partner AG k\u00f6nnen zu den \u00fcblichen B\u00fcrozeiten von Montag bis Freitag Laptops am Empfang unter dem Hinweis auf Michael Rothmund deponiert werden.","location":"indoor","operator":"Process Partner AG","recycling:computers":"yes","recycling:mobile_phones":"yes","service_times":"Mo-Fr","website":"https://www.labdoo.org/de/hub?h=16430"}},"type":"Feature"},
	{"geometry":{"coordinates":[9.241368,47.411268],"type":"Point"},"properties":{"osm_id":"6830377507","tag":{"amenity":"waste_basket"}},"type":"Feature"}
]
}
