{
"type": "FeatureCollection",
"features": [
	{"geometry":{"coordinates":[9.249677,47.107511],"type":"Point"},"properties":{"osm_id":"1647189023","tag":{"amenity":"waste_basket"}},"type":"Feature"},
	{"geometry":{"coordinates":[9.24317,47.109275],"type":"Point"},"properties":{"osm_id":"1647210331","tag":{"amenity":"recycling","recycling:glass_bottles":"yes","recycling_type":"container"}},"type":"Feature"},
	{"geometry":{"coordinates":[9.256083,47.114454],"type":"Point"},"properties":{"osm_id":"1798795469","tag":{"amenity":"recycling","recycling:glass":"yes"}},"type":"Feature"},
	{"geometry":{"coordinates":[9.266587,47.112599],"type":"Point"},"properties":{"osm_id":"2343900433","tag":{"amenity":"waste_basket"}},"type":"Feature"},
	{"geometry":{"coordinates":[9.258778,47.101713],"type":"Point"},"properties":{"osm_id":"2946473366","tag":{"amenity":"waste_basket"}},"type":"Feature"},
	{"geometry":{"coordinates":[9.255832,47.102344],"type":"Point"},"properties":{"osm_id":"3067336649","tag":{"amenity":"waste_basket","colour":"orange"}},"type":"Feature"},
	{"geometry":{"coordinates":[9.256745,47.10259],"type":"Point"},"properties":{"osm_id":"3067336661","tag":{"amenity":"waste_basket","colour":"orange"}},"type":"Feature"},
	{"geometry":{"coordinates":[9.259727,47.103084],"type":"Point"},"properties":{"highway":"street_lamp","osm_id":"3067336677","tag":{"amenity":"waste_basket"}},"type":"Feature"},
	{"geometry":{"coordinates":[9.258605,47.10339],"type":"Point"},"properties":{"osm_id":"3067336686","tag":{"amenity":"waste_basket","colour":"orange"}},"type":"Feature"},
	{"geometry":{"coordinates":[9.2672,47.142071],"type":"Point"},"properties":{"osm_id":"4419344630","tag":{"amenity":"waste_basket"}},"type":"Feature"},
	{"geometry":{"coordinates":[9.302301,47.12753],"type":"Point"},"properties":{"osm_id":"5790215854","tag":{"amenity":"waste_basket"}},"type":"Feature"},
	{"geometry":{"coordinates":[9.259002,47.115067],"type":"Point"},"properties":{"osm_id":"6040282840","tag":{"amenity":"recycling","recycling:glass_bottles":"yes","recycling:plastic_bottles":"yes","recycling_type":"container"}},"type":"Feature"},
	{"geometry":{"coordinates":[9.25502,47.115992],"type":"Point"},"properties":{"osm_id":"6072380395","tag":{"amenity":"waste_basket","waste":"trash"}},"type":"Feature"},
	{"geometry":{"coordinates":[9.254967,47.115767],"type":"Point"},"properties":{"osm_id":"6072380397","tag":{"amenity":"waste_basket","waste":"trash"}},"type":"Feature"},
	{"geometry":{"coordinates":[9.302602,47.127313],"type":"Point"},"properties":{"osm_id":"7744432686","tag":{"amenity":"waste_basket","waste":"trash"}},"type":"Feature"},
	{"geometry":{"coordinates":[9.301075,47.123824],"type":"Point"},"properties":{"osm_id":"7744526736","tag":{"amenity":"waste_basket","waste":"trash"}},"type":"Feature"}
]
}
