{
"type": "FeatureCollection",
"features": [
	{"geometry":{"coordinates":[9.283436,46.837091],"type":"Point"},"properties":{"osm_id":"914633340","tag":{"amenity":"recycling","recycling:glass":"yes"}},"type":"Feature"},
	{"geometry":{"coordinates":[9.289817,46.831943],"type":"Point"},"properties":{"osm_id":"2975945385","tag":{"amenity":"waste_disposal","waste":"trash"}},"type":"Feature"},
	{"geometry":{"coordinates":[9.291279,46.832156],"type":"Point"},"properties":{"osm_id":"2975945386","tag":{"amenity":"waste_disposal","waste":"trash"}},"type":"Feature"},
	{"geometry":{"coordinates":[9.286304,46.812763],"type":"Point"},"properties":{"osm_id":"3389300656","tag":{"amenity":"waste_basket"}},"type":"Feature"},
	{"geometry":{"coordinates":[9.27387,46.805905],"type":"Point"},"properties":{"osm_id":"3389300657","tag":{"amenity":"waste_basket"}},"type":"Feature"},
	{"geometry":{"coordinates":[9.290294,46.827743],"type":"Point"},"properties":{"osm_id":"4360588663","tag":{"amenity":"recycling","location":"underground","recycling:glass_bottles":"yes","recycling:waste":"yes","recycling_type":"container"}},"type":"Feature"},
	{"geometry":{"coordinates":[9.284903,46.831092],"type":"Point"},"properties":{"osm_id":"4360588664","tag":{"amenity":"recycling","location":"underground","recycling:glass_bottles":"yes","recycling:waste":"yes","recycling_type":"container"}},"type":"Feature"},
	{"geometry":{"coordinates":[9.28123,46.833897],"type":"Point"},"properties":{"osm_id":"4361828337","tag":{"amenity":"recycling","recycling:PET":"yes","recycling:aluminium":"yes","recycling:glass_bottles":"yes","recycling:waste":"yes","recycling_type":"container"}},"type":"Feature"},
	{"geometry":{"coordinates":[9.265776,46.838467],"type":"Point"},"properties":{"osm_id":"4361828338","tag":{"amenity":"waste_basket"}},"type":"Feature"},
	{"geometry":{"coordinates":[9.28141,46.833714],"type":"Point"},"properties":{"osm_id":"4361828348","tag":{"amenity":"recycling","recycling:PET":"yes","recycling:aluminium":"yes","recycling:glass_bottles":"yes","recycling:waste":"yes","recycling_type":"container"}},"type":"Feature"},
	{"geometry":{"coordinates":[9.295176,46.822895],"type":"Point"},"properties":{"osm_id":"4364969452","tag":{"amenity":"waste_basket"}},"type":"Feature"},
	{"geometry":{"coordinates":[9.286077,46.829761],"type":"Point"},"properties":{"osm_id":"4365195923","tag":{"amenity":"waste_basket"}},"type":"Feature"},
	{"geometry":{"coordinates":[9.284323,46.836525],"type":"Point"},"properties":{"osm_id":"4366013855","tag":{"amenity":"waste_basket"}},"type":"Feature"},
	{"geometry":{"coordinates":[9.286482,46.836688],"type":"Point"},"properties":{"osm_id":"4366013857","tag":{"amenity":"recycling","recycling:glass_bottles":"yes","recycling:waste":"yes","recycling_type":"container"}},"type":"Feature"},
	{"geometry":{"coordinates":[9.282139,46.834192],"type":"Point"},"properties":{"osm_id":"4369401614","tag":{"amenity":"waste_basket"}},"type":"Feature"},
	{"geometry":{"coordinates":[9.26215,46.810248],"type":"Point"},"properties":{"name":"Pardanal","osm_id":"4794080210","tag":{"amenity":"recycling","recycling_type":"centre"}},"type":"Feature"},
	{"geometry":{"coordinates":[9.255086,46.806256],"type":"Point"},"properties":{"osm_id":"4827156911","tag":{"amenity":"waste_disposal"}},"type":"Feature"},
	{"geometry":{"coordinates":[9.256804,46.809705],"type":"Point"},"properties":{"osm_id":"4829284562","tag":{"amenity":"waste_basket"}},"type":"Feature"},
	{"geometry":{"coordinates":[9.256705,46.806051],"type":"Point"},"properties":{"osm_id":"4829284568","tag":{"amenity":"waste_disposal"}},"type":"Feature"},
	{"geometry":{"coordinates":[9.256763,46.806102],"type":"Point"},"properties":{"osm_id":"4829284569","tag":{"amenity":"recycling","recycling:glass_bottles":"yes","recycling_type":"container"}},"type":"Feature"},
	{"geometry":{"coordinates":[9.258659,46.811957],"type":"Point"},"properties":{"osm_id":"4829284594","tag":{"amenity":"waste_basket"}},"type":"Feature"},
	{"geometry":{"coordinates":[9.259271,46.810895],"type":"Point"},"properties":{"osm_id":"4829284618","tag":{"amenity":"waste_disposal"}},"type":"Feature"},
	{"geometry":{"coordinates":[9.259301,46.810858],"type":"Point"},"properties":{"osm_id":"4829284619","tag":{"amenity":"waste_basket"}},"type":"Feature"},
	{"geometry":{"coordinates":[9.258089,46.810646],"type":"Point"},"properties":{"osm_id":"4829316979","tag":{"amenity":"waste_basket"}},"type":"Feature"},
	{"geometry":{"coordinates":[9.261357,46.80838],"type":"Point"},"properties":{"osm_id":"4829325073","tag":{"amenity":"recycling","recycling:green_waste":"yes","recycling_type":"container"}},"type":"Feature"},
	{"geometry":{"coordinates":[9.255958,46.803243],"type":"Point"},"properties":{"osm_id":"4840549649","tag":{"amenity":"waste_basket"}},"type":"Feature"},
	{"geometry":{"coordinates":[9.255371,46.803111],"type":"Point"},"properties":{"osm_id":"4840549651","tag":{"amenity":"waste_disposal"}},"type":"Feature"},
	{"geometry":{"coordinates":[9.2555,46.801648],"type":"Point"},"properties":{"osm_id":"4840549660","tag":{"amenity":"waste_disposal"}},"type":"Feature"},
	{"geometry":{"coordinates":[9.297928,46.819994],"type":"Point"},"properties":{"osm_id":"4853620621","tag":{"amenity":"recycling"}},"type":"Feature"},
	{"geometry":{"coordinates":[9.296706,46.821438],"type":"Point"},"properties":{"osm_id":"4853620623","tag":{"amenity":"recycling"}},"type":"Feature"},
	{"geometry":{"coordinates":[9.297291,46.821364],"type":"Point"},"properties":{"osm_id":"4853622421","tag":{"amenity":"waste_basket"}},"type":"Feature"},
	{"geometry":{"coordinates":[9.256597,46.803314],"type":"Point"},"properties":{"osm_id":"4882153822","tag":{"amenity":"waste_disposal"}},"type":"Feature"},
	{"geometry":{"coordinates":[9.26252,46.813723],"type":"Point"},"properties":{"osm_id":"4897707351","tag":{"amenity":"waste_disposal"}},"type":"Feature"},
	{"geometry":{"coordinates":[9.262477,46.813765],"type":"Point"},"properties":{"osm_id":"4897707352","tag":{"amenity":"recycling","recycling:glass_bottles":"yes","recycling_type":"container"}},"type":"Feature"},
	{"geometry":{"coordinates":[9.258853,46.807783],"type":"Point"},"properties":{"osm_id":"4897707353","tag":{"amenity":"waste_disposal"}},"type":"Feature"},
	{"geometry":{"coordinates":[9.259005,46.808643],"type":"Point"},"properties":{"osm_id":"4897707354","tag":{"amenity":"waste_disposal"}},"type":"Feature"},
	{"geometry":{"coordinates":[9.256925,46.804653],"type":"Point"},"properties":{"osm_id":"4897707355","tag":{"amenity":"waste_disposal"}},"type":"Feature"},
	{"geometry":{"coordinates":[9.257164,46.803773],"type":"Point"},"properties":{"osm_id":"4897707356","tag":{"amenity":"waste_disposal"}},"type":"Feature"},
	{"geometry":{"coordinates":[9.23276,46.800431],"type":"Point"},"properties":{"osm_id":"4929312238","tag":{"amenity":"waste_disposal"}},"type":"Feature"},
	{"geometry":{"coordinates":[9.265969,46.805958],"type":"Point"},"properties":{"osm_id":"4973688032","tag":{"amenity":"waste_disposal"}},"type":"Feature"},
	{"geometry":{"coordinates":[9.228708,46.801649],"type":"Point"},"properties":{"osm_id":"5472943600","tag":{"amenity":"waste_disposal"}},"type":"Feature"},
	{"geometry":{"coordinates":[9.293115,46.831856],"type":"Point"},"properties":{"osm_id":"6003260174","tag":{"amenity":"waste_disposal"}},"type":"Feature"},
	{"geometry":{"coordinates":[9.297067,46.831521],"type":"Point"},"properties":{"osm_id":"6003260181","tag":{"amenity":"recycling","recycling:glass_bottles":"yes","recycling_type":"container"}},"type":"Feature"},
	{"geometry":{"coordinates":[9.297058,46.831546],"type":"Point"},"properties":{"osm_id":"6003260182","tag":{"amenity":"waste_disposal"}},"type":"Feature"},
	{"geometry":{"coordinates":[9.297042,46.831578],"type":"Point"},"properties":{"osm_id":"6003260485","tag":{"amenity":"waste_basket","vending":"excrement_bags"}},"type":"Feature"},
	{"geometry":{"coordinates":[9.264874,46.837272],"type":"Point"},"properties":{"osm_id":"7881726780","tag":{"amenity":"waste_basket"}},"type":"Feature"},
	{"geometry":{"coordinates":[9.284162,46.831449],"type":"Point"},"properties":{"osm_id":"7923502649","tag":{"amenity":"waste_disposal"}},"type":"Feature"}
]
}
