{
"type": "FeatureCollection",
"features": [
	{"geometry":{"coordinates":[9.302495,46.794928],"type":"Point"},"properties":{"osm_id":"413111630","tag":{"amenity":"waste_basket","fireplace":"yes","tourism":"picnic_site"}},"type":"Feature"},
	{"geometry":{"coordinates":[9.234218,46.78905],"type":"Point"},"properties":{"osm_id":"1828261434","tag":{"amenity":"recycling","recycling_type":"container"}},"type":"Feature"},
	{"geometry":{"coordinates":[9.254683,46.793596],"type":"Point"},"properties":{"osm_id":"4351549778","tag":{"amenity":"recycling"}},"type":"Feature"},
	{"geometry":{"coordinates":[9.264813,46.791309],"type":"Point"},"properties":{"osm_id":"4351550295","tag":{"amenity":"recycling","location":"underground","recycling_type":"container"}},"type":"Feature"},
	{"geometry":{"coordinates":[9.258098,46.792972],"type":"Point"},"properties":{"osm_id":"4351551984","tag":{"amenity":"recycling","location":"underground","recycling_type":"container"}},"type":"Feature"},
	{"geometry":{"coordinates":[9.25545,46.790911],"type":"Point"},"properties":{"osm_id":"4351552004","tag":{"amenity":"recycling","location":"underground","recycling_type":"container"}},"type":"Feature"},
	{"geometry":{"coordinates":[9.256413,46.79106],"type":"Point"},"properties":{"osm_id":"4577629293","tag":{"amenity":"waste_basket"}},"type":"Feature"},
	{"geometry":{"coordinates":[9.254143,46.799611],"type":"Point"},"properties":{"osm_id":"4840582457","tag":{"amenity":"waste_basket"}},"type":"Feature"},
	{"geometry":{"coordinates":[9.252836,46.796915],"type":"Point"},"properties":{"osm_id":"4840582768","tag":{"amenity":"waste_basket"}},"type":"Feature"},
	{"geometry":{"coordinates":[9.256904,46.798487],"type":"Point"},"properties":{"osm_id":"4884113777","tag":{"amenity":"waste_basket"}},"type":"Feature"},
	{"geometry":{"coordinates":[9.234628,46.79853],"type":"Point"},"properties":{"osm_id":"4929312232","tag":{"amenity":"recycling","recycling:clothes":"yes","recycling:glass":"yes","recycling:shoes":"yes","recycling_type":"container"}},"type":"Feature"},
	{"geometry":{"coordinates":[9.234554,46.79859],"type":"Point"},"properties":{"osm_id":"4929312233","tag":{"amenity":"waste_disposal"}},"type":"Feature"},
	{"geometry":{"coordinates":[9.234451,46.79853],"type":"Point"},"properties":{"osm_id":"4929312235","tag":{"amenity":"waste_basket"}},"type":"Feature"},
	{"geometry":{"coordinates":[9.275594,46.791695],"type":"Point"},"properties":{"osm_id":"5586530913","tag":{"amenity":"waste_basket"}},"type":"Feature"},
	{"geometry":{"coordinates":[9.253594,46.788467],"type":"Point"},"properties":{"osm_id":"6037432647","tag":{"amenity":"waste_basket"}},"type":"Feature"},
	{"geometry":{"coordinates":[9.25339,46.790899],"type":"Point"},"properties":{"osm_id":"6037433824","tag":{"amenity":"recycling"}},"type":"Feature"},
	{"geometry":{"coordinates":[9.264864,46.791213],"type":"Point"},"properties":{"osm_id":"6487338408","tag":{"amenity":"recycling","recycling_type":"centre"}},"type":"Feature"}
]
}
