{
"type": "FeatureCollection",
"features": [
	{"geometry":{"coordinates":[9.23437,46.053256],"type":"Point"},"properties":{"osm_id":"3304611338","tag":{"amenity":"recycling","recycling:glass":"yes","recycling_type":"container"}},"type":"Feature"},
	{"geometry":{"coordinates":[9.276574,46.071259],"type":"Point"},"properties":{"osm_id":"4555585491","tag":{"amenity":"recycling","recycling_type":"container"}},"type":"Feature"},
	{"geometry":{"coordinates":[9.230985,46.037128],"type":"Point"},"properties":{"osm_id":"4900354166","tag":{"amenity":"recycling","recycling:glass":"yes","recycling:paper":"yes","recycling:plastic":"yes","recycling:waste":"yes","recycling_type":"container"}},"type":"Feature"},
	{"geometry":{"coordinates":[9.305331,46.042457],"type":"Point"},"properties":{"osm_id":"5525516837","tag":{"amenity":"waste_basket","waste":"trash"}},"type":"Feature"},
	{"geometry":{"coordinates":[9.304596,46.042691],"type":"Point"},"properties":{"osm_id":"5525516840","tag":{"amenity":"waste_basket","waste":"trash"}},"type":"Feature"},
	{"geometry":{"coordinates":[9.304978,46.042746],"type":"Point"},"properties":{"osm_id":"5525516843","tag":{"amenity":"waste_basket","waste":"trash"}},"type":"Feature"},
	{"geometry":{"coordinates":[9.283996,46.013969],"type":"Point"},"properties":{"osm_id":"6264721264","tag":{"amenity":"waste_basket"}},"type":"Feature"},
	{"geometry":{"coordinates":[9.290994,46.015481],"type":"Point"},"properties":{"osm_id":"6289331428","tag":{"amenity":"waste_basket","mapillary":"t0PhpFywGPR6D4UNCIX0Xg"}},"type":"Feature"},
	{"geometry":{"coordinates":[9.295441,46.013023],"type":"Point"},"properties":{"osm_id":"6291709045","tag":{"amenity":"waste_basket"}},"type":"Feature"},
	{"geometry":{"coordinates":[9.296504,46.013101],"type":"Point"},"properties":{"osm_id":"6292097268","tag":{"amenity":"waste_basket"}},"type":"Feature"},
	{"geometry":{"coordinates":[9.295296,46.012671],"type":"Point"},"properties":{"osm_id":"6292098028","tag":{"amenity":"waste_basket"}},"type":"Feature"},
	{"geometry":{"coordinates":[9.305296,46.043919],"type":"Point"},"properties":{"osm_id":"6309152653","tag":{"amenity":"waste_basket"}},"type":"Feature"},
	{"geometry":{"coordinates":[9.298582,46.041562],"type":"Point"},"properties":{"osm_id":"6316690874","tag":{"amenity":"waste_basket"}},"type":"Feature"},
	{"geometry":{"coordinates":[9.241092,46.023886],"type":"Point"},"properties":{"osm_id":"6666517547","tag":{"amenity":"recycling","recycling:glass":"yes","recycling:glass_bottles":"yes","recycling:paper":"yes","recycling:plastic":"yes","recycling:plastic_bottles":"yes","recycling:plastic_packaging":"yes","recycling:waste":"yes","recycling_type":"container"}},"type":"Feature"}
]
}
