{
"type": "FeatureCollection",
"features": [
	{"geometry":{"coordinates":[9.250328,45.86604],"type":"Point"},"properties":{"osm_id":"1075857100","tag":{"amenity":"recycling"}},"type":"Feature"},
	{"geometry":{"coordinates":[9.250376,45.866085],"type":"Point"},"properties":{"osm_id":"1075857179","tag":{"amenity":"waste_basket"}},"type":"Feature"},
	{"geometry":{"coordinates":[9.238125,45.864014],"type":"Point"},"properties":{"osm_id":"1092322200","tag":{"amenity":"recycling"}},"type":"Feature"},
	{"geometry":{"coordinates":[9.297656,45.853648],"type":"Point"},"properties":{"osm_id":"1989768234","tag":{"amenity":"waste_basket"}},"type":"Feature"},
	{"geometry":{"coordinates":[9.268088,45.881438],"type":"Point"},"properties":{"osm_id":"2270077899","tag":{"amenity":"waste_basket"}},"type":"Feature"},
	{"geometry":{"coordinates":[9.246447,45.879864],"type":"Point"},"properties":{"osm_id":"2830955303","tag":{"amenity":"recycling","recycling:cans":"no","recycling:glass":"yes"}},"type":"Feature"},
	{"geometry":{"coordinates":[9.297277,45.874389],"type":"Point"},"properties":{"osm_id":"4799223397","tag":{"addr:city":"Valbrona","addr:postcode":"22039","addr:street":"Via Risorgimento","amenity":"recycling","recycling:glass":"yes","recycling_type":"centre"}},"type":"Feature"},
	{"geometry":{"coordinates":[9.268886,45.881469],"type":"Point"},"properties":{"osm_id":"5208784544","tag":{"amenity":"waste_disposal"}},"type":"Feature"},
	{"geometry":{"coordinates":[9.268885,45.881494],"type":"Point"},"properties":{"osm_id":"5208784545","tag":{"amenity":"waste_disposal"}},"type":"Feature"},
	{"geometry":{"coordinates":[9.268882,45.881518],"type":"Point"},"properties":{"osm_id":"5208784546","tag":{"amenity":"waste_disposal"}},"type":"Feature"},
	{"geometry":{"coordinates":[9.255859,45.871503],"type":"Point"},"properties":{"osm_id":"5233540418","tag":{"amenity":"waste_basket"}},"type":"Feature"},
	{"geometry":{"coordinates":[9.257778,45.870498],"type":"Point"},"properties":{"osm_id":"5233542728","tag":{"amenity":"waste_basket"}},"type":"Feature"},
	{"geometry":{"coordinates":[9.268672,45.867259],"type":"Point"},"properties":{"osm_id":"5362258851","tag":{"amenity":"waste_basket","waste":"trash"}},"type":"Feature"},
	{"geometry":{"coordinates":[9.268459,45.867631],"type":"Point"},"properties":{"osm_id":"5362258856","tag":{"amenity":"waste_basket","waste":"trash"}},"type":"Feature"},
	{"geometry":{"coordinates":[9.229214,45.882596],"type":"Point"},"properties":{"osm_id":"5483126397","tag":{"amenity":"waste_basket"}},"type":"Feature"},
	{"geometry":{"coordinates":[9.30075,45.874585],"type":"Point"},"properties":{"osm_id":"5686130657","tag":{"amenity":"waste_basket","waste":"trash"}},"type":"Feature"},
	{"geometry":{"coordinates":[9.302643,45.883218],"type":"Point"},"properties":{"osm_id":"5742067954","tag":{"amenity":"waste_basket","waste":"trash"}},"type":"Feature"},
	{"geometry":{"coordinates":[9.303505,45.884481],"type":"Point"},"properties":{"osm_id":"5742067955","tag":{"amenity":"waste_basket","waste":"trash"}},"type":"Feature"},
	{"geometry":{"coordinates":[9.30329,45.884569],"type":"Point"},"properties":{"osm_id":"5742067969","tag":{"amenity":"waste_basket","waste":"trash"}},"type":"Feature"},
	{"geometry":{"coordinates":[9.294456,45.870642],"type":"Point"},"properties":{"osm_id":"5750080446","tag":{"amenity":"waste_basket","waste":"dog_excrement"}},"type":"Feature"},
	{"geometry":{"coordinates":[9.294475,45.870658],"type":"Point"},"properties":{"osm_id":"5750080447","tag":{"amenity":"waste_basket","waste":"trash"}},"type":"Feature"},
	{"geometry":{"coordinates":[9.2979,45.872499],"type":"Point"},"properties":{"osm_id":"5750080448","tag":{"amenity":"waste_basket","waste":"trash"}},"type":"Feature"},
	{"geometry":{"coordinates":[9.26298,45.82892],"type":"Point"},"properties":{"osm_id":"5771311553","tag":{"amenity":"waste_basket"}},"type":"Feature"},
	{"geometry":{"coordinates":[9.288939,45.870455],"type":"Point"},"properties":{"osm_id":"7084355790","tag":{"amenity":"recycling","recycling:glass":"yes","recycling_type":"container"}},"type":"Feature"},
	{"geometry":{"coordinates":[9.288901,45.870456],"type":"Point"},"properties":{"osm_id":"7084355791","tag":{"amenity":"recycling","recycling:waste":"yes","recycling_type":"container"}},"type":"Feature"},
	{"geometry":{"coordinates":[9.244584,45.83625],"type":"Point"},"properties":{"osm_id":"7217216625","tag":{"amenity":"waste_basket","waste":"trash"}},"type":"Feature"}
]
}
