{
"type": "FeatureCollection",
"lastupdate": "2020-08-01T00:00:00Z",
"features": [
	{"geometry":{"coordinates":[9.244976,45.787762],"type":"Point"},"properties":{"osm_id":"5291883642","tag":{"amenity":"waste_basket"}},"type":"Feature"},
	{"geometry":{"coordinates":[9.244651,45.787714],"type":"Point"},"properties":{"osm_id":"5291883643","tag":{"amenity":"waste_basket"}},"type":"Feature"},
	{"geometry":{"coordinates":[9.266281,45.76819],"type":"Point"},"properties":{"osm_id":"5405672436","tag":{"amenity":"waste_basket","waste":"trash"}},"type":"Feature"},
	{"geometry":{"coordinates":[9.264902,45.769079],"type":"Point"},"properties":{"osm_id":"5405672437","tag":{"amenity":"waste_basket","waste":"trash"}},"type":"Feature"},
	{"geometry":{"coordinates":[9.258101,45.768208],"type":"Point"},"properties":{"osm_id":"5405672460","tag":{"amenity":"waste_basket","waste":"trash"}},"type":"Feature"},
	{"geometry":{"coordinates":[9.27812,45.813808],"type":"Point"},"properties":{"osm_id":"5492171151","tag":{"amenity":"waste_basket","waste":"trash"}},"type":"Feature"},
	{"geometry":{"coordinates":[9.284615,45.819717],"type":"Point"},"properties":{"osm_id":"5590007905","tag":{"amenity":"waste_basket","waste":"trash"}},"type":"Feature"},
	{"geometry":{"coordinates":[9.282262,45.815403],"type":"Point"},"properties":{"osm_id":"5590009196","tag":{"amenity":"waste_basket","waste":"trash"}},"type":"Feature"},
	{"geometry":{"coordinates":[9.280796,45.772169],"type":"Point"},"properties":{"osm_id":"5697441330","tag":{"amenity":"waste_basket","waste":"trash"}},"type":"Feature"},
	{"geometry":{"coordinates":[9.237725,45.772427],"type":"Point"},"properties":{"osm_id":"6017720049","tag":{"amenity":"waste_basket","waste":"trash"}},"type":"Feature"},
	{"geometry":{"coordinates":[9.237362,45.773358],"type":"Point"},"properties":{"osm_id":"6017720053","tag":{"amenity":"waste_basket","waste":"trash"}},"type":"Feature"},
	{"geometry":{"coordinates":[9.235851,45.77294],"type":"Point"},"properties":{"osm_id":"6017720054","tag":{"amenity":"waste_basket","waste":"trash"}},"type":"Feature"},
	{"geometry":{"coordinates":[9.234969,45.772055],"type":"Point"},"properties":{"osm_id":"6017720055","tag":{"amenity":"waste_basket","waste":"trash"}},"type":"Feature"},
	{"geometry":{"coordinates":[9.235194,45.771026],"type":"Point"},"properties":{"osm_id":"6017720057","tag":{"amenity":"waste_basket","waste":"trash"}},"type":"Feature"},
	{"geometry":{"coordinates":[9.235033,45.770307],"type":"Point"},"properties":{"osm_id":"6017720058","tag":{"amenity":"waste_basket","waste":"trash"}},"type":"Feature"},
	{"geometry":{"coordinates":[9.235883,45.769648],"type":"Point"},"properties":{"osm_id":"6017720059","tag":{"amenity":"waste_basket","waste":"trash"}},"type":"Feature"},
	{"geometry":{"coordinates":[9.236353,45.768894],"type":"Point"},"properties":{"osm_id":"6017720061","tag":{"amenity":"waste_basket","waste":"trash"}},"type":"Feature"},
	{"geometry":{"coordinates":[9.237919,45.772057],"type":"Point"},"properties":{"osm_id":"6017723261","tag":{"amenity":"waste_basket","waste":"trash"}},"type":"Feature"},
	{"geometry":{"coordinates":[9.238246,45.768114],"type":"Point"},"properties":{"osm_id":"6020091346","tag":{"amenity":"waste_basket","waste":"trash"}},"type":"Feature"},
	{"geometry":{"coordinates":[9.240322,45.768042],"type":"Point"},"properties":{"osm_id":"6020091347","tag":{"amenity":"waste_basket","waste":"trash"}},"type":"Feature"},
	{"geometry":{"coordinates":[9.240713,45.769313],"type":"Point"},"properties":{"osm_id":"6020091348","tag":{"amenity":"waste_basket","waste":"trash"}},"type":"Feature"},
	{"geometry":{"coordinates":[9.238525,45.771579],"type":"Point"},"properties":{"osm_id":"6037363978","tag":{"amenity":"waste_basket","waste":"trash"}},"type":"Feature"},
	{"geometry":{"coordinates":[9.238332,45.77151],"type":"Point"},"properties":{"osm_id":"6037363981","tag":{"amenity":"waste_basket","waste":"trash"}},"type":"Feature"},
	{"geometry":{"coordinates":[9.230567,45.787816],"type":"Point"},"properties":{"osm_id":"6982447433","tag":{"amenity":"waste_basket","waste":"trash"}},"type":"Feature"},
	{"geometry":{"coordinates":[9.229671,45.787479],"type":"Point"},"properties":{"osm_id":"6982447440","tag":{"amenity":"waste_basket","waste":"trash"}},"type":"Feature"},
	{"geometry":{"coordinates":[9.228963,45.787353],"type":"Point"},"properties":{"osm_id":"6982447442","tag":{"amenity":"waste_basket","waste":"trash"}},"type":"Feature"},
	{"geometry":{"coordinates":[9.267495,45.789243],"type":"Point"},"properties":{"osm_id":"7657330439","tag":{"amenity":"waste_basket"}},"type":"Feature"},
	{"geometry":{"coordinates":[9.274747,45.776246],"type":"Point"},"properties":{"name":"Centro per la raccolta differenziata dei rifiuti","osm_id":"7755673521","tag":{"addr:city":"Rogeno","addr:postcode":"23849","addr:street":"Via Calvenzana Inferiore","amenity":"recycling","building":"yes","opening_hours":"Apr-Sep Tu, Th 15:00-18:00; Sa 09:30-12:30, 13:30-16:30; Oct-Mar Tu, Th 13:30-16:30; Sa 09:30-12:30, 13:30-16:30","opening_hours:covid19":"Apr-Sep Tu, Th 15:00-18:00; Sa 09:30-12:30, 13:30-16:30; Oct-Mar Tu, Th 13:30-16:30; Sa 09:30-12:30, 13:30-16:30","operator":"Silea","recycling:aluminium":"yes","recycling:batteries":"yes","recycling:beverage_cartons":"yes","recycling:books":"yes","recycling:cans":"yes","recycling:cardboard":"yes","recycling:cartons":"yes","recycling:clothes":"yes","recycling:electrical_appliances":"yes","recycling:glass":"yes","recycling:glass_bottles":"yes","recycling:green_waste":"yes","recycling:magazines":"yes","recycling:newspaper":"yes","recycling:organic":"yes","recycling:paper":"yes","recycling:paper_packaging":"yes","recycling:plastic":"yes","recycling:plastic_bottles":"yes","recycling:plastic_packaging":"yes","recycling:scrap_metal":"yes","recycling:shoes":"yes","recycling:small_appliances":"yes","recycling:wood":"yes","recycling_type":"centre"}},"type":"Feature"}
]
}
