{
"type": "FeatureCollection",
"features": [
	{"geometry":{"coordinates":[9.255358,45.599697],"type":"Point"},"properties":{"osm_id":"1694988438","tag":{"amenity":"waste_basket"}},"type":"Feature"},
	{"geometry":{"coordinates":[9.254422,45.595769],"type":"Point"},"properties":{"osm_id":"1700723057","tag":{"amenity":"waste_basket"}},"type":"Feature"},
	{"geometry":{"coordinates":[9.278066,45.585502],"type":"Point"},"properties":{"osm_id":"2569565733","tag":{"access":"private","amenity":"recycling","recycling_type":"container"}},"type":"Feature"},
	{"geometry":{"coordinates":[9.291957,45.584126],"type":"Point"},"properties":{"osm_id":"2641501351","tag":{"amenity":"recycling","recycling_type":"container"}},"type":"Feature"},
	{"geometry":{"coordinates":[9.276206,45.588241],"type":"Point"},"properties":{"osm_id":"2682496592","tag":{"amenity":"waste_basket"}},"type":"Feature"},
	{"geometry":{"coordinates":[9.275181,45.589999],"type":"Point"},"properties":{"osm_id":"2682496659","tag":{"amenity":"waste_basket"}},"type":"Feature"},
	{"geometry":{"coordinates":[9.273989,45.590892],"type":"Point"},"properties":{"osm_id":"2682496683","tag":{"amenity":"waste_basket"}},"type":"Feature"},
	{"geometry":{"coordinates":[9.273865,45.590931],"type":"Point"},"properties":{"osm_id":"2682496686","tag":{"amenity":"waste_basket"}},"type":"Feature"},
	{"geometry":{"coordinates":[9.276293,45.59095],"type":"Point"},"properties":{"osm_id":"2682496691","tag":{"amenity":"waste_basket"}},"type":"Feature"},
	{"geometry":{"coordinates":[9.276703,45.590994],"type":"Point"},"properties":{"osm_id":"2682496694","tag":{"amenity":"waste_basket"}},"type":"Feature"},
	{"geometry":{"coordinates":[9.274857,45.591015],"type":"Point"},"properties":{"osm_id":"2682496696","tag":{"amenity":"waste_basket"}},"type":"Feature"},
	{"geometry":{"coordinates":[9.275849,45.591059],"type":"Point"},"properties":{"osm_id":"2682496701","tag":{"amenity":"waste_basket"}},"type":"Feature"},
	{"geometry":{"coordinates":[9.275493,45.584335],"type":"Point"},"properties":{"osm_id":"2694711458","tag":{"amenity":"waste_basket"}},"type":"Feature"},
	{"geometry":{"coordinates":[9.275507,45.584408],"type":"Point"},"properties":{"osm_id":"2694711459","tag":{"amenity":"waste_basket"}},"type":"Feature"},
	{"geometry":{"coordinates":[9.281051,45.585092],"type":"Point"},"properties":{"osm_id":"2704626194","tag":{"amenity":"waste_basket"}},"type":"Feature"},
	{"geometry":{"coordinates":[9.28098,45.585155],"type":"Point"},"properties":{"osm_id":"2704626234","tag":{"amenity":"waste_basket"}},"type":"Feature"},
	{"geometry":{"coordinates":[9.28127,45.586907],"type":"Point"},"properties":{"osm_id":"2704633685","tag":{"amenity":"recycling","operator":"Humana","recycling:clothes":"yes","recycling_type":"container"}},"type":"Feature"},
	{"geometry":{"coordinates":[9.277362,45.58382],"type":"Point"},"properties":{"osm_id":"2704644502","tag":{"amenity":"waste_basket"}},"type":"Feature"},
	{"geometry":{"coordinates":[9.273993,45.584105],"type":"Point"},"properties":{"osm_id":"2704670753","tag":{"amenity":"waste_basket"}},"type":"Feature"},
	{"geometry":{"coordinates":[9.27312,45.584131],"type":"Point"},"properties":{"osm_id":"2704670788","tag":{"amenity":"waste_basket"}},"type":"Feature"},
	{"geometry":{"coordinates":[9.274014,45.584316],"type":"Point"},"properties":{"osm_id":"2704670910","tag":{"amenity":"waste_basket"}},"type":"Feature"},
	{"geometry":{"coordinates":[9.27456,45.584369],"type":"Point"},"properties":{"osm_id":"2704670929","tag":{"amenity":"waste_basket"}},"type":"Feature"},
	{"geometry":{"coordinates":[9.274034,45.584561],"type":"Point"},"properties":{"osm_id":"2704670992","tag":{"amenity":"waste_basket"}},"type":"Feature"},
	{"geometry":{"coordinates":[9.273181,45.58456],"type":"Point"},"properties":{"osm_id":"2704671045","tag":{"amenity":"waste_basket"}},"type":"Feature"},
	{"geometry":{"coordinates":[9.277654,45.58415],"type":"Point"},"properties":{"osm_id":"2704701494","tag":{"amenity":"waste_basket"}},"type":"Feature"},
	{"geometry":{"coordinates":[9.27783,45.584332],"type":"Point"},"properties":{"osm_id":"2704701497","tag":{"amenity":"waste_basket"}},"type":"Feature"},
	{"geometry":{"coordinates":[9.280153,45.583496],"type":"Point"},"properties":{"osm_id":"2716976261","tag":{"amenity":"waste_basket"}},"type":"Feature"},
	{"geometry":{"coordinates":[9.28222,45.589231],"type":"Point"},"properties":{"osm_id":"2717065486","tag":{"amenity":"waste_basket"}},"type":"Feature"},
	{"geometry":{"coordinates":[9.284492,45.590834],"type":"Point"},"properties":{"osm_id":"2717080352","tag":{"amenity":"waste_basket"}},"type":"Feature"},
	{"geometry":{"coordinates":[9.284987,45.590914],"type":"Point"},"properties":{"osm_id":"2717080936","tag":{"amenity":"waste_basket"}},"type":"Feature"},
	{"geometry":{"coordinates":[9.284876,45.590981],"type":"Point"},"properties":{"osm_id":"2717081014","tag":{"amenity":"waste_basket"}},"type":"Feature"},
	{"geometry":{"coordinates":[9.284856,45.591128],"type":"Point"},"properties":{"osm_id":"2717081146","tag":{"amenity":"waste_basket"}},"type":"Feature"},
	{"geometry":{"coordinates":[9.284154,45.591617],"type":"Point"},"properties":{"osm_id":"2717081196","tag":{"amenity":"waste_basket"}},"type":"Feature"},
	{"geometry":{"coordinates":[9.275391,45.58512],"type":"Point"},"properties":{"osm_id":"2731624403","tag":{"amenity":"waste_basket"}},"type":"Feature"},
	{"geometry":{"coordinates":[9.275397,45.585158],"type":"Point"},"properties":{"osm_id":"2731624414","tag":{"amenity":"waste_basket"}},"type":"Feature"},
	{"geometry":{"coordinates":[9.272632,45.585728],"type":"Point"},"properties":{"osm_id":"2731624485","tag":{"amenity":"waste_basket"}},"type":"Feature"},
	{"geometry":{"coordinates":[9.27298,45.585774],"type":"Point"},"properties":{"osm_id":"2731624505","tag":{"amenity":"waste_basket"}},"type":"Feature"},
	{"geometry":{"coordinates":[9.272933,45.585853],"type":"Point"},"properties":{"osm_id":"2731624575","tag":{"amenity":"waste_basket"}},"type":"Feature"},
	{"geometry":{"coordinates":[9.274052,45.584998],"type":"Point"},"properties":{"osm_id":"2731669016","tag":{"amenity":"waste_basket"}},"type":"Feature"},
	{"geometry":{"coordinates":[9.273748,45.585033],"type":"Point"},"properties":{"osm_id":"2731669023","tag":{"amenity":"waste_basket"}},"type":"Feature"},
	{"geometry":{"coordinates":[9.274262,45.585093],"type":"Point"},"properties":{"osm_id":"2731669035","tag":{"amenity":"waste_basket"}},"type":"Feature"},
	{"geometry":{"coordinates":[9.274105,45.585134],"type":"Point"},"properties":{"osm_id":"2731669039","tag":{"amenity":"waste_basket"}},"type":"Feature"},
	{"geometry":{"coordinates":[9.274314,45.585425],"type":"Point"},"properties":{"osm_id":"2731669044","tag":{"amenity":"waste_basket"}},"type":"Feature"},
	{"geometry":{"coordinates":[9.273566,45.585841],"type":"Point"},"properties":{"osm_id":"2731669052","tag":{"amenity":"waste_basket"}},"type":"Feature"},
	{"geometry":{"coordinates":[9.273638,45.585844],"type":"Point"},"properties":{"osm_id":"2731669060","tag":{"amenity":"waste_basket"}},"type":"Feature"},
	{"geometry":{"coordinates":[9.274323,45.585887],"type":"Point"},"properties":{"osm_id":"2731669063","tag":{"amenity":"waste_basket"}},"type":"Feature"},
	{"geometry":{"coordinates":[9.274167,45.58589],"type":"Point"},"properties":{"osm_id":"2731669067","tag":{"amenity":"waste_basket"}},"type":"Feature"},
	{"geometry":{"coordinates":[9.279199,45.583911],"type":"Point"},"properties":{"osm_id":"2731925496","tag":{"amenity":"waste_basket"}},"type":"Feature"},
	{"geometry":{"coordinates":[9.277415,45.584006],"type":"Point"},"properties":{"osm_id":"2731925518","tag":{"amenity":"waste_basket"}},"type":"Feature"},
	{"geometry":{"coordinates":[9.277331,45.584103],"type":"Point"},"properties":{"osm_id":"2731925532","tag":{"amenity":"waste_basket"}},"type":"Feature"},
	{"geometry":{"coordinates":[9.277155,45.585969],"type":"Point"},"properties":{"osm_id":"2748217425","tag":{"amenity":"waste_basket"}},"type":"Feature"},
	{"geometry":{"coordinates":[9.276262,45.584313],"type":"Point"},"properties":{"osm_id":"2748309002","tag":{"amenity":"waste_basket"}},"type":"Feature"},
	{"geometry":{"coordinates":[9.27609,45.584332],"type":"Point"},"properties":{"osm_id":"2748309007","tag":{"amenity":"waste_basket"}},"type":"Feature"},
	{"geometry":{"coordinates":[9.275976,45.586031],"type":"Point"},"properties":{"osm_id":"2748344404","tag":{"amenity":"waste_basket"}},"type":"Feature"},
	{"geometry":{"coordinates":[9.277105,45.584228],"type":"Point"},"properties":{"osm_id":"2748375157","tag":{"amenity":"waste_basket"}},"type":"Feature"},
	{"geometry":{"coordinates":[9.283181,45.583354],"type":"Point"},"properties":{"osm_id":"2748451190","tag":{"amenity":"waste_basket"}},"type":"Feature"},
	{"geometry":{"coordinates":[9.282482,45.583896],"type":"Point"},"properties":{"osm_id":"2748451319","tag":{"amenity":"waste_basket"}},"type":"Feature"},
	{"geometry":{"coordinates":[9.285361,45.583503],"type":"Point"},"properties":{"osm_id":"2748485724","tag":{"amenity":"waste_basket"}},"type":"Feature"},
	{"geometry":{"coordinates":[9.284922,45.583572],"type":"Point"},"properties":{"osm_id":"2748485868","tag":{"amenity":"waste_basket"}},"type":"Feature"},
	{"geometry":{"coordinates":[9.284051,45.58366],"type":"Point"},"properties":{"osm_id":"2748486118","tag":{"amenity":"waste_basket"}},"type":"Feature"},
	{"geometry":{"coordinates":[9.283556,45.583727],"type":"Point"},"properties":{"osm_id":"2748486227","tag":{"amenity":"waste_basket"}},"type":"Feature"},
	{"geometry":{"coordinates":[9.284415,45.584122],"type":"Point"},"properties":{"osm_id":"2748530290","tag":{"amenity":"waste_basket"}},"type":"Feature"},
	{"geometry":{"coordinates":[9.286376,45.584222],"type":"Point"},"properties":{"osm_id":"2748530301","tag":{"amenity":"waste_basket"}},"type":"Feature"},
	{"geometry":{"coordinates":[9.28377,45.584461],"type":"Point"},"properties":{"osm_id":"2748530522","tag":{"amenity":"waste_basket"}},"type":"Feature"},
	{"geometry":{"coordinates":[9.283514,45.584617],"type":"Point"},"properties":{"osm_id":"2748530586","tag":{"amenity":"waste_basket"}},"type":"Feature"},
	{"geometry":{"coordinates":[9.284974,45.584758],"type":"Point"},"properties":{"osm_id":"2748530658","tag":{"amenity":"waste_basket"}},"type":"Feature"},
	{"geometry":{"coordinates":[9.285845,45.584815],"type":"Point"},"properties":{"osm_id":"2748530701","tag":{"amenity":"waste_basket"}},"type":"Feature"},
	{"geometry":{"coordinates":[9.285754,45.584822],"type":"Point"},"properties":{"osm_id":"2748530716","tag":{"amenity":"waste_basket"}},"type":"Feature"},
	{"geometry":{"coordinates":[9.28528,45.584853],"type":"Point"},"properties":{"osm_id":"2748530732","tag":{"amenity":"recycling","recycling:clothes":"yes","recycling_type":"container"}},"type":"Feature"},
	{"geometry":{"coordinates":[9.284719,45.586018],"type":"Point"},"properties":{"osm_id":"2751468252","tag":{"amenity":"waste_basket"}},"type":"Feature"},
	{"geometry":{"coordinates":[9.284447,45.592753],"type":"Point"},"properties":{"osm_id":"2751468485","tag":{"amenity":"waste_basket"}},"type":"Feature"},
	{"geometry":{"coordinates":[9.283961,45.592904],"type":"Point"},"properties":{"osm_id":"2751468500","tag":{"amenity":"waste_basket"}},"type":"Feature"},
	{"geometry":{"coordinates":[9.281011,45.59411],"type":"Point"},"properties":{"osm_id":"2751469350","tag":{"amenity":"waste_basket"}},"type":"Feature"},
	{"geometry":{"coordinates":[9.274996,45.594253],"type":"Point"},"properties":{"osm_id":"2751469673","tag":{"amenity":"waste_basket"}},"type":"Feature"},
	{"geometry":{"coordinates":[9.274558,45.594377],"type":"Point"},"properties":{"osm_id":"2751469740","tag":{"amenity":"waste_basket"}},"type":"Feature"},
	{"geometry":{"coordinates":[9.272776,45.594554],"type":"Point"},"properties":{"osm_id":"2751469808","tag":{"amenity":"waste_basket"}},"type":"Feature"},
	{"geometry":{"coordinates":[9.276491,45.594573],"type":"Point"},"properties":{"osm_id":"2751469839","tag":{"amenity":"waste_basket"}},"type":"Feature"},
	{"geometry":{"coordinates":[9.276611,45.595133],"type":"Point"},"properties":{"osm_id":"2751470262","tag":{"amenity":"waste_basket"}},"type":"Feature"},
	{"geometry":{"coordinates":[9.278834,45.595339],"type":"Point"},"properties":{"osm_id":"2751471145","tag":{"amenity":"waste_basket"}},"type":"Feature"},
	{"geometry":{"coordinates":[9.276545,45.59553],"type":"Point"},"properties":{"osm_id":"2751471511","tag":{"amenity":"waste_basket"}},"type":"Feature"},
	{"geometry":{"coordinates":[9.275725,45.595663],"type":"Point"},"properties":{"osm_id":"2751471537","tag":{"amenity":"waste_basket"}},"type":"Feature"},
	{"geometry":{"coordinates":[9.27523,45.595736],"type":"Point"},"properties":{"osm_id":"2751471551","tag":{"amenity":"waste_basket"}},"type":"Feature"},
	{"geometry":{"coordinates":[9.277513,45.59598],"type":"Point"},"properties":{"osm_id":"2751471603","tag":{"amenity":"waste_basket"}},"type":"Feature"},
	{"geometry":{"coordinates":[9.278286,45.595983],"type":"Point"},"properties":{"osm_id":"2751471604","tag":{"amenity":"waste_basket"}},"type":"Feature"},
	{"geometry":{"coordinates":[9.274808,45.596053],"type":"Point"},"properties":{"osm_id":"2751471610","tag":{"amenity":"waste_basket"}},"type":"Feature"},
	{"geometry":{"coordinates":[9.277782,45.59665],"type":"Point"},"properties":{"osm_id":"2751471878","tag":{"amenity":"waste_basket"}},"type":"Feature"},
	{"geometry":{"coordinates":[9.277415,45.59667],"type":"Point"},"properties":{"osm_id":"2751471882","tag":{"amenity":"waste_basket"}},"type":"Feature"},
	{"geometry":{"coordinates":[9.273212,45.597221],"type":"Point"},"properties":{"osm_id":"2751472022","tag":{"amenity":"waste_basket"}},"type":"Feature"},
	{"geometry":{"coordinates":[9.271183,45.597434],"type":"Point"},"properties":{"osm_id":"2751472332","tag":{"amenity":"waste_basket"}},"type":"Feature"},
	{"geometry":{"coordinates":[9.274572,45.598228],"type":"Point"},"properties":{"osm_id":"2751473024","tag":{"amenity":"waste_basket"}},"type":"Feature"},
	{"geometry":{"coordinates":[9.27473,45.598247],"type":"Point"},"properties":{"osm_id":"2751473069","tag":{"amenity":"waste_basket"}},"type":"Feature"},
	{"geometry":{"coordinates":[9.272107,45.59305],"type":"Point"},"properties":{"osm_id":"2761868332","tag":{"amenity":"waste_basket"}},"type":"Feature"},
	{"geometry":{"coordinates":[9.272319,45.593082],"type":"Point"},"properties":{"osm_id":"2761868355","tag":{"amenity":"waste_basket"}},"type":"Feature"},
	{"geometry":{"coordinates":[9.272062,45.59323],"type":"Point"},"properties":{"osm_id":"2761868383","tag":{"amenity":"waste_basket"}},"type":"Feature"},
	{"geometry":{"coordinates":[9.2723,45.59326],"type":"Point"},"properties":{"osm_id":"2761868420","tag":{"amenity":"waste_basket"}},"type":"Feature"},
	{"geometry":{"coordinates":[9.276646,45.587064],"type":"Point"},"properties":{"osm_id":"2762421527","tag":{"amenity":"waste_basket"}},"type":"Feature"},
	{"geometry":{"coordinates":[9.276833,45.587112],"type":"Point"},"properties":{"osm_id":"2762421558","tag":{"amenity":"waste_basket"}},"type":"Feature"},
	{"geometry":{"coordinates":[9.277045,45.587165],"type":"Point"},"properties":{"osm_id":"2762421572","tag":{"amenity":"waste_basket"}},"type":"Feature"},
	{"geometry":{"coordinates":[9.27071,45.583764],"type":"Point"},"properties":{"osm_id":"2783468886","tag":{"amenity":"waste_basket"}},"type":"Feature"},
	{"geometry":{"coordinates":[9.270854,45.58379],"type":"Point"},"properties":{"osm_id":"2783468888","tag":{"amenity":"waste_basket"}},"type":"Feature"},
	{"geometry":{"coordinates":[9.270751,45.583819],"type":"Point"},"properties":{"osm_id":"2783468891","tag":{"amenity":"waste_basket"}},"type":"Feature"},
	{"geometry":{"coordinates":[9.270417,45.584221],"type":"Point"},"properties":{"osm_id":"2783505250","tag":{"amenity":"waste_basket"}},"type":"Feature"},
	{"geometry":{"coordinates":[9.273437,45.585893],"type":"Point"},"properties":{"osm_id":"2783597163","tag":{"amenity":"waste_basket"}},"type":"Feature"},
	{"geometry":{"coordinates":[9.272464,45.585842],"type":"Point"},"properties":{"osm_id":"2783709119","tag":{"amenity":"waste_basket"}},"type":"Feature"},
	{"geometry":{"coordinates":[9.271359,45.586059],"type":"Point"},"properties":{"osm_id":"2783709139","tag":{"amenity":"waste_basket"}},"type":"Feature"},
	{"geometry":{"coordinates":[9.270227,45.586568],"type":"Point"},"properties":{"osm_id":"2783709192","tag":{"amenity":"waste_basket"}},"type":"Feature"},
	{"geometry":{"coordinates":[9.270359,45.586576],"type":"Point"},"properties":{"osm_id":"2783709202","tag":{"amenity":"waste_basket"}},"type":"Feature"},
	{"geometry":{"coordinates":[9.270108,45.586581],"type":"Point"},"properties":{"osm_id":"2783709215","tag":{"amenity":"waste_basket"}},"type":"Feature"},
	{"geometry":{"coordinates":[9.269914,45.586248],"type":"Point"},"properties":{"osm_id":"2783736215","tag":{"amenity":"waste_basket"}},"type":"Feature"},
	{"geometry":{"coordinates":[9.280909,45.584277],"type":"Point"},"properties":{"osm_id":"2793362890","tag":{"amenity":"waste_basket"}},"type":"Feature"},
	{"geometry":{"coordinates":[9.281352,45.585142],"type":"Point"},"properties":{"osm_id":"2793362901","tag":{"amenity":"waste_basket"}},"type":"Feature"},
	{"geometry":{"coordinates":[9.281365,45.585171],"type":"Point"},"properties":{"osm_id":"2793362937","tag":{"amenity":"waste_basket"}},"type":"Feature"},
	{"geometry":{"coordinates":[9.275843,45.587753],"type":"Point"},"properties":{"osm_id":"2793491739","tag":{"amenity":"waste_basket"}},"type":"Feature"},
	{"geometry":{"coordinates":[9.282915,45.591748],"type":"Point"},"properties":{"osm_id":"2800559671","tag":{"amenity":"waste_basket"}},"type":"Feature"},
	{"geometry":{"coordinates":[9.286115,45.58895],"type":"Point"},"properties":{"osm_id":"2800562141","tag":{"amenity":"waste_basket"}},"type":"Feature"},
	{"geometry":{"coordinates":[9.274421,45.592075],"type":"Point"},"properties":{"osm_id":"2800562886","tag":{"amenity":"waste_basket"}},"type":"Feature"},
	{"geometry":{"coordinates":[9.289748,45.592081],"type":"Point"},"properties":{"osm_id":"2800562888","tag":{"amenity":"waste_basket"}},"type":"Feature"},
	{"geometry":{"coordinates":[9.289895,45.592178],"type":"Point"},"properties":{"osm_id":"2800563985","tag":{"amenity":"waste_basket"}},"type":"Feature"},
	{"geometry":{"coordinates":[9.284857,45.586126],"type":"Point"},"properties":{"osm_id":"2800564788","tag":{"amenity":"waste_basket"}},"type":"Feature"},
	{"geometry":{"coordinates":[9.284529,45.585775],"type":"Point"},"properties":{"osm_id":"2800564802","tag":{"amenity":"waste_basket"}},"type":"Feature"},
	{"geometry":{"coordinates":[9.285004,45.587484],"type":"Point"},"properties":{"osm_id":"2800564902","tag":{"amenity":"recycling","recycling:clothes":"yes","recycling_type":"container"}},"type":"Feature"},
	{"geometry":{"coordinates":[9.274551,45.591551],"type":"Point"},"properties":{"osm_id":"2800564912","tag":{"amenity":"waste_basket"}},"type":"Feature"},
	{"geometry":{"coordinates":[9.281538,45.591884],"type":"Point"},"properties":{"osm_id":"2800565430","tag":{"amenity":"waste_basket"}},"type":"Feature"},
	{"geometry":{"coordinates":[9.277748,45.59232],"type":"Point"},"properties":{"osm_id":"2800565467","tag":{"amenity":"waste_basket"}},"type":"Feature"},
	{"geometry":{"coordinates":[9.276235,45.592466],"type":"Point"},"properties":{"osm_id":"2800565593","tag":{"amenity":"waste_basket"}},"type":"Feature"},
	{"geometry":{"coordinates":[9.277395,45.5925],"type":"Point"},"properties":{"osm_id":"2800565595","tag":{"amenity":"waste_basket"}},"type":"Feature"},
	{"geometry":{"coordinates":[9.274912,45.592223],"type":"Point"},"properties":{"osm_id":"2800565605","tag":{"amenity":"waste_basket"}},"type":"Feature"},
	{"geometry":{"coordinates":[9.278208,45.592341],"type":"Point"},"properties":{"osm_id":"2800565614","tag":{"amenity":"waste_basket"}},"type":"Feature"},
	{"geometry":{"coordinates":[9.274858,45.592604],"type":"Point"},"properties":{"osm_id":"2800565815","tag":{"amenity":"waste_basket"}},"type":"Feature"},
	{"geometry":{"coordinates":[9.275473,45.592786],"type":"Point"},"properties":{"osm_id":"2800565832","tag":{"amenity":"waste_basket"}},"type":"Feature"},
	{"geometry":{"coordinates":[9.281044,45.592713],"type":"Point"},"properties":{"osm_id":"2800566112","tag":{"amenity":"waste_basket"}},"type":"Feature"},
	{"geometry":{"coordinates":[9.278427,45.59537],"type":"Point"},"properties":{"osm_id":"2800566179","tag":{"amenity":"waste_basket"}},"type":"Feature"},
	{"geometry":{"coordinates":[9.277448,45.59342],"type":"Point"},"properties":{"osm_id":"2800566755","tag":{"amenity":"waste_basket"}},"type":"Feature"},
	{"geometry":{"coordinates":[9.278628,45.593471],"type":"Point"},"properties":{"osm_id":"2800566756","tag":{"amenity":"waste_basket"}},"type":"Feature"},
	{"geometry":{"coordinates":[9.28625,45.595048],"type":"Point"},"properties":{"osm_id":"2800567233","tag":{"amenity":"waste_basket"}},"type":"Feature"},
	{"geometry":{"coordinates":[9.27843,45.595137],"type":"Point"},"properties":{"osm_id":"2800567239","tag":{"amenity":"waste_basket"}},"type":"Feature"},
	{"geometry":{"coordinates":[9.279727,45.594018],"type":"Point"},"properties":{"osm_id":"2800568054","tag":{"amenity":"waste_basket"}},"type":"Feature"},
	{"geometry":{"coordinates":[9.279194,45.594966],"type":"Point"},"properties":{"osm_id":"2800568392","tag":{"amenity":"waste_basket"}},"type":"Feature"},
	{"geometry":{"coordinates":[9.273775,45.583944],"type":"Point"},"properties":{"osm_id":"2846112737","tag":{"amenity":"waste_basket"}},"type":"Feature"},
	{"geometry":{"coordinates":[9.277832,45.585051],"type":"Point"},"properties":{"osm_id":"2876326052","tag":{"amenity":"waste_basket"}},"type":"Feature"},
	{"geometry":{"coordinates":[9.277901,45.585196],"type":"Point"},"properties":{"osm_id":"2876326157","tag":{"amenity":"waste_basket"}},"type":"Feature"},
	{"geometry":{"coordinates":[9.264958,45.583539],"type":"Point"},"properties":{"osm_id":"2876346762","tag":{"amenity":"waste_basket"}},"type":"Feature"},
	{"geometry":{"coordinates":[9.265085,45.583359],"type":"Point"},"properties":{"osm_id":"2876354674","tag":{"amenity":"waste_basket"}},"type":"Feature"},
	{"geometry":{"coordinates":[9.266303,45.583652],"type":"Point"},"properties":{"osm_id":"2876357552","tag":{"amenity":"waste_basket"}},"type":"Feature"},
	{"geometry":{"coordinates":[9.264135,45.5851],"type":"Point"},"properties":{"osm_id":"2876436075","tag":{"amenity":"waste_basket"}},"type":"Feature"},
	{"geometry":{"coordinates":[9.265851,45.585475],"type":"Point"},"properties":{"osm_id":"2876437805","tag":{"amenity":"waste_basket"}},"type":"Feature"},
	{"geometry":{"coordinates":[9.265977,45.585377],"type":"Point"},"properties":{"osm_id":"2876437943","tag":{"amenity":"waste_basket"}},"type":"Feature"},
	{"geometry":{"coordinates":[9.274613,45.583918],"type":"Point"},"properties":{"osm_id":"2902998033","tag":{"amenity":"waste_basket"}},"type":"Feature"},
	{"geometry":{"coordinates":[9.274355,45.583615],"type":"Point"},"properties":{"osm_id":"2902999077","tag":{"amenity":"waste_basket"}},"type":"Feature"},
	{"geometry":{"coordinates":[9.275139,45.583844],"type":"Point"},"properties":{"osm_id":"2902999078","tag":{"amenity":"waste_basket"}},"type":"Feature"},
	{"geometry":{"coordinates":[9.276294,45.583944],"type":"Point"},"properties":{"osm_id":"2902999079","tag":{"amenity":"waste_basket"}},"type":"Feature"},
	{"geometry":{"coordinates":[9.277085,45.58414],"type":"Point"},"properties":{"osm_id":"2902999080","tag":{"amenity":"waste_basket"}},"type":"Feature"},
	{"geometry":{"coordinates":[9.272934,45.584232],"type":"Point"},"properties":{"osm_id":"2902999081","tag":{"amenity":"waste_basket"}},"type":"Feature"},
	{"geometry":{"coordinates":[9.275271,45.584269],"type":"Point"},"properties":{"osm_id":"2902999082","tag":{"amenity":"waste_basket"}},"type":"Feature"},
	{"geometry":{"coordinates":[9.275295,45.584599],"type":"Point"},"properties":{"osm_id":"2902999084","tag":{"amenity":"waste_basket"}},"type":"Feature"},
	{"geometry":{"coordinates":[9.272885,45.583302],"type":"Point"},"properties":{"osm_id":"2903002171","tag":{"amenity":"waste_basket"}},"type":"Feature"},
	{"geometry":{"coordinates":[9.274693,45.583308],"type":"Point"},"properties":{"osm_id":"2903002238","tag":{"amenity":"waste_basket"}},"type":"Feature"},
	{"geometry":{"coordinates":[9.275175,45.583308],"type":"Point"},"properties":{"osm_id":"2903002239","tag":{"amenity":"waste_basket"}},"type":"Feature"},
	{"geometry":{"coordinates":[9.273833,45.583373],"type":"Point"},"properties":{"osm_id":"2903002240","tag":{"amenity":"waste_basket"}},"type":"Feature"},
	{"geometry":{"coordinates":[9.274182,45.583533],"type":"Point"},"properties":{"osm_id":"2903002241","tag":{"amenity":"waste_basket"}},"type":"Feature"},
	{"geometry":{"coordinates":[9.274612,45.583582],"type":"Point"},"properties":{"osm_id":"2903002243","tag":{"amenity":"waste_basket"}},"type":"Feature"},
	{"geometry":{"coordinates":[9.274452,45.583771],"type":"Point"},"properties":{"osm_id":"2903002244","tag":{"amenity":"waste_basket"}},"type":"Feature"},
	{"geometry":{"coordinates":[9.274262,45.583989],"type":"Point"},"properties":{"osm_id":"2903002266","tag":{"amenity":"waste_basket"}},"type":"Feature"},
	{"geometry":{"coordinates":[9.274469,45.584198],"type":"Point"},"properties":{"osm_id":"2903002267","tag":{"amenity":"waste_basket"}},"type":"Feature"},
	{"geometry":{"coordinates":[9.274929,45.584244],"type":"Point"},"properties":{"osm_id":"2903002268","tag":{"amenity":"waste_basket"}},"type":"Feature"},
	{"geometry":{"coordinates":[9.274242,45.584301],"type":"Point"},"properties":{"osm_id":"2903002270","tag":{"amenity":"waste_basket"}},"type":"Feature"},
	{"geometry":{"coordinates":[9.274358,45.584498],"type":"Point"},"properties":{"osm_id":"2903002272","tag":{"amenity":"waste_basket"}},"type":"Feature"},
	{"geometry":{"coordinates":[9.274742,45.584556],"type":"Point"},"properties":{"osm_id":"2903002273","tag":{"amenity":"waste_basket"}},"type":"Feature"},
	{"geometry":{"coordinates":[9.275104,45.584739],"type":"Point"},"properties":{"osm_id":"2903002274","tag":{"amenity":"waste_basket"}},"type":"Feature"},
	{"geometry":{"coordinates":[9.279012,45.583897],"type":"Point"},"properties":{"osm_id":"2903025625","tag":{"amenity":"waste_basket"}},"type":"Feature"},
	{"geometry":{"coordinates":[9.278069,45.583982],"type":"Point"},"properties":{"osm_id":"2903025626","tag":{"amenity":"waste_basket"}},"type":"Feature"},
	{"geometry":{"coordinates":[9.279067,45.58399],"type":"Point"},"properties":{"osm_id":"2903025627","tag":{"amenity":"waste_basket"}},"type":"Feature"},
	{"geometry":{"coordinates":[9.279886,45.584198],"type":"Point"},"properties":{"osm_id":"2903026378","tag":{"amenity":"waste_basket"}},"type":"Feature"},
	{"geometry":{"coordinates":[9.279794,45.584256],"type":"Point"},"properties":{"osm_id":"2903026379","tag":{"amenity":"waste_basket"}},"type":"Feature"},
	{"geometry":{"coordinates":[9.280741,45.585519],"type":"Point"},"properties":{"osm_id":"2915596856","tag":{"amenity":"waste_basket"}},"type":"Feature"},
	{"geometry":{"coordinates":[9.278526,45.585549],"type":"Point"},"properties":{"osm_id":"2915596857","tag":{"amenity":"waste_basket"}},"type":"Feature"},
	{"geometry":{"coordinates":[9.278291,45.585838],"type":"Point"},"properties":{"osm_id":"2915596858","tag":{"amenity":"waste_basket"}},"type":"Feature"},
	{"geometry":{"coordinates":[9.272928,45.583956],"type":"Point"},"properties":{"osm_id":"2915597188","tag":{"amenity":"waste_basket"}},"type":"Feature"},
	{"geometry":{"coordinates":[9.272441,45.583977],"type":"Point"},"properties":{"osm_id":"2915597191","tag":{"amenity":"waste_basket"}},"type":"Feature"},
	{"geometry":{"coordinates":[9.271885,45.583999],"type":"Point"},"properties":{"osm_id":"2915597193","tag":{"amenity":"waste_basket"}},"type":"Feature"},
	{"geometry":{"coordinates":[9.273143,45.584032],"type":"Point"},"properties":{"osm_id":"2915597194","tag":{"amenity":"waste_basket"}},"type":"Feature"},
	{"geometry":{"coordinates":[9.274218,45.584723],"type":"Point"},"properties":{"osm_id":"2915597200","tag":{"amenity":"waste_basket"}},"type":"Feature"},
	{"geometry":{"coordinates":[9.270968,45.587026],"type":"Point"},"properties":{"osm_id":"2915599231","tag":{"amenity":"waste_basket"}},"type":"Feature"},
	{"geometry":{"coordinates":[9.27717,45.587157],"type":"Point"},"properties":{"osm_id":"2915599234","tag":{"amenity":"waste_basket"}},"type":"Feature"},
	{"geometry":{"coordinates":[9.268153,45.587161],"type":"Point"},"properties":{"osm_id":"2915599235","tag":{"amenity":"waste_basket"}},"type":"Feature"},
	{"geometry":{"coordinates":[9.276032,45.587164],"type":"Point"},"properties":{"osm_id":"2915599236","tag":{"amenity":"waste_basket"}},"type":"Feature"},
	{"geometry":{"coordinates":[9.276171,45.587193],"type":"Point"},"properties":{"osm_id":"2915599238","tag":{"amenity":"waste_basket"}},"type":"Feature"},
	{"geometry":{"coordinates":[9.272412,45.587356],"type":"Point"},"properties":{"osm_id":"2915599245","tag":{"amenity":"waste_basket"}},"type":"Feature"},
	{"geometry":{"coordinates":[9.26764,45.587361],"type":"Point"},"properties":{"osm_id":"2915599246","tag":{"amenity":"waste_basket"}},"type":"Feature"},
	{"geometry":{"coordinates":[9.272564,45.587391],"type":"Point"},"properties":{"osm_id":"2915599249","tag":{"amenity":"waste_basket"}},"type":"Feature"},
	{"geometry":{"coordinates":[9.272705,45.587431],"type":"Point"},"properties":{"osm_id":"2915599252","tag":{"amenity":"waste_basket"}},"type":"Feature"},
	{"geometry":{"coordinates":[9.271208,45.583839],"type":"Point"},"properties":{"osm_id":"2915599851","tag":{"amenity":"waste_basket"}},"type":"Feature"},
	{"geometry":{"coordinates":[9.271425,45.583892],"type":"Point"},"properties":{"osm_id":"2915599852","tag":{"amenity":"waste_basket"}},"type":"Feature"},
	{"geometry":{"coordinates":[9.279536,45.584086],"type":"Point"},"properties":{"osm_id":"2915599853","tag":{"amenity":"waste_basket"}},"type":"Feature"},
	{"geometry":{"coordinates":[9.271835,45.584087],"type":"Point"},"properties":{"osm_id":"2915599854","tag":{"amenity":"waste_basket"}},"type":"Feature"},
	{"geometry":{"coordinates":[9.271685,45.584301],"type":"Point"},"properties":{"osm_id":"2915599876","tag":{"amenity":"waste_basket"}},"type":"Feature"},
	{"geometry":{"coordinates":[9.271013,45.584323],"type":"Point"},"properties":{"osm_id":"2915599878","tag":{"amenity":"waste_basket"}},"type":"Feature"},
	{"geometry":{"coordinates":[9.280018,45.584414],"type":"Point"},"properties":{"osm_id":"2915599886","tag":{"amenity":"waste_basket"}},"type":"Feature"},
	{"geometry":{"coordinates":[9.272965,45.584511],"type":"Point"},"properties":{"osm_id":"2915599892","tag":{"amenity":"waste_basket"}},"type":"Feature"},
	{"geometry":{"coordinates":[9.272823,45.584555],"type":"Point"},"properties":{"osm_id":"2915599893","tag":{"amenity":"waste_basket"}},"type":"Feature"},
	{"geometry":{"coordinates":[9.27446,45.584592],"type":"Point"},"properties":{"osm_id":"2915599897","tag":{"amenity":"waste_basket"}},"type":"Feature"},
	{"geometry":{"coordinates":[9.273365,45.5846],"type":"Point"},"properties":{"osm_id":"2915599899","tag":{"amenity":"waste_basket"}},"type":"Feature"},
	{"geometry":{"coordinates":[9.264292,45.587788],"type":"Point"},"properties":{"osm_id":"2915600891","tag":{"amenity":"waste_basket"}},"type":"Feature"},
	{"geometry":{"coordinates":[9.266185,45.587814],"type":"Point"},"properties":{"osm_id":"2915600895","tag":{"amenity":"waste_basket"}},"type":"Feature"},
	{"geometry":{"coordinates":[9.266049,45.58789],"type":"Point"},"properties":{"osm_id":"2915600898","tag":{"amenity":"waste_basket"}},"type":"Feature"},
	{"geometry":{"coordinates":[9.266562,45.587913],"type":"Point"},"properties":{"osm_id":"2915600899","tag":{"amenity":"waste_basket"}},"type":"Feature"},
	{"geometry":{"coordinates":[9.272127,45.584538],"type":"Point"},"properties":{"osm_id":"2915600984","tag":{"amenity":"waste_basket"}},"type":"Feature"},
	{"geometry":{"coordinates":[9.278881,45.585605],"type":"Point"},"properties":{"osm_id":"2915600987","tag":{"amenity":"waste_basket"}},"type":"Feature"},
	{"geometry":{"coordinates":[9.278108,45.585635],"type":"Point"},"properties":{"osm_id":"2915600988","tag":{"amenity":"waste_basket"}},"type":"Feature"},
	{"geometry":{"coordinates":[9.277313,45.585823],"type":"Point"},"properties":{"osm_id":"2915600989","tag":{"amenity":"waste_basket"}},"type":"Feature"},
	{"geometry":{"coordinates":[9.274876,45.58586],"type":"Point"},"properties":{"osm_id":"2915600990","tag":{"amenity":"waste_basket"}},"type":"Feature"},
	{"geometry":{"coordinates":[9.275758,45.586489],"type":"Point"},"properties":{"osm_id":"2915600993","tag":{"amenity":"waste_basket"}},"type":"Feature"},
	{"geometry":{"coordinates":[9.269647,45.586779],"type":"Point"},"properties":{"osm_id":"2915600994","tag":{"amenity":"waste_basket"}},"type":"Feature"},
	{"geometry":{"coordinates":[9.269853,45.586844],"type":"Point"},"properties":{"osm_id":"2915600995","tag":{"amenity":"waste_basket"}},"type":"Feature"},
	{"geometry":{"coordinates":[9.273974,45.584727],"type":"Point"},"properties":{"osm_id":"2915601001","tag":{"amenity":"waste_basket"}},"type":"Feature"},
	{"geometry":{"coordinates":[9.273229,45.584738],"type":"Point"},"properties":{"osm_id":"2915601004","tag":{"amenity":"waste_basket"}},"type":"Feature"},
	{"geometry":{"coordinates":[9.277208,45.584769],"type":"Point"},"properties":{"osm_id":"2915601006","tag":{"amenity":"waste_basket"}},"type":"Feature"},
	{"geometry":{"coordinates":[9.27399,45.584834],"type":"Point"},"properties":{"osm_id":"2915601007","tag":{"amenity":"waste_basket"}},"type":"Feature"},
	{"geometry":{"coordinates":[9.273231,45.584874],"type":"Point"},"properties":{"osm_id":"2915601008","tag":{"amenity":"waste_basket"}},"type":"Feature"},
	{"geometry":{"coordinates":[9.274267,45.584892],"type":"Point"},"properties":{"osm_id":"2915601010","tag":{"amenity":"waste_basket"}},"type":"Feature"},
	{"geometry":{"coordinates":[9.277206,45.584899],"type":"Point"},"properties":{"osm_id":"2915601011","tag":{"amenity":"waste_basket"}},"type":"Feature"},
	{"geometry":{"coordinates":[9.273048,45.584912],"type":"Point"},"properties":{"osm_id":"2915601012","tag":{"amenity":"waste_basket"}},"type":"Feature"},
	{"geometry":{"coordinates":[9.271408,45.584899],"type":"Point"},"properties":{"osm_id":"2915601013","tag":{"amenity":"waste_basket"}},"type":"Feature"},
	{"geometry":{"coordinates":[9.280861,45.585056],"type":"Point"},"properties":{"osm_id":"2915601014","tag":{"amenity":"waste_basket"}},"type":"Feature"},
	{"geometry":{"coordinates":[9.279226,45.585877],"type":"Point"},"properties":{"osm_id":"2915601015","tag":{"amenity":"waste_basket"}},"type":"Feature"},
	{"geometry":{"coordinates":[9.275712,45.586207],"type":"Point"},"properties":{"osm_id":"2915601023","tag":{"amenity":"waste_basket"}},"type":"Feature"},
	{"geometry":{"coordinates":[9.267201,45.587541],"type":"Point"},"properties":{"osm_id":"2915601098","tag":{"amenity":"waste_basket"}},"type":"Feature"},
	{"geometry":{"coordinates":[9.269236,45.586895],"type":"Point"},"properties":{"osm_id":"2915601202","tag":{"amenity":"waste_basket"}},"type":"Feature"},
	{"geometry":{"coordinates":[9.276732,45.586954],"type":"Point"},"properties":{"osm_id":"2915601203","tag":{"amenity":"waste_basket"}},"type":"Feature"},
	{"geometry":{"coordinates":[9.272653,45.587559],"type":"Point"},"properties":{"osm_id":"2915601302","tag":{"amenity":"waste_basket"}},"type":"Feature"},
	{"geometry":{"coordinates":[9.266101,45.588108],"type":"Point"},"properties":{"osm_id":"2915601506","tag":{"amenity":"waste_basket"}},"type":"Feature"},
	{"geometry":{"coordinates":[9.281148,45.595782],"type":"Point"},"properties":{"osm_id":"2915810286","tag":{"amenity":"waste_basket"}},"type":"Feature"},
	{"geometry":{"coordinates":[9.275198,45.595085],"type":"Point"},"properties":{"osm_id":"2915810922","tag":{"amenity":"waste_basket"}},"type":"Feature"},
	{"geometry":{"coordinates":[9.275435,45.595161],"type":"Point"},"properties":{"osm_id":"2915810925","tag":{"amenity":"waste_basket"}},"type":"Feature"},
	{"geometry":{"coordinates":[9.282205,45.596497],"type":"Point"},"properties":{"osm_id":"2915811113","tag":{"amenity":"waste_basket"}},"type":"Feature"},
	{"geometry":{"coordinates":[9.281902,45.595513],"type":"Point"},"properties":{"osm_id":"2915811206","tag":{"amenity":"waste_basket"}},"type":"Feature"},
	{"geometry":{"coordinates":[9.282468,45.598273],"type":"Point"},"properties":{"osm_id":"2915811587","tag":{"amenity":"waste_basket"}},"type":"Feature"},
	{"geometry":{"coordinates":[9.282242,45.598399],"type":"Point"},"properties":{"osm_id":"2915812001","tag":{"amenity":"waste_basket"}},"type":"Feature"},
	{"geometry":{"coordinates":[9.274986,45.598461],"type":"Point"},"properties":{"osm_id":"2915812004","tag":{"amenity":"waste_basket"}},"type":"Feature"},
	{"geometry":{"coordinates":[9.27514,45.598994],"type":"Point"},"properties":{"osm_id":"2915812022","tag":{"amenity":"waste_basket"}},"type":"Feature"},
	{"geometry":{"coordinates":[9.282333,45.599063],"type":"Point"},"properties":{"osm_id":"2915812027","tag":{"amenity":"waste_basket"}},"type":"Feature"},
	{"geometry":{"coordinates":[9.276553,45.599288],"type":"Point"},"properties":{"osm_id":"2915812034","tag":{"amenity":"waste_basket"}},"type":"Feature"},
	{"geometry":{"coordinates":[9.282426,45.599314],"type":"Point"},"properties":{"osm_id":"2915812035","tag":{"amenity":"waste_basket"}},"type":"Feature"},
	{"geometry":{"coordinates":[9.282592,45.599333],"type":"Point"},"properties":{"osm_id":"2915812036","tag":{"amenity":"waste_basket"}},"type":"Feature"},
	{"geometry":{"coordinates":[9.277347,45.599751],"type":"Point"},"properties":{"osm_id":"2915812052","tag":{"amenity":"waste_basket"}},"type":"Feature"},
	{"geometry":{"coordinates":[9.28264,45.600962],"type":"Point"},"properties":{"osm_id":"2915812411","tag":{"amenity":"waste_basket"}},"type":"Feature"},
	{"geometry":{"coordinates":[9.277703,45.600995],"type":"Point"},"properties":{"osm_id":"2915812414","tag":{"amenity":"waste_basket"}},"type":"Feature"},
	{"geometry":{"coordinates":[9.28296,45.601624],"type":"Point"},"properties":{"osm_id":"2915812451","tag":{"amenity":"waste_basket"}},"type":"Feature"},
	{"geometry":{"coordinates":[9.282936,45.601521],"type":"Point"},"properties":{"osm_id":"2915812504","tag":{"amenity":"waste_basket"}},"type":"Feature"},
	{"geometry":{"coordinates":[9.277756,45.602292],"type":"Point"},"properties":{"osm_id":"2915812606","tag":{"amenity":"waste_basket"}},"type":"Feature"},
	{"geometry":{"coordinates":[9.283073,45.602199],"type":"Point"},"properties":{"osm_id":"2915812912","tag":{"amenity":"waste_basket"}},"type":"Feature"},
	{"geometry":{"coordinates":[9.263549,45.588771],"type":"Point"},"properties":{"osm_id":"2925113315","tag":{"amenity":"waste_basket"}},"type":"Feature"},
	{"geometry":{"coordinates":[9.26195,45.589188],"type":"Point"},"properties":{"osm_id":"2925119618","tag":{"amenity":"waste_basket"}},"type":"Feature"},
	{"geometry":{"coordinates":[9.264464,45.588814],"type":"Point"},"properties":{"osm_id":"2925133966","tag":{"amenity":"waste_basket"}},"type":"Feature"},
	{"geometry":{"coordinates":[9.27157,45.584405],"type":"Point"},"properties":{"osm_id":"2935665111","tag":{"amenity":"waste_basket"}},"type":"Feature"},
	{"geometry":{"coordinates":[9.271242,45.584361],"type":"Point"},"properties":{"osm_id":"2935665521","tag":{"amenity":"waste_basket"}},"type":"Feature"},
	{"geometry":{"coordinates":[9.268618,45.585202],"type":"Point"},"properties":{"osm_id":"2935684023","tag":{"amenity":"waste_basket"}},"type":"Feature"},
	{"geometry":{"coordinates":[9.268116,45.58601],"type":"Point"},"properties":{"osm_id":"2935684169","tag":{"amenity":"waste_basket"}},"type":"Feature"},
	{"geometry":{"coordinates":[9.264993,45.586567],"type":"Point"},"properties":{"osm_id":"2935723162","tag":{"amenity":"waste_basket"}},"type":"Feature"},
	{"geometry":{"coordinates":[9.265052,45.58665],"type":"Point"},"properties":{"osm_id":"2935723167","tag":{"amenity":"recycling","recycling:batteries":"yes","recycling_type":"container"}},"type":"Feature"},
	{"geometry":{"coordinates":[9.261664,45.585718],"type":"Point"},"properties":{"osm_id":"2935774088","tag":{"amenity":"waste_basket"}},"type":"Feature"},
	{"geometry":{"coordinates":[9.261811,45.587145],"type":"Point"},"properties":{"osm_id":"2935818718","tag":{"amenity":"waste_basket"}},"type":"Feature"},
	{"geometry":{"coordinates":[9.273741,45.587671],"type":"Point"},"properties":{"osm_id":"2947969687","tag":{"amenity":"waste_basket"}},"type":"Feature"},
	{"geometry":{"coordinates":[9.273807,45.5878],"type":"Point"},"properties":{"osm_id":"2947972216","tag":{"amenity":"waste_basket"}},"type":"Feature"},
	{"geometry":{"coordinates":[9.275533,45.588086],"type":"Point"},"properties":{"osm_id":"2947972218","tag":{"amenity":"waste_basket"}},"type":"Feature"},
	{"geometry":{"coordinates":[9.276049,45.588163],"type":"Point"},"properties":{"osm_id":"2947972220","tag":{"amenity":"waste_basket"}},"type":"Feature"},
	{"geometry":{"coordinates":[9.277268,45.588381],"type":"Point"},"properties":{"osm_id":"2947972221","tag":{"amenity":"waste_basket"}},"type":"Feature"},
	{"geometry":{"coordinates":[9.276134,45.588517],"type":"Point"},"properties":{"osm_id":"2947972222","tag":{"amenity":"waste_basket"}},"type":"Feature"},
	{"geometry":{"coordinates":[9.274269,45.586624],"type":"Point"},"properties":{"osm_id":"2947996570","tag":{"amenity":"recycling","recycling:glass":"yes","recycling_type":"container"}},"type":"Feature"},
	{"geometry":{"coordinates":[9.274233,45.586785],"type":"Point"},"properties":{"osm_id":"2947998006","tag":{"amenity":"waste_basket"}},"type":"Feature"},
	{"geometry":{"coordinates":[9.274555,45.587957],"type":"Point"},"properties":{"osm_id":"2947998139","tag":{"amenity":"waste_basket"}},"type":"Feature"},
	{"geometry":{"coordinates":[9.275415,45.58523],"type":"Point"},"properties":{"osm_id":"2948031677","tag":{"amenity":"waste_basket"}},"type":"Feature"},
	{"geometry":{"coordinates":[9.275483,45.585501],"type":"Point"},"properties":{"osm_id":"2948031678","tag":{"amenity":"waste_basket"}},"type":"Feature"},
	{"geometry":{"coordinates":[9.28168,45.587755],"type":"Point"},"properties":{"osm_id":"2948098090","tag":{"amenity":"waste_basket"}},"type":"Feature"},
	{"geometry":{"coordinates":[9.278192,45.587851],"type":"Point"},"properties":{"osm_id":"2948098093","tag":{"amenity":"waste_basket"}},"type":"Feature"},
	{"geometry":{"coordinates":[9.281377,45.583722],"type":"Point"},"properties":{"osm_id":"2948101443","tag":{"amenity":"waste_basket"}},"type":"Feature"},
	{"geometry":{"coordinates":[9.282159,45.584318],"type":"Point"},"properties":{"osm_id":"2948101447","tag":{"amenity":"waste_basket"}},"type":"Feature"},
	{"geometry":{"coordinates":[9.278205,45.584517],"type":"Point"},"properties":{"osm_id":"2948101453","tag":{"amenity":"waste_basket"}},"type":"Feature"},
	{"geometry":{"coordinates":[9.282144,45.58456],"type":"Point"},"properties":{"osm_id":"2948101454","tag":{"amenity":"waste_basket"}},"type":"Feature"},
	{"geometry":{"coordinates":[9.282105,45.584757],"type":"Point"},"properties":{"osm_id":"2948101455","tag":{"amenity":"waste_basket"}},"type":"Feature"},
	{"geometry":{"coordinates":[9.277459,45.584831],"type":"Point"},"properties":{"osm_id":"2948101458","tag":{"amenity":"waste_basket"}},"type":"Feature"},
	{"geometry":{"coordinates":[9.278627,45.585062],"type":"Point"},"properties":{"osm_id":"2948101460","tag":{"amenity":"recycling","recycling:organic":"yes","recycling_type":"container"}},"type":"Feature"},
	{"geometry":{"coordinates":[9.278613,45.58511],"type":"Point"},"properties":{"osm_id":"2948101461","tag":{"amenity":"waste_basket"}},"type":"Feature"},
	{"geometry":{"coordinates":[9.280494,45.587721],"type":"Point"},"properties":{"osm_id":"2948101466","tag":{"amenity":"waste_basket"}},"type":"Feature"},
	{"geometry":{"coordinates":[9.281632,45.585475],"type":"Point"},"properties":{"osm_id":"2948103188","tag":{"amenity":"waste_basket"}},"type":"Feature"},
	{"geometry":{"coordinates":[9.282596,45.586321],"type":"Point"},"properties":{"osm_id":"2948104547","tag":{"amenity":"waste_basket"}},"type":"Feature"},
	{"geometry":{"coordinates":[9.281158,45.586271],"type":"Point"},"properties":{"osm_id":"2948104548","tag":{"amenity":"waste_basket"}},"type":"Feature"},
	{"geometry":{"coordinates":[9.281118,45.586764],"type":"Point"},"properties":{"osm_id":"2948104549","tag":{"amenity":"waste_basket"}},"type":"Feature"},
	{"geometry":{"coordinates":[9.283604,45.586933],"type":"Point"},"properties":{"osm_id":"2948104551","tag":{"amenity":"waste_basket"}},"type":"Feature"},
	{"geometry":{"coordinates":[9.27898,45.587011],"type":"Point"},"properties":{"osm_id":"2948104553","tag":{"amenity":"waste_basket"}},"type":"Feature"},
	{"geometry":{"coordinates":[9.281307,45.58714],"type":"Point"},"properties":{"osm_id":"2948104556","tag":{"amenity":"waste_basket"}},"type":"Feature"},
	{"geometry":{"coordinates":[9.281619,45.58725],"type":"Point"},"properties":{"osm_id":"2948104558","tag":{"amenity":"waste_basket"}},"type":"Feature"},
	{"geometry":{"coordinates":[9.279839,45.587373],"type":"Point"},"properties":{"osm_id":"2948104559","tag":{"amenity":"waste_basket"}},"type":"Feature"},
	{"geometry":{"coordinates":[9.280387,45.587788],"type":"Point"},"properties":{"osm_id":"2948104652","tag":{"amenity":"waste_basket"}},"type":"Feature"},
	{"geometry":{"coordinates":[9.281863,45.585951],"type":"Point"},"properties":{"osm_id":"2948104733","tag":{"amenity":"waste_basket"}},"type":"Feature"},
	{"geometry":{"coordinates":[9.282325,45.586008],"type":"Point"},"properties":{"osm_id":"2948104734","tag":{"amenity":"waste_basket"}},"type":"Feature"},
	{"geometry":{"coordinates":[9.272415,45.587694],"type":"Point"},"properties":{"osm_id":"2957091607","tag":{"amenity":"waste_basket"}},"type":"Feature"},
	{"geometry":{"coordinates":[9.272563,45.587727],"type":"Point"},"properties":{"osm_id":"2957091608","tag":{"amenity":"waste_basket"}},"type":"Feature"},
	{"geometry":{"coordinates":[9.272335,45.587812],"type":"Point"},"properties":{"osm_id":"2957091609","tag":{"amenity":"waste_basket"}},"type":"Feature"},
	{"geometry":{"coordinates":[9.271819,45.588793],"type":"Point"},"properties":{"osm_id":"2957093520","tag":{"amenity":"waste_basket"}},"type":"Feature"},
	{"geometry":{"coordinates":[9.27294,45.589176],"type":"Point"},"properties":{"osm_id":"2957093522","tag":{"amenity":"waste_basket"}},"type":"Feature"},
	{"geometry":{"coordinates":[9.272663,45.589537],"type":"Point"},"properties":{"osm_id":"2957093527","tag":{"amenity":"waste_basket"}},"type":"Feature"},
	{"geometry":{"coordinates":[9.271177,45.589794],"type":"Point"},"properties":{"osm_id":"2957115161","tag":{"amenity":"waste_basket"}},"type":"Feature"},
	{"geometry":{"coordinates":[9.2704,45.591097],"type":"Point"},"properties":{"osm_id":"2957115175","tag":{"amenity":"waste_basket"}},"type":"Feature"},
	{"geometry":{"coordinates":[9.270023,45.591396],"type":"Point"},"properties":{"osm_id":"2957115177","tag":{"amenity":"waste_basket"}},"type":"Feature"},
	{"geometry":{"coordinates":[9.269942,45.591682],"type":"Point"},"properties":{"osm_id":"2957115182","tag":{"amenity":"waste_basket"}},"type":"Feature"},
	{"geometry":{"coordinates":[9.268743,45.591716],"type":"Point"},"properties":{"osm_id":"2957149762","tag":{"amenity":"waste_basket"}},"type":"Feature"},
	{"geometry":{"coordinates":[9.271711,45.592684],"type":"Point"},"properties":{"osm_id":"2957170602","tag":{"amenity":"waste_basket"}},"type":"Feature"},
	{"geometry":{"coordinates":[9.271946,45.592716],"type":"Point"},"properties":{"osm_id":"2957170603","tag":{"amenity":"waste_basket"}},"type":"Feature"},
	{"geometry":{"coordinates":[9.266869,45.59263],"type":"Point"},"properties":{"osm_id":"2957176454","tag":{"amenity":"waste_basket"}},"type":"Feature"},
	{"geometry":{"coordinates":[9.26755,45.592675],"type":"Point"},"properties":{"osm_id":"2957176455","tag":{"amenity":"waste_basket"}},"type":"Feature"},
	{"geometry":{"coordinates":[9.271445,45.593268],"type":"Point"},"properties":{"osm_id":"2957176904","tag":{"amenity":"waste_basket"}},"type":"Feature"},
	{"geometry":{"coordinates":[9.265893,45.592448],"type":"Point"},"properties":{"osm_id":"2957176995","tag":{"amenity":"waste_basket"}},"type":"Feature"},
	{"geometry":{"coordinates":[9.266057,45.592464],"type":"Point"},"properties":{"osm_id":"2957176996","tag":{"amenity":"waste_basket"}},"type":"Feature"},
	{"geometry":{"coordinates":[9.267648,45.592685],"type":"Point"},"properties":{"osm_id":"2957176997","tag":{"amenity":"waste_basket"}},"type":"Feature"},
	{"geometry":{"coordinates":[9.269092,45.592906],"type":"Point"},"properties":{"osm_id":"2957176998","tag":{"amenity":"waste_basket"}},"type":"Feature"},
	{"geometry":{"coordinates":[9.269195,45.592919],"type":"Point"},"properties":{"osm_id":"2957176999","tag":{"amenity":"waste_basket"}},"type":"Feature"},
	{"geometry":{"coordinates":[9.267247,45.593784],"type":"Point"},"properties":{"osm_id":"2957199128","tag":{"amenity":"waste_basket"}},"type":"Feature"},
	{"geometry":{"coordinates":[9.26878,45.593877],"type":"Point"},"properties":{"osm_id":"2957199484","tag":{"amenity":"waste_basket"}},"type":"Feature"},
	{"geometry":{"coordinates":[9.271245,45.594396],"type":"Point"},"properties":{"osm_id":"2957199938","tag":{"amenity":"waste_basket"}},"type":"Feature"},
	{"geometry":{"coordinates":[9.268451,45.59489],"type":"Point"},"properties":{"osm_id":"2957209742","tag":{"amenity":"waste_basket"}},"type":"Feature"},
	{"geometry":{"coordinates":[9.270913,45.595358],"type":"Point"},"properties":{"osm_id":"2957209746","tag":{"amenity":"waste_basket"}},"type":"Feature"},
	{"geometry":{"coordinates":[9.266801,45.594746],"type":"Point"},"properties":{"osm_id":"2957209847","tag":{"amenity":"waste_basket"}},"type":"Feature"},
	{"geometry":{"coordinates":[9.26965,45.595063],"type":"Point"},"properties":{"osm_id":"2957209849","tag":{"amenity":"waste_basket"}},"type":"Feature"},
	{"geometry":{"coordinates":[9.281748,45.583511],"type":"Point"},"properties":{"osm_id":"2969264695","tag":{"amenity":"waste_basket"}},"type":"Feature"},
	{"geometry":{"coordinates":[9.286435,45.587521],"type":"Point"},"properties":{"osm_id":"2992009889","tag":{"amenity":"waste_basket"}},"type":"Feature"},
	{"geometry":{"coordinates":[9.286405,45.587578],"type":"Point"},"properties":{"osm_id":"2992009895","tag":{"amenity":"waste_basket"}},"type":"Feature"},
	{"geometry":{"coordinates":[9.28726,45.587674],"type":"Point"},"properties":{"osm_id":"2992009900","tag":{"amenity":"waste_basket"}},"type":"Feature"},
	{"geometry":{"coordinates":[9.284075,45.587319],"type":"Point"},"properties":{"osm_id":"2992011419","tag":{"amenity":"waste_basket"}},"type":"Feature"},
	{"geometry":{"coordinates":[9.28456,45.591666],"type":"Point"},"properties":{"osm_id":"3050062207","tag":{"amenity":"waste_basket"}},"type":"Feature"},
	{"geometry":{"coordinates":[9.284628,45.591707],"type":"Point"},"properties":{"osm_id":"3050062212","tag":{"amenity":"waste_basket"}},"type":"Feature"},
	{"geometry":{"coordinates":[9.284213,45.590771],"type":"Point"},"properties":{"osm_id":"3050065208","tag":{"amenity":"waste_basket"}},"type":"Feature"},
	{"geometry":{"coordinates":[9.285302,45.591227],"type":"Point"},"properties":{"osm_id":"3050065221","tag":{"amenity":"waste_basket"}},"type":"Feature"},
	{"geometry":{"coordinates":[9.290283,45.586984],"type":"Point"},"properties":{"osm_id":"3050065295","tag":{"amenity":"waste_basket"}},"type":"Feature"},
	{"geometry":{"coordinates":[9.290842,45.586852],"type":"Point"},"properties":{"osm_id":"3050065738","tag":{"amenity":"waste_basket"}},"type":"Feature"},
	{"geometry":{"coordinates":[9.287815,45.587155],"type":"Point"},"properties":{"osm_id":"3050065744","tag":{"amenity":"waste_basket"}},"type":"Feature"},
	{"geometry":{"coordinates":[9.287319,45.588625],"type":"Point"},"properties":{"osm_id":"3050065841","tag":{"amenity":"waste_basket"}},"type":"Feature"},
	{"geometry":{"coordinates":[9.283023,45.589669],"type":"Point"},"properties":{"osm_id":"3050066051","tag":{"amenity":"waste_basket"}},"type":"Feature"},
	{"geometry":{"coordinates":[9.285399,45.590139],"type":"Point"},"properties":{"osm_id":"3050066053","tag":{"amenity":"waste_basket"}},"type":"Feature"},
	{"geometry":{"coordinates":[9.286118,45.590678],"type":"Point"},"properties":{"osm_id":"3050066075","tag":{"amenity":"recycling","recycling:clothes":"yes","recycling_type":"container"}},"type":"Feature"},
	{"geometry":{"coordinates":[9.286143,45.590729],"type":"Point"},"properties":{"osm_id":"3050066211","tag":{"amenity":"waste_disposal"}},"type":"Feature"},
	{"geometry":{"coordinates":[9.286145,45.590748],"type":"Point"},"properties":{"osm_id":"3050066214","tag":{"amenity":"waste_disposal"}},"type":"Feature"},
	{"geometry":{"coordinates":[9.286153,45.590767],"type":"Point"},"properties":{"osm_id":"3050066215","tag":{"amenity":"waste_disposal"}},"type":"Feature"},
	{"geometry":{"coordinates":[9.286157,45.590784],"type":"Point"},"properties":{"osm_id":"3050066279","tag":{"amenity":"waste_disposal"}},"type":"Feature"},
	{"geometry":{"coordinates":[9.28616,45.5908],"type":"Point"},"properties":{"osm_id":"3050066280","tag":{"amenity":"waste_disposal"}},"type":"Feature"},
	{"geometry":{"coordinates":[9.284576,45.591941],"type":"Point"},"properties":{"osm_id":"3050066283","tag":{"amenity":"waste_basket"}},"type":"Feature"},
	{"geometry":{"coordinates":[9.285204,45.591494],"type":"Point"},"properties":{"osm_id":"3050066464","tag":{"amenity":"waste_basket"}},"type":"Feature"},
	{"geometry":{"coordinates":[9.305076,45.603243],"type":"Point"},"properties":{"osm_id":"3073573573","tag":{"amenity":"waste_basket"}},"type":"Feature"},
	{"geometry":{"coordinates":[9.306033,45.604963],"type":"Point"},"properties":{"osm_id":"3073574079","tag":{"amenity":"waste_basket"}},"type":"Feature"},
	{"geometry":{"coordinates":[9.273749,45.586593],"type":"Point"},"properties":{"osm_id":"3086150939","tag":{"amenity":"waste_basket"}},"type":"Feature"},
	{"geometry":{"coordinates":[9.271062,45.587147],"type":"Point"},"properties":{"osm_id":"3122242010","tag":{"amenity":"waste_basket"}},"type":"Feature"},
	{"geometry":{"coordinates":[9.273331,45.587585],"type":"Point"},"properties":{"osm_id":"3122242233","tag":{"amenity":"waste_basket"}},"type":"Feature"},
	{"geometry":{"coordinates":[9.268435,45.601995],"type":"Point"},"properties":{"osm_id":"3124118023","tag":{"amenity":"waste_basket"}},"type":"Feature"},
	{"geometry":{"coordinates":[9.265103,45.601807],"type":"Point"},"properties":{"osm_id":"3124121013","tag":{"amenity":"waste_basket"}},"type":"Feature"},
	{"geometry":{"coordinates":[9.26684,45.601924],"type":"Point"},"properties":{"osm_id":"3124121022","tag":{"amenity":"waste_basket"}},"type":"Feature"},
	{"geometry":{"coordinates":[9.261925,45.600888],"type":"Point"},"properties":{"osm_id":"3124121198","tag":{"amenity":"waste_basket"}},"type":"Feature"},
	{"geometry":{"coordinates":[9.263774,45.601356],"type":"Point"},"properties":{"osm_id":"3124122394","tag":{"amenity":"waste_basket"}},"type":"Feature"},
	{"geometry":{"coordinates":[9.264955,45.601466],"type":"Point"},"properties":{"osm_id":"3124122565","tag":{"amenity":"waste_basket"}},"type":"Feature"},
	{"geometry":{"coordinates":[9.269196,45.602286],"type":"Point"},"properties":{"osm_id":"3124132571","tag":{"amenity":"waste_basket"}},"type":"Feature"},
	{"geometry":{"coordinates":[9.268451,45.604838],"type":"Point"},"properties":{"osm_id":"3124138538","tag":{"amenity":"waste_basket"}},"type":"Feature"},
	{"geometry":{"coordinates":[9.268347,45.605286],"type":"Point"},"properties":{"osm_id":"3124170815","tag":{"amenity":"waste_basket"}},"type":"Feature"},
	{"geometry":{"coordinates":[9.271322,45.61015],"type":"Point"},"properties":{"osm_id":"3124209025","tag":{"amenity":"waste_basket"}},"type":"Feature"},
	{"geometry":{"coordinates":[9.271867,45.610776],"type":"Point"},"properties":{"osm_id":"3124209769","tag":{"amenity":"waste_basket"}},"type":"Feature"},
	{"geometry":{"coordinates":[9.269847,45.608946],"type":"Point"},"properties":{"osm_id":"3124210035","tag":{"amenity":"waste_basket"}},"type":"Feature"},
	{"geometry":{"coordinates":[9.2719,45.611193],"type":"Point"},"properties":{"osm_id":"3124218283","tag":{"amenity":"waste_basket"}},"type":"Feature"},
	{"geometry":{"coordinates":[9.272464,45.61197],"type":"Point"},"properties":{"osm_id":"3124219866","tag":{"amenity":"waste_basket"}},"type":"Feature"},
	{"geometry":{"coordinates":[9.272653,45.613967],"type":"Point"},"properties":{"osm_id":"3124304191","tag":{"amenity":"waste_basket"}},"type":"Feature"},
	{"geometry":{"coordinates":[9.269605,45.58945],"type":"Point"},"properties":{"osm_id":"3135267268","tag":{"amenity":"waste_basket"}},"type":"Feature"},
	{"geometry":{"coordinates":[9.283256,45.588309],"type":"Point"},"properties":{"osm_id":"3135334055","tag":{"amenity":"waste_basket"}},"type":"Feature"},
	{"geometry":{"coordinates":[9.266003,45.586891],"type":"Point"},"properties":{"osm_id":"3147372909","tag":{"amenity":"waste_basket"}},"type":"Feature"},
	{"geometry":{"coordinates":[9.266733,45.587009],"type":"Point"},"properties":{"osm_id":"3147400221","tag":{"amenity":"waste_basket"}},"type":"Feature"},
	{"geometry":{"coordinates":[9.266432,45.58693],"type":"Point"},"properties":{"osm_id":"3147402729","tag":{"amenity":"waste_basket"}},"type":"Feature"},
	{"geometry":{"coordinates":[9.276413,45.622981],"type":"Point"},"properties":{"osm_id":"3150500960","tag":{"amenity":"waste_basket"}},"type":"Feature"},
	{"geometry":{"coordinates":[9.276416,45.623574],"type":"Point"},"properties":{"osm_id":"3150516590","tag":{"amenity":"waste_basket"}},"type":"Feature"},
	{"geometry":{"coordinates":[9.276037,45.624641],"type":"Point"},"properties":{"osm_id":"3150516601","tag":{"amenity":"waste_basket"}},"type":"Feature"},
	{"geometry":{"coordinates":[9.27554,45.626285],"type":"Point"},"properties":{"osm_id":"3150518455","tag":{"amenity":"waste_basket"}},"type":"Feature"},
	{"geometry":{"coordinates":[9.275961,45.625326],"type":"Point"},"properties":{"osm_id":"3150519134","tag":{"amenity":"waste_basket"}},"type":"Feature"},
	{"geometry":{"coordinates":[9.275826,45.62572],"type":"Point"},"properties":{"osm_id":"3150519145","tag":{"amenity":"waste_basket"}},"type":"Feature"},
	{"geometry":{"coordinates":[9.275452,45.625936],"type":"Point"},"properties":{"osm_id":"3150519376","tag":{"amenity":"waste_basket"}},"type":"Feature"},
	{"geometry":{"coordinates":[9.274852,45.627237],"type":"Point"},"properties":{"osm_id":"3150519523","tag":{"amenity":"waste_basket"}},"type":"Feature"},
	{"geometry":{"coordinates":[9.275282,45.626966],"type":"Point"},"properties":{"osm_id":"3150519609","tag":{"amenity":"waste_basket"}},"type":"Feature"},
	{"geometry":{"coordinates":[9.275022,45.627379],"type":"Point"},"properties":{"osm_id":"3150519821","tag":{"amenity":"waste_basket"}},"type":"Feature"},
	{"geometry":{"coordinates":[9.274741,45.627506],"type":"Point"},"properties":{"osm_id":"3150519837","tag":{"amenity":"waste_basket"}},"type":"Feature"},
	{"geometry":{"coordinates":[9.274923,45.627721],"type":"Point"},"properties":{"osm_id":"3150560455","tag":{"amenity":"waste_basket"}},"type":"Feature"},
	{"geometry":{"coordinates":[9.274353,45.628948],"type":"Point"},"properties":{"osm_id":"3150594445","tag":{"amenity":"waste_basket"}},"type":"Feature"},
	{"geometry":{"coordinates":[9.274729,45.628525],"type":"Point"},"properties":{"osm_id":"3150594466","tag":{"amenity":"waste_basket"}},"type":"Feature"},
	{"geometry":{"coordinates":[9.274275,45.629286],"type":"Point"},"properties":{"osm_id":"3150594562","tag":{"amenity":"waste_basket"}},"type":"Feature"},
	{"geometry":{"coordinates":[9.274495,45.629276],"type":"Point"},"properties":{"osm_id":"3150604038","tag":{"amenity":"waste_basket"}},"type":"Feature"},
	{"geometry":{"coordinates":[9.274478,45.629416],"type":"Point"},"properties":{"osm_id":"3150611740","tag":{"amenity":"waste_basket"}},"type":"Feature"},
	{"geometry":{"coordinates":[9.273999,45.630249],"type":"Point"},"properties":{"osm_id":"3150628312","tag":{"amenity":"waste_basket"}},"type":"Feature"},
	{"geometry":{"coordinates":[9.272705,45.633721],"type":"Point"},"properties":{"osm_id":"3150716523","tag":{"amenity":"waste_basket"}},"type":"Feature"},
	{"geometry":{"coordinates":[9.272076,45.63434],"type":"Point"},"properties":{"osm_id":"3150717536","tag":{"amenity":"waste_basket"}},"type":"Feature"},
	{"geometry":{"coordinates":[9.27283,45.63324],"type":"Point"},"properties":{"osm_id":"3150719526","tag":{"amenity":"waste_basket"}},"type":"Feature"},
	{"geometry":{"coordinates":[9.286804,45.585881],"type":"Point"},"properties":{"osm_id":"3160821625","tag":{"amenity":"waste_basket"}},"type":"Feature"},
	{"geometry":{"coordinates":[9.28831,45.58814],"type":"Point"},"properties":{"osm_id":"3160822539","tag":{"amenity":"waste_basket"}},"type":"Feature"},
	{"geometry":{"coordinates":[9.291898,45.596234],"type":"Point"},"properties":{"osm_id":"3160822557","tag":{"amenity":"waste_basket"}},"type":"Feature"},
	{"geometry":{"coordinates":[9.288053,45.586343],"type":"Point"},"properties":{"osm_id":"3160822972","tag":{"amenity":"waste_basket"}},"type":"Feature"},
	{"geometry":{"coordinates":[9.282583,45.591733],"type":"Point"},"properties":{"osm_id":"3160822986","tag":{"amenity":"waste_basket"}},"type":"Feature"},
	{"geometry":{"coordinates":[9.285086,45.602144],"type":"Point"},"properties":{"osm_id":"3160823045","tag":{"amenity":"waste_basket"}},"type":"Feature"},
	{"geometry":{"coordinates":[9.294149,45.596192],"type":"Point"},"properties":{"osm_id":"3160825121","tag":{"amenity":"waste_basket"}},"type":"Feature"},
	{"geometry":{"coordinates":[9.29403,45.596351],"type":"Point"},"properties":{"osm_id":"3160825125","tag":{"amenity":"waste_basket"}},"type":"Feature"},
	{"geometry":{"coordinates":[9.285187,45.58831],"type":"Point"},"properties":{"osm_id":"3160825163","tag":{"amenity":"waste_basket"}},"type":"Feature"},
	{"geometry":{"coordinates":[9.288611,45.588362],"type":"Point"},"properties":{"osm_id":"3160825164","tag":{"amenity":"waste_basket"}},"type":"Feature"},
	{"geometry":{"coordinates":[9.286863,45.589376],"type":"Point"},"properties":{"osm_id":"3160825167","tag":{"amenity":"waste_basket"}},"type":"Feature"},
	{"geometry":{"coordinates":[9.290605,45.599995],"type":"Point"},"properties":{"osm_id":"3160825213","tag":{"amenity":"waste_basket"}},"type":"Feature"},
	{"geometry":{"coordinates":[9.288691,45.6001],"type":"Point"},"properties":{"osm_id":"3160825215","tag":{"amenity":"waste_basket"}},"type":"Feature"},
	{"geometry":{"coordinates":[9.288226,45.600126],"type":"Point"},"properties":{"osm_id":"3160825216","tag":{"amenity":"waste_basket"}},"type":"Feature"},
	{"geometry":{"coordinates":[9.287798,45.600224],"type":"Point"},"properties":{"osm_id":"3160825219","tag":{"amenity":"waste_basket"}},"type":"Feature"},
	{"geometry":{"coordinates":[9.286094,45.603405],"type":"Point"},"properties":{"osm_id":"3160825224","tag":{"amenity":"waste_basket"}},"type":"Feature"},
	{"geometry":{"coordinates":[9.287457,45.599909],"type":"Point"},"properties":{"osm_id":"3160825735","tag":{"amenity":"waste_basket"}},"type":"Feature"},
	{"geometry":{"coordinates":[9.290135,45.60038],"type":"Point"},"properties":{"osm_id":"3160826111","tag":{"amenity":"waste_basket"}},"type":"Feature"},
	{"geometry":{"coordinates":[9.284729,45.602159],"type":"Point"},"properties":{"osm_id":"3160826119","tag":{"amenity":"waste_basket"}},"type":"Feature"},
	{"geometry":{"coordinates":[9.267393,45.637133],"type":"Point"},"properties":{"osm_id":"3189917326","tag":{"amenity":"waste_basket"}},"type":"Feature"},
	{"geometry":{"coordinates":[9.267163,45.637245],"type":"Point"},"properties":{"osm_id":"3189922734","tag":{"amenity":"waste_basket"}},"type":"Feature"},
	{"geometry":{"coordinates":[9.266409,45.637917],"type":"Point"},"properties":{"osm_id":"3189941926","tag":{"amenity":"waste_basket"}},"type":"Feature"},
	{"geometry":{"coordinates":[9.265513,45.63861],"type":"Point"},"properties":{"osm_id":"3189968414","tag":{"amenity":"waste_basket"}},"type":"Feature"},
	{"geometry":{"coordinates":[9.284847,45.587609],"type":"Point"},"properties":{"osm_id":"3198724937","tag":{"amenity":"waste_basket"}},"type":"Feature"},
	{"geometry":{"coordinates":[9.286817,45.588007],"type":"Point"},"properties":{"osm_id":"3198724939","tag":{"amenity":"waste_basket"}},"type":"Feature"},
	{"geometry":{"coordinates":[9.261067,45.591425],"type":"Point"},"properties":{"osm_id":"3231830017","tag":{"amenity":"waste_basket"}},"type":"Feature"},
	{"geometry":{"coordinates":[9.26133,45.590579],"type":"Point"},"properties":{"osm_id":"3231832756","tag":{"amenity":"waste_basket"}},"type":"Feature"},
	{"geometry":{"coordinates":[9.261787,45.591525],"type":"Point"},"properties":{"osm_id":"3231833326","tag":{"amenity":"waste_basket"}},"type":"Feature"},
	{"geometry":{"coordinates":[9.263205,45.591702],"type":"Point"},"properties":{"osm_id":"3231833330","tag":{"amenity":"waste_basket"}},"type":"Feature"},
	{"geometry":{"coordinates":[9.263616,45.59176],"type":"Point"},"properties":{"osm_id":"3231833331","tag":{"amenity":"waste_basket"}},"type":"Feature"},
	{"geometry":{"coordinates":[9.259547,45.591199],"type":"Point"},"properties":{"osm_id":"3231833758","tag":{"amenity":"waste_basket"}},"type":"Feature"},
	{"geometry":{"coordinates":[9.275644,45.596683],"type":"Point"},"properties":{"osm_id":"3231834319","tag":{"amenity":"waste_basket"}},"type":"Feature"},
	{"geometry":{"coordinates":[9.275936,45.596925],"type":"Point"},"properties":{"osm_id":"3231834401","tag":{"amenity":"waste_basket"}},"type":"Feature"},
	{"geometry":{"coordinates":[9.275379,45.596987],"type":"Point"},"properties":{"osm_id":"3231834404","tag":{"amenity":"waste_basket"}},"type":"Feature"},
	{"geometry":{"coordinates":[9.277484,45.58622],"type":"Point"},"properties":{"osm_id":"3243006919","tag":{"amenity":"waste_disposal"}},"type":"Feature"},
	{"geometry":{"coordinates":[9.256219,45.594668],"type":"Point"},"properties":{"osm_id":"3279436634","tag":{"amenity":"recycling","recycling:clothes":"yes","recycling_type":"container"}},"type":"Feature"},
	{"geometry":{"coordinates":[9.291234,45.591142],"type":"Point"},"properties":{"osm_id":"3320936204","tag":{"amenity":"waste_basket"}},"type":"Feature"},
	{"geometry":{"coordinates":[9.291253,45.591246],"type":"Point"},"properties":{"osm_id":"3320936665","tag":{"amenity":"waste_basket"}},"type":"Feature"},
	{"geometry":{"coordinates":[9.289943,45.59174],"type":"Point"},"properties":{"osm_id":"3320936962","tag":{"amenity":"waste_basket"}},"type":"Feature"},
	{"geometry":{"coordinates":[9.277692,45.58934],"type":"Point"},"properties":{"osm_id":"3348354868","tag":{"amenity":"waste_basket"}},"type":"Feature"},
	{"geometry":{"coordinates":[9.276377,45.589646],"type":"Point"},"properties":{"osm_id":"3348354870","tag":{"amenity":"waste_basket"}},"type":"Feature"},
	{"geometry":{"coordinates":[9.277521,45.588785],"type":"Point"},"properties":{"osm_id":"3348358104","tag":{"amenity":"waste_basket"}},"type":"Feature"},
	{"geometry":{"coordinates":[9.277199,45.588144],"type":"Point"},"properties":{"osm_id":"3348358806","tag":{"amenity":"waste_basket"}},"type":"Feature"},
	{"geometry":{"coordinates":[9.277539,45.589623],"type":"Point"},"properties":{"osm_id":"3348358817","tag":{"amenity":"waste_basket"}},"type":"Feature"},
	{"geometry":{"coordinates":[9.254516,45.590824],"type":"Point"},"properties":{"osm_id":"3350189158","tag":{"amenity":"waste_basket"}},"type":"Feature"},
	{"geometry":{"coordinates":[9.260816,45.591712],"type":"Point"},"properties":{"osm_id":"3350189172","tag":{"amenity":"waste_basket"}},"type":"Feature"},
	{"geometry":{"coordinates":[9.262,45.591903],"type":"Point"},"properties":{"osm_id":"3350189173","tag":{"amenity":"waste_basket"}},"type":"Feature"},
	{"geometry":{"coordinates":[9.259055,45.591479],"type":"Point"},"properties":{"osm_id":"3350189897","tag":{"amenity":"waste_basket"}},"type":"Feature"},
	{"geometry":{"coordinates":[9.261578,45.591836],"type":"Point"},"properties":{"osm_id":"3350189901","tag":{"amenity":"waste_basket"}},"type":"Feature"},
	{"geometry":{"coordinates":[9.255523,45.590966],"type":"Point"},"properties":{"osm_id":"3350191518","tag":{"amenity":"waste_basket"}},"type":"Feature"},
	{"geometry":{"coordinates":[9.25595,45.59103],"type":"Point"},"properties":{"osm_id":"3350191520","tag":{"amenity":"waste_basket"}},"type":"Feature"},
	{"geometry":{"coordinates":[9.254277,45.590917],"type":"Point"},"properties":{"osm_id":"3350202538","tag":{"amenity":"waste_basket"}},"type":"Feature"},
	{"geometry":{"coordinates":[9.253028,45.59067],"type":"Point"},"properties":{"osm_id":"3350219092","tag":{"amenity":"waste_basket"}},"type":"Feature"},
	{"geometry":{"coordinates":[9.253598,45.591081],"type":"Point"},"properties":{"osm_id":"3350219912","tag":{"amenity":"waste_basket"}},"type":"Feature"},
	{"geometry":{"coordinates":[9.250718,45.589388],"type":"Point"},"properties":{"osm_id":"3350228868","tag":{"amenity":"waste_basket"}},"type":"Feature"},
	{"geometry":{"coordinates":[9.249257,45.588532],"type":"Point"},"properties":{"osm_id":"3350242991","tag":{"amenity":"waste_basket"}},"type":"Feature"},
	{"geometry":{"coordinates":[9.249625,45.589065],"type":"Point"},"properties":{"osm_id":"3350243648","tag":{"amenity":"waste_basket"}},"type":"Feature"},
	{"geometry":{"coordinates":[9.250349,45.590046],"type":"Point"},"properties":{"osm_id":"3350243663","tag":{"amenity":"waste_basket"}},"type":"Feature"},
	{"geometry":{"coordinates":[9.244916,45.588347],"type":"Point"},"properties":{"osm_id":"3350273661","tag":{"amenity":"waste_basket"}},"type":"Feature"},
	{"geometry":{"coordinates":[9.244398,45.588442],"type":"Point"},"properties":{"osm_id":"3350274690","tag":{"amenity":"waste_basket"}},"type":"Feature"},
	{"geometry":{"coordinates":[9.265097,45.593654],"type":"Point"},"properties":{"osm_id":"3374939173","tag":{"amenity":"waste_basket"}},"type":"Feature"},
	{"geometry":{"coordinates":[9.266423,45.594508],"type":"Point"},"properties":{"osm_id":"3374939180","tag":{"access":"private","amenity":"recycling","recycling_type":"container"}},"type":"Feature"},
	{"geometry":{"coordinates":[9.265135,45.593823],"type":"Point"},"properties":{"osm_id":"3374940508","tag":{"amenity":"waste_basket"}},"type":"Feature"},
	{"geometry":{"coordinates":[9.264841,45.593997],"type":"Point"},"properties":{"osm_id":"3374940511","tag":{"amenity":"waste_basket"}},"type":"Feature"},
	{"geometry":{"coordinates":[9.270698,45.590381],"type":"Point"},"properties":{"osm_id":"3374940742","tag":{"amenity":"waste_basket"}},"type":"Feature"},
	{"geometry":{"coordinates":[9.266144,45.593029],"type":"Point"},"properties":{"osm_id":"3374941224","tag":{"amenity":"waste_basket"}},"type":"Feature"},
	{"geometry":{"coordinates":[9.274592,45.608407],"type":"Point"},"properties":{"osm_id":"3386583737","tag":{"amenity":"waste_basket"}},"type":"Feature"},
	{"geometry":{"coordinates":[9.275015,45.59772],"type":"Point"},"properties":{"osm_id":"3386646885","tag":{"amenity":"waste_disposal"}},"type":"Feature"},
	{"geometry":{"coordinates":[9.275026,45.599946],"type":"Point"},"properties":{"osm_id":"3386647368","tag":{"amenity":"waste_basket"}},"type":"Feature"},
	{"geometry":{"coordinates":[9.275274,45.602453],"type":"Point"},"properties":{"osm_id":"3386647376","tag":{"amenity":"waste_basket"}},"type":"Feature"},
	{"geometry":{"coordinates":[9.275577,45.604412],"type":"Point"},"properties":{"osm_id":"3386647387","tag":{"amenity":"waste_basket"}},"type":"Feature"},
	{"geometry":{"coordinates":[9.274968,45.597712],"type":"Point"},"properties":{"osm_id":"3386650218","tag":{"amenity":"waste_disposal"}},"type":"Feature"},
	{"geometry":{"coordinates":[9.275062,45.597722],"type":"Point"},"properties":{"osm_id":"3386650219","tag":{"amenity":"waste_disposal"}},"type":"Feature"},
	{"geometry":{"coordinates":[9.275154,45.597734],"type":"Point"},"properties":{"osm_id":"3386650220","tag":{"amenity":"waste_disposal"}},"type":"Feature"},
	{"geometry":{"coordinates":[9.275109,45.597728],"type":"Point"},"properties":{"osm_id":"3386650427","tag":{"amenity":"waste_disposal"}},"type":"Feature"},
	{"geometry":{"coordinates":[9.2708,45.598142],"type":"Point"},"properties":{"osm_id":"3386651230","tag":{"amenity":"waste_disposal"}},"type":"Feature"},
	{"geometry":{"coordinates":[9.275014,45.598363],"type":"Point"},"properties":{"osm_id":"3386651231","tag":{"amenity":"waste_basket"}},"type":"Feature"},
	{"geometry":{"coordinates":[9.275037,45.598669],"type":"Point"},"properties":{"osm_id":"3386651232","tag":{"amenity":"waste_disposal"}},"type":"Feature"},
	{"geometry":{"coordinates":[9.274818,45.599185],"type":"Point"},"properties":{"osm_id":"3386651235","tag":{"amenity":"waste_basket"}},"type":"Feature"},
	{"geometry":{"coordinates":[9.270267,45.600186],"type":"Point"},"properties":{"osm_id":"3386651242","tag":{"amenity":"waste_basket"}},"type":"Feature"},
	{"geometry":{"coordinates":[9.274904,45.601002],"type":"Point"},"properties":{"osm_id":"3386651247","tag":{"amenity":"waste_disposal"}},"type":"Feature"},
	{"geometry":{"coordinates":[9.275212,45.59774],"type":"Point"},"properties":{"osm_id":"3386651393","tag":{"amenity":"waste_disposal"}},"type":"Feature"},
	{"geometry":{"coordinates":[9.269828,45.601752],"type":"Point"},"properties":{"osm_id":"3386651743","tag":{"amenity":"waste_basket"}},"type":"Feature"},
	{"geometry":{"coordinates":[9.274183,45.60777],"type":"Point"},"properties":{"osm_id":"3386651777","tag":{"amenity":"waste_basket"}},"type":"Feature"},
	{"geometry":{"coordinates":[9.268638,45.60534],"type":"Point"},"properties":{"osm_id":"3386652184","tag":{"amenity":"waste_basket"}},"type":"Feature"},
	{"geometry":{"coordinates":[9.26933,45.603413],"type":"Point"},"properties":{"osm_id":"3386652879","tag":{"amenity":"waste_basket"}},"type":"Feature"},
	{"geometry":{"coordinates":[9.269705,45.605979],"type":"Point"},"properties":{"osm_id":"3386654100","tag":{"amenity":"waste_basket"}},"type":"Feature"},
	{"geometry":{"coordinates":[9.275027,45.606459],"type":"Point"},"properties":{"osm_id":"3386654102","tag":{"amenity":"waste_basket"}},"type":"Feature"},
	{"geometry":{"coordinates":[9.274947,45.608026],"type":"Point"},"properties":{"osm_id":"3386654109","tag":{"amenity":"waste_basket"}},"type":"Feature"},
	{"geometry":{"coordinates":[9.268738,45.605443],"type":"Point"},"properties":{"osm_id":"3386654437","tag":{"amenity":"waste_basket"}},"type":"Feature"},
	{"geometry":{"coordinates":[9.275361,45.60549],"type":"Point"},"properties":{"osm_id":"3386654440","tag":{"amenity":"waste_basket"}},"type":"Feature"},
	{"geometry":{"coordinates":[9.275352,45.605575],"type":"Point"},"properties":{"osm_id":"3386654444","tag":{"amenity":"waste_disposal"}},"type":"Feature"},
	{"geometry":{"coordinates":[9.277483,45.607887],"type":"Point"},"properties":{"osm_id":"3386656063","tag":{"amenity":"waste_basket"}},"type":"Feature"},
	{"geometry":{"coordinates":[9.273505,45.607822],"type":"Point"},"properties":{"osm_id":"3386657139","tag":{"amenity":"waste_basket"}},"type":"Feature"},
	{"geometry":{"coordinates":[9.277045,45.607986],"type":"Point"},"properties":{"osm_id":"3386657142","tag":{"amenity":"waste_basket"}},"type":"Feature"},
	{"geometry":{"coordinates":[9.275094,45.608491],"type":"Point"},"properties":{"osm_id":"3386657229","tag":{"amenity":"waste_basket"}},"type":"Feature"},
	{"geometry":{"coordinates":[9.27492,45.608519],"type":"Point"},"properties":{"osm_id":"3386657230","tag":{"amenity":"waste_basket"}},"type":"Feature"},
	{"geometry":{"coordinates":[9.293328,45.592165],"type":"Point"},"properties":{"osm_id":"3409177847","tag":{"amenity":"recycling","recycling:glass":"yes","recycling_type":"container"}},"type":"Feature"},
	{"geometry":{"coordinates":[9.290488,45.592296],"type":"Point"},"properties":{"osm_id":"3409181459","tag":{"amenity":"waste_basket"}},"type":"Feature"},
	{"geometry":{"coordinates":[9.291245,45.592875],"type":"Point"},"properties":{"osm_id":"3409181709","tag":{"amenity":"waste_basket"}},"type":"Feature"},
	{"geometry":{"coordinates":[9.268955,45.586111],"type":"Point"},"properties":{"osm_id":"3461621756","tag":{"amenity":"waste_basket"}},"type":"Feature"},
	{"geometry":{"coordinates":[9.297873,45.601606],"type":"Point"},"properties":{"osm_id":"3557749107","tag":{"amenity":"waste_disposal"}},"type":"Feature"},
	{"geometry":{"coordinates":[9.284495,45.586347],"type":"Point"},"properties":{"osm_id":"3557749807","tag":{"amenity":"waste_basket"}},"type":"Feature"},
	{"geometry":{"coordinates":[9.284323,45.586387],"type":"Point"},"properties":{"osm_id":"3557749873","tag":{"amenity":"waste_basket"}},"type":"Feature"},
	{"geometry":{"coordinates":[9.286111,45.588773],"type":"Point"},"properties":{"osm_id":"3557749885","tag":{"amenity":"waste_basket"}},"type":"Feature"},
	{"geometry":{"coordinates":[9.283703,45.584933],"type":"Point"},"properties":{"osm_id":"3557751385","tag":{"amenity":"recycling","recycling:batteries":"yes","recycling_type":"container"}},"type":"Feature"},
	{"geometry":{"coordinates":[9.283398,45.585106],"type":"Point"},"properties":{"osm_id":"3557751386","tag":{"amenity":"waste_basket"}},"type":"Feature"},
	{"geometry":{"coordinates":[9.282945,45.585311],"type":"Point"},"properties":{"osm_id":"3557751390","tag":{"amenity":"waste_basket"}},"type":"Feature"},
	{"geometry":{"coordinates":[9.283523,45.584971],"type":"Point"},"properties":{"osm_id":"3557751459","tag":{"amenity":"waste_basket"}},"type":"Feature"},
	{"geometry":{"coordinates":[9.284718,45.586213],"type":"Point"},"properties":{"osm_id":"3557752703","tag":{"amenity":"waste_basket"}},"type":"Feature"},
	{"geometry":{"coordinates":[9.294553,45.59255],"type":"Point"},"properties":{"osm_id":"3557753067","tag":{"amenity":"waste_basket"}},"type":"Feature"},
	{"geometry":{"coordinates":[9.294237,45.592606],"type":"Point"},"properties":{"osm_id":"3557753139","tag":{"amenity":"waste_basket"}},"type":"Feature"},
	{"geometry":{"coordinates":[9.293629,45.593503],"type":"Point"},"properties":{"osm_id":"3557753238","tag":{"amenity":"waste_basket"}},"type":"Feature"},
	{"geometry":{"coordinates":[9.292573,45.594033],"type":"Point"},"properties":{"osm_id":"3557753252","tag":{"amenity":"recycling","recycling:glass":"yes","recycling_type":"container"}},"type":"Feature"},
	{"geometry":{"coordinates":[9.293383,45.594716],"type":"Point"},"properties":{"osm_id":"3557753808","tag":{"amenity":"waste_basket"}},"type":"Feature"},
	{"geometry":{"coordinates":[9.293882,45.595256],"type":"Point"},"properties":{"osm_id":"3557753820","tag":{"amenity":"waste_basket"}},"type":"Feature"},
	{"geometry":{"coordinates":[9.293678,45.593591],"type":"Point"},"properties":{"osm_id":"3557754012","tag":{"amenity":"waste_basket"}},"type":"Feature"},
	{"geometry":{"coordinates":[9.292489,45.593986],"type":"Point"},"properties":{"osm_id":"3557754206","tag":{"amenity":"waste_basket"}},"type":"Feature"},
	{"geometry":{"coordinates":[9.293719,45.595102],"type":"Point"},"properties":{"osm_id":"3557754217","tag":{"amenity":"waste_basket"}},"type":"Feature"},
	{"geometry":{"coordinates":[9.293805,45.598275],"type":"Point"},"properties":{"osm_id":"3557754539","tag":{"amenity":"waste_basket"}},"type":"Feature"},
	{"geometry":{"coordinates":[9.292965,45.59856],"type":"Point"},"properties":{"osm_id":"3557754541","tag":{"amenity":"waste_basket"}},"type":"Feature"},
	{"geometry":{"coordinates":[9.298007,45.601178],"type":"Point"},"properties":{"osm_id":"3557754848","tag":{"amenity":"waste_basket"}},"type":"Feature"},
	{"geometry":{"coordinates":[9.297658,45.601288],"type":"Point"},"properties":{"osm_id":"3557754850","tag":{"amenity":"waste_basket"}},"type":"Feature"},
	{"geometry":{"coordinates":[9.297659,45.6017],"type":"Point"},"properties":{"osm_id":"3557754858","tag":{"amenity":"waste_basket"}},"type":"Feature"},
	{"geometry":{"coordinates":[9.269874,45.58799],"type":"Point"},"properties":{"osm_id":"3590056269","tag":{"amenity":"waste_basket"}},"type":"Feature"},
	{"geometry":{"coordinates":[9.27093,45.587362],"type":"Point"},"properties":{"osm_id":"3590074835","tag":{"amenity":"waste_basket"}},"type":"Feature"},
	{"geometry":{"coordinates":[9.268863,45.589115],"type":"Point"},"properties":{"osm_id":"3590074892","tag":{"amenity":"waste_basket"}},"type":"Feature"},
	{"geometry":{"coordinates":[9.273166,45.596839],"type":"Point"},"properties":{"osm_id":"3606570290","tag":{"amenity":"waste_basket"}},"type":"Feature"},
	{"geometry":{"coordinates":[9.273401,45.596174],"type":"Point"},"properties":{"osm_id":"3606667779","tag":{"amenity":"waste_basket"}},"type":"Feature"},
	{"geometry":{"coordinates":[9.273302,45.596493],"type":"Point"},"properties":{"osm_id":"3606684135","tag":{"amenity":"waste_basket"}},"type":"Feature"},
	{"geometry":{"coordinates":[9.269231,45.596981],"type":"Point"},"properties":{"osm_id":"3606684149","tag":{"amenity":"waste_basket"}},"type":"Feature"},
	{"geometry":{"coordinates":[9.273124,45.597003],"type":"Point"},"properties":{"osm_id":"3606684151","tag":{"amenity":"waste_basket"}},"type":"Feature"},
	{"geometry":{"coordinates":[9.269587,45.600208],"type":"Point"},"properties":{"osm_id":"3606684166","tag":{"amenity":"waste_basket"}},"type":"Feature"},
	{"geometry":{"coordinates":[9.252519,45.587988],"type":"Point"},"properties":{"osm_id":"3606685218","tag":{"amenity":"waste_basket"}},"type":"Feature"},
	{"geometry":{"coordinates":[9.273503,45.595828],"type":"Point"},"properties":{"osm_id":"3606685233","tag":{"amenity":"waste_basket"}},"type":"Feature"},
	{"geometry":{"coordinates":[9.266492,45.595989],"type":"Point"},"properties":{"osm_id":"3606685235","tag":{"amenity":"waste_basket"}},"type":"Feature"},
	{"geometry":{"coordinates":[9.273454,45.59601],"type":"Point"},"properties":{"osm_id":"3606685236","tag":{"amenity":"waste_basket"}},"type":"Feature"},
	{"geometry":{"coordinates":[9.273345,45.59635],"type":"Point"},"properties":{"osm_id":"3606685323","tag":{"amenity":"waste_basket"}},"type":"Feature"},
	{"geometry":{"coordinates":[9.266373,45.5965],"type":"Point"},"properties":{"osm_id":"3606685336","tag":{"amenity":"waste_basket"}},"type":"Feature"},
	{"geometry":{"coordinates":[9.270114,45.59657],"type":"Point"},"properties":{"osm_id":"3606685340","tag":{"amenity":"waste_basket"}},"type":"Feature"},
	{"geometry":{"coordinates":[9.273236,45.596675],"type":"Point"},"properties":{"osm_id":"3606685344","tag":{"amenity":"waste_basket"}},"type":"Feature"},
	{"geometry":{"coordinates":[9.270574,45.596703],"type":"Point"},"properties":{"osm_id":"3606685345","tag":{"amenity":"waste_basket"}},"type":"Feature"},
	{"geometry":{"coordinates":[9.266298,45.595853],"type":"Point"},"properties":{"osm_id":"3606685477","tag":{"amenity":"waste_basket"}},"type":"Feature"},
	{"geometry":{"coordinates":[9.266477,45.595885],"type":"Point"},"properties":{"osm_id":"3606685478","tag":{"amenity":"waste_basket"}},"type":"Feature"},
	{"geometry":{"coordinates":[9.266336,45.595973],"type":"Point"},"properties":{"osm_id":"3606685479","tag":{"amenity":"waste_basket"}},"type":"Feature"},
	{"geometry":{"coordinates":[9.268089,45.596237],"type":"Point"},"properties":{"osm_id":"3606685489","tag":{"amenity":"waste_basket"}},"type":"Feature"},
	{"geometry":{"coordinates":[9.253202,45.589665],"type":"Point"},"properties":{"osm_id":"3606685605","tag":{"amenity":"waste_basket"}},"type":"Feature"},
	{"geometry":{"coordinates":[9.266313,45.596075],"type":"Point"},"properties":{"osm_id":"3606685704","tag":{"amenity":"waste_basket"}},"type":"Feature"},
	{"geometry":{"coordinates":[9.269113,45.597091],"type":"Point"},"properties":{"osm_id":"3606686704","tag":{"amenity":"waste_basket"}},"type":"Feature"},
	{"geometry":{"coordinates":[9.270425,45.597244],"type":"Point"},"properties":{"osm_id":"3606686706","tag":{"amenity":"waste_basket"}},"type":"Feature"},
	{"geometry":{"coordinates":[9.270383,45.597395],"type":"Point"},"properties":{"osm_id":"3606686709","tag":{"amenity":"waste_basket"}},"type":"Feature"},
	{"geometry":{"coordinates":[9.269636,45.600073],"type":"Point"},"properties":{"osm_id":"3606686736","tag":{"amenity":"waste_basket"}},"type":"Feature"},
	{"geometry":{"coordinates":[9.269792,45.600092],"type":"Point"},"properties":{"osm_id":"3606686793","tag":{"amenity":"waste_basket"}},"type":"Feature"},
	{"geometry":{"coordinates":[9.269755,45.600225],"type":"Point"},"properties":{"osm_id":"3606686893","tag":{"amenity":"waste_basket"}},"type":"Feature"},
	{"geometry":{"coordinates":[9.28092,45.587987],"type":"Point"},"properties":{"osm_id":"3632999969","tag":{"amenity":"waste_basket"}},"type":"Feature"},
	{"geometry":{"coordinates":[9.281267,45.588292],"type":"Point"},"properties":{"osm_id":"3633000538","tag":{"amenity":"waste_basket"}},"type":"Feature"},
	{"geometry":{"coordinates":[9.273195,45.590415],"type":"Point"},"properties":{"osm_id":"3675385246","tag":{"amenity":"waste_basket"}},"type":"Feature"},
	{"geometry":{"coordinates":[9.293812,45.588273],"type":"Point"},"properties":{"osm_id":"3719929044","tag":{"amenity":"waste_basket"}},"type":"Feature"},
	{"geometry":{"coordinates":[9.294818,45.588434],"type":"Point"},"properties":{"osm_id":"3719929047","tag":{"amenity":"waste_basket"}},"type":"Feature"},
	{"geometry":{"coordinates":[9.295093,45.588797],"type":"Point"},"properties":{"osm_id":"3719929065","tag":{"amenity":"waste_basket"}},"type":"Feature"},
	{"geometry":{"coordinates":[9.294123,45.589503],"type":"Point"},"properties":{"osm_id":"3719929088","tag":{"amenity":"waste_basket"}},"type":"Feature"},
	{"geometry":{"coordinates":[9.292621,45.584973],"type":"Point"},"properties":{"osm_id":"3719953045","tag":{"amenity":"waste_basket"}},"type":"Feature"},
	{"geometry":{"coordinates":[9.294302,45.588499],"type":"Point"},"properties":{"osm_id":"3719953093","tag":{"amenity":"waste_basket"}},"type":"Feature"},
	{"geometry":{"coordinates":[9.293935,45.58856],"type":"Point"},"properties":{"osm_id":"3719953095","tag":{"amenity":"waste_basket"}},"type":"Feature"},
	{"geometry":{"coordinates":[9.29552,45.589451],"type":"Point"},"properties":{"osm_id":"3719953114","tag":{"amenity":"recycling","recycling:clothes":"yes","recycling_type":"container"}},"type":"Feature"},
	{"geometry":{"coordinates":[9.294134,45.588277],"type":"Point"},"properties":{"osm_id":"3719953354","tag":{"amenity":"waste_basket"}},"type":"Feature"},
	{"geometry":{"coordinates":[9.294078,45.589363],"type":"Point"},"properties":{"osm_id":"3719953738","tag":{"amenity":"waste_basket"}},"type":"Feature"},
	{"geometry":{"coordinates":[9.297364,45.583365],"type":"Point"},"properties":{"osm_id":"3789094026","tag":{"amenity":"waste_basket"}},"type":"Feature"},
	{"geometry":{"coordinates":[9.263238,45.592119],"type":"Point"},"properties":{"osm_id":"3876653835","tag":{"amenity":"waste_basket"}},"type":"Feature"},
	{"geometry":{"coordinates":[9.261265,45.593537],"type":"Point"},"properties":{"osm_id":"3876654980","tag":{"amenity":"waste_basket"}},"type":"Feature"},
	{"geometry":{"coordinates":[9.260688,45.593707],"type":"Point"},"properties":{"osm_id":"3876654986","tag":{"amenity":"waste_basket"}},"type":"Feature"},
	{"geometry":{"coordinates":[9.260524,45.59404],"type":"Point"},"properties":{"osm_id":"3876654990","tag":{"amenity":"waste_basket"}},"type":"Feature"},
	{"geometry":{"coordinates":[9.261793,45.593136],"type":"Point"},"properties":{"osm_id":"3876656256","tag":{"amenity":"waste_basket"}},"type":"Feature"},
	{"geometry":{"coordinates":[9.266134,45.587063],"type":"Point"},"properties":{"osm_id":"3899441041","tag":{"amenity":"waste_basket"}},"type":"Feature"},
	{"geometry":{"coordinates":[9.266064,45.587121],"type":"Point"},"properties":{"osm_id":"3899441043","tag":{"amenity":"waste_basket","waste":"dog_excrement"}},"type":"Feature"},
	{"geometry":{"coordinates":[9.265975,45.587496],"type":"Point"},"properties":{"osm_id":"3899441334","tag":{"amenity":"waste_basket"}},"type":"Feature"},
	{"geometry":{"coordinates":[9.284558,45.587543],"type":"Point"},"properties":{"osm_id":"3960040011","tag":{"amenity":"waste_basket"}},"type":"Feature"},
	{"geometry":{"coordinates":[9.285846,45.584904],"type":"Point"},"properties":{"osm_id":"3960042221","tag":{"amenity":"recycling","recycling:batteries":"yes","recycling_type":"container"}},"type":"Feature"},
	{"geometry":{"coordinates":[9.287005,45.586295],"type":"Point"},"properties":{"osm_id":"3960042233","tag":{"amenity":"waste_basket"}},"type":"Feature"},
	{"geometry":{"coordinates":[9.285662,45.585648],"type":"Point"},"properties":{"osm_id":"3960043460","tag":{"amenity":"waste_basket"}},"type":"Feature"},
	{"geometry":{"coordinates":[9.278424,45.609803],"type":"Point"},"properties":{"osm_id":"4109233372","tag":{"amenity":"waste_disposal"}},"type":"Feature"},
	{"geometry":{"coordinates":[9.273786,45.608893],"type":"Point"},"properties":{"osm_id":"4109235474","tag":{"amenity":"waste_basket"}},"type":"Feature"},
	{"geometry":{"coordinates":[9.274864,45.60909],"type":"Point"},"properties":{"osm_id":"4109235481","tag":{"amenity":"waste_basket"}},"type":"Feature"},
	{"geometry":{"coordinates":[9.277858,45.609744],"type":"Point"},"properties":{"osm_id":"4109236951","tag":{"amenity":"waste_basket"}},"type":"Feature"},
	{"geometry":{"coordinates":[9.278373,45.609803],"type":"Point"},"properties":{"osm_id":"4109236953","tag":{"amenity":"waste_disposal"}},"type":"Feature"},
	{"geometry":{"coordinates":[9.278466,45.609807],"type":"Point"},"properties":{"osm_id":"4109236954","tag":{"amenity":"waste_disposal"}},"type":"Feature"},
	{"geometry":{"coordinates":[9.278509,45.60981],"type":"Point"},"properties":{"osm_id":"4109236955","tag":{"amenity":"waste_disposal"}},"type":"Feature"},
	{"geometry":{"coordinates":[9.277629,45.609907],"type":"Point"},"properties":{"osm_id":"4109236966","tag":{"amenity":"waste_basket"}},"type":"Feature"},
	{"geometry":{"coordinates":[9.266195,45.596891],"type":"Point"},"properties":{"osm_id":"4109237062","tag":{"amenity":"waste_basket"}},"type":"Feature"},
	{"geometry":{"coordinates":[9.265865,45.598102],"type":"Point"},"properties":{"osm_id":"4109237064","tag":{"amenity":"waste_basket"}},"type":"Feature"},
	{"geometry":{"coordinates":[9.267091,45.598295],"type":"Point"},"properties":{"osm_id":"4109237068","tag":{"amenity":"waste_basket"}},"type":"Feature"},
	{"geometry":{"coordinates":[9.266952,45.599232],"type":"Point"},"properties":{"osm_id":"4109237078","tag":{"amenity":"waste_basket"}},"type":"Feature"},
	{"geometry":{"coordinates":[9.266851,45.599674],"type":"Point"},"properties":{"osm_id":"4109237079","tag":{"amenity":"waste_basket"}},"type":"Feature"},
	{"geometry":{"coordinates":[9.26702,45.599689],"type":"Point"},"properties":{"osm_id":"4109237080","tag":{"amenity":"waste_basket"}},"type":"Feature"},
	{"geometry":{"coordinates":[9.266693,45.59989],"type":"Point"},"properties":{"osm_id":"4109237559","tag":{"amenity":"waste_basket"}},"type":"Feature"},
	{"geometry":{"coordinates":[9.266534,45.600963],"type":"Point"},"properties":{"osm_id":"4109237569","tag":{"amenity":"waste_basket"}},"type":"Feature"},
	{"geometry":{"coordinates":[9.274042,45.610688],"type":"Point"},"properties":{"osm_id":"4109237581","tag":{"amenity":"waste_basket"}},"type":"Feature"},
	{"geometry":{"coordinates":[9.275222,45.611091],"type":"Point"},"properties":{"osm_id":"4109238721","tag":{"amenity":"recycling","operator":"Caritas Ambrosiana","recycling:clothes":"yes","recycling_type":"container"}},"type":"Feature"},
	{"geometry":{"coordinates":[9.275318,45.611091],"type":"Point"},"properties":{"osm_id":"4109239988","tag":{"amenity":"waste_basket"}},"type":"Feature"},
	{"geometry":{"coordinates":[9.275249,45.611091],"type":"Point"},"properties":{"osm_id":"4109240089","tag":{"amenity":"recycling","operator":"Caritas Ambrosiana","recycling:clothes":"yes","recycling_type":"container"}},"type":"Feature"},
	{"geometry":{"coordinates":[9.298346,45.598843],"type":"Point"},"properties":{"osm_id":"4157022574","tag":{"amenity":"waste_basket"}},"type":"Feature"},
	{"geometry":{"coordinates":[9.300219,45.600646],"type":"Point"},"properties":{"osm_id":"4157022577","tag":{"amenity":"waste_basket"}},"type":"Feature"},
	{"geometry":{"coordinates":[9.300733,45.601629],"type":"Point"},"properties":{"osm_id":"4157022580","tag":{"amenity":"waste_basket"}},"type":"Feature"},
	{"geometry":{"coordinates":[9.301596,45.600236],"type":"Point"},"properties":{"osm_id":"4157022814","tag":{"amenity":"waste_basket"}},"type":"Feature"},
	{"geometry":{"coordinates":[9.299382,45.602736],"type":"Point"},"properties":{"osm_id":"4157022874","tag":{"amenity":"waste_basket"}},"type":"Feature"},
	{"geometry":{"coordinates":[9.304981,45.603148],"type":"Point"},"properties":{"osm_id":"4157022879","tag":{"amenity":"waste_basket"}},"type":"Feature"},
	{"geometry":{"coordinates":[9.304721,45.603035],"type":"Point"},"properties":{"osm_id":"4157022914","tag":{"amenity":"waste_basket"}},"type":"Feature"},
	{"geometry":{"coordinates":[9.299386,45.603101],"type":"Point"},"properties":{"osm_id":"4157022915","tag":{"amenity":"waste_basket"}},"type":"Feature"},
	{"geometry":{"coordinates":[9.299178,45.604726],"type":"Point"},"properties":{"osm_id":"4157022925","tag":{"amenity":"waste_basket"}},"type":"Feature"},
	{"geometry":{"coordinates":[9.299763,45.603453],"type":"Point"},"properties":{"osm_id":"4157023438","tag":{"amenity":"waste_basket"}},"type":"Feature"},
	{"geometry":{"coordinates":[9.300787,45.601421],"type":"Point"},"properties":{"osm_id":"4157023931","tag":{"amenity":"waste_basket"}},"type":"Feature"},
	{"geometry":{"coordinates":[9.300907,45.60223],"type":"Point"},"properties":{"osm_id":"4157023973","tag":{"amenity":"waste_basket"}},"type":"Feature"},
	{"geometry":{"coordinates":[9.300593,45.604798],"type":"Point"},"properties":{"osm_id":"4157024710","tag":{"amenity":"waste_basket"}},"type":"Feature"},
	{"geometry":{"coordinates":[9.300088,45.601931],"type":"Point"},"properties":{"osm_id":"4157024991","tag":{"amenity":"recycling","operator":"Humana","recycling:clothes":"yes","recycling_type":"container"}},"type":"Feature"},
	{"geometry":{"coordinates":[9.299686,45.60282],"type":"Point"},"properties":{"osm_id":"4157025795","tag":{"amenity":"waste_basket"}},"type":"Feature"},
	{"geometry":{"coordinates":[9.275839,45.583442],"type":"Point"},"properties":{"osm_id":"4172983242","tag":{"amenity":"waste_basket"}},"type":"Feature"},
	{"geometry":{"coordinates":[9.235381,45.605899],"type":"Point"},"properties":{"osm_id":"4225131868","tag":{"amenity":"waste_basket"}},"type":"Feature"},
	{"geometry":{"coordinates":[9.235679,45.60609],"type":"Point"},"properties":{"osm_id":"4225131874","tag":{"amenity":"waste_basket"}},"type":"Feature"},
	{"geometry":{"coordinates":[9.239034,45.607782],"type":"Point"},"properties":{"osm_id":"4225133080","tag":{"amenity":"waste_basket"}},"type":"Feature"},
	{"geometry":{"coordinates":[9.235731,45.607751],"type":"Point"},"properties":{"osm_id":"4225133293","tag":{"amenity":"waste_basket"}},"type":"Feature"},
	{"geometry":{"coordinates":[9.235187,45.607315],"type":"Point"},"properties":{"osm_id":"4225133717","tag":{"amenity":"waste_basket"}},"type":"Feature"},
	{"geometry":{"coordinates":[9.239279,45.607748],"type":"Point"},"properties":{"osm_id":"4225134097","tag":{"amenity":"waste_basket"}},"type":"Feature"},
	{"geometry":{"coordinates":[9.235199,45.606006],"type":"Point"},"properties":{"osm_id":"4225134306","tag":{"amenity":"waste_basket"}},"type":"Feature"},
	{"geometry":{"coordinates":[9.236571,45.607411],"type":"Point"},"properties":{"osm_id":"4225134320","tag":{"amenity":"waste_basket"}},"type":"Feature"},
	{"geometry":{"coordinates":[9.236399,45.60744],"type":"Point"},"properties":{"osm_id":"4225134322","tag":{"amenity":"waste_basket"}},"type":"Feature"},
	{"geometry":{"coordinates":[9.237138,45.607445],"type":"Point"},"properties":{"osm_id":"4225134422","tag":{"amenity":"waste_basket"}},"type":"Feature"},
	{"geometry":{"coordinates":[9.235726,45.607452],"type":"Point"},"properties":{"osm_id":"4225134423","tag":{"amenity":"waste_basket"}},"type":"Feature"},
	{"geometry":{"coordinates":[9.2386,45.609135],"type":"Point"},"properties":{"osm_id":"4225136126","tag":{"amenity":"waste_basket"}},"type":"Feature"},
	{"geometry":{"coordinates":[9.238428,45.609203],"type":"Point"},"properties":{"osm_id":"4225136132","tag":{"amenity":"waste_basket"}},"type":"Feature"},
	{"geometry":{"coordinates":[9.23607,45.609204],"type":"Point"},"properties":{"osm_id":"4225136133","tag":{"amenity":"waste_basket"}},"type":"Feature"},
	{"geometry":{"coordinates":[9.236844,45.609882],"type":"Point"},"properties":{"osm_id":"4225136150","tag":{"amenity":"waste_basket"}},"type":"Feature"},
	{"geometry":{"coordinates":[9.237656,45.610147],"type":"Point"},"properties":{"osm_id":"4225136155","tag":{"amenity":"waste_basket"}},"type":"Feature"},
	{"geometry":{"coordinates":[9.238729,45.61037],"type":"Point"},"properties":{"osm_id":"4225136156","tag":{"amenity":"waste_basket"}},"type":"Feature"},
	{"geometry":{"coordinates":[9.238023,45.610697],"type":"Point"},"properties":{"osm_id":"4225136157","tag":{"amenity":"waste_basket"}},"type":"Feature"},
	{"geometry":{"coordinates":[9.235191,45.604672],"type":"Point"},"properties":{"osm_id":"4292632827","tag":{"amenity":"waste_basket"}},"type":"Feature"},
	{"geometry":{"coordinates":[9.235193,45.603921],"type":"Point"},"properties":{"osm_id":"4292650206","tag":{"amenity":"waste_basket"}},"type":"Feature"},
	{"geometry":{"coordinates":[9.237601,45.603978],"type":"Point"},"properties":{"osm_id":"4292650207","tag":{"amenity":"waste_basket"}},"type":"Feature"},
	{"geometry":{"coordinates":[9.237235,45.604005],"type":"Point"},"properties":{"osm_id":"4292650208","tag":{"amenity":"waste_basket"}},"type":"Feature"},
	{"geometry":{"coordinates":[9.234032,45.604719],"type":"Point"},"properties":{"osm_id":"4292650215","tag":{"amenity":"waste_basket"}},"type":"Feature"},
	{"geometry":{"coordinates":[9.235313,45.606128],"type":"Point"},"properties":{"osm_id":"4292650238","tag":{"amenity":"waste_basket"}},"type":"Feature"},
	{"geometry":{"coordinates":[9.236811,45.604001],"type":"Point"},"properties":{"osm_id":"4292652756","tag":{"amenity":"waste_basket"}},"type":"Feature"},
	{"geometry":{"coordinates":[9.235413,45.604179],"type":"Point"},"properties":{"osm_id":"4292652758","tag":{"amenity":"waste_basket"}},"type":"Feature"},
	{"geometry":{"coordinates":[9.233935,45.604592],"type":"Point"},"properties":{"osm_id":"4292652763","tag":{"amenity":"waste_basket"}},"type":"Feature"},
	{"geometry":{"coordinates":[9.235496,45.604924],"type":"Point"},"properties":{"osm_id":"4292652770","tag":{"amenity":"waste_basket"}},"type":"Feature"},
	{"geometry":{"coordinates":[9.23247,45.60501],"type":"Point"},"properties":{"osm_id":"4292652771","tag":{"amenity":"waste_basket"}},"type":"Feature"},
	{"geometry":{"coordinates":[9.233577,45.605385],"type":"Point"},"properties":{"osm_id":"4292652774","tag":{"amenity":"waste_basket"}},"type":"Feature"},
	{"geometry":{"coordinates":[9.236139,45.605797],"type":"Point"},"properties":{"osm_id":"4394539971","tag":{"amenity":"waste_basket"}},"type":"Feature"},
	{"geometry":{"coordinates":[9.239215,45.606058],"type":"Point"},"properties":{"osm_id":"4394540490","tag":{"amenity":"waste_basket"}},"type":"Feature"},
	{"geometry":{"coordinates":[9.238869,45.608605],"type":"Point"},"properties":{"osm_id":"4394540519","tag":{"amenity":"waste_basket"}},"type":"Feature"},
	{"geometry":{"coordinates":[9.241841,45.609167],"type":"Point"},"properties":{"osm_id":"4394540526","tag":{"amenity":"recycling","recycling:glass":"yes","recycling:waste":"yes","recycling_type":"container"}},"type":"Feature"},
	{"geometry":{"coordinates":[9.239935,45.609346],"type":"Point"},"properties":{"osm_id":"4394540533","tag":{"amenity":"waste_basket"}},"type":"Feature"},
	{"geometry":{"coordinates":[9.242136,45.609906],"type":"Point"},"properties":{"osm_id":"4394543135","tag":{"amenity":"waste_basket"}},"type":"Feature"},
	{"geometry":{"coordinates":[9.242225,45.609706],"type":"Point"},"properties":{"osm_id":"4394543296","tag":{"amenity":"recycling","operator":"Humana","recycling:clothes":"yes","recycling_type":"container"}},"type":"Feature"},
	{"geometry":{"coordinates":[9.241765,45.609841],"type":"Point"},"properties":{"osm_id":"4394543299","tag":{"amenity":"waste_basket"}},"type":"Feature"},
	{"geometry":{"coordinates":[9.239039,45.609965],"type":"Point"},"properties":{"osm_id":"4394543335","tag":{"amenity":"waste_basket"}},"type":"Feature"},
	{"geometry":{"coordinates":[9.239432,45.610024],"type":"Point"},"properties":{"osm_id":"4394543337","tag":{"amenity":"waste_basket"}},"type":"Feature"},
	{"geometry":{"coordinates":[9.241671,45.609958],"type":"Point"},"properties":{"osm_id":"4394543427","tag":{"amenity":"waste_basket"}},"type":"Feature"},
	{"geometry":{"coordinates":[9.234867,45.609218],"type":"Point"},"properties":{"osm_id":"4469653425","tag":{"amenity":"waste_basket"}},"type":"Feature"},
	{"geometry":{"coordinates":[9.240422,45.609533],"type":"Point"},"properties":{"osm_id":"4469658305","tag":{"amenity":"waste_basket"}},"type":"Feature"},
	{"geometry":{"coordinates":[9.23512,45.608114],"type":"Point"},"properties":{"osm_id":"4469658963","tag":{"amenity":"waste_basket"}},"type":"Feature"},
	{"geometry":{"coordinates":[9.240724,45.610621],"type":"Point"},"properties":{"osm_id":"4469659459","tag":{"amenity":"waste_basket"}},"type":"Feature"},
	{"geometry":{"coordinates":[9.241319,45.610324],"type":"Point"},"properties":{"osm_id":"4469659490","tag":{"amenity":"waste_basket"}},"type":"Feature"},
	{"geometry":{"coordinates":[9.241594,45.610517],"type":"Point"},"properties":{"osm_id":"4469659497","tag":{"amenity":"waste_basket"}},"type":"Feature"},
	{"geometry":{"coordinates":[9.240033,45.610716],"type":"Point"},"properties":{"osm_id":"4469659818","tag":{"amenity":"waste_basket"}},"type":"Feature"},
	{"geometry":{"coordinates":[9.241489,45.611152],"type":"Point"},"properties":{"osm_id":"4469659837","tag":{"amenity":"waste_basket"}},"type":"Feature"},
	{"geometry":{"coordinates":[9.301842,45.602083],"type":"Point"},"properties":{"osm_id":"4558295866","tag":{"amenity":"waste_basket"}},"type":"Feature"},
	{"geometry":{"coordinates":[9.302471,45.602201],"type":"Point"},"properties":{"osm_id":"4558295878","tag":{"amenity":"waste_basket"}},"type":"Feature"},
	{"geometry":{"coordinates":[9.300965,45.605283],"type":"Point"},"properties":{"osm_id":"4558298100","tag":{"amenity":"waste_basket"}},"type":"Feature"},
	{"geometry":{"coordinates":[9.304272,45.603228],"type":"Point"},"properties":{"osm_id":"4558298192","tag":{"amenity":"waste_basket"}},"type":"Feature"},
	{"geometry":{"coordinates":[9.301695,45.605955],"type":"Point"},"properties":{"osm_id":"4558299031","tag":{"amenity":"waste_basket"}},"type":"Feature"},
	{"geometry":{"coordinates":[9.304998,45.605467],"type":"Point"},"properties":{"osm_id":"4558299858","tag":{"amenity":"waste_basket"}},"type":"Feature"},
	{"geometry":{"coordinates":[9.301802,45.606157],"type":"Point"},"properties":{"osm_id":"4558299893","tag":{"amenity":"waste_basket"}},"type":"Feature"},
	{"geometry":{"coordinates":[9.302994,45.605562],"type":"Point"},"properties":{"osm_id":"4558300054","tag":{"amenity":"waste_basket"}},"type":"Feature"},
	{"geometry":{"coordinates":[9.303591,45.605686],"type":"Point"},"properties":{"osm_id":"4558300092","tag":{"amenity":"waste_basket"}},"type":"Feature"},
	{"geometry":{"coordinates":[9.305405,45.605092],"type":"Point"},"properties":{"osm_id":"4558300505","tag":{"amenity":"waste_basket"}},"type":"Feature"},
	{"geometry":{"coordinates":[9.306454,45.604908],"type":"Point"},"properties":{"osm_id":"4558300906","tag":{"amenity":"waste_basket"}},"type":"Feature"},
	{"geometry":{"coordinates":[9.306643,45.603047],"type":"Point"},"properties":{"osm_id":"4558301452","tag":{"amenity":"waste_basket"}},"type":"Feature"},
	{"geometry":{"coordinates":[9.305321,45.603402],"type":"Point"},"properties":{"osm_id":"4558302500","tag":{"amenity":"waste_basket"}},"type":"Feature"},
	{"geometry":{"coordinates":[9.234379,45.609982],"type":"Point"},"properties":{"osm_id":"4608106721","tag":{"amenity":"waste_basket"}},"type":"Feature"},
	{"geometry":{"coordinates":[9.235385,45.609701],"type":"Point"},"properties":{"osm_id":"4608106816","tag":{"amenity":"waste_basket"}},"type":"Feature"},
	{"geometry":{"coordinates":[9.234092,45.609164],"type":"Point"},"properties":{"osm_id":"4608108072","tag":{"amenity":"waste_basket"}},"type":"Feature"},
	{"geometry":{"coordinates":[9.232839,45.608844],"type":"Point"},"properties":{"osm_id":"4608109248","tag":{"amenity":"waste_basket"}},"type":"Feature"},
	{"geometry":{"coordinates":[9.232478,45.608778],"type":"Point"},"properties":{"osm_id":"4608109259","tag":{"amenity":"waste_basket"}},"type":"Feature"},
	{"geometry":{"coordinates":[9.277096,45.59141],"type":"Point"},"properties":{"osm_id":"4694012451","tag":{"amenity":"waste_basket"}},"type":"Feature"},
	{"geometry":{"coordinates":[9.302719,45.607031],"type":"Point"},"properties":{"osm_id":"4704870573","tag":{"amenity":"waste_basket"}},"type":"Feature"},
	{"geometry":{"coordinates":[9.302224,45.606959],"type":"Point"},"properties":{"osm_id":"4704870676","tag":{"amenity":"waste_basket"}},"type":"Feature"},
	{"geometry":{"coordinates":[9.301139,45.606389],"type":"Point"},"properties":{"osm_id":"4704870890","tag":{"amenity":"waste_basket"}},"type":"Feature"},
	{"geometry":{"coordinates":[9.302935,45.607616],"type":"Point"},"properties":{"osm_id":"4704870892","tag":{"amenity":"waste_basket"}},"type":"Feature"},
	{"geometry":{"coordinates":[9.30374,45.607102],"type":"Point"},"properties":{"osm_id":"4704870896","tag":{"amenity":"waste_basket"}},"type":"Feature"},
	{"geometry":{"coordinates":[9.303579,45.606053],"type":"Point"},"properties":{"osm_id":"4704871541","tag":{"amenity":"waste_basket"}},"type":"Feature"},
	{"geometry":{"coordinates":[9.30363,45.606158],"type":"Point"},"properties":{"osm_id":"4704871542","tag":{"amenity":"waste_basket"}},"type":"Feature"},
	{"geometry":{"coordinates":[9.3049,45.608232],"type":"Point"},"properties":{"osm_id":"4704871629","tag":{"amenity":"waste_basket"}},"type":"Feature"},
	{"geometry":{"coordinates":[9.305983,45.607467],"type":"Point"},"properties":{"osm_id":"4704871642","tag":{"amenity":"waste_basket"}},"type":"Feature"},
	{"geometry":{"coordinates":[9.305412,45.607655],"type":"Point"},"properties":{"osm_id":"4704871643","tag":{"amenity":"waste_basket"}},"type":"Feature"},
	{"geometry":{"coordinates":[9.305477,45.607779],"type":"Point"},"properties":{"osm_id":"4704871999","tag":{"amenity":"waste_basket"}},"type":"Feature"},
	{"geometry":{"coordinates":[9.30651,45.6077],"type":"Point"},"properties":{"osm_id":"4704872034","tag":{"amenity":"waste_basket"}},"type":"Feature"},
	{"geometry":{"coordinates":[9.305926,45.607109],"type":"Point"},"properties":{"osm_id":"4704872035","tag":{"amenity":"waste_basket"}},"type":"Feature"},
	{"geometry":{"coordinates":[9.306927,45.607222],"type":"Point"},"properties":{"osm_id":"4704872049","tag":{"amenity":"waste_basket"}},"type":"Feature"},
	{"geometry":{"coordinates":[9.301298,45.60471],"type":"Point"},"properties":{"osm_id":"4704872166","tag":{"amenity":"waste_basket"}},"type":"Feature"},
	{"geometry":{"coordinates":[9.301485,45.604267],"type":"Point"},"properties":{"osm_id":"4704872167","tag":{"amenity":"waste_basket"}},"type":"Feature"},
	{"geometry":{"coordinates":[9.306041,45.607312],"type":"Point"},"properties":{"osm_id":"4704872211","tag":{"amenity":"waste_basket"}},"type":"Feature"},
	{"geometry":{"coordinates":[9.305706,45.606621],"type":"Point"},"properties":{"osm_id":"4704872212","tag":{"amenity":"waste_basket"}},"type":"Feature"},
	{"geometry":{"coordinates":[9.307447,45.607655],"type":"Point"},"properties":{"osm_id":"4704872222","tag":{"amenity":"waste_basket"}},"type":"Feature"},
	{"geometry":{"coordinates":[9.306212,45.6065],"type":"Point"},"properties":{"osm_id":"4704872228","tag":{"amenity":"waste_basket"}},"type":"Feature"},
	{"geometry":{"coordinates":[9.302274,45.604711],"type":"Point"},"properties":{"osm_id":"4704872656","tag":{"amenity":"waste_basket"}},"type":"Feature"},
	{"geometry":{"coordinates":[9.301292,45.604933],"type":"Point"},"properties":{"osm_id":"4704872665","tag":{"amenity":"waste_basket"}},"type":"Feature"},
	{"geometry":{"coordinates":[9.301102,45.604173],"type":"Point"},"properties":{"osm_id":"4704872675","tag":{"amenity":"waste_basket"}},"type":"Feature"},
	{"geometry":{"coordinates":[9.301311,45.604141],"type":"Point"},"properties":{"osm_id":"4704872676","tag":{"amenity":"waste_basket"}},"type":"Feature"},
	{"geometry":{"coordinates":[9.301764,45.60403],"type":"Point"},"properties":{"osm_id":"4704872677","tag":{"amenity":"waste_basket"}},"type":"Feature"},
	{"geometry":{"coordinates":[9.24348,45.610725],"type":"Point"},"properties":{"osm_id":"4728876705","tag":{"amenity":"waste_basket"}},"type":"Feature"},
	{"geometry":{"coordinates":[9.243185,45.610948],"type":"Point"},"properties":{"osm_id":"4728876707","tag":{"amenity":"waste_basket"}},"type":"Feature"},
	{"geometry":{"coordinates":[9.243152,45.611091],"type":"Point"},"properties":{"osm_id":"4728876713","tag":{"amenity":"waste_basket"}},"type":"Feature"},
	{"geometry":{"coordinates":[9.244354,45.608829],"type":"Point"},"properties":{"osm_id":"4728876726","tag":{"amenity":"waste_basket"}},"type":"Feature"},
	{"geometry":{"coordinates":[9.244518,45.610404],"type":"Point"},"properties":{"osm_id":"4728876789","tag":{"amenity":"waste_basket"}},"type":"Feature"},
	{"geometry":{"coordinates":[9.24387,45.610269],"type":"Point"},"properties":{"osm_id":"4728876793","tag":{"amenity":"waste_basket"}},"type":"Feature"},
	{"geometry":{"coordinates":[9.242823,45.610212],"type":"Point"},"properties":{"osm_id":"4728877907","tag":{"amenity":"waste_basket"}},"type":"Feature"},
	{"geometry":{"coordinates":[9.242968,45.609751],"type":"Point"},"properties":{"osm_id":"4728878404","tag":{"amenity":"waste_basket"}},"type":"Feature"},
	{"geometry":{"coordinates":[9.242807,45.609762],"type":"Point"},"properties":{"osm_id":"4728878405","tag":{"amenity":"waste_basket"}},"type":"Feature"},
	{"geometry":{"coordinates":[9.242982,45.609509],"type":"Point"},"properties":{"osm_id":"4728878406","tag":{"amenity":"waste_basket"}},"type":"Feature"},
	{"geometry":{"coordinates":[9.242657,45.609993],"type":"Point"},"properties":{"osm_id":"4728878745","tag":{"amenity":"waste_basket"}},"type":"Feature"},
	{"geometry":{"coordinates":[9.242986,45.609719],"type":"Point"},"properties":{"osm_id":"4728878746","tag":{"amenity":"waste_basket"}},"type":"Feature"},
	{"geometry":{"coordinates":[9.242861,45.609664],"type":"Point"},"properties":{"osm_id":"4728878747","tag":{"amenity":"waste_basket"}},"type":"Feature"},
	{"geometry":{"coordinates":[9.243727,45.609928],"type":"Point"},"properties":{"osm_id":"4728879262","tag":{"amenity":"waste_basket"}},"type":"Feature"},
	{"geometry":{"coordinates":[9.244612,45.608005],"type":"Point"},"properties":{"osm_id":"4728879696","tag":{"amenity":"waste_basket"}},"type":"Feature"},
	{"geometry":{"coordinates":[9.242504,45.60754],"type":"Point"},"properties":{"osm_id":"4728879758","tag":{"amenity":"waste_basket"}},"type":"Feature"},
	{"geometry":{"coordinates":[9.243881,45.607808],"type":"Point"},"properties":{"osm_id":"4728879759","tag":{"amenity":"waste_basket"}},"type":"Feature"},
	{"geometry":{"coordinates":[9.24276,45.606986],"type":"Point"},"properties":{"osm_id":"4728879772","tag":{"amenity":"waste_basket"}},"type":"Feature"},
	{"geometry":{"coordinates":[9.242522,45.607573],"type":"Point"},"properties":{"osm_id":"4728879842","tag":{"amenity":"waste_basket"}},"type":"Feature"},
	{"geometry":{"coordinates":[9.241572,45.606693],"type":"Point"},"properties":{"osm_id":"4728880129","tag":{"amenity":"waste_basket"}},"type":"Feature"},
	{"geometry":{"coordinates":[9.242772,45.607636],"type":"Point"},"properties":{"osm_id":"4728880130","tag":{"amenity":"waste_basket"}},"type":"Feature"},
	{"geometry":{"coordinates":[9.231894,45.610589],"type":"Point"},"properties":{"osm_id":"4794760123","tag":{"amenity":"waste_basket"}},"type":"Feature"},
	{"geometry":{"coordinates":[9.23423,45.611439],"type":"Point"},"properties":{"osm_id":"4794761765","tag":{"amenity":"recycling","operator":"Humana","recycling:clothes":"yes","recycling:shoes":"yes","recycling_type":"container"}},"type":"Feature"},
	{"geometry":{"coordinates":[9.235266,45.610678],"type":"Point"},"properties":{"osm_id":"4794762857","tag":{"amenity":"waste_basket"}},"type":"Feature"},
	{"geometry":{"coordinates":[9.239266,45.611238],"type":"Point"},"properties":{"osm_id":"4865842863","tag":{"amenity":"waste_basket"}},"type":"Feature"},
	{"geometry":{"coordinates":[9.238335,45.611657],"type":"Point"},"properties":{"osm_id":"4865842945","tag":{"amenity":"waste_basket"}},"type":"Feature"},
	{"geometry":{"coordinates":[9.237547,45.611949],"type":"Point"},"properties":{"osm_id":"4865842948","tag":{"amenity":"waste_basket"}},"type":"Feature"},
	{"geometry":{"coordinates":[9.237812,45.611054],"type":"Point"},"properties":{"osm_id":"4865843790","tag":{"amenity":"waste_basket"}},"type":"Feature"},
	{"geometry":{"coordinates":[9.236643,45.610172],"type":"Point"},"properties":{"osm_id":"4865847429","tag":{"amenity":"waste_basket"}},"type":"Feature"},
	{"geometry":{"coordinates":[9.235688,45.610467],"type":"Point"},"properties":{"osm_id":"4865847454","tag":{"amenity":"waste_basket"}},"type":"Feature"},
	{"geometry":{"coordinates":[9.235591,45.610762],"type":"Point"},"properties":{"osm_id":"4865847465","tag":{"amenity":"waste_basket"}},"type":"Feature"},
	{"geometry":{"coordinates":[9.235547,45.610902],"type":"Point"},"properties":{"osm_id":"4865849829","tag":{"amenity":"waste_basket"}},"type":"Feature"},
	{"geometry":{"coordinates":[9.237573,45.602233],"type":"Point"},"properties":{"osm_id":"4945433377","tag":{"amenity":"waste_basket"}},"type":"Feature"},
	{"geometry":{"coordinates":[9.236847,45.601864],"type":"Point"},"properties":{"osm_id":"4945433378","tag":{"amenity":"waste_basket"}},"type":"Feature"},
	{"geometry":{"coordinates":[9.236798,45.601922],"type":"Point"},"properties":{"osm_id":"4945433379","tag":{"amenity":"waste_basket"}},"type":"Feature"},
	{"geometry":{"coordinates":[9.236342,45.601501],"type":"Point"},"properties":{"osm_id":"4945434226","tag":{"amenity":"waste_basket"}},"type":"Feature"},
	{"geometry":{"coordinates":[9.238984,45.601864],"type":"Point"},"properties":{"osm_id":"4945434243","tag":{"amenity":"waste_basket"}},"type":"Feature"},
	{"geometry":{"coordinates":[9.236876,45.601034],"type":"Point"},"properties":{"osm_id":"4945434445","tag":{"amenity":"recycling","operator":"Caritas Ambrosiana","recycling:clothes":"yes","recycling_type":"container"}},"type":"Feature"},
	{"geometry":{"coordinates":[9.236796,45.601027],"type":"Point"},"properties":{"osm_id":"4945434446","tag":{"amenity":"waste_basket"}},"type":"Feature"},
	{"geometry":{"coordinates":[9.238174,45.602869],"type":"Point"},"properties":{"osm_id":"4945434485","tag":{"amenity":"waste_basket"}},"type":"Feature"},
	{"geometry":{"coordinates":[9.235074,45.602791],"type":"Point"},"properties":{"osm_id":"4945434500","tag":{"amenity":"waste_basket"}},"type":"Feature"},
	{"geometry":{"coordinates":[9.234395,45.600826],"type":"Point"},"properties":{"osm_id":"4945434509","tag":{"amenity":"waste_basket"}},"type":"Feature"},
	{"geometry":{"coordinates":[9.234494,45.601104],"type":"Point"},"properties":{"osm_id":"4945434512","tag":{"amenity":"waste_basket"}},"type":"Feature"},
	{"geometry":{"coordinates":[9.234612,45.601824],"type":"Point"},"properties":{"osm_id":"4945434513","tag":{"amenity":"waste_basket"}},"type":"Feature"},
	{"geometry":{"coordinates":[9.235033,45.602629],"type":"Point"},"properties":{"osm_id":"4945434827","tag":{"amenity":"waste_basket"}},"type":"Feature"},
	{"geometry":{"coordinates":[9.281892,45.629677],"type":"Point"},"properties":{"osm_id":"4974137150","tag":{"amenity":"waste_basket"}},"type":"Feature"},
	{"geometry":{"coordinates":[9.311259,45.605936],"type":"Point"},"properties":{"osm_id":"5001160649","tag":{"amenity":"waste_basket"}},"type":"Feature"},
	{"geometry":{"coordinates":[9.311782,45.605613],"type":"Point"},"properties":{"osm_id":"5001160652","tag":{"amenity":"waste_basket"}},"type":"Feature"},
	{"geometry":{"coordinates":[9.311546,45.605298],"type":"Point"},"properties":{"osm_id":"5001160676","tag":{"amenity":"waste_basket"}},"type":"Feature"},
	{"geometry":{"coordinates":[9.31079,45.605176],"type":"Point"},"properties":{"osm_id":"5001160713","tag":{"amenity":"recycling","operator":"Caritas Ambrosiana","recycling:clothes":"yes","recycling_type":"container"}},"type":"Feature"},
	{"geometry":{"coordinates":[9.310272,45.604296],"type":"Point"},"properties":{"osm_id":"5001160718","tag":{"amenity":"waste_basket"}},"type":"Feature"},
	{"geometry":{"coordinates":[9.311788,45.602425],"type":"Point"},"properties":{"osm_id":"5001161577","tag":{"amenity":"waste_basket"}},"type":"Feature"},
	{"geometry":{"coordinates":[9.310634,45.601982],"type":"Point"},"properties":{"osm_id":"5001161595","tag":{"amenity":"recycling","operator":"Caritas Ambrosiana","recycling:clothes":"yes","recycling_type":"container"}},"type":"Feature"},
	{"geometry":{"coordinates":[9.310704,45.604095],"type":"Point"},"properties":{"osm_id":"5001162021","tag":{"amenity":"waste_basket"}},"type":"Feature"},
	{"geometry":{"coordinates":[9.310004,45.603641],"type":"Point"},"properties":{"osm_id":"5001162025","tag":{"amenity":"waste_basket"}},"type":"Feature"},
	{"geometry":{"coordinates":[9.31094,45.603415],"type":"Point"},"properties":{"osm_id":"5001162055","tag":{"amenity":"waste_basket"}},"type":"Feature"},
	{"geometry":{"coordinates":[9.310811,45.603391],"type":"Point"},"properties":{"osm_id":"5001162056","tag":{"amenity":"waste_basket"}},"type":"Feature"},
	{"geometry":{"coordinates":[9.297787,45.616685],"type":"Point"},"properties":{"osm_id":"5106924178","tag":{"amenity":"waste_basket"}},"type":"Feature"},
	{"geometry":{"coordinates":[9.231954,45.601743],"type":"Point"},"properties":{"osm_id":"5108970956","tag":{"amenity":"waste_basket"}},"type":"Feature"},
	{"geometry":{"coordinates":[9.23292,45.603348],"type":"Point"},"properties":{"osm_id":"5108970971","tag":{"amenity":"waste_basket"}},"type":"Feature"},
	{"geometry":{"coordinates":[9.232442,45.603445],"type":"Point"},"properties":{"osm_id":"5108970972","tag":{"amenity":"waste_disposal"}},"type":"Feature"},
	{"geometry":{"coordinates":[9.232488,45.603449],"type":"Point"},"properties":{"osm_id":"5108970973","tag":{"amenity":"waste_disposal"}},"type":"Feature"},
	{"geometry":{"coordinates":[9.233306,45.603254],"type":"Point"},"properties":{"osm_id":"5108970997","tag":{"amenity":"waste_basket"}},"type":"Feature"},
	{"geometry":{"coordinates":[9.233585,45.602201],"type":"Point"},"properties":{"osm_id":"5108971312","tag":{"amenity":"waste_basket"}},"type":"Feature"},
	{"geometry":{"coordinates":[9.296991,45.626879],"type":"Point"},"properties":{"osm_id":"5163086824","tag":{"amenity":"waste_basket"}},"type":"Feature"},
	{"geometry":{"coordinates":[9.289157,45.60411],"type":"Point"},"properties":{"osm_id":"5243096664","tag":{"amenity":"waste_basket"}},"type":"Feature"},
	{"geometry":{"coordinates":[9.24707,45.609704],"type":"Point"},"properties":{"osm_id":"5261748308","tag":{"amenity":"waste_basket"}},"type":"Feature"},
	{"geometry":{"coordinates":[9.235948,45.635684],"type":"Point"},"properties":{"osm_id":"5336473816","tag":{"amenity":"waste_basket"}},"type":"Feature"},
	{"geometry":{"coordinates":[9.256472,45.641151],"type":"Point"},"properties":{"osm_id":"5349473560","tag":{"amenity":"waste_basket"}},"type":"Feature"},
	{"geometry":{"coordinates":[9.262324,45.639573],"type":"Point"},"properties":{"osm_id":"5351009551","tag":{"amenity":"waste_basket","waste":"trash"}},"type":"Feature"},
	{"geometry":{"coordinates":[9.264412,45.639449],"type":"Point"},"properties":{"osm_id":"5351026026","tag":{"amenity":"waste_basket","waste":"trash"}},"type":"Feature"},
	{"geometry":{"coordinates":[9.272375,45.644615],"type":"Point"},"properties":{"osm_id":"5352450584","tag":{"amenity":"waste_basket","waste":"trash"}},"type":"Feature"},
	{"geometry":{"coordinates":[9.272338,45.64465],"type":"Point"},"properties":{"osm_id":"5352450585","tag":{"amenity":"waste_basket","waste":"trash"}},"type":"Feature"},
	{"geometry":{"coordinates":[9.272358,45.644633],"type":"Point"},"properties":{"osm_id":"5352450586","tag":{"amenity":"waste_disposal","waste":"trash"}},"type":"Feature"},
	{"geometry":{"coordinates":[9.273128,45.644246],"type":"Point"},"properties":{"osm_id":"5352450596","tag":{"amenity":"waste_basket","waste":"trash"}},"type":"Feature"},
	{"geometry":{"coordinates":[9.267009,45.642359],"type":"Point"},"properties":{"osm_id":"5354319189","tag":{"amenity":"waste_basket","waste":"trash"}},"type":"Feature"},
	{"geometry":{"coordinates":[9.272188,45.644709],"type":"Point"},"properties":{"osm_id":"5354591652","tag":{"amenity":"waste_basket","waste":"trash"}},"type":"Feature"},
	{"geometry":{"coordinates":[9.266038,45.642015],"type":"Point"},"properties":{"osm_id":"5354591674","tag":{"amenity":"waste_basket","waste":"trash"}},"type":"Feature"},
	{"geometry":{"coordinates":[9.264344,45.640183],"type":"Point"},"properties":{"osm_id":"5354591675","tag":{"amenity":"waste_basket","waste":"trash"}},"type":"Feature"},
	{"geometry":{"coordinates":[9.263608,45.64139],"type":"Point"},"properties":{"osm_id":"5356634633","tag":{"amenity":"waste_basket","waste":"trash"}},"type":"Feature"},
	{"geometry":{"coordinates":[9.259629,45.64209],"type":"Point"},"properties":{"osm_id":"5483155856","tag":{"amenity":"waste_basket","waste":"trash"}},"type":"Feature"},
	{"geometry":{"coordinates":[9.259413,45.643026],"type":"Point"},"properties":{"osm_id":"5483155858","tag":{"amenity":"waste_basket","waste":"trash"}},"type":"Feature"},
	{"geometry":{"coordinates":[9.259314,45.642802],"type":"Point"},"properties":{"osm_id":"5483155863","tag":{"amenity":"waste_basket","waste":"trash"}},"type":"Feature"},
	{"geometry":{"coordinates":[9.259116,45.643223],"type":"Point"},"properties":{"osm_id":"5483155865","tag":{"amenity":"waste_basket","waste":"trash"}},"type":"Feature"},
	{"geometry":{"coordinates":[9.259478,45.6431],"type":"Point"},"properties":{"osm_id":"5617819590","tag":{"amenity":"waste_basket","waste":"trash"}},"type":"Feature"},
	{"geometry":{"coordinates":[9.25942,45.643266],"type":"Point"},"properties":{"osm_id":"5617819591","tag":{"amenity":"waste_basket","waste":"trash"}},"type":"Feature"},
	{"geometry":{"coordinates":[9.243108,45.611912],"type":"Point"},"properties":{"osm_id":"5677313462","tag":{"amenity":"waste_basket"}},"type":"Feature"},
	{"geometry":{"coordinates":[9.243044,45.611848],"type":"Point"},"properties":{"osm_id":"5677313463","tag":{"amenity":"waste_basket"}},"type":"Feature"},
	{"geometry":{"coordinates":[9.245992,45.61174],"type":"Point"},"properties":{"osm_id":"5677316666","tag":{"amenity":"waste_basket"}},"type":"Feature"},
	{"geometry":{"coordinates":[9.245749,45.61192],"type":"Point"},"properties":{"osm_id":"5677316671","tag":{"amenity":"waste_basket"}},"type":"Feature"},
	{"geometry":{"coordinates":[9.24379,45.611339],"type":"Point"},"properties":{"osm_id":"5677316715","tag":{"amenity":"waste_basket"}},"type":"Feature"},
	{"geometry":{"coordinates":[9.241346,45.611969],"type":"Point"},"properties":{"osm_id":"5677317539","tag":{"amenity":"waste_basket"}},"type":"Feature"},
	{"geometry":{"coordinates":[9.241241,45.612176],"type":"Point"},"properties":{"osm_id":"5677317540","tag":{"amenity":"waste_basket"}},"type":"Feature"},
	{"geometry":{"coordinates":[9.240726,45.612104],"type":"Point"},"properties":{"osm_id":"5677317543","tag":{"amenity":"waste_basket"}},"type":"Feature"},
	{"geometry":{"coordinates":[9.241893,45.611194],"type":"Point"},"properties":{"osm_id":"5677317648","tag":{"amenity":"waste_basket"}},"type":"Feature"},
	{"geometry":{"coordinates":[9.241885,45.610594],"type":"Point"},"properties":{"osm_id":"5677317661","tag":{"amenity":"waste_basket"}},"type":"Feature"},
	{"geometry":{"coordinates":[9.275865,45.62722],"type":"Point"},"properties":{"osm_id":"5774539993","tag":{"amenity":"waste_basket"}},"type":"Feature"},
	{"geometry":{"coordinates":[9.282154,45.629778],"type":"Point"},"properties":{"osm_id":"5774540100","tag":{"amenity":"waste_basket"}},"type":"Feature"},
	{"geometry":{"coordinates":[9.295528,45.589734],"type":"Point"},"properties":{"osm_id":"5774540364","tag":{"amenity":"waste_basket"}},"type":"Feature"},
	{"geometry":{"coordinates":[9.30531,45.591059],"type":"Point"},"properties":{"osm_id":"5774540562","tag":{"amenity":"waste_basket"}},"type":"Feature"},
	{"geometry":{"coordinates":[9.296762,45.589989],"type":"Point"},"properties":{"osm_id":"5774540637","tag":{"amenity":"waste_basket"}},"type":"Feature"},
	{"geometry":{"coordinates":[9.231726,45.595136],"type":"Point"},"properties":{"osm_id":"5792030020","tag":{"amenity":"recycling","operator":"Caritas Ambrosiana","recycling:clothes":"yes","recycling_type":"container"}},"type":"Feature"},
	{"geometry":{"coordinates":[9.231992,45.595637],"type":"Point"},"properties":{"osm_id":"5792030021","tag":{"amenity":"waste_basket"}},"type":"Feature"},
	{"geometry":{"coordinates":[9.232008,45.595577],"type":"Point"},"properties":{"osm_id":"5792030022","tag":{"amenity":"waste_basket"}},"type":"Feature"},
	{"geometry":{"coordinates":[9.231812,45.594668],"type":"Point"},"properties":{"osm_id":"5792030034","tag":{"amenity":"waste_basket"}},"type":"Feature"},
	{"geometry":{"coordinates":[9.231193,45.594447],"type":"Point"},"properties":{"osm_id":"5792030043","tag":{"amenity":"waste_basket"}},"type":"Feature"},
	{"geometry":{"coordinates":[9.231742,45.594259],"type":"Point"},"properties":{"osm_id":"5792030044","tag":{"amenity":"waste_basket"}},"type":"Feature"},
	{"geometry":{"coordinates":[9.23064,45.594002],"type":"Point"},"properties":{"osm_id":"5792030050","tag":{"amenity":"waste_basket"}},"type":"Feature"},
	{"geometry":{"coordinates":[9.231713,45.594081],"type":"Point"},"properties":{"osm_id":"5792030051","tag":{"amenity":"waste_basket"}},"type":"Feature"},
	{"geometry":{"coordinates":[9.231313,45.594064],"type":"Point"},"properties":{"osm_id":"5792030052","tag":{"amenity":"waste_basket"}},"type":"Feature"},
	{"geometry":{"coordinates":[9.233612,45.596462],"type":"Point"},"properties":{"osm_id":"5792031133","tag":{"amenity":"waste_basket"}},"type":"Feature"},
	{"geometry":{"coordinates":[9.234017,45.596667],"type":"Point"},"properties":{"osm_id":"5792031134","tag":{"amenity":"waste_basket"}},"type":"Feature"},
	{"geometry":{"coordinates":[9.229066,45.593713],"type":"Point"},"properties":{"osm_id":"5792031476","tag":{"amenity":"waste_basket"}},"type":"Feature"},
	{"geometry":{"coordinates":[9.229505,45.593369],"type":"Point"},"properties":{"osm_id":"5792031479","tag":{"amenity":"waste_basket"}},"type":"Feature"},
	{"geometry":{"coordinates":[9.230745,45.593542],"type":"Point"},"properties":{"osm_id":"5792031486","tag":{"amenity":"waste_basket"}},"type":"Feature"},
	{"geometry":{"coordinates":[9.230388,45.593428],"type":"Point"},"properties":{"osm_id":"5792031487","tag":{"amenity":"waste_basket"}},"type":"Feature"},
	{"geometry":{"coordinates":[9.230205,45.593587],"type":"Point"},"properties":{"osm_id":"5792031488","tag":{"amenity":"waste_basket"}},"type":"Feature"},
	{"geometry":{"coordinates":[9.229479,45.594805],"type":"Point"},"properties":{"osm_id":"5792031489","tag":{"amenity":"waste_basket"}},"type":"Feature"},
	{"geometry":{"coordinates":[9.229151,45.593799],"type":"Point"},"properties":{"osm_id":"5792031490","tag":{"amenity":"waste_basket"}},"type":"Feature"},
	{"geometry":{"coordinates":[9.229269,45.593493],"type":"Point"},"properties":{"osm_id":"5792031493","tag":{"amenity":"waste_basket"}},"type":"Feature"},
	{"geometry":{"coordinates":[9.229685,45.595381],"type":"Point"},"properties":{"osm_id":"5792032185","tag":{"amenity":"waste_basket"}},"type":"Feature"},
	{"geometry":{"coordinates":[9.229589,45.595169],"type":"Point"},"properties":{"osm_id":"5792032186","tag":{"amenity":"waste_basket"}},"type":"Feature"},
	{"geometry":{"coordinates":[9.230554,45.595365],"type":"Point"},"properties":{"osm_id":"5792032197","tag":{"amenity":"waste_basket"}},"type":"Feature"},
	{"geometry":{"coordinates":[9.232418,45.595984],"type":"Point"},"properties":{"osm_id":"5792032231","tag":{"amenity":"waste_basket"}},"type":"Feature"},
	{"geometry":{"coordinates":[9.234154,45.59736],"type":"Point"},"properties":{"osm_id":"5792032457","tag":{"amenity":"waste_basket"}},"type":"Feature"},
	{"geometry":{"coordinates":[9.233386,45.596656],"type":"Point"},"properties":{"osm_id":"5792032470","tag":{"amenity":"waste_basket"}},"type":"Feature"},
	{"geometry":{"coordinates":[9.23366,45.597502],"type":"Point"},"properties":{"osm_id":"5792032489","tag":{"amenity":"waste_basket"}},"type":"Feature"},
	{"geometry":{"coordinates":[9.233741,45.597425],"type":"Point"},"properties":{"osm_id":"5792032490","tag":{"amenity":"waste_basket"}},"type":"Feature"},
	{"geometry":{"coordinates":[9.233386,45.59927],"type":"Point"},"properties":{"osm_id":"5792032534","tag":{"amenity":"waste_basket"}},"type":"Feature"},
	{"geometry":{"coordinates":[9.24554,45.63491],"type":"Point"},"properties":{"osm_id":"5796109730","tag":{"amenity":"waste_basket","waste":"trash"}},"type":"Feature"},
	{"geometry":{"coordinates":[9.244456,45.636775],"type":"Point"},"properties":{"osm_id":"5796109731","tag":{"amenity":"waste_basket","waste":"trash"}},"type":"Feature"},
	{"geometry":{"coordinates":[9.244976,45.629105],"type":"Point"},"properties":{"osm_id":"5843425014","tag":{"amenity":"waste_basket","waste":"trash"}},"type":"Feature"},
	{"geometry":{"coordinates":[9.263862,45.632251],"type":"Point"},"properties":{"osm_id":"5843508383","tag":{"amenity":"waste_basket","waste":"trash"}},"type":"Feature"},
	{"geometry":{"coordinates":[9.263615,45.632233],"type":"Point"},"properties":{"osm_id":"5843508384","tag":{"amenity":"waste_basket","waste":"trash"}},"type":"Feature"},
	{"geometry":{"coordinates":[9.263604,45.632017],"type":"Point"},"properties":{"osm_id":"5843509285","tag":{"amenity":"waste_basket","waste":"trash"}},"type":"Feature"},
	{"geometry":{"coordinates":[9.264082,45.632361],"type":"Point"},"properties":{"osm_id":"5843509286","tag":{"amenity":"waste_basket","waste":"trash"}},"type":"Feature"},
	{"geometry":{"coordinates":[9.249922,45.639294],"type":"Point"},"properties":{"osm_id":"5853831820","tag":{"amenity":"waste_basket","waste":"trash"}},"type":"Feature"},
	{"geometry":{"coordinates":[9.250079,45.63946],"type":"Point"},"properties":{"osm_id":"5853862508","tag":{"amenity":"waste_basket","waste":"trash"}},"type":"Feature"},
	{"geometry":{"coordinates":[9.228872,45.59278],"type":"Point"},"properties":{"osm_id":"5922306001","tag":{"amenity":"waste_basket"}},"type":"Feature"},
	{"geometry":{"coordinates":[9.229084,45.592022],"type":"Point"},"properties":{"osm_id":"5922306003","tag":{"amenity":"waste_basket"}},"type":"Feature"},
	{"geometry":{"coordinates":[9.229226,45.593298],"type":"Point"},"properties":{"osm_id":"5922306043","tag":{"amenity":"waste_basket"}},"type":"Feature"},
	{"geometry":{"coordinates":[9.230509,45.5918],"type":"Point"},"properties":{"osm_id":"5922306062","tag":{"amenity":"waste_basket"}},"type":"Feature"},
	{"geometry":{"coordinates":[9.23211,45.594025],"type":"Point"},"properties":{"osm_id":"5922306070","tag":{"amenity":"waste_basket"}},"type":"Feature"},
	{"geometry":{"coordinates":[9.232279,45.594103],"type":"Point"},"properties":{"osm_id":"5922306071","tag":{"amenity":"waste_basket"}},"type":"Feature"},
	{"geometry":{"coordinates":[9.235117,45.593572],"type":"Point"},"properties":{"osm_id":"5922306267","tag":{"amenity":"recycling","recycling:clothes":"yes","recycling_type":"container"}},"type":"Feature"},
	{"geometry":{"coordinates":[9.234969,45.593841],"type":"Point"},"properties":{"osm_id":"5922306269","tag":{"amenity":"waste_basket"}},"type":"Feature"},
	{"geometry":{"coordinates":[9.235031,45.594064],"type":"Point"},"properties":{"osm_id":"5922306270","tag":{"amenity":"waste_basket"}},"type":"Feature"},
	{"geometry":{"coordinates":[9.234867,45.594193],"type":"Point"},"properties":{"osm_id":"5922306271","tag":{"amenity":"waste_basket"}},"type":"Feature"},
	{"geometry":{"coordinates":[9.235583,45.594255],"type":"Point"},"properties":{"osm_id":"5922306277","tag":{"amenity":"waste_basket"}},"type":"Feature"},
	{"geometry":{"coordinates":[9.234443,45.595198],"type":"Point"},"properties":{"osm_id":"5922306518","tag":{"amenity":"waste_basket"}},"type":"Feature"},
	{"geometry":{"coordinates":[9.229433,45.607737],"type":"Point"},"properties":{"osm_id":"5961144587","tag":{"amenity":"waste_basket"}},"type":"Feature"},
	{"geometry":{"coordinates":[9.228663,45.606133],"type":"Point"},"properties":{"osm_id":"5961144624","tag":{"amenity":"waste_basket"}},"type":"Feature"},
	{"geometry":{"coordinates":[9.228532,45.605731],"type":"Point"},"properties":{"osm_id":"5961144688","tag":{"amenity":"waste_basket"}},"type":"Feature"},
	{"geometry":{"coordinates":[9.229192,45.604637],"type":"Point"},"properties":{"osm_id":"5961144700","tag":{"amenity":"recycling","operator":"Humana","recycling:clothes":"yes","recycling:shoes":"yes","recycling_type":"container"}},"type":"Feature"},
	{"geometry":{"coordinates":[9.230787,45.60656],"type":"Point"},"properties":{"osm_id":"5961144759","tag":{"amenity":"waste_basket"}},"type":"Feature"},
	{"geometry":{"coordinates":[9.231488,45.605883],"type":"Point"},"properties":{"osm_id":"5961144764","tag":{"amenity":"waste_basket"}},"type":"Feature"},
	{"geometry":{"coordinates":[9.230951,45.605922],"type":"Point"},"properties":{"osm_id":"5961144765","tag":{"amenity":"waste_basket"}},"type":"Feature"},
	{"geometry":{"coordinates":[9.231809,45.605431],"type":"Point"},"properties":{"osm_id":"5961144766","tag":{"amenity":"waste_basket"}},"type":"Feature"},
	{"geometry":{"coordinates":[9.231093,45.605635],"type":"Point"},"properties":{"osm_id":"5961144767","tag":{"amenity":"waste_basket"}},"type":"Feature"},
	{"geometry":{"coordinates":[9.231589,45.605087],"type":"Point"},"properties":{"osm_id":"5961144768","tag":{"amenity":"waste_basket"}},"type":"Feature"},
	{"geometry":{"coordinates":[9.287018,45.589616],"type":"Point"},"properties":{"osm_id":"6244977093","tag":{"amenity":"waste_basket"}},"type":"Feature"},
	{"geometry":{"coordinates":[9.250298,45.634525],"type":"Point"},"properties":{"osm_id":"6272021613","tag":{"amenity":"waste_basket","waste":"trash"}},"type":"Feature"},
	{"geometry":{"coordinates":[9.250308,45.634729],"type":"Point"},"properties":{"osm_id":"6272021617","tag":{"amenity":"waste_basket","waste":"trash"}},"type":"Feature"},
	{"geometry":{"coordinates":[9.250333,45.634345],"type":"Point"},"properties":{"osm_id":"6272070584","tag":{"amenity":"waste_basket","waste":"trash"}},"type":"Feature"},
	{"geometry":{"coordinates":[9.25063,45.634251],"type":"Point"},"properties":{"osm_id":"6272071085","tag":{"amenity":"waste_basket","waste":"trash"}},"type":"Feature"},
	{"geometry":{"coordinates":[9.294381,45.61528],"type":"Point"},"properties":{"osm_id":"6480861551","tag":{"amenity":"waste_basket","waste":"trash"}},"type":"Feature"},
	{"geometry":{"coordinates":[9.303645,45.621718],"type":"Point"},"properties":{"osm_id":"6480952131","tag":{"amenity":"waste_basket","waste":"trash"}},"type":"Feature"},
	{"geometry":{"coordinates":[9.302847,45.624587],"type":"Point"},"properties":{"osm_id":"6480961887","tag":{"amenity":"waste_basket","waste":"trash"}},"type":"Feature"},
	{"geometry":{"coordinates":[9.304508,45.640682],"type":"Point"},"properties":{"osm_id":"6703436979","tag":{"amenity":"waste_basket","waste":"trash"}},"type":"Feature"},
	{"geometry":{"coordinates":[9.305987,45.636507],"type":"Point"},"properties":{"osm_id":"6703439027","tag":{"amenity":"waste_basket","waste":"trash"}},"type":"Feature"},
	{"geometry":{"coordinates":[9.304452,45.639224],"type":"Point"},"properties":{"osm_id":"6703449819","tag":{"amenity":"waste_basket","waste":"trash"}},"type":"Feature"},
	{"geometry":{"coordinates":[9.241756,45.627117],"type":"Point"},"properties":{"osm_id":"7026705981","tag":{"amenity":"waste_basket","waste":"trash"}},"type":"Feature"},
	{"geometry":{"coordinates":[9.22992,45.626681],"type":"Point"},"properties":{"osm_id":"7156920618","tag":{"amenity":"waste_basket","waste":"trash"}},"type":"Feature"},
	{"geometry":{"coordinates":[9.229978,45.625065],"type":"Point"},"properties":{"osm_id":"7156920619","tag":{"amenity":"waste_basket","waste":"trash"}},"type":"Feature"},
	{"geometry":{"coordinates":[9.255261,45.623528],"type":"Point"},"properties":{"osm_id":"7191547026","tag":{"amenity":"waste_basket","waste":"trash"}},"type":"Feature"},
	{"geometry":{"coordinates":[9.254906,45.622856],"type":"Point"},"properties":{"osm_id":"7191547027","tag":{"amenity":"waste_basket","waste":"trash"}},"type":"Feature"},
	{"geometry":{"coordinates":[9.254478,45.622333],"type":"Point"},"properties":{"osm_id":"7191583753","tag":{"amenity":"waste_basket","waste":"trash"}},"type":"Feature"},
	{"geometry":{"coordinates":[9.254737,45.622035],"type":"Point"},"properties":{"osm_id":"7191583754","tag":{"amenity":"waste_basket","waste":"trash"}},"type":"Feature"},
	{"geometry":{"coordinates":[9.2575,45.62367],"type":"Point"},"properties":{"osm_id":"7191587944","tag":{"amenity":"waste_basket","waste":"trash"}},"type":"Feature"},
	{"geometry":{"coordinates":[9.256912,45.623232],"type":"Point"},"properties":{"osm_id":"7191587945","tag":{"amenity":"waste_basket","waste":"trash"}},"type":"Feature"},
	{"geometry":{"coordinates":[9.256035,45.623811],"type":"Point"},"properties":{"osm_id":"7191592975","tag":{"amenity":"waste_basket","waste":"trash"}},"type":"Feature"},
	{"geometry":{"coordinates":[9.255939,45.624667],"type":"Point"},"properties":{"osm_id":"7191592976","tag":{"amenity":"waste_basket","waste":"trash"}},"type":"Feature"},
	{"geometry":{"coordinates":[9.256374,45.623196],"type":"Point"},"properties":{"osm_id":"7191608475","tag":{"amenity":"waste_basket","waste":"trash"}},"type":"Feature"},
	{"geometry":{"coordinates":[9.255346,45.624209],"type":"Point"},"properties":{"osm_id":"7191608476","tag":{"amenity":"waste_basket","waste":"trash"}},"type":"Feature"},
	{"geometry":{"coordinates":[9.25486,45.625926],"type":"Point"},"properties":{"osm_id":"7193597032","tag":{"amenity":"waste_basket","waste":"trash"}},"type":"Feature"},
	{"geometry":{"coordinates":[9.254613,45.625859],"type":"Point"},"properties":{"osm_id":"7193597033","tag":{"amenity":"waste_basket","waste":"trash"}},"type":"Feature"},
	{"geometry":{"coordinates":[9.254459,45.625946],"type":"Point"},"properties":{"osm_id":"7193625224","tag":{"amenity":"waste_basket","waste":"trash"}},"type":"Feature"},
	{"geometry":{"coordinates":[9.254593,45.625979],"type":"Point"},"properties":{"osm_id":"7193683142","tag":{"amenity":"waste_basket","waste":"trash"}},"type":"Feature"},
	{"geometry":{"coordinates":[9.254896,45.625985],"type":"Point"},"properties":{"osm_id":"7193683143","tag":{"amenity":"waste_basket","waste":"trash"}},"type":"Feature"},
	{"geometry":{"coordinates":[9.254251,45.625097],"type":"Point"},"properties":{"osm_id":"7193683574","tag":{"amenity":"waste_basket","waste":"trash"}},"type":"Feature"},
	{"geometry":{"coordinates":[9.254452,45.624967],"type":"Point"},"properties":{"osm_id":"7235364425","tag":{"amenity":"waste_disposal","waste":"trash"}},"type":"Feature"},
	{"geometry":{"coordinates":[9.249854,45.628372],"type":"Point"},"properties":{"osm_id":"7235398775","tag":{"amenity":"waste_basket","waste":"trash"}},"type":"Feature"},
	{"geometry":{"coordinates":[9.250773,45.628625],"type":"Point"},"properties":{"osm_id":"7235398776","tag":{"amenity":"waste_basket","waste":"trash"}},"type":"Feature"},
	{"geometry":{"coordinates":[9.247419,45.626486],"type":"Point"},"properties":{"osm_id":"7538628934","tag":{"amenity":"waste_basket","waste":"trash"}},"type":"Feature"},
	{"geometry":{"coordinates":[9.296094,45.62011],"type":"Point"},"properties":{"osm_id":"7562819032","tag":{"amenity":"waste_basket","waste":"trash"}},"type":"Feature"},
	{"geometry":{"coordinates":[9.296397,45.620769],"type":"Point"},"properties":{"osm_id":"7562819343","tag":{"amenity":"waste_basket","waste":"trash"}},"type":"Feature"},
	{"geometry":{"coordinates":[9.296716,45.621477],"type":"Point"},"properties":{"osm_id":"7562834488","tag":{"amenity":"waste_basket","waste":"trash"}},"type":"Feature"},
	{"geometry":{"coordinates":[9.295616,45.618337],"type":"Point"},"properties":{"osm_id":"7562878296","tag":{"amenity":"waste_basket","waste":"trash"}},"type":"Feature"},
	{"geometry":{"coordinates":[9.295464,45.618775],"type":"Point"},"properties":{"osm_id":"7562878298","tag":{"amenity":"waste_basket","waste":"trash"}},"type":"Feature"},
	{"geometry":{"coordinates":[9.295775,45.61942],"type":"Point"},"properties":{"osm_id":"7562878299","tag":{"amenity":"waste_basket","waste":"trash"}},"type":"Feature"},
	{"geometry":{"coordinates":[9.295894,45.6177],"type":"Point"},"properties":{"osm_id":"7562916419","tag":{"amenity":"waste_basket","waste":"trash"}},"type":"Feature"},
	{"geometry":{"coordinates":[9.295871,45.617457],"type":"Point"},"properties":{"osm_id":"7562927914","tag":{"amenity":"waste_basket","waste":"trash"}},"type":"Feature"},
	{"geometry":{"coordinates":[9.298629,45.621153],"type":"Point"},"properties":{"osm_id":"7562997896","tag":{"amenity":"waste_basket","waste":"trash"}},"type":"Feature"},
	{"geometry":{"coordinates":[9.261126,45.634235],"type":"Point"},"properties":{"osm_id":"7566040628","tag":{"amenity":"waste_basket","waste":"trash"}},"type":"Feature"},
	{"geometry":{"coordinates":[9.29791,45.626952],"type":"Point"},"properties":{"osm_id":"7566080555","tag":{"amenity":"waste_basket","waste":"trash"}},"type":"Feature"},
	{"geometry":{"coordinates":[9.306251,45.629814],"type":"Point"},"properties":{"osm_id":"7566131229","tag":{"amenity":"waste_basket","waste":"trash"}},"type":"Feature"},
	{"geometry":{"coordinates":[9.276687,45.643338],"type":"Point"},"properties":{"osm_id":"7572392495","tag":{"amenity":"waste_basket","waste":"trash"}},"type":"Feature"},
	{"geometry":{"coordinates":[9.247298,45.628597],"type":"Point"},"properties":{"osm_id":"7591620302","tag":{"amenity":"waste_basket","waste":"trash"}},"type":"Feature"},
	{"geometry":{"coordinates":[9.247172,45.62911],"type":"Point"},"properties":{"osm_id":"7591621557","tag":{"amenity":"waste_basket","waste":"trash"}},"type":"Feature"},
	{"geometry":{"coordinates":[9.263618,45.638745],"type":"Point"},"properties":{"osm_id":"7591641373","tag":{"amenity":"waste_basket","waste":"trash"}},"type":"Feature"},
	{"geometry":{"coordinates":[9.263496,45.638969],"type":"Point"},"properties":{"osm_id":"7591642863","tag":{"amenity":"waste_basket","waste":"trash"}},"type":"Feature"},
	{"geometry":{"coordinates":[9.248825,45.635298],"type":"Point"},"properties":{"osm_id":"7591649347","tag":{"amenity":"waste_basket","waste":"trash"}},"type":"Feature"},
	{"geometry":{"coordinates":[9.263261,45.638948],"type":"Point"},"properties":{"osm_id":"7591656044","tag":{"amenity":"waste_basket","waste":"trash"}},"type":"Feature"},
	{"geometry":{"coordinates":[9.30862,45.631046],"type":"Point"},"properties":{"osm_id":"7608941667","tag":{"amenity":"waste_basket","waste":"trash"}},"type":"Feature"},
	{"geometry":{"coordinates":[9.312683,45.630299],"type":"Point"},"properties":{"osm_id":"7638134668","tag":{"amenity":"waste_basket","waste":"trash"}},"type":"Feature"},
	{"geometry":{"coordinates":[9.316235,45.628872],"type":"Point"},"properties":{"osm_id":"7638215207","tag":{"amenity":"waste_basket","waste":"trash"}},"type":"Feature"},
	{"geometry":{"coordinates":[9.311032,45.630983],"type":"Point"},"properties":{"osm_id":"7638217738","tag":{"amenity":"waste_basket","waste":"trash"}},"type":"Feature"},
	{"geometry":{"coordinates":[9.314589,45.629537],"type":"Point"},"properties":{"osm_id":"7638218459","tag":{"amenity":"waste_basket","waste":"trash"}},"type":"Feature"},
	{"geometry":{"coordinates":[9.2306,45.603455],"type":"Point"},"properties":{"osm_id":"7660325229","tag":{"amenity":"recycling","recycling:clothes":"yes","recycling_type":"container"}},"type":"Feature"},
	{"geometry":{"coordinates":[9.230254,45.626029],"type":"Point"},"properties":{"osm_id":"7660325230","tag":{"amenity":"recycling","recycling:clothes":"yes","recycling_type":"container"}},"type":"Feature"},
	{"geometry":{"coordinates":[9.248722,45.639392],"type":"Point"},"properties":{"osm_id":"7816878966","tag":{"amenity":"waste_basket","waste":"trash"}},"type":"Feature"},
	{"geometry":{"coordinates":[9.316311,45.632723],"type":"Point"},"properties":{"osm_id":"7899903848","tag":{"amenity":"waste_basket","waste":"trash"}},"type":"Feature"},
	{"geometry":{"coordinates":[9.315833,45.631648],"type":"Point"},"properties":{"osm_id":"7900530324","tag":{"amenity":"waste_basket","waste":"trash"}},"type":"Feature"}
]
}
