{
"type": "FeatureCollection",
"features": [
	{"geometry":{"coordinates":[9.248174,45.496473],"type":"Point"},"properties":{"osm_id":"259778678","tag":{"amenity":"waste_basket"}},"type":"Feature"},
	{"geometry":{"coordinates":[9.229892,45.481549],"type":"Point"},"properties":{"osm_id":"1810553615","tag":{"amenity":"recycling","recycling:clothes":"yes","recycling:glass":"yes","recycling:paper":"yes","recycling_type":"container"}},"type":"Feature"},
	{"geometry":{"coordinates":[9.229305,45.468285],"type":"Point"},"properties":{"osm_id":"2461220920","tag":{"amenity":"waste_basket"}},"type":"Feature"},
	{"geometry":{"coordinates":[9.2299,45.467991],"type":"Point"},"properties":{"osm_id":"2461220924","tag":{"amenity":"waste_basket"}},"type":"Feature"},
	{"geometry":{"coordinates":[9.234427,45.477854],"type":"Point"},"properties":{"osm_id":"2516378857","tag":{"amenity":"waste_basket"}},"type":"Feature"},
	{"geometry":{"coordinates":[9.229833,45.499168],"type":"Point"},"properties":{"osm_id":"2567579757","tag":{"amenity":"waste_basket"}},"type":"Feature"},
	{"geometry":{"coordinates":[9.230079,45.499565],"type":"Point"},"properties":{"osm_id":"2567579762","tag":{"amenity":"waste_basket"}},"type":"Feature"},
	{"geometry":{"coordinates":[9.229653,45.500014],"type":"Point"},"properties":{"osm_id":"2567579775","tag":{"amenity":"waste_basket"}},"type":"Feature"},
	{"geometry":{"coordinates":[9.235012,45.468341],"type":"Point"},"properties":{"osm_id":"2655734742","tag":{"amenity":"recycling","recycling:clothes":"yes"}},"type":"Feature"},
	{"geometry":{"coordinates":[9.232724,45.468049],"type":"Point"},"properties":{"osm_id":"2655737671","tag":{"amenity":"recycling","recycling:clothes":"yes","recycling_type":"container"}},"type":"Feature"},
	{"geometry":{"coordinates":[9.236796,45.472342],"type":"Point"},"properties":{"osm_id":"2668660046","tag":{"amenity":"recycling","recycling:clothes":"yes"}},"type":"Feature"},
	{"geometry":{"coordinates":[9.302821,45.483782],"type":"Point"},"properties":{"barrier":"gate","osm_id":"2744356580","tag":{"bicycle":"yes","foot":"yes","motorcar":"yes","motorcycle":"yes"}},"type":"Feature"},
	{"geometry":{"coordinates":[9.234762,45.477455],"type":"Point"},"properties":{"osm_id":"2840024682","tag":{"amenity":"waste_basket"}},"type":"Feature"},
	{"geometry":{"coordinates":[9.234792,45.477358],"type":"Point"},"properties":{"osm_id":"2840024693","tag":{"amenity":"waste_basket"}},"type":"Feature"},
	{"geometry":{"coordinates":[9.247332,45.494774],"type":"Point"},"properties":{"osm_id":"2908721075","tag":{"amenity":"waste_basket"}},"type":"Feature"},
	{"geometry":{"coordinates":[9.246804,45.494817],"type":"Point"},"properties":{"osm_id":"2908724945","tag":{"amenity":"waste_basket"}},"type":"Feature"},
	{"geometry":{"coordinates":[9.247029,45.494993],"type":"Point"},"properties":{"osm_id":"2908735362","tag":{"amenity":"waste_basket"}},"type":"Feature"},
	{"geometry":{"coordinates":[9.244414,45.495138],"type":"Point"},"properties":{"osm_id":"2908748884","tag":{"amenity":"waste_basket"}},"type":"Feature"},
	{"geometry":{"coordinates":[9.240629,45.495529],"type":"Point"},"properties":{"osm_id":"2908765435","tag":{"amenity":"waste_basket"}},"type":"Feature"},
	{"geometry":{"coordinates":[9.241031,45.494938],"type":"Point"},"properties":{"osm_id":"2908960388","tag":{"amenity":"waste_basket"}},"type":"Feature"},
	{"geometry":{"coordinates":[9.24576,45.493251],"type":"Point"},"properties":{"osm_id":"2908969927","tag":{"amenity":"waste_basket"}},"type":"Feature"},
	{"geometry":{"coordinates":[9.234036,45.483876],"type":"Point"},"properties":{"osm_id":"2917530857","tag":{"amenity":"recycling","recycling:clothes":"yes","recycling_type":"container"}},"type":"Feature"},
	{"geometry":{"coordinates":[9.300186,45.49229],"type":"Point"},"properties":{"osm_id":"2933180896","tag":{"amenity":"recycling","recycling:clothes":"yes"}},"type":"Feature"},
	{"geometry":{"coordinates":[9.258694,45.464632],"type":"Point"},"properties":{"osm_id":"2969863133","tag":{"amenity":"waste_basket"}},"type":"Feature"},
	{"geometry":{"coordinates":[9.267881,45.50723],"type":"Point"},"properties":{"barrier":"gate","osm_id":"3109757047","tag":{"access":"private"}},"type":"Feature"},
	{"geometry":{"coordinates":[9.267824,45.507403],"type":"Point"},"properties":{"barrier":"gate","osm_id":"3109757071","tag":{"access":"private"}},"type":"Feature"},
	{"geometry":{"coordinates":[9.267112,45.509783],"type":"Point"},"properties":{"barrier":"gate","osm_id":"3109757112","tag":{"access":"private"}},"type":"Feature"},
	{"geometry":{"coordinates":[9.277712,45.514988],"type":"Point"},"properties":{"osm_id":"3224797906","tag":{"amenity":"recycling","recycling:clothes":"yes","recycling_type":"container"}},"type":"Feature"},
	{"geometry":{"coordinates":[9.269717,45.520227],"type":"Point"},"properties":{"osm_id":"3730949114","tag":{"amenity":"waste_basket"}},"type":"Feature"},
	{"geometry":{"coordinates":[9.273863,45.520018],"type":"Point"},"properties":{"osm_id":"3730950648","tag":{"amenity":"recycling","recycling:clothes":"yes","recycling_type":"container"}},"type":"Feature"},
	{"geometry":{"coordinates":[9.270635,45.521006],"type":"Point"},"properties":{"osm_id":"3730950661","tag":{"amenity":"waste_basket"}},"type":"Feature"},
	{"geometry":{"coordinates":[9.243988,45.488516],"type":"Point"},"properties":{"osm_id":"4047830899","tag":{"amenity":"recycling","recycling:clothes":"yes","recycling_type":"container"}},"type":"Feature"},
	{"geometry":{"coordinates":[9.232215,45.478613],"type":"Point"},"properties":{"osm_id":"4612235276","tag":{"amenity":"waste_basket"}},"type":"Feature"},
	{"geometry":{"coordinates":[9.233908,45.478625],"type":"Point"},"properties":{"osm_id":"4612248660","tag":{"amenity":"waste_basket"}},"type":"Feature"},
	{"geometry":{"coordinates":[9.234902,45.477411],"type":"Point"},"properties":{"osm_id":"5251640069","tag":{"amenity":"recycling","recycling:batteries":"yes","recycling_type":"container"}},"type":"Feature"},
	{"geometry":{"coordinates":[9.234295,45.473564],"type":"Point"},"properties":{"osm_id":"5278438564","tag":{"amenity":"waste_basket"}},"type":"Feature"},
	{"geometry":{"coordinates":[9.311043,45.476672],"type":"Point"},"properties":{"osm_id":"5280580646","tag":{"amenity":"waste_basket"}},"type":"Feature"},
	{"geometry":{"coordinates":[9.268141,45.506118],"type":"Point"},"properties":{"barrier":"gate","osm_id":"5470730931","tag":{"access":"yes"}},"type":"Feature"},
	{"geometry":{"coordinates":[9.235197,45.469367],"type":"Point"},"properties":{"osm_id":"5696013669","tag":{"amenity":"recycling","recycling:clothes":"yes","recycling_type":"container"}},"type":"Feature"},
	{"geometry":{"coordinates":[9.30048,45.471689],"type":"Point"},"properties":{"osm_id":"5739980310","tag":{"amenity":"waste_basket"}},"type":"Feature"},
	{"geometry":{"coordinates":[9.299297,45.472041],"type":"Point"},"properties":{"osm_id":"5739980312","tag":{"amenity":"waste_basket"}},"type":"Feature"},
	{"geometry":{"coordinates":[9.299007,45.471609],"type":"Point"},"properties":{"osm_id":"5739980316","tag":{"amenity":"waste_basket"}},"type":"Feature"},
	{"geometry":{"coordinates":[9.235861,45.471415],"type":"Point"},"properties":{"osm_id":"5859368530","tag":{"amenity":"waste_basket"}},"type":"Feature"},
	{"geometry":{"coordinates":[9.233339,45.475187],"type":"Point"},"properties":{"osm_id":"5912625791","tag":{"amenity":"waste_basket"}},"type":"Feature"},
	{"geometry":{"coordinates":[9.233046,45.474422],"type":"Point"},"properties":{"osm_id":"5912625792","tag":{"amenity":"waste_basket"}},"type":"Feature"},
	{"geometry":{"coordinates":[9.233853,45.475307],"type":"Point"},"properties":{"osm_id":"5912625793","tag":{"amenity":"waste_basket"}},"type":"Feature"},
	{"geometry":{"coordinates":[9.233891,45.475375],"type":"Point"},"properties":{"osm_id":"5912625794","tag":{"amenity":"waste_basket"}},"type":"Feature"},
	{"geometry":{"coordinates":[9.232898,45.474409],"type":"Point"},"properties":{"osm_id":"5912625796","tag":{"amenity":"waste_basket"}},"type":"Feature"},
	{"geometry":{"coordinates":[9.232662,45.474407],"type":"Point"},"properties":{"osm_id":"5912625797","tag":{"amenity":"waste_basket"}},"type":"Feature"},
	{"geometry":{"coordinates":[9.232643,45.474427],"type":"Point"},"properties":{"osm_id":"5912625798","tag":{"amenity":"waste_basket"}},"type":"Feature"},
	{"geometry":{"coordinates":[9.232568,45.474624],"type":"Point"},"properties":{"osm_id":"5912625799","tag":{"amenity":"waste_basket"}},"type":"Feature"},
	{"geometry":{"coordinates":[9.232681,45.474671],"type":"Point"},"properties":{"osm_id":"5912625800","tag":{"amenity":"waste_basket"}},"type":"Feature"},
	{"geometry":{"coordinates":[9.232754,45.474672],"type":"Point"},"properties":{"osm_id":"5912625801","tag":{"amenity":"waste_basket"}},"type":"Feature"},
	{"geometry":{"coordinates":[9.232874,45.474673],"type":"Point"},"properties":{"osm_id":"5912625802","tag":{"amenity":"waste_basket"}},"type":"Feature"},
	{"geometry":{"coordinates":[9.233423,45.475373],"type":"Point"},"properties":{"osm_id":"5912625803","tag":{"amenity":"waste_basket"}},"type":"Feature"},
	{"geometry":{"coordinates":[9.233305,45.475372],"type":"Point"},"properties":{"osm_id":"5912625804","tag":{"amenity":"waste_basket"}},"type":"Feature"},
	{"geometry":{"coordinates":[9.233888,45.475881],"type":"Point"},"properties":{"osm_id":"5912625805","tag":{"amenity":"waste_basket"}},"type":"Feature"},
	{"geometry":{"coordinates":[9.23339,45.475676],"type":"Point"},"properties":{"osm_id":"5912625806","tag":{"amenity":"waste_basket"}},"type":"Feature"},
	{"geometry":{"coordinates":[9.23339,45.475711],"type":"Point"},"properties":{"osm_id":"5912625807","tag":{"amenity":"waste_basket"}},"type":"Feature"},
	{"geometry":{"coordinates":[9.23339,45.475726],"type":"Point"},"properties":{"osm_id":"5912625808","tag":{"amenity":"waste_basket"}},"type":"Feature"},
	{"geometry":{"coordinates":[9.233304,45.475778],"type":"Point"},"properties":{"osm_id":"5912625809","tag":{"amenity":"waste_basket"}},"type":"Feature"},
	{"geometry":{"coordinates":[9.233217,45.475628],"type":"Point"},"properties":{"osm_id":"5912625810","tag":{"amenity":"waste_basket"}},"type":"Feature"},
	{"geometry":{"coordinates":[9.23332,45.475638],"type":"Point"},"properties":{"osm_id":"5912625811","tag":{"amenity":"waste_basket"}},"type":"Feature"},
	{"geometry":{"coordinates":[9.233273,45.475657],"type":"Point"},"properties":{"osm_id":"5912625812","tag":{"amenity":"waste_basket"}},"type":"Feature"},
	{"geometry":{"coordinates":[9.233486,45.475631],"type":"Point"},"properties":{"osm_id":"5912625813","tag":{"amenity":"waste_basket"}},"type":"Feature"},
	{"geometry":{"coordinates":[9.233195,45.476068],"type":"Point"},"properties":{"osm_id":"5912625814","tag":{"amenity":"waste_basket"}},"type":"Feature"},
	{"geometry":{"coordinates":[9.233296,45.476128],"type":"Point"},"properties":{"osm_id":"5912625815","tag":{"amenity":"waste_basket"}},"type":"Feature"},
	{"geometry":{"coordinates":[9.233119,45.476188],"type":"Point"},"properties":{"osm_id":"5912625817","tag":{"amenity":"waste_basket"}},"type":"Feature"},
	{"geometry":{"coordinates":[9.232784,45.475969],"type":"Point"},"properties":{"osm_id":"5912625818","tag":{"amenity":"waste_basket"}},"type":"Feature"},
	{"geometry":{"coordinates":[9.232777,45.475695],"type":"Point"},"properties":{"osm_id":"5912625819","tag":{"amenity":"waste_basket"}},"type":"Feature"},
	{"geometry":{"coordinates":[9.235092,45.477367],"type":"Point"},"properties":{"osm_id":"6124587972","tag":{"amenity":"recycling","recycling:batteries":"yes","recycling_type":"container"}},"type":"Feature"},
	{"geometry":{"coordinates":[9.299663,45.47121],"type":"Point"},"properties":{"osm_id":"6277559737","tag":{"amenity":"waste_basket"}},"type":"Feature"},
	{"geometry":{"coordinates":[9.234384,45.482592],"type":"Point"},"properties":{"osm_id":"6896991653","tag":{"amenity":"waste_basket","waste":"trash"}},"type":"Feature"},
	{"geometry":{"coordinates":[9.236952,45.47952],"type":"Point"},"properties":{"osm_id":"6919857045","tag":{"amenity":"recycling","recycling_type":"container"}},"type":"Feature"},
	{"geometry":{"coordinates":[9.314789,45.496427],"type":"Point"},"properties":{"barrier":"gate","osm_id":"6987427746"},"type":"Feature"},
	{"geometry":{"coordinates":[9.230508,45.4765],"type":"Point"},"properties":{"osm_id":"7037154566","tag":{"amenity":"waste_basket","waste":"trash"}},"type":"Feature"},
	{"geometry":{"coordinates":[9.230505,45.476329],"type":"Point"},"properties":{"osm_id":"7037154567","tag":{"amenity":"waste_basket","waste":"trash"}},"type":"Feature"},
	{"geometry":{"coordinates":[9.23104,45.476432],"type":"Point"},"properties":{"osm_id":"7037154569","tag":{"amenity":"waste_basket","waste":"trash"}},"type":"Feature"},
	{"geometry":{"coordinates":[9.231042,45.476371],"type":"Point"},"properties":{"osm_id":"7037154570","tag":{"amenity":"waste_basket","waste":"trash"}},"type":"Feature"},
	{"geometry":{"coordinates":[9.231023,45.47637],"type":"Point"},"properties":{"osm_id":"7037154571","tag":{"amenity":"waste_basket","waste":"trash"}},"type":"Feature"},
	{"geometry":{"coordinates":[9.230889,45.475912],"type":"Point"},"properties":{"osm_id":"7037174903","tag":{"amenity":"waste_basket","waste":"trash"}},"type":"Feature"},
	{"geometry":{"coordinates":[9.294089,45.487938],"type":"Point"},"properties":{"osm_id":"7148261205","tag":{"amenity":"waste_basket"}},"type":"Feature"}
]
}
