{
"type": "FeatureCollection",
"features": [
	{"geometry":{"coordinates":[9.237563,45.450128],"type":"Point"},"properties":{"name":"Amsa di via zama","osm_id":"264779772","tag":{"amenity":"recycling","recycling_type":"centre"}},"type":"Feature"},
	{"geometry":{"coordinates":[9.308891,45.419734],"type":"Point"},"properties":{"osm_id":"2916235041","tag":{"amenity":"recycling","recycling:clothes":"yes"}},"type":"Feature"},
	{"geometry":{"coordinates":[9.268242,45.42816],"type":"Point"},"properties":{"osm_id":"3645153679","tag":{"amenity":"waste_basket"}},"type":"Feature"},
	{"geometry":{"coordinates":[9.263559,45.43027],"type":"Point"},"properties":{"osm_id":"3645153681","tag":{"amenity":"waste_basket"}},"type":"Feature"},
	{"geometry":{"coordinates":[9.263535,45.430231],"type":"Point"},"properties":{"osm_id":"3645153682","tag":{"amenity":"waste_basket"}},"type":"Feature"},
	{"geometry":{"coordinates":[9.263529,45.430453],"type":"Point"},"properties":{"osm_id":"3645153709","tag":{"amenity":"waste_basket"}},"type":"Feature"},
	{"geometry":{"coordinates":[9.263494,45.429875],"type":"Point"},"properties":{"osm_id":"3645154873","tag":{"amenity":"waste_basket"}},"type":"Feature"},
	{"geometry":{"coordinates":[9.266893,45.428616],"type":"Point"},"properties":{"osm_id":"3645159436","tag":{"amenity":"waste_basket"}},"type":"Feature"},
	{"geometry":{"coordinates":[9.267239,45.428559],"type":"Point"},"properties":{"osm_id":"3645159440","tag":{"amenity":"waste_basket"}},"type":"Feature"},
	{"geometry":{"coordinates":[9.267826,45.428475],"type":"Point"},"properties":{"osm_id":"3645159441","tag":{"amenity":"waste_basket"}},"type":"Feature"},
	{"geometry":{"coordinates":[9.261009,45.427036],"type":"Point"},"properties":{"osm_id":"3645162731","tag":{"amenity":"waste_basket"}},"type":"Feature"},
	{"geometry":{"coordinates":[9.260893,45.426901],"type":"Point"},"properties":{"osm_id":"3645162732","tag":{"amenity":"waste_basket"}},"type":"Feature"},
	{"geometry":{"coordinates":[9.260724,45.428224],"type":"Point"},"properties":{"osm_id":"3645162733","tag":{"amenity":"waste_basket"}},"type":"Feature"},
	{"geometry":{"coordinates":[9.259879,45.427388],"type":"Point"},"properties":{"osm_id":"3645162738","tag":{"amenity":"waste_basket"}},"type":"Feature"},
	{"geometry":{"coordinates":[9.261107,45.428254],"type":"Point"},"properties":{"osm_id":"3645162739","tag":{"amenity":"waste_basket"}},"type":"Feature"},
	{"geometry":{"coordinates":[9.260364,45.427754],"type":"Point"},"properties":{"osm_id":"3645162740","tag":{"amenity":"waste_basket"}},"type":"Feature"},
	{"geometry":{"coordinates":[9.260759,45.426515],"type":"Point"},"properties":{"osm_id":"3645162744","tag":{"amenity":"waste_basket"}},"type":"Feature"},
	{"geometry":{"coordinates":[9.260694,45.426336],"type":"Point"},"properties":{"osm_id":"3645162745","tag":{"amenity":"waste_basket"}},"type":"Feature"},
	{"geometry":{"coordinates":[9.260329,45.429211],"type":"Point"},"properties":{"osm_id":"3645165990","tag":{"amenity":"waste_basket"}},"type":"Feature"},
	{"geometry":{"coordinates":[9.261684,45.427769],"type":"Point"},"properties":{"osm_id":"3645166093","tag":{"amenity":"waste_basket"}},"type":"Feature"},
	{"geometry":{"coordinates":[9.26188,45.427539],"type":"Point"},"properties":{"osm_id":"3645166094","tag":{"amenity":"waste_basket"}},"type":"Feature"},
	{"geometry":{"coordinates":[9.260697,45.42854],"type":"Point"},"properties":{"osm_id":"3645166102","tag":{"amenity":"waste_basket"}},"type":"Feature"},
	{"geometry":{"coordinates":[9.261332,45.428162],"type":"Point"},"properties":{"osm_id":"3645166103","tag":{"amenity":"waste_basket"}},"type":"Feature"},
	{"geometry":{"coordinates":[9.261972,45.427644],"type":"Point"},"properties":{"osm_id":"3645166106","tag":{"amenity":"waste_basket"}},"type":"Feature"},
	{"geometry":{"coordinates":[9.262462,45.425289],"type":"Point"},"properties":{"osm_id":"3645169225","tag":{"amenity":"waste_basket"}},"type":"Feature"},
	{"geometry":{"coordinates":[9.275196,45.41534],"type":"Point"},"properties":{"osm_id":"3645175135","tag":{"amenity":"waste_basket"}},"type":"Feature"},
	{"geometry":{"coordinates":[9.265687,45.415305],"type":"Point"},"properties":{"osm_id":"3645189029","tag":{"amenity":"waste_basket"}},"type":"Feature"},
	{"geometry":{"coordinates":[9.265376,45.41497],"type":"Point"},"properties":{"osm_id":"3645189031","tag":{"amenity":"waste_basket"}},"type":"Feature"},
	{"geometry":{"coordinates":[9.273117,45.414938],"type":"Point"},"properties":{"osm_id":"3645190247","tag":{"amenity":"waste_basket"}},"type":"Feature"},
	{"geometry":{"coordinates":[9.272256,45.415676],"type":"Point"},"properties":{"osm_id":"3645195925","tag":{"amenity":"waste_basket"}},"type":"Feature"},
	{"geometry":{"coordinates":[9.270779,45.415488],"type":"Point"},"properties":{"osm_id":"3645198720","tag":{"amenity":"waste_basket"}},"type":"Feature"},
	{"geometry":{"coordinates":[9.270792,45.415194],"type":"Point"},"properties":{"osm_id":"3645198721","tag":{"amenity":"waste_basket"}},"type":"Feature"},
	{"geometry":{"coordinates":[9.270274,45.415416],"type":"Point"},"properties":{"osm_id":"3645198724","tag":{"amenity":"waste_basket"}},"type":"Feature"},
	{"geometry":{"coordinates":[9.27018,45.415358],"type":"Point"},"properties":{"osm_id":"3645198725","tag":{"amenity":"waste_basket"}},"type":"Feature"},
	{"geometry":{"coordinates":[9.269346,45.421867],"type":"Point"},"properties":{"osm_id":"3645204865","tag":{"amenity":"waste_basket"}},"type":"Feature"},
	{"geometry":{"coordinates":[9.26998,45.423209],"type":"Point"},"properties":{"osm_id":"3645209587","tag":{"amenity":"waste_basket"}},"type":"Feature"},
	{"geometry":{"coordinates":[9.27117,45.424493],"type":"Point"},"properties":{"osm_id":"3645211494","tag":{"amenity":"waste_basket"}},"type":"Feature"},
	{"geometry":{"coordinates":[9.271135,45.426336],"type":"Point"},"properties":{"osm_id":"3645211621","tag":{"amenity":"waste_basket"}},"type":"Feature"},
	{"geometry":{"coordinates":[9.271105,45.426266],"type":"Point"},"properties":{"osm_id":"3645211622","tag":{"amenity":"waste_basket"}},"type":"Feature"},
	{"geometry":{"coordinates":[9.270655,45.426645],"type":"Point"},"properties":{"osm_id":"3645211629","tag":{"amenity":"waste_basket"}},"type":"Feature"},
	{"geometry":{"coordinates":[9.269826,45.426573],"type":"Point"},"properties":{"osm_id":"3645213535","tag":{"amenity":"waste_basket"}},"type":"Feature"},
	{"geometry":{"coordinates":[9.269483,45.426496],"type":"Point"},"properties":{"osm_id":"3645213536","tag":{"amenity":"waste_basket"}},"type":"Feature"},
	{"geometry":{"coordinates":[9.268868,45.425888],"type":"Point"},"properties":{"osm_id":"3645213996","tag":{"amenity":"waste_basket"}},"type":"Feature"},
	{"geometry":{"coordinates":[9.265274,45.425796],"type":"Point"},"properties":{"osm_id":"3645215261","tag":{"amenity":"waste_basket"}},"type":"Feature"},
	{"geometry":{"coordinates":[9.262358,45.414285],"type":"Point"},"properties":{"osm_id":"3645219344","tag":{"amenity":"waste_basket"}},"type":"Feature"},
	{"geometry":{"coordinates":[9.262691,45.414034],"type":"Point"},"properties":{"osm_id":"3645219345","tag":{"amenity":"waste_basket"}},"type":"Feature"},
	{"geometry":{"coordinates":[9.262205,45.414456],"type":"Point"},"properties":{"osm_id":"3645219346","tag":{"amenity":"waste_basket"}},"type":"Feature"},
	{"geometry":{"coordinates":[9.264769,45.423892],"type":"Point"},"properties":{"osm_id":"3656691960","tag":{"amenity":"waste_basket"}},"type":"Feature"},
	{"geometry":{"coordinates":[9.2649,45.423796],"type":"Point"},"properties":{"osm_id":"3656691973","tag":{"amenity":"waste_basket"}},"type":"Feature"},
	{"geometry":{"coordinates":[9.265661,45.423171],"type":"Point"},"properties":{"osm_id":"3656691981","tag":{"amenity":"waste_basket"}},"type":"Feature"},
	{"geometry":{"coordinates":[9.269431,45.422646],"type":"Point"},"properties":{"osm_id":"3656980307","tag":{"amenity":"waste_basket"}},"type":"Feature"},
	{"geometry":{"coordinates":[9.26937,45.422616],"type":"Point"},"properties":{"osm_id":"3656980309","tag":{"amenity":"waste_basket"}},"type":"Feature"},
	{"geometry":{"coordinates":[9.263433,45.414488],"type":"Point"},"properties":{"osm_id":"3656982040","tag":{"amenity":"waste_basket"}},"type":"Feature"},
	{"geometry":{"coordinates":[9.263079,45.414366],"type":"Point"},"properties":{"osm_id":"3656982041","tag":{"amenity":"waste_basket"}},"type":"Feature"},
	{"geometry":{"coordinates":[9.26328,45.414436],"type":"Point"},"properties":{"osm_id":"3656982044","tag":{"amenity":"waste_basket"}},"type":"Feature"},
	{"geometry":{"coordinates":[9.271576,45.422831],"type":"Point"},"properties":{"osm_id":"3657685173","tag":{"amenity":"waste_basket"}},"type":"Feature"},
	{"geometry":{"coordinates":[9.271617,45.422885],"type":"Point"},"properties":{"osm_id":"3657685174","tag":{"amenity":"waste_basket"}},"type":"Feature"},
	{"geometry":{"coordinates":[9.259642,45.42687],"type":"Point"},"properties":{"osm_id":"3665673331","tag":{"amenity":"waste_basket"}},"type":"Feature"},
	{"geometry":{"coordinates":[9.260506,45.426151],"type":"Point"},"properties":{"osm_id":"3665673332","tag":{"amenity":"waste_basket"}},"type":"Feature"},
	{"geometry":{"coordinates":[9.258132,45.428124],"type":"Point"},"properties":{"osm_id":"3665673333","tag":{"amenity":"waste_basket"}},"type":"Feature"},
	{"geometry":{"coordinates":[9.265221,45.423538],"type":"Point"},"properties":{"osm_id":"3665673334","tag":{"amenity":"waste_basket"}},"type":"Feature"},
	{"geometry":{"coordinates":[9.261077,45.425809],"type":"Point"},"properties":{"osm_id":"3665673335","tag":{"amenity":"waste_basket"}},"type":"Feature"},
	{"geometry":{"coordinates":[9.274145,45.41385],"type":"Point"},"properties":{"osm_id":"3927969610","tag":{"amenity":"waste_basket"}},"type":"Feature"},
	{"geometry":{"coordinates":[9.27613,45.412901],"type":"Point"},"properties":{"osm_id":"3927969611","tag":{"amenity":"waste_basket"}},"type":"Feature"},
	{"geometry":{"coordinates":[9.266295,45.405727],"type":"Point"},"properties":{"osm_id":"3936108938","tag":{"amenity":"waste_basket"}},"type":"Feature"},
	{"geometry":{"coordinates":[9.282212,45.421464],"type":"Point"},"properties":{"osm_id":"3937685727","tag":{"amenity":"waste_basket"}},"type":"Feature"},
	{"geometry":{"coordinates":[9.28249,45.421336],"type":"Point"},"properties":{"osm_id":"3937685738","tag":{"amenity":"waste_basket"}},"type":"Feature"},
	{"geometry":{"coordinates":[9.230515,45.400579],"type":"Point"},"properties":{"osm_id":"4023860271","tag":{"amenity":"waste_basket"}},"type":"Feature"},
	{"geometry":{"coordinates":[9.270351,45.426983],"type":"Point"},"properties":{"osm_id":"4030526940","tag":{"amenity":"waste_disposal"}},"type":"Feature"},
	{"geometry":{"coordinates":[9.269116,45.426266],"type":"Point"},"properties":{"osm_id":"4030530994","tag":{"amenity":"waste_basket"}},"type":"Feature"},
	{"geometry":{"coordinates":[9.269345,45.426395],"type":"Point"},"properties":{"osm_id":"4030530997","tag":{"amenity":"waste_disposal"}},"type":"Feature"},
	{"geometry":{"coordinates":[9.269499,45.426572],"type":"Point"},"properties":{"osm_id":"4030530998","tag":{"amenity":"waste_disposal"}},"type":"Feature"},
	{"geometry":{"coordinates":[9.269416,45.426546],"type":"Point"},"properties":{"osm_id":"4030531000","tag":{"amenity":"waste_basket"}},"type":"Feature"},
	{"geometry":{"coordinates":[9.268529,45.426056],"type":"Point"},"properties":{"osm_id":"4030531001","tag":{"amenity":"waste_basket"}},"type":"Feature"},
	{"geometry":{"coordinates":[9.268435,45.425997],"type":"Point"},"properties":{"osm_id":"4030531002","tag":{"amenity":"waste_disposal"}},"type":"Feature"},
	{"geometry":{"coordinates":[9.268904,45.426049],"type":"Point"},"properties":{"osm_id":"4030540406","tag":{"amenity":"waste_basket"}},"type":"Feature"},
	{"geometry":{"coordinates":[9.268384,45.425769],"type":"Point"},"properties":{"osm_id":"4030545464","tag":{"amenity":"waste_basket"}},"type":"Feature"},
	{"geometry":{"coordinates":[9.268146,45.425766],"type":"Point"},"properties":{"osm_id":"4030551882","tag":{"amenity":"waste_disposal"}},"type":"Feature"},
	{"geometry":{"coordinates":[9.26705,45.42511],"type":"Point"},"properties":{"osm_id":"4030575632","tag":{"amenity":"waste_basket"}},"type":"Feature"},
	{"geometry":{"coordinates":[9.266992,45.42499],"type":"Point"},"properties":{"osm_id":"4030575641","tag":{"amenity":"waste_disposal"}},"type":"Feature"},
	{"geometry":{"coordinates":[9.267834,45.425592],"type":"Point"},"properties":{"osm_id":"4030575643","tag":{"amenity":"waste_basket"}},"type":"Feature"},
	{"geometry":{"coordinates":[9.267287,45.425251],"type":"Point"},"properties":{"osm_id":"4030575644","tag":{"amenity":"waste_disposal"}},"type":"Feature"},
	{"geometry":{"coordinates":[9.267536,45.425321],"type":"Point"},"properties":{"osm_id":"4030575646","tag":{"amenity":"waste_basket"}},"type":"Feature"},
	{"geometry":{"coordinates":[9.267324,45.425221],"type":"Point"},"properties":{"osm_id":"4030575647","tag":{"amenity":"waste_basket"}},"type":"Feature"},
	{"geometry":{"coordinates":[9.264342,45.42472],"type":"Point"},"properties":{"osm_id":"4030584825","tag":{"amenity":"waste_basket"}},"type":"Feature"},
	{"geometry":{"coordinates":[9.263835,45.42497],"type":"Point"},"properties":{"osm_id":"4030584827","tag":{"amenity":"waste_basket"}},"type":"Feature"},
	{"geometry":{"coordinates":[9.263685,45.425091],"type":"Point"},"properties":{"osm_id":"4030588199","tag":{"amenity":"waste_basket"}},"type":"Feature"},
	{"geometry":{"coordinates":[9.26336,45.424756],"type":"Point"},"properties":{"osm_id":"4030588201","tag":{"amenity":"waste_basket"}},"type":"Feature"},
	{"geometry":{"coordinates":[9.263735,45.42492],"type":"Point"},"properties":{"osm_id":"4030588202","tag":{"amenity":"waste_basket"}},"type":"Feature"},
	{"geometry":{"coordinates":[9.262217,45.424643],"type":"Point"},"properties":{"osm_id":"4030588203","tag":{"amenity":"waste_basket"}},"type":"Feature"},
	{"geometry":{"coordinates":[9.262343,45.424466],"type":"Point"},"properties":{"osm_id":"4030588204","tag":{"amenity":"waste_basket"}},"type":"Feature"},
	{"geometry":{"coordinates":[9.265029,45.429684],"type":"Point"},"properties":{"osm_id":"4031058175","tag":{"amenity":"waste_basket"}},"type":"Feature"},
	{"geometry":{"coordinates":[9.26548,45.429428],"type":"Point"},"properties":{"osm_id":"4031058406","tag":{"amenity":"waste_basket"}},"type":"Feature"},
	{"geometry":{"coordinates":[9.266354,45.429444],"type":"Point"},"properties":{"osm_id":"4031058407","tag":{"amenity":"waste_basket"}},"type":"Feature"},
	{"geometry":{"coordinates":[9.264339,45.429645],"type":"Point"},"properties":{"osm_id":"4031061156","tag":{"amenity":"recycling","recycling:batteries":"yes","recycling_type":"container"}},"type":"Feature"},
	{"geometry":{"coordinates":[9.257883,45.428783],"type":"Point"},"properties":{"osm_id":"4033772814","tag":{"amenity":"recycling","recycling:batteries":"yes","recycling_type":"container"}},"type":"Feature"},
	{"geometry":{"coordinates":[9.257537,45.428575],"type":"Point"},"properties":{"osm_id":"4033785672","tag":{"amenity":"waste_basket"}},"type":"Feature"},
	{"geometry":{"coordinates":[9.257226,45.428569],"type":"Point"},"properties":{"osm_id":"4033785676","tag":{"amenity":"recycling","clothes":"yes","recycling_type":"container"}},"type":"Feature"},
	{"geometry":{"coordinates":[9.257339,45.428832],"type":"Point"},"properties":{"osm_id":"4033788886","tag":{"amenity":"waste_basket"}},"type":"Feature"},
	{"geometry":{"coordinates":[9.257266,45.428595],"type":"Point"},"properties":{"osm_id":"4033796721","tag":{"amenity":"waste_basket"}},"type":"Feature"},
	{"geometry":{"coordinates":[9.257497,45.428458],"type":"Point"},"properties":{"osm_id":"4033796724","tag":{"amenity":"waste_basket"}},"type":"Feature"},
	{"geometry":{"coordinates":[9.257532,45.428716],"type":"Point"},"properties":{"osm_id":"4033801662","tag":{"amenity":"waste_basket"}},"type":"Feature"},
	{"geometry":{"coordinates":[9.257749,45.428763],"type":"Point"},"properties":{"osm_id":"4033801664","tag":{"amenity":"waste_basket","recycling:glass":"yes","recycling:plastic":"yes","recycling_type":"container"}},"type":"Feature"},
	{"geometry":{"coordinates":[9.257414,45.428639],"type":"Point"},"properties":{"osm_id":"4033801666","tag":{"amenity":"waste_basket"}},"type":"Feature"},
	{"geometry":{"coordinates":[9.257767,45.428491],"type":"Point"},"properties":{"osm_id":"4033817809","tag":{"amenity":"waste_basket"}},"type":"Feature"},
	{"geometry":{"coordinates":[9.257807,45.428392],"type":"Point"},"properties":{"osm_id":"4033817813","tag":{"amenity":"waste_basket"}},"type":"Feature"},
	{"geometry":{"coordinates":[9.25886,45.419614],"type":"Point"},"properties":{"osm_id":"4033846338","tag":{"amenity":"waste_basket"}},"type":"Feature"},
	{"geometry":{"coordinates":[9.259216,45.419273],"type":"Point"},"properties":{"osm_id":"4033846340","tag":{"amenity":"waste_basket"}},"type":"Feature"},
	{"geometry":{"coordinates":[9.259455,45.41867],"type":"Point"},"properties":{"osm_id":"4033850373","tag":{"amenity":"waste_basket"}},"type":"Feature"},
	{"geometry":{"coordinates":[9.259377,45.41865],"type":"Point"},"properties":{"osm_id":"4033851114","tag":{"amenity":"waste_basket"}},"type":"Feature"},
	{"geometry":{"coordinates":[9.276914,45.423259],"type":"Point"},"properties":{"osm_id":"4111414060","tag":{"amenity":"waste_basket"}},"type":"Feature"},
	{"geometry":{"coordinates":[9.280475,45.420425],"type":"Point"},"properties":{"osm_id":"4226646689","tag":{"amenity":"waste_basket"}},"type":"Feature"},
	{"geometry":{"coordinates":[9.299335,45.423797],"type":"Point"},"properties":{"osm_id":"4309701008","tag":{"amenity":"waste_basket"}},"type":"Feature"},
	{"geometry":{"coordinates":[9.297221,45.423872],"type":"Point"},"properties":{"osm_id":"4309717146","tag":{"amenity":"waste_basket"}},"type":"Feature"},
	{"geometry":{"coordinates":[9.299783,45.423072],"type":"Point"},"properties":{"osm_id":"4309728286","tag":{"amenity":"waste_basket"}},"type":"Feature"},
	{"geometry":{"coordinates":[9.316323,45.431343],"type":"Point"},"properties":{"osm_id":"4406603966","tag":{"amenity":"waste_basket"}},"type":"Feature"},
	{"geometry":{"coordinates":[9.259368,45.42511],"type":"Point"},"properties":{"osm_id":"4437688658","tag":{"amenity":"waste_basket"}},"type":"Feature"},
	{"geometry":{"coordinates":[9.259598,45.42492],"type":"Point"},"properties":{"osm_id":"4437690635","tag":{"amenity":"waste_basket"}},"type":"Feature"},
	{"geometry":{"coordinates":[9.265447,45.416355],"type":"Point"},"properties":{"osm_id":"4573196095","tag":{"amenity":"waste_basket"}},"type":"Feature"},
	{"geometry":{"coordinates":[9.280706,45.414163],"type":"Point"},"properties":{"osm_id":"4573196113","tag":{"amenity":"waste_basket"}},"type":"Feature"},
	{"geometry":{"coordinates":[9.275487,45.41283],"type":"Point"},"properties":{"osm_id":"4583704626","tag":{"amenity":"waste_basket"}},"type":"Feature"},
	{"geometry":{"coordinates":[9.275353,45.413078],"type":"Point"},"properties":{"osm_id":"4583704627","tag":{"amenity":"waste_basket"}},"type":"Feature"},
	{"geometry":{"coordinates":[9.275586,45.412911],"type":"Point"},"properties":{"osm_id":"4583704632","tag":{"amenity":"waste_basket"}},"type":"Feature"},
	{"geometry":{"coordinates":[9.261367,45.42483],"type":"Point"},"properties":{"osm_id":"4755587396","tag":{"amenity":"waste_basket"}},"type":"Feature"},
	{"geometry":{"coordinates":[9.261134,45.425034],"type":"Point"},"properties":{"osm_id":"4755587397","tag":{"amenity":"waste_basket"}},"type":"Feature"},
	{"geometry":{"coordinates":[9.260707,45.424631],"type":"Point"},"properties":{"osm_id":"4755587398","tag":{"amenity":"waste_basket"}},"type":"Feature"},
	{"geometry":{"coordinates":[9.260554,45.424749],"type":"Point"},"properties":{"osm_id":"4755587399","tag":{"amenity":"waste_basket"}},"type":"Feature"},
	{"geometry":{"coordinates":[9.260391,45.424746],"type":"Point"},"properties":{"osm_id":"4755587400","tag":{"amenity":"waste_basket"}},"type":"Feature"},
	{"geometry":{"coordinates":[9.260868,45.424506],"type":"Point"},"properties":{"osm_id":"4755587401","tag":{"amenity":"waste_basket"}},"type":"Feature"},
	{"geometry":{"coordinates":[9.261249,45.424949],"type":"Point"},"properties":{"osm_id":"4755587404","tag":{"amenity":"waste_basket"}},"type":"Feature"},
	{"geometry":{"coordinates":[9.261608,45.424924],"type":"Point"},"properties":{"osm_id":"4755587406","tag":{"amenity":"waste_basket"}},"type":"Feature"},
	{"geometry":{"coordinates":[9.262051,45.424674],"type":"Point"},"properties":{"osm_id":"4755587410","tag":{"amenity":"waste_basket"}},"type":"Feature"},
	{"geometry":{"coordinates":[9.260005,45.424841],"type":"Point"},"properties":{"osm_id":"4755591260","tag":{"amenity":"waste_basket"}},"type":"Feature"},
	{"geometry":{"coordinates":[9.259927,45.424802],"type":"Point"},"properties":{"osm_id":"4755591261","tag":{"amenity":"waste_basket"}},"type":"Feature"},
	{"geometry":{"coordinates":[9.276656,45.419358],"type":"Point"},"properties":{"osm_id":"4758732141","tag":{"amenity":"waste_basket"}},"type":"Feature"},
	{"geometry":{"coordinates":[9.240771,45.434655],"type":"Point"},"properties":{"osm_id":"4923010591","tag":{"amenity":"waste_basket"}},"type":"Feature"},
	{"geometry":{"coordinates":[9.240102,45.432944],"type":"Point"},"properties":{"osm_id":"4923010592","tag":{"amenity":"waste_basket"}},"type":"Feature"},
	{"geometry":{"coordinates":[9.29883,45.428306],"type":"Point"},"properties":{"osm_id":"5476720551","tag":{"amenity":"waste_basket"}},"type":"Feature"},
	{"geometry":{"coordinates":[9.239283,45.41758],"type":"Point"},"properties":{"osm_id":"5615233201","tag":{"amenity":"waste_basket"}},"type":"Feature"},
	{"geometry":{"coordinates":[9.239141,45.417565],"type":"Point"},"properties":{"osm_id":"5615233202","tag":{"amenity":"waste_basket"}},"type":"Feature"},
	{"geometry":{"coordinates":[9.272065,45.421634],"type":"Point"},"properties":{"osm_id":"5740695006","tag":{"amenity":"waste_basket"}},"type":"Feature"},
	{"geometry":{"coordinates":[9.272477,45.42153],"type":"Point"},"properties":{"osm_id":"5740700260","tag":{"amenity":"waste_basket"}},"type":"Feature"},
	{"geometry":{"coordinates":[9.270956,45.419458],"type":"Point"},"properties":{"osm_id":"5740716109","tag":{"amenity":"waste_basket"}},"type":"Feature"},
	{"geometry":{"coordinates":[9.269354,45.422247],"type":"Point"},"properties":{"osm_id":"5742113495","tag":{"amenity":"waste_basket"}},"type":"Feature"},
	{"geometry":{"coordinates":[9.269558,45.42211],"type":"Point"},"properties":{"osm_id":"5742113503","tag":{"amenity":"waste_basket"}},"type":"Feature"},
	{"geometry":{"coordinates":[9.270054,45.422311],"type":"Point"},"properties":{"osm_id":"5742121721","tag":{"amenity":"waste_basket"}},"type":"Feature"},
	{"geometry":{"coordinates":[9.270228,45.422428],"type":"Point"},"properties":{"osm_id":"5742121722","tag":{"amenity":"waste_basket"}},"type":"Feature"},
	{"geometry":{"coordinates":[9.269874,45.422219],"type":"Point"},"properties":{"osm_id":"5742121723","tag":{"amenity":"waste_basket"}},"type":"Feature"},
	{"geometry":{"coordinates":[9.269389,45.422481],"type":"Point"},"properties":{"osm_id":"5742136148","tag":{"amenity":"waste_basket"}},"type":"Feature"},
	{"geometry":{"coordinates":[9.268724,45.422083],"type":"Point"},"properties":{"osm_id":"5742136149","tag":{"amenity":"waste_basket"}},"type":"Feature"},
	{"geometry":{"coordinates":[9.269351,45.422716],"type":"Point"},"properties":{"osm_id":"5742136150","tag":{"amenity":"waste_basket"}},"type":"Feature"},
	{"geometry":{"coordinates":[9.263033,45.416394],"type":"Point"},"properties":{"osm_id":"5742237380","tag":{"amenity":"waste_basket"}},"type":"Feature"},
	{"geometry":{"coordinates":[9.264216,45.417186],"type":"Point"},"properties":{"osm_id":"5742237382","tag":{"amenity":"waste_basket"}},"type":"Feature"},
	{"geometry":{"coordinates":[9.262827,45.416665],"type":"Point"},"properties":{"osm_id":"5742237383","tag":{"amenity":"waste_basket"}},"type":"Feature"},
	{"geometry":{"coordinates":[9.263376,45.415964],"type":"Point"},"properties":{"osm_id":"5742241429","tag":{"amenity":"waste_basket"}},"type":"Feature"},
	{"geometry":{"coordinates":[9.262491,45.416996],"type":"Point"},"properties":{"osm_id":"5742258851","tag":{"amenity":"waste_basket"}},"type":"Feature"},
	{"geometry":{"coordinates":[9.262189,45.417304],"type":"Point"},"properties":{"osm_id":"5742259247","tag":{"amenity":"waste_basket"}},"type":"Feature"},
	{"geometry":{"coordinates":[9.262685,45.417528],"type":"Point"},"properties":{"osm_id":"5742259248","tag":{"amenity":"waste_basket"}},"type":"Feature"},
	{"geometry":{"coordinates":[9.263055,45.416877],"type":"Point"},"properties":{"osm_id":"5742270725","tag":{"amenity":"waste_basket"}},"type":"Feature"},
	{"geometry":{"coordinates":[9.267971,45.412945],"type":"Point"},"properties":{"osm_id":"5750246471","tag":{"amenity":"waste_basket"}},"type":"Feature"},
	{"geometry":{"coordinates":[9.267789,45.41078],"type":"Point"},"properties":{"osm_id":"5750256987","tag":{"amenity":"waste_basket"}},"type":"Feature"},
	{"geometry":{"coordinates":[9.266555,45.408034],"type":"Point"},"properties":{"osm_id":"5750256988","tag":{"amenity":"waste_basket"}},"type":"Feature"},
	{"geometry":{"coordinates":[9.267475,45.412583],"type":"Point"},"properties":{"osm_id":"5750256992","tag":{"amenity":"waste_basket"}},"type":"Feature"},
	{"geometry":{"coordinates":[9.26698,45.40517],"type":"Point"},"properties":{"osm_id":"5750267990","tag":{"amenity":"waste_basket"}},"type":"Feature"},
	{"geometry":{"coordinates":[9.266529,45.405449],"type":"Point"},"properties":{"osm_id":"5750270818","tag":{"amenity":"recycling","recycling:clothes":"yes","recycling_type":"container"}},"type":"Feature"},
	{"geometry":{"coordinates":[9.266781,45.40562],"type":"Point"},"properties":{"osm_id":"5750272506","tag":{"amenity":"waste_basket"}},"type":"Feature"},
	{"geometry":{"coordinates":[9.267285,45.405688],"type":"Point"},"properties":{"osm_id":"5750273923","tag":{"amenity":"waste_basket"}},"type":"Feature"},
	{"geometry":{"coordinates":[9.271426,45.402284],"type":"Point"},"properties":{"osm_id":"5750283170","tag":{"amenity":"waste_basket"}},"type":"Feature"},
	{"geometry":{"coordinates":[9.271853,45.402468],"type":"Point"},"properties":{"osm_id":"5750284246","tag":{"amenity":"waste_basket"}},"type":"Feature"},
	{"geometry":{"coordinates":[9.261707,45.420103],"type":"Point"},"properties":{"osm_id":"5750976703","tag":{"amenity":"waste_basket"}},"type":"Feature"},
	{"geometry":{"coordinates":[9.263971,45.41523],"type":"Point"},"properties":{"osm_id":"5930108494","tag":{"amenity":"waste_basket"}},"type":"Feature"},
	{"geometry":{"coordinates":[9.263742,45.415472],"type":"Point"},"properties":{"osm_id":"5930108501","tag":{"amenity":"waste_basket"}},"type":"Feature"},
	{"geometry":{"coordinates":[9.265126,45.413972],"type":"Point"},"properties":{"osm_id":"5930135722","tag":{"amenity":"waste_basket"}},"type":"Feature"},
	{"geometry":{"coordinates":[9.262126,45.420321],"type":"Point"},"properties":{"osm_id":"6156181056","tag":{"amenity":"waste_basket"}},"type":"Feature"},
	{"geometry":{"coordinates":[9.261573,45.420334],"type":"Point"},"properties":{"osm_id":"6156190234","tag":{"amenity":"waste_basket"}},"type":"Feature"},
	{"geometry":{"coordinates":[9.263836,45.414306],"type":"Point"},"properties":{"osm_id":"6324351018","tag":{"amenity":"waste_basket"}},"type":"Feature"},
	{"geometry":{"coordinates":[9.269567,45.409369],"type":"Point"},"properties":{"osm_id":"6336156040","tag":{"amenity":"waste_basket"}},"type":"Feature"},
	{"geometry":{"coordinates":[9.270342,45.408892],"type":"Point"},"properties":{"osm_id":"6336162140","tag":{"amenity":"waste_basket"}},"type":"Feature"},
	{"geometry":{"coordinates":[9.269159,45.40952],"type":"Point"},"properties":{"osm_id":"6336181442","tag":{"amenity":"recycling","recycling:clothes":"yes"}},"type":"Feature"},
	{"geometry":{"coordinates":[9.26958,45.409721],"type":"Point"},"properties":{"osm_id":"6336186899","tag":{"amenity":"waste_basket"}},"type":"Feature"},
	{"geometry":{"coordinates":[9.269883,45.409386],"type":"Point"},"properties":{"osm_id":"6336186900","tag":{"amenity":"recycling","recycling:batteries":"yes"}},"type":"Feature"},
	{"geometry":{"coordinates":[9.269856,45.409925],"type":"Point"},"properties":{"osm_id":"6336189815","tag":{"amenity":"waste_basket"}},"type":"Feature"},
	{"geometry":{"coordinates":[9.270382,45.410094],"type":"Point"},"properties":{"osm_id":"6336189827","tag":{"amenity":"waste_basket"}},"type":"Feature"},
	{"geometry":{"coordinates":[9.26945,45.407898],"type":"Point"},"properties":{"osm_id":"6336371392","tag":{"amenity":"waste_basket"}},"type":"Feature"},
	{"geometry":{"coordinates":[9.267617,45.409242],"type":"Point"},"properties":{"osm_id":"6336416272","tag":{"amenity":"waste_basket"}},"type":"Feature"},
	{"geometry":{"coordinates":[9.266647,45.408818],"type":"Point"},"properties":{"osm_id":"6336431282","tag":{"amenity":"waste_basket"}},"type":"Feature"},
	{"geometry":{"coordinates":[9.266678,45.408731],"type":"Point"},"properties":{"osm_id":"6336432191","tag":{"amenity":"waste_basket"}},"type":"Feature"},
	{"geometry":{"coordinates":[9.26671,45.408941],"type":"Point"},"properties":{"osm_id":"6336436544","tag":{"amenity":"recycling","recycling:batteries":"yes"}},"type":"Feature"},
	{"geometry":{"coordinates":[9.266891,45.408783],"type":"Point"},"properties":{"osm_id":"6336436545","tag":{"amenity":"waste_basket"}},"type":"Feature"},
	{"geometry":{"coordinates":[9.269184,45.402138],"type":"Point"},"properties":{"osm_id":"6361293201","tag":{"amenity":"waste_basket"}},"type":"Feature"},
	{"geometry":{"coordinates":[9.268926,45.402576],"type":"Point"},"properties":{"osm_id":"6361293208","tag":{"amenity":"waste_basket"}},"type":"Feature"},
	{"geometry":{"coordinates":[9.269507,45.402116],"type":"Point"},"properties":{"osm_id":"6361293214","tag":{"amenity":"waste_basket"}},"type":"Feature"},
	{"geometry":{"coordinates":[9.269893,45.40233],"type":"Point"},"properties":{"osm_id":"6361293219","tag":{"amenity":"waste_basket"}},"type":"Feature"},
	{"geometry":{"coordinates":[9.23876,45.433525],"type":"Point"},"properties":{"osm_id":"6919899887","tag":{"amenity":"recycling","recycling:glass":"yes","recycling:paper":"yes","recycling:plastic":"yes","recycling:waste":"yes","recycling_type":"container"}},"type":"Feature"},
	{"geometry":{"coordinates":[9.238698,45.433695],"type":"Point"},"properties":{"osm_id":"6919899889","tag":{"amenity":"recycling","recycling:glass":"yes","recycling:paper":"yes","recycling:plastic":"yes","recycling:waste":"yes","recycling_type":"container"}},"type":"Feature"},
	{"geometry":{"coordinates":[9.238538,45.433542],"type":"Point"},"properties":{"osm_id":"6919899892","tag":{"amenity":"recycling","recycling:glass":"yes","recycling:paper":"yes","recycling:plastic":"yes","recycling:waste":"yes","recycling_type":"container"}},"type":"Feature"},
	{"geometry":{"coordinates":[9.251864,45.427138],"type":"Point"},"properties":{"osm_id":"7902894654","tag":{"amenity":"waste_basket"}},"type":"Feature"},
	{"geometry":{"coordinates":[9.253429,45.426353],"type":"Point"},"properties":{"osm_id":"7902894655","tag":{"amenity":"waste_basket"}},"type":"Feature"},
	{"geometry":{"coordinates":[9.252068,45.427254],"type":"Point"},"properties":{"osm_id":"7902894658","tag":{"amenity":"waste_basket"}},"type":"Feature"},
	{"geometry":{"coordinates":[9.251336,45.427349],"type":"Point"},"properties":{"osm_id":"7902894660","tag":{"amenity":"waste_basket"}},"type":"Feature"},
	{"geometry":{"coordinates":[9.251625,45.427136],"type":"Point"},"properties":{"osm_id":"7902894661","tag":{"amenity":"waste_basket"}},"type":"Feature"},
	{"geometry":{"coordinates":[9.251446,45.427392],"type":"Point"},"properties":{"osm_id":"7902894666","tag":{"amenity":"waste_basket"}},"type":"Feature"},
	{"geometry":{"coordinates":[9.252848,45.426157],"type":"Point"},"properties":{"osm_id":"7902894669","tag":{"amenity":"waste_basket"}},"type":"Feature"},
	{"geometry":{"coordinates":[9.251845,45.426891],"type":"Point"},"properties":{"osm_id":"7902894671","tag":{"amenity":"waste_basket"}},"type":"Feature"},
	{"geometry":{"coordinates":[9.253001,45.42618],"type":"Point"},"properties":{"osm_id":"7902894673","tag":{"amenity":"waste_basket"}},"type":"Feature"}
]
}
