{
"type": "FeatureCollection",
"features": [
	{"geometry":{"coordinates":[-122.169964,37.447161],"type":"Point"},"properties":{"name":"El Palo Alto","osm_id":"369171762","tag":{"addr:state":"CA","gnis:county_name":"Santa Clara","gnis:created":"11/09/1995","gnis:feature_id":"1669694","gnis:feature_type":"Woods","height":"33.5","natural":"tree","wikidata":"Q689053"}},"type":"Feature"},
	{"geometry":{"coordinates":[-122.170264,37.45956],"type":"Point"},"properties":{"osm_id":"1260336886","tag":{"natural":"tree"}},"type":"Feature"},
	{"geometry":{"coordinates":[-122.170351,37.459509],"type":"Point"},"properties":{"osm_id":"1260337795","tag":{"natural":"tree"}},"type":"Feature"},
	{"geometry":{"coordinates":[-122.170425,37.459445],"type":"Point"},"properties":{"osm_id":"1260337852","tag":{"natural":"tree"}},"type":"Feature"},
	{"geometry":{"coordinates":[-122.170483,37.459354],"type":"Point"},"properties":{"osm_id":"1260337875","tag":{"natural":"tree"}},"type":"Feature"},
	{"geometry":{"coordinates":[-122.170376,37.459385],"type":"Point"},"properties":{"osm_id":"1260338362","tag":{"natural":"tree"}},"type":"Feature"},
	{"geometry":{"coordinates":[-122.170351,37.459396],"type":"Point"},"properties":{"osm_id":"1260356098","tag":{"natural":"tree"}},"type":"Feature"},
	{"geometry":{"coordinates":[-122.231904,37.48598],"type":"Point"},"properties":{"osm_id":"3236440478","tag":{"natural":"tree"}},"type":"Feature"},
	{"geometry":{"coordinates":[-122.232015,37.486033],"type":"Point"},"properties":{"osm_id":"3236440674","tag":{"natural":"tree"}},"type":"Feature"},
	{"geometry":{"coordinates":[-122.231794,37.485908],"type":"Point"},"properties":{"osm_id":"3236440968","tag":{"natural":"tree"}},"type":"Feature"},
	{"geometry":{"coordinates":[-122.232201,37.486171],"type":"Point"},"properties":{"osm_id":"3236447962","tag":{"natural":"tree"}},"type":"Feature"},
	{"geometry":{"coordinates":[-122.23211,37.486102],"type":"Point"},"properties":{"osm_id":"3236451161","tag":{"natural":"tree"}},"type":"Feature"},
	{"geometry":{"coordinates":[-122.227618,37.459534],"type":"Point"},"properties":{"osm_id":"4308305810","tag":{"natural":"tree"}},"type":"Feature"},
	{"geometry":{"coordinates":[-122.227248,37.459436],"type":"Point"},"properties":{"osm_id":"4308305811","tag":{"natural":"tree"}},"type":"Feature"},
	{"geometry":{"coordinates":[-122.226948,37.459314],"type":"Point"},"properties":{"osm_id":"4308305812","tag":{"natural":"tree"}},"type":"Feature"},
	{"geometry":{"coordinates":[-122.227324,37.45949],"type":"Point"},"properties":{"osm_id":"4308305813","tag":{"natural":"tree"}},"type":"Feature"},
	{"geometry":{"coordinates":[-122.223675,37.479566],"type":"Point"},"properties":{"osm_id":"5435988556","tag":{"natural":"tree"}},"type":"Feature"},
	{"geometry":{"coordinates":[-122.230689,37.488569],"type":"Point"},"properties":{"osm_id":"5613819650","tag":{"natural":"tree"}},"type":"Feature"},
	{"geometry":{"coordinates":[-122.23109,37.488637],"type":"Point"},"properties":{"osm_id":"5613819678","tag":{"natural":"tree"}},"type":"Feature"},
	{"geometry":{"coordinates":[-122.231025,37.488487],"type":"Point"},"properties":{"osm_id":"5613819679","tag":{"natural":"tree"}},"type":"Feature"},
	{"geometry":{"coordinates":[-122.230451,37.48867],"type":"Point"},"properties":{"osm_id":"5613819680","tag":{"natural":"tree"}},"type":"Feature"},
	{"geometry":{"coordinates":[-122.236823,37.486318],"type":"Point"},"properties":{"osm_id":"5695014806","tag":{"natural":"tree"}},"type":"Feature"},
	{"geometry":{"coordinates":[-122.236963,37.48628],"type":"Point"},"properties":{"osm_id":"5695014807","tag":{"natural":"tree"}},"type":"Feature"},
	{"geometry":{"coordinates":[-122.194648,37.479444],"type":"Point"},"properties":{"osm_id":"6215041583","tag":{"addr:city":"Redwood City","addr:housenumber":"836","addr:postcode":"94063","addr:state":"CA","addr:street":"10th Avenue","denotation":"natural_monument","description":"An extremely tall redwood tree.","leaf_cycle":"evergreen","leaf_type":"needleleaved","natural":"tree"}},"type":"Feature"},
	{"geometry":{"coordinates":[-122.229212,37.48635],"type":"Point"},"properties":{"osm_id":"6268299640","tag":{"natural":"tree"}},"type":"Feature"},
	{"geometry":{"coordinates":[-122.229197,37.486186],"type":"Point"},"properties":{"osm_id":"6268299641","tag":{"natural":"tree"}},"type":"Feature"},
	{"geometry":{"coordinates":[-122.229202,37.486095],"type":"Point"},"properties":{"osm_id":"6268299642","tag":{"natural":"tree"}},"type":"Feature"},
	{"geometry":{"coordinates":[-122.229188,37.486013],"type":"Point"},"properties":{"osm_id":"6268299643","tag":{"natural":"tree"}},"type":"Feature"},
	{"geometry":{"coordinates":[-122.229188,37.485892],"type":"Point"},"properties":{"osm_id":"6268299644","tag":{"natural":"tree"}},"type":"Feature"},
	{"geometry":{"coordinates":[-122.229174,37.485803],"type":"Point"},"properties":{"osm_id":"6268299645","tag":{"natural":"tree"}},"type":"Feature"},
	{"geometry":{"coordinates":[-122.232511,37.486394],"type":"Point"},"properties":{"osm_id":"6405502180","tag":{"natural":"tree"}},"type":"Feature"},
	{"geometry":{"coordinates":[-122.232345,37.486282],"type":"Point"},"properties":{"osm_id":"6405502181","tag":{"natural":"tree"}},"type":"Feature"},
	{"geometry":{"coordinates":[-122.232437,37.486281],"type":"Point"},"properties":{"osm_id":"6405502182","tag":{"natural":"tree"}},"type":"Feature"},
	{"geometry":{"coordinates":[-122.232496,37.48628],"type":"Point"},"properties":{"osm_id":"6405502183","tag":{"natural":"tree"}},"type":"Feature"},
	{"geometry":{"coordinates":[-122.232577,37.486276],"type":"Point"},"properties":{"osm_id":"6405502184","tag":{"natural":"tree"}},"type":"Feature"},
	{"geometry":{"coordinates":[-122.232641,37.486276],"type":"Point"},"properties":{"osm_id":"6405502385","tag":{"natural":"tree"}},"type":"Feature"},
	{"geometry":{"coordinates":[-122.232679,37.486213],"type":"Point"},"properties":{"osm_id":"6405502386","tag":{"natural":"tree"}},"type":"Feature"},
	{"geometry":{"coordinates":[-122.232594,37.486225],"type":"Point"},"properties":{"osm_id":"6405502387","tag":{"natural":"tree"}},"type":"Feature"},
	{"geometry":{"coordinates":[-122.232461,37.486235],"type":"Point"},"properties":{"osm_id":"6405502388","tag":{"natural":"tree"}},"type":"Feature"},
	{"geometry":{"coordinates":[-122.232356,37.486241],"type":"Point"},"properties":{"osm_id":"6405502389","tag":{"natural":"tree"}},"type":"Feature"},
	{"geometry":{"coordinates":[-122.229433,37.486463],"type":"Point"},"properties":{"osm_id":"7841938352","tag":{"natural":"tree"}},"type":"Feature"},
	{"geometry":{"coordinates":[-122.229852,37.486445],"type":"Point"},"properties":{"osm_id":"7841938353","tag":{"natural":"tree"}},"type":"Feature"},
	{"geometry":{"coordinates":[-122.229985,37.486435],"type":"Point"},"properties":{"osm_id":"7841938354","tag":{"natural":"tree"}},"type":"Feature"},
	{"geometry":{"coordinates":[-122.230035,37.486715],"type":"Point"},"properties":{"osm_id":"7841938355","tag":{"natural":"tree"}},"type":"Feature"},
	{"geometry":{"coordinates":[-122.229279,37.486679],"type":"Point"},"properties":{"osm_id":"7841938356","tag":{"natural":"tree"}},"type":"Feature"},
	{"geometry":{"coordinates":[-122.229279,37.486622],"type":"Point"},"properties":{"osm_id":"7841938357","tag":{"natural":"tree"}},"type":"Feature"},
	{"geometry":{"coordinates":[-122.230035,37.486301],"type":"Point"},"properties":{"osm_id":"7841938358","tag":{"natural":"tree"}},"type":"Feature"},
	{"geometry":{"coordinates":[-122.230185,37.486291],"type":"Point"},"properties":{"osm_id":"7841938359","tag":{"natural":"tree"}},"type":"Feature"},
	{"geometry":{"coordinates":[-122.229151,37.485474],"type":"Point"},"properties":{"osm_id":"7841938360","tag":{"natural":"tree"}},"type":"Feature"},
	{"geometry":{"coordinates":[-122.230021,37.486586],"type":"Point"},"properties":{"osm_id":"7841938361","tag":{"natural":"tree"}},"type":"Feature"},
	{"geometry":{"coordinates":[-122.230002,37.486645],"type":"Point"},"properties":{"osm_id":"7841938362","tag":{"natural":"tree"}},"type":"Feature"},
	{"geometry":{"coordinates":[-122.22998,37.486595],"type":"Point"},"properties":{"osm_id":"7841938363","tag":{"natural":"tree"}},"type":"Feature"},
	{"geometry":{"coordinates":[-122.229316,37.486756],"type":"Point"},"properties":{"osm_id":"7841938364","tag":{"natural":"tree"}},"type":"Feature"},
	{"geometry":{"coordinates":[-122.22932,37.486814],"type":"Point"},"properties":{"osm_id":"7841938365","tag":{"natural":"tree"}},"type":"Feature"},
	{"geometry":{"coordinates":[-122.229978,37.486939],"type":"Point"},"properties":{"osm_id":"7841938366","tag":{"natural":"tree"}},"type":"Feature"}
]
}
