{
"type": "FeatureCollection",
"features": [
	{"geometry":{"coordinates":[58.298697,51.197337],"type":"Point"},"properties":{"osm_id":"2799243659","ref":"58","tag":{"amenity":"waste_disposal"}},"type":"Feature"},
	{"geometry":{"coordinates":[58.284257,51.19291],"type":"Point"},"properties":{"osm_id":"2799250672","ref":"40","tag":{"amenity":"waste_disposal"}},"type":"Feature"},
	{"geometry":{"coordinates":[58.272799,51.19539],"type":"Point"},"properties":{"osm_id":"2799250673","tag":{"amenity":"waste_basket"}},"type":"Feature"},
	{"geometry":{"coordinates":[58.302444,51.205218],"type":"Point"},"properties":{"osm_id":"2799252325","ref":"7","tag":{"amenity":"waste_disposal"}},"type":"Feature"},
	{"geometry":{"coordinates":[58.284678,51.1847],"type":"Point"},"properties":{"osm_id":"3101790871","ref":"16","tag":{"amenity":"waste_disposal"}},"type":"Feature"},
	{"geometry":{"coordinates":[58.278359,51.187784],"type":"Point"},"properties":{"osm_id":"3101790881","ref":"63","tag":{"amenity":"waste_disposal"}},"type":"Feature"},
	{"geometry":{"coordinates":[58.281836,51.18802],"type":"Point"},"properties":{"osm_id":"3101790882","tag":{"amenity":"waste_disposal"}},"type":"Feature"},
	{"geometry":{"coordinates":[58.282677,51.189354],"type":"Point"},"properties":{"osm_id":"3101790885","ref":"35","tag":{"amenity":"waste_disposal"}},"type":"Feature"},
	{"geometry":{"coordinates":[58.286438,51.19256],"type":"Point"},"properties":{"osm_id":"3101790886","ref":"39","tag":{"amenity":"waste_disposal"}},"type":"Feature"},
	{"geometry":{"coordinates":[58.312764,51.199989],"type":"Point"},"properties":{"osm_id":"3131004801","ref":"13","tag":{"amenity":"waste_disposal"}},"type":"Feature"},
	{"geometry":{"coordinates":[58.307364,51.208502],"type":"Point"},"properties":{"osm_id":"3131005190","ref":"3","tag":{"amenity":"waste_disposal"}},"type":"Feature"},
	{"geometry":{"coordinates":[58.276766,51.181129],"type":"Point"},"properties":{"osm_id":"3138395282","ref":"26","tag":{"amenity":"waste_disposal"}},"type":"Feature"},
	{"geometry":{"coordinates":[58.279312,51.18384],"type":"Point"},"properties":{"osm_id":"3138395300","ref":"14","tag":{"amenity":"waste_disposal"}},"type":"Feature"},
	{"geometry":{"coordinates":[58.278435,51.184545],"type":"Point"},"properties":{"osm_id":"3138395304","tag":{"amenity":"waste_disposal"}},"type":"Feature"},
	{"geometry":{"coordinates":[58.29199,51.192618],"type":"Point"},"properties":{"osm_id":"3138395476","tag":{"amenity":"waste_disposal"}},"type":"Feature"},
	{"geometry":{"coordinates":[58.315788,51.196755],"type":"Point"},"properties":{"osm_id":"3138395521","tag":{"amenity":"waste_disposal"}},"type":"Feature"},
	{"geometry":{"coordinates":[58.288893,51.197056],"type":"Point"},"properties":{"osm_id":"3138395525","ref":"47","tag":{"amenity":"waste_disposal"}},"type":"Feature"},
	{"geometry":{"coordinates":[58.281466,51.196737],"type":"Point"},"properties":{"osm_id":"3152342127","ref":"56","tag":{"amenity":"waste_disposal"}},"type":"Feature"},
	{"geometry":{"coordinates":[58.300083,51.202851],"type":"Point"},"properties":{"osm_id":"3367956893","ref":"6","tag":{"amenity":"waste_disposal"}},"type":"Feature"},
	{"geometry":{"coordinates":[58.31443,51.209916],"type":"Point"},"properties":{"osm_id":"4371893391","tag":{"amenity":"waste_disposal"}},"type":"Feature"},
	{"geometry":{"coordinates":[58.275403,51.184616],"type":"Point"},"properties":{"osm_id":"4502744390","ref":"20","tag":{"amenity":"waste_disposal"}},"type":"Feature"},
	{"geometry":{"coordinates":[58.276288,51.185698],"type":"Point"},"properties":{"osm_id":"4502744391","ref":"19","tag":{"amenity":"waste_disposal"}},"type":"Feature"},
	{"geometry":{"coordinates":[58.359095,51.211287],"type":"Point"},"properties":{"osm_id":"4513574724","tag":{"amenity":"waste_disposal"}},"type":"Feature"},
	{"geometry":{"coordinates":[58.275256,51.179564],"type":"Point"},"properties":{"osm_id":"4530654112","tag":{"amenity":"waste_disposal"}},"type":"Feature"},
	{"geometry":{"coordinates":[58.274378,51.182359],"type":"Point"},"properties":{"osm_id":"4530667249","ref":"21","tag":{"amenity":"waste_disposal"}},"type":"Feature"},
	{"geometry":{"coordinates":[58.294175,51.228223],"type":"Point"},"properties":{"osm_id":"4533377951","tag":{"amenity":"waste_disposal"}},"type":"Feature"},
	{"geometry":{"coordinates":[58.28254,51.182834],"type":"Point"},"properties":{"osm_id":"4539426514","ref":"15","tag":{"amenity":"waste_disposal"}},"type":"Feature"},
	{"geometry":{"coordinates":[58.283939,51.187322],"type":"Point"},"properties":{"osm_id":"4545120371","ref":"34","tag":{"amenity":"waste_disposal"}},"type":"Feature"},
	{"geometry":{"coordinates":[58.301454,51.198892],"type":"Point"},"properties":{"osm_id":"4566464691","ref":"8","tag":{"amenity":"waste_disposal"}},"type":"Feature"},
	{"geometry":{"coordinates":[58.2725,51.182112],"type":"Point"},"properties":{"osm_id":"4566797289","ref":"22","tag":{"amenity":"waste_disposal"}},"type":"Feature"},
	{"geometry":{"coordinates":[58.271763,51.189363],"type":"Point"},"properties":{"osm_id":"4594303790","ref":"29","tag":{"amenity":"waste_disposal"}},"type":"Feature"},
	{"geometry":{"coordinates":[58.277047,51.190318],"type":"Point"},"properties":{"osm_id":"4594337090","tag":{"amenity":"waste_disposal"}},"type":"Feature"},
	{"geometry":{"coordinates":[58.287528,51.190604],"type":"Point"},"properties":{"osm_id":"4594351294","tag":{"amenity":"waste_disposal"}},"type":"Feature"},
	{"geometry":{"coordinates":[58.289237,51.191103],"type":"Point"},"properties":{"osm_id":"4594409707","ref":"37","tag":{"amenity":"waste_disposal"}},"type":"Feature"},
	{"geometry":{"coordinates":[58.282795,51.180841],"type":"Point"},"properties":{"osm_id":"4594429794","tag":{"amenity":"waste_disposal"}},"type":"Feature"},
	{"geometry":{"coordinates":[58.286048,51.186199],"type":"Point"},"properties":{"osm_id":"4594588352","ref":"17","tag":{"amenity":"waste_disposal"}},"type":"Feature"},
	{"geometry":{"coordinates":[58.331555,51.198925],"type":"Point"},"properties":{"osm_id":"4595661970","tag":{"amenity":"waste_disposal"}},"type":"Feature"},
	{"geometry":{"coordinates":[58.289996,51.19479],"type":"Point"},"properties":{"osm_id":"4607222597","tag":{"amenity":"waste_disposal"}},"type":"Feature"},
	{"geometry":{"coordinates":[58.294433,51.197245],"type":"Point"},"properties":{"osm_id":"4607222993","tag":{"amenity":"waste_disposal"}},"type":"Feature"},
	{"geometry":{"coordinates":[58.308675,51.206864],"type":"Point"},"properties":{"osm_id":"4638957588","ref":"4","tag":{"amenity":"waste_disposal"}},"type":"Feature"},
	{"geometry":{"coordinates":[58.311908,51.215155],"type":"Point"},"properties":{"osm_id":"4643612151","tag":{"amenity":"waste_disposal"}},"type":"Feature"},
	{"geometry":{"coordinates":[58.28131,51.192084],"type":"Point"},"properties":{"osm_id":"4679787989","ref":"32","tag":{"amenity":"waste_disposal"}},"type":"Feature"},
	{"geometry":{"coordinates":[58.278989,51.180483],"type":"Point"},"properties":{"osm_id":"4704695911","tag":{"amenity":"waste_disposal"}},"type":"Feature"},
	{"geometry":{"coordinates":[58.284891,51.196263],"type":"Point"},"properties":{"osm_id":"4721435591","ref":"45","tag":{"amenity":"waste_disposal"}},"type":"Feature"},
	{"geometry":{"coordinates":[58.279887,51.192404],"type":"Point"},"properties":{"osm_id":"4723609941","ref":"31","tag":{"amenity":"waste_disposal"}},"type":"Feature"},
	{"geometry":{"coordinates":[58.296667,51.194898],"type":"Point"},"properties":{"osm_id":"4759218774","ref":"51","tag":{"amenity":"waste_disposal"}},"type":"Feature"},
	{"geometry":{"coordinates":[58.293236,51.193413],"type":"Point"},"properties":{"osm_id":"4761153319","tag":{"amenity":"waste_basket"}},"type":"Feature"},
	{"geometry":{"coordinates":[58.293058,51.193339],"type":"Point"},"properties":{"osm_id":"4761154721","tag":{"amenity":"waste_basket"}},"type":"Feature"},
	{"geometry":{"coordinates":[58.282984,51.185839],"type":"Point"},"properties":{"osm_id":"4784044775","tag":{"amenity":"waste_disposal"}},"type":"Feature"},
	{"geometry":{"coordinates":[58.340101,51.200459],"type":"Point"},"properties":{"osm_id":"4795537172","tag":{"amenity":"waste_disposal"}},"type":"Feature"},
	{"geometry":{"coordinates":[58.331785,51.195005],"type":"Point"},"properties":{"osm_id":"4802915424","tag":{"amenity":"waste_disposal"}},"type":"Feature"},
	{"geometry":{"coordinates":[58.337242,51.198257],"type":"Point"},"properties":{"osm_id":"4802942621","tag":{"amenity":"waste_disposal"}},"type":"Feature"},
	{"geometry":{"coordinates":[58.281544,51.193767],"type":"Point"},"properties":{"osm_id":"4823478394","tag":{"amenity":"waste_disposal"}},"type":"Feature"},
	{"geometry":{"coordinates":[58.283841,51.19073],"type":"Point"},"properties":{"osm_id":"4860271765","ref":"36","tag":{"amenity":"waste_disposal"}},"type":"Feature"},
	{"geometry":{"coordinates":[58.339903,51.208886],"type":"Point"},"properties":{"osm_id":"4869228221","tag":{"amenity":"waste_basket"}},"type":"Feature"},
	{"geometry":{"coordinates":[58.279663,51.186496],"type":"Point"},"properties":{"osm_id":"4881905728","ref":"18","tag":{"amenity":"waste_disposal"}},"type":"Feature"},
	{"geometry":{"coordinates":[58.305111,51.193626],"type":"Point"},"properties":{"osm_id":"5309915724","tag":{"amenity":"waste_disposal"}},"type":"Feature"},
	{"geometry":{"coordinates":[58.294372,51.194615],"type":"Point"},"properties":{"osm_id":"5424186423","tag":{"amenity":"waste_disposal"}},"type":"Feature"},
	{"geometry":{"coordinates":[58.325645,51.197915],"type":"Point"},"properties":{"osm_id":"5515875156","tag":{"amenity":"waste_disposal"}},"type":"Feature"},
	{"geometry":{"coordinates":[58.330518,51.19389],"type":"Point"},"properties":{"osm_id":"5599778323","tag":{"access":"private","amenity":"waste_disposal"}},"type":"Feature"},
	{"geometry":{"coordinates":[58.354727,51.210479],"type":"Point"},"properties":{"osm_id":"5919735597","tag":{"amenity":"waste_disposal"}},"type":"Feature"},
	{"geometry":{"coordinates":[58.303151,51.206941],"type":"Point"},"properties":{"osm_id":"6153385187","ref":"25","tag":{"amenity":"waste_disposal"}},"type":"Feature"},
	{"geometry":{"coordinates":[58.278908,51.19655],"type":"Point"},"properties":{"osm_id":"6202977085","ref":"44","tag":{"amenity":"waste_disposal"}},"type":"Feature"},
	{"geometry":{"coordinates":[58.286634,51.197651],"type":"Point"},"properties":{"osm_id":"6202977088","ref":"46","tag":{"amenity":"waste_disposal"}},"type":"Feature"},
	{"geometry":{"coordinates":[58.311939,51.197335],"type":"Point"},"properties":{"osm_id":"6203019485","ref":"12","tag":{"amenity":"waste_disposal"}},"type":"Feature"},
	{"geometry":{"coordinates":[58.273753,51.186412],"type":"Point"},"properties":{"osm_id":"6215205886","ref":"27","tag":{"amenity":"waste_disposal"}},"type":"Feature"},
	{"geometry":{"coordinates":[58.276976,51.191447],"type":"Point"},"properties":{"osm_id":"6237659786","ref":"30","tag":{"amenity":"waste_disposal"}},"type":"Feature"},
	{"geometry":{"coordinates":[58.29458,51.195867],"type":"Point"},"properties":{"osm_id":"6237727888","ref":"49","tag":{"amenity":"waste_disposal"}},"type":"Feature"},
	{"geometry":{"coordinates":[58.290421,51.193818],"type":"Point"},"properties":{"osm_id":"6237727988","ref":"52","tag":{"amenity":"waste_disposal"}},"type":"Feature"},
	{"geometry":{"coordinates":[58.29598,51.195802],"type":"Point"},"properties":{"osm_id":"6237737685","ref":"50","tag":{"amenity":"waste_disposal"}},"type":"Feature"},
	{"geometry":{"coordinates":[58.288279,51.193456],"type":"Point"},"properties":{"osm_id":"6237755587","ref":"38","tag":{"amenity":"waste_disposal"}},"type":"Feature"},
	{"geometry":{"coordinates":[58.279068,51.189507],"type":"Point"},"properties":{"osm_id":"6241679386","ref":"33","tag":{"amenity":"waste_disposal"}},"type":"Feature"},
	{"geometry":{"coordinates":[58.303794,51.196986],"type":"Point"},"properties":{"osm_id":"6251492687","ref":"53","tag":{"amenity":"waste_disposal"}},"type":"Feature"},
	{"geometry":{"coordinates":[58.295661,51.199407],"type":"Point"},"properties":{"osm_id":"6251534092","ref":"48","tag":{"amenity":"waste_disposal"}},"type":"Feature"},
	{"geometry":{"coordinates":[58.281928,51.17983],"type":"Point"},"properties":{"osm_id":"6273526911","tag":{"amenity":"waste_disposal"}},"type":"Feature"},
	{"geometry":{"coordinates":[58.302132,51.195342],"type":"Point"},"properties":{"osm_id":"6282528685","ref":"9","tag":{"amenity":"waste_disposal"}},"type":"Feature"},
	{"geometry":{"coordinates":[58.304972,51.194948],"type":"Point"},"properties":{"osm_id":"6282528687","ref":"10","tag":{"amenity":"waste_disposal"}},"type":"Feature"},
	{"geometry":{"coordinates":[58.310713,51.194765],"type":"Point"},"properties":{"osm_id":"6282529288","ref":"11","tag":{"amenity":"waste_disposal"}},"type":"Feature"},
	{"geometry":{"coordinates":[58.30425,51.211705],"type":"Point"},"properties":{"osm_id":"6295479785","ref":"55","tag":{"amenity":"waste_disposal"}},"type":"Feature"},
	{"geometry":{"coordinates":[58.307975,51.199939],"type":"Point"},"properties":{"osm_id":"6295560885","ref":"54","tag":{"amenity":"waste_disposal"}},"type":"Feature"},
	{"geometry":{"coordinates":[58.298424,51.206831],"type":"Point"},"properties":{"osm_id":"6322906087","ref":"1","tag":{"amenity":"waste_disposal"}},"type":"Feature"},
	{"geometry":{"coordinates":[58.301269,51.210747],"type":"Point"},"properties":{"osm_id":"6322914285","ref":"2","tag":{"amenity":"waste_disposal"}},"type":"Feature"},
	{"geometry":{"coordinates":[58.302969,51.208793],"type":"Point"},"properties":{"osm_id":"6322959985","ref":"23","tag":{"amenity":"waste_disposal"}},"type":"Feature"},
	{"geometry":{"coordinates":[58.30927,51.20408],"type":"Point"},"properties":{"osm_id":"6322973486","ref":"5","tag":{"amenity":"waste_disposal"}},"type":"Feature"},
	{"geometry":{"coordinates":[58.279664,51.188786],"type":"Point"},"properties":{"osm_id":"6364062342","ref":"64","tag":{"amenity":"waste_disposal"}},"type":"Feature"},
	{"geometry":{"coordinates":[58.27624,51.194136],"type":"Point"},"properties":{"osm_id":"6373769587","ref":"43","tag":{"amenity":"waste_disposal"}},"type":"Feature"},
	{"geometry":{"coordinates":[58.275576,51.195798],"type":"Point"},"properties":{"osm_id":"6373778285","ref":"42","tag":{"amenity":"waste_disposal"}},"type":"Feature"},
	{"geometry":{"coordinates":[58.299103,51.218345],"type":"Point"},"properties":{"osm_id":"6451058537","tag":{"amenity":"waste_disposal"}},"type":"Feature"},
	{"geometry":{"coordinates":[58.298077,51.197821],"type":"Point"},"properties":{"osm_id":"6458052686","ref":"57","tag":{"amenity":"waste_disposal"}},"type":"Feature"},
	{"geometry":{"coordinates":[58.273964,51.183346],"type":"Point"},"properties":{"osm_id":"6458128685","ref":"24","tag":{"amenity":"waste_disposal"}},"type":"Feature"},
	{"geometry":{"coordinates":[58.291046,51.195403],"type":"Point"},"properties":{"osm_id":"6481125285","ref":"62","tag":{"amenity":"waste_disposal"}},"type":"Feature"},
	{"geometry":{"coordinates":[58.312431,51.193979],"type":"Point"},"properties":{"osm_id":"6496811705","ref":"67","tag":{"amenity":"waste_disposal"}},"type":"Feature"},
	{"geometry":{"coordinates":[58.282894,51.195339],"type":"Point"},"properties":{"osm_id":"6547734585","ref":"61","tag":{"amenity":"waste_disposal"}},"type":"Feature"},
	{"geometry":{"coordinates":[58.318734,51.193411],"type":"Point"},"properties":{"osm_id":"6573736602","tag":{"amenity":"waste_disposal"}},"type":"Feature"},
	{"geometry":{"coordinates":[58.324282,51.197484],"type":"Point"},"properties":{"osm_id":"6679968793","tag":{"amenity":"waste_disposal"}},"type":"Feature"},
	{"geometry":{"coordinates":[58.328142,51.198213],"type":"Point"},"properties":{"osm_id":"6679968794","tag":{"amenity":"waste_disposal"}},"type":"Feature"},
	{"geometry":{"coordinates":[58.275362,51.184574],"type":"Point"},"properties":{"osm_id":"6835284385","tag":{"amenity":"recycling","recycling:plastic_bottles":"yes","recycling_type":"container"}},"type":"Feature"},
	{"geometry":{"coordinates":[58.271927,51.186995],"type":"Point"},"properties":{"osm_id":"6884048712","tag":{"amenity":"waste_disposal"}},"type":"Feature"},
	{"geometry":{"coordinates":[58.272642,51.187631],"type":"Point"},"properties":{"osm_id":"6884048713","tag":{"amenity":"waste_disposal"}},"type":"Feature"},
	{"geometry":{"coordinates":[58.318915,51.197123],"type":"Point"},"properties":{"osm_id":"6901613310","tag":{"amenity":"waste_disposal"}},"type":"Feature"},
	{"geometry":{"coordinates":[58.314132,51.220694],"type":"Point"},"properties":{"osm_id":"6984548887","ref":"68","tag":{"amenity":"waste_disposal"}},"type":"Feature"},
	{"geometry":{"coordinates":[58.316826,51.211335],"type":"Point"},"properties":{"osm_id":"6984612888","tag":{"amenity":"waste_disposal"}},"type":"Feature"},
	{"geometry":{"coordinates":[58.31252,51.208871],"type":"Point"},"properties":{"osm_id":"6984615786","ref":"72","tag":{"amenity":"waste_disposal"}},"type":"Feature"},
	{"geometry":{"coordinates":[58.316688,51.197694],"type":"Point"},"properties":{"osm_id":"6986351876","tag":{"amenity":"waste_disposal"}},"type":"Feature"},
	{"geometry":{"coordinates":[58.296337,51.211314],"type":"Point"},"properties":{"osm_id":"7003760886","tag":{"amenity":"waste_disposal"}},"type":"Feature"},
	{"geometry":{"coordinates":[58.295735,51.194304],"type":"Point"},"properties":{"osm_id":"7081881405","tag":{"amenity":"recycling","recycling:batteries":"yes","recycling_type":"container"}},"type":"Feature"},
	{"geometry":{"coordinates":[58.313639,51.199668],"type":"Point"},"properties":{"osm_id":"7252188285","tag":{"amenity":"recycling","recycling:car_batteries":"yes","recycling_type":"container"}},"type":"Feature"},
	{"geometry":{"coordinates":[58.309454,51.194792],"type":"Point"},"properties":{"osm_id":"7432458082","tag":{"amenity":"waste_disposal"}},"type":"Feature"},
	{"geometry":{"coordinates":[58.326069,51.196126],"type":"Point"},"properties":{"osm_id":"7436876792","tag":{"amenity":"waste_disposal"}},"type":"Feature"},
	{"geometry":{"coordinates":[58.274386,51.196547],"type":"Point"},"properties":{"osm_id":"7495858032","tag":{"amenity":"waste_disposal"}},"type":"Feature"},
	{"geometry":{"coordinates":[58.341169,51.201966],"type":"Point"},"properties":{"osm_id":"7543086388","tag":{"amenity":"recycling","recycling:cans":"yes","recycling:plastic_bottles":"yes"}},"type":"Feature"},
	{"geometry":{"coordinates":[58.298171,51.221122],"type":"Point"},"properties":{"osm_id":"7834234185","ref":"71","tag":{"amenity":"waste_disposal"}},"type":"Feature"},
	{"geometry":{"coordinates":[58.315021,51.200877],"type":"Point"},"properties":{"osm_id":"7842669569","tag":{"amenity":"waste_disposal","noref":"yes"}},"type":"Feature"},
	{"geometry":{"coordinates":[58.343953,51.201856],"type":"Point"},"properties":{"osm_id":"7866930391","tag":{"amenity":"waste_disposal"}},"type":"Feature"},
	{"geometry":{"coordinates":[58.346568,51.203393],"type":"Point"},"properties":{"osm_id":"7882503413","ref":"66","tag":{"amenity":"waste_disposal"}},"type":"Feature"}
]
}
