{
"type": "FeatureCollection",
"features": [
	{"geometry":{"coordinates":[13.068885,55.674749],"type":"Point"},"properties":{"osm_id":"1390253413","tag":{"amenity":"recycling"}},"type":"Feature"},
	{"geometry":{"coordinates":[13.055239,55.65804],"type":"Point"},"properties":{"osm_id":"2156944595","tag":{"amenity":"waste_basket"}},"type":"Feature"},
	{"geometry":{"coordinates":[13.057974,55.659338],"type":"Point"},"properties":{"osm_id":"2156944596","tag":{"amenity":"waste_basket"}},"type":"Feature"},
	{"geometry":{"coordinates":[13.057193,55.659673],"type":"Point"},"properties":{"osm_id":"2156944597","tag":{"amenity":"waste_basket"}},"type":"Feature"},
	{"geometry":{"coordinates":[13.058681,55.659832],"type":"Point"},"properties":{"osm_id":"2156944598","tag":{"amenity":"waste_basket"}},"type":"Feature"},
	{"geometry":{"coordinates":[13.058235,55.660581],"type":"Point"},"properties":{"osm_id":"2156944599","tag":{"amenity":"waste_basket"}},"type":"Feature"},
	{"geometry":{"coordinates":[13.062278,55.662164],"type":"Point"},"properties":{"osm_id":"2156944600","tag":{"amenity":"waste_basket"}},"type":"Feature"},
	{"geometry":{"coordinates":[13.059852,55.662318],"type":"Point"},"properties":{"osm_id":"2156944601","tag":{"amenity":"waste_basket"}},"type":"Feature"},
	{"geometry":{"coordinates":[13.060892,55.663237],"type":"Point"},"properties":{"osm_id":"2156944602","tag":{"amenity":"waste_basket"}},"type":"Feature"},
	{"geometry":{"coordinates":[13.061431,55.663811],"type":"Point"},"properties":{"osm_id":"2156944603","tag":{"amenity":"waste_basket"}},"type":"Feature"},
	{"geometry":{"coordinates":[13.093522,55.664126],"type":"Point"},"properties":{"osm_id":"2156944604","tag":{"amenity":"waste_basket"}},"type":"Feature"},
	{"geometry":{"coordinates":[13.090075,55.664302],"type":"Point"},"properties":{"osm_id":"2156944605","tag":{"amenity":"waste_basket"}},"type":"Feature"},
	{"geometry":{"coordinates":[13.061926,55.664341],"type":"Point"},"properties":{"osm_id":"2156944606","tag":{"amenity":"waste_basket"}},"type":"Feature"},
	{"geometry":{"coordinates":[13.067709,55.664476],"type":"Point"},"properties":{"osm_id":"2156944607","tag":{"amenity":"waste_basket"}},"type":"Feature"},
	{"geometry":{"coordinates":[13.068338,55.664653],"type":"Point"},"properties":{"osm_id":"2156944608","tag":{"amenity":"waste_basket"}},"type":"Feature"},
	{"geometry":{"coordinates":[13.06279,55.665064],"type":"Point"},"properties":{"osm_id":"2156944609","tag":{"amenity":"waste_basket"}},"type":"Feature"},
	{"geometry":{"coordinates":[13.083055,55.665551],"type":"Point"},"properties":{"osm_id":"2156944610","tag":{"amenity":"waste_basket"}},"type":"Feature"},
	{"geometry":{"coordinates":[13.06339,55.665993],"type":"Point"},"properties":{"osm_id":"2156944611","tag":{"amenity":"waste_basket"}},"type":"Feature"},
	{"geometry":{"coordinates":[13.072135,55.666011],"type":"Point"},"properties":{"osm_id":"2156944612","tag":{"amenity":"waste_basket"}},"type":"Feature"},
	{"geometry":{"coordinates":[13.077476,55.66642],"type":"Point"},"properties":{"osm_id":"2156944613","tag":{"amenity":"waste_basket"}},"type":"Feature"},
	{"geometry":{"coordinates":[13.090076,55.66727],"type":"Point"},"properties":{"osm_id":"2156944614","tag":{"amenity":"waste_basket"}},"type":"Feature"},
	{"geometry":{"coordinates":[13.086903,55.667344],"type":"Point"},"properties":{"osm_id":"2156944615","tag":{"amenity":"waste_basket"}},"type":"Feature"},
	{"geometry":{"coordinates":[13.064545,55.667416],"type":"Point"},"properties":{"osm_id":"2156944616","tag":{"amenity":"waste_basket"}},"type":"Feature"},
	{"geometry":{"coordinates":[13.085404,55.667424],"type":"Point"},"properties":{"osm_id":"2156944617","tag":{"amenity":"waste_basket"}},"type":"Feature"},
	{"geometry":{"coordinates":[13.085306,55.667563],"type":"Point"},"properties":{"osm_id":"2156944618","tag":{"amenity":"waste_basket"}},"type":"Feature"},
	{"geometry":{"coordinates":[13.065448,55.667947],"type":"Point"},"properties":{"osm_id":"2156944619","tag":{"amenity":"waste_basket"}},"type":"Feature"},
	{"geometry":{"coordinates":[13.064174,55.668348],"type":"Point"},"properties":{"osm_id":"2156944620","tag":{"amenity":"waste_basket"}},"type":"Feature"},
	{"geometry":{"coordinates":[13.079026,55.668436],"type":"Point"},"properties":{"osm_id":"2156944621","tag":{"amenity":"waste_basket"}},"type":"Feature"},
	{"geometry":{"coordinates":[13.079034,55.668571],"type":"Point"},"properties":{"osm_id":"2156944622","tag":{"amenity":"waste_basket"}},"type":"Feature"},
	{"geometry":{"coordinates":[13.065252,55.668767],"type":"Point"},"properties":{"osm_id":"2156944624","tag":{"amenity":"waste_basket"}},"type":"Feature"},
	{"geometry":{"coordinates":[13.064813,55.668938],"type":"Point"},"properties":{"osm_id":"2156944626","tag":{"amenity":"waste_basket"}},"type":"Feature"},
	{"geometry":{"coordinates":[13.087353,55.669188],"type":"Point"},"properties":{"osm_id":"2156944628","tag":{"amenity":"waste_basket"}},"type":"Feature"},
	{"geometry":{"coordinates":[13.063346,55.669533],"type":"Point"},"properties":{"osm_id":"2156944630","tag":{"amenity":"waste_basket"}},"type":"Feature"},
	{"geometry":{"coordinates":[13.079268,55.669539],"type":"Point"},"properties":{"osm_id":"2156944632","tag":{"amenity":"waste_basket"}},"type":"Feature"},
	{"geometry":{"coordinates":[13.068586,55.669788],"type":"Point"},"properties":{"osm_id":"2156944634","tag":{"amenity":"waste_basket"}},"type":"Feature"},
	{"geometry":{"coordinates":[13.068478,55.669934],"type":"Point"},"properties":{"osm_id":"2156944636","tag":{"amenity":"waste_basket"}},"type":"Feature"},
	{"geometry":{"coordinates":[13.06254,55.670506],"type":"Point"},"properties":{"osm_id":"2156944638","tag":{"amenity":"waste_basket"}},"type":"Feature"},
	{"geometry":{"coordinates":[13.062138,55.671176],"type":"Point"},"properties":{"osm_id":"2156944639","tag":{"amenity":"waste_basket"}},"type":"Feature"},
	{"geometry":{"coordinates":[13.087683,55.671644],"type":"Point"},"properties":{"osm_id":"2156944640","tag":{"amenity":"waste_basket"}},"type":"Feature"},
	{"geometry":{"coordinates":[13.061826,55.671699],"type":"Point"},"properties":{"osm_id":"2156944641","tag":{"amenity":"waste_basket"}},"type":"Feature"},
	{"geometry":{"coordinates":[13.061818,55.671763],"type":"Point"},"properties":{"osm_id":"2156944642","tag":{"amenity":"waste_basket"}},"type":"Feature"},
	{"geometry":{"coordinates":[13.064816,55.671934],"type":"Point"},"properties":{"osm_id":"2156944643","tag":{"amenity":"waste_basket"}},"type":"Feature"},
	{"geometry":{"coordinates":[13.091486,55.672053],"type":"Point"},"properties":{"osm_id":"2156944644","tag":{"amenity":"waste_basket"}},"type":"Feature"},
	{"geometry":{"coordinates":[13.06419,55.672154],"type":"Point"},"properties":{"osm_id":"2156944645","tag":{"amenity":"waste_basket"}},"type":"Feature"},
	{"geometry":{"coordinates":[13.06088,55.672478],"type":"Point"},"properties":{"osm_id":"2156944646","tag":{"amenity":"waste_basket"}},"type":"Feature"},
	{"geometry":{"coordinates":[13.066245,55.672692],"type":"Point"},"properties":{"osm_id":"2156944647","tag":{"amenity":"waste_basket"}},"type":"Feature"},
	{"geometry":{"coordinates":[13.069577,55.672894],"type":"Point"},"properties":{"osm_id":"2156944648","tag":{"amenity":"waste_basket"}},"type":"Feature"},
	{"geometry":{"coordinates":[13.069905,55.672908],"type":"Point"},"properties":{"osm_id":"2156944649","tag":{"amenity":"waste_basket"}},"type":"Feature"},
	{"geometry":{"coordinates":[13.069257,55.672979],"type":"Point"},"properties":{"osm_id":"2156944650","tag":{"amenity":"waste_basket"}},"type":"Feature"},
	{"geometry":{"coordinates":[13.060096,55.672994],"type":"Point"},"properties":{"osm_id":"2156944651","tag":{"amenity":"waste_basket"}},"type":"Feature"},
	{"geometry":{"coordinates":[13.066609,55.673087],"type":"Point"},"properties":{"osm_id":"2156944652","tag":{"amenity":"waste_basket"}},"type":"Feature"},
	{"geometry":{"coordinates":[13.062627,55.673088],"type":"Point"},"properties":{"osm_id":"2156944653","tag":{"amenity":"waste_basket"}},"type":"Feature"},
	{"geometry":{"coordinates":[13.064299,55.673188],"type":"Point"},"properties":{"osm_id":"2156944654","tag":{"amenity":"waste_basket"}},"type":"Feature"},
	{"geometry":{"coordinates":[13.065049,55.673233],"type":"Point"},"properties":{"osm_id":"2156944655","tag":{"amenity":"waste_basket"}},"type":"Feature"},
	{"geometry":{"coordinates":[13.059731,55.673243],"type":"Point"},"properties":{"osm_id":"2156944656","tag":{"amenity":"waste_basket"}},"type":"Feature"},
	{"geometry":{"coordinates":[13.059724,55.673259],"type":"Point"},"properties":{"osm_id":"2156944657","tag":{"amenity":"waste_basket"}},"type":"Feature"},
	{"geometry":{"coordinates":[13.07245,55.673283],"type":"Point"},"properties":{"osm_id":"2156944658","tag":{"amenity":"waste_basket"}},"type":"Feature"},
	{"geometry":{"coordinates":[13.069637,55.673304],"type":"Point"},"properties":{"osm_id":"2156944659","tag":{"amenity":"waste_basket"}},"type":"Feature"},
	{"geometry":{"coordinates":[13.066342,55.673316],"type":"Point"},"properties":{"osm_id":"2156944660","tag":{"amenity":"waste_basket"}},"type":"Feature"},
	{"geometry":{"coordinates":[13.084404,55.673347],"type":"Point"},"properties":{"osm_id":"2156944661","tag":{"amenity":"waste_basket"}},"type":"Feature"},
	{"geometry":{"coordinates":[13.05971,55.673381],"type":"Point"},"properties":{"osm_id":"2156944662","tag":{"amenity":"waste_basket"}},"type":"Feature"},
	{"geometry":{"coordinates":[13.059541,55.673402],"type":"Point"},"properties":{"osm_id":"2156944663","tag":{"amenity":"waste_basket"}},"type":"Feature"},
	{"geometry":{"coordinates":[13.072124,55.673483],"type":"Point"},"properties":{"osm_id":"2156944664","tag":{"amenity":"waste_basket"}},"type":"Feature"},
	{"geometry":{"coordinates":[13.059983,55.673491],"type":"Point"},"properties":{"osm_id":"2156944665","tag":{"amenity":"waste_basket"}},"type":"Feature"},
	{"geometry":{"coordinates":[13.060117,55.67353],"type":"Point"},"properties":{"osm_id":"2156944666","tag":{"amenity":"waste_basket"}},"type":"Feature"},
	{"geometry":{"coordinates":[13.070559,55.673642],"type":"Point"},"properties":{"osm_id":"2156944667","tag":{"amenity":"waste_basket"}},"type":"Feature"},
	{"geometry":{"coordinates":[13.05914,55.673644],"type":"Point"},"properties":{"osm_id":"2156944668","tag":{"amenity":"waste_basket"}},"type":"Feature"},
	{"geometry":{"coordinates":[13.06893,55.673787],"type":"Point"},"properties":{"osm_id":"2156944669","tag":{"amenity":"waste_basket"}},"type":"Feature"},
	{"geometry":{"coordinates":[13.069168,55.673752],"type":"Point"},"properties":{"osm_id":"2156944670","tag":{"amenity":"waste_basket"}},"type":"Feature"},
	{"geometry":{"coordinates":[13.070407,55.673752],"type":"Point"},"properties":{"osm_id":"2156944671","tag":{"amenity":"waste_basket"}},"type":"Feature"},
	{"geometry":{"coordinates":[13.068837,55.673782],"type":"Point"},"properties":{"osm_id":"2156944672","tag":{"amenity":"waste_basket"}},"type":"Feature"},
	{"geometry":{"coordinates":[13.072642,55.673868],"type":"Point"},"properties":{"osm_id":"2156944673","tag":{"amenity":"waste_basket"}},"type":"Feature"},
	{"geometry":{"coordinates":[13.058692,55.673955],"type":"Point"},"properties":{"osm_id":"2156944674","tag":{"amenity":"waste_basket"}},"type":"Feature"},
	{"geometry":{"coordinates":[13.069127,55.674004],"type":"Point"},"properties":{"osm_id":"2156944675","tag":{"amenity":"waste_basket"}},"type":"Feature"},
	{"geometry":{"coordinates":[13.074584,55.674017],"type":"Point"},"properties":{"osm_id":"2156944676","tag":{"amenity":"waste_basket"}},"type":"Feature"},
	{"geometry":{"coordinates":[13.072755,55.674099],"type":"Point"},"properties":{"osm_id":"2156944677","tag":{"amenity":"waste_basket"}},"type":"Feature"},
	{"geometry":{"coordinates":[13.069163,55.674124],"type":"Point"},"properties":{"osm_id":"2156944678","tag":{"amenity":"waste_basket"}},"type":"Feature"},
	{"geometry":{"coordinates":[13.069926,55.674148],"type":"Point"},"properties":{"osm_id":"2156944679","tag":{"amenity":"waste_basket"}},"type":"Feature"},
	{"geometry":{"coordinates":[13.058299,55.674204],"type":"Point"},"properties":{"osm_id":"2156944680","tag":{"amenity":"waste_basket"}},"type":"Feature"},
	{"geometry":{"coordinates":[13.08086,55.67433],"type":"Point"},"properties":{"osm_id":"2156944681","tag":{"amenity":"waste_basket"}},"type":"Feature"},
	{"geometry":{"coordinates":[13.057849,55.674493],"type":"Point"},"properties":{"osm_id":"2156944682","tag":{"amenity":"waste_basket"}},"type":"Feature"},
	{"geometry":{"coordinates":[13.072078,55.674714],"type":"Point"},"properties":{"osm_id":"2156944683","tag":{"amenity":"waste_basket"}},"type":"Feature"},
	{"geometry":{"coordinates":[13.085712,55.674751],"type":"Point"},"properties":{"osm_id":"2156944684","tag":{"amenity":"waste_basket"}},"type":"Feature"},
	{"geometry":{"coordinates":[13.057331,55.674786],"type":"Point"},"properties":{"osm_id":"2156944685","tag":{"amenity":"waste_basket"}},"type":"Feature"},
	{"geometry":{"coordinates":[13.064148,55.674877],"type":"Point"},"properties":{"osm_id":"2156944686","tag":{"amenity":"waste_basket"}},"type":"Feature"},
	{"geometry":{"coordinates":[13.08573,55.674905],"type":"Point"},"properties":{"osm_id":"2156944687","tag":{"amenity":"waste_basket"}},"type":"Feature"},
	{"geometry":{"coordinates":[13.071322,55.674969],"type":"Point"},"properties":{"osm_id":"2156944688","tag":{"amenity":"waste_basket"}},"type":"Feature"},
	{"geometry":{"coordinates":[13.061283,55.674992],"type":"Point"},"properties":{"osm_id":"2156944689","tag":{"amenity":"waste_basket"}},"type":"Feature"},
	{"geometry":{"coordinates":[13.06132,55.674995],"type":"Point"},"properties":{"osm_id":"2156944690","tag":{"amenity":"waste_basket"}},"type":"Feature"},
	{"geometry":{"coordinates":[13.056953,55.675003],"type":"Point"},"properties":{"osm_id":"2156944691","tag":{"amenity":"waste_basket"}},"type":"Feature"},
	{"geometry":{"coordinates":[13.062605,55.675064],"type":"Point"},"properties":{"osm_id":"2156944692","tag":{"amenity":"waste_basket"}},"type":"Feature"},
	{"geometry":{"coordinates":[13.070164,55.675101],"type":"Point"},"properties":{"osm_id":"2156944693","tag":{"amenity":"waste_basket"}},"type":"Feature"},
	{"geometry":{"coordinates":[13.06167,55.675207],"type":"Point"},"properties":{"osm_id":"2156944694","tag":{"amenity":"waste_basket"}},"type":"Feature"},
	{"geometry":{"coordinates":[13.069607,55.675211],"type":"Point"},"properties":{"osm_id":"2156944695","tag":{"amenity":"waste_basket"}},"type":"Feature"},
	{"geometry":{"coordinates":[13.070982,55.675305],"type":"Point"},"properties":{"osm_id":"2156944696","tag":{"amenity":"waste_basket"}},"type":"Feature"},
	{"geometry":{"coordinates":[13.06887,55.675326],"type":"Point"},"properties":{"osm_id":"2156944697","tag":{"amenity":"waste_basket"}},"type":"Feature"},
	{"geometry":{"coordinates":[13.090227,55.675332],"type":"Point"},"properties":{"osm_id":"2156944698","tag":{"amenity":"waste_basket"}},"type":"Feature"},
	{"geometry":{"coordinates":[13.068701,55.675354],"type":"Point"},"properties":{"osm_id":"2156944699","tag":{"amenity":"waste_basket"}},"type":"Feature"},
	{"geometry":{"coordinates":[13.090473,55.675376],"type":"Point"},"properties":{"osm_id":"2156944700","tag":{"amenity":"waste_basket"}},"type":"Feature"},
	{"geometry":{"coordinates":[13.070306,55.67542],"type":"Point"},"properties":{"osm_id":"2156944701","tag":{"amenity":"waste_basket"}},"type":"Feature"},
	{"geometry":{"coordinates":[13.059411,55.675428],"type":"Point"},"properties":{"osm_id":"2156944702","tag":{"amenity":"waste_basket"}},"type":"Feature"},
	{"geometry":{"coordinates":[13.06895,55.675433],"type":"Point"},"properties":{"osm_id":"2156944703","tag":{"amenity":"waste_basket"}},"type":"Feature"},
	{"geometry":{"coordinates":[13.08847,55.675525],"type":"Point"},"properties":{"osm_id":"2156944704","tag":{"amenity":"waste_basket"}},"type":"Feature"},
	{"geometry":{"coordinates":[13.056041,55.675553],"type":"Point"},"properties":{"osm_id":"2156944705","tag":{"amenity":"waste_basket"}},"type":"Feature"},
	{"geometry":{"coordinates":[13.069912,55.675577],"type":"Point"},"properties":{"osm_id":"2156944706","tag":{"amenity":"waste_basket"}},"type":"Feature"},
	{"geometry":{"coordinates":[13.06379,55.675587],"type":"Point"},"properties":{"osm_id":"2156944707","tag":{"amenity":"waste_basket"}},"type":"Feature"},
	{"geometry":{"coordinates":[13.057411,55.675589],"type":"Point"},"properties":{"osm_id":"2156944708","tag":{"amenity":"waste_basket"}},"type":"Feature"},
	{"geometry":{"coordinates":[13.092834,55.675595],"type":"Point"},"properties":{"osm_id":"2156944709","tag":{"amenity":"waste_basket"}},"type":"Feature"},
	{"geometry":{"coordinates":[13.065003,55.675646],"type":"Point"},"properties":{"osm_id":"2156944710","tag":{"amenity":"waste_basket"}},"type":"Feature"},
	{"geometry":{"coordinates":[13.066096,55.675673],"type":"Point"},"properties":{"osm_id":"2156944711","tag":{"amenity":"waste_basket"}},"type":"Feature"},
	{"geometry":{"coordinates":[13.078,55.67575],"type":"Point"},"properties":{"osm_id":"2156944712","tag":{"amenity":"waste_basket"}},"type":"Feature"},
	{"geometry":{"coordinates":[13.083103,55.675806],"type":"Point"},"properties":{"osm_id":"2156944713","tag":{"amenity":"waste_basket"}},"type":"Feature"},
	{"geometry":{"coordinates":[13.060216,55.675877],"type":"Point"},"properties":{"osm_id":"2156944714","tag":{"amenity":"waste_basket"}},"type":"Feature"},
	{"geometry":{"coordinates":[13.089154,55.675898],"type":"Point"},"properties":{"osm_id":"2156944715","tag":{"amenity":"waste_basket"}},"type":"Feature"},
	{"geometry":{"coordinates":[13.060813,55.676046],"type":"Point"},"properties":{"osm_id":"2156944716","tag":{"amenity":"waste_basket"}},"type":"Feature"},
	{"geometry":{"coordinates":[13.059051,55.676139],"type":"Point"},"properties":{"osm_id":"2156944717","tag":{"amenity":"waste_basket"}},"type":"Feature"},
	{"geometry":{"coordinates":[13.060803,55.676234],"type":"Point"},"properties":{"osm_id":"2156944718","tag":{"amenity":"waste_basket"}},"type":"Feature"},
	{"geometry":{"coordinates":[13.058797,55.676267],"type":"Point"},"properties":{"osm_id":"2156944719","tag":{"amenity":"waste_basket"}},"type":"Feature"},
	{"geometry":{"coordinates":[13.059177,55.67639],"type":"Point"},"properties":{"osm_id":"2156944720","tag":{"amenity":"waste_basket"}},"type":"Feature"},
	{"geometry":{"coordinates":[13.058884,55.67643],"type":"Point"},"properties":{"osm_id":"2156944721","tag":{"amenity":"waste_basket"}},"type":"Feature"},
	{"geometry":{"coordinates":[13.091763,55.676442],"type":"Point"},"properties":{"osm_id":"2156944722","tag":{"amenity":"waste_basket"}},"type":"Feature"},
	{"geometry":{"coordinates":[13.088772,55.676445],"type":"Point"},"properties":{"osm_id":"2156944723","tag":{"amenity":"waste_basket"}},"type":"Feature"},
	{"geometry":{"coordinates":[13.088929,55.676451],"type":"Point"},"properties":{"osm_id":"2156944724","tag":{"amenity":"waste_basket"}},"type":"Feature"},
	{"geometry":{"coordinates":[13.088056,55.676519],"type":"Point"},"properties":{"osm_id":"2156944725","tag":{"amenity":"waste_basket"}},"type":"Feature"},
	{"geometry":{"coordinates":[13.058713,55.676564],"type":"Point"},"properties":{"osm_id":"2156944726","tag":{"amenity":"waste_basket"}},"type":"Feature"},
	{"geometry":{"coordinates":[13.060995,55.676589],"type":"Point"},"properties":{"osm_id":"2156944727","tag":{"amenity":"waste_basket"}},"type":"Feature"},
	{"geometry":{"coordinates":[13.088094,55.676633],"type":"Point"},"properties":{"osm_id":"2156944728","tag":{"amenity":"waste_basket"}},"type":"Feature"},
	{"geometry":{"coordinates":[13.061042,55.676711],"type":"Point"},"properties":{"osm_id":"2156944729","tag":{"amenity":"waste_basket"}},"type":"Feature"},
	{"geometry":{"coordinates":[13.090926,55.676735],"type":"Point"},"properties":{"osm_id":"2156944730","tag":{"amenity":"waste_basket"}},"type":"Feature"},
	{"geometry":{"coordinates":[13.083679,55.67688],"type":"Point"},"properties":{"osm_id":"2156944731","tag":{"amenity":"waste_basket"}},"type":"Feature"},
	{"geometry":{"coordinates":[13.060969,55.676999],"type":"Point"},"properties":{"osm_id":"2156944732","tag":{"amenity":"waste_basket"}},"type":"Feature"},
	{"geometry":{"coordinates":[13.070448,55.67701],"type":"Point"},"properties":{"osm_id":"2156944733","tag":{"amenity":"waste_basket"}},"type":"Feature"},
	{"geometry":{"coordinates":[13.060988,55.677134],"type":"Point"},"properties":{"osm_id":"2156944734","tag":{"amenity":"waste_basket"}},"type":"Feature"},
	{"geometry":{"coordinates":[13.059411,55.677296],"type":"Point"},"properties":{"osm_id":"2156944735","tag":{"amenity":"waste_basket"}},"type":"Feature"},
	{"geometry":{"coordinates":[13.070623,55.67736],"type":"Point"},"properties":{"osm_id":"2156944736","tag":{"amenity":"waste_basket"}},"type":"Feature"},
	{"geometry":{"coordinates":[13.068512,55.677396],"type":"Point"},"properties":{"osm_id":"2156944737","tag":{"amenity":"waste_basket"}},"type":"Feature"},
	{"geometry":{"coordinates":[13.072697,55.644802],"type":"Point"},"properties":{"osm_id":"2189816123","tag":{"amenity":"recycling","recycling:glass_bottles":"yes"}},"type":"Feature"},
	{"geometry":{"coordinates":[13.069893,55.674279],"type":"Point"},"properties":{"osm_id":"2206705165","tag":{"amenity":"recycling"}},"type":"Feature"},
	{"geometry":{"coordinates":[13.093164,55.664128],"type":"Point"},"properties":{"osm_id":"2357822956","tag":{"amenity":"recycling"}},"type":"Feature"},
	{"geometry":{"coordinates":[13.056915,55.629749],"type":"Point"},"properties":{"name":"Harrysbilskrot AB","osm_id":"2987191900","tag":{"amenity":"recycling","recycling_type":"centre"}},"type":"Feature"},
	{"geometry":{"coordinates":[13.063911,55.669063],"type":"Point"},"properties":{"osm_id":"5248664937","tag":{"amenity":"waste_basket"}},"type":"Feature"},
	{"geometry":{"coordinates":[13.079695,55.633265],"type":"Point"},"properties":{"osm_id":"5595191420","tag":{"amenity":"waste_basket"}},"type":"Feature"},
	{"geometry":{"coordinates":[13.085972,55.638741],"type":"Point"},"properties":{"osm_id":"5595192026","tag":{"amenity":"waste_basket"}},"type":"Feature"},
	{"geometry":{"coordinates":[13.085863,55.638887],"type":"Point"},"properties":{"osm_id":"5595192027","tag":{"amenity":"waste_basket"}},"type":"Feature"},
	{"geometry":{"coordinates":[13.080718,55.636784],"type":"Point"},"properties":{"osm_id":"5595192032","tag":{"amenity":"waste_basket"}},"type":"Feature"},
	{"geometry":{"coordinates":[13.075879,55.634979],"type":"Point"},"properties":{"osm_id":"5595192035","tag":{"amenity":"waste_basket"}},"type":"Feature"},
	{"geometry":{"coordinates":[13.070716,55.631579],"type":"Point"},"properties":{"osm_id":"5595192039","tag":{"amenity":"waste_basket"}},"type":"Feature"},
	{"geometry":{"coordinates":[13.067886,55.629434],"type":"Point"},"properties":{"osm_id":"5595192040","tag":{"amenity":"waste_basket"}},"type":"Feature"},
	{"geometry":{"coordinates":[13.070739,55.632075],"type":"Point"},"properties":{"osm_id":"7575794322","tag":{"amenity":"waste_basket"}},"type":"Feature"},
	{"geometry":{"coordinates":[13.078612,55.633246],"type":"Point"},"properties":{"osm_id":"7575794325","tag":{"amenity":"waste_basket"}},"type":"Feature"},
	{"geometry":{"coordinates":[13.084101,55.633693],"type":"Point"},"properties":{"osm_id":"7575794327","tag":{"amenity":"waste_basket"}},"type":"Feature"},
	{"geometry":{"coordinates":[13.082916,55.633679],"type":"Point"},"properties":{"osm_id":"7575794328","tag":{"amenity":"waste_basket"}},"type":"Feature"},
	{"geometry":{"coordinates":[13.060545,55.638784],"type":"Point"},"properties":{"osm_id":"7581267563","tag":{"amenity":"waste_basket"}},"type":"Feature"},
	{"geometry":{"coordinates":[13.091799,55.674429],"type":"Point"},"properties":{"osm_id":"7603782463","tag":{"amenity":"waste_basket"}},"type":"Feature"}
]
}
