{
"type": "FeatureCollection",
"features": [
	{"geometry":{"coordinates":[13.056047,55.570959],"type":"Point"},"properties":{"osm_id":"5598987748","tag":{"amenity":"waste_basket"}},"type":"Feature"},
	{"geometry":{"coordinates":[13.058998,55.57098],"type":"Point"},"properties":{"osm_id":"5598987749","tag":{"amenity":"waste_basket"}},"type":"Feature"},
	{"geometry":{"coordinates":[13.051957,55.573371],"type":"Point"},"properties":{"osm_id":"5598987750","tag":{"amenity":"waste_basket"}},"type":"Feature"},
	{"geometry":{"coordinates":[13.04599,55.575268],"type":"Point"},"properties":{"osm_id":"5598987753","tag":{"amenity":"waste_basket"}},"type":"Feature"},
	{"geometry":{"coordinates":[13.046344,55.575293],"type":"Point"},"properties":{"osm_id":"5598987756","tag":{"amenity":"waste_basket"}},"type":"Feature"},
	{"geometry":{"coordinates":[13.040185,55.577051],"type":"Point"},"properties":{"osm_id":"5598987761","tag":{"amenity":"waste_basket"}},"type":"Feature"},
	{"geometry":{"coordinates":[13.074429,55.539334],"type":"Point"},"properties":{"osm_id":"5599032321","tag":{"amenity":"waste_basket"}},"type":"Feature"},
	{"geometry":{"coordinates":[13.074149,55.539124],"type":"Point"},"properties":{"osm_id":"5599032322","tag":{"amenity":"waste_basket"}},"type":"Feature"},
	{"geometry":{"coordinates":[13.076028,55.538416],"type":"Point"},"properties":{"osm_id":"5599032323","tag":{"amenity":"waste_basket"}},"type":"Feature"},
	{"geometry":{"coordinates":[13.012839,55.558564],"type":"Point"},"properties":{"osm_id":"5604915332","tag":{"amenity":"waste_basket"}},"type":"Feature"},
	{"geometry":{"coordinates":[13.007866,55.570335],"type":"Point"},"properties":{"osm_id":"5775941230","tag":{"addr:city":"Malm\u00c3\u00b6","addr:country":"SE","addr:housenumber":"4B","addr:street":"Berguvsgatan","entrance":"yes"}},"type":"Feature"},
	{"geometry":{"coordinates":[13.090945,55.544143],"type":"Point"},"properties":{"osm_id":"6718131837","tag":{"amenity":"waste_basket"}},"type":"Feature"},
	{"geometry":{"coordinates":[13.092658,55.544407],"type":"Point"},"properties":{"osm_id":"6718131839","tag":{"amenity":"waste_basket"}},"type":"Feature"},
	{"geometry":{"coordinates":[13.094257,55.546301],"type":"Point"},"properties":{"osm_id":"6718131846","tag":{"amenity":"waste_basket"}},"type":"Feature"},
	{"geometry":{"coordinates":[13.020093,55.574392],"type":"Point"},"properties":{"osm_id":"7552802973","tag":{"amenity":"waste_basket"}},"type":"Feature"},
	{"geometry":{"coordinates":[13.023872,55.571908],"type":"Point"},"properties":{"osm_id":"7552802977","tag":{"amenity":"waste_basket"}},"type":"Feature"},
	{"geometry":{"coordinates":[13.02297,55.57101],"type":"Point"},"properties":{"osm_id":"7552802980","tag":{"amenity":"waste_basket"}},"type":"Feature"},
	{"geometry":{"coordinates":[13.022063,55.568685],"type":"Point"},"properties":{"osm_id":"7552802982","tag":{"amenity":"waste_basket"}},"type":"Feature"},
	{"geometry":{"coordinates":[13.02174,55.567877],"type":"Point"},"properties":{"osm_id":"7552835085","tag":{"amenity":"waste_basket"}},"type":"Feature"},
	{"geometry":{"coordinates":[13.021116,55.559618],"type":"Point"},"properties":{"osm_id":"7552835095","tag":{"amenity":"waste_basket"}},"type":"Feature"},
	{"geometry":{"coordinates":[13.046986,55.558036],"type":"Point"},"properties":{"osm_id":"7563796616","tag":{"amenity":"waste_basket"}},"type":"Feature"},
	{"geometry":{"coordinates":[13.048376,55.558454],"type":"Point"},"properties":{"osm_id":"7563796617","tag":{"amenity":"waste_basket"}},"type":"Feature"},
	{"geometry":{"coordinates":[13.057076,55.563073],"type":"Point"},"properties":{"osm_id":"7563796620","tag":{"amenity":"waste_basket"}},"type":"Feature"},
	{"geometry":{"coordinates":[13.059077,55.573133],"type":"Point"},"properties":{"osm_id":"7563796621","tag":{"amenity":"waste_basket"}},"type":"Feature"},
	{"geometry":{"coordinates":[13.060905,55.57536],"type":"Point"},"properties":{"osm_id":"7563796625","tag":{"amenity":"waste_basket"}},"type":"Feature"},
	{"geometry":{"coordinates":[13.060659,55.57557],"type":"Point"},"properties":{"osm_id":"7563796629","tag":{"amenity":"waste_basket"}},"type":"Feature"},
	{"geometry":{"coordinates":[13.061058,55.577679],"type":"Point"},"properties":{"osm_id":"7563796630","tag":{"amenity":"waste_basket"}},"type":"Feature"},
	{"geometry":{"coordinates":[13.040379,55.571279],"type":"Point"},"properties":{"osm_id":"7564037909","tag":{"amenity":"waste_basket"}},"type":"Feature"}
]
}
