{
"type": "FeatureCollection",
"features": [
	{"geometry":{"coordinates":[13.075216,53.355057],"type":"Point"},"properties":{"osm_id":"842142314","tag":{"amenity":"recycling","recycling:glass_bottles":"yes","recycling_type":"container"}},"type":"Feature"},
	{"geometry":{"coordinates":[13.076319,53.362824],"type":"Point"},"properties":{"osm_id":"842142321","tag":{"amenity":"recycling","recycling:glass_bottles":"yes","recycling_type":"container"}},"type":"Feature"},
	{"geometry":{"coordinates":[13.068697,53.365794],"type":"Point"},"properties":{"osm_id":"842142327","tag":{"amenity":"recycling","recycling:glass_bottles":"yes","recycling_type":"container"}},"type":"Feature"},
	{"geometry":{"coordinates":[13.0789,53.366209],"type":"Point"},"properties":{"osm_id":"842142334","tag":{"amenity":"recycling","recycling:glass_bottles":"yes","recycling_type":"container"}},"type":"Feature"},
	{"geometry":{"coordinates":[13.082577,53.35889],"type":"Point"},"properties":{"osm_id":"842142336","tag":{"amenity":"recycling","recycling:glass_bottles":"yes","recycling_type":"container"}},"type":"Feature"},
	{"geometry":{"coordinates":[13.076024,53.349944],"type":"Point"},"properties":{"osm_id":"842142347","tag":{"amenity":"recycling","recycling:glass_bottles":"yes","recycling_type":"container"}},"type":"Feature"},
	{"geometry":{"coordinates":[13.073662,53.360958],"type":"Point"},"properties":{"osm_id":"856985935","tag":{"amenity":"waste_basket"}},"type":"Feature"},
	{"geometry":{"coordinates":[13.090529,53.357222],"type":"Point"},"properties":{"osm_id":"1116307508","tag":{"amenity":"recycling","recycling:glass_bottles":"yes","recycling_type":"container"}},"type":"Feature"},
	{"geometry":{"coordinates":[13.072204,53.357505],"type":"Point"},"properties":{"osm_id":"1154553476","tag":{"amenity":"recycling","recycling:glass_bottles":"yes","recycling_type":"container"}},"type":"Feature"},
	{"geometry":{"coordinates":[13.068632,53.367948],"type":"Point"},"properties":{"osm_id":"1845439499","tag":{"amenity":"recycling","recycling_type":"container"}},"type":"Feature"},
	{"geometry":{"coordinates":[13.095595,53.331056],"type":"Point"},"properties":{"osm_id":"1889020019","tag":{"amenity":"recycling","recycling:clothes":"yes","recycling:glass":"yes","recycling:paper":"yes"}},"type":"Feature"},
	{"geometry":{"coordinates":[13.060984,53.359842],"type":"Point"},"properties":{"osm_id":"2225009799","tag":{"amenity":"recycling","recycling_type":"container"}},"type":"Feature"},
	{"geometry":{"coordinates":[13.072893,53.335839],"type":"Point"},"properties":{"osm_id":"2225009801","tag":{"amenity":"recycling","recycling_type":"container"}},"type":"Feature"},
	{"geometry":{"coordinates":[13.046983,53.373839],"type":"Point"},"properties":{"osm_id":"2225010505","tag":{"amenity":"recycling","recycling_type":"container"}},"type":"Feature"},
	{"geometry":{"coordinates":[13.07029,53.36323],"type":"Point"},"properties":{"osm_id":"2896871842","tag":{"amenity":"recycling","recycling:glass_bottles":"yes","recycling_type":"container"}},"type":"Feature"},
	{"geometry":{"coordinates":[13.074016,53.356226],"type":"Point"},"properties":{"osm_id":"3321071667","tag":{"amenity":"waste_basket"}},"type":"Feature"},
	{"geometry":{"coordinates":[13.070324,53.364669],"type":"Point"},"properties":{"osm_id":"3321262826","tag":{"amenity":"waste_basket"}},"type":"Feature"},
	{"geometry":{"coordinates":[13.070095,53.365512],"type":"Point"},"properties":{"osm_id":"3321587386","tag":{"amenity":"waste_basket"}},"type":"Feature"},
	{"geometry":{"coordinates":[13.069189,53.366303],"type":"Point"},"properties":{"osm_id":"3321587424","tag":{"amenity":"waste_basket"}},"type":"Feature"},
	{"geometry":{"coordinates":[13.068504,53.366847],"type":"Point"},"properties":{"osm_id":"3321587450","tag":{"amenity":"waste_basket"}},"type":"Feature"},
	{"geometry":{"coordinates":[13.0696,53.367139],"type":"Point"},"properties":{"osm_id":"3321587458","tag":{"amenity":"waste_basket"}},"type":"Feature"},
	{"geometry":{"coordinates":[13.069895,53.367438],"type":"Point"},"properties":{"osm_id":"3321587772","tag":{"amenity":"waste_basket"}},"type":"Feature"},
	{"geometry":{"coordinates":[13.078285,53.358379],"type":"Point"},"properties":{"osm_id":"3321988010","tag":{"amenity":"waste_basket"}},"type":"Feature"},
	{"geometry":{"coordinates":[13.078346,53.358392],"type":"Point"},"properties":{"osm_id":"3321988011","tag":{"amenity":"waste_basket"}},"type":"Feature"},
	{"geometry":{"coordinates":[13.057153,53.359091],"type":"Point"},"properties":{"osm_id":"3324043551","tag":{"amenity":"waste_basket"}},"type":"Feature"},
	{"geometry":{"coordinates":[13.060491,53.359991],"type":"Point"},"properties":{"osm_id":"3324043623","tag":{"amenity":"waste_basket"}},"type":"Feature"},
	{"geometry":{"coordinates":[13.060442,53.360012],"type":"Point"},"properties":{"osm_id":"3324043627","tag":{"amenity":"waste_basket"}},"type":"Feature"},
	{"geometry":{"coordinates":[13.055996,53.360165],"type":"Point"},"properties":{"osm_id":"3324043640","tag":{"amenity":"waste_basket"}},"type":"Feature"},
	{"geometry":{"coordinates":[13.051004,53.361303],"type":"Point"},"properties":{"osm_id":"3324080622","tag":{"amenity":"waste_basket"}},"type":"Feature"},
	{"geometry":{"coordinates":[13.052129,53.361569],"type":"Point"},"properties":{"osm_id":"3324080632","tag":{"amenity":"waste_basket"}},"type":"Feature"},
	{"geometry":{"coordinates":[13.052832,53.362499],"type":"Point"},"properties":{"osm_id":"3324080657","tag":{"amenity":"waste_basket"}},"type":"Feature"},
	{"geometry":{"coordinates":[13.022604,53.346665],"type":"Point"},"properties":{"osm_id":"3324097361","tag":{"amenity":"waste_basket"}},"type":"Feature"},
	{"geometry":{"coordinates":[13.008198,53.356719],"type":"Point"},"properties":{"osm_id":"3324150846","tag":{"amenity":"waste_basket"}},"type":"Feature"},
	{"geometry":{"coordinates":[13.008089,53.356735],"type":"Point"},"properties":{"osm_id":"3324150849","tag":{"amenity":"waste_basket"}},"type":"Feature"},
	{"geometry":{"coordinates":[13.056706,53.364806],"type":"Point"},"properties":{"osm_id":"3324226696","tag":{"amenity":"recycling","recycling:clothes":"yes","recycling_type":"container"}},"type":"Feature"},
	{"geometry":{"coordinates":[13.055975,53.36492],"type":"Point"},"properties":{"osm_id":"3324226697","tag":{"amenity":"waste_basket"}},"type":"Feature"},
	{"geometry":{"coordinates":[13.055963,53.365179],"type":"Point"},"properties":{"osm_id":"3324226703","tag":{"amenity":"recycling","recycling:glass":"yes","recycling_type":"container"}},"type":"Feature"},
	{"geometry":{"coordinates":[13.055516,53.366628],"type":"Point"},"properties":{"osm_id":"3324226724","tag":{"amenity":"waste_basket"}},"type":"Feature"},
	{"geometry":{"coordinates":[13.06777,53.358491],"type":"Point"},"properties":{"osm_id":"3324255414","tag":{"amenity":"recycling","opening_hours":"Mo-Sa 07:00-19:00","recycling:glass":"yes","recycling_type":"container"}},"type":"Feature"},
	{"geometry":{"coordinates":[13.07919,53.347922],"type":"Point"},"properties":{"osm_id":"3388300182","tag":{"amenity":"recycling","recycling:glass_bottles":"yes","recycling_type":"container"}},"type":"Feature"},
	{"geometry":{"coordinates":[13.079228,53.347932],"type":"Point"},"properties":{"osm_id":"3388300183","tag":{"amenity":"recycling","recycling:clothes":"yes","recycling_type":"container"}},"type":"Feature"},
	{"geometry":{"coordinates":[13.065496,53.36265],"type":"Point"},"properties":{"osm_id":"3921886932","tag":{"amenity":"recycling","recycling:glass_bottles":"yes","recycling_type":"container"}},"type":"Feature"},
	{"geometry":{"coordinates":[13.073563,53.359295],"type":"Point"},"properties":{"osm_id":"4933388400","tag":{"amenity":"waste_basket"}},"type":"Feature"},
	{"geometry":{"coordinates":[13.074286,53.359189],"type":"Point"},"properties":{"osm_id":"4933401569","tag":{"amenity":"waste_basket"}},"type":"Feature"},
	{"geometry":{"coordinates":[13.073905,53.359273],"type":"Point"},"properties":{"osm_id":"4933401811","tag":{"amenity":"waste_basket"}},"type":"Feature"},
	{"geometry":{"coordinates":[13.039942,53.340543],"type":"Point"},"properties":{"barrier":"gate","osm_id":"4960427257"},"type":"Feature"},
	{"geometry":{"coordinates":[13.089151,53.336505],"type":"Point"},"properties":{"osm_id":"4995376290","tag":{"amenity":"recycling","recycling:glass_bottles":"yes","recycling_type":"container"}},"type":"Feature"},
	{"geometry":{"coordinates":[13.081178,53.347408],"type":"Point"},"properties":{"osm_id":"4996800026","tag":{"amenity":"recycling","recycling:glass_bottles":"yes","recycling_type":"container"}},"type":"Feature"},
	{"geometry":{"coordinates":[13.075206,53.355006],"type":"Point"},"properties":{"osm_id":"4996825674","tag":{"amenity":"recycling","recycling:glass_bottles":"yes","recycling_type":"container"}},"type":"Feature"},
	{"geometry":{"coordinates":[13.074665,53.363973],"type":"Point"},"properties":{"osm_id":"4997999968","tag":{"amenity":"recycling","operator":"Diakonische Werkst\u00c3\u00a4tten","recycling:clothes":"yes","recycling:shoes":"yes","recycling_type":"container"}},"type":"Feature"},
	{"geometry":{"coordinates":[13.069033,53.36561],"type":"Point"},"properties":{"osm_id":"4998025041","tag":{"amenity":"recycling","recycling:glass_bottles":"yes","recycling_type":"container"}},"type":"Feature"},
	{"geometry":{"coordinates":[13.057277,53.366888],"type":"Point"},"properties":{"osm_id":"5007551209","tag":{"amenity":"recycling","recycling:clothes":"yes","recycling:shoes":"yes","recycling_type":"container"}},"type":"Feature"},
	{"geometry":{"coordinates":[13.073912,53.359519],"type":"Point"},"properties":{"osm_id":"5436132570","tag":{"amenity":"waste_basket"}},"type":"Feature"},
	{"geometry":{"coordinates":[13.069928,53.359451],"type":"Point"},"properties":{"osm_id":"7862797144","tag":{"amenity":"recycling","recycling:clothes":"yes","recycling_type":"container"}},"type":"Feature"},
	{"geometry":{"coordinates":[13.08839,53.358157],"type":"Point"},"properties":{"osm_id":"7864573857","tag":{"amenity":"recycling","recycling:glass_bottles":"yes","recycling_type":"container"}},"type":"Feature"},
	{"geometry":{"coordinates":[13.088363,53.358193],"type":"Point"},"properties":{"osm_id":"7864573858","tag":{"amenity":"recycling","operator":"Deutsches Rotes Kreuz","recycling:clothes":"yes","recycling:shoes":"yes","recycling_type":"container"}},"type":"Feature"},
	{"geometry":{"coordinates":[13.087712,53.356285],"type":"Point"},"properties":{"osm_id":"7864740507","tag":{"amenity":"waste_basket","waste":"trash"}},"type":"Feature"},
	{"geometry":{"coordinates":[13.087777,53.35634],"type":"Point"},"properties":{"osm_id":"7864740509","tag":{"amenity":"recycling","recycling:glass_bottles":"yes","recycling_type":"container"}},"type":"Feature"}
]
}
