{
"type": "FeatureCollection",
"features": [
	{"geometry":{"coordinates":[13.055487,52.421024],"type":"Point"},"properties":{"osm_id":"253373007","tag":{"amenity":"recycling","operator":"Stadtwerke Potsdam","recycling:clothes":"yes","recycling:glass_bottles":"yes","recycling_type":"container"}},"type":"Feature"},
	{"geometry":{"coordinates":[13.094514,52.396598],"type":"Point"},"properties":{"osm_id":"262386560","tag":{"amenity":"recycling","recycling:clothes":"yes","recycling:glass":"yes","recycling_type":"container"}},"type":"Feature"},
	{"geometry":{"coordinates":[13.01276,52.388566],"type":"Point"},"properties":{"osm_id":"279244394","tag":{"amenity":"recycling","location":"overground","operator":"Step","recycling:clothes":"yes","recycling:glass_bottles":"yes","recycling_type":"container"}},"type":"Feature"},
	{"geometry":{"coordinates":[13.065414,52.388897],"type":"Point"},"properties":{"osm_id":"280836351","tag":{"amenity":"recycling","covered":"no","operator":"Stadtentsorgung Potsdam","recycling:glass_bottles":"yes","recycling_type":"container"}},"type":"Feature"},
	{"geometry":{"coordinates":[13.075425,52.393428],"type":"Point"},"properties":{"osm_id":"286876273","tag":{"amenity":"recycling","recycling:clothes":"yes","recycling:glass_bottles":"yes","recycling_type":"container"}},"type":"Feature"},
	{"geometry":{"coordinates":[13.030437,52.392351],"type":"Point"},"properties":{"osm_id":"290944845","tag":{"amenity":"recycling","opening_hours":"Mo-Sa 07:00-20:00; PH,Su off","operator":"Step","recycling:glass_bottles":"yes","recycling_type":"container"}},"type":"Feature"},
	{"geometry":{"coordinates":[13.025856,52.389632],"type":"Point"},"properties":{"osm_id":"292493992","tag":{"amenity":"recycling","opening_hours":"Mo-Sa 07:00-20:00; PH,Su closed","operator":"Step","recycling:glass_bottles":"yes","recycling_type":"container"}},"type":"Feature"},
	{"geometry":{"coordinates":[13.052706,52.383303],"type":"Point"},"properties":{"osm_id":"295717720","tag":{"amenity":"recycling","operator":"Step","recycling:clothes":"yes","recycling:glass_bottles":"yes","recycling:shoes":"yes","recycling_type":"container"}},"type":"Feature"},
	{"geometry":{"coordinates":[13.080715,52.393158],"type":"Point"},"properties":{"osm_id":"309437355","tag":{"amenity":"recycling","recycling:cans":"no","recycling:clothes":"yes","recycling:glass":"yes","recycling:glass_bottles":"yes","recycling:paper":"yes","recycling:plastic":"no","recycling_type":"container"}},"type":"Feature"},
	{"geometry":{"coordinates":[13.073127,52.380318],"type":"Point"},"properties":{"osm_id":"311094632","tag":{"amenity":"recycling","recycling:clothes":"yes","recycling:glass_bottles":"yes","recycling_type":"container"}},"type":"Feature"},
	{"geometry":{"coordinates":[13.040878,52.394578],"type":"Point"},"properties":{"osm_id":"315902626","tag":{"amenity":"recycling","location":"overground","opening_hours":"Mo-Fr 07:00-20:00, PH,Su off","operator":"Step","recycling:glass_bottles":"yes","recycling_type":"container"}},"type":"Feature"},
	{"geometry":{"coordinates":[13.036582,52.413898],"type":"Point"},"properties":{"osm_id":"369767794","tag":{"amenity":"recycling","opening_hours":"Mo-Sa 07:00-20:00; PH,Su closed","operator":"STEP","recycling:glass_bottles":"yes","recycling_type":"container"}},"type":"Feature"},
	{"geometry":{"coordinates":[13.015076,52.393517],"type":"Point"},"properties":{"osm_id":"369934313","tag":{"amenity":"recycling","recycling:clothes":"yes","recycling:glass":"yes","recycling_type":"container"}},"type":"Feature"},
	{"geometry":{"coordinates":[13.022366,52.387828],"type":"Point"},"properties":{"osm_id":"372534689","tag":{"amenity":"recycling","opening_hours":"Mo-Sa 07:00-20:00; PH,Su closed","operator":"Step","recycling:glass_bottles":"yes","recycling_type":"container"}},"type":"Feature"},
	{"geometry":{"coordinates":[13.07931,52.39204],"type":"Point"},"properties":{"osm_id":"379666881","tag":{"amenity":"recycling","location":"overground","recycling:clothes":"yes","recycling:glass_bottles":"yes","recycling_type":"container"}},"type":"Feature"},
	{"geometry":{"coordinates":[13.077059,52.38873],"type":"Point"},"properties":{"osm_id":"388240940","tag":{"amenity":"recycling","location":"overground","recycling:clothes":"yes","recycling_type":"container"}},"type":"Feature"},
	{"geometry":{"coordinates":[13.077931,52.385077],"type":"Point"},"properties":{"osm_id":"388690429","tag":{"amenity":"recycling","operator":"Step","recycling:clothes":"yes","recycling:glass_bottles":"yes","recycling_type":"container"}},"type":"Feature"},
	{"geometry":{"coordinates":[13.077216,52.397418],"type":"Point"},"properties":{"osm_id":"389939299","tag":{"amenity":"recycling","recycling:clothes":"yes","recycling:glass":"no","recycling:glass_bottles":"yes","recycling_type":"container"}},"type":"Feature"},
	{"geometry":{"coordinates":[13.034594,52.41287],"type":"Point"},"properties":{"osm_id":"417962400","tag":{"amenity":"recycling","recycling:clothes":"yes","recycling:glass_bottles":"yes","recycling_type":"container"}},"type":"Feature"},
	{"geometry":{"coordinates":[13.034334,52.391675],"type":"Point"},"properties":{"osm_id":"436199643","tag":{"amenity":"recycling","location":"overground","opening_hours":"Mo-Sa 07:00-20:00; PH,Su closed","recycling:clothes":"yes","recycling:glass_bottles":"yes","recycling_type":"container"}},"type":"Feature"},
	{"geometry":{"coordinates":[13.026845,52.392048],"type":"Point"},"properties":{"osm_id":"445347559","tag":{"amenity":"recycling","recycling:clothes":"yes","recycling:glass_bottles":"yes","recycling:shoes":"yes","recycling_type":"container"}},"type":"Feature"},
	{"geometry":{"coordinates":[13.040438,52.390808],"type":"Point"},"properties":{"osm_id":"447977757","tag":{"amenity":"recycling","location":"overground","opening_hours":"Mo-Sa 07:00-20:00; PH,Su off","operator":"Step","recycling:glass_bottles":"yes","recycling_type":"container"}},"type":"Feature"},
	{"geometry":{"coordinates":[13.081007,52.377236],"type":"Point"},"properties":{"osm_id":"452649656","tag":{"amenity":"recycling","opening_hours":"Mo-Sa 08:00-20:00","recycling:clothes":"yes","recycling:glass_bottles":"yes","recycling_type":"container","wheelchair":"limited"}},"type":"Feature"},
	{"geometry":{"coordinates":[13.041125,52.392425],"type":"Point"},"properties":{"osm_id":"456793939","tag":{"amenity":"recycling","location":"overground","recycling:clothes":"yes","recycling:glass":"yes","recycling_type":"container"}},"type":"Feature"},
	{"geometry":{"coordinates":[13.049396,52.395318],"type":"Point"},"properties":{"osm_id":"459667504","tag":{"amenity":"recycling","location":"overground","opening_hours":"Mo-Sa 07:00-20:00; PH,Su closed","recycling:clothes":"yes","recycling:glass_bottles":"yes","recycling_type":"container"}},"type":"Feature"},
	{"geometry":{"coordinates":[13.069748,52.39823],"type":"Point"},"properties":{"osm_id":"517969239","tag":{"amenity":"recycling","location":"overground","recycling:clothes":"yes","recycling:glass":"yes","recycling:glass_bottles":"yes","recycling_type":"container"}},"type":"Feature"},
	{"geometry":{"coordinates":[13.065822,52.398223],"type":"Point"},"properties":{"osm_id":"524287889","tag":{"amenity":"recycling","opening_hours":"Mo-Sa 07:00-20:00; PH,Su closed","operator":"Step","recycling:clothes":"yes","recycling:glass_bottles":"yes","recycling_type":"container"}},"type":"Feature"},
	{"geometry":{"coordinates":[13.062925,52.396604],"type":"Point"},"properties":{"osm_id":"565641573","tag":{"amenity":"recycling","location":"overground","opening_hours":"Mo-Sa 07:00-20:00; PH,Su closed","recycling:clothes":"yes","recycling:glass_bottles":"yes","recycling_type":"container"}},"type":"Feature"},
	{"geometry":{"coordinates":[13.0578,52.397296],"type":"Point"},"properties":{"osm_id":"582239622","tag":{"amenity":"recycling","recycling:glass_bottles":"yes","recycling_type":"container"}},"type":"Feature"},
	{"geometry":{"coordinates":[13.066749,52.398465],"type":"Point"},"properties":{"osm_id":"607969599","tag":{"amenity":"recycling","location":"overground","recycling:clothes":"yes","recycling_type":"container"}},"type":"Feature"},
	{"geometry":{"coordinates":[13.091047,52.378088],"type":"Point"},"properties":{"osm_id":"663345379","tag":{"amenity":"recycling","recycling:cans":"yes","recycling:paper":"yes","recycling_type":"container"}},"type":"Feature"},
	{"geometry":{"coordinates":[13.092724,52.377977],"type":"Point"},"properties":{"osm_id":"663345380","tag":{"amenity":"recycling","location":"overground","recycling:cans":"yes","recycling:paper":"yes","recycling_type":"container"}},"type":"Feature"},
	{"geometry":{"coordinates":[13.09201,52.377378],"type":"Point"},"properties":{"osm_id":"663345381","tag":{"amenity":"recycling","recycling:cans":"yes","recycling:paper":"yes","recycling_type":"container"}},"type":"Feature"},
	{"geometry":{"coordinates":[13.092153,52.377417],"type":"Point"},"properties":{"osm_id":"663345382","tag":{"amenity":"recycling","recycling:clothes":"yes","recycling:glass_bottles":"yes","recycling_type":"container"}},"type":"Feature"},
	{"geometry":{"coordinates":[13.091518,52.376885],"type":"Point"},"properties":{"osm_id":"664655992","tag":{"amenity":"recycling","location":"overground","recycling:cans":"yes","recycling:paper":"yes","recycling_type":"container"}},"type":"Feature"},
	{"geometry":{"coordinates":[13.092173,52.377177],"type":"Point"},"properties":{"osm_id":"664656105","tag":{"amenity":"recycling","location":"overground","recycling:cans":"yes","recycling:paper":"yes","recycling_type":"container"}},"type":"Feature"},
	{"geometry":{"coordinates":[13.090995,52.377402],"type":"Point"},"properties":{"osm_id":"664656106","tag":{"amenity":"recycling","recycling:cans":"yes","recycling:paper":"yes","recycling_type":"container"}},"type":"Feature"},
	{"geometry":{"coordinates":[13.060708,52.400446],"type":"Point"},"properties":{"osm_id":"669221788","tag":{"amenity":"recycling","recycling:clothes":"yes","recycling:glass_bottles":"yes","recycling_type":"container"}},"type":"Feature"},
	{"geometry":{"coordinates":[13.065349,52.388904],"type":"Point"},"properties":{"osm_id":"938054874","tag":{"amenity":"recycling","covered":"no","operator":"FWS","recycling:clothes":"yes","recycling:shoes":"yes","recycling_type":"container"}},"type":"Feature"},
	{"geometry":{"coordinates":[13.066235,52.409804],"type":"Point"},"properties":{"osm_id":"987698966","tag":{"amenity":"waste_basket"}},"type":"Feature"},
	{"geometry":{"coordinates":[13.07237,52.410771],"type":"Point"},"properties":{"osm_id":"987698996","tag":{"amenity":"waste_basket"}},"type":"Feature"},
	{"geometry":{"coordinates":[13.072668,52.411025],"type":"Point"},"properties":{"osm_id":"987699023","tag":{"amenity":"waste_basket"}},"type":"Feature"},
	{"geometry":{"coordinates":[13.075183,52.410466],"type":"Point"},"properties":{"osm_id":"987699069","tag":{"amenity":"recycling","description":"Glascontainer","location":"overground","opening_hours":"Mo-Sa 07:00-20:00; PH,Su off","operator":"Step","recycling:glass_bottles":"yes","recycling_type":"container"}},"type":"Feature"},
	{"geometry":{"coordinates":[13.067397,52.406213],"type":"Point"},"properties":{"osm_id":"987699071","tag":{"amenity":"waste_basket"}},"type":"Feature"},
	{"geometry":{"coordinates":[13.065392,52.410446],"type":"Point"},"properties":{"osm_id":"987699157","tag":{"amenity":"waste_basket"}},"type":"Feature"},
	{"geometry":{"coordinates":[13.07297,52.410431],"type":"Point"},"properties":{"osm_id":"987699185","tag":{"amenity":"waste_basket"}},"type":"Feature"},
	{"geometry":{"coordinates":[13.029232,52.405001],"type":"Point"},"properties":{"osm_id":"987905174","tag":{"amenity":"waste_basket"}},"type":"Feature"},
	{"geometry":{"coordinates":[13.028789,52.411014],"type":"Point"},"properties":{"osm_id":"989288023","tag":{"amenity":"waste_basket"}},"type":"Feature"},
	{"geometry":{"coordinates":[13.028432,52.411623],"type":"Point"},"properties":{"osm_id":"989288040","tag":{"amenity":"waste_basket"}},"type":"Feature"},
	{"geometry":{"coordinates":[13.092928,52.407902],"type":"Point"},"properties":{"osm_id":"1198781648","tag":{"amenity":"waste_basket"}},"type":"Feature"},
	{"geometry":{"coordinates":[13.091846,52.38189],"type":"Point"},"properties":{"osm_id":"1329561557","tag":{"amenity":"recycling","recycling:clothes":"yes","recycling:glass_bottles":"yes","recycling_type":"container"}},"type":"Feature"},
	{"geometry":{"coordinates":[13.092988,52.379183],"type":"Point"},"properties":{"osm_id":"1330794502","tag":{"amenity":"recycling","recycling:clothes":"yes","recycling:glass_bottles":"yes","recycling_type":"container"}},"type":"Feature"},
	{"geometry":{"coordinates":[13.063595,52.406183],"type":"Point"},"properties":{"osm_id":"1421780495","tag":{"amenity":"recycling","location":"overground","recycling:clothes":"yes","recycling:glass":"yes","recycling_type":"container"}},"type":"Feature"},
	{"geometry":{"coordinates":[13.05447,52.417437],"type":"Point"},"properties":{"osm_id":"1651978154","tag":{"amenity":"waste_basket"}},"type":"Feature"},
	{"geometry":{"coordinates":[13.052099,52.416838],"type":"Point"},"properties":{"osm_id":"1652018240","tag":{"amenity":"waste_basket"}},"type":"Feature"},
	{"geometry":{"coordinates":[13.034344,52.413743],"type":"Point"},"properties":{"osm_id":"1727635022","tag":{"amenity":"recycling","recycling_type":"container"}},"type":"Feature"},
	{"geometry":{"coordinates":[13.075828,52.402696],"type":"Point"},"properties":{"osm_id":"1810294265","tag":{"amenity":"waste_basket"}},"type":"Feature"},
	{"geometry":{"coordinates":[13.041395,52.385748],"type":"Point"},"properties":{"osm_id":"2032550423","tag":{"amenity":"recycling","location":"overground","operator":"Step","recycling:clothes":"yes","recycling:glass_bottles":"yes","recycling_type":"container"}},"type":"Feature"},
	{"geometry":{"coordinates":[13.083074,52.409836],"type":"Point"},"properties":{"osm_id":"2110739996","tag":{"amenity":"waste_disposal"}},"type":"Feature"},
	{"geometry":{"coordinates":[13.045639,52.415208],"type":"Point"},"properties":{"osm_id":"2312639860","tag":{"amenity":"waste_basket"}},"type":"Feature"},
	{"geometry":{"coordinates":[13.060516,52.385403],"type":"Point"},"properties":{"osm_id":"2371565281","tag":{"amenity":"waste_basket"}},"type":"Feature"},
	{"geometry":{"coordinates":[13.008486,52.404928],"type":"Point"},"properties":{"osm_id":"2408510716","tag":{"amenity":"waste_disposal"}},"type":"Feature"},
	{"geometry":{"coordinates":[13.011022,52.405103],"type":"Point"},"properties":{"osm_id":"2408510784","tag":{"amenity":"waste_disposal"}},"type":"Feature"},
	{"geometry":{"coordinates":[13.027768,52.404062],"type":"Point"},"properties":{"osm_id":"2422733282","tag":{"amenity":"waste_basket"}},"type":"Feature"},
	{"geometry":{"coordinates":[13.063866,52.393882],"type":"Point"},"properties":{"osm_id":"2741637106","tag":{"amenity":"waste_basket"}},"type":"Feature"},
	{"geometry":{"coordinates":[13.064499,52.394262],"type":"Point"},"properties":{"osm_id":"2741637118","tag":{"amenity":"waste_basket"}},"type":"Feature"},
	{"geometry":{"coordinates":[13.064882,52.394508],"type":"Point"},"properties":{"osm_id":"2741637131","tag":{"amenity":"waste_basket"}},"type":"Feature"},
	{"geometry":{"coordinates":[13.032936,52.389905],"type":"Point"},"properties":{"osm_id":"2812619856","tag":{"access":"private","amenity":"waste_disposal"}},"type":"Feature"},
	{"geometry":{"coordinates":[13.043589,52.414021],"type":"Point"},"properties":{"osm_id":"3125539940","tag":{"amenity":"waste_basket"}},"type":"Feature"},
	{"geometry":{"coordinates":[13.095564,52.379744],"type":"Point"},"properties":{"osm_id":"3619147880","tag":{"amenity":"waste_basket"}},"type":"Feature"},
	{"geometry":{"coordinates":[13.078281,52.400333],"type":"Point"},"properties":{"osm_id":"3663363387","tag":{"amenity":"waste_basket"}},"type":"Feature"},
	{"geometry":{"coordinates":[13.050056,52.397932],"type":"Point"},"properties":{"osm_id":"3726344754","tag":{"amenity":"waste_basket"}},"type":"Feature"},
	{"geometry":{"coordinates":[13.066842,52.394508],"type":"Point"},"properties":{"osm_id":"3757033779","tag":{"amenity":"waste_basket"}},"type":"Feature"},
	{"geometry":{"coordinates":[13.067119,52.394595],"type":"Point"},"properties":{"osm_id":"3757033780","tag":{"amenity":"waste_basket"}},"type":"Feature"},
	{"geometry":{"coordinates":[13.067363,52.394674],"type":"Point"},"properties":{"osm_id":"3757033782","tag":{"amenity":"waste_basket"}},"type":"Feature"},
	{"geometry":{"coordinates":[13.067619,52.394763],"type":"Point"},"properties":{"osm_id":"3757033784","tag":{"amenity":"waste_basket"}},"type":"Feature"},
	{"geometry":{"coordinates":[13.069076,52.394593],"type":"Point"},"properties":{"osm_id":"3757033786","tag":{"amenity":"waste_basket"}},"type":"Feature"},
	{"geometry":{"coordinates":[13.05319,52.399313],"type":"Point"},"properties":{"osm_id":"3760749562","tag":{"amenity":"waste_basket"}},"type":"Feature"},
	{"geometry":{"coordinates":[13.092822,52.391388],"type":"Point"},"properties":{"osm_id":"3779184592","tag":{"amenity":"waste_basket","level":"1"}},"type":"Feature"},
	{"geometry":{"coordinates":[13.093755,52.391462],"type":"Point"},"properties":{"osm_id":"3779184595","tag":{"amenity":"waste_basket","level":"1"}},"type":"Feature"},
	{"geometry":{"coordinates":[13.094548,52.377806],"type":"Point"},"properties":{"osm_id":"3799103953","tag":{"amenity":"waste_basket"}},"type":"Feature"},
	{"geometry":{"coordinates":[13.094556,52.37789],"type":"Point"},"properties":{"osm_id":"3799103963","tag":{"amenity":"waste_basket"}},"type":"Feature"},
	{"geometry":{"coordinates":[13.04838,52.399456],"type":"Point"},"properties":{"osm_id":"3810302385","tag":{"amenity":"waste_basket"}},"type":"Feature"},
	{"geometry":{"coordinates":[13.048657,52.399589],"type":"Point"},"properties":{"osm_id":"3810302389","tag":{"amenity":"waste_basket"}},"type":"Feature"},
	{"geometry":{"coordinates":[13.048631,52.399663],"type":"Point"},"properties":{"osm_id":"3810302390","tag":{"amenity":"waste_basket"}},"type":"Feature"},
	{"geometry":{"coordinates":[13.048308,52.399716],"type":"Point"},"properties":{"osm_id":"3810302392","tag":{"amenity":"waste_basket"}},"type":"Feature"},
	{"geometry":{"coordinates":[13.049921,52.399758],"type":"Point"},"properties":{"osm_id":"3810302397","tag":{"amenity":"waste_basket"}},"type":"Feature"},
	{"geometry":{"coordinates":[13.05015,52.399781],"type":"Point"},"properties":{"osm_id":"3810302400","tag":{"amenity":"waste_basket"}},"type":"Feature"},
	{"geometry":{"coordinates":[13.049901,52.399819],"type":"Point"},"properties":{"osm_id":"3810302402","tag":{"amenity":"waste_basket"}},"type":"Feature"},
	{"geometry":{"coordinates":[13.05161,52.399963],"type":"Point"},"properties":{"osm_id":"3810302406","tag":{"amenity":"waste_basket","waste":"trash"}},"type":"Feature"},
	{"geometry":{"coordinates":[13.052033,52.400017],"type":"Point"},"properties":{"osm_id":"3810302408","tag":{"amenity":"waste_basket","waste":"trash"}},"type":"Feature"},
	{"geometry":{"coordinates":[13.051686,52.400047],"type":"Point"},"properties":{"osm_id":"3810302410","tag":{"amenity":"waste_basket","waste":"trash"}},"type":"Feature"},
	{"geometry":{"coordinates":[13.052051,52.40009],"type":"Point"},"properties":{"osm_id":"3810302411","tag":{"amenity":"waste_basket","waste":"trash"}},"type":"Feature"},
	{"geometry":{"coordinates":[13.05329,52.400173],"type":"Point"},"properties":{"osm_id":"3810302413","tag":{"amenity":"waste_basket","waste":"trash"}},"type":"Feature"},
	{"geometry":{"coordinates":[13.05374,52.40023],"type":"Point"},"properties":{"osm_id":"3810302416","tag":{"amenity":"waste_basket","waste":"trash"}},"type":"Feature"},
	{"geometry":{"coordinates":[13.053296,52.400248],"type":"Point"},"properties":{"osm_id":"3810302418","tag":{"amenity":"waste_basket","waste":"trash"}},"type":"Feature"},
	{"geometry":{"coordinates":[13.053757,52.400306],"type":"Point"},"properties":{"osm_id":"3810302419","tag":{"amenity":"waste_basket","waste":"trash"}},"type":"Feature"},
	{"geometry":{"coordinates":[13.055073,52.400479],"type":"Point"},"properties":{"osm_id":"3810302422","tag":{"amenity":"waste_basket"}},"type":"Feature"},
	{"geometry":{"coordinates":[13.055289,52.400505],"type":"Point"},"properties":{"osm_id":"3810302424","tag":{"amenity":"waste_basket"}},"type":"Feature"},
	{"geometry":{"coordinates":[13.056001,52.400509],"type":"Point"},"properties":{"osm_id":"3810302425","tag":{"amenity":"waste_basket"}},"type":"Feature"},
	{"geometry":{"coordinates":[13.055974,52.400604],"type":"Point"},"properties":{"osm_id":"3810302427","tag":{"amenity":"waste_basket"}},"type":"Feature"},
	{"geometry":{"coordinates":[13.056075,52.400639],"type":"Point"},"properties":{"osm_id":"3810302428","tag":{"amenity":"waste_basket"}},"type":"Feature"},
	{"geometry":{"coordinates":[13.057576,52.400725],"type":"Point"},"properties":{"osm_id":"3810302430","tag":{"amenity":"waste_basket"}},"type":"Feature"},
	{"geometry":{"coordinates":[13.057897,52.400756],"type":"Point"},"properties":{"osm_id":"3810302431","tag":{"amenity":"waste_basket"}},"type":"Feature"},
	{"geometry":{"coordinates":[13.057586,52.400797],"type":"Point"},"properties":{"osm_id":"3810302432","tag":{"amenity":"waste_basket"}},"type":"Feature"},
	{"geometry":{"coordinates":[13.057906,52.400843],"type":"Point"},"properties":{"osm_id":"3810302433","tag":{"amenity":"waste_basket"}},"type":"Feature"},
	{"geometry":{"coordinates":[13.031929,52.379933],"type":"Point"},"properties":{"osm_id":"3832375046","tag":{"amenity":"waste_basket"}},"type":"Feature"},
	{"geometry":{"coordinates":[13.066933,52.399759],"type":"Point"},"properties":{"osm_id":"4045337536","tag":{"amenity":"recycling","opening_hours":"Mo-Sa 07:00-20:00; PH,Su closed","recycling:glass_bottles":"yes","recycling_type":"container"}},"type":"Feature"},
	{"geometry":{"coordinates":[13.061543,52.400312],"type":"Point"},"properties":{"osm_id":"4065502094","tag":{"amenity":"waste_basket","waste":"trash"}},"type":"Feature"},
	{"geometry":{"coordinates":[13.059383,52.400734],"type":"Point"},"properties":{"osm_id":"4065502103","tag":{"amenity":"waste_basket","waste":"trash"}},"type":"Feature"},
	{"geometry":{"coordinates":[13.04369,52.426563],"type":"Point"},"properties":{"osm_id":"4126460306","tag":{"amenity":"recycling","opening_hours":"Mo-Sa 07:00-20:00; PH,Su closed","operator":"Stadtentsorgung Potsdam","recycling:glass_bottles":"yes","recycling_type":"container"}},"type":"Feature"},
	{"geometry":{"coordinates":[13.065947,52.408023],"type":"Point"},"properties":{"osm_id":"4331020944","tag":{"amenity":"waste_basket"}},"type":"Feature"},
	{"geometry":{"coordinates":[13.06127,52.397458],"type":"Point"},"properties":{"osm_id":"4386263461","tag":{"amenity":"waste_basket"}},"type":"Feature"},
	{"geometry":{"coordinates":[13.063125,52.397772],"type":"Point"},"properties":{"osm_id":"4386263462","tag":{"amenity":"waste_basket"}},"type":"Feature"},
	{"geometry":{"coordinates":[13.064396,52.397975],"type":"Point"},"properties":{"osm_id":"4386263463","tag":{"amenity":"waste_basket"}},"type":"Feature"},
	{"geometry":{"coordinates":[13.075563,52.397402],"type":"Point"},"properties":{"osm_id":"4682205197","tag":{"access":"permissive","amenity":"recycling","recycling:plastic":"yes","recycling_type":"container"}},"type":"Feature"},
	{"geometry":{"coordinates":[13.075562,52.397407],"type":"Point"},"properties":{"osm_id":"4682205198","tag":{"access":"permissive","amenity":"recycling","recycling:waste":"yes","recycling_type":"container"}},"type":"Feature"},
	{"geometry":{"coordinates":[13.054399,52.402156],"type":"Point"},"properties":{"osm_id":"4786219057","tag":{"amenity":"waste_basket"}},"type":"Feature"},
	{"geometry":{"coordinates":[13.054403,52.402174],"type":"Point"},"properties":{"osm_id":"4786219058","tag":{"amenity":"waste_basket"}},"type":"Feature"},
	{"geometry":{"coordinates":[13.070761,52.395297],"type":"Point"},"properties":{"osm_id":"4857844690","tag":{"amenity":"waste_basket"}},"type":"Feature"},
	{"geometry":{"coordinates":[13.084992,52.392627],"type":"Point"},"properties":{"osm_id":"4908052730","tag":{"amenity":"recycling","recycling:clothes":"yes","recycling:shoes":"yes","recycling_type":"container"}},"type":"Feature"},
	{"geometry":{"coordinates":[13.056279,52.397539],"type":"Point"},"properties":{"osm_id":"4937962492","tag":{"amenity":"waste_basket"}},"type":"Feature"},
	{"geometry":{"coordinates":[13.05726,52.397414],"type":"Point"},"properties":{"osm_id":"4937962497","tag":{"amenity":"waste_basket"}},"type":"Feature"},
	{"geometry":{"coordinates":[13.058492,52.397674],"type":"Point"},"properties":{"osm_id":"4937962499","tag":{"amenity":"waste_basket"}},"type":"Feature"},
	{"geometry":{"coordinates":[13.092298,52.390199],"type":"Point"},"properties":{"osm_id":"4972005790","tag":{"amenity":"waste_basket"}},"type":"Feature"},
	{"geometry":{"coordinates":[13.09249,52.390151],"type":"Point"},"properties":{"osm_id":"4972005791","tag":{"amenity":"waste_basket"}},"type":"Feature"},
	{"geometry":{"coordinates":[13.084558,52.401798],"type":"Point"},"properties":{"osm_id":"5058979993","tag":{"amenity":"waste_basket"}},"type":"Feature"},
	{"geometry":{"coordinates":[13.087955,52.40498],"type":"Point"},"properties":{"osm_id":"5058979994","tag":{"amenity":"waste_basket"}},"type":"Feature"},
	{"geometry":{"coordinates":[13.087293,52.406808],"type":"Point"},"properties":{"osm_id":"5059026305","tag":{"amenity":"waste_basket"}},"type":"Feature"},
	{"geometry":{"coordinates":[13.08477,52.405087],"type":"Point"},"properties":{"osm_id":"5059026307","tag":{"amenity":"waste_basket"}},"type":"Feature"},
	{"geometry":{"coordinates":[13.084037,52.404509],"type":"Point"},"properties":{"osm_id":"5059026787","tag":{"amenity":"waste_basket"}},"type":"Feature"},
	{"geometry":{"coordinates":[13.022512,52.420757],"type":"Point"},"properties":{"osm_id":"5080922731","tag":{"amenity":"recycling","opening_hours":"Mo-Sa 07:00-20:00; PH,Su closed","recycling:clothes":"yes","recycling:glass_bottles":"yes","recycling_type":"container"}},"type":"Feature"},
	{"geometry":{"coordinates":[13.047442,52.398098],"type":"Point"},"properties":{"osm_id":"5184609705","tag":{"amenity":"recycling","recycling:clothes":"yes","recycling:glass_bottles":"yes","recycling_type":"container"}},"type":"Feature"},
	{"geometry":{"coordinates":[13.050653,52.420538],"type":"Point"},"properties":{"osm_id":"5318248819","tag":{"amenity":"recycling","opening_hours":"Mo-Sa 07:00-20:00; PH,Su closed","recycling:clothes":"yes","recycling:glass_bottles":"yes","recycling_type":"container"}},"type":"Feature"},
	{"geometry":{"coordinates":[13.04664,52.414721],"type":"Point"},"properties":{"osm_id":"5343163934","tag":{"amenity":"recycling","opening_hours":"Mo-Fr 07:00-20:00; PH,Su closed","recycling:glass_bottles":"yes","recycling_type":"container"}},"type":"Feature"},
	{"geometry":{"coordinates":[13.049342,52.396067],"type":"Point"},"properties":{"osm_id":"5347335176","tag":{"amenity":"recycling","recycling:clothes":"yes","recycling_type":"container"}},"type":"Feature"},
	{"geometry":{"coordinates":[13.069423,52.402848],"type":"Point"},"properties":{"osm_id":"5347335178","tag":{"amenity":"recycling","opening_hours":"Mo-Sa 07:00-20:00; PH,Su closed","recycling:clothes":"yes","recycling:glass_bottles":"yes","recycling:shoes":"yes","recycling_type":"container"}},"type":"Feature"},
	{"geometry":{"coordinates":[13.063234,52.401809],"type":"Point"},"properties":{"osm_id":"5361532977","tag":{"amenity":"recycling","opening_hours":"Mo-Sa 07:00-20:00; PH,Su closed","recycling:glass_bottles":"yes","recycling_type":"container"}},"type":"Feature"},
	{"geometry":{"coordinates":[13.032397,52.403302],"type":"Point"},"properties":{"osm_id":"5466555616","tag":{"amenity":"waste_basket","waste":"trash"}},"type":"Feature"},
	{"geometry":{"coordinates":[13.035361,52.404611],"type":"Point"},"properties":{"osm_id":"5470856955","tag":{"amenity":"waste_basket"}},"type":"Feature"},
	{"geometry":{"coordinates":[13.036725,52.413843],"type":"Point"},"properties":{"osm_id":"5477398423","tag":{"amenity":"recycling","contact:email":"info@fws.de","contact:phone":"+49 421 346 250","contact:website":"http://www.fws.de/","operator":"FWS GmbH","operator:type":"business","recycling:clothes":"yes","recycling:shoes":"yes","recycling_type":"container"}},"type":"Feature"},
	{"geometry":{"coordinates":[13.043722,52.426619],"type":"Point"},"properties":{"osm_id":"5477398425","tag":{"amenity":"recycling","operator":"FWS","recycling:clothes":"yes","recycling:shoes":"yes","recycling_type":"container","website":"http://www.fws.de"}},"type":"Feature"},
	{"geometry":{"coordinates":[13.054088,52.426007],"type":"Point"},"properties":{"osm_id":"5484212016","tag":{"amenity":"recycling"}},"type":"Feature"},
	{"geometry":{"coordinates":[13.075206,52.410442],"type":"Point"},"properties":{"osm_id":"5525779518","tag":{"amenity":"recycling","operator":"FWS","recycling:clothes":"yes","recycling:shoes":"yes","recycling_type":"container"}},"type":"Feature"},
	{"geometry":{"coordinates":[13.030336,52.392346],"type":"Point"},"properties":{"osm_id":"5531189183","tag":{"amenity":"recycling","operator":"FWS","recycling:clothes":"yes","recycling:shoes":"yes","recycling_type":"container","website":"http://www.FWS.de"}},"type":"Feature"},
	{"geometry":{"coordinates":[13.025782,52.389628],"type":"Point"},"properties":{"osm_id":"5531189185","tag":{"amenity":"recycling","operator":"FWS","recycling:clothes":"yes","recycling:shoes":"yes","recycling_type":"container","website":"http://www.fws.de"}},"type":"Feature"},
	{"geometry":{"coordinates":[13.022409,52.387847],"type":"Point"},"properties":{"osm_id":"5531189190","tag":{"amenity":"recycling","operator":"FWS","recycling:clothes":"yes","recycling:shoes":"yes","recycling_type":"container","website":"http://www.fws.de"}},"type":"Feature"},
	{"geometry":{"coordinates":[13.041151,52.394677],"type":"Point"},"properties":{"osm_id":"5540447046","tag":{"amenity":"recycling","operator":"FWS","recycling:clothes":"yes","recycling:shoes":"yes","recycling_type":"container","website":"http://www.fws.de"}},"type":"Feature"},
	{"geometry":{"coordinates":[13.040569,52.390768],"type":"Point"},"properties":{"osm_id":"5540447047","tag":{"amenity":"recycling","recycling:clothes":"yes","recycling:shoes":"yes","recycling_type":"container"}},"type":"Feature"},
	{"geometry":{"coordinates":[13.043592,52.395263],"type":"Point"},"properties":{"osm_id":"5751196804","tag":{"amenity":"waste_basket"}},"type":"Feature"},
	{"geometry":{"coordinates":[13.090879,52.397494],"type":"Point"},"properties":{"osm_id":"5839747858","tag":{"amenity":"waste_basket","waste":"trash"}},"type":"Feature"},
	{"geometry":{"coordinates":[13.067381,52.382696],"type":"Point"},"properties":{"osm_id":"5859736776","tag":{"amenity":"waste_disposal"}},"type":"Feature"},
	{"geometry":{"coordinates":[13.014729,52.393981],"type":"Point"},"properties":{"osm_id":"5937493926","tag":{"amenity":"waste_basket","waste":"trash"}},"type":"Feature"},
	{"geometry":{"coordinates":[13.047464,52.40142],"type":"Point"},"properties":{"osm_id":"6069894167","tag":{"amenity":"waste_basket","waste":"trash"}},"type":"Feature"},
	{"geometry":{"coordinates":[13.057502,52.403303],"type":"Point"},"properties":{"osm_id":"6070453558","tag":{"amenity":"waste_basket","waste":"trash"}},"type":"Feature"},
	{"geometry":{"coordinates":[13.058375,52.403506],"type":"Point"},"properties":{"osm_id":"6173009847","tag":{"amenity":"waste_basket","waste":"trash"}},"type":"Feature"},
	{"geometry":{"coordinates":[13.074563,52.404804],"type":"Point"},"properties":{"osm_id":"6222669300","tag":{"amenity":"waste_basket","waste":"trash"}},"type":"Feature"},
	{"geometry":{"coordinates":[13.076894,52.409044],"type":"Point"},"properties":{"osm_id":"6227311426","tag":{"amenity":"waste_basket","waste":"trash"}},"type":"Feature"},
	{"geometry":{"coordinates":[13.07702,52.408927],"type":"Point"},"properties":{"osm_id":"6227311427","tag":{"amenity":"waste_basket","waste":"trash"}},"type":"Feature"},
	{"geometry":{"coordinates":[13.051874,52.399112],"type":"Point"},"properties":{"osm_id":"6233147052","tag":{"amenity":"waste_basket","waste":"trash"}},"type":"Feature"},
	{"geometry":{"coordinates":[13.049643,52.39884],"type":"Point"},"properties":{"osm_id":"6237867528","tag":{"amenity":"waste_basket","waste":"trash"}},"type":"Feature"},
	{"geometry":{"coordinates":[13.048492,52.398745],"type":"Point"},"properties":{"osm_id":"6237902487","tag":{"amenity":"waste_basket"}},"type":"Feature"},
	{"geometry":{"coordinates":[13.048903,52.398607],"type":"Point"},"properties":{"osm_id":"6251454079","tag":{"amenity":"waste_basket","waste":"trash"}},"type":"Feature"},
	{"geometry":{"coordinates":[13.051457,52.39913],"type":"Point"},"properties":{"osm_id":"6255340111","tag":{"amenity":"waste_basket","waste":"trash"}},"type":"Feature"},
	{"geometry":{"coordinates":[13.052713,52.425384],"type":"Point"},"properties":{"osm_id":"6265960985","tag":{"amenity":"recycling","operator":"Step","recycling:clothes":"yes","recycling:glass_bottles":"yes","recycling:shoes":"yes","recycling_type":"container"}},"type":"Feature"},
	{"geometry":{"coordinates":[13.061563,52.399817],"type":"Point"},"properties":{"osm_id":"6269447777","tag":{"amenity":"waste_basket","waste":"trash"}},"type":"Feature"},
	{"geometry":{"coordinates":[13.095431,52.39458],"type":"Point"},"properties":{"osm_id":"6281608093","tag":{"amenity":"waste_basket"}},"type":"Feature"},
	{"geometry":{"coordinates":[13.068795,52.390619],"type":"Point"},"properties":{"osm_id":"6326428577","tag":{"amenity":"recycling","operator":"Step","recycling:glass_bottles":"yes","recycling_type":"container"}},"type":"Feature"},
	{"geometry":{"coordinates":[13.068812,52.390762],"type":"Point"},"properties":{"osm_id":"6326428579","tag":{"amenity":"recycling","recycling:clothes":"yes","recycling:shoes":"yes","recycling_type":"container"}},"type":"Feature"},
	{"geometry":{"coordinates":[13.06248,52.403291],"type":"Point"},"properties":{"osm_id":"6326672596","tag":{"amenity":"waste_basket","waste":"trash"}},"type":"Feature"},
	{"geometry":{"coordinates":[13.062773,52.403229],"type":"Point"},"properties":{"osm_id":"6326877410","tag":{"amenity":"waste_basket","waste":"trash"}},"type":"Feature"},
	{"geometry":{"coordinates":[13.056202,52.398672],"type":"Point"},"properties":{"osm_id":"6337772841","tag":{"amenity":"waste_basket","waste":"trash"}},"type":"Feature"},
	{"geometry":{"coordinates":[13.057903,52.398222],"type":"Point"},"properties":{"osm_id":"6357512585","tag":{"amenity":"waste_basket","waste":"trash"}},"type":"Feature"},
	{"geometry":{"coordinates":[13.057972,52.397959],"type":"Point"},"properties":{"osm_id":"6357512587","tag":{"amenity":"waste_basket","waste":"trash"}},"type":"Feature"},
	{"geometry":{"coordinates":[13.065503,52.386824],"type":"Point"},"properties":{"osm_id":"6454272481","tag":{"access":"private","amenity":"waste_disposal","waste":"plastic"}},"type":"Feature"},
	{"geometry":{"coordinates":[13.065595,52.388295],"type":"Point"},"properties":{"osm_id":"6467748522","tag":{"access":"private","amenity":"waste_disposal"}},"type":"Feature"},
	{"geometry":{"coordinates":[13.065595,52.388279],"type":"Point"},"properties":{"osm_id":"6467748523","tag":{"access":"private","amenity":"waste_disposal"}},"type":"Feature"},
	{"geometry":{"coordinates":[13.065592,52.38817],"type":"Point"},"properties":{"osm_id":"6467748524","tag":{"access":"private","amenity":"waste_disposal"}},"type":"Feature"},
	{"geometry":{"coordinates":[13.045583,52.405942],"type":"Point"},"properties":{"osm_id":"6468540817","tag":{"amenity":"waste_basket"}},"type":"Feature"},
	{"geometry":{"coordinates":[13.070085,52.392494],"type":"Point"},"properties":{"osm_id":"6505715003","tag":{"amenity":"waste_disposal","operator":"B&B Hotel"}},"type":"Feature"},
	{"geometry":{"coordinates":[13.031521,52.396021],"type":"Point"},"properties":{"osm_id":"6550991635","tag":{"amenity":"recycling","operator":"DESWOS (Deutsche Entwicklungshilfe f\u00c3\u00bcr soziales Wohnungs- und Siedlungswesen e.V.)","recycling:clothes":"yes","recycling:shoes":"yes","recycling_type":"container"}},"type":"Feature"},
	{"geometry":{"coordinates":[13.06965,52.395421],"type":"Point"},"properties":{"osm_id":"6553813987","tag":{"amenity":"waste_basket","waste":"trash"}},"type":"Feature"},
	{"geometry":{"coordinates":[13.078383,52.390384],"type":"Point"},"properties":{"osm_id":"6584456193","tag":{"amenity":"recycling","operator":"Step","recycling:clothes":"yes","recycling:glass_bottles":"yes","recycling:shoes":"yes","recycling_type":"container"}},"type":"Feature"},
	{"geometry":{"coordinates":[13.060241,52.399599],"type":"Point"},"properties":{"osm_id":"6602808234","tag":{"amenity":"waste_basket","colour":"silver","material":"metal"}},"type":"Feature"},
	{"geometry":{"coordinates":[13.060526,52.39967],"type":"Point"},"properties":{"osm_id":"6602808235","tag":{"amenity":"waste_basket","colour":"silver","material":"metal"}},"type":"Feature"},
	{"geometry":{"coordinates":[13.042122,52.392485],"type":"Point"},"properties":{"osm_id":"6603040718","tag":{"amenity":"waste_basket","colour":"silver","material":"metal"}},"type":"Feature"},
	{"geometry":{"coordinates":[13.062001,52.409539],"type":"Point"},"properties":{"osm_id":"6611568012","tag":{"amenity":"waste_basket","waste":"trash"}},"type":"Feature"},
	{"geometry":{"coordinates":[13.066598,52.414956],"type":"Point"},"properties":{"osm_id":"6611568029","tag":{"amenity":"waste_basket","waste":"trash"}},"type":"Feature"},
	{"geometry":{"coordinates":[13.06378,52.411954],"type":"Point"},"properties":{"osm_id":"6611568056","tag":{"amenity":"waste_basket","waste":"trash"}},"type":"Feature"},
	{"geometry":{"coordinates":[13.051258,52.394981],"type":"Point"},"properties":{"osm_id":"6633301770","tag":{"amenity":"waste_basket","colour":"green","direction":"NNE","material":"metal"}},"type":"Feature"},
	{"geometry":{"coordinates":[13.093676,52.37816],"type":"Point"},"properties":{"osm_id":"6670489795","tag":{"amenity":"recycling","recycling:clothes":"yes","recycling:glass_bottles":"yes","recycling_type":"container"}},"type":"Feature"},
	{"geometry":{"coordinates":[13.061526,52.392079],"type":"Point"},"properties":{"osm_id":"6679796912","tag":{"amenity":"waste_basket"}},"type":"Feature"},
	{"geometry":{"coordinates":[13.061701,52.392145],"type":"Point"},"properties":{"osm_id":"6679796914","tag":{"amenity":"waste_basket"}},"type":"Feature"},
	{"geometry":{"coordinates":[13.071499,52.417574],"type":"Point"},"properties":{"osm_id":"6680027894","tag":{"amenity":"waste_basket"}},"type":"Feature"},
	{"geometry":{"coordinates":[13.06922,52.415085],"type":"Point"},"properties":{"osm_id":"6680027900","tag":{"amenity":"waste_basket"}},"type":"Feature"},
	{"geometry":{"coordinates":[13.070778,52.416185],"type":"Point"},"properties":{"osm_id":"6680027901","tag":{"amenity":"waste_basket"}},"type":"Feature"},
	{"geometry":{"coordinates":[13.075322,52.407743],"type":"Point"},"properties":{"osm_id":"6814953931","tag":{"amenity":"waste_basket","waste":"trash"}},"type":"Feature"},
	{"geometry":{"coordinates":[13.012565,52.419486],"type":"Point"},"properties":{"osm_id":"6837659884","tag":{"amenity":"waste_basket","waste":"trash"}},"type":"Feature"},
	{"geometry":{"coordinates":[13.082331,52.37772],"type":"Point"},"properties":{"osm_id":"7024009178","tag":{"amenity":"waste_basket"}},"type":"Feature"},
	{"geometry":{"coordinates":[13.092933,52.382578],"type":"Point"},"properties":{"osm_id":"7055230926","tag":{"amenity":"waste_basket","material":"steel"}},"type":"Feature"},
	{"geometry":{"coordinates":[13.095264,52.381216],"type":"Point"},"properties":{"osm_id":"7055230931","tag":{"amenity":"waste_basket","material":"steel"}},"type":"Feature"},
	{"geometry":{"coordinates":[13.081385,52.377627],"type":"Point"},"properties":{"osm_id":"7057185128","tag":{"amenity":"waste_basket"}},"type":"Feature"},
	{"geometry":{"coordinates":[13.063293,52.399257],"type":"Point"},"properties":{"osm_id":"7090436645","tag":{"amenity":"waste_basket","waste":"trash"}},"type":"Feature"},
	{"geometry":{"coordinates":[13.053502,52.418542],"type":"Point"},"properties":{"osm_id":"7098303661","tag":{"amenity":"waste_basket"}},"type":"Feature"},
	{"geometry":{"coordinates":[13.053229,52.418729],"type":"Point"},"properties":{"osm_id":"7098303662","tag":{"amenity":"waste_basket"}},"type":"Feature"},
	{"geometry":{"coordinates":[13.065188,52.387236],"type":"Point"},"properties":{"osm_id":"7112994286","tag":{"amenity":"waste_basket"}},"type":"Feature"},
	{"geometry":{"coordinates":[13.046135,52.402245],"type":"Point"},"properties":{"osm_id":"7126097039","tag":{"amenity":"waste_basket","covered":"yes","direction":"NE","material":"metal"}},"type":"Feature"},
	{"geometry":{"coordinates":[13.045691,52.402635],"type":"Point"},"properties":{"osm_id":"7126177499","tag":{"amenity":"waste_basket","covered":"yes","material":"metal"}},"type":"Feature"},
	{"geometry":{"coordinates":[13.039107,52.394951],"type":"Point"},"properties":{"osm_id":"7167013491","tag":{"amenity":"waste_basket","waste":"trash"}},"type":"Feature"},
	{"geometry":{"coordinates":[13.047292,52.399179],"type":"Point"},"properties":{"osm_id":"7178873144","tag":{"amenity":"waste_basket","waste":"trash"}},"type":"Feature"},
	{"geometry":{"coordinates":[13.047239,52.399842],"type":"Point"},"properties":{"osm_id":"7178873150","tag":{"amenity":"waste_basket","waste":"trash"}},"type":"Feature"},
	{"geometry":{"coordinates":[13.048343,52.398154],"type":"Point"},"properties":{"osm_id":"7206513979","tag":{"amenity":"waste_basket","waste":"trash"}},"type":"Feature"},
	{"geometry":{"coordinates":[13.059499,52.398969],"type":"Point"},"properties":{"osm_id":"7261930252","tag":{"amenity":"waste_basket","waste":"trash"}},"type":"Feature"},
	{"geometry":{"coordinates":[13.05967,52.398545],"type":"Point"},"properties":{"osm_id":"7261930253","tag":{"amenity":"waste_basket","waste":"trash"}},"type":"Feature"},
	{"geometry":{"coordinates":[13.059918,52.397934],"type":"Point"},"properties":{"osm_id":"7261930254","tag":{"amenity":"waste_basket","waste":"trash"}},"type":"Feature"},
	{"geometry":{"coordinates":[13.028268,52.389955],"type":"Point"},"properties":{"osm_id":"7296488010","tag":{"amenity":"waste_basket","waste":"trash"}},"type":"Feature"},
	{"geometry":{"coordinates":[13.028289,52.389745],"type":"Point"},"properties":{"osm_id":"7296488022","tag":{"amenity":"waste_basket","waste":"trash"}},"type":"Feature"},
	{"geometry":{"coordinates":[13.094967,52.411195],"type":"Point"},"properties":{"osm_id":"7342978923","tag":{"amenity":"waste_basket","waste":"trash"}},"type":"Feature"},
	{"geometry":{"coordinates":[13.061536,52.388289],"type":"Point"},"properties":{"osm_id":"7394501633","tag":{"access":"private","amenity":"waste_disposal"}},"type":"Feature"},
	{"geometry":{"coordinates":[13.061418,52.396247],"type":"Point"},"properties":{"osm_id":"7413456366","tag":{"amenity":"waste_basket","waste":"trash"}},"type":"Feature"},
	{"geometry":{"coordinates":[13.071816,52.38582],"type":"Point"},"properties":{"osm_id":"7448205961","tag":{"amenity":"waste_basket","waste":"trash"}},"type":"Feature"},
	{"geometry":{"coordinates":[13.071604,52.416544],"type":"Point"},"properties":{"osm_id":"7449310870","tag":{"amenity":"waste_basket","operator":"SPSG"}},"type":"Feature"},
	{"geometry":{"coordinates":[13.073159,52.417433],"type":"Point"},"properties":{"osm_id":"7449310872","tag":{"amenity":"waste_basket","operator":"SPSG"}},"type":"Feature"},
	{"geometry":{"coordinates":[13.058857,52.400868],"type":"Point"},"properties":{"osm_id":"7464945146","tag":{"amenity":"waste_basket","waste":"trash"}},"type":"Feature"},
	{"geometry":{"coordinates":[13.058842,52.400956],"type":"Point"},"properties":{"osm_id":"7464945147","tag":{"amenity":"waste_basket","waste":"trash"}},"type":"Feature"},
	{"geometry":{"coordinates":[13.051334,52.396324],"type":"Point"},"properties":{"osm_id":"7473056837","tag":{"amenity":"recycling","indoor":"yes","level":"2","operator":"NABU","recycling:mobile_phones":"yes","recycling_type":"container"}},"type":"Feature"},
	{"geometry":{"coordinates":[13.034943,52.403776],"type":"Point"},"properties":{"osm_id":"7475675979","tag":{"amenity":"waste_basket","waste":"trash"}},"type":"Feature"},
	{"geometry":{"coordinates":[13.043671,52.395672],"type":"Point"},"properties":{"osm_id":"7503582972","tag":{"amenity":"waste_basket","colour":"silver","covered":"yes","indoor":"no","material":"metal","waste":"trash"}},"type":"Feature"},
	{"geometry":{"coordinates":[13.043471,52.395986],"type":"Point"},"properties":{"osm_id":"7503597188","tag":{"amenity":"waste_basket","colour":"silver","covered":"yes","indoor":"no","material":"metal","waste":"trash"}},"type":"Feature"},
	{"geometry":{"coordinates":[13.02779,52.384053],"type":"Point"},"properties":{"osm_id":"7511371716","tag":{"amenity":"waste_basket","colour":"silver","covered":"yes","material":"metal","waste":"trash"}},"type":"Feature"},
	{"geometry":{"coordinates":[13.04005,52.390336],"type":"Point"},"properties":{"osm_id":"7515029249","tag":{"amenity":"waste_basket","colour":"silver","covered":"no","material":"metal","waste":"trash"}},"type":"Feature"},
	{"geometry":{"coordinates":[13.05547,52.398763],"type":"Point"},"properties":{"osm_id":"7575235942","tag":{"amenity":"waste_basket","colour":"black","covered":"yes","indoor":"no","material":"metal","waste":"trash"}},"type":"Feature"},
	{"geometry":{"coordinates":[13.088139,52.412506],"type":"Point"},"properties":{"osm_id":"7612516253","tag":{"amenity":"waste_basket","waste":"trash"}},"type":"Feature"},
	{"geometry":{"coordinates":[13.05792,52.401864],"type":"Point"},"properties":{"osm_id":"7630060393","tag":{"amenity":"waste_basket","waste":"trash"}},"type":"Feature"},
	{"geometry":{"coordinates":[13.071469,52.395522],"type":"Point"},"properties":{"osm_id":"7690876554","tag":{"amenity":"waste_basket","waste":"trash"}},"type":"Feature"},
	{"geometry":{"coordinates":[13.06224,52.392377],"type":"Point"},"properties":{"osm_id":"7777455936","tag":{"amenity":"waste_basket","waste":"trash"}},"type":"Feature"},
	{"geometry":{"coordinates":[13.008212,52.404452],"type":"Point"},"properties":{"osm_id":"7785289897","tag":{"amenity":"waste_disposal","waste":"trash"}},"type":"Feature"},
	{"geometry":{"coordinates":[13.094991,52.377489],"type":"Point"},"properties":{"osm_id":"7813209449","tag":{"amenity":"waste_basket","waste":"trash"}},"type":"Feature"},
	{"geometry":{"coordinates":[13.085042,52.381211],"type":"Point"},"properties":{"osm_id":"7813209472","tag":{"amenity":"recycling","operator":"Step","recycling:glass_bottles":"yes","recycling_type":"container"}},"type":"Feature"},
	{"geometry":{"coordinates":[13.094535,52.377586],"type":"Point"},"properties":{"osm_id":"7813209483","tag":{"amenity":"waste_basket","waste":"trash"}},"type":"Feature"},
	{"geometry":{"coordinates":[13.093152,52.377912],"type":"Point"},"properties":{"osm_id":"7813209484","tag":{"amenity":"waste_basket","waste":"trash"}},"type":"Feature"},
	{"geometry":{"coordinates":[13.095221,52.377498],"type":"Point"},"properties":{"osm_id":"7813230087","tag":{"amenity":"waste_basket","waste":"trash"}},"type":"Feature"},
	{"geometry":{"coordinates":[13.088089,52.411169],"type":"Point"},"properties":{"osm_id":"7813230088","tag":{"amenity":"waste_basket","waste":"trash"}},"type":"Feature"},
	{"geometry":{"coordinates":[13.088897,52.382196],"type":"Point"},"properties":{"osm_id":"7833606375","tag":{"amenity":"recycling","recycling:clothes":"yes","recycling:shoes":"yes","recycling_type":"container"}},"type":"Feature"},
	{"geometry":{"coordinates":[13.094999,52.391132],"type":"Point"},"properties":{"osm_id":"7887684037","tag":{"amenity":"waste_basket","waste":"trash"}},"type":"Feature"},
	{"geometry":{"coordinates":[13.074092,52.380249],"type":"Point"},"properties":{"osm_id":"7925422863","tag":{"amenity":"waste_basket","colour":"darkgreen","covered":"yes","direction":"220","material":"metal"}},"type":"Feature"}
]
}
