{
"type": "FeatureCollection",
"features": [
	{"geometry":{"coordinates":[13.091079,52.369791],"type":"Point"},"properties":{"osm_id":"452651538","tag":{"amenity":"recycling","location":"overground","operator":"Step","recycling:clothes":"yes","recycling:glass_bottles":"yes","recycling_type":"container"}},"type":"Feature"},
	{"geometry":{"coordinates":[13.090143,52.369119],"type":"Point"},"properties":{"osm_id":"452651542","tag":{"amenity":"recycling","location":"overground","recycling:clothes":"yes","recycling:glass_bottles":"yes","recycling:shoes":"yes","recycling_type":"container"}},"type":"Feature"},
	{"geometry":{"coordinates":[13.095403,52.361442],"type":"Point"},"properties":{"osm_id":"452657626","tag":{"amenity":"recycling","operator":"Step","recycling:clothes":"yes","recycling:glass_bottles":"yes","recycling_type":"container"}},"type":"Feature"},
	{"geometry":{"coordinates":[13.094826,52.358946],"type":"Point"},"properties":{"osm_id":"1262095016","tag":{"amenity":"recycling","recycling:glass_bottles":"yes","recycling_type":"container"}},"type":"Feature"},
	{"geometry":{"coordinates":[13.074719,52.325067],"type":"Point"},"properties":{"osm_id":"1278529067","tag":{"amenity":"recycling","recycling:glass":"yes"}},"type":"Feature"},
	{"geometry":{"coordinates":[13.090621,52.357358],"type":"Point"},"properties":{"osm_id":"1853467236","tag":{"amenity":"recycling","location":"overground","recycling:glass_bottles":"yes","recycling_type":"container"}},"type":"Feature"},
	{"geometry":{"coordinates":[13.085187,52.375581],"type":"Point"},"properties":{"osm_id":"2267308762","tag":{"amenity":"recycling","recycling:clothes":"yes","recycling:glass_bottles":"yes","recycling_type":"container"}},"type":"Feature"},
	{"geometry":{"coordinates":[13.092896,52.372466],"type":"Point"},"properties":{"osm_id":"2275864933","tag":{"amenity":"recycling","operator":"Step","recycling:glass_bottles":"yes","recycling_type":"container"}},"type":"Feature"},
	{"geometry":{"coordinates":[13.087231,52.367438],"type":"Point"},"properties":{"osm_id":"2286049419","tag":{"amenity":"recycling","operator":"FWS","recycling:clothes":"yes","recycling_type":"container"}},"type":"Feature"},
	{"geometry":{"coordinates":[13.09123,52.36263],"type":"Point"},"properties":{"osm_id":"2286071831","tag":{"amenity":"recycling","location":"overground","operator":"Step","recycling:clothes":"yes","recycling:glass_bottles":"yes","recycling:shoes":"yes","recycling_type":"container"}},"type":"Feature"},
	{"geometry":{"coordinates":[13.08726,52.363686],"type":"Point"},"properties":{"osm_id":"2286071835","tag":{"amenity":"recycling","operator":"Step","recycling:clothes":"yes","recycling:glass_bottles":"yes","recycling_type":"container"}},"type":"Feature"},
	{"geometry":{"coordinates":[13.08987,52.364394],"type":"Point"},"properties":{"osm_id":"2290756824","tag":{"amenity":"recycling","location":"overground","recycling:clothes":"yes","recycling:glass":"yes","recycling_type":"container"}},"type":"Feature"},
	{"geometry":{"coordinates":[13.091269,52.360288],"type":"Point"},"properties":{"osm_id":"2290796104","tag":{"amenity":"recycling","location":"overground","operator":"Step","recycling:glass_bottles":"yes","recycling_type":"container"}},"type":"Feature"},
	{"geometry":{"coordinates":[13.08493,52.364115],"type":"Point"},"properties":{"osm_id":"4297116136","tag":{"amenity":"waste_basket"}},"type":"Feature"},
	{"geometry":{"coordinates":[13.058712,52.331314],"type":"Point"},"properties":{"osm_id":"4857688132","tag":{"amenity":"recycling","recycling:clothes":"yes","recycling:glass":"yes","recycling_type":"container"}},"type":"Feature"},
	{"geometry":{"coordinates":[13.092506,52.358221],"type":"Point"},"properties":{"osm_id":"6378914303","tag":{"amenity":"recycling","operator":"Step","recycling:clothes":"yes","recycling:glass_bottles":"yes","recycling_type":"container"}},"type":"Feature"},
	{"geometry":{"coordinates":[13.088822,52.362882],"type":"Point"},"properties":{"osm_id":"6498827519","tag":{"amenity":"recycling","operator":"Step","recycling:clothes":"yes","recycling:glass_bottles":"yes","recycling_type":"container"}},"type":"Feature"},
	{"geometry":{"coordinates":[13.011695,52.369136],"type":"Point"},"properties":{"osm_id":"6535932328","tag":{"amenity":"waste_basket"}},"type":"Feature"},
	{"geometry":{"coordinates":[13.095068,52.363578],"type":"Point"},"properties":{"osm_id":"6611449956","tag":{"amenity":"waste_basket","waste":"trash"}},"type":"Feature"},
	{"geometry":{"coordinates":[13.095166,52.363564],"type":"Point"},"properties":{"osm_id":"6611449958","tag":{"amenity":"waste_basket","waste":"trash"}},"type":"Feature"},
	{"geometry":{"coordinates":[13.058657,52.325187],"type":"Point"},"properties":{"osm_id":"6817129298","tag":{"amenity":"recycling","recycling:clothes":"yes","recycling:shoes":"yes","recycling_type":"container"}},"type":"Feature"},
	{"geometry":{"coordinates":[13.032918,52.324184],"type":"Point"},"properties":{"osm_id":"6973971260","tag":{"amenity":"recycling","recycling:glass_bottles":"yes","recycling_type":"container"}},"type":"Feature"},
	{"geometry":{"coordinates":[13.095185,52.368944],"type":"Point"},"properties":{"osm_id":"6996249981","tag":{"amenity":"recycling","recycling:clothes":"yes","recycling:shoes":"yes","recycling_type":"container"}},"type":"Feature"},
	{"geometry":{"coordinates":[13.082966,52.373466],"type":"Point"},"properties":{"osm_id":"7025955377","tag":{"amenity":"waste_basket"}},"type":"Feature"},
	{"geometry":{"coordinates":[13.086763,52.367477],"type":"Point"},"properties":{"osm_id":"7066837987","tag":{"amenity":"recycling","operator":"Step","recycling:glass_bottles":"yes","recycling_type":"container"}},"type":"Feature"},
	{"geometry":{"coordinates":[13.089095,52.373661],"type":"Point"},"properties":{"osm_id":"7911140647","tag":{"amenity":"recycling","recycling:clothes":"yes","recycling:shoes":"yes","recycling_type":"container"}},"type":"Feature"},
	{"geometry":{"coordinates":[13.014244,52.350058],"type":"Point"},"properties":{"osm_id":"9103638512","tag":{"amenity":"waste_basket"}},"type":"Feature"}
]
}
