{
"type": "FeatureCollection",
"features": [
	{"geometry":{"coordinates":[13.047135,52.313645],"type":"Point"},"properties":{"osm_id":"864633499","tag":{"amenity":"recycling"}},"type":"Feature"},
	{"geometry":{"coordinates":[13.062226,52.312896],"type":"Point"},"properties":{"osm_id":"1552724857","tag":{"amenity":"recycling","recycling:glass":"yes","recycling:glass_bottles":"yes","recycling_type":"container"}},"type":"Feature"},
	{"geometry":{"coordinates":[13.031688,52.308356],"type":"Point"},"properties":{"osm_id":"2266872807","tag":{"addr:street":"Schulstra\u00c3\u009fe","amenity":"recycling","recycling:clothes":"yes","recycling:glass":"yes","recycling_type":"container"}},"type":"Feature"},
	{"geometry":{"coordinates":[13.017897,52.307857],"type":"Point"},"properties":{"osm_id":"2266873734","tag":{"addr:street":"Schmerberger Stra\u00c3\u009fe","amenity":"recycling","recycling:clothes":"yes","recycling:glass":"yes","recycling_type":"container"}},"type":"Feature"},
	{"geometry":{"coordinates":[13.027666,52.310649],"type":"Point"},"properties":{"osm_id":"2517895119","tag":{"amenity":"recycling","recycling:clothes":"yes","recycling_type":"container"}},"type":"Feature"},
	{"geometry":{"coordinates":[13.078006,52.270235],"type":"Point"},"properties":{"osm_id":"2949652238","tag":{"amenity":"recycling","recycling:clothes":"yes","recycling:glass":"yes","recycling_type":"container"}},"type":"Feature"},
	{"geometry":{"coordinates":[13.018436,52.289383],"type":"Point"},"properties":{"osm_id":"5446322761","tag":{"amenity":"recycling","recycling:clothes":"yes","recycling_type":"container"}},"type":"Feature"},
	{"geometry":{"coordinates":[13.036496,52.31408],"type":"Point"},"properties":{"osm_id":"6751769281","tag":{"amenity":"recycling","recycling:clothes":"yes","recycling:glass_bottles":"yes","recycling:shoes":"yes","recycling_type":"container"}},"type":"Feature"},
	{"geometry":{"coordinates":[13.062259,52.312871],"type":"Point"},"properties":{"osm_id":"8004531064","tag":{"amenity":"recycling","recycling:clothes":"yes","recycling:shoes":"yes","recycling_type":"container"}},"type":"Feature"},
	{"geometry":{"coordinates":[13.016442,52.271015],"type":"Point"},"properties":{"osm_id":"8019269174","tag":{"amenity":"recycling","recycling:glass_bottles":"yes","recycling_type":"container"}},"type":"Feature"}
]
}
