{
"type": "FeatureCollection",
"features": [
	{"geometry":{"coordinates":[13.070304,51.988685],"type":"Point"},"properties":{"osm_id":"270197714","tag":{"amenity":"recycling","recycling:clothes":"yes","recycling_type":"container"}},"type":"Feature"},
	{"geometry":{"coordinates":[13.087082,51.994283],"type":"Point"},"properties":{"osm_id":"278768657","tag":{"amenity":"recycling","recycling:clothes":"yes","recycling:glass":"yes"}},"type":"Feature"},
	{"geometry":{"coordinates":[13.072636,51.998244],"type":"Point"},"properties":{"osm_id":"279625310","tag":{"amenity":"recycling","recycling:clothes":"yes","recycling:glass":"yes","recycling_type":"container"}},"type":"Feature"},
	{"geometry":{"coordinates":[13.074598,51.993665],"type":"Point"},"properties":{"osm_id":"279630694","tag":{"amenity":"recycling","recycling:clothes":"yes"}},"type":"Feature"},
	{"geometry":{"coordinates":[13.074578,51.991222],"type":"Point"},"properties":{"osm_id":"279674142","tag":{"amenity":"recycling","recycling:clothes":"no","recycling:glass":"yes"}},"type":"Feature"},
	{"geometry":{"coordinates":[13.071909,51.984662],"type":"Point"},"properties":{"osm_id":"280616522","tag":{"amenity":"recycling","mapillary":"ctX6snJ7xZphc3ZA8cvYRA","recycling:clothes":"yes","recycling:glass":"yes","recycling_type":"container","survey:date":"2018-10-10"}},"type":"Feature"},
	{"geometry":{"coordinates":[13.081912,51.994648],"type":"Point"},"properties":{"osm_id":"281801054","tag":{"amenity":"recycling","recycling:clothes":"yes","recycling:glass":"yes"}},"type":"Feature"},
	{"geometry":{"coordinates":[13.087434,51.948618],"type":"Point"},"properties":{"osm_id":"286374835","tag":{"amenity":"recycling","mapillary":"bW3Ty303qK4G5PmocyU24w","recycling:glass":"yes","recycling_type":"container","survey:date":"2018-02-10"}},"type":"Feature"},
	{"geometry":{"coordinates":[13.047663,51.965933],"type":"Point"},"properties":{"osm_id":"287746807","tag":{"amenity":"recycling","recycling:glass":"yes"}},"type":"Feature"},
	{"geometry":{"coordinates":[13.063419,51.992728],"type":"Point"},"properties":{"osm_id":"288502336","tag":{"amenity":"recycling","recycling:clothes":"yes","recycling:glass":"yes"}},"type":"Feature"},
	{"geometry":{"coordinates":[13.082592,51.987918],"type":"Point"},"properties":{"osm_id":"455760486","tag":{"amenity":"recycling","recycling:paper":"yes"}},"type":"Feature"},
	{"geometry":{"coordinates":[13.011663,51.970328],"type":"Point"},"properties":{"osm_id":"583066283","tag":{"amenity":"recycling","recycling:glass":"yes","recycling_type":"container"}},"type":"Feature"},
	{"geometry":{"coordinates":[13.051426,51.997892],"type":"Point"},"properties":{"osm_id":"3889238157","tag":{"amenity":"recycling","recycling:glass_bottles":"yes","recycling_type":"container"}},"type":"Feature"},
	{"geometry":{"coordinates":[13.051086,51.997967],"type":"Point"},"properties":{"osm_id":"3889238158","tag":{"amenity":"recycling","recycling:clothes":"yes","recycling_type":"container"}},"type":"Feature"},
	{"geometry":{"coordinates":[13.067658,51.99057],"type":"Point"},"properties":{"osm_id":"3889438196","tag":{"amenity":"recycling","recycling:clothes":"yes","recycling_type":"container"}},"type":"Feature"},
	{"geometry":{"coordinates":[13.051042,51.994026],"type":"Point"},"properties":{"osm_id":"3889438197","tag":{"amenity":"recycling","recycling:clothes":"yes","recycling_type":"container"}},"type":"Feature"},
	{"geometry":{"coordinates":[13.074126,51.991707],"type":"Point"},"properties":{"osm_id":"3890274420","tag":{"amenity":"recycling","recycling:clothes":"yes","recycling:paper":"yes","recycling_type":"centre"}},"type":"Feature"},
	{"geometry":{"coordinates":[13.052137,51.995213],"type":"Point"},"properties":{"osm_id":"4066944917","tag":{"amenity":"recycling","recycling:clothes":"yes","recycling_type":"container"}},"type":"Feature"},
	{"geometry":{"coordinates":[13.070221,51.98862],"type":"Point"},"properties":{"osm_id":"4169479773","tag":{"amenity":"recycling","recycling:glass":"yes","recycling_type":"container"}},"type":"Feature"},
	{"geometry":{"coordinates":[13.06698,51.992395],"type":"Point"},"properties":{"osm_id":"4699651346","tag":{"amenity":"waste_basket"}},"type":"Feature"},
	{"geometry":{"coordinates":[13.06577,51.992595],"type":"Point"},"properties":{"osm_id":"4699651348","tag":{"amenity":"waste_basket"}},"type":"Feature"},
	{"geometry":{"coordinates":[13.062301,51.99338],"type":"Point"},"properties":{"osm_id":"4699651354","tag":{"amenity":"waste_basket"}},"type":"Feature"},
	{"geometry":{"coordinates":[13.061641,51.993499],"type":"Point"},"properties":{"osm_id":"4699651356","tag":{"amenity":"waste_basket"}},"type":"Feature"},
	{"geometry":{"coordinates":[13.09009,51.99008],"type":"Point"},"properties":{"osm_id":"4699694083","tag":{"amenity":"waste_basket"}},"type":"Feature"},
	{"geometry":{"coordinates":[13.086322,51.990539],"type":"Point"},"properties":{"osm_id":"4699695089","tag":{"amenity":"waste_basket"}},"type":"Feature"},
	{"geometry":{"coordinates":[13.083573,51.990633],"type":"Point"},"properties":{"osm_id":"4699695094","tag":{"amenity":"waste_basket"}},"type":"Feature"},
	{"geometry":{"coordinates":[13.080833,51.990531],"type":"Point"},"properties":{"osm_id":"4699695099","tag":{"amenity":"waste_basket"}},"type":"Feature"},
	{"geometry":{"coordinates":[13.073249,51.990333],"type":"Point"},"properties":{"osm_id":"4699695101","tag":{"amenity":"waste_basket"}},"type":"Feature"},
	{"geometry":{"coordinates":[13.069711,51.988394],"type":"Point"},"properties":{"osm_id":"5031884372","tag":{"amenity":"waste_basket"}},"type":"Feature"},
	{"geometry":{"coordinates":[13.061644,51.99339],"type":"Point"},"properties":{"osm_id":"5031884373","tag":{"amenity":"waste_basket"}},"type":"Feature"},
	{"geometry":{"coordinates":[13.058721,51.993986],"type":"Point"},"properties":{"osm_id":"5031884374","tag":{"amenity":"waste_basket"}},"type":"Feature"},
	{"geometry":{"coordinates":[13.015831,51.969081],"type":"Point"},"properties":{"osm_id":"5031922076","tag":{"amenity":"recycling","recycling:clothes":"yes","recycling_type":"container"}},"type":"Feature"},
	{"geometry":{"coordinates":[13.045348,51.966638],"type":"Point"},"properties":{"osm_id":"5418567532","tag":{"amenity":"recycling","recycling:clothes":"yes","recycling_type":"container"}},"type":"Feature"},
	{"geometry":{"coordinates":[13.05639,51.99717],"type":"Point"},"properties":{"osm_id":"5436118790","tag":{"amenity":"recycling","recycling:clothes":"yes","recycling_type":"container"}},"type":"Feature"},
	{"geometry":{"coordinates":[13.056434,51.9972],"type":"Point"},"properties":{"osm_id":"5436118791","tag":{"amenity":"recycling","recycling:glass":"yes","recycling_type":"container"}},"type":"Feature"}
]
}
