{
"type": "FeatureCollection",
"features": [
	{"geometry":{"coordinates":[13.070416,50.744498],"type":"Point"},"properties":{"osm_id":"618756629","tag":{"amenity":"recycling","recycling:glass":"yes"}},"type":"Feature"},
	{"geometry":{"coordinates":[13.080513,50.743982],"type":"Point"},"properties":{"osm_id":"623963127","tag":{"amenity":"recycling","location":"overground","recycling:glass":"yes","recycling_type":"container"}},"type":"Feature"},
	{"geometry":{"coordinates":[13.069783,50.749615],"type":"Point"},"properties":{"osm_id":"747881912","tag":{"amenity":"recycling","recycling:clothes":"yes","recycling:glass_bottles":"yes"}},"type":"Feature"},
	{"geometry":{"coordinates":[13.014575,50.766087],"type":"Point"},"properties":{"osm_id":"828792265","tag":{"amenity":"recycling"}},"type":"Feature"},
	{"geometry":{"coordinates":[13.076733,50.746219],"type":"Point"},"properties":{"osm_id":"1768899476","tag":{"amenity":"recycling","recycling:glass":"yes","recycling_type":"container"}},"type":"Feature"},
	{"geometry":{"coordinates":[13.074936,50.752023],"type":"Point"},"properties":{"osm_id":"3128126344","tag":{"amenity":"recycling","recycling:clothes":"yes","recycling:glass":"yes"}},"type":"Feature"},
	{"geometry":{"coordinates":[13.072693,50.748882],"type":"Point"},"properties":{"osm_id":"3228740172","tag":{"amenity":"waste_basket"}},"type":"Feature"},
	{"geometry":{"coordinates":[13.072271,50.748917],"type":"Point"},"properties":{"osm_id":"3228740175","tag":{"amenity":"waste_basket"}},"type":"Feature"},
	{"geometry":{"coordinates":[13.069896,50.74956],"type":"Point"},"properties":{"osm_id":"3228740183","tag":{"amenity":"recycling","recycling:clothes":"yes","recycling:glass":"yes"}},"type":"Feature"},
	{"geometry":{"coordinates":[13.072703,50.749944],"type":"Point"},"properties":{"osm_id":"3228740194","tag":{"amenity":"waste_basket"}},"type":"Feature"},
	{"geometry":{"coordinates":[13.073205,50.750572],"type":"Point"},"properties":{"osm_id":"3228740198","tag":{"amenity":"waste_basket"}},"type":"Feature"},
	{"geometry":{"coordinates":[13.072833,50.748337],"type":"Point"},"properties":{"osm_id":"3228740905","tag":{"amenity":"waste_basket"}},"type":"Feature"},
	{"geometry":{"coordinates":[13.072414,50.74874],"type":"Point"},"properties":{"osm_id":"3228740909","tag":{"amenity":"waste_basket"}},"type":"Feature"},
	{"geometry":{"coordinates":[13.074821,50.751576],"type":"Point"},"properties":{"osm_id":"3228741065","tag":{"amenity":"waste_basket"}},"type":"Feature"},
	{"geometry":{"coordinates":[13.073912,50.751587],"type":"Point"},"properties":{"osm_id":"3228741067","tag":{"amenity":"waste_basket"}},"type":"Feature"},
	{"geometry":{"coordinates":[13.080901,50.746732],"type":"Point"},"properties":{"osm_id":"3829569135","tag":{"amenity":"recycling","recycling:clothes":"yes","recycling:glass_bottles":"yes","recycling_type":"container"}},"type":"Feature"},
	{"geometry":{"coordinates":[13.075836,50.750421],"type":"Point"},"properties":{"osm_id":"3829570112","tag":{"amenity":"recycling","recycling:clothes":"yes","recycling_type":"container"}},"type":"Feature"},
	{"geometry":{"coordinates":[13.082209,50.745905],"type":"Point"},"properties":{"osm_id":"3994255074","tag":{"addr:city":"Zschopau","addr:housenumber":"1 B","addr:postcode":"09405","addr:street":"Krumhermersdorfer Stra\u00c3\u009fe"}},"type":"Feature"},
	{"geometry":{"coordinates":[13.065449,50.747337],"type":"Point"},"properties":{"osm_id":"4826925642","tag":{"amenity":"recycling","recycling_type":"container"}},"type":"Feature"},
	{"geometry":{"coordinates":[13.07709,50.750171],"type":"Point"},"properties":{"osm_id":"4918718112","tag":{"amenity":"recycling","recycling:clothes":"yes","recycling_type":"container"}},"type":"Feature"},
	{"geometry":{"coordinates":[13.077094,50.750199],"type":"Point"},"properties":{"osm_id":"4918718113","tag":{"amenity":"recycling","recycling:glass":"yes","recycling_type":"container"}},"type":"Feature"},
	{"geometry":{"coordinates":[13.077102,50.750225],"type":"Point"},"properties":{"osm_id":"4918718114","tag":{"amenity":"recycling","recycling:paper":"yes","recycling_type":"container"}},"type":"Feature"},
	{"geometry":{"coordinates":[13.077384,50.750288],"type":"Point"},"properties":{"osm_id":"4918718115","tag":{"amenity":"recycling","operator":"Deutsches Rotes Kreuz","recycling:clothes":"yes","recycling:shoes":"yes","recycling_type":"container"}},"type":"Feature"},
	{"geometry":{"coordinates":[13.077403,50.750352],"type":"Point"},"properties":{"osm_id":"4918718116","tag":{"amenity":"recycling","operator":"Deutsches Rotes Kreuz","recycling:clothes":"yes","recycling:shoes":"yes","recycling_type":"container"}},"type":"Feature"},
	{"geometry":{"coordinates":[13.07742,50.750375],"type":"Point"},"properties":{"osm_id":"4918718117","tag":{"amenity":"recycling","operator":"Deutsches Rotes Kreuz","recycling:clothes":"yes","recycling:shoes":"yes","recycling_type":"container"}},"type":"Feature"},
	{"geometry":{"coordinates":[13.01153,50.789203],"type":"Point"},"properties":{"osm_id":"7398575586","tag":{"amenity":"recycling","description":"Alttextilien","recycling_type":"container"}},"type":"Feature"},
	{"geometry":{"coordinates":[13.012411,50.746041],"type":"Point"},"properties":{"osm_id":"7687195522","tag":{"amenity":"waste_basket"}},"type":"Feature"}
]
}
