{
"type": "FeatureCollection",
"features": [
	{"geometry":{"coordinates":[13.040581,50.513737],"type":"Point"},"properties":{"osm_id":"359683872","tag":{"amenity":"recycling","recycling:clothes":"yes","recycling:glass":"yes","recycling:paper":"yes","recycling_type":"container"}},"type":"Feature"},
	{"geometry":{"coordinates":[13.042201,50.54773],"type":"Point"},"properties":{"osm_id":"359685472","tag":{"addr:street":"Gewerbegebiet","amenity":"recycling","opening_hours":"24/7","recycling:clothes":"yes","recycling:glass":"yes","recycling:glass_bottles":"yes","recycling:shoes":"yes","recycling_type":"container","wheelchair":"yes"}},"type":"Feature"},
	{"geometry":{"coordinates":[13.0579,50.526019],"type":"Point"},"properties":{"osm_id":"745881794","tag":{"amenity":"recycling","recycling:clothes":"yes","recycling:glass":"yes"}},"type":"Feature"},
	{"geometry":{"coordinates":[13.094779,50.5646],"type":"Point"},"properties":{"osm_id":"782918086","tag":{"amenity":"waste_basket"}},"type":"Feature"},
	{"geometry":{"coordinates":[13.028428,50.513971],"type":"Point"},"properties":{"osm_id":"2585706433","tag":{"amenity":"waste_basket"}},"type":"Feature"},
	{"geometry":{"coordinates":[13.045477,50.557077],"type":"Point"},"properties":{"osm_id":"5127120641","tag":{"amenity":"recycling","recycling:clothes":"yes","recycling:glass":"yes","recycling_type":"container"}},"type":"Feature"}
]
}
