{
"type": "FeatureCollection",
"features": [
	{"geometry":{"coordinates":[13.059696,48.766011],"type":"Point"},"properties":{"name":"ZAW Hengersberg","osm_id":"1648410093","tag":{"amenity":"recycling","recycling_type":"centre"}},"type":"Feature"},
	{"geometry":{"coordinates":[13.057327,48.77612],"type":"Point"},"properties":{"osm_id":"8280582803","tag":{"amenity":"waste_basket","waste":"dog_excrement"}},"type":"Feature"},
	{"geometry":{"coordinates":[13.053839,48.782537],"type":"Point"},"properties":{"osm_id":"8443247490","tag":{"amenity":"recycling","operator":"ZAW","recycling:cans":"yes","recycling:glass_bottles":"yes","recycling_type":"container"}},"type":"Feature"},
	{"geometry":{"coordinates":[13.024981,48.76409],"type":"Point"},"properties":{"osm_id":"8464194289","tag":{"amenity":"recycling","operator":"ZAW","recycling:cans":"yes","recycling:glass_bottles":"yes","recycling_type":"container"}},"type":"Feature"},
	{"geometry":{"coordinates":[13.025032,48.764087],"type":"Point"},"properties":{"osm_id":"8464194290","tag":{"amenity":"recycling","operator":"Unfallopfer Hilfswerk","recycling:clothes":"yes","recycling:shoes":"yes","recycling_type":"container"}},"type":"Feature"},
	{"geometry":{"coordinates":[13.01925,48.768316],"type":"Point"},"properties":{"barrier":"gate","osm_id":"8662926996"},"type":"Feature"},
	{"geometry":{"coordinates":[13.070138,48.784482],"type":"Point"},"properties":{"osm_id":"8683932095","tag":{"amenity":"recycling","operator":"ZAW","recycling:cans":"yes","recycling:glass_bottles":"yes","recycling_type":"container"}},"type":"Feature"},
	{"geometry":{"coordinates":[13.013534,48.797631],"type":"Point"},"properties":{"osm_id":"8696615877","tag":{"amenity":"recycling","operator":"ZAW;Malteser","recycling:cans":"yes","recycling:clothes":"yes","recycling:glass_bottles":"yes","recycling:shoes":"yes"}},"type":"Feature"},
	{"geometry":{"coordinates":[13.008261,48.781876],"type":"Point"},"properties":{"osm_id":"9140150041","tag":{"amenity":"recycling","operator":"ZAW","recycling:cans":"yes","recycling:glass_bottles":"yes","recycling_type":"container"}},"type":"Feature"}
]
}
