{
"type": "FeatureCollection",
"features": [
	{"geometry":{"coordinates":[13.031156,48.701866],"type":"Point"},"properties":{"osm_id":"467690178","tag":{"amenity":"recycling","recycling:cans":"yes","recycling:clothes":"yes","recycling:glass":"yes","recycling:scrap_metal":"no"}},"type":"Feature"},
	{"geometry":{"coordinates":[13.042669,48.715351],"type":"Point"},"properties":{"osm_id":"3762469900","tag":{"amenity":"recycling"}},"type":"Feature"},
	{"geometry":{"coordinates":[13.018596,48.701493],"type":"Point"},"properties":{"osm_id":"8928836951","tag":{"amenity":"recycling","operator":"ZAW","recycling:cans":"yes","recycling:glass_bottles":"yes","recycling_type":"container"}},"type":"Feature"},
	{"geometry":{"coordinates":[13.018546,48.699013],"type":"Point"},"properties":{"osm_id":"8928837151","tag":{"amenity":"recycling","operator":"ZAW","recycling:cans":"yes","recycling:glass_bottles":"yes","recycling_type":"container"}},"type":"Feature"},
	{"geometry":{"coordinates":[13.018079,48.701118],"type":"Point"},"properties":{"osm_id":"8928838584","tag":{"amenity":"recycling","operator":"Kolping","recycling:clothes":"yes","recycling:shoes":"yes","recycling_type":"container"}},"type":"Feature"},
	{"geometry":{"coordinates":[13.009039,48.709386],"type":"Point"},"properties":{"osm_id":"8928946828","tag":{"amenity":"recycling","operator":"ZAW","recycling:cans":"yes","recycling:glass_bottles":"yes","recycling_type":"container"}},"type":"Feature"},
	{"geometry":{"coordinates":[13.077489,48.722946],"type":"Point"},"properties":{"osm_id":"8933611216","tag":{"amenity":"recycling","operator":"Bayerisches rotes Kreuz","recycling:clothes":"yes","recycling:shoes":"yes","recycling_type":"container"}},"type":"Feature"},
	{"geometry":{"coordinates":[13.023302,48.695416],"type":"Point"},"properties":{"osm_id":"8934086480","tag":{"amenity":"recycling","operator":"Bayerisches rotes Kreuz","recycling:clothes":"yes","recycling:shoes":"yes","recycling_type":"container"}},"type":"Feature"}
]
}
