{
"type": "FeatureCollection",
"features": [
	{"geometry":{"coordinates":[13.056651,47.814958],"type":"Point"},"properties":{"osm_id":"676260916","tag":{"amenity":"recycling","recycling:clothes":"yes","recycling:glass_bottles":"yes","recycling:paper":"yes"}},"type":"Feature"},
	{"geometry":{"coordinates":[13.021211,47.836876],"type":"Point"},"properties":{"osm_id":"792031560","tag":{"amenity":"waste_basket"}},"type":"Feature"},
	{"geometry":{"coordinates":[13.026142,47.832171],"type":"Point"},"properties":{"osm_id":"792031676","tag":{"amenity":"waste_basket"}},"type":"Feature"},
	{"geometry":{"coordinates":[13.07784,47.822533],"type":"Point"},"properties":{"osm_id":"924602873","tag":{"amenity":"recycling","recycling:paper":"yes"}},"type":"Feature"},
	{"geometry":{"coordinates":[13.056024,47.819984],"type":"Point"},"properties":{"osm_id":"1671855770","tag":{"amenity":"recycling","location":"overground","recycling:clothes":"yes","recycling:glass_bottles":"yes","recycling:paper":"yes","recycling_type":"container"}},"type":"Feature"},
	{"geometry":{"coordinates":[13.038881,47.817613],"type":"Point"},"properties":{"osm_id":"1685744928","tag":{"amenity":"recycling","recycling:paper":"yes"}},"type":"Feature"},
	{"geometry":{"coordinates":[13.039819,47.817834],"type":"Point"},"properties":{"osm_id":"1685744934","tag":{"amenity":"recycling","recycling:paper":"yes"}},"type":"Feature"},
	{"geometry":{"coordinates":[13.04032,47.817905],"type":"Point"},"properties":{"osm_id":"1685744941","tag":{"amenity":"recycling","recycling:paper":"yes"}},"type":"Feature"},
	{"geometry":{"coordinates":[13.043749,47.814678],"type":"Point"},"properties":{"osm_id":"3273337082","tag":{"amenity":"recycling","recycling:clothes":"yes","recycling:glass":"no","recycling:glass_bottles":"yes","recycling_type":"container"}},"type":"Feature"},
	{"geometry":{"coordinates":[13.040882,47.815271],"type":"Point"},"properties":{"osm_id":"3273337083","tag":{"amenity":"recycling","recycling:clothes":"yes","recycling:glass":"yes","recycling_type":"container"}},"type":"Feature"},
	{"geometry":{"coordinates":[13.040769,47.818681],"type":"Point"},"properties":{"osm_id":"3273337084","tag":{"amenity":"recycling","recycling:clothes":"yes","recycling:glass":"yes","recycling_type":"container"}},"type":"Feature"},
	{"geometry":{"coordinates":[13.043418,47.821294],"type":"Point"},"properties":{"osm_id":"3273349969","tag":{"amenity":"recycling","recycling:glass":"no","recycling:glass_bottles":"yes","recycling_type":"container"}},"type":"Feature"},
	{"geometry":{"coordinates":[13.044522,47.822368],"type":"Point"},"properties":{"osm_id":"3273349970","tag":{"amenity":"recycling","recycling:glass":"no","recycling:glass_bottles":"yes","recycling_type":"container"}},"type":"Feature"},
	{"geometry":{"coordinates":[13.051062,47.822761],"type":"Point"},"properties":{"osm_id":"3273349971","tag":{"amenity":"recycling","recycling:glass":"no","recycling:glass_bottles":"yes","recycling_type":"container"}},"type":"Feature"},
	{"geometry":{"coordinates":[13.036222,47.824087],"type":"Point"},"properties":{"osm_id":"3273349972","tag":{"amenity":"recycling","recycling:glass":"yes","recycling_type":"container"}},"type":"Feature"},
	{"geometry":{"coordinates":[13.036596,47.827289],"type":"Point"},"properties":{"osm_id":"4007851367","tag":{"amenity":"recycling","recycling:glass_bottles":"yes","recycling_type":"container"}},"type":"Feature"},
	{"geometry":{"coordinates":[13.084432,47.847708],"type":"Point"},"properties":{"osm_id":"4037011131","tag":{"amenity":"waste_basket"}},"type":"Feature"},
	{"geometry":{"coordinates":[13.023828,47.836596],"type":"Point"},"properties":{"osm_id":"4111049994","tag":{"amenity":"waste_basket"}},"type":"Feature"},
	{"geometry":{"coordinates":[13.048362,47.849411],"type":"Point"},"properties":{"osm_id":"4300669993","tag":{"amenity":"waste_basket"}},"type":"Feature"},
	{"geometry":{"coordinates":[13.059478,47.863199],"type":"Point"},"properties":{"barrier":"gate","osm_id":"4332684420"},"type":"Feature"},
	{"geometry":{"coordinates":[13.058905,47.863511],"type":"Point"},"properties":{"barrier":"gate","osm_id":"4332684423"},"type":"Feature"},
	{"geometry":{"coordinates":[13.074522,47.864198],"type":"Point"},"properties":{"osm_id":"4388660055","tag":{"amenity":"waste_basket"}},"type":"Feature"},
	{"geometry":{"coordinates":[13.066482,47.870918],"type":"Point"},"properties":{"osm_id":"4391264595","tag":{"amenity":"recycling","opening_hours":"24/7","recycling:cans":"yes","recycling:glass_bottles":"yes","recycling:paper":"yes","recycling:plastic_bottles":"yes","recycling:plastic_packaging":"yes","recycling:scrap_metal":"no","recycling_type":"container","wheelchair":"yes"}},"type":"Feature"},
	{"geometry":{"coordinates":[13.059415,47.861611],"type":"Point"},"properties":{"osm_id":"4399620017","tag":{"amenity":"recycling","opening_hours":"24/7","recycling:cans":"yes","recycling:glass":"no","recycling:glass_bottles":"yes","recycling:paper":"yes","recycling:scrap_metal":"no","recycling_type":"container","wheelchair":"yes"}},"type":"Feature"},
	{"geometry":{"coordinates":[13.068096,47.867449],"type":"Point"},"properties":{"osm_id":"4403940536","tag":{"amenity":"recycling","recycling:cans":"yes","recycling:cardboard":"yes","recycling:paper":"yes","recycling:plastic":"no","recycling:plastic_bottles":"yes","recycling:plastic_packaging":"yes","recycling_type":"container"}},"type":"Feature"},
	{"geometry":{"coordinates":[13.044931,47.844977],"type":"Point"},"properties":{"osm_id":"4404397630","tag":{"amenity":"recycling","recycling:cans":"yes","recycling:cardboard":"no","recycling:glass_bottles":"yes","recycling:paper":"yes","recycling:plastic_bottles":"yes","recycling:plastic_packaging":"yes","recycling_type":"container"}},"type":"Feature"},
	{"geometry":{"coordinates":[13.048948,47.849332],"type":"Point"},"properties":{"osm_id":"4404397651","tag":{"amenity":"waste_basket"}},"type":"Feature"},
	{"geometry":{"coordinates":[13.095097,47.844441],"type":"Point"},"properties":{"osm_id":"4637219494","tag":{"amenity":"waste_basket"}},"type":"Feature"},
	{"geometry":{"coordinates":[13.026734,47.836265],"type":"Point"},"properties":{"osm_id":"4689012036","tag":{"amenity":"recycling","opening_hours":"24/7","recycling:glass_bottles":"yes","recycling:plastic_packaging":"yes","recycling_type":"container","wheelchair":"yes"}},"type":"Feature"},
	{"geometry":{"coordinates":[13.038212,47.831268],"type":"Point"},"properties":{"osm_id":"4699564850","tag":{"amenity":"waste_basket","waste":"trash"}},"type":"Feature"},
	{"geometry":{"coordinates":[13.023824,47.839377],"type":"Point"},"properties":{"osm_id":"4701916328","tag":{"amenity":"recycling","opening_hours":"24/7","recycling:green_waste":"yes","recycling:plastic_bottles":"yes","recycling:plastic_packaging":"yes","recycling:waste":"yes","recycling_type":"container"}},"type":"Feature"},
	{"geometry":{"coordinates":[13.033255,47.837655],"type":"Point"},"properties":{"osm_id":"4710200314","tag":{"amenity":"waste_disposal"}},"type":"Feature"},
	{"geometry":{"coordinates":[13.026368,47.839535],"type":"Point"},"properties":{"osm_id":"4710200358","tag":{"amenity":"waste_disposal"}},"type":"Feature"},
	{"geometry":{"coordinates":[13.088231,47.858094],"type":"Point"},"properties":{"osm_id":"5070239139","tag":{"amenity":"recycling","opening_hours":"24/7","recycling:cans":"yes","recycling:glass_bottles":"yes","recycling:paper":"yes","recycling_type":"container","wheelchair":"yes"}},"type":"Feature"},
	{"geometry":{"coordinates":[13.083273,47.849115],"type":"Point"},"properties":{"barrier":"gate","osm_id":"5070245827","tag":{"access":"permissive","maxwidth":"6"}},"type":"Feature"},
	{"geometry":{"coordinates":[13.083195,47.849156],"type":"Point"},"properties":{"osm_id":"5070245828","tag":{"amenity":"recycling","opening_hours":"24/7","recycling:glass_bottles":"yes","recycling_type":"container"}},"type":"Feature"},
	{"geometry":{"coordinates":[13.079572,47.824464],"type":"Point"},"properties":{"osm_id":"5092120849","tag":{"amenity":"recycling","recycling:glass_bottles":"yes","recycling_type":"container"}},"type":"Feature"},
	{"geometry":{"coordinates":[13.051751,47.818509],"type":"Point"},"properties":{"osm_id":"5338785636","tag":{"amenity":"recycling","recycling:clothes":"yes","recycling:glass":"no","recycling:glass_bottles":"yes","recycling:shoes":"yes","recycling_type":"container"}},"type":"Feature"},
	{"geometry":{"coordinates":[13.0481,47.814068],"type":"Point"},"properties":{"osm_id":"5338831439","tag":{"amenity":"waste_basket","waste":"trash"}},"type":"Feature"},
	{"geometry":{"coordinates":[13.008426,47.813752],"type":"Point"},"properties":{"osm_id":"5413104064","tag":{"amenity":"recycling","operator":"TAO & Mode Circel","recycling:clothes":"yes","recycling:household_textiles":"yes","recycling:shoes":"yes","recycling_type":"container"}},"type":"Feature"},
	{"geometry":{"coordinates":[13.016287,47.837292],"type":"Point"},"properties":{"osm_id":"5572186693","tag":{"amenity":"waste_basket"}},"type":"Feature"},
	{"geometry":{"coordinates":[13.016142,47.837292],"type":"Point"},"properties":{"osm_id":"5572186694","tag":{"amenity":"waste_basket"}},"type":"Feature"},
	{"geometry":{"coordinates":[13.019738,47.837004],"type":"Point"},"properties":{"osm_id":"5708501886","tag":{"amenity":"waste_basket","waste":"trash"}},"type":"Feature"},
	{"geometry":{"coordinates":[13.020675,47.836087],"type":"Point"},"properties":{"osm_id":"5708501887","tag":{"amenity":"waste_basket","waste":"trash"}},"type":"Feature"},
	{"geometry":{"coordinates":[13.021485,47.835372],"type":"Point"},"properties":{"osm_id":"5708501888","tag":{"amenity":"waste_basket","waste":"trash"}},"type":"Feature"},
	{"geometry":{"coordinates":[13.022059,47.834837],"type":"Point"},"properties":{"osm_id":"5708501889","tag":{"amenity":"waste_basket","waste":"trash"}},"type":"Feature"},
	{"geometry":{"coordinates":[13.022836,47.834043],"type":"Point"},"properties":{"osm_id":"5708501890","tag":{"amenity":"waste_basket","waste":"trash"}},"type":"Feature"},
	{"geometry":{"coordinates":[13.023132,47.833531],"type":"Point"},"properties":{"osm_id":"5708501891","tag":{"amenity":"waste_basket","waste":"trash"}},"type":"Feature"},
	{"geometry":{"coordinates":[13.022041,47.833275],"type":"Point"},"properties":{"osm_id":"5708501892","tag":{"amenity":"waste_basket","waste":"trash"}},"type":"Feature"},
	{"geometry":{"coordinates":[13.020339,47.83312],"type":"Point"},"properties":{"osm_id":"5708501893","tag":{"amenity":"waste_basket","waste":"trash"}},"type":"Feature"},
	{"geometry":{"coordinates":[13.018524,47.835189],"type":"Point"},"properties":{"osm_id":"5708501894","tag":{"amenity":"waste_basket","waste":"trash"}},"type":"Feature"},
	{"geometry":{"coordinates":[13.018275,47.835759],"type":"Point"},"properties":{"osm_id":"5708501895","tag":{"amenity":"waste_basket","waste":"trash"}},"type":"Feature"},
	{"geometry":{"coordinates":[13.01866,47.836704],"type":"Point"},"properties":{"osm_id":"5708501896","tag":{"amenity":"waste_basket","waste":"trash"}},"type":"Feature"},
	{"geometry":{"coordinates":[13.060255,47.835332],"type":"Point"},"properties":{"osm_id":"6165747718","tag":{"amenity":"waste_disposal"}},"type":"Feature"},
	{"geometry":{"coordinates":[13.026974,47.846825],"type":"Point"},"properties":{"osm_id":"6283247446","tag":{"amenity":"waste_basket"}},"type":"Feature"},
	{"geometry":{"coordinates":[13.042333,47.843367],"type":"Point"},"properties":{"osm_id":"6283247453","tag":{"amenity":"recycling"}},"type":"Feature"},
	{"geometry":{"coordinates":[13.044208,47.840656],"type":"Point"},"properties":{"osm_id":"6283247455","tag":{"amenity":"waste_basket"}},"type":"Feature"},
	{"geometry":{"coordinates":[13.035456,47.815945],"type":"Point"},"properties":{"osm_id":"6283247479","tag":{"amenity":"waste_basket"}},"type":"Feature"},
	{"geometry":{"coordinates":[13.018773,47.842598],"type":"Point"},"properties":{"osm_id":"6283248046","tag":{"amenity":"recycling"}},"type":"Feature"},
	{"geometry":{"coordinates":[13.029414,47.848245],"type":"Point"},"properties":{"osm_id":"6283248050","tag":{"amenity":"recycling"}},"type":"Feature"},
	{"geometry":{"coordinates":[13.038891,47.847042],"type":"Point"},"properties":{"osm_id":"6283248052","tag":{"amenity":"waste_basket"}},"type":"Feature"},
	{"geometry":{"coordinates":[13.036441,47.818358],"type":"Point"},"properties":{"osm_id":"6283248062","tag":{"amenity":"recycling","location":"overground","recycling:clothes":"yes","recycling:glass_bottles":"yes","recycling_type":"container"}},"type":"Feature"},
	{"geometry":{"coordinates":[13.0374,47.813876],"type":"Point"},"properties":{"osm_id":"6283248064","tag":{"amenity":"waste_basket"}},"type":"Feature"},
	{"geometry":{"coordinates":[13.033309,47.846367],"type":"Point"},"properties":{"osm_id":"6283248237","tag":{"amenity":"waste_basket"}},"type":"Feature"},
	{"geometry":{"coordinates":[13.03665,47.846117],"type":"Point"},"properties":{"osm_id":"6283248238","tag":{"amenity":"waste_basket"}},"type":"Feature"},
	{"geometry":{"coordinates":[13.038459,47.846993],"type":"Point"},"properties":{"osm_id":"6283248239","tag":{"amenity":"recycling"}},"type":"Feature"},
	{"geometry":{"coordinates":[13.042979,47.844658],"type":"Point"},"properties":{"osm_id":"6283248241","tag":{"amenity":"waste_basket"}},"type":"Feature"},
	{"geometry":{"coordinates":[13.044429,47.840202],"type":"Point"},"properties":{"osm_id":"6283248244","tag":{"amenity":"waste_basket"}},"type":"Feature"},
	{"geometry":{"coordinates":[13.034662,47.818226],"type":"Point"},"properties":{"osm_id":"6283248266","tag":{"amenity":"recycling","location":"overground","recycling_type":"container"}},"type":"Feature"},
	{"geometry":{"coordinates":[13.040647,47.81868],"type":"Point"},"properties":{"osm_id":"6290635326","tag":{"amenity":"recycling","location":"overground","recycling:glass_bottles":"yes","recycling_type":"container"}},"type":"Feature"},
	{"geometry":{"coordinates":[13.040346,47.82274],"type":"Point"},"properties":{"osm_id":"6365515764","tag":{"amenity":"recycling","recycling:batteries":"yes","recycling:cardboard":"yes","recycling:electrical_appliances":"yes","recycling:glass":"yes","recycling:glass_bottles":"yes","recycling:paper":"yes","recycling:plastic_bottles":"yes","recycling:scrap_metal":"no","recycling:small_appliances":"yes","recycling_type":"container"}},"type":"Feature"},
	{"geometry":{"coordinates":[13.04013,47.823873],"type":"Point"},"properties":{"osm_id":"6365515765","tag":{"amenity":"recycling","recycling:glass":"no","recycling:glass_bottles":"yes","recycling_type":"container"}},"type":"Feature"},
	{"geometry":{"coordinates":[13.045207,47.816905],"type":"Point"},"properties":{"osm_id":"6440496216","tag":{"amenity":"recycling","recycling:glass":"no","recycling:glass_bottles":"yes","recycling_type":"container"}},"type":"Feature"},
	{"geometry":{"coordinates":[13.037404,47.82416],"type":"Point"},"properties":{"osm_id":"6463973980","tag":{"amenity":"recycling","recycling:bottles":"Yes"}},"type":"Feature"},
	{"geometry":{"coordinates":[13.040848,47.821641],"type":"Point"},"properties":{"osm_id":"6786377361","tag":{"amenity":"waste_basket","material":"metal"}},"type":"Feature"},
	{"geometry":{"coordinates":[13.050333,47.825361],"type":"Point"},"properties":{"osm_id":"6819421443","tag":{"amenity":"recycling","location":"overground","recycling:glass_bottles":"yes","recycling:paper":"yes","recycling_type":"container"}},"type":"Feature"},
	{"geometry":{"coordinates":[13.040824,47.823116],"type":"Point"},"properties":{"osm_id":"6855737277","tag":{"amenity":"waste_basket"}},"type":"Feature"},
	{"geometry":{"coordinates":[13.017056,47.821148],"type":"Point"},"properties":{"osm_id":"6993080106","tag":{"amenity":"recycling","recycling:clothes":"yes","recycling_type":"container"}},"type":"Feature"},
	{"geometry":{"coordinates":[13.020852,47.826482],"type":"Point"},"properties":{"osm_id":"7204126332","tag":{"amenity":"recycling","recycling:clothes":"yes","recycling:glass":"no","recycling:glass_bottles":"yes","recycling:paper":"yes","recycling_type":"container"}},"type":"Feature"},
	{"geometry":{"coordinates":[13.016269,47.829727],"type":"Point"},"properties":{"osm_id":"7292800284","tag":{"amenity":"recycling","recycling:clothes":"yes","recycling:glass_bottles":"yes","recycling:paper":"yes","recycling_type":"container"}},"type":"Feature"},
	{"geometry":{"coordinates":[13.046015,47.827597],"type":"Point"},"properties":{"osm_id":"7302191471","tag":{"amenity":"recycling","recycling:paper":"yes","recycling_type":"container"}},"type":"Feature"},
	{"geometry":{"coordinates":[13.046017,47.827612],"type":"Point"},"properties":{"osm_id":"7302191472","tag":{"amenity":"recycling","recycling:clothes":"yes","recycling_type":"container"}},"type":"Feature"},
	{"geometry":{"coordinates":[13.046053,47.827605],"type":"Point"},"properties":{"osm_id":"7302191473","tag":{"amenity":"recycling","recycling:glass_bottles":"yes","recycling_type":"container"}},"type":"Feature"},
	{"geometry":{"coordinates":[13.050886,47.835625],"type":"Point"},"properties":{"osm_id":"7599877636","tag":{"amenity":"waste_basket"}},"type":"Feature"},
	{"geometry":{"coordinates":[13.050894,47.835626],"type":"Point"},"properties":{"osm_id":"7599877637","tag":{"amenity":"waste_basket"}},"type":"Feature"},
	{"geometry":{"coordinates":[13.059197,47.841902],"type":"Point"},"properties":{"osm_id":"7639959730","tag":{"amenity":"waste_basket","colour":"red","material":"plastic","operator":"APR","waste":"recycling;paper"}},"type":"Feature"},
	{"geometry":{"coordinates":[13.059217,47.841895],"type":"Point"},"properties":{"osm_id":"7639959731","tag":{"amenity":"waste_basket","colour":"red","material":"plastic","operator":"APR","waste":"recycling;paper"}},"type":"Feature"},
	{"geometry":{"coordinates":[13.058953,47.841616],"type":"Point"},"properties":{"osm_id":"7639959732","tag":{"amenity":"waste_basket","colour":"green","material":"steel","operator":"Gemeinde Bergheim","waste":"trash"}},"type":"Feature"}
]
}
