{
"type": "FeatureCollection",
"features": [
	{"geometry":{"coordinates":[13.072347,47.807417],"type":"Point"},"properties":{"osm_id":"368185125","tag":{"amenity":"recycling","recycling:clothes":"yes"}},"type":"Feature"},
	{"geometry":{"coordinates":[13.069092,47.789038],"type":"Point"},"properties":{"osm_id":"457722547","tag":{"amenity":"recycling","location":"overground","recycling:glass":"yes","recycling:paper":"yes","recycling_type":"container"}},"type":"Feature"},
	{"geometry":{"coordinates":[13.068369,47.78321],"type":"Point"},"properties":{"osm_id":"457988452","tag":{"amenity":"recycling","mapillary":"fh4gdUPmYKWsu6A63U2YHA","recycling:paper":"yes","recycling_type":"container","survey:date":"2018-07-06"}},"type":"Feature"},
	{"geometry":{"coordinates":[13.068477,47.787419],"type":"Point"},"properties":{"osm_id":"457988454","tag":{"amenity":"recycling","recycling:paper":"yes"}},"type":"Feature"},
	{"geometry":{"coordinates":[13.069298,47.787595],"type":"Point"},"properties":{"osm_id":"457988457","tag":{"amenity":"recycling","location":"overground","recycling:paper":"yes","recycling_type":"container"}},"type":"Feature"},
	{"geometry":{"coordinates":[13.07089,47.785309],"type":"Point"},"properties":{"osm_id":"457988463","tag":{"amenity":"recycling","mapillary":"1RhPAz8WDQP9FvdoW8MXpA","recycling:paper":"yes","recycling_type":"container","survey:date":"2018-11-03"}},"type":"Feature"},
	{"geometry":{"coordinates":[13.070503,47.782464],"type":"Point"},"properties":{"osm_id":"457988466","tag":{"amenity":"recycling","location":"overground","operator":"Austria Papier Recycling GmbH","recycling:paper":"yes","recycling_type":"container"}},"type":"Feature"},
	{"geometry":{"coordinates":[13.069362,47.78347],"type":"Point"},"properties":{"osm_id":"457988482","tag":{"amenity":"recycling","mapillary":"FA7T6Xff-Lc3YLfpseLvBg","recycling:paper":"yes","recycling_type":"container","survey:date":"2018-07-07"}},"type":"Feature"},
	{"geometry":{"coordinates":[13.069026,47.784875],"type":"Point"},"properties":{"osm_id":"457988485","tag":{"amenity":"recycling","mapillary":"Hxx2-5LM5EIXpX9cMNHvsw","recycling:glass":"yes","recycling:paper":"yes","recycling_type":"container","survey:date":"2018-07-07"}},"type":"Feature"},
	{"geometry":{"coordinates":[13.068273,47.786321],"type":"Point"},"properties":{"osm_id":"457988488","tag":{"amenity":"recycling","mapillary":"hlISHVCrcFZj122bx6bFzg","recycling:paper":"yes","recycling_type":"container","survey:date":"2018-07-07"}},"type":"Feature"},
	{"geometry":{"coordinates":[13.067876,47.786755],"type":"Point"},"properties":{"osm_id":"457988491","tag":{"amenity":"recycling","recycling:paper":"yes"}},"type":"Feature"},
	{"geometry":{"coordinates":[13.066449,47.78712],"type":"Point"},"properties":{"osm_id":"457988495","tag":{"amenity":"recycling","recycling:paper":"yes"}},"type":"Feature"},
	{"geometry":{"coordinates":[13.067548,47.786116],"type":"Point"},"properties":{"osm_id":"457988523","tag":{"amenity":"recycling","recycling:paper":"yes"}},"type":"Feature"},
	{"geometry":{"coordinates":[13.071964,47.780744],"type":"Point"},"properties":{"osm_id":"462718630","tag":{"amenity":"recycling","location":"overground","recycling:glass":"yes","recycling:paper":"yes","recycling_type":"container"}},"type":"Feature"},
	{"geometry":{"coordinates":[13.069153,47.78042],"type":"Point"},"properties":{"osm_id":"462718666","tag":{"amenity":"recycling","location":"overground","recycling:glass":"yes","recycling:paper":"yes","recycling_type":"container"}},"type":"Feature"},
	{"geometry":{"coordinates":[13.068644,47.788465],"type":"Point"},"properties":{"osm_id":"469242138","tag":{"amenity":"recycling","location":"overground","recycling:paper":"yes","recycling_type":"container"}},"type":"Feature"},
	{"geometry":{"coordinates":[13.072596,47.778883],"type":"Point"},"properties":{"osm_id":"472218280","tag":{"amenity":"recycling","recycling:glass":"yes","recycling:paper":"yes"}},"type":"Feature"},
	{"geometry":{"coordinates":[13.071498,47.771484],"type":"Point"},"properties":{"osm_id":"479173751","tag":{"amenity":"recycling","recycling:paper":"yes"}},"type":"Feature"},
	{"geometry":{"coordinates":[13.080381,47.783122],"type":"Point"},"properties":{"osm_id":"509312557","tag":{"amenity":"recycling","recycling:clothes":"yes","recycling:glass":"no","recycling:paper":"yes","recycling:shoes":"yes","recycling_type":"container"}},"type":"Feature"},
	{"geometry":{"coordinates":[13.023378,47.805094],"type":"Point"},"properties":{"osm_id":"566967043","tag":{"amenity":"recycling","location":"overground","recycling:glass_bottles":"yes","recycling:paper":"yes","recycling_type":"container"}},"type":"Feature"},
	{"geometry":{"coordinates":[13.046451,47.779314],"type":"Point"},"properties":{"osm_id":"623198912","tag":{"amenity":"waste_disposal","location":"overground"}},"type":"Feature"},
	{"geometry":{"coordinates":[13.035109,47.776768],"type":"Point"},"properties":{"osm_id":"623251589","tag":{"amenity":"recycling","location":"overground","recycling:glass":"yes","recycling:scrap_metal":"yes","recycling_type":"container"}},"type":"Feature"},
	{"geometry":{"coordinates":[13.056763,47.81008],"type":"Point"},"properties":{"osm_id":"631995865","tag":{"amenity":"waste_basket"}},"type":"Feature"},
	{"geometry":{"coordinates":[13.057219,47.809803],"type":"Point"},"properties":{"osm_id":"631995871","tag":{"amenity":"waste_basket"}},"type":"Feature"},
	{"geometry":{"coordinates":[13.057747,47.810429],"type":"Point"},"properties":{"osm_id":"631995895","tag":{"amenity":"recycling","recycling:glass":"yes"}},"type":"Feature"},
	{"geometry":{"coordinates":[13.066585,47.776503],"type":"Point"},"properties":{"osm_id":"645409567","tag":{"amenity":"recycling","recycling:glass":"yes"}},"type":"Feature"},
	{"geometry":{"coordinates":[13.025175,47.794498],"type":"Point"},"properties":{"osm_id":"648528503","tag":{"amenity":"waste_basket"}},"type":"Feature"},
	{"geometry":{"coordinates":[13.025033,47.79506],"type":"Point"},"properties":{"osm_id":"648528543","tag":{"amenity":"waste_basket"}},"type":"Feature"},
	{"geometry":{"coordinates":[13.024529,47.795269],"type":"Point"},"properties":{"osm_id":"648532119","tag":{"amenity":"recycling","recycling:glass_bottles":"yes","recycling_type":"container"}},"type":"Feature"},
	{"geometry":{"coordinates":[13.028688,47.800946],"type":"Point"},"properties":{"osm_id":"661533689","tag":{"amenity":"recycling"}},"type":"Feature"},
	{"geometry":{"coordinates":[13.030047,47.80096],"type":"Point"},"properties":{"osm_id":"661547438","tag":{"amenity":"recycling","location":"overground","recycling:glass":"yes","recycling_type":"container"}},"type":"Feature"},
	{"geometry":{"coordinates":[13.056394,47.812361],"type":"Point"},"properties":{"osm_id":"676260903","tag":{"amenity":"recycling","recycling:glass_bottles":"yes"}},"type":"Feature"},
	{"geometry":{"coordinates":[13.064321,47.778361],"type":"Point"},"properties":{"osm_id":"790712237","tag":{"amenity":"waste_basket"}},"type":"Feature"},
	{"geometry":{"coordinates":[13.063901,47.780693],"type":"Point"},"properties":{"osm_id":"790712255","tag":{"amenity":"recycling","recycling:paper":"yes","recycling_type":"container"}},"type":"Feature"},
	{"geometry":{"coordinates":[13.067668,47.778143],"type":"Point"},"properties":{"osm_id":"790712258","tag":{"amenity":"waste_basket"}},"type":"Feature"},
	{"geometry":{"coordinates":[13.065295,47.778259],"type":"Point"},"properties":{"osm_id":"790712269","tag":{"amenity":"waste_basket"}},"type":"Feature"},
	{"geometry":{"coordinates":[13.063161,47.777719],"type":"Point"},"properties":{"osm_id":"790712272","tag":{"amenity":"waste_basket"}},"type":"Feature"},
	{"geometry":{"coordinates":[13.060199,47.777985],"type":"Point"},"properties":{"osm_id":"790712371","tag":{"amenity":"waste_basket"}},"type":"Feature"},
	{"geometry":{"coordinates":[13.067366,47.776639],"type":"Point"},"properties":{"osm_id":"790712372","tag":{"amenity":"waste_basket"}},"type":"Feature"},
	{"geometry":{"coordinates":[13.06479,47.778397],"type":"Point"},"properties":{"osm_id":"790712415","tag":{"amenity":"waste_basket"}},"type":"Feature"},
	{"geometry":{"coordinates":[13.06714,47.78092],"type":"Point"},"properties":{"osm_id":"790712419","tag":{"amenity":"recycling","recycling:paper":"yes"}},"type":"Feature"},
	{"geometry":{"coordinates":[13.063729,47.778088],"type":"Point"},"properties":{"osm_id":"790712422","tag":{"amenity":"waste_basket"}},"type":"Feature"},
	{"geometry":{"coordinates":[13.062045,47.780037],"type":"Point"},"properties":{"osm_id":"790712426","tag":{"amenity":"recycling","recycling:paper":"yes"}},"type":"Feature"},
	{"geometry":{"coordinates":[13.06727,47.776427],"type":"Point"},"properties":{"osm_id":"790712435","tag":{"amenity":"waste_basket"}},"type":"Feature"},
	{"geometry":{"coordinates":[13.067948,47.774868],"type":"Point"},"properties":{"osm_id":"790712439","tag":{"amenity":"waste_basket"}},"type":"Feature"},
	{"geometry":{"coordinates":[13.065283,47.778266],"type":"Point"},"properties":{"osm_id":"790712441","tag":{"amenity":"waste_basket"}},"type":"Feature"},
	{"geometry":{"coordinates":[13.062169,47.780565],"type":"Point"},"properties":{"osm_id":"790712452","tag":{"amenity":"recycling","recycling:paper":"yes"}},"type":"Feature"},
	{"geometry":{"coordinates":[13.064564,47.778082],"type":"Point"},"properties":{"osm_id":"790712470","tag":{"amenity":"waste_basket"}},"type":"Feature"},
	{"geometry":{"coordinates":[13.068168,47.789856],"type":"Point"},"properties":{"osm_id":"790712473","tag":{"amenity":"waste_basket"}},"type":"Feature"},
	{"geometry":{"coordinates":[13.063724,47.778099],"type":"Point"},"properties":{"osm_id":"790712487","tag":{"amenity":"waste_basket"}},"type":"Feature"},
	{"geometry":{"coordinates":[13.022405,47.793849],"type":"Point"},"properties":{"osm_id":"930221372","tag":{"amenity":"waste_basket"}},"type":"Feature"},
	{"geometry":{"coordinates":[13.022363,47.794146],"type":"Point"},"properties":{"osm_id":"930221542","tag":{"amenity":"waste_basket"}},"type":"Feature"},
	{"geometry":{"coordinates":[13.022557,47.794388],"type":"Point"},"properties":{"osm_id":"930221746","tag":{"amenity":"waste_basket"}},"type":"Feature"},
	{"geometry":{"coordinates":[13.046026,47.797564],"type":"Point"},"properties":{"osm_id":"935685794","tag":{"amenity":"waste_basket"}},"type":"Feature"},
	{"geometry":{"coordinates":[13.058278,47.769757],"type":"Point"},"properties":{"osm_id":"1106757272","tag":{"amenity":"recycling","mapillary":"PcilYftIwsI6awwLodZ7fw","recycling:clothes":"yes","recycling:glass":"yes","recycling:paper":"yes","recycling_type":"container","survey:date":"2019-03-08"}},"type":"Feature"},
	{"geometry":{"coordinates":[13.042778,47.774606],"type":"Point"},"properties":{"osm_id":"1106782047","tag":{"amenity":"recycling","location":"overground","recycling:glass":"yes","recycling_type":"container"}},"type":"Feature"},
	{"geometry":{"coordinates":[13.057464,47.770307],"type":"Point"},"properties":{"osm_id":"1110771193","tag":{"amenity":"recycling","mapillary":"_torrDwo5UJrHoJFlm5Uow","recycling:paper":"yes","recycling_type":"container","survey:date":"2019-03-08"}},"type":"Feature"},
	{"geometry":{"coordinates":[13.051908,47.785869],"type":"Point"},"properties":{"osm_id":"1143828798","tag":{"amenity":"recycling","recycling:glass":"yes"}},"type":"Feature"},
	{"geometry":{"coordinates":[13.011463,47.809365],"type":"Point"},"properties":{"osm_id":"1240162031","tag":{"amenity":"recycling","location":"underground","recycling:glass_bottles":"yes","recycling:green_waste":"yes","recycling:paper":"yes","recycling:plastic":"yes","recycling_type":"container"}},"type":"Feature"},
	{"geometry":{"coordinates":[13.054288,47.812938],"type":"Point"},"properties":{"osm_id":"1496188276","tag":{"amenity":"recycling","recycling:paper":"yes"}},"type":"Feature"},
	{"geometry":{"coordinates":[13.055889,47.813],"type":"Point"},"properties":{"osm_id":"1496188277","tag":{"amenity":"recycling","recycling:paper":"yes"}},"type":"Feature"},
	{"geometry":{"coordinates":[13.020891,47.80292],"type":"Point"},"properties":{"osm_id":"1675944244","tag":{"amenity":"recycling","location":"overground","recycling:paper":"yes","recycling_type":"container"}},"type":"Feature"},
	{"geometry":{"coordinates":[13.023432,47.80374],"type":"Point"},"properties":{"osm_id":"1675944247","tag":{"amenity":"recycling","location":"overground","recycling:paper":"yes","recycling_type":"container"}},"type":"Feature"},
	{"geometry":{"coordinates":[13.020253,47.801096],"type":"Point"},"properties":{"osm_id":"1685247621","tag":{"amenity":"recycling","recycling:paper":"yes"}},"type":"Feature"},
	{"geometry":{"coordinates":[13.021594,47.801915],"type":"Point"},"properties":{"osm_id":"1685247629","tag":{"amenity":"recycling","location":"overground","recycling:paper":"yes","recycling_type":"container"}},"type":"Feature"},
	{"geometry":{"coordinates":[13.045143,47.802006],"type":"Point"},"properties":{"osm_id":"1691714507","tag":{"amenity":"waste_basket"}},"type":"Feature"},
	{"geometry":{"coordinates":[13.024299,47.804228],"type":"Point"},"properties":{"osm_id":"1702956965","tag":{"amenity":"recycling","location":"overground","recycling:paper":"yes","recycling_type":"container"}},"type":"Feature"},
	{"geometry":{"coordinates":[13.051766,47.797888],"type":"Point"},"properties":{"osm_id":"1720404905","tag":{"amenity":"recycling","recycling:glass_bottles":"yes","recycling_type":"container"}},"type":"Feature"},
	{"geometry":{"coordinates":[13.034428,47.791343],"type":"Point"},"properties":{"osm_id":"1826994480","tag":{"amenity":"recycling","recycling:clothes":"yes","recycling:glass":"yes"}},"type":"Feature"},
	{"geometry":{"coordinates":[13.032172,47.794588],"type":"Point"},"properties":{"osm_id":"1901756819","tag":{"amenity":"recycling","location":"overground","recycling:clothes":"yes","recycling:glass_bottles":"yes","recycling:paper":"yes","recycling_type":"container"}},"type":"Feature"},
	{"geometry":{"coordinates":[13.018052,47.799896],"type":"Point"},"properties":{"osm_id":"1901756929","tag":{"amenity":"recycling","location":"overground","recycling:clothes":"yes","recycling:glass":"yes","recycling:paper":"yes","recycling_type":"container"}},"type":"Feature"},
	{"geometry":{"coordinates":[13.043172,47.805612],"type":"Point"},"properties":{"osm_id":"1941620477","tag":{"amenity":"waste_basket"}},"type":"Feature"},
	{"geometry":{"coordinates":[13.035836,47.787383],"type":"Point"},"properties":{"osm_id":"1941620543","tag":{"amenity":"waste_basket"}},"type":"Feature"},
	{"geometry":{"coordinates":[13.037252,47.789402],"type":"Point"},"properties":{"osm_id":"1941620586","tag":{"amenity":"waste_basket"}},"type":"Feature"},
	{"geometry":{"coordinates":[13.042145,47.806021],"type":"Point"},"properties":{"osm_id":"1941632631","tag":{"amenity":"recycling","location":"overground","recycling:glass_bottles":"yes","recycling_type":"container"}},"type":"Feature"},
	{"geometry":{"coordinates":[13.071778,47.790331],"type":"Point"},"properties":{"osm_id":"1942706668","tag":{"amenity":"recycling","location":"overground","recycling_type":"container"}},"type":"Feature"},
	{"geometry":{"coordinates":[13.055828,47.787947],"type":"Point"},"properties":{"osm_id":"2018545284","tag":{"amenity":"waste_basket"}},"type":"Feature"},
	{"geometry":{"coordinates":[13.057016,47.792259],"type":"Point"},"properties":{"osm_id":"2104121258","tag":{"amenity":"recycling","recycling:clothes":"no","recycling:glass":"yes","recycling:paper":"yes","recycling:scrap_metal":"yes","recycling_type":"container"}},"type":"Feature"},
	{"geometry":{"coordinates":[13.054875,47.795209],"type":"Point"},"properties":{"osm_id":"2371319440","tag":{"amenity":"recycling","recycling:glass":"yes","recycling:glass_bottles":"yes","recycling_type":"container"}},"type":"Feature"},
	{"geometry":{"coordinates":[13.058803,47.788325],"type":"Point"},"properties":{"osm_id":"2371531968","tag":{"amenity":"waste_basket"}},"type":"Feature"},
	{"geometry":{"coordinates":[13.053343,47.795637],"type":"Point"},"properties":{"osm_id":"2374357829","tag":{"amenity":"waste_basket"}},"type":"Feature"},
	{"geometry":{"coordinates":[13.053516,47.794301],"type":"Point"},"properties":{"osm_id":"2374357836","tag":{"amenity":"waste_basket"}},"type":"Feature"},
	{"geometry":{"coordinates":[13.053564,47.794189],"type":"Point"},"properties":{"osm_id":"2374357860","tag":{"amenity":"waste_basket"}},"type":"Feature"},
	{"geometry":{"coordinates":[13.05347,47.793693],"type":"Point"},"properties":{"osm_id":"2374357869","tag":{"amenity":"recycling","mapillary":"OEyNPhxZZ3F0KQNs7npfsA","recycling:clothes":"no","recycling:glass":"yes","recycling:glass_bottles":"yes","recycling_type":"container","survey:date":"2019-05-15"}},"type":"Feature"},
	{"geometry":{"coordinates":[13.053545,47.794671],"type":"Point"},"properties":{"osm_id":"2374357901","tag":{"amenity":"waste_basket"}},"type":"Feature"},
	{"geometry":{"coordinates":[13.051575,47.795126],"type":"Point"},"properties":{"osm_id":"2377549119","tag":{"amenity":"waste_basket"}},"type":"Feature"},
	{"geometry":{"coordinates":[13.078615,47.788448],"type":"Point"},"properties":{"osm_id":"2378295628","tag":{"amenity":"waste_basket"}},"type":"Feature"},
	{"geometry":{"coordinates":[13.05894,47.781573],"type":"Point"},"properties":{"osm_id":"2392106643","tag":{"amenity":"waste_basket"}},"type":"Feature"},
	{"geometry":{"coordinates":[13.059308,47.780725],"type":"Point"},"properties":{"osm_id":"2392106646","tag":{"amenity":"waste_basket"}},"type":"Feature"},
	{"geometry":{"coordinates":[13.071278,47.75738],"type":"Point"},"properties":{"osm_id":"2392148326","tag":{"amenity":"waste_basket"}},"type":"Feature"},
	{"geometry":{"coordinates":[13.06939,47.760481],"type":"Point"},"properties":{"osm_id":"2392148332","tag":{"amenity":"waste_basket"}},"type":"Feature"},
	{"geometry":{"coordinates":[13.069768,47.759688],"type":"Point"},"properties":{"osm_id":"2392148338","tag":{"amenity":"waste_basket"}},"type":"Feature"},
	{"geometry":{"coordinates":[13.071614,47.75668],"type":"Point"},"properties":{"osm_id":"2392148343","tag":{"amenity":"waste_basket"}},"type":"Feature"},
	{"geometry":{"coordinates":[13.070747,47.758159],"type":"Point"},"properties":{"osm_id":"2392148348","tag":{"amenity":"waste_basket"}},"type":"Feature"},
	{"geometry":{"coordinates":[13.072013,47.75589],"type":"Point"},"properties":{"osm_id":"2392148352","tag":{"amenity":"waste_basket"}},"type":"Feature"},
	{"geometry":{"coordinates":[13.070071,47.759021],"type":"Point"},"properties":{"osm_id":"2392148371","tag":{"amenity":"waste_basket"}},"type":"Feature"},
	{"geometry":{"coordinates":[13.03687,47.78978],"type":"Point"},"properties":{"osm_id":"2403957856","tag":{"amenity":"waste_basket"}},"type":"Feature"},
	{"geometry":{"coordinates":[13.012051,47.803355],"type":"Point"},"properties":{"osm_id":"2423060733","tag":{"amenity":"recycling","recycling:scrap_metal":"yes","recycling_type":"centre"}},"type":"Feature"},
	{"geometry":{"coordinates":[13.012057,47.803709],"type":"Point"},"properties":{"osm_id":"2423060748","tag":{"amenity":"recycling","recycling:paper":"yes","recycling_type":"centre"}},"type":"Feature"},
	{"geometry":{"coordinates":[13.010179,47.803823],"type":"Point"},"properties":{"barrier":"gate","osm_id":"2423060757"},"type":"Feature"},
	{"geometry":{"coordinates":[13.063542,47.76733],"type":"Point"},"properties":{"osm_id":"2942559647","tag":{"amenity":"waste_basket"}},"type":"Feature"},
	{"geometry":{"coordinates":[13.05966,47.787806],"type":"Point"},"properties":{"osm_id":"2942559651","tag":{"amenity":"waste_basket"}},"type":"Feature"},
	{"geometry":{"coordinates":[13.059056,47.787591],"type":"Point"},"properties":{"osm_id":"2949853074","tag":{"amenity":"waste_basket"}},"type":"Feature"},
	{"geometry":{"coordinates":[13.058947,47.78796],"type":"Point"},"properties":{"osm_id":"2949853076","tag":{"amenity":"waste_basket"}},"type":"Feature"},
	{"geometry":{"coordinates":[13.046914,47.794878],"type":"Point"},"properties":{"osm_id":"2949853080","tag":{"amenity":"waste_basket"}},"type":"Feature"},
	{"geometry":{"coordinates":[13.046718,47.794918],"type":"Point"},"properties":{"osm_id":"2949853082","tag":{"amenity":"waste_basket"}},"type":"Feature"},
	{"geometry":{"coordinates":[13.046835,47.795054],"type":"Point"},"properties":{"osm_id":"2949853084","tag":{"amenity":"waste_basket"}},"type":"Feature"},
	{"geometry":{"coordinates":[13.048431,47.79505],"type":"Point"},"properties":{"osm_id":"2949853085","tag":{"amenity":"waste_basket"}},"type":"Feature"},
	{"geometry":{"coordinates":[13.048604,47.795173],"type":"Point"},"properties":{"osm_id":"2949853087","tag":{"amenity":"waste_basket"}},"type":"Feature"},
	{"geometry":{"coordinates":[13.048187,47.795227],"type":"Point"},"properties":{"osm_id":"2949853091","tag":{"amenity":"waste_basket"}},"type":"Feature"},
	{"geometry":{"coordinates":[13.048555,47.795376],"type":"Point"},"properties":{"osm_id":"2949853098","tag":{"amenity":"waste_basket"}},"type":"Feature"},
	{"geometry":{"coordinates":[13.053464,47.796636],"type":"Point"},"properties":{"osm_id":"2949853101","tag":{"amenity":"waste_basket"}},"type":"Feature"},
	{"geometry":{"coordinates":[13.053187,47.797718],"type":"Point"},"properties":{"osm_id":"2949853105","tag":{"amenity":"waste_basket"}},"type":"Feature"},
	{"geometry":{"coordinates":[13.044381,47.797975],"type":"Point"},"properties":{"osm_id":"2949853106","tag":{"amenity":"waste_basket"}},"type":"Feature"},
	{"geometry":{"coordinates":[13.050167,47.798931],"type":"Point"},"properties":{"osm_id":"2949853107","tag":{"amenity":"waste_basket"}},"type":"Feature"},
	{"geometry":{"coordinates":[13.048588,47.80044],"type":"Point"},"properties":{"osm_id":"2949853109","tag":{"amenity":"waste_basket"}},"type":"Feature"},
	{"geometry":{"coordinates":[13.048467,47.800467],"type":"Point"},"properties":{"osm_id":"2949853111","tag":{"amenity":"waste_basket"}},"type":"Feature"},
	{"geometry":{"coordinates":[13.048741,47.804147],"type":"Point"},"properties":{"osm_id":"2949853113","tag":{"amenity":"waste_basket"}},"type":"Feature"},
	{"geometry":{"coordinates":[13.050677,47.810802],"type":"Point"},"properties":{"osm_id":"2949853117","tag":{"amenity":"waste_basket"}},"type":"Feature"},
	{"geometry":{"coordinates":[13.051815,47.810954],"type":"Point"},"properties":{"osm_id":"2949853118","tag":{"amenity":"waste_basket"}},"type":"Feature"},
	{"geometry":{"coordinates":[13.039847,47.802026],"type":"Point"},"properties":{"osm_id":"3206723607","tag":{"amenity":"waste_basket"}},"type":"Feature"},
	{"geometry":{"coordinates":[13.039843,47.802116],"type":"Point"},"properties":{"osm_id":"3206723609","tag":{"amenity":"waste_basket"}},"type":"Feature"},
	{"geometry":{"coordinates":[13.039726,47.802184],"type":"Point"},"properties":{"osm_id":"3206723610","tag":{"amenity":"waste_basket"}},"type":"Feature"},
	{"geometry":{"coordinates":[13.040254,47.801916],"type":"Point"},"properties":{"osm_id":"3207695666","tag":{"amenity":"waste_basket"}},"type":"Feature"},
	{"geometry":{"coordinates":[13.035673,47.802854],"type":"Point"},"properties":{"osm_id":"3208649294","tag":{"amenity":"waste_basket"}},"type":"Feature"},
	{"geometry":{"coordinates":[13.036399,47.80107],"type":"Point"},"properties":{"osm_id":"3208663165","tag":{"amenity":"waste_basket"}},"type":"Feature"},
	{"geometry":{"coordinates":[13.036595,47.801062],"type":"Point"},"properties":{"osm_id":"3208663166","tag":{"amenity":"waste_basket"}},"type":"Feature"},
	{"geometry":{"coordinates":[13.039956,47.800306],"type":"Point"},"properties":{"osm_id":"3208699647","tag":{"amenity":"waste_basket"}},"type":"Feature"},
	{"geometry":{"coordinates":[13.04011,47.800352],"type":"Point"},"properties":{"osm_id":"3208699649","tag":{"amenity":"waste_basket"}},"type":"Feature"},
	{"geometry":{"coordinates":[13.044051,47.801604],"type":"Point"},"properties":{"osm_id":"3208867411","tag":{"amenity":"waste_basket"}},"type":"Feature"},
	{"geometry":{"coordinates":[13.043897,47.801663],"type":"Point"},"properties":{"osm_id":"3208867412","tag":{"amenity":"waste_basket"}},"type":"Feature"},
	{"geometry":{"coordinates":[13.054735,47.791808],"type":"Point"},"properties":{"osm_id":"3452192395","tag":{"amenity":"waste_basket"}},"type":"Feature"},
	{"geometry":{"coordinates":[13.062389,47.792998],"type":"Point"},"properties":{"osm_id":"3460002510","tag":{"amenity":"recycling","recycling:clothes":"yes","recycling:glass":"yes","recycling:glass_bottles":"yes","recycling:paper":"yes","recycling_type":"container"}},"type":"Feature"},
	{"geometry":{"coordinates":[13.027372,47.803398],"type":"Point"},"properties":{"osm_id":"3480944199","tag":{"amenity":"recycling","location":"overground","recycling:paper":"yes","recycling_type":"container"}},"type":"Feature"},
	{"geometry":{"coordinates":[13.061182,47.789672],"type":"Point"},"properties":{"osm_id":"3509932121","tag":{"amenity":"recycling","location":"overground","recycling:glass":"yes","recycling:paper":"yes","recycling_type":"container"}},"type":"Feature"},
	{"geometry":{"coordinates":[13.059499,47.789964],"type":"Point"},"properties":{"osm_id":"3509932122","tag":{"amenity":"waste_basket"}},"type":"Feature"},
	{"geometry":{"coordinates":[13.059605,47.789757],"type":"Point"},"properties":{"osm_id":"3509932123","tag":{"amenity":"waste_basket"}},"type":"Feature"},
	{"geometry":{"coordinates":[13.052537,47.792393],"type":"Point"},"properties":{"osm_id":"3533106223","tag":{"amenity":"recycling","location":"overground","recycling:clothes":"yes","recycling:glass":"yes","recycling_type":"container"}},"type":"Feature"},
	{"geometry":{"coordinates":[13.056573,47.779696],"type":"Point"},"properties":{"osm_id":"3550972592","tag":{"amenity":"recycling","mapillary":"EBhVNJMVE3GKKVYVH0GJag","recycling:glass":"yes","recycling:paper":"yes","recycling_type":"container","survey:date":"2017-11-02"}},"type":"Feature"},
	{"geometry":{"coordinates":[13.058783,47.76371],"type":"Point"},"properties":{"osm_id":"3565545303","tag":{"amenity":"recycling","mapillary":"vKFTUNJN8zroxx1Ql8lNjg","recycling:clothes":"yes","recycling:glass":"yes","recycling:paper":"yes","recycling_type":"container","survey:date":"2018-08-07"}},"type":"Feature"},
	{"geometry":{"coordinates":[13.058366,47.770091],"type":"Point"},"properties":{"osm_id":"3581082694","tag":{"amenity":"recycling","recycling:paper":"yes"}},"type":"Feature"},
	{"geometry":{"coordinates":[13.053299,47.791932],"type":"Point"},"properties":{"osm_id":"3585709445","tag":{"amenity":"recycling","location":"overground","recycling:paper":"yes","recycling_type":"container"}},"type":"Feature"},
	{"geometry":{"coordinates":[13.064381,47.785733],"type":"Point"},"properties":{"osm_id":"3585709446","tag":{"amenity":"recycling","mapillary":"oVuRqiXhjJ0wGFm4F7DZJg","recycling:clothes":"yes","recycling:glass":"yes","recycling:paper":"yes","recycling_type":"container","survey:date":"2016-07-04"}},"type":"Feature"},
	{"geometry":{"coordinates":[13.059856,47.788773],"type":"Point"},"properties":{"osm_id":"3805283657","tag":{"amenity":"waste_basket"}},"type":"Feature"},
	{"geometry":{"coordinates":[13.034841,47.805124],"type":"Point"},"properties":{"osm_id":"3824202288","tag":{"amenity":"waste_basket"}},"type":"Feature"},
	{"geometry":{"coordinates":[13.03363,47.804239],"type":"Point"},"properties":{"osm_id":"3847053130","tag":{"amenity":"waste_basket"}},"type":"Feature"},
	{"geometry":{"coordinates":[13.034554,47.804942],"type":"Point"},"properties":{"osm_id":"3847053133","tag":{"amenity":"waste_basket"}},"type":"Feature"},
	{"geometry":{"coordinates":[13.036276,47.804357],"type":"Point"},"properties":{"osm_id":"3847139936","tag":{"amenity":"waste_basket"}},"type":"Feature"},
	{"geometry":{"coordinates":[13.038735,47.800315],"type":"Point"},"properties":{"osm_id":"3848704122","tag":{"amenity":"waste_basket"}},"type":"Feature"},
	{"geometry":{"coordinates":[13.038325,47.801561],"type":"Point"},"properties":{"osm_id":"3848704124","tag":{"amenity":"waste_basket"}},"type":"Feature"},
	{"geometry":{"coordinates":[13.037469,47.803332],"type":"Point"},"properties":{"osm_id":"3848704128","tag":{"amenity":"waste_basket"}},"type":"Feature"},
	{"geometry":{"coordinates":[13.038264,47.7988],"type":"Point"},"properties":{"osm_id":"3848782271","tag":{"amenity":"waste_basket"}},"type":"Feature"},
	{"geometry":{"coordinates":[13.034727,47.799153],"type":"Point"},"properties":{"osm_id":"3848782278","tag":{"amenity":"waste_basket"}},"type":"Feature"},
	{"geometry":{"coordinates":[13.038407,47.79949],"type":"Point"},"properties":{"osm_id":"3848782281","tag":{"amenity":"waste_basket"}},"type":"Feature"},
	{"geometry":{"coordinates":[13.032462,47.802596],"type":"Point"},"properties":{"osm_id":"3848782286","tag":{"amenity":"waste_basket"}},"type":"Feature"},
	{"geometry":{"coordinates":[13.032321,47.803344],"type":"Point"},"properties":{"osm_id":"3848782289","tag":{"amenity":"waste_basket"}},"type":"Feature"},
	{"geometry":{"coordinates":[13.032981,47.803665],"type":"Point"},"properties":{"osm_id":"3848782292","tag":{"amenity":"waste_basket"}},"type":"Feature"},
	{"geometry":{"coordinates":[13.078284,47.769698],"type":"Point"},"properties":{"osm_id":"3851419868","tag":{"amenity":"waste_basket"}},"type":"Feature"},
	{"geometry":{"coordinates":[13.07834,47.769877],"type":"Point"},"properties":{"osm_id":"3851419870","tag":{"amenity":"waste_basket"}},"type":"Feature"},
	{"geometry":{"coordinates":[13.058899,47.798351],"type":"Point"},"properties":{"osm_id":"3860771670","tag":{"amenity":"waste_basket"}},"type":"Feature"},
	{"geometry":{"coordinates":[13.056619,47.79789],"type":"Point"},"properties":{"osm_id":"3860772125","tag":{"amenity":"waste_basket"}},"type":"Feature"},
	{"geometry":{"coordinates":[13.058465,47.797778],"type":"Point"},"properties":{"osm_id":"3860775592","tag":{"amenity":"waste_basket"}},"type":"Feature"},
	{"geometry":{"coordinates":[13.060949,47.796891],"type":"Point"},"properties":{"osm_id":"3860780245","tag":{"amenity":"waste_basket"}},"type":"Feature"},
	{"geometry":{"coordinates":[13.060551,47.79688],"type":"Point"},"properties":{"osm_id":"3860780668","tag":{"amenity":"waste_basket"}},"type":"Feature"},
	{"geometry":{"coordinates":[13.059564,47.797009],"type":"Point"},"properties":{"osm_id":"3860788352","tag":{"amenity":"waste_basket"}},"type":"Feature"},
	{"geometry":{"coordinates":[13.05913,47.797277],"type":"Point"},"properties":{"osm_id":"3860793348","tag":{"amenity":"waste_basket"}},"type":"Feature"},
	{"geometry":{"coordinates":[13.058655,47.79682],"type":"Point"},"properties":{"osm_id":"3860793881","tag":{"amenity":"waste_basket"}},"type":"Feature"},
	{"geometry":{"coordinates":[13.059755,47.797177],"type":"Point"},"properties":{"osm_id":"3867180430","tag":{"amenity":"waste_basket"}},"type":"Feature"},
	{"geometry":{"coordinates":[13.059093,47.798365],"type":"Point"},"properties":{"osm_id":"3868648860","tag":{"amenity":"waste_basket"}},"type":"Feature"},
	{"geometry":{"coordinates":[13.039143,47.79975],"type":"Point"},"properties":{"osm_id":"3895233259","tag":{"amenity":"waste_basket"}},"type":"Feature"},
	{"geometry":{"coordinates":[13.037976,47.802266],"type":"Point"},"properties":{"osm_id":"3895243503","tag":{"amenity":"waste_basket"}},"type":"Feature"},
	{"geometry":{"coordinates":[13.080779,47.782775],"type":"Point"},"properties":{"osm_id":"4089929615","tag":{"amenity":"recycling","recycling:clothes":"yes","recycling_type":"container"}},"type":"Feature"},
	{"geometry":{"coordinates":[13.046662,47.797579],"type":"Point"},"properties":{"osm_id":"4142690606","tag":{"amenity":"waste_basket"}},"type":"Feature"},
	{"geometry":{"coordinates":[13.046346,47.797662],"type":"Point"},"properties":{"osm_id":"4142690609","tag":{"amenity":"waste_basket"}},"type":"Feature"},
	{"geometry":{"coordinates":[13.035433,47.808727],"type":"Point"},"properties":{"osm_id":"4142834472","tag":{"amenity":"recycling","recycling:clothes":"yes","recycling:glass":"yes","recycling_type":"container"}},"type":"Feature"},
	{"geometry":{"coordinates":[13.055737,47.794189],"type":"Point"},"properties":{"osm_id":"4143357106","tag":{"amenity":"waste_basket"}},"type":"Feature"},
	{"geometry":{"coordinates":[13.056326,47.802864],"type":"Point"},"properties":{"osm_id":"4144914564","tag":{"amenity":"waste_basket"}},"type":"Feature"},
	{"geometry":{"coordinates":[13.042127,47.7986],"type":"Point"},"properties":{"osm_id":"4145021210","tag":{"amenity":"waste_basket"}},"type":"Feature"},
	{"geometry":{"coordinates":[13.046734,47.799276],"type":"Point"},"properties":{"osm_id":"4145021211","tag":{"amenity":"waste_basket"}},"type":"Feature"},
	{"geometry":{"coordinates":[13.036605,47.805798],"type":"Point"},"properties":{"osm_id":"4145021251","tag":{"amenity":"waste_basket"}},"type":"Feature"},
	{"geometry":{"coordinates":[13.038596,47.809202],"type":"Point"},"properties":{"osm_id":"4145021265","tag":{"amenity":"recycling","recycling:clothes":"yes","recycling:glass":"yes","recycling:shoes":"yes","recycling_type":"container"}},"type":"Feature"},
	{"geometry":{"coordinates":[13.036281,47.786762],"type":"Point"},"properties":{"osm_id":"4404297489","tag":{"amenity":"waste_basket"}},"type":"Feature"},
	{"geometry":{"coordinates":[13.03656,47.786445],"type":"Point"},"properties":{"osm_id":"4404297490","tag":{"amenity":"waste_basket"}},"type":"Feature"},
	{"geometry":{"coordinates":[13.04761,47.803946],"type":"Point"},"properties":{"osm_id":"4442589689","tag":{"amenity":"waste_basket"}},"type":"Feature"},
	{"geometry":{"coordinates":[13.019425,47.791418],"type":"Point"},"properties":{"osm_id":"4462168130","tag":{"amenity":"recycling","location":"overground","recycling:clothes":"yes","recycling:glass_bottles":"yes","recycling:paper":"yes","recycling_type":"container"}},"type":"Feature"},
	{"geometry":{"coordinates":[13.038867,47.808091],"type":"Point"},"properties":{"osm_id":"4595152940","tag":{"amenity":"recycling","recycling:clothes":"yes","recycling:glass_bottles":"yes","recycling_type":"container"}},"type":"Feature"},
	{"geometry":{"coordinates":[13.029738,47.810851],"type":"Point"},"properties":{"osm_id":"4621216320","tag":{"amenity":"waste_basket"}},"type":"Feature"},
	{"geometry":{"coordinates":[13.015486,47.803818],"type":"Point"},"properties":{"osm_id":"4754434567","tag":{"access":"private","amenity":"recycling","recycling:glass_bottles":"yes","recycling_type":"container"}},"type":"Feature"},
	{"geometry":{"coordinates":[13.020263,47.791697],"type":"Point"},"properties":{"osm_id":"4763736420","tag":{"amenity":"waste_basket"}},"type":"Feature"},
	{"geometry":{"coordinates":[13.076678,47.793242],"type":"Point"},"properties":{"osm_id":"4768196619","tag":{"amenity":"recycling","recycling:clothes":"yes","recycling_type":"container"}},"type":"Feature"},
	{"geometry":{"coordinates":[13.02793,47.789679],"type":"Point"},"properties":{"osm_id":"4872277883","tag":{"amenity":"recycling","recycling:glass_bottles":"yes","recycling_type":"container"}},"type":"Feature"},
	{"geometry":{"coordinates":[13.084294,47.795475],"type":"Point"},"properties":{"osm_id":"4937463739","tag":{"amenity":"waste_basket"}},"type":"Feature"},
	{"geometry":{"coordinates":[13.083216,47.781269],"type":"Point"},"properties":{"osm_id":"5035205728","tag":{"amenity":"recycling","recycling:glass":"yes","recycling:glass_bottles":"yes","recycling_type":"container"}},"type":"Feature"},
	{"geometry":{"coordinates":[13.089819,47.768642],"type":"Point"},"properties":{"osm_id":"5316366639","tag":{"amenity":"waste_basket","information":"guidepost","tourism":"information"}},"type":"Feature"},
	{"geometry":{"coordinates":[13.02345,47.798896],"type":"Point"},"properties":{"osm_id":"5319202771","tag":{"amenity":"recycling","recycling:clothes":"yes","recycling_type":"container"}},"type":"Feature"},
	{"geometry":{"coordinates":[13.011224,47.811992],"type":"Point"},"properties":{"osm_id":"5324789655","tag":{"amenity":"recycling","recycling:clothes":"yes","recycling_type":"container"}},"type":"Feature"},
	{"geometry":{"coordinates":[13.014118,47.81064],"type":"Point"},"properties":{"osm_id":"5324789656","tag":{"amenity":"recycling","recycling:clothes":"yes","recycling:glass":"yes","recycling_type":"container"}},"type":"Feature"},
	{"geometry":{"coordinates":[13.010666,47.80975],"type":"Point"},"properties":{"osm_id":"5329231619","tag":{"amenity":"recycling","operator":"Humana","recycling:clothes":"yes","recycling:shoes":"yes","recycling_type":"container"}},"type":"Feature"},
	{"geometry":{"coordinates":[13.046537,47.81069],"type":"Point"},"properties":{"osm_id":"5344711761","tag":{"amenity":"waste_basket","waste":"trash"}},"type":"Feature"},
	{"geometry":{"coordinates":[13.041662,47.801343],"type":"Point"},"properties":{"osm_id":"5344981516","tag":{"amenity":"waste_basket","waste":"trash"}},"type":"Feature"},
	{"geometry":{"coordinates":[13.040931,47.801488],"type":"Point"},"properties":{"osm_id":"5344981518","tag":{"amenity":"recycling","recycling:glass_bottles":"yes","recycling_type":"container"}},"type":"Feature"},
	{"geometry":{"coordinates":[13.040799,47.801702],"type":"Point"},"properties":{"osm_id":"5344981520","tag":{"amenity":"waste_basket","waste":"trash"}},"type":"Feature"},
	{"geometry":{"coordinates":[13.040432,47.801835],"type":"Point"},"properties":{"osm_id":"5344983221","tag":{"amenity":"waste_basket","waste":"trash"}},"type":"Feature"},
	{"geometry":{"coordinates":[13.017673,47.804018],"type":"Point"},"properties":{"osm_id":"5351396281","tag":{"amenity":"waste_basket","waste":"trash","waste_1":"cigarettes"}},"type":"Feature"},
	{"geometry":{"coordinates":[13.04181,47.810502],"type":"Point"},"properties":{"osm_id":"5351531169","tag":{"amenity":"recycling","recycling:glass_bottles":"yes","recycling_type":"container"}},"type":"Feature"},
	{"geometry":{"coordinates":[13.04445,47.807995],"type":"Point"},"properties":{"osm_id":"5351705588","tag":{"amenity":"waste_basket","waste":"trash"}},"type":"Feature"},
	{"geometry":{"coordinates":[13.031333,47.81197],"type":"Point"},"properties":{"osm_id":"5359028493","tag":{"amenity":"recycling","recycling:clothes":"yes","recycling:glass_bottles":"yes","recycling:glass_brown":"yes","recycling:glass_green":"yes","recycling:glass_jars":"yes","recycling:glass_white":"yes","recycling_type":"container"}},"type":"Feature"},
	{"geometry":{"coordinates":[13.039199,47.807568],"type":"Point"},"properties":{"osm_id":"5381270678","tag":{"amenity":"waste_basket"}},"type":"Feature"},
	{"geometry":{"coordinates":[13.050255,47.810965],"type":"Point"},"properties":{"osm_id":"5381793422","tag":{"amenity":"recycling","recycling:glass_bottles":"yes","recycling_type":"container"}},"type":"Feature"},
	{"geometry":{"coordinates":[13.050288,47.810986],"type":"Point"},"properties":{"osm_id":"5381793424","tag":{"amenity":"recycling","operator":"Humana","recycling:clothes":"yes","recycling:shoes":"yes","recycling_type":"container"}},"type":"Feature"},
	{"geometry":{"coordinates":[13.081924,47.76022],"type":"Point"},"properties":{"osm_id":"5392208629","tag":{"amenity":"waste_disposal"}},"type":"Feature"},
	{"geometry":{"coordinates":[13.027573,47.805081],"type":"Point"},"properties":{"osm_id":"5413118293","tag":{"amenity":"recycling","recycling:glass_bottles":"yes","recycling_type":"container"}},"type":"Feature"},
	{"geometry":{"coordinates":[13.027584,47.805064],"type":"Point"},"properties":{"osm_id":"5413118294","tag":{"amenity":"recycling","operator":"Humana","recycling:clothes":"yes","recycling:shoes":"yes","recycling_type":"container"}},"type":"Feature"},
	{"geometry":{"coordinates":[13.018974,47.788786],"type":"Point"},"properties":{"osm_id":"5421231002","tag":{"amenity":"recycling","operator":"Tao & ModeCircel","recycling:clothes":"yes","recycling:household_textiles":"yes","recycling:shoes":"yes","recycling_type":"container"}},"type":"Feature"},
	{"geometry":{"coordinates":[13.030799,47.801264],"type":"Point"},"properties":{"osm_id":"5421231004","tag":{"amenity":"recycling","recycling:glass_bottles":"yes","recycling_type":"container"}},"type":"Feature"},
	{"geometry":{"coordinates":[13.042827,47.800878],"type":"Point"},"properties":{"osm_id":"5434280133","tag":{"amenity":"recycling","recycling:glass_bottles":"yes","recycling_type":"container"}},"type":"Feature"},
	{"geometry":{"coordinates":[13.040102,47.798925],"type":"Point"},"properties":{"osm_id":"5436255536","tag":{"amenity":"waste_basket","waste":"trash"}},"type":"Feature"},
	{"geometry":{"coordinates":[13.026711,47.792361],"type":"Point"},"properties":{"osm_id":"5499814356","tag":{"amenity":"recycling","recycling:glass_bottles":"yes","recycling:plastic":"yes","recycling_type":"container"}},"type":"Feature"},
	{"geometry":{"coordinates":[13.028604,47.791401],"type":"Point"},"properties":{"osm_id":"5499818181","tag":{"amenity":"recycling","recycling:glass_bottles":"yes","recycling_type":"container"}},"type":"Feature"},
	{"geometry":{"coordinates":[13.032318,47.799141],"type":"Point"},"properties":{"osm_id":"5585047196","tag":{"amenity":"waste_basket","waste":"trash"}},"type":"Feature"},
	{"geometry":{"coordinates":[13.034416,47.811269],"type":"Point"},"properties":{"osm_id":"5589310747","tag":{"amenity":"waste_basket","waste":"trash"}},"type":"Feature"},
	{"geometry":{"coordinates":[13.007874,47.809574],"type":"Point"},"properties":{"osm_id":"5657250228","tag":{"amenity":"recycling","location":"underground","recycling:glass_bottles":"yes","recycling:green_waste":"yes","recycling:paper":"yes","recycling:plastic":"yes","recycling_type":"container"}},"type":"Feature"},
	{"geometry":{"coordinates":[13.01169,47.808558],"type":"Point"},"properties":{"osm_id":"5657250229","tag":{"amenity":"recycling","location":"underground","recycling:glass_bottles":"yes","recycling:green_waste":"yes","recycling:paper":"yes","recycling:plastic":"yes","recycling_type":"container"}},"type":"Feature"},
	{"geometry":{"coordinates":[13.070025,47.755339],"type":"Point"},"properties":{"osm_id":"5684120413","tag":{"amenity":"waste_basket"}},"type":"Feature"},
	{"geometry":{"coordinates":[13.043767,47.789325],"type":"Point"},"properties":{"osm_id":"5720337270","tag":{"amenity":"waste_basket"}},"type":"Feature"},
	{"geometry":{"coordinates":[13.042887,47.788392],"type":"Point"},"properties":{"osm_id":"5720469577","tag":{"amenity":"waste_basket"}},"type":"Feature"},
	{"geometry":{"coordinates":[13.044221,47.787992],"type":"Point"},"properties":{"osm_id":"5720469584","tag":{"amenity":"waste_basket"}},"type":"Feature"},
	{"geometry":{"coordinates":[13.046505,47.789188],"type":"Point"},"properties":{"osm_id":"5720469589","tag":{"amenity":"waste_basket"}},"type":"Feature"},
	{"geometry":{"coordinates":[13.059631,47.792101],"type":"Point"},"properties":{"osm_id":"5738305522","tag":{"amenity":"waste_basket"}},"type":"Feature"},
	{"geometry":{"coordinates":[13.053308,47.796098],"type":"Point"},"properties":{"osm_id":"5740618724","tag":{"amenity":"waste_basket"}},"type":"Feature"},
	{"geometry":{"coordinates":[13.045967,47.806073],"type":"Point"},"properties":{"osm_id":"5775231889","tag":{"amenity":"recycling","recycling:cardboard":"yes","recycling:cartons":"yes","recycling:paper":"yes","recycling_type":"container"}},"type":"Feature"},
	{"geometry":{"coordinates":[13.030933,47.810637],"type":"Point"},"properties":{"osm_id":"5817488392","tag":{"amenity":"waste_basket","waste":"trash"}},"type":"Feature"},
	{"geometry":{"coordinates":[13.031935,47.797002],"type":"Point"},"properties":{"osm_id":"5962690411","tag":{"amenity":"recycling","recycling:cans":"yes","recycling:paper":"yes","recycling:plastic":"yes","recycling:waste":"yes","recycling_type":"container"}},"type":"Feature"},
	{"geometry":{"coordinates":[13.030869,47.797254],"type":"Point"},"properties":{"osm_id":"5963942266","tag":{"amenity":"recycling","recycling:cans":"yes","recycling:paper":"yes","recycling:plastic":"yes","recycling:waste":"yes","recycling_type":"container"}},"type":"Feature"},
	{"geometry":{"coordinates":[13.041634,47.787459],"type":"Point"},"properties":{"osm_id":"5967006114","tag":{"amenity":"waste_basket"}},"type":"Feature"},
	{"geometry":{"coordinates":[13.032493,47.786946],"type":"Point"},"properties":{"osm_id":"5973065442","tag":{"amenity":"recycling","recycling:paper":"yes","recycling_type":"container"}},"type":"Feature"},
	{"geometry":{"coordinates":[13.035685,47.787915],"type":"Point"},"properties":{"osm_id":"5973065444","tag":{"amenity":"waste_basket"}},"type":"Feature"},
	{"geometry":{"coordinates":[13.038672,47.784074],"type":"Point"},"properties":{"osm_id":"5973065448","tag":{"amenity":"waste_basket","amenity_1":"dog_waste_bin","description":"M\u00c3\u00bclleimer mit Kotbeutelspender f\u00c3\u00bcr Hunde"}},"type":"Feature"},
	{"geometry":{"coordinates":[13.039638,47.783007],"type":"Point"},"properties":{"osm_id":"5973065451","tag":{"amenity":"waste_basket"}},"type":"Feature"},
	{"geometry":{"coordinates":[13.040747,47.783111],"type":"Point"},"properties":{"osm_id":"5973065454","tag":{"amenity":"waste_basket"}},"type":"Feature"},
	{"geometry":{"coordinates":[13.041515,47.783496],"type":"Point"},"properties":{"osm_id":"5973065457","tag":{"amenity":"recycling","recycling:paper":"yes","recycling_type":"container"}},"type":"Feature"},
	{"geometry":{"coordinates":[13.037933,47.75687],"type":"Point"},"properties":{"osm_id":"6053113150","tag":{"amenity":"waste_basket"}},"type":"Feature"},
	{"geometry":{"coordinates":[13.035996,47.759104],"type":"Point"},"properties":{"osm_id":"6053127385","tag":{"amenity":"waste_basket"}},"type":"Feature"},
	{"geometry":{"coordinates":[13.039589,47.76578],"type":"Point"},"properties":{"osm_id":"6053127386","tag":{"amenity":"waste_basket"}},"type":"Feature"},
	{"geometry":{"coordinates":[13.045841,47.792568],"type":"Point"},"properties":{"osm_id":"6070259988","tag":{"amenity":"waste_basket","information":"guidepost","tourism":"information"}},"type":"Feature"},
	{"geometry":{"coordinates":[13.039519,47.792391],"type":"Point"},"properties":{"osm_id":"6127004647","tag":{"amenity":"recycling"}},"type":"Feature"},
	{"geometry":{"coordinates":[13.043664,47.791766],"type":"Point"},"properties":{"osm_id":"6127004648","tag":{"amenity":"waste_basket"}},"type":"Feature"},
	{"geometry":{"coordinates":[13.050123,47.792978],"type":"Point"},"properties":{"osm_id":"6127004657","tag":{"amenity":"recycling"}},"type":"Feature"},
	{"geometry":{"coordinates":[13.029171,47.798439],"type":"Point"},"properties":{"osm_id":"6127005140","tag":{"amenity":"recycling","location":"overground","recycling:paper":"yes","recycling_type":"container"}},"type":"Feature"},
	{"geometry":{"coordinates":[13.045811,47.792582],"type":"Point"},"properties":{"osm_id":"6127005143","tag":{"amenity":"waste_basket"}},"type":"Feature"},
	{"geometry":{"coordinates":[13.035288,47.793663],"type":"Point"},"properties":{"osm_id":"6127005189","tag":{"amenity":"recycling"}},"type":"Feature"},
	{"geometry":{"coordinates":[13.045327,47.793499],"type":"Point"},"properties":{"osm_id":"6127005190","tag":{"amenity":"recycling","location":"overground","recycling:paper":"yes","recycling_type":"container"}},"type":"Feature"},
	{"geometry":{"coordinates":[13.049095,47.792853],"type":"Point"},"properties":{"osm_id":"6127005191","tag":{"amenity":"recycling","location":"overground","recycling:paper":"yes","recycling_type":"container"}},"type":"Feature"},
	{"geometry":{"coordinates":[13.059764,47.792619],"type":"Point"},"properties":{"osm_id":"6127005197","tag":{"amenity":"recycling","location":"overground","recycling_type":"container"}},"type":"Feature"},
	{"geometry":{"coordinates":[13.023068,47.79903],"type":"Point"},"properties":{"osm_id":"6127005286","tag":{"amenity":"recycling","location":"overground","recycling:glass_bottles":"yes","recycling_type":"container"}},"type":"Feature"},
	{"geometry":{"coordinates":[13.073822,47.785247],"type":"Point"},"properties":{"osm_id":"6213454291","tag":{"amenity":"waste_basket","material":"metal"}},"type":"Feature"},
	{"geometry":{"coordinates":[13.075426,47.781718],"type":"Point"},"properties":{"osm_id":"6213459072","tag":{"amenity":"waste_basket","material":"metal"}},"type":"Feature"},
	{"geometry":{"coordinates":[13.074195,47.780251],"type":"Point"},"properties":{"osm_id":"6213508467","tag":{"amenity":"waste_basket","material":"metal"}},"type":"Feature"},
	{"geometry":{"coordinates":[13.044278,47.799202],"type":"Point"},"properties":{"osm_id":"6283248071","tag":{"amenity":"recycling","location":"overground","recycling:glass_bottles":"yes","recycling_type":"container"}},"type":"Feature"},
	{"geometry":{"coordinates":[13.035378,47.808692],"type":"Point"},"properties":{"osm_id":"6283248261","tag":{"amenity":"recycling"}},"type":"Feature"},
	{"geometry":{"coordinates":[13.034343,47.812448],"type":"Point"},"properties":{"osm_id":"6283248262","tag":{"amenity":"recycling"}},"type":"Feature"},
	{"geometry":{"coordinates":[13.051838,47.794093],"type":"Point"},"properties":{"osm_id":"6289948392","tag":{"amenity":"waste_basket"}},"type":"Feature"},
	{"geometry":{"coordinates":[13.047095,47.788227],"type":"Point"},"properties":{"osm_id":"6307678627","tag":{"access":"private","amenity":"waste_disposal","operator":"Billa"}},"type":"Feature"},
	{"geometry":{"coordinates":[13.057226,47.756364],"type":"Point"},"properties":{"osm_id":"6327650888","tag":{"amenity":"waste_basket","waste":"trash"}},"type":"Feature"},
	{"geometry":{"coordinates":[13.040833,47.770225],"type":"Point"},"properties":{"osm_id":"6333502501","tag":{"amenity":"recycling","recycling:clothes":"yes","recycling:glass":"yes","recycling:paper":"yes","recycling_type":"container"}},"type":"Feature"},
	{"geometry":{"coordinates":[13.048176,47.811655],"type":"Point"},"properties":{"osm_id":"6365515766","tag":{"amenity":"recycling","recycling:glass":"no","recycling:glass_bottles":"yes","recycling_type":"container"}},"type":"Feature"},
	{"geometry":{"coordinates":[13.026913,47.802332],"type":"Point"},"properties":{"osm_id":"6366115435","tag":{"amenity":"recycling","recycling:paper":"yes","recycling_type":"container"}},"type":"Feature"},
	{"geometry":{"coordinates":[13.047658,47.809248],"type":"Point"},"properties":{"osm_id":"6407530723","tag":{"amenity":"recycling","recycling:green_waste":"yes","recycling:paper":"yes","recycling:plastic":"yes","recycling:plastic_bottles":"yes","recycling:waste":"yes","recycling_type":"container"}},"type":"Feature"},
	{"geometry":{"coordinates":[13.044391,47.812154],"type":"Point"},"properties":{"osm_id":"6440496203","tag":{"amenity":"recycling","recycling:glass":"yes","recycling_type":"container"}},"type":"Feature"},
	{"geometry":{"coordinates":[13.078279,47.788672],"type":"Point"},"properties":{"osm_id":"6455962231","tag":{"amenity":"waste_basket","waste":"trash"}},"type":"Feature"},
	{"geometry":{"coordinates":[13.050097,47.803647],"type":"Point"},"properties":{"osm_id":"6455962243","tag":{"amenity":"waste_basket","waste":"trash"}},"type":"Feature"},
	{"geometry":{"coordinates":[13.049035,47.805294],"type":"Point"},"properties":{"osm_id":"6456488865","tag":{"amenity":"recycling","opening_hours":"Mo-Su 07:00-20:00","recycling:clothes":"yes","recycling:glass":"no","recycling:glass_bottles":"yes","recycling_type":"container","wheelchair":"yes"}},"type":"Feature"},
	{"geometry":{"coordinates":[13.050081,47.809925],"type":"Point"},"properties":{"osm_id":"6463252633","tag":{"amenity":"recycling","opening_hours":"24/7","recycling:cardboard":"yes","recycling:clothes":"yes","recycling:paper":"yes","recycling_type":"container","wheelchair":"yes"}},"type":"Feature"},
	{"geometry":{"coordinates":[13.081467,47.777776],"type":"Point"},"properties":{"osm_id":"6464259693","tag":{"amenity":"recycling","recycling:electrical_appliances":"yes","recycling_type":"container","wheelchair":"yes"}},"type":"Feature"},
	{"geometry":{"coordinates":[13.065014,47.80794],"type":"Point"},"properties":{"osm_id":"6468314273","tag":{"amenity":"recycling","opening_hours":"Mo-Su 07:00-20:00","recycling:glass":"yes","recycling_type":"container","wheelchair":"yes"}},"type":"Feature"},
	{"geometry":{"coordinates":[13.062196,47.771467],"type":"Point"},"properties":{"osm_id":"6484408803","tag":{"amenity":"waste_basket","waste":"dog_excrement"}},"type":"Feature"},
	{"geometry":{"coordinates":[13.081474,47.777757],"type":"Point"},"properties":{"osm_id":"6603855654","tag":{"amenity":"recycling","recycling:glass":"yes","recycling_type":"container"}},"type":"Feature"},
	{"geometry":{"coordinates":[13.081493,47.777737],"type":"Point"},"properties":{"osm_id":"6603855655","tag":{"amenity":"recycling","operator":"Humana","recycling:clothes":"yes","recycling_type":"container","website":"https://www.humana.at/"}},"type":"Feature"},
	{"geometry":{"coordinates":[13.043515,47.812509],"type":"Point"},"properties":{"osm_id":"6672800123","tag":{"amenity":"recycling","recycling:clothes":"yes","recycling:glass":"yes","recycling_type":"container"}},"type":"Feature"},
	{"geometry":{"coordinates":[13.043652,47.812876],"type":"Point"},"properties":{"osm_id":"6775725942","tag":{"amenity":"waste_basket","colour":"black","material":"plastic"}},"type":"Feature"},
	{"geometry":{"coordinates":[13.044833,47.812957],"type":"Point"},"properties":{"osm_id":"6775725943","tag":{"amenity":"waste_basket","material":"steel","operator":"\u00c3\u0096BB"}},"type":"Feature"},
	{"geometry":{"coordinates":[13.043932,47.812772],"type":"Point"},"properties":{"osm_id":"6791271767","tag":{"amenity":"waste_basket","colour":"black","material":"plastic"}},"type":"Feature"},
	{"geometry":{"coordinates":[13.044076,47.812728],"type":"Point"},"properties":{"osm_id":"6791271768","tag":{"amenity":"waste_basket","colour":"black","material":"plastic"}},"type":"Feature"},
	{"geometry":{"coordinates":[13.07871,47.776772],"type":"Point"},"properties":{"osm_id":"6867770605","tag":{"amenity":"recycling","recycling:glass_bottles":"yes","recycling:paper":"yes","recycling_type":"container"}},"type":"Feature"},
	{"geometry":{"coordinates":[13.059933,47.788725],"type":"Point"},"properties":{"osm_id":"6977054679","tag":{"amenity":"waste_basket","waste":"trash"}},"type":"Feature"},
	{"geometry":{"coordinates":[13.059929,47.788692],"type":"Point"},"properties":{"osm_id":"6977054680","tag":{"amenity":"waste_basket","waste":"trash"}},"type":"Feature"},
	{"geometry":{"coordinates":[13.018723,47.785345],"type":"Point"},"properties":{"osm_id":"6979843688","tag":{"amenity":"waste_basket","material":"metal","waste":"trash"}},"type":"Feature"},
	{"geometry":{"coordinates":[13.04177,47.7949],"type":"Point"},"properties":{"osm_id":"7265815740","tag":{"amenity":"waste_basket"}},"type":"Feature"},
	{"geometry":{"coordinates":[13.035189,47.774814],"type":"Point"},"properties":{"osm_id":"7528770512","tag":{"amenity":"recycling","opening_hours":"24/7","recycling:paper":"yes","recycling_type":"container"}},"type":"Feature"},
	{"geometry":{"coordinates":[13.0355,47.773739],"type":"Point"},"properties":{"osm_id":"7528773989","tag":{"amenity":"waste_basket","material":"plastic","waste":"trash"}},"type":"Feature"},
	{"geometry":{"coordinates":[13.035449,47.77379],"type":"Point"},"properties":{"osm_id":"7528773990","tag":{"amenity":"recycling","opening_hours":"24/7","recycling:paper":"yes","recycling_type":"container"}},"type":"Feature"},
	{"geometry":{"coordinates":[13.035407,47.777267],"type":"Point"},"properties":{"osm_id":"7528777015","tag":{"amenity":"recycling","opening_hours":"24/7","recycling:clothes":"yes","recycling:glass_bottles":"yes","recycling:paper":"yes","recycling_type":"container"}},"type":"Feature"},
	{"geometry":{"coordinates":[13.017018,47.804278],"type":"Point"},"properties":{"name":"Kleidercontainer","osm_id":"7567549305","tag":{"amenity":"recycling","operator":"Caritas Salzburg","recycling:clothes":"yes","recycling:shoes":"yes","recycling_type":"container"}},"type":"Feature"},
	{"geometry":{"coordinates":[13.020097,47.803398],"type":"Point"},"properties":{"osm_id":"7575254114","tag":{"amenity":"waste_basket"}},"type":"Feature"},
	{"geometry":{"coordinates":[13.020338,47.803249],"type":"Point"},"properties":{"osm_id":"7575268592","tag":{"amenity":"waste_basket"}},"type":"Feature"},
	{"geometry":{"coordinates":[13.019642,47.80368],"type":"Point"},"properties":{"osm_id":"7575268837","tag":{"amenity":"waste_basket"}},"type":"Feature"},
	{"geometry":{"coordinates":[13.0133,47.806213],"type":"Point"},"properties":{"osm_id":"7575511341","tag":{"amenity":"recycling","opening_hours":"07:00-20:00"}},"type":"Feature"},
	{"geometry":{"coordinates":[13.066482,47.803495],"type":"Point"},"properties":{"name":"Glascontainer","osm_id":"7608693670","tag":{"amenity":"recycling","opening_hours":"24/7","recycling:glass":"yes","recycling:glass_bottles":"yes","recycling_type":"container"}},"type":"Feature"},
	{"geometry":{"coordinates":[13.069757,47.798332],"type":"Point"},"properties":{"osm_id":"7608796171","tag":{"amenity":"recycling","opening_hours":"24/7","recycling:glass":"yes","recycling:glass_bottles":"yes","recycling:paper":"yes","recycling_type":"container"}},"type":"Feature"},
	{"geometry":{"coordinates":[13.070074,47.79809],"type":"Point"},"properties":{"osm_id":"7608796177","tag":{"amenity":"waste_basket","waste":"trash;mixed"}},"type":"Feature"},
	{"geometry":{"coordinates":[13.07457,47.798554],"type":"Point"},"properties":{"osm_id":"7650420992","tag":{"amenity":"waste_basket","colour":"grey","material":"steel","waste":"trash"}},"type":"Feature"},
	{"geometry":{"coordinates":[13.037424,47.809694],"type":"Point"},"properties":{"osm_id":"7882263207","tag":{"amenity":"waste_basket"}},"type":"Feature"},
	{"geometry":{"coordinates":[13.041775,47.794276],"type":"Point"},"properties":{"osm_id":"7883942498","tag":{"amenity":"waste_basket"}},"type":"Feature"},
	{"geometry":{"coordinates":[13.042046,47.794323],"type":"Point"},"properties":{"osm_id":"7883942499","tag":{"amenity":"waste_basket"}},"type":"Feature"},
	{"geometry":{"coordinates":[13.040773,47.794311],"type":"Point"},"properties":{"osm_id":"7883942514","tag":{"amenity":"waste_basket"}},"type":"Feature"},
	{"geometry":{"coordinates":[13.039736,47.795746],"type":"Point"},"properties":{"osm_id":"7932211146","tag":{"amenity":"waste_basket","waste":"trash"}},"type":"Feature"}
]
}
