{
"type": "FeatureCollection",
"features": [
	{"geometry":{"coordinates":[13.068481,47.732169],"type":"Point"},"properties":{"name":"Recyclinghof Anif","osm_id":"300553153","tag":{"amenity":"recycling","recycling_type":"centre"}},"type":"Feature"},
	{"geometry":{"coordinates":[13.044745,47.73928],"type":"Point"},"properties":{"osm_id":"449212020","tag":{"amenity":"recycling"}},"type":"Feature"},
	{"geometry":{"coordinates":[13.034752,47.740682],"type":"Point"},"properties":{"osm_id":"457702222","tag":{"amenity":"recycling"}},"type":"Feature"},
	{"geometry":{"coordinates":[13.046541,47.695553],"type":"Point"},"properties":{"osm_id":"1738565462","tag":{"amenity":"waste_basket"}},"type":"Feature"},
	{"geometry":{"coordinates":[13.041468,47.727583],"type":"Point"},"properties":{"osm_id":"1773395646","tag":{"amenity":"recycling","recycling:batteries":"no","recycling:cans":"yes","recycling:cartons":"yes","recycling:clothes":"yes","recycling:glass":"yes","recycling:glass_bottles":"yes","recycling_type":"centre"}},"type":"Feature"},
	{"geometry":{"coordinates":[13.090785,47.701249],"type":"Point"},"properties":{"osm_id":"1805881079","tag":{"amenity":"recycling","recycling:clothes":"yes","recycling_type":"container"}},"type":"Feature"},
	{"geometry":{"coordinates":[13.038174,47.737251],"type":"Point"},"properties":{"name":"Recycling","osm_id":"2117460908","tag":{"amenity":"recycling","recycling:cartons":"yes","recycling:glass":"yes","recycling:glass_bottles":"yes","recycling:paper":"yes","recycling:paper_packaging":"yes","recycling:plastic":"yes","recycling_type":"container"}},"type":"Feature"},
	{"geometry":{"coordinates":[13.088061,47.724152],"type":"Point"},"properties":{"osm_id":"3850315459","tag":{"amenity":"waste_basket"}},"type":"Feature"},
	{"geometry":{"coordinates":[13.088021,47.724308],"type":"Point"},"properties":{"osm_id":"3850315462","tag":{"amenity":"waste_basket"}},"type":"Feature"},
	{"geometry":{"coordinates":[13.088001,47.724358],"type":"Point"},"properties":{"osm_id":"3850315463","tag":{"amenity":"waste_basket"}},"type":"Feature"},
	{"geometry":{"coordinates":[13.087981,47.724604],"type":"Point"},"properties":{"osm_id":"3850315465","tag":{"amenity":"waste_basket"}},"type":"Feature"},
	{"geometry":{"coordinates":[13.093051,47.700315],"type":"Point"},"properties":{"osm_id":"3901920168","tag":{"amenity":"waste_basket"}},"type":"Feature"},
	{"geometry":{"coordinates":[13.093009,47.700743],"type":"Point"},"properties":{"osm_id":"3901920174","tag":{"amenity":"waste_basket"}},"type":"Feature"},
	{"geometry":{"coordinates":[13.093184,47.700752],"type":"Point"},"properties":{"osm_id":"3901920175","tag":{"amenity":"waste_basket"}},"type":"Feature"},
	{"geometry":{"coordinates":[13.088254,47.724169],"type":"Point"},"properties":{"osm_id":"3901920369","tag":{"amenity":"waste_basket"}},"type":"Feature"},
	{"geometry":{"coordinates":[13.088216,47.724324],"type":"Point"},"properties":{"osm_id":"3901920372","tag":{"amenity":"waste_basket"}},"type":"Feature"},
	{"geometry":{"coordinates":[13.088242,47.724381],"type":"Point"},"properties":{"osm_id":"3901920373","tag":{"amenity":"waste_basket"}},"type":"Feature"},
	{"geometry":{"coordinates":[13.088161,47.724615],"type":"Point"},"properties":{"osm_id":"3901920375","tag":{"amenity":"waste_basket"}},"type":"Feature"},
	{"geometry":{"coordinates":[13.061551,47.728844],"type":"Point"},"properties":{"osm_id":"3947319020","tag":{"amenity":"recycling","recycling:glass":"yes","recycling:glass_bottles":"yes","recycling_type":"container"}},"type":"Feature"},
	{"geometry":{"coordinates":[13.067915,47.725475],"type":"Point"},"properties":{"barrier":"gate","osm_id":"3947680301"},"type":"Feature"},
	{"geometry":{"coordinates":[13.067447,47.725321],"type":"Point"},"properties":{"barrier":"gate","osm_id":"3947680303"},"type":"Feature"},
	{"geometry":{"coordinates":[13.061814,47.723214],"type":"Point"},"properties":{"osm_id":"4283814537","tag":{"amenity":"recycling","recycling:clothes":"yes","recycling:glass_bottles":"yes"}},"type":"Feature"},
	{"geometry":{"coordinates":[13.079106,47.730951],"type":"Point"},"properties":{"osm_id":"4401493284","tag":{"amenity":"waste_basket"}},"type":"Feature"},
	{"geometry":{"coordinates":[13.07773,47.730906],"type":"Point"},"properties":{"osm_id":"4401493789","tag":{"amenity":"waste_basket"}},"type":"Feature"},
	{"geometry":{"coordinates":[13.07396,47.730568],"type":"Point"},"properties":{"osm_id":"4401493793","tag":{"amenity":"waste_basket"}},"type":"Feature"},
	{"geometry":{"coordinates":[13.081276,47.710108],"type":"Point"},"properties":{"osm_id":"4566845637","tag":{"amenity":"waste_basket","leisure":"picnic_table"}},"type":"Feature"},
	{"geometry":{"coordinates":[13.082394,47.70933],"type":"Point"},"properties":{"osm_id":"4567026184","tag":{"amenity":"waste_basket"}},"type":"Feature"},
	{"geometry":{"coordinates":[13.079752,47.710413],"type":"Point"},"properties":{"osm_id":"4567026186","tag":{"amenity":"waste_basket"}},"type":"Feature"},
	{"geometry":{"coordinates":[13.081769,47.696636],"type":"Point"},"properties":{"osm_id":"4567045797","tag":{"amenity":"waste_basket","amenity_1":"vending_machine","vending":"excrement_bags"}},"type":"Feature"},
	{"geometry":{"coordinates":[13.075651,47.729589],"type":"Point"},"properties":{"osm_id":"4595278700","tag":{"amenity":"waste_basket"}},"type":"Feature"},
	{"geometry":{"coordinates":[13.065094,47.726076],"type":"Point"},"properties":{"osm_id":"4595278712","tag":{"amenity":"waste_basket"}},"type":"Feature"},
	{"geometry":{"coordinates":[13.063267,47.724908],"type":"Point"},"properties":{"osm_id":"4595278717","tag":{"amenity":"waste_basket"}},"type":"Feature"},
	{"geometry":{"coordinates":[13.074858,47.729186],"type":"Point"},"properties":{"osm_id":"4595278726","tag":{"amenity":"waste_basket"}},"type":"Feature"},
	{"geometry":{"coordinates":[13.077662,47.730368],"type":"Point"},"properties":{"osm_id":"4595278729","tag":{"amenity":"waste_basket"}},"type":"Feature"},
	{"geometry":{"coordinates":[13.079516,47.730529],"type":"Point"},"properties":{"osm_id":"4595278730","tag":{"amenity":"waste_basket"}},"type":"Feature"},
	{"geometry":{"coordinates":[13.081992,47.732456],"type":"Point"},"properties":{"osm_id":"4595278732","tag":{"amenity":"waste_basket"}},"type":"Feature"},
	{"geometry":{"coordinates":[13.081478,47.730998],"type":"Point"},"properties":{"osm_id":"4603441638","tag":{"amenity":"waste_basket"}},"type":"Feature"},
	{"geometry":{"coordinates":[13.069566,47.730761],"type":"Point"},"properties":{"osm_id":"4603441645","tag":{"amenity":"waste_basket"}},"type":"Feature"},
	{"geometry":{"coordinates":[13.066823,47.730691],"type":"Point"},"properties":{"osm_id":"4603441650","tag":{"amenity":"waste_basket"}},"type":"Feature"},
	{"geometry":{"coordinates":[13.068006,47.729268],"type":"Point"},"properties":{"osm_id":"4603441652","tag":{"amenity":"waste_basket"}},"type":"Feature"},
	{"geometry":{"coordinates":[13.064811,47.74735],"type":"Point"},"properties":{"osm_id":"4745227157","tag":{"amenity":"recycling","recycling:glass":"yes","recycling_type":"container"}},"type":"Feature"},
	{"geometry":{"coordinates":[13.081931,47.731146],"type":"Point"},"properties":{"osm_id":"5378063538","tag":{"amenity":"waste_basket"}},"type":"Feature"},
	{"geometry":{"coordinates":[13.083582,47.73094],"type":"Point"},"properties":{"osm_id":"5679180912","tag":{"amenity":"waste_basket","amenity_1":"information","bicycle":"yes","hiking":"yes","information":"guidepost","tourism":"information"}},"type":"Feature"},
	{"geometry":{"coordinates":[13.063647,47.725564],"type":"Point"},"properties":{"osm_id":"6703506429","tag":{"amenity":"waste_disposal","waste":"trash"}},"type":"Feature"},
	{"geometry":{"coordinates":[13.030316,47.741802],"type":"Point"},"properties":{"name":"Recyclinghof Gr\u00c3\u00b6dig","osm_id":"6867763666","tag":{"amenity":"recycling","recycling_type":"centre"}},"type":"Feature"},
	{"geometry":{"coordinates":[13.083558,47.714714],"type":"Point"},"properties":{"osm_id":"7489808474","tag":{"amenity":"waste_basket"}},"type":"Feature"}
]
}
