{
"type": "FeatureCollection",
"features": [
	{"geometry":{"coordinates":[13.083519,47.319211],"type":"Point"},"properties":{"osm_id":"4030130953","tag":{"amenity":"waste_basket"}},"type":"Feature"},
	{"geometry":{"coordinates":[13.043188,47.31363],"type":"Point"},"properties":{"osm_id":"5153436202","tag":{"amenity":"waste_basket"}},"type":"Feature"},
	{"geometry":{"coordinates":[13.043423,47.313668],"type":"Point"},"properties":{"osm_id":"5153436203","tag":{"amenity":"waste_basket"}},"type":"Feature"},
	{"geometry":{"coordinates":[13.043632,47.31373],"type":"Point"},"properties":{"osm_id":"5153436204","tag":{"amenity":"waste_basket"}},"type":"Feature"},
	{"geometry":{"coordinates":[13.042973,47.313601],"type":"Point"},"properties":{"osm_id":"5153436205","tag":{"amenity":"waste_basket"}},"type":"Feature"},
	{"geometry":{"coordinates":[13.042779,47.313598],"type":"Point"},"properties":{"osm_id":"5153436206","tag":{"amenity":"waste_basket"}},"type":"Feature"},
	{"geometry":{"coordinates":[13.042968,47.31369],"type":"Point"},"properties":{"osm_id":"5153436207","tag":{"amenity":"waste_basket"}},"type":"Feature"},
	{"geometry":{"coordinates":[13.04316,47.313717],"type":"Point"},"properties":{"osm_id":"5153436208","tag":{"amenity":"waste_basket"}},"type":"Feature"},
	{"geometry":{"coordinates":[13.043367,47.313763],"type":"Point"},"properties":{"osm_id":"5153436209","tag":{"amenity":"waste_basket"}},"type":"Feature"},
	{"geometry":{"coordinates":[13.043591,47.313829],"type":"Point"},"properties":{"osm_id":"5153436210","tag":{"amenity":"waste_basket"}},"type":"Feature"},
	{"geometry":{"coordinates":[13.042527,47.313705],"type":"Point"},"properties":{"osm_id":"5153436211","tag":{"amenity":"waste_basket"}},"type":"Feature"},
	{"geometry":{"coordinates":[13.042544,47.313607],"type":"Point"},"properties":{"osm_id":"5153436212","tag":{"amenity":"waste_basket"}},"type":"Feature"},
	{"geometry":{"coordinates":[13.046021,47.314688],"type":"Point"},"properties":{"osm_id":"5316404596","tag":{"amenity":"waste_basket","description":"Loipen","information":"map","map_size":"region","map_type":"scheme","tourism":"information"}},"type":"Feature"}
]
}
