{
"type": "FeatureCollection",
"features": [
	{"geometry":{"coordinates":[49.146781,55.782817],"type":"Point"},"properties":{"osm_id":"1177219660","tag":{"amenity":"waste_disposal"}},"type":"Feature"},
	{"geometry":{"coordinates":[49.165798,55.787722],"type":"Point"},"properties":{"osm_id":"1203529389","tag":{"amenity":"waste_disposal"}},"type":"Feature"},
	{"geometry":{"coordinates":[49.131949,55.794926],"type":"Point"},"properties":{"osm_id":"1230971278","tag":{"amenity":"waste_disposal","waste":"trash"}},"type":"Feature"},
	{"geometry":{"coordinates":[49.163395,55.784854],"type":"Point"},"properties":{"osm_id":"1271539110","tag":{"amenity":"waste_disposal","waste":"trash"}},"type":"Feature"},
	{"geometry":{"coordinates":[49.167065,55.785647],"type":"Point"},"properties":{"osm_id":"1271539122","tag":{"amenity":"waste_disposal","waste":"trash"}},"type":"Feature"},
	{"geometry":{"coordinates":[49.165374,55.782927],"type":"Point"},"properties":{"osm_id":"1271539124","tag":{"amenity":"waste_disposal","waste":"trash"}},"type":"Feature"},
	{"geometry":{"coordinates":[49.167438,55.782198],"type":"Point"},"properties":{"osm_id":"1440130809","tag":{"amenity":"waste_disposal","waste":"trash"}},"type":"Feature"},
	{"geometry":{"coordinates":[49.177293,55.807623],"type":"Point"},"properties":{"osm_id":"1451259121","tag":{"amenity":"waste_disposal"}},"type":"Feature"},
	{"geometry":{"coordinates":[49.186378,55.806253],"type":"Point"},"properties":{"osm_id":"1792927853","tag":{"amenity":"waste_disposal"}},"type":"Feature"},
	{"geometry":{"coordinates":[49.184816,55.807055],"type":"Point"},"properties":{"osm_id":"1891362860","tag":{"amenity":"waste_disposal"}},"type":"Feature"},
	{"geometry":{"coordinates":[49.185159,55.808045],"type":"Point"},"properties":{"osm_id":"1891362867","tag":{"amenity":"waste_disposal"}},"type":"Feature"},
	{"geometry":{"coordinates":[49.206639,55.812643],"type":"Point"},"properties":{"osm_id":"1892009446","tag":{"amenity":"waste_disposal"}},"type":"Feature"},
	{"geometry":{"coordinates":[49.142902,55.789457],"type":"Point"},"properties":{"osm_id":"2050871128","tag":{"amenity":"waste_disposal"}},"type":"Feature"},
	{"geometry":{"coordinates":[49.181831,55.790414],"type":"Point"},"properties":{"osm_id":"3212040617","tag":{"amenity":"waste_basket"}},"type":"Feature"},
	{"geometry":{"coordinates":[49.180591,55.78951],"type":"Point"},"properties":{"osm_id":"3212040618","tag":{"amenity":"waste_basket"}},"type":"Feature"},
	{"geometry":{"coordinates":[49.181593,55.791393],"type":"Point"},"properties":{"osm_id":"3212040619","tag":{"amenity":"waste_basket"}},"type":"Feature"},
	{"geometry":{"coordinates":[49.211062,55.781751],"type":"Point"},"properties":{"osm_id":"3953138979","tag":{"amenity":"recycling","operator":"\u00d0\u0098\u00d0\u009a\u00d0\u0095\u00d0\u0090","recycling:batteries":"yes","recycling:low_energy_bulbs":"yes","recycling_type":"container"}},"type":"Feature"},
	{"geometry":{"coordinates":[49.177588,55.811755],"type":"Point"},"properties":{"osm_id":"4213670929","tag":{"amenity":"waste_disposal"}},"type":"Feature"},
	{"geometry":{"coordinates":[49.131166,55.782819],"type":"Point"},"properties":{"osm_id":"4321331294","tag":{"amenity":"waste_basket"}},"type":"Feature"},
	{"geometry":{"coordinates":[49.131091,55.782752],"type":"Point"},"properties":{"osm_id":"4321335594","tag":{"amenity":"waste_basket"}},"type":"Feature"},
	{"geometry":{"coordinates":[49.130906,55.782923],"type":"Point"},"properties":{"osm_id":"4321465189","tag":{"amenity":"waste_basket"}},"type":"Feature"},
	{"geometry":{"coordinates":[49.155917,55.786194],"type":"Point"},"properties":{"osm_id":"4457407491","tag":{"amenity":"waste_disposal"}},"type":"Feature"},
	{"geometry":{"coordinates":[49.155159,55.781764],"type":"Point"},"properties":{"osm_id":"4527652589","tag":{"amenity":"waste_disposal"}},"type":"Feature"},
	{"geometry":{"coordinates":[49.158821,55.789861],"type":"Point"},"properties":{"osm_id":"4545994491","tag":{"amenity":"waste_disposal"}},"type":"Feature"},
	{"geometry":{"coordinates":[49.208038,55.793528],"type":"Point"},"properties":{"osm_id":"4589177690","tag":{"amenity":"waste_disposal"}},"type":"Feature"},
	{"geometry":{"coordinates":[49.174519,55.79672],"type":"Point"},"properties":{"osm_id":"4932639749","tag":{"amenity":"waste_disposal"}},"type":"Feature"},
	{"geometry":{"coordinates":[49.173215,55.797399],"type":"Point"},"properties":{"osm_id":"4932647013","tag":{"amenity":"waste_disposal"}},"type":"Feature"},
	{"geometry":{"coordinates":[49.17519,55.797597],"type":"Point"},"properties":{"osm_id":"4932683500","tag":{"amenity":"waste_disposal"}},"type":"Feature"},
	{"geometry":{"coordinates":[49.182392,55.811277],"type":"Point"},"properties":{"osm_id":"4961125752","tag":{"amenity":"waste_disposal"}},"type":"Feature"},
	{"geometry":{"coordinates":[49.208174,55.806601],"type":"Point"},"properties":{"osm_id":"5064305036","tag":{"amenity":"waste_disposal"}},"type":"Feature"},
	{"geometry":{"coordinates":[49.211592,55.804394],"type":"Point"},"properties":{"osm_id":"5064305258","tag":{"amenity":"waste_disposal"}},"type":"Feature"},
	{"geometry":{"coordinates":[49.209084,55.806044],"type":"Point"},"properties":{"osm_id":"5064305259","tag":{"amenity":"waste_disposal"}},"type":"Feature"},
	{"geometry":{"coordinates":[49.136625,55.781618],"type":"Point"},"properties":{"name":"\u00d0\u0091\u00d0\u00bb\u00d0\u00b0\u00d0\u00b3\u00d0\u00be\u00d1\u0082\u00d0\u00b2\u00d0\u00be\u00d1\u0080\u00d0\u00b8\u00d1\u0082\u00d0\u00b5\u00d0\u00bb\u00d1\u008c\u00d0\u00bd\u00d1\u008b\u00d0\u00b9 \u00d0\u00a1\u00d0\u00ba\u00d0\u00bb\u00d0\u00b0\u00d0\u00b4 \u00d0\u00a5\u00d0\u00be\u00d1\u0080\u00d0\u00be\u00d1\u0088\u00d0\u00b8\u00d0\u00b5 \u00d0\u00a0\u00d1\u0083\u00d0\u00ba\u00d0\u00b8","osm_id":"5104782701","tag":{"addr:city":"\u00d0\u009a\u00d0\u00b0\u00d0\u00b7\u00d0\u00b0\u00d0\u00bd\u00d1\u008c","addr:housenumber":"3","addr:street":"\u00d1\u0083\u00d0\u00bb\u00d0\u00b8\u00d1\u0086\u00d0\u00b0 \u00d0\u009a\u00d0\u00b0\u00d0\u00bb\u00d0\u00b8\u00d0\u00bd\u00d0\u00b8\u00d0\u00bd\u00d0\u00b0","amenity":"recycling","opening_hours":"Mo-Fr 10:00-18:00; Sa 10:00-14:00","operator":"\u00d0\u0094\u00d0\u00b5\u00d0\u00bd\u00d1\u008c \u00d0\u0094\u00d0\u00be\u00d0\u00b1\u00d1\u0080\u00d1\u008b\u00d1\u0085 \u00d0\u0094\u00d0\u00b5\u00d0\u00bb","phone":"+78432366561","recycling:clothes":"yes","recycling:shoes":"yes","recycling_type":"centre","social_facility":"clothing_bank"}},"type":"Feature"},
	{"geometry":{"coordinates":[49.164092,55.789064],"type":"Point"},"properties":{"osm_id":"5305577622","tag":{"amenity":"waste_disposal","operator":"\u00d0\u009a\u00d0\u00a4\u00d0\u00a3"}},"type":"Feature"},
	{"geometry":{"coordinates":[49.164111,55.789271],"type":"Point"},"properties":{"osm_id":"5305581121","tag":{"amenity":"waste_disposal","operator":"\u00d0\u009a\u00d0\u00a4\u00d0\u00a3"}},"type":"Feature"},
	{"geometry":{"coordinates":[49.177542,55.804931],"type":"Point"},"properties":{"osm_id":"5344731594","tag":{"amenity":"waste_disposal"}},"type":"Feature"},
	{"geometry":{"coordinates":[49.178972,55.805739],"type":"Point"},"properties":{"osm_id":"5344732326","tag":{"amenity":"waste_disposal"}},"type":"Feature"},
	{"geometry":{"coordinates":[49.177338,55.794527],"type":"Point"},"properties":{"osm_id":"5662474727","tag":{"amenity":"waste_disposal"}},"type":"Feature"},
	{"geometry":{"coordinates":[49.206386,55.804166],"type":"Point"},"properties":{"osm_id":"5793959257","tag":{"amenity":"waste_disposal"}},"type":"Feature"},
	{"geometry":{"coordinates":[49.199159,55.80658],"type":"Point"},"properties":{"osm_id":"5796349153","tag":{"amenity":"waste_disposal"}},"type":"Feature"},
	{"geometry":{"coordinates":[49.195864,55.806491],"type":"Point"},"properties":{"osm_id":"5796418153","tag":{"amenity":"waste_disposal"}},"type":"Feature"},
	{"geometry":{"coordinates":[49.204194,55.805378],"type":"Point"},"properties":{"osm_id":"6060343486","tag":{"amenity":"waste_disposal"}},"type":"Feature"},
	{"geometry":{"coordinates":[49.189545,55.803829],"type":"Point"},"properties":{"osm_id":"6342899917","tag":{"amenity":"waste_disposal"}},"type":"Feature"},
	{"geometry":{"coordinates":[49.143214,55.787127],"type":"Point"},"properties":{"osm_id":"6385833785","tag":{"amenity":"waste_disposal"}},"type":"Feature"},
	{"geometry":{"coordinates":[49.209279,55.797071],"type":"Point"},"properties":{"osm_id":"6469835243","tag":{"amenity":"recycling","recycling:plastic_bottles":"yes","recycling_type":"container"}},"type":"Feature"},
	{"geometry":{"coordinates":[49.131281,55.817271],"type":"Point"},"properties":{"osm_id":"6469835244","tag":{"amenity":"recycling","recycling:batteries":"yes","recycling:led_bulbs":"yes","recycling:low_energy_bulbs":"yes","recycling_type":"container"}},"type":"Feature"},
	{"geometry":{"coordinates":[49.216722,55.802856],"type":"Point"},"properties":{"osm_id":"6489421599","tag":{"amenity":"waste_disposal"}},"type":"Feature"},
	{"geometry":{"coordinates":[49.185272,55.804734],"type":"Point"},"properties":{"osm_id":"6588754988","tag":{"amenity":"waste_disposal"}},"type":"Feature"},
	{"geometry":{"coordinates":[49.204248,55.805468],"type":"Point"},"properties":{"osm_id":"6634962607","tag":{"amenity":"waste_disposal"}},"type":"Feature"},
	{"geometry":{"coordinates":[49.194794,55.811808],"type":"Point"},"properties":{"osm_id":"6666730185","tag":{"amenity":"waste_disposal"}},"type":"Feature"},
	{"geometry":{"coordinates":[49.185596,55.804258],"type":"Point"},"properties":{"osm_id":"7114205286","tag":{"amenity":"waste_disposal"}},"type":"Feature"},
	{"geometry":{"coordinates":[49.188648,55.8126],"type":"Point"},"properties":{"osm_id":"7710987386","tag":{"amenity":"waste_disposal"}},"type":"Feature"},
	{"geometry":{"coordinates":[49.217997,55.780809],"type":"Point"},"properties":{"osm_id":"7734052167","tag":{"amenity":"recycling","recycling_type":"container"}},"type":"Feature"},
	{"geometry":{"coordinates":[49.211552,55.781847],"type":"Point"},"properties":{"osm_id":"7928015785","tag":{"amenity":"recycling","recycling_type":"container"}},"type":"Feature"},
	{"geometry":{"coordinates":[49.179802,55.797614],"type":"Point"},"properties":{"osm_id":"7950537643","tag":{"amenity":"waste_disposal"}},"type":"Feature"}
]
}
