{
"type": "FeatureCollection",
"features": [
	{"geometry":{"coordinates":[5.744846,59.008463],"type":"Point"},"properties":{"osm_id":"1504208429","tag":{"amenity":"waste_basket","tourism":"picnic_site"}},"type":"Feature"},
	{"geometry":{"coordinates":[5.767322,58.996216],"type":"Point"},"properties":{"osm_id":"1787551173","tag":{"amenity":"waste_basket"}},"type":"Feature"},
	{"geometry":{"coordinates":[5.751601,59.008796],"type":"Point"},"properties":{"osm_id":"1794843704","tag":{"amenity":"waste_basket","tourism":"picnic_site"}},"type":"Feature"},
	{"geometry":{"coordinates":[5.752694,59.009832],"type":"Point"},"properties":{"osm_id":"1794843837","tag":{"amenity":"waste_basket","tourism":"picnic_site"}},"type":"Feature"},
	{"geometry":{"coordinates":[5.750669,59.004786],"type":"Point"},"properties":{"osm_id":"1794864493","tag":{"amenity":"waste_basket"}},"type":"Feature"},
	{"geometry":{"coordinates":[5.750802,59.006437],"type":"Point"},"properties":{"osm_id":"1794867340","tag":{"amenity":"waste_basket"}},"type":"Feature"},
	{"geometry":{"coordinates":[5.753068,59.01138],"type":"Point"},"properties":{"osm_id":"1794880161","tag":{"amenity":"waste_basket"}},"type":"Feature"},
	{"geometry":{"coordinates":[5.74746,59.011393],"type":"Point"},"properties":{"osm_id":"1794880168","tag":{"amenity":"waste_basket","tourism":"picnic_site"}},"type":"Feature"},
	{"geometry":{"coordinates":[5.753172,59.011519],"type":"Point"},"properties":{"osm_id":"1794880197","tag":{"amenity":"waste_basket"}},"type":"Feature"},
	{"geometry":{"coordinates":[5.751435,59.01164],"type":"Point"},"properties":{"osm_id":"1794880236","tag":{"amenity":"waste_basket","tourism":"picnic_site"}},"type":"Feature"},
	{"geometry":{"coordinates":[5.745911,59.008837],"type":"Point"},"properties":{"osm_id":"1794929993","tag":{"amenity":"waste_basket"}},"type":"Feature"},
	{"geometry":{"coordinates":[5.74008,59.010099],"type":"Point"},"properties":{"osm_id":"1794930144","tag":{"amenity":"waste_basket","tourism":"picnic_site"}},"type":"Feature"},
	{"geometry":{"coordinates":[5.744043,59.011188],"type":"Point"},"properties":{"osm_id":"1794930199","tag":{"amenity":"waste_basket","tourism":"picnic_site"}},"type":"Feature"},
	{"geometry":{"coordinates":[5.746511,59.011588],"type":"Point"},"properties":{"osm_id":"1794933330","tag":{"amenity":"waste_basket","tourism":"picnic_site"}},"type":"Feature"},
	{"geometry":{"coordinates":[5.751097,58.996296],"type":"Point"},"properties":{"osm_id":"1797190855","tag":{"amenity":"waste_basket"}},"type":"Feature"},
	{"geometry":{"coordinates":[5.738582,59.000173],"type":"Point"},"properties":{"osm_id":"1797426364","tag":{"amenity":"waste_basket"}},"type":"Feature"},
	{"geometry":{"coordinates":[5.746885,58.998478],"type":"Point"},"properties":{"osm_id":"1798360260","tag":{"amenity":"waste_basket"}},"type":"Feature"},
	{"geometry":{"coordinates":[5.725375,59.002612],"type":"Point"},"properties":{"highway":"street_lamp","osm_id":"1902717202","tag":{"amenity":"waste_basket"}},"type":"Feature"},
	{"geometry":{"coordinates":[5.739897,58.999735],"type":"Point"},"properties":{"highway":"street_lamp","osm_id":"1909824456","tag":{"amenity":"waste_basket"}},"type":"Feature"},
	{"geometry":{"coordinates":[5.750723,59.006065],"type":"Point"},"properties":{"osm_id":"2393257794","tag":{"amenity":"waste_basket"}},"type":"Feature"},
	{"geometry":{"coordinates":[5.724159,59.005758],"type":"Point"},"properties":{"osm_id":"2393604909","tag":{"amenity":"recycling","recycling:paper":"yes"}},"type":"Feature"},
	{"geometry":{"coordinates":[5.737146,58.996214],"type":"Point"},"properties":{"osm_id":"2404143601","tag":{"amenity":"waste_basket"}},"type":"Feature"},
	{"geometry":{"coordinates":[5.736529,58.996416],"type":"Point"},"properties":{"osm_id":"2404143611","tag":{"amenity":"waste_basket"}},"type":"Feature"},
	{"geometry":{"coordinates":[5.73595,58.9966],"type":"Point"},"properties":{"osm_id":"2404143616","tag":{"amenity":"waste_basket"}},"type":"Feature"},
	{"geometry":{"coordinates":[5.714265,59.000961],"type":"Point"},"properties":{"osm_id":"2404204650","tag":{"amenity":"waste_basket"}},"type":"Feature"},
	{"geometry":{"coordinates":[5.722109,59.003349],"type":"Point"},"properties":{"osm_id":"2404288803","tag":{"amenity":"waste_basket"}},"type":"Feature"},
	{"geometry":{"coordinates":[5.75523,59.004027],"type":"Point"},"properties":{"osm_id":"2405184545","tag":{"amenity":"recycling","description":"Lundsv\u00c3\u00a5gen naturskole","recycling:glass_bottles":"yes","recycling_type":"container","ref:sortere":"509"}},"type":"Feature"},
	{"geometry":{"coordinates":[5.72436,59.001275],"type":"Point"},"properties":{"osm_id":"2410699318","tag":{"amenity":"recycling","recycling:clothes":"yes"}},"type":"Feature"},
	{"geometry":{"coordinates":[5.724685,59.001309],"type":"Point"},"properties":{"osm_id":"2410699319","tag":{"amenity":"recycling","recycling:clothes":"yes"}},"type":"Feature"},
	{"geometry":{"coordinates":[5.720795,59.003067],"type":"Point"},"properties":{"osm_id":"2411523120","tag":{"amenity":"waste_basket"}},"type":"Feature"},
	{"geometry":{"coordinates":[5.715914,59.003777],"type":"Point"},"properties":{"osm_id":"2411523147","tag":{"amenity":"waste_basket"}},"type":"Feature"},
	{"geometry":{"coordinates":[5.715764,59.004728],"type":"Point"},"properties":{"osm_id":"2411523150","tag":{"amenity":"waste_basket"}},"type":"Feature"},
	{"geometry":{"coordinates":[5.740895,58.999023],"type":"Point"},"properties":{"osm_id":"2412392137","tag":{"amenity":"waste_basket"}},"type":"Feature"},
	{"geometry":{"coordinates":[5.73902,59.001062],"type":"Point"},"properties":{"osm_id":"2412405897","tag":{"amenity":"waste_basket"}},"type":"Feature"},
	{"geometry":{"coordinates":[5.742132,59.00101],"type":"Point"},"properties":{"osm_id":"2418772426","tag":{"amenity":"waste_basket"}},"type":"Feature"},
	{"geometry":{"coordinates":[5.74214,59.001003],"type":"Point"},"properties":{"osm_id":"2418772428","tag":{"amenity":"recycling","description":"Kiwi, Krosshaug/Loen","recycling:glass_bottles":"yes","recycling_type":"container","ref:sortere":"508"}},"type":"Feature"},
	{"geometry":{"coordinates":[5.740916,59.007861],"type":"Point"},"properties":{"osm_id":"2419625540","tag":{"amenity":"waste_basket"}},"type":"Feature"},
	{"geometry":{"coordinates":[5.724501,59.002031],"type":"Point"},"properties":{"osm_id":"2425944264","tag":{"amenity":"waste_basket"}},"type":"Feature"},
	{"geometry":{"coordinates":[5.725587,59.002837],"type":"Point"},"properties":{"osm_id":"2425944338","tag":{"amenity":"waste_basket"}},"type":"Feature"},
	{"geometry":{"coordinates":[5.724031,59.003202],"type":"Point"},"properties":{"osm_id":"2425944513","tag":{"amenity":"waste_basket"}},"type":"Feature"},
	{"geometry":{"coordinates":[5.728926,59.003656],"type":"Point"},"properties":{"osm_id":"2425959910","tag":{"amenity":"waste_basket"}},"type":"Feature"},
	{"geometry":{"coordinates":[5.782473,58.998411],"type":"Point"},"properties":{"osm_id":"5555192750","tag":{"amenity":"recycling","description":"Vass\u00c3\u00b8y v/kaien","recycling:glass_bottles":"yes","recycling_type":"container","ref:sortere":"511"}},"type":"Feature"}
]
}
