{
"type": "FeatureCollection",
"features": [
	{"geometry":{"coordinates":[5.714272,58.966025],"type":"Point"},"properties":{"osm_id":"372691825","tag":{"amenity":"recycling","description":"P-plass, Stavanger stadion","recycling:glass_bottles":"yes","recycling_type":"container","ref:sortere":"423"}},"type":"Feature"},
	{"geometry":{"coordinates":[5.742968,58.968021],"type":"Point"},"properties":{"osm_id":"373649415","tag":{"amenity":"recycling","description":"Kyviksmarka v/Hetland kirke","location":"underground","recycling:glass_bottles":"yes","recycling_type":"container","ref:sortere":"502"}},"type":"Feature"},
	{"geometry":{"coordinates":[5.737422,58.96901],"type":"Point"},"properties":{"osm_id":"373653773","tag":{"amenity":"recycling","recycling:paper":"yes"}},"type":"Feature"},
	{"geometry":{"coordinates":[5.738413,58.969063],"type":"Point"},"properties":{"osm_id":"373653803","tag":{"amenity":"recycling","recycling:paper":"yes"}},"type":"Feature"},
	{"geometry":{"coordinates":[5.729648,58.966353],"type":"Point"},"properties":{"osm_id":"378405486","tag":{"amenity":"recycling","description":"St. Olav, sentrum","recycling:glass_bottles":"yes","recycling_type":"container","ref:sortere":"419"}},"type":"Feature"},
	{"geometry":{"coordinates":[5.728062,58.969909],"type":"Point"},"properties":{"osm_id":"378405497","tag":{"amenity":"recycling","description":"P-plass, taket p\u00c3\u00a5 Straen senter","layer":"3","recycling:glass":"yes","recycling:glass_bottles":"yes","recycling:plastic":"yes","recycling:plastic_packaging":"yes","recycling:scrap_metal":"yes","recycling_type":"container","ref:sortere":"425"}},"type":"Feature"},
	{"geometry":{"coordinates":[5.752509,58.959706],"type":"Point"},"properties":{"osm_id":"378492400","tag":{"amenity":"recycling","description":"Varden, Nymansveien","recycling:glass_bottles":"yes","recycling_type":"container","ref:sortere":"504"}},"type":"Feature"},
	{"geometry":{"coordinates":[5.750413,58.971543],"type":"Point"},"properties":{"osm_id":"378492476","tag":{"amenity":"recycling","description":"Nedre Banegate","recycling:glass_bottles":"yes","recycling_type":"container","ref:sortere":"503"}},"type":"Feature"},
	{"geometry":{"coordinates":[5.736026,58.972876],"type":"Point"},"properties":{"name":"Geoparken","osm_id":"378492558","tag":{"amenity":"recycling","operator":"Stavanger bibiliotek","recycling:books":"yes"}},"type":"Feature"},
	{"geometry":{"coordinates":[5.729071,58.993499],"type":"Point"},"properties":{"osm_id":"378492581","tag":{"amenity":"recycling","recycling:clothes":"yes","recycling:glass":"yes","recycling:plastic":"yes","recycling:scrap_metal":"yes"}},"type":"Feature"},
	{"geometry":{"coordinates":[5.730402,58.962914],"type":"Point"},"properties":{"osm_id":"389155275","tag":{"amenity":"recycling","description":"Coop Prix Storgata, V\u00c3\u00a5land","recycling:glass_bottles":"yes","recycling_type":"container","ref:sortere":"424"}},"type":"Feature"},
	{"geometry":{"coordinates":[5.745367,58.978053],"type":"Point"},"properties":{"osm_id":"389155277","tag":{"amenity":"recycling","description":"S\u00c3\u00b8lyst","recycling:clothes":"yes","recycling_type":"container","ref:sortere":"505"}},"type":"Feature"},
	{"geometry":{"coordinates":[5.727392,58.965526],"type":"Point"},"properties":{"osm_id":"389155279","tag":{"amenity":"recycling","description":"Coop Extra, Kannik","recycling:glass_bottles":"yes","recycling_type":"container","ref:sortere":"427"}},"type":"Feature"},
	{"geometry":{"coordinates":[5.722116,58.972234],"type":"Point"},"properties":{"osm_id":"695579584","tag":{"amenity":"waste_basket"}},"type":"Feature"},
	{"geometry":{"coordinates":[5.720206,58.965246],"type":"Point"},"properties":{"osm_id":"695579624","tag":{"amenity":"waste_basket"}},"type":"Feature"},
	{"geometry":{"coordinates":[5.716262,58.969881],"type":"Point"},"properties":{"osm_id":"825305884","tag":{"amenity":"recycling","operator":"UFF","recycling:clothes":"yes"}},"type":"Feature"},
	{"geometry":{"coordinates":[5.726632,58.950829],"type":"Point"},"properties":{"osm_id":"861972507","tag":{"amenity":"recycling","description":"Bekkefaret bydelshus","recycling:glass_bottles":"yes","recycling_type":"container","ref:sortere":"496"}},"type":"Feature"},
	{"geometry":{"coordinates":[5.726413,58.950753],"type":"Point"},"properties":{"osm_id":"861973175","tag":{"amenity":"recycling","operator":"UFF","recycling:clothes":"yes"}},"type":"Feature"},
	{"geometry":{"coordinates":[5.736172,58.969566],"type":"Point"},"properties":{"osm_id":"1360387028","tag":{"amenity":"recycling","location":"underground","recycling_type":"container"}},"type":"Feature"},
	{"geometry":{"coordinates":[5.736228,58.96957],"type":"Point"},"properties":{"osm_id":"1360387029","tag":{"amenity":"waste_basket"}},"type":"Feature"},
	{"geometry":{"coordinates":[5.745174,58.993371],"type":"Point"},"properties":{"osm_id":"1773962329","tag":{"amenity":"recycling","recycling:glass":"yes","recycling:plastic":"yes","recycling:scrap_metal":"yes","recycling_type":"container"}},"type":"Feature"},
	{"geometry":{"coordinates":[5.76041,58.991603],"type":"Point"},"properties":{"osm_id":"1787617492","tag":{"amenity":"recycling","description":"Roalds\u00c3\u00b8y v/kaien","recycling:glass_bottles":"yes","recycling_type":"container","ref:sortere":"510"}},"type":"Feature"},
	{"geometry":{"coordinates":[5.730679,58.993523],"type":"Point"},"properties":{"osm_id":"1795799449","tag":{"amenity":"recycling","recycling:glass":"no","recycling:paper":"yes","recycling_type":"container"}},"type":"Feature"},
	{"geometry":{"coordinates":[5.730947,58.994077],"type":"Point"},"properties":{"osm_id":"1795868719","tag":{"amenity":"recycling","recycling:paper":"yes","recycling_type":"container"}},"type":"Feature"},
	{"geometry":{"coordinates":[5.75313,58.992882],"type":"Point"},"properties":{"osm_id":"1797190560","tag":{"amenity":"waste_basket"}},"type":"Feature"},
	{"geometry":{"coordinates":[5.753164,58.993047],"type":"Point"},"properties":{"osm_id":"1797190573","tag":{"amenity":"waste_basket"}},"type":"Feature"},
	{"geometry":{"coordinates":[5.750092,58.990431],"type":"Point"},"properties":{"osm_id":"1806310806","tag":{"amenity":"waste_basket"}},"type":"Feature"},
	{"geometry":{"coordinates":[5.744743,58.992535],"type":"Point"},"properties":{"osm_id":"1806311046","tag":{"amenity":"waste_basket"}},"type":"Feature"},
	{"geometry":{"coordinates":[5.738905,58.993927],"type":"Point"},"properties":{"osm_id":"1806311301","tag":{"amenity":"waste_basket"}},"type":"Feature"},
	{"geometry":{"coordinates":[5.739632,58.994467],"type":"Point"},"properties":{"osm_id":"1806311324","tag":{"amenity":"waste_basket"}},"type":"Feature"},
	{"geometry":{"coordinates":[5.752594,58.986843],"type":"Point"},"properties":{"osm_id":"1879466797","tag":{"amenity":"recycling","recycling:glass":"yes","recycling:paper":"yes"}},"type":"Feature"},
	{"geometry":{"coordinates":[5.730252,58.992962],"type":"Point"},"properties":{"osm_id":"1896814258","tag":{"amenity":"waste_basket"}},"type":"Feature"},
	{"geometry":{"coordinates":[5.729243,58.993114],"type":"Point"},"properties":{"osm_id":"1896814317","tag":{"amenity":"waste_basket"}},"type":"Feature"},
	{"geometry":{"coordinates":[5.728798,58.993267],"type":"Point"},"properties":{"osm_id":"1896814355","tag":{"amenity":"recycling","description":"Rema 1000, Hundv\u00c3\u00a5gkrossen","recycling:glass_bottles":"yes","recycling_type":"container","ref:sortere":"506"}},"type":"Feature"},
	{"geometry":{"coordinates":[5.744906,58.969255],"type":"Point"},"properties":{"osm_id":"2127415972","tag":{"amenity":"recycling","location":"underground","recycling:paper":"yes","recycling_type":"container"}},"type":"Feature"},
	{"geometry":{"coordinates":[5.743274,58.969458],"type":"Point"},"properties":{"osm_id":"2127415973","tag":{"amenity":"recycling","location":"underground","recycling:paper":"yes","recycling_type":"container"}},"type":"Feature"},
	{"geometry":{"coordinates":[5.741295,58.969576],"type":"Point"},"properties":{"osm_id":"2127415974","tag":{"amenity":"recycling","location":"underground","recycling:paper":"yes","recycling_type":"container"}},"type":"Feature"},
	{"geometry":{"coordinates":[5.76301,58.958295],"type":"Point"},"properties":{"osm_id":"2178719824","tag":{"amenity":"waste_basket"}},"type":"Feature"},
	{"geometry":{"coordinates":[5.747418,58.955089],"type":"Point"},"properties":{"osm_id":"2337474421","tag":{"amenity":"waste_disposal","recycling:batteries":"yes"}},"type":"Feature"},
	{"geometry":{"coordinates":[5.744957,58.988631],"type":"Point"},"properties":{"osm_id":"2391919557","tag":{"amenity":"recycling"}},"type":"Feature"},
	{"geometry":{"coordinates":[5.732046,58.994349],"type":"Point"},"properties":{"osm_id":"2411469630","tag":{"amenity":"waste_basket"}},"type":"Feature"},
	{"geometry":{"coordinates":[5.732058,58.994373],"type":"Point"},"properties":{"osm_id":"2411469640","tag":{"amenity":"recycling","recycling:paper":"yes","recycling:scrap_metal":"no","recycling_type":"container"}},"type":"Feature"},
	{"geometry":{"coordinates":[5.733712,58.994697],"type":"Point"},"properties":{"osm_id":"2411469709","tag":{"amenity":"waste_basket"}},"type":"Feature"},
	{"geometry":{"coordinates":[5.741157,58.968826],"type":"Point"},"properties":{"osm_id":"2617654028","tag":{"amenity":"recycling","location":"underground","recycling_type":"container"}},"type":"Feature"},
	{"geometry":{"coordinates":[5.740578,58.994456],"type":"Point"},"properties":{"osm_id":"3909354313","tag":{"amenity":"recycling","recycling_type":"container"}},"type":"Feature"},
	{"geometry":{"coordinates":[5.739952,58.994493],"type":"Point"},"properties":{"osm_id":"3909354331","tag":{"amenity":"waste_basket"}},"type":"Feature"},
	{"geometry":{"coordinates":[5.739993,58.994751],"type":"Point"},"properties":{"osm_id":"3909354631","tag":{"amenity":"waste_basket"}},"type":"Feature"},
	{"geometry":{"coordinates":[5.726031,58.97043],"type":"Point"},"properties":{"osm_id":"4343323745","tag":{"amenity":"waste_basket"}},"type":"Feature"},
	{"geometry":{"coordinates":[5.729245,58.970753],"type":"Point"},"properties":{"osm_id":"4343323748","tag":{"amenity":"recycling","recycling_type":"container"}},"type":"Feature"},
	{"geometry":{"coordinates":[5.727328,58.970876],"type":"Point"},"properties":{"osm_id":"4343323751","tag":{"amenity":"waste_basket"}},"type":"Feature"},
	{"geometry":{"coordinates":[5.734406,58.954086],"type":"Point"},"properties":{"osm_id":"4694091268","tag":{"amenity":"recycling","recycling:glass":"yes","recycling:metal":"yes","recycling_type":"container"}},"type":"Feature"},
	{"geometry":{"coordinates":[5.717074,58.958436],"type":"Point"},"properties":{"osm_id":"4771875476","tag":{"amenity":"waste_basket"}},"type":"Feature"},
	{"geometry":{"coordinates":[5.719149,58.957298],"type":"Point"},"properties":{"osm_id":"4771875478","tag":{"amenity":"waste_basket"}},"type":"Feature"},
	{"geometry":{"coordinates":[5.719145,58.957327],"type":"Point"},"properties":{"osm_id":"4771875479","tag":{"amenity":"waste_basket"}},"type":"Feature"},
	{"geometry":{"coordinates":[5.720712,58.956449],"type":"Point"},"properties":{"osm_id":"4771875481","tag":{"amenity":"waste_basket"}},"type":"Feature"},
	{"geometry":{"coordinates":[5.720295,58.954821],"type":"Point"},"properties":{"osm_id":"4771875486","tag":{"amenity":"waste_basket"}},"type":"Feature"},
	{"geometry":{"coordinates":[5.729567,58.952776],"type":"Point"},"properties":{"osm_id":"4771875510","tag":{"amenity":"waste_basket"}},"type":"Feature"},
	{"geometry":{"coordinates":[5.713138,58.959744],"type":"Point"},"properties":{"osm_id":"4876274879","tag":{"amenity":"waste_basket"}},"type":"Feature"},
	{"geometry":{"coordinates":[5.728232,58.957317],"type":"Point"},"properties":{"osm_id":"4880411344","tag":{"amenity":"waste_basket"}},"type":"Feature"},
	{"geometry":{"coordinates":[5.75907,58.962073],"type":"Point"},"properties":{"osm_id":"5555190882","tag":{"amenity":"recycling","description":"Emmaus","recycling:glass_bottles":"yes","recycling_type":"container","ref:sortere":"11401"}},"type":"Feature"},
	{"geometry":{"coordinates":[5.748602,58.958015],"type":"Point"},"properties":{"osm_id":"5555192743","tag":{"amenity":"recycling","description":"Hjelmelandsgate/Hellelandsveien","recycling:glass_bottles":"yes","recycling_type":"container","ref:sortere":"518"}},"type":"Feature"},
	{"geometry":{"coordinates":[5.743211,58.993426],"type":"Point"},"properties":{"osm_id":"5555192748","tag":{"amenity":"recycling","description":"Austb\u00c3\u00b8sletta","recycling:glass_bottles":"yes","recycling_type":"container","ref:sortere":"512"}},"type":"Feature"},
	{"geometry":{"coordinates":[5.730756,58.9707],"type":"Point"},"properties":{"osm_id":"5667943819","tag":{"amenity":"waste_basket"}},"type":"Feature"},
	{"geometry":{"coordinates":[5.738511,58.970402],"type":"Point"},"properties":{"osm_id":"5768373235","tag":{"access":"permissive","amenity":"waste_disposal","location":"underground","waste":"residual"}},"type":"Feature"},
	{"geometry":{"coordinates":[5.738501,58.970382],"type":"Point"},"properties":{"osm_id":"5768373236","tag":{"access":"permissive","amenity":"waste_disposal","location":"underground","waste":"bio"}},"type":"Feature"},
	{"geometry":{"coordinates":[5.738494,58.970366],"type":"Point"},"properties":{"osm_id":"5768373237","tag":{"access":"permissive","amenity":"waste_disposal","location":"underground","waste":"paper"}},"type":"Feature"},
	{"geometry":{"coordinates":[5.741562,58.982889],"type":"Point"},"properties":{"osm_id":"6846299455","tag":{"amenity":"recycling","recycling:glass":"yes","recycling:glass_bottles":"yes","recycling:metal_containers":"yes","recycling:metal_packaging":"yes","recycling_type":"bin"}},"type":"Feature"},
	{"geometry":{"coordinates":[5.730684,58.970546],"type":"Point"},"properties":{"osm_id":"6855977343","tag":{"amenity":"waste_basket"}},"type":"Feature"},
	{"geometry":{"coordinates":[5.729952,58.970532],"type":"Point"},"properties":{"osm_id":"6855977344","tag":{"amenity":"waste_basket"}},"type":"Feature"},
	{"geometry":{"coordinates":[5.72983,58.970569],"type":"Point"},"properties":{"osm_id":"6855977345","tag":{"amenity":"waste_basket"}},"type":"Feature"},
	{"geometry":{"coordinates":[5.729564,58.970654],"type":"Point"},"properties":{"osm_id":"6855977346","tag":{"amenity":"waste_basket"}},"type":"Feature"},
	{"geometry":{"coordinates":[5.729394,58.970707],"type":"Point"},"properties":{"osm_id":"6855977347","tag":{"amenity":"waste_basket"}},"type":"Feature"}
]
}
