{
"type": "FeatureCollection",
"features": [
	{"geometry":{"coordinates":[5.719611,58.948378],"type":"Point"},"properties":{"osm_id":"373654769","tag":{"amenity":"recycling","recycling:glass_bottles":"yes","recycling_type":"container"}},"type":"Feature"},
	{"geometry":{"coordinates":[5.741188,58.948333],"type":"Point"},"properties":{"osm_id":"378492466","tag":{"amenity":"recycling","recycling:clothes":"yes","recycling:glass":"yes","recycling:plastic":"yes","recycling:scrap_metal":"yes"}},"type":"Feature"},
	{"geometry":{"coordinates":[5.724658,58.918204],"type":"Point"},"properties":{"osm_id":"420022420","tag":{"amenity":"recycling","description":"Hinna skole","recycling:glass_bottles":"yes","recycling_type":"container","ref:sortere":"489"}},"type":"Feature"},
	{"geometry":{"coordinates":[5.748808,58.945546],"type":"Point"},"properties":{"osm_id":"501552148","tag":{"amenity":"recycling","recycling:paper":"yes"}},"type":"Feature"},
	{"geometry":{"coordinates":[5.74124,58.934019],"type":"Point"},"properties":{"osm_id":"506025386","tag":{"amenity":"recycling","operator":"Fretex","recycling:clothes":"yes"}},"type":"Feature"},
	{"geometry":{"coordinates":[5.779885,58.906016],"type":"Point"},"properties":{"osm_id":"538718569","tag":{"amenity":"waste_basket"}},"type":"Feature"},
	{"geometry":{"coordinates":[5.742241,58.947384],"type":"Point"},"properties":{"osm_id":"813489014","tag":{"amenity":"recycling","description":"Rema 1000, Bispeladeg\u00c3\u00a5rd","location":"overground","recycling:glass_bottles":"yes","recycling_type":"container","ref:sortere":"495"}},"type":"Feature"},
	{"geometry":{"coordinates":[5.724518,58.931277],"type":"Point"},"properties":{"osm_id":"1735872165","tag":{"amenity":"waste_basket","waste":"dog_excrement"}},"type":"Feature"},
	{"geometry":{"coordinates":[5.714861,58.943642],"type":"Point"},"properties":{"osm_id":"4763030471","tag":{"amenity":"waste_basket"}},"type":"Feature"},
	{"geometry":{"coordinates":[5.740937,58.915941],"type":"Point"},"properties":{"osm_id":"5245011359","tag":{"amenity":"recycling","description":"J\u00c3\u00a5tt\u00c3\u00a5v\u00c3\u00a5gen, Laberghagen","recycling:glass_bottles":"yes","recycling_type":"container","ref:sortere":"490"}},"type":"Feature"},
	{"geometry":{"coordinates":[5.71909,58.94648],"type":"Point"},"properties":{"osm_id":"5555192761","tag":{"amenity":"recycling","description":"Saxemarka","recycling:glass_bottles":"yes","recycling_type":"container","ref:sortere":"498"}},"type":"Feature"},
	{"geometry":{"coordinates":[5.74189,58.94264],"type":"Point"},"properties":{"osm_id":"5555192763","tag":{"amenity":"recycling","description":"\u00c3\u0098vre Sandvikveien","recycling:glass_bottles":"yes","recycling_type":"container","ref:sortere":"497"}},"type":"Feature"},
	{"geometry":{"coordinates":[5.7326,58.90536],"type":"Point"},"properties":{"osm_id":"5555192769","tag":{"amenity":"recycling","description":"Coop Mega, Gausel","recycling:glass_bottles":"yes","recycling_type":"container","ref:sortere":"488"}},"type":"Feature"},
	{"geometry":{"coordinates":[5.732055,58.935461],"type":"Point"},"properties":{"osm_id":"5555199377","tag":{"amenity":"recycling","description":"P-plass Hetlandshallen","recycling:glass_bottles":"yes","recycling_type":"container","ref:sortere":"17636"}},"type":"Feature"},
	{"geometry":{"coordinates":[5.7282,58.91094],"type":"Point"},"properties":{"osm_id":"5555204872","tag":{"amenity":"recycling","description":"P-plass Boganes sykehjem","recycling:glass_bottles":"yes","recycling_type":"container","ref:sortere":"14959"}},"type":"Feature"},
	{"geometry":{"coordinates":[5.734823,58.920676],"type":"Point"},"properties":{"name":"Ecofiber Recycling","osm_id":"5555205512","tag":{"amenity":"recycling","recycling:boats":"yes","recycling_type":"centre","ref:sortere":"21477"}},"type":"Feature"},
	{"geometry":{"coordinates":[5.722469,58.940379],"type":"Point"},"properties":{"osm_id":"6361300852","tag":{"amenity":"recycling","recycling_type":"container"}},"type":"Feature"},
	{"geometry":{"coordinates":[5.725511,58.947047],"type":"Point"},"properties":{"osm_id":"6720029106","tag":{"amenity":"recycling","recycling_type":"container"}},"type":"Feature"},
	{"geometry":{"coordinates":[5.725475,58.947048],"type":"Point"},"properties":{"osm_id":"6720029107","tag":{"amenity":"recycling","recycling_type":"container"}},"type":"Feature"},
	{"geometry":{"coordinates":[5.725443,58.947047],"type":"Point"},"properties":{"osm_id":"6720029108","tag":{"amenity":"recycling","recycling_type":"container"}},"type":"Feature"},
	{"geometry":{"coordinates":[5.736616,58.948959],"type":"Point"},"properties":{"osm_id":"6720584369","tag":{"amenity":"recycling","recycling_type":"container"}},"type":"Feature"},
	{"geometry":{"coordinates":[5.740463,58.949821],"type":"Point"},"properties":{"osm_id":"6771831328","tag":{"amenity":"recycling","recycling_type":"container"}},"type":"Feature"},
	{"geometry":{"coordinates":[5.732584,58.941788],"type":"Point"},"properties":{"osm_id":"7931727543","tag":{"amenity":"waste_basket"}},"type":"Feature"},
	{"geometry":{"coordinates":[5.733047,58.941351],"type":"Point"},"properties":{"osm_id":"7931737777","tag":{"amenity":"waste_basket"}},"type":"Feature"},
	{"geometry":{"coordinates":[5.728883,58.939762],"type":"Point"},"properties":{"osm_id":"7931738726","tag":{"amenity":"waste_basket"}},"type":"Feature"},
	{"geometry":{"coordinates":[5.73498,58.940929],"type":"Point"},"properties":{"osm_id":"7931783008","tag":{"amenity":"waste_basket"}},"type":"Feature"},
	{"geometry":{"coordinates":[5.731304,58.940566],"type":"Point"},"properties":{"osm_id":"7931783009","tag":{"amenity":"waste_basket"}},"type":"Feature"},
	{"geometry":{"coordinates":[5.73013,58.938826],"type":"Point"},"properties":{"osm_id":"7931792598","tag":{"amenity":"waste_basket"}},"type":"Feature"},
	{"geometry":{"coordinates":[5.734293,58.93993],"type":"Point"},"properties":{"osm_id":"7931793044","tag":{"amenity":"waste_basket"}},"type":"Feature"},
	{"geometry":{"coordinates":[5.725322,58.910979],"type":"Point"},"properties":{"osm_id":"8432959674","tag":{"amenity":"recycling","recycling_type":"container"}},"type":"Feature"},
	{"geometry":{"coordinates":[5.734343,58.916285],"type":"Point"},"properties":{"osm_id":"9090542052","tag":{"amenity":"waste_basket"}},"type":"Feature"}
]
}
