{
"type": "FeatureCollection",
"features": [
	{"geometry":{"coordinates":[5.741052,58.822817],"type":"Point"},"properties":{"osm_id":"691973792","tag":{"amenity":"waste_basket"}},"type":"Feature"},
	{"geometry":{"coordinates":[5.754902,58.842925],"type":"Point"},"properties":{"osm_id":"904633942","tag":{"amenity":"recycling","description":"Austr\u00c3\u00a5tt v/bydelshuset","recycling:glass_bottles":"yes","recycling_type":"container","ref:sortere":"696"}},"type":"Feature"},
	{"geometry":{"coordinates":[5.762009,58.853411],"type":"Point"},"properties":{"osm_id":"920906894","tag":{"amenity":"recycling","operator":"Fretex","recycling:clothes":"yes"}},"type":"Feature"},
	{"geometry":{"coordinates":[5.761765,58.853412],"type":"Point"},"properties":{"osm_id":"920906910","tag":{"amenity":"recycling","description":"Eddaveien v/Skippergaten","operator":"IVAR","recycling:glass_bottles":"yes","recycling_type":"container","ref:sortere":"621"}},"type":"Feature"},
	{"geometry":{"coordinates":[5.72964,58.838792],"type":"Point"},"properties":{"osm_id":"4685670829","tag":{"amenity":"waste_basket"}},"type":"Feature"},
	{"geometry":{"coordinates":[5.742954,58.851882],"type":"Point"},"properties":{"osm_id":"4933237969","tag":{"amenity":"waste_basket"}},"type":"Feature"},
	{"geometry":{"coordinates":[5.743878,58.851825],"type":"Point"},"properties":{"osm_id":"4933237970","tag":{"amenity":"waste_basket"}},"type":"Feature"},
	{"geometry":{"coordinates":[5.744239,58.851776],"type":"Point"},"properties":{"osm_id":"4933237971","tag":{"amenity":"waste_basket"}},"type":"Feature"},
	{"geometry":{"coordinates":[5.74486,58.851721],"type":"Point"},"properties":{"osm_id":"4933237974","tag":{"amenity":"waste_basket"}},"type":"Feature"},
	{"geometry":{"coordinates":[5.731787,58.846386],"type":"Point"},"properties":{"osm_id":"4934514101","tag":{"amenity":"waste_basket"}},"type":"Feature"},
	{"geometry":{"coordinates":[5.714968,58.846819],"type":"Point"},"properties":{"osm_id":"5555192522","tag":{"amenity":"recycling","description":"Stangeland, Foren/Heigreveien","recycling:glass_bottles":"yes","recycling_type":"container","ref:sortere":"693"}},"type":"Feature"},
	{"geometry":{"coordinates":[5.716344,58.822039],"type":"Point"},"properties":{"osm_id":"5555192532","tag":{"amenity":"recycling","description":"Kvernelandsveien/Hoveveien","recycling:glass_bottles":"yes","recycling_type":"container","ref:sortere":"688"}},"type":"Feature"},
	{"geometry":{"coordinates":[5.740648,58.857177],"type":"Point"},"properties":{"osm_id":"5555192534","tag":{"amenity":"recycling","description":"Gandsgata","recycling:glass_bottles":"yes","recycling_type":"container","ref:sortere":"686"}},"type":"Feature"},
	{"geometry":{"coordinates":[5.732785,58.846248],"type":"Point"},"properties":{"osm_id":"5555192598","tag":{"amenity":"recycling","description":"Bruelandsenteret","recycling:glass_bottles":"yes","recycling_type":"container","ref:sortere":"618"}},"type":"Feature"},
	{"geometry":{"coordinates":[5.728557,58.858602],"type":"Point"},"properties":{"osm_id":"5577865585","tag":{"amenity":"waste_basket"}},"type":"Feature"},
	{"geometry":{"coordinates":[5.727643,58.858541],"type":"Point"},"properties":{"osm_id":"5577865589","tag":{"amenity":"waste_basket"}},"type":"Feature"},
	{"geometry":{"coordinates":[5.755577,58.820849],"type":"Point"},"properties":{"osm_id":"5860663760","tag":{"amenity":"recycling","description":"Bogafjell v/milj\u00c3\u00b8stasjon vis a vis Helg\u00c3\u00b8/nederst i Buggelandsbakken","recycling:garden_waste":"yes","recycling:glass_bottles":"yes","recycling_type":"container","ref:sortere":"695"}},"type":"Feature"},
	{"geometry":{"coordinates":[5.733463,58.852495],"type":"Point"},"properties":{"osm_id":"6088956492","tag":{"amenity":"waste_basket"}},"type":"Feature"},
	{"geometry":{"coordinates":[5.72546,58.826501],"type":"Point"},"properties":{"osm_id":"6195511312","tag":{"amenity":"recycling","description":"Lundehaugen ungdomsskole, Ganddal","recycling:garden_waste":"yes","recycling_type":"container","ref:sortere":"21621"}},"type":"Feature"},
	{"geometry":{"coordinates":[5.741779,58.8436],"type":"Point"},"properties":{"osm_id":"6195513296","tag":{"amenity":"recycling","description":"Austr\u00c3\u00a5tt v/H\u00c3\u00b8yland ungdomsskole","recycling:garden_waste":"yes","recycling_type":"container","ref:sortere":"18406"}},"type":"Feature"},
	{"geometry":{"coordinates":[5.73105,58.842566],"type":"Point"},"properties":{"osm_id":"6195520974","tag":{"amenity":"recycling","description":"Sandveparken p-plass","recycling:garden_waste":"yes","recycling_type":"container","ref:sortere":"13481"}},"type":"Feature"},
	{"geometry":{"coordinates":[5.77319,58.85507],"type":"Point"},"properties":{"osm_id":"6195520977","tag":{"amenity":"recycling","description":"Hana skole","recycling:garden_waste":"yes","recycling_type":"container","ref:sortere":"13478"}},"type":"Feature"},
	{"geometry":{"coordinates":[5.743495,58.852966],"type":"Point"},"properties":{"osm_id":"6534784549","tag":{"amenity":"waste_basket"}},"type":"Feature"},
	{"geometry":{"coordinates":[5.743531,58.853099],"type":"Point"},"properties":{"osm_id":"6534784552","tag":{"amenity":"waste_basket"}},"type":"Feature"},
	{"geometry":{"coordinates":[5.743332,58.852955],"type":"Point"},"properties":{"osm_id":"6534784563","tag":{"amenity":"waste_basket"}},"type":"Feature"}
]
}
