{
"type": "FeatureCollection",
"features": [
	{"geometry":{"coordinates":[5.77112,53.446147],"type":"Point"},"properties":{"osm_id":"581390487","tag":{"amenity":"recycling","location":"overground","recycling_type":"container"}},"type":"Feature"},
	{"geometry":{"coordinates":[5.786054,53.457713],"type":"Point"},"properties":{"osm_id":"1392325097","tag":{"amenity":"recycling","recycling:glass":"yes","recycling_type":"container"}},"type":"Feature"},
	{"geometry":{"coordinates":[5.786274,53.45489],"type":"Point"},"properties":{"osm_id":"3143543238","tag":{"amenity":"recycling","recycling_type":"container"}},"type":"Feature"},
	{"geometry":{"coordinates":[5.798746,53.44574],"type":"Point"},"properties":{"osm_id":"5074199041","tag":{"amenity":"recycling","recycling:glass":"yes","recycling_type":"container"}},"type":"Feature"},
	{"geometry":{"coordinates":[5.7985,53.445947],"type":"Point"},"properties":{"osm_id":"5074199042","tag":{"amenity":"waste_basket"}},"type":"Feature"},
	{"geometry":{"coordinates":[5.796382,53.447321],"type":"Point"},"properties":{"osm_id":"5074199045","tag":{"amenity":"waste_basket"}},"type":"Feature"},
	{"geometry":{"coordinates":[5.796451,53.447277],"type":"Point"},"properties":{"osm_id":"5074199046","tag":{"amenity":"waste_basket"}},"type":"Feature"},
	{"geometry":{"coordinates":[5.796562,53.447178],"type":"Point"},"properties":{"osm_id":"5074199047","tag":{"amenity":"waste_basket"}},"type":"Feature"},
	{"geometry":{"coordinates":[5.796581,53.447207],"type":"Point"},"properties":{"osm_id":"5074199048","tag":{"amenity":"waste_basket"}},"type":"Feature"},
	{"geometry":{"coordinates":[5.77238,53.444903],"type":"Point"},"properties":{"name":"Recycling","osm_id":"5659311926","tag":{"amenity":"recycling","location":"underground","recycling_type":"container"}},"type":"Feature"}
]
}
