{
"type": "FeatureCollection",
"features": [
	{"geometry":{"coordinates":[5.725661,53.191026],"type":"Point"},"properties":{"osm_id":"1501273635","tag":{"amenity":"recycling","recycling:cans":"yes","recycling_type":"container"}},"type":"Feature"},
	{"geometry":{"coordinates":[5.764998,53.198877],"type":"Point"},"properties":{"osm_id":"2308640646","tag":{"amenity":"waste_basket"}},"type":"Feature"},
	{"geometry":{"coordinates":[5.781585,53.200999],"type":"Point"},"properties":{"osm_id":"2598459602","tag":{"amenity":"recycling","recycling:cans":"no","recycling:clothes":"no","recycling:glass":"yes","recycling:paper":"no","recycling_type":"container"}},"type":"Feature"},
	{"geometry":{"coordinates":[5.781496,53.206682],"type":"Point"},"properties":{"name":"Glascontainer","osm_id":"2598462480","tag":{"amenity":"recycling","recycling:cans":"no","recycling:clothes":"no","recycling:glass":"yes","recycling:paper":"no","recycling_type":"container"}},"type":"Feature"},
	{"geometry":{"coordinates":[5.794328,53.207234],"type":"Point"},"properties":{"osm_id":"3982557659","tag":{"amenity":"waste_basket"}},"type":"Feature"},
	{"geometry":{"coordinates":[5.790161,53.188117],"type":"Point"},"properties":{"osm_id":"4284875640","tag":{"amenity":"waste_basket"}},"type":"Feature"},
	{"geometry":{"coordinates":[5.790328,53.188294],"type":"Point"},"properties":{"osm_id":"4284875645","tag":{"amenity":"waste_basket"}},"type":"Feature"},
	{"geometry":{"coordinates":[5.790784,53.188733],"type":"Point"},"properties":{"osm_id":"4284875664","tag":{"amenity":"waste_basket"}},"type":"Feature"},
	{"geometry":{"coordinates":[5.788612,53.188668],"type":"Point"},"properties":{"osm_id":"4284875672","tag":{"amenity":"waste_basket"}},"type":"Feature"},
	{"geometry":{"coordinates":[5.790712,53.188881],"type":"Point"},"properties":{"osm_id":"4284875692","tag":{"amenity":"waste_basket"}},"type":"Feature"},
	{"geometry":{"coordinates":[5.790602,53.189001],"type":"Point"},"properties":{"osm_id":"4284875708","tag":{"amenity":"waste_basket"}},"type":"Feature"},
	{"geometry":{"coordinates":[5.789213,53.189071],"type":"Point"},"properties":{"osm_id":"4284875723","tag":{"amenity":"waste_basket"}},"type":"Feature"},
	{"geometry":{"coordinates":[5.790019,53.189248],"type":"Point"},"properties":{"osm_id":"4284875746","tag":{"amenity":"waste_basket"}},"type":"Feature"},
	{"geometry":{"coordinates":[5.78828,53.189552],"type":"Point"},"properties":{"osm_id":"4284875767","tag":{"amenity":"waste_basket"}},"type":"Feature"},
	{"geometry":{"coordinates":[5.79062,53.189466],"type":"Point"},"properties":{"osm_id":"4284875769","tag":{"amenity":"waste_basket"}},"type":"Feature"},
	{"geometry":{"coordinates":[5.788486,53.189735],"type":"Point"},"properties":{"osm_id":"4284875781","tag":{"amenity":"waste_basket"}},"type":"Feature"},
	{"geometry":{"coordinates":[5.788795,53.189919],"type":"Point"},"properties":{"osm_id":"4284875788","tag":{"amenity":"waste_basket"}},"type":"Feature"},
	{"geometry":{"coordinates":[5.788423,53.190015],"type":"Point"},"properties":{"osm_id":"4284875790","tag":{"amenity":"recycling","recycling:paper":"yes","recycling_type":"container"}},"type":"Feature"},
	{"geometry":{"coordinates":[5.78846,53.190038],"type":"Point"},"properties":{"osm_id":"4284875793","tag":{"amenity":"recycling","recycling:glass":"yes","recycling_type":"container"}},"type":"Feature"},
	{"geometry":{"coordinates":[5.788488,53.190062],"type":"Point"},"properties":{"osm_id":"4284875795","tag":{"amenity":"waste_basket"}},"type":"Feature"},
	{"geometry":{"coordinates":[5.788728,53.190218],"type":"Point"},"properties":{"osm_id":"4286361582","tag":{"amenity":"recycling","recycling:clothes":"yes","recycling_type":"container"}},"type":"Feature"},
	{"geometry":{"coordinates":[5.789138,53.190355],"type":"Point"},"properties":{"osm_id":"4286361691","tag":{"amenity":"waste_basket","waste":"dog_excrement"}},"type":"Feature"},
	{"geometry":{"coordinates":[5.793849,53.187195],"type":"Point"},"properties":{"osm_id":"4291253785","tag":{"amenity":"waste_basket"}},"type":"Feature"},
	{"geometry":{"coordinates":[5.790255,53.185474],"type":"Point"},"properties":{"osm_id":"4296092652","tag":{"amenity":"recycling","recycling:paper":"yes","recycling_type":"container"}},"type":"Feature"},
	{"geometry":{"coordinates":[5.790286,53.185479],"type":"Point"},"properties":{"osm_id":"4296092653","tag":{"amenity":"recycling","recycling:paper":"yes","recycling_type":"container"}},"type":"Feature"},
	{"geometry":{"coordinates":[5.790317,53.185484],"type":"Point"},"properties":{"osm_id":"4296092654","tag":{"amenity":"recycling","recycling:glass":"yes","recycling_type":"container"}},"type":"Feature"},
	{"geometry":{"coordinates":[5.790286,53.185517],"type":"Point"},"properties":{"osm_id":"4296092655","tag":{"amenity":"waste_basket"}},"type":"Feature"},
	{"geometry":{"coordinates":[5.789709,53.185462],"type":"Point"},"properties":{"osm_id":"4296092656","tag":{"amenity":"recycling","recycling:clothes":"yes","recycling:shoes":"yes","recycling_type":"container"}},"type":"Feature"},
	{"geometry":{"coordinates":[5.796226,53.197962],"type":"Point"},"properties":{"osm_id":"4298987690","tag":{"amenity":"waste_basket"}},"type":"Feature"},
	{"geometry":{"coordinates":[5.796393,53.198075],"type":"Point"},"properties":{"osm_id":"4298987700","tag":{"amenity":"waste_basket"}},"type":"Feature"},
	{"geometry":{"coordinates":[5.796876,53.198791],"type":"Point"},"properties":{"osm_id":"4300493991","tag":{"amenity":"waste_basket"}},"type":"Feature"},
	{"geometry":{"coordinates":[5.790097,53.184613],"type":"Point"},"properties":{"osm_id":"4304961820","tag":{"amenity":"recycling","recycling:paper":"yes","recycling_type":"container"}},"type":"Feature"},
	{"geometry":{"coordinates":[5.790087,53.184634],"type":"Point"},"properties":{"osm_id":"4304961822","tag":{"amenity":"recycling","recycling:glass":"yes","recycling_type":"container"}},"type":"Feature"},
	{"geometry":{"coordinates":[5.790095,53.184649],"type":"Point"},"properties":{"osm_id":"4304961825","tag":{"amenity":"waste_basket"}},"type":"Feature"},
	{"geometry":{"coordinates":[5.789811,53.184835],"type":"Point"},"properties":{"osm_id":"4304961828","tag":{"amenity":"waste_basket"}},"type":"Feature"},
	{"geometry":{"coordinates":[5.78971,53.184934],"type":"Point"},"properties":{"osm_id":"4304961832","tag":{"amenity":"waste_basket"}},"type":"Feature"},
	{"geometry":{"coordinates":[5.792167,53.199598],"type":"Point"},"properties":{"osm_id":"4307370480","tag":{"amenity":"waste_basket"}},"type":"Feature"},
	{"geometry":{"coordinates":[5.795502,53.200763],"type":"Point"},"properties":{"osm_id":"4309526878","tag":{"amenity":"waste_basket"}},"type":"Feature"},
	{"geometry":{"coordinates":[5.795632,53.200795],"type":"Point"},"properties":{"osm_id":"4309526882","tag":{"amenity":"waste_basket"}},"type":"Feature"},
	{"geometry":{"coordinates":[5.795467,53.200883],"type":"Point"},"properties":{"osm_id":"4309526885","tag":{"amenity":"waste_basket"}},"type":"Feature"},
	{"geometry":{"coordinates":[5.790679,53.185674],"type":"Point"},"properties":{"osm_id":"4309654650","tag":{"amenity":"waste_basket"}},"type":"Feature"},
	{"geometry":{"coordinates":[5.790805,53.185693],"type":"Point"},"properties":{"osm_id":"4309654652","tag":{"amenity":"waste_basket"}},"type":"Feature"},
	{"geometry":{"coordinates":[5.790932,53.185713],"type":"Point"},"properties":{"osm_id":"4309654654","tag":{"amenity":"waste_basket"}},"type":"Feature"},
	{"geometry":{"coordinates":[5.791059,53.185732],"type":"Point"},"properties":{"osm_id":"4309654658","tag":{"amenity":"waste_basket"}},"type":"Feature"},
	{"geometry":{"coordinates":[5.791185,53.185751],"type":"Point"},"properties":{"osm_id":"4309654661","tag":{"amenity":"waste_basket"}},"type":"Feature"},
	{"geometry":{"coordinates":[5.791312,53.18577],"type":"Point"},"properties":{"osm_id":"4309654665","tag":{"amenity":"waste_basket"}},"type":"Feature"},
	{"geometry":{"coordinates":[5.7907,53.185804],"type":"Point"},"properties":{"osm_id":"4309654668","tag":{"amenity":"waste_basket"}},"type":"Feature"},
	{"geometry":{"coordinates":[5.791269,53.185818],"type":"Point"},"properties":{"osm_id":"4309654670","tag":{"amenity":"waste_basket"}},"type":"Feature"},
	{"geometry":{"coordinates":[5.790733,53.185845],"type":"Point"},"properties":{"osm_id":"4309654673","tag":{"amenity":"waste_basket"}},"type":"Feature"},
	{"geometry":{"coordinates":[5.790765,53.185886],"type":"Point"},"properties":{"osm_id":"4309654676","tag":{"amenity":"waste_basket"}},"type":"Feature"},
	{"geometry":{"coordinates":[5.790798,53.185928],"type":"Point"},"properties":{"osm_id":"4309654680","tag":{"amenity":"waste_basket"}},"type":"Feature"},
	{"geometry":{"coordinates":[5.79083,53.185969],"type":"Point"},"properties":{"osm_id":"4309654682","tag":{"amenity":"waste_basket"}},"type":"Feature"},
	{"geometry":{"coordinates":[5.790862,53.18601],"type":"Point"},"properties":{"osm_id":"4309654687","tag":{"amenity":"waste_basket"}},"type":"Feature"},
	{"geometry":{"coordinates":[5.782161,53.191391],"type":"Point"},"properties":{"osm_id":"4582214227","tag":{"amenity":"recycling","recycling:organic":"yes","recycling:paper":"yes","recycling:plastic_packaging":"yes","recycling_type":"container"}},"type":"Feature"},
	{"geometry":{"coordinates":[5.784191,53.190561],"type":"Point"},"properties":{"osm_id":"4650410567","tag":{"amenity":"recycling","recycling_type":"container"}},"type":"Feature"},
	{"geometry":{"coordinates":[5.784169,53.190543],"type":"Point"},"properties":{"osm_id":"4650411913","tag":{"amenity":"recycling","recycling:glass":"yes","recycling_type":"container"}},"type":"Feature"},
	{"geometry":{"coordinates":[5.781137,53.190834],"type":"Point"},"properties":{"osm_id":"4687914295","tag":{"amenity":"recycling","recycling_type":"container"}},"type":"Feature"},
	{"geometry":{"coordinates":[5.772931,53.199653],"type":"Point"},"properties":{"osm_id":"4724881445","tag":{"amenity":"waste_basket"}},"type":"Feature"},
	{"geometry":{"coordinates":[5.78373,53.193876],"type":"Point"},"properties":{"osm_id":"4914021427","tag":{"amenity":"recycling","recycling:glass":"yes","recycling_type":"container"}},"type":"Feature"},
	{"geometry":{"coordinates":[5.783772,53.193881],"type":"Point"},"properties":{"osm_id":"4914024034","tag":{"amenity":"recycling","recycling:clothes":"yes","recycling_type":"container"}},"type":"Feature"},
	{"geometry":{"coordinates":[5.783689,53.19387],"type":"Point"},"properties":{"osm_id":"4914024035","tag":{"amenity":"recycling","recycling:paper":"yes","recycling_type":"container"}},"type":"Feature"},
	{"geometry":{"coordinates":[5.788671,53.201239],"type":"Point"},"properties":{"osm_id":"4986978425","tag":{"amenity":"waste_basket"}},"type":"Feature"},
	{"geometry":{"coordinates":[5.788072,53.201932],"type":"Point"},"properties":{"osm_id":"4986989824","tag":{"amenity":"waste_basket"}},"type":"Feature"},
	{"geometry":{"coordinates":[5.787738,53.201831],"type":"Point"},"properties":{"osm_id":"4986999521","tag":{"amenity":"waste_basket"}},"type":"Feature"},
	{"geometry":{"coordinates":[5.779702,53.190665],"type":"Point"},"properties":{"osm_id":"5039161342","tag":{"amenity":"recycling","recycling:clothes":"yes","recycling:glass_bottles":"yes","recycling:paper":"yes","recycling_type":"container"}},"type":"Feature"},
	{"geometry":{"coordinates":[5.794521,53.197527],"type":"Point"},"properties":{"osm_id":"5064085285","tag":{"amenity":"recycling","location":"underground","recycling:glass":"yes","recycling_type":"container"}},"type":"Feature"},
	{"geometry":{"coordinates":[5.800665,53.187786],"type":"Point"},"properties":{"osm_id":"5074938584","tag":{"amenity":"waste_basket"}},"type":"Feature"},
	{"geometry":{"coordinates":[5.796457,53.202458],"type":"Point"},"properties":{"osm_id":"5105639011","tag":{"amenity":"waste_basket"}},"type":"Feature"},
	{"geometry":{"coordinates":[5.798802,53.20603],"type":"Point"},"properties":{"osm_id":"5120428638","tag":{"amenity":"waste_basket"}},"type":"Feature"},
	{"geometry":{"coordinates":[5.779869,53.205541],"type":"Point"},"properties":{"osm_id":"5149480562","tag":{"amenity":"waste_basket","waste":"dog_excrement"}},"type":"Feature"},
	{"geometry":{"coordinates":[5.779871,53.205469],"type":"Point"},"properties":{"osm_id":"5149480563","tag":{"amenity":"waste_basket"}},"type":"Feature"},
	{"geometry":{"coordinates":[5.79654,53.196521],"type":"Point"},"properties":{"osm_id":"5345577558","tag":{"amenity":"waste_basket"}},"type":"Feature"},
	{"geometry":{"coordinates":[5.796446,53.196507],"type":"Point"},"properties":{"osm_id":"5345577560","tag":{"amenity":"waste_basket"}},"type":"Feature"},
	{"geometry":{"coordinates":[5.79879,53.195968],"type":"Point"},"properties":{"osm_id":"5345577647","tag":{"amenity":"waste_basket"}},"type":"Feature"},
	{"geometry":{"coordinates":[5.793017,53.195779],"type":"Point"},"properties":{"osm_id":"5349772277","tag":{"amenity":"waste_basket"}},"type":"Feature"},
	{"geometry":{"coordinates":[5.796363,53.196849],"type":"Point"},"properties":{"osm_id":"5350789818","tag":{"amenity":"waste_basket"}},"type":"Feature"},
	{"geometry":{"coordinates":[5.796426,53.19682],"type":"Point"},"properties":{"osm_id":"5350789820","tag":{"amenity":"waste_basket"}},"type":"Feature"},
	{"geometry":{"coordinates":[5.797368,53.189102],"type":"Point"},"properties":{"osm_id":"5368769552","tag":{"amenity":"waste_basket"}},"type":"Feature"},
	{"geometry":{"coordinates":[5.791689,53.196278],"type":"Point"},"properties":{"osm_id":"5375767149","tag":{"amenity":"recycling","recycling_type":"container"}},"type":"Feature"},
	{"geometry":{"coordinates":[5.791724,53.196281],"type":"Point"},"properties":{"osm_id":"5375767150","tag":{"amenity":"recycling","recycling_type":"container"}},"type":"Feature"},
	{"geometry":{"coordinates":[5.728121,53.188807],"type":"Point"},"properties":{"osm_id":"5445608465","tag":{"amenity":"waste_basket"}},"type":"Feature"},
	{"geometry":{"coordinates":[5.759729,53.213007],"type":"Point"},"properties":{"osm_id":"5584492826","tag":{"amenity":"waste_basket","waste":"trash"}},"type":"Feature"},
	{"geometry":{"coordinates":[5.787849,53.200397],"type":"Point"},"properties":{"osm_id":"5661615015","tag":{"amenity":"waste_basket","waste":"trash"}},"type":"Feature"},
	{"geometry":{"coordinates":[5.793703,53.19626],"type":"Point"},"properties":{"osm_id":"5839485288","tag":{"amenity":"waste_basket"}},"type":"Feature"},
	{"geometry":{"coordinates":[5.790584,53.186731],"type":"Point"},"properties":{"osm_id":"5863818397","tag":{"amenity":"waste_basket","waste":"trash"}},"type":"Feature"},
	{"geometry":{"coordinates":[5.790916,53.186876],"type":"Point"},"properties":{"osm_id":"5863818398","tag":{"amenity":"waste_basket","waste":"trash"}},"type":"Feature"},
	{"geometry":{"coordinates":[5.779355,53.201816],"type":"Point"},"properties":{"osm_id":"5887374100","tag":{"amenity":"waste_basket","waste":"trash"}},"type":"Feature"},
	{"geometry":{"coordinates":[5.799787,53.190545],"type":"Point"},"properties":{"osm_id":"5962145225","tag":{"amenity":"waste_basket","waste":"trash"}},"type":"Feature"},
	{"geometry":{"coordinates":[5.764593,53.193052],"type":"Point"},"properties":{"osm_id":"5974751800","tag":{"amenity":"waste_basket","waste":"trash"}},"type":"Feature"},
	{"geometry":{"coordinates":[5.800105,53.195755],"type":"Point"},"properties":{"osm_id":"6010783048","tag":{"amenity":"waste_basket","waste":"trash"}},"type":"Feature"},
	{"geometry":{"coordinates":[5.800265,53.195841],"type":"Point"},"properties":{"osm_id":"6010783641","tag":{"amenity":"waste_basket","waste":"trash"}},"type":"Feature"},
	{"geometry":{"coordinates":[5.78882,53.213315],"type":"Point"},"properties":{"osm_id":"6025487659","tag":{"amenity":"waste_basket","waste":"trash"}},"type":"Feature"},
	{"geometry":{"coordinates":[5.79702,53.205166],"type":"Point"},"properties":{"osm_id":"6028405070","tag":{"amenity":"recycling","recycling:clothes":"yes","recycling_type":"container"}},"type":"Feature"},
	{"geometry":{"coordinates":[5.797048,53.205178],"type":"Point"},"properties":{"osm_id":"6028405071","tag":{"amenity":"recycling","recycling:paper":"yes","recycling_type":"container"}},"type":"Feature"},
	{"geometry":{"coordinates":[5.797078,53.205191],"type":"Point"},"properties":{"osm_id":"6028405072","tag":{"amenity":"recycling","recycling:glass_bottles":"yes","recycling_type":"container"}},"type":"Feature"},
	{"geometry":{"coordinates":[5.796719,53.205258],"type":"Point"},"properties":{"osm_id":"6028405099","tag":{"amenity":"waste_basket","waste":"trash"}},"type":"Feature"},
	{"geometry":{"coordinates":[5.796929,53.206137],"type":"Point"},"properties":{"osm_id":"6028405107","tag":{"amenity":"waste_basket","waste":"trash"}},"type":"Feature"},
	{"geometry":{"coordinates":[5.796505,53.20534],"type":"Point"},"properties":{"osm_id":"6028405109","tag":{"amenity":"waste_basket","waste":"trash"}},"type":"Feature"},
	{"geometry":{"coordinates":[5.795635,53.203907],"type":"Point"},"properties":{"osm_id":"6029291029","tag":{"amenity":"recycling","recycling:residual_waste":"yes","recycling_type":"container"}},"type":"Feature"},
	{"geometry":{"coordinates":[5.795674,53.203979],"type":"Point"},"properties":{"osm_id":"6029291041","tag":{"amenity":"waste_basket","waste":"trash"}},"type":"Feature"},
	{"geometry":{"coordinates":[5.797562,53.206055],"type":"Point"},"properties":{"osm_id":"6033824537","tag":{"amenity":"waste_basket","waste":"trash"}},"type":"Feature"},
	{"geometry":{"coordinates":[5.797209,53.206247],"type":"Point"},"properties":{"osm_id":"6033824558","tag":{"amenity":"waste_basket","waste":"trash"}},"type":"Feature"},
	{"geometry":{"coordinates":[5.794989,53.204578],"type":"Point"},"properties":{"osm_id":"6034398491","tag":{"amenity":"waste_basket","waste":"trash"}},"type":"Feature"},
	{"geometry":{"coordinates":[5.797231,53.206766],"type":"Point"},"properties":{"osm_id":"6034718427","tag":{"amenity":"waste_basket","waste":"trash"}},"type":"Feature"},
	{"geometry":{"coordinates":[5.792443,53.203768],"type":"Point"},"properties":{"osm_id":"6035087052","tag":{"amenity":"recycling","recycling:waste":"yes","recycling_type":"container"}},"type":"Feature"},
	{"geometry":{"coordinates":[5.788305,53.202233],"type":"Point"},"properties":{"osm_id":"6231328949","tag":{"amenity":"waste_basket"}},"type":"Feature"},
	{"geometry":{"coordinates":[5.788942,53.201362],"type":"Point"},"properties":{"osm_id":"6231329195","tag":{"amenity":"recycling","recycling:waste":"yes","recycling_type":"container"}},"type":"Feature"},
	{"geometry":{"coordinates":[5.788742,53.201584],"type":"Point"},"properties":{"osm_id":"6231329523","tag":{"amenity":"waste_basket"}},"type":"Feature"},
	{"geometry":{"coordinates":[5.782457,53.197109],"type":"Point"},"properties":{"osm_id":"6270311525","tag":{"amenity":"waste_basket"}},"type":"Feature"},
	{"geometry":{"coordinates":[5.791631,53.196331],"type":"Point"},"properties":{"osm_id":"6294548730","tag":{"amenity":"waste_basket","waste":"trash"}},"type":"Feature"},
	{"geometry":{"coordinates":[5.79125,53.196286],"type":"Point"},"properties":{"osm_id":"6294548731","tag":{"amenity":"waste_basket","waste":"trash"}},"type":"Feature"},
	{"geometry":{"coordinates":[5.792151,53.196393],"type":"Point"},"properties":{"osm_id":"6294548886","tag":{"amenity":"waste_basket","waste":"trash"}},"type":"Feature"},
	{"geometry":{"coordinates":[5.791862,53.196359],"type":"Point"},"properties":{"osm_id":"6294548887","tag":{"amenity":"waste_basket","waste":"trash"}},"type":"Feature"},
	{"geometry":{"coordinates":[5.790264,53.196168],"type":"Point"},"properties":{"osm_id":"6294548892","tag":{"amenity":"waste_basket","waste":"trash"}},"type":"Feature"},
	{"geometry":{"coordinates":[5.790638,53.196212],"type":"Point"},"properties":{"osm_id":"6294548893","tag":{"amenity":"waste_basket","waste":"trash"}},"type":"Feature"},
	{"geometry":{"coordinates":[5.790493,53.196195],"type":"Point"},"properties":{"osm_id":"6294548896","tag":{"amenity":"waste_basket","waste":"trash"}},"type":"Feature"},
	{"geometry":{"coordinates":[5.791076,53.196265],"type":"Point"},"properties":{"osm_id":"6294548897","tag":{"amenity":"waste_basket","waste":"trash"}},"type":"Feature"},
	{"geometry":{"coordinates":[5.762268,53.183488],"type":"Point"},"properties":{"osm_id":"6346170035","tag":{"amenity":"recycling","operator":"Weiland Vloeren","recycling:polystyrene_foam":"yes","recycling_type":"container"}},"type":"Feature"},
	{"geometry":{"coordinates":[5.778468,53.208075],"type":"Point"},"properties":{"osm_id":"6368939829","tag":{"amenity":"recycling","recycling:glass_bottles":"yes","recycling_type":"container"}},"type":"Feature"},
	{"geometry":{"coordinates":[5.778434,53.208084],"type":"Point"},"properties":{"osm_id":"6368939830","tag":{"amenity":"recycling","recycling:clothes":"yes","recycling_type":"container"}},"type":"Feature"},
	{"geometry":{"coordinates":[5.792253,53.203408],"type":"Point"},"properties":{"osm_id":"6381765979","tag":{"amenity":"recycling","recycling_type":"container"}},"type":"Feature"},
	{"geometry":{"coordinates":[5.792255,53.203388],"type":"Point"},"properties":{"osm_id":"6381765980","tag":{"amenity":"recycling","recycling:glass_bottles":"yes","recycling_type":"container"}},"type":"Feature"},
	{"geometry":{"coordinates":[5.78786,53.206015],"type":"Point"},"properties":{"osm_id":"6382970116","tag":{"amenity":"waste_basket","waste":"trash"}},"type":"Feature"},
	{"geometry":{"coordinates":[5.792507,53.20593],"type":"Point"},"properties":{"osm_id":"6384056569","tag":{"amenity":"waste_basket"}},"type":"Feature"},
	{"geometry":{"coordinates":[5.797712,53.202935],"type":"Point"},"properties":{"osm_id":"6386722142","tag":{"amenity":"waste_basket"}},"type":"Feature"},
	{"geometry":{"coordinates":[5.799182,53.203107],"type":"Point"},"properties":{"osm_id":"6386722162","tag":{"amenity":"recycling","recycling:waste":"yes","recycling_type":"container"}},"type":"Feature"},
	{"geometry":{"coordinates":[5.798054,53.202987],"type":"Point"},"properties":{"osm_id":"6386722164","tag":{"amenity":"recycling","recycling:waste":"yes","recycling_type":"container"}},"type":"Feature"},
	{"geometry":{"coordinates":[5.798063,53.202963],"type":"Point"},"properties":{"osm_id":"6386722165","tag":{"amenity":"recycling","recycling:waste":"yes","recycling_type":"container"}},"type":"Feature"},
	{"geometry":{"coordinates":[5.789077,53.200859],"type":"Point"},"properties":{"osm_id":"6386722221","tag":{"amenity":"recycling","recycling:glass_bottles":"yes","recycling_type":"container"}},"type":"Feature"},
	{"geometry":{"coordinates":[5.788878,53.199627],"type":"Point"},"properties":{"osm_id":"6386722257","tag":{"amenity":"recycling","recycling:waste":"yes","recycling_type":"container"}},"type":"Feature"},
	{"geometry":{"coordinates":[5.790176,53.19877],"type":"Point"},"properties":{"osm_id":"6386722280","tag":{"amenity":"recycling","recycling:waste":"yes","recycling_type":"container"}},"type":"Feature"},
	{"geometry":{"coordinates":[5.79163,53.199582],"type":"Point"},"properties":{"osm_id":"6386722320","tag":{"amenity":"recycling","recycling:waste":"yes","recycling_type":"container"}},"type":"Feature"},
	{"geometry":{"coordinates":[5.795897,53.199018],"type":"Point"},"properties":{"osm_id":"6386722327","tag":{"amenity":"recycling","recycling_type":"container"}},"type":"Feature"},
	{"geometry":{"coordinates":[5.795906,53.199057],"type":"Point"},"properties":{"osm_id":"6386722328","tag":{"amenity":"recycling","recycling_type":"container"}},"type":"Feature"},
	{"geometry":{"coordinates":[5.794298,53.198482],"type":"Point"},"properties":{"osm_id":"6386722347","tag":{"amenity":"waste_basket"}},"type":"Feature"},
	{"geometry":{"coordinates":[5.793207,53.198556],"type":"Point"},"properties":{"osm_id":"6386722350","tag":{"amenity":"waste_basket"}},"type":"Feature"},
	{"geometry":{"coordinates":[5.799995,53.212166],"type":"Point"},"properties":{"osm_id":"6392017507","tag":{"amenity":"waste_basket"}},"type":"Feature"},
	{"geometry":{"coordinates":[5.79984,53.212219],"type":"Point"},"properties":{"osm_id":"6392017521","tag":{"amenity":"waste_basket"}},"type":"Feature"},
	{"geometry":{"coordinates":[5.80005,53.209247],"type":"Point"},"properties":{"osm_id":"6417993098","tag":{"amenity":"waste_basket","waste":"dog_excrement"}},"type":"Feature"},
	{"geometry":{"coordinates":[5.798882,53.209098],"type":"Point"},"properties":{"osm_id":"6417993099","tag":{"amenity":"waste_basket","waste":"trash"}},"type":"Feature"},
	{"geometry":{"coordinates":[5.797071,53.212019],"type":"Point"},"properties":{"osm_id":"6425892643","tag":{"amenity":"waste_basket"}},"type":"Feature"},
	{"geometry":{"coordinates":[5.785021,53.201746],"type":"Point"},"properties":{"osm_id":"6496322626","tag":{"amenity":"waste_basket","waste":"trash"}},"type":"Feature"},
	{"geometry":{"coordinates":[5.78644,53.201922],"type":"Point"},"properties":{"osm_id":"6496323321","tag":{"amenity":"waste_basket","waste":"dog_excrement"}},"type":"Feature"},
	{"geometry":{"coordinates":[5.786541,53.201894],"type":"Point"},"properties":{"osm_id":"6496323322","tag":{"amenity":"waste_basket","waste":"trash"}},"type":"Feature"},
	{"geometry":{"coordinates":[5.785692,53.202019],"type":"Point"},"properties":{"osm_id":"6496323324","tag":{"amenity":"recycling","recycling:waste":"yes","recycling_type":"container"}},"type":"Feature"},
	{"geometry":{"coordinates":[5.786627,53.200659],"type":"Point"},"properties":{"osm_id":"6496323325","tag":{"amenity":"waste_basket","waste":"dog_excrement"}},"type":"Feature"},
	{"geometry":{"coordinates":[5.785852,53.201912],"type":"Point"},"properties":{"osm_id":"6496323327","tag":{"amenity":"waste_basket","waste":"trash"}},"type":"Feature"},
	{"geometry":{"coordinates":[5.784352,53.201227],"type":"Point"},"properties":{"osm_id":"6496323354","tag":{"amenity":"waste_basket","waste":"trash"}},"type":"Feature"},
	{"geometry":{"coordinates":[5.784335,53.202043],"type":"Point"},"properties":{"osm_id":"6496323356","tag":{"amenity":"waste_basket","waste":"dog_excrement"}},"type":"Feature"},
	{"geometry":{"coordinates":[5.784362,53.202096],"type":"Point"},"properties":{"osm_id":"6496323357","tag":{"amenity":"waste_basket","waste":"trash"}},"type":"Feature"},
	{"geometry":{"coordinates":[5.786533,53.201509],"type":"Point"},"properties":{"osm_id":"6496323568","tag":{"amenity":"waste_basket","waste":"trash"}},"type":"Feature"},
	{"geometry":{"coordinates":[5.784617,53.202097],"type":"Point"},"properties":{"osm_id":"6496323964","tag":{"amenity":"recycling","recycling:cardboard":"yes","recycling:paper":"yes","recycling_type":"container"}},"type":"Feature"},
	{"geometry":{"coordinates":[5.784647,53.202094],"type":"Point"},"properties":{"osm_id":"6496323965","tag":{"amenity":"recycling","recycling:waste":"yes","recycling_type":"container"}},"type":"Feature"},
	{"geometry":{"coordinates":[5.784677,53.20209],"type":"Point"},"properties":{"osm_id":"6496323966","tag":{"amenity":"recycling","recycling:glass_bottles":"yes","recycling_type":"container"}},"type":"Feature"},
	{"geometry":{"coordinates":[5.784706,53.202087],"type":"Point"},"properties":{"osm_id":"6496323967","tag":{"amenity":"recycling","recycling:clothes":"yes","recycling_type":"container"}},"type":"Feature"},
	{"geometry":{"coordinates":[5.784134,53.200894],"type":"Point"},"properties":{"osm_id":"6496323976","tag":{"amenity":"waste_basket","waste":"trash"}},"type":"Feature"},
	{"geometry":{"coordinates":[5.784272,53.200923],"type":"Point"},"properties":{"osm_id":"6496323977","tag":{"amenity":"waste_basket","waste":"trash"}},"type":"Feature"},
	{"geometry":{"coordinates":[5.788851,53.20099],"type":"Point"},"properties":{"osm_id":"6498530384","tag":{"amenity":"waste_basket","waste":"dog_excrement"}},"type":"Feature"},
	{"geometry":{"coordinates":[5.789531,53.200485],"type":"Point"},"properties":{"osm_id":"6498686561","tag":{"amenity":"waste_basket"}},"type":"Feature"},
	{"geometry":{"coordinates":[5.789468,53.200737],"type":"Point"},"properties":{"osm_id":"6498686567","tag":{"amenity":"waste_basket"}},"type":"Feature"},
	{"geometry":{"coordinates":[5.773901,53.203514],"type":"Point"},"properties":{"osm_id":"6506953588","tag":{"amenity":"waste_basket","waste":"trash"}},"type":"Feature"},
	{"geometry":{"coordinates":[5.714851,53.204342],"type":"Point"},"properties":{"osm_id":"6718206066","tag":{"amenity":"waste_basket"}},"type":"Feature"},
	{"geometry":{"coordinates":[5.796263,53.217442],"type":"Point"},"properties":{"osm_id":"6828516263","tag":{"amenity":"recycling","recycling_type":"container"}},"type":"Feature"},
	{"geometry":{"coordinates":[5.796249,53.216815],"type":"Point"},"properties":{"osm_id":"6828516264","tag":{"amenity":"recycling","recycling_type":"container"}},"type":"Feature"},
	{"geometry":{"coordinates":[5.796313,53.186362],"type":"Point"},"properties":{"osm_id":"6981353566","tag":{"amenity":"waste_basket","waste":"trash"}},"type":"Feature"},
	{"geometry":{"coordinates":[5.792803,53.192778],"type":"Point"},"properties":{"osm_id":"7016879966","tag":{"amenity":"recycling","recycling:glass":"yes","recycling_type":"container"}},"type":"Feature"},
	{"geometry":{"coordinates":[5.792808,53.192799],"type":"Point"},"properties":{"osm_id":"7016879967","tag":{"amenity":"recycling","recycling:cardboard":"yes","recycling:paper":"yes","recycling_type":"container"}},"type":"Feature"},
	{"geometry":{"coordinates":[5.796198,53.193569],"type":"Point"},"properties":{"osm_id":"7017040410","tag":{"amenity":"waste_basket","waste":"trash"}},"type":"Feature"},
	{"geometry":{"coordinates":[5.796293,53.194752],"type":"Point"},"properties":{"osm_id":"7017837674","tag":{"amenity":"waste_basket","waste":"trash"}},"type":"Feature"},
	{"geometry":{"coordinates":[5.778799,53.200447],"type":"Point"},"properties":{"osm_id":"7029658695","tag":{"amenity":"waste_basket","waste":"trash"}},"type":"Feature"},
	{"geometry":{"coordinates":[5.789639,53.18881],"type":"Point"},"properties":{"osm_id":"7526653843","tag":{"amenity":"waste_basket","waste":"trash"}},"type":"Feature"},
	{"geometry":{"coordinates":[5.79065,53.189423],"type":"Point"},"properties":{"osm_id":"7528922941","tag":{"amenity":"waste_basket"}},"type":"Feature"},
	{"geometry":{"coordinates":[5.797602,53.201281],"type":"Point"},"properties":{"osm_id":"7738298192","tag":{"amenity":"waste_basket","waste":"trash"}},"type":"Feature"},
	{"geometry":{"coordinates":[5.796857,53.201079],"type":"Point"},"properties":{"osm_id":"7738298193","tag":{"amenity":"waste_basket","waste":"trash"}},"type":"Feature"},
	{"geometry":{"coordinates":[5.730023,53.210564],"type":"Point"},"properties":{"osm_id":"7788330953","tag":{"amenity":"waste_basket"}},"type":"Feature"}
]
}
