{
"type": "FeatureCollection",
"features": [
	{"geometry":{"coordinates":[5.792516,50.128153],"type":"Point"},"properties":{"osm_id":"3215792678","tag":{"amenity":"waste_basket"}},"type":"Feature"},
	{"geometry":{"coordinates":[5.762367,50.133659],"type":"Point"},"properties":{"osm_id":"6960628780","tag":{"amenity":"recycling","recycling:glass_bottles":"yes","recycling_type":"container"}},"type":"Feature"},
	{"geometry":{"coordinates":[5.781267,50.160717],"type":"Point"},"properties":{"name":"Recyparc Houffalize Fontenaille","osm_id":"7772916474","tag":{"addr:housenumber":"6C","addr:street":"Fontenaille","amenity":"recycling","recycling_type":"centre"}},"type":"Feature"},
	{"geometry":{"coordinates":[5.727336,50.164194],"type":"Point"},"properties":{"osm_id":"7849393220","tag":{"amenity":"recycling","opening_hours":"24/7","operator":"IDELUX-Environnement","recycling:glass_bottles":"yes","recycling_type":"container"}},"type":"Feature"},
	{"geometry":{"coordinates":[5.780521,50.129745],"type":"Point"},"properties":{"osm_id":"7849393233","tag":{"amenity":"recycling","opening_hours":"24/7","operator":"IDELUX-Environnement","recycling:glass_bottles":"yes","recycling_type":"container"}},"type":"Feature"},
	{"geometry":{"coordinates":[5.792152,50.130017],"type":"Point"},"properties":{"osm_id":"7849393234","tag":{"amenity":"recycling","opening_hours":"24/7","operator":"IDELUX-Environnement","recycling:glass_bottles":"yes","recycling_type":"container"}},"type":"Feature"},
	{"geometry":{"coordinates":[5.718734,50.144769],"type":"Point"},"properties":{"osm_id":"7849393235","tag":{"amenity":"recycling","opening_hours":"24/7","operator":"IDELUX-Environnement","recycling:glass_bottles":"yes","recycling_type":"container"}},"type":"Feature"},
	{"geometry":{"coordinates":[5.746058,50.149456],"type":"Point"},"properties":{"osm_id":"7849393237","tag":{"amenity":"recycling","opening_hours":"24/7","operator":"IDELUX-Environnement","recycling:glass_bottles":"yes","recycling_type":"container"}},"type":"Feature"}
]
}
