{
"type": "FeatureCollection",
"features": [
	{"geometry":{"coordinates":[5.7188,46.430969],"type":"Point"},"properties":{"barrier":"gate","osm_id":"4782308734"},"type":"Feature"},
	{"geometry":{"coordinates":[5.777164,46.382279],"type":"Point"},"properties":{"osm_id":"5329914670","tag":{"amenity":"waste_disposal","drinking_water":"yes","fee":"yes","operator":"Euro Relais","sanitary_dump_station:chemical_toilet":"yes","sanitary_dump_station:grey_water":"yes","waste_disposal:trash":"yes"}},"type":"Feature"},
	{"geometry":{"coordinates":[5.776603,46.381096],"type":"Point"},"properties":{"osm_id":"6385964507","tag":{"amenity":"recycling","recycling_type":"container"}},"type":"Feature"},
	{"geometry":{"coordinates":[5.776574,46.381115],"type":"Point"},"properties":{"osm_id":"6385964511","tag":{"amenity":"recycling","recycling_type":"container"}},"type":"Feature"},
	{"geometry":{"coordinates":[5.77659,46.381077],"type":"Point"},"properties":{"osm_id":"6385964523","tag":{"amenity":"recycling","recycling_type":"container"}},"type":"Feature"},
	{"geometry":{"coordinates":[5.795174,46.405439],"type":"Point"},"properties":{"osm_id":"6385964526","tag":{"amenity":"recycling","recycling_type":"container"}},"type":"Feature"},
	{"geometry":{"coordinates":[5.776615,46.381134],"type":"Point"},"properties":{"osm_id":"6385964575","tag":{"amenity":"recycling","recycling_type":"container"}},"type":"Feature"},
	{"geometry":{"coordinates":[5.794029,46.406055],"type":"Point"},"properties":{"osm_id":"6385964904","tag":{"amenity":"recycling","recycling_type":"container"}},"type":"Feature"},
	{"geometry":{"coordinates":[5.793756,46.397279],"type":"Point"},"properties":{"osm_id":"6385964930","tag":{"amenity":"recycling","recycling:paper":"yes","recycling_type":"container"}},"type":"Feature"},
	{"geometry":{"coordinates":[5.794074,46.40609],"type":"Point"},"properties":{"osm_id":"6385964939","tag":{"amenity":"recycling","recycling_type":"container"}},"type":"Feature"},
	{"geometry":{"coordinates":[5.7907,46.401962],"type":"Point"},"properties":{"osm_id":"6385964943","tag":{"amenity":"recycling","recycling_type":"container"}},"type":"Feature"},
	{"geometry":{"coordinates":[5.794061,46.406051],"type":"Point"},"properties":{"osm_id":"6385965176","tag":{"amenity":"recycling","recycling_type":"container"}},"type":"Feature"},
	{"geometry":{"coordinates":[5.795225,46.405419],"type":"Point"},"properties":{"osm_id":"6385965345","tag":{"amenity":"recycling","recycling_type":"container"}},"type":"Feature"},
	{"geometry":{"coordinates":[5.79068,46.401945],"type":"Point"},"properties":{"osm_id":"6385965377","tag":{"amenity":"recycling","recycling_type":"container"}},"type":"Feature"},
	{"geometry":{"coordinates":[5.776581,46.381137],"type":"Point"},"properties":{"osm_id":"6385965403","tag":{"amenity":"recycling","recycling_type":"container"}},"type":"Feature"},
	{"geometry":{"coordinates":[5.776571,46.381096],"type":"Point"},"properties":{"osm_id":"6385965563","tag":{"amenity":"recycling","recycling_type":"container"}},"type":"Feature"},
	{"geometry":{"coordinates":[5.793789,46.397282],"type":"Point"},"properties":{"osm_id":"6385965650","tag":{"amenity":"recycling","mapillary":"95WRGN6JzgomYvB7OPEkRw","recycling:glass_bottles":"yes","recycling_type":"container"}},"type":"Feature"},
	{"geometry":{"coordinates":[5.7952,46.405429],"type":"Point"},"properties":{"osm_id":"6385965653","tag":{"amenity":"recycling","recycling_type":"container"}},"type":"Feature"},
	{"geometry":{"coordinates":[5.790669,46.401929],"type":"Point"},"properties":{"osm_id":"6385965874","tag":{"amenity":"recycling","recycling_type":"container"}},"type":"Feature"},
	{"geometry":{"coordinates":[5.79525,46.40541],"type":"Point"},"properties":{"osm_id":"6385965899","tag":{"amenity":"recycling","recycling_type":"container"}},"type":"Feature"},
	{"geometry":{"coordinates":[5.794036,46.406077],"type":"Point"},"properties":{"osm_id":"6385965948","tag":{"amenity":"recycling","recycling_type":"container"}},"type":"Feature"},
	{"geometry":{"coordinates":[5.776413,46.382035],"type":"Point"},"properties":{"osm_id":"6385965965","tag":{"amenity":"recycling","recycling_type":"container"}},"type":"Feature"},
	{"geometry":{"coordinates":[5.776608,46.381114],"type":"Point"},"properties":{"osm_id":"6385966122","tag":{"amenity":"recycling","recycling_type":"container"}},"type":"Feature"},
	{"geometry":{"coordinates":[5.794067,46.40607],"type":"Point"},"properties":{"osm_id":"6385966294","tag":{"amenity":"recycling","recycling_type":"container"}},"type":"Feature"},
	{"geometry":{"coordinates":[5.776606,46.381153],"type":"Point"},"properties":{"osm_id":"6385966353","tag":{"amenity":"recycling","recycling_type":"container"}},"type":"Feature"},
	{"geometry":{"coordinates":[5.776381,46.382043],"type":"Point"},"properties":{"osm_id":"6385966407","tag":{"amenity":"recycling","recycling_type":"container"}},"type":"Feature"},
	{"geometry":{"coordinates":[5.790713,46.401978],"type":"Point"},"properties":{"osm_id":"6385966432","tag":{"amenity":"recycling","recycling_type":"container"}},"type":"Feature"},
	{"geometry":{"coordinates":[5.777702,46.387903],"type":"Point"},"properties":{"osm_id":"6513612034","tag":{"amenity":"recycling","recycling_type":"container"}},"type":"Feature"},
	{"geometry":{"coordinates":[5.777728,46.387901],"type":"Point"},"properties":{"osm_id":"6513612035","tag":{"amenity":"recycling","recycling_type":"container"}},"type":"Feature"},
	{"geometry":{"coordinates":[5.777755,46.387899],"type":"Point"},"properties":{"osm_id":"6513612036","tag":{"amenity":"recycling","recycling_type":"container"}},"type":"Feature"},
	{"geometry":{"coordinates":[5.777786,46.387896],"type":"Point"},"properties":{"osm_id":"6513612037","tag":{"amenity":"recycling","recycling_type":"container"}},"type":"Feature"},
	{"geometry":{"coordinates":[5.778371,46.381047],"type":"Point"},"properties":{"osm_id":"6518891887","tag":{"amenity":"waste_basket","waste":"trash"}},"type":"Feature"},
	{"geometry":{"coordinates":[5.778419,46.381081],"type":"Point"},"properties":{"osm_id":"6518891889","tag":{"amenity":"recycling","recycling:paper":"yes","recycling_type":"container"}},"type":"Feature"},
	{"geometry":{"coordinates":[5.778426,46.381095],"type":"Point"},"properties":{"osm_id":"6518891890","tag":{"amenity":"recycling","recycling:glass_bottles":"yes","recycling_type":"container"}},"type":"Feature"},
	{"geometry":{"coordinates":[5.777401,46.381401],"type":"Point"},"properties":{"osm_id":"6518891895","tag":{"amenity":"recycling","recycling:clothes":"yes","recycling_type":"container"}},"type":"Feature"},
	{"geometry":{"coordinates":[5.777187,46.38227],"type":"Point"},"properties":{"osm_id":"6518891908","tag":{"amenity":"waste_basket","waste":"trash"}},"type":"Feature"},
	{"geometry":{"coordinates":[5.784297,46.386779],"type":"Point"},"properties":{"osm_id":"6518892015","tag":{"amenity":"recycling","recycling:waste":"yes","recycling_type":"container"}},"type":"Feature"},
	{"geometry":{"coordinates":[5.78427,46.386781],"type":"Point"},"properties":{"osm_id":"6518892016","tag":{"amenity":"recycling","recycling:cans":"yes","recycling:cardboard":"yes","recycling:paper":"yes","recycling:plastic":"yes","recycling:plastic_bottles":"yes","recycling:plastic_packaging":"yes","recycling_type":"container"}},"type":"Feature"},
	{"geometry":{"coordinates":[5.784301,46.386801],"type":"Point"},"properties":{"osm_id":"6518892017","tag":{"amenity":"recycling","recycling:waste":"yes","recycling_type":"container"}},"type":"Feature"},
	{"geometry":{"coordinates":[5.784274,46.386803],"type":"Point"},"properties":{"osm_id":"6518892018","tag":{"amenity":"recycling","recycling:cans":"yes","recycling:cardboard":"yes","recycling:paper":"yes","recycling:plastic":"yes","recycling:plastic_bottles":"yes","recycling:plastic_packaging":"yes","recycling_type":"container"}},"type":"Feature"},
	{"geometry":{"coordinates":[5.780403,46.385819],"type":"Point"},"properties":{"osm_id":"6518892028","tag":{"amenity":"recycling","recycling:glass_bottles":"yes","recycling_type":"container"}},"type":"Feature"},
	{"geometry":{"coordinates":[5.780388,46.385801],"type":"Point"},"properties":{"osm_id":"6518892029","tag":{"amenity":"recycling","recycling:glass_bottles":"yes","recycling_type":"container"}},"type":"Feature"},
	{"geometry":{"coordinates":[5.780371,46.385786],"type":"Point"},"properties":{"osm_id":"6518892030","tag":{"amenity":"recycling","recycling_type":"container"}},"type":"Feature"},
	{"geometry":{"coordinates":[5.78034,46.385766],"type":"Point"},"properties":{"osm_id":"6518892035","tag":{"amenity":"recycling","recycling_type":"container"}},"type":"Feature"},
	{"geometry":{"coordinates":[5.780322,46.385751],"type":"Point"},"properties":{"osm_id":"6518892036","tag":{"amenity":"recycling","recycling_type":"container"}},"type":"Feature"},
	{"geometry":{"coordinates":[5.780304,46.385736],"type":"Point"},"properties":{"osm_id":"6518892037","tag":{"amenity":"recycling","recycling_type":"container"}},"type":"Feature"},
	{"geometry":{"coordinates":[5.780287,46.38572],"type":"Point"},"properties":{"osm_id":"6518892038","tag":{"amenity":"recycling","recycling_type":"container"}},"type":"Feature"},
	{"geometry":{"coordinates":[5.780269,46.385705],"type":"Point"},"properties":{"osm_id":"6518892039","tag":{"amenity":"recycling","recycling_type":"container"}},"type":"Feature"},
	{"geometry":{"coordinates":[5.780251,46.385689],"type":"Point"},"properties":{"osm_id":"6518892040","tag":{"amenity":"recycling","recycling_type":"container"}},"type":"Feature"},
	{"geometry":{"coordinates":[5.782701,46.389406],"type":"Point"},"properties":{"osm_id":"6518892090","tag":{"amenity":"waste_basket","waste":"trash"}},"type":"Feature"},
	{"geometry":{"coordinates":[5.782965,46.389162],"type":"Point"},"properties":{"osm_id":"6518892091","tag":{"amenity":"recycling","recycling:cans":"yes","recycling:cardboard":"yes","recycling:paper":"yes","recycling:plastic":"yes","recycling:plastic_bottles":"yes","recycling:plastic_packaging":"yes","recycling_type":"container"}},"type":"Feature"},
	{"geometry":{"coordinates":[5.782977,46.389148],"type":"Point"},"properties":{"osm_id":"6518892092","tag":{"amenity":"recycling","recycling:cans":"yes","recycling:cardboard":"yes","recycling:paper":"yes","recycling:plastic":"yes","recycling:plastic_bottles":"yes","recycling:plastic_packaging":"yes","recycling_type":"container"}},"type":"Feature"},
	{"geometry":{"coordinates":[5.782989,46.389133],"type":"Point"},"properties":{"osm_id":"6518892093","tag":{"amenity":"recycling","recycling:waste":"yes","recycling_type":"container"}},"type":"Feature"},
	{"geometry":{"coordinates":[5.783001,46.389119],"type":"Point"},"properties":{"osm_id":"6518892094","tag":{"amenity":"recycling","recycling:waste":"yes","recycling_type":"container"}},"type":"Feature"},
	{"geometry":{"coordinates":[5.781905,46.388211],"type":"Point"},"properties":{"osm_id":"6518892130","tag":{"amenity":"recycling","recycling_type":"container"}},"type":"Feature"},
	{"geometry":{"coordinates":[5.781883,46.388223],"type":"Point"},"properties":{"osm_id":"6518892131","tag":{"amenity":"recycling","recycling_type":"container"}},"type":"Feature"},
	{"geometry":{"coordinates":[5.781861,46.388235],"type":"Point"},"properties":{"osm_id":"6518892132","tag":{"amenity":"recycling","recycling_type":"container"}},"type":"Feature"},
	{"geometry":{"coordinates":[5.731336,46.41609],"type":"Point"},"properties":{"osm_id":"6681024819","tag":{"amenity":"recycling","recycling:glass_bottles":"yes","recycling_type":"container"}},"type":"Feature"},
	{"geometry":{"coordinates":[5.795724,46.392042],"type":"Point"},"properties":{"osm_id":"6704007161","tag":{"amenity":"recycling","recycling:waste":"yes","recycling_type":"container"}},"type":"Feature"},
	{"geometry":{"coordinates":[5.795719,46.392064],"type":"Point"},"properties":{"osm_id":"6704007162","tag":{"amenity":"recycling","recycling:cans":"yes","recycling:cardboard":"yes","recycling:paper":"yes","recycling:plastic":"yes","recycling:plastic_bottles":"yes","recycling_type":"container"}},"type":"Feature"},
	{"geometry":{"coordinates":[5.799321,46.416439],"type":"Point"},"properties":{"osm_id":"6745299166","tag":{"amenity":"waste_basket","waste":"trash"}},"type":"Feature"},
	{"geometry":{"coordinates":[5.725106,46.428118],"type":"Point"},"properties":{"osm_id":"7517036144","tag":{"amenity":"recycling","recycling_type":"container"}},"type":"Feature"},
	{"geometry":{"coordinates":[5.726853,46.432754],"type":"Point"},"properties":{"osm_id":"7518180747","tag":{"amenity":"waste_basket"}},"type":"Feature"},
	{"geometry":{"coordinates":[5.72689,46.432924],"type":"Point"},"properties":{"osm_id":"7518180748","tag":{"amenity":"waste_basket"}},"type":"Feature"},
	{"geometry":{"coordinates":[5.726551,46.432567],"type":"Point"},"properties":{"osm_id":"7518180801","tag":{"amenity":"waste_basket"}},"type":"Feature"},
	{"geometry":{"coordinates":[5.726663,46.43251],"type":"Point"},"properties":{"osm_id":"7518180802","tag":{"amenity":"waste_basket"}},"type":"Feature"},
	{"geometry":{"coordinates":[5.726737,46.432146],"type":"Point"},"properties":{"osm_id":"7518180807","tag":{"amenity":"waste_basket"}},"type":"Feature"},
	{"geometry":{"coordinates":[5.72503,46.435396],"type":"Point"},"properties":{"osm_id":"7518180843","tag":{"amenity":"recycling","recycling_type":"container"}},"type":"Feature"},
	{"geometry":{"coordinates":[5.748048,46.383215],"type":"Point"},"properties":{"osm_id":"7886601207","tag":{"amenity":"waste_basket"}},"type":"Feature"}
]
}
