{
"type": "FeatureCollection",
"features": [
	{"geometry":{"coordinates":[5.771148,46.305196],"type":"Point"},"properties":{"osm_id":"5306706052","tag":{"amenity":"waste_basket"}},"type":"Feature"},
	{"geometry":{"coordinates":[5.774621,46.300938],"type":"Point"},"properties":{"osm_id":"5306706053","tag":{"amenity":"waste_basket"}},"type":"Feature"},
	{"geometry":{"coordinates":[5.768218,46.30398],"type":"Point"},"properties":{"osm_id":"5306706056","tag":{"amenity":"waste_basket"}},"type":"Feature"},
	{"geometry":{"coordinates":[5.768197,46.303976],"type":"Point"},"properties":{"name":"Conteneur \u00c3\u00a0 verre","osm_id":"5306706057","tag":{"amenity":"recycling","recycling:glass_bottles":"yes","recycling_type":"container"}},"type":"Feature"},
	{"geometry":{"coordinates":[5.792082,46.28594],"type":"Point"},"properties":{"osm_id":"6531743121","tag":{"amenity":"recycling","recycling:waste":"yes","recycling_type":"container"}},"type":"Feature"},
	{"geometry":{"coordinates":[5.792077,46.285922],"type":"Point"},"properties":{"osm_id":"6531743122","tag":{"amenity":"recycling","recycling_type":"container"}},"type":"Feature"}
]
}
