{
"type": "FeatureCollection",
"features": [
	{"geometry":{"coordinates":[5.738821,45.609993],"type":"Point"},"properties":{"name":"Poubelles Recyclage","osm_id":"4360924090","tag":{"amenity":"waste_basket","name:fr":"Poubelles Recyclage"}},"type":"Feature"},
	{"geometry":{"coordinates":[5.771385,45.594828],"type":"Point"},"properties":{"osm_id":"4552514132","tag":{"amenity":"waste_basket"}},"type":"Feature"},
	{"geometry":{"coordinates":[5.770324,45.59352],"type":"Point"},"properties":{"osm_id":"4552514133","tag":{"amenity":"recycling","operator":"Communaut\u00e9 de Communes du Lac d'Aiguebelette","recycling:beverage_cartons":"yes","recycling:books":"yes","recycling:cans":"yes","recycling:cartons":"yes","recycling:glass_bottles":"yes","recycling:magazines":"yes","recycling:newspaper":"yes","recycling:paper":"yes","recycling:plastic_bottles":"yes","recycling_type":"container"}},"type":"Feature"},
	{"geometry":{"coordinates":[5.77034,45.593553],"type":"Point"},"properties":{"osm_id":"4552514134","tag":{"amenity":"waste_disposal","operator":"Communaut\u00e9 de Communes du Lac d'Aiguebelette"}},"type":"Feature"},
	{"geometry":{"coordinates":[5.776436,45.595699],"type":"Point"},"properties":{"osm_id":"7058610893","tag":{"amenity":"waste_basket"}},"type":"Feature"}
]
}
