{
"type": "FeatureCollection",
"features": [
	{"geometry":{"coordinates":[5.780383,44.967828],"type":"Point"},"properties":{"osm_id":"2204801662","tag":{"amenity":"waste_basket"}},"type":"Feature"},
	{"geometry":{"coordinates":[5.78016,44.968649],"type":"Point"},"properties":{"osm_id":"3239949623","tag":{"amenity":"waste_basket"}},"type":"Feature"},
	{"geometry":{"coordinates":[5.771743,44.966076],"type":"Point"},"properties":{"osm_id":"3314620243","tag":{"amenity":"waste_disposal","operator":"CCMPCVV"}},"type":"Feature"},
	{"geometry":{"coordinates":[5.772072,45.002824],"type":"Point"},"properties":{"osm_id":"4748600801","tag":{"amenity":"waste_basket"}},"type":"Feature"},
	{"geometry":{"coordinates":[5.774579,45.022801],"type":"Point"},"properties":{"osm_id":"4920703895","tag":{"amenity":"recycling","recycling_type":"container"}},"type":"Feature"},
	{"geometry":{"coordinates":[5.778456,45.000269],"type":"Point"},"properties":{"osm_id":"4929066292","tag":{"amenity":"recycling","recycling:cans":"yes","recycling:cardboard":"yes","recycling:glass":"yes","recycling:glass_bottles":"yes","recycling:paper":"yes","recycling:plastic":"yes","recycling:plastic_bottles":"yes","recycling_type":"container"}},"type":"Feature"},
	{"geometry":{"coordinates":[5.776324,44.996428],"type":"Point"},"properties":{"osm_id":"4929066623","tag":{"amenity":"waste_basket"}},"type":"Feature"},
	{"geometry":{"coordinates":[5.783414,44.984594],"type":"Point"},"properties":{"osm_id":"4933878833","tag":{"amenity":"recycling","recycling:cans":"yes","recycling:cardboard":"yes","recycling:glass":"yes","recycling:paper":"yes","recycling:plastic":"yes","recycling_type":"container"}},"type":"Feature"},
	{"geometry":{"coordinates":[5.757944,45.013028],"type":"Point"},"properties":{"osm_id":"6551186547","tag":{"amenity":"recycling","recycling_type":"container"}},"type":"Feature"},
	{"geometry":{"coordinates":[5.757917,45.013034],"type":"Point"},"properties":{"osm_id":"6551186548","tag":{"amenity":"recycling","recycling_type":"container"}},"type":"Feature"},
	{"geometry":{"coordinates":[5.757885,45.013039],"type":"Point"},"properties":{"osm_id":"6551186549","tag":{"amenity":"recycling","recycling_type":"container"}},"type":"Feature"},
	{"geometry":{"coordinates":[5.757775,45.013093],"type":"Point"},"properties":{"osm_id":"6551186550","tag":{"amenity":"waste_disposal"}},"type":"Feature"},
	{"geometry":{"coordinates":[5.759004,45.012526],"type":"Point"},"properties":{"osm_id":"6551186557","tag":{"amenity":"waste_disposal"}},"type":"Feature"},
	{"geometry":{"coordinates":[5.766753,45.021306],"type":"Point"},"properties":{"osm_id":"6551213091","tag":{"amenity":"recycling","recycling_type":"container"}},"type":"Feature"},
	{"geometry":{"coordinates":[5.776212,44.995521],"type":"Point"},"properties":{"osm_id":"7707822235","tag":{"amenity":"recycling","recycling:cans":"yes","recycling:glass_bottles":"yes","recycling:paper":"yes","recycling:plastic":"no","recycling:plastic_packaging":"yes","recycling_type":"container"}},"type":"Feature"},
	{"geometry":{"coordinates":[5.775381,44.998176],"type":"Point"},"properties":{"osm_id":"7707822266","tag":{"amenity":"recycling","location":"underground","recycling:waste":"yes","recycling_type":"container"}},"type":"Feature"},
	{"geometry":{"coordinates":[5.750393,44.986496],"type":"Point"},"properties":{"osm_id":"7903949667","tag":{"amenity":"waste_disposal"}},"type":"Feature"},
	{"geometry":{"coordinates":[5.753975,44.986049],"type":"Point"},"properties":{"osm_id":"7903997708","tag":{"amenity":"waste_disposal"}},"type":"Feature"}
]
}
