{
"type": "FeatureCollection",
"features": [
	{"geometry":{"coordinates":[5.778026,44.956027],"type":"Point"},"properties":{"osm_id":"1623703149","tag":{"amenity":"waste_disposal","operator":"CCMPCVV"}},"type":"Feature"},
	{"geometry":{"coordinates":[5.777582,44.953801],"type":"Point"},"properties":{"osm_id":"2205002335","tag":{"amenity":"recycling","recycling:cans":"yes","recycling:glass":"yes","recycling:paper":"yes","recycling_type":"container"}},"type":"Feature"},
	{"geometry":{"coordinates":[5.753951,44.956879],"type":"Point"},"properties":{"osm_id":"2205014047","tag":{"amenity":"recycling","recycling:cans":"yes","recycling:glass":"yes","recycling:paper":"yes","recycling_type":"container"}},"type":"Feature"},
	{"geometry":{"coordinates":[5.77815,44.953916],"type":"Point"},"properties":{"osm_id":"2252865285","tag":{"amenity":"waste_basket"}},"type":"Feature"},
	{"geometry":{"coordinates":[5.719014,44.951771],"type":"Point"},"properties":{"osm_id":"2370700452","tag":{"amenity":"waste_basket"}},"type":"Feature"},
	{"geometry":{"coordinates":[5.717866,44.946289],"type":"Point"},"properties":{"osm_id":"2370700458","tag":{"amenity":"waste_basket"}},"type":"Feature"},
	{"geometry":{"coordinates":[5.717577,44.949919],"type":"Point"},"properties":{"osm_id":"2370700461","tag":{"amenity":"waste_basket"}},"type":"Feature"},
	{"geometry":{"coordinates":[5.719658,44.949657],"type":"Point"},"properties":{"osm_id":"2370700466","tag":{"amenity":"waste_basket"}},"type":"Feature"},
	{"geometry":{"coordinates":[5.717596,44.948467],"type":"Point"},"properties":{"name":"molok","osm_id":"2370714924","tag":{"amenity":"recycling"}},"type":"Feature"},
	{"geometry":{"coordinates":[5.717419,44.948934],"type":"Point"},"properties":{"osm_id":"2370714937","tag":{"amenity":"waste_basket"}},"type":"Feature"},
	{"geometry":{"coordinates":[5.747218,44.956357],"type":"Point"},"properties":{"osm_id":"2464441165","tag":{"amenity":"waste_disposal","waste":"trash"}},"type":"Feature"},
	{"geometry":{"coordinates":[5.772668,44.957212],"type":"Point"},"properties":{"osm_id":"3239889119","tag":{"amenity":"waste_basket"}},"type":"Feature"},
	{"geometry":{"coordinates":[5.775176,44.957153],"type":"Point"},"properties":{"osm_id":"3239898201","tag":{"amenity":"recycling","recycling:cans":"yes","recycling:glass":"yes","recycling:paper":"yes","recycling_type":"container"}},"type":"Feature"},
	{"geometry":{"coordinates":[5.778444,44.951308],"type":"Point"},"properties":{"osm_id":"3239935220","tag":{"amenity":"recycling","recycling:cans":"yes","recycling:clothes":"yes","recycling:glass":"yes","recycling:paper":"yes","recycling_type":"container"}},"type":"Feature"},
	{"geometry":{"coordinates":[5.754502,44.953181],"type":"Point"},"properties":{"osm_id":"3300672362","tag":{"amenity":"recycling","recycling:cans":"yes","recycling:clothes":"yes","recycling:glass":"yes","recycling:paper":"yes","recycling_type":"centre"}},"type":"Feature"},
	{"geometry":{"coordinates":[5.777518,44.953804],"type":"Point"},"properties":{"osm_id":"3300678255","tag":{"amenity":"waste_disposal","operator":"CCMPCVV","waste":"trash"}},"type":"Feature"},
	{"geometry":{"coordinates":[5.778459,44.951371],"type":"Point"},"properties":{"name":"molok","osm_id":"3300679113","tag":{"amenity":"waste_disposal","operator":"CCMPCVV","waste":"trash"}},"type":"Feature"},
	{"geometry":{"coordinates":[5.754536,44.953161],"type":"Point"},"properties":{"osm_id":"3300679114","tag":{"amenity":"waste_disposal","operator":"CCMPCVV","waste":"trash"}},"type":"Feature"},
	{"geometry":{"coordinates":[5.774791,44.963357],"type":"Point"},"properties":{"osm_id":"3314625021","tag":{"amenity":"waste_disposal","operator":"CCMPCVV","tourism":"picnic_site"}},"type":"Feature"},
	{"geometry":{"coordinates":[5.777361,44.958482],"type":"Point"},"properties":{"osm_id":"3314643818","tag":{"amenity":"waste_disposal","operator":"CCMPCVV"}},"type":"Feature"},
	{"geometry":{"coordinates":[5.776279,44.958522],"type":"Point"},"properties":{"osm_id":"3314668314","tag":{"amenity":"waste_disposal","operator":"CCMPCVV"}},"type":"Feature"},
	{"geometry":{"coordinates":[5.775194,44.957031],"type":"Point"},"properties":{"osm_id":"3314682065","tag":{"amenity":"waste_disposal","operator":"CCMPCVV"}},"type":"Feature"},
	{"geometry":{"coordinates":[5.771246,44.955694],"type":"Point"},"properties":{"osm_id":"3314699644","tag":{"amenity":"waste_disposal","operator":"CCMPCVV"}},"type":"Feature"},
	{"geometry":{"coordinates":[5.772669,44.947687],"type":"Point"},"properties":{"osm_id":"3314714045","tag":{"amenity":"waste_disposal","operator":"CCMPCVV","waste":"trash"}},"type":"Feature"},
	{"geometry":{"coordinates":[5.784026,44.942843],"type":"Point"},"properties":{"osm_id":"3314731989","tag":{"amenity":"waste_disposal","operator":"CCMPCVV","waste":"trash"}},"type":"Feature"},
	{"geometry":{"coordinates":[5.759954,44.948959],"type":"Point"},"properties":{"osm_id":"3314745561","tag":{"amenity":"waste_disposal","operator":"CCMPCVV"}},"type":"Feature"},
	{"geometry":{"coordinates":[5.754166,44.955676],"type":"Point"},"properties":{"osm_id":"3314747166","tag":{"amenity":"waste_disposal","operator":"CCMPCVV","waste":"trash"}},"type":"Feature"},
	{"geometry":{"coordinates":[5.78114,44.948711],"type":"Point"},"properties":{"osm_id":"3442922178","tag":{"amenity":"waste_disposal","operator":"CCMPCVV","waste":"trash"}},"type":"Feature"},
	{"geometry":{"coordinates":[5.757981,44.948743],"type":"Point"},"properties":{"osm_id":"3442922180","tag":{"amenity":"waste_disposal","operator":"CCMPCVV","waste":"trash"}},"type":"Feature"},
	{"geometry":{"coordinates":[5.760184,44.950072],"type":"Point"},"properties":{"osm_id":"3442922183","tag":{"amenity":"waste_disposal","operator":"CCMPCVV","waste":"trash"}},"type":"Feature"},
	{"geometry":{"coordinates":[5.756066,44.952046],"type":"Point"},"properties":{"osm_id":"3442922187","tag":{"amenity":"waste_disposal","operator":"CCMPCVV","waste":"trash"}},"type":"Feature"},
	{"geometry":{"coordinates":[5.75788,44.954755],"type":"Point"},"properties":{"osm_id":"3442928008","tag":{"amenity":"waste_disposal","operator":"CCMPCVV","waste":"trash"}},"type":"Feature"},
	{"geometry":{"coordinates":[5.760062,44.956137],"type":"Point"},"properties":{"osm_id":"3442928009","tag":{"amenity":"waste_disposal","operator":"CCMPCVV","waste":"trash"}},"type":"Feature"},
	{"geometry":{"coordinates":[5.756613,44.9566],"type":"Point"},"properties":{"osm_id":"3442928010","tag":{"amenity":"waste_disposal","operator":"CCMPCVV","waste":"trash"}},"type":"Feature"},
	{"geometry":{"coordinates":[5.754032,44.956819],"type":"Point"},"properties":{"osm_id":"3442928011","tag":{"amenity":"waste_disposal","operator":"CCMPCVV","waste":"trash"}},"type":"Feature"},
	{"geometry":{"coordinates":[5.777291,44.950796],"type":"Point"},"properties":{"name":"molok","osm_id":"3625321951","tag":{"amenity":"waste_disposal","operator":"CCMPCVV","waste":"trash"}},"type":"Feature"},
	{"geometry":{"coordinates":[5.791015,44.903061],"type":"Point"},"properties":{"osm_id":"4029459879","tag":{"amenity":"waste_basket"}},"type":"Feature"},
	{"geometry":{"coordinates":[5.790966,44.9031],"type":"Point"},"properties":{"osm_id":"4029459880","tag":{"amenity":"waste_basket"}},"type":"Feature"},
	{"geometry":{"coordinates":[5.791041,44.903118],"type":"Point"},"properties":{"osm_id":"4029459881","tag":{"amenity":"waste_basket"}},"type":"Feature"},
	{"geometry":{"coordinates":[5.793639,44.902642],"type":"Point"},"properties":{"osm_id":"4029459883","tag":{"amenity":"waste_basket"}},"type":"Feature"},
	{"geometry":{"coordinates":[5.744826,44.960275],"type":"Point"},"properties":{"name":"tri","osm_id":"4078350165","tag":{"amenity":"waste_disposal"}},"type":"Feature"},
	{"geometry":{"coordinates":[5.787848,44.906573],"type":"Point"},"properties":{"osm_id":"5327108174","tag":{"amenity":"recycling","recycling_type":"container"}},"type":"Feature"}
]
}
