{
"type": "FeatureCollection",
"features": [
	{"geometry":{"coordinates":[5.781026,43.964971],"type":"Point"},"properties":{"osm_id":"4746792583","tag":{"amenity":"waste_disposal"}},"type":"Feature"},
	{"geometry":{"coordinates":[5.779346,43.962697],"type":"Point"},"properties":{"osm_id":"4746813143","tag":{"amenity":"waste_disposal"}},"type":"Feature"},
	{"geometry":{"coordinates":[5.778633,43.96227],"type":"Point"},"properties":{"osm_id":"4746821516","tag":{"amenity":"waste_disposal"}},"type":"Feature"},
	{"geometry":{"coordinates":[5.794516,44.010935],"type":"Point"},"properties":{"osm_id":"5815723298","tag":{"amenity":"waste_disposal"}},"type":"Feature"},
	{"geometry":{"coordinates":[5.731589,43.98565],"type":"Point"},"properties":{"osm_id":"9038888562","tag":{"amenity":"recycling","recycling_type":"container"}},"type":"Feature"},
	{"geometry":{"coordinates":[5.729796,43.985606],"type":"Point"},"properties":{"osm_id":"9038888610","tag":{"amenity":"recycling","recycling_type":"container"}},"type":"Feature"},
	{"geometry":{"coordinates":[5.780551,43.961234],"type":"Point"},"properties":{"osm_id":"9199541721","tag":{"amenity":"waste_basket","survey:date":"2021-10-25"}},"type":"Feature"}
]
}
