{
"type": "FeatureCollection",
"features": [
	{"geometry":{"coordinates":[5.789451,43.823395],"type":"Point"},"properties":{"osm_id":"1193306436","tag":{"amenity":"recycling","recycling:glass":"yes","recycling:paper":"yes"}},"type":"Feature"},
	{"geometry":{"coordinates":[5.746148,43.817539],"type":"Point"},"properties":{"name":"Parrin","osm_id":"1765372754","tag":{"amenity":"recycling","recycling:cartons":"yes","recycling:glass":"yes","recycling:magazines":"yes","recycling:newspaper":"yes","recycling:paper":"yes","recycling:plastic":"yes","recycling:scrap_metal":"yes","recycling_type":"container"}},"type":"Feature"},
	{"geometry":{"coordinates":[5.796538,43.829924],"type":"Point"},"properties":{"osm_id":"1765614073","tag":{"amenity":"recycling","recycling:cans":"yes","recycling:glass":"yes","recycling:paper":"yes","recycling_type":"container"}},"type":"Feature"},
	{"geometry":{"coordinates":[5.796248,43.829511],"type":"Point"},"properties":{"osm_id":"1829503491","tag":{"amenity":"waste_basket"}},"type":"Feature"},
	{"geometry":{"coordinates":[5.796664,43.829854],"type":"Point"},"properties":{"osm_id":"1829503534","tag":{"amenity":"waste_basket"}},"type":"Feature"},
	{"geometry":{"coordinates":[5.797216,43.829368],"type":"Point"},"properties":{"osm_id":"1829504349","tag":{"amenity":"waste_basket"}},"type":"Feature"},
	{"geometry":{"coordinates":[5.796693,43.828981],"type":"Point"},"properties":{"osm_id":"1829504531","tag":{"amenity":"waste_basket"}},"type":"Feature"},
	{"geometry":{"coordinates":[5.797409,43.829562],"type":"Point"},"properties":{"osm_id":"1829504767","tag":{"amenity":"waste_basket"}},"type":"Feature"},
	{"geometry":{"coordinates":[5.797294,43.829659],"type":"Point"},"properties":{"osm_id":"1829504789","tag":{"amenity":"waste_basket"}},"type":"Feature"},
	{"geometry":{"coordinates":[5.727637,43.807311],"type":"Point"},"properties":{"name":"L'Houme","osm_id":"1914147214","tag":{"amenity":"recycling","recycling_type":"container"}},"type":"Feature"},
	{"geometry":{"coordinates":[5.78479,43.830391],"type":"Point"},"properties":{"osm_id":"2097731097","tag":{"amenity":"waste_basket"}},"type":"Feature"},
	{"geometry":{"coordinates":[5.784992,43.830361],"type":"Point"},"properties":{"osm_id":"2097732290","tag":{"amenity":"waste_basket"}},"type":"Feature"},
	{"geometry":{"coordinates":[5.785073,43.830246],"type":"Point"},"properties":{"osm_id":"2097735068","tag":{"amenity":"waste_basket"}},"type":"Feature"},
	{"geometry":{"coordinates":[5.784954,43.830068],"type":"Point"},"properties":{"osm_id":"2097735071","tag":{"amenity":"waste_basket"}},"type":"Feature"},
	{"geometry":{"coordinates":[5.785554,43.829436],"type":"Point"},"properties":{"osm_id":"2097738809","tag":{"amenity":"waste_basket"}},"type":"Feature"},
	{"geometry":{"coordinates":[5.785683,43.829215],"type":"Point"},"properties":{"osm_id":"2097739074","tag":{"amenity":"waste_basket"}},"type":"Feature"},
	{"geometry":{"coordinates":[5.767581,43.823902],"type":"Point"},"properties":{"osm_id":"2295537927","tag":{"amenity":"waste_basket"}},"type":"Feature"},
	{"geometry":{"coordinates":[5.767308,43.823695],"type":"Point"},"properties":{"osm_id":"2295537928","tag":{"amenity":"waste_basket"}},"type":"Feature"},
	{"geometry":{"coordinates":[5.767967,43.833196],"type":"Point"},"properties":{"osm_id":"2296768032","tag":{"amenity":"waste_disposal"}},"type":"Feature"},
	{"geometry":{"coordinates":[5.780992,43.830601],"type":"Point"},"properties":{"osm_id":"2300774447","tag":{"amenity":"waste_basket"}},"type":"Feature"},
	{"geometry":{"coordinates":[5.785248,43.832058],"type":"Point"},"properties":{"osm_id":"2302812595","tag":{"amenity":"waste_basket"}},"type":"Feature"},
	{"geometry":{"coordinates":[5.790297,43.831338],"type":"Point"},"properties":{"osm_id":"2912777731","tag":{"amenity":"waste_basket"}},"type":"Feature"},
	{"geometry":{"coordinates":[5.789033,43.831754],"type":"Point"},"properties":{"osm_id":"2912791002","tag":{"amenity":"waste_basket"}},"type":"Feature"},
	{"geometry":{"coordinates":[5.789085,43.831792],"type":"Point"},"properties":{"osm_id":"2912791003","tag":{"amenity":"recycling","location":"underground","recycling_type":"container"}},"type":"Feature"},
	{"geometry":{"coordinates":[5.788062,43.832517],"type":"Point"},"properties":{"osm_id":"2912796324","tag":{"amenity":"waste_basket"}},"type":"Feature"},
	{"geometry":{"coordinates":[5.786842,43.833261],"type":"Point"},"properties":{"osm_id":"2912797501","tag":{"amenity":"waste_disposal"}},"type":"Feature"},
	{"geometry":{"coordinates":[5.779515,43.825662],"type":"Point"},"properties":{"osm_id":"2917530742","tag":{"amenity":"recycling"}},"type":"Feature"},
	{"geometry":{"coordinates":[5.776268,43.834482],"type":"Point"},"properties":{"osm_id":"3040027447","tag":{"amenity":"recycling"}},"type":"Feature"},
	{"geometry":{"coordinates":[5.778059,43.832207],"type":"Point"},"properties":{"osm_id":"3040027451","tag":{"amenity":"recycling"}},"type":"Feature"},
	{"geometry":{"coordinates":[5.787715,43.829904],"type":"Point"},"properties":{"osm_id":"3101789748","tag":{"amenity":"waste_basket"}},"type":"Feature"},
	{"geometry":{"coordinates":[5.788096,43.830002],"type":"Point"},"properties":{"osm_id":"3101789750","tag":{"amenity":"recycling","recycling:cans":"yes","recycling:glass":"yes","recycling:paper":"yes"}},"type":"Feature"},
	{"geometry":{"coordinates":[5.792175,43.827404],"type":"Point"},"properties":{"osm_id":"3101791866","tag":{"amenity":"recycling","recycling:cans":"yes","recycling:glass":"yes","recycling:paper":"yes"}},"type":"Feature"},
	{"geometry":{"coordinates":[5.782091,43.82825],"type":"Point"},"properties":{"osm_id":"3300984949","tag":{"amenity":"recycling","recycling:cans":"yes","recycling:glass":"yes","recycling:paper":"yes"}},"type":"Feature"},
	{"geometry":{"coordinates":[5.781227,43.827502],"type":"Point"},"properties":{"osm_id":"3301007732","tag":{"amenity":"recycling","location":"overground","recycling:cans":"yes","recycling:glass":"yes","recycling:paper":"yes","recycling_type":"container"}},"type":"Feature"},
	{"geometry":{"coordinates":[5.779188,43.829311],"type":"Point"},"properties":{"osm_id":"3307688721","tag":{"amenity":"recycling","recycling:cans":"yes","recycling:glass":"yes","recycling:paper":"yes"}},"type":"Feature"},
	{"geometry":{"coordinates":[5.776361,43.824479],"type":"Point"},"properties":{"osm_id":"3350426490","tag":{"amenity":"recycling","recycling:cans":"yes","recycling:glass":"yes","recycling:paper":"yes"}},"type":"Feature"},
	{"geometry":{"coordinates":[5.783434,43.830251],"type":"Point"},"properties":{"osm_id":"3370918192","tag":{"amenity":"recycling","recycling:cans":"yes","recycling:glass":"yes","recycling:paper":"yes"}},"type":"Feature"},
	{"geometry":{"coordinates":[5.786902,43.832533],"type":"Point"},"properties":{"osm_id":"3370921928","tag":{"amenity":"recycling","recycling:cans":"yes","recycling:glass":"yes","recycling:paper":"yes"}},"type":"Feature"},
	{"geometry":{"coordinates":[5.780641,43.833189],"type":"Point"},"properties":{"osm_id":"3415017278","tag":{"amenity":"recycling","recycling:cans":"yes","recycling:glass":"yes","recycling:paper":"yes"}},"type":"Feature"},
	{"geometry":{"coordinates":[5.788742,43.831362],"type":"Point"},"properties":{"osm_id":"3508598756","tag":{"amenity":"waste_basket"}},"type":"Feature"},
	{"geometry":{"coordinates":[5.793075,43.83283],"type":"Point"},"properties":{"osm_id":"3509814560","tag":{"amenity":"recycling","recycling:cans":"yes","recycling:glass":"yes","recycling:paper":"yes"}},"type":"Feature"},
	{"geometry":{"coordinates":[5.799928,43.819415],"type":"Point"},"properties":{"osm_id":"3624599807","tag":{"amenity":"waste_basket"}},"type":"Feature"},
	{"geometry":{"coordinates":[5.79989,43.819641],"type":"Point"},"properties":{"osm_id":"3624599808","tag":{"amenity":"waste_basket"}},"type":"Feature"},
	{"geometry":{"coordinates":[5.767979,43.786183],"type":"Point"},"properties":{"osm_id":"3637362093","tag":{"amenity":"recycling","location":"overground","recycling:cans":"yes","recycling:glass":"yes","recycling:paper":"yes","recycling_type":"container"}},"type":"Feature"},
	{"geometry":{"coordinates":[5.774266,43.827301],"type":"Point"},"properties":{"osm_id":"3673812146","tag":{"amenity":"recycling","recycling:cans":"yes","recycling:glass":"yes","recycling:paper":"yes"}},"type":"Feature"},
	{"geometry":{"coordinates":[5.775369,43.794162],"type":"Point"},"properties":{"osm_id":"3682374163","tag":{"amenity":"recycling"}},"type":"Feature"},
	{"geometry":{"coordinates":[5.767167,43.786451],"type":"Point"},"properties":{"osm_id":"4057309189","tag":{"amenity":"waste_disposal"}},"type":"Feature"},
	{"geometry":{"coordinates":[5.727654,43.807527],"type":"Point"},"properties":{"osm_id":"4307384179","tag":{"amenity":"waste_disposal"}},"type":"Feature"},
	{"geometry":{"coordinates":[5.727633,43.807344],"type":"Point"},"properties":{"osm_id":"4307384702","tag":{"amenity":"waste_disposal"}},"type":"Feature"},
	{"geometry":{"coordinates":[5.788628,43.820804],"type":"Point"},"properties":{"osm_id":"4437437518","tag":{"amenity":"waste_disposal"}},"type":"Feature"},
	{"geometry":{"coordinates":[5.765473,43.786747],"type":"Point"},"properties":{"osm_id":"4761993339","tag":{"amenity":"recycling","recycling_type":"container"}},"type":"Feature"},
	{"geometry":{"coordinates":[5.782475,43.833743],"type":"Point"},"properties":{"osm_id":"4841688810","tag":{"amenity":"waste_basket"}},"type":"Feature"},
	{"geometry":{"coordinates":[5.782748,43.83299],"type":"Point"},"properties":{"osm_id":"4967062638","tag":{"amenity":"waste_basket"}},"type":"Feature"},
	{"geometry":{"coordinates":[5.783353,43.831488],"type":"Point"},"properties":{"osm_id":"4992177951","tag":{"amenity":"waste_disposal"}},"type":"Feature"},
	{"geometry":{"coordinates":[5.767648,43.833457],"type":"Point"},"properties":{"osm_id":"5011169532","tag":{"amenity":"recycling","description":"verre, papiers, emballage","recycling_type":"container"}},"type":"Feature"},
	{"geometry":{"coordinates":[5.752998,43.825683],"type":"Point"},"properties":{"osm_id":"5143387202","tag":{"amenity":"waste_disposal"}},"type":"Feature"},
	{"geometry":{"coordinates":[5.747509,43.807197],"type":"Point"},"properties":{"osm_id":"5186210370","tag":{"amenity":"waste_disposal"}},"type":"Feature"},
	{"geometry":{"coordinates":[5.74904,43.812454],"type":"Point"},"properties":{"osm_id":"5186324164","tag":{"amenity":"recycling","recycling_type":"container"}},"type":"Feature"},
	{"geometry":{"coordinates":[5.748978,43.812474],"type":"Point"},"properties":{"osm_id":"5186324166","tag":{"amenity":"waste_disposal"}},"type":"Feature"},
	{"geometry":{"coordinates":[5.789874,43.819929],"type":"Point"},"properties":{"osm_id":"5188773153","tag":{"amenity":"waste_disposal"}},"type":"Feature"},
	{"geometry":{"coordinates":[5.785697,43.827956],"type":"Point"},"properties":{"osm_id":"5672632099","tag":{"amenity":"recycling","recycling_type":"container"}},"type":"Feature"},
	{"geometry":{"coordinates":[5.784538,43.833668],"type":"Point"},"properties":{"osm_id":"5673289784","tag":{"amenity":"waste_disposal"}},"type":"Feature"},
	{"geometry":{"coordinates":[5.789285,43.820861],"type":"Point"},"properties":{"osm_id":"5685174042","tag":{"amenity":"recycling","recycling_type":"container"}},"type":"Feature"},
	{"geometry":{"coordinates":[5.792583,43.824846],"type":"Point"},"properties":{"osm_id":"5705554746","tag":{"amenity":"recycling","recycling_type":"container"}},"type":"Feature"},
	{"geometry":{"coordinates":[5.782309,43.832858],"type":"Point"},"properties":{"osm_id":"5795724332","tag":{"amenity":"recycling","recycling:cans":"yes","recycling:glass_bottles":"yes","recycling:paper":"yes","recycling:plastic":"no","recycling:plastic_packaging":"yes","recycling_type":"container"}},"type":"Feature"},
	{"geometry":{"coordinates":[5.782343,43.832864],"type":"Point"},"properties":{"osm_id":"5795724333","tag":{"amenity":"recycling","recycling:cans":"yes","recycling:glass_bottles":"yes","recycling:paper":"yes","recycling:plastic":"no","recycling:plastic_packaging":"yes","recycling_type":"container"}},"type":"Feature"},
	{"geometry":{"coordinates":[5.761865,43.78792],"type":"Point"},"properties":{"osm_id":"5838487782","tag":{"amenity":"recycling","recycling_type":"container"}},"type":"Feature"},
	{"geometry":{"coordinates":[5.782731,43.83365],"type":"Point"},"properties":{"osm_id":"6743735164","tag":{"amenity":"waste_basket","material":"metal"}},"type":"Feature"},
	{"geometry":{"coordinates":[5.799058,43.825674],"type":"Point"},"properties":{"osm_id":"6765093358","tag":{"amenity":"waste_disposal"}},"type":"Feature"},
	{"geometry":{"coordinates":[5.797026,43.816562],"type":"Point"},"properties":{"osm_id":"7418538051","tag":{"amenity":"recycling","recycling_type":"container"}},"type":"Feature"},
	{"geometry":{"coordinates":[5.797119,43.816613],"type":"Point"},"properties":{"osm_id":"7418538052","tag":{"amenity":"recycling","operator":"Ressourcerie de Haute-Provence","recycling:clothes":"yes","recycling:shoes":"yes","recycling_type":"container"}},"type":"Feature"},
	{"geometry":{"coordinates":[5.798036,43.830928],"type":"Point"},"properties":{"osm_id":"7471692358","tag":{"amenity":"waste_disposal"}},"type":"Feature"},
	{"geometry":{"coordinates":[5.772533,43.789958],"type":"Point"},"properties":{"osm_id":"7486562826","tag":{"amenity":"waste_basket","colour":"brown","material":"wood","waste":"trash"}},"type":"Feature"}
]
}
