{
"type": "FeatureCollection",
"features": [
	{"geometry":{"coordinates":[15.60681,60.577404],"type":"Point"},"properties":{"osm_id":"1016795296","tag":{"amenity":"recycling","recycling:batteries":"yes","recycling:cans":"yes","recycling:glass_bottles":"yes","recycling:paper":"yes","recycling:plastic":"no","recycling:plastic_packaging":"yes","recycling_type":"container"}},"type":"Feature"},
	{"geometry":{"coordinates":[15.636962,60.585419],"type":"Point"},"properties":{"osm_id":"8485784804","tag":{"amenity":"waste_basket"}},"type":"Feature"},
	{"geometry":{"coordinates":[15.632197,60.58687],"type":"Point"},"properties":{"osm_id":"8485792199","tag":{"amenity":"waste_basket"}},"type":"Feature"},
	{"geometry":{"coordinates":[15.636649,60.585784],"type":"Point"},"properties":{"osm_id":"8492106488","tag":{"amenity":"recycling","recycling:batteries":"yes","recycling_type":"container"}},"type":"Feature"},
	{"geometry":{"coordinates":[15.623849,60.578959],"type":"Point"},"properties":{"osm_id":"8616676876","tag":{"amenity":"waste_basket"}},"type":"Feature"},
	{"geometry":{"coordinates":[15.607301,60.576758],"type":"Point"},"properties":{"osm_id":"8631184199","tag":{"amenity":"waste_basket"}},"type":"Feature"},
	{"geometry":{"coordinates":[15.637054,60.585316],"type":"Point"},"properties":{"osm_id":"8744929047","tag":{"amenity":"waste_disposal","location":"underground","waste":"trash;organic"}},"type":"Feature"},
	{"geometry":{"coordinates":[15.620681,60.584163],"type":"Point"},"properties":{"osm_id":"8873411252","tag":{"amenity":"waste_basket"}},"type":"Feature"},
	{"geometry":{"coordinates":[15.621552,60.585046],"type":"Point"},"properties":{"osm_id":"8873447187","tag":{"amenity":"waste_basket"}},"type":"Feature"}
]
}
