{
"type": "FeatureCollection",
"features": [
	{"geometry":{"coordinates":[15.636033,54.153696],"type":"Point"},"properties":{"osm_id":"2653423004","tag":{"amenity":"waste_basket"}},"type":"Feature"},
	{"geometry":{"coordinates":[15.636442,54.153222],"type":"Point"},"properties":{"osm_id":"2657195262","tag":{"amenity":"recycling","recycling:cans":"yes","recycling:glass":"yes","recycling:paper":"yes","recycling:scrap_metal":"yes","recycling_type":"container"}},"type":"Feature"},
	{"geometry":{"coordinates":[15.565489,54.156183],"type":"Point"},"properties":{"name":"Miejski Zak\u00c5\u0082ad Zieleni, Dr\u00c3\u00b3g i Ochrony \u00c5\u009arodowiska w Ko\u00c5\u0082obrzegu Sp. z o.o.","osm_id":"3252456363","tag":{"addr:city":"Ko\u00c5\u0082obrzeg","addr:country":"PL","addr:housenumber":"60","addr:postcode":"78-100","addr:state":"Zachodniopomorskie","addr:street":"6 Dywizji Piechoty","amenity":"recycling","email":"sekretariat@zielen.kolobrzeg.pl","fax":"+48 94 35 33 251","phone":"+48 94 35 33 230","recycling_type":"centre","website":"http://www.zielen.kolobrzeg.pl/"}},"type":"Feature"},
	{"geometry":{"coordinates":[15.616117,54.149791],"type":"Point"},"properties":{"osm_id":"5223119141","tag":{"amenity":"recycling","recycling:plastic":"yes","recycling_type":"container"}},"type":"Feature"},
	{"geometry":{"coordinates":[15.616158,54.149776],"type":"Point"},"properties":{"osm_id":"5223119142","tag":{"amenity":"recycling","recycling:glass":"yes","recycling_type":"container"}},"type":"Feature"},
	{"geometry":{"coordinates":[15.56276,54.1516],"type":"Point"},"properties":{"osm_id":"5792436008","tag":{"amenity":"recycling","recycling:cardboard":"yes","recycling:paper":"yes","recycling:plastic":"yes","recycling:plastic_bottles":"yes","recycling:plastic_packaging":"yes","recycling_type":"container"}},"type":"Feature"},
	{"geometry":{"coordinates":[15.566512,54.159897],"type":"Point"},"properties":{"osm_id":"6861383806","tag":{"amenity":"recycling","recycling:cardboard":"yes","recycling:glass":"yes","recycling:glass_bottles":"yes","recycling:paper":"yes","recycling_type":"container"}},"type":"Feature"},
	{"geometry":{"coordinates":[15.559503,54.147774],"type":"Point"},"properties":{"osm_id":"8246925862","tag":{"amenity":"waste_basket","waste":"trash"}},"type":"Feature"}
]
}
