{
"type": "FeatureCollection",
"features": [
	{"geometry":{"coordinates":[15.627866,50.438312],"type":"Point"},"properties":{"osm_id":"3741814357","tag":{"amenity":"recycling","recycling_type":"container"}},"type":"Feature"},
	{"geometry":{"coordinates":[15.574546,50.428953],"type":"Point"},"properties":{"osm_id":"5673043278","tag":{"amenity":"waste_disposal"}},"type":"Feature"},
	{"geometry":{"coordinates":[15.579563,50.428654],"type":"Point"},"properties":{"osm_id":"5673043279","tag":{"amenity":"waste_basket"}},"type":"Feature"},
	{"geometry":{"coordinates":[15.582549,50.428811],"type":"Point"},"properties":{"osm_id":"5673043280","tag":{"amenity":"waste_basket"}},"type":"Feature"},
	{"geometry":{"coordinates":[15.582086,50.428474],"type":"Point"},"properties":{"osm_id":"5673043281","tag":{"amenity":"waste_basket"}},"type":"Feature"},
	{"geometry":{"coordinates":[15.582876,50.430089],"type":"Point"},"properties":{"osm_id":"5673052363","tag":{"amenity":"waste_basket"}},"type":"Feature"},
	{"geometry":{"coordinates":[15.583221,50.430147],"type":"Point"},"properties":{"osm_id":"5673052369","tag":{"amenity":"waste_basket"}},"type":"Feature"},
	{"geometry":{"coordinates":[15.586283,50.422842],"type":"Point"},"properties":{"osm_id":"8566870915","tag":{"amenity":"recycling","recycling:glass":"yes","recycling:paper":"yes","recycling:plastic":"yes","recycling_type":"container"}},"type":"Feature"},
	{"geometry":{"coordinates":[15.582998,50.42928],"type":"Point"},"properties":{"osm_id":"8929219898","tag":{"amenity":"waste_basket","waste":"mixed"}},"type":"Feature"},
	{"geometry":{"coordinates":[15.583613,50.429922],"type":"Point"},"properties":{"osm_id":"8929219899","tag":{"amenity":"waste_disposal","waste":"mixed"}},"type":"Feature"},
	{"geometry":{"coordinates":[15.583612,50.429937],"type":"Point"},"properties":{"osm_id":"8929219900","tag":{"amenity":"waste_disposal","waste":"mixed"}},"type":"Feature"},
	{"geometry":{"coordinates":[15.583617,50.429954],"type":"Point"},"properties":{"osm_id":"8929219901","tag":{"amenity":"waste_disposal","waste":"plastic"}},"type":"Feature"},
	{"geometry":{"coordinates":[15.583603,50.429958],"type":"Point"},"properties":{"osm_id":"8929219902","tag":{"amenity":"waste_disposal","description":"Paper","waste":"recycling"}},"type":"Feature"},
	{"geometry":{"coordinates":[15.579696,50.429072],"type":"Point"},"properties":{"osm_id":"8929244386","tag":{"amenity":"waste_disposal","waste":"recycling"}},"type":"Feature"},
	{"geometry":{"coordinates":[15.579682,50.429052],"type":"Point"},"properties":{"osm_id":"8929244387","tag":{"amenity":"waste_disposal","waste":"glass"}},"type":"Feature"},
	{"geometry":{"coordinates":[15.579695,50.429108],"type":"Point"},"properties":{"osm_id":"8929244388","tag":{"amenity":"waste_disposal","waste":"recycling"}},"type":"Feature"}
]
}
