{
"type": "FeatureCollection",
"features": [
	{"geometry":{"coordinates":[15.59062,49.405449],"type":"Point"},"properties":{"name":"Slu\u00c5\u00beby m\u00c4\u009bsta Jihlavy","osm_id":"448166875","tag":{"amenity":"recycling","opening_hours":"Mo-Fr 06:00-19:00; Sa 07:30-12:00","recycling:batteries":"yes","recycling:cans":"yes","recycling:plastic":"yes","recycling:scrap_metal":"yes","recycling:white_goods":"yes"}},"type":"Feature"},
	{"geometry":{"coordinates":[15.583868,49.403385],"type":"Point"},"properties":{"osm_id":"456245697","tag":{"amenity":"recycling","recycling:glass":"yes","recycling:paper":"yes","recycling:plastic":"yes","type":"container"}},"type":"Feature"},
	{"geometry":{"coordinates":[15.631786,49.400387],"type":"Point"},"properties":{"osm_id":"685188714","tag":{"amenity":"recycling","recycling:paper":"yes","recycling:plastic":"yes","recycling:plastic_bottles":"yes","recycling_type":"container"}},"type":"Feature"},
	{"geometry":{"coordinates":[15.634146,49.396358],"type":"Point"},"properties":{"osm_id":"685188745","tag":{"amenity":"recycling","recycling:glass":"yes","recycling:paper":"yes","recycling:plastic":"yes","recycling:plastic_bottles":"yes","recycling_type":"container"}},"type":"Feature"},
	{"geometry":{"coordinates":[15.637727,49.396279],"type":"Point"},"properties":{"osm_id":"685188813","tag":{"amenity":"recycling","recycling:paper":"yes","recycling:plastic":"yes","recycling:plastic_bottles":"yes","recycling_type":"container"}},"type":"Feature"},
	{"geometry":{"coordinates":[15.637679,49.397943],"type":"Point"},"properties":{"osm_id":"685188833","tag":{"amenity":"recycling","recycling:paper":"yes","recycling:plastic":"yes","recycling:plastic_bottles":"yes","recycling_type":"container"}},"type":"Feature"},
	{"geometry":{"coordinates":[15.600196,49.383336],"type":"Point"},"properties":{"osm_id":"1679747935","tag":{"amenity":"recycling","location":"overground","recycling:plastic":"yes","recycling_type":"container"}},"type":"Feature"},
	{"geometry":{"coordinates":[15.577558,49.395232],"type":"Point"},"properties":{"osm_id":"2504371750","tag":{"amenity":"waste_basket"}},"type":"Feature"},
	{"geometry":{"coordinates":[15.58704,49.397929],"type":"Point"},"properties":{"osm_id":"3197918320","tag":{"amenity":"waste_basket"}},"type":"Feature"},
	{"geometry":{"coordinates":[15.587042,49.398029],"type":"Point"},"properties":{"osm_id":"3197918321","tag":{"amenity":"waste_basket"}},"type":"Feature"},
	{"geometry":{"coordinates":[15.597989,49.401112],"type":"Point"},"properties":{"osm_id":"3197918322","tag":{"amenity":"waste_basket"}},"type":"Feature"},
	{"geometry":{"coordinates":[15.596841,49.401785],"type":"Point"},"properties":{"osm_id":"3197918325","tag":{"amenity":"waste_basket"}},"type":"Feature"},
	{"geometry":{"coordinates":[15.59511,49.402924],"type":"Point"},"properties":{"osm_id":"3197918330","tag":{"amenity":"waste_basket"}},"type":"Feature"},
	{"geometry":{"coordinates":[15.640076,49.394432],"type":"Point"},"properties":{"osm_id":"3643004361","tag":{"amenity":"recycling","recycling:green_waste":"yes","recycling_type":"centre"}},"type":"Feature"},
	{"geometry":{"coordinates":[15.638941,49.397498],"type":"Point"},"properties":{"osm_id":"3643004924","tag":{"amenity":"recycling","recycling:plastic":"yes","recycling:plastic_bottles":"yes","recycling_type":"container"}},"type":"Feature"},
	{"geometry":{"coordinates":[15.590343,49.401241],"type":"Point"},"properties":{"osm_id":"4959432317","tag":{"amenity":"recycling","recycling_type":"container"}},"type":"Feature"},
	{"geometry":{"coordinates":[15.590944,49.399532],"type":"Point"},"properties":{"osm_id":"4959500295","tag":{"amenity":"recycling","recycling_type":"container"}},"type":"Feature"},
	{"geometry":{"coordinates":[15.591976,49.396471],"type":"Point"},"properties":{"osm_id":"4959559327","tag":{"amenity":"recycling","recycling_type":"container"}},"type":"Feature"},
	{"geometry":{"coordinates":[15.594158,49.39486],"type":"Point"},"properties":{"osm_id":"4959567333","tag":{"amenity":"recycling","recycling_type":"container"}},"type":"Feature"},
	{"geometry":{"coordinates":[15.584876,49.394681],"type":"Point"},"properties":{"osm_id":"4960162021","tag":{"amenity":"recycling","recycling_type":"container"}},"type":"Feature"},
	{"geometry":{"coordinates":[15.60909,49.407519],"type":"Point"},"properties":{"osm_id":"5006578769","tag":{"amenity":"recycling","recycling_type":"container"}},"type":"Feature"},
	{"geometry":{"coordinates":[15.611662,49.407338],"type":"Point"},"properties":{"osm_id":"5006606804","tag":{"amenity":"recycling","recycling_type":"container"}},"type":"Feature"},
	{"geometry":{"coordinates":[15.602436,49.408192],"type":"Point"},"properties":{"osm_id":"5006625167","tag":{"amenity":"recycling","recycling_type":"container"}},"type":"Feature"},
	{"geometry":{"coordinates":[15.600031,49.406382],"type":"Point"},"properties":{"osm_id":"5006877150","tag":{"amenity":"recycling","recycling_type":"container"}},"type":"Feature"},
	{"geometry":{"coordinates":[15.596613,49.404688],"type":"Point"},"properties":{"osm_id":"5006895613","tag":{"amenity":"waste_disposal"}},"type":"Feature"},
	{"geometry":{"coordinates":[15.596552,49.40469],"type":"Point"},"properties":{"osm_id":"5006902711","tag":{"amenity":"recycling","recycling_type":"container"}},"type":"Feature"},
	{"geometry":{"coordinates":[15.595485,49.404264],"type":"Point"},"properties":{"osm_id":"5006910482","tag":{"amenity":"recycling","recycling_type":"container"}},"type":"Feature"},
	{"geometry":{"coordinates":[15.59651,49.403543],"type":"Point"},"properties":{"osm_id":"5006932143","tag":{"amenity":"recycling","recycling_type":"container"}},"type":"Feature"},
	{"geometry":{"coordinates":[15.587936,49.409477],"type":"Point"},"properties":{"osm_id":"5007217077","tag":{"amenity":"recycling","recycling_type":"container"}},"type":"Feature"},
	{"geometry":{"coordinates":[15.590845,49.414038],"type":"Point"},"properties":{"osm_id":"5007250832","tag":{"amenity":"recycling","recycling_type":"container"}},"type":"Feature"},
	{"geometry":{"coordinates":[15.587427,49.410717],"type":"Point"},"properties":{"osm_id":"5007254421","tag":{"amenity":"recycling","recycling_type":"container"}},"type":"Feature"},
	{"geometry":{"coordinates":[15.584161,49.409736],"type":"Point"},"properties":{"osm_id":"5007258575","tag":{"amenity":"recycling","recycling_type":"container"}},"type":"Feature"},
	{"geometry":{"coordinates":[15.612591,49.399276],"type":"Point"},"properties":{"osm_id":"5009992014","tag":{"amenity":"recycling","recycling_type":"container"}},"type":"Feature"},
	{"geometry":{"coordinates":[15.608872,49.400358],"type":"Point"},"properties":{"osm_id":"5010001649","tag":{"amenity":"recycling","recycling_type":"container"}},"type":"Feature"},
	{"geometry":{"coordinates":[15.604043,49.402802],"type":"Point"},"properties":{"osm_id":"5010041690","tag":{"amenity":"recycling","recycling_type":"container"}},"type":"Feature"},
	{"geometry":{"coordinates":[15.61478,49.400435],"type":"Point"},"properties":{"osm_id":"5010044066","tag":{"amenity":"recycling","recycling_type":"container"}},"type":"Feature"},
	{"geometry":{"coordinates":[15.615771,49.40057],"type":"Point"},"properties":{"osm_id":"5010046632","tag":{"amenity":"recycling","recycling_type":"container"}},"type":"Feature"},
	{"geometry":{"coordinates":[15.60342,49.39783],"type":"Point"},"properties":{"osm_id":"5010060867","tag":{"amenity":"recycling","recycling_type":"container"}},"type":"Feature"},
	{"geometry":{"coordinates":[15.601806,49.39861],"type":"Point"},"properties":{"osm_id":"5010070327","tag":{"amenity":"waste_disposal"}},"type":"Feature"},
	{"geometry":{"coordinates":[15.60544,49.401728],"type":"Point"},"properties":{"osm_id":"5010101543","tag":{"amenity":"recycling","recycling_type":"container"}},"type":"Feature"},
	{"geometry":{"coordinates":[15.605091,49.400937],"type":"Point"},"properties":{"osm_id":"5010107186","tag":{"amenity":"recycling","recycling_type":"container"}},"type":"Feature"},
	{"geometry":{"coordinates":[15.603018,49.401035],"type":"Point"},"properties":{"osm_id":"5010110674","tag":{"amenity":"recycling","recycling_type":"container"}},"type":"Feature"},
	{"geometry":{"coordinates":[15.602337,49.400724],"type":"Point"},"properties":{"osm_id":"5010111022","tag":{"amenity":"recycling","recycling_type":"container"}},"type":"Feature"},
	{"geometry":{"coordinates":[15.602223,49.39977],"type":"Point"},"properties":{"osm_id":"5010113637","tag":{"amenity":"recycling","recycling_type":"container"}},"type":"Feature"},
	{"geometry":{"coordinates":[15.577346,49.393651],"type":"Point"},"properties":{"osm_id":"5010989074","tag":{"amenity":"recycling","recycling_type":"container"}},"type":"Feature"},
	{"geometry":{"coordinates":[15.578628,49.397637],"type":"Point"},"properties":{"osm_id":"5011004867","tag":{"amenity":"recycling","recycling_type":"container"}},"type":"Feature"},
	{"geometry":{"coordinates":[15.57011,49.400797],"type":"Point"},"properties":{"osm_id":"5013462945","tag":{"amenity":"recycling","recycling_type":"container"}},"type":"Feature"},
	{"geometry":{"coordinates":[15.57041,49.399633],"type":"Point"},"properties":{"osm_id":"5013463773","tag":{"amenity":"recycling","recycling_type":"container"}},"type":"Feature"},
	{"geometry":{"coordinates":[15.570977,49.402553],"type":"Point"},"properties":{"osm_id":"5013947472","tag":{"amenity":"recycling","recycling_type":"container"}},"type":"Feature"},
	{"geometry":{"coordinates":[15.573278,49.399518],"type":"Point"},"properties":{"osm_id":"5013961279","tag":{"amenity":"recycling","recycling_type":"container"}},"type":"Feature"},
	{"geometry":{"coordinates":[15.575262,49.397812],"type":"Point"},"properties":{"osm_id":"5014004672","tag":{"amenity":"recycling","recycling_type":"container"}},"type":"Feature"},
	{"geometry":{"coordinates":[15.573074,49.400586],"type":"Point"},"properties":{"osm_id":"5014115786","tag":{"amenity":"recycling","recycling_type":"container"}},"type":"Feature"},
	{"geometry":{"coordinates":[15.568151,49.405438],"type":"Point"},"properties":{"osm_id":"5015488100","tag":{"amenity":"recycling","recycling_type":"container"}},"type":"Feature"},
	{"geometry":{"coordinates":[15.568859,49.407619],"type":"Point"},"properties":{"osm_id":"5015499309","tag":{"amenity":"recycling","recycling_type":"container"}},"type":"Feature"},
	{"geometry":{"coordinates":[15.568419,49.406585],"type":"Point"},"properties":{"osm_id":"5015512195","tag":{"amenity":"recycling","recycling_type":"container"}},"type":"Feature"},
	{"geometry":{"coordinates":[15.567492,49.40615],"type":"Point"},"properties":{"osm_id":"5015513873","tag":{"amenity":"recycling","recycling_type":"container"}},"type":"Feature"},
	{"geometry":{"coordinates":[15.565017,49.404229],"type":"Point"},"properties":{"osm_id":"5015520875","tag":{"amenity":"recycling","recycling_type":"container"}},"type":"Feature"},
	{"geometry":{"coordinates":[15.576784,49.412772],"type":"Point"},"properties":{"osm_id":"5018222161","tag":{"amenity":"recycling","recycling_type":"container"}},"type":"Feature"},
	{"geometry":{"coordinates":[15.577715,49.410155],"type":"Point"},"properties":{"osm_id":"5018238489","tag":{"amenity":"recycling","recycling_type":"container"}},"type":"Feature"},
	{"geometry":{"coordinates":[15.582813,49.402993],"type":"Point"},"properties":{"osm_id":"5018472018","tag":{"amenity":"recycling","recycling_type":"container"}},"type":"Feature"},
	{"geometry":{"coordinates":[15.58509,49.4012],"type":"Point"},"properties":{"osm_id":"5018480760","tag":{"amenity":"recycling","recycling_type":"container"}},"type":"Feature"},
	{"geometry":{"coordinates":[15.57886,49.400316],"type":"Point"},"properties":{"osm_id":"5018581357","tag":{"amenity":"recycling","recycling_type":"container"}},"type":"Feature"},
	{"geometry":{"coordinates":[15.58632,49.402543],"type":"Point"},"properties":{"osm_id":"5018683301","tag":{"amenity":"recycling","recycling_type":"container"}},"type":"Feature"},
	{"geometry":{"coordinates":[15.587113,49.406068],"type":"Point"},"properties":{"osm_id":"5023767927","tag":{"amenity":"recycling","recycling_type":"container"}},"type":"Feature"},
	{"geometry":{"coordinates":[15.586313,49.391754],"type":"Point"},"properties":{"osm_id":"5023921037","tag":{"amenity":"recycling","recycling_type":"container"}},"type":"Feature"},
	{"geometry":{"coordinates":[15.575809,49.390538],"type":"Point"},"properties":{"osm_id":"5024620415","tag":{"amenity":"recycling","recycling_type":"container"}},"type":"Feature"},
	{"geometry":{"coordinates":[15.577696,49.390538],"type":"Point"},"properties":{"osm_id":"5024646977","tag":{"amenity":"recycling","recycling_type":"container"}},"type":"Feature"},
	{"geometry":{"coordinates":[15.576306,49.392867],"type":"Point"},"properties":{"osm_id":"5024733063","tag":{"amenity":"recycling","recycling_type":"container"}},"type":"Feature"},
	{"geometry":{"coordinates":[15.575812,49.39308],"type":"Point"},"properties":{"osm_id":"5024733135","tag":{"amenity":"waste_disposal"}},"type":"Feature"},
	{"geometry":{"coordinates":[15.566442,49.382531],"type":"Point"},"properties":{"osm_id":"5024841517","tag":{"amenity":"recycling","recycling_type":"container"}},"type":"Feature"},
	{"geometry":{"coordinates":[15.632625,49.433533],"type":"Point"},"properties":{"osm_id":"5823255353","tag":{"amenity":"recycling","recycling:paper":"yes","recycling:plastic":"yes","recycling:plastic_packaging":"yes","recycling_type":"container"}},"type":"Feature"},
	{"geometry":{"coordinates":[15.560466,49.403762],"type":"Point"},"properties":{"osm_id":"6964067007","tag":{"amenity":"recycling","recycling:glass":"yes","recycling:paper":"yes","recycling:plastic":"yes","recycling_type":"container"}},"type":"Feature"}
]
}
