{
"type": "FeatureCollection",
"features": [
	{"geometry":{"coordinates":[15.605942,48.409952],"type":"Point"},"properties":{"osm_id":"607013457","tag":{"amenity":"recycling","operator":"Stadt Krems","recycling:cans":"yes","recycling:glass_bottles":"yes","recycling:paper":"yes","recycling:plastic_bottles":"yes","recycling_type":"container","website":"https://www.krems.gv.at/system/web/zusatzseite.aspx?detailonr=162563569"}},"type":"Feature"},
	{"geometry":{"coordinates":[15.567962,48.409935],"type":"Point"},"properties":{"osm_id":"1287263213","tag":{"amenity":"waste_basket"}},"type":"Feature"},
	{"geometry":{"coordinates":[15.568278,48.409862],"type":"Point"},"properties":{"osm_id":"1287263253","tag":{"amenity":"waste_basket"}},"type":"Feature"},
	{"geometry":{"coordinates":[15.567959,48.409784],"type":"Point"},"properties":{"osm_id":"1287263256","tag":{"amenity":"waste_basket"}},"type":"Feature"},
	{"geometry":{"coordinates":[15.58915,48.405452],"type":"Point"},"properties":{"osm_id":"1396198140","tag":{"amenity":"recycling","operator":"Stadt Krems","recycling:cartons":"yes","recycling:glass_bottles":"yes","recycling:magazines":"yes","recycling:newspaper":"yes","recycling:paper":"yes","recycling:plastic_bottles":"yes","recycling_type":"container","website":"https://www.krems.gv.at/system/web/zusatzseite.aspx?detailonr=162563569"}},"type":"Feature"},
	{"geometry":{"coordinates":[15.630945,48.435887],"type":"Point"},"properties":{"osm_id":"1737650455","tag":{"amenity":"waste_basket"}},"type":"Feature"},
	{"geometry":{"coordinates":[15.604135,48.448671],"type":"Point"},"properties":{"osm_id":"2338988723","tag":{"amenity":"recycling","recycling:cans":"yes","recycling:glass_bottles":"yes","recycling:scrap_metal":"yes","recycling_type":"container"}},"type":"Feature"},
	{"geometry":{"coordinates":[15.56828,48.409938],"type":"Point"},"properties":{"osm_id":"2582385806","tag":{"amenity":"waste_basket"}},"type":"Feature"},
	{"geometry":{"coordinates":[15.577486,48.402047],"type":"Point"},"properties":{"osm_id":"2582403753","tag":{"amenity":"waste_basket"}},"type":"Feature"},
	{"geometry":{"coordinates":[15.576317,48.401744],"type":"Point"},"properties":{"osm_id":"2582404761","tag":{"amenity":"waste_basket"}},"type":"Feature"},
	{"geometry":{"coordinates":[15.580298,48.403063],"type":"Point"},"properties":{"osm_id":"2582411278","tag":{"amenity":"waste_basket"}},"type":"Feature"},
	{"geometry":{"coordinates":[15.577328,48.400506],"type":"Point"},"properties":{"osm_id":"3107439243","tag":{"amenity":"waste_basket"}},"type":"Feature"},
	{"geometry":{"coordinates":[15.571039,48.40186],"type":"Point"},"properties":{"osm_id":"3107478508","tag":{"amenity":"waste_basket"}},"type":"Feature"},
	{"geometry":{"coordinates":[15.574356,48.401428],"type":"Point"},"properties":{"osm_id":"3107484988","tag":{"amenity":"recycling","operator":"Stadt Krems","recycling:cans":"yes","recycling:glass_bottles":"yes","recycling:paper":"yes","recycling:plastic_bottles":"yes","recycling_type":"container","website":"https://www.krems.gv.at/system/web/zusatzseite.aspx?detailonr=162563569"}},"type":"Feature"},
	{"geometry":{"coordinates":[15.562057,48.417751],"type":"Point"},"properties":{"osm_id":"3968570123","tag":{"amenity":"waste_basket"}},"type":"Feature"},
	{"geometry":{"coordinates":[15.561006,48.418656],"type":"Point"},"properties":{"osm_id":"3968570124","tag":{"amenity":"waste_basket"}},"type":"Feature"},
	{"geometry":{"coordinates":[15.559123,48.420549],"type":"Point"},"properties":{"osm_id":"3968570125","tag":{"amenity":"recycling","operator":"Stadt Krems","recycling:cans":"yes","recycling:glass_bottles":"yes","recycling:paper":"yes","recycling:plastic_bottles":"yes","recycling_type":"container","website":"https://www.krems.gv.at/system/web/zusatzseite.aspx?detailonr=162563569"}},"type":"Feature"},
	{"geometry":{"coordinates":[15.556997,48.417527],"type":"Point"},"properties":{"osm_id":"3968570127","tag":{"amenity":"recycling","operator":"Stadt Krems","recycling:cans":"yes","recycling:glass_bottles":"yes","recycling:paper":"yes","recycling:plastic_bottles":"yes","recycling_type":"container","website":"https://www.krems.gv.at/system/web/zusatzseite.aspx?detailonr=162563569"}},"type":"Feature"},
	{"geometry":{"coordinates":[15.569245,48.420115],"type":"Point"},"properties":{"osm_id":"3968570128","tag":{"amenity":"recycling","operator":"Stadt Krems","recycling:cans":"yes","recycling:glass_bottles":"yes","recycling:paper":"yes","recycling:plastic_bottles":"yes","recycling_type":"container","website":"https://www.krems.gv.at/system/web/zusatzseite.aspx?detailonr=162563569"}},"type":"Feature"},
	{"geometry":{"coordinates":[15.574745,48.41608],"type":"Point"},"properties":{"osm_id":"3968570129","tag":{"amenity":"recycling","operator":"Stadt Krems","recycling:cans":"yes","recycling:glass":"yes","recycling:glass_bottles":"yes","recycling:paper":"yes","recycling_type":"container","website":"https://www.krems.gv.at/system/web/zusatzseite.aspx?detailonr=162563569"}},"type":"Feature"},
	{"geometry":{"coordinates":[15.576804,48.400033],"type":"Point"},"properties":{"osm_id":"4239868155","tag":{"amenity":"recycling","operator":"Stadt Krems","recycling:cans":"yes","recycling:glass_bottles":"yes","recycling:paper":"yes","recycling:plastic_bottles":"yes","recycling_type":"container","website":"https://www.krems.gv.at/system/web/zusatzseite.aspx?detailonr=162563569"}},"type":"Feature"},
	{"geometry":{"coordinates":[15.57996,48.400772],"type":"Point"},"properties":{"osm_id":"4239868181","tag":{"amenity":"recycling","operator":"Stadt Krems","recycling:cans":"yes","recycling:glass_bottles":"yes","recycling:paper":"yes","recycling:plastic_bottles":"yes","recycling_type":"container","website":"https://www.krems.gv.at/system/web/zusatzseite.aspx?detailonr=162563569"}},"type":"Feature"},
	{"geometry":{"coordinates":[15.595714,48.407015],"type":"Point"},"properties":{"osm_id":"4828849993","tag":{"amenity":"recycling","operator":"Stadt Krems","recycling:cans":"yes","recycling:glass_bottles":"yes","recycling:paper":"yes","recycling:plastic_bottles":"yes","recycling_type":"container","website":"https://www.krems.gv.at/system/web/zusatzseite.aspx?detailonr=162563569"}},"type":"Feature"},
	{"geometry":{"coordinates":[15.611542,48.407011],"type":"Point"},"properties":{"osm_id":"4828849994","tag":{"amenity":"recycling","operator":"Stadt Krems","recycling:cans":"yes","recycling:glass_bottles":"yes","recycling:paper":"yes","recycling:plastic_bottles":"yes","recycling_type":"container","website":"https://www.krems.gv.at/system/web/zusatzseite.aspx?detailonr=162563569"}},"type":"Feature"},
	{"geometry":{"coordinates":[15.61907,48.408515],"type":"Point"},"properties":{"osm_id":"4828849995","tag":{"amenity":"recycling","operator":"Stadt Krems","recycling:cans":"yes","recycling:glass_bottles":"yes","recycling:paper":"yes","recycling:plastic_bottles":"yes","recycling_type":"container","website":"https://www.krems.gv.at/system/web/zusatzseite.aspx?detailonr=162563569"}},"type":"Feature"},
	{"geometry":{"coordinates":[15.620664,48.41171],"type":"Point"},"properties":{"osm_id":"4828849996","tag":{"amenity":"recycling","operator":"Stadt Krems","recycling:cans":"yes","recycling:glass_bottles":"yes","recycling:paper":"yes","recycling:plastic_bottles":"yes","recycling_type":"container","website":"https://www.krems.gv.at/system/web/zusatzseite.aspx?detailonr=162563569"}},"type":"Feature"},
	{"geometry":{"coordinates":[15.641799,48.414748],"type":"Point"},"properties":{"osm_id":"4828849997","tag":{"amenity":"recycling","operator":"Stadt Krems","recycling:cans":"yes","recycling:glass_bottles":"yes","recycling:paper":"yes","recycling:plastic_bottles":"yes","recycling_type":"container","website":"https://www.krems.gv.at/system/web/zusatzseite.aspx?detailonr=162563569"}},"type":"Feature"},
	{"geometry":{"coordinates":[15.634918,48.413531],"type":"Point"},"properties":{"osm_id":"4828849998","tag":{"amenity":"recycling","operator":"Stadt Krems","recycling:cans":"yes","recycling:glass_bottles":"yes","recycling:paper":"yes","recycling:plastic_bottles":"yes","recycling_type":"container","website":"https://www.krems.gv.at/system/web/zusatzseite.aspx?detailonr=162563569"}},"type":"Feature"},
	{"geometry":{"coordinates":[15.621122,48.415173],"type":"Point"},"properties":{"osm_id":"4828849999","tag":{"amenity":"recycling","operator":"Stadt Krems","recycling:cans":"yes","recycling:glass_bottles":"yes","recycling:paper":"yes","recycling:plastic_bottles":"yes","recycling_type":"container","website":"https://www.krems.gv.at/system/web/zusatzseite.aspx?detailonr=162563569"}},"type":"Feature"},
	{"geometry":{"coordinates":[15.612488,48.434202],"type":"Point"},"properties":{"osm_id":"4946063443","tag":{"amenity":"recycling","recycling:green_waste":"yes","recycling_type":"container"}},"type":"Feature"},
	{"geometry":{"coordinates":[15.612412,48.434257],"type":"Point"},"properties":{"osm_id":"4946063444","tag":{"amenity":"recycling","recycling:cans":"yes","recycling:glass_bottles":"yes","recycling:paper":"yes","recycling:plastic_bottles":"yes","recycling_type":"container","website":"https://www.krems.gv.at/system/web/zusatzseite.aspx?detailonr=162563569"}},"type":"Feature"},
	{"geometry":{"coordinates":[15.602494,48.406701],"type":"Point"},"properties":{"name":"L&S Recycling","osm_id":"5145630750","tag":{"addr:city":"Krems an der Donau","addr:country":"AT","addr:housenumber":"4","addr:postcode":"3500","addr:street":"Am Frachtenbahnhof","amenity":"recycling","email":"office@ls-recycling.at","phone":"+43 2732 770 71","recycling:scrap_metal":"yes","recycling_type":"centre","website":"http://www.ls-recycling.at"}},"type":"Feature"},
	{"geometry":{"coordinates":[15.600715,48.406975],"type":"Point"},"properties":{"osm_id":"5173426984","tag":{"amenity":"recycling","operator":"Stadt Krems","recycling:cans":"yes","recycling:glass_bottles":"yes","recycling:paper":"yes","recycling:plastic_bottles":"yes","recycling_type":"container","website":"https://www.krems.gv.at/system/web/zusatzseite.aspx?detailonr=162563569"}},"type":"Feature"},
	{"geometry":{"coordinates":[15.583426,48.408145],"type":"Point"},"properties":{"osm_id":"5209198765","tag":{"amenity":"waste_basket"}},"type":"Feature"},
	{"geometry":{"coordinates":[15.62262,48.41615],"type":"Point"},"properties":{"osm_id":"5406744699","tag":{"amenity":"recycling","operator":"Stadt Krems","recycling:cans":"yes","recycling:glass_bottles":"yes","recycling:paper":"yes","recycling:plastic_bottles":"yes","recycling_type":"container","website":"https://www.krems.gv.at/system/web/zusatzseite.aspx?detailonr=162563569"}},"type":"Feature"},
	{"geometry":{"coordinates":[15.622797,48.411722],"type":"Point"},"properties":{"osm_id":"5406745664","tag":{"amenity":"recycling","operator":"Stadt Krems","recycling:cans":"yes","recycling:glass_bottles":"yes","recycling:paper":"yes","recycling:plastic_bottles":"yes","recycling_type":"container","website":"https://www.krems.gv.at/system/web/zusatzseite.aspx?detailonr=162563569"}},"type":"Feature"},
	{"geometry":{"coordinates":[15.602793,48.417926],"type":"Point"},"properties":{"osm_id":"5457027000","tag":{"amenity":"recycling","operator":"Stadt Krems","recycling:cans":"yes","recycling:glass_bottles":"yes","recycling:paper":"yes","recycling:plastic_bottles":"yes","recycling_type":"container","website":"https://www.krems.gv.at/system/web/zusatzseite.aspx?detailonr=162563569"}},"type":"Feature"},
	{"geometry":{"coordinates":[15.584782,48.436308],"type":"Point"},"properties":{"osm_id":"5540629158","tag":{"amenity":"recycling","recycling:green_waste":"yes","recycling:waste":"yes","recycling_type":"container"}},"type":"Feature"},
	{"geometry":{"coordinates":[15.639081,48.412955],"type":"Point"},"properties":{"osm_id":"5758338283","tag":{"amenity":"recycling","operator":"Stadt Krems","recycling:cans":"yes","recycling:glass_bottles":"yes","recycling:paper":"yes","recycling:plastic_bottles":"yes","recycling_type":"container","website":"https://www.krems.gv.at/system/web/zusatzseite.aspx?detailonr=162563569"}},"type":"Feature"},
	{"geometry":{"coordinates":[15.644476,48.414843],"type":"Point"},"properties":{"osm_id":"5765601711","tag":{"amenity":"recycling","operator":"Stadt Krems","recycling:cans":"yes","recycling:glass_bottles":"yes","recycling:paper":"yes","recycling:plastic_bottles":"yes","recycling_type":"container","website":"https://www.krems.gv.at/system/web/zusatzseite.aspx?detailonr=162563569"}},"type":"Feature"},
	{"geometry":{"coordinates":[15.636046,48.415687],"type":"Point"},"properties":{"osm_id":"5789956205","tag":{"amenity":"recycling","operator":"Stadt Krems","recycling:cans":"yes","recycling:glass_bottles":"yes","recycling:paper":"yes","recycling:plastic_bottles":"yes","recycling_type":"container","website":"https://www.krems.gv.at/system/web/zusatzseite.aspx?detailonr=162563569"}},"type":"Feature"},
	{"geometry":{"coordinates":[15.618429,48.437918],"type":"Point"},"properties":{"osm_id":"6086001859","tag":{"amenity":"recycling","operator":"Stadt Krems","recycling:cans":"yes","recycling:glass_bottles":"yes","recycling:paper":"yes","recycling:plastic_bottles":"yes","recycling_type":"container","website":"https://www.krems.gv.at/system/web/zusatzseite.aspx?detailonr=162563569"}},"type":"Feature"},
	{"geometry":{"coordinates":[15.613985,48.432165],"type":"Point"},"properties":{"osm_id":"6086001860","tag":{"amenity":"recycling","operator":"Stadt Krems","recycling:cans":"yes","recycling:glass_bottles":"yes","recycling:paper":"yes","recycling:plastic_bottles":"yes","recycling_type":"container","website":"https://www.krems.gv.at/system/web/zusatzseite.aspx?detailonr=162563569"}},"type":"Feature"},
	{"geometry":{"coordinates":[15.598398,48.412574],"type":"Point"},"properties":{"osm_id":"6137395057","tag":{"amenity":"waste_basket","waste":"trash"}},"type":"Feature"},
	{"geometry":{"coordinates":[15.559209,48.420922],"type":"Point"},"properties":{"osm_id":"6284425754","tag":{"amenity":"recycling","recycling:green_waste":"yes","recycling:plastic":"yes","recycling_type":"container"}},"type":"Feature"},
	{"geometry":{"coordinates":[15.561767,48.418116],"type":"Point"},"properties":{"osm_id":"6284425760","tag":{"amenity":"recycling","operator":"Stadt Krems","recycling:cans":"yes","recycling:paper":"yes","recycling:plastic_bottles":"yes","recycling_type":"container","website":"https://www.krems.gv.at/system/web/zusatzseite.aspx?detailonr=162563569"}},"type":"Feature"},
	{"geometry":{"coordinates":[15.564285,48.415511],"type":"Point"},"properties":{"osm_id":"6284425767","tag":{"amenity":"waste_basket"}},"type":"Feature"},
	{"geometry":{"coordinates":[15.559554,48.416557],"type":"Point"},"properties":{"osm_id":"6284425772","tag":{"amenity":"waste_basket"}},"type":"Feature"},
	{"geometry":{"coordinates":[15.58749,48.417131],"type":"Point"},"properties":{"osm_id":"6373836741","tag":{"amenity":"waste_basket"}},"type":"Feature"},
	{"geometry":{"coordinates":[15.590202,48.413085],"type":"Point"},"properties":{"osm_id":"6373837685","tag":{"amenity":"waste_basket"}},"type":"Feature"},
	{"geometry":{"coordinates":[15.598059,48.412609],"type":"Point"},"properties":{"osm_id":"6373837689","tag":{"amenity":"waste_basket"}},"type":"Feature"},
	{"geometry":{"coordinates":[15.593631,48.413094],"type":"Point"},"properties":{"osm_id":"6411053640","tag":{"amenity":"waste_basket"}},"type":"Feature"},
	{"geometry":{"coordinates":[15.590516,48.410502],"type":"Point"},"properties":{"osm_id":"6709629001","tag":{"amenity":"recycling","operator":"Stadt Krems","recycling:cartons":"yes","recycling:glass_bottles":"yes","recycling:magazines":"yes","recycling:newspaper":"yes","recycling:paper":"yes","recycling:plastic_bottles":"yes","recycling_type":"container","website":"https://www.krems.gv.at/system/web/zusatzseite.aspx?detailonr=162563569"}},"type":"Feature"},
	{"geometry":{"coordinates":[15.604766,48.411314],"type":"Point"},"properties":{"osm_id":"6733309477","tag":{"amenity":"recycling","operator":"Stadt Krems","recycling:cans":"yes","recycling:glass_bottles":"yes","recycling:paper":"yes","recycling:plastic_bottles":"yes","recycling_type":"container","website":"https://www.krems.gv.at/system/web/zusatzseite.aspx?detailonr=162563569"}},"type":"Feature"},
	{"geometry":{"coordinates":[15.597763,48.417093],"type":"Point"},"properties":{"osm_id":"6733315942","tag":{"amenity":"recycling","operator":"Stadt Krems","recycling:cans":"yes","recycling:glass_bottles":"yes","recycling:paper":"yes","recycling:plastic_bottles":"yes","recycling_type":"container","website":"https://www.krems.gv.at/system/web/zusatzseite.aspx?detailonr=162563569"}},"type":"Feature"},
	{"geometry":{"coordinates":[15.59842,48.415715],"type":"Point"},"properties":{"osm_id":"6733316012","tag":{"amenity":"recycling","operator":"Stadt Krems","recycling:cans":"yes","recycling:glass_bottles":"yes","recycling:paper":"yes","recycling:plastic_bottles":"yes","recycling_type":"container","website":"https://www.krems.gv.at/system/web/zusatzseite.aspx?detailonr=162563569"}},"type":"Feature"},
	{"geometry":{"coordinates":[15.617703,48.412912],"type":"Point"},"properties":{"osm_id":"6746978802","tag":{"amenity":"recycling","operator":"Stadt Krems","recycling:cans":"yes","recycling:glass_bottles":"yes","recycling:paper":"yes","recycling:plastic_bottles":"yes","recycling_type":"container","website":"https://www.krems.gv.at/system/web/zusatzseite.aspx?detailonr=162563569"}},"type":"Feature"},
	{"geometry":{"coordinates":[15.608296,48.410923],"type":"Point"},"properties":{"osm_id":"6746983784","tag":{"amenity":"recycling","operator":"Stadt Krems","recycling:cans":"yes","recycling:glass_bottles":"yes","recycling:paper":"yes","recycling:plastic_bottles":"yes","recycling_type":"container","website":"https://www.krems.gv.at/system/web/zusatzseite.aspx?detailonr=162563569"}},"type":"Feature"},
	{"geometry":{"coordinates":[15.609633,48.410224],"type":"Point"},"properties":{"osm_id":"6755651830","tag":{"amenity":"recycling","operator":"Stadt Krems","recycling:cans":"yes","recycling:glass_bottles":"yes","recycling:paper":"yes","recycling:plastic_bottles":"yes","recycling_type":"container","website":"https://www.krems.gv.at/system/web/zusatzseite.aspx?detailonr=162563569"}},"type":"Feature"},
	{"geometry":{"coordinates":[15.610726,48.408222],"type":"Point"},"properties":{"osm_id":"6755651858","tag":{"amenity":"recycling","operator":"Stadt Krems","recycling:cans":"yes","recycling:glass_bottles":"yes","recycling:paper":"yes","recycling:plastic_bottles":"yes","recycling_type":"container","website":"https://www.krems.gv.at/system/web/zusatzseite.aspx?detailonr=162563569"}},"type":"Feature"},
	{"geometry":{"coordinates":[15.603715,48.415634],"type":"Point"},"properties":{"osm_id":"6764281928","tag":{"amenity":"recycling","operator":"Stadt Krems","recycling:cans":"yes","recycling:glass_bottles":"yes","recycling:paper":"yes","recycling:plastic_bottles":"yes","recycling_type":"container","website":"https://www.krems.gv.at/system/web/zusatzseite.aspx?detailonr=162563569"}},"type":"Feature"},
	{"geometry":{"coordinates":[15.606728,48.41732],"type":"Point"},"properties":{"osm_id":"6764282073","tag":{"amenity":"recycling","operator":"Stadt Krems","recycling:cans":"yes","recycling:glass_bottles":"yes","recycling:paper":"yes","recycling:plastic_bottles":"yes","recycling_type":"container","website":"https://www.krems.gv.at/system/web/zusatzseite.aspx?detailonr=162563569"}},"type":"Feature"},
	{"geometry":{"coordinates":[15.607325,48.422523],"type":"Point"},"properties":{"osm_id":"6764282302","tag":{"amenity":"recycling","operator":"Stadt Krems","recycling:cans":"yes","recycling:glass_bottles":"yes","recycling:paper":"yes","recycling:plastic_bottles":"yes","recycling_type":"container","website":"https://www.krems.gv.at/system/web/zusatzseite.aspx?detailonr=162563569"}},"type":"Feature"},
	{"geometry":{"coordinates":[15.599258,48.421035],"type":"Point"},"properties":{"osm_id":"6767278165","tag":{"amenity":"recycling","operator":"Stadt Krems","recycling:cans":"yes","recycling:glass_bottles":"yes","recycling:paper":"yes","recycling:plastic_bottles":"yes","recycling_type":"container","website":"https://www.krems.gv.at/system/web/zusatzseite.aspx?detailonr=162563569"}},"type":"Feature"},
	{"geometry":{"coordinates":[15.589407,48.427986],"type":"Point"},"properties":{"osm_id":"6767281418","tag":{"amenity":"recycling","operator":"Stadt Krems","recycling:cans":"yes","recycling:glass_bottles":"yes","recycling:paper":"yes","recycling:plastic_bottles":"yes","recycling_type":"container","website":"https://www.krems.gv.at/system/web/zusatzseite.aspx?detailonr=162563569"}},"type":"Feature"},
	{"geometry":{"coordinates":[15.586742,48.424739],"type":"Point"},"properties":{"osm_id":"6767281444","tag":{"amenity":"recycling","operator":"Stadt Krems","recycling:cans":"yes","recycling:glass_bottles":"yes","recycling:paper":"yes","recycling:plastic_bottles":"yes","recycling_type":"container","website":"https://www.krems.gv.at/system/web/zusatzseite.aspx?detailonr=162563569"}},"type":"Feature"},
	{"geometry":{"coordinates":[15.601985,48.41705],"type":"Point"},"properties":{"osm_id":"6767281574","tag":{"amenity":"recycling","operator":"Stadt Krems","recycling:cans":"yes","recycling:glass_bottles":"yes","recycling:paper":"yes","recycling:plastic_bottles":"yes","recycling_type":"container","website":"https://www.krems.gv.at/system/web/zusatzseite.aspx?detailonr=162563569"}},"type":"Feature"},
	{"geometry":{"coordinates":[15.584337,48.435948],"type":"Point"},"properties":{"osm_id":"6769500736","tag":{"amenity":"recycling","operator":"Stadt Krems","recycling:cans":"yes","recycling:glass_bottles":"yes","recycling:paper":"yes","recycling:plastic_bottles":"yes","recycling_type":"container","website":"https://www.krems.gv.at/system/web/zusatzseite.aspx?detailonr=162563569"}},"type":"Feature"},
	{"geometry":{"coordinates":[15.595697,48.410753],"type":"Point"},"properties":{"osm_id":"6780585831","tag":{"amenity":"recycling","operator":"Stadt Krems","recycling:cans":"yes","recycling:glass_bottles":"yes","recycling:paper":"yes","recycling:plastic_bottles":"yes","recycling_type":"container","website":"https://www.krems.gv.at/system/web/zusatzseite.aspx?detailonr=162563569"}},"type":"Feature"},
	{"geometry":{"coordinates":[15.585715,48.408863],"type":"Point"},"properties":{"osm_id":"7067449113","tag":{"amenity":"recycling","operator":"Stadt Krems","recycling:cartons":"yes","recycling:glass_bottles":"yes","recycling:magazines":"yes","recycling:newspaper":"yes","recycling:paper":"yes","recycling:plastic_bottles":"yes","recycling_type":"container","website":"https://www.krems.gv.at/system/web/zusatzseite.aspx?detailonr=162563569"}},"type":"Feature"},
	{"geometry":{"coordinates":[15.610927,48.418416],"type":"Point"},"properties":{"osm_id":"7067452727","tag":{"amenity":"recycling","operator":"Stadt Krems","recycling:cans":"yes","recycling:glass_bottles":"yes","recycling:paper":"yes","recycling:plastic_bottles":"yes","recycling_type":"container","website":"https://www.krems.gv.at/system/web/zusatzseite.aspx?detailonr=162563569"}},"type":"Feature"},
	{"geometry":{"coordinates":[15.587998,48.422665],"type":"Point"},"properties":{"osm_id":"7164905417","tag":{"amenity":"waste_basket","waste":"trash"}},"type":"Feature"},
	{"geometry":{"coordinates":[15.586341,48.424614],"type":"Point"},"properties":{"osm_id":"7164905424","tag":{"amenity":"waste_basket","waste":"trash"}},"type":"Feature"},
	{"geometry":{"coordinates":[15.587486,48.424826],"type":"Point"},"properties":{"osm_id":"7164905429","tag":{"amenity":"waste_basket","waste":"trash"}},"type":"Feature"},
	{"geometry":{"coordinates":[15.588738,48.423694],"type":"Point"},"properties":{"osm_id":"7165694516","tag":{"amenity":"waste_basket","waste":"trash"}},"type":"Feature"},
	{"geometry":{"coordinates":[15.590701,48.421788],"type":"Point"},"properties":{"osm_id":"7165694519","tag":{"amenity":"waste_basket","waste":"trash"}},"type":"Feature"},
	{"geometry":{"coordinates":[15.593074,48.421225],"type":"Point"},"properties":{"osm_id":"7165694524","tag":{"amenity":"waste_basket","waste":"trash"}},"type":"Feature"},
	{"geometry":{"coordinates":[15.595745,48.421293],"type":"Point"},"properties":{"osm_id":"7165694527","tag":{"amenity":"waste_basket","waste":"trash"}},"type":"Feature"},
	{"geometry":{"coordinates":[15.599496,48.421318],"type":"Point"},"properties":{"osm_id":"7165694530","tag":{"amenity":"waste_basket","waste":"trash"}},"type":"Feature"},
	{"geometry":{"coordinates":[15.590734,48.421369],"type":"Point"},"properties":{"osm_id":"7167026156","tag":{"amenity":"waste_basket","waste":"trash"}},"type":"Feature"},
	{"geometry":{"coordinates":[15.591027,48.420772],"type":"Point"},"properties":{"osm_id":"7167026169","tag":{"amenity":"recycling","recycling:cans":"yes","recycling:glass_bottles":"yes","recycling:paper":"yes","recycling:plastic_bottles":"yes","recycling_type":"container","website":"https://www.krems.gv.at/system/web/zusatzseite.aspx?detailonr=162563569","wheelchair":"yes"}},"type":"Feature"},
	{"geometry":{"coordinates":[15.58827,48.425313],"type":"Point"},"properties":{"osm_id":"7169690238","tag":{"amenity":"waste_basket","waste":"trash"}},"type":"Feature"},
	{"geometry":{"coordinates":[15.589353,48.426524],"type":"Point"},"properties":{"osm_id":"7169815613","tag":{"amenity":"waste_basket","waste":"trash"}},"type":"Feature"},
	{"geometry":{"coordinates":[15.58764,48.430092],"type":"Point"},"properties":{"osm_id":"7174599244","tag":{"amenity":"waste_basket","waste":"trash"}},"type":"Feature"},
	{"geometry":{"coordinates":[15.586586,48.431213],"type":"Point"},"properties":{"osm_id":"7174599246","tag":{"amenity":"waste_basket","waste":"trash"}},"type":"Feature"},
	{"geometry":{"coordinates":[15.587318,48.432013],"type":"Point"},"properties":{"osm_id":"7174599250","tag":{"amenity":"recycling","operator":"Stadt Krems","recycling:cans":"yes","recycling:glass_bottles":"yes","recycling:green_waste":"yes","recycling:paper":"yes","recycling:plastic_bottles":"yes","recycling_type":"container","website":"https://www.krems.gv.at/system/web/zusatzseite.aspx?detailonr=162563569"}},"type":"Feature"},
	{"geometry":{"coordinates":[15.587441,48.43177],"type":"Point"},"properties":{"osm_id":"7174599251","tag":{"amenity":"waste_basket","waste":"trash"}},"type":"Feature"},
	{"geometry":{"coordinates":[15.589052,48.429591],"type":"Point"},"properties":{"osm_id":"7174599254","tag":{"amenity":"recycling","operator":"Stadt Krems","recycling:paper":"yes","recycling_type":"container","wheelchair":"yes"}},"type":"Feature"},
	{"geometry":{"coordinates":[15.589997,48.428403],"type":"Point"},"properties":{"osm_id":"7174599255","tag":{"amenity":"waste_basket","waste":"trash"}},"type":"Feature"},
	{"geometry":{"coordinates":[15.6025,48.408571],"type":"Point"},"properties":{"osm_id":"7176182836","tag":{"amenity":"recycling","operator":"Stadt Krems","recycling:paper":"yes","recycling_type":"container"}},"type":"Feature"},
	{"geometry":{"coordinates":[15.608694,48.408126],"type":"Point"},"properties":{"osm_id":"7176182837","tag":{"amenity":"recycling","operator":"Stadt Krems","recycling:paper":"yes","recycling_type":"container"}},"type":"Feature"},
	{"geometry":{"coordinates":[15.611134,48.404939],"type":"Point"},"properties":{"osm_id":"7176182838","tag":{"amenity":"recycling","operator":"Stadt Krems","recycling:paper":"yes","recycling_type":"container"}},"type":"Feature"},
	{"geometry":{"coordinates":[15.598014,48.407024],"type":"Point"},"properties":{"osm_id":"7176182839","tag":{"amenity":"recycling","operator":"Stadt Krems","recycling:paper":"yes","recycling_type":"container"}},"type":"Feature"},
	{"geometry":{"coordinates":[15.596363,48.406341],"type":"Point"},"properties":{"osm_id":"7176182840","tag":{"amenity":"recycling","operator":"Stadt Krems","recycling:plastic_bottles":"yes","recycling_type":"container"}},"type":"Feature"},
	{"geometry":{"coordinates":[15.594197,48.406505],"type":"Point"},"properties":{"osm_id":"7176182841","tag":{"amenity":"recycling","operator":"Stadt Krems","recycling:paper":"yes","recycling_type":"container"}},"type":"Feature"},
	{"geometry":{"coordinates":[15.585485,48.406285],"type":"Point"},"properties":{"osm_id":"7176182842","tag":{"amenity":"recycling","operator":"Stadt Krems","recycling:paper":"yes","recycling_type":"container"}},"type":"Feature"},
	{"geometry":{"coordinates":[15.582488,48.402083],"type":"Point"},"properties":{"osm_id":"7176182843","tag":{"amenity":"recycling","operator":"Stadt Krems","recycling:paper":"yes","recycling_type":"container"}},"type":"Feature"},
	{"geometry":{"coordinates":[15.598002,48.414247],"type":"Point"},"properties":{"osm_id":"7176260648","tag":{"amenity":"recycling","operator":"Stadt Krems","recycling:paper":"yes","recycling_type":"container"}},"type":"Feature"},
	{"geometry":{"coordinates":[15.606553,48.410877],"type":"Point"},"properties":{"osm_id":"7176260649","tag":{"amenity":"recycling","operator":"Stadt Krems","recycling:paper":"yes","recycling_type":"container"}},"type":"Feature"},
	{"geometry":{"coordinates":[15.597759,48.412427],"type":"Point"},"properties":{"osm_id":"7176260650","tag":{"amenity":"recycling","operator":"Stadt Krems","recycling:paper":"yes","recycling_type":"container"}},"type":"Feature"},
	{"geometry":{"coordinates":[15.602793,48.409935],"type":"Point"},"properties":{"osm_id":"7176260651","tag":{"amenity":"recycling","operator":"Stadt Krems","recycling:paper":"yes","recycling_type":"container"}},"type":"Feature"},
	{"geometry":{"coordinates":[15.618522,48.41414],"type":"Point"},"properties":{"osm_id":"7176260652","tag":{"amenity":"recycling","operator":"Stadt Krems","recycling:paper":"yes","recycling:plastic_bottles":"yes","recycling_type":"container"}},"type":"Feature"},
	{"geometry":{"coordinates":[15.616839,48.413933],"type":"Point"},"properties":{"osm_id":"7176260653","tag":{"amenity":"recycling","operator":"Stadt Krems","recycling:paper":"yes","recycling_type":"container"}},"type":"Feature"},
	{"geometry":{"coordinates":[15.610726,48.409001],"type":"Point"},"properties":{"osm_id":"7176270624","tag":{"amenity":"recycling","operator":"Stadt Krems","recycling:paper":"yes","recycling:plastic_bottles":"yes","recycling_type":"container"}},"type":"Feature"},
	{"geometry":{"coordinates":[15.607301,48.407967],"type":"Point"},"properties":{"osm_id":"7176270625","tag":{"amenity":"recycling","operator":"Stadt Krems","recycling:paper":"yes","recycling:plastic_bottles":"yes","recycling_type":"container"}},"type":"Feature"},
	{"geometry":{"coordinates":[15.603791,48.413529],"type":"Point"},"properties":{"osm_id":"7176270626","tag":{"amenity":"recycling","operator":"Stadt Krems","recycling:paper":"yes","recycling_type":"container","website":"https://www.krems.gv.at/system/web/zusatzseite.aspx?detailonr=162563569"}},"type":"Feature"},
	{"geometry":{"coordinates":[15.620196,48.41205],"type":"Point"},"properties":{"osm_id":"7176270628","tag":{"amenity":"recycling","operator":"Stadt Krems","recycling:plastic_bottles":"yes","recycling_type":"container"}},"type":"Feature"},
	{"geometry":{"coordinates":[15.621301,48.414906],"type":"Point"},"properties":{"osm_id":"7176270629","tag":{"amenity":"recycling","operator":"Stadt Krems","recycling:paper":"yes","recycling_type":"container"}},"type":"Feature"},
	{"geometry":{"coordinates":[15.613864,48.40833],"type":"Point"},"properties":{"osm_id":"7176270630","tag":{"amenity":"recycling","operator":"Stadt Krems","recycling:paper":"yes","recycling_type":"container"}},"type":"Feature"},
	{"geometry":{"coordinates":[15.61228,48.408313],"type":"Point"},"properties":{"osm_id":"7176270631","tag":{"amenity":"recycling","operator":"Stadt Krems","recycling:paper":"yes","recycling:plastic_bottles":"yes","recycling_type":"container"}},"type":"Feature"},
	{"geometry":{"coordinates":[15.60099,48.410197],"type":"Point"},"properties":{"osm_id":"7176270632","tag":{"amenity":"recycling","operator":"Stadt Krems","recycling:paper":"yes","recycling_type":"container"}},"type":"Feature"},
	{"geometry":{"coordinates":[15.606479,48.407171],"type":"Point"},"properties":{"osm_id":"7176270633","tag":{"amenity":"recycling","operator":"Stadt Krems","recycling:paper":"yes","recycling:plastic_bottles":"yes","recycling_type":"container"}},"type":"Feature"},
	{"geometry":{"coordinates":[15.608897,48.407365],"type":"Point"},"properties":{"osm_id":"7176270634","tag":{"amenity":"recycling","operator":"Stadt Krems","recycling:paper":"yes","recycling:plastic_bottles":"yes","recycling_type":"container"}},"type":"Feature"},
	{"geometry":{"coordinates":[15.641825,48.415514],"type":"Point"},"properties":{"osm_id":"7191921174","tag":{"amenity":"recycling","operator":"Stadt Krems","recycling:green_waste":"yes","recycling_type":"container"}},"type":"Feature"},
	{"geometry":{"coordinates":[15.60667,48.417376],"type":"Point"},"properties":{"osm_id":"7191988988","tag":{"amenity":"recycling","operator":"Stadt Krems","recycling:green_waste":"yes","recycling_type":"container"}},"type":"Feature"},
	{"geometry":{"coordinates":[15.586339,48.404656],"type":"Point"},"properties":{"osm_id":"7192051719","tag":{"amenity":"recycling","operator":"Stadt Krems","recycling:cans":"yes","recycling:glass_bottles":"yes","recycling:paper":"yes","recycling:plastic_bottles":"yes","recycling_type":"container","website":"https://www.krems.gv.at/system/web/zusatzseite.aspx?detailonr=162563569"}},"type":"Feature"},
	{"geometry":{"coordinates":[15.593643,48.40698],"type":"Point"},"properties":{"osm_id":"7192051720","tag":{"amenity":"recycling","operator":"Stadt Krems","recycling:cans":"yes","recycling:glass_bottles":"yes","recycling:paper":"yes","recycling:plastic_bottles":"yes","recycling_type":"container","website":"https://www.krems.gv.at/system/web/zusatzseite.aspx?detailonr=162563569"}},"type":"Feature"},
	{"geometry":{"coordinates":[15.5917,48.406739],"type":"Point"},"properties":{"osm_id":"7192051721","tag":{"amenity":"recycling","operator":"Stadt Krems","recycling:cans":"yes","recycling:glass_bottles":"yes","recycling:paper":"yes","recycling:plastic_bottles":"yes","recycling_type":"container","website":"https://www.krems.gv.at/system/web/zusatzseite.aspx?detailonr=162563569"}},"type":"Feature"},
	{"geometry":{"coordinates":[15.589031,48.405385],"type":"Point"},"properties":{"osm_id":"7192051722","tag":{"amenity":"recycling","operator":"Stadt Krems","recycling:cans":"yes","recycling:glass_bottles":"yes","recycling:paper":"yes","recycling:plastic_bottles":"yes","recycling_type":"container"}},"type":"Feature"},
	{"geometry":{"coordinates":[15.589802,48.405902],"type":"Point"},"properties":{"osm_id":"7192051723","tag":{"amenity":"recycling","operator":"Stadt Krems","recycling:cans":"yes","recycling:glass_bottles":"yes","recycling:paper":"yes","recycling:plastic_bottles":"yes","recycling_type":"container","website":"https://www.krems.gv.at/system/web/zusatzseite.aspx?detailonr=162563569"}},"type":"Feature"},
	{"geometry":{"coordinates":[15.590636,48.407285],"type":"Point"},"properties":{"osm_id":"7192051724","tag":{"amenity":"recycling","operator":"Stadt Krems","recycling:cans":"yes","recycling:glass_bottles":"yes","recycling:paper":"yes","recycling:plastic_bottles":"yes","recycling_type":"container","website":"https://www.krems.gv.at/system/web/zusatzseite.aspx?detailonr=162563569"}},"type":"Feature"},
	{"geometry":{"coordinates":[15.59193,48.408834],"type":"Point"},"properties":{"osm_id":"7192051725","tag":{"amenity":"recycling","operator":"Stadt Krems","recycling:cans":"yes","recycling:paper":"yes","recycling:plastic_bottles":"yes","recycling_type":"container","website":"https://www.krems.gv.at/system/web/zusatzseite.aspx?detailonr=162563569"}},"type":"Feature"},
	{"geometry":{"coordinates":[15.589951,48.408864],"type":"Point"},"properties":{"osm_id":"7192051726","tag":{"amenity":"recycling","operator":"Stadt Krems","recycling:cans":"yes","recycling:glass_bottles":"yes","recycling:paper":"yes","recycling:plastic_bottles":"yes","recycling_type":"container","website":"https://www.krems.gv.at/system/web/zusatzseite.aspx?detailonr=162563569"}},"type":"Feature"},
	{"geometry":{"coordinates":[15.587687,48.409377],"type":"Point"},"properties":{"osm_id":"7192051727","tag":{"amenity":"recycling","operator":"Stadt Krems","recycling:cans":"yes","recycling:glass_bottles":"yes","recycling:paper":"yes","recycling:plastic_bottles":"yes","recycling_type":"container","website":"https://www.krems.gv.at/system/web/zusatzseite.aspx?detailonr=162563569"}},"type":"Feature"},
	{"geometry":{"coordinates":[15.593783,48.411674],"type":"Point"},"properties":{"osm_id":"7192051728","tag":{"amenity":"recycling","operator":"Stadt Krems","recycling:cans":"yes","recycling:paper":"yes","recycling:plastic_bottles":"yes","recycling_type":"container","website":"https://www.krems.gv.at/system/web/zusatzseite.aspx?detailonr=162563569"}},"type":"Feature"},
	{"geometry":{"coordinates":[15.565739,48.419913],"type":"Point"},"properties":{"osm_id":"7193669736","tag":{"amenity":"recycling","operator":"Stadt Krems","recycling:cans":"yes","recycling:paper":"yes","recycling:plastic_bottles":"yes","recycling_type":"container","website":"https://www.krems.gv.at/system/web/zusatzseite.aspx?detailonr=162563569"}},"type":"Feature"},
	{"geometry":{"coordinates":[15.583241,48.408678],"type":"Point"},"properties":{"osm_id":"7193669737","tag":{"amenity":"recycling","operator":"Stadt Krems","recycling:cans":"yes","recycling:glass_bottles":"yes","recycling:paper":"yes","recycling:plastic_bottles":"yes","recycling_type":"container","website":"https://www.krems.gv.at/system/web/zusatzseite.aspx?detailonr=162563569"}},"type":"Feature"},
	{"geometry":{"coordinates":[15.605075,48.414253],"type":"Point"},"properties":{"osm_id":"7195291369","tag":{"amenity":"recycling","operator":"Stadt Krems","recycling:cans":"yes","recycling:glass_bottles":"yes","recycling:paper":"yes","recycling:plastic_bottles":"yes","recycling_type":"container","website":"https://www.krems.gv.at/system/web/zusatzseite.aspx?detailonr=162563569"}},"type":"Feature"},
	{"geometry":{"coordinates":[15.607313,48.415175],"type":"Point"},"properties":{"osm_id":"7195291370","tag":{"amenity":"recycling","operator":"Stadt Krems","recycling:cans":"yes","recycling:glass_bottles":"yes","recycling:paper":"yes","recycling:plastic_bottles":"yes","recycling_type":"container","website":"https://www.krems.gv.at/system/web/zusatzseite.aspx?detailonr=162563569"}},"type":"Feature"},
	{"geometry":{"coordinates":[15.612582,48.409056],"type":"Point"},"properties":{"osm_id":"7195427247","tag":{"amenity":"recycling","operator":"Stadt Krems","recycling:cans":"yes","recycling:paper":"yes","recycling:plastic_bottles":"yes","recycling_type":"container","website":"https://www.krems.gv.at/system/web/zusatzseite.aspx?detailonr=162563569"}},"type":"Feature"},
	{"geometry":{"coordinates":[15.615167,48.41018],"type":"Point"},"properties":{"osm_id":"7195427248","tag":{"amenity":"recycling","operator":"Stadt Krems","recycling:cans":"yes","recycling:glass_bottles":"yes","recycling:paper":"yes","recycling:plastic_bottles":"yes","recycling_type":"container","website":"https://www.krems.gv.at/system/web/zusatzseite.aspx?detailonr=162563569"}},"type":"Feature"},
	{"geometry":{"coordinates":[15.62253,48.413461],"type":"Point"},"properties":{"osm_id":"7195427249","tag":{"amenity":"recycling","operator":"Stadt Krems","recycling:cans":"yes","recycling:glass_bottles":"yes","recycling:paper":"yes","recycling:plastic_bottles":"yes","recycling_type":"container","website":"https://www.krems.gv.at/system/web/zusatzseite.aspx?detailonr=162563569"}},"type":"Feature"},
	{"geometry":{"coordinates":[15.633595,48.416776],"type":"Point"},"properties":{"osm_id":"7195427250","tag":{"amenity":"recycling","operator":"Stadt Krems","recycling:cans":"yes","recycling:glass_bottles":"yes","recycling:paper":"yes","recycling:plastic_bottles":"yes","recycling_type":"container","website":"https://www.krems.gv.at/system/web/zusatzseite.aspx?detailonr=162563569"}},"type":"Feature"},
	{"geometry":{"coordinates":[15.632248,48.414412],"type":"Point"},"properties":{"osm_id":"7195427251","tag":{"amenity":"recycling","operator":"Stadt Krems","recycling:cans":"yes","recycling:glass_bottles":"yes","recycling:paper":"yes","recycling:plastic_bottles":"yes","recycling_type":"container","website":"https://www.krems.gv.at/system/web/zusatzseite.aspx?detailonr=162563569"}},"type":"Feature"},
	{"geometry":{"coordinates":[15.639733,48.413732],"type":"Point"},"properties":{"osm_id":"7195427252","tag":{"amenity":"recycling","operator":"Stadt Krems","recycling:cans":"yes","recycling:paper":"yes","recycling:plastic_bottles":"yes","recycling_type":"container","website":"https://www.krems.gv.at/system/web/zusatzseite.aspx?detailonr=162563569"}},"type":"Feature"},
	{"geometry":{"coordinates":[15.640562,48.41332],"type":"Point"},"properties":{"osm_id":"7195427253","tag":{"amenity":"recycling","operator":"Stadt Krems","recycling:cans":"yes","recycling:glass_bottles":"yes","recycling:paper":"yes","recycling:plastic_bottles":"yes","recycling_type":"container","website":"https://www.krems.gv.at/system/web/zusatzseite.aspx?detailonr=162563569"}},"type":"Feature"},
	{"geometry":{"coordinates":[15.619603,48.440919],"type":"Point"},"properties":{"osm_id":"7196207387","tag":{"amenity":"recycling","operator":"Stadt Krems","recycling:cans":"yes","recycling:glass_bottles":"yes","recycling:paper":"yes","recycling:plastic_bottles":"yes","recycling_type":"container","website":"https://www.krems.gv.at/system/web/zusatzseite.aspx?detailonr=162563569"}},"type":"Feature"},
	{"geometry":{"coordinates":[15.611808,48.410937],"type":"Point"},"properties":{"osm_id":"7196207388","tag":{"amenity":"recycling","operator":"Stadt Krems","recycling:cans":"yes","recycling:paper":"yes","recycling:plastic_bottles":"yes","recycling_type":"container","website":"https://www.krems.gv.at/system/web/zusatzseite.aspx?detailonr=162563569"}},"type":"Feature"},
	{"geometry":{"coordinates":[15.609921,48.407616],"type":"Point"},"properties":{"osm_id":"7196207389","tag":{"amenity":"recycling","operator":"Stadt Krems","recycling:cans":"yes","recycling:paper":"yes","recycling:plastic_bottles":"yes","recycling_type":"container","website":"https://www.krems.gv.at/system/web/zusatzseite.aspx?detailonr=162563569"}},"type":"Feature"},
	{"geometry":{"coordinates":[15.61123,48.413502],"type":"Point"},"properties":{"osm_id":"7196207390","tag":{"amenity":"recycling","operator":"Stadt Krems","recycling:cans":"yes","recycling:glass_bottles":"yes","recycling:paper":"yes","recycling:plastic_bottles":"yes","recycling_type":"container","website":"https://www.krems.gv.at/system/web/zusatzseite.aspx?detailonr=162563569"}},"type":"Feature"},
	{"geometry":{"coordinates":[15.60317,48.413195],"type":"Point"},"properties":{"osm_id":"7196207391","tag":{"amenity":"recycling","operator":"Stadt Krems","recycling:cans":"yes","recycling:glass_bottles":"yes","recycling:paper":"yes","recycling:plastic_bottles":"yes","recycling_type":"container","website":"https://www.krems.gv.at/system/web/zusatzseite.aspx?detailonr=162563569"}},"type":"Feature"},
	{"geometry":{"coordinates":[15.602894,48.41206],"type":"Point"},"properties":{"osm_id":"7196207392","tag":{"amenity":"recycling","operator":"Stadt Krems","recycling:cans":"yes","recycling:glass_bottles":"yes","recycling:paper":"yes","recycling:plastic_bottles":"yes","recycling_type":"container","website":"https://www.krems.gv.at/system/web/zusatzseite.aspx?detailonr=162563569"}},"type":"Feature"},
	{"geometry":{"coordinates":[15.602519,48.410324],"type":"Point"},"properties":{"osm_id":"7196207393","tag":{"amenity":"recycling","operator":"Stadt Krems","recycling:cans":"yes","recycling:glass_bottles":"yes","recycling:paper":"yes","recycling:plastic_bottles":"yes","recycling_type":"container","website":"https://www.krems.gv.at/system/web/zusatzseite.aspx?detailonr=162563569"}},"type":"Feature"},
	{"geometry":{"coordinates":[15.599426,48.409947],"type":"Point"},"properties":{"osm_id":"7196207394","tag":{"amenity":"recycling","operator":"Stadt Krems","recycling:cans":"yes","recycling:glass_bottles":"yes","recycling:paper":"yes","recycling:plastic_bottles":"yes","recycling_type":"container","website":"https://www.krems.gv.at/system/web/zusatzseite.aspx?detailonr=162563569"}},"type":"Feature"},
	{"geometry":{"coordinates":[15.600532,48.410483],"type":"Point"},"properties":{"osm_id":"7196207395","tag":{"amenity":"recycling","operator":"Stadt Krems","recycling:cans":"yes","recycling:paper":"yes","recycling:plastic_bottles":"yes","recycling_type":"container","website":"https://www.krems.gv.at/system/web/zusatzseite.aspx?detailonr=162563569"}},"type":"Feature"},
	{"geometry":{"coordinates":[15.599969,48.411259],"type":"Point"},"properties":{"osm_id":"7196207396","tag":{"amenity":"recycling","operator":"Stadt Krems","recycling:cans":"yes","recycling:glass_bottles":"yes","recycling:paper":"yes","recycling:plastic_bottles":"yes","recycling_type":"container","website":"https://www.krems.gv.at/system/web/zusatzseite.aspx?detailonr=162563569"}},"type":"Feature"},
	{"geometry":{"coordinates":[15.597995,48.410973],"type":"Point"},"properties":{"osm_id":"7196207397","tag":{"amenity":"recycling","operator":"Stadt Krems","recycling:cans":"yes","recycling:glass_bottles":"yes","recycling:paper":"yes","recycling:plastic_bottles":"yes","recycling_type":"container","website":"https://www.krems.gv.at/system/web/zusatzseite.aspx?detailonr=162563569"}},"type":"Feature"},
	{"geometry":{"coordinates":[15.608362,48.409493],"type":"Point"},"properties":{"osm_id":"7196207398","tag":{"amenity":"recycling","operator":"Stadt Krems","recycling:cans":"yes","recycling:glass_bottles":"yes","recycling:paper":"yes","recycling:plastic_bottles":"yes","recycling_type":"container","website":"https://www.krems.gv.at/system/web/zusatzseite.aspx?detailonr=162563569"}},"type":"Feature"},
	{"geometry":{"coordinates":[15.606865,48.408864],"type":"Point"},"properties":{"osm_id":"7196223165","tag":{"amenity":"recycling","operator":"Stadt Krems","recycling:cans":"yes","recycling:glass_bottles":"yes","recycling:paper":"yes","recycling:plastic_bottles":"yes","recycling_type":"container","website":"https://www.krems.gv.at/system/web/zusatzseite.aspx?detailonr=162563569"}},"type":"Feature"},
	{"geometry":{"coordinates":[15.636939,48.416366],"type":"Point"},"properties":{"osm_id":"7196223166","tag":{"amenity":"recycling","operator":"Stadt Krems","recycling:cans":"yes","recycling:glass_bottles":"yes","recycling:paper":"yes","recycling:plastic_bottles":"yes","recycling_type":"container","website":"https://www.krems.gv.at/system/web/zusatzseite.aspx?detailonr=162563569"}},"type":"Feature"},
	{"geometry":{"coordinates":[15.613795,48.410956],"type":"Point"},"properties":{"osm_id":"7196223167","tag":{"amenity":"recycling","operator":"Stadt Krems","recycling:cans":"yes","recycling:glass_bottles":"yes","recycling:paper":"yes","recycling:plastic_bottles":"yes","recycling_type":"container","website":"https://www.krems.gv.at/system/web/zusatzseite.aspx?detailonr=162563569"}},"type":"Feature"},
	{"geometry":{"coordinates":[15.598136,48.4052],"type":"Point"},"properties":{"osm_id":"7196883333","tag":{"amenity":"recycling","operator":"Stadt Krems","recycling:cans":"yes","recycling:glass_bottles":"yes","recycling:paper":"yes","recycling:plastic_bottles":"yes","recycling_type":"container","website":"https://www.krems.gv.at/system/web/zusatzseite.aspx?detailonr=162563569"}},"type":"Feature"},
	{"geometry":{"coordinates":[15.58663,48.403294],"type":"Point"},"properties":{"osm_id":"7196883334","tag":{"amenity":"recycling","operator":"Stadt Krems","recycling:cans":"yes","recycling:glass_bottles":"yes","recycling:paper":"yes","recycling:plastic_bottles":"yes","recycling_type":"container","website":"https://www.krems.gv.at/system/web/zusatzseite.aspx?detailonr=162563569"}},"type":"Feature"},
	{"geometry":{"coordinates":[15.614419,48.414945],"type":"Point"},"properties":{"osm_id":"7196883335","tag":{"amenity":"recycling","operator":"Stadt Krems","recycling:cans":"yes","recycling:glass_bottles":"yes","recycling:paper":"yes","recycling:plastic_bottles":"yes","recycling_type":"container","website":"https://www.krems.gv.at/system/web/zusatzseite.aspx?detailonr=162563569"}},"type":"Feature"},
	{"geometry":{"coordinates":[15.587766,48.4028],"type":"Point"},"properties":{"osm_id":"7196883336","tag":{"amenity":"recycling","operator":"Stadt Krems","recycling:cans":"yes","recycling:glass_bottles":"yes","recycling:paper":"yes","recycling:plastic_bottles":"yes","recycling_type":"container","website":"https://www.krems.gv.at/system/web/zusatzseite.aspx?detailonr=162563569"}},"type":"Feature"},
	{"geometry":{"coordinates":[15.584619,48.406041],"type":"Point"},"properties":{"osm_id":"7196883338","tag":{"amenity":"recycling","operator":"Stadt Krems","recycling:cans":"yes","recycling:glass_bottles":"yes","recycling:paper":"yes","recycling:plastic_bottles":"yes","recycling_type":"container","website":"https://www.krems.gv.at/system/web/zusatzseite.aspx?detailonr=162563569"}},"type":"Feature"},
	{"geometry":{"coordinates":[15.610745,48.437457],"type":"Point"},"properties":{"osm_id":"7196883339","tag":{"amenity":"recycling","operator":"Stadt Krems","recycling:cans":"yes","recycling:glass_bottles":"yes","recycling:paper":"yes","recycling:plastic_bottles":"yes","recycling_type":"container","website":"https://www.krems.gv.at/system/web/zusatzseite.aspx?detailonr=162563569"}},"type":"Feature"},
	{"geometry":{"coordinates":[15.585485,48.432405],"type":"Point"},"properties":{"osm_id":"7206912779","tag":{"amenity":"waste_basket","waste":"trash"}},"type":"Feature"},
	{"geometry":{"coordinates":[15.585908,48.433332],"type":"Point"},"properties":{"osm_id":"7206912784","tag":{"amenity":"waste_basket","waste":"trash"}},"type":"Feature"},
	{"geometry":{"coordinates":[15.611258,48.413602],"type":"Point"},"properties":{"osm_id":"7212759949","tag":{"amenity":"waste_basket","waste":"trash"}},"type":"Feature"},
	{"geometry":{"coordinates":[15.601907,48.412352],"type":"Point"},"properties":{"osm_id":"7214793125","tag":{"amenity":"waste_basket","waste":"trash"}},"type":"Feature"},
	{"geometry":{"coordinates":[15.601811,48.412347],"type":"Point"},"properties":{"osm_id":"7214793126","tag":{"amenity":"waste_basket","waste":"trash"}},"type":"Feature"},
	{"geometry":{"coordinates":[15.601385,48.412738],"type":"Point"},"properties":{"osm_id":"7214793127","tag":{"amenity":"recycling","operator":"Stadt Krems","recycling:paper":"yes","recycling_type":"container","wheelchair":"yes"}},"type":"Feature"},
	{"geometry":{"coordinates":[15.591276,48.43228],"type":"Point"},"properties":{"osm_id":"7227876908","tag":{"amenity":"waste_basket","waste":"trash"}},"type":"Feature"},
	{"geometry":{"coordinates":[15.624536,48.410008],"type":"Point"},"properties":{"osm_id":"7228475251","tag":{"amenity":"waste_basket","waste":"trash"}},"type":"Feature"},
	{"geometry":{"coordinates":[15.62283,48.407685],"type":"Point"},"properties":{"osm_id":"7228475252","tag":{"amenity":"waste_basket","waste":"trash"}},"type":"Feature"},
	{"geometry":{"coordinates":[15.583716,48.431411],"type":"Point"},"properties":{"osm_id":"7231403937","tag":{"amenity":"waste_basket","waste":"trash"}},"type":"Feature"},
	{"geometry":{"coordinates":[15.59883,48.420943],"type":"Point"},"properties":{"osm_id":"7234041943","tag":{"amenity":"waste_basket","waste":"trash"}},"type":"Feature"},
	{"geometry":{"coordinates":[15.59991,48.450108],"type":"Point"},"properties":{"osm_id":"7234237432","tag":{"amenity":"waste_basket","waste":"trash"}},"type":"Feature"},
	{"geometry":{"coordinates":[15.602394,48.447724],"type":"Point"},"properties":{"osm_id":"7234237437","tag":{"amenity":"waste_basket","waste":"trash"}},"type":"Feature"},
	{"geometry":{"coordinates":[15.609222,48.405959],"type":"Point"},"properties":{"osm_id":"7236508297","tag":{"amenity":"waste_basket","waste":"trash"}},"type":"Feature"},
	{"geometry":{"coordinates":[15.60901,48.406737],"type":"Point"},"properties":{"osm_id":"7236508298","tag":{"amenity":"waste_basket","waste":"trash"}},"type":"Feature"},
	{"geometry":{"coordinates":[15.608659,48.40904],"type":"Point"},"properties":{"osm_id":"7236508303","tag":{"amenity":"waste_basket","waste":"trash"}},"type":"Feature"},
	{"geometry":{"coordinates":[15.605488,48.412982],"type":"Point"},"properties":{"osm_id":"7236508305","tag":{"amenity":"waste_basket","waste":"trash"}},"type":"Feature"},
	{"geometry":{"coordinates":[15.604911,48.41411],"type":"Point"},"properties":{"osm_id":"7236508306","tag":{"amenity":"waste_basket","waste":"trash"}},"type":"Feature"},
	{"geometry":{"coordinates":[15.607098,48.414289],"type":"Point"},"properties":{"osm_id":"7236508307","tag":{"amenity":"waste_basket","waste":"trash"}},"type":"Feature"},
	{"geometry":{"coordinates":[15.609475,48.416729],"type":"Point"},"properties":{"osm_id":"7236508309","tag":{"amenity":"waste_basket","waste":"trash"}},"type":"Feature"},
	{"geometry":{"coordinates":[15.609272,48.418705],"type":"Point"},"properties":{"osm_id":"7236508311","tag":{"amenity":"waste_basket","waste":"trash"}},"type":"Feature"},
	{"geometry":{"coordinates":[15.589447,48.430751],"type":"Point"},"properties":{"osm_id":"7236508312","tag":{"amenity":"waste_basket","waste":"trash"}},"type":"Feature"},
	{"geometry":{"coordinates":[15.59128,48.403746],"type":"Point"},"properties":{"osm_id":"7237425017","tag":{"amenity":"recycling","operator":"Humana","recycling:clothes":"yes","recycling:shoes":"yes","recycling_type":"container"}},"type":"Feature"},
	{"geometry":{"coordinates":[15.59225,48.419868],"type":"Point"},"properties":{"osm_id":"7240766074","tag":{"amenity":"waste_basket","waste":"trash"}},"type":"Feature"},
	{"geometry":{"coordinates":[15.596225,48.409216],"type":"Point"},"properties":{"osm_id":"7242902358","tag":{"amenity":"waste_basket","waste":"trash"}},"type":"Feature"},
	{"geometry":{"coordinates":[15.596895,48.410073],"type":"Point"},"properties":{"osm_id":"7242902361","tag":{"amenity":"waste_basket","waste":"trash"}},"type":"Feature"},
	{"geometry":{"coordinates":[15.581028,48.435797],"type":"Point"},"properties":{"osm_id":"7259063997","tag":{"amenity":"waste_basket","waste":"trash"}},"type":"Feature"},
	{"geometry":{"coordinates":[15.601975,48.450061],"type":"Point"},"properties":{"osm_id":"7724480102","tag":{"amenity":"waste_basket"}},"type":"Feature"}
]
}
