{
"type": "FeatureCollection",
"features": [
	{"geometry":{"coordinates":[15.640803,48.355627],"type":"Point"},"properties":{"osm_id":"301817896","tag":{"amenity":"recycling","recycling:glass_bottles":"yes","recycling_type":"container"}},"type":"Feature"},
	{"geometry":{"coordinates":[15.643424,48.368318],"type":"Point"},"properties":{"osm_id":"305349612","tag":{"amenity":"recycling","recycling:glass_bottles":"yes","recycling_type":"container"}},"type":"Feature"},
	{"geometry":{"coordinates":[15.62218,48.354184],"type":"Point"},"properties":{"osm_id":"310253942","tag":{"amenity":"recycling","recycling:glass":"yes","recycling:scrap_metal":"yes"}},"type":"Feature"},
	{"geometry":{"coordinates":[15.63383,48.378263],"type":"Point"},"properties":{"osm_id":"310263768","tag":{"amenity":"recycling","recycling:glass":"yes","recycling:scrap_metal":"yes"}},"type":"Feature"},
	{"geometry":{"coordinates":[15.564062,48.371619],"type":"Point"},"properties":{"osm_id":"2345918086","tag":{"amenity":"waste_basket"}},"type":"Feature"},
	{"geometry":{"coordinates":[15.572375,48.394058],"type":"Point"},"properties":{"osm_id":"2352718897","tag":{"amenity":"waste_basket"}},"type":"Feature"},
	{"geometry":{"coordinates":[15.568759,48.392273],"type":"Point"},"properties":{"osm_id":"2352718900","tag":{"amenity":"waste_basket"}},"type":"Feature"},
	{"geometry":{"coordinates":[15.576679,48.385524],"type":"Point"},"properties":{"osm_id":"2372558355","tag":{"amenity":"waste_basket"}},"type":"Feature"},
	{"geometry":{"coordinates":[15.558953,48.369014],"type":"Point"},"properties":{"osm_id":"2385828257","tag":{"amenity":"waste_basket"}},"type":"Feature"},
	{"geometry":{"coordinates":[15.60705,48.383802],"type":"Point"},"properties":{"osm_id":"2386934024","tag":{"amenity":"recycling","recycling:glass_bottles":"yes","recycling_type":"container"}},"type":"Feature"},
	{"geometry":{"coordinates":[15.606305,48.384075],"type":"Point"},"properties":{"osm_id":"2386936544","tag":{"amenity":"waste_basket"}},"type":"Feature"},
	{"geometry":{"coordinates":[15.593787,48.394207],"type":"Point"},"properties":{"osm_id":"2387959953","tag":{"amenity":"waste_basket"}},"type":"Feature"},
	{"geometry":{"coordinates":[15.572029,48.380079],"type":"Point"},"properties":{"osm_id":"2398380526","tag":{"amenity":"waste_basket"}},"type":"Feature"},
	{"geometry":{"coordinates":[15.573414,48.380219],"type":"Point"},"properties":{"osm_id":"2398380549","tag":{"amenity":"waste_basket"}},"type":"Feature"},
	{"geometry":{"coordinates":[15.576106,48.380133],"type":"Point"},"properties":{"osm_id":"2398380551","tag":{"amenity":"waste_basket"}},"type":"Feature"},
	{"geometry":{"coordinates":[15.577091,48.384154],"type":"Point"},"properties":{"osm_id":"2398380565","tag":{"amenity":"waste_basket"}},"type":"Feature"},
	{"geometry":{"coordinates":[15.576791,48.396493],"type":"Point"},"properties":{"osm_id":"2472351080","tag":{"amenity":"waste_basket","leisure":"picnic_table"}},"type":"Feature"},
	{"geometry":{"coordinates":[15.581496,48.397547],"type":"Point"},"properties":{"osm_id":"2472351092","tag":{"amenity":"waste_basket"}},"type":"Feature"},
	{"geometry":{"coordinates":[15.57856,48.396981],"type":"Point"},"properties":{"osm_id":"2472351095","tag":{"amenity":"waste_basket"}},"type":"Feature"},
	{"geometry":{"coordinates":[15.588411,48.396595],"type":"Point"},"properties":{"osm_id":"2475213595","tag":{"amenity":"waste_basket","fee":"no","payment:none":"yes","vending":"excrement_bags"}},"type":"Feature"},
	{"geometry":{"coordinates":[15.575179,48.400004],"type":"Point"},"properties":{"osm_id":"2582404991","tag":{"amenity":"waste_basket"}},"type":"Feature"},
	{"geometry":{"coordinates":[15.612388,48.365511],"type":"Point"},"properties":{"osm_id":"2595388645","tag":{"amenity":"waste_basket"}},"type":"Feature"},
	{"geometry":{"coordinates":[15.593302,48.397494],"type":"Point"},"properties":{"osm_id":"3068844650","tag":{"amenity":"recycling","recycling:animal_waste":"yes","recycling_type":"container"}},"type":"Feature"},
	{"geometry":{"coordinates":[15.58119,48.374048],"type":"Point"},"properties":{"osm_id":"3168899435","tag":{"amenity":"waste_basket"}},"type":"Feature"},
	{"geometry":{"coordinates":[15.586871,48.392441],"type":"Point"},"properties":{"osm_id":"3171345495","tag":{"access":"no","amenity":"recycling","recycling:cans":"yes","recycling:cardboard":"yes","recycling:glass_bottles":"yes","recycling:paper":"yes","recycling:plastic_bottles":"yes","recycling_type":"container"}},"type":"Feature"},
	{"geometry":{"coordinates":[15.587804,48.392313],"type":"Point"},"properties":{"osm_id":"3183193945","tag":{"access":"no","amenity":"recycling","recycling:cans":"yes","recycling:cardboard":"yes","recycling:glass_bottles":"yes","recycling:paper":"yes","recycling:plastic_bottles":"yes","recycling_type":"container"}},"type":"Feature"},
	{"geometry":{"coordinates":[15.585943,48.392573],"type":"Point"},"properties":{"osm_id":"3183193949","tag":{"access":"no","amenity":"recycling","recycling:cans":"yes","recycling:cardboard":"yes","recycling:glass_bottles":"yes","recycling:paper":"yes","recycling:plastic_bottles":"yes","recycling_type":"container"}},"type":"Feature"},
	{"geometry":{"coordinates":[15.588658,48.392163],"type":"Point"},"properties":{"osm_id":"3197717199","tag":{"access":"no","amenity":"recycling","recycling:cans":"yes","recycling:cardboard":"yes","recycling:glass_bottles":"yes","recycling:paper":"yes","recycling:plastic_bottles":"yes","recycling_type":"container"}},"type":"Feature"},
	{"geometry":{"coordinates":[15.58709,48.386771],"type":"Point"},"properties":{"osm_id":"3370847546","tag":{"amenity":"waste_basket"}},"type":"Feature"},
	{"geometry":{"coordinates":[15.576808,48.387629],"type":"Point"},"properties":{"osm_id":"4157705754","tag":{"amenity":"recycling","recycling:cans":"yes","recycling:glass_bottles":"yes","recycling_type":"container"}},"type":"Feature"},
	{"geometry":{"coordinates":[15.584309,48.395865],"type":"Point"},"properties":{"osm_id":"4167971249","tag":{"amenity":"recycling","recycling:cans":"yes","recycling:glass_bottles":"yes","recycling_type":"container"}},"type":"Feature"},
	{"geometry":{"coordinates":[15.573039,48.386677],"type":"Point"},"properties":{"osm_id":"4173028289","tag":{"amenity":"recycling","recycling:cans":"yes","recycling:glass_bottles":"yes","recycling_type":"container"}},"type":"Feature"},
	{"geometry":{"coordinates":[15.581116,48.391231],"type":"Point"},"properties":{"osm_id":"4173028290","tag":{"amenity":"recycling","recycling:cans":"yes","recycling:glass_bottles":"yes","recycling_type":"container"}},"type":"Feature"},
	{"geometry":{"coordinates":[15.629601,48.354099],"type":"Point"},"properties":{"osm_id":"4190550317","tag":{"amenity":"waste_basket"}},"type":"Feature"},
	{"geometry":{"coordinates":[15.637565,48.354624],"type":"Point"},"properties":{"osm_id":"4190550333","tag":{"amenity":"waste_basket"}},"type":"Feature"},
	{"geometry":{"coordinates":[15.595949,48.374867],"type":"Point"},"properties":{"osm_id":"4190550343","tag":{"amenity":"waste_basket"}},"type":"Feature"},
	{"geometry":{"coordinates":[15.595787,48.375686],"type":"Point"},"properties":{"osm_id":"4190550344","tag":{"amenity":"waste_basket"}},"type":"Feature"},
	{"geometry":{"coordinates":[15.559773,48.382745],"type":"Point"},"properties":{"osm_id":"4192266759","tag":{"amenity":"recycling","recycling:cans":"yes","recycling:glass_bottles":"yes","recycling_type":"container"}},"type":"Feature"},
	{"geometry":{"coordinates":[15.562258,48.387044],"type":"Point"},"properties":{"osm_id":"4192266779","tag":{"amenity":"recycling","recycling:cans":"yes","recycling:glass_bottles":"yes","recycling_type":"container"}},"type":"Feature"},
	{"geometry":{"coordinates":[15.559157,48.38869],"type":"Point"},"properties":{"osm_id":"4192266801","tag":{"amenity":"waste_basket"}},"type":"Feature"},
	{"geometry":{"coordinates":[15.561019,48.388905],"type":"Point"},"properties":{"osm_id":"4192266803","tag":{"amenity":"recycling","recycling_type":"container"}},"type":"Feature"},
	{"geometry":{"coordinates":[15.568982,48.371621],"type":"Point"},"properties":{"osm_id":"4193251530","tag":{"amenity":"waste_basket"}},"type":"Feature"},
	{"geometry":{"coordinates":[15.569782,48.375039],"type":"Point"},"properties":{"osm_id":"4193251541","tag":{"amenity":"waste_basket"}},"type":"Feature"},
	{"geometry":{"coordinates":[15.576773,48.382547],"type":"Point"},"properties":{"osm_id":"4193251548","tag":{"amenity":"waste_basket"}},"type":"Feature"},
	{"geometry":{"coordinates":[15.582653,48.38604],"type":"Point"},"properties":{"osm_id":"4193251552","tag":{"amenity":"waste_basket"}},"type":"Feature"},
	{"geometry":{"coordinates":[15.575871,48.390745],"type":"Point"},"properties":{"osm_id":"4219259078","tag":{"amenity":"recycling","recycling:cans":"yes","recycling:glass_bottles":"yes","recycling_type":"container"}},"type":"Feature"},
	{"geometry":{"coordinates":[15.585,48.392683],"type":"Point"},"properties":{"osm_id":"4283859505","tag":{"access":"no","amenity":"recycling","recycling:cans":"yes","recycling:cardboard":"yes","recycling:glass_bottles":"yes","recycling:paper":"yes","recycling:plastic_bottles":"yes","recycling_type":"container"}},"type":"Feature"},
	{"geometry":{"coordinates":[15.572517,48.394037],"type":"Point"},"properties":{"osm_id":"4288545122","tag":{"amenity":"recycling","recycling:cans":"yes","recycling:glass_bottles":"yes","recycling_type":"container"}},"type":"Feature"},
	{"geometry":{"coordinates":[15.593519,48.397602],"type":"Point"},"properties":{"osm_id":"4705624289","tag":{"amenity":"recycling","recycling:cans":"yes","recycling:glass_bottles":"yes","recycling_type":"container"}},"type":"Feature"},
	{"geometry":{"coordinates":[15.626698,48.3513],"type":"Point"},"properties":{"osm_id":"4803239505","tag":{"amenity":"recycling","recycling:green_waste":"yes","recycling_type":"container"}},"type":"Feature"},
	{"geometry":{"coordinates":[15.626192,48.352056],"type":"Point"},"properties":{"osm_id":"4803239512","tag":{"amenity":"recycling","recycling:cans":"yes","recycling:glass_bottles":"yes","recycling:plastic":"yes","recycling:plastic_bottles":"yes","recycling:plastic_packaging":"yes","recycling:waste":"yes","recycling_type":"container"}},"type":"Feature"},
	{"geometry":{"coordinates":[15.603735,48.375237],"type":"Point"},"properties":{"osm_id":"5319014768","tag":{"amenity":"waste_basket"}},"type":"Feature"},
	{"geometry":{"coordinates":[15.571728,48.380135],"type":"Point"},"properties":{"osm_id":"5319295080","tag":{"amenity":"waste_basket"}},"type":"Feature"},
	{"geometry":{"coordinates":[15.57178,48.380163],"type":"Point"},"properties":{"osm_id":"5319295081","tag":{"amenity":"waste_basket"}},"type":"Feature"},
	{"geometry":{"coordinates":[15.575696,48.38058],"type":"Point"},"properties":{"osm_id":"5339497978","tag":{"amenity":"waste_basket"}},"type":"Feature"},
	{"geometry":{"coordinates":[15.585701,48.395916],"type":"Point"},"properties":{"osm_id":"5607734018","tag":{"amenity":"waste_basket","waste":"trash"}},"type":"Feature"},
	{"geometry":{"coordinates":[15.612901,48.351846],"type":"Point"},"properties":{"osm_id":"5981665300","tag":{"amenity":"waste_basket"}},"type":"Feature"},
	{"geometry":{"coordinates":[15.621619,48.352711],"type":"Point"},"properties":{"osm_id":"6008177888","tag":{"amenity":"waste_basket","waste":"trash"}},"type":"Feature"},
	{"geometry":{"coordinates":[15.621997,48.3479],"type":"Point"},"properties":{"osm_id":"6161065437","tag":{"amenity":"waste_basket"}},"type":"Feature"},
	{"geometry":{"coordinates":[15.582807,48.391678],"type":"Point"},"properties":{"osm_id":"6203340965","tag":{"amenity":"waste_basket"}},"type":"Feature"},
	{"geometry":{"coordinates":[15.608628,48.361663],"type":"Point"},"properties":{"osm_id":"6539399652","tag":{"amenity":"recycling","recycling:cans":"yes","recycling:glass_bottles":"yes","recycling_type":"container"}},"type":"Feature"},
	{"geometry":{"coordinates":[15.613822,48.364403],"type":"Point"},"properties":{"osm_id":"6539399682","tag":{"amenity":"waste_basket"}},"type":"Feature"},
	{"geometry":{"coordinates":[15.582021,48.386201],"type":"Point"},"properties":{"osm_id":"6700717023","tag":{"amenity":"recycling","recycling:cans":"yes","recycling:glass_bottles":"yes","recycling_type":"container"}},"type":"Feature"},
	{"geometry":{"coordinates":[15.572887,48.399585],"type":"Point"},"properties":{"osm_id":"6780585825","tag":{"amenity":"recycling","operator":"Stadt Krems","recycling:cans":"yes","recycling:glass_bottles":"yes","recycling:paper":"yes","recycling:plastic_bottles":"yes","recycling_type":"container","website":"https://www.krems.gv.at/system/web/zusatzseite.aspx?detailonr=162563569"}},"type":"Feature"},
	{"geometry":{"coordinates":[15.632249,48.385337],"type":"Point"},"properties":{"osm_id":"7176270635","tag":{"amenity":"recycling","operator":"Stadt Krems","recycling:paper":"yes","recycling_type":"container"}},"type":"Feature"},
	{"geometry":{"coordinates":[15.63038,48.386963],"type":"Point"},"properties":{"osm_id":"7195351073","tag":{"amenity":"recycling","operator":"Stadt Krems","recycling:cans":"yes","recycling:glass_bottles":"yes","recycling:paper":"yes","recycling:plastic_bottles":"yes","recycling_type":"container","website":"http://www.krems.gv.at/system/web/zusatzseite.aspx?detailonr=162563569"}},"type":"Feature"},
	{"geometry":{"coordinates":[15.625699,48.352165],"type":"Point"},"properties":{"osm_id":"7667316101","tag":{"amenity":"waste_basket"}},"type":"Feature"}
]
}
