{
"type": "FeatureCollection",
"features": [
	{"geometry":{"coordinates":[15.640766,48.220525],"type":"Point"},"properties":{"osm_id":"324291337","tag":{"amenity":"recycling","recycling:batteries":"yes","recycling:cans":"yes","recycling:clothes":"yes","recycling:glass":"yes","recycling:paper":"yes","recycling:scrap_metal":"yes"}},"type":"Feature"},
	{"geometry":{"coordinates":[15.62828,48.203893],"type":"Point"},"properties":{"osm_id":"723973267","tag":{"amenity":"recycling","recycling:cans":"yes","recycling:clothes":"yes","recycling:glass":"yes","recycling:glass_bottles":"yes","recycling:paper":"yes","recycling_type":"container"}},"type":"Feature"},
	{"geometry":{"coordinates":[15.632096,48.18895],"type":"Point"},"properties":{"osm_id":"1494161536","tag":{"amenity":"recycling","recycling:green_waste":"yes","recycling_type":"container"}},"type":"Feature"},
	{"geometry":{"coordinates":[15.608047,48.203619],"type":"Point"},"properties":{"name":"Gr\u00c3\u00bcnabfall","osm_id":"1494162085","tag":{"amenity":"recycling","recycling:cans":"no","recycling:clothes":"no","recycling:glass":"no","recycling:green_waste":"yes","recycling:paper":"no","recycling_type":"container"}},"type":"Feature"},
	{"geometry":{"coordinates":[15.634353,48.177134],"type":"Point"},"properties":{"osm_id":"1600684201","tag":{"amenity":"recycling"}},"type":"Feature"},
	{"geometry":{"coordinates":[15.63519,48.183873],"type":"Point"},"properties":{"osm_id":"1600684237","tag":{"amenity":"recycling"}},"type":"Feature"},
	{"geometry":{"coordinates":[15.644058,48.204939],"type":"Point"},"properties":{"osm_id":"1657818876","tag":{"amenity":"recycling","recycling_type":"container"}},"type":"Feature"},
	{"geometry":{"coordinates":[15.643468,48.205055],"type":"Point"},"properties":{"osm_id":"1657818891","tag":{"amenity":"recycling","recycling_type":"container"}},"type":"Feature"},
	{"geometry":{"coordinates":[15.642297,48.199511],"type":"Point"},"properties":{"osm_id":"1661029108","tag":{"amenity":"recycling","recycling:glass_bottles":"yes","recycling_type":"container"}},"type":"Feature"},
	{"geometry":{"coordinates":[15.611247,48.200823],"type":"Point"},"properties":{"osm_id":"1666529394","tag":{"amenity":"waste_basket"}},"type":"Feature"},
	{"geometry":{"coordinates":[15.611712,48.202557],"type":"Point"},"properties":{"osm_id":"1666529426","tag":{"amenity":"waste_basket"}},"type":"Feature"},
	{"geometry":{"coordinates":[15.613349,48.203315],"type":"Point"},"properties":{"osm_id":"1666529497","tag":{"amenity":"waste_basket"}},"type":"Feature"},
	{"geometry":{"coordinates":[15.612856,48.203288],"type":"Point"},"properties":{"osm_id":"1666529501","tag":{"amenity":"waste_basket"}},"type":"Feature"},
	{"geometry":{"coordinates":[15.612204,48.204271],"type":"Point"},"properties":{"osm_id":"1666529561","tag":{"amenity":"waste_basket"}},"type":"Feature"},
	{"geometry":{"coordinates":[15.61039,48.20439],"type":"Point"},"properties":{"osm_id":"1666529569","tag":{"amenity":"waste_basket"}},"type":"Feature"},
	{"geometry":{"coordinates":[15.615245,48.205313],"type":"Point"},"properties":{"osm_id":"1666529601","tag":{"amenity":"recycling","recycling:clothes":"yes","recycling_type":"container"}},"type":"Feature"},
	{"geometry":{"coordinates":[15.621364,48.20676],"type":"Point"},"properties":{"osm_id":"1666815036","tag":{"amenity":"recycling","recycling:paper":"yes","recycling_type":"container"}},"type":"Feature"},
	{"geometry":{"coordinates":[15.609564,48.198965],"type":"Point"},"properties":{"osm_id":"1669482174","tag":{"amenity":"waste_basket"}},"type":"Feature"},
	{"geometry":{"coordinates":[15.610632,48.199377],"type":"Point"},"properties":{"osm_id":"1669482185","tag":{"amenity":"waste_basket"}},"type":"Feature"},
	{"geometry":{"coordinates":[15.612258,48.199949],"type":"Point"},"properties":{"osm_id":"1669482196","tag":{"amenity":"waste_basket"}},"type":"Feature"},
	{"geometry":{"coordinates":[15.610232,48.200407],"type":"Point"},"properties":{"osm_id":"1669482214","tag":{"amenity":"waste_basket"}},"type":"Feature"},
	{"geometry":{"coordinates":[15.610691,48.20051],"type":"Point"},"properties":{"osm_id":"1669482216","tag":{"amenity":"waste_basket"}},"type":"Feature"},
	{"geometry":{"coordinates":[15.610686,48.200927],"type":"Point"},"properties":{"osm_id":"1669482226","tag":{"amenity":"waste_basket"}},"type":"Feature"},
	{"geometry":{"coordinates":[15.610656,48.20132],"type":"Point"},"properties":{"osm_id":"1669482230","tag":{"amenity":"waste_basket"}},"type":"Feature"},
	{"geometry":{"coordinates":[15.610616,48.201679],"type":"Point"},"properties":{"osm_id":"1669482244","tag":{"amenity":"waste_basket"}},"type":"Feature"},
	{"geometry":{"coordinates":[15.608757,48.20198],"type":"Point"},"properties":{"osm_id":"1669482258","tag":{"amenity":"waste_basket"}},"type":"Feature"},
	{"geometry":{"coordinates":[15.610578,48.202029],"type":"Point"},"properties":{"osm_id":"1669482263","tag":{"amenity":"waste_basket"}},"type":"Feature"},
	{"geometry":{"coordinates":[15.610529,48.202701],"type":"Point"},"properties":{"osm_id":"1669482287","tag":{"amenity":"waste_basket"}},"type":"Feature"},
	{"geometry":{"coordinates":[15.608565,48.202761],"type":"Point"},"properties":{"osm_id":"1669482289","tag":{"amenity":"waste_basket"}},"type":"Feature"},
	{"geometry":{"coordinates":[15.610491,48.203172],"type":"Point"},"properties":{"osm_id":"1669482301","tag":{"amenity":"waste_basket"}},"type":"Feature"},
	{"geometry":{"coordinates":[15.609537,48.204092],"type":"Point"},"properties":{"osm_id":"1669482339","tag":{"amenity":"waste_basket"}},"type":"Feature"},
	{"geometry":{"coordinates":[15.612066,48.204907],"type":"Point"},"properties":{"osm_id":"1669482357","tag":{"amenity":"waste_basket"}},"type":"Feature"},
	{"geometry":{"coordinates":[15.608288,48.204916],"type":"Point"},"properties":{"osm_id":"1669482358","tag":{"amenity":"waste_basket"}},"type":"Feature"},
	{"geometry":{"coordinates":[15.608247,48.205174],"type":"Point"},"properties":{"osm_id":"1669482372","tag":{"amenity":"waste_basket"}},"type":"Feature"},
	{"geometry":{"coordinates":[15.614139,48.205281],"type":"Point"},"properties":{"osm_id":"1669482378","tag":{"amenity":"waste_basket"}},"type":"Feature"},
	{"geometry":{"coordinates":[15.610999,48.206273],"type":"Point"},"properties":{"osm_id":"1669482424","tag":{"amenity":"waste_basket"}},"type":"Feature"},
	{"geometry":{"coordinates":[15.610164,48.206378],"type":"Point"},"properties":{"osm_id":"1669482427","tag":{"amenity":"waste_basket"}},"type":"Feature"},
	{"geometry":{"coordinates":[15.608207,48.206499],"type":"Point"},"properties":{"osm_id":"1669482429","tag":{"amenity":"waste_basket"}},"type":"Feature"},
	{"geometry":{"coordinates":[15.609571,48.207088],"type":"Point"},"properties":{"osm_id":"1669482440","tag":{"amenity":"waste_basket"}},"type":"Feature"},
	{"geometry":{"coordinates":[15.638897,48.179811],"type":"Point"},"properties":{"name":"Glas, Dosen, Altkleider","osm_id":"1986410695","tag":{"amenity":"recycling","recycling:cans":"yes","recycling:clothes":"yes","recycling:glass":"yes","recycling:glass_bottles":"yes","recycling:scrap_metal":"yes","recycling_type":"container"}},"type":"Feature"},
	{"geometry":{"coordinates":[15.625206,48.202345],"type":"Point"},"properties":{"osm_id":"2031713191","tag":{"amenity":"recycling","recycling:paper":"yes","recycling_type":"container"}},"type":"Feature"},
	{"geometry":{"coordinates":[15.626673,48.202241],"type":"Point"},"properties":{"osm_id":"2031713192","tag":{"amenity":"recycling","recycling:paper":"yes","recycling:plastic":"yes","recycling_type":"container"}},"type":"Feature"},
	{"geometry":{"coordinates":[15.639843,48.186939],"type":"Point"},"properties":{"osm_id":"2778259415","tag":{"amenity":"recycling","recycling:cans":"yes","recycling:glass":"yes"}},"type":"Feature"},
	{"geometry":{"coordinates":[15.585166,48.175076],"type":"Point"},"properties":{"osm_id":"3098566394","tag":{"amenity":"recycling","recycling:glass":"yes","recycling_type":"container"}},"type":"Feature"},
	{"geometry":{"coordinates":[15.640876,48.223284],"type":"Point"},"properties":{"osm_id":"3387766057","tag":{"amenity":"waste_basket"}},"type":"Feature"},
	{"geometry":{"coordinates":[15.644454,48.224222],"type":"Point"},"properties":{"osm_id":"3387766058","tag":{"amenity":"waste_basket"}},"type":"Feature"},
	{"geometry":{"coordinates":[15.640246,48.223251],"type":"Point"},"properties":{"osm_id":"3389749407","tag":{"amenity":"waste_basket"}},"type":"Feature"},
	{"geometry":{"coordinates":[15.641018,48.223454],"type":"Point"},"properties":{"osm_id":"3389749412","tag":{"amenity":"waste_basket"}},"type":"Feature"},
	{"geometry":{"coordinates":[15.640834,48.223479],"type":"Point"},"properties":{"osm_id":"3389749415","tag":{"amenity":"waste_basket"}},"type":"Feature"},
	{"geometry":{"coordinates":[15.606892,48.210194],"type":"Point"},"properties":{"osm_id":"3704397276","tag":{"amenity":"recycling","recycling:cans":"yes","recycling:clothes":"yes","recycling:glass":"yes","recycling:paper":"no"}},"type":"Feature"},
	{"geometry":{"coordinates":[15.622977,48.177696],"type":"Point"},"properties":{"osm_id":"4769571921","tag":{"amenity":"waste_basket"}},"type":"Feature"},
	{"geometry":{"coordinates":[15.618042,48.188413],"type":"Point"},"properties":{"osm_id":"4797841522","tag":{"amenity":"waste_basket"}},"type":"Feature"},
	{"geometry":{"coordinates":[15.638995,48.224098],"type":"Point"},"properties":{"osm_id":"5137186455","tag":{"amenity":"waste_basket"}},"type":"Feature"},
	{"geometry":{"coordinates":[15.638445,48.224171],"type":"Point"},"properties":{"osm_id":"5137186462","tag":{"amenity":"waste_basket"}},"type":"Feature"},
	{"geometry":{"coordinates":[15.638298,48.224287],"type":"Point"},"properties":{"osm_id":"5137186464","tag":{"amenity":"waste_basket"}},"type":"Feature"},
	{"geometry":{"coordinates":[15.63834,48.224382],"type":"Point"},"properties":{"osm_id":"5137186466","tag":{"amenity":"waste_basket"}},"type":"Feature"},
	{"geometry":{"coordinates":[15.633144,48.215589],"type":"Point"},"properties":{"osm_id":"5137186478","tag":{"amenity":"waste_basket"}},"type":"Feature"},
	{"geometry":{"coordinates":[15.626586,48.183216],"type":"Point"},"properties":{"osm_id":"5818382860","tag":{"amenity":"recycling","recycling:batteries":"yes","recycling:cans":"yes","recycling:clothes":"yes","recycling:glass":"yes","recycling:paper":"yes","recycling:scrap_metal":"yes","recycling_type":"centre"}},"type":"Feature"},
	{"geometry":{"coordinates":[15.637508,48.208373],"type":"Point"},"properties":{"osm_id":"7417070273","tag":{"amenity":"waste_basket"}},"type":"Feature"},
	{"geometry":{"coordinates":[15.637537,48.208469],"type":"Point"},"properties":{"osm_id":"7417070276","tag":{"amenity":"waste_basket"}},"type":"Feature"},
	{"geometry":{"coordinates":[15.63725,48.2083],"type":"Point"},"properties":{"osm_id":"7417071385","tag":{"amenity":"recycling","recycling:glass_bottles":"yes","recycling_type":"container"}},"type":"Feature"},
	{"geometry":{"coordinates":[15.639561,48.210708],"type":"Point"},"properties":{"osm_id":"7417071387","tag":{"amenity":"recycling","recycling:glass_bottles":"yes","recycling_type":"container"}},"type":"Feature"},
	{"geometry":{"coordinates":[15.641351,48.213676],"type":"Point"},"properties":{"osm_id":"7417071397","tag":{"amenity":"recycling","recycling:glass_bottles":"yes","recycling_type":"container"}},"type":"Feature"},
	{"geometry":{"coordinates":[15.643678,48.215818],"type":"Point"},"properties":{"osm_id":"7417071407","tag":{"amenity":"waste_basket"}},"type":"Feature"},
	{"geometry":{"coordinates":[15.629168,48.207061],"type":"Point"},"properties":{"osm_id":"7417435313","tag":{"amenity":"waste_basket"}},"type":"Feature"},
	{"geometry":{"coordinates":[15.629113,48.20735],"type":"Point"},"properties":{"osm_id":"7417435314","tag":{"amenity":"waste_basket"}},"type":"Feature"},
	{"geometry":{"coordinates":[15.629176,48.207166],"type":"Point"},"properties":{"osm_id":"7417435315","tag":{"amenity":"waste_basket"}},"type":"Feature"},
	{"geometry":{"coordinates":[15.628697,48.207543],"type":"Point"},"properties":{"osm_id":"7417435320","tag":{"amenity":"waste_basket"}},"type":"Feature"},
	{"geometry":{"coordinates":[15.627451,48.207623],"type":"Point"},"properties":{"osm_id":"7417435322","tag":{"amenity":"waste_basket"}},"type":"Feature"},
	{"geometry":{"coordinates":[15.626596,48.20769],"type":"Point"},"properties":{"osm_id":"7417435342","tag":{"amenity":"waste_basket"}},"type":"Feature"},
	{"geometry":{"coordinates":[15.62646,48.207507],"type":"Point"},"properties":{"osm_id":"7417435344","tag":{"amenity":"recycling","recycling:paper":"yes","recycling_type":"container"}},"type":"Feature"}
]
}
