{
"type": "FeatureCollection",
"features": [
	{"geometry":{"coordinates":[15.606536,48.107679],"type":"Point"},"properties":{"osm_id":"1408876705","tag":{"amenity":"recycling"}},"type":"Feature"},
	{"geometry":{"coordinates":[15.61127,48.112258],"type":"Point"},"properties":{"osm_id":"7923786047","tag":{"amenity":"recycling","operator":"GVU St.P\u00c3\u00b6lten","recycling_type":"container"}},"type":"Feature"},
	{"geometry":{"coordinates":[15.60976,48.11242],"type":"Point"},"properties":{"name":"Wertstoffzentrum (WSZ) Traisental","osm_id":"7923786048","tag":{"addr:city":"Wilhelmsburg","addr:housenumber":"17","addr:postcode":"3150","addr:street":"Industriegebiet-Burgerfeld","amenity":"recycling","building":"roof","operator":"GVU St. P\u00c3\u00b6lten","operator:type":"public","recycling_type":"centre","website":"https://stpoeltenland.umweltverbaende.at/?portal=verband&vb=pl&kat=34&ad_id=270&ad_art=asz&tpl=109"}},"type":"Feature"},
	{"geometry":{"coordinates":[15.619104,48.153277],"type":"Point"},"properties":{"name":"WSZ 4","osm_id":"8434772045","tag":{"addr:city":"St. P\u00c3\u00b6lten","addr:postcode":"3100","addr:street":"Georg-Sigl-Stra\u00c3\u009fe","amenity":"recycling","operator":"Magistrat der Stadt St. P\u00c3\u00b6lten","recycling:batteries":"yes","recycling:cans":"yes","recycling:clothes":"yes","recycling:glass":"yes","recycling:paper":"yes","recycling:scrap_metal":"yes","recycling_type":"centre"}},"type":"Feature"},
	{"geometry":{"coordinates":[15.612475,48.152403],"type":"Point"},"properties":{"osm_id":"9176946623","tag":{"amenity":"waste_basket"}},"type":"Feature"},
	{"geometry":{"coordinates":[15.610388,48.152093],"type":"Point"},"properties":{"osm_id":"9176946631","tag":{"amenity":"waste_basket"}},"type":"Feature"},
	{"geometry":{"coordinates":[15.609672,48.152301],"type":"Point"},"properties":{"osm_id":"9176946639","tag":{"amenity":"waste_basket"}},"type":"Feature"},
	{"geometry":{"coordinates":[15.60956,48.152498],"type":"Point"},"properties":{"osm_id":"9176946640","tag":{"amenity":"recycling","recycling:glass":"yes","recycling_type":"container"}},"type":"Feature"},
	{"geometry":{"coordinates":[15.609776,48.152659],"type":"Point"},"properties":{"osm_id":"9176946641","tag":{"amenity":"recycling","recycling_type":"container"}},"type":"Feature"},
	{"geometry":{"coordinates":[15.613619,48.165181],"type":"Point"},"properties":{"osm_id":"9176973752","tag":{"amenity":"waste_basket"}},"type":"Feature"},
	{"geometry":{"coordinates":[15.606549,48.165141],"type":"Point"},"properties":{"osm_id":"9178841286","tag":{"amenity":"waste_basket"}},"type":"Feature"},
	{"geometry":{"coordinates":[15.606416,48.164257],"type":"Point"},"properties":{"osm_id":"9178841290","tag":{"amenity":"waste_basket"}},"type":"Feature"},
	{"geometry":{"coordinates":[15.613754,48.165273],"type":"Point"},"properties":{"osm_id":"9178841291","tag":{"amenity":"waste_basket"}},"type":"Feature"}
]
}
