{
"type": "FeatureCollection",
"features": [
	{"geometry":{"coordinates":[15.558016,47.01225],"type":"Point"},"properties":{"osm_id":"304626733","tag":{"amenity":"recycling"}},"type":"Feature"},
	{"geometry":{"coordinates":[15.566851,46.982173],"type":"Point"},"properties":{"osm_id":"3240139261","tag":{"amenity":"waste_disposal"}},"type":"Feature"},
	{"geometry":{"coordinates":[15.623249,47.008221],"type":"Point"},"properties":{"osm_id":"4258232683","tag":{"amenity":"recycling","recycling:cans":"yes","recycling:glass_bottles":"yes","recycling_type":"container"}},"type":"Feature"},
	{"geometry":{"coordinates":[15.63034,47.023007],"type":"Point"},"properties":{"osm_id":"4258232684","tag":{"amenity":"recycling","recycling:cans":"yes","recycling:glass_bottles":"yes","recycling_type":"container"}},"type":"Feature"},
	{"geometry":{"coordinates":[15.625846,47.026487],"type":"Point"},"properties":{"osm_id":"4258232685","tag":{"amenity":"recycling","recycling:cans":"yes","recycling:glass_bottles":"yes","recycling_type":"container"}},"type":"Feature"},
	{"geometry":{"coordinates":[15.588009,47.036599],"type":"Point"},"properties":{"osm_id":"4258245792","tag":{"amenity":"recycling","recycling:cans":"yes","recycling:glass_bottles":"yes","recycling_type":"container"}},"type":"Feature"},
	{"geometry":{"coordinates":[15.593078,46.990452],"type":"Point"},"properties":{"osm_id":"4261039592","tag":{"amenity":"recycling","recycling:cans":"yes","recycling:glass_bottles":"yes","recycling_type":"container"}},"type":"Feature"},
	{"geometry":{"coordinates":[15.572801,47.028091],"type":"Point"},"properties":{"osm_id":"4261039593","tag":{"amenity":"recycling","recycling:cans":"yes","recycling:glass_bottles":"yes","recycling_type":"container"}},"type":"Feature"},
	{"geometry":{"coordinates":[15.579156,47.034814],"type":"Point"},"properties":{"osm_id":"4261039594","tag":{"amenity":"recycling","recycling:cans":"yes","recycling:glass_bottles":"yes","recycling_type":"container"}},"type":"Feature"},
	{"geometry":{"coordinates":[15.604897,47.016486],"type":"Point"},"properties":{"name":"Bauhof","osm_id":"4785059317","tag":{"addr:city":"Nestelbach bei Graz","addr:country":"AT","addr:place":"Edelsgrub","amenity":"recycling","recycling_type":"container"}},"type":"Feature"},
	{"geometry":{"coordinates":[15.625868,46.981193],"type":"Point"},"properties":{"osm_id":"7993266197","tag":{"amenity":"recycling","recycling:clothes":"yes","recycling_type":"container"}},"type":"Feature"}
]
}
