{
"type": "FeatureCollection",
"features": [
	{"geometry":{"coordinates":[144.930734,-37.7955],"type":"Point"},"properties":{"osm_id":"1076306973","tag":{"amenity":"waste_basket"}},"type":"Feature"},
	{"geometry":{"coordinates":[144.89889,-37.7931],"type":"Point"},"properties":{"osm_id":"2404366625","tag":{"amenity":"recycling"}},"type":"Feature"},
	{"geometry":{"coordinates":[144.899348,-37.792993],"type":"Point"},"properties":{"osm_id":"2404385999","tag":{"amenity":"recycling"}},"type":"Feature"},
	{"geometry":{"coordinates":[144.898466,-37.793424],"type":"Point"},"properties":{"osm_id":"2404617684","tag":{"amenity":"recycling"}},"type":"Feature"},
	{"geometry":{"coordinates":[144.899299,-37.79323],"type":"Point"},"properties":{"osm_id":"2404644506","tag":{"amenity":"recycling"}},"type":"Feature"},
	{"geometry":{"coordinates":[144.899016,-37.799061],"type":"Point"},"properties":{"osm_id":"2467264982","tag":{"amenity":"waste_basket"}},"type":"Feature"},
	{"geometry":{"coordinates":[144.928667,-37.788269],"type":"Point"},"properties":{"osm_id":"2517024759","tag":{"amenity":"recycling","location":"overground","recycling_type":"container"}},"type":"Feature"},
	{"geometry":{"coordinates":[144.90218,-37.794033],"type":"Point"},"properties":{"osm_id":"2631808043","tag":{"amenity":"waste_basket"}},"type":"Feature"},
	{"geometry":{"coordinates":[144.901087,-37.793239],"type":"Point"},"properties":{"osm_id":"2631808063","tag":{"amenity":"waste_basket"}},"type":"Feature"},
	{"geometry":{"coordinates":[144.904213,-37.793614],"type":"Point"},"properties":{"osm_id":"2631959408","tag":{"amenity":"waste_basket"}},"type":"Feature"},
	{"geometry":{"coordinates":[144.905054,-37.7933],"type":"Point"},"properties":{"osm_id":"2631959410","tag":{"amenity":"waste_basket"}},"type":"Feature"},
	{"geometry":{"coordinates":[144.904447,-37.794652],"type":"Point"},"properties":{"osm_id":"2631959414","tag":{"amenity":"waste_basket"}},"type":"Feature"},
	{"geometry":{"coordinates":[144.904245,-37.794622],"type":"Point"},"properties":{"osm_id":"2631959415","tag":{"amenity":"waste_basket"}},"type":"Feature"},
	{"geometry":{"coordinates":[144.902246,-37.790185],"type":"Point"},"properties":{"osm_id":"2708061477","tag":{"amenity":"waste_basket"}},"type":"Feature"},
	{"geometry":{"coordinates":[144.908787,-37.802171],"type":"Point"},"properties":{"osm_id":"2713476601","tag":{"amenity":"waste_basket"}},"type":"Feature"},
	{"geometry":{"coordinates":[144.892996,-37.839984],"type":"Point"},"properties":{"osm_id":"2713490215","tag":{"amenity":"waste_basket"}},"type":"Feature"},
	{"geometry":{"coordinates":[144.887957,-37.839467],"type":"Point"},"properties":{"osm_id":"2713490229","tag":{"amenity":"waste_basket"}},"type":"Feature"},
	{"geometry":{"coordinates":[144.883823,-37.842876],"type":"Point"},"properties":{"osm_id":"2713511802","tag":{"amenity":"waste_basket"}},"type":"Feature"},
	{"geometry":{"coordinates":[144.883923,-37.842835],"type":"Point"},"properties":{"osm_id":"2713511864","tag":{"amenity":"waste_basket"}},"type":"Feature"},
	{"geometry":{"coordinates":[144.87542,-37.855303],"type":"Point"},"properties":{"osm_id":"2713745815","tag":{"amenity":"waste_basket"}},"type":"Feature"},
	{"geometry":{"coordinates":[144.908376,-37.803047],"type":"Point"},"properties":{"osm_id":"2720130564","tag":{"amenity":"waste_basket"}},"type":"Feature"},
	{"geometry":{"coordinates":[144.919855,-37.836778],"type":"Point"},"properties":{"osm_id":"3702245150","tag":{"amenity":"waste_basket"}},"type":"Feature"},
	{"geometry":{"coordinates":[144.922496,-37.839435],"type":"Point"},"properties":{"osm_id":"3782879059","tag":{"amenity":"waste_basket"}},"type":"Feature"},
	{"geometry":{"coordinates":[144.848689,-37.82752],"type":"Point"},"properties":{"osm_id":"3928348514","tag":{"amenity":"waste_basket"}},"type":"Feature"},
	{"geometry":{"coordinates":[144.913647,-37.842829],"type":"Point"},"properties":{"osm_id":"4380159216","tag":{"amenity":"waste_basket"}},"type":"Feature"},
	{"geometry":{"coordinates":[144.915986,-37.84594],"type":"Point"},"properties":{"osm_id":"4380159220","tag":{"amenity":"waste_basket"}},"type":"Feature"},
	{"geometry":{"coordinates":[144.914247,-37.843632],"type":"Point"},"properties":{"osm_id":"4380159224","tag":{"amenity":"waste_basket"}},"type":"Feature"},
	{"geometry":{"coordinates":[144.912894,-37.841756],"type":"Point"},"properties":{"osm_id":"4380159227","tag":{"amenity":"waste_basket"}},"type":"Feature"},
	{"geometry":{"coordinates":[144.914805,-37.844385],"type":"Point"},"properties":{"osm_id":"4380159232","tag":{"amenity":"waste_basket"}},"type":"Feature"},
	{"geometry":{"coordinates":[144.913175,-37.842195],"type":"Point"},"properties":{"osm_id":"4380159235","tag":{"amenity":"waste_basket"}},"type":"Feature"},
	{"geometry":{"coordinates":[144.869205,-37.796141],"type":"Point"},"properties":{"osm_id":"4630859837","tag":{"amenity":"waste_basket"}},"type":"Feature"},
	{"geometry":{"coordinates":[144.875101,-37.792885],"type":"Point"},"properties":{"osm_id":"4630859844","tag":{"amenity":"waste_basket"}},"type":"Feature"},
	{"geometry":{"coordinates":[144.871576,-37.804534],"type":"Point"},"properties":{"osm_id":"4630891794","tag":{"amenity":"waste_basket"}},"type":"Feature"},
	{"geometry":{"coordinates":[144.897737,-37.801422],"type":"Point"},"properties":{"osm_id":"4723409110","tag":{"amenity":"waste_disposal","operator":"coles"}},"type":"Feature"},
	{"geometry":{"coordinates":[144.913352,-37.841211],"type":"Point"},"properties":{"osm_id":"4889691172","tag":{"amenity":"waste_basket"}},"type":"Feature"},
	{"geometry":{"coordinates":[144.885252,-37.817132],"type":"Point"},"properties":{"osm_id":"4997064514","tag":{"amenity":"waste_basket"}},"type":"Feature"},
	{"geometry":{"coordinates":[144.918837,-37.839568],"type":"Point"},"properties":{"osm_id":"5317440098","tag":{"amenity":"waste_basket"}},"type":"Feature"},
	{"geometry":{"coordinates":[144.916477,-37.839795],"type":"Point"},"properties":{"osm_id":"5317521979","tag":{"amenity":"waste_basket"}},"type":"Feature"},
	{"geometry":{"coordinates":[144.916388,-37.839739],"type":"Point"},"properties":{"osm_id":"5317522054","tag":{"amenity":"waste_basket"}},"type":"Feature"},
	{"geometry":{"coordinates":[144.916708,-37.839867],"type":"Point"},"properties":{"osm_id":"5317531103","tag":{"amenity":"waste_basket"}},"type":"Feature"},
	{"geometry":{"coordinates":[144.916806,-37.839816],"type":"Point"},"properties":{"osm_id":"5317531112","tag":{"amenity":"waste_basket"}},"type":"Feature"},
	{"geometry":{"coordinates":[144.917109,-37.839758],"type":"Point"},"properties":{"osm_id":"5317533045","tag":{"amenity":"waste_basket"}},"type":"Feature"},
	{"geometry":{"coordinates":[144.917396,-37.839701],"type":"Point"},"properties":{"osm_id":"5317534235","tag":{"amenity":"waste_basket"}},"type":"Feature"},
	{"geometry":{"coordinates":[144.917856,-37.839687],"type":"Point"},"properties":{"osm_id":"5317534997","tag":{"amenity":"waste_basket"}},"type":"Feature"},
	{"geometry":{"coordinates":[144.918286,-37.83965],"type":"Point"},"properties":{"osm_id":"5317535628","tag":{"amenity":"waste_basket"}},"type":"Feature"},
	{"geometry":{"coordinates":[144.918314,-37.839505],"type":"Point"},"properties":{"osm_id":"5317535633","tag":{"amenity":"waste_basket"}},"type":"Feature"},
	{"geometry":{"coordinates":[144.898162,-37.814235],"type":"Point"},"properties":{"osm_id":"5357830327","tag":{"amenity":"waste_basket"}},"type":"Feature"},
	{"geometry":{"coordinates":[144.898341,-37.814346],"type":"Point"},"properties":{"osm_id":"5357831202","tag":{"amenity":"waste_basket"}},"type":"Feature"},
	{"geometry":{"coordinates":[144.901612,-37.801432],"type":"Point"},"properties":{"osm_id":"5999588255","tag":{"amenity":"waste_basket"}},"type":"Feature"},
	{"geometry":{"coordinates":[144.899582,-37.799931],"type":"Point"},"properties":{"osm_id":"5999588271","tag":{"amenity":"waste_basket"}},"type":"Feature"},
	{"geometry":{"coordinates":[144.901206,-37.800185],"type":"Point"},"properties":{"osm_id":"5999588588","tag":{"amenity":"waste_basket"}},"type":"Feature"},
	{"geometry":{"coordinates":[144.901068,-37.800948],"type":"Point"},"properties":{"osm_id":"5999588590","tag":{"amenity":"waste_basket"}},"type":"Feature"},
	{"geometry":{"coordinates":[144.899632,-37.800949],"type":"Point"},"properties":{"osm_id":"5999588592","tag":{"amenity":"waste_basket"}},"type":"Feature"},
	{"geometry":{"coordinates":[144.900839,-37.799849],"type":"Point"},"properties":{"osm_id":"5999588598","tag":{"amenity":"waste_basket"}},"type":"Feature"},
	{"geometry":{"coordinates":[144.901148,-37.801567],"type":"Point"},"properties":{"osm_id":"5999588615","tag":{"amenity":"waste_basket"}},"type":"Feature"},
	{"geometry":{"coordinates":[144.899527,-37.80017],"type":"Point"},"properties":{"osm_id":"5999588618","tag":{"amenity":"waste_basket"}},"type":"Feature"},
	{"geometry":{"coordinates":[144.901061,-37.801681],"type":"Point"},"properties":{"osm_id":"5999588627","tag":{"amenity":"waste_basket"}},"type":"Feature"},
	{"geometry":{"coordinates":[144.899434,-37.800451],"type":"Point"},"properties":{"osm_id":"5999588629","tag":{"amenity":"waste_basket"}},"type":"Feature"},
	{"geometry":{"coordinates":[144.900105,-37.799896],"type":"Point"},"properties":{"osm_id":"5999588631","tag":{"amenity":"waste_basket"}},"type":"Feature"},
	{"geometry":{"coordinates":[144.901058,-37.79981],"type":"Point"},"properties":{"osm_id":"5999588634","tag":{"amenity":"waste_basket"}},"type":"Feature"},
	{"geometry":{"coordinates":[144.89949,-37.800664],"type":"Point"},"properties":{"osm_id":"5999588640","tag":{"amenity":"waste_basket"}},"type":"Feature"},
	{"geometry":{"coordinates":[144.902498,-37.800053],"type":"Point"},"properties":{"osm_id":"5999588658","tag":{"amenity":"waste_basket"}},"type":"Feature"},
	{"geometry":{"coordinates":[144.900453,-37.801043],"type":"Point"},"properties":{"osm_id":"5999659684","tag":{"amenity":"waste_basket"}},"type":"Feature"},
	{"geometry":{"coordinates":[144.899308,-37.801495],"type":"Point"},"properties":{"osm_id":"5999659688","tag":{"amenity":"waste_basket"}},"type":"Feature"},
	{"geometry":{"coordinates":[144.900818,-37.801082],"type":"Point"},"properties":{"osm_id":"5999659706","tag":{"amenity":"waste_basket"}},"type":"Feature"},
	{"geometry":{"coordinates":[144.900107,-37.800989],"type":"Point"},"properties":{"osm_id":"5999659709","tag":{"amenity":"waste_basket"}},"type":"Feature"},
	{"geometry":{"coordinates":[144.899423,-37.801064],"type":"Point"},"properties":{"osm_id":"5999659741","tag":{"amenity":"waste_basket"}},"type":"Feature"},
	{"geometry":{"coordinates":[144.899382,-37.801288],"type":"Point"},"properties":{"osm_id":"5999659751","tag":{"amenity":"waste_basket"}},"type":"Feature"},
	{"geometry":{"coordinates":[144.900844,-37.801245],"type":"Point"},"properties":{"osm_id":"6002631808","tag":{"amenity":"waste_basket"}},"type":"Feature"},
	{"geometry":{"coordinates":[144.901174,-37.799336],"type":"Point"},"properties":{"osm_id":"6004986654","tag":{"amenity":"waste_basket"}},"type":"Feature"},
	{"geometry":{"coordinates":[144.90098,-37.799198],"type":"Point"},"properties":{"osm_id":"6004986656","tag":{"amenity":"waste_basket"}},"type":"Feature"},
	{"geometry":{"coordinates":[144.901033,-37.799325],"type":"Point"},"properties":{"osm_id":"6004986663","tag":{"amenity":"waste_basket"}},"type":"Feature"},
	{"geometry":{"coordinates":[144.901008,-37.799437],"type":"Point"},"properties":{"osm_id":"6004986664","tag":{"amenity":"waste_basket"}},"type":"Feature"},
	{"geometry":{"coordinates":[144.902508,-37.801981],"type":"Point"},"properties":{"osm_id":"6033425577","tag":{"amenity":"waste_basket"}},"type":"Feature"},
	{"geometry":{"coordinates":[144.901273,-37.798899],"type":"Point"},"properties":{"osm_id":"6033469807","tag":{"amenity":"waste_basket"}},"type":"Feature"},
	{"geometry":{"coordinates":[144.899576,-37.799368],"type":"Point"},"properties":{"osm_id":"6033561771","tag":{"amenity":"waste_basket"}},"type":"Feature"},
	{"geometry":{"coordinates":[144.899747,-37.799184],"type":"Point"},"properties":{"osm_id":"6033561775","tag":{"amenity":"waste_basket"}},"type":"Feature"},
	{"geometry":{"coordinates":[144.899659,-37.798833],"type":"Point"},"properties":{"osm_id":"6033562189","tag":{"amenity":"waste_basket"}},"type":"Feature"},
	{"geometry":{"coordinates":[144.898948,-37.798765],"type":"Point"},"properties":{"osm_id":"6033562200","tag":{"amenity":"waste_basket"}},"type":"Feature"},
	{"geometry":{"coordinates":[144.899217,-37.799336],"type":"Point"},"properties":{"osm_id":"6033562240","tag":{"amenity":"waste_basket"}},"type":"Feature"},
	{"geometry":{"coordinates":[144.896974,-37.799379],"type":"Point"},"properties":{"osm_id":"6033562242","tag":{"amenity":"waste_basket"}},"type":"Feature"},
	{"geometry":{"coordinates":[144.896463,-37.799464],"type":"Point"},"properties":{"osm_id":"6180383677","tag":{"amenity":"waste_basket"}},"type":"Feature"},
	{"geometry":{"coordinates":[144.895335,-37.799326],"type":"Point"},"properties":{"osm_id":"6180383682","tag":{"amenity":"waste_basket"}},"type":"Feature"},
	{"geometry":{"coordinates":[144.897568,-37.799601],"type":"Point"},"properties":{"osm_id":"6180386386","tag":{"amenity":"waste_basket"}},"type":"Feature"},
	{"geometry":{"coordinates":[144.894743,-37.799142],"type":"Point"},"properties":{"osm_id":"6180386389","tag":{"amenity":"waste_basket"}},"type":"Feature"},
	{"geometry":{"coordinates":[144.893278,-37.799092],"type":"Point"},"properties":{"osm_id":"6180386399","tag":{"amenity":"waste_basket"}},"type":"Feature"},
	{"geometry":{"coordinates":[144.897107,-37.799547],"type":"Point"},"properties":{"osm_id":"6180386411","tag":{"amenity":"waste_basket"}},"type":"Feature"},
	{"geometry":{"coordinates":[144.889399,-37.816213],"type":"Point"},"properties":{"osm_id":"6342456639","tag":{"amenity":"waste_basket"}},"type":"Feature"},
	{"geometry":{"coordinates":[144.889365,-37.816553],"type":"Point"},"properties":{"osm_id":"6342456644","tag":{"amenity":"waste_basket"}},"type":"Feature"},
	{"geometry":{"coordinates":[144.889452,-37.816394],"type":"Point"},"properties":{"osm_id":"6342456649","tag":{"amenity":"waste_basket"}},"type":"Feature"},
	{"geometry":{"coordinates":[144.862434,-37.799358],"type":"Point"},"properties":{"osm_id":"6357385556","tag":{"amenity":"waste_basket"}},"type":"Feature"},
	{"geometry":{"coordinates":[144.863063,-37.799725],"type":"Point"},"properties":{"osm_id":"6357385570","tag":{"amenity":"waste_basket"}},"type":"Feature"},
	{"geometry":{"coordinates":[144.889534,-37.791688],"type":"Point"},"properties":{"osm_id":"6403353715","tag":{"amenity":"waste_basket"}},"type":"Feature"},
	{"geometry":{"coordinates":[144.930432,-37.793872],"type":"Point"},"properties":{"osm_id":"6601963475","tag":{"amenity":"recycling","colour":"Dark Pink","recycling:clothes":"yes","recycling_type":"container"}},"type":"Feature"},
	{"geometry":{"coordinates":[144.930842,-37.794263],"type":"Point"},"properties":{"osm_id":"6698819558","tag":{"amenity":"recycling","recycling:glass_bottles":"yes","recycling_type":"container"}},"type":"Feature"},
	{"geometry":{"coordinates":[144.930839,-37.794272],"type":"Point"},"properties":{"osm_id":"6698819559","tag":{"amenity":"waste_basket"}},"type":"Feature"},
	{"geometry":{"coordinates":[144.880426,-37.846009],"type":"Point"},"properties":{"osm_id":"6832260578","tag":{"amenity":"waste_basket","colour":"green","material":"plastic"}},"type":"Feature"},
	{"geometry":{"coordinates":[144.930449,-37.788363],"type":"Point"},"properties":{"osm_id":"7007814384","tag":{"amenity":"waste_basket","operator":"Moonee Valley City Council"}},"type":"Feature"},
	{"geometry":{"coordinates":[144.931136,-37.788426],"type":"Point"},"properties":{"osm_id":"7007819960","tag":{"amenity":"waste_basket","operator":"Moonee Valley City Council"}},"type":"Feature"},
	{"geometry":{"coordinates":[144.931569,-37.788287],"type":"Point"},"properties":{"osm_id":"7140986302","tag":{"amenity":"waste_basket","operator":"Moonee Valley City Council"}},"type":"Feature"},
	{"geometry":{"coordinates":[144.931596,-37.78847],"type":"Point"},"properties":{"osm_id":"7140986303","tag":{"amenity":"waste_basket","operator":"Moonee Valley City Council"}},"type":"Feature"},
	{"geometry":{"coordinates":[144.930733,-37.795493],"type":"Point"},"properties":{"osm_id":"7547218457","tag":{"amenity":"recycling","recycling:cans":"yes","recycling:glass_bottles":"yes","recycling_type":"container"}},"type":"Feature"}
]
}
