{
"type": "FeatureCollection",
"features": [
	{"geometry":{"coordinates":[10.164514,53.484147],"type":"Point"},"properties":{"highway":"turning_loop","osm_id":"264883018","tag":{"denotation":"urban","leaf_cycle":"deciduous","leaf_type":"broadleaved","natural":"tree"}},"type":"Feature"},
	{"geometry":{"coordinates":[10.171656,53.478047],"type":"Point"},"properties":{"highway":"turning_circle","osm_id":"273162347","tag":{"leaf_cycle":"deciduous","leaf_type":"broadleaved","natural":"tree"}},"type":"Feature"},
	{"geometry":{"coordinates":[10.172316,53.477136],"type":"Point"},"properties":{"highway":"turning_circle","osm_id":"273162355","tag":{"leaf_cycle":"deciduous","leaf_type":"broadleaved","natural":"tree"}},"type":"Feature"},
	{"geometry":{"coordinates":[10.166734,53.476954],"type":"Point"},"properties":{"highway":"turning_circle","osm_id":"273162452","tag":{"leaf_cycle":"deciduous","leaf_type":"broadleaved","natural":"tree"}},"type":"Feature"},
	{"geometry":{"coordinates":[10.165764,53.478713],"type":"Point"},"properties":{"highway":"turning_circle","osm_id":"273162512","tag":{"leaf_cycle":"deciduous","leaf_type":"broadleaved","natural":"tree"}},"type":"Feature"},
	{"geometry":{"coordinates":[10.163362,53.477948],"type":"Point"},"properties":{"highway":"turning_circle","osm_id":"273162538","tag":{"leaf_cycle":"deciduous","leaf_type":"broadleaved","natural":"tree"}},"type":"Feature"},
	{"geometry":{"coordinates":[10.164628,53.484633],"type":"Point"},"properties":{"highway":"turning_loop","osm_id":"283244257","tag":{"leaf_cycle":"deciduous","leaf_type":"broadleaved","natural":"tree"}},"type":"Feature"},
	{"geometry":{"coordinates":[10.171624,53.487052],"type":"Point"},"properties":{"highway":"turning_circle","osm_id":"283250044","tag":{"leaf_cycle":"deciduous","leaf_type":"broadleaved","natural":"tree"}},"type":"Feature"},
	{"geometry":{"coordinates":[10.183167,53.476591],"type":"Point"},"properties":{"highway":"turning_loop","osm_id":"283941093","tag":{"natural":"tree"}},"type":"Feature"},
	{"geometry":{"coordinates":[10.181931,53.476163],"type":"Point"},"properties":{"highway":"turning_loop","osm_id":"283950921","tag":{"natural":"tree"}},"type":"Feature"},
	{"geometry":{"coordinates":[10.17101,53.485356],"type":"Point"},"properties":{"highway":"turning_circle","osm_id":"285696284","tag":{"leaf_cycle":"deciduous","leaf_type":"broadleaved","natural":"tree"}},"type":"Feature"},
	{"geometry":{"coordinates":[10.167483,53.479065],"type":"Point"},"properties":{"highway":"turning_circle","osm_id":"285701673","tag":{"leaf_cycle":"deciduous","leaf_type":"broadleaved","natural":"tree"}},"type":"Feature"},
	{"geometry":{"coordinates":[10.171412,53.486452],"type":"Point"},"properties":{"highway":"turning_circle","osm_id":"285711221","tag":{"leaf_cycle":"deciduous","leaf_type":"broadleaved","natural":"tree"}},"type":"Feature"},
	{"geometry":{"coordinates":[10.169248,53.477331],"type":"Point"},"properties":{"highway":"turning_circle","osm_id":"550530376","tag":{"leaf_cycle":"deciduous","leaf_type":"broadleaved","natural":"tree"}},"type":"Feature"},
	{"geometry":{"coordinates":[10.164203,53.485455],"type":"Point"},"properties":{"highway":"turning_loop","osm_id":"582540293","tag":{"leaf_cycle":"deciduous","leaf_type":"broadleaved","natural":"tree"}},"type":"Feature"},
	{"geometry":{"coordinates":[10.163939,53.484666],"type":"Point"},"properties":{"highway":"turning_loop","osm_id":"674394189","tag":{"leaf_cycle":"deciduous","leaf_type":"broadleaved","natural":"tree"}},"type":"Feature"},
	{"geometry":{"coordinates":[10.173086,53.475303],"type":"Point"},"properties":{"highway":"turning_circle","osm_id":"977440406","tag":{"leaf_cycle":"deciduous","leaf_type":"broadleaved","natural":"tree"}},"type":"Feature"},
	{"geometry":{"coordinates":[10.181111,53.484813],"type":"Point"},"properties":{"highway":"turning_loop","osm_id":"1652727756","tag":{"leaf_cycle":"deciduous","leaf_type":"broadleaved","natural":"tree"}},"type":"Feature"},
	{"geometry":{"coordinates":[10.178835,53.479684],"type":"Point"},"properties":{"highway":"turning_circle","osm_id":"1664041407","tag":{"leaf_cycle":"deciduous","leaf_type":"broadleaved","natural":"tree"}},"type":"Feature"},
	{"geometry":{"coordinates":[10.173453,53.475868],"type":"Point"},"properties":{"highway":"turning_circle","osm_id":"1664477376","tag":{"leaf_cycle":"deciduous","leaf_type":"broadleaved","natural":"tree"}},"type":"Feature"},
	{"geometry":{"coordinates":[10.174155,53.47634],"type":"Point"},"properties":{"highway":"turning_circle","osm_id":"1664477441","tag":{"leaf_cycle":"deciduous","leaf_type":"broadleaved","natural":"tree"}},"type":"Feature"},
	{"geometry":{"coordinates":[10.177936,53.477206],"type":"Point"},"properties":{"highway":"turning_circle","osm_id":"1664477582","tag":{"leaf_cycle":"deciduous","leaf_type":"broadleaved","natural":"tree"}},"type":"Feature"},
	{"geometry":{"coordinates":[10.186693,53.484024],"type":"Point"},"properties":{"osm_id":"1664478004","tag":{"leaf_cycle":"deciduous","leaf_type":"broadleaved","natural":"tree"}},"type":"Feature"},
	{"geometry":{"coordinates":[10.180285,53.482689],"type":"Point"},"properties":{"highway":"turning_loop","osm_id":"1827654573","tag":{"leaf_cycle":"deciduous","leaf_type":"broadleaved","natural":"tree"}},"type":"Feature"},
	{"geometry":{"coordinates":[10.177111,53.478261],"type":"Point"},"properties":{"highway":"turning_loop","osm_id":"1827783486","tag":{"leaf_cycle":"deciduous","leaf_type":"broadleaved","natural":"tree"}},"type":"Feature"},
	{"geometry":{"coordinates":[10.141966,53.47378],"type":"Point"},"properties":{"osm_id":"2524751134","tag":{"denotation":"landmark","natural":"tree"}},"type":"Feature"},
	{"geometry":{"coordinates":[10.13627,53.487775],"type":"Point"},"properties":{"osm_id":"2525561845","tag":{"denotation":"landmark","natural":"tree"}},"type":"Feature"},
	{"geometry":{"coordinates":[10.136009,53.48757],"type":"Point"},"properties":{"osm_id":"2525561847","tag":{"denotation":"landmark","natural":"tree"}},"type":"Feature"},
	{"geometry":{"coordinates":[10.142649,53.480334],"type":"Point"},"properties":{"osm_id":"2529858530","tag":{"natural":"tree"}},"type":"Feature"},
	{"geometry":{"coordinates":[10.142356,53.480203],"type":"Point"},"properties":{"osm_id":"2529858531","tag":{"natural":"tree"}},"type":"Feature"},
	{"geometry":{"coordinates":[10.142141,53.480075],"type":"Point"},"properties":{"osm_id":"2529858532","tag":{"natural":"tree"}},"type":"Feature"},
	{"geometry":{"coordinates":[10.141978,53.479978],"type":"Point"},"properties":{"osm_id":"2529858533","tag":{"natural":"tree"}},"type":"Feature"},
	{"geometry":{"coordinates":[10.141796,53.479869],"type":"Point"},"properties":{"osm_id":"2529858535","tag":{"natural":"tree"}},"type":"Feature"},
	{"geometry":{"coordinates":[10.14065,53.480575],"type":"Point"},"properties":{"osm_id":"2529858536","tag":{"natural":"tree"}},"type":"Feature"},
	{"geometry":{"coordinates":[10.140148,53.478811],"type":"Point"},"properties":{"osm_id":"2529858537","tag":{"natural":"tree"}},"type":"Feature"},
	{"geometry":{"coordinates":[10.133505,53.480893],"type":"Point"},"properties":{"osm_id":"2529858538","tag":{"natural":"tree"}},"type":"Feature"},
	{"geometry":{"coordinates":[10.133876,53.480792],"type":"Point"},"properties":{"osm_id":"2529858539","tag":{"natural":"tree"}},"type":"Feature"},
	{"geometry":{"coordinates":[10.134188,53.480675],"type":"Point"},"properties":{"osm_id":"2529858540","tag":{"natural":"tree"}},"type":"Feature"},
	{"geometry":{"coordinates":[10.13441,53.480621],"type":"Point"},"properties":{"osm_id":"2529858542","tag":{"natural":"tree"}},"type":"Feature"},
	{"geometry":{"coordinates":[10.134677,53.480548],"type":"Point"},"properties":{"osm_id":"2529858543","tag":{"natural":"tree"}},"type":"Feature"},
	{"geometry":{"coordinates":[10.134905,53.48042],"type":"Point"},"properties":{"osm_id":"2529858544","tag":{"natural":"tree"}},"type":"Feature"},
	{"geometry":{"coordinates":[10.135074,53.480408],"type":"Point"},"properties":{"osm_id":"2529858545","tag":{"natural":"tree"}},"type":"Feature"},
	{"geometry":{"coordinates":[10.140793,53.482331],"type":"Point"},"properties":{"osm_id":"2529858560","tag":{"natural":"tree"}},"type":"Feature"},
	{"geometry":{"coordinates":[10.140936,53.482427],"type":"Point"},"properties":{"osm_id":"2529858564","tag":{"natural":"tree"}},"type":"Feature"},
	{"geometry":{"coordinates":[10.140018,53.48085],"type":"Point"},"properties":{"osm_id":"2529858566","tag":{"natural":"tree"}},"type":"Feature"},
	{"geometry":{"coordinates":[10.143021,53.477474],"type":"Point"},"properties":{"osm_id":"2529858568","tag":{"natural":"tree"}},"type":"Feature"},
	{"geometry":{"coordinates":[10.144121,53.477408],"type":"Point"},"properties":{"osm_id":"2529858571","tag":{"natural":"tree"}},"type":"Feature"},
	{"geometry":{"coordinates":[10.144284,53.47752],"type":"Point"},"properties":{"osm_id":"2529858574","tag":{"natural":"tree"}},"type":"Feature"},
	{"geometry":{"coordinates":[10.144662,53.478117],"type":"Point"},"properties":{"osm_id":"2529858576","tag":{"natural":"tree"}},"type":"Feature"},
	{"geometry":{"coordinates":[10.144727,53.477993],"type":"Point"},"properties":{"osm_id":"2529858580","tag":{"natural":"tree"}},"type":"Feature"},
	{"geometry":{"coordinates":[10.144799,53.477916],"type":"Point"},"properties":{"osm_id":"2529858582","tag":{"natural":"tree"}},"type":"Feature"},
	{"geometry":{"coordinates":[10.144877,53.477834],"type":"Point"},"properties":{"osm_id":"2529858585","tag":{"natural":"tree"}},"type":"Feature"},
	{"geometry":{"coordinates":[10.145098,53.477629],"type":"Point"},"properties":{"osm_id":"2529858587","tag":{"natural":"tree"}},"type":"Feature"},
	{"geometry":{"coordinates":[10.151684,53.479656],"type":"Point"},"properties":{"osm_id":"2529858590","tag":{"natural":"tree"}},"type":"Feature"},
	{"geometry":{"coordinates":[10.151853,53.477706],"type":"Point"},"properties":{"osm_id":"2529858593","tag":{"natural":"tree"}},"type":"Feature"},
	{"geometry":{"coordinates":[10.151521,53.477497],"type":"Point"},"properties":{"osm_id":"2529858597","tag":{"natural":"tree"}},"type":"Feature"},
	{"geometry":{"coordinates":[10.156367,53.476299],"type":"Point"},"properties":{"osm_id":"2529858599","tag":{"natural":"tree"}},"type":"Feature"},
	{"geometry":{"coordinates":[10.156087,53.476098],"type":"Point"},"properties":{"osm_id":"2529858602","tag":{"natural":"tree"}},"type":"Feature"},
	{"geometry":{"coordinates":[10.155943,53.475939],"type":"Point"},"properties":{"osm_id":"2529858605","tag":{"natural":"tree"}},"type":"Feature"},
	{"geometry":{"coordinates":[10.155748,53.475795],"type":"Point"},"properties":{"osm_id":"2529858608","tag":{"natural":"tree"}},"type":"Feature"},
	{"geometry":{"coordinates":[10.15481,53.475069],"type":"Point"},"properties":{"osm_id":"2529858614","tag":{"natural":"tree"}},"type":"Feature"},
	{"geometry":{"coordinates":[10.151495,53.473403],"type":"Point"},"properties":{"osm_id":"2529858617","tag":{"natural":"tree"}},"type":"Feature"},
	{"geometry":{"coordinates":[10.150661,53.473136],"type":"Point"},"properties":{"osm_id":"2529858619","tag":{"natural":"tree"}},"type":"Feature"},
	{"geometry":{"coordinates":[10.150817,53.470306],"type":"Point"},"properties":{"osm_id":"2529858622","tag":{"natural":"tree"}},"type":"Feature"},
	{"geometry":{"coordinates":[10.150146,53.47041],"type":"Point"},"properties":{"osm_id":"2529858626","tag":{"natural":"tree"}},"type":"Feature"},
	{"geometry":{"coordinates":[10.150107,53.470201],"type":"Point"},"properties":{"osm_id":"2529858629","tag":{"natural":"tree"}},"type":"Feature"},
	{"geometry":{"coordinates":[10.147782,53.470337],"type":"Point"},"properties":{"osm_id":"2529858631","tag":{"natural":"tree"}},"type":"Feature"},
	{"geometry":{"coordinates":[10.146049,53.470538],"type":"Point"},"properties":{"osm_id":"2529858634","tag":{"natural":"tree"}},"type":"Feature"},
	{"geometry":{"coordinates":[10.145307,53.470744],"type":"Point"},"properties":{"osm_id":"2529858636","tag":{"natural":"tree"}},"type":"Feature"},
	{"geometry":{"coordinates":[10.141099,53.473485],"type":"Point"},"properties":{"osm_id":"2529858639","tag":{"natural":"tree"}},"type":"Feature"},
	{"geometry":{"coordinates":[10.140878,53.473399],"type":"Point"},"properties":{"osm_id":"2529858642","tag":{"natural":"tree"}},"type":"Feature"},
	{"geometry":{"coordinates":[10.140897,53.47362],"type":"Point"},"properties":{"osm_id":"2529858645","tag":{"natural":"tree"}},"type":"Feature"},
	{"geometry":{"coordinates":[10.138663,53.474322],"type":"Point"},"properties":{"osm_id":"2529858647","tag":{"natural":"tree"}},"type":"Feature"},
	{"geometry":{"coordinates":[10.138487,53.474252],"type":"Point"},"properties":{"osm_id":"2529858650","tag":{"natural":"tree"}},"type":"Feature"},
	{"geometry":{"coordinates":[10.138885,53.474423],"type":"Point"},"properties":{"osm_id":"2529858652","tag":{"natural":"tree"}},"type":"Feature"},
	{"geometry":{"coordinates":[10.139119,53.474481],"type":"Point"},"properties":{"osm_id":"2529858654","tag":{"natural":"tree"}},"type":"Feature"},
	{"geometry":{"coordinates":[10.139295,53.474586],"type":"Point"},"properties":{"osm_id":"2529858657","tag":{"natural":"tree"}},"type":"Feature"},
	{"geometry":{"coordinates":[10.139738,53.47478],"type":"Point"},"properties":{"osm_id":"2529858660","tag":{"natural":"tree"}},"type":"Feature"},
	{"geometry":{"coordinates":[10.139894,53.474865],"type":"Point"},"properties":{"osm_id":"2529858662","tag":{"natural":"tree"}},"type":"Feature"},
	{"geometry":{"coordinates":[10.140168,53.474973],"type":"Point"},"properties":{"osm_id":"2529858665","tag":{"natural":"tree"}},"type":"Feature"},
	{"geometry":{"coordinates":[10.140396,53.475097],"type":"Point"},"properties":{"osm_id":"2529858667","tag":{"natural":"tree"}},"type":"Feature"},
	{"geometry":{"coordinates":[10.138533,53.475156],"type":"Point"},"properties":{"osm_id":"2529858670","tag":{"natural":"tree"}},"type":"Feature"},
	{"geometry":{"coordinates":[10.138008,53.476151],"type":"Point"},"properties":{"osm_id":"2529858673","tag":{"natural":"tree"}},"type":"Feature"},
	{"geometry":{"coordinates":[10.138279,53.476256],"type":"Point"},"properties":{"osm_id":"2529858675","tag":{"natural":"tree"}},"type":"Feature"},
	{"geometry":{"coordinates":[10.138767,53.475225],"type":"Point"},"properties":{"osm_id":"2529858678","tag":{"natural":"tree"}},"type":"Feature"},
	{"geometry":{"coordinates":[10.139559,53.47558],"type":"Point"},"properties":{"osm_id":"2529858679","tag":{"natural":"tree"}},"type":"Feature"},
	{"geometry":{"coordinates":[10.139836,53.475683],"type":"Point"},"properties":{"osm_id":"2529858682","tag":{"natural":"tree"}},"type":"Feature"},
	{"geometry":{"coordinates":[10.138507,53.475911],"type":"Point"},"properties":{"osm_id":"2529858684","tag":{"natural":"tree"}},"type":"Feature"},
	{"geometry":{"coordinates":[10.152481,53.476602],"type":"Point"},"properties":{"osm_id":"2532446440","tag":{"natural":"tree"}},"type":"Feature"},
	{"geometry":{"coordinates":[10.153751,53.474358],"type":"Point"},"properties":{"osm_id":"2532446441","tag":{"natural":"tree"}},"type":"Feature"},
	{"geometry":{"coordinates":[10.153582,53.474234],"type":"Point"},"properties":{"osm_id":"2532446442","tag":{"natural":"tree"}},"type":"Feature"},
	{"geometry":{"coordinates":[10.153452,53.474156],"type":"Point"},"properties":{"osm_id":"2532446443","tag":{"natural":"tree"}},"type":"Feature"},
	{"geometry":{"coordinates":[10.153321,53.474094],"type":"Point"},"properties":{"osm_id":"2532446444","tag":{"natural":"tree"}},"type":"Feature"},
	{"geometry":{"coordinates":[10.15323,53.474009],"type":"Point"},"properties":{"osm_id":"2532446445","tag":{"natural":"tree"}},"type":"Feature"},
	{"geometry":{"coordinates":[10.153067,53.47392],"type":"Point"},"properties":{"osm_id":"2532446446","tag":{"natural":"tree"}},"type":"Feature"},
	{"geometry":{"coordinates":[10.152846,53.473784],"type":"Point"},"properties":{"osm_id":"2532446447","tag":{"natural":"tree"}},"type":"Feature"},
	{"geometry":{"coordinates":[10.154116,53.47454],"type":"Point"},"properties":{"osm_id":"2532446448","tag":{"natural":"tree"}},"type":"Feature"},
	{"geometry":{"coordinates":[10.154376,53.474687],"type":"Point"},"properties":{"osm_id":"2532446449","tag":{"natural":"tree"}},"type":"Feature"},
	{"geometry":{"coordinates":[10.154644,53.474819],"type":"Point"},"properties":{"osm_id":"2532446450","tag":{"natural":"tree"}},"type":"Feature"},
	{"geometry":{"coordinates":[10.14815,53.472838],"type":"Point"},"properties":{"osm_id":"2532446451","tag":{"natural":"tree"}},"type":"Feature"},
	{"geometry":{"coordinates":[10.145863,53.474358],"type":"Point"},"properties":{"osm_id":"2532446452","tag":{"natural":"tree"}},"type":"Feature"},
	{"geometry":{"coordinates":[10.144248,53.478141],"type":"Point"},"properties":{"osm_id":"2532446464","tag":{"natural":"tree"}},"type":"Feature"},
	{"geometry":{"coordinates":[10.144294,53.478789],"type":"Point"},"properties":{"osm_id":"2532446465","tag":{"natural":"tree"}},"type":"Feature"},
	{"geometry":{"coordinates":[10.139565,53.480607],"type":"Point"},"properties":{"osm_id":"2532446466","tag":{"natural":"tree"}},"type":"Feature"},
	{"geometry":{"coordinates":[10.140418,53.48089],"type":"Point"},"properties":{"osm_id":"2532446467","tag":{"natural":"tree"}},"type":"Feature"},
	{"geometry":{"coordinates":[10.14049,53.480839],"type":"Point"},"properties":{"osm_id":"2532446468","tag":{"natural":"tree"}},"type":"Feature"},
	{"geometry":{"coordinates":[10.140483,53.480777],"type":"Point"},"properties":{"osm_id":"2532446469","tag":{"natural":"tree"}},"type":"Feature"},
	{"geometry":{"coordinates":[10.1378,53.480196],"type":"Point"},"properties":{"osm_id":"2532446470","tag":{"natural":"tree"}},"type":"Feature"},
	{"geometry":{"coordinates":[10.138236,53.480452],"type":"Point"},"properties":{"osm_id":"2532446471","tag":{"natural":"tree"}},"type":"Feature"},
	{"geometry":{"coordinates":[10.138197,53.480308],"type":"Point"},"properties":{"osm_id":"2532446472","tag":{"natural":"tree"}},"type":"Feature"},
	{"geometry":{"coordinates":[10.139754,53.479215],"type":"Point"},"properties":{"osm_id":"2532446473","tag":{"natural":"tree"}},"type":"Feature"},
	{"geometry":{"coordinates":[10.13539,53.480141],"type":"Point"},"properties":{"osm_id":"2532446474","tag":{"natural":"tree"}},"type":"Feature"},
	{"geometry":{"coordinates":[10.135644,53.479994],"type":"Point"},"properties":{"osm_id":"2532446475","tag":{"natural":"tree"}},"type":"Feature"},
	{"geometry":{"coordinates":[10.137682,53.477834],"type":"Point"},"properties":{"osm_id":"2532446476","tag":{"natural":"tree"}},"type":"Feature"},
	{"geometry":{"coordinates":[10.137708,53.477628],"type":"Point"},"properties":{"osm_id":"2532446477","tag":{"natural":"tree"}},"type":"Feature"},
	{"geometry":{"coordinates":[10.13776,53.477454],"type":"Point"},"properties":{"osm_id":"2532446478","tag":{"natural":"tree"}},"type":"Feature"},
	{"geometry":{"coordinates":[10.137799,53.477283],"type":"Point"},"properties":{"osm_id":"2532446479","tag":{"natural":"tree"}},"type":"Feature"},
	{"geometry":{"coordinates":[10.137865,53.477116],"type":"Point"},"properties":{"osm_id":"2532446480","tag":{"natural":"tree"}},"type":"Feature"},
	{"geometry":{"coordinates":[10.137949,53.476864],"type":"Point"},"properties":{"osm_id":"2532446481","tag":{"natural":"tree"}},"type":"Feature"},
	{"geometry":{"coordinates":[10.138425,53.477285],"type":"Point"},"properties":{"osm_id":"2532446482","tag":{"natural":"tree"}},"type":"Feature"},
	{"geometry":{"coordinates":[10.138686,53.475986],"type":"Point"},"properties":{"osm_id":"2532446483","tag":{"natural":"tree"}},"type":"Feature"},
	{"geometry":{"coordinates":[10.138868,53.476064],"type":"Point"},"properties":{"osm_id":"2532446484","tag":{"natural":"tree"}},"type":"Feature"},
	{"geometry":{"coordinates":[10.138966,53.476098],"type":"Point"},"properties":{"osm_id":"2532446485","tag":{"natural":"tree"}},"type":"Feature"},
	{"geometry":{"coordinates":[10.139461,53.476316],"type":"Point"},"properties":{"osm_id":"2532446486","tag":{"natural":"tree"}},"type":"Feature"},
	{"geometry":{"coordinates":[10.144938,53.471567],"type":"Point"},"properties":{"osm_id":"2532446487","tag":{"natural":"tree"}},"type":"Feature"},
	{"geometry":{"coordinates":[10.141499,53.472668],"type":"Point"},"properties":{"osm_id":"2532446488","tag":{"natural":"tree"}},"type":"Feature"},
	{"geometry":{"coordinates":[10.141786,53.472582],"type":"Point"},"properties":{"osm_id":"2532446489","tag":{"natural":"tree"}},"type":"Feature"},
	{"geometry":{"coordinates":[10.144528,53.471156],"type":"Point"},"properties":{"osm_id":"2532446490","tag":{"natural":"tree"}},"type":"Feature"},
	{"geometry":{"coordinates":[10.146397,53.471462],"type":"Point"},"properties":{"osm_id":"2532446491","tag":{"natural":"tree"}},"type":"Feature"},
	{"geometry":{"coordinates":[10.146586,53.471423],"type":"Point"},"properties":{"osm_id":"2532446492","tag":{"natural":"tree"}},"type":"Feature"},
	{"geometry":{"coordinates":[10.146691,53.471392],"type":"Point"},"properties":{"osm_id":"2532446493","tag":{"natural":"tree"}},"type":"Feature"},
	{"geometry":{"coordinates":[10.146827,53.471361],"type":"Point"},"properties":{"osm_id":"2532446494","tag":{"natural":"tree"}},"type":"Feature"},
	{"geometry":{"coordinates":[10.140861,53.482754],"type":"Point"},"properties":{"osm_id":"2532446495","tag":{"natural":"tree"}},"type":"Feature"},
	{"geometry":{"coordinates":[10.141187,53.482696],"type":"Point"},"properties":{"osm_id":"2532446496","tag":{"natural":"tree"}},"type":"Feature"},
	{"geometry":{"coordinates":[10.137031,53.482808],"type":"Point"},"properties":{"osm_id":"2532446497","tag":{"natural":"tree"}},"type":"Feature"},
	{"geometry":{"coordinates":[10.13522,53.480676],"type":"Point"},"properties":{"osm_id":"2532446498","tag":{"natural":"tree"}},"type":"Feature"},
	{"geometry":{"coordinates":[10.134777,53.481037],"type":"Point"},"properties":{"osm_id":"2532446499","tag":{"natural":"tree"}},"type":"Feature"},
	{"geometry":{"coordinates":[10.135058,53.480944],"type":"Point"},"properties":{"osm_id":"2532446500","tag":{"natural":"tree"}},"type":"Feature"},
	{"geometry":{"coordinates":[10.134914,53.480921],"type":"Point"},"properties":{"osm_id":"2532446501","tag":{"natural":"tree"}},"type":"Feature"},
	{"geometry":{"coordinates":[10.132478,53.481188],"type":"Point"},"properties":{"osm_id":"2532446502","tag":{"natural":"tree"}},"type":"Feature"},
	{"geometry":{"coordinates":[10.132817,53.481118],"type":"Point"},"properties":{"osm_id":"2532446503","tag":{"natural":"tree"}},"type":"Feature"},
	{"geometry":{"coordinates":[10.133038,53.480979],"type":"Point"},"properties":{"osm_id":"2532446504","tag":{"natural":"tree"}},"type":"Feature"},
	{"geometry":{"coordinates":[10.132622,53.481095],"type":"Point"},"properties":{"osm_id":"2532446505","tag":{"natural":"tree"}},"type":"Feature"},
	{"geometry":{"coordinates":[10.119249,53.482254],"type":"Point"},"properties":{"osm_id":"2532446506","tag":{"natural":"tree"}},"type":"Feature"},
	{"geometry":{"coordinates":[10.118708,53.481987],"type":"Point"},"properties":{"osm_id":"2532446507","tag":{"natural":"tree"}},"type":"Feature"},
	{"geometry":{"coordinates":[10.121308,53.483529],"type":"Point"},"properties":{"osm_id":"2532446509","tag":{"natural":"tree"}},"type":"Feature"},
	{"geometry":{"coordinates":[10.132824,53.485577],"type":"Point"},"properties":{"osm_id":"2532477660","tag":{"natural":"tree"}},"type":"Feature"},
	{"geometry":{"coordinates":[10.132785,53.485343],"type":"Point"},"properties":{"osm_id":"2532477661","tag":{"natural":"tree"}},"type":"Feature"},
	{"geometry":{"coordinates":[10.132974,53.485432],"type":"Point"},"properties":{"osm_id":"2532477662","tag":{"natural":"tree"}},"type":"Feature"},
	{"geometry":{"coordinates":[10.135938,53.487928],"type":"Point"},"properties":{"osm_id":"2532477669","tag":{"natural":"tree"}},"type":"Feature"},
	{"geometry":{"coordinates":[10.117648,53.486792],"type":"Point"},"properties":{"osm_id":"2532477670","tag":{"natural":"tree"}},"type":"Feature"},
	{"geometry":{"coordinates":[10.118273,53.487134],"type":"Point"},"properties":{"osm_id":"2532477671","tag":{"natural":"tree"}},"type":"Feature"},
	{"geometry":{"coordinates":[10.118482,53.487277],"type":"Point"},"properties":{"osm_id":"2532477673","tag":{"natural":"tree"}},"type":"Feature"},
	{"geometry":{"coordinates":[10.123676,53.48314],"type":"Point"},"properties":{"osm_id":"2536129642","tag":{"natural":"tree"}},"type":"Feature"},
	{"geometry":{"coordinates":[10.123838,53.483408],"type":"Point"},"properties":{"osm_id":"2536129643","tag":{"natural":"tree"}},"type":"Feature"},
	{"geometry":{"coordinates":[10.124115,53.483086],"type":"Point"},"properties":{"osm_id":"2536129644","tag":{"natural":"tree"}},"type":"Feature"},
	{"geometry":{"coordinates":[10.124209,53.483058],"type":"Point"},"properties":{"osm_id":"2536129646","tag":{"natural":"tree"}},"type":"Feature"},
	{"geometry":{"coordinates":[10.12394,53.482931],"type":"Point"},"properties":{"osm_id":"2536129649","tag":{"natural":"tree"}},"type":"Feature"},
	{"geometry":{"coordinates":[10.124178,53.482907],"type":"Point"},"properties":{"osm_id":"2536129651","tag":{"natural":"tree"}},"type":"Feature"},
	{"geometry":{"coordinates":[10.124344,53.482886],"type":"Point"},"properties":{"osm_id":"2536129654","tag":{"natural":"tree"}},"type":"Feature"},
	{"geometry":{"coordinates":[10.12472,53.482832],"type":"Point"},"properties":{"osm_id":"2536129656","tag":{"natural":"tree"}},"type":"Feature"},
	{"geometry":{"coordinates":[10.125024,53.482801],"type":"Point"},"properties":{"osm_id":"2536129658","tag":{"natural":"tree"}},"type":"Feature"},
	{"geometry":{"coordinates":[10.127286,53.482479],"type":"Point"},"properties":{"osm_id":"2536129661","tag":{"natural":"tree"}},"type":"Feature"},
	{"geometry":{"coordinates":[10.127333,53.482378],"type":"Point"},"properties":{"osm_id":"2536129663","tag":{"natural":"tree"}},"type":"Feature"},
	{"geometry":{"coordinates":[10.127424,53.482301],"type":"Point"},"properties":{"osm_id":"2536129665","tag":{"natural":"tree"}},"type":"Feature"},
	{"geometry":{"coordinates":[10.127569,53.482225],"type":"Point"},"properties":{"osm_id":"2536129668","tag":{"natural":"tree"}},"type":"Feature"},
	{"geometry":{"coordinates":[10.127769,53.482186],"type":"Point"},"properties":{"osm_id":"2536129670","tag":{"natural":"tree"}},"type":"Feature"},
	{"geometry":{"coordinates":[10.12801,53.482164],"type":"Point"},"properties":{"osm_id":"2536129672","tag":{"natural":"tree"}},"type":"Feature"},
	{"geometry":{"coordinates":[10.128282,53.482168],"type":"Point"},"properties":{"osm_id":"2536129675","tag":{"natural":"tree"}},"type":"Feature"},
	{"geometry":{"coordinates":[10.128483,53.482183],"type":"Point"},"properties":{"osm_id":"2536129679","tag":{"natural":"tree"}},"type":"Feature"},
	{"geometry":{"coordinates":[10.131572,53.481747],"type":"Point"},"properties":{"osm_id":"2536129681","tag":{"natural":"tree"}},"type":"Feature"},
	{"geometry":{"coordinates":[10.132383,53.481613],"type":"Point"},"properties":{"osm_id":"2536129684","tag":{"natural":"tree"}},"type":"Feature"},
	{"geometry":{"coordinates":[10.135641,53.48069],"type":"Point"},"properties":{"osm_id":"2536129686","tag":{"natural":"tree"}},"type":"Feature"},
	{"geometry":{"coordinates":[10.135819,53.480596],"type":"Point"},"properties":{"osm_id":"2536129689","tag":{"natural":"tree"}},"type":"Feature"},
	{"geometry":{"coordinates":[10.135973,53.480526],"type":"Point"},"properties":{"osm_id":"2536129691","tag":{"natural":"tree"}},"type":"Feature"},
	{"geometry":{"coordinates":[10.136108,53.48046],"type":"Point"},"properties":{"osm_id":"2536129693","tag":{"natural":"tree"}},"type":"Feature"},
	{"geometry":{"coordinates":[10.136234,53.480337],"type":"Point"},"properties":{"osm_id":"2536129696","tag":{"natural":"tree"}},"type":"Feature"},
	{"geometry":{"coordinates":[10.13678,53.480239],"type":"Point"},"properties":{"osm_id":"2536129698","tag":{"natural":"tree"}},"type":"Feature"},
	{"geometry":{"coordinates":[10.137002,53.479528],"type":"Point"},"properties":{"osm_id":"2536129700","tag":{"natural":"tree"}},"type":"Feature"},
	{"geometry":{"coordinates":[10.136539,53.48009],"type":"Point"},"properties":{"osm_id":"2536129701","tag":{"natural":"tree"}},"type":"Feature"},
	{"geometry":{"coordinates":[10.136697,53.479944],"type":"Point"},"properties":{"osm_id":"2536129702","tag":{"natural":"tree"}},"type":"Feature"},
	{"geometry":{"coordinates":[10.137761,53.478187],"type":"Point"},"properties":{"osm_id":"2536129703","tag":{"natural":"tree"}},"type":"Feature"},
	{"geometry":{"coordinates":[10.137555,53.478347],"type":"Point"},"properties":{"osm_id":"2536129704","tag":{"natural":"tree"}},"type":"Feature"},
	{"geometry":{"coordinates":[10.137274,53.478634],"type":"Point"},"properties":{"osm_id":"2536129705","tag":{"natural":"tree"}},"type":"Feature"},
	{"geometry":{"coordinates":[10.137369,53.478535],"type":"Point"},"properties":{"osm_id":"2536129706","tag":{"natural":"tree"}},"type":"Feature"},
	{"geometry":{"coordinates":[10.138247,53.477782],"type":"Point"},"properties":{"osm_id":"2536129707","tag":{"natural":"tree"}},"type":"Feature"},
	{"geometry":{"coordinates":[10.138512,53.477598],"type":"Point"},"properties":{"osm_id":"2536129708","tag":{"natural":"tree"}},"type":"Feature"},
	{"geometry":{"coordinates":[10.138777,53.477417],"type":"Point"},"properties":{"osm_id":"2536129709","tag":{"natural":"tree"}},"type":"Feature"},
	{"geometry":{"coordinates":[10.139291,53.477071],"type":"Point"},"properties":{"osm_id":"2536129710","tag":{"natural":"tree"}},"type":"Feature"},
	{"geometry":{"coordinates":[10.139418,53.476944],"type":"Point"},"properties":{"osm_id":"2536129711","tag":{"natural":"tree"}},"type":"Feature"},
	{"geometry":{"coordinates":[10.139532,53.476843],"type":"Point"},"properties":{"osm_id":"2536129712","tag":{"natural":"tree"}},"type":"Feature"},
	{"geometry":{"coordinates":[10.139679,53.47669],"type":"Point"},"properties":{"osm_id":"2536129713","tag":{"natural":"tree"}},"type":"Feature"},
	{"geometry":{"coordinates":[10.139809,53.476553],"type":"Point"},"properties":{"osm_id":"2536129714","tag":{"natural":"tree"}},"type":"Feature"},
	{"geometry":{"coordinates":[10.140023,53.476365],"type":"Point"},"properties":{"osm_id":"2536129715","tag":{"natural":"tree"}},"type":"Feature"},
	{"geometry":{"coordinates":[10.140129,53.476266],"type":"Point"},"properties":{"osm_id":"2536129716","tag":{"natural":"tree"}},"type":"Feature"},
	{"geometry":{"coordinates":[10.14022,53.476196],"type":"Point"},"properties":{"osm_id":"2536129717","tag":{"natural":"tree"}},"type":"Feature"},
	{"geometry":{"coordinates":[10.140774,53.475685],"type":"Point"},"properties":{"osm_id":"2536129720","tag":{"natural":"tree"}},"type":"Feature"},
	{"geometry":{"coordinates":[10.14092,53.475574],"type":"Point"},"properties":{"osm_id":"2536129721","tag":{"natural":"tree"}},"type":"Feature"},
	{"geometry":{"coordinates":[10.141074,53.475478],"type":"Point"},"properties":{"osm_id":"2536129722","tag":{"natural":"tree"}},"type":"Feature"},
	{"geometry":{"coordinates":[10.141984,53.474993],"type":"Point"},"properties":{"osm_id":"2536129724","tag":{"natural":"tree"}},"type":"Feature"},
	{"geometry":{"coordinates":[10.142154,53.474915],"type":"Point"},"properties":{"osm_id":"2536129725","tag":{"natural":"tree"}},"type":"Feature"},
	{"geometry":{"coordinates":[10.14232,53.474838],"type":"Point"},"properties":{"osm_id":"2536129726","tag":{"natural":"tree"}},"type":"Feature"},
	{"geometry":{"coordinates":[10.142439,53.474729],"type":"Point"},"properties":{"osm_id":"2536129727","tag":{"natural":"tree"}},"type":"Feature"},
	{"geometry":{"coordinates":[10.142553,53.474609],"type":"Point"},"properties":{"osm_id":"2536129728","tag":{"natural":"tree"}},"type":"Feature"},
	{"geometry":{"coordinates":[10.14268,53.474499],"type":"Point"},"properties":{"osm_id":"2536129729","tag":{"natural":"tree"}},"type":"Feature"},
	{"geometry":{"coordinates":[10.142941,53.474237],"type":"Point"},"properties":{"osm_id":"2536129730","tag":{"natural":"tree"}},"type":"Feature"},
	{"geometry":{"coordinates":[10.143036,53.474141],"type":"Point"},"properties":{"osm_id":"2536129731","tag":{"natural":"tree"}},"type":"Feature"},
	{"geometry":{"coordinates":[10.143368,53.473896],"type":"Point"},"properties":{"osm_id":"2536129732","tag":{"natural":"tree"}},"type":"Feature"},
	{"geometry":{"coordinates":[10.143483,53.473788],"type":"Point"},"properties":{"osm_id":"2536129733","tag":{"natural":"tree"}},"type":"Feature"},
	{"geometry":{"coordinates":[10.143566,53.473708],"type":"Point"},"properties":{"osm_id":"2536129734","tag":{"natural":"tree"}},"type":"Feature"},
	{"geometry":{"coordinates":[10.14368,53.473588],"type":"Point"},"properties":{"osm_id":"2536129735","tag":{"natural":"tree"}},"type":"Feature"},
	{"geometry":{"coordinates":[10.143767,53.473503],"type":"Point"},"properties":{"osm_id":"2536129736","tag":{"natural":"tree"}},"type":"Feature"},
	{"geometry":{"coordinates":[10.143874,53.473397],"type":"Point"},"properties":{"osm_id":"2536129737","tag":{"natural":"tree"}},"type":"Feature"},
	{"geometry":{"coordinates":[10.143993,53.473296],"type":"Point"},"properties":{"osm_id":"2536129738","tag":{"natural":"tree"}},"type":"Feature"},
	{"geometry":{"coordinates":[10.143886,53.473287],"type":"Point"},"properties":{"osm_id":"2536129739","tag":{"natural":"tree"}},"type":"Feature"},
	{"geometry":{"coordinates":[10.143301,53.474381],"type":"Point"},"properties":{"osm_id":"2536129740","tag":{"natural":"tree"}},"type":"Feature"},
	{"geometry":{"coordinates":[10.143562,53.474329],"type":"Point"},"properties":{"osm_id":"2536129741","tag":{"natural":"tree"}},"type":"Feature"},
	{"geometry":{"coordinates":[10.143317,53.474256],"type":"Point"},"properties":{"osm_id":"2536129742","tag":{"natural":"tree"}},"type":"Feature"},
	{"geometry":{"coordinates":[10.143692,53.47399],"type":"Point"},"properties":{"osm_id":"2536129743","tag":{"natural":"tree"}},"type":"Feature"},
	{"geometry":{"coordinates":[10.14387,53.473729],"type":"Point"},"properties":{"osm_id":"2536129744","tag":{"natural":"tree"}},"type":"Feature"},
	{"geometry":{"coordinates":[10.144246,53.473028],"type":"Point"},"properties":{"osm_id":"2536129745","tag":{"natural":"tree"}},"type":"Feature"},
	{"geometry":{"coordinates":[10.144337,53.472938],"type":"Point"},"properties":{"osm_id":"2536129746","tag":{"natural":"tree"}},"type":"Feature"},
	{"geometry":{"coordinates":[10.144578,53.472701],"type":"Point"},"properties":{"osm_id":"2536129747","tag":{"natural":"tree"}},"type":"Feature"},
	{"geometry":{"coordinates":[10.144685,53.472604],"type":"Point"},"properties":{"osm_id":"2536129748","tag":{"natural":"tree"}},"type":"Feature"},
	{"geometry":{"coordinates":[10.145895,53.472027],"type":"Point"},"properties":{"osm_id":"2536129749","tag":{"natural":"tree"}},"type":"Feature"},
	{"geometry":{"coordinates":[10.14542,53.472352],"type":"Point"},"properties":{"osm_id":"2536129750","tag":{"natural":"tree"}},"type":"Feature"},
	{"geometry":{"coordinates":[10.146021,53.471693],"type":"Point"},"properties":{"osm_id":"2536129751","tag":{"natural":"tree"}},"type":"Feature"},
	{"geometry":{"coordinates":[10.145875,53.471792],"type":"Point"},"properties":{"osm_id":"2536129752","tag":{"natural":"tree"}},"type":"Feature"},
	{"geometry":{"coordinates":[10.145725,53.471882],"type":"Point"},"properties":{"osm_id":"2536129753","tag":{"natural":"tree"}},"type":"Feature"},
	{"geometry":{"coordinates":[10.145503,53.472009],"type":"Point"},"properties":{"osm_id":"2536129754","tag":{"natural":"tree"}},"type":"Feature"},
	{"geometry":{"coordinates":[10.145302,53.472138],"type":"Point"},"properties":{"osm_id":"2536129755","tag":{"natural":"tree"}},"type":"Feature"},
	{"geometry":{"coordinates":[10.145199,53.472202],"type":"Point"},"properties":{"osm_id":"2536129762","tag":{"natural":"tree"}},"type":"Feature"},
	{"geometry":{"coordinates":[10.145088,53.472272],"type":"Point"},"properties":{"osm_id":"2536129765","tag":{"natural":"tree"}},"type":"Feature"},
	{"geometry":{"coordinates":[10.144997,53.472324],"type":"Point"},"properties":{"osm_id":"2536129767","tag":{"natural":"tree"}},"type":"Feature"},
	{"geometry":{"coordinates":[10.146259,53.471552],"type":"Point"},"properties":{"osm_id":"2536129769","tag":{"natural":"tree"}},"type":"Feature"},
	{"geometry":{"coordinates":[10.14616,53.471613],"type":"Point"},"properties":{"osm_id":"2536129772","tag":{"natural":"tree"}},"type":"Feature"},
	{"geometry":{"coordinates":[10.14718,53.471328],"type":"Point"},"properties":{"osm_id":"2536129774","tag":{"natural":"tree"}},"type":"Feature"},
	{"geometry":{"coordinates":[10.148006,53.471578],"type":"Point"},"properties":{"osm_id":"2536129781","tag":{"natural":"tree"}},"type":"Feature"},
	{"geometry":{"coordinates":[10.148137,53.471658],"type":"Point"},"properties":{"osm_id":"2536129783","tag":{"natural":"tree"}},"type":"Feature"},
	{"geometry":{"coordinates":[10.148299,53.471761],"type":"Point"},"properties":{"osm_id":"2536129786","tag":{"natural":"tree"}},"type":"Feature"},
	{"geometry":{"coordinates":[10.148453,53.471858],"type":"Point"},"properties":{"osm_id":"2536129788","tag":{"natural":"tree"}},"type":"Feature"},
	{"geometry":{"coordinates":[10.148556,53.471931],"type":"Point"},"properties":{"osm_id":"2536129790","tag":{"natural":"tree"}},"type":"Feature"},
	{"geometry":{"coordinates":[10.14871,53.472023],"type":"Point"},"properties":{"osm_id":"2536129793","tag":{"natural":"tree"}},"type":"Feature"},
	{"geometry":{"coordinates":[10.148868,53.472107],"type":"Point"},"properties":{"osm_id":"2536129795","tag":{"natural":"tree"}},"type":"Feature"},
	{"geometry":{"coordinates":[10.148979,53.472185],"type":"Point"},"properties":{"osm_id":"2536129798","tag":{"natural":"tree"}},"type":"Feature"},
	{"geometry":{"coordinates":[10.149074,53.472242],"type":"Point"},"properties":{"osm_id":"2536129800","tag":{"natural":"tree"}},"type":"Feature"},
	{"geometry":{"coordinates":[10.149212,53.472298],"type":"Point"},"properties":{"osm_id":"2536129803","tag":{"natural":"tree"}},"type":"Feature"},
	{"geometry":{"coordinates":[10.149454,53.472397],"type":"Point"},"properties":{"osm_id":"2536129805","tag":{"natural":"tree"}},"type":"Feature"},
	{"geometry":{"coordinates":[10.149711,53.472493],"type":"Point"},"properties":{"osm_id":"2536129807","tag":{"natural":"tree"}},"type":"Feature"},
	{"geometry":{"coordinates":[10.149137,53.472493],"type":"Point"},"properties":{"osm_id":"2536129810","tag":{"natural":"tree"}},"type":"Feature"},
	{"geometry":{"coordinates":[10.149418,53.472625],"type":"Point"},"properties":{"osm_id":"2536129812","tag":{"natural":"tree"}},"type":"Feature"},
	{"geometry":{"coordinates":[10.14928,53.472566],"type":"Point"},"properties":{"osm_id":"2536129815","tag":{"natural":"tree"}},"type":"Feature"},
	{"geometry":{"coordinates":[10.150114,53.472677],"type":"Point"},"properties":{"osm_id":"2536129817","tag":{"natural":"tree"}},"type":"Feature"},
	{"geometry":{"coordinates":[10.150438,53.472809],"type":"Point"},"properties":{"osm_id":"2536129819","tag":{"natural":"tree"}},"type":"Feature"},
	{"geometry":{"coordinates":[10.150672,53.472896],"type":"Point"},"properties":{"osm_id":"2536129822","tag":{"natural":"tree"}},"type":"Feature"},
	{"geometry":{"coordinates":[10.150881,53.472964],"type":"Point"},"properties":{"osm_id":"2536129824","tag":{"natural":"tree"}},"type":"Feature"},
	{"geometry":{"coordinates":[10.151024,53.473018],"type":"Point"},"properties":{"osm_id":"2536129827","tag":{"natural":"tree"}},"type":"Feature"},
	{"geometry":{"coordinates":[10.142688,53.482253],"type":"Point"},"properties":{"osm_id":"2536163466","tag":{"natural":"tree"}},"type":"Feature"},
	{"geometry":{"coordinates":[10.142898,53.482218],"type":"Point"},"properties":{"osm_id":"2536163467","tag":{"natural":"tree"}},"type":"Feature"},
	{"geometry":{"coordinates":[10.142969,53.482169],"type":"Point"},"properties":{"osm_id":"2536163468","tag":{"natural":"tree"}},"type":"Feature"},
	{"geometry":{"coordinates":[10.128231,53.482193],"type":"Point"},"properties":{"osm_id":"2546926992","tag":{"natural":"tree"}},"type":"Feature"},
	{"geometry":{"coordinates":[10.159859,53.484701],"type":"Point"},"properties":{"highway":"turning_circle","osm_id":"2550974149","tag":{"leaf_cycle":"deciduous","leaf_type":"broadleaved","natural":"tree"}},"type":"Feature"},
	{"geometry":{"coordinates":[10.109491,53.487957],"type":"Point"},"properties":{"osm_id":"2557329417","tag":{"natural":"tree"}},"type":"Feature"},
	{"geometry":{"coordinates":[10.108552,53.487546],"type":"Point"},"properties":{"osm_id":"2557329420","tag":{"natural":"tree"}},"type":"Feature"},
	{"geometry":{"coordinates":[10.108726,53.487778],"type":"Point"},"properties":{"osm_id":"2557329423","tag":{"natural":"tree"}},"type":"Feature"},
	{"geometry":{"coordinates":[10.109036,53.487952],"type":"Point"},"properties":{"osm_id":"2557329427","tag":{"natural":"tree"}},"type":"Feature"},
	{"geometry":{"coordinates":[10.107547,53.486356],"type":"Point"},"properties":{"osm_id":"2557329439","tag":{"natural":"tree"}},"type":"Feature"},
	{"geometry":{"coordinates":[10.108033,53.48644],"type":"Point"},"properties":{"osm_id":"2557329442","tag":{"natural":"tree"}},"type":"Feature"},
	{"geometry":{"coordinates":[10.108218,53.486963],"type":"Point"},"properties":{"osm_id":"2557329447","tag":{"natural":"tree"}},"type":"Feature"},
	{"geometry":{"coordinates":[10.108201,53.486827],"type":"Point"},"properties":{"osm_id":"2557329450","tag":{"natural":"tree"}},"type":"Feature"},
	{"geometry":{"coordinates":[10.108134,53.486553],"type":"Point"},"properties":{"osm_id":"2557329454","tag":{"natural":"tree"}},"type":"Feature"},
	{"geometry":{"coordinates":[10.10896,53.487329],"type":"Point"},"properties":{"osm_id":"2557329458","tag":{"natural":"tree"}},"type":"Feature"},
	{"geometry":{"coordinates":[10.111143,53.487873],"type":"Point"},"properties":{"osm_id":"2557329463","tag":{"natural":"tree"}},"type":"Feature"},
	{"geometry":{"coordinates":[10.114567,53.485652],"type":"Point"},"properties":{"osm_id":"2557329466","tag":{"natural":"tree"}},"type":"Feature"},
	{"geometry":{"coordinates":[10.160749,53.475119],"type":"Point"},"properties":{"osm_id":"2558485975","tag":{"natural":"tree"}},"type":"Feature"},
	{"geometry":{"coordinates":[10.160455,53.475053],"type":"Point"},"properties":{"osm_id":"2558485979","tag":{"natural":"tree"}},"type":"Feature"},
	{"geometry":{"coordinates":[10.160664,53.47496],"type":"Point"},"properties":{"osm_id":"2558485982","tag":{"natural":"tree"}},"type":"Feature"},
	{"geometry":{"coordinates":[10.16084,53.474882],"type":"Point"},"properties":{"osm_id":"2558485985","tag":{"natural":"tree"}},"type":"Feature"},
	{"geometry":{"coordinates":[10.163165,53.472944],"type":"Point"},"properties":{"osm_id":"2558485989","tag":{"natural":"tree"}},"type":"Feature"},
	{"geometry":{"coordinates":[10.163432,53.473064],"type":"Point"},"properties":{"osm_id":"2558485993","tag":{"natural":"tree"}},"type":"Feature"},
	{"geometry":{"coordinates":[10.163054,53.473568],"type":"Point"},"properties":{"osm_id":"2558485996","tag":{"natural":"tree"}},"type":"Feature"},
	{"geometry":{"coordinates":[10.162996,53.473514],"type":"Point"},"properties":{"osm_id":"2558485999","tag":{"natural":"tree"}},"type":"Feature"},
	{"geometry":{"coordinates":[10.162839,53.473421],"type":"Point"},"properties":{"osm_id":"2558486003","tag":{"natural":"tree"}},"type":"Feature"},
	{"geometry":{"coordinates":[10.162761,53.473347],"type":"Point"},"properties":{"osm_id":"2558486005","tag":{"natural":"tree"}},"type":"Feature"},
	{"geometry":{"coordinates":[10.162707,53.473314],"type":"Point"},"properties":{"osm_id":"2558486007","tag":{"natural":"tree"}},"type":"Feature"},
	{"geometry":{"coordinates":[10.162667,53.473291],"type":"Point"},"properties":{"osm_id":"2558486010","tag":{"natural":"tree"}},"type":"Feature"},
	{"geometry":{"coordinates":[10.162794,53.473211],"type":"Point"},"properties":{"osm_id":"2558486014","tag":{"natural":"tree"}},"type":"Feature"},
	{"geometry":{"coordinates":[10.162916,53.47314],"type":"Point"},"properties":{"osm_id":"2558486025","tag":{"natural":"tree"}},"type":"Feature"},
	{"geometry":{"coordinates":[10.162782,53.473133],"type":"Point"},"properties":{"osm_id":"2558486029","tag":{"natural":"tree"}},"type":"Feature"},
	{"geometry":{"coordinates":[10.162173,53.473526],"type":"Point"},"properties":{"osm_id":"2558486033","tag":{"natural":"tree"}},"type":"Feature"},
	{"geometry":{"coordinates":[10.16228,53.473369],"type":"Point"},"properties":{"osm_id":"2558486036","tag":{"natural":"tree"}},"type":"Feature"},
	{"geometry":{"coordinates":[10.162212,53.473463],"type":"Point"},"properties":{"osm_id":"2558486039","tag":{"natural":"tree"}},"type":"Feature"},
	{"geometry":{"coordinates":[10.162422,53.473274],"type":"Point"},"properties":{"osm_id":"2558486044","tag":{"natural":"tree"}},"type":"Feature"},
	{"geometry":{"coordinates":[10.16256,53.473218],"type":"Point"},"properties":{"osm_id":"2558486047","tag":{"natural":"tree"}},"type":"Feature"},
	{"geometry":{"coordinates":[10.169361,53.473493],"type":"Point"},"properties":{"osm_id":"2558486154","tag":{"natural":"tree"}},"type":"Feature"},
	{"geometry":{"coordinates":[10.158212,53.474394],"type":"Point"},"properties":{"osm_id":"2558533161","tag":{"natural":"tree"}},"type":"Feature"},
	{"geometry":{"coordinates":[10.15801,53.474479],"type":"Point"},"properties":{"osm_id":"2558533162","tag":{"natural":"tree"}},"type":"Feature"},
	{"geometry":{"coordinates":[10.158113,53.475133],"type":"Point"},"properties":{"osm_id":"2558533163","tag":{"natural":"tree"}},"type":"Feature"},
	{"geometry":{"coordinates":[10.158248,53.475055],"type":"Point"},"properties":{"osm_id":"2558533164","tag":{"natural":"tree"}},"type":"Feature"},
	{"geometry":{"coordinates":[10.158441,53.474716],"type":"Point"},"properties":{"osm_id":"2558533165","tag":{"natural":"tree"}},"type":"Feature"},
	{"geometry":{"coordinates":[10.158627,53.474577],"type":"Point"},"properties":{"osm_id":"2558533166","tag":{"natural":"tree"}},"type":"Feature"},
	{"geometry":{"coordinates":[10.158936,53.474394],"type":"Point"},"properties":{"osm_id":"2558533167","tag":{"natural":"tree"}},"type":"Feature"},
	{"geometry":{"coordinates":[10.159031,53.474319],"type":"Point"},"properties":{"osm_id":"2558533168","tag":{"natural":"tree"}},"type":"Feature"},
	{"geometry":{"coordinates":[10.159133,53.474246],"type":"Point"},"properties":{"osm_id":"2558533169","tag":{"natural":"tree"}},"type":"Feature"},
	{"geometry":{"coordinates":[10.15928,53.474159],"type":"Point"},"properties":{"osm_id":"2558533170","tag":{"natural":"tree"}},"type":"Feature"},
	{"geometry":{"coordinates":[10.159505,53.474001],"type":"Point"},"properties":{"osm_id":"2558533171","tag":{"natural":"tree"}},"type":"Feature"},
	{"geometry":{"coordinates":[10.159391,53.473888],"type":"Point"},"properties":{"osm_id":"2558533172","tag":{"natural":"tree"}},"type":"Feature"},
	{"geometry":{"coordinates":[10.157975,53.473897],"type":"Point"},"properties":{"osm_id":"2558533173","tag":{"natural":"tree"}},"type":"Feature"},
	{"geometry":{"coordinates":[10.158014,53.473798],"type":"Point"},"properties":{"osm_id":"2558533174","tag":{"natural":"tree"}},"type":"Feature"},
	{"geometry":{"coordinates":[10.158101,53.473733],"type":"Point"},"properties":{"osm_id":"2558533175","tag":{"natural":"tree"}},"type":"Feature"},
	{"geometry":{"coordinates":[10.158026,53.473643],"type":"Point"},"properties":{"osm_id":"2558533176","tag":{"natural":"tree"}},"type":"Feature"},
	{"geometry":{"coordinates":[10.158528,53.473572],"type":"Point"},"properties":{"osm_id":"2558533177","tag":{"natural":"tree"}},"type":"Feature"},
	{"geometry":{"coordinates":[10.157943,53.473518],"type":"Point"},"properties":{"osm_id":"2558533178","tag":{"natural":"tree"}},"type":"Feature"},
	{"geometry":{"coordinates":[10.158872,53.472949],"type":"Point"},"properties":{"osm_id":"2558533179","tag":{"natural":"tree"}},"type":"Feature"},
	{"geometry":{"coordinates":[10.157809,53.473363],"type":"Point"},"properties":{"osm_id":"2558533180","tag":{"natural":"tree"}},"type":"Feature"},
	{"geometry":{"coordinates":[10.157769,53.473295],"type":"Point"},"properties":{"osm_id":"2558533181","tag":{"natural":"tree"}},"type":"Feature"},
	{"geometry":{"coordinates":[10.157761,53.473194],"type":"Point"},"properties":{"osm_id":"2558533182","tag":{"natural":"tree"}},"type":"Feature"},
	{"geometry":{"coordinates":[10.157757,53.473031],"type":"Point"},"properties":{"osm_id":"2558533183","tag":{"natural":"tree"}},"type":"Feature"},
	{"geometry":{"coordinates":[10.157306,53.472618],"type":"Point"},"properties":{"osm_id":"2558533187","tag":{"natural":"tree"}},"type":"Feature"},
	{"geometry":{"coordinates":[10.157057,53.472457],"type":"Point"},"properties":{"osm_id":"2558533188","tag":{"natural":"tree"}},"type":"Feature"},
	{"geometry":{"coordinates":[10.159791,53.473806],"type":"Point"},"properties":{"osm_id":"2558533189","tag":{"natural":"tree"}},"type":"Feature"},
	{"geometry":{"coordinates":[10.15991,53.47375],"type":"Point"},"properties":{"osm_id":"2558533190","tag":{"natural":"tree"}},"type":"Feature"},
	{"geometry":{"coordinates":[10.16004,53.473653],"type":"Point"},"properties":{"osm_id":"2558533191","tag":{"natural":"tree"}},"type":"Feature"},
	{"geometry":{"coordinates":[10.159807,53.472599],"type":"Point"},"properties":{"osm_id":"2558533192","tag":{"natural":"tree"}},"type":"Feature"},
	{"geometry":{"coordinates":[10.160689,53.473211],"type":"Point"},"properties":{"osm_id":"2558533193","tag":{"natural":"tree"}},"type":"Feature"},
	{"geometry":{"coordinates":[10.16093,53.47306],"type":"Point"},"properties":{"osm_id":"2558533194","tag":{"natural":"tree"}},"type":"Feature"},
	{"geometry":{"coordinates":[10.161586,53.47258],"type":"Point"},"properties":{"osm_id":"2558533195","tag":{"natural":"tree"}},"type":"Feature"},
	{"geometry":{"coordinates":[10.161709,53.472505],"type":"Point"},"properties":{"osm_id":"2558533196","tag":{"natural":"tree"}},"type":"Feature"},
	{"geometry":{"coordinates":[10.161836,53.472399],"type":"Point"},"properties":{"osm_id":"2558533197","tag":{"natural":"tree"}},"type":"Feature"},
	{"geometry":{"coordinates":[10.162124,53.472408],"type":"Point"},"properties":{"osm_id":"2558533198","tag":{"natural":"tree"}},"type":"Feature"},
	{"geometry":{"coordinates":[10.162393,53.472425],"type":"Point"},"properties":{"osm_id":"2558533199","tag":{"natural":"tree"}},"type":"Feature"},
	{"geometry":{"coordinates":[10.162607,53.472015],"type":"Point"},"properties":{"osm_id":"2558533200","tag":{"natural":"tree"}},"type":"Feature"},
	{"geometry":{"coordinates":[10.163097,53.472017],"type":"Point"},"properties":{"osm_id":"2558533201","tag":{"natural":"tree"}},"type":"Feature"},
	{"geometry":{"coordinates":[10.16337,53.472017],"type":"Point"},"properties":{"osm_id":"2558533202","tag":{"natural":"tree"}},"type":"Feature"},
	{"geometry":{"coordinates":[10.163635,53.472024],"type":"Point"},"properties":{"osm_id":"2558533203","tag":{"natural":"tree"}},"type":"Feature"},
	{"geometry":{"coordinates":[10.162611,53.472596],"type":"Point"},"properties":{"osm_id":"2558533204","tag":{"natural":"tree"}},"type":"Feature"},
	{"geometry":{"coordinates":[10.162947,53.472622],"type":"Point"},"properties":{"osm_id":"2558533205","tag":{"natural":"tree"}},"type":"Feature"},
	{"geometry":{"coordinates":[10.163564,53.472526],"type":"Point"},"properties":{"osm_id":"2558533206","tag":{"natural":"tree"}},"type":"Feature"},
	{"geometry":{"coordinates":[10.16441,53.472521],"type":"Point"},"properties":{"osm_id":"2558533207","tag":{"natural":"tree"}},"type":"Feature"},
	{"geometry":{"coordinates":[10.165829,53.47209],"type":"Point"},"properties":{"osm_id":"2558533208","tag":{"natural":"tree"}},"type":"Feature"},
	{"geometry":{"coordinates":[10.167031,53.472396],"type":"Point"},"properties":{"osm_id":"2558533212","tag":{"natural":"tree"}},"type":"Feature"},
	{"geometry":{"coordinates":[10.167383,53.472432],"type":"Point"},"properties":{"osm_id":"2558533213","tag":{"natural":"tree"}},"type":"Feature"},
	{"geometry":{"coordinates":[10.167466,53.472401],"type":"Point"},"properties":{"osm_id":"2558533214","tag":{"natural":"tree"}},"type":"Feature"},
	{"geometry":{"coordinates":[10.167526,53.472378],"type":"Point"},"properties":{"osm_id":"2558533215","tag":{"natural":"tree"}},"type":"Feature"},
	{"geometry":{"coordinates":[10.168384,53.472519],"type":"Point"},"properties":{"osm_id":"2558533216","tag":{"natural":"tree"}},"type":"Feature"},
	{"geometry":{"coordinates":[10.168162,53.472467],"type":"Point"},"properties":{"osm_id":"2558533217","tag":{"natural":"tree"}},"type":"Feature"},
	{"geometry":{"coordinates":[10.167882,53.472385],"type":"Point"},"properties":{"osm_id":"2558533218","tag":{"natural":"tree"}},"type":"Feature"},
	{"geometry":{"coordinates":[10.170337,53.472276],"type":"Point"},"properties":{"osm_id":"2558533219","tag":{"natural":"tree"}},"type":"Feature"},
	{"geometry":{"coordinates":[10.170543,53.472234],"type":"Point"},"properties":{"osm_id":"2558533220","tag":{"natural":"tree"}},"type":"Feature"},
	{"geometry":{"coordinates":[10.16991,53.472168],"type":"Point"},"properties":{"osm_id":"2558533221","tag":{"natural":"tree"}},"type":"Feature"},
	{"geometry":{"coordinates":[10.170227,53.472199],"type":"Point"},"properties":{"osm_id":"2558533222","tag":{"natural":"tree"}},"type":"Feature"},
	{"geometry":{"coordinates":[10.169313,53.472013],"type":"Point"},"properties":{"osm_id":"2558533223","tag":{"natural":"tree"}},"type":"Feature"},
	{"geometry":{"coordinates":[10.169471,53.472128],"type":"Point"},"properties":{"osm_id":"2558533224","tag":{"natural":"tree"}},"type":"Feature"},
	{"geometry":{"coordinates":[10.169574,53.472006],"type":"Point"},"properties":{"osm_id":"2558533225","tag":{"natural":"tree"}},"type":"Feature"},
	{"geometry":{"coordinates":[10.169732,53.472116],"type":"Point"},"properties":{"osm_id":"2558533226","tag":{"natural":"tree"}},"type":"Feature"},
	{"geometry":{"coordinates":[10.1718,53.472067],"type":"Point"},"properties":{"osm_id":"2558533227","tag":{"natural":"tree"}},"type":"Feature"},
	{"geometry":{"coordinates":[10.172065,53.471928],"type":"Point"},"properties":{"osm_id":"2558533228","tag":{"natural":"tree"}},"type":"Feature"},
	{"geometry":{"coordinates":[10.171093,53.472121],"type":"Point"},"properties":{"osm_id":"2558533229","tag":{"natural":"tree"}},"type":"Feature"},
	{"geometry":{"coordinates":[10.17127,53.472083],"type":"Point"},"properties":{"osm_id":"2558533230","tag":{"natural":"tree"}},"type":"Feature"},
	{"geometry":{"coordinates":[10.170685,53.470923],"type":"Point"},"properties":{"osm_id":"2558533231","tag":{"natural":"tree"}},"type":"Feature"},
	{"geometry":{"coordinates":[10.1711,53.470822],"type":"Point"},"properties":{"osm_id":"2558533232","tag":{"natural":"tree"}},"type":"Feature"},
	{"geometry":{"coordinates":[10.171243,53.470685],"type":"Point"},"properties":{"osm_id":"2558533233","tag":{"natural":"tree"}},"type":"Feature"},
	{"geometry":{"coordinates":[10.17095,53.470577],"type":"Point"},"properties":{"osm_id":"2558533234","tag":{"natural":"tree"}},"type":"Feature"},
	{"geometry":{"coordinates":[10.171029,53.470488],"type":"Point"},"properties":{"osm_id":"2558533235","tag":{"natural":"tree"}},"type":"Feature"},
	{"geometry":{"coordinates":[10.172042,53.471777],"type":"Point"},"properties":{"osm_id":"2558533237","tag":{"natural":"tree"}},"type":"Feature"},
	{"geometry":{"coordinates":[10.172172,53.471688],"type":"Point"},"properties":{"osm_id":"2558533238","tag":{"natural":"tree"}},"type":"Feature"},
	{"geometry":{"coordinates":[10.172314,53.471617],"type":"Point"},"properties":{"osm_id":"2558533239","tag":{"natural":"tree"}},"type":"Feature"},
	{"geometry":{"coordinates":[10.172425,53.471561],"type":"Point"},"properties":{"osm_id":"2558533240","tag":{"natural":"tree"}},"type":"Feature"},
	{"geometry":{"coordinates":[10.172499,53.471715],"type":"Point"},"properties":{"osm_id":"2558533244","tag":{"natural":"tree"}},"type":"Feature"},
	{"geometry":{"coordinates":[10.172859,53.471553],"type":"Point"},"properties":{"osm_id":"2558533247","tag":{"natural":"tree"}},"type":"Feature"},
	{"geometry":{"coordinates":[10.173416,53.470666],"type":"Point"},"properties":{"osm_id":"2558533251","tag":{"natural":"tree"}},"type":"Feature"},
	{"geometry":{"coordinates":[10.173867,53.47035],"type":"Point"},"properties":{"osm_id":"2558533253","tag":{"natural":"tree"}},"type":"Feature"},
	{"geometry":{"coordinates":[10.175262,53.470003],"type":"Point"},"properties":{"osm_id":"2558533255","tag":{"natural":"tree"}},"type":"Feature"},
	{"geometry":{"coordinates":[10.17536,53.469968],"type":"Point"},"properties":{"osm_id":"2558533258","tag":{"natural":"tree"}},"type":"Feature"},
	{"geometry":{"coordinates":[10.174699,53.469755],"type":"Point"},"properties":{"osm_id":"2558533261","tag":{"natural":"tree"}},"type":"Feature"},
	{"geometry":{"coordinates":[10.174399,53.469631],"type":"Point"},"properties":{"osm_id":"2558533263","tag":{"natural":"tree"}},"type":"Feature"},
	{"geometry":{"coordinates":[10.174272,53.469494],"type":"Point"},"properties":{"osm_id":"2558533266","tag":{"natural":"tree"}},"type":"Feature"},
	{"geometry":{"coordinates":[10.175201,53.469497],"type":"Point"},"properties":{"osm_id":"2558533269","tag":{"natural":"tree"}},"type":"Feature"},
	{"geometry":{"coordinates":[10.154269,53.470738],"type":"Point"},"properties":{"osm_id":"2558533364","tag":{"natural":"tree"}},"type":"Feature"},
	{"geometry":{"coordinates":[10.157282,53.471008],"type":"Point"},"properties":{"osm_id":"2558533373","tag":{"natural":"tree"}},"type":"Feature"},
	{"geometry":{"coordinates":[10.15769,53.471787],"type":"Point"},"properties":{"osm_id":"2558533375","tag":{"natural":"tree"}},"type":"Feature"},
	{"geometry":{"coordinates":[10.158955,53.471952],"type":"Point"},"properties":{"osm_id":"2558533378","tag":{"natural":"tree"}},"type":"Feature"},
	{"geometry":{"coordinates":[10.159038,53.471575],"type":"Point"},"properties":{"osm_id":"2558533380","tag":{"natural":"tree"}},"type":"Feature"},
	{"geometry":{"coordinates":[10.15907,53.471331],"type":"Point"},"properties":{"osm_id":"2558533383","tag":{"natural":"tree"}},"type":"Feature"},
	{"geometry":{"coordinates":[10.159172,53.472074],"type":"Point"},"properties":{"osm_id":"2558533386","tag":{"natural":"tree"}},"type":"Feature"},
	{"geometry":{"coordinates":[10.158303,53.47186],"type":"Point"},"properties":{"osm_id":"2558533394","tag":{"natural":"tree"}},"type":"Feature"},
	{"geometry":{"coordinates":[10.159706,53.472086],"type":"Point"},"properties":{"osm_id":"2558533397","tag":{"natural":"tree"}},"type":"Feature"},
	{"geometry":{"coordinates":[10.160655,53.472103],"type":"Point"},"properties":{"osm_id":"2558533399","tag":{"natural":"tree"}},"type":"Feature"},
	{"geometry":{"coordinates":[10.15871,53.471726],"type":"Point"},"properties":{"osm_id":"2558533401","tag":{"natural":"tree"}},"type":"Feature"},
	{"geometry":{"coordinates":[10.157843,53.471214],"type":"Point"},"properties":{"osm_id":"2558533402","tag":{"natural":"tree"}},"type":"Feature"},
	{"geometry":{"coordinates":[10.174593,53.471781],"type":"Point"},"properties":{"osm_id":"2558533403","tag":{"natural":"tree"}},"type":"Feature"},
	{"geometry":{"coordinates":[10.174462,53.471614],"type":"Point"},"properties":{"osm_id":"2558533404","tag":{"natural":"tree"}},"type":"Feature"},
	{"geometry":{"coordinates":[10.159633,53.474211],"type":"Point"},"properties":{"osm_id":"2558533406","tag":{"natural":"tree"}},"type":"Feature"},
	{"geometry":{"coordinates":[10.159273,53.474399],"type":"Point"},"properties":{"osm_id":"2558533407","tag":{"natural":"tree"}},"type":"Feature"},
	{"geometry":{"coordinates":[10.159115,53.474507],"type":"Point"},"properties":{"osm_id":"2558533408","tag":{"natural":"tree"}},"type":"Feature"},
	{"geometry":{"coordinates":[10.158984,53.474601],"type":"Point"},"properties":{"osm_id":"2558533409","tag":{"natural":"tree"}},"type":"Feature"},
	{"geometry":{"coordinates":[10.162732,53.474581],"type":"Point"},"properties":{"osm_id":"2558571246","tag":{"natural":"tree"}},"type":"Feature"},
	{"geometry":{"coordinates":[10.158945,53.475292],"type":"Point"},"properties":{"osm_id":"2558571335","tag":{"natural":"tree"}},"type":"Feature"},
	{"geometry":{"coordinates":[10.158301,53.475243],"type":"Point"},"properties":{"osm_id":"2558571336","tag":{"natural":"tree"}},"type":"Feature"},
	{"geometry":{"coordinates":[10.113615,53.47931],"type":"Point"},"properties":{"osm_id":"2565186775","tag":{"natural":"tree"}},"type":"Feature"},
	{"geometry":{"coordinates":[10.113977,53.479337],"type":"Point"},"properties":{"osm_id":"2565186776","tag":{"natural":"tree"}},"type":"Feature"},
	{"geometry":{"coordinates":[10.114443,53.479265],"type":"Point"},"properties":{"osm_id":"2565186777","tag":{"natural":"tree"}},"type":"Feature"},
	{"geometry":{"coordinates":[10.115096,53.479362],"type":"Point"},"properties":{"osm_id":"2565186779","tag":{"natural":"tree"}},"type":"Feature"},
	{"geometry":{"coordinates":[10.115352,53.47943],"type":"Point"},"properties":{"osm_id":"2565186780","tag":{"natural":"tree"}},"type":"Feature"},
	{"geometry":{"coordinates":[10.116218,53.479632],"type":"Point"},"properties":{"osm_id":"2565186782","tag":{"natural":"tree"}},"type":"Feature"},
	{"geometry":{"coordinates":[10.116131,53.479502],"type":"Point"},"properties":{"osm_id":"2565186783","tag":{"natural":"tree"}},"type":"Feature"},
	{"geometry":{"coordinates":[10.127709,53.480807],"type":"Point"},"properties":{"osm_id":"2576076414","tag":{"natural":"tree"}},"type":"Feature"},
	{"geometry":{"coordinates":[10.127565,53.480984],"type":"Point"},"properties":{"osm_id":"2576076415","tag":{"natural":"tree"}},"type":"Feature"},
	{"geometry":{"coordinates":[10.127931,53.481392],"type":"Point"},"properties":{"osm_id":"2576076417","tag":{"natural":"tree"}},"type":"Feature"},
	{"geometry":{"coordinates":[10.127753,53.481402],"type":"Point"},"properties":{"osm_id":"2576076418","tag":{"natural":"tree"}},"type":"Feature"},
	{"geometry":{"coordinates":[10.127739,53.481292],"type":"Point"},"properties":{"osm_id":"2576076419","tag":{"natural":"tree"}},"type":"Feature"},
	{"geometry":{"coordinates":[10.122849,53.477784],"type":"Point"},"properties":{"osm_id":"2576076425","tag":{"natural":"tree"}},"type":"Feature"},
	{"geometry":{"coordinates":[10.12282,53.477733],"type":"Point"},"properties":{"osm_id":"2576076426","tag":{"natural":"tree"}},"type":"Feature"},
	{"geometry":{"coordinates":[10.114873,53.479103],"type":"Point"},"properties":{"osm_id":"2579887903","tag":{"natural":"tree"}},"type":"Feature"},
	{"geometry":{"coordinates":[10.128481,53.475161],"type":"Point"},"properties":{"osm_id":"2579887912","tag":{"natural":"tree"}},"type":"Feature"},
	{"geometry":{"coordinates":[10.123328,53.476712],"type":"Point"},"properties":{"osm_id":"2579887913","tag":{"natural":"tree"}},"type":"Feature"},
	{"geometry":{"coordinates":[10.125526,53.475846],"type":"Point"},"properties":{"osm_id":"2579887914","tag":{"natural":"tree"}},"type":"Feature"},
	{"geometry":{"coordinates":[10.125584,53.476166],"type":"Point"},"properties":{"osm_id":"2579887915","tag":{"natural":"tree"}},"type":"Feature"},
	{"geometry":{"coordinates":[10.130664,53.47102],"type":"Point"},"properties":{"osm_id":"2579887916","tag":{"natural":"tree"}},"type":"Feature"},
	{"geometry":{"coordinates":[10.122062,53.471514],"type":"Point"},"properties":{"osm_id":"2579887917","tag":{"natural":"tree"}},"type":"Feature"},
	{"geometry":{"coordinates":[10.118583,53.471852],"type":"Point"},"properties":{"osm_id":"2579887918","tag":{"natural":"tree"}},"type":"Feature"},
	{"geometry":{"coordinates":[10.118787,53.471731],"type":"Point"},"properties":{"osm_id":"2579887919","tag":{"natural":"tree"}},"type":"Feature"},
	{"geometry":{"coordinates":[10.119486,53.471644],"type":"Point"},"properties":{"osm_id":"2579887920","tag":{"natural":"tree"}},"type":"Feature"},
	{"geometry":{"coordinates":[10.119762,53.471627],"type":"Point"},"properties":{"osm_id":"2579887921","tag":{"natural":"tree"}},"type":"Feature"},
	{"geometry":{"coordinates":[10.12001,53.471627],"type":"Point"},"properties":{"osm_id":"2579887922","tag":{"natural":"tree"}},"type":"Feature"},
	{"geometry":{"coordinates":[10.121189,53.468395],"type":"Point"},"properties":{"osm_id":"2579887923","tag":{"natural":"tree"}},"type":"Feature"},
	{"geometry":{"coordinates":[10.120301,53.469002],"type":"Point"},"properties":{"osm_id":"2579887924","tag":{"natural":"tree"}},"type":"Feature"},
	{"geometry":{"coordinates":[10.120708,53.469279],"type":"Point"},"properties":{"osm_id":"2579887925","tag":{"natural":"tree"}},"type":"Feature"},
	{"geometry":{"coordinates":[10.180185,53.470743],"type":"Point"},"properties":{"osm_id":"2579888388","tag":{"natural":"tree"}},"type":"Feature"},
	{"geometry":{"coordinates":[10.180371,53.470694],"type":"Point"},"properties":{"osm_id":"2579888389","tag":{"natural":"tree"}},"type":"Feature"},
	{"geometry":{"coordinates":[10.180423,53.470603],"type":"Point"},"properties":{"osm_id":"2579888390","tag":{"natural":"tree"}},"type":"Feature"},
	{"geometry":{"coordinates":[10.181426,53.469584],"type":"Point"},"properties":{"osm_id":"2579888391","tag":{"natural":"tree"}},"type":"Feature"},
	{"geometry":{"coordinates":[10.180462,53.469448],"type":"Point"},"properties":{"osm_id":"2579888392","tag":{"natural":"tree"}},"type":"Feature"},
	{"geometry":{"coordinates":[10.181579,53.469442],"type":"Point"},"properties":{"osm_id":"2579888393","tag":{"natural":"tree"}},"type":"Feature"},
	{"geometry":{"coordinates":[10.181716,53.46937],"type":"Point"},"properties":{"osm_id":"2579888394","tag":{"natural":"tree"}},"type":"Feature"},
	{"geometry":{"coordinates":[10.180898,53.470043],"type":"Point"},"properties":{"osm_id":"2579888400","tag":{"natural":"tree"}},"type":"Feature"},
	{"geometry":{"coordinates":[10.180936,53.46988],"type":"Point"},"properties":{"osm_id":"2579888402","tag":{"natural":"tree"}},"type":"Feature"},
	{"geometry":{"coordinates":[10.179648,53.468778],"type":"Point"},"properties":{"osm_id":"2579888405","tag":{"natural":"tree"}},"type":"Feature"},
	{"geometry":{"coordinates":[10.179606,53.468992],"type":"Point"},"properties":{"osm_id":"2579888406","tag":{"natural":"tree"}},"type":"Feature"},
	{"geometry":{"coordinates":[10.180067,53.469235],"type":"Point"},"properties":{"osm_id":"2579888407","tag":{"natural":"tree"}},"type":"Feature"},
	{"geometry":{"coordinates":[10.179927,53.469289],"type":"Point"},"properties":{"osm_id":"2579888408","tag":{"natural":"tree"}},"type":"Feature"},
	{"geometry":{"coordinates":[10.179922,53.469155],"type":"Point"},"properties":{"osm_id":"2579888409","tag":{"natural":"tree"}},"type":"Feature"},
	{"geometry":{"coordinates":[10.179804,53.469136],"type":"Point"},"properties":{"osm_id":"2579888410","tag":{"natural":"tree"}},"type":"Feature"},
	{"geometry":{"coordinates":[10.178645,53.46829],"type":"Point"},"properties":{"osm_id":"2579888411","tag":{"natural":"tree"}},"type":"Feature"},
	{"geometry":{"coordinates":[10.178667,53.468149],"type":"Point"},"properties":{"osm_id":"2579888412","tag":{"natural":"tree"}},"type":"Feature"},
	{"geometry":{"coordinates":[10.178973,53.467849],"type":"Point"},"properties":{"osm_id":"2579888413","tag":{"natural":"tree"}},"type":"Feature"},
	{"geometry":{"coordinates":[10.178012,53.467846],"type":"Point"},"properties":{"osm_id":"2579888414","tag":{"natural":"tree"}},"type":"Feature"},
	{"geometry":{"coordinates":[10.17813,53.467935],"type":"Point"},"properties":{"osm_id":"2579888415","tag":{"natural":"tree"}},"type":"Feature"},
	{"geometry":{"coordinates":[10.178345,53.46805],"type":"Point"},"properties":{"osm_id":"2579888416","tag":{"natural":"tree"}},"type":"Feature"},
	{"geometry":{"coordinates":[10.117434,53.476294],"type":"Point"},"properties":{"osm_id":"2579917737","tag":{"natural":"tree"}},"type":"Feature"},
	{"geometry":{"coordinates":[10.117592,53.476327],"type":"Point"},"properties":{"osm_id":"2579917738","tag":{"natural":"tree"}},"type":"Feature"},
	{"geometry":{"coordinates":[10.117664,53.476435],"type":"Point"},"properties":{"osm_id":"2579917739","tag":{"natural":"tree"}},"type":"Feature"},
	{"geometry":{"coordinates":[10.117806,53.47653],"type":"Point"},"properties":{"osm_id":"2579917740","tag":{"natural":"tree"}},"type":"Feature"},
	{"geometry":{"coordinates":[10.118616,53.476918],"type":"Point"},"properties":{"osm_id":"2579917741","tag":{"natural":"tree"}},"type":"Feature"},
	{"geometry":{"coordinates":[10.118506,53.476883],"type":"Point"},"properties":{"osm_id":"2579917742","tag":{"natural":"tree"}},"type":"Feature"},
	{"geometry":{"coordinates":[10.118324,53.476805],"type":"Point"},"properties":{"osm_id":"2579917743","tag":{"natural":"tree"}},"type":"Feature"},
	{"geometry":{"coordinates":[10.118225,53.476763],"type":"Point"},"properties":{"osm_id":"2579917744","tag":{"natural":"tree"}},"type":"Feature"},
	{"geometry":{"coordinates":[10.11811,53.476701],"type":"Point"},"properties":{"osm_id":"2579917745","tag":{"natural":"tree"}},"type":"Feature"},
	{"geometry":{"coordinates":[10.118019,53.476657],"type":"Point"},"properties":{"osm_id":"2579917746","tag":{"natural":"tree"}},"type":"Feature"},
	{"geometry":{"coordinates":[10.117921,53.476612],"type":"Point"},"properties":{"osm_id":"2579917747","tag":{"natural":"tree"}},"type":"Feature"},
	{"geometry":{"coordinates":[10.120309,53.477186],"type":"Point"},"properties":{"osm_id":"2579917748","tag":{"natural":"tree"}},"type":"Feature"},
	{"geometry":{"coordinates":[10.120273,53.477329],"type":"Point"},"properties":{"osm_id":"2579917749","tag":{"natural":"tree"}},"type":"Feature"},
	{"geometry":{"coordinates":[10.120633,53.477362],"type":"Point"},"properties":{"osm_id":"2579917750","tag":{"natural":"tree"}},"type":"Feature"},
	{"geometry":{"coordinates":[10.121044,53.477487],"type":"Point"},"properties":{"osm_id":"2579917751","tag":{"natural":"tree"}},"type":"Feature"},
	{"geometry":{"coordinates":[10.123033,53.477809],"type":"Point"},"properties":{"osm_id":"2579917752","tag":{"natural":"tree"}},"type":"Feature"},
	{"geometry":{"coordinates":[10.123943,53.478296],"type":"Point"},"properties":{"osm_id":"2579917753","tag":{"natural":"tree"}},"type":"Feature"},
	{"geometry":{"coordinates":[10.122282,53.477859],"type":"Point"},"properties":{"osm_id":"2579917754","tag":{"natural":"tree"}},"type":"Feature"},
	{"geometry":{"coordinates":[10.122488,53.477986],"type":"Point"},"properties":{"osm_id":"2579917755","tag":{"natural":"tree"}},"type":"Feature"},
	{"geometry":{"coordinates":[10.122428,53.47796],"type":"Point"},"properties":{"osm_id":"2579917756","tag":{"natural":"tree"}},"type":"Feature"},
	{"geometry":{"coordinates":[10.175451,53.464775],"type":"Point"},"properties":{"osm_id":"2579917774","tag":{"natural":"tree"}},"type":"Feature"},
	{"geometry":{"coordinates":[10.175609,53.467933],"type":"Point"},"properties":{"osm_id":"2579917775","tag":{"natural":"tree"}},"type":"Feature"},
	{"geometry":{"coordinates":[10.174015,53.46767],"type":"Point"},"properties":{"osm_id":"2579917776","tag":{"natural":"tree"}},"type":"Feature"},
	{"geometry":{"coordinates":[10.174178,53.4677],"type":"Point"},"properties":{"osm_id":"2579917777","tag":{"natural":"tree"}},"type":"Feature"},
	{"geometry":{"coordinates":[10.174344,53.467729],"type":"Point"},"properties":{"osm_id":"2579917778","tag":{"natural":"tree"}},"type":"Feature"},
	{"geometry":{"coordinates":[10.174696,53.467788],"type":"Point"},"properties":{"osm_id":"2579917779","tag":{"natural":"tree"}},"type":"Feature"},
	{"geometry":{"coordinates":[10.175427,53.467917],"type":"Point"},"properties":{"osm_id":"2579917780","tag":{"natural":"tree"}},"type":"Feature"},
	{"geometry":{"coordinates":[10.175245,53.467886],"type":"Point"},"properties":{"osm_id":"2579917781","tag":{"natural":"tree"}},"type":"Feature"},
	{"geometry":{"coordinates":[10.175067,53.467856],"type":"Point"},"properties":{"osm_id":"2579917782","tag":{"natural":"tree"}},"type":"Feature"},
	{"geometry":{"coordinates":[10.174877,53.46782],"type":"Point"},"properties":{"osm_id":"2579917783","tag":{"natural":"tree"}},"type":"Feature"},
	{"geometry":{"coordinates":[10.176246,53.467639],"type":"Point"},"properties":{"osm_id":"2579917784","tag":{"natural":"tree"}},"type":"Feature"},
	{"geometry":{"coordinates":[10.176428,53.467453],"type":"Point"},"properties":{"osm_id":"2579917785","tag":{"natural":"tree"}},"type":"Feature"},
	{"geometry":{"coordinates":[10.176617,53.467338],"type":"Point"},"properties":{"osm_id":"2579917786","tag":{"natural":"tree"}},"type":"Feature"},
	{"geometry":{"coordinates":[10.176863,53.467263],"type":"Point"},"properties":{"osm_id":"2579917787","tag":{"natural":"tree"}},"type":"Feature"},
	{"geometry":{"coordinates":[10.177127,53.467194],"type":"Point"},"properties":{"osm_id":"2579917788","tag":{"natural":"tree"}},"type":"Feature"},
	{"geometry":{"coordinates":[10.177345,53.467159],"type":"Point"},"properties":{"osm_id":"2579917789","tag":{"natural":"tree"}},"type":"Feature"},
	{"geometry":{"coordinates":[10.177582,53.467098],"type":"Point"},"properties":{"osm_id":"2579917790","tag":{"natural":"tree"}},"type":"Feature"},
	{"geometry":{"coordinates":[10.177839,53.467055],"type":"Point"},"properties":{"osm_id":"2579917791","tag":{"natural":"tree"}},"type":"Feature"},
	{"geometry":{"coordinates":[10.178061,53.466994],"type":"Point"},"properties":{"osm_id":"2579917792","tag":{"natural":"tree"}},"type":"Feature"},
	{"geometry":{"coordinates":[10.178318,53.466942],"type":"Point"},"properties":{"osm_id":"2579917793","tag":{"natural":"tree"}},"type":"Feature"},
	{"geometry":{"coordinates":[10.178527,53.466893],"type":"Point"},"properties":{"osm_id":"2579917794","tag":{"natural":"tree"}},"type":"Feature"},
	{"geometry":{"coordinates":[10.178769,53.466822],"type":"Point"},"properties":{"osm_id":"2579917795","tag":{"natural":"tree"}},"type":"Feature"},
	{"geometry":{"coordinates":[10.17901,53.466754],"type":"Point"},"properties":{"osm_id":"2579917796","tag":{"natural":"tree"}},"type":"Feature"},
	{"geometry":{"coordinates":[10.179184,53.466702],"type":"Point"},"properties":{"osm_id":"2579917797","tag":{"natural":"tree"}},"type":"Feature"},
	{"geometry":{"coordinates":[10.179354,53.466644],"type":"Point"},"properties":{"osm_id":"2579917798","tag":{"natural":"tree"}},"type":"Feature"},
	{"geometry":{"coordinates":[10.179544,53.466578],"type":"Point"},"properties":{"osm_id":"2579917799","tag":{"natural":"tree"}},"type":"Feature"},
	{"geometry":{"coordinates":[10.179733,53.466521],"type":"Point"},"properties":{"osm_id":"2579917800","tag":{"natural":"tree"}},"type":"Feature"},
	{"geometry":{"coordinates":[10.179892,53.466465],"type":"Point"},"properties":{"osm_id":"2579917801","tag":{"natural":"tree"}},"type":"Feature"},
	{"geometry":{"coordinates":[10.180069,53.466392],"type":"Point"},"properties":{"osm_id":"2579917802","tag":{"natural":"tree"}},"type":"Feature"},
	{"geometry":{"coordinates":[10.180287,53.466314],"type":"Point"},"properties":{"osm_id":"2579917803","tag":{"natural":"tree"}},"type":"Feature"},
	{"geometry":{"coordinates":[10.180524,53.466215],"type":"Point"},"properties":{"osm_id":"2579917804","tag":{"natural":"tree"}},"type":"Feature"},
	{"geometry":{"coordinates":[10.180647,53.466159],"type":"Point"},"properties":{"osm_id":"2579917805","tag":{"natural":"tree"}},"type":"Feature"},
	{"geometry":{"coordinates":[10.180805,53.466081],"type":"Point"},"properties":{"osm_id":"2579917806","tag":{"natural":"tree"}},"type":"Feature"},
	{"geometry":{"coordinates":[10.181019,53.46597],"type":"Point"},"properties":{"osm_id":"2579917807","tag":{"natural":"tree"}},"type":"Feature"},
	{"geometry":{"coordinates":[10.181307,53.465836],"type":"Point"},"properties":{"osm_id":"2579917808","tag":{"natural":"tree"}},"type":"Feature"},
	{"geometry":{"coordinates":[10.181204,53.465895],"type":"Point"},"properties":{"osm_id":"2579917809","tag":{"natural":"tree"}},"type":"Feature"},
	{"geometry":{"coordinates":[10.18281,53.465843],"type":"Point"},"properties":{"osm_id":"2579917810","tag":{"natural":"tree"}},"type":"Feature"},
	{"geometry":{"coordinates":[10.182731,53.465772],"type":"Point"},"properties":{"osm_id":"2579917811","tag":{"natural":"tree"}},"type":"Feature"},
	{"geometry":{"coordinates":[10.182549,53.464826],"type":"Point"},"properties":{"osm_id":"2579917812","tag":{"natural":"tree"}},"type":"Feature"},
	{"geometry":{"coordinates":[10.182422,53.464732],"type":"Point"},"properties":{"osm_id":"2579917813","tag":{"natural":"tree"}},"type":"Feature"},
	{"geometry":{"coordinates":[10.182446,53.465601],"type":"Point"},"properties":{"osm_id":"2579917815","tag":{"natural":"tree"}},"type":"Feature"},
	{"geometry":{"coordinates":[10.182347,53.465537],"type":"Point"},"properties":{"osm_id":"2579917816","tag":{"natural":"tree"}},"type":"Feature"},
	{"geometry":{"coordinates":[10.182248,53.465476],"type":"Point"},"properties":{"osm_id":"2579917817","tag":{"natural":"tree"}},"type":"Feature"},
	{"geometry":{"coordinates":[10.182323,53.465248],"type":"Point"},"properties":{"osm_id":"2579917818","tag":{"natural":"tree"}},"type":"Feature"},
	{"geometry":{"coordinates":[10.18211,53.465186],"type":"Point"},"properties":{"osm_id":"2579917819","tag":{"natural":"tree"}},"type":"Feature"},
	{"geometry":{"coordinates":[10.1819,53.465066],"type":"Point"},"properties":{"osm_id":"2579917820","tag":{"natural":"tree"}},"type":"Feature"},
	{"geometry":{"coordinates":[10.180528,53.464744],"type":"Point"},"properties":{"osm_id":"2579917821","tag":{"natural":"tree"}},"type":"Feature"},
	{"geometry":{"coordinates":[10.180726,53.464765],"type":"Point"},"properties":{"osm_id":"2579917822","tag":{"natural":"tree"}},"type":"Feature"},
	{"geometry":{"coordinates":[10.18088,53.464782],"type":"Point"},"properties":{"osm_id":"2579917823","tag":{"natural":"tree"}},"type":"Feature"},
	{"geometry":{"coordinates":[10.181141,53.464786],"type":"Point"},"properties":{"osm_id":"2579917824","tag":{"natural":"tree"}},"type":"Feature"},
	{"geometry":{"coordinates":[10.181291,53.464833],"type":"Point"},"properties":{"osm_id":"2579917825","tag":{"natural":"tree"}},"type":"Feature"},
	{"geometry":{"coordinates":[10.181438,53.464887],"type":"Point"},"properties":{"osm_id":"2579917826","tag":{"natural":"tree"}},"type":"Feature"},
	{"geometry":{"coordinates":[10.18158,53.464944],"type":"Point"},"properties":{"osm_id":"2579917827","tag":{"natural":"tree"}},"type":"Feature"},
	{"geometry":{"coordinates":[10.181766,53.465022],"type":"Point"},"properties":{"osm_id":"2579917828","tag":{"natural":"tree"}},"type":"Feature"},
	{"geometry":{"coordinates":[10.183151,53.466086],"type":"Point"},"properties":{"osm_id":"2579917831","tag":{"natural":"tree"}},"type":"Feature"},
	{"geometry":{"coordinates":[10.183511,53.466333],"type":"Point"},"properties":{"osm_id":"2579917832","tag":{"natural":"tree"}},"type":"Feature"},
	{"geometry":{"coordinates":[10.183654,53.466455],"type":"Point"},"properties":{"osm_id":"2579917833","tag":{"natural":"tree"}},"type":"Feature"},
	{"geometry":{"coordinates":[10.188459,53.46857],"type":"Point"},"properties":{"osm_id":"2579917834","tag":{"natural":"tree"}},"type":"Feature"},
	{"geometry":{"coordinates":[10.18783,53.469],"type":"Point"},"properties":{"osm_id":"2579917835","tag":{"natural":"tree"}},"type":"Feature"},
	{"geometry":{"coordinates":[10.187553,53.469085],"type":"Point"},"properties":{"osm_id":"2579917837","tag":{"natural":"tree"}},"type":"Feature"},
	{"geometry":{"coordinates":[10.187249,53.469003],"type":"Point"},"properties":{"osm_id":"2579917842","tag":{"natural":"tree"}},"type":"Feature"},
	{"geometry":{"coordinates":[10.187063,53.468871],"type":"Point"},"properties":{"osm_id":"2579917843","tag":{"natural":"tree"}},"type":"Feature"},
	{"geometry":{"coordinates":[10.186663,53.468591],"type":"Point"},"properties":{"osm_id":"2579917844","tag":{"natural":"tree"}},"type":"Feature"},
	{"geometry":{"coordinates":[10.186493,53.468459],"type":"Point"},"properties":{"osm_id":"2579917845","tag":{"natural":"tree"}},"type":"Feature"},
	{"geometry":{"coordinates":[10.186098,53.468193],"type":"Point"},"properties":{"osm_id":"2579917846","tag":{"natural":"tree"}},"type":"Feature"},
	{"geometry":{"coordinates":[10.185936,53.468085],"type":"Point"},"properties":{"osm_id":"2579917847","tag":{"natural":"tree"}},"type":"Feature"},
	{"geometry":{"coordinates":[10.185758,53.467967],"type":"Point"},"properties":{"osm_id":"2579917848","tag":{"natural":"tree"}},"type":"Feature"},
	{"geometry":{"coordinates":[10.185615,53.467856],"type":"Point"},"properties":{"osm_id":"2579917850","tag":{"natural":"tree"}},"type":"Feature"},
	{"geometry":{"coordinates":[10.185426,53.467692],"type":"Point"},"properties":{"osm_id":"2579917851","tag":{"natural":"tree"}},"type":"Feature"},
	{"geometry":{"coordinates":[10.185271,53.467602],"type":"Point"},"properties":{"osm_id":"2579917852","tag":{"natural":"tree"}},"type":"Feature"},
	{"geometry":{"coordinates":[10.185295,53.467866],"type":"Point"},"properties":{"osm_id":"2579917853","tag":{"natural":"tree"}},"type":"Feature"},
	{"geometry":{"coordinates":[10.185683,53.468139],"type":"Point"},"properties":{"osm_id":"2579917854","tag":{"natural":"tree"}},"type":"Feature"},
	{"geometry":{"coordinates":[10.185873,53.468282],"type":"Point"},"properties":{"osm_id":"2579917855","tag":{"natural":"tree"}},"type":"Feature"},
	{"geometry":{"coordinates":[10.186489,53.468718],"type":"Point"},"properties":{"osm_id":"2579917856","tag":{"natural":"tree"}},"type":"Feature"},
	{"geometry":{"coordinates":[10.186806,53.468937],"type":"Point"},"properties":{"osm_id":"2579917857","tag":{"natural":"tree"}},"type":"Feature"},
	{"geometry":{"coordinates":[10.187098,53.469149],"type":"Point"},"properties":{"osm_id":"2579917858","tag":{"natural":"tree"}},"type":"Feature"},
	{"geometry":{"coordinates":[10.187887,53.469429],"type":"Point"},"properties":{"osm_id":"2582735047","tag":{"natural":"tree"}},"type":"Feature"},
	{"geometry":{"coordinates":[10.188026,53.469514],"type":"Point"},"properties":{"osm_id":"2582735048","tag":{"natural":"tree"}},"type":"Feature"},
	{"geometry":{"coordinates":[10.188149,53.469594],"type":"Point"},"properties":{"osm_id":"2582735049","tag":{"natural":"tree"}},"type":"Feature"},
	{"geometry":{"coordinates":[10.188283,53.469677],"type":"Point"},"properties":{"osm_id":"2582735050","tag":{"natural":"tree"}},"type":"Feature"},
	{"geometry":{"coordinates":[10.188396,53.469757],"type":"Point"},"properties":{"osm_id":"2582735051","tag":{"natural":"tree"}},"type":"Feature"},
	{"geometry":{"coordinates":[10.18853,53.469828],"type":"Point"},"properties":{"osm_id":"2582735052","tag":{"natural":"tree"}},"type":"Feature"},
	{"geometry":{"coordinates":[10.18867,53.469908],"type":"Point"},"properties":{"osm_id":"2582735053","tag":{"natural":"tree"}},"type":"Feature"},
	{"geometry":{"coordinates":[10.18878,53.469982],"type":"Point"},"properties":{"osm_id":"2582735054","tag":{"natural":"tree"}},"type":"Feature"},
	{"geometry":{"coordinates":[10.188916,53.470066],"type":"Point"},"properties":{"osm_id":"2582735055","tag":{"natural":"tree"}},"type":"Feature"},
	{"geometry":{"coordinates":[10.189053,53.470149],"type":"Point"},"properties":{"osm_id":"2582735056","tag":{"natural":"tree"}},"type":"Feature"},
	{"geometry":{"coordinates":[10.189182,53.470229],"type":"Point"},"properties":{"osm_id":"2582735057","tag":{"natural":"tree"}},"type":"Feature"},
	{"geometry":{"coordinates":[10.189316,53.470311],"type":"Point"},"properties":{"osm_id":"2582735058","tag":{"natural":"tree"}},"type":"Feature"},
	{"geometry":{"coordinates":[10.189431,53.470386],"type":"Point"},"properties":{"osm_id":"2582735059","tag":{"natural":"tree"}},"type":"Feature"},
	{"geometry":{"coordinates":[10.18956,53.470464],"type":"Point"},"properties":{"osm_id":"2582735060","tag":{"natural":"tree"}},"type":"Feature"},
	{"geometry":{"coordinates":[10.1897,53.470537],"type":"Point"},"properties":{"osm_id":"2582735061","tag":{"natural":"tree"}},"type":"Feature"},
	{"geometry":{"coordinates":[10.18982,53.470619],"type":"Point"},"properties":{"osm_id":"2582735062","tag":{"natural":"tree"}},"type":"Feature"},
	{"geometry":{"coordinates":[10.189949,53.470691],"type":"Point"},"properties":{"osm_id":"2582735063","tag":{"natural":"tree"}},"type":"Feature"},
	{"geometry":{"coordinates":[10.190056,53.470758],"type":"Point"},"properties":{"osm_id":"2582735064","tag":{"natural":"tree"}},"type":"Feature"},
	{"geometry":{"coordinates":[10.190185,53.470836],"type":"Point"},"properties":{"osm_id":"2582735065","tag":{"natural":"tree"}},"type":"Feature"},
	{"geometry":{"coordinates":[10.190993,53.471104],"type":"Point"},"properties":{"osm_id":"2582735066","tag":{"natural":"tree"}},"type":"Feature"},
	{"geometry":{"coordinates":[10.190333,53.470919],"type":"Point"},"properties":{"osm_id":"2582735067","tag":{"natural":"tree"}},"type":"Feature"},
	{"geometry":{"coordinates":[10.190445,53.470992],"type":"Point"},"properties":{"osm_id":"2582735068","tag":{"natural":"tree"}},"type":"Feature"},
	{"geometry":{"coordinates":[10.190574,53.471064],"type":"Point"},"properties":{"osm_id":"2582735069","tag":{"natural":"tree"}},"type":"Feature"},
	{"geometry":{"coordinates":[10.191202,53.471454],"type":"Point"},"properties":{"osm_id":"2582735070","tag":{"natural":"tree"}},"type":"Feature"},
	{"geometry":{"coordinates":[10.191068,53.471372],"type":"Point"},"properties":{"osm_id":"2582735071","tag":{"natural":"tree"}},"type":"Feature"},
	{"geometry":{"coordinates":[10.190939,53.471297],"type":"Point"},"properties":{"osm_id":"2582735072","tag":{"natural":"tree"}},"type":"Feature"},
	{"geometry":{"coordinates":[10.190818,53.471217],"type":"Point"},"properties":{"osm_id":"2582735073","tag":{"natural":"tree"}},"type":"Feature"},
	{"geometry":{"coordinates":[10.190692,53.471142],"type":"Point"},"properties":{"osm_id":"2582735074","tag":{"natural":"tree"}},"type":"Feature"},
	{"geometry":{"coordinates":[10.191373,53.471562],"type":"Point"},"properties":{"osm_id":"2582735075","tag":{"natural":"tree"}},"type":"Feature"},
	{"geometry":{"coordinates":[10.19155,53.471664],"type":"Point"},"properties":{"osm_id":"2582735076","tag":{"natural":"tree"}},"type":"Feature"},
	{"geometry":{"coordinates":[10.19232,53.472134],"type":"Point"},"properties":{"osm_id":"2582735077","tag":{"natural":"tree"}},"type":"Feature"},
	{"geometry":{"coordinates":[10.192221,53.472067],"type":"Point"},"properties":{"osm_id":"2582735078","tag":{"natural":"tree"}},"type":"Feature"},
	{"geometry":{"coordinates":[10.192089,53.471993],"type":"Point"},"properties":{"osm_id":"2582735079","tag":{"natural":"tree"}},"type":"Feature"},
	{"geometry":{"coordinates":[10.191963,53.47191],"type":"Point"},"properties":{"osm_id":"2582735080","tag":{"natural":"tree"}},"type":"Feature"},
	{"geometry":{"coordinates":[10.191843,53.471842],"type":"Point"},"properties":{"osm_id":"2582735081","tag":{"natural":"tree"}},"type":"Feature"},
	{"geometry":{"coordinates":[10.191727,53.471768],"type":"Point"},"properties":{"osm_id":"2582735082","tag":{"natural":"tree"}},"type":"Feature"},
	{"geometry":{"coordinates":[10.191446,53.47183],"type":"Point"},"properties":{"osm_id":"2582735083","tag":{"natural":"tree"}},"type":"Feature"},
	{"geometry":{"coordinates":[10.192594,53.4723],"type":"Point"},"properties":{"osm_id":"2582735084","tag":{"natural":"tree"}},"type":"Feature"},
	{"geometry":{"coordinates":[10.192723,53.472372],"type":"Point"},"properties":{"osm_id":"2582735085","tag":{"natural":"tree"}},"type":"Feature"},
	{"geometry":{"coordinates":[10.192926,53.472499],"type":"Point"},"properties":{"osm_id":"2582735086","tag":{"natural":"tree"}},"type":"Feature"},
	{"geometry":{"coordinates":[10.193074,53.472587],"type":"Point"},"properties":{"osm_id":"2582735087","tag":{"natural":"tree"}},"type":"Feature"},
	{"geometry":{"coordinates":[10.193385,53.472777],"type":"Point"},"properties":{"osm_id":"2582735088","tag":{"natural":"tree"}},"type":"Feature"},
	{"geometry":{"coordinates":[10.191714,53.471982],"type":"Point"},"properties":{"osm_id":"2582735089","tag":{"natural":"tree"}},"type":"Feature"},
	{"geometry":{"coordinates":[10.191856,53.472068],"type":"Point"},"properties":{"osm_id":"2582735090","tag":{"natural":"tree"}},"type":"Feature"},
	{"geometry":{"coordinates":[10.189933,53.470938],"type":"Point"},"properties":{"osm_id":"2582735091","tag":{"natural":"tree"}},"type":"Feature"},
	{"geometry":{"coordinates":[10.190689,53.471383],"type":"Point"},"properties":{"osm_id":"2582735092","tag":{"natural":"tree"}},"type":"Feature"},
	{"geometry":{"coordinates":[10.190563,53.471302],"type":"Point"},"properties":{"osm_id":"2582735093","tag":{"natural":"tree"}},"type":"Feature"},
	{"geometry":{"coordinates":[10.190472,53.471262],"type":"Point"},"properties":{"osm_id":"2582735094","tag":{"natural":"tree"}},"type":"Feature"},
	{"geometry":{"coordinates":[10.185028,53.467689],"type":"Point"},"properties":{"osm_id":"2582735111","tag":{"natural":"tree"}},"type":"Feature"},
	{"geometry":{"coordinates":[10.184339,53.467192],"type":"Point"},"properties":{"osm_id":"2582735113","tag":{"natural":"tree"}},"type":"Feature"},
	{"geometry":{"coordinates":[10.184445,53.467268],"type":"Point"},"properties":{"osm_id":"2582735117","tag":{"natural":"tree"}},"type":"Feature"},
	{"geometry":{"coordinates":[10.184529,53.467345],"type":"Point"},"properties":{"osm_id":"2582735119","tag":{"natural":"tree"}},"type":"Feature"},
	{"geometry":{"coordinates":[10.184922,53.467613],"type":"Point"},"properties":{"osm_id":"2582735122","tag":{"natural":"tree"}},"type":"Feature"},
	{"geometry":{"coordinates":[10.184847,53.46756],"type":"Point"},"properties":{"osm_id":"2582735124","tag":{"natural":"tree"}},"type":"Feature"},
	{"geometry":{"coordinates":[10.184763,53.467508],"type":"Point"},"properties":{"osm_id":"2582735127","tag":{"natural":"tree"}},"type":"Feature"},
	{"geometry":{"coordinates":[10.18467,53.46745],"type":"Point"},"properties":{"osm_id":"2582735129","tag":{"natural":"tree"}},"type":"Feature"},
	{"geometry":{"coordinates":[10.182616,53.466929],"type":"Point"},"properties":{"osm_id":"2582735132","tag":{"natural":"tree"}},"type":"Feature"},
	{"geometry":{"coordinates":[10.184206,53.467103],"type":"Point"},"properties":{"osm_id":"2582735134","tag":{"natural":"tree"}},"type":"Feature"},
	{"geometry":{"coordinates":[10.184122,53.467045],"type":"Point"},"properties":{"osm_id":"2582735137","tag":{"natural":"tree"}},"type":"Feature"},
	{"geometry":{"coordinates":[10.183862,53.467084],"type":"Point"},"properties":{"osm_id":"2582735140","tag":{"natural":"tree"}},"type":"Feature"},
	{"geometry":{"coordinates":[10.18353,53.466861],"type":"Point"},"properties":{"osm_id":"2582735142","tag":{"natural":"tree"}},"type":"Feature"},
	{"geometry":{"coordinates":[10.18312,53.466563],"type":"Point"},"properties":{"osm_id":"2582735145","tag":{"natural":"tree"}},"type":"Feature"},
	{"geometry":{"coordinates":[10.183292,53.466677],"type":"Point"},"properties":{"osm_id":"2582735147","tag":{"natural":"tree"}},"type":"Feature"},
	{"geometry":{"coordinates":[10.183376,53.46675],"type":"Point"},"properties":{"osm_id":"2582735150","tag":{"natural":"tree"}},"type":"Feature"},
	{"geometry":{"coordinates":[10.183451,53.466816],"type":"Point"},"properties":{"osm_id":"2582735152","tag":{"natural":"tree"}},"type":"Feature"},
	{"geometry":{"coordinates":[10.189769,53.468787],"type":"Point"},"properties":{"osm_id":"2582735174","tag":{"natural":"tree"}},"type":"Feature"},
	{"geometry":{"coordinates":[10.189526,53.468632],"type":"Point"},"properties":{"osm_id":"2582735176","tag":{"natural":"tree"}},"type":"Feature"},
	{"geometry":{"coordinates":[10.189283,53.468469],"type":"Point"},"properties":{"osm_id":"2582735185","tag":{"natural":"tree"}},"type":"Feature"},
	{"geometry":{"coordinates":[10.190036,53.46788],"type":"Point"},"properties":{"osm_id":"2582735186","tag":{"natural":"tree"}},"type":"Feature"},
	{"geometry":{"coordinates":[10.189031,53.468151],"type":"Point"},"properties":{"osm_id":"2582735195","tag":{"natural":"tree"}},"type":"Feature"},
	{"geometry":{"coordinates":[10.189464,53.467357],"type":"Point"},"properties":{"osm_id":"2582735196","tag":{"natural":"tree"}},"type":"Feature"},
	{"geometry":{"coordinates":[10.189668,53.467304],"type":"Point"},"properties":{"osm_id":"2582735197","tag":{"natural":"tree"}},"type":"Feature"},
	{"geometry":{"coordinates":[10.151482,53.47272],"type":"Point"},"properties":{"osm_id":"2582775787","tag":{"natural":"tree"}},"type":"Feature"},
	{"geometry":{"coordinates":[10.191267,53.467658],"type":"Point"},"properties":{"osm_id":"2584032993","tag":{"natural":"tree"}},"type":"Feature"},
	{"geometry":{"coordinates":[10.191905,53.467584],"type":"Point"},"properties":{"osm_id":"2584032994","tag":{"natural":"tree"}},"type":"Feature"},
	{"geometry":{"coordinates":[10.192034,53.467383],"type":"Point"},"properties":{"osm_id":"2584032995","tag":{"natural":"tree"}},"type":"Feature"},
	{"geometry":{"coordinates":[10.192243,53.467367],"type":"Point"},"properties":{"osm_id":"2584032996","tag":{"natural":"tree"}},"type":"Feature"},
	{"geometry":{"coordinates":[10.191846,53.467166],"type":"Point"},"properties":{"osm_id":"2584032997","tag":{"natural":"tree"}},"type":"Feature"},
	{"geometry":{"coordinates":[10.192361,53.467169],"type":"Point"},"properties":{"osm_id":"2584032998","tag":{"natural":"tree"}},"type":"Feature"},
	{"geometry":{"coordinates":[10.192629,53.467128],"type":"Point"},"properties":{"osm_id":"2584032999","tag":{"natural":"tree"}},"type":"Feature"},
	{"geometry":{"coordinates":[10.191894,53.466942],"type":"Point"},"properties":{"osm_id":"2584033000","tag":{"natural":"tree"}},"type":"Feature"},
	{"geometry":{"coordinates":[10.191218,53.466952],"type":"Point"},"properties":{"osm_id":"2584033001","tag":{"natural":"tree"}},"type":"Feature"},
	{"geometry":{"coordinates":[10.192162,53.466939],"type":"Point"},"properties":{"osm_id":"2584033002","tag":{"natural":"tree"}},"type":"Feature"},
	{"geometry":{"coordinates":[10.190071,53.467014],"type":"Point"},"properties":{"osm_id":"2584033003","tag":{"natural":"tree"}},"type":"Feature"},
	{"geometry":{"coordinates":[10.190062,53.466954],"type":"Point"},"properties":{"osm_id":"2584033004","tag":{"natural":"tree"}},"type":"Feature"},
	{"geometry":{"coordinates":[10.190058,53.466822],"type":"Point"},"properties":{"osm_id":"2584033005","tag":{"natural":"tree"}},"type":"Feature"},
	{"geometry":{"coordinates":[10.190759,53.466917],"type":"Point"},"properties":{"osm_id":"2584033006","tag":{"natural":"tree"}},"type":"Feature"},
	{"geometry":{"coordinates":[10.192827,53.467053],"type":"Point"},"properties":{"osm_id":"2584033007","tag":{"natural":"tree"}},"type":"Feature"},
	{"geometry":{"coordinates":[10.192898,53.467158],"type":"Point"},"properties":{"osm_id":"2584033008","tag":{"natural":"tree"}},"type":"Feature"},
	{"geometry":{"coordinates":[10.192947,53.467262],"type":"Point"},"properties":{"osm_id":"2584033009","tag":{"natural":"tree"}},"type":"Feature"},
	{"geometry":{"coordinates":[10.192804,53.466902],"type":"Point"},"properties":{"osm_id":"2584033010","tag":{"natural":"tree"}},"type":"Feature"},
	{"geometry":{"coordinates":[10.188954,53.467083],"type":"Point"},"properties":{"osm_id":"2584033035","tag":{"natural":"tree"}},"type":"Feature"},
	{"geometry":{"coordinates":[10.18904,53.46699],"type":"Point"},"properties":{"osm_id":"2584033036","tag":{"natural":"tree"}},"type":"Feature"},
	{"geometry":{"coordinates":[10.189206,53.466926],"type":"Point"},"properties":{"osm_id":"2584033037","tag":{"natural":"tree"}},"type":"Feature"},
	{"geometry":{"coordinates":[10.136149,53.479697],"type":"Point"},"properties":{"osm_id":"2584174973","tag":{"natural":"tree"}},"type":"Feature"},
	{"geometry":{"coordinates":[10.173663,53.467608],"type":"Point"},"properties":{"osm_id":"2584251111","tag":{"natural":"tree"}},"type":"Feature"},
	{"geometry":{"coordinates":[10.173667,53.467481],"type":"Point"},"properties":{"osm_id":"2584251113","tag":{"natural":"tree"}},"type":"Feature"},
	{"geometry":{"coordinates":[10.140385,53.476073],"type":"Point"},"properties":{"osm_id":"2585294647","tag":{"natural":"tree"}},"type":"Feature"},
	{"geometry":{"coordinates":[10.140278,53.475973],"type":"Point"},"properties":{"osm_id":"2585294648","tag":{"natural":"tree"}},"type":"Feature"},
	{"geometry":{"coordinates":[10.128559,53.479744],"type":"Point"},"properties":{"osm_id":"2585294670","tag":{"natural":"tree"}},"type":"Feature"},
	{"geometry":{"coordinates":[10.128881,53.479626],"type":"Point"},"properties":{"osm_id":"2585294671","tag":{"natural":"tree"}},"type":"Feature"},
	{"geometry":{"coordinates":[10.129154,53.479489],"type":"Point"},"properties":{"osm_id":"2585294672","tag":{"natural":"tree"}},"type":"Feature"},
	{"geometry":{"coordinates":[10.170838,53.484856],"type":"Point"},"properties":{"highway":"turning_circle","osm_id":"2585395491","tag":{"leaf_cycle":"deciduous","leaf_type":"broadleaved","natural":"tree"}},"type":"Feature"},
	{"geometry":{"coordinates":[10.180062,53.482127],"type":"Point"},"properties":{"highway":"turning_loop","osm_id":"2585459848","tag":{"leaf_cycle":"deciduous","leaf_type":"broadleaved","natural":"tree"}},"type":"Feature"},
	{"geometry":{"coordinates":[10.166128,53.480515],"type":"Point"},"properties":{"highway":"turning_circle","osm_id":"2585459849","tag":{"leaf_cycle":"deciduous","leaf_type":"broadleaved","natural":"tree"}},"type":"Feature"},
	{"geometry":{"coordinates":[10.158475,53.487943],"type":"Point"},"properties":{"osm_id":"2618710773","tag":{"denotation":"urban","natural":"tree"}},"type":"Feature"},
	{"geometry":{"coordinates":[10.158462,53.487987],"type":"Point"},"properties":{"osm_id":"2618710774","tag":{"denotation":"urban","natural":"tree"}},"type":"Feature"},
	{"geometry":{"coordinates":[10.17003,53.474192],"type":"Point"},"properties":{"osm_id":"2627369040","tag":{"natural":"tree"}},"type":"Feature"},
	{"geometry":{"coordinates":[10.190618,53.467978],"type":"Point"},"properties":{"osm_id":"2627369320","tag":{"natural":"tree"}},"type":"Feature"},
	{"geometry":{"coordinates":[10.190295,53.468044],"type":"Point"},"properties":{"osm_id":"2627369323","tag":{"natural":"tree"}},"type":"Feature"},
	{"geometry":{"coordinates":[10.176544,53.465399],"type":"Point"},"properties":{"osm_id":"2637222895","tag":{"natural":"tree"}},"type":"Feature"},
	{"geometry":{"coordinates":[10.177431,53.465135],"type":"Point"},"properties":{"osm_id":"2637222898","tag":{"natural":"tree"}},"type":"Feature"},
	{"geometry":{"coordinates":[10.178258,53.464942],"type":"Point"},"properties":{"osm_id":"2637222900","tag":{"natural":"tree"}},"type":"Feature"},
	{"geometry":{"coordinates":[10.179241,53.464785],"type":"Point"},"properties":{"osm_id":"2637222902","tag":{"natural":"tree"}},"type":"Feature"},
	{"geometry":{"coordinates":[10.164449,53.482439],"type":"Point"},"properties":{"osm_id":"2663405105","tag":{"denotation":"landmark","natural":"tree"}},"type":"Feature"},
	{"geometry":{"coordinates":[10.167331,53.483098],"type":"Point"},"properties":{"osm_id":"2663405171","tag":{"natural":"tree"}},"type":"Feature"},
	{"geometry":{"coordinates":[10.139509,53.473374],"type":"Point"},"properties":{"osm_id":"2696772074","tag":{"natural":"tree"}},"type":"Feature"},
	{"geometry":{"coordinates":[10.139739,53.473477],"type":"Point"},"properties":{"osm_id":"2696772075","tag":{"natural":"tree"}},"type":"Feature"},
	{"geometry":{"coordinates":[10.14019,53.473595],"type":"Point"},"properties":{"osm_id":"2696772076","tag":{"natural":"tree"}},"type":"Feature"},
	{"geometry":{"coordinates":[10.140477,53.473756],"type":"Point"},"properties":{"osm_id":"2696772077","tag":{"natural":"tree"}},"type":"Feature"},
	{"geometry":{"coordinates":[10.140848,53.473887],"type":"Point"},"properties":{"osm_id":"2696772078","tag":{"natural":"tree"}},"type":"Feature"},
	{"geometry":{"coordinates":[10.141285,53.474074],"type":"Point"},"properties":{"osm_id":"2696772079","tag":{"natural":"tree"}},"type":"Feature"},
	{"geometry":{"coordinates":[10.141162,53.474005],"type":"Point"},"properties":{"osm_id":"2696772080","tag":{"natural":"tree"}},"type":"Feature"},
	{"geometry":{"coordinates":[10.139624,53.473414],"type":"Point"},"properties":{"osm_id":"2696772081","tag":{"natural":"tree"}},"type":"Feature"},
	{"geometry":{"coordinates":[10.140667,53.473848],"type":"Point"},"properties":{"osm_id":"2696772082","tag":{"natural":"tree"}},"type":"Feature"},
	{"geometry":{"coordinates":[10.140998,53.473961],"type":"Point"},"properties":{"osm_id":"2696772083","tag":{"natural":"tree"}},"type":"Feature"},
	{"geometry":{"coordinates":[10.147712,53.47395],"type":"Point"},"properties":{"osm_id":"2696772084","tag":{"natural":"tree"}},"type":"Feature"},
	{"geometry":{"coordinates":[10.147312,53.473738],"type":"Point"},"properties":{"osm_id":"2696772085","tag":{"natural":"tree"}},"type":"Feature"},
	{"geometry":{"coordinates":[10.147137,53.47366],"type":"Point"},"properties":{"osm_id":"2696772086","tag":{"natural":"tree"}},"type":"Feature"},
	{"geometry":{"coordinates":[10.146904,53.473517],"type":"Point"},"properties":{"osm_id":"2696772087","tag":{"natural":"tree"}},"type":"Feature"},
	{"geometry":{"coordinates":[10.146773,53.473426],"type":"Point"},"properties":{"osm_id":"2696772088","tag":{"natural":"tree"}},"type":"Feature"},
	{"geometry":{"coordinates":[10.148767,53.473093],"type":"Point"},"properties":{"osm_id":"2696772089","tag":{"natural":"tree"}},"type":"Feature"},
	{"geometry":{"coordinates":[10.146067,53.474479],"type":"Point"},"properties":{"osm_id":"2696772090","tag":{"natural":"tree"}},"type":"Feature"},
	{"geometry":{"coordinates":[10.147428,53.475202],"type":"Point"},"properties":{"osm_id":"2696772091","tag":{"natural":"tree"}},"type":"Feature"},
	{"geometry":{"coordinates":[10.139307,53.475465],"type":"Point"},"properties":{"osm_id":"2696772096","tag":{"natural":"tree"}},"type":"Feature"},
	{"geometry":{"coordinates":[10.139157,53.475391],"type":"Point"},"properties":{"osm_id":"2696772097","tag":{"natural":"tree"}},"type":"Feature"},
	{"geometry":{"coordinates":[10.138543,53.477021],"type":"Point"},"properties":{"osm_id":"2696772098","tag":{"natural":"tree"}},"type":"Feature"},
	{"geometry":{"coordinates":[10.138965,53.477161],"type":"Point"},"properties":{"osm_id":"2696772099","tag":{"natural":"tree"}},"type":"Feature"},
	{"geometry":{"coordinates":[10.137915,53.477021],"type":"Point"},"properties":{"osm_id":"2696772100","tag":{"natural":"tree"}},"type":"Feature"},
	{"geometry":{"coordinates":[10.138282,53.477005],"type":"Point"},"properties":{"osm_id":"2696772101","tag":{"natural":"tree"}},"type":"Feature"},
	{"geometry":{"coordinates":[10.140709,53.480981],"type":"Point"},"properties":{"osm_id":"2696772107","tag":{"natural":"tree"}},"type":"Feature"},
	{"geometry":{"coordinates":[10.140913,53.481059],"type":"Point"},"properties":{"osm_id":"2696772108","tag":{"natural":"tree"}},"type":"Feature"},
	{"geometry":{"coordinates":[10.143991,53.48131],"type":"Point"},"properties":{"osm_id":"2696772109","tag":{"natural":"tree"}},"type":"Feature"},
	{"geometry":{"coordinates":[10.142851,53.482048],"type":"Point"},"properties":{"osm_id":"2696772110","tag":{"natural":"tree"}},"type":"Feature"},
	{"geometry":{"coordinates":[10.144906,53.481762],"type":"Point"},"properties":{"osm_id":"2696772111","tag":{"natural":"tree"}},"type":"Feature"},
	{"geometry":{"coordinates":[10.143452,53.482098],"type":"Point"},"properties":{"osm_id":"2696772112","tag":{"natural":"tree"}},"type":"Feature"},
	{"geometry":{"coordinates":[10.143801,53.481893],"type":"Point"},"properties":{"osm_id":"2696772113","tag":{"natural":"tree"}},"type":"Feature"},
	{"geometry":{"coordinates":[10.144627,53.481757],"type":"Point"},"properties":{"osm_id":"2696772114","tag":{"natural":"tree"}},"type":"Feature"},
	{"geometry":{"coordinates":[10.135789,53.480209],"type":"Point"},"properties":{"osm_id":"2696772115","tag":{"natural":"tree"}},"type":"Feature"},
	{"geometry":{"coordinates":[10.135595,53.480135],"type":"Point"},"properties":{"osm_id":"2696772116","tag":{"natural":"tree"}},"type":"Feature"},
	{"geometry":{"coordinates":[10.167283,53.474774],"type":"Point"},"properties":{"osm_id":"2696772159","tag":{"natural":"tree"}},"type":"Feature"},
	{"geometry":{"coordinates":[10.179217,53.468379],"type":"Point"},"properties":{"osm_id":"2696772187","tag":{"natural":"tree"}},"type":"Feature"},
	{"geometry":{"coordinates":[10.15575,53.486067],"type":"Point"},"properties":{"osm_id":"2812406958","tag":{"denotation":"landmark","natural":"tree"}},"type":"Feature"},
	{"geometry":{"coordinates":[10.157442,53.487265],"type":"Point"},"properties":{"osm_id":"2835382074","tag":{"leaf_type":"broadleaved","natural":"tree"}},"type":"Feature"},
	{"geometry":{"coordinates":[10.14064,53.487417],"type":"Point"},"properties":{"osm_id":"2856758268","tag":{"natural":"tree"}},"type":"Feature"},
	{"geometry":{"coordinates":[10.140182,53.486956],"type":"Point"},"properties":{"osm_id":"2856758269","tag":{"denotation":"landmark","natural":"tree"}},"type":"Feature"},
	{"geometry":{"coordinates":[10.128108,53.483521],"type":"Point"},"properties":{"osm_id":"2857805521","tag":{"denotation":"avenue","natural":"tree"}},"type":"Feature"},
	{"geometry":{"coordinates":[10.128213,53.483462],"type":"Point"},"properties":{"osm_id":"2857805522","tag":{"denotation":"avenue","natural":"tree"}},"type":"Feature"},
	{"geometry":{"coordinates":[10.128326,53.483388],"type":"Point"},"properties":{"osm_id":"2857805523","tag":{"denotation":"avenue","natural":"tree"}},"type":"Feature"},
	{"geometry":{"coordinates":[10.12844,53.483326],"type":"Point"},"properties":{"osm_id":"2857805524","tag":{"denotation":"avenue","natural":"tree"}},"type":"Feature"},
	{"geometry":{"coordinates":[10.128557,53.483258],"type":"Point"},"properties":{"osm_id":"2857805525","tag":{"denotation":"avenue","natural":"tree"}},"type":"Feature"},
	{"geometry":{"coordinates":[10.128664,53.483198],"type":"Point"},"properties":{"osm_id":"2857805526","tag":{"denotation":"avenue","natural":"tree"}},"type":"Feature"},
	{"geometry":{"coordinates":[10.128842,53.483121],"type":"Point"},"properties":{"osm_id":"2857805545","tag":{"denotation":"avenue","natural":"tree"}},"type":"Feature"},
	{"geometry":{"coordinates":[10.12903,53.483021],"type":"Point"},"properties":{"osm_id":"2857805546","tag":{"denotation":"avenue","natural":"tree"}},"type":"Feature"},
	{"geometry":{"coordinates":[10.12924,53.482898],"type":"Point"},"properties":{"osm_id":"2857805547","tag":{"denotation":"avenue","natural":"tree"}},"type":"Feature"},
	{"geometry":{"coordinates":[10.170086,53.474388],"type":"Point"},"properties":{"osm_id":"2859030713","tag":{"natural":"tree"}},"type":"Feature"},
	{"geometry":{"coordinates":[10.169583,53.474336],"type":"Point"},"properties":{"osm_id":"2859030718","tag":{"natural":"tree"}},"type":"Feature"},
	{"geometry":{"coordinates":[10.155852,53.486622],"type":"Point"},"properties":{"osm_id":"2862187210","tag":{"natural":"tree"}},"type":"Feature"},
	{"geometry":{"coordinates":[10.155994,53.486752],"type":"Point"},"properties":{"osm_id":"2862187211","tag":{"natural":"tree"}},"type":"Feature"},
	{"geometry":{"coordinates":[10.15608,53.48682],"type":"Point"},"properties":{"osm_id":"2862187212","tag":{"natural":"tree"}},"type":"Feature"},
	{"geometry":{"coordinates":[10.189579,53.482058],"type":"Point"},"properties":{"osm_id":"2862192669","tag":{"natural":"tree","type":"walnut"}},"type":"Feature"},
	{"geometry":{"coordinates":[10.192787,53.483351],"type":"Point"},"properties":{"osm_id":"2862205595","tag":{"natural":"tree"}},"type":"Feature"},
	{"geometry":{"coordinates":[10.191836,53.481181],"type":"Point"},"properties":{"osm_id":"2862205596","tag":{"natural":"tree"}},"type":"Feature"},
	{"geometry":{"coordinates":[10.189648,53.481401],"type":"Point"},"properties":{"osm_id":"2862205597","tag":{"natural":"tree"}},"type":"Feature"},
	{"geometry":{"coordinates":[10.189646,53.481031],"type":"Point"},"properties":{"osm_id":"2862205598","tag":{"natural":"tree"}},"type":"Feature"},
	{"geometry":{"coordinates":[10.189511,53.481023],"type":"Point"},"properties":{"osm_id":"2862205599","tag":{"natural":"tree"}},"type":"Feature"},
	{"geometry":{"coordinates":[10.192158,53.477115],"type":"Point"},"properties":{"osm_id":"2862211050","tag":{"natural":"tree"}},"type":"Feature"},
	{"geometry":{"coordinates":[10.1831,53.474867],"type":"Point"},"properties":{"osm_id":"2862248726","tag":{"natural":"tree","species:de":"Plum","species:en":"Plum"}},"type":"Feature"},
	{"geometry":{"coordinates":[10.183151,53.474659],"type":"Point"},"properties":{"osm_id":"2862251188","tag":{"natural":"tree","type":"hazlenut"}},"type":"Feature"},
	{"geometry":{"coordinates":[10.180533,53.487072],"type":"Point"},"properties":{"osm_id":"2862276488","tag":{"natural":"tree"}},"type":"Feature"},
	{"geometry":{"coordinates":[10.183267,53.474869],"type":"Point"},"properties":{"osm_id":"2862283687","tag":{"natural":"tree"}},"type":"Feature"},
	{"geometry":{"coordinates":[10.124123,53.486005],"type":"Point"},"properties":{"osm_id":"2862784233","tag":{"natural":"tree"}},"type":"Feature"},
	{"geometry":{"coordinates":[10.155097,53.487087],"type":"Point"},"properties":{"osm_id":"2893316813","tag":{"natural":"tree"}},"type":"Feature"},
	{"geometry":{"coordinates":[10.118815,53.4822],"type":"Point"},"properties":{"osm_id":"2899848003","tag":{"natural":"tree"}},"type":"Feature"},
	{"geometry":{"coordinates":[10.156598,53.485825],"type":"Point"},"properties":{"osm_id":"2905701148","tag":{"natural":"tree"}},"type":"Feature"},
	{"geometry":{"coordinates":[10.183765,53.475953],"type":"Point"},"properties":{"osm_id":"2912400391","tag":{"natural":"tree"}},"type":"Feature"},
	{"geometry":{"coordinates":[10.184041,53.476081],"type":"Point"},"properties":{"osm_id":"2912400392","tag":{"natural":"tree"}},"type":"Feature"},
	{"geometry":{"coordinates":[10.18381,53.476079],"type":"Point"},"properties":{"osm_id":"2912400393","tag":{"natural":"tree"}},"type":"Feature"},
	{"geometry":{"coordinates":[10.176364,53.485887],"type":"Point"},"properties":{"osm_id":"3437985860","tag":{"leaf_cycle":"deciduous","natural":"tree"}},"type":"Feature"},
	{"geometry":{"coordinates":[10.16559,53.482683],"type":"Point"},"properties":{"osm_id":"3489298844","tag":{"natural":"tree"}},"type":"Feature"},
	{"geometry":{"coordinates":[10.165708,53.482541],"type":"Point"},"properties":{"osm_id":"3489298845","tag":{"natural":"tree"}},"type":"Feature"},
	{"geometry":{"coordinates":[10.16566,53.482402],"type":"Point"},"properties":{"osm_id":"3489298846","tag":{"natural":"tree"}},"type":"Feature"},
	{"geometry":{"coordinates":[10.16581,53.4823],"type":"Point"},"properties":{"osm_id":"3489298847","tag":{"natural":"tree"}},"type":"Feature"},
	{"geometry":{"coordinates":[10.166575,53.481933],"type":"Point"},"properties":{"osm_id":"3489298848","tag":{"natural":"tree"}},"type":"Feature"},
	{"geometry":{"coordinates":[10.166285,53.481989],"type":"Point"},"properties":{"osm_id":"3489298849","tag":{"natural":"tree"}},"type":"Feature"},
	{"geometry":{"coordinates":[10.166465,53.481665],"type":"Point"},"properties":{"osm_id":"3489298850","tag":{"natural":"tree"}},"type":"Feature"},
	{"geometry":{"coordinates":[10.166285,53.481625],"type":"Point"},"properties":{"osm_id":"3489298851","tag":{"natural":"tree"}},"type":"Feature"},
	{"geometry":{"coordinates":[10.166545,53.481825],"type":"Point"},"properties":{"osm_id":"3489298852","tag":{"natural":"tree"}},"type":"Feature"},
	{"geometry":{"coordinates":[10.166157,53.481397],"type":"Point"},"properties":{"osm_id":"3489298853","tag":{"natural":"tree"}},"type":"Feature"},
	{"geometry":{"coordinates":[10.182085,53.475626],"type":"Point"},"properties":{"osm_id":"6434215683","tag":{"leaf_cycle":"evergreen","leaf_type":"needleleaved","natural":"tree"}},"type":"Feature"},
	{"geometry":{"coordinates":[10.183186,53.476218],"type":"Point"},"properties":{"osm_id":"6434216120","tag":{"leaf_cycle":"deciduous","leaf_type":"broadleaved","natural":"tree"}},"type":"Feature"},
	{"geometry":{"coordinates":[10.183232,53.476246],"type":"Point"},"properties":{"osm_id":"6434216121","tag":{"leaf_cycle":"deciduous","leaf_type":"broadleaved","natural":"tree"}},"type":"Feature"},
	{"geometry":{"coordinates":[10.183226,53.476294],"type":"Point"},"properties":{"osm_id":"6434216122","tag":{"leaf_cycle":"deciduous","leaf_type":"broadleaved","natural":"tree"}},"type":"Feature"},
	{"geometry":{"coordinates":[10.182452,53.477486],"type":"Point"},"properties":{"osm_id":"6434306552","tag":{"leaf_cycle":"evergreen","leaf_type":"needleleaved","natural":"tree"}},"type":"Feature"},
	{"geometry":{"coordinates":[10.176974,53.483388],"type":"Point"},"properties":{"osm_id":"6501020280","tag":{"leaf_cycle":"deciduous","leaf_type":"broadleaved","natural":"tree"}},"type":"Feature"},
	{"geometry":{"coordinates":[10.171681,53.485785],"type":"Point"},"properties":{"osm_id":"6537483838","tag":{"leaf_cycle":"deciduous","leaf_type":"broadleaved","natural":"tree"}},"type":"Feature"},
	{"geometry":{"coordinates":[10.184661,53.474853],"type":"Point"},"properties":{"osm_id":"6550017070","tag":{"leaf_cycle":"deciduous","leaf_type":"broadleaved","natural":"tree"}},"type":"Feature"},
	{"geometry":{"coordinates":[10.187571,53.474036],"type":"Point"},"properties":{"osm_id":"6550017079","tag":{"leaf_cycle":"deciduous","leaf_type":"broadleaved","natural":"tree"}},"type":"Feature"},
	{"geometry":{"coordinates":[10.19405,53.482555],"type":"Point"},"properties":{"osm_id":"6550060224","tag":{"leaf_cycle":"deciduous","leaf_type":"broadleaved","natural":"tree"}},"type":"Feature"},
	{"geometry":{"coordinates":[10.173759,53.479789],"type":"Point"},"properties":{"osm_id":"7042149399","tag":{"leaf_cycle":"deciduous","leaf_type":"broadleaved","natural":"tree"}},"type":"Feature"},
	{"geometry":{"coordinates":[10.173696,53.47974],"type":"Point"},"properties":{"osm_id":"7042149400","tag":{"leaf_cycle":"deciduous","leaf_type":"broadleaved","natural":"tree"}},"type":"Feature"},
	{"geometry":{"coordinates":[10.173634,53.479695],"type":"Point"},"properties":{"osm_id":"7042149401","tag":{"leaf_cycle":"deciduous","leaf_type":"broadleaved","natural":"tree"}},"type":"Feature"},
	{"geometry":{"coordinates":[10.173576,53.479651],"type":"Point"},"properties":{"osm_id":"7042149402","tag":{"leaf_cycle":"deciduous","leaf_type":"broadleaved","natural":"tree"}},"type":"Feature"},
	{"geometry":{"coordinates":[10.173515,53.479606],"type":"Point"},"properties":{"osm_id":"7042149403","tag":{"leaf_cycle":"deciduous","leaf_type":"broadleaved","natural":"tree"}},"type":"Feature"},
	{"geometry":{"coordinates":[10.173453,53.479558],"type":"Point"},"properties":{"osm_id":"7042149404","tag":{"leaf_cycle":"deciduous","leaf_type":"broadleaved","natural":"tree"}},"type":"Feature"},
	{"geometry":{"coordinates":[10.17339,53.479512],"type":"Point"},"properties":{"osm_id":"7042149405","tag":{"leaf_cycle":"deciduous","leaf_type":"broadleaved","natural":"tree"}},"type":"Feature"},
	{"geometry":{"coordinates":[10.165602,53.477682],"type":"Point"},"properties":{"osm_id":"7261733351","tag":{"denotation":"urban","leaf_cycle":"deciduous","leaf_type":"broadleaved","natural":"tree"}},"type":"Feature"},
	{"geometry":{"coordinates":[10.164897,53.483654],"type":"Point"},"properties":{"osm_id":"7282962528","tag":{"leaf_cycle":"deciduous","leaf_type":"broadleaved","natural":"tree"}},"type":"Feature"},
	{"geometry":{"coordinates":[10.171295,53.483675],"type":"Point"},"properties":{"osm_id":"7552310992","tag":{"denotation":"urban","leaf_cycle":"deciduous","leaf_type":"broadleaved","natural":"tree"}},"type":"Feature"},
	{"geometry":{"coordinates":[10.17149,53.483651],"type":"Point"},"properties":{"osm_id":"7552310993","tag":{"denotation":"urban","leaf_cycle":"deciduous","leaf_type":"broadleaved","natural":"tree"}},"type":"Feature"},
	{"geometry":{"coordinates":[10.17168,53.483626],"type":"Point"},"properties":{"osm_id":"7552310994","tag":{"denotation":"urban","leaf_cycle":"deciduous","leaf_type":"broadleaved","natural":"tree"}},"type":"Feature"},
	{"geometry":{"coordinates":[10.17118,53.483567],"type":"Point"},"properties":{"osm_id":"7552310995","tag":{"denotation":"urban","leaf_cycle":"deciduous","leaf_type":"broadleaved","natural":"tree"}},"type":"Feature"},
	{"geometry":{"coordinates":[10.170173,53.483481],"type":"Point"},"properties":{"osm_id":"7552311028","tag":{"denotation":"urban","leaf_cycle":"deciduous","leaf_type":"broadleaved","natural":"tree"}},"type":"Feature"},
	{"geometry":{"coordinates":[10.170299,53.483419],"type":"Point"},"properties":{"osm_id":"7552311029","tag":{"denotation":"urban","leaf_cycle":"deciduous","leaf_type":"broadleaved","natural":"tree"}},"type":"Feature"},
	{"geometry":{"coordinates":[10.170427,53.483344],"type":"Point"},"properties":{"osm_id":"7552311030","tag":{"denotation":"urban","leaf_cycle":"deciduous","leaf_type":"broadleaved","natural":"tree"}},"type":"Feature"},
	{"geometry":{"coordinates":[10.170562,53.483288],"type":"Point"},"properties":{"osm_id":"7552311031","tag":{"denotation":"urban","leaf_cycle":"deciduous","leaf_type":"broadleaved","natural":"tree"}},"type":"Feature"},
	{"geometry":{"coordinates":[10.170693,53.483233],"type":"Point"},"properties":{"osm_id":"7552311032","tag":{"denotation":"urban","leaf_cycle":"deciduous","leaf_type":"broadleaved","natural":"tree"}},"type":"Feature"},
	{"geometry":{"coordinates":[10.171072,53.483467],"type":"Point"},"properties":{"osm_id":"7552316765","tag":{"denotation":"urban","leaf_cycle":"deciduous","leaf_type":"broadleaved","natural":"tree"}},"type":"Feature"},
	{"geometry":{"coordinates":[10.171598,53.484001],"type":"Point"},"properties":{"osm_id":"7552316766","tag":{"denotation":"urban","leaf_cycle":"deciduous","leaf_type":"broadleaved","natural":"tree"}},"type":"Feature"},
	{"geometry":{"coordinates":[10.171886,53.483959],"type":"Point"},"properties":{"osm_id":"7552316767","tag":{"denotation":"urban","leaf_cycle":"deciduous","leaf_type":"broadleaved","natural":"tree"}},"type":"Feature"},
	{"geometry":{"coordinates":[10.171315,53.484022],"type":"Point"},"properties":{"osm_id":"7552316768","tag":{"denotation":"urban","leaf_cycle":"deciduous","leaf_type":"broadleaved","natural":"tree"}},"type":"Feature"},
	{"geometry":{"coordinates":[10.171008,53.484042],"type":"Point"},"properties":{"osm_id":"7552316769","tag":{"denotation":"urban","leaf_cycle":"deciduous","leaf_type":"broadleaved","natural":"tree"}},"type":"Feature"},
	{"geometry":{"coordinates":[10.170498,53.484035],"type":"Point"},"properties":{"osm_id":"7552316770","tag":{"denotation":"urban","leaf_cycle":"deciduous","leaf_type":"broadleaved","natural":"tree"}},"type":"Feature"},
	{"geometry":{"coordinates":[10.170387,53.483712],"type":"Point"},"properties":{"osm_id":"7552316771","tag":{"denotation":"urban","leaf_cycle":"deciduous","leaf_type":"broadleaved","natural":"tree"}},"type":"Feature"},
	{"geometry":{"coordinates":[10.170435,53.483849],"type":"Point"},"properties":{"osm_id":"7552316772","tag":{"denotation":"urban","leaf_cycle":"deciduous","leaf_type":"broadleaved","natural":"tree"}},"type":"Feature"},
	{"geometry":{"coordinates":[10.189831,53.464967],"type":"Point"},"properties":{"osm_id":"7678247577","tag":{"natural":"tree"}},"type":"Feature"},
	{"geometry":{"coordinates":[10.184746,53.478711],"type":"Point"},"properties":{"osm_id":"7685095810","tag":{"denotation":"urban","leaf_cycle":"deciduous","leaf_type":"broadleaved","natural":"tree"}},"type":"Feature"},
	{"geometry":{"coordinates":[10.184763,53.478728],"type":"Point"},"properties":{"osm_id":"7685095811","tag":{"denotation":"urban","leaf_cycle":"deciduous","leaf_type":"broadleaved","natural":"tree"}},"type":"Feature"},
	{"geometry":{"coordinates":[10.184545,53.478929],"type":"Point"},"properties":{"osm_id":"7685095812","tag":{"denotation":"urban","leaf_cycle":"deciduous","leaf_type":"broadleaved","natural":"tree"}},"type":"Feature"},
	{"geometry":{"coordinates":[10.181807,53.477255],"type":"Point"},"properties":{"osm_id":"7685095819","tag":{"denotation":"urban","leaf_cycle":"deciduous","leaf_type":"broadleaved","natural":"tree"}},"type":"Feature"},
	{"geometry":{"coordinates":[10.122745,53.4567],"type":"Point"},"properties":{"osm_id":"7734872526","tag":{"natural":"tree"}},"type":"Feature"},
	{"geometry":{"coordinates":[10.114573,53.464015],"type":"Point"},"properties":{"osm_id":"7762643725","tag":{"natural":"tree"}},"type":"Feature"},
	{"geometry":{"coordinates":[10.186465,53.481966],"type":"Point"},"properties":{"osm_id":"7849880835","tag":{"natural":"tree"}},"type":"Feature"}
]
}
