{
"type": "FeatureCollection",
"features": [
	{"geometry":{"coordinates":[31.882536,3.472338],"type":"Point"},"properties":{"name":"Waste basket","osm_id":"5772350789","tag":{"addr:block":"Baratuku community centre","addr:district":"Adjumani","addr:settlement":"Baratuku","amenity":"waste_basket","fee":"no","lit":"no","operator":"LWF","operator:type":"ngo","source:version":"Sanitation;v3.0.2","start_date":"2017-01-01","waste":"Plastic bottle, etc"}},"type":"Feature"},
	{"geometry":{"coordinates":[31.88109,3.470428],"type":"Point"},"properties":{"name":"Recycling bin","osm_id":"5772350792","tag":{"addr:block":"Baratuku Block B","addr:district":"Adjumani","addr:settlement":"Baratuku","amenity":"recycling","fee":"no","lit":"no","operator:type":"community","source:version":"Sanitation;v3.0.2","start_date":"2017-04-01","waste":"Metal, plastic jarrycane, basket, etc"}},"type":"Feature"},
	{"geometry":{"coordinates":[31.880631,3.470043],"type":"Point"},"properties":{"name":"Waste disposal","osm_id":"5772350794","tag":{"addr:block":"Baratuku market","addr:district":"Adjumani","addr:settlement":"Baratuku","amenity":"waste_disposal","fee":"no","lit":"no","operator":"LWF","operator:type":"ngo","source:version":"Sanitation;v3.0.2","start_date":"2016-05-01","waste":"Market waste"}},"type":"Feature"}
]
}
