{
"type": "FeatureCollection",
"features": [
	{"geometry":{"coordinates":[3.521016,51.321607],"type":"Point"},"properties":{"osm_id":"3377620006","tag":{"amenity":"recycling","recycling:cans":"yes","recycling_type":"container"}},"type":"Feature"},
	{"geometry":{"coordinates":[3.601666,51.316581],"type":"Point"},"properties":{"osm_id":"4677435113","tag":{"amenity":"waste_basket"}},"type":"Feature"},
	{"geometry":{"coordinates":[3.602199,51.316561],"type":"Point"},"properties":{"osm_id":"4677435114","tag":{"amenity":"waste_basket"}},"type":"Feature"},
	{"geometry":{"coordinates":[3.602053,51.316524],"type":"Point"},"properties":{"osm_id":"4677435115","tag":{"amenity":"waste_basket"}},"type":"Feature"},
	{"geometry":{"coordinates":[3.601046,51.316991],"type":"Point"},"properties":{"osm_id":"4677435116","tag":{"amenity":"waste_basket"}},"type":"Feature"},
	{"geometry":{"coordinates":[3.600931,51.317127],"type":"Point"},"properties":{"osm_id":"4677435117","tag":{"amenity":"waste_basket"}},"type":"Feature"},
	{"geometry":{"coordinates":[3.555819,51.317929],"type":"Point"},"properties":{"osm_id":"6468471212","tag":{"amenity":"recycling","mapillary":"q2Ftnsx5V2-88L9BvUsglA","recycling:glass_bottles":"yes","recycling_type":"container"}},"type":"Feature"}
]
}
