{
"type": "FeatureCollection",
"features": [
	{"geometry":{"coordinates":[3.536232,47.800324],"type":"Point"},"properties":{"osm_id":"815047873","tag":{"amenity":"recycling","recycling_type":"container"}},"type":"Feature"},
	{"geometry":{"coordinates":[3.570049,47.796492],"type":"Point"},"properties":{"osm_id":"1819165155","tag":{"amenity":"recycling","recycling:glass_bottles":"yes","recycling_type":"container"}},"type":"Feature"},
	{"geometry":{"coordinates":[3.574252,47.792635],"type":"Point"},"properties":{"osm_id":"1835971297","tag":{"amenity":"recycling","recycling:glass_bottles":"yes","recycling_type":"container"}},"type":"Feature"},
	{"geometry":{"coordinates":[3.575136,47.795984],"type":"Point"},"properties":{"osm_id":"2357213685","tag":{"amenity":"waste_basket"}},"type":"Feature"},
	{"geometry":{"coordinates":[3.571777,47.79762],"type":"Point"},"properties":{"osm_id":"2357213686","tag":{"amenity":"waste_basket"}},"type":"Feature"},
	{"geometry":{"coordinates":[3.582447,47.792757],"type":"Point"},"properties":{"osm_id":"2357274225","tag":{"amenity":"waste_basket"}},"type":"Feature"},
	{"geometry":{"coordinates":[3.570382,47.796404],"type":"Point"},"properties":{"osm_id":"3008949534","tag":{"amenity":"waste_basket"}},"type":"Feature"},
	{"geometry":{"coordinates":[3.574942,47.794489],"type":"Point"},"properties":{"osm_id":"4186128242","tag":{"amenity":"waste_basket"}},"type":"Feature"},
	{"geometry":{"coordinates":[3.576234,47.794582],"type":"Point"},"properties":{"osm_id":"4186128244","tag":{"amenity":"waste_basket"}},"type":"Feature"},
	{"geometry":{"coordinates":[3.573637,47.794972],"type":"Point"},"properties":{"osm_id":"4186128247","tag":{"amenity":"waste_basket"}},"type":"Feature"},
	{"geometry":{"coordinates":[3.566118,47.795379],"type":"Point"},"properties":{"osm_id":"4186128250","tag":{"amenity":"waste_basket"}},"type":"Feature"},
	{"geometry":{"coordinates":[3.581578,47.796077],"type":"Point"},"properties":{"osm_id":"4186128267","tag":{"amenity":"waste_basket"}},"type":"Feature"},
	{"geometry":{"coordinates":[3.581361,47.796259],"type":"Point"},"properties":{"osm_id":"4186128274","tag":{"amenity":"waste_basket"}},"type":"Feature"},
	{"geometry":{"coordinates":[3.571783,47.797281],"type":"Point"},"properties":{"osm_id":"4186128318","tag":{"amenity":"waste_basket"}},"type":"Feature"},
	{"geometry":{"coordinates":[3.56861,47.798322],"type":"Point"},"properties":{"osm_id":"4188196742","tag":{"amenity":"recycling","recycling:glass":"yes","recycling_type":"container"}},"type":"Feature"},
	{"geometry":{"coordinates":[3.56428,47.795779],"type":"Point"},"properties":{"osm_id":"4192344737","tag":{"amenity":"waste_basket"}},"type":"Feature"},
	{"geometry":{"coordinates":[3.564242,47.795787],"type":"Point"},"properties":{"osm_id":"4192344738","tag":{"amenity":"recycling","recycling_type":"container"}},"type":"Feature"},
	{"geometry":{"coordinates":[3.570112,47.787476],"type":"Point"},"properties":{"osm_id":"4194459321","tag":{"amenity":"recycling","recycling:glass":"yes","recycling_type":"container"}},"type":"Feature"},
	{"geometry":{"coordinates":[3.572617,47.787531],"type":"Point"},"properties":{"osm_id":"4194459326","tag":{"amenity":"waste_basket"}},"type":"Feature"},
	{"geometry":{"coordinates":[3.571741,47.789247],"type":"Point"},"properties":{"osm_id":"4194459428","tag":{"amenity":"waste_basket"}},"type":"Feature"},
	{"geometry":{"coordinates":[3.528272,47.801456],"type":"Point"},"properties":{"osm_id":"4198825059","tag":{"amenity":"recycling","recycling_type":"container"}},"type":"Feature"},
	{"geometry":{"coordinates":[3.558229,47.790088],"type":"Point"},"properties":{"osm_id":"4203326203","tag":{"amenity":"recycling","recycling:glass":"yes","recycling_type":"container"}},"type":"Feature"},
	{"geometry":{"coordinates":[3.57641,47.787117],"type":"Point"},"properties":{"osm_id":"4222658088","tag":{"amenity":"waste_basket"}},"type":"Feature"},
	{"geometry":{"coordinates":[3.551884,47.799483],"type":"Point"},"properties":{"osm_id":"4232611879","tag":{"amenity":"recycling","recycling:cans":"yes","recycling:glass":"yes","recycling:glass_bottles":"yes","recycling:paper":"yes","recycling:plastic":"yes","recycling:plastic_bottles":"yes","recycling:plastic_packaging":"yes","recycling_type":"container"}},"type":"Feature"},
	{"geometry":{"coordinates":[3.561228,47.789284],"type":"Point"},"properties":{"osm_id":"4408281128","tag":{"amenity":"waste_basket"}},"type":"Feature"},
	{"geometry":{"coordinates":[3.560994,47.78933],"type":"Point"},"properties":{"osm_id":"4408281130","tag":{"amenity":"waste_basket"}},"type":"Feature"},
	{"geometry":{"coordinates":[3.552622,47.799554],"type":"Point"},"properties":{"osm_id":"4408281134","tag":{"amenity":"waste_basket"}},"type":"Feature"},
	{"geometry":{"coordinates":[3.56887,47.796928],"type":"Point"},"properties":{"osm_id":"4408546401","tag":{"amenity":"waste_basket"}},"type":"Feature"},
	{"geometry":{"coordinates":[3.567447,47.792485],"type":"Point"},"properties":{"osm_id":"4422317893","tag":{"amenity":"recycling","recycling:glass":"yes","recycling:glass_bottles":"yes","recycling_type":"container"}},"type":"Feature"},
	{"geometry":{"coordinates":[3.571384,47.804865],"type":"Point"},"properties":{"osm_id":"4422317907","tag":{"amenity":"recycling","recycling:glass_bottles":"yes","recycling_type":"container"}},"type":"Feature"},
	{"geometry":{"coordinates":[3.571372,47.804877],"type":"Point"},"properties":{"osm_id":"4422317908","tag":{"amenity":"waste_basket"}},"type":"Feature"},
	{"geometry":{"coordinates":[3.568678,47.80614],"type":"Point"},"properties":{"osm_id":"4422317943","tag":{"amenity":"waste_basket"}},"type":"Feature"},
	{"geometry":{"coordinates":[3.5651,47.806931],"type":"Point"},"properties":{"osm_id":"4422317958","tag":{"amenity":"waste_basket"}},"type":"Feature"},
	{"geometry":{"coordinates":[3.564506,47.807668],"type":"Point"},"properties":{"osm_id":"4422318029","tag":{"amenity":"waste_basket"}},"type":"Feature"},
	{"geometry":{"coordinates":[3.548029,47.800114],"type":"Point"},"properties":{"osm_id":"4489306356","tag":{"amenity":"recycling","recycling_type":"container"}},"type":"Feature"},
	{"geometry":{"coordinates":[3.570735,47.796753],"type":"Point"},"properties":{"osm_id":"4489306590","tag":{"amenity":"waste_basket"}},"type":"Feature"},
	{"geometry":{"coordinates":[3.57264,47.798318],"type":"Point"},"properties":{"osm_id":"4491155302","tag":{"amenity":"waste_basket"}},"type":"Feature"},
	{"geometry":{"coordinates":[3.572972,47.798342],"type":"Point"},"properties":{"osm_id":"4491155303","tag":{"amenity":"waste_basket"}},"type":"Feature"},
	{"geometry":{"coordinates":[3.571862,47.800274],"type":"Point"},"properties":{"osm_id":"4491155304","tag":{"amenity":"waste_basket"}},"type":"Feature"},
	{"geometry":{"coordinates":[3.57223,47.800091],"type":"Point"},"properties":{"osm_id":"4491155305","tag":{"amenity":"waste_basket"}},"type":"Feature"},
	{"geometry":{"coordinates":[3.573759,47.790819],"type":"Point"},"properties":{"osm_id":"4491155306","tag":{"amenity":"recycling","recycling:glass":"yes","recycling_type":"container"}},"type":"Feature"},
	{"geometry":{"coordinates":[3.562638,47.794603],"type":"Point"},"properties":{"osm_id":"4512617962","tag":{"amenity":"waste_basket"}},"type":"Feature"},
	{"geometry":{"coordinates":[3.565977,47.789983],"type":"Point"},"properties":{"osm_id":"4513992689","tag":{"amenity":"waste_basket"}},"type":"Feature"},
	{"geometry":{"coordinates":[3.573287,47.798861],"type":"Point"},"properties":{"osm_id":"4513992713","tag":{"amenity":"waste_basket"}},"type":"Feature"},
	{"geometry":{"coordinates":[3.557133,47.802302],"type":"Point"},"properties":{"osm_id":"4535053185","tag":{"amenity":"recycling","recycling_type":"container"}},"type":"Feature"},
	{"geometry":{"coordinates":[3.556674,47.798449],"type":"Point"},"properties":{"osm_id":"4543941455","tag":{"amenity":"waste_basket"}},"type":"Feature"},
	{"geometry":{"coordinates":[3.562557,47.800529],"type":"Point"},"properties":{"osm_id":"4543944196","tag":{"amenity":"waste_basket"}},"type":"Feature"},
	{"geometry":{"coordinates":[3.561905,47.802531],"type":"Point"},"properties":{"osm_id":"4543944224","tag":{"amenity":"waste_basket"}},"type":"Feature"},
	{"geometry":{"coordinates":[3.566,47.793795],"type":"Point"},"properties":{"osm_id":"4551609014","tag":{"amenity":"waste_basket"}},"type":"Feature"},
	{"geometry":{"coordinates":[3.565899,47.793935],"type":"Point"},"properties":{"osm_id":"4551609015","tag":{"amenity":"waste_basket"}},"type":"Feature"},
	{"geometry":{"coordinates":[3.569329,47.797415],"type":"Point"},"properties":{"osm_id":"4552812797","tag":{"amenity":"waste_basket"}},"type":"Feature"},
	{"geometry":{"coordinates":[3.569488,47.797527],"type":"Point"},"properties":{"osm_id":"4552812798","tag":{"amenity":"waste_basket"}},"type":"Feature"},
	{"geometry":{"coordinates":[3.533109,47.804974],"type":"Point"},"properties":{"osm_id":"4612023914","tag":{"amenity":"waste_basket"}},"type":"Feature"},
	{"geometry":{"coordinates":[3.533294,47.804617],"type":"Point"},"properties":{"osm_id":"4612023917","tag":{"amenity":"waste_basket"}},"type":"Feature"},
	{"geometry":{"coordinates":[3.575551,47.80176],"type":"Point"},"properties":{"osm_id":"4622185911","tag":{"amenity":"waste_basket"}},"type":"Feature"},
	{"geometry":{"coordinates":[3.565042,47.800066],"type":"Point"},"properties":{"osm_id":"4625452516","tag":{"amenity":"waste_basket"}},"type":"Feature"},
	{"geometry":{"coordinates":[3.573904,47.809774],"type":"Point"},"properties":{"osm_id":"4626709856","tag":{"amenity":"waste_basket"}},"type":"Feature"},
	{"geometry":{"coordinates":[3.574777,47.810852],"type":"Point"},"properties":{"osm_id":"4626709857","tag":{"amenity":"recycling","recycling:glass_bottles":"yes","recycling_type":"container"}},"type":"Feature"},
	{"geometry":{"coordinates":[3.567719,47.806642],"type":"Point"},"properties":{"osm_id":"4626709876","tag":{"amenity":"waste_basket"}},"type":"Feature"},
	{"geometry":{"coordinates":[3.577386,47.794834],"type":"Point"},"properties":{"osm_id":"4679344751","tag":{"amenity":"waste_basket"}},"type":"Feature"},
	{"geometry":{"coordinates":[3.567689,47.795492],"type":"Point"},"properties":{"osm_id":"4680253823","tag":{"amenity":"waste_basket"}},"type":"Feature"},
	{"geometry":{"coordinates":[3.55334,47.807118],"type":"Point"},"properties":{"osm_id":"4683775214","tag":{"amenity":"waste_basket"}},"type":"Feature"},
	{"geometry":{"coordinates":[3.56391,47.791327],"type":"Point"},"properties":{"osm_id":"4684365269","tag":{"amenity":"recycling","recycling:glass":"yes","recycling_type":"container"}},"type":"Feature"},
	{"geometry":{"coordinates":[3.562392,47.790968],"type":"Point"},"properties":{"osm_id":"4684365271","tag":{"amenity":"waste_basket"}},"type":"Feature"},
	{"geometry":{"coordinates":[3.588495,47.794614],"type":"Point"},"properties":{"osm_id":"4782787536","tag":{"amenity":"recycling","recycling_type":"container"}},"type":"Feature"},
	{"geometry":{"coordinates":[3.573205,47.801622],"type":"Point"},"properties":{"osm_id":"4806499567","tag":{"amenity":"waste_basket"}},"type":"Feature"},
	{"geometry":{"coordinates":[3.572466,47.794413],"type":"Point"},"properties":{"osm_id":"4818892285","tag":{"amenity":"waste_basket"}},"type":"Feature"},
	{"geometry":{"coordinates":[3.57196,47.794911],"type":"Point"},"properties":{"osm_id":"4818892287","tag":{"amenity":"waste_basket"}},"type":"Feature"},
	{"geometry":{"coordinates":[3.57201,47.795074],"type":"Point"},"properties":{"osm_id":"4818892289","tag":{"amenity":"waste_basket"}},"type":"Feature"},
	{"geometry":{"coordinates":[3.572513,47.794852],"type":"Point"},"properties":{"osm_id":"4818892292","tag":{"amenity":"waste_basket"}},"type":"Feature"},
	{"geometry":{"coordinates":[3.573089,47.795461],"type":"Point"},"properties":{"osm_id":"4818892294","tag":{"amenity":"waste_basket"}},"type":"Feature"},
	{"geometry":{"coordinates":[3.570568,47.809104],"type":"Point"},"properties":{"osm_id":"4829264853","tag":{"amenity":"recycling","recycling_type":"container"}},"type":"Feature"},
	{"geometry":{"coordinates":[3.568262,47.794354],"type":"Point"},"properties":{"osm_id":"4829264865","tag":{"amenity":"waste_basket"}},"type":"Feature"},
	{"geometry":{"coordinates":[3.568523,47.794393],"type":"Point"},"properties":{"osm_id":"4829264866","tag":{"amenity":"waste_basket"}},"type":"Feature"},
	{"geometry":{"coordinates":[3.579836,47.798146],"type":"Point"},"properties":{"osm_id":"4840455947","tag":{"amenity":"waste_basket"}},"type":"Feature"},
	{"geometry":{"coordinates":[3.579236,47.797408],"type":"Point"},"properties":{"osm_id":"4840455949","tag":{"amenity":"waste_basket"}},"type":"Feature"},
	{"geometry":{"coordinates":[3.582298,47.783128],"type":"Point"},"properties":{"osm_id":"4841766175","tag":{"amenity":"waste_basket"}},"type":"Feature"},
	{"geometry":{"coordinates":[3.574534,47.797968],"type":"Point"},"properties":{"osm_id":"4922708836","tag":{"amenity":"recycling","recycling:glass_bottles":"yes","recycling_type":"container"}},"type":"Feature"},
	{"geometry":{"coordinates":[3.556084,47.788696],"type":"Point"},"properties":{"osm_id":"5037047978","tag":{"amenity":"waste_basket"}},"type":"Feature"},
	{"geometry":{"coordinates":[3.545172,47.792396],"type":"Point"},"properties":{"osm_id":"5045030532","tag":{"amenity":"waste_basket"}},"type":"Feature"},
	{"geometry":{"coordinates":[3.561776,47.789279],"type":"Point"},"properties":{"osm_id":"5045030544","tag":{"amenity":"waste_basket"}},"type":"Feature"},
	{"geometry":{"coordinates":[3.56978,47.794275],"type":"Point"},"properties":{"osm_id":"5139718765","tag":{"amenity":"waste_basket"}},"type":"Feature"},
	{"geometry":{"coordinates":[3.569332,47.794458],"type":"Point"},"properties":{"osm_id":"5139718766","tag":{"amenity":"waste_basket"}},"type":"Feature"},
	{"geometry":{"coordinates":[3.550365,47.789116],"type":"Point"},"properties":{"osm_id":"5140235537","tag":{"amenity":"waste_basket"}},"type":"Feature"},
	{"geometry":{"coordinates":[3.534557,47.796545],"type":"Point"},"properties":{"osm_id":"5211292260","tag":{"amenity":"waste_basket"}},"type":"Feature"},
	{"geometry":{"coordinates":[3.582123,47.806758],"type":"Point"},"properties":{"osm_id":"5225385900","tag":{"amenity":"waste_basket"}},"type":"Feature"},
	{"geometry":{"coordinates":[3.564034,47.791454],"type":"Point"},"properties":{"osm_id":"5226919049","tag":{"amenity":"waste_basket"}},"type":"Feature"},
	{"geometry":{"coordinates":[3.570345,47.796939],"type":"Point"},"properties":{"osm_id":"5246391743","tag":{"amenity":"waste_basket"}},"type":"Feature"},
	{"geometry":{"coordinates":[3.582802,47.798878],"type":"Point"},"properties":{"osm_id":"5247125885","tag":{"amenity":"waste_basket"}},"type":"Feature"},
	{"geometry":{"coordinates":[3.59072,47.781179],"type":"Point"},"properties":{"osm_id":"5257609482","tag":{"amenity":"recycling","recycling:glass_bottles":"yes","recycling_type":"container"}},"type":"Feature"},
	{"geometry":{"coordinates":[3.582019,47.792592],"type":"Point"},"properties":{"osm_id":"5265913382","tag":{"amenity":"waste_basket"}},"type":"Feature"},
	{"geometry":{"coordinates":[3.579366,47.781576],"type":"Point"},"properties":{"osm_id":"5270653692","tag":{"amenity":"recycling","recycling_type":"container"}},"type":"Feature"},
	{"geometry":{"coordinates":[3.545542,47.794303],"type":"Point"},"properties":{"osm_id":"5270653713","tag":{"amenity":"waste_basket"}},"type":"Feature"},
	{"geometry":{"coordinates":[3.546019,47.794129],"type":"Point"},"properties":{"osm_id":"5270653714","tag":{"amenity":"waste_basket"}},"type":"Feature"},
	{"geometry":{"coordinates":[3.549372,47.793741],"type":"Point"},"properties":{"osm_id":"5278053642","tag":{"amenity":"waste_basket"}},"type":"Feature"},
	{"geometry":{"coordinates":[3.552053,47.794029],"type":"Point"},"properties":{"osm_id":"5278053670","tag":{"amenity":"waste_basket"}},"type":"Feature"},
	{"geometry":{"coordinates":[3.5491,47.793185],"type":"Point"},"properties":{"osm_id":"5278053711","tag":{"amenity":"waste_basket"}},"type":"Feature"},
	{"geometry":{"coordinates":[3.548895,47.791784],"type":"Point"},"properties":{"osm_id":"5278054125","tag":{"amenity":"waste_basket"}},"type":"Feature"},
	{"geometry":{"coordinates":[3.548655,47.792146],"type":"Point"},"properties":{"osm_id":"5278054126","tag":{"amenity":"waste_basket"}},"type":"Feature"},
	{"geometry":{"coordinates":[3.579226,47.794889],"type":"Point"},"properties":{"osm_id":"5278494763","tag":{"amenity":"waste_basket"}},"type":"Feature"},
	{"geometry":{"coordinates":[3.577994,47.793472],"type":"Point"},"properties":{"osm_id":"5278494765","tag":{"amenity":"waste_basket"}},"type":"Feature"},
	{"geometry":{"coordinates":[3.54686,47.791913],"type":"Point"},"properties":{"osm_id":"5358925552","tag":{"amenity":"waste_basket"}},"type":"Feature"},
	{"geometry":{"coordinates":[3.552631,47.798521],"type":"Point"},"properties":{"osm_id":"5678090239","tag":{"amenity":"waste_basket"}},"type":"Feature"},
	{"geometry":{"coordinates":[3.582406,47.792218],"type":"Point"},"properties":{"osm_id":"5679427835","tag":{"amenity":"waste_basket"}},"type":"Feature"},
	{"geometry":{"coordinates":[3.551385,47.796731],"type":"Point"},"properties":{"osm_id":"5692646551","tag":{"amenity":"waste_basket","waste":"trash"}},"type":"Feature"},
	{"geometry":{"coordinates":[3.548658,47.797796],"type":"Point"},"properties":{"osm_id":"5692751042","tag":{"amenity":"recycling","recycling:glass_bottles":"yes","recycling:paper":"yes","recycling:plastic":"yes","recycling:plastic_bottles":"yes","recycling:plastic_packaging":"yes","recycling:shoes":"no","recycling_type":"container"}},"type":"Feature"},
	{"geometry":{"coordinates":[3.547316,47.797576],"type":"Point"},"properties":{"osm_id":"5692751049","tag":{"amenity":"waste_basket","waste":"trash"}},"type":"Feature"},
	{"geometry":{"coordinates":[3.548042,47.799601],"type":"Point"},"properties":{"osm_id":"5699596985","tag":{"amenity":"recycling","recycling_type":"container"}},"type":"Feature"},
	{"geometry":{"coordinates":[3.571384,47.796123],"type":"Point"},"properties":{"osm_id":"5760207547","tag":{"amenity":"waste_basket","waste":"trash"}},"type":"Feature"},
	{"geometry":{"coordinates":[3.544335,47.795551],"type":"Point"},"properties":{"osm_id":"5803676952","tag":{"amenity":"waste_basket","waste":"trash"}},"type":"Feature"},
	{"geometry":{"coordinates":[3.565605,47.79819],"type":"Point"},"properties":{"osm_id":"5864301020","tag":{"amenity":"waste_basket"}},"type":"Feature"},
	{"geometry":{"coordinates":[3.577627,47.793714],"type":"Point"},"properties":{"osm_id":"5955622823","tag":{"amenity":"waste_basket"}},"type":"Feature"},
	{"geometry":{"coordinates":[3.572992,47.797181],"type":"Point"},"properties":{"osm_id":"5955622833","tag":{"amenity":"waste_basket","waste":"trash"}},"type":"Feature"},
	{"geometry":{"coordinates":[3.572169,47.797555],"type":"Point"},"properties":{"osm_id":"5955622840","tag":{"amenity":"waste_basket"}},"type":"Feature"},
	{"geometry":{"coordinates":[3.581711,47.79525],"type":"Point"},"properties":{"osm_id":"5967519217","tag":{"amenity":"waste_basket","waste":"trash"}},"type":"Feature"},
	{"geometry":{"coordinates":[3.574489,47.800013],"type":"Point"},"properties":{"osm_id":"5968936757","tag":{"amenity":"waste_basket","waste":"trash"}},"type":"Feature"},
	{"geometry":{"coordinates":[3.573848,47.800684],"type":"Point"},"properties":{"osm_id":"5968936762","tag":{"amenity":"recycling","recycling_type":"container"}},"type":"Feature"},
	{"geometry":{"coordinates":[3.591599,47.800818],"type":"Point"},"properties":{"osm_id":"6010410991","tag":{"amenity":"waste_basket","waste":"trash"}},"type":"Feature"},
	{"geometry":{"coordinates":[3.55658,47.801499],"type":"Point"},"properties":{"osm_id":"6011211556","tag":{"amenity":"waste_basket","waste":"trash"}},"type":"Feature"},
	{"geometry":{"coordinates":[3.553719,47.792683],"type":"Point"},"properties":{"osm_id":"6015376583","tag":{"amenity":"waste_basket","waste":"trash"}},"type":"Feature"},
	{"geometry":{"coordinates":[3.553747,47.792695],"type":"Point"},"properties":{"osm_id":"6015376584","tag":{"amenity":"recycling","recycling:glass":"yes","recycling_type":"container"}},"type":"Feature"},
	{"geometry":{"coordinates":[3.547326,47.794924],"type":"Point"},"properties":{"osm_id":"6023161573","tag":{"amenity":"waste_basket"}},"type":"Feature"},
	{"geometry":{"coordinates":[3.569448,47.793818],"type":"Point"},"properties":{"osm_id":"6027789951","tag":{"amenity":"waste_basket"}},"type":"Feature"},
	{"geometry":{"coordinates":[3.570401,47.792751],"type":"Point"},"properties":{"osm_id":"6027789954","tag":{"amenity":"waste_basket"}},"type":"Feature"},
	{"geometry":{"coordinates":[3.569644,47.792557],"type":"Point"},"properties":{"osm_id":"6027789956","tag":{"amenity":"waste_basket"}},"type":"Feature"},
	{"geometry":{"coordinates":[3.579351,47.795743],"type":"Point"},"properties":{"osm_id":"6051731705","tag":{"amenity":"waste_basket","waste":"trash"}},"type":"Feature"},
	{"geometry":{"coordinates":[3.556771,47.796822],"type":"Point"},"properties":{"osm_id":"6123700125","tag":{"amenity":"waste_basket","waste":"trash"}},"type":"Feature"},
	{"geometry":{"coordinates":[3.571443,47.789207],"type":"Point"},"properties":{"osm_id":"6125086645","tag":{"amenity":"waste_basket"}},"type":"Feature"},
	{"geometry":{"coordinates":[3.569069,47.789598],"type":"Point"},"properties":{"osm_id":"6125086658","tag":{"amenity":"waste_basket"}},"type":"Feature"},
	{"geometry":{"coordinates":[3.569652,47.788805],"type":"Point"},"properties":{"osm_id":"6125086660","tag":{"amenity":"waste_basket","waste":"trash"}},"type":"Feature"},
	{"geometry":{"coordinates":[3.572874,47.802622],"type":"Point"},"properties":{"osm_id":"6126592328","tag":{"amenity":"waste_basket"}},"type":"Feature"},
	{"geometry":{"coordinates":[3.564527,47.801445],"type":"Point"},"properties":{"osm_id":"6228432215","tag":{"amenity":"waste_basket","waste":"trash"}},"type":"Feature"},
	{"geometry":{"coordinates":[3.581742,47.781002],"type":"Point"},"properties":{"osm_id":"6237159862","tag":{"amenity":"recycling","recycling:glass":"yes","recycling_type":"container"}},"type":"Feature"},
	{"geometry":{"coordinates":[3.571786,47.799082],"type":"Point"},"properties":{"osm_id":"6373220965","tag":{"amenity":"waste_basket"}},"type":"Feature"},
	{"geometry":{"coordinates":[3.587649,47.793184],"type":"Point"},"properties":{"osm_id":"6445228737","tag":{"amenity":"waste_basket","waste":"trash"}},"type":"Feature"},
	{"geometry":{"coordinates":[3.588896,47.798102],"type":"Point"},"properties":{"osm_id":"6445228744","tag":{"amenity":"waste_basket"}},"type":"Feature"},
	{"geometry":{"coordinates":[3.591616,47.797541],"type":"Point"},"properties":{"osm_id":"6445228746","tag":{"amenity":"waste_basket","waste":"trash"}},"type":"Feature"},
	{"geometry":{"coordinates":[3.568087,47.798939],"type":"Point"},"properties":{"osm_id":"6475209125","tag":{"amenity":"waste_basket","waste":"trash"}},"type":"Feature"},
	{"geometry":{"coordinates":[3.573949,47.797775],"type":"Point"},"properties":{"osm_id":"6576770829","tag":{"amenity":"waste_basket"}},"type":"Feature"},
	{"geometry":{"coordinates":[3.585931,47.787037],"type":"Point"},"properties":{"osm_id":"6591939858","tag":{"amenity":"waste_basket","waste":"trash"}},"type":"Feature"},
	{"geometry":{"coordinates":[3.575265,47.786915],"type":"Point"},"properties":{"osm_id":"6951169650","tag":{"amenity":"waste_basket"}},"type":"Feature"},
	{"geometry":{"coordinates":[3.565775,47.786265],"type":"Point"},"properties":{"osm_id":"6951169657","tag":{"amenity":"waste_basket","waste":"trash"}},"type":"Feature"},
	{"geometry":{"coordinates":[3.567691,47.792411],"type":"Point"},"properties":{"osm_id":"7019862083","tag":{"amenity":"waste_basket","waste":"trash"}},"type":"Feature"},
	{"geometry":{"coordinates":[3.567458,47.792483],"type":"Point"},"properties":{"osm_id":"7019926185","tag":{"amenity":"waste_basket","waste":"trash"}},"type":"Feature"},
	{"geometry":{"coordinates":[3.567535,47.801362],"type":"Point"},"properties":{"osm_id":"7266160621","tag":{"amenity":"waste_basket","waste":"trash"}},"type":"Feature"},
	{"geometry":{"coordinates":[3.559145,47.809462],"type":"Point"},"properties":{"osm_id":"7371855214","tag":{"amenity":"recycling","recycling:beverage_cartons":"yes","recycling:cans":"yes","recycling:cardboard":"yes","recycling:clothes":"no","recycling:glass":"yes","recycling:glass_bottles":"yes","recycling:magazines":"yes","recycling:newspaper":"yes","recycling:paper":"yes","recycling:paper_packaging":"yes","recycling:plastic":"yes","recycling:plastic_bottles":"yes","recycling:plastic_packaging":"yes","recycling_type":"container"}},"type":"Feature"},
	{"geometry":{"coordinates":[3.579182,47.79696],"type":"Point"},"properties":{"osm_id":"7411089578","tag":{"amenity":"waste_basket","waste":"trash"}},"type":"Feature"},
	{"geometry":{"coordinates":[3.54998,47.799478],"type":"Point"},"properties":{"osm_id":"7426837088","tag":{"amenity":"recycling","recycling:glass_bottles":"yes","recycling:paper":"yes","recycling:plastic":"yes","recycling:plastic_bottles":"yes","recycling:plastic_packaging":"yes","recycling:shoes":"no","recycling_type":"container"}},"type":"Feature"},
	{"geometry":{"coordinates":[3.549351,47.799488],"type":"Point"},"properties":{"osm_id":"7426837089","tag":{"amenity":"recycling","recycling:glass_bottles":"yes","recycling:paper":"yes","recycling:plastic":"yes","recycling:plastic_bottles":"yes","recycling:plastic_packaging":"yes","recycling:shoes":"no","recycling_type":"container"}},"type":"Feature"},
	{"geometry":{"coordinates":[3.550027,47.798614],"type":"Point"},"properties":{"osm_id":"7426837090","tag":{"amenity":"recycling","recycling:glass_bottles":"yes","recycling:paper":"yes","recycling:plastic":"yes","recycling:plastic_bottles":"yes","recycling:plastic_packaging":"yes","recycling:shoes":"no","recycling_type":"container"}},"type":"Feature"},
	{"geometry":{"coordinates":[3.576992,47.797945],"type":"Point"},"properties":{"osm_id":"7616630791","tag":{"amenity":"waste_basket"}},"type":"Feature"},
	{"geometry":{"coordinates":[3.594433,47.79092],"type":"Point"},"properties":{"osm_id":"7669601628","tag":{"amenity":"recycling","recycling_type":"container"}},"type":"Feature"},
	{"geometry":{"coordinates":[3.593167,47.791147],"type":"Point"},"properties":{"osm_id":"7669601629","tag":{"amenity":"recycling","recycling_type":"container"}},"type":"Feature"},
	{"geometry":{"coordinates":[3.589422,47.800247],"type":"Point"},"properties":{"osm_id":"7876191160","tag":{"amenity":"recycling","recycling:glass":"yes","recycling_type":"container"}},"type":"Feature"},
	{"geometry":{"coordinates":[3.590696,47.80296],"type":"Point"},"properties":{"osm_id":"7876191162","tag":{"amenity":"recycling","recycling:glass":"yes","recycling_type":"container"}},"type":"Feature"},
	{"geometry":{"coordinates":[3.570068,47.798396],"type":"Point"},"properties":{"osm_id":"7880692785","tag":{"amenity":"waste_basket"}},"type":"Feature"},
	{"geometry":{"coordinates":[3.572229,47.800322],"type":"Point"},"properties":{"osm_id":"7880692790","tag":{"amenity":"waste_basket"}},"type":"Feature"},
	{"geometry":{"coordinates":[3.570975,47.800056],"type":"Point"},"properties":{"osm_id":"7880692793","tag":{"amenity":"waste_basket"}},"type":"Feature"},
	{"geometry":{"coordinates":[3.548763,47.793742],"type":"Point"},"properties":{"osm_id":"7880725563","tag":{"amenity":"recycling","recycling:glass":"yes","recycling_type":"container"}},"type":"Feature"},
	{"geometry":{"coordinates":[3.578645,47.796059],"type":"Point"},"properties":{"osm_id":"7997747285","tag":{"amenity":"waste_basket","waste":"trash"}},"type":"Feature"},
	{"geometry":{"coordinates":[3.574303,47.79816],"type":"Point"},"properties":{"osm_id":"8047760057","tag":{"amenity":"waste_basket"}},"type":"Feature"},
	{"geometry":{"coordinates":[3.577476,47.794482],"type":"Point"},"properties":{"osm_id":"8117176746","tag":{"amenity":"waste_basket"}},"type":"Feature"},
	{"geometry":{"coordinates":[3.545695,47.794712],"type":"Point"},"properties":{"osm_id":"8137270663","tag":{"amenity":"recycling","recycling:waste":"yes","recycling_type":"container"}},"type":"Feature"},
	{"geometry":{"coordinates":[3.547554,47.793738],"type":"Point"},"properties":{"osm_id":"8137270665","tag":{"amenity":"recycling","recycling:waste":"yes","recycling_type":"container"}},"type":"Feature"},
	{"geometry":{"coordinates":[3.545889,47.792747],"type":"Point"},"properties":{"osm_id":"8139605633","tag":{"amenity":"recycling","recycling:beverage_cartons":"yes","recycling:cans":"yes","recycling:cardboard":"yes","recycling:glass":"no","recycling:glass_bottles":"yes","recycling:magazines":"yes","recycling:newspaper":"yes","recycling:paper":"yes","recycling:paper_packaging":"yes","recycling:plastic":"yes","recycling:plastic_bottles":"yes","recycling:plastic_packaging":"yes","recycling:waste":"yes","recycling_type":"container"}},"type":"Feature"},
	{"geometry":{"coordinates":[3.546998,47.792421],"type":"Point"},"properties":{"osm_id":"8139605635","tag":{"amenity":"recycling","recycling:beverage_cartons":"yes","recycling:cans":"yes","recycling:cardboard":"yes","recycling:glass":"no","recycling:glass_bottles":"yes","recycling:magazines":"yes","recycling:newspaper":"yes","recycling:paper":"yes","recycling:paper_packaging":"yes","recycling:plastic":"yes","recycling:plastic_bottles":"yes","recycling:plastic_packaging":"yes","recycling:waste":"yes","recycling_type":"container"}},"type":"Feature"},
	{"geometry":{"coordinates":[3.548541,47.792046],"type":"Point"},"properties":{"osm_id":"8139605636","tag":{"amenity":"recycling","recycling:beverage_cartons":"yes","recycling:cans":"yes","recycling:cardboard":"yes","recycling:glass":"yes","recycling:glass_bottles":"yes","recycling:magazines":"yes","recycling:newspaper":"yes","recycling:paper":"yes","recycling:paper_packaging":"yes","recycling:plastic":"yes","recycling:plastic_bottles":"yes","recycling:plastic_packaging":"yes","recycling:waste":"yes","recycling_type":"container"}},"type":"Feature"},
	{"geometry":{"coordinates":[3.545962,47.794016],"type":"Point"},"properties":{"osm_id":"8139605637","tag":{"amenity":"recycling","recycling:waste":"yes","recycling_type":"container"}},"type":"Feature"},
	{"geometry":{"coordinates":[3.574498,47.79874],"type":"Point"},"properties":{"osm_id":"8145616177","tag":{"amenity":"recycling","recycling_type":"container"}},"type":"Feature"},
	{"geometry":{"coordinates":[3.586129,47.790658],"type":"Point"},"properties":{"osm_id":"8154587498","tag":{"amenity":"waste_basket"}},"type":"Feature"},
	{"geometry":{"coordinates":[3.586,47.790581],"type":"Point"},"properties":{"osm_id":"8154587499","tag":{"amenity":"waste_basket"}},"type":"Feature"},
	{"geometry":{"coordinates":[3.586385,47.790467],"type":"Point"},"properties":{"osm_id":"8154587500","tag":{"amenity":"waste_basket"}},"type":"Feature"},
	{"geometry":{"coordinates":[3.586278,47.790414],"type":"Point"},"properties":{"osm_id":"8154587501","tag":{"amenity":"waste_basket"}},"type":"Feature"},
	{"geometry":{"coordinates":[3.583229,47.792556],"type":"Point"},"properties":{"osm_id":"8154595632","tag":{"amenity":"waste_basket"}},"type":"Feature"},
	{"geometry":{"coordinates":[3.582718,47.792701],"type":"Point"},"properties":{"osm_id":"8154595633","tag":{"amenity":"waste_basket"}},"type":"Feature"},
	{"geometry":{"coordinates":[3.580857,47.793244],"type":"Point"},"properties":{"osm_id":"8154595635","tag":{"amenity":"waste_basket","waste":"trash"}},"type":"Feature"},
	{"geometry":{"coordinates":[3.581089,47.793115],"type":"Point"},"properties":{"osm_id":"8154595636","tag":{"amenity":"recycling","recycling:beverage_cartons":"no","recycling:cans":"yes","recycling:glass":"yes","recycling:glass_bottles":"yes","recycling:paper_packaging":"no","recycling:plastic_bottles":"yes","recycling_type":"container"}},"type":"Feature"},
	{"geometry":{"coordinates":[3.553997,47.805667],"type":"Point"},"properties":{"osm_id":"8155566599","tag":{"amenity":"recycling","opening_hours":"24/7","recycling:beverage_cartons":"yes","recycling:books":"yes","recycling:cans":"yes","recycling:cardboard":"yes","recycling:glass":"yes","recycling:glass_bottles":"yes","recycling:magazines":"yes","recycling:newspaper":"yes","recycling:paper":"yes","recycling:paper_packaging":"yes","recycling:plastic":"yes","recycling:plastic_bottles":"yes","recycling:plastic_packaging":"yes","recycling_type":"container"}},"type":"Feature"},
	{"geometry":{"coordinates":[3.556102,47.811402],"type":"Point"},"properties":{"osm_id":"8170478407","tag":{"amenity":"recycling","recycling:beverage_cartons":"yes","recycling:cans":"yes","recycling:cardboard":"yes","recycling:glass":"yes","recycling:glass_bottles":"yes","recycling:magazines":"yes","recycling:paper":"yes","recycling:paper_packaging":"yes","recycling:plastic":"yes","recycling:plastic_bottles":"yes","recycling:plastic_packaging":"yes","recycling:waste":"no","recycling_type":"container"}},"type":"Feature"},
	{"geometry":{"coordinates":[3.553717,47.810053],"type":"Point"},"properties":{"osm_id":"8170478408","tag":{"amenity":"recycling","recycling:beverage_cartons":"yes","recycling:cans":"yes","recycling:cardboard":"yes","recycling:glass":"yes","recycling:glass_bottles":"yes","recycling:magazines":"yes","recycling:paper":"yes","recycling:paper_packaging":"yes","recycling:plastic":"yes","recycling:plastic_bottles":"yes","recycling:plastic_packaging":"yes","recycling:waste":"no","recycling_type":"container"}},"type":"Feature"},
	{"geometry":{"coordinates":[3.553078,47.807033],"type":"Point"},"properties":{"osm_id":"8170478414","tag":{"amenity":"recycling","recycling:beverage_cartons":"yes","recycling:cans":"yes","recycling:cardboard":"yes","recycling:glass":"yes","recycling:glass_bottles":"yes","recycling:magazines":"yes","recycling:paper":"yes","recycling:paper_packaging":"yes","recycling:plastic":"yes","recycling:plastic_bottles":"yes","recycling:plastic_packaging":"yes","recycling:waste":"yes","recycling_type":"container"}},"type":"Feature"},
	{"geometry":{"coordinates":[3.554828,47.806331],"type":"Point"},"properties":{"osm_id":"8170478415","tag":{"amenity":"recycling","recycling:beverage_cartons":"yes","recycling:cans":"yes","recycling:cardboard":"yes","recycling:glass":"yes","recycling:glass_bottles":"yes","recycling:magazines":"yes","recycling:paper":"yes","recycling:paper_packaging":"yes","recycling:plastic":"yes","recycling:plastic_bottles":"yes","recycling:plastic_packaging":"yes","recycling:waste":"yes","recycling_type":"container"}},"type":"Feature"},
	{"geometry":{"coordinates":[3.554108,47.806715],"type":"Point"},"properties":{"osm_id":"8170478416","tag":{"amenity":"recycling","recycling:beverage_cartons":"yes","recycling:cans":"yes","recycling:cardboard":"yes","recycling:glass":"yes","recycling:glass_bottles":"yes","recycling:magazines":"yes","recycling:paper":"yes","recycling:paper_packaging":"yes","recycling:plastic":"yes","recycling:plastic_bottles":"yes","recycling:plastic_packaging":"yes","recycling:waste":"yes","recycling_type":"container"}},"type":"Feature"},
	{"geometry":{"coordinates":[3.577861,47.79677],"type":"Point"},"properties":{"osm_id":"8719500612","tag":{"amenity":"waste_basket","description":"Verre"}},"type":"Feature"}
]
}
