{
"type": "FeatureCollection",
"features": [
	{"geometry":{"coordinates":[3.523364,43.289268],"type":"Point"},"properties":{"osm_id":"1400855932","tag":{"amenity":"recycling"}},"type":"Feature"},
	{"geometry":{"coordinates":[3.517442,43.295426],"type":"Point"},"properties":{"osm_id":"1404990890","tag":{"amenity":"recycling"}},"type":"Feature"},
	{"geometry":{"coordinates":[3.548891,43.314792],"type":"Point"},"properties":{"osm_id":"3796607586","tag":{"amenity":"recycling"}},"type":"Feature"},
	{"geometry":{"coordinates":[3.549651,43.31448],"type":"Point"},"properties":{"osm_id":"3796607587","tag":{"amenity":"waste_disposal","waste":"grey_water"}},"type":"Feature"},
	{"geometry":{"coordinates":[3.542728,43.309923],"type":"Point"},"properties":{"osm_id":"4399978993","tag":{"amenity":"recycling","recycling_type":"centre"}},"type":"Feature"},
	{"geometry":{"coordinates":[3.542444,43.309366],"type":"Point"},"properties":{"osm_id":"4403332770","tag":{"amenity":"recycling","recycling_type":"centre"}},"type":"Feature"},
	{"geometry":{"coordinates":[3.538188,43.305804],"type":"Point"},"properties":{"osm_id":"4452391196","tag":{"amenity":"recycling","recycling_type":"centre"}},"type":"Feature"},
	{"geometry":{"coordinates":[3.557249,43.323093],"type":"Point"},"properties":{"osm_id":"5129415544","tag":{"amenity":"waste_disposal"}},"type":"Feature"},
	{"geometry":{"coordinates":[3.556989,43.323049],"type":"Point"},"properties":{"osm_id":"5129415545","tag":{"amenity":"recycling","mapillary":"4Nzhjdg7C7kqK4FL5kDXBQ","recycling:glass":"no","recycling:glass_bottles":"yes","recycling_type":"container","survey:date":"2019-09-12"}},"type":"Feature"},
	{"geometry":{"coordinates":[3.559476,43.322819],"type":"Point"},"properties":{"osm_id":"5129438259","tag":{"amenity":"waste_disposal"}},"type":"Feature"},
	{"geometry":{"coordinates":[3.554121,43.319288],"type":"Point"},"properties":{"osm_id":"5773962580","tag":{"amenity":"recycling","mapillary":"kXxEkqRvwoijErXkUp3v-Q","recycling_type":"container","survey:date":"2017-09-08"}},"type":"Feature"},
	{"geometry":{"coordinates":[3.556744,43.321854],"type":"Point"},"properties":{"osm_id":"5781897051","tag":{"amenity":"waste_disposal"}},"type":"Feature"},
	{"geometry":{"coordinates":[3.549035,43.31566],"type":"Point"},"properties":{"osm_id":"5782899856","tag":{"amenity":"waste_basket"}},"type":"Feature"},
	{"geometry":{"coordinates":[3.549002,43.315415],"type":"Point"},"properties":{"osm_id":"5782900655","tag":{"amenity":"waste_basket"}},"type":"Feature"},
	{"geometry":{"coordinates":[3.548824,43.316294],"type":"Point"},"properties":{"osm_id":"5782932053","tag":{"amenity":"waste_basket"}},"type":"Feature"},
	{"geometry":{"coordinates":[3.553769,43.319692],"type":"Point"},"properties":{"osm_id":"5786520154","tag":{"amenity":"waste_basket"}},"type":"Feature"},
	{"geometry":{"coordinates":[3.556921,43.320716],"type":"Point"},"properties":{"osm_id":"5786561753","tag":{"amenity":"recycling"}},"type":"Feature"},
	{"geometry":{"coordinates":[3.55412,43.320257],"type":"Point"},"properties":{"osm_id":"5786561754","tag":{"amenity":"waste_basket"}},"type":"Feature"},
	{"geometry":{"coordinates":[3.553738,43.320443],"type":"Point"},"properties":{"osm_id":"5786561756","tag":{"amenity":"waste_basket"}},"type":"Feature"},
	{"geometry":{"coordinates":[3.554428,43.319278],"type":"Point"},"properties":{"osm_id":"5786561758","tag":{"amenity":"waste_basket"}},"type":"Feature"},
	{"geometry":{"coordinates":[3.554004,43.319565],"type":"Point"},"properties":{"osm_id":"5786561759","tag":{"amenity":"waste_basket"}},"type":"Feature"},
	{"geometry":{"coordinates":[3.554746,43.319067],"type":"Point"},"properties":{"osm_id":"5786562155","tag":{"amenity":"waste_basket"}},"type":"Feature"},
	{"geometry":{"coordinates":[3.555295,43.318739],"type":"Point"},"properties":{"osm_id":"5786562156","tag":{"amenity":"waste_basket"}},"type":"Feature"},
	{"geometry":{"coordinates":[3.555025,43.318904],"type":"Point"},"properties":{"osm_id":"5786562553","tag":{"amenity":"waste_basket"}},"type":"Feature"},
	{"geometry":{"coordinates":[3.555452,43.318658],"type":"Point"},"properties":{"osm_id":"5786562554","tag":{"amenity":"waste_basket"}},"type":"Feature"},
	{"geometry":{"coordinates":[3.53119,43.300143],"type":"Point"},"properties":{"osm_id":"6552477834","tag":{"amenity":"waste_basket"}},"type":"Feature"}
]
}
