{
"type": "FeatureCollection",
"features": [
	{"geometry":{"coordinates":[22.26468,60.439373],"type":"Point"},"properties":{"osm_id":"262283539","tag":{"amenity":"recycling"}},"type":"Feature"},
	{"geometry":{"coordinates":[22.324178,60.415291],"type":"Point"},"properties":{"osm_id":"283313646","tag":{"amenity":"recycling","recycling_type":"container"}},"type":"Feature"},
	{"geometry":{"coordinates":[22.301157,60.418008],"type":"Point"},"properties":{"osm_id":"393975032","tag":{"amenity":"recycling"}},"type":"Feature"},
	{"geometry":{"coordinates":[22.285466,60.422091],"type":"Point"},"properties":{"osm_id":"2135667038","tag":{"amenity":"recycling"}},"type":"Feature"},
	{"geometry":{"coordinates":[22.287604,60.454646],"type":"Point"},"properties":{"osm_id":"4490672491","tag":{"amenity":"recycling","recycling_type":"container"}},"type":"Feature"},
	{"geometry":{"coordinates":[22.265497,60.451726],"type":"Point"},"properties":{"osm_id":"4857483523","tag":{"amenity":"waste_basket"}},"type":"Feature"},
	{"geometry":{"coordinates":[22.263119,60.451096],"type":"Point"},"properties":{"osm_id":"4857553521","tag":{"amenity":"waste_basket"}},"type":"Feature"},
	{"geometry":{"coordinates":[22.263022,60.451057],"type":"Point"},"properties":{"osm_id":"4857553621","tag":{"amenity":"waste_basket"}},"type":"Feature"},
	{"geometry":{"coordinates":[22.265951,60.451755],"type":"Point"},"properties":{"osm_id":"4895001724","tag":{"amenity":"waste_basket"}},"type":"Feature"},
	{"geometry":{"coordinates":[22.27395,60.451891],"type":"Point"},"properties":{"osm_id":"4895081622","tag":{"amenity":"waste_basket"}},"type":"Feature"},
	{"geometry":{"coordinates":[22.274369,60.45236],"type":"Point"},"properties":{"osm_id":"4895081623","tag":{"amenity":"waste_basket"}},"type":"Feature"},
	{"geometry":{"coordinates":[22.273616,60.45161],"type":"Point"},"properties":{"osm_id":"4895106321","tag":{"amenity":"waste_basket"}},"type":"Feature"},
	{"geometry":{"coordinates":[22.274487,60.453034],"type":"Point"},"properties":{"osm_id":"4895106322","tag":{"amenity":"waste_basket"}},"type":"Feature"},
	{"geometry":{"coordinates":[22.274407,60.452814],"type":"Point"},"properties":{"osm_id":"4895108421","tag":{"amenity":"waste_basket"}},"type":"Feature"},
	{"geometry":{"coordinates":[22.274618,60.453206],"type":"Point"},"properties":{"osm_id":"4895108621","tag":{"amenity":"waste_basket"}},"type":"Feature"},
	{"geometry":{"coordinates":[22.275177,60.453813],"type":"Point"},"properties":{"osm_id":"4895108724","tag":{"amenity":"waste_basket"}},"type":"Feature"},
	{"geometry":{"coordinates":[22.275292,60.454069],"type":"Point"},"properties":{"osm_id":"4899441748","tag":{"amenity":"waste_disposal"}},"type":"Feature"},
	{"geometry":{"coordinates":[22.301737,60.43872],"type":"Point"},"properties":{"osm_id":"4946220088","tag":{"amenity":"waste_basket"}},"type":"Feature"},
	{"geometry":{"coordinates":[22.254203,60.454025],"type":"Point"},"properties":{"osm_id":"5005932007","tag":{"amenity":"waste_basket"}},"type":"Feature"},
	{"geometry":{"coordinates":[22.253287,60.454141],"type":"Point"},"properties":{"osm_id":"5005934426","tag":{"amenity":"waste_basket"}},"type":"Feature"},
	{"geometry":{"coordinates":[22.252825,60.454013],"type":"Point"},"properties":{"osm_id":"5005934427","tag":{"amenity":"waste_basket"}},"type":"Feature"},
	{"geometry":{"coordinates":[22.252801,60.454005],"type":"Point"},"properties":{"osm_id":"5005934428","tag":{"amenity":"waste_basket"}},"type":"Feature"},
	{"geometry":{"coordinates":[22.252708,60.453976],"type":"Point"},"properties":{"osm_id":"5005934429","tag":{"amenity":"waste_basket"}},"type":"Feature"},
	{"geometry":{"coordinates":[22.252356,60.453826],"type":"Point"},"properties":{"osm_id":"5005934433","tag":{"amenity":"waste_basket"}},"type":"Feature"},
	{"geometry":{"coordinates":[22.252385,60.453848],"type":"Point"},"properties":{"osm_id":"5005934434","tag":{"amenity":"waste_basket"}},"type":"Feature"},
	{"geometry":{"coordinates":[22.253749,60.454211],"type":"Point"},"properties":{"osm_id":"5005934435","tag":{"amenity":"waste_basket"}},"type":"Feature"},
	{"geometry":{"coordinates":[22.254109,60.454344],"type":"Point"},"properties":{"osm_id":"5005934436","tag":{"amenity":"waste_basket"}},"type":"Feature"},
	{"geometry":{"coordinates":[22.253515,60.454202],"type":"Point"},"properties":{"osm_id":"5005934437","tag":{"amenity":"waste_basket"}},"type":"Feature"},
	{"geometry":{"coordinates":[22.294324,60.432263],"type":"Point"},"properties":{"osm_id":"5071598310","tag":{"amenity":"recycling","recycling_type":"container"}},"type":"Feature"},
	{"geometry":{"coordinates":[22.287913,60.454501],"type":"Point"},"properties":{"osm_id":"5072310692","tag":{"amenity":"waste_basket"}},"type":"Feature"},
	{"geometry":{"coordinates":[22.287876,60.454627],"type":"Point"},"properties":{"osm_id":"5072310705","tag":{"amenity":"waste_disposal","ele:msl":"47.5","ele:source":"GPS"}},"type":"Feature"},
	{"geometry":{"coordinates":[22.281011,60.432136],"type":"Point"},"properties":{"osm_id":"5301295340","tag":{"amenity":"waste_disposal"}},"type":"Feature"},
	{"geometry":{"coordinates":[22.285481,60.419919],"type":"Point"},"properties":{"osm_id":"5580679789","tag":{"amenity":"recycling","recycling_type":"container"}},"type":"Feature"},
	{"geometry":{"coordinates":[22.284344,60.42107],"type":"Point"},"properties":{"osm_id":"5580679790","tag":{"amenity":"recycling","recycling_type":"container"}},"type":"Feature"},
	{"geometry":{"coordinates":[22.283233,60.422637],"type":"Point"},"properties":{"osm_id":"5580679791","tag":{"amenity":"recycling","recycling_type":"container"}},"type":"Feature"},
	{"geometry":{"coordinates":[22.281706,60.420737],"type":"Point"},"properties":{"osm_id":"5580679792","tag":{"amenity":"recycling","recycling_type":"container"}},"type":"Feature"},
	{"geometry":{"coordinates":[22.282251,60.42439],"type":"Point"},"properties":{"osm_id":"5580679793","tag":{"amenity":"recycling","recycling_type":"container"}},"type":"Feature"},
	{"geometry":{"coordinates":[22.286067,60.422335],"type":"Point"},"properties":{"osm_id":"5580679794","tag":{"amenity":"recycling","recycling_type":"container"}},"type":"Feature"},
	{"geometry":{"coordinates":[22.274958,60.429573],"type":"Point"},"properties":{"osm_id":"5602014922","tag":{"amenity":"waste_basket"}},"type":"Feature"},
	{"geometry":{"coordinates":[22.277484,60.430747],"type":"Point"},"properties":{"osm_id":"5679569921","tag":{"amenity":"waste_basket"}},"type":"Feature"},
	{"geometry":{"coordinates":[22.27684,60.4306],"type":"Point"},"properties":{"osm_id":"5680010829","tag":{"amenity":"waste_basket"}},"type":"Feature"},
	{"geometry":{"coordinates":[22.249155,60.455207],"type":"Point"},"properties":{"osm_id":"5745440022","tag":{"amenity":"waste_disposal"}},"type":"Feature"},
	{"geometry":{"coordinates":[22.244263,60.456157],"type":"Point"},"properties":{"osm_id":"5747845837","tag":{"amenity":"waste_basket"}},"type":"Feature"},
	{"geometry":{"coordinates":[22.251257,60.448848],"type":"Point"},"properties":{"osm_id":"5834179727","tag":{"amenity":"recycling","recycling_type":"container"}},"type":"Feature"},
	{"geometry":{"coordinates":[22.28409,60.454193],"type":"Point"},"properties":{"osm_id":"5903676540","tag":{"amenity":"waste_basket"}},"type":"Feature"},
	{"geometry":{"coordinates":[22.283861,60.454334],"type":"Point"},"properties":{"osm_id":"5903676556","tag":{"amenity":"waste_basket"}},"type":"Feature"},
	{"geometry":{"coordinates":[22.238335,60.447221],"type":"Point"},"properties":{"osm_id":"6398093435","tag":{"amenity":"recycling","recycling:cardboard":"yes","recycling:glass":"yes","recycling:organic":"yes","recycling:paper":"yes","recycling:waste":"yes","recycling_type":"container"}},"type":"Feature"},
	{"geometry":{"coordinates":[22.253985,60.453112],"type":"Point"},"properties":{"osm_id":"6598445336","tag":{"amenity":"waste_basket"}},"type":"Feature"},
	{"geometry":{"coordinates":[22.262352,60.454232],"type":"Point"},"properties":{"osm_id":"6598445337","tag":{"amenity":"waste_basket"}},"type":"Feature"},
	{"geometry":{"coordinates":[22.253532,60.452806],"type":"Point"},"properties":{"osm_id":"6598445340","tag":{"amenity":"waste_basket"}},"type":"Feature"},
	{"geometry":{"coordinates":[22.253732,60.452839],"type":"Point"},"properties":{"osm_id":"6598445345","tag":{"amenity":"waste_basket","backrest":"no"}},"type":"Feature"},
	{"geometry":{"coordinates":[22.247189,60.44134],"type":"Point"},"properties":{"osm_id":"6626935258","tag":{"amenity":"waste_basket"}},"type":"Feature"},
	{"geometry":{"coordinates":[22.248582,60.440937],"type":"Point"},"properties":{"osm_id":"6626935259","tag":{"amenity":"waste_basket"}},"type":"Feature"},
	{"geometry":{"coordinates":[22.280458,60.431209],"type":"Point"},"properties":{"osm_id":"6629182922","tag":{"amenity":"waste_basket"}},"type":"Feature"},
	{"geometry":{"coordinates":[22.306782,60.447569],"type":"Point"},"properties":{"name":"Hallin sis\u00c3\u00a4\u00c3\u00a4nk\u00c3\u00a4ynti","osm_id":"7231570031","tag":{"entrance":"main","motor_vehicle":"yes"}},"type":"Feature"},
	{"geometry":{"coordinates":[22.306758,60.447649],"type":"Point"},"properties":{"name":"Toimisto","osm_id":"7231570032","tag":{"entrance":"main"}},"type":"Feature"}
]
}
