{
"type": "FeatureCollection",
"features": [
	{"geometry":{"coordinates":[22.306835,60.307899],"type":"Point"},"properties":{"osm_id":"459986971","tag":{"amenity":"recycling"}},"type":"Feature"},
	{"geometry":{"coordinates":[22.2955,60.308501],"type":"Point"},"properties":{"osm_id":"1118816669","tag":{"amenity":"recycling"}},"type":"Feature"},
	{"geometry":{"coordinates":[22.258107,60.313808],"type":"Point"},"properties":{"name":"LSJH Rauhalan j\u00c3\u00a4tekeskus","osm_id":"8467142638","tag":{"addr:housenumber":"173","addr:street":"Sydmov\u00c3\u00a4gen","amenity":"recycling","recycling:batteries":"no","recycling:cardboard":"yes","recycling:clothes":"yes","recycling:electrical_appliances":"yes","recycling:glass":"yes","recycling:magazines":"yes","recycling:newspaper":"yes","recycling:paper":"yes","recycling:paper_packaging":"yes","recycling:plastic":"yes","recycling:plastic_packaging":"yes","recycling:scrap_metal":"yes","recycling:shoes":"yes","recycling:small_appliances":"yes","recycling:waste":"yes","recycling:wood":"yes","recycling_type":"centre","website":"https://www.lsjh.fi/fi/jatteen-vastaanotto/jatekeskukset-ja-asemat/rauhalan-jatekeskus/"}},"type":"Feature"},
	{"geometry":{"coordinates":[22.301164,60.29996],"type":"Point"},"properties":{"osm_id":"8549641355","tag":{"amenity":"waste_basket"}},"type":"Feature"},
	{"geometry":{"coordinates":[22.30116,60.300005],"type":"Point"},"properties":{"osm_id":"8549641356","tag":{"amenity":"waste_basket"}},"type":"Feature"},
	{"geometry":{"coordinates":[22.301036,60.299985],"type":"Point"},"properties":{"osm_id":"8549641357","tag":{"amenity":"waste_basket"}},"type":"Feature"}
]
}
