{
"type": "FeatureCollection",
"features": [
	{"geometry":{"coordinates":[137.703989,35.523551],"type":"Point"},"properties":{"name":"\u00e5\u00b0\u008f\u00e9\u00bb\u0092\u00e5\u00b7\u009d\u00e3\u0081\u00ae\u00e3\u0083\u009f\u00e3\u0082\u00ba\u00e3\u0083\u008a\u00e3\u0083\u00a9","osm_id":"7968981760","tag":{"circumference":"7.25","denotation":"natural_monument","height":"18.2","leaf_cycle":"deciduous","leaf_type":"broadleaved","name:en":"Ogurokawa no Mizunara","name:ja":"\u00e5\u00b0\u008f\u00e9\u00bb\u0092\u00e5\u00b7\u009d\u00e3\u0081\u00ae\u00e3\u0083\u009f\u00e3\u0082\u00ba\u00e3\u0083\u008a\u00e3\u0083\u00a9","name:ja-Hira":"\u00e3\u0081\u008a\u00e3\u0081\u0090\u00e3\u0082\u008d\u00e3\u0081\u008c\u00e3\u0082\u008f\u00e3\u0081\u00ae\u00e3\u0081\u00bf\u00e3\u0081\u009a\u00e3\u0081\u00aa\u00e3\u0082\u0089","natural":"tree","species:wikidata":"Q11342134","species:wikipedia":"en:Quercus crispula"}},"type":"Feature"},
	{"geometry":{"coordinates":[137.6558,35.460861],"type":"Point"},"properties":{"name":"\u00e6\u009c\u009d\u00e6\u0097\u00a5\u00e6\u009d\u00be","osm_id":"8073031319","tag":{"denotation":"landmark","leaf_cycle":"evergreen","leaf_type":"needleleaved","name:en":"Asahi Matsu","name:ja":"\u00e6\u009c\u009d\u00e6\u0097\u00a5\u00e6\u009d\u00be","natural":"tree"}},"type":"Feature"},
	{"geometry":{"coordinates":[137.704519,35.495574],"type":"Point"},"properties":{"name":"\u00e6\u00b8\u0085\u00e4\u00b8\u00ad\u00e6\u00a1\u009c","osm_id":"8358958668","tag":{"denotation":"natural_monument","leaf_cycle":"deciduous","leaf_type":"broadleaved","name:ja":"\u00e6\u00b8\u0085\u00e4\u00b8\u00ad\u00e6\u00a1\u009c","natural":"tree","species:wikidata":"Q10879010","tourism":"attraction","website":"https://seinaiji.jp/%E6%B8%85%E4%B8%AD%E3%81%96%E3%81%8F%E3%82%89/"}},"type":"Feature"},
	{"geometry":{"coordinates":[137.702971,35.492109],"type":"Point"},"properties":{"name":"\u00e9\u00bb\u0092\u00e8\u0088\u00b9\u00e6\u00a1\u009c","osm_id":"8526587498","tag":{"denotation":"natural_monument","leaf_cycle":"deciduous","leaf_type":"broadleaved","name:en":"Kurofune Sakura Cherry Tree","name:ja":"\u00e9\u00bb\u0092\u00e8\u0088\u00b9\u00e6\u00a1\u009c","natural":"tree","species:en":"erasus itosakura \u00e2\u0080\u0098Pendula\u00e2\u0080\u0099 Maxim","species:wikidata":"Q10879010","tourism":"attraction","website":"https://seinaiji.jp/%e9%bb%92%e8%88%b9%e6%a1%9c/"}},"type":"Feature"},
	{"geometry":{"coordinates":[137.654865,35.462425],"type":"Point"},"properties":{"name":"\u00e3\u0081\u00af\u00e3\u0081\u00af\u00e3\u0081\u008d\u00e3\u0081\u008e","osm_id":"8717041760","tag":{"denotation":"landmark","leaf_cycle":"evergreen","leaf_type":"needleleaved","name:en":"Hahakigi","name:ja":"\u00e3\u0081\u00af\u00e3\u0081\u00af\u00e3\u0081\u008d\u00e3\u0081\u008e","natural":"tree","website":"https://www.hahakigi-kan.com/","wikidata":"Q11480957","wikipedia":"ja:\u00e5\u00b8\u009a\u00e6\u009c\u00a8"}},"type":"Feature"}
]
}
