{
"type": "FeatureCollection",
"features": [
	{"geometry":{"coordinates":[30.724805,36.866517],"type":"Point"},"properties":{"osm_id":"5427537199","tag":{"amenity":"waste_disposal"}},"type":"Feature"},
	{"geometry":{"coordinates":[30.724799,36.866525],"type":"Point"},"properties":{"osm_id":"5427537200","tag":{"amenity":"waste_disposal"}},"type":"Feature"},
	{"geometry":{"coordinates":[30.724793,36.866532],"type":"Point"},"properties":{"osm_id":"5427537201","tag":{"amenity":"waste_disposal"}},"type":"Feature"},
	{"geometry":{"coordinates":[30.723202,36.867954],"type":"Point"},"properties":{"osm_id":"5427537215","tag":{"amenity":"waste_disposal"}},"type":"Feature"},
	{"geometry":{"coordinates":[30.723192,36.867957],"type":"Point"},"properties":{"osm_id":"5427537216","tag":{"amenity":"waste_disposal"}},"type":"Feature"},
	{"geometry":{"coordinates":[30.747221,36.855914],"type":"Point"},"properties":{"osm_id":"6549244493","tag":{"addr:neighbourhood":"Fener Mah.","amenity":"waste_disposal"}},"type":"Feature"},
	{"geometry":{"coordinates":[30.745652,36.857907],"type":"Point"},"properties":{"osm_id":"6549244497","tag":{"amenity":"waste_disposal"}},"type":"Feature"},
	{"geometry":{"coordinates":[30.748484,36.854718],"type":"Point"},"properties":{"osm_id":"6549244504","tag":{"amenity":"waste_disposal"}},"type":"Feature"},
	{"geometry":{"coordinates":[30.736943,36.867776],"type":"Point"},"properties":{"osm_id":"6549244505","tag":{"amenity":"waste_disposal"}},"type":"Feature"},
	{"geometry":{"coordinates":[30.747541,36.855603],"type":"Point"},"properties":{"osm_id":"6549244513","tag":{"amenity":"waste_disposal"}},"type":"Feature"},
	{"geometry":{"coordinates":[30.724854,36.867454],"type":"Point"},"properties":{"osm_id":"6549280432","tag":{"amenity":"waste_disposal"}},"type":"Feature"},
	{"geometry":{"coordinates":[30.754615,36.852436],"type":"Point"},"properties":{"osm_id":"6745773196","tag":{"addr:neighbourhood":"Fener Mah.","amenity":"waste_disposal"}},"type":"Feature"},
	{"geometry":{"coordinates":[30.745651,36.85387],"type":"Point"},"properties":{"osm_id":"6901931078","tag":{"amenity":"waste_disposal"}},"type":"Feature"}
]
}
