{
"type": "FeatureCollection",
"features": [
	{"geometry":{"coordinates":[30.750677,1.149145],"type":"Point"},"properties":{"name":"Composit Pit","osm_id":"5608792324","tag":{"addr:district":"Hoima","addr:settlement":"Kyangwali","amenity":"waste_disposal","social_facility":"reception_centre","waste":"trash"}},"type":"Feature"},
	{"geometry":{"coordinates":[30.749875,1.196583],"type":"Point"},"properties":{"osm_id":"5641723288","tag":{"addr:block":"Block 15","addr:district":"Hoima","addr:settlement":"Kyangwali","addr:village":"Ngurwe","addr:zone":"Zone A","amenity":"waste_disposal","fee":"no","lit":"no","operator:type":"community","source:form":"Sanitation;v3.0.3","start_date":"2013-03-01","waste":"Dug hall"}},"type":"Feature"},
	{"geometry":{"coordinates":[30.756083,1.170098],"type":"Point"},"properties":{"name":"Nizeyimana's Trash Pit","osm_id":"5993343955","tag":{"addr:block":"Block 51","addr:district":"Hoima","addr:settlement":"Kyangwali","addr:village":"Kinakyeitaka","addr:zone":"Zone B","amenity":"waste_disposal","fee":"no","lit":"no","operator:type":"community","source:form":"Sanitation;v3.0.3","start_date":"2018-08-01","waste":"Pit"}},"type":"Feature"},
	{"geometry":{"coordinates":[30.752821,1.155346],"type":"Point"},"properties":{"name":"Coda Nursery And Primary School Rubbish Pit","osm_id":"5993343960","tag":{"addr:block":"Block 11","addr:district":"Hoima","addr:settlement":"Kyangwali","addr:village":"Kagoma","addr:zone":"Zone B","amenity":"waste_disposal","fee":"no","lit":"no","operator:type":"community","source:form":"Sanitation;v3.0.3","start_date":"2015-02-01","waste":"Domestic"}},"type":"Feature"},
	{"geometry":{"coordinates":[30.751023,1.147928],"type":"Point"},"properties":{"name":"Kagoma ECD Center Rubbish Pit","osm_id":"5995331798","tag":{"addr:block":"Block 11","addr:district":"Hoima","addr:settlement":"Kyangwali","addr:village":"Kagoma","addr:zone":"Zone B","amenity":"waste_disposal","fee":"no","lit":"no","operator":"Save The Children","operator:type":"ngo","source:form":"Sanitation;v3.0.3","start_date":"2013-04-01","waste":"Domestic"}},"type":"Feature"}
]
}
