{
"type": "FeatureCollection",
"features": [
	{"geometry":{"coordinates":[30.706342,1.130333],"type":"Point"},"properties":{"name":"Malembo Health Centre II Waste Basket","osm_id":"5641723261","tag":{"addr:block":"Malembo B Block 14","addr:district":"Hoima","addr:settlement":"Kyangwali","addr:village":"Malembo","addr:zone":"Zone D","amenity":"waste_basket","fee":"no","lit":"yes","lit_operational":"yes","operator":"AAH","operator:type":"ngo","source:form":"Sanitation;v3.0.3","start_date":"2015-07-01","waste":"Medical"}},"type":"Feature"},
	{"geometry":{"coordinates":[30.715697,1.140472],"type":"Point"},"properties":{"name":"Malembo Primary Rabbish Pit","osm_id":"5641723267","tag":{"addr:block":"Block 08","addr:district":"Hoima","addr:settlement":"Kyangwali","addr:village":"Malembo","addr:zone":"Zone D","amenity":"waste_disposal","fee":"no","lit":"no","operator:type":"community","source:form":"Sanitation;v3.0.3","start_date":"2018-04-01","waste":"Rubbish Pit"}},"type":"Feature"},
	{"geometry":{"coordinates":[30.70655,1.130138],"type":"Point"},"properties":{"name":"Malembo Health Centre II Rubbish Pit","osm_id":"5641723279","tag":{"addr:block":"Malembo B","addr:district":"Hoima","addr:settlement":"Kyangwali","addr:village":"Malembo","addr:zone":"Zone D","amenity":"waste_disposal","fee":"no","lit":"yes","lit_operational":"yes","operator":"AAH;UNHCR","operator:type":"ngo","source:form":"Sanitation;v3.0.3","start_date":"2013-09-01","waste":"Medical"}},"type":"Feature"},
	{"geometry":{"coordinates":[30.745056,1.139783],"type":"Point"},"properties":{"name":"Kentomi Primary School Rubbish Pit","osm_id":"5993343957","tag":{"addr:block":"Block 02","addr:district":"Hoima","addr:settlement":"Kyangwali","addr:village":"Kentomi","addr:zone":"Zone D","amenity":"waste_disposal","fee":"no","lit":"no","operator":"Windle International","operator:type":"ngo","source:form":"Sanitation;v3.0.3","start_date":"2017-02-01","waste":"Rubbish"}},"type":"Feature"}
]
}
