{
"type": "FeatureCollection",
"features": [
	{"geometry":{"coordinates":[43.937686,56.324983],"type":"Point"},"properties":{"osm_id":"1908853549","tag":{"amenity":"waste_disposal"}},"type":"Feature"},
	{"geometry":{"coordinates":[43.876634,56.340252],"type":"Point"},"properties":{"osm_id":"2462680543","tag":{"amenity":"waste_disposal"}},"type":"Feature"},
	{"geometry":{"coordinates":[43.88931,56.3216],"type":"Point"},"properties":{"osm_id":"2471726961","tag":{"amenity":"waste_disposal"}},"type":"Feature"},
	{"geometry":{"coordinates":[43.885777,56.322721],"type":"Point"},"properties":{"osm_id":"2471726977","tag":{"amenity":"waste_disposal"}},"type":"Feature"},
	{"geometry":{"coordinates":[43.858324,56.355702],"type":"Point"},"properties":{"osm_id":"2477258754","tag":{"amenity":"waste_disposal"}},"type":"Feature"},
	{"geometry":{"coordinates":[43.859417,56.355713],"type":"Point"},"properties":{"osm_id":"2477258755","tag":{"amenity":"waste_disposal"}},"type":"Feature"},
	{"geometry":{"coordinates":[43.871344,56.331374],"type":"Point"},"properties":{"osm_id":"2498349295","tag":{"amenity":"waste_disposal"}},"type":"Feature"},
	{"geometry":{"coordinates":[43.875205,56.329833],"type":"Point"},"properties":{"osm_id":"3116227008","tag":{"amenity":"waste_disposal"}},"type":"Feature"},
	{"geometry":{"coordinates":[43.878875,56.340504],"type":"Point"},"properties":{"osm_id":"3534925689","tag":{"amenity":"waste_disposal"}},"type":"Feature"},
	{"geometry":{"coordinates":[43.876112,56.340662],"type":"Point"},"properties":{"osm_id":"3534925691","tag":{"amenity":"waste_disposal"}},"type":"Feature"},
	{"geometry":{"coordinates":[43.875298,56.340823],"type":"Point"},"properties":{"osm_id":"3534925693","tag":{"amenity":"waste_disposal"}},"type":"Feature"},
	{"geometry":{"coordinates":[43.874931,56.3409],"type":"Point"},"properties":{"osm_id":"3534925694","tag":{"amenity":"waste_disposal"}},"type":"Feature"},
	{"geometry":{"coordinates":[43.884362,56.335448],"type":"Point"},"properties":{"osm_id":"3561175434","tag":{"amenity":"waste_disposal"}},"type":"Feature"},
	{"geometry":{"coordinates":[43.882421,56.33577],"type":"Point"},"properties":{"osm_id":"3561175549","tag":{"amenity":"waste_disposal"}},"type":"Feature"},
	{"geometry":{"coordinates":[43.884387,56.336476],"type":"Point"},"properties":{"osm_id":"3561175971","tag":{"amenity":"waste_disposal"}},"type":"Feature"},
	{"geometry":{"coordinates":[43.884131,56.336609],"type":"Point"},"properties":{"osm_id":"3561175988","tag":{"amenity":"waste_disposal"}},"type":"Feature"},
	{"geometry":{"coordinates":[43.883096,56.336689],"type":"Point"},"properties":{"osm_id":"3561176011","tag":{"amenity":"waste_disposal"}},"type":"Feature"},
	{"geometry":{"coordinates":[43.881478,56.333473],"type":"Point"},"properties":{"osm_id":"3591702676","tag":{"amenity":"waste_disposal"}},"type":"Feature"},
	{"geometry":{"coordinates":[43.883534,56.334616],"type":"Point"},"properties":{"osm_id":"3591703191","tag":{"amenity":"waste_disposal"}},"type":"Feature"},
	{"geometry":{"coordinates":[43.881759,56.334818],"type":"Point"},"properties":{"osm_id":"3591703341","tag":{"amenity":"waste_disposal"}},"type":"Feature"},
	{"geometry":{"coordinates":[43.881005,56.332278],"type":"Point"},"properties":{"osm_id":"3634262408","tag":{"amenity":"waste_disposal"}},"type":"Feature"},
	{"geometry":{"coordinates":[43.862502,56.3579],"type":"Point"},"properties":{"osm_id":"3652524978","tag":{"amenity":"waste_disposal"}},"type":"Feature"},
	{"geometry":{"coordinates":[43.860983,56.358814],"type":"Point"},"properties":{"osm_id":"3652524991","tag":{"amenity":"waste_disposal"}},"type":"Feature"},
	{"geometry":{"coordinates":[43.882451,56.32984],"type":"Point"},"properties":{"osm_id":"3676329551","tag":{"amenity":"waste_disposal"}},"type":"Feature"},
	{"geometry":{"coordinates":[43.880239,56.327694],"type":"Point"},"properties":{"osm_id":"3697293746","tag":{"amenity":"waste_disposal"}},"type":"Feature"},
	{"geometry":{"coordinates":[43.876993,56.331126],"type":"Point"},"properties":{"osm_id":"3833812471","tag":{"amenity":"waste_disposal"}},"type":"Feature"},
	{"geometry":{"coordinates":[43.872782,56.331941],"type":"Point"},"properties":{"osm_id":"3835374913","tag":{"amenity":"waste_disposal"}},"type":"Feature"},
	{"geometry":{"coordinates":[43.878714,56.330447],"type":"Point"},"properties":{"osm_id":"3840371543","tag":{"amenity":"waste_disposal"}},"type":"Feature"},
	{"geometry":{"coordinates":[43.879376,56.33363],"type":"Point"},"properties":{"osm_id":"3844337854","tag":{"amenity":"waste_disposal"}},"type":"Feature"},
	{"geometry":{"coordinates":[43.879504,56.332125],"type":"Point"},"properties":{"osm_id":"3844910275","tag":{"amenity":"waste_disposal"}},"type":"Feature"},
	{"geometry":{"coordinates":[43.881227,56.3257],"type":"Point"},"properties":{"osm_id":"3868704326","tag":{"amenity":"waste_disposal"}},"type":"Feature"},
	{"geometry":{"coordinates":[43.866482,56.351904],"type":"Point"},"properties":{"osm_id":"3891740933","tag":{"amenity":"waste_disposal"}},"type":"Feature"},
	{"geometry":{"coordinates":[43.877961,56.336491],"type":"Point"},"properties":{"osm_id":"3906041878","tag":{"amenity":"waste_disposal"}},"type":"Feature"},
	{"geometry":{"coordinates":[43.880315,56.337175],"type":"Point"},"properties":{"osm_id":"3906041905","tag":{"amenity":"waste_disposal"}},"type":"Feature"},
	{"geometry":{"coordinates":[43.881833,56.337267],"type":"Point"},"properties":{"osm_id":"3906041910","tag":{"amenity":"waste_disposal"}},"type":"Feature"},
	{"geometry":{"coordinates":[43.880071,56.337312],"type":"Point"},"properties":{"osm_id":"3906041912","tag":{"amenity":"waste_disposal"}},"type":"Feature"},
	{"geometry":{"coordinates":[43.880632,56.337823],"type":"Point"},"properties":{"osm_id":"3906041931","tag":{"amenity":"waste_disposal"}},"type":"Feature"},
	{"geometry":{"coordinates":[43.881531,56.338269],"type":"Point"},"properties":{"osm_id":"3906041934","tag":{"amenity":"waste_disposal"}},"type":"Feature"},
	{"geometry":{"coordinates":[43.874474,56.334245],"type":"Point"},"properties":{"osm_id":"3906213876","tag":{"amenity":"waste_disposal"}},"type":"Feature"},
	{"geometry":{"coordinates":[43.874746,56.334938],"type":"Point"},"properties":{"osm_id":"3906213883","tag":{"amenity":"waste_disposal"}},"type":"Feature"},
	{"geometry":{"coordinates":[43.874876,56.335282],"type":"Point"},"properties":{"osm_id":"3906213884","tag":{"amenity":"waste_disposal"}},"type":"Feature"},
	{"geometry":{"coordinates":[43.875014,56.335594],"type":"Point"},"properties":{"osm_id":"3906213885","tag":{"amenity":"waste_disposal"}},"type":"Feature"},
	{"geometry":{"coordinates":[43.875189,56.333675],"type":"Point"},"properties":{"osm_id":"3906305377","tag":{"amenity":"waste_disposal"}},"type":"Feature"},
	{"geometry":{"coordinates":[43.874855,56.333715],"type":"Point"},"properties":{"osm_id":"3906305379","tag":{"amenity":"waste_disposal"}},"type":"Feature"},
	{"geometry":{"coordinates":[43.874509,56.333762],"type":"Point"},"properties":{"osm_id":"3906305381","tag":{"amenity":"waste_disposal"}},"type":"Feature"},
	{"geometry":{"coordinates":[43.874149,56.333808],"type":"Point"},"properties":{"osm_id":"3906305382","tag":{"amenity":"waste_disposal"}},"type":"Feature"},
	{"geometry":{"coordinates":[43.880692,56.32883],"type":"Point"},"properties":{"osm_id":"4281424704","tag":{"amenity":"waste_disposal"}},"type":"Feature"},
	{"geometry":{"coordinates":[43.868341,56.33316],"type":"Point"},"properties":{"osm_id":"4357176912","tag":{"amenity":"waste_disposal"}},"type":"Feature"},
	{"geometry":{"coordinates":[43.866998,56.333391],"type":"Point"},"properties":{"osm_id":"4357176914","tag":{"amenity":"waste_disposal"}},"type":"Feature"},
	{"geometry":{"coordinates":[43.872676,56.317211],"type":"Point"},"properties":{"osm_id":"4403806488","tag":{"amenity":"waste_disposal"}},"type":"Feature"},
	{"geometry":{"coordinates":[43.873558,56.328451],"type":"Point"},"properties":{"osm_id":"4411472049","tag":{"amenity":"waste_disposal"}},"type":"Feature"},
	{"geometry":{"coordinates":[43.873372,56.328979],"type":"Point"},"properties":{"osm_id":"4411472054","tag":{"amenity":"waste_disposal"}},"type":"Feature"},
	{"geometry":{"coordinates":[43.872834,56.329057],"type":"Point"},"properties":{"osm_id":"4411472061","tag":{"amenity":"waste_disposal"}},"type":"Feature"},
	{"geometry":{"coordinates":[43.874784,56.330069],"type":"Point"},"properties":{"osm_id":"4411472081","tag":{"amenity":"waste_disposal"}},"type":"Feature"},
	{"geometry":{"coordinates":[43.874635,56.330895],"type":"Point"},"properties":{"osm_id":"4411472502","tag":{"amenity":"waste_disposal"}},"type":"Feature"},
	{"geometry":{"coordinates":[43.941969,56.31768],"type":"Point"},"properties":{"osm_id":"5017570616","tag":{"amenity":"waste_disposal"}},"type":"Feature"},
	{"geometry":{"coordinates":[43.928285,56.326148],"type":"Point"},"properties":{"osm_id":"5127221642","tag":{"amenity":"waste_disposal"}},"type":"Feature"},
	{"geometry":{"coordinates":[43.927622,56.326671],"type":"Point"},"properties":{"osm_id":"5127221643","tag":{"amenity":"waste_disposal"}},"type":"Feature"},
	{"geometry":{"coordinates":[43.923322,56.329163],"type":"Point"},"properties":{"osm_id":"5127221644","tag":{"amenity":"waste_disposal"}},"type":"Feature"},
	{"geometry":{"coordinates":[43.898674,56.350944],"type":"Point"},"properties":{"osm_id":"5194473604","tag":{"amenity":"recycling","recycling:scrap_metal":"yes","recycling_type":"centre"}},"type":"Feature"},
	{"geometry":{"coordinates":[43.896834,56.350935],"type":"Point"},"properties":{"man_made":"works","name":"\u00d0\u009c\u00d1\u0083\u00d1\u0081\u00d0\u00be\u00d1\u0080\u00d0\u00be\u00d0\u00bf\u00d0\u00b5\u00d1\u0080\u00d0\u00b5\u00d0\u00b3\u00d1\u0080\u00d1\u0083\u00d0\u00b7\u00d0\u00be\u00d1\u0087\u00d0\u00bd\u00d0\u00b0\u00d1\u008f \u00d1\u0081\u00d1\u0082\u00d0\u00b0\u00d0\u00bd\u00d1\u0086\u00d0\u00b8\u00d1\u008f","osm_id":"5194473605","tag":{"amenity":"recycling","operator":"\u00d0\u009e\u00d0\u009e\u00d0\u009e \"\u00d0\u00a3\u00d0\u00bf\u00d1\u0080\u00d0\u00b0\u00d0\u00b2\u00d0\u00bb\u00d0\u00b5\u00d0\u00bd\u00d0\u00b8\u00d0\u00b5 \u00d0\u00be\u00d1\u0082\u00d1\u0085\u00d0\u00be\u00d0\u00b4\u00d0\u00b0\u00d0\u00bc\u00d0\u00b8 \u00d0\u009d\u00d0\u009d\"","recycling_type":"centre"}},"type":"Feature"},
	{"geometry":{"coordinates":[43.873494,56.335767],"type":"Point"},"properties":{"osm_id":"5200878122","tag":{"amenity":"waste_disposal"}},"type":"Feature"},
	{"geometry":{"coordinates":[43.865583,56.351068],"type":"Point"},"properties":{"osm_id":"5920746459","tag":{"amenity":"waste_disposal"}},"type":"Feature"},
	{"geometry":{"coordinates":[43.862267,56.353033],"type":"Point"},"properties":{"osm_id":"6519070011","tag":{"amenity":"waste_disposal"}},"type":"Feature"},
	{"geometry":{"coordinates":[43.864823,56.350208],"type":"Point"},"properties":{"osm_id":"6519070026","tag":{"amenity":"waste_disposal"}},"type":"Feature"},
	{"geometry":{"coordinates":[43.860944,56.35074],"type":"Point"},"properties":{"osm_id":"6519070082","tag":{"amenity":"waste_disposal"}},"type":"Feature"},
	{"geometry":{"coordinates":[43.942369,56.325212],"type":"Point"},"properties":{"osm_id":"6525581490","tag":{"amenity":"waste_disposal"}},"type":"Feature"},
	{"geometry":{"coordinates":[43.941914,56.323463],"type":"Point"},"properties":{"osm_id":"6525581491","tag":{"amenity":"waste_disposal"}},"type":"Feature"},
	{"geometry":{"coordinates":[43.94262,56.324211],"type":"Point"},"properties":{"osm_id":"6525581494","tag":{"amenity":"waste_disposal"}},"type":"Feature"},
	{"geometry":{"coordinates":[43.863273,56.349647],"type":"Point"},"properties":{"osm_id":"6543504492","tag":{"amenity":"waste_disposal"}},"type":"Feature"},
	{"geometry":{"coordinates":[43.941923,56.334604],"type":"Point"},"properties":{"osm_id":"6571054552","tag":{"amenity":"waste_disposal"}},"type":"Feature"},
	{"geometry":{"coordinates":[43.944346,56.333624],"type":"Point"},"properties":{"osm_id":"7597042727","tag":{"amenity":"waste_disposal"}},"type":"Feature"},
	{"geometry":{"coordinates":[43.942096,56.334512],"type":"Point"},"properties":{"osm_id":"7597042741","tag":{"amenity":"waste_disposal"}},"type":"Feature"},
	{"geometry":{"coordinates":[43.860101,56.358201],"type":"Point"},"properties":{"osm_id":"7728054767","tag":{"amenity":"waste_disposal"}},"type":"Feature"},
	{"geometry":{"coordinates":[43.85784,56.357774],"type":"Point"},"properties":{"osm_id":"7728054768","tag":{"amenity":"waste_disposal"}},"type":"Feature"},
	{"geometry":{"coordinates":[43.868387,56.350099],"type":"Point"},"properties":{"name":"Belwest","osm_id":"7832311250","tag":{"contact:email":"hotline@belwest.by","contact:facebook":"https://www.facebook.com/belwest.shoes/","contact:instagram":"https://www.instagram.com/belwest.shoes/","contact:ok":"https://ok.ru/belwest.shoes","contact:phone":"+7 831 2653171","contact:vk":"https://vk.com/belwest.shoes","contact:youtube":"https://www.youtube.com/channel/UCMxwgKfu3jxDiv9lAdluR1Q","opening_hours":"Mo-Su 10:00-21:00","operator":"\u00d0\u0091\u00d0\u00b5\u00d0\u00bb\u00d0\u00b2\u00d0\u00b5\u00d1\u0081\u00d1\u0082 \u00d0\u00a0\u00d0\u00b8\u00d1\u0082\u00d0\u00b5\u00d0\u00b9\u00d0\u00bb \u00d0\u009c\u00d0\u00be\u00d1\u0081\u00d0\u00ba\u00d0\u00b2\u00d0\u00b0","shop":"shoes"}},"type":"Feature"}
]
}
