{
"type": "FeatureCollection",
"features": [
	{"geometry":{"coordinates":[101.515055,3.063424],"type":"Point"},"properties":{"name":"Panasonic","osm_id":"2110021322","tag":{"amenity":"recycling","shop":"electronics"}},"type":"Feature"},
	{"geometry":{"coordinates":[101.5893,3.046064],"type":"Point"},"properties":{"osm_id":"4894992056","tag":{"amenity":"waste_disposal"}},"type":"Feature"},
	{"geometry":{"coordinates":[101.590053,3.046945],"type":"Point"},"properties":{"osm_id":"4894992057","tag":{"amenity":"waste_disposal"}},"type":"Feature"},
	{"geometry":{"coordinates":[101.589591,3.046638],"type":"Point"},"properties":{"osm_id":"4894992058","tag":{"amenity":"waste_disposal"}},"type":"Feature"},
	{"geometry":{"coordinates":[101.589817,3.046458],"type":"Point"},"properties":{"osm_id":"4894992059","tag":{"amenity":"waste_disposal"}},"type":"Feature"},
	{"geometry":{"coordinates":[101.526443,3.044235],"type":"Point"},"properties":{"osm_id":"8377393129","tag":{"amenity":"waste_disposal"}},"type":"Feature"}
]
}
