{
"type": "FeatureCollection",
"features": [
	{"geometry":{"coordinates":[-83.008774,42.516425],"type":"Point"},"properties":{"osm_id":"7038983980","tag":{"amenity":"waste_basket","colour":"Tan","material":"plastic","operator":"WCS"}},"type":"Feature"},
	{"geometry":{"coordinates":[-83.008014,42.51538],"type":"Point"},"properties":{"osm_id":"7070240522","tag":{"amenity":"waste_disposal","operator":"Abitibi","waste":"recycling;paper"}},"type":"Feature"},
	{"geometry":{"coordinates":[-83.00873,42.515474],"type":"Point"},"properties":{"osm_id":"7115067275","tag":{"amenity":"waste_basket"}},"type":"Feature"},
	{"geometry":{"coordinates":[-83.0085,42.515481],"type":"Point"},"properties":{"osm_id":"7115067276","tag":{"amenity":"waste_basket"}},"type":"Feature"},
	{"geometry":{"coordinates":[-83.008798,42.517071],"type":"Point"},"properties":{"osm_id":"7115067277","tag":{"amenity":"waste_basket"}},"type":"Feature"},
	{"geometry":{"coordinates":[-83.009782,42.517078],"type":"Point"},"properties":{"osm_id":"7120091390","tag":{"amenity":"waste_basket"}},"type":"Feature"},
	{"geometry":{"coordinates":[-82.989915,42.506796],"type":"Point"},"properties":{"osm_id":"7172904522","tag":{"amenity":"waste_basket"}},"type":"Feature"},
	{"geometry":{"coordinates":[-82.989908,42.506671],"type":"Point"},"properties":{"osm_id":"7172904523","tag":{"amenity":"waste_basket"}},"type":"Feature"}
]
}
