{
"type": "FeatureCollection",
"features": [
	{"geometry":{"coordinates":[-83.014903,39.997305],"type":"Point"},"properties":{"osm_id":"618414184","tag":{"amenity":"recycling"}},"type":"Feature"},
	{"geometry":{"coordinates":[-83.033438,39.980346],"type":"Point"},"properties":{"osm_id":"1783214158","tag":{"amenity":"recycling","recycling:cans":"yes","recycling:glass":"yes","recycling_type":"container"}},"type":"Feature"},
	{"geometry":{"coordinates":[-83.019507,40.004271],"type":"Point"},"properties":{"osm_id":"2598479693","tag":{"amenity":"recycling"}},"type":"Feature"},
	{"geometry":{"coordinates":[-83.01896,40.004399],"type":"Point"},"properties":{"osm_id":"2598480153","tag":{"amenity":"recycling"}},"type":"Feature"},
	{"geometry":{"coordinates":[-83.017827,39.993228],"type":"Point"},"properties":{"osm_id":"3839273512","tag":{"amenity":"waste_basket"}},"type":"Feature"},
	{"geometry":{"coordinates":[-83.018034,39.993777],"type":"Point"},"properties":{"osm_id":"3839273514","tag":{"amenity":"waste_basket"}},"type":"Feature"},
	{"geometry":{"coordinates":[-83.017786,39.99379],"type":"Point"},"properties":{"osm_id":"3839273517","tag":{"amenity":"waste_basket"}},"type":"Feature"},
	{"geometry":{"coordinates":[-83.017682,39.993819],"type":"Point"},"properties":{"osm_id":"3839273518","tag":{"amenity":"waste_basket"}},"type":"Feature"},
	{"geometry":{"coordinates":[-83.017825,39.993968],"type":"Point"},"properties":{"osm_id":"3839273528","tag":{"amenity":"waste_basket"}},"type":"Feature"},
	{"geometry":{"coordinates":[-83.017791,39.993997],"type":"Point"},"properties":{"osm_id":"3839273533","tag":{"amenity":"waste_basket"}},"type":"Feature"},
	{"geometry":{"coordinates":[-83.051167,40.031316],"type":"Point"},"properties":{"osm_id":"4446367859","tag":{"amenity":"waste_basket","waste":"drugs"}},"type":"Feature"},
	{"geometry":{"coordinates":[-83.020216,39.995556],"type":"Point"},"properties":{"osm_id":"4599996290","tag":{"amenity":"waste_basket"}},"type":"Feature"},
	{"geometry":{"coordinates":[-83.00071,39.996797],"type":"Point"},"properties":{"name":"12th Ave Alley Dumpster","osm_id":"4675817943","tag":{"amenity":"waste_disposal"}},"type":"Feature"},
	{"geometry":{"coordinates":[-83.014765,39.991046],"type":"Point"},"properties":{"osm_id":"4726139092","tag":{"amenity":"waste_basket"}},"type":"Feature"},
	{"geometry":{"coordinates":[-83.023674,40.028921],"type":"Point"},"properties":{"osm_id":"4736315472","tag":{"amenity":"waste_basket"}},"type":"Feature"},
	{"geometry":{"coordinates":[-83.022775,40.028109],"type":"Point"},"properties":{"osm_id":"4736315473","tag":{"amenity":"waste_basket"}},"type":"Feature"},
	{"geometry":{"coordinates":[-83.02286,40.027909],"type":"Point"},"properties":{"osm_id":"4736315491","tag":{"amenity":"waste_basket"}},"type":"Feature"},
	{"geometry":{"coordinates":[-83.01757,39.985464],"type":"Point"},"properties":{"osm_id":"5896801132","tag":{"amenity":"waste_basket"}},"type":"Feature"},
	{"geometry":{"coordinates":[-83.017408,39.98559],"type":"Point"},"properties":{"osm_id":"5899639421","tag":{"amenity":"waste_basket"}},"type":"Feature"},
	{"geometry":{"coordinates":[-83.004048,39.980189],"type":"Point"},"properties":{"osm_id":"6025378387","tag":{"amenity":"waste_basket"}},"type":"Feature"},
	{"geometry":{"coordinates":[-83.008883,39.977197],"type":"Point"},"properties":{"osm_id":"6031512636","tag":{"amenity":"waste_basket"}},"type":"Feature"},
	{"geometry":{"coordinates":[-83.003818,39.97906],"type":"Point"},"properties":{"osm_id":"7122366929","tag":{"amenity":"waste_basket"}},"type":"Feature"},
	{"geometry":{"coordinates":[-83.003735,39.978705],"type":"Point"},"properties":{"osm_id":"7122366944","tag":{"amenity":"waste_basket"}},"type":"Feature"},
	{"geometry":{"coordinates":[-83.003809,39.977949],"type":"Point"},"properties":{"osm_id":"7122366959","tag":{"amenity":"waste_basket"}},"type":"Feature"},
	{"geometry":{"coordinates":[-83.00363,39.978105],"type":"Point"},"properties":{"osm_id":"7122366960","tag":{"amenity":"waste_basket"}},"type":"Feature"},
	{"geometry":{"coordinates":[-83.003572,39.977824],"type":"Point"},"properties":{"osm_id":"7122366967","tag":{"amenity":"waste_basket"}},"type":"Feature"},
	{"geometry":{"coordinates":[-83.003683,39.977368],"type":"Point"},"properties":{"osm_id":"7122366969","tag":{"amenity":"waste_basket"}},"type":"Feature"},
	{"geometry":{"coordinates":[-83.003487,39.977396],"type":"Point"},"properties":{"osm_id":"7122366971","tag":{"amenity":"waste_basket"}},"type":"Feature"},
	{"geometry":{"coordinates":[-83.004415,39.980841],"type":"Point"},"properties":{"osm_id":"7122393053","tag":{"amenity":"waste_basket"}},"type":"Feature"},
	{"geometry":{"coordinates":[-83.004336,39.98166],"type":"Point"},"properties":{"osm_id":"7122393056","tag":{"amenity":"waste_basket"}},"type":"Feature"},
	{"geometry":{"coordinates":[-83.004645,39.982121],"type":"Point"},"properties":{"osm_id":"7122393057","tag":{"amenity":"waste_basket"}},"type":"Feature"},
	{"geometry":{"coordinates":[-83.004626,39.98191],"type":"Point"},"properties":{"osm_id":"7122393059","tag":{"amenity":"waste_basket"}},"type":"Feature"},
	{"geometry":{"coordinates":[-83.004373,39.981908],"type":"Point"},"properties":{"osm_id":"7122393060","tag":{"amenity":"waste_basket"}},"type":"Feature"},
	{"geometry":{"coordinates":[-83.004488,39.982536],"type":"Point"},"properties":{"osm_id":"7122393079","tag":{"amenity":"waste_basket"}},"type":"Feature"},
	{"geometry":{"coordinates":[-83.004266,39.980208],"type":"Point"},"properties":{"osm_id":"7122407388","tag":{"amenity":"waste_basket"}},"type":"Feature"},
	{"geometry":{"coordinates":[-83.004174,39.980953],"type":"Point"},"properties":{"osm_id":"7122407390","tag":{"amenity":"waste_basket"}},"type":"Feature"},
	{"geometry":{"coordinates":[-83.003877,39.982685],"type":"Point"},"properties":{"osm_id":"7160154834","tag":{"amenity":"waste_basket"}},"type":"Feature"},
	{"geometry":{"coordinates":[-83.004704,39.98253],"type":"Point"},"properties":{"osm_id":"7160154858","tag":{"amenity":"waste_basket"}},"type":"Feature"},
	{"geometry":{"coordinates":[-83.004131,39.980626],"type":"Point"},"properties":{"osm_id":"7160158841","tag":{"amenity":"waste_basket"}},"type":"Feature"},
	{"geometry":{"coordinates":[-83.004233,39.979964],"type":"Point"},"properties":{"osm_id":"7160158865","tag":{"amenity":"waste_basket"}},"type":"Feature"},
	{"geometry":{"coordinates":[-83.003866,39.979283],"type":"Point"},"properties":{"osm_id":"7160158878","tag":{"amenity":"waste_basket"}},"type":"Feature"},
	{"geometry":{"coordinates":[-83.003452,39.977197],"type":"Point"},"properties":{"osm_id":"7160181853","tag":{"amenity":"waste_basket"}},"type":"Feature"},
	{"geometry":{"coordinates":[-83.004541,39.98164],"type":"Point"},"properties":{"osm_id":"7160188850","tag":{"amenity":"waste_basket"}},"type":"Feature"},
	{"geometry":{"coordinates":[-83.004277,39.981438],"type":"Point"},"properties":{"osm_id":"7160188856","tag":{"amenity":"waste_basket"}},"type":"Feature"}
]
}
