{
"type": "FeatureCollection",
"features": [
	{"geometry":{"coordinates":[-82.987282,39.966481],"type":"Point"},"properties":{"osm_id":"4391960277","tag":{"amenity":"waste_basket"}},"type":"Feature"},
	{"geometry":{"coordinates":[-82.998474,39.951637],"type":"Point"},"properties":{"osm_id":"5363977924","tag":{"amenity":"waste_basket"}},"type":"Feature"},
	{"geometry":{"coordinates":[-82.999106,39.953658],"type":"Point"},"properties":{"osm_id":"5373472955","tag":{"amenity":"waste_basket"}},"type":"Feature"},
	{"geometry":{"coordinates":[-82.998984,39.954278],"type":"Point"},"properties":{"osm_id":"5373472967","tag":{"amenity":"waste_basket"}},"type":"Feature"},
	{"geometry":{"coordinates":[-82.999244,39.954341],"type":"Point"},"properties":{"osm_id":"5373472969","tag":{"amenity":"waste_basket"}},"type":"Feature"},
	{"geometry":{"coordinates":[-82.998406,39.954819],"type":"Point"},"properties":{"osm_id":"5373472988","tag":{"amenity":"waste_basket"}},"type":"Feature"},
	{"geometry":{"coordinates":[-82.997837,39.955128],"type":"Point"},"properties":{"osm_id":"5373472991","tag":{"amenity":"waste_basket"}},"type":"Feature"},
	{"geometry":{"coordinates":[-82.997552,39.955081],"type":"Point"},"properties":{"osm_id":"5373473027","tag":{"amenity":"waste_basket"}},"type":"Feature"},
	{"geometry":{"coordinates":[-82.99725,39.95495],"type":"Point"},"properties":{"osm_id":"5373473028","tag":{"amenity":"waste_basket"}},"type":"Feature"},
	{"geometry":{"coordinates":[-82.996827,39.955168],"type":"Point"},"properties":{"osm_id":"5373473029","tag":{"amenity":"waste_basket"}},"type":"Feature"},
	{"geometry":{"coordinates":[-82.996492,39.940192],"type":"Point"},"properties":{"osm_id":"5401473332","tag":{"amenity":"waste_basket"}},"type":"Feature"},
	{"geometry":{"coordinates":[-82.99686,39.942119],"type":"Point"},"properties":{"osm_id":"5401473339","tag":{"amenity":"waste_basket"}},"type":"Feature"},
	{"geometry":{"coordinates":[-82.996294,39.943909],"type":"Point"},"properties":{"osm_id":"5401473350","tag":{"amenity":"waste_basket"}},"type":"Feature"},
	{"geometry":{"coordinates":[-82.995311,39.956707],"type":"Point"},"properties":{"osm_id":"5403604313","tag":{"amenity":"waste_basket"}},"type":"Feature"},
	{"geometry":{"coordinates":[-82.990088,39.957065],"type":"Point"},"properties":{"osm_id":"5403928891","tag":{"amenity":"waste_basket"}},"type":"Feature"},
	{"geometry":{"coordinates":[-82.989984,39.956969],"type":"Point"},"properties":{"osm_id":"5403928893","tag":{"amenity":"waste_basket"}},"type":"Feature"},
	{"geometry":{"coordinates":[-82.983286,39.952332],"type":"Point"},"properties":{"osm_id":"5409623660","tag":{"amenity":"waste_basket"}},"type":"Feature"},
	{"geometry":{"coordinates":[-82.982769,39.95211],"type":"Point"},"properties":{"osm_id":"5409623663","tag":{"amenity":"waste_basket"}},"type":"Feature"},
	{"geometry":{"coordinates":[-82.98525,39.952228],"type":"Point"},"properties":{"osm_id":"5409624326","tag":{"amenity":"waste_basket"}},"type":"Feature"},
	{"geometry":{"coordinates":[-82.988649,39.952375],"type":"Point"},"properties":{"osm_id":"5409624399","tag":{"amenity":"waste_basket"}},"type":"Feature"},
	{"geometry":{"coordinates":[-82.982671,39.949205],"type":"Point"},"properties":{"osm_id":"5416490779","tag":{"amenity":"waste_basket"}},"type":"Feature"},
	{"geometry":{"coordinates":[-82.982562,39.950637],"type":"Point"},"properties":{"osm_id":"5416490791","tag":{"amenity":"waste_basket"}},"type":"Feature"},
	{"geometry":{"coordinates":[-82.982388,39.950603],"type":"Point"},"properties":{"osm_id":"5416490792","tag":{"amenity":"waste_basket"}},"type":"Feature"},
	{"geometry":{"coordinates":[-82.982841,39.947042],"type":"Point"},"properties":{"osm_id":"5445854817","tag":{"amenity":"waste_basket"}},"type":"Feature"},
	{"geometry":{"coordinates":[-82.982594,39.947912],"type":"Point"},"properties":{"osm_id":"5445855461","tag":{"amenity":"waste_basket"}},"type":"Feature"},
	{"geometry":{"coordinates":[-82.982723,39.948542],"type":"Point"},"properties":{"osm_id":"5445855467","tag":{"amenity":"waste_basket"}},"type":"Feature"},
	{"geometry":{"coordinates":[-82.983041,39.944314],"type":"Point"},"properties":{"osm_id":"5469202745","tag":{"amenity":"waste_basket"}},"type":"Feature"},
	{"geometry":{"coordinates":[-82.983078,39.944753],"type":"Point"},"properties":{"osm_id":"5469202751","tag":{"amenity":"recycling","recycling:clothes":"yes","recycling_type":"container"}},"type":"Feature"},
	{"geometry":{"coordinates":[-82.982786,39.945357],"type":"Point"},"properties":{"osm_id":"5469202755","tag":{"amenity":"waste_basket"}},"type":"Feature"},
	{"geometry":{"coordinates":[-82.982889,39.946364],"type":"Point"},"properties":{"osm_id":"5469202766","tag":{"amenity":"waste_basket"}},"type":"Feature"},
	{"geometry":{"coordinates":[-82.982694,39.946576],"type":"Point"},"properties":{"osm_id":"5469202772","tag":{"amenity":"waste_basket"}},"type":"Feature"},
	{"geometry":{"coordinates":[-82.983128,39.939263],"type":"Point"},"properties":{"osm_id":"5470555658","tag":{"amenity":"waste_basket"}},"type":"Feature"},
	{"geometry":{"coordinates":[-82.983439,39.939348],"type":"Point"},"properties":{"osm_id":"5470555664","tag":{"amenity":"waste_basket"}},"type":"Feature"},
	{"geometry":{"coordinates":[-82.983248,39.939462],"type":"Point"},"properties":{"osm_id":"5470555671","tag":{"amenity":"waste_basket"}},"type":"Feature"},
	{"geometry":{"coordinates":[-82.983375,39.940119],"type":"Point"},"properties":{"osm_id":"5470555687","tag":{"amenity":"waste_basket"}},"type":"Feature"},
	{"geometry":{"coordinates":[-82.983288,39.941358],"type":"Point"},"properties":{"osm_id":"5470555924","tag":{"amenity":"waste_basket"}},"type":"Feature"},
	{"geometry":{"coordinates":[-82.983077,39.941656],"type":"Point"},"properties":{"osm_id":"5470555936","tag":{"amenity":"waste_basket"}},"type":"Feature"},
	{"geometry":{"coordinates":[-82.983031,39.942261],"type":"Point"},"properties":{"osm_id":"5470555947","tag":{"amenity":"waste_basket"}},"type":"Feature"},
	{"geometry":{"coordinates":[-82.98274,39.944223],"type":"Point"},"properties":{"osm_id":"5470575859","tag":{"amenity":"waste_basket"}},"type":"Feature"},
	{"geometry":{"coordinates":[-82.983382,39.944143],"type":"Point"},"properties":{"osm_id":"5470575864","tag":{"amenity":"waste_basket"}},"type":"Feature"},
	{"geometry":{"coordinates":[-82.997013,39.956506],"type":"Point"},"properties":{"osm_id":"5470769215","tag":{"amenity":"waste_basket"}},"type":"Feature"},
	{"geometry":{"coordinates":[-82.998197,39.956371],"type":"Point"},"properties":{"osm_id":"5470770534","tag":{"amenity":"waste_basket"}},"type":"Feature"},
	{"geometry":{"coordinates":[-83.001125,39.956045],"type":"Point"},"properties":{"osm_id":"5470770566","tag":{"amenity":"waste_basket"}},"type":"Feature"},
	{"geometry":{"coordinates":[-82.998704,39.951566],"type":"Point"},"properties":{"osm_id":"5619998753","tag":{"amenity":"waste_basket"}},"type":"Feature"},
	{"geometry":{"coordinates":[-82.997909,39.948781],"type":"Point"},"properties":{"osm_id":"5624659929","tag":{"amenity":"waste_basket"}},"type":"Feature"},
	{"geometry":{"coordinates":[-82.998202,39.95027],"type":"Point"},"properties":{"osm_id":"5624659983","tag":{"amenity":"waste_basket"}},"type":"Feature"},
	{"geometry":{"coordinates":[-82.999811,39.948128],"type":"Point"},"properties":{"osm_id":"5635191784","tag":{"amenity":"waste_basket"}},"type":"Feature"},
	{"geometry":{"coordinates":[-82.997391,39.946052],"type":"Point"},"properties":{"osm_id":"5650214060","tag":{"amenity":"waste_basket"}},"type":"Feature"},
	{"geometry":{"coordinates":[-82.997556,39.94689],"type":"Point"},"properties":{"osm_id":"5650214095","tag":{"amenity":"waste_basket"}},"type":"Feature"},
	{"geometry":{"coordinates":[-82.999562,39.955919],"type":"Point"},"properties":{"osm_id":"5653382430","tag":{"amenity":"waste_basket"}},"type":"Feature"},
	{"geometry":{"coordinates":[-83.0031,39.955657],"type":"Point"},"properties":{"osm_id":"5688680913","tag":{"amenity":"waste_basket"}},"type":"Feature"},
	{"geometry":{"coordinates":[-83.00299,39.955614],"type":"Point"},"properties":{"osm_id":"5688680914","tag":{"amenity":"waste_basket"}},"type":"Feature"},
	{"geometry":{"coordinates":[-83.002975,39.974782],"type":"Point"},"properties":{"osm_id":"5705824058","tag":{"amenity":"waste_basket"}},"type":"Feature"},
	{"geometry":{"coordinates":[-83.0033,39.97544],"type":"Point"},"properties":{"osm_id":"5705824061","tag":{"amenity":"waste_basket"}},"type":"Feature"},
	{"geometry":{"coordinates":[-83.003271,39.97526],"type":"Point"},"properties":{"osm_id":"5705824062","tag":{"amenity":"waste_basket"}},"type":"Feature"},
	{"geometry":{"coordinates":[-83.003102,39.975455],"type":"Point"},"properties":{"osm_id":"5706145631","tag":{"amenity":"waste_basket"}},"type":"Feature"},
	{"geometry":{"coordinates":[-83.002794,39.974727],"type":"Point"},"properties":{"osm_id":"5706145678","tag":{"amenity":"waste_basket"}},"type":"Feature"},
	{"geometry":{"coordinates":[-83.002676,39.974823],"type":"Point"},"properties":{"osm_id":"5706145685","tag":{"amenity":"waste_basket"}},"type":"Feature"},
	{"geometry":{"coordinates":[-83.003188,39.975893],"type":"Point"},"properties":{"osm_id":"5715883522","tag":{"amenity":"waste_basket"}},"type":"Feature"},
	{"geometry":{"coordinates":[-83.003157,39.975714],"type":"Point"},"properties":{"osm_id":"5715883523","tag":{"amenity":"waste_basket"}},"type":"Feature"},
	{"geometry":{"coordinates":[-83.003456,39.976173],"type":"Point"},"properties":{"osm_id":"5716995522","tag":{"amenity":"waste_basket"}},"type":"Feature"},
	{"geometry":{"coordinates":[-83.003357,39.975682],"type":"Point"},"properties":{"osm_id":"5716996051","tag":{"amenity":"waste_basket"}},"type":"Feature"},
	{"geometry":{"coordinates":[-83.003489,39.976354],"type":"Point"},"properties":{"osm_id":"5723219351","tag":{"amenity":"waste_basket"}},"type":"Feature"},
	{"geometry":{"coordinates":[-83.001346,39.955837],"type":"Point"},"properties":{"osm_id":"5784870409","tag":{"amenity":"waste_basket"}},"type":"Feature"},
	{"geometry":{"coordinates":[-83.001233,39.955349],"type":"Point"},"properties":{"osm_id":"5784870410","tag":{"amenity":"waste_basket"}},"type":"Feature"},
	{"geometry":{"coordinates":[-83.001111,39.954753],"type":"Point"},"properties":{"osm_id":"5784870413","tag":{"amenity":"waste_basket"}},"type":"Feature"},
	{"geometry":{"coordinates":[-83.001466,39.954481],"type":"Point"},"properties":{"osm_id":"5784870420","tag":{"amenity":"waste_basket"}},"type":"Feature"},
	{"geometry":{"coordinates":[-83.00227,39.954389],"type":"Point"},"properties":{"osm_id":"5784870421","tag":{"amenity":"waste_basket"}},"type":"Feature"},
	{"geometry":{"coordinates":[-83.000991,39.955219],"type":"Point"},"properties":{"osm_id":"5788000817","tag":{"amenity":"waste_basket"}},"type":"Feature"},
	{"geometry":{"coordinates":[-83.000506,39.954743],"type":"Point"},"properties":{"osm_id":"5788000818","tag":{"amenity":"waste_basket"}},"type":"Feature"},
	{"geometry":{"coordinates":[-82.999424,39.955151],"type":"Point"},"properties":{"osm_id":"5788001107","tag":{"amenity":"waste_basket"}},"type":"Feature"},
	{"geometry":{"coordinates":[-82.999339,39.953506],"type":"Point"},"properties":{"osm_id":"5788001454","tag":{"amenity":"waste_basket"}},"type":"Feature"},
	{"geometry":{"coordinates":[-82.999193,39.954092],"type":"Point"},"properties":{"osm_id":"5788001486","tag":{"amenity":"waste_basket"}},"type":"Feature"},
	{"geometry":{"coordinates":[-82.999227,39.95423],"type":"Point"},"properties":{"osm_id":"5788001487","tag":{"amenity":"waste_basket"}},"type":"Feature"},
	{"geometry":{"coordinates":[-83.000076,39.954785],"type":"Point"},"properties":{"osm_id":"5788001503","tag":{"amenity":"waste_basket"}},"type":"Feature"},
	{"geometry":{"coordinates":[-83.00005,39.954633],"type":"Point"},"properties":{"osm_id":"5788001504","tag":{"amenity":"waste_basket"}},"type":"Feature"},
	{"geometry":{"coordinates":[-83.000385,39.954596],"type":"Point"},"properties":{"osm_id":"5788001524","tag":{"amenity":"waste_basket"}},"type":"Feature"},
	{"geometry":{"coordinates":[-83,39.953432],"type":"Point"},"properties":{"osm_id":"5788001533","tag":{"amenity":"waste_basket"}},"type":"Feature"},
	{"geometry":{"coordinates":[-83.000458,39.953373],"type":"Point"},"properties":{"osm_id":"5788001547","tag":{"amenity":"waste_basket"}},"type":"Feature"},
	{"geometry":{"coordinates":[-83.00066,39.953536],"type":"Point"},"properties":{"osm_id":"5788001956","tag":{"amenity":"waste_basket"}},"type":"Feature"},
	{"geometry":{"coordinates":[-83.000692,39.953712],"type":"Point"},"properties":{"osm_id":"5788001957","tag":{"amenity":"waste_basket"}},"type":"Feature"},
	{"geometry":{"coordinates":[-83.00104,39.954215],"type":"Point"},"properties":{"osm_id":"5788001958","tag":{"amenity":"waste_basket"}},"type":"Feature"},
	{"geometry":{"coordinates":[-83.001057,39.954293],"type":"Point"},"properties":{"osm_id":"5788001959","tag":{"amenity":"waste_basket"}},"type":"Feature"},
	{"geometry":{"coordinates":[-83.000825,39.954434],"type":"Point"},"properties":{"osm_id":"5788001960","tag":{"amenity":"waste_basket"}},"type":"Feature"},
	{"geometry":{"coordinates":[-82.997018,39.953773],"type":"Point"},"properties":{"osm_id":"5789054696","tag":{"amenity":"waste_basket"}},"type":"Feature"},
	{"geometry":{"coordinates":[-82.996555,39.953828],"type":"Point"},"properties":{"osm_id":"5789054698","tag":{"amenity":"waste_basket"}},"type":"Feature"},
	{"geometry":{"coordinates":[-82.996491,39.954242],"type":"Point"},"properties":{"osm_id":"5789054699","tag":{"amenity":"waste_basket"}},"type":"Feature"},
	{"geometry":{"coordinates":[-82.996989,39.954334],"type":"Point"},"properties":{"osm_id":"5789054713","tag":{"amenity":"waste_basket"}},"type":"Feature"},
	{"geometry":{"coordinates":[-82.997094,39.95432],"type":"Point"},"properties":{"osm_id":"5789054714","tag":{"amenity":"waste_basket"}},"type":"Feature"},
	{"geometry":{"coordinates":[-82.997892,39.954882],"type":"Point"},"properties":{"osm_id":"5789054718","tag":{"amenity":"waste_basket"}},"type":"Feature"},
	{"geometry":{"coordinates":[-82.998113,39.954857],"type":"Point"},"properties":{"osm_id":"5789055746","tag":{"amenity":"waste_basket"}},"type":"Feature"},
	{"geometry":{"coordinates":[-82.998956,39.954756],"type":"Point"},"properties":{"osm_id":"5789055956","tag":{"amenity":"waste_basket"}},"type":"Feature"},
	{"geometry":{"coordinates":[-82.999058,39.954619],"type":"Point"},"properties":{"osm_id":"5789055957","tag":{"amenity":"waste_basket"}},"type":"Feature"},
	{"geometry":{"coordinates":[-82.998971,39.95414],"type":"Point"},"properties":{"osm_id":"5789055993","tag":{"amenity":"waste_basket"}},"type":"Feature"},
	{"geometry":{"coordinates":[-82.997714,39.953695],"type":"Point"},"properties":{"osm_id":"5789056002","tag":{"amenity":"waste_basket"}},"type":"Feature"},
	{"geometry":{"coordinates":[-82.99823,39.95364],"type":"Point"},"properties":{"osm_id":"5789056005","tag":{"amenity":"waste_basket"}},"type":"Feature"},
	{"geometry":{"coordinates":[-82.998564,39.953599],"type":"Point"},"properties":{"osm_id":"5789056011","tag":{"amenity":"waste_basket"}},"type":"Feature"},
	{"geometry":{"coordinates":[-82.998897,39.953801],"type":"Point"},"properties":{"osm_id":"5789056018","tag":{"amenity":"waste_basket"}},"type":"Feature"},
	{"geometry":{"coordinates":[-82.998462,39.956178],"type":"Point"},"properties":{"osm_id":"5792312025","tag":{"amenity":"waste_basket"}},"type":"Feature"},
	{"geometry":{"coordinates":[-82.999306,39.955943],"type":"Point"},"properties":{"osm_id":"5792312047","tag":{"amenity":"waste_basket"}},"type":"Feature"},
	{"geometry":{"coordinates":[-82.999233,39.955476],"type":"Point"},"properties":{"osm_id":"5792314969","tag":{"amenity":"waste_basket"}},"type":"Feature"},
	{"geometry":{"coordinates":[-82.999184,39.955207],"type":"Point"},"properties":{"osm_id":"5792314981","tag":{"amenity":"waste_basket"}},"type":"Feature"},
	{"geometry":{"coordinates":[-82.999173,39.95515],"type":"Point"},"properties":{"osm_id":"5792314982","tag":{"amenity":"waste_basket"}},"type":"Feature"},
	{"geometry":{"coordinates":[-82.997337,39.95374],"type":"Point"},"properties":{"osm_id":"5792603289","tag":{"amenity":"waste_basket"}},"type":"Feature"},
	{"geometry":{"coordinates":[-82.995847,39.956483],"type":"Point"},"properties":{"osm_id":"5793431906","tag":{"amenity":"waste_basket"}},"type":"Feature"},
	{"geometry":{"coordinates":[-82.996367,39.956418],"type":"Point"},"properties":{"osm_id":"5793431975","tag":{"amenity":"waste_basket"}},"type":"Feature"},
	{"geometry":{"coordinates":[-82.996557,39.955723],"type":"Point"},"properties":{"osm_id":"5793432004","tag":{"amenity":"waste_basket"}},"type":"Feature"},
	{"geometry":{"coordinates":[-82.994487,39.955181],"type":"Point"},"properties":{"osm_id":"5793455476","tag":{"amenity":"waste_basket"}},"type":"Feature"},
	{"geometry":{"coordinates":[-82.994285,39.955458],"type":"Point"},"properties":{"osm_id":"5793455502","tag":{"amenity":"waste_basket"}},"type":"Feature"},
	{"geometry":{"coordinates":[-82.994008,39.954783],"type":"Point"},"properties":{"osm_id":"5793455546","tag":{"amenity":"waste_basket"}},"type":"Feature"},
	{"geometry":{"coordinates":[-82.993619,39.954678],"type":"Point"},"properties":{"osm_id":"5793455547","tag":{"amenity":"waste_basket"}},"type":"Feature"},
	{"geometry":{"coordinates":[-82.993876,39.954593],"type":"Point"},"properties":{"osm_id":"5793455548","tag":{"amenity":"waste_basket"}},"type":"Feature"},
	{"geometry":{"coordinates":[-82.993794,39.954436],"type":"Point"},"properties":{"osm_id":"5793455549","tag":{"amenity":"waste_basket"}},"type":"Feature"},
	{"geometry":{"coordinates":[-82.993507,39.954505],"type":"Point"},"properties":{"osm_id":"5793455550","tag":{"amenity":"waste_basket"}},"type":"Feature"},
	{"geometry":{"coordinates":[-82.989373,39.955475],"type":"Point"},"properties":{"osm_id":"5795683830","tag":{"amenity":"waste_basket"}},"type":"Feature"},
	{"geometry":{"coordinates":[-82.989216,39.957405],"type":"Point"},"properties":{"osm_id":"5799178215","tag":{"amenity":"waste_basket"}},"type":"Feature"},
	{"geometry":{"coordinates":[-82.989222,39.957241],"type":"Point"},"properties":{"osm_id":"5799178216","tag":{"amenity":"waste_basket"}},"type":"Feature"},
	{"geometry":{"coordinates":[-83.002506,39.957967],"type":"Point"},"properties":{"osm_id":"5807004361","tag":{"amenity":"waste_basket"}},"type":"Feature"},
	{"geometry":{"coordinates":[-83.002463,39.957722],"type":"Point"},"properties":{"osm_id":"5807004367","tag":{"amenity":"waste_basket"}},"type":"Feature"},
	{"geometry":{"coordinates":[-83.002392,39.95727],"type":"Point"},"properties":{"osm_id":"5807004368","tag":{"amenity":"waste_basket"}},"type":"Feature"},
	{"geometry":{"coordinates":[-83.001683,39.95733],"type":"Point"},"properties":{"osm_id":"5807004369","tag":{"amenity":"waste_basket"}},"type":"Feature"},
	{"geometry":{"coordinates":[-83.001678,39.957675],"type":"Point"},"properties":{"osm_id":"5807004372","tag":{"amenity":"waste_basket"}},"type":"Feature"},
	{"geometry":{"coordinates":[-83.00258,39.958446],"type":"Point"},"properties":{"osm_id":"5807004397","tag":{"amenity":"waste_basket"}},"type":"Feature"},
	{"geometry":{"coordinates":[-83.001488,39.95666],"type":"Point"},"properties":{"osm_id":"5807005584","tag":{"amenity":"waste_basket"}},"type":"Feature"},
	{"geometry":{"coordinates":[-83.001645,39.957184],"type":"Point"},"properties":{"osm_id":"5807005640","tag":{"amenity":"waste_basket"}},"type":"Feature"},
	{"geometry":{"coordinates":[-83.003314,39.95651],"type":"Point"},"properties":{"osm_id":"5807005704","tag":{"amenity":"waste_basket"}},"type":"Feature"},
	{"geometry":{"coordinates":[-83.003314,39.9565],"type":"Point"},"properties":{"osm_id":"5807005705","tag":{"amenity":"waste_basket"}},"type":"Feature"},
	{"geometry":{"coordinates":[-83.003341,39.956355],"type":"Point"},"properties":{"osm_id":"5807005706","tag":{"amenity":"waste_basket"}},"type":"Feature"},
	{"geometry":{"coordinates":[-83.003353,39.956325],"type":"Point"},"properties":{"osm_id":"5807005707","tag":{"amenity":"waste_basket"}},"type":"Feature"},
	{"geometry":{"coordinates":[-83.003436,39.956184],"type":"Point"},"properties":{"osm_id":"5807005708","tag":{"amenity":"waste_basket"}},"type":"Feature"},
	{"geometry":{"coordinates":[-83.002621,39.961876],"type":"Point"},"properties":{"osm_id":"5810021583","tag":{"amenity":"waste_basket"}},"type":"Feature"},
	{"geometry":{"coordinates":[-83.003673,39.961662],"type":"Point"},"properties":{"osm_id":"5810021608","tag":{"amenity":"waste_basket"}},"type":"Feature"},
	{"geometry":{"coordinates":[-83.003664,39.961667],"type":"Point"},"properties":{"osm_id":"5810021609","tag":{"amenity":"waste_basket"}},"type":"Feature"},
	{"geometry":{"coordinates":[-83.00312,39.960896],"type":"Point"},"properties":{"osm_id":"5810021637","tag":{"amenity":"waste_basket"}},"type":"Feature"},
	{"geometry":{"coordinates":[-83.003136,39.960888],"type":"Point"},"properties":{"osm_id":"5810021638","tag":{"amenity":"waste_basket"}},"type":"Feature"},
	{"geometry":{"coordinates":[-83.002962,39.960509],"type":"Point"},"properties":{"osm_id":"5810022253","tag":{"amenity":"waste_basket"}},"type":"Feature"},
	{"geometry":{"coordinates":[-83.002974,39.960507],"type":"Point"},"properties":{"osm_id":"5810022254","tag":{"amenity":"waste_basket"}},"type":"Feature"},
	{"geometry":{"coordinates":[-83.002829,39.959545],"type":"Point"},"properties":{"osm_id":"5810022269","tag":{"amenity":"waste_basket"}},"type":"Feature"},
	{"geometry":{"coordinates":[-83.002848,39.959546],"type":"Point"},"properties":{"osm_id":"5810022270","tag":{"amenity":"waste_basket"}},"type":"Feature"},
	{"geometry":{"coordinates":[-83.002958,39.958862],"type":"Point"},"properties":{"osm_id":"5810022286","tag":{"amenity":"waste_basket"}},"type":"Feature"},
	{"geometry":{"coordinates":[-83.002972,39.958864],"type":"Point"},"properties":{"osm_id":"5810022287","tag":{"amenity":"waste_basket"}},"type":"Feature"},
	{"geometry":{"coordinates":[-83.003212,39.958518],"type":"Point"},"properties":{"osm_id":"5810022289","tag":{"amenity":"waste_basket"}},"type":"Feature"},
	{"geometry":{"coordinates":[-83.003233,39.958511],"type":"Point"},"properties":{"osm_id":"5810022290","tag":{"amenity":"waste_basket"}},"type":"Feature"},
	{"geometry":{"coordinates":[-83.001908,39.958838],"type":"Point"},"properties":{"osm_id":"5810022323","tag":{"amenity":"waste_basket"}},"type":"Feature"},
	{"geometry":{"coordinates":[-83.001902,39.95881],"type":"Point"},"properties":{"osm_id":"5810022329","tag":{"amenity":"waste_basket"}},"type":"Feature"},
	{"geometry":{"coordinates":[-83.00158,39.958574],"type":"Point"},"properties":{"osm_id":"5814495235","tag":{"amenity":"waste_basket"}},"type":"Feature"},
	{"geometry":{"coordinates":[-83.000977,39.958642],"type":"Point"},"properties":{"osm_id":"5814495243","tag":{"amenity":"waste_basket"}},"type":"Feature"},
	{"geometry":{"coordinates":[-83.000066,39.95861],"type":"Point"},"properties":{"osm_id":"5814495402","tag":{"amenity":"waste_basket"}},"type":"Feature"},
	{"geometry":{"coordinates":[-82.999992,39.958244],"type":"Point"},"properties":{"osm_id":"5814495415","tag":{"amenity":"waste_basket"}},"type":"Feature"},
	{"geometry":{"coordinates":[-82.999952,39.958022],"type":"Point"},"properties":{"osm_id":"5814495416","tag":{"amenity":"waste_basket"}},"type":"Feature"},
	{"geometry":{"coordinates":[-82.99997,39.958119],"type":"Point"},"properties":{"osm_id":"5814495417","tag":{"amenity":"waste_basket"}},"type":"Feature"},
	{"geometry":{"coordinates":[-83.001243,39.95656],"type":"Point"},"properties":{"osm_id":"5814495427","tag":{"amenity":"waste_basket"}},"type":"Feature"},
	{"geometry":{"coordinates":[-83.001285,39.95722],"type":"Point"},"properties":{"osm_id":"5814495559","tag":{"amenity":"waste_basket"}},"type":"Feature"},
	{"geometry":{"coordinates":[-82.999632,39.956282],"type":"Point"},"properties":{"osm_id":"5814495671","tag":{"amenity":"waste_basket"}},"type":"Feature"},
	{"geometry":{"coordinates":[-82.999704,39.956688],"type":"Point"},"properties":{"osm_id":"5814495682","tag":{"amenity":"waste_basket"}},"type":"Feature"},
	{"geometry":{"coordinates":[-82.999725,39.956808],"type":"Point"},"properties":{"osm_id":"5814495683","tag":{"amenity":"waste_basket"}},"type":"Feature"},
	{"geometry":{"coordinates":[-83.000308,39.956132],"type":"Point"},"properties":{"osm_id":"5814495712","tag":{"amenity":"waste_basket"}},"type":"Feature"},
	{"geometry":{"coordinates":[-83.000293,39.959809],"type":"Point"},"properties":{"osm_id":"5830140715","tag":{"amenity":"waste_basket"}},"type":"Feature"},
	{"geometry":{"coordinates":[-83.000244,39.95955],"type":"Point"},"properties":{"osm_id":"5830140718","tag":{"amenity":"waste_basket"}},"type":"Feature"},
	{"geometry":{"coordinates":[-83.000184,39.959246],"type":"Point"},"properties":{"osm_id":"5830140727","tag":{"amenity":"waste_basket"}},"type":"Feature"},
	{"geometry":{"coordinates":[-83.000159,39.95911],"type":"Point"},"properties":{"osm_id":"5830140728","tag":{"amenity":"waste_basket"}},"type":"Feature"},
	{"geometry":{"coordinates":[-83.000798,39.958793],"type":"Point"},"properties":{"osm_id":"5830140738","tag":{"amenity":"waste_basket"}},"type":"Feature"},
	{"geometry":{"coordinates":[-83.001752,39.959161],"type":"Point"},"properties":{"osm_id":"5830140746","tag":{"amenity":"waste_basket"}},"type":"Feature"},
	{"geometry":{"coordinates":[-83.001709,39.958936],"type":"Point"},"properties":{"osm_id":"5830140749","tag":{"amenity":"waste_basket"}},"type":"Feature"},
	{"geometry":{"coordinates":[-83.001698,39.958916],"type":"Point"},"properties":{"osm_id":"5830140750","tag":{"amenity":"waste_basket"}},"type":"Feature"},
	{"geometry":{"coordinates":[-83.001834,39.959563],"type":"Point"},"properties":{"osm_id":"5830218091","tag":{"amenity":"waste_basket"}},"type":"Feature"},
	{"geometry":{"coordinates":[-83.001918,39.958632],"type":"Point"},"properties":{"osm_id":"5830218117","tag":{"amenity":"waste_basket"}},"type":"Feature"},
	{"geometry":{"coordinates":[-83.00149,39.957809],"type":"Point"},"properties":{"osm_id":"5830218158","tag":{"amenity":"waste_basket"}},"type":"Feature"},
	{"geometry":{"coordinates":[-83.00156,39.95817],"type":"Point"},"properties":{"osm_id":"5830218314","tag":{"amenity":"waste_basket"}},"type":"Feature"},
	{"geometry":{"coordinates":[-83.000313,39.959926],"type":"Point"},"properties":{"osm_id":"5830218385","tag":{"amenity":"waste_basket"}},"type":"Feature"},
	{"geometry":{"coordinates":[-83.000326,39.959981],"type":"Point"},"properties":{"osm_id":"5830218485","tag":{"amenity":"waste_basket"}},"type":"Feature"},
	{"geometry":{"coordinates":[-83.002236,39.961652],"type":"Point"},"properties":{"osm_id":"5836774395","tag":{"amenity":"waste_basket"}},"type":"Feature"},
	{"geometry":{"coordinates":[-83.001635,39.961932],"type":"Point"},"properties":{"osm_id":"5836774399","tag":{"amenity":"waste_basket"}},"type":"Feature"},
	{"geometry":{"coordinates":[-83.001618,39.96184],"type":"Point"},"properties":{"osm_id":"5836774401","tag":{"amenity":"waste_basket"}},"type":"Feature"},
	{"geometry":{"coordinates":[-83.00161,39.961794],"type":"Point"},"properties":{"osm_id":"5836774402","tag":{"amenity":"waste_basket"}},"type":"Feature"},
	{"geometry":{"coordinates":[-83.00087,39.962085],"type":"Point"},"properties":{"osm_id":"5836774436","tag":{"amenity":"waste_basket"}},"type":"Feature"},
	{"geometry":{"coordinates":[-83.001921,39.961964],"type":"Point"},"properties":{"osm_id":"5836792790","tag":{"amenity":"waste_basket"}},"type":"Feature"},
	{"geometry":{"coordinates":[-83.001626,39.961885],"type":"Point"},"properties":{"osm_id":"5836792791","tag":{"amenity":"waste_basket"}},"type":"Feature"},
	{"geometry":{"coordinates":[-83.0016,39.961742],"type":"Point"},"properties":{"osm_id":"5836792793","tag":{"amenity":"waste_basket"}},"type":"Feature"},
	{"geometry":{"coordinates":[-83.001949,39.960168],"type":"Point"},"properties":{"osm_id":"5836792873","tag":{"amenity":"waste_basket"}},"type":"Feature"},
	{"geometry":{"coordinates":[-83.000476,39.960782],"type":"Point"},"properties":{"osm_id":"5836792882","tag":{"amenity":"waste_basket"}},"type":"Feature"},
	{"geometry":{"coordinates":[-83.005783,39.974261],"type":"Point"},"properties":{"osm_id":"5920823845","tag":{"amenity":"waste_basket"}},"type":"Feature"},
	{"geometry":{"coordinates":[-83.007286,39.976134],"type":"Point"},"properties":{"osm_id":"5920823856","tag":{"amenity":"waste_basket"}},"type":"Feature"},
	{"geometry":{"coordinates":[-83.006056,39.974558],"type":"Point"},"properties":{"osm_id":"5920823857","tag":{"amenity":"waste_basket"}},"type":"Feature"},
	{"geometry":{"coordinates":[-83.008846,39.975713],"type":"Point"},"properties":{"osm_id":"5920823877","tag":{"amenity":"waste_basket"}},"type":"Feature"},
	{"geometry":{"coordinates":[-83.008451,39.976122],"type":"Point"},"properties":{"osm_id":"5920823878","tag":{"amenity":"waste_basket"}},"type":"Feature"},
	{"geometry":{"coordinates":[-83.008887,39.976244],"type":"Point"},"properties":{"osm_id":"5920823880","tag":{"amenity":"waste_basket"}},"type":"Feature"},
	{"geometry":{"coordinates":[-83.005325,39.975393],"type":"Point"},"properties":{"osm_id":"5920829905","tag":{"amenity":"waste_basket"}},"type":"Feature"},
	{"geometry":{"coordinates":[-83.004988,39.975405],"type":"Point"},"properties":{"osm_id":"5920829908","tag":{"amenity":"waste_basket"}},"type":"Feature"},
	{"geometry":{"coordinates":[-83.005316,39.976558],"type":"Point"},"properties":{"osm_id":"5920829915","tag":{"amenity":"waste_basket"}},"type":"Feature"},
	{"geometry":{"coordinates":[-83.00595,39.977056],"type":"Point"},"properties":{"osm_id":"5920829919","tag":{"amenity":"waste_basket"}},"type":"Feature"},
	{"geometry":{"coordinates":[-83.008214,39.976783],"type":"Point"},"properties":{"osm_id":"6031512638","tag":{"amenity":"waste_basket"}},"type":"Feature"},
	{"geometry":{"coordinates":[-83.006873,39.97576],"type":"Point"},"properties":{"osm_id":"6031512645","tag":{"amenity":"waste_basket"}},"type":"Feature"},
	{"geometry":{"coordinates":[-83.005408,39.97448],"type":"Point"},"properties":{"osm_id":"6031512654","tag":{"amenity":"waste_basket"}},"type":"Feature"},
	{"geometry":{"coordinates":[-83.004903,39.97402],"type":"Point"},"properties":{"osm_id":"6031512657","tag":{"amenity":"waste_basket"}},"type":"Feature"},
	{"geometry":{"coordinates":[-82.997402,39.958933],"type":"Point"},"properties":{"osm_id":"6048727196","tag":{"amenity":"waste_basket"}},"type":"Feature"},
	{"geometry":{"coordinates":[-82.999909,39.958988],"type":"Point"},"properties":{"osm_id":"6048727266","tag":{"amenity":"waste_basket"}},"type":"Feature"},
	{"geometry":{"coordinates":[-82.999836,39.958666],"type":"Point"},"properties":{"osm_id":"6048727317","tag":{"amenity":"waste_basket"}},"type":"Feature"},
	{"geometry":{"coordinates":[-82.999774,39.958287],"type":"Point"},"properties":{"osm_id":"6048727321","tag":{"amenity":"waste_basket"}},"type":"Feature"},
	{"geometry":{"coordinates":[-82.999733,39.958087],"type":"Point"},"properties":{"osm_id":"6048727325","tag":{"amenity":"waste_basket"}},"type":"Feature"},
	{"geometry":{"coordinates":[-82.999682,39.957818],"type":"Point"},"properties":{"osm_id":"6048727327","tag":{"amenity":"waste_basket"}},"type":"Feature"},
	{"geometry":{"coordinates":[-83.008852,39.961874],"type":"Point"},"properties":{"osm_id":"6357133318","tag":{"amenity":"waste_basket"}},"type":"Feature"},
	{"geometry":{"coordinates":[-83.003625,39.977034],"type":"Point"},"properties":{"osm_id":"7122366966","tag":{"amenity":"waste_basket"}},"type":"Feature"},
	{"geometry":{"coordinates":[-83.003403,39.976955],"type":"Point"},"properties":{"osm_id":"7122387684","tag":{"amenity":"waste_basket"}},"type":"Feature"},
	{"geometry":{"coordinates":[-83.003402,39.975928],"type":"Point"},"properties":{"osm_id":"7122408187","tag":{"amenity":"waste_basket"}},"type":"Feature"},
	{"geometry":{"coordinates":[-83.003161,39.974662],"type":"Point"},"properties":{"osm_id":"7122408191","tag":{"amenity":"waste_basket"}},"type":"Feature"},
	{"geometry":{"coordinates":[-83.002915,39.971612],"type":"Point"},"properties":{"osm_id":"7158518182","tag":{"amenity":"waste_basket"}},"type":"Feature"},
	{"geometry":{"coordinates":[-83.002373,39.972306],"type":"Point"},"properties":{"osm_id":"7158597271","tag":{"amenity":"waste_basket"}},"type":"Feature"},
	{"geometry":{"coordinates":[-83.002443,39.972464],"type":"Point"},"properties":{"osm_id":"7158597272","tag":{"amenity":"waste_basket"}},"type":"Feature"},
	{"geometry":{"coordinates":[-83.002459,39.972534],"type":"Point"},"properties":{"osm_id":"7158597273","tag":{"amenity":"waste_basket"}},"type":"Feature"},
	{"geometry":{"coordinates":[-83.002524,39.972902],"type":"Point"},"properties":{"osm_id":"7158597276","tag":{"amenity":"waste_basket"}},"type":"Feature"},
	{"geometry":{"coordinates":[-83.002534,39.972983],"type":"Point"},"properties":{"osm_id":"7158597277","tag":{"amenity":"waste_basket"}},"type":"Feature"},
	{"geometry":{"coordinates":[-83.002799,39.97281],"type":"Point"},"properties":{"osm_id":"7158597278","tag":{"amenity":"waste_basket"}},"type":"Feature"},
	{"geometry":{"coordinates":[-83.002829,39.972934],"type":"Point"},"properties":{"osm_id":"7158597279","tag":{"amenity":"waste_basket"}},"type":"Feature"},
	{"geometry":{"coordinates":[-83.00426,39.971421],"type":"Point"},"properties":{"osm_id":"7158599267","tag":{"amenity":"waste_basket"}},"type":"Feature"},
	{"geometry":{"coordinates":[-83.00218,39.971308],"type":"Point"},"properties":{"osm_id":"7158608312","tag":{"amenity":"waste_basket"}},"type":"Feature"},
	{"geometry":{"coordinates":[-83.002196,39.97142],"type":"Point"},"properties":{"osm_id":"7158608313","tag":{"amenity":"waste_basket"}},"type":"Feature"},
	{"geometry":{"coordinates":[-83.002308,39.971595],"type":"Point"},"properties":{"osm_id":"7158608320","tag":{"amenity":"waste_basket"}},"type":"Feature"},
	{"geometry":{"coordinates":[-83.002341,39.971826],"type":"Point"},"properties":{"osm_id":"7158608327","tag":{"amenity":"waste_basket"}},"type":"Feature"},
	{"geometry":{"coordinates":[-83.002929,39.9722],"type":"Point"},"properties":{"osm_id":"7158608353","tag":{"amenity":"waste_basket"}},"type":"Feature"},
	{"geometry":{"coordinates":[-83.004383,39.971213],"type":"Point"},"properties":{"osm_id":"7158609190","tag":{"amenity":"waste_basket"}},"type":"Feature"},
	{"geometry":{"coordinates":[-83.002451,39.970783],"type":"Point"},"properties":{"osm_id":"7158609292","tag":{"amenity":"waste_basket"}},"type":"Feature"},
	{"geometry":{"coordinates":[-83.002482,39.970928],"type":"Point"},"properties":{"osm_id":"7158609293","tag":{"amenity":"waste_basket"}},"type":"Feature"},
	{"geometry":{"coordinates":[-83.00334,39.976774],"type":"Point"},"properties":{"osm_id":"7160181863","tag":{"amenity":"waste_basket"}},"type":"Feature"},
	{"geometry":{"coordinates":[-83.003548,39.976663],"type":"Point"},"properties":{"osm_id":"7160181868","tag":{"amenity":"waste_basket"}},"type":"Feature"}
]
}
