{
"type": "FeatureCollection",
"features": [
	{"geometry":{"coordinates":[-1.382018,43.192423],"type":"Point"},"properties":{"osm_id":"5614758781","tag":{"leaf_cycle":"deciduous","leaf_type":"broadleaved","natural":"tree"}},"type":"Feature"},
	{"geometry":{"coordinates":[-1.3403,43.178921],"type":"Point"},"properties":{"name":"Bosch eBike Power Station","osm_id":"7302260553","tag":{"addr:city":"Saint-\u00c3\u0089tienne-de-Ba\u00c3\u00afgorry","addr:postcode":"64430","addr:street":"Place de la Mairie","addr:suburb":"Saint-\u00c3\u0089tienne-de-Ba\u00c3\u00afgorry","amenity":"charging_station","bicycle":"yes","motorcar":"no","natural":"tree","operator":"Office de tourisme du Pays basque","phone":"+33 5 59 37 47 28","website":"http://www.pyrenees-basques.com"}},"type":"Feature"},
	{"geometry":{"coordinates":[-1.326954,43.152495],"type":"Point"},"properties":{"osm_id":"8516098596","tag":{"natural":"tree"}},"type":"Feature"},
	{"geometry":{"coordinates":[-1.326802,43.152712],"type":"Point"},"properties":{"osm_id":"8516098597","tag":{"natural":"tree"}},"type":"Feature"},
	{"geometry":{"coordinates":[-1.326683,43.152412],"type":"Point"},"properties":{"osm_id":"8516098598","tag":{"natural":"tree"}},"type":"Feature"},
	{"geometry":{"coordinates":[-1.325994,43.153034],"type":"Point"},"properties":{"osm_id":"8516098599","tag":{"natural":"tree"}},"type":"Feature"},
	{"geometry":{"coordinates":[-1.327252,43.151503],"type":"Point"},"properties":{"osm_id":"8516098600","tag":{"natural":"tree"}},"type":"Feature"},
	{"geometry":{"coordinates":[-1.340222,43.178613],"type":"Point"},"properties":{"osm_id":"9167584370","tag":{"natural":"tree"}},"type":"Feature"},
	{"geometry":{"coordinates":[-1.340198,43.178594],"type":"Point"},"properties":{"osm_id":"9167634502","tag":{"natural":"tree"}},"type":"Feature"},
	{"geometry":{"coordinates":[-1.340382,43.1789],"type":"Point"},"properties":{"osm_id":"9171835470","tag":{"natural":"tree"}},"type":"Feature"},
	{"geometry":{"coordinates":[-1.340247,43.178922],"type":"Point"},"properties":{"osm_id":"9171835471","tag":{"natural":"tree"}},"type":"Feature"},
	{"geometry":{"coordinates":[-1.340197,43.178928],"type":"Point"},"properties":{"osm_id":"9171835472","tag":{"natural":"tree"}},"type":"Feature"},
	{"geometry":{"coordinates":[-1.340136,43.178951],"type":"Point"},"properties":{"osm_id":"9171835473","tag":{"natural":"tree"}},"type":"Feature"},
	{"geometry":{"coordinates":[-1.340062,43.178955],"type":"Point"},"properties":{"osm_id":"9171835474","tag":{"natural":"tree"}},"type":"Feature"}
]
}
