{
"type": "FeatureCollection",
"features": [
	{"geometry":{"coordinates":[151.648786,-30.521295],"type":"Point"},"properties":{"osm_id":"5814843644","tag":{"amenity":"waste_basket"}},"type":"Feature"},
	{"geometry":{"coordinates":[151.647094,-30.52061],"type":"Point"},"properties":{"osm_id":"5814843646","tag":{"amenity":"waste_basket"}},"type":"Feature"},
	{"geometry":{"coordinates":[151.646445,-30.521186],"type":"Point"},"properties":{"osm_id":"5814843647","tag":{"amenity":"waste_basket"}},"type":"Feature"},
	{"geometry":{"coordinates":[151.670916,-30.510887],"type":"Point"},"properties":{"osm_id":"5824559168","tag":{"amenity":"waste_basket"}},"type":"Feature"},
	{"geometry":{"coordinates":[151.673395,-30.51135],"type":"Point"},"properties":{"osm_id":"5824560373","tag":{"amenity":"waste_basket"}},"type":"Feature"},
	{"geometry":{"coordinates":[151.673946,-30.511545],"type":"Point"},"properties":{"osm_id":"5824562979","tag":{"amenity":"waste_basket"}},"type":"Feature"},
	{"geometry":{"coordinates":[151.674641,-30.511742],"type":"Point"},"properties":{"osm_id":"5824563674","tag":{"amenity":"waste_basket"}},"type":"Feature"},
	{"geometry":{"coordinates":[151.657258,-30.516445],"type":"Point"},"properties":{"osm_id":"5824602743","tag":{"amenity":"waste_basket"}},"type":"Feature"},
	{"geometry":{"coordinates":[151.65717,-30.516513],"type":"Point"},"properties":{"osm_id":"5824603482","tag":{"amenity":"waste_basket"}},"type":"Feature"},
	{"geometry":{"coordinates":[151.671484,-30.518711],"type":"Point"},"properties":{"osm_id":"5826766110","tag":{"amenity":"recycling","location":"overground","recycling:cans":"yes","recycling:glass_bottles":"yes","recycling:paper":"yes","recycling:plastic":"no","recycling:plastic_packaging":"yes","recycling_type":"container"}},"type":"Feature"},
	{"geometry":{"coordinates":[151.671482,-30.518727],"type":"Point"},"properties":{"osm_id":"5826766111","tag":{"amenity":"waste_basket"}},"type":"Feature"},
	{"geometry":{"coordinates":[151.671651,-30.518752],"type":"Point"},"properties":{"osm_id":"5826766112","tag":{"amenity":"recycling","location":"overground","recycling:cans":"yes","recycling:glass_bottles":"yes","recycling:paper":"yes","recycling:plastic":"no","recycling:plastic_packaging":"yes","recycling_type":"container"}},"type":"Feature"},
	{"geometry":{"coordinates":[151.671649,-30.518768],"type":"Point"},"properties":{"osm_id":"5826766113","tag":{"amenity":"waste_basket"}},"type":"Feature"},
	{"geometry":{"coordinates":[151.664549,-30.510176],"type":"Point"},"properties":{"osm_id":"5828380785","tag":{"amenity":"waste_basket"}},"type":"Feature"},
	{"geometry":{"coordinates":[151.661558,-30.513605],"type":"Point"},"properties":{"osm_id":"5828393821","tag":{"amenity":"waste_basket"}},"type":"Feature"},
	{"geometry":{"coordinates":[151.660365,-30.512677],"type":"Point"},"properties":{"osm_id":"5828397822","tag":{"amenity":"recycling","location":"overground","recycling:cans":"yes","recycling:glass_bottles":"yes","recycling:paper":"yes","recycling:plastic":"no","recycling:plastic_bottles":"yes","recycling:plastic_packaging":"no","recycling_type":"container"}},"type":"Feature"},
	{"geometry":{"coordinates":[151.663238,-30.512667],"type":"Point"},"properties":{"osm_id":"5828586487","tag":{"amenity":"waste_basket"}},"type":"Feature"},
	{"geometry":{"coordinates":[151.663585,-30.512841],"type":"Point"},"properties":{"osm_id":"5828586759","tag":{"amenity":"waste_basket"}},"type":"Feature"},
	{"geometry":{"coordinates":[151.663463,-30.512832],"type":"Point"},"properties":{"osm_id":"5828588022","tag":{"amenity":"waste_basket"}},"type":"Feature"},
	{"geometry":{"coordinates":[151.660197,-30.512439],"type":"Point"},"properties":{"osm_id":"5830902551","tag":{"amenity":"waste_basket"}},"type":"Feature"},
	{"geometry":{"coordinates":[151.66503,-30.514324],"type":"Point"},"properties":{"osm_id":"5831117837","tag":{"amenity":"waste_basket"}},"type":"Feature"},
	{"geometry":{"coordinates":[151.664078,-30.514211],"type":"Point"},"properties":{"osm_id":"5831120687","tag":{"amenity":"waste_basket"}},"type":"Feature"},
	{"geometry":{"coordinates":[151.664111,-30.513347],"type":"Point"},"properties":{"osm_id":"5831290243","tag":{"amenity":"waste_basket"}},"type":"Feature"},
	{"geometry":{"coordinates":[151.663349,-30.513127],"type":"Point"},"properties":{"osm_id":"5831294417","tag":{"amenity":"waste_basket"}},"type":"Feature"},
	{"geometry":{"coordinates":[151.659778,-30.512001],"type":"Point"},"properties":{"osm_id":"5831300453","tag":{"amenity":"waste_basket"}},"type":"Feature"},
	{"geometry":{"coordinates":[151.659423,-30.512463],"type":"Point"},"properties":{"osm_id":"5831413904","tag":{"amenity":"waste_disposal"}},"type":"Feature"},
	{"geometry":{"coordinates":[151.66676,-30.514694],"type":"Point"},"properties":{"osm_id":"5831456003","tag":{"amenity":"waste_basket"}},"type":"Feature"},
	{"geometry":{"coordinates":[151.667686,-30.513862],"type":"Point"},"properties":{"osm_id":"5831481063","tag":{"amenity":"waste_basket"}},"type":"Feature"},
	{"geometry":{"coordinates":[151.667823,-30.513789],"type":"Point"},"properties":{"osm_id":"5831481083","tag":{"amenity":"waste_basket"}},"type":"Feature"},
	{"geometry":{"coordinates":[151.667008,-30.513528],"type":"Point"},"properties":{"osm_id":"5831484249","tag":{"amenity":"waste_basket"}},"type":"Feature"},
	{"geometry":{"coordinates":[151.66816,-30.513904],"type":"Point"},"properties":{"osm_id":"5831493301","tag":{"amenity":"waste_basket"}},"type":"Feature"},
	{"geometry":{"coordinates":[151.66852,-30.514051],"type":"Point"},"properties":{"osm_id":"5831495209","tag":{"amenity":"waste_basket"}},"type":"Feature"},
	{"geometry":{"coordinates":[151.668748,-30.514653],"type":"Point"},"properties":{"osm_id":"5831496686","tag":{"amenity":"waste_basket"}},"type":"Feature"},
	{"geometry":{"coordinates":[151.666367,-30.521465],"type":"Point"},"properties":{"osm_id":"5831557260","tag":{"amenity":"waste_basket"}},"type":"Feature"},
	{"geometry":{"coordinates":[151.659824,-30.512331],"type":"Point"},"properties":{"osm_id":"5833530775","tag":{"amenity":"waste_basket"}},"type":"Feature"},
	{"geometry":{"coordinates":[151.664173,-30.509367],"type":"Point"},"properties":{"osm_id":"5833656867","tag":{"amenity":"recycling","location":"overground","recycling:cans":"yes","recycling:glass_bottles":"yes","recycling:paper":"yes","recycling:plastic":"no","recycling:plastic_packaging":"yes","recycling_type":"container"}},"type":"Feature"},
	{"geometry":{"coordinates":[151.664159,-30.509359],"type":"Point"},"properties":{"osm_id":"5833657583","tag":{"amenity":"waste_basket"}},"type":"Feature"},
	{"geometry":{"coordinates":[151.660002,-30.512301],"type":"Point"},"properties":{"osm_id":"5833677998","tag":{"amenity":"waste_basket"}},"type":"Feature"},
	{"geometry":{"coordinates":[151.66754,-30.512837],"type":"Point"},"properties":{"osm_id":"5837336831","tag":{"amenity":"waste_basket"}},"type":"Feature"},
	{"geometry":{"coordinates":[151.654727,-30.51677],"type":"Point"},"properties":{"osm_id":"5840872629","tag":{"amenity":"waste_basket"}},"type":"Feature"},
	{"geometry":{"coordinates":[151.651316,-30.503344],"type":"Point"},"properties":{"osm_id":"5840907462","tag":{"amenity":"waste_basket"}},"type":"Feature"},
	{"geometry":{"coordinates":[151.659487,-30.511439],"type":"Point"},"properties":{"osm_id":"5842968519","tag":{"amenity":"waste_basket"}},"type":"Feature"},
	{"geometry":{"coordinates":[151.666303,-30.509375],"type":"Point"},"properties":{"osm_id":"5850238830","tag":{"amenity":"waste_basket"}},"type":"Feature"},
	{"geometry":{"coordinates":[151.66468,-30.509214],"type":"Point"},"properties":{"osm_id":"5850291118","tag":{"amenity":"waste_basket"}},"type":"Feature"},
	{"geometry":{"coordinates":[151.660456,-30.512315],"type":"Point"},"properties":{"osm_id":"5850328045","tag":{"amenity":"waste_basket"}},"type":"Feature"},
	{"geometry":{"coordinates":[151.660622,-30.512209],"type":"Point"},"properties":{"osm_id":"5851274120","tag":{"amenity":"waste_basket"}},"type":"Feature"},
	{"geometry":{"coordinates":[151.651258,-30.503663],"type":"Point"},"properties":{"osm_id":"5858316279","tag":{"amenity":"waste_basket"}},"type":"Feature"},
	{"geometry":{"coordinates":[151.656615,-30.512275],"type":"Point"},"properties":{"osm_id":"5858399909","tag":{"amenity":"waste_basket"}},"type":"Feature"},
	{"geometry":{"coordinates":[151.66088,-30.512113],"type":"Point"},"properties":{"osm_id":"5886271134","tag":{"amenity":"waste_basket"}},"type":"Feature"},
	{"geometry":{"coordinates":[151.66656,-30.52132],"type":"Point"},"properties":{"osm_id":"5891848915","tag":{"amenity":"waste_basket"}},"type":"Feature"},
	{"geometry":{"coordinates":[151.653668,-30.519817],"type":"Point"},"properties":{"osm_id":"5895611303","tag":{"amenity":"waste_basket"}},"type":"Feature"},
	{"geometry":{"coordinates":[151.670728,-30.51151],"type":"Point"},"properties":{"osm_id":"5909273961","tag":{"amenity":"waste_basket"}},"type":"Feature"},
	{"geometry":{"coordinates":[151.665815,-30.516617],"type":"Point"},"properties":{"osm_id":"5912961974","tag":{"amenity":"waste_basket"}},"type":"Feature"},
	{"geometry":{"coordinates":[151.665415,-30.516215],"type":"Point"},"properties":{"osm_id":"5912962850","tag":{"amenity":"waste_basket"}},"type":"Feature"},
	{"geometry":{"coordinates":[151.665163,-30.515926],"type":"Point"},"properties":{"osm_id":"5912962883","tag":{"amenity":"waste_basket"}},"type":"Feature"},
	{"geometry":{"coordinates":[151.664846,-30.515513],"type":"Point"},"properties":{"osm_id":"5912964430","tag":{"amenity":"waste_basket"}},"type":"Feature"},
	{"geometry":{"coordinates":[151.657038,-30.512383],"type":"Point"},"properties":{"osm_id":"5914836981","tag":{"amenity":"waste_basket"}},"type":"Feature"},
	{"geometry":{"coordinates":[151.665162,-30.513958],"type":"Point"},"properties":{"osm_id":"5919839448","tag":{"amenity":"waste_basket"}},"type":"Feature"},
	{"geometry":{"coordinates":[151.664906,-30.514282],"type":"Point"},"properties":{"osm_id":"5919840836","tag":{"amenity":"waste_basket"}},"type":"Feature"},
	{"geometry":{"coordinates":[151.654717,-30.510975],"type":"Point"},"properties":{"osm_id":"5940080567","tag":{"amenity":"waste_basket"}},"type":"Feature"},
	{"geometry":{"coordinates":[151.654596,-30.511146],"type":"Point"},"properties":{"osm_id":"5940080965","tag":{"amenity":"waste_basket"}},"type":"Feature"},
	{"geometry":{"coordinates":[151.645635,-30.509828],"type":"Point"},"properties":{"osm_id":"5942023767","tag":{"amenity":"waste_basket","waste":"dog_excrement"}},"type":"Feature"},
	{"geometry":{"coordinates":[151.665257,-30.505074],"type":"Point"},"properties":{"osm_id":"5947323465","tag":{"amenity":"waste_basket"}},"type":"Feature"},
	{"geometry":{"coordinates":[151.66519,-30.504739],"type":"Point"},"properties":{"osm_id":"5947323469","tag":{"amenity":"waste_basket"}},"type":"Feature"},
	{"geometry":{"coordinates":[151.664938,-30.504956],"type":"Point"},"properties":{"osm_id":"5947323470","tag":{"amenity":"waste_basket"}},"type":"Feature"},
	{"geometry":{"coordinates":[151.66393,-30.511573],"type":"Point"},"properties":{"osm_id":"5947352024","tag":{"amenity":"waste_basket"}},"type":"Feature"},
	{"geometry":{"coordinates":[151.67205,-30.519734],"type":"Point"},"properties":{"osm_id":"5952815932","tag":{"amenity":"waste_basket"}},"type":"Feature"},
	{"geometry":{"coordinates":[151.672532,-30.511801],"type":"Point"},"properties":{"osm_id":"5987515804","tag":{"amenity":"waste_basket"}},"type":"Feature"},
	{"geometry":{"coordinates":[151.664589,-30.516312],"type":"Point"},"properties":{"osm_id":"5994632212","tag":{"amenity":"waste_basket"}},"type":"Feature"},
	{"geometry":{"coordinates":[151.675487,-30.509501],"type":"Point"},"properties":{"osm_id":"6003857877","tag":{"amenity":"waste_basket"}},"type":"Feature"},
	{"geometry":{"coordinates":[151.667248,-30.509853],"type":"Point"},"properties":{"osm_id":"6003889639","tag":{"amenity":"waste_basket"}},"type":"Feature"},
	{"geometry":{"coordinates":[151.667634,-30.510104],"type":"Point"},"properties":{"osm_id":"6003890590","tag":{"amenity":"waste_basket"}},"type":"Feature"},
	{"geometry":{"coordinates":[151.650805,-30.510666],"type":"Point"},"properties":{"osm_id":"6006249227","tag":{"amenity":"waste_basket"}},"type":"Feature"},
	{"geometry":{"coordinates":[151.675768,-30.50918],"type":"Point"},"properties":{"osm_id":"6009232040","tag":{"amenity":"waste_basket","waste":"dog_excrement"}},"type":"Feature"},
	{"geometry":{"coordinates":[151.674139,-30.511819],"type":"Point"},"properties":{"osm_id":"6011405566","tag":{"amenity":"waste_basket"}},"type":"Feature"},
	{"geometry":{"coordinates":[151.649388,-30.516447],"type":"Point"},"properties":{"osm_id":"6018643458","tag":{"amenity":"waste_basket"}},"type":"Feature"},
	{"geometry":{"coordinates":[151.650333,-30.522971],"type":"Point"},"properties":{"osm_id":"6018704686","tag":{"amenity":"waste_basket"}},"type":"Feature"},
	{"geometry":{"coordinates":[151.667876,-30.511156],"type":"Point"},"properties":{"osm_id":"6038083618","tag":{"amenity":"waste_basket"}},"type":"Feature"},
	{"geometry":{"coordinates":[151.665875,-30.51472],"type":"Point"},"properties":{"osm_id":"6047697784","tag":{"amenity":"waste_basket"}},"type":"Feature"},
	{"geometry":{"coordinates":[151.666397,-30.514856],"type":"Point"},"properties":{"osm_id":"6047704147","tag":{"amenity":"waste_basket"}},"type":"Feature"},
	{"geometry":{"coordinates":[151.663162,-30.519417],"type":"Point"},"properties":{"osm_id":"6047747083","tag":{"amenity":"waste_basket"}},"type":"Feature"},
	{"geometry":{"coordinates":[151.656268,-30.501829],"type":"Point"},"properties":{"osm_id":"6062357579","tag":{"amenity":"waste_basket"}},"type":"Feature"},
	{"geometry":{"coordinates":[151.671089,-30.51636],"type":"Point"},"properties":{"osm_id":"6067963685","tag":{"amenity":"waste_basket"}},"type":"Feature"},
	{"geometry":{"coordinates":[151.668389,-30.512025],"type":"Point"},"properties":{"osm_id":"6067971538","tag":{"amenity":"waste_basket"}},"type":"Feature"},
	{"geometry":{"coordinates":[151.662621,-30.513474],"type":"Point"},"properties":{"osm_id":"6141429306","tag":{"amenity":"recycling","recycling_type":"reverse_vending"}},"type":"Feature"},
	{"geometry":{"coordinates":[151.66457,-30.515768],"type":"Point"},"properties":{"osm_id":"6146999996","tag":{"amenity":"waste_basket"}},"type":"Feature"},
	{"geometry":{"coordinates":[151.656521,-30.511738],"type":"Point"},"properties":{"osm_id":"6148780319","tag":{"amenity":"waste_basket"}},"type":"Feature"},
	{"geometry":{"coordinates":[151.655441,-30.511735],"type":"Point"},"properties":{"osm_id":"6148784685","tag":{"amenity":"waste_basket"}},"type":"Feature"},
	{"geometry":{"coordinates":[151.656346,-30.512007],"type":"Point"},"properties":{"osm_id":"6149039744","tag":{"amenity":"waste_basket"}},"type":"Feature"},
	{"geometry":{"coordinates":[151.656409,-30.511466],"type":"Point"},"properties":{"osm_id":"6160306414","tag":{"amenity":"recycling","location":"overground","recycling:cans":"yes","recycling:glass_bottles":"yes","recycling:paper":"yes","recycling:plastic":"no","recycling:plastic_packaging":"yes","recycling_type":"container"}},"type":"Feature"},
	{"geometry":{"coordinates":[151.656407,-30.511491],"type":"Point"},"properties":{"osm_id":"6160306415","tag":{"amenity":"waste_basket"}},"type":"Feature"},
	{"geometry":{"coordinates":[151.665442,-30.51292],"type":"Point"},"properties":{"osm_id":"6179948885","tag":{"amenity":"waste_basket"}},"type":"Feature"},
	{"geometry":{"coordinates":[151.663624,-30.512433],"type":"Point"},"properties":{"osm_id":"6179952932","tag":{"amenity":"waste_basket"}},"type":"Feature"},
	{"geometry":{"coordinates":[151.64829,-30.521108],"type":"Point"},"properties":{"osm_id":"6183044471","tag":{"amenity":"waste_basket"}},"type":"Feature"},
	{"geometry":{"coordinates":[151.665811,-30.512162],"type":"Point"},"properties":{"osm_id":"6191905815","tag":{"amenity":"waste_basket","waste":"sharps"}},"type":"Feature"},
	{"geometry":{"coordinates":[151.665091,-30.513127],"type":"Point"},"properties":{"osm_id":"6193916214","tag":{"amenity":"waste_basket"}},"type":"Feature"},
	{"geometry":{"coordinates":[151.664206,-30.512884],"type":"Point"},"properties":{"osm_id":"6193916525","tag":{"amenity":"waste_basket"}},"type":"Feature"},
	{"geometry":{"coordinates":[151.664344,-30.51293],"type":"Point"},"properties":{"osm_id":"6193916842","tag":{"amenity":"waste_basket"}},"type":"Feature"},
	{"geometry":{"coordinates":[151.664828,-30.513055],"type":"Point"},"properties":{"osm_id":"6193917568","tag":{"amenity":"waste_basket"}},"type":"Feature"},
	{"geometry":{"coordinates":[151.66762,-30.513791],"type":"Point"},"properties":{"osm_id":"6193926907","tag":{"amenity":"waste_basket"}},"type":"Feature"},
	{"geometry":{"coordinates":[151.650437,-30.522995],"type":"Point"},"properties":{"osm_id":"6371634457","tag":{"amenity":"waste_basket"}},"type":"Feature"},
	{"geometry":{"coordinates":[151.665477,-30.513237],"type":"Point"},"properties":{"osm_id":"6444437614","tag":{"amenity":"waste_basket"}},"type":"Feature"},
	{"geometry":{"coordinates":[151.663879,-30.512783],"type":"Point"},"properties":{"osm_id":"6444441520","tag":{"amenity":"waste_basket"}},"type":"Feature"},
	{"geometry":{"coordinates":[151.658951,-30.510454],"type":"Point"},"properties":{"osm_id":"6453472396","tag":{"amenity":"waste_basket"}},"type":"Feature"},
	{"geometry":{"coordinates":[151.661945,-30.510551],"type":"Point"},"properties":{"osm_id":"6453476885","tag":{"amenity":"waste_basket"}},"type":"Feature"},
	{"geometry":{"coordinates":[151.663776,-30.512696],"type":"Point"},"properties":{"osm_id":"6453481250","tag":{"amenity":"waste_basket"}},"type":"Feature"},
	{"geometry":{"coordinates":[151.664371,-30.512874],"type":"Point"},"properties":{"osm_id":"6453483838","tag":{"amenity":"waste_basket"}},"type":"Feature"},
	{"geometry":{"coordinates":[151.665022,-30.513056],"type":"Point"},"properties":{"osm_id":"6463355922","tag":{"amenity":"waste_basket"}},"type":"Feature"},
	{"geometry":{"coordinates":[151.665236,-30.513117],"type":"Point"},"properties":{"osm_id":"6463356513","tag":{"amenity":"waste_basket"}},"type":"Feature"},
	{"geometry":{"coordinates":[151.661861,-30.51095],"type":"Point"},"properties":{"osm_id":"6474249710","tag":{"amenity":"waste_basket"}},"type":"Feature"},
	{"geometry":{"coordinates":[151.666706,-30.512809],"type":"Point"},"properties":{"osm_id":"6474274124","tag":{"amenity":"waste_basket"}},"type":"Feature"},
	{"geometry":{"coordinates":[151.666651,-30.512877],"type":"Point"},"properties":{"osm_id":"6474275886","tag":{"amenity":"waste_basket"}},"type":"Feature"},
	{"geometry":{"coordinates":[151.666201,-30.512673],"type":"Point"},"properties":{"osm_id":"6474276186","tag":{"amenity":"waste_basket"}},"type":"Feature"},
	{"geometry":{"coordinates":[151.665759,-30.512546],"type":"Point"},"properties":{"osm_id":"6474277385","tag":{"amenity":"waste_basket"}},"type":"Feature"},
	{"geometry":{"coordinates":[151.665158,-30.513903],"type":"Point"},"properties":{"osm_id":"6476860928","tag":{"amenity":"waste_basket"}},"type":"Feature"},
	{"geometry":{"coordinates":[151.665131,-30.513737],"type":"Point"},"properties":{"osm_id":"6476860936","tag":{"amenity":"waste_basket"}},"type":"Feature"},
	{"geometry":{"coordinates":[151.666283,-30.512787],"type":"Point"},"properties":{"osm_id":"6484746911","tag":{"amenity":"waste_basket"}},"type":"Feature"},
	{"geometry":{"coordinates":[151.668903,-30.511263],"type":"Point"},"properties":{"osm_id":"7010148650","tag":{"amenity":"waste_basket"}},"type":"Feature"},
	{"geometry":{"coordinates":[151.663048,-30.511016],"type":"Point"},"properties":{"osm_id":"7097805336","tag":{"amenity":"recycling","recycling_type":"reverse_vending_machine"}},"type":"Feature"},
	{"geometry":{"coordinates":[151.684962,-30.506504],"type":"Point"},"properties":{"osm_id":"7530568868","tag":{"amenity":"waste_basket"}},"type":"Feature"},
	{"geometry":{"coordinates":[151.684228,-30.506344],"type":"Point"},"properties":{"osm_id":"7530584995","tag":{"amenity":"waste_basket"}},"type":"Feature"},
	{"geometry":{"coordinates":[151.687377,-30.513476],"type":"Point"},"properties":{"osm_id":"7555384355","tag":{"amenity":"waste_basket"}},"type":"Feature"},
	{"geometry":{"coordinates":[151.687123,-30.513267],"type":"Point"},"properties":{"osm_id":"7555403740","tag":{"amenity":"waste_basket"}},"type":"Feature"},
	{"geometry":{"coordinates":[151.651189,-30.493523],"type":"Point"},"properties":{"osm_id":"7613809570","tag":{"amenity":"waste_basket"}},"type":"Feature"},
	{"geometry":{"coordinates":[151.684954,-30.510486],"type":"Point"},"properties":{"osm_id":"7633878056","tag":{"amenity":"waste_basket"}},"type":"Feature"},
	{"geometry":{"coordinates":[151.672033,-30.496892],"type":"Point"},"properties":{"osm_id":"7641718079","tag":{"amenity":"waste_basket"}},"type":"Feature"},
	{"geometry":{"coordinates":[151.674437,-30.500777],"type":"Point"},"properties":{"osm_id":"7641784604","tag":{"amenity":"waste_basket"}},"type":"Feature"}
]
}
