{
"type": "FeatureCollection",
"features": [
	{"geometry":{"coordinates":[151.687028,-30.540674],"type":"Point"},"properties":{"name":"Armidale Recycling Facility (2)","osm_id":"310896594","tag":{"amenity":"recycling","recycling:batteries":"yes","recycling:engine_oil":"yes","recycling:green_waste":"yes","recycling_type":"centre"}},"type":"Feature"},
	{"geometry":{"coordinates":[151.665304,-30.528676],"type":"Point"},"properties":{"osm_id":"5659856015","tag":{"amenity":"waste_basket","waste":"dog_excrement"}},"type":"Feature"},
	{"geometry":{"coordinates":[151.664244,-30.528668],"type":"Point"},"properties":{"osm_id":"5659856017","tag":{"amenity":"waste_basket","waste":"dog_excrement"}},"type":"Feature"},
	{"geometry":{"coordinates":[151.65898,-30.528109],"type":"Point"},"properties":{"osm_id":"6204984234","tag":{"amenity":"waste_basket"}},"type":"Feature"},
	{"geometry":{"coordinates":[151.66181,-30.527454],"type":"Point"},"properties":{"osm_id":"6204987108","tag":{"amenity":"waste_basket"}},"type":"Feature"},
	{"geometry":{"coordinates":[151.660528,-30.529012],"type":"Point"},"properties":{"osm_id":"6204990032","tag":{"amenity":"waste_basket"}},"type":"Feature"},
	{"geometry":{"coordinates":[151.661412,-30.527622],"type":"Point"},"properties":{"osm_id":"6204996447","tag":{"amenity":"waste_basket"}},"type":"Feature"},
	{"geometry":{"coordinates":[151.660917,-30.527199],"type":"Point"},"properties":{"osm_id":"6204997523","tag":{"amenity":"waste_basket"}},"type":"Feature"},
	{"geometry":{"coordinates":[151.661654,-30.52741],"type":"Point"},"properties":{"osm_id":"6204998146","tag":{"amenity":"waste_basket"}},"type":"Feature"},
	{"geometry":{"coordinates":[151.661335,-30.527318],"type":"Point"},"properties":{"osm_id":"6204999270","tag":{"amenity":"waste_basket"}},"type":"Feature"},
	{"geometry":{"coordinates":[151.661074,-30.527244],"type":"Point"},"properties":{"osm_id":"6204999271","tag":{"amenity":"waste_basket"}},"type":"Feature"},
	{"geometry":{"coordinates":[151.660676,-30.52713],"type":"Point"},"properties":{"osm_id":"6204999761","tag":{"amenity":"waste_basket"}},"type":"Feature"},
	{"geometry":{"coordinates":[151.649121,-30.526849],"type":"Point"},"properties":{"osm_id":"6371615878","tag":{"amenity":"waste_basket"}},"type":"Feature"},
	{"geometry":{"coordinates":[151.686098,-30.540129],"type":"Point"},"properties":{"osm_id":"6496716751","tag":{"amenity":"recycling","recycling_type":"reverse_vending"}},"type":"Feature"},
	{"geometry":{"coordinates":[151.646725,-30.526912],"type":"Point"},"properties":{"osm_id":"6872235169","tag":{"amenity":"waste_basket"}},"type":"Feature"},
	{"geometry":{"coordinates":[151.645817,-30.527546],"type":"Point"},"properties":{"osm_id":"6872316568","tag":{"amenity":"waste_basket"}},"type":"Feature"},
	{"geometry":{"coordinates":[151.650082,-30.52727],"type":"Point"},"properties":{"osm_id":"6872379444","tag":{"amenity":"waste_basket"}},"type":"Feature"},
	{"geometry":{"coordinates":[151.648291,-30.527529],"type":"Point"},"properties":{"osm_id":"6872431702","tag":{"amenity":"waste_basket"}},"type":"Feature"},
	{"geometry":{"coordinates":[151.664643,-30.525043],"type":"Point"},"properties":{"osm_id":"7042754451","tag":{"amenity":"waste_basket"}},"type":"Feature"},
	{"geometry":{"coordinates":[151.672952,-30.531455],"type":"Point"},"properties":{"osm_id":"7287563379","tag":{"amenity":"waste_basket"}},"type":"Feature"}
]
}
