{
"type": "FeatureCollection",
"features": [
	{"geometry":{"coordinates":[-66.142167,-17.380779],"type":"Point"},"properties":{"osm_id":"1796486871","tag":{"addr:city":"Cochabamba","addr:street":"Avenida Rub\u00c3\u00a9n Dario","amenity":"recycling","recycling:cans":"yes","recycling:glass":"yes","recycling:paper":"yes","recycling_type":"centre"}},"type":"Feature"},
	{"geometry":{"coordinates":[-66.149982,-17.392028],"type":"Point"},"properties":{"osm_id":"1851061929","tag":{"amenity":"waste_disposal","operator":"EMSA","waste":"trash"}},"type":"Feature"},
	{"geometry":{"coordinates":[-66.1509,-17.392173],"type":"Point"},"properties":{"osm_id":"1851061964","tag":{"amenity":"waste_disposal","operator":"EMSA","waste":"trash"}},"type":"Feature"},
	{"geometry":{"coordinates":[-66.152494,-17.391345],"type":"Point"},"properties":{"osm_id":"2289661572","tag":{"amenity":"waste_basket","operator":"EMSA","waste":"trash;plastic;organic"}},"type":"Feature"},
	{"geometry":{"coordinates":[-66.15219,-17.391505],"type":"Point"},"properties":{"osm_id":"2289661583","tag":{"amenity":"waste_basket","operator":"EMSA","waste":"trash;plastic;organic"}},"type":"Feature"},
	{"geometry":{"coordinates":[-66.150451,-17.392067],"type":"Point"},"properties":{"osm_id":"2296982179","tag":{"amenity":"waste_basket","operator":"EMSA","waste":"trash;plastic;organic"}},"type":"Feature"},
	{"geometry":{"coordinates":[-66.156964,-17.373233],"type":"Point"},"properties":{"osm_id":"2380942938","tag":{"amenity":"waste_basket","operator":"EMSA","waste":"trash;plastic;organic"}},"type":"Feature"},
	{"geometry":{"coordinates":[-66.142353,-17.371804],"type":"Point"},"properties":{"osm_id":"2389107100","tag":{"amenity":"waste_basket","operator":"INFOCAL","waste":"trash;plastic;organic"}},"type":"Feature"},
	{"geometry":{"coordinates":[-66.146453,-17.384259],"type":"Point"},"properties":{"osm_id":"2391341808","tag":{"amenity":"waste_basket","operator":"EMSA","waste":"trash;plastic;organic"}},"type":"Feature"},
	{"geometry":{"coordinates":[-66.141987,-17.371631],"type":"Point"},"properties":{"osm_id":"2428750560","tag":{"amenity":"waste_basket","operator":"INFOCAL","waste":"trash;plastic;organic"}},"type":"Feature"},
	{"geometry":{"coordinates":[-66.142094,-17.371799],"type":"Point"},"properties":{"osm_id":"2428750561","tag":{"amenity":"waste_basket","operator":"INFOCAL","waste":"trash;plastic;organic"}},"type":"Feature"},
	{"geometry":{"coordinates":[-66.152244,-17.378511],"type":"Point"},"properties":{"osm_id":"2428750563","tag":{"amenity":"waste_basket","operator":"EMSA","waste":"trash;plastic;organic"}},"type":"Feature"},
	{"geometry":{"coordinates":[-66.1451,-17.392268],"type":"Point"},"properties":{"osm_id":"2433240291","tag":{"amenity":"waste_basket","operator":"EMSA","waste":"trash;plastic;organic"}},"type":"Feature"},
	{"geometry":{"coordinates":[-66.151899,-17.378211],"type":"Point"},"properties":{"osm_id":"2441014222","tag":{"amenity":"waste_basket","operator":"EMSA","waste":"trash;plastic;organic"}},"type":"Feature"},
	{"geometry":{"coordinates":[-66.153239,-17.384291],"type":"Point"},"properties":{"osm_id":"2466178446","tag":{"amenity":"waste_basket","operator":"EMSA","waste":"trash;plastic;organic"}},"type":"Feature"},
	{"geometry":{"coordinates":[-66.151319,-17.380201],"type":"Point"},"properties":{"osm_id":"2482023838","tag":{"amenity":"waste_basket","operator":"Cine Center","waste":"trash"}},"type":"Feature"},
	{"geometry":{"coordinates":[-66.151322,-17.380264],"type":"Point"},"properties":{"osm_id":"2482023844","tag":{"amenity":"waste_basket","operator":"Cine Center","waste":"trash"}},"type":"Feature"},
	{"geometry":{"coordinates":[-66.147498,-17.385779],"type":"Point"},"properties":{"osm_id":"2534660755","tag":{"amenity":"waste_basket","operator":"EMSA","waste":"trash;plastic;organic"}},"type":"Feature"},
	{"geometry":{"coordinates":[-66.151375,-17.391118],"type":"Point"},"properties":{"osm_id":"2866811494","tag":{"addr:city":"Cochabamba","addr:housenumber":"799","addr:street":"Avenida Hero\u00c3\u00adnas","amenity":"waste_basket","operator":"EMSA","waste":"trash;plastic;organic"}},"type":"Feature"},
	{"geometry":{"coordinates":[-66.137109,-17.377667],"type":"Point"},"properties":{"name":"Irl\u00c3\u00a1nd\u00c3\u00a9s","osm_id":"3264534846","place":"neighbourhood","tag":{"amenity":"waste_disposal","operator":"EMSA","recycling_type":"container","waste":"glass"}},"type":"Feature"},
	{"geometry":{"coordinates":[-66.153918,-17.385535],"type":"Point"},"properties":{"osm_id":"3306972618","tag":{"amenity":"waste_basket","operator":"EMSA","waste":"trash;plastic;organic"}},"type":"Feature"},
	{"geometry":{"coordinates":[-66.137137,-17.377659],"type":"Point"},"properties":{"osm_id":"3360791848","tag":{"amenity":"waste_disposal","operator":"EMSA","waste":"plastic"}},"type":"Feature"},
	{"geometry":{"coordinates":[-66.1526,-17.378338],"type":"Point"},"properties":{"osm_id":"3552802055","tag":{"amenity":"waste_basket","operator":"EMSA","waste":"trash;plastic;organic"}},"type":"Feature"},
	{"geometry":{"coordinates":[-66.162164,-17.374834],"type":"Point"},"properties":{"name":"Centro de Acopio Copelme","osm_id":"3724109218","tag":{"addr:street":"Avenida Libertador Bolivar","amenity":"recycling","phone":"+591 44794132; +591 79335960","recycling:cardboard":"yes","recycling:paper":"yes","recycling_type":"centre"}},"type":"Feature"},
	{"geometry":{"coordinates":[-66.153853,-17.389697],"type":"Point"},"properties":{"osm_id":"3891255772","tag":{"amenity":"waste_disposal","operator":"EMSA","waste":"trash"}},"type":"Feature"},
	{"geometry":{"coordinates":[-66.156762,-17.374611],"type":"Point"},"properties":{"osm_id":"3933396800","tag":{"amenity":"waste_basket","operator":"Portales","waste":"trash"}},"type":"Feature"},
	{"geometry":{"coordinates":[-66.156772,-17.374696],"type":"Point"},"properties":{"osm_id":"3933396806","tag":{"amenity":"waste_basket","operator":"Portales","waste":"trash"}},"type":"Feature"},
	{"geometry":{"coordinates":[-66.156773,-17.374778],"type":"Point"},"properties":{"osm_id":"3933396810","tag":{"amenity":"waste_basket","operator":"Portales","waste":"trash"}},"type":"Feature"},
	{"geometry":{"coordinates":[-66.156772,-17.374849],"type":"Point"},"properties":{"osm_id":"3933396813","tag":{"amenity":"waste_basket","operator":"Portales","waste":"trash"}},"type":"Feature"},
	{"geometry":{"coordinates":[-66.156912,-17.376833],"type":"Point"},"properties":{"osm_id":"3933396849","tag":{"amenity":"waste_basket","operator":"Globos","waste":"trash"}},"type":"Feature"},
	{"geometry":{"coordinates":[-66.156936,-17.377349],"type":"Point"},"properties":{"osm_id":"3933397672","tag":{"amenity":"waste_basket","operator":"EMSA","waste":"trash;plastic;organic"}},"type":"Feature"},
	{"geometry":{"coordinates":[-66.146471,-17.388083],"type":"Point"},"properties":{"osm_id":"3950325223","tag":{"amenity":"waste_basket","operator":"EMSA","waste":"trash;plastic;organic"}},"type":"Feature"},
	{"geometry":{"coordinates":[-66.152147,-17.386337],"type":"Point"},"properties":{"osm_id":"3952902681","tag":{"amenity":"waste_disposal","operator":"EMSA","waste":"trash"}},"type":"Feature"},
	{"geometry":{"coordinates":[-66.152141,-17.386353],"type":"Point"},"properties":{"osm_id":"3952902682","tag":{"amenity":"waste_disposal","operator":"EMSA","waste":"trash"}},"type":"Feature"},
	{"geometry":{"coordinates":[-66.151885,-17.387818],"type":"Point"},"properties":{"osm_id":"3952902707","tag":{"amenity":"waste_disposal","operator":"EMSA","waste":"trash"}},"type":"Feature"},
	{"geometry":{"coordinates":[-66.151758,-17.389007],"type":"Point"},"properties":{"osm_id":"3952902749","tag":{"amenity":"waste_basket","operator":"EMSA","waste":"trash;plastic;organic"}},"type":"Feature"},
	{"geometry":{"coordinates":[-66.157432,-17.382976],"type":"Point"},"properties":{"osm_id":"4006181216","tag":{"amenity":"waste_disposal","operator":"EMSA","waste":"trash"}},"type":"Feature"},
	{"geometry":{"coordinates":[-66.152912,-17.384275],"type":"Point"},"properties":{"osm_id":"4006181256","tag":{"amenity":"waste_basket","operator":"EMSA","waste":"trash;plastic;organic"}},"type":"Feature"},
	{"geometry":{"coordinates":[-66.154855,-17.389687],"type":"Point"},"properties":{"osm_id":"4094858974","tag":{"amenity":"waste_basket","operator":"EMSA","waste":"organic;plastic;trash"}},"type":"Feature"},
	{"geometry":{"coordinates":[-66.155069,-17.389647],"type":"Point"},"properties":{"osm_id":"4094858985","tag":{"amenity":"waste_basket","operator":"EMSA","waste":"organic;plastic;trash"}},"type":"Feature"},
	{"geometry":{"coordinates":[-66.155746,-17.38977],"type":"Point"},"properties":{"osm_id":"4094858988","tag":{"amenity":"waste_disposal","operator":"EMSA","waste":"trash"}},"type":"Feature"},
	{"geometry":{"coordinates":[-66.155726,-17.389767],"type":"Point"},"properties":{"osm_id":"4094860489","tag":{"amenity":"waste_disposal","operator":"EMSA","waste":"trash"}},"type":"Feature"},
	{"geometry":{"coordinates":[-66.155887,-17.389868],"type":"Point"},"properties":{"osm_id":"4094860494","tag":{"amenity":"waste_basket","operator":"EMSA","waste":"organic;plastic;trash"}},"type":"Feature"},
	{"geometry":{"coordinates":[-66.151158,-17.382494],"type":"Point"},"properties":{"osm_id":"4098839384","tag":{"amenity":"waste_basket","operator":"EMSA","waste_basket":"organic;plastic;trash"}},"type":"Feature"},
	{"geometry":{"coordinates":[-66.155366,-17.381566],"type":"Point"},"properties":{"osm_id":"4113183443","tag":{"amenity":"waste_disposal","operator":"EMSA","waste":"trash"}},"type":"Feature"},
	{"geometry":{"coordinates":[-66.151609,-17.390043],"type":"Point"},"properties":{"osm_id":"4236229102","tag":{"amenity":"waste_basket","operator":"EMSA"}},"type":"Feature"},
	{"geometry":{"coordinates":[-66.151352,-17.389931],"type":"Point"},"properties":{"osm_id":"4236229105","tag":{"amenity":"waste_basket","operator":"EMSA"}},"type":"Feature"},
	{"geometry":{"coordinates":[-66.153407,-17.388205],"type":"Point"},"properties":{"osm_id":"4243767813","tag":{"addr:street":"Calle Venezuela","amenity":"recycling"}},"type":"Feature"},
	{"geometry":{"coordinates":[-66.159295,-17.389358],"type":"Point"},"properties":{"osm_id":"4259603867","tag":{"amenity":"waste_basket"}},"type":"Feature"},
	{"geometry":{"coordinates":[-66.177231,-17.364982],"type":"Point"},"properties":{"osm_id":"4259605166","tag":{"amenity":"recycling","recycling:plastic_bottles":"yes","recycling_type":"centre"}},"type":"Feature"},
	{"geometry":{"coordinates":[-66.174853,-17.365728],"type":"Point"},"properties":{"osm_id":"4259605167","tag":{"amenity":"recycling","recycling:bottles":"yes"}},"type":"Feature"},
	{"geometry":{"coordinates":[-66.159447,-17.389076],"type":"Point"},"properties":{"osm_id":"4259605171","tag":{"amenity":"waste_disposal"}},"type":"Feature"},
	{"geometry":{"coordinates":[-66.139771,-17.335069],"type":"Point"},"properties":{"osm_id":"4312166628","tag":{"amenity":"waste_basket"}},"type":"Feature"},
	{"geometry":{"coordinates":[-66.156984,-17.381707],"type":"Point"},"properties":{"osm_id":"4437942799","tag":{"amenity":"waste_basket"}},"type":"Feature"},
	{"geometry":{"coordinates":[-66.172026,-17.365967],"type":"Point"},"properties":{"osm_id":"4455975434","tag":{"amenity":"recycling"}},"type":"Feature"},
	{"geometry":{"coordinates":[-66.153241,-17.386902],"type":"Point"},"properties":{"osm_id":"4469540627","tag":{"amenity":"waste_disposal"}},"type":"Feature"},
	{"geometry":{"coordinates":[-66.152721,-17.389226],"type":"Point"},"properties":{"osm_id":"4469545815","tag":{"amenity":"waste_disposal"}},"type":"Feature"},
	{"geometry":{"coordinates":[-66.158572,-17.38824],"type":"Point"},"properties":{"osm_id":"4491060175","tag":{"amenity":"waste_disposal"}},"type":"Feature"},
	{"geometry":{"coordinates":[-66.154766,-17.38134],"type":"Point"},"properties":{"osm_id":"4580480227","tag":{"amenity":"waste_basket"}},"type":"Feature"},
	{"geometry":{"coordinates":[-66.151785,-17.382569],"type":"Point"},"properties":{"osm_id":"4582125265","tag":{"amenity":"waste_basket"}},"type":"Feature"},
	{"geometry":{"coordinates":[-66.160817,-17.379176],"type":"Point"},"properties":{"osm_id":"4635262526","tag":{"amenity":"waste_basket"}},"type":"Feature"},
	{"geometry":{"coordinates":[-66.156197,-17.392282],"type":"Point"},"properties":{"osm_id":"4688076801","tag":{"amenity":"waste_basket"}},"type":"Feature"},
	{"geometry":{"coordinates":[-66.15967,-17.382323],"type":"Point"},"properties":{"osm_id":"4689733879","tag":{"amenity":"waste_basket"}},"type":"Feature"},
	{"geometry":{"coordinates":[-66.159795,-17.382384],"type":"Point"},"properties":{"osm_id":"4689734095","tag":{"amenity":"waste_basket"}},"type":"Feature"},
	{"geometry":{"coordinates":[-66.160442,-17.383903],"type":"Point"},"properties":{"osm_id":"4689734100","tag":{"amenity":"waste_disposal"}},"type":"Feature"},
	{"geometry":{"coordinates":[-66.152992,-17.384421],"type":"Point"},"properties":{"osm_id":"4715843294","tag":{"amenity":"waste_basket","operator":"EMSA","waste":"trash;plastic;organic"}},"type":"Feature"},
	{"geometry":{"coordinates":[-66.153251,-17.384693],"type":"Point"},"properties":{"osm_id":"4715843311","tag":{"amenity":"waste_basket","operator":"EMSA","waste":"trash;plastic;organic"}},"type":"Feature"},
	{"geometry":{"coordinates":[-66.153444,-17.384796],"type":"Point"},"properties":{"osm_id":"4715843312","tag":{"amenity":"waste_basket","operator":"EMSA","waste":"trash;plastic;organic"}},"type":"Feature"},
	{"geometry":{"coordinates":[-66.153678,-17.384932],"type":"Point"},"properties":{"osm_id":"4715843313","tag":{"amenity":"waste_basket","operator":"EMSA","waste":"trash;plastic;organic"}},"type":"Feature"},
	{"geometry":{"coordinates":[-66.161083,-17.378279],"type":"Point"},"properties":{"osm_id":"4768572406","tag":{"amenity":"waste_basket"}},"type":"Feature"},
	{"geometry":{"coordinates":[-66.152953,-17.388244],"type":"Point"},"properties":{"osm_id":"4787416650","tag":{"amenity":"waste_disposal"}},"type":"Feature"},
	{"geometry":{"coordinates":[-66.154209,-17.387244],"type":"Point"},"properties":{"osm_id":"4789262313","tag":{"amenity":"waste_basket"}},"type":"Feature"},
	{"geometry":{"coordinates":[-66.154403,-17.387201],"type":"Point"},"properties":{"osm_id":"4789262944","tag":{"amenity":"waste_disposal"}},"type":"Feature"},
	{"geometry":{"coordinates":[-66.147654,-17.392538],"type":"Point"},"properties":{"osm_id":"4790875540","tag":{"amenity":"waste_basket"}},"type":"Feature"},
	{"geometry":{"coordinates":[-66.154779,-17.386517],"type":"Point"},"properties":{"osm_id":"4790875681","tag":{"amenity":"waste_disposal"}},"type":"Feature"},
	{"geometry":{"coordinates":[-66.150905,-17.392237],"type":"Point"},"properties":{"osm_id":"4857919582","tag":{"amenity":"waste_disposal"}},"type":"Feature"},
	{"geometry":{"coordinates":[-66.158045,-17.384807],"type":"Point"},"properties":{"osm_id":"4857919724","tag":{"amenity":"waste_basket"}},"type":"Feature"},
	{"geometry":{"coordinates":[-66.156645,-17.38137],"type":"Point"},"properties":{"osm_id":"4871195538","tag":{"amenity":"waste_basket"}},"type":"Feature"},
	{"geometry":{"coordinates":[-66.153524,-17.391532],"type":"Point"},"properties":{"osm_id":"4981436273","tag":{"amenity":"waste_disposal"}},"type":"Feature"},
	{"geometry":{"coordinates":[-66.161494,-17.381654],"type":"Point"},"properties":{"name":"Punto Verde M\u00c3\u00b3vil","osm_id":"4995779942","tag":{"amenity":"waste_disposal","operator":"EMAVRA"}},"type":"Feature"},
	{"geometry":{"coordinates":[-66.161428,-17.381621],"type":"Point"},"properties":{"name":"Punto Verde M\u00c3\u00b3vil","osm_id":"4995781924","tag":{"amenity":"waste_disposal","operator":"EMAVRA"}},"type":"Feature"},
	{"geometry":{"coordinates":[-66.106037,-17.384863],"type":"Point"},"properties":{"name":"Recuperadora de Metales Bolivia","osm_id":"5030083917","tag":{"addr:street":"Avenida Eliodoro Villaz\u00c3\u00b3n","amenity":"recycling","contact:email":"contacto@recumetbolivia.com","contact:website":"http://recumetbolivia.com/","office":"company","operator":"Recuperadora de Metales Bolivia SRL","recycling:metal":"yes","recycling_type":"centre","short_name":"RECUMET Bolivia"}},"type":"Feature"},
	{"geometry":{"coordinates":[-66.151972,-17.371243],"type":"Point"},"properties":{"osm_id":"5090924107","tag":{"amenity":"waste_basket"}},"type":"Feature"},
	{"geometry":{"coordinates":[-66.158777,-17.38703],"type":"Point"},"properties":{"osm_id":"5102215831","tag":{"amenity":"waste_disposal"}},"type":"Feature"},
	{"geometry":{"coordinates":[-66.175163,-17.381583],"type":"Point"},"properties":{"name":"Zona Reciclaje","osm_id":"5104336829","tag":{"amenity":"recycling"}},"type":"Feature"},
	{"geometry":{"coordinates":[-66.152591,-17.383525],"type":"Point"},"properties":{"osm_id":"5118692860","tag":{"amenity":"waste_basket","operator":"EMSA","waste":"trash;plastic;organic"}},"type":"Feature"},
	{"geometry":{"coordinates":[-66.156681,-17.381859],"type":"Point"},"properties":{"osm_id":"5319274249","tag":{"amenity":"waste_disposal"}},"type":"Feature"},
	{"geometry":{"coordinates":[-66.157937,-17.385569],"type":"Point"},"properties":{"osm_id":"5319274250","tag":{"amenity":"waste_disposal"}},"type":"Feature"},
	{"geometry":{"coordinates":[-66.154453,-17.391662],"type":"Point"},"properties":{"osm_id":"5472737523","tag":{"amenity":"waste_disposal"}},"type":"Feature"},
	{"geometry":{"coordinates":[-66.167004,-17.385866],"type":"Point"},"properties":{"osm_id":"5521141387","tag":{"amenity":"recycling","recycling_type":"centre"}},"type":"Feature"},
	{"geometry":{"coordinates":[-66.097199,-17.386153],"type":"Point"},"properties":{"osm_id":"5648619280","tag":{"amenity":"recycling"}},"type":"Feature"},
	{"geometry":{"coordinates":[-66.141677,-17.388558],"type":"Point"},"properties":{"osm_id":"6178830774","tag":{"amenity":"waste_basket"}},"type":"Feature"},
	{"geometry":{"coordinates":[-66.141801,-17.388508],"type":"Point"},"properties":{"osm_id":"6178830775","tag":{"amenity":"waste_basket"}},"type":"Feature"},
	{"geometry":{"coordinates":[-66.141711,-17.388631],"type":"Point"},"properties":{"osm_id":"6178830780","tag":{"amenity":"waste_basket"}},"type":"Feature"},
	{"geometry":{"coordinates":[-66.145813,-17.388641],"type":"Point"},"properties":{"osm_id":"6179473224","tag":{"amenity":"waste_basket"}},"type":"Feature"},
	{"geometry":{"coordinates":[-66.155693,-17.381245],"type":"Point"},"properties":{"osm_id":"6199916345","tag":{"amenity":"waste_basket"}},"type":"Feature"},
	{"geometry":{"coordinates":[-66.155992,-17.381295],"type":"Point"},"properties":{"osm_id":"6199916348","tag":{"amenity":"waste_basket"}},"type":"Feature"},
	{"geometry":{"coordinates":[-66.156188,-17.381382],"type":"Point"},"properties":{"osm_id":"6199916351","tag":{"amenity":"waste_basket"}},"type":"Feature"},
	{"geometry":{"coordinates":[-66.156397,-17.381468],"type":"Point"},"properties":{"osm_id":"6199916352","tag":{"amenity":"waste_basket"}},"type":"Feature"},
	{"geometry":{"coordinates":[-66.152075,-17.392238],"type":"Point"},"properties":{"osm_id":"6269044126","tag":{"amenity":"recycling","recycling:books":"yes","recycling:cartons":"yes","recycling:glass_bottles":"yes"}},"type":"Feature"},
	{"geometry":{"coordinates":[-66.16152,-17.38167],"type":"Point"},"properties":{"name":"Punto Verde M\u00c3\u00b3vil","osm_id":"6378921376","tag":{"amenity":"waste_disposal","operator":"EMAVRA"}},"type":"Feature"},
	{"geometry":{"coordinates":[-66.161548,-17.381683],"type":"Point"},"properties":{"name":"Punto Verde M\u00c3\u00b3vil","osm_id":"6378921377","tag":{"amenity":"waste_disposal","operator":"EMAVRA"}},"type":"Feature"},
	{"geometry":{"coordinates":[-66.161576,-17.381693],"type":"Point"},"properties":{"name":"Punto Verde M\u00c3\u00b3vil","osm_id":"6378921378","tag":{"amenity":"waste_disposal","operator":"EMAVRA"}},"type":"Feature"},
	{"geometry":{"coordinates":[-66.16163,-17.381711],"type":"Point"},"properties":{"osm_id":"7077657985","tag":{"amenity":"waste_disposal","operator":"Contenedores basura"}},"type":"Feature"},
	{"geometry":{"coordinates":[-66.161589,-17.381685],"type":"Point"},"properties":{"osm_id":"7212008185","tag":{"amenity":"waste_disposal","operator":"Contenedor Basura"}},"type":"Feature"}
]
}
