{
"type": "FeatureCollection",
"features": [
	{"geometry":{"coordinates":[-66.148457,-17.392865],"type":"Point"},"properties":{"osm_id":"2296580947","tag":{"amenity":"waste_basket","operator":"EMSA","waste":"trash;plastic;organic"}},"type":"Feature"},
	{"geometry":{"coordinates":[-66.147944,-17.392778],"type":"Point"},"properties":{"osm_id":"2331302305","tag":{"amenity":"waste_basket","operator":"EMSA","waste":"trash;plastic;organic"}},"type":"Feature"},
	{"geometry":{"coordinates":[-66.149415,-17.392982],"type":"Point"},"properties":{"osm_id":"2331302318","tag":{"amenity":"waste_basket","operator":"EMSA","waste":"trash;plastic;organic"}},"type":"Feature"},
	{"geometry":{"coordinates":[-66.16283,-17.397348],"type":"Point"},"properties":{"osm_id":"2336818856","tag":{"amenity":"waste_basket","operator":"EMSA","waste":"trash"}},"type":"Feature"},
	{"geometry":{"coordinates":[-66.162396,-17.397357],"type":"Point"},"properties":{"osm_id":"2336818857","tag":{"amenity":"waste_basket","operator":"EMSA","waste":"trash;plastic;organic"}},"type":"Feature"},
	{"geometry":{"coordinates":[-66.146894,-17.392582],"type":"Point"},"properties":{"osm_id":"2433240299","tag":{"amenity":"waste_basket","operator":"EMSA","waste":"trash;plastic;organic"}},"type":"Feature"},
	{"geometry":{"coordinates":[-66.16435,-17.410472],"type":"Point"},"properties":{"osm_id":"2604131489","tag":{"amenity":"waste_basket","operator":"EMSA","waste":"trash;plastic;organic"}},"type":"Feature"},
	{"geometry":{"coordinates":[-66.164309,-17.410658],"type":"Point"},"properties":{"osm_id":"2604131515","tag":{"amenity":"waste_basket","operator":"EMSA","waste":"trash;plastic;organic"}},"type":"Feature"},
	{"geometry":{"coordinates":[-66.1779,-17.412058],"type":"Point"},"properties":{"osm_id":"2604131665","tag":{"amenity":"waste_basket","waste":"trash"}},"type":"Feature"},
	{"geometry":{"coordinates":[-66.178274,-17.412105],"type":"Point"},"properties":{"osm_id":"2604131673","tag":{"amenity":"waste_basket","operator":"EMSA","waste":"trash"}},"type":"Feature"},
	{"geometry":{"coordinates":[-66.17913,-17.414274],"type":"Point"},"properties":{"osm_id":"2604131865","tag":{"amenity":"waste_basket","level":"1","waste":"trash"}},"type":"Feature"},
	{"geometry":{"coordinates":[-66.178721,-17.414343],"type":"Point"},"properties":{"osm_id":"2604131889","tag":{"amenity":"waste_basket","waste":"trash"}},"type":"Feature"},
	{"geometry":{"coordinates":[-66.17891,-17.414538],"type":"Point"},"properties":{"osm_id":"2604131913","tag":{"amenity":"waste_basket","level":"2","waste":"trash"}},"type":"Feature"},
	{"geometry":{"coordinates":[-66.165435,-17.400113],"type":"Point"},"properties":{"osm_id":"2620175448","tag":{"amenity":"waste_basket","operator":"mARTadero","waste":"trash"}},"type":"Feature"},
	{"geometry":{"coordinates":[-66.165452,-17.400116],"type":"Point"},"properties":{"osm_id":"2684641207","tag":{"amenity":"waste_basket","operator":"mARTadero","waste":"trash"}},"type":"Feature"},
	{"geometry":{"coordinates":[-66.148743,-17.398031],"type":"Point"},"properties":{"osm_id":"4044430340","tag":{"addr:city":"Cochabamba","addr:street":"Avenida Oquendo","amenity":"recycling","recycling:glass":"yes","recycling:paper":"yes","recycling:plastic":"yes","recycling_type":"centre"}},"type":"Feature"},
	{"geometry":{"coordinates":[-66.157493,-17.396572],"type":"Point"},"properties":{"osm_id":"4051759815","tag":{"amenity":"waste_basket","operator":"EMSA","waste":"trash;plastic;organic"}},"type":"Feature"},
	{"geometry":{"coordinates":[-66.158193,-17.395539],"type":"Point"},"properties":{"osm_id":"4072794218","tag":{"amenity":"waste_basket","operator":"EMSA","waste":"trash;plastic;organic"}},"type":"Feature"},
	{"geometry":{"coordinates":[-66.154448,-17.392756],"type":"Point"},"properties":{"osm_id":"4077698342","tag":{"amenity":"waste_basket","operator":"EMSA","waste":"trash;plastic;organic"}},"type":"Feature"},
	{"geometry":{"coordinates":[-66.1544,-17.392882],"type":"Point"},"properties":{"osm_id":"4077698347","tag":{"amenity":"waste_basket","operator":"EMSA","waste":"trash;plastic;organic"}},"type":"Feature"},
	{"geometry":{"coordinates":[-66.155418,-17.392909],"type":"Point"},"properties":{"osm_id":"4077698348","tag":{"amenity":"waste_basket","operator":"EMSA","waste":"trash;plastic;organic"}},"type":"Feature"},
	{"geometry":{"coordinates":[-66.155319,-17.392983],"type":"Point"},"properties":{"osm_id":"4077698349","tag":{"amenity":"waste_basket","operator":"EMSA","waste":"trash;plastic;organic"}},"type":"Feature"},
	{"geometry":{"coordinates":[-66.148715,-17.393335],"type":"Point"},"properties":{"osm_id":"4198903012","tag":{"amenity":"waste_basket"}},"type":"Feature"},
	{"geometry":{"coordinates":[-66.148704,-17.393352],"type":"Point"},"properties":{"osm_id":"4198903013","tag":{"amenity":"waste_basket"}},"type":"Feature"},
	{"geometry":{"coordinates":[-66.15959,-17.409296],"type":"Point"},"properties":{"osm_id":"4477790432","tag":{"amenity":"waste_basket","operator":"EMSA"}},"type":"Feature"},
	{"geometry":{"coordinates":[-66.159596,-17.409343],"type":"Point"},"properties":{"osm_id":"4477790503","tag":{"amenity":"waste_basket","operator":"EMSA"}},"type":"Feature"},
	{"geometry":{"coordinates":[-66.142347,-17.410351],"type":"Point"},"properties":{"osm_id":"5225098870","tag":{"amenity":"waste_basket"}},"type":"Feature"},
	{"geometry":{"coordinates":[-66.142802,-17.408976],"type":"Point"},"properties":{"osm_id":"5225098871","tag":{"amenity":"waste_basket"}},"type":"Feature"},
	{"geometry":{"coordinates":[-66.136112,-17.41792],"type":"Point"},"properties":{"osm_id":"5225108004","tag":{"amenity":"waste_basket"}},"type":"Feature"},
	{"geometry":{"coordinates":[-66.146463,-17.403502],"type":"Point"},"properties":{"osm_id":"5225108012","tag":{"amenity":"waste_basket"}},"type":"Feature"},
	{"geometry":{"coordinates":[-66.14187,-17.414654],"type":"Point"},"properties":{"osm_id":"5225109838","tag":{"amenity":"waste_basket"}},"type":"Feature"},
	{"geometry":{"coordinates":[-66.146407,-17.403516],"type":"Point"},"properties":{"osm_id":"5225109871","tag":{"amenity":"waste_basket"}},"type":"Feature"},
	{"geometry":{"coordinates":[-66.138901,-17.399969],"type":"Point"},"properties":{"osm_id":"5225109876","tag":{"amenity":"waste_basket"}},"type":"Feature"},
	{"geometry":{"coordinates":[-66.1359,-17.418082],"type":"Point"},"properties":{"osm_id":"5225112399","tag":{"amenity":"waste_basket"}},"type":"Feature"},
	{"geometry":{"coordinates":[-66.135654,-17.418516],"type":"Point"},"properties":{"osm_id":"5225112601","tag":{"amenity":"waste_basket"}},"type":"Feature"},
	{"geometry":{"coordinates":[-66.139757,-17.416301],"type":"Point"},"properties":{"osm_id":"5225112603","tag":{"amenity":"waste_basket"}},"type":"Feature"},
	{"geometry":{"coordinates":[-66.142173,-17.412601],"type":"Point"},"properties":{"osm_id":"5225112605","tag":{"amenity":"waste_basket"}},"type":"Feature"},
	{"geometry":{"coordinates":[-66.142839,-17.400812],"type":"Point"},"properties":{"osm_id":"5225112614","tag":{"amenity":"waste_basket"}},"type":"Feature"},
	{"geometry":{"coordinates":[-66.145919,-17.401356],"type":"Point"},"properties":{"osm_id":"5225112992","tag":{"amenity":"waste_basket"}},"type":"Feature"},
	{"geometry":{"coordinates":[-66.144815,-17.405896],"type":"Point"},"properties":{"osm_id":"5227503391","tag":{"amenity":"waste_basket"}},"type":"Feature"},
	{"geometry":{"coordinates":[-66.158078,-17.399177],"type":"Point"},"properties":{"osm_id":"5237955690","tag":{"amenity":"recycling"}},"type":"Feature"},
	{"geometry":{"coordinates":[-66.147181,-17.393766],"type":"Point"},"properties":{"osm_id":"5421411655","tag":{"amenity":"waste_basket"}},"type":"Feature"},
	{"geometry":{"coordinates":[-66.1486,-17.393978],"type":"Point"},"properties":{"osm_id":"5421411657","tag":{"amenity":"waste_basket"}},"type":"Feature"},
	{"geometry":{"coordinates":[-66.147048,-17.393607],"type":"Point"},"properties":{"osm_id":"5421413352","tag":{"amenity":"waste_basket"}},"type":"Feature"},
	{"geometry":{"coordinates":[-66.147367,-17.393785],"type":"Point"},"properties":{"osm_id":"5421413353","tag":{"amenity":"waste_basket"}},"type":"Feature"},
	{"geometry":{"coordinates":[-66.148076,-17.393716],"type":"Point"},"properties":{"osm_id":"5421413354","tag":{"amenity":"waste_basket"}},"type":"Feature"},
	{"geometry":{"coordinates":[-66.147554,-17.393649],"type":"Point"},"properties":{"osm_id":"5421413512","tag":{"amenity":"waste_basket"}},"type":"Feature"},
	{"geometry":{"coordinates":[-66.148191,-17.39397],"type":"Point"},"properties":{"osm_id":"5421413513","tag":{"amenity":"waste_basket"}},"type":"Feature"},
	{"geometry":{"coordinates":[-66.145678,-17.393344],"type":"Point"},"properties":{"osm_id":"6299490180","tag":{"amenity":"waste_basket"}},"type":"Feature"},
	{"geometry":{"coordinates":[-66.145053,-17.393301],"type":"Point"},"properties":{"osm_id":"6299490181","tag":{"amenity":"waste_basket"}},"type":"Feature"},
	{"geometry":{"coordinates":[-66.145036,-17.393415],"type":"Point"},"properties":{"osm_id":"6299490390","tag":{"amenity":"waste_basket"}},"type":"Feature"},
	{"geometry":{"coordinates":[-66.146648,-17.393553],"type":"Point"},"properties":{"osm_id":"6299491686","tag":{"amenity":"waste_basket"}},"type":"Feature"},
	{"geometry":{"coordinates":[-66.147824,-17.398101],"type":"Point"},"properties":{"name":"Centro de acopio","osm_id":"6497827932","tag":{"amenity":"recycling","recycling":"paper;glass;alumn;bottles;books;cartoon"}},"type":"Feature"}
]
}
