{
"type": "FeatureCollection",
"features": [
	{"geometry":{"coordinates":[139.538374,35.509778],"type":"Point"},"properties":{"osm_id":"4045376443","tag":{"amenity":"recycling","note:ja":"\u81ea\u52d5\u8ca9\u58f2\u6a5f\u306b\u4f75\u8a2d\u3055\u308c\u305f\u56de\u53ce\u7bb1\u3002\u7a7a\u304d\u7f36\u7528\u304c1\u3064\u3001\u30da\u30c3\u30c8\u30dc\u30c8\u30eb\u7528\u304c1\u3064\u3001\u5408\u8a082\u3064\u306e\u56de\u53ce\u7bb1\u304c\u3042\u308a\u307e\u3059\u3002","recycling:cans":"yes","recycling:plastic_bottles":"yes","recycling_type":"container"}},"type":"Feature"},
	{"geometry":{"coordinates":[139.525752,35.493691],"type":"Point"},"properties":{"osm_id":"7847871503","tag":{"amenity":"waste_basket"}},"type":"Feature"},
	{"geometry":{"coordinates":[139.522446,35.492878],"type":"Point"},"properties":{"osm_id":"7847896712","tag":{"amenity":"waste_basket"}},"type":"Feature"},
	{"geometry":{"coordinates":[139.523392,35.494157],"type":"Point"},"properties":{"osm_id":"7847956120","tag":{"amenity":"waste_basket"}},"type":"Feature"},
	{"geometry":{"coordinates":[139.523436,35.493735],"type":"Point"},"properties":{"osm_id":"7847956125","tag":{"amenity":"waste_basket"}},"type":"Feature"},
	{"geometry":{"coordinates":[139.524294,35.49523],"type":"Point"},"properties":{"osm_id":"7847984648","tag":{"amenity":"waste_basket"}},"type":"Feature"},
	{"geometry":{"coordinates":[139.524336,35.496365],"type":"Point"},"properties":{"osm_id":"7847984658","tag":{"amenity":"waste_basket"}},"type":"Feature"},
	{"geometry":{"coordinates":[139.523245,35.498128],"type":"Point"},"properties":{"osm_id":"7848122954","tag":{"amenity":"waste_basket"}},"type":"Feature"},
	{"geometry":{"coordinates":[139.522811,35.496135],"type":"Point"},"properties":{"osm_id":"7848149439","tag":{"amenity":"waste_basket"}},"type":"Feature"},
	{"geometry":{"coordinates":[139.521572,35.498877],"type":"Point"},"properties":{"osm_id":"7848199948","tag":{"amenity":"waste_basket"}},"type":"Feature"},
	{"geometry":{"coordinates":[139.521984,35.499871],"type":"Point"},"properties":{"osm_id":"7848221214","tag":{"amenity":"waste_basket"}},"type":"Feature"},
	{"geometry":{"coordinates":[139.521317,35.499714],"type":"Point"},"properties":{"osm_id":"7848221220","tag":{"amenity":"waste_basket"}},"type":"Feature"},
	{"geometry":{"coordinates":[139.521423,35.501321],"type":"Point"},"properties":{"osm_id":"7848290657","tag":{"amenity":"waste_basket"}},"type":"Feature"},
	{"geometry":{"coordinates":[139.519845,35.501008],"type":"Point"},"properties":{"osm_id":"7848290658","tag":{"amenity":"waste_basket"}},"type":"Feature"},
	{"geometry":{"coordinates":[139.526012,35.495217],"type":"Point"},"properties":{"osm_id":"7853394338","tag":{"amenity":"waste_basket"}},"type":"Feature"}
]
}
