{
"type": "FeatureCollection",
"features": [
	{"geometry":{"coordinates":[21.417438,53.689252],"type":"Point"},"properties":{"name":"Pomnik przyrody \"Zakochana Para\"","osm_id":"853622407","tag":{"comment":"\"Zakochana Para\", D\u00c4\u0085b szypu\u00c5\u0082kowy(Quercus robur L.) wiek ok. 160 lat, obw\u00c3\u00b3d pnia ok. 200cm, wysoko\u00c5\u009b\u00c4\u0087 18m, Sosna zwyczajna(Pinus silvestris L.) wiek ok. 250 lat, obw\u00c3\u00b3d pnia ok.275cm, wysoko\u00c5\u009b\u00c4\u0087 18m (Urz\u00c4\u0085d Wojew\u00c3\u00b3dzki w Olsztynie)","denotation":"natural_monument","name:de":"Naturdenkmal - \"verliebtes Paar\"","name:en":"Loving couple","name:pl":"Pomnik przyrody \"Zakochana Para\"","natural":"tree","protected":"yes","tourism":"attraction"}},"type":"Feature"},
	{"geometry":{"coordinates":[21.37725,53.685315],"type":"Point"},"properties":{"name":"\"Bia\u00c5\u0082e drzewo\" - siedziba kormoran\u00c3\u00b3w","osm_id":"1367733212","tag":{"natural":"tree","type":"Brzoza p\u00c5\u0082acz\u00c4\u0085ca?"}},"type":"Feature"},
	{"geometry":{"coordinates":[21.422713,53.688507],"type":"Point"},"properties":{"name":"D\u00c4\u0085b Kruty\u00c5\u0084ski","osm_id":"2395403867","tag":{"denotation":"natural_monument","leaf_cycle":"deciduous","leaf_type":"broadleaved","name:de":"Krutyner Eiche","name:en":"Oak of Kruty\u00c5\u0084","name:pl":"Dab Krutynski","natural":"tree","protected":"yes","tourism":"attraction"}},"type":"Feature"},
	{"geometry":{"coordinates":[21.417828,53.686294],"type":"Point"},"properties":{"name":"Mazurski D\u00c4\u0085b Bartny","osm_id":"6687585113","tag":{"denotation":"natural_monument","natural":"tree","protected":"yes","tourism":"attraction"}},"type":"Feature"}
]
}
