{
"type": "FeatureCollection",
"features": [
	{"geometry":{"coordinates":[-4.27698,55.791036],"type":"Point"},"properties":{"osm_id":"360780792","tag":{"amenity":"recycling"}},"type":"Feature"},
	{"geometry":{"coordinates":[-4.293587,55.804877],"type":"Point"},"properties":{"osm_id":"2423443588","tag":{"amenity":"recycling"}},"type":"Feature"},
	{"geometry":{"coordinates":[-4.277436,55.808994],"type":"Point"},"properties":{"osm_id":"2423445174","tag":{"amenity":"recycling"}},"type":"Feature"},
	{"geometry":{"coordinates":[-4.27747,55.822492],"type":"Point"},"properties":{"osm_id":"7255053417","tag":{"amenity":"recycling","recycling:cans":"yes","recycling:cardboard":"yes","recycling:clothes":"yes","recycling:glass_bottles":"yes","recycling:paper":"yes","recycling:plastic":"yes","recycling:plastic_bottles":"yes","recycling:plastic_packaging":"yes","recycling:shoes":"yes","recycling_type":"container"}},"type":"Feature"},
	{"geometry":{"coordinates":[-4.260121,55.796577],"type":"Point"},"properties":{"osm_id":"8151096117","tag":{"amenity":"waste_basket"}},"type":"Feature"},
	{"geometry":{"coordinates":[-4.26001,55.796512],"type":"Point"},"properties":{"osm_id":"8151096217","tag":{"amenity":"waste_basket"}},"type":"Feature"},
	{"geometry":{"coordinates":[-4.294253,55.804296],"type":"Point"},"properties":{"osm_id":"8155666780","tag":{"amenity":"recycling","recycling_type":"container"}},"type":"Feature"},
	{"geometry":{"coordinates":[-4.262414,55.821075],"type":"Point"},"properties":{"osm_id":"8960515296","tag":{"amenity":"waste_basket","waste":"dog_excrement;trash"}},"type":"Feature"},
	{"geometry":{"coordinates":[-4.26115,55.821145],"type":"Point"},"properties":{"osm_id":"8960515297","tag":{"amenity":"waste_basket","waste":"dog_excrement;trash"}},"type":"Feature"},
	{"geometry":{"coordinates":[-4.260881,55.820833],"type":"Point"},"properties":{"osm_id":"8960515311","tag":{"amenity":"recycling","opening_hours":"24/7","recycling:clothes":"yes","recycling:shoes":"yes","recycling_type":"container"}},"type":"Feature"},
	{"geometry":{"coordinates":[-4.261115,55.820864],"type":"Point"},"properties":{"osm_id":"8960515312","tag":{"amenity":"waste_basket","waste":"dog_excrement;trash"}},"type":"Feature"},
	{"geometry":{"coordinates":[-4.262461,55.821286],"type":"Point"},"properties":{"osm_id":"8960532021","tag":{"amenity":"waste_basket","waste":"dog_excrement;trash"}},"type":"Feature"},
	{"geometry":{"coordinates":[-4.261867,55.820971],"type":"Point"},"properties":{"osm_id":"8960532022","tag":{"amenity":"waste_basket","waste":"dog_excrement;trash"}},"type":"Feature"},
	{"geometry":{"coordinates":[-4.26091,55.820943],"type":"Point"},"properties":{"osm_id":"8960532029","tag":{"amenity":"recycling","opening_hours":"24/7","recycling:glass":"yes","recycling:glass_bottles":"yes","recycling_type":"container"}},"type":"Feature"}
]
}
