{
"type": "FeatureCollection",
"features": [
	{"geometry":{"coordinates":[-4.301661,43.227248],"type":"Point"},"properties":{"osm_id":"3649137354","tag":{"amenity":"waste_disposal"}},"type":"Feature"},
	{"geometry":{"coordinates":[-4.30165,43.227225],"type":"Point"},"properties":{"osm_id":"3649137355","tag":{"amenity":"recycling","recycling:cans":"yes","recycling:glass":"yes"}},"type":"Feature"},
	{"geometry":{"coordinates":[-4.264656,43.260626],"type":"Point"},"properties":{"osm_id":"4076840750","tag":{"amenity":"waste_disposal","waste":"glass"}},"type":"Feature"},
	{"geometry":{"coordinates":[-4.260222,43.260708],"type":"Point"},"properties":{"osm_id":"7385123891","tag":{"amenity":"waste_disposal"}},"type":"Feature"},
	{"geometry":{"coordinates":[-4.264582,43.260417],"type":"Point"},"properties":{"osm_id":"7385123894","tag":{"amenity":"waste_disposal","waste":"mixed"}},"type":"Feature"},
	{"geometry":{"coordinates":[-4.264739,43.25996],"type":"Point"},"properties":{"osm_id":"7385123895","tag":{"amenity":"waste_disposal","waste":"mixed"}},"type":"Feature"},
	{"geometry":{"coordinates":[-4.264775,43.259928],"type":"Point"},"properties":{"osm_id":"7385123896","tag":{"amenity":"waste_disposal","waste":"glass"}},"type":"Feature"},
	{"geometry":{"coordinates":[-4.264536,43.259836],"type":"Point"},"properties":{"osm_id":"7385123897","tag":{"amenity":"waste_disposal","waste":"plastic"}},"type":"Feature"},
	{"geometry":{"coordinates":[-4.266019,43.259853],"type":"Point"},"properties":{"osm_id":"7385123898","tag":{"amenity":"waste_disposal","waste":"mixed"}},"type":"Feature"},
	{"geometry":{"coordinates":[-4.266438,43.259616],"type":"Point"},"properties":{"osm_id":"7385123899","tag":{"amenity":"waste_disposal","waste":"glass;mixed"}},"type":"Feature"},
	{"geometry":{"coordinates":[-4.268029,43.258773],"type":"Point"},"properties":{"osm_id":"7385123900","tag":{"amenity":"waste_disposal","waste":"trash;mixed;recycling;glass"}},"type":"Feature"},
	{"geometry":{"coordinates":[-4.268782,43.25812],"type":"Point"},"properties":{"osm_id":"7385123901","tag":{"amenity":"waste_disposal","waste":"mixed"}},"type":"Feature"},
	{"geometry":{"coordinates":[-4.26862,43.257668],"type":"Point"},"properties":{"osm_id":"7385123902","tag":{"amenity":"waste_disposal","waste":"mixed"}},"type":"Feature"}
]
}
