{
"type": "FeatureCollection",
"features": [
	{"geometry":{"coordinates":[24.960365,60.286783],"type":"Point"},"properties":{"osm_id":"281742310","tag":{"access":"private","amenity":"waste_disposal"}},"type":"Feature"},
	{"geometry":{"coordinates":[24.95515,60.297485],"type":"Point"},"properties":{"name":"Kierr\u00c3\u00a4tyskatu","osm_id":"457874902","tag":{"addr:city":"Vantaa","addr:country":"FI","addr:housenumber":"14","addr:postcode":"01510","addr:street":"Virkatie","amenity":"recycling","fee":"yes","name:en":"Recycling street","name:fi":"Kierr\u00c3\u00a4tyskatu","name:sv":"\u00c3\u0085tervinningsgatan","opening_hours":"Mo-Fr 08:00-18:00","operator":"Stena Technoworld","phone":"+358 10 8306424","recycling:batteries":"yes","recycling:beverage_cartons":"yes","recycling:cans":"yes","recycling:cardboard":"yes","recycling:clothes":"yes","recycling:electrical_items":"yes","recycling:engine_oil":"no","recycling:fluorescent_tubes":"yes","recycling:glass":"yes","recycling:green_waste":"no","recycling:lead":"no","recycling:low_energy_bulbs":"yes","recycling:paper":"yes","recycling:plastic":"yes","recycling:scrap_metal":"yes","recycling:sheet_glass":"yes","recycling:tyres":"yes","recycling:white_goods":"yes","recycling:wood":"yes","url":"http://www.kierratyskatu.fi"}},"type":"Feature"},
	{"geometry":{"coordinates":[24.909659,60.284603],"type":"Point"},"properties":{"osm_id":"492864358","tag":{"amenity":"recycling","recycling:paper":"yes","recycling_type":"container"}},"type":"Feature"},
	{"geometry":{"coordinates":[24.954791,60.284095],"type":"Point"},"properties":{"osm_id":"2288297411","tag":{"amenity":"waste_basket"}},"type":"Feature"},
	{"geometry":{"coordinates":[24.891588,60.290215],"type":"Point"},"properties":{"osm_id":"8847732593","tag":{"amenity":"waste_basket"}},"type":"Feature"},
	{"geometry":{"coordinates":[24.880042,60.292468],"type":"Point"},"properties":{"osm_id":"9014769269","tag":{"amenity":"waste_basket"}},"type":"Feature"}
]
}
