{
"type": "FeatureCollection",
"features": [
	{"geometry":{"coordinates":[24.927373,60.197413],"type":"Point"},"properties":{"osm_id":"283278939","tag":{"addr:city":"Helsinki","addr:country":"FI","amenity":"recycling","operator":"UFF","recycling:clothes":"yes"}},"type":"Feature"},
	{"geometry":{"coordinates":[24.938567,60.236787],"type":"Point"},"properties":{"osm_id":"284558087","tag":{"amenity":"recycling","recycling:glass":"yes"}},"type":"Feature"},
	{"geometry":{"coordinates":[24.949718,60.202584],"type":"Point"},"properties":{"osm_id":"316868561","tag":{"amenity":"recycling","recycling:clothes":"yes","recycling:glass":"yes"}},"type":"Feature"},
	{"geometry":{"coordinates":[24.937225,60.200079],"type":"Point"},"properties":{"osm_id":"317556750","tag":{"amenity":"waste_basket"}},"type":"Feature"},
	{"geometry":{"coordinates":[24.954543,60.197983],"type":"Point"},"properties":{"osm_id":"324316796","tag":{"amenity":"waste_basket"}},"type":"Feature"},
	{"geometry":{"coordinates":[24.941761,60.20213],"type":"Point"},"properties":{"osm_id":"340201930","tag":{"amenity":"waste_basket"}},"type":"Feature"},
	{"geometry":{"coordinates":[24.948811,60.206893],"type":"Point"},"properties":{"osm_id":"344177874","tag":{"amenity":"waste_basket"}},"type":"Feature"},
	{"geometry":{"coordinates":[24.948665,60.207006],"type":"Point"},"properties":{"osm_id":"344177875","tag":{"amenity":"waste_basket"}},"type":"Feature"},
	{"geometry":{"coordinates":[24.947901,60.201569],"type":"Point"},"properties":{"osm_id":"345565398","tag":{"amenity":"waste_basket"}},"type":"Feature"},
	{"geometry":{"coordinates":[24.949003,60.205426],"type":"Point"},"properties":{"osm_id":"345571368","tag":{"amenity":"waste_basket"}},"type":"Feature"},
	{"geometry":{"coordinates":[24.956698,60.204241],"type":"Point"},"properties":{"osm_id":"345801440","tag":{"amenity":"waste_basket"}},"type":"Feature"},
	{"geometry":{"coordinates":[24.948312,60.206233],"type":"Point"},"properties":{"osm_id":"345803559","tag":{"amenity":"waste_basket"}},"type":"Feature"},
	{"geometry":{"coordinates":[24.952243,60.210775],"type":"Point"},"properties":{"osm_id":"346308038","tag":{"amenity":"recycling","recycling:clothes":"yes","recycling:glass":"yes"}},"type":"Feature"},
	{"geometry":{"coordinates":[24.947891,60.206826],"type":"Point"},"properties":{"osm_id":"346322122","tag":{"amenity":"waste_basket"}},"type":"Feature"},
	{"geometry":{"coordinates":[24.948049,60.207078],"type":"Point"},"properties":{"osm_id":"346322132","tag":{"amenity":"waste_basket"}},"type":"Feature"},
	{"geometry":{"coordinates":[24.951829,60.210819],"type":"Point"},"properties":{"osm_id":"346576929","tag":{"amenity":"waste_basket"}},"type":"Feature"},
	{"geometry":{"coordinates":[24.941783,60.199147],"type":"Point"},"properties":{"osm_id":"347260306","tag":{"amenity":"waste_basket"}},"type":"Feature"},
	{"geometry":{"coordinates":[24.943796,60.199005],"type":"Point"},"properties":{"osm_id":"347260307","tag":{"amenity":"waste_basket"}},"type":"Feature"},
	{"geometry":{"coordinates":[24.960584,60.209492],"type":"Point"},"properties":{"osm_id":"351124702","tag":{"amenity":"recycling","recycling:glass":"yes","recycling:paper":"yes","recycling:scrap_metal":"yes"}},"type":"Feature"},
	{"geometry":{"coordinates":[24.946825,60.208838],"type":"Point"},"properties":{"osm_id":"351415019","tag":{"amenity":"waste_basket","traffic_sign":"FI:871[Ei talvikunnossapitoa]","traffic_sign:2":"FI:424"}},"type":"Feature"},
	{"geometry":{"coordinates":[24.956492,60.212646],"type":"Point"},"properties":{"osm_id":"352753429","tag":{"amenity":"waste_basket"}},"type":"Feature"},
	{"geometry":{"coordinates":[24.948884,60.210652],"type":"Point"},"properties":{"osm_id":"352939576","tag":{"amenity":"waste_basket"}},"type":"Feature"},
	{"geometry":{"coordinates":[24.946793,60.209782],"type":"Point"},"properties":{"osm_id":"354540924","tag":{"amenity":"waste_basket"}},"type":"Feature"},
	{"geometry":{"coordinates":[24.944651,60.208801],"type":"Point"},"properties":{"osm_id":"355176644","tag":{"amenity":"recycling","operator":"UFF","recycling:clothes":"yes"}},"type":"Feature"},
	{"geometry":{"coordinates":[24.951916,60.210596],"type":"Point"},"properties":{"osm_id":"359108644","tag":{"amenity":"waste_basket"}},"type":"Feature"},
	{"geometry":{"coordinates":[24.942188,60.210368],"type":"Point"},"properties":{"osm_id":"359541695","tag":{"amenity":"waste_basket"}},"type":"Feature"},
	{"geometry":{"coordinates":[24.942844,60.210383],"type":"Point"},"properties":{"osm_id":"359541927","tag":{"amenity":"recycling","recycling:batteries":"yes","recycling:clothes":"yes","recycling:glass":"yes"}},"type":"Feature"},
	{"geometry":{"coordinates":[24.943075,60.209707],"type":"Point"},"properties":{"osm_id":"359544496","tag":{"amenity":"waste_basket"}},"type":"Feature"},
	{"geometry":{"coordinates":[24.944431,60.209731],"type":"Point"},"properties":{"osm_id":"359549489","tag":{"amenity":"waste_basket"}},"type":"Feature"},
	{"geometry":{"coordinates":[24.944313,60.20942],"type":"Point"},"properties":{"osm_id":"359550832","tag":{"amenity":"waste_basket"}},"type":"Feature"},
	{"geometry":{"coordinates":[24.94408,60.209362],"type":"Point"},"properties":{"osm_id":"359550835","tag":{"amenity":"waste_basket"}},"type":"Feature"},
	{"geometry":{"coordinates":[24.944428,60.209177],"type":"Point"},"properties":{"osm_id":"359551213","tag":{"amenity":"waste_basket"}},"type":"Feature"},
	{"geometry":{"coordinates":[24.96085,60.206224],"type":"Point"},"properties":{"osm_id":"364701488","tag":{"amenity":"waste_basket"}},"type":"Feature"},
	{"geometry":{"coordinates":[24.937193,60.209599],"type":"Point"},"properties":{"osm_id":"364802932","tag":{"amenity":"waste_basket"}},"type":"Feature"},
	{"geometry":{"coordinates":[24.954383,60.211827],"type":"Point"},"properties":{"osm_id":"364927553","tag":{"amenity":"waste_basket","traffic_sign":"FI:871","traffic_sign:2":"FI:424"}},"type":"Feature"},
	{"geometry":{"coordinates":[24.942158,60.213296],"type":"Point"},"properties":{"osm_id":"365241927","tag":{"amenity":"waste_basket"}},"type":"Feature"},
	{"geometry":{"coordinates":[24.942161,60.210162],"type":"Point"},"properties":{"osm_id":"365282217","tag":{"amenity":"waste_basket"}},"type":"Feature"},
	{"geometry":{"coordinates":[24.941655,60.209637],"type":"Point"},"properties":{"osm_id":"365305191","tag":{"amenity":"waste_basket"}},"type":"Feature"},
	{"geometry":{"coordinates":[24.952064,60.201409],"type":"Point"},"properties":{"osm_id":"366196512","tag":{"amenity":"waste_basket"}},"type":"Feature"},
	{"geometry":{"coordinates":[24.957142,60.215883],"type":"Point"},"properties":{"osm_id":"366552096","tag":{"amenity":"waste_basket","traffic_sign":"FI:871[Ei talvikunnossapitoa]"}},"type":"Feature"},
	{"geometry":{"coordinates":[24.952948,60.200967],"type":"Point"},"properties":{"osm_id":"369333018","tag":{"amenity":"waste_basket"}},"type":"Feature"},
	{"geometry":{"coordinates":[24.95435,60.200394],"type":"Point"},"properties":{"osm_id":"369339301","tag":{"amenity":"waste_basket"}},"type":"Feature"},
	{"geometry":{"coordinates":[24.955305,60.199122],"type":"Point"},"properties":{"osm_id":"369344331","tag":{"amenity":"waste_basket"}},"type":"Feature"},
	{"geometry":{"coordinates":[24.954388,60.199202],"type":"Point"},"properties":{"osm_id":"369344672","tag":{"amenity":"waste_basket"}},"type":"Feature"},
	{"geometry":{"coordinates":[24.950223,60.203431],"type":"Point"},"properties":{"osm_id":"369352685","tag":{"amenity":"waste_basket"}},"type":"Feature"},
	{"geometry":{"coordinates":[24.949756,60.203884],"type":"Point"},"properties":{"osm_id":"369352688","tag":{"amenity":"waste_basket"}},"type":"Feature"},
	{"geometry":{"coordinates":[24.949798,60.204071],"type":"Point"},"properties":{"osm_id":"369352690","tag":{"amenity":"waste_basket"}},"type":"Feature"},
	{"geometry":{"coordinates":[24.945496,60.214016],"type":"Point"},"properties":{"osm_id":"369609753","tag":{"amenity":"waste_basket"}},"type":"Feature"},
	{"geometry":{"coordinates":[24.946988,60.214473],"type":"Point"},"properties":{"osm_id":"369610352","tag":{"amenity":"waste_basket"}},"type":"Feature"},
	{"geometry":{"coordinates":[24.949091,60.215132],"type":"Point"},"properties":{"osm_id":"369613614","tag":{"amenity":"waste_basket"}},"type":"Feature"},
	{"geometry":{"coordinates":[24.951393,60.215861],"type":"Point"},"properties":{"osm_id":"369619201","tag":{"amenity":"waste_basket"}},"type":"Feature"},
	{"geometry":{"coordinates":[24.949834,60.207687],"type":"Point"},"properties":{"osm_id":"370244938","tag":{"amenity":"waste_basket"}},"type":"Feature"},
	{"geometry":{"coordinates":[24.955958,60.232081],"type":"Point"},"properties":{"osm_id":"372993424","tag":{"amenity":"recycling","recycling:paper":"yes"}},"type":"Feature"},
	{"geometry":{"coordinates":[24.953184,60.217257],"type":"Point"},"properties":{"osm_id":"383950938","tag":{"amenity":"waste_basket","traffic_sign":"FI:231","traffic_sign:2":"FI:863"}},"type":"Feature"},
	{"geometry":{"coordinates":[24.954846,60.234477],"type":"Point"},"properties":{"osm_id":"388305106","tag":{"amenity":"recycling","recycling:cardboard":"yes"}},"type":"Feature"},
	{"geometry":{"coordinates":[24.953563,60.21885],"type":"Point"},"properties":{"osm_id":"390951478","tag":{"amenity":"waste_basket"}},"type":"Feature"},
	{"geometry":{"coordinates":[24.953133,60.218941],"type":"Point"},"properties":{"osm_id":"390951480","tag":{"amenity":"waste_basket"}},"type":"Feature"},
	{"geometry":{"coordinates":[24.941123,60.210218],"type":"Point"},"properties":{"osm_id":"391300349","tag":{"amenity":"recycling","operator":"Paperinker\u00e4ys Oy","recycling:paper":"yes"}},"type":"Feature"},
	{"geometry":{"coordinates":[24.947528,60.207429],"type":"Point"},"properties":{"osm_id":"391836585","tag":{"amenity":"waste_basket"}},"type":"Feature"},
	{"geometry":{"coordinates":[24.947797,60.207535],"type":"Point"},"properties":{"osm_id":"391836586","tag":{"amenity":"waste_basket"}},"type":"Feature"},
	{"geometry":{"coordinates":[24.946168,60.207194],"type":"Point"},"properties":{"osm_id":"391836652","tag":{"amenity":"waste_basket"}},"type":"Feature"},
	{"geometry":{"coordinates":[24.938512,60.22402],"type":"Point"},"properties":{"osm_id":"392288801","tag":{"amenity":"recycling","recycling:glass":"yes","recycling:paper":"yes"}},"type":"Feature"},
	{"geometry":{"coordinates":[24.940327,60.227343],"type":"Point"},"properties":{"osm_id":"392288802","tag":{"amenity":"waste_basket"}},"type":"Feature"},
	{"geometry":{"coordinates":[24.939948,60.229437],"type":"Point"},"properties":{"osm_id":"392288803","tag":{"amenity":"waste_basket"}},"type":"Feature"},
	{"geometry":{"coordinates":[24.943829,60.213855],"type":"Point"},"properties":{"osm_id":"392288805","tag":{"amenity":"recycling","recycling:clothes":"yes","recycling:glass":"yes"}},"type":"Feature"},
	{"geometry":{"coordinates":[24.942936,60.207136],"type":"Point"},"properties":{"osm_id":"393808044","tag":{"amenity":"waste_basket"}},"type":"Feature"},
	{"geometry":{"coordinates":[24.942986,60.205699],"type":"Point"},"properties":{"osm_id":"393810127","tag":{"amenity":"waste_basket"}},"type":"Feature"},
	{"geometry":{"coordinates":[24.941445,60.204653],"type":"Point"},"properties":{"osm_id":"393810173","tag":{"amenity":"waste_basket"}},"type":"Feature"},
	{"geometry":{"coordinates":[24.940474,60.202082],"type":"Point"},"properties":{"osm_id":"393824050","tag":{"amenity":"waste_basket"}},"type":"Feature"},
	{"geometry":{"coordinates":[24.94305,60.206914],"type":"Point"},"properties":{"osm_id":"394581392","tag":{"amenity":"waste_basket"}},"type":"Feature"},
	{"geometry":{"coordinates":[24.94384,60.208892],"type":"Point"},"properties":{"osm_id":"394605333","tag":{"amenity":"waste_basket"}},"type":"Feature"},
	{"geometry":{"coordinates":[24.939744,60.208044],"type":"Point"},"properties":{"osm_id":"394607192","tag":{"amenity":"waste_basket"}},"type":"Feature"},
	{"geometry":{"coordinates":[24.948467,60.221956],"type":"Point"},"properties":{"osm_id":"406384039","tag":{"amenity":"waste_basket"}},"type":"Feature"},
	{"geometry":{"coordinates":[24.948521,60.221962],"type":"Point"},"properties":{"osm_id":"406384040","tag":{"amenity":"waste_basket"}},"type":"Feature"},
	{"geometry":{"coordinates":[24.949258,60.20477],"type":"Point"},"properties":{"osm_id":"411392065","tag":{"amenity":"waste_basket"}},"type":"Feature"},
	{"geometry":{"coordinates":[24.938274,60.199777],"type":"Point"},"properties":{"osm_id":"412205564","tag":{"amenity":"recycling","recycling:clothes":"yes"}},"type":"Feature"},
	{"geometry":{"coordinates":[24.940483,60.199543],"type":"Point"},"properties":{"osm_id":"412248033","tag":{"amenity":"waste_basket"}},"type":"Feature"},
	{"geometry":{"coordinates":[24.940922,60.199595],"type":"Point"},"properties":{"osm_id":"412248035","tag":{"amenity":"waste_basket"}},"type":"Feature"},
	{"geometry":{"coordinates":[24.941734,60.199693],"type":"Point"},"properties":{"osm_id":"412248044","tag":{"amenity":"waste_basket"}},"type":"Feature"},
	{"geometry":{"coordinates":[24.942219,60.199752],"type":"Point"},"properties":{"osm_id":"412248045","tag":{"amenity":"waste_basket"}},"type":"Feature"},
	{"geometry":{"coordinates":[24.941971,60.200598],"type":"Point"},"properties":{"osm_id":"412297963","tag":{"amenity":"waste_basket"}},"type":"Feature"},
	{"geometry":{"coordinates":[24.9441,60.201271],"type":"Point"},"properties":{"osm_id":"412297971","tag":{"amenity":"waste_basket"}},"type":"Feature"},
	{"geometry":{"coordinates":[24.944164,60.201226],"type":"Point"},"properties":{"osm_id":"412297972","tag":{"amenity":"waste_basket"}},"type":"Feature"},
	{"geometry":{"coordinates":[24.917282,60.200751],"type":"Point"},"properties":{"osm_id":"412349867","tag":{"amenity":"waste_basket"}},"type":"Feature"},
	{"geometry":{"coordinates":[24.917793,60.20108],"type":"Point"},"properties":{"osm_id":"412349870","tag":{"amenity":"waste_basket"}},"type":"Feature"},
	{"geometry":{"coordinates":[24.917962,60.201525],"type":"Point"},"properties":{"osm_id":"412350527","tag":{"amenity":"waste_basket"}},"type":"Feature"},
	{"geometry":{"coordinates":[24.942086,60.201049],"type":"Point"},"properties":{"osm_id":"412615510","tag":{"amenity":"waste_basket"}},"type":"Feature"},
	{"geometry":{"coordinates":[24.94154,60.201259],"type":"Point"},"properties":{"osm_id":"412617508","tag":{"amenity":"waste_basket"}},"type":"Feature"},
	{"geometry":{"coordinates":[24.941776,60.201295],"type":"Point"},"properties":{"osm_id":"412622404","tag":{"amenity":"recycling","recycling:glass":"yes"}},"type":"Feature"},
	{"geometry":{"coordinates":[24.941869,60.201614],"type":"Point"},"properties":{"osm_id":"412624470","tag":{"amenity":"waste_basket"}},"type":"Feature"},
	{"geometry":{"coordinates":[24.941697,60.201792],"type":"Point"},"properties":{"osm_id":"412624473","tag":{"amenity":"waste_basket"}},"type":"Feature"},
	{"geometry":{"coordinates":[24.942373,60.201446],"type":"Point"},"properties":{"osm_id":"412630419","tag":{"amenity":"waste_basket"}},"type":"Feature"},
	{"geometry":{"coordinates":[24.944394,60.200962],"type":"Point"},"properties":{"osm_id":"412635395","tag":{"amenity":"waste_basket"}},"type":"Feature"},
	{"geometry":{"coordinates":[24.947452,60.204799],"type":"Point"},"properties":{"osm_id":"413343732","tag":{"amenity":"waste_basket"}},"type":"Feature"},
	{"geometry":{"coordinates":[24.955381,60.214418],"type":"Point"},"properties":{"osm_id":"417302448","tag":{"amenity":"waste_basket"}},"type":"Feature"},
	{"geometry":{"coordinates":[24.903187,60.203677],"type":"Point"},"properties":{"osm_id":"418293943","tag":{"amenity":"waste_basket"}},"type":"Feature"},
	{"geometry":{"coordinates":[24.90335,60.198964],"type":"Point"},"properties":{"osm_id":"418325192","tag":{"amenity":"waste_basket"}},"type":"Feature"},
	{"geometry":{"coordinates":[24.95985,60.206985],"type":"Point"},"properties":{"osm_id":"419306000","tag":{"amenity":"waste_basket"}},"type":"Feature"},
	{"geometry":{"coordinates":[24.949574,60.205106],"type":"Point"},"properties":{"osm_id":"422473788","tag":{"amenity":"waste_basket"}},"type":"Feature"},
	{"geometry":{"coordinates":[24.950562,60.204123],"type":"Point"},"properties":{"osm_id":"422473827","tag":{"amenity":"waste_basket"}},"type":"Feature"},
	{"geometry":{"coordinates":[24.946138,60.20992],"type":"Point"},"properties":{"osm_id":"444686888","tag":{"amenity":"waste_basket"}},"type":"Feature"},
	{"geometry":{"coordinates":[24.947409,60.20202],"type":"Point"},"properties":{"osm_id":"444694011","tag":{"amenity":"waste_basket"}},"type":"Feature"},
	{"geometry":{"coordinates":[24.95178,60.20273],"type":"Point"},"properties":{"osm_id":"445308037","tag":{"amenity":"waste_basket"}},"type":"Feature"},
	{"geometry":{"coordinates":[24.949052,60.204538],"type":"Point"},"properties":{"osm_id":"445308044","tag":{"amenity":"waste_basket"}},"type":"Feature"},
	{"geometry":{"coordinates":[24.95354,60.202607],"type":"Point"},"properties":{"osm_id":"446009876","tag":{"amenity":"waste_basket"}},"type":"Feature"},
	{"geometry":{"coordinates":[24.947512,60.201943],"type":"Point"},"properties":{"osm_id":"446293837","tag":{"amenity":"waste_basket"}},"type":"Feature"},
	{"geometry":{"coordinates":[24.947466,60.201154],"type":"Point"},"properties":{"osm_id":"446293838","tag":{"amenity":"waste_basket"}},"type":"Feature"},
	{"geometry":{"coordinates":[24.949116,60.201168],"type":"Point"},"properties":{"osm_id":"446293844","tag":{"amenity":"waste_basket"}},"type":"Feature"},
	{"geometry":{"coordinates":[24.949045,60.201183],"type":"Point"},"properties":{"osm_id":"446293845","tag":{"amenity":"waste_basket"}},"type":"Feature"},
	{"geometry":{"coordinates":[24.950992,60.201546],"type":"Point"},"properties":{"osm_id":"446293847","tag":{"amenity":"waste_basket"}},"type":"Feature"},
	{"geometry":{"coordinates":[24.951333,60.21608],"type":"Point"},"properties":{"osm_id":"452670047","tag":{"amenity":"waste_basket"}},"type":"Feature"},
	{"geometry":{"coordinates":[24.954841,60.214129],"type":"Point"},"properties":{"osm_id":"453773924","tag":{"amenity":"waste_basket"}},"type":"Feature"},
	{"geometry":{"coordinates":[24.95419,60.213871],"type":"Point"},"properties":{"osm_id":"454661820","tag":{"amenity":"waste_basket"}},"type":"Feature"},
	{"geometry":{"coordinates":[24.950579,60.202444],"type":"Point"},"properties":{"osm_id":"455906971","tag":{"amenity":"waste_basket"}},"type":"Feature"},
	{"geometry":{"coordinates":[24.950155,60.202139],"type":"Point"},"properties":{"osm_id":"455906972","tag":{"amenity":"waste_basket"}},"type":"Feature"},
	{"geometry":{"coordinates":[24.94943,60.202392],"type":"Point"},"properties":{"osm_id":"455907002","tag":{"amenity":"waste_basket"}},"type":"Feature"},
	{"geometry":{"coordinates":[24.94403,60.213496],"type":"Point"},"properties":{"osm_id":"455941107","tag":{"amenity":"waste_basket"}},"type":"Feature"},
	{"geometry":{"coordinates":[24.948587,60.210688],"type":"Point"},"properties":{"osm_id":"457854539","tag":{"amenity":"waste_basket"}},"type":"Feature"},
	{"geometry":{"coordinates":[24.949567,60.201985],"type":"Point"},"properties":{"osm_id":"461623497","tag":{"amenity":"waste_basket"}},"type":"Feature"},
	{"geometry":{"coordinates":[24.949833,60.201502],"type":"Point"},"properties":{"osm_id":"461623499","tag":{"amenity":"waste_basket"}},"type":"Feature"},
	{"geometry":{"coordinates":[24.945839,60.200839],"type":"Point"},"properties":{"osm_id":"462289365","tag":{"amenity":"waste_basket"}},"type":"Feature"},
	{"geometry":{"coordinates":[24.953919,60.234309],"type":"Point"},"properties":{"osm_id":"465240371","tag":{"amenity":"recycling","recycling:batteries":"yes","recycling:glass":"yes"}},"type":"Feature"},
	{"geometry":{"coordinates":[24.95907,60.205486],"type":"Point"},"properties":{"osm_id":"469406650","tag":{"amenity":"waste_basket"}},"type":"Feature"},
	{"geometry":{"coordinates":[24.949036,60.216442],"type":"Point"},"properties":{"osm_id":"470029515","tag":{"amenity":"waste_basket"}},"type":"Feature"},
	{"geometry":{"coordinates":[24.956278,60.213325],"type":"Point"},"properties":{"osm_id":"470250682","tag":{"amenity":"waste_basket"}},"type":"Feature"},
	{"geometry":{"coordinates":[24.901621,60.212297],"type":"Point"},"properties":{"osm_id":"470821057","tag":{"amenity":"waste_basket"}},"type":"Feature"},
	{"geometry":{"coordinates":[24.919148,60.219398],"type":"Point"},"properties":{"osm_id":"470932409","tag":{"amenity":"waste_basket"}},"type":"Feature"},
	{"geometry":{"coordinates":[24.944423,60.21879],"type":"Point"},"properties":{"highway":"street_lamp","osm_id":"470944417","tag":{"amenity":"waste_basket","traffic_sign":"FI:423"}},"type":"Feature"},
	{"geometry":{"coordinates":[24.897738,60.218203],"type":"Point"},"properties":{"osm_id":"471035263","tag":{"amenity":"waste_basket"}},"type":"Feature"},
	{"geometry":{"coordinates":[24.898818,60.212407],"type":"Point"},"properties":{"osm_id":"471059321","tag":{"amenity":"recycling","recycling:batteries":"no","recycling:books":"no","recycling:cans":"yes","recycling:cardboard":"yes","recycling:cartons":"yes","recycling:clothes":"yes","recycling:electrical_appliances":"no","recycling:glass":"yes","recycling:glass_bottles":"yes","recycling:magazines":"yes","recycling:newspaper":"yes","recycling:paper":"yes","recycling:paper_packaging":"yes","recycling:scrap_metal":"yes","recycling:small_appliances":"no","recycling_type":"container"}},"type":"Feature"},
	{"geometry":{"coordinates":[24.899782,60.21174],"type":"Point"},"properties":{"osm_id":"471059351","tag":{"amenity":"waste_basket"}},"type":"Feature"},
	{"geometry":{"coordinates":[24.956054,60.215188],"type":"Point"},"properties":{"osm_id":"471786064","tag":{"amenity":"waste_basket"}},"type":"Feature"},
	{"geometry":{"coordinates":[24.954246,60.211556],"type":"Point"},"properties":{"osm_id":"471794341","tag":{"amenity":"waste_basket"}},"type":"Feature"},
	{"geometry":{"coordinates":[24.949247,60.211035],"type":"Point"},"properties":{"osm_id":"471803479","tag":{"amenity":"waste_basket"}},"type":"Feature"},
	{"geometry":{"coordinates":[24.950119,60.212339],"type":"Point"},"properties":{"osm_id":"471803553","tag":{"amenity":"waste_basket"}},"type":"Feature"},
	{"geometry":{"coordinates":[24.952285,60.21321],"type":"Point"},"properties":{"osm_id":"471806314","tag":{"amenity":"waste_basket"}},"type":"Feature"},
	{"geometry":{"coordinates":[24.959395,60.218527],"type":"Point"},"properties":{"osm_id":"473637413","tag":{"amenity":"waste_basket"}},"type":"Feature"},
	{"geometry":{"coordinates":[24.957299,60.220036],"type":"Point"},"properties":{"osm_id":"473637489","tag":{"amenity":"waste_basket"}},"type":"Feature"},
	{"geometry":{"coordinates":[24.9574,60.219287],"type":"Point"},"properties":{"osm_id":"473670097","tag":{"amenity":"waste_basket"}},"type":"Feature"},
	{"geometry":{"coordinates":[24.944603,60.21558],"type":"Point"},"properties":{"osm_id":"473670113","tag":{"amenity":"waste_basket"}},"type":"Feature"},
	{"geometry":{"coordinates":[24.94232,60.215334],"type":"Point"},"properties":{"osm_id":"475694377","tag":{"amenity":"waste_basket"}},"type":"Feature"},
	{"geometry":{"coordinates":[24.956216,60.201412],"type":"Point"},"properties":{"osm_id":"488383954","tag":{"amenity":"waste_basket"}},"type":"Feature"},
	{"geometry":{"coordinates":[24.95841,60.201455],"type":"Point"},"properties":{"osm_id":"492613050","tag":{"amenity":"waste_basket"}},"type":"Feature"},
	{"geometry":{"coordinates":[24.959749,60.201414],"type":"Point"},"properties":{"osm_id":"492613052","tag":{"amenity":"waste_basket"}},"type":"Feature"},
	{"geometry":{"coordinates":[24.954437,60.20334],"type":"Point"},"properties":{"osm_id":"496848042","tag":{"amenity":"waste_basket"}},"type":"Feature"},
	{"geometry":{"coordinates":[24.93631,60.200205],"type":"Point"},"properties":{"osm_id":"529513594","tag":{"amenity":"waste_basket"}},"type":"Feature"},
	{"geometry":{"coordinates":[24.943835,60.210669],"type":"Point"},"properties":{"osm_id":"534118986","tag":{"amenity":"waste_basket"}},"type":"Feature"},
	{"geometry":{"coordinates":[24.943954,60.210673],"type":"Point"},"properties":{"osm_id":"534118994","tag":{"amenity":"waste_basket"}},"type":"Feature"},
	{"geometry":{"coordinates":[24.956885,60.22003],"type":"Point"},"properties":{"osm_id":"534185425","tag":{"amenity":"waste_basket"}},"type":"Feature"},
	{"geometry":{"coordinates":[24.944832,60.199344],"type":"Point"},"properties":{"osm_id":"534252011","tag":{"amenity":"waste_basket"}},"type":"Feature"},
	{"geometry":{"coordinates":[24.944106,60.199662],"type":"Point"},"properties":{"osm_id":"534252035","tag":{"amenity":"waste_basket"}},"type":"Feature"},
	{"geometry":{"coordinates":[24.937306,60.22315],"type":"Point"},"properties":{"osm_id":"535081870","tag":{"amenity":"waste_basket"}},"type":"Feature"},
	{"geometry":{"coordinates":[24.943506,60.220641],"type":"Point"},"properties":{"osm_id":"538196447","tag":{"amenity":"waste_basket"}},"type":"Feature"},
	{"geometry":{"coordinates":[24.942814,60.211689],"type":"Point"},"properties":{"osm_id":"541554067","tag":{"amenity":"waste_basket"}},"type":"Feature"},
	{"geometry":{"coordinates":[24.94222,60.212986],"type":"Point"},"properties":{"osm_id":"541554115","tag":{"amenity":"waste_basket"}},"type":"Feature"},
	{"geometry":{"coordinates":[24.942564,60.212943],"type":"Point"},"properties":{"osm_id":"541554120","tag":{"amenity":"waste_basket"}},"type":"Feature"},
	{"geometry":{"coordinates":[24.941662,60.210255],"type":"Point"},"properties":{"osm_id":"542701995","tag":{"amenity":"waste_basket"}},"type":"Feature"},
	{"geometry":{"coordinates":[24.958753,60.211241],"type":"Point"},"properties":{"osm_id":"543455684","tag":{"amenity":"waste_basket"}},"type":"Feature"},
	{"geometry":{"coordinates":[24.950572,60.211863],"type":"Point"},"properties":{"osm_id":"543540954","tag":{"amenity":"waste_basket"}},"type":"Feature"},
	{"geometry":{"coordinates":[24.945973,60.206958],"type":"Point"},"properties":{"osm_id":"552981251","tag":{"amenity":"waste_basket"}},"type":"Feature"},
	{"geometry":{"coordinates":[24.946019,60.207168],"type":"Point"},"properties":{"osm_id":"552981262","tag":{"amenity":"waste_basket"}},"type":"Feature"},
	{"geometry":{"coordinates":[24.950079,60.201575],"type":"Point"},"properties":{"osm_id":"556338607","tag":{"amenity":"waste_basket"}},"type":"Feature"},
	{"geometry":{"coordinates":[24.949603,60.203591],"type":"Point"},"properties":{"osm_id":"560740312","tag":{"amenity":"waste_basket"}},"type":"Feature"},
	{"geometry":{"coordinates":[24.954175,60.20046],"type":"Point"},"properties":{"osm_id":"560804483","tag":{"amenity":"waste_basket"}},"type":"Feature"},
	{"geometry":{"coordinates":[24.953953,60.200515],"type":"Point"},"properties":{"osm_id":"560810714","tag":{"amenity":"waste_basket"}},"type":"Feature"},
	{"geometry":{"coordinates":[24.948299,60.213411],"type":"Point"},"properties":{"osm_id":"561144988","tag":{"amenity":"waste_basket"}},"type":"Feature"},
	{"geometry":{"coordinates":[24.960495,60.209501],"type":"Point"},"properties":{"osm_id":"567029499","tag":{"amenity":"waste_basket"}},"type":"Feature"},
	{"geometry":{"coordinates":[24.958223,60.214673],"type":"Point"},"properties":{"osm_id":"580695125","tag":{"amenity":"waste_basket"}},"type":"Feature"},
	{"geometry":{"coordinates":[24.956024,60.214969],"type":"Point"},"properties":{"osm_id":"580698590","tag":{"amenity":"waste_basket"}},"type":"Feature"},
	{"geometry":{"coordinates":[24.951616,60.215253],"type":"Point"},"properties":{"osm_id":"593238249","tag":{"amenity":"waste_basket"}},"type":"Feature"},
	{"geometry":{"coordinates":[24.895,60.213756],"type":"Point"},"properties":{"osm_id":"619984406","tag":{"amenity":"waste_basket"}},"type":"Feature"},
	{"geometry":{"coordinates":[24.943306,60.200869],"type":"Point"},"properties":{"osm_id":"627843883","tag":{"amenity":"waste_basket"}},"type":"Feature"},
	{"geometry":{"coordinates":[24.93073,60.225575],"type":"Point"},"properties":{"osm_id":"633491328","tag":{"amenity":"recycling","operator":"UFF","recycling:clothes":"yes","recycling_type":"container"}},"type":"Feature"},
	{"geometry":{"coordinates":[24.956691,60.198268],"type":"Point"},"properties":{"osm_id":"660390702","tag":{"amenity":"waste_basket"}},"type":"Feature"},
	{"geometry":{"coordinates":[24.906165,60.214161],"type":"Point"},"properties":{"osm_id":"663584700","tag":{"amenity":"waste_basket","traffic_sign":"FI:423"}},"type":"Feature"},
	{"geometry":{"coordinates":[24.942769,60.20108],"type":"Point"},"properties":{"osm_id":"663698045","tag":{"amenity":"waste_basket"}},"type":"Feature"},
	{"geometry":{"coordinates":[24.957637,60.218002],"type":"Point"},"properties":{"osm_id":"666890367","tag":{"amenity":"waste_basket"}},"type":"Feature"},
	{"geometry":{"coordinates":[24.958731,60.218329],"type":"Point"},"properties":{"osm_id":"666890370","tag":{"amenity":"waste_basket"}},"type":"Feature"},
	{"geometry":{"coordinates":[24.958463,60.218251],"type":"Point"},"properties":{"osm_id":"666890372","tag":{"amenity":"waste_basket"}},"type":"Feature"},
	{"geometry":{"coordinates":[24.959666,60.218614],"type":"Point"},"properties":{"osm_id":"666890374","tag":{"amenity":"waste_basket"}},"type":"Feature"},
	{"geometry":{"coordinates":[24.959332,60.213632],"type":"Point"},"properties":{"osm_id":"666977889","tag":{"amenity":"waste_basket"}},"type":"Feature"},
	{"geometry":{"coordinates":[24.954354,60.217274],"type":"Point"},"properties":{"osm_id":"666981624","tag":{"amenity":"waste_basket"}},"type":"Feature"},
	{"geometry":{"coordinates":[24.959777,60.218085],"type":"Point"},"properties":{"osm_id":"666992611","tag":{"amenity":"waste_basket"}},"type":"Feature"},
	{"geometry":{"coordinates":[24.955775,60.217236],"type":"Point"},"properties":{"osm_id":"667254003","tag":{"amenity":"waste_basket"}},"type":"Feature"},
	{"geometry":{"coordinates":[24.954978,60.217022],"type":"Point"},"properties":{"osm_id":"667254390","tag":{"amenity":"waste_basket"}},"type":"Feature"},
	{"geometry":{"coordinates":[24.941932,60.198667],"type":"Point"},"properties":{"osm_id":"669530173","tag":{"amenity":"waste_basket"}},"type":"Feature"},
	{"geometry":{"coordinates":[24.945851,60.219601],"type":"Point"},"properties":{"highway":"street_lamp","osm_id":"669778861","tag":{"amenity":"waste_basket"}},"type":"Feature"},
	{"geometry":{"coordinates":[24.93947,60.197838],"type":"Point"},"properties":{"osm_id":"670356665","tag":{"amenity":"recycling"}},"type":"Feature"},
	{"geometry":{"coordinates":[24.93841,60.198124],"type":"Point"},"properties":{"osm_id":"670360308","tag":{"amenity":"waste_basket"}},"type":"Feature"},
	{"geometry":{"coordinates":[24.938237,60.197703],"type":"Point"},"properties":{"osm_id":"670361514","tag":{"amenity":"waste_basket"}},"type":"Feature"},
	{"geometry":{"coordinates":[24.939465,60.197201],"type":"Point"},"properties":{"osm_id":"670365524","tag":{"amenity":"waste_basket","graffiti:tag":"fns"}},"type":"Feature"},
	{"geometry":{"coordinates":[24.938666,60.197277],"type":"Point"},"properties":{"osm_id":"670370017","tag":{"amenity":"waste_basket"}},"type":"Feature"},
	{"geometry":{"coordinates":[24.938188,60.197522],"type":"Point"},"properties":{"osm_id":"670370019","tag":{"amenity":"waste_basket"}},"type":"Feature"},
	{"geometry":{"coordinates":[24.939114,60.197264],"type":"Point"},"properties":{"osm_id":"670370025","tag":{"amenity":"waste_basket"}},"type":"Feature"},
	{"geometry":{"coordinates":[24.948386,60.220757],"type":"Point"},"properties":{"osm_id":"679207140","tag":{"amenity":"waste_basket","layer":"1"}},"type":"Feature"},
	{"geometry":{"coordinates":[24.959029,60.216712],"type":"Point"},"properties":{"osm_id":"699714806","tag":{"amenity":"waste_basket"}},"type":"Feature"},
	{"geometry":{"coordinates":[24.958032,60.216911],"type":"Point"},"properties":{"osm_id":"699715005","tag":{"amenity":"waste_basket"}},"type":"Feature"},
	{"geometry":{"coordinates":[24.959204,60.217559],"type":"Point"},"properties":{"osm_id":"699718331","tag":{"amenity":"waste_basket"}},"type":"Feature"},
	{"geometry":{"coordinates":[24.958548,60.217206],"type":"Point"},"properties":{"osm_id":"699718349","tag":{"amenity":"waste_basket"}},"type":"Feature"},
	{"geometry":{"coordinates":[24.95746,60.224735],"type":"Point"},"properties":{"osm_id":"701980853","tag":{"amenity":"waste_basket"}},"type":"Feature"},
	{"geometry":{"coordinates":[24.944537,60.198269],"type":"Point"},"properties":{"osm_id":"705048420","tag":{"amenity":"waste_basket"}},"type":"Feature"},
	{"geometry":{"coordinates":[24.945123,60.198185],"type":"Point"},"properties":{"osm_id":"705048426","tag":{"amenity":"waste_basket"}},"type":"Feature"},
	{"geometry":{"coordinates":[24.941886,60.197353],"type":"Point"},"properties":{"osm_id":"705101331","tag":{"amenity":"waste_basket"}},"type":"Feature"},
	{"geometry":{"coordinates":[24.9418,60.197702],"type":"Point"},"properties":{"osm_id":"705124316","tag":{"amenity":"waste_basket"}},"type":"Feature"},
	{"geometry":{"coordinates":[24.939325,60.199041],"type":"Point"},"properties":{"osm_id":"705139065","tag":{"amenity":"waste_basket"}},"type":"Feature"},
	{"geometry":{"coordinates":[24.939081,60.199016],"type":"Point"},"properties":{"osm_id":"705139066","tag":{"amenity":"waste_basket"}},"type":"Feature"},
	{"geometry":{"coordinates":[24.916974,60.225841],"type":"Point"},"properties":{"osm_id":"705470137","tag":{"amenity":"waste_basket"}},"type":"Feature"},
	{"geometry":{"coordinates":[24.93494,60.228284],"type":"Point"},"properties":{"osm_id":"705480024","tag":{"amenity":"waste_basket"}},"type":"Feature"},
	{"geometry":{"coordinates":[24.920099,60.228459],"type":"Point"},"properties":{"osm_id":"705510979","tag":{"amenity":"waste_basket"}},"type":"Feature"},
	{"geometry":{"coordinates":[24.930751,60.225559],"type":"Point"},"properties":{"osm_id":"705525540","tag":{"amenity":"recycling","recycling:batteries":"yes","recycling_type":"container"}},"type":"Feature"},
	{"geometry":{"coordinates":[24.930771,60.225542],"type":"Point"},"properties":{"osm_id":"705525544","tag":{"amenity":"recycling","recycling:glass":"yes","recycling_type":"container"}},"type":"Feature"},
	{"geometry":{"coordinates":[24.923399,60.222782],"type":"Point"},"properties":{"osm_id":"705557498","tag":{"amenity":"waste_basket"}},"type":"Feature"},
	{"geometry":{"coordinates":[24.923683,60.227042],"type":"Point"},"properties":{"osm_id":"725016993","tag":{"amenity":"waste_basket"}},"type":"Feature"},
	{"geometry":{"coordinates":[24.923647,60.226926],"type":"Point"},"properties":{"osm_id":"725017000","tag":{"amenity":"waste_basket"}},"type":"Feature"},
	{"geometry":{"coordinates":[24.925332,60.227569],"type":"Point"},"properties":{"osm_id":"725027775","tag":{"amenity":"waste_basket"}},"type":"Feature"},
	{"geometry":{"coordinates":[24.923432,60.227584],"type":"Point"},"properties":{"osm_id":"725090176","tag":{"amenity":"waste_basket"}},"type":"Feature"},
	{"geometry":{"coordinates":[24.924189,60.227759],"type":"Point"},"properties":{"osm_id":"725092097","tag":{"amenity":"waste_basket"}},"type":"Feature"},
	{"geometry":{"coordinates":[24.925676,60.228005],"type":"Point"},"properties":{"osm_id":"725096642","tag":{"amenity":"waste_basket"}},"type":"Feature"},
	{"geometry":{"coordinates":[24.92737,60.227903],"type":"Point"},"properties":{"osm_id":"725097492","tag":{"amenity":"waste_basket"}},"type":"Feature"},
	{"geometry":{"coordinates":[24.927799,60.225946],"type":"Point"},"properties":{"osm_id":"725152271","tag":{"amenity":"waste_basket"}},"type":"Feature"},
	{"geometry":{"coordinates":[24.94351,60.219979],"type":"Point"},"properties":{"osm_id":"726059514","tag":{"amenity":"waste_basket"}},"type":"Feature"},
	{"geometry":{"coordinates":[24.950373,60.214219],"type":"Point"},"properties":{"osm_id":"729676456","tag":{"amenity":"waste_basket"}},"type":"Feature"},
	{"geometry":{"coordinates":[24.950023,60.21421],"type":"Point"},"properties":{"osm_id":"729676479","tag":{"amenity":"waste_basket"}},"type":"Feature"},
	{"geometry":{"coordinates":[24.927669,60.203662],"type":"Point"},"properties":{"osm_id":"738222435","tag":{"amenity":"waste_basket"}},"type":"Feature"},
	{"geometry":{"coordinates":[24.927767,60.202948],"type":"Point"},"properties":{"osm_id":"738222576","tag":{"amenity":"waste_basket"}},"type":"Feature"},
	{"geometry":{"coordinates":[24.954288,60.213992],"type":"Point"},"properties":{"osm_id":"739553357","tag":{"amenity":"waste_basket"}},"type":"Feature"},
	{"geometry":{"coordinates":[24.954195,60.214005],"type":"Point"},"properties":{"osm_id":"739553362","tag":{"amenity":"waste_basket"}},"type":"Feature"},
	{"geometry":{"coordinates":[24.931416,60.229707],"type":"Point"},"properties":{"osm_id":"740378760","tag":{"amenity":"waste_basket"}},"type":"Feature"},
	{"geometry":{"coordinates":[24.933566,60.230415],"type":"Point"},"properties":{"osm_id":"740380055","tag":{"amenity":"waste_basket"}},"type":"Feature"},
	{"geometry":{"coordinates":[24.933807,60.230301],"type":"Point"},"properties":{"osm_id":"740380056","tag":{"amenity":"waste_basket"}},"type":"Feature"},
	{"geometry":{"coordinates":[24.933575,60.229753],"type":"Point"},"properties":{"osm_id":"740383325","tag":{"amenity":"waste_basket"}},"type":"Feature"},
	{"geometry":{"coordinates":[24.933905,60.229419],"type":"Point"},"properties":{"osm_id":"740383734","tag":{"amenity":"waste_basket"}},"type":"Feature"},
	{"geometry":{"coordinates":[24.933957,60.229334],"type":"Point"},"properties":{"osm_id":"740383738","tag":{"amenity":"waste_basket"}},"type":"Feature"},
	{"geometry":{"coordinates":[24.932022,60.22791],"type":"Point"},"properties":{"osm_id":"740385273","tag":{"amenity":"waste_basket"}},"type":"Feature"},
	{"geometry":{"coordinates":[24.930508,60.228522],"type":"Point"},"properties":{"osm_id":"740386310","tag":{"amenity":"waste_basket"}},"type":"Feature"},
	{"geometry":{"coordinates":[24.931368,60.227906],"type":"Point"},"properties":{"osm_id":"740386312","tag":{"amenity":"waste_basket"}},"type":"Feature"},
	{"geometry":{"coordinates":[24.930881,60.228404],"type":"Point"},"properties":{"osm_id":"740386313","tag":{"amenity":"waste_basket"}},"type":"Feature"},
	{"geometry":{"coordinates":[24.943298,60.198483],"type":"Point"},"properties":{"osm_id":"741708824","tag":{"amenity":"waste_basket"}},"type":"Feature"},
	{"geometry":{"coordinates":[24.942503,60.197662],"type":"Point"},"properties":{"osm_id":"741708837","tag":{"amenity":"waste_basket"}},"type":"Feature"},
	{"geometry":{"coordinates":[24.943187,60.198832],"type":"Point"},"properties":{"osm_id":"741708839","tag":{"amenity":"waste_basket"}},"type":"Feature"},
	{"geometry":{"coordinates":[24.960889,60.217558],"type":"Point"},"properties":{"osm_id":"745742296","tag":{"amenity":"waste_basket"}},"type":"Feature"},
	{"geometry":{"coordinates":[24.937936,60.197773],"type":"Point"},"properties":{"osm_id":"746290382","tag":{"amenity":"waste_basket"}},"type":"Feature"},
	{"geometry":{"coordinates":[24.936773,60.197464],"type":"Point"},"properties":{"osm_id":"746292603","tag":{"amenity":"waste_basket"}},"type":"Feature"},
	{"geometry":{"coordinates":[24.937364,60.197099],"type":"Point"},"properties":{"osm_id":"746298125","tag":{"amenity":"waste_basket"}},"type":"Feature"},
	{"geometry":{"coordinates":[24.957541,60.229979],"type":"Point"},"properties":{"osm_id":"767398941","tag":{"amenity":"waste_basket"}},"type":"Feature"},
	{"geometry":{"coordinates":[24.951163,60.21603],"type":"Point"},"properties":{"osm_id":"773493306","tag":{"amenity":"waste_basket"}},"type":"Feature"},
	{"geometry":{"coordinates":[24.956009,60.216051],"type":"Point"},"properties":{"osm_id":"773521276","tag":{"amenity":"waste_basket"}},"type":"Feature"},
	{"geometry":{"coordinates":[24.923677,60.197342],"type":"Point"},"properties":{"osm_id":"779227700","tag":{"amenity":"waste_basket"}},"type":"Feature"},
	{"geometry":{"coordinates":[24.924239,60.197352],"type":"Point"},"properties":{"osm_id":"779227701","tag":{"amenity":"waste_basket"}},"type":"Feature"},
	{"geometry":{"coordinates":[24.925144,60.231299],"type":"Point"},"properties":{"osm_id":"781776056","tag":{"amenity":"waste_basket"}},"type":"Feature"},
	{"geometry":{"coordinates":[24.930093,60.229885],"type":"Point"},"properties":{"osm_id":"781807089","tag":{"amenity":"waste_basket"}},"type":"Feature"},
	{"geometry":{"coordinates":[24.928428,60.230204],"type":"Point"},"properties":{"osm_id":"781825862","tag":{"amenity":"waste_basket"}},"type":"Feature"},
	{"geometry":{"coordinates":[24.930908,60.23108],"type":"Point"},"properties":{"osm_id":"781830165","tag":{"amenity":"waste_basket"}},"type":"Feature"},
	{"geometry":{"coordinates":[24.931569,60.230915],"type":"Point"},"properties":{"osm_id":"781830167","tag":{"amenity":"waste_basket"}},"type":"Feature"},
	{"geometry":{"coordinates":[24.930337,60.230986],"type":"Point"},"properties":{"osm_id":"781830173","tag":{"amenity":"waste_basket"}},"type":"Feature"},
	{"geometry":{"coordinates":[24.92943,60.231865],"type":"Point"},"properties":{"osm_id":"781838218","tag":{"amenity":"waste_basket"}},"type":"Feature"},
	{"geometry":{"coordinates":[24.928017,60.232381],"type":"Point"},"properties":{"osm_id":"781838237","tag":{"amenity":"waste_basket"}},"type":"Feature"},
	{"geometry":{"coordinates":[24.926553,60.22924],"type":"Point"},"properties":{"osm_id":"784032084","tag":{"amenity":"waste_basket"}},"type":"Feature"},
	{"geometry":{"coordinates":[24.926976,60.231254],"type":"Point"},"properties":{"osm_id":"784052200","tag":{"amenity":"waste_basket"}},"type":"Feature"},
	{"geometry":{"coordinates":[24.927046,60.231706],"type":"Point"},"properties":{"osm_id":"784052207","tag":{"amenity":"waste_basket"}},"type":"Feature"},
	{"geometry":{"coordinates":[24.92727,60.231538],"type":"Point"},"properties":{"osm_id":"784052317","tag":{"amenity":"waste_basket"}},"type":"Feature"},
	{"geometry":{"coordinates":[24.926864,60.230437],"type":"Point"},"properties":{"osm_id":"784054331","tag":{"amenity":"waste_basket"}},"type":"Feature"},
	{"geometry":{"coordinates":[24.927103,60.23067],"type":"Point"},"properties":{"osm_id":"784054348","tag":{"amenity":"waste_basket"}},"type":"Feature"},
	{"geometry":{"coordinates":[24.903729,60.198755],"type":"Point"},"properties":{"osm_id":"800099174","tag":{"amenity":"recycling","recycling:batteries":"yes","recycling:cans":"yes","recycling:cardboard":"yes","recycling:glass":"yes","recycling:paper":"yes","recycling:scrap_metal":"yes"}},"type":"Feature"},
	{"geometry":{"coordinates":[24.891984,60.211806],"type":"Point"},"properties":{"osm_id":"813335547","tag":{"amenity":"recycling","recycling:clothes":"yes","recycling:glass":"yes"}},"type":"Feature"},
	{"geometry":{"coordinates":[24.959766,60.228569],"type":"Point"},"properties":{"osm_id":"844848600","tag":{"amenity":"waste_basket"}},"type":"Feature"},
	{"geometry":{"coordinates":[24.959344,60.229127],"type":"Point"},"properties":{"osm_id":"844848631","tag":{"amenity":"waste_basket"}},"type":"Feature"},
	{"geometry":{"coordinates":[24.956666,60.228404],"type":"Point"},"properties":{"osm_id":"844848761","tag":{"amenity":"waste_basket"}},"type":"Feature"},
	{"geometry":{"coordinates":[24.896157,60.198204],"type":"Point"},"properties":{"osm_id":"866556385","tag":{"amenity":"waste_basket"}},"type":"Feature"},
	{"geometry":{"coordinates":[24.895721,60.198233],"type":"Point"},"properties":{"osm_id":"866557784","tag":{"amenity":"waste_basket"}},"type":"Feature"},
	{"geometry":{"coordinates":[24.896321,60.197969],"type":"Point"},"properties":{"osm_id":"866557792","tag":{"amenity":"waste_basket"}},"type":"Feature"},
	{"geometry":{"coordinates":[24.932721,60.230464],"type":"Point"},"properties":{"osm_id":"879019174","tag":{"amenity":"waste_basket"}},"type":"Feature"},
	{"geometry":{"coordinates":[24.924366,60.197097],"type":"Point"},"properties":{"osm_id":"900135451","tag":{"amenity":"waste_basket"}},"type":"Feature"},
	{"geometry":{"coordinates":[24.925601,60.196899],"type":"Point"},"properties":{"osm_id":"900135504","tag":{"amenity":"waste_basket"}},"type":"Feature"},
	{"geometry":{"coordinates":[24.925895,60.196465],"type":"Point"},"properties":{"osm_id":"900135530","tag":{"amenity":"waste_basket"}},"type":"Feature"},
	{"geometry":{"coordinates":[24.924551,60.196471],"type":"Point"},"properties":{"osm_id":"900135891","tag":{"amenity":"recycling","recycling:glass":"yes"}},"type":"Feature"},
	{"geometry":{"coordinates":[24.925131,60.200157],"type":"Point"},"properties":{"osm_id":"904484379","tag":{"amenity":"waste_basket"}},"type":"Feature"},
	{"geometry":{"coordinates":[24.925042,60.199714],"type":"Point"},"properties":{"osm_id":"904484381","tag":{"amenity":"waste_basket"}},"type":"Feature"},
	{"geometry":{"coordinates":[24.899031,60.197242],"type":"Point"},"properties":{"osm_id":"913266813","tag":{"amenity":"waste_basket","guidepost":"destination"}},"type":"Feature"},
	{"geometry":{"coordinates":[24.895477,60.200653],"type":"Point"},"properties":{"osm_id":"915455650","tag":{"amenity":"waste_basket"}},"type":"Feature"},
	{"geometry":{"coordinates":[24.8986,60.199022],"type":"Point"},"properties":{"osm_id":"915455651","tag":{"amenity":"waste_basket"}},"type":"Feature"},
	{"geometry":{"coordinates":[24.893527,60.202383],"type":"Point"},"properties":{"osm_id":"915455657","tag":{"amenity":"waste_basket"}},"type":"Feature"},
	{"geometry":{"coordinates":[24.893277,60.202261],"type":"Point"},"properties":{"osm_id":"915455658","tag":{"amenity":"waste_basket"}},"type":"Feature"},
	{"geometry":{"coordinates":[24.892122,60.201459],"type":"Point"},"properties":{"osm_id":"915455670","tag":{"amenity":"waste_basket"}},"type":"Feature"},
	{"geometry":{"coordinates":[24.895071,60.197256],"type":"Point"},"properties":{"osm_id":"915459376","tag":{"amenity":"waste_basket"}},"type":"Feature"},
	{"geometry":{"coordinates":[24.893911,60.19633],"type":"Point"},"properties":{"osm_id":"915460180","tag":{"amenity":"waste_basket"}},"type":"Feature"},
	{"geometry":{"coordinates":[24.894978,60.202115],"type":"Point"},"properties":{"osm_id":"915477654","tag":{"amenity":"waste_basket"}},"type":"Feature"},
	{"geometry":{"coordinates":[24.894049,60.202254],"type":"Point"},"properties":{"osm_id":"915477664","tag":{"amenity":"waste_basket"}},"type":"Feature"},
	{"geometry":{"coordinates":[24.893329,60.201254],"type":"Point"},"properties":{"osm_id":"915477670","tag":{"amenity":"waste_basket"}},"type":"Feature"},
	{"geometry":{"coordinates":[24.882547,60.202949],"type":"Point"},"properties":{"osm_id":"919464536","tag":{"amenity":"waste_basket"}},"type":"Feature"},
	{"geometry":{"coordinates":[24.883192,60.203081],"type":"Point"},"properties":{"osm_id":"919464610","tag":{"amenity":"waste_basket"}},"type":"Feature"},
	{"geometry":{"coordinates":[24.888452,60.198961],"type":"Point"},"properties":{"osm_id":"919508837","tag":{"amenity":"waste_basket"}},"type":"Feature"},
	{"geometry":{"coordinates":[24.89373,60.202481],"type":"Point"},"properties":{"osm_id":"919508843","tag":{"amenity":"waste_basket"}},"type":"Feature"},
	{"geometry":{"coordinates":[24.889525,60.201214],"type":"Point"},"properties":{"osm_id":"919508850","tag":{"amenity":"waste_basket"}},"type":"Feature"},
	{"geometry":{"coordinates":[24.888914,60.199642],"type":"Point"},"properties":{"osm_id":"919508854","tag":{"amenity":"waste_basket"}},"type":"Feature"},
	{"geometry":{"coordinates":[24.891041,60.20219],"type":"Point"},"properties":{"osm_id":"919508857","tag":{"amenity":"waste_basket"}},"type":"Feature"},
	{"geometry":{"coordinates":[24.885122,60.198321],"type":"Point"},"properties":{"osm_id":"919518971","tag":{"amenity":"waste_basket"}},"type":"Feature"},
	{"geometry":{"coordinates":[24.885882,60.200284],"type":"Point"},"properties":{"osm_id":"919538112","tag":{"amenity":"waste_basket"}},"type":"Feature"},
	{"geometry":{"coordinates":[24.886548,60.199061],"type":"Point"},"properties":{"osm_id":"919538126","tag":{"amenity":"waste_basket"}},"type":"Feature"},
	{"geometry":{"coordinates":[24.887277,60.198752],"type":"Point"},"properties":{"osm_id":"919538133","tag":{"amenity":"waste_basket"}},"type":"Feature"},
	{"geometry":{"coordinates":[24.884938,60.201514],"type":"Point"},"properties":{"osm_id":"919547231","tag":{"amenity":"waste_basket"}},"type":"Feature"},
	{"geometry":{"coordinates":[24.883545,60.201897],"type":"Point"},"properties":{"osm_id":"919549704","tag":{"amenity":"waste_basket"}},"type":"Feature"},
	{"geometry":{"coordinates":[24.883793,60.201735],"type":"Point"},"properties":{"osm_id":"919549714","tag":{"amenity":"waste_basket"}},"type":"Feature"},
	{"geometry":{"coordinates":[24.896426,60.203723],"type":"Point"},"properties":{"osm_id":"923940904","tag":{"amenity":"waste_basket"}},"type":"Feature"},
	{"geometry":{"coordinates":[24.897703,60.203678],"type":"Point"},"properties":{"osm_id":"923940952","tag":{"amenity":"waste_basket"}},"type":"Feature"},
	{"geometry":{"coordinates":[24.89826,60.203425],"type":"Point"},"properties":{"osm_id":"923940966","tag":{"amenity":"waste_basket"}},"type":"Feature"},
	{"geometry":{"coordinates":[24.8956,60.204727],"type":"Point"},"properties":{"osm_id":"923951239","tag":{"amenity":"waste_basket"}},"type":"Feature"},
	{"geometry":{"coordinates":[24.897783,60.20343],"type":"Point"},"properties":{"osm_id":"923968032","tag":{"amenity":"waste_basket"}},"type":"Feature"},
	{"geometry":{"coordinates":[24.893933,60.204909],"type":"Point"},"properties":{"osm_id":"923973791","tag":{"amenity":"waste_basket","traffic_sign":"FI:423"}},"type":"Feature"},
	{"geometry":{"coordinates":[24.936642,60.200208],"type":"Point"},"properties":{"osm_id":"928306164","tag":{"amenity":"waste_basket"}},"type":"Feature"},
	{"geometry":{"coordinates":[24.947151,60.199753],"type":"Point"},"properties":{"osm_id":"943345337","tag":{"amenity":"waste_basket"}},"type":"Feature"},
	{"geometry":{"coordinates":[24.90599,60.197369],"type":"Point"},"properties":{"osm_id":"957955801","tag":{"amenity":"waste_basket"}},"type":"Feature"},
	{"geometry":{"coordinates":[24.903007,60.19746],"type":"Point"},"properties":{"osm_id":"957985173","tag":{"amenity":"waste_basket"}},"type":"Feature"},
	{"geometry":{"coordinates":[24.903165,60.197453],"type":"Point"},"properties":{"osm_id":"957985174","tag":{"amenity":"waste_basket"}},"type":"Feature"},
	{"geometry":{"coordinates":[24.904274,60.198938],"type":"Point"},"properties":{"osm_id":"958002342","tag":{"amenity":"waste_basket"}},"type":"Feature"},
	{"geometry":{"coordinates":[24.900074,60.197511],"type":"Point"},"properties":{"osm_id":"959550961","tag":{"amenity":"waste_basket"}},"type":"Feature"},
	{"geometry":{"coordinates":[24.891956,60.211788],"type":"Point"},"properties":{"osm_id":"970340252","tag":{"amenity":"waste_basket"}},"type":"Feature"},
	{"geometry":{"coordinates":[24.891996,60.211821],"type":"Point"},"properties":{"osm_id":"970340293","tag":{"amenity":"waste_basket"}},"type":"Feature"},
	{"geometry":{"coordinates":[24.896598,60.214401],"type":"Point"},"properties":{"osm_id":"970442457","tag":{"amenity":"waste_basket"}},"type":"Feature"},
	{"geometry":{"coordinates":[24.896468,60.213544],"type":"Point"},"properties":{"osm_id":"970442474","tag":{"amenity":"waste_basket"}},"type":"Feature"},
	{"geometry":{"coordinates":[24.937706,60.231715],"type":"Point"},"properties":{"osm_id":"974604849","tag":{"amenity":"waste_basket"}},"type":"Feature"},
	{"geometry":{"coordinates":[24.89681,60.216326],"type":"Point"},"properties":{"osm_id":"977578179","tag":{"amenity":"waste_basket"}},"type":"Feature"},
	{"geometry":{"coordinates":[24.895748,60.217935],"type":"Point"},"properties":{"osm_id":"977578207","tag":{"amenity":"waste_basket"}},"type":"Feature"},
	{"geometry":{"coordinates":[24.907347,60.220365],"type":"Point"},"properties":{"osm_id":"977588996","tag":{"amenity":"waste_basket"}},"type":"Feature"},
	{"geometry":{"coordinates":[24.954759,60.196911],"type":"Point"},"properties":{"osm_id":"982194010","tag":{"amenity":"waste_basket"}},"type":"Feature"},
	{"geometry":{"coordinates":[24.954765,60.197164],"type":"Point"},"properties":{"osm_id":"982194151","tag":{"amenity":"waste_basket"}},"type":"Feature"},
	{"geometry":{"coordinates":[24.900791,60.20123],"type":"Point"},"properties":{"osm_id":"984139515","tag":{"amenity":"waste_basket"}},"type":"Feature"},
	{"geometry":{"coordinates":[24.942006,60.213332],"type":"Point"},"properties":{"osm_id":"987818528","tag":{"amenity":"waste_basket"}},"type":"Feature"},
	{"geometry":{"coordinates":[24.891843,60.221453],"type":"Point"},"properties":{"osm_id":"990893725","tag":{"amenity":"waste_basket","traffic_sign":"FI:871[Ei talvikunnossapitoa]"}},"type":"Feature"},
	{"geometry":{"coordinates":[24.887324,60.209237],"type":"Point"},"properties":{"osm_id":"1016168784","tag":{"amenity":"waste_basket"}},"type":"Feature"},
	{"geometry":{"coordinates":[24.932441,60.231109],"type":"Point"},"properties":{"osm_id":"1103278131","tag":{"amenity":"waste_basket"}},"type":"Feature"},
	{"geometry":{"coordinates":[24.932776,60.231251],"type":"Point"},"properties":{"osm_id":"1103278152","tag":{"amenity":"waste_basket"}},"type":"Feature"},
	{"geometry":{"coordinates":[24.874835,60.204196],"type":"Point"},"properties":{"osm_id":"1112854414","tag":{"amenity":"waste_basket"}},"type":"Feature"},
	{"geometry":{"coordinates":[24.924485,60.234021],"type":"Point"},"properties":{"osm_id":"1113471603","tag":{"amenity":"recycling","recycling:clothes":"yes","recycling:paper":"yes"}},"type":"Feature"},
	{"geometry":{"coordinates":[24.909326,60.1997],"type":"Point"},"properties":{"osm_id":"1114978628","tag":{"amenity":"waste_basket"}},"type":"Feature"},
	{"geometry":{"coordinates":[24.883316,60.20453],"type":"Point"},"properties":{"osm_id":"1118481720","tag":{"amenity":"waste_basket"}},"type":"Feature"},
	{"geometry":{"coordinates":[24.882559,60.204979],"type":"Point"},"properties":{"osm_id":"1118481722","tag":{"amenity":"waste_basket"}},"type":"Feature"},
	{"geometry":{"coordinates":[24.886254,60.205412],"type":"Point"},"properties":{"osm_id":"1118481769","tag":{"amenity":"waste_basket"}},"type":"Feature"},
	{"geometry":{"coordinates":[24.883915,60.206941],"type":"Point"},"properties":{"osm_id":"1118482806","tag":{"amenity":"waste_basket"}},"type":"Feature"},
	{"geometry":{"coordinates":[24.887706,60.205608],"type":"Point"},"properties":{"osm_id":"1119751040","tag":{"amenity":"waste_basket"}},"type":"Feature"},
	{"geometry":{"coordinates":[24.888579,60.205553],"type":"Point"},"properties":{"osm_id":"1119751042","tag":{"amenity":"waste_basket"}},"type":"Feature"},
	{"geometry":{"coordinates":[24.886797,60.206602],"type":"Point"},"properties":{"osm_id":"1119751043","tag":{"amenity":"waste_basket"}},"type":"Feature"},
	{"geometry":{"coordinates":[24.886706,60.20705],"type":"Point"},"properties":{"osm_id":"1119751046","tag":{"amenity":"waste_basket"}},"type":"Feature"},
	{"geometry":{"coordinates":[24.922899,60.230716],"type":"Point"},"properties":{"osm_id":"1121628132","tag":{"amenity":"waste_basket"}},"type":"Feature"},
	{"geometry":{"coordinates":[24.877094,60.207924],"type":"Point"},"properties":{"osm_id":"1124991833","tag":{"amenity":"waste_basket"}},"type":"Feature"},
	{"geometry":{"coordinates":[24.928633,60.236884],"type":"Point"},"properties":{"osm_id":"1129460059","tag":{"amenity":"waste_basket"}},"type":"Feature"},
	{"geometry":{"coordinates":[24.928896,60.236585],"type":"Point"},"properties":{"osm_id":"1129460060","tag":{"amenity":"waste_basket"}},"type":"Feature"},
	{"geometry":{"coordinates":[24.928766,60.236877],"type":"Point"},"properties":{"osm_id":"1129460061","tag":{"amenity":"waste_basket"}},"type":"Feature"},
	{"geometry":{"coordinates":[24.917393,60.234654],"type":"Point"},"properties":{"osm_id":"1132623139","tag":{"amenity":"recycling","recycling:paper":"yes"}},"type":"Feature"},
	{"geometry":{"coordinates":[24.937607,60.220707],"type":"Point"},"properties":{"osm_id":"1367885422","tag":{"amenity":"waste_basket"}},"type":"Feature"},
	{"geometry":{"coordinates":[24.95545,60.226011],"type":"Point"},"properties":{"osm_id":"1419885821","tag":{"amenity":"waste_basket"}},"type":"Feature"},
	{"geometry":{"coordinates":[24.953796,60.226981],"type":"Point"},"properties":{"highway":"street_lamp","osm_id":"1419885862","tag":{"amenity":"waste_basket","graffiti:tag":"FLS;KONE","power":"pole"}},"type":"Feature"},
	{"geometry":{"coordinates":[24.953686,60.227708],"type":"Point"},"properties":{"highway":"street_lamp","osm_id":"1419885873","tag":{"amenity":"waste_basket","power":"pole"}},"type":"Feature"},
	{"geometry":{"coordinates":[24.955113,60.227769],"type":"Point"},"properties":{"osm_id":"1419885876","tag":{"amenity":"waste_basket","graffiti:tag":"snc"}},"type":"Feature"},
	{"geometry":{"coordinates":[24.954895,60.227872],"type":"Point"},"properties":{"osm_id":"1419885879","tag":{"amenity":"waste_basket"}},"type":"Feature"},
	{"geometry":{"coordinates":[24.944049,60.196979],"type":"Point"},"properties":{"highway":"street_lamp","osm_id":"1433252429","tag":{"amenity":"waste_basket"}},"type":"Feature"},
	{"geometry":{"coordinates":[24.944707,60.197414],"type":"Point"},"properties":{"highway":"street_lamp","osm_id":"1433275226","tag":{"amenity":"waste_basket","graffiti:tag":"bez;nsp;tlar"}},"type":"Feature"},
	{"geometry":{"coordinates":[24.94446,60.197805],"type":"Point"},"properties":{"osm_id":"1433275261","tag":{"amenity":"waste_basket"}},"type":"Feature"},
	{"geometry":{"coordinates":[24.939493,60.196917],"type":"Point"},"properties":{"osm_id":"1433283882","tag":{"amenity":"waste_basket","graffiti:tag":"was;beibe;rs"}},"type":"Feature"},
	{"geometry":{"coordinates":[24.891323,60.19717],"type":"Point"},"properties":{"osm_id":"1438423290","tag":{"amenity":"waste_basket"}},"type":"Feature"},
	{"geometry":{"coordinates":[24.90921,60.20357],"type":"Point"},"properties":{"osm_id":"1506031913","tag":{"amenity":"waste_basket"}},"type":"Feature"},
	{"geometry":{"coordinates":[24.907982,60.204332],"type":"Point"},"properties":{"osm_id":"1506031918","tag":{"amenity":"waste_basket"}},"type":"Feature"},
	{"geometry":{"coordinates":[24.893076,60.205485],"type":"Point"},"properties":{"highway":"street_lamp","osm_id":"1564948401","tag":{"amenity":"waste_basket"}},"type":"Feature"},
	{"geometry":{"coordinates":[24.893774,60.206747],"type":"Point"},"properties":{"highway":"street_lamp","osm_id":"1564948630","tag":{"amenity":"waste_basket"}},"type":"Feature"},
	{"geometry":{"coordinates":[24.952556,60.202023],"type":"Point"},"properties":{"highway":"street_lamp","osm_id":"1575405043","tag":{"amenity":"waste_basket"}},"type":"Feature"},
	{"geometry":{"coordinates":[24.953823,60.202976],"type":"Point"},"properties":{"highway":"street_lamp","osm_id":"1575405048","tag":{"amenity":"waste_basket"}},"type":"Feature"},
	{"geometry":{"coordinates":[24.946198,60.198571],"type":"Point"},"properties":{"osm_id":"1593752652","tag":{"amenity":"waste_basket"}},"type":"Feature"},
	{"geometry":{"coordinates":[24.945896,60.198751],"type":"Point"},"properties":{"highway":"street_lamp","osm_id":"1593752659","tag":{"amenity":"waste_basket"}},"type":"Feature"},
	{"geometry":{"coordinates":[24.952818,60.202211],"type":"Point"},"properties":{"osm_id":"1593752689","tag":{"amenity":"waste_basket"}},"type":"Feature"},
	{"geometry":{"coordinates":[24.9558,60.212155],"type":"Point"},"properties":{"osm_id":"1691749015","tag":{"amenity":"waste_basket"}},"type":"Feature"},
	{"geometry":{"coordinates":[24.876671,60.220891],"type":"Point"},"properties":{"highway":"street_lamp","osm_id":"1712100819","tag":{"amenity":"waste_basket","traffic_sign":"FI:531"}},"type":"Feature"},
	{"geometry":{"coordinates":[24.956489,60.215905],"type":"Point"},"properties":{"highway":"street_lamp","osm_id":"1721112707","tag":{"amenity":"waste_basket"}},"type":"Feature"},
	{"geometry":{"coordinates":[24.907753,60.202395],"type":"Point"},"properties":{"osm_id":"1746848969","tag":{"amenity":"waste_basket"}},"type":"Feature"},
	{"geometry":{"coordinates":[24.907292,60.202608],"type":"Point"},"properties":{"osm_id":"1746848972","tag":{"amenity":"waste_basket"}},"type":"Feature"},
	{"geometry":{"coordinates":[24.95569,60.196561],"type":"Point"},"properties":{"highway":"street_lamp","osm_id":"1859051631","tag":{"amenity":"waste_basket"}},"type":"Feature"},
	{"geometry":{"coordinates":[24.881274,60.204976],"type":"Point"},"properties":{"osm_id":"1948168931","tag":{"amenity":"waste_basket"}},"type":"Feature"},
	{"geometry":{"coordinates":[24.878908,60.20633],"type":"Point"},"properties":{"osm_id":"1995886893","tag":{"amenity":"recycling","recycling:clothes":"yes","recycling_type":"container"}},"type":"Feature"},
	{"geometry":{"coordinates":[24.883407,60.209523],"type":"Point"},"properties":{"osm_id":"2017949649","tag":{"amenity":"waste_basket"}},"type":"Feature"},
	{"geometry":{"coordinates":[24.88452,60.209561],"type":"Point"},"properties":{"osm_id":"2017949651","tag":{"amenity":"recycling","recycling:paper":"yes"}},"type":"Feature"},
	{"geometry":{"coordinates":[24.88586,60.209778],"type":"Point"},"properties":{"osm_id":"2017949660","tag":{"amenity":"waste_basket"}},"type":"Feature"},
	{"geometry":{"coordinates":[24.883277,60.210366],"type":"Point"},"properties":{"osm_id":"2018050817","tag":{"amenity":"waste_basket"}},"type":"Feature"},
	{"geometry":{"coordinates":[24.883497,60.212988],"type":"Point"},"properties":{"osm_id":"2041709620","tag":{"amenity":"waste_basket"}},"type":"Feature"},
	{"geometry":{"coordinates":[24.885864,60.213062],"type":"Point"},"properties":{"osm_id":"2045984767","tag":{"amenity":"waste_basket"}},"type":"Feature"},
	{"geometry":{"coordinates":[24.874592,60.236706],"type":"Point"},"properties":{"osm_id":"2204351465","tag":{"amenity":"waste_basket"}},"type":"Feature"},
	{"geometry":{"coordinates":[24.953369,60.238888],"type":"Point"},"properties":{"osm_id":"2288453284","tag":{"amenity":"waste_basket"}},"type":"Feature"},
	{"geometry":{"coordinates":[24.949221,60.197703],"type":"Point"},"properties":{"osm_id":"2313253519","tag":{"amenity":"waste_basket"}},"type":"Feature"},
	{"geometry":{"coordinates":[24.952903,60.196315],"type":"Point"},"properties":{"osm_id":"2313254379","tag":{"amenity":"waste_basket"}},"type":"Feature"},
	{"geometry":{"coordinates":[24.953698,60.229968],"type":"Point"},"properties":{"osm_id":"2413915296","tag":{"amenity":"waste_basket"}},"type":"Feature"},
	{"geometry":{"coordinates":[24.953389,60.229976],"type":"Point"},"properties":{"osm_id":"2413915298","tag":{"amenity":"waste_basket"}},"type":"Feature"},
	{"geometry":{"coordinates":[24.955586,60.216702],"type":"Point"},"properties":{"osm_id":"2413949813","tag":{"amenity":"waste_basket"}},"type":"Feature"},
	{"geometry":{"coordinates":[24.955847,60.216235],"type":"Point"},"properties":{"osm_id":"2414239871","tag":{"amenity":"waste_basket"}},"type":"Feature"},
	{"geometry":{"coordinates":[24.915792,60.203396],"type":"Point"},"properties":{"highway":"street_lamp","osm_id":"2441199868","tag":{"amenity":"waste_basket","power":"pole"}},"type":"Feature"},
	{"geometry":{"coordinates":[24.907355,60.202723],"type":"Point"},"properties":{"osm_id":"2441326841","tag":{"amenity":"waste_basket"}},"type":"Feature"},
	{"geometry":{"coordinates":[24.914253,60.204526],"type":"Point"},"properties":{"osm_id":"2441333085","tag":{"amenity":"waste_basket"}},"type":"Feature"},
	{"geometry":{"coordinates":[24.921738,60.201615],"type":"Point"},"properties":{"osm_id":"2445722103","tag":{"amenity":"waste_basket"}},"type":"Feature"},
	{"geometry":{"coordinates":[24.921217,60.20181],"type":"Point"},"properties":{"osm_id":"2445722154","tag":{"amenity":"waste_basket"}},"type":"Feature"},
	{"geometry":{"coordinates":[24.920628,60.201446],"type":"Point"},"properties":{"osm_id":"2445730735","tag":{"amenity":"recycling","recycling:clothes":"yes","recycling:glass":"yes"}},"type":"Feature"},
	{"geometry":{"coordinates":[24.920847,60.20046],"type":"Point"},"properties":{"osm_id":"2445907438","tag":{"amenity":"waste_basket"}},"type":"Feature"},
	{"geometry":{"coordinates":[24.927308,60.197403],"type":"Point"},"properties":{"osm_id":"2446384286","tag":{"amenity":"recycling","recycling:glass":"yes"}},"type":"Feature"},
	{"geometry":{"coordinates":[24.900735,60.223372],"type":"Point"},"properties":{"osm_id":"2470156414","tag":{"amenity":"waste_basket","was:traffic_sign":"FI:531"}},"type":"Feature"},
	{"geometry":{"coordinates":[24.923893,60.232799],"type":"Point"},"properties":{"osm_id":"2703713136","tag":{"amenity":"waste_basket","traffic_sign":"FI:312"}},"type":"Feature"},
	{"geometry":{"coordinates":[24.949706,60.221939],"type":"Point"},"properties":{"osm_id":"2874231616","tag":{"amenity":"recycling"}},"type":"Feature"},
	{"geometry":{"coordinates":[24.925736,60.197937],"type":"Point"},"properties":{"osm_id":"2883160895","tag":{"amenity":"waste_basket","traffic_sign":"FI:423"}},"type":"Feature"},
	{"geometry":{"coordinates":[24.8916,60.208991],"type":"Point"},"properties":{"osm_id":"2927575678","tag":{"amenity":"waste_basket","traffic_sign":"FI:425","traffic_sign:2":"FI:871[Sallittu mopoille]"}},"type":"Feature"},
	{"geometry":{"coordinates":[24.91545,60.230442],"type":"Point"},"properties":{"osm_id":"3055711589","tag":{"amenity":"waste_basket","traffic_sign":"FI:645","traffic_sign:2":"FI:645[J\u00e4\u00e4halli]"}},"type":"Feature"},
	{"geometry":{"coordinates":[24.913261,60.238977],"type":"Point"},"properties":{"osm_id":"3058027504","tag":{"amenity":"waste_basket","traffic_sign":"FI:531"}},"type":"Feature"},
	{"geometry":{"coordinates":[24.878592,60.206721],"type":"Point"},"properties":{"osm_id":"3161978100","tag":{"amenity":"waste_basket"}},"type":"Feature"},
	{"geometry":{"coordinates":[24.876833,60.200872],"type":"Point"},"properties":{"osm_id":"3170856588","tag":{"amenity":"waste_basket"}},"type":"Feature"},
	{"geometry":{"coordinates":[24.882732,60.197072],"type":"Point"},"properties":{"osm_id":"3184659006","tag":{"amenity":"waste_basket","traffic_sign":"FI:531"}},"type":"Feature"},
	{"geometry":{"coordinates":[24.88981,60.208542],"type":"Point"},"properties":{"osm_id":"3188075898","tag":{"amenity":"waste_basket"}},"type":"Feature"},
	{"geometry":{"coordinates":[24.892806,60.208135],"type":"Point"},"properties":{"osm_id":"3188123517","tag":{"amenity":"waste_basket"}},"type":"Feature"},
	{"geometry":{"coordinates":[24.941553,60.221551],"type":"Point"},"properties":{"osm_id":"3190158889","tag":{"amenity":"waste_basket"}},"type":"Feature"},
	{"geometry":{"coordinates":[24.898422,60.203237],"type":"Point"},"properties":{"osm_id":"3193199783","tag":{"amenity":"waste_basket","traffic_sign":"FI:533"}},"type":"Feature"},
	{"geometry":{"coordinates":[24.895607,60.204039],"type":"Point"},"properties":{"osm_id":"3193199808","tag":{"amenity":"waste_basket"}},"type":"Feature"},
	{"geometry":{"coordinates":[24.892573,60.20534],"type":"Point"},"properties":{"osm_id":"3193199833","tag":{"amenity":"waste_basket"}},"type":"Feature"},
	{"geometry":{"coordinates":[24.895601,60.205319],"type":"Point"},"properties":{"osm_id":"3193663636","tag":{"amenity":"waste_basket"}},"type":"Feature"},
	{"geometry":{"coordinates":[24.895916,60.204932],"type":"Point"},"properties":{"osm_id":"3193679062","tag":{"amenity":"waste_basket"}},"type":"Feature"},
	{"geometry":{"coordinates":[24.891815,60.206058],"type":"Point"},"properties":{"osm_id":"3193695569","tag":{"amenity":"waste_basket"}},"type":"Feature"},
	{"geometry":{"coordinates":[24.890576,60.206047],"type":"Point"},"properties":{"osm_id":"3193697944","tag":{"amenity":"waste_basket"}},"type":"Feature"},
	{"geometry":{"coordinates":[24.892968,60.206115],"type":"Point"},"properties":{"osm_id":"3193714046","tag":{"amenity":"waste_basket"}},"type":"Feature"},
	{"geometry":{"coordinates":[24.892542,60.210878],"type":"Point"},"properties":{"osm_id":"3196659020","tag":{"amenity":"waste_basket"}},"type":"Feature"},
	{"geometry":{"coordinates":[24.901312,60.212081],"type":"Point"},"properties":{"osm_id":"3197457534","tag":{"amenity":"waste_basket"}},"type":"Feature"},
	{"geometry":{"coordinates":[24.95439,60.211822],"type":"Point"},"properties":{"osm_id":"3201583335","tag":{"amenity":"waste_basket"}},"type":"Feature"},
	{"geometry":{"coordinates":[24.898773,60.215204],"type":"Point"},"properties":{"osm_id":"3203002254","tag":{"amenity":"waste_basket"}},"type":"Feature"},
	{"geometry":{"coordinates":[24.923715,60.197535],"type":"Point"},"properties":{"osm_id":"3213831555","tag":{"amenity":"waste_basket"}},"type":"Feature"},
	{"geometry":{"coordinates":[24.94645,60.207501],"type":"Point"},"properties":{"osm_id":"3226154949","tag":{"amenity":"waste_basket"}},"type":"Feature"},
	{"geometry":{"coordinates":[24.890197,60.206508],"type":"Point"},"properties":{"osm_id":"3236088059","tag":{"amenity":"waste_basket"}},"type":"Feature"},
	{"geometry":{"coordinates":[24.88916,60.205784],"type":"Point"},"properties":{"osm_id":"3236089493","tag":{"amenity":"waste_basket"}},"type":"Feature"},
	{"geometry":{"coordinates":[24.891734,60.204914],"type":"Point"},"properties":{"osm_id":"3236098445","tag":{"amenity":"waste_basket"}},"type":"Feature"},
	{"geometry":{"coordinates":[24.879579,60.213062],"type":"Point"},"properties":{"osm_id":"3348622905","tag":{"amenity":"waste_basket","traffic_sign":"FI:331"}},"type":"Feature"},
	{"geometry":{"coordinates":[24.904388,60.227644],"type":"Point"},"properties":{"osm_id":"3368632408","tag":{"amenity":"waste_basket","traffic_sign":"FI:521;FI:521","traffic_sign:2":"FI:521b;FI:521b"}},"type":"Feature"},
	{"geometry":{"coordinates":[24.891226,60.22612],"type":"Point"},"properties":{"osm_id":"3370872133","tag":{"amenity":"waste_basket","traffic_sign":"FI:373","traffic_sign:2":"FI:871[Yksityisalue]","traffic_sign:3":"FI:871[Luvaton pys\u00e4k\u00f6inti kielletty]"}},"type":"Feature"},
	{"geometry":{"coordinates":[24.884155,60.230616],"type":"Point"},"properties":{"osm_id":"3372283907","tag":{"amenity":"waste_basket","traffic_sign":"FI:423"}},"type":"Feature"},
	{"geometry":{"coordinates":[24.877701,60.239498],"type":"Point"},"properties":{"osm_id":"3385916628","tag":{"amenity":"waste_basket","traffic_sign":"FI:521","traffic_sign:2":"FI:854[24 h]","traffic_sign:3":"FI:521a[down]"}},"type":"Feature"},
	{"geometry":{"coordinates":[24.889864,60.238313],"type":"Point"},"properties":{"osm_id":"3386574221","tag":{"amenity":"waste_basket","traffic_sign":"FI:312"}},"type":"Feature"},
	{"geometry":{"coordinates":[24.926837,60.197326],"type":"Point"},"properties":{"osm_id":"3462089864","tag":{"amenity":"waste_basket","traffic_sign":"FI:645[Munkkiniemi];FI:645[Pasila, as.][0,5]","traffic_sign:2":"FI:645[Ruskeasuo][1,5]"}},"type":"Feature"},
	{"geometry":{"coordinates":[24.889922,60.224284],"type":"Point"},"properties":{"osm_id":"3522459266","tag":{"amenity":"waste_basket"}},"type":"Feature"},
	{"geometry":{"coordinates":[24.898271,60.215737],"type":"Point"},"properties":{"osm_id":"3556822515","tag":{"amenity":"waste_basket"}},"type":"Feature"},
	{"geometry":{"coordinates":[24.899228,60.218228],"type":"Point"},"properties":{"osm_id":"3556872695","tag":{"amenity":"waste_basket"}},"type":"Feature"},
	{"geometry":{"coordinates":[24.932435,60.226413],"type":"Point"},"properties":{"osm_id":"3729926793","tag":{"amenity":"waste_basket"}},"type":"Feature"},
	{"geometry":{"coordinates":[24.909103,60.20161],"type":"Point"},"properties":{"osm_id":"3828488299","tag":{"amenity":"waste_basket"}},"type":"Feature"},
	{"geometry":{"coordinates":[24.908966,60.201906],"type":"Point"},"properties":{"osm_id":"3828489290","tag":{"amenity":"waste_basket"}},"type":"Feature"},
	{"geometry":{"coordinates":[24.908264,60.201294],"type":"Point"},"properties":{"osm_id":"3828489762","tag":{"amenity":"waste_basket"}},"type":"Feature"},
	{"geometry":{"coordinates":[24.908457,60.2015],"type":"Point"},"properties":{"osm_id":"3828489791","tag":{"amenity":"waste_basket"}},"type":"Feature"},
	{"geometry":{"coordinates":[24.944471,60.209548],"type":"Point"},"properties":{"osm_id":"3858430157","tag":{"amenity":"waste_basket"}},"type":"Feature"},
	{"geometry":{"coordinates":[24.942275,60.215171],"type":"Point"},"properties":{"osm_id":"3875789158","tag":{"amenity":"waste_basket"}},"type":"Feature"},
	{"geometry":{"coordinates":[24.873587,60.233596],"type":"Point"},"properties":{"osm_id":"4153989557","tag":{"amenity":"waste_basket"}},"type":"Feature"},
	{"geometry":{"coordinates":[24.87426,60.233312],"type":"Point"},"properties":{"osm_id":"4172852095","tag":{"amenity":"waste_basket"}},"type":"Feature"},
	{"geometry":{"coordinates":[24.88173,60.239533],"type":"Point"},"properties":{"osm_id":"5368689445","tag":{"amenity":"waste_basket"}},"type":"Feature"},
	{"geometry":{"coordinates":[24.882524,60.239526],"type":"Point"},"properties":{"osm_id":"5368689446","tag":{"amenity":"waste_basket"}},"type":"Feature"},
	{"geometry":{"coordinates":[24.883716,60.239637],"type":"Point"},"properties":{"osm_id":"5368689448","tag":{"amenity":"waste_basket"}},"type":"Feature"},
	{"geometry":{"coordinates":[24.874258,60.229535],"type":"Point"},"properties":{"osm_id":"5619907777","tag":{"amenity":"waste_basket"}},"type":"Feature"},
	{"geometry":{"coordinates":[24.95937,60.198867],"type":"Point"},"properties":{"osm_id":"5624690265","tag":{"amenity":"waste_basket"}},"type":"Feature"},
	{"geometry":{"coordinates":[24.959596,60.198919],"type":"Point"},"properties":{"osm_id":"5624690266","tag":{"amenity":"waste_basket"}},"type":"Feature"},
	{"geometry":{"coordinates":[24.960095,60.198893],"type":"Point"},"properties":{"osm_id":"5624690267","tag":{"amenity":"waste_basket"}},"type":"Feature"},
	{"geometry":{"coordinates":[24.960468,60.198758],"type":"Point"},"properties":{"osm_id":"5624690268","tag":{"amenity":"waste_basket"}},"type":"Feature"},
	{"geometry":{"coordinates":[24.96018,60.198009],"type":"Point"},"properties":{"osm_id":"5624694000","tag":{"amenity":"waste_basket"}},"type":"Feature"},
	{"geometry":{"coordinates":[24.960205,60.198236],"type":"Point"},"properties":{"osm_id":"5624694005","tag":{"amenity":"waste_basket"}},"type":"Feature"},
	{"geometry":{"coordinates":[24.960728,60.197634],"type":"Point"},"properties":{"osm_id":"5624695520","tag":{"amenity":"waste_basket"}},"type":"Feature"},
	{"geometry":{"coordinates":[24.960937,60.197774],"type":"Point"},"properties":{"osm_id":"5624698849","tag":{"amenity":"waste_basket"}},"type":"Feature"},
	{"geometry":{"coordinates":[24.960653,60.198049],"type":"Point"},"properties":{"osm_id":"5624698850","tag":{"amenity":"waste_basket"}},"type":"Feature"},
	{"geometry":{"coordinates":[24.959907,60.198226],"type":"Point"},"properties":{"osm_id":"5624698851","tag":{"amenity":"waste_basket"}},"type":"Feature"},
	{"geometry":{"coordinates":[24.960626,60.196973],"type":"Point"},"properties":{"osm_id":"5677487897","tag":{"amenity":"waste_basket"}},"type":"Feature"},
	{"geometry":{"coordinates":[24.959611,60.205611],"type":"Point"},"properties":{"osm_id":"5680126303","tag":{"amenity":"waste_basket"}},"type":"Feature"},
	{"geometry":{"coordinates":[24.950465,60.199027],"type":"Point"},"properties":{"osm_id":"5680132481","tag":{"amenity":"waste_basket"}},"type":"Feature"},
	{"geometry":{"coordinates":[24.931941,60.233681],"type":"Point"},"properties":{"osm_id":"5780849453","tag":{"amenity":"recycling"}},"type":"Feature"},
	{"geometry":{"coordinates":[24.904158,60.228061],"type":"Point"},"properties":{"osm_id":"5948459897","tag":{"amenity":"recycling","operator":"UFF","recycling:clothes":"yes","recycling_type":"container"}},"type":"Feature"},
	{"geometry":{"coordinates":[24.889243,60.237972],"type":"Point"},"properties":{"osm_id":"5955097822","tag":{"addr:city":"Helsinki","addr:housenumber":"2","addr:postcode":"00420","addr:street":"Laulukuja","amenity":"recycling","operator":"HSY","recycling:batteries":"yes","recycling:car_batteries":"yes","recycling:fluorescent_tubes":"yes","recycling:hazardous_waste":"yes","recycling:low_energy_bulbs":"yes","recycling_type":"container"}},"type":"Feature"},
	{"geometry":{"coordinates":[24.958843,60.210148],"type":"Point"},"properties":{"osm_id":"5974744714","tag":{"amenity":"waste_basket"}},"type":"Feature"},
	{"geometry":{"coordinates":[24.959192,60.208846],"type":"Point"},"properties":{"osm_id":"5974744715","tag":{"amenity":"waste_basket"}},"type":"Feature"},
	{"geometry":{"coordinates":[24.891445,60.236834],"type":"Point"},"properties":{"name":"Emmy","osm_id":"6030442451","tag":{"addr:city":"Helsinki","addr:housename":"Kaari","addr:housenumber":"1","addr:postcode":"00420","addr:street":"Kantelettarentie","amenity":"recycling","level":"-1","recycling:clothes":"yes","recycling_type":"container"}},"type":"Feature"},
	{"geometry":{"coordinates":[24.947771,60.201714],"type":"Point"},"properties":{"osm_id":"6051940476","tag":{"amenity":"waste_basket"}},"type":"Feature"},
	{"geometry":{"coordinates":[24.943039,60.217233],"type":"Point"},"properties":{"osm_id":"6055152278","tag":{"amenity":"waste_basket"}},"type":"Feature"},
	{"geometry":{"coordinates":[24.943141,60.217387],"type":"Point"},"properties":{"osm_id":"6055152279","tag":{"amenity":"waste_basket"}},"type":"Feature"},
	{"geometry":{"coordinates":[24.946191,60.219723],"type":"Point"},"properties":{"highway":"street_lamp","osm_id":"6055153107","tag":{"amenity":"waste_basket"}},"type":"Feature"},
	{"geometry":{"coordinates":[24.893636,60.237099],"type":"Point"},"properties":{"name":"Pullonpalautus","osm_id":"6080795895","tag":{"addr:city":"Helsinki","addr:housename":"Kaari","addr:housenumber":"1","addr:postcode":"00420","addr:street":"Kantelettarentie","amenity":"recycling","level":"1","opening_hours":"Mo-Su,PH 00:00-23:59,00:00-23:59","recycling:glass_bottles":"yes","recycling:plastic_bottles":"yes","recycling_type":"centre"}},"type":"Feature"},
	{"geometry":{"coordinates":[24.895837,60.209401],"type":"Point"},"properties":{"osm_id":"6138264915","tag":{"amenity":"waste_basket"}},"type":"Feature"},
	{"geometry":{"coordinates":[24.960905,60.19713],"type":"Point"},"properties":{"osm_id":"6253881654","tag":{"amenity":"waste_basket"}},"type":"Feature"},
	{"geometry":{"coordinates":[24.960362,60.198867],"type":"Point"},"properties":{"osm_id":"6464565896","tag":{"amenity":"waste_basket"}},"type":"Feature"},
	{"geometry":{"coordinates":[24.953901,60.198792],"type":"Point"},"properties":{"osm_id":"6464593839","tag":{"amenity":"waste_basket"}},"type":"Feature"},
	{"geometry":{"coordinates":[24.950337,60.198805],"type":"Point"},"properties":{"osm_id":"6464593840","tag":{"amenity":"waste_basket","waste":"drugs"}},"type":"Feature"},
	{"geometry":{"coordinates":[24.895361,60.226738],"type":"Point"},"properties":{"osm_id":"6488345421","tag":{"amenity":"waste_basket"}},"type":"Feature"},
	{"geometry":{"coordinates":[24.875978,60.239578],"type":"Point"},"properties":{"name":"huumeruiskuastia","osm_id":"6502295315","tag":{"amenity":"waste_basket","name:fi":"huumeruiskuastia","waste":"hazardious"}},"type":"Feature"},
	{"geometry":{"coordinates":[24.876152,60.239508],"type":"Point"},"properties":{"osm_id":"6502295316","tag":{"amenity":"waste_basket"}},"type":"Feature"},
	{"geometry":{"coordinates":[24.87638,60.239424],"type":"Point"},"properties":{"osm_id":"6502295317","tag":{"amenity":"waste_basket"}},"type":"Feature"},
	{"geometry":{"coordinates":[24.875451,60.239293],"type":"Point"},"properties":{"osm_id":"6502295318","tag":{"amenity":"waste_basket"}},"type":"Feature"},
	{"geometry":{"coordinates":[24.875266,60.239079],"type":"Point"},"properties":{"osm_id":"6502295319","tag":{"amenity":"waste_basket"}},"type":"Feature"},
	{"geometry":{"coordinates":[24.876132,60.239121],"type":"Point"},"properties":{"osm_id":"6502295320","tag":{"amenity":"waste_basket"}},"type":"Feature"},
	{"geometry":{"coordinates":[24.873788,60.21407],"type":"Point"},"properties":{"name":"Hope \u00e2\u0080\u0093 Yhdess\u00c3\u00a4 & Yhteisesti ry p\u00c3\u00a4\u00c3\u00a4kaupunkiseutu","osm_id":"6515980507","tag":{"addr:housenumber":"6","addr:street":"Kutomotie","amenity":"recycling","opening_hours":"Mo-Th 09:00-15:00","recycling:books":"no","recycling:cds":"no","recycling:clothes":"yes","recycling:furniture":"no","recycling:waste":"no","recycling_type":"centre","website":"https://hopeyhdistys.fi/paikallistoimisto/hope-ry-paakaupunkiseutu/"}},"type":"Feature"},
	{"geometry":{"coordinates":[24.948602,60.204465],"type":"Point"},"properties":{"osm_id":"6684816624","tag":{"amenity":"waste_basket"}},"type":"Feature"},
	{"geometry":{"coordinates":[24.948011,60.204619],"type":"Point"},"properties":{"osm_id":"6684816625","tag":{"amenity":"waste_basket"}},"type":"Feature"},
	{"geometry":{"coordinates":[24.948824,60.204262],"type":"Point"},"properties":{"osm_id":"6684816626","tag":{"amenity":"waste_basket"}},"type":"Feature"},
	{"geometry":{"coordinates":[24.948554,60.204295],"type":"Point"},"properties":{"osm_id":"6684816627","tag":{"amenity":"waste_basket"}},"type":"Feature"},
	{"geometry":{"coordinates":[24.949149,60.204523],"type":"Point"},"properties":{"osm_id":"6684816652","tag":{"amenity":"waste_basket"}},"type":"Feature"},
	{"geometry":{"coordinates":[24.948004,60.203778],"type":"Point"},"properties":{"osm_id":"6684837091","tag":{"amenity":"waste_basket"}},"type":"Feature"},
	{"geometry":{"coordinates":[24.9477,60.203802],"type":"Point"},"properties":{"osm_id":"6684837092","tag":{"amenity":"waste_basket"}},"type":"Feature"},
	{"geometry":{"coordinates":[24.948723,60.204905],"type":"Point"},"properties":{"osm_id":"6684842304","tag":{"amenity":"waste_basket"}},"type":"Feature"},
	{"geometry":{"coordinates":[24.948636,60.205027],"type":"Point"},"properties":{"osm_id":"6684842305","tag":{"amenity":"waste_basket"}},"type":"Feature"},
	{"geometry":{"coordinates":[24.948877,60.204741],"type":"Point"},"properties":{"osm_id":"6684842306","tag":{"amenity":"waste_basket"}},"type":"Feature"},
	{"geometry":{"coordinates":[24.945749,60.197591],"type":"Point"},"properties":{"osm_id":"6738245373","tag":{"amenity":"waste_basket"}},"type":"Feature"},
	{"geometry":{"coordinates":[24.900086,60.204787],"type":"Point"},"properties":{"osm_id":"6840743566","tag":{"amenity":"waste_basket"}},"type":"Feature"},
	{"geometry":{"coordinates":[24.959911,60.197474],"type":"Point"},"properties":{"osm_id":"7243404749","tag":{"amenity":"waste_basket","material":"metal","waste":"trash"}},"type":"Feature"},
	{"geometry":{"coordinates":[24.959465,60.197423],"type":"Point"},"properties":{"osm_id":"7243404750","tag":{"amenity":"waste_basket","material":"metal","waste":"trash"}},"type":"Feature"},
	{"geometry":{"coordinates":[24.959828,60.19744],"type":"Point"},"properties":{"osm_id":"7246228250","tag":{"amenity":"waste_basket","material":"metal","waste":"trash"}},"type":"Feature"},
	{"geometry":{"coordinates":[24.95967,60.197221],"type":"Point"},"properties":{"osm_id":"7246228251","tag":{"amenity":"waste_basket","material":"metal","waste":"trash"}},"type":"Feature"},
	{"geometry":{"coordinates":[24.943588,60.200737],"type":"Point"},"properties":{"osm_id":"7618294903","tag":{"amenity":"waste_basket"}},"type":"Feature"},
	{"geometry":{"coordinates":[24.916464,60.221119],"type":"Point"},"properties":{"osm_id":"7633162552","tag":{"amenity":"waste_basket"}},"type":"Feature"},
	{"geometry":{"coordinates":[24.916138,60.231506],"type":"Point"},"properties":{"osm_id":"7637899696","tag":{"amenity":"waste_basket"}},"type":"Feature"},
	{"geometry":{"coordinates":[24.914918,60.231961],"type":"Point"},"properties":{"osm_id":"7637908447","tag":{"amenity":"waste_basket"}},"type":"Feature"},
	{"geometry":{"coordinates":[24.925387,60.199511],"type":"Point"},"properties":{"name":"Palpa","osm_id":"7652947670","tag":{"addr:housenumber":"9","addr:street":"Pasilanraitio","amenity":"recycling","level":"1"}},"type":"Feature"},
	{"geometry":{"coordinates":[24.920733,60.203855],"type":"Point"},"properties":{"osm_id":"7663144784","tag":{"addr:housenumber":"3","addr:street":"Hy\u00f6kk\u00e4ystie","addr:unit":"B","amenity":"recycling","level":"1"}},"type":"Feature"},
	{"geometry":{"coordinates":[24.919498,60.203306],"type":"Point"},"properties":{"osm_id":"7669570544","tag":{"addr:housenumber":"13","addr:street":"Radiokatu","amenity":"recycling","level":"1"}},"type":"Feature"},
	{"geometry":{"coordinates":[24.921527,60.20324],"type":"Point"},"properties":{"osm_id":"7669570555","tag":{"addr:housenumber":"6","addr:street":"Hy\u00f6kk\u00e4ystie","addr:unit":"A","amenity":"recycling","level":"1"}},"type":"Feature"},
	{"geometry":{"coordinates":[24.952968,60.206528],"type":"Point"},"properties":{"osm_id":"7681134724","tag":{"amenity":"waste_basket","waste_basket":"molok"}},"type":"Feature"},
	{"geometry":{"coordinates":[24.936443,60.197005],"type":"Point"},"properties":{"osm_id":"7801664527","tag":{"amenity":"waste_basket","layer":"1"}},"type":"Feature"}
]
}
