{
"type": "FeatureCollection",
"features": [
	{"geometry":{"coordinates":[24.887666,41.144232],"type":"Point"},"properties":{"name":"1\u00ce\u00bf \u00ce\u0094\u00ce\u00b7\u00ce\u00bc\u00ce\u00bf\u00cf\u0084\u00ce\u00b9\u00ce\u00ba\u00cf\u008c \u00ce\u00a3\u00cf\u0087\u00ce\u00bf\u00ce\u00bb\u00ce\u00b5\u00ce\u00af\u00ce\u00bf \u00ce\u009e\u00ce\u00ac\u00ce\u00bd\u00ce\u00b8\u00ce\u00b7\u00cf\u0082","osm_id":"3102844676","tag":{"amenity":"waste_disposal"}},"type":"Feature"},
	{"geometry":{"coordinates":[24.883043,41.134712],"type":"Point"},"properties":{"osm_id":"5262266222","tag":{"amenity":"waste_disposal"}},"type":"Feature"},
	{"geometry":{"coordinates":[24.883499,41.1349],"type":"Point"},"properties":{"osm_id":"5262266421","tag":{"amenity":"waste_disposal"}},"type":"Feature"},
	{"geometry":{"coordinates":[24.882866,41.134731],"type":"Point"},"properties":{"osm_id":"5262266423","tag":{"amenity":"waste_disposal"}},"type":"Feature"},
	{"geometry":{"coordinates":[24.881876,41.134812],"type":"Point"},"properties":{"osm_id":"5262266424","tag":{"amenity":"waste_disposal"}},"type":"Feature"},
	{"geometry":{"coordinates":[24.881702,41.13483],"type":"Point"},"properties":{"osm_id":"5262266426","tag":{"amenity":"waste_disposal"}},"type":"Feature"},
	{"geometry":{"coordinates":[24.881035,41.134852],"type":"Point"},"properties":{"osm_id":"5262266428","tag":{"amenity":"waste_disposal"}},"type":"Feature"},
	{"geometry":{"coordinates":[24.889796,41.137481],"type":"Point"},"properties":{"osm_id":"5262266430","tag":{"amenity":"waste_disposal"}},"type":"Feature"},
	{"geometry":{"coordinates":[24.883527,41.13515],"type":"Point"},"properties":{"osm_id":"5262266521","tag":{"amenity":"waste_disposal"}},"type":"Feature"},
	{"geometry":{"coordinates":[24.889607,41.137837],"type":"Point"},"properties":{"osm_id":"5262266522","tag":{"amenity":"waste_disposal"}},"type":"Feature"},
	{"geometry":{"coordinates":[24.887311,41.141832],"type":"Point"},"properties":{"osm_id":"5263428922","tag":{"amenity":"waste_disposal"}},"type":"Feature"},
	{"geometry":{"coordinates":[24.886453,41.140918],"type":"Point"},"properties":{"osm_id":"5263428923","tag":{"amenity":"waste_disposal"}},"type":"Feature"},
	{"geometry":{"coordinates":[24.889583,41.133906],"type":"Point"},"properties":{"osm_id":"5271968721","tag":{"amenity":"waste_disposal"}},"type":"Feature"},
	{"geometry":{"coordinates":[24.894471,41.132007],"type":"Point"},"properties":{"osm_id":"5271969121","tag":{"amenity":"waste_disposal"}},"type":"Feature"}
]
}
