{
"type": "FeatureCollection",
"features": [
	{"geometry":{"coordinates":[39.027558,45.043615],"type":"Point"},"properties":{"osm_id":"5126190877","tag":{"natural":"tree"}},"type":"Feature"},
	{"geometry":{"coordinates":[39.027564,45.043482],"type":"Point"},"properties":{"osm_id":"5126190878","tag":{"natural":"tree"}},"type":"Feature"},
	{"geometry":{"coordinates":[39.027569,45.043346],"type":"Point"},"properties":{"osm_id":"5126190879","tag":{"natural":"tree"}},"type":"Feature"},
	{"geometry":{"coordinates":[39.02758,45.043198],"type":"Point"},"properties":{"osm_id":"5126190880","tag":{"natural":"tree"}},"type":"Feature"},
	{"geometry":{"coordinates":[39.027586,45.043058],"type":"Point"},"properties":{"osm_id":"5126190881","tag":{"natural":"tree"}},"type":"Feature"},
	{"geometry":{"coordinates":[39.027591,45.042937],"type":"Point"},"properties":{"osm_id":"5126190882","tag":{"denotation":"alley","natural":"tree"}},"type":"Feature"},
	{"geometry":{"coordinates":[39.027746,45.04289],"type":"Point"},"properties":{"osm_id":"5126190883","tag":{"natural":"tree"}},"type":"Feature"},
	{"geometry":{"coordinates":[39.027928,45.042898],"type":"Point"},"properties":{"osm_id":"5126190884","tag":{"natural":"tree"}},"type":"Feature"},
	{"geometry":{"coordinates":[39.028115,45.042898],"type":"Point"},"properties":{"osm_id":"5126190885","tag":{"natural":"tree"}},"type":"Feature"},
	{"geometry":{"coordinates":[39.028303,45.042902],"type":"Point"},"properties":{"osm_id":"5126190886","tag":{"natural":"tree"}},"type":"Feature"},
	{"geometry":{"coordinates":[39.027547,45.043806],"type":"Point"},"properties":{"osm_id":"5126190887","tag":{"natural":"tree"}},"type":"Feature"},
	{"geometry":{"coordinates":[39.027531,45.044024],"type":"Point"},"properties":{"osm_id":"5126190888","tag":{"natural":"tree"}},"type":"Feature"},
	{"geometry":{"coordinates":[39.027514,45.044234],"type":"Point"},"properties":{"osm_id":"5126190889","tag":{"natural":"tree"}},"type":"Feature"},
	{"geometry":{"coordinates":[39.027498,45.044441],"type":"Point"},"properties":{"osm_id":"5126190890","tag":{"natural":"tree"}},"type":"Feature"},
	{"geometry":{"coordinates":[39.027481,45.044644],"type":"Point"},"properties":{"osm_id":"5126190891","tag":{"natural":"tree"}},"type":"Feature"},
	{"geometry":{"coordinates":[39.02747,45.044846],"type":"Point"},"properties":{"osm_id":"5126190892","tag":{"natural":"tree"}},"type":"Feature"},
	{"geometry":{"coordinates":[39.027453,45.045057],"type":"Point"},"properties":{"osm_id":"5126190893","tag":{"natural":"tree"}},"type":"Feature"},
	{"geometry":{"coordinates":[39.027437,45.045294],"type":"Point"},"properties":{"osm_id":"5126190894","tag":{"natural":"tree"}},"type":"Feature"},
	{"geometry":{"coordinates":[39.02742,45.045501],"type":"Point"},"properties":{"osm_id":"5126190895","tag":{"natural":"tree"}},"type":"Feature"},
	{"geometry":{"coordinates":[39.027415,45.045704],"type":"Point"},"properties":{"osm_id":"5126190896","tag":{"natural":"tree"}},"type":"Feature"},
	{"geometry":{"coordinates":[39.027387,45.045914],"type":"Point"},"properties":{"osm_id":"5126190897","tag":{"natural":"tree"}},"type":"Feature"},
	{"geometry":{"coordinates":[39.027393,45.046093],"type":"Point"},"properties":{"osm_id":"5126190898","tag":{"natural":"tree"}},"type":"Feature"},
	{"geometry":{"coordinates":[39.027654,45.04611],"type":"Point"},"properties":{"osm_id":"5126190899","tag":{"natural":"tree"}},"type":"Feature"},
	{"geometry":{"coordinates":[39.027916,45.046113],"type":"Point"},"properties":{"osm_id":"5126190900","tag":{"natural":"tree"}},"type":"Feature"},
	{"geometry":{"coordinates":[39.047228,45.059967],"type":"Point"},"properties":{"osm_id":"6152182928","tag":{"leaf_type":"broadleaved","natural":"tree"}},"type":"Feature"},
	{"geometry":{"coordinates":[39.036874,45.057482],"type":"Point"},"properties":{"osm_id":"7110761119","tag":{"leaf_cycle":"deciduous","leaf_type":"broadleaved","natural":"tree"}},"type":"Feature"},
	{"geometry":{"coordinates":[39.037008,45.057639],"type":"Point"},"properties":{"osm_id":"7110761121","tag":{"leaf_cycle":"semi_evergreen","leaf_type":"needleleaved","natural":"tree"}},"type":"Feature"},
	{"geometry":{"coordinates":[39.037008,45.057586],"type":"Point"},"properties":{"osm_id":"7110761122","tag":{"leaf_cycle":"semi_evergreen","leaf_type":"needleleaved","natural":"tree"}},"type":"Feature"},
	{"geometry":{"coordinates":[39.037011,45.057517],"type":"Point"},"properties":{"osm_id":"7110761123","tag":{"leaf_cycle":"semi_evergreen","leaf_type":"needleleaved","natural":"tree"}},"type":"Feature"},
	{"geometry":{"coordinates":[39.037007,45.057398],"type":"Point"},"properties":{"osm_id":"7110761124","tag":{"leaf_cycle":"semi_evergreen","leaf_type":"needleleaved","natural":"tree"}},"type":"Feature"},
	{"geometry":{"coordinates":[39.036865,45.057653],"type":"Point"},"properties":{"osm_id":"7110761141","tag":{"leaf_cycle":"deciduous","leaf_type":"broadleaved","natural":"tree"}},"type":"Feature"},
	{"geometry":{"coordinates":[39.056106,45.051085],"type":"Point"},"properties":{"osm_id":"7111904369","tag":{"natural":"tree"}},"type":"Feature"},
	{"geometry":{"coordinates":[39.056001,45.051022],"type":"Point"},"properties":{"osm_id":"7111904370","tag":{"natural":"tree"}},"type":"Feature"},
	{"geometry":{"coordinates":[39.055911,45.050975],"type":"Point"},"properties":{"osm_id":"7111904371","tag":{"natural":"tree"}},"type":"Feature"},
	{"geometry":{"coordinates":[39.055806,45.050911],"type":"Point"},"properties":{"osm_id":"7111904372","tag":{"natural":"tree"}},"type":"Feature"},
	{"geometry":{"coordinates":[39.055714,45.050853],"type":"Point"},"properties":{"osm_id":"7111904373","tag":{"natural":"tree"}},"type":"Feature"},
	{"geometry":{"coordinates":[39.055625,45.050797],"type":"Point"},"properties":{"osm_id":"7111904374","tag":{"natural":"tree"}},"type":"Feature"},
	{"geometry":{"coordinates":[39.031602,45.056939],"type":"Point"},"properties":{"osm_id":"7149734388","tag":{"natural":"tree"}},"type":"Feature"},
	{"geometry":{"coordinates":[39.035434,45.063814],"type":"Point"},"properties":{"osm_id":"7204312669","tag":{"natural":"tree"}},"type":"Feature"},
	{"geometry":{"coordinates":[39.035438,45.063782],"type":"Point"},"properties":{"osm_id":"7204312670","tag":{"natural":"tree"}},"type":"Feature"},
	{"geometry":{"coordinates":[39.036284,45.063775],"type":"Point"},"properties":{"osm_id":"7204316261","tag":{"natural":"tree"}},"type":"Feature"},
	{"geometry":{"coordinates":[39.036228,45.063774],"type":"Point"},"properties":{"osm_id":"7204316262","tag":{"natural":"tree"}},"type":"Feature"},
	{"geometry":{"coordinates":[39.035898,45.063616],"type":"Point"},"properties":{"osm_id":"7204316313","tag":{"natural":"tree"}},"type":"Feature"},
	{"geometry":{"coordinates":[39.03583,45.063616],"type":"Point"},"properties":{"osm_id":"7204316314","tag":{"natural":"tree"}},"type":"Feature"},
	{"geometry":{"coordinates":[39.035764,45.063618],"type":"Point"},"properties":{"osm_id":"7204316315","tag":{"natural":"tree"}},"type":"Feature"},
	{"geometry":{"coordinates":[39.035825,45.06375],"type":"Point"},"properties":{"osm_id":"7204316316","tag":{"natural":"tree"}},"type":"Feature"},
	{"geometry":{"coordinates":[39.035902,45.063749],"type":"Point"},"properties":{"osm_id":"7204316317","tag":{"natural":"tree"}},"type":"Feature"},
	{"geometry":{"coordinates":[39.035881,45.063793],"type":"Point"},"properties":{"osm_id":"7204316318","tag":{"natural":"tree"}},"type":"Feature"},
	{"geometry":{"coordinates":[39.035805,45.063796],"type":"Point"},"properties":{"osm_id":"7204316319","tag":{"natural":"tree"}},"type":"Feature"},
	{"geometry":{"coordinates":[39.035729,45.063799],"type":"Point"},"properties":{"osm_id":"7204316320","tag":{"natural":"tree"}},"type":"Feature"},
	{"geometry":{"coordinates":[39.035729,45.063771],"type":"Point"},"properties":{"osm_id":"7204316321","tag":{"natural":"tree"}},"type":"Feature"},
	{"geometry":{"coordinates":[39.035728,45.063745],"type":"Point"},"properties":{"osm_id":"7204316322","tag":{"natural":"tree"}},"type":"Feature"},
	{"geometry":{"coordinates":[39.027378,45.041642],"type":"Point"},"properties":{"osm_id":"7236661596","tag":{"denotation":"avenue","leaf_type":"broadleaved","natural":"tree"}},"type":"Feature"},
	{"geometry":{"coordinates":[39.027275,45.04236],"type":"Point"},"properties":{"osm_id":"7236661608","tag":{"denotation":"avenue","leaf_type":"broadleaved","natural":"tree"}},"type":"Feature"},
	{"geometry":{"coordinates":[39.027289,45.042267],"type":"Point"},"properties":{"osm_id":"7236661609","tag":{"denotation":"avenue","leaf_type":"broadleaved","natural":"tree"}},"type":"Feature"},
	{"geometry":{"coordinates":[39.027295,45.042219],"type":"Point"},"properties":{"osm_id":"7236661610","tag":{"denotation":"avenue","leaf_type":"broadleaved","natural":"tree"}},"type":"Feature"},
	{"geometry":{"coordinates":[39.027303,45.042167],"type":"Point"},"properties":{"osm_id":"7236661611","tag":{"denotation":"avenue","leaf_type":"broadleaved","natural":"tree"}},"type":"Feature"},
	{"geometry":{"coordinates":[39.027312,45.042103],"type":"Point"},"properties":{"osm_id":"7236661612","tag":{"denotation":"avenue","leaf_type":"broadleaved","natural":"tree"}},"type":"Feature"},
	{"geometry":{"coordinates":[39.027324,45.04202],"type":"Point"},"properties":{"osm_id":"7236661613","tag":{"denotation":"avenue","leaf_type":"broadleaved","natural":"tree"}},"type":"Feature"},
	{"geometry":{"coordinates":[39.027333,45.041957],"type":"Point"},"properties":{"osm_id":"7236661614","tag":{"denotation":"avenue","leaf_type":"broadleaved","natural":"tree"}},"type":"Feature"},
	{"geometry":{"coordinates":[39.027342,45.041891],"type":"Point"},"properties":{"osm_id":"7236661615","tag":{"denotation":"avenue","leaf_type":"broadleaved","natural":"tree"}},"type":"Feature"},
	{"geometry":{"coordinates":[39.027351,45.04183],"type":"Point"},"properties":{"osm_id":"7236661616","tag":{"denotation":"avenue","leaf_type":"broadleaved","natural":"tree"}},"type":"Feature"},
	{"geometry":{"coordinates":[39.027359,45.041773],"type":"Point"},"properties":{"osm_id":"7236661617","tag":{"denotation":"avenue","leaf_type":"broadleaved","natural":"tree"}},"type":"Feature"},
	{"geometry":{"coordinates":[39.027368,45.041714],"type":"Point"},"properties":{"osm_id":"7236661618","tag":{"denotation":"avenue","leaf_type":"broadleaved","natural":"tree"}},"type":"Feature"},
	{"geometry":{"coordinates":[39.027385,45.041593],"type":"Point"},"properties":{"osm_id":"7236661619","tag":{"denotation":"avenue","leaf_type":"broadleaved","natural":"tree"}},"type":"Feature"},
	{"geometry":{"coordinates":[39.027393,45.041535],"type":"Point"},"properties":{"osm_id":"7236661620","tag":{"denotation":"avenue","leaf_type":"broadleaved","natural":"tree"}},"type":"Feature"},
	{"geometry":{"coordinates":[39.027402,45.041474],"type":"Point"},"properties":{"osm_id":"7236661621","tag":{"denotation":"avenue","leaf_type":"broadleaved","natural":"tree"}},"type":"Feature"},
	{"geometry":{"coordinates":[39.027409,45.041425],"type":"Point"},"properties":{"osm_id":"7236661622","tag":{"denotation":"avenue","leaf_type":"broadleaved","natural":"tree"}},"type":"Feature"},
	{"geometry":{"coordinates":[39.027419,45.041359],"type":"Point"},"properties":{"osm_id":"7236661623","tag":{"denotation":"avenue","leaf_type":"broadleaved","natural":"tree"}},"type":"Feature"},
	{"geometry":{"coordinates":[39.027429,45.041283],"type":"Point"},"properties":{"osm_id":"7236661624","tag":{"denotation":"avenue","leaf_type":"broadleaved","natural":"tree"}},"type":"Feature"},
	{"geometry":{"coordinates":[39.027438,45.041224],"type":"Point"},"properties":{"osm_id":"7236661625","tag":{"denotation":"avenue","leaf_type":"broadleaved","natural":"tree"}},"type":"Feature"},
	{"geometry":{"coordinates":[39.027268,45.042413],"type":"Point"},"properties":{"osm_id":"7236661626","tag":{"denotation":"avenue","leaf_type":"broadleaved","natural":"tree"}},"type":"Feature"},
	{"geometry":{"coordinates":[39.027446,45.041167],"type":"Point"},"properties":{"osm_id":"7236661627","tag":{"denotation":"avenue","leaf_type":"broadleaved","natural":"tree"}},"type":"Feature"},
	{"geometry":{"coordinates":[39.028162,45.040956],"type":"Point"},"properties":{"osm_id":"7236661632","tag":{"denotation":"urban","leaf_type":"broadleaved","natural":"tree"}},"type":"Feature"},
	{"geometry":{"coordinates":[39.028135,45.040882],"type":"Point"},"properties":{"osm_id":"7236661633","tag":{"denotation":"urban","leaf_type":"broadleaved","natural":"tree"}},"type":"Feature"},
	{"geometry":{"coordinates":[39.028107,45.040814],"type":"Point"},"properties":{"osm_id":"7236661634","tag":{"denotation":"urban","leaf_type":"broadleaved","natural":"tree"}},"type":"Feature"},
	{"geometry":{"coordinates":[39.028084,45.040741],"type":"Point"},"properties":{"osm_id":"7236661635","tag":{"denotation":"urban","leaf_type":"broadleaved","natural":"tree"}},"type":"Feature"},
	{"geometry":{"coordinates":[39.028056,45.040668],"type":"Point"},"properties":{"osm_id":"7236661636","tag":{"denotation":"urban","leaf_type":"broadleaved","natural":"tree"}},"type":"Feature"},
	{"geometry":{"coordinates":[39.028028,45.040592],"type":"Point"},"properties":{"osm_id":"7236661637","tag":{"denotation":"urban","leaf_type":"broadleaved","natural":"tree"}},"type":"Feature"},
	{"geometry":{"coordinates":[39.027734,45.041046],"type":"Point"},"properties":{"osm_id":"7236661644","tag":{"denotation":"urban","leaf_type":"broadleaved","natural":"tree"}},"type":"Feature"},
	{"geometry":{"coordinates":[39.0277,45.040974],"type":"Point"},"properties":{"osm_id":"7236661645","tag":{"denotation":"urban","leaf_type":"broadleaved","natural":"tree"}},"type":"Feature"},
	{"geometry":{"coordinates":[39.027666,45.040906],"type":"Point"},"properties":{"osm_id":"7236661646","tag":{"denotation":"urban","leaf_type":"broadleaved","natural":"tree"}},"type":"Feature"},
	{"geometry":{"coordinates":[39.02763,45.040835],"type":"Point"},"properties":{"osm_id":"7236661647","tag":{"denotation":"urban","leaf_type":"broadleaved","natural":"tree"}},"type":"Feature"},
	{"geometry":{"coordinates":[39.027684,45.039503],"type":"Point"},"properties":{"osm_id":"7236661657","tag":{"denotation":"avenue","leaf_type":"broadleaved","natural":"tree"}},"type":"Feature"},
	{"geometry":{"coordinates":[39.027676,45.039553],"type":"Point"},"properties":{"osm_id":"7236661658","tag":{"denotation":"avenue","leaf_type":"broadleaved","natural":"tree"}},"type":"Feature"},
	{"geometry":{"coordinates":[39.027664,45.039628],"type":"Point"},"properties":{"osm_id":"7236661659","tag":{"denotation":"avenue","leaf_type":"broadleaved","natural":"tree"}},"type":"Feature"},
	{"geometry":{"coordinates":[39.027654,45.039689],"type":"Point"},"properties":{"osm_id":"7236661660","tag":{"denotation":"avenue","leaf_type":"broadleaved","natural":"tree"}},"type":"Feature"},
	{"geometry":{"coordinates":[39.027647,45.039739],"type":"Point"},"properties":{"osm_id":"7236661661","tag":{"denotation":"avenue","leaf_type":"broadleaved","natural":"tree"}},"type":"Feature"},
	{"geometry":{"coordinates":[39.027636,45.039803],"type":"Point"},"properties":{"osm_id":"7236661662","tag":{"denotation":"avenue","leaf_type":"broadleaved","natural":"tree"}},"type":"Feature"},
	{"geometry":{"coordinates":[39.027626,45.039865],"type":"Point"},"properties":{"osm_id":"7236661663","tag":{"denotation":"avenue","leaf_type":"broadleaved","natural":"tree"}},"type":"Feature"},
	{"geometry":{"coordinates":[39.027617,45.039923],"type":"Point"},"properties":{"osm_id":"7236661664","tag":{"denotation":"avenue","leaf_type":"broadleaved","natural":"tree"}},"type":"Feature"},
	{"geometry":{"coordinates":[39.027694,45.039444],"type":"Point"},"properties":{"osm_id":"7236661665","tag":{"denotation":"avenue","leaf_type":"broadleaved","natural":"tree"}},"type":"Feature"},
	{"geometry":{"coordinates":[39.028074,45.039432],"type":"Point"},"properties":{"osm_id":"7236661685","tag":{"amenity":"bench","backrest":"no","natural":"tree"}},"type":"Feature"},
	{"geometry":{"coordinates":[39.027967,45.039444],"type":"Point"},"properties":{"osm_id":"7236661686","tag":{"amenity":"bench","backrest":"no","natural":"tree"}},"type":"Feature"},
	{"geometry":{"coordinates":[39.027854,45.039457],"type":"Point"},"properties":{"osm_id":"7236661687","tag":{"amenity":"bench","backrest":"no","natural":"tree"}},"type":"Feature"},
	{"geometry":{"coordinates":[39.027828,45.039368],"type":"Point"},"properties":{"osm_id":"7236661688","tag":{"amenity":"bench","backrest":"no","natural":"tree"}},"type":"Feature"},
	{"geometry":{"coordinates":[39.027944,45.039352],"type":"Point"},"properties":{"osm_id":"7236661689","tag":{"amenity":"bench","backrest":"no","natural":"tree"}},"type":"Feature"},
	{"geometry":{"coordinates":[39.028054,45.039337],"type":"Point"},"properties":{"osm_id":"7236661690","tag":{"amenity":"bench","backrest":"no","natural":"tree"}},"type":"Feature"},
	{"geometry":{"coordinates":[39.028033,45.039241],"type":"Point"},"properties":{"osm_id":"7236661691","tag":{"amenity":"bench","backrest":"no","natural":"tree"}},"type":"Feature"},
	{"geometry":{"coordinates":[39.027921,45.039255],"type":"Point"},"properties":{"osm_id":"7236661692","tag":{"amenity":"bench","backrest":"no","natural":"tree"}},"type":"Feature"},
	{"geometry":{"coordinates":[39.0278,45.039269],"type":"Point"},"properties":{"osm_id":"7236661693","tag":{"amenity":"bench","backrest":"no","natural":"tree"}},"type":"Feature"},
	{"geometry":{"coordinates":[39.025904,45.056318],"type":"Point"},"properties":{"osm_id":"7752520313","tag":{"natural":"tree"}},"type":"Feature"}
]
}
