{
"type": "FeatureCollection",
"features": [
	{"geometry":{"coordinates":[9.81377,53.577329],"type":"Point"},"properties":{"osm_id":"277837781","tag":{"amenity":"recycling","opening_hours":"Mo-Sa 07:00-20:00","recycling:glass_bottles":"yes","recycling:paper":"yes","recycling_type":"container"}},"type":"Feature"},
	{"geometry":{"coordinates":[9.830366,53.579246],"type":"Point"},"properties":{"osm_id":"278201041","tag":{"amenity":"recycling","recycling:glass_bottles":"yes","recycling:paper":"yes","recycling_type":"container"}},"type":"Feature"},
	{"geometry":{"coordinates":[9.836732,53.57408],"type":"Point"},"properties":{"osm_id":"278205251","tag":{"amenity":"recycling","recycling:glass_bottles":"yes","recycling:paper":"yes","recycling_type":"container"}},"type":"Feature"},
	{"geometry":{"coordinates":[9.766491,53.579552],"type":"Point"},"properties":{"osm_id":"367669848","tag":{"amenity":"recycling","recycling:glass_bottles":"yes","recycling:paper":"yes","recycling_type":"container"}},"type":"Feature"},
	{"geometry":{"coordinates":[9.760765,53.589129],"type":"Point"},"properties":{"osm_id":"368244393","tag":{"amenity":"recycling","recycling:cartons":"yes","recycling:glass_bottles":"yes","recycling:magazines":"yes","recycling:newspaper":"yes","recycling:paper":"yes","recycling:paper_packaging":"yes","recycling_type":"container"}},"type":"Feature"},
	{"geometry":{"coordinates":[9.772227,53.57835],"type":"Point"},"properties":{"osm_id":"377688105","tag":{"amenity":"recycling","recycling:glass_bottles":"yes","recycling:paper":"yes","recycling_type":"container"}},"type":"Feature"},
	{"geometry":{"coordinates":[9.822663,53.569744],"type":"Point"},"properties":{"osm_id":"553100389","tag":{"amenity":"recycling","recycling:glass_bottles":"yes","recycling:paper":"yes","recycling_type":"container"}},"type":"Feature"},
	{"geometry":{"coordinates":[9.762689,53.574556],"type":"Point"},"properties":{"osm_id":"1259122359","tag":{"amenity":"recycling","recycling:glass_bottles":"yes","recycling:paper":"yes","recycling_type":"container"}},"type":"Feature"},
	{"geometry":{"coordinates":[9.763613,53.582582],"type":"Point"},"properties":{"osm_id":"1259122360","tag":{"amenity":"recycling","recycling:glass_bottles":"yes","recycling:paper":"yes","recycling_type":"container"}},"type":"Feature"},
	{"geometry":{"coordinates":[9.794215,53.563403],"type":"Point"},"properties":{"osm_id":"1319003543","tag":{"amenity":"waste_basket","source:amenity":"survey"}},"type":"Feature"},
	{"geometry":{"coordinates":[9.794047,53.560931],"type":"Point"},"properties":{"osm_id":"1319027884","tag":{"amenity":"waste_basket"}},"type":"Feature"},
	{"geometry":{"coordinates":[9.794481,53.561262],"type":"Point"},"properties":{"osm_id":"1319027901","tag":{"amenity":"waste_basket"}},"type":"Feature"},
	{"geometry":{"coordinates":[9.79499,53.561353],"type":"Point"},"properties":{"osm_id":"1319030953","tag":{"amenity":"waste_basket"}},"type":"Feature"},
	{"geometry":{"coordinates":[9.755973,53.57223],"type":"Point"},"properties":{"osm_id":"1425180835","tag":{"amenity":"waste_basket"}},"type":"Feature"},
	{"geometry":{"coordinates":[9.762368,53.574523],"type":"Point"},"properties":{"osm_id":"1426188522","tag":{"amenity":"waste_basket"}},"type":"Feature"},
	{"geometry":{"coordinates":[9.760855,53.574745],"type":"Point"},"properties":{"osm_id":"1426188529","tag":{"amenity":"waste_basket"}},"type":"Feature"},
	{"geometry":{"coordinates":[9.758111,53.585003],"type":"Point"},"properties":{"osm_id":"1430987946","tag":{"amenity":"waste_basket"}},"type":"Feature"},
	{"geometry":{"coordinates":[9.818388,53.583756],"type":"Point"},"properties":{"osm_id":"1431944059","tag":{"amenity":"waste_basket"}},"type":"Feature"},
	{"geometry":{"coordinates":[9.815043,53.583246],"type":"Point"},"properties":{"osm_id":"1432023080","tag":{"amenity":"recycling","recycling:glass_bottles":"yes","recycling:paper":"yes","recycling_type":"container"}},"type":"Feature"},
	{"geometry":{"coordinates":[9.767882,53.589555],"type":"Point"},"properties":{"osm_id":"1438212285","tag":{"amenity":"waste_basket"}},"type":"Feature"},
	{"geometry":{"coordinates":[9.797239,53.579639],"type":"Point"},"properties":{"osm_id":"1440276222","tag":{"amenity":"waste_basket"}},"type":"Feature"},
	{"geometry":{"coordinates":[9.795984,53.578702],"type":"Point"},"properties":{"osm_id":"1440291549","tag":{"amenity":"waste_basket"}},"type":"Feature"},
	{"geometry":{"coordinates":[9.795066,53.578951],"type":"Point"},"properties":{"osm_id":"1440291554","tag":{"amenity":"waste_basket"}},"type":"Feature"},
	{"geometry":{"coordinates":[9.829116,53.583854],"type":"Point"},"properties":{"osm_id":"1446318223","tag":{"amenity":"waste_basket"}},"type":"Feature"},
	{"geometry":{"coordinates":[9.831473,53.575837],"type":"Point"},"properties":{"osm_id":"1446358644","tag":{"amenity":"waste_basket"}},"type":"Feature"},
	{"geometry":{"coordinates":[9.832156,53.576031],"type":"Point"},"properties":{"osm_id":"1446358650","tag":{"amenity":"waste_basket"}},"type":"Feature"},
	{"geometry":{"coordinates":[9.819666,53.570086],"type":"Point"},"properties":{"osm_id":"1448473938","tag":{"amenity":"recycling","recycling:glass_bottles":"yes","recycling:paper":"yes","recycling_type":"container"}},"type":"Feature"},
	{"geometry":{"coordinates":[9.8169,53.580427],"type":"Point"},"properties":{"osm_id":"1456767225","tag":{"amenity":"waste_basket"}},"type":"Feature"},
	{"geometry":{"coordinates":[9.764384,53.577767],"type":"Point"},"properties":{"osm_id":"1464003493","tag":{"amenity":"waste_basket"}},"type":"Feature"},
	{"geometry":{"coordinates":[9.780288,53.581211],"type":"Point"},"properties":{"osm_id":"1583238479","tag":{"amenity":"waste_basket"}},"type":"Feature"},
	{"geometry":{"coordinates":[9.783642,53.581382],"type":"Point"},"properties":{"osm_id":"1583238535","tag":{"amenity":"waste_basket"}},"type":"Feature"},
	{"geometry":{"coordinates":[9.826814,53.566989],"type":"Point"},"properties":{"osm_id":"1600859702","tag":{"amenity":"recycling","check_date":"2020-05-02","operator":"Stadtreinigung Hamburg","recycling:clothes":"yes","recycling:glass_bottles":"yes","recycling:paper":"yes","recycling:small_appliances":"yes","recycling:small_electrical_appliances":"yes","recycling_type":"container"}},"type":"Feature"},
	{"geometry":{"coordinates":[9.782888,53.560864],"type":"Point"},"properties":{"osm_id":"1713280104","tag":{"amenity":"waste_basket"}},"type":"Feature"},
	{"geometry":{"coordinates":[9.783642,53.561291],"type":"Point"},"properties":{"osm_id":"1713280107","tag":{"amenity":"waste_basket"}},"type":"Feature"},
	{"geometry":{"coordinates":[9.795934,53.580715],"type":"Point"},"properties":{"osm_id":"1912503224","tag":{"amenity":"recycling","check_date":"2020-05-02","operator":"Stadtreinigung Hamburg","recycling:clothes":"yes","recycling:glass_bottles":"yes","recycling:paper":"yes","recycling:small_appliances":"yes","recycling:small_electrical_appliances":"yes","recycling_type":"container"}},"type":"Feature"},
	{"geometry":{"coordinates":[9.834668,53.565146],"type":"Point"},"properties":{"osm_id":"1923904303","tag":{"amenity":"recycling","recycling_type":"container"}},"type":"Feature"},
	{"geometry":{"coordinates":[9.787274,53.580661],"type":"Point"},"properties":{"highway":"bus_stop","name":"Sieversst\u00c3\u00bccken","osm_id":"2356411221","tag":{"amenity":"waste_basket","public_transport":"platform","shelter":"no","toilets:wheelchair":"no","wheelchair":"yes"}},"type":"Feature"},
	{"geometry":{"coordinates":[9.785894,53.580416],"type":"Point"},"properties":{"osm_id":"2827607579","tag":{"amenity":"recycling","recycling:glass_bottles":"yes","recycling:paper":"yes","recycling_type":"container"}},"type":"Feature"},
	{"geometry":{"coordinates":[9.810365,53.580697],"type":"Point"},"properties":{"osm_id":"2827607580","tag":{"amenity":"recycling","recycling:glass_bottles":"yes","recycling:paper":"yes","recycling_type":"container"}},"type":"Feature"},
	{"geometry":{"coordinates":[9.809412,53.568955],"type":"Point"},"properties":{"osm_id":"3450068752","tag":{"amenity":"recycling","recycling:glass_bottles":"yes","recycling:paper":"yes","recycling_type":"container"}},"type":"Feature"},
	{"geometry":{"coordinates":[9.821445,53.576455],"type":"Point"},"properties":{"osm_id":"3450068753","tag":{"amenity":"recycling","recycling:glass_bottles":"yes","recycling:paper":"yes","recycling_type":"container"}},"type":"Feature"},
	{"geometry":{"coordinates":[9.785236,53.581272],"type":"Point"},"properties":{"highway":"bus_stop","name":"Bahn\u00c3\u00bcbergang Sieversst\u00c3\u00bccken","osm_id":"4200161547","tag":{"amenity":"waste_basket","bus":"yes","public_transport":"platform","shelter":"no","toilets:wheelchair":"no","wheelchair":"yes"}},"type":"Feature"},
	{"geometry":{"coordinates":[9.770195,53.577105],"type":"Point"},"properties":{"osm_id":"4200161549","tag":{"amenity":"recycling","recycling:glass_bottles":"yes","recycling_type":"container"}},"type":"Feature"},
	{"geometry":{"coordinates":[9.76442,53.577779],"type":"Point"},"properties":{"osm_id":"4219756290","tag":{"amenity":"waste_basket"}},"type":"Feature"},
	{"geometry":{"coordinates":[9.766852,53.578609],"type":"Point"},"properties":{"osm_id":"4219798689","tag":{"amenity":"waste_basket"}},"type":"Feature"},
	{"geometry":{"coordinates":[9.812444,53.561353],"type":"Point"},"properties":{"osm_id":"4563700392","tag":{"amenity":"recycling","recycling:glass_bottles":"yes","recycling:paper":"yes","recycling_type":"container"}},"type":"Feature"},
	{"geometry":{"coordinates":[9.808223,53.562236],"type":"Point"},"properties":{"osm_id":"4563725889","tag":{"amenity":"recycling","check_date":"2020-05-02","operator":"Stadtreinigung Hamburg","recycling:clothes":"yes","recycling:glass_bottles":"yes","recycling:paper":"yes","recycling:small_appliances":"yes","recycling:small_electrical_appliances":"yes","recycling_type":"container"}},"type":"Feature"},
	{"geometry":{"coordinates":[9.75658,53.567993],"type":"Point"},"properties":{"osm_id":"4828488424","tag":{"amenity":"waste_basket"}},"type":"Feature"},
	{"geometry":{"coordinates":[9.756546,53.567993],"type":"Point"},"properties":{"osm_id":"4828488425","tag":{"amenity":"waste_basket"}},"type":"Feature"},
	{"geometry":{"coordinates":[9.780852,53.577983],"type":"Point"},"properties":{"osm_id":"5145356285","tag":{"amenity":"waste_basket"}},"type":"Feature"},
	{"geometry":{"coordinates":[9.781951,53.578233],"type":"Point"},"properties":{"osm_id":"5145356286","tag":{"amenity":"waste_basket"}},"type":"Feature"},
	{"geometry":{"coordinates":[9.7865,53.577659],"type":"Point"},"properties":{"osm_id":"5145356287","tag":{"amenity":"waste_basket"}},"type":"Feature"},
	{"geometry":{"coordinates":[9.786764,53.578395],"type":"Point"},"properties":{"osm_id":"5145356289","tag":{"amenity":"waste_basket"}},"type":"Feature"},
	{"geometry":{"coordinates":[9.843564,53.550087],"type":"Point"},"properties":{"osm_id":"5626003983","tag":{"amenity":"waste_basket"}},"type":"Feature"},
	{"geometry":{"coordinates":[9.779703,53.56505],"type":"Point"},"properties":{"osm_id":"5644247140","tag":{"amenity":"waste_basket"}},"type":"Feature"},
	{"geometry":{"coordinates":[9.790721,53.577391],"type":"Point"},"properties":{"osm_id":"5674568351","tag":{"amenity":"waste_basket"}},"type":"Feature"},
	{"geometry":{"coordinates":[9.788291,53.575843],"type":"Point"},"properties":{"osm_id":"5674568360","tag":{"amenity":"waste_basket"}},"type":"Feature"},
	{"geometry":{"coordinates":[9.783103,53.577683],"type":"Point"},"properties":{"osm_id":"5702473328","tag":{"amenity":"waste_basket"}},"type":"Feature"},
	{"geometry":{"coordinates":[9.785205,53.580343],"type":"Point"},"properties":{"osm_id":"5702473341","tag":{"amenity":"waste_basket"}},"type":"Feature"},
	{"geometry":{"coordinates":[9.75853,53.583238],"type":"Point"},"properties":{"osm_id":"5728989901","tag":{"amenity":"waste_basket"}},"type":"Feature"},
	{"geometry":{"coordinates":[9.789758,53.577828],"type":"Point"},"properties":{"osm_id":"5736791436","tag":{"amenity":"waste_basket"}},"type":"Feature"},
	{"geometry":{"coordinates":[9.791171,53.576258],"type":"Point"},"properties":{"osm_id":"5736791450","tag":{"amenity":"waste_basket"}},"type":"Feature"},
	{"geometry":{"coordinates":[9.785977,53.577325],"type":"Point"},"properties":{"osm_id":"5736791452","tag":{"amenity":"waste_basket"}},"type":"Feature"},
	{"geometry":{"coordinates":[9.813391,53.57783],"type":"Point"},"properties":{"osm_id":"5780094959","tag":{"amenity":"waste_basket"}},"type":"Feature"},
	{"geometry":{"coordinates":[9.811989,53.577958],"type":"Point"},"properties":{"osm_id":"5780094961","tag":{"amenity":"waste_basket"}},"type":"Feature"},
	{"geometry":{"coordinates":[9.800016,53.575135],"type":"Point"},"properties":{"osm_id":"5999910017","tag":{"amenity":"waste_basket"}},"type":"Feature"},
	{"geometry":{"coordinates":[9.802318,53.575014],"type":"Point"},"properties":{"osm_id":"5999910023","tag":{"amenity":"waste_basket"}},"type":"Feature"},
	{"geometry":{"coordinates":[9.799705,53.573294],"type":"Point"},"properties":{"osm_id":"5999910025","tag":{"amenity":"waste_basket"}},"type":"Feature"},
	{"geometry":{"coordinates":[9.803473,53.574974],"type":"Point"},"properties":{"osm_id":"5999910028","tag":{"amenity":"waste_basket"}},"type":"Feature"},
	{"geometry":{"coordinates":[9.795363,53.573609],"type":"Point"},"properties":{"osm_id":"5999910033","tag":{"amenity":"waste_basket"}},"type":"Feature"},
	{"geometry":{"coordinates":[9.800456,53.57511],"type":"Point"},"properties":{"osm_id":"5999910036","tag":{"amenity":"waste_basket"}},"type":"Feature"},
	{"geometry":{"coordinates":[9.800516,53.573153],"type":"Point"},"properties":{"osm_id":"5999910037","tag":{"amenity":"waste_basket"}},"type":"Feature"},
	{"geometry":{"coordinates":[9.801346,53.575088],"type":"Point"},"properties":{"osm_id":"5999910038","tag":{"amenity":"waste_basket"}},"type":"Feature"},
	{"geometry":{"coordinates":[9.801514,53.572742],"type":"Point"},"properties":{"osm_id":"5999910039","tag":{"amenity":"waste_basket"}},"type":"Feature"},
	{"geometry":{"coordinates":[9.799409,53.573155],"type":"Point"},"properties":{"osm_id":"5999910040","tag":{"amenity":"waste_basket"}},"type":"Feature"},
	{"geometry":{"coordinates":[9.800123,53.573463],"type":"Point"},"properties":{"osm_id":"5999910042","tag":{"amenity":"waste_basket"}},"type":"Feature"},
	{"geometry":{"coordinates":[9.799449,53.574318],"type":"Point"},"properties":{"osm_id":"5999910047","tag":{"amenity":"waste_basket"}},"type":"Feature"},
	{"geometry":{"coordinates":[9.79222,53.575621],"type":"Point"},"properties":{"osm_id":"6039125870","tag":{"amenity":"waste_basket"}},"type":"Feature"},
	{"geometry":{"coordinates":[9.817768,53.557093],"type":"Point"},"properties":{"osm_id":"6060991799","tag":{"amenity":"waste_basket"}},"type":"Feature"},
	{"geometry":{"coordinates":[9.817248,53.557307],"type":"Point"},"properties":{"osm_id":"6060991800","tag":{"amenity":"waste_basket"}},"type":"Feature"},
	{"geometry":{"coordinates":[9.816428,53.557641],"type":"Point"},"properties":{"osm_id":"6060991805","tag":{"amenity":"waste_basket"}},"type":"Feature"},
	{"geometry":{"coordinates":[9.792797,53.579482],"type":"Point"},"properties":{"osm_id":"6082857397","tag":{"amenity":"waste_basket"}},"type":"Feature"},
	{"geometry":{"coordinates":[9.78217,53.580306],"type":"Point"},"properties":{"osm_id":"6113523931","tag":{"amenity":"waste_basket"}},"type":"Feature"},
	{"geometry":{"coordinates":[9.777999,53.578987],"type":"Point"},"properties":{"osm_id":"6113524502","tag":{"amenity":"waste_basket"}},"type":"Feature"},
	{"geometry":{"coordinates":[9.780903,53.580277],"type":"Point"},"properties":{"osm_id":"6113524508","tag":{"amenity":"waste_basket"}},"type":"Feature"},
	{"geometry":{"coordinates":[9.827556,53.557465],"type":"Point"},"properties":{"osm_id":"6115693490","tag":{"amenity":"waste_basket"}},"type":"Feature"},
	{"geometry":{"coordinates":[9.83253,53.556243],"type":"Point"},"properties":{"osm_id":"6115693491","tag":{"amenity":"waste_basket"}},"type":"Feature"},
	{"geometry":{"coordinates":[9.822233,53.559412],"type":"Point"},"properties":{"osm_id":"6115693492","tag":{"amenity":"waste_basket"}},"type":"Feature"},
	{"geometry":{"coordinates":[9.830142,53.557021],"type":"Point"},"properties":{"osm_id":"6115693494","tag":{"amenity":"waste_basket"}},"type":"Feature"},
	{"geometry":{"coordinates":[9.811604,53.563407],"type":"Point"},"properties":{"osm_id":"6130516188","tag":{"amenity":"waste_basket"}},"type":"Feature"},
	{"geometry":{"coordinates":[9.779817,53.578418],"type":"Point"},"properties":{"osm_id":"6138870263","tag":{"amenity":"waste_basket"}},"type":"Feature"},
	{"geometry":{"coordinates":[9.781619,53.577602],"type":"Point"},"properties":{"osm_id":"6138870269","tag":{"amenity":"waste_basket"}},"type":"Feature"},
	{"geometry":{"coordinates":[9.780154,53.578631],"type":"Point"},"properties":{"osm_id":"6138870272","tag":{"amenity":"waste_basket"}},"type":"Feature"},
	{"geometry":{"coordinates":[9.780377,53.578071],"type":"Point"},"properties":{"osm_id":"6138870278","tag":{"amenity":"waste_basket"}},"type":"Feature"},
	{"geometry":{"coordinates":[9.778685,53.578882],"type":"Point"},"properties":{"osm_id":"6138870282","tag":{"amenity":"waste_basket"}},"type":"Feature"},
	{"geometry":{"coordinates":[9.779702,53.578595],"type":"Point"},"properties":{"osm_id":"6138871486","tag":{"amenity":"waste_basket"}},"type":"Feature"},
	{"geometry":{"coordinates":[9.780686,53.577857],"type":"Point"},"properties":{"osm_id":"6138871489","tag":{"amenity":"waste_basket"}},"type":"Feature"},
	{"geometry":{"coordinates":[9.779228,53.578747],"type":"Point"},"properties":{"osm_id":"6138871492","tag":{"amenity":"waste_basket"}},"type":"Feature"},
	{"geometry":{"coordinates":[9.792503,53.583226],"type":"Point"},"properties":{"osm_id":"6178725119","tag":{"amenity":"waste_basket"}},"type":"Feature"},
	{"geometry":{"coordinates":[9.809481,53.567873],"type":"Point"},"properties":{"osm_id":"6227208904","tag":{"amenity":"waste_basket"}},"type":"Feature"},
	{"geometry":{"coordinates":[9.808106,53.566019],"type":"Point"},"properties":{"osm_id":"6227208905","tag":{"amenity":"waste_basket"}},"type":"Feature"},
	{"geometry":{"coordinates":[9.806858,53.564383],"type":"Point"},"properties":{"osm_id":"6227208910","tag":{"amenity":"waste_basket"}},"type":"Feature"},
	{"geometry":{"coordinates":[9.807691,53.565345],"type":"Point"},"properties":{"osm_id":"6227208914","tag":{"amenity":"waste_basket"}},"type":"Feature"},
	{"geometry":{"coordinates":[9.80904,53.563771],"type":"Point"},"properties":{"osm_id":"6227208921","tag":{"amenity":"waste_basket"}},"type":"Feature"},
	{"geometry":{"coordinates":[9.807756,53.567313],"type":"Point"},"properties":{"osm_id":"6227208922","tag":{"amenity":"waste_basket"}},"type":"Feature"},
	{"geometry":{"coordinates":[9.810448,53.563491],"type":"Point"},"properties":{"osm_id":"6227208923","tag":{"amenity":"waste_basket"}},"type":"Feature"},
	{"geometry":{"coordinates":[9.817671,53.591132],"type":"Point"},"properties":{"osm_id":"6307674837","tag":{"amenity":"waste_basket"}},"type":"Feature"},
	{"geometry":{"coordinates":[9.802085,53.571288],"type":"Point"},"properties":{"osm_id":"6314396208","tag":{"amenity":"waste_basket"}},"type":"Feature"},
	{"geometry":{"coordinates":[9.79531,53.573187],"type":"Point"},"properties":{"osm_id":"6314396234","tag":{"amenity":"waste_basket"}},"type":"Feature"},
	{"geometry":{"coordinates":[9.803582,53.5736],"type":"Point"},"properties":{"osm_id":"6449315002","tag":{"amenity":"waste_basket"}},"type":"Feature"},
	{"geometry":{"coordinates":[9.8023,53.574509],"type":"Point"},"properties":{"osm_id":"6449315011","tag":{"amenity":"waste_basket"}},"type":"Feature"},
	{"geometry":{"coordinates":[9.802942,53.574476],"type":"Point"},"properties":{"osm_id":"6449315032","tag":{"amenity":"waste_basket"}},"type":"Feature"},
	{"geometry":{"coordinates":[9.802016,53.574012],"type":"Point"},"properties":{"osm_id":"6449315038","tag":{"amenity":"waste_basket"}},"type":"Feature"},
	{"geometry":{"coordinates":[9.801145,53.573959],"type":"Point"},"properties":{"osm_id":"6449315041","tag":{"amenity":"waste_basket"}},"type":"Feature"},
	{"geometry":{"coordinates":[9.795643,53.581601],"type":"Point"},"properties":{"osm_id":"6494612452","tag":{"amenity":"waste_basket"}},"type":"Feature"},
	{"geometry":{"coordinates":[9.823956,53.558073],"type":"Point"},"properties":{"osm_id":"6542576094","tag":{"amenity":"waste_basket"}},"type":"Feature"},
	{"geometry":{"coordinates":[9.823318,53.555966],"type":"Point"},"properties":{"osm_id":"6557804912","tag":{"amenity":"waste_basket"}},"type":"Feature"},
	{"geometry":{"coordinates":[9.824939,53.557137],"type":"Point"},"properties":{"osm_id":"6557804913","tag":{"amenity":"waste_basket"}},"type":"Feature"},
	{"geometry":{"coordinates":[9.825809,53.556888],"type":"Point"},"properties":{"osm_id":"6557804916","tag":{"amenity":"waste_basket"}},"type":"Feature"},
	{"geometry":{"coordinates":[9.755963,53.565264],"type":"Point"},"properties":{"osm_id":"6665598091","tag":{"amenity":"waste_basket"}},"type":"Feature"},
	{"geometry":{"coordinates":[9.76809,53.582114],"type":"Point"},"properties":{"osm_id":"7319452139","tag":{"amenity":"waste_basket"}},"type":"Feature"},
	{"geometry":{"coordinates":[9.770602,53.581655],"type":"Point"},"properties":{"osm_id":"7319452144","tag":{"amenity":"waste_basket"}},"type":"Feature"},
	{"geometry":{"coordinates":[9.774775,53.581117],"type":"Point"},"properties":{"osm_id":"7319452149","tag":{"amenity":"waste_basket"}},"type":"Feature"},
	{"geometry":{"coordinates":[9.791826,53.568689],"type":"Point"},"properties":{"osm_id":"7487415047","tag":{"amenity":"recycling","check_date":"2020-05-02","operator":"Stadtreinigung Hamburg","recycling:glass_bottles":"yes","recycling:paper":"yes","recycling:small_appliances":"yes","recycling:small_electrical_appliances":"yes","recycling_type":"container"}},"type":"Feature"},
	{"geometry":{"coordinates":[9.806912,53.557811],"type":"Point"},"properties":{"osm_id":"7836389294","tag":{"amenity":"waste_basket"}},"type":"Feature"},
	{"geometry":{"coordinates":[9.807766,53.556229],"type":"Point"},"properties":{"osm_id":"7836400594","tag":{"amenity":"waste_basket"}},"type":"Feature"},
	{"geometry":{"coordinates":[9.808095,53.556433],"type":"Point"},"properties":{"osm_id":"7836400595","tag":{"amenity":"waste_basket"}},"type":"Feature"},
	{"geometry":{"coordinates":[9.80515,53.556824],"type":"Point"},"properties":{"osm_id":"7836403603","tag":{"amenity":"waste_basket"}},"type":"Feature"},
	{"geometry":{"coordinates":[9.80515,53.559292],"type":"Point"},"properties":{"osm_id":"7836405745","tag":{"amenity":"waste_basket"}},"type":"Feature"},
	{"geometry":{"coordinates":[9.803412,53.560183],"type":"Point"},"properties":{"osm_id":"7836405746","tag":{"amenity":"waste_basket"}},"type":"Feature"},
	{"geometry":{"coordinates":[9.812313,53.555645],"type":"Point"},"properties":{"osm_id":"7836423189","tag":{"amenity":"waste_basket"}},"type":"Feature"},
	{"geometry":{"coordinates":[9.808043,53.558246],"type":"Point"},"properties":{"osm_id":"7836423196","tag":{"amenity":"waste_basket"}},"type":"Feature"},
	{"geometry":{"coordinates":[9.808194,53.561571],"type":"Point"},"properties":{"osm_id":"7837422175","tag":{"amenity":"waste_basket"}},"type":"Feature"},
	{"geometry":{"coordinates":[9.811005,53.560521],"type":"Point"},"properties":{"osm_id":"7837458818","tag":{"amenity":"waste_basket"}},"type":"Feature"},
	{"geometry":{"coordinates":[9.814366,53.559517],"type":"Point"},"properties":{"osm_id":"7837520859","tag":{"amenity":"waste_basket"}},"type":"Feature"},
	{"geometry":{"coordinates":[9.81956,53.560435],"type":"Point"},"properties":{"osm_id":"7837581868","tag":{"amenity":"waste_basket"}},"type":"Feature"}
]
}
