{
"type": "FeatureCollection",
"lastupdate": "2020-08-04T00:00:00Z",
"features": [
	{"geometry":{"coordinates":[9.808002,53.245902],"type":"Point"},"properties":{"name":"Manzke Kiesgrube und Recyclingst\u00c3\u00a4tte Welle","osm_id":"277479458","tag":{"addr:city":"Welle","addr:country":"DE","addr:housenumber":"1","addr:postcode":"21261","addr:street":"Hauptstra\u00dfe","amenity":"recycling","collection_times":"Mo-Fr 07:00-17:00","phone":"+49 4188 7244","recycling:stones":"yes","recycling_type":"centre","website":"https://www.manzke.com"}},"type":"Feature"},
	{"geometry":{"coordinates":[9.802494,53.238386],"type":"Point"},"properties":{"osm_id":"303571081","tag":{"amenity":"recycling","recycling:batteries":"no","recycling:clothes":"yes","recycling:glass_bottles":"yes","recycling_type":"container"}},"type":"Feature"},
	{"geometry":{"coordinates":[9.781108,53.226747],"type":"Point"},"properties":{"osm_id":"303580124","tag":{"amenity":"recycling","recycling:glass_bottles":"yes","recycling_type":"container"}},"type":"Feature"},
	{"geometry":{"coordinates":[9.807799,53.253592],"type":"Point"},"properties":{"osm_id":"314074996","tag":{"amenity":"recycling","recycling:clothes":"yes","recycling:glass_bottles":"yes","recycling_type":"container"}},"type":"Feature"},
	{"geometry":{"coordinates":[9.833864,53.247544],"type":"Point"},"properties":{"osm_id":"314075021","tag":{"amenity":"recycling","recycling:clothes":"yes","recycling:glass_bottles":"yes","recycling_type":"container"}},"type":"Feature"},
	{"geometry":{"coordinates":[9.775674,53.244213],"type":"Point"},"properties":{"osm_id":"366738203","tag":{"amenity":"recycling","recycling:clothes":"yes","recycling:glass_bottles":"yes","recycling_type":"container"}},"type":"Feature"}
]
}
