{
"type": "FeatureCollection",
"features": [
	{"geometry":{"coordinates":[9.761037,53.146154],"type":"Point"},"properties":{"osm_id":"486248664","tag":{"amenity":"recycling","recycling:clothes":"yes","recycling:glass_bottles":"yes","recycling_type":"container"}},"type":"Feature"},
	{"geometry":{"coordinates":[9.790312,53.131085],"type":"Point"},"properties":{"osm_id":"797726119","tag":{"amenity":"recycling","check_date":"2020-08-06","recycling:glass_bottles":"yes","recycling:small_appliances":"yes","recycling:small_electrical_appliances":"yes","recycling_type":"container"}},"type":"Feature"},
	{"geometry":{"coordinates":[9.785177,53.127056],"type":"Point"},"properties":{"osm_id":"877643470","tag":{"amenity":"waste_basket"}},"type":"Feature"},
	{"geometry":{"coordinates":[9.78494,53.12683],"type":"Point"},"properties":{"osm_id":"877643510","tag":{"amenity":"waste_basket"}},"type":"Feature"},
	{"geometry":{"coordinates":[9.789097,53.131155],"type":"Point"},"properties":{"osm_id":"1243615355","tag":{"amenity":"waste_basket"}},"type":"Feature"},
	{"geometry":{"coordinates":[9.786423,53.130687],"type":"Point"},"properties":{"osm_id":"1243615473","tag":{"amenity":"waste_basket"}},"type":"Feature"},
	{"geometry":{"coordinates":[9.79091,53.131571],"type":"Point"},"properties":{"osm_id":"1257151407","tag":{"amenity":"waste_basket"}},"type":"Feature"},
	{"geometry":{"coordinates":[9.790133,53.130955],"type":"Point"},"properties":{"osm_id":"1257151474","tag":{"amenity":"waste_basket"}},"type":"Feature"},
	{"geometry":{"coordinates":[9.789825,53.131336],"type":"Point"},"properties":{"osm_id":"1257151648","tag":{"amenity":"waste_basket"}},"type":"Feature"},
	{"geometry":{"coordinates":[9.806504,53.136073],"type":"Point"},"properties":{"osm_id":"1263369560","tag":{"amenity":"waste_basket"}},"type":"Feature"},
	{"geometry":{"coordinates":[9.803908,53.13816],"type":"Point"},"properties":{"osm_id":"1263369597","tag":{"amenity":"waste_basket"}},"type":"Feature"},
	{"geometry":{"coordinates":[9.806179,53.136297],"type":"Point"},"properties":{"osm_id":"1263369603","tag":{"amenity":"waste_basket"}},"type":"Feature"},
	{"geometry":{"coordinates":[9.797055,53.135422],"type":"Point"},"properties":{"osm_id":"1263369654","tag":{"amenity":"waste_basket"}},"type":"Feature"},
	{"geometry":{"coordinates":[9.788417,53.122058],"type":"Point"},"properties":{"osm_id":"1681762943","tag":{"amenity":"waste_basket"}},"type":"Feature"},
	{"geometry":{"coordinates":[9.780014,53.122098],"type":"Point"},"properties":{"osm_id":"1681762947","tag":{"amenity":"waste_basket"}},"type":"Feature"},
	{"geometry":{"coordinates":[9.787096,53.124047],"type":"Point"},"properties":{"osm_id":"1681763038","tag":{"amenity":"waste_basket"}},"type":"Feature"},
	{"geometry":{"coordinates":[9.790119,53.124681],"type":"Point"},"properties":{"osm_id":"1684674965","tag":{"amenity":"waste_basket"}},"type":"Feature"},
	{"geometry":{"coordinates":[9.772678,53.13127],"type":"Point"},"properties":{"name":"Entsorgungsstation Campingmobile","osm_id":"3749907993","tag":{"amenity":"waste_disposal","fee":"yes"}},"type":"Feature"}
]
}
