{
"type": "FeatureCollection",
"features": [
	{"geometry":{"coordinates":[9.801655,52.456002],"type":"Point"},"properties":{"name":"Gr\u00c3\u00bcngutannahme Thies","osm_id":"454588812","tag":{"addr:city":"Isernhagen","addr:housenumber":"72","addr:postcode":"30916","addr:street":"Am Ortfelde","addr:suburb":"Isernhagen N.B.","amenity":"recycling","recycling_type":"centre"}},"type":"Feature"},
	{"geometry":{"coordinates":[9.807778,52.462159],"type":"Point"},"properties":{"osm_id":"461124604","tag":{"amenity":"recycling","recycling:glass_bottles":"yes","recycling:paper":"yes","recycling_type":"container"}},"type":"Feature"},
	{"geometry":{"coordinates":[9.795183,52.457153],"type":"Point"},"properties":{"osm_id":"462625400","tag":{"amenity":"recycling","recycling:paper":"yes","recycling_type":"container"}},"type":"Feature"},
	{"geometry":{"coordinates":[9.82178,52.460456],"type":"Point"},"properties":{"osm_id":"5180683486","tag":{"amenity":"recycling","opening_hours":"24/7","recycling:glass":"yes","recycling:paper":"yes","recycling_type":"centre"}},"type":"Feature"},
	{"geometry":{"coordinates":[9.756188,52.43085],"type":"Point"},"properties":{"osm_id":"8270616667","tag":{"amenity":"waste_basket"}},"type":"Feature"},
	{"geometry":{"coordinates":[9.80258,52.434585],"type":"Point"},"properties":{"osm_id":"8305488875","tag":{"amenity":"waste_basket"}},"type":"Feature"},
	{"geometry":{"coordinates":[9.801877,52.438228],"type":"Point"},"properties":{"osm_id":"8305489371","tag":{"amenity":"waste_basket"}},"type":"Feature"},
	{"geometry":{"coordinates":[9.801793,52.438818],"type":"Point"},"properties":{"osm_id":"8305489372","tag":{"amenity":"waste_basket"}},"type":"Feature"},
	{"geometry":{"coordinates":[9.802772,52.435312],"type":"Point"},"properties":{"osm_id":"8305496003","tag":{"amenity":"waste_basket"}},"type":"Feature"},
	{"geometry":{"coordinates":[9.802376,52.437489],"type":"Point"},"properties":{"osm_id":"8305498750","tag":{"amenity":"waste_basket"}},"type":"Feature"},
	{"geometry":{"coordinates":[9.802927,52.435677],"type":"Point"},"properties":{"osm_id":"8305510065","tag":{"amenity":"waste_basket"}},"type":"Feature"},
	{"geometry":{"coordinates":[9.799918,52.45021],"type":"Point"},"properties":{"osm_id":"8305539115","tag":{"amenity":"waste_basket"}},"type":"Feature"},
	{"geometry":{"coordinates":[9.81552,52.460547],"type":"Point"},"properties":{"osm_id":"8354695298","tag":{"amenity":"waste_basket"}},"type":"Feature"},
	{"geometry":{"coordinates":[9.840737,52.440924],"type":"Point"},"properties":{"osm_id":"8354912876","tag":{"amenity":"waste_basket"}},"type":"Feature"},
	{"geometry":{"coordinates":[9.801413,52.429288],"type":"Point"},"properties":{"osm_id":"8806918081","tag":{"amenity":"recycling","recycling:glass_bottles":"yes","recycling_type":"container"}},"type":"Feature"},
	{"geometry":{"coordinates":[9.766114,52.477919],"type":"Point"},"properties":{"osm_id":"8960481685","tag":{"amenity":"waste_basket"}},"type":"Feature"},
	{"geometry":{"coordinates":[9.839632,52.473839],"type":"Point"},"properties":{"osm_id":"8960502541","tag":{"amenity":"waste_basket"}},"type":"Feature"}
]
}
