{
"type": "FeatureCollection",
"lastupdate": "2020-08-01T00:00:00Z",
"features": [
	{"geometry":{"coordinates":[9.814731,52.290515],"type":"Point"},"properties":{"osm_id":"259167410","tag":{"amenity":"recycling","recycling:glass_bottles":"yes","recycling:paper":"yes","recycling_type":"container"}},"type":"Feature"},
	{"geometry":{"coordinates":[9.818019,52.294957],"type":"Point"},"properties":{"name":"Kompostplatz der Stadt Laatzen","osm_id":"259585229","tag":{"amenity":"recycling","recycling:green_waste":"yes","recycling_type":"centre"}},"type":"Feature"},
	{"geometry":{"coordinates":[9.818274,52.290442],"type":"Point"},"properties":{"osm_id":"259592143","tag":{"amenity":"recycling","recycling:glass_bottles":"yes","recycling:paper":"yes","recycling_type":"container"}},"type":"Feature"},
	{"geometry":{"coordinates":[9.808939,52.320609],"type":"Point"},"properties":{"osm_id":"260063957","tag":{"amenity":"recycling","recycling:glass_bottles":"yes"}},"type":"Feature"},
	{"geometry":{"coordinates":[9.811067,52.319115],"type":"Point"},"properties":{"osm_id":"260065175","tag":{"amenity":"recycling","recycling:glass_bottles":"yes"}},"type":"Feature"},
	{"geometry":{"coordinates":[9.812664,52.321192],"type":"Point"},"properties":{"osm_id":"260066183","tag":{"amenity":"recycling","recycling:glass_bottles":"yes"}},"type":"Feature"},
	{"geometry":{"coordinates":[9.806163,52.320365],"type":"Point"},"properties":{"osm_id":"260113900","tag":{"amenity":"recycling","recycling:glass_bottles":"yes","recycling_type":"container"}},"type":"Feature"},
	{"geometry":{"coordinates":[9.823187,52.301024],"type":"Point"},"properties":{"osm_id":"267823082","tag":{"amenity":"recycling"}},"type":"Feature"},
	{"geometry":{"coordinates":[9.822099,52.300362],"type":"Point"},"properties":{"osm_id":"267826471","tag":{"amenity":"recycling","recycling_type":"container"}},"type":"Feature"},
	{"geometry":{"coordinates":[9.766344,52.28942],"type":"Point"},"properties":{"osm_id":"307935726","tag":{"amenity":"recycling","recycling:glass":"yes","recycling_type":"container"}},"type":"Feature"},
	{"geometry":{"coordinates":[9.803137,52.312439],"type":"Point"},"properties":{"osm_id":"509459281","tag":{"amenity":"waste_basket"}},"type":"Feature"},
	{"geometry":{"coordinates":[9.802783,52.312005],"type":"Point"},"properties":{"osm_id":"510599758","tag":{"amenity":"waste_basket"}},"type":"Feature"},
	{"geometry":{"coordinates":[9.806167,52.302153],"type":"Point"},"properties":{"osm_id":"675650039","tag":{"amenity":"recycling","recycling:glass_bottles":"yes","recycling:paper":"yes"}},"type":"Feature"},
	{"geometry":{"coordinates":[9.81618,52.287671],"type":"Point"},"properties":{"osm_id":"1188183373","tag":{"amenity":"waste_basket"}},"type":"Feature"},
	{"geometry":{"coordinates":[9.784935,52.317067],"type":"Point"},"properties":{"osm_id":"1579413602","tag":{"amenity":"recycling","recycling:clothes":"yes","recycling:glass":"yes","recycling:glass_bottles":"yes","recycling_type":"container"}},"type":"Feature"},
	{"geometry":{"coordinates":[9.79078,52.318161],"type":"Point"},"properties":{"osm_id":"2039200592","tag":{"amenity":"recycling","recycling:paper":"yes","recycling_type":"container"}},"type":"Feature"},
	{"geometry":{"coordinates":[9.787296,52.31829],"type":"Point"},"properties":{"osm_id":"2039200593","tag":{"amenity":"recycling","recycling:clothes":"yes","recycling_type":"container"}},"type":"Feature"},
	{"geometry":{"coordinates":[9.786597,52.3196],"type":"Point"},"properties":{"osm_id":"2039200594","tag":{"amenity":"recycling","recycling:cans":"yes","recycling:paper":"yes","recycling_type":"container"}},"type":"Feature"},
	{"geometry":{"coordinates":[9.825018,52.286153],"type":"Point"},"properties":{"osm_id":"2342108619","tag":{"amenity":"recycling","recycling:clothes":"yes","recycling:glass":"yes","recycling:paper":"yes","recycling_type":"container"}},"type":"Feature"},
	{"geometry":{"coordinates":[9.82141,52.284166],"type":"Point"},"properties":{"osm_id":"2379193280","tag":{"amenity":"recycling","recycling:glass":"yes","recycling:paper":"yes","recycling_type":"container"}},"type":"Feature"},
	{"geometry":{"coordinates":[9.763425,52.291608],"type":"Point"},"properties":{"osm_id":"2709686962","tag":{"amenity":"recycling","recycling:clothes":"yes","recycling:glass":"yes","recycling_type":"container"}},"type":"Feature"},
	{"geometry":{"coordinates":[9.817889,52.300102],"type":"Point"},"properties":{"osm_id":"2721643039","tag":{"amenity":"recycling","recycling:clothes":"yes","recycling_type":"container"}},"type":"Feature"},
	{"geometry":{"coordinates":[9.819057,52.300176],"type":"Point"},"properties":{"osm_id":"2721643042","tag":{"amenity":"recycling","recycling:clothes":"yes","recycling_type":"container"}},"type":"Feature"},
	{"geometry":{"coordinates":[9.820395,52.305298],"type":"Point"},"properties":{"osm_id":"2721643377","tag":{"amenity":"recycling","recycling:clothes":"yes","recycling_type":"container"}},"type":"Feature"},
	{"geometry":{"coordinates":[9.80021,52.314724],"type":"Point"},"properties":{"osm_id":"3421283265","tag":{"amenity":"waste_basket"}},"type":"Feature"},
	{"geometry":{"coordinates":[9.801227,52.312894],"type":"Point"},"properties":{"osm_id":"3423475945","tag":{"amenity":"waste_basket"}},"type":"Feature"},
	{"geometry":{"coordinates":[9.802646,52.313275],"type":"Point"},"properties":{"osm_id":"3423475951","tag":{"amenity":"waste_basket"}},"type":"Feature"},
	{"geometry":{"coordinates":[9.802503,52.313468],"type":"Point"},"properties":{"osm_id":"3423475955","tag":{"amenity":"waste_basket"}},"type":"Feature"},
	{"geometry":{"coordinates":[9.801558,52.31428],"type":"Point"},"properties":{"osm_id":"3423475959","tag":{"amenity":"waste_basket"}},"type":"Feature"},
	{"geometry":{"coordinates":[9.802128,52.314345],"type":"Point"},"properties":{"osm_id":"3423475961","tag":{"amenity":"waste_basket"}},"type":"Feature"},
	{"geometry":{"coordinates":[9.800475,52.314785],"type":"Point"},"properties":{"osm_id":"3423475968","tag":{"amenity":"waste_basket"}},"type":"Feature"},
	{"geometry":{"coordinates":[9.757742,52.290079],"type":"Point"},"properties":{"osm_id":"4639861889","tag":{"amenity":"waste_basket"}},"type":"Feature"},
	{"geometry":{"coordinates":[9.831054,52.28469],"type":"Point"},"properties":{"osm_id":"4931405325","tag":{"amenity":"waste_basket"}},"type":"Feature"},
	{"geometry":{"coordinates":[9.80425,52.311534],"type":"Point"},"properties":{"osm_id":"6923408346","tag":{"amenity":"recycling","recycling:glass":"yes","recycling_type":"container"}},"type":"Feature"},
	{"geometry":{"coordinates":[9.818529,52.321468],"type":"Point"},"properties":{"osm_id":"7259148921","tag":{"amenity":"waste_basket","waste":"trash"}},"type":"Feature"},
	{"geometry":{"coordinates":[9.818437,52.321619],"type":"Point"},"properties":{"osm_id":"7259148922","tag":{"amenity":"waste_basket","waste":"trash"}},"type":"Feature"},
	{"geometry":{"coordinates":[9.817867,52.321839],"type":"Point"},"properties":{"osm_id":"7259148923","tag":{"amenity":"waste_basket","waste":"trash"}},"type":"Feature"},
	{"geometry":{"coordinates":[9.770764,52.269148],"type":"Point"},"properties":{"osm_id":"7387179253","tag":{"amenity":"recycling","recycling:glass_bottles":"yes","recycling:paper":"yes","recycling_type":"container"}},"type":"Feature"}
]
}
