{
"type": "FeatureCollection",
"features": [
	{"geometry":{"coordinates":[9.829423,52.213336],"type":"Point"},"properties":{"osm_id":"529517262","tag":{"amenity":"recycling","recycling:cans":"no","recycling:clothes":"yes","recycling:glass":"yes","recycling:paper":"yes","recycling_type":"container"}},"type":"Feature"},
	{"geometry":{"coordinates":[9.78586,52.160981],"type":"Point"},"properties":{"osm_id":"1582744921","tag":{"amenity":"recycling","recycling:clothes":"yes","recycling:paper":"yes","recycling_type":"container"}},"type":"Feature"},
	{"geometry":{"coordinates":[9.795792,52.164112],"type":"Point"},"properties":{"osm_id":"1938006868","tag":{"amenity":"recycling","recycling:clothes":"yes","recycling:glass_bottles":"yes","recycling:paper":"yes","recycling:shoes":"yes","recycling_type":"container"}},"type":"Feature"},
	{"geometry":{"coordinates":[9.816774,52.182215],"type":"Point"},"properties":{"osm_id":"2076145063","tag":{"amenity":"recycling","recycling:clothes":"yes","recycling:glass_bottles":"yes","recycling:paper":"yes","recycling:shoes":"yes","recycling_type":"container"}},"type":"Feature"},
	{"geometry":{"coordinates":[9.792018,52.167357],"type":"Point"},"properties":{"osm_id":"3074023766","tag":{"amenity":"recycling","recycling:paper":"yes","recycling_type":"container"}},"type":"Feature"},
	{"geometry":{"coordinates":[9.810882,52.162114],"type":"Point"},"properties":{"osm_id":"3156259809","tag":{"amenity":"recycling","recycling_type":"container"}},"type":"Feature"},
	{"geometry":{"coordinates":[9.814423,52.195621],"type":"Point"},"properties":{"osm_id":"3624039925","tag":{"amenity":"recycling","recycling:clothes":"yes","recycling:paper":"yes","recycling:shoes":"yes","recycling_type":"container"}},"type":"Feature"},
	{"geometry":{"coordinates":[9.815608,52.200636],"type":"Point"},"properties":{"osm_id":"3624039928","tag":{"amenity":"recycling","recycling:clothes":"yes","recycling:glass_bottles":"yes","recycling:paper":"yes","recycling_type":"container"}},"type":"Feature"},
	{"geometry":{"coordinates":[9.837051,52.213488],"type":"Point"},"properties":{"osm_id":"8274103962","tag":{"amenity":"waste_basket"}},"type":"Feature"},
	{"geometry":{"coordinates":[9.834201,52.212511],"type":"Point"},"properties":{"osm_id":"8279458928","tag":{"amenity":"waste_basket","colour":"green"}},"type":"Feature"},
	{"geometry":{"coordinates":[9.834421,52.212621],"type":"Point"},"properties":{"osm_id":"8279458929","tag":{"amenity":"waste_basket","colour":"grey"}},"type":"Feature"},
	{"geometry":{"coordinates":[9.834391,52.212531],"type":"Point"},"properties":{"osm_id":"8279458930","tag":{"amenity":"waste_basket","colour":"grey"}},"type":"Feature"},
	{"geometry":{"coordinates":[9.834764,52.213829],"type":"Point"},"properties":{"osm_id":"8286604926","tag":{"amenity":"waste_basket"}},"type":"Feature"},
	{"geometry":{"coordinates":[9.78742,52.161766],"type":"Point"},"properties":{"osm_id":"8707501236","tag":{"amenity":"waste_basket"}},"type":"Feature"},
	{"geometry":{"coordinates":[9.781038,52.161708],"type":"Point"},"properties":{"osm_id":"8712844141","tag":{"amenity":"waste_basket"}},"type":"Feature"},
	{"geometry":{"coordinates":[9.788716,52.161233],"type":"Point"},"properties":{"osm_id":"8712867810","tag":{"amenity":"waste_basket"}},"type":"Feature"},
	{"geometry":{"coordinates":[9.785863,52.161053],"type":"Point"},"properties":{"osm_id":"8712867812","tag":{"amenity":"waste_basket"}},"type":"Feature"},
	{"geometry":{"coordinates":[9.786543,52.166231],"type":"Point"},"properties":{"osm_id":"8714403832","tag":{"amenity":"waste_basket"}},"type":"Feature"},
	{"geometry":{"coordinates":[9.786684,52.165383],"type":"Point"},"properties":{"osm_id":"8714403833","tag":{"amenity":"waste_basket"}},"type":"Feature"},
	{"geometry":{"coordinates":[9.784146,52.166104],"type":"Point"},"properties":{"osm_id":"8714403836","tag":{"amenity":"waste_basket"}},"type":"Feature"},
	{"geometry":{"coordinates":[9.787268,52.165636],"type":"Point"},"properties":{"osm_id":"8714403837","tag":{"amenity":"waste_basket"}},"type":"Feature"},
	{"geometry":{"coordinates":[9.785475,52.164272],"type":"Point"},"properties":{"osm_id":"8714403839","tag":{"amenity":"waste_basket"}},"type":"Feature"},
	{"geometry":{"coordinates":[9.786445,52.166407],"type":"Point"},"properties":{"osm_id":"8714403840","tag":{"amenity":"waste_basket"}},"type":"Feature"},
	{"geometry":{"coordinates":[9.786044,52.164633],"type":"Point"},"properties":{"osm_id":"8714403841","tag":{"amenity":"waste_basket"}},"type":"Feature"},
	{"geometry":{"coordinates":[9.78805,52.16588],"type":"Point"},"properties":{"osm_id":"8714403842","tag":{"amenity":"waste_basket"}},"type":"Feature"},
	{"geometry":{"coordinates":[9.78726,52.163338],"type":"Point"},"properties":{"osm_id":"8714403845","tag":{"amenity":"waste_basket"}},"type":"Feature"},
	{"geometry":{"coordinates":[9.782793,52.166176],"type":"Point"},"properties":{"osm_id":"8714403846","tag":{"amenity":"waste_basket"}},"type":"Feature"},
	{"geometry":{"coordinates":[9.779611,52.166246],"type":"Point"},"properties":{"osm_id":"8714403847","tag":{"amenity":"waste_basket"}},"type":"Feature"}
]
}
