{
"type": "FeatureCollection",
"features": [
	{"geometry":{"coordinates":[9.832452,51.652937],"type":"Point"},"properties":{"osm_id":"1258869931","tag":{"amenity":"waste_basket","operator":"Stadt Hardegsen"}},"type":"Feature"},
	{"geometry":{"coordinates":[9.825806,51.65901],"type":"Point"},"properties":{"osm_id":"2142638870","tag":{"amenity":"waste_basket"}},"type":"Feature"},
	{"geometry":{"coordinates":[9.823866,51.652167],"type":"Point"},"properties":{"osm_id":"3934334671","tag":{"amenity":"waste_basket","survey:date":"2015-01-08"}},"type":"Feature"},
	{"geometry":{"coordinates":[9.820131,51.65444],"type":"Point"},"properties":{"osm_id":"3934334688","tag":{"amenity":"waste_basket","survey:date":"2015-01-08"}},"type":"Feature"},
	{"geometry":{"coordinates":[9.819423,51.65618],"type":"Point"},"properties":{"osm_id":"3934334692","tag":{"amenity":"waste_basket","survey:date":"2015-01-08"}},"type":"Feature"},
	{"geometry":{"coordinates":[9.820526,51.656419],"type":"Point"},"properties":{"osm_id":"3934334693","tag":{"amenity":"waste_basket","survey:date":"2015-01-08"}},"type":"Feature"},
	{"geometry":{"coordinates":[9.826905,51.654945],"type":"Point"},"properties":{"osm_id":"3934358308","tag":{"amenity":"waste_basket","survey:date":"2015-01-08"}},"type":"Feature"},
	{"geometry":{"coordinates":[9.824425,51.652096],"type":"Point"},"properties":{"osm_id":"3934377380","tag":{"amenity":"waste_basket","survey:date":"2015-01-08"}},"type":"Feature"},
	{"geometry":{"coordinates":[9.8242,51.6521],"type":"Point"},"properties":{"osm_id":"3934377381","tag":{"amenity":"waste_basket","survey:date":"2015-01-08"}},"type":"Feature"},
	{"geometry":{"coordinates":[9.824898,51.652184],"type":"Point"},"properties":{"osm_id":"3934377385","tag":{"amenity":"waste_basket","survey:date":"2015-01-08"}},"type":"Feature"},
	{"geometry":{"coordinates":[9.828205,51.652065],"type":"Point"},"properties":{"osm_id":"3934403173","tag":{"amenity":"waste_basket","survey:date":"2015-01-08"}},"type":"Feature"},
	{"geometry":{"coordinates":[9.828144,51.65222],"type":"Point"},"properties":{"osm_id":"3934403181","tag":{"amenity":"waste_basket","survey:date":"2015-01-08"}},"type":"Feature"},
	{"geometry":{"coordinates":[9.828349,51.652429],"type":"Point"},"properties":{"osm_id":"3934403194","tag":{"amenity":"waste_basket","survey:date":"2015-01-08"}},"type":"Feature"},
	{"geometry":{"coordinates":[9.827944,51.653798],"type":"Point"},"properties":{"osm_id":"3934403212","tag":{"amenity":"waste_basket","survey:date":"2015-01-08"}},"type":"Feature"},
	{"geometry":{"coordinates":[9.828257,51.653809],"type":"Point"},"properties":{"osm_id":"3934403213","tag":{"amenity":"waste_basket","survey:date":"2015-01-08"}},"type":"Feature"},
	{"geometry":{"coordinates":[9.829376,51.654688],"type":"Point"},"properties":{"osm_id":"3934403237","tag":{"amenity":"waste_basket","survey:date":"2015-01-08"}},"type":"Feature"},
	{"geometry":{"coordinates":[9.827869,51.654176],"type":"Point"},"properties":{"osm_id":"3934406919","tag":{"amenity":"waste_basket","survey:date":"2015-01-08"}},"type":"Feature"},
	{"geometry":{"coordinates":[9.826109,51.64944],"type":"Point"},"properties":{"osm_id":"5732734058","tag":{"amenity":"waste_basket","survey:date":"2018-07-01"}},"type":"Feature"},
	{"geometry":{"coordinates":[9.825391,51.649153],"type":"Point"},"properties":{"osm_id":"5732734060","tag":{"amenity":"waste_basket","survey:date":"2018-07-01"}},"type":"Feature"},
	{"geometry":{"coordinates":[9.82573,51.649357],"type":"Point"},"properties":{"osm_id":"5732734061","tag":{"amenity":"waste_basket","survey:date":"2018-07-01"}},"type":"Feature"},
	{"geometry":{"coordinates":[9.82552,51.649241],"type":"Point"},"properties":{"osm_id":"5732734067","tag":{"amenity":"waste_basket","survey:date":"2018-07-01"}},"type":"Feature"},
	{"geometry":{"coordinates":[9.82755,51.648617],"type":"Point"},"properties":{"osm_id":"5732734070","tag":{"amenity":"waste_basket","survey:date":"2018-07-01"}},"type":"Feature"},
	{"geometry":{"coordinates":[9.829464,51.64863],"type":"Point"},"properties":{"osm_id":"5732734076","tag":{"amenity":"waste_basket","survey:date":"2018-07-01"}},"type":"Feature"},
	{"geometry":{"coordinates":[9.830087,51.64861],"type":"Point"},"properties":{"osm_id":"5732734080","tag":{"amenity":"waste_basket","survey:date":"2018-07-01"}},"type":"Feature"},
	{"geometry":{"coordinates":[9.830719,51.650641],"type":"Point"},"properties":{"osm_id":"5732734084","tag":{"amenity":"waste_basket","survey:date":"2018-07-01"}},"type":"Feature"},
	{"geometry":{"coordinates":[9.826322,51.65825],"type":"Point"},"properties":{"osm_id":"5732734086","tag":{"amenity":"waste_basket","survey:date":"2018-07-01"}},"type":"Feature"},
	{"geometry":{"coordinates":[9.826477,51.658285],"type":"Point"},"properties":{"osm_id":"5732734090","tag":{"amenity":"waste_basket","survey:date":"2018-07-01"}},"type":"Feature"},
	{"geometry":{"coordinates":[9.827651,51.656725],"type":"Point"},"properties":{"osm_id":"5732734094","tag":{"amenity":"waste_basket","survey:date":"2018-07-01"}},"type":"Feature"},
	{"geometry":{"coordinates":[9.833194,51.652887],"type":"Point"},"properties":{"osm_id":"5732734102","tag":{"amenity":"waste_basket","survey:date":"2018-07-01"}},"type":"Feature"},
	{"geometry":{"coordinates":[9.836259,51.649747],"type":"Point"},"properties":{"osm_id":"5732734114","tag":{"amenity":"waste_basket","survey:date":"2018-07-01"}},"type":"Feature"},
	{"geometry":{"coordinates":[9.83609,51.64963],"type":"Point"},"properties":{"osm_id":"5732734119","tag":{"amenity":"waste_basket","survey:date":"2018-07-01"}},"type":"Feature"},
	{"geometry":{"coordinates":[9.804992,51.631373],"type":"Point"},"properties":{"osm_id":"5732744770","tag":{"amenity":"waste_basket","survey:date":"2018-07-01"}},"type":"Feature"},
	{"geometry":{"coordinates":[9.804852,51.633184],"type":"Point"},"properties":{"osm_id":"5732744772","tag":{"amenity":"waste_basket","survey:date":"2018-07-01"}},"type":"Feature"},
	{"geometry":{"coordinates":[9.804456,51.633223],"type":"Point"},"properties":{"osm_id":"5732744776","tag":{"amenity":"waste_basket","survey:date":"2018-07-01"}},"type":"Feature"},
	{"geometry":{"coordinates":[9.779861,51.63663],"type":"Point"},"properties":{"osm_id":"5732753756","tag":{"amenity":"waste_basket","survey:date":"2018-07-01"}},"type":"Feature"},
	{"geometry":{"coordinates":[9.799957,51.622879],"type":"Point"},"properties":{"osm_id":"5732759936","tag":{"amenity":"waste_basket","survey:date":"2018-07-01"}},"type":"Feature"},
	{"geometry":{"coordinates":[9.799959,51.622646],"type":"Point"},"properties":{"osm_id":"5732759937","tag":{"amenity":"waste_basket","survey:date":"2018-07-01"}},"type":"Feature"}
]
}
