{
"type": "FeatureCollection",
"lastupdate": "2020-08-01T00:00:00Z",
"features": [
	{"geometry":{"coordinates":[9.755881,51.581473],"type":"Point"},"properties":{"osm_id":"291165664","tag":{"amenity":"recycling","recycling:clothes":"yes","recycling:glass_bottles":"yes","recycling_type":"container"}},"type":"Feature"},
	{"geometry":{"coordinates":[9.759654,51.587805],"type":"Point"},"properties":{"osm_id":"291425424","tag":{"amenity":"recycling","recycling:clothes":"yes","recycling:glass_bottles":"yes","recycling_type":"container"}},"type":"Feature"},
	{"geometry":{"coordinates":[9.843374,51.564819],"type":"Point"},"properties":{"osm_id":"310608731","ref":"Hummelstal","tag":{"amenity":"recycling","operator":"GEB","recycling:clothes":"no","recycling:glass_bottles":"yes","recycling:paper":"no","recycling_type":"container"}},"type":"Feature"},
	{"geometry":{"coordinates":[9.784166,51.595048],"type":"Point"},"properties":{"osm_id":"667338261","tag":{"amenity":"recycling"}},"type":"Feature"},
	{"geometry":{"coordinates":[9.843287,51.564488],"type":"Point"},"properties":{"osm_id":"3271029150","tag":{"amenity":"waste_basket","survey:date":"2015-01-05"}},"type":"Feature"},
	{"geometry":{"coordinates":[9.828439,51.584851],"type":"Point"},"properties":{"osm_id":"4422919902","ref":"337","tag":{"amenity":"recycling","operator":"Fehr","recycling:glass":"no","recycling:glass_bottles":"yes","recycling_type":"container","survey:date":"2019-10-13"}},"type":"Feature"},
	{"geometry":{"coordinates":[9.786624,51.592448],"type":"Point"},"properties":{"osm_id":"5054705500","tag":{"amenity":"waste_basket"}},"type":"Feature"},
	{"geometry":{"coordinates":[9.759924,51.57816],"type":"Point"},"properties":{"osm_id":"5198707515","tag":{"amenity":"recycling","recycling:clothes":"yes","recycling_type":"container"}},"type":"Feature"},
	{"geometry":{"coordinates":[9.760034,51.577895],"type":"Point"},"properties":{"osm_id":"5198707516","tag":{"amenity":"recycling","recycling:clothes":"yes","recycling_type":"container"}},"type":"Feature"},
	{"geometry":{"coordinates":[9.786814,51.593149],"type":"Point"},"properties":{"osm_id":"5731244809","tag":{"amenity":"waste_basket","survey:date":"2018-06-28"}},"type":"Feature"},
	{"geometry":{"coordinates":[9.781244,51.59446],"type":"Point"},"properties":{"osm_id":"5731245731","tag":{"amenity":"waste_basket","survey:date":"2018-06-28"}},"type":"Feature"},
	{"geometry":{"coordinates":[9.828942,51.585895],"type":"Point"},"properties":{"osm_id":"5731343947","tag":{"amenity":"waste_basket","survey:date":"2019-10-13"}},"type":"Feature"},
	{"geometry":{"coordinates":[9.810193,51.58863],"type":"Point"},"properties":{"osm_id":"5731343950","tag":{"amenity":"waste_basket"}},"type":"Feature"},
	{"geometry":{"coordinates":[9.810076,51.588358],"type":"Point"},"properties":{"osm_id":"5731343952","tag":{"amenity":"waste_basket","survey:date":"2018-06-28"}},"type":"Feature"},
	{"geometry":{"coordinates":[9.803124,51.587465],"type":"Point"},"properties":{"osm_id":"5731343961","tag":{"amenity":"waste_basket","survey:date":"2018-06-28"}},"type":"Feature"},
	{"geometry":{"coordinates":[9.804105,51.587514],"type":"Point"},"properties":{"osm_id":"5731343968","tag":{"amenity":"waste_basket","survey:date":"2019-10-13"}},"type":"Feature"},
	{"geometry":{"coordinates":[9.817849,51.61479],"type":"Point"},"properties":{"osm_id":"5732759925","tag":{"amenity":"waste_basket","survey:date":"2018-07-01"}},"type":"Feature"},
	{"geometry":{"coordinates":[9.813375,51.615628],"type":"Point"},"properties":{"osm_id":"5732759933","tag":{"amenity":"waste_basket","survey:date":"2018-07-01"}},"type":"Feature"},
	{"geometry":{"coordinates":[9.828333,51.583342],"type":"Point"},"properties":{"osm_id":"6895433363","tag":{"amenity":"waste_basket","survey:date":"2019-10-13"}},"type":"Feature"},
	{"geometry":{"coordinates":[9.828431,51.584901],"type":"Point"},"properties":{"osm_id":"6895459751","tag":{"amenity":"recycling","recycling:clothes":"yes","recycling:shoes":"yes","recycling_type":"container","survey:date":"2019-10-13"}},"type":"Feature"},
	{"geometry":{"coordinates":[9.805498,51.578709],"type":"Point"},"properties":{"osm_id":"6896550565","tag":{"amenity":"waste_basket","survey:date":"2019-10-13"}},"type":"Feature"},
	{"geometry":{"coordinates":[9.809923,51.586576],"type":"Point"},"properties":{"osm_id":"6896552288","tag":{"amenity":"waste_basket","survey:date":"2019-10-13"}},"type":"Feature"},
	{"geometry":{"coordinates":[9.809863,51.586558],"type":"Point"},"properties":{"osm_id":"6896552292","tag":{"amenity":"waste_basket","survey:date":"2019-10-13"}},"type":"Feature"},
	{"geometry":{"coordinates":[9.808949,51.58649],"type":"Point"},"properties":{"osm_id":"6896552314","tag":{"amenity":"waste_basket","survey:date":"2019-10-13"}},"type":"Feature"},
	{"geometry":{"coordinates":[9.808691,51.58647],"type":"Point"},"properties":{"osm_id":"6896552317","tag":{"amenity":"waste_basket","survey:date":"2019-10-13"}},"type":"Feature"},
	{"geometry":{"coordinates":[9.809078,51.586499],"type":"Point"},"properties":{"osm_id":"6896552333","tag":{"amenity":"recycling","operator":"Ginotex","recycling:clothes":"yes","recycling:shoes":"yes","recycling_type":"container","survey:date":"2019-10-13"}},"type":"Feature"},
	{"geometry":{"coordinates":[9.809059,51.5865],"type":"Point"},"properties":{"osm_id":"6896552334","ref":"353","tag":{"amenity":"recycling","operator":"Fehr","recycling:glass":"no","recycling:glass_bottles":"yes","recycling_type":"container","survey:date":"2019-10-13"}},"type":"Feature"},
	{"geometry":{"coordinates":[9.810913,51.588813],"type":"Point"},"properties":{"osm_id":"6896552522","tag":{"amenity":"recycling","operator":"Darbo Recycling","recycling:clothes":"yes","recycling:shoes":"yes","recycling_type":"container","survey:date":"2019-10-13"}},"type":"Feature"},
	{"geometry":{"coordinates":[9.777643,51.574021],"type":"Point"},"properties":{"osm_id":"6901229978","tag":{"amenity":"waste_basket","survey:date":"2019-10-13"}},"type":"Feature"},
	{"geometry":{"coordinates":[9.777883,51.572203],"type":"Point"},"properties":{"osm_id":"6901240696","tag":{"amenity":"waste_basket","survey:date":"2019-10-13"}},"type":"Feature"},
	{"geometry":{"coordinates":[9.778295,51.574141],"type":"Point"},"properties":{"osm_id":"6901240740","tag":{"amenity":"waste_basket","survey:date":"2019-10-13"}},"type":"Feature"},
	{"geometry":{"coordinates":[9.778128,51.574723],"type":"Point"},"properties":{"osm_id":"6901240754","tag":{"amenity":"waste_basket","survey:date":"2019-10-13"}},"type":"Feature"},
	{"geometry":{"coordinates":[9.779339,51.576188],"type":"Point"},"properties":{"osm_id":"6901240839","tag":{"amenity":"waste_basket","survey:date":"2019-10-13"}},"type":"Feature"},
	{"geometry":{"coordinates":[9.777778,51.576115],"type":"Point"},"properties":{"osm_id":"6901240862","ref":"364","tag":{"amenity":"recycling","operator":"Fehr","recycling:glass":"no","recycling:glass_bottles":"yes","recycling_type":"container","survey:date":"2019-10-13"}},"type":"Feature"},
	{"geometry":{"coordinates":[9.777724,51.576116],"type":"Point"},"properties":{"osm_id":"6901240863","tag":{"amenity":"recycling","operator":"Ginotex","recycling:clothes":"yes","recycling:shoes":"yes","recycling_type":"container","survey:date":"2019-10-13"}},"type":"Feature"}
]
}
