{
"type": "FeatureCollection",
"features": [
	{"geometry":{"coordinates":[9.830784,51.506844],"type":"Point"},"properties":{"osm_id":"301811858","ref":"321","tag":{"amenity":"recycling","operator":"Fehr","recycling:glass_bottles":"yes","recycling_type":"container","survey:date":"2017-06-17"}},"type":"Feature"},
	{"geometry":{"coordinates":[9.768873,51.506407],"type":"Point"},"properties":{"osm_id":"494563990","ref":"291;351;394;402;412","tag":{"amenity":"recycling","operator":"Fehr","recycling:glass":"no","recycling:glass_bottles":"yes","recycling_type":"container","survey:date":"2019-09-14"}},"type":"Feature"},
	{"geometry":{"coordinates":[9.796626,51.49069],"type":"Point"},"properties":{"osm_id":"1024701626","tag":{"amenity":"recycling","operator":"Veolia Umweltservice GmbH","recycling:glass_bottles":"yes","recycling_type":"container"}},"type":"Feature"},
	{"geometry":{"coordinates":[9.756712,51.501719],"type":"Point"},"properties":{"osm_id":"2928116041","tag":{"amenity":"waste_basket","survey:date":"2014-05-31"}},"type":"Feature"},
	{"geometry":{"coordinates":[9.756125,51.501871],"type":"Point"},"properties":{"osm_id":"2928116043","tag":{"amenity":"waste_basket","survey:date":"2018-06-17"}},"type":"Feature"},
	{"geometry":{"coordinates":[9.756604,51.502081],"type":"Point"},"properties":{"osm_id":"2928116046","tag":{"amenity":"waste_basket","survey:date":"2014-05-31"}},"type":"Feature"},
	{"geometry":{"coordinates":[9.756266,51.502238],"type":"Point"},"properties":{"osm_id":"2928116048","tag":{"amenity":"waste_basket","survey:date":"2018-06-17"}},"type":"Feature"},
	{"geometry":{"coordinates":[9.764554,51.502248],"type":"Point"},"properties":{"osm_id":"2928116050","tag":{"amenity":"waste_basket","survey:date":"2014-05-31"}},"type":"Feature"},
	{"geometry":{"coordinates":[9.829886,51.506584],"type":"Point"},"properties":{"osm_id":"3682650284","tag":{"amenity":"waste_basket","survey:date":"2017-06-17"}},"type":"Feature"},
	{"geometry":{"coordinates":[9.835096,51.507517],"type":"Point"},"properties":{"osm_id":"3682651462","tag":{"amenity":"waste_basket","survey:date":"2015-08-02"}},"type":"Feature"},
	{"geometry":{"coordinates":[9.81394,51.507976],"type":"Point"},"properties":{"osm_id":"3736547208","tag":{"amenity":"waste_basket","survey:date":"2017-06-17"}},"type":"Feature"},
	{"geometry":{"coordinates":[9.801232,51.464927],"type":"Point"},"properties":{"osm_id":"3824191097","tag":{"amenity":"waste_basket","survey:date":"2015-10-17"}},"type":"Feature"},
	{"geometry":{"coordinates":[9.791581,51.485768],"type":"Point"},"properties":{"osm_id":"3824240895","tag":{"amenity":"waste_basket","survey:date":"2015-10-17"}},"type":"Feature"},
	{"geometry":{"coordinates":[9.760723,51.493341],"type":"Point"},"properties":{"osm_id":"3865398576","tag":{"amenity":"recycling","recycling:clothes":"yes","recycling_type":"container"}},"type":"Feature"},
	{"geometry":{"coordinates":[9.759494,51.503032],"type":"Point"},"properties":{"osm_id":"4225565849","tag":{"amenity":"waste_basket","survey:date":"2016-06-03"}},"type":"Feature"},
	{"geometry":{"coordinates":[9.764944,51.502527],"type":"Point"},"properties":{"osm_id":"4549473769","tag":{"amenity":"recycling","operator":"RMK Recycling GmbH","recycling:clothes":"yes","recycling:shoes":"yes","recycling_type":"container","survey:date":"2016-12-11"}},"type":"Feature"},
	{"geometry":{"coordinates":[9.814285,51.50724],"type":"Point"},"properties":{"osm_id":"4921359445","ref":"307","tag":{"amenity":"recycling","operator":"Fehr","recycling:glass_bottles":"yes","survey:date":"2017-06-17"}},"type":"Feature"},
	{"geometry":{"coordinates":[9.814487,51.507168],"type":"Point"},"properties":{"osm_id":"4921359446","tag":{"amenity":"waste_basket","survey:date":"2017-06-17"}},"type":"Feature"},
	{"geometry":{"coordinates":[9.759516,51.497831],"type":"Point"},"properties":{"osm_id":"5221951195","tag":{"amenity":"waste_basket","survey:date":"2017-11-08"}},"type":"Feature"},
	{"geometry":{"coordinates":[9.767526,51.50087],"type":"Point"},"properties":{"osm_id":"5516928659","tag":{"amenity":"waste_basket","survey:date":"2018-03-30"}},"type":"Feature"},
	{"geometry":{"coordinates":[9.767053,51.50104],"type":"Point"},"properties":{"osm_id":"5516928663","tag":{"amenity":"waste_basket","survey:date":"2018-03-30"}},"type":"Feature"},
	{"geometry":{"coordinates":[9.766992,51.501057],"type":"Point"},"properties":{"osm_id":"5516928664","tag":{"amenity":"waste_basket","survey:date":"2018-03-30"}},"type":"Feature"},
	{"geometry":{"coordinates":[9.766053,51.495608],"type":"Point"},"properties":{"osm_id":"5517142893","tag":{"amenity":"waste_basket","survey:date":"2018-03-30"}},"type":"Feature"},
	{"geometry":{"coordinates":[9.761872,51.501956],"type":"Point"},"properties":{"osm_id":"5517248781","tag":{"amenity":"waste_basket","survey:date":"2018-03-30"}},"type":"Feature"},
	{"geometry":{"coordinates":[9.762128,51.501921],"type":"Point"},"properties":{"osm_id":"5517248782","tag":{"amenity":"waste_basket","survey:date":"2018-03-30"}},"type":"Feature"},
	{"geometry":{"coordinates":[9.760746,51.498898],"type":"Point"},"properties":{"osm_id":"5517248796","tag":{"amenity":"waste_basket","survey:date":"2018-03-30"}},"type":"Feature"},
	{"geometry":{"coordinates":[9.761045,51.499093],"type":"Point"},"properties":{"osm_id":"5517248799","tag":{"amenity":"waste_basket","survey:date":"2018-03-30"}},"type":"Feature"},
	{"geometry":{"coordinates":[9.761022,51.499067],"type":"Point"},"properties":{"osm_id":"5517248800","tag":{"amenity":"waste_basket","survey:date":"2018-03-30"}},"type":"Feature"},
	{"geometry":{"coordinates":[9.758542,51.494674],"type":"Point"},"properties":{"osm_id":"5522427226","tag":{"amenity":"waste_basket","survey:date":"2018-04-01"}},"type":"Feature"},
	{"geometry":{"coordinates":[9.758633,51.495325],"type":"Point"},"properties":{"osm_id":"5522427237","tag":{"amenity":"waste_basket","survey:date":"2019-09-12"}},"type":"Feature"},
	{"geometry":{"coordinates":[9.758096,51.49622],"type":"Point"},"properties":{"osm_id":"5522427246","tag":{"amenity":"waste_basket","survey:date":"2018-04-01"}},"type":"Feature"},
	{"geometry":{"coordinates":[9.758038,51.496642],"type":"Point"},"properties":{"osm_id":"5522427247","tag":{"amenity":"waste_basket","survey:date":"2019-09-12"}},"type":"Feature"},
	{"geometry":{"coordinates":[9.759405,51.500296],"type":"Point"},"properties":{"osm_id":"5522427290","tag":{"amenity":"waste_basket","survey:date":"2019-09-12"}},"type":"Feature"},
	{"geometry":{"coordinates":[9.758339,51.502821],"type":"Point"},"properties":{"osm_id":"5697718324","tag":{"amenity":"waste_basket","survey:date":"2018-06-17"}},"type":"Feature"},
	{"geometry":{"coordinates":[9.759349,51.502878],"type":"Point"},"properties":{"osm_id":"5697718325","tag":{"amenity":"waste_basket","survey:date":"2018-06-17"}},"type":"Feature"},
	{"geometry":{"coordinates":[9.759506,51.502968],"type":"Point"},"properties":{"osm_id":"5697718326","tag":{"amenity":"waste_basket","survey:date":"2018-06-17"}},"type":"Feature"},
	{"geometry":{"coordinates":[9.759805,51.50283],"type":"Point"},"properties":{"osm_id":"5697718328","tag":{"amenity":"waste_basket","survey:date":"2018-06-17"}},"type":"Feature"},
	{"geometry":{"coordinates":[9.76042,51.502826],"type":"Point"},"properties":{"osm_id":"5697718329","tag":{"amenity":"waste_basket","survey:date":"2018-06-17"}},"type":"Feature"},
	{"geometry":{"coordinates":[9.762028,51.502466],"type":"Point"},"properties":{"osm_id":"5697718330","tag":{"amenity":"waste_basket","survey:date":"2018-06-17"}},"type":"Feature"},
	{"geometry":{"coordinates":[9.761208,51.50256],"type":"Point"},"properties":{"osm_id":"5697718331","tag":{"amenity":"waste_basket","survey:date":"2018-06-17"}},"type":"Feature"},
	{"geometry":{"coordinates":[9.75629,51.503023],"type":"Point"},"properties":{"osm_id":"5697864174","tag":{"amenity":"waste_basket","survey:date":"2018-06-17"}},"type":"Feature"},
	{"geometry":{"coordinates":[9.757408,51.503809],"type":"Point"},"properties":{"osm_id":"5697864175","tag":{"amenity":"waste_basket","survey:date":"2018-06-17"}},"type":"Feature"},
	{"geometry":{"coordinates":[9.760164,51.504996],"type":"Point"},"properties":{"osm_id":"5697865626","tag":{"amenity":"waste_basket","survey:date":"2018-06-17"}},"type":"Feature"},
	{"geometry":{"coordinates":[9.761129,51.504808],"type":"Point"},"properties":{"osm_id":"5697865649","tag":{"amenity":"waste_basket","survey:date":"2018-06-17"}},"type":"Feature"},
	{"geometry":{"coordinates":[9.760755,51.504953],"type":"Point"},"properties":{"osm_id":"5697865660","tag":{"amenity":"waste_basket","survey:date":"2018-06-17"}},"type":"Feature"},
	{"geometry":{"coordinates":[9.768793,51.506381],"type":"Point"},"properties":{"osm_id":"5697865699","tag":{"amenity":"recycling","operator":"SP Textilverarbeitung","recycling:clothes":"yes","recycling:shoes":"yes","recycling_type":"container","survey:date":"2018-06-17"}},"type":"Feature"},
	{"geometry":{"coordinates":[9.756238,51.501436],"type":"Point"},"properties":{"osm_id":"5699522552","tag":{"amenity":"waste_basket","survey:date":"2018-06-17"}},"type":"Feature"},
	{"geometry":{"coordinates":[9.762668,51.501262],"type":"Point"},"properties":{"osm_id":"5700260569","tag":{"amenity":"waste_basket","survey:date":"2018-06-17"}},"type":"Feature"},
	{"geometry":{"coordinates":[9.763322,51.504268],"type":"Point"},"properties":{"osm_id":"5700260573","tag":{"amenity":"waste_basket","survey:date":"2019-09-14"}},"type":"Feature"},
	{"geometry":{"coordinates":[9.836078,51.50779],"type":"Point"},"properties":{"osm_id":"6744087473","tag":{"amenity":"recycling","recycling:clothes":"yes","recycling:shoes":"yes","recycling_type":"container","survey:date":"2019-08-25"}},"type":"Feature"},
	{"geometry":{"coordinates":[9.834031,51.508068],"type":"Point"},"properties":{"osm_id":"6744087484","tag":{"amenity":"waste_basket","survey:date":"2019-08-25"}},"type":"Feature"},
	{"geometry":{"coordinates":[9.792817,51.506107],"type":"Point"},"properties":{"osm_id":"6744199190","tag":{"amenity":"waste_basket","survey:date":"2019-08-25"}},"type":"Feature"},
	{"geometry":{"coordinates":[9.791271,51.506686],"type":"Point"},"properties":{"osm_id":"6744199198","tag":{"amenity":"waste_basket","survey:date":"2019-08-25"}},"type":"Feature"},
	{"geometry":{"coordinates":[9.757042,51.502742],"type":"Point"},"properties":{"osm_id":"6744217413","tag":{"amenity":"waste_basket","support":"pole","survey:date":"2019-08-25"}},"type":"Feature"},
	{"geometry":{"coordinates":[9.756152,51.502323],"type":"Point"},"properties":{"osm_id":"6744217427","tag":{"amenity":"waste_basket","survey:date":"2019-08-25"}},"type":"Feature"},
	{"geometry":{"coordinates":[9.756288,51.502433],"type":"Point"},"properties":{"osm_id":"6744217428","tag":{"amenity":"waste_basket","support":"pole","survey:date":"2019-08-25"}},"type":"Feature"},
	{"geometry":{"coordinates":[9.76147,51.491614],"type":"Point"},"properties":{"osm_id":"6789304594","tag":{"amenity":"waste_basket","survey:date":"2019-09-11"}},"type":"Feature"},
	{"geometry":{"coordinates":[9.765429,51.492302],"type":"Point"},"properties":{"osm_id":"6789304624","tag":{"amenity":"waste_basket","survey:date":"2019-09-11"}},"type":"Feature"},
	{"geometry":{"coordinates":[9.768994,51.494421],"type":"Point"},"properties":{"osm_id":"6789304648","tag":{"amenity":"waste_basket","survey:date":"2019-09-11"}},"type":"Feature"},
	{"geometry":{"coordinates":[9.755908,51.501755],"type":"Point"},"properties":{"osm_id":"6792680202","tag":{"amenity":"waste_basket","survey:date":"2019-09-12"}},"type":"Feature"},
	{"geometry":{"coordinates":[9.755865,51.501784],"type":"Point"},"properties":{"osm_id":"6792680203","tag":{"amenity":"recycling","operator":"SP Textilverwertung","recycling:clothes":"yes","recycling:shoes":"yes","recycling_type":"container","survey:date":"2019-09-12"}},"type":"Feature"},
	{"geometry":{"coordinates":[9.759633,51.498034],"type":"Point"},"properties":{"osm_id":"6792680281","tag":{"amenity":"waste_basket","survey:date":"2019-09-12"}},"type":"Feature"},
	{"geometry":{"coordinates":[9.760623,51.496974],"type":"Point"},"properties":{"osm_id":"6792680303","tag":{"amenity":"waste_basket","survey:date":"2019-09-12"}},"type":"Feature"},
	{"geometry":{"coordinates":[9.760245,51.499786],"type":"Point"},"properties":{"osm_id":"6792680325","tag":{"amenity":"waste_basket","survey:date":"2019-09-12"}},"type":"Feature"},
	{"geometry":{"coordinates":[9.759444,51.500052],"type":"Point"},"properties":{"osm_id":"6792680327","tag":{"amenity":"waste_basket","survey:date":"2019-09-12"}},"type":"Feature"},
	{"geometry":{"coordinates":[9.758334,51.494696],"type":"Point"},"properties":{"osm_id":"6792680373","tag":{"amenity":"waste_basket","survey:date":"2019-09-12"}},"type":"Feature"},
	{"geometry":{"coordinates":[9.761054,51.496134],"type":"Point"},"properties":{"osm_id":"6792680382","tag":{"amenity":"waste_basket","survey:date":"2019-09-12"}},"type":"Feature"},
	{"geometry":{"coordinates":[9.760275,51.49674],"type":"Point"},"properties":{"osm_id":"6792680411","tag":{"amenity":"waste_basket","survey:date":"2019-09-12"}},"type":"Feature"},
	{"geometry":{"coordinates":[9.760473,51.496897],"type":"Point"},"properties":{"osm_id":"6792680414","tag":{"amenity":"waste_basket","survey:date":"2019-09-12"}},"type":"Feature"},
	{"geometry":{"coordinates":[9.760351,51.497165],"type":"Point"},"properties":{"osm_id":"6792680420","tag":{"amenity":"waste_basket","survey:date":"2019-09-12"}},"type":"Feature"},
	{"geometry":{"coordinates":[9.760457,51.497263],"type":"Point"},"properties":{"osm_id":"6792680422","tag":{"amenity":"waste_basket","survey:date":"2019-09-12"}},"type":"Feature"},
	{"geometry":{"coordinates":[9.7606,51.49732],"type":"Point"},"properties":{"osm_id":"6792680424","tag":{"amenity":"waste_basket","survey:date":"2019-09-12"}},"type":"Feature"},
	{"geometry":{"coordinates":[9.760708,51.497193],"type":"Point"},"properties":{"osm_id":"6792680427","tag":{"amenity":"waste_basket","survey:date":"2019-09-12"}},"type":"Feature"},
	{"geometry":{"coordinates":[9.760534,51.497097],"type":"Point"},"properties":{"osm_id":"6792680430","tag":{"amenity":"waste_basket","survey:date":"2019-09-12"}},"type":"Feature"},
	{"geometry":{"coordinates":[9.760729,51.496907],"type":"Point"},"properties":{"osm_id":"6792680435","tag":{"amenity":"waste_basket","survey:date":"2019-09-12"}},"type":"Feature"},
	{"geometry":{"coordinates":[9.760618,51.496945],"type":"Point"},"properties":{"osm_id":"6792680436","tag":{"amenity":"waste_basket","survey:date":"2019-09-12"}},"type":"Feature"},
	{"geometry":{"coordinates":[9.760582,51.496612],"type":"Point"},"properties":{"osm_id":"6792680438","tag":{"amenity":"waste_basket","survey:date":"2019-09-12"}},"type":"Feature"},
	{"geometry":{"coordinates":[9.759935,51.495587],"type":"Point"},"properties":{"osm_id":"6792680443","tag":{"amenity":"waste_basket","survey:date":"2019-09-12"}},"type":"Feature"},
	{"geometry":{"coordinates":[9.759947,51.495377],"type":"Point"},"properties":{"osm_id":"6792680445","tag":{"amenity":"waste_basket","survey:date":"2019-09-12"}},"type":"Feature"},
	{"geometry":{"coordinates":[9.759692,51.49703],"type":"Point"},"properties":{"osm_id":"6792680463","tag":{"amenity":"waste_basket","survey:date":"2019-09-12"}},"type":"Feature"},
	{"geometry":{"coordinates":[9.758755,51.498167],"type":"Point"},"properties":{"osm_id":"6792680488","tag":{"amenity":"waste_basket","survey:date":"2019-09-12"}},"type":"Feature"},
	{"geometry":{"coordinates":[9.759351,51.496756],"type":"Point"},"properties":{"osm_id":"6792680531","tag":{"amenity":"waste_basket","survey:date":"2019-09-12"}},"type":"Feature"},
	{"geometry":{"coordinates":[9.758334,51.495564],"type":"Point"},"properties":{"osm_id":"6792680535","tag":{"amenity":"waste_basket","survey:date":"2019-09-12"}},"type":"Feature"},
	{"geometry":{"coordinates":[9.758256,51.495781],"type":"Point"},"properties":{"osm_id":"6792680536","tag":{"amenity":"waste_basket","survey:date":"2019-09-12"}},"type":"Feature"},
	{"geometry":{"coordinates":[9.758174,51.496005],"type":"Point"},"properties":{"osm_id":"6792680537","tag":{"amenity":"waste_basket","survey:date":"2019-09-12"}},"type":"Feature"},
	{"geometry":{"coordinates":[9.758065,51.496819],"type":"Point"},"properties":{"osm_id":"6792680539","tag":{"amenity":"waste_basket","survey:date":"2019-09-12"}},"type":"Feature"},
	{"geometry":{"coordinates":[9.758115,51.496799],"type":"Point"},"properties":{"osm_id":"6792680540","tag":{"amenity":"waste_basket","survey:date":"2019-09-12"}},"type":"Feature"},
	{"geometry":{"coordinates":[9.758067,51.496801],"type":"Point"},"properties":{"osm_id":"6792680541","tag":{"amenity":"waste_basket","survey:date":"2019-09-12"}},"type":"Feature"},
	{"geometry":{"coordinates":[9.758013,51.49645],"type":"Point"},"properties":{"osm_id":"6792680543","tag":{"amenity":"waste_basket","survey:date":"2019-09-12"}},"type":"Feature"},
	{"geometry":{"coordinates":[9.760147,51.499595],"type":"Point"},"properties":{"osm_id":"6792680544","tag":{"amenity":"waste_basket","survey:date":"2019-09-12"}},"type":"Feature"},
	{"geometry":{"coordinates":[9.760438,51.502179],"type":"Point"},"properties":{"osm_id":"6792680655","tag":{"amenity":"recycling","operator":"RMK Recycling GmbH","recycling:clothes":"yes","recycling:shoes":"yes","recycling_type":"container","survey:date":"2019-09-12"}},"type":"Feature"},
	{"geometry":{"coordinates":[9.762223,51.502283],"type":"Point"},"properties":{"osm_id":"6792680665","tag":{"amenity":"waste_basket","survey:date":"2019-09-12"}},"type":"Feature"},
	{"geometry":{"coordinates":[9.760769,51.502016],"type":"Point"},"properties":{"osm_id":"6792680684","tag":{"amenity":"waste_basket","survey:date":"2019-09-12"}},"type":"Feature"},
	{"geometry":{"coordinates":[9.76391,51.501778],"type":"Point"},"properties":{"osm_id":"6792680847","tag":{"amenity":"waste_basket","survey:date":"2019-09-12"}},"type":"Feature"},
	{"geometry":{"coordinates":[9.759667,51.504421],"type":"Point"},"properties":{"osm_id":"6801630842","tag":{"amenity":"waste_basket","survey:date":"2019-09-14"}},"type":"Feature"},
	{"geometry":{"coordinates":[9.75938,51.503863],"type":"Point"},"properties":{"osm_id":"6801630881","tag":{"amenity":"waste_basket","survey:date":"2019-09-14"}},"type":"Feature"},
	{"geometry":{"coordinates":[9.761248,51.504083],"type":"Point"},"properties":{"osm_id":"6801637346","tag":{"amenity":"waste_basket","survey:date":"2019-09-14"}},"type":"Feature"}
]
}
