{
"type": "FeatureCollection",
"features": [
	{"geometry":{"coordinates":[9.780432,48.861153],"type":"Point"},"properties":{"osm_id":"296940538","tag":{"amenity":"recycling","recycling_type":"container"}},"type":"Feature"},
	{"geometry":{"coordinates":[9.82743,48.807335],"type":"Point"},"properties":{"osm_id":"315749175","tag":{"amenity":"recycling","recycling:glass_bottles":"yes"}},"type":"Feature"},
	{"geometry":{"coordinates":[9.78771,48.809883],"type":"Point"},"properties":{"osm_id":"324283793","tag":{"amenity":"recycling","recycling:glass_bottles":"yes","recycling_type":"container"}},"type":"Feature"},
	{"geometry":{"coordinates":[9.783413,48.813416],"type":"Point"},"properties":{"osm_id":"345685727","tag":{"amenity":"recycling","recycling:cans":"yes","recycling:clothes":"yes","recycling:glass_bottles":"yes","recycling_type":"container"}},"type":"Feature"},
	{"geometry":{"coordinates":[9.781492,48.817132],"type":"Point"},"properties":{"osm_id":"345685768","tag":{"amenity":"recycling","operator":"GOA","recycling:batteries":"no","recycling:cans":"yes","recycling:clothes":"no","recycling:glass_bottles":"yes","recycling:green_waste":"no","recycling:paper":"no","recycling:scrap_metal":"no","recycling_type":"container"}},"type":"Feature"},
	{"geometry":{"coordinates":[9.793865,48.819776],"type":"Point"},"properties":{"osm_id":"412850842","tag":{"amenity":"recycling","location":"overground","recycling_type":"container"}},"type":"Feature"},
	{"geometry":{"coordinates":[9.806023,48.81808],"type":"Point"},"properties":{"osm_id":"414183738","tag":{"amenity":"recycling","recycling:cans":"yes","recycling:clothes":"yes","recycling:glass_bottles":"yes","recycling_type":"container"}},"type":"Feature"},
	{"geometry":{"coordinates":[9.772461,48.816182],"type":"Point"},"properties":{"osm_id":"432614217","tag":{"amenity":"recycling","recycling:cans":"yes","recycling:clothes":"yes","recycling:glass_bottles":"yes","recycling_type":"container"}},"type":"Feature"},
	{"geometry":{"coordinates":[9.841845,48.822194],"type":"Point"},"properties":{"osm_id":"582565210","tag":{"amenity":"recycling","recycling:cans":"yes","recycling:glass_bottles":"yes"}},"type":"Feature"},
	{"geometry":{"coordinates":[9.762357,48.84237],"type":"Point"},"properties":{"osm_id":"1624214743","tag":{"amenity":"recycling","recycling:glass":"yes","recycling:paper":"yes","recycling_type":"container"}},"type":"Feature"},
	{"geometry":{"coordinates":[9.777435,48.813706],"type":"Point"},"properties":{"osm_id":"1852454818","tag":{"amenity":"recycling"}},"type":"Feature"},
	{"geometry":{"coordinates":[9.785161,48.811922],"type":"Point"},"properties":{"osm_id":"2013034008","tag":{"amenity":"recycling","opening_hours":"Sa 09:00-11:30","operator":"GOA","recycling:glass_bottles":"no","recycling:green_waste":"yes","recycling:paper":"no","recycling_type":"container"}},"type":"Feature"},
	{"geometry":{"coordinates":[9.75676,48.818485],"type":"Point"},"properties":{"osm_id":"2049928821","tag":{"amenity":"recycling","recycling:cans":"yes","recycling:glass_bottles":"yes","recycling_type":"container"}},"type":"Feature"},
	{"geometry":{"coordinates":[9.782855,48.820035],"type":"Point"},"properties":{"osm_id":"2058890294","tag":{"amenity":"recycling","recycling:cans":"yes","recycling:clothes":"yes","recycling:glass_bottles":"yes","recycling_type":"container"}},"type":"Feature"},
	{"geometry":{"coordinates":[9.780223,48.818661],"type":"Point"},"properties":{"osm_id":"2058897737","tag":{"amenity":"recycling","operator":"GOA","recycling:batteries":"no","recycling:cans":"yes","recycling:clothes":"yes","recycling:glass_bottles":"yes","recycling:green_waste":"no","recycling:paper":"no","recycling:scrap_metal":"no","recycling_type":"container"}},"type":"Feature"},
	{"geometry":{"coordinates":[9.771739,48.813814],"type":"Point"},"properties":{"osm_id":"2443429586","tag":{"amenity":"recycling","recycling:green_waste":"yes"}},"type":"Feature"},
	{"geometry":{"coordinates":[9.838115,48.849339],"type":"Point"},"properties":{"osm_id":"2611704440","tag":{"amenity":"recycling","recycling:cans":"yes","recycling:clothes":"yes","recycling:glass_bottles":"yes","recycling_type":"container"}},"type":"Feature"},
	{"geometry":{"coordinates":[9.837223,48.853253],"type":"Point"},"properties":{"osm_id":"2611707658","tag":{"amenity":"recycling","operator":"GOA","recycling:green_waste":"yes","recycling_type":"container"}},"type":"Feature"},
	{"geometry":{"coordinates":[9.820171,48.862485],"type":"Point"},"properties":{"osm_id":"2611709607","tag":{"amenity":"recycling","operator":"GOA","recycling:cans":"yes","recycling:clothes":"yes","recycling:glass_bottles":"yes","recycling_type":"container"}},"type":"Feature"},
	{"geometry":{"coordinates":[9.838552,48.849694],"type":"Point"},"properties":{"osm_id":"3787616165","tag":{"amenity":"waste_basket"}},"type":"Feature"},
	{"geometry":{"coordinates":[9.802184,48.837323],"type":"Point"},"properties":{"osm_id":"3805410749","tag":{"amenity":"waste_basket"}},"type":"Feature"},
	{"geometry":{"coordinates":[9.773005,48.81923],"type":"Point"},"properties":{"osm_id":"4384136732","tag":{"amenity":"recycling","recycling:cans":"yes","recycling:clothes":"yes","recycling:glass_bottles":"yes","recycling_type":"container"}},"type":"Feature"},
	{"geometry":{"coordinates":[9.780865,48.81343],"type":"Point"},"properties":{"osm_id":"5605096076","tag":{"amenity":"waste_basket","waste":"trash"}},"type":"Feature"},
	{"geometry":{"coordinates":[9.779874,48.812682],"type":"Point"},"properties":{"osm_id":"5605096089","tag":{"amenity":"waste_basket","waste":"trash"}},"type":"Feature"},
	{"geometry":{"coordinates":[9.774923,48.813403],"type":"Point"},"properties":{"osm_id":"6331868653","tag":{"amenity":"waste_basket"}},"type":"Feature"},
	{"geometry":{"coordinates":[9.773276,48.813638],"type":"Point"},"properties":{"osm_id":"6450733084","tag":{"amenity":"waste_basket"}},"type":"Feature"},
	{"geometry":{"coordinates":[9.783559,48.806955],"type":"Point"},"properties":{"osm_id":"6505512665","tag":{"amenity":"waste_basket"}},"type":"Feature"},
	{"geometry":{"coordinates":[9.775405,48.839755],"type":"Point"},"properties":{"osm_id":"6536031145","tag":{"amenity":"recycling","recycling_type":"container"}},"type":"Feature"},
	{"geometry":{"coordinates":[9.791879,48.826369],"type":"Point"},"properties":{"osm_id":"6759772319","tag":{"amenity":"waste_basket"}},"type":"Feature"},
	{"geometry":{"coordinates":[9.756681,48.81845],"type":"Point"},"properties":{"osm_id":"6770648049","tag":{"amenity":"recycling","recycling:clothes":"yes","recycling:shoes":"yes","recycling_type":"container"}},"type":"Feature"}
]
}
