{
"type": "FeatureCollection",
"features": [
	{"geometry":{"coordinates":[9.816212,48.682482],"type":"Point"},"properties":{"osm_id":"260045295","tag":{"amenity":"recycling","location":"overground","recycling_type":"container"}},"type":"Feature"},
	{"geometry":{"coordinates":[9.788637,48.647262],"type":"Point"},"properties":{"osm_id":"270624807","tag":{"amenity":"recycling","recycling:batteries":"yes","recycling:clothes":"yes","recycling:glass":"yes"}},"type":"Feature"},
	{"geometry":{"coordinates":[9.801653,48.684259],"type":"Point"},"properties":{"osm_id":"310602873","tag":{"amenity":"recycling","location":"overground","recycling:glass":"yes","recycling_type":"container"}},"type":"Feature"},
	{"geometry":{"coordinates":[9.791368,48.646355],"type":"Point"},"properties":{"osm_id":"462653681","tag":{"amenity":"recycling","recycling:clothes":"yes","recycling:glass":"yes","recycling_type":"container"}},"type":"Feature"},
	{"geometry":{"coordinates":[9.78025,48.659926],"type":"Point"},"properties":{"osm_id":"462653722","tag":{"amenity":"recycling","recycling:glass":"yes"}},"type":"Feature"},
	{"geometry":{"coordinates":[9.802867,48.684497],"type":"Point"},"properties":{"osm_id":"470491958","tag":{"amenity":"recycling","recycling:cans":"yes","recycling:glass":"yes"}},"type":"Feature"},
	{"geometry":{"coordinates":[9.814636,48.690944],"type":"Point"},"properties":{"osm_id":"592662041","tag":{"amenity":"recycling","location":"overground","opening_hours":"Mo-Sa 07:00-20:00; PH closed","recycling:cans":"yes","recycling:clothes":"yes","recycling:glass":"yes","recycling:glass_bottles":"yes","recycling:shoes":"yes","recycling_type":"container"}},"type":"Feature"},
	{"geometry":{"coordinates":[9.759101,48.679305],"type":"Point"},"properties":{"osm_id":"592732372","tag":{"amenity":"recycling","recycling:glass":"yes","recycling_type":"container"}},"type":"Feature"},
	{"geometry":{"coordinates":[9.794277,48.681581],"type":"Point"},"properties":{"osm_id":"660744897","tag":{"amenity":"recycling","location":"overground","recycling_type":"container"}},"type":"Feature"},
	{"geometry":{"coordinates":[9.795418,48.686355],"type":"Point"},"properties":{"osm_id":"1005400500","tag":{"amenity":"recycling","location":"overground","recycling_type":"container"}},"type":"Feature"},
	{"geometry":{"coordinates":[9.795699,48.641724],"type":"Point"},"properties":{"osm_id":"2786036707","tag":{"amenity":"recycling","recycling:clothes":"no","recycling:glass":"yes","recycling:paper":"no","recycling_type":"container"}},"type":"Feature"},
	{"geometry":{"coordinates":[9.760372,48.683359],"type":"Point"},"properties":{"osm_id":"3949073428","tag":{"amenity":"waste_basket"}},"type":"Feature"},
	{"geometry":{"coordinates":[9.810695,48.689391],"type":"Point"},"properties":{"osm_id":"4868118283","tag":{"amenity":"recycling","recycling:cans":"yes","recycling:clothes":"yes","recycling:glass":"yes","recycling_type":"container"}},"type":"Feature"},
	{"geometry":{"coordinates":[9.759616,48.683336],"type":"Point"},"properties":{"osm_id":"5718651639","tag":{"amenity":"waste_basket"}},"type":"Feature"},
	{"geometry":{"coordinates":[9.759043,48.682417],"type":"Point"},"properties":{"osm_id":"5718651640","tag":{"amenity":"waste_basket"}},"type":"Feature"},
	{"geometry":{"coordinates":[9.758889,48.682279],"type":"Point"},"properties":{"osm_id":"5718651641","tag":{"amenity":"waste_basket"}},"type":"Feature"},
	{"geometry":{"coordinates":[9.758769,48.682275],"type":"Point"},"properties":{"osm_id":"5718651642","tag":{"amenity":"waste_basket"}},"type":"Feature"},
	{"geometry":{"coordinates":[9.759224,48.682688],"type":"Point"},"properties":{"osm_id":"5718651824","tag":{"amenity":"waste_basket"}},"type":"Feature"},
	{"geometry":{"coordinates":[9.759135,48.682536],"type":"Point"},"properties":{"osm_id":"5718651825","tag":{"amenity":"waste_basket"}},"type":"Feature"},
	{"geometry":{"coordinates":[9.758792,48.682012],"type":"Point"},"properties":{"osm_id":"5718651826","tag":{"amenity":"waste_basket"}},"type":"Feature"},
	{"geometry":{"coordinates":[9.758998,48.682051],"type":"Point"},"properties":{"osm_id":"5718652323","tag":{"amenity":"waste_basket"}},"type":"Feature"},
	{"geometry":{"coordinates":[9.759186,48.683693],"type":"Point"},"properties":{"osm_id":"5721802122","tag":{"amenity":"waste_basket"}},"type":"Feature"},
	{"geometry":{"coordinates":[9.758991,48.683832],"type":"Point"},"properties":{"osm_id":"5721807721","tag":{"amenity":"waste_basket"}},"type":"Feature"},
	{"geometry":{"coordinates":[9.759298,48.683753],"type":"Point"},"properties":{"osm_id":"5721807821","tag":{"amenity":"waste_basket"}},"type":"Feature"},
	{"geometry":{"coordinates":[9.759348,48.683619],"type":"Point"},"properties":{"osm_id":"5721807921","tag":{"amenity":"waste_basket"}},"type":"Feature"},
	{"geometry":{"coordinates":[9.759015,48.683729],"type":"Point"},"properties":{"osm_id":"5721807922","tag":{"amenity":"waste_basket"}},"type":"Feature"},
	{"geometry":{"coordinates":[9.758914,48.68364],"type":"Point"},"properties":{"osm_id":"5721807923","tag":{"amenity":"waste_basket"}},"type":"Feature"},
	{"geometry":{"coordinates":[9.759284,48.683647],"type":"Point"},"properties":{"osm_id":"5721808021","tag":{"amenity":"waste_basket"}},"type":"Feature"},
	{"geometry":{"coordinates":[9.759093,48.683587],"type":"Point"},"properties":{"osm_id":"5721808121","tag":{"amenity":"waste_basket"}},"type":"Feature"},
	{"geometry":{"coordinates":[9.778489,48.687339],"type":"Point"},"properties":{"barrier":"gate","osm_id":"5940182169"},"type":"Feature"}
]
}
