{
"type": "FeatureCollection",
"features": [
	{"geometry":{"coordinates":[9.828294,48.541356],"type":"Point"},"properties":{"osm_id":"4228809543","tag":{"amenity":"recycling","recycling:paper":"yes","recycling_type":"container"}},"type":"Feature"},
	{"geometry":{"coordinates":[9.828345,48.541359],"type":"Point"},"properties":{"osm_id":"4228809544","tag":{"amenity":"recycling","recycling:glass_bottles":"yes","recycling_type":"container"}},"type":"Feature"},
	{"geometry":{"coordinates":[9.827508,48.541029],"type":"Point"},"properties":{"osm_id":"4237480492","tag":{"amenity":"waste_basket"}},"type":"Feature"},
	{"geometry":{"coordinates":[9.827199,48.535225],"type":"Point"},"properties":{"osm_id":"4252301323","tag":{"amenity":"recycling","recycling:wood":"yes","recycling_type":"centre"}},"type":"Feature"},
	{"geometry":{"coordinates":[9.82732,48.535206],"type":"Point"},"properties":{"osm_id":"4252301324","tag":{"amenity":"recycling","recycling:green_waste":"yes","recycling_type":"centre"}},"type":"Feature"},
	{"geometry":{"coordinates":[9.827816,48.535827],"type":"Point"},"properties":{"osm_id":"4252301337","tag":{"amenity":"waste_basket"}},"type":"Feature"},
	{"geometry":{"coordinates":[9.799224,48.547059],"type":"Point"},"properties":{"osm_id":"4822949051","tag":{"amenity":"waste_basket"}},"type":"Feature"}
]
}
