{
"type": "FeatureCollection",
"features": [
	{"geometry":{"coordinates":[9.821032,48.439585],"type":"Point"},"properties":{"osm_id":"290268133","tag":{"amenity":"recycling","location":"overground","recycling_type":"container"}},"type":"Feature"},
	{"geometry":{"coordinates":[9.759511,48.423307],"type":"Point"},"properties":{"osm_id":"713203458","tag":{"amenity":"recycling","recycling_type":"container"}},"type":"Feature"},
	{"geometry":{"coordinates":[9.785811,48.408114],"type":"Point"},"properties":{"osm_id":"917316771","tag":{"amenity":"recycling","recycling_type":"container"}},"type":"Feature"},
	{"geometry":{"coordinates":[9.790679,48.40131],"type":"Point"},"properties":{"name":"Recyclinghof Blaubeuren","osm_id":"1000853757","tag":{"amenity":"recycling","recycling_type":"centre"}},"type":"Feature"},
	{"geometry":{"coordinates":[9.793625,48.405294],"type":"Point"},"properties":{"osm_id":"1139845730","tag":{"amenity":"recycling","recycling_type":"container"}},"type":"Feature"},
	{"geometry":{"coordinates":[9.786234,48.413619],"type":"Point"},"properties":{"osm_id":"1572068343","tag":{"amenity":"waste_basket"}},"type":"Feature"},
	{"geometry":{"coordinates":[9.783949,48.414851],"type":"Point"},"properties":{"osm_id":"1572068393","tag":{"amenity":"waste_basket"}},"type":"Feature"},
	{"geometry":{"coordinates":[9.783675,48.415916],"type":"Point"},"properties":{"osm_id":"1572068421","tag":{"amenity":"waste_basket"}},"type":"Feature"},
	{"geometry":{"coordinates":[9.792911,48.411703],"type":"Point"},"properties":{"osm_id":"3338776449","tag":{"amenity":"recycling","recycling:glass":"yes","recycling_type":"container"}},"type":"Feature"},
	{"geometry":{"coordinates":[9.783723,48.415793],"type":"Point"},"properties":{"osm_id":"5983167014","tag":{"amenity":"waste_basket"}},"type":"Feature"},
	{"geometry":{"coordinates":[9.78418,48.416272],"type":"Point"},"properties":{"osm_id":"5983194049","tag":{"amenity":"waste_basket"}},"type":"Feature"},
	{"geometry":{"coordinates":[9.78675,48.409025],"type":"Point"},"properties":{"osm_id":"5983363435","tag":{"amenity":"waste_basket"}},"type":"Feature"},
	{"geometry":{"coordinates":[9.787017,48.408565],"type":"Point"},"properties":{"osm_id":"6303696692","tag":{"amenity":"waste_basket"}},"type":"Feature"},
	{"geometry":{"coordinates":[9.791059,48.404254],"type":"Point"},"properties":{"osm_id":"6303696694","tag":{"amenity":"waste_basket"}},"type":"Feature"},
	{"geometry":{"coordinates":[9.78879,48.406594],"type":"Point"},"properties":{"osm_id":"6303696697","tag":{"amenity":"waste_basket"}},"type":"Feature"},
	{"geometry":{"coordinates":[9.783565,48.413996],"type":"Point"},"properties":{"osm_id":"6303696704","tag":{"amenity":"waste_basket"}},"type":"Feature"},
	{"geometry":{"coordinates":[9.78415,48.412628],"type":"Point"},"properties":{"osm_id":"6303696709","tag":{"amenity":"waste_basket"}},"type":"Feature"},
	{"geometry":{"coordinates":[9.791144,48.415384],"type":"Point"},"properties":{"osm_id":"6303696721","tag":{"amenity":"waste_basket"}},"type":"Feature"},
	{"geometry":{"coordinates":[9.78536,48.411006],"type":"Point"},"properties":{"osm_id":"6303696724","tag":{"amenity":"waste_basket"}},"type":"Feature"},
	{"geometry":{"coordinates":[9.791124,48.403851],"type":"Point"},"properties":{"osm_id":"6303731651","tag":{"amenity":"waste_basket"}},"type":"Feature"},
	{"geometry":{"coordinates":[9.791018,48.403849],"type":"Point"},"properties":{"osm_id":"6303731655","tag":{"amenity":"waste_basket"}},"type":"Feature"},
	{"geometry":{"coordinates":[9.785669,48.411699],"type":"Point"},"properties":{"osm_id":"6374537955","tag":{"amenity":"waste_basket"}},"type":"Feature"},
	{"geometry":{"coordinates":[9.790739,48.402626],"type":"Point"},"properties":{"osm_id":"7235700935","tag":{"amenity":"waste_basket"}},"type":"Feature"},
	{"geometry":{"coordinates":[9.790364,48.402399],"type":"Point"},"properties":{"osm_id":"7235729243","tag":{"amenity":"waste_basket"}},"type":"Feature"},
	{"geometry":{"coordinates":[9.790789,48.402365],"type":"Point"},"properties":{"osm_id":"7235730245","tag":{"amenity":"waste_basket"}},"type":"Feature"},
	{"geometry":{"coordinates":[9.843631,48.455721],"type":"Point"},"properties":{"osm_id":"7392719967","tag":{"amenity":"recycling","collection_times":"Donnerstag                17.00 - 19.00 Uhr Samstag                     13.00 - 17.00 Uhr","operator":"Stadt Blaustein","recycling:green_waste":"yes","recycling_type":"container"}},"type":"Feature"},
	{"geometry":{"coordinates":[9.786284,48.412818],"type":"Point"},"properties":{"osm_id":"7577230077","tag":{"amenity":"waste_basket","waste":"trash"}},"type":"Feature"},
	{"geometry":{"coordinates":[9.78639,48.41271],"type":"Point"},"properties":{"osm_id":"7577230080","tag":{"amenity":"recycling","recycling:clothes":"yes","recycling:glass_bottles":"yes","recycling:paper":"yes","recycling_type":"container","wheelchair":"yes"}},"type":"Feature"},
	{"geometry":{"coordinates":[9.79117,48.41475],"type":"Point"},"properties":{"osm_id":"7577230082","tag":{"amenity":"waste_basket","waste":"trash"}},"type":"Feature"},
	{"geometry":{"coordinates":[9.791944,48.403878],"type":"Point"},"properties":{"osm_id":"7577240386","tag":{"amenity":"waste_basket","waste":"trash"}},"type":"Feature"}
]
}
