{
"type": "FeatureCollection",
"features": [
	{"geometry":{"coordinates":[9.827031,48.229995],"type":"Point"},"properties":{"osm_id":"2088365762","tag":{"amenity":"recycling","opening_hours":"Mo-Fr 07:00-20:00","recycling:glass_bottles":"yes","recycling:paper":"yes","recycling_type":"container","wheelchair":"yes"}},"type":"Feature"},
	{"geometry":{"coordinates":[9.800022,48.276376],"type":"Point"},"properties":{"osm_id":"4738313714","tag":{"amenity":"waste_basket"}},"type":"Feature"},
	{"geometry":{"coordinates":[9.830835,48.267093],"type":"Point"},"properties":{"osm_id":"8168267018","tag":{"amenity":"recycling","brand":"aktion hoffnung","operator":"aktion hoffnung","recycling:clothes":"yes","recycling:shoes":"yes","recycling_type":"container","website":"https://www.aktion-hoffnung.de/"}},"type":"Feature"},
	{"geometry":{"coordinates":[9.827988,48.269382],"type":"Point"},"properties":{"osm_id":"8249968814","tag":{"amenity":"recycling","recycling:cork":"yes","recycling_type":"container"}},"type":"Feature"},
	{"geometry":{"coordinates":[9.82799,48.269391],"type":"Point"},"properties":{"osm_id":"8249968815","tag":{"amenity":"recycling","recycling:batteries":"yes","recycling_type":"container"}},"type":"Feature"},
	{"geometry":{"coordinates":[9.8279,48.26881],"type":"Point"},"properties":{"osm_id":"8249968816","tag":{"amenity":"recycling","operator":"Gebr. Braig GmbH & Co KG","recycling:books":"no","recycling:cardboard":"yes","recycling:glass":"yes","recycling:glass_bottles":"yes","recycling:magazines":"no","recycling:newspaper":"yes","recycling:paper":"yes","recycling_type":"container","wheelchair":"yes"}},"type":"Feature"},
	{"geometry":{"coordinates":[9.828031,48.27202],"type":"Point"},"properties":{"osm_id":"8330306011","tag":{"amenity":"waste_basket","waste":"trash"}},"type":"Feature"},
	{"geometry":{"coordinates":[9.832618,48.26869],"type":"Point"},"properties":{"osm_id":"8491677753","tag":{"amenity":"waste_basket","waste":"trash"}},"type":"Feature"}
]
}
