{
"type": "FeatureCollection",
"features": [
	{"geometry":{"coordinates":[9.762376,47.698141],"type":"Point"},"properties":{"osm_id":"486792222","tag":{"amenity":"recycling","description":"Bioabf\u00e4lle","operator":"Kerler","recycling:green_waste":"yes","recycling_type":"centre"}},"type":"Feature"},
	{"geometry":{"coordinates":[9.829958,47.694982],"type":"Point"},"properties":{"osm_id":"631460108","tag":{"amenity":"recycling"}},"type":"Feature"},
	{"geometry":{"coordinates":[9.828237,47.750602],"type":"Point"},"properties":{"osm_id":"915273516","tag":{"amenity":"recycling","recycling_type":"container"}},"type":"Feature"},
	{"geometry":{"coordinates":[9.803696,47.748384],"type":"Point"},"properties":{"osm_id":"916605049","tag":{"amenity":"recycling","recycling_type":"container"}},"type":"Feature"},
	{"geometry":{"coordinates":[9.821085,47.697189],"type":"Point"},"properties":{"osm_id":"1728359266","tag":{"amenity":"recycling","recycling:cans":"yes","recycling:clothes":"yes","recycling:glass_bottles":"yes","recycling_type":"container"}},"type":"Feature"},
	{"geometry":{"coordinates":[9.828022,47.70263],"type":"Point"},"properties":{"osm_id":"1759537043","tag":{"amenity":"recycling","recycling:cans":"yes","recycling:clothes":"yes","recycling:glass_bottles":"yes","recycling_type":"container"}},"type":"Feature"},
	{"geometry":{"coordinates":[9.820472,47.702526],"type":"Point"},"properties":{"osm_id":"6736976150","tag":{"amenity":"waste_basket"}},"type":"Feature"}
]
}
