{
"type": "FeatureCollection",
"features": [
	{"geometry":{"coordinates":[9.762298,47.545056],"type":"Point"},"properties":{"osm_id":"1362888454","tag":{"amenity":"recycling","recycling:glass":"yes","recycling:paper":"yes","recycling:scrap_metal":"yes","recycling_type":"container"}},"type":"Feature"},
	{"geometry":{"coordinates":[9.828438,47.562578],"type":"Point"},"properties":{"highway":"street_lamp","osm_id":"4893599631","ref":"1 09776 125 382","tag":{"amenity":"waste_basket","hiking":"yes","information":"guidepost","tourism":"information","vending":"excrement_bags","waste":"dog_excrement"}},"type":"Feature"},
	{"geometry":{"coordinates":[9.829031,47.56258],"type":"Point"},"properties":{"osm_id":"6358940635","tag":{"amenity":"waste_basket"}},"type":"Feature"},
	{"geometry":{"coordinates":[9.830393,47.563142],"type":"Point"},"properties":{"osm_id":"6358940639","tag":{"amenity":"waste_basket"}},"type":"Feature"},
	{"geometry":{"coordinates":[9.833374,47.576232],"type":"Point"},"properties":{"osm_id":"6765147741","tag":{"amenity":"waste_basket"}},"type":"Feature"}
]
}
