{
"type": "FeatureCollection",
"features": [
	{"geometry":{"coordinates":[9.811831,46.477437],"type":"Point"},"properties":{"osm_id":"344154754","tag":{"amenity":"recycling","recycling:paper":"yes"}},"type":"Feature"},
	{"geometry":{"coordinates":[9.813564,46.477896],"type":"Point"},"properties":{"osm_id":"344154765","tag":{"amenity":"recycling","recycling:batteries":"yes","recycling:cans":"yes","recycling:glass":"yes","recycling:paper":"yes"}},"type":"Feature"},
	{"geometry":{"coordinates":[9.813295,46.456953],"type":"Point"},"properties":{"osm_id":"344235195","tag":{"amenity":"recycling","recycling:paper":"yes"}},"type":"Feature"},
	{"geometry":{"coordinates":[9.812874,46.457545],"type":"Point"},"properties":{"osm_id":"344235197","tag":{"amenity":"recycling","recycling:paper":"yes"}},"type":"Feature"},
	{"geometry":{"coordinates":[9.796699,46.462308],"type":"Point"},"properties":{"osm_id":"1328309253","tag":{"amenity":"recycling","recycling:paper":"no"}},"type":"Feature"},
	{"geometry":{"coordinates":[9.793633,46.460115],"type":"Point"},"properties":{"osm_id":"1328309256","tag":{"amenity":"recycling"}},"type":"Feature"},
	{"geometry":{"coordinates":[9.791762,46.456691],"type":"Point"},"properties":{"osm_id":"1328309264","tag":{"amenity":"recycling","recycling:batteries":"yes","recycling:cans":"yes","recycling:clothes":"no","recycling:glass":"no","recycling:paper":"yes"}},"type":"Feature"},
	{"geometry":{"coordinates":[9.811513,46.459511],"type":"Point"},"properties":{"osm_id":"1329368281","tag":{"amenity":"recycling"}},"type":"Feature"},
	{"geometry":{"coordinates":[9.794049,46.458136],"type":"Point"},"properties":{"osm_id":"1333681061","tag":{"amenity":"recycling"}},"type":"Feature"},
	{"geometry":{"coordinates":[9.796121,46.458359],"type":"Point"},"properties":{"osm_id":"1333681062","tag":{"amenity":"recycling"}},"type":"Feature"},
	{"geometry":{"coordinates":[9.838914,46.489399],"type":"Point"},"properties":{"osm_id":"2191915403","tag":{"amenity":"waste_basket"}},"type":"Feature"},
	{"geometry":{"coordinates":[9.838696,46.488782],"type":"Point"},"properties":{"osm_id":"2191920486","tag":{"amenity":"waste_basket"}},"type":"Feature"},
	{"geometry":{"coordinates":[9.813836,46.468062],"type":"Point"},"properties":{"osm_id":"2434285080","tag":{"amenity":"waste_basket"}},"type":"Feature"},
	{"geometry":{"coordinates":[9.791942,46.456831],"type":"Point"},"properties":{"osm_id":"3278055685","tag":{"amenity":"recycling","recycling:clothes":"yes","recycling:glass":"yes"}},"type":"Feature"},
	{"geometry":{"coordinates":[9.801825,46.459971],"type":"Point"},"properties":{"osm_id":"3662889126","tag":{"amenity":"waste_basket"}},"type":"Feature"},
	{"geometry":{"coordinates":[9.802817,46.459885],"type":"Point"},"properties":{"osm_id":"3662929825","tag":{"amenity":"waste_basket"}},"type":"Feature"},
	{"geometry":{"coordinates":[9.807096,46.453766],"type":"Point"},"properties":{"osm_id":"3662947126","tag":{"amenity":"waste_basket"}},"type":"Feature"},
	{"geometry":{"coordinates":[9.806048,46.450062],"type":"Point"},"properties":{"osm_id":"3663033025","tag":{"amenity":"waste_basket"}},"type":"Feature"},
	{"geometry":{"coordinates":[9.820513,46.475582],"type":"Point"},"properties":{"osm_id":"3709923548","tag":{"amenity":"waste_basket"}},"type":"Feature"},
	{"geometry":{"coordinates":[9.83971,46.486371],"type":"Point"},"properties":{"osm_id":"5954258566","tag":{"amenity":"waste_disposal","description":"Molok f\u00c3\u00bcr rote Abfalls\u00c3\u00a4cke"}},"type":"Feature"},
	{"geometry":{"coordinates":[9.814189,46.455725],"type":"Point"},"properties":{"osm_id":"6161550669","tag":{"amenity":"recycling"}},"type":"Feature"},
	{"geometry":{"coordinates":[9.839335,46.497949],"type":"Point"},"properties":{"osm_id":"6266311841","tag":{"amenity":"waste_basket"}},"type":"Feature"},
	{"geometry":{"coordinates":[9.838958,46.498244],"type":"Point"},"properties":{"osm_id":"6266311848","tag":{"amenity":"waste_basket"}},"type":"Feature"},
	{"geometry":{"coordinates":[9.837337,46.49049],"type":"Point"},"properties":{"osm_id":"6593053040","tag":{"amenity":"waste_basket"}},"type":"Feature"},
	{"geometry":{"coordinates":[9.840877,46.497861],"type":"Point"},"properties":{"osm_id":"6593062713","tag":{"amenity":"waste_basket"}},"type":"Feature"},
	{"geometry":{"coordinates":[9.839979,46.497873],"type":"Point"},"properties":{"osm_id":"6593062714","tag":{"amenity":"waste_basket"}},"type":"Feature"},
	{"geometry":{"coordinates":[9.83627,46.490683],"type":"Point"},"properties":{"osm_id":"6593087812","tag":{"amenity":"waste_basket"}},"type":"Feature"},
	{"geometry":{"coordinates":[9.836259,46.49071],"type":"Point"},"properties":{"osm_id":"6593087813","tag":{"amenity":"waste_basket"}},"type":"Feature"},
	{"geometry":{"coordinates":[9.838587,46.494191],"type":"Point"},"properties":{"osm_id":"6593087815","tag":{"amenity":"waste_basket"}},"type":"Feature"},
	{"geometry":{"coordinates":[9.83912,46.494825],"type":"Point"},"properties":{"osm_id":"6593087817","tag":{"amenity":"waste_basket"}},"type":"Feature"},
	{"geometry":{"coordinates":[9.838772,46.495285],"type":"Point"},"properties":{"osm_id":"6593087818","tag":{"amenity":"waste_basket"}},"type":"Feature"},
	{"geometry":{"coordinates":[9.838789,46.49559],"type":"Point"},"properties":{"osm_id":"6593087819","tag":{"amenity":"waste_basket"}},"type":"Feature"},
	{"geometry":{"coordinates":[9.842049,46.498097],"type":"Point"},"properties":{"osm_id":"6593087821","tag":{"amenity":"waste_basket"}},"type":"Feature"},
	{"geometry":{"coordinates":[9.843596,46.49648],"type":"Point"},"properties":{"osm_id":"6593302072","tag":{"amenity":"waste_basket"}},"type":"Feature"},
	{"geometry":{"coordinates":[9.842153,46.496225],"type":"Point"},"properties":{"osm_id":"6593302073","tag":{"amenity":"waste_basket"}},"type":"Feature"},
	{"geometry":{"coordinates":[9.840521,46.495279],"type":"Point"},"properties":{"osm_id":"6593331395","tag":{"amenity":"waste_basket"}},"type":"Feature"},
	{"geometry":{"coordinates":[9.840041,46.494382],"type":"Point"},"properties":{"osm_id":"6593331396","tag":{"amenity":"waste_basket"}},"type":"Feature"},
	{"geometry":{"coordinates":[9.839123,46.494068],"type":"Point"},"properties":{"osm_id":"6593331397","tag":{"amenity":"waste_basket"}},"type":"Feature"},
	{"geometry":{"coordinates":[9.837917,46.493915],"type":"Point"},"properties":{"osm_id":"6593331399","tag":{"amenity":"waste_basket"}},"type":"Feature"},
	{"geometry":{"coordinates":[9.835807,46.491484],"type":"Point"},"properties":{"osm_id":"6593331400","tag":{"amenity":"waste_basket"}},"type":"Feature"},
	{"geometry":{"coordinates":[9.798644,46.460015],"type":"Point"},"properties":{"osm_id":"6596206503","tag":{"amenity":"waste_basket"}},"type":"Feature"},
	{"geometry":{"coordinates":[9.803333,46.46001],"type":"Point"},"properties":{"osm_id":"6596206505","tag":{"amenity":"waste_basket"}},"type":"Feature"},
	{"geometry":{"coordinates":[9.803359,46.462433],"type":"Point"},"properties":{"osm_id":"6596222827","tag":{"amenity":"waste_basket"}},"type":"Feature"},
	{"geometry":{"coordinates":[9.818849,46.475019],"type":"Point"},"properties":{"osm_id":"6596254720","tag":{"amenity":"waste_basket"}},"type":"Feature"},
	{"geometry":{"coordinates":[9.819491,46.475431],"type":"Point"},"properties":{"osm_id":"6596254725","tag":{"amenity":"waste_basket"}},"type":"Feature"},
	{"geometry":{"coordinates":[9.821416,46.475571],"type":"Point"},"properties":{"osm_id":"6596266221","tag":{"amenity":"waste_basket"}},"type":"Feature"},
	{"geometry":{"coordinates":[9.822305,46.475987],"type":"Point"},"properties":{"osm_id":"6596266223","tag":{"amenity":"waste_basket"}},"type":"Feature"},
	{"geometry":{"coordinates":[9.822728,46.476155],"type":"Point"},"properties":{"osm_id":"6596266226","tag":{"amenity":"waste_basket"}},"type":"Feature"},
	{"geometry":{"coordinates":[9.827489,46.479954],"type":"Point"},"properties":{"osm_id":"6596281391","tag":{"amenity":"waste_basket"}},"type":"Feature"},
	{"geometry":{"coordinates":[9.838041,46.49715],"type":"Point"},"properties":{"osm_id":"7656983800","tag":{"amenity":"waste_basket"}},"type":"Feature"}
]
}
