{
"type": "FeatureCollection",
"features": [
	{"geometry":{"coordinates":[-75.67593,45.470146],"type":"Point"},"properties":{"osm_id":"6750204155","tag":{"amenity":"waste_basket","mapillary":"G3yUs82KTrYXSyxbTBAY7Q"}},"type":"Feature"},
	{"geometry":{"coordinates":[-75.682692,45.462901],"type":"Point"},"properties":{"osm_id":"6750204169","tag":{"amenity":"waste_basket","mapillary":"5YUHKE1Rq0YyQ2BY4Mvfew"}},"type":"Feature"},
	{"geometry":{"coordinates":[-75.685525,45.460891],"type":"Point"},"properties":{"osm_id":"6750204176","tag":{"amenity":"waste_basket"}},"type":"Feature"},
	{"geometry":{"coordinates":[-75.685983,45.485285],"type":"Point"},"properties":{"osm_id":"8684437103","tag":{"amenity":"waste_basket"}},"type":"Feature"},
	{"geometry":{"coordinates":[-75.686509,45.48568],"type":"Point"},"properties":{"osm_id":"8684437104","tag":{"amenity":"waste_basket"}},"type":"Feature"},
	{"geometry":{"coordinates":[-75.732068,45.492614],"type":"Point"},"properties":{"osm_id":"8719760891","tag":{"amenity":"waste_basket"}},"type":"Feature"},
	{"geometry":{"coordinates":[-75.709562,45.462399],"type":"Point"},"properties":{"osm_id":"8779804276","tag":{"amenity":"waste_basket"}},"type":"Feature"},
	{"geometry":{"coordinates":[-75.709506,45.462137],"type":"Point"},"properties":{"osm_id":"8779825086","tag":{"amenity":"waste_basket"}},"type":"Feature"},
	{"geometry":{"coordinates":[-75.707036,45.464905],"type":"Point"},"properties":{"osm_id":"8980262762","tag":{"amenity":"waste_basket"}},"type":"Feature"},
	{"geometry":{"coordinates":[-75.707047,45.465089],"type":"Point"},"properties":{"osm_id":"8980272652","tag":{"amenity":"waste_basket"}},"type":"Feature"},
	{"geometry":{"coordinates":[-75.685152,45.476995],"type":"Point"},"properties":{"osm_id":"8981577678","tag":{"amenity":"waste_basket"}},"type":"Feature"},
	{"geometry":{"coordinates":[-75.68435,45.477161],"type":"Point"},"properties":{"osm_id":"8981598305","tag":{"amenity":"waste_basket"}},"type":"Feature"},
	{"geometry":{"coordinates":[-75.684857,45.477068],"type":"Point"},"properties":{"osm_id":"8981609893","tag":{"amenity":"waste_basket"}},"type":"Feature"},
	{"geometry":{"coordinates":[-75.684853,45.476826],"type":"Point"},"properties":{"osm_id":"8981611098","tag":{"amenity":"waste_basket"}},"type":"Feature"},
	{"geometry":{"coordinates":[-75.684568,45.47721],"type":"Point"},"properties":{"osm_id":"8981613677","tag":{"amenity":"waste_basket"}},"type":"Feature"}
]
}
