{
"type": "FeatureCollection",
"features": [
	{"geometry":{"coordinates":[-75.705604,45.441094],"type":"Point"},"properties":{"osm_id":"676307678","tag":{"amenity":"waste_basket"}},"type":"Feature"},
	{"geometry":{"coordinates":[-75.700289,45.420098],"type":"Point"},"properties":{"osm_id":"975865133","tag":{"amenity":"waste_basket"}},"type":"Feature"},
	{"geometry":{"coordinates":[-75.708143,45.441071],"type":"Point"},"properties":{"osm_id":"1529935508","tag":{"amenity":"waste_basket"}},"type":"Feature"},
	{"geometry":{"coordinates":[-75.700805,45.41277],"type":"Point"},"properties":{"osm_id":"2627150836","tag":{"amenity":"waste_basket"}},"type":"Feature"},
	{"geometry":{"coordinates":[-75.700342,45.413039],"type":"Point"},"properties":{"osm_id":"2627150841","tag":{"amenity":"waste_basket"}},"type":"Feature"},
	{"geometry":{"coordinates":[-75.700589,45.413417],"type":"Point"},"properties":{"osm_id":"2627150848","tag":{"amenity":"waste_basket"}},"type":"Feature"},
	{"geometry":{"coordinates":[-75.701226,45.413203],"type":"Point"},"properties":{"osm_id":"2627150855","tag":{"amenity":"waste_basket"}},"type":"Feature"},
	{"geometry":{"coordinates":[-75.70115,45.413052],"type":"Point"},"properties":{"osm_id":"2627150856","tag":{"amenity":"waste_basket"}},"type":"Feature"},
	{"geometry":{"coordinates":[-75.70163,45.413073],"type":"Point"},"properties":{"osm_id":"2627150859","tag":{"amenity":"waste_basket"}},"type":"Feature"},
	{"geometry":{"coordinates":[-75.701824,45.412948],"type":"Point"},"properties":{"osm_id":"2627150862","tag":{"amenity":"waste_basket"}},"type":"Feature"},
	{"geometry":{"coordinates":[-75.703393,45.412397],"type":"Point"},"properties":{"osm_id":"2627150867","tag":{"amenity":"waste_basket"}},"type":"Feature"},
	{"geometry":{"coordinates":[-75.703865,45.412182],"type":"Point"},"properties":{"osm_id":"2627158358","tag":{"amenity":"waste_basket"}},"type":"Feature"},
	{"geometry":{"coordinates":[-75.710472,45.402041],"type":"Point"},"properties":{"osm_id":"2685318828","tag":{"amenity":"waste_basket"}},"type":"Feature"},
	{"geometry":{"coordinates":[-75.710093,45.401767],"type":"Point"},"properties":{"osm_id":"2685332512","tag":{"amenity":"waste_basket"}},"type":"Feature"},
	{"geometry":{"coordinates":[-75.708984,45.399892],"type":"Point"},"properties":{"osm_id":"2685355184","tag":{"amenity":"waste_basket"}},"type":"Feature"},
	{"geometry":{"coordinates":[-75.708309,45.398493],"type":"Point"},"properties":{"osm_id":"2685653962","tag":{"amenity":"waste_basket"}},"type":"Feature"},
	{"geometry":{"coordinates":[-75.691612,45.422804],"type":"Point"},"properties":{"osm_id":"2801288795","tag":{"amenity":"waste_basket"}},"type":"Feature"},
	{"geometry":{"coordinates":[-75.690937,45.422244],"type":"Point"},"properties":{"osm_id":"2801290312","tag":{"amenity":"waste_basket"}},"type":"Feature"},
	{"geometry":{"coordinates":[-75.691142,45.42216],"type":"Point"},"properties":{"osm_id":"2801290313","tag":{"amenity":"waste_basket"}},"type":"Feature"},
	{"geometry":{"coordinates":[-75.691859,45.422018],"type":"Point"},"properties":{"osm_id":"2801290315","tag":{"amenity":"waste_basket"}},"type":"Feature"},
	{"geometry":{"coordinates":[-75.691962,45.422273],"type":"Point"},"properties":{"osm_id":"2801290318","tag":{"amenity":"waste_basket"}},"type":"Feature"},
	{"geometry":{"coordinates":[-75.692181,45.422406],"type":"Point"},"properties":{"osm_id":"2801290322","tag":{"amenity":"waste_basket"}},"type":"Feature"},
	{"geometry":{"coordinates":[-75.692207,45.422304],"type":"Point"},"properties":{"osm_id":"2801290325","tag":{"amenity":"waste_basket"}},"type":"Feature"},
	{"geometry":{"coordinates":[-75.692368,45.422224],"type":"Point"},"properties":{"osm_id":"2801290327","tag":{"amenity":"waste_basket"}},"type":"Feature"},
	{"geometry":{"coordinates":[-75.692785,45.422077],"type":"Point"},"properties":{"osm_id":"2801290336","tag":{"amenity":"waste_basket"}},"type":"Feature"},
	{"geometry":{"coordinates":[-75.693086,45.421945],"type":"Point"},"properties":{"osm_id":"2801290342","tag":{"amenity":"waste_basket"}},"type":"Feature"},
	{"geometry":{"coordinates":[-75.692681,45.421454],"type":"Point"},"properties":{"osm_id":"2801290346","tag":{"amenity":"waste_basket"}},"type":"Feature"},
	{"geometry":{"coordinates":[-75.692535,45.421792],"type":"Point"},"properties":{"osm_id":"2801290350","tag":{"amenity":"waste_basket"}},"type":"Feature"},
	{"geometry":{"coordinates":[-75.692084,45.421979],"type":"Point"},"properties":{"osm_id":"2801290365","tag":{"amenity":"waste_basket"}},"type":"Feature"},
	{"geometry":{"coordinates":[-75.691467,45.421394],"type":"Point"},"properties":{"osm_id":"2801290366","tag":{"amenity":"waste_basket"}},"type":"Feature"},
	{"geometry":{"coordinates":[-75.691206,45.421277],"type":"Point"},"properties":{"osm_id":"2801290371","tag":{"amenity":"waste_basket"}},"type":"Feature"},
	{"geometry":{"coordinates":[-75.691155,45.421122],"type":"Point"},"properties":{"osm_id":"2801290379","tag":{"amenity":"waste_basket"}},"type":"Feature"},
	{"geometry":{"coordinates":[-75.691262,45.421067],"type":"Point"},"properties":{"osm_id":"2801290380","tag":{"amenity":"waste_basket"}},"type":"Feature"},
	{"geometry":{"coordinates":[-75.691275,45.420873],"type":"Point"},"properties":{"osm_id":"2801290382","tag":{"amenity":"waste_basket"}},"type":"Feature"},
	{"geometry":{"coordinates":[-75.69137,45.420889],"type":"Point"},"properties":{"osm_id":"2801290383","tag":{"amenity":"waste_basket"}},"type":"Feature"},
	{"geometry":{"coordinates":[-75.691469,45.420911],"type":"Point"},"properties":{"osm_id":"2801290384","tag":{"amenity":"waste_basket"}},"type":"Feature"},
	{"geometry":{"coordinates":[-75.692188,45.420297],"type":"Point"},"properties":{"osm_id":"2801296739","tag":{"amenity":"waste_basket"}},"type":"Feature"},
	{"geometry":{"coordinates":[-75.691405,45.419367],"type":"Point"},"properties":{"osm_id":"2801296747","tag":{"amenity":"waste_basket"}},"type":"Feature"},
	{"geometry":{"coordinates":[-75.691723,45.419253],"type":"Point"},"properties":{"osm_id":"2801296749","tag":{"amenity":"waste_basket"}},"type":"Feature"},
	{"geometry":{"coordinates":[-75.692907,45.419487],"type":"Point"},"properties":{"osm_id":"2801329326","tag":{"amenity":"waste_basket"}},"type":"Feature"},
	{"geometry":{"coordinates":[-75.694349,45.419172],"type":"Point"},"properties":{"osm_id":"2801329337","tag":{"amenity":"waste_basket"}},"type":"Feature"},
	{"geometry":{"coordinates":[-75.690472,45.40647],"type":"Point"},"properties":{"osm_id":"3047807944","tag":{"amenity":"waste_basket"}},"type":"Feature"},
	{"geometry":{"coordinates":[-75.690066,45.405753],"type":"Point"},"properties":{"osm_id":"3047807993","tag":{"amenity":"waste_basket"}},"type":"Feature"},
	{"geometry":{"coordinates":[-75.688079,45.402244],"type":"Point"},"properties":{"osm_id":"3047833902","tag":{"amenity":"waste_basket"}},"type":"Feature"},
	{"geometry":{"coordinates":[-75.687436,45.401625],"type":"Point"},"properties":{"osm_id":"3726876547","tag":{"amenity":"waste_basket"}},"type":"Feature"},
	{"geometry":{"coordinates":[-75.687772,45.401649],"type":"Point"},"properties":{"osm_id":"3726876548","tag":{"amenity":"waste_basket"}},"type":"Feature"},
	{"geometry":{"coordinates":[-75.686259,45.399022],"type":"Point"},"properties":{"osm_id":"3733803683","tag":{"amenity":"waste_basket"}},"type":"Feature"},
	{"geometry":{"coordinates":[-75.686699,45.399817],"type":"Point"},"properties":{"osm_id":"3765450200","tag":{"amenity":"waste_basket"}},"type":"Feature"},
	{"geometry":{"coordinates":[-75.701137,45.426176],"type":"Point"},"properties":{"osm_id":"3898510928","tag":{"amenity":"waste_basket"}},"type":"Feature"},
	{"geometry":{"coordinates":[-75.736514,45.403394],"type":"Point"},"properties":{"osm_id":"4413431963","tag":{"amenity":"waste_basket","mapillary":"WQb-bGPCO8ChWXt_KNC0DQ"}},"type":"Feature"},
	{"geometry":{"coordinates":[-75.73766,45.403564],"type":"Point"},"properties":{"osm_id":"4413431965","tag":{"amenity":"waste_basket","mapillary":"vXCRhTU1HfHupqoSd48vxw"}},"type":"Feature"},
	{"geometry":{"coordinates":[-75.701587,45.412519],"type":"Point"},"properties":{"osm_id":"4504741995","tag":{"amenity":"waste_basket"}},"type":"Feature"},
	{"geometry":{"coordinates":[-75.754088,45.404576],"type":"Point"},"properties":{"osm_id":"4897976615","tag":{"amenity":"waste_basket","operator":"NCC"}},"type":"Feature"},
	{"geometry":{"coordinates":[-75.688546,45.449744],"type":"Point"},"properties":{"osm_id":"5991578986","tag":{"amenity":"waste_basket"}},"type":"Feature"},
	{"geometry":{"coordinates":[-75.688707,45.450211],"type":"Point"},"properties":{"osm_id":"5991578991","tag":{"amenity":"waste_basket"}},"type":"Feature"},
	{"geometry":{"coordinates":[-75.688072,45.450637],"type":"Point"},"properties":{"osm_id":"5991593186","tag":{"amenity":"waste_basket","mapillary":"Sw8t96Fl7BAdyYusnF67op"}},"type":"Feature"},
	{"geometry":{"coordinates":[-75.688042,45.450654],"type":"Point"},"properties":{"osm_id":"5991593187","tag":{"amenity":"recycling","location":"overground","mapillary":"Sw8t96Fl7BAdyYusnF67op","recycling_type":"container"}},"type":"Feature"},
	{"geometry":{"coordinates":[-75.688691,45.450201],"type":"Point"},"properties":{"osm_id":"5991595085","tag":{"amenity":"recycling","location":"overground","recycling_type":"container"}},"type":"Feature"},
	{"geometry":{"coordinates":[-75.761405,45.440056],"type":"Point"},"properties":{"osm_id":"6309343955","tag":{"amenity":"waste_basket","mapillary":"zI_UfesxN7TS7iBVGqitDA"}},"type":"Feature"},
	{"geometry":{"coordinates":[-75.761394,45.440061],"type":"Point"},"properties":{"osm_id":"6309343956","tag":{"amenity":"recycling","recycling_type":"container"}},"type":"Feature"},
	{"geometry":{"coordinates":[-75.761639,45.440976],"type":"Point"},"properties":{"osm_id":"6309343969","tag":{"amenity":"waste_basket"}},"type":"Feature"},
	{"geometry":{"coordinates":[-75.685602,45.398989],"type":"Point"},"properties":{"osm_id":"6423660019","tag":{"amenity":"waste_basket"}},"type":"Feature"},
	{"geometry":{"coordinates":[-75.687378,45.413734],"type":"Point"},"properties":{"osm_id":"6632613995","tag":{"amenity":"waste_basket"}},"type":"Feature"},
	{"geometry":{"coordinates":[-75.72777,45.40534],"type":"Point"},"properties":{"osm_id":"6632614189","tag":{"amenity":"waste_basket"}},"type":"Feature"},
	{"geometry":{"coordinates":[-75.686585,45.415147],"type":"Point"},"properties":{"osm_id":"6639122274","tag":{"amenity":"waste_basket"}},"type":"Feature"},
	{"geometry":{"coordinates":[-75.755946,45.409447],"type":"Point"},"properties":{"osm_id":"6670254723","tag":{"amenity":"waste_basket"}},"type":"Feature"},
	{"geometry":{"coordinates":[-75.754922,45.408805],"type":"Point"},"properties":{"osm_id":"6670254746","tag":{"amenity":"waste_basket"}},"type":"Feature"},
	{"geometry":{"coordinates":[-75.708435,45.418753],"type":"Point"},"properties":{"osm_id":"6703207714","tag":{"amenity":"waste_basket"}},"type":"Feature"},
	{"geometry":{"coordinates":[-75.70866,45.418143],"type":"Point"},"properties":{"osm_id":"6703207778","tag":{"amenity":"waste_basket"}},"type":"Feature"},
	{"geometry":{"coordinates":[-75.70928,45.418283],"type":"Point"},"properties":{"osm_id":"6703207779","tag":{"amenity":"waste_basket"}},"type":"Feature"},
	{"geometry":{"coordinates":[-75.709397,45.4181],"type":"Point"},"properties":{"osm_id":"6703207780","tag":{"amenity":"waste_basket"}},"type":"Feature"},
	{"geometry":{"coordinates":[-75.709611,45.417735],"type":"Point"},"properties":{"osm_id":"6703207781","tag":{"amenity":"waste_basket"}},"type":"Feature"},
	{"geometry":{"coordinates":[-75.686478,45.460111],"type":"Point"},"properties":{"osm_id":"6750208587","tag":{"amenity":"waste_basket","mapillary":"R7EQaoe0jl_FWLbvBVZbRg"}},"type":"Feature"},
	{"geometry":{"coordinates":[-75.687387,45.459172],"type":"Point"},"properties":{"osm_id":"6750208591","tag":{"amenity":"waste_basket"}},"type":"Feature"},
	{"geometry":{"coordinates":[-75.689923,45.456841],"type":"Point"},"properties":{"osm_id":"6750208603","tag":{"amenity":"waste_basket"}},"type":"Feature"},
	{"geometry":{"coordinates":[-75.690817,45.456359],"type":"Point"},"properties":{"osm_id":"6750208606","tag":{"amenity":"waste_basket"}},"type":"Feature"},
	{"geometry":{"coordinates":[-75.692871,45.455558],"type":"Point"},"properties":{"osm_id":"6750208625","tag":{"amenity":"waste_basket"}},"type":"Feature"},
	{"geometry":{"coordinates":[-75.693612,45.455534],"type":"Point"},"properties":{"osm_id":"6750208629","tag":{"amenity":"waste_basket"}},"type":"Feature"},
	{"geometry":{"coordinates":[-75.694494,45.455526],"type":"Point"},"properties":{"osm_id":"6750208660","tag":{"amenity":"waste_basket"}},"type":"Feature"},
	{"geometry":{"coordinates":[-75.695389,45.455567],"type":"Point"},"properties":{"osm_id":"6750208663","tag":{"amenity":"waste_basket"}},"type":"Feature"},
	{"geometry":{"coordinates":[-75.699181,45.456921],"type":"Point"},"properties":{"osm_id":"6750208664","tag":{"amenity":"waste_basket"}},"type":"Feature"},
	{"geometry":{"coordinates":[-75.699426,45.457084],"type":"Point"},"properties":{"osm_id":"6750208667","tag":{"amenity":"waste_basket"}},"type":"Feature"},
	{"geometry":{"coordinates":[-75.682876,45.427604],"type":"Point"},"properties":{"osm_id":"6797483632","tag":{"amenity":"waste_basket"}},"type":"Feature"},
	{"geometry":{"coordinates":[-75.680602,45.429683],"type":"Point"},"properties":{"osm_id":"6797699042","tag":{"amenity":"waste_disposal"}},"type":"Feature"},
	{"geometry":{"coordinates":[-75.678463,45.433103],"type":"Point"},"properties":{"osm_id":"6797710587","tag":{"amenity":"waste_basket"}},"type":"Feature"},
	{"geometry":{"coordinates":[-75.682048,45.427367],"type":"Point"},"properties":{"osm_id":"6816129665","tag":{"amenity":"waste_basket"}},"type":"Feature"},
	{"geometry":{"coordinates":[-75.711957,45.428173],"type":"Point"},"properties":{"osm_id":"6860509150","tag":{"amenity":"waste_basket"}},"type":"Feature"},
	{"geometry":{"coordinates":[-75.702838,45.417095],"type":"Point"},"properties":{"osm_id":"6871415390","tag":{"amenity":"waste_basket"}},"type":"Feature"},
	{"geometry":{"coordinates":[-75.70241,45.417251],"type":"Point"},"properties":{"osm_id":"6871415393","tag":{"amenity":"waste_basket"}},"type":"Feature"},
	{"geometry":{"coordinates":[-75.701853,45.417487],"type":"Point"},"properties":{"osm_id":"6871415403","tag":{"amenity":"waste_basket"}},"type":"Feature"},
	{"geometry":{"coordinates":[-75.701483,45.417649],"type":"Point"},"properties":{"osm_id":"6871415412","tag":{"amenity":"waste_basket"}},"type":"Feature"},
	{"geometry":{"coordinates":[-75.695296,45.420195],"type":"Point"},"properties":{"osm_id":"6871415459","tag":{"amenity":"waste_basket"}},"type":"Feature"},
	{"geometry":{"coordinates":[-75.696707,45.420211],"type":"Point"},"properties":{"osm_id":"6871415476","tag":{"amenity":"waste_disposal"}},"type":"Feature"},
	{"geometry":{"coordinates":[-75.697574,45.419265],"type":"Point"},"properties":{"osm_id":"6871415483","tag":{"amenity":"waste_basket"}},"type":"Feature"},
	{"geometry":{"coordinates":[-75.699636,45.418572],"type":"Point"},"properties":{"osm_id":"6871415503","tag":{"amenity":"waste_disposal"}},"type":"Feature"},
	{"geometry":{"coordinates":[-75.706406,45.418213],"type":"Point"},"properties":{"osm_id":"6871581911","tag":{"amenity":"waste_basket"}},"type":"Feature"},
	{"geometry":{"coordinates":[-75.704024,45.419294],"type":"Point"},"properties":{"osm_id":"6871603390","tag":{"amenity":"waste_basket"}},"type":"Feature"},
	{"geometry":{"coordinates":[-75.701779,45.42029],"type":"Point"},"properties":{"osm_id":"6871603421","tag":{"amenity":"waste_basket"}},"type":"Feature"},
	{"geometry":{"coordinates":[-75.701109,45.420499],"type":"Point"},"properties":{"osm_id":"6871603427","tag":{"amenity":"waste_basket"}},"type":"Feature"},
	{"geometry":{"coordinates":[-75.700837,45.420694],"type":"Point"},"properties":{"osm_id":"6871603430","tag":{"amenity":"waste_basket"}},"type":"Feature"},
	{"geometry":{"coordinates":[-75.700735,45.420661],"type":"Point"},"properties":{"osm_id":"6871603431","tag":{"amenity":"waste_basket"}},"type":"Feature"},
	{"geometry":{"coordinates":[-75.698772,45.42149],"type":"Point"},"properties":{"osm_id":"6871603439","tag":{"amenity":"waste_basket"}},"type":"Feature"},
	{"geometry":{"coordinates":[-75.683227,45.420157],"type":"Point"},"properties":{"osm_id":"6872086918","tag":{"amenity":"waste_basket"}},"type":"Feature"},
	{"geometry":{"coordinates":[-75.68489,45.420875],"type":"Point"},"properties":{"osm_id":"6872086922","tag":{"amenity":"waste_basket"}},"type":"Feature"},
	{"geometry":{"coordinates":[-75.68718,45.421865],"type":"Point"},"properties":{"osm_id":"6872086924","tag":{"amenity":"waste_basket"}},"type":"Feature"},
	{"geometry":{"coordinates":[-75.689461,45.422861],"type":"Point"},"properties":{"osm_id":"6872086945","tag":{"amenity":"waste_basket"}},"type":"Feature"},
	{"geometry":{"coordinates":[-75.680647,45.405425],"type":"Point"},"properties":{"osm_id":"6872099223","tag":{"amenity":"waste_basket"}},"type":"Feature"},
	{"geometry":{"coordinates":[-75.680819,45.405847],"type":"Point"},"properties":{"osm_id":"6872099225","tag":{"amenity":"waste_basket"}},"type":"Feature"},
	{"geometry":{"coordinates":[-75.681238,45.407572],"type":"Point"},"properties":{"osm_id":"6872099226","tag":{"amenity":"waste_basket"}},"type":"Feature"},
	{"geometry":{"coordinates":[-75.681207,45.408095],"type":"Point"},"properties":{"osm_id":"6872099227","tag":{"amenity":"waste_basket"}},"type":"Feature"},
	{"geometry":{"coordinates":[-75.696793,45.42762],"type":"Point"},"properties":{"osm_id":"6872315735","tag":{"amenity":"waste_basket"}},"type":"Feature"},
	{"geometry":{"coordinates":[-75.680106,45.404064],"type":"Point"},"properties":{"osm_id":"6872437406","tag":{"amenity":"waste_basket"}},"type":"Feature"},
	{"geometry":{"coordinates":[-75.697386,45.428142],"type":"Point"},"properties":{"osm_id":"6872585636","tag":{"amenity":"waste_basket"}},"type":"Feature"},
	{"geometry":{"coordinates":[-75.698081,45.428277],"type":"Point"},"properties":{"osm_id":"6872585637","tag":{"amenity":"waste_basket"}},"type":"Feature"},
	{"geometry":{"coordinates":[-75.702689,45.419676],"type":"Point"},"properties":{"osm_id":"6882119172","tag":{"amenity":"waste_basket"}},"type":"Feature"},
	{"geometry":{"coordinates":[-75.686012,45.399495],"type":"Point"},"properties":{"osm_id":"6910452666","tag":{"amenity":"waste_basket"}},"type":"Feature"},
	{"geometry":{"coordinates":[-75.683917,45.399661],"type":"Point"},"properties":{"osm_id":"6910478001","tag":{"amenity":"waste_basket"}},"type":"Feature"},
	{"geometry":{"coordinates":[-75.684818,45.399293],"type":"Point"},"properties":{"osm_id":"6910478018","tag":{"amenity":"waste_basket"}},"type":"Feature"},
	{"geometry":{"coordinates":[-75.680566,45.399167],"type":"Point"},"properties":{"osm_id":"6923377071","tag":{"amenity":"waste_basket"}},"type":"Feature"},
	{"geometry":{"coordinates":[-75.712727,45.416219],"type":"Point"},"properties":{"osm_id":"6945746814","tag":{"amenity":"waste_basket"}},"type":"Feature"},
	{"geometry":{"coordinates":[-75.702427,45.409033],"type":"Point"},"properties":{"osm_id":"7069981011","tag":{"amenity":"waste_disposal"}},"type":"Feature"},
	{"geometry":{"coordinates":[-75.703314,45.409001],"type":"Point"},"properties":{"osm_id":"7069981018","tag":{"amenity":"waste_basket"}},"type":"Feature"},
	{"geometry":{"coordinates":[-75.700446,45.420044],"type":"Point"},"properties":{"osm_id":"7129167680","tag":{"amenity":"waste_basket"}},"type":"Feature"},
	{"geometry":{"coordinates":[-75.6984,45.417875],"type":"Point"},"properties":{"osm_id":"7129221469","tag":{"amenity":"waste_basket"}},"type":"Feature"},
	{"geometry":{"coordinates":[-75.698033,45.417441],"type":"Point"},"properties":{"osm_id":"7129221473","tag":{"amenity":"waste_basket"}},"type":"Feature"},
	{"geometry":{"coordinates":[-75.697537,45.416844],"type":"Point"},"properties":{"osm_id":"7129221479","tag":{"amenity":"waste_basket"}},"type":"Feature"},
	{"geometry":{"coordinates":[-75.697378,45.41664],"type":"Point"},"properties":{"osm_id":"7129221480","tag":{"amenity":"waste_basket"}},"type":"Feature"},
	{"geometry":{"coordinates":[-75.698526,45.418061],"type":"Point"},"properties":{"osm_id":"7129225138","tag":{"amenity":"waste_basket"}},"type":"Feature"},
	{"geometry":{"coordinates":[-75.699075,45.418672],"type":"Point"},"properties":{"osm_id":"7129225143","tag":{"amenity":"waste_basket"}},"type":"Feature"},
	{"geometry":{"coordinates":[-75.696774,45.415944],"type":"Point"},"properties":{"osm_id":"7129278887","tag":{"amenity":"waste_basket"}},"type":"Feature"},
	{"geometry":{"coordinates":[-75.696534,45.415669],"type":"Point"},"properties":{"osm_id":"7129278892","tag":{"amenity":"waste_basket"}},"type":"Feature"},
	{"geometry":{"coordinates":[-75.696523,45.415436],"type":"Point"},"properties":{"osm_id":"7129278897","tag":{"amenity":"waste_basket"}},"type":"Feature"},
	{"geometry":{"coordinates":[-75.697091,45.416088],"type":"Point"},"properties":{"osm_id":"7129278903","tag":{"amenity":"waste_basket"}},"type":"Feature"},
	{"geometry":{"coordinates":[-75.697523,45.416591],"type":"Point"},"properties":{"osm_id":"7129278906","tag":{"amenity":"waste_basket"}},"type":"Feature"},
	{"geometry":{"coordinates":[-75.697642,45.41675],"type":"Point"},"properties":{"osm_id":"7129278908","tag":{"amenity":"waste_basket"}},"type":"Feature"},
	{"geometry":{"coordinates":[-75.698026,45.417207],"type":"Point"},"properties":{"osm_id":"7129278909","tag":{"amenity":"waste_basket"}},"type":"Feature"},
	{"geometry":{"coordinates":[-75.698515,45.417788],"type":"Point"},"properties":{"osm_id":"7129278914","tag":{"amenity":"waste_basket"}},"type":"Feature"},
	{"geometry":{"coordinates":[-75.696206,45.415287],"type":"Point"},"properties":{"osm_id":"7129278946","tag":{"amenity":"waste_basket"}},"type":"Feature"},
	{"geometry":{"coordinates":[-75.695852,45.414875],"type":"Point"},"properties":{"osm_id":"7129278952","tag":{"amenity":"waste_basket"}},"type":"Feature"},
	{"geometry":{"coordinates":[-75.695642,45.414638],"type":"Point"},"properties":{"osm_id":"7129278953","tag":{"amenity":"waste_basket"}},"type":"Feature"},
	{"geometry":{"coordinates":[-75.695242,45.414184],"type":"Point"},"properties":{"osm_id":"7129278957","tag":{"amenity":"waste_basket"}},"type":"Feature"},
	{"geometry":{"coordinates":[-75.695079,45.413974],"type":"Point"},"properties":{"osm_id":"7129278959","tag":{"amenity":"waste_basket"}},"type":"Feature"},
	{"geometry":{"coordinates":[-75.694804,45.41366],"type":"Point"},"properties":{"osm_id":"7129278962","tag":{"amenity":"waste_basket"}},"type":"Feature"},
	{"geometry":{"coordinates":[-75.694443,45.413241],"type":"Point"},"properties":{"osm_id":"7129278969","tag":{"amenity":"waste_basket"}},"type":"Feature"},
	{"geometry":{"coordinates":[-75.694308,45.41309],"type":"Point"},"properties":{"osm_id":"7129278970","tag":{"amenity":"waste_basket"}},"type":"Feature"},
	{"geometry":{"coordinates":[-75.693936,45.412669],"type":"Point"},"properties":{"osm_id":"7129278973","tag":{"amenity":"waste_basket"}},"type":"Feature"},
	{"geometry":{"coordinates":[-75.693601,45.412287],"type":"Point"},"properties":{"osm_id":"7129278974","tag":{"amenity":"waste_basket"}},"type":"Feature"},
	{"geometry":{"coordinates":[-75.693783,45.412263],"type":"Point"},"properties":{"osm_id":"7129278975","tag":{"amenity":"waste_basket"}},"type":"Feature"},
	{"geometry":{"coordinates":[-75.694108,45.412652],"type":"Point"},"properties":{"osm_id":"7129278980","tag":{"amenity":"waste_basket"}},"type":"Feature"},
	{"geometry":{"coordinates":[-75.694276,45.412843],"type":"Point"},"properties":{"osm_id":"7129278981","tag":{"amenity":"waste_basket"}},"type":"Feature"},
	{"geometry":{"coordinates":[-75.694675,45.413303],"type":"Point"},"properties":{"osm_id":"7129314187","tag":{"amenity":"waste_basket"}},"type":"Feature"},
	{"geometry":{"coordinates":[-75.694812,45.413467],"type":"Point"},"properties":{"osm_id":"7129314190","tag":{"amenity":"waste_basket"}},"type":"Feature"},
	{"geometry":{"coordinates":[-75.695229,45.413946],"type":"Point"},"properties":{"osm_id":"7129314194","tag":{"amenity":"waste_basket"}},"type":"Feature"},
	{"geometry":{"coordinates":[-75.695364,45.414105],"type":"Point"},"properties":{"osm_id":"7129314195","tag":{"amenity":"waste_basket"}},"type":"Feature"},
	{"geometry":{"coordinates":[-75.695793,45.414605],"type":"Point"},"properties":{"osm_id":"7129314201","tag":{"amenity":"waste_basket"}},"type":"Feature"},
	{"geometry":{"coordinates":[-75.695943,45.414778],"type":"Point"},"properties":{"osm_id":"7129314203","tag":{"amenity":"waste_basket"}},"type":"Feature"},
	{"geometry":{"coordinates":[-75.696218,45.415116],"type":"Point"},"properties":{"osm_id":"7129314205","tag":{"amenity":"waste_basket"}},"type":"Feature"},
	{"geometry":{"coordinates":[-75.69242,45.410274],"type":"Point"},"properties":{"osm_id":"7129466009","tag":{"amenity":"waste_basket"}},"type":"Feature"},
	{"geometry":{"coordinates":[-75.69263,45.4103],"type":"Point"},"properties":{"osm_id":"7129466014","tag":{"amenity":"waste_basket"}},"type":"Feature"},
	{"geometry":{"coordinates":[-75.692973,45.410895],"type":"Point"},"properties":{"osm_id":"7129466016","tag":{"amenity":"waste_basket"}},"type":"Feature"},
	{"geometry":{"coordinates":[-75.693602,45.411999],"type":"Point"},"properties":{"osm_id":"7129466024","tag":{"amenity":"waste_basket"}},"type":"Feature"},
	{"geometry":{"coordinates":[-75.691086,45.408034],"type":"Point"},"properties":{"osm_id":"7129474877","tag":{"amenity":"waste_basket"}},"type":"Feature"},
	{"geometry":{"coordinates":[-75.690474,45.40693],"type":"Point"},"properties":{"osm_id":"7129474883","tag":{"amenity":"waste_basket"}},"type":"Feature"},
	{"geometry":{"coordinates":[-75.690351,45.406648],"type":"Point"},"properties":{"osm_id":"7129589685","tag":{"amenity":"waste_basket"}},"type":"Feature"},
	{"geometry":{"coordinates":[-75.689848,45.405857],"type":"Point"},"properties":{"osm_id":"7129589692","tag":{"amenity":"waste_basket"}},"type":"Feature"},
	{"geometry":{"coordinates":[-75.68942,45.405148],"type":"Point"},"properties":{"osm_id":"7129589697","tag":{"amenity":"waste_basket"}},"type":"Feature"},
	{"geometry":{"coordinates":[-75.689242,45.404715],"type":"Point"},"properties":{"osm_id":"7129589703","tag":{"amenity":"waste_basket"}},"type":"Feature"},
	{"geometry":{"coordinates":[-75.689069,45.40451],"type":"Point"},"properties":{"osm_id":"7129589704","tag":{"amenity":"waste_basket"}},"type":"Feature"},
	{"geometry":{"coordinates":[-75.688558,45.403032],"type":"Point"},"properties":{"osm_id":"7129589740","tag":{"amenity":"waste_basket"}},"type":"Feature"},
	{"geometry":{"coordinates":[-75.689231,45.404285],"type":"Point"},"properties":{"osm_id":"7129589746","tag":{"amenity":"waste_basket"}},"type":"Feature"},
	{"geometry":{"coordinates":[-75.689668,45.405043],"type":"Point"},"properties":{"osm_id":"7129589751","tag":{"amenity":"waste_basket"}},"type":"Feature"},
	{"geometry":{"coordinates":[-75.691194,45.407702],"type":"Point"},"properties":{"osm_id":"7129589811","tag":{"amenity":"waste_basket"}},"type":"Feature"},
	{"geometry":{"coordinates":[-75.687136,45.40111],"type":"Point"},"properties":{"osm_id":"7129632319","tag":{"amenity":"waste_basket"}},"type":"Feature"},
	{"geometry":{"coordinates":[-75.686807,45.400531],"type":"Point"},"properties":{"osm_id":"7129632322","tag":{"amenity":"waste_basket"}},"type":"Feature"},
	{"geometry":{"coordinates":[-75.686252,45.39954],"type":"Point"},"properties":{"osm_id":"7129632328","tag":{"amenity":"waste_basket"}},"type":"Feature"},
	{"geometry":{"coordinates":[-75.685929,45.399079],"type":"Point"},"properties":{"osm_id":"7129632330","tag":{"amenity":"waste_basket"}},"type":"Feature"},
	{"geometry":{"coordinates":[-75.686026,45.398611],"type":"Point"},"properties":{"osm_id":"7129632352","tag":{"amenity":"waste_basket"}},"type":"Feature"},
	{"geometry":{"coordinates":[-75.687391,45.400953],"type":"Point"},"properties":{"osm_id":"7129632369","tag":{"amenity":"waste_basket"}},"type":"Feature"},
	{"geometry":{"coordinates":[-75.694052,45.426461],"type":"Point"},"properties":{"osm_id":"7141656554","tag":{"amenity":"waste_basket"}},"type":"Feature"},
	{"geometry":{"coordinates":[-75.694686,45.427193],"type":"Point"},"properties":{"osm_id":"7141656561","tag":{"amenity":"waste_basket"}},"type":"Feature"},
	{"geometry":{"coordinates":[-75.694983,45.427535],"type":"Point"},"properties":{"osm_id":"7141656562","tag":{"amenity":"waste_basket"}},"type":"Feature"},
	{"geometry":{"coordinates":[-75.695338,45.427951],"type":"Point"},"properties":{"osm_id":"7141656567","tag":{"amenity":"waste_basket"}},"type":"Feature"},
	{"geometry":{"coordinates":[-75.69552,45.428159],"type":"Point"},"properties":{"osm_id":"7141656568","tag":{"amenity":"waste_basket"}},"type":"Feature"},
	{"geometry":{"coordinates":[-75.695876,45.428574],"type":"Point"},"properties":{"osm_id":"7141695497","tag":{"amenity":"waste_basket"}},"type":"Feature"},
	{"geometry":{"coordinates":[-75.696062,45.428799],"type":"Point"},"properties":{"osm_id":"7141695504","tag":{"amenity":"waste_basket"}},"type":"Feature"},
	{"geometry":{"coordinates":[-75.696402,45.429196],"type":"Point"},"properties":{"osm_id":"7141695507","tag":{"amenity":"waste_basket"}},"type":"Feature"},
	{"geometry":{"coordinates":[-75.710033,45.401351],"type":"Point"},"properties":{"osm_id":"7142983278","tag":{"amenity":"waste_basket"}},"type":"Feature"},
	{"geometry":{"coordinates":[-75.723595,45.404758],"type":"Point"},"properties":{"osm_id":"7147691163","tag":{"amenity":"waste_basket"}},"type":"Feature"},
	{"geometry":{"coordinates":[-75.724398,45.403822],"type":"Point"},"properties":{"osm_id":"7147691176","tag":{"amenity":"waste_basket"}},"type":"Feature"},
	{"geometry":{"coordinates":[-75.724907,45.403404],"type":"Point"},"properties":{"osm_id":"7147691177","tag":{"amenity":"waste_basket"}},"type":"Feature"},
	{"geometry":{"coordinates":[-75.726268,45.40222],"type":"Point"},"properties":{"osm_id":"7147691184","tag":{"amenity":"waste_basket"}},"type":"Feature"},
	{"geometry":{"coordinates":[-75.720472,45.406583],"type":"Point"},"properties":{"osm_id":"7147691732","tag":{"amenity":"waste_basket"}},"type":"Feature"},
	{"geometry":{"coordinates":[-75.72002,45.406718],"type":"Point"},"properties":{"osm_id":"7147691738","tag":{"amenity":"waste_basket"}},"type":"Feature"},
	{"geometry":{"coordinates":[-75.719355,45.406731],"type":"Point"},"properties":{"osm_id":"7147691741","tag":{"amenity":"waste_basket"}},"type":"Feature"},
	{"geometry":{"coordinates":[-75.720728,45.406349],"type":"Point"},"properties":{"osm_id":"7147691742","tag":{"amenity":"waste_basket"}},"type":"Feature"},
	{"geometry":{"coordinates":[-75.721415,45.406149],"type":"Point"},"properties":{"osm_id":"7147691743","tag":{"amenity":"waste_basket"}},"type":"Feature"},
	{"geometry":{"coordinates":[-75.727597,45.401308],"type":"Point"},"properties":{"osm_id":"7147704698","tag":{"amenity":"waste_basket"}},"type":"Feature"},
	{"geometry":{"coordinates":[-75.727645,45.401141],"type":"Point"},"properties":{"osm_id":"7147704701","tag":{"amenity":"waste_basket"}},"type":"Feature"},
	{"geometry":{"coordinates":[-75.728743,45.400989],"type":"Point"},"properties":{"osm_id":"7147704753","tag":{"amenity":"waste_basket"}},"type":"Feature"},
	{"geometry":{"coordinates":[-75.728018,45.401247],"type":"Point"},"properties":{"osm_id":"7147704757","tag":{"amenity":"waste_basket"}},"type":"Feature"},
	{"geometry":{"coordinates":[-75.726812,45.401993],"type":"Point"},"properties":{"osm_id":"7147704766","tag":{"amenity":"waste_basket"}},"type":"Feature"},
	{"geometry":{"coordinates":[-75.724332,45.404238],"type":"Point"},"properties":{"osm_id":"7147704777","tag":{"amenity":"waste_basket"}},"type":"Feature"},
	{"geometry":{"coordinates":[-75.723965,45.404639],"type":"Point"},"properties":{"osm_id":"7147704785","tag":{"amenity":"waste_basket"}},"type":"Feature"},
	{"geometry":{"coordinates":[-75.723009,45.40559],"type":"Point"},"properties":{"osm_id":"7147704804","tag":{"amenity":"waste_basket"}},"type":"Feature"},
	{"geometry":{"coordinates":[-75.729226,45.400647],"type":"Point"},"properties":{"osm_id":"7147743112","tag":{"amenity":"waste_basket"}},"type":"Feature"},
	{"geometry":{"coordinates":[-75.731127,45.400112],"type":"Point"},"properties":{"osm_id":"7147743126","tag":{"amenity":"waste_basket"}},"type":"Feature"},
	{"geometry":{"coordinates":[-75.73071,45.400261],"type":"Point"},"properties":{"osm_id":"7147743127","tag":{"amenity":"waste_basket"}},"type":"Feature"},
	{"geometry":{"coordinates":[-75.730346,45.400395],"type":"Point"},"properties":{"osm_id":"7147743129","tag":{"amenity":"waste_basket"}},"type":"Feature"},
	{"geometry":{"coordinates":[-75.735869,45.398791],"type":"Point"},"properties":{"osm_id":"7147799338","tag":{"amenity":"waste_basket"}},"type":"Feature"},
	{"geometry":{"coordinates":[-75.738316,45.398455],"type":"Point"},"properties":{"osm_id":"7147799370","tag":{"amenity":"waste_basket"}},"type":"Feature"},
	{"geometry":{"coordinates":[-75.737099,45.398679],"type":"Point"},"properties":{"osm_id":"7147799372","tag":{"amenity":"waste_basket"}},"type":"Feature"},
	{"geometry":{"coordinates":[-75.736456,45.398843],"type":"Point"},"properties":{"osm_id":"7147799376","tag":{"amenity":"waste_basket"}},"type":"Feature"},
	{"geometry":{"coordinates":[-75.735206,45.399101],"type":"Point"},"properties":{"osm_id":"7147799379","tag":{"amenity":"waste_basket"}},"type":"Feature"},
	{"geometry":{"coordinates":[-75.733793,45.399354],"type":"Point"},"properties":{"osm_id":"7147799383","tag":{"amenity":"waste_basket"}},"type":"Feature"},
	{"geometry":{"coordinates":[-75.733304,45.399456],"type":"Point"},"properties":{"osm_id":"7147804688","tag":{"amenity":"waste_basket"}},"type":"Feature"},
	{"geometry":{"coordinates":[-75.733043,45.399379],"type":"Point"},"properties":{"osm_id":"7147807490","tag":{"amenity":"waste_basket"}},"type":"Feature"},
	{"geometry":{"coordinates":[-75.723695,45.403192],"type":"Point"},"properties":{"osm_id":"7149497757","tag":{"amenity":"waste_basket"}},"type":"Feature"},
	{"geometry":{"coordinates":[-75.698637,45.428143],"type":"Point"},"properties":{"osm_id":"7167204102","tag":{"amenity":"waste_basket"}},"type":"Feature"},
	{"geometry":{"coordinates":[-75.697969,45.42731],"type":"Point"},"properties":{"osm_id":"7170873096","tag":{"amenity":"waste_basket"}},"type":"Feature"},
	{"geometry":{"coordinates":[-75.68885,45.416321],"type":"Point"},"properties":{"osm_id":"7173879262","tag":{"amenity":"waste_basket"}},"type":"Feature"},
	{"geometry":{"coordinates":[-75.689045,45.416549],"type":"Point"},"properties":{"osm_id":"7173879263","tag":{"amenity":"waste_basket"}},"type":"Feature"},
	{"geometry":{"coordinates":[-75.688587,45.416644],"type":"Point"},"properties":{"osm_id":"7173879267","tag":{"amenity":"waste_basket"}},"type":"Feature"},
	{"geometry":{"coordinates":[-75.688509,45.416569],"type":"Point"},"properties":{"osm_id":"7173879268","tag":{"amenity":"waste_basket"}},"type":"Feature"},
	{"geometry":{"coordinates":[-75.687143,45.417031],"type":"Point"},"properties":{"osm_id":"7173879273","tag":{"amenity":"waste_basket"}},"type":"Feature"},
	{"geometry":{"coordinates":[-75.68731,45.417234],"type":"Point"},"properties":{"osm_id":"7173879274","tag":{"amenity":"waste_basket"}},"type":"Feature"},
	{"geometry":{"coordinates":[-75.699787,45.419487],"type":"Point"},"properties":{"osm_id":"7180039417","tag":{"amenity":"waste_basket"}},"type":"Feature"},
	{"geometry":{"coordinates":[-75.699579,45.419244],"type":"Point"},"properties":{"osm_id":"7180039418","tag":{"amenity":"waste_basket"}},"type":"Feature"},
	{"geometry":{"coordinates":[-75.700749,45.420395],"type":"Point"},"properties":{"osm_id":"7180447853","tag":{"amenity":"waste_basket"}},"type":"Feature"},
	{"geometry":{"coordinates":[-75.696115,45.424092],"type":"Point"},"properties":{"osm_id":"7184895060","tag":{"amenity":"waste_basket"}},"type":"Feature"},
	{"geometry":{"coordinates":[-75.696043,45.424118],"type":"Point"},"properties":{"osm_id":"7184895061","tag":{"amenity":"waste_basket"}},"type":"Feature"},
	{"geometry":{"coordinates":[-75.698064,45.423346],"type":"Point"},"properties":{"osm_id":"7184895071","tag":{"amenity":"waste_basket"}},"type":"Feature"},
	{"geometry":{"coordinates":[-75.753373,45.399523],"type":"Point"},"properties":{"osm_id":"7310854752","tag":{"amenity":"waste_disposal"}},"type":"Feature"},
	{"geometry":{"coordinates":[-75.715839,45.400079],"type":"Point"},"properties":{"osm_id":"7312583344","tag":{"amenity":"waste_disposal"}},"type":"Feature"},
	{"geometry":{"coordinates":[-75.715934,45.399135],"type":"Point"},"properties":{"osm_id":"7312583345","tag":{"amenity":"waste_disposal"}},"type":"Feature"},
	{"geometry":{"coordinates":[-75.691611,45.401583],"type":"Point"},"properties":{"osm_id":"7313854096","tag":{"amenity":"waste_disposal"}},"type":"Feature"},
	{"geometry":{"coordinates":[-75.685296,45.406757],"type":"Point"},"properties":{"osm_id":"7340789782","tag":{"amenity":"waste_disposal"}},"type":"Feature"},
	{"geometry":{"coordinates":[-75.681808,45.434587],"type":"Point"},"properties":{"osm_id":"7375937420","tag":{"amenity":"waste_disposal"}},"type":"Feature"},
	{"geometry":{"coordinates":[-75.681855,45.432906],"type":"Point"},"properties":{"osm_id":"7375957569","tag":{"amenity":"waste_disposal"}},"type":"Feature"},
	{"geometry":{"coordinates":[-75.677494,45.42304],"type":"Point"},"properties":{"osm_id":"7377153156","tag":{"amenity":"waste_disposal"}},"type":"Feature"},
	{"geometry":{"coordinates":[-75.677825,45.422829],"type":"Point"},"properties":{"osm_id":"7377153157","tag":{"amenity":"waste_basket"}},"type":"Feature"},
	{"geometry":{"coordinates":[-75.677535,45.42265],"type":"Point"},"properties":{"osm_id":"7377153175","tag":{"amenity":"waste_basket"}},"type":"Feature"},
	{"geometry":{"coordinates":[-75.676608,45.421971],"type":"Point"},"properties":{"osm_id":"7377153182","tag":{"amenity":"waste_basket"}},"type":"Feature"},
	{"geometry":{"coordinates":[-75.677027,45.421744],"type":"Point"},"properties":{"osm_id":"7377162595","tag":{"amenity":"waste_basket"}},"type":"Feature"},
	{"geometry":{"coordinates":[-75.676991,45.421399],"type":"Point"},"properties":{"osm_id":"7377162597","tag":{"amenity":"waste_basket"}},"type":"Feature"},
	{"geometry":{"coordinates":[-75.676245,45.421726],"type":"Point"},"properties":{"osm_id":"7377162606","tag":{"amenity":"waste_basket"}},"type":"Feature"},
	{"geometry":{"coordinates":[-75.680431,45.421599],"type":"Point"},"properties":{"osm_id":"7377204835","tag":{"amenity":"waste_disposal"}},"type":"Feature"},
	{"geometry":{"coordinates":[-75.679661,45.419424],"type":"Point"},"properties":{"osm_id":"7377555397","tag":{"amenity":"waste_disposal"}},"type":"Feature"},
	{"geometry":{"coordinates":[-75.684293,45.422897],"type":"Point"},"properties":{"osm_id":"7383372440","tag":{"amenity":"waste_disposal"}},"type":"Feature"},
	{"geometry":{"coordinates":[-75.683009,45.424498],"type":"Point"},"properties":{"osm_id":"7383406440","tag":{"amenity":"waste_disposal"}},"type":"Feature"},
	{"geometry":{"coordinates":[-75.688557,45.424806],"type":"Point"},"properties":{"osm_id":"7385778634","tag":{"amenity":"waste_disposal"}},"type":"Feature"},
	{"geometry":{"coordinates":[-75.696098,45.423359],"type":"Point"},"properties":{"osm_id":"7387699817","tag":{"amenity":"waste_basket"}},"type":"Feature"},
	{"geometry":{"coordinates":[-75.692696,45.409384],"type":"Point"},"properties":{"osm_id":"7399820945","tag":{"amenity":"waste_disposal"}},"type":"Feature"},
	{"geometry":{"coordinates":[-75.675437,45.420286],"type":"Point"},"properties":{"osm_id":"7399904475","tag":{"amenity":"waste_disposal"}},"type":"Feature"},
	{"geometry":{"coordinates":[-75.678291,45.44526],"type":"Point"},"properties":{"osm_id":"7400107167","tag":{"amenity":"waste_disposal"}},"type":"Feature"},
	{"geometry":{"coordinates":[-75.679371,45.451178],"type":"Point"},"properties":{"osm_id":"7400134508","tag":{"amenity":"waste_disposal"}},"type":"Feature"},
	{"geometry":{"coordinates":[-75.680208,45.424836],"type":"Point"},"properties":{"osm_id":"7402902090","tag":{"amenity":"waste_disposal"}},"type":"Feature"},
	{"geometry":{"coordinates":[-75.690225,45.415567],"type":"Point"},"properties":{"osm_id":"7402922095","tag":{"amenity":"waste_disposal"}},"type":"Feature"},
	{"geometry":{"coordinates":[-75.719654,45.451747],"type":"Point"},"properties":{"osm_id":"7476079613","tag":{"amenity":"waste_basket"}},"type":"Feature"},
	{"geometry":{"coordinates":[-75.692804,45.398739],"type":"Point"},"properties":{"osm_id":"7527461606","tag":{"amenity":"waste_basket"}},"type":"Feature"},
	{"geometry":{"coordinates":[-75.701972,45.429096],"type":"Point"},"properties":{"osm_id":"7600157240","tag":{"amenity":"waste_basket"}},"type":"Feature"},
	{"geometry":{"coordinates":[-75.701886,45.429068],"type":"Point"},"properties":{"osm_id":"7600157241","tag":{"amenity":"waste_basket"}},"type":"Feature"},
	{"geometry":{"coordinates":[-75.685666,45.412332],"type":"Point"},"properties":{"osm_id":"7632690818","tag":{"amenity":"waste_basket"}},"type":"Feature"},
	{"geometry":{"coordinates":[-75.74532,45.417442],"type":"Point"},"properties":{"osm_id":"7632847149","tag":{"amenity":"waste_basket"}},"type":"Feature"},
	{"geometry":{"coordinates":[-75.748944,45.419064],"type":"Point"},"properties":{"osm_id":"7632847154","tag":{"amenity":"waste_basket","mapillary":"Tl6lWXlK6BRx-3jbN3uvpA"}},"type":"Feature"},
	{"geometry":{"coordinates":[-75.748455,45.419669],"type":"Point"},"properties":{"osm_id":"7632847156","tag":{"amenity":"waste_basket"}},"type":"Feature"},
	{"geometry":{"coordinates":[-75.692736,45.448186],"type":"Point"},"properties":{"osm_id":"7781505237","tag":{"amenity":"waste_basket"}},"type":"Feature"},
	{"geometry":{"coordinates":[-75.687693,45.417026],"type":"Point"},"properties":{"osm_id":"7796846115","tag":{"amenity":"waste_basket"}},"type":"Feature"},
	{"geometry":{"coordinates":[-75.687612,45.41694],"type":"Point"},"properties":{"osm_id":"7796846116","tag":{"amenity":"waste_basket"}},"type":"Feature"},
	{"geometry":{"coordinates":[-75.688,45.416843],"type":"Point"},"properties":{"osm_id":"7796846117","tag":{"amenity":"waste_basket"}},"type":"Feature"},
	{"geometry":{"coordinates":[-75.688783,45.416479],"type":"Point"},"properties":{"osm_id":"7796846120","tag":{"amenity":"waste_basket"}},"type":"Feature"},
	{"geometry":{"coordinates":[-75.688854,45.416519],"type":"Point"},"properties":{"osm_id":"7796846121","tag":{"amenity":"waste_basket"}},"type":"Feature"},
	{"geometry":{"coordinates":[-75.70868,45.431633],"type":"Point"},"properties":{"osm_id":"7935077821","tag":{"amenity":"waste_basket"}},"type":"Feature"}
]
}
