{
"type": "FeatureCollection",
"features": [
	{"geometry":{"coordinates":[-75.74579,45.398434],"type":"Point"},"properties":{"osm_id":"2065361250","tag":{"amenity":"waste_basket"}},"type":"Feature"},
	{"geometry":{"coordinates":[-75.738465,45.362339],"type":"Point"},"properties":{"osm_id":"2627174131","tag":{"amenity":"waste_basket"}},"type":"Feature"},
	{"geometry":{"coordinates":[-75.737774,45.362516],"type":"Point"},"properties":{"osm_id":"2627174137","tag":{"amenity":"waste_basket"}},"type":"Feature"},
	{"geometry":{"coordinates":[-75.737473,45.362662],"type":"Point"},"properties":{"osm_id":"2627174138","tag":{"amenity":"waste_basket"}},"type":"Feature"},
	{"geometry":{"coordinates":[-75.733855,45.364145],"type":"Point"},"properties":{"osm_id":"2627182359","tag":{"amenity":"waste_basket"}},"type":"Feature"},
	{"geometry":{"coordinates":[-75.73132,45.36584],"type":"Point"},"properties":{"osm_id":"2627187930","tag":{"amenity":"waste_basket"}},"type":"Feature"},
	{"geometry":{"coordinates":[-75.734283,45.36707],"type":"Point"},"properties":{"osm_id":"2627187936","tag":{"amenity":"waste_basket"}},"type":"Feature"},
	{"geometry":{"coordinates":[-75.738657,45.370147],"type":"Point"},"properties":{"osm_id":"2627194321","tag":{"amenity":"waste_basket"}},"type":"Feature"},
	{"geometry":{"coordinates":[-75.734651,45.367681],"type":"Point"},"properties":{"osm_id":"2629289993","tag":{"amenity":"waste_basket"}},"type":"Feature"},
	{"geometry":{"coordinates":[-75.734801,45.367357],"type":"Point"},"properties":{"osm_id":"2629290218","tag":{"amenity":"waste_basket"}},"type":"Feature"},
	{"geometry":{"coordinates":[-75.737273,45.365842],"type":"Point"},"properties":{"osm_id":"2629294624","tag":{"amenity":"waste_basket"}},"type":"Feature"},
	{"geometry":{"coordinates":[-75.7374,45.365862],"type":"Point"},"properties":{"osm_id":"2629294627","tag":{"amenity":"waste_basket"}},"type":"Feature"},
	{"geometry":{"coordinates":[-75.714351,45.392468],"type":"Point"},"properties":{"osm_id":"3213622515","tag":{"amenity":"waste_basket"}},"type":"Feature"},
	{"geometry":{"coordinates":[-75.736797,45.356118],"type":"Point"},"properties":{"osm_id":"3656189007","tag":{"amenity":"recycling","recycling:clothes":"yes","recycling_type":"container"}},"type":"Feature"},
	{"geometry":{"coordinates":[-75.685521,45.396806],"type":"Point"},"properties":{"osm_id":"3727775702","tag":{"amenity":"waste_basket"}},"type":"Feature"},
	{"geometry":{"coordinates":[-75.687379,45.396725],"type":"Point"},"properties":{"osm_id":"3727775703","tag":{"amenity":"waste_basket"}},"type":"Feature"},
	{"geometry":{"coordinates":[-75.752144,45.396412],"type":"Point"},"properties":{"osm_id":"4061919604","tag":{"amenity":"waste_basket"}},"type":"Feature"},
	{"geometry":{"coordinates":[-75.736583,45.357717],"type":"Point"},"properties":{"osm_id":"4405945995","tag":{"amenity":"waste_disposal"}},"type":"Feature"},
	{"geometry":{"coordinates":[-75.73656,45.357733],"type":"Point"},"properties":{"osm_id":"4405973891","tag":{"amenity":"waste_disposal"}},"type":"Feature"},
	{"geometry":{"coordinates":[-75.736753,45.358023],"type":"Point"},"properties":{"osm_id":"4405983889","tag":{"amenity":"waste_basket"}},"type":"Feature"},
	{"geometry":{"coordinates":[-75.752709,45.394514],"type":"Point"},"properties":{"osm_id":"4743703089","tag":{"amenity":"waste_basket"}},"type":"Feature"},
	{"geometry":{"coordinates":[-75.752474,45.394251],"type":"Point"},"properties":{"osm_id":"4743880990","tag":{"amenity":"waste_basket"}},"type":"Feature"},
	{"geometry":{"coordinates":[-75.752452,45.394122],"type":"Point"},"properties":{"osm_id":"4743927406","tag":{"amenity":"waste_basket"}},"type":"Feature"},
	{"geometry":{"coordinates":[-75.752677,45.394074],"type":"Point"},"properties":{"osm_id":"4743935126","tag":{"amenity":"recycling","recycling:clothes":"yes","recycling_type":"container"}},"type":"Feature"},
	{"geometry":{"coordinates":[-75.759369,45.350233],"type":"Point"},"properties":{"osm_id":"4767926343","tag":{"amenity":"waste_basket"}},"type":"Feature"},
	{"geometry":{"coordinates":[-75.745469,45.36721],"type":"Point"},"properties":{"osm_id":"4792513509","tag":{"amenity":"waste_basket"}},"type":"Feature"},
	{"geometry":{"coordinates":[-75.745015,45.366836],"type":"Point"},"properties":{"osm_id":"4792513512","tag":{"amenity":"waste_basket"}},"type":"Feature"},
	{"geometry":{"coordinates":[-75.745315,45.366928],"type":"Point"},"properties":{"osm_id":"4793874970","tag":{"amenity":"waste_basket"}},"type":"Feature"},
	{"geometry":{"coordinates":[-75.753768,45.366949],"type":"Point"},"properties":{"osm_id":"4797584736","tag":{"amenity":"waste_basket"}},"type":"Feature"},
	{"geometry":{"coordinates":[-75.738431,45.370016],"type":"Point"},"properties":{"osm_id":"4821669572","tag":{"amenity":"waste_basket"}},"type":"Feature"},
	{"geometry":{"coordinates":[-75.697754,45.371881],"type":"Point"},"properties":{"osm_id":"4860659184","tag":{"amenity":"waste_basket"}},"type":"Feature"},
	{"geometry":{"coordinates":[-75.699971,45.380673],"type":"Point"},"properties":{"osm_id":"5127625936","tag":{"amenity":"waste_basket","mapillary":"MBoBYilJ4gAUh_l7koS5Rw"}},"type":"Feature"},
	{"geometry":{"coordinates":[-75.699828,45.380789],"type":"Point"},"properties":{"osm_id":"5127632722","tag":{"amenity":"waste_basket","mapillary":"m_a2ItUfDATb7_FOyuwHpA"}},"type":"Feature"},
	{"geometry":{"coordinates":[-75.698941,45.381198],"type":"Point"},"properties":{"osm_id":"5127642425","tag":{"amenity":"recycling","mapillary":"o9gG9oQ3VKh0urXADwIqBQ","recycling:cans":"yes","recycling:glass_bottles":"yes","recycling:paper":"yes","recycling:plastic":"yes","recycling:waste":"yes","recycling_type":"container"}},"type":"Feature"},
	{"geometry":{"coordinates":[-75.693416,45.38541],"type":"Point"},"properties":{"osm_id":"5129718842","tag":{"amenity":"waste_basket","mapillary":"UyQOlj9FuAFACkiddh0KcQ"}},"type":"Feature"},
	{"geometry":{"coordinates":[-75.693321,45.385299],"type":"Point"},"properties":{"osm_id":"5129727223","tag":{"amenity":"waste_basket","mapillary":"ulnZQJUNjG5RPiqmkgkxkA","mapillary_1":"pVmJE6kxmWJx2gGxKimCNA"}},"type":"Feature"},
	{"geometry":{"coordinates":[-75.693403,45.385998],"type":"Point"},"properties":{"osm_id":"5134110521","tag":{"amenity":"waste_basket","mapillary":"fw0FzHnRDo90tJJNHCHZJw"}},"type":"Feature"},
	{"geometry":{"coordinates":[-75.693809,45.386874],"type":"Point"},"properties":{"osm_id":"5134110941","tag":{"amenity":"waste_basket","mapillary":"zs2BiB_5d93bg3PfPCmZsA"}},"type":"Feature"},
	{"geometry":{"coordinates":[-75.698186,45.384029],"type":"Point"},"properties":{"osm_id":"5137607863","tag":{"amenity":"waste_basket","mapillary":"FfCuF-3z1svyfv685r0Ysw"}},"type":"Feature"},
	{"geometry":{"coordinates":[-75.697796,45.383834],"type":"Point"},"properties":{"osm_id":"5137614981","tag":{"amenity":"waste_basket","mapillary":"Z0WLqm2X81VIkyVIVjVNpQ"}},"type":"Feature"},
	{"geometry":{"coordinates":[-75.691959,45.384164],"type":"Point"},"properties":{"osm_id":"5137885762","tag":{"amenity":"recycling","mapillary":"r0x2e8W87YhzomnjfUlbmg;xkMQggv6CSy9xHuVcJONkw","recycling_type":"container"}},"type":"Feature"},
	{"geometry":{"coordinates":[-75.694642,45.385243],"type":"Point"},"properties":{"osm_id":"5139888182","tag":{"amenity":"waste_basket","mapillary":"rfFa9vJwiqCDOfWa_diUwQ;2oz0LD89QMgErmnyQxAAuQ;vPgOJv16wlnfyQiFqIzIbw"}},"type":"Feature"},
	{"geometry":{"coordinates":[-75.698455,45.388006],"type":"Point"},"properties":{"osm_id":"5140574460","tag":{"amenity":"waste_basket","mapillary":"_eDs5eak0ULrsS2_JhDCrg"}},"type":"Feature"},
	{"geometry":{"coordinates":[-75.696384,45.389156],"type":"Point"},"properties":{"osm_id":"5140574474","tag":{"amenity":"waste_basket","mapillary":"WxYANLjV6WfAVLIbe4PTkg"}},"type":"Feature"},
	{"geometry":{"coordinates":[-75.697373,45.384541],"type":"Point"},"properties":{"osm_id":"5141312792","tag":{"amenity":"waste_basket","mapillary":"u48Pyx8OC8DzSUciTfdJiw"}},"type":"Feature"},
	{"geometry":{"coordinates":[-75.697853,45.384772],"type":"Point"},"properties":{"osm_id":"5141323547","tag":{"amenity":"waste_basket","mapillary":"Pqw-TZX04ubniMopb-N8Bw"}},"type":"Feature"},
	{"geometry":{"coordinates":[-75.697848,45.384579],"type":"Point"},"properties":{"osm_id":"5141333494","tag":{"amenity":"waste_basket","mapillary":"jXS7IEqV3vFhblumCgiwGg"}},"type":"Feature"},
	{"geometry":{"coordinates":[-75.69766,45.383091],"type":"Point"},"properties":{"osm_id":"5143796736","tag":{"amenity":"waste_basket","mapillary":"lZ4cYIkxgddhVJY1VAH1mg"}},"type":"Feature"},
	{"geometry":{"coordinates":[-75.699092,45.381176],"type":"Point"},"properties":{"osm_id":"5143821407","tag":{"amenity":"waste_basket","mapillary":"zRafcKU49yNMMg3pMOHAgg"}},"type":"Feature"},
	{"geometry":{"coordinates":[-75.700003,45.381462],"type":"Point"},"properties":{"osm_id":"5143842605","tag":{"amenity":"waste_basket","mapillary":"Lf9WD-yggLS0ZR6nu1toCQ"}},"type":"Feature"},
	{"geometry":{"coordinates":[-75.693268,45.388095],"type":"Point"},"properties":{"osm_id":"5144038621","tag":{"amenity":"waste_basket","mapillary":"6PUmF_jqNkRW8Dn8OvOWPg"}},"type":"Feature"},
	{"geometry":{"coordinates":[-75.70004,45.381378],"type":"Point"},"properties":{"osm_id":"5144172724","tag":{"amenity":"waste_basket","mapillary":"https://legacy.mapillary.com/map/im/7KHcRRG7-sy2-pG4Dy76Kg"}},"type":"Feature"},
	{"geometry":{"coordinates":[-75.696632,45.387497],"type":"Point"},"properties":{"osm_id":"5146434788","tag":{"amenity":"waste_basket","mapillary":"V8mhLZv8SIcloLNvGX71fQ"}},"type":"Feature"},
	{"geometry":{"coordinates":[-75.696694,45.387717],"type":"Point"},"properties":{"osm_id":"5146434795","tag":{"amenity":"waste_basket","mapillary":"vGTW8e6C-FFIQS2gVg13rA"}},"type":"Feature"},
	{"geometry":{"coordinates":[-75.696879,45.386775],"type":"Point"},"properties":{"osm_id":"5147020361","tag":{"amenity":"waste_basket","mapillary":"f3NWCMMi11-wISAFwpimcA"}},"type":"Feature"},
	{"geometry":{"coordinates":[-75.698816,45.382268],"type":"Point"},"properties":{"osm_id":"5148018436","tag":{"amenity":"waste_basket","mapillary":"ggpEV2CYYtBqloWK29KHJA"}},"type":"Feature"},
	{"geometry":{"coordinates":[-75.694027,45.385841],"type":"Point"},"properties":{"osm_id":"5148201789","tag":{"amenity":"recycling","collection_times":"24/7","mapillary":"ZGBMzICXBY5hxCw-lFTBMQ","mapillary_1":"uT7q1hH4ucWYMdL9R8v-8w","recycling:beverage_cartons":"yes","recycling:cans":"yes","recycling:cardboard":"yes","recycling:glass_bottles":"yes","recycling:newspaper":"yes","recycling:paper":"yes","recycling:plastic":"yes","recycling:plastic_bottles":"yes","recycling_type":"container"}},"type":"Feature"},
	{"geometry":{"coordinates":[-75.694832,45.385599],"type":"Point"},"properties":{"osm_id":"5148334227","tag":{"amenity":"waste_basket","description":"Garbage can beside bus stop","mapillary":"V7W9Fc6rmeduO2e1zE2XOw"}},"type":"Feature"},
	{"geometry":{"coordinates":[-75.697325,45.384349],"type":"Point"},"properties":{"osm_id":"5148373536","tag":{"amenity":"waste_basket","mapillary":"qyTzHVgPkKgvB2rQqpfnYA"}},"type":"Feature"},
	{"geometry":{"coordinates":[-75.693411,45.385402],"type":"Point"},"properties":{"osm_id":"5150008147","tag":{"amenity":"recycling","mapillary":"OJVlDgJruxG2zBpFCBfnyA;AZN4ayXbv-1PIU_oL_cq4Q","recycling:cans":"yes","recycling:plastic":"yes","recycling_type":"container"}},"type":"Feature"},
	{"geometry":{"coordinates":[-75.694454,45.382373],"type":"Point"},"properties":{"osm_id":"5150108727","tag":{"amenity":"waste_basket","mapillary":"ZqaRv_W675wdh5XmAxslyQ"}},"type":"Feature"},
	{"geometry":{"coordinates":[-75.699217,45.380869],"type":"Point"},"properties":{"osm_id":"5150148411","tag":{"amenity":"waste_basket","mapillary":"RwM2QJMfb21Ig9NaCIbC3w"}},"type":"Feature"},
	{"geometry":{"coordinates":[-75.699005,45.382334],"type":"Point"},"properties":{"osm_id":"5152285932","tag":{"amenity":"waste_basket","collection_times":"19:57","mapillary":"6vHHOf1dtK9tvZcF0js-7g"}},"type":"Feature"},
	{"geometry":{"coordinates":[-75.699096,45.383184],"type":"Point"},"properties":{"osm_id":"5152285936","tag":{"amenity":"waste_basket","mapillary":"AtkRiV_YHehDG9ADMCzvUA"}},"type":"Feature"},
	{"geometry":{"coordinates":[-75.698025,45.382486],"type":"Point"},"properties":{"osm_id":"5152285947","tag":{"amenity":"waste_basket","mapillary":"t51jTRNZkb7FU8NK8QeOQQ"}},"type":"Feature"},
	{"geometry":{"coordinates":[-75.698626,45.383001],"type":"Point"},"properties":{"osm_id":"5152588722","tag":{"amenity":"waste_disposal","mapillary":"dKh8epwLdSENv3UnZ7exsQ"}},"type":"Feature"},
	{"geometry":{"coordinates":[-75.700145,45.381671],"type":"Point"},"properties":{"osm_id":"5153711713","tag":{"amenity":"waste_basket","mapillary":"fv4IXR-8VRT9eC7zN14QJQ"}},"type":"Feature"},
	{"geometry":{"coordinates":[-75.698927,45.381209],"type":"Point"},"properties":{"osm_id":"5154002420","tag":{"amenity":"waste_basket","mapillary":"3iwYP-W8HcoPgnE7n9bnZQ"}},"type":"Feature"},
	{"geometry":{"coordinates":[-75.698335,45.382203],"type":"Point"},"properties":{"osm_id":"5154030731","tag":{"amenity":"recycling","mapillary":"KbbxkyPTMfy88Ze6xsElGw","recycling_type":"container"}},"type":"Feature"},
	{"geometry":{"coordinates":[-75.694151,45.384364],"type":"Point"},"properties":{"osm_id":"5154098063","tag":{"amenity":"waste_basket","mapillary":"OTdf6plY_lpAgP3PLNrLdw"}},"type":"Feature"},
	{"geometry":{"coordinates":[-75.694011,45.383281],"type":"Point"},"properties":{"osm_id":"5154377125","tag":{"amenity":"waste_basket","mapillary":"0mR37_pk3fwBnKVfRRPIMQ"}},"type":"Feature"},
	{"geometry":{"coordinates":[-75.692975,45.383357],"type":"Point"},"properties":{"osm_id":"5154377128","tag":{"amenity":"waste_basket","mapillary":"t6kOLORBpXsjnShVG52oYQ"}},"type":"Feature"},
	{"geometry":{"coordinates":[-75.692568,45.383294],"type":"Point"},"properties":{"osm_id":"5154377129","tag":{"amenity":"waste_basket","mapillary":"LvtWr49omkk6aEEcafbAlw"}},"type":"Feature"},
	{"geometry":{"coordinates":[-75.696954,45.383936],"type":"Point"},"properties":{"osm_id":"5155347439","tag":{"amenity":"waste_basket","mapillary":"KR7LLArdtfzrjUKOghYp6A"}},"type":"Feature"},
	{"geometry":{"coordinates":[-75.696189,45.38273],"type":"Point"},"properties":{"osm_id":"5155395709","tag":{"amenity":"waste_basket","mapillary":"kbDpYfBeKmZDrB45hqjc8g"}},"type":"Feature"},
	{"geometry":{"coordinates":[-75.696115,45.382951],"type":"Point"},"properties":{"osm_id":"5155410328","tag":{"amenity":"waste_basket","mapillary":"gO-Aosr6e5vrFIcvdvBEfQ"}},"type":"Feature"},
	{"geometry":{"coordinates":[-75.698198,45.384201],"type":"Point"},"properties":{"osm_id":"5155434718","tag":{"amenity":"waste_basket","mapillary":"-YE0SHC-HoJZ4nvViSuc0g"}},"type":"Feature"},
	{"geometry":{"coordinates":[-75.699301,45.382987],"type":"Point"},"properties":{"osm_id":"5155492736","tag":{"amenity":"waste_basket","mapillary":"quAdRiAZ6tjvYpgyZD0ufQ"}},"type":"Feature"},
	{"geometry":{"coordinates":[-75.699315,45.381819],"type":"Point"},"properties":{"osm_id":"5155498364","tag":{"amenity":"waste_basket","mapillary":"83yNVkuxAx0wMVJwTq9KHw"}},"type":"Feature"},
	{"geometry":{"coordinates":[-75.69898,45.381981],"type":"Point"},"properties":{"osm_id":"5155513476","tag":{"amenity":"waste_basket","mapillary":"gnyVYnEo07lJSe6w5_fHug"}},"type":"Feature"},
	{"geometry":{"coordinates":[-75.70005,45.38143],"type":"Point"},"properties":{"osm_id":"5155521384","tag":{"amenity":"waste_basket","mapillary":"U9uE5wjvVpsV809JeXc7og"}},"type":"Feature"},
	{"geometry":{"coordinates":[-75.697161,45.383419],"type":"Point"},"properties":{"osm_id":"5155561857","tag":{"amenity":"waste_basket","mapillary":"87RiJ7p5YKJEg7iOpfuuUA"}},"type":"Feature"},
	{"geometry":{"coordinates":[-75.699184,45.382462],"type":"Point"},"properties":{"osm_id":"5156301935","tag":{"amenity":"waste_basket","mapillary":"dqSm2p-Lz7MSgW6y9izbmg"}},"type":"Feature"},
	{"geometry":{"coordinates":[-75.698897,45.382086],"type":"Point"},"properties":{"osm_id":"5156309485","tag":{"amenity":"waste_basket","mapillary":"edoHwYfyWK7IMNr5MFs4tA"}},"type":"Feature"},
	{"geometry":{"coordinates":[-75.696497,45.384751],"type":"Point"},"properties":{"osm_id":"5157526040","tag":{"amenity":"waste_disposal","mapillary":"LKK-HLWcS3cz4in1sP1OLA"}},"type":"Feature"},
	{"geometry":{"coordinates":[-75.697547,45.382639],"type":"Point"},"properties":{"osm_id":"5157535637","tag":{"amenity":"waste_basket","mapillary":"EKyYgv4pLsR3PZE3RpyL8g"}},"type":"Feature"},
	{"geometry":{"coordinates":[-75.697895,45.388414],"type":"Point"},"properties":{"osm_id":"5157595401","tag":{"amenity":"waste_basket","mapillary":"mXjbWKBQVi8vwCrnd81UAA"}},"type":"Feature"},
	{"geometry":{"coordinates":[-75.697189,45.382343],"type":"Point"},"properties":{"osm_id":"5157750938","tag":{"amenity":"waste_basket","mapillary":"Bad-OA9md6r25SvFKRLRqg","mapillary_1":"ldWt7EY3x7v2j6O39hpn1g","waste_basket":"cigarette"}},"type":"Feature"},
	{"geometry":{"coordinates":[-75.695913,45.38235],"type":"Point"},"properties":{"osm_id":"5157925553","tag":{"amenity":"waste_basket"}},"type":"Feature"},
	{"geometry":{"coordinates":[-75.699144,45.380668],"type":"Point"},"properties":{"osm_id":"5157983954","tag":{"amenity":"waste_disposal","mapillary":"AvFqW5NoyKD3P1ryF5HuNA"}},"type":"Feature"},
	{"geometry":{"coordinates":[-75.696445,45.381772],"type":"Point"},"properties":{"osm_id":"5157994944","tag":{"amenity":"waste_basket","mapillary":"PgHf5cuVS8-p3M2UXZh_-w"}},"type":"Feature"},
	{"geometry":{"coordinates":[-75.698193,45.383936],"type":"Point"},"properties":{"osm_id":"5158072742","tag":{"amenity":"waste_basket","mapillary":"DyLTSmNdLN8KWqEmLjpwTw"}},"type":"Feature"},
	{"geometry":{"coordinates":[-75.69783,45.383912],"type":"Point"},"properties":{"osm_id":"5158079612","tag":{"amenity":"waste_basket","mapillary":"WZgz-hRdF_vxptawsmlGzw"}},"type":"Feature"},
	{"geometry":{"coordinates":[-75.700657,45.380644],"type":"Point"},"properties":{"osm_id":"5158082253","tag":{"amenity":"waste_basket","mapillary":"JjZJNOYMS-TKVuXf9mUHhw"}},"type":"Feature"},
	{"geometry":{"coordinates":[-75.696286,45.385379],"type":"Point"},"properties":{"osm_id":"5158089959","tag":{"amenity":"waste_basket","mapillary":"FoiMsh66tTWzVBo8XtpSMQ"}},"type":"Feature"},
	{"geometry":{"coordinates":[-75.699729,45.381536],"type":"Point"},"properties":{"osm_id":"5158166785","tag":{"amenity":"waste_basket","mapillary":"vk6mKX3XPgR-3gIQdM6iDw"}},"type":"Feature"},
	{"geometry":{"coordinates":[-75.696065,45.382677],"type":"Point"},"properties":{"osm_id":"5158182444","tag":{"amenity":"waste_basket","disposal":"Cigarette","mapillary":"AAqq5EvzRq0mziwp6htckw"}},"type":"Feature"},
	{"geometry":{"coordinates":[-75.693545,45.383594],"type":"Point"},"properties":{"osm_id":"5158203848","tag":{"amenity":"waste_basket","mapillary":"1M3cAJXUSaQWmeyx9iLEhA"}},"type":"Feature"},
	{"geometry":{"coordinates":[-75.700575,45.381041],"type":"Point"},"properties":{"osm_id":"5158221243","tag":{"amenity":"recycling","mapillary":"mapillary=A-FtSPfFKC-6q_75q74T2g","recycling_type":"container"}},"type":"Feature"},
	{"geometry":{"coordinates":[-75.69887,45.382392],"type":"Point"},"properties":{"osm_id":"5158240923","tag":{"amenity":"waste_disposal","mapillary":"fbI3uVvTt6Ll0sdjsZ9SRA"}},"type":"Feature"},
	{"geometry":{"coordinates":[-75.700571,45.381054],"type":"Point"},"properties":{"osm_id":"5158259509","tag":{"amenity":"waste_basket","mapillary":"mfTgqa-Zg-vJezYg3Z-uPg"}},"type":"Feature"},
	{"geometry":{"coordinates":[-75.69463,45.385253],"type":"Point"},"properties":{"osm_id":"5158259779","tag":{"amenity":"recycling","mapillary":"3BbguPlE1o4rsMeP0g1K3w","recycling_type":"container"}},"type":"Feature"},
	{"geometry":{"coordinates":[-75.696694,45.381727],"type":"Point"},"properties":{"osm_id":"5159482187","tag":{"amenity":"waste_basket"}},"type":"Feature"},
	{"geometry":{"coordinates":[-75.696276,45.382022],"type":"Point"},"properties":{"osm_id":"5159496135","tag":{"amenity":"waste_disposal","mapillary":"gssi8zUxDt48AO91KrC_Eg"}},"type":"Feature"},
	{"geometry":{"coordinates":[-75.696479,45.382182],"type":"Point"},"properties":{"osm_id":"5159496136","tag":{"amenity":"waste_disposal","mapillary":"bidm2ByzjbdYWIXqEwxVRg"}},"type":"Feature"},
	{"geometry":{"coordinates":[-75.697238,45.382018],"type":"Point"},"properties":{"osm_id":"5159496138","tag":{"amenity":"recycling","mapillary":"-SlYynxMI8_3BdNVJfToTQ","recycling_type":"container"}},"type":"Feature"},
	{"geometry":{"coordinates":[-75.692102,45.385474],"type":"Point"},"properties":{"osm_id":"5159496145","tag":{"amenity":"recycling","mapillary":"EqSwXa2Io2X2Tu62lAF_QA","recycling_type":"container"}},"type":"Feature"},
	{"geometry":{"coordinates":[-75.69553,45.384987],"type":"Point"},"properties":{"osm_id":"5159496148","tag":{"amenity":"waste_basket","mapillary":"-X0POxpcclP9glymIbWx6w"}},"type":"Feature"},
	{"geometry":{"coordinates":[-75.699342,45.380898],"type":"Point"},"properties":{"osm_id":"5159515477","tag":{"amenity":"waste_disposal","mapillary":"CFjUC8xIwI-fO5dChItzTQ"}},"type":"Feature"},
	{"geometry":{"coordinates":[-75.703601,45.383333],"type":"Point"},"properties":{"osm_id":"5159653875","tag":{"amenity":"waste_disposal","mapillary":"ysPryJ5gNzfHKCha3wRZYw"}},"type":"Feature"},
	{"geometry":{"coordinates":[-75.693238,45.383631],"type":"Point"},"properties":{"osm_id":"5159700226","tag":{"amenity":"waste_basket"}},"type":"Feature"},
	{"geometry":{"coordinates":[-75.699365,45.382881],"type":"Point"},"properties":{"osm_id":"5159782161","tag":{"amenity":"waste_basket","mapillary":"-rCDkdwo71wxB7Yikz2A1w"}},"type":"Feature"},
	{"geometry":{"coordinates":[-75.694694,45.383454],"type":"Point"},"properties":{"osm_id":"5159801858","tag":{"amenity":"waste_basket","mapillary":"95AjU7-FzG8011QWKzKURA"}},"type":"Feature"},
	{"geometry":{"coordinates":[-75.695341,45.382929],"type":"Point"},"properties":{"osm_id":"5159840245","tag":{"amenity":"recycling","mapillary":"2Jbl6p1FTonUjABeDloQNg","recycling_type":"container"}},"type":"Feature"},
	{"geometry":{"coordinates":[-75.697724,45.383645],"type":"Point"},"properties":{"osm_id":"5161860443","tag":{"amenity":"waste_basket","mapillary":"djvdvGXdszTQecfu8WTT0g"}},"type":"Feature"},
	{"geometry":{"coordinates":[-75.695348,45.382923],"type":"Point"},"properties":{"osm_id":"5162214521","tag":{"amenity":"waste_basket","mapillary":"JQ-0IB9W2U8KafB2aG2fIA"}},"type":"Feature"},
	{"geometry":{"coordinates":[-75.697215,45.382583],"type":"Point"},"properties":{"osm_id":"5162223996","tag":{"amenity":"waste_basket","mapillary":"BDem9AgDz38W4jzI_LXCkw"}},"type":"Feature"},
	{"geometry":{"coordinates":[-75.69623,45.382068],"type":"Point"},"properties":{"name":"Recycling bins","osm_id":"5162400592","tag":{"amenity":"recycling","mapillary":"23yRrQTBIZm1FapwWofWsg","recycling_type":"centre"}},"type":"Feature"},
	{"geometry":{"coordinates":[-75.698238,45.382761],"type":"Point"},"properties":{"osm_id":"5163831281","tag":{"amenity":"recycling","mapillary":"Dzu0R_gOWFxFsGUgPMpeYw","recycling_type":"container"}},"type":"Feature"},
	{"geometry":{"coordinates":[-75.699315,45.380741],"type":"Point"},"properties":{"osm_id":"5166706531","tag":{"amenity":"waste_disposal","mapillary":"AapMn3HiUs6E3jB3Em9IBQ"}},"type":"Feature"},
	{"geometry":{"coordinates":[-75.694142,45.383486],"type":"Point"},"properties":{"osm_id":"5167204547","tag":{"amenity":"waste_basket","mapillary":"iHD5ibgDUzGIv-4PPdHV1Q"}},"type":"Feature"},
	{"geometry":{"coordinates":[-75.69277,45.386353],"type":"Point"},"properties":{"osm_id":"5168427568","tag":{"amenity":"recycling","collection_times":"24/7","mapillary":"6hU6eZze5r0RADAMRMeWSg","recycling:aluminium":"yes","recycling:beverage_cartons":"yes","recycling:cans":"yes","recycling:cardboard":"yes","recycling:cartons":"yes","recycling:glass_bottles":"yes","recycling:newspaper":"yes","recycling:paper":"yes","recycling:plastic":"yes","recycling:plastic_bottles":"yes","recycling_type":"container"}},"type":"Feature"},
	{"geometry":{"coordinates":[-75.692766,45.386347],"type":"Point"},"properties":{"osm_id":"5168427569","tag":{"amenity":"waste_basket","collection_times":"24/7","mapillary":"6hU6eZze5r0RADAMRMeWSg"}},"type":"Feature"},
	{"geometry":{"coordinates":[-75.694035,45.385838],"type":"Point"},"properties":{"osm_id":"5168427577","tag":{"amenity":"waste_basket","collection_times":"24/7","mapillary":"ZGBMzICXBY5hxCw-lFTBMQ"}},"type":"Feature"},
	{"geometry":{"coordinates":[-75.694042,45.385837],"type":"Point"},"properties":{"osm_id":"5168427578","tag":{"amenity":"waste_basket","collection_times":"24/7","mapillary":"wJb8onvY2X4ghWaqXGyvMg"}},"type":"Feature"},
	{"geometry":{"coordinates":[-75.698426,45.382509],"type":"Point"},"properties":{"osm_id":"5169393313","tag":{"amenity":"waste_basket","mapillary":"CcdDJhq8z5qjLtfkaJL8Vw"}},"type":"Feature"},
	{"geometry":{"coordinates":[-75.695904,45.382577],"type":"Point"},"properties":{"osm_id":"5169590385","tag":{"amenity":"waste_basket"}},"type":"Feature"},
	{"geometry":{"coordinates":[-75.696182,45.382733],"type":"Point"},"properties":{"osm_id":"5169590386","tag":{"amenity":"recycling","recycling_type":"container"}},"type":"Feature"},
	{"geometry":{"coordinates":[-75.699191,45.382122],"type":"Point"},"properties":{"osm_id":"5171738040","tag":{"amenity":"waste_basket"}},"type":"Feature"},
	{"geometry":{"coordinates":[-75.699094,45.382365],"type":"Point"},"properties":{"osm_id":"5171738053","tag":{"amenity":"waste_basket","mapillary":"vz34GUonxGvyqisemRVzpg"}},"type":"Feature"},
	{"geometry":{"coordinates":[-75.698438,45.382518],"type":"Point"},"properties":{"osm_id":"5172012174","tag":{"amenity":"recycling","recycling_type":"container"}},"type":"Feature"},
	{"geometry":{"coordinates":[-75.69944,45.380892],"type":"Point"},"properties":{"osm_id":"5173009220","tag":{"amenity":"waste_basket","mapillary":"DvjB4NpKik1dqDmhiXOBhA"}},"type":"Feature"},
	{"geometry":{"coordinates":[-75.699165,45.38111],"type":"Point"},"properties":{"osm_id":"5173015873","tag":{"amenity":"waste_basket","mapillary":"KN11uuWynCB3autL32hDNw"}},"type":"Feature"},
	{"geometry":{"coordinates":[-75.699548,45.381616],"type":"Point"},"properties":{"osm_id":"5173404970","tag":{"amenity":"waste_basket","mapillary":"zO1O97Qay4vpUiA4FMDO8w"}},"type":"Feature"},
	{"geometry":{"coordinates":[-75.696481,45.384567],"type":"Point"},"properties":{"osm_id":"5173455332","tag":{"amenity":"waste_basket","mapillary":"h8zAug1QuMnD-ltSb6-28A"}},"type":"Feature"},
	{"geometry":{"coordinates":[-75.698645,45.382938],"type":"Point"},"properties":{"osm_id":"5173529822","tag":{"amenity":"waste_basket","mapillary":"qIRaLZ61AaMHxdcixBRxZw"}},"type":"Feature"},
	{"geometry":{"coordinates":[-75.698574,45.382748],"type":"Point"},"properties":{"osm_id":"5173544521","tag":{"amenity":"waste_basket","mapillary":"bw-6hwGV6th414OxZEwxSQ"}},"type":"Feature"},
	{"geometry":{"coordinates":[-75.698292,45.382422],"type":"Point"},"properties":{"osm_id":"5173556621","tag":{"amenity":"waste_basket","mapillary":"WH4s64kZp__rtP5kxOLlvQ"}},"type":"Feature"},
	{"geometry":{"coordinates":[-75.694392,45.38492],"type":"Point"},"properties":{"osm_id":"5173616716","tag":{"amenity":"waste_disposal","mapillary":"XbLefAQBdjVwLlHXiqklGw"}},"type":"Feature"},
	{"geometry":{"coordinates":[-75.697135,45.383417],"type":"Point"},"properties":{"osm_id":"5173668639","tag":{"amenity":"recycling","recycling_type":"centre"}},"type":"Feature"},
	{"geometry":{"coordinates":[-75.699087,45.382495],"type":"Point"},"properties":{"osm_id":"5178507008","tag":{"amenity":"waste_basket","mapillary":"BIRzE5buc47P-C-B6Krmmw"}},"type":"Feature"},
	{"geometry":{"coordinates":[-75.697376,45.383694],"type":"Point"},"properties":{"osm_id":"5178512244","tag":{"amenity":"waste_basket","mapillary":"7IEVQF7vbQ-JS_Ai5groIQ"}},"type":"Feature"},
	{"geometry":{"coordinates":[-75.696856,45.386771],"type":"Point"},"properties":{"osm_id":"5200302103","tag":{"amenity":"waste_disposal","mapillary":"wX4Yqk7mEI2wIUhn_EbfbQ"}},"type":"Feature"},
	{"geometry":{"coordinates":[-75.696626,45.38745],"type":"Point"},"properties":{"osm_id":"5200577177","tag":{"amenity":"waste_disposal","mapillary":"iBPPFklvBrqnZuQ4LCUfug"}},"type":"Feature"},
	{"geometry":{"coordinates":[-75.697094,45.388546],"type":"Point"},"properties":{"osm_id":"5200655046","tag":{"amenity":"waste_disposal","mapillary":"Ori5oeucHh-JzqhuEw6lvw"}},"type":"Feature"},
	{"geometry":{"coordinates":[-75.696446,45.385028],"type":"Point"},"properties":{"osm_id":"5256734594","tag":{"amenity":"waste_basket","mapillary":"8bLES6FlUvUMj4ia0BRKsQ"}},"type":"Feature"},
	{"geometry":{"coordinates":[-75.711822,45.347245],"type":"Point"},"properties":{"osm_id":"6281177988","tag":{"amenity":"waste_basket"}},"type":"Feature"},
	{"geometry":{"coordinates":[-75.712365,45.346946],"type":"Point"},"properties":{"osm_id":"6281177989","tag":{"amenity":"waste_basket"}},"type":"Feature"},
	{"geometry":{"coordinates":[-75.711659,45.346684],"type":"Point"},"properties":{"osm_id":"6281177991","tag":{"amenity":"waste_basket"}},"type":"Feature"},
	{"geometry":{"coordinates":[-75.709198,45.349071],"type":"Point"},"properties":{"osm_id":"6281177992","tag":{"amenity":"waste_basket"}},"type":"Feature"},
	{"geometry":{"coordinates":[-75.709375,45.348999],"type":"Point"},"properties":{"osm_id":"6281177993","tag":{"amenity":"waste_basket"}},"type":"Feature"},
	{"geometry":{"coordinates":[-75.716868,45.370547],"type":"Point"},"properties":{"osm_id":"6542546253","tag":{"amenity":"waste_disposal"}},"type":"Feature"},
	{"geometry":{"coordinates":[-75.73191,45.362526],"type":"Point"},"properties":{"osm_id":"6632614175","tag":{"amenity":"waste_basket"}},"type":"Feature"},
	{"geometry":{"coordinates":[-75.753476,45.373168],"type":"Point"},"properties":{"osm_id":"6632657716","tag":{"amenity":"waste_basket"}},"type":"Feature"},
	{"geometry":{"coordinates":[-75.6863,45.370319],"type":"Point"},"properties":{"osm_id":"6636090498","tag":{"amenity":"waste_basket"}},"type":"Feature"},
	{"geometry":{"coordinates":[-75.710981,45.364298],"type":"Point"},"properties":{"osm_id":"6638494816","tag":{"amenity":"waste_basket"}},"type":"Feature"},
	{"geometry":{"coordinates":[-75.741691,45.365941],"type":"Point"},"properties":{"osm_id":"6638789321","tag":{"amenity":"waste_basket"}},"type":"Feature"},
	{"geometry":{"coordinates":[-75.755455,45.395883],"type":"Point"},"properties":{"osm_id":"6639391498","tag":{"amenity":"waste_basket"}},"type":"Feature"},
	{"geometry":{"coordinates":[-75.75545,45.395681],"type":"Point"},"properties":{"osm_id":"6639391499","tag":{"amenity":"waste_basket"}},"type":"Feature"},
	{"geometry":{"coordinates":[-75.702686,45.393759],"type":"Point"},"properties":{"osm_id":"6862139941","tag":{"amenity":"waste_basket"}},"type":"Feature"},
	{"geometry":{"coordinates":[-75.703316,45.394242],"type":"Point"},"properties":{"osm_id":"6862225974","tag":{"amenity":"waste_basket"}},"type":"Feature"},
	{"geometry":{"coordinates":[-75.680059,45.39753],"type":"Point"},"properties":{"osm_id":"6872437409","tag":{"amenity":"waste_basket"}},"type":"Feature"},
	{"geometry":{"coordinates":[-75.701847,45.374634],"type":"Point"},"properties":{"osm_id":"6872445923","tag":{"amenity":"waste_basket"}},"type":"Feature"},
	{"geometry":{"coordinates":[-75.701018,45.373273],"type":"Point"},"properties":{"osm_id":"6872445930","tag":{"amenity":"waste_basket"}},"type":"Feature"},
	{"geometry":{"coordinates":[-75.697104,45.370148],"type":"Point"},"properties":{"osm_id":"6872445953","tag":{"amenity":"waste_basket"}},"type":"Feature"},
	{"geometry":{"coordinates":[-75.698048,45.369823],"type":"Point"},"properties":{"osm_id":"6872445960","tag":{"amenity":"waste_basket"}},"type":"Feature"},
	{"geometry":{"coordinates":[-75.700216,45.388164],"type":"Point"},"properties":{"osm_id":"6872450233","tag":{"amenity":"waste_basket"}},"type":"Feature"},
	{"geometry":{"coordinates":[-75.699996,45.387329],"type":"Point"},"properties":{"osm_id":"6872450239","tag":{"amenity":"waste_basket"}},"type":"Feature"},
	{"geometry":{"coordinates":[-75.699788,45.386491],"type":"Point"},"properties":{"osm_id":"6872450243","tag":{"amenity":"waste_basket"}},"type":"Feature"},
	{"geometry":{"coordinates":[-75.699639,45.385898],"type":"Point"},"properties":{"osm_id":"6872450246","tag":{"amenity":"waste_basket"}},"type":"Feature"},
	{"geometry":{"coordinates":[-75.7002,45.383099],"type":"Point"},"properties":{"osm_id":"6872450256","tag":{"amenity":"waste_basket"}},"type":"Feature"},
	{"geometry":{"coordinates":[-75.689454,45.394791],"type":"Point"},"properties":{"osm_id":"6872476012","tag":{"amenity":"waste_basket"}},"type":"Feature"},
	{"geometry":{"coordinates":[-75.690449,45.394184],"type":"Point"},"properties":{"osm_id":"6872476015","tag":{"amenity":"waste_basket"}},"type":"Feature"},
	{"geometry":{"coordinates":[-75.692722,45.393796],"type":"Point"},"properties":{"osm_id":"6872476017","tag":{"amenity":"waste_basket"}},"type":"Feature"},
	{"geometry":{"coordinates":[-75.693332,45.393799],"type":"Point"},"properties":{"osm_id":"6872476018","tag":{"amenity":"waste_basket"}},"type":"Feature"},
	{"geometry":{"coordinates":[-75.686404,45.396048],"type":"Point"},"properties":{"osm_id":"6872485296","tag":{"amenity":"waste_basket"}},"type":"Feature"},
	{"geometry":{"coordinates":[-75.688256,45.39563],"type":"Point"},"properties":{"osm_id":"6872485297","tag":{"amenity":"waste_basket"}},"type":"Feature"},
	{"geometry":{"coordinates":[-75.689142,45.364641],"type":"Point"},"properties":{"osm_id":"6907047628","tag":{"amenity":"waste_basket"}},"type":"Feature"},
	{"geometry":{"coordinates":[-75.690668,45.366363],"type":"Point"},"properties":{"osm_id":"6907047631","tag":{"amenity":"waste_basket"}},"type":"Feature"},
	{"geometry":{"coordinates":[-75.691229,45.366764],"type":"Point"},"properties":{"osm_id":"6907047632","tag":{"amenity":"waste_basket"}},"type":"Feature"},
	{"geometry":{"coordinates":[-75.692084,45.3671],"type":"Point"},"properties":{"osm_id":"6907047635","tag":{"amenity":"waste_disposal"}},"type":"Feature"},
	{"geometry":{"coordinates":[-75.69214,45.367253],"type":"Point"},"properties":{"osm_id":"6907047636","tag":{"amenity":"waste_basket"}},"type":"Feature"},
	{"geometry":{"coordinates":[-75.693277,45.368033],"type":"Point"},"properties":{"osm_id":"6907047637","tag":{"amenity":"waste_basket"}},"type":"Feature"},
	{"geometry":{"coordinates":[-75.731091,45.398089],"type":"Point"},"properties":{"osm_id":"6920845074","tag":{"amenity":"waste_basket"}},"type":"Feature"},
	{"geometry":{"coordinates":[-75.683699,45.396674],"type":"Point"},"properties":{"osm_id":"6923410594","tag":{"amenity":"waste_basket"}},"type":"Feature"},
	{"geometry":{"coordinates":[-75.686533,45.396579],"type":"Point"},"properties":{"osm_id":"6923410597","tag":{"amenity":"waste_basket"}},"type":"Feature"},
	{"geometry":{"coordinates":[-75.761249,45.345797],"type":"Point"},"properties":{"osm_id":"6935142594","tag":{"amenity":"waste_basket"}},"type":"Feature"},
	{"geometry":{"coordinates":[-75.761341,45.34549],"type":"Point"},"properties":{"osm_id":"6935142595","tag":{"amenity":"waste_basket"}},"type":"Feature"},
	{"geometry":{"coordinates":[-75.699882,45.384029],"type":"Point"},"properties":{"osm_id":"7004613306","tag":{"amenity":"waste_basket"}},"type":"Feature"},
	{"geometry":{"coordinates":[-75.740199,45.390548],"type":"Point"},"properties":{"osm_id":"7050978026","tag":{"amenity":"waste_basket"}},"type":"Feature"},
	{"geometry":{"coordinates":[-75.739619,45.388931],"type":"Point"},"properties":{"osm_id":"7050978033","tag":{"amenity":"waste_basket"}},"type":"Feature"},
	{"geometry":{"coordinates":[-75.739035,45.387536],"type":"Point"},"properties":{"osm_id":"7050978039","tag":{"amenity":"waste_basket"}},"type":"Feature"},
	{"geometry":{"coordinates":[-75.732163,45.358807],"type":"Point"},"properties":{"osm_id":"7055192204","tag":{"amenity":"waste_basket"}},"type":"Feature"},
	{"geometry":{"coordinates":[-75.738582,45.370046],"type":"Point"},"properties":{"osm_id":"7055197802","tag":{"amenity":"waste_basket"}},"type":"Feature"},
	{"geometry":{"coordinates":[-75.718976,45.398445],"type":"Point"},"properties":{"osm_id":"7055521209","tag":{"amenity":"waste_basket"}},"type":"Feature"},
	{"geometry":{"coordinates":[-75.730821,45.396753],"type":"Point"},"properties":{"osm_id":"7055545405","tag":{"amenity":"waste_basket"}},"type":"Feature"},
	{"geometry":{"coordinates":[-75.685544,45.398358],"type":"Point"},"properties":{"osm_id":"7129632332","tag":{"amenity":"waste_basket"}},"type":"Feature"},
	{"geometry":{"coordinates":[-75.684059,45.395649],"type":"Point"},"properties":{"osm_id":"7129714638","tag":{"amenity":"waste_basket"}},"type":"Feature"},
	{"geometry":{"coordinates":[-75.682322,45.392833],"type":"Point"},"properties":{"osm_id":"7129714651","tag":{"amenity":"waste_basket"}},"type":"Feature"},
	{"geometry":{"coordinates":[-75.681609,45.391877],"type":"Point"},"properties":{"osm_id":"7129714671","tag":{"amenity":"waste_basket"}},"type":"Feature"},
	{"geometry":{"coordinates":[-75.682619,45.39283],"type":"Point"},"properties":{"osm_id":"7129714675","tag":{"amenity":"waste_basket"}},"type":"Feature"},
	{"geometry":{"coordinates":[-75.740806,45.385913],"type":"Point"},"properties":{"osm_id":"7140519448","tag":{"amenity":"waste_basket"}},"type":"Feature"},
	{"geometry":{"coordinates":[-75.754557,45.393532],"type":"Point"},"properties":{"osm_id":"7140523852","tag":{"amenity":"waste_basket"}},"type":"Feature"},
	{"geometry":{"coordinates":[-75.754006,45.391948],"type":"Point"},"properties":{"osm_id":"7140529091","tag":{"amenity":"waste_basket"}},"type":"Feature"},
	{"geometry":{"coordinates":[-75.754226,45.392652],"type":"Point"},"properties":{"osm_id":"7140529094","tag":{"amenity":"waste_basket"}},"type":"Feature"},
	{"geometry":{"coordinates":[-75.755,45.394002],"type":"Point"},"properties":{"osm_id":"7140529116","tag":{"amenity":"waste_basket"}},"type":"Feature"},
	{"geometry":{"coordinates":[-75.740317,45.397873],"type":"Point"},"properties":{"osm_id":"7147799358","tag":{"amenity":"waste_basket"}},"type":"Feature"},
	{"geometry":{"coordinates":[-75.741499,45.397434],"type":"Point"},"properties":{"osm_id":"7147799361","tag":{"amenity":"waste_basket"}},"type":"Feature"},
	{"geometry":{"coordinates":[-75.740207,45.398063],"type":"Point"},"properties":{"osm_id":"7147799362","tag":{"amenity":"waste_basket"}},"type":"Feature"},
	{"geometry":{"coordinates":[-75.7386,45.398374],"type":"Point"},"properties":{"osm_id":"7147799369","tag":{"amenity":"waste_basket"}},"type":"Feature"},
	{"geometry":{"coordinates":[-75.750367,45.393587],"type":"Point"},"properties":{"osm_id":"7149217984","tag":{"amenity":"waste_basket"}},"type":"Feature"},
	{"geometry":{"coordinates":[-75.750985,45.393311],"type":"Point"},"properties":{"osm_id":"7149220087","tag":{"amenity":"waste_basket"}},"type":"Feature"},
	{"geometry":{"coordinates":[-75.752008,45.393014],"type":"Point"},"properties":{"osm_id":"7149220109","tag":{"amenity":"waste_basket"}},"type":"Feature"},
	{"geometry":{"coordinates":[-75.754849,45.391555],"type":"Point"},"properties":{"osm_id":"7149267104","tag":{"amenity":"waste_basket"}},"type":"Feature"},
	{"geometry":{"coordinates":[-75.757258,45.390349],"type":"Point"},"properties":{"osm_id":"7149267114","tag":{"amenity":"waste_basket"}},"type":"Feature"},
	{"geometry":{"coordinates":[-75.758222,45.389813],"type":"Point"},"properties":{"osm_id":"7149267130","tag":{"amenity":"waste_basket"}},"type":"Feature"},
	{"geometry":{"coordinates":[-75.757389,45.390453],"type":"Point"},"properties":{"osm_id":"7149267140","tag":{"amenity":"waste_basket"}},"type":"Feature"},
	{"geometry":{"coordinates":[-75.75618,45.391091],"type":"Point"},"properties":{"osm_id":"7149267147","tag":{"amenity":"waste_basket"}},"type":"Feature"},
	{"geometry":{"coordinates":[-75.698881,45.383611],"type":"Point"},"properties":{"osm_id":"7157728870","tag":{"amenity":"waste_basket"}},"type":"Feature"},
	{"geometry":{"coordinates":[-75.676048,45.39329],"type":"Point"},"properties":{"osm_id":"7172808365","tag":{"amenity":"waste_basket"}},"type":"Feature"},
	{"geometry":{"coordinates":[-75.676386,45.393157],"type":"Point"},"properties":{"osm_id":"7172808367","tag":{"amenity":"waste_basket"}},"type":"Feature"},
	{"geometry":{"coordinates":[-75.750742,45.344074],"type":"Point"},"properties":{"osm_id":"7307826755","tag":{"amenity":"waste_disposal"}},"type":"Feature"},
	{"geometry":{"coordinates":[-75.737162,45.344506],"type":"Point"},"properties":{"osm_id":"7307956187","tag":{"amenity":"waste_disposal"}},"type":"Feature"},
	{"geometry":{"coordinates":[-75.72055,45.348522],"type":"Point"},"properties":{"osm_id":"7309289036","tag":{"amenity":"waste_disposal"}},"type":"Feature"},
	{"geometry":{"coordinates":[-75.720607,45.348499],"type":"Point"},"properties":{"osm_id":"7309289037","tag":{"amenity":"waste_disposal"}},"type":"Feature"},
	{"geometry":{"coordinates":[-75.713362,45.351712],"type":"Point"},"properties":{"osm_id":"7309325459","tag":{"amenity":"waste_disposal"}},"type":"Feature"},
	{"geometry":{"coordinates":[-75.710623,45.360351],"type":"Point"},"properties":{"osm_id":"7309346696","tag":{"amenity":"waste_disposal"}},"type":"Feature"},
	{"geometry":{"coordinates":[-75.712578,45.368197],"type":"Point"},"properties":{"osm_id":"7309547590","tag":{"amenity":"waste_disposal"}},"type":"Feature"},
	{"geometry":{"coordinates":[-75.756496,45.377794],"type":"Point"},"properties":{"osm_id":"7309955342","tag":{"amenity":"waste_disposal"}},"type":"Feature"},
	{"geometry":{"coordinates":[-75.728575,45.384655],"type":"Point"},"properties":{"osm_id":"7310679729","tag":{"amenity":"waste_disposal"}},"type":"Feature"},
	{"geometry":{"coordinates":[-75.674409,45.367901],"type":"Point"},"properties":{"osm_id":"7317184374","tag":{"amenity":"waste_disposal"}},"type":"Feature"},
	{"geometry":{"coordinates":[-75.674138,45.37376],"type":"Point"},"properties":{"osm_id":"7317234288","tag":{"amenity":"waste_disposal"}},"type":"Feature"},
	{"geometry":{"coordinates":[-75.701515,45.336887],"type":"Point"},"properties":{"osm_id":"7344179498","tag":{"amenity":"waste_disposal"}},"type":"Feature"},
	{"geometry":{"coordinates":[-75.732839,45.363816],"type":"Point"},"properties":{"osm_id":"7364415409","tag":{"amenity":"waste_disposal"}},"type":"Feature"},
	{"geometry":{"coordinates":[-75.692904,45.398067],"type":"Point"},"properties":{"osm_id":"7527461610","tag":{"amenity":"waste_basket"}},"type":"Feature"},
	{"geometry":{"coordinates":[-75.723664,45.390737],"type":"Point"},"properties":{"osm_id":"7773828919","tag":{"amenity":"waste_basket"}},"type":"Feature"},
	{"geometry":{"coordinates":[-75.731329,45.397004],"type":"Point"},"properties":{"osm_id":"7781852149","tag":{"amenity":"waste_basket"}},"type":"Feature"},
	{"geometry":{"coordinates":[-75.73187,45.397074],"type":"Point"},"properties":{"osm_id":"7781852150","tag":{"amenity":"waste_basket"}},"type":"Feature"}
]
}
