{
"type": "FeatureCollection",
"features": [
	{"geometry":{"coordinates":[-75.74553,45.273138],"type":"Point"},"properties":{"osm_id":"4411875007","tag":{"amenity":"waste_basket","mapillary":"mhvjeF9O8fJwJjzmL6MZ8g"}},"type":"Feature"},
	{"geometry":{"coordinates":[-75.745366,45.273502],"type":"Point"},"properties":{"osm_id":"4411875013","tag":{"amenity":"waste_basket","mapillary":"excPxeNQTXNSuoTOfPsgfQ"}},"type":"Feature"},
	{"geometry":{"coordinates":[-75.716197,45.27468],"type":"Point"},"properties":{"osm_id":"4416463954","tag":{"amenity":"waste_basket","mapillary":"FVa-kQ3m6C5EU8SxW4cJNg"}},"type":"Feature"},
	{"geometry":{"coordinates":[-75.71651,45.274819],"type":"Point"},"properties":{"osm_id":"4416463956","tag":{"amenity":"waste_basket","mapillary":"TOVwC95sd7ZWorvBSXfQaw"}},"type":"Feature"},
	{"geometry":{"coordinates":[-75.743426,45.269767],"type":"Point"},"properties":{"osm_id":"4873021771","tag":{"amenity":"waste_basket"}},"type":"Feature"},
	{"geometry":{"coordinates":[-75.743119,45.269867],"type":"Point"},"properties":{"osm_id":"4873023240","tag":{"amenity":"waste_basket"}},"type":"Feature"},
	{"geometry":{"coordinates":[-75.743726,45.269659],"type":"Point"},"properties":{"osm_id":"4873023241","tag":{"amenity":"waste_basket"}},"type":"Feature"},
	{"geometry":{"coordinates":[-75.739711,45.269749],"type":"Point"},"properties":{"osm_id":"4935747538","tag":{"amenity":"waste_basket"}},"type":"Feature"},
	{"geometry":{"coordinates":[-75.735461,45.248029],"type":"Point"},"properties":{"osm_id":"5175107304","tag":{"amenity":"waste_basket"}},"type":"Feature"},
	{"geometry":{"coordinates":[-75.735625,45.247223],"type":"Point"},"properties":{"osm_id":"5175108858","tag":{"amenity":"waste_basket"}},"type":"Feature"},
	{"geometry":{"coordinates":[-75.741819,45.251872],"type":"Point"},"properties":{"osm_id":"6578551778","tag":{"amenity":"waste_basket"}},"type":"Feature"},
	{"geometry":{"coordinates":[-75.728595,45.272305],"type":"Point"},"properties":{"osm_id":"6632475693","tag":{"amenity":"waste_basket"}},"type":"Feature"},
	{"geometry":{"coordinates":[-75.733112,45.25678],"type":"Point"},"properties":{"osm_id":"6632610208","tag":{"amenity":"waste_basket"}},"type":"Feature"},
	{"geometry":{"coordinates":[-75.734036,45.256193],"type":"Point"},"properties":{"osm_id":"6632610233","tag":{"amenity":"waste_basket"}},"type":"Feature"},
	{"geometry":{"coordinates":[-75.684069,45.225766],"type":"Point"},"properties":{"osm_id":"6633660536","tag":{"amenity":"waste_basket"}},"type":"Feature"},
	{"geometry":{"coordinates":[-75.737939,45.243916],"type":"Point"},"properties":{"osm_id":"6633661251","tag":{"amenity":"waste_basket"}},"type":"Feature"},
	{"geometry":{"coordinates":[-75.746188,45.252072],"type":"Point"},"properties":{"osm_id":"6636205502","tag":{"amenity":"waste_basket"}},"type":"Feature"},
	{"geometry":{"coordinates":[-75.746477,45.252361],"type":"Point"},"properties":{"osm_id":"6636205505","tag":{"amenity":"waste_basket"}},"type":"Feature"},
	{"geometry":{"coordinates":[-75.682734,45.228511],"type":"Point"},"properties":{"osm_id":"6639325480","tag":{"amenity":"waste_basket"}},"type":"Feature"},
	{"geometry":{"coordinates":[-75.725105,45.266514],"type":"Point"},"properties":{"osm_id":"6733335541","tag":{"amenity":"waste_basket"}},"type":"Feature"},
	{"geometry":{"coordinates":[-75.7277,45.265846],"type":"Point"},"properties":{"osm_id":"6733362819","tag":{"amenity":"waste_basket"}},"type":"Feature"},
	{"geometry":{"coordinates":[-75.754838,45.265561],"type":"Point"},"properties":{"osm_id":"6746756735","tag":{"amenity":"waste_basket"}},"type":"Feature"},
	{"geometry":{"coordinates":[-75.721329,45.27266],"type":"Point"},"properties":{"osm_id":"7065480199","tag":{"amenity":"waste_basket"}},"type":"Feature"},
	{"geometry":{"coordinates":[-75.722035,45.272463],"type":"Point"},"properties":{"osm_id":"7065480200","tag":{"amenity":"waste_basket"}},"type":"Feature"},
	{"geometry":{"coordinates":[-75.722666,45.272291],"type":"Point"},"properties":{"osm_id":"7065480201","tag":{"amenity":"waste_basket"}},"type":"Feature"},
	{"geometry":{"coordinates":[-75.71214,45.267044],"type":"Point"},"properties":{"osm_id":"7065533023","tag":{"amenity":"waste_basket"}},"type":"Feature"},
	{"geometry":{"coordinates":[-75.712395,45.266727],"type":"Point"},"properties":{"osm_id":"7065533024","tag":{"amenity":"waste_basket"}},"type":"Feature"},
	{"geometry":{"coordinates":[-75.733459,45.263172],"type":"Point"},"properties":{"osm_id":"7066695003","tag":{"amenity":"waste_basket"}},"type":"Feature"},
	{"geometry":{"coordinates":[-75.727509,45.262181],"type":"Point"},"properties":{"osm_id":"7066746740","tag":{"amenity":"waste_basket"}},"type":"Feature"},
	{"geometry":{"coordinates":[-75.739183,45.252257],"type":"Point"},"properties":{"osm_id":"7066817437","tag":{"amenity":"waste_basket"}},"type":"Feature"},
	{"geometry":{"coordinates":[-75.738658,45.252656],"type":"Point"},"properties":{"osm_id":"7066817439","tag":{"amenity":"waste_basket"}},"type":"Feature"},
	{"geometry":{"coordinates":[-75.739267,45.252754],"type":"Point"},"properties":{"osm_id":"7066817440","tag":{"amenity":"waste_basket"}},"type":"Feature"},
	{"geometry":{"coordinates":[-75.736621,45.246318],"type":"Point"},"properties":{"osm_id":"7313890257","tag":{"amenity":"waste_disposal"}},"type":"Feature"},
	{"geometry":{"coordinates":[-75.735182,45.241391],"type":"Point"},"properties":{"osm_id":"7313900279","tag":{"amenity":"waste_disposal"}},"type":"Feature"},
	{"geometry":{"coordinates":[-75.739197,45.25224],"type":"Point"},"properties":{"osm_id":"7632703317","tag":{"amenity":"waste_basket"}},"type":"Feature"}
]
}
