{
"type": "FeatureCollection",
"features": [
	{"geometry":{"coordinates":[-75.728823,39.706501],"type":"Point"},"properties":{"is_in":"New Castle,Delaware,Del.,DE,USA","name":"Milford Meadows","osm_id":"158481586","place":"hamlet","tag":{"gnis:Class":"Populated Place","gnis:County":"New Castle","gnis:County_num":"003","gnis:ST_alpha":"DE","gnis:ST_num":"10","gnis:id":"217526","import_uuid":"bb7269ee-502a-5391-8056-e3ce0e66489c"}},"type":"Feature"},
	{"geometry":{"coordinates":[-75.689057,39.690221],"type":"Point"},"properties":{"name":"Polystyrene Recycling Center","osm_id":"528521670","tag":{"addr:housenumber":"111","addr:street":"Alan Drive","amenity":"recycling","operator":"F P International","recycling:polystyrene":"yes","recycling:styrofoam":"yes"}},"type":"Feature"},
	{"geometry":{"coordinates":[-75.757315,39.670158],"type":"Point"},"properties":{"name":"B St.","osm_id":"561478889","tag":{"amenity":"recycling"}},"type":"Feature"},
	{"geometry":{"coordinates":[-75.710591,39.704482],"type":"Point"},"properties":{"name":"Polly Drummond Hill Yard Waste Drop-off site","osm_id":"2073277354","tag":{"amenity":"recycling","opening_hours":"08:00-sunset","operator":"DNREC","website":"http://www.dnrec.delaware.gov/whs/awm/Pages/Polly%20Drummond%20Hill%20site.aspx"}},"type":"Feature"},
	{"geometry":{"coordinates":[-75.677259,39.681771],"type":"Point"},"properties":{"osm_id":"2388052084","tag":{"amenity":"recycling","recycling_type":"container"}},"type":"Feature"},
	{"geometry":{"coordinates":[-75.753038,39.68245],"type":"Point"},"properties":{"osm_id":"5432596417","tag":{"access":"permissive","amenity":"waste_disposal"}},"type":"Feature"},
	{"geometry":{"coordinates":[-75.753096,39.682424],"type":"Point"},"properties":{"osm_id":"5432596418","tag":{"access":"permissive","amenity":"recycling","recycling_type":"container"}},"type":"Feature"},
	{"geometry":{"coordinates":[-75.752184,39.682046],"type":"Point"},"properties":{"osm_id":"5432597983","tag":{"amenity":"waste_basket"}},"type":"Feature"},
	{"geometry":{"coordinates":[-75.752254,39.68261],"type":"Point"},"properties":{"osm_id":"5432597984","tag":{"amenity":"waste_basket"}},"type":"Feature"},
	{"geometry":{"coordinates":[-75.752268,39.682775],"type":"Point"},"properties":{"osm_id":"5432597985","tag":{"amenity":"waste_basket"}},"type":"Feature"},
	{"geometry":{"coordinates":[-75.752869,39.682769],"type":"Point"},"properties":{"osm_id":"5432597986","tag":{"amenity":"waste_basket"}},"type":"Feature"},
	{"geometry":{"coordinates":[-75.752847,39.682403],"type":"Point"},"properties":{"osm_id":"5432597987","tag":{"amenity":"waste_basket"}},"type":"Feature"},
	{"geometry":{"coordinates":[-75.752767,39.681991],"type":"Point"},"properties":{"osm_id":"5432597988","tag":{"amenity":"waste_basket"}},"type":"Feature"},
	{"geometry":{"coordinates":[-75.752361,39.68294],"type":"Point"},"properties":{"osm_id":"5432598209","tag":{"amenity":"waste_basket"}},"type":"Feature"},
	{"geometry":{"coordinates":[-75.752253,39.682952],"type":"Point"},"properties":{"osm_id":"5432598211","tag":{"amenity":"waste_basket"}},"type":"Feature"},
	{"geometry":{"coordinates":[-75.752097,39.6829],"type":"Point"},"properties":{"osm_id":"5432598239","tag":{"access":"permissive","amenity":"recycling","recycling_type":"container"}},"type":"Feature"},
	{"geometry":{"coordinates":[-75.752056,39.682906],"type":"Point"},"properties":{"osm_id":"5432598240","tag":{"access":"permissive","amenity":"waste_disposal"}},"type":"Feature"},
	{"geometry":{"coordinates":[-75.744428,39.685011],"type":"Point"},"properties":{"osm_id":"6266948773","tag":{"amenity":"waste_basket"}},"type":"Feature"},
	{"geometry":{"coordinates":[-75.751953,39.675495],"type":"Point"},"properties":{"osm_id":"6744645305","tag":{"amenity":"waste_basket","material":"concrete"}},"type":"Feature"}
]
}
