{
"type": "FeatureCollection",
"features": [
	{"geometry":{"coordinates":[-88.754744,41.924684],"type":"Point"},"properties":{"name":"American Sycamore","osm_id":"4166814416","tag":{"addr:city":"DeKalb","addr:housenumber":"617","addr:state":"IL","addr:street":"S. 2nd Street","circumference":"14.1 ft","description":"Between 609 and 617 S. 2nd Streets, DeKalb, IL, about halfway up the driveway.","image":"https://www.flickr.com/gp/139577792@N04/09520M","natural":"tree","network":"Big Trees of DeKalb","species:wikidata":"Q157739","species:wikipedia":"en:Platanus occidentalis","tour":"Big Trees of Dekalb"}},"type":"Feature"},
	{"geometry":{"coordinates":[-88.76256,41.933706],"type":"Point"},"properties":{"name":"Horse Chestnut","osm_id":"4166814421","tag":{"addr:city":"DeKalb","addr:place":"Northern Illinois University","addr:state":"IL","addr:street":"College Ave. at Castle Dr.","description":"On the NIU campus, southeast of Altgeld Hall, near the lagoon.","natural":"tree","network":"Big Trees of DeKalb","species:wikidata":"Q26899","species:wikipedia":"en:Aesculus hippocastanum","tour":"Big Trees of Dekalb","type":"route"}},"type":"Feature"},
	{"geometry":{"coordinates":[-88.763625,41.935155],"type":"Point"},"properties":{"name":"Kentucky Coffeetree","osm_id":"4166814422","tag":{"addr:city":"DeKalb","addr:housename":"Altgeld Hall","addr:place":"Northern Illinois University","addr:state":"IL","addr:street":"College Ave. at Castle Dr.","description":"On the NIU campus, north of Altgeld Hall","natural":"tree","network":"Big Trees of DeKalb","species:wikidata":"Q549418","species:wikipedia":"en:Kentucky coffeetree","tour":"Big Trees of Dekalb","type":"route"}},"type":"Feature"}
]
}
