{
"type": "FeatureCollection",
"features": [
	{"geometry":{"coordinates":[10.24162,56.067853],"type":"Point"},"properties":{"osm_id":"1640814621","tag":{"amenity":"waste_basket"}},"type":"Feature"},
	{"geometry":{"coordinates":[10.27018,56.038938],"type":"Point"},"properties":{"osm_id":"4311624391","tag":{"amenity":"waste_basket","mapillary":"fhaKn_suIRUuKCfrW88UbQ"}},"type":"Feature"},
	{"geometry":{"coordinates":[10.270033,56.038436],"type":"Point"},"properties":{"osm_id":"4313333483","tag":{"amenity":"waste_basket"}},"type":"Feature"},
	{"geometry":{"coordinates":[10.270444,56.0395],"type":"Point"},"properties":{"osm_id":"4313333485","tag":{"amenity":"waste_basket","mapillary":"s0WxNlWqwi5onkEZF8wNVw"}},"type":"Feature"},
	{"geometry":{"coordinates":[10.270446,56.040327],"type":"Point"},"properties":{"osm_id":"4313333890","tag":{"amenity":"waste_basket","mapillary":"dQ_HYt6BSEq8dMMoHk5I8A"}},"type":"Feature"},
	{"geometry":{"coordinates":[10.269516,56.036332],"type":"Point"},"properties":{"osm_id":"4331214854","tag":{"amenity":"waste_basket"}},"type":"Feature"}
]
}
