{
"type": "FeatureCollection",
"features": [
	{"geometry":{"coordinates":[10.231314,54.410528],"type":"Point"},"properties":{"osm_id":"298979056","tag":{"amenity":"recycling","recycling:clothes":"yes","recycling:glass_bottles":"yes"}},"type":"Feature"},
	{"geometry":{"coordinates":[10.225937,54.407854],"type":"Point"},"properties":{"osm_id":"298979118","tag":{"amenity":"recycling","recycling:christmas_trees":"yes"}},"type":"Feature"},
	{"geometry":{"coordinates":[10.233504,54.403954],"type":"Point"},"properties":{"osm_id":"299033306","tag":{"amenity":"recycling"}},"type":"Feature"},
	{"geometry":{"coordinates":[10.24154,54.416128],"type":"Point"},"properties":{"osm_id":"694444910","tag":{"amenity":"waste_basket"}},"type":"Feature"},
	{"geometry":{"coordinates":[10.233542,54.413637],"type":"Point"},"properties":{"osm_id":"694704712","tag":{"amenity":"waste_basket"}},"type":"Feature"},
	{"geometry":{"coordinates":[10.232748,54.413376],"type":"Point"},"properties":{"osm_id":"694704722","tag":{"amenity":"waste_basket"}},"type":"Feature"},
	{"geometry":{"coordinates":[10.235932,54.414113],"type":"Point"},"properties":{"osm_id":"694704737","tag":{"amenity":"waste_basket"}},"type":"Feature"},
	{"geometry":{"coordinates":[10.237526,54.414321],"type":"Point"},"properties":{"osm_id":"694704740","tag":{"amenity":"waste_basket"}},"type":"Feature"},
	{"geometry":{"coordinates":[10.265931,54.413363],"type":"Point"},"properties":{"osm_id":"694704764","tag":{"amenity":"waste_basket"}},"type":"Feature"},
	{"geometry":{"coordinates":[10.268337,54.41365],"type":"Point"},"properties":{"osm_id":"694704775","tag":{"amenity":"waste_basket"}},"type":"Feature"},
	{"geometry":{"coordinates":[10.266844,54.414048],"type":"Point"},"properties":{"osm_id":"694704782","tag":{"amenity":"waste_basket"}},"type":"Feature"},
	{"geometry":{"coordinates":[10.205139,54.37986],"type":"Point"},"properties":{"osm_id":"753833342","tag":{"amenity":"recycling","recycling:clothes":"yes","recycling:glass":"yes","recycling_type":"container"}},"type":"Feature"},
	{"geometry":{"coordinates":[10.223428,54.406117],"type":"Point"},"properties":{"osm_id":"858726031","tag":{"amenity":"recycling","recycling:clothes":"yes","recycling:glass_bottles":"yes"}},"type":"Feature"},
	{"geometry":{"coordinates":[10.223276,54.406111],"type":"Point"},"properties":{"osm_id":"858726073","tag":{"amenity":"waste_basket"}},"type":"Feature"},
	{"geometry":{"coordinates":[10.223887,54.406222],"type":"Point"},"properties":{"osm_id":"858726288","tag":{"amenity":"waste_basket"}},"type":"Feature"},
	{"geometry":{"coordinates":[10.225126,54.407715],"type":"Point"},"properties":{"osm_id":"858726294","tag":{"amenity":"waste_basket"}},"type":"Feature"},
	{"geometry":{"coordinates":[10.225798,54.407402],"type":"Point"},"properties":{"osm_id":"858726321","tag":{"amenity":"waste_basket"}},"type":"Feature"},
	{"geometry":{"coordinates":[10.222662,54.406453],"type":"Point"},"properties":{"osm_id":"858726367","tag":{"amenity":"waste_basket"}},"type":"Feature"},
	{"geometry":{"coordinates":[10.220459,54.405365],"type":"Point"},"properties":{"osm_id":"880935480","tag":{"amenity":"waste_basket"}},"type":"Feature"},
	{"geometry":{"coordinates":[10.221336,54.404354],"type":"Point"},"properties":{"osm_id":"880935523","tag":{"amenity":"waste_basket"}},"type":"Feature"},
	{"geometry":{"coordinates":[10.220917,54.404712],"type":"Point"},"properties":{"osm_id":"880935540","tag":{"amenity":"waste_basket"}},"type":"Feature"},
	{"geometry":{"coordinates":[10.220537,54.405387],"type":"Point"},"properties":{"osm_id":"880935542","tag":{"amenity":"waste_basket"}},"type":"Feature"},
	{"geometry":{"coordinates":[10.229982,54.410956],"type":"Point"},"properties":{"osm_id":"892740218","tag":{"amenity":"waste_basket"}},"type":"Feature"},
	{"geometry":{"coordinates":[10.206163,54.374274],"type":"Point"},"properties":{"osm_id":"1465201687","tag":{"amenity":"recycling","recycling:clothes":"yes","recycling:glass":"yes","recycling_type":"container"}},"type":"Feature"},
	{"geometry":{"coordinates":[10.202857,54.374816],"type":"Point"},"properties":{"osm_id":"1465201890","tag":{"amenity":"waste_basket"}},"type":"Feature"},
	{"geometry":{"coordinates":[10.199598,54.370901],"type":"Point"},"properties":{"osm_id":"1465295745","tag":{"amenity":"waste_basket"}},"type":"Feature"},
	{"geometry":{"coordinates":[10.198904,54.371178],"type":"Point"},"properties":{"osm_id":"1465295753","tag":{"amenity":"waste_basket"}},"type":"Feature"},
	{"geometry":{"coordinates":[10.20437,54.371322],"type":"Point"},"properties":{"osm_id":"1466751054","tag":{"amenity":"waste_basket"}},"type":"Feature"},
	{"geometry":{"coordinates":[10.197941,54.374578],"type":"Point"},"properties":{"osm_id":"1472540249","tag":{"amenity":"recycling","recycling:clothes":"yes","recycling:glass":"no","recycling:glass_bottles":"yes","recycling_type":"container"}},"type":"Feature"},
	{"geometry":{"coordinates":[10.244504,54.414734],"type":"Point"},"properties":{"osm_id":"1781674293","tag":{"amenity":"waste_basket"}},"type":"Feature"},
	{"geometry":{"coordinates":[10.230125,54.398176],"type":"Point"},"properties":{"osm_id":"1800937801","tag":{"amenity":"recycling","recycling:clothes":"yes","recycling:glass":"yes","recycling_type":"container"}},"type":"Feature"},
	{"geometry":{"coordinates":[10.275679,54.388602],"type":"Point"},"properties":{"osm_id":"1818893320","tag":{"amenity":"recycling","recycling:clothes":"yes","recycling:glass":"yes"}},"type":"Feature"},
	{"geometry":{"coordinates":[10.283107,54.417469],"type":"Point"},"properties":{"osm_id":"4059946882","tag":{"amenity":"recycling","recycling:glass":"yes","recycling_type":"container"}},"type":"Feature"},
	{"geometry":{"coordinates":[10.204979,54.383709],"type":"Point"},"properties":{"osm_id":"7858607099","tag":{"amenity":"waste_basket"}},"type":"Feature"},
	{"geometry":{"coordinates":[10.207985,54.387042],"type":"Point"},"properties":{"osm_id":"7858610940","tag":{"amenity":"waste_basket"}},"type":"Feature"},
	{"geometry":{"coordinates":[10.214623,54.399668],"type":"Point"},"properties":{"osm_id":"7897102876","tag":{"amenity":"waste_basket","material":"metal"}},"type":"Feature"},
	{"geometry":{"coordinates":[10.214358,54.399767],"type":"Point"},"properties":{"osm_id":"7897102877","tag":{"amenity":"waste_basket","material":"metal"}},"type":"Feature"},
	{"geometry":{"coordinates":[10.214283,54.399654],"type":"Point"},"properties":{"osm_id":"7897102878","tag":{"amenity":"waste_basket","material":"metal"}},"type":"Feature"},
	{"geometry":{"coordinates":[10.214184,54.3996],"type":"Point"},"properties":{"osm_id":"7897102879","tag":{"amenity":"waste_basket","material":"metal"}},"type":"Feature"},
	{"geometry":{"coordinates":[10.213962,54.399561],"type":"Point"},"properties":{"osm_id":"7897102880","tag":{"amenity":"waste_basket","material":"metal"}},"type":"Feature"},
	{"geometry":{"coordinates":[10.214689,54.399692],"type":"Point"},"properties":{"osm_id":"7897102883","tag":{"amenity":"waste_basket","material":"metal"}},"type":"Feature"}
]
}
