{
"type": "FeatureCollection",
"features": [
	{"geometry":{"coordinates":[10.259504,53.725326],"type":"Point"},"properties":{"osm_id":"106002747","tag":{"amenity":"recycling","recycling:clothes":"yes","recycling:glass_bottles":"yes","recycling:paper":"yes","recycling_type":"container"}},"type":"Feature"},
	{"geometry":{"coordinates":[10.213771,53.745543],"type":"Point"},"properties":{"osm_id":"385949105","tag":{"amenity":"recycling","recycling:clothes":"yes","recycling:glass_bottles":"yes","recycling:paper":"yes","recycling_type":"container"}},"type":"Feature"},
	{"geometry":{"coordinates":[10.213435,53.714343],"type":"Point"},"properties":{"osm_id":"430379735","tag":{"amenity":"recycling","recycling:clothes":"yes","recycling:glass_bottles":"yes","recycling:paper":"yes","recycling_type":"container"}},"type":"Feature"},
	{"geometry":{"coordinates":[10.259642,53.727786],"type":"Point"},"properties":{"osm_id":"441135423","tag":{"amenity":"recycling","recycling:clothes":"yes","recycling:glass_bottles":"yes","recycling:paper":"yes","recycling_type":"container"}},"type":"Feature"},
	{"geometry":{"coordinates":[10.227126,53.706736],"type":"Point"},"properties":{"osm_id":"445015784","tag":{"amenity":"recycling","recycling:clothes":"yes","recycling:glass_bottles":"yes","recycling:paper":"yes","recycling_type":"container"}},"type":"Feature"},
	{"geometry":{"coordinates":[10.222849,53.69886],"type":"Point"},"properties":{"osm_id":"1221514155","tag":{"amenity":"recycling","recycling:clothes":"yes","recycling:glass_bottles":"yes","recycling:paper":"yes","recycling_type":"container"}},"type":"Feature"},
	{"geometry":{"coordinates":[10.201442,53.705682],"type":"Point"},"properties":{"osm_id":"1427483928","tag":{"amenity":"waste_basket"}},"type":"Feature"},
	{"geometry":{"coordinates":[10.201519,53.705937],"type":"Point"},"properties":{"osm_id":"1427483969","tag":{"amenity":"waste_basket"}},"type":"Feature"},
	{"geometry":{"coordinates":[10.199956,53.723619],"type":"Point"},"properties":{"osm_id":"1460518904","tag":{"amenity":"waste_basket","surface":"metal"}},"type":"Feature"},
	{"geometry":{"coordinates":[10.213628,53.714111],"type":"Point"},"properties":{"osm_id":"1510711425","tag":{"amenity":"waste_basket"}},"type":"Feature"},
	{"geometry":{"coordinates":[10.276476,53.719751],"type":"Point"},"properties":{"osm_id":"1510711508","tag":{"amenity":"recycling","recycling:clothes":"yes","recycling_type":"container"}},"type":"Feature"},
	{"geometry":{"coordinates":[10.247019,53.725718],"type":"Point"},"properties":{"osm_id":"1510711651","tag":{"amenity":"recycling","recycling:glass_bottles":"yes","recycling:paper":"yes","recycling_type":"container"}},"type":"Feature"},
	{"geometry":{"coordinates":[10.276066,53.720254],"type":"Point"},"properties":{"osm_id":"1535458741","tag":{"amenity":"waste_basket"}},"type":"Feature"},
	{"geometry":{"coordinates":[10.275964,53.720291],"type":"Point"},"properties":{"osm_id":"1535458762","tag":{"amenity":"waste_basket"}},"type":"Feature"},
	{"geometry":{"coordinates":[10.271133,53.736454],"type":"Point"},"properties":{"osm_id":"1536559930","tag":{"amenity":"recycling","recycling:glass_bottles":"yes","recycling:paper":"yes","recycling_type":"container"}},"type":"Feature"},
	{"geometry":{"coordinates":[10.260971,53.716179],"type":"Point"},"properties":{"osm_id":"1549804069","tag":{"amenity":"waste_basket"}},"type":"Feature"},
	{"geometry":{"coordinates":[10.260993,53.716193],"type":"Point"},"properties":{"osm_id":"1549804072","tag":{"amenity":"waste_basket"}},"type":"Feature"},
	{"geometry":{"coordinates":[10.258128,53.717733],"type":"Point"},"properties":{"osm_id":"1549804091","tag":{"amenity":"waste_basket"}},"type":"Feature"},
	{"geometry":{"coordinates":[10.207655,53.709411],"type":"Point"},"properties":{"osm_id":"2025507746","tag":{"amenity":"waste_basket"}},"type":"Feature"},
	{"geometry":{"coordinates":[10.213672,53.71501],"type":"Point"},"properties":{"osm_id":"2025507880","tag":{"amenity":"waste_basket"}},"type":"Feature"},
	{"geometry":{"coordinates":[10.212666,53.715559],"type":"Point"},"properties":{"osm_id":"2025507931","tag":{"amenity":"waste_basket"}},"type":"Feature"},
	{"geometry":{"coordinates":[10.270116,53.734584],"type":"Point"},"properties":{"osm_id":"2089173809","tag":{"amenity":"waste_basket"}},"type":"Feature"},
	{"geometry":{"coordinates":[10.229849,53.708908],"type":"Point"},"properties":{"osm_id":"2094827221","tag":{"amenity":"recycling","recycling:glass_bottles":"yes","recycling_type":"container"}},"type":"Feature"},
	{"geometry":{"coordinates":[10.220092,53.712809],"type":"Point"},"properties":{"osm_id":"2111375213","tag":{"amenity":"waste_basket"}},"type":"Feature"},
	{"geometry":{"coordinates":[10.222189,53.713415],"type":"Point"},"properties":{"osm_id":"2111375221","tag":{"amenity":"waste_basket"}},"type":"Feature"},
	{"geometry":{"coordinates":[10.265353,53.732048],"type":"Point"},"properties":{"osm_id":"2132768965","tag":{"amenity":"recycling","recycling:clothes":"yes","recycling:glass_bottles":"yes","recycling:paper":"yes","recycling_type":"container"}},"type":"Feature"},
	{"geometry":{"coordinates":[10.269607,53.728029],"type":"Point"},"properties":{"osm_id":"2142445787","tag":{"amenity":"recycling","recycling:glass_bottles":"yes","recycling:paper":"yes","recycling_type":"container"}},"type":"Feature"},
	{"geometry":{"coordinates":[10.257984,53.720684],"type":"Point"},"properties":{"osm_id":"2506183702","tag":{"amenity":"recycling","recycling:glass_bottles":"yes","recycling:paper":"yes","recycling_type":"container"}},"type":"Feature"},
	{"geometry":{"coordinates":[10.254738,53.717657],"type":"Point"},"properties":{"osm_id":"2506315112","tag":{"amenity":"waste_basket"}},"type":"Feature"},
	{"geometry":{"coordinates":[10.261061,53.73116],"type":"Point"},"properties":{"osm_id":"2506502951","tag":{"amenity":"recycling","recycling:clothes":"yes","recycling:glass_bottles":"yes","recycling:paper":"yes","recycling_type":"container"}},"type":"Feature"},
	{"geometry":{"coordinates":[10.24776,53.70992],"type":"Point"},"properties":{"osm_id":"2513319875","tag":{"amenity":"recycling","recycling:clothes":"yes","recycling:glass_bottles":"yes","recycling:paper":"yes","recycling_type":"container"}},"type":"Feature"},
	{"geometry":{"coordinates":[10.276262,53.722164],"type":"Point"},"properties":{"osm_id":"2589837307","tag":{"amenity":"recycling","recycling:clothes":"yes","recycling:glass_bottles":"yes","recycling:paper":"yes","recycling_type":"container"}},"type":"Feature"},
	{"geometry":{"coordinates":[10.268471,53.736969],"type":"Point"},"properties":{"osm_id":"2746675794","tag":{"amenity":"recycling","recycling:paper":"yes","recycling_type":"container"}},"type":"Feature"},
	{"geometry":{"coordinates":[10.201559,53.706013],"type":"Point"},"properties":{"osm_id":"2788076710","tag":{"amenity":"waste_basket"}},"type":"Feature"},
	{"geometry":{"coordinates":[10.224028,53.704152],"type":"Point"},"properties":{"osm_id":"2880673731","tag":{"amenity":"waste_basket"}},"type":"Feature"},
	{"geometry":{"coordinates":[10.21099,53.709048],"type":"Point"},"properties":{"osm_id":"3025102753","tag":{"amenity":"recycling","recycling:clothes":"yes","recycling_type":"container"}},"type":"Feature"},
	{"geometry":{"coordinates":[10.257609,53.730842],"type":"Point"},"properties":{"osm_id":"3214506708","tag":{"amenity":"recycling","recycling:clothes":"yes","recycling:glass_bottles":"yes","recycling_type":"container"}},"type":"Feature"},
	{"geometry":{"coordinates":[10.262789,53.729371],"type":"Point"},"properties":{"osm_id":"3227912292","tag":{"amenity":"waste_basket"}},"type":"Feature"},
	{"geometry":{"coordinates":[10.25534,53.722559],"type":"Point"},"properties":{"osm_id":"3621697337","tag":{"amenity":"recycling","recycling:clothes":"yes","recycling:glass_bottles":"yes","recycling_type":"container"}},"type":"Feature"},
	{"geometry":{"coordinates":[10.259411,53.722196],"type":"Point"},"properties":{"osm_id":"3691825109","tag":{"amenity":"recycling","recycling:glass_bottles":"yes","recycling_type":"container"}},"type":"Feature"},
	{"geometry":{"coordinates":[10.216467,53.725364],"type":"Point"},"properties":{"osm_id":"4168144380","tag":{"amenity":"waste_basket"}},"type":"Feature"},
	{"geometry":{"coordinates":[10.215216,53.707406],"type":"Point"},"properties":{"osm_id":"4810031347","tag":{"amenity":"waste_basket"}},"type":"Feature"},
	{"geometry":{"coordinates":[10.21445,53.707881],"type":"Point"},"properties":{"osm_id":"4810031348","tag":{"amenity":"waste_basket"}},"type":"Feature"},
	{"geometry":{"coordinates":[10.272091,53.738953],"type":"Point"},"properties":{"osm_id":"6000919186","tag":{"amenity":"waste_basket"}},"type":"Feature"},
	{"geometry":{"coordinates":[10.272337,53.738883],"type":"Point"},"properties":{"osm_id":"6000919187","tag":{"amenity":"waste_basket"}},"type":"Feature"},
	{"geometry":{"coordinates":[10.254329,53.729085],"type":"Point"},"properties":{"osm_id":"6617829154","tag":{"amenity":"recycling","recycling:paper":"yes","recycling_type":"container"}},"type":"Feature"},
	{"geometry":{"coordinates":[10.268675,53.731681],"type":"Point"},"properties":{"osm_id":"7040931335","tag":{"access":"private","amenity":"recycling","location":"underground","recycling:glass_bottles":"no","recycling:paper":"yes","recycling:plastic":"yes","recycling:waste":"yes","recycling_type":"container"}},"type":"Feature"},
	{"geometry":{"coordinates":[10.213924,53.745843],"type":"Point"},"properties":{"osm_id":"8079233483","tag":{"amenity":"waste_basket"}},"type":"Feature"}
]
}
