{
"type": "FeatureCollection",
"features": [
	{"geometry":{"coordinates":[10.208454,53.56205],"type":"Point"},"properties":{"osm_id":"322136451","tag":{"amenity":"recycling","recycling:clothes":"yes","recycling:glass_bottles":"yes","recycling:paper":"yes","recycling_type":"container"}},"type":"Feature"},
	{"geometry":{"coordinates":[10.232762,53.587682],"type":"Point"},"properties":{"osm_id":"343526909","tag":{"amenity":"recycling","recycling:clothes":"yes","recycling:glass_bottles":"yes","recycling:paper":"yes","recycling_type":"container"}},"type":"Feature"},
	{"geometry":{"coordinates":[10.196552,53.542908],"type":"Point"},"properties":{"osm_id":"369801644","tag":{"amenity":"recycling","recycling:clothes":"yes","recycling:glass_bottles":"yes","recycling:paper":"yes","recycling_type":"container"}},"type":"Feature"},
	{"geometry":{"coordinates":[10.250087,53.570911],"type":"Point"},"properties":{"osm_id":"430594650","tag":{"amenity":"recycling","recycling:clothes":"yes","recycling:glass_bottles":"yes","recycling:paper":"yes","recycling_type":"container"}},"type":"Feature"},
	{"geometry":{"coordinates":[10.252318,53.555241],"type":"Point"},"properties":{"osm_id":"1014493847","tag":{"amenity":"recycling","recycling:clothes":"yes","recycling:glass_bottles":"yes","recycling:paper":"yes","recycling_type":"container"}},"type":"Feature"},
	{"geometry":{"coordinates":[10.250978,53.570764],"type":"Point"},"properties":{"osm_id":"1296186397","tag":{"amenity":"waste_basket"}},"type":"Feature"},
	{"geometry":{"coordinates":[10.25031,53.548529],"type":"Point"},"properties":{"osm_id":"1296779488","tag":{"amenity":"waste_basket"}},"type":"Feature"},
	{"geometry":{"coordinates":[10.251699,53.552771],"type":"Point"},"properties":{"osm_id":"1297658149","tag":{"amenity":"waste_basket"}},"type":"Feature"},
	{"geometry":{"coordinates":[10.243456,53.553565],"type":"Point"},"properties":{"osm_id":"1302486824","tag":{"amenity":"waste_basket"}},"type":"Feature"},
	{"geometry":{"coordinates":[10.246407,53.551082],"type":"Point"},"properties":{"osm_id":"1303517462","tag":{"amenity":"waste_basket"}},"type":"Feature"},
	{"geometry":{"coordinates":[10.227839,53.568796],"type":"Point"},"properties":{"osm_id":"1303517624","tag":{"amenity":"waste_basket"}},"type":"Feature"},
	{"geometry":{"coordinates":[10.244206,53.553568],"type":"Point"},"properties":{"osm_id":"1304347511","tag":{"amenity":"waste_basket"}},"type":"Feature"},
	{"geometry":{"coordinates":[10.244572,53.553304],"type":"Point"},"properties":{"osm_id":"1304347569","tag":{"amenity":"waste_basket"}},"type":"Feature"},
	{"geometry":{"coordinates":[10.241414,53.549862],"type":"Point"},"properties":{"osm_id":"1307117180","tag":{"amenity":"waste_basket"}},"type":"Feature"},
	{"geometry":{"coordinates":[10.241173,53.54997],"type":"Point"},"properties":{"osm_id":"1307117420","tag":{"amenity":"waste_basket"}},"type":"Feature"},
	{"geometry":{"coordinates":[10.274402,53.554729],"type":"Point"},"properties":{"osm_id":"1308918920","tag":{"amenity":"waste_basket","backrest":"yes","colour":"brown","material":"wood","seats":"3"}},"type":"Feature"},
	{"geometry":{"coordinates":[10.248083,53.549329],"type":"Point"},"properties":{"osm_id":"1310600529","tag":{"amenity":"waste_basket"}},"type":"Feature"},
	{"geometry":{"coordinates":[10.245515,53.551047],"type":"Point"},"properties":{"osm_id":"1310975694","tag":{"amenity":"waste_basket"}},"type":"Feature"},
	{"geometry":{"coordinates":[10.245834,53.559627],"type":"Point"},"properties":{"osm_id":"1329305950","tag":{"amenity":"recycling","recycling:clothes":"yes","recycling:glass_bottles":"yes","recycling:paper":"yes","recycling_type":"container"}},"type":"Feature"},
	{"geometry":{"coordinates":[10.245431,53.549221],"type":"Point"},"properties":{"osm_id":"1330806902","tag":{"amenity":"waste_basket"}},"type":"Feature"},
	{"geometry":{"coordinates":[10.242073,53.547391],"type":"Point"},"properties":{"osm_id":"1330806956","tag":{"amenity":"waste_basket"}},"type":"Feature"},
	{"geometry":{"coordinates":[10.24401,53.548581],"type":"Point"},"properties":{"osm_id":"1330806980","tag":{"amenity":"waste_basket"}},"type":"Feature"},
	{"geometry":{"coordinates":[10.240685,53.554497],"type":"Point"},"properties":{"osm_id":"1330951202","tag":{"amenity":"waste_basket"}},"type":"Feature"},
	{"geometry":{"coordinates":[10.240746,53.554441],"type":"Point"},"properties":{"osm_id":"1330951318","tag":{"amenity":"waste_basket"}},"type":"Feature"},
	{"geometry":{"coordinates":[10.244901,53.552727],"type":"Point"},"properties":{"osm_id":"1330951330","tag":{"amenity":"waste_basket"}},"type":"Feature"},
	{"geometry":{"coordinates":[10.23402,53.555361],"type":"Point"},"properties":{"osm_id":"1337461924","tag":{"amenity":"waste_basket"}},"type":"Feature"},
	{"geometry":{"coordinates":[10.247011,53.548294],"type":"Point"},"properties":{"osm_id":"1337470603","tag":{"amenity":"recycling","recycling:clothes":"yes","recycling:glass_bottles":"yes","recycling:paper":"yes","recycling_type":"container"}},"type":"Feature"},
	{"geometry":{"coordinates":[10.239242,53.556076],"type":"Point"},"properties":{"osm_id":"1337932573","tag":{"amenity":"waste_basket"}},"type":"Feature"},
	{"geometry":{"coordinates":[10.247377,53.55415],"type":"Point"},"properties":{"osm_id":"1338750613","tag":{"amenity":"waste_basket"}},"type":"Feature"},
	{"geometry":{"coordinates":[10.246386,53.542221],"type":"Point"},"properties":{"osm_id":"1339275613","tag":{"amenity":"waste_basket"}},"type":"Feature"},
	{"geometry":{"coordinates":[10.200885,53.558347],"type":"Point"},"properties":{"osm_id":"1363849943","tag":{"amenity":"recycling","recycling:clothes":"yes","recycling:glass_bottles":"yes","recycling:paper":"yes","recycling_type":"container"}},"type":"Feature"},
	{"geometry":{"coordinates":[10.281552,53.544949],"type":"Point"},"properties":{"osm_id":"1430550386","tag":{"amenity":"recycling","recycling:clothes":"yes","recycling:glass_bottles":"yes","recycling:paper":"yes","recycling_type":"container"}},"type":"Feature"},
	{"geometry":{"coordinates":[10.281819,53.546267],"type":"Point"},"properties":{"osm_id":"1431267847","tag":{"amenity":"waste_basket"}},"type":"Feature"},
	{"geometry":{"coordinates":[10.276745,53.549589],"type":"Point"},"properties":{"osm_id":"1432120535","tag":{"amenity":"waste_basket"}},"type":"Feature"},
	{"geometry":{"coordinates":[10.279728,53.54611],"type":"Point"},"properties":{"osm_id":"1432146220","tag":{"amenity":"waste_basket"}},"type":"Feature"},
	{"geometry":{"coordinates":[10.273932,53.547373],"type":"Point"},"properties":{"osm_id":"1435879107","tag":{"amenity":"waste_basket"}},"type":"Feature"},
	{"geometry":{"coordinates":[10.203127,53.542639],"type":"Point"},"properties":{"osm_id":"1622111323","tag":{"amenity":"recycling","recycling:clothes":"yes","recycling:glass_bottles":"yes","recycling:paper":"yes","recycling_type":"container"}},"type":"Feature"},
	{"geometry":{"coordinates":[10.21642,53.5437],"type":"Point"},"properties":{"osm_id":"2257699463","tag":{"amenity":"recycling","recycling:glass_bottles":"yes","recycling:paper":"yes","recycling_type":"container"}},"type":"Feature"},
	{"geometry":{"coordinates":[10.215374,53.550521],"type":"Point"},"properties":{"osm_id":"2810153776","tag":{"amenity":"recycling","recycling:clothes":"yes","recycling:glass_bottles":"yes","recycling:paper":"yes","recycling_type":"container"}},"type":"Feature"},
	{"geometry":{"coordinates":[10.219834,53.554263],"type":"Point"},"properties":{"osm_id":"2846589796","tag":{"amenity":"recycling","recycling:clothes":"yes","recycling:glass_bottles":"yes","recycling:paper":"yes","recycling_type":"container"}},"type":"Feature"},
	{"geometry":{"coordinates":[10.230905,53.54124],"type":"Point"},"properties":{"osm_id":"3542808436","tag":{"amenity":"recycling","recycling:clothes":"yes","recycling:glass":"no","recycling:paper":"yes","recycling_type":"container"}},"type":"Feature"},
	{"geometry":{"coordinates":[10.233593,53.58534],"type":"Point"},"properties":{"osm_id":"3708225489","tag":{"amenity":"waste_basket"}},"type":"Feature"},
	{"geometry":{"coordinates":[10.233546,53.585496],"type":"Point"},"properties":{"osm_id":"3708225497","tag":{"amenity":"waste_basket"}},"type":"Feature"},
	{"geometry":{"coordinates":[10.226287,53.543722],"type":"Point"},"properties":{"osm_id":"5407706819","tag":{"amenity":"waste_basket"}},"type":"Feature"},
	{"geometry":{"coordinates":[10.225053,53.543485],"type":"Point"},"properties":{"osm_id":"5407707921","tag":{"amenity":"waste_basket"}},"type":"Feature"},
	{"geometry":{"coordinates":[10.22412,53.543284],"type":"Point"},"properties":{"osm_id":"5407707924","tag":{"amenity":"waste_basket"}},"type":"Feature"},
	{"geometry":{"coordinates":[10.221749,53.54267],"type":"Point"},"properties":{"osm_id":"5407707927","tag":{"amenity":"waste_basket"}},"type":"Feature"},
	{"geometry":{"coordinates":[10.221247,53.542567],"type":"Point"},"properties":{"osm_id":"5407707929","tag":{"amenity":"waste_basket"}},"type":"Feature"},
	{"geometry":{"coordinates":[10.21897,53.541969],"type":"Point"},"properties":{"osm_id":"5407707932","tag":{"amenity":"waste_basket"}},"type":"Feature"},
	{"geometry":{"coordinates":[10.217835,53.541847],"type":"Point"},"properties":{"osm_id":"5407707934","tag":{"amenity":"waste_basket"}},"type":"Feature"},
	{"geometry":{"coordinates":[10.216814,53.541807],"type":"Point"},"properties":{"osm_id":"5407707936","tag":{"amenity":"waste_basket"}},"type":"Feature"},
	{"geometry":{"coordinates":[10.247959,53.57087],"type":"Point"},"properties":{"osm_id":"5841400325","tag":{"amenity":"waste_basket","waste":"dog_excrement"}},"type":"Feature"},
	{"geometry":{"coordinates":[10.247274,53.548783],"type":"Point"},"properties":{"osm_id":"6083044028","tag":{"amenity":"waste_basket"}},"type":"Feature"},
	{"geometry":{"coordinates":[10.243718,53.548305],"type":"Point"},"properties":{"osm_id":"6094884215","tag":{"amenity":"waste_basket"}},"type":"Feature"},
	{"geometry":{"coordinates":[10.245099,53.552906],"type":"Point"},"properties":{"osm_id":"6094895468","tag":{"amenity":"waste_basket"}},"type":"Feature"},
	{"geometry":{"coordinates":[10.243602,53.554276],"type":"Point"},"properties":{"osm_id":"6318502524","tag":{"amenity":"waste_basket"}},"type":"Feature"},
	{"geometry":{"coordinates":[10.243877,53.553447],"type":"Point"},"properties":{"osm_id":"6318502525","tag":{"amenity":"waste_basket"}},"type":"Feature"},
	{"geometry":{"coordinates":[10.244542,53.553481],"type":"Point"},"properties":{"osm_id":"6318502526","tag":{"amenity":"waste_basket"}},"type":"Feature"},
	{"geometry":{"coordinates":[10.247522,53.54176],"type":"Point"},"properties":{"osm_id":"6345044917","tag":{"amenity":"waste_basket"}},"type":"Feature"},
	{"geometry":{"coordinates":[10.202939,53.540699],"type":"Point"},"properties":{"osm_id":"6382100165","tag":{"amenity":"recycling","recycling:glass_bottles":"yes","recycling:paper":"yes","recycling_type":"container"}},"type":"Feature"},
	{"geometry":{"coordinates":[10.238925,53.569966],"type":"Point"},"properties":{"osm_id":"6594618551","tag":{"amenity":"waste_basket","waste":"trash"}},"type":"Feature"},
	{"geometry":{"coordinates":[10.223757,53.571032],"type":"Point"},"properties":{"osm_id":"6741049465","tag":{"amenity":"waste_basket"}},"type":"Feature"},
	{"geometry":{"coordinates":[10.241072,53.542818],"type":"Point"},"properties":{"osm_id":"6772633236","tag":{"amenity":"recycling","recycling:clothes":"yes","recycling:glass_bottles":"yes","recycling:paper":"y","recycling_type":"container"}},"type":"Feature"},
	{"geometry":{"coordinates":[10.244076,53.551381],"type":"Point"},"properties":{"osm_id":"7160306431","tag":{"amenity":"waste_basket","colour":"green","material":"metal","waste":"trash"}},"type":"Feature"},
	{"geometry":{"coordinates":[10.266546,53.585923],"type":"Point"},"properties":{"osm_id":"7316648246","tag":{"amenity":"waste_basket"}},"type":"Feature"},
	{"geometry":{"coordinates":[10.246372,53.541749],"type":"Point"},"properties":{"osm_id":"7553946330","tag":{"amenity":"waste_basket"}},"type":"Feature"},
	{"geometry":{"coordinates":[10.215939,53.541963],"type":"Point"},"properties":{"osm_id":"7593775698","tag":{"amenity":"waste_basket","check_date":"2020-06-04"}},"type":"Feature"}
]
}
