{
"type": "FeatureCollection",
"features": [
	{"geometry":{"coordinates":[10.265136,52.455848],"type":"Point"},"properties":{"osm_id":"254495233","tag":{"amenity":"recycling","recycling:batteries":"no","recycling:books":"yes","recycling:cans":"no","recycling:cardboard":"yes","recycling:cartons":"yes","recycling:clothes":"yes","recycling:electrical_appliances":"no","recycling:glass":"yes","recycling:glass_bottles":"yes","recycling:green_waste":"no","recycling:magazines":"yes","recycling:newspaper":"yes","recycling:paper":"yes","recycling:paper_packaging":"yes","recycling:plastic":"no","recycling:plastic_bottles":"no","recycling:plastic_packaging":"no","recycling:scrap_metal":"no","recycling:small_appliances":"no","recycling:waste":"no","recycling:wood":"no","recycling_type":"centre"}},"type":"Feature"},
	{"geometry":{"coordinates":[10.272094,52.46247],"type":"Point"},"properties":{"osm_id":"254495282","tag":{"amenity":"recycling","recycling:batteries":"no","recycling:books":"yes","recycling:cans":"no","recycling:cardboard":"yes","recycling:cartons":"yes","recycling:clothes":"no","recycling:electrical_appliances":"no","recycling:glass":"yes","recycling:glass_bottles":"no","recycling:green_waste":"yes","recycling:magazines":"yes","recycling:newspaper":"yes","recycling:paper":"yes","recycling:paper_packaging":"yes","recycling:plastic":"no","recycling:plastic_bottles":"no","recycling:plastic_packaging":"no","recycling:scrap_metal":"no","recycling:small_appliances":"no","recycling:waste":"no","recycling:wood":"yes","recycling_type":"centre"}},"type":"Feature"},
	{"geometry":{"coordinates":[10.202262,52.460008],"type":"Point"},"properties":{"osm_id":"294188417","tag":{"amenity":"recycling","recycling:glass":"yes","recycling:paper":"yes","recycling_type":"container"}},"type":"Feature"},
	{"geometry":{"coordinates":[10.216082,52.469167],"type":"Point"},"properties":{"osm_id":"297368892","tag":{"amenity":"recycling","recycling:clothes":"yes","recycling:glass":"yes","recycling:paper":"yes"}},"type":"Feature"},
	{"geometry":{"coordinates":[10.202814,52.464315],"type":"Point"},"properties":{"osm_id":"648241732","tag":{"addr:city":"Uetze","addr:country":"DE","amenity":"waste_basket"}},"type":"Feature"},
	{"geometry":{"coordinates":[10.202732,52.46445],"type":"Point"},"properties":{"osm_id":"648241737","tag":{"addr:city":"Uetze","addr:country":"DE","amenity":"waste_basket"}},"type":"Feature"},
	{"geometry":{"coordinates":[10.202642,52.464577],"type":"Point"},"properties":{"osm_id":"648241741","tag":{"addr:city":"Uetze","addr:country":"DE","amenity":"waste_basket"}},"type":"Feature"},
	{"geometry":{"coordinates":[10.202897,52.464583],"type":"Point"},"properties":{"osm_id":"648241744","tag":{"addr:city":"Uetze","addr:country":"DE","amenity":"waste_basket"}},"type":"Feature"},
	{"geometry":{"coordinates":[10.202989,52.463958],"type":"Point"},"properties":{"osm_id":"648249289","tag":{"addr:city":"Uetze","addr:country":"DE","amenity":"waste_basket"}},"type":"Feature"},
	{"geometry":{"coordinates":[10.202977,52.464114],"type":"Point"},"properties":{"osm_id":"648249290","tag":{"addr:city":"Uetze","addr:country":"DE","amenity":"waste_basket"}},"type":"Feature"},
	{"geometry":{"coordinates":[10.237756,52.432091],"type":"Point"},"properties":{"osm_id":"2209192939","tag":{"amenity":"recycling","recycling:cans":"no","recycling:clothes":"yes","recycling:glass":"yes","recycling:paper":"yes","recycling_type":"container"}},"type":"Feature"},
	{"geometry":{"coordinates":[10.243961,52.434],"type":"Point"},"properties":{"name":"REMONDIS Industrie Service GmbH & Co. KG","osm_id":"2211170473","tag":{"amenity":"recycling","recycling_type":"centre"}},"type":"Feature"}
]
}
