{
"type": "FeatureCollection",
"features": [
	{"geometry":{"coordinates":[10.214076,50.319279],"type":"Point"},"properties":{"osm_id":"819544672","tag":{"amenity":"recycling","recycling:glass":"yes","recycling:paper":"yes"}},"type":"Feature"},
	{"geometry":{"coordinates":[10.217847,50.323894],"type":"Point"},"properties":{"osm_id":"869879814","tag":{"amenity":"waste_basket"}},"type":"Feature"},
	{"geometry":{"coordinates":[10.247359,50.32729],"type":"Point"},"properties":{"osm_id":"1013330588","tag":{"amenity":"recycling","recycling:batteries":"no","recycling:cans":"yes","recycling:glass":"yes","recycling:glass_bottles":"yes","recycling:paper":"yes","recycling:plastic":"yes","recycling:plastic_bottles":"yes","recycling:scrap_metal":"yes","recycling:waste":"no"}},"type":"Feature"},
	{"geometry":{"coordinates":[10.204816,50.321164],"type":"Point"},"properties":{"osm_id":"1141952395","tag":{"amenity":"recycling","recycling:batteries":"yes","recycling:cans":"yes","recycling:glass":"yes","recycling:paper":"yes","recycling:scrap_metal":"yes"}},"type":"Feature"},
	{"geometry":{"coordinates":[10.207517,50.323774],"type":"Point"},"properties":{"osm_id":"1141952399","tag":{"amenity":"recycling","recycling:clothes":"yes"}},"type":"Feature"},
	{"geometry":{"coordinates":[10.222008,50.316187],"type":"Point"},"properties":{"osm_id":"1350611331","tag":{"amenity":"recycling","recycling:books":"yes","recycling:cans":"yes","recycling:cartons":"yes","recycling:glass":"yes","recycling:glass_bottles":"yes","recycling:paper":"yes","recycling:paper_packaging":"yes","recycling_type":"container"}},"type":"Feature"},
	{"geometry":{"coordinates":[10.20725,50.306782],"type":"Point"},"properties":{"osm_id":"1686447970","tag":{"amenity":"recycling","recycling:glass":"yes","recycling:paper":"yes","recycling_type":"container"}},"type":"Feature"},
	{"geometry":{"coordinates":[10.221991,50.317453],"type":"Point"},"properties":{"osm_id":"1914442272","tag":{"amenity":"recycling","recycling:glass":"yes","recycling:paper":"yes","recycling_type":"container"}},"type":"Feature"},
	{"geometry":{"coordinates":[10.214114,50.324517],"type":"Point"},"properties":{"osm_id":"4280197989","tag":{"addr:city":"Bad Neustadt an der Saale","addr:postcode":"97616","addr:street":"Goethestra\u00c3\u009fe","amenity":"waste_basket","wheelchair":"yes"}},"type":"Feature"},
	{"geometry":{"coordinates":[10.220651,50.321888],"type":"Point"},"properties":{"osm_id":"4283990292","tag":{"amenity":"waste_basket"}},"type":"Feature"},
	{"geometry":{"coordinates":[10.202213,50.31763],"type":"Point"},"properties":{"osm_id":"4295144515","tag":{"amenity":"recycling","recycling:cans":"yes","recycling:cardboard":"yes","recycling:glass":"yes","recycling:glass_bottles":"yes","recycling:paper":"yes","recycling_type":"container","wheelchair":"yes"}},"type":"Feature"},
	{"geometry":{"coordinates":[10.217516,50.320618],"type":"Point"},"properties":{"osm_id":"4295144519","tag":{"amenity":"waste_basket"}},"type":"Feature"},
	{"geometry":{"coordinates":[10.221698,50.32187],"type":"Point"},"properties":{"osm_id":"4295144523","tag":{"amenity":"waste_basket"}},"type":"Feature"},
	{"geometry":{"coordinates":[10.221839,50.322035],"type":"Point"},"properties":{"osm_id":"4295144524","tag":{"amenity":"waste_basket"}},"type":"Feature"},
	{"geometry":{"coordinates":[10.221956,50.32219],"type":"Point"},"properties":{"osm_id":"4295144527","tag":{"amenity":"waste_basket"}},"type":"Feature"},
	{"geometry":{"coordinates":[10.221391,50.322336],"type":"Point"},"properties":{"osm_id":"4295144529","tag":{"amenity":"waste_basket"}},"type":"Feature"},
	{"geometry":{"coordinates":[10.213857,50.320912],"type":"Point"},"properties":{"osm_id":"4308991991","tag":{"amenity":"waste_basket","wheelchair":"limited"}},"type":"Feature"},
	{"geometry":{"coordinates":[10.213691,50.320753],"type":"Point"},"properties":{"osm_id":"4309167689","tag":{"amenity":"waste_basket","wheelchair":"limited"}},"type":"Feature"},
	{"geometry":{"coordinates":[10.216523,50.320041],"type":"Point"},"properties":{"osm_id":"4912991156","tag":{"amenity":"waste_basket"}},"type":"Feature"},
	{"geometry":{"coordinates":[10.216498,50.319871],"type":"Point"},"properties":{"osm_id":"4912991431","tag":{"amenity":"waste_basket"}},"type":"Feature"},
	{"geometry":{"coordinates":[10.239749,50.325225],"type":"Point"},"properties":{"osm_id":"5202979945","tag":{"amenity":"waste_basket"}},"type":"Feature"},
	{"geometry":{"coordinates":[10.238955,50.324943],"type":"Point"},"properties":{"osm_id":"5202979947","tag":{"amenity":"waste_basket"}},"type":"Feature"},
	{"geometry":{"coordinates":[10.24731,50.327548],"type":"Point"},"properties":{"name":"Gruenschnittplatz","osm_id":"6201922912","tag":{"amenity":"recycling","recycling_type":"container","waste":"Gruenschnittplatz"}},"type":"Feature"},
	{"geometry":{"coordinates":[10.208632,50.339343],"type":"Point"},"properties":{"osm_id":"7165111518","tag":{"amenity":"recycling","recycling_type":"container"}},"type":"Feature"},
	{"geometry":{"coordinates":[10.219693,50.326028],"type":"Point"},"properties":{"osm_id":"7169593757","tag":{"amenity":"recycling","recycling:clothes":"yes","recycling_type":"container"}},"type":"Feature"},
	{"geometry":{"coordinates":[10.206008,50.327873],"type":"Point"},"properties":{"osm_id":"7240836568","tag":{"amenity":"recycling","recycling:cans":"yes","recycling:glass":"yes","recycling:paper":"yes","recycling_type":"container"}},"type":"Feature"},
	{"geometry":{"coordinates":[10.218848,50.330703],"type":"Point"},"properties":{"osm_id":"7408062357","tag":{"amenity":"recycling","recycling_type":"container"}},"type":"Feature"}
]
}
