{
"type": "FeatureCollection",
"features": [
	{"geometry":{"coordinates":[10.240207,50.242455],"type":"Point"},"properties":{"osm_id":"302390355","tag":{"amenity":"recycling","recycling:glass":"yes"}},"type":"Feature"},
	{"geometry":{"coordinates":[10.205408,50.247237],"type":"Point"},"properties":{"osm_id":"370894109","tag":{"amenity":"recycling","recycling:clothes":"yes","recycling:glass":"yes"}},"type":"Feature"},
	{"geometry":{"coordinates":[10.280521,50.25463],"type":"Point"},"properties":{"osm_id":"924483321","tag":{"amenity":"recycling"}},"type":"Feature"},
	{"geometry":{"coordinates":[10.200245,50.248573],"type":"Point"},"properties":{"osm_id":"1980776309","tag":{"amenity":"recycling"}},"type":"Feature"},
	{"geometry":{"coordinates":[10.196358,50.255325],"type":"Point"},"properties":{"name":"Seger Betriebshof","osm_id":"8146679008","tag":{"addr:city":"M\u00c3\u00bcnnerstadt","addr:housenumber":"2","addr:postcode":"97702","addr:street":"Untere Au","amenity":"recycling","email":"info@seger-transporte.de","ground_transport":"yes","opening_hours":"Mo-Fr 07:00-17:00; Sa 07:00-13:00","operator":"Seger Transporte","phone":"+49 9733 818078","recycling:electrical_appliances":"yes","recycling:glass":"yes","recycling:glass_bottles":"yes","recycling:hardcore":"yes","recycling:plasterboard":"yes","recycling:plastic":"yes","recycling:plastic_bags":"yes","recycling:plastic_bottles":"yes","recycling:plastic_packaging":"yes","recycling:rubble":"yes","recycling:small_appliances":"yes","recycling:wood":"yes","recycling_type":"centre","website":"https://www.seger-transporte.de/unsere-leistungen/wertstoffhof/"}},"type":"Feature"}
]
}
