{
"type": "FeatureCollection",
"features": [
	{"geometry":{"coordinates":[10.246626,49.779749],"type":"Point"},"properties":{"osm_id":"293787627","tag":{"amenity":"recycling","recycling_type":"container"}},"type":"Feature"},
	{"geometry":{"coordinates":[10.246938,49.779273],"type":"Point"},"properties":{"osm_id":"293787639","tag":{"amenity":"recycling","recycling_type":"container"}},"type":"Feature"},
	{"geometry":{"coordinates":[10.247773,49.77918],"type":"Point"},"properties":{"osm_id":"293787644","tag":{"amenity":"recycling","recycling_type":"container"}},"type":"Feature"},
	{"geometry":{"coordinates":[10.220278,49.733831],"type":"Point"},"properties":{"name":"Knettenbrech & Gurdulic Franken GmbH & Co. KG","osm_id":"302879950","tag":{"amenity":"recycling"}},"type":"Feature"},
	{"geometry":{"coordinates":[10.227776,49.73077],"type":"Point"},"properties":{"osm_id":"367646050","tag":{"amenity":"recycling","recycling:batteries":"yes","recycling:cans":"yes","recycling:glass":"yes","recycling:paper":"no","recycling_type":"container"}},"type":"Feature"},
	{"geometry":{"coordinates":[10.241392,49.753261],"type":"Point"},"properties":{"osm_id":"461017066","tag":{"amenity":"recycling","recycling:cans":"yes","recycling:glass":"no","recycling:paper":"yes","recycling:scrap_metal":"no"}},"type":"Feature"},
	{"geometry":{"coordinates":[10.241382,49.753268],"type":"Point"},"properties":{"name":"Wertsoffsammelstelle Gro\u00c3\u009flangheim","osm_id":"4460650421","tag":{"addr:housenumber":"18","addr:street":"R\u00c3\u00b6delseer Stra\u00c3\u009fe","amenity":"recycling","opening_hours":"Sa 10:00-12:00"}},"type":"Feature"},
	{"geometry":{"coordinates":[10.267332,49.72728],"type":"Point"},"properties":{"osm_id":"5998036660","tag":{"amenity":"waste_basket"}},"type":"Feature"}
]
}
