{
"type": "FeatureCollection",
"features": [
	{"geometry":{"coordinates":[10.230986,49.54896],"type":"Point"},"properties":{"osm_id":"416744386","tag":{"amenity":"recycling","recycling:glass":"yes","recycling:scrap_metal":"yes","recycling_type":"container"}},"type":"Feature"},
	{"geometry":{"coordinates":[10.234195,49.54612],"type":"Point"},"properties":{"osm_id":"416744988","tag":{"amenity":"recycling","recycling:glass":"yes","recycling_type":"container"}},"type":"Feature"},
	{"geometry":{"coordinates":[10.234164,49.542327],"type":"Point"},"properties":{"osm_id":"639280743","tag":{"amenity":"recycling","recycling:clothes":"yes","recycling:glass_bottles":"yes","recycling_type":"container"}},"type":"Feature"},
	{"geometry":{"coordinates":[10.234436,49.543216],"type":"Point"},"properties":{"osm_id":"4278993774","tag":{"amenity":"waste_basket"}},"type":"Feature"},
	{"geometry":{"coordinates":[10.221674,49.540897],"type":"Point"},"properties":{"osm_id":"5003003736","tag":{"amenity":"waste_basket"}},"type":"Feature"},
	{"geometry":{"coordinates":[10.221862,49.541284],"type":"Point"},"properties":{"osm_id":"5003003744","tag":{"amenity":"waste_basket"}},"type":"Feature"},
	{"geometry":{"coordinates":[10.230464,49.541893],"type":"Point"},"properties":{"osm_id":"6680361360","tag":{"amenity":"waste_basket"}},"type":"Feature"},
	{"geometry":{"coordinates":[10.228976,49.545775],"type":"Point"},"properties":{"osm_id":"7581276498","tag":{"amenity":"waste_basket"}},"type":"Feature"},
	{"geometry":{"coordinates":[10.231088,49.545736],"type":"Point"},"properties":{"osm_id":"7581276502","tag":{"amenity":"waste_basket"}},"type":"Feature"},
	{"geometry":{"coordinates":[10.231328,49.545808],"type":"Point"},"properties":{"osm_id":"7581276503","tag":{"amenity":"waste_basket"}},"type":"Feature"}
]
}
