{
"type": "FeatureCollection",
"features": [
	{"geometry":{"coordinates":[10.249152,48.700405],"type":"Point"},"properties":{"osm_id":"452661868","tag":{"amenity":"recycling","recycling:clothes":"yes","recycling:glass_bottles":"yes","recycling_type":"container"}},"type":"Feature"},
	{"geometry":{"coordinates":[10.237934,48.696649],"type":"Point"},"properties":{"osm_id":"452959343","tag":{"amenity":"recycling","operator":"Kreisabfallwirtschaftsbetrieb Heidenheim","recycling:clothes":"yes","recycling:glass_bottles":"yes","recycling_type":"container"}},"type":"Feature"},
	{"geometry":{"coordinates":[10.253582,48.699827],"type":"Point"},"properties":{"osm_id":"534679699","tag":{"amenity":"recycling","operator":"Kreisabfallwirtschaftsbetrieb Heidenheim","recycling:cans":"yes","recycling:glass_bottles":"yes","recycling_type":"container"}},"type":"Feature"},
	{"geometry":{"coordinates":[10.249711,48.697154],"type":"Point"},"properties":{"osm_id":"534679702","tag":{"amenity":"recycling","operator":"Kreisabfallwirtschaftsbetrieb Heidenheim","recycling:cans":"yes","recycling:clothes":"yes","recycling:glass_bottles":"yes","recycling_type":"container"}},"type":"Feature"},
	{"geometry":{"coordinates":[10.235928,48.701816],"type":"Point"},"properties":{"osm_id":"549142999","tag":{"amenity":"recycling","recycling:cans":"yes","recycling:clothes":"yes","recycling:glass_bottles":"yes","recycling_type":"container"}},"type":"Feature"},
	{"geometry":{"coordinates":[10.266729,48.737686],"type":"Point"},"properties":{"osm_id":"3600397592","tag":{"amenity":"recycling","recycling:clothes":"yes","recycling:glass_bottles":"yes","recycling_type":"container"}},"type":"Feature"},
	{"geometry":{"coordinates":[10.235772,48.695934],"type":"Point"},"properties":{"osm_id":"4332683892","tag":{"amenity":"waste_basket","waste":"dog_excrement"}},"type":"Feature"},
	{"geometry":{"coordinates":[10.232325,48.694436],"type":"Point"},"properties":{"osm_id":"4332683894","tag":{"amenity":"waste_basket"}},"type":"Feature"},
	{"geometry":{"coordinates":[10.241223,48.696667],"type":"Point"},"properties":{"osm_id":"4489080460","tag":{"amenity":"recycling","recycling:clothes":"yes","recycling:shoes":"yes","recycling_type":"container"}},"type":"Feature"},
	{"geometry":{"coordinates":[10.236101,48.699866],"type":"Point"},"properties":{"osm_id":"6187958416","tag":{"amenity":"recycling","operator":"Kreisabfallwirtschaftsbetrieb Heidenheim","recycling:cans":"yes","recycling:clothes":"yes","recycling:glass":"yes","recycling:glass_bottles":"yes","recycling_type":"container"}},"type":"Feature"}
]
}
