{
"type": "FeatureCollection",
"features": [
	{"geometry":{"coordinates":[10.238869,48.581252],"type":"Point"},"properties":{"osm_id":"289329956","tag":{"amenity":"recycling","location":"overground","opening_hours":"24/7","recycling:cans":"yes","recycling:clothes":"yes","recycling:glass_bottles":"yes","recycling_type":"container"}},"type":"Feature"},
	{"geometry":{"coordinates":[10.209136,48.58432],"type":"Point"},"properties":{"osm_id":"1374495517","tag":{"amenity":"waste_basket"}},"type":"Feature"},
	{"geometry":{"coordinates":[10.258213,48.594389],"type":"Point"},"properties":{"osm_id":"1374832889","tag":{"amenity":"recycling","recycling:aluminium":"yes","recycling:clothes":"yes","recycling:glass_bottles":"yes","recycling:shoes":"yes","recycling_type":"container"}},"type":"Feature"},
	{"geometry":{"coordinates":[10.253135,48.597038],"type":"Point"},"properties":{"osm_id":"1374835180","tag":{"amenity":"recycling","recycling:aluminium":"yes","recycling:clothes":"yes","recycling:glass_bottles":"yes","recycling:shoes":"yes","recycling_type":"container"}},"type":"Feature"},
	{"geometry":{"coordinates":[10.261386,48.599177],"type":"Point"},"properties":{"name":"Wertstoff-Zentrum","osm_id":"1890198320","tag":{"addr:city":"Hermaringen","addr:postcode":"89568","alt_name":"Wertstoffhof","amenity":"recycling","opening_hours":"Fr 15:00-17:00","operator":"Gemeinde Hermaringen","recycling_type":"centre","wheelchair":"yes"}},"type":"Feature"},
	{"geometry":{"coordinates":[10.264498,48.597592],"type":"Point"},"properties":{"osm_id":"2424695332","tag":{"amenity":"recycling","recycling:green_waste":"yes","recycling_type":"centre"}},"type":"Feature"},
	{"geometry":{"coordinates":[10.221199,48.619523],"type":"Point"},"properties":{"osm_id":"3502408956","tag":{"amenity":"recycling","recycling:cans":"yes","recycling:clothes":"yes","recycling:glass_bottles":"yes","recycling_type":"container"}},"type":"Feature"},
	{"geometry":{"coordinates":[10.217888,48.615983],"type":"Point"},"properties":{"osm_id":"3503138468","tag":{"amenity":"waste_basket"}},"type":"Feature"},
	{"geometry":{"coordinates":[10.208511,48.586758],"type":"Point"},"properties":{"osm_id":"3597175871","tag":{"amenity":"waste_basket"}},"type":"Feature"},
	{"geometry":{"coordinates":[10.249483,48.600978],"type":"Point"},"properties":{"osm_id":"3733197122","tag":{"amenity":"waste_basket","waste":"dog_excrement"}},"type":"Feature"},
	{"geometry":{"coordinates":[10.259298,48.594269],"type":"Point"},"properties":{"osm_id":"3733200675","tag":{"amenity":"waste_basket","waste":"dog_excrement"}},"type":"Feature"},
	{"geometry":{"coordinates":[10.246198,48.598437],"type":"Point"},"properties":{"osm_id":"3931237691","tag":{"amenity":"waste_basket","waste":"dog_excrement"}},"type":"Feature"},
	{"geometry":{"coordinates":[10.280861,48.621051],"type":"Point"},"properties":{"osm_id":"4030533210","tag":{"amenity":"waste_basket"}},"type":"Feature"},
	{"geometry":{"coordinates":[10.281363,48.617215],"type":"Point"},"properties":{"osm_id":"4030533212","tag":{"amenity":"waste_basket"}},"type":"Feature"},
	{"geometry":{"coordinates":[10.280686,48.61527],"type":"Point"},"properties":{"osm_id":"4030533214","tag":{"amenity":"waste_basket"}},"type":"Feature"},
	{"geometry":{"coordinates":[10.25352,48.602644],"type":"Point"},"properties":{"osm_id":"4309960570","tag":{"amenity":"waste_basket"}},"type":"Feature"},
	{"geometry":{"coordinates":[10.241672,48.621167],"type":"Point"},"properties":{"osm_id":"4341710716","tag":{"amenity":"waste_basket"}},"type":"Feature"},
	{"geometry":{"coordinates":[10.24326,48.617442],"type":"Point"},"properties":{"osm_id":"4679302423","tag":{"amenity":"waste_basket","waste":"trash"}},"type":"Feature"},
	{"geometry":{"coordinates":[10.244462,48.616455],"type":"Point"},"properties":{"osm_id":"4679302426","tag":{"amenity":"waste_basket","waste":"trash"}},"type":"Feature"},
	{"geometry":{"coordinates":[10.21492,48.584305],"type":"Point"},"properties":{"osm_id":"4773592957","tag":{"amenity":"waste_basket"}},"type":"Feature"},
	{"geometry":{"coordinates":[10.253091,48.597079],"type":"Point"},"properties":{"osm_id":"4862467297","tag":{"amenity":"waste_basket","waste":"dog_excrement"}},"type":"Feature"},
	{"geometry":{"coordinates":[10.26737,48.58743],"type":"Point"},"properties":{"osm_id":"4956203484","tag":{"amenity":"waste_basket"}},"type":"Feature"},
	{"geometry":{"coordinates":[10.234477,48.623746],"type":"Point"},"properties":{"osm_id":"4957272213","tag":{"amenity":"recycling","recycling:clothes":"yes","recycling_type":"container"}},"type":"Feature"},
	{"geometry":{"coordinates":[10.234367,48.62387],"type":"Point"},"properties":{"osm_id":"4957272214","tag":{"amenity":"recycling","recycling:clothes":"yes","recycling_type":"container"}},"type":"Feature"},
	{"geometry":{"coordinates":[10.206224,48.59036],"type":"Point"},"properties":{"osm_id":"5008083810","tag":{"amenity":"recycling","recycling:clothes":"yes","recycling:glass_bottles":"yes","recycling_type":"container"}},"type":"Feature"},
	{"geometry":{"coordinates":[10.227162,48.583791],"type":"Point"},"properties":{"osm_id":"5008207663","tag":{"amenity":"waste_basket"}},"type":"Feature"},
	{"geometry":{"coordinates":[10.227576,48.583066],"type":"Point"},"properties":{"osm_id":"5008207665","tag":{"amenity":"waste_basket"}},"type":"Feature"},
	{"geometry":{"coordinates":[10.246841,48.620789],"type":"Point"},"properties":{"osm_id":"5040018846","tag":{"amenity":"recycling","operator":"Deutsches Rotes Kreuz","recycling:clothes":"yes","recycling_type":"container"}},"type":"Feature"},
	{"geometry":{"coordinates":[10.221425,48.588681],"type":"Point"},"properties":{"osm_id":"5049282397","tag":{"amenity":"waste_basket"}},"type":"Feature"},
	{"geometry":{"coordinates":[10.207807,48.590401],"type":"Point"},"properties":{"osm_id":"5049282398","tag":{"amenity":"waste_basket"}},"type":"Feature"},
	{"geometry":{"coordinates":[10.21874,48.595505],"type":"Point"},"properties":{"osm_id":"5049282400","tag":{"amenity":"waste_basket"}},"type":"Feature"},
	{"geometry":{"coordinates":[10.272519,48.627348],"type":"Point"},"properties":{"osm_id":"5678197643","tag":{"amenity":"recycling","recycling:cans":"yes","recycling:glass_bottles":"yes","recycling_type":"container"}},"type":"Feature"},
	{"geometry":{"coordinates":[10.234098,48.581102],"type":"Point"},"properties":{"osm_id":"5890629657","tag":{"amenity":"waste_basket"}},"type":"Feature"},
	{"geometry":{"coordinates":[10.223282,48.586905],"type":"Point"},"properties":{"osm_id":"5979183387","tag":{"amenity":"waste_basket"}},"type":"Feature"},
	{"geometry":{"coordinates":[10.209277,48.584717],"type":"Point"},"properties":{"osm_id":"5979204997","tag":{"amenity":"waste_basket"}},"type":"Feature"},
	{"geometry":{"coordinates":[10.223677,48.613416],"type":"Point"},"properties":{"osm_id":"6014820489","tag":{"amenity":"waste_basket"}},"type":"Feature"},
	{"geometry":{"coordinates":[10.230062,48.58528],"type":"Point"},"properties":{"osm_id":"6045024125","tag":{"amenity":"recycling","recycling:cans":"yes","recycling:clothes":"yes","recycling:glass_bottles":"yes","recycling_type":"container"}},"type":"Feature"},
	{"geometry":{"coordinates":[10.239041,48.629043],"type":"Point"},"properties":{"osm_id":"6071632969","tag":{"amenity":"waste_basket"}},"type":"Feature"},
	{"geometry":{"coordinates":[10.235444,48.625062],"type":"Point"},"properties":{"osm_id":"6198968524","tag":{"amenity":"waste_basket"}},"type":"Feature"},
	{"geometry":{"coordinates":[10.258896,48.589968],"type":"Point"},"properties":{"osm_id":"6239727429","tag":{"amenity":"waste_basket"}},"type":"Feature"},
	{"geometry":{"coordinates":[10.266428,48.588847],"type":"Point"},"properties":{"osm_id":"6305305017","tag":{"amenity":"waste_basket"}},"type":"Feature"},
	{"geometry":{"coordinates":[10.262749,48.589421],"type":"Point"},"properties":{"osm_id":"6317140965","tag":{"amenity":"waste_basket","waste":"dog_excrement"}},"type":"Feature"},
	{"geometry":{"coordinates":[10.24808,48.594871],"type":"Point"},"properties":{"osm_id":"6323339363","tag":{"amenity":"waste_basket"}},"type":"Feature"},
	{"geometry":{"coordinates":[10.224693,48.614257],"type":"Point"},"properties":{"osm_id":"6364999022","tag":{"amenity":"waste_basket"}},"type":"Feature"},
	{"geometry":{"coordinates":[10.268161,48.632758],"type":"Point"},"properties":{"osm_id":"6615139479","tag":{"amenity":"waste_basket"}},"type":"Feature"},
	{"geometry":{"coordinates":[10.271765,48.627933],"type":"Point"},"properties":{"osm_id":"6616998730","tag":{"amenity":"waste_basket"}},"type":"Feature"},
	{"geometry":{"coordinates":[10.271545,48.627929],"type":"Point"},"properties":{"osm_id":"6617019310","tag":{"amenity":"waste_basket"}},"type":"Feature"},
	{"geometry":{"coordinates":[10.238187,48.630722],"type":"Point"},"properties":{"osm_id":"6626956666","tag":{"amenity":"waste_basket"}},"type":"Feature"},
	{"geometry":{"coordinates":[10.249697,48.62702],"type":"Point"},"properties":{"osm_id":"6642628782","tag":{"amenity":"waste_basket"}},"type":"Feature"},
	{"geometry":{"coordinates":[10.258079,48.631214],"type":"Point"},"properties":{"osm_id":"6642762731","tag":{"amenity":"waste_basket"}},"type":"Feature"},
	{"geometry":{"coordinates":[10.265536,48.630033],"type":"Point"},"properties":{"osm_id":"6642775262","tag":{"amenity":"waste_basket"}},"type":"Feature"},
	{"geometry":{"coordinates":[10.246375,48.598389],"type":"Point"},"properties":{"osm_id":"6795418766","tag":{"amenity":"waste_basket"}},"type":"Feature"},
	{"geometry":{"coordinates":[10.238549,48.581208],"type":"Point"},"properties":{"barrier":"gate","osm_id":"6797490588"},"type":"Feature"},
	{"geometry":{"coordinates":[10.260564,48.628683],"type":"Point"},"properties":{"osm_id":"6812416897","tag":{"amenity":"waste_basket"}},"type":"Feature"},
	{"geometry":{"coordinates":[10.260394,48.62892],"type":"Point"},"properties":{"osm_id":"6812421180","tag":{"amenity":"waste_basket"}},"type":"Feature"},
	{"geometry":{"coordinates":[10.260441,48.628712],"type":"Point"},"properties":{"osm_id":"6812434708","tag":{"amenity":"waste_basket"}},"type":"Feature"},
	{"geometry":{"coordinates":[10.253988,48.625702],"type":"Point"},"properties":{"osm_id":"6815918515","tag":{"amenity":"recycling","recycling:cans":"yes","recycling:glass_bottles":"yes","recycling_type":"container"}},"type":"Feature"},
	{"geometry":{"coordinates":[10.249885,48.617808],"type":"Point"},"properties":{"osm_id":"6935646408","tag":{"amenity":"waste_basket"}},"type":"Feature"},
	{"geometry":{"coordinates":[10.250186,48.617839],"type":"Point"},"properties":{"osm_id":"6935647165","tag":{"amenity":"waste_basket"}},"type":"Feature"},
	{"geometry":{"coordinates":[10.236084,48.629523],"type":"Point"},"properties":{"osm_id":"6959721512","tag":{"amenity":"recycling","recycling:bottles":"yes","recycling:cans":"yes","recycling:clothes":"yes"}},"type":"Feature"},
	{"geometry":{"coordinates":[10.242059,48.632902],"type":"Point"},"properties":{"osm_id":"6960206484","tag":{"amenity":"waste_basket"}},"type":"Feature"},
	{"geometry":{"coordinates":[10.26326,48.598807],"type":"Point"},"properties":{"osm_id":"7091879495","tag":{"amenity":"waste_basket","bin":"yes","waste":"dog_excrement"}},"type":"Feature"},
	{"geometry":{"coordinates":[10.275571,48.621366],"type":"Point"},"properties":{"osm_id":"7137360775","tag":{"amenity":"waste_basket"}},"type":"Feature"},
	{"geometry":{"coordinates":[10.269385,48.632662],"type":"Point"},"properties":{"osm_id":"7242265519","tag":{"amenity":"waste_basket"}},"type":"Feature"},
	{"geometry":{"coordinates":[10.280766,48.619153],"type":"Point"},"properties":{"osm_id":"7305520753","tag":{"amenity":"waste_basket"}},"type":"Feature"},
	{"geometry":{"coordinates":[10.23977,48.623907],"type":"Point"},"properties":{"osm_id":"7391045525","tag":{"amenity":"waste_basket"}},"type":"Feature"},
	{"geometry":{"coordinates":[10.239466,48.62392],"type":"Point"},"properties":{"osm_id":"7391045526","tag":{"amenity":"waste_basket"}},"type":"Feature"},
	{"geometry":{"coordinates":[10.239745,48.623686],"type":"Point"},"properties":{"osm_id":"7391045527","tag":{"amenity":"waste_basket"}},"type":"Feature"},
	{"geometry":{"coordinates":[10.245435,48.618849],"type":"Point"},"properties":{"osm_id":"7426110881","tag":{"amenity":"waste_basket"}},"type":"Feature"},
	{"geometry":{"coordinates":[10.254079,48.598926],"type":"Point"},"properties":{"osm_id":"7426131987","tag":{"amenity":"waste_basket"}},"type":"Feature"},
	{"geometry":{"coordinates":[10.241961,48.619041],"type":"Point"},"properties":{"osm_id":"7566758721","tag":{"amenity":"waste_basket"}},"type":"Feature"},
	{"geometry":{"coordinates":[10.242032,48.618987],"type":"Point"},"properties":{"osm_id":"7566758722","tag":{"amenity":"waste_basket"}},"type":"Feature"},
	{"geometry":{"coordinates":[10.263402,48.597972],"type":"Point"},"properties":{"osm_id":"7875185522","tag":{"amenity":"waste_basket"}},"type":"Feature"},
	{"geometry":{"coordinates":[10.264019,48.598224],"type":"Point"},"properties":{"osm_id":"7875185533","tag":{"amenity":"waste_basket"}},"type":"Feature"},
	{"geometry":{"coordinates":[10.243323,48.624871],"type":"Point"},"properties":{"osm_id":"7886442314","tag":{"amenity":"recycling","recycling:clothes":"yes","recycling:shoes":"yes","recycling_type":"container"}},"type":"Feature"},
	{"geometry":{"coordinates":[10.22994,48.586619],"type":"Point"},"properties":{"osm_id":"7887254135","tag":{"amenity":"waste_basket"}},"type":"Feature"},
	{"geometry":{"coordinates":[10.229968,48.586308],"type":"Point"},"properties":{"osm_id":"7887267584","tag":{"amenity":"waste_basket"}},"type":"Feature"}
]
}
