{
"type": "FeatureCollection",
"features": [
	{"geometry":{"coordinates":[10.252435,47.895514],"type":"Point"},"properties":{"name":"Recyclinghof Wolfertschwenden","osm_id":"1908039991","tag":{"amenity":"recycling"}},"type":"Feature"},
	{"geometry":{"coordinates":[10.241756,47.924841],"type":"Point"},"properties":{"osm_id":"2907064776","tag":{"amenity":"waste_basket"}},"type":"Feature"},
	{"geometry":{"coordinates":[10.254463,47.880598],"type":"Point"},"properties":{"osm_id":"2961621228","tag":{"amenity":"recycling","recycling:glass_bottles":"yes","recycling_type":"container"}},"type":"Feature"},
	{"geometry":{"coordinates":[10.253179,47.895392],"type":"Point"},"properties":{"osm_id":"3859042327","tag":{"amenity":"recycling","recycling:glass_bottles":"yes"}},"type":"Feature"},
	{"geometry":{"coordinates":[10.20611,47.899605],"type":"Point"},"properties":{"osm_id":"5686320564","tag":{"amenity":"recycling","recycling_type":"centre"}},"type":"Feature"},
	{"geometry":{"coordinates":[10.211533,47.891397],"type":"Point"},"properties":{"osm_id":"7107860011","tag":{"amenity":"waste_basket"}},"type":"Feature"}
]
}
