{
"type": "FeatureCollection",
"lastupdate": "2020-08-03T00:00:00Z",
"features": [
	{"geometry":{"coordinates":[10.223674,47.824426],"type":"Point"},"properties":{"osm_id":"2403789564","tag":{"amenity":"recycling","operator":"Zweckverband f\u00fcr Abfallwirtschaft Kempten","recycling:beverage_cartons":"yes","recycling:cans":"yes","recycling:clothes":"no","recycling:glass_bottles":"yes","recycling:paper":"yes","recycling_type":"container"}},"type":"Feature"},
	{"geometry":{"coordinates":[10.201511,47.864342],"type":"Point"},"properties":{"osm_id":"4853624551","tag":{"amenity":"waste_basket"}},"type":"Feature"},
	{"geometry":{"coordinates":[10.282684,47.848856],"type":"Point"},"properties":{"osm_id":"6661110662","tag":{"amenity":"waste_basket","waste":"trash"}},"type":"Feature"},
	{"geometry":{"coordinates":[10.282921,47.847666],"type":"Point"},"properties":{"osm_id":"6661110663","tag":{"amenity":"waste_basket","waste":"trash"}},"type":"Feature"},
	{"geometry":{"coordinates":[10.282774,47.848462],"type":"Point"},"properties":{"osm_id":"6661110665","tag":{"amenity":"waste_basket","waste":"trash"}},"type":"Feature"},
	{"geometry":{"coordinates":[10.282892,47.84785],"type":"Point"},"properties":{"osm_id":"6661110666","tag":{"amenity":"waste_basket","waste":"trash"}},"type":"Feature"}
]
}
