{
"type": "FeatureCollection",
"features": [
	{"geometry":{"coordinates":[10.271054,47.460687],"type":"Point"},"properties":{"osm_id":"270411133","tag":{"amenity":"recycling","recycling_type":"container"}},"type":"Feature"},
	{"geometry":{"coordinates":[10.270891,47.45874],"type":"Point"},"properties":{"osm_id":"270411449","tag":{"amenity":"recycling","recycling_type":"container"}},"type":"Feature"},
	{"geometry":{"coordinates":[10.235577,47.462168],"type":"Point"},"properties":{"osm_id":"270438126","tag":{"amenity":"recycling"}},"type":"Feature"},
	{"geometry":{"coordinates":[10.279797,47.459875],"type":"Point"},"properties":{"osm_id":"270505629","tag":{"amenity":"recycling"}},"type":"Feature"},
	{"geometry":{"coordinates":[10.230497,47.470306],"type":"Point"},"properties":{"osm_id":"281349886","tag":{"amenity":"recycling"}},"type":"Feature"},
	{"geometry":{"coordinates":[10.250083,47.472638],"type":"Point"},"properties":{"osm_id":"281350389","tag":{"amenity":"recycling","recycling_type":"container"}},"type":"Feature"},
	{"geometry":{"coordinates":[10.271184,47.465397],"type":"Point"},"properties":{"osm_id":"861486880","tag":{"amenity":"waste_basket"}},"type":"Feature"},
	{"geometry":{"coordinates":[10.270982,47.460946],"type":"Point"},"properties":{"osm_id":"1425280497","tag":{"amenity":"recycling","recycling:glass_bottles":"yes","recycling_type":"container"}},"type":"Feature"},
	{"geometry":{"coordinates":[10.254016,47.461868],"type":"Point"},"properties":{"osm_id":"1826046228","tag":{"amenity":"waste_basket"}},"type":"Feature"},
	{"geometry":{"coordinates":[10.269507,47.511283],"type":"Point"},"properties":{"osm_id":"2805523123","tag":{"amenity":"recycling","recycling:cans":"yes","recycling:glass_bottles":"yes","recycling:paper":"yes","recycling:plastic_packaging":"yes","recycling_type":"container"}},"type":"Feature"},
	{"geometry":{"coordinates":[10.281099,47.509923],"type":"Point"},"properties":{"osm_id":"2805523124","tag":{"addr:city":"Sonthofen","addr:country":"DE","amenity":"recycling","recycling:cans":"yes","recycling:clothes":"yes","recycling:glass":"yes","recycling:paper":"yes","recycling_type":"container"}},"type":"Feature"},
	{"geometry":{"coordinates":[10.279477,47.511238],"type":"Point"},"properties":{"osm_id":"2807484388","tag":{"amenity":"recycling","recycling:cans":"yes","recycling:glass_bottles":"yes","recycling:paper":"yes","recycling_type":"container"}},"type":"Feature"},
	{"geometry":{"coordinates":[10.277998,47.503886],"type":"Point"},"properties":{"name":"Wertstoffinsel","osm_id":"4538084534","tag":{"amenity":"recycling","collection_times":"Mo - Fr 13:30-17:30 Samstag 9-12 Uhr","recycling:glass_bottles":"yes","recycling:paper":"yes","recycling_type":"container"}},"type":"Feature"},
	{"geometry":{"coordinates":[10.239376,47.472587],"type":"Point"},"properties":{"osm_id":"4792382319","tag":{"amenity":"waste_basket"}},"type":"Feature"},
	{"geometry":{"coordinates":[10.230942,47.474968],"type":"Point"},"properties":{"osm_id":"4795638531","tag":{"amenity":"waste_basket"}},"type":"Feature"},
	{"geometry":{"coordinates":[10.253306,47.472719],"type":"Point"},"properties":{"osm_id":"4802131899","tag":{"amenity":"waste_basket"}},"type":"Feature"},
	{"geometry":{"coordinates":[10.278715,47.508549],"type":"Point"},"properties":{"osm_id":"5245877062","tag":{"amenity":"recycling","recycling_type":"container"}},"type":"Feature"},
	{"geometry":{"coordinates":[10.257074,47.495133],"type":"Point"},"properties":{"osm_id":"6372311042","tag":{"amenity":"recycling","recycling:cardboard":"yes","recycling:glass_bottles":"yes","recycling:paper":"yes","recycling:plastic_packaging":"yes","recycling_type":"container"}},"type":"Feature"},
	{"geometry":{"coordinates":[10.272415,47.457843],"type":"Point"},"properties":{"osm_id":"7579788381","tag":{"amenity":"waste_basket"}},"type":"Feature"},
	{"geometry":{"coordinates":[10.271587,47.458331],"type":"Point"},"properties":{"osm_id":"7589604992","tag":{"amenity":"waste_basket"}},"type":"Feature"},
	{"geometry":{"coordinates":[10.267962,47.459363],"type":"Point"},"properties":{"osm_id":"7608977973","tag":{"amenity":"waste_basket"}},"type":"Feature"},
	{"geometry":{"coordinates":[10.267442,47.45981],"type":"Point"},"properties":{"osm_id":"7608977989","tag":{"amenity":"waste_basket"}},"type":"Feature"},
	{"geometry":{"coordinates":[10.273561,47.457855],"type":"Point"},"properties":{"osm_id":"7608977991","tag":{"amenity":"waste_basket"}},"type":"Feature"},
	{"geometry":{"coordinates":[10.263732,47.515516],"type":"Point"},"properties":{"osm_id":"7859606048","tag":{"amenity":"recycling","recycling:cans":"yes","recycling:glass_bottles":"yes","recycling:paper":"yes","recycling:plastic_packaging":"yes","recycling_type":"container"}},"type":"Feature"}
]
}
