{
"type": "FeatureCollection",
"features": [
	{"geometry":{"coordinates":[10.241235,47.421307],"type":"Point"},"properties":{"osm_id":"270409279","tag":{"amenity":"recycling","location":"overground","recycling_type":"container"}},"type":"Feature"},
	{"geometry":{"coordinates":[10.231428,47.454371],"type":"Point"},"properties":{"osm_id":"270409413","tag":{"amenity":"recycling"}},"type":"Feature"},
	{"geometry":{"coordinates":[10.28219,47.413369],"type":"Point"},"properties":{"osm_id":"270411219","tag":{"amenity":"recycling"}},"type":"Feature"},
	{"geometry":{"coordinates":[10.277388,47.422888],"type":"Point"},"properties":{"osm_id":"270411233","tag":{"amenity":"recycling"}},"type":"Feature"},
	{"geometry":{"coordinates":[10.26922,47.449575],"type":"Point"},"properties":{"osm_id":"270411705","tag":{"amenity":"recycling","recycling:paper":"yes","recycling:plastic_packaging":"yes","recycling_type":"container"}},"type":"Feature"},
	{"geometry":{"coordinates":[10.269115,47.449607],"type":"Point"},"properties":{"osm_id":"270411706","tag":{"amenity":"waste_disposal"}},"type":"Feature"},
	{"geometry":{"coordinates":[10.27549,47.436382],"type":"Point"},"properties":{"osm_id":"326855456","tag":{"amenity":"recycling","recycling_type":"container"}},"type":"Feature"},
	{"geometry":{"coordinates":[10.240733,47.412563],"type":"Point"},"properties":{"osm_id":"326867509","tag":{"amenity":"recycling","recycling_type":"container"}},"type":"Feature"},
	{"geometry":{"coordinates":[10.268761,47.410474],"type":"Point"},"properties":{"osm_id":"335747495","tag":{"amenity":"recycling","covered":"no","recycling:clothes":"yes","recycling:glass_bottles":"yes","recycling:paper":"yes","recycling:plastic_packaging":"yes","recycling_type":"container"}},"type":"Feature"},
	{"geometry":{"coordinates":[10.242135,47.452167],"type":"Point"},"properties":{"osm_id":"607873667","tag":{"amenity":"recycling","recycling:cans":"yes","recycling:glass_bottles":"yes","recycling:paper":"yes"}},"type":"Feature"},
	{"geometry":{"coordinates":[10.249282,47.406524],"type":"Point"},"properties":{"osm_id":"620478802","tag":{"amenity":"recycling"}},"type":"Feature"},
	{"geometry":{"coordinates":[10.275087,47.407542],"type":"Point"},"properties":{"osm_id":"1309394997","tag":{"amenity":"recycling","recycling:cans":"yes","recycling:glass_bottles":"yes","recycling:paper":"yes","recycling_type":"container"}},"type":"Feature"},
	{"geometry":{"coordinates":[10.279214,47.405639],"type":"Point"},"properties":{"osm_id":"1309434784","tag":{"amenity":"recycling","recycling:cans":"yes","recycling:glass_bottles":"yes","recycling_type":"container"}},"type":"Feature"},
	{"geometry":{"coordinates":[10.276611,47.456778],"type":"Point"},"properties":{"osm_id":"1430978757","tag":{"amenity":"waste_basket"}},"type":"Feature"},
	{"geometry":{"coordinates":[10.272222,47.434268],"type":"Point"},"properties":{"osm_id":"1826498684","tag":{"amenity":"waste_basket"}},"type":"Feature"},
	{"geometry":{"coordinates":[10.270655,47.445327],"type":"Point"},"properties":{"osm_id":"1826556465","tag":{"amenity":"waste_basket"}},"type":"Feature"},
	{"geometry":{"coordinates":[10.268604,47.451408],"type":"Point"},"properties":{"osm_id":"1826556769","tag":{"amenity":"waste_basket"}},"type":"Feature"},
	{"geometry":{"coordinates":[10.268935,47.445978],"type":"Point"},"properties":{"osm_id":"1837380286","tag":{"amenity":"waste_basket"}},"type":"Feature"},
	{"geometry":{"coordinates":[10.263174,47.440575],"type":"Point"},"properties":{"osm_id":"1837582326","tag":{"amenity":"waste_basket"}},"type":"Feature"},
	{"geometry":{"coordinates":[10.268867,47.441727],"type":"Point"},"properties":{"osm_id":"1837582364","tag":{"amenity":"waste_basket"}},"type":"Feature"},
	{"geometry":{"coordinates":[10.276882,47.402122],"type":"Point"},"properties":{"osm_id":"2426980302","tag":{"amenity":"waste_basket","waste":"dog_excrement"}},"type":"Feature"},
	{"geometry":{"coordinates":[10.273053,47.402783],"type":"Point"},"properties":{"osm_id":"2439777066","tag":{"amenity":"waste_basket","vending":"excrement_bags","waste":"dog_excrement"}},"type":"Feature"},
	{"geometry":{"coordinates":[10.27604,47.419799],"type":"Point"},"properties":{"osm_id":"2983862359","tag":{"amenity":"recycling","recycling:cans":"yes","recycling:glass_bottles":"yes","recycling:paper":"yes","recycling_type":"container"}},"type":"Feature"},
	{"geometry":{"coordinates":[10.270531,47.426457],"type":"Point"},"properties":{"osm_id":"3637154079","tag":{"amenity":"waste_basket"}},"type":"Feature"},
	{"geometry":{"coordinates":[10.274343,47.42709],"type":"Point"},"properties":{"osm_id":"3637172197","tag":{"amenity":"waste_basket"}},"type":"Feature"},
	{"geometry":{"coordinates":[10.281762,47.433423],"type":"Point"},"properties":{"osm_id":"3637172362","tag":{"amenity":"waste_basket"}},"type":"Feature"},
	{"geometry":{"coordinates":[10.281877,47.407107],"type":"Point"},"properties":{"osm_id":"3646124470","tag":{"amenity":"waste_basket"}},"type":"Feature"},
	{"geometry":{"coordinates":[10.275673,47.398638],"type":"Point"},"properties":{"osm_id":"3771235394","tag":{"amenity":"waste_basket"}},"type":"Feature"},
	{"geometry":{"coordinates":[10.278105,47.407829],"type":"Point"},"properties":{"osm_id":"3771235398","tag":{"amenity":"waste_basket"}},"type":"Feature"},
	{"geometry":{"coordinates":[10.277535,47.410633],"type":"Point"},"properties":{"osm_id":"3909985718","tag":{"amenity":"waste_basket"}},"type":"Feature"},
	{"geometry":{"coordinates":[10.277265,47.410959],"type":"Point"},"properties":{"osm_id":"3909985723","tag":{"amenity":"waste_basket","source:position":"Bing 2012"}},"type":"Feature"},
	{"geometry":{"coordinates":[10.277469,47.410505],"type":"Point"},"properties":{"osm_id":"3909985888","tag":{"amenity":"waste_basket"}},"type":"Feature"},
	{"geometry":{"coordinates":[10.276959,47.410747],"type":"Point"},"properties":{"osm_id":"3909985898","tag":{"amenity":"waste_basket","source:position":"Bing 2012"}},"type":"Feature"},
	{"geometry":{"coordinates":[10.277267,47.410757],"type":"Point"},"properties":{"osm_id":"3909985900","tag":{"amenity":"waste_basket"}},"type":"Feature"},
	{"geometry":{"coordinates":[10.277328,47.410534],"type":"Point"},"properties":{"osm_id":"3911555139","tag":{"amenity":"waste_basket"}},"type":"Feature"},
	{"geometry":{"coordinates":[10.27619,47.410031],"type":"Point"},"properties":{"osm_id":"4328093972","tag":{"amenity":"waste_basket","traffic_sign":"DE:242.1;242.2"}},"type":"Feature"},
	{"geometry":{"coordinates":[10.273978,47.40621],"type":"Point"},"properties":{"osm_id":"4465575799","tag":{"amenity":"waste_basket"}},"type":"Feature"},
	{"geometry":{"coordinates":[10.277662,47.40663],"type":"Point"},"properties":{"osm_id":"4465575814","tag":{"amenity":"waste_basket"}},"type":"Feature"},
	{"geometry":{"coordinates":[10.277621,47.406227],"type":"Point"},"properties":{"osm_id":"4465577540","tag":{"amenity":"waste_basket"}},"type":"Feature"},
	{"geometry":{"coordinates":[10.281354,47.406055],"type":"Point"},"properties":{"osm_id":"4469861289","tag":{"amenity":"waste_basket"}},"type":"Feature"},
	{"geometry":{"coordinates":[10.281969,47.407252],"type":"Point"},"properties":{"osm_id":"4698155940","tag":{"amenity":"waste_basket"}},"type":"Feature"},
	{"geometry":{"coordinates":[10.277471,47.409124],"type":"Point"},"properties":{"osm_id":"4719446902","tag":{"amenity":"waste_basket"}},"type":"Feature"},
	{"geometry":{"coordinates":[10.278872,47.407341],"type":"Point"},"properties":{"osm_id":"5468891050","tag":{"amenity":"waste_basket"}},"type":"Feature"},
	{"geometry":{"coordinates":[10.278337,47.407513],"type":"Point"},"properties":{"osm_id":"5468916885","tag":{"amenity":"waste_basket"}},"type":"Feature"},
	{"geometry":{"coordinates":[10.277894,47.407696],"type":"Point"},"properties":{"osm_id":"5468916886","tag":{"amenity":"waste_basket"}},"type":"Feature"},
	{"geometry":{"coordinates":[10.277453,47.410302],"type":"Point"},"properties":{"osm_id":"5468963451","tag":{"amenity":"waste_basket"}},"type":"Feature"},
	{"geometry":{"coordinates":[10.277344,47.408039],"type":"Point"},"properties":{"osm_id":"5469271665","tag":{"amenity":"waste_basket"}},"type":"Feature"},
	{"geometry":{"coordinates":[10.231534,47.398581],"type":"Point"},"properties":{"osm_id":"6319117153","tag":{"amenity":"waste_basket","waste":"trash"}},"type":"Feature"},
	{"geometry":{"coordinates":[10.272759,47.405017],"type":"Point"},"properties":{"osm_id":"6582022919","tag":{"amenity":"waste_disposal","waste":"trash"}},"type":"Feature"},
	{"geometry":{"coordinates":[10.273573,47.418194],"type":"Point"},"properties":{"osm_id":"7541318055","tag":{"amenity":"recycling","covered":"no","recycling:glass":"yes","recycling:paper":"yes","recycling_type":"container"}},"type":"Feature"},
	{"geometry":{"coordinates":[10.273633,47.457566],"type":"Point"},"properties":{"osm_id":"7589605001","tag":{"amenity":"waste_basket"}},"type":"Feature"},
	{"geometry":{"coordinates":[10.273256,47.457694],"type":"Point"},"properties":{"osm_id":"7608977988","tag":{"amenity":"waste_basket"}},"type":"Feature"},
	{"geometry":{"coordinates":[10.275888,47.436751],"type":"Point"},"properties":{"osm_id":"7608977990","tag":{"amenity":"waste_basket"}},"type":"Feature"}
]
}
