{
"type": "FeatureCollection",
"features": [
	{"geometry":{"coordinates":[10.262247,45.98444],"type":"Point"},"properties":{"osm_id":"4583009846","tag":{"amenity":"recycling","recycling_type":"container"}},"type":"Feature"},
	{"geometry":{"coordinates":[10.259969,45.985485],"type":"Point"},"properties":{"osm_id":"4583009852","tag":{"amenity":"recycling","recycling_type":"container"}},"type":"Feature"},
	{"geometry":{"coordinates":[10.259618,45.983426],"type":"Point"},"properties":{"osm_id":"4583580439","tag":{"amenity":"recycling","recycling_type":"container"}},"type":"Feature"},
	{"geometry":{"coordinates":[10.259794,45.983322],"type":"Point"},"properties":{"osm_id":"4583580440","tag":{"amenity":"waste_basket"}},"type":"Feature"},
	{"geometry":{"coordinates":[10.259225,45.982143],"type":"Point"},"properties":{"osm_id":"4584424047","tag":{"amenity":"recycling","recycling_type":"container"}},"type":"Feature"},
	{"geometry":{"coordinates":[10.250068,45.985822],"type":"Point"},"properties":{"osm_id":"4586560787","tag":{"amenity":"recycling","recycling_type":"container"}},"type":"Feature"},
	{"geometry":{"coordinates":[10.252731,45.987309],"type":"Point"},"properties":{"osm_id":"4586560898","tag":{"amenity":"recycling","recycling_type":"container"}},"type":"Feature"},
	{"geometry":{"coordinates":[10.234478,45.992192],"type":"Point"},"properties":{"osm_id":"4588718173","tag":{"amenity":"recycling","recycling_type":"container"}},"type":"Feature"},
	{"geometry":{"coordinates":[10.237302,45.960987],"type":"Point"},"properties":{"osm_id":"5169221660","tag":{"amenity":"waste_basket"}},"type":"Feature"},
	{"geometry":{"coordinates":[10.238137,45.994407],"type":"Point"},"properties":{"osm_id":"6344699279","tag":{"amenity":"waste_basket"}},"type":"Feature"},
	{"geometry":{"coordinates":[10.236877,45.994004],"type":"Point"},"properties":{"osm_id":"6966119045","tag":{"amenity":"waste_basket","material":"wood","waste":"trash"}},"type":"Feature"}
]
}
