{
"type": "FeatureCollection",
"features": [
	{"geometry":{"coordinates":[10.225031,45.50997],"type":"Point"},"properties":{"osm_id":"1585728427","tag":{"amenity":"recycling","location":"overground","recycling_type":"container"}},"type":"Feature"},
	{"geometry":{"coordinates":[10.225907,45.514443],"type":"Point"},"properties":{"osm_id":"1585728473","tag":{"amenity":"recycling","location":"overground","recycling_type":"container"}},"type":"Feature"},
	{"geometry":{"coordinates":[10.224935,45.515664],"type":"Point"},"properties":{"osm_id":"1585728475","tag":{"amenity":"recycling"}},"type":"Feature"},
	{"geometry":{"coordinates":[10.224996,45.518254],"type":"Point"},"properties":{"osm_id":"1585728514","tag":{"amenity":"recycling"}},"type":"Feature"},
	{"geometry":{"coordinates":[10.245412,45.513512],"type":"Point"},"properties":{"osm_id":"1868624572","tag":{"amenity":"waste_disposal"}},"type":"Feature"},
	{"geometry":{"coordinates":[10.245326,45.51363],"type":"Point"},"properties":{"osm_id":"1868624576","tag":{"amenity":"waste_disposal"}},"type":"Feature"},
	{"geometry":{"coordinates":[10.248095,45.513765],"type":"Point"},"properties":{"osm_id":"1868624579","tag":{"amenity":"waste_disposal"}},"type":"Feature"},
	{"geometry":{"coordinates":[10.247879,45.514045],"type":"Point"},"properties":{"osm_id":"1868624581","tag":{"amenity":"waste_disposal"}},"type":"Feature"},
	{"geometry":{"coordinates":[10.247653,45.51435],"type":"Point"},"properties":{"osm_id":"1868624582","tag":{"amenity":"waste_disposal"}},"type":"Feature"},
	{"geometry":{"coordinates":[10.247231,45.514909],"type":"Point"},"properties":{"osm_id":"1868624583","tag":{"amenity":"waste_disposal"}},"type":"Feature"},
	{"geometry":{"coordinates":[10.246813,45.515475],"type":"Point"},"properties":{"osm_id":"1868624584","tag":{"amenity":"waste_disposal"}},"type":"Feature"},
	{"geometry":{"coordinates":[10.246611,45.515748],"type":"Point"},"properties":{"osm_id":"1868624585","tag":{"amenity":"waste_disposal"}},"type":"Feature"},
	{"geometry":{"coordinates":[10.264493,45.521068],"type":"Point"},"properties":{"barrier":"gate","osm_id":"2593267380"},"type":"Feature"},
	{"geometry":{"coordinates":[10.264064,45.521143],"type":"Point"},"properties":{"barrier":"gate","osm_id":"5202083531"},"type":"Feature"},
	{"geometry":{"coordinates":[10.205383,45.51325],"type":"Point"},"properties":{"barrier":"lift_gate","osm_id":"6916283725","tag":{"access":"customers"}},"type":"Feature"},
	{"geometry":{"coordinates":[10.20473,45.513325],"type":"Point"},"properties":{"barrier":"lift_gate","osm_id":"6916283726","tag":{"access":"customers","addr:city":"Brescia","addr:housenumber":"31g","addr:postcode":"25124","addr:street":"Via Codignole"}},"type":"Feature"}
]
}
