{
"type": "FeatureCollection",
"features": [
	{"geometry":{"coordinates":[10.226901,45.378622],"type":"Point"},"properties":{"barrier":"gate","osm_id":"1875978145"},"type":"Feature"},
	{"geometry":{"coordinates":[10.226125,45.37883],"type":"Point"},"properties":{"barrier":"gate","osm_id":"1875978152"},"type":"Feature"},
	{"geometry":{"coordinates":[10.21348,45.373684],"type":"Point"},"properties":{"osm_id":"2400729281","tag":{"amenity":"waste_basket"}},"type":"Feature"},
	{"geometry":{"coordinates":[10.218426,45.366839],"type":"Point"},"properties":{"osm_id":"2400768154","tag":{"amenity":"waste_basket"}},"type":"Feature"},
	{"geometry":{"coordinates":[10.218729,45.367055],"type":"Point"},"properties":{"osm_id":"2400769714","tag":{"amenity":"waste_basket"}},"type":"Feature"},
	{"geometry":{"coordinates":[10.219203,45.367139],"type":"Point"},"properties":{"osm_id":"2400770650","tag":{"amenity":"waste_basket"}},"type":"Feature"},
	{"geometry":{"coordinates":[10.219091,45.367411],"type":"Point"},"properties":{"osm_id":"2400771264","tag":{"amenity":"waste_basket"}},"type":"Feature"},
	{"geometry":{"coordinates":[10.219296,45.367254],"type":"Point"},"properties":{"osm_id":"2400771717","tag":{"amenity":"waste_basket"}},"type":"Feature"},
	{"geometry":{"coordinates":[10.218587,45.367208],"type":"Point"},"properties":{"osm_id":"2400772557","tag":{"amenity":"waste_basket"}},"type":"Feature"},
	{"geometry":{"coordinates":[10.218749,45.367335],"type":"Point"},"properties":{"osm_id":"2400773151","tag":{"amenity":"waste_basket"}},"type":"Feature"},
	{"geometry":{"coordinates":[10.220042,45.367751],"type":"Point"},"properties":{"osm_id":"2400773789","tag":{"amenity":"waste_basket"}},"type":"Feature"},
	{"geometry":{"coordinates":[10.220068,45.368346],"type":"Point"},"properties":{"osm_id":"2400774113","tag":{"amenity":"waste_basket"}},"type":"Feature"},
	{"geometry":{"coordinates":[10.219986,45.368595],"type":"Point"},"properties":{"osm_id":"2400774513","tag":{"amenity":"waste_basket"}},"type":"Feature"},
	{"geometry":{"coordinates":[10.219888,45.368859],"type":"Point"},"properties":{"osm_id":"2400776432","tag":{"amenity":"waste_basket"}},"type":"Feature"},
	{"geometry":{"coordinates":[10.219777,45.369176],"type":"Point"},"properties":{"osm_id":"2400776931","tag":{"amenity":"waste_basket"}},"type":"Feature"},
	{"geometry":{"coordinates":[10.218945,45.366323],"type":"Point"},"properties":{"osm_id":"2400785400","tag":{"amenity":"waste_basket"}},"type":"Feature"},
	{"geometry":{"coordinates":[10.209775,45.367729],"type":"Point"},"properties":{"highway":"speed_camera","osm_id":"2401900237","tag":{"amenity":"waste_basket"}},"type":"Feature"},
	{"geometry":{"coordinates":[10.208762,45.367064],"type":"Point"},"properties":{"osm_id":"2401900256","tag":{"amenity":"waste_basket"}},"type":"Feature"},
	{"geometry":{"coordinates":[10.21137,45.369343],"type":"Point"},"properties":{"osm_id":"2401900275","tag":{"amenity":"waste_basket"}},"type":"Feature"},
	{"geometry":{"coordinates":[10.21331,45.370003],"type":"Point"},"properties":{"osm_id":"2401900318","tag":{"amenity":"waste_basket"}},"type":"Feature"},
	{"geometry":{"coordinates":[10.215427,45.3707],"type":"Point"},"properties":{"osm_id":"2401900335","tag":{"amenity":"waste_basket"}},"type":"Feature"},
	{"geometry":{"coordinates":[10.214175,45.375177],"type":"Point"},"properties":{"osm_id":"2401900377","tag":{"amenity":"waste_basket"}},"type":"Feature"},
	{"geometry":{"coordinates":[10.214647,45.374109],"type":"Point"},"properties":{"osm_id":"2401900378","tag":{"amenity":"waste_basket"}},"type":"Feature"},
	{"geometry":{"coordinates":[10.214741,45.373902],"type":"Point"},"properties":{"osm_id":"2401900379","tag":{"amenity":"waste_basket"}},"type":"Feature"}
]
}
