{
"type": "FeatureCollection",
"features": [
	{"geometry":{"coordinates":[35.017542,32.762396],"type":"Point"},"properties":{"osm_id":"1447013851","tag":{"amenity":"recycling","recycling:cardboard":"yes","recycling:plastic_bottles":"yes","recycling_type":"container"}},"type":"Feature"},
	{"geometry":{"coordinates":[35.049845,32.765706],"type":"Point"},"properties":{"osm_id":"2400979760","tag":{"amenity":"recycling","recycling:glass_bottles":"yes","recycling:plastic_bottles":"yes","recycling:plastic_packaging":"yes","recycling_type":"container"}},"type":"Feature"},
	{"geometry":{"coordinates":[35.047775,32.76463],"type":"Point"},"properties":{"osm_id":"2471502354","tag":{"amenity":"recycling"}},"type":"Feature"},
	{"geometry":{"coordinates":[35.047253,32.764027],"type":"Point"},"properties":{"osm_id":"2500665117","tag":{"amenity":"recycling"}},"type":"Feature"},
	{"geometry":{"coordinates":[35.046899,32.763596],"type":"Point"},"properties":{"osm_id":"2500665121","tag":{"amenity":"recycling"}},"type":"Feature"},
	{"geometry":{"coordinates":[35.046457,32.763249],"type":"Point"},"properties":{"osm_id":"2500665128","tag":{"amenity":"recycling"}},"type":"Feature"},
	{"geometry":{"coordinates":[34.98227,32.702586],"type":"Point"},"properties":{"osm_id":"4799113126","tag":{"amenity":"recycling","recycling_type":"container"}},"type":"Feature"},
	{"geometry":{"coordinates":[35.013976,32.752292],"type":"Point"},"properties":{"osm_id":"6852739053","tag":{"amenity":"waste_basket"}},"type":"Feature"}
]
}
