{
"type": "FeatureCollection",
"features": [
	{"geometry":{"coordinates":[14.527791,59.764342],"type":"Point"},"properties":{"barrier":"gate","osm_id":"2910595133"},"type":"Feature"},
	{"geometry":{"coordinates":[14.528455,59.764245],"type":"Point"},"properties":{"name":"Gyltbo \u00c3\u0085tervinningscentral","osm_id":"8149931728","tag":{"amenity":"recycling","recycling_type":"centre"}},"type":"Feature"},
	{"geometry":{"coordinates":[14.521297,59.770316],"type":"Point"},"properties":{"name":"FTI Station","osm_id":"8258338944","tag":{"amenity":"recycling","recycling_type":"container"}},"type":"Feature"},
	{"geometry":{"coordinates":[14.522914,59.784383],"type":"Point"},"properties":{"osm_id":"8325789424","tag":{"amenity":"waste_basket"}},"type":"Feature"},
	{"geometry":{"coordinates":[14.521991,59.785354],"type":"Point"},"properties":{"osm_id":"8325789425","tag":{"amenity":"waste_basket"}},"type":"Feature"},
	{"geometry":{"coordinates":[14.523856,59.786804],"type":"Point"},"properties":{"osm_id":"8328337646","tag":{"amenity":"waste_disposal"}},"type":"Feature"},
	{"geometry":{"coordinates":[14.522015,59.786693],"type":"Point"},"properties":{"osm_id":"8328337742","tag":{"amenity":"waste_disposal"}},"type":"Feature"},
	{"geometry":{"coordinates":[14.57761,59.796232],"type":"Point"},"properties":{"osm_id":"8872115213","tag":{"amenity":"waste_basket"}},"type":"Feature"},
	{"geometry":{"coordinates":[14.520523,59.78683],"type":"Point"},"properties":{"osm_id":"9036315639","tag":{"amenity":"waste_basket"}},"type":"Feature"},
	{"geometry":{"coordinates":[14.520965,59.785822],"type":"Point"},"properties":{"osm_id":"9036315654","tag":{"amenity":"waste_basket"}},"type":"Feature"}
]
}
