{
"type": "FeatureCollection",
"features": [
	{"geometry":{"coordinates":[14.528283,53.526175],"type":"Point"},"properties":{"osm_id":"410343116","tag":{"amenity":"waste_disposal"}},"type":"Feature"},
	{"geometry":{"coordinates":[14.560957,53.537775],"type":"Point"},"properties":{"osm_id":"4436142177","tag":{"amenity":"waste_disposal","operator":"Trans-net","recycling_type":"container"}},"type":"Feature"},
	{"geometry":{"coordinates":[14.553017,53.537201],"type":"Point"},"properties":{"osm_id":"4436150214","tag":{"amenity":"waste_disposal"}},"type":"Feature"},
	{"geometry":{"coordinates":[14.541209,53.538549],"type":"Point"},"properties":{"osm_id":"4451098477","tag":{"amenity":"waste_disposal"}},"type":"Feature"},
	{"geometry":{"coordinates":[14.54222,53.539009],"type":"Point"},"properties":{"osm_id":"4672100889","tag":{"amenity":"waste_disposal"}},"type":"Feature"},
	{"geometry":{"coordinates":[14.555954,53.49402],"type":"Point"},"properties":{"osm_id":"4783351051","tag":{"amenity":"waste_disposal"}},"type":"Feature"},
	{"geometry":{"coordinates":[14.559375,53.537383],"type":"Point"},"properties":{"osm_id":"4975510179","tag":{"amenity":"waste_disposal"}},"type":"Feature"},
	{"geometry":{"coordinates":[14.545111,53.538589],"type":"Point"},"properties":{"name":"Skup z\u00c5\u0082omu","osm_id":"4988787031","tag":{"amenity":"recycling","recycling_type":"container"}},"type":"Feature"},
	{"geometry":{"coordinates":[14.548857,53.539841],"type":"Point"},"properties":{"osm_id":"5010851032","tag":{"amenity":"waste_disposal","location":"underground","operator":"Trans-net","recycling_type":"container"}},"type":"Feature"},
	{"geometry":{"coordinates":[14.502767,53.515325],"type":"Point"},"properties":{"barrier":"gate","osm_id":"5071766604"},"type":"Feature"},
	{"geometry":{"coordinates":[14.502604,53.514968],"type":"Point"},"properties":{"barrier":"gate","osm_id":"5071766606"},"type":"Feature"},
	{"geometry":{"coordinates":[14.556476,53.538494],"type":"Point"},"properties":{"osm_id":"5149171018","tag":{"amenity":"waste_disposal"}},"type":"Feature"},
	{"geometry":{"coordinates":[14.550616,53.537976],"type":"Point"},"properties":{"osm_id":"5202448394","tag":{"amenity":"waste_disposal"}},"type":"Feature"},
	{"geometry":{"coordinates":[14.545348,53.539722],"type":"Point"},"properties":{"osm_id":"5202448405","tag":{"amenity":"waste_disposal","operator":"Trans-net","recycling_type":"container"}},"type":"Feature"},
	{"geometry":{"coordinates":[14.516131,53.500512],"type":"Point"},"properties":{"osm_id":"5506527144","tag":{"amenity":"waste_disposal"}},"type":"Feature"},
	{"geometry":{"coordinates":[14.561946,53.540239],"type":"Point"},"properties":{"osm_id":"5546392530","tag":{"amenity":"waste_basket"}},"type":"Feature"},
	{"geometry":{"coordinates":[14.558912,53.539377],"type":"Point"},"properties":{"osm_id":"5984859099","tag":{"amenity":"waste_disposal","operator":"Trans-net","recycling_type":"container"}},"type":"Feature"},
	{"geometry":{"coordinates":[14.561717,53.538946],"type":"Point"},"properties":{"osm_id":"5984859100","tag":{"amenity":"waste_disposal","operator":"Trans-net","recycling_type":"container"}},"type":"Feature"},
	{"geometry":{"coordinates":[14.562338,53.539706],"type":"Point"},"properties":{"osm_id":"5984859101","tag":{"amenity":"waste_disposal","operator":"Trans-net","recycling_type":"container"}},"type":"Feature"},
	{"geometry":{"coordinates":[14.560824,53.537599],"type":"Point"},"properties":{"osm_id":"5990496386","tag":{"amenity":"waste_disposal","operator":"Trans-net","recycling_type":"container"}},"type":"Feature"},
	{"geometry":{"coordinates":[14.562291,53.538213],"type":"Point"},"properties":{"osm_id":"5990496387","tag":{"amenity":"waste_disposal","operator":"Trans-net","recycling_type":"container"}},"type":"Feature"},
	{"geometry":{"coordinates":[14.562831,53.538961],"type":"Point"},"properties":{"osm_id":"5990496392","tag":{"amenity":"waste_disposal","operator":"Trans-net","recycling_type":"container"}},"type":"Feature"},
	{"geometry":{"coordinates":[14.550237,53.535096],"type":"Point"},"properties":{"osm_id":"5990496407","tag":{"amenity":"waste_basket"}},"type":"Feature"},
	{"geometry":{"coordinates":[14.548348,53.535113],"type":"Point"},"properties":{"osm_id":"5990496408","tag":{"amenity":"waste_basket"}},"type":"Feature"},
	{"geometry":{"coordinates":[14.548075,53.535731],"type":"Point"},"properties":{"osm_id":"5990496419","tag":{"amenity":"waste_basket"}},"type":"Feature"},
	{"geometry":{"coordinates":[14.562078,53.539316],"type":"Point"},"properties":{"osm_id":"5991590845","tag":{"amenity":"waste_basket","operator":"SM Odra"}},"type":"Feature"},
	{"geometry":{"coordinates":[14.562476,53.539593],"type":"Point"},"properties":{"osm_id":"5991590848","tag":{"amenity":"waste_basket"}},"type":"Feature"},
	{"geometry":{"coordinates":[14.561664,53.539536],"type":"Point"},"properties":{"osm_id":"5991590853","tag":{"amenity":"waste_basket"}},"type":"Feature"},
	{"geometry":{"coordinates":[14.558588,53.539043],"type":"Point"},"properties":{"osm_id":"5991590858","tag":{"amenity":"waste_disposal","operator":"Trans-net","recycling_type":"container"}},"type":"Feature"},
	{"geometry":{"coordinates":[14.55821,53.539235],"type":"Point"},"properties":{"osm_id":"5991590860","tag":{"amenity":"waste_basket"}},"type":"Feature"},
	{"geometry":{"coordinates":[14.556682,53.538843],"type":"Point"},"properties":{"osm_id":"5991590865","tag":{"amenity":"waste_basket"}},"type":"Feature"},
	{"geometry":{"coordinates":[14.555491,53.538437],"type":"Point"},"properties":{"osm_id":"5991590872","tag":{"amenity":"waste_basket"}},"type":"Feature"},
	{"geometry":{"coordinates":[14.553332,53.538211],"type":"Point"},"properties":{"osm_id":"5991592688","tag":{"amenity":"waste_disposal","operator":"Trans-net","recycling_type":"container"}},"type":"Feature"},
	{"geometry":{"coordinates":[14.553765,53.537945],"type":"Point"},"properties":{"osm_id":"5991592689","tag":{"amenity":"waste_basket"}},"type":"Feature"},
	{"geometry":{"coordinates":[14.553143,53.538684],"type":"Point"},"properties":{"osm_id":"5991592690","tag":{"amenity":"waste_disposal","operator":"Trans-net","recycling_type":"container"}},"type":"Feature"},
	{"geometry":{"coordinates":[14.56217,53.539149],"type":"Point"},"properties":{"osm_id":"5992880406","tag":{"amenity":"waste_basket","operator":"SM Odra"}},"type":"Feature"},
	{"geometry":{"coordinates":[14.56223,53.539053],"type":"Point"},"properties":{"osm_id":"5992880407","tag":{"amenity":"waste_basket","operator":"SM Odra"}},"type":"Feature"},
	{"geometry":{"coordinates":[14.557523,53.539566],"type":"Point"},"properties":{"osm_id":"5992880422","tag":{"amenity":"waste_disposal","operator":"Trans-net","recycling_type":"container"}},"type":"Feature"},
	{"geometry":{"coordinates":[14.55698,53.540171],"type":"Point"},"properties":{"osm_id":"5992880424","tag":{"amenity":"waste_disposal","operator":"Trans-net","recycling_type":"container"}},"type":"Feature"},
	{"geometry":{"coordinates":[14.562494,53.538992],"type":"Point"},"properties":{"osm_id":"5994138604","tag":{"amenity":"waste_basket"}},"type":"Feature"},
	{"geometry":{"coordinates":[14.562542,53.539292],"type":"Point"},"properties":{"osm_id":"5994138605","tag":{"amenity":"waste_basket"}},"type":"Feature"},
	{"geometry":{"coordinates":[14.550737,53.537547],"type":"Point"},"properties":{"osm_id":"5994138606","tag":{"amenity":"waste_basket"}},"type":"Feature"},
	{"geometry":{"coordinates":[14.547354,53.537869],"type":"Point"},"properties":{"osm_id":"5994138607","tag":{"amenity":"waste_basket"}},"type":"Feature"},
	{"geometry":{"coordinates":[14.546869,53.539617],"type":"Point"},"properties":{"osm_id":"5994138609","tag":{"amenity":"waste_basket"}},"type":"Feature"},
	{"geometry":{"coordinates":[14.546866,53.539551],"type":"Point"},"properties":{"osm_id":"5994138610","tag":{"amenity":"waste_basket"}},"type":"Feature"},
	{"geometry":{"coordinates":[14.547161,53.539565],"type":"Point"},"properties":{"osm_id":"5994138612","tag":{"amenity":"waste_basket"}},"type":"Feature"},
	{"geometry":{"coordinates":[14.546606,53.539617],"type":"Point"},"properties":{"osm_id":"5994138613","tag":{"amenity":"waste_basket"}},"type":"Feature"},
	{"geometry":{"coordinates":[14.546607,53.539542],"type":"Point"},"properties":{"osm_id":"5994138614","tag":{"amenity":"waste_basket"}},"type":"Feature"},
	{"geometry":{"coordinates":[14.546225,53.539627],"type":"Point"},"properties":{"osm_id":"5994138615","tag":{"amenity":"waste_basket"}},"type":"Feature"},
	{"geometry":{"coordinates":[14.545862,53.53963],"type":"Point"},"properties":{"osm_id":"5994138620","tag":{"amenity":"waste_basket"}},"type":"Feature"},
	{"geometry":{"coordinates":[14.545375,53.53963],"type":"Point"},"properties":{"osm_id":"5994138628","tag":{"amenity":"waste_basket"}},"type":"Feature"},
	{"geometry":{"coordinates":[14.544949,53.539558],"type":"Point"},"properties":{"osm_id":"5994138631","tag":{"amenity":"waste_basket"}},"type":"Feature"},
	{"geometry":{"coordinates":[14.544902,53.539633],"type":"Point"},"properties":{"osm_id":"5994138633","tag":{"amenity":"waste_basket"}},"type":"Feature"},
	{"geometry":{"coordinates":[14.54451,53.539554],"type":"Point"},"properties":{"osm_id":"5994138636","tag":{"amenity":"waste_basket"}},"type":"Feature"},
	{"geometry":{"coordinates":[14.544351,53.539629],"type":"Point"},"properties":{"osm_id":"5994138637","tag":{"amenity":"waste_basket"}},"type":"Feature"},
	{"geometry":{"coordinates":[14.54403,53.539659],"type":"Point"},"properties":{"osm_id":"5994138641","tag":{"amenity":"waste_basket"}},"type":"Feature"},
	{"geometry":{"coordinates":[14.543969,53.539978],"type":"Point"},"properties":{"osm_id":"5994138645","tag":{"amenity":"waste_basket"}},"type":"Feature"},
	{"geometry":{"coordinates":[14.544087,53.540156],"type":"Point"},"properties":{"osm_id":"5994138646","tag":{"amenity":"waste_basket"}},"type":"Feature"},
	{"geometry":{"coordinates":[14.544878,53.539937],"type":"Point"},"properties":{"osm_id":"5994138673","tag":{"amenity":"waste_basket"}},"type":"Feature"},
	{"geometry":{"coordinates":[14.54472,53.539958],"type":"Point"},"properties":{"osm_id":"5994138677","tag":{"amenity":"waste_basket"}},"type":"Feature"},
	{"geometry":{"coordinates":[14.54624,53.539715],"type":"Point"},"properties":{"osm_id":"5994138683","tag":{"amenity":"waste_basket"}},"type":"Feature"},
	{"geometry":{"coordinates":[14.546968,53.540137],"type":"Point"},"properties":{"osm_id":"5994138684","tag":{"amenity":"waste_basket"}},"type":"Feature"},
	{"geometry":{"coordinates":[14.542185,53.540023],"type":"Point"},"properties":{"osm_id":"5994971993","tag":{"amenity":"recycling","operator":"Gmina Police","recycling:batteries":"yes","recycling:small_appliances":"yes","recycling_type":"vending_machine"}},"type":"Feature"},
	{"geometry":{"coordinates":[14.54951,53.539822],"type":"Point"},"properties":{"osm_id":"5996361630","tag":{"amenity":"waste_basket"}},"type":"Feature"},
	{"geometry":{"coordinates":[14.549043,53.539792],"type":"Point"},"properties":{"osm_id":"5996361632","tag":{"amenity":"waste_basket"}},"type":"Feature"},
	{"geometry":{"coordinates":[14.550249,53.539665],"type":"Point"},"properties":{"osm_id":"5996361637","tag":{"amenity":"waste_basket"}},"type":"Feature"},
	{"geometry":{"coordinates":[14.550022,53.539607],"type":"Point"},"properties":{"osm_id":"5996361638","tag":{"amenity":"waste_basket"}},"type":"Feature"},
	{"geometry":{"coordinates":[14.549428,53.539606],"type":"Point"},"properties":{"osm_id":"5996361639","tag":{"amenity":"waste_basket"}},"type":"Feature"},
	{"geometry":{"coordinates":[14.548745,53.539654],"type":"Point"},"properties":{"osm_id":"5996361640","tag":{"amenity":"waste_basket"}},"type":"Feature"},
	{"geometry":{"coordinates":[14.547908,53.539476],"type":"Point"},"properties":{"osm_id":"5996361641","tag":{"amenity":"waste_disposal","operator":"Trans-net"}},"type":"Feature"},
	{"geometry":{"coordinates":[14.54693,53.539158],"type":"Point"},"properties":{"osm_id":"5996361643","tag":{"amenity":"waste_basket"}},"type":"Feature"},
	{"geometry":{"coordinates":[14.547077,53.539184],"type":"Point"},"properties":{"osm_id":"5996361644","tag":{"amenity":"waste_basket"}},"type":"Feature"},
	{"geometry":{"coordinates":[14.547246,53.539176],"type":"Point"},"properties":{"osm_id":"5996361645","tag":{"amenity":"waste_basket"}},"type":"Feature"},
	{"geometry":{"coordinates":[14.547128,53.538945],"type":"Point"},"properties":{"osm_id":"5996361648","tag":{"amenity":"waste_disposal","operator":"Trans-net","recycling_type":"container"}},"type":"Feature"},
	{"geometry":{"coordinates":[14.547662,53.538938],"type":"Point"},"properties":{"osm_id":"5996361649","tag":{"amenity":"waste_basket"}},"type":"Feature"},
	{"geometry":{"coordinates":[14.547184,53.538818],"type":"Point"},"properties":{"osm_id":"5996361650","tag":{"amenity":"waste_basket"}},"type":"Feature"},
	{"geometry":{"coordinates":[14.547178,53.538725],"type":"Point"},"properties":{"osm_id":"5996361654","tag":{"amenity":"waste_basket"}},"type":"Feature"},
	{"geometry":{"coordinates":[14.547344,53.538632],"type":"Point"},"properties":{"osm_id":"5996361655","tag":{"amenity":"waste_basket"}},"type":"Feature"},
	{"geometry":{"coordinates":[14.5474,53.538385],"type":"Point"},"properties":{"osm_id":"5996361662","tag":{"amenity":"waste_basket"}},"type":"Feature"},
	{"geometry":{"coordinates":[14.547408,53.538258],"type":"Point"},"properties":{"osm_id":"5996361663","tag":{"amenity":"waste_basket"}},"type":"Feature"},
	{"geometry":{"coordinates":[14.547426,53.538173],"type":"Point"},"properties":{"osm_id":"5996361670","tag":{"amenity":"waste_basket"}},"type":"Feature"},
	{"geometry":{"coordinates":[14.547383,53.537956],"type":"Point"},"properties":{"osm_id":"5996361675","tag":{"amenity":"waste_basket"}},"type":"Feature"},
	{"geometry":{"coordinates":[14.547745,53.537766],"type":"Point"},"properties":{"osm_id":"5996361676","tag":{"amenity":"waste_basket"}},"type":"Feature"},
	{"geometry":{"coordinates":[14.548316,53.537669],"type":"Point"},"properties":{"osm_id":"5996361678","tag":{"amenity":"waste_basket"}},"type":"Feature"},
	{"geometry":{"coordinates":[14.54791,53.538023],"type":"Point"},"properties":{"osm_id":"5996361682","tag":{"amenity":"waste_basket"}},"type":"Feature"},
	{"geometry":{"coordinates":[14.548263,53.537969],"type":"Point"},"properties":{"osm_id":"5996361690","tag":{"amenity":"waste_basket"}},"type":"Feature"},
	{"geometry":{"coordinates":[14.548493,53.538308],"type":"Point"},"properties":{"osm_id":"5996361697","tag":{"amenity":"waste_disposal","operator":"Trans-net","recycling_type":"container"}},"type":"Feature"},
	{"geometry":{"coordinates":[14.548197,53.538644],"type":"Point"},"properties":{"osm_id":"5996361700","tag":{"amenity":"waste_basket"}},"type":"Feature"},
	{"geometry":{"coordinates":[14.548111,53.53883],"type":"Point"},"properties":{"osm_id":"5996361707","tag":{"amenity":"waste_basket"}},"type":"Feature"},
	{"geometry":{"coordinates":[14.548223,53.539345],"type":"Point"},"properties":{"osm_id":"5996361718","tag":{"amenity":"waste_basket"}},"type":"Feature"},
	{"geometry":{"coordinates":[14.548447,53.53929],"type":"Point"},"properties":{"osm_id":"5996361721","tag":{"amenity":"waste_basket"}},"type":"Feature"},
	{"geometry":{"coordinates":[14.54826,53.53921],"type":"Point"},"properties":{"osm_id":"5996361723","tag":{"amenity":"waste_basket"}},"type":"Feature"},
	{"geometry":{"coordinates":[14.548916,53.53929],"type":"Point"},"properties":{"osm_id":"5996361729","tag":{"amenity":"waste_basket"}},"type":"Feature"},
	{"geometry":{"coordinates":[14.549523,53.539201],"type":"Point"},"properties":{"osm_id":"5996361736","tag":{"amenity":"waste_basket"}},"type":"Feature"},
	{"geometry":{"coordinates":[14.550003,53.539301],"type":"Point"},"properties":{"osm_id":"5996361744","tag":{"amenity":"waste_basket"}},"type":"Feature"},
	{"geometry":{"coordinates":[14.550299,53.539134],"type":"Point"},"properties":{"osm_id":"5996361747","tag":{"amenity":"waste_basket"}},"type":"Feature"},
	{"geometry":{"coordinates":[14.550228,53.539271],"type":"Point"},"properties":{"osm_id":"5996361749","tag":{"amenity":"waste_basket"}},"type":"Feature"},
	{"geometry":{"coordinates":[14.550662,53.539094],"type":"Point"},"properties":{"osm_id":"5996361750","tag":{"amenity":"waste_basket"}},"type":"Feature"},
	{"geometry":{"coordinates":[14.551078,53.5392],"type":"Point"},"properties":{"osm_id":"5996361758","tag":{"amenity":"waste_basket"}},"type":"Feature"},
	{"geometry":{"coordinates":[14.551071,53.539337],"type":"Point"},"properties":{"osm_id":"5996361759","tag":{"amenity":"waste_basket"}},"type":"Feature"},
	{"geometry":{"coordinates":[14.550836,53.539422],"type":"Point"},"properties":{"osm_id":"5996361765","tag":{"amenity":"waste_basket"}},"type":"Feature"},
	{"geometry":{"coordinates":[14.551093,53.539607],"type":"Point"},"properties":{"osm_id":"5996361766","tag":{"amenity":"waste_basket"}},"type":"Feature"},
	{"geometry":{"coordinates":[14.55083,53.539802],"type":"Point"},"properties":{"osm_id":"5996361768","tag":{"amenity":"waste_basket"}},"type":"Feature"},
	{"geometry":{"coordinates":[14.550727,53.5396],"type":"Point"},"properties":{"osm_id":"5996361771","tag":{"amenity":"waste_basket"}},"type":"Feature"},
	{"geometry":{"coordinates":[14.550446,53.539574],"type":"Point"},"properties":{"osm_id":"5996361774","tag":{"amenity":"waste_basket"}},"type":"Feature"},
	{"geometry":{"coordinates":[14.550559,53.53923],"type":"Point"},"properties":{"osm_id":"5996361782","tag":{"amenity":"waste_basket"}},"type":"Feature"},
	{"geometry":{"coordinates":[14.550919,53.53904],"type":"Point"},"properties":{"osm_id":"5996361786","tag":{"amenity":"waste_basket"}},"type":"Feature"},
	{"geometry":{"coordinates":[14.550907,53.538914],"type":"Point"},"properties":{"osm_id":"5996361787","tag":{"amenity":"waste_basket"}},"type":"Feature"},
	{"geometry":{"coordinates":[14.550931,53.538795],"type":"Point"},"properties":{"osm_id":"5996361788","tag":{"amenity":"waste_basket"}},"type":"Feature"},
	{"geometry":{"coordinates":[14.578266,53.538467],"type":"Point"},"properties":{"osm_id":"5998746458","tag":{"amenity":"waste_basket"}},"type":"Feature"},
	{"geometry":{"coordinates":[14.57893,53.536409],"type":"Point"},"properties":{"osm_id":"5998746459","tag":{"amenity":"waste_disposal","operator":"Trans-net","recycling_type":"container"}},"type":"Feature"},
	{"geometry":{"coordinates":[14.553759,53.537376],"type":"Point"},"properties":{"osm_id":"6001940596","tag":{"amenity":"waste_basket"}},"type":"Feature"},
	{"geometry":{"coordinates":[14.553652,53.537097],"type":"Point"},"properties":{"osm_id":"6001940610","tag":{"amenity":"waste_basket"}},"type":"Feature"},
	{"geometry":{"coordinates":[14.553221,53.537103],"type":"Point"},"properties":{"osm_id":"6001940611","tag":{"amenity":"waste_basket"}},"type":"Feature"},
	{"geometry":{"coordinates":[14.552744,53.537111],"type":"Point"},"properties":{"osm_id":"6001940612","tag":{"amenity":"waste_basket"}},"type":"Feature"},
	{"geometry":{"coordinates":[14.558209,53.538867],"type":"Point"},"properties":{"osm_id":"6001940621","tag":{"amenity":"waste_basket"}},"type":"Feature"},
	{"geometry":{"coordinates":[14.561762,53.539474],"type":"Point"},"properties":{"osm_id":"6001940623","tag":{"amenity":"waste_basket"}},"type":"Feature"},
	{"geometry":{"coordinates":[14.556615,53.538364],"type":"Point"},"properties":{"osm_id":"6003260666","tag":{"amenity":"waste_basket"}},"type":"Feature"},
	{"geometry":{"coordinates":[14.583292,53.494766],"type":"Point"},"properties":{"osm_id":"6003311225","tag":{"amenity":"waste_basket"}},"type":"Feature"},
	{"geometry":{"coordinates":[14.561882,53.539911],"type":"Point"},"properties":{"osm_id":"6005560435","tag":{"amenity":"waste_basket"}},"type":"Feature"},
	{"geometry":{"coordinates":[14.561801,53.540244],"type":"Point"},"properties":{"osm_id":"6005560436","tag":{"amenity":"waste_basket"}},"type":"Feature"},
	{"geometry":{"coordinates":[14.562557,53.540254],"type":"Point"},"properties":{"osm_id":"6005560440","tag":{"amenity":"waste_basket"}},"type":"Feature"},
	{"geometry":{"coordinates":[14.561425,53.540168],"type":"Point"},"properties":{"osm_id":"6005560460","tag":{"amenity":"waste_basket"}},"type":"Feature"},
	{"geometry":{"coordinates":[14.561371,53.540305],"type":"Point"},"properties":{"osm_id":"6005560463","tag":{"amenity":"waste_basket"}},"type":"Feature"},
	{"geometry":{"coordinates":[14.561289,53.540253],"type":"Point"},"properties":{"osm_id":"6005560464","tag":{"amenity":"waste_basket"}},"type":"Feature"},
	{"geometry":{"coordinates":[14.560443,53.539942],"type":"Point"},"properties":{"osm_id":"6005560469","tag":{"amenity":"waste_basket"}},"type":"Feature"},
	{"geometry":{"coordinates":[14.560978,53.54028],"type":"Point"},"properties":{"osm_id":"6005560477","tag":{"amenity":"waste_basket"}},"type":"Feature"},
	{"geometry":{"coordinates":[14.551482,53.540204],"type":"Point"},"properties":{"osm_id":"6005938869","tag":{"amenity":"waste_basket"}},"type":"Feature"},
	{"geometry":{"coordinates":[14.551764,53.540004],"type":"Point"},"properties":{"osm_id":"6005938870","tag":{"amenity":"waste_basket"}},"type":"Feature"},
	{"geometry":{"coordinates":[14.551836,53.539983],"type":"Point"},"properties":{"osm_id":"6005938871","tag":{"amenity":"waste_basket"}},"type":"Feature"},
	{"geometry":{"coordinates":[14.552004,53.539943],"type":"Point"},"properties":{"osm_id":"6005938872","tag":{"amenity":"recycling","recycling_type":"container"}},"type":"Feature"},
	{"geometry":{"coordinates":[14.552608,53.539754],"type":"Point"},"properties":{"osm_id":"6005938874","tag":{"amenity":"waste_basket"}},"type":"Feature"},
	{"geometry":{"coordinates":[14.552718,53.539371],"type":"Point"},"properties":{"osm_id":"6005938875","tag":{"amenity":"waste_basket"}},"type":"Feature"},
	{"geometry":{"coordinates":[14.552753,53.539225],"type":"Point"},"properties":{"osm_id":"6005938879","tag":{"amenity":"recycling","location":"underground","recycling_type":"container"}},"type":"Feature"},
	{"geometry":{"coordinates":[14.552269,53.539389],"type":"Point"},"properties":{"osm_id":"6005938883","tag":{"amenity":"waste_basket"}},"type":"Feature"},
	{"geometry":{"coordinates":[14.552521,53.538967],"type":"Point"},"properties":{"osm_id":"6005938884","tag":{"amenity":"waste_basket"}},"type":"Feature"},
	{"geometry":{"coordinates":[14.552271,53.539018],"type":"Point"},"properties":{"osm_id":"6005939385","tag":{"amenity":"waste_basket"}},"type":"Feature"},
	{"geometry":{"coordinates":[14.552686,53.53859],"type":"Point"},"properties":{"osm_id":"6005939387","tag":{"amenity":"waste_basket"}},"type":"Feature"},
	{"geometry":{"coordinates":[14.559327,53.540172],"type":"Point"},"properties":{"osm_id":"6006647247","tag":{"amenity":"waste_basket"}},"type":"Feature"},
	{"geometry":{"coordinates":[14.550256,53.537981],"type":"Point"},"properties":{"osm_id":"6012002802","tag":{"amenity":"waste_basket"}},"type":"Feature"},
	{"geometry":{"coordinates":[14.550263,53.538235],"type":"Point"},"properties":{"osm_id":"6012002803","tag":{"amenity":"waste_basket"}},"type":"Feature"},
	{"geometry":{"coordinates":[14.543287,53.539728],"type":"Point"},"properties":{"osm_id":"6012002814","tag":{"amenity":"waste_basket"}},"type":"Feature"},
	{"geometry":{"coordinates":[14.542665,53.539937],"type":"Point"},"properties":{"osm_id":"6012002817","tag":{"amenity":"waste_basket"}},"type":"Feature"},
	{"geometry":{"coordinates":[14.582938,53.495421],"type":"Point"},"properties":{"osm_id":"6012002831","tag":{"amenity":"recycling","recycling:clothes":"yes","recycling:shoes":"yes","recycling_type":"container"}},"type":"Feature"},
	{"geometry":{"coordinates":[14.538877,53.538529],"type":"Point"},"properties":{"osm_id":"6017898187","tag":{"amenity":"recycling","recycling_type":"container"}},"type":"Feature"},
	{"geometry":{"coordinates":[14.539477,53.53886],"type":"Point"},"properties":{"osm_id":"6017898188","tag":{"amenity":"waste_basket"}},"type":"Feature"},
	{"geometry":{"coordinates":[14.539689,53.538872],"type":"Point"},"properties":{"osm_id":"6017898190","tag":{"amenity":"recycling","recycling_type":"container"}},"type":"Feature"},
	{"geometry":{"coordinates":[14.539769,53.538911],"type":"Point"},"properties":{"osm_id":"6017898191","tag":{"amenity":"waste_basket"}},"type":"Feature"},
	{"geometry":{"coordinates":[14.538969,53.538845],"type":"Point"},"properties":{"osm_id":"6017898192","tag":{"amenity":"waste_basket"}},"type":"Feature"},
	{"geometry":{"coordinates":[14.538668,53.538838],"type":"Point"},"properties":{"osm_id":"6017898197","tag":{"amenity":"waste_basket"}},"type":"Feature"},
	{"geometry":{"coordinates":[14.538043,53.538784],"type":"Point"},"properties":{"osm_id":"6017898200","tag":{"amenity":"waste_basket"}},"type":"Feature"},
	{"geometry":{"coordinates":[14.536608,53.539741],"type":"Point"},"properties":{"osm_id":"6017898211","tag":{"amenity":"waste_basket"}},"type":"Feature"},
	{"geometry":{"coordinates":[14.546365,53.53809],"type":"Point"},"properties":{"osm_id":"6017898218","tag":{"amenity":"waste_basket"}},"type":"Feature"},
	{"geometry":{"coordinates":[14.545879,53.539424],"type":"Point"},"properties":{"osm_id":"6017898220","tag":{"amenity":"waste_basket"}},"type":"Feature"},
	{"geometry":{"coordinates":[14.546265,53.539419],"type":"Point"},"properties":{"osm_id":"6017898221","tag":{"amenity":"waste_basket"}},"type":"Feature"},
	{"geometry":{"coordinates":[14.536619,53.539992],"type":"Point"},"properties":{"osm_id":"6017898222","tag":{"amenity":"waste_basket"}},"type":"Feature"},
	{"geometry":{"coordinates":[14.536616,53.540183],"type":"Point"},"properties":{"osm_id":"6017898223","tag":{"amenity":"waste_basket"}},"type":"Feature"},
	{"geometry":{"coordinates":[14.539239,53.5394],"type":"Point"},"properties":{"osm_id":"6017898265","tag":{"amenity":"waste_basket"}},"type":"Feature"},
	{"geometry":{"coordinates":[14.539471,53.539434],"type":"Point"},"properties":{"osm_id":"6017898266","tag":{"amenity":"waste_basket"}},"type":"Feature"},
	{"geometry":{"coordinates":[14.539779,53.539523],"type":"Point"},"properties":{"osm_id":"6017898274","tag":{"amenity":"waste_basket"}},"type":"Feature"},
	{"geometry":{"coordinates":[14.539597,53.540251],"type":"Point"},"properties":{"osm_id":"6017898276","tag":{"amenity":"waste_basket"}},"type":"Feature"},
	{"geometry":{"coordinates":[14.544603,53.539736],"type":"Point"},"properties":{"osm_id":"6017898299","tag":{"amenity":"waste_basket"}},"type":"Feature"},
	{"geometry":{"coordinates":[14.544716,53.539728],"type":"Point"},"properties":{"osm_id":"6017898301","tag":{"amenity":"waste_basket"}},"type":"Feature"},
	{"geometry":{"coordinates":[14.544468,53.539877],"type":"Point"},"properties":{"osm_id":"6017898304","tag":{"amenity":"waste_basket"}},"type":"Feature"},
	{"geometry":{"coordinates":[14.542051,53.538621],"type":"Point"},"properties":{"osm_id":"6034047833","tag":{"amenity":"waste_basket"}},"type":"Feature"},
	{"geometry":{"coordinates":[14.574049,53.491382],"type":"Point"},"properties":{"osm_id":"6037867267","tag":{"amenity":"waste_basket"}},"type":"Feature"},
	{"geometry":{"coordinates":[14.552002,53.537693],"type":"Point"},"properties":{"osm_id":"6050157356","tag":{"amenity":"waste_basket"}},"type":"Feature"},
	{"geometry":{"coordinates":[14.551892,53.537929],"type":"Point"},"properties":{"osm_id":"6050157357","tag":{"amenity":"waste_basket"}},"type":"Feature"},
	{"geometry":{"coordinates":[14.551892,53.538063],"type":"Point"},"properties":{"osm_id":"6050157358","tag":{"amenity":"waste_basket"}},"type":"Feature"},
	{"geometry":{"coordinates":[14.551985,53.538346],"type":"Point"},"properties":{"osm_id":"6050157359","tag":{"amenity":"waste_basket"}},"type":"Feature"},
	{"geometry":{"coordinates":[14.551929,53.538498],"type":"Point"},"properties":{"osm_id":"6050157360","tag":{"amenity":"waste_basket"}},"type":"Feature"},
	{"geometry":{"coordinates":[14.551941,53.538648],"type":"Point"},"properties":{"osm_id":"6050157365","tag":{"amenity":"waste_basket"}},"type":"Feature"},
	{"geometry":{"coordinates":[14.561979,53.539928],"type":"Point"},"properties":{"osm_id":"6061826770","tag":{"amenity":"waste_basket"}},"type":"Feature"},
	{"geometry":{"coordinates":[14.551428,53.538141],"type":"Point"},"properties":{"osm_id":"6061829804","tag":{"amenity":"waste_basket"}},"type":"Feature"},
	{"geometry":{"coordinates":[14.55132,53.538221],"type":"Point"},"properties":{"osm_id":"6061829805","tag":{"amenity":"waste_basket"}},"type":"Feature"},
	{"geometry":{"coordinates":[14.551313,53.538098],"type":"Point"},"properties":{"osm_id":"6061829806","tag":{"amenity":"waste_basket"}},"type":"Feature"},
	{"geometry":{"coordinates":[14.551308,53.537977],"type":"Point"},"properties":{"osm_id":"6061829807","tag":{"amenity":"waste_basket"}},"type":"Feature"},
	{"geometry":{"coordinates":[14.551311,53.53785],"type":"Point"},"properties":{"osm_id":"6061829808","tag":{"amenity":"waste_basket"}},"type":"Feature"},
	{"geometry":{"coordinates":[14.551312,53.538354],"type":"Point"},"properties":{"osm_id":"6061829809","tag":{"amenity":"waste_basket"}},"type":"Feature"},
	{"geometry":{"coordinates":[14.551311,53.538486],"type":"Point"},"properties":{"osm_id":"6061829810","tag":{"amenity":"waste_basket"}},"type":"Feature"},
	{"geometry":{"coordinates":[14.551458,53.53871],"type":"Point"},"properties":{"osm_id":"6061829812","tag":{"amenity":"waste_basket"}},"type":"Feature"},
	{"geometry":{"coordinates":[14.551262,53.538651],"type":"Point"},"properties":{"osm_id":"6061829813","tag":{"amenity":"recycling","recycling_type":"container"}},"type":"Feature"},
	{"geometry":{"coordinates":[14.551064,53.538735],"type":"Point"},"properties":{"osm_id":"6061829815","tag":{"amenity":"waste_basket"}},"type":"Feature"},
	{"geometry":{"coordinates":[14.550036,53.535749],"type":"Point"},"properties":{"osm_id":"6117247704","tag":{"amenity":"waste_basket"}},"type":"Feature"},
	{"geometry":{"coordinates":[14.549035,53.536396],"type":"Point"},"properties":{"osm_id":"6117247722","tag":{"amenity":"waste_basket"}},"type":"Feature"},
	{"geometry":{"coordinates":[14.54854,53.538297],"type":"Point"},"properties":{"osm_id":"6126779764","tag":{"amenity":"recycling","recycling_type":"container"}},"type":"Feature"},
	{"geometry":{"coordinates":[14.548196,53.539548],"type":"Point"},"properties":{"osm_id":"6153869747","tag":{"amenity":"waste_basket"}},"type":"Feature"},
	{"geometry":{"coordinates":[14.548197,53.539702],"type":"Point"},"properties":{"osm_id":"6153869749","tag":{"amenity":"waste_basket"}},"type":"Feature"},
	{"geometry":{"coordinates":[14.548199,53.540154],"type":"Point"},"properties":{"osm_id":"6153869760","tag":{"amenity":"waste_basket"}},"type":"Feature"},
	{"geometry":{"coordinates":[14.562376,53.538091],"type":"Point"},"properties":{"osm_id":"6167841324","tag":{"amenity":"recycling","recycling:plastic":"yes","recycling_type":"container"}},"type":"Feature"},
	{"geometry":{"coordinates":[14.562554,53.538152],"type":"Point"},"properties":{"osm_id":"6167841325","tag":{"amenity":"waste_basket"}},"type":"Feature"},
	{"geometry":{"coordinates":[14.562443,53.538333],"type":"Point"},"properties":{"osm_id":"6167841326","tag":{"amenity":"waste_basket"}},"type":"Feature"},
	{"geometry":{"coordinates":[14.562639,53.538423],"type":"Point"},"properties":{"osm_id":"6167841327","tag":{"amenity":"waste_basket"}},"type":"Feature"},
	{"geometry":{"coordinates":[14.562078,53.538596],"type":"Point"},"properties":{"osm_id":"6167841328","tag":{"amenity":"waste_basket"}},"type":"Feature"},
	{"geometry":{"coordinates":[14.562144,53.538694],"type":"Point"},"properties":{"osm_id":"6167841329","tag":{"amenity":"waste_basket"}},"type":"Feature"},
	{"geometry":{"coordinates":[14.562849,53.538706],"type":"Point"},"properties":{"osm_id":"6169244758","tag":{"amenity":"waste_basket"}},"type":"Feature"},
	{"geometry":{"coordinates":[14.562789,53.538813],"type":"Point"},"properties":{"osm_id":"6169244760","tag":{"amenity":"waste_basket"}},"type":"Feature"},
	{"geometry":{"coordinates":[14.562985,53.53891],"type":"Point"},"properties":{"osm_id":"6169244761","tag":{"amenity":"waste_basket"}},"type":"Feature"},
	{"geometry":{"coordinates":[14.562778,53.538946],"type":"Point"},"properties":{"osm_id":"6169244762","tag":{"amenity":"waste_basket"}},"type":"Feature"},
	{"geometry":{"coordinates":[14.562549,53.538712],"type":"Point"},"properties":{"osm_id":"6169244763","tag":{"amenity":"waste_basket"}},"type":"Feature"},
	{"geometry":{"coordinates":[14.562438,53.53871],"type":"Point"},"properties":{"osm_id":"6169244764","tag":{"amenity":"waste_basket"}},"type":"Feature"},
	{"geometry":{"coordinates":[14.542989,53.538411],"type":"Point"},"properties":{"osm_id":"6173507218","tag":{"amenity":"waste_basket"}},"type":"Feature"},
	{"geometry":{"coordinates":[14.542421,53.538526],"type":"Point"},"properties":{"osm_id":"6173507228","tag":{"amenity":"waste_basket"}},"type":"Feature"},
	{"geometry":{"coordinates":[14.542011,53.538512],"type":"Point"},"properties":{"osm_id":"6173507229","tag":{"amenity":"waste_basket"}},"type":"Feature"},
	{"geometry":{"coordinates":[14.549295,53.536491],"type":"Point"},"properties":{"osm_id":"6184391937","tag":{"amenity":"waste_basket"}},"type":"Feature"},
	{"geometry":{"coordinates":[14.541355,53.540024],"type":"Point"},"properties":{"osm_id":"6221367582","tag":{"amenity":"waste_basket"}},"type":"Feature"},
	{"geometry":{"coordinates":[14.541002,53.53999],"type":"Point"},"properties":{"osm_id":"6221369085","tag":{"amenity":"waste_basket"}},"type":"Feature"},
	{"geometry":{"coordinates":[14.540819,53.540027],"type":"Point"},"properties":{"osm_id":"6221369086","tag":{"amenity":"waste_basket"}},"type":"Feature"},
	{"geometry":{"coordinates":[14.54056,53.539991],"type":"Point"},"properties":{"osm_id":"6221369087","tag":{"amenity":"waste_basket"}},"type":"Feature"},
	{"geometry":{"coordinates":[14.540197,53.539991],"type":"Point"},"properties":{"osm_id":"6221369097","tag":{"amenity":"waste_basket"}},"type":"Feature"},
	{"geometry":{"coordinates":[14.540631,53.540188],"type":"Point"},"properties":{"osm_id":"6221369104","tag":{"amenity":"waste_basket"}},"type":"Feature"},
	{"geometry":{"coordinates":[14.542472,53.539783],"type":"Point"},"properties":{"osm_id":"6274743835","tag":{"amenity":"waste_basket"}},"type":"Feature"},
	{"geometry":{"coordinates":[14.553833,53.537641],"type":"Point"},"properties":{"osm_id":"6296710288","tag":{"amenity":"recycling","recycling:clothes":"yes","recycling_type":"container"}},"type":"Feature"},
	{"geometry":{"coordinates":[14.578896,53.536429],"type":"Point"},"properties":{"osm_id":"6309155582","tag":{"amenity":"recycling","recycling:clothes":"yes","recycling:glass":"yes","recycling:paper":"yes","recycling:plastic":"yes","recycling_type":"container"}},"type":"Feature"},
	{"geometry":{"coordinates":[14.560219,53.511065],"type":"Point"},"properties":{"osm_id":"6323783792","tag":{"amenity":"waste_basket"}},"type":"Feature"},
	{"geometry":{"coordinates":[14.563474,53.53807],"type":"Point"},"properties":{"osm_id":"6335009849","tag":{"amenity":"recycling","recycling:clothes":"yes","recycling_type":"container"}},"type":"Feature"},
	{"geometry":{"coordinates":[14.549825,53.53725],"type":"Point"},"properties":{"osm_id":"6353009776","tag":{"amenity":"recycling","recycling:clothes":"yes","recycling_type":"container"}},"type":"Feature"},
	{"geometry":{"coordinates":[14.534285,53.525571],"type":"Point"},"properties":{"osm_id":"6362361224","tag":{"amenity":"waste_disposal","operator":"Nadle\u00c5\u009bnictwo Trzebie\u00c5\u00bc"}},"type":"Feature"},
	{"geometry":{"coordinates":[14.545338,53.538085],"type":"Point"},"properties":{"osm_id":"6403092172","tag":{"amenity":"recycling","recycling:clothes":"yes","recycling_type":"container"}},"type":"Feature"},
	{"geometry":{"coordinates":[14.552558,53.538525],"type":"Point"},"properties":{"osm_id":"6420697176","tag":{"amenity":"waste_basket"}},"type":"Feature"},
	{"geometry":{"coordinates":[14.542344,53.539559],"type":"Point"},"properties":{"osm_id":"6432742960","tag":{"amenity":"waste_basket"}},"type":"Feature"},
	{"geometry":{"coordinates":[14.541872,53.539514],"type":"Point"},"properties":{"osm_id":"6432742962","tag":{"amenity":"waste_disposal"}},"type":"Feature"},
	{"geometry":{"coordinates":[14.541542,53.539527],"type":"Point"},"properties":{"osm_id":"6432742963","tag":{"amenity":"waste_disposal"}},"type":"Feature"},
	{"geometry":{"coordinates":[14.541086,53.539365],"type":"Point"},"properties":{"osm_id":"6432742969","tag":{"amenity":"waste_basket"}},"type":"Feature"},
	{"geometry":{"coordinates":[14.540573,53.539434],"type":"Point"},"properties":{"osm_id":"6432742973","tag":{"amenity":"waste_disposal"}},"type":"Feature"},
	{"geometry":{"coordinates":[14.540407,53.539283],"type":"Point"},"properties":{"osm_id":"6432742974","tag":{"amenity":"waste_disposal"}},"type":"Feature"},
	{"geometry":{"coordinates":[14.544804,53.539162],"type":"Point"},"properties":{"osm_id":"6453181424","tag":{"amenity":"recycling","operator":"PCK","recycling:clothes":"yes","recycling_type":"container"}},"type":"Feature"},
	{"geometry":{"coordinates":[14.585201,53.490894],"type":"Point"},"properties":{"osm_id":"6769275526","tag":{"amenity":"waste_disposal"}},"type":"Feature"},
	{"geometry":{"coordinates":[14.561324,53.539507],"type":"Point"},"properties":{"osm_id":"7214145213","tag":{"amenity":"recycling","recycling:clothes":"yes","recycling_type":"container"}},"type":"Feature"},
	{"geometry":{"coordinates":[14.555417,53.538423],"type":"Point"},"properties":{"osm_id":"7685839711","tag":{"amenity":"waste_basket"}},"type":"Feature"},
	{"geometry":{"coordinates":[14.549484,53.537588],"type":"Point"},"properties":{"osm_id":"7685839732","tag":{"amenity":"waste_basket"}},"type":"Feature"},
	{"geometry":{"coordinates":[14.548715,53.538695],"type":"Point"},"properties":{"osm_id":"7685857502","tag":{"amenity":"waste_basket"}},"type":"Feature"},
	{"geometry":{"coordinates":[14.549283,53.538774],"type":"Point"},"properties":{"osm_id":"7685857509","tag":{"amenity":"waste_basket"}},"type":"Feature"},
	{"geometry":{"coordinates":[14.549343,53.539036],"type":"Point"},"properties":{"osm_id":"7685857510","tag":{"amenity":"waste_basket"}},"type":"Feature"},
	{"geometry":{"coordinates":[14.540149,53.54024],"type":"Point"},"properties":{"osm_id":"7696248015","tag":{"amenity":"waste_disposal"}},"type":"Feature"},
	{"geometry":{"coordinates":[14.576757,53.525317],"type":"Point"},"properties":{"osm_id":"7802134970","tag":{"amenity":"waste_basket"}},"type":"Feature"}
]
}
