{
"type": "FeatureCollection",
"features": [
	{"geometry":{"coordinates":[14.554386,52.345113],"type":"Point"},"properties":{"osm_id":"327413053","tag":{"amenity":"recycling","location":"overground","recycling:glass_bottles":"yes","recycling:paper":"yes","recycling_type":"container"}},"type":"Feature"},
	{"geometry":{"coordinates":[14.525316,52.343309],"type":"Point"},"properties":{"osm_id":"329082026","tag":{"amenity":"recycling","location":"overground","recycling:glass_bottles":"yes","recycling:paper":"yes","recycling_type":"container"}},"type":"Feature"},
	{"geometry":{"coordinates":[14.550264,52.346101],"type":"Point"},"properties":{"osm_id":"331177370","tag":{"amenity":"recycling","recycling:clothes":"yes","recycling:shoes":"yes","recycling_type":"container"}},"type":"Feature"},
	{"geometry":{"coordinates":[14.538196,52.335797],"type":"Point"},"properties":{"osm_id":"475714317","tag":{"amenity":"recycling","location":"overground","recycling:glass":"yes","recycling:paper":"yes","recycling_type":"container"}},"type":"Feature"},
	{"geometry":{"coordinates":[14.539575,52.332067],"type":"Point"},"properties":{"osm_id":"481099824","tag":{"amenity":"recycling","recycling:glass_bottles":"yes","recycling:paper":"yes","recycling_type":"container"}},"type":"Feature"},
	{"geometry":{"coordinates":[14.540596,52.334784],"type":"Point"},"properties":{"osm_id":"481099825","tag":{"amenity":"recycling","recycling:glass":"yes","recycling:paper":"yes","recycling_type":"container"}},"type":"Feature"},
	{"geometry":{"coordinates":[14.514543,52.329964],"type":"Point"},"properties":{"osm_id":"525579749","tag":{"amenity":"recycling","recycling:paper":"yes"}},"type":"Feature"},
	{"geometry":{"coordinates":[14.543382,52.364517],"type":"Point"},"properties":{"osm_id":"560089639","tag":{"amenity":"recycling"}},"type":"Feature"},
	{"geometry":{"coordinates":[14.507844,52.323323],"type":"Point"},"properties":{"osm_id":"582998475","tag":{"amenity":"recycling"}},"type":"Feature"},
	{"geometry":{"coordinates":[14.533799,52.335811],"type":"Point"},"properties":{"osm_id":"703634656","tag":{"amenity":"recycling","recycling:clothes":"yes"}},"type":"Feature"},
	{"geometry":{"coordinates":[14.536194,52.335913],"type":"Point"},"properties":{"osm_id":"738260399","tag":{"amenity":"recycling","location":"overground","recycling:glass":"yes","recycling:paper":"yes","recycling_type":"container"}},"type":"Feature"},
	{"geometry":{"coordinates":[14.555396,52.33413],"type":"Point"},"properties":{"osm_id":"794066186","tag":{"amenity":"recycling","recycling:glass":"yes","recycling_type":"container"}},"type":"Feature"},
	{"geometry":{"coordinates":[14.546925,52.333219],"type":"Point"},"properties":{"osm_id":"863061218","tag":{"amenity":"recycling","recycling:glass":"yes"}},"type":"Feature"},
	{"geometry":{"coordinates":[14.54272,52.332439],"type":"Point"},"properties":{"osm_id":"1403147935","tag":{"amenity":"recycling","recycling:glass":"yes"}},"type":"Feature"},
	{"geometry":{"coordinates":[14.537352,52.333791],"type":"Point"},"properties":{"osm_id":"1403148331","tag":{"amenity":"recycling","recycling:glass":"yes"}},"type":"Feature"},
	{"geometry":{"coordinates":[14.532368,52.354176],"type":"Point"},"properties":{"osm_id":"1408403942","tag":{"amenity":"recycling","recycling:glass":"yes"}},"type":"Feature"},
	{"geometry":{"coordinates":[14.508575,52.331007],"type":"Point"},"properties":{"osm_id":"1417851454","tag":{"amenity":"recycling","recycling:glass":"yes"}},"type":"Feature"},
	{"geometry":{"coordinates":[14.539441,52.330136],"type":"Point"},"properties":{"osm_id":"1427774310","tag":{"addr:city":"Frankfurt (Oder)","addr:housenumber":"2","addr:postcode":"15232","addr:street":"Aurorah\u00c3\u00bcgel","amenity":"recycling","recycling:glass":"yes"}},"type":"Feature"},
	{"geometry":{"coordinates":[14.583353,52.345867],"type":"Point"},"properties":{"osm_id":"1604882566","tag":{"amenity":"recycling","recycling:glass":"yes","recycling:paper":"yes"}},"type":"Feature"},
	{"geometry":{"coordinates":[14.53327,52.352696],"type":"Point"},"properties":{"osm_id":"1618758256","tag":{"amenity":"recycling","location":"overground","recycling:clothes":"yes","recycling:glass":"yes","recycling_type":"container"}},"type":"Feature"},
	{"geometry":{"coordinates":[14.521295,52.333453],"type":"Point"},"properties":{"osm_id":"1850070042","tag":{"amenity":"recycling","recycling:clothes":"yes","recycling:glass":"yes"}},"type":"Feature"},
	{"geometry":{"coordinates":[14.547529,52.33427],"type":"Point"},"properties":{"osm_id":"1871435401","tag":{"amenity":"recycling","recycling:glass":"yes"}},"type":"Feature"},
	{"geometry":{"coordinates":[14.516606,52.326795],"type":"Point"},"properties":{"osm_id":"1875853280","tag":{"amenity":"recycling","recycling:glass":"yes"}},"type":"Feature"},
	{"geometry":{"coordinates":[14.514433,52.329354],"type":"Point"},"properties":{"osm_id":"1875853350","tag":{"amenity":"recycling","recycling:glass":"yes"}},"type":"Feature"},
	{"geometry":{"coordinates":[14.51931,52.331119],"type":"Point"},"properties":{"osm_id":"1875856705","tag":{"amenity":"recycling","recycling:glass":"yes"}},"type":"Feature"},
	{"geometry":{"coordinates":[14.547376,52.335308],"type":"Point"},"properties":{"osm_id":"4359243471","tag":{"amenity":"waste_basket","level":"1"}},"type":"Feature"},
	{"geometry":{"coordinates":[14.547621,52.335416],"type":"Point"},"properties":{"osm_id":"4359243473","tag":{"amenity":"waste_basket","level":"1"}},"type":"Feature"},
	{"geometry":{"coordinates":[14.522016,52.333348],"type":"Point"},"properties":{"osm_id":"4552948733","tag":{"amenity":"recycling","recycling:glass_bottles":"yes","recycling_type":"container"}},"type":"Feature"},
	{"geometry":{"coordinates":[14.548131,52.325644],"type":"Point"},"properties":{"osm_id":"6579084745","tag":{"amenity":"recycling","material":"glass","recycling:glass":"yes","recycling_type":"container"}},"type":"Feature"},
	{"geometry":{"coordinates":[14.517667,52.346686],"type":"Point"},"properties":{"osm_id":"6793925421","tag":{"amenity":"recycling","recycling:cardboard":"yes","recycling:clothes":"yes","recycling:glass_bottles":"yes","recycling:paper":"yes","recycling:shoes":"yes","recycling_type":"container"}},"type":"Feature"},
	{"geometry":{"coordinates":[14.521247,52.346047],"type":"Point"},"properties":{"osm_id":"6800077807","tag":{"amenity":"recycling","opening_hours":"24/7","recycling:cardboard":"yes","recycling:clothes":"yes","recycling:glass_bottles":"yes","recycling:paper":"yes","recycling:shoes":"yes","recycling_type":"container"}},"type":"Feature"},
	{"geometry":{"coordinates":[14.541576,52.346409],"type":"Point"},"properties":{"osm_id":"6816005800","tag":{"amenity":"recycling","opening_hours":"24/7","recycling:cardboard":"yes","recycling:glass_bottles":"yes","recycling:paper":"yes","recycling_type":"container","wheelchair":"yes"}},"type":"Feature"},
	{"geometry":{"coordinates":[14.543694,52.347549],"type":"Point"},"properties":{"osm_id":"6816015697","tag":{"amenity":"recycling","opening_hours":"24/7","recycling:clothes":"yes","recycling:glass_bottles":"yes","recycling:shoes":"yes","recycling_type":"container","wheelchair":"yes"}},"type":"Feature"},
	{"geometry":{"coordinates":[14.512561,52.348098],"type":"Point"},"properties":{"osm_id":"6845221733","tag":{"amenity":"recycling","opening_hours":"24/7","recycling:cardboard":"yes","recycling:clothes":"yes","recycling:paper":"yes","recycling:shoes":"yes","recycling_type":"container","wheelchair":"limited"}},"type":"Feature"},
	{"geometry":{"coordinates":[14.506819,52.347675],"type":"Point"},"properties":{"osm_id":"6845221734","tag":{"amenity":"recycling","opening_hours":"24/7","recycling:cardboard":"yes","recycling:clothes":"yes","recycling:glass_bottles":"yes","recycling:paper":"yes","recycling:shoes":"yes","recycling_type":"container","wheelchair":"limited"}},"type":"Feature"},
	{"geometry":{"coordinates":[14.515352,52.344676],"type":"Point"},"properties":{"osm_id":"6845308323","tag":{"amenity":"recycling","opening_hours":"24/7","recycling:cardboard":"yes","recycling:clothes":"yes","recycling:glass_bottles":"yes","recycling:paper":"yes","recycling:shoes":"yes","recycling_type":"container","wheelchair":"limited"}},"type":"Feature"},
	{"geometry":{"coordinates":[14.550724,52.340099],"type":"Point"},"properties":{"osm_id":"6848497693","tag":{"amenity":"recycling","opening_hours":"24/7","recycling:cardboard":"yes","recycling:clothes":"yes","recycling:glass_bottles":"yes","recycling:paper":"yes","recycling:shoes":"yes","recycling_type":"container","wheelchair":"limited"}},"type":"Feature"},
	{"geometry":{"coordinates":[14.550661,52.341335],"type":"Point"},"properties":{"osm_id":"6848497697","tag":{"amenity":"waste_basket","material":"metal","waste":"trash"}},"type":"Feature"},
	{"geometry":{"coordinates":[14.55062,52.341273],"type":"Point"},"properties":{"osm_id":"6848497701","tag":{"amenity":"waste_basket","material":"metal","waste":"trash"}},"type":"Feature"},
	{"geometry":{"coordinates":[14.550559,52.341561],"type":"Point"},"properties":{"osm_id":"6848497705","tag":{"amenity":"waste_basket","material":"metal","waste":"trash"}},"type":"Feature"},
	{"geometry":{"coordinates":[14.550646,52.341555],"type":"Point"},"properties":{"osm_id":"6848497706","tag":{"amenity":"waste_basket","material":"metal","waste":"trash"}},"type":"Feature"},
	{"geometry":{"coordinates":[14.550678,52.340869],"type":"Point"},"properties":{"osm_id":"6848497709","tag":{"amenity":"waste_basket","material":"metal","waste":"trash"}},"type":"Feature"},
	{"geometry":{"coordinates":[14.505758,52.348555],"type":"Point"},"properties":{"osm_id":"6861173190","tag":{"amenity":"waste_basket","waste":"trash"}},"type":"Feature"},
	{"geometry":{"coordinates":[14.50619,52.34859],"type":"Point"},"properties":{"osm_id":"6861173191","tag":{"amenity":"waste_basket","waste":"trash"}},"type":"Feature"},
	{"geometry":{"coordinates":[14.542602,52.345327],"type":"Point"},"properties":{"osm_id":"6974635775","tag":{"amenity":"recycling","opening_hours":"24/7","recycling:cardboard":"yes","recycling:clothes":"yes","recycling:glass_bottles":"yes","recycling:paper":"yes","recycling:shoes":"yes","recycling_type":"container","wheelchair":"limited"}},"type":"Feature"}
]
}
