{
"type": "FeatureCollection",
"features": [
	{"geometry":{"coordinates":[14.573879,51.004467],"type":"Point"},"properties":{"osm_id":"266412355","tag":{"amenity":"recycling","recycling_type":"container"}},"type":"Feature"},
	{"geometry":{"coordinates":[14.581561,51.005555],"type":"Point"},"properties":{"osm_id":"280951379","tag":{"amenity":"recycling","recycling_type":"container"}},"type":"Feature"},
	{"geometry":{"coordinates":[14.580399,51.0011],"type":"Point"},"properties":{"osm_id":"281132498","tag":{"amenity":"recycling","recycling_type":"container"}},"type":"Feature"},
	{"geometry":{"coordinates":[14.580922,51.012365],"type":"Point"},"properties":{"osm_id":"281630586","tag":{"amenity":"recycling","recycling_type":"container"}},"type":"Feature"},
	{"geometry":{"coordinates":[14.581223,50.989699],"type":"Point"},"properties":{"osm_id":"296164789","tag":{"amenity":"recycling","recycling_type":"container"}},"type":"Feature"},
	{"geometry":{"coordinates":[14.566785,50.998616],"type":"Point"},"properties":{"osm_id":"1118364918","tag":{"amenity":"recycling","recycling:glass":"yes","recycling:paper":"yes","recycling:plastic":"yes","recycling_type":"container"}},"type":"Feature"},
	{"geometry":{"coordinates":[14.572249,50.991218],"type":"Point"},"properties":{"osm_id":"1118364920","tag":{"amenity":"recycling","recycling_type":"container"}},"type":"Feature"},
	{"geometry":{"coordinates":[14.567636,50.98119],"type":"Point"},"properties":{"osm_id":"1118364922","tag":{"amenity":"recycling","recycling_type":"container"}},"type":"Feature"},
	{"geometry":{"coordinates":[14.570253,50.995945],"type":"Point"},"properties":{"osm_id":"1118364940","tag":{"amenity":"recycling","image":"https://storage8.openstreetcam.org/files/photo/2018/5/14/lth/1181089_b5344_5af8dae0a0956.jpg","recycling_type":"container","survey:date":"2018-05-14"}},"type":"Feature"},
	{"geometry":{"coordinates":[14.579222,51.004643],"type":"Point"},"properties":{"osm_id":"4560224744","tag":{"amenity":"waste_basket"}},"type":"Feature"},
	{"geometry":{"coordinates":[14.579188,51.004634],"type":"Point"},"properties":{"osm_id":"4560224745","tag":{"amenity":"waste_basket"}},"type":"Feature"},
	{"geometry":{"coordinates":[14.525226,50.960657],"type":"Point"},"properties":{"name":"Kontejnery na sm\u00c3\u00ad\u00c5\u00a1en\u00c3\u00bd odpad","osm_id":"6812204687","tag":{"amenity":"recycling","name:cs":"Kontejnery na t\u00c5\u0099\u00c3\u00add\u00c4\u009bn\u00c3\u00bd odpad"}},"type":"Feature"}
]
}
