{
"type": "FeatureCollection",
"features": [
	{"geometry":{"coordinates":[14.586224,49.982242],"type":"Point"},"properties":{"osm_id":"1395765160","tag":{"amenity":"recycling"}},"type":"Feature"},
	{"geometry":{"coordinates":[14.578589,49.982883],"type":"Point"},"properties":{"osm_id":"1395765162","tag":{"amenity":"recycling","recycling:glass":"yes","recycling:paper":"yes","recycling:plastic":"yes","recycling_type":"container"}},"type":"Feature"},
	{"geometry":{"coordinates":[14.582848,49.982686],"type":"Point"},"properties":{"osm_id":"1395765165","tag":{"amenity":"recycling"}},"type":"Feature"},
	{"geometry":{"coordinates":[14.579379,49.982074],"type":"Point"},"properties":{"osm_id":"1395765166","tag":{"amenity":"waste_basket"}},"type":"Feature"},
	{"geometry":{"coordinates":[14.584773,49.979419],"type":"Point"},"properties":{"osm_id":"1395908063","tag":{"amenity":"recycling","recycling:glass":"yes","recycling:paper":"yes","recycling:plastic":"yes","recycling_type":"container"}},"type":"Feature"},
	{"geometry":{"coordinates":[14.579844,49.981603],"type":"Point"},"properties":{"osm_id":"1398318634","tag":{"amenity":"recycling","recycling:glass":"yes","recycling:paper":"yes","recycling:plastic":"yes","recycling_type":"container"}},"type":"Feature"},
	{"geometry":{"coordinates":[14.573548,49.979717],"type":"Point"},"properties":{"osm_id":"1445502666","tag":{"amenity":"recycling","recycling:glass":"yes","recycling:paper":"yes","recycling:plastic":"yes","recycling_type":"container"}},"type":"Feature"},
	{"geometry":{"coordinates":[14.531725,50.000052],"type":"Point"},"properties":{"osm_id":"1739808215","tag":{"amenity":"recycling","recycling_type":"container"}},"type":"Feature"},
	{"geometry":{"coordinates":[14.549063,49.973208],"type":"Point"},"properties":{"osm_id":"1910085983","tag":{"amenity":"recycling","recycling:glass":"yes","recycling:paper":"yes","recycling:plastic":"yes","recycling_type":"container"}},"type":"Feature"},
	{"geometry":{"coordinates":[14.545917,49.951434],"type":"Point"},"properties":{"osm_id":"2239824243","tag":{"amenity":"recycling","recycling_type":"container"}},"type":"Feature"},
	{"geometry":{"coordinates":[14.511379,49.995465],"type":"Point"},"properties":{"osm_id":"2802014356","tag":{"amenity":"recycling","recycling:cardboard":"yes","recycling:glass":"yes","recycling:glass_bottles":"yes","recycling:paper":"yes","recycling:plastic":"yes","recycling:plastic_bottles":"yes","recycling:plastic_packaging":"yes","recycling_type":"container"}},"type":"Feature"},
	{"geometry":{"coordinates":[14.516824,50.003069],"type":"Point"},"properties":{"osm_id":"2802022343","tag":{"amenity":"recycling","recycling_type":"container"}},"type":"Feature"},
	{"geometry":{"coordinates":[14.51902,49.998771],"type":"Point"},"properties":{"osm_id":"2802025959","tag":{"amenity":"recycling","recycling_type":"container"}},"type":"Feature"},
	{"geometry":{"coordinates":[14.509499,49.993482],"type":"Point"},"properties":{"osm_id":"2802026828","tag":{"amenity":"recycling","recycling_type":"container"}},"type":"Feature"},
	{"geometry":{"coordinates":[14.516954,49.99688],"type":"Point"},"properties":{"osm_id":"2802028916","tag":{"amenity":"recycling","recycling_type":"container"}},"type":"Feature"},
	{"geometry":{"coordinates":[14.548959,49.997838],"type":"Point"},"properties":{"osm_id":"3599349977","tag":{"amenity":"recycling","recycling_type":"container"}},"type":"Feature"},
	{"geometry":{"coordinates":[14.551731,50.000571],"type":"Point"},"properties":{"osm_id":"3601081819","tag":{"amenity":"recycling"}},"type":"Feature"},
	{"geometry":{"coordinates":[14.585991,49.984264],"type":"Point"},"properties":{"osm_id":"3694732822","tag":{"amenity":"recycling"}},"type":"Feature"},
	{"geometry":{"coordinates":[14.506612,49.98347],"type":"Point"},"properties":{"osm_id":"6302085528","tag":{"amenity":"waste_basket"}},"type":"Feature"},
	{"geometry":{"coordinates":[14.506608,49.983691],"type":"Point"},"properties":{"osm_id":"6302085530","tag":{"amenity":"waste_basket"}},"type":"Feature"},
	{"geometry":{"coordinates":[14.508166,49.983838],"type":"Point"},"properties":{"osm_id":"6302085685","tag":{"amenity":"recycling","recycling:cartons":"yes","recycling:glass":"yes","recycling:organic":"yes","recycling:paper":"yes","recycling:plastic":"yes","recycling_type":"container"}},"type":"Feature"},
	{"geometry":{"coordinates":[14.513705,49.992113],"type":"Point"},"properties":{"osm_id":"6534024392","tag":{"amenity":"recycling","recycling:beverage_cartons":"yes","recycling:glass_bottles":"yes","recycling:green_waste":"yes","recycling:paper":"yes","recycling:plastic":"yes","recycling_type":"container"}},"type":"Feature"},
	{"geometry":{"coordinates":[14.516865,49.993253],"type":"Point"},"properties":{"osm_id":"6534024399","tag":{"amenity":"recycling","recycling_type":"container"}},"type":"Feature"},
	{"geometry":{"coordinates":[14.504582,49.971171],"type":"Point"},"properties":{"osm_id":"6888496231","tag":{"amenity":"recycling","recycling:cartons":"yes","recycling:glass":"yes","recycling:paper":"yes","recycling:plastic":"yes","recycling_type":"container"}},"type":"Feature"},
	{"geometry":{"coordinates":[14.508988,49.967797],"type":"Point"},"properties":{"osm_id":"6934703433","tag":{"amenity":"recycling","recycling:aluminium":"yes","recycling:batteries":"yes","recycling:cartons":"yes","recycling:glass":"yes","recycling:paper":"yes","recycling:plastic":"yes","recycling:scrap_metal":"yes","recycling:small_appliances":"yes","recycling_type":"container"}},"type":"Feature"},
	{"geometry":{"coordinates":[14.525074,49.983397],"type":"Point"},"properties":{"osm_id":"7040956656","tag":{"amenity":"recycling","recycling:glass":"yes","recycling:paper":"yes","recycling:plastic":"yes","recycling_type":"container"}},"type":"Feature"},
	{"geometry":{"coordinates":[14.526316,49.982652],"type":"Point"},"properties":{"osm_id":"7040999792","tag":{"amenity":"recycling","recycling:glass":"yes","recycling:paper":"yes","recycling:plastic":"yes","recycling_type":"container"}},"type":"Feature"},
	{"geometry":{"coordinates":[14.528807,49.980984],"type":"Point"},"properties":{"osm_id":"7040999811","tag":{"amenity":"recycling","recycling:glass":"yes","recycling:paper":"yes","recycling:plastic":"yes","recycling_type":"container"}},"type":"Feature"},
	{"geometry":{"coordinates":[14.527589,49.979919],"type":"Point"},"properties":{"osm_id":"7040999866","tag":{"amenity":"recycling","recycling:glass":"yes","recycling:paper":"yes","recycling:plastic":"yes","recycling_type":"container"}},"type":"Feature"},
	{"geometry":{"coordinates":[14.524687,49.980471],"type":"Point"},"properties":{"osm_id":"7040999868","tag":{"amenity":"recycling","recycling:cartons":"yes","recycling:glass":"yes","recycling:paper":"yes","recycling:plastic":"yes","recycling_type":"container"}},"type":"Feature"},
	{"geometry":{"coordinates":[14.55158,49.969145],"type":"Point"},"properties":{"osm_id":"7233879158","tag":{"amenity":"recycling","recycling:glass":"yes","recycling:paper":"yes","recycling:plastic":"yes","recycling_type":"container"}},"type":"Feature"},
	{"geometry":{"coordinates":[14.534399,49.997454],"type":"Point"},"properties":{"osm_id":"7375608105","tag":{"amenity":"recycling","recycling_type":"container"}},"type":"Feature"},
	{"geometry":{"coordinates":[14.554588,49.999611],"type":"Point"},"properties":{"osm_id":"7385714176","tag":{"amenity":"recycling","recycling_type":"container"}},"type":"Feature"},
	{"geometry":{"coordinates":[14.52351,49.975416],"type":"Point"},"properties":{"osm_id":"7389986362","tag":{"amenity":"recycling","recycling:cartons":"yes","recycling:glass":"yes","recycling:paper":"yes","recycling:plastic":"yes","recycling:small_appliances":"yes","recycling_type":"container"}},"type":"Feature"},
	{"geometry":{"coordinates":[14.536089,49.97869],"type":"Point"},"properties":{"osm_id":"7389986364","tag":{"amenity":"recycling","recycling:aluminium":"yes","recycling:glass":"yes","recycling:paper":"yes","recycling:plastic":"yes","recycling:scrap_metal":"yes","recycling_type":"container"}},"type":"Feature"},
	{"geometry":{"coordinates":[14.561488,49.995373],"type":"Point"},"properties":{"osm_id":"7528689785","tag":{"amenity":"waste_basket"}},"type":"Feature"},
	{"geometry":{"coordinates":[14.561898,49.996614],"type":"Point"},"properties":{"osm_id":"7528737985","tag":{"amenity":"waste_basket"}},"type":"Feature"},
	{"geometry":{"coordinates":[14.559445,49.999192],"type":"Point"},"properties":{"osm_id":"7528773886","tag":{"amenity":"waste_basket"}},"type":"Feature"},
	{"geometry":{"coordinates":[14.559572,49.999602],"type":"Point"},"properties":{"osm_id":"7528773888","tag":{"amenity":"waste_basket"}},"type":"Feature"},
	{"geometry":{"coordinates":[14.558785,49.996998],"type":"Point"},"properties":{"name":"6","osm_id":"7529749987","tag":{"amenity":"waste_basket","information":"route_marker","tourism":"information"}},"type":"Feature"},
	{"geometry":{"coordinates":[14.508561,49.969951],"type":"Point"},"properties":{"osm_id":"7635203071","tag":{"amenity":"recycling","recycling:beverage_cartons":"yes","recycling:glass":"yes","recycling:paper":"yes","recycling:plastic":"yes","recycling_type":"container"}},"type":"Feature"},
	{"geometry":{"coordinates":[14.507524,49.980317],"type":"Point"},"properties":{"osm_id":"7750489913","tag":{"amenity":"recycling","recycling:cartons":"yes","recycling:glass":"yes","recycling:waste":"yes","recycling_type":"container"}},"type":"Feature"},
	{"geometry":{"coordinates":[14.507416,49.980475],"type":"Point"},"properties":{"osm_id":"7750489914","tag":{"amenity":"recycling","recycling:paper":"yes","recycling:plastic":"yes","recycling:waste":"yes","recycling_type":"container"}},"type":"Feature"},
	{"geometry":{"coordinates":[14.511026,49.978945],"type":"Point"},"properties":{"name":"Sb\u00c4\u009brn\u00c3\u00bd dv\u00c5\u00afr","osm_id":"7772562261","tag":{"amenity":"recycling","opening_hours":"We 16:00-20:00; Sa 08:00-14:00","phone":"+420 734 755 514","recycling_type":"centre"}},"type":"Feature"},
	{"geometry":{"coordinates":[14.509513,49.97205],"type":"Point"},"properties":{"osm_id":"7815200837","tag":{"amenity":"recycling","recycling:cartons":"yes","recycling:glass":"yes","recycling:paper":"yes","recycling:plastic":"yes","recycling_type":"container"}},"type":"Feature"},
	{"geometry":{"coordinates":[14.509105,49.985748],"type":"Point"},"properties":{"osm_id":"7995571436","tag":{"amenity":"waste_basket"}},"type":"Feature"},
	{"geometry":{"coordinates":[14.509558,49.984174],"type":"Point"},"properties":{"osm_id":"7995571439","tag":{"amenity":"waste_basket"}},"type":"Feature"},
	{"geometry":{"coordinates":[14.50774,49.986305],"type":"Point"},"properties":{"osm_id":"7995571735","tag":{"amenity":"waste_basket"}},"type":"Feature"},
	{"geometry":{"coordinates":[14.507802,49.986307],"type":"Point"},"properties":{"osm_id":"7995571736","tag":{"amenity":"waste_basket"}},"type":"Feature"},
	{"geometry":{"coordinates":[14.505132,49.987956],"type":"Point"},"properties":{"osm_id":"7995898389","tag":{"amenity":"waste_basket"}},"type":"Feature"},
	{"geometry":{"coordinates":[14.506967,49.985941],"type":"Point"},"properties":{"osm_id":"7995898406","tag":{"amenity":"waste_basket","waste":"trash"}},"type":"Feature"},
	{"geometry":{"coordinates":[14.502854,49.982],"type":"Point"},"properties":{"osm_id":"8002875108","tag":{"amenity":"recycling","recycling:beverage_cartons":"yes","recycling:cartons":"yes","recycling:glass_bottles":"yes","recycling:paper":"yes","recycling:plastic":"yes","recycling:plastic_bottles":"yes","recycling_type":"container"}},"type":"Feature"},
	{"geometry":{"coordinates":[14.504616,49.980583],"type":"Point"},"properties":{"osm_id":"8003964209","tag":{"amenity":"recycling","recycling:beverage_cartons":"yes","recycling:glass_bottles":"yes","recycling:paper":"yes","recycling:plastic":"yes","recycling_type":"container"}},"type":"Feature"},
	{"geometry":{"coordinates":[14.516055,49.984847],"type":"Point"},"properties":{"osm_id":"8003966537","tag":{"amenity":"recycling","recycling:beverage_cartons":"yes","recycling:glass_bottles":"yes","recycling:paper":"yes","recycling:plastic":"yes","recycling_type":"container"}},"type":"Feature"},
	{"geometry":{"coordinates":[14.504364,49.978916],"type":"Point"},"properties":{"osm_id":"8094153119","tag":{"amenity":"recycling","recycling:paper_packaging":"yes","recycling:plastic":"yes","recycling:plastic_bottles":"yes","recycling_type":"container"}},"type":"Feature"},
	{"geometry":{"coordinates":[14.503763,49.979728],"type":"Point"},"properties":{"osm_id":"8094153120","tag":{"amenity":"recycling","recycling:glass_bottles":"yes","recycling:paper":"yes","recycling:paper_packaging":"yes","recycling:plastic":"yes","recycling:plastic_bottles":"yes","recycling_type":"container"}},"type":"Feature"},
	{"geometry":{"coordinates":[14.503917,49.979763],"type":"Point"},"properties":{"osm_id":"8094153121","tag":{"amenity":"recycling","recycling:waste":"yes","recycling_type":"container"}},"type":"Feature"},
	{"geometry":{"coordinates":[14.504202,49.9789],"type":"Point"},"properties":{"osm_id":"8094153122","tag":{"amenity":"recycling","recycling:waste":"yes","recycling_type":"container"}},"type":"Feature"},
	{"geometry":{"coordinates":[14.504338,49.978631],"type":"Point"},"properties":{"osm_id":"8094153205","tag":{"amenity":"recycling","recycling:glass_bottles":"yes","recycling:paper":"yes","recycling_type":"container"}},"type":"Feature"},
	{"geometry":{"coordinates":[14.504346,49.978615],"type":"Point"},"properties":{"osm_id":"8094153206","tag":{"amenity":"recycling","recycling:paper_packaging":"yes","recycling:plastic":"yes","recycling_type":"container"}},"type":"Feature"},
	{"geometry":{"coordinates":[14.505155,49.979596],"type":"Point"},"properties":{"osm_id":"8094153411","tag":{"amenity":"recycling","recycling:glass_bottles":"yes","recycling:paper":"yes","recycling:plastic_bottles":"yes","recycling_type":"container"}},"type":"Feature"},
	{"geometry":{"coordinates":[14.505293,49.979635],"type":"Point"},"properties":{"osm_id":"8094153412","tag":{"amenity":"recycling","recycling:waste":"yes","recycling_type":"container"}},"type":"Feature"},
	{"geometry":{"coordinates":[14.50569,49.978835],"type":"Point"},"properties":{"osm_id":"8094153473","tag":{"amenity":"recycling","recycling:paper":"yes","recycling:plastic_bottles":"yes","recycling_type":"container"}},"type":"Feature"},
	{"geometry":{"coordinates":[14.508727,49.989665],"type":"Point"},"properties":{"osm_id":"8118829636","tag":{"amenity":"waste_basket"}},"type":"Feature"},
	{"geometry":{"coordinates":[14.511299,49.978599],"type":"Point"},"properties":{"osm_id":"8127076621","tag":{"amenity":"waste_basket"}},"type":"Feature"},
	{"geometry":{"coordinates":[14.51164,49.978064],"type":"Point"},"properties":{"osm_id":"8127076623","tag":{"amenity":"waste_basket"}},"type":"Feature"},
	{"geometry":{"coordinates":[14.512062,49.977401],"type":"Point"},"properties":{"osm_id":"8127076625","tag":{"amenity":"waste_basket"}},"type":"Feature"},
	{"geometry":{"coordinates":[14.51262,49.97615],"type":"Point"},"properties":{"osm_id":"8127076627","tag":{"amenity":"waste_basket"}},"type":"Feature"},
	{"geometry":{"coordinates":[14.512701,49.975368],"type":"Point"},"properties":{"osm_id":"8127076629","tag":{"amenity":"waste_basket"}},"type":"Feature"},
	{"geometry":{"coordinates":[14.563614,49.982442],"type":"Point"},"properties":{"osm_id":"8128931000","tag":{"amenity":"recycling","recycling_type":"container"}},"type":"Feature"},
	{"geometry":{"coordinates":[14.54824,50.004256],"type":"Point"},"properties":{"osm_id":"8156132097","tag":{"amenity":"recycling","recycling_type":"container"}},"type":"Feature"},
	{"geometry":{"coordinates":[14.507857,49.98098],"type":"Point"},"properties":{"osm_id":"8224263954","tag":{"amenity":"waste_basket","waste":"dog_excrement"}},"type":"Feature"},
	{"geometry":{"coordinates":[14.509017,49.983792],"type":"Point"},"properties":{"osm_id":"8224263955","tag":{"amenity":"waste_basket","waste":"trash"}},"type":"Feature"},
	{"geometry":{"coordinates":[14.508508,49.985889],"type":"Point"},"properties":{"osm_id":"8224263956","tag":{"amenity":"waste_basket","waste":"trash"}},"type":"Feature"},
	{"geometry":{"coordinates":[14.508954,49.98127],"type":"Point"},"properties":{"osm_id":"8224263969","tag":{"amenity":"waste_basket","waste":"trash"}},"type":"Feature"},
	{"geometry":{"coordinates":[14.515607,49.967648],"type":"Point"},"properties":{"osm_id":"8292762718","tag":{"amenity":"recycling","recycling:glass":"yes","recycling:paper":"yes","recycling:plastic":"yes","recycling_type":"container"}},"type":"Feature"},
	{"geometry":{"coordinates":[14.55128,49.975292],"type":"Point"},"properties":{"osm_id":"8592826586","tag":{"amenity":"recycling","recycling_type":"container"}},"type":"Feature"},
	{"geometry":{"coordinates":[14.551694,49.991538],"type":"Point"},"properties":{"osm_id":"9008290817","tag":{"amenity":"waste_basket"}},"type":"Feature"},
	{"geometry":{"coordinates":[14.554124,49.992204],"type":"Point"},"properties":{"osm_id":"9008290818","tag":{"amenity":"waste_basket"}},"type":"Feature"},
	{"geometry":{"coordinates":[14.556369,49.994263],"type":"Point"},"properties":{"osm_id":"9008290819","tag":{"amenity":"waste_basket"}},"type":"Feature"},
	{"geometry":{"coordinates":[14.556041,49.996115],"type":"Point"},"properties":{"osm_id":"9008290820","tag":{"amenity":"waste_basket"}},"type":"Feature"},
	{"geometry":{"coordinates":[14.559472,49.996814],"type":"Point"},"properties":{"osm_id":"9008290821","tag":{"amenity":"waste_basket"}},"type":"Feature"},
	{"geometry":{"coordinates":[14.559361,49.998025],"type":"Point"},"properties":{"osm_id":"9008290822","tag":{"amenity":"waste_basket"}},"type":"Feature"},
	{"geometry":{"coordinates":[14.563545,49.990212],"type":"Point"},"properties":{"osm_id":"9008290823","tag":{"amenity":"waste_basket"}},"type":"Feature"},
	{"geometry":{"coordinates":[14.558214,49.993998],"type":"Point"},"properties":{"osm_id":"9008290917","tag":{"amenity":"waste_basket"}},"type":"Feature"},
	{"geometry":{"coordinates":[14.557257,50.00051],"type":"Point"},"properties":{"osm_id":"9008290918","tag":{"amenity":"waste_basket"}},"type":"Feature"},
	{"geometry":{"coordinates":[14.563624,49.994208],"type":"Point"},"properties":{"osm_id":"9008290919","tag":{"amenity":"recycling","recycling_type":"container"}},"type":"Feature"},
	{"geometry":{"coordinates":[14.553307,49.990249],"type":"Point"},"properties":{"osm_id":"9008290920","tag":{"amenity":"waste_basket"}},"type":"Feature"},
	{"geometry":{"coordinates":[14.556468,49.994893],"type":"Point"},"properties":{"osm_id":"9008291017","tag":{"amenity":"waste_basket"}},"type":"Feature"},
	{"geometry":{"coordinates":[14.559525,49.998061],"type":"Point"},"properties":{"osm_id":"9008291018","tag":{"amenity":"waste_basket"}},"type":"Feature"},
	{"geometry":{"coordinates":[14.55722,50.000536],"type":"Point"},"properties":{"osm_id":"9008291019","tag":{"amenity":"waste_basket"}},"type":"Feature"},
	{"geometry":{"coordinates":[14.559266,49.998418],"type":"Point"},"properties":{"osm_id":"9008291117","tag":{"amenity":"waste_basket"}},"type":"Feature"},
	{"geometry":{"coordinates":[14.558707,49.995532],"type":"Point"},"properties":{"osm_id":"9008291217","tag":{"amenity":"waste_basket"}},"type":"Feature"},
	{"geometry":{"coordinates":[14.561404,49.99224],"type":"Point"},"properties":{"osm_id":"9008291218","tag":{"amenity":"waste_basket"}},"type":"Feature"},
	{"geometry":{"coordinates":[14.566392,49.989436],"type":"Point"},"properties":{"osm_id":"9008291317","tag":{"amenity":"waste_basket"}},"type":"Feature"},
	{"geometry":{"coordinates":[14.556905,49.990758],"type":"Point"},"properties":{"osm_id":"9008291417","tag":{"amenity":"waste_basket"}},"type":"Feature"},
	{"geometry":{"coordinates":[14.554849,49.990791],"type":"Point"},"properties":{"osm_id":"9008291517","tag":{"amenity":"waste_basket"}},"type":"Feature"},
	{"geometry":{"coordinates":[14.576231,49.966376],"type":"Point"},"properties":{"osm_id":"9045335495","tag":{"amenity":"recycling","recycling:cooking_oil":"yes","recycling:glass":"yes","recycling:paper":"yes","recycling:plastic":"yes","recycling_type":"container"}},"type":"Feature"}
]
}
