{
"type": "FeatureCollection",
"features": [
	{"geometry":{"coordinates":[14.532172,49.002507],"type":"Point"},"properties":{"osm_id":"4411233189","tag":{"amenity":"waste_basket","payment:none":"yes","vending":"excrement_bags","waste":"trash;dog_excrement"}},"type":"Feature"},
	{"geometry":{"coordinates":[14.541899,48.99357],"type":"Point"},"properties":{"osm_id":"4411473389","tag":{"amenity":"recycling","recycling:glass":"yes","recycling:paper":"yes","recycling:plastic":"yes","recycling_type":"container"}},"type":"Feature"},
	{"geometry":{"coordinates":[14.539361,48.99548],"type":"Point"},"properties":{"osm_id":"4411473390","tag":{"amenity":"waste_basket"}},"type":"Feature"},
	{"geometry":{"coordinates":[14.53938,48.997017],"type":"Point"},"properties":{"osm_id":"4411473392","tag":{"amenity":"waste_basket"}},"type":"Feature"},
	{"geometry":{"coordinates":[14.58523,49.018207],"type":"Point"},"properties":{"osm_id":"5093041617","tag":{"amenity":"waste_basket"}},"type":"Feature"},
	{"geometry":{"coordinates":[14.544737,49.0201],"type":"Point"},"properties":{"osm_id":"5093118435","tag":{"amenity":"recycling","recycling:clothes":"yes","recycling_type":"container"}},"type":"Feature"},
	{"geometry":{"coordinates":[14.551336,49.021634],"type":"Point"},"properties":{"osm_id":"5098211004","tag":{"amenity":"recycling","recycling_type":"container"}},"type":"Feature"},
	{"geometry":{"coordinates":[14.542608,48.987634],"type":"Point"},"properties":{"osm_id":"5902292860","tag":{"amenity":"recycling","recycling_type":"container"}},"type":"Feature"},
	{"geometry":{"coordinates":[14.537949,48.999948],"type":"Point"},"properties":{"osm_id":"6542786690","tag":{"amenity":"recycling","recycling_type":"container"}},"type":"Feature"},
	{"geometry":{"coordinates":[14.526741,48.987674],"type":"Point"},"properties":{"osm_id":"7007502989","tag":{"amenity":"recycling","recycling:glass":"yes","recycling:plastic":"yes","recycling_type":"container"}},"type":"Feature"},
	{"geometry":{"coordinates":[14.508475,48.982568],"type":"Point"},"properties":{"osm_id":"7362781467","tag":{"amenity":"recycling","recycling_type":"container"}},"type":"Feature"},
	{"geometry":{"coordinates":[14.511841,48.981771],"type":"Point"},"properties":{"osm_id":"7362781468","tag":{"amenity":"recycling","recycling_type":"container"}},"type":"Feature"},
	{"geometry":{"coordinates":[14.511941,48.985196],"type":"Point"},"properties":{"osm_id":"7362781469","tag":{"amenity":"recycling","recycling_type":"container"}},"type":"Feature"},
	{"geometry":{"coordinates":[14.51288,48.985126],"type":"Point"},"properties":{"osm_id":"7362781470","tag":{"amenity":"recycling","recycling_type":"container"}},"type":"Feature"},
	{"geometry":{"coordinates":[14.514579,48.984691],"type":"Point"},"properties":{"osm_id":"7362781471","tag":{"amenity":"recycling","recycling_type":"container"}},"type":"Feature"},
	{"geometry":{"coordinates":[14.539314,48.992415],"type":"Point"},"properties":{"osm_id":"7372725485","tag":{"amenity":"waste_basket"}},"type":"Feature"},
	{"geometry":{"coordinates":[14.538974,48.9933],"type":"Point"},"properties":{"osm_id":"7372725585","tag":{"amenity":"waste_basket"}},"type":"Feature"},
	{"geometry":{"coordinates":[14.512106,48.984881],"type":"Point"},"properties":{"osm_id":"7825698241","tag":{"amenity":"waste_basket","colour":"green","material":"plastic","waste":"dog_excrement"}},"type":"Feature"},
	{"geometry":{"coordinates":[14.517057,48.98093],"type":"Point"},"properties":{"osm_id":"8041737218","tag":{"amenity":"recycling","recycling_type":"container"}},"type":"Feature"},
	{"geometry":{"coordinates":[14.546921,48.996141],"type":"Point"},"properties":{"osm_id":"8327634622","tag":{"amenity":"recycling","recycling_type":"container"}},"type":"Feature"},
	{"geometry":{"coordinates":[14.564117,48.983611],"type":"Point"},"properties":{"osm_id":"8356977967","tag":{"amenity":"recycling","recycling_type":"container"}},"type":"Feature"},
	{"geometry":{"coordinates":[14.541524,48.988776],"type":"Point"},"properties":{"osm_id":"8356978027","tag":{"amenity":"recycling","recycling_type":"container"}},"type":"Feature"},
	{"geometry":{"coordinates":[14.538552,48.989061],"type":"Point"},"properties":{"osm_id":"8356978030","tag":{"amenity":"recycling","recycling_type":"container"}},"type":"Feature"},
	{"geometry":{"coordinates":[14.5501,49.00633],"type":"Point"},"properties":{"osm_id":"8357079961","tag":{"amenity":"recycling","recycling_type":"container"}},"type":"Feature"},
	{"geometry":{"coordinates":[14.535301,48.992176],"type":"Point"},"properties":{"osm_id":"8384924458","tag":{"amenity":"recycling","recycling:clothes":"yes","recycling:electrical_appliances":"yes","recycling:glass":"yes","recycling:metal":"yes","recycling:paper":"yes","recycling_type":"container"}},"type":"Feature"}
]
}
