{
"type": "FeatureCollection",
"features": [
	{"geometry":{"coordinates":[14.516114,47.203441],"type":"Point"},"properties":{"osm_id":"4850364680","tag":{"amenity":"waste_basket"}},"type":"Feature"},
	{"geometry":{"coordinates":[14.516264,47.203582],"type":"Point"},"properties":{"osm_id":"4850364681","tag":{"amenity":"waste_basket"}},"type":"Feature"},
	{"geometry":{"coordinates":[14.51747,47.203771],"type":"Point"},"properties":{"osm_id":"4850364684","tag":{"amenity":"waste_basket"}},"type":"Feature"},
	{"geometry":{"coordinates":[14.504201,47.210211],"type":"Point"},"properties":{"osm_id":"4850364689","tag":{"amenity":"waste_basket"}},"type":"Feature"},
	{"geometry":{"coordinates":[14.586687,47.187505],"type":"Point"},"properties":{"osm_id":"5448450472","tag":{"amenity":"recycling","recycling:cans":"yes","recycling:cardboard":"yes","recycling:clothes":"yes","recycling:glass":"yes","recycling:paper":"yes","recycling_type":"container"}},"type":"Feature"},
	{"geometry":{"coordinates":[14.575346,47.216089],"type":"Point"},"properties":{"osm_id":"6172961735","tag":{"amenity":"recycling","recycling:glass":"yes","recycling:glass_bottles":"yes","recycling_type":"container"}},"type":"Feature"},
	{"geometry":{"coordinates":[14.574941,47.215439],"type":"Point"},"properties":{"osm_id":"6172961737","tag":{"amenity":"waste_basket","waste":"trash"}},"type":"Feature"},
	{"geometry":{"coordinates":[14.577135,47.17908],"type":"Point"},"properties":{"osm_id":"6449598879","tag":{"amenity":"recycling","recycling:glass":"yes","recycling_type":"container","wheelchair":"yes"}},"type":"Feature"},
	{"geometry":{"coordinates":[14.558119,47.214007],"type":"Point"},"properties":{"osm_id":"7397417805","tag":{"amenity":"waste_basket","waste":"trash"}},"type":"Feature"},
	{"geometry":{"coordinates":[14.561158,47.213254],"type":"Point"},"properties":{"osm_id":"7397417809","tag":{"amenity":"waste_basket","waste":"trash"}},"type":"Feature"},
	{"geometry":{"coordinates":[14.568133,47.211331],"type":"Point"},"properties":{"osm_id":"7397417815","tag":{"amenity":"waste_basket","waste":"trash"}},"type":"Feature"}
]
}
