{
"type": "FeatureCollection",
"lastupdate": "2020-08-05T00:00:00Z",
"features": [
	{"geometry":{"coordinates":[14.539588,46.421153],"type":"Point"},"properties":{"osm_id":"4870550854","tag":{"amenity":"waste_basket"}},"type":"Feature"},
	{"geometry":{"coordinates":[14.539534,46.420906],"type":"Point"},"properties":{"osm_id":"4870550890","tag":{"amenity":"waste_basket"}},"type":"Feature"},
	{"geometry":{"coordinates":[14.526818,46.407109],"type":"Point"},"properties":{"osm_id":"4870668462","tag":{"amenity":"waste_basket"}},"type":"Feature"},
	{"geometry":{"coordinates":[14.517722,46.408237],"type":"Point"},"properties":{"osm_id":"7448028148","tag":{"amenity":"waste_basket","waste":"trash"}},"type":"Feature"},
	{"geometry":{"coordinates":[14.517708,46.408243],"type":"Point"},"properties":{"osm_id":"7448028149","tag":{"amenity":"waste_basket","waste":"trash"}},"type":"Feature"},
	{"geometry":{"coordinates":[14.517697,46.40825],"type":"Point"},"properties":{"osm_id":"7448028150","tag":{"amenity":"waste_basket","waste":"trash"}},"type":"Feature"}
]
}
