{
"type": "FeatureCollection",
"features": [
	{"geometry":{"coordinates":[14.505966,46.054134],"type":"Point"},"properties":{"osm_id":"60759704","tag":{"amenity":"recycling","location":"overground","recycling:glass":"yes","recycling:paper":"yes","recycling_type":"container"}},"type":"Feature"},
	{"geometry":{"coordinates":[14.509304,46.049047],"type":"Point"},"properties":{"osm_id":"1725304294","tag":{"amenity":"waste_basket"}},"type":"Feature"},
	{"geometry":{"coordinates":[14.510518,46.049209],"type":"Point"},"properties":{"osm_id":"1725304298","tag":{"amenity":"waste_basket"}},"type":"Feature"},
	{"geometry":{"coordinates":[14.509958,46.049208],"type":"Point"},"properties":{"osm_id":"1725304302","tag":{"amenity":"waste_basket"}},"type":"Feature"},
	{"geometry":{"coordinates":[14.509802,46.049406],"type":"Point"},"properties":{"osm_id":"1725304304","tag":{"amenity":"waste_basket"}},"type":"Feature"},
	{"geometry":{"coordinates":[14.507064,46.05431],"type":"Point"},"properties":{"osm_id":"1894285014","tag":{"amenity":"recycling","location":"underground","recycling_type":"container"}},"type":"Feature"},
	{"geometry":{"coordinates":[14.506957,46.054213],"type":"Point"},"properties":{"osm_id":"1894285017","tag":{"amenity":"waste_basket"}},"type":"Feature"},
	{"geometry":{"coordinates":[14.509156,46.055305],"type":"Point"},"properties":{"osm_id":"2682349074","tag":{"amenity":"waste_basket"}},"type":"Feature"},
	{"geometry":{"coordinates":[14.515541,46.056163],"type":"Point"},"properties":{"osm_id":"4083416918","tag":{"amenity":"waste_basket"}},"type":"Feature"},
	{"geometry":{"coordinates":[14.515488,46.056237],"type":"Point"},"properties":{"osm_id":"4083416920","tag":{"amenity":"waste_basket"}},"type":"Feature"},
	{"geometry":{"coordinates":[14.515133,46.054337],"type":"Point"},"properties":{"osm_id":"4083416934","tag":{"amenity":"waste_basket"}},"type":"Feature"},
	{"geometry":{"coordinates":[14.514683,46.053889],"type":"Point"},"properties":{"osm_id":"4083416938","tag":{"amenity":"waste_basket"}},"type":"Feature"},
	{"geometry":{"coordinates":[14.514033,46.05329],"type":"Point"},"properties":{"osm_id":"4083416944","tag":{"amenity":"waste_basket"}},"type":"Feature"},
	{"geometry":{"coordinates":[14.513551,46.052224],"type":"Point"},"properties":{"osm_id":"4083416946","tag":{"amenity":"recycling","recycling:glass_bottles":"yes","recycling:paper":"yes","recycling:plastic":"yes","recycling_type":"container"}},"type":"Feature"},
	{"geometry":{"coordinates":[14.50588,46.050323],"type":"Point"},"properties":{"osm_id":"4083611381","tag":{"amenity":"recycling","recycling:organic":"yes","recycling:paper":"yes","recycling_type":"container"}},"type":"Feature"},
	{"geometry":{"coordinates":[14.503808,46.04772],"type":"Point"},"properties":{"osm_id":"4083612392","tag":{"amenity":"waste_basket"}},"type":"Feature"},
	{"geometry":{"coordinates":[14.503339,46.047785],"type":"Point"},"properties":{"osm_id":"4083612397","tag":{"amenity":"waste_basket"}},"type":"Feature"},
	{"geometry":{"coordinates":[14.505544,46.051689],"type":"Point"},"properties":{"osm_id":"4083612502","tag":{"amenity":"recycling","location":"underground","recycling_type":"container"}},"type":"Feature"},
	{"geometry":{"coordinates":[14.508393,46.048374],"type":"Point"},"properties":{"osm_id":"4084632903","tag":{"amenity":"waste_basket"}},"type":"Feature"},
	{"geometry":{"coordinates":[14.505913,46.050337],"type":"Point"},"properties":{"osm_id":"4095135126","tag":{"amenity":"recycling","recycling:green_waste":"yes","recycling:paper":"yes","recycling_type":"container"}},"type":"Feature"},
	{"geometry":{"coordinates":[14.50643,46.051732],"type":"Point"},"properties":{"osm_id":"4095135127","tag":{"amenity":"waste_basket"}},"type":"Feature"},
	{"geometry":{"coordinates":[14.536327,46.06791],"type":"Point"},"properties":{"osm_id":"4119429025","tag":{"amenity":"waste_disposal"}},"type":"Feature"},
	{"geometry":{"coordinates":[14.504858,46.043679],"type":"Point"},"properties":{"osm_id":"4177120936","tag":{"amenity":"waste_basket"}},"type":"Feature"},
	{"geometry":{"coordinates":[14.50521,46.043993],"type":"Point"},"properties":{"osm_id":"4177120937","tag":{"amenity":"recycling","recycling_type":"container"}},"type":"Feature"},
	{"geometry":{"coordinates":[14.505372,46.044296],"type":"Point"},"properties":{"osm_id":"4177120939","tag":{"amenity":"waste_basket"}},"type":"Feature"},
	{"geometry":{"coordinates":[14.505298,46.044575],"type":"Point"},"properties":{"osm_id":"4177120942","tag":{"amenity":"waste_basket"}},"type":"Feature"},
	{"geometry":{"coordinates":[14.505291,46.044747],"type":"Point"},"properties":{"osm_id":"4177120944","tag":{"amenity":"waste_basket"}},"type":"Feature"},
	{"geometry":{"coordinates":[14.505281,46.044978],"type":"Point"},"properties":{"osm_id":"4177120946","tag":{"amenity":"waste_basket"}},"type":"Feature"},
	{"geometry":{"coordinates":[14.505269,46.045285],"type":"Point"},"properties":{"osm_id":"4177120949","tag":{"amenity":"waste_basket"}},"type":"Feature"},
	{"geometry":{"coordinates":[14.505264,46.045395],"type":"Point"},"properties":{"osm_id":"4177120951","tag":{"amenity":"waste_basket"}},"type":"Feature"},
	{"geometry":{"coordinates":[14.516718,46.048462],"type":"Point"},"properties":{"osm_id":"4254746199","tag":{"amenity":"waste_disposal"}},"type":"Feature"},
	{"geometry":{"coordinates":[14.516748,46.048472],"type":"Point"},"properties":{"osm_id":"4255752389","tag":{"amenity":"waste_disposal"}},"type":"Feature"},
	{"geometry":{"coordinates":[14.516325,46.047151],"type":"Point"},"properties":{"osm_id":"4255752789","tag":{"amenity":"waste_basket"}},"type":"Feature"},
	{"geometry":{"coordinates":[14.50454,46.048589],"type":"Point"},"properties":{"osm_id":"4470466106","tag":{"amenity":"waste_basket"}},"type":"Feature"},
	{"geometry":{"coordinates":[14.512938,46.057808],"type":"Point"},"properties":{"osm_id":"4504149794","tag":{"amenity":"waste_basket"}},"type":"Feature"},
	{"geometry":{"coordinates":[14.505931,46.05044],"type":"Point"},"properties":{"osm_id":"4504179995","tag":{"amenity":"waste_basket"}},"type":"Feature"},
	{"geometry":{"coordinates":[14.51004,46.048049],"type":"Point"},"properties":{"osm_id":"4866594029","tag":{"amenity":"waste_basket"}},"type":"Feature"},
	{"geometry":{"coordinates":[14.505675,46.043547],"type":"Point"},"properties":{"osm_id":"5210035453","tag":{"amenity":"waste_basket"}},"type":"Feature"},
	{"geometry":{"coordinates":[14.50646,46.049294],"type":"Point"},"properties":{"osm_id":"5629221749","tag":{"amenity":"recycling","location":"underground","recycling:glass":"yes","recycling_type":"container"}},"type":"Feature"},
	{"geometry":{"coordinates":[14.506484,46.049351],"type":"Point"},"properties":{"osm_id":"5629221750","tag":{"amenity":"recycling","location":"underground","recycling:waste":"yes","recycling_type":"container"}},"type":"Feature"},
	{"geometry":{"coordinates":[14.506436,46.049237],"type":"Point"},"properties":{"osm_id":"5629221751","tag":{"amenity":"recycling","location":"underground","recycling:paper":"yes","recycling_type":"container"}},"type":"Feature"},
	{"geometry":{"coordinates":[14.506496,46.04938],"type":"Point"},"properties":{"osm_id":"5629221752","tag":{"amenity":"recycling","location":"underground","recycling:green_waste":"yes","recycling_type":"container"}},"type":"Feature"},
	{"geometry":{"coordinates":[14.506448,46.049265],"type":"Point"},"properties":{"osm_id":"5629221753","tag":{"amenity":"recycling","location":"underground","recycling:plastic":"yes","recycling_type":"container"}},"type":"Feature"},
	{"geometry":{"coordinates":[14.506472,46.049323],"type":"Point"},"properties":{"osm_id":"5629221754","tag":{"amenity":"recycling","location":"underground","recycling:waste":"yes","recycling_type":"container"}},"type":"Feature"},
	{"geometry":{"coordinates":[14.505314,46.047364],"type":"Point"},"properties":{"osm_id":"5629221755","tag":{"amenity":"recycling","location":"underground","recycling:waste":"yes","recycling_type":"container"}},"type":"Feature"},
	{"geometry":{"coordinates":[14.505318,46.04742],"type":"Point"},"properties":{"osm_id":"5629221756","tag":{"amenity":"recycling","location":"underground","recycling:glass":"yes","recycling_type":"container"}},"type":"Feature"},
	{"geometry":{"coordinates":[14.505312,46.047337],"type":"Point"},"properties":{"osm_id":"5629221757","tag":{"amenity":"recycling","location":"underground","recycling:green_waste":"yes","recycling_type":"container"}},"type":"Feature"},
	{"geometry":{"coordinates":[14.505321,46.047475],"type":"Point"},"properties":{"osm_id":"5629221758","tag":{"amenity":"recycling","location":"underground","recycling:paper":"yes","recycling_type":"container"}},"type":"Feature"},
	{"geometry":{"coordinates":[14.505316,46.047392],"type":"Point"},"properties":{"osm_id":"5629221759","tag":{"amenity":"recycling","location":"underground","recycling:waste":"yes","recycling_type":"container"}},"type":"Feature"},
	{"geometry":{"coordinates":[14.505319,46.047447],"type":"Point"},"properties":{"osm_id":"5629221760","tag":{"amenity":"recycling","location":"underground","recycling:plastic":"yes","recycling_type":"container"}},"type":"Feature"},
	{"geometry":{"coordinates":[14.504269,46.048218],"type":"Point"},"properties":{"osm_id":"5629221761","tag":{"amenity":"recycling","location":"underground","recycling:waste":"yes","recycling_type":"container"}},"type":"Feature"},
	{"geometry":{"coordinates":[14.504257,46.048187],"type":"Point"},"properties":{"osm_id":"5629221762","tag":{"amenity":"recycling","location":"underground","recycling:green_waste":"yes","recycling_type":"container"}},"type":"Feature"},
	{"geometry":{"coordinates":[14.504293,46.048279],"type":"Point"},"properties":{"osm_id":"5629221763","tag":{"amenity":"recycling","location":"underground","recycling:paper":"yes","recycling_type":"container"}},"type":"Feature"},
	{"geometry":{"coordinates":[14.504281,46.048248],"type":"Point"},"properties":{"osm_id":"5629221764","tag":{"amenity":"recycling","location":"underground","recycling:waste":"yes","recycling_type":"container"}},"type":"Feature"},
	{"geometry":{"coordinates":[14.504316,46.048341],"type":"Point"},"properties":{"osm_id":"5629221765","tag":{"amenity":"recycling","location":"underground","recycling:glass":"yes","recycling_type":"container"}},"type":"Feature"},
	{"geometry":{"coordinates":[14.504304,46.04831],"type":"Point"},"properties":{"osm_id":"5629221766","tag":{"amenity":"recycling","location":"underground","recycling:plastic":"yes","recycling_type":"container"}},"type":"Feature"},
	{"geometry":{"coordinates":[14.503061,46.052585],"type":"Point"},"properties":{"osm_id":"5629221767","tag":{"amenity":"recycling","location":"underground","recycling:green_waste":"yes","recycling_type":"container"}},"type":"Feature"},
	{"geometry":{"coordinates":[14.503105,46.052576],"type":"Point"},"properties":{"osm_id":"5629221768","tag":{"amenity":"recycling","location":"underground","recycling:waste":"yes","recycling_type":"container"}},"type":"Feature"},
	{"geometry":{"coordinates":[14.503149,46.052568],"type":"Point"},"properties":{"osm_id":"5629221769","tag":{"amenity":"recycling","location":"underground","recycling:waste":"yes","recycling_type":"container"}},"type":"Feature"},
	{"geometry":{"coordinates":[14.503194,46.052559],"type":"Point"},"properties":{"osm_id":"5629221770","tag":{"amenity":"recycling","location":"underground","recycling:glass":"yes","recycling_type":"container"}},"type":"Feature"},
	{"geometry":{"coordinates":[14.503238,46.05255],"type":"Point"},"properties":{"osm_id":"5629221771","tag":{"amenity":"recycling","location":"underground","recycling:plastic":"yes","recycling_type":"container"}},"type":"Feature"},
	{"geometry":{"coordinates":[14.503282,46.052541],"type":"Point"},"properties":{"osm_id":"5629221772","tag":{"amenity":"recycling","location":"underground","recycling:paper":"yes","recycling_type":"container"}},"type":"Feature"},
	{"geometry":{"coordinates":[14.502334,46.047104],"type":"Point"},"properties":{"osm_id":"7539248079","tag":{"amenity":"recycling","recycling_type":"container","wheelchair":"yes"}},"type":"Feature"},
	{"geometry":{"coordinates":[14.530785,46.066929],"type":"Point"},"properties":{"osm_id":"7941342713","tag":{"amenity":"waste_basket"}},"type":"Feature"},
	{"geometry":{"coordinates":[14.528044,46.066998],"type":"Point"},"properties":{"osm_id":"7941342716","tag":{"amenity":"waste_basket"}},"type":"Feature"},
	{"geometry":{"coordinates":[14.539724,46.069232],"type":"Point"},"properties":{"osm_id":"7941342746","tag":{"amenity":"waste_basket"}},"type":"Feature"},
	{"geometry":{"coordinates":[14.529317,46.065566],"type":"Point"},"properties":{"osm_id":"7941384616","tag":{"amenity":"waste_basket"}},"type":"Feature"}
]
}
