{
"type": "FeatureCollection",
"features": [
	{"geometry":{"coordinates":[9.660977,53.154197],"type":"Point"},"properties":{"osm_id":"1331310200","tag":{"amenity":"recycling","recycling:clothes":"yes","recycling:glass_bottles":"yes","recycling_type":"container"}},"type":"Feature"},
	{"geometry":{"coordinates":[9.662673,53.171824],"type":"Point"},"properties":{"osm_id":"1579735646","tag":{"amenity":"recycling","recycling:clothes":"yes","recycling:glass_bottles":"yes","recycling_type":"container"}},"type":"Feature"},
	{"geometry":{"coordinates":[9.665864,53.165869],"type":"Point"},"properties":{"osm_id":"1581293359","tag":{"amenity":"recycling","recycling:clothes":"yes","recycling:paper":"no","recycling_type":"container"}},"type":"Feature"},
	{"geometry":{"coordinates":[9.667438,53.17236],"type":"Point"},"properties":{"osm_id":"1581760565","tag":{"amenity":"waste_basket"}},"type":"Feature"},
	{"geometry":{"coordinates":[9.665943,53.171621],"type":"Point"},"properties":{"osm_id":"1587224671","tag":{"amenity":"waste_basket"}},"type":"Feature"},
	{"geometry":{"coordinates":[9.661909,53.162249],"type":"Point"},"properties":{"osm_id":"1587224678","tag":{"amenity":"waste_basket"}},"type":"Feature"},
	{"geometry":{"coordinates":[9.661403,53.157435],"type":"Point"},"properties":{"osm_id":"1613286515","tag":{"amenity":"recycling","recycling:glass_bottles":"yes","recycling_type":"container"}},"type":"Feature"},
	{"geometry":{"coordinates":[9.582056,53.159885],"type":"Point"},"properties":{"osm_id":"1645252506","tag":{"access":"private","amenity":"recycling","recycling:paper":"yes","recycling:waste":"yes","recycling_type":"container"}},"type":"Feature"},
	{"geometry":{"coordinates":[9.583796,53.160252],"type":"Point"},"properties":{"osm_id":"2281189861","tag":{"amenity":"recycling","recycling:clothes":"yes","recycling:glass_bottles":"yes","recycling_type":"container"}},"type":"Feature"},
	{"geometry":{"coordinates":[9.662208,53.15504],"type":"Point"},"properties":{"osm_id":"2829613348","tag":{"amenity":"waste_basket"}},"type":"Feature"},
	{"geometry":{"coordinates":[9.662729,53.155146],"type":"Point"},"properties":{"osm_id":"2829613350","tag":{"amenity":"waste_basket"}},"type":"Feature"},
	{"geometry":{"coordinates":[9.663684,53.155189],"type":"Point"},"properties":{"osm_id":"2829613352","tag":{"amenity":"waste_basket"}},"type":"Feature"},
	{"geometry":{"coordinates":[9.661771,53.155213],"type":"Point"},"properties":{"osm_id":"2829613353","tag":{"amenity":"waste_basket"}},"type":"Feature"},
	{"geometry":{"coordinates":[9.661326,53.155409],"type":"Point"},"properties":{"osm_id":"2829613355","tag":{"amenity":"waste_basket"}},"type":"Feature"},
	{"geometry":{"coordinates":[9.66418,53.1556],"type":"Point"},"properties":{"osm_id":"2829613358","tag":{"amenity":"waste_basket"}},"type":"Feature"},
	{"geometry":{"coordinates":[9.661087,53.155772],"type":"Point"},"properties":{"osm_id":"2829613359","tag":{"amenity":"waste_basket"}},"type":"Feature"},
	{"geometry":{"coordinates":[9.66453,53.155989],"type":"Point"},"properties":{"osm_id":"2829613361","tag":{"amenity":"waste_basket"}},"type":"Feature"}
]
}
