{
"type": "FeatureCollection",
"lastupdate": "2020-08-04T00:00:00Z",
"features": [
	{"geometry":{"coordinates":[9.598134,52.861146],"type":"Point"},"properties":{"osm_id":"3572964916","tag":{"amenity":"waste_basket"}},"type":"Feature"},
	{"geometry":{"coordinates":[9.596075,52.865638],"type":"Point"},"properties":{"osm_id":"3572965011","tag":{"amenity":"waste_basket"}},"type":"Feature"},
	{"geometry":{"coordinates":[9.637601,52.872308],"type":"Point"},"properties":{"name":"AHK Wertstoffhof Honerdingen","osm_id":"6718870329","tag":{"addr:city":"Walsrode","addr:housenumber":"4","addr:postcode":"29664","addr:street":"Eisenweg","amenity":"recycling","operator":"Abfallwirtschaft Heidekreis A\u00f6R","operator:type":"public","phone":"+49 800 1123811","recycling_type":"centre","website":"https://www.ahk-heidekreis.de"}},"type":"Feature"},
	{"geometry":{"coordinates":[9.638307,52.880981],"type":"Point"},"properties":{"osm_id":"6718870336","tag":{"addr:city":"Walsrode","addr:housenumber":"28","addr:postcode":"29664","addr:street":"Bomlitzer Stra\u00dfe","amenity":"recycling","operator":"Entsorgung mit System Martin Bertram e.K.","phone":"+49 5161 48550","recycling_type":"centre","website":"https://www.bertram-ems.de"}},"type":"Feature"},
	{"geometry":{"coordinates":[9.585062,52.856119],"type":"Point"},"properties":{"osm_id":"6906215793","tag":{"amenity":"recycling","recycling:glass_bottles":"yes","recycling_type":"container"}},"type":"Feature"},
	{"geometry":{"coordinates":[9.654017,52.883978],"type":"Point"},"properties":{"osm_id":"6906320959","tag":{"amenity":"recycling","recycling:glass_bottles":"yes","recycling:small_appliances":"yes","recycling:small_electrical_appliances":"yes","recycling_type":"container"}},"type":"Feature"},
	{"geometry":{"coordinates":[9.61564,52.864131],"type":"Point"},"properties":{"osm_id":"7001473922","tag":{"amenity":"recycling","recycling:glass_bottles":"yes"}},"type":"Feature"},
	{"geometry":{"coordinates":[9.619533,52.899646],"type":"Point"},"properties":{"osm_id":"7466599742","tag":{"amenity":"waste_basket"}},"type":"Feature"}
]
}
