{
"type": "FeatureCollection",
"features": [
	{"geometry":{"coordinates":[9.65738,52.804497],"type":"Point"},"properties":{"osm_id":"2909184059","tag":{"amenity":"waste_basket"}},"type":"Feature"},
	{"geometry":{"coordinates":[9.664084,52.803934],"type":"Point"},"properties":{"name":"Infotafel (Vereine)","osm_id":"2912914447","tag":{"amenity":"waste_basket","information":"board","tourism":"information"}},"type":"Feature"},
	{"geometry":{"coordinates":[9.661423,52.806039],"type":"Point"},"properties":{"osm_id":"2912914481","tag":{"amenity":"waste_basket"}},"type":"Feature"},
	{"geometry":{"coordinates":[9.651228,52.804924],"type":"Point"},"properties":{"osm_id":"2921172019","tag":{"amenity":"waste_basket"}},"type":"Feature"},
	{"geometry":{"coordinates":[9.652174,52.805029],"type":"Point"},"properties":{"osm_id":"2921172022","tag":{"amenity":"waste_basket"}},"type":"Feature"},
	{"geometry":{"coordinates":[9.65088,52.805668],"type":"Point"},"properties":{"osm_id":"2921172028","tag":{"amenity":"waste_basket"}},"type":"Feature"},
	{"geometry":{"coordinates":[9.650531,52.805852],"type":"Point"},"properties":{"osm_id":"2921172030","tag":{"amenity":"waste_basket"}},"type":"Feature"},
	{"geometry":{"coordinates":[9.665428,52.803471],"type":"Point"},"properties":{"osm_id":"3336532985","tag":{"amenity":"waste_basket"}},"type":"Feature"}
]
}
