{
"type": "FeatureCollection",
"features": [
	{"geometry":{"coordinates":[9.619666,52.676916],"type":"Point"},"properties":{"osm_id":"269232323","tag":{"amenity":"recycling","recycling:glass_bottles":"yes","recycling_type":"container"}},"type":"Feature"},
	{"geometry":{"coordinates":[9.631048,52.682561],"type":"Point"},"properties":{"osm_id":"269232324","tag":{"amenity":"recycling","recycling:glass":"yes","recycling_type":"container"}},"type":"Feature"},
	{"geometry":{"coordinates":[9.639628,52.692219],"type":"Point"},"properties":{"osm_id":"494266480","tag":{"amenity":"recycling","recycling:clothes":"yes","recycling:glass":"yes"}},"type":"Feature"},
	{"geometry":{"coordinates":[9.63583,52.69548],"type":"Point"},"properties":{"name":"Gr\u00c3\u00bcngutplatz Essel","osm_id":"1511804745","tag":{"amenity":"recycling","recycling:green_waste":"yes","recycling_type":"centre","website":"www.gr\u00c3\u00bcngutplatz.de"}},"type":"Feature"},
	{"geometry":{"coordinates":[9.61787,52.676815],"type":"Point"},"properties":{"osm_id":"9076513606","tag":{"amenity":"waste_basket"}},"type":"Feature"},
	{"geometry":{"coordinates":[9.618096,52.676521],"type":"Point"},"properties":{"osm_id":"9076513608","tag":{"amenity":"waste_basket"}},"type":"Feature"},
	{"geometry":{"coordinates":[9.618084,52.676539],"type":"Point"},"properties":{"osm_id":"9076513609","tag":{"amenity":"waste_basket"}},"type":"Feature"}
]
}
