{
"type": "FeatureCollection",
"features": [
	{"geometry":{"coordinates":[9.587343,52.446943],"type":"Point"},"properties":{"name":"Wertstoffhof Garbsen","osm_id":"274489185","tag":{"addr:city":"Garbsen","addr:postcode":"30826","addr:street":"Heinrich-Nordhoff-Ring","amenity":"recycling","operator":"aha Zweckverband Abfallwirtschaft Region Hannover","recycling_type":"centre"}},"type":"Feature"},
	{"geometry":{"coordinates":[9.624743,52.450479],"type":"Point"},"properties":{"osm_id":"277421751","tag":{"amenity":"recycling","recycling:glass_bottles":"yes","recycling:paper":"yes","recycling_type":"container"}},"type":"Feature"},
	{"geometry":{"coordinates":[9.587699,52.434967],"type":"Point"},"properties":{"osm_id":"306385903","tag":{"amenity":"recycling","recycling_type":"container"}},"type":"Feature"},
	{"geometry":{"coordinates":[9.620315,52.441035],"type":"Point"},"properties":{"osm_id":"441205452","tag":{"amenity":"recycling","recycling:glass_bottles":"yes","recycling:paper":"yes","recycling_type":"container"}},"type":"Feature"}
]
}
