{
"type": "FeatureCollection",
"features": [
	{"geometry":{"coordinates":[9.606973,52.307349],"type":"Point"},"properties":{"osm_id":"311336004","tag":{"amenity":"recycling","location":"overground","recycling:shoes":"yes","recycling_type":"container"}},"type":"Feature"},
	{"geometry":{"coordinates":[9.585417,52.321004],"type":"Point"},"properties":{"name":"Gr\u00c3\u00bcngutannahmestelle","osm_id":"311336096","tag":{"amenity":"recycling","opening_hours":"We 16:00-18:00, Sa 09:00-12:00","operator":"Kn\u00c3\u00b6lke","recycling:green_waste":"yes","recycling:wood":"yes","recycling_type":"centre"}},"type":"Feature"},
	{"geometry":{"coordinates":[9.588168,52.297371],"type":"Point"},"properties":{"osm_id":"409165259","tag":{"amenity":"waste_basket"}},"type":"Feature"},
	{"geometry":{"coordinates":[9.600739,52.298488],"type":"Point"},"properties":{"osm_id":"409165260","tag":{"amenity":"waste_basket"}},"type":"Feature"},
	{"geometry":{"coordinates":[9.612863,52.305319],"type":"Point"},"properties":{"osm_id":"769666906","tag":{"amenity":"waste_basket"}},"type":"Feature"},
	{"geometry":{"coordinates":[9.612396,52.309522],"type":"Point"},"properties":{"osm_id":"769666958","tag":{"amenity":"waste_basket"}},"type":"Feature"},
	{"geometry":{"coordinates":[9.638274,52.306951],"type":"Point"},"properties":{"osm_id":"797197708","tag":{"amenity":"waste_basket"}},"type":"Feature"},
	{"geometry":{"coordinates":[9.63444,52.290221],"type":"Point"},"properties":{"name":"Gryschka","osm_id":"1181799073","tag":{"addr:city":"Ronnenberg","addr:postcode":"30952","addr:street":"Hauptstra\u00c3\u009fe","addr:suburb":"Weetzen","amenity":"recycling","email":"gryschka-peter@t-online.de","fax":"+49 5109 3844","operator":"Abruch Erdbau Container Dienst","phone":"+49 5109 2366","phone:mobile":"+49 171 3707526","recycling_type":"centre"}},"type":"Feature"},
	{"geometry":{"coordinates":[9.63946,52.290787],"type":"Point"},"properties":{"osm_id":"1185458247","tag":{"amenity":"recycling","recycling:clothes":"yes","recycling:glass":"yes","recycling:paper":"yes","recycling_type":"container"}},"type":"Feature"},
	{"geometry":{"coordinates":[9.638956,52.296526],"type":"Point"},"properties":{"osm_id":"1206810856","tag":{"amenity":"recycling","recycling:clothes":"yes","recycling_type":"container"}},"type":"Feature"},
	{"geometry":{"coordinates":[9.635617,52.294713],"type":"Point"},"properties":{"osm_id":"1216919184","tag":{"amenity":"recycling","recycling:clothes":"yes","recycling_type":"container"}},"type":"Feature"},
	{"geometry":{"coordinates":[9.595933,52.270888],"type":"Point"},"properties":{"osm_id":"1365231625","tag":{"amenity":"waste_basket"}},"type":"Feature"},
	{"geometry":{"coordinates":[9.597925,52.304361],"type":"Point"},"properties":{"osm_id":"2296117670","tag":{"amenity":"waste_basket"}},"type":"Feature"},
	{"geometry":{"coordinates":[9.59945,52.304547],"type":"Point"},"properties":{"osm_id":"2296117671","tag":{"amenity":"waste_basket"}},"type":"Feature"},
	{"geometry":{"coordinates":[9.598247,52.304894],"type":"Point"},"properties":{"osm_id":"2296117678","tag":{"amenity":"waste_basket"}},"type":"Feature"},
	{"geometry":{"coordinates":[9.612568,52.278584],"type":"Point"},"properties":{"osm_id":"2405853435","tag":{"amenity":"waste_basket"}},"type":"Feature"},
	{"geometry":{"coordinates":[9.58239,52.274717],"type":"Point"},"properties":{"osm_id":"2406346764","tag":{"amenity":"waste_basket"}},"type":"Feature"},
	{"geometry":{"coordinates":[9.59916,52.305509],"type":"Point"},"properties":{"osm_id":"2458037117","tag":{"amenity":"waste_basket"}},"type":"Feature"},
	{"geometry":{"coordinates":[9.641062,52.278353],"type":"Point"},"properties":{"osm_id":"2459805072","tag":{"amenity":"waste_basket"}},"type":"Feature"},
	{"geometry":{"coordinates":[9.650086,52.311587],"type":"Point"},"properties":{"osm_id":"2464779220","tag":{"amenity":"recycling","recycling:glass":"yes","recycling:paper":"yes","recycling_type":"container"}},"type":"Feature"},
	{"geometry":{"coordinates":[9.607471,52.279628],"type":"Point"},"properties":{"osm_id":"3113546055","tag":{"amenity":"recycling","recycling:glass":"yes","recycling:paper":"yes","recycling_type":"container"}},"type":"Feature"},
	{"geometry":{"coordinates":[9.609565,52.311999],"type":"Point"},"properties":{"osm_id":"3303839667","tag":{"amenity":"recycling","recycling:cans":"no","recycling:clothes":"yes","recycling:glass":"yes","recycling:paper":"yes","recycling_type":"container"}},"type":"Feature"},
	{"geometry":{"coordinates":[9.648611,52.317403],"type":"Point"},"properties":{"osm_id":"3437142922","tag":{"amenity":"recycling","recycling:clothes":"yes","recycling_type":"container"}},"type":"Feature"},
	{"geometry":{"coordinates":[9.660281,52.272586],"type":"Point"},"properties":{"osm_id":"4060209338","tag":{"amenity":"recycling","recycling:glass":"yes","recycling:glass_bottles":"yes","recycling:paper":"yes","recycling_type":"container"}},"type":"Feature"},
	{"geometry":{"coordinates":[9.639984,52.295188],"type":"Point"},"properties":{"highway":"bus_stop","name":"Weetzen/Br\u00c3\u00b6hnstra\u00c3\u009fe","osm_id":"4170275487","tag":{"amenity":"waste_basket","bus":"yes","network":"Gro\u00c3\u009fraum-Verkehr Hannover","public_transport":"platform"}},"type":"Feature"},
	{"geometry":{"coordinates":[9.639666,52.295417],"type":"Point"},"properties":{"highway":"bus_stop","name":"Weetzen/Br\u00c3\u00b6hnstra\u00c3\u009fe","osm_id":"4170275488","tag":{"amenity":"waste_basket","bus":"yes","network":"Gro\u00c3\u009fraum-Verkehr Hannover","public_transport":"platform"}},"type":"Feature"},
	{"geometry":{"coordinates":[9.609442,52.277444],"type":"Point"},"properties":{"osm_id":"4837278595","tag":{"amenity":"waste_basket"}},"type":"Feature"},
	{"geometry":{"coordinates":[9.594701,52.316354],"type":"Point"},"properties":{"osm_id":"5773184454","tag":{"amenity":"waste_basket"}},"type":"Feature"},
	{"geometry":{"coordinates":[9.606596,52.277747],"type":"Point"},"properties":{"osm_id":"6770632979","tag":{"amenity":"waste_basket","waste":"dog_excrement"}},"type":"Feature"},
	{"geometry":{"coordinates":[9.610453,52.281345],"type":"Point"},"properties":{"osm_id":"6770640550","tag":{"amenity":"waste_basket","waste":"dog_excrement"}},"type":"Feature"}
]
}
