{
"type": "FeatureCollection",
"features": [
	{"geometry":{"coordinates":[9.66274,51.402761],"type":"Point"},"properties":{"osm_id":"976461086","tag":{"amenity":"recycling","recycling:glass":"yes","recycling_type":"container"}},"type":"Feature"},
	{"geometry":{"coordinates":[9.653717,51.42022],"type":"Point"},"properties":{"osm_id":"1856673847","tag":{"amenity":"recycling","description":"Glascontainer","recycling:glass_bottles":"yes","recycling_type":"container"}},"type":"Feature"},
	{"geometry":{"coordinates":[9.652421,51.418774],"type":"Point"},"properties":{"osm_id":"1861194760","tag":{"amenity":"waste_basket"}},"type":"Feature"},
	{"geometry":{"coordinates":[9.657662,51.401192],"type":"Point"},"properties":{"osm_id":"2645597400","tag":{"amenity":"recycling","recycling:glass_bottles":"yes","recycling_type":"container"}},"type":"Feature"},
	{"geometry":{"coordinates":[9.66394,51.404317],"type":"Point"},"properties":{"osm_id":"2645600959","tag":{"amenity":"recycling","recycling:glass":"yes","recycling_type":"container"}},"type":"Feature"},
	{"geometry":{"coordinates":[9.654479,51.406748],"type":"Point"},"properties":{"osm_id":"2645611496","tag":{"amenity":"recycling","recycling:glass":"yes","recycling_type":"container"}},"type":"Feature"},
	{"geometry":{"coordinates":[9.651989,51.418228],"type":"Point"},"properties":{"osm_id":"2717276326","tag":{"amenity":"waste_basket"}},"type":"Feature"},
	{"geometry":{"coordinates":[9.652374,51.418758],"type":"Point"},"properties":{"osm_id":"2717371572","tag":{"amenity":"waste_basket"}},"type":"Feature"},
	{"geometry":{"coordinates":[9.650439,51.420264],"type":"Point"},"properties":{"osm_id":"2717415862","tag":{"amenity":"waste_basket"}},"type":"Feature"},
	{"geometry":{"coordinates":[9.649852,51.418513],"type":"Point"},"properties":{"osm_id":"2717613149","tag":{"amenity":"waste_basket"}},"type":"Feature"},
	{"geometry":{"coordinates":[9.649911,51.418687],"type":"Point"},"properties":{"osm_id":"2717613162","tag":{"amenity":"waste_basket"}},"type":"Feature"},
	{"geometry":{"coordinates":[9.649617,51.420611],"type":"Point"},"properties":{"osm_id":"2717613215","tag":{"amenity":"waste_basket"}},"type":"Feature"},
	{"geometry":{"coordinates":[9.649628,51.418035],"type":"Point"},"properties":{"osm_id":"2717629111","tag":{"amenity":"waste_basket"}},"type":"Feature"},
	{"geometry":{"coordinates":[9.648599,51.420864],"type":"Point"},"properties":{"osm_id":"2717641474","tag":{"amenity":"waste_basket"}},"type":"Feature"},
	{"geometry":{"coordinates":[9.650227,51.419663],"type":"Point"},"properties":{"osm_id":"2717802822","tag":{"amenity":"waste_basket"}},"type":"Feature"},
	{"geometry":{"coordinates":[9.650781,51.419919],"type":"Point"},"properties":{"osm_id":"2717802857","tag":{"amenity":"waste_basket"}},"type":"Feature"},
	{"geometry":{"coordinates":[9.650052,51.419957],"type":"Point"},"properties":{"osm_id":"2717802860","tag":{"amenity":"waste_basket"}},"type":"Feature"},
	{"geometry":{"coordinates":[9.655147,51.417927],"type":"Point"},"properties":{"osm_id":"2718784766","tag":{"amenity":"waste_basket"}},"type":"Feature"},
	{"geometry":{"coordinates":[9.655483,51.41828],"type":"Point"},"properties":{"osm_id":"2718784831","tag":{"amenity":"waste_basket"}},"type":"Feature"},
	{"geometry":{"coordinates":[9.654461,51.417079],"type":"Point"},"properties":{"osm_id":"2718902228","tag":{"amenity":"recycling","recycling:clothes":"yes","recycling:glass":"yes","recycling_type":"container"}},"type":"Feature"},
	{"geometry":{"coordinates":[9.651445,51.414552],"type":"Point"},"properties":{"osm_id":"2725639685","tag":{"amenity":"waste_basket"}},"type":"Feature"},
	{"geometry":{"coordinates":[9.65113,51.414683],"type":"Point"},"properties":{"osm_id":"2725639700","tag":{"amenity":"waste_basket"}},"type":"Feature"},
	{"geometry":{"coordinates":[9.648585,51.415762],"type":"Point"},"properties":{"osm_id":"2725763985","tag":{"amenity":"recycling","operator":"Johannes Fehr GmbH & Co. KG","recycling:glass":"yes","recycling:glass_bottles":"yes","recycling_type":"container"}},"type":"Feature"},
	{"geometry":{"coordinates":[9.648816,51.418993],"type":"Point"},"properties":{"osm_id":"2900711089","tag":{"amenity":"recycling","recycling:clothes":"yes","recycling_type":"container"}},"type":"Feature"},
	{"geometry":{"coordinates":[9.648327,51.418283],"type":"Point"},"properties":{"osm_id":"2900711091","tag":{"amenity":"waste_basket"}},"type":"Feature"},
	{"geometry":{"coordinates":[9.648344,51.418674],"type":"Point"},"properties":{"osm_id":"2900711096","tag":{"amenity":"waste_basket"}},"type":"Feature"},
	{"geometry":{"coordinates":[9.648701,51.418864],"type":"Point"},"properties":{"osm_id":"2900711099","tag":{"amenity":"waste_basket"}},"type":"Feature"},
	{"geometry":{"coordinates":[9.648948,51.418934],"type":"Point"},"properties":{"osm_id":"2900718102","tag":{"amenity":"waste_basket"}},"type":"Feature"},
	{"geometry":{"coordinates":[9.649211,51.419111],"type":"Point"},"properties":{"osm_id":"2900718108","tag":{"amenity":"waste_basket"}},"type":"Feature"},
	{"geometry":{"coordinates":[9.643758,51.437358],"type":"Point"},"properties":{"osm_id":"3483632793","tag":{"amenity":"recycling","operator":"Johannes Fehr GmbH & Co. KG","recycling:glass_bottles":"yes","recycling_type":"container"}},"type":"Feature"},
	{"geometry":{"coordinates":[9.642384,51.432169],"type":"Point"},"properties":{"osm_id":"3521837498","tag":{"amenity":"recycling","operator":"Deutsches Rotes Kreuz","recycling:clothes":"yes","recycling_type":"container"}},"type":"Feature"},
	{"geometry":{"coordinates":[9.662116,51.414392],"type":"Point"},"properties":{"osm_id":"3529019796","tag":{"amenity":"recycling","recycling:clothes":"yes","recycling_type":"container"}},"type":"Feature"},
	{"geometry":{"coordinates":[9.644305,51.431768],"type":"Point"},"properties":{"osm_id":"3529021607","tag":{"amenity":"recycling","operator":"Fehr","recycling:glass":"no","recycling:glass_bottles":"yes","recycling_type":"container"}},"type":"Feature"},
	{"geometry":{"coordinates":[9.65215,51.4149],"type":"Point"},"properties":{"osm_id":"4721267803","tag":{"amenity":"recycling","recycling:glass":"yes","recycling:glass_bottles":"yes","recycling_type":"container"}},"type":"Feature"},
	{"geometry":{"coordinates":[9.657697,51.4012],"type":"Point"},"properties":{"osm_id":"5520708521","tag":{"amenity":"recycling","recycling:glass_bottles":"yes","recycling_type":"container"}},"type":"Feature"},
	{"geometry":{"coordinates":[9.657689,51.401228],"type":"Point"},"properties":{"osm_id":"5520708522","tag":{"amenity":"recycling","recycling:glass_bottles":"yes","recycling_type":"container"}},"type":"Feature"},
	{"geometry":{"coordinates":[9.657653,51.40122],"type":"Point"},"properties":{"osm_id":"5520708523","tag":{"amenity":"recycling","recycling:glass_bottles":"yes","recycling_type":"container"}},"type":"Feature"},
	{"geometry":{"coordinates":[9.654472,51.406729],"type":"Point"},"properties":{"osm_id":"5520724820","tag":{"amenity":"recycling","recycling:clothes":"yes","recycling_type":"container"}},"type":"Feature"},
	{"geometry":{"coordinates":[9.654464,51.406711],"type":"Point"},"properties":{"osm_id":"5520727921","tag":{"amenity":"recycling","recycling:clothes":"yes","recycling_type":"container"}},"type":"Feature"},
	{"geometry":{"coordinates":[9.657669,51.41268],"type":"Point"},"properties":{"osm_id":"5520753675","tag":{"amenity":"waste_basket"}},"type":"Feature"},
	{"geometry":{"coordinates":[9.657797,51.412728],"type":"Point"},"properties":{"osm_id":"5520753676","tag":{"amenity":"waste_basket"}},"type":"Feature"},
	{"geometry":{"coordinates":[9.657292,51.412735],"type":"Point"},"properties":{"osm_id":"5520753677","tag":{"amenity":"waste_basket"}},"type":"Feature"},
	{"geometry":{"coordinates":[9.658156,51.415084],"type":"Point"},"properties":{"osm_id":"5520773562","tag":{"amenity":"waste_basket"}},"type":"Feature"},
	{"geometry":{"coordinates":[9.651565,51.416669],"type":"Point"},"properties":{"osm_id":"5520796525","tag":{"amenity":"waste_basket"}},"type":"Feature"},
	{"geometry":{"coordinates":[9.651122,51.416547],"type":"Point"},"properties":{"osm_id":"5520800778","tag":{"amenity":"waste_basket"}},"type":"Feature"},
	{"geometry":{"coordinates":[9.648614,51.418472],"type":"Point"},"properties":{"osm_id":"5520862588","tag":{"amenity":"waste_basket"}},"type":"Feature"},
	{"geometry":{"coordinates":[9.649126,51.420048],"type":"Point"},"properties":{"osm_id":"5520862594","tag":{"amenity":"waste_basket"}},"type":"Feature"},
	{"geometry":{"coordinates":[9.647928,51.419563],"type":"Point"},"properties":{"osm_id":"5520866898","tag":{"amenity":"waste_basket"}},"type":"Feature"},
	{"geometry":{"coordinates":[9.648078,51.419302],"type":"Point"},"properties":{"osm_id":"5520871929","tag":{"amenity":"waste_basket"}},"type":"Feature"},
	{"geometry":{"coordinates":[9.64827,51.41902],"type":"Point"},"properties":{"osm_id":"5520871939","tag":{"amenity":"waste_basket"}},"type":"Feature"},
	{"geometry":{"coordinates":[9.649077,51.422614],"type":"Point"},"properties":{"osm_id":"5520921465","tag":{"amenity":"waste_basket"}},"type":"Feature"},
	{"geometry":{"coordinates":[9.649382,51.417542],"type":"Point"},"properties":{"osm_id":"5521026625","tag":{"amenity":"waste_basket"}},"type":"Feature"},
	{"geometry":{"coordinates":[9.646894,51.422933],"type":"Point"},"properties":{"osm_id":"5550586391","tag":{"amenity":"waste_basket"}},"type":"Feature"},
	{"geometry":{"coordinates":[9.656828,51.409839],"type":"Point"},"properties":{"osm_id":"5572092671","tag":{"amenity":"recycling","recycling:clothes":"yes","recycling_type":"container"}},"type":"Feature"},
	{"geometry":{"coordinates":[9.656847,51.409856],"type":"Point"},"properties":{"osm_id":"5572092672","tag":{"amenity":"recycling","recycling:clothes":"yes","recycling_type":"container"}},"type":"Feature"},
	{"geometry":{"coordinates":[9.656861,51.40986],"type":"Point"},"properties":{"osm_id":"5572092673","tag":{"amenity":"recycling","recycling:clothes":"yes","recycling_type":"container"}},"type":"Feature"},
	{"geometry":{"coordinates":[9.656887,51.40985],"type":"Point"},"properties":{"osm_id":"5572092674","tag":{"amenity":"recycling","operator":"Johannes Fehr GmbH & Co. KG","recycling:glass":"yes","recycling_type":"container"}},"type":"Feature"},
	{"geometry":{"coordinates":[9.656873,51.409843],"type":"Point"},"properties":{"osm_id":"5572092675","tag":{"amenity":"recycling","operator":"Johannes Fehr GmbH & Co. KG","recycling:glass":"yes","recycling_type":"container"}},"type":"Feature"},
	{"geometry":{"coordinates":[9.656852,51.409836],"type":"Point"},"properties":{"osm_id":"5572092676","tag":{"amenity":"recycling","operator":"Johannes Fehr GmbH & Co. KG","recycling:glass":"yes","recycling_type":"container"}},"type":"Feature"},
	{"geometry":{"coordinates":[9.657021,51.412831],"type":"Point"},"properties":{"osm_id":"5580693725","tag":{"amenity":"waste_basket"}},"type":"Feature"},
	{"geometry":{"coordinates":[9.648562,51.41576],"type":"Point"},"properties":{"osm_id":"5580818193","tag":{"amenity":"recycling","operator":"Johannes Fehr GmbH & Co. KG","recycling:glass":"yes","recycling:glass_bottles":"yes","recycling_type":"container"}},"type":"Feature"},
	{"geometry":{"coordinates":[9.648537,51.415761],"type":"Point"},"properties":{"osm_id":"5580818194","tag":{"amenity":"recycling","operator":"Johannes Fehr GmbH & Co. KG","recycling:glass":"yes","recycling:glass_bottles":"yes","recycling_type":"container"}},"type":"Feature"},
	{"geometry":{"coordinates":[9.648512,51.415756],"type":"Point"},"properties":{"osm_id":"5580818195","tag":{"amenity":"recycling","recycling:clothes":"yes","recycling_type":"container"}},"type":"Feature"},
	{"geometry":{"coordinates":[9.648493,51.41577],"type":"Point"},"properties":{"osm_id":"5580818196","tag":{"amenity":"recycling","recycling:clothes":"yes","recycling_type":"container"}},"type":"Feature"},
	{"geometry":{"coordinates":[9.648579,51.416743],"type":"Point"},"properties":{"osm_id":"5580828448","tag":{"amenity":"waste_basket"}},"type":"Feature"},
	{"geometry":{"coordinates":[9.648389,51.417117],"type":"Point"},"properties":{"osm_id":"5580842115","tag":{"amenity":"waste_basket"}},"type":"Feature"},
	{"geometry":{"coordinates":[9.653132,51.413001],"type":"Point"},"properties":{"osm_id":"5580901566","tag":{"amenity":"waste_basket"}},"type":"Feature"},
	{"geometry":{"coordinates":[9.652933,51.41304],"type":"Point"},"properties":{"osm_id":"5580907473","tag":{"amenity":"recycling","operator":"Johannes Fehr GmbH & Co. KG","recycling:glass":"yes","recycling_type":"container"}},"type":"Feature"},
	{"geometry":{"coordinates":[9.652963,51.413053],"type":"Point"},"properties":{"osm_id":"5580907474","tag":{"amenity":"recycling","operator":"Johannes Fehr GmbH & Co. KG","recycling:glass":"yes","recycling_type":"container"}},"type":"Feature"},
	{"geometry":{"coordinates":[9.652938,51.413068],"type":"Point"},"properties":{"osm_id":"5580907475","tag":{"amenity":"recycling","recycling:clothes":"yes","recycling_type":"container"}},"type":"Feature"},
	{"geometry":{"coordinates":[9.658545,51.416288],"type":"Point"},"properties":{"osm_id":"5580956147","tag":{"amenity":"waste_basket"}},"type":"Feature"},
	{"geometry":{"coordinates":[9.658559,51.416366],"type":"Point"},"properties":{"osm_id":"5580956148","tag":{"amenity":"waste_basket"}},"type":"Feature"},
	{"geometry":{"coordinates":[9.660516,51.402357],"type":"Point"},"properties":{"osm_id":"5581118947","tag":{"amenity":"recycling","recycling:glass":"yes","recycling_type":"container"}},"type":"Feature"},
	{"geometry":{"coordinates":[9.66049,51.40235],"type":"Point"},"properties":{"osm_id":"5581118948","tag":{"amenity":"recycling","recycling:glass":"yes","recycling_type":"container"}},"type":"Feature"},
	{"geometry":{"coordinates":[9.66046,51.40233],"type":"Point"},"properties":{"osm_id":"5581118949","tag":{"amenity":"recycling","recycling:clothes":"yes","recycling_type":"container"}},"type":"Feature"},
	{"geometry":{"coordinates":[9.663967,51.404314],"type":"Point"},"properties":{"osm_id":"5581118964","tag":{"amenity":"recycling","recycling:glass":"yes","recycling_type":"container"}},"type":"Feature"},
	{"geometry":{"coordinates":[9.664001,51.404315],"type":"Point"},"properties":{"osm_id":"5581118965","tag":{"amenity":"recycling","recycling:clothes":"yes","recycling_type":"container"}},"type":"Feature"},
	{"geometry":{"coordinates":[9.646804,51.408638],"type":"Point"},"properties":{"osm_id":"5592509451","tag":{"amenity":"recycling","recycling:glass_bottles":"yes","recycling_type":"container"}},"type":"Feature"},
	{"geometry":{"coordinates":[9.646827,51.40866],"type":"Point"},"properties":{"osm_id":"5592509452","tag":{"amenity":"recycling","recycling:glass_bottles":"yes","recycling_type":"container"}},"type":"Feature"},
	{"geometry":{"coordinates":[9.646847,51.408651],"type":"Point"},"properties":{"osm_id":"5592509453","tag":{"amenity":"recycling","recycling:clothes":"yes","recycling_type":"container"}},"type":"Feature"},
	{"geometry":{"coordinates":[9.646869,51.408665],"type":"Point"},"properties":{"osm_id":"5592509454","tag":{"amenity":"recycling","recycling:clothes":"yes","recycling_type":"container"}},"type":"Feature"},
	{"geometry":{"coordinates":[9.643341,51.40842],"type":"Point"},"properties":{"osm_id":"5592514495","tag":{"amenity":"recycling","recycling:glass_bottles":"yes","recycling_type":"container"}},"type":"Feature"},
	{"geometry":{"coordinates":[9.643341,51.4084],"type":"Point"},"properties":{"osm_id":"5592514496","tag":{"amenity":"recycling","recycling:glass_bottles":"yes","recycling_type":"container"}},"type":"Feature"},
	{"geometry":{"coordinates":[9.643342,51.408378],"type":"Point"},"properties":{"osm_id":"5592514497","tag":{"amenity":"recycling","recycling:glass_bottles":"yes","recycling_type":"container"}},"type":"Feature"},
	{"geometry":{"coordinates":[9.643341,51.408351],"type":"Point"},"properties":{"osm_id":"5592514498","tag":{"amenity":"recycling","recycling:clothes":"yes","recycling_type":"container"}},"type":"Feature"},
	{"geometry":{"coordinates":[9.643341,51.408335],"type":"Point"},"properties":{"osm_id":"5592514499","tag":{"amenity":"recycling","recycling:clothes":"yes","recycling_type":"container"}},"type":"Feature"},
	{"geometry":{"coordinates":[9.646401,51.428411],"type":"Point"},"properties":{"osm_id":"5607822818","tag":{"amenity":"waste_basket","operator":"McDonald's"}},"type":"Feature"},
	{"geometry":{"coordinates":[9.646447,51.428491],"type":"Point"},"properties":{"osm_id":"5607822819","tag":{"amenity":"waste_basket","operator":"McDonald's"}},"type":"Feature"},
	{"geometry":{"coordinates":[9.646385,51.428189],"type":"Point"},"properties":{"osm_id":"5608139637","tag":{"amenity":"waste_basket","operator":"McDonald's"}},"type":"Feature"},
	{"geometry":{"coordinates":[9.643729,51.437356],"type":"Point"},"properties":{"osm_id":"5625098248","tag":{"amenity":"recycling","operator":"Johannes Fehr GmbH & Co. KG","recycling:glass_bottles":"yes","recycling_type":"container"}},"type":"Feature"},
	{"geometry":{"coordinates":[9.643698,51.437356],"type":"Point"},"properties":{"osm_id":"5625098249","tag":{"amenity":"recycling","operator":"Johannes Fehr GmbH & Co. KG","recycling:glass_bottles":"yes","recycling_type":"container"}},"type":"Feature"},
	{"geometry":{"coordinates":[9.643757,51.437375],"type":"Point"},"properties":{"osm_id":"5625098250","tag":{"amenity":"recycling","recycling:clothes":"yes","recycling_type":"container"}},"type":"Feature"},
	{"geometry":{"coordinates":[9.64707,51.43417],"type":"Point"},"properties":{"osm_id":"5625129666","tag":{"amenity":"recycling","operator":"Johannes Fehr GmbH & Co. KG","recycling:glass_bottles":"yes","recycling_type":"container"}},"type":"Feature"},
	{"geometry":{"coordinates":[9.6471,51.434178],"type":"Point"},"properties":{"osm_id":"5625129667","tag":{"amenity":"recycling","recycling:clothes":"yes","recycling_type":"container"}},"type":"Feature"},
	{"geometry":{"coordinates":[9.649722,51.401163],"type":"Point"},"properties":{"osm_id":"5641244504","tag":{"amenity":"recycling","recycling:glass_bottles":"yes","recycling_type":"container"}},"type":"Feature"},
	{"geometry":{"coordinates":[9.649667,51.401182],"type":"Point"},"properties":{"osm_id":"5641244505","tag":{"amenity":"recycling","recycling:clothes":"yes","recycling_type":"container"}},"type":"Feature"},
	{"geometry":{"coordinates":[9.64855,51.418234],"type":"Point"},"properties":{"osm_id":"5798887397","tag":{"amenity":"waste_basket"}},"type":"Feature"},
	{"geometry":{"coordinates":[9.64848,51.41848],"type":"Point"},"properties":{"osm_id":"5798887399","tag":{"amenity":"waste_basket"}},"type":"Feature"},
	{"geometry":{"coordinates":[9.652173,51.414901],"type":"Point"},"properties":{"osm_id":"6343584188","tag":{"amenity":"recycling","recycling:clothes":"yes","recycling_type":"container"}},"type":"Feature"},
	{"geometry":{"coordinates":[9.652157,51.414889],"type":"Point"},"properties":{"osm_id":"6343584189","tag":{"amenity":"recycling","recycling:glass":"yes","recycling:glass_bottles":"yes","recycling_type":"container"}},"type":"Feature"}
]
}
