{
"type": "FeatureCollection",
"features": [
	{"geometry":{"coordinates":[9.657057,50.574681],"type":"Point"},"properties":{"osm_id":"429232776","tag":{"amenity":"recycling","recycling:clothes":"yes","recycling:glass":"yes","recycling:paper":"yes"}},"type":"Feature"},
	{"geometry":{"coordinates":[9.648808,50.574657],"type":"Point"},"properties":{"osm_id":"430597830","tag":{"amenity":"recycling","recycling:glass":"yes","recycling:paper":"yes"}},"type":"Feature"},
	{"geometry":{"coordinates":[9.647324,50.581027],"type":"Point"},"properties":{"osm_id":"693361088","tag":{"amenity":"recycling","recycling:clothes":"yes"}},"type":"Feature"},
	{"geometry":{"coordinates":[9.64718,50.582597],"type":"Point"},"properties":{"osm_id":"693371688","tag":{"amenity":"recycling","recycling:glass_bottles":"yes"}},"type":"Feature"},
	{"geometry":{"coordinates":[9.645507,50.572771],"type":"Point"},"properties":{"osm_id":"929940161","tag":{"amenity":"recycling","recycling:glass":"yes","recycling:paper":"yes"}},"type":"Feature"},
	{"geometry":{"coordinates":[9.617309,50.608631],"type":"Point"},"properties":{"osm_id":"1809407509","tag":{"amenity":"recycling","recycling:glass_bottles":"yes","recycling_type":"container"}},"type":"Feature"},
	{"geometry":{"coordinates":[9.617441,50.608778],"type":"Point"},"properties":{"osm_id":"1809407510","tag":{"amenity":"recycling","recycling:glass_bottles":"yes","recycling_type":"container"}},"type":"Feature"},
	{"geometry":{"coordinates":[9.605173,50.621083],"type":"Point"},"properties":{"osm_id":"1809407527","tag":{"amenity":"recycling","recycling:glass_bottles":"yes","recycling_type":"container"}},"type":"Feature"},
	{"geometry":{"coordinates":[9.652973,50.571313],"type":"Point"},"properties":{"osm_id":"3253437388","tag":{"amenity":"recycling","location":"underground","recycling_type":"container"}},"type":"Feature"},
	{"geometry":{"coordinates":[9.653932,50.576054],"type":"Point"},"properties":{"osm_id":"4561258630","tag":{"amenity":"waste_basket"}},"type":"Feature"},
	{"geometry":{"coordinates":[9.651175,50.577488],"type":"Point"},"properties":{"osm_id":"4561258631","tag":{"amenity":"waste_basket"}},"type":"Feature"},
	{"geometry":{"coordinates":[9.586488,50.573632],"type":"Point"},"properties":{"osm_id":"5870553912","tag":{"amenity":"recycling","recycling:glass_bottles":"yes","recycling_type":"container"}},"type":"Feature"},
	{"geometry":{"coordinates":[9.627747,50.583217],"type":"Point"},"properties":{"osm_id":"6112183168","tag":{"amenity":"recycling","recycling:glass_bottles":"yes","recycling_type":"container"}},"type":"Feature"},
	{"geometry":{"coordinates":[9.627769,50.583197],"type":"Point"},"properties":{"osm_id":"6112183169","tag":{"amenity":"recycling","recycling:clothes":"yes","recycling_type":"container"}},"type":"Feature"},
	{"geometry":{"coordinates":[9.640986,50.602449],"type":"Point"},"properties":{"osm_id":"6178372869","tag":{"amenity":"recycling","recycling:clothes":"yes","recycling_type":"container"}},"type":"Feature"},
	{"geometry":{"coordinates":[9.645587,50.599494],"type":"Point"},"properties":{"osm_id":"6178735864","tag":{"amenity":"recycling","recycling:glass_bottles":"yes","recycling_type":"container"}},"type":"Feature"},
	{"geometry":{"coordinates":[9.645418,50.599556],"type":"Point"},"properties":{"osm_id":"6178735873","tag":{"amenity":"recycling","recycling:clothes":"yes","recycling_type":"container"}},"type":"Feature"},
	{"geometry":{"coordinates":[9.586528,50.573621],"type":"Point"},"properties":{"osm_id":"8091878430","tag":{"amenity":"waste_basket","waste":"dog_excrement"}},"type":"Feature"},
	{"geometry":{"coordinates":[9.593776,50.573782],"type":"Point"},"properties":{"osm_id":"8961207290","tag":{"amenity":"waste_basket","waste":"trash"}},"type":"Feature"},
	{"geometry":{"coordinates":[9.593478,50.573822],"type":"Point"},"properties":{"osm_id":"8961207291","tag":{"amenity":"waste_basket","waste":"trash"}},"type":"Feature"},
	{"geometry":{"coordinates":[9.593081,50.573861],"type":"Point"},"properties":{"osm_id":"8961207292","tag":{"amenity":"waste_basket","waste":"trash"}},"type":"Feature"},
	{"geometry":{"coordinates":[9.593776,50.573782],"type":"Point"},"properties":{"osm_id":"8978458024","tag":{"amenity":"waste_basket","waste":"trash"}},"type":"Feature"},
	{"geometry":{"coordinates":[9.593478,50.573822],"type":"Point"},"properties":{"osm_id":"8978458025","tag":{"amenity":"waste_basket","waste":"trash"}},"type":"Feature"},
	{"geometry":{"coordinates":[9.593081,50.573861],"type":"Point"},"properties":{"osm_id":"8978458026","tag":{"amenity":"waste_basket","waste":"trash"}},"type":"Feature"},
	{"geometry":{"coordinates":[9.6398,50.599392],"type":"Point"},"properties":{"osm_id":"9063958886","tag":{"amenity":"waste_basket"}},"type":"Feature"}
]
}
