{
"type": "FeatureCollection",
"features": [
	{"geometry":{"coordinates":[9.665276,50.5572],"type":"Point"},"properties":{"osm_id":"254490470","tag":{"amenity":"recycling"}},"type":"Feature"},
	{"geometry":{"coordinates":[9.650659,50.555034],"type":"Point"},"properties":{"osm_id":"254505879","tag":{"amenity":"recycling","location":"overground","recycling_type":"container"}},"type":"Feature"},
	{"geometry":{"coordinates":[9.645292,50.544994],"type":"Point"},"properties":{"osm_id":"258799120","tag":{"amenity":"recycling"}},"type":"Feature"},
	{"geometry":{"coordinates":[9.659724,50.55103],"type":"Point"},"properties":{"osm_id":"267874594","tag":{"amenity":"recycling","recycling:glass_bottles":"yes"}},"type":"Feature"},
	{"geometry":{"coordinates":[9.635559,50.548179],"type":"Point"},"properties":{"osm_id":"267892796","tag":{"amenity":"recycling"}},"type":"Feature"},
	{"geometry":{"coordinates":[9.663118,50.542748],"type":"Point"},"properties":{"osm_id":"267963199","tag":{"amenity":"recycling"}},"type":"Feature"},
	{"geometry":{"coordinates":[9.661684,50.546019],"type":"Point"},"properties":{"osm_id":"268279223","tag":{"amenity":"recycling","recycling:glass_bottles":"yes"}},"type":"Feature"},
	{"geometry":{"coordinates":[9.655785,50.52163],"type":"Point"},"properties":{"osm_id":"269259688","tag":{"amenity":"recycling"}},"type":"Feature"},
	{"geometry":{"coordinates":[9.650459,50.520664],"type":"Point"},"properties":{"osm_id":"269921452","tag":{"amenity":"recycling"}},"type":"Feature"},
	{"geometry":{"coordinates":[9.649423,50.534136],"type":"Point"},"properties":{"osm_id":"270270794","tag":{"amenity":"recycling","recycling:glass":"yes"}},"type":"Feature"},
	{"geometry":{"coordinates":[9.622629,50.549412],"type":"Point"},"properties":{"osm_id":"272589678","tag":{"amenity":"recycling"}},"type":"Feature"},
	{"geometry":{"coordinates":[9.628837,50.545786],"type":"Point"},"properties":{"osm_id":"273029151","tag":{"amenity":"recycling"}},"type":"Feature"},
	{"geometry":{"coordinates":[9.656435,50.554949],"type":"Point"},"properties":{"osm_id":"403126995","tag":{"amenity":"recycling","recycling:glass":"yes","recycling:paper":"yes"}},"type":"Feature"},
	{"geometry":{"coordinates":[9.608303,50.539773],"type":"Point"},"properties":{"osm_id":"419107838","tag":{"amenity":"recycling","recycling:glass_bottles":"yes","recycling_type":"container"}},"type":"Feature"},
	{"geometry":{"coordinates":[9.592835,50.550131],"type":"Point"},"properties":{"osm_id":"419240593","tag":{"amenity":"recycling","recycling:glass_bottles":"yes","recycling_type":"container"}},"type":"Feature"},
	{"geometry":{"coordinates":[9.624638,50.566119],"type":"Point"},"properties":{"osm_id":"425876943","tag":{"amenity":"recycling","recycling:glass":"yes","recycling:paper":"yes","recycling_type":"container"}},"type":"Feature"},
	{"geometry":{"coordinates":[9.658976,50.563524],"type":"Point"},"properties":{"osm_id":"429766223","tag":{"amenity":"recycling","recycling:glass":"yes","recycling:paper":"yes"}},"type":"Feature"},
	{"geometry":{"coordinates":[9.663219,50.565978],"type":"Point"},"properties":{"osm_id":"430676369","tag":{"amenity":"recycling","location":"overground","recycling:glass":"yes","recycling:paper":"yes","recycling_type":"container"}},"type":"Feature"},
	{"geometry":{"coordinates":[9.665291,50.569275],"type":"Point"},"properties":{"osm_id":"432011498","tag":{"amenity":"recycling","recycling:clothes":"yes"}},"type":"Feature"},
	{"geometry":{"coordinates":[9.638786,50.559998],"type":"Point"},"properties":{"osm_id":"437342621","tag":{"amenity":"recycling","recycling:shoes":"yes"}},"type":"Feature"},
	{"geometry":{"coordinates":[9.642626,50.519747],"type":"Point"},"properties":{"osm_id":"691230202","tag":{"amenity":"recycling","recycling:glass":"yes","recycling:paper":"yes"}},"type":"Feature"},
	{"geometry":{"coordinates":[9.62606,50.517354],"type":"Point"},"properties":{"osm_id":"701726118","tag":{"amenity":"recycling","recycling:glass":"yes"}},"type":"Feature"},
	{"geometry":{"coordinates":[9.650317,50.520299],"type":"Point"},"properties":{"osm_id":"717936945","tag":{"amenity":"waste_basket"}},"type":"Feature"},
	{"geometry":{"coordinates":[9.663415,50.520184],"type":"Point"},"properties":{"osm_id":"720896270","tag":{"amenity":"waste_basket"}},"type":"Feature"},
	{"geometry":{"coordinates":[9.599106,50.518977],"type":"Point"},"properties":{"osm_id":"727446015","tag":{"amenity":"waste_basket"}},"type":"Feature"},
	{"geometry":{"coordinates":[9.610498,50.522476],"type":"Point"},"properties":{"osm_id":"727446016","tag":{"amenity":"waste_basket"}},"type":"Feature"},
	{"geometry":{"coordinates":[9.598398,50.51885],"type":"Point"},"properties":{"osm_id":"727446023","tag":{"amenity":"waste_basket"}},"type":"Feature"},
	{"geometry":{"coordinates":[9.61135,50.522503],"type":"Point"},"properties":{"osm_id":"727446025","tag":{"amenity":"waste_basket"}},"type":"Feature"},
	{"geometry":{"coordinates":[9.666094,50.559253],"type":"Point"},"properties":{"osm_id":"1638229861","tag":{"amenity":"recycling","location":"overground","recycling:clothes":"yes","recycling_type":"container"}},"type":"Feature"},
	{"geometry":{"coordinates":[9.581955,50.556925],"type":"Point"},"properties":{"osm_id":"1822033968","tag":{"amenity":"recycling","recycling:glass_bottles":"yes","recycling_type":"container"}},"type":"Feature"},
	{"geometry":{"coordinates":[9.665878,50.556808],"type":"Point"},"properties":{"osm_id":"4498325733","tag":{"amenity":"waste_basket"}},"type":"Feature"},
	{"geometry":{"coordinates":[9.665962,50.556808],"type":"Point"},"properties":{"osm_id":"4498325734","tag":{"amenity":"waste_basket"}},"type":"Feature"},
	{"geometry":{"coordinates":[9.665611,50.556864],"type":"Point"},"properties":{"osm_id":"4498328820","tag":{"amenity":"recycling","recycling:glass":"yes","recycling:paper":"yes","recycling_type":"container"}},"type":"Feature"},
	{"geometry":{"coordinates":[9.634293,50.564556],"type":"Point"},"properties":{"name":"Flaschencontainer","osm_id":"5527245383","tag":{"amenity":"recycling","recycling:glass":"yes","recycling_type":"container"}},"type":"Feature"},
	{"geometry":{"coordinates":[9.608323,50.539764],"type":"Point"},"properties":{"osm_id":"6164625256","tag":{"amenity":"recycling","recycling:clothes":"yes","recycling_type":"container"}},"type":"Feature"},
	{"geometry":{"coordinates":[9.61578,50.52298],"type":"Point"},"properties":{"osm_id":"6165424795","tag":{"amenity":"recycling","recycling:glass_bottles":"yes","recycling_type":"container"}},"type":"Feature"},
	{"geometry":{"coordinates":[9.608183,50.516459],"type":"Point"},"properties":{"man_made":"bunker_silo","osm_id":"6237898082","tag":{"amenity":"recycling","recycling:glass_bottles":"yes","recycling_type":"container"}},"type":"Feature"},
	{"geometry":{"coordinates":[9.6405,50.534641],"type":"Point"},"properties":{"osm_id":"6304886183","tag":{"amenity":"recycling","recycling:clothes":"yes","recycling_type":"container"}},"type":"Feature"},
	{"geometry":{"coordinates":[9.640526,50.534661],"type":"Point"},"properties":{"osm_id":"6304886184","tag":{"amenity":"recycling","recycling:glass_bottles":"yes","recycling_type":"container"}},"type":"Feature"},
	{"geometry":{"coordinates":[9.627981,50.546783],"type":"Point"},"properties":{"osm_id":"7674682199","tag":{"amenity":"waste_basket","material":"metal","operator":"Stadt Fulda","waste":"trash"}},"type":"Feature"}
]
}
