{
"type": "FeatureCollection",
"features": [
	{"geometry":{"coordinates":[9.667845,49.630533],"type":"Point"},"properties":{"osm_id":"426941314","tag":{"amenity":"recycling","recycling:glass":"yes","recycling_type":"container"}},"type":"Feature"},
	{"geometry":{"coordinates":[9.667857,49.630477],"type":"Point"},"properties":{"osm_id":"426941315","tag":{"amenity":"recycling","recycling:clothes":"yes","recycling_type":"container"}},"type":"Feature"},
	{"geometry":{"coordinates":[9.656171,49.632144],"type":"Point"},"properties":{"osm_id":"427007703","tag":{"amenity":"recycling","recycling:glass":"yes","recycling_type":"container"}},"type":"Feature"},
	{"geometry":{"coordinates":[9.662496,49.625468],"type":"Point"},"properties":{"osm_id":"427018994","tag":{"amenity":"recycling","recycling:clothes":"yes","recycling:glass":"yes","recycling_type":"container"}},"type":"Feature"},
	{"geometry":{"coordinates":[9.636639,49.663002],"type":"Point"},"properties":{"osm_id":"1318960630","tag":{"amenity":"recycling"}},"type":"Feature"},
	{"geometry":{"coordinates":[9.591228,49.659528],"type":"Point"},"properties":{"osm_id":"1481668421","tag":{"amenity":"recycling","recycling:glass_bottles":"yes","recycling_type":"container"}},"type":"Feature"},
	{"geometry":{"coordinates":[9.601638,49.61854],"type":"Point"},"properties":{"osm_id":"1654398822","tag":{"amenity":"recycling","recycling:glass_bottles":"yes"}},"type":"Feature"},
	{"geometry":{"coordinates":[9.667614,49.616397],"type":"Point"},"properties":{"osm_id":"1716305759","tag":{"amenity":"waste_basket","designation":"Here is a Park bench with a trash"}},"type":"Feature"},
	{"geometry":{"coordinates":[9.662806,49.647875],"type":"Point"},"properties":{"osm_id":"3647217698","tag":{"amenity":"recycling","recycling:cans":"no","recycling:clothes":"yes","recycling:glass_bottles":"yes","recycling:paper":"no","recycling_type":"container"}},"type":"Feature"},
	{"geometry":{"coordinates":[9.663499,49.621882],"type":"Point"},"properties":{"osm_id":"4641738247","tag":{"amenity":"waste_basket"}},"type":"Feature"},
	{"geometry":{"coordinates":[9.661526,49.621066],"type":"Point"},"properties":{"osm_id":"4641738253","tag":{"amenity":"waste_basket"}},"type":"Feature"},
	{"geometry":{"coordinates":[9.650788,49.625221],"type":"Point"},"properties":{"osm_id":"6825006068","tag":{"amenity":"waste_basket","waste":"trash"}},"type":"Feature"}
]
}
