{
"type": "FeatureCollection",
"features": [
	{"geometry":{"coordinates":[9.656078,49.298558],"type":"Point"},"properties":{"osm_id":"3252846505","tag":{"amenity":"waste_basket"}},"type":"Feature"},
	{"geometry":{"coordinates":[9.615432,49.296228],"type":"Point"},"properties":{"osm_id":"3256557237","tag":{"amenity":"waste_basket"}},"type":"Feature"},
	{"geometry":{"coordinates":[9.617517,49.297626],"type":"Point"},"properties":{"osm_id":"3256557238","tag":{"amenity":"waste_basket"}},"type":"Feature"},
	{"geometry":{"coordinates":[9.617166,49.297356],"type":"Point"},"properties":{"osm_id":"3256557239","tag":{"amenity":"waste_basket"}},"type":"Feature"},
	{"geometry":{"coordinates":[9.617289,49.300091],"type":"Point"},"properties":{"osm_id":"3256557240","tag":{"amenity":"waste_basket"}},"type":"Feature"},
	{"geometry":{"coordinates":[9.616566,49.300434],"type":"Point"},"properties":{"osm_id":"3256557241","tag":{"amenity":"waste_basket"}},"type":"Feature"},
	{"geometry":{"coordinates":[9.616416,49.300619],"type":"Point"},"properties":{"osm_id":"3256557242","tag":{"amenity":"waste_basket"}},"type":"Feature"},
	{"geometry":{"coordinates":[9.65257,49.297533],"type":"Point"},"properties":{"osm_id":"3274953136","tag":{"amenity":"waste_basket"}},"type":"Feature"},
	{"geometry":{"coordinates":[9.65234,49.2984],"type":"Point"},"properties":{"osm_id":"3295565668","tag":{"amenity":"waste_basket"}},"type":"Feature"},
	{"geometry":{"coordinates":[9.652788,49.298371],"type":"Point"},"properties":{"osm_id":"3295565669","tag":{"amenity":"waste_basket"}},"type":"Feature"},
	{"geometry":{"coordinates":[9.653755,49.299415],"type":"Point"},"properties":{"osm_id":"3315526527","tag":{"amenity":"waste_basket"}},"type":"Feature"},
	{"geometry":{"coordinates":[9.652082,49.299873],"type":"Point"},"properties":{"osm_id":"3319918145","tag":{"amenity":"waste_basket"}},"type":"Feature"},
	{"geometry":{"coordinates":[9.614807,49.294041],"type":"Point"},"properties":{"osm_id":"3340707868","tag":{"amenity":"waste_basket"}},"type":"Feature"},
	{"geometry":{"coordinates":[9.643293,49.300804],"type":"Point"},"properties":{"osm_id":"3340707930","tag":{"amenity":"waste_basket"}},"type":"Feature"},
	{"geometry":{"coordinates":[9.619285,49.294921],"type":"Point"},"properties":{"osm_id":"3348811886","tag":{"amenity":"waste_basket"}},"type":"Feature"},
	{"geometry":{"coordinates":[9.61504,49.295341],"type":"Point"},"properties":{"osm_id":"3348811891","tag":{"amenity":"waste_basket"}},"type":"Feature"},
	{"geometry":{"coordinates":[9.644131,49.298264],"type":"Point"},"properties":{"osm_id":"3348812094","tag":{"amenity":"waste_basket"}},"type":"Feature"},
	{"geometry":{"coordinates":[9.651242,49.300876],"type":"Point"},"properties":{"osm_id":"3348812095","tag":{"amenity":"waste_basket"}},"type":"Feature"},
	{"geometry":{"coordinates":[9.650771,49.297481],"type":"Point"},"properties":{"osm_id":"3696071701","tag":{"amenity":"recycling","recycling:glass":"yes","recycling_type":"container"}},"type":"Feature"},
	{"geometry":{"coordinates":[9.601024,49.292287],"type":"Point"},"properties":{"osm_id":"4794026181","tag":{"amenity":"waste_basket"}},"type":"Feature"},
	{"geometry":{"coordinates":[9.601116,49.29527],"type":"Point"},"properties":{"osm_id":"4796956516","tag":{"amenity":"recycling","email":"recycling.stuttgart@de.rhenus.com","opening_hours":"Mo-Fr 08:00-19:00; PH off","operator":"Rhenus Recycling GmbH","phone":"+49 800 1223255","recycling:glass_bottles":"yes","recycling_type":"container"}},"type":"Feature"},
	{"geometry":{"coordinates":[9.598117,49.296266],"type":"Point"},"properties":{"osm_id":"5001855238","tag":{"amenity":"waste_basket"}},"type":"Feature"},
	{"geometry":{"coordinates":[9.598136,49.298255],"type":"Point"},"properties":{"osm_id":"5001855266","tag":{"amenity":"waste_basket"}},"type":"Feature"},
	{"geometry":{"coordinates":[9.597632,49.298097],"type":"Point"},"properties":{"osm_id":"5001855267","tag":{"amenity":"waste_basket"}},"type":"Feature"},
	{"geometry":{"coordinates":[9.596766,49.297863],"type":"Point"},"properties":{"osm_id":"5001855280","tag":{"amenity":"waste_basket"}},"type":"Feature"},
	{"geometry":{"coordinates":[9.596786,49.295789],"type":"Point"},"properties":{"osm_id":"5001855307","tag":{"amenity":"waste_basket"}},"type":"Feature"},
	{"geometry":{"coordinates":[9.603942,49.295916],"type":"Point"},"properties":{"osm_id":"5002057430","tag":{"amenity":"waste_basket"}},"type":"Feature"},
	{"geometry":{"coordinates":[9.603153,49.294213],"type":"Point"},"properties":{"osm_id":"5002057468","tag":{"amenity":"waste_basket"}},"type":"Feature"},
	{"geometry":{"coordinates":[9.603083,49.294289],"type":"Point"},"properties":{"osm_id":"5002057472","tag":{"amenity":"waste_basket"}},"type":"Feature"},
	{"geometry":{"coordinates":[9.589858,49.29931],"type":"Point"},"properties":{"osm_id":"5020959407","tag":{"amenity":"waste_basket"}},"type":"Feature"},
	{"geometry":{"coordinates":[9.593364,49.298652],"type":"Point"},"properties":{"osm_id":"5020959408","tag":{"amenity":"waste_basket"}},"type":"Feature"},
	{"geometry":{"coordinates":[9.594464,49.300305],"type":"Point"},"properties":{"osm_id":"5020961847","tag":{"amenity":"recycling","recycling:glass_bottles":"yes","recycling_type":"container"}},"type":"Feature"},
	{"geometry":{"coordinates":[9.595148,49.29681],"type":"Point"},"properties":{"osm_id":"5020961897","tag":{"amenity":"recycling","recycling:clothes":"yes","recycling_type":"container"}},"type":"Feature"},
	{"geometry":{"coordinates":[9.61821,49.293605],"type":"Point"},"properties":{"osm_id":"5071910003","tag":{"amenity":"waste_basket"}},"type":"Feature"},
	{"geometry":{"coordinates":[9.650744,49.297501],"type":"Point"},"properties":{"osm_id":"5076838992","tag":{"amenity":"recycling","recycling:clothes":"yes","recycling_type":"container"}},"type":"Feature"},
	{"geometry":{"coordinates":[9.644269,49.298162],"type":"Point"},"properties":{"osm_id":"5076838993","tag":{"amenity":"waste_basket"}},"type":"Feature"},
	{"geometry":{"coordinates":[9.634489,49.303136],"type":"Point"},"properties":{"osm_id":"5076838999","tag":{"amenity":"waste_basket"}},"type":"Feature"},
	{"geometry":{"coordinates":[9.594107,49.294746],"type":"Point"},"properties":{"osm_id":"5076839001","tag":{"amenity":"waste_basket"}},"type":"Feature"},
	{"geometry":{"coordinates":[9.628239,49.279839],"type":"Point"},"properties":{"osm_id":"5935382487","tag":{"amenity":"waste_basket","waste":"trash"}},"type":"Feature"},
	{"geometry":{"coordinates":[9.625986,49.283089],"type":"Point"},"properties":{"osm_id":"5935382490","tag":{"amenity":"waste_basket","waste":"trash"}},"type":"Feature"},
	{"geometry":{"coordinates":[9.594567,49.278993],"type":"Point"},"properties":{"osm_id":"6002907898","tag":{"amenity":"waste_basket","waste":"trash"}},"type":"Feature"},
	{"geometry":{"coordinates":[9.592705,49.283444],"type":"Point"},"properties":{"osm_id":"6002907902","tag":{"amenity":"waste_basket","waste":"trash"}},"type":"Feature"},
	{"geometry":{"coordinates":[9.59271,49.283511],"type":"Point"},"properties":{"osm_id":"6002907903","tag":{"amenity":"waste_basket","waste":"trash"}},"type":"Feature"},
	{"geometry":{"coordinates":[9.604601,49.308171],"type":"Point"},"properties":{"osm_id":"6089624115","tag":{"amenity":"waste_basket","waste":"trash"}},"type":"Feature"},
	{"geometry":{"coordinates":[9.633276,49.305454],"type":"Point"},"properties":{"osm_id":"6212339201","tag":{"amenity":"recycling","recycling:glass_bottles":"yes","recycling_type":"container"}},"type":"Feature"},
	{"geometry":{"coordinates":[9.646187,49.301384],"type":"Point"},"properties":{"osm_id":"6593616764","tag":{"amenity":"waste_basket","waste":"trash"}},"type":"Feature"},
	{"geometry":{"coordinates":[9.645866,49.301079],"type":"Point"},"properties":{"osm_id":"6593616780","tag":{"amenity":"waste_basket","waste":"trash"}},"type":"Feature"},
	{"geometry":{"coordinates":[9.593518,49.29808],"type":"Point"},"properties":{"osm_id":"7494970491","tag":{"amenity":"waste_basket","covered":"yes","waste":"trash"}},"type":"Feature"},
	{"geometry":{"coordinates":[9.594247,49.297749],"type":"Point"},"properties":{"osm_id":"7494970492","tag":{"amenity":"waste_basket","waste":"trash"}},"type":"Feature"},
	{"geometry":{"coordinates":[9.594365,49.300738],"type":"Point"},"properties":{"osm_id":"7494970495","tag":{"amenity":"waste_basket","waste":"trash"}},"type":"Feature"},
	{"geometry":{"coordinates":[9.593563,49.298115],"type":"Point"},"properties":{"osm_id":"7494970505","tag":{"amenity":"waste_basket","waste":"trash"}},"type":"Feature"},
	{"geometry":{"coordinates":[9.593766,49.301617],"type":"Point"},"properties":{"osm_id":"7501645123","tag":{"amenity":"waste_basket"}},"type":"Feature"}
]
}
