{
"type": "FeatureCollection",
"features": [
	{"geometry":{"coordinates":[9.625667,48.857888],"type":"Point"},"properties":{"osm_id":"252409014","tag":{"amenity":"recycling","recycling_type":"container"}},"type":"Feature"},
	{"geometry":{"coordinates":[9.661672,48.857742],"type":"Point"},"properties":{"osm_id":"1624214985","tag":{"amenity":"recycling","recycling:glass":"yes","recycling:paper":"yes","recycling_type":"container"}},"type":"Feature"},
	{"geometry":{"coordinates":[9.581909,48.816585],"type":"Point"},"properties":{"osm_id":"4906274730","tag":{"amenity":"recycling","recycling:glass":"yes","recycling:paper":"yes","recycling_type":"container"}},"type":"Feature"},
	{"geometry":{"coordinates":[9.588886,48.829257],"type":"Point"},"properties":{"osm_id":"7890628264","tag":{"amenity":"waste_basket","waste":"trash"}},"type":"Feature"},
	{"geometry":{"coordinates":[9.583763,48.825581],"type":"Point"},"properties":{"osm_id":"7890717718","tag":{"amenity":"waste_basket","waste":"trash"}},"type":"Feature"},
	{"geometry":{"coordinates":[9.593606,48.817196],"type":"Point"},"properties":{"osm_id":"8094448438","tag":{"amenity":"waste_basket"}},"type":"Feature"},
	{"geometry":{"coordinates":[9.628482,48.86018],"type":"Point"},"properties":{"osm_id":"8237845677","tag":{"amenity":"waste_basket"}},"type":"Feature"},
	{"geometry":{"coordinates":[9.604534,48.820695],"type":"Point"},"properties":{"osm_id":"8827031291","tag":{"access":"private","amenity":"waste_disposal"}},"type":"Feature"}
]
}
