{
"type": "FeatureCollection",
"features": [
	{"geometry":{"coordinates":[9.662663,48.699192],"type":"Point"},"properties":{"osm_id":"245487740","tag":{"amenity":"recycling","recycling:clothes":"yes"}},"type":"Feature"},
	{"geometry":{"coordinates":[9.646244,48.712481],"type":"Point"},"properties":{"osm_id":"257168393","tag":{"amenity":"recycling","location":"overground","recycling:cans":"yes","recycling:clothes":"yes","recycling:glass_bottles":"yes","recycling_type":"container"}},"type":"Feature"},
	{"geometry":{"coordinates":[9.639257,48.711026],"type":"Point"},"properties":{"osm_id":"262903400","tag":{"amenity":"recycling","location":"overground","recycling:cans":"yes","recycling:glass":"yes","recycling:shoes":"yes","recycling_type":"container"}},"type":"Feature"},
	{"geometry":{"coordinates":[9.65672,48.709736],"type":"Point"},"properties":{"osm_id":"277481935","tag":{"amenity":"recycling","recycling:glass":"yes"}},"type":"Feature"},
	{"geometry":{"coordinates":[9.648229,48.703124],"type":"Point"},"properties":{"osm_id":"277483452","tag":{"amenity":"recycling","recycling:glass":"yes","recycling_type":"container"}},"type":"Feature"},
	{"geometry":{"coordinates":[9.593605,48.710183],"type":"Point"},"properties":{"osm_id":"286076299","tag":{"amenity":"recycling","recycling:clothes":"yes","recycling:glass":"yes"}},"type":"Feature"},
	{"geometry":{"coordinates":[9.585341,48.712938],"type":"Point"},"properties":{"osm_id":"288344027","tag":{"amenity":"recycling","recycling:clothes":"yes","recycling:glass_bottles":"yes","recycling_type":"container"}},"type":"Feature"},
	{"geometry":{"coordinates":[9.625663,48.71208],"type":"Point"},"properties":{"osm_id":"292763107","tag":{"amenity":"recycling","location":"overground","recycling:glass":"yes","recycling_type":"container"}},"type":"Feature"},
	{"geometry":{"coordinates":[9.635277,48.691507],"type":"Point"},"properties":{"osm_id":"302335926","tag":{"amenity":"recycling","recycling:clothes":"yes","recycling:glass_bottles":"yes","recycling_type":"container"}},"type":"Feature"},
	{"geometry":{"coordinates":[9.635815,48.696829],"type":"Point"},"properties":{"osm_id":"305886270","tag":{"amenity":"recycling","recycling:clothes":"yes","recycling:glass":"yes"}},"type":"Feature"},
	{"geometry":{"coordinates":[9.645171,48.692449],"type":"Point"},"properties":{"osm_id":"306375058","tag":{"amenity":"recycling","recycling:cans":"yes","recycling:clothes":"yes","recycling:glass_bottles":"yes","recycling_type":"container"}},"type":"Feature"},
	{"geometry":{"coordinates":[9.591205,48.705121],"type":"Point"},"properties":{"osm_id":"308386709","tag":{"amenity":"recycling","recycling:glass_bottles":"yes","recycling_type":"container"}},"type":"Feature"},
	{"geometry":{"coordinates":[9.582196,48.701323],"type":"Point"},"properties":{"osm_id":"312880706","tag":{"amenity":"recycling","recycling:cans":"yes","recycling:glass_bottles":"yes","recycling_type":"container"}},"type":"Feature"},
	{"geometry":{"coordinates":[9.582201,48.7175],"type":"Point"},"properties":{"osm_id":"334688441","tag":{"amenity":"recycling","recycling:cans":"yes","recycling:glass_bottles":"yes","recycling_type":"container"}},"type":"Feature"},
	{"geometry":{"coordinates":[9.651921,48.735454],"type":"Point"},"properties":{"osm_id":"340069323","tag":{"amenity":"recycling","recycling:clothes":"yes","recycling:glass":"yes"}},"type":"Feature"},
	{"geometry":{"coordinates":[9.582203,48.709147],"type":"Point"},"properties":{"osm_id":"357141879","tag":{"amenity":"recycling","recycling:cans":"yes","recycling:glass":"yes"}},"type":"Feature"},
	{"geometry":{"coordinates":[9.647248,48.723448],"type":"Point"},"properties":{"osm_id":"369608817","tag":{"amenity":"recycling","mapillary":"IFH8xOoDNuINScPgVBKyHw","recycling:cans":"yes","recycling:clothes":"yes","recycling:glass":"no","recycling:glass_bottles":"yes","recycling_type":"container","survey:date":"2019-12-01"}},"type":"Feature"},
	{"geometry":{"coordinates":[9.662945,48.724964],"type":"Point"},"properties":{"osm_id":"370316282","tag":{"amenity":"recycling","location":"overground","recycling:cans":"yes","recycling:glass":"yes","recycling_type":"container"}},"type":"Feature"},
	{"geometry":{"coordinates":[9.6525,48.720576],"type":"Point"},"properties":{"osm_id":"370316311","tag":{"amenity":"recycling","location":"overground","recycling:cans":"yes","recycling:clothes":"yes","recycling:glass":"yes","recycling_type":"container"}},"type":"Feature"},
	{"geometry":{"coordinates":[9.644954,48.722068],"type":"Point"},"properties":{"osm_id":"384844644","tag":{"amenity":"recycling","recycling:cans":"yes","recycling:glass":"yes","recycling_type":"container"}},"type":"Feature"},
	{"geometry":{"coordinates":[9.64257,48.728483],"type":"Point"},"properties":{"osm_id":"408037336","tag":{"amenity":"recycling","check_date":"2017-09-16","location":"overground","mapillary":"E576OEZzv1LpyeHUnDizrg","recycling:clothes":"yes","recycling:glass":"no","recycling:glass_bottles":"yes","recycling_type":"container","survey:date":"2020-02-23"}},"type":"Feature"},
	{"geometry":{"coordinates":[9.647538,48.728288],"type":"Point"},"properties":{"osm_id":"408836591","tag":{"amenity":"recycling","location":"overground","recycling:cans":"yes","recycling_type":"container"}},"type":"Feature"},
	{"geometry":{"coordinates":[9.636647,48.724305],"type":"Point"},"properties":{"osm_id":"412366703","tag":{"amenity":"recycling","recycling:cans":"yes","recycling:clothes":"yes","recycling:glass":"yes"}},"type":"Feature"},
	{"geometry":{"coordinates":[9.635351,48.731282],"type":"Point"},"properties":{"osm_id":"416462553","tag":{"amenity":"recycling","recycling:cans":"yes","recycling:glass":"yes"}},"type":"Feature"},
	{"geometry":{"coordinates":[9.633369,48.734171],"type":"Point"},"properties":{"osm_id":"422720029","tag":{"amenity":"recycling","recycling:cans":"yes","recycling:glass":"yes"}},"type":"Feature"},
	{"geometry":{"coordinates":[9.627683,48.715627],"type":"Point"},"properties":{"osm_id":"439189913","tag":{"amenity":"recycling","recycling:cans":"yes","recycling:glass":"yes"}},"type":"Feature"},
	{"geometry":{"coordinates":[9.607197,48.71248],"type":"Point"},"properties":{"osm_id":"763157225","tag":{"amenity":"recycling","location":"overground","recycling_type":"container","shop":"laundry"}},"type":"Feature"},
	{"geometry":{"coordinates":[9.606616,48.721336],"type":"Point"},"properties":{"osm_id":"775373727","tag":{"amenity":"recycling","recycling_type":"centre"}},"type":"Feature"},
	{"geometry":{"coordinates":[9.620177,48.708279],"type":"Point"},"properties":{"osm_id":"778694013","tag":{"amenity":"recycling","recycling:cans":"yes","recycling:clothes":"yes","recycling:glass":"yes"}},"type":"Feature"},
	{"geometry":{"coordinates":[9.620135,48.711223],"type":"Point"},"properties":{"osm_id":"836754664","tag":{"amenity":"recycling","location":"overground","recycling_type":"container"}},"type":"Feature"},
	{"geometry":{"coordinates":[9.60714,48.712554],"type":"Point"},"properties":{"osm_id":"1015658931","tag":{"amenity":"recycling","location":"overground","recycling:glass":"yes","recycling_type":"container"}},"type":"Feature"},
	{"geometry":{"coordinates":[9.637696,48.722775],"type":"Point"},"properties":{"osm_id":"1253908776","tag":{"amenity":"recycling","recycling_type":"centre"}},"type":"Feature"},
	{"geometry":{"coordinates":[9.659775,48.704141],"type":"Point"},"properties":{"osm_id":"1789694217","tag":{"amenity":"waste_basket"}},"type":"Feature"},
	{"geometry":{"coordinates":[9.589473,48.705845],"type":"Point"},"properties":{"osm_id":"1815567909","tag":{"amenity":"waste_basket"}},"type":"Feature"},
	{"geometry":{"coordinates":[9.655598,48.748187],"type":"Point"},"properties":{"osm_id":"2019163088","tag":{"amenity":"recycling","recycling:clothes":"yes","recycling:glass":"yes"}},"type":"Feature"},
	{"geometry":{"coordinates":[9.61553,48.710939],"type":"Point"},"properties":{"osm_id":"2425365042","tag":{"amenity":"waste_basket"}},"type":"Feature"},
	{"geometry":{"coordinates":[9.631092,48.708162],"type":"Point"},"properties":{"osm_id":"3721819053","tag":{"amenity":"recycling","recycling:glass":"yes"}},"type":"Feature"},
	{"geometry":{"coordinates":[9.587059,48.718862],"type":"Point"},"properties":{"osm_id":"4192813441","tag":{"amenity":"waste_basket"}},"type":"Feature"},
	{"geometry":{"coordinates":[9.58297,48.728615],"type":"Point"},"properties":{"osm_id":"4192813446","tag":{"amenity":"waste_basket"}},"type":"Feature"},
	{"geometry":{"coordinates":[9.652135,48.700453],"type":"Point"},"properties":{"osm_id":"4918534510","tag":{"amenity":"waste_basket"}},"type":"Feature"},
	{"geometry":{"coordinates":[9.65249,48.700378],"type":"Point"},"properties":{"osm_id":"4918534514","tag":{"amenity":"waste_basket"}},"type":"Feature"},
	{"geometry":{"coordinates":[9.610842,48.718017],"type":"Point"},"properties":{"osm_id":"4960456359","tag":{"amenity":"waste_basket"}},"type":"Feature"},
	{"geometry":{"coordinates":[9.586304,48.710371],"type":"Point"},"properties":{"osm_id":"5117791924","tag":{"amenity":"waste_basket"}},"type":"Feature"},
	{"geometry":{"coordinates":[9.600177,48.706531],"type":"Point"},"properties":{"osm_id":"5228430424","tag":{"amenity":"waste_basket"}},"type":"Feature"},
	{"geometry":{"coordinates":[9.600462,48.705646],"type":"Point"},"properties":{"osm_id":"5228445121","tag":{"amenity":"waste_basket"}},"type":"Feature"},
	{"geometry":{"coordinates":[9.659552,48.702211],"type":"Point"},"properties":{"osm_id":"5722598423","tag":{"amenity":"waste_basket"}},"type":"Feature"},
	{"geometry":{"coordinates":[9.585711,48.715104],"type":"Point"},"properties":{"osm_id":"5860677170","tag":{"amenity":"waste_basket"}},"type":"Feature"},
	{"geometry":{"coordinates":[9.592749,48.714353],"type":"Point"},"properties":{"osm_id":"5860677175","tag":{"amenity":"waste_basket"}},"type":"Feature"},
	{"geometry":{"coordinates":[9.616861,48.699518],"type":"Point"},"properties":{"osm_id":"5866527484","tag":{"amenity":"waste_basket"}},"type":"Feature"},
	{"geometry":{"coordinates":[9.611244,48.707036],"type":"Point"},"properties":{"osm_id":"5866527489","tag":{"amenity":"waste_basket"}},"type":"Feature"},
	{"geometry":{"coordinates":[9.639858,48.703966],"type":"Point"},"properties":{"osm_id":"5980134026","tag":{"amenity":"waste_basket"}},"type":"Feature"},
	{"geometry":{"coordinates":[9.601061,48.700428],"type":"Point"},"properties":{"osm_id":"6179027299","tag":{"amenity":"waste_basket"}},"type":"Feature"},
	{"geometry":{"coordinates":[9.613144,48.698482],"type":"Point"},"properties":{"osm_id":"6179027307","tag":{"amenity":"waste_basket"}},"type":"Feature"},
	{"geometry":{"coordinates":[9.635565,48.691799],"type":"Point"},"properties":{"osm_id":"6275283211","tag":{"amenity":"waste_basket"}},"type":"Feature"},
	{"geometry":{"coordinates":[9.635331,48.693022],"type":"Point"},"properties":{"osm_id":"6275283213","tag":{"amenity":"waste_basket"}},"type":"Feature"}
]
}
