{
"type": "FeatureCollection",
"features": [
	{"geometry":{"coordinates":[9.656457,48.553483],"type":"Point"},"properties":{"osm_id":"316747239","tag":{"amenity":"waste_disposal"}},"type":"Feature"},
	{"geometry":{"coordinates":[9.667286,48.551394],"type":"Point"},"properties":{"osm_id":"1345592424","tag":{"amenity":"recycling","recycling:green_waste":"yes","recycling_type":"centre"}},"type":"Feature"},
	{"geometry":{"coordinates":[9.663747,48.545578],"type":"Point"},"properties":{"osm_id":"1650144671","tag":{"amenity":"recycling","recycling:clothes":"yes","recycling:glass":"yes","recycling:paper":"no","recycling_type":"container"}},"type":"Feature"},
	{"geometry":{"coordinates":[9.622963,48.562032],"type":"Point"},"properties":{"osm_id":"2378193602","tag":{"amenity":"recycling","recycling:cans":"yes","recycling:glass":"yes","recycling_type":"container"}},"type":"Feature"},
	{"geometry":{"coordinates":[9.599765,48.561605],"type":"Point"},"properties":{"osm_id":"2974333102","tag":{"amenity":"waste_basket"}},"type":"Feature"},
	{"geometry":{"coordinates":[9.642377,48.546523],"type":"Point"},"properties":{"osm_id":"3124173276","tag":{"amenity":"waste_basket"}},"type":"Feature"},
	{"geometry":{"coordinates":[9.603522,48.564126],"type":"Point"},"properties":{"osm_id":"4845950147","tag":{"amenity":"waste_basket"}},"type":"Feature"},
	{"geometry":{"coordinates":[9.602395,48.551579],"type":"Point"},"properties":{"osm_id":"4853964338","tag":{"amenity":"waste_basket"}},"type":"Feature"},
	{"geometry":{"coordinates":[9.641439,48.569826],"type":"Point"},"properties":{"osm_id":"7092817132","tag":{"amenity":"waste_basket"}},"type":"Feature"},
	{"geometry":{"coordinates":[9.628957,48.565756],"type":"Point"},"properties":{"osm_id":"7952238462","tag":{"amenity":"waste_basket"}},"type":"Feature"}
]
}
