{
"type": "FeatureCollection",
"features": [
	{"geometry":{"coordinates":[9.634342,47.940061],"type":"Point"},"properties":{"name":"Wertstoffhof Heydt","osm_id":"1144466447","tag":{"amenity":"recycling","recycling_type":"centre"}},"type":"Feature"},
	{"geometry":{"coordinates":[9.64235,47.94254],"type":"Point"},"properties":{"osm_id":"5215021649","tag":{"amenity":"recycling","opening_hours":"Mo-Sa 07:00-20:00","recycling:cans":"yes","recycling:clothes":"yes","recycling:glass_bottles":"yes","recycling_type":"container"}},"type":"Feature"},
	{"geometry":{"coordinates":[9.664309,47.951042],"type":"Point"},"properties":{"osm_id":"5335021486","tag":{"amenity":"recycling","recycling:cans":"yes","recycling:clothes":"yes","recycling:glass_bottles":"yes","recycling_type":"container"}},"type":"Feature"},
	{"geometry":{"coordinates":[9.639935,47.958303],"type":"Point"},"properties":{"osm_id":"5462354061","tag":{"amenity":"recycling","recycling:cans":"yes","recycling:glass_bottles":"yes","recycling_type":"container"}},"type":"Feature"},
	{"geometry":{"coordinates":[9.616398,47.940774],"type":"Point"},"properties":{"osm_id":"5469184558","tag":{"amenity":"waste_basket"}},"type":"Feature"},
	{"geometry":{"coordinates":[9.650333,47.954751],"type":"Point"},"properties":{"osm_id":"5469611648","tag":{"amenity":"waste_basket","waste":"dog_excrement"}},"type":"Feature"},
	{"geometry":{"coordinates":[9.658082,47.946117],"type":"Point"},"properties":{"osm_id":"5501781815","tag":{"amenity":"waste_basket","waste":"trash"}},"type":"Feature"},
	{"geometry":{"coordinates":[9.636344,47.95506],"type":"Point"},"properties":{"osm_id":"5548474907","tag":{"amenity":"waste_basket","waste":"trash"}},"type":"Feature"},
	{"geometry":{"coordinates":[9.632687,47.953391],"type":"Point"},"properties":{"osm_id":"5548475027","tag":{"amenity":"waste_basket","waste":"trash"}},"type":"Feature"},
	{"geometry":{"coordinates":[9.632592,47.957379],"type":"Point"},"properties":{"osm_id":"5550057843","tag":{"amenity":"waste_basket","waste":"trash"}},"type":"Feature"},
	{"geometry":{"coordinates":[9.644592,47.956871],"type":"Point"},"properties":{"osm_id":"5650238934","tag":{"amenity":"recycling","recycling:cans":"yes","recycling:glass":"yes","recycling:glass_bottles":"yes","recycling_type":"container"}},"type":"Feature"},
	{"geometry":{"coordinates":[9.644422,47.96712],"type":"Point"},"properties":{"osm_id":"5654341994","tag":{"amenity":"waste_basket","waste":"trash"}},"type":"Feature"},
	{"geometry":{"coordinates":[9.644796,47.966819],"type":"Point"},"properties":{"osm_id":"5654341997","tag":{"amenity":"waste_basket","waste":"trash"}},"type":"Feature"},
	{"geometry":{"coordinates":[9.631004,47.955891],"type":"Point"},"properties":{"osm_id":"5657169273","tag":{"amenity":"waste_basket","waste":"trash"}},"type":"Feature"},
	{"geometry":{"coordinates":[9.63174,47.953914],"type":"Point"},"properties":{"osm_id":"5657228245","tag":{"amenity":"waste_basket","waste":"trash"}},"type":"Feature"},
	{"geometry":{"coordinates":[9.633303,47.95374],"type":"Point"},"properties":{"osm_id":"5659319175","tag":{"amenity":"waste_basket","waste":"trash"}},"type":"Feature"},
	{"geometry":{"coordinates":[9.631784,47.954794],"type":"Point"},"properties":{"osm_id":"5659319196","tag":{"amenity":"waste_basket","waste":"trash"}},"type":"Feature"},
	{"geometry":{"coordinates":[9.610663,47.959205],"type":"Point"},"properties":{"osm_id":"5697189420","tag":{"amenity":"waste_basket","waste":"trash"}},"type":"Feature"},
	{"geometry":{"coordinates":[9.61798,47.955787],"type":"Point"},"properties":{"osm_id":"5697199323","tag":{"amenity":"waste_basket","waste":"trash"}},"type":"Feature"},
	{"geometry":{"coordinates":[9.625716,47.951291],"type":"Point"},"properties":{"osm_id":"5711212112","tag":{"amenity":"waste_basket","waste":"trash"}},"type":"Feature"},
	{"geometry":{"coordinates":[9.634035,47.955371],"type":"Point"},"properties":{"osm_id":"5713220453","tag":{"amenity":"waste_basket","waste":"trash"}},"type":"Feature"},
	{"geometry":{"coordinates":[9.633612,47.955642],"type":"Point"},"properties":{"osm_id":"5713220455","tag":{"amenity":"waste_basket","waste":"trash"}},"type":"Feature"},
	{"geometry":{"coordinates":[9.62402,47.961217],"type":"Point"},"properties":{"osm_id":"5727495917","tag":{"amenity":"waste_basket","waste":"trash"}},"type":"Feature"},
	{"geometry":{"coordinates":[9.627197,47.955908],"type":"Point"},"properties":{"osm_id":"5727507981","tag":{"amenity":"waste_basket","waste":"trash"}},"type":"Feature"},
	{"geometry":{"coordinates":[9.633336,47.95524],"type":"Point"},"properties":{"osm_id":"5741175300","tag":{"amenity":"waste_basket","waste":"trash"}},"type":"Feature"},
	{"geometry":{"coordinates":[9.635139,47.95514],"type":"Point"},"properties":{"osm_id":"5741175311","tag":{"amenity":"waste_basket","waste":"trash"}},"type":"Feature"},
	{"geometry":{"coordinates":[9.620569,47.941955],"type":"Point"},"properties":{"osm_id":"5761786211","tag":{"amenity":"waste_basket","waste":"trash"}},"type":"Feature"},
	{"geometry":{"coordinates":[9.630201,47.945933],"type":"Point"},"properties":{"osm_id":"5761790642","tag":{"amenity":"waste_basket","waste":"dog_excrement"}},"type":"Feature"},
	{"geometry":{"coordinates":[9.631723,47.954182],"type":"Point"},"properties":{"osm_id":"5800502092","tag":{"amenity":"waste_basket","waste":"trash"}},"type":"Feature"},
	{"geometry":{"coordinates":[9.633839,47.954736],"type":"Point"},"properties":{"osm_id":"5800502113","tag":{"amenity":"waste_basket","waste":"trash"}},"type":"Feature"},
	{"geometry":{"coordinates":[9.636092,47.962005],"type":"Point"},"properties":{"osm_id":"5807876142","tag":{"amenity":"waste_basket","waste":"trash"}},"type":"Feature"},
	{"geometry":{"coordinates":[9.632845,47.953845],"type":"Point"},"properties":{"osm_id":"5807887778","tag":{"amenity":"waste_basket","waste":"trash"}},"type":"Feature"},
	{"geometry":{"coordinates":[9.638469,47.955534],"type":"Point"},"properties":{"osm_id":"5854123821","tag":{"amenity":"waste_basket","waste":"trash"}},"type":"Feature"},
	{"geometry":{"coordinates":[9.584631,47.933819],"type":"Point"},"properties":{"osm_id":"5913609422","tag":{"amenity":"waste_basket","waste":"trash"}},"type":"Feature"},
	{"geometry":{"coordinates":[9.646048,47.940618],"type":"Point"},"properties":{"osm_id":"5956841196","tag":{"amenity":"waste_basket","waste":"dog_excrement"}},"type":"Feature"},
	{"geometry":{"coordinates":[9.637303,47.957297],"type":"Point"},"properties":{"osm_id":"6123968695","tag":{"amenity":"waste_basket","waste":"trash"}},"type":"Feature"},
	{"geometry":{"coordinates":[9.637004,47.957076],"type":"Point"},"properties":{"osm_id":"6123968698","tag":{"amenity":"waste_basket","waste":"trash"}},"type":"Feature"},
	{"geometry":{"coordinates":[9.628243,47.953867],"type":"Point"},"properties":{"osm_id":"6123978208","tag":{"amenity":"waste_basket","waste":"trash"}},"type":"Feature"},
	{"geometry":{"coordinates":[9.629818,47.966231],"type":"Point"},"properties":{"osm_id":"6383387502","tag":{"amenity":"waste_basket","waste":"trash"}},"type":"Feature"},
	{"geometry":{"coordinates":[9.629399,47.966087],"type":"Point"},"properties":{"osm_id":"6383387505","tag":{"amenity":"waste_basket","waste":"trash"}},"type":"Feature"},
	{"geometry":{"coordinates":[9.629932,47.966136],"type":"Point"},"properties":{"osm_id":"6383387508","tag":{"amenity":"waste_basket","waste":"trash"}},"type":"Feature"},
	{"geometry":{"coordinates":[9.606176,47.931258],"type":"Point"},"properties":{"osm_id":"6390203139","tag":{"amenity":"waste_basket","waste":"dog_excrement"}},"type":"Feature"},
	{"geometry":{"coordinates":[9.602837,47.932787],"type":"Point"},"properties":{"osm_id":"6390215230","tag":{"amenity":"waste_basket","waste":"dog_excrement"}},"type":"Feature"},
	{"geometry":{"coordinates":[9.642273,47.982442],"type":"Point"},"properties":{"osm_id":"6433769038","tag":{"amenity":"waste_basket","waste":"trash"}},"type":"Feature"},
	{"geometry":{"coordinates":[9.652095,47.95543],"type":"Point"},"properties":{"osm_id":"6439486218","tag":{"amenity":"waste_basket","seasonal":"summer","waste":"trash"}},"type":"Feature"},
	{"geometry":{"coordinates":[9.651017,47.955132],"type":"Point"},"properties":{"osm_id":"6439486219","tag":{"amenity":"waste_basket","seasonal":"summer","waste":"trash"}},"type":"Feature"},
	{"geometry":{"coordinates":[9.652918,47.95541],"type":"Point"},"properties":{"osm_id":"6439486228","tag":{"amenity":"waste_basket","waste":"trash"}},"type":"Feature"},
	{"geometry":{"coordinates":[9.650576,47.95546],"type":"Point"},"properties":{"osm_id":"6439486278","tag":{"amenity":"waste_basket","seasonal":"summer","waste":"trash"}},"type":"Feature"}
]
}
