{
"type": "FeatureCollection",
"features": [
	{"geometry":{"coordinates":[9.595247,47.891595],"type":"Point"},"properties":{"osm_id":"2617844224","tag":{"amenity":"waste_basket"}},"type":"Feature"},
	{"geometry":{"coordinates":[9.652052,47.929088],"type":"Point"},"properties":{"osm_id":"5653632396","tag":{"amenity":"waste_basket","waste":"trash"}},"type":"Feature"},
	{"geometry":{"coordinates":[9.664051,47.912832],"type":"Point"},"properties":{"osm_id":"5653675204","tag":{"amenity":"waste_basket","waste":"trash"}},"type":"Feature"},
	{"geometry":{"coordinates":[9.606659,47.924469],"type":"Point"},"properties":{"osm_id":"5783575884","tag":{"amenity":"waste_basket","waste":"trash"}},"type":"Feature"},
	{"geometry":{"coordinates":[9.583112,47.927558],"type":"Point"},"properties":{"osm_id":"5928363234","tag":{"amenity":"waste_basket","waste":"trash"}},"type":"Feature"},
	{"geometry":{"coordinates":[9.597751,47.92429],"type":"Point"},"properties":{"osm_id":"6984825383","tag":{"amenity":"recycling","camera:type":"fixed","recycling:cans":"yes","recycling:glass_bottles":"yes","recycling_type":"container","surveillance":"outdoor","surveillance:type":"camera"}},"type":"Feature"}
]
}
