{
"type": "FeatureCollection",
"features": [
	{"geometry":{"coordinates":[9.589737,47.730757],"type":"Point"},"properties":{"name":"Untereschach","osm_id":"27594130","tag":{"direction":"backward","traffic_sign":"city_limit"}},"type":"Feature"},
	{"geometry":{"coordinates":[9.593832,47.733623],"type":"Point"},"properties":{"name":"Untereschach","osm_id":"27594153","tag":{"direction":"forward","traffic_sign":"city_limit"}},"type":"Feature"},
	{"geometry":{"coordinates":[9.603102,47.713917],"type":"Point"},"properties":{"osm_id":"482565909","tag":{"amenity":"recycling","recycling:cans":"yes","recycling:glass_bottles":"yes","recycling:paper":"yes","recycling_type":"container"}},"type":"Feature"},
	{"geometry":{"coordinates":[9.618799,47.722557],"type":"Point"},"properties":{"osm_id":"666362121","tag":{"amenity":"recycling","recycling_type":"container"}},"type":"Feature"},
	{"geometry":{"coordinates":[9.603279,47.737557],"type":"Point"},"properties":{"osm_id":"666933743","tag":{"amenity":"recycling","recycling:cans":"yes","recycling:glass_bottles":"yes","recycling:paper":"yes","recycling_type":"container"}},"type":"Feature"},
	{"geometry":{"coordinates":[9.604212,47.729638],"type":"Point"},"properties":{"osm_id":"670276169","tag":{"amenity":"recycling","recycling:cans":"yes","recycling:glass_bottles":"yes","recycling:paper":"yes","recycling_type":"container"}},"type":"Feature"},
	{"geometry":{"coordinates":[9.621762,47.748814],"type":"Point"},"properties":{"osm_id":"1274291245","tag":{"amenity":"waste_basket"}},"type":"Feature"},
	{"geometry":{"coordinates":[9.625644,47.733171],"type":"Point"},"properties":{"osm_id":"1274291247","tag":{"amenity":"waste_basket"}},"type":"Feature"},
	{"geometry":{"coordinates":[9.6561,47.745531],"type":"Point"},"properties":{"osm_id":"1276245813","tag":{"amenity":"waste_basket"}},"type":"Feature"},
	{"geometry":{"coordinates":[9.661158,47.748094],"type":"Point"},"properties":{"osm_id":"1292996891","tag":{"amenity":"waste_basket"}},"type":"Feature"},
	{"geometry":{"coordinates":[9.652903,47.74595],"type":"Point"},"properties":{"osm_id":"1292996894","tag":{"amenity":"waste_basket"}},"type":"Feature"},
	{"geometry":{"coordinates":[9.65313,47.746325],"type":"Point"},"properties":{"osm_id":"1292996896","tag":{"amenity":"waste_basket"}},"type":"Feature"},
	{"geometry":{"coordinates":[9.656034,47.749275],"type":"Point"},"properties":{"osm_id":"1292996898","tag":{"amenity":"waste_basket","backrest":"yes"}},"type":"Feature"},
	{"geometry":{"coordinates":[9.65677,47.743143],"type":"Point"},"properties":{"osm_id":"1569995526","tag":{"amenity":"waste_basket"}},"type":"Feature"},
	{"geometry":{"coordinates":[9.588845,47.729109],"type":"Point"},"properties":{"highway":"traffic_signals","osm_id":"1859918966"},"type":"Feature"},
	{"geometry":{"coordinates":[9.592533,47.732807],"type":"Point"},"properties":{"highway":"crossing","osm_id":"2571536068","tag":{"crossing":"traffic_signals"}},"type":"Feature"},
	{"geometry":{"coordinates":[9.656664,47.751162],"type":"Point"},"properties":{"osm_id":"2955200019","tag":{"amenity":"waste_basket"}},"type":"Feature"},
	{"geometry":{"coordinates":[9.597537,47.711315],"type":"Point"},"properties":{"osm_id":"5569576199","tag":{"amenity":"waste_basket"}},"type":"Feature"},
	{"geometry":{"coordinates":[9.597343,47.711485],"type":"Point"},"properties":{"osm_id":"5569576216","tag":{"amenity":"waste_basket"}},"type":"Feature"},
	{"geometry":{"coordinates":[9.656549,47.750973],"type":"Point"},"properties":{"osm_id":"5898632491","tag":{"amenity":"waste_basket","waste":"trash"}},"type":"Feature"},
	{"geometry":{"coordinates":[9.657445,47.74072],"type":"Point"},"properties":{"osm_id":"7052489729","tag":{"amenity":"waste_basket","waste":"dog_excrement"}},"type":"Feature"}
]
}
