{
"type": "FeatureCollection",
"features": [
	{"geometry":{"coordinates":[9.648307,47.437977],"type":"Point"},"properties":{"osm_id":"329975791","tag":{"amenity":"recycling","recycling:glass":"yes","recycling:paper":"yes","recycling:scrap_metal":"yes"}},"type":"Feature"},
	{"geometry":{"coordinates":[9.657558,47.427194],"type":"Point"},"properties":{"osm_id":"332035385","tag":{"amenity":"recycling","recycling:glass":"yes","recycling:paper":"yes","recycling:scrap_metal":"yes"}},"type":"Feature"},
	{"geometry":{"coordinates":[9.665378,47.436836],"type":"Point"},"properties":{"osm_id":"391288967","tag":{"amenity":"recycling","recycling:cans":"no","recycling:clothes":"yes","recycling:glass":"yes","recycling:paper":"yes","recycling:scrap_metal":"yes"}},"type":"Feature"},
	{"geometry":{"coordinates":[9.650824,47.428815],"type":"Point"},"properties":{"name":"Bauhof Lustenau","osm_id":"412105169","tag":{"amenity":"recycling","recycling:batteries":"yes","recycling:cans":"yes","recycling:clothes":"yes","recycling:glass":"yes","recycling:paper":"yes","recycling:scrap_metal":"yes","recycling_type":"centre"}},"type":"Feature"},
	{"geometry":{"coordinates":[9.658135,47.416812],"type":"Point"},"properties":{"osm_id":"633751670","tag":{"amenity":"recycling"}},"type":"Feature"},
	{"geometry":{"coordinates":[9.661499,47.43614],"type":"Point"},"properties":{"osm_id":"635730975","tag":{"addr:city":"Lustenau","addr:country":"AT","addr:postcode":"6890","addr:street":"Hofsteigstra\u00c3\u009fe","amenity":"recycling","recycling:cans":"yes","recycling:clothes":"yes","recycling:glass":"yes","recycling:paper":"yes","recycling:scrap_metal":"yes"}},"type":"Feature"},
	{"geometry":{"coordinates":[9.662312,47.437746],"type":"Point"},"properties":{"osm_id":"635731670","tag":{"amenity":"recycling","operator":"Caritas","recycling:clothes":"yes"}},"type":"Feature"},
	{"geometry":{"coordinates":[9.608285,47.434689],"type":"Point"},"properties":{"osm_id":"778524806","tag":{"amenity":"recycling"}},"type":"Feature"},
	{"geometry":{"coordinates":[9.58196,47.398418],"type":"Point"},"properties":{"osm_id":"895295959","tag":{"amenity":"waste_basket"}},"type":"Feature"},
	{"geometry":{"coordinates":[9.581111,47.400245],"type":"Point"},"properties":{"osm_id":"895369792","tag":{"amenity":"waste_basket"}},"type":"Feature"},
	{"geometry":{"coordinates":[9.659588,47.418639],"type":"Point"},"properties":{"osm_id":"1386792529","tag":{"amenity":"recycling"}},"type":"Feature"},
	{"geometry":{"coordinates":[9.599325,47.400722],"type":"Point"},"properties":{"osm_id":"1395273529","tag":{"amenity":"waste_basket"}},"type":"Feature"},
	{"geometry":{"coordinates":[9.604883,47.402641],"type":"Point"},"properties":{"osm_id":"1395273542","tag":{"amenity":"waste_basket"}},"type":"Feature"},
	{"geometry":{"coordinates":[9.655572,47.431829],"type":"Point"},"properties":{"osm_id":"1565264037","tag":{"amenity":"recycling","recycling:glass":"yes","recycling:paper":"yes","recycling:scrap_metal":"yes"}},"type":"Feature"},
	{"geometry":{"coordinates":[9.665106,47.418627],"type":"Point"},"properties":{"osm_id":"1627981640","tag":{"amenity":"recycling","recycling:cans":"yes","recycling:glass":"yes"}},"type":"Feature"},
	{"geometry":{"coordinates":[9.638402,47.424444],"type":"Point"},"properties":{"name":"Werkhof","osm_id":"1636567010","tag":{"amenity":"recycling","collection_times":"7:00 - 19:30","recycling:batteries":"yes","recycling:beverage_cartons":"yes","recycling:cans":"yes","recycling:clothes":"yes","recycling:glass_bottles":"yes","recycling:oil":"yes","recycling:plastic_bottles":"yes","recycling:shoes":"yes","recycling_type":"container"}},"type":"Feature"},
	{"geometry":{"coordinates":[9.639392,47.422854],"type":"Point"},"properties":{"osm_id":"1636575406","tag":{"amenity":"recycling","recycling_type":"centre"}},"type":"Feature"},
	{"geometry":{"coordinates":[9.667455,47.42409],"type":"Point"},"properties":{"osm_id":"1860407224","tag":{"amenity":"recycling"}},"type":"Feature"},
	{"geometry":{"coordinates":[9.661949,47.427954],"type":"Point"},"properties":{"osm_id":"1862256699","tag":{"amenity":"recycling"}},"type":"Feature"},
	{"geometry":{"coordinates":[9.659202,47.443115],"type":"Point"},"properties":{"osm_id":"3242649165","tag":{"amenity":"recycling","recycling:cans":"yes","recycling:clothes":"yes","recycling:glass":"yes","recycling:paper":"yes"}},"type":"Feature"},
	{"geometry":{"coordinates":[9.662565,47.440516],"type":"Point"},"properties":{"osm_id":"4331186356","tag":{"amenity":"waste_basket"}},"type":"Feature"},
	{"geometry":{"coordinates":[9.662658,47.44078],"type":"Point"},"properties":{"osm_id":"4331188307","tag":{"amenity":"waste_basket"}},"type":"Feature"},
	{"geometry":{"coordinates":[9.656503,47.438581],"type":"Point"},"properties":{"osm_id":"4331213458","tag":{"amenity":"waste_basket"}},"type":"Feature"},
	{"geometry":{"coordinates":[9.657573,47.440214],"type":"Point"},"properties":{"osm_id":"4331216308","tag":{"amenity":"waste_basket"}},"type":"Feature"},
	{"geometry":{"coordinates":[9.661734,47.427793],"type":"Point"},"properties":{"osm_id":"4608599526","tag":{"amenity":"waste_basket"}},"type":"Feature"},
	{"geometry":{"coordinates":[9.65998,47.426764],"type":"Point"},"properties":{"osm_id":"4608599527","tag":{"amenity":"waste_basket"}},"type":"Feature"},
	{"geometry":{"coordinates":[9.659676,47.426102],"type":"Point"},"properties":{"osm_id":"4608599528","tag":{"amenity":"waste_basket"}},"type":"Feature"},
	{"geometry":{"coordinates":[9.625241,47.409721],"type":"Point"},"properties":{"osm_id":"4677794141","tag":{"amenity":"recycling","location":"overground","recycling:glass":"yes","recycling:plastic_bottles":"yes","recycling:plastic_packaging":"yes","recycling_type":"container"}},"type":"Feature"},
	{"geometry":{"coordinates":[9.623225,47.408497],"type":"Point"},"properties":{"osm_id":"4677794142","tag":{"amenity":"waste_basket"}},"type":"Feature"},
	{"geometry":{"coordinates":[9.625077,47.409651],"type":"Point"},"properties":{"osm_id":"4677794422","tag":{"amenity":"recycling","location":"overground","recycling:clothes":"yes","recycling:glass_bottles":"yes","recycling_type":"container"}},"type":"Feature"},
	{"geometry":{"coordinates":[9.631368,47.407078],"type":"Point"},"properties":{"osm_id":"4863684835","tag":{"amenity":"waste_basket"}},"type":"Feature"},
	{"geometry":{"coordinates":[9.638409,47.405487],"type":"Point"},"properties":{"osm_id":"4863684838","tag":{"amenity":"waste_basket"}},"type":"Feature"},
	{"geometry":{"coordinates":[9.634827,47.405737],"type":"Point"},"properties":{"osm_id":"4863685022","tag":{"amenity":"waste_basket"}},"type":"Feature"},
	{"geometry":{"coordinates":[9.633727,47.406174],"type":"Point"},"properties":{"osm_id":"4863689830","tag":{"amenity":"waste_basket"}},"type":"Feature"},
	{"geometry":{"coordinates":[9.638678,47.406827],"type":"Point"},"properties":{"osm_id":"4863689832","tag":{"amenity":"waste_basket"}},"type":"Feature"},
	{"geometry":{"coordinates":[9.635691,47.402681],"type":"Point"},"properties":{"osm_id":"4863690723","tag":{"amenity":"waste_basket"}},"type":"Feature"},
	{"geometry":{"coordinates":[9.635298,47.404088],"type":"Point"},"properties":{"osm_id":"4863690725","tag":{"amenity":"waste_basket"}},"type":"Feature"},
	{"geometry":{"coordinates":[9.632088,47.406914],"type":"Point"},"properties":{"osm_id":"4863690735","tag":{"amenity":"waste_basket"}},"type":"Feature"},
	{"geometry":{"coordinates":[9.636116,47.405621],"type":"Point"},"properties":{"osm_id":"4863690739","tag":{"amenity":"waste_basket"}},"type":"Feature"},
	{"geometry":{"coordinates":[9.637775,47.453305],"type":"Point"},"properties":{"osm_id":"4984402823","tag":{"amenity":"waste_basket"}},"type":"Feature"},
	{"geometry":{"coordinates":[9.637288,47.453263],"type":"Point"},"properties":{"osm_id":"4984402824","tag":{"amenity":"waste_basket"}},"type":"Feature"},
	{"geometry":{"coordinates":[9.623655,47.409118],"type":"Point"},"properties":{"osm_id":"5471317841","tag":{"amenity":"recycling","recycling:beverage_cartons":"yes","recycling:plastic_bottles":"yes","recycling_type":"container"}},"type":"Feature"}
]
}
