{
"type": "FeatureCollection",
"features": [
	{"geometry":{"coordinates":[9.611337,47.251326],"type":"Point"},"properties":{"osm_id":"277433553","tag":{"amenity":"recycling","location":"overground","recycling_type":"container"}},"type":"Feature"},
	{"geometry":{"coordinates":[9.588618,47.240744],"type":"Point"},"properties":{"osm_id":"278393755","tag":{"amenity":"recycling","location":"overground","recycling:cans":"yes","recycling:glass":"yes","recycling:paper":"yes","recycling:scrap_metal":"yes","recycling_type":"container"}},"type":"Feature"},
	{"geometry":{"coordinates":[9.595111,47.255476],"type":"Point"},"properties":{"osm_id":"282083170","tag":{"amenity":"recycling","recycling_type":"container"}},"type":"Feature"},
	{"geometry":{"coordinates":[9.608081,47.259918],"type":"Point"},"properties":{"osm_id":"282083341","tag":{"amenity":"recycling"}},"type":"Feature"},
	{"geometry":{"coordinates":[9.580268,47.256011],"type":"Point"},"properties":{"osm_id":"283154059","tag":{"amenity":"recycling","recycling:cans":"yes","recycling:glass":"yes","recycling:paper":"yes","recycling_type":"container"}},"type":"Feature"},
	{"geometry":{"coordinates":[9.599013,47.259707],"type":"Point"},"properties":{"osm_id":"305955351","tag":{"access":"private","amenity":"recycling"}},"type":"Feature"},
	{"geometry":{"coordinates":[9.584715,47.231242],"type":"Point"},"properties":{"osm_id":"354528466","tag":{"amenity":"recycling"}},"type":"Feature"},
	{"geometry":{"coordinates":[9.627421,47.221972],"type":"Point"},"properties":{"osm_id":"357329685","tag":{"amenity":"recycling","recycling:cans":"no","recycling:glass":"yes","recycling:paper":"yes","recycling:scrap_metal":"yes"}},"type":"Feature"},
	{"geometry":{"coordinates":[9.664391,47.225124],"type":"Point"},"properties":{"osm_id":"372491692","tag":{"amenity":"recycling","recycling:glass":"yes","recycling:paper":"yes","recycling:scrap_metal":"yes"}},"type":"Feature"},
	{"geometry":{"coordinates":[9.582433,47.240336],"type":"Point"},"properties":{"osm_id":"386612554","tag":{"amenity":"recycling","location":"overground","recycling:cans":"yes","recycling:glass":"yes","recycling:paper":"yes","recycling:scrap_metal":"no","recycling_type":"container"}},"type":"Feature"},
	{"geometry":{"coordinates":[9.58948,47.23984],"type":"Point"},"properties":{"osm_id":"461635277","tag":{"amenity":"recycling","recycling:clothes":"yes","recycling_type":"container"}},"type":"Feature"},
	{"geometry":{"coordinates":[9.658718,47.278385],"type":"Point"},"properties":{"osm_id":"476777723","tag":{"amenity":"recycling","operator":"Gemeinde Zwischenwasser","recycling:glass":"yes","recycling:paper":"yes","recycling:scrap_metal":"yes","recycling_type":"container"}},"type":"Feature"},
	{"geometry":{"coordinates":[9.589074,47.248935],"type":"Point"},"properties":{"osm_id":"502950046","tag":{"amenity":"recycling","location":"overground","recycling_type":"container"}},"type":"Feature"},
	{"geometry":{"coordinates":[9.582202,47.248839],"type":"Point"},"properties":{"osm_id":"610415061","tag":{"amenity":"recycling"}},"type":"Feature"},
	{"geometry":{"coordinates":[9.65436,47.277765],"type":"Point"},"properties":{"osm_id":"897786591","tag":{"amenity":"waste_basket"}},"type":"Feature"},
	{"geometry":{"coordinates":[9.653786,47.277818],"type":"Point"},"properties":{"osm_id":"897786891","tag":{"amenity":"recycling","location":"overground","recycling:glass":"yes","recycling:paper":"yes","recycling:scrap_metal":"yes","recycling_type":"container"}},"type":"Feature"},
	{"geometry":{"coordinates":[9.651005,47.275107],"type":"Point"},"properties":{"osm_id":"897786972","tag":{"amenity":"waste_basket"}},"type":"Feature"},
	{"geometry":{"coordinates":[9.591544,47.26593],"type":"Point"},"properties":{"name":"Recyclingstation Gatterweg","osm_id":"1163308895","tag":{"amenity":"recycling","recycling_type":"container"}},"type":"Feature"},
	{"geometry":{"coordinates":[9.583764,47.257513],"type":"Point"},"properties":{"osm_id":"1164785856","tag":{"amenity":"recycling"}},"type":"Feature"},
	{"geometry":{"coordinates":[9.644472,47.244175],"type":"Point"},"properties":{"osm_id":"1445591388","tag":{"amenity":"recycling","recycling_type":"container"}},"type":"Feature"},
	{"geometry":{"coordinates":[9.618382,47.259642],"type":"Point"},"properties":{"osm_id":"2095235261","tag":{"amenity":"recycling","recycling_type":"container"}},"type":"Feature"},
	{"geometry":{"coordinates":[9.581264,47.227055],"type":"Point"},"properties":{"osm_id":"2586424575","tag":{"amenity":"recycling","recycling_type":"container"}},"type":"Feature"},
	{"geometry":{"coordinates":[9.656904,47.277581],"type":"Point"},"properties":{"osm_id":"3077506802","tag":{"amenity":"recycling","recycling:glass":"yes","recycling:paper":"yes","recycling:scrap_metal":"yes"}},"type":"Feature"},
	{"geometry":{"coordinates":[9.587736,47.251475],"type":"Point"},"properties":{"osm_id":"3332793974","tag":{"addr:city":"Feldkirch","addr:country":"AT","addr:housenumber":"19","addr:postcode":"6800","addr:street":"H\u00c3\u00a4mmerlestra\u00c3\u009fe","amenity":"recycling","location":"overground","recycling:glass":"yes","recycling_type":"container"}},"type":"Feature"},
	{"geometry":{"coordinates":[9.6448,47.278318],"type":"Point"},"properties":{"osm_id":"3550855798","tag":{"amenity":"recycling","recycling:glass":"yes","recycling:paper":"yes","recycling:scrap_metal":"yes","recycling_type":"container"}},"type":"Feature"},
	{"geometry":{"coordinates":[9.629402,47.272763],"type":"Point"},"properties":{"osm_id":"3561095845","tag":{"amenity":"recycling","recycling:glass":"yes","recycling:paper":"yes","recycling:scrap_metal":"yes","recycling_type":"container"}},"type":"Feature"},
	{"geometry":{"coordinates":[9.639378,47.277323],"type":"Point"},"properties":{"osm_id":"3561095864","tag":{"amenity":"recycling","recycling:glass":"yes","recycling:paper":"yes","recycling:scrap_metal":"yes","recycling_type":"container"}},"type":"Feature"},
	{"geometry":{"coordinates":[9.622777,47.224741],"type":"Point"},"properties":{"osm_id":"3635891809","tag":{"amenity":"recycling","recycling_type":"container"}},"type":"Feature"},
	{"geometry":{"coordinates":[9.611246,47.266668],"type":"Point"},"properties":{"osm_id":"3647906868","tag":{"amenity":"recycling","recycling:glass":"yes","recycling:paper":"yes","recycling:scrap_metal":"yes","recycling_type":"container"}},"type":"Feature"},
	{"geometry":{"coordinates":[9.582171,47.255613],"type":"Point"},"properties":{"osm_id":"3677876808","tag":{"amenity":"waste_basket"}},"type":"Feature"},
	{"geometry":{"coordinates":[9.587588,47.243618],"type":"Point"},"properties":{"osm_id":"3677887868","tag":{"amenity":"waste_basket"}},"type":"Feature"},
	{"geometry":{"coordinates":[9.618565,47.266738],"type":"Point"},"properties":{"osm_id":"3687792635","tag":{"amenity":"recycling","recycling_type":"container"}},"type":"Feature"},
	{"geometry":{"coordinates":[9.624287,47.259744],"type":"Point"},"properties":{"osm_id":"3761369747","tag":{"amenity":"recycling","recycling_type":"container"}},"type":"Feature"},
	{"geometry":{"coordinates":[9.598248,47.235467],"type":"Point"},"properties":{"osm_id":"4228750772","tag":{"amenity":"waste_basket"}},"type":"Feature"},
	{"geometry":{"coordinates":[9.598333,47.235486],"type":"Point"},"properties":{"osm_id":"4228750774","tag":{"amenity":"waste_basket"}},"type":"Feature"},
	{"geometry":{"coordinates":[9.599822,47.237227],"type":"Point"},"properties":{"osm_id":"4623284297","tag":{"amenity":"waste_basket"}},"type":"Feature"},
	{"geometry":{"coordinates":[9.595813,47.235909],"type":"Point"},"properties":{"osm_id":"4623284298","tag":{"amenity":"waste_basket"}},"type":"Feature"},
	{"geometry":{"coordinates":[9.58104,47.22595],"type":"Point"},"properties":{"osm_id":"4623284299","tag":{"amenity":"waste_basket"}},"type":"Feature"},
	{"geometry":{"coordinates":[9.584224,47.255519],"type":"Point"},"properties":{"osm_id":"4623315692","tag":{"amenity":"waste_basket"}},"type":"Feature"},
	{"geometry":{"coordinates":[9.611588,47.248794],"type":"Point"},"properties":{"osm_id":"4623627389","tag":{"amenity":"waste_basket"}},"type":"Feature"},
	{"geometry":{"coordinates":[9.607117,47.259546],"type":"Point"},"properties":{"osm_id":"4623627489","tag":{"amenity":"waste_basket"}},"type":"Feature"},
	{"geometry":{"coordinates":[9.595157,47.236096],"type":"Point"},"properties":{"osm_id":"4757732324","tag":{"amenity":"waste_basket"}},"type":"Feature"},
	{"geometry":{"coordinates":[9.597226,47.235849],"type":"Point"},"properties":{"osm_id":"4757883132","tag":{"amenity":"waste_basket"}},"type":"Feature"},
	{"geometry":{"coordinates":[9.597869,47.236668],"type":"Point"},"properties":{"osm_id":"4757894726","tag":{"amenity":"waste_basket"}},"type":"Feature"},
	{"geometry":{"coordinates":[9.598341,47.235193],"type":"Point"},"properties":{"osm_id":"4757901728","tag":{"amenity":"waste_basket"}},"type":"Feature"},
	{"geometry":{"coordinates":[9.596759,47.238003],"type":"Point"},"properties":{"osm_id":"4757939027","tag":{"amenity":"waste_basket"}},"type":"Feature"},
	{"geometry":{"coordinates":[9.59664,47.238013],"type":"Point"},"properties":{"osm_id":"4757941422","tag":{"amenity":"waste_basket"}},"type":"Feature"},
	{"geometry":{"coordinates":[9.596343,47.236757],"type":"Point"},"properties":{"osm_id":"4757952049","tag":{"amenity":"waste_basket"}},"type":"Feature"},
	{"geometry":{"coordinates":[9.594698,47.235859],"type":"Point"},"properties":{"osm_id":"4757952050","tag":{"amenity":"waste_basket"}},"type":"Feature"},
	{"geometry":{"coordinates":[9.596789,47.238256],"type":"Point"},"properties":{"osm_id":"4757960821","tag":{"amenity":"waste_basket"}},"type":"Feature"},
	{"geometry":{"coordinates":[9.614841,47.253757],"type":"Point"},"properties":{"osm_id":"4760032822","tag":{"amenity":"waste_basket"}},"type":"Feature"},
	{"geometry":{"coordinates":[9.595137,47.236325],"type":"Point"},"properties":{"osm_id":"4809887504","tag":{"amenity":"waste_basket"}},"type":"Feature"},
	{"geometry":{"coordinates":[9.597088,47.237355],"type":"Point"},"properties":{"osm_id":"4830339326","tag":{"amenity":"waste_basket"}},"type":"Feature"},
	{"geometry":{"coordinates":[9.597695,47.237561],"type":"Point"},"properties":{"osm_id":"4830339329","tag":{"amenity":"waste_basket"}},"type":"Feature"},
	{"geometry":{"coordinates":[9.598139,47.237712],"type":"Point"},"properties":{"osm_id":"4830339331","tag":{"amenity":"waste_basket"}},"type":"Feature"},
	{"geometry":{"coordinates":[9.597202,47.237422],"type":"Point"},"properties":{"osm_id":"4830347323","tag":{"amenity":"waste_basket"}},"type":"Feature"},
	{"geometry":{"coordinates":[9.597569,47.237511],"type":"Point"},"properties":{"osm_id":"4830347326","tag":{"amenity":"waste_basket"}},"type":"Feature"},
	{"geometry":{"coordinates":[9.597479,47.238431],"type":"Point"},"properties":{"osm_id":"4830935225","tag":{"amenity":"waste_basket"}},"type":"Feature"},
	{"geometry":{"coordinates":[9.596434,47.23557],"type":"Point"},"properties":{"osm_id":"4861669938","tag":{"amenity":"recycling","location":"overground","recycling:cans":"yes","recycling:cardboard":"yes","recycling:clothes":"yes","recycling:glass_bottles":"yes","recycling:newspaper":"yes","recycling:paper":"yes","recycling:paper_packaging":"yes","recycling_type":"container"}},"type":"Feature"},
	{"geometry":{"coordinates":[9.613393,47.274049],"type":"Point"},"properties":{"osm_id":"4934300123","tag":{"amenity":"waste_basket"}},"type":"Feature"},
	{"geometry":{"coordinates":[9.615354,47.256419],"type":"Point"},"properties":{"osm_id":"5138332229","tag":{"amenity":"waste_basket"}},"type":"Feature"},
	{"geometry":{"coordinates":[9.633247,47.227019],"type":"Point"},"properties":{"osm_id":"5562499400","tag":{"amenity":"waste_basket"}},"type":"Feature"},
	{"geometry":{"coordinates":[9.58744,47.233564],"type":"Point"},"properties":{"osm_id":"5589889168","tag":{"amenity":"recycling","recycling:cans":"yes","recycling:glass_bottles":"yes","recycling:paper":"yes","recycling_type":"container"}},"type":"Feature"},
	{"geometry":{"coordinates":[9.592934,47.23701],"type":"Point"},"properties":{"osm_id":"5589889169","tag":{"amenity":"recycling","recycling_type":"container"}},"type":"Feature"},
	{"geometry":{"coordinates":[9.598505,47.235551],"type":"Point"},"properties":{"osm_id":"6120963607","tag":{"amenity":"waste_basket"}},"type":"Feature"}
]
}
