{
"type": "FeatureCollection",
"features": [
	{"geometry":{"coordinates":[9.651204,45.643876],"type":"Point"},"properties":{"name":"Stazione ecologica","osm_id":"429517481","tag":{"amenity":"recycling"}},"type":"Feature"},
	{"geometry":{"coordinates":[9.584983,45.607996],"type":"Point"},"properties":{"osm_id":"867252441","tag":{"amenity":"recycling","recycling:clothes":"yes"}},"type":"Feature"},
	{"geometry":{"coordinates":[9.660706,45.620661],"type":"Point"},"properties":{"osm_id":"5600358112","tag":{"amenity":"waste_basket"}},"type":"Feature"},
	{"geometry":{"coordinates":[9.660655,45.62095],"type":"Point"},"properties":{"osm_id":"5600358113","tag":{"amenity":"waste_basket"}},"type":"Feature"},
	{"geometry":{"coordinates":[9.660614,45.621184],"type":"Point"},"properties":{"osm_id":"5600358114","tag":{"amenity":"waste_basket"}},"type":"Feature"},
	{"geometry":{"coordinates":[9.659868,45.624674],"type":"Point"},"properties":{"osm_id":"5615202853","tag":{"amenity":"waste_basket"}},"type":"Feature"},
	{"geometry":{"coordinates":[9.658414,45.624533],"type":"Point"},"properties":{"osm_id":"5615202855","tag":{"amenity":"waste_basket"}},"type":"Feature"},
	{"geometry":{"coordinates":[9.658508,45.624563],"type":"Point"},"properties":{"osm_id":"5615202856","tag":{"amenity":"waste_basket"}},"type":"Feature"},
	{"geometry":{"coordinates":[9.660275,45.621425],"type":"Point"},"properties":{"osm_id":"5615202904","tag":{"amenity":"waste_basket"}},"type":"Feature"},
	{"geometry":{"coordinates":[9.66031,45.621787],"type":"Point"},"properties":{"osm_id":"5615202910","tag":{"amenity":"waste_basket"}},"type":"Feature"},
	{"geometry":{"coordinates":[9.66038,45.62124],"type":"Point"},"properties":{"osm_id":"5615202912","tag":{"amenity":"waste_basket"}},"type":"Feature"},
	{"geometry":{"coordinates":[9.660553,45.621339],"type":"Point"},"properties":{"osm_id":"5615202913","tag":{"amenity":"waste_basket"}},"type":"Feature"},
	{"geometry":{"coordinates":[9.660526,45.620684],"type":"Point"},"properties":{"osm_id":"5615202919","tag":{"amenity":"waste_basket"}},"type":"Feature"}
]
}
