{
"type": "FeatureCollection",
"features": [
	{"geometry":{"coordinates":[9.612085,44.167789],"type":"Point"},"properties":{"osm_id":"1445778547","tag":{"amenity":"recycling","recycling:glass":"yes","recycling_type":"container"}},"type":"Feature"},
	{"geometry":{"coordinates":[9.627627,44.17293],"type":"Point"},"properties":{"name":"Centro riciclaggio Comune di Levanto","osm_id":"2397085048","tag":{"amenity":"recycling","recycling_type":"centre"}},"type":"Feature"},
	{"geometry":{"coordinates":[9.59303,44.176588],"type":"Point"},"properties":{"osm_id":"4208789371","tag":{"amenity":"recycling"}},"type":"Feature"},
	{"geometry":{"coordinates":[9.590784,44.176238],"type":"Point"},"properties":{"osm_id":"4208801547","tag":{"amenity":"recycling"}},"type":"Feature"},
	{"geometry":{"coordinates":[9.587486,44.175919],"type":"Point"},"properties":{"osm_id":"4209323566","tag":{"amenity":"recycling"}},"type":"Feature"},
	{"geometry":{"coordinates":[9.591228,44.176992],"type":"Point"},"properties":{"osm_id":"4210793390","tag":{"amenity":"recycling","recycling_type":"container"}},"type":"Feature"},
	{"geometry":{"coordinates":[9.61415,44.171883],"type":"Point"},"properties":{"osm_id":"4598034961","tag":{"amenity":"recycling"}},"type":"Feature"},
	{"geometry":{"coordinates":[9.615543,44.170272],"type":"Point"},"properties":{"osm_id":"4621415298","tag":{"amenity":"recycling","recycling:batteries":"yes","recycling_type":"container"}},"type":"Feature"},
	{"geometry":{"coordinates":[9.614645,44.171759],"type":"Point"},"properties":{"osm_id":"4740558260","tag":{"amenity":"waste_basket"}},"type":"Feature"},
	{"geometry":{"coordinates":[9.582095,44.184961],"type":"Point"},"properties":{"osm_id":"4906820081","tag":{"amenity":"recycling","recycling_type":"centre"}},"type":"Feature"},
	{"geometry":{"coordinates":[9.581129,44.183805],"type":"Point"},"properties":{"osm_id":"5967104392","tag":{"amenity":"recycling","recycling_type":"container"}},"type":"Feature"},
	{"geometry":{"coordinates":[9.613205,44.167372],"type":"Point"},"properties":{"osm_id":"6920294645","tag":{"amenity":"waste_basket"}},"type":"Feature"},
	{"geometry":{"coordinates":[9.616463,44.174037],"type":"Point"},"properties":{"osm_id":"6926504695","tag":{"amenity":"waste_basket"}},"type":"Feature"},
	{"geometry":{"coordinates":[9.616189,44.174012],"type":"Point"},"properties":{"osm_id":"6926504696","tag":{"amenity":"waste_basket"}},"type":"Feature"},
	{"geometry":{"coordinates":[9.615982,44.174091],"type":"Point"},"properties":{"osm_id":"6926504697","tag":{"amenity":"waste_basket"}},"type":"Feature"},
	{"geometry":{"coordinates":[9.616516,44.173763],"type":"Point"},"properties":{"osm_id":"6926504698","tag":{"amenity":"waste_basket"}},"type":"Feature"},
	{"geometry":{"coordinates":[9.616709,44.173939],"type":"Point"},"properties":{"osm_id":"6926521486","tag":{"amenity":"waste_basket"}},"type":"Feature"}
]
}
