{
"type": "FeatureCollection",
"features": [
	{"geometry":{"coordinates":[-60.880485,-32.910864],"type":"Point"},"properties":{"osm_id":"2598596242","tag":{"amenity":"waste_disposal"}},"type":"Feature"},
	{"geometry":{"coordinates":[-60.855646,-32.91506],"type":"Point"},"properties":{"osm_id":"3175863029","tag":{"amenity":"recycling","description":"Reciclado de plasticos","recycling:cans":"yes","recycling:plastic":"yes","recycling_type":"container"}},"type":"Feature"},
	{"geometry":{"coordinates":[-60.880493,-32.906163],"type":"Point"},"properties":{"name":"9 - Cotos de la Alameda","osm_id":"5401454580","ref":"9","tag":{"amenity":"recycling","contact:facebook":"https://fb.com/Club-huella-ecol\u00c3\u00b3gica-Rold\u00c3\u00a1n-Santa-Fe-1132610096793906/","operator":"Club de Huella Ecol\u00c3\u00b3gica","recycling:cans":"yes","recycling:glass":"yes","recycling:glass_bottles":"yes","recycling_type":"container"}},"type":"Feature"},
	{"geometry":{"coordinates":[-60.871741,-32.894412],"type":"Point"},"properties":{"name":"8 - Acequias del Aire","osm_id":"5401454581","ref":"8","tag":{"amenity":"recycling","contact:facebook":"https://fb.com/Club-huella-ecol\u00c3\u00b3gica-Rold\u00c3\u00a1n-Santa-Fe-1132610096793906/","operator":"Club de Huella Ecol\u00c3\u00b3gica","recycling:cans":"yes","recycling:glass":"yes","recycling:glass_bottles":"yes","recycling_type":"container"}},"type":"Feature"},
	{"geometry":{"coordinates":[-60.889392,-32.889982],"type":"Point"},"properties":{"name":"7 - Las Tardes","osm_id":"5401454582","ref":"7","tag":{"amenity":"recycling","contact:facebook":"https://fb.com/Club-huella-ecol\u00c3\u00b3gica-Rold\u00c3\u00a1n-Santa-Fe-1132610096793906/","operator":"Club de Huella Ecol\u00c3\u00b3gica","recycling:cans":"yes","recycling:glass":"yes","recycling:glass_bottles":"yes","recycling_type":"container"}},"type":"Feature"},
	{"geometry":{"coordinates":[-60.898249,-32.897242],"type":"Point"},"properties":{"name":"6 - Arrabal","osm_id":"5401454583","ref":"6","tag":{"amenity":"recycling","contact:facebook":"https://fb.com/Club-huella-ecol\u00c3\u00b3gica-Rold\u00c3\u00a1n-Santa-Fe-1132610096793906/","operator":"Club de Huella Ecol\u00c3\u00b3gica","recycling:cans":"yes","recycling:glass":"yes","recycling:glass_bottles":"yes","recycling_type":"container"}},"type":"Feature"},
	{"geometry":{"coordinates":[-60.877143,-32.914398],"type":"Point"},"properties":{"name":"2 - Los Aromos","osm_id":"5401454587","ref":"2","tag":{"amenity":"recycling","contact:facebook":"https://fb.com/Club-huella-ecol\u00c3\u00b3gica-Rold\u00c3\u00a1n-Santa-Fe-1132610096793906/","operator":"Club de Huella Ecol\u00c3\u00b3gica","recycling:cans":"yes","recycling:glass":"yes","recycling:glass_bottles":"yes","recycling_type":"container"}},"type":"Feature"},
	{"geometry":{"coordinates":[-60.882127,-32.893757],"type":"Point"},"properties":{"name":"1 - Las Acequias","osm_id":"5401454588","ref":"1","tag":{"amenity":"recycling","contact:facebook":"https://fb.com/Club-huella-ecol\u00c3\u00b3gica-Rold\u00c3\u00a1n-Santa-Fe-1132610096793906/","operator":"Club de Huella Ecol\u00c3\u00b3gica","recycling:cans":"yes","recycling:glass":"yes","recycling:glass_bottles":"yes","recycling_type":"container"}},"type":"Feature"},
	{"geometry":{"coordinates":[-60.898078,-32.891171],"type":"Point"},"properties":{"osm_id":"7600942754","tag":{"amenity":"recycling","operator":"Municipalidad de Rold\u00c3\u00a1n","recycling_type":"container"}},"type":"Feature"},
	{"geometry":{"coordinates":[-60.898878,-32.89499],"type":"Point"},"properties":{"osm_id":"7600942755","tag":{"amenity":"recycling","operator":"Municipalidad de Rold\u00c3\u00a1n","recycling_type":"container"}},"type":"Feature"},
	{"geometry":{"coordinates":[-60.904506,-32.900644],"type":"Point"},"properties":{"osm_id":"7600942757","tag":{"amenity":"recycling","operator":"Municipalidad de Rold\u00c3\u00a1n","recycling_type":"container"}},"type":"Feature"},
	{"geometry":{"coordinates":[-60.907173,-32.905699],"type":"Point"},"properties":{"osm_id":"7600942768","tag":{"amenity":"recycling","operator":"Municipalidad de Rold\u00c3\u00a1n","recycling_type":"container"}},"type":"Feature"},
	{"geometry":{"coordinates":[-60.905754,-32.907933],"type":"Point"},"properties":{"osm_id":"7600942769","tag":{"amenity":"recycling","operator":"Municipalidad de Rold\u00c3\u00a1n","recycling_type":"container"}},"type":"Feature"},
	{"geometry":{"coordinates":[-60.883709,-32.903603],"type":"Point"},"properties":{"osm_id":"7600942770","tag":{"amenity":"recycling","operator":"Municipalidad de Rold\u00c3\u00a1n","recycling_type":"container"}},"type":"Feature"}
]
}
