{
"type": "FeatureCollection",
"features": [
	{"geometry":{"coordinates":[-60.862077,-32.918991],"type":"Point"},"properties":{"osm_id":"3175863030","tag":{"amenity":"recycling","description":"Reciclado de pl\u00c3\u00a1sticos","recycling:cans":"yes","recycling:plastic":"yes","recycling_type":"container"}},"type":"Feature"},
	{"geometry":{"coordinates":[-60.894195,-32.933971],"type":"Point"},"properties":{"osm_id":"3948546308","tag":{"amenity":"waste_disposal","colour":"green"}},"type":"Feature"},
	{"geometry":{"coordinates":[-60.894152,-32.933977],"type":"Point"},"properties":{"osm_id":"3948546309","tag":{"amenity":"waste_disposal","colour":"blue"}},"type":"Feature"},
	{"geometry":{"coordinates":[-60.895023,-32.937806],"type":"Point"},"properties":{"osm_id":"4915771201","tag":{"amenity":"waste_disposal"}},"type":"Feature"},
	{"geometry":{"coordinates":[-60.872736,-32.920338],"type":"Point"},"properties":{"name":"11 - La Esperanza","osm_id":"5401454578","ref":"11","tag":{"amenity":"recycling","contact:facebook":"https://fb.com/Club-huella-ecol\u00c3\u00b3gica-Rold\u00c3\u00a1n-Santa-Fe-1132610096793906/","operator":"Club de Huella Ecol\u00c3\u00b3gica","recycling:cans":"yes","recycling:glass":"yes","recycling:glass_bottles":"yes","recycling_type":"container"}},"type":"Feature"},
	{"geometry":{"coordinates":[-60.884534,-32.94387],"type":"Point"},"properties":{"name":"5 - Tierra de Sue\u00c3\u00b1os 3B","osm_id":"5401454584","ref":"5","tag":{"amenity":"recycling","contact:facebook":"https://fb.com/Club-huella-ecol\u00c3\u00b3gica-Rold\u00c3\u00a1n-Santa-Fe-1132610096793906/","operator":"Club de Huella Ecol\u00c3\u00b3gica","recycling:cans":"yes","recycling:glass":"yes","recycling:glass_bottles":"yes","recycling_type":"container"}},"type":"Feature"},
	{"geometry":{"coordinates":[-60.883245,-32.93918],"type":"Point"},"properties":{"name":"4 - Tierra de Sue\u00c3\u00b1os 3A","osm_id":"5401454585","ref":"4","tag":{"amenity":"recycling","contact:facebook":"https://fb.com/Club-huella-ecol\u00c3\u00b3gica-Rold\u00c3\u00a1n-Santa-Fe-1132610096793906/","operator":"Club de Huella Ecol\u00c3\u00b3gica","recycling:cans":"yes","recycling:glass":"yes","recycling:glass_bottles":"yes","recycling_type":"container"}},"type":"Feature"},
	{"geometry":{"coordinates":[-60.894175,-32.933984],"type":"Point"},"properties":{"name":"3 - Tierra de Sue\u00c3\u00b1os 2","osm_id":"5401454586","ref":"3","tag":{"amenity":"recycling","contact:facebook":"https://fb.com/Club-huella-ecol\u00c3\u00b3gica-Rold\u00c3\u00a1n-Santa-Fe-1132610096793906/","operator":"Club de Huella Ecol\u00c3\u00b3gica","recycling:cans":"yes","recycling:glass":"yes","recycling:glass_bottles":"yes","recycling_type":"container"}},"type":"Feature"},
	{"geometry":{"coordinates":[-60.893871,-32.93197],"type":"Point"},"properties":{"osm_id":"7600942771","tag":{"amenity":"recycling","operator":"Municipalidad de Rold\u00c3\u00a1n","recycling_type":"container"}},"type":"Feature"},
	{"geometry":{"coordinates":[-60.884991,-32.944653],"type":"Point"},"properties":{"osm_id":"7600942772","tag":{"amenity":"recycling","operator":"Municipalidad de Rold\u00c3\u00a1n","recycling_type":"container"}},"type":"Feature"}
]
}
