{
"type": "FeatureCollection",
"features": [
	{"geometry":{"coordinates":[-59.108293,-34.577876],"type":"Point"},"properties":{"osm_id":"7014816227","tag":{"amenity":"recycling","operator":"Usina Eco","phone":"541169811139","recycling:PET":"yes","recycling:aluminium":"yes","recycling:cans":"yes","recycling:cardboard":"yes","recycling:glass_bottles":"yes","recycling:paper":"yes","recycling:plastic":"yes","recycling:plastic_bottles":"yes","recycling_type":"container"}},"type":"Feature"},
	{"geometry":{"coordinates":[-59.131939,-34.567817],"type":"Point"},"properties":{"osm_id":"7050850594","tag":{"amenity":"recycling","opening_hours":"Mo-Su 00:00-24:00","operator":"Usina Eco","recycling:PET":"yes","recycling:aluminium":"yes","recycling:cardboard":"yes","recycling:paper":"yes","recycling:plastic":"yes","recycling:plastic_bottles":"yes","recycling:plastic_packaging":"yes","recycling_type":"container"}},"type":"Feature"},
	{"geometry":{"coordinates":[-59.101578,-34.562169],"type":"Point"},"properties":{"name":"Usina Eco","osm_id":"7173907258","tag":{"amenity":"recycling","operator":"Usina Eco","phone":"541169811139","recycling:PET":"yes","recycling:aluminium":"yes","recycling:cans":"yes","recycling:cardboard":"yes","recycling:glass":"yes","recycling:glass_bottles":"yes","recycling:paper":"yes","recycling:plastic":"yes","recycling:plastic_bottles":"yes","recycling_type":"container"}},"type":"Feature"},
	{"geometry":{"coordinates":[-59.104056,-34.562064],"type":"Point"},"properties":{"osm_id":"8914125987","tag":{"amenity":"recycling","description":"BARRIO PARQUE ESPERANZA. Punto verde de UsinaEco. Ubicado en el\u00c2\u00a0 estacionamiento del hipermercado Carrefour.Todos los d\u00c3\u00adas de 8:00 a 22:00 hs","opening_hours":"Mo-Su 08:00-22:00","operator":"Usina Eco","recycling:glass_bottles":"yes","recycling:paper":"yes","recycling:paper_packaging":"yes","recycling:plastic":"yes","recycling_type":"container"}},"type":"Feature"},
	{"geometry":{"coordinates":[-59.10151,-34.562218],"type":"Point"},"properties":{"osm_id":"8916543932","tag":{"amenity":"recycling","description":"Barrio El Mirador. Punto verde Municipal. Sociedad de Fomento.","operator":"Municipalidad de Luj\u00c3\u00a1n","recycling:cardboard":"yes","recycling:glass_bottles":"yes","recycling:paper":"yes","recycling:paper_packaging":"no","recycling:plastic":"yes","recycling:plastic_bottles":"yes","recycling:plastic_packaging":"yes","recycling_type":"container"}},"type":"Feature"}
]
}
