{
"type": "FeatureCollection",
"features": [
	{"geometry":{"coordinates":[-59.12483,-37.326353],"type":"Point"},"properties":{"name":"Punto Limpio (Centro)","osm_id":"6022109920","tag":{"amenity":"recycling","opening_hours":"Mo-Sa 07:00-15:00, Su 09:00-12:00","recycling_type":"centre"}},"type":"Feature"},
	{"geometry":{"coordinates":[-59.11365,-37.33566],"type":"Point"},"properties":{"osm_id":"6411697665","tag":{"amenity":"waste_disposal"}},"type":"Feature"},
	{"geometry":{"coordinates":[-59.113377,-37.335954],"type":"Point"},"properties":{"osm_id":"6411697666","tag":{"amenity":"waste_disposal"}},"type":"Feature"},
	{"geometry":{"coordinates":[-59.11336,-37.33573],"type":"Point"},"properties":{"osm_id":"6411697667","tag":{"amenity":"waste_disposal"}},"type":"Feature"},
	{"geometry":{"coordinates":[-59.113872,-37.336784],"type":"Point"},"properties":{"osm_id":"6411697668","tag":{"amenity":"waste_disposal"}},"type":"Feature"},
	{"geometry":{"coordinates":[-59.112835,-37.33744],"type":"Point"},"properties":{"osm_id":"6411697669","tag":{"amenity":"waste_disposal"}},"type":"Feature"},
	{"geometry":{"coordinates":[-59.114855,-37.338171],"type":"Point"},"properties":{"osm_id":"6411697670","tag":{"amenity":"waste_disposal"}},"type":"Feature"},
	{"geometry":{"coordinates":[-59.114375,-37.338599],"type":"Point"},"properties":{"osm_id":"6411697671","tag":{"amenity":"waste_disposal"}},"type":"Feature"},
	{"geometry":{"coordinates":[-59.114501,-37.338452],"type":"Point"},"properties":{"osm_id":"6411697672","tag":{"amenity":"waste_disposal"}},"type":"Feature"},
	{"geometry":{"coordinates":[-59.114666,-37.338318],"type":"Point"},"properties":{"osm_id":"6411697673","tag":{"amenity":"waste_disposal"}},"type":"Feature"},
	{"geometry":{"coordinates":[-59.120918,-37.341754],"type":"Point"},"properties":{"osm_id":"6426858989","tag":{"amenity":"waste_disposal"}},"type":"Feature"},
	{"geometry":{"coordinates":[-59.12118,-37.342213],"type":"Point"},"properties":{"osm_id":"6426858990","tag":{"amenity":"waste_disposal"}},"type":"Feature"},
	{"geometry":{"coordinates":[-59.120618,-37.342304],"type":"Point"},"properties":{"osm_id":"6426858991","tag":{"amenity":"waste_disposal"}},"type":"Feature"},
	{"geometry":{"coordinates":[-59.126345,-37.338006],"type":"Point"},"properties":{"osm_id":"6479070757","tag":{"amenity":"waste_basket"}},"type":"Feature"},
	{"geometry":{"coordinates":[-59.126523,-37.337736],"type":"Point"},"properties":{"osm_id":"6479076008","tag":{"amenity":"waste_basket"}},"type":"Feature"},
	{"geometry":{"coordinates":[-59.137776,-37.337704],"type":"Point"},"properties":{"osm_id":"6915461245","tag":{"amenity":"waste_disposal"}},"type":"Feature"},
	{"geometry":{"coordinates":[-59.1376,-37.337785],"type":"Point"},"properties":{"osm_id":"6917984733","tag":{"amenity":"waste_disposal"}},"type":"Feature"},
	{"geometry":{"coordinates":[-59.13739,-37.3374],"type":"Point"},"properties":{"osm_id":"6917984734","tag":{"amenity":"waste_disposal"}},"type":"Feature"},
	{"geometry":{"coordinates":[-59.136948,-37.336916],"type":"Point"},"properties":{"osm_id":"6917984735","tag":{"amenity":"waste_disposal"}},"type":"Feature"},
	{"geometry":{"coordinates":[-59.137158,-37.33686],"type":"Point"},"properties":{"osm_id":"6917984736","tag":{"amenity":"waste_disposal"}},"type":"Feature"},
	{"geometry":{"coordinates":[-59.136813,-37.336583],"type":"Point"},"properties":{"osm_id":"6917984737","tag":{"amenity":"waste_disposal"}},"type":"Feature"},
	{"geometry":{"coordinates":[-59.137012,-37.336528],"type":"Point"},"properties":{"osm_id":"6917984738","tag":{"amenity":"waste_disposal"}},"type":"Feature"},
	{"geometry":{"coordinates":[-59.136692,-37.336271],"type":"Point"},"properties":{"osm_id":"6917984739","tag":{"amenity":"waste_disposal"}},"type":"Feature"},
	{"geometry":{"coordinates":[-59.136564,-37.335966],"type":"Point"},"properties":{"osm_id":"6917984740","tag":{"amenity":"waste_disposal"}},"type":"Feature"},
	{"geometry":{"coordinates":[-59.132812,-37.342829],"type":"Point"},"properties":{"osm_id":"6917993218","tag":{"amenity":"waste_disposal"}},"type":"Feature"},
	{"geometry":{"coordinates":[-59.135984,-37.334551],"type":"Point"},"properties":{"osm_id":"6931028081","tag":{"amenity":"waste_disposal"}},"type":"Feature"},
	{"geometry":{"coordinates":[-59.135738,-37.33399],"type":"Point"},"properties":{"osm_id":"6931028082","tag":{"amenity":"waste_disposal"}},"type":"Feature"},
	{"geometry":{"coordinates":[-59.136279,-37.334763],"type":"Point"},"properties":{"osm_id":"6934866153","tag":{"amenity":"waste_disposal"}},"type":"Feature"},
	{"geometry":{"coordinates":[-59.135885,-37.333871],"type":"Point"},"properties":{"osm_id":"6934866154","tag":{"amenity":"waste_disposal"}},"type":"Feature"},
	{"geometry":{"coordinates":[-59.136133,-37.334443],"type":"Point"},"properties":{"osm_id":"6934866155","tag":{"amenity":"waste_disposal"}},"type":"Feature"},
	{"geometry":{"coordinates":[-59.133712,-37.343859],"type":"Point"},"properties":{"osm_id":"7011281358","tag":{"amenity":"waste_disposal"}},"type":"Feature"},
	{"geometry":{"coordinates":[-59.128384,-37.348534],"type":"Point"},"properties":{"osm_id":"7011284192","tag":{"amenity":"waste_disposal"}},"type":"Feature"},
	{"geometry":{"coordinates":[-59.128167,-37.348547],"type":"Point"},"properties":{"osm_id":"7011284193","tag":{"amenity":"waste_disposal"}},"type":"Feature"},
	{"geometry":{"coordinates":[-59.127695,-37.348598],"type":"Point"},"properties":{"osm_id":"7011284194","tag":{"amenity":"waste_disposal"}},"type":"Feature"},
	{"geometry":{"coordinates":[-59.127927,-37.348575],"type":"Point"},"properties":{"osm_id":"7011284195","tag":{"amenity":"waste_disposal"}},"type":"Feature"},
	{"geometry":{"coordinates":[-59.127629,-37.348604],"type":"Point"},"properties":{"osm_id":"7011284196","tag":{"amenity":"waste_disposal"}},"type":"Feature"},
	{"geometry":{"coordinates":[-59.1271,-37.348599],"type":"Point"},"properties":{"osm_id":"7011284197","tag":{"amenity":"waste_disposal"}},"type":"Feature"},
	{"geometry":{"coordinates":[-59.127224,-37.347988],"type":"Point"},"properties":{"osm_id":"7011284198","tag":{"amenity":"waste_disposal"}},"type":"Feature"},
	{"geometry":{"coordinates":[-59.12725,-37.34778],"type":"Point"},"properties":{"osm_id":"7011284199","tag":{"amenity":"waste_disposal"}},"type":"Feature"},
	{"geometry":{"coordinates":[-59.127253,-37.347565],"type":"Point"},"properties":{"osm_id":"7011284200","tag":{"amenity":"waste_disposal"}},"type":"Feature"},
	{"geometry":{"coordinates":[-59.126769,-37.346159],"type":"Point"},"properties":{"osm_id":"7011284201","tag":{"amenity":"waste_disposal"}},"type":"Feature"},
	{"geometry":{"coordinates":[-59.127448,-37.345277],"type":"Point"},"properties":{"osm_id":"7011284203","tag":{"amenity":"waste_disposal"}},"type":"Feature"},
	{"geometry":{"coordinates":[-59.131429,-37.348286],"type":"Point"},"properties":{"osm_id":"7031759288","tag":{"amenity":"waste_disposal"}},"type":"Feature"}
]
}
