{
"type": "FeatureCollection",
"features": [
	{"geometry":{"coordinates":[30.026548,59.850106],"type":"Point"},"properties":{"osm_id":"2925252462","tag":{"amenity":"waste_disposal"}},"type":"Feature"},
	{"geometry":{"coordinates":[30.022886,59.850992],"type":"Point"},"properties":{"osm_id":"2925252497","tag":{"amenity":"waste_disposal"}},"type":"Feature"},
	{"geometry":{"coordinates":[30.035926,59.851631],"type":"Point"},"properties":{"osm_id":"2925252514","tag":{"amenity":"waste_disposal"}},"type":"Feature"},
	{"geometry":{"coordinates":[30.03313,59.851866],"type":"Point"},"properties":{"osm_id":"2925252515","tag":{"amenity":"waste_disposal"}},"type":"Feature"},
	{"geometry":{"coordinates":[30.025988,59.853044],"type":"Point"},"properties":{"osm_id":"2925252527","tag":{"amenity":"waste_disposal"}},"type":"Feature"},
	{"geometry":{"coordinates":[30.020743,59.853779],"type":"Point"},"properties":{"osm_id":"2925252542","tag":{"amenity":"waste_disposal"}},"type":"Feature"},
	{"geometry":{"coordinates":[30.00323,59.857861],"type":"Point"},"properties":{"name":"\u00d0\u00ad\u00d0\u00ba\u00d0\u00be\u00d0\u00b1\u00d0\u00be\u00d0\u00ba\u00d1\u0081","osm_id":"2930071108","tag":{"amenity":"recycling","recycling:batteries":"yes","recycling:fluorescent_tubes":"yes","recycling:hazardous_waste":"yes","recycling:hydrargyrum":"yes","recycling:low_energy_bulbs":"yes","recycling_type":"container"}},"type":"Feature"},
	{"geometry":{"coordinates":[30.032237,59.847709],"type":"Point"},"properties":{"osm_id":"3231263057","tag":{"amenity":"waste_basket"}},"type":"Feature"},
	{"geometry":{"coordinates":[29.971488,59.869302],"type":"Point"},"properties":{"name":"\u00d0\u00ad\u00d0\u00ba\u00d0\u00be\u00d1\u0082\u00d0\u00b5\u00d1\u0080\u00d0\u00bc\u00d0\u00b8\u00d0\u00bd\u00d0\u00b0\u00d0\u00bb","osm_id":"5421158491","tag":{"amenity":"recycling","recycling:batteries":"yes","recycling:fluorescent_tubes":"yes","recycling:mercury_thermometers":"yes","recycling_type":"container","website":"http://www.infoeco.ru"}},"type":"Feature"},
	{"geometry":{"coordinates":[30.03173,59.848638],"type":"Point"},"properties":{"osm_id":"7865349436","tag":{"amenity":"waste_disposal"}},"type":"Feature"}
]
}
