{
"type": "FeatureCollection",
"features": [
	{"geometry":{"coordinates":[30.038201,52.909261],"type":"Point"},"properties":{"osm_id":"4339612996","tag":{"amenity":"waste_disposal","operator":"\u0412\u041c\u0420"}},"type":"Feature"},
	{"geometry":{"coordinates":[30.041863,52.909366],"type":"Point"},"properties":{"osm_id":"4339612997","tag":{"amenity":"waste_disposal","operator":"\u0412\u041c\u0420"}},"type":"Feature"},
	{"geometry":{"coordinates":[30.035527,52.909676],"type":"Point"},"properties":{"osm_id":"4339612999","tag":{"amenity":"waste_disposal","operator":"\u0422\u0411\u041e \u043c\u0430\u0433. \"\u041a\u0430\u043bi-\u041b\u0430\u0441\u043a\u0430\""}},"type":"Feature"},
	{"geometry":{"coordinates":[30.036122,52.909122],"type":"Point"},"properties":{"osm_id":"4339613013","tag":{"amenity":"waste_disposal","operator":"\u0422\u0411\u041e   \"\u0414/\u0421 \u211633\""}},"type":"Feature"},
	{"geometry":{"coordinates":[30.043863,52.910137],"type":"Point"},"properties":{"osm_id":"4339641497","tag":{"amenity":"waste_disposal","operator":"\u0422\u041a\u041e"}},"type":"Feature"},
	{"geometry":{"coordinates":[30.037587,52.910654],"type":"Point"},"properties":{"osm_id":"4339641498","tag":{"amenity":"waste_disposal","operator":"\u0412\u041c\u0420"}},"type":"Feature"},
	{"geometry":{"coordinates":[30.03804,52.912645],"type":"Point"},"properties":{"osm_id":"4339648393","tag":{"amenity":"waste_disposal","operator":"\u0422\u041a\u041e"}},"type":"Feature"},
	{"geometry":{"coordinates":[30.034969,52.912038],"type":"Point"},"properties":{"osm_id":"4339648598","tag":{"amenity":"waste_disposal","operator":"\u0412\u041c\u0420"}},"type":"Feature"},
	{"geometry":{"coordinates":[30.043012,52.910142],"type":"Point"},"properties":{"osm_id":"4339658393","tag":{"amenity":"waste_disposal","operator":"\u0412\u041c\u0420"}},"type":"Feature"},
	{"geometry":{"coordinates":[30.039493,52.909342],"type":"Point"},"properties":{"osm_id":"4339658394","tag":{"amenity":"waste_disposal","operator":"\u0412\u041c\u0420"}},"type":"Feature"},
	{"geometry":{"coordinates":[30.041267,52.911451],"type":"Point"},"properties":{"osm_id":"4339658395","tag":{"amenity":"waste_disposal","operator":"\u0412\u041c\u0420"}},"type":"Feature"},
	{"geometry":{"coordinates":[30.038175,52.909243],"type":"Point"},"properties":{"osm_id":"4339658396","tag":{"amenity":"waste_disposal","operator":"\u0422\u041a\u041e"}},"type":"Feature"},
	{"geometry":{"coordinates":[30.038232,52.911093],"type":"Point"},"properties":{"osm_id":"4339665496","tag":{"amenity":"waste_disposal","operator":"\u0412\u041c\u0420"}},"type":"Feature"},
	{"geometry":{"coordinates":[30.034965,52.909199],"type":"Point"},"properties":{"osm_id":"4339665498","tag":{"amenity":"waste_disposal","operator":"\u0422\u041a\u041e"}},"type":"Feature"},
	{"geometry":{"coordinates":[30.051474,52.909238],"type":"Point"},"properties":{"osm_id":"4339674597","tag":{"amenity":"waste_disposal","operator":"\u0412\u041c\u0420 \"\u0426\u041e\u0420\""}},"type":"Feature"},
	{"geometry":{"coordinates":[30.038005,52.912664],"type":"Point"},"properties":{"osm_id":"4339674692","tag":{"amenity":"waste_disposal","operator":"\u0412\u041c\u0420"}},"type":"Feature"},
	{"geometry":{"coordinates":[30.037672,52.91314],"type":"Point"},"properties":{"osm_id":"4339674693","tag":{"amenity":"waste_disposal","operator":"\u0422\u0411\u041e   \"\u041f\u0430\u0440\u0444\u044e\u043c \u0422\u0440\u0435\u0439\u0434\""}},"type":"Feature"},
	{"geometry":{"coordinates":[30.028721,52.918761],"type":"Point"},"properties":{"osm_id":"4339674694","tag":{"amenity":"waste_disposal","operator":"\u0422\u041a\u041e"}},"type":"Feature"},
	{"geometry":{"coordinates":[30.051532,52.909213],"type":"Point"},"properties":{"osm_id":"4339674697","tag":{"amenity":"waste_disposal","operator":"\u0422\u0411\u041e \"\u0426\u041e\u0420\""}},"type":"Feature"},
	{"geometry":{"coordinates":[30.026947,52.919265],"type":"Point"},"properties":{"osm_id":"4339675390","tag":{"amenity":"waste_disposal","operator":"\u0412\u041c\u0420"}},"type":"Feature"},
	{"geometry":{"coordinates":[30.037279,52.912399],"type":"Point"},"properties":{"osm_id":"4339675792","tag":{"amenity":"waste_disposal","operator":"\u0422\u041a\u041e"}},"type":"Feature"},
	{"geometry":{"coordinates":[30.029334,52.91746],"type":"Point"},"properties":{"osm_id":"4339675990","tag":{"amenity":"waste_disposal","operator":"\u0422\u041a\u041e"}},"type":"Feature"},
	{"geometry":{"coordinates":[30.051035,52.909476],"type":"Point"},"properties":{"osm_id":"4339675994","tag":{"amenity":"waste_disposal","operator":"\u0422\u0411\u041e \"\u0426\u041e\u0420\""}},"type":"Feature"},
	{"geometry":{"coordinates":[30.029269,52.917478],"type":"Point"},"properties":{"osm_id":"4339677995","tag":{"amenity":"waste_disposal","operator":"\u0412\u041c\u0420"}},"type":"Feature"},
	{"geometry":{"coordinates":[30.038906,52.9116],"type":"Point"},"properties":{"osm_id":"4339678093","tag":{"amenity":"waste_disposal","operator":"\u0412\u041c\u0420"}},"type":"Feature"},
	{"geometry":{"coordinates":[30.037717,52.909878],"type":"Point"},"properties":{"osm_id":"4339678094","tag":{"amenity":"waste_disposal","operator":"\u0412\u041c\u0420"}},"type":"Feature"},
	{"geometry":{"coordinates":[30.034928,52.909172],"type":"Point"},"properties":{"osm_id":"4339681590","tag":{"amenity":"waste_disposal","operator":"\u0412\u041c\u0420"}},"type":"Feature"},
	{"geometry":{"coordinates":[30.029193,52.917501],"type":"Point"},"properties":{"osm_id":"4339684490","tag":{"amenity":"waste_disposal","operator":"\u0422\u041a\u041e"}},"type":"Feature"},
	{"geometry":{"coordinates":[30.038227,52.909277],"type":"Point"},"properties":{"osm_id":"4339685490","tag":{"amenity":"waste_disposal","operator":"\u0422\u041a\u041e"}},"type":"Feature"},
	{"geometry":{"coordinates":[30.034741,52.915208],"type":"Point"},"properties":{"osm_id":"4339694789","tag":{"amenity":"waste_disposal","operator":"\u0412\u041c\u0420"}},"type":"Feature"},
	{"geometry":{"coordinates":[30.042736,52.911836],"type":"Point"},"properties":{"osm_id":"6219762196","tag":{"amenity":"waste_disposal"}},"type":"Feature"},
	{"geometry":{"coordinates":[30.035772,52.914776],"type":"Point"},"properties":{"osm_id":"6219800724","tag":{"amenity":"waste_disposal"}},"type":"Feature"},
	{"geometry":{"coordinates":[30.035798,52.914767],"type":"Point"},"properties":{"osm_id":"6219800725","tag":{"amenity":"waste_disposal"}},"type":"Feature"},
	{"geometry":{"coordinates":[30.029064,52.916889],"type":"Point"},"properties":{"osm_id":"6227425133","tag":{"amenity":"waste_disposal"}},"type":"Feature"},
	{"geometry":{"coordinates":[30.029105,52.916874],"type":"Point"},"properties":{"osm_id":"6227425134","tag":{"amenity":"waste_disposal"}},"type":"Feature"},
	{"geometry":{"coordinates":[30.037859,52.913164],"type":"Point"},"properties":{"osm_id":"6228912747","tag":{"amenity":"waste_disposal"}},"type":"Feature"},
	{"geometry":{"coordinates":[30.034342,52.91279],"type":"Point"},"properties":{"osm_id":"6236158032","tag":{"amenity":"waste_disposal","operator":"\u0412\u041c\u0420"}},"type":"Feature"}
]
}
