{
"type": "FeatureCollection",
"features": [
	{"geometry":{"coordinates":[8.982836,53.928639],"type":"Point"},"properties":{"osm_id":"1742557215","tag":{"amenity":"recycling","operator":"Abfallwirtschaft Dithmarschen","recycling:glass_bottles":"yes","recycling_type":"container"}},"type":"Feature"},
	{"geometry":{"coordinates":[8.999755,53.954877],"type":"Point"},"properties":{"osm_id":"1742557250","tag":{"amenity":"recycling","operator":"Abfallwirtschaft Dithmarschen","recycling:glass_bottles":"yes","recycling_type":"container"}},"type":"Feature"},
	{"geometry":{"coordinates":[9.039458,53.925349],"type":"Point"},"properties":{"osm_id":"1871396301","tag":{"amenity":"recycling","operator":"Abfallwirtschaft Dithmarschen","recycling:glass_bottles":"yes","recycling_type":"container"}},"type":"Feature"},
	{"geometry":{"coordinates":[9.026273,53.91103],"type":"Point"},"properties":{"osm_id":"1875587653","tag":{"amenity":"recycling","operator":"Abfallwirtschaft Dithmarschen","recycling:glass_bottles":"yes","recycling_type":"container"}},"type":"Feature"},
	{"geometry":{"coordinates":[9.010757,53.951002],"type":"Point"},"properties":{"osm_id":"2311190356","tag":{"amenity":"recycling","operator":"Abfallwirtschaft Dithmarschen","recycling:glass_bottles":"yes","recycling_type":"container"}},"type":"Feature"},
	{"geometry":{"coordinates":[9.026954,53.936128],"type":"Point"},"properties":{"osm_id":"2489159512","tag":{"amenity":"recycling","operator":"Abfallwirtschaft Dithmarschen","recycling:glass_bottles":"yes","recycling_type":"container"}},"type":"Feature"},
	{"geometry":{"coordinates":[9.019551,53.955105],"type":"Point"},"properties":{"name":"Recyclinghof Marne","osm_id":"2490912885","tag":{"amenity":"recycling","opening_hours":"Mo 13:00-17:00; Sa 08:00-12:00; Apr-Oct: We 15:00-19:00; PH off","recycling_type":"centre","website":"https://www.awd-online.de/privatkunden/recyclinghoefe/marne/"}},"type":"Feature"},
	{"geometry":{"coordinates":[9.002534,53.94863],"type":"Point"},"properties":{"osm_id":"2686418089","tag":{"amenity":"recycling","operator":"Abfallwirtschaft Dithmarschen","recycling:glass_bottles":"yes","recycling_type":"container"}},"type":"Feature"},
	{"geometry":{"coordinates":[8.98153,53.949443],"type":"Point"},"properties":{"osm_id":"2696265512","tag":{"amenity":"recycling","operator":"Abfallwirtschaft Dithmarschen","recycling:glass_bottles":"yes","recycling_type":"container"}},"type":"Feature"},
	{"geometry":{"coordinates":[9.011899,53.947308],"type":"Point"},"properties":{"osm_id":"2714387110","tag":{"amenity":"recycling","operator":"Abfallwirtschaft Dithmarschen","recycling:glass_bottles":"yes","recycling_type":"container"}},"type":"Feature"},
	{"geometry":{"coordinates":[9.026975,53.93611],"type":"Point"},"properties":{"osm_id":"3530581761","tag":{"amenity":"recycling","operator":"hoelp","recycling:clothes":"yes","recycling_type":"container","website":"https://hoelp.de/"}},"type":"Feature"},
	{"geometry":{"coordinates":[9.002546,53.948616],"type":"Point"},"properties":{"osm_id":"3530581762","tag":{"amenity":"recycling","operator":"hoelp","recycling:clothes":"yes","recycling_type":"container","website":"https://hoelp.de/"}},"type":"Feature"},
	{"geometry":{"coordinates":[8.999757,53.954855],"type":"Point"},"properties":{"osm_id":"3530581763","tag":{"amenity":"recycling","operator":"hoelp","recycling:clothes":"yes","recycling_type":"container","website":"https://hoelp.de/"}},"type":"Feature"},
	{"geometry":{"coordinates":[9.026314,53.911049],"type":"Point"},"properties":{"osm_id":"3532349936","tag":{"amenity":"recycling","operator":"East-West Textilrecycling Kursun","recycling:clothes":"yes","recycling_type":"container"}},"type":"Feature"},
	{"geometry":{"coordinates":[9.002575,53.948591],"type":"Point"},"properties":{"osm_id":"3532349938","tag":{"amenity":"recycling","operator":"Textil-Recycling Nord","recycling:clothes":"yes","recycling_type":"container"}},"type":"Feature"},
	{"geometry":{"coordinates":[9.002564,53.948602],"type":"Point"},"properties":{"osm_id":"3532349939","tag":{"amenity":"recycling","operator":"Deutsches Rotes Kreuz","recycling:clothes":"yes","recycling_type":"container"}},"type":"Feature"},
	{"geometry":{"coordinates":[9.010691,53.950968],"type":"Point"},"properties":{"osm_id":"3532349940","tag":{"amenity":"recycling","operator":"AHG alpha Handelskontor","recycling:clothes":"yes","recycling_type":"container"}},"type":"Feature"},
	{"geometry":{"coordinates":[9.002585,53.948583],"type":"Point"},"properties":{"osm_id":"3691585593","tag":{"amenity":"recycling","operator":"AHG alpha Handelskontor","recycling:clothes":"yes","recycling_type":"container"}},"type":"Feature"},
	{"geometry":{"coordinates":[9.023449,53.952645],"type":"Point"},"properties":{"osm_id":"3691585852","tag":{"amenity":"recycling","operator":"Abfallwirtschaft Dithmarschen","recycling:glass_bottles":"yes","recycling_type":"container"}},"type":"Feature"},
	{"geometry":{"coordinates":[9.023492,53.952644],"type":"Point"},"properties":{"osm_id":"3691810408","tag":{"amenity":"recycling","operator":"hoelp","recycling:clothes":"yes","recycling_type":"container","website":"https://hoelp.de/"}},"type":"Feature"},
	{"geometry":{"coordinates":[9.039419,53.925326],"type":"Point"},"properties":{"osm_id":"3700609018","tag":{"amenity":"recycling","operator":"AHG alpha Handelskontor","recycling:clothes":"yes","recycling_type":"container"}},"type":"Feature"},
	{"geometry":{"coordinates":[9.012779,53.953153],"type":"Point"},"properties":{"osm_id":"3700609021","tag":{"amenity":"recycling","operator":"hoelp","recycling:clothes":"yes","recycling_type":"container","website":"https://hoelp.de/"}},"type":"Feature"},
	{"geometry":{"coordinates":[9.015325,53.956059],"type":"Point"},"properties":{"osm_id":"3700609022","tag":{"amenity":"recycling","operator":"Textil-Recycling Nord","recycling:clothes":"yes","recycling_type":"container"}},"type":"Feature"},
	{"geometry":{"coordinates":[9.015329,53.956075],"type":"Point"},"properties":{"osm_id":"3700609023","tag":{"amenity":"recycling","operator":"AHG alpha Handelskontor","recycling:clothes":"yes","recycling_type":"container"}},"type":"Feature"},
	{"geometry":{"coordinates":[9.039492,53.925365],"type":"Point"},"properties":{"osm_id":"4883587446","tag":{"amenity":"recycling","operator":"East-West Textilrecycling Kursun","recycling:clothes":"yes","recycling_type":"container","website":"http://www.ewtk.com/"}},"type":"Feature"},
	{"geometry":{"coordinates":[9.007735,53.951733],"type":"Point"},"properties":{"osm_id":"5426480829","tag":{"amenity":"recycling","operator":"Aktex Rohstoff-Recycling Nord","recycling:clothes":"yes","recycling_type":"container","website":"http://www.aktex-textilhandel.de"}},"type":"Feature"}
]
}
