{
"type": "FeatureCollection",
"features": [
	{"geometry":{"coordinates":[9.031457,53.031916],"type":"Point"},"properties":{"osm_id":"175675150","tag":{"amenity":"recycling","recycling_type":"container"}},"type":"Feature"},
	{"geometry":{"coordinates":[9.011947,53.057383],"type":"Point"},"properties":{"osm_id":"1036062350","tag":{"amenity":"recycling","recycling:clothes":"yes","recycling:glass_bottles":"yes","recycling:shoes":"yes","recycling_type":"container"}},"type":"Feature"},
	{"geometry":{"coordinates":[9.019499,53.059787],"type":"Point"},"properties":{"osm_id":"1036062357","tag":{"amenity":"recycling","recycling:clothes":"yes","recycling:glass":"yes","recycling:paper":"yes"}},"type":"Feature"},
	{"geometry":{"coordinates":[9.02928,53.031949],"type":"Point"},"properties":{"osm_id":"1840322069","tag":{"amenity":"recycling","recycling:clothes":"yes","recycling:glass":"yes"}},"type":"Feature"},
	{"geometry":{"coordinates":[8.969595,53.022293],"type":"Point"},"properties":{"osm_id":"2532958327","tag":{"amenity":"recycling","recycling:glass":"yes","recycling_type":"container"}},"type":"Feature"},
	{"geometry":{"coordinates":[9.014652,53.067285],"type":"Point"},"properties":{"osm_id":"3253621272","tag":{"amenity":"waste_basket","layer":"1","source:name":"tweety3d"}},"type":"Feature"},
	{"geometry":{"coordinates":[9.016628,53.015789],"type":"Point"},"properties":{"osm_id":"3502640644","tag":{"amenity":"recycling","recycling:clothes":"yes","recycling:glass_bottles":"yes","recycling_type":"container"}},"type":"Feature"},
	{"geometry":{"coordinates":[9.043904,53.020284],"type":"Point"},"properties":{"osm_id":"3779575187","tag":{"amenity":"recycling","recycling:clothes":"yes","recycling:glass_bottles":"yes","recycling_type":"container"}},"type":"Feature"},
	{"geometry":{"coordinates":[9.030377,53.015901],"type":"Point"},"properties":{"osm_id":"6469883458","tag":{"amenity":"waste_basket"}},"type":"Feature"},
	{"geometry":{"coordinates":[9.031182,53.024688],"type":"Point"},"properties":{"osm_id":"7415325224","tag":{"amenity":"recycling","brand":"Deutsches Rotes Kreuz","operator":"Deutsches Rotes Kreuz Kreisverband Verden e.V.","recycling:clothes":"yes","recycling:shoes":"yes","recycling_type":"container"}},"type":"Feature"}
]
}
