{
"type": "FeatureCollection",
"features": [
	{"geometry":{"coordinates":[9.020541,52.959197],"type":"Point"},"properties":{"osm_id":"323858843","tag":{"amenity":"recycling","recycling_type":"container"}},"type":"Feature"},
	{"geometry":{"coordinates":[9.028084,52.961449],"type":"Point"},"properties":{"osm_id":"991913802","tag":{"amenity":"waste_basket"}},"type":"Feature"},
	{"geometry":{"coordinates":[8.989807,52.939561],"type":"Point"},"properties":{"osm_id":"1149041398","tag":{"amenity":"waste_basket"}},"type":"Feature"},
	{"geometry":{"coordinates":[8.989058,52.939469],"type":"Point"},"properties":{"osm_id":"1149041422","tag":{"amenity":"waste_basket"}},"type":"Feature"},
	{"geometry":{"coordinates":[8.965155,52.932432],"type":"Point"},"properties":{"osm_id":"1413599666","tag":{"amenity":"waste_basket"}},"type":"Feature"},
	{"geometry":{"coordinates":[8.984365,52.937644],"type":"Point"},"properties":{"osm_id":"1413599674","tag":{"amenity":"waste_basket"}},"type":"Feature"},
	{"geometry":{"coordinates":[8.984267,52.937749],"type":"Point"},"properties":{"osm_id":"1413599681","tag":{"amenity":"waste_basket"}},"type":"Feature"},
	{"geometry":{"coordinates":[9.028119,52.941905],"type":"Point"},"properties":{"name":"Abfallhof Beppen","osm_id":"3471398769","tag":{"addr:city":"Thedinghausen","addr:country":"DE","addr:housenumber":"5","addr:postcode":"27321","addr:street":"Beppener Bruchweg","addr:suburb":"Beppen","alt_name":"Abfalldeponie;M\u00c3\u00bclldeponie;Abfallhof","amenity":"recycling","opening_hours":"Mo-Fr 08:00-12:00,13:00-17:00; Sa 08:00-12:00","operator":"Gemeinde Thedinghausen","recycling_type":"centre","website":"https://www.landkreis-verden.de/portal/seiten/abfallhoefe-901000185-20600.html"}},"type":"Feature"},
	{"geometry":{"coordinates":[9.031596,52.960584],"type":"Point"},"properties":{"osm_id":"3918561474","tag":{"amenity":"waste_basket"}},"type":"Feature"},
	{"geometry":{"coordinates":[9.032041,52.961158],"type":"Point"},"properties":{"osm_id":"3918561491","tag":{"amenity":"waste_basket"}},"type":"Feature"},
	{"geometry":{"coordinates":[9.020101,52.960673],"type":"Point"},"properties":{"osm_id":"4345840034","tag":{"amenity":"waste_basket"}},"type":"Feature"},
	{"geometry":{"coordinates":[9.020245,52.960898],"type":"Point"},"properties":{"osm_id":"4345840038","tag":{"amenity":"waste_basket"}},"type":"Feature"},
	{"geometry":{"coordinates":[9.02385,52.960522],"type":"Point"},"properties":{"osm_id":"4345840045","tag":{"amenity":"waste_basket"}},"type":"Feature"}
]
}
