{
"type": "FeatureCollection",
"features": [
	{"geometry":{"coordinates":[9.0384,52.385052],"type":"Point"},"properties":{"osm_id":"739534293","tag":{"amenity":"recycling","location":"overground","recycling:glass":"yes","recycling_type":"container"}},"type":"Feature"},
	{"geometry":{"coordinates":[8.996925,52.39619],"type":"Point"},"properties":{"osm_id":"739534608","tag":{"amenity":"recycling","location":"overground","recycling:glass":"yes","recycling_type":"container"}},"type":"Feature"},
	{"geometry":{"coordinates":[8.970925,52.379406],"type":"Point"},"properties":{"osm_id":"1260902851","tag":{"amenity":"recycling","recycling_type":"container"}},"type":"Feature"},
	{"geometry":{"coordinates":[9.028292,52.385654],"type":"Point"},"properties":{"osm_id":"1557129981","tag":{"amenity":"recycling","recycling:glass":"yes","recycling_type":"container"}},"type":"Feature"},
	{"geometry":{"coordinates":[8.994407,52.427793],"type":"Point"},"properties":{"osm_id":"1557137416","tag":{"amenity":"recycling","recycling:glass":"yes","recycling_type":"container"}},"type":"Feature"},
	{"geometry":{"coordinates":[9.048105,52.405314],"type":"Point"},"properties":{"osm_id":"1557139312","tag":{"amenity":"recycling","recycling:glass":"yes","recycling_type":"container"}},"type":"Feature"},
	{"geometry":{"coordinates":[8.964871,52.380975],"type":"Point"},"properties":{"osm_id":"1562568587","tag":{"amenity":"recycling","recycling:glass":"yes","recycling_type":"container"}},"type":"Feature"},
	{"geometry":{"coordinates":[9.011041,52.415759],"type":"Point"},"properties":{"osm_id":"1562568601","tag":{"amenity":"recycling","recycling:glass":"yes","recycling_type":"container"}},"type":"Feature"},
	{"geometry":{"coordinates":[8.968452,52.420054],"type":"Point"},"properties":{"osm_id":"1562568619","tag":{"amenity":"recycling","recycling:glass":"yes","recycling_type":"container"}},"type":"Feature"},
	{"geometry":{"coordinates":[9.006692,52.38551],"type":"Point"},"properties":{"name":"Recycling-Platz Meyer B\u00c3\u00bcchenberg","osm_id":"1856298595","tag":{"addr:street":"Dingbreite","amenity":"recycling","opening_hours":"Fr 09:00-16:00; Sa 09:00-13:00","recycling_type":"centre"}},"type":"Feature"}
]
}
