{
"type": "FeatureCollection",
"features": [
	{"geometry":{"coordinates":[9.007901,52.172978],"type":"Point"},"properties":{"osm_id":"4095824563","tag":{"amenity":"waste_basket"}},"type":"Feature"},
	{"geometry":{"coordinates":[9.007896,52.17302],"type":"Point"},"properties":{"osm_id":"4095824564","tag":{"amenity":"recycling","operator":"T\u00c3\u00b6nsmeier","recycling:glass_bottles":"yes","recycling_type":"container"}},"type":"Feature"},
	{"geometry":{"coordinates":[9.007902,52.173062],"type":"Point"},"properties":{"osm_id":"4095824568","tag":{"amenity":"recycling","operator":"Deutsches Rotes Kreuz","recycling:clothes":"yes","recycling:shoes":"yes","recycling_type":"container"}},"type":"Feature"},
	{"geometry":{"coordinates":[8.972323,52.188467],"type":"Point"},"properties":{"osm_id":"4407181186","tag":{"amenity":"waste_basket"}},"type":"Feature"},
	{"geometry":{"coordinates":[9.003988,52.167401],"type":"Point"},"properties":{"osm_id":"4471945210","tag":{"amenity":"waste_basket"}},"type":"Feature"},
	{"geometry":{"coordinates":[9.005908,52.168538],"type":"Point"},"properties":{"osm_id":"4471945215","tag":{"amenity":"waste_basket"}},"type":"Feature"},
	{"geometry":{"coordinates":[9.002052,52.165839],"type":"Point"},"properties":{"osm_id":"4591354978","tag":{"amenity":"waste_basket"}},"type":"Feature"},
	{"geometry":{"coordinates":[8.991801,52.1721],"type":"Point"},"properties":{"osm_id":"4764938919","tag":{"amenity":"recycling","recycling:glass_bottles":"yes","recycling_type":"container"}},"type":"Feature"},
	{"geometry":{"coordinates":[8.97657,52.182757],"type":"Point"},"properties":{"osm_id":"5076105198","tag":{"amenity":"waste_basket"}},"type":"Feature"},
	{"geometry":{"coordinates":[9.049588,52.187671],"type":"Point"},"properties":{"osm_id":"5200299824","tag":{"amenity":"recycling","recycling:clothes":"yes","recycling_type":"container"}},"type":"Feature"},
	{"geometry":{"coordinates":[8.99887,52.198554],"type":"Point"},"properties":{"osm_id":"5492252759","tag":{"amenity":"recycling","recycling:clothes":"yes","recycling:glass_bottles":"yes","recycling:shoes":"yes","recycling_type":"container"}},"type":"Feature"},
	{"geometry":{"coordinates":[8.974889,52.187897],"type":"Point"},"properties":{"osm_id":"5492252763","tag":{"amenity":"recycling","opening_hours":"Mo-Sa 08:00-13:00,15:00-19:00; PH off","operator":"T\u00c3\u00b6nsmeier","phone":"+49 800 8866666","recycling:glass_bottles":"yes","recycling_type":"container"}},"type":"Feature"},
	{"geometry":{"coordinates":[8.993814,52.181188],"type":"Point"},"properties":{"osm_id":"5571467698","tag":{"amenity":"waste_basket"}},"type":"Feature"},
	{"geometry":{"coordinates":[9.02111,52.200039],"type":"Point"},"properties":{"osm_id":"5810726566","tag":{"amenity":"recycling","recycling:glass_bottles":"yes","recycling_type":"container"}},"type":"Feature"},
	{"geometry":{"coordinates":[9.032107,52.210128],"type":"Point"},"properties":{"osm_id":"6421746459","tag":{"amenity":"waste_basket"}},"type":"Feature"}
]
}
