{
"type": "FeatureCollection",
"features": [
	{"geometry":{"coordinates":[9.001072,51.369988],"type":"Point"},"properties":{"osm_id":"516072275","tag":{"amenity":"recycling","recycling:glass":"yes"}},"type":"Feature"},
	{"geometry":{"coordinates":[8.993244,51.36755],"type":"Point"},"properties":{"osm_id":"671322118","tag":{"amenity":"recycling","recycling:glass":"yes"}},"type":"Feature"},
	{"geometry":{"coordinates":[9.012189,51.3789],"type":"Point"},"properties":{"osm_id":"937516208","tag":{"amenity":"recycling","operator:clothes":"FWS GmbH","recycling:clothes":"yes","recycling:glass":"yes","recycling_type":"container"}},"type":"Feature"},
	{"geometry":{"coordinates":[9.010941,51.382002],"type":"Point"},"properties":{"osm_id":"937517763","tag":{"amenity":"recycling","operator":"Aks\u00c3\u00b6z TextilienGmbH","recycling:clothes":"yes","recycling:shoes":"yes","recycling_type":"container","website":"http://www.aksoez-textilien.de"}},"type":"Feature"},
	{"geometry":{"coordinates":[9.009284,51.389992],"type":"Point"},"properties":{"osm_id":"1926912802","tag":{"amenity":"waste_basket"}},"type":"Feature"},
	{"geometry":{"coordinates":[9.009311,51.390007],"type":"Point"},"properties":{"osm_id":"1926912811","tag":{"amenity":"recycling","recycling:green_waste":"yes"}},"type":"Feature"},
	{"geometry":{"coordinates":[9.009675,51.390496],"type":"Point"},"properties":{"osm_id":"1926912847","tag":{"amenity":"waste_basket"}},"type":"Feature"},
	{"geometry":{"coordinates":[9.009702,51.390505],"type":"Point"},"properties":{"osm_id":"1926912853","tag":{"amenity":"recycling","recycling:green_waste":"yes"}},"type":"Feature"},
	{"geometry":{"coordinates":[9.009988,51.390709],"type":"Point"},"properties":{"osm_id":"1926912861","tag":{"amenity":"waste_basket"}},"type":"Feature"},
	{"geometry":{"coordinates":[9.010011,51.390722],"type":"Point"},"properties":{"osm_id":"1926912867","tag":{"amenity":"recycling","recycling:green_waste":"yes"}},"type":"Feature"},
	{"geometry":{"coordinates":[9.015393,51.371662],"type":"Point"},"properties":{"osm_id":"1927400682","tag":{"amenity":"recycling","recycling:green_waste":"yes"}},"type":"Feature"},
	{"geometry":{"coordinates":[9.015358,51.371664],"type":"Point"},"properties":{"osm_id":"1927400688","tag":{"amenity":"waste_basket"}},"type":"Feature"},
	{"geometry":{"coordinates":[9.014766,51.371862],"type":"Point"},"properties":{"osm_id":"1927400762","tag":{"amenity":"recycling","recycling:green_waste":"yes"}},"type":"Feature"},
	{"geometry":{"coordinates":[9.01473,51.371864],"type":"Point"},"properties":{"osm_id":"1927400769","tag":{"amenity":"waste_basket"}},"type":"Feature"},
	{"geometry":{"coordinates":[9.016789,51.37211],"type":"Point"},"properties":{"osm_id":"1927400833","tag":{"amenity":"waste_basket"}},"type":"Feature"},
	{"geometry":{"coordinates":[9.016787,51.372099],"type":"Point"},"properties":{"osm_id":"1927400841","tag":{"amenity":"recycling","recycling:green_waste":"yes"}},"type":"Feature"},
	{"geometry":{"coordinates":[9.016134,51.372132],"type":"Point"},"properties":{"osm_id":"1927400881","tag":{"amenity":"recycling","recycling:green_waste":"yes"}},"type":"Feature"},
	{"geometry":{"coordinates":[9.016099,51.372134],"type":"Point"},"properties":{"osm_id":"1927400885","tag":{"amenity":"waste_basket"}},"type":"Feature"},
	{"geometry":{"coordinates":[9.015469,51.372136],"type":"Point"},"properties":{"osm_id":"1927400887","tag":{"amenity":"waste_basket"}},"type":"Feature"},
	{"geometry":{"coordinates":[9.015474,51.372156],"type":"Point"},"properties":{"osm_id":"1927400897","tag":{"amenity":"recycling","recycling:green_waste":"yes"}},"type":"Feature"},
	{"geometry":{"coordinates":[9.015144,51.372739],"type":"Point"},"properties":{"osm_id":"1927401111","tag":{"amenity":"recycling","recycling:green_waste":"yes"}},"type":"Feature"},
	{"geometry":{"coordinates":[9.015109,51.37274],"type":"Point"},"properties":{"osm_id":"1927401117","tag":{"amenity":"waste_basket"}},"type":"Feature"},
	{"geometry":{"coordinates":[9.025626,51.371166],"type":"Point"},"properties":{"osm_id":"3743968721","tag":{"amenity":"recycling","recycling:clothes":"yes","recycling:glass":"yes","recycling_type":"container"}},"type":"Feature"},
	{"geometry":{"coordinates":[9.005362,51.387556],"type":"Point"},"properties":{"osm_id":"5871252029","tag":{"amenity":"recycling","recycling:clothes":"yes","recycling_type":"container"}},"type":"Feature"},
	{"geometry":{"coordinates":[9.011772,51.384518],"type":"Point"},"properties":{"osm_id":"7572032264","tag":{"amenity":"recycling","recycling:glass":"yes","recycling_type":"container"}},"type":"Feature"},
	{"geometry":{"coordinates":[9.012892,51.377961],"type":"Point"},"properties":{"osm_id":"7617500434","tag":{"amenity":"recycling","operator:clothes":"FWS GmbH","recycling:clothes":"yes","recycling:glass":"yes","recycling_type":"container"}},"type":"Feature"}
]
}
