{
"type": "FeatureCollection",
"features": [
	{"geometry":{"coordinates":[9.011399,51.211038],"type":"Point"},"properties":{"osm_id":"353018648","tag":{"amenity":"recycling","recycling:clothes":"yes","recycling:glass":"yes"}},"type":"Feature"},
	{"geometry":{"coordinates":[9.041389,51.197876],"type":"Point"},"properties":{"osm_id":"353977524","tag":{"amenity":"recycling","mapillary":"VDtaBcGQmZnjYyvizMd_AA","recycling:glass":"no","recycling:glass_bottles":"yes","recycling_type":"container","survey:date":"2019-11-02"}},"type":"Feature"},
	{"geometry":{"coordinates":[8.982812,51.224682],"type":"Point"},"properties":{"osm_id":"360468341","tag":{"amenity":"recycling","recycling:clothes":"yes","recycling:glass":"yes"}},"type":"Feature"},
	{"geometry":{"coordinates":[9.010094,51.188029],"type":"Point"},"properties":{"osm_id":"3589869307","tag":{"amenity":"waste_disposal"}},"type":"Feature"},
	{"geometry":{"coordinates":[9.048803,51.192123],"type":"Point"},"properties":{"osm_id":"4463681172","tag":{"amenity":"waste_basket"}},"type":"Feature"},
	{"geometry":{"coordinates":[9.049489,51.182158],"type":"Point"},"properties":{"osm_id":"4485478419","tag":{"amenity":"waste_basket"}},"type":"Feature"},
	{"geometry":{"coordinates":[9.031123,51.188734],"type":"Point"},"properties":{"osm_id":"4485478480","tag":{"amenity":"waste_basket"}},"type":"Feature"},
	{"geometry":{"coordinates":[9.038274,51.181674],"type":"Point"},"properties":{"osm_id":"4519106450","tag":{"amenity":"waste_basket"}},"type":"Feature"},
	{"geometry":{"coordinates":[9.014866,51.181625],"type":"Point"},"properties":{"osm_id":"7577123927","tag":{"amenity":"waste_basket","colour":"blau","material":"steel"}},"type":"Feature"},
	{"geometry":{"coordinates":[9.015733,51.181187],"type":"Point"},"properties":{"osm_id":"7577123928","tag":{"amenity":"waste_basket","colour":"gr\u00c3\u00bcn","material":"steel"}},"type":"Feature"},
	{"geometry":{"coordinates":[8.983766,51.200354],"type":"Point"},"properties":{"osm_id":"7577128488","tag":{"amenity":"waste_basket","material":"wood"}},"type":"Feature"}
]
}
