{
"type": "FeatureCollection",
"features": [
	{"geometry":{"coordinates":[8.986433,50.540144],"type":"Point"},"properties":{"osm_id":"253205083","tag":{"amenity":"recycling","location":"overground","recycling_type":"container"}},"type":"Feature"},
	{"geometry":{"coordinates":[9.009483,50.551165],"type":"Point"},"properties":{"osm_id":"290806002","tag":{"amenity":"recycling","recycling:glass":"yes"}},"type":"Feature"},
	{"geometry":{"coordinates":[8.979715,50.543186],"type":"Point"},"properties":{"osm_id":"329057427","tag":{"amenity":"recycling","location":"overground","recycling:glass":"yes","recycling_type":"container"}},"type":"Feature"},
	{"geometry":{"coordinates":[8.967435,50.520513],"type":"Point"},"properties":{"osm_id":"441311693","tag":{"amenity":"recycling"}},"type":"Feature"},
	{"geometry":{"coordinates":[9.023384,50.515809],"type":"Point"},"properties":{"osm_id":"443113591","tag":{"amenity":"recycling","recycling:clothes":"yes","recycling:glass":"yes","recycling_type":"container"}},"type":"Feature"},
	{"geometry":{"coordinates":[8.976295,50.543683],"type":"Point"},"properties":{"osm_id":"804741839","tag":{"amenity":"recycling","location":"overground","recycling:clothes":"yes","recycling:glass":"yes","recycling_type":"container"}},"type":"Feature"},
	{"geometry":{"coordinates":[8.988134,50.543244],"type":"Point"},"properties":{"osm_id":"861685105","tag":{"amenity":"waste_basket"}},"type":"Feature"},
	{"geometry":{"coordinates":[8.9919,50.540917],"type":"Point"},"properties":{"osm_id":"861685272","tag":{"amenity":"waste_basket"}},"type":"Feature"},
	{"geometry":{"coordinates":[8.991933,50.541081],"type":"Point"},"properties":{"osm_id":"861685311","tag":{"amenity":"waste_basket"}},"type":"Feature"},
	{"geometry":{"coordinates":[8.982515,50.519958],"type":"Point"},"properties":{"osm_id":"869331851","tag":{"amenity":"waste_basket"}},"type":"Feature"},
	{"geometry":{"coordinates":[8.987556,50.549407],"type":"Point"},"properties":{"osm_id":"892597987","tag":{"amenity":"recycling","location":"overground","recycling:glass":"yes","recycling_type":"container"}},"type":"Feature"},
	{"geometry":{"coordinates":[8.99082,50.542495],"type":"Point"},"properties":{"osm_id":"1070586813","tag":{"amenity":"waste_basket"}},"type":"Feature"},
	{"geometry":{"coordinates":[8.990748,50.543778],"type":"Point"},"properties":{"osm_id":"1070586815","tag":{"amenity":"waste_basket"}},"type":"Feature"},
	{"geometry":{"coordinates":[8.987925,50.544818],"type":"Point"},"properties":{"osm_id":"1070586817","tag":{"amenity":"waste_basket"}},"type":"Feature"},
	{"geometry":{"coordinates":[8.9893,50.545703],"type":"Point"},"properties":{"osm_id":"1070586820","tag":{"amenity":"waste_basket"}},"type":"Feature"},
	{"geometry":{"coordinates":[8.990133,50.545249],"type":"Point"},"properties":{"osm_id":"1071577627","tag":{"amenity":"waste_basket"}},"type":"Feature"},
	{"geometry":{"coordinates":[8.99203,50.543639],"type":"Point"},"properties":{"osm_id":"1071577654","tag":{"amenity":"waste_basket"}},"type":"Feature"},
	{"geometry":{"coordinates":[8.99064,50.544009],"type":"Point"},"properties":{"osm_id":"1071577672","tag":{"amenity":"waste_basket"}},"type":"Feature"},
	{"geometry":{"coordinates":[8.988611,50.54589],"type":"Point"},"properties":{"osm_id":"1071577688","tag":{"amenity":"waste_basket"}},"type":"Feature"},
	{"geometry":{"coordinates":[8.99166,50.543498],"type":"Point"},"properties":{"osm_id":"1071577692","tag":{"amenity":"waste_basket"}},"type":"Feature"},
	{"geometry":{"coordinates":[8.989972,50.542149],"type":"Point"},"properties":{"osm_id":"1071577694","tag":{"amenity":"waste_basket"}},"type":"Feature"},
	{"geometry":{"coordinates":[8.98863,50.54589],"type":"Point"},"properties":{"osm_id":"1071577718","tag":{"amenity":"waste_basket"}},"type":"Feature"},
	{"geometry":{"coordinates":[8.990429,50.545132],"type":"Point"},"properties":{"osm_id":"1071577734","tag":{"amenity":"waste_basket"}},"type":"Feature"},
	{"geometry":{"coordinates":[9.033954,50.569163],"type":"Point"},"properties":{"osm_id":"1240382210","tag":{"amenity":"waste_basket"}},"type":"Feature"},
	{"geometry":{"coordinates":[8.987262,50.541269],"type":"Point"},"properties":{"osm_id":"1260731208","tag":{"amenity":"waste_basket"}},"type":"Feature"},
	{"geometry":{"coordinates":[8.968117,50.569266],"type":"Point"},"properties":{"osm_id":"1279430536","tag":{"amenity":"waste_basket"}},"type":"Feature"},
	{"geometry":{"coordinates":[9.022433,50.515561],"type":"Point"},"properties":{"osm_id":"1281864371","tag":{"amenity":"waste_basket"}},"type":"Feature"},
	{"geometry":{"coordinates":[9.019473,50.51807],"type":"Point"},"properties":{"osm_id":"1281864545","tag":{"amenity":"waste_basket"}},"type":"Feature"},
	{"geometry":{"coordinates":[9.02187,50.518317],"type":"Point"},"properties":{"osm_id":"1281864569","tag":{"amenity":"waste_basket"}},"type":"Feature"},
	{"geometry":{"coordinates":[9.023871,50.516413],"type":"Point"},"properties":{"osm_id":"1286474219","tag":{"amenity":"waste_basket"}},"type":"Feature"},
	{"geometry":{"coordinates":[9.024028,50.51644],"type":"Point"},"properties":{"osm_id":"1286474250","tag":{"amenity":"waste_basket"}},"type":"Feature"},
	{"geometry":{"coordinates":[9.049068,50.560814],"type":"Point"},"properties":{"osm_id":"1319587692","tag":{"amenity":"recycling","recycling:glass":"yes"}},"type":"Feature"},
	{"geometry":{"coordinates":[8.985047,50.54023],"type":"Point"},"properties":{"osm_id":"1334825174","tag":{"amenity":"recycling","recycling:clothes":"yes","recycling:glass":"yes"}},"type":"Feature"},
	{"geometry":{"coordinates":[9.042596,50.554614],"type":"Point"},"properties":{"osm_id":"1359332070","tag":{"amenity":"waste_basket"}},"type":"Feature"},
	{"geometry":{"coordinates":[8.992326,50.541814],"type":"Point"},"properties":{"osm_id":"1380887592","tag":{"amenity":"waste_basket"}},"type":"Feature"},
	{"geometry":{"coordinates":[8.992036,50.541934],"type":"Point"},"properties":{"osm_id":"1380887595","tag":{"amenity":"waste_basket"}},"type":"Feature"},
	{"geometry":{"coordinates":[8.989917,50.542968],"type":"Point"},"properties":{"osm_id":"1380887658","tag":{"amenity":"waste_basket"}},"type":"Feature"},
	{"geometry":{"coordinates":[8.967933,50.51467],"type":"Point"},"properties":{"osm_id":"1398624532","tag":{"amenity":"waste_basket"}},"type":"Feature"},
	{"geometry":{"coordinates":[8.966755,50.543624],"type":"Point"},"properties":{"osm_id":"1398624549","tag":{"amenity":"waste_basket"}},"type":"Feature"},
	{"geometry":{"coordinates":[9.034211,50.542226],"type":"Point"},"properties":{"osm_id":"1420520054","tag":{"amenity":"waste_basket"}},"type":"Feature"},
	{"geometry":{"coordinates":[8.966012,50.544495],"type":"Point"},"properties":{"osm_id":"2681159196","tag":{"amenity":"waste_basket"}},"type":"Feature"},
	{"geometry":{"coordinates":[8.991025,50.540757],"type":"Point"},"properties":{"name":"B\u00c3\u00bcrgerb\u00c3\u00bcro","osm_id":"2984184533","tag":{"amenity":"recycling","opening_hours":"Mo 08:00-16:00, Tu 08:00-16:00, Th 07:00-18:00, Fr 08:00-12:00","phone":"+49 6405 921\u00e2\u0080\u00930","recycling_type":"centre","website":"http://www.laubach-online.de","wheelchair":"limited"}},"type":"Feature"},
	{"geometry":{"coordinates":[9.024339,50.51829],"type":"Point"},"properties":{"osm_id":"4009155987","tag":{"amenity":"waste_basket"}},"type":"Feature"},
	{"geometry":{"coordinates":[9.045461,50.561746],"type":"Point"},"properties":{"osm_id":"5204076368","tag":{"amenity":"waste_basket"}},"type":"Feature"},
	{"geometry":{"coordinates":[8.987924,50.548903],"type":"Point"},"properties":{"osm_id":"6018101788","tag":{"amenity":"waste_basket"}},"type":"Feature"},
	{"geometry":{"coordinates":[8.987899,50.548762],"type":"Point"},"properties":{"osm_id":"6018101789","tag":{"amenity":"waste_basket"}},"type":"Feature"},
	{"geometry":{"coordinates":[8.98796,50.549045],"type":"Point"},"properties":{"osm_id":"6018101790","tag":{"amenity":"waste_basket"}},"type":"Feature"},
	{"geometry":{"coordinates":[9.005016,50.535031],"type":"Point"},"properties":{"osm_id":"6389610424","tag":{"amenity":"waste_basket"}},"type":"Feature"},
	{"geometry":{"coordinates":[8.985478,50.551907],"type":"Point"},"properties":{"osm_id":"6919135689","tag":{"amenity":"waste_basket"}},"type":"Feature"}
]
}
