{
"type": "FeatureCollection",
"features": [
	{"geometry":{"coordinates":[8.984018,50.079058],"type":"Point"},"properties":{"osm_id":"283630286","tag":{"amenity":"recycling"}},"type":"Feature"},
	{"geometry":{"coordinates":[9.016585,50.064435],"type":"Point"},"properties":{"name":"Clubheim FC Victoria","osm_id":"553035940","tag":{"amenity":"recycling","recycling:cans":"yes","recycling:clothes":"yes","recycling:glass":"yes"}},"type":"Feature"},
	{"geometry":{"coordinates":[9.017637,50.081643],"type":"Point"},"properties":{"osm_id":"655298889","tag":{"amenity":"waste_basket","check_date":"2021-09-19"}},"type":"Feature"},
	{"geometry":{"coordinates":[8.973284,50.096527],"type":"Point"},"properties":{"osm_id":"666111716","tag":{"amenity":"waste_basket"}},"type":"Feature"},
	{"geometry":{"coordinates":[8.983665,50.101306],"type":"Point"},"properties":{"osm_id":"671488842","tag":{"amenity":"waste_basket","check_date":"2021-05-10"}},"type":"Feature"},
	{"geometry":{"coordinates":[8.977552,50.103255],"type":"Point"},"properties":{"osm_id":"671488860","tag":{"amenity":"waste_basket","check_date":"2021-05-10"}},"type":"Feature"},
	{"geometry":{"coordinates":[8.966332,50.069783],"type":"Point"},"properties":{"osm_id":"2061048625","tag":{"amenity":"recycling","location":"overground","recycling_type":"container"}},"type":"Feature"},
	{"geometry":{"coordinates":[9.015977,50.077856],"type":"Point"},"properties":{"osm_id":"2237758452","tag":{"amenity":"recycling","recycling:cans":"yes","recycling:glass":"no","recycling:glass_bottles":"yes","recycling_type":"container"}},"type":"Feature"},
	{"geometry":{"coordinates":[9.016008,50.077774],"type":"Point"},"properties":{"osm_id":"2238914398","tag":{"amenity":"recycling","check_date":"2021-09-19","recycling:clothes":"yes","recycling_type":"container"}},"type":"Feature"},
	{"geometry":{"coordinates":[8.968364,50.10342],"type":"Point"},"properties":{"osm_id":"2971532703","tag":{"amenity":"recycling"}},"type":"Feature"},
	{"geometry":{"coordinates":[9.005695,50.076841],"type":"Point"},"properties":{"osm_id":"3284643967","tag":{"amenity":"waste_basket"}},"type":"Feature"},
	{"geometry":{"coordinates":[9.005484,50.076637],"type":"Point"},"properties":{"osm_id":"3284643969","tag":{"amenity":"waste_basket"}},"type":"Feature"},
	{"geometry":{"coordinates":[9.005282,50.076457],"type":"Point"},"properties":{"osm_id":"3284643991","tag":{"amenity":"waste_basket"}},"type":"Feature"},
	{"geometry":{"coordinates":[8.965332,50.103768],"type":"Point"},"properties":{"osm_id":"3493236474","tag":{"amenity":"recycling","location":"overground","recycling_type":"container"}},"type":"Feature"},
	{"geometry":{"coordinates":[8.96532,50.104964],"type":"Point"},"properties":{"osm_id":"3493236475","tag":{"amenity":"recycling","recycling_type":"container"}},"type":"Feature"},
	{"geometry":{"coordinates":[8.9736,50.080234],"type":"Point"},"properties":{"osm_id":"3775701019","tag":{"amenity":"recycling","recycling:glass":"yes","recycling_type":"container"}},"type":"Feature"},
	{"geometry":{"coordinates":[8.97374,50.080234],"type":"Point"},"properties":{"osm_id":"3775701020","tag":{"amenity":"recycling","recycling:clothes":"yes","recycling_type":"container"}},"type":"Feature"},
	{"geometry":{"coordinates":[8.988254,50.075806],"type":"Point"},"properties":{"osm_id":"3849543896","tag":{"amenity":"recycling","recycling:glass":"yes","recycling_type":"container"}},"type":"Feature"},
	{"geometry":{"coordinates":[9.009463,50.081859],"type":"Point"},"properties":{"osm_id":"5128967515","tag":{"amenity":"waste_disposal","seamark:small_craft_facility:category":"refuse_bin","seamark:type":"small_craft_facility"}},"type":"Feature"},
	{"geometry":{"coordinates":[8.967583,50.108202],"type":"Point"},"properties":{"osm_id":"5470384815","tag":{"amenity":"recycling","recycling:glass":"yes","recycling_type":"container"}},"type":"Feature"},
	{"geometry":{"coordinates":[8.978094,50.086101],"type":"Point"},"properties":{"osm_id":"5762118405","tag":{"amenity":"waste_basket","source:position":"Besichtigung und esri w. i. clarity","waste":"trash"}},"type":"Feature"},
	{"geometry":{"coordinates":[8.9696,50.064601],"type":"Point"},"properties":{"name":"Bauhof der Gemeinde Hainburg","osm_id":"7026546977","tag":{"amenity":"recycling","opening_hours":"We 13:00-16:00; Fr 13:00-17:00; Sa 11:00-16:00","recycling:batteries":"yes","recycling:cans":"yes","recycling:cardboard":"yes","recycling:electrical_appliances":"yes","recycling:green_waste":"yes","recycling:paper":"yes","recycling:scrap_metal":"yes","recycling:small_appliances":"yes","recycling_type":"centre"}},"type":"Feature"},
	{"geometry":{"coordinates":[8.969445,50.064533],"type":"Point"},"properties":{"osm_id":"7747291631","tag":{"amenity":"recycling","operator":"Gemeinde Hainburg","recycling:glass":"yes","recycling_type":"container"}},"type":"Feature"},
	{"geometry":{"coordinates":[9.006655,50.069605],"type":"Point"},"properties":{"osm_id":"8274459045","tag":{"amenity":"recycling","recycling:cans":"yes","recycling:clothes":"yes","recycling:glass":"yes","recycling_type":"container"}},"type":"Feature"},
	{"geometry":{"coordinates":[9.011785,50.077403],"type":"Point"},"properties":{"osm_id":"8303918344","tag":{"amenity":"recycling","recycling:cans":"yes","recycling:clothes":"yes","recycling:glass":"yes","recycling_type":"container"}},"type":"Feature"},
	{"geometry":{"coordinates":[9.011059,50.077359],"type":"Point"},"properties":{"name":"Bauhof","osm_id":"8303918346","tag":{"amenity":"recycling","operator":"Gemeinde Kahl am Main","recycling_type":"centre"}},"type":"Feature"}
]
}
