{
"type": "FeatureCollection",
"features": [
	{"geometry":{"coordinates":[9.037319,50.035184],"type":"Point"},"properties":{"osm_id":"271776752","tag":{"amenity":"recycling","recycling_type":"container"}},"type":"Feature"},
	{"geometry":{"coordinates":[9.04246,50.036571],"type":"Point"},"properties":{"osm_id":"291857405","tag":{"amenity":"recycling","recycling_type":"centre"}},"type":"Feature"},
	{"geometry":{"coordinates":[9.015517,50.046591],"type":"Point"},"properties":{"osm_id":"298370468","tag":{"addr:city":"Karlstein am Main","addr:postcode":"63791","addr:street":"Wiesenweg","amenity":"recycling","operator":"Gemeinde Karlstein am Main","recycling:cans":"yes","recycling:clothes":"no","recycling:glass":"yes","recycling:paper":"no"}},"type":"Feature"},
	{"geometry":{"coordinates":[9.005886,50.051333],"type":"Point"},"properties":{"osm_id":"305373849","tag":{"amenity":"recycling","location":"overground","recycling:batteries":"no","recycling:cans":"yes","recycling:clothes":"yes","recycling:glass":"yes","recycling_type":"container"}},"type":"Feature"},
	{"geometry":{"coordinates":[9.001478,50.051923],"type":"Point"},"properties":{"name":"Bauhof Karlstein","osm_id":"419524707","tag":{"amenity":"recycling","recycling:batteries":"yes","recycling:clothes":"no","recycling:glass":"yes","recycling:paper":"yes","recycling_type":"centre"}},"type":"Feature"},
	{"geometry":{"coordinates":[9.045519,50.025848],"type":"Point"},"properties":{"osm_id":"423829654","tag":{"amenity":"recycling","recycling:clothes":"yes"}},"type":"Feature"},
	{"geometry":{"coordinates":[8.970777,50.042074],"type":"Point"},"properties":{"osm_id":"453009448","tag":{"amenity":"recycling","recycling:glass":"yes","recycling_type":"container"}},"type":"Feature"},
	{"geometry":{"coordinates":[9.000703,50.055389],"type":"Point"},"properties":{"osm_id":"499512359","tag":{"amenity":"recycling","location":"overground","recycling:batteries":"no","recycling:cans":"yes","recycling:clothes":"yes","recycling:glass":"yes","recycling:paper":"yes","recycling:shoes":"yes","recycling_type":"container"}},"type":"Feature"},
	{"geometry":{"coordinates":[9.041089,50.035224],"type":"Point"},"properties":{"osm_id":"529950819","tag":{"amenity":"recycling","recycling:clothes":"yes"}},"type":"Feature"},
	{"geometry":{"coordinates":[9.001702,50.063917],"type":"Point"},"properties":{"osm_id":"541644046","tag":{"amenity":"recycling","recycling:clothes":"yes"}},"type":"Feature"},
	{"geometry":{"coordinates":[9.001178,50.05179],"type":"Point"},"properties":{"name":"Recyclinghof Karlstein","osm_id":"541963099","tag":{"amenity":"recycling","recycling_type":"centre"}},"type":"Feature"},
	{"geometry":{"coordinates":[9.015648,50.063722],"type":"Point"},"properties":{"osm_id":"553035938","tag":{"amenity":"recycling","recycling:cans":"yes","recycling:clothes":"yes","recycling:glass":"yes"}},"type":"Feature"},
	{"geometry":{"coordinates":[9.006036,50.009317],"type":"Point"},"properties":{"osm_id":"840169093","tag":{"amenity":"recycling","recycling:clothes":"yes","recycling:glass":"yes","recycling:paper":"no","recycling_type":"container"}},"type":"Feature"},
	{"geometry":{"coordinates":[9.038269,50.009089],"type":"Point"},"properties":{"osm_id":"936753556","tag":{"amenity":"recycling","recycling:cans":"yes","recycling:glass":"yes"}},"type":"Feature"},
	{"geometry":{"coordinates":[9.006938,50.056867],"type":"Point"},"properties":{"osm_id":"987927191","tag":{"amenity":"waste_basket"}},"type":"Feature"},
	{"geometry":{"coordinates":[9.022342,50.044541],"type":"Point"},"properties":{"osm_id":"1023233557","tag":{"amenity":"waste_basket"}},"type":"Feature"},
	{"geometry":{"coordinates":[9.022444,50.044513],"type":"Point"},"properties":{"osm_id":"1023233598","tag":{"amenity":"waste_basket"}},"type":"Feature"},
	{"geometry":{"coordinates":[8.965043,50.04888],"type":"Point"},"properties":{"name":"Recyclinghof","osm_id":"1596462644","tag":{"amenity":"recycling","recycling_type":"centre"}},"type":"Feature"},
	{"geometry":{"coordinates":[8.966374,50.043423],"type":"Point"},"properties":{"osm_id":"1596466969","tag":{"amenity":"recycling","recycling:glass_bottles":"yes","recycling_type":"container"}},"type":"Feature"},
	{"geometry":{"coordinates":[8.967215,50.042082],"type":"Point"},"properties":{"osm_id":"1596491495","tag":{"amenity":"recycling","recycling:glass_bottles":"white","recycling_type":"container"}},"type":"Feature"},
	{"geometry":{"coordinates":[8.969427,50.047715],"type":"Point"},"properties":{"osm_id":"1602551182","tag":{"amenity":"recycling","recycling:glass_bottles":"yes","recycling_type":"container"}},"type":"Feature"},
	{"geometry":{"coordinates":[8.974805,50.049757],"type":"Point"},"properties":{"osm_id":"1781312952","tag":{"amenity":"recycling","recycling:clothes":"yes","recycling_type":"container"}},"type":"Feature"},
	{"geometry":{"coordinates":[8.981652,50.044169],"type":"Point"},"properties":{"osm_id":"2304998782","tag":{"amenity":"waste_basket"}},"type":"Feature"},
	{"geometry":{"coordinates":[8.972775,50.044187],"type":"Point"},"properties":{"osm_id":"2336997725","tag":{"amenity":"waste_basket"}},"type":"Feature"},
	{"geometry":{"coordinates":[9.048871,50.038544],"type":"Point"},"properties":{"osm_id":"2505312393","tag":{"amenity":"recycling","recycling:clothes":"yes","recycling:glass":"no","recycling:paper":"no","recycling_type":"container"}},"type":"Feature"},
	{"geometry":{"coordinates":[8.98526,50.036938],"type":"Point"},"properties":{"osm_id":"2992129021","tag":{"amenity":"recycling","location":"overground","recycling:glass":"yes","recycling_type":"container"}},"type":"Feature"},
	{"geometry":{"coordinates":[8.978815,50.035283],"type":"Point"},"properties":{"osm_id":"2992136055","tag":{"amenity":"recycling","colour":"green","recycling:glass":"yes","recycling_type":"container"}},"type":"Feature"},
	{"geometry":{"coordinates":[8.97607,50.040379],"type":"Point"},"properties":{"osm_id":"2992136056","tag":{"amenity":"recycling","colour":"brown","recycling:glass":"yes","recycling_type":"container"}},"type":"Feature"},
	{"geometry":{"coordinates":[8.973833,50.043718],"type":"Point"},"properties":{"osm_id":"2992136057","tag":{"amenity":"recycling","colour":"green","recycling:glass":"yes","recycling_type":"container"}},"type":"Feature"},
	{"geometry":{"coordinates":[8.988182,50.036998],"type":"Point"},"properties":{"osm_id":"2992136058","tag":{"amenity":"recycling","location":"overground","recycling:clothes":"yes","recycling_type":"container"}},"type":"Feature"},
	{"geometry":{"coordinates":[8.995877,50.044063],"type":"Point"},"properties":{"osm_id":"3161339885","tag":{"amenity":"waste_basket"}},"type":"Feature"},
	{"geometry":{"coordinates":[9.023395,50.046231],"type":"Point"},"properties":{"osm_id":"3277079565","tag":{"addr:city":"Karlstein am Main","addr:postcode":"63791","addr:street":"Karolingerring","amenity":"recycling","operator":"Gemeinde Karlstein am Main","recycling:cans":"yes","recycling:clothes":"yes","recycling:glass":"yes","recycling:paper":"no","recycling_type":"container"}},"type":"Feature"},
	{"geometry":{"coordinates":[9.037904,50.041063],"type":"Point"},"properties":{"osm_id":"3277079566","tag":{"addr:city":"Karlstein am Main","addr:postcode":"63791","addr:street":"Bahnhofstra\u00c3\u009fe","amenity":"recycling","operator":"Gemeinde Karlstein am Main","recycling:cans":"yes","recycling:clothes":"yes","recycling:glass":"yes","recycling:paper":"no","recycling_type":"container"}},"type":"Feature"},
	{"geometry":{"coordinates":[9.018857,50.045569],"type":"Point"},"properties":{"osm_id":"3279349067","tag":{"amenity":"waste_basket"}},"type":"Feature"},
	{"geometry":{"coordinates":[9.023715,50.045599],"type":"Point"},"properties":{"osm_id":"3279453801","tag":{"amenity":"waste_basket"}},"type":"Feature"},
	{"geometry":{"coordinates":[9.024327,50.045493],"type":"Point"},"properties":{"osm_id":"3280169757","tag":{"amenity":"waste_basket"}},"type":"Feature"},
	{"geometry":{"coordinates":[9.036148,50.042991],"type":"Point"},"properties":{"osm_id":"3284029245","tag":{"addr:city":"Karlstein am Main","addr:postcode":"63791","addr:street":"Bahnhofstra\u00c3\u009fe","amenity":"recycling","recycling:clothes":"yes","recycling:shoes":"yes","recycling_type":"container"}},"type":"Feature"},
	{"geometry":{"coordinates":[9.037682,50.04114],"type":"Point"},"properties":{"osm_id":"3284029255","tag":{"amenity":"waste_basket"}},"type":"Feature"},
	{"geometry":{"coordinates":[9.035979,50.043036],"type":"Point"},"properties":{"osm_id":"3284040840","tag":{"amenity":"waste_basket"}},"type":"Feature"},
	{"geometry":{"coordinates":[9.048188,50.015928],"type":"Point"},"properties":{"barrier":"gate","osm_id":"3376495041"},"type":"Feature"},
	{"geometry":{"coordinates":[9.048158,50.016123],"type":"Point"},"properties":{"barrier":"gate","osm_id":"3376500066"},"type":"Feature"},
	{"geometry":{"coordinates":[9.01209,50.046756],"type":"Point"},"properties":{"osm_id":"4107972492","tag":{"amenity":"waste_basket"}},"type":"Feature"},
	{"geometry":{"coordinates":[9.017415,50.025181],"type":"Point"},"properties":{"osm_id":"4323246227","tag":{"amenity":"recycling","operator":"www.windelcontainer.de","recycling:diapers":"yes","recycling_type":"container"}},"type":"Feature"},
	{"geometry":{"coordinates":[9.006593,50.008192],"type":"Point"},"properties":{"osm_id":"4340118987","tag":{"amenity":"waste_basket"}},"type":"Feature"},
	{"geometry":{"coordinates":[9.025961,50.031578],"type":"Point"},"properties":{"osm_id":"4382903068","tag":{"amenity":"recycling","colour":"green","recycling:glass_bottles":"yes","recycling_type":"container"}},"type":"Feature"},
	{"geometry":{"coordinates":[9.025961,50.03157],"type":"Point"},"properties":{"osm_id":"4382903069","tag":{"amenity":"recycling","colour":"white","recycling:glass_bottles":"yes","recycling_type":"container"}},"type":"Feature"},
	{"geometry":{"coordinates":[9.025961,50.031587],"type":"Point"},"properties":{"osm_id":"4382903072","tag":{"amenity":"recycling","colour":"brown","recycling:glass_bottles":"yes","recycling_type":"container"}},"type":"Feature"},
	{"geometry":{"coordinates":[9.02596,50.031561],"type":"Point"},"properties":{"osm_id":"4382903075","tag":{"amenity":"recycling","recycling:clothes":"yes","recycling_type":"container"}},"type":"Feature"},
	{"geometry":{"coordinates":[9.030569,50.034689],"type":"Point"},"properties":{"osm_id":"4382907508","tag":{"amenity":"waste_basket"}},"type":"Feature"},
	{"geometry":{"coordinates":[9.017378,50.025219],"type":"Point"},"properties":{"osm_id":"4449521393","tag":{"amenity":"recycling","colour":"brown","recycling:glass_bottles":"yes","recycling_type":"container"}},"type":"Feature"},
	{"geometry":{"coordinates":[9.017365,50.025231],"type":"Point"},"properties":{"osm_id":"4449521394","tag":{"amenity":"recycling","colour":"green","recycling:glass_bottles":"yes","recycling_type":"container"}},"type":"Feature"},
	{"geometry":{"coordinates":[9.017352,50.025244],"type":"Point"},"properties":{"osm_id":"4449521395","tag":{"amenity":"recycling","colour":"white","recycling:glass_bottles":"yes","recycling_type":"container"}},"type":"Feature"},
	{"geometry":{"coordinates":[9.0174,50.025196],"type":"Point"},"properties":{"osm_id":"4449521396","tag":{"amenity":"recycling","operator":"SKC Textilrecycling KG","recycling:clothes":"yes","recycling_type":"container"}},"type":"Feature"},
	{"geometry":{"coordinates":[9.01739,50.025206],"type":"Point"},"properties":{"osm_id":"4449521397","tag":{"amenity":"recycling","operator":"SKC Textilrecycling KG","recycling:clothes":"yes","recycling_type":"container"}},"type":"Feature"},
	{"geometry":{"coordinates":[9.030588,50.035949],"type":"Point"},"properties":{"osm_id":"4449881250","tag":{"amenity":"waste_basket"}},"type":"Feature"},
	{"geometry":{"coordinates":[8.97384,50.043707],"type":"Point"},"properties":{"osm_id":"4458407600","tag":{"amenity":"recycling","colour":"white","recycling:glass":"yes","recycling_type":"container"}},"type":"Feature"},
	{"geometry":{"coordinates":[8.973827,50.043728],"type":"Point"},"properties":{"osm_id":"4458407601","tag":{"amenity":"recycling","colour":"brown","recycling:glass":"yes","recycling_type":"container"}},"type":"Feature"},
	{"geometry":{"coordinates":[8.978581,50.043812],"type":"Point"},"properties":{"osm_id":"4460894846","tag":{"amenity":"waste_basket"}},"type":"Feature"},
	{"geometry":{"coordinates":[8.978799,50.043634],"type":"Point"},"properties":{"osm_id":"4460903132","tag":{"amenity":"waste_basket"}},"type":"Feature"},
	{"geometry":{"coordinates":[8.97915,50.043423],"type":"Point"},"properties":{"osm_id":"4460904578","tag":{"amenity":"waste_basket"}},"type":"Feature"},
	{"geometry":{"coordinates":[8.979018,50.043478],"type":"Point"},"properties":{"osm_id":"4460904579","tag":{"amenity":"waste_basket"}},"type":"Feature"},
	{"geometry":{"coordinates":[8.979205,50.04329],"type":"Point"},"properties":{"osm_id":"4460916566","tag":{"amenity":"waste_basket"}},"type":"Feature"},
	{"geometry":{"coordinates":[8.976041,50.040365],"type":"Point"},"properties":{"osm_id":"4460921440","tag":{"amenity":"recycling","colour":"green","recycling:glass":"yes","recycling_type":"container"}},"type":"Feature"},
	{"geometry":{"coordinates":[8.976013,50.040352],"type":"Point"},"properties":{"osm_id":"4460921441","tag":{"amenity":"recycling","colour":"white","recycling:glass":"yes","recycling_type":"container"}},"type":"Feature"},
	{"geometry":{"coordinates":[9.026545,50.031289],"type":"Point"},"properties":{"osm_id":"4460982823","tag":{"amenity":"waste_basket"}},"type":"Feature"},
	{"geometry":{"coordinates":[9.027487,50.031279],"type":"Point"},"properties":{"osm_id":"4464130464","tag":{"amenity":"recycling","recycling:clothes":"yes","recycling_type":"container"}},"type":"Feature"},
	{"geometry":{"coordinates":[9.027434,50.031242],"type":"Point"},"properties":{"osm_id":"4464130465","tag":{"amenity":"recycling","colour":"white","recycling:glass_bottles":"yes","recycling_type":"container"}},"type":"Feature"},
	{"geometry":{"coordinates":[9.027446,50.031257],"type":"Point"},"properties":{"osm_id":"4464130466","tag":{"amenity":"recycling","colour":"green","recycling:glass_bottles":"yes","recycling_type":"container"}},"type":"Feature"},
	{"geometry":{"coordinates":[9.027455,50.031271],"type":"Point"},"properties":{"osm_id":"4464130467","tag":{"amenity":"recycling","colour":"brown","recycling:glass_bottles":"yes","recycling_type":"container"}},"type":"Feature"},
	{"geometry":{"coordinates":[9.028182,50.026819],"type":"Point"},"properties":{"osm_id":"4464131396","tag":{"amenity":"recycling","recycling:clothes":"yes","recycling_type":"container"}},"type":"Feature"},
	{"geometry":{"coordinates":[9.028108,50.02682],"type":"Point"},"properties":{"osm_id":"4464131397","tag":{"amenity":"recycling","colour":"white","recycling:glass_bottles":"yes","recycling_type":"container"}},"type":"Feature"},
	{"geometry":{"coordinates":[9.02813,50.02682],"type":"Point"},"properties":{"osm_id":"4464131398","tag":{"amenity":"recycling","colour":"green","recycling:glass_bottles":"yes","recycling_type":"container"}},"type":"Feature"},
	{"geometry":{"coordinates":[9.028154,50.026819],"type":"Point"},"properties":{"osm_id":"4464131399","tag":{"amenity":"recycling","colour":"brown","recycling:glass_bottles":"yes","recycling_type":"container"}},"type":"Feature"},
	{"geometry":{"coordinates":[9.027993,50.026876],"type":"Point"},"properties":{"osm_id":"4464131951","tag":{"amenity":"waste_basket"}},"type":"Feature"},
	{"geometry":{"coordinates":[9.027469,50.031284],"type":"Point"},"properties":{"osm_id":"4464140429","tag":{"amenity":"recycling","recycling:clothes":"yes","recycling_type":"container"}},"type":"Feature"},
	{"geometry":{"coordinates":[9.020972,50.033756],"type":"Point"},"properties":{"osm_id":"4465408703","tag":{"amenity":"waste_basket"}},"type":"Feature"},
	{"geometry":{"coordinates":[9.030708,50.034913],"type":"Point"},"properties":{"osm_id":"4465426218","tag":{"amenity":"waste_basket"}},"type":"Feature"},
	{"geometry":{"coordinates":[9.030667,50.034186],"type":"Point"},"properties":{"osm_id":"4465440549","tag":{"amenity":"waste_basket"}},"type":"Feature"},
	{"geometry":{"coordinates":[9.03062,50.033985],"type":"Point"},"properties":{"osm_id":"4465441506","tag":{"amenity":"waste_basket"}},"type":"Feature"},
	{"geometry":{"coordinates":[8.981441,50.041333],"type":"Point"},"properties":{"osm_id":"4465587381","tag":{"amenity":"recycling","colour":"white","recycling:glass":"yes","recycling_type":"container"}},"type":"Feature"},
	{"geometry":{"coordinates":[8.981465,50.041342],"type":"Point"},"properties":{"osm_id":"4465587383","tag":{"amenity":"recycling","colour":"white","recycling:glass":"yes","recycling_type":"container"}},"type":"Feature"},
	{"geometry":{"coordinates":[8.981453,50.04132],"type":"Point"},"properties":{"osm_id":"4465587416","tag":{"amenity":"recycling","colour":"green","recycling:glass":"yes","recycling_type":"container"}},"type":"Feature"},
	{"geometry":{"coordinates":[8.98149,50.041316],"type":"Point"},"properties":{"osm_id":"4465587458","tag":{"amenity":"recycling","colour":"brown","recycling:glass":"yes","recycling_type":"container"}},"type":"Feature"},
	{"geometry":{"coordinates":[8.981478,50.041328],"type":"Point"},"properties":{"osm_id":"4465587505","tag":{"amenity":"recycling","colour":"green","recycling:glass":"yes","recycling_type":"container"}},"type":"Feature"},
	{"geometry":{"coordinates":[8.981464,50.041308],"type":"Point"},"properties":{"osm_id":"4465587506","tag":{"amenity":"recycling","colour":"brown","recycling:glass":"yes","recycling_type":"container"}},"type":"Feature"},
	{"geometry":{"coordinates":[8.981207,50.04139],"type":"Point"},"properties":{"osm_id":"4465600653","tag":{"amenity":"waste_basket"}},"type":"Feature"},
	{"geometry":{"coordinates":[8.975708,50.042846],"type":"Point"},"properties":{"osm_id":"4465619998","tag":{"amenity":"waste_basket"}},"type":"Feature"},
	{"geometry":{"coordinates":[8.975676,50.042865],"type":"Point"},"properties":{"osm_id":"4465619999","tag":{"amenity":"waste_basket"}},"type":"Feature"},
	{"geometry":{"coordinates":[8.978785,50.035275],"type":"Point"},"properties":{"osm_id":"4465690284","tag":{"amenity":"recycling","colour":"brown","recycling:glass":"yes","recycling_type":"container"}},"type":"Feature"},
	{"geometry":{"coordinates":[8.978756,50.035266],"type":"Point"},"properties":{"osm_id":"4465690285","tag":{"amenity":"recycling","colour":"white","recycling:glass":"yes","recycling_type":"container"}},"type":"Feature"},
	{"geometry":{"coordinates":[8.975164,50.034607],"type":"Point"},"properties":{"osm_id":"4465693428","tag":{"amenity":"waste_basket"}},"type":"Feature"},
	{"geometry":{"coordinates":[8.977621,50.034621],"type":"Point"},"properties":{"osm_id":"4465695613","tag":{"amenity":"waste_basket"}},"type":"Feature"},
	{"geometry":{"coordinates":[9.024801,50.03531],"type":"Point"},"properties":{"osm_id":"4465715781","tag":{"amenity":"recycling","recycling:clothes":"yes","recycling_type":"container"}},"type":"Feature"},
	{"geometry":{"coordinates":[8.997646,50.031358],"type":"Point"},"properties":{"osm_id":"4470532168","tag":{"amenity":"waste_basket"}},"type":"Feature"},
	{"geometry":{"coordinates":[8.997586,50.031153],"type":"Point"},"properties":{"osm_id":"4470532169","tag":{"amenity":"waste_basket"}},"type":"Feature"},
	{"geometry":{"coordinates":[9.01978,50.025508],"type":"Point"},"properties":{"osm_id":"4735441167","tag":{"amenity":"recycling","recycling:clothes":"yes","recycling_type":"container"}},"type":"Feature"},
	{"geometry":{"coordinates":[9.019766,50.025519],"type":"Point"},"properties":{"osm_id":"4735441168","tag":{"amenity":"recycling","recycling:glass_bottles":"white","recycling_type":"container"}},"type":"Feature"},
	{"geometry":{"coordinates":[9.019754,50.02553],"type":"Point"},"properties":{"osm_id":"4735441169","tag":{"amenity":"recycling","recycling:glass_bottles":"green","recycling_type":"container"}},"type":"Feature"},
	{"geometry":{"coordinates":[9.01974,50.025544],"type":"Point"},"properties":{"osm_id":"4735441170","tag":{"amenity":"recycling","recycling:glass_bottles":"brown","recycling_type":"container"}},"type":"Feature"},
	{"geometry":{"coordinates":[9.030617,50.035632],"type":"Point"},"properties":{"osm_id":"4890489264","tag":{"amenity":"waste_basket"}},"type":"Feature"},
	{"geometry":{"coordinates":[9.02971,50.030274],"type":"Point"},"properties":{"osm_id":"4890896693","tag":{"amenity":"waste_basket"}},"type":"Feature"},
	{"geometry":{"coordinates":[9.035951,50.039922],"type":"Point"},"properties":{"osm_id":"4953645729","tag":{"amenity":"waste_basket"}},"type":"Feature"},
	{"geometry":{"coordinates":[9.035946,50.040091],"type":"Point"},"properties":{"osm_id":"4953645730","tag":{"amenity":"waste_basket"}},"type":"Feature"},
	{"geometry":{"coordinates":[8.972988,50.016667],"type":"Point"},"properties":{"osm_id":"5877886252","tag":{"amenity":"waste_basket"}},"type":"Feature"},
	{"geometry":{"coordinates":[8.967728,50.036164],"type":"Point"},"properties":{"osm_id":"5885975985","tag":{"amenity":"waste_basket"}},"type":"Feature"},
	{"geometry":{"coordinates":[9.017098,50.029144],"type":"Point"},"properties":{"osm_id":"5888958435","tag":{"amenity":"waste_basket"}},"type":"Feature"},
	{"geometry":{"coordinates":[9.022585,50.031926],"type":"Point"},"properties":{"osm_id":"5888959290","tag":{"amenity":"waste_basket"}},"type":"Feature"},
	{"geometry":{"coordinates":[8.984429,50.015025],"type":"Point"},"properties":{"osm_id":"5889225292","tag":{"amenity":"waste_basket"}},"type":"Feature"},
	{"geometry":{"coordinates":[9.014974,50.038164],"type":"Point"},"properties":{"osm_id":"5891797263","tag":{"amenity":"waste_basket"}},"type":"Feature"},
	{"geometry":{"coordinates":[8.999584,50.038204],"type":"Point"},"properties":{"osm_id":"5891797319","tag":{"amenity":"waste_basket"}},"type":"Feature"},
	{"geometry":{"coordinates":[9.021107,50.025683],"type":"Point"},"properties":{"osm_id":"5903240328","tag":{"amenity":"waste_basket"}},"type":"Feature"},
	{"geometry":{"coordinates":[8.981924,50.043931],"type":"Point"},"properties":{"osm_id":"6419397309","tag":{"amenity":"waste_basket"}},"type":"Feature"},
	{"geometry":{"coordinates":[8.982926,50.043362],"type":"Point"},"properties":{"osm_id":"6419397756","tag":{"amenity":"waste_basket"}},"type":"Feature"},
	{"geometry":{"coordinates":[8.975154,50.044139],"type":"Point"},"properties":{"osm_id":"6492365766","tag":{"amenity":"waste_basket"}},"type":"Feature"},
	{"geometry":{"coordinates":[8.975318,50.044276],"type":"Point"},"properties":{"osm_id":"6492366996","tag":{"amenity":"waste_basket"}},"type":"Feature"},
	{"geometry":{"coordinates":[8.975323,50.044265],"type":"Point"},"properties":{"osm_id":"6492366997","tag":{"amenity":"waste_basket"}},"type":"Feature"},
	{"geometry":{"coordinates":[8.975306,50.044268],"type":"Point"},"properties":{"osm_id":"6492366998","tag":{"amenity":"waste_basket"}},"type":"Feature"},
	{"geometry":{"coordinates":[8.975316,50.043859],"type":"Point"},"properties":{"osm_id":"6492367064","tag":{"amenity":"waste_basket"}},"type":"Feature"},
	{"geometry":{"coordinates":[8.975409,50.043942],"type":"Point"},"properties":{"osm_id":"6492367078","tag":{"amenity":"waste_basket"}},"type":"Feature"},
	{"geometry":{"coordinates":[8.967216,50.042047],"type":"Point"},"properties":{"osm_id":"6496355970","tag":{"amenity":"recycling","recycling:clothes":"yes","recycling_type":"container"}},"type":"Feature"},
	{"geometry":{"coordinates":[8.967215,50.04207],"type":"Point"},"properties":{"osm_id":"6496355971","tag":{"amenity":"recycling","recycling:glass_bottles":"green","recycling_type":"container"}},"type":"Feature"},
	{"geometry":{"coordinates":[8.967215,50.042061],"type":"Point"},"properties":{"osm_id":"6496355972","tag":{"amenity":"recycling","recycling:glass_bottles":"brown","recycling_type":"container"}},"type":"Feature"},
	{"geometry":{"coordinates":[9.013458,50.022557],"type":"Point"},"properties":{"osm_id":"6498632642","tag":{"amenity":"waste_basket"}},"type":"Feature"},
	{"geometry":{"coordinates":[9.002595,50.014902],"type":"Point"},"properties":{"osm_id":"6498651653","tag":{"amenity":"waste_basket"}},"type":"Feature"},
	{"geometry":{"coordinates":[9.003418,50.013543],"type":"Point"},"properties":{"osm_id":"6498651655","tag":{"amenity":"waste_basket"}},"type":"Feature"},
	{"geometry":{"coordinates":[9.004592,50.011574],"type":"Point"},"properties":{"osm_id":"6498651657","tag":{"amenity":"waste_basket"}},"type":"Feature"},
	{"geometry":{"coordinates":[9.00501,50.010868],"type":"Point"},"properties":{"osm_id":"6498651662","tag":{"amenity":"waste_basket"}},"type":"Feature"},
	{"geometry":{"coordinates":[8.998567,50.009795],"type":"Point"},"properties":{"osm_id":"6498686143","tag":{"amenity":"waste_basket"}},"type":"Feature"},
	{"geometry":{"coordinates":[8.985215,50.01489],"type":"Point"},"properties":{"osm_id":"6498699638","tag":{"amenity":"recycling","recycling:glass_bottles":"brown","recycling_type":"container"}},"type":"Feature"},
	{"geometry":{"coordinates":[8.985179,50.014894],"type":"Point"},"properties":{"osm_id":"6498699639","tag":{"amenity":"recycling","recycling:glass_bottles":"green","recycling_type":"container"}},"type":"Feature"},
	{"geometry":{"coordinates":[8.985136,50.014898],"type":"Point"},"properties":{"osm_id":"6498699640","tag":{"amenity":"recycling","recycling:glass_bottles":"white","recycling_type":"container"}},"type":"Feature"},
	{"geometry":{"coordinates":[9.003734,50.03826],"type":"Point"},"properties":{"osm_id":"6506079978","tag":{"amenity":"waste_basket"}},"type":"Feature"},
	{"geometry":{"coordinates":[9.011455,50.041314],"type":"Point"},"properties":{"osm_id":"6506079979","tag":{"amenity":"recycling","recycling:glass":"yes","recycling_type":"container"}},"type":"Feature"},
	{"geometry":{"coordinates":[9.026247,50.035523],"type":"Point"},"properties":{"osm_id":"6514746172","tag":{"amenity":"recycling","recycling:clothes":"yes","recycling_type":"container"}},"type":"Feature"},
	{"geometry":{"coordinates":[9.026241,50.03553],"type":"Point"},"properties":{"osm_id":"6514746173","tag":{"amenity":"recycling","recycling:glass_bottles":"brown","recycling_type":"container"}},"type":"Feature"},
	{"geometry":{"coordinates":[9.026235,50.035537],"type":"Point"},"properties":{"osm_id":"6514746174","tag":{"amenity":"recycling","recycling:glass_bottles":"green","recycling_type":"container"}},"type":"Feature"},
	{"geometry":{"coordinates":[9.026228,50.035545],"type":"Point"},"properties":{"osm_id":"6514746175","tag":{"amenity":"recycling","recycling:glass_bottles":"white","recycling_type":"container"}},"type":"Feature"},
	{"geometry":{"coordinates":[9.036702,50.042546],"type":"Point"},"properties":{"osm_id":"6516106049","tag":{"amenity":"waste_basket"}},"type":"Feature"},
	{"geometry":{"coordinates":[9.036712,50.042534],"type":"Point"},"properties":{"osm_id":"6516106706","tag":{"amenity":"waste_basket"}},"type":"Feature"},
	{"geometry":{"coordinates":[9.02842,50.035645],"type":"Point"},"properties":{"osm_id":"6532747065","tag":{"amenity":"waste_basket"}},"type":"Feature"},
	{"geometry":{"coordinates":[9.034142,50.035801],"type":"Point"},"properties":{"osm_id":"6620427776","tag":{"amenity":"waste_basket"}},"type":"Feature"},
	{"geometry":{"coordinates":[8.988487,50.020833],"type":"Point"},"properties":{"osm_id":"6621471849","tag":{"amenity":"waste_basket"}},"type":"Feature"},
	{"geometry":{"coordinates":[8.99149,50.010143],"type":"Point"},"properties":{"osm_id":"6718193019","tag":{"amenity":"waste_basket"}},"type":"Feature"},
	{"geometry":{"coordinates":[9.01899,50.024867],"type":"Point"},"properties":{"osm_id":"6721758696","tag":{"amenity":"waste_basket"}},"type":"Feature"},
	{"geometry":{"coordinates":[9.018482,50.024813],"type":"Point"},"properties":{"osm_id":"6721758702","tag":{"amenity":"waste_basket"}},"type":"Feature"},
	{"geometry":{"coordinates":[9.016649,50.025097],"type":"Point"},"properties":{"osm_id":"6774872308","tag":{"amenity":"waste_basket"}},"type":"Feature"},
	{"geometry":{"coordinates":[8.994354,50.014934],"type":"Point"},"properties":{"osm_id":"7071726625","tag":{"amenity":"waste_basket"}},"type":"Feature"},
	{"geometry":{"coordinates":[8.998658,50.044852],"type":"Point"},"properties":{"osm_id":"7775077614","tag":{"amenity":"waste_basket"}},"type":"Feature"},
	{"geometry":{"coordinates":[9.029177,50.04165],"type":"Point"},"properties":{"osm_id":"7775077629","tag":{"amenity":"waste_basket"}},"type":"Feature"},
	{"geometry":{"coordinates":[9.033093,50.037573],"type":"Point"},"properties":{"osm_id":"7776347211","tag":{"amenity":"waste_basket"}},"type":"Feature"}
]
}
