{
"type": "FeatureCollection",
"lastupdate": "2020-07-31T00:00:00Z",
"features": [
	{"geometry":{"coordinates":[9.039164,49.892629],"type":"Point"},"properties":{"osm_id":"279558627","tag":{"amenity":"recycling","opening_hours":"Mo-Sa 07:00-20:00","opening_hours:covid19":"same","recycling:cans":"yes","recycling:glass_bottles":"yes","recycling_type":"container"}},"type":"Feature"},
	{"geometry":{"coordinates":[8.967493,49.840653],"type":"Point"},"properties":{"osm_id":"879136652","tag":{"amenity":"recycling"}},"type":"Feature"},
	{"geometry":{"coordinates":[9.012774,49.888268],"type":"Point"},"properties":{"osm_id":"1119553947","tag":{"amenity":"recycling","recycling:cans":"yes","recycling:clothes":"yes","recycling:glass":"yes","recycling:green_waste":"yes","recycling:scrap_metal":"yes","recycling:shoes":"yes","recycling_type":"centre"}},"type":"Feature"},
	{"geometry":{"coordinates":[8.971657,49.838037],"type":"Point"},"properties":{"osm_id":"1336881744","tag":{"amenity":"recycling"}},"type":"Feature"},
	{"geometry":{"coordinates":[9.040594,49.838642],"type":"Point"},"properties":{"osm_id":"1417093146","tag":{"amenity":"waste_basket","fireplace":"yes","leisure":"picnic_table","tourism":"picnic_site"}},"type":"Feature"},
	{"geometry":{"coordinates":[9.026833,49.893652],"type":"Point"},"properties":{"osm_id":"1526766633","tag":{"amenity":"recycling"}},"type":"Feature"},
	{"geometry":{"coordinates":[9.028831,49.888085],"type":"Point"},"properties":{"osm_id":"1526766640","tag":{"amenity":"recycling"}},"type":"Feature"}
]
}
