{
"type": "FeatureCollection",
"features": [
	{"geometry":{"coordinates":[8.993755,49.682836],"type":"Point"},"properties":{"osm_id":"292985908","tag":{"amenity":"recycling","recycling:glass":"yes"}},"type":"Feature"},
	{"geometry":{"coordinates":[8.993991,49.719076],"type":"Point"},"properties":{"osm_id":"299459524","tag":{"amenity":"recycling"}},"type":"Feature"},
	{"geometry":{"coordinates":[9.00206,49.679896],"type":"Point"},"properties":{"osm_id":"408767928","tag":{"amenity":"recycling","recycling:clothes":"yes","recycling:glass":"yes","recycling:paper":"no"}},"type":"Feature"},
	{"geometry":{"coordinates":[9.008157,49.681947],"type":"Point"},"properties":{"osm_id":"408768463","tag":{"amenity":"recycling"}},"type":"Feature"},
	{"geometry":{"coordinates":[9.04968,49.70114],"type":"Point"},"properties":{"osm_id":"408773584","tag":{"amenity":"recycling","recycling:clothes":"yes","recycling:glass":"yes"}},"type":"Feature"},
	{"geometry":{"coordinates":[9.004304,49.695036],"type":"Point"},"properties":{"osm_id":"485150673","tag":{"amenity":"recycling","recycling:glass":"yes"}},"type":"Feature"},
	{"geometry":{"coordinates":[8.999269,49.685587],"type":"Point"},"properties":{"osm_id":"485959248","tag":{"amenity":"recycling","mapillary":"2n3rTt4C3-B_hdt-sPEjIQ","recycling:clothes":"yes","recycling:glass":"no","recycling:glass_bottles":"yes","recycling_type":"container","survey:date":"2019-02-08"}},"type":"Feature"},
	{"geometry":{"coordinates":[9.047646,49.702988],"type":"Point"},"properties":{"osm_id":"528940393","tag":{"amenity":"recycling","recycling:clothes":"yes"}},"type":"Feature"},
	{"geometry":{"coordinates":[9.043336,49.705894],"type":"Point"},"properties":{"osm_id":"1860754724","tag":{"amenity":"recycling","recycling:green_waste":"yes"}},"type":"Feature"},
	{"geometry":{"coordinates":[9.043339,49.705918],"type":"Point"},"properties":{"osm_id":"1860754725","tag":{"amenity":"recycling","recycling:plastic":"yes"}},"type":"Feature"},
	{"geometry":{"coordinates":[9.015138,49.667788],"type":"Point"},"properties":{"osm_id":"3196657118","tag":{"amenity":"recycling","operator":"Texaid","recycling:clothes":"yes","recycling_type":"container"}},"type":"Feature"},
	{"geometry":{"coordinates":[9.016482,49.672671],"type":"Point"},"properties":{"osm_id":"3199839411","tag":{"amenity":"recycling","recycling:glass_bottles":"yes","recycling_type":"container"}},"type":"Feature"},
	{"geometry":{"coordinates":[8.994872,49.676409],"type":"Point"},"properties":{"name":"RESO GmbH","osm_id":"5793839053","tag":{"amenity":"recycling","phone":"+49 6061 96000","website":"http://reso-GmbH.de"}},"type":"Feature"},
	{"geometry":{"coordinates":[9.041088,49.691208],"type":"Point"},"properties":{"osm_id":"7385785927","tag":{"amenity":"waste_basket","colour":"green"}},"type":"Feature"}
]
}
