{
"type": "FeatureCollection",
"features": [
	{"geometry":{"coordinates":[8.972832,49.460545],"type":"Point"},"properties":{"osm_id":"311762588","tag":{"amenity":"recycling","recycling:clothes":"yes","recycling:shoes":"yes","recycling_type":"container"}},"type":"Feature"},
	{"geometry":{"coordinates":[8.99262,49.466684],"type":"Point"},"properties":{"osm_id":"1393503244","tag":{"amenity":"waste_basket"}},"type":"Feature"},
	{"geometry":{"coordinates":[8.995121,49.469608],"type":"Point"},"properties":{"osm_id":"1393503349","tag":{"amenity":"recycling","recycling:clothes":"yes","recycling:shoes":"yes","recycling_type":"container"}},"type":"Feature"},
	{"geometry":{"coordinates":[8.996552,49.470003],"type":"Point"},"properties":{"osm_id":"1393503367","tag":{"amenity":"waste_basket"}},"type":"Feature"},
	{"geometry":{"coordinates":[8.997239,49.473163],"type":"Point"},"properties":{"osm_id":"1395780824","tag":{"amenity":"waste_basket"}},"type":"Feature"},
	{"geometry":{"coordinates":[9.000037,49.446196],"type":"Point"},"properties":{"osm_id":"1658275428","tag":{"amenity":"waste_basket"}},"type":"Feature"},
	{"geometry":{"coordinates":[8.979511,49.452218],"type":"Point"},"properties":{"osm_id":"1658275482","tag":{"amenity":"waste_basket"}},"type":"Feature"},
	{"geometry":{"coordinates":[8.979713,49.457478],"type":"Point"},"properties":{"osm_id":"1658275503","tag":{"amenity":"waste_basket"}},"type":"Feature"},
	{"geometry":{"coordinates":[9.00462,49.440702],"type":"Point"},"properties":{"osm_id":"1690099691","tag":{"amenity":"waste_basket"}},"type":"Feature"},
	{"geometry":{"coordinates":[8.978658,49.464108],"type":"Point"},"properties":{"osm_id":"2428573946","tag":{"amenity":"recycling","recycling:glass":"yes","recycling_type":"container"}},"type":"Feature"},
	{"geometry":{"coordinates":[8.982037,49.468001],"type":"Point"},"properties":{"osm_id":"2429470482","tag":{"amenity":"recycling","recycling:glass":"yes","recycling_type":"container"}},"type":"Feature"},
	{"geometry":{"coordinates":[8.989496,49.469678],"type":"Point"},"properties":{"osm_id":"3692237865","tag":{"amenity":"waste_basket"}},"type":"Feature"},
	{"geometry":{"coordinates":[8.9849,49.465025],"type":"Point"},"properties":{"osm_id":"3692237941","tag":{"amenity":"waste_basket"}},"type":"Feature"},
	{"geometry":{"coordinates":[8.976877,49.472985],"type":"Point"},"properties":{"osm_id":"3697715036","tag":{"amenity":"waste_basket"}},"type":"Feature"},
	{"geometry":{"coordinates":[8.984228,49.465259],"type":"Point"},"properties":{"osm_id":"3698467216","tag":{"amenity":"waste_basket"}},"type":"Feature"},
	{"geometry":{"coordinates":[8.984028,49.465352],"type":"Point"},"properties":{"osm_id":"3698467218","tag":{"amenity":"waste_basket"}},"type":"Feature"},
	{"geometry":{"coordinates":[8.983958,49.465383],"type":"Point"},"properties":{"osm_id":"3698467287","tag":{"amenity":"waste_basket"}},"type":"Feature"},
	{"geometry":{"coordinates":[8.983872,49.465423],"type":"Point"},"properties":{"osm_id":"3698467289","tag":{"amenity":"waste_basket"}},"type":"Feature"},
	{"geometry":{"coordinates":[8.984192,49.465371],"type":"Point"},"properties":{"osm_id":"3698470794","tag":{"amenity":"waste_basket"}},"type":"Feature"},
	{"geometry":{"coordinates":[8.984161,49.465386],"type":"Point"},"properties":{"osm_id":"3698470795","tag":{"amenity":"waste_basket"}},"type":"Feature"},
	{"geometry":{"coordinates":[8.965076,49.460101],"type":"Point"},"properties":{"osm_id":"3699661721","tag":{"amenity":"waste_basket"}},"type":"Feature"},
	{"geometry":{"coordinates":[8.985358,49.458576],"type":"Point"},"properties":{"osm_id":"3699661868","tag":{"amenity":"waste_basket"}},"type":"Feature"},
	{"geometry":{"coordinates":[8.988156,49.46424],"type":"Point"},"properties":{"osm_id":"3699661961","tag":{"amenity":"waste_basket"}},"type":"Feature"},
	{"geometry":{"coordinates":[8.984094,49.459782],"type":"Point"},"properties":{"osm_id":"3711221590","tag":{"amenity":"waste_basket"}},"type":"Feature"},
	{"geometry":{"coordinates":[8.987467,49.461354],"type":"Point"},"properties":{"osm_id":"3711221598","tag":{"amenity":"waste_basket"}},"type":"Feature"},
	{"geometry":{"coordinates":[8.972916,49.462323],"type":"Point"},"properties":{"osm_id":"3711221607","tag":{"amenity":"waste_disposal","waste":"chemical_toilet"}},"type":"Feature"},
	{"geometry":{"coordinates":[8.984531,49.462463],"type":"Point"},"properties":{"osm_id":"3711221610","tag":{"amenity":"waste_basket"}},"type":"Feature"},
	{"geometry":{"coordinates":[8.986244,49.463011],"type":"Point"},"properties":{"osm_id":"3725376112","tag":{"amenity":"waste_basket"}},"type":"Feature"},
	{"geometry":{"coordinates":[8.98577,49.4634],"type":"Point"},"properties":{"osm_id":"3725376115","tag":{"amenity":"waste_basket"}},"type":"Feature"},
	{"geometry":{"coordinates":[8.987873,49.451611],"type":"Point"},"properties":{"osm_id":"3725948703","tag":{"amenity":"waste_basket"}},"type":"Feature"},
	{"geometry":{"coordinates":[8.984912,49.457036],"type":"Point"},"properties":{"osm_id":"3725949401","tag":{"amenity":"waste_basket"}},"type":"Feature"},
	{"geometry":{"coordinates":[8.978419,49.459276],"type":"Point"},"properties":{"osm_id":"3725949640","tag":{"amenity":"waste_basket"}},"type":"Feature"},
	{"geometry":{"coordinates":[8.985867,49.461558],"type":"Point"},"properties":{"osm_id":"3725949656","tag":{"amenity":"waste_basket"}},"type":"Feature"},
	{"geometry":{"coordinates":[8.986809,49.462234],"type":"Point"},"properties":{"osm_id":"3725949658","tag":{"amenity":"waste_basket"}},"type":"Feature"},
	{"geometry":{"coordinates":[8.984766,49.465077],"type":"Point"},"properties":{"osm_id":"3733688853","tag":{"amenity":"waste_basket"}},"type":"Feature"},
	{"geometry":{"coordinates":[8.984734,49.465089],"type":"Point"},"properties":{"osm_id":"3733689613","tag":{"amenity":"waste_basket"}},"type":"Feature"},
	{"geometry":{"coordinates":[8.984681,49.465112],"type":"Point"},"properties":{"osm_id":"3733689617","tag":{"amenity":"waste_basket"}},"type":"Feature"},
	{"geometry":{"coordinates":[8.978082,49.466196],"type":"Point"},"properties":{"osm_id":"3733689829","tag":{"amenity":"waste_basket"}},"type":"Feature"},
	{"geometry":{"coordinates":[8.985214,49.462887],"type":"Point"},"properties":{"osm_id":"3749918346","tag":{"amenity":"waste_basket"}},"type":"Feature"},
	{"geometry":{"coordinates":[8.984244,49.465442],"type":"Point"},"properties":{"osm_id":"3750292247","tag":{"amenity":"waste_basket","indoor":"yes"}},"type":"Feature"},
	{"geometry":{"coordinates":[9.025002,49.47202],"type":"Point"},"properties":{"osm_id":"4017231499","tag":{"amenity":"waste_basket"}},"type":"Feature"},
	{"geometry":{"coordinates":[8.989342,49.463817],"type":"Point"},"properties":{"osm_id":"4020709716","tag":{"amenity":"waste_basket"}},"type":"Feature"},
	{"geometry":{"coordinates":[9.038954,49.472447],"type":"Point"},"properties":{"osm_id":"4370763290","tag":{"amenity":"waste_basket"}},"type":"Feature"},
	{"geometry":{"coordinates":[9.044465,49.445592],"type":"Point"},"properties":{"osm_id":"5061774590","tag":{"amenity":"waste_basket"}},"type":"Feature"},
	{"geometry":{"coordinates":[9.045283,49.445929],"type":"Point"},"properties":{"osm_id":"5117572300","tag":{"amenity":"waste_basket"}},"type":"Feature"},
	{"geometry":{"coordinates":[8.98352,49.460116],"type":"Point"},"properties":{"osm_id":"6004859334","tag":{"amenity":"waste_basket","waste":"trash"}},"type":"Feature"},
	{"geometry":{"coordinates":[8.98028,49.461508],"type":"Point"},"properties":{"osm_id":"6004859393","tag":{"amenity":"waste_basket","waste":"trash"}},"type":"Feature"},
	{"geometry":{"coordinates":[8.988028,49.460211],"type":"Point"},"properties":{"osm_id":"6013266127","tag":{"amenity":"waste_basket","waste":"trash"}},"type":"Feature"},
	{"geometry":{"coordinates":[8.983475,49.455956],"type":"Point"},"properties":{"osm_id":"6013266640","tag":{"amenity":"waste_basket","waste":"trash"}},"type":"Feature"},
	{"geometry":{"coordinates":[8.987812,49.464417],"type":"Point"},"properties":{"osm_id":"6013266652","tag":{"amenity":"waste_basket","waste":"trash"}},"type":"Feature"},
	{"geometry":{"coordinates":[8.990503,49.46697],"type":"Point"},"properties":{"osm_id":"6013266654","tag":{"amenity":"waste_basket","waste":"trash"}},"type":"Feature"},
	{"geometry":{"coordinates":[8.984035,49.461859],"type":"Point"},"properties":{"osm_id":"6013373648","tag":{"amenity":"waste_basket","waste":"trash"}},"type":"Feature"},
	{"geometry":{"coordinates":[8.985278,49.461113],"type":"Point"},"properties":{"osm_id":"6013377121","tag":{"amenity":"waste_basket","waste":"trash"}},"type":"Feature"},
	{"geometry":{"coordinates":[8.983574,49.462248],"type":"Point"},"properties":{"osm_id":"6013377135","tag":{"amenity":"waste_basket","waste":"trash"}},"type":"Feature"},
	{"geometry":{"coordinates":[8.983549,49.462365],"type":"Point"},"properties":{"osm_id":"6013377136","tag":{"amenity":"waste_basket","waste":"trash"}},"type":"Feature"},
	{"geometry":{"coordinates":[8.983161,49.462584],"type":"Point"},"properties":{"osm_id":"6013377145","tag":{"amenity":"waste_basket","waste":"trash"}},"type":"Feature"},
	{"geometry":{"coordinates":[8.984981,49.463088],"type":"Point"},"properties":{"osm_id":"6013377238","tag":{"amenity":"waste_basket","waste":"trash"}},"type":"Feature"},
	{"geometry":{"coordinates":[8.990844,49.462155],"type":"Point"},"properties":{"osm_id":"6109608549","tag":{"amenity":"waste_basket","waste":"trash"}},"type":"Feature"},
	{"geometry":{"coordinates":[8.991158,49.461869],"type":"Point"},"properties":{"osm_id":"6109608560","tag":{"amenity":"waste_basket","waste":"trash"}},"type":"Feature"},
	{"geometry":{"coordinates":[8.989752,49.463447],"type":"Point"},"properties":{"osm_id":"6109619394","tag":{"amenity":"waste_basket","waste":"trash"}},"type":"Feature"},
	{"geometry":{"coordinates":[8.983968,49.465277],"type":"Point"},"properties":{"osm_id":"7119081466","tag":{"amenity":"waste_basket"}},"type":"Feature"},
	{"geometry":{"coordinates":[8.983795,49.465354],"type":"Point"},"properties":{"osm_id":"7119081467","tag":{"amenity":"waste_basket"}},"type":"Feature"},
	{"geometry":{"coordinates":[8.980435,49.458371],"type":"Point"},"properties":{"osm_id":"7198304443","tag":{"amenity":"recycling","recycling:clothes":"yes","recycling:shoes":"yes","recycling_type":"container"}},"type":"Feature"},
	{"geometry":{"coordinates":[8.987381,49.462468],"type":"Point"},"properties":{"osm_id":"7234621325","tag":{"amenity":"waste_basket","waste":"trash"}},"type":"Feature"},
	{"geometry":{"coordinates":[8.98349,49.465852],"type":"Point"},"properties":{"osm_id":"7340808253","tag":{"amenity":"waste_basket","waste":"trash"}},"type":"Feature"}
]
}
