{
"type": "FeatureCollection",
"features": [
	{"geometry":{"coordinates":[8.977262,49.183713],"type":"Point"},"properties":{"osm_id":"419935571","tag":{"amenity":"recycling","recycling:cans":"yes","recycling:glass":"yes","recycling:paper":"yes"}},"type":"Feature"},
	{"geometry":{"coordinates":[8.978628,49.184723],"type":"Point"},"properties":{"osm_id":"419935653","tag":{"amenity":"recycling","recycling:clothes":"yes","recycling:paper":"yes"}},"type":"Feature"},
	{"geometry":{"coordinates":[8.985966,49.185041],"type":"Point"},"properties":{"osm_id":"435241845","tag":{"amenity":"recycling","recycling:glass":"yes","recycling:paper":"yes"}},"type":"Feature"},
	{"geometry":{"coordinates":[8.993765,49.204067],"type":"Point"},"properties":{"osm_id":"599512217","tag":{"amenity":"recycling","recycling:cans":"yes","recycling:glass":"yes","recycling:paper":"yes","recycling_type":"container"}},"type":"Feature"},
	{"geometry":{"coordinates":[8.996629,49.202641],"type":"Point"},"properties":{"name":"Recyclinghof","osm_id":"599512219","tag":{"amenity":"recycling","recycling:batteries":"yes","recycling:cans":"yes","recycling:clothes":"yes","recycling:glass":"yes","recycling:paper":"yes","recycling:scrap_metal":"yes","recycling_type":"centre"}},"type":"Feature"},
	{"geometry":{"coordinates":[9.047567,49.175727],"type":"Point"},"properties":{"osm_id":"1383399798","tag":{"amenity":"waste_basket"}},"type":"Feature"},
	{"geometry":{"coordinates":[9.042892,49.204458],"type":"Point"},"properties":{"osm_id":"1725449705","tag":{"amenity":"waste_basket"}},"type":"Feature"},
	{"geometry":{"coordinates":[9.023606,49.170135],"type":"Point"},"properties":{"barrier":"gate","osm_id":"1737616625","tag":{"bicycle":"no","foot":"no"}},"type":"Feature"},
	{"geometry":{"coordinates":[9.024329,49.170184],"type":"Point"},"properties":{"barrier":"gate","osm_id":"1737616627","tag":{"bicycle":"no","foot":"no"}},"type":"Feature"},
	{"geometry":{"coordinates":[9.021802,49.17381],"type":"Point"},"properties":{"osm_id":"1737616652","tag":{"amenity":"waste_basket"}},"type":"Feature"},
	{"geometry":{"coordinates":[8.986217,49.159006],"type":"Point"},"properties":{"osm_id":"1756548335","tag":{"amenity":"waste_basket"}},"type":"Feature"},
	{"geometry":{"coordinates":[8.98703,49.15982],"type":"Point"},"properties":{"osm_id":"1756548337","tag":{"amenity":"waste_basket"}},"type":"Feature"},
	{"geometry":{"coordinates":[8.981216,49.184375],"type":"Point"},"properties":{"osm_id":"1844960135","tag":{"amenity":"waste_basket"}},"type":"Feature"},
	{"geometry":{"coordinates":[8.967342,49.203322],"type":"Point"},"properties":{"osm_id":"1844960137","tag":{"amenity":"waste_basket"}},"type":"Feature"},
	{"geometry":{"coordinates":[8.990333,49.204944],"type":"Point"},"properties":{"osm_id":"1844960184","tag":{"amenity":"waste_basket"}},"type":"Feature"},
	{"geometry":{"coordinates":[8.993153,49.206621],"type":"Point"},"properties":{"osm_id":"1844960191","tag":{"amenity":"waste_basket"}},"type":"Feature"},
	{"geometry":{"coordinates":[8.990684,49.206725],"type":"Point"},"properties":{"osm_id":"1844960204","tag":{"amenity":"waste_basket"}},"type":"Feature"},
	{"geometry":{"coordinates":[8.991457,49.207027],"type":"Point"},"properties":{"osm_id":"1844960212","tag":{"amenity":"waste_basket"}},"type":"Feature"},
	{"geometry":{"coordinates":[8.991514,49.20716],"type":"Point"},"properties":{"osm_id":"1844960216","tag":{"amenity":"waste_basket"}},"type":"Feature"},
	{"geometry":{"coordinates":[8.992691,49.207602],"type":"Point"},"properties":{"osm_id":"1844960219","tag":{"amenity":"waste_basket"}},"type":"Feature"},
	{"geometry":{"coordinates":[8.985264,49.209562],"type":"Point"},"properties":{"osm_id":"1844960240","tag":{"amenity":"waste_basket"}},"type":"Feature"},
	{"geometry":{"coordinates":[8.978573,49.205639],"type":"Point"},"properties":{"osm_id":"6911255331","tag":{"amenity":"waste_basket"}},"type":"Feature"},
	{"geometry":{"coordinates":[8.981142,49.208868],"type":"Point"},"properties":{"osm_id":"6911274757","tag":{"amenity":"waste_basket"}},"type":"Feature"},
	{"geometry":{"coordinates":[8.96595,49.203503],"type":"Point"},"properties":{"osm_id":"6911275872","tag":{"amenity":"waste_basket"}},"type":"Feature"}
]
}
