{
"type": "FeatureCollection",
"features": [
	{"geometry":{"coordinates":[8.996672,49.068623],"type":"Point"},"properties":{"osm_id":"429346506","tag":{"amenity":"recycling","recycling:cans":"yes","recycling:clothes":"yes","recycling:glass":"yes","recycling:paper":"yes"}},"type":"Feature"},
	{"geometry":{"coordinates":[9.030219,49.068702],"type":"Point"},"properties":{"osm_id":"499551258","tag":{"amenity":"recycling","recycling:cans":"yes","recycling:glass_bottles":"yes","recycling:paper":"yes","recycling_type":"container"}},"type":"Feature"},
	{"geometry":{"coordinates":[9.028422,49.038803],"type":"Point"},"properties":{"name":"Recyclinghof","osm_id":"706593345","tag":{"amenity":"recycling","recycling_type":"centre"}},"type":"Feature"},
	{"geometry":{"coordinates":[9.028573,49.039288],"type":"Point"},"properties":{"osm_id":"706593377","tag":{"amenity":"recycling","mapillary":"elt-dIIAmvBIJZgx67HCDQ","recycling:cans":"no","recycling:clothes":"yes","recycling:glass":"yes","recycling:paper":"yes","recycling_type":"container","survey:date":"2016-08-13"}},"type":"Feature"},
	{"geometry":{"coordinates":[8.97167,49.065353],"type":"Point"},"properties":{"osm_id":"1358271640","tag":{"amenity":"recycling"}},"type":"Feature"},
	{"geometry":{"coordinates":[8.994745,49.07006],"type":"Point"},"properties":{"osm_id":"1562797071","tag":{"amenity":"waste_basket"}},"type":"Feature"},
	{"geometry":{"coordinates":[8.994815,49.070134],"type":"Point"},"properties":{"osm_id":"1562797075","tag":{"amenity":"waste_basket"}},"type":"Feature"},
	{"geometry":{"coordinates":[8.980151,49.065736],"type":"Point"},"properties":{"osm_id":"3687825241","tag":{"amenity":"recycling","recycling:clothes":"yes","recycling:shoes":"yes","recycling_type":"container"}},"type":"Feature"},
	{"geometry":{"coordinates":[9.01815,49.08483],"type":"Point"},"properties":{"osm_id":"3910979082","tag":{"amenity":"waste_basket"}},"type":"Feature"},
	{"geometry":{"coordinates":[9.00872,49.069065],"type":"Point"},"properties":{"osm_id":"3993586469","tag":{"amenity":"recycling","opening_hours":"24/7","operator":"Striebel Textil GmbH","owner":"aktion hoffnung Rottenburg Stuttgart e.V.","recycling:clothes":"yes","recycling:shoes":"yes","recycling_type":"container"}},"type":"Feature"},
	{"geometry":{"coordinates":[8.980805,49.065635],"type":"Point"},"properties":{"osm_id":"4371660894","tag":{"amenity":"waste_basket"}},"type":"Feature"},
	{"geometry":{"coordinates":[8.980473,49.065736],"type":"Point"},"properties":{"osm_id":"4371665193","tag":{"amenity":"waste_basket"}},"type":"Feature"},
	{"geometry":{"coordinates":[9.003923,49.067816],"type":"Point"},"properties":{"osm_id":"4424588593","tag":{"amenity":"recycling","recycling_type":"container"}},"type":"Feature"},
	{"geometry":{"coordinates":[9.014873,49.085489],"type":"Point"},"properties":{"osm_id":"5516390332","tag":{"amenity":"waste_basket","waste":"trash"}},"type":"Feature"},
	{"geometry":{"coordinates":[9.015244,49.085234],"type":"Point"},"properties":{"osm_id":"5516390334","tag":{"amenity":"waste_basket","waste":"trash"}},"type":"Feature"}
]
}
