{
"type": "FeatureCollection",
"features": [
	{"geometry":{"coordinates":[8.987439,48.764384],"type":"Point"},"properties":{"osm_id":"462746973","tag":{"amenity":"waste_basket"}},"type":"Feature"},
	{"geometry":{"coordinates":[9.047733,48.780305],"type":"Point"},"properties":{"osm_id":"1399022033","tag":{"amenity":"waste_basket"}},"type":"Feature"},
	{"geometry":{"coordinates":[9.048101,48.780487],"type":"Point"},"properties":{"osm_id":"1399022039","tag":{"amenity":"waste_basket"}},"type":"Feature"},
	{"geometry":{"coordinates":[8.988685,48.762602],"type":"Point"},"properties":{"osm_id":"1581572865","tag":{"amenity":"waste_basket"}},"type":"Feature"},
	{"geometry":{"coordinates":[8.989405,48.762893],"type":"Point"},"properties":{"osm_id":"1582831307","tag":{"amenity":"waste_basket"}},"type":"Feature"},
	{"geometry":{"coordinates":[9.026492,48.788966],"type":"Point"},"properties":{"osm_id":"1669419009","tag":{"amenity":"recycling","mapillary":"oXAuIAOqacQW_ahGeP8KAg","recycling:clothes":"yes","recycling:glass":"no","recycling:glass_bottles":"yes","recycling_type":"container","survey:date":"2017-10-25"}},"type":"Feature"},
	{"geometry":{"coordinates":[8.981952,48.765344],"type":"Point"},"properties":{"osm_id":"1842514482","tag":{"amenity":"waste_basket","designation":"Glascontainer"}},"type":"Feature"},
	{"geometry":{"coordinates":[9.015219,48.805854],"type":"Point"},"properties":{"osm_id":"3062752205","tag":{"amenity":"recycling","recycling:glass":"no","recycling:glass_bottles":"yes","recycling_type":"container"}},"type":"Feature"},
	{"geometry":{"coordinates":[9.025131,48.803286],"type":"Point"},"properties":{"osm_id":"3437230390","tag":{"amenity":"recycling","recycling:clothes":"yes","recycling:glass":"no","recycling:glass_bottles":"yes","recycling_type":"container"}},"type":"Feature"},
	{"geometry":{"coordinates":[9.031189,48.79497],"type":"Point"},"properties":{"osm_id":"3485313556","tag":{"amenity":"recycling","recycling:clothes":"yes","recycling:glass":"yes","recycling_type":"container"}},"type":"Feature"},
	{"geometry":{"coordinates":[9.05003,48.78877],"type":"Point"},"properties":{"osm_id":"3486196513","tag":{"amenity":"waste_basket"}},"type":"Feature"},
	{"geometry":{"coordinates":[8.998419,48.764159],"type":"Point"},"properties":{"osm_id":"3721995892","tag":{"amenity":"waste_basket"}},"type":"Feature"},
	{"geometry":{"coordinates":[9.001736,48.797997],"type":"Point"},"properties":{"osm_id":"3742534020","tag":{"amenity":"recycling","recycling:clothes":"yes","recycling_type":"container"}},"type":"Feature"},
	{"geometry":{"coordinates":[9.00447,48.799439],"type":"Point"},"properties":{"osm_id":"3742675869","tag":{"amenity":"waste_basket"}},"type":"Feature"},
	{"geometry":{"coordinates":[9.010046,48.801737],"type":"Point"},"properties":{"osm_id":"3742806274","tag":{"amenity":"recycling","recycling:clothes":"yes","recycling_type":"container"}},"type":"Feature"},
	{"geometry":{"coordinates":[9.025321,48.80206],"type":"Point"},"properties":{"osm_id":"3744275119","tag":{"amenity":"waste_basket"}},"type":"Feature"},
	{"geometry":{"coordinates":[9.023836,48.802207],"type":"Point"},"properties":{"osm_id":"3744279426","tag":{"amenity":"waste_basket"}},"type":"Feature"},
	{"geometry":{"coordinates":[9.039469,48.797272],"type":"Point"},"properties":{"osm_id":"3752085918","tag":{"amenity":"waste_basket"}},"type":"Feature"},
	{"geometry":{"coordinates":[9.00162,48.768726],"type":"Point"},"properties":{"osm_id":"4070531808","tag":{"amenity":"waste_basket"}},"type":"Feature"},
	{"geometry":{"coordinates":[8.993771,48.768255],"type":"Point"},"properties":{"osm_id":"4070566092","tag":{"amenity":"waste_basket"}},"type":"Feature"},
	{"geometry":{"coordinates":[9.049675,48.802698],"type":"Point"},"properties":{"osm_id":"4144305104","tag":{"amenity":"recycling","recycling:clothes":"yes","recycling_type":"container"}},"type":"Feature"},
	{"geometry":{"coordinates":[8.989954,48.79021],"type":"Point"},"properties":{"osm_id":"4634721580","tag":{"amenity":"recycling","recycling:clothes":"yes","recycling:glass_bottles":"yes","recycling_type":"container"}},"type":"Feature"},
	{"geometry":{"coordinates":[9.0462,48.790278],"type":"Point"},"properties":{"osm_id":"4743638323","tag":{"amenity":"waste_basket"}},"type":"Feature"},
	{"geometry":{"coordinates":[9.015355,48.801445],"type":"Point"},"properties":{"osm_id":"4744038593","tag":{"amenity":"waste_basket"}},"type":"Feature"},
	{"geometry":{"coordinates":[9.015088,48.801417],"type":"Point"},"properties":{"osm_id":"4744038595","tag":{"amenity":"waste_basket"}},"type":"Feature"},
	{"geometry":{"coordinates":[9.036786,48.793015],"type":"Point"},"properties":{"osm_id":"4745631383","tag":{"amenity":"waste_basket"}},"type":"Feature"},
	{"geometry":{"coordinates":[9.039096,48.793183],"type":"Point"},"properties":{"osm_id":"4745648551","tag":{"amenity":"waste_basket"}},"type":"Feature"},
	{"geometry":{"coordinates":[9.037767,48.793798],"type":"Point"},"properties":{"osm_id":"4745648552","tag":{"amenity":"waste_basket"}},"type":"Feature"},
	{"geometry":{"coordinates":[9.015591,48.797404],"type":"Point"},"properties":{"osm_id":"4775286303","tag":{"amenity":"waste_basket"}},"type":"Feature"},
	{"geometry":{"coordinates":[9.003448,48.799103],"type":"Point"},"properties":{"osm_id":"5114346257","tag":{"amenity":"waste_basket"}},"type":"Feature"},
	{"geometry":{"coordinates":[9.003608,48.798552],"type":"Point"},"properties":{"osm_id":"5114346258","tag":{"amenity":"waste_basket"}},"type":"Feature"},
	{"geometry":{"coordinates":[8.998511,48.764356],"type":"Point"},"properties":{"osm_id":"5141047809","tag":{"amenity":"waste_basket"}},"type":"Feature"},
	{"geometry":{"coordinates":[8.998452,48.763487],"type":"Point"},"properties":{"osm_id":"5141200364","tag":{"amenity":"recycling","recycling:cans":"no","recycling:clothes":"yes","recycling:glass":"yes","recycling:glass_bottles":"yes","recycling:paper":"no","recycling:plastic":"no","recycling_type":"container"}},"type":"Feature"},
	{"geometry":{"coordinates":[9.003826,48.79608],"type":"Point"},"properties":{"osm_id":"5637962865","tag":{"amenity":"recycling","recycling:clothes":"yes","recycling_type":"container"}},"type":"Feature"},
	{"geometry":{"coordinates":[8.999654,48.798302],"type":"Point"},"properties":{"osm_id":"5637962866","tag":{"amenity":"recycling","recycling:clothes":"yes","recycling_type":"container"}},"type":"Feature"},
	{"geometry":{"coordinates":[8.992096,48.788771],"type":"Point"},"properties":{"osm_id":"6034552240","tag":{"amenity":"waste_basket"}},"type":"Feature"},
	{"geometry":{"coordinates":[9.030811,48.79822],"type":"Point"},"properties":{"osm_id":"6397056942","tag":{"amenity":"recycling","recycling:cans":"yes","recycling:glass_bottles":"yes","recycling_type":"container"}},"type":"Feature"},
	{"geometry":{"coordinates":[9.037887,48.795562],"type":"Point"},"properties":{"osm_id":"6424755745","tag":{"amenity":"waste_basket"}},"type":"Feature"},
	{"geometry":{"coordinates":[9.036219,48.796153],"type":"Point"},"properties":{"osm_id":"6424757173","tag":{"amenity":"waste_basket"}},"type":"Feature"},
	{"geometry":{"coordinates":[9.03393,48.796609],"type":"Point"},"properties":{"osm_id":"6424757630","tag":{"amenity":"waste_basket"}},"type":"Feature"},
	{"geometry":{"coordinates":[9.035176,48.796062],"type":"Point"},"properties":{"osm_id":"6424757775","tag":{"amenity":"waste_basket"}},"type":"Feature"},
	{"geometry":{"coordinates":[9.00866,48.786797],"type":"Point"},"properties":{"osm_id":"6511968615","tag":{"amenity":"recycling","recycling:glass":"yes","recycling_type":"container"}},"type":"Feature"},
	{"geometry":{"coordinates":[9.030795,48.798194],"type":"Point"},"properties":{"osm_id":"6655042374","tag":{"amenity":"recycling","recycling:clothes":"yes","recycling:shoes":"yes","recycling_type":"container"}},"type":"Feature"},
	{"geometry":{"coordinates":[8.980379,48.79039],"type":"Point"},"properties":{"osm_id":"7540645974","tag":{"amenity":"waste_basket"}},"type":"Feature"},
	{"geometry":{"coordinates":[8.980564,48.78974],"type":"Point"},"properties":{"osm_id":"7540645977","tag":{"amenity":"waste_basket"}},"type":"Feature"},
	{"geometry":{"coordinates":[8.980213,48.789318],"type":"Point"},"properties":{"osm_id":"7540645979","tag":{"amenity":"waste_basket"}},"type":"Feature"},
	{"geometry":{"coordinates":[9.011114,48.785817],"type":"Point"},"properties":{"osm_id":"7911803052","tag":{"amenity":"waste_basket"}},"type":"Feature"}
]
}
