{
"type": "FeatureCollection",
"features": [
	{"geometry":{"coordinates":[8.966722,48.745871],"type":"Point"},"properties":{"osm_id":"259707644","tag":{"amenity":"recycling","recycling:glass_bottles":"yes","recycling_type":"container"}},"type":"Feature"},
	{"geometry":{"coordinates":[8.973633,48.738695],"type":"Point"},"properties":{"osm_id":"275017526","tag":{"amenity":"recycling","recycling:glass_bottles":"yes","recycling_type":"container"}},"type":"Feature"},
	{"geometry":{"coordinates":[8.975966,48.744071],"type":"Point"},"properties":{"osm_id":"285621958","tag":{"amenity":"recycling","recycling:glass_bottles":"yes","recycling_type":"container"}},"type":"Feature"},
	{"geometry":{"coordinates":[9.022632,48.692461],"type":"Point"},"properties":{"osm_id":"315529575","tag":{"amenity":"recycling","recycling:cans":"yes","recycling:clothes":"yes","recycling:glass_bottles":"yes","recycling_type":"container"}},"type":"Feature"},
	{"geometry":{"coordinates":[8.983425,48.719087],"type":"Point"},"properties":{"osm_id":"331908279","tag":{"amenity":"recycling","recycling:glass":"yes"}},"type":"Feature"},
	{"geometry":{"coordinates":[8.968059,48.737556],"type":"Point"},"properties":{"osm_id":"411078411","tag":{"amenity":"recycling","recycling:glass":"yes","recycling_type":"container"}},"type":"Feature"},
	{"geometry":{"coordinates":[9.03242,48.707411],"type":"Point"},"properties":{"osm_id":"452092813","tag":{"amenity":"recycling","recycling:glass_bottles":"yes","recycling_type":"container"}},"type":"Feature"},
	{"geometry":{"coordinates":[9.006697,48.710918],"type":"Point"},"properties":{"osm_id":"474569975","tag":{"amenity":"recycling","recycling:glass_bottles":"yes","recycling_type":"container"}},"type":"Feature"},
	{"geometry":{"coordinates":[8.988869,48.713233],"type":"Point"},"properties":{"osm_id":"493762976","tag":{"amenity":"recycling","recycling_type":"container"}},"type":"Feature"},
	{"geometry":{"coordinates":[9.001007,48.731117],"type":"Point"},"properties":{"osm_id":"501899977","tag":{"amenity":"recycling","recycling:cans":"yes","recycling:glass":"yes"}},"type":"Feature"},
	{"geometry":{"coordinates":[9.006273,48.722446],"type":"Point"},"properties":{"osm_id":"598872295","tag":{"amenity":"recycling","recycling:cans":"yes","recycling:clothes":"yes","recycling:glass_bottles":"yes","recycling_type":"container"}},"type":"Feature"},
	{"geometry":{"coordinates":[9.001585,48.717882],"type":"Point"},"properties":{"osm_id":"600397988","tag":{"amenity":"recycling","recycling:cans":"yes","recycling:glass":"yes","recycling_type":"container"}},"type":"Feature"},
	{"geometry":{"coordinates":[9.004304,48.720589],"type":"Point"},"properties":{"osm_id":"600577417","tag":{"amenity":"recycling","recycling:cans":"yes","recycling:glass":"yes","recycling_type":"container"}},"type":"Feature"},
	{"geometry":{"coordinates":[9.01391,48.723178],"type":"Point"},"properties":{"osm_id":"601469388","tag":{"amenity":"recycling","recycling:cans":"yes","recycling:glass":"yes","recycling_type":"container"}},"type":"Feature"},
	{"geometry":{"coordinates":[9.038292,48.706948],"type":"Point"},"properties":{"osm_id":"603612593","tag":{"amenity":"recycling","recycling:cans":"yes","recycling:glass_bottles":"yes","recycling_type":"container"}},"type":"Feature"},
	{"geometry":{"coordinates":[8.999171,48.716043],"type":"Point"},"properties":{"osm_id":"605359393","tag":{"amenity":"recycling","recycling:cans":"yes","recycling:glass":"yes","recycling_type":"container"}},"type":"Feature"},
	{"geometry":{"coordinates":[9.011483,48.708327],"type":"Point"},"properties":{"osm_id":"607084819","tag":{"amenity":"recycling","recycling:cans":"yes","recycling:glass":"yes","recycling_type":"container"}},"type":"Feature"},
	{"geometry":{"coordinates":[9.014486,48.724826],"type":"Point"},"properties":{"osm_id":"614618203","tag":{"amenity":"recycling","recycling:cans":"yes","recycling:glass":"yes","recycling_type":"container"}},"type":"Feature"},
	{"geometry":{"coordinates":[9.015639,48.699349],"type":"Point"},"properties":{"osm_id":"618379802","tag":{"amenity":"recycling","recycling:cans":"yes","recycling:glass":"yes","recycling:glass_bottles":"yes","recycling_type":"container"}},"type":"Feature"},
	{"geometry":{"coordinates":[9.005362,48.696254],"type":"Point"},"properties":{"osm_id":"620122266","tag":{"amenity":"recycling","recycling:cans":"yes","recycling:glass":"yes","recycling_type":"container"}},"type":"Feature"},
	{"geometry":{"coordinates":[9.013416,48.704298],"type":"Point"},"properties":{"osm_id":"697924246","tag":{"amenity":"recycling","mapillary":"-B4ID-UgFqfzzJzTbYVVFQ","recycling:glass":"no","recycling:glass_bottles":"yes","recycling_type":"container","survey:date":"2020-03-14"}},"type":"Feature"},
	{"geometry":{"coordinates":[8.988016,48.719532],"type":"Point"},"properties":{"osm_id":"943519224","tag":{"amenity":"recycling","recycling:glass_bottles":"yes"}},"type":"Feature"},
	{"geometry":{"coordinates":[9.02004,48.692558],"type":"Point"},"properties":{"osm_id":"984648757","tag":{"amenity":"recycling","recycling:clothes":"yes","recycling_type":"container"}},"type":"Feature"},
	{"geometry":{"coordinates":[9.0137,48.692648],"type":"Point"},"properties":{"osm_id":"1085591938","tag":{"amenity":"recycling","recycling:cans":"yes","recycling:clothes":"yes","recycling:glass_bottles":"yes","recycling_type":"container"}},"type":"Feature"},
	{"geometry":{"coordinates":[9.014006,48.692866],"type":"Point"},"properties":{"osm_id":"1085591972","tag":{"amenity":"waste_basket"}},"type":"Feature"},
	{"geometry":{"coordinates":[9.016589,48.694408],"type":"Point"},"properties":{"osm_id":"1086094450","tag":{"amenity":"waste_basket"}},"type":"Feature"},
	{"geometry":{"coordinates":[9.017488,48.694928],"type":"Point"},"properties":{"osm_id":"1086094523","tag":{"amenity":"waste_basket"}},"type":"Feature"},
	{"geometry":{"coordinates":[9.02034,48.69667],"type":"Point"},"properties":{"osm_id":"1198115947","tag":{"amenity":"recycling","recycling:cans":"yes","recycling:glass_bottles":"yes","recycling_type":"container"}},"type":"Feature"},
	{"geometry":{"coordinates":[9.000988,48.73144],"type":"Point"},"properties":{"osm_id":"1779516058","tag":{"amenity":"recycling","opening_hours":"Mo-Sa 08:00-20:00","recycling:cans":"yes","recycling:glass_bottles":"yes","recycling_type":"container","wheelchair":"yes"}},"type":"Feature"},
	{"geometry":{"coordinates":[9.013901,48.699688],"type":"Point"},"properties":{"osm_id":"2267323495","tag":{"amenity":"recycling","recycling:cans":"yes","recycling:clothes":"yes","recycling:glass_bottles":"yes","recycling_type":"container"}},"type":"Feature"},
	{"geometry":{"coordinates":[8.976431,48.72548],"type":"Point"},"properties":{"osm_id":"2444987764","tag":{"amenity":"recycling","recycling:cans":"yes","recycling:glass":"yes","recycling:glass_bottles":"yes","recycling_type":"container"}},"type":"Feature"},
	{"geometry":{"coordinates":[9.033356,48.741434],"type":"Point"},"properties":{"osm_id":"2478145390","tag":{"amenity":"waste_basket"}},"type":"Feature"},
	{"geometry":{"coordinates":[9.034406,48.740676],"type":"Point"},"properties":{"osm_id":"2478175027","tag":{"amenity":"waste_basket"}},"type":"Feature"},
	{"geometry":{"coordinates":[9.034917,48.740712],"type":"Point"},"properties":{"osm_id":"2478175030","tag":{"amenity":"waste_basket"}},"type":"Feature"},
	{"geometry":{"coordinates":[9.034218,48.740981],"type":"Point"},"properties":{"osm_id":"2478175048","tag":{"amenity":"waste_basket"}},"type":"Feature"},
	{"geometry":{"coordinates":[9.034519,48.740995],"type":"Point"},"properties":{"osm_id":"2478175052","tag":{"amenity":"waste_basket"}},"type":"Feature"},
	{"geometry":{"coordinates":[9.033912,48.741025],"type":"Point"},"properties":{"osm_id":"2478175061","tag":{"amenity":"waste_basket"}},"type":"Feature"},
	{"geometry":{"coordinates":[9.035217,48.741031],"type":"Point"},"properties":{"osm_id":"2478175063","tag":{"amenity":"waste_basket"}},"type":"Feature"},
	{"geometry":{"coordinates":[9.03311,48.741242],"type":"Point"},"properties":{"osm_id":"2478175087","tag":{"amenity":"waste_basket"}},"type":"Feature"},
	{"geometry":{"coordinates":[9.035072,48.741332],"type":"Point"},"properties":{"osm_id":"2478175089","tag":{"amenity":"waste_basket"}},"type":"Feature"},
	{"geometry":{"coordinates":[9.034606,48.741355],"type":"Point"},"properties":{"osm_id":"2478175095","tag":{"amenity":"waste_basket"}},"type":"Feature"},
	{"geometry":{"coordinates":[9.033689,48.741467],"type":"Point"},"properties":{"osm_id":"2478175110","tag":{"amenity":"waste_basket"}},"type":"Feature"},
	{"geometry":{"coordinates":[9.034017,48.741482],"type":"Point"},"properties":{"osm_id":"2478175116","tag":{"amenity":"waste_basket"}},"type":"Feature"},
	{"geometry":{"coordinates":[9.034218,48.741513],"type":"Point"},"properties":{"osm_id":"2478175130","tag":{"amenity":"waste_basket"}},"type":"Feature"},
	{"geometry":{"coordinates":[9.03475,48.742378],"type":"Point"},"properties":{"osm_id":"2478175272","tag":{"amenity":"waste_basket"}},"type":"Feature"},
	{"geometry":{"coordinates":[8.96566,48.722515],"type":"Point"},"properties":{"osm_id":"2664073440","tag":{"amenity":"waste_basket"}},"type":"Feature"},
	{"geometry":{"coordinates":[8.965462,48.722608],"type":"Point"},"properties":{"osm_id":"2664073460","tag":{"amenity":"waste_basket"}},"type":"Feature"},
	{"geometry":{"coordinates":[9.024111,48.701625],"type":"Point"},"properties":{"osm_id":"2827865602","tag":{"amenity":"recycling","recycling:cans":"yes","recycling:glass_bottles":"yes","recycling_type":"container"}},"type":"Feature"},
	{"geometry":{"coordinates":[9.000312,48.711209],"type":"Point"},"properties":{"osm_id":"2889940649","tag":{"amenity":"recycling","location":"overground","recycling:glass":"yes","recycling_type":"container"}},"type":"Feature"},
	{"geometry":{"coordinates":[8.986555,48.709007],"type":"Point"},"properties":{"osm_id":"3140650794","tag":{"amenity":"recycling","recycling:glass":"yes","recycling_type":"container"}},"type":"Feature"},
	{"geometry":{"coordinates":[8.9724,48.734355],"type":"Point"},"properties":{"barrier":"gate","osm_id":"3160601321","tag":{"bicycle":"yes","foot":"yes","motorcar":"yes","motorcycle":"yes"}},"type":"Feature"},
	{"geometry":{"coordinates":[9.019883,48.704968],"type":"Point"},"properties":{"barrier":"gate","osm_id":"3160618081","tag":{"bicycle":"yes","foot":"yes","motorcar":"yes","motorcycle":"yes"}},"type":"Feature"},
	{"geometry":{"coordinates":[9.019175,48.733458],"type":"Point"},"properties":{"osm_id":"3321279429","tag":{"amenity":"recycling","recycling:glass":"yes","recycling_type":"container"}},"type":"Feature"},
	{"geometry":{"coordinates":[9.019253,48.733504],"type":"Point"},"properties":{"osm_id":"3321279430","tag":{"amenity":"recycling","recycling:glass":"yes","recycling_type":"container"}},"type":"Feature"},
	{"geometry":{"coordinates":[9.019358,48.733564],"type":"Point"},"properties":{"osm_id":"3321279431","tag":{"amenity":"recycling","recycling:glass":"yes","recycling_type":"container"}},"type":"Feature"},
	{"geometry":{"coordinates":[8.968486,48.743757],"type":"Point"},"properties":{"osm_id":"3734616543","tag":{"amenity":"waste_basket"}},"type":"Feature"},
	{"geometry":{"coordinates":[9.013459,48.724811],"type":"Point"},"properties":{"osm_id":"3955352197","tag":{"amenity":"recycling","recycling:glass_bottles":"yes","recycling_type":"container"}},"type":"Feature"},
	{"geometry":{"coordinates":[9.010794,48.725124],"type":"Point"},"properties":{"osm_id":"3955352201","tag":{"amenity":"recycling","recycling:glass_bottles":"yes","recycling_type":"container"}},"type":"Feature"},
	{"geometry":{"coordinates":[9.003918,48.725963],"type":"Point"},"properties":{"osm_id":"3956861743","tag":{"amenity":"recycling","recycling:glass_bottles":"yes","recycling_type":"container"}},"type":"Feature"},
	{"geometry":{"coordinates":[9.018657,48.715893],"type":"Point"},"properties":{"osm_id":"3957022406","tag":{"amenity":"recycling","recycling:clothes":"yes","recycling:shoes":"yes","recycling_type":"container"}},"type":"Feature"},
	{"geometry":{"coordinates":[9.032653,48.707717],"type":"Point"},"properties":{"osm_id":"3957764895","tag":{"amenity":"recycling","recycling:glass_bottles":"yes","recycling_type":"container"}},"type":"Feature"},
	{"geometry":{"coordinates":[9.014724,48.721981],"type":"Point"},"properties":{"osm_id":"4030956926","tag":{"amenity":"waste_basket"}},"type":"Feature"},
	{"geometry":{"coordinates":[8.965602,48.722058],"type":"Point"},"properties":{"osm_id":"4187328299","tag":{"amenity":"waste_basket"}},"type":"Feature"},
	{"geometry":{"coordinates":[9.033274,48.694403],"type":"Point"},"properties":{"osm_id":"4411269175","tag":{"amenity":"waste_basket"}},"type":"Feature"},
	{"geometry":{"coordinates":[9.026269,48.69296],"type":"Point"},"properties":{"osm_id":"4411424674","tag":{"amenity":"recycling","recycling:clothes":"yes","recycling_type":"container"}},"type":"Feature"},
	{"geometry":{"coordinates":[9.010556,48.702392],"type":"Point"},"properties":{"osm_id":"4415114668","tag":{"amenity":"waste_basket"}},"type":"Feature"},
	{"geometry":{"coordinates":[9.02154,48.715194],"type":"Point"},"properties":{"osm_id":"4415574608","tag":{"amenity":"waste_basket"}},"type":"Feature"},
	{"geometry":{"coordinates":[9.025083,48.717254],"type":"Point"},"properties":{"osm_id":"4415628678","tag":{"amenity":"recycling","recycling:glass_bottles":"yes","recycling_type":"container"}},"type":"Feature"},
	{"geometry":{"coordinates":[9.02691,48.7188],"type":"Point"},"properties":{"osm_id":"4415628681","tag":{"amenity":"waste_basket"}},"type":"Feature"},
	{"geometry":{"coordinates":[9.019226,48.711001],"type":"Point"},"properties":{"osm_id":"4424271917","tag":{"amenity":"waste_basket"}},"type":"Feature"},
	{"geometry":{"coordinates":[9.018253,48.711494],"type":"Point"},"properties":{"osm_id":"4424271923","tag":{"amenity":"waste_basket"}},"type":"Feature"},
	{"geometry":{"coordinates":[9.004813,48.701307],"type":"Point"},"properties":{"osm_id":"4424996399","tag":{"amenity":"waste_basket"}},"type":"Feature"},
	{"geometry":{"coordinates":[9.001655,48.708065],"type":"Point"},"properties":{"osm_id":"4425288551","tag":{"amenity":"waste_basket"}},"type":"Feature"},
	{"geometry":{"coordinates":[9.002028,48.7081],"type":"Point"},"properties":{"osm_id":"4425288554","tag":{"amenity":"waste_basket"}},"type":"Feature"},
	{"geometry":{"coordinates":[9.003407,48.708481],"type":"Point"},"properties":{"osm_id":"4425288566","tag":{"amenity":"waste_basket"}},"type":"Feature"},
	{"geometry":{"coordinates":[9.006609,48.705674],"type":"Point"},"properties":{"osm_id":"4425301700","tag":{"amenity":"waste_basket"}},"type":"Feature"},
	{"geometry":{"coordinates":[9.038008,48.720955],"type":"Point"},"properties":{"osm_id":"4757465300","tag":{"amenity":"waste_basket"}},"type":"Feature"},
	{"geometry":{"coordinates":[9.015285,48.708187],"type":"Point"},"properties":{"osm_id":"4757478520","tag":{"amenity":"recycling","recycling:glass_bottles":"yes","recycling_type":"container"}},"type":"Feature"},
	{"geometry":{"coordinates":[9.016878,48.712388],"type":"Point"},"properties":{"osm_id":"4757480727","tag":{"amenity":"waste_basket"}},"type":"Feature"},
	{"geometry":{"coordinates":[9.029754,48.702795],"type":"Point"},"properties":{"osm_id":"4790621562","tag":{"amenity":"recycling","recycling:glass_bottles":"yes","recycling_type":"container"}},"type":"Feature"},
	{"geometry":{"coordinates":[9.017443,48.719836],"type":"Point"},"properties":{"osm_id":"4943951243","tag":{"amenity":"recycling","recycling:glass":"yes","recycling_type":"container"}},"type":"Feature"},
	{"geometry":{"coordinates":[9.031049,48.705376],"type":"Point"},"properties":{"osm_id":"5001636934","tag":{"amenity":"waste_basket"}},"type":"Feature"},
	{"geometry":{"coordinates":[8.97731,48.72858],"type":"Point"},"properties":{"osm_id":"5086399694","tag":{"amenity":"recycling","recycling:clothes":"yes","recycling:glass":"yes","recycling_type":"container"}},"type":"Feature"},
	{"geometry":{"coordinates":[9.028514,48.694957],"type":"Point"},"properties":{"osm_id":"5618166648","tag":{"amenity":"waste_basket"}},"type":"Feature"},
	{"geometry":{"coordinates":[9.028889,48.695143],"type":"Point"},"properties":{"osm_id":"5618166653","tag":{"amenity":"waste_basket"}},"type":"Feature"},
	{"geometry":{"coordinates":[9.028873,48.69476],"type":"Point"},"properties":{"osm_id":"5618166655","tag":{"amenity":"waste_basket"}},"type":"Feature"},
	{"geometry":{"coordinates":[9.025762,48.696233],"type":"Point"},"properties":{"osm_id":"6081496843","tag":{"amenity":"waste_basket"}},"type":"Feature"},
	{"geometry":{"coordinates":[9.04016,48.721145],"type":"Point"},"properties":{"osm_id":"6272295315","tag":{"amenity":"waste_basket"}},"type":"Feature"},
	{"geometry":{"coordinates":[8.982533,48.716557],"type":"Point"},"properties":{"osm_id":"6280342427","tag":{"amenity":"waste_basket"}},"type":"Feature"},
	{"geometry":{"coordinates":[9.039277,48.705772],"type":"Point"},"properties":{"osm_id":"6590419285","tag":{"amenity":"recycling","recycling:glass_bottles":"yes","recycling_type":"container"}},"type":"Feature"},
	{"geometry":{"coordinates":[9.001832,48.708493],"type":"Point"},"properties":{"osm_id":"6591342492","tag":{"amenity":"waste_basket"}},"type":"Feature"},
	{"geometry":{"coordinates":[9.006741,48.71087],"type":"Point"},"properties":{"osm_id":"6594265633","tag":{"amenity":"recycling","recycling:clothes":"yes","recycling:shoes":"yes","recycling_type":"container"}},"type":"Feature"},
	{"geometry":{"coordinates":[9.008178,48.710187],"type":"Point"},"properties":{"osm_id":"6594265645","tag":{"amenity":"waste_basket"}},"type":"Feature"},
	{"geometry":{"coordinates":[9.008846,48.709679],"type":"Point"},"properties":{"osm_id":"6594265662","tag":{"amenity":"waste_basket"}},"type":"Feature"},
	{"geometry":{"coordinates":[9.002885,48.711809],"type":"Point"},"properties":{"osm_id":"6594306177","tag":{"amenity":"waste_basket"}},"type":"Feature"},
	{"geometry":{"coordinates":[9.011321,48.717601],"type":"Point"},"properties":{"osm_id":"6594551218","tag":{"amenity":"waste_basket"}},"type":"Feature"},
	{"geometry":{"coordinates":[9.023509,48.721537],"type":"Point"},"properties":{"osm_id":"6594582130","tag":{"amenity":"waste_basket"}},"type":"Feature"},
	{"geometry":{"coordinates":[9.023568,48.721624],"type":"Point"},"properties":{"osm_id":"6594582143","tag":{"amenity":"waste_basket"}},"type":"Feature"},
	{"geometry":{"coordinates":[9.005966,48.71101],"type":"Point"},"properties":{"osm_id":"6598462364","tag":{"amenity":"waste_basket"}},"type":"Feature"},
	{"geometry":{"coordinates":[9.005627,48.711862],"type":"Point"},"properties":{"osm_id":"6598832859","tag":{"amenity":"waste_basket"}},"type":"Feature"},
	{"geometry":{"coordinates":[9.005314,48.714203],"type":"Point"},"properties":{"osm_id":"6598931249","tag":{"amenity":"waste_basket"}},"type":"Feature"},
	{"geometry":{"coordinates":[9.004144,48.713793],"type":"Point"},"properties":{"osm_id":"6598931250","tag":{"amenity":"waste_basket"}},"type":"Feature"},
	{"geometry":{"coordinates":[9.00307,48.712746],"type":"Point"},"properties":{"osm_id":"6598931268","tag":{"amenity":"waste_basket"}},"type":"Feature"},
	{"geometry":{"coordinates":[9.008925,48.715902],"type":"Point"},"properties":{"osm_id":"6598981256","tag":{"amenity":"waste_basket"}},"type":"Feature"},
	{"geometry":{"coordinates":[9.008668,48.715857],"type":"Point"},"properties":{"osm_id":"6598981257","tag":{"amenity":"waste_basket"}},"type":"Feature"},
	{"geometry":{"coordinates":[9.008359,48.715226],"type":"Point"},"properties":{"osm_id":"6598981267","tag":{"amenity":"waste_basket"}},"type":"Feature"},
	{"geometry":{"coordinates":[9.004415,48.714678],"type":"Point"},"properties":{"osm_id":"6598998250","tag":{"amenity":"waste_basket"}},"type":"Feature"},
	{"geometry":{"coordinates":[9.003425,48.714098],"type":"Point"},"properties":{"osm_id":"6599127329","tag":{"amenity":"waste_basket"}},"type":"Feature"},
	{"geometry":{"coordinates":[9.00223,48.712719],"type":"Point"},"properties":{"osm_id":"6599265106","tag":{"amenity":"waste_basket"}},"type":"Feature"},
	{"geometry":{"coordinates":[9.018587,48.716001],"type":"Point"},"properties":{"osm_id":"6638341047","tag":{"amenity":"recycling","recycling:glass_bottles":"yes","recycling_type":"container"}},"type":"Feature"},
	{"geometry":{"coordinates":[9.017209,48.713848],"type":"Point"},"properties":{"osm_id":"6638351582","tag":{"amenity":"waste_basket"}},"type":"Feature"},
	{"geometry":{"coordinates":[9.006854,48.714221],"type":"Point"},"properties":{"osm_id":"6638485017","tag":{"amenity":"waste_basket"}},"type":"Feature"},
	{"geometry":{"coordinates":[9.00645,48.714073],"type":"Point"},"properties":{"osm_id":"6638485019","tag":{"amenity":"waste_basket"}},"type":"Feature"},
	{"geometry":{"coordinates":[9.007062,48.713742],"type":"Point"},"properties":{"osm_id":"6638485026","tag":{"amenity":"waste_basket"}},"type":"Feature"},
	{"geometry":{"coordinates":[9.011301,48.717845],"type":"Point"},"properties":{"osm_id":"6639660274","tag":{"amenity":"waste_basket"}},"type":"Feature"},
	{"geometry":{"coordinates":[9.017775,48.725484],"type":"Point"},"properties":{"osm_id":"6639856319","tag":{"amenity":"waste_basket"}},"type":"Feature"},
	{"geometry":{"coordinates":[9.003596,48.721609],"type":"Point"},"properties":{"osm_id":"6640221827","tag":{"amenity":"waste_basket"}},"type":"Feature"},
	{"geometry":{"coordinates":[8.999358,48.727552],"type":"Point"},"properties":{"osm_id":"6640304090","tag":{"amenity":"recycling","recycling:glass_bottles":"yes","recycling_type":"container"}},"type":"Feature"},
	{"geometry":{"coordinates":[8.990579,48.723633],"type":"Point"},"properties":{"osm_id":"6641382404","tag":{"amenity":"waste_basket"}},"type":"Feature"},
	{"geometry":{"coordinates":[8.982351,48.726859],"type":"Point"},"properties":{"osm_id":"6641615033","tag":{"amenity":"waste_basket"}},"type":"Feature"},
	{"geometry":{"coordinates":[8.980494,48.726864],"type":"Point"},"properties":{"osm_id":"6641692087","tag":{"amenity":"waste_basket"}},"type":"Feature"},
	{"geometry":{"coordinates":[8.980719,48.727288],"type":"Point"},"properties":{"osm_id":"6641692116","tag":{"amenity":"recycling","recycling:cans":"yes","recycling:glass_bottles":"yes","recycling_type":"container"}},"type":"Feature"},
	{"geometry":{"coordinates":[8.976493,48.725481],"type":"Point"},"properties":{"osm_id":"6641802014","tag":{"amenity":"recycling","recycling:clothes":"yes","recycling:shoes":"yes","recycling_type":"container"}},"type":"Feature"},
	{"geometry":{"coordinates":[8.970072,48.722252],"type":"Point"},"properties":{"osm_id":"6642492654","tag":{"amenity":"waste_basket"}},"type":"Feature"},
	{"geometry":{"coordinates":[8.970071,48.722139],"type":"Point"},"properties":{"osm_id":"6642492655","tag":{"amenity":"waste_basket"}},"type":"Feature"},
	{"geometry":{"coordinates":[8.974254,48.725079],"type":"Point"},"properties":{"osm_id":"6642514911","tag":{"amenity":"waste_basket"}},"type":"Feature"},
	{"geometry":{"coordinates":[8.984819,48.716501],"type":"Point"},"properties":{"osm_id":"6643199055","tag":{"amenity":"waste_basket"}},"type":"Feature"},
	{"geometry":{"coordinates":[8.984846,48.718796],"type":"Point"},"properties":{"osm_id":"6643288983","tag":{"amenity":"waste_basket"}},"type":"Feature"},
	{"geometry":{"coordinates":[8.984977,48.724763],"type":"Point"},"properties":{"osm_id":"6643871749","tag":{"amenity":"waste_basket"}},"type":"Feature"},
	{"geometry":{"coordinates":[8.994699,48.71501],"type":"Point"},"properties":{"osm_id":"6644008618","tag":{"amenity":"waste_basket"}},"type":"Feature"},
	{"geometry":{"coordinates":[9.017204,48.704654],"type":"Point"},"properties":{"osm_id":"6646168965","tag":{"amenity":"recycling","recycling:clothes":"yes","recycling_type":"container"}},"type":"Feature"},
	{"geometry":{"coordinates":[9.022435,48.704196],"type":"Point"},"properties":{"osm_id":"6646215912","tag":{"amenity":"waste_basket","bottle_bracket":"yes"}},"type":"Feature"},
	{"geometry":{"coordinates":[9.02599,48.704769],"type":"Point"},"properties":{"osm_id":"6646377569","tag":{"amenity":"waste_basket"}},"type":"Feature"},
	{"geometry":{"coordinates":[9.03782,48.695387],"type":"Point"},"properties":{"osm_id":"6655486331","tag":{"amenity":"waste_basket"}},"type":"Feature"},
	{"geometry":{"coordinates":[8.971728,48.719133],"type":"Point"},"properties":{"osm_id":"6700349495","tag":{"amenity":"waste_basket","waste":"trash"}},"type":"Feature"},
	{"geometry":{"coordinates":[8.971939,48.719119],"type":"Point"},"properties":{"osm_id":"6700786518","tag":{"amenity":"waste_basket","waste":"trash"}},"type":"Feature"},
	{"geometry":{"coordinates":[8.967477,48.728855],"type":"Point"},"properties":{"osm_id":"6700786520","tag":{"amenity":"recycling","recycling:clothes":"yes","recycling_type":"container"}},"type":"Feature"},
	{"geometry":{"coordinates":[9.002152,48.708123],"type":"Point"},"properties":{"osm_id":"6709237891","tag":{"amenity":"waste_basket"}},"type":"Feature"},
	{"geometry":{"coordinates":[8.999269,48.731347],"type":"Point"},"properties":{"osm_id":"7314871927","tag":{"amenity":"recycling","recycling:cans":"yes","recycling:glass_bottles":"yes","recycling_type":"container"}},"type":"Feature"},
	{"geometry":{"coordinates":[9.006725,48.725488],"type":"Point"},"properties":{"osm_id":"7329452254","tag":{"amenity":"recycling","recycling:glass_bottles":"yes","recycling_type":"container"}},"type":"Feature"},
	{"geometry":{"coordinates":[8.983849,48.71649],"type":"Point"},"properties":{"osm_id":"7627101823","tag":{"amenity":"recycling","recycling:glass_bottles":"yes","recycling_type":"container"}},"type":"Feature"},
	{"geometry":{"coordinates":[8.974399,48.722647],"type":"Point"},"properties":{"osm_id":"7634323593","tag":{"amenity":"waste_basket","waste":"trash"}},"type":"Feature"}
]
}
