{
"type": "FeatureCollection",
"features": [
	{"geometry":{"coordinates":[9.017887,48.636099],"type":"Point"},"properties":{"osm_id":"267970922","tag":{"amenity":"recycling","recycling_type":"container"}},"type":"Feature"},
	{"geometry":{"coordinates":[9.013301,48.64422],"type":"Point"},"properties":{"osm_id":"291980604","tag":{"amenity":"recycling","recycling:glass":"yes","recycling:glass_bottles":"yes","recycling_type":"container"}},"type":"Feature"},
	{"geometry":{"coordinates":[9.014936,48.690676],"type":"Point"},"properties":{"osm_id":"294129198","tag":{"amenity":"recycling","recycling:cans":"yes","recycling:glass":"no","recycling:glass_bottles":"yes","recycling_type":"container"}},"type":"Feature"},
	{"geometry":{"coordinates":[9.021249,48.684508],"type":"Point"},"properties":{"osm_id":"294131679","tag":{"amenity":"recycling","recycling:cans":"yes","recycling:glass":"yes","recycling_type":"container"}},"type":"Feature"},
	{"geometry":{"coordinates":[8.999641,48.667442],"type":"Point"},"properties":{"osm_id":"294169350","tag":{"amenity":"recycling","recycling:cans":"yes","recycling:clothes":"yes","recycling:glass_bottles":"yes","recycling:shoes":"yes","recycling_type":"container"}},"type":"Feature"},
	{"geometry":{"coordinates":[9.005157,48.674451],"type":"Point"},"properties":{"osm_id":"305704130","tag":{"amenity":"recycling","recycling:cans":"yes","recycling:glass":"yes","recycling_type":"container"}},"type":"Feature"},
	{"geometry":{"coordinates":[8.998699,48.671944],"type":"Point"},"properties":{"osm_id":"305706002","tag":{"amenity":"recycling","recycling:cans":"yes","recycling:clothes":"yes","recycling:glass_bottles":"yes","recycling_type":"container"}},"type":"Feature"},
	{"geometry":{"coordinates":[9.000098,48.676673],"type":"Point"},"properties":{"osm_id":"310469096","tag":{"amenity":"recycling","recycling:clothes":"yes","recycling_type":"container"}},"type":"Feature"},
	{"geometry":{"coordinates":[9.024493,48.689917],"type":"Point"},"properties":{"osm_id":"313923513","tag":{"amenity":"recycling","location":"overground","recycling_type":"container"}},"type":"Feature"},
	{"geometry":{"coordinates":[9.014015,48.687177],"type":"Point"},"properties":{"osm_id":"313930699","tag":{"amenity":"recycling","recycling:cans":"yes","recycling:glass":"yes","recycling_type":"container"}},"type":"Feature"},
	{"geometry":{"coordinates":[9.011349,48.687865],"type":"Point"},"properties":{"osm_id":"313935543","tag":{"amenity":"recycling","recycling:clothes":"yes","recycling:shoes":"yes","recycling_type":"container"}},"type":"Feature"},
	{"geometry":{"coordinates":[9.017768,48.689321],"type":"Point"},"properties":{"osm_id":"315524857","tag":{"amenity":"recycling","recycling:cans":"yes","recycling:glass_bottles":"yes","recycling_type":"container"}},"type":"Feature"},
	{"geometry":{"coordinates":[9.025649,48.675972],"type":"Point"},"properties":{"osm_id":"315640013","tag":{"amenity":"recycling","recycling:glass_bottles":"yes","recycling_type":"container"}},"type":"Feature"},
	{"geometry":{"coordinates":[9.004624,48.670247],"type":"Point"},"properties":{"osm_id":"315641227","tag":{"amenity":"recycling","recycling:cans":"yes","recycling:clothes":"yes","recycling:glass_bottles":"yes","recycling_type":"container"}},"type":"Feature"},
	{"geometry":{"coordinates":[9.005978,48.6808],"type":"Point"},"properties":{"osm_id":"320193300","tag":{"amenity":"recycling","recycling:cans":"yes","recycling:clothes":"yes","recycling:glass_bottles":"yes","recycling_type":"container"}},"type":"Feature"},
	{"geometry":{"coordinates":[8.997261,48.685888],"type":"Point"},"properties":{"osm_id":"320950840","tag":{"amenity":"recycling","recycling:cans":"yes","recycling:clothes":"yes","recycling:glass":"yes","recycling:glass_bottles":"yes","recycling_type":"container"}},"type":"Feature"},
	{"geometry":{"coordinates":[8.981173,48.68048],"type":"Point"},"properties":{"osm_id":"334421156","tag":{"amenity":"recycling","recycling:glass_bottles":"yes","recycling_type":"container"}},"type":"Feature"},
	{"geometry":{"coordinates":[8.998786,48.63361],"type":"Point"},"properties":{"osm_id":"335053668","tag":{"amenity":"recycling","recycling:clothes":"yes","recycling_type":"container"}},"type":"Feature"},
	{"geometry":{"coordinates":[9.006936,48.645675],"type":"Point"},"properties":{"osm_id":"384425482","tag":{"amenity":"recycling","recycling:clothes":"yes","recycling:glass_bottles":"yes","recycling:shoes":"yes","recycling_type":"container"}},"type":"Feature"},
	{"geometry":{"coordinates":[8.993477,48.670176],"type":"Point"},"properties":{"osm_id":"495659266","tag":{"amenity":"recycling","recycling:cans":"yes","recycling:clothes":"yes","recycling:glass_bottles":"yes","recycling_type":"container"}},"type":"Feature"},
	{"geometry":{"coordinates":[9.013633,48.679881],"type":"Point"},"properties":{"osm_id":"605020737","tag":{"amenity":"waste_basket"}},"type":"Feature"},
	{"geometry":{"coordinates":[9.0144,48.6794],"type":"Point"},"properties":{"osm_id":"605020744","tag":{"amenity":"waste_basket"}},"type":"Feature"},
	{"geometry":{"coordinates":[9.012852,48.680982],"type":"Point"},"properties":{"osm_id":"605020752","tag":{"amenity":"waste_basket"}},"type":"Feature"},
	{"geometry":{"coordinates":[9.014054,48.681087],"type":"Point"},"properties":{"osm_id":"605020755","tag":{"amenity":"waste_basket"}},"type":"Feature"},
	{"geometry":{"coordinates":[9.013567,48.681053],"type":"Point"},"properties":{"osm_id":"605020757","tag":{"amenity":"waste_basket"}},"type":"Feature"},
	{"geometry":{"coordinates":[9.014408,48.681455],"type":"Point"},"properties":{"osm_id":"605688132","tag":{"amenity":"waste_basket"}},"type":"Feature"},
	{"geometry":{"coordinates":[9.014217,48.685803],"type":"Point"},"properties":{"osm_id":"606940828","tag":{"amenity":"waste_basket"}},"type":"Feature"},
	{"geometry":{"coordinates":[9.014181,48.682316],"type":"Point"},"properties":{"osm_id":"616506158","tag":{"amenity":"waste_basket"}},"type":"Feature"},
	{"geometry":{"coordinates":[9.014884,48.682833],"type":"Point"},"properties":{"osm_id":"616883364","tag":{"amenity":"waste_basket"}},"type":"Feature"},
	{"geometry":{"coordinates":[9.015002,48.68291],"type":"Point"},"properties":{"osm_id":"616883367","tag":{"amenity":"waste_basket"}},"type":"Feature"},
	{"geometry":{"coordinates":[9.013745,48.683097],"type":"Point"},"properties":{"osm_id":"616885416","tag":{"amenity":"waste_basket"}},"type":"Feature"},
	{"geometry":{"coordinates":[9.013043,48.683269],"type":"Point"},"properties":{"osm_id":"616885417","tag":{"amenity":"waste_basket"}},"type":"Feature"},
	{"geometry":{"coordinates":[9.01398,48.68412],"type":"Point"},"properties":{"osm_id":"617412279","tag":{"amenity":"waste_basket"}},"type":"Feature"},
	{"geometry":{"coordinates":[9.011002,48.683898],"type":"Point"},"properties":{"osm_id":"618358531","tag":{"amenity":"waste_basket"}},"type":"Feature"},
	{"geometry":{"coordinates":[9.012041,48.683629],"type":"Point"},"properties":{"osm_id":"618358533","tag":{"amenity":"waste_basket"}},"type":"Feature"},
	{"geometry":{"coordinates":[9.01134,48.681668],"type":"Point"},"properties":{"osm_id":"618866075","tag":{"amenity":"waste_basket"}},"type":"Feature"},
	{"geometry":{"coordinates":[9.01097,48.682114],"type":"Point"},"properties":{"osm_id":"618866084","tag":{"amenity":"waste_basket"}},"type":"Feature"},
	{"geometry":{"coordinates":[9.010782,48.682963],"type":"Point"},"properties":{"osm_id":"618866087","tag":{"amenity":"waste_basket"}},"type":"Feature"},
	{"geometry":{"coordinates":[9.011829,48.681768],"type":"Point"},"properties":{"osm_id":"618866101","tag":{"amenity":"waste_basket"}},"type":"Feature"},
	{"geometry":{"coordinates":[9.012379,48.681815],"type":"Point"},"properties":{"osm_id":"618866111","tag":{"amenity":"waste_basket"}},"type":"Feature"},
	{"geometry":{"coordinates":[9.011662,48.682941],"type":"Point"},"properties":{"osm_id":"618866117","tag":{"amenity":"waste_basket"}},"type":"Feature"},
	{"geometry":{"coordinates":[9.011845,48.682551],"type":"Point"},"properties":{"osm_id":"618866119","tag":{"amenity":"waste_basket"}},"type":"Feature"},
	{"geometry":{"coordinates":[9.01002,48.683216],"type":"Point"},"properties":{"osm_id":"618866121","tag":{"amenity":"waste_basket"}},"type":"Feature"},
	{"geometry":{"coordinates":[9.009769,48.684664],"type":"Point"},"properties":{"osm_id":"620135962","tag":{"amenity":"waste_basket"}},"type":"Feature"},
	{"geometry":{"coordinates":[9.010037,48.684942],"type":"Point"},"properties":{"osm_id":"620135964","tag":{"amenity":"waste_basket"}},"type":"Feature"},
	{"geometry":{"coordinates":[9.011702,48.684868],"type":"Point"},"properties":{"osm_id":"622142698","tag":{"amenity":"waste_basket"}},"type":"Feature"},
	{"geometry":{"coordinates":[9.011824,48.68509],"type":"Point"},"properties":{"osm_id":"622720783","tag":{"amenity":"waste_basket"}},"type":"Feature"},
	{"geometry":{"coordinates":[9.012075,48.685064],"type":"Point"},"properties":{"osm_id":"622720785","tag":{"amenity":"waste_basket"}},"type":"Feature"},
	{"geometry":{"coordinates":[9.012374,48.685057],"type":"Point"},"properties":{"osm_id":"622720789","tag":{"amenity":"waste_basket"}},"type":"Feature"},
	{"geometry":{"coordinates":[9.010921,48.685385],"type":"Point"},"properties":{"osm_id":"624717872","tag":{"amenity":"waste_basket"}},"type":"Feature"},
	{"geometry":{"coordinates":[9.012133,48.685491],"type":"Point"},"properties":{"osm_id":"624717923","tag":{"amenity":"waste_basket"}},"type":"Feature"},
	{"geometry":{"coordinates":[9.012036,48.68436],"type":"Point"},"properties":{"osm_id":"632756294","tag":{"amenity":"waste_basket"}},"type":"Feature"},
	{"geometry":{"coordinates":[9.012503,48.685426],"type":"Point"},"properties":{"osm_id":"676245954","tag":{"amenity":"waste_basket"}},"type":"Feature"},
	{"geometry":{"coordinates":[9.015331,48.685392],"type":"Point"},"properties":{"osm_id":"677185585","tag":{"amenity":"waste_basket"}},"type":"Feature"},
	{"geometry":{"coordinates":[8.994311,48.673885],"type":"Point"},"properties":{"osm_id":"679409974","tag":{"amenity":"recycling","recycling:cans":"yes","recycling:glass_bottles":"yes","recycling_type":"container"}},"type":"Feature"},
	{"geometry":{"coordinates":[9.016568,48.681678],"type":"Point"},"properties":{"osm_id":"692939218","tag":{"amenity":"waste_basket"}},"type":"Feature"},
	{"geometry":{"coordinates":[8.996691,48.677964],"type":"Point"},"properties":{"osm_id":"715890054","tag":{"amenity":"recycling","recycling_type":"container"}},"type":"Feature"},
	{"geometry":{"coordinates":[8.99567,48.674036],"type":"Point"},"properties":{"osm_id":"725455670","tag":{"amenity":"recycling","mapillary":"spb_LEiTZ6WvZMk7TGXeFQ","recycling:cans":"yes","recycling:glass":"no","recycling:glass_bottles":"yes","recycling_type":"container","survey:date":"2018-09-21"}},"type":"Feature"},
	{"geometry":{"coordinates":[9.007032,48.672699],"type":"Point"},"properties":{"osm_id":"725539788","tag":{"amenity":"recycling","recycling:cans":"yes","recycling:glass_bottles":"yes","recycling_type":"container"}},"type":"Feature"},
	{"geometry":{"coordinates":[9.014032,48.68265],"type":"Point"},"properties":{"osm_id":"763645474","tag":{"amenity":"waste_basket"}},"type":"Feature"},
	{"geometry":{"coordinates":[9.015464,48.684483],"type":"Point"},"properties":{"osm_id":"763645482","tag":{"amenity":"waste_basket"}},"type":"Feature"},
	{"geometry":{"coordinates":[9.014125,48.6847],"type":"Point"},"properties":{"osm_id":"763659805","tag":{"amenity":"waste_basket"}},"type":"Feature"},
	{"geometry":{"coordinates":[9.016252,48.678618],"type":"Point"},"properties":{"osm_id":"776006571","tag":{"amenity":"waste_basket"}},"type":"Feature"},
	{"geometry":{"coordinates":[9.014862,48.679563],"type":"Point"},"properties":{"osm_id":"776006579","tag":{"amenity":"waste_basket"}},"type":"Feature"},
	{"geometry":{"coordinates":[9.016373,48.678806],"type":"Point"},"properties":{"osm_id":"776006581","tag":{"amenity":"waste_basket"}},"type":"Feature"},
	{"geometry":{"coordinates":[9.011152,48.679146],"type":"Point"},"properties":{"osm_id":"777332124","tag":{"amenity":"recycling","recycling:cans":"yes","recycling:clothes":"yes","recycling:glass_bottles":"yes","recycling_type":"container"}},"type":"Feature"},
	{"geometry":{"coordinates":[9.010653,48.678113],"type":"Point"},"properties":{"osm_id":"777332148","tag":{"amenity":"waste_basket"}},"type":"Feature"},
	{"geometry":{"coordinates":[9.018811,48.678751],"type":"Point"},"properties":{"osm_id":"777332153","tag":{"amenity":"waste_basket"}},"type":"Feature"},
	{"geometry":{"coordinates":[9.037159,48.678579],"type":"Point"},"properties":{"osm_id":"778350788","tag":{"amenity":"recycling","location":"overground","recycling_type":"container"}},"type":"Feature"},
	{"geometry":{"coordinates":[9.017779,48.683657],"type":"Point"},"properties":{"osm_id":"780308718","tag":{"amenity":"waste_basket"}},"type":"Feature"},
	{"geometry":{"coordinates":[9.020656,48.683353],"type":"Point"},"properties":{"osm_id":"786077488","tag":{"amenity":"waste_basket"}},"type":"Feature"},
	{"geometry":{"coordinates":[9.018146,48.683964],"type":"Point"},"properties":{"osm_id":"790501427","tag":{"amenity":"waste_basket"}},"type":"Feature"},
	{"geometry":{"coordinates":[9.021033,48.683028],"type":"Point"},"properties":{"osm_id":"812343962","tag":{"amenity":"waste_basket"}},"type":"Feature"},
	{"geometry":{"coordinates":[9.022551,48.684652],"type":"Point"},"properties":{"osm_id":"815828489","tag":{"amenity":"waste_basket"}},"type":"Feature"},
	{"geometry":{"coordinates":[9.02006,48.6855],"type":"Point"},"properties":{"osm_id":"815828617","tag":{"amenity":"waste_basket"}},"type":"Feature"},
	{"geometry":{"coordinates":[9.022364,48.685709],"type":"Point"},"properties":{"osm_id":"847158500","tag":{"amenity":"waste_basket"}},"type":"Feature"},
	{"geometry":{"coordinates":[9.019605,48.686119],"type":"Point"},"properties":{"osm_id":"847158531","tag":{"amenity":"waste_basket"}},"type":"Feature"},
	{"geometry":{"coordinates":[9.021777,48.685694],"type":"Point"},"properties":{"osm_id":"847158535","tag":{"amenity":"waste_basket"}},"type":"Feature"},
	{"geometry":{"coordinates":[9.024899,48.684865],"type":"Point"},"properties":{"osm_id":"847158583","tag":{"amenity":"waste_basket"}},"type":"Feature"},
	{"geometry":{"coordinates":[9.020872,48.684497],"type":"Point"},"properties":{"osm_id":"847158628","tag":{"amenity":"waste_basket"}},"type":"Feature"},
	{"geometry":{"coordinates":[9.018053,48.686673],"type":"Point"},"properties":{"osm_id":"847313877","tag":{"amenity":"waste_basket"}},"type":"Feature"},
	{"geometry":{"coordinates":[9.017732,48.686456],"type":"Point"},"properties":{"osm_id":"847313904","tag":{"amenity":"waste_basket"}},"type":"Feature"},
	{"geometry":{"coordinates":[9.019844,48.687779],"type":"Point"},"properties":{"osm_id":"847313932","tag":{"amenity":"waste_basket"}},"type":"Feature"},
	{"geometry":{"coordinates":[9.020559,48.688037],"type":"Point"},"properties":{"osm_id":"847313945","tag":{"amenity":"waste_basket"}},"type":"Feature"},
	{"geometry":{"coordinates":[9.018134,48.688355],"type":"Point"},"properties":{"osm_id":"847313961","tag":{"amenity":"waste_basket"}},"type":"Feature"},
	{"geometry":{"coordinates":[9.019182,48.686553],"type":"Point"},"properties":{"osm_id":"847313976","tag":{"amenity":"recycling","recycling:cans":"yes","recycling:glass":"no","recycling:glass_bottles":"yes","recycling_type":"container"}},"type":"Feature"},
	{"geometry":{"coordinates":[9.028132,48.68149],"type":"Point"},"properties":{"osm_id":"877758901","tag":{"amenity":"recycling","location":"overground","recycling_type":"container"}},"type":"Feature"},
	{"geometry":{"coordinates":[9.010238,48.676911],"type":"Point"},"properties":{"osm_id":"891006036","tag":{"amenity":"recycling","recycling:cans":"yes","recycling:glass_bottles":"yes","recycling_type":"container"}},"type":"Feature"},
	{"geometry":{"coordinates":[9.015628,48.686254],"type":"Point"},"properties":{"osm_id":"907458699","tag":{"amenity":"waste_basket"}},"type":"Feature"},
	{"geometry":{"coordinates":[9.01448,48.687155],"type":"Point"},"properties":{"osm_id":"934025783","tag":{"amenity":"waste_basket"}},"type":"Feature"},
	{"geometry":{"coordinates":[9.01769,48.689839],"type":"Point"},"properties":{"osm_id":"995358292","tag":{"amenity":"waste_basket"}},"type":"Feature"},
	{"geometry":{"coordinates":[9.013273,48.690498],"type":"Point"},"properties":{"osm_id":"1039932180","tag":{"amenity":"waste_basket"}},"type":"Feature"},
	{"geometry":{"coordinates":[9.012581,48.690654],"type":"Point"},"properties":{"osm_id":"1039949481","tag":{"amenity":"waste_basket"}},"type":"Feature"},
	{"geometry":{"coordinates":[9.016614,48.690759],"type":"Point"},"properties":{"osm_id":"1041796972","tag":{"amenity":"waste_basket"}},"type":"Feature"},
	{"geometry":{"coordinates":[9.01399,48.690624],"type":"Point"},"properties":{"osm_id":"1041796983","tag":{"amenity":"waste_basket"}},"type":"Feature"},
	{"geometry":{"coordinates":[9.016987,48.69076],"type":"Point"},"properties":{"osm_id":"1041796990","tag":{"amenity":"waste_basket"}},"type":"Feature"},
	{"geometry":{"coordinates":[9.01449,48.690653],"type":"Point"},"properties":{"osm_id":"1041796994","tag":{"amenity":"waste_basket"}},"type":"Feature"},
	{"geometry":{"coordinates":[9.017516,48.690713],"type":"Point"},"properties":{"osm_id":"1041797023","tag":{"amenity":"waste_basket"}},"type":"Feature"},
	{"geometry":{"coordinates":[9.013149,48.686603],"type":"Point"},"properties":{"osm_id":"1084645020","tag":{"amenity":"recycling","recycling:cans":"yes","recycling:clothes":"yes","recycling:glass_bottles":"yes","recycling_type":"container"}},"type":"Feature"},
	{"geometry":{"coordinates":[9.009017,48.677071],"type":"Point"},"properties":{"osm_id":"1105002343","tag":{"amenity":"waste_basket"}},"type":"Feature"},
	{"geometry":{"coordinates":[9.010612,48.67339],"type":"Point"},"properties":{"osm_id":"1128328635","tag":{"amenity":"recycling","recycling:cans":"yes","recycling:clothes":"yes","recycling:glass_bottles":"yes","recycling_type":"container"}},"type":"Feature"},
	{"geometry":{"coordinates":[9.003092,48.672331],"type":"Point"},"properties":{"osm_id":"1270053282","tag":{"amenity":"waste_basket"}},"type":"Feature"},
	{"geometry":{"coordinates":[9.02849,48.643192],"type":"Point"},"properties":{"osm_id":"1380793253","tag":{"amenity":"recycling","recycling:glass":"yes","recycling_type":"container"}},"type":"Feature"},
	{"geometry":{"coordinates":[8.999673,48.687021],"type":"Point"},"properties":{"osm_id":"1408535820","tag":{"amenity":"waste_basket"}},"type":"Feature"},
	{"geometry":{"coordinates":[9.000727,48.687688],"type":"Point"},"properties":{"osm_id":"1408535862","tag":{"amenity":"waste_basket"}},"type":"Feature"},
	{"geometry":{"coordinates":[9.00549,48.684597],"type":"Point"},"properties":{"osm_id":"1883501604","tag":{"amenity":"recycling","recycling:cans":"yes","recycling:glass_bottles":"yes","recycling_type":"container"}},"type":"Feature"},
	{"geometry":{"coordinates":[9.002891,48.682417],"type":"Point"},"properties":{"osm_id":"2056097808","tag":{"amenity":"recycling","recycling:clothes":"yes","recycling:shoes":"yes","recycling_type":"container"}},"type":"Feature"},
	{"geometry":{"coordinates":[9.008582,48.689188],"type":"Point"},"properties":{"osm_id":"2827865601","tag":{"amenity":"recycling","recycling:cans":"yes","recycling:glass_bottles":"yes","recycling_type":"container"}},"type":"Feature"},
	{"geometry":{"coordinates":[9.040635,48.667833],"type":"Point"},"properties":{"osm_id":"2858429161","tag":{"amenity":"recycling","recycling:clothes":"yes","recycling:glass":"yes","recycling:glass_bottles":"yes","recycling_type":"container"}},"type":"Feature"},
	{"geometry":{"coordinates":[9.029107,48.677694],"type":"Point"},"properties":{"osm_id":"2858429298","tag":{"amenity":"recycling","recycling:cans":"yes","recycling:clothes":"yes","recycling:glass_bottles":"yes","recycling_type":"container"}},"type":"Feature"},
	{"geometry":{"coordinates":[9.000163,48.688177],"type":"Point"},"properties":{"osm_id":"2876742736","tag":{"amenity":"recycling","recycling:cans":"no","recycling:clothes":"yes","recycling:glass":"no","recycling:paper":"no","recycling_type":"container"}},"type":"Feature"},
	{"geometry":{"coordinates":[9.014136,48.672091],"type":"Point"},"properties":{"osm_id":"3266966993","tag":{"amenity":"recycling","recycling:cans":"yes","recycling:clothes":"yes","recycling:glass_bottles":"yes","recycling_type":"container"}},"type":"Feature"},
	{"geometry":{"coordinates":[9.052057,48.65107],"type":"Point"},"properties":{"osm_id":"3302855715","tag":{"amenity":"waste_basket"}},"type":"Feature"},
	{"geometry":{"coordinates":[9.001453,48.679899],"type":"Point"},"properties":{"osm_id":"3456201654","tag":{"amenity":"recycling","image":"https://storage11.openstreetcam.org/files/photo/2019/4/16/lth/1376746_31e0d_5cb5b8b48a615.jpg","recycling:cans":"yes","recycling:glass":"no","recycling:glass_bottles":"yes","recycling_type":"container","survey:date":"2019-04-16"}},"type":"Feature"},
	{"geometry":{"coordinates":[8.999281,48.680427],"type":"Point"},"properties":{"osm_id":"3456201655","tag":{"amenity":"recycling","image":"https://storage11.openstreetcam.org/files/photo/2019/4/16/lth/1376746_731c5_5cb5b8ae6b72d.jpg","recycling:cans":"yes","recycling:clothes":"yes","recycling:glass":"no","recycling:glass_bottles":"yes","recycling_type":"container","survey:date":"2019-04-16"}},"type":"Feature"},
	{"geometry":{"coordinates":[8.997907,48.684811],"type":"Point"},"properties":{"osm_id":"3468260326","tag":{"amenity":"recycling","recycling:cans":"yes","recycling:glass":"yes","recycling_type":"container"}},"type":"Feature"},
	{"geometry":{"coordinates":[9.009573,48.681622],"type":"Point"},"properties":{"osm_id":"3574361893","tag":{"amenity":"recycling","recycling:cans":"yes","recycling:clothes":"yes","recycling:glass":"yes","recycling_type":"container"}},"type":"Feature"},
	{"geometry":{"coordinates":[9.003768,48.676557],"type":"Point"},"properties":{"osm_id":"3581522293","tag":{"amenity":"recycling","recycling:cans":"yes","recycling:glass_bottles":"yes","recycling_type":"container"}},"type":"Feature"},
	{"geometry":{"coordinates":[8.984314,48.687132],"type":"Point"},"properties":{"osm_id":"3875134177","tag":{"amenity":"recycling","recycling:cans":"yes","recycling:glass_bottles":"yes","recycling_type":"container"}},"type":"Feature"},
	{"geometry":{"coordinates":[8.980724,48.673841],"type":"Point"},"properties":{"osm_id":"3913412601","tag":{"amenity":"waste_basket"}},"type":"Feature"},
	{"geometry":{"coordinates":[9.002874,48.640907],"type":"Point"},"properties":{"osm_id":"4051058219","tag":{"amenity":"waste_basket"}},"type":"Feature"},
	{"geometry":{"coordinates":[9.007199,48.638901],"type":"Point"},"properties":{"osm_id":"4051094697","tag":{"amenity":"recycling","recycling:clothes":"yes","recycling:glass_bottles":"yes","recycling_type":"container"}},"type":"Feature"},
	{"geometry":{"coordinates":[9.048966,48.661358],"type":"Point"},"properties":{"osm_id":"4169981436","tag":{"amenity":"waste_basket"}},"type":"Feature"},
	{"geometry":{"coordinates":[9.007719,48.636415],"type":"Point"},"properties":{"osm_id":"4176806673","tag":{"amenity":"waste_basket"}},"type":"Feature"},
	{"geometry":{"coordinates":[9.010952,48.65108],"type":"Point"},"properties":{"osm_id":"4177713251","tag":{"amenity":"waste_basket"}},"type":"Feature"},
	{"geometry":{"coordinates":[8.999953,48.66624],"type":"Point"},"properties":{"osm_id":"4178500643","tag":{"amenity":"waste_basket"}},"type":"Feature"},
	{"geometry":{"coordinates":[8.981491,48.679028],"type":"Point"},"properties":{"osm_id":"4184232876","tag":{"amenity":"waste_basket"}},"type":"Feature"},
	{"geometry":{"coordinates":[8.982058,48.679049],"type":"Point"},"properties":{"osm_id":"4184232877","tag":{"amenity":"waste_basket"}},"type":"Feature"},
	{"geometry":{"coordinates":[8.981668,48.679076],"type":"Point"},"properties":{"osm_id":"4184232880","tag":{"amenity":"waste_basket"}},"type":"Feature"},
	{"geometry":{"coordinates":[9.003452,48.688407],"type":"Point"},"properties":{"osm_id":"4410576471","tag":{"amenity":"waste_basket"}},"type":"Feature"},
	{"geometry":{"coordinates":[9.003546,48.688461],"type":"Point"},"properties":{"osm_id":"4410576474","tag":{"amenity":"waste_basket"}},"type":"Feature"},
	{"geometry":{"coordinates":[9.003727,48.688565],"type":"Point"},"properties":{"osm_id":"4410576481","tag":{"amenity":"waste_basket"}},"type":"Feature"},
	{"geometry":{"coordinates":[8.997539,48.688197],"type":"Point"},"properties":{"osm_id":"4412257492","tag":{"amenity":"waste_basket"}},"type":"Feature"},
	{"geometry":{"coordinates":[8.997408,48.688497],"type":"Point"},"properties":{"osm_id":"4412257513","tag":{"amenity":"waste_basket"}},"type":"Feature"},
	{"geometry":{"coordinates":[8.995746,48.688547],"type":"Point"},"properties":{"osm_id":"4412257522","tag":{"amenity":"waste_basket"}},"type":"Feature"},
	{"geometry":{"coordinates":[8.998432,48.688701],"type":"Point"},"properties":{"osm_id":"4412257543","tag":{"amenity":"waste_basket"}},"type":"Feature"},
	{"geometry":{"coordinates":[8.999719,48.688776],"type":"Point"},"properties":{"osm_id":"4412257554","tag":{"amenity":"waste_basket"}},"type":"Feature"},
	{"geometry":{"coordinates":[8.989679,48.68983],"type":"Point"},"properties":{"osm_id":"4413776601","tag":{"amenity":"waste_basket"}},"type":"Feature"},
	{"geometry":{"coordinates":[8.989752,48.689841],"type":"Point"},"properties":{"osm_id":"4413776602","tag":{"amenity":"waste_basket"}},"type":"Feature"},
	{"geometry":{"coordinates":[8.994495,48.6895],"type":"Point"},"properties":{"osm_id":"4413837622","tag":{"amenity":"waste_basket"}},"type":"Feature"},
	{"geometry":{"coordinates":[9.001019,48.688852],"type":"Point"},"properties":{"osm_id":"4413875932","tag":{"amenity":"waste_basket"}},"type":"Feature"},
	{"geometry":{"coordinates":[9.000885,48.689815],"type":"Point"},"properties":{"osm_id":"4413875957","tag":{"amenity":"waste_disposal"}},"type":"Feature"},
	{"geometry":{"coordinates":[9.000861,48.689941],"type":"Point"},"properties":{"osm_id":"4413875961","tag":{"amenity":"waste_basket"}},"type":"Feature"},
	{"geometry":{"coordinates":[9.000804,48.690352],"type":"Point"},"properties":{"osm_id":"4413875971","tag":{"amenity":"waste_basket"}},"type":"Feature"},
	{"geometry":{"coordinates":[9.001703,48.68868],"type":"Point"},"properties":{"osm_id":"4413883706","tag":{"amenity":"waste_basket"}},"type":"Feature"},
	{"geometry":{"coordinates":[9.002032,48.688448],"type":"Point"},"properties":{"osm_id":"4413904024","tag":{"amenity":"waste_basket"}},"type":"Feature"},
	{"geometry":{"coordinates":[9.00281,48.688503],"type":"Point"},"properties":{"osm_id":"4413904027","tag":{"amenity":"waste_basket"}},"type":"Feature"},
	{"geometry":{"coordinates":[9.003745,48.688099],"type":"Point"},"properties":{"osm_id":"4413931577","tag":{"amenity":"waste_basket"}},"type":"Feature"},
	{"geometry":{"coordinates":[9.00091,48.686633],"type":"Point"},"properties":{"osm_id":"4642545420","tag":{"amenity":"recycling","recycling:glass_bottles":"yes","recycling_type":"container"}},"type":"Feature"},
	{"geometry":{"coordinates":[9.000862,48.686672],"type":"Point"},"properties":{"osm_id":"4642545421","tag":{"amenity":"recycling","recycling:clothes":"yes","recycling_type":"container"}},"type":"Feature"},
	{"geometry":{"coordinates":[8.999673,48.689173],"type":"Point"},"properties":{"osm_id":"4917926401","tag":{"amenity":"waste_basket"}},"type":"Feature"},
	{"geometry":{"coordinates":[9.00068,48.689231],"type":"Point"},"properties":{"osm_id":"4917926402","tag":{"amenity":"waste_basket"}},"type":"Feature"},
	{"geometry":{"coordinates":[8.999664,48.689365],"type":"Point"},"properties":{"osm_id":"4917926405","tag":{"amenity":"waste_basket"}},"type":"Feature"},
	{"geometry":{"coordinates":[9.010991,48.683129],"type":"Point"},"properties":{"osm_id":"5571694670","tag":{"amenity":"waste_basket"}},"type":"Feature"},
	{"geometry":{"coordinates":[9.05133,48.634179],"type":"Point"},"properties":{"osm_id":"5685844519","tag":{"amenity":"recycling","recycling:clothes":"yes","recycling:glass":"yes","recycling_type":"container"}},"type":"Feature"},
	{"geometry":{"coordinates":[9.008694,48.644769],"type":"Point"},"properties":{"osm_id":"6125117795","tag":{"amenity":"waste_basket"}},"type":"Feature"},
	{"geometry":{"coordinates":[9.008564,48.644792],"type":"Point"},"properties":{"osm_id":"6125117796","tag":{"amenity":"waste_basket"}},"type":"Feature"},
	{"geometry":{"coordinates":[9.014099,48.684609],"type":"Point"},"properties":{"osm_id":"6286404904","tag":{"amenity":"waste_basket"}},"type":"Feature"},
	{"geometry":{"coordinates":[8.998382,48.677088],"type":"Point"},"properties":{"osm_id":"6331614444","tag":{"amenity":"recycling","recycling:cans":"yes","recycling:clothes":"yes","recycling:glass_bottles":"yes","recycling_type":"container"}},"type":"Feature"},
	{"geometry":{"coordinates":[9.004539,48.677475],"type":"Point"},"properties":{"osm_id":"6404627422","tag":{"amenity":"waste_basket","description":"Ehemalige Haltestelle bis Dezember 2019","waste":"trash"}},"type":"Feature"},
	{"geometry":{"coordinates":[9.009299,48.644429],"type":"Point"},"properties":{"osm_id":"6433580480","tag":{"amenity":"recycling","recycling:clothes":"yes","recycling_type":"container"}},"type":"Feature"},
	{"geometry":{"coordinates":[8.999898,48.674031],"type":"Point"},"properties":{"osm_id":"6580599909","tag":{"amenity":"waste_basket","waste":"trash"}},"type":"Feature"},
	{"geometry":{"coordinates":[9.005273,48.687331],"type":"Point"},"properties":{"osm_id":"6659982916","tag":{"amenity":"waste_basket"}},"type":"Feature"},
	{"geometry":{"coordinates":[9.032138,48.670043],"type":"Point"},"properties":{"osm_id":"6670759474","tag":{"amenity":"waste_basket"}},"type":"Feature"},
	{"geometry":{"coordinates":[9.006708,48.686623],"type":"Point"},"properties":{"osm_id":"6677212458","tag":{"amenity":"waste_basket"}},"type":"Feature"},
	{"geometry":{"coordinates":[9.007298,48.687669],"type":"Point"},"properties":{"osm_id":"6677212473","tag":{"amenity":"waste_basket"}},"type":"Feature"},
	{"geometry":{"coordinates":[9.023408,48.678273],"type":"Point"},"properties":{"osm_id":"6681309690","tag":{"amenity":"waste_basket"}},"type":"Feature"},
	{"geometry":{"coordinates":[8.993352,48.678583],"type":"Point"},"properties":{"osm_id":"6683559772","tag":{"amenity":"recycling","recycling:clothes":"yes","recycling:shoes":"yes","recycling_type":"container"}},"type":"Feature"},
	{"geometry":{"coordinates":[9.00468,48.690826],"type":"Point"},"properties":{"osm_id":"6687134788","tag":{"amenity":"waste_basket"}},"type":"Feature"},
	{"geometry":{"coordinates":[9.000028,48.689849],"type":"Point"},"properties":{"osm_id":"6687179441","tag":{"amenity":"waste_basket"}},"type":"Feature"},
	{"geometry":{"coordinates":[9.000754,48.690725],"type":"Point"},"properties":{"osm_id":"6687179449","tag":{"amenity":"waste_basket"}},"type":"Feature"},
	{"geometry":{"coordinates":[8.99703,48.689418],"type":"Point"},"properties":{"osm_id":"6687311291","tag":{"amenity":"waste_basket"}},"type":"Feature"},
	{"geometry":{"coordinates":[9.010577,48.676779],"type":"Point"},"properties":{"osm_id":"7194027037","tag":{"amenity":"waste_basket","waste":"trash"}},"type":"Feature"},
	{"geometry":{"coordinates":[9.000203,48.669458],"type":"Point"},"properties":{"osm_id":"7390596683","tag":{"amenity":"waste_basket","waste":"trash"}},"type":"Feature"},
	{"geometry":{"coordinates":[8.998156,48.671647],"type":"Point"},"properties":{"osm_id":"7455134645","tag":{"amenity":"waste_basket","waste":"trash"}},"type":"Feature"},
	{"geometry":{"coordinates":[9.028027,48.680048],"type":"Point"},"properties":{"osm_id":"7468337949","tag":{"amenity":"recycling","recycling:cans":"yes","recycling:clothes":"yes","recycling:glass_bottles":"yes","recycling_type":"container"}},"type":"Feature"},
	{"geometry":{"coordinates":[9.007252,48.682219],"type":"Point"},"properties":{"osm_id":"7868527208","tag":{"amenity":"waste_disposal"}},"type":"Feature"},
	{"geometry":{"coordinates":[9.020822,48.689049],"type":"Point"},"properties":{"osm_id":"7925536534","tag":{"amenity":"waste_basket","waste":"trash"}},"type":"Feature"},
	{"geometry":{"coordinates":[9.012942,48.689704],"type":"Point"},"properties":{"osm_id":"7951886023","tag":{"amenity":"waste_basket","waste":"trash"}},"type":"Feature"}
]
}
