{
"type": "FeatureCollection",
"features": [
	{"geometry":{"coordinates":[9.00845,48.540303],"type":"Point"},"properties":{"osm_id":"129963550","tag":{"amenity":"recycling","recycling:glass_bottles":"yes","recycling_type":"container"}},"type":"Feature"},
	{"geometry":{"coordinates":[8.974905,48.524089],"type":"Point"},"properties":{"osm_id":"280553690","tag":{"amenity":"recycling","recycling:glass_bottles":"yes","recycling_type":"container"}},"type":"Feature"},
	{"geometry":{"coordinates":[9.051492,48.522749],"type":"Point"},"properties":{"osm_id":"292481560","tag":{"amenity":"recycling","recycling:glass_bottles":"yes","recycling_type":"container"}},"type":"Feature"},
	{"geometry":{"coordinates":[9.046549,48.522124],"type":"Point"},"properties":{"osm_id":"293851129","tag":{"amenity":"recycling","recycling:glass_bottles":"yes","recycling_type":"container"}},"type":"Feature"},
	{"geometry":{"coordinates":[9.037834,48.522108],"type":"Point"},"properties":{"osm_id":"338674675","tag":{"amenity":"recycling","location":"overground","recycling:glass_bottles":"yes","recycling_type":"container"}},"type":"Feature"},
	{"geometry":{"coordinates":[9.04822,48.534768],"type":"Point"},"properties":{"osm_id":"383992507","tag":{"amenity":"recycling","recycling:glass_bottles":"yes","recycling_type":"container"}},"type":"Feature"},
	{"geometry":{"coordinates":[9.045549,48.531622],"type":"Point"},"properties":{"osm_id":"388688613","tag":{"amenity":"recycling","recycling:glass_bottles":"yes","recycling_type":"container"}},"type":"Feature"},
	{"geometry":{"coordinates":[8.968092,48.552376],"type":"Point"},"properties":{"osm_id":"743137476","tag":{"amenity":"recycling","recycling:clothes":"yes","recycling_type":"container"}},"type":"Feature"},
	{"geometry":{"coordinates":[8.98206,48.525793],"type":"Point"},"properties":{"osm_id":"1657542751","tag":{"amenity":"waste_basket"}},"type":"Feature"},
	{"geometry":{"coordinates":[9.035467,48.518843],"type":"Point"},"properties":{"highway":"bus_stop","name":"Schw\u00c3\u00a4rzlocher Stra\u00c3\u009fe 111","osm_id":"1750361131","ref":"5404","tag":{"amenity":"waste_basket","bench":"no","bin":"yes","network":"naldo","operator":"Stadtverkehr T\u00c3\u00bcbingen","passenger_information_display":"no","public_transport":"platform","shelter":"no","tactile_paving":"no","wheelchair":"yes"}},"type":"Feature"},
	{"geometry":{"coordinates":[9.044068,48.540697],"type":"Point"},"properties":{"osm_id":"1821498679","tag":{"amenity":"recycling","recycling:glass_bottles":"yes","recycling_type":"container"}},"type":"Feature"},
	{"geometry":{"coordinates":[9.039625,48.539174],"type":"Point"},"properties":{"osm_id":"1823387222","tag":{"amenity":"waste_basket"}},"type":"Feature"},
	{"geometry":{"coordinates":[9.038267,48.539212],"type":"Point"},"properties":{"osm_id":"1823387224","tag":{"amenity":"waste_basket"}},"type":"Feature"},
	{"geometry":{"coordinates":[9.040413,48.539366],"type":"Point"},"properties":{"osm_id":"1823387228","tag":{"amenity":"waste_basket"}},"type":"Feature"},
	{"geometry":{"coordinates":[9.040923,48.53949],"type":"Point"},"properties":{"osm_id":"1823402106","tag":{"amenity":"waste_basket"}},"type":"Feature"},
	{"geometry":{"coordinates":[9.043933,48.541139],"type":"Point"},"properties":{"osm_id":"1846286762","tag":{"amenity":"waste_basket"}},"type":"Feature"},
	{"geometry":{"coordinates":[8.974322,48.553349],"type":"Point"},"properties":{"osm_id":"2213651177","tag":{"amenity":"recycling","recycling:clothes":"yes","recycling:glass_bottles":"yes","recycling_type":"container"}},"type":"Feature"},
	{"geometry":{"coordinates":[8.966965,48.557244],"type":"Point"},"properties":{"osm_id":"2213651178","tag":{"amenity":"recycling","recycling:clothes":"yes","recycling:glass_bottles":"yes","recycling_type":"container"}},"type":"Feature"},
	{"geometry":{"coordinates":[9.038346,48.537885],"type":"Point"},"properties":{"osm_id":"2402567015","tag":{"amenity":"waste_basket"}},"type":"Feature"},
	{"geometry":{"coordinates":[9.036168,48.534605],"type":"Point"},"properties":{"osm_id":"2405383418","tag":{"amenity":"waste_basket"}},"type":"Feature"},
	{"geometry":{"coordinates":[9.031005,48.537937],"type":"Point"},"properties":{"osm_id":"2604383480","tag":{"amenity":"waste_basket"}},"type":"Feature"},
	{"geometry":{"coordinates":[9.031616,48.537983],"type":"Point"},"properties":{"osm_id":"2604383506","tag":{"amenity":"waste_basket"}},"type":"Feature"},
	{"geometry":{"coordinates":[9.031662,48.53818],"type":"Point"},"properties":{"osm_id":"2604383565","tag":{"amenity":"waste_basket"}},"type":"Feature"},
	{"geometry":{"coordinates":[9.031693,48.538284],"type":"Point"},"properties":{"osm_id":"2604383602","tag":{"amenity":"waste_basket"}},"type":"Feature"},
	{"geometry":{"coordinates":[9.04256,48.529319],"type":"Point"},"properties":{"osm_id":"2811861799","tag":{"amenity":"recycling","recycling:cans":"no","recycling:clothes":"yes","recycling:glass":"yes","recycling:paper":"no","recycling_type":"container"}},"type":"Feature"},
	{"geometry":{"coordinates":[9.028809,48.52436],"type":"Point"},"properties":{"osm_id":"2920519368","tag":{"amenity":"recycling","recycling:clothes":"yes","recycling_type":"container"}},"type":"Feature"},
	{"geometry":{"coordinates":[9.038839,48.539135],"type":"Point"},"properties":{"osm_id":"2923659896","tag":{"amenity":"waste_basket"}},"type":"Feature"},
	{"geometry":{"coordinates":[9.049344,48.521194],"type":"Point"},"properties":{"osm_id":"3002801934","tag":{"amenity":"waste_basket"}},"type":"Feature"},
	{"geometry":{"coordinates":[9.050915,48.521347],"type":"Point"},"properties":{"osm_id":"3186612261","tag":{"amenity":"waste_basket"}},"type":"Feature"},
	{"geometry":{"coordinates":[9.050672,48.521622],"type":"Point"},"properties":{"osm_id":"3186612661","tag":{"amenity":"waste_basket"}},"type":"Feature"},
	{"geometry":{"coordinates":[9.052352,48.52057],"type":"Point"},"properties":{"osm_id":"3188604561","tag":{"amenity":"waste_basket"}},"type":"Feature"},
	{"geometry":{"coordinates":[8.988391,48.527856],"type":"Point"},"properties":{"osm_id":"3386252298","tag":{"amenity":"waste_basket"}},"type":"Feature"},
	{"geometry":{"coordinates":[8.965833,48.554798],"type":"Point"},"properties":{"osm_id":"4303514124","tag":{"amenity":"waste_basket"}},"type":"Feature"},
	{"geometry":{"coordinates":[9.033666,48.537371],"type":"Point"},"properties":{"barrier":"gate","osm_id":"4319421019"},"type":"Feature"},
	{"geometry":{"coordinates":[9.047019,48.52291],"type":"Point"},"properties":{"osm_id":"4319756991","tag":{"amenity":"waste_basket"}},"type":"Feature"},
	{"geometry":{"coordinates":[8.966161,48.554288],"type":"Point"},"properties":{"osm_id":"4917775405","tag":{"amenity":"waste_basket"}},"type":"Feature"},
	{"geometry":{"coordinates":[8.985241,48.523933],"type":"Point"},"properties":{"osm_id":"5012797384","tag":{"amenity":"waste_basket"}},"type":"Feature"},
	{"geometry":{"coordinates":[8.980142,48.526968],"type":"Point"},"properties":{"osm_id":"5039978620","tag":{"amenity":"waste_basket"}},"type":"Feature"},
	{"geometry":{"coordinates":[8.979965,48.527013],"type":"Point"},"properties":{"osm_id":"5039978923","tag":{"amenity":"waste_basket"}},"type":"Feature"},
	{"geometry":{"coordinates":[9.04987,48.52117],"type":"Point"},"properties":{"osm_id":"5163243815","tag":{"amenity":"waste_basket"}},"type":"Feature"},
	{"geometry":{"coordinates":[8.987233,48.523498],"type":"Point"},"properties":{"osm_id":"5167267190","tag":{"amenity":"waste_basket"}},"type":"Feature"},
	{"geometry":{"coordinates":[8.987897,48.523352],"type":"Point"},"properties":{"osm_id":"5167267192","tag":{"amenity":"waste_basket"}},"type":"Feature"},
	{"geometry":{"coordinates":[9.05056,48.520897],"type":"Point"},"properties":{"osm_id":"5167316155","tag":{"amenity":"waste_basket"}},"type":"Feature"},
	{"geometry":{"coordinates":[8.97789,48.526903],"type":"Point"},"properties":{"osm_id":"5321402405","tag":{"amenity":"waste_basket","waste":"trash"}},"type":"Feature"},
	{"geometry":{"coordinates":[9.0284,48.524211],"type":"Point"},"properties":{"osm_id":"5437099104","tag":{"amenity":"recycling","recycling":"metal","recycling:scrap_metal":"yes","recycling_type":"container"}},"type":"Feature"},
	{"geometry":{"coordinates":[9.028594,48.524372],"type":"Point"},"properties":{"osm_id":"5513837635","tag":{"amenity":"recycling","recycling:clothes":"yes","recycling_type":"container"}},"type":"Feature"},
	{"geometry":{"coordinates":[9.028613,48.524342],"type":"Point"},"properties":{"osm_id":"5513837636","tag":{"amenity":"recycling","recycling:shoes":"yes","recycling_type":"container"}},"type":"Feature"},
	{"geometry":{"coordinates":[9.046243,48.522451],"type":"Point"},"properties":{"osm_id":"5615623904","tag":{"amenity":"waste_basket"}},"type":"Feature"},
	{"geometry":{"coordinates":[9.036618,48.520004],"type":"Point"},"properties":{"osm_id":"5905894095","tag":{"amenity":"recycling","recycling:clothes":"yes"}},"type":"Feature"},
	{"geometry":{"coordinates":[9.051418,48.521353],"type":"Point"},"properties":{"osm_id":"6026764035","tag":{"amenity":"waste_basket"}},"type":"Feature"},
	{"geometry":{"coordinates":[9.052101,48.521122],"type":"Point"},"properties":{"osm_id":"6026764036","tag":{"amenity":"waste_basket"}},"type":"Feature"},
	{"geometry":{"coordinates":[8.982127,48.524648],"type":"Point"},"properties":{"osm_id":"6389367479","tag":{"amenity":"recycling","recycling:clothes":"yes","recycling_type":"container"}},"type":"Feature"},
	{"geometry":{"coordinates":[8.981009,48.524895],"type":"Point"},"properties":{"osm_id":"6390642000","tag":{"amenity":"recycling","recycling:clothes":"yes","recycling_type":"container"}},"type":"Feature"},
	{"geometry":{"coordinates":[9.045544,48.531642],"type":"Point"},"properties":{"osm_id":"6700650962","tag":{"amenity":"waste_basket"}},"type":"Feature"},
	{"geometry":{"coordinates":[9.049374,48.521403],"type":"Point"},"properties":{"osm_id":"6708384791","tag":{"amenity":"waste_basket"}},"type":"Feature"},
	{"geometry":{"coordinates":[9.046546,48.536323],"type":"Point"},"properties":{"osm_id":"6712447006","tag":{"amenity":"waste_basket"}},"type":"Feature"},
	{"geometry":{"coordinates":[9.048775,48.519033],"type":"Point"},"properties":{"osm_id":"6770504803","tag":{"amenity":"waste_basket","waste":"trash"}},"type":"Feature"},
	{"geometry":{"coordinates":[9.048476,48.519151],"type":"Point"},"properties":{"osm_id":"6778868913","tag":{"amenity":"waste_basket","waste":"trash"}},"type":"Feature"},
	{"geometry":{"coordinates":[9.042949,48.527967],"type":"Point"},"properties":{"osm_id":"6980173922","tag":{"amenity":"recycling","operator":"Alba","recycling:glass":"yes","recycling_type":"container"}},"type":"Feature"},
	{"geometry":{"coordinates":[9.04068,48.528482],"type":"Point"},"properties":{"osm_id":"7002999027","tag":{"access":"private","amenity":"recycling","recycling:waste":"yes","recycling_type":"container"}},"type":"Feature"},
	{"geometry":{"coordinates":[9.044696,48.527873],"type":"Point"},"properties":{"osm_id":"7101886073","tag":{"amenity":"waste_basket"}},"type":"Feature"},
	{"geometry":{"coordinates":[9.038831,48.522809],"type":"Point"},"properties":{"osm_id":"7276275134","tag":{"amenity":"waste_basket","waste":"trash"}},"type":"Feature"},
	{"geometry":{"coordinates":[9.010502,48.539108],"type":"Point"},"properties":{"osm_id":"7650379790","tag":{"amenity":"waste_basket","waste":"trash"}},"type":"Feature"},
	{"geometry":{"coordinates":[9.007705,48.538952],"type":"Point"},"properties":{"osm_id":"7700595186","tag":{"amenity":"waste_basket"}},"type":"Feature"},
	{"geometry":{"coordinates":[9.051411,48.521685],"type":"Point"},"properties":{"osm_id":"7896213371","tag":{"amenity":"waste_basket"}},"type":"Feature"},
	{"geometry":{"coordinates":[9.046345,48.522662],"type":"Point"},"properties":{"osm_id":"7932214591","tag":{"amenity":"waste_basket","waste":"trash"}},"type":"Feature"},
	{"geometry":{"coordinates":[9.046566,48.522666],"type":"Point"},"properties":{"osm_id":"7932214592","tag":{"amenity":"waste_basket","waste":"trash"}},"type":"Feature"}
]
}
