{
"type": "FeatureCollection",
"features": [
	{"geometry":{"coordinates":[8.994372,48.48432],"type":"Point"},"properties":{"osm_id":"269549397","tag":{"amenity":"recycling","recycling:glass_bottles":"yes","recycling_type":"container"}},"type":"Feature"},
	{"geometry":{"coordinates":[9.018085,48.485881],"type":"Point"},"properties":{"osm_id":"269549740","tag":{"amenity":"recycling","location":"overground","recycling:glass_bottles":"yes","recycling:shoes":"yes","recycling_type":"container"}},"type":"Feature"},
	{"geometry":{"coordinates":[9.052176,48.499894],"type":"Point"},"properties":{"osm_id":"279391878","tag":{"amenity":"recycling","check_date:recycling":"2020-09-26","recycling:glass_bottles":"yes","recycling_type":"container"}},"type":"Feature"},
	{"geometry":{"coordinates":[9.030042,48.497003],"type":"Point"},"properties":{"osm_id":"327281542","tag":{"amenity":"recycling","recycling:clothes":"yes","recycling:glass_bottles":"yes","recycling:shoes":"yes","recycling_type":"container"}},"type":"Feature"},
	{"geometry":{"coordinates":[9.049633,48.515296],"type":"Point"},"properties":{"osm_id":"332494337","tag":{"amenity":"recycling","check_date:recycling":"2020-10-07","recycling:glass_bottles":"yes","recycling_type":"container"}},"type":"Feature"},
	{"geometry":{"coordinates":[9.000575,48.49976],"type":"Point"},"properties":{"osm_id":"377001238","tag":{"amenity":"recycling","check_date:recycling":"2020-10-30","opening_hours":"Mo-Fr 07:00-20:00","recycling:glass":"yes","recycling:glass_bottles":"yes","recycling_type":"container","wheelchair":"yes"}},"type":"Feature"},
	{"geometry":{"coordinates":[9.000031,48.500635],"type":"Point"},"properties":{"osm_id":"377001255","tag":{"amenity":"recycling","operator":"Arbeiter-Samariter-Bund","recycling:clothes":"yes","recycling:shoes":"yes","recycling_type":"container"}},"type":"Feature"},
	{"geometry":{"coordinates":[9.051935,48.51171],"type":"Point"},"properties":{"osm_id":"381162430","tag":{"amenity":"recycling","recycling:glass_bottles":"yes","recycling_type":"container"}},"type":"Feature"},
	{"geometry":{"coordinates":[9.032536,48.512799],"type":"Point"},"properties":{"osm_id":"559993729","tag":{"amenity":"recycling","location":"overground","recycling:glass_bottles":"yes","recycling_type":"container"}},"type":"Feature"},
	{"geometry":{"coordinates":[8.994277,48.481846],"type":"Point"},"properties":{"osm_id":"799526387","tag":{"amenity":"recycling","check_date:recycling":"2020-09-30","operator":"ASB","recycling:clothes":"yes","recycling:shoes":"yes","recycling_type":"container"}},"type":"Feature"},
	{"geometry":{"coordinates":[9.048018,48.508481],"type":"Point"},"properties":{"osm_id":"845866478","tag":{"amenity":"recycling","recycling:glass":"no","recycling:glass_bottles":"yes","recycling:scrap_metal":"yes","recycling_type":"container"}},"type":"Feature"},
	{"geometry":{"coordinates":[9.035459,48.510963],"type":"Point"},"properties":{"osm_id":"1572260342","tag":{"amenity":"recycling","check_date:recycling":"2020-12-29","recycling:glass_bottles":"yes","recycling_type":"container"}},"type":"Feature"},
	{"geometry":{"coordinates":[8.993331,48.498425],"type":"Point"},"properties":{"osm_id":"2296444137","tag":{"amenity":"recycling","check_date:recycling":"2020-11-13","recycling:glass_bottles":"yes","recycling_type":"container"}},"type":"Feature"},
	{"geometry":{"coordinates":[8.982419,48.506163],"type":"Point"},"properties":{"osm_id":"4300570292","tag":{"amenity":"waste_basket"}},"type":"Feature"},
	{"geometry":{"coordinates":[8.982356,48.506393],"type":"Point"},"properties":{"osm_id":"4328306307","tag":{"amenity":"waste_basket"}},"type":"Feature"},
	{"geometry":{"coordinates":[8.965633,48.502355],"type":"Point"},"properties":{"osm_id":"5153558817","tag":{"amenity":"waste_basket"}},"type":"Feature"},
	{"geometry":{"coordinates":[8.965722,48.502466],"type":"Point"},"properties":{"osm_id":"5153558819","tag":{"amenity":"waste_basket","check_date":"2020-12-12"}},"type":"Feature"},
	{"geometry":{"coordinates":[9.04954,48.516219],"type":"Point"},"properties":{"osm_id":"5996179988","tag":{"amenity":"waste_basket","check_date":"2020-12-26"}},"type":"Feature"},
	{"geometry":{"coordinates":[9.046291,48.498715],"type":"Point"},"properties":{"osm_id":"6066196887","tag":{"amenity":"recycling","check_date:recycling":"2020-09-29","recycling:glass_bottles":"yes","recycling_type":"container"}},"type":"Feature"},
	{"geometry":{"coordinates":[8.985893,48.507588],"type":"Point"},"properties":{"osm_id":"7235618596","tag":{"amenity":"waste_basket"}},"type":"Feature"},
	{"geometry":{"coordinates":[9.047734,48.513031],"type":"Point"},"properties":{"osm_id":"7611327518","tag":{"amenity":"recycling","recycling:glass_bottles":"yes","recycling_type":"container"}},"type":"Feature"},
	{"geometry":{"coordinates":[9.049132,48.512267],"type":"Point"},"properties":{"osm_id":"7611327537","tag":{"amenity":"waste_basket"}},"type":"Feature"},
	{"geometry":{"coordinates":[9.011908,48.486548],"type":"Point"},"properties":{"osm_id":"7617623287","tag":{"amenity":"waste_basket"}},"type":"Feature"},
	{"geometry":{"coordinates":[8.982529,48.506467],"type":"Point"},"properties":{"osm_id":"7693097552","tag":{"amenity":"waste_basket"}},"type":"Feature"},
	{"geometry":{"coordinates":[9.045335,48.495777],"type":"Point"},"properties":{"osm_id":"8096656858","tag":{"amenity":"waste_basket","waste":"dog_excrement"}},"type":"Feature"},
	{"geometry":{"coordinates":[9.03771,48.489644],"type":"Point"},"properties":{"osm_id":"8096687515","tag":{"amenity":"waste_basket"}},"type":"Feature"},
	{"geometry":{"coordinates":[8.978168,48.473785],"type":"Point"},"properties":{"osm_id":"8097574045","tag":{"amenity":"waste_basket","waste":"dog_excrement"}},"type":"Feature"},
	{"geometry":{"coordinates":[9.000624,48.476985],"type":"Point"},"properties":{"osm_id":"8108677639","tag":{"amenity":"waste_basket","waste":"dog_excrement"}},"type":"Feature"},
	{"geometry":{"coordinates":[9.048109,48.500141],"type":"Point"},"properties":{"osm_id":"8342293263","tag":{"amenity":"waste_basket"}},"type":"Feature"},
	{"geometry":{"coordinates":[9.032653,48.490131],"type":"Point"},"properties":{"osm_id":"8342293264","tag":{"amenity":"waste_basket"}},"type":"Feature"},
	{"geometry":{"coordinates":[9.049329,48.499609],"type":"Point"},"properties":{"osm_id":"8422517672","tag":{"amenity":"waste_basket"}},"type":"Feature"},
	{"geometry":{"coordinates":[9.035744,48.489804],"type":"Point"},"properties":{"osm_id":"8460620429","tag":{"amenity":"waste_basket"}},"type":"Feature"},
	{"geometry":{"coordinates":[9.030973,48.507757],"type":"Point"},"properties":{"osm_id":"8463626858","tag":{"amenity":"waste_basket"}},"type":"Feature"},
	{"geometry":{"coordinates":[8.999367,48.50162],"type":"Point"},"properties":{"osm_id":"8463657850","tag":{"amenity":"waste_basket"}},"type":"Feature"},
	{"geometry":{"coordinates":[8.969557,48.502134],"type":"Point"},"properties":{"osm_id":"8463688535","tag":{"amenity":"waste_basket"}},"type":"Feature"},
	{"geometry":{"coordinates":[8.970966,48.504134],"type":"Point"},"properties":{"osm_id":"8463690150","tag":{"amenity":"waste_basket"}},"type":"Feature"},
	{"geometry":{"coordinates":[8.971374,48.473372],"type":"Point"},"properties":{"osm_id":"8467731342","tag":{"amenity":"waste_basket"}},"type":"Feature"},
	{"geometry":{"coordinates":[8.970551,48.511016],"type":"Point"},"properties":{"osm_id":"8479389402","tag":{"amenity":"waste_basket"}},"type":"Feature"},
	{"geometry":{"coordinates":[8.974553,48.508267],"type":"Point"},"properties":{"osm_id":"8491517669","tag":{"amenity":"waste_basket"}},"type":"Feature"},
	{"geometry":{"coordinates":[8.991357,48.498722],"type":"Point"},"properties":{"osm_id":"8517681284","tag":{"amenity":"waste_basket"}},"type":"Feature"},
	{"geometry":{"coordinates":[8.975748,48.510318],"type":"Point"},"properties":{"osm_id":"8540860560","tag":{"amenity":"waste_basket"}},"type":"Feature"},
	{"geometry":{"coordinates":[8.975849,48.509867],"type":"Point"},"properties":{"osm_id":"8540898594","tag":{"amenity":"waste_basket"}},"type":"Feature"},
	{"geometry":{"coordinates":[9.002651,48.500602],"type":"Point"},"properties":{"osm_id":"8541235021","tag":{"amenity":"waste_basket"}},"type":"Feature"},
	{"geometry":{"coordinates":[8.964934,48.507455],"type":"Point"},"properties":{"osm_id":"8541300851","tag":{"amenity":"recycling","location":"overground","recycling:glass_bottles":"yes","recycling_type":"container"}},"type":"Feature"},
	{"geometry":{"coordinates":[9.050025,48.50394],"type":"Point"},"properties":{"osm_id":"8549860514","tag":{"amenity":"waste_basket"}},"type":"Feature"},
	{"geometry":{"coordinates":[9.037704,48.489649],"type":"Point"},"properties":{"osm_id":"8556403726","tag":{"amenity":"waste_basket"}},"type":"Feature"},
	{"geometry":{"coordinates":[8.976045,48.473018],"type":"Point"},"properties":{"osm_id":"8564171712","tag":{"amenity":"waste_basket"}},"type":"Feature"},
	{"geometry":{"coordinates":[8.971059,48.476679],"type":"Point"},"properties":{"osm_id":"8564199644","tag":{"amenity":"recycling","location":"overground","operator":"Aktion Hoffnung","recycling:clothes":"yes","recycling:shoes":"yes","recycling_type":"container"}},"type":"Feature"},
	{"geometry":{"coordinates":[8.973178,48.477122],"type":"Point"},"properties":{"osm_id":"8564201642","tag":{"amenity":"waste_basket"}},"type":"Feature"},
	{"geometry":{"coordinates":[8.972667,48.478876],"type":"Point"},"properties":{"osm_id":"8564260812","tag":{"amenity":"recycling","location":"overground","recycling:glass_bottles":"yes","recycling_type":"container"}},"type":"Feature"},
	{"geometry":{"coordinates":[8.997803,48.481173],"type":"Point"},"properties":{"osm_id":"8575092404","tag":{"amenity":"waste_basket"}},"type":"Feature"},
	{"geometry":{"coordinates":[8.997349,48.483185],"type":"Point"},"properties":{"osm_id":"8612027020","tag":{"amenity":"waste_basket"}},"type":"Feature"},
	{"geometry":{"coordinates":[9.046619,48.502611],"type":"Point"},"properties":{"osm_id":"8622157072","tag":{"amenity":"waste_basket"}},"type":"Feature"},
	{"geometry":{"coordinates":[9.000568,48.499741],"type":"Point"},"properties":{"osm_id":"8633148093","tag":{"amenity":"waste_basket"}},"type":"Feature"},
	{"geometry":{"coordinates":[9.001631,48.500641],"type":"Point"},"properties":{"osm_id":"8711875457","tag":{"amenity":"waste_basket"}},"type":"Feature"},
	{"geometry":{"coordinates":[8.995604,48.501389],"type":"Point"},"properties":{"osm_id":"8718406858","tag":{"amenity":"waste_basket"}},"type":"Feature"},
	{"geometry":{"coordinates":[8.995694,48.501415],"type":"Point"},"properties":{"osm_id":"8718406866","tag":{"amenity":"recycling","operator":"Aktion Hoffnung","recycling:clothes":"yes","recycling:shoes":"yes","recycling_type":"container"}},"type":"Feature"},
	{"geometry":{"coordinates":[8.991401,48.498441],"type":"Point"},"properties":{"osm_id":"8731395393","tag":{"amenity":"waste_basket","waste":"trash"}},"type":"Feature"},
	{"geometry":{"coordinates":[8.992459,48.498448],"type":"Point"},"properties":{"osm_id":"8735782259","tag":{"amenity":"waste_basket","waste":"trash"}},"type":"Feature"},
	{"geometry":{"coordinates":[8.991948,48.498335],"type":"Point"},"properties":{"osm_id":"8735782266","tag":{"amenity":"waste_basket","waste":"trash"}},"type":"Feature"},
	{"geometry":{"coordinates":[9.000665,48.499595],"type":"Point"},"properties":{"osm_id":"8775472524","tag":{"amenity":"recycling","recycling_type":"container"}},"type":"Feature"},
	{"geometry":{"coordinates":[8.971247,48.480552],"type":"Point"},"properties":{"osm_id":"8792706233","tag":{"amenity":"waste_basket"}},"type":"Feature"},
	{"geometry":{"coordinates":[8.970442,48.511021],"type":"Point"},"properties":{"osm_id":"8814674191","tag":{"amenity":"waste_basket"}},"type":"Feature"},
	{"geometry":{"coordinates":[8.969885,48.510984],"type":"Point"},"properties":{"osm_id":"8814682817","tag":{"amenity":"waste_basket"}},"type":"Feature"},
	{"geometry":{"coordinates":[9.039166,48.512301],"type":"Point"},"properties":{"osm_id":"8867368196","tag":{"amenity":"waste_basket"}},"type":"Feature"},
	{"geometry":{"coordinates":[9.038781,48.51234],"type":"Point"},"properties":{"osm_id":"8867368197","tag":{"amenity":"waste_basket"}},"type":"Feature"},
	{"geometry":{"coordinates":[8.993037,48.501063],"type":"Point"},"properties":{"osm_id":"8869850447","tag":{"amenity":"waste_basket"}},"type":"Feature"},
	{"geometry":{"coordinates":[8.992177,48.498099],"type":"Point"},"properties":{"osm_id":"8883115383","tag":{"amenity":"waste_basket"}},"type":"Feature"},
	{"geometry":{"coordinates":[9.05116,48.507532],"type":"Point"},"properties":{"osm_id":"8886795165","tag":{"amenity":"recycling","recycling:clothes":"yes","recycling:shoes":"yes","recycling_type":"container"}},"type":"Feature"},
	{"geometry":{"coordinates":[8.99331,48.501229],"type":"Point"},"properties":{"osm_id":"8889803517","tag":{"amenity":"recycling","operator":"Hezex Textilverwertung GmbH","recycling:clothes":"yes","recycling:shoes":"yes","recycling_type":"container","survey:date":"2021-07-03"}},"type":"Feature"},
	{"geometry":{"coordinates":[8.993317,48.501221],"type":"Point"},"properties":{"osm_id":"8890093742","tag":{"amenity":"recycling","recycling_type":"container"}},"type":"Feature"},
	{"geometry":{"coordinates":[8.991006,48.498156],"type":"Point"},"properties":{"osm_id":"8922689818","tag":{"amenity":"waste_basket","survey:date":"2021-07-15"}},"type":"Feature"},
	{"geometry":{"coordinates":[9.041103,48.488989],"type":"Point"},"properties":{"osm_id":"9017260495","tag":{"amenity":"waste_basket"}},"type":"Feature"},
	{"geometry":{"coordinates":[9.04947,48.516165],"type":"Point"},"properties":{"osm_id":"9063579527","tag":{"amenity":"waste_basket"}},"type":"Feature"},
	{"geometry":{"coordinates":[9.04266,48.514849],"type":"Point"},"properties":{"osm_id":"9064674810","tag":{"amenity":"waste_basket"}},"type":"Feature"}
]
}
