{
"type": "FeatureCollection",
"features": [
	{"geometry":{"coordinates":[8.971761,48.388039],"type":"Point"},"properties":{"osm_id":"274617942","tag":{"amenity":"recycling","recycling:glass_bottles":"yes","recycling_type":"container"}},"type":"Feature"},
	{"geometry":{"coordinates":[8.972117,48.380606],"type":"Point"},"properties":{"osm_id":"300552584","tag":{"amenity":"recycling","recycling:clothes":"yes","recycling:glass_bottles":"yes"}},"type":"Feature"},
	{"geometry":{"coordinates":[8.967612,48.352519],"type":"Point"},"properties":{"osm_id":"303357620","tag":{"amenity":"recycling","recycling:glass_bottles":"yes","recycling_type":"container"}},"type":"Feature"},
	{"geometry":{"coordinates":[8.97287,48.352433],"type":"Point"},"properties":{"osm_id":"303358499","tag":{"amenity":"recycling","recycling:clothes":"yes","recycling:glass_bottles":"yes","recycling_type":"container"}},"type":"Feature"},
	{"geometry":{"coordinates":[8.984749,48.344814],"type":"Point"},"properties":{"osm_id":"303386186","tag":{"amenity":"recycling","recycling_type":"container"}},"type":"Feature"},
	{"geometry":{"coordinates":[9.027768,48.345012],"type":"Point"},"properties":{"osm_id":"1516276226","tag":{"amenity":"recycling","operator":"Deutsches Rotes Kreuz e.V.","recycling:clothes":"yes","recycling_type":"container"}},"type":"Feature"},
	{"geometry":{"coordinates":[8.978059,48.39762],"type":"Point"},"properties":{"osm_id":"2584861672","tag":{"amenity":"recycling","recycling:clothes":"yes","recycling:glass_bottles":"yes"}},"type":"Feature"},
	{"geometry":{"coordinates":[9.006361,48.356906],"type":"Point"},"properties":{"name":"Wertstoffzentrum","osm_id":"2902713295","tag":{"amenity":"recycling","recycling_type":"centre"}},"type":"Feature"},
	{"geometry":{"coordinates":[9.049541,48.399121],"type":"Point"},"properties":{"osm_id":"3127064325","tag":{"amenity":"recycling","recycling:clothes":"yes","recycling:shoes":"yes","recycling_type":"container"}},"type":"Feature"},
	{"geometry":{"coordinates":[8.976101,48.348646],"type":"Point"},"properties":{"osm_id":"4475442686","tag":{"amenity":"recycling","recycling:clothes":"yes","recycling:glass_bottles":"yes","recycling_type":"container"}},"type":"Feature"},
	{"geometry":{"coordinates":[9.039366,48.399564],"type":"Point"},"properties":{"osm_id":"7133585908","tag":{"amenity":"recycling","recycling:clothes":"yes","recycling:glass":"yes","recycling_type":"container"}},"type":"Feature"},
	{"geometry":{"coordinates":[8.972097,48.357224],"type":"Point"},"properties":{"osm_id":"7904431948","tag":{"amenity":"waste_basket","waste":"dog_excrement"}},"type":"Feature"},
	{"geometry":{"coordinates":[8.966508,48.358527],"type":"Point"},"properties":{"osm_id":"7904525305","tag":{"amenity":"recycling","operator":"Deutsches Rotes Kreuz e.V.","recycling:clothes":"yes","recycling:shoes":"yes","recycling_type":"container"}},"type":"Feature"},
	{"geometry":{"coordinates":[8.969977,48.350579],"type":"Point"},"properties":{"osm_id":"7912244568","tag":{"amenity":"recycling","operator":"Deutsches Rotes Kreuz e.V.","recycling:clothes":"yes","recycling_type":"container"}},"type":"Feature"},
	{"geometry":{"coordinates":[8.968419,48.354642],"type":"Point"},"properties":{"osm_id":"7912244569","tag":{"amenity":"recycling","operator":"Deutsches Rotes Kreuz e.V.","recycling:clothes":"yes","recycling_type":"container"}},"type":"Feature"},
	{"geometry":{"coordinates":[8.972028,48.355445],"type":"Point"},"properties":{"osm_id":"7912244570","tag":{"amenity":"recycling","operator":"Deutsches Rotes Kreuz e.V.","recycling:clothes":"yes","recycling_type":"container"}},"type":"Feature"},
	{"geometry":{"coordinates":[8.965285,48.366557],"type":"Point"},"properties":{"osm_id":"7912244571","tag":{"amenity":"recycling","operator":"Deutsches Rotes Kreuz e.V.","recycling:clothes":"yes","recycling_type":"container"}},"type":"Feature"},
	{"geometry":{"coordinates":[9.027816,48.361453],"type":"Point"},"properties":{"osm_id":"7912244572","tag":{"amenity":"recycling","recycling:clothes":"yes","recycling:glass":"no","recycling:glass_bottles":"yes","recycling_type":"container"}},"type":"Feature"}
]
}
