{
"type": "FeatureCollection",
"features": [
	{"geometry":{"coordinates":[9.001251,47.602595],"type":"Point"},"properties":{"osm_id":"497729451","tag":{"amenity":"recycling","recycling_type":"centre"}},"type":"Feature"},
	{"geometry":{"coordinates":[9.031057,47.59588],"type":"Point"},"properties":{"osm_id":"1128441868","tag":{"amenity":"waste_basket"}},"type":"Feature"},
	{"geometry":{"coordinates":[9.008257,47.58622],"type":"Point"},"properties":{"osm_id":"1128442064","tag":{"amenity":"waste_basket"}},"type":"Feature"},
	{"geometry":{"coordinates":[9.010103,47.604716],"type":"Point"},"properties":{"osm_id":"1257137727","tag":{"amenity":"waste_basket"}},"type":"Feature"},
	{"geometry":{"coordinates":[9.009883,47.597218],"type":"Point"},"properties":{"osm_id":"1257137759","tag":{"amenity":"waste_basket"}},"type":"Feature"},
	{"geometry":{"coordinates":[9.009517,47.601151],"type":"Point"},"properties":{"osm_id":"1257137776","tag":{"amenity":"waste_basket"}},"type":"Feature"},
	{"geometry":{"coordinates":[9.012216,47.596844],"type":"Point"},"properties":{"osm_id":"1257137799","tag":{"amenity":"waste_basket"}},"type":"Feature"},
	{"geometry":{"coordinates":[9.043359,47.582735],"type":"Point"},"properties":{"osm_id":"1305217896","tag":{"amenity":"waste_basket"}},"type":"Feature"},
	{"geometry":{"coordinates":[9.007571,47.580918],"type":"Point"},"properties":{"osm_id":"1305217903","tag":{"amenity":"waste_basket"}},"type":"Feature"},
	{"geometry":{"coordinates":[9.043944,47.582608],"type":"Point"},"properties":{"osm_id":"1305217926","tag":{"amenity":"waste_basket"}},"type":"Feature"},
	{"geometry":{"coordinates":[9.043819,47.582742],"type":"Point"},"properties":{"osm_id":"1323716777","tag":{"amenity":"waste_basket"}},"type":"Feature"},
	{"geometry":{"coordinates":[9.015736,47.588257],"type":"Point"},"properties":{"osm_id":"1380855865","tag":{"amenity":"waste_basket"}},"type":"Feature"},
	{"geometry":{"coordinates":[9.003715,47.581284],"type":"Point"},"properties":{"osm_id":"1423374014","tag":{"amenity":"recycling","recycling:cans":"yes","recycling:glass":"yes","recycling_type":"container"}},"type":"Feature"},
	{"geometry":{"coordinates":[9.021543,47.600753],"type":"Point"},"properties":{"osm_id":"1444928284","tag":{"amenity":"waste_basket"}},"type":"Feature"},
	{"geometry":{"coordinates":[9.02783,47.596542],"type":"Point"},"properties":{"osm_id":"1500592840","tag":{"amenity":"waste_basket"}},"type":"Feature"},
	{"geometry":{"coordinates":[9.028557,47.59658],"type":"Point"},"properties":{"osm_id":"1500592842","tag":{"amenity":"waste_basket"}},"type":"Feature"},
	{"geometry":{"coordinates":[9.027787,47.596619],"type":"Point"},"properties":{"osm_id":"1500592846","tag":{"amenity":"waste_basket"}},"type":"Feature"},
	{"geometry":{"coordinates":[9.030421,47.59671],"type":"Point"},"properties":{"osm_id":"1500592854","tag":{"amenity":"waste_basket"}},"type":"Feature"},
	{"geometry":{"coordinates":[9.031247,47.597727],"type":"Point"},"properties":{"osm_id":"1565417184","tag":{"amenity":"waste_basket"}},"type":"Feature"},
	{"geometry":{"coordinates":[9.031189,47.59842],"type":"Point"},"properties":{"osm_id":"1601293279","tag":{"amenity":"waste_basket"}},"type":"Feature"},
	{"geometry":{"coordinates":[9.031084,47.598539],"type":"Point"},"properties":{"osm_id":"1601293287","tag":{"amenity":"waste_basket"}},"type":"Feature"},
	{"geometry":{"coordinates":[9.030864,47.596276],"type":"Point"},"properties":{"osm_id":"1629892793","tag":{"amenity":"waste_basket"}},"type":"Feature"},
	{"geometry":{"coordinates":[8.974684,47.582334],"type":"Point"},"properties":{"osm_id":"1815848033","tag":{"amenity":"waste_basket"}},"type":"Feature"},
	{"geometry":{"coordinates":[9.015699,47.587956],"type":"Point"},"properties":{"osm_id":"1815848045","tag":{"amenity":"waste_basket"}},"type":"Feature"},
	{"geometry":{"coordinates":[9.015718,47.588179],"type":"Point"},"properties":{"osm_id":"1815848049","tag":{"amenity":"waste_basket"}},"type":"Feature"},
	{"geometry":{"coordinates":[9.030897,47.586532],"type":"Point"},"properties":{"osm_id":"2096715086","tag":{"amenity":"waste_basket"}},"type":"Feature"},
	{"geometry":{"coordinates":[9.030514,47.58656],"type":"Point"},"properties":{"osm_id":"2096715096","tag":{"amenity":"waste_basket"}},"type":"Feature"},
	{"geometry":{"coordinates":[9.030242,47.586576],"type":"Point"},"properties":{"osm_id":"2096715106","tag":{"amenity":"waste_basket"}},"type":"Feature"},
	{"geometry":{"coordinates":[9.029525,47.586626],"type":"Point"},"properties":{"osm_id":"2096715115","tag":{"amenity":"waste_basket"}},"type":"Feature"},
	{"geometry":{"coordinates":[8.975271,47.598423],"type":"Point"},"properties":{"osm_id":"2288341274","tag":{"amenity":"waste_basket"}},"type":"Feature"},
	{"geometry":{"coordinates":[8.991163,47.598457],"type":"Point"},"properties":{"osm_id":"2288341277","tag":{"amenity":"waste_basket"}},"type":"Feature"},
	{"geometry":{"coordinates":[9.000525,47.599718],"type":"Point"},"properties":{"osm_id":"2288341318","tag":{"amenity":"waste_basket"}},"type":"Feature"},
	{"geometry":{"coordinates":[9.001491,47.600032],"type":"Point"},"properties":{"osm_id":"2288341346","tag":{"amenity":"waste_basket"}},"type":"Feature"},
	{"geometry":{"coordinates":[9.038131,47.61797],"type":"Point"},"properties":{"osm_id":"2864959858","tag":{"amenity":"recycling","recycling:green_waste":"yes","recycling_type":"container"}},"type":"Feature"},
	{"geometry":{"coordinates":[8.978741,47.617807],"type":"Point"},"properties":{"osm_id":"2887985389","tag":{"amenity":"recycling","recycling:batteries":"yes","recycling:cans":"yes","recycling:clothes":"yes","recycling:engine_oil":"yes","recycling:glass":"yes","recycling_type":"centre"}},"type":"Feature"},
	{"geometry":{"coordinates":[8.979244,47.618288],"type":"Point"},"properties":{"osm_id":"2887985421","tag":{"amenity":"waste_basket"}},"type":"Feature"},
	{"geometry":{"coordinates":[9.002676,47.618712],"type":"Point"},"properties":{"name":"Santokom","osm_id":"2887985575","tag":{"amenity":"recycling","recycling:garden_waste":"yes","recycling:green_waste":"yes","recycling:wood":"yes","recycling_type":"centre","website":"https://www.santokom.ch/"}},"type":"Feature"},
	{"geometry":{"coordinates":[8.967697,47.631335],"type":"Point"},"properties":{"osm_id":"2888196115","tag":{"amenity":"recycling","recycling:cans":"yes","recycling:clothes":"yes","recycling:glass":"yes","recycling_type":"centre"}},"type":"Feature"},
	{"geometry":{"coordinates":[9.020301,47.610248],"type":"Point"},"properties":{"osm_id":"2908158683","tag":{"amenity":"waste_basket"}},"type":"Feature"},
	{"geometry":{"coordinates":[9.028848,47.586108],"type":"Point"},"properties":{"osm_id":"2990728388","tag":{"amenity":"waste_basket"}},"type":"Feature"},
	{"geometry":{"coordinates":[9.029,47.586341],"type":"Point"},"properties":{"osm_id":"2990728393","tag":{"amenity":"waste_basket"}},"type":"Feature"},
	{"geometry":{"coordinates":[9.029015,47.586486],"type":"Point"},"properties":{"osm_id":"2990728398","tag":{"amenity":"waste_basket"}},"type":"Feature"},
	{"geometry":{"coordinates":[8.971822,47.582306],"type":"Point"},"properties":{"osm_id":"3518026722","tag":{"amenity":"recycling","recycling:cans":"yes","recycling:clothes":"yes","recycling:glass":"yes","recycling:plastic_bottles":"yes","recycling_type":"centre"}},"type":"Feature"},
	{"geometry":{"coordinates":[8.981808,47.591364],"type":"Point"},"properties":{"osm_id":"3539770216","tag":{"amenity":"waste_basket"}},"type":"Feature"},
	{"geometry":{"coordinates":[8.968426,47.592553],"type":"Point"},"properties":{"osm_id":"3540025240","tag":{"amenity":"waste_basket"}},"type":"Feature"},
	{"geometry":{"coordinates":[8.965927,47.593496],"type":"Point"},"properties":{"osm_id":"3540025268","tag":{"amenity":"waste_basket"}},"type":"Feature"},
	{"geometry":{"coordinates":[8.999612,47.598398],"type":"Point"},"properties":{"osm_id":"3540159567","tag":{"amenity":"waste_basket"}},"type":"Feature"},
	{"geometry":{"coordinates":[8.991965,47.602152],"type":"Point"},"properties":{"osm_id":"3609293651","tag":{"amenity":"waste_basket"}},"type":"Feature"},
	{"geometry":{"coordinates":[8.999679,47.603211],"type":"Point"},"properties":{"osm_id":"3609293668","tag":{"amenity":"waste_basket"}},"type":"Feature"},
	{"geometry":{"coordinates":[9.004923,47.599929],"type":"Point"},"properties":{"osm_id":"3746134021","tag":{"amenity":"waste_basket"}},"type":"Feature"},
	{"geometry":{"coordinates":[9.002767,47.601265],"type":"Point"},"properties":{"osm_id":"3746135346","tag":{"amenity":"waste_basket"}},"type":"Feature"},
	{"geometry":{"coordinates":[9.005938,47.602116],"type":"Point"},"properties":{"osm_id":"3746135362","tag":{"amenity":"waste_basket"}},"type":"Feature"},
	{"geometry":{"coordinates":[9.00661,47.602293],"type":"Point"},"properties":{"osm_id":"3746135372","tag":{"amenity":"waste_disposal"}},"type":"Feature"},
	{"geometry":{"coordinates":[9.007437,47.603766],"type":"Point"},"properties":{"osm_id":"3746135411","tag":{"amenity":"waste_disposal"}},"type":"Feature"},
	{"geometry":{"coordinates":[9.003525,47.604444],"type":"Point"},"properties":{"osm_id":"3760104515","tag":{"amenity":"waste_basket"}},"type":"Feature"},
	{"geometry":{"coordinates":[9.00609,47.604466],"type":"Point"},"properties":{"osm_id":"3760104517","tag":{"amenity":"waste_basket"}},"type":"Feature"},
	{"geometry":{"coordinates":[9.001981,47.606729],"type":"Point"},"properties":{"osm_id":"3760104706","tag":{"amenity":"waste_basket"}},"type":"Feature"},
	{"geometry":{"coordinates":[9.005146,47.607744],"type":"Point"},"properties":{"osm_id":"3760104756","tag":{"amenity":"waste_basket"}},"type":"Feature"},
	{"geometry":{"coordinates":[9.008883,47.604593],"type":"Point"},"properties":{"osm_id":"3761727081","tag":{"amenity":"waste_basket"}},"type":"Feature"},
	{"geometry":{"coordinates":[9.008879,47.604803],"type":"Point"},"properties":{"osm_id":"3761727094","tag":{"amenity":"waste_basket"}},"type":"Feature"},
	{"geometry":{"coordinates":[9.02992,47.600512],"type":"Point"},"properties":{"osm_id":"4126091890","tag":{"amenity":"waste_disposal"}},"type":"Feature"},
	{"geometry":{"coordinates":[9.015782,47.587943],"type":"Point"},"properties":{"osm_id":"6835557952","tag":{"amenity":"waste_basket"}},"type":"Feature"},
	{"geometry":{"coordinates":[9.038131,47.635332],"type":"Point"},"properties":{"osm_id":"6908551960","tag":{"amenity":"recycling","recycling:green_waste":"yes","recycling_type":"container"}},"type":"Feature"},
	{"geometry":{"coordinates":[8.974616,47.582542],"type":"Point"},"properties":{"osm_id":"6961350535","tag":{"amenity":"waste_basket","waste":"trash"}},"type":"Feature"},
	{"geometry":{"coordinates":[8.966111,47.596913],"type":"Point"},"properties":{"osm_id":"7188252575","tag":{"amenity":"waste_basket","waste":"trash"}},"type":"Feature"}
]
}
