{
"type": "FeatureCollection",
"features": [
	{"geometry":{"coordinates":[9.014361,47.451512],"type":"Point"},"properties":{"name":"Sammelstelle Busswil","osm_id":"2367563727","tag":{"amenity":"recycling"}},"type":"Feature"},
	{"geometry":{"coordinates":[8.966306,47.448799],"type":"Point"},"properties":{"osm_id":"3099481639","tag":{"amenity":"waste_basket"}},"type":"Feature"},
	{"geometry":{"coordinates":[8.987025,47.456705],"type":"Point"},"properties":{"osm_id":"3100405176","tag":{"amenity":"waste_basket","check_date":"2021-06-09"}},"type":"Feature"},
	{"geometry":{"coordinates":[8.969178,47.412742],"type":"Point"},"properties":{"osm_id":"4795721811","tag":{"amenity":"recycling","recycling_type":"container"}},"type":"Feature"},
	{"geometry":{"coordinates":[9.037221,47.407865],"type":"Point"},"properties":{"osm_id":"7476815392","tag":{"amenity":"waste_disposal","fee":"yes","operator":"Zweckverband Abfallverwertung Bazenheid","waste":"trash"}},"type":"Feature"},
	{"geometry":{"coordinates":[9.041123,47.412306],"type":"Point"},"properties":{"osm_id":"7476815393","tag":{"amenity":"waste_disposal","fee":"yes","operator":"Zweckverband Abfallverwertung Bazenheid","waste":"trash"}},"type":"Feature"},
	{"geometry":{"coordinates":[9.046165,47.411786],"type":"Point"},"properties":{"osm_id":"7476815394","tag":{"amenity":"waste_disposal","fee":"yes","operator":"Zweckverband Abfallverwertung Bazenheid","waste":"trash"}},"type":"Feature"},
	{"geometry":{"coordinates":[9.04657,47.41107],"type":"Point"},"properties":{"osm_id":"7476815395","tag":{"amenity":"waste_disposal","fee":"yes","operator":"Zweckverband Abfallverwertung Bazenheid","waste":"trash"}},"type":"Feature"},
	{"geometry":{"coordinates":[9.039225,47.409244],"type":"Point"},"properties":{"osm_id":"7476815396","tag":{"amenity":"waste_disposal","fee":"yes","operator":"Zweckverband Abfallverwertung Bazenheid","waste":"trash"}},"type":"Feature"},
	{"geometry":{"coordinates":[9.039605,47.410589],"type":"Point"},"properties":{"osm_id":"7476815397","tag":{"amenity":"waste_disposal","fee":"yes","operator":"Zweckverband Abfallverwertung Bazenheid","waste":"trash"}},"type":"Feature"},
	{"geometry":{"coordinates":[9.036713,47.41126],"type":"Point"},"properties":{"osm_id":"7704905361","tag":{"amenity":"waste_disposal","fee":"yes","operator":"Zweckverband Abfallverwertung Bazenheid","waste":"trash"}},"type":"Feature"},
	{"geometry":{"coordinates":[9.03768,47.410589],"type":"Point"},"properties":{"osm_id":"7704905362","tag":{"amenity":"waste_disposal","fee":"yes","operator":"Zweckverband Abfallverwertung Bazenheid","waste":"trash"}},"type":"Feature"},
	{"geometry":{"coordinates":[9.039935,47.412676],"type":"Point"},"properties":{"osm_id":"7704905363","tag":{"amenity":"waste_disposal","fee":"yes","location":"underground","operator":"Zweckverband Abfallverwertung Bazenheid","waste":"trash"}},"type":"Feature"},
	{"geometry":{"coordinates":[9.024775,47.411203],"type":"Point"},"properties":{"osm_id":"8344797804","tag":{"amenity":"waste_disposal","fee":"yes","operator":"Zweckverband Abfallverwertung Bazenheid","waste":"trash"}},"type":"Feature"},
	{"geometry":{"coordinates":[9.034083,47.450324],"type":"Point"},"properties":{"osm_id":"8505079372","tag":{"amenity":"recycling","recycling_type":"container"}},"type":"Feature"},
	{"geometry":{"coordinates":[9.047685,47.406155],"type":"Point"},"properties":{"osm_id":"8867830064","tag":{"amenity":"waste_basket","waste":"dog_excrement"}},"type":"Feature"},
	{"geometry":{"coordinates":[9.037424,47.453938],"type":"Point"},"properties":{"osm_id":"8903551221","tag":{"amenity":"waste_disposal","fee":"yes","operator":"Zweckverband Abfallverwertung Bazenheid","operator:wikidata":"Q107451599","waste":"trash"}},"type":"Feature"}
]
}
