{
"type": "FeatureCollection",
"features": [
	{"geometry":{"coordinates":[9.041721,47.163708],"type":"Point"},"properties":{"name":"Gasterm\u00c3\u00a4ttli","osm_id":"2413950787","tag":{"amenity":"recycling","recycling:cartons":"yes","recycling:green_waste":"yes","recycling:scrap_metal":"yes","recycling:wood":"yes","recycling_type":"centre"}},"type":"Feature"},
	{"geometry":{"coordinates":[9.046885,47.176518],"type":"Point"},"properties":{"osm_id":"6362350260","tag":{"amenity":"waste_basket","waste":"trash"}},"type":"Feature"},
	{"geometry":{"coordinates":[8.984085,47.167783],"type":"Point"},"properties":{"name":"Robidog","osm_id":"6566457408","tag":{"amenity":"waste_basket","waste":"dog_excrement"}},"type":"Feature"},
	{"geometry":{"coordinates":[8.985735,47.173643],"type":"Point"},"properties":{"name":"Robidog","osm_id":"6566461099","tag":{"amenity":"waste_basket","waste":"dog_excrement"}},"type":"Feature"},
	{"geometry":{"coordinates":[8.991932,47.181683],"type":"Point"},"properties":{"name":"Robidog","osm_id":"6566461102","tag":{"amenity":"waste_basket","waste":"dog_excrement"}},"type":"Feature"},
	{"geometry":{"coordinates":[8.980059,47.167821],"type":"Point"},"properties":{"osm_id":"6566472713","tag":{"amenity":"waste_basket"}},"type":"Feature"},
	{"geometry":{"coordinates":[8.975544,47.169164],"type":"Point"},"properties":{"osm_id":"6568362812","tag":{"amenity":"waste_basket"}},"type":"Feature"},
	{"geometry":{"coordinates":[8.975499,47.169054],"type":"Point"},"properties":{"osm_id":"6568362815","tag":{"amenity":"waste_basket"}},"type":"Feature"},
	{"geometry":{"coordinates":[8.976217,47.167659],"type":"Point"},"properties":{"name":"Robidog","osm_id":"6568362816","tag":{"amenity":"waste_basket","waste":"dog_excrement"}},"type":"Feature"},
	{"geometry":{"coordinates":[8.974512,47.168941],"type":"Point"},"properties":{"name":"Robidog","osm_id":"6568362818","tag":{"amenity":"waste_basket","waste":"dog_excrement"}},"type":"Feature"},
	{"geometry":{"coordinates":[8.97486,47.167539],"type":"Point"},"properties":{"name":"Robidog","osm_id":"6568362822","tag":{"amenity":"waste_basket","waste":"dog_excrement"}},"type":"Feature"},
	{"geometry":{"coordinates":[8.975936,47.168948],"type":"Point"},"properties":{"name":"Robidog","osm_id":"6568362824","tag":{"amenity":"waste_basket","waste":"dog_excrement"}},"type":"Feature"},
	{"geometry":{"coordinates":[8.98022,47.167947],"type":"Point"},"properties":{"osm_id":"6570737840","tag":{"amenity":"waste_basket","waste":"dog_excrement"}},"type":"Feature"},
	{"geometry":{"coordinates":[8.970197,47.216688],"type":"Point"},"properties":{"osm_id":"6617430423","tag":{"amenity":"waste_basket"}},"type":"Feature"},
	{"geometry":{"coordinates":[8.970707,47.216458],"type":"Point"},"properties":{"osm_id":"6617432176","tag":{"amenity":"waste_basket"}},"type":"Feature"},
	{"geometry":{"coordinates":[8.970951,47.216283],"type":"Point"},"properties":{"osm_id":"6617442385","tag":{"amenity":"waste_basket","waste":"dog_excrement"}},"type":"Feature"},
	{"geometry":{"coordinates":[8.981886,47.172778],"type":"Point"},"properties":{"name":"Altkleidersammlung","osm_id":"6656886773","tag":{"amenity":"recycling","opening_hours":"24/7","operator":"Contex","recycling:clothes":"yes","recycling:shoes":"yes","recycling_type":"container","wheelchair":"yes"}},"type":"Feature"},
	{"geometry":{"coordinates":[9.017562,47.217633],"type":"Point"},"properties":{"osm_id":"6664851121","tag":{"amenity":"waste_disposal"}},"type":"Feature"},
	{"geometry":{"coordinates":[9.048202,47.160017],"type":"Point"},"properties":{"osm_id":"6703816873","tag":{"amenity":"waste_basket","waste":"dog_excrement"}},"type":"Feature"},
	{"geometry":{"coordinates":[9.051155,47.161872],"type":"Point"},"properties":{"osm_id":"6724739431","tag":{"amenity":"waste_basket"}},"type":"Feature"},
	{"geometry":{"coordinates":[9.051255,47.16185],"type":"Point"},"properties":{"osm_id":"6724739439","tag":{"amenity":"waste_basket"}},"type":"Feature"},
	{"geometry":{"coordinates":[8.993132,47.182952],"type":"Point"},"properties":{"osm_id":"7733629008","tag":{"amenity":"waste_basket"}},"type":"Feature"},
	{"geometry":{"coordinates":[8.992876,47.183218],"type":"Point"},"properties":{"osm_id":"7733629028","tag":{"amenity":"waste_basket","waste":"dog_excrement"}},"type":"Feature"}
]
}
