{
"type": "FeatureCollection",
"features": [
	{"geometry":{"coordinates":[9.011063,46.267493],"type":"Point"},"properties":{"osm_id":"4728858920","tag":{"amenity":"recycling","recycling_type":"centre"}},"type":"Feature"},
	{"geometry":{"coordinates":[9.018793,46.265774],"type":"Point"},"properties":{"osm_id":"6384485816","tag":{"access":"customers","amenity":"recycling","opening_hours":"24/7","recycling:PET":"yes","recycling:aluminium":"yes","recycling:glass":"yes","recycling:plastic_packaging":"yes","recycling:waste":"yes","recycling_type":"container","wheelchair":"yes"}},"type":"Feature"},
	{"geometry":{"coordinates":[9.020351,46.265741],"type":"Point"},"properties":{"name":"Scubiago riale Censo","osm_id":"6384485824","tag":{"amenity":"waste_basket","hiking":"yes","information":"guidepost","tourism":"information","waste":"trash"}},"type":"Feature"},
	{"geometry":{"coordinates":[8.986792,46.312225],"type":"Point"},"properties":{"osm_id":"7904606990","tag":{"amenity":"waste_basket"}},"type":"Feature"}
]
}
