{
"type": "FeatureCollection",
"features": [
	{"geometry":{"coordinates":[9.009378,46.196192],"type":"Point"},"properties":{"osm_id":"1261933579","tag":{"amenity":"recycling","recycling_type":"centre"}},"type":"Feature"},
	{"geometry":{"coordinates":[9.051617,46.22091],"type":"Point"},"properties":{"osm_id":"1536691950","tag":{"amenity":"recycling"}},"type":"Feature"},
	{"geometry":{"coordinates":[9.041117,46.207121],"type":"Point"},"properties":{"osm_id":"2548836946","tag":{"amenity":"recycling","recycling_type":"centre"}},"type":"Feature"},
	{"geometry":{"coordinates":[9.042153,46.215383],"type":"Point"},"properties":{"osm_id":"3520099914","tag":{"amenity":"recycling"}},"type":"Feature"},
	{"geometry":{"coordinates":[9.031529,46.212176],"type":"Point"},"properties":{"osm_id":"6761791678","tag":{"amenity":"waste_basket"}},"type":"Feature"},
	{"geometry":{"coordinates":[9.038333,46.211496],"type":"Point"},"properties":{"osm_id":"8006111525","tag":{"amenity":"recycling","recycling:cans":"yes","recycling:plastic_bottles":"yes","recycling_type":"container"}},"type":"Feature"},
	{"geometry":{"coordinates":[9.038666,46.212569],"type":"Point"},"properties":{"osm_id":"8006111526","tag":{"amenity":"recycling","recycling:cans":"yes","recycling:cardboard":"yes","recycling:plastic_bottles":"yes","recycling_type":"centre"}},"type":"Feature"}
]
}
