{
"type": "FeatureCollection",
"features": [
	{"geometry":{"coordinates":[9.012586,46.073407],"type":"Point"},"properties":{"osm_id":"417128701","tag":{"amenity":"recycling","recycling:glass":"yes","recycling_type":"container"}},"type":"Feature"},
	{"geometry":{"coordinates":[8.987729,46.129753],"type":"Point"},"properties":{"osm_id":"838971672","tag":{"amenity":"recycling","recycling_type":"container"}},"type":"Feature"},
	{"geometry":{"coordinates":[9.002782,46.078255],"type":"Point"},"properties":{"osm_id":"2380193556","tag":{"amenity":"recycling","recycling_type":"container"}},"type":"Feature"},
	{"geometry":{"coordinates":[9.031546,46.086868],"type":"Point"},"properties":{"osm_id":"3644806493","tag":{"amenity":"recycling","recycling_type":"container"}},"type":"Feature"},
	{"geometry":{"coordinates":[9.029793,46.086062],"type":"Point"},"properties":{"osm_id":"3655925778","tag":{"amenity":"recycling","recycling_type":"container"}},"type":"Feature"},
	{"geometry":{"coordinates":[9.030139,46.08683],"type":"Point"},"properties":{"osm_id":"3655925779","tag":{"amenity":"recycling","recycling_type":"container"}},"type":"Feature"},
	{"geometry":{"coordinates":[9.029507,46.085244],"type":"Point"},"properties":{"osm_id":"3655925784","tag":{"amenity":"recycling","recycling_type":"container"}},"type":"Feature"},
	{"geometry":{"coordinates":[9.030097,46.088277],"type":"Point"},"properties":{"osm_id":"3655925950","tag":{"amenity":"recycling","recycling_type":"container"}},"type":"Feature"},
	{"geometry":{"coordinates":[9.048891,46.088909],"type":"Point"},"properties":{"osm_id":"3655926498","tag":{"amenity":"recycling","recycling_type":"container"}},"type":"Feature"},
	{"geometry":{"coordinates":[8.980637,46.126206],"type":"Point"},"properties":{"osm_id":"3839820400","tag":{"amenity":"recycling","recycling_type":"container"}},"type":"Feature"},
	{"geometry":{"coordinates":[8.9695,46.114967],"type":"Point"},"properties":{"osm_id":"4247397913","tag":{"amenity":"waste_basket"}},"type":"Feature"},
	{"geometry":{"coordinates":[8.966981,46.115947],"type":"Point"},"properties":{"osm_id":"4622247126","tag":{"amenity":"waste_basket"}},"type":"Feature"},
	{"geometry":{"coordinates":[9.045584,46.079669],"type":"Point"},"properties":{"osm_id":"5004533988","tag":{"amenity":"waste_basket"}},"type":"Feature"},
	{"geometry":{"coordinates":[9.045725,46.078821],"type":"Point"},"properties":{"osm_id":"5004534008","tag":{"amenity":"waste_basket","outdoor":"yes","support":"wall"}},"type":"Feature"},
	{"geometry":{"coordinates":[9.045569,46.078979],"type":"Point"},"properties":{"osm_id":"5004534014","tag":{"amenity":"waste_disposal"}},"type":"Feature"},
	{"geometry":{"coordinates":[9.050516,46.075504],"type":"Point"},"properties":{"osm_id":"5005977536","tag":{"amenity":"waste_basket","mapillary":"hteZZOCUaPlxsIyVuVqbXA"}},"type":"Feature"},
	{"geometry":{"coordinates":[9.04711,46.076636],"type":"Point"},"properties":{"osm_id":"5022474867","tag":{"amenity":"waste_disposal"}},"type":"Feature"}
]
}
