{
"type": "FeatureCollection",
"features": [
	{"geometry":{"coordinates":[8.971656,46.06421],"type":"Point"},"properties":{"name":"Compostaggio","osm_id":"310182367","tag":{"amenity":"recycling","recycling:green_waste":"yes"}},"type":"Feature"},
	{"geometry":{"coordinates":[8.973228,46.06272],"type":"Point"},"properties":{"osm_id":"310190019","tag":{"amenity":"recycling","recycling:paper":"yes"}},"type":"Feature"},
	{"geometry":{"coordinates":[8.973207,46.062683],"type":"Point"},"properties":{"osm_id":"310190020","tag":{"amenity":"waste_disposal"}},"type":"Feature"},
	{"geometry":{"coordinates":[8.972534,46.061625],"type":"Point"},"properties":{"osm_id":"310190057","tag":{"amenity":"recycling"}},"type":"Feature"},
	{"geometry":{"coordinates":[8.971427,46.063734],"type":"Point"},"properties":{"osm_id":"310194658","tag":{"amenity":"recycling","recycling:vegetable_oil":"yes"}},"type":"Feature"},
	{"geometry":{"coordinates":[8.971482,46.063713],"type":"Point"},"properties":{"osm_id":"310194659","tag":{"amenity":"waste_disposal"}},"type":"Feature"},
	{"geometry":{"coordinates":[8.971359,46.063747],"type":"Point"},"properties":{"osm_id":"310194660","tag":{"amenity":"recycling","recycling:paper":"yes"}},"type":"Feature"},
	{"geometry":{"coordinates":[8.965093,46.025039],"type":"Point"},"properties":{"name":"Ecocentro Lugano","osm_id":"389521168","tag":{"amenity":"recycling","opening_hours":"Mo-Sa 09:00-17:30","website":"https://www.lugano.ch/ambiente/welcome.cfm?catID=11004&docid=513C63E95962EC8DC1257259002EEEC8"}},"type":"Feature"},
	{"geometry":{"coordinates":[8.993461,46.054295],"type":"Point"},"properties":{"osm_id":"415608340","tag":{"amenity":"recycling"}},"type":"Feature"},
	{"geometry":{"coordinates":[8.973974,46.066316],"type":"Point"},"properties":{"osm_id":"504745377","tag":{"amenity":"recycling","recycling:vegetable_oil":"yes","recycling_type":"centre"}},"type":"Feature"},
	{"geometry":{"coordinates":[8.981787,46.022013],"type":"Point"},"properties":{"osm_id":"506187796","tag":{"amenity":"recycling"}},"type":"Feature"},
	{"geometry":{"coordinates":[8.978458,46.045398],"type":"Point"},"properties":{"name":"EcoCentro Cadro","osm_id":"733258051","tag":{"amenity":"recycling"}},"type":"Feature"},
	{"geometry":{"coordinates":[8.96646,46.035244],"type":"Point"},"properties":{"osm_id":"820947942","tag":{"amenity":"recycling"}},"type":"Feature"},
	{"geometry":{"coordinates":[8.967735,46.068729],"type":"Point"},"properties":{"osm_id":"840962697","tag":{"amenity":"recycling","recycling_type":"container"}},"type":"Feature"},
	{"geometry":{"coordinates":[8.997993,46.01309],"type":"Point"},"properties":{"osm_id":"843874025","tag":{"amenity":"recycling"}},"type":"Feature"},
	{"geometry":{"coordinates":[8.967855,46.041331],"type":"Point"},"properties":{"name":"Centro di compostaggio Canobbio","osm_id":"850445601","tag":{"amenity":"recycling"}},"type":"Feature"},
	{"geometry":{"coordinates":[8.97524,46.056034],"type":"Point"},"properties":{"osm_id":"917548150","tag":{"amenity":"recycling"}},"type":"Feature"},
	{"geometry":{"coordinates":[8.970128,46.067161],"type":"Point"},"properties":{"osm_id":"1296630520","tag":{"amenity":"recycling","recycling_type":"container"}},"type":"Feature"},
	{"geometry":{"coordinates":[9.034002,46.022044],"type":"Point"},"properties":{"osm_id":"1356250633","tag":{"amenity":"recycling"}},"type":"Feature"},
	{"geometry":{"coordinates":[9.037643,46.023175],"type":"Point"},"properties":{"osm_id":"1908048090","tag":{"amenity":"recycling"}},"type":"Feature"},
	{"geometry":{"coordinates":[9.038734,46.022679],"type":"Point"},"properties":{"osm_id":"1908195057","tag":{"amenity":"recycling"}},"type":"Feature"},
	{"geometry":{"coordinates":[8.971396,46.030562],"type":"Point"},"properties":{"name":"Eco Centro","osm_id":"3344576783","tag":{"amenity":"recycling"}},"type":"Feature"},
	{"geometry":{"coordinates":[8.973703,46.018828],"type":"Point"},"properties":{"osm_id":"3476296543","tag":{"amenity":"waste_basket"}},"type":"Feature"},
	{"geometry":{"coordinates":[8.976657,46.019168],"type":"Point"},"properties":{"osm_id":"3773475857","tag":{"amenity":"recycling"}},"type":"Feature"},
	{"geometry":{"coordinates":[8.976255,46.019227],"type":"Point"},"properties":{"osm_id":"3773475858","tag":{"amenity":"recycling"}},"type":"Feature"},
	{"geometry":{"coordinates":[8.999068,46.014113],"type":"Point"},"properties":{"osm_id":"3917595283","tag":{"amenity":"waste_basket"}},"type":"Feature"},
	{"geometry":{"coordinates":[8.999216,46.01447],"type":"Point"},"properties":{"osm_id":"3917595287","tag":{"amenity":"waste_basket"}},"type":"Feature"},
	{"geometry":{"coordinates":[8.999017,46.014789],"type":"Point"},"properties":{"osm_id":"3917595292","tag":{"amenity":"waste_basket"}},"type":"Feature"},
	{"geometry":{"coordinates":[8.997451,46.022582],"type":"Point"},"properties":{"osm_id":"3917595409","tag":{"amenity":"waste_basket"}},"type":"Feature"},
	{"geometry":{"coordinates":[9.000484,46.013476],"type":"Point"},"properties":{"osm_id":"4823902413","tag":{"amenity":"waste_basket"}},"type":"Feature"},
	{"geometry":{"coordinates":[9.002409,46.016227],"type":"Point"},"properties":{"osm_id":"4825890268","tag":{"amenity":"waste_basket"}},"type":"Feature"},
	{"geometry":{"coordinates":[9.002243,46.018528],"type":"Point"},"properties":{"osm_id":"4828406427","tag":{"amenity":"waste_basket"}},"type":"Feature"},
	{"geometry":{"coordinates":[8.977032,46.018503],"type":"Point"},"properties":{"osm_id":"5955451012","tag":{"amenity":"waste_basket"}},"type":"Feature"},
	{"geometry":{"coordinates":[8.976269,46.019231],"type":"Point"},"properties":{"osm_id":"5955451026","tag":{"amenity":"recycling","recycling_type":"container"}},"type":"Feature"},
	{"geometry":{"coordinates":[8.976286,46.019235],"type":"Point"},"properties":{"osm_id":"5955451027","tag":{"amenity":"recycling","recycling_type":"container"}},"type":"Feature"},
	{"geometry":{"coordinates":[8.976202,46.019304],"type":"Point"},"properties":{"osm_id":"5955451028","tag":{"amenity":"recycling","recycling_type":"container"}},"type":"Feature"},
	{"geometry":{"coordinates":[8.976226,46.019304],"type":"Point"},"properties":{"osm_id":"5955451029","tag":{"amenity":"recycling","recycling_type":"container"}},"type":"Feature"},
	{"geometry":{"coordinates":[8.97625,46.019306],"type":"Point"},"properties":{"osm_id":"5955451030","tag":{"amenity":"recycling","recycling_type":"container"}},"type":"Feature"},
	{"geometry":{"coordinates":[8.967847,46.02496],"type":"Point"},"properties":{"osm_id":"6043438073","tag":{"amenity":"waste_disposal"}},"type":"Feature"},
	{"geometry":{"coordinates":[8.967882,46.024958],"type":"Point"},"properties":{"osm_id":"6043438074","tag":{"amenity":"waste_disposal"}},"type":"Feature"},
	{"geometry":{"coordinates":[8.974889,46.017094],"type":"Point"},"properties":{"osm_id":"6048337207","tag":{"amenity":"waste_disposal"}},"type":"Feature"},
	{"geometry":{"coordinates":[8.975031,46.017543],"type":"Point"},"properties":{"osm_id":"6048337210","tag":{"amenity":"waste_basket"}},"type":"Feature"},
	{"geometry":{"coordinates":[8.969935,46.018683],"type":"Point"},"properties":{"osm_id":"6050754269","tag":{"amenity":"waste_disposal"}},"type":"Feature"},
	{"geometry":{"coordinates":[8.966195,46.020068],"type":"Point"},"properties":{"osm_id":"6050761797","tag":{"amenity":"waste_disposal"}},"type":"Feature"},
	{"geometry":{"coordinates":[8.96617,46.020069],"type":"Point"},"properties":{"osm_id":"6050761798","tag":{"amenity":"waste_disposal"}},"type":"Feature"},
	{"geometry":{"coordinates":[8.975848,46.01536],"type":"Point"},"properties":{"osm_id":"7323835077","tag":{"amenity":"waste_basket"}},"type":"Feature"},
	{"geometry":{"coordinates":[8.979251,46.030717],"type":"Point"},"properties":{"osm_id":"7532945584","tag":{"amenity":"recycling","recycling_type":"container"}},"type":"Feature"},
	{"geometry":{"coordinates":[8.97894,46.031424],"type":"Point"},"properties":{"osm_id":"7532948385","tag":{"amenity":"recycling","recycling_type":"container"}},"type":"Feature"},
	{"geometry":{"coordinates":[8.98057,46.034962],"type":"Point"},"properties":{"osm_id":"7532948397","tag":{"amenity":"recycling","recycling_type":"container"}},"type":"Feature"},
	{"geometry":{"coordinates":[8.974113,46.019584],"type":"Point"},"properties":{"osm_id":"7721098008","tag":{"amenity":"waste_basket"}},"type":"Feature"}
]
}
