{
"type": "FeatureCollection",
"features": [
	{"geometry":{"coordinates":[8.975292,45.962383],"type":"Point"},"properties":{"osm_id":"328024773","tag":{"amenity":"recycling","recycling:glass":"yes","recycling_type":"container"}},"type":"Feature"},
	{"geometry":{"coordinates":[8.965847,46.011984],"type":"Point"},"properties":{"osm_id":"367427236","ref":"Eco centro Viganello","tag":{"amenity":"recycling"}},"type":"Feature"},
	{"geometry":{"coordinates":[9.021373,45.999293],"type":"Point"},"properties":{"osm_id":"826760855","tag":{"amenity":"waste_basket"}},"type":"Feature"},
	{"geometry":{"coordinates":[9.041037,45.986657],"type":"Point"},"properties":{"osm_id":"2056410882","tag":{"amenity":"recycling","recycling:glass":"yes","recycling_type":"container"}},"type":"Feature"},
	{"geometry":{"coordinates":[8.973137,46.003222],"type":"Point"},"properties":{"osm_id":"2250384247","tag":{"amenity":"waste_basket"}},"type":"Feature"},
	{"geometry":{"coordinates":[8.976136,46.000999],"type":"Point"},"properties":{"osm_id":"2251043272","tag":{"amenity":"waste_disposal"}},"type":"Feature"},
	{"geometry":{"coordinates":[8.97843,46.001074],"type":"Point"},"properties":{"osm_id":"2252698295","tag":{"amenity":"waste_basket"}},"type":"Feature"},
	{"geometry":{"coordinates":[8.978113,46.001123],"type":"Point"},"properties":{"osm_id":"2256079565","tag":{"amenity":"waste_basket"}},"type":"Feature"},
	{"geometry":{"coordinates":[8.978029,46.001037],"type":"Point"},"properties":{"osm_id":"2256079567","tag":{"amenity":"waste_basket"}},"type":"Feature"},
	{"geometry":{"coordinates":[8.99211,46.003613],"type":"Point"},"properties":{"osm_id":"2260133866","tag":{"amenity":"waste_basket"}},"type":"Feature"},
	{"geometry":{"coordinates":[8.998771,46.00515],"type":"Point"},"properties":{"osm_id":"2260133870","tag":{"amenity":"waste_basket"}},"type":"Feature"},
	{"geometry":{"coordinates":[8.993852,46.004062],"type":"Point"},"properties":{"osm_id":"2260133871","tag":{"amenity":"waste_basket"}},"type":"Feature"},
	{"geometry":{"coordinates":[8.995247,46.004062],"type":"Point"},"properties":{"osm_id":"2260133897","tag":{"amenity":"waste_basket"}},"type":"Feature"},
	{"geometry":{"coordinates":[8.985681,46.001344],"type":"Point"},"properties":{"osm_id":"2260155636","tag":{"amenity":"waste_basket"}},"type":"Feature"},
	{"geometry":{"coordinates":[8.991067,46.00322],"type":"Point"},"properties":{"osm_id":"2260155645","tag":{"amenity":"waste_basket"}},"type":"Feature"},
	{"geometry":{"coordinates":[8.978837,46.001381],"type":"Point"},"properties":{"osm_id":"2262019467","tag":{"amenity":"waste_basket"}},"type":"Feature"},
	{"geometry":{"coordinates":[8.977061,46.001221],"type":"Point"},"properties":{"osm_id":"2262024703","tag":{"amenity":"recycling","recycling:glass":"yes","recycling_type":"container"}},"type":"Feature"},
	{"geometry":{"coordinates":[8.977065,46.001236],"type":"Point"},"properties":{"osm_id":"2262024704","tag":{"amenity":"waste_disposal"}},"type":"Feature"},
	{"geometry":{"coordinates":[8.980984,46.001551],"type":"Point"},"properties":{"osm_id":"2264707083","tag":{"amenity":"waste_basket"}},"type":"Feature"},
	{"geometry":{"coordinates":[8.978934,46.002775],"type":"Point"},"properties":{"name":"Ecopunto San Giorgio","osm_id":"2268494186","tag":{"amenity":"recycling","recycling:aluminium":"yes","recycling:batteries":"yes","recycling:cardboard":"no","recycling:glass":"yes","recycling:green_waste":"no","recycling:paper":"yes","recycling:waste":"yes"}},"type":"Feature"},
	{"geometry":{"coordinates":[8.971335,46.003293],"type":"Point"},"properties":{"osm_id":"2276160804","tag":{"amenity":"recycling","operator":"Red Cross Ticino","recycling:batteries":"no","recycling:books":"no","recycling:cans":"no","recycling:cardboard":"no","recycling:cartons":"no","recycling:clothes":"yes","recycling:electrical_appliances":"no","recycling:glass":"no","recycling:glass_bottles":"no","recycling:green_waste":"no","recycling:magazines":"no","recycling:newspaper":"no","recycling:paper":"no","recycling:paper_packaging":"no","recycling:plastic":"no","recycling:plastic_bottles":"no","recycling:plastic_packaging":"no","recycling:scrap_metal":"no","recycling:small_appliances":"no","recycling:waste":"no","recycling:wood":"no","recycling_type":"container","website":"https://www.crocerossaticino.ch/"}},"type":"Feature"},
	{"geometry":{"coordinates":[8.976808,46.001085],"type":"Point"},"properties":{"osm_id":"2277697363","tag":{"amenity":"recycling","operator":"Texaid","recycling:clothes":"yes","recycling_type":"container","website":"https://www.texaid.ch/"}},"type":"Feature"},
	{"geometry":{"coordinates":[8.968253,46.006316],"type":"Point"},"properties":{"osm_id":"2288321428","tag":{"amenity":"recycling","recycling:glass_bottles":"yes","recycling:paper":"yes","recycling_type":"container"}},"type":"Feature"},
	{"geometry":{"coordinates":[8.976835,46.001103],"type":"Point"},"properties":{"osm_id":"2293574800","tag":{"amenity":"waste_basket"}},"type":"Feature"},
	{"geometry":{"coordinates":[8.976947,46.001489],"type":"Point"},"properties":{"osm_id":"2293574801","tag":{"amenity":"waste_basket"}},"type":"Feature"},
	{"geometry":{"coordinates":[8.977924,46.003903],"type":"Point"},"properties":{"osm_id":"2621033273","tag":{"amenity":"waste_disposal"}},"type":"Feature"},
	{"geometry":{"coordinates":[8.977989,46.003895],"type":"Point"},"properties":{"osm_id":"2621033276","tag":{"amenity":"recycling","recycling:cans":"no","recycling:clothes":"no","recycling:glass":"yes","recycling:paper":"yes"}},"type":"Feature"},
	{"geometry":{"coordinates":[8.984944,46.004737],"type":"Point"},"properties":{"osm_id":"2663207883","tag":{"amenity":"waste_basket"}},"type":"Feature"},
	{"geometry":{"coordinates":[8.989415,46.00524],"type":"Point"},"properties":{"osm_id":"2663207893","tag":{"amenity":"waste_basket"}},"type":"Feature"},
	{"geometry":{"coordinates":[8.980674,46.003732],"type":"Point"},"properties":{"osm_id":"2663213499","tag":{"amenity":"waste_basket"}},"type":"Feature"},
	{"geometry":{"coordinates":[8.984196,46.003703],"type":"Point"},"properties":{"osm_id":"2663213503","tag":{"amenity":"waste_basket"}},"type":"Feature"},
	{"geometry":{"coordinates":[8.979056,46.003325],"type":"Point"},"properties":{"osm_id":"2667497951","tag":{"amenity":"waste_basket"}},"type":"Feature"},
	{"geometry":{"coordinates":[8.977375,46.00327],"type":"Point"},"properties":{"osm_id":"2667497952","tag":{"amenity":"waste_basket"}},"type":"Feature"},
	{"geometry":{"coordinates":[8.977778,46.00339],"type":"Point"},"properties":{"osm_id":"2667497954","tag":{"amenity":"waste_basket"}},"type":"Feature"},
	{"geometry":{"coordinates":[8.975541,46.011412],"type":"Point"},"properties":{"osm_id":"3346328998","tag":{"amenity":"waste_basket"}},"type":"Feature"},
	{"geometry":{"coordinates":[8.984525,45.959075],"type":"Point"},"properties":{"osm_id":"4318185694","tag":{"amenity":"waste_basket"}},"type":"Feature"},
	{"geometry":{"coordinates":[8.985789,45.960062],"type":"Point"},"properties":{"osm_id":"4318284709","tag":{"amenity":"waste_basket"}},"type":"Feature"},
	{"geometry":{"coordinates":[8.985492,45.959982],"type":"Point"},"properties":{"osm_id":"4318284728","tag":{"amenity":"waste_basket"}},"type":"Feature"},
	{"geometry":{"coordinates":[8.986864,45.959313],"type":"Point"},"properties":{"osm_id":"4318284734","tag":{"amenity":"waste_basket"}},"type":"Feature"},
	{"geometry":{"coordinates":[8.970176,46.006193],"type":"Point"},"properties":{"osm_id":"4760805660","tag":{"amenity":"waste_basket"}},"type":"Feature"},
	{"geometry":{"coordinates":[8.996365,46.011273],"type":"Point"},"properties":{"osm_id":"4823903778","tag":{"amenity":"waste_basket"}},"type":"Feature"},
	{"geometry":{"coordinates":[8.975139,45.970014],"type":"Point"},"properties":{"osm_id":"4865146736","tag":{"amenity":"waste_basket"}},"type":"Feature"},
	{"geometry":{"coordinates":[8.973027,45.971412],"type":"Point"},"properties":{"osm_id":"5126943477","tag":{"amenity":"waste_basket"}},"type":"Feature"},
	{"geometry":{"coordinates":[8.974983,45.970741],"type":"Point"},"properties":{"osm_id":"5126943480","tag":{"amenity":"waste_basket"}},"type":"Feature"},
	{"geometry":{"coordinates":[8.975238,45.962253],"type":"Point"},"properties":{"osm_id":"5126946432","tag":{"amenity":"waste_basket"}},"type":"Feature"},
	{"geometry":{"coordinates":[8.982942,46.008235],"type":"Point"},"properties":{"osm_id":"5836578129","tag":{"amenity":"waste_basket"}},"type":"Feature"},
	{"geometry":{"coordinates":[8.984696,46.009399],"type":"Point"},"properties":{"osm_id":"5836578136","tag":{"amenity":"waste_basket"}},"type":"Feature"},
	{"geometry":{"coordinates":[8.985072,46.009375],"type":"Point"},"properties":{"osm_id":"5836578138","tag":{"amenity":"waste_basket"}},"type":"Feature"}
]
}
