{
"type": "FeatureCollection",
"features": [
	{"geometry":{"coordinates":[9.042204,45.90397],"type":"Point"},"properties":{"osm_id":"3072078805","tag":{"amenity":"recycling","recycling:cans":"yes","recycling:glass":"yes","recycling:paper":"no"}},"type":"Feature"},
	{"geometry":{"coordinates":[9.00228,45.907556],"type":"Point"},"properties":{"osm_id":"3073765777","tag":{"amenity":"waste_disposal"}},"type":"Feature"},
	{"geometry":{"coordinates":[8.973556,45.932402],"type":"Point"},"properties":{"osm_id":"3647856956","tag":{"amenity":"waste_basket"}},"type":"Feature"},
	{"geometry":{"coordinates":[8.965749,45.94918],"type":"Point"},"properties":{"osm_id":"3657993865","tag":{"amenity":"waste_basket"}},"type":"Feature"},
	{"geometry":{"coordinates":[8.972007,45.905501],"type":"Point"},"properties":{"osm_id":"3811283443","tag":{"amenity":"recycling","recycling:clothes":"yes"}},"type":"Feature"},
	{"geometry":{"coordinates":[8.971984,45.905587],"type":"Point"},"properties":{"osm_id":"3811283444","tag":{"amenity":"waste_basket"}},"type":"Feature"},
	{"geometry":{"coordinates":[8.97227,45.905957],"type":"Point"},"properties":{"osm_id":"3811283449","tag":{"amenity":"waste_basket"}},"type":"Feature"},
	{"geometry":{"coordinates":[8.972705,45.905897],"type":"Point"},"properties":{"osm_id":"3811283450","tag":{"amenity":"waste_basket"}},"type":"Feature"},
	{"geometry":{"coordinates":[8.985826,45.922627],"type":"Point"},"properties":{"osm_id":"3870999858","tag":{"amenity":"waste_basket"}},"type":"Feature"},
	{"geometry":{"coordinates":[8.985901,45.9223],"type":"Point"},"properties":{"osm_id":"3870999869","tag":{"amenity":"waste_basket"}},"type":"Feature"},
	{"geometry":{"coordinates":[8.985927,45.921922],"type":"Point"},"properties":{"osm_id":"3870999884","tag":{"amenity":"waste_basket"}},"type":"Feature"},
	{"geometry":{"coordinates":[8.986,45.919059],"type":"Point"},"properties":{"osm_id":"3871020239","tag":{"amenity":"waste_basket"}},"type":"Feature"},
	{"geometry":{"coordinates":[8.985702,45.918971],"type":"Point"},"properties":{"osm_id":"3871020243","tag":{"amenity":"waste_basket"}},"type":"Feature"},
	{"geometry":{"coordinates":[9.000943,45.906092],"type":"Point"},"properties":{"osm_id":"4070542395","tag":{"amenity":"waste_basket"}},"type":"Feature"},
	{"geometry":{"coordinates":[9.000713,45.906569],"type":"Point"},"properties":{"osm_id":"4070542396","tag":{"amenity":"waste_basket"}},"type":"Feature"},
	{"geometry":{"coordinates":[8.981366,45.902904],"type":"Point"},"properties":{"osm_id":"4783621151","tag":{"amenity":"waste_basket"}},"type":"Feature"},
	{"geometry":{"coordinates":[8.980753,45.902537],"type":"Point"},"properties":{"osm_id":"4783621155","tag":{"amenity":"waste_basket"}},"type":"Feature"},
	{"geometry":{"coordinates":[8.9801,45.902748],"type":"Point"},"properties":{"osm_id":"4783621168","tag":{"amenity":"waste_basket"}},"type":"Feature"},
	{"geometry":{"coordinates":[8.977866,45.890771],"type":"Point"},"properties":{"osm_id":"4785159021","tag":{"amenity":"waste_basket"}},"type":"Feature"},
	{"geometry":{"coordinates":[9.04557,45.896148],"type":"Point"},"properties":{"osm_id":"5136337479","tag":{"amenity":"recycling","mapillary":"b6lcCxXeGQJitX8SlwCSSw","recycling_type":"container"}},"type":"Feature"},
	{"geometry":{"coordinates":[9.042515,45.9022],"type":"Point"},"properties":{"osm_id":"5140294329","tag":{"amenity":"waste_basket"}},"type":"Feature"},
	{"geometry":{"coordinates":[9.042479,45.902545],"type":"Point"},"properties":{"osm_id":"5141816014","tag":{"amenity":"waste_basket"}},"type":"Feature"},
	{"geometry":{"coordinates":[9.032556,45.913301],"type":"Point"},"properties":{"osm_id":"5262529385","tag":{"amenity":"waste_basket"}},"type":"Feature"},
	{"geometry":{"coordinates":[9.032555,45.914711],"type":"Point"},"properties":{"osm_id":"5262627440","tag":{"amenity":"waste_basket"}},"type":"Feature"},
	{"geometry":{"coordinates":[9.032513,45.91472],"type":"Point"},"properties":{"osm_id":"5262627442","tag":{"amenity":"waste_disposal"}},"type":"Feature"}
]
}
