{
"type": "FeatureCollection",
"features": [
	{"geometry":{"coordinates":[9.017608,45.852884],"type":"Point"},"properties":{"osm_id":"866221542","tag":{"addr:city":"Morbio Inferiore","addr:country":"CH","addr:postcode":"6834","amenity":"recycling","recycling:batteries":"yes","recycling:cans":"yes","recycling:cartons":"yes","recycling:clothes":"yes","recycling:cooking_oil":"yes","recycling:engine_oil":"yes","recycling:glass":"yes","recycling:paper":"no","recycling:plastic":"yes","recycling:plastic_bottles":"yes","recycling_type":"container"}},"type":"Feature"},
	{"geometry":{"coordinates":[9.023049,45.851803],"type":"Point"},"properties":{"osm_id":"3020863486","tag":{"amenity":"recycling","recycling:aluminium":"yes","recycling:batteries":"yes","recycling:cans":"yes","recycling:clothes":"yes","recycling:cooking_oil":"yes","recycling:engine_oil":"yes","recycling:glass":"yes","recycling:paper":"no","recycling:plastic":"yes","recycling:plastic_bottles":"yes","recycling_type":"container"}},"type":"Feature"},
	{"geometry":{"coordinates":[9.014198,45.849332],"type":"Point"},"properties":{"osm_id":"3020864365","tag":{"amenity":"recycling","recycling:aluminium":"yes","recycling:batteries":"yes","recycling:cans":"yes","recycling:clothes":"yes","recycling:cooking_oil":"yes","recycling:engine_oil":"yes","recycling:glass":"yes","recycling:paper":"no","recycling:plastic":"yes","recycling:plastic_bottles":"yes"}},"type":"Feature"},
	{"geometry":{"coordinates":[9.029097,45.830723],"type":"Point"},"properties":{"osm_id":"3022845871","tag":{"amenity":"recycling","collection_times":"Tu,Fr 07:30-11:00,13:45-16:30; Sa 07:30-11:00","recycling:aluminium":"yes","recycling:batteries":"yes","recycling:cans":"yes","recycling:clothes":"yes","recycling:cooking_oil":"yes","recycling:engine_oil":"yes","recycling:glass":"yes","recycling:metal":"yes","recycling:paper":"yes","recycling:plastic":"yes","recycling:plastic_bottles":"yes","recycling:styrofoam":"yes","recycling:wood":"yes","recycling_type":"centre"}},"type":"Feature"},
	{"geometry":{"coordinates":[9.011397,45.845755],"type":"Point"},"properties":{"osm_id":"3023323383","tag":{"amenity":"recycling","recycling:cans":"no","recycling:clothes":"yes","recycling:glass":"no","recycling:paper":"no"}},"type":"Feature"},
	{"geometry":{"coordinates":[9.021806,45.841458],"type":"Point"},"properties":{"osm_id":"3025131921","tag":{"addr:city":"Morbio Inferiore","addr:country":"CH","addr:postcode":"6834","addr:street":"Via Carlo Maderno","amenity":"recycling","recycling:batteries":"yes","recycling:cans":"yes","recycling:clothes":"no","recycling:cooking_oil":"yes","recycling:engine_oil":"yes","recycling:glass":"yes","recycling:paper":"no","recycling:plastic":"yes","recycling:plastic_bottles":"yes","recycling_type":"container"}},"type":"Feature"},
	{"geometry":{"coordinates":[8.979681,45.866145],"type":"Point"},"properties":{"osm_id":"3030136426","tag":{"amenity":"recycling","recycling_type":"container"}},"type":"Feature"},
	{"geometry":{"coordinates":[9.033019,45.836573],"type":"Point"},"properties":{"osm_id":"3035179260","tag":{"amenity":"recycling","recycling:aluminium":"yes","recycling:cans":"no","recycling:clothes":"no","recycling:glass":"yes","recycling:paper":"no","recycling:plastic_bottles":"yes","recycling_type":"container"}},"type":"Feature"},
	{"geometry":{"coordinates":[8.985068,45.871411],"type":"Point"},"properties":{"osm_id":"3037562787","tag":{"amenity":"waste_basket"}},"type":"Feature"},
	{"geometry":{"coordinates":[9.030881,45.844593],"type":"Point"},"properties":{"osm_id":"3039091415","tag":{"amenity":"recycling","recycling:aluminium":"yes","recycling:batteries":"yes","recycling:cans":"yes","recycling:clothes":"yes","recycling:cooking_oil":"yes","recycling:engine_oil":"yes","recycling:glass":"yes","recycling:paper":"no","recycling:plastic_bottles":"yes"}},"type":"Feature"},
	{"geometry":{"coordinates":[9.033993,45.848865],"type":"Point"},"properties":{"osm_id":"3039091429","tag":{"amenity":"recycling","recycling:aluminium":"yes","recycling:batteries":"yes","recycling:cans":"yes","recycling:clothes":"yes","recycling:cooking_oil":"yes","recycling:engine_oil":"yes","recycling:glass":"yes","recycling:paper":"no","recycling:plastic_bottles":"yes"}},"type":"Feature"},
	{"geometry":{"coordinates":[8.979454,45.869546],"type":"Point"},"properties":{"osm_id":"3049260208","tag":{"amenity":"recycling","recycling:cans":"no","recycling:clothes":"yes","recycling:glass":"no","recycling:paper":"no","recycling_type":"container"}},"type":"Feature"},
	{"geometry":{"coordinates":[9.032128,45.833921],"type":"Point"},"properties":{"osm_id":"3050622345","tag":{"amenity":"recycling","recycling:aluminium":"yes","recycling:cans":"no","recycling:clothes":"no","recycling:glass":"yes","recycling:paper":"no","recycling:plastic_bottles":"yes","recycling_type":"container"}},"type":"Feature"},
	{"geometry":{"coordinates":[9.026859,45.840722],"type":"Point"},"properties":{"osm_id":"3050640692","tag":{"amenity":"recycling","recycling:aluminium":"yes","recycling:cans":"yes","recycling:clothes":"yes","recycling:cooking_oil":"yes","recycling:engine_oil":"yes","recycling:glass":"yes","recycling:paper":"no","recycling:plastic":"no","recycling:plastic_bottles":"yes","recycling_type":"container"}},"type":"Feature"},
	{"geometry":{"coordinates":[9.01276,45.841194],"type":"Point"},"properties":{"osm_id":"3051375892","tag":{"amenity":"recycling","recycling:aluminium":"yes","recycling:batteries":"yes","recycling:cans":"yes","recycling:clothes":"yes","recycling:cooking_oil":"yes","recycling:glass":"yes","recycling:paper":"no","recycling:plastic_bottles":"yes","recycling_type":"container"}},"type":"Feature"},
	{"geometry":{"coordinates":[8.978021,45.841989],"type":"Point"},"properties":{"osm_id":"3051935858","tag":{"amenity":"recycling","recycling:cans":"yes","recycling:clothes":"yes","recycling:glass":"yes","recycling:paper":"yes"}},"type":"Feature"},
	{"geometry":{"coordinates":[9.023947,45.834],"type":"Point"},"properties":{"osm_id":"3053943939","tag":{"amenity":"waste_basket"}},"type":"Feature"},
	{"geometry":{"coordinates":[9.026289,45.838046],"type":"Point"},"properties":{"osm_id":"3065096993","tag":{"amenity":"recycling","recycling:cans":"yes","recycling:clothes":"no","recycling:glass":"yes","recycling:paper":"yes"}},"type":"Feature"},
	{"geometry":{"coordinates":[9.032511,45.871008],"type":"Point"},"properties":{"osm_id":"3071503798","tag":{"amenity":"recycling","mapillary":"r3asWZY44vrpAuyqdGGmVA","recycling:aluminium":"yes","recycling:batteries":"yes","recycling:cans":"yes","recycling:clothes":"yes","recycling:glass":"yes","recycling:paper":"no","recycling:plastic_bottles":"yes","recycling_type":"container"}},"type":"Feature"},
	{"geometry":{"coordinates":[9.0305,45.843419],"type":"Point"},"properties":{"osm_id":"3075002399","tag":{"amenity":"waste_disposal","waste":"trash"}},"type":"Feature"},
	{"geometry":{"coordinates":[9.029521,45.843356],"type":"Point"},"properties":{"osm_id":"3075002400","tag":{"amenity":"waste_basket","bin":"yes","fee":"no","vending":"excrement_bags"}},"type":"Feature"},
	{"geometry":{"coordinates":[9.029342,45.843362],"type":"Point"},"properties":{"osm_id":"3075002402","tag":{"amenity":"waste_basket"}},"type":"Feature"},
	{"geometry":{"coordinates":[8.991148,45.841789],"type":"Point"},"properties":{"osm_id":"3100892918","tag":{"amenity":"waste_basket"}},"type":"Feature"},
	{"geometry":{"coordinates":[8.980112,45.883719],"type":"Point"},"properties":{"osm_id":"3136826456","tag":{"amenity":"waste_basket"}},"type":"Feature"},
	{"geometry":{"coordinates":[9.027077,45.834606],"type":"Point"},"properties":{"osm_id":"3152356973","tag":{"amenity":"waste_basket"}},"type":"Feature"},
	{"geometry":{"coordinates":[8.985483,45.870933],"type":"Point"},"properties":{"osm_id":"3152816660","tag":{"amenity":"waste_basket"}},"type":"Feature"},
	{"geometry":{"coordinates":[8.986122,45.869113],"type":"Point"},"properties":{"osm_id":"3152816674","tag":{"amenity":"waste_basket"}},"type":"Feature"},
	{"geometry":{"coordinates":[8.986124,45.869139],"type":"Point"},"properties":{"osm_id":"3152816681","tag":{"amenity":"waste_disposal","waste":"trash"}},"type":"Feature"},
	{"geometry":{"coordinates":[8.984703,45.86842],"type":"Point"},"properties":{"osm_id":"3152816682","tag":{"amenity":"waste_disposal","waste":"trash"}},"type":"Feature"},
	{"geometry":{"coordinates":[8.990943,45.869667],"type":"Point"},"properties":{"osm_id":"3152816757","tag":{"amenity":"recycling","recycling:cans":"yes","recycling:clothes":"yes","recycling:glass":"yes","recycling:paper":"yes"}},"type":"Feature"},
	{"geometry":{"coordinates":[8.997401,45.84027],"type":"Point"},"properties":{"osm_id":"3163705278","tag":{"amenity":"waste_basket"}},"type":"Feature"},
	{"geometry":{"coordinates":[9.029567,45.842374],"type":"Point"},"properties":{"osm_id":"3189251780","tag":{"amenity":"waste_basket"}},"type":"Feature"},
	{"geometry":{"coordinates":[8.98861,45.870078],"type":"Point"},"properties":{"osm_id":"3190762591","tag":{"amenity":"waste_basket"}},"type":"Feature"},
	{"geometry":{"coordinates":[9.029093,45.843547],"type":"Point"},"properties":{"osm_id":"3221474071","tag":{"amenity":"waste_basket"}},"type":"Feature"},
	{"geometry":{"coordinates":[9.046006,45.836804],"type":"Point"},"properties":{"osm_id":"3224587797","tag":{"amenity":"waste_disposal"}},"type":"Feature"},
	{"geometry":{"coordinates":[9.044823,45.836674],"type":"Point"},"properties":{"osm_id":"3231720596","tag":{"amenity":"waste_disposal"}},"type":"Feature"},
	{"geometry":{"coordinates":[8.980894,45.850312],"type":"Point"},"properties":{"osm_id":"3236725325","tag":{"amenity":"waste_basket"}},"type":"Feature"},
	{"geometry":{"coordinates":[8.980885,45.850438],"type":"Point"},"properties":{"osm_id":"3236725326","tag":{"amenity":"waste_basket"}},"type":"Feature"},
	{"geometry":{"coordinates":[9.033732,45.83536],"type":"Point"},"properties":{"osm_id":"3243132393","tag":{"amenity":"waste_basket"}},"type":"Feature"},
	{"geometry":{"coordinates":[9.033572,45.83543],"type":"Point"},"properties":{"osm_id":"3243132394","tag":{"amenity":"waste_basket"}},"type":"Feature"},
	{"geometry":{"coordinates":[9.046745,45.836323],"type":"Point"},"properties":{"osm_id":"3244595771","tag":{"addr:street":"Via Umberto Boccioni","amenity":"waste_basket"}},"type":"Feature"},
	{"geometry":{"coordinates":[9.046783,45.836327],"type":"Point"},"properties":{"osm_id":"3244595772","tag":{"addr:street":"Via Umberto Boccioni","amenity":"waste_basket"}},"type":"Feature"},
	{"geometry":{"coordinates":[9.041995,45.836825],"type":"Point"},"properties":{"osm_id":"3244689972","tag":{"amenity":"waste_basket"}},"type":"Feature"},
	{"geometry":{"coordinates":[9.041882,45.837014],"type":"Point"},"properties":{"osm_id":"3244689982","tag":{"amenity":"waste_basket"}},"type":"Feature"},
	{"geometry":{"coordinates":[9.04219,45.837042],"type":"Point"},"properties":{"osm_id":"3244689984","tag":{"amenity":"waste_basket"}},"type":"Feature"},
	{"geometry":{"coordinates":[9.042361,45.837091],"type":"Point"},"properties":{"osm_id":"3244689988","tag":{"amenity":"waste_basket"}},"type":"Feature"},
	{"geometry":{"coordinates":[9.042526,45.837139],"type":"Point"},"properties":{"osm_id":"3244689989","tag":{"amenity":"waste_basket"}},"type":"Feature"},
	{"geometry":{"coordinates":[9.041798,45.837154],"type":"Point"},"properties":{"osm_id":"3244689990","tag":{"amenity":"waste_basket"}},"type":"Feature"},
	{"geometry":{"coordinates":[9.042724,45.837191],"type":"Point"},"properties":{"osm_id":"3244689991","tag":{"amenity":"waste_basket"}},"type":"Feature"},
	{"geometry":{"coordinates":[9.042038,45.837241],"type":"Point"},"properties":{"osm_id":"3244689995","tag":{"amenity":"waste_basket"}},"type":"Feature"},
	{"geometry":{"coordinates":[9.04233,45.837241],"type":"Point"},"properties":{"osm_id":"3244689996","tag":{"amenity":"waste_basket"}},"type":"Feature"},
	{"geometry":{"coordinates":[9.042177,45.83731],"type":"Point"},"properties":{"osm_id":"3244689997","tag":{"amenity":"waste_basket"}},"type":"Feature"},
	{"geometry":{"coordinates":[9.042417,45.837382],"type":"Point"},"properties":{"osm_id":"3244689998","tag":{"amenity":"waste_basket"}},"type":"Feature"},
	{"geometry":{"coordinates":[9.042607,45.837397],"type":"Point"},"properties":{"osm_id":"3244689999","tag":{"amenity":"waste_basket"}},"type":"Feature"},
	{"geometry":{"coordinates":[9.041942,45.837413],"type":"Point"},"properties":{"osm_id":"3244690000","tag":{"amenity":"waste_basket"}},"type":"Feature"},
	{"geometry":{"coordinates":[9.042251,45.837418],"type":"Point"},"properties":{"osm_id":"3244690001","tag":{"amenity":"waste_basket"}},"type":"Feature"},
	{"geometry":{"coordinates":[9.041431,45.83745],"type":"Point"},"properties":{"osm_id":"3244690003","tag":{"amenity":"waste_basket"}},"type":"Feature"},
	{"geometry":{"coordinates":[9.041601,45.837485],"type":"Point"},"properties":{"osm_id":"3244690004","tag":{"amenity":"waste_basket"}},"type":"Feature"},
	{"geometry":{"coordinates":[9.042432,45.837699],"type":"Point"},"properties":{"osm_id":"3244690007","tag":{"amenity":"waste_basket"}},"type":"Feature"},
	{"geometry":{"coordinates":[9.020444,45.838595],"type":"Point"},"properties":{"osm_id":"3249407834","tag":{"amenity":"waste_basket"}},"type":"Feature"},
	{"geometry":{"coordinates":[9.017148,45.839514],"type":"Point"},"properties":{"osm_id":"3249407857","tag":{"amenity":"waste_basket"}},"type":"Feature"},
	{"geometry":{"coordinates":[9.015597,45.840488],"type":"Point"},"properties":{"osm_id":"3249407858","tag":{"amenity":"waste_basket","vending":"excrement_bags"}},"type":"Feature"},
	{"geometry":{"coordinates":[9.011461,45.842013],"type":"Point"},"properties":{"osm_id":"3249411761","tag":{"amenity":"waste_basket","vending":"excrement_bags"}},"type":"Feature"},
	{"geometry":{"coordinates":[9.005642,45.844413],"type":"Point"},"properties":{"osm_id":"3249411783","tag":{"amenity":"recycling","recycling:aluminium":"yes","recycling:batteries":"yes","recycling:cans":"yes","recycling:glass":"yes","recycling:paper":"no"}},"type":"Feature"},
	{"geometry":{"coordinates":[9.005469,45.844618],"type":"Point"},"properties":{"osm_id":"3249411784","tag":{"amenity":"waste_basket","vending":"excrement_bags"}},"type":"Feature"},
	{"geometry":{"coordinates":[9.002493,45.845795],"type":"Point"},"properties":{"osm_id":"3249411791","tag":{"amenity":"waste_basket","vending":"excrement_bags"}},"type":"Feature"},
	{"geometry":{"coordinates":[9.001302,45.845786],"type":"Point"},"properties":{"osm_id":"3249411814","tag":{"amenity":"waste_basket"}},"type":"Feature"},
	{"geometry":{"coordinates":[8.996526,45.845551],"type":"Point"},"properties":{"osm_id":"3249412173","tag":{"amenity":"recycling","recycling:cans":"yes","recycling:clothes":"yes","recycling:glass":"yes","recycling:paper":"no"}},"type":"Feature"},
	{"geometry":{"coordinates":[8.996899,45.845593],"type":"Point"},"properties":{"osm_id":"3249412174","tag":{"amenity":"waste_basket","vending":"excrement_bags"}},"type":"Feature"},
	{"geometry":{"coordinates":[8.997969,45.846075],"type":"Point"},"properties":{"osm_id":"3249412196","tag":{"amenity":"waste_basket"}},"type":"Feature"},
	{"geometry":{"coordinates":[8.998467,45.845789],"type":"Point"},"properties":{"osm_id":"3249412221","tag":{"amenity":"waste_basket","vending":"excrement_bags"}},"type":"Feature"},
	{"geometry":{"coordinates":[9.006342,45.848964],"type":"Point"},"properties":{"osm_id":"3249499634","tag":{"amenity":"waste_basket"}},"type":"Feature"},
	{"geometry":{"coordinates":[9.007522,45.850503],"type":"Point"},"properties":{"osm_id":"3249499640","tag":{"amenity":"waste_basket","vending":"excrement_bags"}},"type":"Feature"},
	{"geometry":{"coordinates":[9.010137,45.855388],"type":"Point"},"properties":{"osm_id":"3249499641","tag":{"amenity":"waste_basket"}},"type":"Feature"},
	{"geometry":{"coordinates":[9.012766,45.856833],"type":"Point"},"properties":{"osm_id":"3249499649","tag":{"amenity":"waste_basket"}},"type":"Feature"},
	{"geometry":{"coordinates":[9.012278,45.845722],"type":"Point"},"properties":{"osm_id":"3255415888","tag":{"amenity":"waste_basket"}},"type":"Feature"},
	{"geometry":{"coordinates":[9.021794,45.860325],"type":"Point"},"properties":{"osm_id":"3255440458","tag":{"amenity":"recycling","recycling:aluminium":"yes","recycling:batteries":"yes","recycling:cans":"yes","recycling:clothes":"yes","recycling:cooking_oil":"yes","recycling:engine_oil":"yes","recycling:glass":"yes","recycling:paper":"yes","recycling:plastic":"yes","recycling:plastic_bottles":"yes","recycling:styrofoam":"yes","recycling_type":"centre"}},"type":"Feature"},
	{"geometry":{"coordinates":[9.037974,45.857373],"type":"Point"},"properties":{"osm_id":"3255525080","tag":{"amenity":"waste_basket","mapillary":"GuAiJg6E9V7w9tR9EO963g"}},"type":"Feature"},
	{"geometry":{"coordinates":[9.029757,45.842714],"type":"Point"},"properties":{"osm_id":"3255896867","tag":{"amenity":"waste_basket"}},"type":"Feature"},
	{"geometry":{"coordinates":[9.039787,45.856456],"type":"Point"},"properties":{"osm_id":"3255954339","tag":{"amenity":"waste_basket","mapillary":"78U-AZPLmMdJv0BbBBOYqg"}},"type":"Feature"},
	{"geometry":{"coordinates":[9.042228,45.859718],"type":"Point"},"properties":{"osm_id":"3255956089","tag":{"amenity":"waste_basket"}},"type":"Feature"},
	{"geometry":{"coordinates":[9.039054,45.857492],"type":"Point"},"properties":{"osm_id":"3255956096","tag":{"amenity":"waste_basket"}},"type":"Feature"},
	{"geometry":{"coordinates":[9.01903,45.85881],"type":"Point"},"properties":{"osm_id":"3256770724","tag":{"amenity":"waste_basket"}},"type":"Feature"},
	{"geometry":{"coordinates":[8.988844,45.870375],"type":"Point"},"properties":{"osm_id":"3256880309","tag":{"amenity":"waste_basket"}},"type":"Feature"},
	{"geometry":{"coordinates":[8.989453,45.870528],"type":"Point"},"properties":{"osm_id":"3256880311","tag":{"amenity":"waste_basket"}},"type":"Feature"},
	{"geometry":{"coordinates":[9.032895,45.871076],"type":"Point"},"properties":{"osm_id":"3257191636","tag":{"amenity":"waste_basket"}},"type":"Feature"},
	{"geometry":{"coordinates":[9.03297,45.871291],"type":"Point"},"properties":{"osm_id":"3257191637","tag":{"amenity":"waste_basket","mapillary":"AMn3q40Yga_l2JHuCVu-gg"}},"type":"Feature"},
	{"geometry":{"coordinates":[9.030527,45.872332],"type":"Point"},"properties":{"osm_id":"3257191651","tag":{"amenity":"waste_basket","mapillary":"_JTkowH40v16ogiqs1FF4w"}},"type":"Feature"},
	{"geometry":{"coordinates":[9.030438,45.872805],"type":"Point"},"properties":{"osm_id":"3257200283","tag":{"amenity":"waste_basket"}},"type":"Feature"},
	{"geometry":{"coordinates":[9.030801,45.873138],"type":"Point"},"properties":{"osm_id":"3257200293","tag":{"amenity":"waste_basket"}},"type":"Feature"},
	{"geometry":{"coordinates":[9.028552,45.863768],"type":"Point"},"properties":{"osm_id":"3257207264","tag":{"amenity":"waste_basket"}},"type":"Feature"},
	{"geometry":{"coordinates":[9.044555,45.835788],"type":"Point"},"properties":{"osm_id":"3261789629","tag":{"amenity":"waste_basket"}},"type":"Feature"},
	{"geometry":{"coordinates":[9.022263,45.837863],"type":"Point"},"properties":{"osm_id":"3261817912","tag":{"amenity":"waste_basket"}},"type":"Feature"},
	{"geometry":{"coordinates":[9.021288,45.837392],"type":"Point"},"properties":{"osm_id":"3261817914","tag":{"amenity":"waste_basket"}},"type":"Feature"},
	{"geometry":{"coordinates":[9.024767,45.833721],"type":"Point"},"properties":{"osm_id":"3261827804","tag":{"amenity":"waste_basket"}},"type":"Feature"},
	{"geometry":{"coordinates":[9.024105,45.833971],"type":"Point"},"properties":{"osm_id":"3261827811","tag":{"amenity":"waste_basket"}},"type":"Feature"},
	{"geometry":{"coordinates":[9.032579,45.843082],"type":"Point"},"properties":{"osm_id":"3266697429","tag":{"amenity":"waste_basket"}},"type":"Feature"},
	{"geometry":{"coordinates":[9.028979,45.847093],"type":"Point"},"properties":{"osm_id":"3266697431","tag":{"amenity":"recycling","recycling:aluminium":"yes","recycling:batteries":"yes","recycling:cans":"yes","recycling:clothes":"yes","recycling:cooking_oil":"yes","recycling:engine_oil":"yes","recycling:glass":"yes","recycling:paper":"no","recycling:plastic":"yes","recycling:plastic_bottles":"yes"}},"type":"Feature"},
	{"geometry":{"coordinates":[9.030035,45.846005],"type":"Point"},"properties":{"osm_id":"3266697434","tag":{"amenity":"waste_basket"}},"type":"Feature"},
	{"geometry":{"coordinates":[9.03146,45.844941],"type":"Point"},"properties":{"osm_id":"3266698063","tag":{"amenity":"waste_basket"}},"type":"Feature"},
	{"geometry":{"coordinates":[9.031286,45.844906],"type":"Point"},"properties":{"osm_id":"3266698064","tag":{"amenity":"waste_basket"}},"type":"Feature"},
	{"geometry":{"coordinates":[9.03458,45.847742],"type":"Point"},"properties":{"osm_id":"3266698075","tag":{"amenity":"waste_basket"}},"type":"Feature"},
	{"geometry":{"coordinates":[9.034021,45.847603],"type":"Point"},"properties":{"osm_id":"3266698079","tag":{"amenity":"waste_basket"}},"type":"Feature"},
	{"geometry":{"coordinates":[9.034707,45.847856],"type":"Point"},"properties":{"osm_id":"3267860518","tag":{"amenity":"waste_basket"}},"type":"Feature"},
	{"geometry":{"coordinates":[9.002351,45.863123],"type":"Point"},"properties":{"osm_id":"3268694332","tag":{"amenity":"waste_basket"}},"type":"Feature"},
	{"geometry":{"coordinates":[8.996425,45.863577],"type":"Point"},"properties":{"osm_id":"3268694338","tag":{"amenity":"waste_basket"}},"type":"Feature"},
	{"geometry":{"coordinates":[9.003258,45.863189],"type":"Point"},"properties":{"osm_id":"3268694339","tag":{"amenity":"waste_basket"}},"type":"Feature"},
	{"geometry":{"coordinates":[9.016345,45.852539],"type":"Point"},"properties":{"osm_id":"3269209661","tag":{"amenity":"waste_basket"}},"type":"Feature"},
	{"geometry":{"coordinates":[9.016118,45.853878],"type":"Point"},"properties":{"osm_id":"3269209662","tag":{"amenity":"waste_basket"}},"type":"Feature"},
	{"geometry":{"coordinates":[9.016531,45.852238],"type":"Point"},"properties":{"osm_id":"3269273748","tag":{"amenity":"waste_basket"}},"type":"Feature"},
	{"geometry":{"coordinates":[9.027294,45.840685],"type":"Point"},"properties":{"osm_id":"3271374694","tag":{"amenity":"waste_basket"}},"type":"Feature"},
	{"geometry":{"coordinates":[9.022194,45.843156],"type":"Point"},"properties":{"osm_id":"3277660569","tag":{"addr:city":"Morbio Inferiore","addr:country":"CH","addr:postcode":"6834","amenity":"recycling","recycling:batteries":"yes","recycling:cans":"yes","recycling:clothes":"no","recycling:cooking_oil":"yes","recycling:engine_oil":"yes","recycling:glass":"yes","recycling:paper":"no","recycling:plastic":"yes","recycling:plastic_bottles":"yes"}},"type":"Feature"},
	{"geometry":{"coordinates":[9.011243,45.850433],"type":"Point"},"properties":{"osm_id":"3278754719","tag":{"amenity":"waste_basket"}},"type":"Feature"},
	{"geometry":{"coordinates":[9.01087,45.850342],"type":"Point"},"properties":{"osm_id":"3278754720","tag":{"amenity":"waste_basket"}},"type":"Feature"},
	{"geometry":{"coordinates":[9.012124,45.850398],"type":"Point"},"properties":{"osm_id":"3278754730","tag":{"amenity":"waste_basket"}},"type":"Feature"},
	{"geometry":{"coordinates":[9.012751,45.851123],"type":"Point"},"properties":{"osm_id":"3278754734","tag":{"amenity":"waste_basket"}},"type":"Feature"},
	{"geometry":{"coordinates":[9.012688,45.851231],"type":"Point"},"properties":{"osm_id":"3278754735","tag":{"amenity":"waste_basket"}},"type":"Feature"},
	{"geometry":{"coordinates":[9.012629,45.851176],"type":"Point"},"properties":{"osm_id":"3278754736","tag":{"amenity":"recycling","recycling:glass":"yes"}},"type":"Feature"},
	{"geometry":{"coordinates":[9.002954,45.85206],"type":"Point"},"properties":{"osm_id":"3278754744","tag":{"amenity":"waste_basket"}},"type":"Feature"},
	{"geometry":{"coordinates":[9.001475,45.852758],"type":"Point"},"properties":{"osm_id":"3278754745","tag":{"amenity":"waste_basket"}},"type":"Feature"},
	{"geometry":{"coordinates":[9.001156,45.85278],"type":"Point"},"properties":{"osm_id":"3278754747","tag":{"amenity":"waste_basket"}},"type":"Feature"},
	{"geometry":{"coordinates":[9.021939,45.860235],"type":"Point"},"properties":{"osm_id":"3294692110","tag":{"amenity":"waste_basket"}},"type":"Feature"},
	{"geometry":{"coordinates":[9.021585,45.860464],"type":"Point"},"properties":{"osm_id":"3294692132","tag":{"amenity":"waste_basket"}},"type":"Feature"},
	{"geometry":{"coordinates":[9.021879,45.860548],"type":"Point"},"properties":{"osm_id":"3294692143","tag":{"amenity":"waste_basket"}},"type":"Feature"},
	{"geometry":{"coordinates":[9.021451,45.860548],"type":"Point"},"properties":{"osm_id":"3294692144","tag":{"amenity":"waste_basket"}},"type":"Feature"},
	{"geometry":{"coordinates":[9.020779,45.861373],"type":"Point"},"properties":{"osm_id":"3294697663","tag":{"amenity":"waste_basket"}},"type":"Feature"},
	{"geometry":{"coordinates":[9.025029,45.863228],"type":"Point"},"properties":{"osm_id":"3294733709","tag":{"amenity":"waste_basket"}},"type":"Feature"},
	{"geometry":{"coordinates":[9.004596,45.856055],"type":"Point"},"properties":{"osm_id":"3296297505","tag":{"amenity":"recycling","recycling_type":"centre"}},"type":"Feature"},
	{"geometry":{"coordinates":[9.023546,45.875005],"type":"Point"},"properties":{"osm_id":"3296639643","tag":{"amenity":"waste_basket"}},"type":"Feature"},
	{"geometry":{"coordinates":[9.020877,45.87406],"type":"Point"},"properties":{"osm_id":"3296639645","tag":{"amenity":"recycling","recycling:aluminium":"yes","recycling:glass":"yes","recycling:plastic_bottles":"yes","recycling_type":"centre"}},"type":"Feature"},
	{"geometry":{"coordinates":[9.024587,45.881268],"type":"Point"},"properties":{"osm_id":"3296639653","tag":{"amenity":"recycling","recycling:aluminium":"yes","recycling:batteries":"yes","recycling:cooking_oil":"yes","recycling:glass":"yes","recycling:plastic":"yes","recycling:plastic_bottles":"yes"}},"type":"Feature"},
	{"geometry":{"coordinates":[9.020639,45.874085],"type":"Point"},"properties":{"osm_id":"3296639963","tag":{"amenity":"waste_basket"}},"type":"Feature"},
	{"geometry":{"coordinates":[9.026205,45.88135],"type":"Point"},"properties":{"osm_id":"3296639965","tag":{"amenity":"waste_basket"}},"type":"Feature"},
	{"geometry":{"coordinates":[9.024602,45.873771],"type":"Point"},"properties":{"osm_id":"3296966336","tag":{"amenity":"waste_basket"}},"type":"Feature"},
	{"geometry":{"coordinates":[9.02089,45.83319],"type":"Point"},"properties":{"osm_id":"3302833554","tag":{"amenity":"recycling","recycling:aluminium":"yes","recycling:glass":"yes","recycling:plastic_bottles":"yes","recycling_type":"container"}},"type":"Feature"},
	{"geometry":{"coordinates":[9.032889,45.83671],"type":"Point"},"properties":{"osm_id":"3307435155","tag":{"amenity":"waste_basket"}},"type":"Feature"},
	{"geometry":{"coordinates":[9.032671,45.837035],"type":"Point"},"properties":{"osm_id":"3307435157","tag":{"amenity":"waste_basket"}},"type":"Feature"},
	{"geometry":{"coordinates":[9.033099,45.836848],"type":"Point"},"properties":{"osm_id":"3307438067","tag":{"amenity":"waste_basket"}},"type":"Feature"},
	{"geometry":{"coordinates":[9.033306,45.836847],"type":"Point"},"properties":{"osm_id":"3307438086","tag":{"amenity":"waste_basket"}},"type":"Feature"},
	{"geometry":{"coordinates":[9.025186,45.848663],"type":"Point"},"properties":{"osm_id":"3307875792","tag":{"amenity":"recycling","recycling:glass":"yes","recycling_type":"container"}},"type":"Feature"},
	{"geometry":{"coordinates":[9.020713,45.848111],"type":"Point"},"properties":{"osm_id":"3307928111","tag":{"amenity":"waste_basket"}},"type":"Feature"},
	{"geometry":{"coordinates":[9.02144,45.847612],"type":"Point"},"properties":{"osm_id":"3307928114","tag":{"amenity":"waste_basket"}},"type":"Feature"},
	{"geometry":{"coordinates":[9.031807,45.83402],"type":"Point"},"properties":{"osm_id":"3309646662","tag":{"amenity":"waste_basket"}},"type":"Feature"},
	{"geometry":{"coordinates":[9.032168,45.833907],"type":"Point"},"properties":{"osm_id":"3309646688","tag":{"amenity":"waste_basket"}},"type":"Feature"},
	{"geometry":{"coordinates":[8.98721,45.853495],"type":"Point"},"properties":{"osm_id":"3320281106","tag":{"amenity":"waste_basket"}},"type":"Feature"},
	{"geometry":{"coordinates":[8.971228,45.857722],"type":"Point"},"properties":{"osm_id":"3334505017","tag":{"amenity":"recycling","recycling:aluminium":"yes","recycling:batteries":"yes","recycling:clothes":"yes","recycling:cooking_oil":"yes","recycling:glass":"yes","recycling:plastic_bottles":"yes","recycling_type":"container"}},"type":"Feature"},
	{"geometry":{"coordinates":[9.005036,45.85041],"type":"Point"},"properties":{"osm_id":"3348174617","tag":{"amenity":"recycling","recycling:glass":"yes","recycling:waste":"yes"}},"type":"Feature"},
	{"geometry":{"coordinates":[8.987419,45.872618],"type":"Point"},"properties":{"osm_id":"3348617005","tag":{"amenity":"waste_basket"}},"type":"Feature"},
	{"geometry":{"coordinates":[9.016909,45.845559],"type":"Point"},"properties":{"osm_id":"3398067473","tag":{"amenity":"recycling","recycling:clothes":"yes"}},"type":"Feature"},
	{"geometry":{"coordinates":[9.037406,45.842951],"type":"Point"},"properties":{"osm_id":"3398161896","tag":{"amenity":"waste_basket"}},"type":"Feature"},
	{"geometry":{"coordinates":[9.005617,45.850162],"type":"Point"},"properties":{"osm_id":"3398186904","tag":{"amenity":"waste_basket"}},"type":"Feature"},
	{"geometry":{"coordinates":[9.005521,45.850446],"type":"Point"},"properties":{"osm_id":"3398186908","tag":{"amenity":"waste_basket"}},"type":"Feature"},
	{"geometry":{"coordinates":[9.037673,45.842385],"type":"Point"},"properties":{"osm_id":"3398250680","tag":{"amenity":"recycling","recycling:batteries":"yes","recycling:cans":"yes","recycling:cooking_oil":"yes","recycling:glass":"yes","recycling:plastic_bottles":"yes","recycling_type":"centre"}},"type":"Feature"},
	{"geometry":{"coordinates":[8.987359,45.870236],"type":"Point"},"properties":{"osm_id":"3657089815","tag":{"amenity":"waste_basket"}},"type":"Feature"},
	{"geometry":{"coordinates":[8.981031,45.869632],"type":"Point"},"properties":{"osm_id":"3657089817","tag":{"amenity":"waste_basket"}},"type":"Feature"},
	{"geometry":{"coordinates":[8.980333,45.869937],"type":"Point"},"properties":{"osm_id":"3657089821","tag":{"amenity":"waste_basket"}},"type":"Feature"},
	{"geometry":{"coordinates":[8.979109,45.869316],"type":"Point"},"properties":{"osm_id":"3657090525","tag":{"amenity":"waste_basket"}},"type":"Feature"},
	{"geometry":{"coordinates":[8.97895,45.86911],"type":"Point"},"properties":{"osm_id":"3657090529","tag":{"amenity":"waste_basket"}},"type":"Feature"},
	{"geometry":{"coordinates":[8.9791,45.869041],"type":"Point"},"properties":{"osm_id":"3657090530","tag":{"amenity":"waste_basket"}},"type":"Feature"},
	{"geometry":{"coordinates":[8.983902,45.870079],"type":"Point"},"properties":{"osm_id":"3657090531","tag":{"amenity":"waste_basket"}},"type":"Feature"},
	{"geometry":{"coordinates":[9.007988,45.848498],"type":"Point"},"properties":{"osm_id":"3682800574","tag":{"amenity":"waste_basket"}},"type":"Feature"},
	{"geometry":{"coordinates":[9.008011,45.8482],"type":"Point"},"properties":{"osm_id":"3682800604","tag":{"amenity":"waste_basket"}},"type":"Feature"},
	{"geometry":{"coordinates":[9.007243,45.847864],"type":"Point"},"properties":{"osm_id":"3682800938","tag":{"amenity":"waste_basket"}},"type":"Feature"},
	{"geometry":{"coordinates":[9.006706,45.846831],"type":"Point"},"properties":{"osm_id":"3685806935","tag":{"amenity":"recycling","opening_hours":"Mo-Su 07:30-20:00","recycling:aluminium":"yes","recycling:batteries":"yes","recycling:cans":"yes","recycling:clothes":"yes","recycling:cooking_oil":"yes","recycling:engine_oil":"yes","recycling:glass":"yes","recycling:plastic_bottles":"yes","recycling_type":"container"}},"type":"Feature"},
	{"geometry":{"coordinates":[9.006765,45.846861],"type":"Point"},"properties":{"osm_id":"3685829267","tag":{"amenity":"waste_basket"}},"type":"Feature"},
	{"geometry":{"coordinates":[9.01407,45.842422],"type":"Point"},"properties":{"osm_id":"3691849180","tag":{"amenity":"waste_basket"}},"type":"Feature"},
	{"geometry":{"coordinates":[8.995221,45.871849],"type":"Point"},"properties":{"osm_id":"3750425910","tag":{"amenity":"waste_basket"}},"type":"Feature"},
	{"geometry":{"coordinates":[8.988564,45.869095],"type":"Point"},"properties":{"osm_id":"3750800985","tag":{"amenity":"waste_basket"}},"type":"Feature"},
	{"geometry":{"coordinates":[8.987369,45.867909],"type":"Point"},"properties":{"osm_id":"3751241040","tag":{"amenity":"recycling","recycling:aluminium":"yes","recycling:batteries":"yes","recycling:cans":"yes","recycling:clothes":"yes","recycling:cooking_oil":"yes","recycling:engine_oil":"yes","recycling:glass":"yes","recycling:glass_bottles":"yes","recycling:plastic":"no","recycling:plastic_bottles":"yes","recycling_type":"container"}},"type":"Feature"},
	{"geometry":{"coordinates":[8.994292,45.871894],"type":"Point"},"properties":{"osm_id":"3751576369","tag":{"amenity":"recycling","recycling:aluminium":"yes","recycling:batteries":"yes","recycling:clothes":"yes","recycling:cooking_oil":"yes","recycling:engine_oil":"yes","recycling:glass":"yes","recycling:plastic":"no","recycling:plastic_bottles":"yes","recycling_type":"container"}},"type":"Feature"},
	{"geometry":{"coordinates":[8.990025,45.86989],"type":"Point"},"properties":{"osm_id":"3801253856","tag":{"amenity":"waste_basket"}},"type":"Feature"},
	{"geometry":{"coordinates":[8.985252,45.874375],"type":"Point"},"properties":{"osm_id":"3835575638","tag":{"amenity":"waste_basket"}},"type":"Feature"},
	{"geometry":{"coordinates":[8.99781,45.86838],"type":"Point"},"properties":{"osm_id":"3835596851","tag":{"amenity":"waste_basket"}},"type":"Feature"},
	{"geometry":{"coordinates":[9.008093,45.861474],"type":"Point"},"properties":{"osm_id":"3835596856","tag":{"amenity":"waste_basket"}},"type":"Feature"},
	{"geometry":{"coordinates":[9.008947,45.861706],"type":"Point"},"properties":{"osm_id":"3835598768","tag":{"amenity":"waste_basket"}},"type":"Feature"},
	{"geometry":{"coordinates":[9.003928,45.847739],"type":"Point"},"properties":{"osm_id":"3835604622","tag":{"amenity":"waste_basket"}},"type":"Feature"},
	{"geometry":{"coordinates":[9.004868,45.847144],"type":"Point"},"properties":{"osm_id":"3835604624","tag":{"amenity":"waste_basket"}},"type":"Feature"},
	{"geometry":{"coordinates":[9.008034,45.849851],"type":"Point"},"properties":{"osm_id":"3835615302","tag":{"amenity":"waste_basket"}},"type":"Feature"},
	{"geometry":{"coordinates":[8.980105,45.86826],"type":"Point"},"properties":{"osm_id":"3836132835","tag":{"amenity":"waste_basket"}},"type":"Feature"},
	{"geometry":{"coordinates":[8.980004,45.868186],"type":"Point"},"properties":{"osm_id":"3836132837","tag":{"amenity":"waste_basket"}},"type":"Feature"},
	{"geometry":{"coordinates":[8.980417,45.868082],"type":"Point"},"properties":{"osm_id":"3836132848","tag":{"amenity":"waste_basket"}},"type":"Feature"},
	{"geometry":{"coordinates":[8.980791,45.867589],"type":"Point"},"properties":{"osm_id":"3836132852","tag":{"amenity":"waste_basket"}},"type":"Feature"},
	{"geometry":{"coordinates":[8.983986,45.868792],"type":"Point"},"properties":{"osm_id":"3836132853","tag":{"amenity":"waste_basket"}},"type":"Feature"},
	{"geometry":{"coordinates":[9.028691,45.833459],"type":"Point"},"properties":{"osm_id":"3836984116","tag":{"amenity":"recycling","recycling:cans":"no","recycling:clothes":"yes","recycling:glass":"no","recycling:glass_bottles":"no","recycling:paper":"no","recycling:plastic":"no"}},"type":"Feature"},
	{"geometry":{"coordinates":[9.031628,45.833149],"type":"Point"},"properties":{"osm_id":"3836984124","tag":{"amenity":"waste_basket"}},"type":"Feature"},
	{"geometry":{"coordinates":[9.033914,45.8321],"type":"Point"},"properties":{"osm_id":"3837007788","tag":{"amenity":"waste_basket"}},"type":"Feature"},
	{"geometry":{"coordinates":[9.033896,45.832224],"type":"Point"},"properties":{"osm_id":"3837007789","tag":{"amenity":"waste_basket"}},"type":"Feature"},
	{"geometry":{"coordinates":[9.007785,45.850751],"type":"Point"},"properties":{"osm_id":"3837164828","tag":{"amenity":"waste_basket"}},"type":"Feature"},
	{"geometry":{"coordinates":[9.007854,45.853544],"type":"Point"},"properties":{"osm_id":"3837164842","tag":{"amenity":"waste_basket"}},"type":"Feature"},
	{"geometry":{"coordinates":[9.045584,45.833542],"type":"Point"},"properties":{"osm_id":"3851618504","tag":{"amenity":"waste_basket"}},"type":"Feature"},
	{"geometry":{"coordinates":[8.977713,45.869068],"type":"Point"},"properties":{"osm_id":"3863114287","tag":{"amenity":"waste_basket"}},"type":"Feature"},
	{"geometry":{"coordinates":[8.97758,45.871796],"type":"Point"},"properties":{"osm_id":"3863114297","tag":{"amenity":"waste_basket"}},"type":"Feature"},
	{"geometry":{"coordinates":[8.977522,45.871786],"type":"Point"},"properties":{"osm_id":"3863115234","tag":{"amenity":"recycling","recycling:aluminium":"yes","recycling:batteries":"yes","recycling:clothes":"yes","recycling:cooking_oil":"yes","recycling:engine_oil":"yes","recycling:glass":"yes","recycling:plastic_bottles":"yes","recycling_type":"container"}},"type":"Feature"},
	{"geometry":{"coordinates":[8.987533,45.872731],"type":"Point"},"properties":{"osm_id":"3863671428","tag":{"amenity":"waste_disposal"}},"type":"Feature"},
	{"geometry":{"coordinates":[8.98763,45.8729],"type":"Point"},"properties":{"osm_id":"3863671430","tag":{"amenity":"waste_basket"}},"type":"Feature"},
	{"geometry":{"coordinates":[8.985254,45.879601],"type":"Point"},"properties":{"osm_id":"3863671453","tag":{"amenity":"waste_basket"}},"type":"Feature"},
	{"geometry":{"coordinates":[8.98031,45.870196],"type":"Point"},"properties":{"osm_id":"3866789513","tag":{"amenity":"waste_basket"}},"type":"Feature"},
	{"geometry":{"coordinates":[8.980909,45.870672],"type":"Point"},"properties":{"osm_id":"3866789514","tag":{"amenity":"waste_basket"}},"type":"Feature"},
	{"geometry":{"coordinates":[8.980757,45.870553],"type":"Point"},"properties":{"osm_id":"3866789516","tag":{"amenity":"waste_basket"}},"type":"Feature"},
	{"geometry":{"coordinates":[8.982215,45.871492],"type":"Point"},"properties":{"osm_id":"3866789520","tag":{"amenity":"waste_basket"}},"type":"Feature"},
	{"geometry":{"coordinates":[8.985142,45.871187],"type":"Point"},"properties":{"osm_id":"3866789537","tag":{"amenity":"waste_basket"}},"type":"Feature"},
	{"geometry":{"coordinates":[8.985028,45.871425],"type":"Point"},"properties":{"osm_id":"3866789539","tag":{"amenity":"recycling","recycling:aluminium":"yes","recycling:batteries":"yes","recycling:glass":"yes","recycling:glass_bottles":"yes","recycling:plastic_bottles":"yes","recycling:waste":"yes","recycling_type":"container"}},"type":"Feature"},
	{"geometry":{"coordinates":[8.98722,45.877352],"type":"Point"},"properties":{"osm_id":"3866800666","tag":{"amenity":"waste_basket"}},"type":"Feature"},
	{"geometry":{"coordinates":[9.010829,45.844848],"type":"Point"},"properties":{"osm_id":"3870558362","tag":{"amenity":"waste_basket"}},"type":"Feature"},
	{"geometry":{"coordinates":[8.981905,45.864405],"type":"Point"},"properties":{"osm_id":"3875102956","tag":{"amenity":"waste_basket"}},"type":"Feature"},
	{"geometry":{"coordinates":[8.977374,45.865508],"type":"Point"},"properties":{"osm_id":"3875124163","tag":{"amenity":"waste_basket"}},"type":"Feature"},
	{"geometry":{"coordinates":[8.977951,45.864454],"type":"Point"},"properties":{"osm_id":"3875124167","tag":{"amenity":"waste_basket"}},"type":"Feature"},
	{"geometry":{"coordinates":[8.976601,45.863525],"type":"Point"},"properties":{"osm_id":"3875124184","tag":{"amenity":"recycling","recycling:clothes":"yes","recycling_type":"container"}},"type":"Feature"},
	{"geometry":{"coordinates":[8.975918,45.864619],"type":"Point"},"properties":{"osm_id":"3875124189","tag":{"amenity":"waste_basket"}},"type":"Feature"},
	{"geometry":{"coordinates":[8.974749,45.864087],"type":"Point"},"properties":{"osm_id":"3875124190","tag":{"amenity":"recycling","recycling:cans":"yes","recycling:glass_bottles":"yes","recycling_type":"container"}},"type":"Feature"},
	{"geometry":{"coordinates":[8.969551,45.869069],"type":"Point"},"properties":{"osm_id":"3888736267","tag":{"amenity":"waste_basket"}},"type":"Feature"},
	{"geometry":{"coordinates":[8.969688,45.86833],"type":"Point"},"properties":{"osm_id":"3888736278","tag":{"amenity":"recycling","recycling:cans":"yes","recycling:clothes":"yes","recycling:glass":"yes","recycling:glass_bottles":"yes"}},"type":"Feature"},
	{"geometry":{"coordinates":[9.044418,45.835385],"type":"Point"},"properties":{"osm_id":"3889478161","tag":{"amenity":"waste_basket"}},"type":"Feature"},
	{"geometry":{"coordinates":[9.044627,45.835419],"type":"Point"},"properties":{"osm_id":"3889478162","tag":{"amenity":"waste_basket"}},"type":"Feature"},
	{"geometry":{"coordinates":[9.044089,45.835706],"type":"Point"},"properties":{"osm_id":"3889478163","tag":{"amenity":"waste_basket"}},"type":"Feature"},
	{"geometry":{"coordinates":[9.043535,45.835774],"type":"Point"},"properties":{"osm_id":"3889540505","tag":{"amenity":"waste_basket"}},"type":"Feature"},
	{"geometry":{"coordinates":[9.044114,45.835815],"type":"Point"},"properties":{"osm_id":"3889540507","tag":{"amenity":"waste_basket"}},"type":"Feature"},
	{"geometry":{"coordinates":[9.043915,45.836037],"type":"Point"},"properties":{"osm_id":"3889540509","tag":{"amenity":"waste_basket"}},"type":"Feature"},
	{"geometry":{"coordinates":[9.043389,45.836839],"type":"Point"},"properties":{"osm_id":"3889540541","tag":{"amenity":"waste_basket"}},"type":"Feature"},
	{"geometry":{"coordinates":[9.043477,45.836911],"type":"Point"},"properties":{"osm_id":"3889540542","tag":{"amenity":"waste_basket"}},"type":"Feature"},
	{"geometry":{"coordinates":[9.043194,45.836941],"type":"Point"},"properties":{"osm_id":"3889540543","tag":{"amenity":"waste_basket"}},"type":"Feature"},
	{"geometry":{"coordinates":[9.042337,45.837852],"type":"Point"},"properties":{"osm_id":"3889540554","tag":{"amenity":"waste_basket"}},"type":"Feature"},
	{"geometry":{"coordinates":[8.996703,45.861654],"type":"Point"},"properties":{"osm_id":"3901170384","tag":{"amenity":"waste_basket"}},"type":"Feature"},
	{"geometry":{"coordinates":[8.993885,45.861523],"type":"Point"},"properties":{"osm_id":"3901170409","tag":{"amenity":"waste_basket"}},"type":"Feature"},
	{"geometry":{"coordinates":[8.994064,45.86162],"type":"Point"},"properties":{"osm_id":"3901170412","tag":{"amenity":"recycling","recycling:PET":"yes","recycling:aluminium":"yes","recycling:batteries":"yes","recycling:clothes":"yes","recycling:glass_bottles":"yes","recycling_type":"container"}},"type":"Feature"},
	{"geometry":{"coordinates":[8.99502,45.861999],"type":"Point"},"properties":{"osm_id":"3901170416","tag":{"amenity":"waste_basket"}},"type":"Feature"},
	{"geometry":{"coordinates":[9.007598,45.862393],"type":"Point"},"properties":{"osm_id":"3918783074","tag":{"amenity":"waste_basket"}},"type":"Feature"},
	{"geometry":{"coordinates":[9.008274,45.861778],"type":"Point"},"properties":{"osm_id":"3936374744","tag":{"amenity":"waste_basket"}},"type":"Feature"},
	{"geometry":{"coordinates":[9.009181,45.860019],"type":"Point"},"properties":{"osm_id":"3942298487","tag":{"amenity":"waste_basket"}},"type":"Feature"},
	{"geometry":{"coordinates":[9.013025,45.864281],"type":"Point"},"properties":{"osm_id":"3954239457","tag":{"amenity":"recycling","opening_hours":"Mo-Fr 07:00-20:00","recycling:aluminium":"yes","recycling:batteries":"yes","recycling:cans":"yes","recycling:clothes":"yes","recycling:plastic":"yes","recycling:plastic_bottles":"yes","recycling_type":"container"}},"type":"Feature"},
	{"geometry":{"coordinates":[9.004614,45.856076],"type":"Point"},"properties":{"osm_id":"3998169124","tag":{"amenity":"waste_basket"}},"type":"Feature"},
	{"geometry":{"coordinates":[9.00427,45.85639],"type":"Point"},"properties":{"osm_id":"3998169125","tag":{"amenity":"waste_basket"}},"type":"Feature"},
	{"geometry":{"coordinates":[9.010874,45.864317],"type":"Point"},"properties":{"osm_id":"4016187666","tag":{"amenity":"waste_basket"}},"type":"Feature"},
	{"geometry":{"coordinates":[9.010445,45.864723],"type":"Point"},"properties":{"osm_id":"4016187670","tag":{"amenity":"waste_basket"}},"type":"Feature"},
	{"geometry":{"coordinates":[9.007262,45.861665],"type":"Point"},"properties":{"osm_id":"4022553849","tag":{"amenity":"recycling","opening_hours":"Mo-Fr 07:00-20:00","recycling:aluminium":"yes","recycling:batteries":"yes","recycling:cans":"yes","recycling:clothes":"yes","recycling:paper":"yes","recycling:plastic":"yes","recycling:plastic_bottles":"yes","recycling:waste":"yes","recycling_type":"centre"}},"type":"Feature"},
	{"geometry":{"coordinates":[8.999633,45.861759],"type":"Point"},"properties":{"osm_id":"4022553851","tag":{"amenity":"recycling","recycling:green_waste":"yes","recycling_type":"centre"}},"type":"Feature"},
	{"geometry":{"coordinates":[9.013008,45.8643],"type":"Point"},"properties":{"osm_id":"4022553852","tag":{"amenity":"waste_basket"}},"type":"Feature"},
	{"geometry":{"coordinates":[9.006026,45.860031],"type":"Point"},"properties":{"osm_id":"4035241170","tag":{"amenity":"waste_basket"}},"type":"Feature"},
	{"geometry":{"coordinates":[9.009422,45.859685],"type":"Point"},"properties":{"osm_id":"4035241171","tag":{"amenity":"waste_basket"}},"type":"Feature"},
	{"geometry":{"coordinates":[9.004281,45.866891],"type":"Point"},"properties":{"osm_id":"4043694272","tag":{"amenity":"waste_basket"}},"type":"Feature"},
	{"geometry":{"coordinates":[9.017274,45.854761],"type":"Point"},"properties":{"osm_id":"4058439040","tag":{"amenity":"waste_basket"}},"type":"Feature"},
	{"geometry":{"coordinates":[8.992053,45.877426],"type":"Point"},"properties":{"osm_id":"4068804288","tag":{"amenity":"recycling","recycling:cans":"yes","recycling:glass_bottles":"yes","recycling_type":"container"}},"type":"Feature"},
	{"geometry":{"coordinates":[8.992143,45.877439],"type":"Point"},"properties":{"osm_id":"4068804798","tag":{"amenity":"waste_basket"}},"type":"Feature"},
	{"geometry":{"coordinates":[8.99207,45.877302],"type":"Point"},"properties":{"osm_id":"4068804799","tag":{"amenity":"waste_basket"}},"type":"Feature"},
	{"geometry":{"coordinates":[8.99316,45.877749],"type":"Point"},"properties":{"osm_id":"4068804824","tag":{"amenity":"waste_basket"}},"type":"Feature"},
	{"geometry":{"coordinates":[8.993698,45.878688],"type":"Point"},"properties":{"osm_id":"4068804826","tag":{"amenity":"waste_basket"}},"type":"Feature"},
	{"geometry":{"coordinates":[9.003639,45.853564],"type":"Point"},"properties":{"osm_id":"4070012112","tag":{"amenity":"waste_basket"}},"type":"Feature"},
	{"geometry":{"coordinates":[9.013768,45.858553],"type":"Point"},"properties":{"osm_id":"4070087264","tag":{"amenity":"waste_basket"}},"type":"Feature"},
	{"geometry":{"coordinates":[9.013146,45.85906],"type":"Point"},"properties":{"osm_id":"4070087278","tag":{"amenity":"waste_basket"}},"type":"Feature"},
	{"geometry":{"coordinates":[9.01217,45.859499],"type":"Point"},"properties":{"osm_id":"4070087283","tag":{"amenity":"waste_basket"}},"type":"Feature"},
	{"geometry":{"coordinates":[8.985727,45.865456],"type":"Point"},"properties":{"osm_id":"4079697095","tag":{"amenity":"waste_basket"}},"type":"Feature"},
	{"geometry":{"coordinates":[8.983621,45.864153],"type":"Point"},"properties":{"osm_id":"4079697096","tag":{"amenity":"waste_basket"}},"type":"Feature"},
	{"geometry":{"coordinates":[8.989004,45.861063],"type":"Point"},"properties":{"osm_id":"4079798130","tag":{"amenity":"waste_basket"}},"type":"Feature"},
	{"geometry":{"coordinates":[8.986291,45.866691],"type":"Point"},"properties":{"osm_id":"4080064365","tag":{"amenity":"waste_basket"}},"type":"Feature"},
	{"geometry":{"coordinates":[8.988366,45.869036],"type":"Point"},"properties":{"osm_id":"4080065392","tag":{"amenity":"waste_basket"}},"type":"Feature"},
	{"geometry":{"coordinates":[9.007043,45.864552],"type":"Point"},"properties":{"osm_id":"4080088553","tag":{"amenity":"waste_basket"}},"type":"Feature"},
	{"geometry":{"coordinates":[9.007687,45.861353],"type":"Point"},"properties":{"osm_id":"4081017433","tag":{"amenity":"waste_basket"}},"type":"Feature"},
	{"geometry":{"coordinates":[9.007737,45.861166],"type":"Point"},"properties":{"osm_id":"4081017448","tag":{"amenity":"waste_basket"}},"type":"Feature"},
	{"geometry":{"coordinates":[9.007614,45.858222],"type":"Point"},"properties":{"osm_id":"4082955073","tag":{"amenity":"waste_basket"}},"type":"Feature"},
	{"geometry":{"coordinates":[9.004467,45.858819],"type":"Point"},"properties":{"osm_id":"4082955076","tag":{"amenity":"waste_basket"}},"type":"Feature"},
	{"geometry":{"coordinates":[9.044833,45.834551],"type":"Point"},"properties":{"osm_id":"4097742820","tag":{"amenity":"waste_basket"}},"type":"Feature"},
	{"geometry":{"coordinates":[9.045347,45.833693],"type":"Point"},"properties":{"osm_id":"4097748028","tag":{"amenity":"waste_basket"}},"type":"Feature"},
	{"geometry":{"coordinates":[9.04515,45.833658],"type":"Point"},"properties":{"osm_id":"4097752844","tag":{"amenity":"waste_basket"}},"type":"Feature"},
	{"geometry":{"coordinates":[8.988028,45.8528],"type":"Point"},"properties":{"osm_id":"4161962668","tag":{"amenity":"waste_basket"}},"type":"Feature"},
	{"geometry":{"coordinates":[8.987771,45.85299],"type":"Point"},"properties":{"osm_id":"4161962669","tag":{"amenity":"waste_basket"}},"type":"Feature"},
	{"geometry":{"coordinates":[8.984373,45.8677],"type":"Point"},"properties":{"osm_id":"4213808683","tag":{"amenity":"waste_basket"}},"type":"Feature"},
	{"geometry":{"coordinates":[8.982879,45.86848],"type":"Point"},"properties":{"osm_id":"4226405129","tag":{"amenity":"waste_basket"}},"type":"Feature"},
	{"geometry":{"coordinates":[8.986211,45.870265],"type":"Point"},"properties":{"osm_id":"4228846572","tag":{"amenity":"waste_basket"}},"type":"Feature"},
	{"geometry":{"coordinates":[8.988144,45.870165],"type":"Point"},"properties":{"osm_id":"4228846582","tag":{"amenity":"waste_basket","covered":"yes"}},"type":"Feature"},
	{"geometry":{"coordinates":[8.986983,45.854945],"type":"Point"},"properties":{"osm_id":"4235853166","tag":{"amenity":"waste_basket"}},"type":"Feature"},
	{"geometry":{"coordinates":[8.986615,45.854231],"type":"Point"},"properties":{"osm_id":"4235853167","tag":{"amenity":"waste_basket"}},"type":"Feature"},
	{"geometry":{"coordinates":[8.986372,45.854787],"type":"Point"},"properties":{"osm_id":"4235853171","tag":{"amenity":"waste_basket"}},"type":"Feature"},
	{"geometry":{"coordinates":[8.987267,45.855568],"type":"Point"},"properties":{"osm_id":"4235853176","tag":{"amenity":"waste_basket"}},"type":"Feature"},
	{"geometry":{"coordinates":[8.987185,45.855116],"type":"Point"},"properties":{"osm_id":"4235853185","tag":{"amenity":"recycling","recycling:batteries":"yes","recycling:cartons":"yes","recycling:clothes":"yes","recycling:metall":"yes","recycling:oil":"yes","recycling:paper":"yes","recycling:plastic":"yes","recycling:plastic_bottles":"yes","recycling:sagex":"yes"}},"type":"Feature"},
	{"geometry":{"coordinates":[8.980998,45.858659],"type":"Point"},"properties":{"osm_id":"4241091592","tag":{"amenity":"waste_disposal"}},"type":"Feature"},
	{"geometry":{"coordinates":[9.029949,45.842076],"type":"Point"},"properties":{"osm_id":"4306995044","tag":{"amenity":"recycling","recycling:aluminium":"yes","recycling:batteries":"yes","recycling:cans":"yes","recycling:clothes":"yes","recycling:cooking_oil":"yes","recycling:engine_oil":"yes","recycling:glass":"yes","recycling:paper":"no","recycling:plastic_bottles":"yes"}},"type":"Feature"},
	{"geometry":{"coordinates":[8.984819,45.865786],"type":"Point"},"properties":{"osm_id":"4307350201","tag":{"amenity":"waste_basket"}},"type":"Feature"},
	{"geometry":{"coordinates":[8.986324,45.866974],"type":"Point"},"properties":{"osm_id":"4307350218","tag":{"amenity":"waste_basket"}},"type":"Feature"},
	{"geometry":{"coordinates":[8.986016,45.866986],"type":"Point"},"properties":{"osm_id":"4307350223","tag":{"amenity":"waste_basket"}},"type":"Feature"},
	{"geometry":{"coordinates":[8.985805,45.867176],"type":"Point"},"properties":{"osm_id":"4307350225","tag":{"amenity":"waste_basket"}},"type":"Feature"},
	{"geometry":{"coordinates":[8.985066,45.86684],"type":"Point"},"properties":{"osm_id":"4307350907","tag":{"amenity":"waste_basket"}},"type":"Feature"},
	{"geometry":{"coordinates":[8.98529,45.866838],"type":"Point"},"properties":{"osm_id":"4307350910","tag":{"amenity":"waste_basket"}},"type":"Feature"},
	{"geometry":{"coordinates":[8.985838,45.866689],"type":"Point"},"properties":{"osm_id":"4307350911","tag":{"amenity":"waste_basket"}},"type":"Feature"},
	{"geometry":{"coordinates":[8.984913,45.8667],"type":"Point"},"properties":{"osm_id":"4307350913","tag":{"amenity":"waste_basket"}},"type":"Feature"},
	{"geometry":{"coordinates":[8.984683,45.866485],"type":"Point"},"properties":{"osm_id":"4307350967","tag":{"amenity":"waste_basket"}},"type":"Feature"},
	{"geometry":{"coordinates":[8.993787,45.855284],"type":"Point"},"properties":{"osm_id":"4316711623","tag":{"amenity":"waste_basket"}},"type":"Feature"},
	{"geometry":{"coordinates":[8.993922,45.855379],"type":"Point"},"properties":{"osm_id":"4316711624","tag":{"amenity":"waste_basket"}},"type":"Feature"},
	{"geometry":{"coordinates":[8.990874,45.856797],"type":"Point"},"properties":{"osm_id":"4316711657","tag":{"amenity":"waste_basket"}},"type":"Feature"},
	{"geometry":{"coordinates":[8.991134,45.856757],"type":"Point"},"properties":{"osm_id":"4316711660","tag":{"amenity":"waste_basket"}},"type":"Feature"},
	{"geometry":{"coordinates":[8.991572,45.856853],"type":"Point"},"properties":{"osm_id":"4316711666","tag":{"amenity":"waste_basket"}},"type":"Feature"},
	{"geometry":{"coordinates":[8.991512,45.857038],"type":"Point"},"properties":{"osm_id":"4316711670","tag":{"amenity":"waste_basket"}},"type":"Feature"},
	{"geometry":{"coordinates":[8.990989,45.857092],"type":"Point"},"properties":{"osm_id":"4316711675","tag":{"amenity":"waste_basket"}},"type":"Feature"},
	{"geometry":{"coordinates":[8.991752,45.856097],"type":"Point"},"properties":{"osm_id":"4316711679","tag":{"amenity":"waste_basket"}},"type":"Feature"},
	{"geometry":{"coordinates":[8.991882,45.855966],"type":"Point"},"properties":{"osm_id":"4316711680","tag":{"amenity":"waste_basket"}},"type":"Feature"},
	{"geometry":{"coordinates":[8.986937,45.878166],"type":"Point"},"properties":{"osm_id":"4316724122","tag":{"amenity":"waste_basket"}},"type":"Feature"},
	{"geometry":{"coordinates":[8.986774,45.878588],"type":"Point"},"properties":{"osm_id":"4316724129","tag":{"amenity":"recycling","recycling:glass_bottles":"yes","recycling:plastic_bottles":"yes","recycling:waste":"yes","recycling_type":"container"}},"type":"Feature"},
	{"geometry":{"coordinates":[8.986764,45.878605],"type":"Point"},"properties":{"osm_id":"4316724143","tag":{"amenity":"waste_basket"}},"type":"Feature"},
	{"geometry":{"coordinates":[8.985158,45.875604],"type":"Point"},"properties":{"osm_id":"4316731757","tag":{"amenity":"recycling","recycling:aluminium":"yes","recycling:batteries":"yes","recycling:glass_bottles":"yes","recycling:organic":"yes","recycling:plastic":"yes","recycling:plastic_bottles":"yes","recycling:waste":"yes","recycling_type":"container"}},"type":"Feature"},
	{"geometry":{"coordinates":[8.98516,45.875639],"type":"Point"},"properties":{"osm_id":"4316731762","tag":{"amenity":"waste_basket"}},"type":"Feature"},
	{"geometry":{"coordinates":[8.985098,45.875581],"type":"Point"},"properties":{"osm_id":"4316731763","tag":{"amenity":"waste_basket"}},"type":"Feature"},
	{"geometry":{"coordinates":[8.985045,45.874699],"type":"Point"},"properties":{"osm_id":"4316731775","tag":{"amenity":"waste_basket"}},"type":"Feature"},
	{"geometry":{"coordinates":[9.015499,45.859649],"type":"Point"},"properties":{"osm_id":"4327133461","tag":{"amenity":"waste_basket"}},"type":"Feature"},
	{"geometry":{"coordinates":[8.990387,45.879398],"type":"Point"},"properties":{"osm_id":"4329463177","tag":{"amenity":"waste_basket"}},"type":"Feature"},
	{"geometry":{"coordinates":[8.990139,45.880253],"type":"Point"},"properties":{"osm_id":"4329463183","tag":{"amenity":"waste_basket"}},"type":"Feature"},
	{"geometry":{"coordinates":[8.98264,45.863812],"type":"Point"},"properties":{"osm_id":"4555913913","tag":{"amenity":"recycling","recycling_type":"container"}},"type":"Feature"},
	{"geometry":{"coordinates":[9.020799,45.859955],"type":"Point"},"properties":{"osm_id":"4562509998","tag":{"amenity":"waste_basket"}},"type":"Feature"},
	{"geometry":{"coordinates":[9.022242,45.862489],"type":"Point"},"properties":{"osm_id":"4569636135","tag":{"amenity":"waste_disposal"}},"type":"Feature"},
	{"geometry":{"coordinates":[8.992178,45.874184],"type":"Point"},"properties":{"osm_id":"4692462079","tag":{"amenity":"recycling","recycling_type":"container"}},"type":"Feature"},
	{"geometry":{"coordinates":[8.988498,45.873878],"type":"Point"},"properties":{"osm_id":"4741781828","tag":{"amenity":"waste_basket"}},"type":"Feature"},
	{"geometry":{"coordinates":[8.988992,45.873128],"type":"Point"},"properties":{"osm_id":"4741781829","tag":{"amenity":"waste_basket"}},"type":"Feature"},
	{"geometry":{"coordinates":[8.988516,45.873861],"type":"Point"},"properties":{"osm_id":"4741781830","tag":{"amenity":"recycling"}},"type":"Feature"},
	{"geometry":{"coordinates":[8.985603,45.874338],"type":"Point"},"properties":{"osm_id":"4741781831","tag":{"amenity":"recycling"}},"type":"Feature"},
	{"geometry":{"coordinates":[8.99229,45.873898],"type":"Point"},"properties":{"osm_id":"4741781832","tag":{"amenity":"waste_basket"}},"type":"Feature"},
	{"geometry":{"coordinates":[8.992231,45.874045],"type":"Point"},"properties":{"osm_id":"4792448880","tag":{"amenity":"waste_basket"}},"type":"Feature"},
	{"geometry":{"coordinates":[9.044693,45.832187],"type":"Point"},"properties":{"osm_id":"5098408246","tag":{"amenity":"waste_basket"}},"type":"Feature"},
	{"geometry":{"coordinates":[9.031147,45.873539],"type":"Point"},"properties":{"osm_id":"5127214231","tag":{"amenity":"waste_basket","mapillary":"XyVTqD4_xbKyrvZ41-KrIA"}},"type":"Feature"},
	{"geometry":{"coordinates":[9.036622,45.88354],"type":"Point"},"properties":{"osm_id":"5136155353","tag":{"amenity":"waste_basket"}},"type":"Feature"},
	{"geometry":{"coordinates":[9.045753,45.83364],"type":"Point"},"properties":{"osm_id":"5259181524","tag":{"amenity":"waste_basket"}},"type":"Feature"},
	{"geometry":{"coordinates":[9.045496,45.833924],"type":"Point"},"properties":{"osm_id":"5259181525","tag":{"amenity":"waste_basket"}},"type":"Feature"},
	{"geometry":{"coordinates":[9.045523,45.834241],"type":"Point"},"properties":{"osm_id":"5259212121","tag":{"amenity":"waste_basket"}},"type":"Feature"},
	{"geometry":{"coordinates":[9.044856,45.832133],"type":"Point"},"properties":{"osm_id":"5269610023","tag":{"amenity":"waste_basket"}},"type":"Feature"},
	{"geometry":{"coordinates":[9.043502,45.829287],"type":"Point"},"properties":{"osm_id":"5357707509","tag":{"amenity":"waste_basket"}},"type":"Feature"},
	{"geometry":{"coordinates":[9.044095,45.835904],"type":"Point"},"properties":{"osm_id":"5404172874","tag":{"amenity":"waste_basket"}},"type":"Feature"},
	{"geometry":{"coordinates":[9.044938,45.833688],"type":"Point"},"properties":{"osm_id":"5469040143","tag":{"amenity":"waste_basket"}},"type":"Feature"},
	{"geometry":{"coordinates":[9.044102,45.835948],"type":"Point"},"properties":{"osm_id":"5476081921","tag":{"amenity":"waste_basket"}},"type":"Feature"},
	{"geometry":{"coordinates":[9.035612,45.831889],"type":"Point"},"properties":{"osm_id":"5611537162","tag":{"amenity":"waste_basket"}},"type":"Feature"},
	{"geometry":{"coordinates":[9.037294,45.831017],"type":"Point"},"properties":{"osm_id":"5611537168","tag":{"amenity":"waste_basket"}},"type":"Feature"},
	{"geometry":{"coordinates":[9.027601,45.835603],"type":"Point"},"properties":{"osm_id":"5745010821","tag":{"amenity":"waste_basket"}},"type":"Feature"},
	{"geometry":{"coordinates":[9.027444,45.836578],"type":"Point"},"properties":{"osm_id":"5745010822","tag":{"amenity":"waste_basket"}},"type":"Feature"},
	{"geometry":{"coordinates":[9.026354,45.838064],"type":"Point"},"properties":{"osm_id":"5745010922","tag":{"amenity":"waste_basket"}},"type":"Feature"},
	{"geometry":{"coordinates":[9.026071,45.837184],"type":"Point"},"properties":{"osm_id":"5745011021","tag":{"amenity":"waste_basket"}},"type":"Feature"},
	{"geometry":{"coordinates":[9.045066,45.832157],"type":"Point"},"properties":{"osm_id":"5855822786","tag":{"amenity":"waste_basket"}},"type":"Feature"},
	{"geometry":{"coordinates":[8.971301,45.88052],"type":"Point"},"properties":{"osm_id":"5949722548","tag":{"amenity":"waste_basket","mapillary":"LO5p6fmU8i-QjRGs1N6Krg"}},"type":"Feature"},
	{"geometry":{"coordinates":[9.042565,45.837645],"type":"Point"},"properties":{"osm_id":"5981215310","tag":{"amenity":"waste_basket"}},"type":"Feature"},
	{"geometry":{"coordinates":[9.043229,45.836501],"type":"Point"},"properties":{"osm_id":"5981215315","tag":{"amenity":"waste_basket"}},"type":"Feature"},
	{"geometry":{"coordinates":[9.036688,45.857057],"type":"Point"},"properties":{"osm_id":"6027754422","tag":{"amenity":"waste_disposal"}},"type":"Feature"},
	{"geometry":{"coordinates":[9.044322,45.831973],"type":"Point"},"properties":{"osm_id":"6108938586","tag":{"amenity":"waste_basket"}},"type":"Feature"},
	{"geometry":{"coordinates":[9.044457,45.83212],"type":"Point"},"properties":{"osm_id":"6108938785","tag":{"amenity":"waste_basket"}},"type":"Feature"},
	{"geometry":{"coordinates":[9.043512,45.829456],"type":"Point"},"properties":{"osm_id":"7246192968","tag":{"amenity":"waste_basket"}},"type":"Feature"},
	{"geometry":{"coordinates":[9.024219,45.838127],"type":"Point"},"properties":{"osm_id":"7299424688","tag":{"amenity":"waste_basket","collection_times":"giornaliero","colour":"arancio","waste":"mixed"}},"type":"Feature"},
	{"geometry":{"coordinates":[9.042539,45.836946],"type":"Point"},"properties":{"osm_id":"7685732256","tag":{"amenity":"waste_basket"}},"type":"Feature"}
]
}
