{
"type": "FeatureCollection",
"features": [
	{"geometry":{"coordinates":[9.043963,45.523646],"type":"Point"},"properties":{"osm_id":"2881512303","tag":{"amenity":"recycling","recycling:clothes":"yes","recycling_type":"container"}},"type":"Feature"},
	{"geometry":{"coordinates":[9.015929,45.555687],"type":"Point"},"properties":{"osm_id":"2918658308","tag":{"amenity":"recycling","recycling:batteries":"yes","recycling:clothes":"yes"}},"type":"Feature"},
	{"geometry":{"coordinates":[9.043392,45.523641],"type":"Point"},"properties":{"osm_id":"4308662294","tag":{"amenity":"waste_basket"}},"type":"Feature"},
	{"geometry":{"coordinates":[8.99067,45.569341],"type":"Point"},"properties":{"osm_id":"4727963477","tag":{"amenity":"waste_basket"}},"type":"Feature"},
	{"geometry":{"coordinates":[9.043528,45.524516],"type":"Point"},"properties":{"osm_id":"5123895301","tag":{"amenity":"waste_basket"}},"type":"Feature"},
	{"geometry":{"coordinates":[9.043615,45.524636],"type":"Point"},"properties":{"osm_id":"5123895302","tag":{"amenity":"waste_basket"}},"type":"Feature"},
	{"geometry":{"coordinates":[9.043791,45.524599],"type":"Point"},"properties":{"osm_id":"5123895314","tag":{"amenity":"waste_basket"}},"type":"Feature"},
	{"geometry":{"coordinates":[9.041988,45.529091],"type":"Point"},"properties":{"osm_id":"5123895815","tag":{"amenity":"waste_basket"}},"type":"Feature"},
	{"geometry":{"coordinates":[9.042345,45.527729],"type":"Point"},"properties":{"osm_id":"5123897113","tag":{"amenity":"waste_basket"}},"type":"Feature"},
	{"geometry":{"coordinates":[9.042446,45.527527],"type":"Point"},"properties":{"osm_id":"5123897114","tag":{"amenity":"waste_basket"}},"type":"Feature"},
	{"geometry":{"coordinates":[9.041959,45.528782],"type":"Point"},"properties":{"osm_id":"5123898009","tag":{"amenity":"waste_basket"}},"type":"Feature"},
	{"geometry":{"coordinates":[9.041998,45.528669],"type":"Point"},"properties":{"osm_id":"5123898010","tag":{"amenity":"waste_basket"}},"type":"Feature"},
	{"geometry":{"coordinates":[9.04121,45.528907],"type":"Point"},"properties":{"osm_id":"5123898020","tag":{"amenity":"waste_basket"}},"type":"Feature"},
	{"geometry":{"coordinates":[9.040765,45.528304],"type":"Point"},"properties":{"osm_id":"5123898037","tag":{"amenity":"waste_basket"}},"type":"Feature"},
	{"geometry":{"coordinates":[9.041192,45.527522],"type":"Point"},"properties":{"osm_id":"5123898054","tag":{"amenity":"waste_basket"}},"type":"Feature"},
	{"geometry":{"coordinates":[9.041796,45.527611],"type":"Point"},"properties":{"osm_id":"5123898057","tag":{"amenity":"waste_basket"}},"type":"Feature"},
	{"geometry":{"coordinates":[9.041355,45.52752],"type":"Point"},"properties":{"osm_id":"5123898058","tag":{"amenity":"waste_basket"}},"type":"Feature"},
	{"geometry":{"coordinates":[9.041656,45.526747],"type":"Point"},"properties":{"osm_id":"5123898069","tag":{"amenity":"waste_basket"}},"type":"Feature"},
	{"geometry":{"coordinates":[9.04273,45.526842],"type":"Point"},"properties":{"osm_id":"5123898096","tag":{"amenity":"waste_basket"}},"type":"Feature"},
	{"geometry":{"coordinates":[9.043239,45.524557],"type":"Point"},"properties":{"osm_id":"5123898107","tag":{"amenity":"waste_basket"}},"type":"Feature"},
	{"geometry":{"coordinates":[9.041893,45.526136],"type":"Point"},"properties":{"osm_id":"5123898567","tag":{"amenity":"waste_basket"}},"type":"Feature"},
	{"geometry":{"coordinates":[9.042411,45.525694],"type":"Point"},"properties":{"osm_id":"5123898591","tag":{"amenity":"recycling","recycling:glass":"yes","recycling_type":"container"}},"type":"Feature"},
	{"geometry":{"coordinates":[9.042445,45.52566],"type":"Point"},"properties":{"osm_id":"5123898595","tag":{"amenity":"waste_basket"}},"type":"Feature"},
	{"geometry":{"coordinates":[9.042191,45.525673],"type":"Point"},"properties":{"osm_id":"5123898596","tag":{"amenity":"waste_basket"}},"type":"Feature"},
	{"geometry":{"coordinates":[9.042561,45.525181],"type":"Point"},"properties":{"osm_id":"5123898717","tag":{"amenity":"waste_basket"}},"type":"Feature"},
	{"geometry":{"coordinates":[9.043148,45.526032],"type":"Point"},"properties":{"osm_id":"5123898720","tag":{"amenity":"waste_basket"}},"type":"Feature"},
	{"geometry":{"coordinates":[9.043186,45.525959],"type":"Point"},"properties":{"osm_id":"5123898821","tag":{"amenity":"waste_basket"}},"type":"Feature"},
	{"geometry":{"coordinates":[9.042891,45.524956],"type":"Point"},"properties":{"osm_id":"5123898878","tag":{"amenity":"waste_basket"}},"type":"Feature"},
	{"geometry":{"coordinates":[9.042676,45.524976],"type":"Point"},"properties":{"osm_id":"5123898879","tag":{"amenity":"waste_basket"}},"type":"Feature"},
	{"geometry":{"coordinates":[9.043076,45.524642],"type":"Point"},"properties":{"osm_id":"5123899118","tag":{"amenity":"waste_basket"}},"type":"Feature"},
	{"geometry":{"coordinates":[9.042995,45.5246],"type":"Point"},"properties":{"osm_id":"5123899119","tag":{"amenity":"waste_basket"}},"type":"Feature"},
	{"geometry":{"coordinates":[9.043913,45.524833],"type":"Point"},"properties":{"osm_id":"5123899324","tag":{"amenity":"waste_basket"}},"type":"Feature"},
	{"geometry":{"coordinates":[9.044079,45.524324],"type":"Point"},"properties":{"osm_id":"5123899332","tag":{"amenity":"waste_basket"}},"type":"Feature"},
	{"geometry":{"coordinates":[8.994871,45.527411],"type":"Point"},"properties":{"osm_id":"5246844403","tag":{"amenity":"waste_basket"}},"type":"Feature"},
	{"geometry":{"coordinates":[8.997073,45.528748],"type":"Point"},"properties":{"osm_id":"5246844419","tag":{"amenity":"waste_basket"}},"type":"Feature"},
	{"geometry":{"coordinates":[8.995767,45.526635],"type":"Point"},"properties":{"osm_id":"5246845954","tag":{"amenity":"waste_basket"}},"type":"Feature"},
	{"geometry":{"coordinates":[8.995113,45.52678],"type":"Point"},"properties":{"osm_id":"5246845979","tag":{"amenity":"waste_basket"}},"type":"Feature"},
	{"geometry":{"coordinates":[8.994753,45.526795],"type":"Point"},"properties":{"osm_id":"5246845992","tag":{"amenity":"waste_basket"}},"type":"Feature"},
	{"geometry":{"coordinates":[8.994611,45.52662],"type":"Point"},"properties":{"osm_id":"5246845993","tag":{"amenity":"waste_basket"}},"type":"Feature"},
	{"geometry":{"coordinates":[8.994783,45.526635],"type":"Point"},"properties":{"osm_id":"5246846003","tag":{"amenity":"waste_basket"}},"type":"Feature"},
	{"geometry":{"coordinates":[8.999004,45.527635],"type":"Point"},"properties":{"osm_id":"5246846039","tag":{"amenity":"waste_basket"}},"type":"Feature"},
	{"geometry":{"coordinates":[8.998988,45.527524],"type":"Point"},"properties":{"osm_id":"5246846040","tag":{"amenity":"waste_basket"}},"type":"Feature"},
	{"geometry":{"coordinates":[8.997282,45.528682],"type":"Point"},"properties":{"osm_id":"5246846045","tag":{"amenity":"recycling","operator":"Comune di Vanzago","recycling:clothes":"yes","recycling_type":"container"}},"type":"Feature"},
	{"geometry":{"coordinates":[8.99828,45.527795],"type":"Point"},"properties":{"osm_id":"5246846046","tag":{"amenity":"recycling","operator":"Comune di Vanzago","recycling:clothes":"yes","recycling_type":"container"}},"type":"Feature"},
	{"geometry":{"coordinates":[8.998221,45.527774],"type":"Point"},"properties":{"osm_id":"5246846049","tag":{"amenity":"waste_basket"}},"type":"Feature"},
	{"geometry":{"coordinates":[8.998261,45.527199],"type":"Point"},"properties":{"osm_id":"5246846073","tag":{"amenity":"waste_basket"}},"type":"Feature"},
	{"geometry":{"coordinates":[8.996802,45.526239],"type":"Point"},"properties":{"osm_id":"5246846094","tag":{"amenity":"waste_basket"}},"type":"Feature"},
	{"geometry":{"coordinates":[8.996416,45.526416],"type":"Point"},"properties":{"osm_id":"5246846095","tag":{"amenity":"waste_basket"}},"type":"Feature"},
	{"geometry":{"coordinates":[8.997669,45.526925],"type":"Point"},"properties":{"osm_id":"5246846129","tag":{"amenity":"waste_basket"}},"type":"Feature"},
	{"geometry":{"coordinates":[8.997062,45.526692],"type":"Point"},"properties":{"osm_id":"5246846135","tag":{"amenity":"waste_basket"}},"type":"Feature"},
	{"geometry":{"coordinates":[8.996207,45.52491],"type":"Point"},"properties":{"osm_id":"5246846148","tag":{"amenity":"waste_basket"}},"type":"Feature"},
	{"geometry":{"coordinates":[8.995054,45.525572],"type":"Point"},"properties":{"osm_id":"5246846149","tag":{"amenity":"waste_basket"}},"type":"Feature"},
	{"geometry":{"coordinates":[8.995619,45.525247],"type":"Point"},"properties":{"osm_id":"5246846150","tag":{"amenity":"waste_basket"}},"type":"Feature"},
	{"geometry":{"coordinates":[8.994815,45.525931],"type":"Point"},"properties":{"osm_id":"5246846422","tag":{"amenity":"waste_basket"}},"type":"Feature"},
	{"geometry":{"coordinates":[8.995732,45.525632],"type":"Point"},"properties":{"osm_id":"5246846446","tag":{"amenity":"waste_basket"}},"type":"Feature"},
	{"geometry":{"coordinates":[8.995265,45.525553],"type":"Point"},"properties":{"osm_id":"5246846458","tag":{"amenity":"waste_basket"}},"type":"Feature"},
	{"geometry":{"coordinates":[9.043229,45.529125],"type":"Point"},"properties":{"osm_id":"5352468150","tag":{"amenity":"waste_basket"}},"type":"Feature"},
	{"geometry":{"coordinates":[9.045661,45.527804],"type":"Point"},"properties":{"osm_id":"5352468247","tag":{"amenity":"waste_basket"}},"type":"Feature"},
	{"geometry":{"coordinates":[9.044291,45.527654],"type":"Point"},"properties":{"osm_id":"5352468263","tag":{"amenity":"waste_basket"}},"type":"Feature"},
	{"geometry":{"coordinates":[9.044428,45.52653],"type":"Point"},"properties":{"osm_id":"5352468527","tag":{"amenity":"recycling","recycling:glass":"yes","recycling_type":"container"}},"type":"Feature"},
	{"geometry":{"coordinates":[9.044546,45.52634],"type":"Point"},"properties":{"osm_id":"5352468529","tag":{"amenity":"waste_basket"}},"type":"Feature"},
	{"geometry":{"coordinates":[9.045407,45.525551],"type":"Point"},"properties":{"osm_id":"5352468602","tag":{"amenity":"recycling","recycling:glass":"yes","recycling_type":"container"}},"type":"Feature"},
	{"geometry":{"coordinates":[9.045348,45.525534],"type":"Point"},"properties":{"osm_id":"5352468603","tag":{"amenity":"recycling","operator":"Caritas Ambrosiana","recycling:clothes":"yes","recycling_type":"container"}},"type":"Feature"},
	{"geometry":{"coordinates":[9.044932,45.525549],"type":"Point"},"properties":{"osm_id":"5352468606","tag":{"amenity":"waste_basket"}},"type":"Feature"},
	{"geometry":{"coordinates":[9.021573,45.535719],"type":"Point"},"properties":{"osm_id":"5405812248","tag":{"amenity":"waste_basket"}},"type":"Feature"},
	{"geometry":{"coordinates":[9.023053,45.534519],"type":"Point"},"properties":{"osm_id":"5405812249","tag":{"amenity":"waste_basket"}},"type":"Feature"},
	{"geometry":{"coordinates":[9.032984,45.529799],"type":"Point"},"properties":{"osm_id":"5557500063","tag":{"amenity":"recycling","recycling:clothes":"yes","recycling_type":"container"}},"type":"Feature"},
	{"geometry":{"coordinates":[9.033856,45.529935],"type":"Point"},"properties":{"osm_id":"5557500064","tag":{"amenity":"recycling","recycling:glass":"yes","recycling_type":"container"}},"type":"Feature"},
	{"geometry":{"coordinates":[9.033857,45.529918],"type":"Point"},"properties":{"osm_id":"5557500065","tag":{"amenity":"recycling","recycling:glass":"yes","recycling_type":"container"}},"type":"Feature"},
	{"geometry":{"coordinates":[9.033857,45.529902],"type":"Point"},"properties":{"osm_id":"5557500066","tag":{"amenity":"recycling","recycling:glass":"yes","recycling_type":"container"}},"type":"Feature"},
	{"geometry":{"coordinates":[9.03315,45.526022],"type":"Point"},"properties":{"osm_id":"5557500067","tag":{"amenity":"recycling","recycling:glass":"yes","recycling_type":"container"}},"type":"Feature"},
	{"geometry":{"coordinates":[9.033171,45.526028],"type":"Point"},"properties":{"osm_id":"5557500068","tag":{"amenity":"recycling","recycling:glass":"yes","recycling_type":"container"}},"type":"Feature"},
	{"geometry":{"coordinates":[9.039728,45.523533],"type":"Point"},"properties":{"osm_id":"5645700147","tag":{"amenity":"waste_basket"}},"type":"Feature"},
	{"geometry":{"coordinates":[9.04126,45.525371],"type":"Point"},"properties":{"osm_id":"5645700368","tag":{"amenity":"waste_basket"}},"type":"Feature"},
	{"geometry":{"coordinates":[9.039669,45.525224],"type":"Point"},"properties":{"osm_id":"5645700406","tag":{"amenity":"waste_basket"}},"type":"Feature"},
	{"geometry":{"coordinates":[9.028234,45.533541],"type":"Point"},"properties":{"osm_id":"5920505785","tag":{"amenity":"waste_basket","waste":"trash;cygarettes"}},"type":"Feature"},
	{"geometry":{"coordinates":[9.02811,45.533543],"type":"Point"},"properties":{"osm_id":"5920505787","tag":{"amenity":"waste_basket","waste":"trash;cigarettes;"}},"type":"Feature"},
	{"geometry":{"coordinates":[8.978514,45.579792],"type":"Point"},"properties":{"osm_id":"5931014207","tag":{"amenity":"waste_basket"}},"type":"Feature"},
	{"geometry":{"coordinates":[9.020328,45.536718],"type":"Point"},"properties":{"osm_id":"5977829650","tag":{"amenity":"waste_basket"}},"type":"Feature"},
	{"geometry":{"coordinates":[9.022817,45.535923],"type":"Point"},"properties":{"osm_id":"5977853216","tag":{"amenity":"waste_basket"}},"type":"Feature"},
	{"geometry":{"coordinates":[9.022819,45.535904],"type":"Point"},"properties":{"osm_id":"5977853364","tag":{"amenity":"waste_basket"}},"type":"Feature"},
	{"geometry":{"coordinates":[9.028824,45.53405],"type":"Point"},"properties":{"osm_id":"5978010807","tag":{"amenity":"waste_basket"}},"type":"Feature"},
	{"geometry":{"coordinates":[9.031069,45.533379],"type":"Point"},"properties":{"osm_id":"5978731991","tag":{"amenity":"waste_basket"}},"type":"Feature"},
	{"geometry":{"coordinates":[9.031284,45.533421],"type":"Point"},"properties":{"osm_id":"5978735338","tag":{"amenity":"waste_basket"}},"type":"Feature"},
	{"geometry":{"coordinates":[9.031494,45.533458],"type":"Point"},"properties":{"osm_id":"5978741257","tag":{"amenity":"waste_basket"}},"type":"Feature"},
	{"geometry":{"coordinates":[9.032158,45.533388],"type":"Point"},"properties":{"osm_id":"5978746604","tag":{"amenity":"waste_basket"}},"type":"Feature"},
	{"geometry":{"coordinates":[9.0339,45.533206],"type":"Point"},"properties":{"osm_id":"5978755182","tag":{"amenity":"waste_basket"}},"type":"Feature"},
	{"geometry":{"coordinates":[9.034141,45.53316],"type":"Point"},"properties":{"osm_id":"5978768281","tag":{"amenity":"waste_basket"}},"type":"Feature"},
	{"geometry":{"coordinates":[9.034211,45.533129],"type":"Point"},"properties":{"osm_id":"5978777680","tag":{"amenity":"waste_basket"}},"type":"Feature"},
	{"geometry":{"coordinates":[9.034699,45.533107],"type":"Point"},"properties":{"osm_id":"5978786585","tag":{"amenity":"waste_basket"}},"type":"Feature"},
	{"geometry":{"coordinates":[9.03728,45.53286],"type":"Point"},"properties":{"osm_id":"5978831839","tag":{"amenity":"waste_basket"}},"type":"Feature"},
	{"geometry":{"coordinates":[9.037248,45.532865],"type":"Point"},"properties":{"osm_id":"5978832106","tag":{"amenity":"waste_basket"}},"type":"Feature"},
	{"geometry":{"coordinates":[9.039174,45.532558],"type":"Point"},"properties":{"osm_id":"5978850149","tag":{"amenity":"waste_basket"}},"type":"Feature"},
	{"geometry":{"coordinates":[9.03346,45.533235],"type":"Point"},"properties":{"osm_id":"5978867838","tag":{"amenity":"waste_basket"}},"type":"Feature"},
	{"geometry":{"coordinates":[9.039573,45.5301],"type":"Point"},"properties":{"osm_id":"5978877548","tag":{"amenity":"waste_basket"}},"type":"Feature"},
	{"geometry":{"coordinates":[9.039869,45.528602],"type":"Point"},"properties":{"osm_id":"5978893324","tag":{"amenity":"waste_basket"}},"type":"Feature"},
	{"geometry":{"coordinates":[9.039888,45.528419],"type":"Point"},"properties":{"osm_id":"5978895948","tag":{"amenity":"waste_basket"}},"type":"Feature"},
	{"geometry":{"coordinates":[9.040313,45.528338],"type":"Point"},"properties":{"osm_id":"5978895975","tag":{"amenity":"waste_basket"}},"type":"Feature"},
	{"geometry":{"coordinates":[9.041521,45.52672],"type":"Point"},"properties":{"osm_id":"5978906667","tag":{"amenity":"waste_basket"}},"type":"Feature"},
	{"geometry":{"coordinates":[9.042338,45.525554],"type":"Point"},"properties":{"osm_id":"5978912115","tag":{"amenity":"waste_basket"}},"type":"Feature"},
	{"geometry":{"coordinates":[9.042488,45.525302],"type":"Point"},"properties":{"osm_id":"5978922428","tag":{"amenity":"waste_basket"}},"type":"Feature"},
	{"geometry":{"coordinates":[9.04363,45.524161],"type":"Point"},"properties":{"osm_id":"5978926543","tag":{"amenity":"waste_basket"}},"type":"Feature"},
	{"geometry":{"coordinates":[9.043173,45.523923],"type":"Point"},"properties":{"osm_id":"5978931639","tag":{"amenity":"waste_basket"}},"type":"Feature"},
	{"geometry":{"coordinates":[9.038141,45.52865],"type":"Point"},"properties":{"osm_id":"5980813544","tag":{"amenity":"waste_basket"}},"type":"Feature"},
	{"geometry":{"coordinates":[9.038234,45.528541],"type":"Point"},"properties":{"osm_id":"5980813545","tag":{"amenity":"waste_basket"}},"type":"Feature"},
	{"geometry":{"coordinates":[9.03876,45.528554],"type":"Point"},"properties":{"osm_id":"5980813546","tag":{"amenity":"waste_basket"}},"type":"Feature"},
	{"geometry":{"coordinates":[9.039702,45.529746],"type":"Point"},"properties":{"osm_id":"5980816501","tag":{"amenity":"waste_basket"}},"type":"Feature"},
	{"geometry":{"coordinates":[9.039592,45.529525],"type":"Point"},"properties":{"osm_id":"5980816502","tag":{"amenity":"waste_basket"}},"type":"Feature"},
	{"geometry":{"coordinates":[9.039567,45.528879],"type":"Point"},"properties":{"osm_id":"5980816504","tag":{"amenity":"waste_basket"}},"type":"Feature"},
	{"geometry":{"coordinates":[9.039428,45.528779],"type":"Point"},"properties":{"osm_id":"5980816505","tag":{"amenity":"waste_basket"}},"type":"Feature"},
	{"geometry":{"coordinates":[9.03942,45.528581],"type":"Point"},"properties":{"osm_id":"5980816707","tag":{"amenity":"waste_basket"}},"type":"Feature"},
	{"geometry":{"coordinates":[9.039428,45.528407],"type":"Point"},"properties":{"osm_id":"5980816708","tag":{"amenity":"waste_basket"}},"type":"Feature"},
	{"geometry":{"coordinates":[9.039632,45.528408],"type":"Point"},"properties":{"osm_id":"5980816709","tag":{"amenity":"waste_basket"}},"type":"Feature"},
	{"geometry":{"coordinates":[9.040597,45.528389],"type":"Point"},"properties":{"osm_id":"5980816727","tag":{"amenity":"waste_basket"}},"type":"Feature"},
	{"geometry":{"coordinates":[9.039637,45.525658],"type":"Point"},"properties":{"osm_id":"5980817488","tag":{"amenity":"waste_basket"}},"type":"Feature"},
	{"geometry":{"coordinates":[9.039535,45.525786],"type":"Point"},"properties":{"osm_id":"5980817489","tag":{"amenity":"waste_basket"}},"type":"Feature"},
	{"geometry":{"coordinates":[9.039259,45.526104],"type":"Point"},"properties":{"osm_id":"5980817515","tag":{"amenity":"recycling","recycling:clothes":"yes","recycling:glass":"yes","recycling_type":"container"}},"type":"Feature"},
	{"geometry":{"coordinates":[9.039511,45.526359],"type":"Point"},"properties":{"osm_id":"5980817527","tag":{"amenity":"waste_basket"}},"type":"Feature"},
	{"geometry":{"coordinates":[9.039803,45.526258],"type":"Point"},"properties":{"osm_id":"5980817528","tag":{"amenity":"waste_basket"}},"type":"Feature"},
	{"geometry":{"coordinates":[9.039141,45.52597],"type":"Point"},"properties":{"osm_id":"5980817530","tag":{"amenity":"waste_basket"}},"type":"Feature"},
	{"geometry":{"coordinates":[9.039128,45.526201],"type":"Point"},"properties":{"osm_id":"5980817531","tag":{"amenity":"waste_basket"}},"type":"Feature"},
	{"geometry":{"coordinates":[9.043854,45.524724],"type":"Point"},"properties":{"osm_id":"5980817550","tag":{"amenity":"waste_basket"}},"type":"Feature"},
	{"geometry":{"coordinates":[9.021252,45.552262],"type":"Point"},"properties":{"osm_id":"6036979549","tag":{"amenity":"waste_basket"}},"type":"Feature"},
	{"geometry":{"coordinates":[8.995882,45.524057],"type":"Point"},"properties":{"osm_id":"7090363487","tag":{"amenity":"recycling","recycling:clothes":"yes","recycling_type":"container"}},"type":"Feature"},
	{"geometry":{"coordinates":[8.996033,45.524623],"type":"Point"},"properties":{"osm_id":"7090363488","tag":{"amenity":"waste_basket"}},"type":"Feature"},
	{"geometry":{"coordinates":[8.99486,45.524187],"type":"Point"},"properties":{"osm_id":"7090363489","tag":{"amenity":"waste_basket"}},"type":"Feature"},
	{"geometry":{"coordinates":[8.995491,45.524074],"type":"Point"},"properties":{"osm_id":"7090363491","tag":{"amenity":"waste_basket"}},"type":"Feature"},
	{"geometry":{"coordinates":[8.998076,45.525852],"type":"Point"},"properties":{"osm_id":"7090363581","tag":{"amenity":"recycling","recycling:clothes":"yes","recycling_type":"container"}},"type":"Feature"},
	{"geometry":{"coordinates":[8.997958,45.525777],"type":"Point"},"properties":{"osm_id":"7090363582","tag":{"amenity":"waste_basket"}},"type":"Feature"},
	{"geometry":{"coordinates":[8.997309,45.525884],"type":"Point"},"properties":{"osm_id":"7090363583","tag":{"amenity":"waste_basket"}},"type":"Feature"},
	{"geometry":{"coordinates":[8.996813,45.52575],"type":"Point"},"properties":{"osm_id":"7090370404","tag":{"amenity":"waste_basket"}},"type":"Feature"},
	{"geometry":{"coordinates":[8.996553,45.52573],"type":"Point"},"properties":{"osm_id":"7090370405","tag":{"amenity":"waste_basket"}},"type":"Feature"},
	{"geometry":{"coordinates":[8.993696,45.52578],"type":"Point"},"properties":{"osm_id":"7090373162","tag":{"amenity":"waste_basket"}},"type":"Feature"}
]
}
