{
"type": "FeatureCollection",
"features": [
	{"geometry":{"coordinates":[8.997202,45.486226],"type":"Point"},"properties":{"osm_id":"2934475788","tag":{"amenity":"recycling","recycling:clothes":"yes"}},"type":"Feature"},
	{"geometry":{"coordinates":[9.00582,45.499837],"type":"Point"},"properties":{"osm_id":"2934629690","tag":{"amenity":"recycling","recycling:clothes":"yes"}},"type":"Feature"},
	{"geometry":{"coordinates":[9.025156,45.505944],"type":"Point"},"properties":{"osm_id":"2935166036","tag":{"amenity":"recycling","recycling:clothes":"yes"}},"type":"Feature"},
	{"geometry":{"coordinates":[9.028176,45.48683],"type":"Point"},"properties":{"osm_id":"2935549865","tag":{"amenity":"recycling","recycling:clothes":"yes","recycling_type":"container"}},"type":"Feature"},
	{"geometry":{"coordinates":[9.028362,45.486869],"type":"Point"},"properties":{"osm_id":"2935549889","tag":{"amenity":"recycling","recycling:batteries":"yes","recycling_type":"container"}},"type":"Feature"},
	{"geometry":{"coordinates":[9.027774,45.48815],"type":"Point"},"properties":{"osm_id":"2935556460","tag":{"amenity":"recycling","recycling:clothes":"yes","recycling_type":"container"}},"type":"Feature"},
	{"geometry":{"coordinates":[9.002155,45.510954],"type":"Point"},"properties":{"osm_id":"4696995935","tag":{"amenity":"waste_basket"}},"type":"Feature"},
	{"geometry":{"coordinates":[9.002379,45.510649],"type":"Point"},"properties":{"osm_id":"4696995938","tag":{"amenity":"waste_basket"}},"type":"Feature"},
	{"geometry":{"coordinates":[9.002702,45.510252],"type":"Point"},"properties":{"osm_id":"4696995939","tag":{"amenity":"waste_basket"}},"type":"Feature"},
	{"geometry":{"coordinates":[9.002247,45.510988],"type":"Point"},"properties":{"osm_id":"4696995940","tag":{"amenity":"waste_basket"}},"type":"Feature"},
	{"geometry":{"coordinates":[9.00268,45.510301],"type":"Point"},"properties":{"osm_id":"4696995941","tag":{"amenity":"waste_basket"}},"type":"Feature"},
	{"geometry":{"coordinates":[9.002455,45.510673],"type":"Point"},"properties":{"osm_id":"4696995944","tag":{"amenity":"waste_basket"}},"type":"Feature"},
	{"geometry":{"coordinates":[8.975734,45.487401],"type":"Point"},"properties":{"osm_id":"5703258957","tag":{"amenity":"waste_basket","waste":"trash"}},"type":"Feature"},
	{"geometry":{"coordinates":[9.004867,45.48509],"type":"Point"},"properties":{"osm_id":"5755528395","tag":{"amenity":"waste_basket"}},"type":"Feature"},
	{"geometry":{"coordinates":[9.009651,45.487699],"type":"Point"},"properties":{"osm_id":"6058666980","tag":{"amenity":"recycling","recycling:batteries":"yes","recycling_type":"container"}},"type":"Feature"},
	{"geometry":{"coordinates":[9.009636,45.487695],"type":"Point"},"properties":{"osm_id":"6295744756","tag":{"amenity":"waste_basket","waste":"trash"}},"type":"Feature"},
	{"geometry":{"coordinates":[9.00526,45.515699],"type":"Point"},"properties":{"osm_id":"7889311149","tag":{"amenity":"waste_basket"}},"type":"Feature"},
	{"geometry":{"coordinates":[9.005305,45.515828],"type":"Point"},"properties":{"osm_id":"7889311150","tag":{"amenity":"waste_basket"}},"type":"Feature"},
	{"geometry":{"coordinates":[9.004641,45.515653],"type":"Point"},"properties":{"osm_id":"7889529213","tag":{"amenity":"waste_basket"}},"type":"Feature"},
	{"geometry":{"coordinates":[9.005236,45.516054],"type":"Point"},"properties":{"osm_id":"7889529251","tag":{"amenity":"waste_basket"}},"type":"Feature"},
	{"geometry":{"coordinates":[9.004739,45.515911],"type":"Point"},"properties":{"osm_id":"7889529263","tag":{"amenity":"waste_basket"}},"type":"Feature"}
]
}
