{
"type": "FeatureCollection",
"features": [
	{"geometry":{"coordinates":[9.022706,44.581032],"type":"Point"},"properties":{"osm_id":"321480761","tag":{"amenity":"recycling","recycling_type":"container"}},"type":"Feature"},
	{"geometry":{"coordinates":[8.999611,44.533109],"type":"Point"},"properties":{"osm_id":"4427493584","tag":{"amenity":"waste_basket"}},"type":"Feature"},
	{"geometry":{"coordinates":[8.998827,44.533336],"type":"Point"},"properties":{"osm_id":"4427493714","tag":{"amenity":"recycling","recycling:cardboard":"yes","recycling:paper":"yes","recycling_type":"container"}},"type":"Feature"},
	{"geometry":{"coordinates":[8.99841,44.533523],"type":"Point"},"properties":{"osm_id":"4427493724","tag":{"amenity":"waste_disposal"}},"type":"Feature"},
	{"geometry":{"coordinates":[9.001095,44.533556],"type":"Point"},"properties":{"osm_id":"4427493739","tag":{"amenity":"recycling","recycling:cans":"yes","recycling:cardboard":"yes","recycling:glass":"yes","recycling:glass_bottles":"yes","recycling:paper":"yes","recycling:plastic":"yes","recycling:plastic_bottles":"yes","recycling:plastic_packaging":"yes","recycling:waste":"yes","recycling_type":"container"}},"type":"Feature"},
	{"geometry":{"coordinates":[8.998416,44.533573],"type":"Point"},"properties":{"osm_id":"4427493743","tag":{"amenity":"waste_basket"}},"type":"Feature"},
	{"geometry":{"coordinates":[8.998376,44.533592],"type":"Point"},"properties":{"osm_id":"4427493753","tag":{"amenity":"waste_basket"}},"type":"Feature"},
	{"geometry":{"coordinates":[8.998645,44.533761],"type":"Point"},"properties":{"osm_id":"4427493939","tag":{"amenity":"waste_basket"}},"type":"Feature"},
	{"geometry":{"coordinates":[8.998426,44.533765],"type":"Point"},"properties":{"osm_id":"4427493944","tag":{"amenity":"waste_basket"}},"type":"Feature"},
	{"geometry":{"coordinates":[8.998295,44.533744],"type":"Point"},"properties":{"osm_id":"4427493956","tag":{"amenity":"waste_basket"}},"type":"Feature"},
	{"geometry":{"coordinates":[8.998645,44.533817],"type":"Point"},"properties":{"osm_id":"4427493980","tag":{"amenity":"waste_basket"}},"type":"Feature"},
	{"geometry":{"coordinates":[8.99831,44.533903],"type":"Point"},"properties":{"osm_id":"4427494111","tag":{"amenity":"waste_basket","leisure":"picnic_table"}},"type":"Feature"},
	{"geometry":{"coordinates":[8.999216,44.534031],"type":"Point"},"properties":{"osm_id":"4427494121","tag":{"amenity":"recycling","recycling:glass":"yes","recycling:glass_bottles":"yes","recycling:green_waste":"yes","recycling:waste":"yes","recycling_type":"container"}},"type":"Feature"},
	{"geometry":{"coordinates":[8.995531,44.534327],"type":"Point"},"properties":{"osm_id":"4427494128","tag":{"amenity":"waste_basket"}},"type":"Feature"},
	{"geometry":{"coordinates":[8.995933,44.534472],"type":"Point"},"properties":{"osm_id":"4427494131","tag":{"amenity":"recycling","recycling:cans":"yes","recycling:clothes":"yes","recycling:glass":"yes","recycling:glass_bottles":"yes","recycling:green_waste":"no","recycling:paper":"yes","recycling:plastic":"yes","recycling:plastic_bottles":"yes","recycling:plastic_packaging":"yes","recycling:waste":"yes","recycling_type":"container"}},"type":"Feature"},
	{"geometry":{"coordinates":[8.997744,44.535308],"type":"Point"},"properties":{"osm_id":"4427494144","tag":{"amenity":"recycling","recycling:waste":"yes","recycling_type":"container"}},"type":"Feature"},
	{"geometry":{"coordinates":[8.99788,44.533568],"type":"Point"},"properties":{"osm_id":"4427820603","tag":{"amenity":"waste_basket"}},"type":"Feature"},
	{"geometry":{"coordinates":[8.997879,44.533734],"type":"Point"},"properties":{"osm_id":"4427820604","tag":{"amenity":"waste_basket"}},"type":"Feature"}
]
}
