{
"type": "FeatureCollection",
"features": [
	{"geometry":{"coordinates":[5.53131,51.461123],"type":"Point"},"properties":{"osm_id":"92553743","tag":{"amenity":"recycling","recycling:clothes":"yes","recycling_type":"container"}},"type":"Feature"},
	{"geometry":{"coordinates":[5.488207,51.459569],"type":"Point"},"properties":{"osm_id":"250855084","tag":{"amenity":"recycling","recycling:cans":"no","recycling:clothes":"yes","recycling:glass":"no","recycling:glass_bottles":"yes","recycling:paper":"no","recycling:plastic":"yes","recycling_type":"container"}},"type":"Feature"},
	{"geometry":{"coordinates":[5.493277,51.47032],"type":"Point"},"properties":{"osm_id":"267247728","tag":{"amenity":"recycling","recycling:cans":"yes","recycling:clothes":"yes","recycling:glass_bottles":"yes","recycling:plastic":"yes","recycling:plastic_bottles":"yes","recycling:plastic_packaging":"yes","recycling_type":"container"}},"type":"Feature"},
	{"geometry":{"coordinates":[5.474062,51.4896],"type":"Point"},"properties":{"osm_id":"274710050","tag":{"amenity":"recycling","recycling:glass":"yes","recycling_type":"container"}},"type":"Feature"},
	{"geometry":{"coordinates":[5.468018,51.503664],"type":"Point"},"properties":{"name":"Milieustraat Son","osm_id":"280519849","tag":{"amenity":"recycling","recycling_type":"centre"}},"type":"Feature"},
	{"geometry":{"coordinates":[5.488721,51.464614],"type":"Point"},"properties":{"osm_id":"291806227","tag":{"amenity":"recycling","location":"overground","recycling:glass":"no","recycling:glass_bottles":"yes","recycling_type":"container"}},"type":"Feature"},
	{"geometry":{"coordinates":[5.474361,51.469258],"type":"Point"},"properties":{"osm_id":"502602592","tag":{"amenity":"recycling","recycling:glass_bottles":"yes","recycling:plastic":"yes","recycling_type":"container"}},"type":"Feature"},
	{"geometry":{"coordinates":[5.479272,51.479789],"type":"Point"},"properties":{"osm_id":"502604305","tag":{"amenity":"recycling","recycling:clothes":"yes","recycling:glass":"yes","recycling:plastic":"yes","recycling_type":"container"}},"type":"Feature"},
	{"geometry":{"coordinates":[5.49505,51.468931],"type":"Point"},"properties":{"osm_id":"1565989310","tag":{"amenity":"waste_basket"}},"type":"Feature"},
	{"geometry":{"coordinates":[5.489439,51.45961],"type":"Point"},"properties":{"osm_id":"1567930160","tag":{"amenity":"waste_basket"}},"type":"Feature"},
	{"geometry":{"coordinates":[5.4951,51.468918],"type":"Point"},"properties":{"osm_id":"1672363525","tag":{"amenity":"waste_basket"}},"type":"Feature"},
	{"geometry":{"coordinates":[5.483026,51.458893],"type":"Point"},"properties":{"osm_id":"2636656079","tag":{"amenity":"recycling","recycling:cans":"no","recycling:clothes":"yes","recycling:glass":"no","recycling:glass_bottles":"yes","recycling:paper":"no","recycling:plastic":"yes","recycling_type":"container"}},"type":"Feature"},
	{"geometry":{"coordinates":[5.485149,51.484794],"type":"Point"},"properties":{"osm_id":"5054430384","tag":{"amenity":"waste_basket"}},"type":"Feature"},
	{"geometry":{"coordinates":[5.485023,51.484812],"type":"Point"},"properties":{"osm_id":"5054430387","tag":{"amenity":"waste_basket"}},"type":"Feature"},
	{"geometry":{"coordinates":[5.483322,51.484526],"type":"Point"},"properties":{"osm_id":"5054430412","tag":{"amenity":"waste_basket"}},"type":"Feature"},
	{"geometry":{"coordinates":[5.483122,51.484339],"type":"Point"},"properties":{"osm_id":"5054430414","tag":{"amenity":"waste_basket"}},"type":"Feature"},
	{"geometry":{"coordinates":[5.481801,51.484552],"type":"Point"},"properties":{"osm_id":"5054431526","tag":{"amenity":"waste_basket"}},"type":"Feature"},
	{"geometry":{"coordinates":[5.481954,51.484261],"type":"Point"},"properties":{"osm_id":"5054431527","tag":{"amenity":"waste_basket"}},"type":"Feature"},
	{"geometry":{"coordinates":[5.475322,51.472745],"type":"Point"},"properties":{"osm_id":"5054580253","tag":{"amenity":"waste_basket"}},"type":"Feature"},
	{"geometry":{"coordinates":[5.503943,51.464522],"type":"Point"},"properties":{"osm_id":"5062801038","tag":{"amenity":"waste_basket"}},"type":"Feature"},
	{"geometry":{"coordinates":[5.503669,51.464395],"type":"Point"},"properties":{"osm_id":"5062801041","tag":{"amenity":"waste_basket"}},"type":"Feature"},
	{"geometry":{"coordinates":[5.50424,51.464644],"type":"Point"},"properties":{"osm_id":"5062801043","tag":{"amenity":"waste_basket"}},"type":"Feature"},
	{"geometry":{"coordinates":[5.502288,51.465271],"type":"Point"},"properties":{"osm_id":"5062829206","tag":{"amenity":"waste_basket"}},"type":"Feature"},
	{"geometry":{"coordinates":[5.502332,51.474389],"type":"Point"},"properties":{"osm_id":"5062916274","tag":{"amenity":"waste_basket"}},"type":"Feature"},
	{"geometry":{"coordinates":[5.503487,51.476122],"type":"Point"},"properties":{"osm_id":"5062916275","tag":{"amenity":"waste_basket"}},"type":"Feature"},
	{"geometry":{"coordinates":[5.505718,51.47834],"type":"Point"},"properties":{"osm_id":"5062916279","tag":{"amenity":"waste_basket"}},"type":"Feature"},
	{"geometry":{"coordinates":[5.505115,51.483428],"type":"Point"},"properties":{"osm_id":"5062916284","tag":{"amenity":"waste_basket"}},"type":"Feature"},
	{"geometry":{"coordinates":[5.505253,51.485762],"type":"Point"},"properties":{"osm_id":"5062916291","tag":{"amenity":"waste_basket"}},"type":"Feature"},
	{"geometry":{"coordinates":[5.504675,51.48597],"type":"Point"},"properties":{"osm_id":"5062916294","tag":{"amenity":"waste_basket"}},"type":"Feature"},
	{"geometry":{"coordinates":[5.50463,51.486368],"type":"Point"},"properties":{"osm_id":"5062916295","tag":{"amenity":"waste_basket"}},"type":"Feature"},
	{"geometry":{"coordinates":[5.506943,51.490589],"type":"Point"},"properties":{"osm_id":"5062916296","tag":{"amenity":"waste_basket"}},"type":"Feature"},
	{"geometry":{"coordinates":[5.498914,51.505033],"type":"Point"},"properties":{"osm_id":"5062916299","tag":{"amenity":"waste_basket"}},"type":"Feature"},
	{"geometry":{"coordinates":[5.508246,51.506281],"type":"Point"},"properties":{"osm_id":"5062938200","tag":{"amenity":"waste_basket"}},"type":"Feature"},
	{"geometry":{"coordinates":[5.510877,51.506635],"type":"Point"},"properties":{"osm_id":"5062938202","tag":{"amenity":"waste_basket"}},"type":"Feature"},
	{"geometry":{"coordinates":[5.492837,51.473002],"type":"Point"},"properties":{"osm_id":"5131670994","tag":{"amenity":"waste_basket"}},"type":"Feature"},
	{"geometry":{"coordinates":[5.450482,51.455996],"type":"Point"},"properties":{"osm_id":"5131755517","tag":{"amenity":"waste_basket"}},"type":"Feature"},
	{"geometry":{"coordinates":[5.451431,51.455116],"type":"Point"},"properties":{"osm_id":"5131763022","tag":{"amenity":"waste_basket"}},"type":"Feature"},
	{"geometry":{"coordinates":[5.452055,51.454632],"type":"Point"},"properties":{"osm_id":"5131763032","tag":{"amenity":"waste_basket"}},"type":"Feature"},
	{"geometry":{"coordinates":[5.45288,51.454022],"type":"Point"},"properties":{"osm_id":"5131763035","tag":{"amenity":"waste_basket"}},"type":"Feature"},
	{"geometry":{"coordinates":[5.48284,51.479651],"type":"Point"},"properties":{"osm_id":"5254177600","tag":{"amenity":"waste_basket"}},"type":"Feature"},
	{"geometry":{"coordinates":[5.483024,51.479806],"type":"Point"},"properties":{"osm_id":"5254177608","tag":{"amenity":"waste_basket"}},"type":"Feature"},
	{"geometry":{"coordinates":[5.48012,51.479892],"type":"Point"},"properties":{"osm_id":"5254204826","tag":{"amenity":"waste_basket"}},"type":"Feature"},
	{"geometry":{"coordinates":[5.480094,51.479856],"type":"Point"},"properties":{"osm_id":"5254204827","tag":{"amenity":"waste_basket"}},"type":"Feature"},
	{"geometry":{"coordinates":[5.478004,51.479501],"type":"Point"},"properties":{"osm_id":"5254221268","tag":{"amenity":"waste_basket"}},"type":"Feature"},
	{"geometry":{"coordinates":[5.47956,51.479465],"type":"Point"},"properties":{"osm_id":"5254232226","tag":{"amenity":"waste_basket"}},"type":"Feature"},
	{"geometry":{"coordinates":[5.479069,51.479737],"type":"Point"},"properties":{"osm_id":"5254232227","tag":{"amenity":"waste_basket"}},"type":"Feature"},
	{"geometry":{"coordinates":[5.479075,51.480131],"type":"Point"},"properties":{"osm_id":"5254232228","tag":{"amenity":"waste_basket"}},"type":"Feature"},
	{"geometry":{"coordinates":[5.480259,51.469313],"type":"Point"},"properties":{"osm_id":"5254266328","tag":{"amenity":"waste_basket"}},"type":"Feature"},
	{"geometry":{"coordinates":[5.48029,51.469533],"type":"Point"},"properties":{"osm_id":"5254266331","tag":{"amenity":"waste_basket"}},"type":"Feature"},
	{"geometry":{"coordinates":[5.493128,51.477325],"type":"Point"},"properties":{"osm_id":"5364031402","tag":{"amenity":"waste_basket"}},"type":"Feature"},
	{"geometry":{"coordinates":[5.493315,51.477314],"type":"Point"},"properties":{"osm_id":"5364031403","tag":{"amenity":"waste_basket"}},"type":"Feature"},
	{"geometry":{"coordinates":[5.495015,51.505566],"type":"Point"},"properties":{"osm_id":"5420504540","tag":{"amenity":"waste_basket"}},"type":"Feature"},
	{"geometry":{"coordinates":[5.494078,51.505563],"type":"Point"},"properties":{"osm_id":"5420504542","tag":{"amenity":"waste_basket"}},"type":"Feature"},
	{"geometry":{"coordinates":[5.494039,51.50818],"type":"Point"},"properties":{"osm_id":"5420519319","tag":{"amenity":"waste_basket"}},"type":"Feature"},
	{"geometry":{"coordinates":[5.48811,51.507832],"type":"Point"},"properties":{"osm_id":"5582171259","tag":{"amenity":"waste_basket"}},"type":"Feature"},
	{"geometry":{"coordinates":[5.488752,51.507966],"type":"Point"},"properties":{"osm_id":"5582176704","tag":{"amenity":"waste_basket"}},"type":"Feature"},
	{"geometry":{"coordinates":[5.528781,51.458578],"type":"Point"},"properties":{"osm_id":"5721265947","tag":{"amenity":"waste_basket"}},"type":"Feature"},
	{"geometry":{"coordinates":[5.529409,51.458437],"type":"Point"},"properties":{"osm_id":"5721265949","tag":{"amenity":"waste_basket"}},"type":"Feature"},
	{"geometry":{"coordinates":[5.529759,51.458082],"type":"Point"},"properties":{"osm_id":"5721265951","tag":{"amenity":"waste_basket"}},"type":"Feature"},
	{"geometry":{"coordinates":[5.477956,51.508518],"type":"Point"},"properties":{"osm_id":"5759049182","tag":{"amenity":"waste_basket"}},"type":"Feature"},
	{"geometry":{"coordinates":[5.483227,51.473313],"type":"Point"},"properties":{"osm_id":"5771642395","tag":{"amenity":"waste_basket"}},"type":"Feature"},
	{"geometry":{"coordinates":[5.483274,51.473684],"type":"Point"},"properties":{"osm_id":"5771642405","tag":{"amenity":"waste_basket"}},"type":"Feature"},
	{"geometry":{"coordinates":[5.482957,51.473587],"type":"Point"},"properties":{"osm_id":"5771642406","tag":{"amenity":"waste_basket"}},"type":"Feature"},
	{"geometry":{"coordinates":[5.478761,51.47916],"type":"Point"},"properties":{"osm_id":"5771654325","tag":{"amenity":"waste_basket"}},"type":"Feature"},
	{"geometry":{"coordinates":[5.493199,51.477267],"type":"Point"},"properties":{"osm_id":"5782005770","tag":{"amenity":"waste_basket"}},"type":"Feature"},
	{"geometry":{"coordinates":[5.493402,51.477257],"type":"Point"},"properties":{"osm_id":"5782005773","tag":{"amenity":"waste_basket"}},"type":"Feature"},
	{"geometry":{"coordinates":[5.480733,51.485451],"type":"Point"},"properties":{"osm_id":"5825602677","tag":{"amenity":"waste_basket"}},"type":"Feature"},
	{"geometry":{"coordinates":[5.481258,51.485576],"type":"Point"},"properties":{"osm_id":"5825602700","tag":{"amenity":"waste_basket"}},"type":"Feature"},
	{"geometry":{"coordinates":[5.481118,51.48573],"type":"Point"},"properties":{"osm_id":"5825602702","tag":{"amenity":"waste_basket"}},"type":"Feature"},
	{"geometry":{"coordinates":[5.481728,51.485666],"type":"Point"},"properties":{"osm_id":"5825603027","tag":{"amenity":"waste_basket"}},"type":"Feature"},
	{"geometry":{"coordinates":[5.476121,51.485619],"type":"Point"},"properties":{"osm_id":"5825644275","tag":{"amenity":"waste_basket"}},"type":"Feature"},
	{"geometry":{"coordinates":[5.481968,51.485486],"type":"Point"},"properties":{"osm_id":"5825688914","tag":{"amenity":"waste_basket"}},"type":"Feature"},
	{"geometry":{"coordinates":[5.488023,51.507472],"type":"Point"},"properties":{"osm_id":"5836533853","tag":{"amenity":"waste_basket"}},"type":"Feature"},
	{"geometry":{"coordinates":[5.53609,51.467303],"type":"Point"},"properties":{"osm_id":"5849207520","tag":{"amenity":"waste_basket"}},"type":"Feature"},
	{"geometry":{"coordinates":[5.53599,51.467387],"type":"Point"},"properties":{"osm_id":"5849207521","tag":{"amenity":"recycling","recycling:clothes":"yes","recycling_type":"container"}},"type":"Feature"},
	{"geometry":{"coordinates":[5.484723,51.481355],"type":"Point"},"properties":{"osm_id":"5851202201","tag":{"amenity":"waste_basket"}},"type":"Feature"},
	{"geometry":{"coordinates":[5.45645,51.462744],"type":"Point"},"properties":{"osm_id":"5851391488","tag":{"amenity":"waste_basket"}},"type":"Feature"},
	{"geometry":{"coordinates":[5.46262,51.485954],"type":"Point"},"properties":{"osm_id":"5851706424","tag":{"amenity":"waste_basket","waste":"trash"}},"type":"Feature"},
	{"geometry":{"coordinates":[5.463126,51.485938],"type":"Point"},"properties":{"osm_id":"5851706431","tag":{"amenity":"waste_basket","waste":"trash"}},"type":"Feature"},
	{"geometry":{"coordinates":[5.461389,51.485369],"type":"Point"},"properties":{"osm_id":"5851713702","tag":{"amenity":"waste_basket","waste":"trash"}},"type":"Feature"},
	{"geometry":{"coordinates":[5.466144,51.479725],"type":"Point"},"properties":{"osm_id":"5851986944","tag":{"amenity":"waste_basket"}},"type":"Feature"},
	{"geometry":{"coordinates":[5.466064,51.480394],"type":"Point"},"properties":{"osm_id":"5852001337","tag":{"amenity":"recycling","recycling:glass":"yes","recycling_type":"container"}},"type":"Feature"},
	{"geometry":{"coordinates":[5.466229,51.480493],"type":"Point"},"properties":{"osm_id":"5852001338","tag":{"amenity":"waste_basket"}},"type":"Feature"},
	{"geometry":{"coordinates":[5.465968,51.480627],"type":"Point"},"properties":{"osm_id":"5852001343","tag":{"amenity":"waste_basket"}},"type":"Feature"},
	{"geometry":{"coordinates":[5.462463,51.479302],"type":"Point"},"properties":{"osm_id":"5852061866","tag":{"amenity":"waste_basket"}},"type":"Feature"},
	{"geometry":{"coordinates":[5.477621,51.469872],"type":"Point"},"properties":{"osm_id":"5852067360","tag":{"amenity":"recycling","recycling:clothes":"yes","recycling:glass":"no","recycling:glass_bottles":"yes","recycling:plastic":"yes","recycling_type":"container"}},"type":"Feature"},
	{"geometry":{"coordinates":[5.485257,51.468938],"type":"Point"},"properties":{"osm_id":"5852084375","tag":{"amenity":"waste_basket"}},"type":"Feature"},
	{"geometry":{"coordinates":[5.484332,51.473337],"type":"Point"},"properties":{"osm_id":"5852100679","tag":{"amenity":"waste_basket"}},"type":"Feature"},
	{"geometry":{"coordinates":[5.481008,51.487867],"type":"Point"},"properties":{"osm_id":"5861971299","tag":{"amenity":"waste_basket"}},"type":"Feature"},
	{"geometry":{"coordinates":[5.480798,51.488062],"type":"Point"},"properties":{"osm_id":"5861971301","tag":{"amenity":"waste_basket"}},"type":"Feature"},
	{"geometry":{"coordinates":[5.480435,51.487989],"type":"Point"},"properties":{"osm_id":"5861971312","tag":{"amenity":"waste_basket"}},"type":"Feature"},
	{"geometry":{"coordinates":[5.480325,51.488101],"type":"Point"},"properties":{"osm_id":"5861971314","tag":{"amenity":"waste_basket"}},"type":"Feature"},
	{"geometry":{"coordinates":[5.480685,51.488612],"type":"Point"},"properties":{"osm_id":"5863010816","tag":{"amenity":"waste_basket"}},"type":"Feature"},
	{"geometry":{"coordinates":[5.480589,51.488238],"type":"Point"},"properties":{"osm_id":"5863010818","tag":{"amenity":"waste_basket"}},"type":"Feature"},
	{"geometry":{"coordinates":[5.481349,51.488403],"type":"Point"},"properties":{"osm_id":"5863010819","tag":{"amenity":"waste_basket"}},"type":"Feature"},
	{"geometry":{"coordinates":[5.456949,51.483269],"type":"Point"},"properties":{"osm_id":"5863160842","tag":{"amenity":"waste_basket"}},"type":"Feature"},
	{"geometry":{"coordinates":[5.461599,51.4803],"type":"Point"},"properties":{"osm_id":"5863401150","tag":{"amenity":"waste_basket"}},"type":"Feature"},
	{"geometry":{"coordinates":[5.461535,51.480667],"type":"Point"},"properties":{"osm_id":"5863401151","tag":{"amenity":"waste_basket"}},"type":"Feature"},
	{"geometry":{"coordinates":[5.461893,51.481054],"type":"Point"},"properties":{"osm_id":"5863401175","tag":{"amenity":"waste_basket"}},"type":"Feature"},
	{"geometry":{"coordinates":[5.462129,51.480743],"type":"Point"},"properties":{"osm_id":"5863401179","tag":{"amenity":"waste_basket"}},"type":"Feature"},
	{"geometry":{"coordinates":[5.461826,51.479965],"type":"Point"},"properties":{"osm_id":"5863401181","tag":{"amenity":"waste_basket"}},"type":"Feature"},
	{"geometry":{"coordinates":[5.462353,51.479485],"type":"Point"},"properties":{"osm_id":"5863401182","tag":{"amenity":"waste_basket"}},"type":"Feature"},
	{"geometry":{"coordinates":[5.488023,51.454483],"type":"Point"},"properties":{"osm_id":"5869389012","tag":{"amenity":"waste_basket"}},"type":"Feature"},
	{"geometry":{"coordinates":[5.488281,51.454471],"type":"Point"},"properties":{"osm_id":"5869389013","tag":{"amenity":"waste_basket"}},"type":"Feature"},
	{"geometry":{"coordinates":[5.48848,51.45441],"type":"Point"},"properties":{"osm_id":"5869389014","tag":{"amenity":"waste_basket"}},"type":"Feature"},
	{"geometry":{"coordinates":[5.487841,51.45502],"type":"Point"},"properties":{"osm_id":"5869460061","tag":{"amenity":"waste_basket"}},"type":"Feature"},
	{"geometry":{"coordinates":[5.488208,51.45501],"type":"Point"},"properties":{"osm_id":"5869460066","tag":{"amenity":"waste_basket"}},"type":"Feature"},
	{"geometry":{"coordinates":[5.487911,51.454655],"type":"Point"},"properties":{"osm_id":"5869460744","tag":{"amenity":"waste_basket"}},"type":"Feature"},
	{"geometry":{"coordinates":[5.488445,51.455003],"type":"Point"},"properties":{"osm_id":"5869468701","tag":{"amenity":"waste_basket"}},"type":"Feature"},
	{"geometry":{"coordinates":[5.490452,51.459456],"type":"Point"},"properties":{"osm_id":"5870523069","tag":{"amenity":"waste_basket"}},"type":"Feature"},
	{"geometry":{"coordinates":[5.490251,51.460164],"type":"Point"},"properties":{"osm_id":"5870523421","tag":{"amenity":"waste_basket"}},"type":"Feature"},
	{"geometry":{"coordinates":[5.492076,51.458421],"type":"Point"},"properties":{"osm_id":"5870565172","tag":{"amenity":"waste_basket"}},"type":"Feature"},
	{"geometry":{"coordinates":[5.495284,51.458749],"type":"Point"},"properties":{"osm_id":"5870602430","tag":{"amenity":"waste_basket"}},"type":"Feature"},
	{"geometry":{"coordinates":[5.495729,51.458752],"type":"Point"},"properties":{"osm_id":"5870602432","tag":{"amenity":"waste_basket"}},"type":"Feature"},
	{"geometry":{"coordinates":[5.487191,51.462384],"type":"Point"},"properties":{"osm_id":"5870651184","tag":{"amenity":"waste_basket"}},"type":"Feature"},
	{"geometry":{"coordinates":[5.489132,51.458505],"type":"Point"},"properties":{"osm_id":"5870693727","tag":{"amenity":"waste_basket"}},"type":"Feature"},
	{"geometry":{"coordinates":[5.491937,51.465635],"type":"Point"},"properties":{"osm_id":"5870769779","tag":{"amenity":"waste_basket"}},"type":"Feature"},
	{"geometry":{"coordinates":[5.48829,51.466083],"type":"Point"},"properties":{"osm_id":"5870773573","tag":{"amenity":"waste_basket"}},"type":"Feature"},
	{"geometry":{"coordinates":[5.455115,51.457126],"type":"Point"},"properties":{"osm_id":"5904347788","tag":{"amenity":"waste_basket"}},"type":"Feature"},
	{"geometry":{"coordinates":[5.455299,51.45691],"type":"Point"},"properties":{"osm_id":"5904347796","tag":{"amenity":"waste_basket"}},"type":"Feature"},
	{"geometry":{"coordinates":[5.455555,51.45682],"type":"Point"},"properties":{"osm_id":"5904347797","tag":{"amenity":"waste_basket"}},"type":"Feature"},
	{"geometry":{"coordinates":[5.464273,51.466214],"type":"Point"},"properties":{"osm_id":"5904385150","tag":{"amenity":"waste_basket"}},"type":"Feature"},
	{"geometry":{"coordinates":[5.464,51.466484],"type":"Point"},"properties":{"osm_id":"5904385151","tag":{"amenity":"waste_basket"}},"type":"Feature"},
	{"geometry":{"coordinates":[5.46536,51.466936],"type":"Point"},"properties":{"osm_id":"5904385155","tag":{"amenity":"waste_basket"}},"type":"Feature"},
	{"geometry":{"coordinates":[5.464905,51.46697],"type":"Point"},"properties":{"osm_id":"5904385158","tag":{"amenity":"waste_basket"}},"type":"Feature"},
	{"geometry":{"coordinates":[5.45995,51.464394],"type":"Point"},"properties":{"osm_id":"5904385472","tag":{"amenity":"waste_basket"}},"type":"Feature"},
	{"geometry":{"coordinates":[5.459578,51.464799],"type":"Point"},"properties":{"osm_id":"5904385473","tag":{"amenity":"waste_basket"}},"type":"Feature"},
	{"geometry":{"coordinates":[5.460086,51.464863],"type":"Point"},"properties":{"osm_id":"5904385474","tag":{"amenity":"waste_basket"}},"type":"Feature"},
	{"geometry":{"coordinates":[5.460935,51.465064],"type":"Point"},"properties":{"osm_id":"5904385514","tag":{"amenity":"waste_basket"}},"type":"Feature"},
	{"geometry":{"coordinates":[5.463855,51.465898],"type":"Point"},"properties":{"osm_id":"5904385525","tag":{"amenity":"waste_basket"}},"type":"Feature"},
	{"geometry":{"coordinates":[5.463154,51.465933],"type":"Point"},"properties":{"osm_id":"5904392463","tag":{"amenity":"waste_basket"}},"type":"Feature"},
	{"geometry":{"coordinates":[5.482067,51.469975],"type":"Point"},"properties":{"osm_id":"6119849086","tag":{"amenity":"waste_basket"}},"type":"Feature"},
	{"geometry":{"coordinates":[5.482262,51.470435],"type":"Point"},"properties":{"osm_id":"6119849087","tag":{"amenity":"waste_basket"}},"type":"Feature"},
	{"geometry":{"coordinates":[5.481118,51.470493],"type":"Point"},"properties":{"osm_id":"6119849096","tag":{"amenity":"waste_basket"}},"type":"Feature"},
	{"geometry":{"coordinates":[5.520374,51.494726],"type":"Point"},"properties":{"osm_id":"6222444103","tag":{"amenity":"waste_basket"}},"type":"Feature"},
	{"geometry":{"coordinates":[5.493021,51.476653],"type":"Point"},"properties":{"osm_id":"6296036167","tag":{"amenity":"recycling","recycling:glass_bottles":"yes","recycling_type":"container"}},"type":"Feature"},
	{"geometry":{"coordinates":[5.470763,51.499023],"type":"Point"},"properties":{"osm_id":"6445843486","tag":{"amenity":"waste_basket","waste":"trash"}},"type":"Feature"},
	{"geometry":{"coordinates":[5.47104,51.499026],"type":"Point"},"properties":{"osm_id":"6445843489","tag":{"amenity":"waste_basket","waste":"trash"}},"type":"Feature"},
	{"geometry":{"coordinates":[5.47095,51.499183],"type":"Point"},"properties":{"osm_id":"6445843491","tag":{"amenity":"waste_basket","waste":"trash"}},"type":"Feature"},
	{"geometry":{"coordinates":[5.471312,51.499032],"type":"Point"},"properties":{"osm_id":"6445843492","tag":{"amenity":"waste_basket","waste":"trash"}},"type":"Feature"},
	{"geometry":{"coordinates":[5.470464,51.499018],"type":"Point"},"properties":{"osm_id":"6445843493","tag":{"amenity":"waste_basket","waste":"trash"}},"type":"Feature"},
	{"geometry":{"coordinates":[5.471854,51.499073],"type":"Point"},"properties":{"osm_id":"6445843495","tag":{"amenity":"waste_basket","waste":"trash"}},"type":"Feature"},
	{"geometry":{"coordinates":[5.472209,51.498264],"type":"Point"},"properties":{"osm_id":"6446006018","tag":{"amenity":"waste_basket","waste":"trash"}},"type":"Feature"},
	{"geometry":{"coordinates":[5.472049,51.498424],"type":"Point"},"properties":{"osm_id":"6446280972","tag":{"amenity":"waste_basket"}},"type":"Feature"},
	{"geometry":{"coordinates":[5.472123,51.498428],"type":"Point"},"properties":{"osm_id":"6446280973","tag":{"amenity":"waste_basket"}},"type":"Feature"},
	{"geometry":{"coordinates":[5.487473,51.505579],"type":"Point"},"properties":{"osm_id":"6512073507","tag":{"amenity":"waste_basket","waste":"trash"}},"type":"Feature"},
	{"geometry":{"coordinates":[5.485331,51.505253],"type":"Point"},"properties":{"osm_id":"6512073508","tag":{"amenity":"waste_basket","waste":"trash"}},"type":"Feature"},
	{"geometry":{"coordinates":[5.472787,51.504379],"type":"Point"},"properties":{"osm_id":"6512076749","tag":{"amenity":"waste_basket"}},"type":"Feature"},
	{"geometry":{"coordinates":[5.472792,51.50435],"type":"Point"},"properties":{"osm_id":"6512076750","tag":{"amenity":"waste_basket"}},"type":"Feature"},
	{"geometry":{"coordinates":[5.487482,51.505335],"type":"Point"},"properties":{"osm_id":"6512077541","tag":{"amenity":"waste_basket"}},"type":"Feature"},
	{"geometry":{"coordinates":[5.487352,51.505337],"type":"Point"},"properties":{"osm_id":"6512077542","tag":{"amenity":"waste_basket"}},"type":"Feature"},
	{"geometry":{"coordinates":[5.501006,51.464882],"type":"Point"},"properties":{"osm_id":"6515027811","tag":{"amenity":"waste_basket","waste":"trash"}},"type":"Feature"},
	{"geometry":{"coordinates":[5.502737,51.465878],"type":"Point"},"properties":{"osm_id":"6515027813","tag":{"amenity":"waste_basket","waste":"trash"}},"type":"Feature"},
	{"geometry":{"coordinates":[5.499066,51.462021],"type":"Point"},"properties":{"osm_id":"6515027833","tag":{"amenity":"waste_basket","waste":"trash"}},"type":"Feature"},
	{"geometry":{"coordinates":[5.500292,51.458415],"type":"Point"},"properties":{"osm_id":"6515027834","tag":{"amenity":"waste_basket","waste":"trash"}},"type":"Feature"},
	{"geometry":{"coordinates":[5.499365,51.462258],"type":"Point"},"properties":{"osm_id":"6515027841","tag":{"amenity":"waste_basket","waste":"trash"}},"type":"Feature"},
	{"geometry":{"coordinates":[5.468866,51.454142],"type":"Point"},"properties":{"osm_id":"6643304437","tag":{"amenity":"waste_basket","waste":"trash"}},"type":"Feature"},
	{"geometry":{"coordinates":[5.470969,51.454059],"type":"Point"},"properties":{"osm_id":"6643304445","tag":{"amenity":"waste_basket","waste":"trash"}},"type":"Feature"},
	{"geometry":{"coordinates":[5.468941,51.45406],"type":"Point"},"properties":{"osm_id":"6643304448","tag":{"amenity":"recycling","recycling:clothes":"yes","recycling_type":"container"}},"type":"Feature"},
	{"geometry":{"coordinates":[5.503233,51.481848],"type":"Point"},"properties":{"osm_id":"6744265860","tag":{"amenity":"waste_basket"}},"type":"Feature"},
	{"geometry":{"coordinates":[5.503046,51.481789],"type":"Point"},"properties":{"osm_id":"6744265863","tag":{"amenity":"waste_basket"}},"type":"Feature"},
	{"geometry":{"coordinates":[5.497327,51.48062],"type":"Point"},"properties":{"osm_id":"6750683412","tag":{"amenity":"waste_basket","waste":"trash"}},"type":"Feature"},
	{"geometry":{"coordinates":[5.497164,51.48509],"type":"Point"},"properties":{"osm_id":"6750683413","tag":{"amenity":"waste_basket","waste":"trash"}},"type":"Feature"},
	{"geometry":{"coordinates":[5.496511,51.480761],"type":"Point"},"properties":{"osm_id":"6750683418","tag":{"amenity":"waste_basket","waste":"trash"}},"type":"Feature"},
	{"geometry":{"coordinates":[5.496783,51.482424],"type":"Point"},"properties":{"osm_id":"6750683422","tag":{"amenity":"waste_basket","waste":"trash"}},"type":"Feature"},
	{"geometry":{"coordinates":[5.497267,51.482099],"type":"Point"},"properties":{"osm_id":"6750683423","tag":{"amenity":"waste_basket","waste":"trash"}},"type":"Feature"},
	{"geometry":{"coordinates":[5.502125,51.485154],"type":"Point"},"properties":{"osm_id":"6750683428","tag":{"amenity":"waste_basket","waste":"trash"}},"type":"Feature"},
	{"geometry":{"coordinates":[5.496742,51.48107],"type":"Point"},"properties":{"osm_id":"6750683429","tag":{"amenity":"waste_basket","waste":"trash"}},"type":"Feature"},
	{"geometry":{"coordinates":[5.496838,51.481741],"type":"Point"},"properties":{"osm_id":"6750683435","tag":{"amenity":"waste_basket","waste":"trash"}},"type":"Feature"},
	{"geometry":{"coordinates":[5.496861,51.480622],"type":"Point"},"properties":{"osm_id":"6750683436","tag":{"amenity":"waste_basket","waste":"trash"}},"type":"Feature"},
	{"geometry":{"coordinates":[5.49656,51.481385],"type":"Point"},"properties":{"osm_id":"6750683437","tag":{"amenity":"waste_basket","waste":"trash"}},"type":"Feature"},
	{"geometry":{"coordinates":[5.496582,51.481634],"type":"Point"},"properties":{"osm_id":"6750683438","tag":{"amenity":"waste_basket","waste":"trash"}},"type":"Feature"},
	{"geometry":{"coordinates":[5.496444,51.483102],"type":"Point"},"properties":{"osm_id":"6750683441","tag":{"amenity":"waste_basket","waste":"trash"}},"type":"Feature"},
	{"geometry":{"coordinates":[5.496506,51.481199],"type":"Point"},"properties":{"osm_id":"6750683443","tag":{"amenity":"waste_basket","waste":"trash"}},"type":"Feature"},
	{"geometry":{"coordinates":[5.496848,51.480999],"type":"Point"},"properties":{"osm_id":"6750683445","tag":{"amenity":"waste_basket","waste":"trash"}},"type":"Feature"},
	{"geometry":{"coordinates":[5.497332,51.485084],"type":"Point"},"properties":{"osm_id":"6750683447","tag":{"amenity":"waste_basket","waste":"trash"}},"type":"Feature"},
	{"geometry":{"coordinates":[5.496625,51.481096],"type":"Point"},"properties":{"osm_id":"6750683449","tag":{"amenity":"waste_basket","waste":"trash"}},"type":"Feature"},
	{"geometry":{"coordinates":[5.496503,51.479414],"type":"Point"},"properties":{"osm_id":"6750683456","tag":{"amenity":"waste_basket","waste":"trash"}},"type":"Feature"},
	{"geometry":{"coordinates":[5.497067,51.480287],"type":"Point"},"properties":{"osm_id":"6750683458","tag":{"amenity":"waste_basket"}},"type":"Feature"},
	{"geometry":{"coordinates":[5.496574,51.481512],"type":"Point"},"properties":{"osm_id":"6750683461","tag":{"amenity":"waste_basket","waste":"trash"}},"type":"Feature"},
	{"geometry":{"coordinates":[5.497192,51.484299],"type":"Point"},"properties":{"osm_id":"6750683463","tag":{"amenity":"waste_basket","waste":"trash"}},"type":"Feature"},
	{"geometry":{"coordinates":[5.493862,51.484498],"type":"Point"},"properties":{"osm_id":"6777862812","tag":{"amenity":"waste_basket"}},"type":"Feature"},
	{"geometry":{"coordinates":[5.49653,51.481948],"type":"Point"},"properties":{"osm_id":"6778001232","tag":{"amenity":"waste_basket"}},"type":"Feature"},
	{"geometry":{"coordinates":[5.460436,51.469991],"type":"Point"},"properties":{"osm_id":"6830111977","tag":{"amenity":"waste_basket","waste":"trash"}},"type":"Feature"},
	{"geometry":{"coordinates":[5.47192,51.474882],"type":"Point"},"properties":{"osm_id":"6830118988","tag":{"amenity":"waste_basket","waste":"trash"}},"type":"Feature"},
	{"geometry":{"coordinates":[5.477947,51.474457],"type":"Point"},"properties":{"osm_id":"6830119020","tag":{"amenity":"waste_basket","waste":"trash"}},"type":"Feature"},
	{"geometry":{"coordinates":[5.473303,51.474623],"type":"Point"},"properties":{"osm_id":"6830119021","tag":{"amenity":"waste_basket"}},"type":"Feature"},
	{"geometry":{"coordinates":[5.476075,51.474957],"type":"Point"},"properties":{"osm_id":"6830119025","tag":{"amenity":"waste_basket"}},"type":"Feature"},
	{"geometry":{"coordinates":[5.466351,51.474135],"type":"Point"},"properties":{"osm_id":"6830119049","tag":{"amenity":"waste_basket","waste":"trash"}},"type":"Feature"},
	{"geometry":{"coordinates":[5.476787,51.474939],"type":"Point"},"properties":{"osm_id":"6830119051","tag":{"amenity":"waste_basket","waste":"trash"}},"type":"Feature"},
	{"geometry":{"coordinates":[5.475594,51.474545],"type":"Point"},"properties":{"osm_id":"6830119055","tag":{"amenity":"waste_basket","waste":"trash"}},"type":"Feature"},
	{"geometry":{"coordinates":[5.45534,51.470972],"type":"Point"},"properties":{"osm_id":"6830119057","tag":{"amenity":"waste_basket","waste":"trash"}},"type":"Feature"},
	{"geometry":{"coordinates":[5.47853,51.474991],"type":"Point"},"properties":{"osm_id":"6830119066","tag":{"amenity":"waste_basket","waste":"trash"}},"type":"Feature"},
	{"geometry":{"coordinates":[5.472577,51.475038],"type":"Point"},"properties":{"osm_id":"6830119068","tag":{"amenity":"waste_basket","waste":"trash"}},"type":"Feature"},
	{"geometry":{"coordinates":[5.475052,51.474759],"type":"Point"},"properties":{"osm_id":"6830119072","tag":{"amenity":"waste_basket","waste":"trash"}},"type":"Feature"},
	{"geometry":{"coordinates":[5.47122,51.474536],"type":"Point"},"properties":{"osm_id":"6830119073","tag":{"amenity":"waste_basket","waste":"trash"}},"type":"Feature"},
	{"geometry":{"coordinates":[5.471294,51.474737],"type":"Point"},"properties":{"osm_id":"6830119075","tag":{"amenity":"waste_basket","waste":"trash"}},"type":"Feature"},
	{"geometry":{"coordinates":[5.478332,51.475398],"type":"Point"},"properties":{"osm_id":"6830119078","tag":{"amenity":"waste_basket","waste":"trash"}},"type":"Feature"},
	{"geometry":{"coordinates":[5.458697,51.471058],"type":"Point"},"properties":{"osm_id":"6830119080","tag":{"amenity":"waste_basket","waste":"trash"}},"type":"Feature"},
	{"geometry":{"coordinates":[5.471714,51.475154],"type":"Point"},"properties":{"osm_id":"6830119086","tag":{"amenity":"waste_basket"}},"type":"Feature"},
	{"geometry":{"coordinates":[5.476937,51.474024],"type":"Point"},"properties":{"osm_id":"6830119087","tag":{"amenity":"waste_basket","waste":"trash"}},"type":"Feature"},
	{"geometry":{"coordinates":[5.472451,51.474681],"type":"Point"},"properties":{"osm_id":"6830119090","tag":{"amenity":"waste_basket"}},"type":"Feature"},
	{"geometry":{"coordinates":[5.474183,51.474768],"type":"Point"},"properties":{"osm_id":"6830119094","tag":{"amenity":"waste_basket","waste":"trash"}},"type":"Feature"},
	{"geometry":{"coordinates":[5.473206,51.474044],"type":"Point"},"properties":{"osm_id":"6830119100","tag":{"amenity":"waste_basket"}},"type":"Feature"},
	{"geometry":{"coordinates":[5.46325,51.470323],"type":"Point"},"properties":{"osm_id":"6830523576","tag":{"amenity":"waste_basket"}},"type":"Feature"},
	{"geometry":{"coordinates":[5.463603,51.470475],"type":"Point"},"properties":{"osm_id":"6830523577","tag":{"amenity":"waste_basket"}},"type":"Feature"},
	{"geometry":{"coordinates":[5.463629,51.47058],"type":"Point"},"properties":{"osm_id":"6830523578","tag":{"amenity":"waste_basket"}},"type":"Feature"},
	{"geometry":{"coordinates":[5.463568,51.470562],"type":"Point"},"properties":{"osm_id":"6830523579","tag":{"amenity":"waste_basket"}},"type":"Feature"},
	{"geometry":{"coordinates":[5.457793,51.470194],"type":"Point"},"properties":{"osm_id":"6830619299","tag":{"amenity":"waste_basket"}},"type":"Feature"},
	{"geometry":{"coordinates":[5.45781,51.470234],"type":"Point"},"properties":{"osm_id":"6830619300","tag":{"amenity":"waste_basket"}},"type":"Feature"},
	{"geometry":{"coordinates":[5.46131,51.472652],"type":"Point"},"properties":{"osm_id":"6830659180","tag":{"amenity":"waste_basket"}},"type":"Feature"},
	{"geometry":{"coordinates":[5.459843,51.473824],"type":"Point"},"properties":{"osm_id":"6830929839","tag":{"amenity":"waste_basket"}},"type":"Feature"},
	{"geometry":{"coordinates":[5.459953,51.473878],"type":"Point"},"properties":{"osm_id":"6830929841","tag":{"amenity":"waste_basket"}},"type":"Feature"},
	{"geometry":{"coordinates":[5.455979,51.468746],"type":"Point"},"properties":{"osm_id":"6831300197","tag":{"amenity":"waste_basket"}},"type":"Feature"},
	{"geometry":{"coordinates":[5.480304,51.492705],"type":"Point"},"properties":{"osm_id":"6920051302","tag":{"amenity":"waste_basket","waste":"trash"}},"type":"Feature"},
	{"geometry":{"coordinates":[5.474069,51.494531],"type":"Point"},"properties":{"osm_id":"6920051307","tag":{"amenity":"waste_basket","waste":"trash"}},"type":"Feature"},
	{"geometry":{"coordinates":[5.483539,51.491331],"type":"Point"},"properties":{"osm_id":"6920051308","tag":{"amenity":"waste_basket","waste":"trash"}},"type":"Feature"},
	{"geometry":{"coordinates":[5.477892,51.492295],"type":"Point"},"properties":{"osm_id":"6920051309","tag":{"amenity":"waste_basket","waste":"trash"}},"type":"Feature"},
	{"geometry":{"coordinates":[5.479538,51.472937],"type":"Point"},"properties":{"osm_id":"6981526219","tag":{"amenity":"waste_basket"}},"type":"Feature"},
	{"geometry":{"coordinates":[5.482991,51.475695],"type":"Point"},"properties":{"osm_id":"6981544423","tag":{"amenity":"waste_basket"}},"type":"Feature"},
	{"geometry":{"coordinates":[5.487325,51.505578],"type":"Point"},"properties":{"osm_id":"7004218704","tag":{"amenity":"waste_basket","waste":"trash"}},"type":"Feature"},
	{"geometry":{"coordinates":[5.456462,51.472094],"type":"Point"},"properties":{"osm_id":"7142925928","tag":{"amenity":"waste_basket"}},"type":"Feature"},
	{"geometry":{"coordinates":[5.457709,51.47315],"type":"Point"},"properties":{"osm_id":"7142925929","tag":{"amenity":"waste_basket"}},"type":"Feature"},
	{"geometry":{"coordinates":[5.458836,51.473112],"type":"Point"},"properties":{"osm_id":"7142925931","tag":{"amenity":"waste_basket"}},"type":"Feature"},
	{"geometry":{"coordinates":[5.493787,51.478088],"type":"Point"},"properties":{"osm_id":"7296353312","tag":{"amenity":"waste_basket","waste":"trash"}},"type":"Feature"},
	{"geometry":{"coordinates":[5.484072,51.458895],"type":"Point"},"properties":{"osm_id":"7435031124","tag":{"amenity":"waste_disposal"}},"type":"Feature"},
	{"geometry":{"coordinates":[5.518481,51.496941],"type":"Point"},"properties":{"osm_id":"7448783404","tag":{"amenity":"waste_basket","waste":"trash"}},"type":"Feature"},
	{"geometry":{"coordinates":[5.518158,51.496971],"type":"Point"},"properties":{"osm_id":"7448783405","tag":{"amenity":"waste_basket","waste":"trash"}},"type":"Feature"},
	{"geometry":{"coordinates":[5.505453,51.475461],"type":"Point"},"properties":{"osm_id":"7485654731","tag":{"amenity":"waste_basket","waste":"trash"}},"type":"Feature"},
	{"geometry":{"coordinates":[5.514515,51.47117],"type":"Point"},"properties":{"osm_id":"7485654732","tag":{"amenity":"waste_basket","waste":"trash"}},"type":"Feature"},
	{"geometry":{"coordinates":[5.506887,51.468516],"type":"Point"},"properties":{"osm_id":"7485654735","tag":{"amenity":"waste_basket","waste":"trash"}},"type":"Feature"},
	{"geometry":{"coordinates":[5.485149,51.474583],"type":"Point"},"properties":{"osm_id":"7608278566","tag":{"amenity":"waste_basket"}},"type":"Feature"},
	{"geometry":{"coordinates":[5.486989,51.475229],"type":"Point"},"properties":{"osm_id":"7608284292","tag":{"amenity":"waste_basket"}},"type":"Feature"},
	{"geometry":{"coordinates":[5.487377,51.47443],"type":"Point"},"properties":{"osm_id":"7608304355","tag":{"amenity":"waste_basket"}},"type":"Feature"},
	{"geometry":{"coordinates":[5.487238,51.473595],"type":"Point"},"properties":{"osm_id":"7608304358","tag":{"amenity":"waste_basket"}},"type":"Feature"},
	{"geometry":{"coordinates":[5.486149,51.469789],"type":"Point"},"properties":{"osm_id":"7608304371","tag":{"amenity":"waste_basket"}},"type":"Feature"},
	{"geometry":{"coordinates":[5.490885,51.474361],"type":"Point"},"properties":{"osm_id":"7608408516","tag":{"amenity":"waste_basket"}},"type":"Feature"},
	{"geometry":{"coordinates":[5.489986,51.474508],"type":"Point"},"properties":{"osm_id":"7608408518","tag":{"amenity":"waste_basket"}},"type":"Feature"},
	{"geometry":{"coordinates":[5.490198,51.474235],"type":"Point"},"properties":{"osm_id":"7608408526","tag":{"amenity":"waste_basket"}},"type":"Feature"},
	{"geometry":{"coordinates":[5.53214,51.470967],"type":"Point"},"properties":{"osm_id":"7624119936","tag":{"amenity":"waste_basket"}},"type":"Feature"},
	{"geometry":{"coordinates":[5.450002,51.482754],"type":"Point"},"properties":{"osm_id":"7902314264","tag":{"amenity":"recycling","recycling:clothes":"yes","recycling:glass_bottles":"yes","recycling:plastic_packaging":"yes","recycling_type":"container"}},"type":"Feature"}
]
}
