{
"type": "FeatureCollection",
"features": [
	{"geometry":{"coordinates":[5.492085,51.419897],"type":"Point"},"properties":{"osm_id":"29177053","tag":{"amenity":"recycling","operator":"Gemeente Eindhoven","recycling:cans":"yes","recycling:glass":"yes","recycling_type":"container"}},"type":"Feature"},
	{"geometry":{"coordinates":[5.48298,51.441574],"type":"Point"},"properties":{"osm_id":"57235954","tag":{"amenity":"recycling","recycling:glass_bottles":"yes","recycling_type":"container"}},"type":"Feature"},
	{"geometry":{"coordinates":[5.471741,51.438386],"type":"Point"},"properties":{"osm_id":"239964410","tag":{"amenity":"recycling","location":"underground","recycling:glass_bottles":"yes","recycling_type":"container"}},"type":"Feature"},
	{"geometry":{"coordinates":[5.521446,51.444138],"type":"Point"},"properties":{"osm_id":"243997388","tag":{"amenity":"recycling","recycling:cans":"no","recycling:clothes":"no","recycling:glass":"yes","recycling:paper":"no","recycling:plastic":"yes","recycling_type":"container"}},"type":"Feature"},
	{"geometry":{"coordinates":[5.494033,51.432499],"type":"Point"},"properties":{"osm_id":"256424597","tag":{"amenity":"recycling","recycling:glass":"yes","recycling_type":"container"}},"type":"Feature"},
	{"geometry":{"coordinates":[5.479737,51.436603],"type":"Point"},"properties":{"osm_id":"276780608","tag":{"amenity":"recycling","recycling:glass":"no","recycling:glass_bottles":"yes","recycling:plastic":"yes","recycling_type":"container"}},"type":"Feature"},
	{"geometry":{"coordinates":[5.487935,51.437391],"type":"Point"},"properties":{"osm_id":"611581275","tag":{"amenity":"waste_basket"}},"type":"Feature"},
	{"geometry":{"coordinates":[5.488506,51.437299],"type":"Point"},"properties":{"osm_id":"611581288","tag":{"amenity":"waste_basket"}},"type":"Feature"},
	{"geometry":{"coordinates":[5.489052,51.437205],"type":"Point"},"properties":{"osm_id":"611581292","tag":{"amenity":"waste_basket"}},"type":"Feature"},
	{"geometry":{"coordinates":[5.489638,51.4371],"type":"Point"},"properties":{"osm_id":"611581301","tag":{"amenity":"waste_basket"}},"type":"Feature"},
	{"geometry":{"coordinates":[5.472003,51.431122],"type":"Point"},"properties":{"osm_id":"634245965","tag":{"amenity":"recycling","recycling:glass_bottles":"yes","recycling_type":"container"}},"type":"Feature"},
	{"geometry":{"coordinates":[5.470007,51.432268],"type":"Point"},"properties":{"osm_id":"634249184","tag":{"amenity":"recycling","recycling:glass_bottles":"yes","recycling:plastic":"yes","recycling_type":"container"}},"type":"Feature"},
	{"geometry":{"coordinates":[5.481084,51.44878],"type":"Point"},"properties":{"osm_id":"869126002","tag":{"amenity":"waste_basket"}},"type":"Feature"},
	{"geometry":{"coordinates":[5.481222,51.449802],"type":"Point"},"properties":{"osm_id":"869126203","tag":{"amenity":"waste_basket"}},"type":"Feature"},
	{"geometry":{"coordinates":[5.479606,51.449331],"type":"Point"},"properties":{"osm_id":"869126363","tag":{"amenity":"waste_basket"}},"type":"Feature"},
	{"geometry":{"coordinates":[5.480058,51.446522],"type":"Point"},"properties":{"osm_id":"875942120","tag":{"amenity":"waste_basket"}},"type":"Feature"},
	{"geometry":{"coordinates":[5.474295,51.447387],"type":"Point"},"properties":{"osm_id":"877262208","tag":{"amenity":"waste_basket"}},"type":"Feature"},
	{"geometry":{"coordinates":[5.47341,51.445095],"type":"Point"},"properties":{"osm_id":"877262227","tag":{"amenity":"waste_basket"}},"type":"Feature"},
	{"geometry":{"coordinates":[5.480186,51.433381],"type":"Point"},"properties":{"osm_id":"995800152","tag":{"amenity":"waste_basket","waste":"trash"}},"type":"Feature"},
	{"geometry":{"coordinates":[5.488531,51.426854],"type":"Point"},"properties":{"osm_id":"1610202913","tag":{"amenity":"recycling","recycling:cans":"no","recycling:clothes":"no","recycling:glass":"yes","recycling:paper":"no","recycling_type":"container"}},"type":"Feature"},
	{"geometry":{"coordinates":[5.465511,51.450081],"type":"Point"},"properties":{"osm_id":"1909884799","tag":{"amenity":"recycling","recycling:clothes":"yes","recycling_type":"container"}},"type":"Feature"},
	{"geometry":{"coordinates":[5.465127,51.44996],"type":"Point"},"properties":{"osm_id":"1909884851","tag":{"amenity":"recycling","recycling:glass_bottles":"yes","recycling:plastic":"yes","recycling_type":"container"}},"type":"Feature"},
	{"geometry":{"coordinates":[5.465076,51.428111],"type":"Point"},"properties":{"osm_id":"2251346805","tag":{"amenity":"recycling","description":"Glas + plastic bak","recycling:glass_bottles":"yes","recycling:plastic":"yes","recycling:plastic_bottles":"yes","recycling_type":"container"}},"type":"Feature"},
	{"geometry":{"coordinates":[5.462495,51.423428],"type":"Point"},"properties":{"osm_id":"2251347685","tag":{"amenity":"recycling","description":"Oud papier bak","recycling:cardboard":"yes","recycling:cartons":"yes","recycling:magazines":"yes","recycling:newspaper":"yes","recycling:paper":"yes","recycling:paper_packaging":"yes","recycling_type":"container"}},"type":"Feature"},
	{"geometry":{"coordinates":[5.47534,51.447506],"type":"Point"},"properties":{"osm_id":"3611188579","tag":{"amenity":"recycling","recycling:cans":"no","recycling:clothes":"no","recycling:glass_bottles":"yes","recycling:paper":"no","recycling:plastic":"yes","recycling:waste":"yes","recycling_type":"container"}},"type":"Feature"},
	{"geometry":{"coordinates":[5.471929,51.451716],"type":"Point"},"properties":{"osm_id":"3611188580","tag":{"amenity":"recycling","recycling:cans":"no","recycling:clothes":"no","recycling:glass_bottles":"yes","recycling:paper":"no","recycling:plastic":"yes","recycling_type":"container"}},"type":"Feature"},
	{"geometry":{"coordinates":[5.48621,51.429551],"type":"Point"},"properties":{"osm_id":"3902271410","tag":{"amenity":"waste_basket"}},"type":"Feature"},
	{"geometry":{"coordinates":[5.459325,51.431418],"type":"Point"},"properties":{"osm_id":"4102978439","tag":{"amenity":"recycling","recycling:cans":"no","recycling:clothes":"no","recycling:glass":"yes","recycling:glass_bottles":"yes","recycling:paper":"yes","recycling:plastic":"no","recycling_type":"underfloor-container"}},"type":"Feature"},
	{"geometry":{"coordinates":[5.474318,51.444142],"type":"Point"},"properties":{"osm_id":"5070047866","tag":{"amenity":"waste_basket"}},"type":"Feature"},
	{"geometry":{"coordinates":[5.454928,51.45318],"type":"Point"},"properties":{"osm_id":"5131763066","tag":{"amenity":"waste_basket"}},"type":"Feature"},
	{"geometry":{"coordinates":[5.455075,51.452964],"type":"Point"},"properties":{"osm_id":"5131793973","tag":{"amenity":"waste_basket"}},"type":"Feature"},
	{"geometry":{"coordinates":[5.455923,51.451925],"type":"Point"},"properties":{"osm_id":"5131793982","tag":{"amenity":"waste_basket"}},"type":"Feature"},
	{"geometry":{"coordinates":[5.455731,51.452057],"type":"Point"},"properties":{"osm_id":"5131793983","tag":{"amenity":"waste_basket"}},"type":"Feature"},
	{"geometry":{"coordinates":[5.45698,51.451575],"type":"Point"},"properties":{"osm_id":"5131801053","tag":{"amenity":"waste_basket"}},"type":"Feature"},
	{"geometry":{"coordinates":[5.456799,51.451327],"type":"Point"},"properties":{"osm_id":"5131801055","tag":{"amenity":"waste_basket"}},"type":"Feature"},
	{"geometry":{"coordinates":[5.457148,51.451122],"type":"Point"},"properties":{"osm_id":"5131801056","tag":{"amenity":"waste_basket"}},"type":"Feature"},
	{"geometry":{"coordinates":[5.455965,51.45217],"type":"Point"},"properties":{"osm_id":"5131817545","tag":{"amenity":"waste_basket"}},"type":"Feature"},
	{"geometry":{"coordinates":[5.456792,51.445914],"type":"Point"},"properties":{"osm_id":"5207246919","tag":{"amenity":"recycling","recycling_type":"container"}},"type":"Feature"},
	{"geometry":{"coordinates":[5.450791,51.435091],"type":"Point"},"properties":{"osm_id":"5297104415","tag":{"amenity":"recycling","recycling:glass":"no","recycling:glass_bottles":"yes","recycling:plastic":"yes","recycling_type":"container"}},"type":"Feature"},
	{"geometry":{"coordinates":[5.482601,51.446024],"type":"Point"},"properties":{"osm_id":"5594989922","tag":{"amenity":"waste_basket"}},"type":"Feature"},
	{"geometry":{"coordinates":[5.482284,51.446725],"type":"Point"},"properties":{"osm_id":"5595001230","tag":{"amenity":"waste_basket"}},"type":"Feature"},
	{"geometry":{"coordinates":[5.482224,51.447339],"type":"Point"},"properties":{"osm_id":"5595001231","tag":{"amenity":"waste_basket"}},"type":"Feature"},
	{"geometry":{"coordinates":[5.483583,51.448951],"type":"Point"},"properties":{"osm_id":"5595001235","tag":{"amenity":"waste_basket"}},"type":"Feature"},
	{"geometry":{"coordinates":[5.487736,51.450378],"type":"Point"},"properties":{"osm_id":"5595039980","tag":{"amenity":"waste_basket"}},"type":"Feature"},
	{"geometry":{"coordinates":[5.487491,51.449852],"type":"Point"},"properties":{"osm_id":"5595040013","tag":{"amenity":"waste_basket"}},"type":"Feature"},
	{"geometry":{"coordinates":[5.488501,51.450254],"type":"Point"},"properties":{"osm_id":"5595040014","tag":{"amenity":"waste_basket"}},"type":"Feature"},
	{"geometry":{"coordinates":[5.489099,51.450728],"type":"Point"},"properties":{"osm_id":"5595040020","tag":{"amenity":"waste_basket"}},"type":"Feature"},
	{"geometry":{"coordinates":[5.49524,51.450335],"type":"Point"},"properties":{"osm_id":"5595052768","tag":{"amenity":"waste_basket"}},"type":"Feature"},
	{"geometry":{"coordinates":[5.493784,51.450102],"type":"Point"},"properties":{"osm_id":"5595074239","tag":{"amenity":"waste_basket"}},"type":"Feature"},
	{"geometry":{"coordinates":[5.491898,51.450112],"type":"Point"},"properties":{"osm_id":"5595074240","tag":{"amenity":"waste_basket"}},"type":"Feature"},
	{"geometry":{"coordinates":[5.489344,51.449614],"type":"Point"},"properties":{"osm_id":"5600005605","tag":{"amenity":"waste_disposal"}},"type":"Feature"},
	{"geometry":{"coordinates":[5.489314,51.449614],"type":"Point"},"properties":{"osm_id":"5600005606","tag":{"amenity":"waste_disposal"}},"type":"Feature"},
	{"geometry":{"coordinates":[5.489282,51.449613],"type":"Point"},"properties":{"osm_id":"5600005607","tag":{"amenity":"waste_disposal"}},"type":"Feature"},
	{"geometry":{"coordinates":[5.489253,51.449614],"type":"Point"},"properties":{"osm_id":"5600005608","tag":{"amenity":"waste_disposal"}},"type":"Feature"},
	{"geometry":{"coordinates":[5.489227,51.449614],"type":"Point"},"properties":{"osm_id":"5600005609","tag":{"amenity":"waste_disposal"}},"type":"Feature"},
	{"geometry":{"coordinates":[5.464412,51.446478],"type":"Point"},"properties":{"osm_id":"5714555881","tag":{"amenity":"waste_basket"}},"type":"Feature"},
	{"geometry":{"coordinates":[5.464196,51.446673],"type":"Point"},"properties":{"osm_id":"5714555883","tag":{"amenity":"waste_basket"}},"type":"Feature"},
	{"geometry":{"coordinates":[5.463981,51.446868],"type":"Point"},"properties":{"osm_id":"5714555885","tag":{"amenity":"waste_basket"}},"type":"Feature"},
	{"geometry":{"coordinates":[5.463677,51.447137],"type":"Point"},"properties":{"osm_id":"5714555887","tag":{"amenity":"waste_basket"}},"type":"Feature"},
	{"geometry":{"coordinates":[5.463474,51.447328],"type":"Point"},"properties":{"osm_id":"5714555890","tag":{"amenity":"waste_basket"}},"type":"Feature"},
	{"geometry":{"coordinates":[5.463215,51.447556],"type":"Point"},"properties":{"osm_id":"5714561906","tag":{"amenity":"waste_basket"}},"type":"Feature"},
	{"geometry":{"coordinates":[5.462965,51.447786],"type":"Point"},"properties":{"osm_id":"5714561908","tag":{"amenity":"waste_basket"}},"type":"Feature"},
	{"geometry":{"coordinates":[5.462169,51.448462],"type":"Point"},"properties":{"osm_id":"5714570668","tag":{"amenity":"waste_basket"}},"type":"Feature"},
	{"geometry":{"coordinates":[5.461571,51.44879],"type":"Point"},"properties":{"osm_id":"5714570670","tag":{"amenity":"waste_basket"}},"type":"Feature"},
	{"geometry":{"coordinates":[5.460537,51.449286],"type":"Point"},"properties":{"osm_id":"5714570672","tag":{"amenity":"waste_basket"}},"type":"Feature"},
	{"geometry":{"coordinates":[5.460278,51.449406],"type":"Point"},"properties":{"osm_id":"5714570674","tag":{"amenity":"waste_basket"}},"type":"Feature"},
	{"geometry":{"coordinates":[5.519242,51.442721],"type":"Point"},"properties":{"osm_id":"5724770698","tag":{"amenity":"waste_basket"}},"type":"Feature"},
	{"geometry":{"coordinates":[5.520519,51.437466],"type":"Point"},"properties":{"osm_id":"5849653494","tag":{"amenity":"recycling","recycling:glass":"yes","recycling:plastic":"yes","recycling_type":"container"}},"type":"Feature"},
	{"geometry":{"coordinates":[5.520655,51.437144],"type":"Point"},"properties":{"osm_id":"5849653499","tag":{"amenity":"waste_basket"}},"type":"Feature"},
	{"geometry":{"coordinates":[5.521067,51.437542],"type":"Point"},"properties":{"osm_id":"5849682740","tag":{"amenity":"waste_basket"}},"type":"Feature"},
	{"geometry":{"coordinates":[5.521218,51.43751],"type":"Point"},"properties":{"osm_id":"5849682741","tag":{"amenity":"waste_basket"}},"type":"Feature"},
	{"geometry":{"coordinates":[5.521388,51.437371],"type":"Point"},"properties":{"osm_id":"5849682748","tag":{"amenity":"waste_basket"}},"type":"Feature"},
	{"geometry":{"coordinates":[5.52139,51.437276],"type":"Point"},"properties":{"osm_id":"5849682749","tag":{"amenity":"waste_basket","backrest":"no"}},"type":"Feature"},
	{"geometry":{"coordinates":[5.520675,51.437303],"type":"Point"},"properties":{"osm_id":"5849682760","tag":{"amenity":"waste_basket"}},"type":"Feature"},
	{"geometry":{"coordinates":[5.472334,51.451055],"type":"Point"},"properties":{"osm_id":"5851539798","tag":{"amenity":"recycling","recycling:glass_bottles":"yes","recycling_type":"container"}},"type":"Feature"},
	{"geometry":{"coordinates":[5.472381,51.450987],"type":"Point"},"properties":{"osm_id":"5851539799","tag":{"amenity":"waste_basket"}},"type":"Feature"},
	{"geometry":{"coordinates":[5.472192,51.450803],"type":"Point"},"properties":{"osm_id":"5851539826","tag":{"amenity":"waste_basket"}},"type":"Feature"},
	{"geometry":{"coordinates":[5.471247,51.451798],"type":"Point"},"properties":{"osm_id":"5851539840","tag":{"amenity":"waste_basket"}},"type":"Feature"},
	{"geometry":{"coordinates":[5.513576,51.439058],"type":"Point"},"properties":{"osm_id":"5863925982","tag":{"amenity":"waste_basket"}},"type":"Feature"},
	{"geometry":{"coordinates":[5.461939,51.423019],"type":"Point"},"properties":{"osm_id":"5864149156","tag":{"amenity":"waste_basket"}},"type":"Feature"},
	{"geometry":{"coordinates":[5.470806,51.433409],"type":"Point"},"properties":{"osm_id":"5864244964","tag":{"amenity":"waste_basket"}},"type":"Feature"},
	{"geometry":{"coordinates":[5.471406,51.433593],"type":"Point"},"properties":{"osm_id":"5864244972","tag":{"amenity":"waste_basket"}},"type":"Feature"},
	{"geometry":{"coordinates":[5.497621,51.428532],"type":"Point"},"properties":{"osm_id":"5864330019","tag":{"amenity":"waste_basket"}},"type":"Feature"},
	{"geometry":{"coordinates":[5.497512,51.428433],"type":"Point"},"properties":{"osm_id":"5864330020","tag":{"amenity":"waste_basket"}},"type":"Feature"},
	{"geometry":{"coordinates":[5.493938,51.429449],"type":"Point"},"properties":{"osm_id":"5911080069","tag":{"amenity":"waste_basket"}},"type":"Feature"},
	{"geometry":{"coordinates":[5.472688,51.445764],"type":"Point"},"properties":{"osm_id":"5997672440","tag":{"amenity":"recycling","recycling:glass_bottles":"yes","recycling_type":"container"}},"type":"Feature"},
	{"geometry":{"coordinates":[5.483542,51.439148],"type":"Point"},"properties":{"osm_id":"6010447587","tag":{"amenity":"waste_disposal","operator":"Cure"}},"type":"Feature"},
	{"geometry":{"coordinates":[5.4539,51.430282],"type":"Point"},"properties":{"osm_id":"6298770364","tag":{"amenity":"waste_basket"}},"type":"Feature"},
	{"geometry":{"coordinates":[5.455123,51.431773],"type":"Point"},"properties":{"osm_id":"6298773198","tag":{"amenity":"waste_basket"}},"type":"Feature"},
	{"geometry":{"coordinates":[5.511023,51.415391],"type":"Point"},"properties":{"osm_id":"6339400312","tag":{"amenity":"waste_basket"}},"type":"Feature"},
	{"geometry":{"coordinates":[5.510066,51.416086],"type":"Point"},"properties":{"osm_id":"6339402846","tag":{"amenity":"waste_basket"}},"type":"Feature"},
	{"geometry":{"coordinates":[5.508794,51.416959],"type":"Point"},"properties":{"osm_id":"6339406149","tag":{"amenity":"waste_basket"}},"type":"Feature"},
	{"geometry":{"coordinates":[5.496614,51.416462],"type":"Point"},"properties":{"osm_id":"6339439410","tag":{"amenity":"waste_basket"}},"type":"Feature"},
	{"geometry":{"coordinates":[5.49134,51.416128],"type":"Point"},"properties":{"osm_id":"6339447146","tag":{"amenity":"waste_basket"}},"type":"Feature"},
	{"geometry":{"coordinates":[5.455297,51.432762],"type":"Point"},"properties":{"osm_id":"6357832619","tag":{"amenity":"waste_basket"}},"type":"Feature"},
	{"geometry":{"coordinates":[5.4749,51.419751],"type":"Point"},"properties":{"osm_id":"6385266173","tag":{"amenity":"waste_basket"}},"type":"Feature"},
	{"geometry":{"coordinates":[5.47236,51.418515],"type":"Point"},"properties":{"osm_id":"6385266175","tag":{"amenity":"waste_basket"}},"type":"Feature"},
	{"geometry":{"coordinates":[5.471807,51.417731],"type":"Point"},"properties":{"osm_id":"6385266176","tag":{"amenity":"waste_basket"}},"type":"Feature"},
	{"geometry":{"coordinates":[5.527646,51.450554],"type":"Point"},"properties":{"osm_id":"6385929250","tag":{"amenity":"waste_basket"}},"type":"Feature"},
	{"geometry":{"coordinates":[5.499808,51.43955],"type":"Point"},"properties":{"osm_id":"6434124156","tag":{"amenity":"waste_basket","waste":"trash"}},"type":"Feature"},
	{"geometry":{"coordinates":[5.497912,51.43862],"type":"Point"},"properties":{"osm_id":"6434124170","tag":{"amenity":"waste_basket","waste":"trash"}},"type":"Feature"},
	{"geometry":{"coordinates":[5.490592,51.424702],"type":"Point"},"properties":{"osm_id":"6434124172","tag":{"amenity":"waste_basket","waste":"trash"}},"type":"Feature"},
	{"geometry":{"coordinates":[5.501731,51.440637],"type":"Point"},"properties":{"osm_id":"6434124175","tag":{"amenity":"waste_basket","waste":"trash"}},"type":"Feature"},
	{"geometry":{"coordinates":[5.500511,51.440039],"type":"Point"},"properties":{"osm_id":"6434124183","tag":{"amenity":"waste_basket","waste":"trash"}},"type":"Feature"},
	{"geometry":{"coordinates":[5.497708,51.438473],"type":"Point"},"properties":{"osm_id":"6434124285","tag":{"amenity":"waste_basket","waste":"trash"}},"type":"Feature"},
	{"geometry":{"coordinates":[5.498985,51.439084],"type":"Point"},"properties":{"osm_id":"6434124289","tag":{"amenity":"waste_basket","waste":"trash"}},"type":"Feature"},
	{"geometry":{"coordinates":[5.490324,51.424765],"type":"Point"},"properties":{"osm_id":"6434124293","tag":{"amenity":"waste_basket","waste":"dog_excrement"}},"type":"Feature"},
	{"geometry":{"coordinates":[5.501213,51.440415],"type":"Point"},"properties":{"osm_id":"6434124309","tag":{"amenity":"waste_basket","waste":"trash"}},"type":"Feature"},
	{"geometry":{"coordinates":[5.534338,51.443881],"type":"Point"},"properties":{"osm_id":"6482836497","tag":{"amenity":"waste_basket"}},"type":"Feature"},
	{"geometry":{"coordinates":[5.533654,51.442215],"type":"Point"},"properties":{"osm_id":"6482837433","tag":{"amenity":"waste_basket"}},"type":"Feature"},
	{"geometry":{"coordinates":[5.507879,51.437018],"type":"Point"},"properties":{"osm_id":"6515027805","tag":{"amenity":"waste_basket","waste":"trash"}},"type":"Feature"},
	{"geometry":{"coordinates":[5.507318,51.436926],"type":"Point"},"properties":{"osm_id":"6515027814","tag":{"amenity":"waste_basket","waste":"trash"}},"type":"Feature"},
	{"geometry":{"coordinates":[5.508813,51.436217],"type":"Point"},"properties":{"osm_id":"6515027817","tag":{"amenity":"waste_basket"}},"type":"Feature"},
	{"geometry":{"coordinates":[5.513885,51.444652],"type":"Point"},"properties":{"osm_id":"6515027818","tag":{"amenity":"waste_basket","waste":"trash"}},"type":"Feature"},
	{"geometry":{"coordinates":[5.507107,51.436281],"type":"Point"},"properties":{"osm_id":"6515027820","tag":{"amenity":"waste_basket","waste":"trash"}},"type":"Feature"},
	{"geometry":{"coordinates":[5.51354,51.444377],"type":"Point"},"properties":{"osm_id":"6515027823","tag":{"amenity":"waste_basket","waste":"trash"}},"type":"Feature"},
	{"geometry":{"coordinates":[5.512718,51.439631],"type":"Point"},"properties":{"osm_id":"6515027824","tag":{"amenity":"waste_basket","waste":"trash"}},"type":"Feature"},
	{"geometry":{"coordinates":[5.508106,51.436472],"type":"Point"},"properties":{"osm_id":"6515027825","tag":{"amenity":"waste_basket","waste":"trash"}},"type":"Feature"},
	{"geometry":{"coordinates":[5.513019,51.441734],"type":"Point"},"properties":{"osm_id":"6515027827","tag":{"amenity":"waste_basket","waste":"trash"}},"type":"Feature"},
	{"geometry":{"coordinates":[5.513144,51.442261],"type":"Point"},"properties":{"osm_id":"6515027829","tag":{"amenity":"waste_basket","waste":"trash"}},"type":"Feature"},
	{"geometry":{"coordinates":[5.511133,51.435868],"type":"Point"},"properties":{"osm_id":"6515027832","tag":{"amenity":"waste_basket"}},"type":"Feature"},
	{"geometry":{"coordinates":[5.509386,51.437418],"type":"Point"},"properties":{"osm_id":"6515027837","tag":{"amenity":"waste_basket","waste":"trash"}},"type":"Feature"},
	{"geometry":{"coordinates":[5.510012,51.43597],"type":"Point"},"properties":{"osm_id":"6515027842","tag":{"amenity":"waste_basket","waste":"dog_excrement"}},"type":"Feature"},
	{"geometry":{"coordinates":[5.511988,51.435872],"type":"Point"},"properties":{"osm_id":"6515121508","tag":{"amenity":"waste_basket"}},"type":"Feature"},
	{"geometry":{"coordinates":[5.512225,51.436053],"type":"Point"},"properties":{"osm_id":"6515121518","tag":{"amenity":"waste_basket"}},"type":"Feature"},
	{"geometry":{"coordinates":[5.509752,51.437573],"type":"Point"},"properties":{"osm_id":"6515121542","tag":{"amenity":"waste_basket"}},"type":"Feature"},
	{"geometry":{"coordinates":[5.449277,51.426511],"type":"Point"},"properties":{"osm_id":"6553205504","tag":{"amenity":"waste_basket"}},"type":"Feature"},
	{"geometry":{"coordinates":[5.469468,51.452889],"type":"Point"},"properties":{"osm_id":"6643304432","tag":{"amenity":"waste_basket","waste":"trash"}},"type":"Feature"},
	{"geometry":{"coordinates":[5.471604,51.452498],"type":"Point"},"properties":{"osm_id":"6643304433","tag":{"amenity":"waste_basket","waste":"trash"}},"type":"Feature"},
	{"geometry":{"coordinates":[5.47148,51.451069],"type":"Point"},"properties":{"osm_id":"6643304435","tag":{"amenity":"waste_basket","waste":"trash"}},"type":"Feature"},
	{"geometry":{"coordinates":[5.47135,51.452419],"type":"Point"},"properties":{"osm_id":"6643304436","tag":{"amenity":"waste_basket","waste":"trash"}},"type":"Feature"},
	{"geometry":{"coordinates":[5.469527,51.453917],"type":"Point"},"properties":{"osm_id":"6643304439","tag":{"amenity":"waste_basket","waste":"trash"}},"type":"Feature"},
	{"geometry":{"coordinates":[5.46962,51.452591],"type":"Point"},"properties":{"osm_id":"6643304440","tag":{"amenity":"waste_basket","waste":"trash"}},"type":"Feature"},
	{"geometry":{"coordinates":[5.468669,51.453771],"type":"Point"},"properties":{"osm_id":"6643304442","tag":{"amenity":"waste_basket","waste":"trash"}},"type":"Feature"},
	{"geometry":{"coordinates":[5.469905,51.451195],"type":"Point"},"properties":{"osm_id":"6643304443","tag":{"amenity":"waste_basket","waste":"trash"}},"type":"Feature"},
	{"geometry":{"coordinates":[5.468879,51.452498],"type":"Point"},"properties":{"osm_id":"6643304444","tag":{"amenity":"waste_basket","waste":"trash"}},"type":"Feature"},
	{"geometry":{"coordinates":[5.471439,51.452958],"type":"Point"},"properties":{"osm_id":"6643304447","tag":{"amenity":"waste_basket","waste":"trash"}},"type":"Feature"},
	{"geometry":{"coordinates":[5.470728,51.453749],"type":"Point"},"properties":{"osm_id":"6643304450","tag":{"amenity":"waste_basket","waste":"trash"}},"type":"Feature"},
	{"geometry":{"coordinates":[5.468853,51.450915],"type":"Point"},"properties":{"osm_id":"6793503365","tag":{"amenity":"waste_basket"}},"type":"Feature"},
	{"geometry":{"coordinates":[5.47584,51.42658],"type":"Point"},"properties":{"osm_id":"6797100198","tag":{"amenity":"waste_basket","waste":"trash"}},"type":"Feature"},
	{"geometry":{"coordinates":[5.489089,51.429045],"type":"Point"},"properties":{"osm_id":"6797100202","tag":{"amenity":"waste_basket","waste":"trash"}},"type":"Feature"},
	{"geometry":{"coordinates":[5.478496,51.429607],"type":"Point"},"properties":{"osm_id":"6797100213","tag":{"amenity":"waste_basket","waste":"trash"}},"type":"Feature"},
	{"geometry":{"coordinates":[5.479057,51.430382],"type":"Point"},"properties":{"osm_id":"6797100215","tag":{"amenity":"waste_basket","waste":"trash"}},"type":"Feature"},
	{"geometry":{"coordinates":[5.479208,51.431906],"type":"Point"},"properties":{"osm_id":"6797100223","tag":{"amenity":"waste_basket","waste":"trash"}},"type":"Feature"},
	{"geometry":{"coordinates":[5.477665,51.424843],"type":"Point"},"properties":{"osm_id":"6797100237","tag":{"amenity":"waste_basket","waste":"trash"}},"type":"Feature"},
	{"geometry":{"coordinates":[5.47858,51.42892],"type":"Point"},"properties":{"osm_id":"6797100252","tag":{"amenity":"waste_basket"}},"type":"Feature"},
	{"geometry":{"coordinates":[5.479207,51.431325],"type":"Point"},"properties":{"osm_id":"6797100258","tag":{"amenity":"waste_basket","waste":"trash"}},"type":"Feature"},
	{"geometry":{"coordinates":[5.478822,51.424988],"type":"Point"},"properties":{"osm_id":"6797100261","tag":{"amenity":"waste_basket","waste":"trash"}},"type":"Feature"},
	{"geometry":{"coordinates":[5.477864,51.430816],"type":"Point"},"properties":{"osm_id":"6797103989","tag":{"amenity":"waste_basket","waste":"trash"}},"type":"Feature"},
	{"geometry":{"coordinates":[5.479635,51.433171],"type":"Point"},"properties":{"osm_id":"6797103992","tag":{"amenity":"waste_basket","waste":"trash"}},"type":"Feature"},
	{"geometry":{"coordinates":[5.493316,51.429167],"type":"Point"},"properties":{"osm_id":"6797104002","tag":{"amenity":"waste_basket","waste":"trash"}},"type":"Feature"},
	{"geometry":{"coordinates":[5.478837,51.429209],"type":"Point"},"properties":{"osm_id":"6797104011","tag":{"amenity":"waste_basket","waste":"trash"}},"type":"Feature"},
	{"geometry":{"coordinates":[5.479491,51.43166],"type":"Point"},"properties":{"osm_id":"6797104016","tag":{"amenity":"waste_basket","waste":"trash"}},"type":"Feature"},
	{"geometry":{"coordinates":[5.477269,51.427176],"type":"Point"},"properties":{"osm_id":"6797104027","tag":{"amenity":"waste_basket","waste":"trash"}},"type":"Feature"},
	{"geometry":{"coordinates":[5.477887,51.425901],"type":"Point"},"properties":{"osm_id":"6797104052","tag":{"amenity":"waste_basket","waste":"trash"}},"type":"Feature"},
	{"geometry":{"coordinates":[5.478753,51.431119],"type":"Point"},"properties":{"osm_id":"6797104054","tag":{"amenity":"waste_basket","waste":"trash"}},"type":"Feature"},
	{"geometry":{"coordinates":[5.47415,51.447346],"type":"Point"},"properties":{"osm_id":"6898288140","tag":{"amenity":"recycling","operator":"Humanitas","recycling:clothes":"yes","recycling_type":"container"}},"type":"Feature"},
	{"geometry":{"coordinates":[5.534939,51.412204],"type":"Point"},"properties":{"osm_id":"7055503427","tag":{"amenity":"waste_basket"}},"type":"Feature"},
	{"geometry":{"coordinates":[5.51602,51.423035],"type":"Point"},"properties":{"osm_id":"7160129276","tag":{"amenity":"waste_basket"}},"type":"Feature"},
	{"geometry":{"coordinates":[5.503774,51.415706],"type":"Point"},"properties":{"osm_id":"7160170075","tag":{"amenity":"waste_basket"}},"type":"Feature"},
	{"geometry":{"coordinates":[5.51739,51.420229],"type":"Point"},"properties":{"osm_id":"7160176081","tag":{"amenity":"waste_basket"}},"type":"Feature"},
	{"geometry":{"coordinates":[5.495085,51.436307],"type":"Point"},"properties":{"osm_id":"7340668514","tag":{"amenity":"waste_basket","material":"metal","waste":"trash"}},"type":"Feature"},
	{"geometry":{"coordinates":[5.493825,51.436482],"type":"Point"},"properties":{"osm_id":"7340668515","tag":{"amenity":"waste_basket","material":"metal","waste":"trash"}},"type":"Feature"},
	{"geometry":{"coordinates":[5.501157,51.444072],"type":"Point"},"properties":{"osm_id":"7391943165","tag":{"amenity":"waste_basket","material":"metal"}},"type":"Feature"},
	{"geometry":{"coordinates":[5.501059,51.444049],"type":"Point"},"properties":{"osm_id":"7391943166","tag":{"amenity":"waste_basket","material":"metal"}},"type":"Feature"},
	{"geometry":{"coordinates":[5.480035,51.425162],"type":"Point"},"properties":{"osm_id":"7416616734","tag":{"amenity":"waste_basket","waste":"trash"}},"type":"Feature"},
	{"geometry":{"coordinates":[5.484896,51.429295],"type":"Point"},"properties":{"osm_id":"7416616735","tag":{"amenity":"waste_basket","waste":"trash"}},"type":"Feature"},
	{"geometry":{"coordinates":[5.484221,51.426856],"type":"Point"},"properties":{"osm_id":"7416616736","tag":{"amenity":"waste_basket","waste":"trash"}},"type":"Feature"},
	{"geometry":{"coordinates":[5.482231,51.428121],"type":"Point"},"properties":{"osm_id":"7418816315","tag":{"amenity":"waste_basket","waste":"trash"}},"type":"Feature"},
	{"geometry":{"coordinates":[5.482646,51.42828],"type":"Point"},"properties":{"osm_id":"7418816335","tag":{"amenity":"waste_basket","waste":"trash"}},"type":"Feature"},
	{"geometry":{"coordinates":[5.479659,51.424925],"type":"Point"},"properties":{"osm_id":"7419956588","tag":{"amenity":"waste_basket","waste":"trash"}},"type":"Feature"},
	{"geometry":{"coordinates":[5.48401,51.425406],"type":"Point"},"properties":{"osm_id":"7419956589","tag":{"amenity":"waste_basket","waste":"trash"}},"type":"Feature"},
	{"geometry":{"coordinates":[5.47886,51.420848],"type":"Point"},"properties":{"osm_id":"7419956608","tag":{"amenity":"waste_basket","waste":"trash"}},"type":"Feature"},
	{"geometry":{"coordinates":[5.480918,51.424673],"type":"Point"},"properties":{"osm_id":"7419956619","tag":{"amenity":"waste_basket","waste":"trash"}},"type":"Feature"},
	{"geometry":{"coordinates":[5.482498,51.424452],"type":"Point"},"properties":{"osm_id":"7419956622","tag":{"amenity":"recycling","recycling:bags":"yes","recycling_type":"container"}},"type":"Feature"},
	{"geometry":{"coordinates":[5.481902,51.424536],"type":"Point"},"properties":{"osm_id":"7419956623","tag":{"amenity":"waste_basket","waste":"trash"}},"type":"Feature"},
	{"geometry":{"coordinates":[5.480461,51.425787],"type":"Point"},"properties":{"osm_id":"7430517540","tag":{"amenity":"waste_basket","waste":"trash"}},"type":"Feature"},
	{"geometry":{"coordinates":[5.480844,51.42686],"type":"Point"},"properties":{"osm_id":"7430517545","tag":{"amenity":"waste_basket","waste":"trash"}},"type":"Feature"},
	{"geometry":{"coordinates":[5.479805,51.425818],"type":"Point"},"properties":{"osm_id":"7430517546","tag":{"amenity":"waste_basket","waste":"trash"}},"type":"Feature"},
	{"geometry":{"coordinates":[5.481653,51.427627],"type":"Point"},"properties":{"osm_id":"7430517548","tag":{"amenity":"waste_basket","waste":"trash"}},"type":"Feature"},
	{"geometry":{"coordinates":[5.483502,51.427575],"type":"Point"},"properties":{"osm_id":"7430517549","tag":{"amenity":"waste_basket","waste":"trash"}},"type":"Feature"},
	{"geometry":{"coordinates":[5.480613,51.425821],"type":"Point"},"properties":{"osm_id":"7430517550","tag":{"amenity":"waste_basket","waste":"trash"}},"type":"Feature"},
	{"geometry":{"coordinates":[5.512118,51.446972],"type":"Point"},"properties":{"osm_id":"7623736065","tag":{"amenity":"waste_basket","waste":"trash"}},"type":"Feature"},
	{"geometry":{"coordinates":[5.511084,51.447162],"type":"Point"},"properties":{"osm_id":"7623736066","tag":{"amenity":"waste_basket","waste":"trash"}},"type":"Feature"},
	{"geometry":{"coordinates":[5.512991,51.448926],"type":"Point"},"properties":{"osm_id":"7624119594","tag":{"amenity":"waste_basket"}},"type":"Feature"},
	{"geometry":{"coordinates":[5.521873,51.444517],"type":"Point"},"properties":{"osm_id":"7659358853","tag":{"amenity":"waste_basket"}},"type":"Feature"},
	{"geometry":{"coordinates":[5.522397,51.444405],"type":"Point"},"properties":{"osm_id":"7659358858","tag":{"amenity":"waste_basket"}},"type":"Feature"},
	{"geometry":{"coordinates":[5.522671,51.444146],"type":"Point"},"properties":{"osm_id":"7659358862","tag":{"amenity":"waste_basket"}},"type":"Feature"},
	{"geometry":{"coordinates":[5.522763,51.444607],"type":"Point"},"properties":{"osm_id":"7659358880","tag":{"amenity":"waste_basket"}},"type":"Feature"},
	{"geometry":{"coordinates":[5.522961,51.444428],"type":"Point"},"properties":{"osm_id":"7659358883","tag":{"amenity":"waste_basket"}},"type":"Feature"},
	{"geometry":{"coordinates":[5.523542,51.444336],"type":"Point"},"properties":{"osm_id":"7659403189","tag":{"amenity":"waste_basket"}},"type":"Feature"},
	{"geometry":{"coordinates":[5.524006,51.44456],"type":"Point"},"properties":{"osm_id":"7659403192","tag":{"amenity":"waste_basket"}},"type":"Feature"},
	{"geometry":{"coordinates":[5.523723,51.444489],"type":"Point"},"properties":{"osm_id":"7659403194","tag":{"amenity":"waste_basket"}},"type":"Feature"},
	{"geometry":{"coordinates":[5.523656,51.444478],"type":"Point"},"properties":{"osm_id":"7659403195","tag":{"amenity":"waste_basket"}},"type":"Feature"},
	{"geometry":{"coordinates":[5.524058,51.444613],"type":"Point"},"properties":{"osm_id":"7659403196","tag":{"amenity":"waste_basket"}},"type":"Feature"},
	{"geometry":{"coordinates":[5.523904,51.444717],"type":"Point"},"properties":{"osm_id":"7659403221","tag":{"amenity":"waste_basket"}},"type":"Feature"},
	{"geometry":{"coordinates":[5.524716,51.444786],"type":"Point"},"properties":{"osm_id":"7659403224","tag":{"amenity":"waste_basket"}},"type":"Feature"},
	{"geometry":{"coordinates":[5.525035,51.444973],"type":"Point"},"properties":{"osm_id":"7659403227","tag":{"amenity":"waste_basket"}},"type":"Feature"},
	{"geometry":{"coordinates":[5.523509,51.444858],"type":"Point"},"properties":{"osm_id":"7659403228","tag":{"amenity":"waste_basket"}},"type":"Feature"},
	{"geometry":{"coordinates":[5.523161,51.444912],"type":"Point"},"properties":{"osm_id":"7659403235","tag":{"amenity":"waste_basket"}},"type":"Feature"},
	{"geometry":{"coordinates":[5.521051,51.445178],"type":"Point"},"properties":{"osm_id":"7659403255","tag":{"amenity":"waste_basket"}},"type":"Feature"},
	{"geometry":{"coordinates":[5.532824,51.436433],"type":"Point"},"properties":{"osm_id":"7884277552","tag":{"amenity":"waste_basket"}},"type":"Feature"}
]
}
