{
"type": "FeatureCollection",
"features": [
	{"geometry":{"coordinates":[5.511199,50.873094],"type":"Point"},"properties":{"osm_id":"2027594761","tag":{"amenity":"waste_basket"}},"type":"Feature"},
	{"geometry":{"coordinates":[5.498897,50.894662],"type":"Point"},"properties":{"osm_id":"2190878410","tag":{"amenity":"waste_basket"}},"type":"Feature"},
	{"geometry":{"coordinates":[5.459293,50.858111],"type":"Point"},"properties":{"osm_id":"2515686162","tag":{"amenity":"recycling","recycling:glass_bottles":"yes","recycling_type":"container"}},"type":"Feature"},
	{"geometry":{"coordinates":[5.459345,50.858122],"type":"Point"},"properties":{"osm_id":"2515686163","tag":{"amenity":"recycling","recycling:clothes":"yes","recycling_type":"container"}},"type":"Feature"},
	{"geometry":{"coordinates":[5.463148,50.865495],"type":"Point"},"properties":{"osm_id":"2515756607","tag":{"amenity":"waste_basket"}},"type":"Feature"},
	{"geometry":{"coordinates":[5.485515,50.84803],"type":"Point"},"properties":{"osm_id":"2876925817","tag":{"amenity":"recycling","recycling:glass_bottles":"yes","recycling_type":"container"}},"type":"Feature"},
	{"geometry":{"coordinates":[5.475666,50.891635],"type":"Point"},"properties":{"name":"Afvalbak voor hondenpoep","osm_id":"6691064505","tag":{"amenity":"waste_basket","collection_times":"10:00","waste":"dog_excrement"}},"type":"Feature"},
	{"geometry":{"coordinates":[5.534736,50.852492],"type":"Point"},"properties":{"osm_id":"6795926304","tag":{"amenity":"waste_basket"}},"type":"Feature"},
	{"geometry":{"coordinates":[5.531382,50.902254],"type":"Point"},"properties":{"osm_id":"7091616488","tag":{"amenity":"waste_basket"}},"type":"Feature"},
	{"geometry":{"coordinates":[5.530811,50.900315],"type":"Point"},"properties":{"osm_id":"7091616489","tag":{"amenity":"waste_basket"}},"type":"Feature"},
	{"geometry":{"coordinates":[5.519802,50.869616],"type":"Point"},"properties":{"osm_id":"7154317966","tag":{"amenity":"recycling","recycling:glass":"yes","recycling_type":"container"}},"type":"Feature"},
	{"geometry":{"coordinates":[5.509843,50.869184],"type":"Point"},"properties":{"osm_id":"7383094659","tag":{"amenity":"waste_basket"}},"type":"Feature"},
	{"geometry":{"coordinates":[5.50991,50.869063],"type":"Point"},"properties":{"osm_id":"7383094660","tag":{"amenity":"waste_basket"}},"type":"Feature"},
	{"geometry":{"coordinates":[5.509837,50.868842],"type":"Point"},"properties":{"osm_id":"7383094661","tag":{"amenity":"waste_basket"}},"type":"Feature"},
	{"geometry":{"coordinates":[5.509832,50.868559],"type":"Point"},"properties":{"osm_id":"7383094662","tag":{"amenity":"waste_basket"}},"type":"Feature"},
	{"geometry":{"coordinates":[5.509577,50.869102],"type":"Point"},"properties":{"osm_id":"7383094663","tag":{"amenity":"waste_basket","bin":"yes"}},"type":"Feature"},
	{"geometry":{"coordinates":[5.509576,50.868778],"type":"Point"},"properties":{"osm_id":"7383094664","tag":{"amenity":"waste_basket"}},"type":"Feature"},
	{"geometry":{"coordinates":[5.509578,50.868597],"type":"Point"},"properties":{"osm_id":"7383094665","tag":{"amenity":"waste_basket"}},"type":"Feature"}
]
}
