{
"type": "FeatureCollection",
"lastupdate": "2020-08-04T00:00:00Z",
"features": [
	{"geometry":{"coordinates":[5.514695,50.286543],"type":"Point"},"properties":{"osm_id":"2819109244","tag":{"amenity":"recycling","recycling:cans":"no","recycling:clothes":"yes","recycling:glass":"no","recycling:paper":"no","recycling_type":"container"}},"type":"Feature"},
	{"geometry":{"coordinates":[5.51124,50.28599],"type":"Point"},"properties":{"osm_id":"2897361200","tag":{"amenity":"waste_basket"}},"type":"Feature"},
	{"geometry":{"coordinates":[5.511352,50.285716],"type":"Point"},"properties":{"osm_id":"2897447901","tag":{"amenity":"waste_basket"}},"type":"Feature"},
	{"geometry":{"coordinates":[5.514102,50.2817],"type":"Point"},"properties":{"osm_id":"2907668939","tag":{"amenity":"waste_basket"}},"type":"Feature"},
	{"geometry":{"coordinates":[5.509617,50.285148],"type":"Point"},"properties":{"osm_id":"2914691821","tag":{"amenity":"waste_basket"}},"type":"Feature"},
	{"geometry":{"coordinates":[5.509858,50.285227],"type":"Point"},"properties":{"osm_id":"2914691822","tag":{"amenity":"waste_basket"}},"type":"Feature"},
	{"geometry":{"coordinates":[5.458121,50.260084],"type":"Point"},"properties":{"osm_id":"3737535730","tag":{"amenity":"waste_basket"}},"type":"Feature"},
	{"geometry":{"coordinates":[5.460153,50.260507],"type":"Point"},"properties":{"osm_id":"3737537910","tag":{"amenity":"waste_basket"}},"type":"Feature"},
	{"geometry":{"coordinates":[5.476078,50.259065],"type":"Point"},"properties":{"osm_id":"5196709373","tag":{"amenity":"waste_basket"}},"type":"Feature"},
	{"geometry":{"coordinates":[5.454323,50.268865],"type":"Point"},"properties":{"osm_id":"6440268553","tag":{"amenity":"waste_basket"}},"type":"Feature"},
	{"geometry":{"coordinates":[5.450773,50.269248],"type":"Point"},"properties":{"osm_id":"6440277582","tag":{"amenity":"waste_basket"}},"type":"Feature"},
	{"geometry":{"coordinates":[5.459011,50.269426],"type":"Point"},"properties":{"osm_id":"6440277585","tag":{"amenity":"waste_basket"}},"type":"Feature"},
	{"geometry":{"coordinates":[5.465868,50.27021],"type":"Point"},"properties":{"osm_id":"6440277589","tag":{"amenity":"waste_basket"}},"type":"Feature"},
	{"geometry":{"coordinates":[5.481964,50.280604],"type":"Point"},"properties":{"osm_id":"6440277595","tag":{"amenity":"waste_basket"}},"type":"Feature"},
	{"geometry":{"coordinates":[5.511726,50.259628],"type":"Point"},"properties":{"osm_id":"6597291336","tag":{"amenity":"waste_basket"}},"type":"Feature"},
	{"geometry":{"coordinates":[5.514596,50.257035],"type":"Point"},"properties":{"osm_id":"6597294126","tag":{"amenity":"waste_basket"}},"type":"Feature"},
	{"geometry":{"coordinates":[5.488232,50.258998],"type":"Point"},"properties":{"osm_id":"6597294169","tag":{"amenity":"waste_basket"}},"type":"Feature"},
	{"geometry":{"coordinates":[5.488483,50.258911],"type":"Point"},"properties":{"osm_id":"6597294170","tag":{"amenity":"waste_basket"}},"type":"Feature"},
	{"geometry":{"coordinates":[5.474536,50.260662],"type":"Point"},"properties":{"osm_id":"6597294214","tag":{"amenity":"waste_basket"}},"type":"Feature"},
	{"geometry":{"coordinates":[5.484946,50.261422],"type":"Point"},"properties":{"osm_id":"6597294337","tag":{"amenity":"waste_basket"}},"type":"Feature"},
	{"geometry":{"coordinates":[5.51832,50.280448],"type":"Point"},"properties":{"osm_id":"6796579227","tag":{"amenity":"waste_basket"}},"type":"Feature"},
	{"geometry":{"coordinates":[5.523162,50.245373],"type":"Point"},"properties":{"osm_id":"7507553029","tag":{"amenity":"recycling","opening_hours":"24/7","operator":"IDELUX-Environnement","recycling:glass_bottles":"yes","recycling_type":"container"}},"type":"Feature"},
	{"geometry":{"coordinates":[5.508272,50.2357],"type":"Point"},"properties":{"osm_id":"7507553031","tag":{"amenity":"recycling","opening_hours":"24/7","operator":"IDELUX-Environnement","recycling:glass_bottles":"yes","recycling_type":"container"}},"type":"Feature"},
	{"geometry":{"coordinates":[5.511977,50.289197],"type":"Point"},"properties":{"osm_id":"7510315843","tag":{"amenity":"recycling","opening_hours":"24/7","operator":"IDELUX-Environnement","recycling:glass_bottles":"yes","recycling_type":"container"}},"type":"Feature"},
	{"geometry":{"coordinates":[5.466013,50.259709],"type":"Point"},"properties":{"osm_id":"7514057115","tag":{"amenity":"recycling","opening_hours":"24/7","operator":"IDELUX-Environnement","recycling:glass_bottles":"yes","recycling_type":"container"}},"type":"Feature"}
]
}
