{
"type": "FeatureCollection",
"features": [
	{"geometry":{"coordinates":[5.513842,49.682507],"type":"Point"},"properties":{"osm_id":"993727496","tag":{"amenity":"recycling","opening_hours":"24/7","operator":"IDELUX-Environnement","recycling:clothes":"yes","recycling:glass_bottles":"yes","recycling_type":"container"}},"type":"Feature"},
	{"geometry":{"coordinates":[5.522509,49.690925],"type":"Point"},"properties":{"osm_id":"3193883739","tag":{"amenity":"recycling","opening_hours":"24/7","operator":"IDELUX-Environnement","recycling:glass_bottles":"yes","recycling_type":"container"}},"type":"Feature"},
	{"geometry":{"coordinates":[5.519749,49.71572],"type":"Point"},"properties":{"osm_id":"3337211207","tag":{"amenity":"recycling","opening_hours":"24/7","operator":"IDELUX-Environnement","recycling:clothes":"yes","recycling:glass_bottles":"yes","recycling_type":"container"}},"type":"Feature"},
	{"geometry":{"coordinates":[5.534966,49.723948],"type":"Point"},"properties":{"osm_id":"4452850960","tag":{"amenity":"recycling","opening_hours":"24/7","operator":"IDELUX-Environnement","recycling:clothes":"yes","recycling:glass_bottles":"yes","recycling_type":"container"}},"type":"Feature"},
	{"geometry":{"coordinates":[5.486577,49.717687],"type":"Point"},"properties":{"osm_id":"5555160813","tag":{"amenity":"recycling","recycling:glass_bottles":"yes","recycling_type":"container"}},"type":"Feature"},
	{"geometry":{"coordinates":[5.489691,49.694158],"type":"Point"},"properties":{"osm_id":"6949433776","tag":{"amenity":"recycling","opening_hours":"24/7","operator":"IDELUX-Environnement","recycling:glass_bottles":"yes","recycling_type":"container"}},"type":"Feature"},
	{"geometry":{"coordinates":[5.475345,49.677096],"type":"Point"},"properties":{"osm_id":"7177528341","tag":{"amenity":"recycling","operator":"Terre ASBL","recycling:clothes":"yes","recycling_type":"container"}},"type":"Feature"},
	{"geometry":{"coordinates":[5.485337,49.717506],"type":"Point"},"properties":{"osm_id":"7177528342","tag":{"amenity":"recycling","opening_hours":"24/7","operator":"IDELUX-Environnement","recycling:glass_bottles":"yes","recycling_type":"container"}},"type":"Feature"},
	{"geometry":{"coordinates":[5.456463,49.704379],"type":"Point"},"properties":{"osm_id":"7183757524","tag":{"amenity":"recycling","opening_hours":"24/7","operator":"IDELUX-Environnement","recycling:glass_bottles":"yes","recycling_type":"container"}},"type":"Feature"},
	{"geometry":{"coordinates":[5.512175,49.674563],"type":"Point"},"properties":{"osm_id":"7859311345","tag":{"amenity":"waste_basket","drinking_water":"yes"}},"type":"Feature"},
	{"geometry":{"coordinates":[5.532867,49.709112],"type":"Point"},"properties":{"osm_id":"7920244330","tag":{"amenity":"waste_basket"}},"type":"Feature"},
	{"geometry":{"coordinates":[5.469899,49.707907],"type":"Point"},"properties":{"osm_id":"7920244336","tag":{"amenity":"waste_basket"}},"type":"Feature"}
]
}
