{
"type": "FeatureCollection",
"features": [
	{"geometry":{"coordinates":[5.502674,47.097576],"type":"Point"},"properties":{"osm_id":"4782885867","tag":{"amenity":"recycling","recycling:glass":"yes","recycling_type":"container"}},"type":"Feature"},
	{"geometry":{"coordinates":[5.506296,47.085257],"type":"Point"},"properties":{"name":"Benne \u00c3\u00a0 D\u00c3\u00a9chets Verts","osm_id":"4785740205","tag":{"amenity":"recycling","recycling:green_waste":"yes","recycling_type":"container"}},"type":"Feature"},
	{"geometry":{"coordinates":[5.506355,47.085371],"type":"Point"},"properties":{"name":"Papier","osm_id":"4785740207","tag":{"amenity":"recycling","recycling:magazines":"yes","recycling:newspaper":"yes","recycling:paper":"yes","recycling:paper_packaging":"yes","recycling_type":"container"}},"type":"Feature"},
	{"geometry":{"coordinates":[5.506382,47.085396],"type":"Point"},"properties":{"name":"V\u00c3\u00aatements / Textiles","osm_id":"4785740208","tag":{"amenity":"recycling","recycling:clothes":"yes","recycling:shoes":"yes","recycling_type":"container"}},"type":"Feature"},
	{"geometry":{"coordinates":[5.506229,47.085207],"type":"Point"},"properties":{"name":"Verre","osm_id":"4785740209","tag":{"amenity":"recycling","recycling:glass":"yes","recycling:glass_bottles":"yes","recycling_type":"container"}},"type":"Feature"},
	{"geometry":{"coordinates":[5.495229,47.092551],"type":"Point"},"properties":{"name":"Bac \u00c3\u00a0 verre","osm_id":"4786127826","tag":{"amenity":"recycling","recycling_type":"container"}},"type":"Feature"},
	{"geometry":{"coordinates":[5.502719,47.097598],"type":"Point"},"properties":{"osm_id":"4786127828","tag":{"amenity":"recycling","recycling:magazines":"yes","recycling:newspaper":"yes","recycling:paper":"yes","recycling_type":"container"}},"type":"Feature"},
	{"geometry":{"coordinates":[5.502781,47.09763],"type":"Point"},"properties":{"osm_id":"4786127829","tag":{"amenity":"recycling","recycling:clothes":"yes","recycling:shoes":"yes","recycling_type":"container"}},"type":"Feature"},
	{"geometry":{"coordinates":[5.512101,47.077522],"type":"Point"},"properties":{"name":"Benne \u00c3\u00a0 D\u00c3\u00a9chets Verts","osm_id":"4855676586","tag":{"amenity":"waste_disposal"}},"type":"Feature"},
	{"geometry":{"coordinates":[5.494663,47.086453],"type":"Point"},"properties":{"name":"V\u00c3\u00aatement / Textile","osm_id":"4863389637","tag":{"amenity":"recycling","recycling_type":"container"}},"type":"Feature"},
	{"geometry":{"coordinates":[5.494652,47.086473],"type":"Point"},"properties":{"name":"Papier","osm_id":"4863389638","tag":{"amenity":"recycling","recycling_type":"container"}},"type":"Feature"},
	{"geometry":{"coordinates":[5.494639,47.08649],"type":"Point"},"properties":{"name":"Verre","osm_id":"4863389639","tag":{"amenity":"recycling","recycling_type":"container"}},"type":"Feature"},
	{"geometry":{"coordinates":[5.496892,47.09364],"type":"Point"},"properties":{"name":"Verre","osm_id":"4874342975","tag":{"amenity":"recycling","recycling:glass":"yes","recycling_type":"container"}},"type":"Feature"},
	{"geometry":{"coordinates":[5.49716,47.098265],"type":"Point"},"properties":{"name":"Verre","osm_id":"4884998514","tag":{"amenity":"recycling","recycling:glass":"yes","recycling_type":"container"}},"type":"Feature"},
	{"geometry":{"coordinates":[5.497157,47.098291],"type":"Point"},"properties":{"name":"Papier","osm_id":"4884998515","tag":{"amenity":"recycling","recycling:paper":"yes","recycling_type":"container"}},"type":"Feature"},
	{"geometry":{"coordinates":[5.465966,47.07074],"type":"Point"},"properties":{"name":"Verre","osm_id":"4910884435","tag":{"amenity":"recycling","recycling:glass":"yes","recycling_type":"container"}},"type":"Feature"},
	{"geometry":{"coordinates":[5.466164,47.070597],"type":"Point"},"properties":{"name":"Benne \u00c3\u00a0 D\u00c3\u00a9chets Verts","osm_id":"4910888805","tag":{"amenity":"waste_disposal"}},"type":"Feature"},
	{"geometry":{"coordinates":[5.49836,47.086894],"type":"Point"},"properties":{"name":"Verre","osm_id":"4912310021","tag":{"amenity":"recycling","recycling:glass":"yes","recycling_type":"container"}},"type":"Feature"},
	{"geometry":{"coordinates":[5.498323,47.086876],"type":"Point"},"properties":{"name":"Papier","osm_id":"4912310022","tag":{"amenity":"recycling","recycling_type":"container"}},"type":"Feature"},
	{"geometry":{"coordinates":[5.49708,47.084879],"type":"Point"},"properties":{"osm_id":"5266052546","tag":{"amenity":"recycling","recycling:clothes":"yes","recycling_type":"container"}},"type":"Feature"},
	{"geometry":{"coordinates":[5.497002,47.085052],"type":"Point"},"properties":{"osm_id":"5266052547","tag":{"amenity":"recycling","recycling_type":"container"}},"type":"Feature"},
	{"geometry":{"coordinates":[5.496973,47.085047],"type":"Point"},"properties":{"osm_id":"5266052548","tag":{"amenity":"recycling","recycling_type":"container"}},"type":"Feature"},
	{"geometry":{"coordinates":[5.496975,47.085081],"type":"Point"},"properties":{"osm_id":"5266052549","tag":{"amenity":"recycling","recycling_type":"container"}},"type":"Feature"},
	{"geometry":{"coordinates":[5.49695,47.085076],"type":"Point"},"properties":{"osm_id":"5266052550","tag":{"amenity":"recycling","recycling_type":"container"}},"type":"Feature"},
	{"geometry":{"coordinates":[5.494779,47.086813],"type":"Point"},"properties":{"osm_id":"5321835522","tag":{"addr:street":"Rond-Point des Templiers","amenity":"recycling","opening_hours":"Jan 02-Jan 21","operator":"Ville de Dole","permanent":"no","recycling:christmas_trees":"yes","recycling_type":"container"}},"type":"Feature"},
	{"geometry":{"coordinates":[5.470253,47.084486],"type":"Point"},"properties":{"osm_id":"5321839221","tag":{"addr:street":"Rue Pablo Neruda","amenity":"recycling","opening_hours":"Jan 02-Jan 21","operator":"Ville de Dole","permanent":"no","recycling:christmas_trees":"yes","recycling_type":"container"}},"type":"Feature"},
	{"geometry":{"coordinates":[5.492597,47.093682],"type":"Point"},"properties":{"osm_id":"5321970341","tag":{"amenity":"waste_basket"}},"type":"Feature"},
	{"geometry":{"coordinates":[5.482201,47.094092],"type":"Point"},"properties":{"osm_id":"5366804520","tag":{"amenity":"recycling","recycling:green_waste":"yes","recycling_type":"container"}},"type":"Feature"},
	{"geometry":{"coordinates":[5.482239,47.094057],"type":"Point"},"properties":{"osm_id":"5366806421","tag":{"amenity":"recycling","recycling:glass":"yes","recycling_type":"container"}},"type":"Feature"},
	{"geometry":{"coordinates":[5.493659,47.052538],"type":"Point"},"properties":{"name":"Verre","osm_id":"5400880168","tag":{"amenity":"recycling","recycling:glass":"yes","recycling:glass_bottles":"yes","recycling_type":"container"}},"type":"Feature"},
	{"geometry":{"coordinates":[5.493635,47.052555],"type":"Point"},"properties":{"name":"Papier","osm_id":"5400880169","tag":{"amenity":"recycling","recycling:books":"yes","recycling:magazines":"yes","recycling:newspaper":"yes","recycling:paper":"yes","recycling_type":"container"}},"type":"Feature"},
	{"geometry":{"coordinates":[5.493604,47.052572],"type":"Point"},"properties":{"osm_id":"5400880170","tag":{"amenity":"recycling","recycling:clothes":"yes","recycling:shoes":"yes","recycling_type":"container"}},"type":"Feature"},
	{"geometry":{"coordinates":[5.490786,47.09285],"type":"Point"},"properties":{"osm_id":"5409954197","tag":{"amenity":"waste_basket"}},"type":"Feature"},
	{"geometry":{"coordinates":[5.490839,47.092953],"type":"Point"},"properties":{"osm_id":"5409954198","tag":{"amenity":"waste_basket"}},"type":"Feature"},
	{"geometry":{"coordinates":[5.489089,47.090871],"type":"Point"},"properties":{"osm_id":"5412526958","tag":{"amenity":"waste_basket"}},"type":"Feature"},
	{"geometry":{"coordinates":[5.489167,47.09081],"type":"Point"},"properties":{"osm_id":"5412526959","tag":{"amenity":"waste_basket"}},"type":"Feature"},
	{"geometry":{"coordinates":[5.488828,47.090899],"type":"Point"},"properties":{"osm_id":"5412526960","tag":{"amenity":"waste_basket"}},"type":"Feature"},
	{"geometry":{"coordinates":[5.494899,47.074292],"type":"Point"},"properties":{"name":"V\u00c3\u00aatement","osm_id":"5412544970","tag":{"amenity":"recycling","recycling:clothes":"yes","recycling:shoes":"yes","recycling_type":"container"}},"type":"Feature"},
	{"geometry":{"coordinates":[5.494876,47.074304],"type":"Point"},"properties":{"name":"Papier","osm_id":"5412544971","tag":{"amenity":"recycling","recycling:magazines":"yes","recycling:newspaper":"yes","recycling:paper":"yes","recycling_type":"container"}},"type":"Feature"},
	{"geometry":{"coordinates":[5.49489,47.074323],"type":"Point"},"properties":{"name":"Verre","osm_id":"5412544972","tag":{"amenity":"recycling","recycling:glass":"yes","recycling:glass_bottles":"yes","recycling_type":"container"}},"type":"Feature"},
	{"geometry":{"coordinates":[5.494261,47.093178],"type":"Point"},"properties":{"osm_id":"5429260528","tag":{"amenity":"waste_basket"}},"type":"Feature"},
	{"geometry":{"coordinates":[5.501647,47.095729],"type":"Point"},"properties":{"osm_id":"5458505866","tag":{"amenity":"recycling","recycling:glass":"yes","recycling:glass_bottles":"yes","recycling_type":"container"}},"type":"Feature"},
	{"geometry":{"coordinates":[5.501718,47.095739],"type":"Point"},"properties":{"osm_id":"5458505867","tag":{"amenity":"waste_disposal"}},"type":"Feature"},
	{"geometry":{"coordinates":[5.50108,47.081633],"type":"Point"},"properties":{"osm_id":"5473051165","tag":{"amenity":"waste_basket"}},"type":"Feature"},
	{"geometry":{"coordinates":[5.467028,47.07884],"type":"Point"},"properties":{"osm_id":"5636946412","tag":{"amenity":"waste_disposal"}},"type":"Feature"},
	{"geometry":{"coordinates":[5.467004,47.078851],"type":"Point"},"properties":{"osm_id":"5636946413","tag":{"amenity":"recycling","recycling_type":"container"}},"type":"Feature"},
	{"geometry":{"coordinates":[5.466992,47.078837],"type":"Point"},"properties":{"osm_id":"5636946414","tag":{"amenity":"recycling","recycling_type":"container"}},"type":"Feature"},
	{"geometry":{"coordinates":[5.505541,47.081375],"type":"Point"},"properties":{"osm_id":"5761707423","tag":{"amenity":"recycling","recycling:glass":"yes","recycling:glass_bottles":"yes","recycling_type":"container"}},"type":"Feature"},
	{"geometry":{"coordinates":[5.490679,47.089974],"type":"Point"},"properties":{"osm_id":"6102505187","tag":{"amenity":"waste_disposal"}},"type":"Feature"},
	{"geometry":{"coordinates":[5.490695,47.089965],"type":"Point"},"properties":{"osm_id":"6102505188","tag":{"amenity":"waste_disposal"}},"type":"Feature"},
	{"geometry":{"coordinates":[5.490712,47.089956],"type":"Point"},"properties":{"osm_id":"6102505189","tag":{"amenity":"waste_disposal"}},"type":"Feature"},
	{"geometry":{"coordinates":[5.49542,47.094232],"type":"Point"},"properties":{"osm_id":"6323395017","tag":{"amenity":"recycling","operator":"SICTOM de la zone de Dole","recycling_type":"container"}},"type":"Feature"},
	{"geometry":{"coordinates":[5.492522,47.089676],"type":"Point"},"properties":{"osm_id":"6561042288","tag":{"amenity":"waste_basket"}},"type":"Feature"},
	{"geometry":{"coordinates":[5.497066,47.094844],"type":"Point"},"properties":{"osm_id":"6569709545","tag":{"amenity":"waste_basket"}},"type":"Feature"},
	{"geometry":{"coordinates":[5.49637,47.095004],"type":"Point"},"properties":{"osm_id":"6609911470","tag":{"amenity":"waste_basket"}},"type":"Feature"},
	{"geometry":{"coordinates":[5.496589,47.09507],"type":"Point"},"properties":{"osm_id":"6609911473","tag":{"amenity":"waste_basket"}},"type":"Feature"},
	{"geometry":{"coordinates":[5.496162,47.094891],"type":"Point"},"properties":{"name":"Verre","osm_id":"6609911474","tag":{"amenity":"recycling","recycling:glass":"yes","recycling:glass_bottles":"yes","recycling_type":"container"}},"type":"Feature"},
	{"geometry":{"coordinates":[5.503105,47.071675],"type":"Point"},"properties":{"name":"Verre","osm_id":"6643521718","tag":{"amenity":"recycling","recycling:glass":"yes","recycling:glass_bottles":"yes","recycling_type":"container"}},"type":"Feature"},
	{"geometry":{"coordinates":[5.503124,47.071681],"type":"Point"},"properties":{"name":"V\u00c3\u00aatements / Textile","osm_id":"6643521719","tag":{"amenity":"recycling","recycling:clothes":"yes","recycling:shoes":"yes","recycling_type":"container"}},"type":"Feature"},
	{"geometry":{"coordinates":[5.503222,47.071657],"type":"Point"},"properties":{"name":"Benne \u00c3\u00a0 d\u00c3\u00a9chets verts","osm_id":"6643521720","tag":{"amenity":"waste_disposal"}},"type":"Feature"},
	{"geometry":{"coordinates":[5.503238,47.071602],"type":"Point"},"properties":{"name":"Benne \u00c3\u00a0 d\u00c3\u00a9chets verts","osm_id":"6643521721","tag":{"amenity":"waste_disposal"}},"type":"Feature"},
	{"geometry":{"coordinates":[5.492369,47.092139],"type":"Point"},"properties":{"osm_id":"7048680403","tag":{"amenity":"waste_basket"}},"type":"Feature"},
	{"geometry":{"coordinates":[5.497868,47.087526],"type":"Point"},"properties":{"osm_id":"7104610332","tag":{"amenity":"waste_basket"}},"type":"Feature"},
	{"geometry":{"coordinates":[5.496938,47.087636],"type":"Point"},"properties":{"osm_id":"7674110411","tag":{"amenity":"waste_basket"}},"type":"Feature"},
	{"geometry":{"coordinates":[5.494249,47.09301],"type":"Point"},"properties":{"osm_id":"7709860266","tag":{"amenity":"waste_basket"}},"type":"Feature"}
]
}
