{
"type": "FeatureCollection",
"features": [
	{"geometry":{"coordinates":[5.511876,43.311274],"type":"Point"},"properties":{"osm_id":"1117990270","tag":{"amenity":"recycling","recycling:glass_bottles":"yes","recycling_type":"container"}},"type":"Feature"},
	{"geometry":{"coordinates":[5.454219,43.299027],"type":"Point"},"properties":{"osm_id":"1752558224","tag":{"amenity":"recycling","recycling_type":"container"}},"type":"Feature"},
	{"geometry":{"coordinates":[5.459766,43.285054],"type":"Point"},"properties":{"osm_id":"1801704863","tag":{"amenity":"recycling","recycling:scrap_metal":"yes","recycling_type":"container"}},"type":"Feature"},
	{"geometry":{"coordinates":[5.469254,43.286273],"type":"Point"},"properties":{"osm_id":"1816030600","tag":{"amenity":"recycling","recycling:cans":"yes","recycling:glass_bottles":"yes","recycling:magazines":"yes","recycling:newspaper":"yes","recycling:paper":"yes","recycling:paper_packaging":"yes","recycling:plastic_bottles":"yes","recycling:plastic_packaging":"yes","recycling_type":"container"}},"type":"Feature"},
	{"geometry":{"coordinates":[5.465891,43.28718],"type":"Point"},"properties":{"osm_id":"1843993031","tag":{"amenity":"recycling","recycling:cans":"yes","recycling:glass_bottles":"yes","recycling:magazines":"yes","recycling:newspaper":"yes","recycling:paper":"yes","recycling:paper_packaging":"yes","recycling:plastic_bottles":"yes","recycling:plastic_packaging":"yes","recycling_type":"container"}},"type":"Feature"},
	{"geometry":{"coordinates":[5.459695,43.284553],"type":"Point"},"properties":{"osm_id":"1867622435","tag":{"amenity":"waste_disposal","waste":"trash"}},"type":"Feature"},
	{"geometry":{"coordinates":[5.459551,43.284563],"type":"Point"},"properties":{"osm_id":"1867622438","tag":{"amenity":"waste_disposal","waste":"trash"}},"type":"Feature"},
	{"geometry":{"coordinates":[5.45949,43.284566],"type":"Point"},"properties":{"osm_id":"1867622439","tag":{"amenity":"waste_disposal","waste":"trash"}},"type":"Feature"},
	{"geometry":{"coordinates":[5.459896,43.285013],"type":"Point"},"properties":{"osm_id":"1867622481","tag":{"amenity":"waste_basket"}},"type":"Feature"},
	{"geometry":{"coordinates":[5.459785,43.285021],"type":"Point"},"properties":{"osm_id":"1867622482","tag":{"amenity":"waste_basket"}},"type":"Feature"},
	{"geometry":{"coordinates":[5.458936,43.28753],"type":"Point"},"properties":{"osm_id":"1870068902","tag":{"amenity":"recycling","recycling:cans":"yes","recycling:glass_bottles":"yes","recycling:magazines":"yes","recycling:newspaper":"yes","recycling:paper":"yes","recycling:paper_packaging":"yes","recycling:plastic_bottles":"yes","recycling:plastic_packaging":"yes","recycling_type":"container"}},"type":"Feature"},
	{"geometry":{"coordinates":[5.457591,43.283466],"type":"Point"},"properties":{"osm_id":"1870134955","tag":{"amenity":"waste_basket"}},"type":"Feature"},
	{"geometry":{"coordinates":[5.45765,43.283468],"type":"Point"},"properties":{"osm_id":"1870134956","tag":{"amenity":"waste_basket"}},"type":"Feature"},
	{"geometry":{"coordinates":[5.456893,43.284258],"type":"Point"},"properties":{"osm_id":"1870134969","tag":{"amenity":"recycling","recycling:cans":"no","recycling:magazines":"yes","recycling:paper":"yes","recycling:paper_packaging":"yes","recycling:plastic_bottles":"yes","recycling:plastic_packaging":"yes","recycling_type":"container"}},"type":"Feature"},
	{"geometry":{"coordinates":[5.457059,43.28437],"type":"Point"},"properties":{"osm_id":"1870134970","tag":{"amenity":"recycling","recycling:glass_bottles":"yes","recycling_type":"container"}},"type":"Feature"},
	{"geometry":{"coordinates":[5.497547,43.294161],"type":"Point"},"properties":{"osm_id":"2298354286","tag":{"amenity":"recycling","recycling_type":"container"}},"type":"Feature"},
	{"geometry":{"coordinates":[5.48005,43.286392],"type":"Point"},"properties":{"osm_id":"3799424063","tag":{"amenity":"recycling","recycling_type":"container"}},"type":"Feature"},
	{"geometry":{"coordinates":[5.450601,43.293456],"type":"Point"},"properties":{"osm_id":"3923717255","tag":{"amenity":"recycling","recycling_type":"container"}},"type":"Feature"},
	{"geometry":{"coordinates":[5.456115,43.294286],"type":"Point"},"properties":{"osm_id":"3948064092","tag":{"amenity":"recycling","recycling_type":"container"}},"type":"Feature"},
	{"geometry":{"coordinates":[5.458794,43.295942],"type":"Point"},"properties":{"osm_id":"3948064121","tag":{"amenity":"recycling","recycling_type":"container"}},"type":"Feature"},
	{"geometry":{"coordinates":[5.457831,43.296516],"type":"Point"},"properties":{"osm_id":"3948064151","tag":{"amenity":"recycling","recycling_type":"container"}},"type":"Feature"},
	{"geometry":{"coordinates":[5.459824,43.297694],"type":"Point"},"properties":{"osm_id":"3948083120","tag":{"amenity":"recycling","recycling_type":"container"}},"type":"Feature"},
	{"geometry":{"coordinates":[5.45733,43.294095],"type":"Point"},"properties":{"osm_id":"3957837236","tag":{"amenity":"recycling","operator":"Le Relais","recycling:clothes":"yes","recycling_type":"container"}},"type":"Feature"},
	{"geometry":{"coordinates":[5.452061,43.299229],"type":"Point"},"properties":{"osm_id":"3960126358","tag":{"amenity":"recycling","recycling_type":"container"}},"type":"Feature"},
	{"geometry":{"coordinates":[5.453436,43.301707],"type":"Point"},"properties":{"osm_id":"3960126474","tag":{"amenity":"recycling","recycling_type":"container"}},"type":"Feature"},
	{"geometry":{"coordinates":[5.520461,43.285035],"type":"Point"},"properties":{"osm_id":"4845662436","tag":{"amenity":"recycling","colour":"green","recycling:glass":"yes","recycling_type":"container"}},"type":"Feature"},
	{"geometry":{"coordinates":[5.503228,43.283376],"type":"Point"},"properties":{"osm_id":"4878746111","tag":{"amenity":"recycling","colour":"green","operator":"M\u00c3\u00a9tropole d'Aix-Marseille-Provence","recycling:glass_bottles":"yes","recycling_type":"container"}},"type":"Feature"},
	{"geometry":{"coordinates":[5.503251,43.283372],"type":"Point"},"properties":{"osm_id":"4878746112","tag":{"amenity":"recycling","colour":"yellow","operator":"M\u00c3\u00a9tropole d'Aix-Marseille-Provence","recycling:PET":"yes","recycling:beverage_cartons":"yes","recycling:cans":"yes","recycling:cartons":"yes","recycling:plastic_bottles":"yes","recycling_type":"container"}},"type":"Feature"},
	{"geometry":{"coordinates":[5.503271,43.283368],"type":"Point"},"properties":{"osm_id":"4878746113","tag":{"amenity":"recycling","colour":"blue","operator":"M\u00c3\u00a9tropole d'Aix-Marseille-Provence","recycling:magazines":"yes","recycling:newspaper":"yes","recycling:paper":"yes","recycling_type":"container"}},"type":"Feature"},
	{"geometry":{"coordinates":[5.512844,43.288913],"type":"Point"},"properties":{"osm_id":"4988661428","tag":{"amenity":"recycling","colour":"green","operator":"M\u00c3\u00a9tropole d'Aix-Marseille-Provence","recycling:glass_bottles":"yes","recycling_type":"container"}},"type":"Feature"},
	{"geometry":{"coordinates":[5.520461,43.285043],"type":"Point"},"properties":{"osm_id":"5016299370","ref":"AUB 136","tag":{"amenity":"recycling","colour":"blue","recycling:magazines":"yes","recycling:newspaper":"yes","recycling:paper":"yes","recycling_type":"container"}},"type":"Feature"},
	{"geometry":{"coordinates":[5.52046,43.285051],"type":"Point"},"properties":{"osm_id":"5016299371","ref":"AUB 136","tag":{"amenity":"recycling","colour":"yellow","recycling:PET":"yes","recycling:beverage_cartons":"yes","recycling:cans":"yes","recycling:cartons":"yes","recycling:plastic_bottles":"yes","recycling_type":"container"}},"type":"Feature"},
	{"geometry":{"coordinates":[5.499564,43.283759],"type":"Point"},"properties":{"osm_id":"5017992615","tag":{"amenity":"recycling","colour":"blue","operator":"M\u00c3\u00a9tropole d'Aix-Marseille-Provence","recycling:magazines":"yes","recycling:newspaper":"yes","recycling:paper":"yes","recycling_type":"container"}},"type":"Feature"},
	{"geometry":{"coordinates":[5.499547,43.283759],"type":"Point"},"properties":{"osm_id":"5017992616","tag":{"amenity":"recycling","colour":"yellow","operator":"M\u00c3\u00a9tropole d'Aix-Marseille-Provence","recycling:PET":"yes","recycling:beverage_cartons":"yes","recycling:cans":"yes","recycling:cartons":"yes","recycling:plastic_bottles":"yes","recycling_type":"container"}},"type":"Feature"},
	{"geometry":{"coordinates":[5.49958,43.283759],"type":"Point"},"properties":{"osm_id":"5017992617","tag":{"amenity":"recycling","colour":"green","operator":"M\u00c3\u00a9tropole d'Aix-Marseille-Provence","recycling:glass_bottles":"yes","recycling_type":"container"}},"type":"Feature"},
	{"geometry":{"coordinates":[5.509685,43.301088],"type":"Point"},"properties":{"osm_id":"5032297282","tag":{"amenity":"recycling","colour":"blue","operator":"M\u00c3\u00a9tropole d'Aix-Marseille-Provence","recycling:magazines":"yes","recycling:newspaper":"yes","recycling:paper":"yes","recycling_type":"container"}},"type":"Feature"},
	{"geometry":{"coordinates":[5.509665,43.301093],"type":"Point"},"properties":{"osm_id":"5032297283","tag":{"amenity":"recycling","colour":"yellow","operator":"M\u00c3\u00a9tropole d'Aix-Marseille-Provence","recycling:PET":"yes","recycling:beverage_cartons":"yes","recycling:cans":"yes","recycling:cartons":"yes","recycling:plastic_bottles":"yes","recycling_type":"container"}},"type":"Feature"},
	{"geometry":{"coordinates":[5.509702,43.301085],"type":"Point"},"properties":{"osm_id":"5032297284","tag":{"amenity":"recycling","colour":"green","operator":"M\u00c3\u00a9tropole d'Aix-Marseille-Provence","recycling:glass_bottles":"yes","recycling_type":"container"}},"type":"Feature"},
	{"geometry":{"coordinates":[5.51236,43.287296],"type":"Point"},"properties":{"osm_id":"5121991437","tag":{"amenity":"recycling","colour":"blue","operator":"M\u00c3\u00a9tropole d'Aix-Marseille-Provence","recycling:magazines":"yes","recycling:newspaper":"yes","recycling:paper":"yes","recycling_type":"container"}},"type":"Feature"},
	{"geometry":{"coordinates":[5.512376,43.287321],"type":"Point"},"properties":{"osm_id":"5121991438","tag":{"amenity":"recycling","colour":"yellow","operator":"M\u00c3\u00a9tropole d'Aix-Marseille-Provence","recycling:PET":"yes","recycling:beverage_cartons":"yes","recycling:cans":"yes","recycling:cartons":"yes","recycling:plastic_bottles":"yes","recycling_type":"container"}},"type":"Feature"},
	{"geometry":{"coordinates":[5.512368,43.287309],"type":"Point"},"properties":{"osm_id":"5121991439","tag":{"amenity":"recycling","colour":"green","operator":"M\u00c3\u00a9tropole d'Aix-Marseille-Provence","recycling:glass_bottles":"yes","recycling_type":"container"}},"type":"Feature"},
	{"geometry":{"coordinates":[5.520326,43.284978],"type":"Point"},"properties":{"osm_id":"5126998859","ref":"225","tag":{"amenity":"recycling","colour":"green","recycling:glass":"yes","recycling_type":"container"}},"type":"Feature"},
	{"geometry":{"coordinates":[5.454546,43.325116],"type":"Point"},"properties":{"osm_id":"5140755326","tag":{"amenity":"recycling","recycling:cans":"yes","recycling:glass_bottles":"yes","recycling:paper":"yes","recycling:plastic_bottles":"yes","recycling:plastic_packaging":"yes","recycling_type":"container"}},"type":"Feature"},
	{"geometry":{"coordinates":[5.508431,43.286979],"type":"Point"},"properties":{"osm_id":"5141676836","tag":{"amenity":"recycling","operator":"Le Relais","recycling:bags":"yes","recycling:belts":"yes","recycling:clothes":"yes","recycling:shoes":"yes","recycling_type":"container","website":"https://lerelais.org","wheelchair":"no"}},"type":"Feature"},
	{"geometry":{"coordinates":[5.508453,43.287122],"type":"Point"},"properties":{"osm_id":"5150514518","tag":{"amenity":"recycling","location":"indoor","recycling:batteries":"yes","recycling_type":"container"}},"type":"Feature"},
	{"geometry":{"coordinates":[5.511275,43.293107],"type":"Point"},"properties":{"osm_id":"5165034072","tag":{"amenity":"recycling","colour":"green","operator":"M\u00c3\u00a9tropole d'Aix-Marseille-Provence","recycling:glass_bottles":"yes","recycling_type":"container"}},"type":"Feature"},
	{"geometry":{"coordinates":[5.465053,43.312781],"type":"Point"},"properties":{"osm_id":"5345776806","tag":{"amenity":"recycling","recycling:glass_bottles":"yes","recycling:paper":"yes","recycling:plastic_packaging":"yes","recycling_type":"container"}},"type":"Feature"},
	{"geometry":{"coordinates":[5.501305,43.29556],"type":"Point"},"properties":{"osm_id":"5418586773","tag":{"amenity":"waste_basket"}},"type":"Feature"},
	{"geometry":{"coordinates":[5.493679,43.302141],"type":"Point"},"properties":{"osm_id":"5962714040","tag":{"amenity":"recycling","recycling:cans":"yes","recycling:glass_bottles":"yes","recycling:paper":"yes","recycling:plastic_bottles":"yes","recycling:plastic_packaging":"yes","recycling_type":"container"}},"type":"Feature"},
	{"geometry":{"coordinates":[5.508474,43.280611],"type":"Point"},"properties":{"osm_id":"5975936281","tag":{"amenity":"recycling","recycling_type":"container"}},"type":"Feature"},
	{"geometry":{"coordinates":[5.516306,43.281157],"type":"Point"},"properties":{"osm_id":"5976241253","tag":{"amenity":"recycling","recycling_type":"container"}},"type":"Feature"},
	{"geometry":{"coordinates":[5.494932,43.284206],"type":"Point"},"properties":{"name":"Veolia propret\u00c3\u00a9","osm_id":"6132124885","tag":{"amenity":"recycling","recycling_type":"centre"}},"type":"Feature"},
	{"geometry":{"coordinates":[5.492172,43.283164],"type":"Point"},"properties":{"osm_id":"6242989041","tag":{"amenity":"waste_disposal"}},"type":"Feature"},
	{"geometry":{"coordinates":[5.526171,43.30147],"type":"Point"},"properties":{"osm_id":"6412147088","tag":{"amenity":"recycling","recycling_type":"container"}},"type":"Feature"},
	{"geometry":{"coordinates":[5.518782,43.300675],"type":"Point"},"properties":{"osm_id":"6417767533","tag":{"amenity":"recycling","colour":"green","operator":"M\u00c3\u00a9tropole d'Aix-Marseille-Provence","recycling:glass_bottles":"yes","recycling_type":"container"}},"type":"Feature"},
	{"geometry":{"coordinates":[5.518766,43.300669],"type":"Point"},"properties":{"osm_id":"6417767534","tag":{"amenity":"recycling","colour":"blue","operator":"M\u00c3\u00a9tropole d'Aix-Marseille-Provence","recycling:magazines":"yes","recycling:newspaper":"yes","recycling:paper":"yes","recycling_type":"container"}},"type":"Feature"},
	{"geometry":{"coordinates":[5.518751,43.300662],"type":"Point"},"properties":{"osm_id":"6417767535","tag":{"amenity":"recycling","colour":"yellow","operator":"M\u00c3\u00a9tropole d'Aix-Marseille-Provence","recycling:PET":"yes","recycling:beverage_cartons":"yes","recycling:cans":"yes","recycling:cartons":"yes","recycling:plastic_bottles":"yes","recycling_type":"container"}},"type":"Feature"},
	{"geometry":{"coordinates":[5.513233,43.302858],"type":"Point"},"properties":{"osm_id":"6419095137","tag":{"amenity":"recycling","colour":"green","operator":"M\u00c3\u00a9tropole d'Aix-Marseille-Provence","recycling:glass_bottles":"yes","recycling_type":"container"}},"type":"Feature"},
	{"geometry":{"coordinates":[5.513254,43.302832],"type":"Point"},"properties":{"osm_id":"6419095138","tag":{"amenity":"recycling","colour":"blue","operator":"M\u00c3\u00a9tropole d'Aix-Marseille-Provence","recycling:magazines":"yes","recycling:newspaper":"yes","recycling:paper":"yes","recycling_type":"container"}},"type":"Feature"},
	{"geometry":{"coordinates":[5.513243,43.302845],"type":"Point"},"properties":{"osm_id":"6419095139","tag":{"amenity":"recycling","colour":"yellow","operator":"M\u00c3\u00a9tropole d'Aix-Marseille-Provence","recycling:PET":"yes","recycling:beverage_cartons":"yes","recycling:cans":"yes","recycling:cartons":"yes","recycling:plastic_bottles":"yes","recycling_type":"container"}},"type":"Feature"},
	{"geometry":{"coordinates":[5.505859,43.303641],"type":"Point"},"properties":{"osm_id":"6425530078","tag":{"amenity":"recycling","colour":"green","operator":"M\u00c3\u00a9tropole d'Aix-Marseille-Provence","recycling:glass_bottles":"yes","recycling_type":"container"}},"type":"Feature"},
	{"geometry":{"coordinates":[5.505844,43.303636],"type":"Point"},"properties":{"osm_id":"6425530079","tag":{"amenity":"recycling","colour":"blue","operator":"M\u00c3\u00a9tropole d'Aix-Marseille-Provence","recycling:magazines":"yes","recycling:newspaper":"yes","recycling:paper":"yes","recycling_type":"container"}},"type":"Feature"},
	{"geometry":{"coordinates":[5.505825,43.303629],"type":"Point"},"properties":{"osm_id":"6425530080","tag":{"amenity":"recycling","colour":"yellow","operator":"M\u00c3\u00a9tropole d'Aix-Marseille-Provence","recycling:PET":"yes","recycling:beverage_cartons":"yes","recycling:cans":"yes","recycling:cartons":"yes","recycling:plastic_bottles":"yes","recycling_type":"container"}},"type":"Feature"},
	{"geometry":{"coordinates":[5.502042,43.299756],"type":"Point"},"properties":{"osm_id":"6428674058","tag":{"amenity":"recycling","recycling:glass_bottles":"yes","recycling_type":"container"}},"type":"Feature"},
	{"geometry":{"coordinates":[5.501087,43.307357],"type":"Point"},"properties":{"osm_id":"6434134360","tag":{"amenity":"recycling","recycling:glass_bottles":"yes","recycling_type":"container"}},"type":"Feature"},
	{"geometry":{"coordinates":[5.489955,43.284158],"type":"Point"},"properties":{"osm_id":"6578946451","tag":{"amenity":"recycling","recycling:glass_bottles":"yes","recycling_type":"container"}},"type":"Feature"},
	{"geometry":{"coordinates":[5.489967,43.284156],"type":"Point"},"properties":{"osm_id":"6578946452","tag":{"amenity":"recycling","recycling:beverage_cartons":"yes","recycling:cans":"yes","recycling:plastic_bottles":"yes","recycling_type":"container"}},"type":"Feature"},
	{"geometry":{"coordinates":[5.489981,43.284155],"type":"Point"},"properties":{"osm_id":"6578946453","tag":{"amenity":"recycling","recycling:magazines":"yes","recycling:newspaper":"yes","recycling:paper":"yes","recycling_type":"container"}},"type":"Feature"},
	{"geometry":{"coordinates":[5.464843,43.31184],"type":"Point"},"properties":{"osm_id":"6817745629","tag":{"amenity":"recycling","recycling:cans":"yes","recycling:glass_bottles":"yes","recycling:paper":"yes","recycling:plastic_bottles":"yes","recycling:plastic_packaging":"yes","recycling_type":"container"}},"type":"Feature"},
	{"geometry":{"coordinates":[5.487624,43.325135],"type":"Point"},"properties":{"osm_id":"7331292802","tag":{"amenity":"recycling","recycling_type":"container"}},"type":"Feature"},
	{"geometry":{"coordinates":[5.50796,43.301323],"type":"Point"},"properties":{"osm_id":"7494473611","tag":{"access":"yes","amenity":"waste_disposal","waste":"trash;recycling"}},"type":"Feature"},
	{"geometry":{"coordinates":[5.449788,43.303485],"type":"Point"},"properties":{"osm_id":"7617824648","tag":{"amenity":"recycling","recycling_type":"container"}},"type":"Feature"},
	{"geometry":{"coordinates":[5.517209,43.278256],"type":"Point"},"properties":{"osm_id":"7656061652","tag":{"amenity":"recycling","location":"underground","recycling:cardboard":"no","recycling:glass":"no","recycling:glass_bottles":"yes","recycling:magazines":"yes","recycling:newspaper":"yes","recycling:paper":"yes","recycling:paper_packaging":"yes","recycling:plastic_bottles":"no","recycling_type":"container"}},"type":"Feature"},
	{"geometry":{"coordinates":[5.514454,43.276155],"type":"Point"},"properties":{"osm_id":"7656061693","tag":{"amenity":"waste_disposal"}},"type":"Feature"},
	{"geometry":{"coordinates":[5.507488,43.278821],"type":"Point"},"properties":{"osm_id":"7656061806","tag":{"amenity":"waste_disposal","location":"underground"}},"type":"Feature"},
	{"geometry":{"coordinates":[5.507429,43.278873],"type":"Point"},"properties":{"osm_id":"7656061807","tag":{"amenity":"recycling","location":"underground","recycling:cardboard":"yes","recycling:glass":"no","recycling:glass_bottles":"yes","recycling:magazines":"yes","recycling:newspaper":"yes","recycling:paper":"yes","recycling:paper_packaging":"yes","recycling:plastic_bottles":"no","recycling_type":"container"}},"type":"Feature"},
	{"geometry":{"coordinates":[5.506878,43.294049],"type":"Point"},"properties":{"osm_id":"7674836860","tag":{"amenity":"waste_basket","waste":"trash"}},"type":"Feature"},
	{"geometry":{"coordinates":[5.503167,43.294518],"type":"Point"},"properties":{"osm_id":"7749927813","tag":{"amenity":"waste_basket","waste":"trash"}},"type":"Feature"},
	{"geometry":{"coordinates":[5.466291,43.279723],"type":"Point"},"properties":{"osm_id":"7913149678","tag":{"amenity":"waste_disposal","operator":"MPM","waste":"trash"}},"type":"Feature"},
	{"geometry":{"coordinates":[5.459407,43.28883],"type":"Point"},"properties":{"osm_id":"7925475016","tag":{"amenity":"recycling","recycling:cans":"yes","recycling:glass_bottles":"yes","recycling:magazines":"yes","recycling:newspaper":"yes","recycling:paper":"yes","recycling:paper_packaging":"yes","recycling:plastic_bottles":"yes","recycling:plastic_packaging":"yes","recycling_type":"container"}},"type":"Feature"}
]
}
