{
"type": "FeatureCollection",
"features": [
	{"geometry":{"coordinates":[5.450319,43.249349],"type":"Point"},"properties":{"osm_id":"4736156958","tag":{"amenity":"recycling","recycling_type":"container"}},"type":"Feature"},
	{"geometry":{"coordinates":[5.532389,43.227377],"type":"Point"},"properties":{"osm_id":"6993729246","tag":{"access":"private","amenity":"waste_disposal","waste":"trash"}},"type":"Feature"},
	{"geometry":{"coordinates":[5.533665,43.231859],"type":"Point"},"properties":{"osm_id":"7284675705","tag":{"amenity":"waste_basket"}},"type":"Feature"},
	{"geometry":{"coordinates":[5.532149,43.23086],"type":"Point"},"properties":{"osm_id":"7284675719","tag":{"amenity":"waste_basket"}},"type":"Feature"},
	{"geometry":{"coordinates":[5.533474,43.214549],"type":"Point"},"properties":{"osm_id":"8425612715","tag":{"amenity":"waste_basket"}},"type":"Feature"},
	{"geometry":{"coordinates":[5.537015,43.21478],"type":"Point"},"properties":{"osm_id":"8425615956","tag":{"amenity":"waste_basket"}},"type":"Feature"},
	{"geometry":{"coordinates":[5.533877,43.214256],"type":"Point"},"properties":{"osm_id":"8425619283","tag":{"amenity":"waste_basket"}},"type":"Feature"},
	{"geometry":{"coordinates":[5.531156,43.213131],"type":"Point"},"properties":{"osm_id":"8425630956","tag":{"amenity":"waste_basket"}},"type":"Feature"},
	{"geometry":{"coordinates":[5.528549,43.210848],"type":"Point"},"properties":{"osm_id":"8425632575","tag":{"amenity":"waste_basket"}},"type":"Feature"},
	{"geometry":{"coordinates":[5.526225,43.21149],"type":"Point"},"properties":{"osm_id":"8425634648","tag":{"amenity":"recycling","recycling:glass":"yes","recycling:paper":"yes","recycling:plastic":"yes"}},"type":"Feature"},
	{"geometry":{"coordinates":[5.536949,43.213409],"type":"Point"},"properties":{"osm_id":"8425634650","tag":{"amenity":"waste_basket"}},"type":"Feature"},
	{"geometry":{"coordinates":[5.530982,43.213114],"type":"Point"},"properties":{"osm_id":"8425637809","tag":{"amenity":"waste_basket"}},"type":"Feature"},
	{"geometry":{"coordinates":[5.531669,43.213395],"type":"Point"},"properties":{"osm_id":"8429838388","tag":{"amenity":"waste_basket"}},"type":"Feature"},
	{"geometry":{"coordinates":[5.530654,43.212816],"type":"Point"},"properties":{"osm_id":"8429871821","tag":{"amenity":"waste_basket"}},"type":"Feature"},
	{"geometry":{"coordinates":[5.533765,43.214504],"type":"Point"},"properties":{"osm_id":"8429880697","tag":{"amenity":"waste_basket"}},"type":"Feature"},
	{"geometry":{"coordinates":[5.499634,43.237033],"type":"Point"},"properties":{"osm_id":"9073751941","tag":{"amenity":"waste_disposal"}},"type":"Feature"}
]
}
