{
"type": "FeatureCollection",
"features": [
	{"geometry":{"coordinates":[35.568273,49.898959],"type":"Point"},"properties":{"osm_id":"6683379185","tag":{"amenity":"recycling","name:ru":"\u00d0\u009f\u00d1\u0080\u00d0\u00b8\u00d0\u00b5\u00d0\u00bc \u00d0\u00bc\u00d0\u00b5\u00d1\u0082\u00d0\u00b0\u00d0\u00bb\u00d0\u00bb\u00d0\u00b0","phone":"0501072301"}},"type":"Feature"},
	{"geometry":{"coordinates":[35.561124,49.90323],"type":"Point"},"properties":{"osm_id":"7221126063","tag":{"amenity":"waste_basket","colour":"Black","material":"steel"}},"type":"Feature"},
	{"geometry":{"coordinates":[35.561218,49.903287],"type":"Point"},"properties":{"osm_id":"7221146340","tag":{"amenity":"waste_basket","colour":"Black","material":"steel"}},"type":"Feature"},
	{"geometry":{"coordinates":[35.561354,49.903314],"type":"Point"},"properties":{"osm_id":"7221146341","tag":{"amenity":"waste_basket","colour":"Black","material":"steel"}},"type":"Feature"},
	{"geometry":{"coordinates":[35.561465,49.903372],"type":"Point"},"properties":{"osm_id":"7221146342","tag":{"amenity":"waste_basket","colour":"Black","material":"steel"}},"type":"Feature"},
	{"geometry":{"coordinates":[35.561595,49.903398],"type":"Point"},"properties":{"osm_id":"7221146343","tag":{"amenity":"waste_basket","colour":"Black","material":"steel"}},"type":"Feature"},
	{"geometry":{"coordinates":[35.561738,49.903464],"type":"Point"},"properties":{"osm_id":"7221146344","tag":{"amenity":"waste_basket","colour":"Black","material":"steel"}},"type":"Feature"},
	{"geometry":{"coordinates":[35.561902,49.903504],"type":"Point"},"properties":{"osm_id":"7221146345","tag":{"amenity":"waste_basket","colour":"Black","material":"steel"}},"type":"Feature"},
	{"geometry":{"coordinates":[35.562015,49.903558],"type":"Point"},"properties":{"osm_id":"7221146346","tag":{"amenity":"waste_basket","colour":"Black","material":"steel"}},"type":"Feature"},
	{"geometry":{"coordinates":[35.562162,49.90359],"type":"Point"},"properties":{"osm_id":"7221146347","tag":{"amenity":"waste_basket","colour":"Black","material":"steel"}},"type":"Feature"},
	{"geometry":{"coordinates":[35.562267,49.903651],"type":"Point"},"properties":{"osm_id":"7221146348","tag":{"amenity":"waste_basket","colour":"Black","material":"steel"}},"type":"Feature"}
]
}
