{
"type": "FeatureCollection",
"features": [
	{"geometry":{"coordinates":[10.489344,52.231264],"type":"Point"},"properties":{"highway":"turning_circle","osm_id":"121791589","tag":{"denotation":"urban","natural":"tree"}},"type":"Feature"},
	{"geometry":{"coordinates":[10.49035,52.231445],"type":"Point"},"properties":{"highway":"turning_circle","osm_id":"121791602","tag":{"denotation":"urban","natural":"tree"}},"type":"Feature"},
	{"geometry":{"coordinates":[10.491331,52.231671],"type":"Point"},"properties":{"highway":"turning_circle","osm_id":"121791609","tag":{"denotation":"urban","natural":"tree"}},"type":"Feature"},
	{"geometry":{"coordinates":[10.492277,52.231948],"type":"Point"},"properties":{"highway":"turning_circle","osm_id":"121791616","tag":{"denotation":"urban","natural":"tree"}},"type":"Feature"},
	{"geometry":{"coordinates":[10.493627,52.232554],"type":"Point"},"properties":{"highway":"turning_circle","osm_id":"121791623","tag":{"denotation":"urban","natural":"tree"}},"type":"Feature"},
	{"geometry":{"coordinates":[10.487706,52.230388],"type":"Point"},"properties":{"highway":"turning_circle","osm_id":"255885984","tag":{"denotation":"urban","natural":"tree"}},"type":"Feature"},
	{"geometry":{"coordinates":[10.487558,52.229637],"type":"Point"},"properties":{"highway":"turning_circle","osm_id":"255885985","tag":{"denotation":"urban","natural":"tree"}},"type":"Feature"},
	{"geometry":{"coordinates":[10.487408,52.228886],"type":"Point"},"properties":{"highway":"turning_circle","osm_id":"255885986","tag":{"denotation":"urban","natural":"tree"}},"type":"Feature"},
	{"geometry":{"coordinates":[10.519237,52.238248],"type":"Point"},"properties":{"osm_id":"327699276","tag":{"natural":"tree"}},"type":"Feature"},
	{"geometry":{"coordinates":[10.519251,52.238563],"type":"Point"},"properties":{"osm_id":"327699282","tag":{"natural":"tree"}},"type":"Feature"},
	{"geometry":{"coordinates":[10.519541,52.238726],"type":"Point"},"properties":{"osm_id":"327699286","tag":{"natural":"tree"}},"type":"Feature"},
	{"geometry":{"coordinates":[10.518943,52.237794],"type":"Point"},"properties":{"osm_id":"327699293","tag":{"natural":"tree"}},"type":"Feature"},
	{"geometry":{"coordinates":[10.518845,52.237472],"type":"Point"},"properties":{"osm_id":"327699299","tag":{"natural":"tree"}},"type":"Feature"},
	{"geometry":{"coordinates":[10.519573,52.237458],"type":"Point"},"properties":{"osm_id":"327699306","tag":{"natural":"tree"}},"type":"Feature"},
	{"geometry":{"coordinates":[10.519555,52.237325],"type":"Point"},"properties":{"osm_id":"327699312","tag":{"natural":"tree"}},"type":"Feature"},
	{"geometry":{"coordinates":[10.519391,52.237244],"type":"Point"},"properties":{"osm_id":"327699321","tag":{"natural":"tree"}},"type":"Feature"},
	{"geometry":{"coordinates":[10.519244,52.237671],"type":"Point"},"properties":{"osm_id":"327699328","tag":{"natural":"tree"}},"type":"Feature"},
	{"geometry":{"coordinates":[10.519206,52.237909],"type":"Point"},"properties":{"osm_id":"327699335","tag":{"natural":"tree"}},"type":"Feature"},
	{"geometry":{"coordinates":[10.519947,52.23744],"type":"Point"},"properties":{"osm_id":"327699343","tag":{"natural":"tree"}},"type":"Feature"},
	{"geometry":{"coordinates":[10.519958,52.237776],"type":"Point"},"properties":{"osm_id":"327699349","tag":{"natural":"tree"}},"type":"Feature"},
	{"geometry":{"coordinates":[10.5203,52.237227],"type":"Point"},"properties":{"osm_id":"327699354","tag":{"natural":"tree"}},"type":"Feature"},
	{"geometry":{"coordinates":[10.519165,52.23889],"type":"Point"},"properties":{"osm_id":"327699365","tag":{"natural":"tree"}},"type":"Feature"},
	{"geometry":{"coordinates":[10.518908,52.238678],"type":"Point"},"properties":{"osm_id":"327699374","tag":{"natural":"tree"}},"type":"Feature"},
	{"geometry":{"coordinates":[10.518848,52.238411],"type":"Point"},"properties":{"osm_id":"327699382","tag":{"natural":"tree"}},"type":"Feature"},
	{"geometry":{"coordinates":[10.519489,52.239191],"type":"Point"},"properties":{"osm_id":"327699396","tag":{"natural":"tree"}},"type":"Feature"},
	{"geometry":{"coordinates":[10.519459,52.23937],"type":"Point"},"properties":{"osm_id":"327699403","tag":{"natural":"tree"}},"type":"Feature"},
	{"geometry":{"coordinates":[10.519223,52.239426],"type":"Point"},"properties":{"osm_id":"327699410","tag":{"natural":"tree"}},"type":"Feature"},
	{"geometry":{"coordinates":[10.520092,52.239343],"type":"Point"},"properties":{"osm_id":"327699416","tag":{"natural":"tree"}},"type":"Feature"},
	{"geometry":{"coordinates":[10.520167,52.239137],"type":"Point"},"properties":{"osm_id":"327699426","tag":{"natural":"tree"}},"type":"Feature"},
	{"geometry":{"coordinates":[10.51988,52.238515],"type":"Point"},"properties":{"osm_id":"327699444","tag":{"natural":"tree"}},"type":"Feature"},
	{"geometry":{"coordinates":[10.520923,52.237283],"type":"Point"},"properties":{"osm_id":"327699454","tag":{"natural":"tree"}},"type":"Feature"},
	{"geometry":{"coordinates":[10.520333,52.237595],"type":"Point"},"properties":{"osm_id":"327699461","tag":{"natural":"tree"}},"type":"Feature"},
	{"geometry":{"coordinates":[10.519121,52.239101],"type":"Point"},"properties":{"osm_id":"327699469","tag":{"natural":"tree"}},"type":"Feature"},
	{"geometry":{"coordinates":[10.520278,52.240666],"type":"Point"},"properties":{"osm_id":"327699485","tag":{"natural":"tree"}},"type":"Feature"},
	{"geometry":{"coordinates":[10.523303,52.265087],"type":"Point"},"properties":{"osm_id":"346751757","tag":{"leaf_cycle":"deciduous","leaf_type":"broadleaved","natural":"tree","species":"Ginkgo biloba","species:wikidata":"Q43284","species:wikipedia":"de:Ginkgo"}},"type":"Feature"},
	{"geometry":{"coordinates":[10.518831,52.240375],"type":"Point"},"properties":{"osm_id":"560932404","tag":{"natural":"tree"}},"type":"Feature"},
	{"geometry":{"coordinates":[10.518948,52.240103],"type":"Point"},"properties":{"osm_id":"560932562","tag":{"natural":"tree"}},"type":"Feature"},
	{"geometry":{"coordinates":[10.484294,52.236405],"type":"Point"},"properties":{"osm_id":"1595968586","tag":{"denotation":"urban","natural":"tree"}},"type":"Feature"},
	{"geometry":{"coordinates":[10.523318,52.264781],"type":"Point"},"properties":{"osm_id":"1759391287","tag":{"leaf_cycle":"deciduous","leaf_type":"broadleaved","natural":"tree"}},"type":"Feature"},
	{"geometry":{"coordinates":[10.523755,52.264888],"type":"Point"},"properties":{"osm_id":"1759391288","tag":{"leaf_cycle":"deciduous","leaf_type":"broadleaved","natural":"tree"}},"type":"Feature"},
	{"geometry":{"coordinates":[10.528812,52.254232],"type":"Point"},"properties":{"osm_id":"1769088940","tag":{"height":"10","leaf_cycle":"deciduous","leaf_type":"broadleaved","natural":"tree"}},"type":"Feature"},
	{"geometry":{"coordinates":[10.521564,52.251943],"type":"Point"},"properties":{"osm_id":"1781189490","tag":{"natural":"tree"}},"type":"Feature"},
	{"geometry":{"coordinates":[10.477203,52.235379],"type":"Point"},"properties":{"osm_id":"1836019672","tag":{"denotation":"urban","natural":"tree"}},"type":"Feature"},
	{"geometry":{"coordinates":[10.478003,52.228448],"type":"Point"},"properties":{"osm_id":"1840677484","tag":{"denotation":"urban","natural":"tree"}},"type":"Feature"},
	{"geometry":{"coordinates":[10.478008,52.228523],"type":"Point"},"properties":{"osm_id":"1840677511","tag":{"denotation":"urban","natural":"tree"}},"type":"Feature"},
	{"geometry":{"coordinates":[10.477735,52.228579],"type":"Point"},"properties":{"osm_id":"1840677531","tag":{"denotation":"urban","natural":"tree"}},"type":"Feature"},
	{"geometry":{"coordinates":[10.480504,52.227843],"type":"Point"},"properties":{"osm_id":"1842126590","tag":{"denotation":"avenue","natural":"tree"}},"type":"Feature"},
	{"geometry":{"coordinates":[10.480506,52.227931],"type":"Point"},"properties":{"osm_id":"1842126591","tag":{"denotation":"avenue","natural":"tree"}},"type":"Feature"},
	{"geometry":{"coordinates":[10.480519,52.228013],"type":"Point"},"properties":{"osm_id":"1842126592","tag":{"denotation":"avenue","natural":"tree"}},"type":"Feature"},
	{"geometry":{"coordinates":[10.480523,52.228107],"type":"Point"},"properties":{"osm_id":"1842126593","tag":{"denotation":"avenue","natural":"tree"}},"type":"Feature"},
	{"geometry":{"coordinates":[10.480512,52.22816],"type":"Point"},"properties":{"osm_id":"1842126594","tag":{"denotation":"avenue","natural":"tree"}},"type":"Feature"},
	{"geometry":{"coordinates":[10.480516,52.228179],"type":"Point"},"properties":{"osm_id":"1842126595","tag":{"denotation":"avenue","natural":"tree"}},"type":"Feature"},
	{"geometry":{"coordinates":[10.480556,52.228238],"type":"Point"},"properties":{"osm_id":"1842126596","tag":{"denotation":"avenue","natural":"tree"}},"type":"Feature"},
	{"geometry":{"coordinates":[10.480556,52.228308],"type":"Point"},"properties":{"osm_id":"1842126597","tag":{"denotation":"avenue","natural":"tree"}},"type":"Feature"},
	{"geometry":{"coordinates":[10.48056,52.228389],"type":"Point"},"properties":{"osm_id":"1842126598","tag":{"denotation":"avenue","natural":"tree"}},"type":"Feature"},
	{"geometry":{"coordinates":[10.480574,52.228461],"type":"Point"},"properties":{"osm_id":"1842126599","tag":{"denotation":"avenue","natural":"tree"}},"type":"Feature"},
	{"geometry":{"coordinates":[10.480575,52.228525],"type":"Point"},"properties":{"osm_id":"1842126600","tag":{"denotation":"avenue","natural":"tree"}},"type":"Feature"},
	{"geometry":{"coordinates":[10.477334,52.229114],"type":"Point"},"properties":{"osm_id":"1842126606","tag":{"denotation":"urban","natural":"tree"}},"type":"Feature"},
	{"geometry":{"coordinates":[10.48092,52.229633],"type":"Point"},"properties":{"osm_id":"1842126618","tag":{"denotation":"urban","natural":"tree"}},"type":"Feature"},
	{"geometry":{"coordinates":[10.479817,52.229964],"type":"Point"},"properties":{"osm_id":"1842126624","tag":{"denotation":"urban","natural":"tree"}},"type":"Feature"},
	{"geometry":{"coordinates":[10.479722,52.229965],"type":"Point"},"properties":{"osm_id":"1842126625","tag":{"denotation":"urban","natural":"tree"}},"type":"Feature"},
	{"geometry":{"coordinates":[10.47963,52.229969],"type":"Point"},"properties":{"osm_id":"1842126626","tag":{"denotation":"urban","natural":"tree"}},"type":"Feature"},
	{"geometry":{"coordinates":[10.479422,52.230007],"type":"Point"},"properties":{"osm_id":"1842126629","tag":{"denotation":"urban","natural":"tree"}},"type":"Feature"},
	{"geometry":{"coordinates":[10.479299,52.230011],"type":"Point"},"properties":{"osm_id":"1842126630","tag":{"denotation":"urban","natural":"tree"}},"type":"Feature"},
	{"geometry":{"coordinates":[10.479174,52.230019],"type":"Point"},"properties":{"osm_id":"1842126631","tag":{"denotation":"urban","natural":"tree"}},"type":"Feature"},
	{"geometry":{"coordinates":[10.479183,52.230075],"type":"Point"},"properties":{"osm_id":"1842126632","tag":{"denotation":"urban","natural":"tree"}},"type":"Feature"},
	{"geometry":{"coordinates":[10.486258,52.229377],"type":"Point"},"properties":{"osm_id":"1843029412","tag":{"denotation":"urban","natural":"tree"}},"type":"Feature"},
	{"geometry":{"coordinates":[10.486132,52.229419],"type":"Point"},"properties":{"osm_id":"1843029418","tag":{"denotation":"urban","natural":"tree"}},"type":"Feature"},
	{"geometry":{"coordinates":[10.486154,52.229528],"type":"Point"},"properties":{"osm_id":"1843029436","tag":{"denotation":"urban","natural":"tree"}},"type":"Feature"},
	{"geometry":{"coordinates":[10.486174,52.229629],"type":"Point"},"properties":{"osm_id":"1843029441","tag":{"denotation":"urban","natural":"tree"}},"type":"Feature"},
	{"geometry":{"coordinates":[10.522819,52.257889],"type":"Point"},"properties":{"osm_id":"2383708944","tag":{"genus":"Platanus","leaf_cycle":"deciduous","leaf_type":"broadleaved","natural":"tree"}},"type":"Feature"},
	{"geometry":{"coordinates":[10.523516,52.264519],"type":"Point"},"properties":{"osm_id":"2560451769","tag":{"leaf_cycle":"deciduous","leaf_type":"broadleaved","natural":"tree"}},"type":"Feature"},
	{"geometry":{"coordinates":[10.522969,52.264201],"type":"Point"},"properties":{"osm_id":"2562442805","tag":{"leaf_cycle":"deciduous","leaf_type":"broadleaved","natural":"tree"}},"type":"Feature"},
	{"geometry":{"coordinates":[10.522357,52.264019],"type":"Point"},"properties":{"osm_id":"2562442808","tag":{"leaf_cycle":"deciduous","leaf_type":"broadleaved","natural":"tree"}},"type":"Feature"},
	{"geometry":{"coordinates":[10.516466,52.26639],"type":"Point"},"properties":{"osm_id":"2619619549","tag":{"leaf_cycle":"deciduous","leaf_type":"broadleaved","natural":"tree"}},"type":"Feature"},
	{"geometry":{"coordinates":[10.516595,52.2664],"type":"Point"},"properties":{"osm_id":"2619619550","tag":{"leaf_cycle":"deciduous","leaf_type":"broadleaved","natural":"tree"}},"type":"Feature"},
	{"geometry":{"coordinates":[10.516117,52.266314],"type":"Point"},"properties":{"osm_id":"2619619552","tag":{"natural":"tree"}},"type":"Feature"},
	{"geometry":{"coordinates":[10.516257,52.26626],"type":"Point"},"properties":{"osm_id":"2619619553","tag":{"leaf_cycle":"deciduous","leaf_type":"broadleaved","natural":"tree"}},"type":"Feature"},
	{"geometry":{"coordinates":[10.516493,52.26619],"type":"Point"},"properties":{"osm_id":"2619619554","tag":{"leaf_cycle":"deciduous","leaf_type":"broadleaved","natural":"tree"}},"type":"Feature"},
	{"geometry":{"coordinates":[10.51634,52.266104],"type":"Point"},"properties":{"osm_id":"2619619556","tag":{"leaf_cycle":"deciduous","leaf_type":"broadleaved","natural":"tree"}},"type":"Feature"},
	{"geometry":{"coordinates":[10.515401,52.26599],"type":"Point"},"properties":{"osm_id":"2619619557","tag":{"natural":"tree"}},"type":"Feature"},
	{"geometry":{"coordinates":[10.515392,52.266121],"type":"Point"},"properties":{"osm_id":"2619619558","tag":{"natural":"tree"}},"type":"Feature"},
	{"geometry":{"coordinates":[10.515533,52.266128],"type":"Point"},"properties":{"osm_id":"2619619559","tag":{"natural":"tree"}},"type":"Feature"},
	{"geometry":{"coordinates":[10.515871,52.266359],"type":"Point"},"properties":{"osm_id":"2619619561","tag":{"natural":"tree"}},"type":"Feature"},
	{"geometry":{"coordinates":[10.514915,52.266155],"type":"Point"},"properties":{"osm_id":"2619619562","tag":{"natural":"tree"}},"type":"Feature"},
	{"geometry":{"coordinates":[10.515256,52.266472],"type":"Point"},"properties":{"osm_id":"2619619563","tag":{"leaf_cycle":"deciduous","leaf_type":"broadleaved","natural":"tree"}},"type":"Feature"},
	{"geometry":{"coordinates":[10.515486,52.26619],"type":"Point"},"properties":{"osm_id":"2619619565","tag":{"natural":"tree"}},"type":"Feature"},
	{"geometry":{"coordinates":[10.515451,52.265979],"type":"Point"},"properties":{"osm_id":"2620163182","tag":{"natural":"tree"}},"type":"Feature"},
	{"geometry":{"coordinates":[10.515431,52.266009],"type":"Point"},"properties":{"osm_id":"2620163186","tag":{"natural":"tree"}},"type":"Feature"},
	{"geometry":{"coordinates":[10.515484,52.266219],"type":"Point"},"properties":{"osm_id":"2620163206","tag":{"natural":"tree"}},"type":"Feature"},
	{"geometry":{"coordinates":[10.515317,52.265393],"type":"Point"},"properties":{"osm_id":"2621255433","tag":{"natural":"tree"}},"type":"Feature"},
	{"geometry":{"coordinates":[10.521405,52.253015],"type":"Point"},"properties":{"osm_id":"2926645094","tag":{"genus":"Populus","height":"30","leaf_cycle":"deciduous","leaf_type":"broadleaved","natural":"tree","species:de":"Pappel-Hybride"}},"type":"Feature"},
	{"geometry":{"coordinates":[10.53686,52.251519],"type":"Point"},"properties":{"osm_id":"3003245851","tag":{"leaf_cycle":"evergreen","leaf_type":"needleleaved","natural":"tree"}},"type":"Feature"},
	{"geometry":{"coordinates":[10.536906,52.251522],"type":"Point"},"properties":{"osm_id":"3003245852","tag":{"leaf_cycle":"evergreen","leaf_type":"needleleaved","natural":"tree"}},"type":"Feature"},
	{"geometry":{"coordinates":[10.536824,52.251537],"type":"Point"},"properties":{"osm_id":"3003245856","tag":{"leaf_cycle":"evergreen","leaf_type":"needleleaved","natural":"tree"}},"type":"Feature"},
	{"geometry":{"coordinates":[10.536935,52.251544],"type":"Point"},"properties":{"osm_id":"3003245857","tag":{"leaf_cycle":"evergreen","leaf_type":"needleleaved","natural":"tree"}},"type":"Feature"},
	{"geometry":{"coordinates":[10.536819,52.251565],"type":"Point"},"properties":{"osm_id":"3003245858","tag":{"leaf_cycle":"evergreen","leaf_type":"needleleaved","natural":"tree"}},"type":"Feature"},
	{"geometry":{"coordinates":[10.536931,52.251572],"type":"Point"},"properties":{"osm_id":"3003245859","tag":{"leaf_cycle":"evergreen","leaf_type":"needleleaved","natural":"tree"}},"type":"Feature"},
	{"geometry":{"coordinates":[10.536849,52.251587],"type":"Point"},"properties":{"osm_id":"3003245861","tag":{"leaf_cycle":"evergreen","leaf_type":"needleleaved","natural":"tree"}},"type":"Feature"},
	{"geometry":{"coordinates":[10.536895,52.25159],"type":"Point"},"properties":{"osm_id":"3003245862","tag":{"leaf_cycle":"evergreen","leaf_type":"needleleaved","natural":"tree"}},"type":"Feature"},
	{"geometry":{"coordinates":[10.523735,52.264045],"type":"Point"},"properties":{"name":"Heinrichslinde","osm_id":"3161312945","tag":{"leaf_cycle":"deciduous","leaf_type":"broadleaved","natural":"tree","wikidata":"Q15992061","wikipedia":"de:Heinrichslinde"}},"type":"Feature"},
	{"geometry":{"coordinates":[10.527513,52.261999],"type":"Point"},"properties":{"osm_id":"3439859043","tag":{"leaf_cycle":"deciduous","leaf_type":"broadleaved","natural":"tree"}},"type":"Feature"},
	{"geometry":{"coordinates":[10.526692,52.262705],"type":"Point"},"properties":{"osm_id":"3439859044","tag":{"leaf_cycle":"deciduous","leaf_type":"broadleaved","natural":"tree"}},"type":"Feature"},
	{"geometry":{"coordinates":[10.526553,52.262827],"type":"Point"},"properties":{"osm_id":"3439859045","tag":{"leaf_cycle":"deciduous","leaf_type":"broadleaved","natural":"tree"}},"type":"Feature"},
	{"geometry":{"coordinates":[10.526504,52.263056],"type":"Point"},"properties":{"osm_id":"3439859046","tag":{"leaf_cycle":"deciduous","leaf_type":"broadleaved","natural":"tree"}},"type":"Feature"},
	{"geometry":{"coordinates":[10.526367,52.263071],"type":"Point"},"properties":{"osm_id":"3439859047","tag":{"leaf_cycle":"deciduous","leaf_type":"broadleaved","natural":"tree"}},"type":"Feature"},
	{"geometry":{"coordinates":[10.526537,52.263129],"type":"Point"},"properties":{"osm_id":"3439859048","tag":{"leaf_cycle":"deciduous","leaf_type":"broadleaved","natural":"tree"}},"type":"Feature"},
	{"geometry":{"coordinates":[10.5264,52.26314],"type":"Point"},"properties":{"osm_id":"3439859049","tag":{"leaf_cycle":"deciduous","leaf_type":"broadleaved","natural":"tree"}},"type":"Feature"},
	{"geometry":{"coordinates":[10.526575,52.263207],"type":"Point"},"properties":{"osm_id":"3439859050","tag":{"leaf_cycle":"deciduous","leaf_type":"broadleaved","natural":"tree"}},"type":"Feature"},
	{"geometry":{"coordinates":[10.526435,52.263221],"type":"Point"},"properties":{"osm_id":"3439859051","tag":{"leaf_cycle":"deciduous","leaf_type":"broadleaved","natural":"tree"}},"type":"Feature"},
	{"geometry":{"coordinates":[10.526605,52.263266],"type":"Point"},"properties":{"osm_id":"3439859052","tag":{"leaf_cycle":"deciduous","leaf_type":"broadleaved","natural":"tree"}},"type":"Feature"},
	{"geometry":{"coordinates":[10.52647,52.263293],"type":"Point"},"properties":{"osm_id":"3439859053","tag":{"leaf_cycle":"deciduous","leaf_type":"broadleaved","natural":"tree"}},"type":"Feature"},
	{"geometry":{"coordinates":[10.526643,52.263338],"type":"Point"},"properties":{"osm_id":"3439859054","tag":{"leaf_cycle":"deciduous","leaf_type":"broadleaved","natural":"tree"}},"type":"Feature"},
	{"geometry":{"coordinates":[10.526509,52.263363],"type":"Point"},"properties":{"osm_id":"3439859055","tag":{"leaf_cycle":"deciduous","leaf_type":"broadleaved","natural":"tree"}},"type":"Feature"},
	{"geometry":{"coordinates":[10.526686,52.263414],"type":"Point"},"properties":{"osm_id":"3439859056","tag":{"leaf_cycle":"deciduous","leaf_type":"broadleaved","natural":"tree"}},"type":"Feature"},
	{"geometry":{"coordinates":[10.526542,52.263439],"type":"Point"},"properties":{"osm_id":"3439859057","tag":{"leaf_cycle":"deciduous","leaf_type":"broadleaved","natural":"tree"}},"type":"Feature"},
	{"geometry":{"coordinates":[10.526778,52.263607],"type":"Point"},"properties":{"osm_id":"3439859058","tag":{"leaf_cycle":"deciduous","leaf_type":"broadleaved","natural":"tree"}},"type":"Feature"},
	{"geometry":{"coordinates":[10.526647,52.263639],"type":"Point"},"properties":{"osm_id":"3439859059","tag":{"leaf_cycle":"deciduous","leaf_type":"broadleaved","natural":"tree"}},"type":"Feature"},
	{"geometry":{"coordinates":[10.526817,52.263681],"type":"Point"},"properties":{"osm_id":"3439859060","tag":{"leaf_cycle":"deciduous","leaf_type":"broadleaved","natural":"tree"}},"type":"Feature"},
	{"geometry":{"coordinates":[10.526687,52.26371],"type":"Point"},"properties":{"osm_id":"3439859061","tag":{"leaf_cycle":"deciduous","leaf_type":"broadleaved","natural":"tree"}},"type":"Feature"},
	{"geometry":{"coordinates":[10.525125,52.263765],"type":"Point"},"properties":{"osm_id":"3439859062","tag":{"natural":"tree"}},"type":"Feature"},
	{"geometry":{"coordinates":[10.52685,52.263768],"type":"Point"},"properties":{"osm_id":"3439859063","tag":{"leaf_cycle":"deciduous","leaf_type":"broadleaved","natural":"tree"}},"type":"Feature"},
	{"geometry":{"coordinates":[10.526718,52.263782],"type":"Point"},"properties":{"osm_id":"3439859064","tag":{"leaf_cycle":"deciduous","leaf_type":"broadleaved","natural":"tree"}},"type":"Feature"},
	{"geometry":{"coordinates":[10.526884,52.263826],"type":"Point"},"properties":{"osm_id":"3439859065","tag":{"leaf_cycle":"deciduous","leaf_type":"broadleaved","natural":"tree"}},"type":"Feature"},
	{"geometry":{"coordinates":[10.526746,52.263848],"type":"Point"},"properties":{"osm_id":"3439859066","tag":{"leaf_cycle":"deciduous","leaf_type":"broadleaved","natural":"tree"}},"type":"Feature"},
	{"geometry":{"coordinates":[10.52414,52.263912],"type":"Point"},"properties":{"osm_id":"3439859067","tag":{"leaf_cycle":"deciduous","leaf_type":"broadleaved","natural":"tree"}},"type":"Feature"},
	{"geometry":{"coordinates":[10.527203,52.263958],"type":"Point"},"properties":{"osm_id":"3439859068","tag":{"natural":"tree"}},"type":"Feature"},
	{"geometry":{"coordinates":[10.52434,52.264018],"type":"Point"},"properties":{"osm_id":"3439859069","tag":{"leaf_cycle":"deciduous","leaf_type":"broadleaved","natural":"tree"}},"type":"Feature"},
	{"geometry":{"coordinates":[10.524829,52.264177],"type":"Point"},"properties":{"osm_id":"3439859070","tag":{"leaf_cycle":"deciduous","leaf_type":"broadleaved","natural":"tree"}},"type":"Feature"},
	{"geometry":{"coordinates":[10.526864,52.264085],"type":"Point"},"properties":{"osm_id":"3439859071","tag":{"leaf_cycle":"deciduous","leaf_type":"broadleaved","natural":"tree"}},"type":"Feature"},
	{"geometry":{"coordinates":[10.524361,52.264141],"type":"Point"},"properties":{"osm_id":"3439859072","tag":{"leaf_cycle":"deciduous","leaf_type":"broadleaved","natural":"tree"}},"type":"Feature"},
	{"geometry":{"coordinates":[10.527285,52.264205],"type":"Point"},"properties":{"osm_id":"3439859073","tag":{"natural":"tree"}},"type":"Feature"},
	{"geometry":{"coordinates":[10.52702,52.264238],"type":"Point"},"properties":{"osm_id":"3439859074","tag":{"leaf_cycle":"deciduous","leaf_type":"broadleaved","natural":"tree"}},"type":"Feature"},
	{"geometry":{"coordinates":[10.527711,52.264063],"type":"Point"},"properties":{"osm_id":"3456420383","tag":{"natural":"tree"}},"type":"Feature"},
	{"geometry":{"coordinates":[10.527992,52.264212],"type":"Point"},"properties":{"osm_id":"3456420384","tag":{"leaf_cycle":"deciduous","leaf_type":"broadleaved","natural":"tree"}},"type":"Feature"},
	{"geometry":{"coordinates":[10.535995,52.251969],"type":"Point"},"properties":{"osm_id":"3493131723","tag":{"natural":"tree"}},"type":"Feature"},
	{"geometry":{"coordinates":[10.536349,52.252055],"type":"Point"},"properties":{"osm_id":"3493131724","tag":{"natural":"tree"}},"type":"Feature"},
	{"geometry":{"coordinates":[10.536531,52.252067],"type":"Point"},"properties":{"osm_id":"3493131725","tag":{"natural":"tree"}},"type":"Feature"},
	{"geometry":{"coordinates":[10.535941,52.25208],"type":"Point"},"properties":{"osm_id":"3493131727","tag":{"natural":"tree"}},"type":"Feature"},
	{"geometry":{"coordinates":[10.536195,52.252185],"type":"Point"},"properties":{"osm_id":"3493131733","tag":{"natural":"tree"}},"type":"Feature"},
	{"geometry":{"coordinates":[10.536804,52.252225],"type":"Point"},"properties":{"osm_id":"3493131738","tag":{"natural":"tree"}},"type":"Feature"},
	{"geometry":{"coordinates":[10.536419,52.252289],"type":"Point"},"properties":{"osm_id":"3493131739","tag":{"natural":"tree"}},"type":"Feature"},
	{"geometry":{"coordinates":[10.535953,52.252343],"type":"Point"},"properties":{"osm_id":"3493131741","tag":{"natural":"tree"}},"type":"Feature"},
	{"geometry":{"coordinates":[10.536056,52.252381],"type":"Point"},"properties":{"osm_id":"3493131742","tag":{"natural":"tree"}},"type":"Feature"},
	{"geometry":{"coordinates":[10.536259,52.252464],"type":"Point"},"properties":{"osm_id":"3493131743","tag":{"natural":"tree"}},"type":"Feature"},
	{"geometry":{"coordinates":[10.5364,52.25252],"type":"Point"},"properties":{"osm_id":"3493131748","tag":{"natural":"tree"}},"type":"Feature"},
	{"geometry":{"coordinates":[10.536544,52.252583],"type":"Point"},"properties":{"osm_id":"3493131750","tag":{"natural":"tree"}},"type":"Feature"},
	{"geometry":{"coordinates":[10.53659,52.252784],"type":"Point"},"properties":{"osm_id":"3493131757","tag":{"natural":"tree"}},"type":"Feature"},
	{"geometry":{"coordinates":[10.535303,52.252865],"type":"Point"},"properties":{"osm_id":"3493131758","tag":{"natural":"tree"}},"type":"Feature"},
	{"geometry":{"coordinates":[10.536766,52.252877],"type":"Point"},"properties":{"osm_id":"3493131759","tag":{"natural":"tree"}},"type":"Feature"},
	{"geometry":{"coordinates":[10.536835,52.252914],"type":"Point"},"properties":{"osm_id":"3493131760","tag":{"natural":"tree"}},"type":"Feature"},
	{"geometry":{"coordinates":[10.537392,52.253054],"type":"Point"},"properties":{"osm_id":"3493131761","tag":{"natural":"tree"}},"type":"Feature"},
	{"geometry":{"coordinates":[10.537002,52.253064],"type":"Point"},"properties":{"osm_id":"3493131762","tag":{"natural":"tree"}},"type":"Feature"},
	{"geometry":{"coordinates":[10.488509,52.244673],"type":"Point"},"properties":{"osm_id":"3508582377","tag":{"natural":"tree"}},"type":"Feature"},
	{"geometry":{"coordinates":[10.487139,52.244648],"type":"Point"},"properties":{"osm_id":"3508586176","tag":{"natural":"tree"}},"type":"Feature"},
	{"geometry":{"coordinates":[10.487891,52.244649],"type":"Point"},"properties":{"osm_id":"3508586177","tag":{"natural":"tree"}},"type":"Feature"},
	{"geometry":{"coordinates":[10.48642,52.244671],"type":"Point"},"properties":{"osm_id":"3508586178","tag":{"natural":"tree"}},"type":"Feature"},
	{"geometry":{"coordinates":[10.503882,52.261368],"type":"Point"},"properties":{"osm_id":"3509646391","tag":{"natural":"tree"}},"type":"Feature"},
	{"geometry":{"coordinates":[10.504583,52.26145],"type":"Point"},"properties":{"osm_id":"3509646392","tag":{"natural":"tree"}},"type":"Feature"},
	{"geometry":{"coordinates":[10.53523,52.253215],"type":"Point"},"properties":{"osm_id":"3531077610","tag":{"natural":"tree"}},"type":"Feature"},
	{"geometry":{"coordinates":[10.514232,52.268011],"type":"Point"},"properties":{"name":"Friedrich-Wilhelm-Eiche","osm_id":"3673453318","tag":{"genus:de":"Eiche","historic":"memorial","leaf_cycle":"deciduous","leaf_type":"broadleaved","memorial":"war_memorial","natural":"tree","wikidata":"Q1457860","wikipedia":"de:Friedrich-Wilhelm-Eiche"}},"type":"Feature"},
	{"geometry":{"coordinates":[10.490325,52.251964],"type":"Point"},"properties":{"osm_id":"3790669675","tag":{"natural":"tree"}},"type":"Feature"},
	{"geometry":{"coordinates":[10.49058,52.25198],"type":"Point"},"properties":{"osm_id":"3790669676","tag":{"natural":"tree"}},"type":"Feature"},
	{"geometry":{"coordinates":[10.49083,52.251986],"type":"Point"},"properties":{"osm_id":"3790669677","tag":{"natural":"tree"}},"type":"Feature"},
	{"geometry":{"coordinates":[10.491081,52.251992],"type":"Point"},"properties":{"osm_id":"3790669678","tag":{"natural":"tree"}},"type":"Feature"},
	{"geometry":{"coordinates":[10.490315,52.252063],"type":"Point"},"properties":{"osm_id":"3790669685","tag":{"natural":"tree"}},"type":"Feature"},
	{"geometry":{"coordinates":[10.490575,52.252074],"type":"Point"},"properties":{"osm_id":"3790669686","tag":{"natural":"tree"}},"type":"Feature"},
	{"geometry":{"coordinates":[10.49082,52.252086],"type":"Point"},"properties":{"osm_id":"3790669687","tag":{"natural":"tree"}},"type":"Feature"},
	{"geometry":{"coordinates":[10.491063,52.252099],"type":"Point"},"properties":{"osm_id":"3790669688","tag":{"natural":"tree"}},"type":"Feature"},
	{"geometry":{"coordinates":[10.519612,52.268143],"type":"Point"},"properties":{"osm_id":"3907333049","tag":{"natural":"tree"}},"type":"Feature"},
	{"geometry":{"coordinates":[10.523946,52.245978],"type":"Point"},"properties":{"osm_id":"4083090260","tag":{"leaf_cycle":"deciduous","leaf_type":"broadleaved","natural":"tree"}},"type":"Feature"},
	{"geometry":{"coordinates":[10.52437,52.246001],"type":"Point"},"properties":{"osm_id":"4083090262","tag":{"leaf_cycle":"deciduous","leaf_type":"broadleaved","natural":"tree"}},"type":"Feature"},
	{"geometry":{"coordinates":[10.52408,52.246081],"type":"Point"},"properties":{"osm_id":"4083090263","tag":{"leaf_cycle":"deciduous","leaf_type":"broadleaved","natural":"tree"}},"type":"Feature"},
	{"geometry":{"coordinates":[10.524204,52.246204],"type":"Point"},"properties":{"osm_id":"4083090264","tag":{"leaf_cycle":"deciduous","leaf_type":"broadleaved","natural":"tree"}},"type":"Feature"},
	{"geometry":{"coordinates":[10.524099,52.246426],"type":"Point"},"properties":{"osm_id":"4083090265","tag":{"leaf_cycle":"deciduous","leaf_type":"broadleaved","natural":"tree"}},"type":"Feature"},
	{"geometry":{"coordinates":[10.524349,52.246571],"type":"Point"},"properties":{"osm_id":"4083090267","tag":{"leaf_cycle":"deciduous","leaf_type":"broadleaved","natural":"tree"}},"type":"Feature"},
	{"geometry":{"coordinates":[10.524182,52.246761],"type":"Point"},"properties":{"osm_id":"4083090268","tag":{"leaf_cycle":"deciduous","leaf_type":"broadleaved","natural":"tree"}},"type":"Feature"},
	{"geometry":{"coordinates":[10.523984,52.246858],"type":"Point"},"properties":{"osm_id":"4083090269","tag":{"leaf_cycle":"deciduous","leaf_type":"broadleaved","natural":"tree"}},"type":"Feature"},
	{"geometry":{"coordinates":[10.52459,52.247014],"type":"Point"},"properties":{"osm_id":"4083090271","tag":{"leaf_cycle":"deciduous","leaf_type":"broadleaved","natural":"tree"}},"type":"Feature"},
	{"geometry":{"coordinates":[10.523759,52.247039],"type":"Point"},"properties":{"osm_id":"4083090273","tag":{"leaf_cycle":"deciduous","leaf_type":"broadleaved","natural":"tree"}},"type":"Feature"},
	{"geometry":{"coordinates":[10.52381,52.247154],"type":"Point"},"properties":{"osm_id":"4083090275","tag":{"leaf_cycle":"deciduous","leaf_type":"broadleaved","natural":"tree"}},"type":"Feature"},
	{"geometry":{"coordinates":[10.528194,52.247204],"type":"Point"},"properties":{"osm_id":"4083090276","tag":{"leaf_cycle":"deciduous","leaf_type":"broadleaved","natural":"tree"}},"type":"Feature"},
	{"geometry":{"coordinates":[10.528035,52.247205],"type":"Point"},"properties":{"osm_id":"4083090277","tag":{"leaf_cycle":"deciduous","leaf_type":"broadleaved","natural":"tree"}},"type":"Feature"},
	{"geometry":{"coordinates":[10.527689,52.247212],"type":"Point"},"properties":{"osm_id":"4083090278","tag":{"leaf_cycle":"deciduous","leaf_type":"broadleaved","natural":"tree"}},"type":"Feature"},
	{"geometry":{"coordinates":[10.527869,52.247212],"type":"Point"},"properties":{"osm_id":"4083090279","tag":{"leaf_cycle":"deciduous","leaf_type":"broadleaved","natural":"tree"}},"type":"Feature"},
	{"geometry":{"coordinates":[10.527156,52.247214],"type":"Point"},"properties":{"osm_id":"4083090280","tag":{"leaf_cycle":"deciduous","leaf_type":"broadleaved","natural":"tree"}},"type":"Feature"},
	{"geometry":{"coordinates":[10.527499,52.247214],"type":"Point"},"properties":{"osm_id":"4083090281","tag":{"leaf_cycle":"deciduous","leaf_type":"broadleaved","natural":"tree"}},"type":"Feature"},
	{"geometry":{"coordinates":[10.526788,52.247215],"type":"Point"},"properties":{"osm_id":"4083090282","tag":{"leaf_cycle":"deciduous","leaf_type":"broadleaved","natural":"tree"}},"type":"Feature"},
	{"geometry":{"coordinates":[10.527346,52.247215],"type":"Point"},"properties":{"osm_id":"4083090283","tag":{"leaf_cycle":"deciduous","leaf_type":"broadleaved","natural":"tree"}},"type":"Feature"},
	{"geometry":{"coordinates":[10.526968,52.247217],"type":"Point"},"properties":{"osm_id":"4083090284","tag":{"leaf_cycle":"deciduous","leaf_type":"broadleaved","natural":"tree"}},"type":"Feature"},
	{"geometry":{"coordinates":[10.526075,52.247219],"type":"Point"},"properties":{"osm_id":"4083090285","tag":{"leaf_cycle":"deciduous","leaf_type":"broadleaved","natural":"tree"}},"type":"Feature"},
	{"geometry":{"coordinates":[10.526241,52.247219],"type":"Point"},"properties":{"osm_id":"4083090286","tag":{"leaf_cycle":"deciduous","leaf_type":"broadleaved","natural":"tree"}},"type":"Feature"},
	{"geometry":{"coordinates":[10.52641,52.247219],"type":"Point"},"properties":{"osm_id":"4083090287","tag":{"leaf_cycle":"deciduous","leaf_type":"broadleaved","natural":"tree"}},"type":"Feature"},
	{"geometry":{"coordinates":[10.525874,52.24722],"type":"Point"},"properties":{"osm_id":"4083090288","tag":{"leaf_cycle":"deciduous","leaf_type":"broadleaved","natural":"tree"}},"type":"Feature"},
	{"geometry":{"coordinates":[10.526587,52.247223],"type":"Point"},"properties":{"osm_id":"4083090489","tag":{"leaf_cycle":"deciduous","leaf_type":"broadleaved","natural":"tree"}},"type":"Feature"},
	{"geometry":{"coordinates":[10.525688,52.247233],"type":"Point"},"properties":{"osm_id":"4083090490","tag":{"leaf_cycle":"deciduous","leaf_type":"broadleaved","natural":"tree"}},"type":"Feature"},
	{"geometry":{"coordinates":[10.524999,52.247276],"type":"Point"},"properties":{"osm_id":"4083090492","tag":{"leaf_cycle":"deciduous","leaf_type":"broadleaved","natural":"tree"}},"type":"Feature"},
	{"geometry":{"coordinates":[10.525241,52.247281],"type":"Point"},"properties":{"osm_id":"4083090493","tag":{"leaf_cycle":"deciduous","leaf_type":"broadleaved","natural":"tree"}},"type":"Feature"},
	{"geometry":{"coordinates":[10.525444,52.247281],"type":"Point"},"properties":{"osm_id":"4083090494","tag":{"leaf_cycle":"deciduous","leaf_type":"broadleaved","natural":"tree"}},"type":"Feature"},
	{"geometry":{"coordinates":[10.523844,52.247321],"type":"Point"},"properties":{"osm_id":"4083090495","tag":{"leaf_cycle":"deciduous","leaf_type":"broadleaved","natural":"tree"}},"type":"Feature"},
	{"geometry":{"coordinates":[10.52584,52.247347],"type":"Point"},"properties":{"osm_id":"4083090496","tag":{"leaf_cycle":"deciduous","leaf_type":"broadleaved","natural":"tree"}},"type":"Feature"},
	{"geometry":{"coordinates":[10.528888,52.247379],"type":"Point"},"properties":{"osm_id":"4083090497","tag":{"leaf_cycle":"deciduous","leaf_type":"broadleaved","natural":"tree"}},"type":"Feature"},
	{"geometry":{"coordinates":[10.52799,52.247384],"type":"Point"},"properties":{"osm_id":"4083090498","tag":{"leaf_cycle":"deciduous","leaf_type":"broadleaved","natural":"tree"}},"type":"Feature"},
	{"geometry":{"coordinates":[10.527416,52.247406],"type":"Point"},"properties":{"osm_id":"4083090499","tag":{"leaf_cycle":"deciduous","leaf_type":"broadleaved","natural":"tree"}},"type":"Feature"},
	{"geometry":{"coordinates":[10.528175,52.247407],"type":"Point"},"properties":{"osm_id":"4083090500","tag":{"leaf_cycle":"deciduous","leaf_type":"broadleaved","natural":"tree"}},"type":"Feature"},
	{"geometry":{"coordinates":[10.526158,52.247421],"type":"Point"},"properties":{"osm_id":"4083090501","tag":{"leaf_cycle":"deciduous","leaf_type":"broadleaved","natural":"tree"}},"type":"Feature"},
	{"geometry":{"coordinates":[10.527688,52.247437],"type":"Point"},"properties":{"osm_id":"4083090502","tag":{"leaf_cycle":"deciduous","leaf_type":"broadleaved","natural":"tree"}},"type":"Feature"},
	{"geometry":{"coordinates":[10.524628,52.247471],"type":"Point"},"properties":{"osm_id":"4083090503","tag":{"leaf_cycle":"deciduous","leaf_type":"broadleaved","natural":"tree"}},"type":"Feature"},
	{"geometry":{"coordinates":[10.527979,52.247476],"type":"Point"},"properties":{"osm_id":"4083090504","tag":{"leaf_cycle":"deciduous","leaf_type":"broadleaved","natural":"tree"}},"type":"Feature"},
	{"geometry":{"coordinates":[10.528686,52.247533],"type":"Point"},"properties":{"osm_id":"4083090505","tag":{"leaf_cycle":"deciduous","leaf_type":"broadleaved","natural":"tree"}},"type":"Feature"},
	{"geometry":{"coordinates":[10.523649,52.24754],"type":"Point"},"properties":{"osm_id":"4083090506","tag":{"leaf_cycle":"deciduous","leaf_type":"broadleaved","natural":"tree"}},"type":"Feature"},
	{"geometry":{"coordinates":[10.524936,52.24763],"type":"Point"},"properties":{"osm_id":"4083090507","tag":{"leaf_cycle":"deciduous","leaf_type":"broadleaved","natural":"tree"}},"type":"Feature"},
	{"geometry":{"coordinates":[10.528715,52.247633],"type":"Point"},"properties":{"osm_id":"4083090508","tag":{"leaf_cycle":"deciduous","leaf_type":"broadleaved","natural":"tree"}},"type":"Feature"},
	{"geometry":{"coordinates":[10.527824,52.2477],"type":"Point"},"properties":{"osm_id":"4083090509","tag":{"leaf_cycle":"deciduous","leaf_type":"broadleaved","natural":"tree"}},"type":"Feature"},
	{"geometry":{"coordinates":[10.525325,52.247751],"type":"Point"},"properties":{"osm_id":"4083090510","tag":{"leaf_cycle":"deciduous","leaf_type":"broadleaved","natural":"tree"}},"type":"Feature"},
	{"geometry":{"coordinates":[10.526549,52.247767],"type":"Point"},"properties":{"osm_id":"4083090511","tag":{"leaf_cycle":"deciduous","leaf_type":"broadleaved","natural":"tree"}},"type":"Feature"},
	{"geometry":{"coordinates":[10.524802,52.247815],"type":"Point"},"properties":{"osm_id":"4083090512","tag":{"leaf_cycle":"deciduous","leaf_type":"broadleaved","natural":"tree"}},"type":"Feature"},
	{"geometry":{"coordinates":[10.525692,52.247822],"type":"Point"},"properties":{"osm_id":"4083090513","tag":{"leaf_cycle":"deciduous","leaf_type":"broadleaved","natural":"tree"}},"type":"Feature"},
	{"geometry":{"coordinates":[10.527443,52.247823],"type":"Point"},"properties":{"osm_id":"4083090514","tag":{"leaf_cycle":"deciduous","leaf_type":"broadleaved","natural":"tree"}},"type":"Feature"},
	{"geometry":{"coordinates":[10.526799,52.247826],"type":"Point"},"properties":{"osm_id":"4083090515","tag":{"leaf_cycle":"deciduous","leaf_type":"broadleaved","natural":"tree"}},"type":"Feature"},
	{"geometry":{"coordinates":[10.526181,52.247847],"type":"Point"},"properties":{"osm_id":"4083090516","tag":{"leaf_cycle":"deciduous","leaf_type":"broadleaved","natural":"tree"}},"type":"Feature"},
	{"geometry":{"coordinates":[10.52391,52.247848],"type":"Point"},"properties":{"osm_id":"4083090517","tag":{"leaf_cycle":"deciduous","leaf_type":"broadleaved","natural":"tree"}},"type":"Feature"},
	{"geometry":{"coordinates":[10.525966,52.247852],"type":"Point"},"properties":{"osm_id":"4083090518","tag":{"leaf_cycle":"deciduous","leaf_type":"broadleaved","natural":"tree"}},"type":"Feature"},
	{"geometry":{"coordinates":[10.524119,52.247856],"type":"Point"},"properties":{"osm_id":"4083090519","tag":{"leaf_cycle":"deciduous","leaf_type":"broadleaved","natural":"tree"}},"type":"Feature"},
	{"geometry":{"coordinates":[10.527649,52.247862],"type":"Point"},"properties":{"osm_id":"4083090520","tag":{"leaf_cycle":"deciduous","leaf_type":"broadleaved","natural":"tree"}},"type":"Feature"},
	{"geometry":{"coordinates":[10.526456,52.247925],"type":"Point"},"properties":{"osm_id":"4083090521","tag":{"leaf_cycle":"deciduous","leaf_type":"broadleaved","natural":"tree"}},"type":"Feature"},
	{"geometry":{"coordinates":[10.524976,52.247994],"type":"Point"},"properties":{"osm_id":"4083090522","tag":{"leaf_cycle":"deciduous","leaf_type":"broadleaved","natural":"tree"}},"type":"Feature"},
	{"geometry":{"coordinates":[10.525269,52.248024],"type":"Point"},"properties":{"osm_id":"4083090523","tag":{"leaf_cycle":"deciduous","leaf_type":"broadleaved","natural":"tree"}},"type":"Feature"},
	{"geometry":{"coordinates":[10.523996,52.248033],"type":"Point"},"properties":{"osm_id":"4083090524","tag":{"leaf_cycle":"deciduous","leaf_type":"broadleaved","natural":"tree"}},"type":"Feature"},
	{"geometry":{"coordinates":[10.526193,52.248243],"type":"Point"},"properties":{"osm_id":"4083090525","tag":{"leaf_cycle":"deciduous","leaf_type":"broadleaved","natural":"tree"}},"type":"Feature"},
	{"geometry":{"coordinates":[10.528988,52.248317],"type":"Point"},"properties":{"osm_id":"4083090526","tag":{"leaf_cycle":"deciduous","leaf_type":"broadleaved","natural":"tree"}},"type":"Feature"},
	{"geometry":{"coordinates":[10.52494,52.248371],"type":"Point"},"properties":{"osm_id":"4083090527","tag":{"leaf_cycle":"deciduous","leaf_type":"broadleaved","natural":"tree"}},"type":"Feature"},
	{"geometry":{"coordinates":[10.529106,52.24844],"type":"Point"},"properties":{"osm_id":"4083090528","tag":{"leaf_cycle":"deciduous","leaf_type":"broadleaved","natural":"tree"}},"type":"Feature"},
	{"geometry":{"coordinates":[10.524731,52.248444],"type":"Point"},"properties":{"osm_id":"4083090529","tag":{"leaf_cycle":"deciduous","leaf_type":"broadleaved","natural":"tree"}},"type":"Feature"},
	{"geometry":{"coordinates":[10.524396,52.248472],"type":"Point"},"properties":{"osm_id":"4083090530","tag":{"leaf_cycle":"deciduous","leaf_type":"broadleaved","natural":"tree"}},"type":"Feature"},
	{"geometry":{"coordinates":[10.529143,52.248537],"type":"Point"},"properties":{"osm_id":"4083090531","tag":{"leaf_cycle":"deciduous","leaf_type":"broadleaved","natural":"tree"}},"type":"Feature"},
	{"geometry":{"coordinates":[10.526692,52.248644],"type":"Point"},"properties":{"osm_id":"4083090532","tag":{"leaf_cycle":"deciduous","leaf_type":"broadleaved","natural":"tree"}},"type":"Feature"},
	{"geometry":{"coordinates":[10.525291,52.248665],"type":"Point"},"properties":{"osm_id":"4083090533","tag":{"leaf_cycle":"deciduous","leaf_type":"broadleaved","natural":"tree"}},"type":"Feature"},
	{"geometry":{"coordinates":[10.529224,52.248728],"type":"Point"},"properties":{"osm_id":"4083090534","tag":{"leaf_cycle":"deciduous","leaf_type":"broadleaved","natural":"tree"}},"type":"Feature"},
	{"geometry":{"coordinates":[10.525383,52.248802],"type":"Point"},"properties":{"osm_id":"4083090535","tag":{"leaf_cycle":"deciduous","leaf_type":"broadleaved","natural":"tree"}},"type":"Feature"},
	{"geometry":{"coordinates":[10.529237,52.248907],"type":"Point"},"properties":{"osm_id":"4083090536","tag":{"leaf_cycle":"deciduous","leaf_type":"broadleaved","natural":"tree"}},"type":"Feature"},
	{"geometry":{"coordinates":[10.525337,52.248981],"type":"Point"},"properties":{"osm_id":"4083090537","tag":{"leaf_cycle":"deciduous","leaf_type":"broadleaved","natural":"tree"}},"type":"Feature"},
	{"geometry":{"coordinates":[10.526853,52.248986],"type":"Point"},"properties":{"osm_id":"4083090538","tag":{"leaf_cycle":"deciduous","leaf_type":"broadleaved","natural":"tree"}},"type":"Feature"},
	{"geometry":{"coordinates":[10.52692,52.248986],"type":"Point"},"properties":{"osm_id":"4083090539","tag":{"leaf_cycle":"deciduous","leaf_type":"broadleaved","natural":"tree"}},"type":"Feature"},
	{"geometry":{"coordinates":[10.526815,52.249046],"type":"Point"},"properties":{"osm_id":"4083090540","tag":{"leaf_cycle":"deciduous","leaf_type":"broadleaved","natural":"tree"}},"type":"Feature"},
	{"geometry":{"coordinates":[10.524819,52.249075],"type":"Point"},"properties":{"osm_id":"4083090541","tag":{"leaf_cycle":"deciduous","leaf_type":"broadleaved","natural":"tree"}},"type":"Feature"},
	{"geometry":{"coordinates":[10.526909,52.249079],"type":"Point"},"properties":{"osm_id":"4083090542","tag":{"leaf_cycle":"deciduous","leaf_type":"broadleaved","natural":"tree"}},"type":"Feature"},
	{"geometry":{"coordinates":[10.526984,52.24912],"type":"Point"},"properties":{"osm_id":"4083090543","tag":{"leaf_cycle":"deciduous","leaf_type":"broadleaved","natural":"tree"}},"type":"Feature"},
	{"geometry":{"coordinates":[10.526842,52.249146],"type":"Point"},"properties":{"osm_id":"4083090544","tag":{"leaf_cycle":"deciduous","leaf_type":"broadleaved","natural":"tree"}},"type":"Feature"},
	{"geometry":{"coordinates":[10.526973,52.249206],"type":"Point"},"properties":{"osm_id":"4083090545","tag":{"leaf_cycle":"deciduous","leaf_type":"broadleaved","natural":"tree"}},"type":"Feature"},
	{"geometry":{"coordinates":[10.526877,52.249233],"type":"Point"},"properties":{"osm_id":"4083090546","tag":{"leaf_cycle":"deciduous","leaf_type":"broadleaved","natural":"tree"}},"type":"Feature"},
	{"geometry":{"coordinates":[10.526989,52.249245],"type":"Point"},"properties":{"osm_id":"4083090547","tag":{"leaf_cycle":"deciduous","leaf_type":"broadleaved","natural":"tree"}},"type":"Feature"},
	{"geometry":{"coordinates":[10.526783,52.249247],"type":"Point"},"properties":{"osm_id":"4083090548","tag":{"leaf_cycle":"deciduous","leaf_type":"broadleaved","natural":"tree"}},"type":"Feature"},
	{"geometry":{"coordinates":[10.526933,52.249256],"type":"Point"},"properties":{"osm_id":"4083090549","tag":{"leaf_cycle":"deciduous","leaf_type":"broadleaved","natural":"tree"}},"type":"Feature"},
	{"geometry":{"coordinates":[10.524857,52.249264],"type":"Point"},"properties":{"osm_id":"4083090550","tag":{"leaf_cycle":"deciduous","leaf_type":"broadleaved","natural":"tree"}},"type":"Feature"},
	{"geometry":{"coordinates":[10.526713,52.249302],"type":"Point"},"properties":{"osm_id":"4083090551","tag":{"leaf_cycle":"deciduous","leaf_type":"broadleaved","natural":"tree"}},"type":"Feature"},
	{"geometry":{"coordinates":[10.526818,52.249307],"type":"Point"},"properties":{"osm_id":"4083090552","tag":{"leaf_cycle":"deciduous","leaf_type":"broadleaved","natural":"tree"}},"type":"Feature"},
	{"geometry":{"coordinates":[10.525646,52.249316],"type":"Point"},"properties":{"osm_id":"4083090553","tag":{"leaf_cycle":"deciduous","leaf_type":"broadleaved","natural":"tree"}},"type":"Feature"},
	{"geometry":{"coordinates":[10.526912,52.24934],"type":"Point"},"properties":{"osm_id":"4083090554","tag":{"leaf_cycle":"deciduous","leaf_type":"broadleaved","natural":"tree"}},"type":"Feature"},
	{"geometry":{"coordinates":[10.526842,52.249347],"type":"Point"},"properties":{"osm_id":"4083090555","tag":{"leaf_cycle":"deciduous","leaf_type":"broadleaved","natural":"tree"}},"type":"Feature"},
	{"geometry":{"coordinates":[10.526745,52.249386],"type":"Point"},"properties":{"osm_id":"4083090556","tag":{"leaf_cycle":"deciduous","leaf_type":"broadleaved","natural":"tree"}},"type":"Feature"},
	{"geometry":{"coordinates":[10.526882,52.249419],"type":"Point"},"properties":{"osm_id":"4083090557","tag":{"leaf_cycle":"deciduous","leaf_type":"broadleaved","natural":"tree"}},"type":"Feature"},
	{"geometry":{"coordinates":[10.526965,52.249419],"type":"Point"},"properties":{"osm_id":"4083090558","tag":{"leaf_cycle":"deciduous","leaf_type":"broadleaved","natural":"tree"}},"type":"Feature"},
	{"geometry":{"coordinates":[10.526826,52.249445],"type":"Point"},"properties":{"osm_id":"4083090559","tag":{"leaf_cycle":"deciduous","leaf_type":"broadleaved","natural":"tree"}},"type":"Feature"},
	{"geometry":{"coordinates":[10.526708,52.24947],"type":"Point"},"properties":{"osm_id":"4083090560","tag":{"leaf_cycle":"deciduous","leaf_type":"broadleaved","natural":"tree"}},"type":"Feature"},
	{"geometry":{"coordinates":[10.526995,52.249481],"type":"Point"},"properties":{"osm_id":"4083090561","tag":{"leaf_cycle":"deciduous","leaf_type":"broadleaved","natural":"tree"}},"type":"Feature"},
	{"geometry":{"coordinates":[10.526815,52.249514],"type":"Point"},"properties":{"osm_id":"4083090562","tag":{"leaf_cycle":"deciduous","leaf_type":"broadleaved","natural":"tree"}},"type":"Feature"},
	{"geometry":{"coordinates":[10.526893,52.249521],"type":"Point"},"properties":{"osm_id":"4083090563","tag":{"leaf_cycle":"deciduous","leaf_type":"broadleaved","natural":"tree"}},"type":"Feature"},
	{"geometry":{"coordinates":[10.526976,52.249526],"type":"Point"},"properties":{"osm_id":"4083090564","tag":{"leaf_cycle":"deciduous","leaf_type":"broadleaved","natural":"tree"}},"type":"Feature"},
	{"geometry":{"coordinates":[10.52715,52.249537],"type":"Point"},"properties":{"osm_id":"4083090565","tag":{"leaf_cycle":"deciduous","leaf_type":"broadleaved","natural":"tree"}},"type":"Feature"},
	{"geometry":{"coordinates":[10.52707,52.249539],"type":"Point"},"properties":{"osm_id":"4083090566","tag":{"leaf_cycle":"deciduous","leaf_type":"broadleaved","natural":"tree"}},"type":"Feature"},
	{"geometry":{"coordinates":[10.526689,52.24956],"type":"Point"},"properties":{"osm_id":"4083090567","tag":{"leaf_cycle":"deciduous","leaf_type":"broadleaved","natural":"tree"}},"type":"Feature"},
	{"geometry":{"coordinates":[10.526729,52.249575],"type":"Point"},"properties":{"osm_id":"4083090568","tag":{"leaf_cycle":"deciduous","leaf_type":"broadleaved","natural":"tree"}},"type":"Feature"},
	{"geometry":{"coordinates":[10.526944,52.249577],"type":"Point"},"properties":{"osm_id":"4083090569","tag":{"leaf_cycle":"deciduous","leaf_type":"broadleaved","natural":"tree"}},"type":"Feature"},
	{"geometry":{"coordinates":[10.527153,52.249588],"type":"Point"},"properties":{"osm_id":"4083090570","tag":{"leaf_cycle":"deciduous","leaf_type":"broadleaved","natural":"tree"}},"type":"Feature"},
	{"geometry":{"coordinates":[10.527019,52.249593],"type":"Point"},"properties":{"osm_id":"4083090571","tag":{"leaf_cycle":"deciduous","leaf_type":"broadleaved","natural":"tree"}},"type":"Feature"},
	{"geometry":{"coordinates":[10.526928,52.249619],"type":"Point"},"properties":{"osm_id":"4083090572","tag":{"leaf_cycle":"deciduous","leaf_type":"broadleaved","natural":"tree"}},"type":"Feature"},
	{"geometry":{"coordinates":[10.527024,52.249624],"type":"Point"},"properties":{"osm_id":"4083090573","tag":{"leaf_cycle":"deciduous","leaf_type":"broadleaved","natural":"tree"}},"type":"Feature"},
	{"geometry":{"coordinates":[10.528982,52.253417],"type":"Point"},"properties":{"osm_id":"4083090744","tag":{"height":"10","leaf_cycle":"deciduous","leaf_type":"broadleaved","natural":"tree"}},"type":"Feature"},
	{"geometry":{"coordinates":[10.529565,52.253438],"type":"Point"},"properties":{"osm_id":"4083090745","tag":{"height":"10","leaf_cycle":"deciduous","leaf_type":"broadleaved","natural":"tree"}},"type":"Feature"},
	{"geometry":{"coordinates":[10.529025,52.249922],"type":"Point"},"properties":{"osm_id":"4085547823","tag":{"leaf_cycle":"deciduous","leaf_type":"broadleaved","natural":"tree"}},"type":"Feature"},
	{"geometry":{"coordinates":[10.528716,52.250167],"type":"Point"},"properties":{"osm_id":"4085547824","tag":{"leaf_cycle":"deciduous","leaf_type":"broadleaved","natural":"tree"}},"type":"Feature"},
	{"geometry":{"coordinates":[10.526268,52.250372],"type":"Point"},"properties":{"osm_id":"4085547825","tag":{"leaf_cycle":"deciduous","leaf_type":"broadleaved","natural":"tree"}},"type":"Feature"},
	{"geometry":{"coordinates":[10.525817,52.250454],"type":"Point"},"properties":{"osm_id":"4085547826","tag":{"leaf_cycle":"deciduous","leaf_type":"broadleaved","natural":"tree"}},"type":"Feature"},
	{"geometry":{"coordinates":[10.526646,52.250467],"type":"Point"},"properties":{"osm_id":"4085547827","tag":{"leaf_cycle":"deciduous","leaf_type":"broadleaved","natural":"tree"}},"type":"Feature"},
	{"geometry":{"coordinates":[10.527094,52.250544],"type":"Point"},"properties":{"osm_id":"4085547828","tag":{"leaf_cycle":"deciduous","leaf_type":"broadleaved","natural":"tree"}},"type":"Feature"},
	{"geometry":{"coordinates":[10.528522,52.250566],"type":"Point"},"properties":{"osm_id":"4085547829","tag":{"leaf_cycle":"deciduous","leaf_type":"broadleaved","natural":"tree"}},"type":"Feature"},
	{"geometry":{"coordinates":[10.529926,52.250648],"type":"Point"},"properties":{"osm_id":"4085547830","tag":{"natural":"tree"}},"type":"Feature"},
	{"geometry":{"coordinates":[10.527558,52.250761],"type":"Point"},"properties":{"osm_id":"4085547831","tag":{"leaf_cycle":"deciduous","leaf_type":"broadleaved","natural":"tree"}},"type":"Feature"},
	{"geometry":{"coordinates":[10.528124,52.250791],"type":"Point"},"properties":{"osm_id":"4085547832","tag":{"leaf_cycle":"deciduous","leaf_type":"broadleaved","natural":"tree"}},"type":"Feature"},
	{"geometry":{"coordinates":[10.527373,52.250796],"type":"Point"},"properties":{"osm_id":"4085547833","tag":{"leaf_cycle":"deciduous","leaf_type":"broadleaved","natural":"tree"}},"type":"Feature"},
	{"geometry":{"coordinates":[10.530465,52.25093],"type":"Point"},"properties":{"osm_id":"4085547834","tag":{"natural":"tree"}},"type":"Feature"},
	{"geometry":{"coordinates":[10.532932,52.250938],"type":"Point"},"properties":{"osm_id":"4085547835","tag":{"natural":"tree"}},"type":"Feature"},
	{"geometry":{"coordinates":[10.536306,52.250944],"type":"Point"},"properties":{"osm_id":"4085547836","tag":{"natural":"tree"}},"type":"Feature"},
	{"geometry":{"coordinates":[10.533118,52.251023],"type":"Point"},"properties":{"osm_id":"4085547837","tag":{"natural":"tree"}},"type":"Feature"},
	{"geometry":{"coordinates":[10.53287,52.25115],"type":"Point"},"properties":{"osm_id":"4085547838","tag":{"height":"9","natural":"tree"}},"type":"Feature"},
	{"geometry":{"coordinates":[10.533232,52.251206],"type":"Point"},"properties":{"osm_id":"4085547839","tag":{"height":"8","natural":"tree"}},"type":"Feature"},
	{"geometry":{"coordinates":[10.531867,52.251224],"type":"Point"},"properties":{"osm_id":"4085547840","tag":{"natural":"tree"}},"type":"Feature"},
	{"geometry":{"coordinates":[10.533473,52.251229],"type":"Point"},"properties":{"osm_id":"4085547841","tag":{"height":"10","natural":"tree"}},"type":"Feature"},
	{"geometry":{"coordinates":[10.536419,52.251251],"type":"Point"},"properties":{"osm_id":"4085547842","tag":{"leaf_cycle":"deciduous","leaf_type":"broadleaved","natural":"tree"}},"type":"Feature"},
	{"geometry":{"coordinates":[10.532108,52.25125],"type":"Point"},"properties":{"osm_id":"4085547843","tag":{"natural":"tree"}},"type":"Feature"},
	{"geometry":{"coordinates":[10.532234,52.251266],"type":"Point"},"properties":{"osm_id":"4085547844","tag":{"natural":"tree"}},"type":"Feature"},
	{"geometry":{"coordinates":[10.532366,52.251285],"type":"Point"},"properties":{"osm_id":"4085547845","tag":{"natural":"tree"}},"type":"Feature"},
	{"geometry":{"coordinates":[10.532501,52.251308],"type":"Point"},"properties":{"osm_id":"4085547846","tag":{"natural":"tree"}},"type":"Feature"},
	{"geometry":{"coordinates":[10.532612,52.251323],"type":"Point"},"properties":{"osm_id":"4085547847","tag":{"natural":"tree"}},"type":"Feature"},
	{"geometry":{"coordinates":[10.532705,52.251337],"type":"Point"},"properties":{"osm_id":"4085547848","tag":{"natural":"tree"}},"type":"Feature"},
	{"geometry":{"coordinates":[10.535898,52.25134],"type":"Point"},"properties":{"osm_id":"4085547849","tag":{"natural":"tree"}},"type":"Feature"},
	{"geometry":{"coordinates":[10.532887,52.251357],"type":"Point"},"properties":{"osm_id":"4085547850","tag":{"natural":"tree"}},"type":"Feature"},
	{"geometry":{"coordinates":[10.533012,52.251376],"type":"Point"},"properties":{"osm_id":"4085547851","tag":{"natural":"tree"}},"type":"Feature"},
	{"geometry":{"coordinates":[10.533236,52.251407],"type":"Point"},"properties":{"osm_id":"4085547852","tag":{"natural":"tree"}},"type":"Feature"},
	{"geometry":{"coordinates":[10.535949,52.25143],"type":"Point"},"properties":{"osm_id":"4085547853","tag":{"natural":"tree"}},"type":"Feature"},
	{"geometry":{"coordinates":[10.533444,52.25144],"type":"Point"},"properties":{"osm_id":"4085547854","tag":{"natural":"tree"}},"type":"Feature"},
	{"geometry":{"coordinates":[10.531037,52.251451],"type":"Point"},"properties":{"osm_id":"4085547855","tag":{"natural":"tree"}},"type":"Feature"},
	{"geometry":{"coordinates":[10.533559,52.251455],"type":"Point"},"properties":{"osm_id":"4085547856","tag":{"natural":"tree"}},"type":"Feature"},
	{"geometry":{"coordinates":[10.533701,52.251473],"type":"Point"},"properties":{"osm_id":"4085547857","tag":{"natural":"tree"}},"type":"Feature"},
	{"geometry":{"coordinates":[10.53383,52.251485],"type":"Point"},"properties":{"osm_id":"4085547858","tag":{"natural":"tree"}},"type":"Feature"},
	{"geometry":{"coordinates":[10.535857,52.251492],"type":"Point"},"properties":{"osm_id":"4085547859","tag":{"natural":"tree"}},"type":"Feature"},
	{"geometry":{"coordinates":[10.53159,52.251501],"type":"Point"},"properties":{"osm_id":"4085547860","tag":{"natural":"tree"}},"type":"Feature"},
	{"geometry":{"coordinates":[10.533956,52.251508],"type":"Point"},"properties":{"osm_id":"4085547861","tag":{"natural":"tree"}},"type":"Feature"},
	{"geometry":{"coordinates":[10.5342,52.251542],"type":"Point"},"properties":{"osm_id":"4085547862","tag":{"natural":"tree"}},"type":"Feature"},
	{"geometry":{"coordinates":[10.534758,52.251608],"type":"Point"},"properties":{"osm_id":"4085547863","tag":{"natural":"tree"}},"type":"Feature"},
	{"geometry":{"coordinates":[10.534959,52.251634],"type":"Point"},"properties":{"osm_id":"4085547864","tag":{"natural":"tree"}},"type":"Feature"},
	{"geometry":{"coordinates":[10.518272,52.265694],"type":"Point"},"properties":{"osm_id":"4093764149","tag":{"leaf_cycle":"deciduous","leaf_type":"broadleaved","natural":"tree"}},"type":"Feature"},
	{"geometry":{"coordinates":[10.518139,52.265694],"type":"Point"},"properties":{"osm_id":"4093764150","tag":{"leaf_cycle":"deciduous","leaf_type":"broadleaved","natural":"tree"}},"type":"Feature"},
	{"geometry":{"coordinates":[10.518114,52.265572],"type":"Point"},"properties":{"osm_id":"4093764151","tag":{"leaf_cycle":"deciduous","leaf_type":"broadleaved","natural":"tree"}},"type":"Feature"},
	{"geometry":{"coordinates":[10.518173,52.26552],"type":"Point"},"properties":{"osm_id":"4093764152","tag":{"leaf_cycle":"deciduous","leaf_type":"broadleaved","natural":"tree"}},"type":"Feature"},
	{"geometry":{"coordinates":[10.518236,52.265471],"type":"Point"},"properties":{"osm_id":"4093764153","tag":{"leaf_cycle":"deciduous","leaf_type":"broadleaved","natural":"tree"}},"type":"Feature"},
	{"geometry":{"coordinates":[10.51833,52.265382],"type":"Point"},"properties":{"osm_id":"4093764154","tag":{"leaf_cycle":"deciduous","leaf_type":"broadleaved","natural":"tree"}},"type":"Feature"},
	{"geometry":{"coordinates":[10.518415,52.265296],"type":"Point"},"properties":{"osm_id":"4093764155","tag":{"natural":"tree"}},"type":"Feature"},
	{"geometry":{"coordinates":[10.517752,52.265842],"type":"Point"},"properties":{"osm_id":"4093764156","tag":{"leaf_cycle":"deciduous","leaf_type":"broadleaved","natural":"tree"}},"type":"Feature"},
	{"geometry":{"coordinates":[10.517851,52.265816],"type":"Point"},"properties":{"osm_id":"4093764157","tag":{"leaf_cycle":"deciduous","leaf_type":"broadleaved","natural":"tree"}},"type":"Feature"},
	{"geometry":{"coordinates":[10.517948,52.265784],"type":"Point"},"properties":{"osm_id":"4093764158","tag":{"leaf_cycle":"deciduous","leaf_type":"broadleaved","natural":"tree"}},"type":"Feature"},
	{"geometry":{"coordinates":[10.518065,52.265484],"type":"Point"},"properties":{"osm_id":"4093764159","tag":{"leaf_cycle":"deciduous","leaf_type":"broadleaved","natural":"tree"}},"type":"Feature"},
	{"geometry":{"coordinates":[10.518134,52.265423],"type":"Point"},"properties":{"osm_id":"4093764160","tag":{"leaf_cycle":"deciduous","leaf_type":"broadleaved","natural":"tree"}},"type":"Feature"},
	{"geometry":{"coordinates":[10.51821,52.265356],"type":"Point"},"properties":{"osm_id":"4093764161","tag":{"leaf_cycle":"deciduous","leaf_type":"broadleaved","natural":"tree"}},"type":"Feature"},
	{"geometry":{"coordinates":[10.518272,52.265296],"type":"Point"},"properties":{"osm_id":"4093764162","tag":{"natural":"tree"}},"type":"Feature"},
	{"geometry":{"coordinates":[10.518332,52.265232],"type":"Point"},"properties":{"osm_id":"4093764163","tag":{"natural":"tree"}},"type":"Feature"},
	{"geometry":{"coordinates":[10.518378,52.265179],"type":"Point"},"properties":{"osm_id":"4093764164","tag":{"leaf_cycle":"deciduous","leaf_type":"broadleaved","natural":"tree"}},"type":"Feature"},
	{"geometry":{"coordinates":[10.518325,52.265079],"type":"Point"},"properties":{"osm_id":"4093764165","tag":{"leaf_cycle":"deciduous","leaf_type":"broadleaved","natural":"tree"}},"type":"Feature"},
	{"geometry":{"coordinates":[10.518196,52.265057],"type":"Point"},"properties":{"osm_id":"4093764166","tag":{"leaf_cycle":"deciduous","leaf_type":"broadleaved","natural":"tree"}},"type":"Feature"},
	{"geometry":{"coordinates":[10.518015,52.265021],"type":"Point"},"properties":{"osm_id":"4093764167","tag":{"leaf_cycle":"deciduous","leaf_type":"broadleaved","natural":"tree"}},"type":"Feature"},
	{"geometry":{"coordinates":[10.517835,52.264985],"type":"Point"},"properties":{"osm_id":"4093764168","tag":{"leaf_cycle":"deciduous","leaf_type":"broadleaved","natural":"tree"}},"type":"Feature"},
	{"geometry":{"coordinates":[10.517668,52.264947],"type":"Point"},"properties":{"osm_id":"4093764169","tag":{"leaf_cycle":"deciduous","leaf_type":"broadleaved","natural":"tree"}},"type":"Feature"},
	{"geometry":{"coordinates":[10.517713,52.26487],"type":"Point"},"properties":{"osm_id":"4093764170","tag":{"leaf_cycle":"deciduous","leaf_type":"broadleaved","natural":"tree"}},"type":"Feature"},
	{"geometry":{"coordinates":[10.517879,52.264895],"type":"Point"},"properties":{"osm_id":"4093764171","tag":{"leaf_cycle":"deciduous","leaf_type":"broadleaved","natural":"tree"}},"type":"Feature"},
	{"geometry":{"coordinates":[10.518029,52.264934],"type":"Point"},"properties":{"osm_id":"4093764172","tag":{"leaf_cycle":"deciduous","leaf_type":"broadleaved","natural":"tree"}},"type":"Feature"},
	{"geometry":{"coordinates":[10.518247,52.264972],"type":"Point"},"properties":{"osm_id":"4093764173","tag":{"leaf_cycle":"deciduous","leaf_type":"broadleaved","natural":"tree"}},"type":"Feature"},
	{"geometry":{"coordinates":[10.518373,52.263831],"type":"Point"},"properties":{"osm_id":"4093764174","tag":{"leaf_cycle":"deciduous","leaf_type":"broadleaved","natural":"tree"}},"type":"Feature"},
	{"geometry":{"coordinates":[10.518684,52.263864],"type":"Point"},"properties":{"osm_id":"4093764175","tag":{"leaf_cycle":"deciduous","leaf_type":"broadleaved","natural":"tree"}},"type":"Feature"},
	{"geometry":{"coordinates":[10.51893,52.263899],"type":"Point"},"properties":{"osm_id":"4093764176","tag":{"leaf_cycle":"deciduous","leaf_type":"broadleaved","natural":"tree"}},"type":"Feature"},
	{"geometry":{"coordinates":[10.519059,52.263814],"type":"Point"},"properties":{"osm_id":"4093764177","tag":{"leaf_cycle":"deciduous","leaf_type":"broadleaved","natural":"tree"}},"type":"Feature"},
	{"geometry":{"coordinates":[10.519256,52.26411],"type":"Point"},"properties":{"osm_id":"4093764178","tag":{"leaf_cycle":"deciduous","leaf_type":"broadleaved","natural":"tree"}},"type":"Feature"},
	{"geometry":{"coordinates":[10.519707,52.264214],"type":"Point"},"properties":{"osm_id":"4093764179","tag":{"leaf_cycle":"deciduous","leaf_type":"broadleaved","natural":"tree"}},"type":"Feature"},
	{"geometry":{"coordinates":[10.520243,52.264307],"type":"Point"},"properties":{"osm_id":"4093764180","tag":{"leaf_cycle":"deciduous","leaf_type":"broadleaved","natural":"tree"}},"type":"Feature"},
	{"geometry":{"coordinates":[10.5205,52.26434],"type":"Point"},"properties":{"osm_id":"4093764181","tag":{"leaf_cycle":"deciduous","leaf_type":"broadleaved","natural":"tree"}},"type":"Feature"},
	{"geometry":{"coordinates":[10.519949,52.264265],"type":"Point"},"properties":{"osm_id":"4093764182","tag":{"leaf_cycle":"deciduous","leaf_type":"broadleaved","natural":"tree"}},"type":"Feature"},
	{"geometry":{"coordinates":[10.519473,52.264164],"type":"Point"},"properties":{"osm_id":"4093764183","tag":{"leaf_cycle":"deciduous","leaf_type":"broadleaved","natural":"tree"}},"type":"Feature"},
	{"geometry":{"coordinates":[10.520778,52.265407],"type":"Point"},"properties":{"osm_id":"4093764184","tag":{"leaf_cycle":"deciduous","leaf_type":"broadleaved","natural":"tree"}},"type":"Feature"},
	{"geometry":{"coordinates":[10.521324,52.265366],"type":"Point"},"properties":{"osm_id":"4093764185","tag":{"leaf_cycle":"deciduous","leaf_type":"broadleaved","natural":"tree"}},"type":"Feature"},
	{"geometry":{"coordinates":[10.5211,52.26538],"type":"Point"},"properties":{"osm_id":"4093764186","tag":{"leaf_cycle":"deciduous","leaf_type":"broadleaved","natural":"tree"}},"type":"Feature"},
	{"geometry":{"coordinates":[10.52094,52.265397],"type":"Point"},"properties":{"osm_id":"4093764187","tag":{"leaf_cycle":"deciduous","leaf_type":"broadleaved","natural":"tree"}},"type":"Feature"},
	{"geometry":{"coordinates":[10.521606,52.265351],"type":"Point"},"properties":{"osm_id":"4093764188","tag":{"leaf_cycle":"deciduous","leaf_type":"broadleaved","natural":"tree"}},"type":"Feature"},
	{"geometry":{"coordinates":[10.521712,52.265353],"type":"Point"},"properties":{"osm_id":"4093767689","tag":{"leaf_cycle":"deciduous","leaf_type":"broadleaved","natural":"tree"}},"type":"Feature"},
	{"geometry":{"coordinates":[10.521816,52.265358],"type":"Point"},"properties":{"osm_id":"4093767690","tag":{"leaf_cycle":"deciduous","leaf_type":"broadleaved","natural":"tree"}},"type":"Feature"},
	{"geometry":{"coordinates":[10.521924,52.265356],"type":"Point"},"properties":{"osm_id":"4093767691","tag":{"leaf_cycle":"deciduous","leaf_type":"broadleaved","natural":"tree"}},"type":"Feature"},
	{"geometry":{"coordinates":[10.522032,52.265358],"type":"Point"},"properties":{"osm_id":"4093767692","tag":{"leaf_cycle":"deciduous","leaf_type":"broadleaved","natural":"tree"}},"type":"Feature"},
	{"geometry":{"coordinates":[10.522145,52.265353],"type":"Point"},"properties":{"osm_id":"4093767693","tag":{"leaf_cycle":"deciduous","leaf_type":"broadleaved","natural":"tree"}},"type":"Feature"},
	{"geometry":{"coordinates":[10.522333,52.265349],"type":"Point"},"properties":{"osm_id":"4093767694","tag":{"leaf_cycle":"deciduous","leaf_type":"broadleaved","natural":"tree"}},"type":"Feature"},
	{"geometry":{"coordinates":[10.52231,52.265427],"type":"Point"},"properties":{"osm_id":"4093767695","tag":{"leaf_cycle":"deciduous","leaf_type":"broadleaved","natural":"tree"}},"type":"Feature"},
	{"geometry":{"coordinates":[10.522453,52.265454],"type":"Point"},"properties":{"osm_id":"4093767696","tag":{"leaf_cycle":"deciduous","leaf_type":"broadleaved","natural":"tree"}},"type":"Feature"},
	{"geometry":{"coordinates":[10.522719,52.265406],"type":"Point"},"properties":{"osm_id":"4093767697","tag":{"leaf_cycle":"deciduous","leaf_type":"broadleaved","natural":"tree"}},"type":"Feature"},
	{"geometry":{"coordinates":[10.522614,52.265376],"type":"Point"},"properties":{"osm_id":"4093767698","tag":{"leaf_cycle":"deciduous","leaf_type":"broadleaved","natural":"tree"}},"type":"Feature"},
	{"geometry":{"coordinates":[10.522537,52.265317],"type":"Point"},"properties":{"osm_id":"4093767699","tag":{"leaf_cycle":"deciduous","leaf_type":"broadleaved","natural":"tree"}},"type":"Feature"},
	{"geometry":{"coordinates":[10.522717,52.265476],"type":"Point"},"properties":{"osm_id":"4093767700","tag":{"leaf_cycle":"deciduous","leaf_type":"broadleaved","natural":"tree"}},"type":"Feature"},
	{"geometry":{"coordinates":[10.522781,52.265474],"type":"Point"},"properties":{"osm_id":"4093767701","tag":{"leaf_cycle":"deciduous","leaf_type":"broadleaved","natural":"tree"}},"type":"Feature"},
	{"geometry":{"coordinates":[10.523312,52.265524],"type":"Point"},"properties":{"osm_id":"4093767702","tag":{"leaf_cycle":"deciduous","leaf_type":"broadleaved","natural":"tree"}},"type":"Feature"},
	{"geometry":{"coordinates":[10.524177,52.265547],"type":"Point"},"properties":{"osm_id":"4093767703","tag":{"leaf_cycle":"deciduous","leaf_type":"broadleaved","natural":"tree"}},"type":"Feature"},
	{"geometry":{"coordinates":[10.524386,52.265712],"type":"Point"},"properties":{"osm_id":"4093767704","tag":{"leaf_cycle":"deciduous","leaf_type":"broadleaved","natural":"tree"}},"type":"Feature"},
	{"geometry":{"coordinates":[10.524481,52.265548],"type":"Point"},"properties":{"osm_id":"4093767705","tag":{"leaf_cycle":"deciduous","leaf_type":"broadleaved","natural":"tree"}},"type":"Feature"},
	{"geometry":{"coordinates":[10.524331,52.265558],"type":"Point"},"properties":{"osm_id":"4093767706","tag":{"leaf_cycle":"deciduous","leaf_type":"broadleaved","natural":"tree"}},"type":"Feature"},
	{"geometry":{"coordinates":[10.524439,52.265641],"type":"Point"},"properties":{"osm_id":"4093767707","tag":{"leaf_cycle":"deciduous","leaf_type":"broadleaved","natural":"tree"}},"type":"Feature"},
	{"geometry":{"coordinates":[10.524308,52.265636],"type":"Point"},"properties":{"osm_id":"4093767708","tag":{"leaf_cycle":"deciduous","leaf_type":"broadleaved","natural":"tree"}},"type":"Feature"},
	{"geometry":{"coordinates":[10.524382,52.265306],"type":"Point"},"properties":{"osm_id":"4093767709","tag":{"leaf_cycle":"deciduous","leaf_type":"broadleaved","natural":"tree"}},"type":"Feature"},
	{"geometry":{"coordinates":[10.519291,52.263582],"type":"Point"},"properties":{"osm_id":"4093767710","tag":{"leaf_cycle":"deciduous","leaf_type":"broadleaved","natural":"tree"}},"type":"Feature"},
	{"geometry":{"coordinates":[10.519296,52.263524],"type":"Point"},"properties":{"osm_id":"4093767711","tag":{"leaf_cycle":"deciduous","leaf_type":"broadleaved","natural":"tree"}},"type":"Feature"},
	{"geometry":{"coordinates":[10.519305,52.263466],"type":"Point"},"properties":{"osm_id":"4093767712","tag":{"leaf_cycle":"deciduous","leaf_type":"broadleaved","natural":"tree"}},"type":"Feature"},
	{"geometry":{"coordinates":[10.519211,52.263339],"type":"Point"},"properties":{"osm_id":"4093767713","tag":{"leaf_cycle":"deciduous","leaf_type":"broadleaved","natural":"tree"}},"type":"Feature"},
	{"geometry":{"coordinates":[10.519217,52.263289],"type":"Point"},"properties":{"osm_id":"4093767714","tag":{"leaf_cycle":"deciduous","leaf_type":"broadleaved","natural":"tree"}},"type":"Feature"},
	{"geometry":{"coordinates":[10.518017,52.264188],"type":"Point"},"properties":{"osm_id":"4093767715","tag":{"natural":"tree"}},"type":"Feature"},
	{"geometry":{"coordinates":[10.51989,52.23811],"type":"Point"},"properties":{"osm_id":"4095955295","tag":{"natural":"tree"}},"type":"Feature"},
	{"geometry":{"coordinates":[10.519685,52.238232],"type":"Point"},"properties":{"osm_id":"4095955296","tag":{"natural":"tree"}},"type":"Feature"},
	{"geometry":{"coordinates":[10.519749,52.238443],"type":"Point"},"properties":{"osm_id":"4095955297","tag":{"natural":"tree"}},"type":"Feature"},
	{"geometry":{"coordinates":[10.523614,52.238465],"type":"Point"},"properties":{"osm_id":"4095955298","tag":{"natural":"tree"}},"type":"Feature"},
	{"geometry":{"coordinates":[10.520162,52.238561],"type":"Point"},"properties":{"osm_id":"4095955301","tag":{"natural":"tree"}},"type":"Feature"},
	{"geometry":{"coordinates":[10.523636,52.238751],"type":"Point"},"properties":{"osm_id":"4095955304","tag":{"natural":"tree"}},"type":"Feature"},
	{"geometry":{"coordinates":[10.524135,52.238805],"type":"Point"},"properties":{"osm_id":"4095955306","tag":{"denotation":"park","leaf_cycle":"deciduous","leaf_type":"broadleaved","natural":"tree"}},"type":"Feature"},
	{"geometry":{"coordinates":[10.524091,52.239031],"type":"Point"},"properties":{"osm_id":"4095955308","tag":{"denotation":"park","leaf_cycle":"deciduous","leaf_type":"broadleaved","natural":"tree"}},"type":"Feature"},
	{"geometry":{"coordinates":[10.523926,52.23909],"type":"Point"},"properties":{"osm_id":"4095955310","tag":{"natural":"tree"}},"type":"Feature"},
	{"geometry":{"coordinates":[10.519287,52.2392],"type":"Point"},"properties":{"osm_id":"4095955311","tag":{"natural":"tree"}},"type":"Feature"},
	{"geometry":{"coordinates":[10.524678,52.239254],"type":"Point"},"properties":{"osm_id":"4095955313","tag":{"denotation":"park","leaf_cycle":"deciduous","leaf_type":"broadleaved","natural":"tree"}},"type":"Feature"},
	{"geometry":{"coordinates":[10.519182,52.23956],"type":"Point"},"properties":{"osm_id":"4095955317","tag":{"natural":"tree"}},"type":"Feature"},
	{"geometry":{"coordinates":[10.519398,52.23958],"type":"Point"},"properties":{"osm_id":"4095955319","tag":{"natural":"tree"}},"type":"Feature"},
	{"geometry":{"coordinates":[10.524116,52.239655],"type":"Point"},"properties":{"osm_id":"4095955320","tag":{"natural":"tree"}},"type":"Feature"},
	{"geometry":{"coordinates":[10.519245,52.239732],"type":"Point"},"properties":{"osm_id":"4095955322","tag":{"natural":"tree"}},"type":"Feature"},
	{"geometry":{"coordinates":[10.524516,52.239748],"type":"Point"},"properties":{"osm_id":"4095955323","tag":{"natural":"tree"}},"type":"Feature"},
	{"geometry":{"coordinates":[10.520709,52.239809],"type":"Point"},"properties":{"osm_id":"4095955325","tag":{"natural":"tree"}},"type":"Feature"},
	{"geometry":{"coordinates":[10.524705,52.239811],"type":"Point"},"properties":{"osm_id":"4095955326","tag":{"natural":"tree"}},"type":"Feature"},
	{"geometry":{"coordinates":[10.524479,52.239826],"type":"Point"},"properties":{"osm_id":"4095955327","tag":{"natural":"tree"}},"type":"Feature"},
	{"geometry":{"coordinates":[10.520874,52.239913],"type":"Point"},"properties":{"osm_id":"4095955328","tag":{"natural":"tree"}},"type":"Feature"},
	{"geometry":{"coordinates":[10.519411,52.239938],"type":"Point"},"properties":{"osm_id":"4095955329","tag":{"natural":"tree"}},"type":"Feature"},
	{"geometry":{"coordinates":[10.51995,52.240085],"type":"Point"},"properties":{"osm_id":"4095955332","tag":{"natural":"tree"}},"type":"Feature"},
	{"geometry":{"coordinates":[10.522509,52.240132],"type":"Point"},"properties":{"osm_id":"4095955333","tag":{"natural":"tree"}},"type":"Feature"},
	{"geometry":{"coordinates":[10.523304,52.240142],"type":"Point"},"properties":{"osm_id":"4095955334","tag":{"natural":"tree"}},"type":"Feature"},
	{"geometry":{"coordinates":[10.519422,52.240172],"type":"Point"},"properties":{"osm_id":"4095955335","tag":{"natural":"tree"}},"type":"Feature"},
	{"geometry":{"coordinates":[10.524495,52.24021],"type":"Point"},"properties":{"osm_id":"4095955336","tag":{"natural":"tree"}},"type":"Feature"},
	{"geometry":{"coordinates":[10.519649,52.240233],"type":"Point"},"properties":{"osm_id":"4095955337","tag":{"natural":"tree"}},"type":"Feature"},
	{"geometry":{"coordinates":[10.523177,52.240251],"type":"Point"},"properties":{"osm_id":"4095955338","tag":{"natural":"tree"}},"type":"Feature"},
	{"geometry":{"coordinates":[10.523851,52.240333],"type":"Point"},"properties":{"osm_id":"4095955339","tag":{"natural":"tree"}},"type":"Feature"},
	{"geometry":{"coordinates":[10.522835,52.24037],"type":"Point"},"properties":{"osm_id":"4095955340","tag":{"natural":"tree"}},"type":"Feature"},
	{"geometry":{"coordinates":[10.524428,52.240385],"type":"Point"},"properties":{"osm_id":"4095955341","tag":{"natural":"tree"}},"type":"Feature"},
	{"geometry":{"coordinates":[10.524064,52.240499],"type":"Point"},"properties":{"osm_id":"4095955342","tag":{"natural":"tree"}},"type":"Feature"},
	{"geometry":{"coordinates":[10.524347,52.240551],"type":"Point"},"properties":{"osm_id":"4095955343","tag":{"denotation":"park","leaf_cycle":"deciduous","leaf_type":"broadleaved","natural":"tree"}},"type":"Feature"},
	{"geometry":{"coordinates":[10.521123,52.248594],"type":"Point"},"properties":{"osm_id":"4095972650","tag":{"leaf_cycle":"deciduous","leaf_type":"broadleaved","natural":"tree"}},"type":"Feature"},
	{"geometry":{"coordinates":[10.520514,52.248654],"type":"Point"},"properties":{"osm_id":"4095972651","tag":{"leaf_cycle":"deciduous","leaf_type":"broadleaved","natural":"tree"}},"type":"Feature"},
	{"geometry":{"coordinates":[10.5214,52.248672],"type":"Point"},"properties":{"osm_id":"4095972652","tag":{"leaf_cycle":"deciduous","leaf_type":"broadleaved","natural":"tree"}},"type":"Feature"},
	{"geometry":{"coordinates":[10.520774,52.248688],"type":"Point"},"properties":{"osm_id":"4095972653","tag":{"leaf_cycle":"deciduous","leaf_type":"broadleaved","natural":"tree"}},"type":"Feature"},
	{"geometry":{"coordinates":[10.522021,52.248697],"type":"Point"},"properties":{"osm_id":"4095972654","tag":{"leaf_cycle":"deciduous","leaf_type":"broadleaved","natural":"tree"}},"type":"Feature"},
	{"geometry":{"coordinates":[10.521152,52.248708],"type":"Point"},"properties":{"osm_id":"4095972655","tag":{"leaf_cycle":"evergreen","leaf_type":"needleleaved","natural":"tree"}},"type":"Feature"},
	{"geometry":{"coordinates":[10.520217,52.248743],"type":"Point"},"properties":{"osm_id":"4095972656","tag":{"leaf_cycle":"deciduous","leaf_type":"broadleaved","natural":"tree"}},"type":"Feature"},
	{"geometry":{"coordinates":[10.520717,52.248766],"type":"Point"},"properties":{"osm_id":"4095972657","tag":{"leaf_cycle":"deciduous","leaf_type":"broadleaved","natural":"tree"}},"type":"Feature"},
	{"geometry":{"coordinates":[10.521546,52.248833],"type":"Point"},"properties":{"osm_id":"4095972658","tag":{"leaf_cycle":"evergreen","leaf_type":"needleleaved","natural":"tree"}},"type":"Feature"},
	{"geometry":{"coordinates":[10.521746,52.248841],"type":"Point"},"properties":{"osm_id":"4095972659","tag":{"leaf_cycle":"evergreen","leaf_type":"needleleaved","natural":"tree"}},"type":"Feature"},
	{"geometry":{"coordinates":[10.521202,52.248868],"type":"Point"},"properties":{"osm_id":"4095972660","tag":{"leaf_cycle":"deciduous","leaf_type":"broadleaved","natural":"tree"}},"type":"Feature"},
	{"geometry":{"coordinates":[10.523591,52.248874],"type":"Point"},"properties":{"osm_id":"4095972661","tag":{"leaf_cycle":"evergreen","leaf_type":"needleleaved","natural":"tree"}},"type":"Feature"},
	{"geometry":{"coordinates":[10.520161,52.248896],"type":"Point"},"properties":{"osm_id":"4095972662","tag":{"leaf_cycle":"deciduous","leaf_type":"broadleaved","natural":"tree"}},"type":"Feature"},
	{"geometry":{"coordinates":[10.520601,52.248903],"type":"Point"},"properties":{"osm_id":"4095972663","tag":{"leaf_cycle":"deciduous","leaf_type":"broadleaved","natural":"tree"}},"type":"Feature"},
	{"geometry":{"coordinates":[10.523256,52.248907],"type":"Point"},"properties":{"osm_id":"4095972664","tag":{"leaf_cycle":"evergreen","leaf_type":"needleleaved","natural":"tree"}},"type":"Feature"},
	{"geometry":{"coordinates":[10.520956,52.248942],"type":"Point"},"properties":{"osm_id":"4095972665","tag":{"leaf_cycle":"evergreen","leaf_type":"needleleaved","natural":"tree"}},"type":"Feature"},
	{"geometry":{"coordinates":[10.521963,52.248957],"type":"Point"},"properties":{"osm_id":"4095972666","tag":{"leaf_cycle":"deciduous","leaf_type":"broadleaved","natural":"tree"}},"type":"Feature"},
	{"geometry":{"coordinates":[10.522307,52.248988],"type":"Point"},"properties":{"osm_id":"4095972667","tag":{"leaf_cycle":"evergreen","leaf_type":"needleleaved","natural":"tree"}},"type":"Feature"},
	{"geometry":{"coordinates":[10.521544,52.248998],"type":"Point"},"properties":{"osm_id":"4095972668","tag":{"leaf_cycle":"deciduous","leaf_type":"broadleaved","natural":"tree"}},"type":"Feature"},
	{"geometry":{"coordinates":[10.520822,52.249001],"type":"Point"},"properties":{"osm_id":"4095972669","tag":{"leaf_cycle":"deciduous","leaf_type":"broadleaved","natural":"tree"}},"type":"Feature"},
	{"geometry":{"coordinates":[10.520459,52.249022],"type":"Point"},"properties":{"osm_id":"4095972670","tag":{"leaf_cycle":"deciduous","leaf_type":"broadleaved","natural":"tree"}},"type":"Feature"},
	{"geometry":{"coordinates":[10.522835,52.249029],"type":"Point"},"properties":{"osm_id":"4095972671","tag":{"leaf_cycle":"deciduous","leaf_type":"broadleaved","natural":"tree"}},"type":"Feature"},
	{"geometry":{"coordinates":[10.522677,52.249057],"type":"Point"},"properties":{"osm_id":"4095972672","tag":{"leaf_cycle":"deciduous","leaf_type":"broadleaved","natural":"tree"}},"type":"Feature"},
	{"geometry":{"coordinates":[10.52122,52.249064],"type":"Point"},"properties":{"osm_id":"4095972673","tag":{"leaf_cycle":"evergreen","leaf_type":"needleleaved","natural":"tree"}},"type":"Feature"},
	{"geometry":{"coordinates":[10.523771,52.249068],"type":"Point"},"properties":{"osm_id":"4095972674","tag":{"leaf_cycle":"evergreen","leaf_type":"needleleaved","natural":"tree"}},"type":"Feature"},
	{"geometry":{"coordinates":[10.521573,52.249086],"type":"Point"},"properties":{"osm_id":"4095972675","tag":{"leaf_cycle":"evergreen","leaf_type":"needleleaved","natural":"tree"}},"type":"Feature"},
	{"geometry":{"coordinates":[10.521387,52.249087],"type":"Point"},"properties":{"osm_id":"4095972676","tag":{"leaf_cycle":"evergreen","leaf_type":"needleleaved","natural":"tree"}},"type":"Feature"},
	{"geometry":{"coordinates":[10.524033,52.249156],"type":"Point"},"properties":{"osm_id":"4095972677","tag":{"leaf_cycle":"deciduous","leaf_type":"broadleaved","natural":"tree"}},"type":"Feature"},
	{"geometry":{"coordinates":[10.521738,52.249171],"type":"Point"},"properties":{"osm_id":"4095972678","tag":{"leaf_cycle":"evergreen","leaf_type":"needleleaved","natural":"tree"}},"type":"Feature"},
	{"geometry":{"coordinates":[10.523022,52.249216],"type":"Point"},"properties":{"osm_id":"4095972679","tag":{"leaf_cycle":"evergreen","leaf_type":"needleleaved","natural":"tree"}},"type":"Feature"},
	{"geometry":{"coordinates":[10.523205,52.24922],"type":"Point"},"properties":{"osm_id":"4095972680","tag":{"leaf_cycle":"evergreen","leaf_type":"needleleaved","natural":"tree"}},"type":"Feature"},
	{"geometry":{"coordinates":[10.523612,52.249221],"type":"Point"},"properties":{"osm_id":"4095972681","tag":{"leaf_cycle":"evergreen","leaf_type":"needleleaved","natural":"tree"}},"type":"Feature"},
	{"geometry":{"coordinates":[10.523322,52.249222],"type":"Point"},"properties":{"osm_id":"4095972682","tag":{"leaf_cycle":"evergreen","leaf_type":"needleleaved","natural":"tree"}},"type":"Feature"},
	{"geometry":{"coordinates":[10.523166,52.249249],"type":"Point"},"properties":{"osm_id":"4095972683","tag":{"leaf_cycle":"evergreen","leaf_type":"needleleaved","natural":"tree"}},"type":"Feature"},
	{"geometry":{"coordinates":[10.523022,52.249251],"type":"Point"},"properties":{"osm_id":"4095972684","tag":{"leaf_cycle":"evergreen","leaf_type":"needleleaved","natural":"tree"}},"type":"Feature"},
	{"geometry":{"coordinates":[10.52324,52.249266],"type":"Point"},"properties":{"osm_id":"4095972685","tag":{"leaf_cycle":"evergreen","leaf_type":"needleleaved","natural":"tree"}},"type":"Feature"},
	{"geometry":{"coordinates":[10.521475,52.24927],"type":"Point"},"properties":{"osm_id":"4095972686","tag":{"leaf_cycle":"evergreen","leaf_type":"needleleaved","natural":"tree"}},"type":"Feature"},
	{"geometry":{"coordinates":[10.524165,52.249275],"type":"Point"},"properties":{"osm_id":"4095972687","tag":{"leaf_cycle":"evergreen","leaf_type":"needleleaved","natural":"tree"}},"type":"Feature"},
	{"geometry":{"coordinates":[10.523164,52.249309],"type":"Point"},"properties":{"osm_id":"4095972688","tag":{"leaf_cycle":"evergreen","leaf_type":"needleleaved","natural":"tree"}},"type":"Feature"},
	{"geometry":{"coordinates":[10.522655,52.24931],"type":"Point"},"properties":{"osm_id":"4095973089","tag":{"leaf_cycle":"deciduous","leaf_type":"broadleaved","natural":"tree"}},"type":"Feature"},
	{"geometry":{"coordinates":[10.523043,52.249326],"type":"Point"},"properties":{"osm_id":"4095973090","tag":{"leaf_cycle":"evergreen","leaf_type":"needleleaved","natural":"tree"}},"type":"Feature"},
	{"geometry":{"coordinates":[10.522913,52.249367],"type":"Point"},"properties":{"osm_id":"4095973091","tag":{"leaf_cycle":"evergreen","leaf_type":"needleleaved","natural":"tree"}},"type":"Feature"},
	{"geometry":{"coordinates":[10.523262,52.249368],"type":"Point"},"properties":{"osm_id":"4095973092","tag":{"leaf_cycle":"evergreen","leaf_type":"needleleaved","natural":"tree"}},"type":"Feature"},
	{"geometry":{"coordinates":[10.523004,52.249388],"type":"Point"},"properties":{"osm_id":"4095973093","tag":{"leaf_cycle":"evergreen","leaf_type":"needleleaved","natural":"tree"}},"type":"Feature"},
	{"geometry":{"coordinates":[10.521847,52.249394],"type":"Point"},"properties":{"osm_id":"4095973094","tag":{"leaf_cycle":"deciduous","leaf_type":"broadleaved","natural":"tree"}},"type":"Feature"},
	{"geometry":{"coordinates":[10.522777,52.249415],"type":"Point"},"properties":{"osm_id":"4095973095","tag":{"leaf_cycle":"evergreen","leaf_type":"needleleaved","natural":"tree"}},"type":"Feature"},
	{"geometry":{"coordinates":[10.522914,52.249415],"type":"Point"},"properties":{"osm_id":"4095973096","tag":{"leaf_cycle":"evergreen","leaf_type":"needleleaved","natural":"tree"}},"type":"Feature"},
	{"geometry":{"coordinates":[10.522437,52.249418],"type":"Point"},"properties":{"osm_id":"4095973097","tag":{"leaf_cycle":"deciduous","leaf_type":"broadleaved","natural":"tree"}},"type":"Feature"},
	{"geometry":{"coordinates":[10.523629,52.24946],"type":"Point"},"properties":{"osm_id":"4095973098","tag":{"leaf_cycle":"evergreen","leaf_type":"needleleaved","natural":"tree"}},"type":"Feature"},
	{"geometry":{"coordinates":[10.522905,52.249477],"type":"Point"},"properties":{"osm_id":"4095973099","tag":{"leaf_cycle":"evergreen","leaf_type":"needleleaved","natural":"tree"}},"type":"Feature"},
	{"geometry":{"coordinates":[10.522815,52.249753],"type":"Point"},"properties":{"osm_id":"4095973100","tag":{"leaf_cycle":"evergreen","leaf_type":"needleleaved","natural":"tree"}},"type":"Feature"},
	{"geometry":{"coordinates":[10.522744,52.249809],"type":"Point"},"properties":{"osm_id":"4095973101","tag":{"leaf_cycle":"evergreen","leaf_type":"needleleaved","natural":"tree"}},"type":"Feature"},
	{"geometry":{"coordinates":[10.519761,52.262554],"type":"Point"},"properties":{"osm_id":"4131154625","tag":{"leaf_cycle":"deciduous","leaf_type":"broadleaved","natural":"tree"}},"type":"Feature"},
	{"geometry":{"coordinates":[10.51972,52.262337],"type":"Point"},"properties":{"osm_id":"4131154626","tag":{"leaf_cycle":"deciduous","leaf_type":"broadleaved","natural":"tree"}},"type":"Feature"},
	{"geometry":{"coordinates":[10.519875,52.262421],"type":"Point"},"properties":{"osm_id":"4131154627","tag":{"leaf_cycle":"deciduous","leaf_type":"broadleaved","natural":"tree"}},"type":"Feature"},
	{"geometry":{"coordinates":[10.520493,52.262441],"type":"Point"},"properties":{"osm_id":"4131154628","tag":{"leaf_cycle":"deciduous","leaf_type":"broadleaved","natural":"tree"}},"type":"Feature"},
	{"geometry":{"coordinates":[10.520308,52.262206],"type":"Point"},"properties":{"osm_id":"4131154629","tag":{"leaf_cycle":"deciduous","leaf_type":"broadleaved","natural":"tree"}},"type":"Feature"},
	{"geometry":{"coordinates":[10.52019,52.262171],"type":"Point"},"properties":{"osm_id":"4131154630","tag":{"leaf_cycle":"deciduous","leaf_type":"broadleaved","natural":"tree"}},"type":"Feature"},
	{"geometry":{"coordinates":[10.520058,52.26213],"type":"Point"},"properties":{"osm_id":"4131154631","tag":{"leaf_cycle":"deciduous","leaf_type":"broadleaved","natural":"tree"}},"type":"Feature"},
	{"geometry":{"coordinates":[10.520009,52.261951],"type":"Point"},"properties":{"osm_id":"4131154632","tag":{"leaf_cycle":"deciduous","leaf_type":"broadleaved","natural":"tree"}},"type":"Feature"},
	{"geometry":{"coordinates":[10.520096,52.261877],"type":"Point"},"properties":{"osm_id":"4131154633","tag":{"leaf_cycle":"deciduous","leaf_type":"broadleaved","natural":"tree"}},"type":"Feature"},
	{"geometry":{"coordinates":[10.520163,52.261816],"type":"Point"},"properties":{"osm_id":"4131154634","tag":{"leaf_cycle":"deciduous","leaf_type":"broadleaved","natural":"tree"}},"type":"Feature"},
	{"geometry":{"coordinates":[10.520218,52.26176],"type":"Point"},"properties":{"osm_id":"4131154635","tag":{"leaf_cycle":"deciduous","leaf_type":"broadleaved","natural":"tree"}},"type":"Feature"},
	{"geometry":{"coordinates":[10.520295,52.261695],"type":"Point"},"properties":{"osm_id":"4131154636","tag":{"leaf_cycle":"deciduous","leaf_type":"broadleaved","natural":"tree"}},"type":"Feature"},
	{"geometry":{"coordinates":[10.520367,52.261623],"type":"Point"},"properties":{"osm_id":"4131154637","tag":{"leaf_cycle":"deciduous","leaf_type":"broadleaved","natural":"tree"}},"type":"Feature"},
	{"geometry":{"coordinates":[10.520436,52.261491],"type":"Point"},"properties":{"osm_id":"4131154638","tag":{"leaf_cycle":"deciduous","leaf_type":"broadleaved","natural":"tree"}},"type":"Feature"},
	{"geometry":{"coordinates":[10.520436,52.261418],"type":"Point"},"properties":{"osm_id":"4131154639","tag":{"leaf_cycle":"deciduous","leaf_type":"broadleaved","natural":"tree"}},"type":"Feature"},
	{"geometry":{"coordinates":[10.520417,52.261325],"type":"Point"},"properties":{"osm_id":"4131154640","tag":{"leaf_cycle":"deciduous","leaf_type":"broadleaved","natural":"tree"}},"type":"Feature"},
	{"geometry":{"coordinates":[10.520649,52.26145],"type":"Point"},"properties":{"osm_id":"4131154641","tag":{"leaf_cycle":"deciduous","leaf_type":"broadleaved","natural":"tree"}},"type":"Feature"},
	{"geometry":{"coordinates":[10.521952,52.261264],"type":"Point"},"properties":{"osm_id":"4131154642","tag":{"leaf_cycle":"deciduous","leaf_type":"broadleaved","natural":"tree"}},"type":"Feature"},
	{"geometry":{"coordinates":[10.523527,52.26159],"type":"Point"},"properties":{"osm_id":"4131154643","tag":{"leaf_cycle":"deciduous","leaf_type":"broadleaved","natural":"tree"}},"type":"Feature"},
	{"geometry":{"coordinates":[10.523733,52.261616],"type":"Point"},"properties":{"osm_id":"4131154644","tag":{"leaf_cycle":"deciduous","leaf_type":"broadleaved","natural":"tree"}},"type":"Feature"},
	{"geometry":{"coordinates":[10.523359,52.261429],"type":"Point"},"properties":{"osm_id":"4131154649","tag":{"leaf_cycle":"deciduous","leaf_type":"broadleaved","natural":"tree"}},"type":"Feature"},
	{"geometry":{"coordinates":[10.523464,52.261383],"type":"Point"},"properties":{"osm_id":"4131154650","tag":{"leaf_cycle":"deciduous","leaf_type":"broadleaved","natural":"tree"}},"type":"Feature"},
	{"geometry":{"coordinates":[10.523635,52.261387],"type":"Point"},"properties":{"osm_id":"4131154651","tag":{"leaf_cycle":"deciduous","leaf_type":"broadleaved","natural":"tree"}},"type":"Feature"},
	{"geometry":{"coordinates":[10.523962,52.2615],"type":"Point"},"properties":{"osm_id":"4131154652","tag":{"leaf_cycle":"deciduous","leaf_type":"broadleaved","natural":"tree"}},"type":"Feature"},
	{"geometry":{"coordinates":[10.524235,52.261544],"type":"Point"},"properties":{"osm_id":"4131154653","tag":{"leaf_cycle":"deciduous","leaf_type":"broadleaved","natural":"tree"}},"type":"Feature"},
	{"geometry":{"coordinates":[10.524508,52.261552],"type":"Point"},"properties":{"osm_id":"4131154654","tag":{"leaf_cycle":"deciduous","leaf_type":"broadleaved","natural":"tree"}},"type":"Feature"},
	{"geometry":{"coordinates":[10.524767,52.261575],"type":"Point"},"properties":{"osm_id":"4131154655","tag":{"leaf_cycle":"deciduous","leaf_type":"broadleaved","natural":"tree"}},"type":"Feature"},
	{"geometry":{"coordinates":[10.525143,52.261587],"type":"Point"},"properties":{"osm_id":"4131154656","tag":{"leaf_cycle":"deciduous","leaf_type":"broadleaved","natural":"tree"}},"type":"Feature"},
	{"geometry":{"coordinates":[10.525896,52.261396],"type":"Point"},"properties":{"osm_id":"4131154657","tag":{"leaf_cycle":"deciduous","leaf_type":"broadleaved","natural":"tree"}},"type":"Feature"},
	{"geometry":{"coordinates":[10.525906,52.261534],"type":"Point"},"properties":{"osm_id":"4131154658","tag":{"leaf_cycle":"deciduous","leaf_type":"broadleaved","natural":"tree"}},"type":"Feature"},
	{"geometry":{"coordinates":[10.525944,52.261616],"type":"Point"},"properties":{"osm_id":"4131154659","tag":{"leaf_cycle":"deciduous","leaf_type":"broadleaved","natural":"tree"}},"type":"Feature"},
	{"geometry":{"coordinates":[10.525985,52.261697],"type":"Point"},"properties":{"osm_id":"4131154660","tag":{"leaf_cycle":"deciduous","leaf_type":"broadleaved","natural":"tree"}},"type":"Feature"},
	{"geometry":{"coordinates":[10.526018,52.261771],"type":"Point"},"properties":{"osm_id":"4131154661","tag":{"leaf_cycle":"deciduous","leaf_type":"broadleaved","natural":"tree"}},"type":"Feature"},
	{"geometry":{"coordinates":[10.526062,52.261883],"type":"Point"},"properties":{"osm_id":"4131154662","tag":{"leaf_cycle":"deciduous","leaf_type":"broadleaved","natural":"tree"}},"type":"Feature"},
	{"geometry":{"coordinates":[10.526093,52.261958],"type":"Point"},"properties":{"osm_id":"4131154663","tag":{"leaf_cycle":"deciduous","leaf_type":"broadleaved","natural":"tree"}},"type":"Feature"},
	{"geometry":{"coordinates":[10.525526,52.261972],"type":"Point"},"properties":{"osm_id":"4131154664","tag":{"leaf_cycle":"deciduous","leaf_type":"broadleaved","natural":"tree"}},"type":"Feature"},
	{"geometry":{"coordinates":[10.525558,52.262056],"type":"Point"},"properties":{"osm_id":"4131154665","tag":{"leaf_cycle":"deciduous","leaf_type":"broadleaved","natural":"tree"}},"type":"Feature"},
	{"geometry":{"coordinates":[10.525625,52.26229],"type":"Point"},"properties":{"osm_id":"4131154666","tag":{"leaf_cycle":"deciduous","leaf_type":"broadleaved","natural":"tree"}},"type":"Feature"},
	{"geometry":{"coordinates":[10.525648,52.262364],"type":"Point"},"properties":{"osm_id":"4131154667","tag":{"leaf_cycle":"deciduous","leaf_type":"broadleaved","natural":"tree"}},"type":"Feature"},
	{"geometry":{"coordinates":[10.525704,52.26248],"type":"Point"},"properties":{"osm_id":"4131154668","tag":{"leaf_cycle":"deciduous","leaf_type":"broadleaved","natural":"tree"}},"type":"Feature"},
	{"geometry":{"coordinates":[10.525746,52.262573],"type":"Point"},"properties":{"osm_id":"4131154669","tag":{"leaf_cycle":"deciduous","leaf_type":"broadleaved","natural":"tree"}},"type":"Feature"},
	{"geometry":{"coordinates":[10.525789,52.262651],"type":"Point"},"properties":{"osm_id":"4131154670","tag":{"leaf_cycle":"deciduous","leaf_type":"broadleaved","natural":"tree"}},"type":"Feature"},
	{"geometry":{"coordinates":[10.525829,52.26273],"type":"Point"},"properties":{"osm_id":"4131154671","tag":{"leaf_cycle":"deciduous","leaf_type":"broadleaved","natural":"tree"}},"type":"Feature"},
	{"geometry":{"coordinates":[10.525867,52.26281],"type":"Point"},"properties":{"osm_id":"4131154672","tag":{"leaf_cycle":"deciduous","leaf_type":"broadleaved","natural":"tree"}},"type":"Feature"},
	{"geometry":{"coordinates":[10.525983,52.263129],"type":"Point"},"properties":{"osm_id":"4131154673","tag":{"leaf_cycle":"deciduous","leaf_type":"broadleaved","natural":"tree"}},"type":"Feature"},
	{"geometry":{"coordinates":[10.526029,52.26321],"type":"Point"},"properties":{"osm_id":"4131154674","tag":{"leaf_cycle":"deciduous","leaf_type":"broadleaved","natural":"tree"}},"type":"Feature"},
	{"geometry":{"coordinates":[10.526059,52.263284],"type":"Point"},"properties":{"osm_id":"4131154675","tag":{"leaf_cycle":"deciduous","leaf_type":"broadleaved","natural":"tree"}},"type":"Feature"},
	{"geometry":{"coordinates":[10.526092,52.263356],"type":"Point"},"properties":{"osm_id":"4131154676","tag":{"leaf_cycle":"deciduous","leaf_type":"broadleaved","natural":"tree"}},"type":"Feature"},
	{"geometry":{"coordinates":[10.526128,52.263425],"type":"Point"},"properties":{"osm_id":"4131154677","tag":{"leaf_cycle":"deciduous","leaf_type":"broadleaved","natural":"tree"}},"type":"Feature"},
	{"geometry":{"coordinates":[10.526165,52.263501],"type":"Point"},"properties":{"osm_id":"4131154678","tag":{"leaf_cycle":"deciduous","leaf_type":"broadleaved","natural":"tree"}},"type":"Feature"},
	{"geometry":{"coordinates":[10.526245,52.263724],"type":"Point"},"properties":{"osm_id":"4131154679","tag":{"leaf_cycle":"deciduous","leaf_type":"broadleaved","natural":"tree"}},"type":"Feature"},
	{"geometry":{"coordinates":[10.526259,52.263792],"type":"Point"},"properties":{"osm_id":"4131154680","tag":{"leaf_cycle":"deciduous","leaf_type":"broadleaved","natural":"tree"}},"type":"Feature"},
	{"geometry":{"coordinates":[10.526254,52.263871],"type":"Point"},"properties":{"osm_id":"4131154681","tag":{"leaf_cycle":"deciduous","leaf_type":"broadleaved","natural":"tree"}},"type":"Feature"},
	{"geometry":{"coordinates":[10.526256,52.263941],"type":"Point"},"properties":{"osm_id":"4131154682","tag":{"leaf_cycle":"deciduous","leaf_type":"broadleaved","natural":"tree"}},"type":"Feature"},
	{"geometry":{"coordinates":[10.526256,52.264022],"type":"Point"},"properties":{"osm_id":"4131154683","tag":{"leaf_cycle":"deciduous","leaf_type":"broadleaved","natural":"tree"}},"type":"Feature"},
	{"geometry":{"coordinates":[10.527243,52.26263],"type":"Point"},"properties":{"osm_id":"4131154684","tag":{"leaf_cycle":"deciduous","leaf_type":"broadleaved","natural":"tree"}},"type":"Feature"},
	{"geometry":{"coordinates":[10.528656,52.26258],"type":"Point"},"properties":{"osm_id":"4131154685","tag":{"leaf_cycle":"deciduous","leaf_type":"broadleaved","natural":"tree"}},"type":"Feature"},
	{"geometry":{"coordinates":[10.528721,52.262607],"type":"Point"},"properties":{"osm_id":"4131154686","tag":{"leaf_cycle":"deciduous","leaf_type":"broadleaved","natural":"tree"}},"type":"Feature"},
	{"geometry":{"coordinates":[10.528774,52.262629],"type":"Point"},"properties":{"osm_id":"4131154687","tag":{"leaf_cycle":"deciduous","leaf_type":"broadleaved","natural":"tree"}},"type":"Feature"},
	{"geometry":{"coordinates":[10.528828,52.262657],"type":"Point"},"properties":{"osm_id":"4131154688","tag":{"leaf_cycle":"deciduous","leaf_type":"broadleaved","natural":"tree"}},"type":"Feature"},
	{"geometry":{"coordinates":[10.528895,52.262681],"type":"Point"},"properties":{"osm_id":"4131156189","tag":{"leaf_cycle":"deciduous","leaf_type":"broadleaved","natural":"tree"}},"type":"Feature"},
	{"geometry":{"coordinates":[10.52895,52.262711],"type":"Point"},"properties":{"osm_id":"4131156190","tag":{"leaf_cycle":"deciduous","leaf_type":"broadleaved","natural":"tree"}},"type":"Feature"},
	{"geometry":{"coordinates":[10.529001,52.262741],"type":"Point"},"properties":{"osm_id":"4131156191","tag":{"leaf_cycle":"deciduous","leaf_type":"broadleaved","natural":"tree"}},"type":"Feature"},
	{"geometry":{"coordinates":[10.528724,52.262892],"type":"Point"},"properties":{"osm_id":"4131156193","tag":{"denotation":"avenue","height":"10","leaf_cycle":"deciduous","leaf_type":"broadleaved","natural":"tree","species":"Quercus robur 'Fastigiata'","species:de":"Pyramiden-Eiche"}},"type":"Feature"},
	{"geometry":{"coordinates":[10.528781,52.26292],"type":"Point"},"properties":{"osm_id":"4131156194","tag":{"denotation":"avenue","height":"10","leaf_cycle":"deciduous","leaf_type":"broadleaved","natural":"tree","species":"Quercus robur 'Fastigiata'","species:de":"Pyramiden-Eiche"}},"type":"Feature"},
	{"geometry":{"coordinates":[10.528833,52.262949],"type":"Point"},"properties":{"osm_id":"4131156195","tag":{"denotation":"avenue","height":"10","leaf_cycle":"deciduous","leaf_type":"broadleaved","natural":"tree","species":"Quercus robur 'Fastigiata'","species:de":"Pyramiden-Eiche"}},"type":"Feature"},
	{"geometry":{"coordinates":[10.528881,52.262976],"type":"Point"},"properties":{"osm_id":"4131156196","tag":{"denotation":"avenue","height":"10","leaf_cycle":"deciduous","leaf_type":"broadleaved","natural":"tree","species":"Quercus robur 'Fastigiata'","species:de":"Pyramiden-Eiche"}},"type":"Feature"},
	{"geometry":{"coordinates":[10.528925,52.263005],"type":"Point"},"properties":{"osm_id":"4131156197","tag":{"denotation":"avenue","height":"10","leaf_cycle":"deciduous","leaf_type":"broadleaved","natural":"tree","species":"Quercus robur 'Fastigiata'","species:de":"Pyramiden-Eiche"}},"type":"Feature"},
	{"geometry":{"coordinates":[10.528973,52.263029],"type":"Point"},"properties":{"osm_id":"4131156198","tag":{"denotation":"avenue","height":"10","leaf_cycle":"deciduous","leaf_type":"broadleaved","natural":"tree","species":"Quercus robur 'Fastigiata'","species:de":"Pyramiden-Eiche"}},"type":"Feature"},
	{"geometry":{"coordinates":[10.529018,52.263059],"type":"Point"},"properties":{"osm_id":"4131156199","tag":{"denotation":"avenue","height":"10","leaf_cycle":"deciduous","leaf_type":"broadleaved","natural":"tree","species":"Quercus robur 'Fastigiata'","species:de":"Pyramiden-Eiche"}},"type":"Feature"},
	{"geometry":{"coordinates":[10.529069,52.263086],"type":"Point"},"properties":{"osm_id":"4131156200","tag":{"denotation":"avenue","height":"10","leaf_cycle":"deciduous","leaf_type":"broadleaved","natural":"tree","species":"Quercus robur 'Fastigiata'","species:de":"Pyramiden-Eiche"}},"type":"Feature"},
	{"geometry":{"coordinates":[10.529116,52.263113],"type":"Point"},"properties":{"osm_id":"4131156201","tag":{"denotation":"avenue","height":"10","leaf_cycle":"deciduous","leaf_type":"broadleaved","natural":"tree","species":"Quercus robur 'Fastigiata'","species:de":"Pyramiden-Eiche"}},"type":"Feature"},
	{"geometry":{"coordinates":[10.529163,52.26314],"type":"Point"},"properties":{"osm_id":"4131156202","tag":{"denotation":"avenue","height":"10","leaf_cycle":"deciduous","leaf_type":"broadleaved","natural":"tree","species":"Quercus robur 'Fastigiata'","species:de":"Pyramiden-Eiche"}},"type":"Feature"},
	{"geometry":{"coordinates":[10.529212,52.263171],"type":"Point"},"properties":{"osm_id":"4131156203","tag":{"denotation":"avenue","height":"10","leaf_cycle":"deciduous","leaf_type":"broadleaved","natural":"tree","species":"Quercus robur 'Fastigiata'","species:de":"Pyramiden-Eiche"}},"type":"Feature"},
	{"geometry":{"coordinates":[10.529255,52.263201],"type":"Point"},"properties":{"osm_id":"4131156204","tag":{"denotation":"avenue","height":"10","leaf_cycle":"deciduous","leaf_type":"broadleaved","natural":"tree","species":"Quercus robur 'Fastigiata'","species:de":"Pyramiden-Eiche"}},"type":"Feature"},
	{"geometry":{"coordinates":[10.529311,52.263227],"type":"Point"},"properties":{"osm_id":"4131156205","tag":{"denotation":"avenue","height":"10","leaf_cycle":"deciduous","leaf_type":"broadleaved","natural":"tree","species":"Quercus robur 'Fastigiata'","species:de":"Pyramiden-Eiche"}},"type":"Feature"},
	{"geometry":{"coordinates":[10.529355,52.263257],"type":"Point"},"properties":{"osm_id":"4131156206","tag":{"denotation":"avenue","height":"10","leaf_cycle":"deciduous","leaf_type":"broadleaved","natural":"tree","species":"Quercus robur 'Fastigiata'","species:de":"Pyramiden-Eiche"}},"type":"Feature"},
	{"geometry":{"coordinates":[10.5294,52.263288],"type":"Point"},"properties":{"osm_id":"4131156207","tag":{"denotation":"avenue","height":"10","leaf_cycle":"deciduous","leaf_type":"broadleaved","natural":"tree","species":"Quercus robur 'Fastigiata'","species:de":"Pyramiden-Eiche"}},"type":"Feature"},
	{"geometry":{"coordinates":[10.529443,52.263314],"type":"Point"},"properties":{"osm_id":"4131156208","tag":{"denotation":"avenue","height":"10","leaf_cycle":"deciduous","leaf_type":"broadleaved","natural":"tree","species":"Quercus robur 'Fastigiata'","species:de":"Pyramiden-Eiche"}},"type":"Feature"},
	{"geometry":{"coordinates":[10.529486,52.263341],"type":"Point"},"properties":{"osm_id":"4131156209","tag":{"denotation":"avenue","height":"10","leaf_cycle":"deciduous","leaf_type":"broadleaved","natural":"tree","species":"Quercus robur 'Fastigiata'","species:de":"Pyramiden-Eiche"}},"type":"Feature"},
	{"geometry":{"coordinates":[10.529254,52.262909],"type":"Point"},"properties":{"osm_id":"4131156210","tag":{"leaf_cycle":"deciduous","leaf_type":"broadleaved","natural":"tree"}},"type":"Feature"},
	{"geometry":{"coordinates":[10.529332,52.262962],"type":"Point"},"properties":{"osm_id":"4131156211","tag":{"leaf_cycle":"deciduous","leaf_type":"broadleaved","natural":"tree"}},"type":"Feature"},
	{"geometry":{"coordinates":[10.529425,52.263019],"type":"Point"},"properties":{"osm_id":"4131156212","tag":{"leaf_cycle":"deciduous","leaf_type":"broadleaved","natural":"tree"}},"type":"Feature"},
	{"geometry":{"coordinates":[10.529509,52.263077],"type":"Point"},"properties":{"osm_id":"4131156213","tag":{"leaf_cycle":"deciduous","leaf_type":"broadleaved","natural":"tree"}},"type":"Feature"},
	{"geometry":{"coordinates":[10.529588,52.263129],"type":"Point"},"properties":{"osm_id":"4131156214","tag":{"leaf_cycle":"deciduous","leaf_type":"broadleaved","natural":"tree"}},"type":"Feature"},
	{"geometry":{"coordinates":[10.529671,52.263184],"type":"Point"},"properties":{"osm_id":"4131156215","tag":{"leaf_cycle":"deciduous","leaf_type":"broadleaved","natural":"tree"}},"type":"Feature"},
	{"geometry":{"coordinates":[10.529826,52.263572],"type":"Point"},"properties":{"osm_id":"4131156216","tag":{"denotation":"urban","height":"9","leaf_cycle":"deciduous","leaf_type":"broadleaved","natural":"tree","species":"Tilia cordata","species:de":"Winter-Linde"}},"type":"Feature"},
	{"geometry":{"coordinates":[10.530058,52.263709],"type":"Point"},"properties":{"osm_id":"4131156217","tag":{"denotation":"urban","height":"9","leaf_cycle":"deciduous","leaf_type":"broadleaved","natural":"tree","species":"Tilia cordata","species:de":"Winter-Linde"}},"type":"Feature"},
	{"geometry":{"coordinates":[10.530121,52.26426],"type":"Point"},"properties":{"osm_id":"4131156218","tag":{"denotation":"urban","height":"6","leaf_cycle":"deciduous","leaf_type":"broadleaved","natural":"tree","species":"Styphnolobium japonicum","species:de":"Japanischer Schnurbaum"}},"type":"Feature"},
	{"geometry":{"coordinates":[10.530052,52.264423],"type":"Point"},"properties":{"osm_id":"4131156219","tag":{"denotation":"urban","height":"6","leaf_cycle":"deciduous","leaf_type":"broadleaved","natural":"tree","species":"Styphnolobium japonicum","species:de":"Japanischer Schnurbaum"}},"type":"Feature"},
	{"geometry":{"coordinates":[10.530249,52.264477],"type":"Point"},"properties":{"osm_id":"4131156220","tag":{"denotation":"urban","height":"6","leaf_cycle":"deciduous","leaf_type":"broadleaved","natural":"tree","species":"Styphnolobium japonicum","species:de":"Japanischer Schnurbaum"}},"type":"Feature"},
	{"geometry":{"coordinates":[10.530052,52.264515],"type":"Point"},"properties":{"osm_id":"4131156221","tag":{"denotation":"urban","height":"5","leaf_cycle":"deciduous","leaf_type":"broadleaved","natural":"tree","species":"Styphnolobium japonicum","species:de":"Japanischer Schnurbaum"}},"type":"Feature"},
	{"geometry":{"coordinates":[10.5299,52.264806],"type":"Point"},"properties":{"osm_id":"4131156222","tag":{"denotation":"urban","height":"12","leaf_cycle":"deciduous","leaf_type":"broadleaved","natural":"tree","species":"Platanus \u00c3\u0097 hispanica","species:de":"Ahornbl\u00c3\u00a4ttrige Platane"}},"type":"Feature"},
	{"geometry":{"coordinates":[10.530172,52.264876],"type":"Point"},"properties":{"osm_id":"4131156224","tag":{"denotation":"urban","height":"20","leaf_cycle":"deciduous","leaf_type":"broadleaved","natural":"tree","species":"Populus sp.","species:de":"Pappel (nicht n\u00c3\u00a4her bestimmt)"}},"type":"Feature"},
	{"geometry":{"coordinates":[10.530282,52.265005],"type":"Point"},"properties":{"osm_id":"4131156225","tag":{"denotation":"urban","height":"14","leaf_cycle":"deciduous","leaf_type":"broadleaved","natural":"tree","species":"Aesculus hippocastanum","species:de":"Gew\u00c3\u00b6hnliche Rosskastanie"}},"type":"Feature"},
	{"geometry":{"coordinates":[10.529857,52.264993],"type":"Point"},"properties":{"osm_id":"4131156226","tag":{"denotation":"urban","height":"12","leaf_cycle":"deciduous","leaf_type":"broadleaved","natural":"tree","species":"Platanus \u00c3\u0097 hispanica","species:de":"Ahornbl\u00c3\u00a4ttrige Platane"}},"type":"Feature"},
	{"geometry":{"coordinates":[10.528849,52.264895],"type":"Point"},"properties":{"osm_id":"4131156227","tag":{"leaf_cycle":"deciduous","leaf_type":"broadleaved","natural":"tree"}},"type":"Feature"},
	{"geometry":{"coordinates":[10.529101,52.264923],"type":"Point"},"properties":{"osm_id":"4131156228","tag":{"leaf_cycle":"deciduous","leaf_type":"broadleaved","natural":"tree"}},"type":"Feature"},
	{"geometry":{"coordinates":[10.52943,52.264961],"type":"Point"},"properties":{"osm_id":"4131156229","tag":{"leaf_cycle":"deciduous","leaf_type":"broadleaved","natural":"tree"}},"type":"Feature"},
	{"geometry":{"coordinates":[10.507301,52.264422],"type":"Point"},"properties":{"osm_id":"4149855012","tag":{"natural":"tree"}},"type":"Feature"},
	{"geometry":{"coordinates":[10.507368,52.264443],"type":"Point"},"properties":{"osm_id":"4149855013","tag":{"natural":"tree"}},"type":"Feature"},
	{"geometry":{"coordinates":[10.533737,52.251257],"type":"Point"},"properties":{"osm_id":"4271863084","tag":{"height":"5","natural":"tree"}},"type":"Feature"},
	{"geometry":{"coordinates":[10.532031,52.250596],"type":"Point"},"properties":{"osm_id":"4271866871","tag":{"natural":"tree"}},"type":"Feature"},
	{"geometry":{"coordinates":[10.536152,52.251014],"type":"Point"},"properties":{"osm_id":"4273133335","tag":{"natural":"tree"}},"type":"Feature"},
	{"geometry":{"coordinates":[10.536176,52.251098],"type":"Point"},"properties":{"osm_id":"4273133336","tag":{"natural":"tree"}},"type":"Feature"},
	{"geometry":{"coordinates":[10.5362,52.251182],"type":"Point"},"properties":{"osm_id":"4273133337","tag":{"natural":"tree"}},"type":"Feature"},
	{"geometry":{"coordinates":[10.536224,52.251266],"type":"Point"},"properties":{"osm_id":"4273133338","tag":{"natural":"tree"}},"type":"Feature"},
	{"geometry":{"coordinates":[10.536247,52.25135],"type":"Point"},"properties":{"osm_id":"4273133339","tag":{"natural":"tree"}},"type":"Feature"},
	{"geometry":{"coordinates":[10.536271,52.251434],"type":"Point"},"properties":{"osm_id":"4273133340","tag":{"natural":"tree"}},"type":"Feature"},
	{"geometry":{"coordinates":[10.525188,52.248417],"type":"Point"},"properties":{"osm_id":"4320049255","tag":{"leaf_cycle":"deciduous","leaf_type":"broadleaved","natural":"tree"}},"type":"Feature"},
	{"geometry":{"coordinates":[10.525456,52.249179],"type":"Point"},"properties":{"osm_id":"4320049256","tag":{"leaf_cycle":"deciduous","leaf_type":"broadleaved","natural":"tree"}},"type":"Feature"},
	{"geometry":{"coordinates":[10.526105,52.24928],"type":"Point"},"properties":{"osm_id":"4320049257","tag":{"leaf_cycle":"deciduous","leaf_type":"broadleaved","natural":"tree"}},"type":"Feature"},
	{"geometry":{"coordinates":[10.526103,52.249403],"type":"Point"},"properties":{"osm_id":"4320049258","tag":{"leaf_cycle":"deciduous","leaf_type":"broadleaved","natural":"tree"}},"type":"Feature"},
	{"geometry":{"coordinates":[10.526014,52.24952],"type":"Point"},"properties":{"osm_id":"4320049259","tag":{"leaf_cycle":"deciduous","leaf_type":"broadleaved","natural":"tree"}},"type":"Feature"},
	{"geometry":{"coordinates":[10.52621,52.249536],"type":"Point"},"properties":{"osm_id":"4320049260","tag":{"leaf_cycle":"deciduous","leaf_type":"broadleaved","natural":"tree"}},"type":"Feature"},
	{"geometry":{"coordinates":[10.525821,52.249581],"type":"Point"},"properties":{"osm_id":"4320049261","tag":{"leaf_cycle":"deciduous","leaf_type":"broadleaved","natural":"tree"}},"type":"Feature"},
	{"geometry":{"coordinates":[10.52555,52.249653],"type":"Point"},"properties":{"osm_id":"4320049262","tag":{"leaf_cycle":"deciduous","leaf_type":"broadleaved","natural":"tree"}},"type":"Feature"},
	{"geometry":{"coordinates":[10.526315,52.249663],"type":"Point"},"properties":{"osm_id":"4320049263","tag":{"leaf_cycle":"deciduous","leaf_type":"broadleaved","natural":"tree"}},"type":"Feature"},
	{"geometry":{"coordinates":[10.528666,52.249872],"type":"Point"},"properties":{"osm_id":"4320049264","tag":{"leaf_cycle":"deciduous","leaf_type":"broadleaved","natural":"tree"}},"type":"Feature"},
	{"geometry":{"coordinates":[10.526435,52.249891],"type":"Point"},"properties":{"osm_id":"4320049265","tag":{"leaf_cycle":"deciduous","leaf_type":"broadleaved","natural":"tree"}},"type":"Feature"},
	{"geometry":{"coordinates":[10.528966,52.250037],"type":"Point"},"properties":{"osm_id":"4320049266","tag":{"leaf_cycle":"deciduous","leaf_type":"broadleaved","natural":"tree"}},"type":"Feature"},
	{"geometry":{"coordinates":[10.52613,52.250044],"type":"Point"},"properties":{"osm_id":"4320049267","tag":{"leaf_cycle":"deciduous","leaf_type":"broadleaved","natural":"tree"}},"type":"Feature"},
	{"geometry":{"coordinates":[10.524847,52.2501],"type":"Point"},"properties":{"osm_id":"4320049268","tag":{"leaf_cycle":"deciduous","leaf_type":"broadleaved","natural":"tree"}},"type":"Feature"},
	{"geometry":{"coordinates":[10.528924,52.25011],"type":"Point"},"properties":{"osm_id":"4320049269","tag":{"leaf_cycle":"deciduous","leaf_type":"broadleaved","natural":"tree"}},"type":"Feature"},
	{"geometry":{"coordinates":[10.525153,52.250138],"type":"Point"},"properties":{"osm_id":"4320049270","tag":{"leaf_cycle":"deciduous","leaf_type":"broadleaved","natural":"tree"}},"type":"Feature"},
	{"geometry":{"coordinates":[10.525985,52.250221],"type":"Point"},"properties":{"osm_id":"4320049271","tag":{"leaf_cycle":"deciduous","leaf_type":"broadleaved","natural":"tree"}},"type":"Feature"},
	{"geometry":{"coordinates":[10.528109,52.250402],"type":"Point"},"properties":{"osm_id":"4320049272","tag":{"leaf_cycle":"deciduous","leaf_type":"broadleaved","natural":"tree"}},"type":"Feature"},
	{"geometry":{"coordinates":[10.52732,52.250415],"type":"Point"},"properties":{"osm_id":"4320049273","tag":{"leaf_cycle":"deciduous","leaf_type":"broadleaved","natural":"tree"}},"type":"Feature"},
	{"geometry":{"coordinates":[10.527902,52.250469],"type":"Point"},"properties":{"osm_id":"4320049274","tag":{"leaf_cycle":"deciduous","leaf_type":"broadleaved","natural":"tree"}},"type":"Feature"},
	{"geometry":{"coordinates":[10.526884,52.253558],"type":"Point"},"properties":{"osm_id":"4320049275","tag":{"leaf_cycle":"deciduous","leaf_type":"broadleaved","natural":"tree"}},"type":"Feature"},
	{"geometry":{"coordinates":[10.524369,52.266567],"type":"Point"},"properties":{"osm_id":"7884302017","tag":{"denotation":"urban","natural":"tree"}},"type":"Feature"},
	{"geometry":{"coordinates":[10.524471,52.266611],"type":"Point"},"properties":{"osm_id":"7884302018","tag":{"denotation":"urban","natural":"tree"}},"type":"Feature"},
	{"geometry":{"coordinates":[10.5247,52.266523],"type":"Point"},"properties":{"osm_id":"7884302019","tag":{"denotation":"urban","natural":"tree"}},"type":"Feature"},
	{"geometry":{"coordinates":[10.524035,52.266696],"type":"Point"},"properties":{"osm_id":"7884302020","tag":{"denotation":"avenue","leaf_cycle":"deciduous","leaf_type":"broadleaved","natural":"tree","species":"Acer platanoides 'Globosum'","species:de":"Kugelahorn"}},"type":"Feature"},
	{"geometry":{"coordinates":[10.524125,52.266534],"type":"Point"},"properties":{"osm_id":"7884302021","tag":{"denotation":"avenue","leaf_cycle":"deciduous","leaf_type":"broadleaved","natural":"tree","species":"Acer platanoides 'Globosum'","species:de":"Kugelahorn"}},"type":"Feature"},
	{"geometry":{"coordinates":[10.524216,52.266364],"type":"Point"},"properties":{"osm_id":"7884302022","tag":{"denotation":"avenue","leaf_cycle":"deciduous","leaf_type":"broadleaved","natural":"tree","species":"Acer platanoides 'Globosum'","species:de":"Kugelahorn"}},"type":"Feature"},
	{"geometry":{"coordinates":[10.52431,52.266198],"type":"Point"},"properties":{"osm_id":"7884302023","tag":{"denotation":"avenue","leaf_cycle":"deciduous","leaf_type":"broadleaved","natural":"tree","species":"Acer platanoides 'Globosum'","species:de":"Kugelahorn"}},"type":"Feature"},
	{"geometry":{"coordinates":[10.524404,52.266026],"type":"Point"},"properties":{"osm_id":"7884302024","tag":{"denotation":"avenue","leaf_cycle":"deciduous","leaf_type":"broadleaved","natural":"tree","species":"Acer platanoides 'Globosum'","species:de":"Kugelahorn"}},"type":"Feature"},
	{"geometry":{"coordinates":[10.524259,52.266072],"type":"Point"},"properties":{"osm_id":"7884302025","tag":{"denotation":"avenue","leaf_cycle":"deciduous","leaf_type":"broadleaved","natural":"tree","species":"Acer platanoides 'Globosum'","species:de":"Kugelahorn"}},"type":"Feature"},
	{"geometry":{"coordinates":[10.524149,52.266274],"type":"Point"},"properties":{"osm_id":"7884302026","tag":{"denotation":"avenue","leaf_cycle":"deciduous","leaf_type":"broadleaved","natural":"tree","species":"Acer platanoides 'Globosum'","species:de":"Kugelahorn"}},"type":"Feature"},
	{"geometry":{"coordinates":[10.524057,52.266438],"type":"Point"},"properties":{"osm_id":"7884302027","tag":{"denotation":"avenue","leaf_cycle":"deciduous","leaf_type":"broadleaved","natural":"tree","species":"Acer platanoides 'Globosum'","species:de":"Kugelahorn"}},"type":"Feature"},
	{"geometry":{"coordinates":[10.523973,52.266595],"type":"Point"},"properties":{"osm_id":"7884302028","tag":{"denotation":"avenue","leaf_cycle":"deciduous","leaf_type":"broadleaved","natural":"tree","species":"Acer platanoides 'Globosum'","species:de":"Kugelahorn"}},"type":"Feature"},
	{"geometry":{"coordinates":[10.523899,52.266741],"type":"Point"},"properties":{"osm_id":"7884302029","tag":{"denotation":"avenue","leaf_cycle":"deciduous","leaf_type":"broadleaved","natural":"tree","species":"Acer platanoides 'Globosum'","species:de":"Kugelahorn"}},"type":"Feature"},
	{"geometry":{"coordinates":[10.523859,52.26686],"type":"Point"},"properties":{"osm_id":"7884302030","tag":{"denotation":"avenue","leaf_cycle":"deciduous","leaf_type":"broadleaved","natural":"tree","species":"Acer platanoides 'Globosum'","species:de":"Kugelahorn"}},"type":"Feature"}
]
}
