{
"type": "FeatureCollection",
"features": [
	{"geometry":{"coordinates":[1.208093,52.941588],"type":"Point"},"properties":{"osm_id":"797257502","tag":{"amenity":"recycling"}},"type":"Feature"},
	{"geometry":{"coordinates":[1.211368,52.945379],"type":"Point"},"properties":{"osm_id":"855369370","tag":{"amenity":"recycling","recycling:cans":"yes","recycling:paper":"yes","recycling:plastic_bottles":"yes"}},"type":"Feature"},
	{"geometry":{"coordinates":[1.210728,52.942691],"type":"Point"},"properties":{"osm_id":"1518354366","tag":{"amenity":"waste_basket"}},"type":"Feature"},
	{"geometry":{"coordinates":[1.210098,52.943372],"type":"Point"},"properties":{"osm_id":"1539925421","tag":{"amenity":"waste_basket"}},"type":"Feature"},
	{"geometry":{"coordinates":[1.215241,52.923023],"type":"Point"},"properties":{"barrier":"gate","osm_id":"2391439943"},"type":"Feature"},
	{"geometry":{"coordinates":[1.215061,52.923064],"type":"Point"},"properties":{"barrier":"gate","osm_id":"2391439944"},"type":"Feature"},
	{"geometry":{"coordinates":[1.206718,52.945447],"type":"Point"},"properties":{"osm_id":"3149743190","tag":{"amenity":"waste_basket"}},"type":"Feature"},
	{"geometry":{"coordinates":[1.207,52.945417],"type":"Point"},"properties":{"osm_id":"3149743191","tag":{"amenity":"waste_basket"}},"type":"Feature"},
	{"geometry":{"coordinates":[1.227688,52.936539],"type":"Point"},"properties":{"osm_id":"3192185305","tag":{"amenity":"waste_basket"}},"type":"Feature"},
	{"geometry":{"coordinates":[1.220824,52.937442],"type":"Point"},"properties":{"osm_id":"3192187590","tag":{"amenity":"waste_basket"}},"type":"Feature"},
	{"geometry":{"coordinates":[1.203819,52.92959],"type":"Point"},"properties":{"osm_id":"3710805351","tag":{"amenity":"waste_basket"}},"type":"Feature"},
	{"geometry":{"coordinates":[1.149164,52.93268],"type":"Point"},"properties":{"osm_id":"4184953661","tag":{"amenity":"waste_basket"}},"type":"Feature"},
	{"geometry":{"coordinates":[1.149238,52.932692],"type":"Point"},"properties":{"osm_id":"4184953662","tag":{"amenity":"waste_basket"}},"type":"Feature"},
	{"geometry":{"coordinates":[1.188445,52.931376],"type":"Point"},"properties":{"osm_id":"4894887046","tag":{"amenity":"waste_basket"}},"type":"Feature"},
	{"geometry":{"coordinates":[1.143603,52.941664],"type":"Point"},"properties":{"osm_id":"5226861657","tag":{"amenity":"waste_basket","waste":"dog_excrement"}},"type":"Feature"},
	{"geometry":{"coordinates":[1.143333,52.941795],"type":"Point"},"properties":{"osm_id":"5226861658","tag":{"amenity":"waste_basket"}},"type":"Feature"}
]
}
