{
"type": "FeatureCollection",
"features": [
	{"geometry":{"coordinates":[1.184222,52.649951],"type":"Point"},"properties":{"highway":"crossing","osm_id":"684066572","tag":{"crossing":"unmarked"}},"type":"Feature"},
	{"geometry":{"coordinates":[1.211705,52.687115],"type":"Point"},"properties":{"osm_id":"1469308872","tag":{"amenity":"waste_basket"}},"type":"Feature"},
	{"geometry":{"coordinates":[1.20892,52.688011],"type":"Point"},"properties":{"osm_id":"1469309068","tag":{"amenity":"waste_basket"}},"type":"Feature"},
	{"geometry":{"coordinates":[1.207428,52.651304],"type":"Point"},"properties":{"osm_id":"1517877561","tag":{"amenity":"waste_basket","waste_basket":"dog_feces"}},"type":"Feature"},
	{"geometry":{"coordinates":[1.19951,52.647554],"type":"Point"},"properties":{"osm_id":"2148772190","tag":{"amenity":"waste_basket"}},"type":"Feature"},
	{"geometry":{"coordinates":[1.199625,52.647647],"type":"Point"},"properties":{"osm_id":"2148772200","tag":{"amenity":"waste_basket"}},"type":"Feature"},
	{"geometry":{"coordinates":[1.164454,52.679056],"type":"Point"},"properties":{"osm_id":"2354055071","tag":{"amenity":"recycling","recycling:cans":"yes","recycling:clothes":"yes","recycling:paper":"yes","recycling:shoes":"yes","recycling_type":"container"}},"type":"Feature"},
	{"geometry":{"coordinates":[1.171107,52.649853],"type":"Point"},"properties":{"osm_id":"3033452256","tag":{"amenity":"waste_basket","waste":"dog_excrement"}},"type":"Feature"},
	{"geometry":{"coordinates":[1.156488,52.681857],"type":"Point"},"properties":{"osm_id":"3179792449","tag":{"amenity":"waste_basket","waste":"dog_excrement"}},"type":"Feature"},
	{"geometry":{"coordinates":[1.21373,52.650657],"type":"Point"},"properties":{"osm_id":"3249829085","tag":{"amenity":"waste_basket","waste_basket":"dog_feces"}},"type":"Feature"},
	{"geometry":{"coordinates":[1.196734,52.665211],"type":"Point"},"properties":{"osm_id":"3306241764","tag":{"amenity":"waste_basket","waste_basket":"dog_feces"}},"type":"Feature"},
	{"geometry":{"coordinates":[1.189274,52.683438],"type":"Point"},"properties":{"osm_id":"3379737222","tag":{"amenity":"waste_basket"}},"type":"Feature"},
	{"geometry":{"coordinates":[1.213557,52.662086],"type":"Point"},"properties":{"osm_id":"3388211021","tag":{"amenity":"recycling","recycling:glass_bottles":"yes","recycling_type":"container"}},"type":"Feature"},
	{"geometry":{"coordinates":[1.156054,52.652038],"type":"Point"},"properties":{"osm_id":"3563098922","tag":{"amenity":"waste_basket","waste":"dog_excrement"}},"type":"Feature"},
	{"geometry":{"coordinates":[1.184838,52.654229],"type":"Point"},"properties":{"osm_id":"5526235498","tag":{"amenity":"waste_basket"}},"type":"Feature"},
	{"geometry":{"coordinates":[1.184356,52.654214],"type":"Point"},"properties":{"osm_id":"5526235499","tag":{"amenity":"waste_basket"}},"type":"Feature"},
	{"geometry":{"coordinates":[1.184788,52.6541],"type":"Point"},"properties":{"osm_id":"5526235500","tag":{"amenity":"waste_basket"}},"type":"Feature"},
	{"geometry":{"coordinates":[1.185092,52.65394],"type":"Point"},"properties":{"osm_id":"5526235501","tag":{"amenity":"waste_basket"}},"type":"Feature"},
	{"geometry":{"coordinates":[1.219434,52.677625],"type":"Point"},"properties":{"osm_id":"6584125668","tag":{"amenity":"waste_basket","waste":"trash"}},"type":"Feature"},
	{"geometry":{"coordinates":[1.218015,52.677938],"type":"Point"},"properties":{"osm_id":"6584129088","tag":{"amenity":"recycling","recycling:cardboard":"yes","recycling:clothes":"yes","recycling:glass_bottles":"yes","recycling:shoes":"yes","recycling_type":"centre"}},"type":"Feature"},
	{"geometry":{"coordinates":[1.185634,52.652099],"type":"Point"},"properties":{"osm_id":"6697415359","tag":{"amenity":"recycling","recycling:clothes":"yes","recycling:glass":"yes","recycling:glass_bottles":"yes","recycling_type":"container"}},"type":"Feature"},
	{"geometry":{"coordinates":[1.209955,52.645708],"type":"Point"},"properties":{"osm_id":"6820026130","tag":{"amenity":"recycling","recycling:clothes":"yes","recycling:shoes":"yes","recycling_type":"container"}},"type":"Feature"},
	{"geometry":{"coordinates":[1.19917,52.685699],"type":"Point"},"properties":{"osm_id":"6881394492","tag":{"amenity":"waste_basket","waste":"dog_excrement"}},"type":"Feature"},
	{"geometry":{"coordinates":[1.214958,52.658758],"type":"Point"},"properties":{"osm_id":"7850206905","tag":{"amenity":"waste_basket","waste":"dog_excrement"}},"type":"Feature"},
	{"geometry":{"coordinates":[1.21938,52.660271],"type":"Point"},"properties":{"osm_id":"7850206906","tag":{"amenity":"waste_basket","waste":"dog_excrement"}},"type":"Feature"}
]
}
