{
"type": "FeatureCollection",
"features": [
	{"geometry":{"coordinates":[1.219682,52.617698],"type":"Point"},"properties":{"osm_id":"359194887","tag":{"amenity":"waste_basket"}},"type":"Feature"},
	{"geometry":{"coordinates":[1.219176,52.617228],"type":"Point"},"properties":{"osm_id":"359194891","tag":{"amenity":"waste_basket"}},"type":"Feature"},
	{"geometry":{"coordinates":[1.219769,52.616716],"type":"Point"},"properties":{"osm_id":"359194895","tag":{"amenity":"waste_basket"}},"type":"Feature"},
	{"geometry":{"coordinates":[1.220036,52.617041],"type":"Point"},"properties":{"osm_id":"359194896","tag":{"amenity":"waste_basket"}},"type":"Feature"},
	{"geometry":{"coordinates":[1.219511,52.616986],"type":"Point"},"properties":{"osm_id":"359194901","tag":{"amenity":"waste_basket"}},"type":"Feature"},
	{"geometry":{"coordinates":[1.219673,52.616952],"type":"Point"},"properties":{"osm_id":"359194904","tag":{"amenity":"waste_basket"}},"type":"Feature"},
	{"geometry":{"coordinates":[1.220238,52.617146],"type":"Point"},"properties":{"osm_id":"359194906","tag":{"amenity":"waste_basket"}},"type":"Feature"},
	{"geometry":{"coordinates":[1.22027,52.617186],"type":"Point"},"properties":{"osm_id":"359194908","tag":{"amenity":"waste_basket"}},"type":"Feature"},
	{"geometry":{"coordinates":[1.220384,52.61745],"type":"Point"},"properties":{"osm_id":"359194911","tag":{"amenity":"waste_basket"}},"type":"Feature"},
	{"geometry":{"coordinates":[1.220731,52.617579],"type":"Point"},"properties":{"osm_id":"359194914","tag":{"amenity":"waste_basket"}},"type":"Feature"},
	{"geometry":{"coordinates":[1.220714,52.617546],"type":"Point"},"properties":{"osm_id":"359194915","tag":{"amenity":"waste_basket"}},"type":"Feature"},
	{"geometry":{"coordinates":[1.220151,52.617679],"type":"Point"},"properties":{"osm_id":"359194918","tag":{"amenity":"waste_basket"}},"type":"Feature"},
	{"geometry":{"coordinates":[1.220161,52.630555],"type":"Point"},"properties":{"osm_id":"364049001","tag":{"amenity":"waste_basket"}},"type":"Feature"},
	{"geometry":{"coordinates":[1.211384,52.640723],"type":"Point"},"properties":{"osm_id":"364156863","tag":{"amenity":"waste_basket"}},"type":"Feature"},
	{"geometry":{"coordinates":[1.222119,52.619798],"type":"Point"},"properties":{"osm_id":"393789735","tag":{"amenity":"recycling","recycling:clothes":"yes","recycling:glass_bottles":"yes","recycling:paper":"yes","recycling:scrap_metal":"yes"}},"type":"Feature"},
	{"geometry":{"coordinates":[1.215987,52.637878],"type":"Point"},"properties":{"name":"Bowthorpe Shopping Centre","osm_id":"514316209","tag":{"amenity":"recycling","recycling:cans":"yes","recycling:glass_bottles":"yes","url":"http://www.norwich.gov.uk/intranet_docs/A-Z/Recycling/Recycling_Centres.pdf"}},"type":"Feature"},
	{"geometry":{"coordinates":[1.230417,52.635154],"type":"Point"},"properties":{"name":"Freed Man PH, St Mildreds Road","osm_id":"514316301","tag":{"amenity":"recycling","recycling:glass_bottles":"yes","recycling:paper":"yes","recycling_type":"container","website":"https://www.norwich.gov.uk/intranet_docs/A-Z/Recycling/Recycling_Centres.pdf"}},"type":"Feature"},
	{"geometry":{"coordinates":[1.209673,52.640133],"type":"Point"},"properties":{"osm_id":"583293215","tag":{"amenity":"waste_basket"}},"type":"Feature"},
	{"geometry":{"coordinates":[1.215072,52.641067],"type":"Point"},"properties":{"osm_id":"583293226","tag":{"amenity":"waste_basket"}},"type":"Feature"},
	{"geometry":{"coordinates":[1.219533,52.639575],"type":"Point"},"properties":{"osm_id":"583293228","tag":{"amenity":"waste_basket"}},"type":"Feature"},
	{"geometry":{"coordinates":[1.21893,52.629048],"type":"Point"},"properties":{"osm_id":"583296523","tag":{"amenity":"waste_basket"}},"type":"Feature"},
	{"geometry":{"coordinates":[1.212257,52.637105],"type":"Point"},"properties":{"osm_id":"583296524","tag":{"amenity":"waste_basket"}},"type":"Feature"},
	{"geometry":{"coordinates":[1.220021,52.60288],"type":"Point"},"properties":{"osm_id":"587687996","tag":{"amenity":"waste_basket","waste":"trash"}},"type":"Feature"},
	{"geometry":{"coordinates":[1.223804,52.641644],"type":"Point"},"properties":{"osm_id":"878762698","tag":{"amenity":"waste_basket"}},"type":"Feature"},
	{"geometry":{"coordinates":[1.208572,52.641417],"type":"Point"},"properties":{"osm_id":"1362824028","tag":{"amenity":"waste_basket"}},"type":"Feature"},
	{"geometry":{"coordinates":[1.206614,52.589842],"type":"Point"},"properties":{"barrier":"gate","osm_id":"1662369266"},"type":"Feature"},
	{"geometry":{"coordinates":[1.181566,52.603952],"type":"Point"},"properties":{"osm_id":"1675524196","tag":{"amenity":"recycling","recycling:clothes":"yes","recycling:glass_bottles":"yes","recycling_type":"container"}},"type":"Feature"},
	{"geometry":{"coordinates":[1.218311,52.636311],"type":"Point"},"properties":{"osm_id":"1691874354","tag":{"amenity":"waste_basket"}},"type":"Feature"},
	{"geometry":{"coordinates":[1.217732,52.642495],"type":"Point"},"properties":{"osm_id":"3031739759","tag":{"amenity":"recycling","recycling:clothes":"yes","recycling_type":"container"}},"type":"Feature"},
	{"geometry":{"coordinates":[1.208188,52.641487],"type":"Point"},"properties":{"osm_id":"3131421127","tag":{"amenity":"waste_basket"}},"type":"Feature"},
	{"geometry":{"coordinates":[1.193445,52.615966],"type":"Point"},"properties":{"osm_id":"3363387029","tag":{"amenity":"waste_basket","waste_basket":"dog_feces"}},"type":"Feature"},
	{"geometry":{"coordinates":[1.201867,52.620249],"type":"Point"},"properties":{"osm_id":"3363387036","tag":{"amenity":"waste_basket","waste_basket":"dog_feces"}},"type":"Feature"},
	{"geometry":{"coordinates":[1.188505,52.617147],"type":"Point"},"properties":{"osm_id":"3376604799","tag":{"amenity":"waste_basket"}},"type":"Feature"},
	{"geometry":{"coordinates":[1.183681,52.617938],"type":"Point"},"properties":{"osm_id":"3376604809","tag":{"amenity":"waste_basket","waste":"dog_excrement"}},"type":"Feature"},
	{"geometry":{"coordinates":[1.166708,52.600152],"type":"Point"},"properties":{"osm_id":"3500127711","tag":{"amenity":"waste_basket","waste":"dog_excrement"}},"type":"Feature"},
	{"geometry":{"coordinates":[1.173857,52.597781],"type":"Point"},"properties":{"osm_id":"3500127724","tag":{"amenity":"recycling","recycling:clothes":"yes"}},"type":"Feature"},
	{"geometry":{"coordinates":[1.181206,52.597329],"type":"Point"},"properties":{"osm_id":"3500127725","tag":{"amenity":"waste_basket","waste":"dog_excrement"}},"type":"Feature"},
	{"geometry":{"coordinates":[1.181257,52.597352],"type":"Point"},"properties":{"osm_id":"3500127726","tag":{"amenity":"waste_basket","waste":"trash"}},"type":"Feature"},
	{"geometry":{"coordinates":[1.18463,52.633079],"type":"Point"},"properties":{"osm_id":"6426865113","tag":{"amenity":"waste_basket"}},"type":"Feature"},
	{"geometry":{"coordinates":[1.230437,52.610203],"type":"Point"},"properties":{"osm_id":"6637023801","tag":{"amenity":"waste_basket","waste":"trash"}},"type":"Feature"},
	{"geometry":{"coordinates":[1.218862,52.621198],"type":"Point"},"properties":{"osm_id":"6814232386","tag":{"amenity":"waste_basket","waste":"trash"}},"type":"Feature"},
	{"geometry":{"coordinates":[1.219593,52.603578],"type":"Point"},"properties":{"osm_id":"7684480918","tag":{"amenity":"recycling","recycling:bags":"yes","recycling:cardboard":"yes","recycling:clothes":"yes","recycling:glass_bottles":"yes","recycling:paper":"yes","recycling:shoes":"yes","recycling_type":"container","website":"https://www.south-norfolk.gov.uk/residents/rubbish-and-recycling/recycling/where-can-i-recycle-more"}},"type":"Feature"},
	{"geometry":{"coordinates":[1.187795,52.599466],"type":"Point"},"properties":{"osm_id":"7820171557","tag":{"amenity":"waste_basket","waste":"dog_excrement"}},"type":"Feature"},
	{"geometry":{"coordinates":[1.178592,52.594799],"type":"Point"},"properties":{"osm_id":"7820171569","tag":{"amenity":"waste_basket","waste":"dog_excrement"}},"type":"Feature"},
	{"geometry":{"coordinates":[1.173307,52.592342],"type":"Point"},"properties":{"osm_id":"7820171571","tag":{"amenity":"waste_basket","waste":"dog_excrement"}},"type":"Feature"},
	{"geometry":{"coordinates":[1.181006,52.595766],"type":"Point"},"properties":{"osm_id":"7820189752","tag":{"amenity":"waste_basket","waste":"trash"}},"type":"Feature"},
	{"geometry":{"coordinates":[1.191554,52.600895],"type":"Point"},"properties":{"osm_id":"7820189777","tag":{"amenity":"waste_basket","waste":"dog_excrement"}},"type":"Feature"},
	{"geometry":{"coordinates":[1.226218,52.621276],"type":"Point"},"properties":{"osm_id":"7839063983","tag":{"amenity":"waste_basket","waste":"dog_excrement"}},"type":"Feature"},
	{"geometry":{"coordinates":[1.22623,52.62176],"type":"Point"},"properties":{"osm_id":"7839063984","tag":{"amenity":"waste_basket","inscription":"General Waste","waste":"trash"}},"type":"Feature"},
	{"geometry":{"coordinates":[1.175669,52.600717],"type":"Point"},"properties":{"osm_id":"7843483844","tag":{"amenity":"waste_basket","waste":"dog_excrement"}},"type":"Feature"},
	{"geometry":{"coordinates":[1.179741,52.599583],"type":"Point"},"properties":{"osm_id":"7849315023","tag":{"amenity":"waste_basket","waste":"dog_excrement"}},"type":"Feature"},
	{"geometry":{"coordinates":[1.178836,52.600079],"type":"Point"},"properties":{"osm_id":"7850140073","tag":{"amenity":"waste_basket","waste":"trash"}},"type":"Feature"}
]
}
