{
"type": "FeatureCollection",
"features": [
	{"geometry":{"coordinates":[1.229885,52.429943],"type":"Point"},"properties":{"name":"Community Recycling Centre","osm_id":"1554295957","tag":{"amenity":"recycling"}},"type":"Feature"},
	{"geometry":{"coordinates":[1.208888,52.477443],"type":"Point"},"properties":{"osm_id":"2380921305","tag":{"amenity":"waste_basket","waste":"dog_excrement"}},"type":"Feature"},
	{"geometry":{"coordinates":[1.209618,52.437056],"type":"Point"},"properties":{"barrier":"gate","osm_id":"3700198911","tag":{"access":"customers"}},"type":"Feature"},
	{"geometry":{"coordinates":[1.230378,52.42943],"type":"Point"},"properties":{"osm_id":"4483391320","tag":{"amenity":"waste_basket"}},"type":"Feature"},
	{"geometry":{"coordinates":[1.230381,52.429456],"type":"Point"},"properties":{"osm_id":"4483391322","tag":{"amenity":"waste_basket"}},"type":"Feature"},
	{"geometry":{"coordinates":[1.188573,52.435316],"type":"Point"},"properties":{"osm_id":"5126936702","tag":{"amenity":"recycling","recycling_type":"centre"}},"type":"Feature"},
	{"geometry":{"coordinates":[1.173231,52.447373],"type":"Point"},"properties":{"osm_id":"7645861096","tag":{"amenity":"waste_basket","waste":"dog_excrement"}},"type":"Feature"},
	{"geometry":{"coordinates":[1.188693,52.434828],"type":"Point"},"properties":{"osm_id":"7899784626","tag":{"amenity":"waste_basket","waste":"trash"}},"type":"Feature"},
	{"geometry":{"coordinates":[1.188692,52.43486],"type":"Point"},"properties":{"osm_id":"7899784628","tag":{"amenity":"waste_basket","waste":"dog_excrement"}},"type":"Feature"}
]
}
