{
"type": "FeatureCollection",
"features": [
	{"geometry":{"coordinates":[1.151395,51.113071],"type":"Point"},"properties":{"osm_id":"110920812","tag":{"amenity":"recycling"}},"type":"Feature"},
	{"geometry":{"coordinates":[1.142675,51.080387],"type":"Point"},"properties":{"osm_id":"256039211","tag":{"amenity":"recycling"}},"type":"Feature"},
	{"geometry":{"coordinates":[1.175059,51.124004],"type":"Point"},"properties":{"name":"Hawkinge Transfer Station","osm_id":"426916540","tag":{"amenity":"recycling"}},"type":"Feature"},
	{"geometry":{"coordinates":[1.165118,51.095179],"type":"Point"},"properties":{"osm_id":"534893870","tag":{"amenity":"recycling","recycling:cans":"yes","recycling:clothes":"yes","recycling:glass_bottles":"yes","recycling:newspaper":"yes","recycling:paper":"yes","recycling:shoes":"yes","recycling_type":"container"}},"type":"Feature"},
	{"geometry":{"coordinates":[1.182141,51.080918],"type":"Point"},"properties":{"osm_id":"536564756","tag":{"amenity":"recycling","recycling:clothes":"yes","recycling:glass_bottles":"yes","recycling:shoes":"yes"}},"type":"Feature"},
	{"geometry":{"coordinates":[1.162474,51.085728],"type":"Point"},"properties":{"name":"Morrison's","osm_id":"679922660","tag":{"amenity":"recycling"}},"type":"Feature"},
	{"geometry":{"coordinates":[1.175547,51.07948],"type":"Point"},"properties":{"osm_id":"4307393579","tag":{"amenity":"recycling","recycling:clothes":"yes"}},"type":"Feature"},
	{"geometry":{"coordinates":[1.179746,51.081543],"type":"Point"},"properties":{"osm_id":"4307393580","tag":{"amenity":"recycling","recycling:clothes":"yes","recycling:shoes":"yes"}},"type":"Feature"},
	{"geometry":{"coordinates":[1.20679,51.094584],"type":"Point"},"properties":{"name":"Litter","osm_id":"4909565818","tag":{"amenity":"waste_basket"}},"type":"Feature"},
	{"geometry":{"coordinates":[1.20699,51.094034],"type":"Point"},"properties":{"osm_id":"4911788823","tag":{"amenity":"recycling","recycling_type":"container"}},"type":"Feature"},
	{"geometry":{"coordinates":[1.200797,51.094212],"type":"Point"},"properties":{"osm_id":"7767825153","tag":{"amenity":"waste_disposal"}},"type":"Feature"},
	{"geometry":{"coordinates":[1.148603,51.074178],"type":"Point"},"properties":{"osm_id":"7798929250","tag":{"amenity":"waste_basket","waste":"trash"}},"type":"Feature"},
	{"geometry":{"coordinates":[1.144648,51.073692],"type":"Point"},"properties":{"osm_id":"7798929251","tag":{"amenity":"waste_basket","waste":"trash"}},"type":"Feature"},
	{"geometry":{"coordinates":[1.155015,51.07659],"type":"Point"},"properties":{"osm_id":"7798942490","tag":{"amenity":"waste_basket","waste":"trash;dog_excrement"}},"type":"Feature"},
	{"geometry":{"coordinates":[1.155791,51.076428],"type":"Point"},"properties":{"osm_id":"7798942491","tag":{"amenity":"waste_basket","waste":"trash"}},"type":"Feature"},
	{"geometry":{"coordinates":[1.160129,51.074469],"type":"Point"},"properties":{"osm_id":"7807971920","tag":{"amenity":"waste_basket","waste":"trash"}},"type":"Feature"},
	{"geometry":{"coordinates":[1.161979,51.074281],"type":"Point"},"properties":{"osm_id":"7807971963","tag":{"amenity":"waste_basket","waste":"trash"}},"type":"Feature"},
	{"geometry":{"coordinates":[1.162802,51.074266],"type":"Point"},"properties":{"osm_id":"7807971972","tag":{"amenity":"waste_basket","waste":"trash"}},"type":"Feature"},
	{"geometry":{"coordinates":[1.147706,51.073931],"type":"Point"},"properties":{"osm_id":"7807971976","tag":{"amenity":"waste_basket","waste":"trash"}},"type":"Feature"},
	{"geometry":{"coordinates":[1.147596,51.073291],"type":"Point"},"properties":{"osm_id":"7857282543","tag":{"amenity":"recycling","recycling:cans":"yes","recycling:glass_bottles":"yes","recycling:plastic_bottles":"yes","recycling:waste":"yes","recycling_type":"container"}},"type":"Feature"},
	{"geometry":{"coordinates":[1.151725,51.073364],"type":"Point"},"properties":{"osm_id":"7857282549","tag":{"amenity":"waste_basket","waste":"trash"}},"type":"Feature"},
	{"geometry":{"coordinates":[1.160375,51.073329],"type":"Point"},"properties":{"osm_id":"7857282551","tag":{"amenity":"waste_basket","waste":"trash"}},"type":"Feature"},
	{"geometry":{"coordinates":[1.166098,51.073989],"type":"Point"},"properties":{"osm_id":"7857282552","tag":{"amenity":"recycling","recycling:cans":"yes","recycling:glass_bottles":"yes","recycling:paper":"yes","recycling:plastic_bottles":"yes","recycling_type":"container"}},"type":"Feature"},
	{"geometry":{"coordinates":[1.163073,51.073235],"type":"Point"},"properties":{"osm_id":"7857282557","tag":{"amenity":"waste_basket","waste":"trash"}},"type":"Feature"},
	{"geometry":{"coordinates":[1.149255,51.073338],"type":"Point"},"properties":{"osm_id":"7857282568","tag":{"amenity":"waste_basket","waste":"trash"}},"type":"Feature"},
	{"geometry":{"coordinates":[1.166046,51.073991],"type":"Point"},"properties":{"osm_id":"7857282569","tag":{"amenity":"recycling","recycling:waste":"yes","recycling_type":"container"}},"type":"Feature"},
	{"geometry":{"coordinates":[1.147614,51.073291],"type":"Point"},"properties":{"osm_id":"7857282571","tag":{"amenity":"waste_basket","waste":"trash;dog_excrement"}},"type":"Feature"},
	{"geometry":{"coordinates":[1.144707,51.07314],"type":"Point"},"properties":{"osm_id":"7869163258","tag":{"amenity":"waste_basket","waste":"trash"}},"type":"Feature"},
	{"geometry":{"coordinates":[1.156025,51.073433],"type":"Point"},"properties":{"osm_id":"7869163266","tag":{"amenity":"waste_basket","waste":"trash"}},"type":"Feature"},
	{"geometry":{"coordinates":[1.14601,51.073236],"type":"Point"},"properties":{"osm_id":"7869180677","tag":{"amenity":"waste_basket","waste":"trash"}},"type":"Feature"},
	{"geometry":{"coordinates":[1.152371,51.073362],"type":"Point"},"properties":{"osm_id":"7869180723","tag":{"amenity":"waste_basket","waste":"trash"}},"type":"Feature"},
	{"geometry":{"coordinates":[1.177149,51.078177],"type":"Point"},"properties":{"osm_id":"7877600901","tag":{"amenity":"waste_basket","waste":"trash"}},"type":"Feature"},
	{"geometry":{"coordinates":[1.162032,51.076162],"type":"Point"},"properties":{"osm_id":"7884870075","tag":{"amenity":"waste_basket","waste":"trash;cigarettes"}},"type":"Feature"},
	{"geometry":{"coordinates":[1.147435,51.07407],"type":"Point"},"properties":{"osm_id":"7910044845","tag":{"amenity":"waste_basket","waste":"trash;dog_excrement"}},"type":"Feature"},
	{"geometry":{"coordinates":[1.147241,51.074003],"type":"Point"},"properties":{"osm_id":"7910044848","tag":{"amenity":"waste_basket","waste":"trash;dog_excrement"}},"type":"Feature"}
]
}
