{
"type": "FeatureCollection",
"lastupdate": "2020-08-06T00:00:00Z",
"features": [
	{"geometry":{"coordinates":[1.173731,49.634136],"type":"Point"},"properties":{"name":"Le Relais","osm_id":"4940900698","tag":{"amenity":"recycling","location":"overground","recycling:clothes":"yes","recycling:shoes":"yes","recycling_type":"container"}},"type":"Feature"},
	{"geometry":{"coordinates":[1.162259,49.664891],"type":"Point"},"properties":{"osm_id":"5821077359","tag":{"amenity":"recycling","recycling_type":"container"}},"type":"Feature"},
	{"geometry":{"coordinates":[1.190188,49.656816],"type":"Point"},"properties":{"osm_id":"6174448760","tag":{"amenity":"recycling","recycling:glass_bottles":"yes","recycling_type":"container"}},"type":"Feature"},
	{"geometry":{"coordinates":[1.173784,49.634147],"type":"Point"},"properties":{"osm_id":"6178771295","tag":{"amenity":"recycling","recycling:glass":"yes","recycling_type":"container"}},"type":"Feature"},
	{"geometry":{"coordinates":[1.17388,49.634123],"type":"Point"},"properties":{"osm_id":"6178771296","tag":{"amenity":"recycling","recycling:cartons":"yes","recycling:plastic_bottles":"yes","recycling:plastic_packaging":"yes","recycling_type":"container"}},"type":"Feature"},
	{"geometry":{"coordinates":[1.189304,49.653255],"type":"Point"},"properties":{"osm_id":"6417441564","tag":{"amenity":"waste_basket"}},"type":"Feature"},
	{"geometry":{"coordinates":[1.174062,49.635043],"type":"Point"},"properties":{"name":"D\u00c3\u00a9ch\u00c3\u00a8terie\u00c2\u00a0Bosc\u00c2\u00a0le\u00c2\u00a0Hard","osm_id":"6960482909","tag":{"amenity":"recycling","operator":"Communaut\u00e9\u00a0de\u00a0Communes\u00a0Inter-caux-vexin","phone":"+33 2 35 76 93 43","recycling_type":"centre","ref:FR:SINOE":"4441","start_date":"2000-02-01"}},"type":"Feature"}
]
}
