{
"type": "FeatureCollection",
"features": [
	{"geometry":{"coordinates":[1.202407,49.440221],"type":"Point"},"properties":{"osm_id":"255894675","tag":{"amenity":"recycling"}},"type":"Feature"},
	{"geometry":{"coordinates":[1.209864,49.441425],"type":"Point"},"properties":{"osm_id":"271668376","tag":{"amenity":"recycling"}},"type":"Feature"},
	{"geometry":{"coordinates":[1.16577,49.484165],"type":"Point"},"properties":{"osm_id":"2135193679","tag":{"amenity":"recycling","recycling:glass":"yes"}},"type":"Feature"},
	{"geometry":{"coordinates":[1.150996,49.449279],"type":"Point"},"properties":{"osm_id":"3054333547","tag":{"access":"yes","amenity":"recycling","fee":"no","operator":"Solidarit\u00c3\u00a9 Textiles","recycling:clothes":"yes","recycling:shoes":"yes","recycling_type":"container","wheelchair":"no"}},"type":"Feature"},
	{"geometry":{"coordinates":[1.144206,49.440945],"type":"Point"},"properties":{"osm_id":"4386467772","tag":{"amenity":"waste_basket","level":"0","wheelchair":"yes"}},"type":"Feature"},
	{"geometry":{"coordinates":[1.144646,49.440633],"type":"Point"},"properties":{"osm_id":"4386467774","tag":{"amenity":"recycling","operator":"Solidarit\u00c3\u00a9 Textiles","recycling:clothes":"yes","recycling:shoes":"yes","recycling_type":"container","wheelchair":"no"}},"type":"Feature"},
	{"geometry":{"coordinates":[1.145556,49.440768],"type":"Point"},"properties":{"osm_id":"4386474586","tag":{"amenity":"waste_basket","waste":"trash","wheelchair":"yes"}},"type":"Feature"},
	{"geometry":{"coordinates":[1.148226,49.445448],"type":"Point"},"properties":{"osm_id":"4387577420","tag":{"amenity":"waste_basket","waste":"trash","wheelchair":"yes"}},"type":"Feature"},
	{"geometry":{"coordinates":[1.148471,49.445284],"type":"Point"},"properties":{"osm_id":"4387577423","tag":{"amenity":"waste_basket","waste":"trash","wheelchair":"yes"}},"type":"Feature"},
	{"geometry":{"coordinates":[1.148218,49.445755],"type":"Point"},"properties":{"osm_id":"4387577427","tag":{"amenity":"waste_basket","waste":"trash","wheelchair":"yes"}},"type":"Feature"},
	{"geometry":{"coordinates":[1.150919,49.444356],"type":"Point"},"properties":{"osm_id":"5260945442","tag":{"amenity":"waste_basket","wheelchair":"yes"}},"type":"Feature"},
	{"geometry":{"coordinates":[1.151376,49.444666],"type":"Point"},"properties":{"osm_id":"5260958242","tag":{"access":"yes","amenity":"waste_disposal","fee":"no","operator":"Syndicat mixte d\u00e2\u0080\u0099\u00c3\u00a9limination des d\u00c3\u00a9chets de l\u00e2\u0080\u0099arrondissement de Rouen","waste":"trash","wheelchair":"yes"}},"type":"Feature"},
	{"geometry":{"coordinates":[1.151391,49.444701],"type":"Point"},"properties":{"osm_id":"5260958243","tag":{"access":"yes","amenity":"recycling","fee":"no","operator":"Syndicat mixte d\u00e2\u0080\u0099\u00c3\u00a9limination des d\u00c3\u00a9chets de l\u00e2\u0080\u0099arrondissement de Rouen","recycling:cans":"yes","recycling:cardboard":"yes","recycling:paper":"yes","recycling:plastic":"yes","recycling_type":"container","wheelchair":"yes"}},"type":"Feature"},
	{"geometry":{"coordinates":[1.145761,49.440236],"type":"Point"},"properties":{"osm_id":"5922643839","tag":{"amenity":"waste_basket","waste":"trash","wheelchair":"yes"}},"type":"Feature"},
	{"geometry":{"coordinates":[1.150966,49.44931],"type":"Point"},"properties":{"osm_id":"7152078061","tag":{"access":"yes","amenity":"recycling","fee":"no","operator":"Syndicat mixte d'\u00c3\u00a9limination des d\u00c3\u00a9chets de l'arrondissement de Rouen","recycling:glass":"yes","recycling_type":"container","wheelchair":"no"}},"type":"Feature"},
	{"geometry":{"coordinates":[1.150734,49.448934],"type":"Point"},"properties":{"osm_id":"7152078066","tag":{"amenity":"waste_basket","waste":"trash","wheelchair":"yes"}},"type":"Feature"},
	{"geometry":{"coordinates":[1.149577,49.447479],"type":"Point"},"properties":{"osm_id":"7152078077","tag":{"amenity":"waste_basket","waste":"trash","wheelchair":"yes"}},"type":"Feature"},
	{"geometry":{"coordinates":[1.147264,49.444958],"type":"Point"},"properties":{"osm_id":"7152160359","tag":{"access":"yes","amenity":"recycling","fee":"no","operator":"Syndicat mixte d'\u00c3\u00a9limination des d\u00c3\u00a9chets de l'arrondissement de Rouen","recycling:glass":"yes","recycling_type":"container","wheelchair":"no"}},"type":"Feature"},
	{"geometry":{"coordinates":[1.149958,49.441386],"type":"Point"},"properties":{"osm_id":"7152365480","tag":{"access":"yes","amenity":"recycling","fee":"no","operator":"Syndicat mixte d'\u00c3\u00a9limination des d\u00c3\u00a9chets de l'arrondissement de Rouen","recycling:cans":"yes","recycling:cardboard":"yes","recycling:paper":"yes","recycling:plastic":"yes","recycling_type":"container","wheelchair":"yes"}},"type":"Feature"},
	{"geometry":{"coordinates":[1.149967,49.441419],"type":"Point"},"properties":{"osm_id":"7152365481","tag":{"access":"yes","amenity":"waste_disposal","fee":"no","operator":"Syndicat mixte d'\u00c3\u00a9limination des d\u00c3\u00a9chets de l'arrondissement de Rouen","waste":"trash","wheelchair":"yes"}},"type":"Feature"},
	{"geometry":{"coordinates":[1.150197,49.441508],"type":"Point"},"properties":{"osm_id":"7152365482","tag":{"amenity":"waste_basket","waste":"trash","wheelchair":"yes"}},"type":"Feature"},
	{"geometry":{"coordinates":[1.147297,49.4411],"type":"Point"},"properties":{"osm_id":"7152373485","tag":{"amenity":"waste_basket","waste":"trash","wheelchair":"yes"}},"type":"Feature"},
	{"geometry":{"coordinates":[1.150901,49.443899],"type":"Point"},"properties":{"osm_id":"7154775353","tag":{"access":"yes","amenity":"recycling","fee":"no","operator":"Syndicat mixte d'\u00c3\u00a9limination des d\u00c3\u00a9chets de l'arrondissement de Rouen","recycling:cans":"yes","recycling:cardboard":"yes","recycling:paper":"yes","recycling:plastic":"yes","recycling_type":"container","wheelchair":"yes"}},"type":"Feature"},
	{"geometry":{"coordinates":[1.150893,49.443867],"type":"Point"},"properties":{"osm_id":"7154775354","tag":{"access":"yes","amenity":"waste_disposal","fee":"no","operator":"Syndicat mixte d'\u00c3\u00a9limination des d\u00c3\u00a9chets de l'arrondissement de Rouen","waste":"trash","wheelchair":"yes"}},"type":"Feature"},
	{"geometry":{"coordinates":[1.150475,49.44345],"type":"Point"},"properties":{"osm_id":"7154775355","tag":{"access":"yes","amenity":"recycling","fee":"no","operator":"Syndicat mixte d'\u00c3\u00a9limination des d\u00c3\u00a9chets de l'arrondissement de Rouen","recycling:cans":"yes","recycling:cardboard":"yes","recycling:paper":"yes","recycling:plastic":"yes","recycling_type":"container","wheelchair":"yes"}},"type":"Feature"},
	{"geometry":{"coordinates":[1.150464,49.443424],"type":"Point"},"properties":{"osm_id":"7154775356","tag":{"access":"yes","amenity":"waste_disposal","fee":"no","operator":"Syndicat mixte d'\u00c3\u00a9limination des d\u00c3\u00a9chets de l'arrondissement de Rouen","waste":"trash","wheelchair":"yes"}},"type":"Feature"},
	{"geometry":{"coordinates":[1.150273,49.443035],"type":"Point"},"properties":{"osm_id":"7154775371","tag":{"access":"yes","amenity":"waste_disposal","fee":"no","operator":"Syndicat mixte d'\u00c3\u00a9limination des d\u00c3\u00a9chets de l'arrondissement de Rouen","waste":"trash","wheelchair":"yes"}},"type":"Feature"},
	{"geometry":{"coordinates":[1.150283,49.443072],"type":"Point"},"properties":{"osm_id":"7154775372","tag":{"access":"yes","amenity":"recycling","fee":"no","operator":"Syndicat mixte d'\u00c3\u00a9limination des d\u00c3\u00a9chets de l'arrondissement de Rouen","recycling:cans":"yes","recycling:cardboard":"yes","recycling:paper":"yes","recycling:plastic":"yes","recycling_type":"container","wheelchair":"yes"}},"type":"Feature"},
	{"geometry":{"coordinates":[1.147377,49.441425],"type":"Point"},"properties":{"osm_id":"7157664972","tag":{"amenity":"waste_basket","waste":"trash","wheelchair":"yes"}},"type":"Feature"},
	{"geometry":{"coordinates":[1.149725,49.441455],"type":"Point"},"properties":{"osm_id":"7159555180","tag":{"amenity":"waste_basket","waste":"trash","wheelchair":"yes"}},"type":"Feature"},
	{"geometry":{"coordinates":[1.148706,49.442699],"type":"Point"},"properties":{"osm_id":"7159562343","tag":{"access":"yes","amenity":"waste_disposal","fee":"no","operator":"Syndicat mixte d'\u00c3\u00a9limination des d\u00c3\u00a9chets de l'arrondissement de Rouen","waste":"trash","wheelchair":"yes"}},"type":"Feature"},
	{"geometry":{"coordinates":[1.148742,49.442693],"type":"Point"},"properties":{"osm_id":"7159562344","tag":{"access":"yes","amenity":"recycling","fee":"no","operator":"Syndicat mixte d'\u00c3\u00a9limination des d\u00c3\u00a9chets de l'arrondissement de Rouen","recycling:cans":"yes","recycling:cardboard":"yes","recycling:paper":"yes","recycling:plastic":"yes","recycling_type":"container","wheelchair":"yes"}},"type":"Feature"},
	{"geometry":{"coordinates":[1.149087,49.442902],"type":"Point"},"properties":{"osm_id":"7159562347","tag":{"access":"yes","amenity":"waste_disposal","fee":"no","operator":"Syndicat mixte d'\u00c3\u00a9limination des d\u00c3\u00a9chets de l'arrondissement de Rouen","waste":"trash","wheelchair":"yes"}},"type":"Feature"},
	{"geometry":{"coordinates":[1.149053,49.44291],"type":"Point"},"properties":{"osm_id":"7159562348","tag":{"access":"yes","amenity":"recycling","fee":"no","operator":"Syndicat mixte d'\u00c3\u00a9limination des d\u00c3\u00a9chets de l'arrondissement de Rouen","recycling:cans":"yes","recycling:cardboard":"yes","recycling:paper":"yes","recycling:plastic":"yes","recycling_type":"container","wheelchair":"yes"}},"type":"Feature"},
	{"geometry":{"coordinates":[1.149218,49.441687],"type":"Point"},"properties":{"osm_id":"7159578990","tag":{"access":"yes","amenity":"waste_disposal","fee":"no","operator":"Syndicat mixte d'\u00c3\u00a9limination des d\u00c3\u00a9chets de l'arrondissement de Rouen","waste":"trash","wheelchair":"yes"}},"type":"Feature"},
	{"geometry":{"coordinates":[1.149261,49.441693],"type":"Point"},"properties":{"osm_id":"7159578991","tag":{"access":"yes","amenity":"waste_disposal","fee":"no","operator":"Syndicat mixte d'\u00c3\u00a9limination des d\u00c3\u00a9chets de l'arrondissement de Rouen","waste":"trash","wheelchair":"yes"}},"type":"Feature"},
	{"geometry":{"coordinates":[1.149186,49.441718],"type":"Point"},"properties":{"osm_id":"7159578992","tag":{"access":"yes","amenity":"waste_disposal","fee":"no","operator":"Syndicat mixte d'\u00c3\u00a9limination des d\u00c3\u00a9chets de l'arrondissement de Rouen","waste":"trash","wheelchair":"yes"}},"type":"Feature"},
	{"geometry":{"coordinates":[1.149228,49.441725],"type":"Point"},"properties":{"osm_id":"7159578993","tag":{"access":"yes","amenity":"recycling","fee":"no","operator":"Syndicat mixte d'\u00c3\u00a9limination des d\u00c3\u00a9chets de l'arrondissement de Rouen","recycling:cans":"yes","recycling:cardboard":"yes","recycling:paper":"yes","recycling:plastic":"yes","recycling_type":"container","wheelchair":"yes"}},"type":"Feature"},
	{"geometry":{"coordinates":[1.149272,49.441732],"type":"Point"},"properties":{"osm_id":"7159578994","tag":{"access":"yes","amenity":"recycling","fee":"no","operator":"Syndicat mixte d'\u00c3\u00a9limination des d\u00c3\u00a9chets de l'arrondissement de Rouen","recycling:cans":"yes","recycling:cardboard":"yes","recycling:paper":"yes","recycling:plastic":"yes","recycling_type":"container","wheelchair":"yes"}},"type":"Feature"},
	{"geometry":{"coordinates":[1.147993,49.441618],"type":"Point"},"properties":{"osm_id":"7159579037","tag":{"amenity":"waste_basket","waste":"trash","wheelchair":"yes"}},"type":"Feature"},
	{"geometry":{"coordinates":[1.148078,49.441541],"type":"Point"},"properties":{"osm_id":"7159579039","tag":{"access":"yes","amenity":"waste_disposal","fee":"no","operator":"Syndicat mixte d'\u00c3\u00a9limination des d\u00c3\u00a9chets de l'arrondissement de Rouen","waste":"trash","wheelchair":"yes"}},"type":"Feature"},
	{"geometry":{"coordinates":[1.148031,49.441536],"type":"Point"},"properties":{"osm_id":"7159579040","tag":{"access":"yes","amenity":"waste_disposal","fee":"no","operator":"Syndicat mixte d'\u00c3\u00a9limination des d\u00c3\u00a9chets de l'arrondissement de Rouen","waste":"trash","wheelchair":"yes"}},"type":"Feature"},
	{"geometry":{"coordinates":[1.148002,49.441495],"type":"Point"},"properties":{"osm_id":"7159579041","tag":{"access":"yes","amenity":"waste_disposal","fee":"no","operator":"Syndicat mixte d'\u00c3\u00a9limination des d\u00c3\u00a9chets de l'arrondissement de Rouen","waste":"trash","wheelchair":"yes"}},"type":"Feature"},
	{"geometry":{"coordinates":[1.148042,49.441502],"type":"Point"},"properties":{"osm_id":"7159579042","tag":{"access":"yes","amenity":"recycling","fee":"no","operator":"Syndicat mixte d'\u00c3\u00a9limination des d\u00c3\u00a9chets de l'arrondissement de Rouen","recycling:cans":"yes","recycling:cardboard":"yes","recycling:paper":"yes","recycling:plastic":"yes","recycling_type":"container","wheelchair":"yes"}},"type":"Feature"},
	{"geometry":{"coordinates":[1.148087,49.441508],"type":"Point"},"properties":{"osm_id":"7159579043","tag":{"access":"yes","amenity":"recycling","fee":"no","operator":"Syndicat mixte d'\u00c3\u00a9limination des d\u00c3\u00a9chets de l'arrondissement de Rouen","recycling:cans":"yes","recycling:cardboard":"yes","recycling:paper":"yes","recycling:plastic":"yes","recycling_type":"container","wheelchair":"yes"}},"type":"Feature"},
	{"geometry":{"coordinates":[1.147987,49.44153],"type":"Point"},"properties":{"osm_id":"7159579044","tag":{"access":"yes","amenity":"recycling","fee":"no","operator":"Syndicat mixte d'\u00c3\u00a9limination des d\u00c3\u00a9chets de l'arrondissement de Rouen","recycling:glass":"yes","recycling_type":"container","wheelchair":"yes"}},"type":"Feature"},
	{"geometry":{"coordinates":[1.147772,49.442068],"type":"Point"},"properties":{"osm_id":"7159579056","tag":{"amenity":"waste_basket","waste":"trash","wheelchair":"yes"}},"type":"Feature"},
	{"geometry":{"coordinates":[1.147741,49.442201],"type":"Point"},"properties":{"osm_id":"7159579057","tag":{"amenity":"waste_basket","waste":"trash","wheelchair":"yes"}},"type":"Feature"},
	{"geometry":{"coordinates":[1.147368,49.44231],"type":"Point"},"properties":{"osm_id":"7159587825","tag":{"access":"yes","amenity":"waste_disposal","fee":"no","operator":"Syndicat mixte d'\u00c3\u00a9limination des d\u00c3\u00a9chets de l'arrondissement de Rouen","waste":"trash","wheelchair":"yes"}},"type":"Feature"},
	{"geometry":{"coordinates":[1.147332,49.442312],"type":"Point"},"properties":{"osm_id":"7159587826","tag":{"access":"yes","amenity":"waste_disposal","fee":"no","operator":"Syndicat mixte d'\u00c3\u00a9limination des d\u00c3\u00a9chets de l'arrondissement de Rouen","waste":"trash","wheelchair":"yes"}},"type":"Feature"},
	{"geometry":{"coordinates":[1.147293,49.442315],"type":"Point"},"properties":{"osm_id":"7159587827","tag":{"access":"yes","amenity":"recycling","fee":"no","operator":"Syndicat mixte d'\u00c3\u00a9limination des d\u00c3\u00a9chets de l'arrondissement de Rouen","recycling:cans":"yes","recycling:cardboard":"yes","recycling:paper":"yes","recycling:plastic":"yes","recycling_type":"container","wheelchair":"yes"}},"type":"Feature"},
	{"geometry":{"coordinates":[1.147058,49.442295],"type":"Point"},"properties":{"osm_id":"7159587852","tag":{"access":"yes","amenity":"recycling","fee":"no","operator":"Syndicat mixte d'\u00c3\u00a9limination des d\u00c3\u00a9chets de l'arrondissement de Rouen","recycling:cans":"yes","recycling:cardboard":"yes","recycling:paper":"yes","recycling:plastic":"yes","recycling_type":"container","wheelchair":"yes"}},"type":"Feature"},
	{"geometry":{"coordinates":[1.147066,49.442324],"type":"Point"},"properties":{"osm_id":"7159587853","tag":{"access":"yes","amenity":"recycling","fee":"no","operator":"Syndicat mixte d'\u00c3\u00a9limination des d\u00c3\u00a9chets de l'arrondissement de Rouen","recycling:glass":"yes","recycling_type":"container","wheelchair":"yes"}},"type":"Feature"},
	{"geometry":{"coordinates":[1.148313,49.443275],"type":"Point"},"properties":{"osm_id":"7159598166","tag":{"access":"yes","amenity":"waste_disposal","fee":"no","operator":"Syndicat mixte d'\u00c3\u00a9limination des d\u00c3\u00a9chets de l'arrondissement de Rouen","waste":"trash","wheelchair":"yes"}},"type":"Feature"},
	{"geometry":{"coordinates":[1.148396,49.443266],"type":"Point"},"properties":{"osm_id":"7159598167","tag":{"access":"yes","amenity":"recycling","fee":"no","operator":"Syndicat mixte d'\u00c3\u00a9limination des d\u00c3\u00a9chets de l'arrondissement de Rouen","recycling:cans":"yes","recycling:cardboard":"yes","recycling:paper":"yes","recycling:plastic":"yes","recycling_type":"container","wheelchair":"yes"}},"type":"Feature"},
	{"geometry":{"coordinates":[1.148355,49.44327],"type":"Point"},"properties":{"osm_id":"7159598168","tag":{"access":"yes","amenity":"recycling","fee":"no","operator":"Syndicat mixte d'\u00c3\u00a9limination des d\u00c3\u00a9chets de l'arrondissement de Rouen","recycling:cans":"yes","recycling:cardboard":"yes","recycling:paper":"yes","recycling:plastic":"yes","recycling_type":"container","wheelchair":"yes"}},"type":"Feature"},
	{"geometry":{"coordinates":[1.148964,49.443555],"type":"Point"},"properties":{"osm_id":"7159598172","tag":{"amenity":"waste_basket","waste":"trash","wheelchair":"yes"}},"type":"Feature"},
	{"geometry":{"coordinates":[1.148666,49.443766],"type":"Point"},"properties":{"osm_id":"7159598173","tag":{"amenity":"waste_basket","waste":"trash","wheelchair":"yes"}},"type":"Feature"},
	{"geometry":{"coordinates":[1.14877,49.443702],"type":"Point"},"properties":{"osm_id":"7159598174","tag":{"access":"yes","amenity":"waste_disposal","fee":"no","operator":"Syndicat mixte d'\u00c3\u00a9limination des d\u00c3\u00a9chets de l'arrondissement de Rouen","waste":"trash","wheelchair":"yes"}},"type":"Feature"},
	{"geometry":{"coordinates":[1.148731,49.443707],"type":"Point"},"properties":{"osm_id":"7159598175","tag":{"access":"yes","amenity":"recycling","fee":"no","operator":"Syndicat mixte d'\u00c3\u00a9limination des d\u00c3\u00a9chets de l'arrondissement de Rouen","recycling:cans":"yes","recycling:cardboard":"yes","recycling:paper":"yes","recycling:plastic":"yes","recycling_type":"container","wheelchair":"yes"}},"type":"Feature"},
	{"geometry":{"coordinates":[1.148245,49.443616],"type":"Point"},"properties":{"osm_id":"7159598176","tag":{"amenity":"waste_basket","waste":"trash","wheelchair":"yes"}},"type":"Feature"},
	{"geometry":{"coordinates":[1.14812,49.443672],"type":"Point"},"properties":{"osm_id":"7159598181","tag":{"access":"yes","amenity":"waste_disposal","fee":"no","operator":"Syndicat mixte d'\u00c3\u00a9limination des d\u00c3\u00a9chets de l'arrondissement de Rouen","waste":"trash","wheelchair":"yes"}},"type":"Feature"},
	{"geometry":{"coordinates":[1.148079,49.44368],"type":"Point"},"properties":{"osm_id":"7159598182","tag":{"access":"yes","amenity":"waste_disposal","fee":"no","operator":"Syndicat mixte d'\u00c3\u00a9limination des d\u00c3\u00a9chets de l'arrondissement de Rouen","waste":"trash","wheelchair":"yes"}},"type":"Feature"},
	{"geometry":{"coordinates":[1.148038,49.443687],"type":"Point"},"properties":{"osm_id":"7159598183","tag":{"access":"yes","amenity":"recycling","fee":"no","operator":"Syndicat mixte d'\u00c3\u00a9limination des d\u00c3\u00a9chets de l'arrondissement de Rouen","recycling:cans":"yes","recycling:cardboard":"yes","recycling:paper":"yes","recycling:plastic":"yes","recycling_type":"container","wheelchair":"yes"}},"type":"Feature"},
	{"geometry":{"coordinates":[1.149337,49.443491],"type":"Point"},"properties":{"osm_id":"7159638387","tag":{"access":"yes","amenity":"waste_disposal","fee":"no","operator":"Syndicat mixte d'\u00c3\u00a9limination des d\u00c3\u00a9chets de l'arrondissement de Rouen","waste":"trash","wheelchair":"yes"}},"type":"Feature"},
	{"geometry":{"coordinates":[1.149372,49.443495],"type":"Point"},"properties":{"osm_id":"7159638388","tag":{"access":"yes","amenity":"recycling","fee":"no","operator":"Syndicat mixte d'\u00c3\u00a9limination des d\u00c3\u00a9chets de l'arrondissement de Rouen","recycling:cans":"yes","recycling:cardboard":"yes","recycling:paper":"yes","recycling:plastic":"yes","recycling_type":"container","wheelchair":"yes"}},"type":"Feature"},
	{"geometry":{"coordinates":[1.149559,49.443404],"type":"Point"},"properties":{"osm_id":"7159638390","tag":{"amenity":"waste_basket","waste":"trash"}},"type":"Feature"},
	{"geometry":{"coordinates":[1.149217,49.443204],"type":"Point"},"properties":{"osm_id":"7159638407","tag":{"access":"yes","amenity":"waste_disposal","fee":"no","operator":"Syndicat mixte d'\u00c3\u00a9limination des d\u00c3\u00a9chets de l'arrondissement de Rouen","waste":"trash","wheelchair":"yes"}},"type":"Feature"},
	{"geometry":{"coordinates":[1.149184,49.443191],"type":"Point"},"properties":{"osm_id":"7159638408","tag":{"access":"yes","amenity":"recycling","fee":"no","operator":"Syndicat mixte d'\u00c3\u00a9limination des d\u00c3\u00a9chets de l'arrondissement de Rouen","recycling:cans":"yes","recycling:cardboard":"yes","recycling:paper":"yes","recycling:plastic":"yes","recycling_type":"container","wheelchair":"yes"}},"type":"Feature"},
	{"geometry":{"coordinates":[1.149627,49.44301],"type":"Point"},"properties":{"osm_id":"7159638427","tag":{"amenity":"waste_basket","waste":"trash"}},"type":"Feature"},
	{"geometry":{"coordinates":[1.151393,49.44911],"type":"Point"},"properties":{"osm_id":"7160259879","tag":{"amenity":"waste_basket","waste":"trash","wheelchair":"yes"}},"type":"Feature"},
	{"geometry":{"coordinates":[1.155588,49.450656],"type":"Point"},"properties":{"osm_id":"7160298895","tag":{"access":"yes","amenity":"recycling","fee":"no","operator":"Syndicat mixte d'\u00c3\u00a9limination des d\u00c3\u00a9chets de l'arrondissement de Rouen","recycling:glass":"yes","recycling_type":"container","wheelchair":"no"}},"type":"Feature"},
	{"geometry":{"coordinates":[1.142598,49.450007],"type":"Point"},"properties":{"osm_id":"7683314807","tag":{"amenity":"waste_basket","waste":"trash","wheelchair":"yes"}},"type":"Feature"}
]
}
