{
"type": "FeatureCollection",
"features": [
	{"geometry":{"coordinates":[1.150754,49.397904],"type":"Point"},"properties":{"osm_id":"3165812509","tag":{"amenity":"recycling"}},"type":"Feature"},
	{"geometry":{"coordinates":[1.20946,49.41553],"type":"Point"},"properties":{"name":"Verre","osm_id":"3813182285","tag":{"amenity":"recycling","recycling_type":"container"}},"type":"Feature"},
	{"geometry":{"coordinates":[1.144361,49.418046],"type":"Point"},"properties":{"osm_id":"4589494626","tag":{"amenity":"recycling","recycling:glass":"yes","recycling_type":"container"}},"type":"Feature"},
	{"geometry":{"coordinates":[1.157594,49.432554],"type":"Point"},"properties":{"osm_id":"6376715024","tag":{"amenity":"waste_basket","wheelchair":"yes"}},"type":"Feature"},
	{"geometry":{"coordinates":[1.157606,49.432322],"type":"Point"},"properties":{"osm_id":"6376715025","tag":{"amenity":"waste_basket","wheelchair":"yes"}},"type":"Feature"},
	{"geometry":{"coordinates":[1.157442,49.432356],"type":"Point"},"properties":{"osm_id":"6376715026","tag":{"amenity":"waste_basket","wheelchair":"yes"}},"type":"Feature"},
	{"geometry":{"coordinates":[1.157806,49.432495],"type":"Point"},"properties":{"osm_id":"6376734763","tag":{"access":"yes","amenity":"recycling","fee":"no","operator":"Solidarit\u00c3\u00a9 Textiles","recycling:clothes":"yes","recycling:shoes":"yes","recycling:textiles":"yes","recycling_type":"container","wheelchair":"no"}},"type":"Feature"},
	{"geometry":{"coordinates":[1.157856,49.432489],"type":"Point"},"properties":{"osm_id":"6376734764","tag":{"access":"yes","amenity":"recycling","fee":"no","operator":"Syndicat mixte d\u00e2\u0080\u0099\u00c3\u00a9limination des d\u00c3\u00a9chets de l\u00e2\u0080\u0099arrondissement de Rouen","recycling:glass":"yes","recycling_type":"container","wheelchair":"no"}},"type":"Feature"},
	{"geometry":{"coordinates":[1.144323,49.438978],"type":"Point"},"properties":{"osm_id":"7179491213","tag":{"access":"yes","amenity":"recycling","fee":"no","operator":"Syndicat mixte d'\u00c3\u00a9limination des d\u00c3\u00a9chets de l'arrondissement de Rouen","recycling:glass":"yes","recycling_type":"container","wheelchair":"no"}},"type":"Feature"},
	{"geometry":{"coordinates":[1.144338,49.439006],"type":"Point"},"properties":{"osm_id":"7179491214","tag":{"access":"yes","amenity":"recycling","fee":"no","operator":"Syndicat mixte d'\u00c3\u00a9limination des d\u00c3\u00a9chets de l'arrondissement de Rouen","recycling:cans":"yes","recycling:cardboard":"yes","recycling:paper":"yes","recycling:plastic":"yes","recycling_type":"container","wheelchair":"no"}},"type":"Feature"},
	{"geometry":{"coordinates":[1.144249,49.438827],"type":"Point"},"properties":{"osm_id":"7179491215","tag":{"amenity":"waste_basket","waste":"trash","wheelchair":"yes"}},"type":"Feature"},
	{"geometry":{"coordinates":[1.176668,49.39939],"type":"Point"},"properties":{"name":"Benne \u00c3\u00a0 verre","osm_id":"7337291122","tag":{"amenity":"recycling","recycling_type":"container"}},"type":"Feature"},
	{"geometry":{"coordinates":[1.143177,49.43706],"type":"Point"},"properties":{"osm_id":"7344689532","tag":{"amenity":"waste_basket","waste":"trash","wheelchair":"yes"}},"type":"Feature"},
	{"geometry":{"coordinates":[1.15041,49.432928],"type":"Point"},"properties":{"osm_id":"7721667098","tag":{"access":"yes","amenity":"recycling","fee":"no","operator":"Syndicat mixte d'\u00c3\u00a9limination des d\u00c3\u00a9chets de l'arrondissement de Rouen","recycling:glass":"yes","recycling_type":"container","wheelchair":"no"}},"type":"Feature"}
]
}
