{
"type": "FeatureCollection",
"lastupdate": "2020-08-02T00:00:00Z",
"features": [
	{"geometry":{"coordinates":[1.203098,49.28393],"type":"Point"},"properties":{"osm_id":"1144386841","tag":{"amenity":"recycling","recycling:glass":"yes","recycling:paper":"yes"}},"type":"Feature"},
	{"geometry":{"coordinates":[1.201722,49.292093],"type":"Point"},"properties":{"osm_id":"1144386866","tag":{"amenity":"recycling","recycling:glass":"yes","recycling:paper":"yes"}},"type":"Feature"},
	{"geometry":{"coordinates":[1.203474,49.290665],"type":"Point"},"properties":{"osm_id":"1144386908","tag":{"amenity":"recycling","recycling:glass":"yes","recycling:paper":"yes"}},"type":"Feature"},
	{"geometry":{"coordinates":[1.203207,49.28539],"type":"Point"},"properties":{"osm_id":"1144387210","tag":{"amenity":"recycling","recycling:glass":"yes","recycling:paper":"yes"}},"type":"Feature"},
	{"geometry":{"coordinates":[1.202553,49.282207],"type":"Point"},"properties":{"osm_id":"1144387224","tag":{"amenity":"recycling","recycling:glass":"yes","recycling:paper":"yes"}},"type":"Feature"},
	{"geometry":{"coordinates":[1.207458,49.286848],"type":"Point"},"properties":{"osm_id":"1145385669","tag":{"amenity":"recycling","recycling:glass":"yes","recycling:paper":"yes"}},"type":"Feature"},
	{"geometry":{"coordinates":[1.206052,49.286308],"type":"Point"},"properties":{"osm_id":"1145385691","tag":{"amenity":"recycling","recycling:glass":"yes","recycling:paper":"yes"}},"type":"Feature"},
	{"geometry":{"coordinates":[1.207448,49.284029],"type":"Point"},"properties":{"osm_id":"1145385718","tag":{"amenity":"recycling","recycling:glass":"yes","recycling:paper":"yes"}},"type":"Feature"},
	{"geometry":{"coordinates":[1.210555,49.285679],"type":"Point"},"properties":{"osm_id":"1145385739","tag":{"amenity":"recycling","recycling:glass":"yes","recycling:paper":"yes"}},"type":"Feature"},
	{"geometry":{"coordinates":[1.217701,49.281027],"type":"Point"},"properties":{"osm_id":"1282939446","tag":{"amenity":"recycling","recycling:glass":"yes","recycling:paper":"yes"}},"type":"Feature"},
	{"geometry":{"coordinates":[1.225397,49.269635],"type":"Point"},"properties":{"osm_id":"1282942106","tag":{"amenity":"recycling","recycling:glass":"yes","recycling:paper":"yes"}},"type":"Feature"},
	{"geometry":{"coordinates":[1.149366,49.305099],"type":"Point"},"properties":{"osm_id":"3187752965","tag":{"access":"yes","amenity":"recycling","fee":"no","operator":"Le Relais","recycling:clothes":"yes","recycling:shoes":"yes","recycling:textiles":"yes","recycling_type":"container","wheelchair":"no"}},"type":"Feature"},
	{"geometry":{"coordinates":[1.157498,49.299682],"type":"Point"},"properties":{"name":"Papier","osm_id":"3197309859","tag":{"amenity":"recycling","recycling_type":"container"}},"type":"Feature"},
	{"geometry":{"coordinates":[1.157498,49.299659],"type":"Point"},"properties":{"name":"Verre","osm_id":"3197309860","tag":{"amenity":"recycling","recycling_type":"container"}},"type":"Feature"},
	{"geometry":{"coordinates":[1.156559,49.297949],"type":"Point"},"properties":{"name":"Verre","osm_id":"3197313861","tag":{"amenity":"recycling","recycling_type":"container"}},"type":"Feature"},
	{"geometry":{"coordinates":[1.156527,49.297943],"type":"Point"},"properties":{"name":"Papier","osm_id":"3197313969","tag":{"amenity":"recycling","recycling_type":"container"}},"type":"Feature"},
	{"geometry":{"coordinates":[1.151439,49.319453],"type":"Point"},"properties":{"osm_id":"3255923961","tag":{"amenity":"recycling","recycling_type":"container"}},"type":"Feature"},
	{"geometry":{"coordinates":[1.158761,49.309574],"type":"Point"},"properties":{"osm_id":"3299389883","tag":{"amenity":"recycling","recycling_type":"container"}},"type":"Feature"},
	{"geometry":{"coordinates":[1.186565,49.321584],"type":"Point"},"properties":{"osm_id":"3326562670","tag":{"amenity":"recycling","recycling:glass":"yes","recycling_type":"container"}},"type":"Feature"},
	{"geometry":{"coordinates":[1.198192,49.311811],"type":"Point"},"properties":{"osm_id":"3586456091","tag":{"amenity":"waste_basket"}},"type":"Feature"},
	{"geometry":{"coordinates":[1.201424,49.293332],"type":"Point"},"properties":{"osm_id":"4690415389","tag":{"amenity":"recycling"}},"type":"Feature"},
	{"geometry":{"coordinates":[1.149376,49.30513],"type":"Point"},"properties":{"osm_id":"6223687538","tag":{"access":"yes","amenity":"recycling","fee":"no","operator":"Le Relais","recycling:clothes":"yes","recycling:shoes":"yes","recycling:textiles":"yes","recycling_type":"container","wheelchair":"no"}},"type":"Feature"},
	{"geometry":{"coordinates":[1.149396,49.305197],"type":"Point"},"properties":{"osm_id":"6223687539","tag":{"access":"yes","amenity":"recycling","fee":"no","recycling:glass":"yes","recycling_type":"container","wheelchair":"no"}},"type":"Feature"},
	{"geometry":{"coordinates":[1.149388,49.305167],"type":"Point"},"properties":{"osm_id":"6223687540","tag":{"access":"yes","amenity":"recycling","fee":"no","operator":"Communaut\u00e9 d\u2019agglom\u00e9ration Seine-Eure","recycling:paper":"yes","recycling_type":"container","wheelchair":"no"}},"type":"Feature"}
]
}
