{
"type": "FeatureCollection",
"features": [
	{"geometry":{"coordinates":[1.22472,49.266771],"type":"Point"},"properties":{"osm_id":"1282942009","tag":{"amenity":"recycling","recycling:glass":"yes","recycling:paper":"yes"}},"type":"Feature"},
	{"geometry":{"coordinates":[1.226905,49.266681],"type":"Point"},"properties":{"osm_id":"1282942042","tag":{"amenity":"recycling","recycling:glass":"yes","recycling:paper":"yes"}},"type":"Feature"},
	{"geometry":{"coordinates":[1.17668,49.236384],"type":"Point"},"properties":{"osm_id":"3165816180","tag":{"amenity":"recycling","recycling_type":"container"}},"type":"Feature"},
	{"geometry":{"coordinates":[1.173304,49.21371],"type":"Point"},"properties":{"osm_id":"4504707284","tag":{"amenity":"recycling","recycling:clothes":"yes","recycling:glass_bottles":"yes","recycling:paper":"yes","recycling_type":"container"}},"type":"Feature"},
	{"geometry":{"coordinates":[1.17331,49.213672],"type":"Point"},"properties":{"name":"Le Relais","osm_id":"5105568859","tag":{"amenity":"recycling","recycling:clothes":"yes","recycling:glass_bottles":"yes","recycling:paper":"yes","recycling_type":"container"}},"type":"Feature"},
	{"geometry":{"coordinates":[1.176223,49.217826],"type":"Point"},"properties":{"osm_id":"5261619875","tag":{"amenity":"recycling","recycling_type":"container"}},"type":"Feature"},
	{"geometry":{"coordinates":[1.176975,49.218349],"type":"Point"},"properties":{"osm_id":"5261619876","tag":{"amenity":"recycling","recycling_type":"container"}},"type":"Feature"},
	{"geometry":{"coordinates":[1.187107,49.236456],"type":"Point"},"properties":{"osm_id":"6472499829","tag":{"amenity":"waste_basket"}},"type":"Feature"},
	{"geometry":{"coordinates":[1.178017,49.229103],"type":"Point"},"properties":{"osm_id":"6472560571","tag":{"amenity":"waste_basket"}},"type":"Feature"},
	{"geometry":{"coordinates":[1.178624,49.229376],"type":"Point"},"properties":{"osm_id":"6472613016","tag":{"amenity":"recycling","recycling:paper":"yes","recycling_type":"container"}},"type":"Feature"},
	{"geometry":{"coordinates":[1.178588,49.229384],"type":"Point"},"properties":{"osm_id":"6472613017","tag":{"amenity":"recycling","recycling:glass_bottles":"yes","recycling_type":"container"}},"type":"Feature"},
	{"geometry":{"coordinates":[1.184519,49.234518],"type":"Point"},"properties":{"osm_id":"6473114973","tag":{"amenity":"waste_basket"}},"type":"Feature"},
	{"geometry":{"coordinates":[1.209022,49.256575],"type":"Point"},"properties":{"osm_id":"7643385717","tag":{"amenity":"waste_basket","waste":"trash","wheelchair":"yes"}},"type":"Feature"}
]
}
