{
"type": "FeatureCollection",
"features": [
	{"geometry":{"coordinates":[1.157478,44.128936],"type":"Point"},"properties":{"osm_id":"1388429420","tag":{"amenity":"waste_basket"}},"type":"Feature"},
	{"geometry":{"coordinates":[1.148546,44.123054],"type":"Point"},"properties":{"osm_id":"1647209925","tag":{"amenity":"recycling","recycling:glass_bottles":"yes","recycling_type":"container"}},"type":"Feature"},
	{"geometry":{"coordinates":[1.158645,44.116188],"type":"Point"},"properties":{"osm_id":"1647214176","tag":{"amenity":"recycling","recycling:glass_bottles":"yes","recycling_type":"container"}},"type":"Feature"},
	{"geometry":{"coordinates":[1.168552,44.10405],"type":"Point"},"properties":{"osm_id":"1976831050","tag":{"amenity":"recycling","recycling:glass_bottles":"yes","recycling_type":"container"}},"type":"Feature"},
	{"geometry":{"coordinates":[1.156959,44.130157],"type":"Point"},"properties":{"osm_id":"2191492312","tag":{"amenity":"waste_disposal"}},"type":"Feature"},
	{"geometry":{"coordinates":[1.145935,44.111954],"type":"Point"},"properties":{"osm_id":"2194657924","tag":{"amenity":"waste_disposal"}},"type":"Feature"},
	{"geometry":{"coordinates":[1.14615,44.122212],"type":"Point"},"properties":{"osm_id":"2194657981","tag":{"amenity":"waste_disposal"}},"type":"Feature"},
	{"geometry":{"coordinates":[1.148601,44.123109],"type":"Point"},"properties":{"osm_id":"2194657988","tag":{"amenity":"waste_disposal"}},"type":"Feature"},
	{"geometry":{"coordinates":[1.151151,44.126317],"type":"Point"},"properties":{"osm_id":"2560097310","tag":{"amenity":"waste_disposal"}},"type":"Feature"},
	{"geometry":{"coordinates":[1.143187,44.128708],"type":"Point"},"properties":{"osm_id":"3100501429","tag":{"amenity":"waste_disposal"}},"type":"Feature"},
	{"geometry":{"coordinates":[1.227631,44.126507],"type":"Point"},"properties":{"osm_id":"7551221285","tag":{"amenity":"recycling","opening_hours":"24/7","operator":"SIEEOM Sud-Quercy","recycling:cans":"yes","recycling:cardboard":"yes","recycling:paper":"yes","recycling:plastic_bottles":"yes","recycling:plastic_packaging":"yes","recycling:waste":"yes","recycling_type":"container"}},"type":"Feature"},
	{"geometry":{"coordinates":[1.229413,44.125373],"type":"Point"},"properties":{"osm_id":"7598974790","tag":{"amenity":"recycling","brand":"Le Relais","charity":"yes","contact:email":"lerelais82@lerelais.org","contact:website":"http://lerelais.org/donner.php?page=comment_donner","opening_hours":"24/7","operator":"Le Relais 82","recycling:clothes":"yes","recycling:shoes":"yes","recycling_type":"container"}},"type":"Feature"}
]
}
