{
"type": "FeatureCollection",
"features": [
	{"geometry":{"coordinates":[1.228248,43.850445],"type":"Point"},"properties":{"osm_id":"3904589865","tag":{"amenity":"recycling","recycling:cans":"no","recycling:glass_bottles":"yes","recycling:paper":"no","recycling:plastic":"no","recycling_type":"container"}},"type":"Feature"},
	{"geometry":{"coordinates":[1.217413,43.84758],"type":"Point"},"properties":{"osm_id":"3904594848","tag":{"amenity":"recycling","recycling:cans":"no","recycling:clothes":"yes","recycling:glass_bottles":"yes","recycling:paper":"no","recycling:plastic":"no","recycling_type":"container"}},"type":"Feature"},
	{"geometry":{"coordinates":[1.226463,43.851606],"type":"Point"},"properties":{"osm_id":"3904601334","tag":{"amenity":"recycling","recycling:cans":"no","recycling:clothes":"no","recycling:glass_bottles":"yes","recycling:paper":"no","recycling:plastic":"no","recycling_type":"container"}},"type":"Feature"},
	{"geometry":{"coordinates":[1.193934,43.893069],"type":"Point"},"properties":{"osm_id":"6320456921","tag":{"amenity":"recycling","description":"Conteneur de r\u00c3\u00a9cup\u00c3\u00a9ration du verre.","operator":"Communaut\u00c3\u00a9 de communes Grand Sud Tarn-et-Garonne","recycling:glass_bottles":"yes","recycling:verre":"yes","recycling_type":"container"}},"type":"Feature"},
	{"geometry":{"coordinates":[1.193951,43.893072],"type":"Point"},"properties":{"osm_id":"6320456922","tag":{"amenity":"recycling","description":"Conteneur de r\u00c3\u00a9cup\u00c3\u00a9ration de v\u00c3\u00aatements et de chaussures.","operator":"Le Relais - Emm\u00c3\u00bcs","recycling:clothes":"yes","recycling:shoes":"yes","recycling_type":"container"}},"type":"Feature"},
	{"geometry":{"coordinates":[1.194685,43.895033],"type":"Point"},"properties":{"osm_id":"6320456929","tag":{"amenity":"recycling","description":"Conteneur de r\u00c3\u00a9cup\u00c3\u00a9ration du verre.","operator":"Communaut\u00c3\u00a9 de communes Grand Sud Tarn-et-Garonne","recycling:glass_bottles":"yes","recycling_type":"container"}},"type":"Feature"},
	{"geometry":{"coordinates":[1.194658,43.895026],"type":"Point"},"properties":{"osm_id":"6320456931","tag":{"amenity":"recycling","description":"Conteneur de r\u00c3\u00a9cup\u00c3\u00a9ration du papier (Journaux, prospectus, ...) .","operator":"Communaut\u00c3\u00a9 de communes Grand Sud Tarn-et-Garonne","recycling:paper":"yes","recycling_type":"container"}},"type":"Feature"},
	{"geometry":{"coordinates":[1.196962,43.888373],"type":"Point"},"properties":{"osm_id":"6320456940","tag":{"amenity":"recycling","description":"Conteneur de r\u00c3\u00a9cup\u00c3\u00a9ration du verre.","operator":"Communaut\u00c3\u00a9 de communes Grand Sud Tarn-et-Garonne","recycling:glass_bottles":"yes","recycling_type":"container"}},"type":"Feature"},
	{"geometry":{"coordinates":[1.194446,43.89302],"type":"Point"},"properties":{"osm_id":"8842954596","tag":{"amenity":"waste_disposal","operator":"Communaut\u00c3\u00a9 de communes Grand Sud Tarn-et-Garonne","waste":"trash;recycling"}},"type":"Feature"},
	{"geometry":{"coordinates":[1.188723,43.889497],"type":"Point"},"properties":{"osm_id":"8842954597","tag":{"amenity":"recycling","operator":"Communaut\u00c3\u00a9 de communes Grand Sud Tarn-et-Garonne","recycling:glass":"yes","recycling:glass_bottles":"yes","recycling_type":"container"}},"type":"Feature"},
	{"geometry":{"coordinates":[1.196368,43.887877],"type":"Point"},"properties":{"osm_id":"8842966266","tag":{"amenity":"recycling","operator":"Communaut\u00c3\u00a9 de communes Grand Sud Tarn-et-Garonne","recycling:paper":"yes","recycling_type":"container"}},"type":"Feature"},
	{"geometry":{"coordinates":[1.19618,43.88744],"type":"Point"},"properties":{"osm_id":"8842966267","tag":{"amenity":"waste_basket"}},"type":"Feature"},
	{"geometry":{"coordinates":[1.195651,43.890129],"type":"Point"},"properties":{"osm_id":"8842966273","tag":{"amenity":"waste_basket"}},"type":"Feature"}
]
}
