{
"type": "FeatureCollection",
"features": [
	{"geometry":{"coordinates":[1.146673,41.104223],"type":"Point"},"properties":{"osm_id":"1674527789","tag":{"amenity":"waste_basket"}},"type":"Feature"},
	{"geometry":{"coordinates":[1.145257,41.104381],"type":"Point"},"properties":{"osm_id":"1674527791","tag":{"amenity":"waste_basket"}},"type":"Feature"},
	{"geometry":{"coordinates":[1.145237,41.104695],"type":"Point"},"properties":{"osm_id":"1674527792","tag":{"amenity":"waste_basket"}},"type":"Feature"},
	{"geometry":{"coordinates":[1.145147,41.104775],"type":"Point"},"properties":{"osm_id":"1674527793","tag":{"amenity":"waste_basket"}},"type":"Feature"},
	{"geometry":{"coordinates":[1.144081,41.10495],"type":"Point"},"properties":{"osm_id":"1674527794","tag":{"amenity":"waste_basket"}},"type":"Feature"},
	{"geometry":{"coordinates":[1.145589,41.105128],"type":"Point"},"properties":{"osm_id":"1674527805","tag":{"amenity":"waste_basket"}},"type":"Feature"},
	{"geometry":{"coordinates":[1.145818,41.105259],"type":"Point"},"properties":{"osm_id":"1674527807","tag":{"amenity":"waste_basket"}},"type":"Feature"},
	{"geometry":{"coordinates":[1.145743,41.105585],"type":"Point"},"properties":{"osm_id":"1674527809","tag":{"amenity":"waste_basket"}},"type":"Feature"},
	{"geometry":{"coordinates":[1.146,41.105589],"type":"Point"},"properties":{"osm_id":"1674527810","tag":{"amenity":"waste_basket"}},"type":"Feature"},
	{"geometry":{"coordinates":[1.145845,41.105761],"type":"Point"},"properties":{"osm_id":"1674527811","tag":{"amenity":"waste_basket"}},"type":"Feature"},
	{"geometry":{"coordinates":[1.144816,41.105992],"type":"Point"},"properties":{"osm_id":"1674527816","tag":{"amenity":"waste_basket"}},"type":"Feature"},
	{"geometry":{"coordinates":[1.144731,41.106115],"type":"Point"},"properties":{"osm_id":"1674527827","tag":{"amenity":"recycling","backrest":"yes","colour":"brown","material":"wood","recycling:cans":"yes","recycling:paper":"yes","recycling_type":"container","seats":"3"}},"type":"Feature"},
	{"geometry":{"coordinates":[1.144116,41.106256],"type":"Point"},"properties":{"osm_id":"1674527836","tag":{"amenity":"waste_basket"}},"type":"Feature"},
	{"geometry":{"coordinates":[1.144063,41.106291],"type":"Point"},"properties":{"osm_id":"1674527846","tag":{"amenity":"waste_basket"}},"type":"Feature"},
	{"geometry":{"coordinates":[1.143801,41.106454],"type":"Point"},"properties":{"osm_id":"1674527862","tag":{"amenity":"waste_basket"}},"type":"Feature"},
	{"geometry":{"coordinates":[1.143728,41.106491],"type":"Point"},"properties":{"osm_id":"1674527874","tag":{"amenity":"waste_basket"}},"type":"Feature"},
	{"geometry":{"coordinates":[1.142889,41.106533],"type":"Point"},"properties":{"osm_id":"1674527878","tag":{"amenity":"waste_basket"}},"type":"Feature"},
	{"geometry":{"coordinates":[1.143344,41.106645],"type":"Point"},"properties":{"osm_id":"1674527899","tag":{"amenity":"recycling","backrest":"yes","colour":"brown","material":"wood","recycling:cans":"yes","recycling:paper":"yes","recycling_type":"container","seats":"3"}},"type":"Feature"},
	{"geometry":{"coordinates":[1.143637,41.106703],"type":"Point"},"properties":{"osm_id":"1674527910","tag":{"amenity":"waste_basket"}},"type":"Feature"},
	{"geometry":{"coordinates":[1.142753,41.106739],"type":"Point"},"properties":{"osm_id":"1674527915","tag":{"amenity":"waste_basket"}},"type":"Feature"},
	{"geometry":{"coordinates":[1.142628,41.106827],"type":"Point"},"properties":{"osm_id":"1674527917","tag":{"amenity":"waste_basket"}},"type":"Feature"},
	{"geometry":{"coordinates":[1.176817,41.068402],"type":"Point"},"properties":{"osm_id":"4052331425","tag":{"amenity":"recycling","recycling:glass_bottles":"yes","recycling:green_waste":"yes","recycling:paper":"yes","recycling:plastic":"yes","recycling:plastic_packaging":"no","recycling:waste":"yes","recycling_type":"container"}},"type":"Feature"},
	{"geometry":{"coordinates":[1.178026,41.069234],"type":"Point"},"properties":{"osm_id":"4052452743","tag":{"amenity":"recycling","recycling:glass_bottles":"yes","recycling:green_waste":"yes","recycling:paper":"yes","recycling:plastic":"no","recycling:plastic_packaging":"yes","recycling:waste":"yes","recycling_type":"container"}},"type":"Feature"},
	{"geometry":{"coordinates":[1.177626,41.066017],"type":"Point"},"properties":{"osm_id":"4058462919","tag":{"amenity":"recycling","recycling:glass_bottles":"yes","recycling:green_waste":"yes","recycling:paper":"yes","recycling:plastic":"yes","recycling:plastic_packaging":"no","recycling:waste":"yes","recycling_type":"container"}},"type":"Feature"},
	{"geometry":{"coordinates":[1.154527,41.06626],"type":"Point"},"properties":{"osm_id":"4207673476","tag":{"amenity":"waste_basket"}},"type":"Feature"},
	{"geometry":{"coordinates":[1.152477,41.066811],"type":"Point"},"properties":{"osm_id":"4207673518","tag":{"amenity":"waste_basket"}},"type":"Feature"},
	{"geometry":{"coordinates":[1.148411,41.069959],"type":"Point"},"properties":{"osm_id":"4207673545","tag":{"amenity":"recycling","recycling:cardboard":"yes","recycling:glass_bottles":"yes","recycling:paper":"yes","recycling:plastic":"yes","recycling:plastic_bottles":"yes","recycling:plastic_packaging":"yes","recycling_type":"container"}},"type":"Feature"},
	{"geometry":{"coordinates":[1.148954,41.066533],"type":"Point"},"properties":{"osm_id":"4403242789","tag":{"amenity":"waste_disposal"}},"type":"Feature"},
	{"geometry":{"coordinates":[1.150373,41.066706],"type":"Point"},"properties":{"osm_id":"4403242889","tag":{"amenity":"waste_disposal"}},"type":"Feature"},
	{"geometry":{"coordinates":[1.153772,41.066201],"type":"Point"},"properties":{"osm_id":"4405022789","tag":{"amenity":"waste_disposal"}},"type":"Feature"},
	{"geometry":{"coordinates":[1.152722,41.067802],"type":"Point"},"properties":{"osm_id":"4764534935","tag":{"amenity":"waste_disposal"}},"type":"Feature"},
	{"geometry":{"coordinates":[1.170331,41.066633],"type":"Point"},"properties":{"osm_id":"5494579611","tag":{"amenity":"recycling"}},"type":"Feature"},
	{"geometry":{"coordinates":[1.167477,41.065429],"type":"Point"},"properties":{"osm_id":"5494579612","tag":{"amenity":"recycling"}},"type":"Feature"},
	{"geometry":{"coordinates":[1.16709,41.058449],"type":"Point"},"properties":{"osm_id":"5759957525","tag":{"amenity":"waste_disposal"}},"type":"Feature"},
	{"geometry":{"coordinates":[1.167263,41.059256],"type":"Point"},"properties":{"osm_id":"5759957526","tag":{"amenity":"waste_disposal"}},"type":"Feature"},
	{"geometry":{"coordinates":[1.169682,41.061153],"type":"Point"},"properties":{"osm_id":"5759965830","tag":{"amenity":"waste_disposal"}},"type":"Feature"},
	{"geometry":{"coordinates":[1.174043,41.062649],"type":"Point"},"properties":{"osm_id":"5759975721","tag":{"amenity":"waste_disposal"}},"type":"Feature"},
	{"geometry":{"coordinates":[1.175539,41.066406],"type":"Point"},"properties":{"osm_id":"5761725154","tag":{"amenity":"waste_disposal"}},"type":"Feature"}
]
}
