{
"type": "FeatureCollection",
"features": [
	{"geometry":{"coordinates":[1.214425,6.174142],"type":"Point"},"properties":{"osm_id":"2368593734","tag":{"amenity":"waste_basket"}},"type":"Feature"},
	{"geometry":{"coordinates":[1.21312,6.173515],"type":"Point"},"properties":{"osm_id":"2439019024","tag":{"amenity":"waste_basket"}},"type":"Feature"},
	{"geometry":{"coordinates":[1.213251,6.174003],"type":"Point"},"properties":{"osm_id":"2439019030","tag":{"amenity":"waste_basket"}},"type":"Feature"},
	{"geometry":{"coordinates":[1.214236,6.17217],"type":"Point"},"properties":{"osm_id":"2439077741","tag":{"amenity":"waste_basket"}},"type":"Feature"},
	{"geometry":{"coordinates":[1.214134,6.175271],"type":"Point"},"properties":{"osm_id":"2439089179","tag":{"amenity":"waste_basket"}},"type":"Feature"},
	{"geometry":{"coordinates":[1.21403,6.175428],"type":"Point"},"properties":{"osm_id":"2439089181","tag":{"amenity":"waste_basket"}},"type":"Feature"},
	{"geometry":{"coordinates":[1.213656,6.171195],"type":"Point"},"properties":{"osm_id":"2524223803","tag":{"amenity":"waste_basket"}},"type":"Feature"},
	{"geometry":{"coordinates":[1.213241,6.171224],"type":"Point"},"properties":{"osm_id":"2524223804","tag":{"amenity":"waste_basket"}},"type":"Feature"},
	{"geometry":{"coordinates":[1.213148,6.171498],"type":"Point"},"properties":{"osm_id":"2524223806","tag":{"amenity":"waste_basket"}},"type":"Feature"},
	{"geometry":{"coordinates":[1.213916,6.17175],"type":"Point"},"properties":{"osm_id":"2524223808","tag":{"amenity":"waste_basket"}},"type":"Feature"},
	{"geometry":{"coordinates":[1.213124,6.171777],"type":"Point"},"properties":{"osm_id":"2524223809","tag":{"amenity":"waste_basket"}},"type":"Feature"},
	{"geometry":{"coordinates":[1.213504,6.171786],"type":"Point"},"properties":{"osm_id":"2524223810","tag":{"amenity":"waste_basket"}},"type":"Feature"},
	{"geometry":{"coordinates":[1.214688,6.172006],"type":"Point"},"properties":{"osm_id":"2524223819","tag":{"amenity":"waste_basket"}},"type":"Feature"},
	{"geometry":{"coordinates":[1.214771,6.172015],"type":"Point"},"properties":{"osm_id":"2524223820","tag":{"amenity":"waste_basket"}},"type":"Feature"},
	{"geometry":{"coordinates":[1.213396,6.172036],"type":"Point"},"properties":{"osm_id":"2524223821","tag":{"amenity":"waste_basket"}},"type":"Feature"},
	{"geometry":{"coordinates":[1.214069,6.172068],"type":"Point"},"properties":{"osm_id":"2524223823","tag":{"amenity":"waste_basket"}},"type":"Feature"},
	{"geometry":{"coordinates":[1.214254,6.172116],"type":"Point"},"properties":{"osm_id":"2524223824","tag":{"amenity":"waste_basket"}},"type":"Feature"},
	{"geometry":{"coordinates":[1.213489,6.172262],"type":"Point"},"properties":{"osm_id":"2524223829","tag":{"amenity":"waste_basket"}},"type":"Feature"},
	{"geometry":{"coordinates":[1.212715,6.172363],"type":"Point"},"properties":{"osm_id":"2524223830","tag":{"amenity":"waste_basket"}},"type":"Feature"},
	{"geometry":{"coordinates":[1.213283,6.172384],"type":"Point"},"properties":{"osm_id":"2524223831","tag":{"amenity":"waste_basket"}},"type":"Feature"},
	{"geometry":{"coordinates":[1.214718,6.172476],"type":"Point"},"properties":{"osm_id":"2524223833","tag":{"amenity":"waste_basket"}},"type":"Feature"},
	{"geometry":{"coordinates":[1.214027,6.172496],"type":"Point"},"properties":{"osm_id":"2524223834","tag":{"amenity":"waste_basket"}},"type":"Feature"},
	{"geometry":{"coordinates":[1.214484,6.17258],"type":"Point"},"properties":{"osm_id":"2524223835","tag":{"amenity":"waste_basket"}},"type":"Feature"},
	{"geometry":{"coordinates":[1.214132,6.172635],"type":"Point"},"properties":{"osm_id":"2524223836","tag":{"amenity":"waste_basket"}},"type":"Feature"},
	{"geometry":{"coordinates":[1.214171,6.172823],"type":"Point"},"properties":{"osm_id":"2524223837","tag":{"amenity":"waste_basket"}},"type":"Feature"},
	{"geometry":{"coordinates":[1.213705,6.174345],"type":"Point"},"properties":{"osm_id":"3745567454","tag":{"amenity":"waste_basket"}},"type":"Feature"},
	{"geometry":{"coordinates":[1.214405,6.174137],"type":"Point"},"properties":{"osm_id":"3745600831","tag":{"amenity":"waste_basket"}},"type":"Feature"},
	{"geometry":{"coordinates":[1.213557,6.174823],"type":"Point"},"properties":{"osm_id":"3745605831","tag":{"amenity":"waste_basket"}},"type":"Feature"},
	{"geometry":{"coordinates":[1.208691,6.183559],"type":"Point"},"properties":{"osm_id":"3977955607","tag":{"amenity":"waste_basket"}},"type":"Feature"},
	{"geometry":{"coordinates":[1.208671,6.183791],"type":"Point"},"properties":{"osm_id":"3977955611","tag":{"amenity":"waste_basket"}},"type":"Feature"},
	{"geometry":{"coordinates":[1.208281,6.183857],"type":"Point"},"properties":{"osm_id":"3977955613","tag":{"amenity":"waste_basket"}},"type":"Feature"},
	{"geometry":{"coordinates":[1.208605,6.183962],"type":"Point"},"properties":{"osm_id":"3977955614","tag":{"amenity":"waste_basket"}},"type":"Feature"},
	{"geometry":{"coordinates":[1.208632,6.184241],"type":"Point"},"properties":{"osm_id":"3977955616","tag":{"amenity":"waste_basket"}},"type":"Feature"},
	{"geometry":{"coordinates":[1.208422,6.184976],"type":"Point"},"properties":{"osm_id":"3977955623","tag":{"amenity":"waste_basket"}},"type":"Feature"},
	{"geometry":{"coordinates":[1.209494,6.185713],"type":"Point"},"properties":{"osm_id":"3977955637","tag":{"amenity":"waste_basket"}},"type":"Feature"},
	{"geometry":{"coordinates":[1.209458,6.186244],"type":"Point"},"properties":{"osm_id":"3977955641","tag":{"amenity":"waste_basket"}},"type":"Feature"},
	{"geometry":{"coordinates":[1.210414,6.186309],"type":"Point"},"properties":{"osm_id":"3977955643","tag":{"amenity":"waste_basket"}},"type":"Feature"},
	{"geometry":{"coordinates":[1.210637,6.186384],"type":"Point"},"properties":{"osm_id":"3977956266","tag":{"amenity":"waste_basket"}},"type":"Feature"},
	{"geometry":{"coordinates":[1.210695,6.186415],"type":"Point"},"properties":{"osm_id":"3977956267","tag":{"amenity":"waste_basket"}},"type":"Feature"},
	{"geometry":{"coordinates":[1.21103,6.186572],"type":"Point"},"properties":{"osm_id":"3977956271","tag":{"amenity":"waste_basket"}},"type":"Feature"},
	{"geometry":{"coordinates":[1.210252,6.186702],"type":"Point"},"properties":{"osm_id":"3977956272","tag":{"amenity":"waste_basket"}},"type":"Feature"},
	{"geometry":{"coordinates":[1.21098,6.186705],"type":"Point"},"properties":{"osm_id":"3977956273","tag":{"amenity":"waste_basket"}},"type":"Feature"},
	{"geometry":{"coordinates":[1.209845,6.187512],"type":"Point"},"properties":{"osm_id":"3977956277","tag":{"amenity":"waste_basket"}},"type":"Feature"},
	{"geometry":{"coordinates":[1.209749,6.187745],"type":"Point"},"properties":{"osm_id":"3977956279","tag":{"amenity":"waste_basket"}},"type":"Feature"},
	{"geometry":{"coordinates":[1.209657,6.184386],"type":"Point"},"properties":{"osm_id":"3977961400","tag":{"amenity":"waste_basket"}},"type":"Feature"},
	{"geometry":{"coordinates":[1.209613,6.184567],"type":"Point"},"properties":{"osm_id":"3977961401","tag":{"amenity":"waste_basket"}},"type":"Feature"},
	{"geometry":{"coordinates":[1.209372,6.184929],"type":"Point"},"properties":{"osm_id":"3977961402","tag":{"amenity":"waste_basket"}},"type":"Feature"},
	{"geometry":{"coordinates":[1.209423,6.185054],"type":"Point"},"properties":{"osm_id":"3977961403","tag":{"amenity":"waste_basket"}},"type":"Feature"},
	{"geometry":{"coordinates":[1.209471,6.185545],"type":"Point"},"properties":{"osm_id":"3977961406","tag":{"amenity":"waste_basket"}},"type":"Feature"},
	{"geometry":{"coordinates":[1.212991,6.176318],"type":"Point"},"properties":{"osm_id":"3982455240","tag":{"amenity":"waste_basket"}},"type":"Feature"},
	{"geometry":{"coordinates":[1.211718,6.176475],"type":"Point"},"properties":{"osm_id":"3982455244","tag":{"amenity":"waste_basket"}},"type":"Feature"},
	{"geometry":{"coordinates":[1.21215,6.176566],"type":"Point"},"properties":{"osm_id":"3982455245","tag":{"amenity":"waste_basket"}},"type":"Feature"},
	{"geometry":{"coordinates":[1.211799,6.176638],"type":"Point"},"properties":{"osm_id":"3982455246","tag":{"amenity":"waste_basket"}},"type":"Feature"},
	{"geometry":{"coordinates":[1.211688,6.17682],"type":"Point"},"properties":{"osm_id":"3982455247","tag":{"amenity":"waste_basket"}},"type":"Feature"},
	{"geometry":{"coordinates":[1.212139,6.173495],"type":"Point"},"properties":{"osm_id":"4721853573","tag":{"amenity":"waste_basket"}},"type":"Feature"},
	{"geometry":{"coordinates":[1.181328,6.169766],"type":"Point"},"properties":{"osm_id":"5156437140","tag":{"amenity":"recycling","recycling:batteries":"yes","recycling:cans":"yes","recycling:cardboard":"yes","recycling:clothes":"yes","recycling:electrical_appliances":"yes","recycling:glass":"yes","recycling:glass_bottles":"yes","recycling:green_waste":"yes","recycling:paper":"yes","recycling:plastic":"yes","recycling:plastic_bottles":"yes","recycling:plastic_packaging":"yes","recycling:scrap_metal":"yes","recycling:shoes":"yes","recycling:small_appliances":"yes","recycling:waste":"yes","recycling_type":"centre","wheelchair":"limited"}},"type":"Feature"},
	{"geometry":{"coordinates":[1.194995,6.182178],"type":"Point"},"properties":{"name":"Poubelle","osm_id":"6382053897","tag":{"amenity":"recycling"}},"type":"Feature"},
	{"geometry":{"coordinates":[1.195568,6.180423],"type":"Point"},"properties":{"name":"poubelle","osm_id":"6394895032","tag":{"amenity":"recycling"}},"type":"Feature"},
	{"geometry":{"coordinates":[1.203305,6.178443],"type":"Point"},"properties":{"osm_id":"7810027999","tag":{"amenity":"recycling","recycling:paper":"yes","recycling_type":"container"}},"type":"Feature"}
]
}
