{
"type": "FeatureCollection",
"features": [
	{"geometry":{"coordinates":[11.435563,53.880251],"type":"Point"},"properties":{"osm_id":"471971303","tag":{"amenity":"recycling"}},"type":"Feature"},
	{"geometry":{"coordinates":[11.454883,53.896655],"type":"Point"},"properties":{"osm_id":"474767475","tag":{"amenity":"waste_disposal","operator":"Sportbootservice Westhafen"}},"type":"Feature"},
	{"geometry":{"coordinates":[11.432115,53.884728],"type":"Point"},"properties":{"osm_id":"496066445","tag":{"amenity":"recycling","recycling_type":"container"}},"type":"Feature"},
	{"geometry":{"coordinates":[11.467087,53.897419],"type":"Point"},"properties":{"osm_id":"847109982","tag":{"amenity":"recycling","recycling_type":"container"}},"type":"Feature"},
	{"geometry":{"coordinates":[11.441424,53.889446],"type":"Point"},"properties":{"osm_id":"999395236","tag":{"amenity":"recycling","recycling_type":"container"}},"type":"Feature"},
	{"geometry":{"coordinates":[11.468745,53.885564],"type":"Point"},"properties":{"osm_id":"1384420889","tag":{"amenity":"recycling","location":"overground","recycling_type":"container"}},"type":"Feature"},
	{"geometry":{"coordinates":[11.465,53.895556],"type":"Point"},"properties":{"osm_id":"1758207678","tag":{"amenity":"waste_basket","image":"http://i.imgur.com/8xNCll.jpg"}},"type":"Feature"},
	{"geometry":{"coordinates":[11.46086,53.896373],"type":"Point"},"properties":{"osm_id":"1758216345","tag":{"amenity":"waste_basket"}},"type":"Feature"},
	{"geometry":{"coordinates":[11.439351,53.880346],"type":"Point"},"properties":{"osm_id":"2404280999","tag":{"amenity":"recycling","recycling_type":"container"}},"type":"Feature"},
	{"geometry":{"coordinates":[11.461153,53.882843],"type":"Point"},"properties":{"osm_id":"3219426637","tag":{"amenity":"waste_basket"}},"type":"Feature"},
	{"geometry":{"coordinates":[11.461501,53.883318],"type":"Point"},"properties":{"osm_id":"3219426646","tag":{"amenity":"waste_basket"}},"type":"Feature"},
	{"geometry":{"coordinates":[11.461935,53.884099],"type":"Point"},"properties":{"osm_id":"3219426659","tag":{"amenity":"waste_basket"}},"type":"Feature"},
	{"geometry":{"coordinates":[11.434263,53.854859],"type":"Point"},"properties":{"osm_id":"3280902962","tag":{"amenity":"recycling","recycling_type":"container"}},"type":"Feature"},
	{"geometry":{"coordinates":[11.431178,53.888535],"type":"Point"},"properties":{"osm_id":"3316531466","tag":{"amenity":"waste_basket"}},"type":"Feature"},
	{"geometry":{"coordinates":[11.436031,53.891959],"type":"Point"},"properties":{"osm_id":"3316531491","tag":{"amenity":"waste_basket"}},"type":"Feature"},
	{"geometry":{"coordinates":[11.435942,53.892139],"type":"Point"},"properties":{"osm_id":"3316531495","tag":{"amenity":"waste_basket"}},"type":"Feature"},
	{"geometry":{"coordinates":[11.437321,53.89265],"type":"Point"},"properties":{"osm_id":"3316531498","tag":{"amenity":"waste_basket"}},"type":"Feature"},
	{"geometry":{"coordinates":[11.432576,53.883128],"type":"Point"},"properties":{"osm_id":"3648821283","tag":{"amenity":"recycling","recycling:cans":"yes","recycling:clothes":"yes","recycling:glass_bottles":"yes","recycling:paper":"yes","recycling_type":"container"}},"type":"Feature"},
	{"geometry":{"coordinates":[11.506264,53.895044],"type":"Point"},"properties":{"osm_id":"3652574797","tag":{"amenity":"recycling","recycling:cans":"yes","recycling:clothes":"yes","recycling:glass_bottles":"yes","recycling:paper":"yes","recycling_type":"container"}},"type":"Feature"},
	{"geometry":{"coordinates":[11.457169,53.899455],"type":"Point"},"properties":{"osm_id":"4331325132","tag":{"amenity":"waste_basket"}},"type":"Feature"},
	{"geometry":{"coordinates":[11.461895,53.887826],"type":"Point"},"properties":{"osm_id":"4334599341","tag":{"amenity":"waste_basket"}},"type":"Feature"},
	{"geometry":{"coordinates":[11.470838,53.894705],"type":"Point"},"properties":{"osm_id":"4335382180","tag":{"amenity":"waste_basket"}},"type":"Feature"},
	{"geometry":{"coordinates":[11.470915,53.895062],"type":"Point"},"properties":{"osm_id":"4335382993","tag":{"amenity":"waste_basket"}},"type":"Feature"},
	{"geometry":{"coordinates":[11.471288,53.894297],"type":"Point"},"properties":{"osm_id":"4335726795","tag":{"amenity":"waste_basket"}},"type":"Feature"},
	{"geometry":{"coordinates":[11.479281,53.894504],"type":"Point"},"properties":{"osm_id":"4335726798","tag":{"amenity":"waste_basket"}},"type":"Feature"},
	{"geometry":{"coordinates":[11.479281,53.894495],"type":"Point"},"properties":{"osm_id":"4335726799","tag":{"amenity":"waste_basket"}},"type":"Feature"},
	{"geometry":{"coordinates":[11.466546,53.89223],"type":"Point"},"properties":{"osm_id":"4335978923","tag":{"amenity":"waste_basket"}},"type":"Feature"},
	{"geometry":{"coordinates":[11.461496,53.894864],"type":"Point"},"properties":{"osm_id":"4340325745","tag":{"amenity":"waste_basket"}},"type":"Feature"},
	{"geometry":{"coordinates":[11.474125,53.901909],"type":"Point"},"properties":{"osm_id":"4340711073","tag":{"amenity":"waste_basket"}},"type":"Feature"},
	{"geometry":{"coordinates":[11.474452,53.902156],"type":"Point"},"properties":{"osm_id":"4340838398","tag":{"amenity":"waste_basket"}},"type":"Feature"},
	{"geometry":{"coordinates":[11.472468,53.89884],"type":"Point"},"properties":{"osm_id":"4341088467","tag":{"amenity":"recycling","recycling:clothes":"yes","recycling:glass":"yes","recycling:paper":"yes","recycling_type":"container"}},"type":"Feature"},
	{"geometry":{"coordinates":[11.473075,53.903192],"type":"Point"},"properties":{"osm_id":"4400797552","tag":{"amenity":"recycling","recycling:cans":"yes","recycling:cardboard":"yes","recycling:clothes":"yes","recycling:glass":"yes","recycling:glass_bottles":"yes","recycling:newspaper":"yes","recycling:paper":"yes","recycling:plastic":"yes","recycling:plastic_bottles":"yes","recycling:plastic_packaging":"yes"}},"type":"Feature"},
	{"geometry":{"coordinates":[11.470459,53.890664],"type":"Point"},"properties":{"osm_id":"4905820254","tag":{"amenity":"recycling","recycling:glass_bottles":"yes","recycling_type":"container"}},"type":"Feature"},
	{"geometry":{"coordinates":[11.47081,53.888012],"type":"Point"},"properties":{"osm_id":"4909922545","tag":{"amenity":"recycling","recycling:clothes":"yes","recycling:glass_bottles":"yes","recycling:paper":"yes","recycling_type":"container"}},"type":"Feature"},
	{"geometry":{"coordinates":[11.463182,53.888135],"type":"Point"},"properties":{"osm_id":"4910349011","tag":{"amenity":"recycling","recycling:clothes":"yes","recycling:glass_bottles":"yes","recycling:paper":"yes","recycling_type":"container"}},"type":"Feature"},
	{"geometry":{"coordinates":[11.466782,53.891167],"type":"Point"},"properties":{"osm_id":"4911911382","tag":{"amenity":"waste_basket"}},"type":"Feature"},
	{"geometry":{"coordinates":[11.448111,53.890878],"type":"Point"},"properties":{"osm_id":"5046841536","tag":{"amenity":"recycling","recycling:glass_bottles":"yes","recycling_type":"container"}},"type":"Feature"},
	{"geometry":{"coordinates":[11.45191,53.892983],"type":"Point"},"properties":{"osm_id":"6379203591","tag":{"amenity":"recycling","recycling:clothes":"yes","recycling_type":"container","wheelchair":"yes"}},"type":"Feature"},
	{"geometry":{"coordinates":[11.44999,53.892211],"type":"Point"},"properties":{"osm_id":"6379203592","tag":{"amenity":"recycling","recycling:clothes":"yes","recycling:glass":"yes","recycling:paper":"yes","recycling_type":"container","wheelchair":"yes"}},"type":"Feature"},
	{"geometry":{"coordinates":[11.447924,53.891786],"type":"Point"},"properties":{"osm_id":"6379469350","tag":{"amenity":"recycling","recycling:clothes":"yes","recycling:glass":"yes","recycling:paper":"yes","recycling_type":"container","wheelchair":"limited"}},"type":"Feature"},
	{"geometry":{"coordinates":[11.432526,53.883447],"type":"Point"},"properties":{"osm_id":"6702965752","tag":{"amenity":"waste_basket"}},"type":"Feature"},
	{"geometry":{"coordinates":[11.463749,53.891494],"type":"Point"},"properties":{"osm_id":"7307170501","tag":{"amenity":"recycling","location":"underground","recycling:glass":"yes","recycling:paper":"yes","recycling:plastic":"yes","recycling_type":"container"}},"type":"Feature"},
	{"geometry":{"coordinates":[11.461638,53.897674],"type":"Point"},"properties":{"osm_id":"7640833685","tag":{"amenity":"waste_basket"}},"type":"Feature"}
]
}
