{
"type": "FeatureCollection",
"features": [
	{"geometry":{"coordinates":[11.448311,53.758722],"type":"Point"},"properties":{"osm_id":"566976809","tag":{"amenity":"recycling","recycling:clothes":"yes","recycling:glass_bottles":"yes","recycling_type":"container"}},"type":"Feature"},
	{"geometry":{"coordinates":[11.466268,53.774617],"type":"Point"},"properties":{"osm_id":"597808583","tag":{"amenity":"recycling","recycling_type":"container"}},"type":"Feature"},
	{"geometry":{"coordinates":[11.471409,53.772257],"type":"Point"},"properties":{"osm_id":"602810648","tag":{"amenity":"recycling","recycling:glass_bottles":"yes","recycling_type":"container"}},"type":"Feature"},
	{"geometry":{"coordinates":[11.449834,53.758715],"type":"Point"},"properties":{"osm_id":"2072603921","tag":{"amenity":"recycling","recycling_type":"container"}},"type":"Feature"},
	{"geometry":{"coordinates":[11.454272,53.756302],"type":"Point"},"properties":{"osm_id":"4704924322","tag":{"amenity":"waste_basket"}},"type":"Feature"},
	{"geometry":{"coordinates":[11.454906,53.756574],"type":"Point"},"properties":{"osm_id":"4704924323","tag":{"amenity":"waste_basket"}},"type":"Feature"},
	{"geometry":{"coordinates":[11.465959,53.7674],"type":"Point"},"properties":{"osm_id":"6525164915","tag":{"amenity":"waste_basket"}},"type":"Feature"},
	{"geometry":{"coordinates":[11.497488,53.750981],"type":"Point"},"properties":{"osm_id":"6654610634","tag":{"amenity":"recycling","location":"overground","recycling:glass":"yes","recycling:paper":"yes","recycling_type":"container"}},"type":"Feature"},
	{"geometry":{"coordinates":[11.489929,53.778465],"type":"Point"},"properties":{"osm_id":"7694930786","tag":{"amenity":"waste_basket"}},"type":"Feature"},
	{"geometry":{"coordinates":[11.4668,53.767885],"type":"Point"},"properties":{"osm_id":"8349440957","tag":{"amenity":"waste_basket","waste":"trash"}},"type":"Feature"},
	{"geometry":{"coordinates":[11.498478,53.749306],"type":"Point"},"properties":{"osm_id":"9023820488","tag":{"amenity":"waste_basket"}},"type":"Feature"},
	{"geometry":{"coordinates":[11.497506,53.750962],"type":"Point"},"properties":{"osm_id":"9023820492","tag":{"amenity":"waste_disposal"}},"type":"Feature"},
	{"geometry":{"coordinates":[11.4786,53.769619],"type":"Point"},"properties":{"osm_id":"9078776014","tag":{"amenity":"waste_basket","waste":"trash"}},"type":"Feature"},
	{"geometry":{"coordinates":[11.46399,53.775036],"type":"Point"},"properties":{"osm_id":"9078776016","tag":{"amenity":"waste_basket","waste":"trash"}},"type":"Feature"},
	{"geometry":{"coordinates":[11.466282,53.774333],"type":"Point"},"properties":{"osm_id":"9078785717","tag":{"amenity":"waste_basket","waste":"trash"}},"type":"Feature"},
	{"geometry":{"coordinates":[11.465214,53.775049],"type":"Point"},"properties":{"osm_id":"9078785723","tag":{"amenity":"waste_basket","waste":"trash"}},"type":"Feature"},
	{"geometry":{"coordinates":[11.469924,53.773345],"type":"Point"},"properties":{"osm_id":"9078785725","tag":{"amenity":"waste_basket","waste":"trash"}},"type":"Feature"},
	{"geometry":{"coordinates":[11.470748,53.77277],"type":"Point"},"properties":{"osm_id":"9078785726","tag":{"amenity":"waste_basket","waste":"trash"}},"type":"Feature"},
	{"geometry":{"coordinates":[11.462864,53.774567],"type":"Point"},"properties":{"osm_id":"9078785727","tag":{"amenity":"waste_basket","waste":"trash"}},"type":"Feature"},
	{"geometry":{"coordinates":[11.467512,53.773959],"type":"Point"},"properties":{"osm_id":"9078785728","tag":{"amenity":"waste_basket","waste":"trash"}},"type":"Feature"},
	{"geometry":{"coordinates":[11.479451,53.771188],"type":"Point"},"properties":{"osm_id":"9078785729","tag":{"amenity":"waste_basket","waste":"trash"}},"type":"Feature"},
	{"geometry":{"coordinates":[11.474856,53.77293],"type":"Point"},"properties":{"osm_id":"9078785730","tag":{"amenity":"waste_basket","waste":"trash"}},"type":"Feature"}
]
}
