{
"type": "FeatureCollection",
"features": [
	{"geometry":{"coordinates":[11.500757,53.326758],"type":"Point"},"properties":{"osm_id":"702759749","tag":{"amenity":"recycling","location":"underground","recycling:cans":"yes","recycling:glass":"yes","recycling:paper":"yes","recycling_type":"container"}},"type":"Feature"},
	{"geometry":{"coordinates":[11.504842,53.320868],"type":"Point"},"properties":{"osm_id":"2540378596","tag":{"amenity":"recycling","recycling:glass":"yes","recycling:paper":"yes","recycling_type":"container"}},"type":"Feature"},
	{"geometry":{"coordinates":[11.49121,53.324301],"type":"Point"},"properties":{"osm_id":"3107358479","tag":{"amenity":"waste_basket"}},"type":"Feature"},
	{"geometry":{"coordinates":[11.49133,53.324476],"type":"Point"},"properties":{"osm_id":"3107358483","tag":{"amenity":"waste_basket"}},"type":"Feature"},
	{"geometry":{"coordinates":[11.489686,53.315156],"type":"Point"},"properties":{"osm_id":"3798771847","tag":{"amenity":"recycling","recycling:glass":"yes","recycling:paper":"yes","recycling_type":"container"}},"type":"Feature"},
	{"geometry":{"coordinates":[11.491371,53.305566],"type":"Point"},"properties":{"osm_id":"3803310081","tag":{"amenity":"recycling","recycling:glass":"yes","recycling:paper":"yes","recycling_type":"container"}},"type":"Feature"},
	{"geometry":{"coordinates":[11.489181,53.322732],"type":"Point"},"properties":{"osm_id":"6454005638","tag":{"amenity":"waste_basket"}},"type":"Feature"},
	{"geometry":{"coordinates":[11.489077,53.322719],"type":"Point"},"properties":{"osm_id":"6454005640","tag":{"amenity":"waste_basket"}},"type":"Feature"},
	{"geometry":{"coordinates":[11.48301,53.324347],"type":"Point"},"properties":{"osm_id":"7633314834","tag":{"amenity":"waste_basket","waste":"trash"}},"type":"Feature"},
	{"geometry":{"coordinates":[11.483638,53.32641],"type":"Point"},"properties":{"osm_id":"7633314836","tag":{"amenity":"waste_basket","waste":"trash"}},"type":"Feature"}
]
}
