{
"type": "FeatureCollection",
"features": [
	{"geometry":{"coordinates":[11.499078,49.931833],"type":"Point"},"properties":{"highway":"footway","osm_id":"258076176","tag":{"amenity":"recycling","bicycle":"yes","recycling:clothes":"yes","recycling:shoes":"yes","recycling_type":"container","surface":"paving_stones"}},"type":"Feature"},
	{"geometry":{"coordinates":[11.506497,49.910264],"type":"Point"},"properties":{"name":"Recyclinghof Mistelbach","osm_id":"259039304","tag":{"amenity":"recycling","operator":"Gemeinde Mistelbach","recycling_type":"centre"}},"type":"Feature"},
	{"geometry":{"coordinates":[11.459447,49.912946],"type":"Point"},"properties":{"osm_id":"672158905","tag":{"amenity":"recycling"}},"type":"Feature"},
	{"geometry":{"coordinates":[11.456125,49.907304],"type":"Point"},"properties":{"osm_id":"672158906","tag":{"amenity":"recycling"}},"type":"Feature"},
	{"geometry":{"coordinates":[11.462199,49.951022],"type":"Point"},"properties":{"osm_id":"1739365886","tag":{"amenity":"waste_basket"}},"type":"Feature"},
	{"geometry":{"coordinates":[11.51311,49.908243],"type":"Point"},"properties":{"osm_id":"1800773668","tag":{"amenity":"waste_basket"}},"type":"Feature"},
	{"geometry":{"coordinates":[11.472109,49.943993],"type":"Point"},"properties":{"osm_id":"2371993067","tag":{"amenity":"waste_basket"}},"type":"Feature"},
	{"geometry":{"coordinates":[11.477793,49.951212],"type":"Point"},"properties":{"osm_id":"2371993091","tag":{"amenity":"waste_basket"}},"type":"Feature"},
	{"geometry":{"coordinates":[11.509547,49.927479],"type":"Point"},"properties":{"osm_id":"2637233457","tag":{"amenity":"recycling","recycling:glass_bottles":"yes","recycling_type":"container"}},"type":"Feature"},
	{"geometry":{"coordinates":[11.513235,49.933533],"type":"Point"},"properties":{"osm_id":"7571962776","tag":{"amenity":"waste_basket"}},"type":"Feature"},
	{"geometry":{"coordinates":[11.503935,49.896503],"type":"Point"},"properties":{"osm_id":"9045476598","tag":{"amenity":"waste_basket"}},"type":"Feature"},
	{"geometry":{"coordinates":[11.496474,49.896342],"type":"Point"},"properties":{"osm_id":"9045484498","tag":{"amenity":"waste_basket"}},"type":"Feature"},
	{"geometry":{"coordinates":[11.503218,49.90162],"type":"Point"},"properties":{"osm_id":"9045513530","tag":{"amenity":"waste_basket","dog":"yes"}},"type":"Feature"}
]
}
