{
"type": "FeatureCollection",
"features": [
	{"geometry":{"coordinates":[11.43488,49.267799],"type":"Point"},"properties":{"osm_id":"5305134798","tag":{"amenity":"recycling","recycling:green_waste":"yes","recycling_type":"container"}},"type":"Feature"},
	{"geometry":{"coordinates":[11.467241,49.266074],"type":"Point"},"properties":{"osm_id":"7762368826","tag":{"amenity":"recycling","opening_hours":"Mo-Sa 07:00-20:00; PH off","recycling:garden_waste":"yes","recycling_type":"container"}},"type":"Feature"},
	{"geometry":{"coordinates":[11.460483,49.237863],"type":"Point"},"properties":{"osm_id":"7917745496","tag":{"amenity":"recycling","recycling:glass":"yes","recycling_type":"container"}},"type":"Feature"},
	{"geometry":{"coordinates":[11.509649,49.261679],"type":"Point"},"properties":{"osm_id":"8592341007","tag":{"amenity":"waste_basket","waste":"trash"}},"type":"Feature"},
	{"geometry":{"coordinates":[11.468728,49.250128],"type":"Point"},"properties":{"osm_id":"9118288159","tag":{"amenity":"waste_basket"}},"type":"Feature"}
]
}
