{
"type": "FeatureCollection",
"features": [
	{"geometry":{"coordinates":[11.503498,49.008199],"type":"Point"},"properties":{"osm_id":"1345171699","tag":{"amenity":"recycling"}},"type":"Feature"},
	{"geometry":{"coordinates":[11.478481,49.028955],"type":"Point"},"properties":{"osm_id":"1351768815","tag":{"amenity":"recycling","recycling:glass":"yes","recycling_type":"container"}},"type":"Feature"},
	{"geometry":{"coordinates":[11.444563,49.004486],"type":"Point"},"properties":{"osm_id":"1783920136","tag":{"amenity":"recycling","recycling_type":"container"}},"type":"Feature"},
	{"geometry":{"coordinates":[11.447233,49.004529],"type":"Point"},"properties":{"osm_id":"1783920138","tag":{"amenity":"recycling","recycling_type":"container"}},"type":"Feature"},
	{"geometry":{"coordinates":[11.432881,48.99136],"type":"Point"},"properties":{"osm_id":"1977030756","tag":{"amenity":"recycling","recycling_type":"container"}},"type":"Feature"},
	{"geometry":{"coordinates":[11.498332,49.018492],"type":"Point"},"properties":{"osm_id":"2748596274","tag":{"amenity":"waste_basket"}},"type":"Feature"},
	{"geometry":{"coordinates":[11.489447,49.019284],"type":"Point"},"properties":{"osm_id":"3208193753","tag":{"amenity":"waste_basket","seasonal":"yes"}},"type":"Feature"},
	{"geometry":{"coordinates":[11.459425,49.033223],"type":"Point"},"properties":{"osm_id":"3249957433","tag":{"amenity":"recycling","recycling_type":"container"}},"type":"Feature"},
	{"geometry":{"coordinates":[11.444798,49.000472],"type":"Point"},"properties":{"osm_id":"3942639603","tag":{"amenity":"waste_basket"}},"type":"Feature"},
	{"geometry":{"coordinates":[11.444772,49.000485],"type":"Point"},"properties":{"osm_id":"3942639604","tag":{"amenity":"recycling","recycling_type":"container"}},"type":"Feature"},
	{"geometry":{"coordinates":[11.478296,49.035081],"type":"Point"},"properties":{"osm_id":"4554344771","tag":{"amenity":"waste_basket"}},"type":"Feature"},
	{"geometry":{"coordinates":[11.452331,49.004142],"type":"Point"},"properties":{"barrier":"gate","osm_id":"4885761946","tag":{"bicycle":"yes","foot":"yes","motorcar":"yes","motorcycle":"yes"}},"type":"Feature"}
]
}
