{
"type": "FeatureCollection",
"features": [
	{"geometry":{"coordinates":[11.428732,48.76951],"type":"Point"},"properties":{"osm_id":"271782716","tag":{"amenity":"recycling"}},"type":"Feature"},
	{"geometry":{"coordinates":[11.433044,48.779843],"type":"Point"},"properties":{"osm_id":"276188957","tag":{"amenity":"recycling","recycling:clothes":"yes","recycling:glass":"yes"}},"type":"Feature"},
	{"geometry":{"coordinates":[11.437923,48.765956],"type":"Point"},"properties":{"osm_id":"279105161","tag":{"amenity":"recycling","recycling:clothes":"yes","recycling:glass":"yes","recycling:shoes":"yes"}},"type":"Feature"},
	{"geometry":{"coordinates":[11.452961,48.785785],"type":"Point"},"properties":{"osm_id":"279460176","tag":{"amenity":"recycling","opening_hours":"08:00-18:00","recycling:clothes":"yes","recycling:glass":"yes"}},"type":"Feature"},
	{"geometry":{"coordinates":[11.454899,48.782585],"type":"Point"},"properties":{"osm_id":"279460189","tag":{"amenity":"recycling","recycling:glass":"yes"}},"type":"Feature"},
	{"geometry":{"coordinates":[11.453989,48.765816],"type":"Point"},"properties":{"osm_id":"282542422","tag":{"amenity":"recycling","recycling:clothes":"yes","recycling:glass":"yes"}},"type":"Feature"},
	{"geometry":{"coordinates":[11.46012,48.804622],"type":"Point"},"properties":{"osm_id":"360803097","tag":{"amenity":"recycling","opening_hours":"Mo-Sa 07:00-20:00","recycling:cans":"yes","recycling:clothes":"yes","recycling:glass":"yes","recycling:glass_bottles":"yes","recycling_type":"container","wheelchair":"yes"}},"type":"Feature"},
	{"geometry":{"coordinates":[11.458957,48.778143],"type":"Point"},"properties":{"osm_id":"418755919","tag":{"amenity":"recycling","location":"overground","recycling_type":"container"}},"type":"Feature"},
	{"geometry":{"coordinates":[11.450946,48.791865],"type":"Point"},"properties":{"osm_id":"577071766","tag":{"amenity":"recycling","recycling:clothes":"yes","recycling:glass":"yes"}},"type":"Feature"},
	{"geometry":{"coordinates":[11.435035,48.77173],"type":"Point"},"properties":{"osm_id":"680311245","tag":{"amenity":"recycling","recycling:glass":"yes"}},"type":"Feature"},
	{"geometry":{"coordinates":[11.43539,48.771534],"type":"Point"},"properties":{"osm_id":"683133131","tag":{"amenity":"recycling"}},"type":"Feature"},
	{"geometry":{"coordinates":[11.451555,48.759441],"type":"Point"},"properties":{"osm_id":"772068792","tag":{"amenity":"recycling","recycling:clothes":"yes","recycling:shoes":"yes"}},"type":"Feature"},
	{"geometry":{"coordinates":[11.440115,48.763607],"type":"Point"},"properties":{"osm_id":"772068796","tag":{"amenity":"recycling","recycling:clothes":"yes","recycling:glass":"yes","recycling:shoes":"yes"}},"type":"Feature"},
	{"geometry":{"coordinates":[11.427873,48.768354],"type":"Point"},"properties":{"osm_id":"915689306","tag":{"amenity":"waste_basket","waste":"trash"}},"type":"Feature"},
	{"geometry":{"coordinates":[11.42878,48.767666],"type":"Point"},"properties":{"osm_id":"915689335","tag":{"amenity":"waste_basket"}},"type":"Feature"},
	{"geometry":{"coordinates":[11.429947,48.766773],"type":"Point"},"properties":{"osm_id":"915689356","tag":{"amenity":"waste_basket","waste":"trash"}},"type":"Feature"},
	{"geometry":{"coordinates":[11.429732,48.767039],"type":"Point"},"properties":{"osm_id":"915690029","tag":{"amenity":"waste_basket"}},"type":"Feature"},
	{"geometry":{"coordinates":[11.426469,48.7698],"type":"Point"},"properties":{"osm_id":"1193967984","tag":{"amenity":"waste_basket","waste":"trash"}},"type":"Feature"},
	{"geometry":{"coordinates":[11.434824,48.754756],"type":"Point"},"properties":{"osm_id":"1260304865","tag":{"amenity":"recycling","recycling:clothes":"yes","recycling:glass":"yes"}},"type":"Feature"},
	{"geometry":{"coordinates":[11.439278,48.758098],"type":"Point"},"properties":{"osm_id":"1261090523","tag":{"amenity":"recycling"}},"type":"Feature"},
	{"geometry":{"coordinates":[11.438979,48.772783],"type":"Point"},"properties":{"osm_id":"1268901963","tag":{"amenity":"recycling"}},"type":"Feature"},
	{"geometry":{"coordinates":[11.43934,48.794979],"type":"Point"},"properties":{"osm_id":"1282776696","tag":{"amenity":"recycling","opening_hours":"Mo-Sa 08:00-18:00; PH off","recycling:clothes":"yes","recycling:glass":"yes","recycling_type":"container"}},"type":"Feature"},
	{"geometry":{"coordinates":[11.46097,48.768648],"type":"Point"},"properties":{"osm_id":"1333685076","tag":{"amenity":"recycling","recycling:cans":"no","recycling:clothes":"yes","recycling:glass":"yes","recycling:paper":"no","recycling:plastic":"no","recycling_type":"container"}},"type":"Feature"},
	{"geometry":{"coordinates":[11.429536,48.763672],"type":"Point"},"properties":{"osm_id":"1581458772","tag":{"amenity":"recycling","location":"overground","recycling_type":"container"}},"type":"Feature"},
	{"geometry":{"coordinates":[11.428169,48.768129],"type":"Point"},"properties":{"osm_id":"1671593363","tag":{"amenity":"waste_basket"}},"type":"Feature"},
	{"geometry":{"coordinates":[11.475682,48.76847],"type":"Point"},"properties":{"osm_id":"1821113857","tag":{"amenity":"recycling","recycling:batteries":"no","recycling:cans":"no","recycling:clothes":"yes","recycling:glass":"yes","recycling:paper":"no","recycling:plastic":"no","recycling_type":"container"}},"type":"Feature"},
	{"geometry":{"coordinates":[11.427451,48.750634],"type":"Point"},"properties":{"osm_id":"2129028041","tag":{"amenity":"recycling","recycling:clothes":"yes"}},"type":"Feature"},
	{"geometry":{"coordinates":[11.429026,48.75238],"type":"Point"},"properties":{"osm_id":"2149017392","tag":{"amenity":"recycling","recycling:clothes":"yes","recycling_type":"container"}},"type":"Feature"},
	{"geometry":{"coordinates":[11.442726,48.761175],"type":"Point"},"properties":{"osm_id":"2183111800","tag":{"amenity":"recycling","recycling:clothes":"yes","recycling:glass":"yes","recycling_type":"container"}},"type":"Feature"},
	{"geometry":{"coordinates":[11.430232,48.76648],"type":"Point"},"properties":{"osm_id":"2354314538","tag":{"amenity":"waste_basket","waste":"trash"}},"type":"Feature"},
	{"geometry":{"coordinates":[11.429336,48.767224],"type":"Point"},"properties":{"osm_id":"2355511398","tag":{"amenity":"waste_basket","waste":"trash"}},"type":"Feature"},
	{"geometry":{"coordinates":[11.467466,48.80561],"type":"Point"},"properties":{"osm_id":"2491903646","tag":{"amenity":"waste_basket"}},"type":"Feature"},
	{"geometry":{"coordinates":[11.437799,48.763159],"type":"Point"},"properties":{"osm_id":"2526713865","tag":{"amenity":"recycling"}},"type":"Feature"},
	{"geometry":{"coordinates":[11.456157,48.774962],"type":"Point"},"properties":{"osm_id":"2670648345","tag":{"amenity":"waste_basket"}},"type":"Feature"},
	{"geometry":{"coordinates":[11.454441,48.774065],"type":"Point"},"properties":{"osm_id":"2670648351","tag":{"amenity":"waste_basket"}},"type":"Feature"},
	{"geometry":{"coordinates":[11.426365,48.761067],"type":"Point"},"properties":{"osm_id":"2678564013","tag":{"amenity":"waste_basket"}},"type":"Feature"},
	{"geometry":{"coordinates":[11.430294,48.776993],"type":"Point"},"properties":{"osm_id":"2879772244","tag":{"amenity":"recycling","recycling:clothes":"yes","recycling:glass":"yes"}},"type":"Feature"},
	{"geometry":{"coordinates":[11.448328,48.769578],"type":"Point"},"properties":{"osm_id":"3075902760","tag":{"amenity":"recycling","recycling:cans":"no","recycling:clothes":"yes","recycling:glass":"no","recycling:paper":"no"}},"type":"Feature"},
	{"geometry":{"coordinates":[11.429497,48.774855],"type":"Point"},"properties":{"osm_id":"3238957551","tag":{"amenity":"recycling","recycling:clothes":"yes","recycling:shoes":"yes","recycling_type":"container"}},"type":"Feature"},
	{"geometry":{"coordinates":[11.47236,48.783096],"type":"Point"},"properties":{"osm_id":"3729073897","tag":{"amenity":"recycling","recycling:glass":"yes","recycling_type":"container"}},"type":"Feature"},
	{"geometry":{"coordinates":[11.440786,48.759226],"type":"Point"},"properties":{"osm_id":"3797175445","tag":{"amenity":"recycling","recycling:glass":"yes","recycling_type":"container"}},"type":"Feature"},
	{"geometry":{"coordinates":[11.49297,48.774284],"type":"Point"},"properties":{"osm_id":"3987128043","tag":{"amenity":"recycling","recycling:cans":"no","recycling:clothes":"yes","recycling:glass":"yes","recycling:paper":"no","recycling:plastic":"no","recycling_type":"container"}},"type":"Feature"},
	{"geometry":{"coordinates":[11.469891,48.769875],"type":"Point"},"properties":{"osm_id":"3987128044","tag":{"amenity":"recycling","recycling:cans":"no","recycling:clothes":"yes","recycling:glass":"no","recycling:glass_bottles":"no","recycling:paper":"no","recycling:plastic":"no","recycling_type":"container"}},"type":"Feature"},
	{"geometry":{"coordinates":[11.475156,48.767406],"type":"Point"},"properties":{"osm_id":"4378133727","tag":{"amenity":"waste_disposal","waste":"organic"}},"type":"Feature"},
	{"geometry":{"coordinates":[11.475097,48.767409],"type":"Point"},"properties":{"osm_id":"4378133728","tag":{"amenity":"waste_disposal","waste":"trash"}},"type":"Feature"},
	{"geometry":{"coordinates":[11.431371,48.757733],"type":"Point"},"properties":{"osm_id":"6088338784","tag":{"amenity":"waste_basket"}},"type":"Feature"},
	{"geometry":{"coordinates":[11.442121,48.757886],"type":"Point"},"properties":{"osm_id":"6293066979","tag":{"amenity":"recycling","recycling:glass":"yes","recycling:glass_bottles":"yes","recycling_type":"container"}},"type":"Feature"},
	{"geometry":{"coordinates":[11.460035,48.755015],"type":"Point"},"properties":{"osm_id":"6344014490","tag":{"amenity":"waste_basket"}},"type":"Feature"},
	{"geometry":{"coordinates":[11.426235,48.753939],"type":"Point"},"properties":{"osm_id":"6565751967","tag":{"amenity":"waste_basket"}},"type":"Feature"},
	{"geometry":{"coordinates":[11.425829,48.772199],"type":"Point"},"properties":{"osm_id":"7171170348","tag":{"amenity":"waste_basket","waste":"trash"}},"type":"Feature"},
	{"geometry":{"coordinates":[11.428939,48.771622],"type":"Point"},"properties":{"osm_id":"7171170352","tag":{"amenity":"waste_basket","waste":"trash"}},"type":"Feature"},
	{"geometry":{"coordinates":[11.426985,48.771945],"type":"Point"},"properties":{"osm_id":"7171170353","tag":{"amenity":"waste_basket","waste":"trash"}},"type":"Feature"},
	{"geometry":{"coordinates":[11.432007,48.770406],"type":"Point"},"properties":{"osm_id":"7185184679","tag":{"amenity":"waste_basket","waste":"trash"}},"type":"Feature"},
	{"geometry":{"coordinates":[11.433761,48.769412],"type":"Point"},"properties":{"osm_id":"7185204802","tag":{"amenity":"waste_basket","waste":"trash"}},"type":"Feature"},
	{"geometry":{"coordinates":[11.430965,48.768497],"type":"Point"},"properties":{"osm_id":"7185204820","tag":{"amenity":"waste_basket","waste":"trash"}},"type":"Feature"},
	{"geometry":{"coordinates":[11.429634,48.76888],"type":"Point"},"properties":{"osm_id":"7185204839","tag":{"amenity":"waste_basket","waste":"trash"}},"type":"Feature"},
	{"geometry":{"coordinates":[11.431351,48.770693],"type":"Point"},"properties":{"osm_id":"7185204847","tag":{"amenity":"waste_basket","waste":"trash"}},"type":"Feature"},
	{"geometry":{"coordinates":[11.430956,48.768731],"type":"Point"},"properties":{"osm_id":"7185204852","tag":{"amenity":"waste_basket","waste":"trash"}},"type":"Feature"},
	{"geometry":{"coordinates":[11.430766,48.768074],"type":"Point"},"properties":{"osm_id":"7185204857","tag":{"amenity":"waste_basket","waste":"trash"}},"type":"Feature"},
	{"geometry":{"coordinates":[11.432444,48.768785],"type":"Point"},"properties":{"osm_id":"7185204858","tag":{"amenity":"waste_basket","waste":"trash"}},"type":"Feature"},
	{"geometry":{"coordinates":[11.432625,48.770209],"type":"Point"},"properties":{"osm_id":"7185204860","tag":{"amenity":"waste_basket","waste":"trash"}},"type":"Feature"},
	{"geometry":{"coordinates":[11.432432,48.76893],"type":"Point"},"properties":{"osm_id":"7185204862","tag":{"amenity":"waste_basket","waste":"trash"}},"type":"Feature"},
	{"geometry":{"coordinates":[11.427726,48.768577],"type":"Point"},"properties":{"osm_id":"7188646483","tag":{"amenity":"waste_basket","waste":"trash"}},"type":"Feature"},
	{"geometry":{"coordinates":[11.428687,48.767639],"type":"Point"},"properties":{"osm_id":"7188675917","tag":{"amenity":"waste_basket","waste":"trash"}},"type":"Feature"},
	{"geometry":{"coordinates":[11.432548,48.767493],"type":"Point"},"properties":{"osm_id":"7188675932","tag":{"amenity":"waste_basket","waste":"trash"}},"type":"Feature"},
	{"geometry":{"coordinates":[11.428175,48.767937],"type":"Point"},"properties":{"osm_id":"7188675941","tag":{"amenity":"waste_basket","waste":"trash"}},"type":"Feature"},
	{"geometry":{"coordinates":[11.427786,48.768233],"type":"Point"},"properties":{"osm_id":"7188675944","tag":{"amenity":"waste_basket","waste":"trash"}},"type":"Feature"},
	{"geometry":{"coordinates":[11.431856,48.767104],"type":"Point"},"properties":{"osm_id":"7188675971","tag":{"amenity":"waste_basket","waste":"trash"}},"type":"Feature"},
	{"geometry":{"coordinates":[11.431218,48.765824],"type":"Point"},"properties":{"osm_id":"7188705354","tag":{"amenity":"waste_basket","waste":"trash"}},"type":"Feature"},
	{"geometry":{"coordinates":[11.430654,48.766063],"type":"Point"},"properties":{"osm_id":"7188705357","tag":{"amenity":"waste_basket","waste":"trash"}},"type":"Feature"},
	{"geometry":{"coordinates":[11.433218,48.766208],"type":"Point"},"properties":{"osm_id":"7191580799","tag":{"amenity":"waste_basket","waste":"trash"}},"type":"Feature"},
	{"geometry":{"coordinates":[11.432326,48.765527],"type":"Point"},"properties":{"osm_id":"7191580801","tag":{"amenity":"waste_basket","waste":"trash"}},"type":"Feature"},
	{"geometry":{"coordinates":[11.432685,48.765577],"type":"Point"},"properties":{"osm_id":"7191580819","tag":{"amenity":"waste_basket","waste":"trash"}},"type":"Feature"},
	{"geometry":{"coordinates":[11.434199,48.765024],"type":"Point"},"properties":{"osm_id":"7191580822","tag":{"amenity":"waste_basket","waste":"trash"}},"type":"Feature"},
	{"geometry":{"coordinates":[11.432675,48.765532],"type":"Point"},"properties":{"osm_id":"7191580828","tag":{"amenity":"waste_basket","waste":"trash"}},"type":"Feature"},
	{"geometry":{"coordinates":[11.435348,48.767523],"type":"Point"},"properties":{"osm_id":"7191580834","tag":{"amenity":"waste_basket","waste":"trash"}},"type":"Feature"},
	{"geometry":{"coordinates":[11.435071,48.768134],"type":"Point"},"properties":{"osm_id":"7191580860","tag":{"amenity":"waste_basket","waste":"trash"}},"type":"Feature"},
	{"geometry":{"coordinates":[11.433126,48.76636],"type":"Point"},"properties":{"osm_id":"7191580862","tag":{"amenity":"waste_basket","waste":"trash"}},"type":"Feature"},
	{"geometry":{"coordinates":[11.433138,48.765635],"type":"Point"},"properties":{"osm_id":"7191580869","tag":{"amenity":"waste_basket","waste":"trash"}},"type":"Feature"},
	{"geometry":{"coordinates":[11.433526,48.767567],"type":"Point"},"properties":{"osm_id":"7191636393","tag":{"amenity":"waste_basket","waste":"trash"}},"type":"Feature"},
	{"geometry":{"coordinates":[11.432808,48.767255],"type":"Point"},"properties":{"osm_id":"7191636423","tag":{"amenity":"waste_basket","waste":"trash"}},"type":"Feature"},
	{"geometry":{"coordinates":[11.433338,48.766695],"type":"Point"},"properties":{"osm_id":"7191636432","tag":{"amenity":"waste_basket","waste":"trash"}},"type":"Feature"},
	{"geometry":{"coordinates":[11.43306,48.767053],"type":"Point"},"properties":{"osm_id":"7191636438","tag":{"amenity":"waste_basket","waste":"trash"}},"type":"Feature"},
	{"geometry":{"coordinates":[11.432967,48.767164],"type":"Point"},"properties":{"osm_id":"7191636442","tag":{"amenity":"waste_basket","waste":"trash"}},"type":"Feature"},
	{"geometry":{"coordinates":[11.433205,48.766959],"type":"Point"},"properties":{"osm_id":"7191636445","tag":{"amenity":"waste_basket","waste":"trash"}},"type":"Feature"},
	{"geometry":{"coordinates":[11.426355,48.769425],"type":"Point"},"properties":{"osm_id":"7194696854","tag":{"amenity":"waste_basket","waste":"trash"}},"type":"Feature"},
	{"geometry":{"coordinates":[11.426331,48.769286],"type":"Point"},"properties":{"osm_id":"7194767095","tag":{"amenity":"waste_basket","waste":"trash"}},"type":"Feature"},
	{"geometry":{"coordinates":[11.471557,48.750424],"type":"Point"},"properties":{"osm_id":"7195111165","tag":{"amenity":"waste_basket","waste":"trash"}},"type":"Feature"},
	{"geometry":{"coordinates":[11.464117,48.753545],"type":"Point"},"properties":{"osm_id":"7195111167","tag":{"amenity":"waste_basket","waste":"trash"}},"type":"Feature"},
	{"geometry":{"coordinates":[11.463046,48.752567],"type":"Point"},"properties":{"osm_id":"7195111170","tag":{"amenity":"waste_basket","waste":"trash"}},"type":"Feature"},
	{"geometry":{"coordinates":[11.469341,48.750124],"type":"Point"},"properties":{"osm_id":"7195111172","tag":{"amenity":"waste_basket","waste":"trash"}},"type":"Feature"},
	{"geometry":{"coordinates":[11.46428,48.753476],"type":"Point"},"properties":{"osm_id":"7195111178","tag":{"amenity":"waste_basket","waste":"trash"}},"type":"Feature"},
	{"geometry":{"coordinates":[11.470652,48.751457],"type":"Point"},"properties":{"osm_id":"7195111179","tag":{"amenity":"waste_basket","waste":"trash"}},"type":"Feature"},
	{"geometry":{"coordinates":[11.468222,48.749749],"type":"Point"},"properties":{"osm_id":"7195111183","tag":{"amenity":"waste_basket","waste":"trash"}},"type":"Feature"},
	{"geometry":{"coordinates":[11.470473,48.750128],"type":"Point"},"properties":{"osm_id":"7195111184","tag":{"amenity":"waste_basket","waste":"trash"}},"type":"Feature"},
	{"geometry":{"coordinates":[11.472131,48.751169],"type":"Point"},"properties":{"osm_id":"7195132685","tag":{"amenity":"waste_basket","waste":"trash"}},"type":"Feature"},
	{"geometry":{"coordinates":[11.426158,48.767998],"type":"Point"},"properties":{"osm_id":"7196857038","tag":{"amenity":"waste_basket","waste":"trash"}},"type":"Feature"},
	{"geometry":{"coordinates":[11.430256,48.76593],"type":"Point"},"properties":{"osm_id":"7196857048","tag":{"amenity":"waste_basket","waste":"trash"}},"type":"Feature"},
	{"geometry":{"coordinates":[11.426249,48.768865],"type":"Point"},"properties":{"osm_id":"7196857056","tag":{"amenity":"waste_basket","waste":"trash"}},"type":"Feature"},
	{"geometry":{"coordinates":[11.42605,48.768319],"type":"Point"},"properties":{"osm_id":"7196857072","tag":{"amenity":"waste_basket","waste":"trash"}},"type":"Feature"},
	{"geometry":{"coordinates":[11.429511,48.765404],"type":"Point"},"properties":{"osm_id":"7196857079","tag":{"amenity":"waste_basket","waste":"trash"}},"type":"Feature"},
	{"geometry":{"coordinates":[11.425886,48.767566],"type":"Point"},"properties":{"osm_id":"7196895814","tag":{"amenity":"waste_basket","waste":"trash"}},"type":"Feature"},
	{"geometry":{"coordinates":[11.425861,48.767431],"type":"Point"},"properties":{"osm_id":"7196895816","tag":{"amenity":"waste_basket","waste":"trash"}},"type":"Feature"},
	{"geometry":{"coordinates":[11.425868,48.766931],"type":"Point"},"properties":{"osm_id":"7196895818","tag":{"amenity":"waste_basket","waste":"trash"}},"type":"Feature"},
	{"geometry":{"coordinates":[11.425994,48.767863],"type":"Point"},"properties":{"osm_id":"7196895825","tag":{"amenity":"waste_basket","waste":"trash"}},"type":"Feature"},
	{"geometry":{"coordinates":[11.425883,48.767401],"type":"Point"},"properties":{"osm_id":"7196895827","tag":{"amenity":"waste_basket","waste":"trash"}},"type":"Feature"},
	{"geometry":{"coordinates":[11.426031,48.767608],"type":"Point"},"properties":{"osm_id":"7196895829","tag":{"amenity":"waste_basket","waste":"trash"}},"type":"Feature"},
	{"geometry":{"coordinates":[11.426943,48.771551],"type":"Point"},"properties":{"osm_id":"7201080552","tag":{"amenity":"waste_basket","waste":"trash"}},"type":"Feature"},
	{"geometry":{"coordinates":[11.435845,48.786054],"type":"Point"},"properties":{"osm_id":"7201080564","tag":{"amenity":"waste_basket","waste":"trash"}},"type":"Feature"},
	{"geometry":{"coordinates":[11.435499,48.787596],"type":"Point"},"properties":{"osm_id":"7201080584","tag":{"amenity":"waste_basket","waste":"trash"}},"type":"Feature"},
	{"geometry":{"coordinates":[11.427077,48.771538],"type":"Point"},"properties":{"osm_id":"7201082385","tag":{"amenity":"waste_basket","waste":"trash"}},"type":"Feature"},
	{"geometry":{"coordinates":[11.431888,48.781573],"type":"Point"},"properties":{"osm_id":"7201082386","tag":{"amenity":"waste_basket","waste":"trash"}},"type":"Feature"},
	{"geometry":{"coordinates":[11.427202,48.771497],"type":"Point"},"properties":{"osm_id":"7201082393","tag":{"amenity":"waste_basket","waste":"trash"}},"type":"Feature"},
	{"geometry":{"coordinates":[11.438096,48.765961],"type":"Point"},"properties":{"osm_id":"7203977094","tag":{"amenity":"waste_basket","waste":"trash"}},"type":"Feature"},
	{"geometry":{"coordinates":[11.439033,48.766124],"type":"Point"},"properties":{"osm_id":"7203977098","tag":{"amenity":"waste_basket","waste":"trash"}},"type":"Feature"},
	{"geometry":{"coordinates":[11.438778,48.766103],"type":"Point"},"properties":{"osm_id":"7203977109","tag":{"amenity":"waste_basket","waste":"trash"}},"type":"Feature"},
	{"geometry":{"coordinates":[11.438459,48.76603],"type":"Point"},"properties":{"osm_id":"7203977114","tag":{"amenity":"waste_basket","waste":"trash"}},"type":"Feature"},
	{"geometry":{"coordinates":[11.437982,48.765875],"type":"Point"},"properties":{"osm_id":"7203977117","tag":{"amenity":"recycling","opening_hours":"Mo-Sa 07:00-20:00","recycling:glass":"yes","recycling_type":"container","wheelchair":"yes"}},"type":"Feature"},
	{"geometry":{"coordinates":[11.437969,48.766248],"type":"Point"},"properties":{"osm_id":"7203977122","tag":{"amenity":"waste_basket","waste":"trash"}},"type":"Feature"},
	{"geometry":{"coordinates":[11.438332,48.766317],"type":"Point"},"properties":{"osm_id":"7203977141","tag":{"amenity":"waste_basket","waste":"trash"}},"type":"Feature"},
	{"geometry":{"coordinates":[11.438898,48.766419],"type":"Point"},"properties":{"osm_id":"7203977149","tag":{"amenity":"waste_basket","waste":"trash"}},"type":"Feature"},
	{"geometry":{"coordinates":[11.426163,48.762878],"type":"Point"},"properties":{"osm_id":"7205472842","tag":{"amenity":"waste_basket","waste":"trash"}},"type":"Feature"},
	{"geometry":{"coordinates":[11.426058,48.763067],"type":"Point"},"properties":{"osm_id":"7205472856","tag":{"amenity":"waste_basket","waste":"trash"}},"type":"Feature"},
	{"geometry":{"coordinates":[11.426252,48.763154],"type":"Point"},"properties":{"osm_id":"7205571643","tag":{"amenity":"waste_basket","waste":"trash"}},"type":"Feature"},
	{"geometry":{"coordinates":[11.426682,48.762678],"type":"Point"},"properties":{"osm_id":"7205586989","tag":{"amenity":"waste_basket","waste":"trash"}},"type":"Feature"},
	{"geometry":{"coordinates":[11.427738,48.763417],"type":"Point"},"properties":{"osm_id":"7207591858","tag":{"amenity":"waste_basket","waste":"trash"}},"type":"Feature"},
	{"geometry":{"coordinates":[11.427645,48.763],"type":"Point"},"properties":{"osm_id":"7207591859","tag":{"amenity":"waste_basket","waste":"trash"}},"type":"Feature"},
	{"geometry":{"coordinates":[11.427349,48.763331],"type":"Point"},"properties":{"osm_id":"7207591864","tag":{"amenity":"waste_basket","waste":"trash"}},"type":"Feature"},
	{"geometry":{"coordinates":[11.427779,48.763093],"type":"Point"},"properties":{"osm_id":"7207591877","tag":{"amenity":"waste_basket","waste":"trash"}},"type":"Feature"},
	{"geometry":{"coordinates":[11.42792,48.763464],"type":"Point"},"properties":{"osm_id":"7207611987","tag":{"amenity":"waste_basket","waste":"trash"}},"type":"Feature"},
	{"geometry":{"coordinates":[11.428079,48.763094],"type":"Point"},"properties":{"osm_id":"7207611993","tag":{"amenity":"waste_basket","waste":"trash"}},"type":"Feature"},
	{"geometry":{"coordinates":[11.428386,48.762858],"type":"Point"},"properties":{"osm_id":"7207640307","tag":{"amenity":"waste_basket","waste":"trash"}},"type":"Feature"},
	{"geometry":{"coordinates":[11.428377,48.76359],"type":"Point"},"properties":{"osm_id":"7207640310","tag":{"amenity":"waste_basket","waste":"trash"}},"type":"Feature"},
	{"geometry":{"coordinates":[11.425819,48.766215],"type":"Point"},"properties":{"osm_id":"7226707249","tag":{"amenity":"waste_basket","waste":"trash"}},"type":"Feature"},
	{"geometry":{"coordinates":[11.439453,48.792365],"type":"Point"},"properties":{"osm_id":"7226707258","tag":{"amenity":"waste_basket","waste":"trash"}},"type":"Feature"},
	{"geometry":{"coordinates":[11.426641,48.770284],"type":"Point"},"properties":{"osm_id":"7226707280","tag":{"amenity":"waste_basket","waste":"trash"}},"type":"Feature"},
	{"geometry":{"coordinates":[11.426448,48.764133],"type":"Point"},"properties":{"osm_id":"7226835728","tag":{"amenity":"waste_basket","waste":"trash"}},"type":"Feature"},
	{"geometry":{"coordinates":[11.425842,48.765413],"type":"Point"},"properties":{"osm_id":"7226835742","tag":{"amenity":"waste_basket","waste":"trash"}},"type":"Feature"},
	{"geometry":{"coordinates":[11.426672,48.763714],"type":"Point"},"properties":{"osm_id":"7226835744","tag":{"amenity":"waste_basket","waste":"trash"}},"type":"Feature"},
	{"geometry":{"coordinates":[11.425856,48.765428],"type":"Point"},"properties":{"osm_id":"7226835745","tag":{"amenity":"waste_basket","waste":"trash"}},"type":"Feature"},
	{"geometry":{"coordinates":[11.426624,48.763566],"type":"Point"},"properties":{"man_made":"street_cabinet","osm_id":"7226835751","tag":{"amenity":"waste_basket","operator":"Vodafone GmbH","street_cabinet":"telecom","telecom":"connection_point"}},"type":"Feature"},
	{"geometry":{"coordinates":[11.4261,48.764293],"type":"Point"},"properties":{"osm_id":"7226835758","tag":{"amenity":"waste_basket","waste":"trash"}},"type":"Feature"},
	{"geometry":{"coordinates":[11.425934,48.764854],"type":"Point"},"properties":{"osm_id":"7226835771","tag":{"amenity":"waste_basket","waste":"trash"}},"type":"Feature"},
	{"geometry":{"coordinates":[11.425994,48.764541],"type":"Point"},"properties":{"osm_id":"7226835773","tag":{"amenity":"waste_basket","waste":"trash"}},"type":"Feature"},
	{"geometry":{"coordinates":[11.426063,48.767149],"type":"Point"},"properties":{"osm_id":"7236300292","tag":{"amenity":"waste_basket","waste":"trash"}},"type":"Feature"},
	{"geometry":{"coordinates":[11.428858,48.76558],"type":"Point"},"properties":{"osm_id":"7238135124","tag":{"amenity":"waste_basket","waste":"trash"}},"type":"Feature"},
	{"geometry":{"coordinates":[11.429585,48.766645],"type":"Point"},"properties":{"osm_id":"7238135183","tag":{"amenity":"waste_basket","waste":"trash"}},"type":"Feature"},
	{"geometry":{"coordinates":[11.456728,48.80662],"type":"Point"},"properties":{"osm_id":"7249450470","tag":{"amenity":"waste_basket","waste":"trash"}},"type":"Feature"},
	{"geometry":{"coordinates":[11.430971,48.765478],"type":"Point"},"properties":{"osm_id":"7252252398","tag":{"amenity":"waste_basket","waste":"trash"}},"type":"Feature"},
	{"geometry":{"coordinates":[11.430344,48.765647],"type":"Point"},"properties":{"osm_id":"7252252422","tag":{"amenity":"waste_basket","waste":"trash"}},"type":"Feature"},
	{"geometry":{"coordinates":[11.429666,48.765048],"type":"Point"},"properties":{"osm_id":"7252252423","tag":{"amenity":"waste_basket","waste":"trash"}},"type":"Feature"},
	{"geometry":{"coordinates":[11.430899,48.765552],"type":"Point"},"properties":{"osm_id":"7252252425","tag":{"amenity":"waste_basket","waste":"trash"}},"type":"Feature"},
	{"geometry":{"coordinates":[11.429711,48.764936],"type":"Point"},"properties":{"osm_id":"7252252434","tag":{"amenity":"waste_basket","waste":"trash"}},"type":"Feature"},
	{"geometry":{"coordinates":[11.429494,48.764653],"type":"Point"},"properties":{"osm_id":"7252252436","tag":{"amenity":"waste_basket","waste":"trash"}},"type":"Feature"},
	{"geometry":{"coordinates":[11.429474,48.769995],"type":"Point"},"properties":{"osm_id":"7252252438","tag":{"amenity":"waste_basket","waste":"trash"}},"type":"Feature"},
	{"geometry":{"coordinates":[11.430733,48.766138],"type":"Point"},"properties":{"osm_id":"7252252440","tag":{"amenity":"waste_basket","waste":"trash"}},"type":"Feature"},
	{"geometry":{"coordinates":[11.429371,48.76504],"type":"Point"},"properties":{"osm_id":"7252252441","tag":{"amenity":"waste_basket","waste":"trash"}},"type":"Feature"},
	{"geometry":{"coordinates":[11.429851,48.764583],"type":"Point"},"properties":{"osm_id":"7252252446","tag":{"amenity":"waste_basket","waste":"trash"}},"type":"Feature"},
	{"geometry":{"coordinates":[11.429675,48.764439],"type":"Point"},"properties":{"osm_id":"7252252457","tag":{"amenity":"waste_basket","waste":"trash"}},"type":"Feature"},
	{"geometry":{"coordinates":[11.429738,48.769897],"type":"Point"},"properties":{"osm_id":"7252252470","tag":{"amenity":"waste_basket","waste":"trash"}},"type":"Feature"},
	{"geometry":{"coordinates":[11.428679,48.764686],"type":"Point"},"properties":{"osm_id":"7252254933","tag":{"amenity":"waste_basket","waste":"trash"}},"type":"Feature"},
	{"geometry":{"coordinates":[11.427856,48.764423],"type":"Point"},"properties":{"osm_id":"7252254935","tag":{"amenity":"waste_basket","waste":"trash"}},"type":"Feature"},
	{"geometry":{"coordinates":[11.42811,48.764606],"type":"Point"},"properties":{"osm_id":"7252254954","tag":{"amenity":"waste_basket","waste":"trash"}},"type":"Feature"},
	{"geometry":{"coordinates":[11.427906,48.764574],"type":"Point"},"properties":{"osm_id":"7252254958","tag":{"amenity":"waste_basket","waste":"trash"}},"type":"Feature"},
	{"geometry":{"coordinates":[11.427249,48.764446],"type":"Point"},"properties":{"osm_id":"7252254961","tag":{"amenity":"waste_basket","waste":"trash"}},"type":"Feature"},
	{"geometry":{"coordinates":[11.428764,48.764695],"type":"Point"},"properties":{"osm_id":"7252254970","tag":{"amenity":"waste_basket","waste":"trash"}},"type":"Feature"},
	{"geometry":{"coordinates":[11.429403,48.764977],"type":"Point"},"properties":{"osm_id":"7252263289","tag":{"amenity":"waste_basket","waste":"trash"}},"type":"Feature"},
	{"geometry":{"coordinates":[11.431002,48.765903],"type":"Point"},"properties":{"osm_id":"7252263291","tag":{"amenity":"waste_basket","waste":"trash"}},"type":"Feature"},
	{"geometry":{"coordinates":[11.429774,48.764794],"type":"Point"},"properties":{"osm_id":"7252263293","tag":{"amenity":"waste_basket","waste":"trash"}},"type":"Feature"},
	{"geometry":{"coordinates":[11.42982,48.765499],"type":"Point"},"properties":{"osm_id":"7252263308","tag":{"amenity":"waste_basket","waste":"trash"}},"type":"Feature"},
	{"geometry":{"coordinates":[11.427101,48.763648],"type":"Point"},"properties":{"osm_id":"7252363979","tag":{"amenity":"waste_basket","waste":"trash"}},"type":"Feature"},
	{"geometry":{"coordinates":[11.429016,48.763963],"type":"Point"},"properties":{"osm_id":"7254561328","tag":{"amenity":"waste_basket","waste":"trash"}},"type":"Feature"},
	{"geometry":{"coordinates":[11.430291,48.763166],"type":"Point"},"properties":{"osm_id":"7254561331","tag":{"amenity":"waste_basket","waste":"trash"}},"type":"Feature"},
	{"geometry":{"coordinates":[11.429998,48.763534],"type":"Point"},"properties":{"osm_id":"7254561335","tag":{"amenity":"waste_basket","waste":"trash"}},"type":"Feature"},
	{"geometry":{"coordinates":[11.428912,48.763847],"type":"Point"},"properties":{"osm_id":"7254561348","tag":{"amenity":"waste_basket","waste":"trash"}},"type":"Feature"},
	{"geometry":{"coordinates":[11.429535,48.764079],"type":"Point"},"properties":{"osm_id":"7254561349","tag":{"amenity":"waste_basket","waste":"trash"}},"type":"Feature"},
	{"geometry":{"coordinates":[11.42915,48.763951],"type":"Point"},"properties":{"osm_id":"7254561357","tag":{"amenity":"waste_basket","waste":"trash"}},"type":"Feature"},
	{"geometry":{"coordinates":[11.429366,48.764023],"type":"Point"},"properties":{"osm_id":"7254561367","tag":{"amenity":"waste_basket","waste":"trash"}},"type":"Feature"},
	{"geometry":{"coordinates":[11.430897,48.763389],"type":"Point"},"properties":{"osm_id":"7254668073","tag":{"amenity":"waste_basket","waste":"trash"}},"type":"Feature"},
	{"geometry":{"coordinates":[11.429726,48.764133],"type":"Point"},"properties":{"osm_id":"7254675985","tag":{"amenity":"waste_basket","waste":"trash"}},"type":"Feature"},
	{"geometry":{"coordinates":[11.430641,48.763392],"type":"Point"},"properties":{"osm_id":"7254701197","tag":{"amenity":"waste_basket","waste":"trash"}},"type":"Feature"},
	{"geometry":{"coordinates":[11.430773,48.763452],"type":"Point"},"properties":{"osm_id":"7254701215","tag":{"amenity":"waste_basket","waste":"trash"}},"type":"Feature"},
	{"geometry":{"coordinates":[11.430213,48.764242],"type":"Point"},"properties":{"osm_id":"7254701221","tag":{"amenity":"waste_basket","waste":"trash"}},"type":"Feature"},
	{"geometry":{"coordinates":[11.430669,48.764308],"type":"Point"},"properties":{"osm_id":"7254701234","tag":{"amenity":"waste_basket","waste":"trash"}},"type":"Feature"},
	{"geometry":{"coordinates":[11.428028,48.764092],"type":"Point"},"properties":{"man_made":"street_cabinet","osm_id":"7254728128","tag":{"amenity":"waste_basket","operator":"Vodafone GmbH","street_cabinet":"telecom","telecom":"connection_point"}},"type":"Feature"},
	{"geometry":{"coordinates":[11.426918,48.765499],"type":"Point"},"properties":{"osm_id":"7261454044","tag":{"amenity":"waste_basket","waste":"trash"}},"type":"Feature"},
	{"geometry":{"coordinates":[11.427471,48.765438],"type":"Point"},"properties":{"osm_id":"7261454045","tag":{"amenity":"waste_basket","waste":"trash"}},"type":"Feature"},
	{"geometry":{"coordinates":[11.426775,48.765336],"type":"Point"},"properties":{"osm_id":"7261454049","tag":{"amenity":"waste_basket","waste":"trash"}},"type":"Feature"},
	{"geometry":{"coordinates":[11.426969,48.765339],"type":"Point"},"properties":{"osm_id":"7261454066","tag":{"amenity":"waste_basket","waste":"trash"}},"type":"Feature"},
	{"geometry":{"coordinates":[11.42729,48.76541],"type":"Point"},"properties":{"osm_id":"7261454068","tag":{"amenity":"waste_basket","waste":"trash"}},"type":"Feature"},
	{"geometry":{"coordinates":[11.427351,48.765403],"type":"Point"},"properties":{"osm_id":"7261454071","tag":{"amenity":"waste_basket","waste":"trash"}},"type":"Feature"},
	{"geometry":{"coordinates":[11.427256,48.764025],"type":"Point"},"properties":{"osm_id":"7265665683","tag":{"amenity":"waste_basket","waste":"trash"}},"type":"Feature"},
	{"geometry":{"coordinates":[11.427789,48.764787],"type":"Point"},"properties":{"osm_id":"7265679494","tag":{"amenity":"waste_basket","waste":"trash"}},"type":"Feature"},
	{"geometry":{"coordinates":[11.427785,48.763945],"type":"Point"},"properties":{"osm_id":"7265679508","tag":{"amenity":"waste_basket","waste":"trash"}},"type":"Feature"},
	{"geometry":{"coordinates":[11.427706,48.764981],"type":"Point"},"properties":{"osm_id":"7265679509","tag":{"amenity":"waste_basket","waste":"trash"}},"type":"Feature"},
	{"geometry":{"coordinates":[11.427802,48.764741],"type":"Point"},"properties":{"osm_id":"7265679515","tag":{"amenity":"waste_basket","waste":"trash"}},"type":"Feature"},
	{"geometry":{"coordinates":[11.427986,48.763546],"type":"Point"},"properties":{"osm_id":"7265679537","tag":{"amenity":"waste_basket","waste":"trash"}},"type":"Feature"},
	{"geometry":{"coordinates":[11.428103,48.763751],"type":"Point"},"properties":{"osm_id":"7265679540","tag":{"amenity":"waste_basket","waste":"trash"}},"type":"Feature"},
	{"geometry":{"coordinates":[11.428267,48.763659],"type":"Point"},"properties":{"osm_id":"7265679552","tag":{"amenity":"waste_basket","waste":"trash"}},"type":"Feature"},
	{"geometry":{"coordinates":[11.428001,48.763732],"type":"Point"},"properties":{"osm_id":"7265679553","tag":{"amenity":"waste_basket","waste":"trash"}},"type":"Feature"},
	{"geometry":{"coordinates":[11.460609,48.805833],"type":"Point"},"properties":{"osm_id":"7271390597","tag":{"amenity":"waste_basket","waste":"trash"}},"type":"Feature"},
	{"geometry":{"coordinates":[11.45977,48.80519],"type":"Point"},"properties":{"osm_id":"7271390607","tag":{"amenity":"waste_basket","waste":"trash"}},"type":"Feature"},
	{"geometry":{"coordinates":[11.460006,48.805813],"type":"Point"},"properties":{"osm_id":"7271390618","tag":{"amenity":"waste_basket","waste":"trash"}},"type":"Feature"},
	{"geometry":{"coordinates":[11.461111,48.805995],"type":"Point"},"properties":{"osm_id":"7271390623","tag":{"amenity":"waste_basket","waste":"trash"}},"type":"Feature"},
	{"geometry":{"coordinates":[11.459682,48.805831],"type":"Point"},"properties":{"osm_id":"7271390647","tag":{"amenity":"waste_basket","waste":"trash"}},"type":"Feature"},
	{"geometry":{"coordinates":[11.425975,48.76432],"type":"Point"},"properties":{"osm_id":"7278956303","tag":{"amenity":"waste_basket","waste":"trash"}},"type":"Feature"},
	{"geometry":{"coordinates":[11.458475,48.803412],"type":"Point"},"properties":{"osm_id":"7280329717","tag":{"amenity":"waste_basket","waste":"trash"}},"type":"Feature"},
	{"geometry":{"coordinates":[11.428149,48.7621],"type":"Point"},"properties":{"osm_id":"7281662263","tag":{"amenity":"waste_basket","waste":"trash"}},"type":"Feature"},
	{"geometry":{"coordinates":[11.428098,48.761945],"type":"Point"},"properties":{"osm_id":"7281662272","tag":{"amenity":"waste_basket","waste":"trash"}},"type":"Feature"},
	{"geometry":{"coordinates":[11.427381,48.762437],"type":"Point"},"properties":{"osm_id":"7281662274","tag":{"amenity":"waste_basket","waste":"trash"}},"type":"Feature"},
	{"geometry":{"coordinates":[11.429807,48.76301],"type":"Point"},"properties":{"osm_id":"7281705162","tag":{"amenity":"waste_basket","waste":"trash"}},"type":"Feature"},
	{"geometry":{"coordinates":[11.429331,48.762844],"type":"Point"},"properties":{"osm_id":"7281705173","tag":{"amenity":"waste_basket","waste":"trash"}},"type":"Feature"},
	{"geometry":{"coordinates":[11.429447,48.762883],"type":"Point"},"properties":{"osm_id":"7281705178","tag":{"amenity":"waste_basket","waste":"trash"}},"type":"Feature"},
	{"geometry":{"coordinates":[11.428632,48.762654],"type":"Point"},"properties":{"osm_id":"7281736679","tag":{"amenity":"waste_basket","waste":"trash"}},"type":"Feature"},
	{"geometry":{"coordinates":[11.42612,48.762307],"type":"Point"},"properties":{"man_made":"street_cabinet","osm_id":"7281736684","tag":{"amenity":"waste_basket","operator":"Deutsche Telekom AG","street_cabinet":"telecom","telecom":"service_device"}},"type":"Feature"},
	{"geometry":{"coordinates":[11.428616,48.762767],"type":"Point"},"properties":{"osm_id":"7281747092","tag":{"amenity":"waste_basket","waste":"trash"}},"type":"Feature"},
	{"geometry":{"coordinates":[11.428207,48.762823],"type":"Point"},"properties":{"osm_id":"7281747098","tag":{"amenity":"waste_basket","waste":"trash"}},"type":"Feature"},
	{"geometry":{"coordinates":[11.426179,48.76239],"type":"Point"},"properties":{"osm_id":"7281747103","tag":{"amenity":"waste_basket","waste":"trash"}},"type":"Feature"},
	{"geometry":{"coordinates":[11.428711,48.762767],"type":"Point"},"properties":{"osm_id":"7281747105","tag":{"amenity":"waste_basket","waste":"trash"}},"type":"Feature"},
	{"geometry":{"coordinates":[11.425967,48.761591],"type":"Point"},"properties":{"osm_id":"7284134522","tag":{"amenity":"waste_basket","waste":"trash"}},"type":"Feature"},
	{"geometry":{"coordinates":[11.426786,48.76077],"type":"Point"},"properties":{"osm_id":"7284134531","tag":{"amenity":"waste_basket","waste":"trash"}},"type":"Feature"},
	{"geometry":{"coordinates":[11.426149,48.762545],"type":"Point"},"properties":{"osm_id":"7284157436","tag":{"amenity":"waste_basket","waste":"trash"}},"type":"Feature"},
	{"geometry":{"coordinates":[11.425933,48.76247],"type":"Point"},"properties":{"osm_id":"7284157458","tag":{"amenity":"waste_basket","waste":"trash"}},"type":"Feature"},
	{"geometry":{"coordinates":[11.429224,48.760119],"type":"Point"},"properties":{"osm_id":"7290797763","tag":{"amenity":"waste_basket","waste":"trash"}},"type":"Feature"},
	{"geometry":{"coordinates":[11.429731,48.760903],"type":"Point"},"properties":{"osm_id":"7290797773","tag":{"amenity":"waste_basket","waste":"trash"}},"type":"Feature"},
	{"geometry":{"coordinates":[11.430338,48.761337],"type":"Point"},"properties":{"osm_id":"7290797781","tag":{"amenity":"waste_basket","waste":"trash"}},"type":"Feature"},
	{"geometry":{"coordinates":[11.430171,48.761344],"type":"Point"},"properties":{"osm_id":"7290801490","tag":{"amenity":"waste_basket","waste":"trash"}},"type":"Feature"},
	{"geometry":{"coordinates":[11.431525,48.76186],"type":"Point"},"properties":{"osm_id":"7290801511","tag":{"amenity":"waste_basket","waste":"trash"}},"type":"Feature"},
	{"geometry":{"coordinates":[11.432024,48.761684],"type":"Point"},"properties":{"osm_id":"7290801512","tag":{"amenity":"waste_basket","waste":"trash"}},"type":"Feature"},
	{"geometry":{"coordinates":[11.430737,48.761701],"type":"Point"},"properties":{"osm_id":"7290801521","tag":{"amenity":"waste_basket","waste":"trash"}},"type":"Feature"},
	{"geometry":{"coordinates":[11.430878,48.763164],"type":"Point"},"properties":{"osm_id":"7293760548","tag":{"amenity":"waste_basket","waste":"trash"}},"type":"Feature"},
	{"geometry":{"coordinates":[11.428678,48.761824],"type":"Point"},"properties":{"osm_id":"7293760564","tag":{"amenity":"waste_basket","waste":"trash"}},"type":"Feature"},
	{"geometry":{"coordinates":[11.428693,48.761944],"type":"Point"},"properties":{"osm_id":"7293760568","tag":{"amenity":"waste_basket","waste":"trash"}},"type":"Feature"},
	{"geometry":{"coordinates":[11.433721,48.763066],"type":"Point"},"properties":{"osm_id":"7298387692","tag":{"amenity":"waste_basket","waste":"trash"}},"type":"Feature"},
	{"geometry":{"coordinates":[11.436371,48.763704],"type":"Point"},"properties":{"osm_id":"7298387720","tag":{"amenity":"waste_basket","waste":"trash"}},"type":"Feature"},
	{"geometry":{"coordinates":[11.435029,48.76347],"type":"Point"},"properties":{"osm_id":"7298387730","tag":{"amenity":"waste_basket","waste":"trash"}},"type":"Feature"},
	{"geometry":{"coordinates":[11.433347,48.762236],"type":"Point"},"properties":{"osm_id":"7301321138","tag":{"amenity":"waste_basket","waste":"trash"}},"type":"Feature"},
	{"geometry":{"coordinates":[11.433908,48.762479],"type":"Point"},"properties":{"osm_id":"7301321142","tag":{"amenity":"waste_basket","waste":"trash"}},"type":"Feature"},
	{"geometry":{"coordinates":[11.434601,48.760647],"type":"Point"},"properties":{"osm_id":"7301321159","tag":{"amenity":"waste_basket","waste":"trash"}},"type":"Feature"},
	{"geometry":{"coordinates":[11.433117,48.761962],"type":"Point"},"properties":{"osm_id":"7301321166","tag":{"amenity":"waste_basket","waste":"trash"}},"type":"Feature"},
	{"geometry":{"coordinates":[11.433976,48.761122],"type":"Point"},"properties":{"osm_id":"7301321177","tag":{"amenity":"waste_basket","waste":"trash"}},"type":"Feature"},
	{"geometry":{"coordinates":[11.434674,48.760662],"type":"Point"},"properties":{"osm_id":"7301321180","tag":{"amenity":"waste_basket","waste":"trash"}},"type":"Feature"},
	{"geometry":{"coordinates":[11.434616,48.762782],"type":"Point"},"properties":{"osm_id":"7301321181","tag":{"amenity":"waste_basket","waste":"trash"}},"type":"Feature"},
	{"geometry":{"coordinates":[11.435136,48.761812],"type":"Point"},"properties":{"osm_id":"7301340790","tag":{"amenity":"waste_basket","waste":"trash"}},"type":"Feature"},
	{"geometry":{"coordinates":[11.434119,48.760951],"type":"Point"},"properties":{"osm_id":"7301340796","tag":{"amenity":"waste_basket","waste":"trash"}},"type":"Feature"},
	{"geometry":{"coordinates":[11.436018,48.762807],"type":"Point"},"properties":{"osm_id":"7301340817","tag":{"amenity":"waste_basket","waste":"trash"}},"type":"Feature"},
	{"geometry":{"coordinates":[11.435293,48.761231],"type":"Point"},"properties":{"osm_id":"7301340828","tag":{"amenity":"waste_basket","waste":"trash"}},"type":"Feature"},
	{"geometry":{"coordinates":[11.432459,48.761851],"type":"Point"},"properties":{"osm_id":"7306176067","tag":{"amenity":"waste_basket","waste":"trash"}},"type":"Feature"},
	{"geometry":{"coordinates":[11.432952,48.761766],"type":"Point"},"properties":{"osm_id":"7306176070","tag":{"amenity":"waste_basket","waste":"trash"}},"type":"Feature"},
	{"geometry":{"coordinates":[11.432767,48.761684],"type":"Point"},"properties":{"osm_id":"7306176074","tag":{"amenity":"waste_basket","waste":"trash"}},"type":"Feature"},
	{"geometry":{"coordinates":[11.432302,48.760475],"type":"Point"},"properties":{"osm_id":"7306282914","tag":{"amenity":"waste_basket","waste":"trash"}},"type":"Feature"},
	{"geometry":{"coordinates":[11.433242,48.760125],"type":"Point"},"properties":{"osm_id":"7306282917","tag":{"amenity":"waste_basket","waste":"trash"}},"type":"Feature"},
	{"geometry":{"coordinates":[11.431929,48.760044],"type":"Point"},"properties":{"osm_id":"7306282918","tag":{"amenity":"waste_basket","waste":"trash"}},"type":"Feature"},
	{"geometry":{"coordinates":[11.432372,48.760072],"type":"Point"},"properties":{"osm_id":"7306282927","tag":{"amenity":"waste_basket","waste":"trash"}},"type":"Feature"},
	{"geometry":{"coordinates":[11.434436,48.760275],"type":"Point"},"properties":{"osm_id":"7306282928","tag":{"amenity":"waste_basket","waste":"trash"}},"type":"Feature"},
	{"geometry":{"coordinates":[11.436536,48.759737],"type":"Point"},"properties":{"osm_id":"7306282931","tag":{"amenity":"waste_basket","waste":"dog_excrement"}},"type":"Feature"},
	{"geometry":{"coordinates":[11.430486,48.759737],"type":"Point"},"properties":{"osm_id":"7306282948","tag":{"amenity":"waste_basket","waste":"trash"}},"type":"Feature"},
	{"geometry":{"coordinates":[11.434311,48.760144],"type":"Point"},"properties":{"osm_id":"7306282949","tag":{"amenity":"waste_basket","waste":"trash"}},"type":"Feature"},
	{"geometry":{"coordinates":[11.433817,48.76075],"type":"Point"},"properties":{"osm_id":"7306282957","tag":{"amenity":"waste_basket","waste":"trash"}},"type":"Feature"},
	{"geometry":{"coordinates":[11.432846,48.760099],"type":"Point"},"properties":{"osm_id":"7306282958","tag":{"amenity":"waste_basket","waste":"trash"}},"type":"Feature"},
	{"geometry":{"coordinates":[11.433576,48.759989],"type":"Point"},"properties":{"osm_id":"7306282961","tag":{"amenity":"waste_basket","waste":"dog_excrement"}},"type":"Feature"},
	{"geometry":{"coordinates":[11.432582,48.759913],"type":"Point"},"properties":{"osm_id":"7306282964","tag":{"amenity":"recycling","opening_hours":"Mo-Sa 09:00-18:00; PH closed","recycling:clothes":"yes","recycling:glass_bottles":"yes","recycling:shoes":"yes","recycling_type":"container","wheelchair":"yes"}},"type":"Feature"},
	{"geometry":{"coordinates":[11.432351,48.760667],"type":"Point"},"properties":{"osm_id":"7306282966","tag":{"amenity":"waste_basket","waste":"trash"}},"type":"Feature"},
	{"geometry":{"coordinates":[11.435618,48.759996],"type":"Point"},"properties":{"osm_id":"7306282971","tag":{"amenity":"waste_basket","waste":"trash"}},"type":"Feature"},
	{"geometry":{"coordinates":[11.432854,48.76202],"type":"Point"},"properties":{"osm_id":"7306282974","tag":{"amenity":"waste_basket","waste":"trash"}},"type":"Feature"}
]
}
