{
"type": "FeatureCollection",
"features": [
	{"geometry":{"coordinates":[11.426447,48.263898],"type":"Point"},"properties":{"osm_id":"267662833","tag":{"amenity":"recycling","recycling_type":"container"}},"type":"Feature"},
	{"geometry":{"coordinates":[11.46126,48.230652],"type":"Point"},"properties":{"name":"Recyclinghof","osm_id":"310659587","tag":{"amenity":"recycling","opening_hours":"Tu-Fr 09:00-12:00,13:00-18:00; Sa 09:00-14:00","recycling_type":"centre"}},"type":"Feature"},
	{"geometry":{"coordinates":[11.445505,48.252795],"type":"Point"},"properties":{"osm_id":"315544018","tag":{"amenity":"recycling","location":"overground","recycling:glass_bottles":"yes","recycling_type":"container"}},"type":"Feature"},
	{"geometry":{"coordinates":[11.448928,48.254874],"type":"Point"},"properties":{"osm_id":"315544037","tag":{"amenity":"recycling","recycling:glass_bottles":"yes","recycling_type":"container"}},"type":"Feature"},
	{"geometry":{"coordinates":[11.449911,48.253029],"type":"Point"},"properties":{"osm_id":"315544042","tag":{"amenity":"recycling","recycling:glass_bottles":"yes","recycling_type":"container"}},"type":"Feature"},
	{"geometry":{"coordinates":[11.479293,48.239756],"type":"Point"},"properties":{"osm_id":"339428818","tag":{"amenity":"recycling","recycling_type":"centre"}},"type":"Feature"},
	{"geometry":{"coordinates":[11.442534,48.267998],"type":"Point"},"properties":{"osm_id":"370819488","tag":{"amenity":"recycling","recycling:clothes":"yes","recycling:glass_bottles":"yes","recycling:paper":"yes","recycling_type":"container"}},"type":"Feature"},
	{"geometry":{"coordinates":[11.446115,48.243382],"type":"Point"},"properties":{"osm_id":"408953544","tag":{"amenity":"recycling","recycling:glass_bottles":"yes","recycling:paper":"yes","recycling_type":"container"}},"type":"Feature"},
	{"geometry":{"coordinates":[11.445281,48.23812],"type":"Point"},"properties":{"osm_id":"408985483","tag":{"amenity":"recycling","recycling:glass_bottles":"yes","recycling:paper":"yes","recycling_type":"container"}},"type":"Feature"},
	{"geometry":{"coordinates":[11.449684,48.247523],"type":"Point"},"properties":{"osm_id":"419266662","tag":{"amenity":"recycling","recycling_type":"centre"}},"type":"Feature"},
	{"geometry":{"coordinates":[11.452559,48.245499],"type":"Point"},"properties":{"osm_id":"429748650","tag":{"amenity":"recycling"}},"type":"Feature"},
	{"geometry":{"coordinates":[11.454232,48.241795],"type":"Point"},"properties":{"osm_id":"429748654","tag":{"amenity":"recycling"}},"type":"Feature"},
	{"geometry":{"coordinates":[11.43349,48.253038],"type":"Point"},"properties":{"osm_id":"430352030","tag":{"amenity":"recycling","recycling:cans":"yes","recycling:glass_bottles":"yes","recycling:scrap_metal":"no","recycling_type":"container"}},"type":"Feature"},
	{"geometry":{"coordinates":[11.466824,48.230466],"type":"Point"},"properties":{"osm_id":"653967054","tag":{"amenity":"recycling","mapillary":"uET7q3eHrVpQHK-MyRZD4w","recycling:glass":"no","recycling:glass_bottles":"yes","recycling:paper":"yes","recycling_type":"container","survey:date":"2018-09-22"}},"type":"Feature"},
	{"geometry":{"coordinates":[11.436957,48.257124],"type":"Point"},"properties":{"osm_id":"892426663","tag":{"amenity":"recycling","mapillary":"CS46M2MXR-_YREJuWWrJEw","recycling:glass_bottles":"yes","recycling:paper":"yes","recycling_type":"container","survey:date":"2019-08-05"}},"type":"Feature"},
	{"geometry":{"coordinates":[11.436544,48.256806],"type":"Point"},"properties":{"osm_id":"892426692","tag":{"amenity":"recycling","recycling:glass_bottles":"yes","recycling_type":"container"}},"type":"Feature"},
	{"geometry":{"coordinates":[11.444977,48.247483],"type":"Point"},"properties":{"osm_id":"1493354500","tag":{"amenity":"recycling","recycling:glass_bottles":"yes","recycling:paper":"yes","recycling:plastic":"no","recycling:plastic_packaging":"yes","recycling_type":"container"}},"type":"Feature"},
	{"geometry":{"coordinates":[11.438357,48.247671],"type":"Point"},"properties":{"osm_id":"2915808157","tag":{"amenity":"recycling","recycling:glass_bottles":"yes","recycling:paper":"yes"}},"type":"Feature"},
	{"geometry":{"coordinates":[11.44541,48.23716],"type":"Point"},"properties":{"osm_id":"2999523082","tag":{"amenity":"waste_basket"}},"type":"Feature"},
	{"geometry":{"coordinates":[11.451328,48.262738],"type":"Point"},"properties":{"osm_id":"3412516676","tag":{"amenity":"recycling","recycling:cans":"no","recycling:clothes":"no","recycling:glass_bottles":"yes","recycling:paper":"yes","recycling_type":"container"}},"type":"Feature"},
	{"geometry":{"coordinates":[11.453805,48.266644],"type":"Point"},"properties":{"osm_id":"3412517969","tag":{"amenity":"recycling","recycling:cans":"no","recycling:cartons":"yes","recycling:clothes":"yes","recycling:glass_bottles":"yes","recycling:paper":"yes","recycling:shoes":"yes","recycling_type":"container"}},"type":"Feature"},
	{"geometry":{"coordinates":[11.455193,48.249589],"type":"Point"},"properties":{"osm_id":"3762003928","tag":{"amenity":"waste_basket"}},"type":"Feature"},
	{"geometry":{"coordinates":[11.468296,48.228305],"type":"Point"},"properties":{"osm_id":"4300745959","tag":{"amenity":"recycling","recycling:glass_bottles":"yes","recycling:paper":"yes","recycling_type":"container"}},"type":"Feature"},
	{"geometry":{"coordinates":[11.483624,48.243378],"type":"Point"},"properties":{"osm_id":"5313700766","tag":{"amenity":"recycling","mapillary":"HPavQIBO4rkbIoq0JsG6Gw","recycling:glass":"no","recycling:glass_bottles":"yes","recycling:paper":"yes","recycling_type":"container","survey:date":"2018-09-19"}},"type":"Feature"},
	{"geometry":{"coordinates":[11.450985,48.244145],"type":"Point"},"properties":{"osm_id":"5362756558","tag":{"amenity":"waste_basket"}},"type":"Feature"},
	{"geometry":{"coordinates":[11.468605,48.265896],"type":"Point"},"properties":{"osm_id":"5589145484","tag":{"amenity":"waste_basket"}},"type":"Feature"},
	{"geometry":{"coordinates":[11.470334,48.266457],"type":"Point"},"properties":{"osm_id":"5589145485","tag":{"amenity":"waste_basket"}},"type":"Feature"},
	{"geometry":{"coordinates":[11.470183,48.26644],"type":"Point"},"properties":{"osm_id":"5589145486","tag":{"amenity":"waste_basket"}},"type":"Feature"},
	{"geometry":{"coordinates":[11.470055,48.266429],"type":"Point"},"properties":{"osm_id":"5589145487","tag":{"amenity":"waste_basket"}},"type":"Feature"},
	{"geometry":{"coordinates":[11.469772,48.266398],"type":"Point"},"properties":{"osm_id":"5589145488","tag":{"amenity":"waste_basket"}},"type":"Feature"},
	{"geometry":{"coordinates":[11.469648,48.26639],"type":"Point"},"properties":{"osm_id":"5589145489","tag":{"amenity":"waste_basket"}},"type":"Feature"},
	{"geometry":{"coordinates":[11.469514,48.266375],"type":"Point"},"properties":{"osm_id":"5589145490","tag":{"amenity":"waste_basket"}},"type":"Feature"},
	{"geometry":{"coordinates":[11.469887,48.266215],"type":"Point"},"properties":{"osm_id":"5589145491","tag":{"amenity":"waste_basket"}},"type":"Feature"},
	{"geometry":{"coordinates":[11.470131,48.26624],"type":"Point"},"properties":{"osm_id":"5589145492","tag":{"amenity":"waste_basket"}},"type":"Feature"},
	{"geometry":{"coordinates":[11.470363,48.266262],"type":"Point"},"properties":{"osm_id":"5589145493","tag":{"amenity":"waste_basket"}},"type":"Feature"},
	{"geometry":{"coordinates":[11.469617,48.26619],"type":"Point"},"properties":{"osm_id":"5589145494","tag":{"amenity":"waste_basket"}},"type":"Feature"},
	{"geometry":{"coordinates":[11.46915,48.26614],"type":"Point"},"properties":{"osm_id":"5589145495","tag":{"amenity":"waste_basket"}},"type":"Feature"},
	{"geometry":{"coordinates":[11.469266,48.266151],"type":"Point"},"properties":{"osm_id":"5589145496","tag":{"amenity":"waste_basket"}},"type":"Feature"},
	{"geometry":{"coordinates":[11.469406,48.266166],"type":"Point"},"properties":{"osm_id":"5589145497","tag":{"amenity":"waste_basket"}},"type":"Feature"},
	{"geometry":{"coordinates":[11.469021,48.266128],"type":"Point"},"properties":{"osm_id":"5589145498","tag":{"amenity":"waste_basket"}},"type":"Feature"},
	{"geometry":{"coordinates":[11.46886,48.266112],"type":"Point"},"properties":{"osm_id":"5589145499","tag":{"amenity":"waste_basket"}},"type":"Feature"},
	{"geometry":{"coordinates":[11.468754,48.266102],"type":"Point"},"properties":{"osm_id":"5589145500","tag":{"amenity":"waste_basket"}},"type":"Feature"},
	{"geometry":{"coordinates":[11.468661,48.266092],"type":"Point"},"properties":{"osm_id":"5589145501","tag":{"amenity":"waste_basket"}},"type":"Feature"},
	{"geometry":{"coordinates":[11.468622,48.266088],"type":"Point"},"properties":{"osm_id":"5589145502","tag":{"amenity":"waste_basket"}},"type":"Feature"},
	{"geometry":{"coordinates":[11.468163,48.26599],"type":"Point"},"properties":{"osm_id":"5589145503","tag":{"amenity":"waste_basket"}},"type":"Feature"},
	{"geometry":{"coordinates":[11.467238,48.266104],"type":"Point"},"properties":{"osm_id":"5589145505","tag":{"amenity":"waste_basket"}},"type":"Feature"},
	{"geometry":{"coordinates":[11.467493,48.266125],"type":"Point"},"properties":{"osm_id":"5589145506","tag":{"amenity":"waste_basket"}},"type":"Feature"},
	{"geometry":{"coordinates":[11.467536,48.266173],"type":"Point"},"properties":{"osm_id":"5589145507","tag":{"amenity":"waste_basket"}},"type":"Feature"},
	{"geometry":{"coordinates":[11.465087,48.271596],"type":"Point"},"properties":{"osm_id":"7174639949","tag":{"amenity":"waste_basket"}},"type":"Feature"},
	{"geometry":{"coordinates":[11.465311,48.271974],"type":"Point"},"properties":{"osm_id":"7174639950","tag":{"amenity":"waste_basket"}},"type":"Feature"},
	{"geometry":{"coordinates":[11.46514,48.272063],"type":"Point"},"properties":{"osm_id":"7174639952","tag":{"amenity":"waste_basket"}},"type":"Feature"},
	{"geometry":{"coordinates":[11.464926,48.272129],"type":"Point"},"properties":{"osm_id":"7174639955","tag":{"amenity":"waste_basket"}},"type":"Feature"},
	{"geometry":{"coordinates":[11.465865,48.271846],"type":"Point"},"properties":{"osm_id":"7174639958","tag":{"amenity":"waste_basket"}},"type":"Feature"},
	{"geometry":{"coordinates":[11.448143,48.262887],"type":"Point"},"properties":{"osm_id":"7700139896","tag":{"amenity":"waste_basket"}},"type":"Feature"},
	{"geometry":{"coordinates":[11.446619,48.261756],"type":"Point"},"properties":{"osm_id":"7700139944","tag":{"amenity":"waste_basket"}},"type":"Feature"},
	{"geometry":{"coordinates":[11.445154,48.260701],"type":"Point"},"properties":{"osm_id":"7700139958","tag":{"amenity":"waste_basket"}},"type":"Feature"},
	{"geometry":{"coordinates":[11.465324,48.272579],"type":"Point"},"properties":{"osm_id":"7700139960","tag":{"amenity":"waste_basket"}},"type":"Feature"},
	{"geometry":{"coordinates":[11.467043,48.269043],"type":"Point"},"properties":{"osm_id":"7703006921","tag":{"amenity":"waste_basket"}},"type":"Feature"},
	{"geometry":{"coordinates":[11.433488,48.269231],"type":"Point"},"properties":{"osm_id":"8072632200","tag":{"amenity":"waste_basket","waste":"trash"}},"type":"Feature"},
	{"geometry":{"coordinates":[11.439466,48.268324],"type":"Point"},"properties":{"osm_id":"8072632201","tag":{"amenity":"waste_basket","waste":"trash"}},"type":"Feature"},
	{"geometry":{"coordinates":[11.444557,48.24821],"type":"Point"},"properties":{"osm_id":"8497700308","tag":{"amenity":"waste_basket","material":"metal"}},"type":"Feature"},
	{"geometry":{"coordinates":[11.444785,48.247947],"type":"Point"},"properties":{"osm_id":"8497700309","tag":{"amenity":"waste_basket","material":"metal"}},"type":"Feature"},
	{"geometry":{"coordinates":[11.440322,48.252722],"type":"Point"},"properties":{"osm_id":"8504705420","tag":{"amenity":"waste_basket","material":"metal"}},"type":"Feature"},
	{"geometry":{"coordinates":[11.437459,48.256248],"type":"Point"},"properties":{"osm_id":"8533269104","tag":{"amenity":"waste_basket"}},"type":"Feature"},
	{"geometry":{"coordinates":[11.447849,48.240427],"type":"Point"},"properties":{"osm_id":"9126296737","tag":{"amenity":"waste_basket"}},"type":"Feature"}
]
}
