{
"type": "FeatureCollection",
"features": [
	{"geometry":{"coordinates":[11.44722,47.902793],"type":"Point"},"properties":{"osm_id":"849492907","tag":{"amenity":"recycling","opening_hours":"Mo-Sa 07:00-19:00; PH off","recycling:glass":"yes","recycling_type":"container"}},"type":"Feature"},
	{"geometry":{"coordinates":[11.44428,47.90625],"type":"Point"},"properties":{"osm_id":"1069641208","tag":{"amenity":"waste_basket"}},"type":"Feature"},
	{"geometry":{"coordinates":[11.42945,47.918512],"type":"Point"},"properties":{"osm_id":"1098081890","tag":{"amenity":"recycling","recycling:batteries":"no","recycling:clothes":"yes","recycling:electrical_appliances":"no","recycling:green_waste":"no","recycling:plastic":"yes","recycling:plastic_bottles":"yes","recycling:plastic_packaging":"yes","recycling_type":"container"}},"type":"Feature"},
	{"geometry":{"coordinates":[11.461452,47.887791],"type":"Point"},"properties":{"name":"Wertstoffhof Geretsried","osm_id":"1244301714","tag":{"amenity":"recycling","recycling:cans":"yes","recycling:clothes":"yes","recycling:glass":"yes","recycling:paper":"yes","recycling_type":"centre"}},"type":"Feature"},
	{"geometry":{"coordinates":[11.442066,47.903583],"type":"Point"},"properties":{"osm_id":"1705101682","tag":{"amenity":"recycling","recycling_type":"container"}},"type":"Feature"},
	{"geometry":{"coordinates":[11.444166,47.906071],"type":"Point"},"properties":{"osm_id":"1729103449","tag":{"amenity":"waste_basket"}},"type":"Feature"},
	{"geometry":{"coordinates":[11.474706,47.884372],"type":"Point"},"properties":{"osm_id":"1880408248","tag":{"amenity":"waste_basket"}},"type":"Feature"},
	{"geometry":{"coordinates":[11.470771,47.877253],"type":"Point"},"properties":{"osm_id":"2278886795","tag":{"amenity":"recycling","recycling_type":"container"}},"type":"Feature"},
	{"geometry":{"coordinates":[11.427251,47.898562],"type":"Point"},"properties":{"osm_id":"2482543146","tag":{"amenity":"waste_basket"}},"type":"Feature"},
	{"geometry":{"coordinates":[11.430035,47.89965],"type":"Point"},"properties":{"osm_id":"2482543156","tag":{"amenity":"waste_basket"}},"type":"Feature"},
	{"geometry":{"coordinates":[11.440591,47.90325],"type":"Point"},"properties":{"osm_id":"2488613536","tag":{"amenity":"recycling","recycling:clothes":"yes","recycling_type":"container"}},"type":"Feature"},
	{"geometry":{"coordinates":[11.446196,47.906324],"type":"Point"},"properties":{"osm_id":"3012612613","tag":{"amenity":"waste_basket"}},"type":"Feature"},
	{"geometry":{"coordinates":[11.428363,47.910394],"type":"Point"},"properties":{"osm_id":"3080688035","tag":{"amenity":"recycling","recycling:cans":"yes","recycling:clothes":"no","recycling:glass":"no","recycling:paper":"no","recycling_type":"container"}},"type":"Feature"},
	{"geometry":{"coordinates":[11.427591,47.906905],"type":"Point"},"properties":{"osm_id":"3080689658","tag":{"amenity":"recycling","recycling:cans":"no","recycling:clothes":"no","recycling:glass":"yes","recycling:paper":"no","recycling_type":"container"}},"type":"Feature"},
	{"geometry":{"coordinates":[11.435255,47.907987],"type":"Point"},"properties":{"osm_id":"3401766887","tag":{"amenity":"recycling","recycling:cans":"no","recycling:clothes":"yes","recycling:glass":"yes","recycling:paper":"no","recycling_type":"container"}},"type":"Feature"},
	{"geometry":{"coordinates":[11.435171,47.915393],"type":"Point"},"properties":{"osm_id":"3465892979","tag":{"amenity":"recycling","recycling:clothes":"yes","recycling:glass":"yes","recycling:paper":"no","recycling:shoes":"yes","recycling_type":"container"}},"type":"Feature"},
	{"geometry":{"coordinates":[11.440366,47.904007],"type":"Point"},"properties":{"osm_id":"5035629651","tag":{"amenity":"waste_basket"}},"type":"Feature"},
	{"geometry":{"coordinates":[11.44138,47.904399],"type":"Point"},"properties":{"osm_id":"5035629652","tag":{"amenity":"waste_basket"}},"type":"Feature"},
	{"geometry":{"coordinates":[11.442426,47.904817],"type":"Point"},"properties":{"osm_id":"5035629656","tag":{"amenity":"waste_basket"}},"type":"Feature"},
	{"geometry":{"coordinates":[11.444567,47.905619],"type":"Point"},"properties":{"osm_id":"5035629657","tag":{"amenity":"waste_basket"}},"type":"Feature"},
	{"geometry":{"coordinates":[11.450642,47.897832],"type":"Point"},"properties":{"osm_id":"6512170681","tag":{"amenity":"waste_basket"}},"type":"Feature"},
	{"geometry":{"coordinates":[11.448102,47.904587],"type":"Point"},"properties":{"osm_id":"6512170682","tag":{"amenity":"waste_basket"}},"type":"Feature"},
	{"geometry":{"coordinates":[11.432198,47.900496],"type":"Point"},"properties":{"osm_id":"6512170885","tag":{"amenity":"waste_basket"}},"type":"Feature"},
	{"geometry":{"coordinates":[11.43399,47.901187],"type":"Point"},"properties":{"osm_id":"6512170887","tag":{"amenity":"waste_basket"}},"type":"Feature"},
	{"geometry":{"coordinates":[11.446072,47.906272],"type":"Point"},"properties":{"osm_id":"6540024099","tag":{"amenity":"waste_basket"}},"type":"Feature"},
	{"geometry":{"coordinates":[11.437723,47.902998],"type":"Point"},"properties":{"osm_id":"6540200697","tag":{"amenity":"waste_basket"}},"type":"Feature"},
	{"geometry":{"coordinates":[11.444398,47.906344],"type":"Point"},"properties":{"osm_id":"6614641627","tag":{"amenity":"recycling","opening_hours":"Mo-Sa 07:00-19:00; PH off","recycling:glass_bottles":"yes","recycling_type":"container"}},"type":"Feature"},
	{"geometry":{"coordinates":[11.438086,47.909192],"type":"Point"},"properties":{"osm_id":"6614641647","tag":{"amenity":"waste_basket"}},"type":"Feature"},
	{"geometry":{"coordinates":[11.437403,47.908826],"type":"Point"},"properties":{"osm_id":"6614641650","tag":{"amenity":"waste_basket"}},"type":"Feature"},
	{"geometry":{"coordinates":[11.436971,47.908604],"type":"Point"},"properties":{"osm_id":"6614641652","tag":{"amenity":"waste_basket"}},"type":"Feature"},
	{"geometry":{"coordinates":[11.436462,47.908317],"type":"Point"},"properties":{"osm_id":"6614641653","tag":{"amenity":"waste_basket"}},"type":"Feature"},
	{"geometry":{"coordinates":[11.435747,47.90791],"type":"Point"},"properties":{"osm_id":"6614641654","tag":{"amenity":"waste_basket"}},"type":"Feature"},
	{"geometry":{"coordinates":[11.435543,47.907789],"type":"Point"},"properties":{"osm_id":"6614641655","tag":{"amenity":"waste_basket"}},"type":"Feature"},
	{"geometry":{"coordinates":[11.434779,47.907715],"type":"Point"},"properties":{"osm_id":"6614641656","tag":{"amenity":"recycling","recycling:clothes":"yes","recycling:shoes":"yes","recycling_type":"container"}},"type":"Feature"},
	{"geometry":{"coordinates":[11.434759,47.907654],"type":"Point"},"properties":{"osm_id":"6614641660","tag":{"amenity":"waste_basket"}},"type":"Feature"},
	{"geometry":{"coordinates":[11.434224,47.908009],"type":"Point"},"properties":{"osm_id":"6614641661","tag":{"amenity":"waste_basket"}},"type":"Feature"},
	{"geometry":{"coordinates":[11.4336,47.908547],"type":"Point"},"properties":{"osm_id":"6614641664","tag":{"amenity":"waste_basket"}},"type":"Feature"},
	{"geometry":{"coordinates":[11.433545,47.909432],"type":"Point"},"properties":{"osm_id":"6614641665","tag":{"amenity":"waste_basket"}},"type":"Feature"},
	{"geometry":{"coordinates":[11.444686,47.905727],"type":"Point"},"properties":{"osm_id":"6635229485","tag":{"amenity":"waste_basket"}},"type":"Feature"},
	{"geometry":{"coordinates":[11.427623,47.907407],"type":"Point"},"properties":{"osm_id":"6699560675","tag":{"amenity":"recycling","recycling:clothes":"yes","recycling:shoes":"yes","recycling_type":"container"}},"type":"Feature"},
	{"geometry":{"coordinates":[11.432055,47.907528],"type":"Point"},"properties":{"osm_id":"6699560681","tag":{"amenity":"waste_basket"}},"type":"Feature"},
	{"geometry":{"coordinates":[11.43329,47.90687],"type":"Point"},"properties":{"osm_id":"6699560683","tag":{"amenity":"waste_basket"}},"type":"Feature"},
	{"geometry":{"coordinates":[11.433684,47.906732],"type":"Point"},"properties":{"osm_id":"6699560684","tag":{"amenity":"waste_basket"}},"type":"Feature"},
	{"geometry":{"coordinates":[11.426956,47.914085],"type":"Point"},"properties":{"osm_id":"7174236764","tag":{"amenity":"waste_basket"}},"type":"Feature"},
	{"geometry":{"coordinates":[11.426413,47.892676],"type":"Point"},"properties":{"osm_id":"7341455001","tag":{"amenity":"waste_basket"}},"type":"Feature"},
	{"geometry":{"coordinates":[11.442989,47.894983],"type":"Point"},"properties":{"osm_id":"7341661223","tag":{"amenity":"waste_basket"}},"type":"Feature"},
	{"geometry":{"coordinates":[11.452905,47.886922],"type":"Point"},"properties":{"osm_id":"7341661229","tag":{"amenity":"waste_basket"}},"type":"Feature"},
	{"geometry":{"coordinates":[11.426286,47.891768],"type":"Point"},"properties":{"osm_id":"7393486691","tag":{"amenity":"recycling","recycling:clothes":"yes","recycling:shoes":"yes","recycling_type":"container"}},"type":"Feature"},
	{"geometry":{"coordinates":[11.431773,47.891775],"type":"Point"},"properties":{"osm_id":"7402616611","tag":{"amenity":"recycling","recycling:clothes":"yes","recycling:shoes":"yes","recycling_type":"container"}},"type":"Feature"},
	{"geometry":{"coordinates":[11.440631,47.903379],"type":"Point"},"properties":{"osm_id":"7402616622","tag":{"amenity":"waste_basket"}},"type":"Feature"},
	{"geometry":{"coordinates":[11.439151,47.905194],"type":"Point"},"properties":{"osm_id":"7415484498","tag":{"amenity":"recycling","recycling:clothes":"yes","recycling:shoes":"yes","recycling_type":"container"}},"type":"Feature"},
	{"geometry":{"coordinates":[11.440658,47.911814],"type":"Point"},"properties":{"osm_id":"7415484549","tag":{"amenity":"recycling","recycling:clothes":"yes","recycling:shoes":"yes","recycling_type":"container"}},"type":"Feature"},
	{"geometry":{"coordinates":[11.439063,47.909714],"type":"Point"},"properties":{"osm_id":"7415484564","tag":{"amenity":"waste_basket"}},"type":"Feature"},
	{"geometry":{"coordinates":[11.436185,47.90815],"type":"Point"},"properties":{"osm_id":"7415484566","tag":{"amenity":"waste_basket"}},"type":"Feature"},
	{"geometry":{"coordinates":[11.43603,47.908156],"type":"Point"},"properties":{"osm_id":"7415484568","tag":{"amenity":"waste_basket"}},"type":"Feature"},
	{"geometry":{"coordinates":[11.460976,47.891229],"type":"Point"},"properties":{"osm_id":"7419186957","tag":{"amenity":"waste_basket"}},"type":"Feature"},
	{"geometry":{"coordinates":[11.449712,47.902737],"type":"Point"},"properties":{"osm_id":"7419186970","tag":{"amenity":"waste_basket"}},"type":"Feature"},
	{"geometry":{"coordinates":[11.44733,47.902769],"type":"Point"},"properties":{"osm_id":"7419186974","tag":{"amenity":"recycling","recycling:batteries":"yes","recycling_type":"container"}},"type":"Feature"},
	{"geometry":{"coordinates":[11.447298,47.902756],"type":"Point"},"properties":{"osm_id":"7419186975","tag":{"amenity":"recycling","recycling:clothes":"yes","recycling:shoes":"yes","recycling_type":"container"}},"type":"Feature"},
	{"geometry":{"coordinates":[11.443587,47.902835],"type":"Point"},"properties":{"osm_id":"7419186984","tag":{"amenity":"waste_basket"}},"type":"Feature"},
	{"geometry":{"coordinates":[11.443868,47.900398],"type":"Point"},"properties":{"osm_id":"7419190989","tag":{"amenity":"waste_basket"}},"type":"Feature"},
	{"geometry":{"coordinates":[11.450289,47.898652],"type":"Point"},"properties":{"osm_id":"7419190991","tag":{"amenity":"waste_basket"}},"type":"Feature"},
	{"geometry":{"coordinates":[11.444242,47.899322],"type":"Point"},"properties":{"osm_id":"7419191006","tag":{"amenity":"waste_basket"}},"type":"Feature"},
	{"geometry":{"coordinates":[11.444275,47.899248],"type":"Point"},"properties":{"osm_id":"7419191008","tag":{"amenity":"waste_basket"}},"type":"Feature"},
	{"geometry":{"coordinates":[11.440371,47.898395],"type":"Point"},"properties":{"osm_id":"7419191013","tag":{"amenity":"recycling","recycling:clothes":"yes","recycling:shoes":"yes","recycling_type":"container"}},"type":"Feature"},
	{"geometry":{"coordinates":[11.440375,47.898329],"type":"Point"},"properties":{"osm_id":"7419191014","tag":{"amenity":"waste_basket"}},"type":"Feature"},
	{"geometry":{"coordinates":[11.441732,47.89664],"type":"Point"},"properties":{"osm_id":"7419191020","tag":{"amenity":"recycling","recycling:clothes":"yes","recycling:shoes":"yes","recycling_type":"container"}},"type":"Feature"},
	{"geometry":{"coordinates":[11.442357,47.904428],"type":"Point"},"properties":{"osm_id":"7419864163","tag":{"amenity":"waste_basket"}},"type":"Feature"},
	{"geometry":{"coordinates":[11.473004,47.886508],"type":"Point"},"properties":{"osm_id":"7419957290","tag":{"amenity":"waste_basket"}},"type":"Feature"},
	{"geometry":{"coordinates":[11.430836,47.908209],"type":"Point"},"properties":{"osm_id":"7435671169","tag":{"amenity":"waste_basket"}},"type":"Feature"},
	{"geometry":{"coordinates":[11.430741,47.908231],"type":"Point"},"properties":{"osm_id":"7435671170","tag":{"amenity":"waste_basket"}},"type":"Feature"},
	{"geometry":{"coordinates":[11.433097,47.906995],"type":"Point"},"properties":{"osm_id":"7435671173","tag":{"amenity":"waste_basket"}},"type":"Feature"},
	{"geometry":{"coordinates":[11.434622,47.90728],"type":"Point"},"properties":{"osm_id":"7435671174","tag":{"amenity":"waste_basket"}},"type":"Feature"},
	{"geometry":{"coordinates":[11.437656,47.90304],"type":"Point"},"properties":{"osm_id":"7435671182","tag":{"amenity":"recycling","recycling:clothes":"yes","recycling:shoes":"yes","recycling_type":"container"}},"type":"Feature"},
	{"geometry":{"coordinates":[11.438355,47.897534],"type":"Point"},"properties":{"osm_id":"7435704122","tag":{"amenity":"waste_basket"}},"type":"Feature"},
	{"geometry":{"coordinates":[11.438487,47.897572],"type":"Point"},"properties":{"osm_id":"7435704123","tag":{"amenity":"waste_basket"}},"type":"Feature"},
	{"geometry":{"coordinates":[11.444673,47.905348],"type":"Point"},"properties":{"osm_id":"7444884074","tag":{"amenity":"waste_basket"}},"type":"Feature"},
	{"geometry":{"coordinates":[11.439317,47.903177],"type":"Point"},"properties":{"osm_id":"7444884076","tag":{"amenity":"waste_basket"}},"type":"Feature"},
	{"geometry":{"coordinates":[11.464495,47.873675],"type":"Point"},"properties":{"osm_id":"7447398898","tag":{"amenity":"recycling","recycling:glass":"yes","recycling_type":"container"}},"type":"Feature"},
	{"geometry":{"coordinates":[11.447994,47.901158],"type":"Point"},"properties":{"osm_id":"7460339303","tag":{"amenity":"waste_basket"}},"type":"Feature"},
	{"geometry":{"coordinates":[11.448281,47.901148],"type":"Point"},"properties":{"osm_id":"7460339304","tag":{"amenity":"waste_basket"}},"type":"Feature"},
	{"geometry":{"coordinates":[11.448952,47.901475],"type":"Point"},"properties":{"osm_id":"7460339310","tag":{"amenity":"waste_basket"}},"type":"Feature"},
	{"geometry":{"coordinates":[11.448968,47.901261],"type":"Point"},"properties":{"osm_id":"7460339311","tag":{"amenity":"waste_basket"}},"type":"Feature"},
	{"geometry":{"coordinates":[11.443459,47.906097],"type":"Point"},"properties":{"osm_id":"7464868088","tag":{"amenity":"waste_basket"}},"type":"Feature"},
	{"geometry":{"coordinates":[11.443601,47.906232],"type":"Point"},"properties":{"osm_id":"7464868090","tag":{"amenity":"recycling","recycling:clothes":"yes","recycling:shoes":"yes","recycling_type":"container"}},"type":"Feature"},
	{"geometry":{"coordinates":[11.443547,47.906173],"type":"Point"},"properties":{"osm_id":"7464868091","tag":{"amenity":"waste_basket"}},"type":"Feature"},
	{"geometry":{"coordinates":[11.443673,47.906141],"type":"Point"},"properties":{"osm_id":"7464868092","tag":{"amenity":"waste_basket"}},"type":"Feature"},
	{"geometry":{"coordinates":[11.444278,47.899396],"type":"Point"},"properties":{"osm_id":"7468151539","tag":{"amenity":"waste_basket"}},"type":"Feature"},
	{"geometry":{"coordinates":[11.437044,47.9019],"type":"Point"},"properties":{"osm_id":"7473426993","tag":{"amenity":"waste_basket"}},"type":"Feature"},
	{"geometry":{"coordinates":[11.444338,47.899354],"type":"Point"},"properties":{"osm_id":"7564007610","tag":{"amenity":"waste_basket"}},"type":"Feature"},
	{"geometry":{"coordinates":[11.444369,47.899232],"type":"Point"},"properties":{"osm_id":"7564007611","tag":{"amenity":"waste_basket"}},"type":"Feature"},
	{"geometry":{"coordinates":[11.445776,47.901108],"type":"Point"},"properties":{"osm_id":"7564007613","tag":{"amenity":"recycling","recycling:clothes":"yes","recycling:shoes":"yes","recycling_type":"container"}},"type":"Feature"},
	{"geometry":{"coordinates":[11.446691,47.906026],"type":"Point"},"properties":{"osm_id":"7564007617","tag":{"amenity":"waste_basket"}},"type":"Feature"},
	{"geometry":{"coordinates":[11.426947,47.89266],"type":"Point"},"properties":{"osm_id":"7573068980","tag":{"amenity":"waste_basket"}},"type":"Feature"}
]
}
