{
"type": "FeatureCollection",
"lastupdate": "2020-08-06T00:00:00Z",
"features": [
	{"geometry":{"coordinates":[11.433155,46.89359],"type":"Point"},"properties":{"osm_id":"2423069327","tag":{"amenity":"recycling","recycling:cans":"yes","recycling:glass":"yes","recycling:paper":"yes","recycling:plastic":"yes","recycling_type":"container"}},"type":"Feature"},
	{"geometry":{"coordinates":[11.430245,46.895004],"type":"Point"},"properties":{"osm_id":"3696865770","tag":{"amenity":"recycling","operator":"Gemeinde - Comune","recycling:cans":"yes","recycling:glass":"yes","recycling:green_waste":"yes","recycling:organic":"yes","recycling:paper":"yes","recycling:plastic":"yes","recycling_type":"container"}},"type":"Feature"},
	{"geometry":{"coordinates":[11.433643,46.899134],"type":"Point"},"properties":{"osm_id":"4253651693","tag":{"amenity":"waste_basket"}},"type":"Feature"},
	{"geometry":{"coordinates":[11.432228,46.899405],"type":"Point"},"properties":{"osm_id":"4261349404","tag":{"amenity":"waste_basket"}},"type":"Feature"},
	{"geometry":{"coordinates":[11.428272,46.892939],"type":"Point"},"properties":{"osm_id":"5611640119","tag":{"addr:city":"Sterzing - Vipiteno","addr:postcode":"39049","addr:street":"Weg in die Vill - Via Villa","amenity":"recycling","description":"Minirecycling Weg in die Vill","recycling:cans":"yes","recycling:glass":"yes","recycling:green_waste":"yes","recycling:organic":"yes","recycling:paper":"yes","recycling:plastic":"yes","recycling_type":"container"}},"type":"Feature"}
]
}
