{
"type": "FeatureCollection",
"lastupdate": "2020-08-05T00:00:00Z",
"features": [
	{"geometry":{"coordinates":[11.445873,46.529149],"type":"Point"},"properties":{"osm_id":"1451514277","tag":{"amenity":"recycling"}},"type":"Feature"},
	{"geometry":{"coordinates":[11.508573,46.526888],"type":"Point"},"properties":{"osm_id":"3660290502","tag":{"amenity":"recycling"}},"type":"Feature"},
	{"geometry":{"coordinates":[11.455944,46.538256],"type":"Point"},"properties":{"osm_id":"4338704092","tag":{"amenity":"recycling"}},"type":"Feature"},
	{"geometry":{"coordinates":[11.453576,46.538034],"type":"Point"},"properties":{"osm_id":"6549162108","tag":{"amenity":"waste_basket","tourism":"picnic_site"}},"type":"Feature"},
	{"geometry":{"coordinates":[11.438607,46.53598],"type":"Point"},"properties":{"osm_id":"7104712567","tag":{"amenity":"waste_basket"}},"type":"Feature"},
	{"geometry":{"coordinates":[11.451033,46.54156],"type":"Point"},"properties":{"osm_id":"7104741450","tag":{"amenity":"waste_basket"}},"type":"Feature"},
	{"geometry":{"coordinates":[11.448635,46.540915],"type":"Point"},"properties":{"osm_id":"7104741503","tag":{"amenity":"waste_basket"}},"type":"Feature"},
	{"geometry":{"coordinates":[11.432758,46.531287],"type":"Point"},"properties":{"osm_id":"7104750742","tag":{"amenity":"waste_basket"}},"type":"Feature"},
	{"geometry":{"coordinates":[11.443946,46.538879],"type":"Point"},"properties":{"osm_id":"7104751779","tag":{"amenity":"waste_basket"}},"type":"Feature"},
	{"geometry":{"coordinates":[11.429969,46.531087],"type":"Point"},"properties":{"osm_id":"7104752691","tag":{"amenity":"waste_basket"}},"type":"Feature"},
	{"geometry":{"coordinates":[11.504117,46.518563],"type":"Point"},"properties":{"osm_id":"7738043560","tag":{"amenity":"waste_basket","waste":"trash"}},"type":"Feature"},
	{"geometry":{"coordinates":[11.50392,46.518263],"type":"Point"},"properties":{"osm_id":"7773851123","tag":{"amenity":"waste_basket","waste":"trash"}},"type":"Feature"}
]
}
