{
"type": "FeatureCollection",
"features": [
	{"geometry":{"coordinates":[11.456448,46.050203],"type":"Point"},"properties":{"osm_id":"1620985480","tag":{"amenity":"waste_basket"}},"type":"Feature"},
	{"geometry":{"coordinates":[11.456475,46.050255],"type":"Point"},"properties":{"osm_id":"1620985482","tag":{"amenity":"recycling","recycling_type":"container"}},"type":"Feature"},
	{"geometry":{"coordinates":[11.456551,46.053175],"type":"Point"},"properties":{"osm_id":"1620985745","tag":{"addr:city":"Borgo Valsugana","addr:country":"IT","addr:postcode":"38051","addr:province":"TN","addr:state":"IT","amenity":"waste_basket"}},"type":"Feature"},
	{"geometry":{"coordinates":[11.457558,46.053294],"type":"Point"},"properties":{"osm_id":"1620985796","tag":{"amenity":"waste_basket"}},"type":"Feature"},
	{"geometry":{"coordinates":[11.455931,46.053321],"type":"Point"},"properties":{"osm_id":"1620985804","tag":{"amenity":"waste_basket"}},"type":"Feature"},
	{"geometry":{"coordinates":[11.457339,46.053458],"type":"Point"},"properties":{"osm_id":"1620985857","tag":{"amenity":"waste_basket"}},"type":"Feature"},
	{"geometry":{"coordinates":[11.45785,46.05365],"type":"Point"},"properties":{"osm_id":"1620985920","tag":{"amenity":"waste_basket"}},"type":"Feature"},
	{"geometry":{"coordinates":[11.455604,46.053676],"type":"Point"},"properties":{"osm_id":"1620986012","tag":{"amenity":"recycling","recycling_type":"container"}},"type":"Feature"},
	{"geometry":{"coordinates":[11.454677,46.054385],"type":"Point"},"properties":{"osm_id":"1620986187","tag":{"amenity":"recycling","recycling_type":"container"}},"type":"Feature"},
	{"geometry":{"coordinates":[11.459992,46.054784],"type":"Point"},"properties":{"osm_id":"1620986291","tag":{"amenity":"waste_basket"}},"type":"Feature"},
	{"geometry":{"coordinates":[11.483262,46.070584],"type":"Point"},"properties":{"osm_id":"2379112266","tag":{"amenity":"recycling","recycling:cans":"yes","recycling:glass":"yes","recycling:paper":"yes","recycling_type":"container"}},"type":"Feature"},
	{"geometry":{"coordinates":[11.49949,46.068007],"type":"Point"},"properties":{"osm_id":"2457882652","tag":{"amenity":"waste_basket"}},"type":"Feature"},
	{"geometry":{"coordinates":[11.509555,46.064881],"type":"Point"},"properties":{"osm_id":"3938156820","tag":{"amenity":"waste_disposal"}},"type":"Feature"},
	{"geometry":{"coordinates":[11.509527,46.064892],"type":"Point"},"properties":{"osm_id":"3938156822","tag":{"amenity":"waste_disposal"}},"type":"Feature"},
	{"geometry":{"coordinates":[11.465141,46.070204],"type":"Point"},"properties":{"osm_id":"3978710652","tag":{"amenity":"waste_basket"}},"type":"Feature"},
	{"geometry":{"coordinates":[11.506387,46.065213],"type":"Point"},"properties":{"osm_id":"4030189108","tag":{"amenity":"waste_basket"}},"type":"Feature"},
	{"geometry":{"coordinates":[11.470758,46.055656],"type":"Point"},"properties":{"osm_id":"4128987449","tag":{"amenity":"recycling","recycling_type":"container"}},"type":"Feature"},
	{"geometry":{"coordinates":[11.495768,46.065832],"type":"Point"},"properties":{"osm_id":"4684036736","tag":{"amenity":"waste_basket"}},"type":"Feature"},
	{"geometry":{"coordinates":[11.497302,46.050958],"type":"Point"},"properties":{"name":"CRM Castelnuovo","osm_id":"6683655770","tag":{"addr:city":"Castelnuovo","addr:country":"IT","addr:postcode":"38050","addr:province":"TN","addr:state":"IT","addr:street":"Viale Venezia","amenity":"recycling","recycling_type":"centre"}},"type":"Feature"}
]
}
