{
"type": "FeatureCollection",
"lastupdate": "2020-08-05T00:00:00Z",
"features": [
	{"geometry":{"coordinates":[11.50096,45.612128],"type":"Point"},"properties":{"osm_id":"330166114","tag":{"amenity":"recycling"}},"type":"Feature"},
	{"geometry":{"coordinates":[11.508819,45.609825],"type":"Point"},"properties":{"osm_id":"330178830","tag":{"amenity":"recycling"}},"type":"Feature"},
	{"geometry":{"coordinates":[11.506614,45.61803],"type":"Point"},"properties":{"osm_id":"330869247","tag":{"amenity":"recycling"}},"type":"Feature"},
	{"geometry":{"coordinates":[11.479201,45.617494],"type":"Point"},"properties":{"osm_id":"2291449308","tag":{"amenity":"recycling","recycling:cans":"yes","recycling:glass":"yes","recycling:paper":"yes","recycling_type":"container"}},"type":"Feature"},
	{"geometry":{"coordinates":[11.441039,45.630179],"type":"Point"},"properties":{"highway":"bus_stop","osm_id":"2321300434","tag":{"amenity":"waste_basket","bench":"yes","shelter":"yes"}},"type":"Feature"},
	{"geometry":{"coordinates":[11.504677,45.60689],"type":"Point"},"properties":{"osm_id":"2351382015","tag":{"amenity":"waste_basket"}},"type":"Feature"},
	{"geometry":{"coordinates":[11.505091,45.606934],"type":"Point"},"properties":{"osm_id":"2351382018","tag":{"amenity":"waste_basket"}},"type":"Feature"},
	{"geometry":{"coordinates":[11.506024,45.607041],"type":"Point"},"properties":{"osm_id":"2351382026","tag":{"amenity":"waste_basket"}},"type":"Feature"},
	{"geometry":{"coordinates":[11.506384,45.607077],"type":"Point"},"properties":{"osm_id":"2351382029","tag":{"amenity":"waste_basket"}},"type":"Feature"},
	{"geometry":{"coordinates":[11.506763,45.607116],"type":"Point"},"properties":{"osm_id":"2351382034","tag":{"amenity":"waste_basket"}},"type":"Feature"},
	{"geometry":{"coordinates":[11.507771,45.60723],"type":"Point"},"properties":{"osm_id":"2351382057","tag":{"amenity":"waste_basket"}},"type":"Feature"},
	{"geometry":{"coordinates":[11.508144,45.607279],"type":"Point"},"properties":{"osm_id":"2351382063","tag":{"amenity":"waste_basket"}},"type":"Feature"},
	{"geometry":{"coordinates":[11.505778,45.607004],"type":"Point"},"properties":{"osm_id":"2357188401","tag":{"amenity":"waste_basket"}},"type":"Feature"},
	{"geometry":{"coordinates":[11.494575,45.590136],"type":"Point"},"properties":{"osm_id":"2557664245","tag":{"amenity":"waste_basket"}},"type":"Feature"},
	{"geometry":{"coordinates":[11.491774,45.588322],"type":"Point"},"properties":{"osm_id":"2557671700","tag":{"amenity":"waste_basket"}},"type":"Feature"},
	{"geometry":{"coordinates":[11.489744,45.588191],"type":"Point"},"properties":{"osm_id":"2557675634","tag":{"amenity":"waste_basket"}},"type":"Feature"},
	{"geometry":{"coordinates":[11.481699,45.58338],"type":"Point"},"properties":{"osm_id":"2589487961","tag":{"amenity":"waste_basket"}},"type":"Feature"},
	{"geometry":{"coordinates":[11.502246,45.594847],"type":"Point"},"properties":{"osm_id":"2696079831","tag":{"amenity":"waste_basket"}},"type":"Feature"},
	{"geometry":{"coordinates":[11.503617,45.594551],"type":"Point"},"properties":{"osm_id":"2700419168","tag":{"amenity":"waste_basket"}},"type":"Feature"},
	{"geometry":{"coordinates":[11.499786,45.594611],"type":"Point"},"properties":{"osm_id":"2700445930","tag":{"amenity":"waste_basket"}},"type":"Feature"},
	{"geometry":{"coordinates":[11.495614,45.590908],"type":"Point"},"properties":{"osm_id":"3203880155","tag":{"amenity":"waste_basket"}},"type":"Feature"},
	{"geometry":{"coordinates":[11.496875,45.591771],"type":"Point"},"properties":{"osm_id":"3203880157","tag":{"amenity":"waste_basket"}},"type":"Feature"},
	{"geometry":{"coordinates":[11.492469,45.588988],"type":"Point"},"properties":{"osm_id":"3203884166","tag":{"amenity":"waste_basket"}},"type":"Feature"},
	{"geometry":{"coordinates":[11.490006,45.588017],"type":"Point"},"properties":{"osm_id":"3203889681","tag":{"amenity":"waste_basket"}},"type":"Feature"},
	{"geometry":{"coordinates":[11.506916,45.615333],"type":"Point"},"properties":{"osm_id":"4442979141","tag":{"amenity":"waste_basket"}},"type":"Feature"},
	{"geometry":{"coordinates":[11.506981,45.61535],"type":"Point"},"properties":{"osm_id":"4442979143","tag":{"amenity":"waste_basket"}},"type":"Feature"},
	{"geometry":{"coordinates":[11.506868,45.61542],"type":"Point"},"properties":{"osm_id":"4442979146","tag":{"amenity":"waste_basket"}},"type":"Feature"},
	{"geometry":{"coordinates":[11.506932,45.615441],"type":"Point"},"properties":{"osm_id":"4442979148","tag":{"amenity":"waste_basket"}},"type":"Feature"},
	{"geometry":{"coordinates":[11.506826,45.615523],"type":"Point"},"properties":{"osm_id":"4442979150","tag":{"amenity":"waste_basket"}},"type":"Feature"},
	{"geometry":{"coordinates":[11.506891,45.61554],"type":"Point"},"properties":{"osm_id":"4442979152","tag":{"amenity":"waste_basket"}},"type":"Feature"},
	{"geometry":{"coordinates":[11.461353,45.621961],"type":"Point"},"properties":{"osm_id":"4592369101","tag":{"amenity":"waste_basket"}},"type":"Feature"},
	{"geometry":{"coordinates":[11.496419,45.595804],"type":"Point"},"properties":{"osm_id":"4674814855","tag":{"amenity":"waste_basket","bin":"no","public_transport":"platform"}},"type":"Feature"},
	{"geometry":{"coordinates":[11.447306,45.625586],"type":"Point"},"properties":{"osm_id":"4853159635","tag":{"amenity":"waste_basket"}},"type":"Feature"},
	{"geometry":{"coordinates":[11.478376,45.593112],"type":"Point"},"properties":{"osm_id":"4858594367","tag":{"amenity":"waste_basket"}},"type":"Feature"},
	{"geometry":{"coordinates":[11.498048,45.592356],"type":"Point"},"properties":{"osm_id":"4949820547","tag":{"amenity":"waste_basket"}},"type":"Feature"},
	{"geometry":{"coordinates":[11.502383,45.594817],"type":"Point"},"properties":{"osm_id":"5795374582","tag":{"amenity":"waste_basket"}},"type":"Feature"},
	{"geometry":{"coordinates":[11.470967,45.588411],"type":"Point"},"properties":{"osm_id":"5897285480","tag":{"amenity":"waste_basket","waste":"trash"}},"type":"Feature"},
	{"geometry":{"coordinates":[11.492752,45.588995],"type":"Point"},"properties":{"osm_id":"5926176542","tag":{"amenity":"recycling","recycling:cooking_oil":"yes","recycling_type":"container"}},"type":"Feature"},
	{"geometry":{"coordinates":[11.49456,45.600521],"type":"Point"},"properties":{"osm_id":"6178824058","tag":{"amenity":"recycling","recycling:drugs":"yes","recycling_type":"container"}},"type":"Feature"},
	{"geometry":{"coordinates":[11.491958,45.60168],"type":"Point"},"properties":{"osm_id":"6183764080","tag":{"amenity":"waste_basket","waste":"trash"}},"type":"Feature"},
	{"geometry":{"coordinates":[11.442317,45.628969],"type":"Point"},"properties":{"osm_id":"6295985787","tag":{"amenity":"waste_basket","waste":"trash"}},"type":"Feature"},
	{"geometry":{"coordinates":[11.442847,45.629115],"type":"Point"},"properties":{"osm_id":"6296095344","tag":{"amenity":"waste_basket","waste":"trash"}},"type":"Feature"},
	{"geometry":{"coordinates":[11.442815,45.62909],"type":"Point"},"properties":{"osm_id":"6296095345","tag":{"amenity":"waste_basket","waste":"trash"}},"type":"Feature"},
	{"geometry":{"coordinates":[11.442746,45.629125],"type":"Point"},"properties":{"osm_id":"6296095346","tag":{"amenity":"waste_basket","waste":"trash"}},"type":"Feature"},
	{"geometry":{"coordinates":[11.499773,45.591271],"type":"Point"},"properties":{"osm_id":"7204175224","tag":{"amenity":"waste_basket","waste":"trash"}},"type":"Feature"}
]
}
