{
"type": "FeatureCollection",
"features": [
	{"geometry":{"coordinates":[11.502982,3.866811],"type":"Point"},"properties":{"osm_id":"4460833988","tag":{"amenity":"waste_disposal","operator":"voiri"}},"type":"Feature"},
	{"geometry":{"coordinates":[11.504114,3.864777],"type":"Point"},"properties":{"osm_id":"5675230209","tag":{"amenity":"waste_basket","waste":"Bac \u00c3\u00a0 ordure Hysacam"}},"type":"Feature"},
	{"geometry":{"coordinates":[11.452641,3.869778],"type":"Point"},"properties":{"name":"D\u00c3\u00a9charge sauvage","osm_id":"5758799549","tag":{"amenity":"recycling","opening_hours":"24/7","operator":"HYSACAM","recycling:batteries":"yes","recycling:cans":"no","recycling:cardboard":"yes","recycling:clothes":"yes","recycling:electrical_appliances":"yes","recycling:glass":"yes","recycling:glass_bottles":"yes","recycling:green_waste":"yes","recycling:paper":"yes","recycling:plastic":"yes","recycling:plastic_bottles":"yes","recycling:plastic_packaging":"yes","recycling:scrap_metal":"yes","recycling:shoes":"yes","recycling:small_appliances":"yes","recycling:waste":"yes","recycling_type":"centre","wheelchair":"yes"}},"type":"Feature"},
	{"geometry":{"coordinates":[11.442644,3.870609],"type":"Point"},"properties":{"name":"D\u00c3\u00a9charge sauvage","osm_id":"5758799550","tag":{"amenity":"recycling","opening_hours":"24/7","operator":"HYSACAM","recycling:batteries":"yes","recycling:cans":"yes","recycling:cardboard":"yes","recycling:clothes":"yes","recycling:electrical_appliances":"yes","recycling:glass":"yes","recycling:glass_bottles":"yes","recycling:green_waste":"yes","recycling:paper":"yes","recycling:plastic":"yes","recycling:plastic_bottles":"yes","recycling:plastic_packaging":"yes","recycling:scrap_metal":"yes","recycling:shoes":"yes","recycling:small_appliances":"yes","recycling:waste":"yes","recycling_type":"centre","wheelchair":"yes"}},"type":"Feature"},
	{"geometry":{"coordinates":[11.445697,3.870665],"type":"Point"},"properties":{"name":"D\u00c3\u00a9charge sauvage","osm_id":"5758799551","tag":{"amenity":"recycling","opening_hours":"24/7","operator":"HYSACAM","recycling:batteries":"yes","recycling:cans":"yes","recycling:cardboard":"yes","recycling:clothes":"yes","recycling:electrical_appliances":"yes","recycling:glass":"yes","recycling:glass_bottles":"yes","recycling:green_waste":"yes","recycling:paper":"yes","recycling:plastic":"yes","recycling:plastic_bottles":"yes","recycling:plastic_packaging":"yes","recycling:scrap_metal":"yes","recycling:shoes":"yes","recycling:small_appliances":"yes","recycling:waste":"yes","recycling_type":"centre","wheelchair":"yes"}},"type":"Feature"},
	{"geometry":{"coordinates":[11.444998,3.86945],"type":"Point"},"properties":{"name":"D\u00c3\u00a9charge sauvage","osm_id":"5758799552","tag":{"amenity":"recycling","opening_hours":"24/7","operator":"HYSACAM","recycling:batteries":"yes","recycling:cans":"yes","recycling:cardboard":"yes","recycling:clothes":"yes","recycling:electrical_appliances":"yes","recycling:glass":"yes","recycling:glass_bottles":"yes","recycling:green_waste":"yes","recycling:paper":"yes","recycling:plastic":"yes","recycling:plastic_bottles":"yes","recycling:plastic_packaging":"yes","recycling:scrap_metal":"yes","recycling:shoes":"yes","recycling:small_appliances":"yes","recycling:waste":"yes","recycling_type":"centre","wheelchair":"yes"}},"type":"Feature"},
	{"geometry":{"coordinates":[11.446064,3.867865],"type":"Point"},"properties":{"name":"D\u00c3\u00a9charge sauvage","osm_id":"5758799553","tag":{"amenity":"recycling","opening_hours":"24/7","operator":"HYSACAM","recycling:batteries":"yes","recycling:cans":"yes","recycling:cardboard":"yes","recycling:clothes":"yes","recycling:electrical_appliances":"yes","recycling:glass":"yes","recycling:glass_bottles":"yes","recycling:green_waste":"yes","recycling:paper":"yes","recycling:plastic":"yes","recycling:plastic_bottles":"yes","recycling:plastic_packaging":"yes","recycling:scrap_metal":"yes","recycling:shoes":"yes","recycling:small_appliances":"yes","recycling:waste":"yes","recycling_type":"centre","wheelchair":"yes"}},"type":"Feature"},
	{"geometry":{"coordinates":[11.446165,3.865731],"type":"Point"},"properties":{"name":"D\u00c3\u00a9charge sauvage","osm_id":"5758799554","tag":{"amenity":"recycling","opening_hours":"24/7","operator":"HYSACAM","recycling:batteries":"yes","recycling:cans":"yes","recycling:cardboard":"yes","recycling:clothes":"yes","recycling:electrical_appliances":"yes","recycling:glass":"yes","recycling:glass_bottles":"yes","recycling:green_waste":"yes","recycling:paper":"yes","recycling:plastic":"yes","recycling:plastic_bottles":"yes","recycling:plastic_packaging":"yes","recycling:scrap_metal":"yes","recycling:shoes":"yes","recycling:small_appliances":"yes","recycling:waste":"yes","recycling_type":"centre","wheelchair":"no"}},"type":"Feature"},
	{"geometry":{"coordinates":[11.446179,3.866714],"type":"Point"},"properties":{"name":"decharge sauvage","osm_id":"5758799555","tag":{"amenity":"recycling","opening_hours":"24/7","operator":"Hysacam","recycling:batteries":"yes","recycling:cans":"yes","recycling:cardboard":"yes","recycling:clothes":"yes","recycling:electrical_appliances":"yes","recycling:glass":"yes","recycling:glass_bottles":"yes","recycling:green_waste":"yes","recycling:paper":"yes","recycling:plastic":"yes","recycling:plastic_bottles":"yes","recycling:plastic_packaging":"yes","recycling:scrap_metal":"yes","recycling:shoes":"yes","recycling:small_appliances":"yes","recycling_type":"centre","wheelchair":"yes"}},"type":"Feature"},
	{"geometry":{"coordinates":[11.471801,3.876595],"type":"Point"},"properties":{"osm_id":"5758804158","tag":{"amenity":"waste_disposal","waste":"Poubelle Entr\u00c3\u00a9e Chapelle"}},"type":"Feature"},
	{"geometry":{"coordinates":[11.473635,3.87688],"type":"Point"},"properties":{"osm_id":"5758804159","tag":{"amenity":"waste_basket","waste":"Poubelle Mont\u00c3\u00a9e Avocat"}},"type":"Feature"},
	{"geometry":{"coordinates":[11.474392,3.875407],"type":"Point"},"properties":{"osm_id":"5758804160","tag":{"amenity":"waste_disposal","waste":"Poubelle du march\u00c3\u00a9"}},"type":"Feature"},
	{"geometry":{"coordinates":[11.506285,3.886905],"type":"Point"},"properties":{"osm_id":"6395903131","tag":{"amenity":"waste_basket"}},"type":"Feature"},
	{"geometry":{"coordinates":[11.509252,3.893475],"type":"Point"},"properties":{"osm_id":"6395909713","tag":{"amenity":"waste_basket"}},"type":"Feature"},
	{"geometry":{"coordinates":[11.51252,3.902103],"type":"Point"},"properties":{"osm_id":"6395969913","tag":{"amenity":"waste_basket"}},"type":"Feature"},
	{"geometry":{"coordinates":[11.511701,3.899496],"type":"Point"},"properties":{"osm_id":"6395969914","tag":{"amenity":"waste_basket"}},"type":"Feature"},
	{"geometry":{"coordinates":[11.509744,3.900938],"type":"Point"},"properties":{"osm_id":"6395969915","tag":{"amenity":"waste_basket"}},"type":"Feature"},
	{"geometry":{"coordinates":[11.508519,3.900025],"type":"Point"},"properties":{"osm_id":"6395969916","tag":{"amenity":"waste_basket"}},"type":"Feature"},
	{"geometry":{"coordinates":[11.506041,3.896849],"type":"Point"},"properties":{"osm_id":"6395988359","tag":{"amenity":"waste_basket"}},"type":"Feature"},
	{"geometry":{"coordinates":[11.504624,3.897503],"type":"Point"},"properties":{"osm_id":"6395988360","tag":{"amenity":"waste_basket"}},"type":"Feature"},
	{"geometry":{"coordinates":[11.474368,3.875442],"type":"Point"},"properties":{"osm_id":"7148737825","tag":{"amenity":"waste_basket"}},"type":"Feature"},
	{"geometry":{"coordinates":[11.484103,3.87689],"type":"Point"},"properties":{"osm_id":"7148738039","tag":{"amenity":"waste_basket"}},"type":"Feature"},
	{"geometry":{"coordinates":[11.478363,3.881072],"type":"Point"},"properties":{"osm_id":"7148743507","tag":{"amenity":"waste_basket"}},"type":"Feature"},
	{"geometry":{"coordinates":[11.459972,3.872771],"type":"Point"},"properties":{"osm_id":"7148749258","tag":{"NOM":"Bac","amenity":"waste_basket"}},"type":"Feature"},
	{"geometry":{"coordinates":[11.471658,3.872335],"type":"Point"},"properties":{"osm_id":"7148761550","tag":{"amenity":"waste_basket"}},"type":"Feature"},
	{"geometry":{"coordinates":[11.464182,3.871906],"type":"Point"},"properties":{"osm_id":"7148769860","tag":{"amenity":"waste_basket"}},"type":"Feature"},
	{"geometry":{"coordinates":[11.469945,3.875853],"type":"Point"},"properties":{"osm_id":"7148772427","tag":{"amenity":"waste_basket"}},"type":"Feature"},
	{"geometry":{"coordinates":[11.471762,3.876616],"type":"Point"},"properties":{"osm_id":"7148774979","tag":{"amenity":"waste_basket"}},"type":"Feature"},
	{"geometry":{"coordinates":[11.463356,3.872262],"type":"Point"},"properties":{"osm_id":"7148783022","tag":{"amenity":"waste_basket"}},"type":"Feature"},
	{"geometry":{"coordinates":[11.465056,3.871861],"type":"Point"},"properties":{"osm_id":"7148787414","tag":{"amenity":"waste_basket"}},"type":"Feature"},
	{"geometry":{"coordinates":[11.466988,3.883056],"type":"Point"},"properties":{"osm_id":"7148803221","tag":{"amenity":"waste_basket"}},"type":"Feature"},
	{"geometry":{"coordinates":[11.464699,3.874032],"type":"Point"},"properties":{"osm_id":"7148803818","tag":{"NOM":"Bac","amenity":"waste_basket"}},"type":"Feature"},
	{"geometry":{"coordinates":[11.459098,3.877252],"type":"Point"},"properties":{"osm_id":"7148804956","tag":{"NOM":"Bacs","amenity":"waste_basket"}},"type":"Feature"},
	{"geometry":{"coordinates":[11.429492,3.87487],"type":"Point"},"properties":{"osm_id":"7148806483","tag":{"amenity":"waste_basket"}},"type":"Feature"},
	{"geometry":{"coordinates":[11.447462,3.871723],"type":"Point"},"properties":{"osm_id":"7148822194","tag":{"NOM":"Bacs","amenity":"waste_basket"}},"type":"Feature"},
	{"geometry":{"coordinates":[11.450608,3.874318],"type":"Point"},"properties":{"osm_id":"7150617167","tag":{"NOM":"Decharge","amenity":"waste_basket"}},"type":"Feature"},
	{"geometry":{"coordinates":[11.45599,3.89564],"type":"Point"},"properties":{"osm_id":"7150647036","tag":{"amenity":"waste_basket"}},"type":"Feature"},
	{"geometry":{"coordinates":[11.455705,3.889837],"type":"Point"},"properties":{"osm_id":"7150648176","tag":{"amenity":"waste_basket"}},"type":"Feature"},
	{"geometry":{"coordinates":[11.454733,3.886706],"type":"Point"},"properties":{"osm_id":"7150656674","tag":{"amenity":"waste_basket"}},"type":"Feature"},
	{"geometry":{"coordinates":[11.4507,3.874358],"type":"Point"},"properties":{"osm_id":"7150664577","tag":{"amenity":"waste_basket"}},"type":"Feature"},
	{"geometry":{"coordinates":[11.461551,3.88934],"type":"Point"},"properties":{"osm_id":"7150669364","tag":{"amenity":"waste_basket"}},"type":"Feature"},
	{"geometry":{"coordinates":[11.450565,3.901255],"type":"Point"},"properties":{"osm_id":"7150677462","tag":{"amenity":"waste_basket"}},"type":"Feature"},
	{"geometry":{"coordinates":[11.456611,3.88761],"type":"Point"},"properties":{"osm_id":"7150677664","tag":{"amenity":"waste_basket"}},"type":"Feature"},
	{"geometry":{"coordinates":[11.455392,3.888696],"type":"Point"},"properties":{"osm_id":"7150681930","tag":{"amenity":"waste_basket"}},"type":"Feature"},
	{"geometry":{"coordinates":[11.450523,3.879546],"type":"Point"},"properties":{"osm_id":"7150684608","tag":{"NOM":"Bacs","amenity":"waste_basket"}},"type":"Feature"},
	{"geometry":{"coordinates":[11.45096,3.881564],"type":"Point"},"properties":{"osm_id":"7150685353","tag":{"NOM":"Bacs","amenity":"waste_basket"}},"type":"Feature"},
	{"geometry":{"coordinates":[11.451145,3.881861],"type":"Point"},"properties":{"osm_id":"7150687205","tag":{"amenity":"waste_basket"}},"type":"Feature"},
	{"geometry":{"coordinates":[11.457134,3.879226],"type":"Point"},"properties":{"osm_id":"7150689451","tag":{"amenity":"waste_basket"}},"type":"Feature"},
	{"geometry":{"coordinates":[11.457984,3.896195],"type":"Point"},"properties":{"osm_id":"7150691061","tag":{"amenity":"waste_basket"}},"type":"Feature"},
	{"geometry":{"coordinates":[11.457126,3.879084],"type":"Point"},"properties":{"osm_id":"7150693286","tag":{"NOM":"Bacs","amenity":"waste_basket"}},"type":"Feature"},
	{"geometry":{"coordinates":[11.463201,3.885473],"type":"Point"},"properties":{"osm_id":"7150696497","tag":{"amenity":"waste_basket"}},"type":"Feature"},
	{"geometry":{"coordinates":[11.453369,3.898717],"type":"Point"},"properties":{"osm_id":"7150697033","tag":{"amenity":"waste_basket"}},"type":"Feature"},
	{"geometry":{"coordinates":[11.455419,3.900257],"type":"Point"},"properties":{"osm_id":"7150707534","tag":{"amenity":"waste_basket"}},"type":"Feature"}
]
}
