{
"type": "FeatureCollection",
"features": [
	{"geometry":{"coordinates":[11.501383,3.848957],"type":"Point"},"properties":{"osm_id":"1967552713","tag":{"amenity":"waste_basket","waste":"Bac \u00c3\u00a0 ordure Hysacam"}},"type":"Feature"},
	{"geometry":{"coordinates":[11.49525,3.850958],"type":"Point"},"properties":{"osm_id":"2300647908","tag":{"amenity":"waste_basket","waste":"HYSACAM Trash can"}},"type":"Feature"},
	{"geometry":{"coordinates":[11.506821,3.858651],"type":"Point"},"properties":{"osm_id":"5675230210","tag":{"amenity":"waste_basket","waste":"Bac \u00c3\u00a0 ordure Hysacam"}},"type":"Feature"},
	{"geometry":{"coordinates":[11.504884,3.859572],"type":"Point"},"properties":{"osm_id":"5675230211","tag":{"amenity":"waste_basket","waste":"Bac \u00c3\u00a0 ordure Hysacam"}},"type":"Feature"},
	{"geometry":{"coordinates":[11.50322,3.855484],"type":"Point"},"properties":{"osm_id":"5675230212","tag":{"amenity":"waste_basket","waste":"Bac \u00c3\u00a0 ordure Hysacam"}},"type":"Feature"},
	{"geometry":{"coordinates":[11.499943,3.854651],"type":"Point"},"properties":{"osm_id":"5675230213","tag":{"amenity":"waste_basket","waste":"Bac \u00c3\u00a0 ordure Hysacam"}},"type":"Feature"},
	{"geometry":{"coordinates":[11.499497,3.851548],"type":"Point"},"properties":{"osm_id":"5675230214","tag":{"amenity":"waste_basket","waste":"Bac \u00c3\u00a0 ordure Hysacam"}},"type":"Feature"},
	{"geometry":{"coordinates":[11.493272,3.856121],"type":"Point"},"properties":{"osm_id":"5675246199","tag":{"amenity":"waste_basket","waste":"HYSACAM Trash can"}},"type":"Feature"},
	{"geometry":{"coordinates":[11.495722,3.851485],"type":"Point"},"properties":{"osm_id":"5675246200","tag":{"amenity":"waste_basket","waste":"HYSACAM Trash can"}},"type":"Feature"},
	{"geometry":{"coordinates":[11.496991,3.853973],"type":"Point"},"properties":{"osm_id":"5675246203","tag":{"amenity":"waste_basket","waste":"HySACAM Trash Can"}},"type":"Feature"},
	{"geometry":{"coordinates":[11.501049,3.862815],"type":"Point"},"properties":{"osm_id":"5758817554","tag":{"amenity":"waste_disposal","waste":"bac \u00c3\u00a0 ordure polytechnique2"}},"type":"Feature"},
	{"geometry":{"coordinates":[11.498766,3.863473],"type":"Point"},"properties":{"osm_id":"5758817555","tag":{"amenity":"waste_disposal","waste":"bac \u00c3\u00a0 ordure polytechnique"}},"type":"Feature"},
	{"geometry":{"coordinates":[11.492558,3.857745],"type":"Point"},"properties":{"osm_id":"5758817556","tag":{"amenity":"waste_disposal","waste":"bac \u00c3\u00a0 ordure gp melen"}},"type":"Feature"},
	{"geometry":{"coordinates":[11.494699,3.86331],"type":"Point"},"properties":{"osm_id":"5758817557","tag":{"amenity":"waste_disposal","waste":"bac \u00c3\u00a0 ordure entr\u00c3\u00a9e morgue CHU"}},"type":"Feature"},
	{"geometry":{"coordinates":[11.496262,3.863891],"type":"Point"},"properties":{"osm_id":"5758817558","tag":{"amenity":"waste_disposal","waste":"poubelle feux melen"}},"type":"Feature"},
	{"geometry":{"coordinates":[11.492037,3.826052],"type":"Point"},"properties":{"osm_id":"5758847424","tag":{"amenity":"waste_basket","waste":"Mixed"}},"type":"Feature"},
	{"geometry":{"coordinates":[11.487563,3.833171],"type":"Point"},"properties":{"osm_id":"5758847425","tag":{"amenity":"waste_basket","waste":"Mixed"}},"type":"Feature"},
	{"geometry":{"coordinates":[11.493304,3.832559],"type":"Point"},"properties":{"osm_id":"5758847426","tag":{"amenity":"waste_basket","waste":"Mixed"}},"type":"Feature"},
	{"geometry":{"coordinates":[11.493378,3.830776],"type":"Point"},"properties":{"osm_id":"5758847427","tag":{"amenity":"waste_basket","waste":"Mixed"}},"type":"Feature"}
]
}
