{
"type": "FeatureCollection",
"features": [
	{"geometry":{"coordinates":[25.144085,60.336649],"type":"Point"},"properties":{"name":"Alueker\u00c3\u00a4yspiste, Etel\u00c3\u00a4-Nikinm\u00c3\u00a4ki","osm_id":"374125313","tag":{"addr:city":"Vantaa","addr:country":"FI","addr:housenumber":"340","addr:postcode":"01490","addr:street":"Vanha Porvoontie","amenity":"recycling","name:fi":"Alueker\u00c3\u00a4yspiste, Etel\u00c3\u00a4-Nikinm\u00c3\u00a4ki","name:sv":"Regional insamlingsplats, S\u00c3\u00b6dra Nissbacka","operator":"HSY","recycling:batteries":"no","recycling:cans":"yes","recycling:cardboard":"yes","recycling:clothes":"yes","recycling:glass":"yes","recycling:paper":"yes","recycling:plastic_bags":"yes","recycling:scrap_metal":"yes","recycling_type":"container"}},"type":"Feature"},
	{"geometry":{"coordinates":[25.142703,60.356204],"type":"Point"},"properties":{"osm_id":"1579610127","tag":{"addr:city":"Vantaa","addr:country":"FI","addr:postcode":"01490","addr:street":"Siikatie","amenity":"recycling","operator":"HSL","recycling:paper":"yes"}},"type":"Feature"}
]
}
