{
"type": "FeatureCollection",
"features": [
	{"geometry":{"coordinates":[25.148509,60.207118],"type":"Point"},"properties":{"osm_id":"442683822","tag":{"amenity":"recycling","recycling:batteries":"yes","recycling:cans":"yes","recycling:clothes":"yes","recycling:glass":"yes","recycling:paper":"yes","recycling:plastic_bags":"yes"}},"type":"Feature"},
	{"geometry":{"coordinates":[25.151993,60.200967],"type":"Point"},"properties":{"osm_id":"449594736","tag":{"amenity":"waste_basket"}},"type":"Feature"},
	{"geometry":{"coordinates":[25.152268,60.201026],"type":"Point"},"properties":{"osm_id":"449594739","tag":{"amenity":"waste_basket"}},"type":"Feature"},
	{"geometry":{"coordinates":[25.152542,60.201086],"type":"Point"},"properties":{"osm_id":"449594745","tag":{"amenity":"waste_basket"}},"type":"Feature"},
	{"geometry":{"coordinates":[25.152816,60.201146],"type":"Point"},"properties":{"osm_id":"449594747","tag":{"amenity":"waste_basket"}},"type":"Feature"},
	{"geometry":{"coordinates":[25.15309,60.201206],"type":"Point"},"properties":{"osm_id":"449594749","tag":{"amenity":"waste_basket"}},"type":"Feature"},
	{"geometry":{"coordinates":[25.153365,60.201265],"type":"Point"},"properties":{"osm_id":"449594751","tag":{"amenity":"waste_basket"}},"type":"Feature"},
	{"geometry":{"coordinates":[25.153639,60.201325],"type":"Point"},"properties":{"osm_id":"449594753","tag":{"amenity":"waste_basket"}},"type":"Feature"},
	{"geometry":{"coordinates":[25.156327,60.202204],"type":"Point"},"properties":{"osm_id":"449594768","tag":{"amenity":"waste_basket"}},"type":"Feature"},
	{"geometry":{"coordinates":[25.148448,60.204065],"type":"Point"},"properties":{"osm_id":"492863078","tag":{"amenity":"waste_basket"}},"type":"Feature"},
	{"geometry":{"coordinates":[25.151022,60.221389],"type":"Point"},"properties":{"osm_id":"502442103","tag":{"amenity":"waste_basket"}},"type":"Feature"},
	{"geometry":{"coordinates":[25.1416,60.210269],"type":"Point"},"properties":{"osm_id":"503686711","tag":{"amenity":"waste_basket"}},"type":"Feature"},
	{"geometry":{"coordinates":[25.139262,60.212853],"type":"Point"},"properties":{"osm_id":"511178602","tag":{"amenity":"waste_basket"}},"type":"Feature"},
	{"geometry":{"coordinates":[25.146073,60.201609],"type":"Point"},"properties":{"osm_id":"539098014","tag":{"amenity":"waste_basket"}},"type":"Feature"},
	{"geometry":{"coordinates":[25.143878,60.223107],"type":"Point"},"properties":{"osm_id":"566701511","tag":{"amenity":"waste_basket"}},"type":"Feature"},
	{"geometry":{"coordinates":[25.144457,60.223516],"type":"Point"},"properties":{"osm_id":"566701516","tag":{"amenity":"waste_basket"}},"type":"Feature"},
	{"geometry":{"coordinates":[25.140004,60.201897],"type":"Point"},"properties":{"highway":"street_lamp","osm_id":"576047196","tag":{"amenity":"waste_basket","traffic_sign":"FI:312;FI:423"}},"type":"Feature"},
	{"geometry":{"coordinates":[25.138923,60.208053],"type":"Point"},"properties":{"highway":"street_lamp","osm_id":"577397239","tag":{"amenity":"waste_basket","traffic_sign":"FI:423"}},"type":"Feature"},
	{"geometry":{"coordinates":[25.137063,60.209321],"type":"Point"},"properties":{"osm_id":"577397248","tag":{"amenity":"waste_basket"}},"type":"Feature"},
	{"geometry":{"coordinates":[25.137564,60.209256],"type":"Point"},"properties":{"osm_id":"577397257","tag":{"amenity":"waste_basket"}},"type":"Feature"},
	{"geometry":{"coordinates":[25.153218,60.202326],"type":"Point"},"properties":{"osm_id":"582084487","tag":{"amenity":"waste_basket"}},"type":"Feature"},
	{"geometry":{"coordinates":[25.173886,60.222777],"type":"Point"},"properties":{"osm_id":"637762949","tag":{"amenity":"waste_basket"}},"type":"Feature"},
	{"geometry":{"coordinates":[25.174106,60.222933],"type":"Point"},"properties":{"osm_id":"637762953","tag":{"amenity":"waste_basket"}},"type":"Feature"},
	{"geometry":{"coordinates":[25.175044,60.223821],"type":"Point"},"properties":{"osm_id":"638330022","tag":{"amenity":"waste_basket"}},"type":"Feature"},
	{"geometry":{"coordinates":[25.144113,60.207416],"type":"Point"},"properties":{"osm_id":"657789100","tag":{"amenity":"recycling","layer":"-1","recycling:paper":"yes"}},"type":"Feature"},
	{"geometry":{"coordinates":[25.160201,60.209945],"type":"Point"},"properties":{"osm_id":"927351792","tag":{"amenity":"waste_basket"}},"type":"Feature"},
	{"geometry":{"coordinates":[25.151972,60.200897],"type":"Point"},"properties":{"osm_id":"934857760","tag":{"amenity":"waste_basket"}},"type":"Feature"},
	{"geometry":{"coordinates":[25.160958,60.202796],"type":"Point"},"properties":{"osm_id":"934857785","tag":{"amenity":"waste_basket"}},"type":"Feature"},
	{"geometry":{"coordinates":[25.1453,60.201819],"type":"Point"},"properties":{"osm_id":"944541327","tag":{"amenity":"waste_basket"}},"type":"Feature"},
	{"geometry":{"coordinates":[25.145176,60.201914],"type":"Point"},"properties":{"osm_id":"944541329","tag":{"amenity":"waste_basket"}},"type":"Feature"},
	{"geometry":{"coordinates":[25.145676,60.219875],"type":"Point"},"properties":{"osm_id":"990343910","tag":{"amenity":"recycling"}},"type":"Feature"},
	{"geometry":{"coordinates":[25.174227,60.222309],"type":"Point"},"properties":{"osm_id":"1136484843","tag":{"amenity":"waste_basket"}},"type":"Feature"},
	{"geometry":{"coordinates":[25.14332,60.203622],"type":"Point"},"properties":{"highway":"street_lamp","osm_id":"1261363965","tag":{"amenity":"waste_basket","guidepost":"destination","traffic_sign":"FI:645[Aurinkolahti]","traffic_sign:2":"FI:645[Uutela][1,5]","traffic_sign:3":"FI:645[Aurinkoranta][0,4]"}},"type":"Feature"},
	{"geometry":{"coordinates":[25.142555,60.203862],"type":"Point"},"properties":{"highway":"street_lamp","osm_id":"1261363978","tag":{"amenity":"waste_basket","guidepost":"destination","traffic_sign":"FI:645[Metro][0,4]","traffic_sign:2":"FI:645[Aurinkolahti]","traffic_sign:3":"FI:645[Meri-Rastila]","traffic_sign:4":"FI:645[Kallahdenniemi]"}},"type":"Feature"},
	{"geometry":{"coordinates":[25.148783,60.207969],"type":"Point"},"properties":{"osm_id":"1262551924","tag":{"amenity":"waste_basket","guidepost":"destination","traffic_sign":"FI:645[It\u00c3\u00a4keskus 4]","traffic_sign:2":"FI:645[Satama 1,5]"}},"type":"Feature"},
	{"geometry":{"coordinates":[25.13678,60.205725],"type":"Point"},"properties":{"osm_id":"1270147727","tag":{"amenity":"waste_basket"}},"type":"Feature"},
	{"geometry":{"coordinates":[25.137469,60.206287],"type":"Point"},"properties":{"osm_id":"1270147784","tag":{"amenity":"waste_basket"}},"type":"Feature"},
	{"geometry":{"coordinates":[25.143414,60.207355],"type":"Point"},"properties":{"osm_id":"1271056726","tag":{"amenity":"waste_basket"}},"type":"Feature"},
	{"geometry":{"coordinates":[25.142905,60.199948],"type":"Point"},"properties":{"osm_id":"1274777890","tag":{"amenity":"waste_basket"}},"type":"Feature"},
	{"geometry":{"coordinates":[25.142302,60.199672],"type":"Point"},"properties":{"osm_id":"1274777904","tag":{"amenity":"waste_basket"}},"type":"Feature"},
	{"geometry":{"coordinates":[25.150076,60.201555],"type":"Point"},"properties":{"osm_id":"1274994604","tag":{"amenity":"waste_basket","guidepost":"destination","traffic_sign":"FI:645[vandalized]","traffic_sign:2":"FI:312","traffic_sign:3":"FI:872","traffic_sign:4":"FI:871[Pys\u00c3\u00a4k\u00c3\u00b6intikieltoalue voimassa]"}},"type":"Feature"},
	{"geometry":{"coordinates":[25.145849,60.211315],"type":"Point"},"properties":{"highway":"street_lamp","osm_id":"1353031916","tag":{"amenity":"waste_basket","power":"pole"}},"type":"Feature"},
	{"geometry":{"coordinates":[25.159231,60.209301],"type":"Point"},"properties":{"osm_id":"1391606011","tag":{"amenity":"waste_basket"}},"type":"Feature"},
	{"geometry":{"coordinates":[25.140175,60.207341],"type":"Point"},"properties":{"osm_id":"1416344899","tag":{"amenity":"waste_basket"}},"type":"Feature"},
	{"geometry":{"coordinates":[25.156398,60.201926],"type":"Point"},"properties":{"osm_id":"1431343103","tag":{"amenity":"waste_basket"}},"type":"Feature"},
	{"geometry":{"coordinates":[25.155568,60.201746],"type":"Point"},"properties":{"osm_id":"1431343155","tag":{"amenity":"waste_basket"}},"type":"Feature"},
	{"geometry":{"coordinates":[25.154738,60.201566],"type":"Point"},"properties":{"osm_id":"1431343187","tag":{"amenity":"waste_basket"}},"type":"Feature"},
	{"geometry":{"coordinates":[25.156121,60.201866],"type":"Point"},"properties":{"osm_id":"1431343285","tag":{"amenity":"waste_basket"}},"type":"Feature"},
	{"geometry":{"coordinates":[25.154461,60.201506],"type":"Point"},"properties":{"osm_id":"1431343291","tag":{"amenity":"waste_basket"}},"type":"Feature"},
	{"geometry":{"coordinates":[25.155291,60.201686],"type":"Point"},"properties":{"osm_id":"1431343298","tag":{"amenity":"waste_basket"}},"type":"Feature"},
	{"geometry":{"coordinates":[25.155844,60.201806],"type":"Point"},"properties":{"osm_id":"1431343332","tag":{"amenity":"waste_basket"}},"type":"Feature"},
	{"geometry":{"coordinates":[25.155015,60.201626],"type":"Point"},"properties":{"osm_id":"1431343376","tag":{"amenity":"waste_basket"}},"type":"Feature"},
	{"geometry":{"coordinates":[25.14226,60.203751],"type":"Point"},"properties":{"osm_id":"1435859893","tag":{"amenity":"waste_basket"}},"type":"Feature"},
	{"geometry":{"coordinates":[25.148518,60.200619],"type":"Point"},"properties":{"osm_id":"1437752536","tag":{"amenity":"waste_basket"}},"type":"Feature"},
	{"geometry":{"coordinates":[25.148787,60.200703],"type":"Point"},"properties":{"osm_id":"1437752613","tag":{"amenity":"waste_basket"}},"type":"Feature"},
	{"geometry":{"coordinates":[25.153554,60.216023],"type":"Point"},"properties":{"highway":"street_lamp","osm_id":"1760174807","tag":{"amenity":"waste_basket"}},"type":"Feature"},
	{"geometry":{"coordinates":[25.152485,60.218544],"type":"Point"},"properties":{"highway":"street_lamp","osm_id":"1760175836","tag":{"amenity":"waste_basket"}},"type":"Feature"},
	{"geometry":{"coordinates":[25.139966,60.221602],"type":"Point"},"properties":{"osm_id":"1760229620","tag":{"amenity":"recycling"}},"type":"Feature"},
	{"geometry":{"coordinates":[25.156702,60.205734],"type":"Point"},"properties":{"osm_id":"1916965025","tag":{"amenity":"waste_basket"}},"type":"Feature"},
	{"geometry":{"coordinates":[25.173643,60.2234],"type":"Point"},"properties":{"osm_id":"1935847989","tag":{"amenity":"waste_basket"}},"type":"Feature"},
	{"geometry":{"coordinates":[25.145863,60.208517],"type":"Point"},"properties":{"osm_id":"1937294457","tag":{"amenity":"waste_basket"}},"type":"Feature"},
	{"geometry":{"coordinates":[25.161856,60.203398],"type":"Point"},"properties":{"osm_id":"2001947266","tag":{"amenity":"waste_basket","traffic_sign":"FI:423"}},"type":"Feature"},
	{"geometry":{"coordinates":[25.150103,60.203858],"type":"Point"},"properties":{"osm_id":"2069957788","tag":{"amenity":"waste_basket","waste":"mixed"}},"type":"Feature"},
	{"geometry":{"coordinates":[25.145367,60.205649],"type":"Point"},"properties":{"osm_id":"2077720909","tag":{"amenity":"waste_basket","traffic_sign":"FI:521","traffic_sign:2":"FI:856b[4h 6-24]","traffic_sign:3":"FI:845"}},"type":"Feature"},
	{"geometry":{"coordinates":[25.15273,60.202129],"type":"Point"},"properties":{"osm_id":"2270006771","tag":{"amenity":"waste_basket"}},"type":"Feature"},
	{"geometry":{"coordinates":[25.148447,60.204169],"type":"Point"},"properties":{"osm_id":"2270006828","tag":{"amenity":"waste_basket","traffic_sign":"FI:511"}},"type":"Feature"},
	{"geometry":{"coordinates":[25.137259,60.209762],"type":"Point"},"properties":{"osm_id":"2270027816","tag":{"amenity":"waste_basket"}},"type":"Feature"},
	{"geometry":{"coordinates":[25.137243,60.20254],"type":"Point"},"properties":{"osm_id":"2275921649","tag":{"amenity":"waste_basket"}},"type":"Feature"},
	{"geometry":{"coordinates":[25.137703,60.202593],"type":"Point"},"properties":{"osm_id":"2275921650","tag":{"amenity":"waste_basket"}},"type":"Feature"},
	{"geometry":{"coordinates":[25.140784,60.209326],"type":"Point"},"properties":{"highway":"street_lamp","osm_id":"2276677341","tag":{"amenity":"waste_basket","traffic_sign":"FI:423"}},"type":"Feature"},
	{"geometry":{"coordinates":[25.138379,60.209072],"type":"Point"},"properties":{"osm_id":"2304064977","tag":{"amenity":"waste_basket","traffic_sign":"FI:423"}},"type":"Feature"},
	{"geometry":{"coordinates":[25.144576,60.200661],"type":"Point"},"properties":{"highway":"street_lamp","osm_id":"2333034412","tag":{"amenity":"waste_basket","traffic_sign":"FI:423"}},"type":"Feature"},
	{"geometry":{"coordinates":[25.14043,60.205984],"type":"Point"},"properties":{"osm_id":"2337554798","tag":{"amenity":"waste_basket"}},"type":"Feature"},
	{"geometry":{"coordinates":[25.145869,60.206568],"type":"Point"},"properties":{"osm_id":"2337554803","tag":{"amenity":"waste_basket"}},"type":"Feature"},
	{"geometry":{"coordinates":[25.161789,60.203977],"type":"Point"},"properties":{"osm_id":"2339551657","tag":{"amenity":"waste_basket"}},"type":"Feature"},
	{"geometry":{"coordinates":[25.153916,60.201394],"type":"Point"},"properties":{"highway":"street_lamp","osm_id":"2392746814","tag":{"amenity":"waste_basket"}},"type":"Feature"},
	{"geometry":{"coordinates":[25.154172,60.201449],"type":"Point"},"properties":{"highway":"street_lamp","osm_id":"2392746815","tag":{"amenity":"waste_basket"}},"type":"Feature"},
	{"geometry":{"coordinates":[25.155401,60.205687],"type":"Point"},"properties":{"osm_id":"2420967905","tag":{"amenity":"waste_basket"}},"type":"Feature"},
	{"geometry":{"coordinates":[25.162707,60.19837],"type":"Point"},"properties":{"osm_id":"2766909182","tag":{"amenity":"waste_basket"}},"type":"Feature"},
	{"geometry":{"coordinates":[25.155557,60.204946],"type":"Point"},"properties":{"osm_id":"3211281197","tag":{"amenity":"waste_basket"}},"type":"Feature"},
	{"geometry":{"coordinates":[25.144727,60.224684],"type":"Point"},"properties":{"osm_id":"3750914641","tag":{"amenity":"waste_basket"}},"type":"Feature"},
	{"geometry":{"coordinates":[25.142826,60.231302],"type":"Point"},"properties":{"osm_id":"5053644210","tag":{"amenity":"waste_basket"}},"type":"Feature"},
	{"geometry":{"coordinates":[25.136868,60.236852],"type":"Point"},"properties":{"osm_id":"6646828085","tag":{"amenity":"waste_basket"}},"type":"Feature"},
	{"geometry":{"coordinates":[25.137533,60.207923],"type":"Point"},"properties":{"osm_id":"6698774884","tag":{"amenity":"waste_basket"}},"type":"Feature"},
	{"geometry":{"coordinates":[25.137175,60.207646],"type":"Point"},"properties":{"osm_id":"6698951806","tag":{"amenity":"waste_basket"}},"type":"Feature"},
	{"geometry":{"coordinates":[25.137384,60.207701],"type":"Point"},"properties":{"osm_id":"6698951809","tag":{"amenity":"waste_basket"}},"type":"Feature"},
	{"geometry":{"coordinates":[25.137647,60.207696],"type":"Point"},"properties":{"osm_id":"6698951814","tag":{"amenity":"waste_basket"}},"type":"Feature"},
	{"geometry":{"coordinates":[25.139905,60.208952],"type":"Point"},"properties":{"highway":"street_lamp","osm_id":"6698951821","tag":{"amenity":"waste_basket"}},"type":"Feature"},
	{"geometry":{"coordinates":[25.13779,60.20785],"type":"Point"},"properties":{"osm_id":"6698951828","tag":{"amenity":"waste_basket"}},"type":"Feature"},
	{"geometry":{"coordinates":[25.137938,60.208106],"type":"Point"},"properties":{"osm_id":"6698951829","tag":{"amenity":"waste_basket"}},"type":"Feature"},
	{"geometry":{"coordinates":[25.136854,60.20816],"type":"Point"},"properties":{"osm_id":"6698951837","tag":{"amenity":"waste_basket"}},"type":"Feature"},
	{"geometry":{"coordinates":[25.137195,60.207907],"type":"Point"},"properties":{"osm_id":"6698951838","tag":{"amenity":"waste_basket"}},"type":"Feature"},
	{"geometry":{"coordinates":[25.138081,60.208273],"type":"Point"},"properties":{"osm_id":"6698951839","tag":{"amenity":"waste_basket"}},"type":"Feature"},
	{"geometry":{"coordinates":[25.138193,60.20843],"type":"Point"},"properties":{"osm_id":"6698956399","tag":{"amenity":"waste_basket"}},"type":"Feature"},
	{"geometry":{"coordinates":[25.149677,60.22235],"type":"Point"},"properties":{"highway":"street_lamp","osm_id":"6753097951","tag":{"amenity":"waste_basket"}},"type":"Feature"},
	{"geometry":{"coordinates":[25.14229,60.222428],"type":"Point"},"properties":{"osm_id":"6753097952","tag":{"amenity":"waste_basket"}},"type":"Feature"},
	{"geometry":{"coordinates":[25.154585,60.212447],"type":"Point"},"properties":{"osm_id":"6753097953","tag":{"amenity":"waste_basket"}},"type":"Feature"},
	{"geometry":{"coordinates":[25.154368,60.212467],"type":"Point"},"properties":{"osm_id":"6753097954","tag":{"amenity":"waste_basket"}},"type":"Feature"},
	{"geometry":{"coordinates":[25.152028,60.218466],"type":"Point"},"properties":{"osm_id":"6753097958","tag":{"amenity":"waste_basket"}},"type":"Feature"},
	{"geometry":{"coordinates":[25.15564,60.210145],"type":"Point"},"properties":{"osm_id":"6753097959","tag":{"amenity":"waste_basket"}},"type":"Feature"},
	{"geometry":{"coordinates":[25.142963,60.223208],"type":"Point"},"properties":{"osm_id":"6753097960","tag":{"amenity":"waste_basket"}},"type":"Feature"},
	{"geometry":{"coordinates":[25.153796,60.212416],"type":"Point"},"properties":{"osm_id":"6753097962","tag":{"amenity":"waste_basket"}},"type":"Feature"},
	{"geometry":{"coordinates":[25.142897,60.223453],"type":"Point"},"properties":{"osm_id":"6753097963","tag":{"amenity":"waste_basket"}},"type":"Feature"},
	{"geometry":{"coordinates":[25.17573,60.207907],"type":"Point"},"properties":{"osm_id":"6763332885","tag":{"amenity":"waste_basket"}},"type":"Feature"},
	{"geometry":{"coordinates":[25.142314,60.22129],"type":"Point"},"properties":{"osm_id":"7440638094","tag":{"amenity":"recycling","recycling_type":"container"}},"type":"Feature"},
	{"geometry":{"coordinates":[25.138232,60.221672],"type":"Point"},"properties":{"osm_id":"7442154438","tag":{"amenity":"recycling","recycling_type":"container"}},"type":"Feature"},
	{"geometry":{"coordinates":[25.164894,60.207104],"type":"Point"},"properties":{"osm_id":"7700379189","tag":{"amenity":"waste_basket"}},"type":"Feature"},
	{"geometry":{"coordinates":[25.165109,60.207125],"type":"Point"},"properties":{"osm_id":"7700379191","tag":{"amenity":"waste_basket"}},"type":"Feature"}
]
}
