{
"type": "FeatureCollection",
"features": [
	{"geometry":{"coordinates":[25.147285,50.081797],"type":"Point"},"properties":{"osm_id":"4432322676","tag":{"amenity":"waste_disposal"}},"type":"Feature"},
	{"geometry":{"coordinates":[25.145488,50.084254],"type":"Point"},"properties":{"osm_id":"4432322685","tag":{"amenity":"waste_disposal"}},"type":"Feature"},
	{"geometry":{"coordinates":[25.146498,50.087001],"type":"Point"},"properties":{"osm_id":"4432322686","tag":{"amenity":"waste_disposal"}},"type":"Feature"},
	{"geometry":{"coordinates":[25.155275,50.075132],"type":"Point"},"properties":{"osm_id":"4440569802","tag":{"amenity":"waste_disposal"}},"type":"Feature"},
	{"geometry":{"coordinates":[25.146353,50.084824],"type":"Point"},"properties":{"osm_id":"4440646452","tag":{"amenity":"waste_disposal"}},"type":"Feature"},
	{"geometry":{"coordinates":[25.143118,50.071835],"type":"Point"},"properties":{"barrier":"gate","osm_id":"4979854556"},"type":"Feature"},
	{"geometry":{"coordinates":[25.144031,50.084965],"type":"Point"},"properties":{"osm_id":"5043095573","tag":{"amenity":"waste_disposal"}},"type":"Feature"},
	{"geometry":{"coordinates":[25.154766,50.08838],"type":"Point"},"properties":{"osm_id":"5043095574","tag":{"amenity":"waste_disposal"}},"type":"Feature"},
	{"geometry":{"coordinates":[25.149553,50.085879],"type":"Point"},"properties":{"osm_id":"5371389117","tag":{"amenity":"waste_disposal"}},"type":"Feature"},
	{"geometry":{"coordinates":[25.140398,50.083528],"type":"Point"},"properties":{"osm_id":"5609103093","tag":{"amenity":"waste_disposal"}},"type":"Feature"},
	{"geometry":{"coordinates":[25.143009,50.082776],"type":"Point"},"properties":{"osm_id":"5609103094","tag":{"amenity":"waste_disposal"}},"type":"Feature"},
	{"geometry":{"coordinates":[25.144588,50.083329],"type":"Point"},"properties":{"osm_id":"5609103095","tag":{"amenity":"waste_disposal"}},"type":"Feature"},
	{"geometry":{"coordinates":[25.14979,50.082503],"type":"Point"},"properties":{"osm_id":"5609782915","tag":{"amenity":"waste_disposal"}},"type":"Feature"},
	{"geometry":{"coordinates":[25.147347,50.092018],"type":"Point"},"properties":{"osm_id":"5624361957","tag":{"amenity":"waste_disposal"}},"type":"Feature"},
	{"geometry":{"coordinates":[25.149889,50.090102],"type":"Point"},"properties":{"osm_id":"5624361958","tag":{"amenity":"waste_disposal"}},"type":"Feature"},
	{"geometry":{"coordinates":[25.1558,50.089841],"type":"Point"},"properties":{"osm_id":"5829472475","tag":{"amenity":"waste_disposal"}},"type":"Feature"},
	{"geometry":{"coordinates":[25.143528,50.085186],"type":"Point"},"properties":{"osm_id":"6544537512","tag":{"amenity":"waste_disposal"}},"type":"Feature"},
	{"geometry":{"coordinates":[25.149378,50.093057],"type":"Point"},"properties":{"name":"\u00d0\u009f\u00d1\u0083\u00d0\u00bd\u00d0\u00ba\u00d1\u0082 \u00d0\u00bf\u00d1\u0080\u00d0\u00b8\u00d0\u00b9\u00d0\u00be\u00d0\u00bc\u00d1\u0083 \u00d0\u00bc\u00d0\u00b5\u00d1\u0082\u00d0\u00b0\u00d0\u00bb\u00d0\u00be\u00d0\u00b1\u00d1\u0080\u00d1\u0083\u00d1\u0085\u00d1\u0082\u00d1\u0083","osm_id":"6562665570","tag":{"amenity":"recycling","recycling_type":"centre"}},"type":"Feature"},
	{"geometry":{"coordinates":[25.139186,50.085449],"type":"Point"},"properties":{"osm_id":"6570053027","tag":{"amenity":"waste_disposal"}},"type":"Feature"},
	{"geometry":{"coordinates":[25.137481,50.084337],"type":"Point"},"properties":{"osm_id":"7822993760","tag":{"amenity":"waste_disposal"}},"type":"Feature"}
]
}
