{
"type": "FeatureCollection",
"lastupdate": "2020-08-01T00:00:00Z",
"features": [
	{"geometry":{"coordinates":[25.161984,37.537351],"type":"Point"},"properties":{"osm_id":"1453694104","tag":{"amenity":"recycling","recycling:cans":"yes","recycling:glass":"yes","recycling:paper":"yes","recycling:scrap_metal":"yes","recycling_type":"container"}},"type":"Feature"},
	{"geometry":{"coordinates":[25.194015,37.576349],"type":"Point"},"properties":{"osm_id":"5863141979","tag":{"amenity":"waste_basket"}},"type":"Feature"},
	{"geometry":{"coordinates":[25.197033,37.575473],"type":"Point"},"properties":{"osm_id":"5863142632","tag":{"amenity":"waste_basket"}},"type":"Feature"},
	{"geometry":{"coordinates":[25.19696,37.575479],"type":"Point"},"properties":{"osm_id":"5863142721","tag":{"amenity":"recycling","recycling:paper":"yes","recycling_type":"container"}},"type":"Feature"},
	{"geometry":{"coordinates":[25.194087,37.576317],"type":"Point"},"properties":{"osm_id":"5863143019","tag":{"amenity":"recycling"}},"type":"Feature"},
	{"geometry":{"coordinates":[25.199106,37.577598],"type":"Point"},"properties":{"osm_id":"5863192423","tag":{"amenity":"waste_basket"}},"type":"Feature"}
]
}
