{
"type": "FeatureCollection",
"features": [
	{"geometry":{"coordinates":[35.027056,32.775577],"type":"Point"},"properties":{"osm_id":"1180324762","tag":{"natural":"tree"}},"type":"Feature"},
	{"geometry":{"coordinates":[34.992496,32.823528],"type":"Point"},"properties":{"osm_id":"1870341604","tag":{"natural":"tree"}},"type":"Feature"},
	{"geometry":{"coordinates":[34.992277,32.823224],"type":"Point"},"properties":{"osm_id":"1870341606","tag":{"natural":"tree"}},"type":"Feature"},
	{"geometry":{"coordinates":[34.992371,32.823344],"type":"Point"},"properties":{"osm_id":"1870341611","tag":{"natural":"tree"}},"type":"Feature"},
	{"geometry":{"coordinates":[34.992411,32.823395],"type":"Point"},"properties":{"osm_id":"1870341635","tag":{"natural":"tree"}},"type":"Feature"},
	{"geometry":{"coordinates":[34.992325,32.82328],"type":"Point"},"properties":{"osm_id":"1870341641","tag":{"natural":"tree"}},"type":"Feature"},
	{"geometry":{"coordinates":[34.992451,32.823468],"type":"Point"},"properties":{"osm_id":"1870341704","tag":{"natural":"tree"}},"type":"Feature"},
	{"geometry":{"coordinates":[35.020227,32.77942],"type":"Point"},"properties":{"osm_id":"4047906227","tag":{"natural":"tree"}},"type":"Feature"},
	{"geometry":{"coordinates":[35.01955,32.779196],"type":"Point"},"properties":{"osm_id":"4047906232","tag":{"natural":"tree"}},"type":"Feature"},
	{"geometry":{"coordinates":[35.019429,32.778931],"type":"Point"},"properties":{"osm_id":"4047906233","tag":{"natural":"tree"}},"type":"Feature"},
	{"geometry":{"coordinates":[35.019274,32.778934],"type":"Point"},"properties":{"osm_id":"4047906234","tag":{"natural":"tree"}},"type":"Feature"},
	{"geometry":{"coordinates":[35.019174,32.778936],"type":"Point"},"properties":{"osm_id":"4047906235","tag":{"natural":"tree"}},"type":"Feature"},
	{"geometry":{"coordinates":[35.018679,32.778081],"type":"Point"},"properties":{"highway":"street_lamp","osm_id":"4085875785","tag":{"natural":"tree"}},"type":"Feature"},
	{"geometry":{"coordinates":[35.017972,32.77833],"type":"Point"},"properties":{"highway":"street_lamp","osm_id":"4085876490","tag":{"natural":"tree"}},"type":"Feature"},
	{"geometry":{"coordinates":[35.016556,32.77815],"type":"Point"},"properties":{"highway":"street_lamp","osm_id":"4085876504","tag":{"natural":"tree"}},"type":"Feature"},
	{"geometry":{"coordinates":[35.017446,32.777943],"type":"Point"},"properties":{"highway":"street_lamp","osm_id":"4085876507","tag":{"natural":"tree"}},"type":"Feature"},
	{"geometry":{"coordinates":[35.017721,32.777861],"type":"Point"},"properties":{"highway":"street_lamp","osm_id":"4085876508","tag":{"natural":"tree"}},"type":"Feature"},
	{"geometry":{"coordinates":[34.985918,32.819235],"type":"Point"},"properties":{"osm_id":"5445204749","tag":{"natural":"tree"}},"type":"Feature"},
	{"geometry":{"coordinates":[34.985661,32.819321],"type":"Point"},"properties":{"osm_id":"5445204750","tag":{"natural":"tree"}},"type":"Feature"},
	{"geometry":{"coordinates":[34.985423,32.819409],"type":"Point"},"properties":{"osm_id":"5445204751","tag":{"natural":"tree"}},"type":"Feature"},
	{"geometry":{"coordinates":[34.985328,32.819465],"type":"Point"},"properties":{"osm_id":"5445204752","tag":{"natural":"tree"}},"type":"Feature"},
	{"geometry":{"coordinates":[34.985253,32.819442],"type":"Point"},"properties":{"osm_id":"5445204753","tag":{"natural":"tree"}},"type":"Feature"},
	{"geometry":{"coordinates":[34.985086,32.819557],"type":"Point"},"properties":{"osm_id":"5445204754","tag":{"natural":"tree"}},"type":"Feature"},
	{"geometry":{"coordinates":[34.984946,32.819619],"type":"Point"},"properties":{"osm_id":"5445204755","tag":{"natural":"tree"}},"type":"Feature"},
	{"geometry":{"coordinates":[34.98477,32.81967],"type":"Point"},"properties":{"osm_id":"5445204756","tag":{"natural":"tree"}},"type":"Feature"},
	{"geometry":{"coordinates":[34.984594,32.819734],"type":"Point"},"properties":{"osm_id":"5445204757","tag":{"natural":"tree"}},"type":"Feature"},
	{"geometry":{"coordinates":[34.984468,32.819764],"type":"Point"},"properties":{"osm_id":"5445204758","tag":{"natural":"tree"}},"type":"Feature"},
	{"geometry":{"coordinates":[34.986332,32.819418],"type":"Point"},"properties":{"osm_id":"5445204759","tag":{"natural":"tree"}},"type":"Feature"},
	{"geometry":{"coordinates":[34.986438,32.819402],"type":"Point"},"properties":{"osm_id":"5445204760","tag":{"natural":"tree"}},"type":"Feature"},
	{"geometry":{"coordinates":[34.986561,32.819356],"type":"Point"},"properties":{"osm_id":"5445204761","tag":{"natural":"tree"}},"type":"Feature"},
	{"geometry":{"coordinates":[34.987775,32.819084],"type":"Point"},"properties":{"osm_id":"5445221812","tag":{"natural":"tree"}},"type":"Feature"},
	{"geometry":{"coordinates":[34.987653,32.819126],"type":"Point"},"properties":{"osm_id":"5445221813","tag":{"natural":"tree"}},"type":"Feature"},
	{"geometry":{"coordinates":[34.987517,32.819137],"type":"Point"},"properties":{"osm_id":"5445221814","tag":{"natural":"tree"}},"type":"Feature"},
	{"geometry":{"coordinates":[34.989028,32.818902],"type":"Point"},"properties":{"osm_id":"5445221815","tag":{"natural":"tree"}},"type":"Feature"},
	{"geometry":{"coordinates":[34.988947,32.81894],"type":"Point"},"properties":{"osm_id":"5445221816","tag":{"natural":"tree"}},"type":"Feature"},
	{"geometry":{"coordinates":[34.988715,32.81875],"type":"Point"},"properties":{"osm_id":"5445221817","tag":{"natural":"tree"}},"type":"Feature"},
	{"geometry":{"coordinates":[34.986914,32.821429],"type":"Point"},"properties":{"osm_id":"5445395387","tag":{"natural":"tree"}},"type":"Feature"},
	{"geometry":{"coordinates":[34.986905,32.821398],"type":"Point"},"properties":{"osm_id":"5445395388","tag":{"natural":"tree"}},"type":"Feature"},
	{"geometry":{"coordinates":[34.98686,32.821332],"type":"Point"},"properties":{"osm_id":"5445395389","tag":{"leaf_cycle":"evergreen","leaf_type":"broadleaved","natural":"tree"}},"type":"Feature"},
	{"geometry":{"coordinates":[34.986833,32.821249],"type":"Point"},"properties":{"osm_id":"5445395390","tag":{"natural":"tree"}},"type":"Feature"},
	{"geometry":{"coordinates":[34.986796,32.821199],"type":"Point"},"properties":{"osm_id":"5445395391","tag":{"natural":"tree"}},"type":"Feature"},
	{"geometry":{"coordinates":[34.986733,32.82105],"type":"Point"},"properties":{"osm_id":"5445395392","tag":{"natural":"tree"}},"type":"Feature"},
	{"geometry":{"coordinates":[34.986769,32.821136],"type":"Point"},"properties":{"osm_id":"5445395393","tag":{"natural":"tree"}},"type":"Feature"},
	{"geometry":{"coordinates":[34.986779,32.821011],"type":"Point"},"properties":{"osm_id":"5445395394","tag":{"natural":"tree"}},"type":"Feature"},
	{"geometry":{"coordinates":[34.986835,32.820998],"type":"Point"},"properties":{"osm_id":"5445395395","tag":{"natural":"tree"}},"type":"Feature"},
	{"geometry":{"coordinates":[34.986976,32.821413],"type":"Point"},"properties":{"osm_id":"5445395396","tag":{"natural":"tree"}},"type":"Feature"},
	{"geometry":{"coordinates":[34.98706,32.821378],"type":"Point"},"properties":{"osm_id":"5445395397","tag":{"natural":"tree"}},"type":"Feature"},
	{"geometry":{"coordinates":[34.987295,32.821299],"type":"Point"},"properties":{"osm_id":"5445395399","tag":{"natural":"tree"}},"type":"Feature"},
	{"geometry":{"coordinates":[34.987128,32.82132],"type":"Point"},"properties":{"osm_id":"5445395400","tag":{"natural":"tree"}},"type":"Feature"},
	{"geometry":{"coordinates":[34.987283,32.821198],"type":"Point"},"properties":{"osm_id":"5445395401","tag":{"natural":"tree"}},"type":"Feature"},
	{"geometry":{"coordinates":[34.987265,32.82113],"type":"Point"},"properties":{"osm_id":"5445395402","tag":{"natural":"tree"}},"type":"Feature"},
	{"geometry":{"coordinates":[34.987229,32.821098],"type":"Point"},"properties":{"osm_id":"5445395403","tag":{"natural":"tree"}},"type":"Feature"},
	{"geometry":{"coordinates":[34.987191,32.821022],"type":"Point"},"properties":{"osm_id":"5445395404","tag":{"natural":"tree"}},"type":"Feature"},
	{"geometry":{"coordinates":[34.987182,32.820958],"type":"Point"},"properties":{"osm_id":"5445395406","tag":{"natural":"tree"}},"type":"Feature"},
	{"geometry":{"coordinates":[34.985984,32.819223],"type":"Point"},"properties":{"osm_id":"5448786650","tag":{"natural":"tree"}},"type":"Feature"},
	{"geometry":{"coordinates":[34.985869,32.819153],"type":"Point"},"properties":{"osm_id":"5448786651","tag":{"natural":"tree"}},"type":"Feature"},
	{"geometry":{"coordinates":[34.98548,32.819149],"type":"Point"},"properties":{"osm_id":"5448786652","tag":{"natural":"tree"}},"type":"Feature"},
	{"geometry":{"coordinates":[34.985431,32.819239],"type":"Point"},"properties":{"osm_id":"5448786653","tag":{"natural":"tree"}},"type":"Feature"},
	{"geometry":{"coordinates":[34.98537,32.81914],"type":"Point"},"properties":{"osm_id":"5448786654","tag":{"natural":"tree"}},"type":"Feature"},
	{"geometry":{"coordinates":[34.985303,32.819171],"type":"Point"},"properties":{"osm_id":"5448786655","tag":{"natural":"tree"}},"type":"Feature"},
	{"geometry":{"coordinates":[34.985284,32.819097],"type":"Point"},"properties":{"osm_id":"5448786656","tag":{"natural":"tree"}},"type":"Feature"},
	{"geometry":{"coordinates":[34.984882,32.819284],"type":"Point"},"properties":{"osm_id":"5448823175","tag":{"natural":"tree"}},"type":"Feature"},
	{"geometry":{"coordinates":[34.984812,32.819313],"type":"Point"},"properties":{"osm_id":"5448823176","tag":{"natural":"tree"}},"type":"Feature"},
	{"geometry":{"coordinates":[34.985098,32.818917],"type":"Point"},"properties":{"osm_id":"5448823177","tag":{"natural":"tree"}},"type":"Feature"},
	{"geometry":{"coordinates":[34.984458,32.819457],"type":"Point"},"properties":{"osm_id":"5448823178","tag":{"natural":"tree"}},"type":"Feature"},
	{"geometry":{"coordinates":[34.984377,32.819453],"type":"Point"},"properties":{"osm_id":"5448823179","tag":{"natural":"tree"}},"type":"Feature"},
	{"geometry":{"coordinates":[34.984442,32.818964],"type":"Point"},"properties":{"osm_id":"5448823180","tag":{"natural":"tree"}},"type":"Feature"},
	{"geometry":{"coordinates":[34.984198,32.819282],"type":"Point"},"properties":{"osm_id":"5448823181","tag":{"natural":"tree"}},"type":"Feature"},
	{"geometry":{"coordinates":[34.98445,32.819669],"type":"Point"},"properties":{"osm_id":"5448823182","tag":{"natural":"tree"}},"type":"Feature"},
	{"geometry":{"coordinates":[34.984216,32.819478],"type":"Point"},"properties":{"osm_id":"5448823183","tag":{"natural":"tree"}},"type":"Feature"},
	{"geometry":{"coordinates":[34.984149,32.819491],"type":"Point"},"properties":{"osm_id":"5448823184","tag":{"natural":"tree"}},"type":"Feature"},
	{"geometry":{"coordinates":[34.984098,32.819505],"type":"Point"},"properties":{"osm_id":"5448823185","tag":{"natural":"tree"}},"type":"Feature"},
	{"geometry":{"coordinates":[34.984168,32.819029],"type":"Point"},"properties":{"osm_id":"5448823186","tag":{"natural":"tree"}},"type":"Feature"},
	{"geometry":{"coordinates":[34.984131,32.819117],"type":"Point"},"properties":{"osm_id":"5448823187","tag":{"natural":"tree"}},"type":"Feature"},
	{"geometry":{"coordinates":[34.98427,32.819056],"type":"Point"},"properties":{"osm_id":"5448823188","tag":{"natural":"tree"}},"type":"Feature"},
	{"geometry":{"coordinates":[34.984375,32.818815],"type":"Point"},"properties":{"osm_id":"5448823189","tag":{"natural":"tree"}},"type":"Feature"},
	{"geometry":{"coordinates":[34.984611,32.818833],"type":"Point"},"properties":{"osm_id":"5448823190","tag":{"natural":"tree"}},"type":"Feature"},
	{"geometry":{"coordinates":[34.984686,32.818883],"type":"Point"},"properties":{"osm_id":"5448823191","tag":{"natural":"tree"}},"type":"Feature"},
	{"geometry":{"coordinates":[34.984723,32.81886],"type":"Point"},"properties":{"osm_id":"5448823192","tag":{"natural":"tree"}},"type":"Feature"},
	{"geometry":{"coordinates":[34.984662,32.818623],"type":"Point"},"properties":{"osm_id":"5448823193","tag":{"natural":"tree"}},"type":"Feature"},
	{"geometry":{"coordinates":[34.984546,32.818664],"type":"Point"},"properties":{"osm_id":"5448823194","tag":{"natural":"tree"}},"type":"Feature"},
	{"geometry":{"coordinates":[34.984471,32.81868],"type":"Point"},"properties":{"osm_id":"5448823195","tag":{"natural":"tree"}},"type":"Feature"},
	{"geometry":{"coordinates":[34.984383,32.818621],"type":"Point"},"properties":{"osm_id":"5448823196","tag":{"natural":"tree"}},"type":"Feature"},
	{"geometry":{"coordinates":[34.98435,32.81854],"type":"Point"},"properties":{"osm_id":"5448823197","tag":{"natural":"tree"}},"type":"Feature"},
	{"geometry":{"coordinates":[34.983645,32.818928],"type":"Point"},"properties":{"osm_id":"5448833359","tag":{"natural":"tree"}},"type":"Feature"},
	{"geometry":{"coordinates":[34.984752,32.818801],"type":"Point"},"properties":{"osm_id":"5448833360","tag":{"natural":"tree"}},"type":"Feature"},
	{"geometry":{"coordinates":[34.983814,32.818887],"type":"Point"},"properties":{"osm_id":"5448833361","tag":{"natural":"tree"}},"type":"Feature"},
	{"geometry":{"coordinates":[34.98387,32.818896],"type":"Point"},"properties":{"osm_id":"5448833362","tag":{"natural":"tree"}},"type":"Feature"},
	{"geometry":{"coordinates":[34.983669,32.818745],"type":"Point"},"properties":{"osm_id":"5448833363","tag":{"natural":"tree"}},"type":"Feature"},
	{"geometry":{"coordinates":[34.983594,32.81882],"type":"Point"},"properties":{"osm_id":"5448833364","tag":{"natural":"tree"}},"type":"Feature"},
	{"geometry":{"coordinates":[34.983586,32.81932],"type":"Point"},"properties":{"osm_id":"5448833365","tag":{"natural":"tree"}},"type":"Feature"},
	{"geometry":{"coordinates":[34.983599,32.819257],"type":"Point"},"properties":{"osm_id":"5448833366","tag":{"natural":"tree"}},"type":"Feature"},
	{"geometry":{"coordinates":[34.983833,32.819115],"type":"Point"},"properties":{"osm_id":"5448833367","tag":{"natural":"tree"}},"type":"Feature"},
	{"geometry":{"coordinates":[34.983822,32.819225],"type":"Point"},"properties":{"osm_id":"5448833368","tag":{"natural":"tree"}},"type":"Feature"},
	{"geometry":{"coordinates":[34.983959,32.819088],"type":"Point"},"properties":{"osm_id":"5448833369","tag":{"natural":"tree"}},"type":"Feature"},
	{"geometry":{"coordinates":[34.983905,32.819149],"type":"Point"},"properties":{"osm_id":"5448833370","tag":{"natural":"tree"}},"type":"Feature"},
	{"geometry":{"coordinates":[34.984049,32.819146],"type":"Point"},"properties":{"osm_id":"5448833371","tag":{"natural":"tree"}},"type":"Feature"},
	{"geometry":{"coordinates":[34.984017,32.81916],"type":"Point"},"properties":{"osm_id":"5448833372","tag":{"natural":"tree"}},"type":"Feature"},
	{"geometry":{"coordinates":[34.983968,32.819184],"type":"Point"},"properties":{"osm_id":"5448833373","tag":{"natural":"tree"}},"type":"Feature"},
	{"geometry":{"coordinates":[34.983907,32.819207],"type":"Point"},"properties":{"osm_id":"5448833374","tag":{"natural":"tree"}},"type":"Feature"},
	{"geometry":{"coordinates":[34.983933,32.819198],"type":"Point"},"properties":{"osm_id":"5448833375","tag":{"natural":"tree"}},"type":"Feature"},
	{"geometry":{"coordinates":[34.983767,32.818567],"type":"Point"},"properties":{"osm_id":"5448867825","tag":{"natural":"tree"}},"type":"Feature"},
	{"geometry":{"coordinates":[34.983757,32.818531],"type":"Point"},"properties":{"osm_id":"5448867826","tag":{"natural":"tree"}},"type":"Feature"},
	{"geometry":{"coordinates":[34.986602,32.819417],"type":"Point"},"properties":{"osm_id":"5448867827","tag":{"natural":"tree"}},"type":"Feature"},
	{"geometry":{"coordinates":[34.987047,32.819062],"type":"Point"},"properties":{"osm_id":"5448867828","tag":{"natural":"tree"}},"type":"Feature"},
	{"geometry":{"coordinates":[34.987099,32.819059],"type":"Point"},"properties":{"osm_id":"5448867829","tag":{"natural":"tree"}},"type":"Feature"},
	{"geometry":{"coordinates":[34.986486,32.818573],"type":"Point"},"properties":{"osm_id":"5448867830","tag":{"natural":"tree"}},"type":"Feature"},
	{"geometry":{"coordinates":[34.986367,32.818539],"type":"Point"},"properties":{"osm_id":"5448867831","tag":{"natural":"tree"}},"type":"Feature"},
	{"geometry":{"coordinates":[34.985956,32.818575],"type":"Point"},"properties":{"osm_id":"5448867832","tag":{"natural":"tree"}},"type":"Feature"},
	{"geometry":{"coordinates":[34.985823,32.818632],"type":"Point"},"properties":{"osm_id":"5448867833","tag":{"natural":"tree"}},"type":"Feature"},
	{"geometry":{"coordinates":[34.985886,32.818698],"type":"Point"},"properties":{"osm_id":"5448867834","tag":{"natural":"tree"}},"type":"Feature"},
	{"geometry":{"coordinates":[34.985455,32.818768],"type":"Point"},"properties":{"osm_id":"5448867835","tag":{"natural":"tree"}},"type":"Feature"},
	{"geometry":{"coordinates":[34.98557,32.818501],"type":"Point"},"properties":{"osm_id":"5448867836","tag":{"natural":"tree"}},"type":"Feature"},
	{"geometry":{"coordinates":[34.986003,32.818327],"type":"Point"},"properties":{"osm_id":"5448867837","tag":{"natural":"tree"}},"type":"Feature"},
	{"geometry":{"coordinates":[34.986055,32.818327],"type":"Point"},"properties":{"osm_id":"5448867838","tag":{"natural":"tree"}},"type":"Feature"},
	{"geometry":{"coordinates":[34.986093,32.818315],"type":"Point"},"properties":{"osm_id":"5448867839","tag":{"natural":"tree"}},"type":"Feature"},
	{"geometry":{"coordinates":[34.985832,32.818368],"type":"Point"},"properties":{"osm_id":"5448867840","tag":{"natural":"tree"}},"type":"Feature"},
	{"geometry":{"coordinates":[34.986431,32.818319],"type":"Point"},"properties":{"osm_id":"5448867841","tag":{"natural":"tree"}},"type":"Feature"},
	{"geometry":{"coordinates":[34.985764,32.818427],"type":"Point"},"properties":{"osm_id":"5448867842","tag":{"natural":"tree"}},"type":"Feature"},
	{"geometry":{"coordinates":[34.98553,32.818135],"type":"Point"},"properties":{"osm_id":"5448867843","tag":{"natural":"tree"}},"type":"Feature"},
	{"geometry":{"coordinates":[34.985525,32.818203],"type":"Point"},"properties":{"osm_id":"5448867844","tag":{"natural":"tree"}},"type":"Feature"},
	{"geometry":{"coordinates":[34.985415,32.818272],"type":"Point"},"properties":{"osm_id":"5448867845","tag":{"natural":"tree"}},"type":"Feature"},
	{"geometry":{"coordinates":[34.985534,32.818321],"type":"Point"},"properties":{"osm_id":"5448867846","tag":{"natural":"tree"}},"type":"Feature"},
	{"geometry":{"coordinates":[34.985525,32.818401],"type":"Point"},"properties":{"osm_id":"5448867847","tag":{"natural":"tree"}},"type":"Feature"},
	{"geometry":{"coordinates":[34.985092,32.818293],"type":"Point"},"properties":{"osm_id":"5448867848","tag":{"natural":"tree"}},"type":"Feature"},
	{"geometry":{"coordinates":[34.985137,32.818384],"type":"Point"},"properties":{"osm_id":"5448867849","tag":{"natural":"tree"}},"type":"Feature"},
	{"geometry":{"coordinates":[34.985045,32.818387],"type":"Point"},"properties":{"osm_id":"5448867850","tag":{"natural":"tree"}},"type":"Feature"},
	{"geometry":{"coordinates":[34.984763,32.818351],"type":"Point"},"properties":{"osm_id":"5448867851","tag":{"natural":"tree"}},"type":"Feature"},
	{"geometry":{"coordinates":[34.984427,32.818022],"type":"Point"},"properties":{"osm_id":"5448867852","tag":{"natural":"tree"}},"type":"Feature"},
	{"geometry":{"coordinates":[34.984754,32.81815],"type":"Point"},"properties":{"osm_id":"5448867853","tag":{"natural":"tree"}},"type":"Feature"},
	{"geometry":{"coordinates":[34.9847,32.818101],"type":"Point"},"properties":{"osm_id":"5448867854","tag":{"natural":"tree"}},"type":"Feature"},
	{"geometry":{"coordinates":[34.986271,32.820073],"type":"Point"},"properties":{"osm_id":"5448882994","tag":{"natural":"tree"}},"type":"Feature"},
	{"geometry":{"coordinates":[34.986762,32.820363],"type":"Point"},"properties":{"osm_id":"5448882995","tag":{"natural":"tree"}},"type":"Feature"},
	{"geometry":{"coordinates":[34.985031,32.819967],"type":"Point"},"properties":{"osm_id":"5448882996","tag":{"natural":"tree"}},"type":"Feature"},
	{"geometry":{"coordinates":[34.98478,32.820022],"type":"Point"},"properties":{"osm_id":"5448882997","tag":{"natural":"tree"}},"type":"Feature"},
	{"geometry":{"coordinates":[34.984911,32.820182],"type":"Point"},"properties":{"osm_id":"5448882998","tag":{"natural":"tree"}},"type":"Feature"},
	{"geometry":{"coordinates":[34.984883,32.820101],"type":"Point"},"properties":{"osm_id":"5448882999","tag":{"natural":"tree"}},"type":"Feature"},
	{"geometry":{"coordinates":[34.984966,32.820156],"type":"Point"},"properties":{"osm_id":"5448883000","tag":{"natural":"tree"}},"type":"Feature"},
	{"geometry":{"coordinates":[34.9845,32.820238],"type":"Point"},"properties":{"osm_id":"5448883001","tag":{"natural":"tree"}},"type":"Feature"},
	{"geometry":{"coordinates":[34.984553,32.820228],"type":"Point"},"properties":{"osm_id":"5448883002","tag":{"natural":"tree"}},"type":"Feature"},
	{"geometry":{"coordinates":[34.984596,32.820203],"type":"Point"},"properties":{"osm_id":"5448883003","tag":{"natural":"tree"}},"type":"Feature"},
	{"geometry":{"coordinates":[34.985309,32.820359],"type":"Point"},"properties":{"osm_id":"5448883004","tag":{"natural":"tree"}},"type":"Feature"},
	{"geometry":{"coordinates":[34.985327,32.820402],"type":"Point"},"properties":{"osm_id":"5448883005","tag":{"natural":"tree"}},"type":"Feature"},
	{"geometry":{"coordinates":[34.985366,32.820475],"type":"Point"},"properties":{"osm_id":"5448883006","tag":{"natural":"tree"}},"type":"Feature"},
	{"geometry":{"coordinates":[34.985446,32.820424],"type":"Point"},"properties":{"osm_id":"5448883007","tag":{"natural":"tree"}},"type":"Feature"},
	{"geometry":{"coordinates":[34.985431,32.820376],"type":"Point"},"properties":{"osm_id":"5448883008","tag":{"natural":"tree"}},"type":"Feature"},
	{"geometry":{"coordinates":[34.985516,32.820219],"type":"Point"},"properties":{"osm_id":"5448883009","tag":{"natural":"tree"}},"type":"Feature"},
	{"geometry":{"coordinates":[34.985535,32.820276],"type":"Point"},"properties":{"osm_id":"5448883010","tag":{"natural":"tree"}},"type":"Feature"},
	{"geometry":{"coordinates":[34.985596,32.820309],"type":"Point"},"properties":{"osm_id":"5448883011","tag":{"natural":"tree"}},"type":"Feature"},
	{"geometry":{"coordinates":[34.985611,32.820282],"type":"Point"},"properties":{"osm_id":"5448883012","tag":{"natural":"tree"}},"type":"Feature"},
	{"geometry":{"coordinates":[34.985567,32.820206],"type":"Point"},"properties":{"osm_id":"5448883013","tag":{"natural":"tree"}},"type":"Feature"},
	{"geometry":{"coordinates":[34.985617,32.82025],"type":"Point"},"properties":{"osm_id":"5448883014","tag":{"natural":"tree"}},"type":"Feature"},
	{"geometry":{"coordinates":[34.985621,32.820217],"type":"Point"},"properties":{"osm_id":"5448883015","tag":{"natural":"tree"}},"type":"Feature"},
	{"geometry":{"coordinates":[34.987976,32.820347],"type":"Point"},"properties":{"osm_id":"5448902519","tag":{"natural":"tree"}},"type":"Feature"},
	{"geometry":{"coordinates":[34.987672,32.819976],"type":"Point"},"properties":{"osm_id":"5448902520","tag":{"natural":"tree"}},"type":"Feature"},
	{"geometry":{"coordinates":[34.987832,32.819603],"type":"Point"},"properties":{"osm_id":"5448902921","tag":{"natural":"tree"}},"type":"Feature"},
	{"geometry":{"coordinates":[34.987647,32.819747],"type":"Point"},"properties":{"osm_id":"5448902922","tag":{"natural":"tree"}},"type":"Feature"},
	{"geometry":{"coordinates":[34.987687,32.819714],"type":"Point"},"properties":{"osm_id":"5448902923","tag":{"natural":"tree"}},"type":"Feature"},
	{"geometry":{"coordinates":[34.987733,32.819769],"type":"Point"},"properties":{"osm_id":"5448902924","tag":{"natural":"tree"}},"type":"Feature"},
	{"geometry":{"coordinates":[34.987769,32.819843],"type":"Point"},"properties":{"osm_id":"5448902925","tag":{"natural":"tree"}},"type":"Feature"},
	{"geometry":{"coordinates":[34.987818,32.819877],"type":"Point"},"properties":{"osm_id":"5448902926","tag":{"natural":"tree"}},"type":"Feature"},
	{"geometry":{"coordinates":[34.988305,32.819821],"type":"Point"},"properties":{"osm_id":"5448902927","tag":{"natural":"tree"}},"type":"Feature"},
	{"geometry":{"coordinates":[34.98829,32.820224],"type":"Point"},"properties":{"osm_id":"5448902928","tag":{"natural":"tree"}},"type":"Feature"},
	{"geometry":{"coordinates":[34.988242,32.819013],"type":"Point"},"properties":{"osm_id":"5448902929","tag":{"natural":"tree"}},"type":"Feature"},
	{"geometry":{"coordinates":[34.987276,32.818931],"type":"Point"},"properties":{"osm_id":"5448902930","tag":{"natural":"tree"}},"type":"Feature"},
	{"geometry":{"coordinates":[34.986612,32.817888],"type":"Point"},"properties":{"osm_id":"5448918656","tag":{"natural":"tree"}},"type":"Feature"},
	{"geometry":{"coordinates":[34.986622,32.817856],"type":"Point"},"properties":{"osm_id":"5448918657","tag":{"natural":"tree"}},"type":"Feature"},
	{"geometry":{"coordinates":[34.986683,32.817872],"type":"Point"},"properties":{"osm_id":"5448918658","tag":{"natural":"tree"}},"type":"Feature"},
	{"geometry":{"coordinates":[34.986574,32.818078],"type":"Point"},"properties":{"osm_id":"5448918659","tag":{"natural":"tree"}},"type":"Feature"},
	{"geometry":{"coordinates":[34.986751,32.818245],"type":"Point"},"properties":{"osm_id":"5448918660","tag":{"natural":"tree"}},"type":"Feature"},
	{"geometry":{"coordinates":[34.986432,32.818133],"type":"Point"},"properties":{"osm_id":"5448918661","tag":{"natural":"tree"}},"type":"Feature"},
	{"geometry":{"coordinates":[34.986656,32.817628],"type":"Point"},"properties":{"osm_id":"5448918662","tag":{"natural":"tree"}},"type":"Feature"},
	{"geometry":{"coordinates":[34.986155,32.817899],"type":"Point"},"properties":{"osm_id":"5448918663","tag":{"natural":"tree"}},"type":"Feature"},
	{"geometry":{"coordinates":[34.987161,32.818425],"type":"Point"},"properties":{"osm_id":"5448918664","tag":{"natural":"tree"}},"type":"Feature"},
	{"geometry":{"coordinates":[34.98732,32.818117],"type":"Point"},"properties":{"osm_id":"5448918665","tag":{"natural":"tree"}},"type":"Feature"},
	{"geometry":{"coordinates":[34.987303,32.818057],"type":"Point"},"properties":{"osm_id":"5448918666","tag":{"natural":"tree"}},"type":"Feature"},
	{"geometry":{"coordinates":[34.987348,32.818027],"type":"Point"},"properties":{"osm_id":"5448918667","tag":{"natural":"tree"}},"type":"Feature"},
	{"geometry":{"coordinates":[34.987286,32.817746],"type":"Point"},"properties":{"osm_id":"5448918668","tag":{"natural":"tree"}},"type":"Feature"},
	{"geometry":{"coordinates":[34.987285,32.817683],"type":"Point"},"properties":{"osm_id":"5448918669","tag":{"natural":"tree"}},"type":"Feature"},
	{"geometry":{"coordinates":[34.987547,32.817682],"type":"Point"},"properties":{"osm_id":"5448918670","tag":{"natural":"tree"}},"type":"Feature"},
	{"geometry":{"coordinates":[34.98751,32.817624],"type":"Point"},"properties":{"osm_id":"5448918671","tag":{"natural":"tree"}},"type":"Feature"},
	{"geometry":{"coordinates":[34.9874,32.817581],"type":"Point"},"properties":{"osm_id":"5448918672","tag":{"natural":"tree"}},"type":"Feature"},
	{"geometry":{"coordinates":[34.987727,32.817572],"type":"Point"},"properties":{"osm_id":"5448918673","tag":{"natural":"tree"}},"type":"Feature"},
	{"geometry":{"coordinates":[34.987766,32.817618],"type":"Point"},"properties":{"osm_id":"5448918674","tag":{"natural":"tree"}},"type":"Feature"},
	{"geometry":{"coordinates":[34.987795,32.81767],"type":"Point"},"properties":{"osm_id":"5448918675","tag":{"natural":"tree"}},"type":"Feature"},
	{"geometry":{"coordinates":[34.98386,32.8195],"type":"Point"},"properties":{"osm_id":"5448928963","tag":{"natural":"tree"}},"type":"Feature"},
	{"geometry":{"coordinates":[34.983879,32.819616],"type":"Point"},"properties":{"osm_id":"5448928964","tag":{"natural":"tree"}},"type":"Feature"},
	{"geometry":{"coordinates":[34.983774,32.819732],"type":"Point"},"properties":{"osm_id":"5448928965","tag":{"natural":"tree"}},"type":"Feature"},
	{"geometry":{"coordinates":[34.983927,32.819441],"type":"Point"},"properties":{"osm_id":"5448928966","tag":{"natural":"tree"}},"type":"Feature"},
	{"geometry":{"coordinates":[34.984112,32.819838],"type":"Point"},"properties":{"osm_id":"5448928967","tag":{"natural":"tree"}},"type":"Feature"},
	{"geometry":{"coordinates":[34.984182,32.819837],"type":"Point"},"properties":{"osm_id":"5448928968","tag":{"natural":"tree"}},"type":"Feature"},
	{"geometry":{"coordinates":[34.983994,32.819941],"type":"Point"},"properties":{"osm_id":"5448928969","tag":{"natural":"tree"}},"type":"Feature"},
	{"geometry":{"coordinates":[34.983852,32.819996],"type":"Point"},"properties":{"osm_id":"5448928970","tag":{"natural":"tree"}},"type":"Feature"},
	{"geometry":{"coordinates":[34.983796,32.820037],"type":"Point"},"properties":{"osm_id":"5448928971","tag":{"natural":"tree"}},"type":"Feature"},
	{"geometry":{"coordinates":[34.983637,32.820454],"type":"Point"},"properties":{"osm_id":"5448928972","tag":{"natural":"tree"}},"type":"Feature"},
	{"geometry":{"coordinates":[34.988323,32.818416],"type":"Point"},"properties":{"osm_id":"5448929147","tag":{"natural":"tree"}},"type":"Feature"},
	{"geometry":{"coordinates":[35.022188,32.780122],"type":"Point"},"properties":{"osm_id":"7114440276","tag":{"natural":"tree"}},"type":"Feature"},
	{"geometry":{"coordinates":[35.022125,32.780071],"type":"Point"},"properties":{"osm_id":"7114460685","tag":{"natural":"tree"}},"type":"Feature"},
	{"geometry":{"coordinates":[35.015906,32.778306],"type":"Point"},"properties":{"osm_id":"7181116370","tag":{"natural":"tree"}},"type":"Feature"},
	{"geometry":{"coordinates":[35.000666,32.807722],"type":"Point"},"properties":{"osm_id":"8251456327","tag":{"natural":"tree"}},"type":"Feature"},
	{"geometry":{"coordinates":[35.000303,32.807167],"type":"Point"},"properties":{"osm_id":"8251581517","tag":{"crossing":"marked","crossing:island":"yes","natural":"tree","tactile_paving":"yes","traffic_calming":"table"}},"type":"Feature"},
	{"geometry":{"coordinates":[35.000624,32.807631],"type":"Point"},"properties":{"osm_id":"8318193575","tag":{"natural":"tree"}},"type":"Feature"},
	{"geometry":{"coordinates":[35.000813,32.807716],"type":"Point"},"properties":{"osm_id":"8318829508","tag":{"natural":"tree"}},"type":"Feature"},
	{"geometry":{"coordinates":[34.997587,32.771683],"type":"Point"},"properties":{"name":"\u00d7\u00a2\u00d7\u009c\u00d7\u0099\u00d7\u0099\u00d7\u0094 \u00d7\u00aa\u00d7\u009c\u00d7\u0095\u00d7\u009c\u00d7\u0094","osm_id":"8362609917","tag":{"description":"\u00d7\u0094\u00d7\u00a9\u00d7\u0099\u00d7\u00a4\u00d7\u0095\u00d7\u00a2 \u00d7\u00a4\u00d7\u0094 \u00d7\u009e\u00d7\u0090\u00d7\u0095\u00d7\u0093 \u00d7\u00aa\u00d7\u009c\u00d7\u0095\u00d7\u009c, \u00d7\u0099\u00d7\u00a9 \u00d7\u00a1\u00d7\u0095\u00d7\u009c\u00d7\u009d \u00d7\u0097\u00d7\u0091\u00d7\u009c\u00d7\u0099\u00d7\u009d \u00d7\u0091\u00d7\u0097\u00d7\u009c\u00d7\u00a7 \u00d7\u0094\u00d7\u00a2\u00d7\u009c\u00d7\u0099\u00d7\u0095\u00d7\u009f \u00d7\u0090\u00d7\u0091\u00d7\u009c \u00d7\u0094\u00d7\u0095\u00d7\u0090 \u00d7\u0093\u00d7\u0099 \u00d7\u00a7\u00d7\u00a8\u00d7\u0095\u00d7\u00a2. \u00d7\u00aa\u00d7\u0091\u00d7\u0099\u00d7\u0090\u00d7\u0095 \u00d7\u00a0\u00d7\u00a2\u00d7\u009c\u00d7\u0099 \u00d7\u0094\u00d7\u009c\u00d7\u0099\u00d7\u009b\u00d7\u0094 \u00d7\u0098\u00d7\u0095\u00d7\u0091\u00d7\u0095\u00d7\u00aa.","description:he":"\u00d7\u0094\u00d7\u00a9\u00d7\u0099\u00d7\u00a4\u00d7\u0095\u00d7\u00a2 \u00d7\u00a4\u00d7\u0094 \u00d7\u009e\u00d7\u0090\u00d7\u0095\u00d7\u0093 \u00d7\u00aa\u00d7\u009c\u00d7\u0095\u00d7\u009c, \u00d7\u0099\u00d7\u00a9 \u00d7\u00a1\u00d7\u0095\u00d7\u009c\u00d7\u009d \u00d7\u0097\u00d7\u0091\u00d7\u009c\u00d7\u0099\u00d7\u009d \u00d7\u0091\u00d7\u0097\u00d7\u009c\u00d7\u00a7 \u00d7\u0094\u00d7\u00a2\u00d7\u009c\u00d7\u0099\u00d7\u0095\u00d7\u009f \u00d7\u0090\u00d7\u0091\u00d7\u009c \u00d7\u0094\u00d7\u0095\u00d7\u0090 \u00d7\u0093\u00d7\u0099 \u00d7\u00a7\u00d7\u00a8\u00d7\u0095\u00d7\u00a2. \u00d7\u00aa\u00d7\u0091\u00d7\u0099\u00d7\u0090\u00d7\u0095 \u00d7\u00a0\u00d7\u00a2\u00d7\u009c\u00d7\u0099 \u00d7\u0094\u00d7\u009c\u00d7\u0099\u00d7\u009b\u00d7\u0094 \u00d7\u0098\u00d7\u0095\u00d7\u0091\u00d7\u0095\u00d7\u00aa.","name:he":"\u00d7\u00a2\u00d7\u009c\u00d7\u0099\u00d7\u0099\u00d7\u0094 \u00d7\u00aa\u00d7\u009c\u00d7\u0095\u00d7\u009c\u00d7\u0094","natural":"tree"}},"type":"Feature"},
	{"geometry":{"coordinates":[35.017877,32.777811],"type":"Point"},"properties":{"osm_id":"8852337017","tag":{"natural":"tree"}},"type":"Feature"},
	{"geometry":{"coordinates":[35.0176,32.777893],"type":"Point"},"properties":{"highway":"street_lamp","osm_id":"8853162117","tag":{"amenity":"parking_entrance","natural":"tree"}},"type":"Feature"},
	{"geometry":{"coordinates":[35.018276,32.777633],"type":"Point"},"properties":{"osm_id":"8857174017","tag":{"natural":"tree"}},"type":"Feature"},
	{"geometry":{"coordinates":[35.017933,32.777777],"type":"Point"},"properties":{"osm_id":"8857305217","tag":{"natural":"tree"}},"type":"Feature"},
	{"geometry":{"coordinates":[35.017182,32.778011],"type":"Point"},"properties":{"highway":"street_lamp","osm_id":"8857390717","tag":{"natural":"tree"}},"type":"Feature"},
	{"geometry":{"coordinates":[35.002101,32.815186],"type":"Point"},"properties":{"osm_id":"9063600039","tag":{"leaf_type":"broadleaved","natural":"tree"}},"type":"Feature"},
	{"geometry":{"coordinates":[34.987344,32.804401],"type":"Point"},"properties":{"osm_id":"9063808941","tag":{"leaf_type":"broadleaved","natural":"tree"}},"type":"Feature"}
]
}
