{
"type": "FeatureCollection",
"features": [
	{"geometry":{"coordinates":[25.028499,60.285429],"type":"Point"},"properties":{"osm_id":"386031694","tag":{"amenity":"waste_basket"}},"type":"Feature"},
	{"geometry":{"coordinates":[25.0004,60.285811],"type":"Point"},"properties":{"osm_id":"429425649","tag":{"amenity":"waste_basket"}},"type":"Feature"},
	{"geometry":{"coordinates":[24.998031,60.285974],"type":"Point"},"properties":{"osm_id":"429425653","tag":{"amenity":"waste_basket"}},"type":"Feature"},
	{"geometry":{"coordinates":[25.029216,60.305448],"type":"Point"},"properties":{"osm_id":"445814006","tag":{"addr:city":"Vantaa","addr:country":"FI","addr:housenumber":"20","addr:postcode":"01350","addr:street":"Raatetie","amenity":"recycling","operator":"YTV","recycling:paper":"yes"}},"type":"Feature"},
	{"geometry":{"coordinates":[25.034811,60.313074],"type":"Point"},"properties":{"osm_id":"475595117","tag":{"amenity":"recycling","operator":"UFF","recycling:clothes":"yes"}},"type":"Feature"},
	{"geometry":{"coordinates":[25.046311,60.302642],"type":"Point"},"properties":{"osm_id":"477432994","tag":{"amenity":"recycling","recycling:batteries":"yes","recycling:clothes":"yes","recycling:glass":"yes"}},"type":"Feature"},
	{"geometry":{"coordinates":[25.023358,60.306326],"type":"Point"},"properties":{"osm_id":"488468014","tag":{"amenity":"recycling","operator":"UFF","recycling:clothes":"yes"}},"type":"Feature"},
	{"geometry":{"coordinates":[25.030295,60.294111],"type":"Point"},"properties":{"osm_id":"540589089","tag":{"amenity":"waste_basket"}},"type":"Feature"},
	{"geometry":{"coordinates":[25.029156,60.294113],"type":"Point"},"properties":{"osm_id":"540589093","tag":{"amenity":"waste_basket"}},"type":"Feature"},
	{"geometry":{"coordinates":[25.030271,60.293908],"type":"Point"},"properties":{"osm_id":"540589094","tag":{"amenity":"waste_basket"}},"type":"Feature"},
	{"geometry":{"coordinates":[25.003652,60.316804],"type":"Point"},"properties":{"osm_id":"546868057","tag":{"amenity":"recycling","operator":"UFF;YTV","recycling:clothes":"yes","recycling:paper":"yes"}},"type":"Feature"},
	{"geometry":{"coordinates":[24.962761,60.290981],"type":"Point"},"properties":{"name":"Pullonpalautus","osm_id":"547017458","tag":{"addr:city":"Vantaa","addr:housename":"Jumbo","addr:housenumber":"3","addr:postcode":"01510","addr:street":"Vantaanportinkatu","amenity":"recycling","level":"0","recycling:glass_bottles":"yes","recycling:scrap_metal":"yes","recycling_type":"container"}},"type":"Feature"},
	{"geometry":{"coordinates":[25.022805,60.31171],"type":"Point"},"properties":{"osm_id":"547111346","tag":{"amenity":"recycling","recycling:paper":"yes"}},"type":"Feature"},
	{"geometry":{"coordinates":[25.026128,60.323862],"type":"Point"},"properties":{"osm_id":"567636420","tag":{"amenity":"recycling","operator":"HSY","recycling:paper":"yes","recycling_type":"container"}},"type":"Feature"},
	{"geometry":{"coordinates":[24.961017,60.291195],"type":"Point"},"properties":{"osm_id":"568459336","tag":{"amenity":"recycling"}},"type":"Feature"},
	{"geometry":{"coordinates":[25.018549,60.28855],"type":"Point"},"properties":{"osm_id":"573371145","tag":{"amenity":"waste_basket"}},"type":"Feature"},
	{"geometry":{"coordinates":[25.009155,60.287384],"type":"Point"},"properties":{"osm_id":"573376594","tag":{"amenity":"waste_basket"}},"type":"Feature"},
	{"geometry":{"coordinates":[25.003734,60.286058],"type":"Point"},"properties":{"osm_id":"578319240","tag":{"amenity":"waste_basket"}},"type":"Feature"},
	{"geometry":{"coordinates":[25.022648,60.288374],"type":"Point"},"properties":{"osm_id":"705947189","tag":{"amenity":"waste_basket"}},"type":"Feature"},
	{"geometry":{"coordinates":[25.022488,60.289175],"type":"Point"},"properties":{"osm_id":"705947201","tag":{"amenity":"waste_basket"}},"type":"Feature"},
	{"geometry":{"coordinates":[25.017031,60.302979],"type":"Point"},"properties":{"osm_id":"744539357","tag":{"amenity":"waste_basket"}},"type":"Feature"},
	{"geometry":{"coordinates":[25.011149,60.288632],"type":"Point"},"properties":{"osm_id":"748514819","tag":{"amenity":"waste_basket"}},"type":"Feature"},
	{"geometry":{"coordinates":[25.012434,60.290472],"type":"Point"},"properties":{"osm_id":"748514825","tag":{"amenity":"waste_basket"}},"type":"Feature"},
	{"geometry":{"coordinates":[25.012852,60.291217],"type":"Point"},"properties":{"osm_id":"748514832","tag":{"amenity":"waste_basket"}},"type":"Feature"},
	{"geometry":{"coordinates":[25.009425,60.288037],"type":"Point"},"properties":{"osm_id":"748514849","tag":{"amenity":"waste_basket"}},"type":"Feature"},
	{"geometry":{"coordinates":[25.016425,60.286216],"type":"Point"},"properties":{"osm_id":"781523422","tag":{"amenity":"waste_basket","traffic_sign":"FI:551[right]"}},"type":"Feature"},
	{"geometry":{"coordinates":[25.03739,60.287358],"type":"Point"},"properties":{"osm_id":"790628256","tag":{"amenity":"waste_basket"}},"type":"Feature"},
	{"geometry":{"coordinates":[25.042196,60.319705],"type":"Point"},"properties":{"osm_id":"822218999","tag":{"amenity":"waste_basket"}},"type":"Feature"},
	{"geometry":{"coordinates":[25.042395,60.318935],"type":"Point"},"properties":{"osm_id":"822219006","tag":{"amenity":"waste_basket"}},"type":"Feature"},
	{"geometry":{"coordinates":[25.041893,60.318238],"type":"Point"},"properties":{"osm_id":"822219030","tag":{"amenity":"waste_basket"}},"type":"Feature"},
	{"geometry":{"coordinates":[25.003709,60.302842],"type":"Point"},"properties":{"osm_id":"860814049","tag":{"addr:city":"Vantaa","addr:country":"FI","addr:postcode":"01300","addr:street":"Koisotie","amenity":"recycling","operator":"HSY","recycling:paper":"yes"}},"type":"Feature"},
	{"geometry":{"coordinates":[25.030488,60.311283],"type":"Point"},"properties":{"osm_id":"1116098563","tag":{"addr:city":"Vantaa","addr:country":"FI","addr:street":"Leinikkitie","amenity":"recycling","operator":"HSL","recycling:clothes":"yes","recycling:glass":"yes","recycling:paper":"yes"}},"type":"Feature"},
	{"geometry":{"coordinates":[25.017976,60.303995],"type":"Point"},"properties":{"osm_id":"1131484598","tag":{"amenity":"waste_basket"}},"type":"Feature"},
	{"geometry":{"coordinates":[25.022229,60.289427],"type":"Point"},"properties":{"osm_id":"1487278007","tag":{"amenity":"waste_basket"}},"type":"Feature"},
	{"geometry":{"coordinates":[25.03405,60.285321],"type":"Point"},"properties":{"osm_id":"1741910548","tag":{"amenity":"waste_basket"}},"type":"Feature"},
	{"geometry":{"coordinates":[25.034268,60.286577],"type":"Point"},"properties":{"osm_id":"1741910570","tag":{"amenity":"waste_basket"}},"type":"Feature"},
	{"geometry":{"coordinates":[25.034844,60.287315],"type":"Point"},"properties":{"osm_id":"1741910583","tag":{"amenity":"waste_basket"}},"type":"Feature"},
	{"geometry":{"coordinates":[25.036213,60.287591],"type":"Point"},"properties":{"highway":"street_lamp","osm_id":"1741910609","tag":{"amenity":"waste_basket"}},"type":"Feature"},
	{"geometry":{"coordinates":[25.031958,60.285401],"type":"Point"},"properties":{"osm_id":"1741944870","tag":{"amenity":"waste_basket"}},"type":"Feature"},
	{"geometry":{"coordinates":[25.034691,60.285208],"type":"Point"},"properties":{"osm_id":"2005360727","tag":{"amenity":"waste_basket"}},"type":"Feature"},
	{"geometry":{"coordinates":[25.034759,60.285398],"type":"Point"},"properties":{"osm_id":"2005360729","tag":{"amenity":"waste_basket"}},"type":"Feature"},
	{"geometry":{"coordinates":[25.043043,60.288703],"type":"Point"},"properties":{"osm_id":"2291369879","tag":{"amenity":"waste_basket"}},"type":"Feature"},
	{"geometry":{"coordinates":[25.044724,60.288274],"type":"Point"},"properties":{"osm_id":"2292044921","tag":{"access":"private","amenity":"waste_disposal"}},"type":"Feature"},
	{"geometry":{"coordinates":[25.041255,60.2875],"type":"Point"},"properties":{"osm_id":"2292047576","tag":{"amenity":"waste_basket"}},"type":"Feature"},
	{"geometry":{"coordinates":[25.046566,60.290531],"type":"Point"},"properties":{"osm_id":"2299779485","tag":{"amenity":"waste_basket"}},"type":"Feature"},
	{"geometry":{"coordinates":[25.045171,60.285377],"type":"Point"},"properties":{"highway":"street_lamp","osm_id":"2310420316","tag":{"amenity":"waste_basket"}},"type":"Feature"},
	{"geometry":{"coordinates":[25.044959,60.285374],"type":"Point"},"properties":{"osm_id":"2320159423","tag":{"amenity":"waste_basket"}},"type":"Feature"},
	{"geometry":{"coordinates":[25.029298,60.284103],"type":"Point"},"properties":{"osm_id":"2629244302","tag":{"amenity":"waste_basket","traffic_sign":"FI:645[Helsingin pit.kk.][3]","traffic_sign:2":"FI:423"}},"type":"Feature"},
	{"geometry":{"coordinates":[24.961913,60.305526],"type":"Point"},"properties":{"osm_id":"3812786216","tag":{"amenity":"waste_basket"}},"type":"Feature"},
	{"geometry":{"coordinates":[24.96323,60.305173],"type":"Point"},"properties":{"osm_id":"3812786218","tag":{"amenity":"waste_basket"}},"type":"Feature"},
	{"geometry":{"coordinates":[25.01676,60.291544],"type":"Point"},"properties":{"osm_id":"4858582129","tag":{"amenity":"waste_basket"}},"type":"Feature"},
	{"geometry":{"coordinates":[24.978379,60.303899],"type":"Point"},"properties":{"osm_id":"5142576985","tag":{"amenity":"waste_basket"}},"type":"Feature"},
	{"geometry":{"coordinates":[25.04166,60.28424],"type":"Point"},"properties":{"osm_id":"5574661161","tag":{"amenity":"recycling","recycling_type":"container"}},"type":"Feature"},
	{"geometry":{"coordinates":[24.962353,60.292591],"type":"Point"},"properties":{"name":"Pullonpalautus","osm_id":"6068817494","tag":{"addr:city":"Vantaa","addr:housename":"Jumbo","addr:housenumber":"3","addr:postcode":"01510","addr:street":"Vantaanportinkatu","amenity":"recycling","level":"1","recycling:glass_bottles":"yes","recycling:plastic_bottles":"yes","recycling_type":"container"}},"type":"Feature"},
	{"geometry":{"coordinates":[24.972289,60.30793],"type":"Point"},"properties":{"osm_id":"6473796634","tag":{"amenity":"waste_disposal"}},"type":"Feature"},
	{"geometry":{"coordinates":[24.994448,60.315252],"type":"Point"},"properties":{"osm_id":"6712311390","tag":{"amenity":"waste_basket"}},"type":"Feature"},
	{"geometry":{"coordinates":[24.994324,60.315686],"type":"Point"},"properties":{"osm_id":"6712311391","tag":{"amenity":"waste_basket"}},"type":"Feature"},
	{"geometry":{"coordinates":[24.993805,60.315996],"type":"Point"},"properties":{"osm_id":"6712325889","tag":{"amenity":"recycling","recycling_type":"container"}},"type":"Feature"},
	{"geometry":{"coordinates":[24.994687,60.31638],"type":"Point"},"properties":{"osm_id":"6712325896","tag":{"amenity":"recycling","recycling_type":"container"}},"type":"Feature"},
	{"geometry":{"coordinates":[24.992149,60.316513],"type":"Point"},"properties":{"osm_id":"6712325899","tag":{"amenity":"recycling","recycling_type":"container"}},"type":"Feature"},
	{"geometry":{"coordinates":[24.985567,60.283529],"type":"Point"},"properties":{"osm_id":"6724249387","tag":{"amenity":"waste_basket"}},"type":"Feature"},
	{"geometry":{"coordinates":[24.988013,60.283737],"type":"Point"},"properties":{"osm_id":"6724320809","tag":{"amenity":"recycling","recycling_type":"container"}},"type":"Feature"},
	{"geometry":{"coordinates":[24.984992,60.283484],"type":"Point"},"properties":{"osm_id":"6724320810","tag":{"amenity":"recycling","recycling_type":"container"}},"type":"Feature"},
	{"geometry":{"coordinates":[24.988796,60.284209],"type":"Point"},"properties":{"osm_id":"6724320812","tag":{"amenity":"recycling","recycling_type":"container"}},"type":"Feature"},
	{"geometry":{"coordinates":[24.99019,60.284307],"type":"Point"},"properties":{"osm_id":"6724320813","tag":{"amenity":"recycling","recycling_type":"container"}},"type":"Feature"},
	{"geometry":{"coordinates":[24.993984,60.284671],"type":"Point"},"properties":{"osm_id":"6724320814","tag":{"amenity":"recycling","recycling_type":"container"}},"type":"Feature"},
	{"geometry":{"coordinates":[24.988572,60.284185],"type":"Point"},"properties":{"osm_id":"6724320815","tag":{"amenity":"recycling","recycling_type":"container"}},"type":"Feature"},
	{"geometry":{"coordinates":[24.99251,60.283937],"type":"Point"},"properties":{"osm_id":"6724320816","tag":{"amenity":"recycling","recycling_type":"container"}},"type":"Feature"},
	{"geometry":{"coordinates":[24.989942,60.284353],"type":"Point"},"properties":{"osm_id":"6724320817","tag":{"amenity":"recycling","recycling_type":"container"}},"type":"Feature"},
	{"geometry":{"coordinates":[24.994734,60.315697],"type":"Point"},"properties":{"osm_id":"6886526451","tag":{"amenity":"recycling","recycling_type":"container"}},"type":"Feature"},
	{"geometry":{"coordinates":[24.993062,60.317033],"type":"Point"},"properties":{"osm_id":"6886526455","tag":{"amenity":"recycling","recycling_type":"container"}},"type":"Feature"},
	{"geometry":{"coordinates":[25.039294,60.288963],"type":"Point"},"properties":{"osm_id":"7188676005","tag":{"amenity":"waste_basket"}},"type":"Feature"},
	{"geometry":{"coordinates":[25.024109,60.288938],"type":"Point"},"properties":{"osm_id":"7421249149","tag":{"amenity":"waste_basket","waste":"dog_excrement"}},"type":"Feature"},
	{"geometry":{"coordinates":[25.024028,60.288854],"type":"Point"},"properties":{"osm_id":"7421249150","tag":{"amenity":"waste_basket","waste":"dog_excrement"}},"type":"Feature"},
	{"geometry":{"coordinates":[25.036593,60.287917],"type":"Point"},"properties":{"osm_id":"7529368827","tag":{"access":"private","amenity":"waste_disposal"}},"type":"Feature"},
	{"geometry":{"coordinates":[25.037205,60.287732],"type":"Point"},"properties":{"osm_id":"7529498085","tag":{"amenity":"waste_basket"}},"type":"Feature"},
	{"geometry":{"coordinates":[25.036754,60.287839],"type":"Point"},"properties":{"osm_id":"7529498086","tag":{"amenity":"waste_basket"}},"type":"Feature"},
	{"geometry":{"coordinates":[25.039084,60.289206],"type":"Point"},"properties":{"osm_id":"7602896715","tag":{"amenity":"waste_basket","waste_basket":"molok"}},"type":"Feature"},
	{"geometry":{"coordinates":[25.038405,60.288996],"type":"Point"},"properties":{"osm_id":"7603038002","tag":{"amenity":"waste_basket"}},"type":"Feature"}
]
}
