{
"type": "FeatureCollection",
"features": [
	{"geometry":{"coordinates":[24.995375,60.27313],"type":"Point"},"properties":{"osm_id":"59721617","tag":{"amenity":"waste_basket"}},"type":"Feature"},
	{"geometry":{"coordinates":[24.994799,60.243478],"type":"Point"},"properties":{"osm_id":"137182988","tag":{"addr:city":"Helsinki","addr:country":"FI","amenity":"recycling","recycling:cardboard":"yes","recycling:clothes":"yes"}},"type":"Feature"},
	{"geometry":{"coordinates":[25.02548,60.277778],"type":"Point"},"properties":{"osm_id":"351124701","tag":{"amenity":"recycling","recycling:clothes":"yes","recycling:glass":"yes"}},"type":"Feature"},
	{"geometry":{"coordinates":[24.960995,60.243071],"type":"Point"},"properties":{"osm_id":"371751129","tag":{"amenity":"waste_basket"}},"type":"Feature"},
	{"geometry":{"coordinates":[25.007527,60.266941],"type":"Point"},"properties":{"highway":"bus_stop","name":"Sidetie","osm_id":"412444762","ref":"3328","tag":{"amenity":"waste_basket","name:fi":"Sidetie","name:sv":"Bindev\u00c3\u00a4gen","shelter":"yes"}},"type":"Feature"},
	{"geometry":{"coordinates":[24.976349,60.265307],"type":"Point"},"properties":{"osm_id":"412453227","tag":{"amenity":"waste_basket"}},"type":"Feature"},
	{"geometry":{"coordinates":[24.973787,60.263384],"type":"Point"},"properties":{"osm_id":"412453228","tag":{"amenity":"waste_basket"}},"type":"Feature"},
	{"geometry":{"coordinates":[25.029425,60.268133],"type":"Point"},"properties":{"highway":"bus_stop","name":"Moisiontie","osm_id":"412500528","ref":"3337","tag":{"amenity":"waste_basket","departures_board":"no","name:fi":"Moisiontie","name:sv":"Moisiov\u00c3\u00a4gen","shelter":"no","traffic_sign":"FI:531"}},"type":"Feature"},
	{"geometry":{"coordinates":[25.034261,60.276692],"type":"Point"},"properties":{"highway":"bus_stop","name":"Hatuntekij\u00c3\u00a4nkuja","osm_id":"428376002","ref":"3344","tag":{"amenity":"waste_basket","name:fi":"Hatuntekij\u00c3\u00a4nkuja","name:sv":"Hattmakargr\u00c3\u00a4nden","shelter":"yes"}},"type":"Feature"},
	{"geometry":{"coordinates":[25.028692,60.273969],"type":"Point"},"properties":{"osm_id":"429425650","tag":{"amenity":"waste_basket"}},"type":"Feature"},
	{"geometry":{"coordinates":[25.03295,60.268802],"type":"Point"},"properties":{"highway":"bus_stop","name":"Pohjois-Helsingin lukio","osm_id":"443679704","ref":"3339","tag":{"amenity":"waste_basket","name:fi":"Pohjois-Helsingin lukio","name:sv":"Norra Helsingfors gymnasium","shelter":"no","traffic_sign":"FI:531"}},"type":"Feature"},
	{"geometry":{"coordinates":[25.023566,60.269674],"type":"Point"},"properties":{"highway":"bus_stop","name":"P\u00c3\u00a4iv\u00c3\u00b6l\u00c3\u00a4ntie","osm_id":"443684412","ref":"3334","tag":{"amenity":"waste_basket","name:fi":"P\u00c3\u00a4iv\u00c3\u00b6l\u00c3\u00a4ntie","name:sv":"P\u00c3\u00a4iv\u00c3\u00b6l\u00c3\u00a4v\u00c3\u00a4gen","shelter":"yes"}},"type":"Feature"},
	{"geometry":{"coordinates":[25.025393,60.269305],"type":"Point"},"properties":{"highway":"bus_stop","name":"P\u00c3\u00a4iv\u00c3\u00b6l\u00c3\u00a4ntie","osm_id":"443684417","ref":"3335","tag":{"amenity":"waste_basket","departures_board":"no","name:fi":"P\u00c3\u00a4iv\u00c3\u00b6l\u00c3\u00a4ntie","name:sv":"P\u00c3\u00a4iv\u00c3\u00b6l\u00c3\u00a4v\u00c3\u00a4gen","shelter":"no"}},"type":"Feature"},
	{"geometry":{"coordinates":[25.024466,60.274387],"type":"Point"},"properties":{"osm_id":"453234672","tag":{"amenity":"waste_basket"}},"type":"Feature"},
	{"geometry":{"coordinates":[24.982938,60.260749],"type":"Point"},"properties":{"osm_id":"465240379","tag":{"amenity":"recycling","recycling:paper":"yes"}},"type":"Feature"},
	{"geometry":{"coordinates":[25.029966,60.268134],"type":"Point"},"properties":{"highway":"bus_stop","name":"Moisiontie","osm_id":"478591382","ref":"3336","tag":{"amenity":"waste_basket","name:fi":"Moisiontie","name:sv":"Moisiov\u00c3\u00a4gen","shelter":"yes"}},"type":"Feature"},
	{"geometry":{"coordinates":[25.022411,60.275278],"type":"Point"},"properties":{"osm_id":"480702929","tag":{"amenity":"waste_basket"}},"type":"Feature"},
	{"geometry":{"coordinates":[25.011099,60.272138],"type":"Point"},"properties":{"osm_id":"482830380","tag":{"amenity":"waste_basket"}},"type":"Feature"},
	{"geometry":{"coordinates":[25.013437,60.271597],"type":"Point"},"properties":{"osm_id":"482830382","tag":{"amenity":"waste_basket"}},"type":"Feature"},
	{"geometry":{"coordinates":[25.015125,60.271274],"type":"Point"},"properties":{"osm_id":"482830383","tag":{"amenity":"waste_basket"}},"type":"Feature"},
	{"geometry":{"coordinates":[25.006887,60.27121],"type":"Point"},"properties":{"osm_id":"482830387","tag":{"amenity":"waste_basket"}},"type":"Feature"},
	{"geometry":{"coordinates":[24.983454,60.264152],"type":"Point"},"properties":{"osm_id":"494237207","tag":{"amenity":"recycling","recycling:paper":"yes"}},"type":"Feature"},
	{"geometry":{"coordinates":[25.030895,60.27515],"type":"Point"},"properties":{"osm_id":"501650820","tag":{"amenity":"waste_basket"}},"type":"Feature"},
	{"geometry":{"coordinates":[25.028934,60.275382],"type":"Point"},"properties":{"osm_id":"501650827","tag":{"amenity":"waste_basket"}},"type":"Feature"},
	{"geometry":{"coordinates":[25.031905,60.267387],"type":"Point"},"properties":{"osm_id":"502973451","tag":{"amenity":"waste_basket"}},"type":"Feature"},
	{"geometry":{"coordinates":[25.040959,60.266],"type":"Point"},"properties":{"highway":"bus_stop","name":"Aurinkom\u00c3\u00a4ki","osm_id":"502973462","ref":"3430","tag":{"amenity":"waste_basket","name:fi":"Aurinkom\u00c3\u00a4ki","name:sv":"Solbacka","shelter":"no"}},"type":"Feature"},
	{"geometry":{"coordinates":[25.041753,60.265271],"type":"Point"},"properties":{"highway":"bus_stop","name":"Aurinkom\u00c3\u00a4ki","osm_id":"502973468","ref":"3456","tag":{"amenity":"waste_basket","departures_board":"no","name:fi":"Aurinkom\u00c3\u00a4ki","name:sv":"Solbacka","public_transport":"platform","shelter":"no","timetable":"yes","waste_bin":"yes"}},"type":"Feature"},
	{"geometry":{"coordinates":[25.031913,60.260054],"type":"Point"},"properties":{"osm_id":"503027063","tag":{"amenity":"waste_basket"}},"type":"Feature"},
	{"geometry":{"coordinates":[25.037716,60.255454],"type":"Point"},"properties":{"osm_id":"503027192","tag":{"amenity":"waste_basket"}},"type":"Feature"},
	{"geometry":{"coordinates":[25.036164,60.24807],"type":"Point"},"properties":{"osm_id":"503045039","tag":{"amenity":"waste_basket"}},"type":"Feature"},
	{"geometry":{"coordinates":[25.029678,60.256666],"type":"Point"},"properties":{"osm_id":"525377336","tag":{"amenity":"waste_basket"}},"type":"Feature"},
	{"geometry":{"coordinates":[25.029626,60.258802],"type":"Point"},"properties":{"osm_id":"525387463","tag":{"amenity":"waste_basket"}},"type":"Feature"},
	{"geometry":{"coordinates":[25.018809,60.249677],"type":"Point"},"properties":{"osm_id":"538195442","tag":{"amenity":"recycling","recycling:clothes":"yes","recycling:paper":"yes","recycling:scrap_metal":"no"}},"type":"Feature"},
	{"geometry":{"coordinates":[25.03542,60.275282],"type":"Point"},"properties":{"highway":"bus_stop","name":"Puistolan asema, laituri 14","osm_id":"545774605","ref":"3356","tag":{"amenity":"waste_basket","name:fi":"Puistolan asema, laituri 14","name:sv":"Parkstad station, plattform 14","public_transport":"platform","shelter":"no"}},"type":"Feature"},
	{"geometry":{"coordinates":[25.027812,60.261883],"type":"Point"},"properties":{"osm_id":"554155987","tag":{"amenity":"waste_basket","layer":"1","traffic_sign":"FI:521","traffic_sign:2":"FI:854[5 min]","traffic_sign:3":"FI:liikennemerkkipylv\u00c3\u00a4\u00c3\u00a4n_tehostamismerkki"}},"type":"Feature"},
	{"geometry":{"coordinates":[24.992748,60.273506],"type":"Point"},"properties":{"osm_id":"561522519","tag":{"amenity":"recycling","recycling:clothes":"yes"}},"type":"Feature"},
	{"geometry":{"coordinates":[24.996704,60.275634],"type":"Point"},"properties":{"name":"Hyv\u00c3\u00a4kuntoisten vaatteiden piste","osm_id":"564957443","tag":{"amenity":"recycling","name:en":"Recycling for usable clothes","name:fi":"Hyv\u00c3\u00a4kuntoisten vaatteiden piste","recycling:clothes":"yes"}},"type":"Feature"},
	{"geometry":{"coordinates":[24.986805,60.258007],"type":"Point"},"properties":{"osm_id":"565727489","tag":{"amenity":"waste_basket"}},"type":"Feature"},
	{"geometry":{"coordinates":[25.004638,60.269601],"type":"Point"},"properties":{"osm_id":"572621590","tag":{"amenity":"waste_basket"}},"type":"Feature"},
	{"geometry":{"coordinates":[25.006251,60.268901],"type":"Point"},"properties":{"osm_id":"572621603","tag":{"amenity":"waste_basket"}},"type":"Feature"},
	{"geometry":{"coordinates":[24.995917,60.269474],"type":"Point"},"properties":{"osm_id":"572621664","tag":{"amenity":"waste_basket"}},"type":"Feature"},
	{"geometry":{"coordinates":[25.001228,60.275725],"type":"Point"},"properties":{"osm_id":"573361708","tag":{"amenity":"waste_basket"}},"type":"Feature"},
	{"geometry":{"coordinates":[25.000793,60.275897],"type":"Point"},"properties":{"osm_id":"573361710","tag":{"amenity":"waste_basket"}},"type":"Feature"},
	{"geometry":{"coordinates":[25.001613,60.275391],"type":"Point"},"properties":{"osm_id":"573361712","tag":{"amenity":"waste_basket"}},"type":"Feature"},
	{"geometry":{"coordinates":[25.008514,60.281553],"type":"Point"},"properties":{"osm_id":"573400657","tag":{"addr:city":"Helsinki","addr:country":"FI","addr:street":"Sateenkaarentie","amenity":"recycling","recycling:batteries":"yes","recycling:clothes":"yes","recycling:glass":"yes","recycling:paper":"yes"}},"type":"Feature"},
	{"geometry":{"coordinates":[24.995952,60.281076],"type":"Point"},"properties":{"osm_id":"575166475","tag":{"amenity":"waste_basket"}},"type":"Feature"},
	{"geometry":{"coordinates":[24.999397,60.278068],"type":"Point"},"properties":{"osm_id":"578335953","tag":{"amenity":"waste_basket"}},"type":"Feature"},
	{"geometry":{"coordinates":[24.992694,60.267166],"type":"Point"},"properties":{"osm_id":"601583300","tag":{"amenity":"recycling","operator":"UFF","recycling:clothes":"yes"}},"type":"Feature"},
	{"geometry":{"coordinates":[24.987256,60.265254],"type":"Point"},"properties":{"osm_id":"603913994","tag":{"amenity":"waste_basket"}},"type":"Feature"},
	{"geometry":{"coordinates":[24.985466,60.266491],"type":"Point"},"properties":{"osm_id":"603914004","tag":{"amenity":"waste_basket"}},"type":"Feature"},
	{"geometry":{"coordinates":[24.98571,60.265855],"type":"Point"},"properties":{"highway":"street_lamp","osm_id":"603914009","tag":{"amenity":"waste_basket"}},"type":"Feature"},
	{"geometry":{"coordinates":[24.986566,60.265787],"type":"Point"},"properties":{"osm_id":"603914015","tag":{"amenity":"waste_basket"}},"type":"Feature"},
	{"geometry":{"coordinates":[24.98675,60.267074],"type":"Point"},"properties":{"osm_id":"603914017","tag":{"amenity":"waste_basket"}},"type":"Feature"},
	{"geometry":{"coordinates":[24.993661,60.271362],"type":"Point"},"properties":{"osm_id":"603929576","tag":{"amenity":"recycling","recycling:paper":"yes"}},"type":"Feature"},
	{"geometry":{"coordinates":[24.999723,60.273749],"type":"Point"},"properties":{"osm_id":"603929577","tag":{"amenity":"waste_basket"}},"type":"Feature"},
	{"geometry":{"coordinates":[25.006879,60.281072],"type":"Point"},"properties":{"osm_id":"605009561","tag":{"amenity":"waste_basket"}},"type":"Feature"},
	{"geometry":{"coordinates":[25.007225,60.281222],"type":"Point"},"properties":{"osm_id":"605009566","tag":{"amenity":"waste_basket"}},"type":"Feature"},
	{"geometry":{"coordinates":[25.04765,60.282345],"type":"Point"},"properties":{"osm_id":"613509457","tag":{"amenity":"recycling","recycling:clothes":"yes"}},"type":"Feature"},
	{"geometry":{"coordinates":[24.997314,60.265212],"type":"Point"},"properties":{"osm_id":"615365922","tag":{"amenity":"waste_basket"}},"type":"Feature"},
	{"geometry":{"coordinates":[25.040661,60.264078],"type":"Point"},"properties":{"osm_id":"616124240","tag":{"amenity":"waste_basket"}},"type":"Feature"},
	{"geometry":{"coordinates":[25.036545,60.255567],"type":"Point"},"properties":{"osm_id":"639518071","tag":{"amenity":"recycling","location":"overground","operator":"UFF","recycling:clothes":"yes","recycling_type":"container"}},"type":"Feature"},
	{"geometry":{"coordinates":[25.030841,60.259842],"type":"Point"},"properties":{"osm_id":"662787748","tag":{"amenity":"waste_disposal","waste":"household"}},"type":"Feature"},
	{"geometry":{"coordinates":[25.028664,60.259124],"type":"Point"},"properties":{"osm_id":"662839011","tag":{"amenity":"waste_disposal","covered":"yes","waste":"household"}},"type":"Feature"},
	{"geometry":{"coordinates":[25.02665,60.258139],"type":"Point"},"properties":{"osm_id":"662845527","tag":{"amenity":"waste_basket"}},"type":"Feature"},
	{"geometry":{"coordinates":[25.026687,60.258246],"type":"Point"},"properties":{"osm_id":"662845528","tag":{"amenity":"waste_basket"}},"type":"Feature"},
	{"geometry":{"coordinates":[25.02653,60.258314],"type":"Point"},"properties":{"osm_id":"662845529","tag":{"amenity":"waste_basket"}},"type":"Feature"},
	{"geometry":{"coordinates":[25.02697,60.258109],"type":"Point"},"properties":{"osm_id":"662845530","tag":{"amenity":"waste_basket"}},"type":"Feature"},
	{"geometry":{"coordinates":[25.029063,60.258616],"type":"Point"},"properties":{"osm_id":"662845533","tag":{"amenity":"waste_basket"}},"type":"Feature"},
	{"geometry":{"coordinates":[25.027931,60.257974],"type":"Point"},"properties":{"osm_id":"662848089","tag":{"amenity":"waste_basket"}},"type":"Feature"},
	{"geometry":{"coordinates":[25.025646,60.258768],"type":"Point"},"properties":{"osm_id":"662851551","tag":{"amenity":"waste_basket"}},"type":"Feature"},
	{"geometry":{"coordinates":[25.027125,60.258204],"type":"Point"},"properties":{"osm_id":"662852230","tag":{"amenity":"waste_basket"}},"type":"Feature"},
	{"geometry":{"coordinates":[25.033463,60.262027],"type":"Point"},"properties":{"osm_id":"662863465","tag":{"amenity":"waste_basket"}},"type":"Feature"},
	{"geometry":{"coordinates":[25.029748,60.261309],"type":"Point"},"properties":{"osm_id":"672064216","tag":{"amenity":"waste_basket"}},"type":"Feature"},
	{"geometry":{"coordinates":[25.029762,60.261158],"type":"Point"},"properties":{"osm_id":"672064217","tag":{"amenity":"waste_basket"}},"type":"Feature"},
	{"geometry":{"coordinates":[25.03139,60.261941],"type":"Point"},"properties":{"osm_id":"672065463","tag":{"amenity":"waste_disposal","waste":"household"}},"type":"Feature"},
	{"geometry":{"coordinates":[25.031393,60.261983],"type":"Point"},"properties":{"osm_id":"672065464","tag":{"amenity":"waste_disposal","waste":"household"}},"type":"Feature"},
	{"geometry":{"coordinates":[25.030871,60.263302],"type":"Point"},"properties":{"osm_id":"672087110","tag":{"amenity":"recycling","recycling:batteries":"yes","recycling:clothes":"yes","recycling:glass":"yes"}},"type":"Feature"},
	{"geometry":{"coordinates":[25.030296,60.263124],"type":"Point"},"properties":{"osm_id":"672087135","tag":{"amenity":"recycling","recycling:cardboard":"yes","recycling:paper":"yes"}},"type":"Feature"},
	{"geometry":{"coordinates":[25.030645,60.263918],"type":"Point"},"properties":{"highway":"street_lamp","osm_id":"672088045","tag":{"amenity":"waste_basket","traffic_sign":"FI:423"}},"type":"Feature"},
	{"geometry":{"coordinates":[25.028562,60.260977],"type":"Point"},"properties":{"osm_id":"672089898","tag":{"amenity":"waste_basket"}},"type":"Feature"},
	{"geometry":{"coordinates":[25.028635,60.260912],"type":"Point"},"properties":{"osm_id":"672089899","tag":{"amenity":"waste_basket"}},"type":"Feature"},
	{"geometry":{"coordinates":[25.031822,60.262687],"type":"Point"},"properties":{"osm_id":"672089910","tag":{"amenity":"waste_basket"}},"type":"Feature"},
	{"geometry":{"coordinates":[25.032539,60.262614],"type":"Point"},"properties":{"osm_id":"672089911","tag":{"amenity":"waste_basket"}},"type":"Feature"},
	{"geometry":{"coordinates":[24.973446,60.282889],"type":"Point"},"properties":{"osm_id":"687191707","tag":{"amenity":"waste_basket"}},"type":"Feature"},
	{"geometry":{"coordinates":[25.037507,60.262052],"type":"Point"},"properties":{"osm_id":"703629198","tag":{"amenity":"waste_basket"}},"type":"Feature"},
	{"geometry":{"coordinates":[25.036255,60.261903],"type":"Point"},"properties":{"osm_id":"703629209","tag":{"amenity":"waste_basket"}},"type":"Feature"},
	{"geometry":{"coordinates":[25.021391,60.278553],"type":"Point"},"properties":{"osm_id":"705947125","tag":{"amenity":"recycling","recycling:paper":"yes"}},"type":"Feature"},
	{"geometry":{"coordinates":[25.027406,60.278517],"type":"Point"},"properties":{"osm_id":"705947127","tag":{"amenity":"waste_basket"}},"type":"Feature"},
	{"geometry":{"coordinates":[25.030458,60.277925],"type":"Point"},"properties":{"osm_id":"705947194","tag":{"amenity":"waste_basket"}},"type":"Feature"},
	{"geometry":{"coordinates":[24.976296,60.255801],"type":"Point"},"properties":{"osm_id":"707964001","tag":{"amenity":"waste_basket"}},"type":"Feature"},
	{"geometry":{"coordinates":[25.036619,60.276818],"type":"Point"},"properties":{"osm_id":"708682980","tag":{"amenity":"waste_basket"}},"type":"Feature"},
	{"geometry":{"coordinates":[25.030969,60.277409],"type":"Point"},"properties":{"osm_id":"708682981","tag":{"amenity":"waste_basket"}},"type":"Feature"},
	{"geometry":{"coordinates":[25.031469,60.277937],"type":"Point"},"properties":{"osm_id":"708683035","tag":{"amenity":"waste_basket"}},"type":"Feature"},
	{"geometry":{"coordinates":[25.038958,60.27549],"type":"Point"},"properties":{"osm_id":"708683075","tag":{"amenity":"waste_basket"}},"type":"Feature"},
	{"geometry":{"coordinates":[25.037511,60.278801],"type":"Point"},"properties":{"osm_id":"708785441","tag":{"amenity":"recycling","recycling:paper":"yes"}},"type":"Feature"},
	{"geometry":{"coordinates":[25.0384,60.278797],"type":"Point"},"properties":{"osm_id":"717287582","tag":{"amenity":"recycling","recycling:paper":"yes"}},"type":"Feature"},
	{"geometry":{"coordinates":[25.00541,60.261774],"type":"Point"},"properties":{"osm_id":"734944106","tag":{"amenity":"recycling","recycling:clothes":"yes","recycling:paper":"yes"}},"type":"Feature"},
	{"geometry":{"coordinates":[24.985442,60.277727],"type":"Point"},"properties":{"osm_id":"744517838","tag":{"amenity":"waste_basket"}},"type":"Feature"},
	{"geometry":{"coordinates":[24.985883,60.27525],"type":"Point"},"properties":{"osm_id":"744517856","tag":{"amenity":"waste_basket"}},"type":"Feature"},
	{"geometry":{"coordinates":[24.990482,60.275244],"type":"Point"},"properties":{"osm_id":"918947557","tag":{"amenity":"recycling","recycling:batteries":"yes","recycling:glass":"yes"}},"type":"Feature"},
	{"geometry":{"coordinates":[24.992077,60.247773],"type":"Point"},"properties":{"osm_id":"929372116","tag":{"amenity":"recycling","recycling:clothes":"yes","recycling:glass":"yes"}},"type":"Feature"},
	{"geometry":{"coordinates":[24.987495,60.255345],"type":"Point"},"properties":{"osm_id":"931664652","tag":{"amenity":"recycling","recycling:paper":"yes"}},"type":"Feature"},
	{"geometry":{"coordinates":[24.9807,60.251308],"type":"Point"},"properties":{"osm_id":"937138865","tag":{"amenity":"recycling","recycling:glass":"yes","recycling:paper":"yes"}},"type":"Feature"},
	{"geometry":{"coordinates":[25.036765,60.274297],"type":"Point"},"properties":{"osm_id":"938406773","tag":{"amenity":"waste_basket"}},"type":"Feature"},
	{"geometry":{"coordinates":[25.042915,60.272878],"type":"Point"},"properties":{"osm_id":"938406805","tag":{"amenity":"waste_basket"}},"type":"Feature"},
	{"geometry":{"coordinates":[25.037275,60.274331],"type":"Point"},"properties":{"osm_id":"938406812","tag":{"amenity":"waste_basket"}},"type":"Feature"},
	{"geometry":{"coordinates":[25.042303,60.27441],"type":"Point"},"properties":{"osm_id":"938406817","tag":{"amenity":"waste_basket"}},"type":"Feature"},
	{"geometry":{"coordinates":[25.042471,60.273707],"type":"Point"},"properties":{"osm_id":"938406827","tag":{"amenity":"waste_basket"}},"type":"Feature"},
	{"geometry":{"coordinates":[25.018083,60.26751],"type":"Point"},"properties":{"osm_id":"983370641","tag":{"amenity":"waste_basket"}},"type":"Feature"},
	{"geometry":{"coordinates":[25.048218,60.273228],"type":"Point"},"properties":{"osm_id":"1010884957","tag":{"amenity":"waste_basket"}},"type":"Feature"},
	{"geometry":{"coordinates":[25.016688,60.249143],"type":"Point"},"properties":{"osm_id":"1057010328","tag":{"amenity":"waste_basket"}},"type":"Feature"},
	{"geometry":{"coordinates":[24.973163,60.264903],"type":"Point"},"properties":{"osm_id":"1247011943","tag":{"amenity":"waste_basket"}},"type":"Feature"},
	{"geometry":{"coordinates":[25.001684,60.275016],"type":"Point"},"properties":{"osm_id":"1299993269","tag":{"amenity":"waste_basket"}},"type":"Feature"},
	{"geometry":{"coordinates":[24.989605,60.260727],"type":"Point"},"properties":{"osm_id":"1412876787","tag":{"amenity":"waste_basket"}},"type":"Feature"},
	{"geometry":{"coordinates":[25.020645,60.240997],"type":"Point"},"properties":{"osm_id":"1419897004","tag":{"amenity":"waste_basket"}},"type":"Feature"},
	{"geometry":{"coordinates":[24.970343,60.254786],"type":"Point"},"properties":{"osm_id":"1565302058","tag":{"amenity":"waste_basket"}},"type":"Feature"},
	{"geometry":{"coordinates":[24.970965,60.25491],"type":"Point"},"properties":{"osm_id":"1565302065","tag":{"amenity":"waste_basket"}},"type":"Feature"},
	{"geometry":{"coordinates":[25.022553,60.275627],"type":"Point"},"properties":{"osm_id":"1590838233","tag":{"amenity":"waste_basket"}},"type":"Feature"},
	{"geometry":{"coordinates":[25.009804,60.2722],"type":"Point"},"properties":{"osm_id":"1590867426","tag":{"amenity":"waste_basket"}},"type":"Feature"},
	{"geometry":{"coordinates":[25.014616,60.273925],"type":"Point"},"properties":{"osm_id":"1590867428","tag":{"amenity":"waste_basket"}},"type":"Feature"},
	{"geometry":{"coordinates":[25.021948,60.276501],"type":"Point"},"properties":{"osm_id":"1590984066","tag":{"amenity":"waste_basket"}},"type":"Feature"},
	{"geometry":{"coordinates":[25.014176,60.267458],"type":"Point"},"properties":{"osm_id":"1591378909","tag":{"amenity":"waste_basket"}},"type":"Feature"},
	{"geometry":{"coordinates":[25.013743,60.270586],"type":"Point"},"properties":{"highway":"street_lamp","osm_id":"1591378911","tag":{"amenity":"waste_basket"}},"type":"Feature"},
	{"geometry":{"coordinates":[24.992517,60.268875],"type":"Point"},"properties":{"osm_id":"1593533174","tag":{"amenity":"waste_basket"}},"type":"Feature"},
	{"geometry":{"coordinates":[25.044613,60.245721],"type":"Point"},"properties":{"osm_id":"1675604240","tag":{"amenity":"waste_basket"}},"type":"Feature"},
	{"geometry":{"coordinates":[24.967547,60.265726],"type":"Point"},"properties":{"osm_id":"1708983059","tag":{"amenity":"waste_basket"}},"type":"Feature"},
	{"geometry":{"coordinates":[25.012345,60.249871],"type":"Point"},"properties":{"osm_id":"2071900109","tag":{"amenity":"waste_basket"}},"type":"Feature"},
	{"geometry":{"coordinates":[25.014275,60.250808],"type":"Point"},"properties":{"osm_id":"2118016077","tag":{"amenity":"waste_basket"}},"type":"Feature"},
	{"geometry":{"coordinates":[25.015621,60.251155],"type":"Point"},"properties":{"osm_id":"2118016080","tag":{"amenity":"waste_basket"}},"type":"Feature"},
	{"geometry":{"coordinates":[25.034499,60.2665],"type":"Point"},"properties":{"osm_id":"2147897839","tag":{"amenity":"recycling"}},"type":"Feature"},
	{"geometry":{"coordinates":[24.96337,60.245431],"type":"Point"},"properties":{"osm_id":"2184220274","tag":{"amenity":"waste_basket"}},"type":"Feature"},
	{"geometry":{"coordinates":[25.028399,60.250641],"type":"Point"},"properties":{"osm_id":"2285684534","tag":{"amenity":"waste_basket"}},"type":"Feature"},
	{"geometry":{"coordinates":[25.011839,60.250102],"type":"Point"},"properties":{"osm_id":"2287136354","tag":{"amenity":"recycling","recycling:glass":"yes"}},"type":"Feature"},
	{"geometry":{"coordinates":[24.97164,60.273955],"type":"Point"},"properties":{"osm_id":"2330639165","tag":{"addr:city":"Vantaa","addr:housenumber":"9","addr:postcode":"01510","addr:street":"Tammiston kauppatie","amenity":"recycling","recycling:batteries":"yes","recycling:books":"no","recycling:cans":"yes","recycling:cardboard":"yes","recycling:cartons":"yes","recycling:clothes":"yes","recycling:electrical_appliances":"yes","recycling:glass":"yes","recycling:glass_bottles":"yes","recycling:green_waste":"no","recycling:magazines":"yes","recycling:newspaper":"yes","recycling:paper":"yes","recycling:paper_packaging":"yes","recycling:plastic":"no","recycling:plastic_bottles":"no","recycling:plastic_packaging":"no","recycling:scrap_metal":"yes","recycling:small_appliances":"yes","recycling:waste":"no","recycling:wood":"no","recycling_type":"container"}},"type":"Feature"},
	{"geometry":{"coordinates":[24.9786,60.25117],"type":"Point"},"properties":{"osm_id":"2397649964","tag":{"amenity":"waste_basket"}},"type":"Feature"},
	{"geometry":{"coordinates":[24.975711,60.249066],"type":"Point"},"properties":{"osm_id":"2397649966","tag":{"amenity":"waste_basket"}},"type":"Feature"},
	{"geometry":{"coordinates":[24.993905,60.243447],"type":"Point"},"properties":{"osm_id":"2398014802","tag":{"amenity":"waste_basket","traffic_sign":"FI:511","traffic_sign:2":"FI:534","traffic_sign:3":"FI:231"}},"type":"Feature"},
	{"geometry":{"coordinates":[24.996382,60.250268],"type":"Point"},"properties":{"highway":"street_lamp","osm_id":"2400392781","tag":{"amenity":"waste_basket"}},"type":"Feature"},
	{"geometry":{"coordinates":[25.009952,60.251349],"type":"Point"},"properties":{"osm_id":"2400513784","tag":{"amenity":"waste_basket"}},"type":"Feature"},
	{"geometry":{"coordinates":[24.992084,60.247785],"type":"Point"},"properties":{"osm_id":"2402101011","tag":{"amenity":"waste_basket"}},"type":"Feature"},
	{"geometry":{"coordinates":[24.991774,60.247572],"type":"Point"},"properties":{"osm_id":"2402108216","tag":{"amenity":"waste_basket"}},"type":"Feature"},
	{"geometry":{"coordinates":[24.994383,60.243707],"type":"Point"},"properties":{"osm_id":"2402135435","tag":{"amenity":"waste_basket"}},"type":"Feature"},
	{"geometry":{"coordinates":[24.9943,60.24384],"type":"Point"},"properties":{"osm_id":"2402135438","tag":{"amenity":"waste_basket"}},"type":"Feature"},
	{"geometry":{"coordinates":[25.016412,60.255862],"type":"Point"},"properties":{"highway":"street_lamp","osm_id":"2413072704","tag":{"amenity":"waste_basket","traffic_sign":"FI:423"}},"type":"Feature"},
	{"geometry":{"coordinates":[25.018754,60.247503],"type":"Point"},"properties":{"osm_id":"2413102563","tag":{"amenity":"waste_basket"}},"type":"Feature"},
	{"geometry":{"coordinates":[24.996214,60.242302],"type":"Point"},"properties":{"osm_id":"2414353545","tag":{"amenity":"waste_basket"}},"type":"Feature"},
	{"geometry":{"coordinates":[24.990327,60.242454],"type":"Point"},"properties":{"osm_id":"2414353566","tag":{"amenity":"waste_basket"}},"type":"Feature"},
	{"geometry":{"coordinates":[24.981583,60.242564],"type":"Point"},"properties":{"osm_id":"2415108289","tag":{"amenity":"waste_basket"}},"type":"Feature"},
	{"geometry":{"coordinates":[25.012663,60.249179],"type":"Point"},"properties":{"osm_id":"2419303442","tag":{"amenity":"waste_basket"}},"type":"Feature"},
	{"geometry":{"coordinates":[25.011742,60.249916],"type":"Point"},"properties":{"osm_id":"2419303455","tag":{"amenity":"waste_basket"}},"type":"Feature"},
	{"geometry":{"coordinates":[24.993857,60.243689],"type":"Point"},"properties":{"osm_id":"2419348163","tag":{"amenity":"waste_basket"}},"type":"Feature"},
	{"geometry":{"coordinates":[24.997056,60.249116],"type":"Point"},"properties":{"highway":"street_lamp","osm_id":"2419348216","tag":{"amenity":"waste_basket"}},"type":"Feature"},
	{"geometry":{"coordinates":[24.995838,60.250024],"type":"Point"},"properties":{"highway":"street_lamp","osm_id":"2419348221","tag":{"amenity":"waste_basket"}},"type":"Feature"},
	{"geometry":{"coordinates":[24.994355,60.251152],"type":"Point"},"properties":{"highway":"street_lamp","osm_id":"2419348236","tag":{"amenity":"waste_basket"}},"type":"Feature"},
	{"geometry":{"coordinates":[24.992646,60.253379],"type":"Point"},"properties":{"highway":"street_lamp","osm_id":"2419348260","tag":{"amenity":"waste_basket"}},"type":"Feature"},
	{"geometry":{"coordinates":[24.986312,60.243604],"type":"Point"},"properties":{"osm_id":"2895124308","tag":{"amenity":"waste_basket","traffic_sign":"FI:312"}},"type":"Feature"},
	{"geometry":{"coordinates":[24.980889,60.272464],"type":"Point"},"properties":{"osm_id":"2960298895","tag":{"amenity":"waste_basket"}},"type":"Feature"},
	{"geometry":{"coordinates":[25.008517,60.275305],"type":"Point"},"properties":{"highway":"street_lamp","osm_id":"3021056927","tag":{"amenity":"waste_basket"}},"type":"Feature"},
	{"geometry":{"coordinates":[24.993119,60.259147],"type":"Point"},"properties":{"osm_id":"3522401625","tag":{"amenity":"recycling","recycling:glass":"yes","recycling:paper":"yes","recycling:scrap_metal":"yes","recycling_type":"container"}},"type":"Feature"},
	{"geometry":{"coordinates":[25.04582,60.274392],"type":"Point"},"properties":{"osm_id":"3577526328","tag":{"amenity":"recycling","recycling_type":"container"}},"type":"Feature"},
	{"geometry":{"coordinates":[24.974589,60.270273],"type":"Point"},"properties":{"osm_id":"3578721597","tag":{"amenity":"waste_basket"}},"type":"Feature"},
	{"geometry":{"coordinates":[24.9747,60.270454],"type":"Point"},"properties":{"osm_id":"3578721598","tag":{"amenity":"waste_basket"}},"type":"Feature"},
	{"geometry":{"coordinates":[24.974705,60.270619],"type":"Point"},"properties":{"osm_id":"3578721601","tag":{"amenity":"waste_basket"}},"type":"Feature"},
	{"geometry":{"coordinates":[24.974472,60.270028],"type":"Point"},"properties":{"osm_id":"3579950898","tag":{"amenity":"waste_basket"}},"type":"Feature"},
	{"geometry":{"coordinates":[24.974534,60.270159],"type":"Point"},"properties":{"osm_id":"3579950900","tag":{"amenity":"waste_basket"}},"type":"Feature"},
	{"geometry":{"coordinates":[24.974363,60.270505],"type":"Point"},"properties":{"osm_id":"3579950904","tag":{"amenity":"waste_basket"}},"type":"Feature"},
	{"geometry":{"coordinates":[25.028213,60.263303],"type":"Point"},"properties":{"highway":"street_lamp","osm_id":"3584209720","tag":{"amenity":"waste_basket","traffic_sign":"FI:423"}},"type":"Feature"},
	{"geometry":{"coordinates":[25.005315,60.25282],"type":"Point"},"properties":{"osm_id":"3608469162","tag":{"amenity":"waste_basket","traffic_sign":"FI:363[40]"}},"type":"Feature"},
	{"geometry":{"coordinates":[25.018956,60.269421],"type":"Point"},"properties":{"osm_id":"3633362559","tag":{"amenity":"waste_basket","traffic_sign":"FI:531"}},"type":"Feature"},
	{"geometry":{"coordinates":[24.999372,60.270119],"type":"Point"},"properties":{"highway":"street_lamp","osm_id":"3633568104","tag":{"amenity":"waste_basket","traffic_sign":"FI:645[Siltam\u00c3\u00a4ki];FI:645[vandalized]","traffic_sign:2":"FI:312","traffic_sign:3":"FI:871[Tontille ajo sallittu]"}},"type":"Feature"},
	{"geometry":{"coordinates":[24.990594,60.275065],"type":"Point"},"properties":{"osm_id":"3635413800","tag":{"amenity":"recycling","recycling:cardboard":"yes"}},"type":"Feature"},
	{"geometry":{"coordinates":[24.98286,60.269215],"type":"Point"},"properties":{"osm_id":"3858390257","tag":{"amenity":"waste_basket"}},"type":"Feature"},
	{"geometry":{"coordinates":[24.994153,60.272648],"type":"Point"},"properties":{"osm_id":"3916862291","tag":{"amenity":"waste_basket"}},"type":"Feature"},
	{"geometry":{"coordinates":[25.001372,60.27508],"type":"Point"},"properties":{"osm_id":"3916862357","tag":{"amenity":"waste_basket"}},"type":"Feature"},
	{"geometry":{"coordinates":[25.031596,60.274744],"type":"Point"},"properties":{"osm_id":"4307814306","tag":{"amenity":"waste_basket"}},"type":"Feature"},
	{"geometry":{"coordinates":[25.006166,60.253291],"type":"Point"},"properties":{"osm_id":"4357742119","tag":{"amenity":"waste_disposal"}},"type":"Feature"},
	{"geometry":{"coordinates":[24.991179,60.261216],"type":"Point"},"properties":{"osm_id":"4362653519","tag":{"amenity":"waste_basket"}},"type":"Feature"},
	{"geometry":{"coordinates":[24.991676,60.261719],"type":"Point"},"properties":{"osm_id":"4362653521","tag":{"amenity":"waste_basket"}},"type":"Feature"},
	{"geometry":{"coordinates":[24.994091,60.262545],"type":"Point"},"properties":{"osm_id":"4362653522","tag":{"amenity":"waste_basket"}},"type":"Feature"},
	{"geometry":{"coordinates":[25.006122,60.275472],"type":"Point"},"properties":{"osm_id":"4739561033","tag":{"access":"private","amenity":"waste_basket"}},"type":"Feature"},
	{"geometry":{"coordinates":[25.004177,60.275901],"type":"Point"},"properties":{"highway":"street_lamp","osm_id":"5155464761","tag":{"amenity":"waste_basket"}},"type":"Feature"},
	{"geometry":{"coordinates":[25.035237,60.275228],"type":"Point"},"properties":{"highway":"bus_stop","name":"Puistolan asema, laituri 13","osm_id":"5199732314","ref":"3355","tag":{"amenity":"waste_basket","name:fi":"Puistolan asema, laituri 13","name:sv":"Parkstad station, plattform 13","public_transport":"platform","shelter":"yes"}},"type":"Feature"},
	{"geometry":{"coordinates":[24.989128,60.241035],"type":"Point"},"properties":{"osm_id":"5545209387","tag":{"amenity":"waste_disposal"}},"type":"Feature"},
	{"geometry":{"coordinates":[24.995884,60.263568],"type":"Point"},"properties":{"osm_id":"5781708345","tag":{"amenity":"waste_basket"}},"type":"Feature"},
	{"geometry":{"coordinates":[24.983665,60.263854],"type":"Point"},"properties":{"osm_id":"5826963130","tag":{"amenity":"recycling","recycling:clothes":"yes","recycling_type":"container"}},"type":"Feature"},
	{"geometry":{"coordinates":[24.983747,60.263677],"type":"Point"},"properties":{"osm_id":"5826963131","tag":{"amenity":"waste_basket"}},"type":"Feature"},
	{"geometry":{"coordinates":[24.980501,60.266407],"type":"Point"},"properties":{"osm_id":"5826964023","tag":{"amenity":"waste_basket"}},"type":"Feature"},
	{"geometry":{"coordinates":[25.022959,60.254075],"type":"Point"},"properties":{"osm_id":"6030885892","tag":{"amenity":"waste_basket"}},"type":"Feature"},
	{"geometry":{"coordinates":[25.035446,60.274948],"type":"Point"},"properties":{"osm_id":"6386030294","tag":{"amenity":"waste_basket"}},"type":"Feature"},
	{"geometry":{"coordinates":[24.984636,60.282768],"type":"Point"},"properties":{"osm_id":"6724320811","tag":{"amenity":"recycling","recycling_type":"container"}},"type":"Feature"},
	{"geometry":{"coordinates":[24.985098,60.28329],"type":"Point"},"properties":{"osm_id":"6724324588","tag":{"amenity":"waste_basket"}},"type":"Feature"},
	{"geometry":{"coordinates":[24.966158,60.276695],"type":"Point"},"properties":{"osm_id":"6781306890","tag":{"amenity":"waste_basket"}},"type":"Feature"},
	{"geometry":{"coordinates":[24.992106,60.260786],"type":"Point"},"properties":{"highway":"street_lamp","osm_id":"7736555621","tag":{"amenity":"waste_basket"}},"type":"Feature"}
]
}
