{
"type": "FeatureCollection",
"features": [
	{"geometry":{"coordinates":[25.033657,60.204399],"type":"Point"},"properties":{"osm_id":"50810749","tag":{"amenity":"recycling","recycling:batteries":"yes","recycling:cardboard":"yes","recycling:clothes":"yes","recycling_type":"container"}},"type":"Feature"},
	{"geometry":{"coordinates":[25.040273,60.203394],"type":"Point"},"properties":{"osm_id":"89125447","tag":{"amenity":"recycling","recycling:paper":"yes","recycling_type":"container"}},"type":"Feature"},
	{"geometry":{"coordinates":[25.038596,60.212243],"type":"Point"},"properties":{"osm_id":"93460065","tag":{"amenity":"recycling","recycling:clothes":"yes","recycling:glass":"yes"}},"type":"Feature"},
	{"geometry":{"coordinates":[24.96755,60.216046],"type":"Point"},"properties":{"osm_id":"143512290","tag":{"amenity":"recycling","recycling:batteries":"yes","recycling:glass":"yes"}},"type":"Feature"},
	{"geometry":{"coordinates":[25.000713,60.231367],"type":"Point"},"properties":{"osm_id":"175601392","tag":{"amenity":"waste_basket"}},"type":"Feature"},
	{"geometry":{"coordinates":[24.972852,60.225093],"type":"Point"},"properties":{"osm_id":"247161872","tag":{"amenity":"recycling","recycling:cardboard":"yes","recycling:clothes":"yes","recycling:glass":"yes"}},"type":"Feature"},
	{"geometry":{"coordinates":[25.008791,60.227889],"type":"Point"},"properties":{"osm_id":"292857853","tag":{"amenity":"waste_basket"}},"type":"Feature"},
	{"geometry":{"coordinates":[24.964935,60.21514],"type":"Point"},"properties":{"osm_id":"352765910","tag":{"amenity":"waste_basket"}},"type":"Feature"},
	{"geometry":{"coordinates":[25.040105,60.205379],"type":"Point"},"properties":{"osm_id":"358472509","tag":{"amenity":"recycling","recycling:paper":"yes","recycling_type":"container"}},"type":"Feature"},
	{"geometry":{"coordinates":[24.975978,60.21276],"type":"Point"},"properties":{"osm_id":"364539427","tag":{"amenity":"waste_basket"}},"type":"Feature"},
	{"geometry":{"coordinates":[24.970832,60.212527],"type":"Point"},"properties":{"osm_id":"364641813","tag":{"amenity":"waste_basket","guidepost":"destination","traffic_sign":"FI:645[Vanhakaupunki]","traffic_sign:2":"FI:645[Pasila]","traffic_sign:3":"FI:312"}},"type":"Feature"},
	{"geometry":{"coordinates":[24.974428,60.213981],"type":"Point"},"properties":{"osm_id":"364643222","tag":{"amenity":"waste_basket"}},"type":"Feature"},
	{"geometry":{"coordinates":[24.973578,60.212886],"type":"Point"},"properties":{"osm_id":"364643639","tag":{"amenity":"waste_basket"}},"type":"Feature"},
	{"geometry":{"coordinates":[24.976344,60.212455],"type":"Point"},"properties":{"osm_id":"364645611","tag":{"amenity":"waste_basket"}},"type":"Feature"},
	{"geometry":{"coordinates":[24.962002,60.213302],"type":"Point"},"properties":{"osm_id":"367040130","tag":{"amenity":"waste_disposal","waste":"household"}},"type":"Feature"},
	{"geometry":{"coordinates":[24.963875,60.215825],"type":"Point"},"properties":{"osm_id":"388583211","tag":{"amenity":"waste_basket"}},"type":"Feature"},
	{"geometry":{"coordinates":[25.008385,60.227637],"type":"Point"},"properties":{"osm_id":"430378000","tag":{"amenity":"recycling"}},"type":"Feature"},
	{"geometry":{"coordinates":[24.968194,60.202496],"type":"Point"},"properties":{"osm_id":"430402611","tag":{"amenity":"recycling"}},"type":"Feature"},
	{"geometry":{"coordinates":[25.007672,60.23301],"type":"Point"},"properties":{"osm_id":"432969133","tag":{"amenity":"recycling","graffiti:tag":"lsc;inba","recycling:glass":"yes"}},"type":"Feature"},
	{"geometry":{"coordinates":[25.048664,60.19622],"type":"Point"},"properties":{"osm_id":"445999714","tag":{"amenity":"waste_basket"}},"type":"Feature"},
	{"geometry":{"coordinates":[24.982423,60.21381],"type":"Point"},"properties":{"osm_id":"456828053","tag":{"amenity":"waste_basket"}},"type":"Feature"},
	{"geometry":{"coordinates":[25.028202,60.208469],"type":"Point"},"properties":{"osm_id":"460375771","tag":{"amenity":"waste_basket"}},"type":"Feature"},
	{"geometry":{"coordinates":[24.974162,60.20818],"type":"Point"},"properties":{"osm_id":"463015839","tag":{"amenity":"waste_basket"}},"type":"Feature"},
	{"geometry":{"coordinates":[24.969372,60.210464],"type":"Point"},"properties":{"osm_id":"463015840","tag":{"amenity":"recycling"}},"type":"Feature"},
	{"geometry":{"coordinates":[24.981498,60.207436],"type":"Point"},"properties":{"osm_id":"468440606","tag":{"amenity":"waste_basket"}},"type":"Feature"},
	{"geometry":{"coordinates":[24.982588,60.207174],"type":"Point"},"properties":{"osm_id":"468440608","tag":{"amenity":"waste_basket"}},"type":"Feature"},
	{"geometry":{"coordinates":[24.982886,60.215761],"type":"Point"},"properties":{"osm_id":"471219617","tag":{"amenity":"waste_basket"}},"type":"Feature"},
	{"geometry":{"coordinates":[24.96189,60.220389],"type":"Point"},"properties":{"osm_id":"473637483","tag":{"amenity":"waste_basket"}},"type":"Feature"},
	{"geometry":{"coordinates":[24.962045,60.220347],"type":"Point"},"properties":{"osm_id":"473637487","tag":{"amenity":"waste_basket"}},"type":"Feature"},
	{"geometry":{"coordinates":[25.041172,60.216489],"type":"Point"},"properties":{"osm_id":"475371470","tag":{"amenity":"recycling","recycling:paper":"yes"}},"type":"Feature"},
	{"geometry":{"coordinates":[24.966257,60.203646],"type":"Point"},"properties":{"osm_id":"488298486","tag":{"amenity":"waste_basket"}},"type":"Feature"},
	{"geometry":{"coordinates":[24.967011,60.204196],"type":"Point"},"properties":{"osm_id":"488298499","tag":{"amenity":"waste_basket"}},"type":"Feature"},
	{"geometry":{"coordinates":[24.968156,60.204595],"type":"Point"},"properties":{"osm_id":"488298522","tag":{"amenity":"waste_basket"}},"type":"Feature"},
	{"geometry":{"coordinates":[24.963534,60.209479],"type":"Point"},"properties":{"osm_id":"554115767","tag":{"access":"private","amenity":"waste_disposal","waste":"trash"}},"type":"Feature"},
	{"geometry":{"coordinates":[24.962437,60.199077],"type":"Point"},"properties":{"osm_id":"559977392","tag":{"amenity":"waste_basket"}},"type":"Feature"},
	{"geometry":{"coordinates":[24.965382,60.19997],"type":"Point"},"properties":{"osm_id":"559977466","tag":{"amenity":"waste_basket"}},"type":"Feature"},
	{"geometry":{"coordinates":[24.963773,60.200594],"type":"Point"},"properties":{"osm_id":"560242573","tag":{"amenity":"waste_basket"}},"type":"Feature"},
	{"geometry":{"coordinates":[24.963475,60.19866],"type":"Point"},"properties":{"osm_id":"560249723","tag":{"amenity":"waste_basket"}},"type":"Feature"},
	{"geometry":{"coordinates":[24.961959,60.200533],"type":"Point"},"properties":{"osm_id":"560400538","tag":{"amenity":"waste_basket","waste_basket":"molok"}},"type":"Feature"},
	{"geometry":{"coordinates":[24.96301,60.20006],"type":"Point"},"properties":{"osm_id":"560400544","tag":{"amenity":"waste_basket"}},"type":"Feature"},
	{"geometry":{"coordinates":[24.963934,60.196619],"type":"Point"},"properties":{"osm_id":"568364532","tag":{"amenity":"waste_disposal","waste":"household"}},"type":"Feature"},
	{"geometry":{"coordinates":[24.96502,60.196615],"type":"Point"},"properties":{"osm_id":"568364534","tag":{"amenity":"waste_disposal","waste":"household"}},"type":"Feature"},
	{"geometry":{"coordinates":[24.965203,60.210214],"type":"Point"},"properties":{"osm_id":"580854654","tag":{"amenity":"waste_basket"}},"type":"Feature"},
	{"geometry":{"coordinates":[24.967524,60.216222],"type":"Point"},"properties":{"osm_id":"582541408","tag":{"amenity":"recycling","operator":"UFF","recycling:clothes":"yes"}},"type":"Feature"},
	{"geometry":{"coordinates":[24.969474,60.205761],"type":"Point"},"properties":{"osm_id":"597752311","tag":{"amenity":"waste_basket"}},"type":"Feature"},
	{"geometry":{"coordinates":[24.97049,60.204974],"type":"Point"},"properties":{"osm_id":"597758900","tag":{"amenity":"waste_basket"}},"type":"Feature"},
	{"geometry":{"coordinates":[24.971901,60.198371],"type":"Point"},"properties":{"osm_id":"659377375","tag":{"amenity":"recycling","recycling:batteries":"yes","recycling:cans":"yes","recycling:glass":"yes","recycling:paper":"yes","recycling:plastic_bags":"yes","recycling:scrap_metal":"yes","recycling_type":"container"}},"type":"Feature"},
	{"geometry":{"coordinates":[24.97208,60.198366],"type":"Point"},"properties":{"osm_id":"659377418","tag":{"amenity":"recycling","recycling:batteries":"yes","recycling:fluorescent_tubes":"yes","recycling:low_energy_bulbs":"yes","recycling:mobile_phones":"yes","recycling_type":"container"}},"type":"Feature"},
	{"geometry":{"coordinates":[24.961184,60.197375],"type":"Point"},"properties":{"osm_id":"660402523","tag":{"amenity":"waste_basket"}},"type":"Feature"},
	{"geometry":{"coordinates":[24.961032,60.197196],"type":"Point"},"properties":{"osm_id":"660402627","tag":{"amenity":"waste_basket"}},"type":"Feature"},
	{"geometry":{"coordinates":[24.960946,60.196816],"type":"Point"},"properties":{"osm_id":"660402630","tag":{"amenity":"waste_basket"}},"type":"Feature"},
	{"geometry":{"coordinates":[24.961399,60.197061],"type":"Point"},"properties":{"osm_id":"660402632","tag":{"amenity":"waste_basket"}},"type":"Feature"},
	{"geometry":{"coordinates":[24.965571,60.19709],"type":"Point"},"properties":{"osm_id":"660616726","tag":{"amenity":"waste_basket"}},"type":"Feature"},
	{"geometry":{"coordinates":[24.965835,60.199137],"type":"Point"},"properties":{"osm_id":"660624175","tag":{"amenity":"waste_basket"}},"type":"Feature"},
	{"geometry":{"coordinates":[24.965483,60.198481],"type":"Point"},"properties":{"osm_id":"664153676","tag":{"amenity":"waste_basket"}},"type":"Feature"},
	{"geometry":{"coordinates":[24.97541,60.208576],"type":"Point"},"properties":{"osm_id":"664174355","tag":{"amenity":"waste_basket"}},"type":"Feature"},
	{"geometry":{"coordinates":[24.97755,60.210751],"type":"Point"},"properties":{"osm_id":"664435419","tag":{"amenity":"waste_basket"}},"type":"Feature"},
	{"geometry":{"coordinates":[24.976749,60.211258],"type":"Point"},"properties":{"osm_id":"664436324","tag":{"amenity":"waste_basket"}},"type":"Feature"},
	{"geometry":{"coordinates":[24.976703,60.210721],"type":"Point"},"properties":{"osm_id":"664436697","tag":{"amenity":"recycling","recycling:cardboard":"yes"}},"type":"Feature"},
	{"geometry":{"coordinates":[25.043396,60.21429],"type":"Point"},"properties":{"osm_id":"667121597","tag":{"amenity":"recycling","recycling:batteries":"yes","recycling:fluorescent_tubes":"yes","recycling:low_energy_bulbs":"yes","recycling:mobile_phones":"yes"}},"type":"Feature"},
	{"geometry":{"coordinates":[24.962103,60.204732],"type":"Point"},"properties":{"osm_id":"695159873","tag":{"amenity":"waste_basket"}},"type":"Feature"},
	{"geometry":{"coordinates":[24.962625,60.204791],"type":"Point"},"properties":{"osm_id":"695159878","tag":{"amenity":"waste_basket"}},"type":"Feature"},
	{"geometry":{"coordinates":[24.965312,60.229746],"type":"Point"},"properties":{"osm_id":"702033696","tag":{"amenity":"waste_basket"}},"type":"Feature"},
	{"geometry":{"coordinates":[24.965482,60.229775],"type":"Point"},"properties":{"osm_id":"702033703","tag":{"amenity":"waste_basket"}},"type":"Feature"},
	{"geometry":{"coordinates":[24.968735,60.224834],"type":"Point"},"properties":{"osm_id":"702385857","tag":{"amenity":"waste_basket"}},"type":"Feature"},
	{"geometry":{"coordinates":[24.969454,60.217893],"type":"Point"},"properties":{"osm_id":"702413061","tag":{"amenity":"waste_disposal","waste":"household"}},"type":"Feature"},
	{"geometry":{"coordinates":[24.969006,60.216394],"type":"Point"},"properties":{"osm_id":"702424751","tag":{"amenity":"waste_basket"}},"type":"Feature"},
	{"geometry":{"coordinates":[25.048792,60.213487],"type":"Point"},"properties":{"osm_id":"705525359","tag":{"amenity":"waste_basket"}},"type":"Feature"},
	{"geometry":{"coordinates":[24.985504,60.217665],"type":"Point"},"properties":{"osm_id":"708491765","tag":{"amenity":"waste_basket"}},"type":"Feature"},
	{"geometry":{"coordinates":[24.986295,60.216742],"type":"Point"},"properties":{"osm_id":"708493711","tag":{"amenity":"waste_basket"}},"type":"Feature"},
	{"geometry":{"coordinates":[24.978804,60.208513],"type":"Point"},"properties":{"osm_id":"730792701","tag":{"amenity":"waste_basket"}},"type":"Feature"},
	{"geometry":{"coordinates":[24.98168,60.20989],"type":"Point"},"properties":{"osm_id":"731137088","tag":{"amenity":"waste_basket"}},"type":"Feature"},
	{"geometry":{"coordinates":[24.981349,60.210203],"type":"Point"},"properties":{"osm_id":"731137103","tag":{"amenity":"waste_basket"}},"type":"Feature"},
	{"geometry":{"coordinates":[24.98141,60.209433],"type":"Point"},"properties":{"osm_id":"731213124","tag":{"amenity":"waste_basket"}},"type":"Feature"},
	{"geometry":{"coordinates":[24.968204,60.211053],"type":"Point"},"properties":{"osm_id":"742882716","tag":{"amenity":"waste_basket"}},"type":"Feature"},
	{"geometry":{"coordinates":[24.974188,60.206721],"type":"Point"},"properties":{"osm_id":"742947245","tag":{"amenity":"waste_basket"}},"type":"Feature"},
	{"geometry":{"coordinates":[24.967297,60.217881],"type":"Point"},"properties":{"osm_id":"745684066","tag":{"amenity":"waste_disposal","waste":"household"}},"type":"Feature"},
	{"geometry":{"coordinates":[24.970249,60.216895],"type":"Point"},"properties":{"osm_id":"745732526","tag":{"amenity":"waste_basket"}},"type":"Feature"},
	{"geometry":{"coordinates":[24.971219,60.217138],"type":"Point"},"properties":{"osm_id":"745732527","tag":{"amenity":"waste_basket"}},"type":"Feature"},
	{"geometry":{"coordinates":[24.971563,60.217416],"type":"Point"},"properties":{"osm_id":"745732528","tag":{"amenity":"waste_basket"}},"type":"Feature"},
	{"geometry":{"coordinates":[24.9646,60.219425],"type":"Point"},"properties":{"osm_id":"745737382","tag":{"amenity":"waste_basket"}},"type":"Feature"},
	{"geometry":{"coordinates":[24.964722,60.219264],"type":"Point"},"properties":{"osm_id":"745737397","tag":{"amenity":"waste_basket"}},"type":"Feature"},
	{"geometry":{"coordinates":[24.964303,60.218932],"type":"Point"},"properties":{"osm_id":"745737401","tag":{"amenity":"waste_basket"}},"type":"Feature"},
	{"geometry":{"coordinates":[24.964799,60.218861],"type":"Point"},"properties":{"osm_id":"745737405","tag":{"amenity":"waste_basket"}},"type":"Feature"},
	{"geometry":{"coordinates":[24.962802,60.219405],"type":"Point"},"properties":{"osm_id":"745738312","tag":{"amenity":"waste_basket"}},"type":"Feature"},
	{"geometry":{"coordinates":[24.978436,60.215766],"type":"Point"},"properties":{"osm_id":"749173196","tag":{"amenity":"waste_basket"}},"type":"Feature"},
	{"geometry":{"coordinates":[24.968485,60.196718],"type":"Point"},"properties":{"osm_id":"764629166","tag":{"amenity":"waste_basket"}},"type":"Feature"},
	{"geometry":{"coordinates":[24.966626,60.197139],"type":"Point"},"properties":{"osm_id":"764629328","tag":{"amenity":"waste_basket"}},"type":"Feature"},
	{"geometry":{"coordinates":[24.967062,60.197023],"type":"Point"},"properties":{"osm_id":"764734449","tag":{"amenity":"waste_basket"}},"type":"Feature"},
	{"geometry":{"coordinates":[24.989502,60.235939],"type":"Point"},"properties":{"osm_id":"774475110","tag":{"amenity":"waste_basket"}},"type":"Feature"},
	{"geometry":{"coordinates":[24.981605,60.230781],"type":"Point"},"properties":{"osm_id":"774475114","tag":{"amenity":"waste_basket","bicycle":"yes","foot":"yes","guidepost":"destination"}},"type":"Feature"},
	{"geometry":{"coordinates":[24.990614,60.231367],"type":"Point"},"properties":{"osm_id":"774475116","tag":{"amenity":"waste_basket"}},"type":"Feature"},
	{"geometry":{"coordinates":[24.986543,60.216024],"type":"Point"},"properties":{"osm_id":"774544458","tag":{"amenity":"waste_basket"}},"type":"Feature"},
	{"geometry":{"coordinates":[25.040117,60.205318],"type":"Point"},"properties":{"osm_id":"796265803","tag":{"amenity":"waste_basket"}},"type":"Feature"},
	{"geometry":{"coordinates":[25.037109,60.20542],"type":"Point"},"properties":{"osm_id":"796269448","tag":{"amenity":"waste_basket"}},"type":"Feature"},
	{"geometry":{"coordinates":[25.000316,60.196919],"type":"Point"},"properties":{"osm_id":"802256967","tag":{"amenity":"waste_basket"}},"type":"Feature"},
	{"geometry":{"coordinates":[25.029673,60.205714],"type":"Point"},"properties":{"osm_id":"804697001","tag":{"amenity":"waste_basket"}},"type":"Feature"},
	{"geometry":{"coordinates":[25.044739,60.209449],"type":"Point"},"properties":{"osm_id":"805862259","tag":{"amenity":"waste_basket"}},"type":"Feature"},
	{"geometry":{"coordinates":[25.041382,60.197851],"type":"Point"},"properties":{"osm_id":"806308757","tag":{"amenity":"waste_basket"}},"type":"Feature"},
	{"geometry":{"coordinates":[25.039918,60.196625],"type":"Point"},"properties":{"osm_id":"806308758","tag":{"amenity":"waste_basket"}},"type":"Feature"},
	{"geometry":{"coordinates":[25.041396,60.197149],"type":"Point"},"properties":{"osm_id":"806308759","tag":{"amenity":"waste_basket"}},"type":"Feature"},
	{"geometry":{"coordinates":[25.039704,60.196734],"type":"Point"},"properties":{"osm_id":"806308760","tag":{"amenity":"waste_basket"}},"type":"Feature"},
	{"geometry":{"coordinates":[25.039232,60.19625],"type":"Point"},"properties":{"osm_id":"806308762","tag":{"amenity":"waste_basket"}},"type":"Feature"},
	{"geometry":{"coordinates":[25.041783,60.19859],"type":"Point"},"properties":{"osm_id":"806308763","tag":{"amenity":"waste_basket"}},"type":"Feature"},
	{"geometry":{"coordinates":[25.033941,60.197545],"type":"Point"},"properties":{"osm_id":"809550730","tag":{"amenity":"waste_basket"}},"type":"Feature"},
	{"geometry":{"coordinates":[25.038712,60.202805],"type":"Point"},"properties":{"osm_id":"809550733","tag":{"amenity":"waste_basket"}},"type":"Feature"},
	{"geometry":{"coordinates":[25.036269,60.199016],"type":"Point"},"properties":{"osm_id":"809550735","tag":{"amenity":"waste_basket"}},"type":"Feature"},
	{"geometry":{"coordinates":[25.03353,60.196947],"type":"Point"},"properties":{"osm_id":"809550736","tag":{"amenity":"waste_basket"}},"type":"Feature"},
	{"geometry":{"coordinates":[25.040513,60.197604],"type":"Point"},"properties":{"osm_id":"821343652","tag":{"amenity":"waste_basket"}},"type":"Feature"},
	{"geometry":{"coordinates":[24.976703,60.228323],"type":"Point"},"properties":{"osm_id":"877658731","tag":{"amenity":"recycling","recycling:paper":"yes","recycling_type":"container"}},"type":"Feature"},
	{"geometry":{"coordinates":[24.977989,60.212198],"type":"Point"},"properties":{"osm_id":"899320740","tag":{"amenity":"waste_basket"}},"type":"Feature"},
	{"geometry":{"coordinates":[25.009485,60.226077],"type":"Point"},"properties":{"osm_id":"1235556693","tag":{"amenity":"waste_basket"}},"type":"Feature"},
	{"geometry":{"coordinates":[25.009441,60.225805],"type":"Point"},"properties":{"osm_id":"1236971150","tag":{"amenity":"waste_basket"}},"type":"Feature"},
	{"geometry":{"coordinates":[25.009986,60.22579],"type":"Point"},"properties":{"osm_id":"1254317227","tag":{"amenity":"waste_basket"}},"type":"Feature"},
	{"geometry":{"coordinates":[25.014044,60.226712],"type":"Point"},"properties":{"osm_id":"1260679844","tag":{"amenity":"waste_basket"}},"type":"Feature"},
	{"geometry":{"coordinates":[25.015856,60.225922],"type":"Point"},"properties":{"osm_id":"1260679946","tag":{"amenity":"waste_basket"}},"type":"Feature"},
	{"geometry":{"coordinates":[25.014842,60.226552],"type":"Point"},"properties":{"osm_id":"1260679962","tag":{"amenity":"waste_basket"}},"type":"Feature"},
	{"geometry":{"coordinates":[24.996435,60.226321],"type":"Point"},"properties":{"osm_id":"1264708416","tag":{"amenity":"waste_basket"}},"type":"Feature"},
	{"geometry":{"coordinates":[25.000615,60.228399],"type":"Point"},"properties":{"osm_id":"1274193506","tag":{"amenity":"waste_basket"}},"type":"Feature"},
	{"geometry":{"coordinates":[24.999685,60.228107],"type":"Point"},"properties":{"osm_id":"1274193514","tag":{"amenity":"waste_basket"}},"type":"Feature"},
	{"geometry":{"coordinates":[25.029435,60.224773],"type":"Point"},"properties":{"osm_id":"1278023157","tag":{"amenity":"waste_basket"}},"type":"Feature"},
	{"geometry":{"coordinates":[25.023928,60.225602],"type":"Point"},"properties":{"osm_id":"1278062751","tag":{"amenity":"waste_basket"}},"type":"Feature"},
	{"geometry":{"coordinates":[25.000752,60.230201],"type":"Point"},"properties":{"osm_id":"1279069725","tag":{"amenity":"waste_basket","tobacco":"yes"}},"type":"Feature"},
	{"geometry":{"coordinates":[25.000121,60.228497],"type":"Point"},"properties":{"osm_id":"1279069735","tag":{"amenity":"waste_basket"}},"type":"Feature"},
	{"geometry":{"coordinates":[25.00063,60.228499],"type":"Point"},"properties":{"osm_id":"1279069755","tag":{"amenity":"waste_basket"}},"type":"Feature"},
	{"geometry":{"coordinates":[25.012719,60.224721],"type":"Point"},"properties":{"osm_id":"1283145187","tag":{"amenity":"waste_basket"}},"type":"Feature"},
	{"geometry":{"coordinates":[25.016774,60.224305],"type":"Point"},"properties":{"osm_id":"1283983826","tag":{"amenity":"waste_basket"}},"type":"Feature"},
	{"geometry":{"coordinates":[25.014032,60.22456],"type":"Point"},"properties":{"osm_id":"1283983846","tag":{"amenity":"waste_basket"}},"type":"Feature"},
	{"geometry":{"coordinates":[25.014666,60.224621],"type":"Point"},"properties":{"osm_id":"1283984007","tag":{"amenity":"waste_basket"}},"type":"Feature"},
	{"geometry":{"coordinates":[25.010913,60.226285],"type":"Point"},"properties":{"osm_id":"1287982098","tag":{"amenity":"waste_basket","graffiti:tag":"NDW FOLZ; WNEIN"}},"type":"Feature"},
	{"geometry":{"coordinates":[25.013531,60.227921],"type":"Point"},"properties":{"osm_id":"1287997631","tag":{"amenity":"waste_basket"}},"type":"Feature"},
	{"geometry":{"coordinates":[25.01147,60.225938],"type":"Point"},"properties":{"osm_id":"1287997638","tag":{"amenity":"waste_basket"}},"type":"Feature"},
	{"geometry":{"coordinates":[25.002427,60.230692],"type":"Point"},"properties":{"osm_id":"1293037582","tag":{"entrance":"service"}},"type":"Feature"},
	{"geometry":{"coordinates":[25.002455,60.230703],"type":"Point"},"properties":{"osm_id":"1293037667","tag":{"graffiti:tag":"shepo"}},"type":"Feature"},
	{"geometry":{"coordinates":[25.000501,60.23012],"type":"Point"},"properties":{"osm_id":"1293037691","tag":{"amenity":"waste_basket"}},"type":"Feature"},
	{"geometry":{"coordinates":[24.996594,60.227798],"type":"Point"},"properties":{"osm_id":"1293086249","tag":{"amenity":"waste_basket"}},"type":"Feature"},
	{"geometry":{"coordinates":[24.99705,60.227505],"type":"Point"},"properties":{"osm_id":"1293086296","tag":{"amenity":"waste_basket"}},"type":"Feature"},
	{"geometry":{"coordinates":[24.997791,60.228533],"type":"Point"},"properties":{"osm_id":"1293086298","tag":{"amenity":"waste_basket"}},"type":"Feature"},
	{"geometry":{"coordinates":[24.999058,60.228953],"type":"Point"},"properties":{"osm_id":"1293086367","tag":{"amenity":"waste_basket"}},"type":"Feature"},
	{"geometry":{"coordinates":[25.025403,60.221069],"type":"Point"},"properties":{"osm_id":"1295500033","tag":{"amenity":"waste_basket","graffiti:tag":"Shaman"}},"type":"Feature"},
	{"geometry":{"coordinates":[25.020462,60.229664],"type":"Point"},"properties":{"osm_id":"1296143952","tag":{"amenity":"waste_basket"}},"type":"Feature"},
	{"geometry":{"coordinates":[25.011857,60.226182],"type":"Point"},"properties":{"osm_id":"1299339217","tag":{"amenity":"waste_basket","noise:LAeq:winter:evening_peak":"40 dB"}},"type":"Feature"},
	{"geometry":{"coordinates":[25.019459,60.223679],"type":"Point"},"properties":{"osm_id":"1299352864","tag":{"amenity":"waste_basket"}},"type":"Feature"},
	{"geometry":{"coordinates":[25.019866,60.223596],"type":"Point"},"properties":{"osm_id":"1299352886","tag":{"amenity":"waste_basket"}},"type":"Feature"},
	{"geometry":{"coordinates":[25.018938,60.223786],"type":"Point"},"properties":{"osm_id":"1299352904","tag":{"amenity":"waste_basket"}},"type":"Feature"},
	{"geometry":{"coordinates":[25.020734,60.223415],"type":"Point"},"properties":{"osm_id":"1299352905","tag":{"amenity":"waste_basket"}},"type":"Feature"},
	{"geometry":{"coordinates":[25.014102,60.226155],"type":"Point"},"properties":{"osm_id":"1300513984","tag":{"amenity":"waste_basket"}},"type":"Feature"},
	{"geometry":{"coordinates":[25.009529,60.220383],"type":"Point"},"properties":{"osm_id":"1300514985","tag":{"amenity":"waste_basket","graffiti:tag":"MALL;IPFAMS"}},"type":"Feature"},
	{"geometry":{"coordinates":[25.016967,60.219032],"type":"Point"},"properties":{"osm_id":"1300527971","tag":{"amenity":"waste_basket"}},"type":"Feature"},
	{"geometry":{"coordinates":[25.014063,60.227628],"type":"Point"},"properties":{"osm_id":"1309021057","tag":{"amenity":"waste_basket"}},"type":"Feature"},
	{"geometry":{"coordinates":[25.014847,60.227802],"type":"Point"},"properties":{"osm_id":"1309021090","tag":{"amenity":"waste_basket"}},"type":"Feature"},
	{"geometry":{"coordinates":[25.042535,60.218875],"type":"Point"},"properties":{"osm_id":"1313950219","tag":{"amenity":"waste_basket","graffiti:tag":"JWG;PEWS!!;WTA!!"}},"type":"Feature"},
	{"geometry":{"coordinates":[25.045463,60.214743],"type":"Point"},"properties":{"osm_id":"1314105466","tag":{"amenity":"recycling","location":"overground","recycling:paper":"yes","recycling_type":"container"}},"type":"Feature"},
	{"geometry":{"coordinates":[25.048452,60.215336],"type":"Point"},"properties":{"osm_id":"1314211830","tag":{"access":"private","amenity":"waste_disposal","waste":"household"}},"type":"Feature"},
	{"geometry":{"coordinates":[25.033844,60.226922],"type":"Point"},"properties":{"osm_id":"1314262943","tag":{"amenity":"waste_basket"}},"type":"Feature"},
	{"geometry":{"coordinates":[25.031352,60.227263],"type":"Point"},"properties":{"osm_id":"1314274424","tag":{"amenity":"waste_basket"}},"type":"Feature"},
	{"geometry":{"coordinates":[25.031177,60.227496],"type":"Point"},"properties":{"osm_id":"1314275325","tag":{"amenity":"waste_basket"}},"type":"Feature"},
	{"geometry":{"coordinates":[25.02737,60.22702],"type":"Point"},"properties":{"osm_id":"1314281274","tag":{"amenity":"waste_basket"}},"type":"Feature"},
	{"geometry":{"coordinates":[25.016957,60.225446],"type":"Point"},"properties":{"osm_id":"1317748345","tag":{"amenity":"waste_basket"}},"type":"Feature"},
	{"geometry":{"coordinates":[25.016923,60.225491],"type":"Point"},"properties":{"osm_id":"1317748354","tag":{"amenity":"waste_basket"}},"type":"Feature"},
	{"geometry":{"coordinates":[25.016114,60.226204],"type":"Point"},"properties":{"osm_id":"1317748374","tag":{"amenity":"waste_basket"}},"type":"Feature"},
	{"geometry":{"coordinates":[25.013546,60.227415],"type":"Point"},"properties":{"osm_id":"1318585076","tag":{"amenity":"waste_basket"}},"type":"Feature"},
	{"geometry":{"coordinates":[25.01269,60.232065],"type":"Point"},"properties":{"osm_id":"1320034301","tag":{"amenity":"waste_basket"}},"type":"Feature"},
	{"geometry":{"coordinates":[25.01218,60.232474],"type":"Point"},"properties":{"osm_id":"1320034302","tag":{"amenity":"waste_basket"}},"type":"Feature"},
	{"geometry":{"coordinates":[25.01523,60.22374],"type":"Point"},"properties":{"osm_id":"1321591440","tag":{"amenity":"waste_basket"}},"type":"Feature"},
	{"geometry":{"coordinates":[25.014744,60.223777],"type":"Point"},"properties":{"osm_id":"1321591473","tag":{"amenity":"waste_basket"}},"type":"Feature"},
	{"geometry":{"coordinates":[25.001175,60.229796],"type":"Point"},"properties":{"osm_id":"1324625450","tag":{"amenity":"waste_basket"}},"type":"Feature"},
	{"geometry":{"coordinates":[25.001178,60.22956],"type":"Point"},"properties":{"osm_id":"1324625468","tag":{"amenity":"waste_basket"}},"type":"Feature"},
	{"geometry":{"coordinates":[25.001846,60.230939],"type":"Point"},"properties":{"osm_id":"1324625472","tag":{"amenity":"waste_basket"}},"type":"Feature"},
	{"geometry":{"coordinates":[25.00093,60.2297],"type":"Point"},"properties":{"osm_id":"1324625496","tag":{"amenity":"waste_basket"}},"type":"Feature"},
	{"geometry":{"coordinates":[25.001492,60.229603],"type":"Point"},"properties":{"osm_id":"1324625520","tag":{"amenity":"waste_basket"}},"type":"Feature"},
	{"geometry":{"coordinates":[25.001738,60.230669],"type":"Point"},"properties":{"osm_id":"1324625538","tag":{"amenity":"waste_basket","graffiti:tag":"DPJ"}},"type":"Feature"},
	{"geometry":{"coordinates":[24.998777,60.231562],"type":"Point"},"properties":{"highway":"street_lamp","osm_id":"1324643006","tag":{"amenity":"waste_basket","graffiti:tag":"PHS","traffic_sign":"FI:423"}},"type":"Feature"},
	{"geometry":{"coordinates":[24.999042,60.231442],"type":"Point"},"properties":{"highway":"street_lamp","osm_id":"1324643015","tag":{"amenity":"waste_basket","graffiti:tag":"LSB"}},"type":"Feature"},
	{"geometry":{"coordinates":[25.001469,60.229315],"type":"Point"},"properties":{"osm_id":"1324645223","tag":{"amenity":"waste_basket","graffiti:tag":"Uyst tibs"}},"type":"Feature"},
	{"geometry":{"coordinates":[25.011356,60.225426],"type":"Point"},"properties":{"osm_id":"1326398216","tag":{"amenity":"waste_basket"}},"type":"Feature"},
	{"geometry":{"coordinates":[25.012343,60.226034],"type":"Point"},"properties":{"osm_id":"1359536902","tag":{"amenity":"waste_basket"}},"type":"Feature"},
	{"geometry":{"coordinates":[25.003155,60.219071],"type":"Point"},"properties":{"osm_id":"1371310423","tag":{"amenity":"waste_basket"}},"type":"Feature"},
	{"geometry":{"coordinates":[25.018635,60.223978],"type":"Point"},"properties":{"osm_id":"1392016034","tag":{"amenity":"waste_basket"}},"type":"Feature"},
	{"geometry":{"coordinates":[24.972203,60.208263],"type":"Point"},"properties":{"osm_id":"1397453777","tag":{"amenity":"waste_basket"}},"type":"Feature"},
	{"geometry":{"coordinates":[24.975761,60.209633],"type":"Point"},"properties":{"osm_id":"1397453803","tag":{"amenity":"waste_basket"}},"type":"Feature"},
	{"geometry":{"coordinates":[24.978478,60.212082],"type":"Point"},"properties":{"osm_id":"1397777483","tag":{"amenity":"waste_basket"}},"type":"Feature"},
	{"geometry":{"coordinates":[24.978877,60.217332],"type":"Point"},"properties":{"osm_id":"1398421328","tag":{"amenity":"waste_basket"}},"type":"Feature"},
	{"geometry":{"coordinates":[24.98475,60.225101],"type":"Point"},"properties":{"osm_id":"1398434950","tag":{"amenity":"waste_basket","graffiti:tag":"SHB"}},"type":"Feature"},
	{"geometry":{"coordinates":[25.016203,60.226118],"type":"Point"},"properties":{"osm_id":"1399692264","tag":{"amenity":"waste_basket"}},"type":"Feature"},
	{"geometry":{"coordinates":[25.012032,60.227074],"type":"Point"},"properties":{"osm_id":"1401976164","tag":{"amenity":"waste_basket"}},"type":"Feature"},
	{"geometry":{"coordinates":[25.018272,60.228618],"type":"Point"},"properties":{"osm_id":"1403143995","tag":{"amenity":"waste_basket"}},"type":"Feature"},
	{"geometry":{"coordinates":[25.016284,60.228514],"type":"Point"},"properties":{"osm_id":"1403144001","tag":{"amenity":"waste_basket"}},"type":"Feature"},
	{"geometry":{"coordinates":[25.025024,60.230941],"type":"Point"},"properties":{"osm_id":"1406283373","tag":{"amenity":"waste_basket"}},"type":"Feature"},
	{"geometry":{"coordinates":[25.026048,60.2315],"type":"Point"},"properties":{"osm_id":"1406289578","tag":{"amenity":"waste_basket"}},"type":"Feature"},
	{"geometry":{"coordinates":[25.02538,60.231136],"type":"Point"},"properties":{"osm_id":"1406289585","tag":{"amenity":"waste_basket"}},"type":"Feature"},
	{"geometry":{"coordinates":[25.026088,60.231709],"type":"Point"},"properties":{"osm_id":"1406293309","tag":{"amenity":"waste_basket"}},"type":"Feature"},
	{"geometry":{"coordinates":[25.026425,60.231833],"type":"Point"},"properties":{"osm_id":"1406293313","tag":{"amenity":"waste_basket"}},"type":"Feature"},
	{"geometry":{"coordinates":[25.027466,60.232281],"type":"Point"},"properties":{"osm_id":"1406320219","tag":{"amenity":"waste_basket"}},"type":"Feature"},
	{"geometry":{"coordinates":[25.028659,60.231879],"type":"Point"},"properties":{"osm_id":"1406320255","tag":{"amenity":"waste_basket"}},"type":"Feature"},
	{"geometry":{"coordinates":[25.028153,60.231639],"type":"Point"},"properties":{"osm_id":"1406323457","tag":{"amenity":"waste_basket"}},"type":"Feature"},
	{"geometry":{"coordinates":[25.029354,60.231438],"type":"Point"},"properties":{"osm_id":"1406332489","tag":{"amenity":"waste_basket"}},"type":"Feature"},
	{"geometry":{"coordinates":[25.029023,60.228687],"type":"Point"},"properties":{"osm_id":"1406387585","tag":{"amenity":"waste_basket"}},"type":"Feature"},
	{"geometry":{"coordinates":[25.028372,60.228446],"type":"Point"},"properties":{"highway":"street_lamp","osm_id":"1406387586","tag":{"amenity":"waste_basket"}},"type":"Feature"},
	{"geometry":{"coordinates":[25.028183,60.227681],"type":"Point"},"properties":{"osm_id":"1406390065","tag":{"amenity":"waste_basket"}},"type":"Feature"},
	{"geometry":{"coordinates":[25.016919,60.22568],"type":"Point"},"properties":{"osm_id":"1408261569","tag":{"amenity":"waste_basket"}},"type":"Feature"},
	{"geometry":{"coordinates":[24.974814,60.239533],"type":"Point"},"properties":{"osm_id":"1412865603","tag":{"amenity":"waste_basket"}},"type":"Feature"},
	{"geometry":{"coordinates":[24.976971,60.239247],"type":"Point"},"properties":{"osm_id":"1412865604","tag":{"amenity":"waste_basket"}},"type":"Feature"},
	{"geometry":{"coordinates":[24.970536,60.2383],"type":"Point"},"properties":{"highway":"street_lamp","osm_id":"1412865613","tag":{"amenity":"waste_basket"}},"type":"Feature"},
	{"geometry":{"coordinates":[24.975762,60.239586],"type":"Point"},"properties":{"osm_id":"1412865635","tag":{"amenity":"waste_basket"}},"type":"Feature"},
	{"geometry":{"coordinates":[25.009851,60.215229],"type":"Point"},"properties":{"osm_id":"1425037408","tag":{"amenity":"waste_basket","disquised":"yes"}},"type":"Feature"},
	{"geometry":{"coordinates":[25.012368,60.215977],"type":"Point"},"properties":{"osm_id":"1425037412","tag":{"amenity":"waste_basket","disquised":"yes"}},"type":"Feature"},
	{"geometry":{"coordinates":[25.00454,60.219505],"type":"Point"},"properties":{"osm_id":"1425046199","tag":{"amenity":"waste_basket"}},"type":"Feature"},
	{"geometry":{"coordinates":[25.013527,60.226128],"type":"Point"},"properties":{"osm_id":"1426217487","tag":{"amenity":"waste_basket"}},"type":"Feature"},
	{"geometry":{"coordinates":[24.968538,60.226215],"type":"Point"},"properties":{"osm_id":"1431147466","tag":{"amenity":"waste_basket"}},"type":"Feature"},
	{"geometry":{"coordinates":[24.968756,60.226558],"type":"Point"},"properties":{"osm_id":"1431147469","tag":{"amenity":"waste_basket"}},"type":"Feature"},
	{"geometry":{"coordinates":[24.96877,60.226589],"type":"Point"},"properties":{"osm_id":"1431147472","tag":{"amenity":"waste_basket"}},"type":"Feature"},
	{"geometry":{"coordinates":[24.969313,60.226567],"type":"Point"},"properties":{"osm_id":"1431147612","tag":{"amenity":"waste_basket"}},"type":"Feature"},
	{"geometry":{"coordinates":[25.028713,60.225263],"type":"Point"},"properties":{"osm_id":"1437202368","tag":{"amenity":"waste_basket"}},"type":"Feature"},
	{"geometry":{"coordinates":[25.008897,60.232958],"type":"Point"},"properties":{"osm_id":"1462184633","tag":{"amenity":"waste_basket"}},"type":"Feature"},
	{"geometry":{"coordinates":[25.008688,60.233143],"type":"Point"},"properties":{"osm_id":"1462184636","tag":{"amenity":"waste_basket"}},"type":"Feature"},
	{"geometry":{"coordinates":[25.009381,60.233676],"type":"Point"},"properties":{"osm_id":"1462184653","tag":{"amenity":"waste_basket"}},"type":"Feature"},
	{"geometry":{"coordinates":[25.007722,60.232988],"type":"Point"},"properties":{"osm_id":"1462400131","tag":{"amenity":"waste_basket"}},"type":"Feature"},
	{"geometry":{"coordinates":[25.048378,60.231146],"type":"Point"},"properties":{"osm_id":"1463763765","tag":{"amenity":"waste_basket"}},"type":"Feature"},
	{"geometry":{"coordinates":[25.047383,60.231741],"type":"Point"},"properties":{"osm_id":"1463763773","tag":{"amenity":"waste_basket"}},"type":"Feature"},
	{"geometry":{"coordinates":[25.048432,60.232026],"type":"Point"},"properties":{"osm_id":"1463763787","tag":{"amenity":"waste_basket"}},"type":"Feature"},
	{"geometry":{"coordinates":[25.048194,60.232149],"type":"Point"},"properties":{"osm_id":"1463763793","tag":{"amenity":"waste_basket"}},"type":"Feature"},
	{"geometry":{"coordinates":[25.045354,60.232633],"type":"Point"},"properties":{"osm_id":"1463783416","tag":{"amenity":"waste_basket"}},"type":"Feature"},
	{"geometry":{"coordinates":[25.042455,60.232582],"type":"Point"},"properties":{"osm_id":"1467429688","tag":{"amenity":"waste_basket"}},"type":"Feature"},
	{"geometry":{"coordinates":[25.04407,60.233076],"type":"Point"},"properties":{"osm_id":"1467429766","tag":{"amenity":"waste_basket"}},"type":"Feature"},
	{"geometry":{"coordinates":[25.043883,60.233524],"type":"Point"},"properties":{"osm_id":"1467429859","tag":{"amenity":"waste_basket"}},"type":"Feature"},
	{"geometry":{"coordinates":[25.041473,60.231715],"type":"Point"},"properties":{"osm_id":"1470690923","tag":{"amenity":"waste_basket","graffiti:tag":"seven"}},"type":"Feature"},
	{"geometry":{"coordinates":[25.041163,60.234433],"type":"Point"},"properties":{"osm_id":"1470702725","tag":{"amenity":"waste_basket"}},"type":"Feature"},
	{"geometry":{"coordinates":[25.042244,60.234268],"type":"Point"},"properties":{"osm_id":"1470704689","tag":{"amenity":"waste_basket"}},"type":"Feature"},
	{"geometry":{"coordinates":[25.042527,60.234523],"type":"Point"},"properties":{"osm_id":"1470705233","tag":{"amenity":"waste_basket"}},"type":"Feature"},
	{"geometry":{"coordinates":[25.043474,60.233178],"type":"Point"},"properties":{"osm_id":"1470710998","tag":{"amenity":"waste_basket"}},"type":"Feature"},
	{"geometry":{"coordinates":[25.045105,60.234037],"type":"Point"},"properties":{"osm_id":"1470711689","tag":{"amenity":"waste_basket"}},"type":"Feature"},
	{"geometry":{"coordinates":[25.014465,60.22584],"type":"Point"},"properties":{"osm_id":"1470943717","tag":{"amenity":"waste_basket"}},"type":"Feature"},
	{"geometry":{"coordinates":[25.021131,60.229358],"type":"Point"},"properties":{"osm_id":"1480018836","tag":{"amenity":"waste_basket"}},"type":"Feature"},
	{"geometry":{"coordinates":[25.019344,60.228828],"type":"Point"},"properties":{"osm_id":"1480022108","tag":{"amenity":"waste_basket"}},"type":"Feature"},
	{"geometry":{"coordinates":[24.995876,60.222095],"type":"Point"},"properties":{"osm_id":"1483762538","tag":{"amenity":"waste_basket","graffiti:tag":"cmos;dkle;dmf;bgm;islk\u00e2\u0086\u0091;hofsje"}},"type":"Feature"},
	{"geometry":{"coordinates":[25.021631,60.212792],"type":"Point"},"properties":{"osm_id":"1485798998","tag":{"amenity":"waste_basket","graffiti:tag":"miks;snu"}},"type":"Feature"},
	{"geometry":{"coordinates":[25.024039,60.210133],"type":"Point"},"properties":{"osm_id":"1485905208","tag":{"amenity":"waste_basket"}},"type":"Feature"},
	{"geometry":{"coordinates":[25.019661,60.211042],"type":"Point"},"properties":{"osm_id":"1485905210","tag":{"amenity":"waste_basket"}},"type":"Feature"},
	{"geometry":{"coordinates":[25.029982,60.218794],"type":"Point"},"properties":{"osm_id":"1485986842","tag":{"amenity":"waste_basket"}},"type":"Feature"},
	{"geometry":{"coordinates":[25.0393,60.23179],"type":"Point"},"properties":{"osm_id":"1490272635","tag":{"amenity":"waste_basket","graffiti:tag":"CKR SLK"}},"type":"Feature"},
	{"geometry":{"coordinates":[25.033851,60.232123],"type":"Point"},"properties":{"osm_id":"1490288698","tag":{"amenity":"waste_basket"}},"type":"Feature"},
	{"geometry":{"coordinates":[25.032379,60.229223],"type":"Point"},"properties":{"osm_id":"1490290874","tag":{"amenity":"waste_basket"}},"type":"Feature"},
	{"geometry":{"coordinates":[25.03067,60.228871],"type":"Point"},"properties":{"osm_id":"1490293706","tag":{"amenity":"waste_basket"}},"type":"Feature"},
	{"geometry":{"coordinates":[25.02974,60.229014],"type":"Point"},"properties":{"osm_id":"1490293709","tag":{"amenity":"waste_basket"}},"type":"Feature"},
	{"geometry":{"coordinates":[25.029099,60.229104],"type":"Point"},"properties":{"osm_id":"1490293710","tag":{"amenity":"waste_basket","cigarettes":"yes"}},"type":"Feature"},
	{"geometry":{"coordinates":[25.018338,60.229005],"type":"Point"},"properties":{"osm_id":"1490308672","tag":{"amenity":"waste_basket"}},"type":"Feature"},
	{"geometry":{"coordinates":[25.016996,60.224042],"type":"Point"},"properties":{"osm_id":"1490321955","tag":{"amenity":"waste_basket"}},"type":"Feature"},
	{"geometry":{"coordinates":[25.009347,60.227157],"type":"Point"},"properties":{"osm_id":"1493294290","tag":{"amenity":"waste_basket"}},"type":"Feature"},
	{"geometry":{"coordinates":[25.009595,60.227363],"type":"Point"},"properties":{"osm_id":"1493294312","tag":{"amenity":"waste_basket"}},"type":"Feature"},
	{"geometry":{"coordinates":[24.993318,60.221303],"type":"Point"},"properties":{"osm_id":"1494035921","tag":{"amenity":"waste_basket"}},"type":"Feature"},
	{"geometry":{"coordinates":[25.036025,60.234876],"type":"Point"},"properties":{"osm_id":"1499647415","tag":{"amenity":"waste_basket"}},"type":"Feature"},
	{"geometry":{"coordinates":[25.032035,60.203228],"type":"Point"},"properties":{"osm_id":"1509637150","tag":{"amenity":"waste_basket","last_verified":"2011-11-20"}},"type":"Feature"},
	{"geometry":{"coordinates":[25.031997,60.203527],"type":"Point"},"properties":{"osm_id":"1509637151","tag":{"amenity":"waste_basket","last_verified":"2011-11-20"}},"type":"Feature"},
	{"geometry":{"coordinates":[24.999771,60.228365],"type":"Point"},"properties":{"osm_id":"1515174607","tag":{"amenity":"waste_basket"}},"type":"Feature"},
	{"geometry":{"coordinates":[24.999977,60.228408],"type":"Point"},"properties":{"osm_id":"1515174618","tag":{"amenity":"waste_basket"}},"type":"Feature"},
	{"geometry":{"coordinates":[25.013834,60.227111],"type":"Point"},"properties":{"osm_id":"1515215683","tag":{"amenity":"waste_basket"}},"type":"Feature"},
	{"geometry":{"coordinates":[24.995791,60.231493],"type":"Point"},"properties":{"osm_id":"1520999824","tag":{"amenity":"waste_basket"}},"type":"Feature"},
	{"geometry":{"coordinates":[24.997728,60.231535],"type":"Point"},"properties":{"osm_id":"1520999844","tag":{"amenity":"waste_basket"}},"type":"Feature"},
	{"geometry":{"coordinates":[24.998197,60.23166],"type":"Point"},"properties":{"osm_id":"1520999870","tag":{"amenity":"waste_basket"}},"type":"Feature"},
	{"geometry":{"coordinates":[24.998059,60.231384],"type":"Point"},"properties":{"osm_id":"1521004054","tag":{"amenity":"waste_basket"}},"type":"Feature"},
	{"geometry":{"coordinates":[24.996519,60.231757],"type":"Point"},"properties":{"osm_id":"1521004088","tag":{"amenity":"waste_basket"}},"type":"Feature"},
	{"geometry":{"coordinates":[24.998333,60.233514],"type":"Point"},"properties":{"osm_id":"1521009303","tag":{"amenity":"waste_basket"}},"type":"Feature"},
	{"geometry":{"coordinates":[25.000213,60.23315],"type":"Point"},"properties":{"highway":"street_lamp","osm_id":"1521012015","tag":{"amenity":"waste_basket","power":"pole"}},"type":"Feature"},
	{"geometry":{"coordinates":[25.0007,60.233201],"type":"Point"},"properties":{"highway":"street_lamp","osm_id":"1521012016","tag":{"amenity":"waste_basket","power":"pole"}},"type":"Feature"},
	{"geometry":{"coordinates":[25.001226,60.233219],"type":"Point"},"properties":{"highway":"street_lamp","osm_id":"1521012018","tag":{"amenity":"waste_basket","power":"pole"}},"type":"Feature"},
	{"geometry":{"coordinates":[25.01407,60.230049],"type":"Point"},"properties":{"osm_id":"1523050045","tag":{"amenity":"waste_basket"}},"type":"Feature"},
	{"geometry":{"coordinates":[25.013635,60.233163],"type":"Point"},"properties":{"osm_id":"1523171948","tag":{"amenity":"waste_basket"}},"type":"Feature"},
	{"geometry":{"coordinates":[25.013856,60.233222],"type":"Point"},"properties":{"osm_id":"1523171950","tag":{"amenity":"waste_basket"}},"type":"Feature"},
	{"geometry":{"coordinates":[24.981293,60.20868],"type":"Point"},"properties":{"osm_id":"1535142096","tag":{"amenity":"waste_basket"}},"type":"Feature"},
	{"geometry":{"coordinates":[25.014929,60.230319],"type":"Point"},"properties":{"osm_id":"1545699950","tag":{"amenity":"waste_basket"}},"type":"Feature"},
	{"geometry":{"coordinates":[25.007606,60.236757],"type":"Point"},"properties":{"highway":"street_lamp","osm_id":"1568299298","tag":{"amenity":"waste_basket","traffic_sign":"FI:423"}},"type":"Feature"},
	{"geometry":{"coordinates":[25.026245,60.211934],"type":"Point"},"properties":{"osm_id":"1570232513","tag":{"amenity":"waste_basket"}},"type":"Feature"},
	{"geometry":{"coordinates":[25.030391,60.213632],"type":"Point"},"properties":{"osm_id":"1570232514","tag":{"amenity":"waste_basket"}},"type":"Feature"},
	{"geometry":{"coordinates":[25.032941,60.216464],"type":"Point"},"properties":{"osm_id":"1570232515","tag":{"amenity":"waste_basket"}},"type":"Feature"},
	{"geometry":{"coordinates":[24.985629,60.23769],"type":"Point"},"properties":{"osm_id":"1593566785","tag":{"amenity":"waste_basket"}},"type":"Feature"},
	{"geometry":{"coordinates":[25.017732,60.222111],"type":"Point"},"properties":{"osm_id":"1596664613","tag":{"amenity":"waste_basket"}},"type":"Feature"},
	{"geometry":{"coordinates":[24.979276,60.206375],"type":"Point"},"properties":{"osm_id":"1621278722","tag":{"amenity":"waste_basket"}},"type":"Feature"},
	{"geometry":{"coordinates":[24.978669,60.206637],"type":"Point"},"properties":{"osm_id":"1621278807","tag":{"amenity":"waste_basket"}},"type":"Feature"},
	{"geometry":{"coordinates":[25.015794,60.231734],"type":"Point"},"properties":{"osm_id":"1635094217","tag":{"amenity":"waste_basket"}},"type":"Feature"},
	{"geometry":{"coordinates":[25.015619,60.231904],"type":"Point"},"properties":{"osm_id":"1636507274","tag":{"amenity":"waste_basket"}},"type":"Feature"},
	{"geometry":{"coordinates":[25.015273,60.232251],"type":"Point"},"properties":{"highway":"street_lamp","osm_id":"1636507489","tag":{"amenity":"waste_basket"}},"type":"Feature"},
	{"geometry":{"coordinates":[24.974814,60.208393],"type":"Point"},"properties":{"osm_id":"1651472691","tag":{"amenity":"waste_basket"}},"type":"Feature"},
	{"geometry":{"coordinates":[25.03126,60.233177],"type":"Point"},"properties":{"osm_id":"1694809928","tag":{"amenity":"waste_basket"}},"type":"Feature"},
	{"geometry":{"coordinates":[25.032971,60.232944],"type":"Point"},"properties":{"osm_id":"1694834346","tag":{"amenity":"waste_basket"}},"type":"Feature"},
	{"geometry":{"coordinates":[25.032347,60.233398],"type":"Point"},"properties":{"osm_id":"1694834357","tag":{"amenity":"waste_basket","graffiti:tag":"PPC"}},"type":"Feature"},
	{"geometry":{"coordinates":[24.977213,60.22696],"type":"Point"},"properties":{"osm_id":"1731481991","tag":{"amenity":"waste_basket"}},"type":"Feature"},
	{"geometry":{"coordinates":[25.011092,60.227711],"type":"Point"},"properties":{"osm_id":"1760973701","tag":{"amenity":"waste_basket"}},"type":"Feature"},
	{"geometry":{"coordinates":[25.012438,60.229186],"type":"Point"},"properties":{"osm_id":"1760973702","tag":{"amenity":"waste_basket","illegal:advertising":"flyer","illegal:advertising:issuer":"Kotka Kioski"}},"type":"Feature"},
	{"geometry":{"coordinates":[24.979382,60.206754],"type":"Point"},"properties":{"osm_id":"1765633724","tag":{"amenity":"waste_basket"}},"type":"Feature"},
	{"geometry":{"coordinates":[24.979033,60.206914],"type":"Point"},"properties":{"osm_id":"1765633727","tag":{"amenity":"waste_basket"}},"type":"Feature"},
	{"geometry":{"coordinates":[24.97485,60.205649],"type":"Point"},"properties":{"osm_id":"1776192946","tag":{"amenity":"waste_basket"}},"type":"Feature"},
	{"geometry":{"coordinates":[24.963016,60.199218],"type":"Point"},"properties":{"osm_id":"1783624543","tag":{"amenity":"waste_basket"}},"type":"Feature"},
	{"geometry":{"coordinates":[24.981495,60.227708],"type":"Point"},"properties":{"osm_id":"1941113648","tag":{"amenity":"waste_basket"}},"type":"Feature"},
	{"geometry":{"coordinates":[24.981325,60.227864],"type":"Point"},"properties":{"osm_id":"1941113649","tag":{"amenity":"waste_basket"}},"type":"Feature"},
	{"geometry":{"coordinates":[24.988704,60.224384],"type":"Point"},"properties":{"osm_id":"2018523768","tag":{"amenity":"waste_basket","traffic_sign":"FI:521","traffic_sign:2":"FI:856b[4 h 6-24]"}},"type":"Feature"},
	{"geometry":{"coordinates":[25.000092,60.229962],"type":"Point"},"properties":{"osm_id":"2021126543","tag":{"amenity":"waste_basket"}},"type":"Feature"},
	{"geometry":{"coordinates":[25.007301,60.226696],"type":"Point"},"properties":{"osm_id":"2047249427","tag":{"amenity":"waste_basket"}},"type":"Feature"},
	{"geometry":{"coordinates":[25.006723,60.227009],"type":"Point"},"properties":{"osm_id":"2047249444","tag":{"amenity":"waste_basket"}},"type":"Feature"},
	{"geometry":{"coordinates":[25.044992,60.205827],"type":"Point"},"properties":{"osm_id":"2106963936","tag":{"amenity":"waste_basket"}},"type":"Feature"},
	{"geometry":{"coordinates":[24.964478,60.237932],"type":"Point"},"properties":{"osm_id":"2140505445","tag":{"amenity":"waste_basket"}},"type":"Feature"},
	{"geometry":{"coordinates":[24.966841,60.238241],"type":"Point"},"properties":{"osm_id":"2140505446","tag":{"amenity":"waste_basket"}},"type":"Feature"},
	{"geometry":{"coordinates":[24.975292,60.238552],"type":"Point"},"properties":{"osm_id":"2140505451","tag":{"amenity":"waste_basket"}},"type":"Feature"},
	{"geometry":{"coordinates":[24.975475,60.238619],"type":"Point"},"properties":{"highway":"street_lamp","osm_id":"2140505455","tag":{"amenity":"waste_basket"}},"type":"Feature"},
	{"geometry":{"coordinates":[24.96285,60.238304],"type":"Point"},"properties":{"osm_id":"2140518779","tag":{"amenity":"recycling","recycling:paper":"yes"}},"type":"Feature"},
	{"geometry":{"coordinates":[24.973376,60.238325],"type":"Point"},"properties":{"highway":"street_lamp","osm_id":"2150990827","tag":{"amenity":"waste_basket"}},"type":"Feature"},
	{"geometry":{"coordinates":[24.996528,60.229826],"type":"Point"},"properties":{"osm_id":"2173003078","tag":{"amenity":"waste_basket","traffic_sign":"FI:511"}},"type":"Feature"},
	{"geometry":{"coordinates":[24.965657,60.229483],"type":"Point"},"properties":{"osm_id":"2271271463","tag":{"amenity":"recycling","recycling:glass":"yes","recycling:paper":"yes"}},"type":"Feature"},
	{"geometry":{"coordinates":[24.965574,60.229918],"type":"Point"},"properties":{"osm_id":"2271271515","tag":{"amenity":"waste_basket","traffic_sign":"FI:534"}},"type":"Feature"},
	{"geometry":{"coordinates":[25.040074,60.197137],"type":"Point"},"properties":{"osm_id":"2280123499","tag":{"amenity":"waste_basket"}},"type":"Feature"},
	{"geometry":{"coordinates":[24.995878,60.226622],"type":"Point"},"properties":{"osm_id":"2284973339","tag":{"amenity":"waste_basket"}},"type":"Feature"},
	{"geometry":{"coordinates":[24.995813,60.226858],"type":"Point"},"properties":{"osm_id":"2284973457","tag":{"amenity":"waste_basket"}},"type":"Feature"},
	{"geometry":{"coordinates":[24.981055,60.215657],"type":"Point"},"properties":{"osm_id":"2285074196","tag":{"amenity":"waste_basket","traffic_sign":"FI:871[Ei talvikunnossapitoa]","traffic_sign:2":"FI:reunamerkki"}},"type":"Feature"},
	{"geometry":{"coordinates":[25.043687,60.20682],"type":"Point"},"properties":{"osm_id":"2300200466","tag":{"amenity":"waste_basket"}},"type":"Feature"},
	{"geometry":{"coordinates":[25.038607,60.209254],"type":"Point"},"properties":{"osm_id":"2300200536","tag":{"amenity":"waste_basket"}},"type":"Feature"},
	{"geometry":{"coordinates":[25.038631,60.212256],"type":"Point"},"properties":{"osm_id":"2301812528","tag":{"amenity":"waste_basket"}},"type":"Feature"},
	{"geometry":{"coordinates":[25.038714,60.212328],"type":"Point"},"properties":{"osm_id":"2301812532","tag":{"amenity":"waste_basket","traffic_sign":"FI:pelastustie","traffic_sign:2":"FI:871"}},"type":"Feature"},
	{"geometry":{"coordinates":[24.962467,60.196668],"type":"Point"},"properties":{"osm_id":"2313301151","tag":{"amenity":"waste_basket"}},"type":"Feature"},
	{"geometry":{"coordinates":[25.032861,60.233679],"type":"Point"},"properties":{"osm_id":"2344218944","tag":{"amenity":"waste_basket"}},"type":"Feature"},
	{"geometry":{"coordinates":[25.033331,60.233869],"type":"Point"},"properties":{"osm_id":"2344219596","tag":{"amenity":"waste_basket"}},"type":"Feature"},
	{"geometry":{"coordinates":[25.022317,60.210115],"type":"Point"},"properties":{"osm_id":"2392455296","tag":{"amenity":"waste_basket"}},"type":"Feature"},
	{"geometry":{"coordinates":[25.021399,60.233767],"type":"Point"},"properties":{"osm_id":"2395202396","tag":{"amenity":"waste_basket"}},"type":"Feature"},
	{"geometry":{"coordinates":[25.012655,60.224805],"type":"Point"},"properties":{"osm_id":"2408549852","tag":{"amenity":"waste_basket"}},"type":"Feature"},
	{"geometry":{"coordinates":[24.961114,60.233727],"type":"Point"},"properties":{"osm_id":"2415108212","tag":{"amenity":"waste_basket","traffic_sign":"FI:232","traffic_sign:2":";FI:423"}},"type":"Feature"},
	{"geometry":{"coordinates":[24.961202,60.233753],"type":"Point"},"properties":{"osm_id":"2415108213","tag":{"amenity":"waste_basket"}},"type":"Feature"},
	{"geometry":{"coordinates":[24.966408,60.234257],"type":"Point"},"properties":{"osm_id":"2415108222","tag":{"amenity":"waste_basket"}},"type":"Feature"},
	{"geometry":{"coordinates":[24.966369,60.234336],"type":"Point"},"properties":{"osm_id":"2415108228","tag":{"amenity":"waste_basket"}},"type":"Feature"},
	{"geometry":{"coordinates":[24.966341,60.234361],"type":"Point"},"properties":{"osm_id":"2415108229","tag":{"amenity":"waste_basket"}},"type":"Feature"},
	{"geometry":{"coordinates":[24.966916,60.234427],"type":"Point"},"properties":{"osm_id":"2415108231","tag":{"amenity":"waste_basket"}},"type":"Feature"},
	{"geometry":{"coordinates":[24.997403,60.233289],"type":"Point"},"properties":{"osm_id":"2436480675","tag":{"amenity":"waste_basket","waste_basket":"molok"}},"type":"Feature"},
	{"geometry":{"coordinates":[25.000341,60.231137],"type":"Point"},"properties":{"osm_id":"2436498700","tag":{"amenity":"waste_basket"}},"type":"Feature"},
	{"geometry":{"coordinates":[25.00054,60.231227],"type":"Point"},"properties":{"osm_id":"2436498703","tag":{"amenity":"waste_basket"}},"type":"Feature"},
	{"geometry":{"coordinates":[24.985889,60.215035],"type":"Point"},"properties":{"osm_id":"2436697002","tag":{"amenity":"waste_basket"}},"type":"Feature"},
	{"geometry":{"coordinates":[25.017855,60.223905],"type":"Point"},"properties":{"osm_id":"2450568033","tag":{"amenity":"waste_basket","traffic_sign":"FI:373","traffic_sign:2":"FI:871[Yksityisalue Pys\u00c3\u00a4k\u00c3\u00b6inti sallittu vain merkityill\u00c3\u00a4 paikoilla]","traffic_sign:3":"FI:871[Pienel\u00c3\u00a4insairaalan pys\u00c3\u00a4k\u00c3\u00b6intipaikat]"}},"type":"Feature"},
	{"geometry":{"coordinates":[24.986352,60.224265],"type":"Point"},"properties":{"osm_id":"2455151999","tag":{"amenity":"waste_basket"}},"type":"Feature"},
	{"geometry":{"coordinates":[24.969585,60.217708],"type":"Point"},"properties":{"osm_id":"2462674664","tag":{"amenity":"waste_basket"}},"type":"Feature"},
	{"geometry":{"coordinates":[24.971433,60.218185],"type":"Point"},"properties":{"osm_id":"2462679968","tag":{"entrance":"service"}},"type":"Feature"},
	{"geometry":{"coordinates":[24.96392,60.209542],"type":"Point"},"properties":{"osm_id":"2471250458","tag":{"amenity":"recycling"}},"type":"Feature"},
	{"geometry":{"coordinates":[24.965246,60.210053],"type":"Point"},"properties":{"osm_id":"2481056306","tag":{"amenity":"waste_basket"}},"type":"Feature"},
	{"geometry":{"coordinates":[24.965207,60.19769],"type":"Point"},"properties":{"osm_id":"2512566938","tag":{"amenity":"waste_basket"}},"type":"Feature"},
	{"geometry":{"coordinates":[25.000186,60.229468],"type":"Point"},"properties":{"osm_id":"2513869220","tag":{"amenity":"waste_basket"}},"type":"Feature"},
	{"geometry":{"coordinates":[24.965114,60.234808],"type":"Point"},"properties":{"osm_id":"3100795022","tag":{"amenity":"waste_basket"}},"type":"Feature"},
	{"geometry":{"coordinates":[25.011199,60.225832],"type":"Point"},"properties":{"osm_id":"3328925998","tag":{"amenity":"waste_basket"}},"type":"Feature"},
	{"geometry":{"coordinates":[24.96838,60.216785],"type":"Point"},"properties":{"osm_id":"3385614222","tag":{"amenity":"waste_basket"}},"type":"Feature"},
	{"geometry":{"coordinates":[25.047591,60.232606],"type":"Point"},"properties":{"osm_id":"3393529141","tag":{"amenity":"waste_basket","traffic_sign":"FI:372","traffic_sign:2":"FI:871[Pelastustie]","traffic_sign:3":"FI:872","traffic_sign:4":"FI:871[Yksityisalue]"}},"type":"Feature"},
	{"geometry":{"coordinates":[25.047523,60.232333],"type":"Point"},"properties":{"osm_id":"3393529847","tag":{"amenity":"waste_basket","traffic_sign":"FI:372","traffic_sign:2":"FI:871[Pelastustie]","traffic_sign:3":"FI:872"}},"type":"Feature"},
	{"geometry":{"coordinates":[25.047135,60.232403],"type":"Point"},"properties":{"osm_id":"3393529851","tag":{"amenity":"waste_basket","traffic_sign":"FI:372","traffic_sign:2":"FI:871[Pelastustie]","traffic_sign:3":"FI:872","traffic_sign:4":"FI:871[Yksityisalue]"}},"type":"Feature"},
	{"geometry":{"coordinates":[25.047251,60.232445],"type":"Point"},"properties":{"osm_id":"3393529853","tag":{"amenity":"waste_basket","traffic_sign":"FI:372","traffic_sign:2":"FI:871[Pelastustie]","traffic_sign:3":"FI:872"}},"type":"Feature"},
	{"geometry":{"coordinates":[24.981838,60.232352],"type":"Point"},"properties":{"osm_id":"3455239307","tag":{"amenity":"waste_basket"}},"type":"Feature"},
	{"geometry":{"coordinates":[24.977486,60.212858],"type":"Point"},"properties":{"osm_id":"3653329583","tag":{"amenity":"waste_basket"}},"type":"Feature"},
	{"geometry":{"coordinates":[24.985229,60.213555],"type":"Point"},"properties":{"osm_id":"3676774891","tag":{"amenity":"waste_basket"}},"type":"Feature"},
	{"geometry":{"coordinates":[24.985216,60.21356],"type":"Point"},"properties":{"osm_id":"3676774892","tag":{"amenity":"waste_basket"}},"type":"Feature"},
	{"geometry":{"coordinates":[24.985202,60.213567],"type":"Point"},"properties":{"osm_id":"3676774894","tag":{"amenity":"waste_basket"}},"type":"Feature"},
	{"geometry":{"coordinates":[24.966827,60.230182],"type":"Point"},"properties":{"osm_id":"3961136609","tag":{"access":"private","amenity":"recycling"}},"type":"Feature"},
	{"geometry":{"coordinates":[25.027882,60.204059],"type":"Point"},"properties":{"osm_id":"4371884007","tag":{"amenity":"waste_basket"}},"type":"Feature"},
	{"geometry":{"coordinates":[25.019117,60.214469],"type":"Point"},"properties":{"osm_id":"4371894827","tag":{"amenity":"waste_basket"}},"type":"Feature"},
	{"geometry":{"coordinates":[25.027651,60.203693],"type":"Point"},"properties":{"osm_id":"4372497993","tag":{"amenity":"waste_basket"}},"type":"Feature"},
	{"geometry":{"coordinates":[24.971055,60.218176],"type":"Point"},"properties":{"osm_id":"4477484740","tag":{"amenity":"waste_disposal"}},"type":"Feature"},
	{"geometry":{"coordinates":[25.044052,60.200246],"type":"Point"},"properties":{"osm_id":"5134667831","tag":{"amenity":"waste_basket"}},"type":"Feature"},
	{"geometry":{"coordinates":[25.045032,60.201036],"type":"Point"},"properties":{"osm_id":"5134667832","tag":{"amenity":"waste_basket"}},"type":"Feature"},
	{"geometry":{"coordinates":[25.0433,60.199632],"type":"Point"},"properties":{"osm_id":"5134668025","tag":{"amenity":"waste_basket"}},"type":"Feature"},
	{"geometry":{"coordinates":[24.973667,60.198459],"type":"Point"},"properties":{"name":"Lahjoitustavaran vastaanotto","osm_id":"5166996286","tag":{"amenity":"recycling","name:fi":"Lahjoitustavaran vastaanotto","name:sv":"Mottagning av donationer","operator":"P\u00c3\u00a4\u00c3\u00a4kaupunkiseudun Kierr\u00c3\u00a4tyskeskus Oy","recycling_type":"centre"}},"type":"Feature"},
	{"geometry":{"coordinates":[24.965965,60.203602],"type":"Point"},"properties":{"osm_id":"5624674420","tag":{"amenity":"waste_basket"}},"type":"Feature"},
	{"geometry":{"coordinates":[24.967928,60.204763],"type":"Point"},"properties":{"osm_id":"5624675721","tag":{"amenity":"waste_basket"}},"type":"Feature"},
	{"geometry":{"coordinates":[24.965203,60.200314],"type":"Point"},"properties":{"osm_id":"5624681978","tag":{"amenity":"waste_basket"}},"type":"Feature"},
	{"geometry":{"coordinates":[24.962703,60.199927],"type":"Point"},"properties":{"osm_id":"5660656308","tag":{"amenity":"waste_basket"}},"type":"Feature"},
	{"geometry":{"coordinates":[24.964983,60.212748],"type":"Point"},"properties":{"osm_id":"5680107381","tag":{"amenity":"waste_basket"}},"type":"Feature"},
	{"geometry":{"coordinates":[24.965517,60.209155],"type":"Point"},"properties":{"osm_id":"5680120248","tag":{"amenity":"waste_basket"}},"type":"Feature"},
	{"geometry":{"coordinates":[24.966811,60.209547],"type":"Point"},"properties":{"osm_id":"5680122747","tag":{"amenity":"waste_basket"}},"type":"Feature"},
	{"geometry":{"coordinates":[24.967748,60.210358],"type":"Point"},"properties":{"osm_id":"5680122748","tag":{"amenity":"waste_basket"}},"type":"Feature"},
	{"geometry":{"coordinates":[24.963742,60.209714],"type":"Point"},"properties":{"osm_id":"5680125047","tag":{"amenity":"waste_basket"}},"type":"Feature"},
	{"geometry":{"coordinates":[24.965311,60.208782],"type":"Point"},"properties":{"osm_id":"5680125048","tag":{"amenity":"waste_basket"}},"type":"Feature"},
	{"geometry":{"coordinates":[24.964359,60.209526],"type":"Point"},"properties":{"osm_id":"5680125049","tag":{"amenity":"waste_basket"}},"type":"Feature"},
	{"geometry":{"coordinates":[24.9633,60.207587],"type":"Point"},"properties":{"osm_id":"5680126304","tag":{"amenity":"waste_basket"}},"type":"Feature"},
	{"geometry":{"coordinates":[24.964121,60.196166],"type":"Point"},"properties":{"osm_id":"5680129640","tag":{"amenity":"waste_basket"}},"type":"Feature"},
	{"geometry":{"coordinates":[24.965645,60.196216],"type":"Point"},"properties":{"osm_id":"5680129641","tag":{"amenity":"waste_basket"}},"type":"Feature"},
	{"geometry":{"coordinates":[24.963415,60.197167],"type":"Point"},"properties":{"osm_id":"5680130540","tag":{"amenity":"waste_basket"}},"type":"Feature"},
	{"geometry":{"coordinates":[24.963559,60.197419],"type":"Point"},"properties":{"osm_id":"5680130541","tag":{"amenity":"waste_basket"}},"type":"Feature"},
	{"geometry":{"coordinates":[24.966889,60.203555],"type":"Point"},"properties":{"osm_id":"5826966136","tag":{"amenity":"waste_basket"}},"type":"Feature"},
	{"geometry":{"coordinates":[24.985425,60.214923],"type":"Point"},"properties":{"osm_id":"6123647911","tag":{"amenity":"waste_basket"}},"type":"Feature"},
	{"geometry":{"coordinates":[24.985984,60.214003],"type":"Point"},"properties":{"osm_id":"6123647923","tag":{"amenity":"waste_basket"}},"type":"Feature"},
	{"geometry":{"coordinates":[24.985775,60.214019],"type":"Point"},"properties":{"osm_id":"6123647924","tag":{"amenity":"waste_basket"}},"type":"Feature"},
	{"geometry":{"coordinates":[24.985892,60.214233],"type":"Point"},"properties":{"osm_id":"6123647925","tag":{"amenity":"waste_basket"}},"type":"Feature"},
	{"geometry":{"coordinates":[25.029944,60.197017],"type":"Point"},"properties":{"osm_id":"6404159801","tag":{"amenity":"waste_basket"}},"type":"Feature"},
	{"geometry":{"coordinates":[25.030419,60.196693],"type":"Point"},"properties":{"osm_id":"6404326187","tag":{"amenity":"waste_basket"}},"type":"Feature"},
	{"geometry":{"coordinates":[25.030199,60.196781],"type":"Point"},"properties":{"osm_id":"6404329987","tag":{"amenity":"waste_basket"}},"type":"Feature"},
	{"geometry":{"coordinates":[24.96469,60.200408],"type":"Point"},"properties":{"osm_id":"6464577574","tag":{"amenity":"waste_basket"}},"type":"Feature"},
	{"geometry":{"coordinates":[24.965177,60.200188],"type":"Point"},"properties":{"osm_id":"6464577575","tag":{"amenity":"waste_basket"}},"type":"Feature"},
	{"geometry":{"coordinates":[24.96337,60.200685],"type":"Point"},"properties":{"osm_id":"6464577579","tag":{"amenity":"waste_basket"}},"type":"Feature"},
	{"geometry":{"coordinates":[24.972896,60.208251],"type":"Point"},"properties":{"osm_id":"6464687852","tag":{"amenity":"waste_basket"}},"type":"Feature"},
	{"geometry":{"coordinates":[24.973192,60.209169],"type":"Point"},"properties":{"osm_id":"6464699454","tag":{"amenity":"waste_basket"}},"type":"Feature"},
	{"geometry":{"coordinates":[24.976129,60.209987],"type":"Point"},"properties":{"osm_id":"6464703013","tag":{"amenity":"waste_basket"}},"type":"Feature"},
	{"geometry":{"coordinates":[24.970168,60.211593],"type":"Point"},"properties":{"osm_id":"6464705697","tag":{"amenity":"waste_basket"}},"type":"Feature"},
	{"geometry":{"coordinates":[24.970803,60.200558],"type":"Point"},"properties":{"osm_id":"6485814340","tag":{"amenity":"waste_basket"}},"type":"Feature"},
	{"geometry":{"coordinates":[24.970779,60.212258],"type":"Point"},"properties":{"osm_id":"6495174430","tag":{"amenity":"waste_basket"}},"type":"Feature"},
	{"geometry":{"coordinates":[24.97378,60.208549],"type":"Point"},"properties":{"osm_id":"6495192737","tag":{"amenity":"waste_basket"}},"type":"Feature"},
	{"geometry":{"coordinates":[24.974859,60.206175],"type":"Point"},"properties":{"osm_id":"6495230304","tag":{"amenity":"waste_basket"}},"type":"Feature"},
	{"geometry":{"coordinates":[24.975268,60.2058],"type":"Point"},"properties":{"osm_id":"6495230305","tag":{"amenity":"waste_basket"}},"type":"Feature"},
	{"geometry":{"coordinates":[24.979003,60.23684],"type":"Point"},"properties":{"name":"Stara, Kierr\u00c3\u00a4tyskeskus","osm_id":"6499815446","tag":{"addr:city":"Helsinki","addr:housenumber":"4","addr:postcode":"00640","addr:street":"Liukum\u00c3\u00a4entie","amenity":"recycling","operator":"Helsingin kaupunki/Stara","recycling_type":"centre","website":"https://www.hel.fi/stara/fi/palvelut/kierratyskeskus"}},"type":"Feature"},
	{"geometry":{"coordinates":[24.968656,60.201793],"type":"Point"},"properties":{"osm_id":"6502346336","tag":{"amenity":"waste_basket"}},"type":"Feature"},
	{"geometry":{"coordinates":[24.968764,60.202162],"type":"Point"},"properties":{"osm_id":"6502346337","tag":{"amenity":"waste_basket"}},"type":"Feature"},
	{"geometry":{"coordinates":[24.968399,60.201986],"type":"Point"},"properties":{"osm_id":"6502346338","tag":{"amenity":"waste_basket"}},"type":"Feature"},
	{"geometry":{"coordinates":[24.969147,60.20202],"type":"Point"},"properties":{"osm_id":"6502346339","tag":{"amenity":"waste_basket"}},"type":"Feature"},
	{"geometry":{"coordinates":[24.975989,60.216107],"type":"Point"},"properties":{"osm_id":"6592832991","tag":{"amenity":"waste_basket"}},"type":"Feature"},
	{"geometry":{"coordinates":[24.976006,60.215983],"type":"Point"},"properties":{"osm_id":"6592832992","tag":{"amenity":"waste_basket"}},"type":"Feature"},
	{"geometry":{"coordinates":[24.984879,60.214651],"type":"Point"},"properties":{"osm_id":"6592849880","tag":{"amenity":"waste_basket"}},"type":"Feature"},
	{"geometry":{"coordinates":[24.985239,60.215705],"type":"Point"},"properties":{"osm_id":"6592849881","tag":{"amenity":"waste_basket"}},"type":"Feature"},
	{"geometry":{"coordinates":[24.983103,60.216993],"type":"Point"},"properties":{"osm_id":"6592849882","tag":{"amenity":"waste_basket"}},"type":"Feature"},
	{"geometry":{"coordinates":[24.982281,60.21732],"type":"Point"},"properties":{"osm_id":"6592849883","tag":{"amenity":"waste_basket"}},"type":"Feature"},
	{"geometry":{"coordinates":[24.981872,60.215987],"type":"Point"},"properties":{"osm_id":"6592849884","tag":{"amenity":"waste_basket"}},"type":"Feature"},
	{"geometry":{"coordinates":[24.982782,60.21542],"type":"Point"},"properties":{"osm_id":"6592851485","tag":{"amenity":"waste_basket"}},"type":"Feature"},
	{"geometry":{"coordinates":[24.982395,60.215542],"type":"Point"},"properties":{"osm_id":"6592851486","tag":{"amenity":"waste_basket"}},"type":"Feature"},
	{"geometry":{"coordinates":[24.982394,60.215689],"type":"Point"},"properties":{"osm_id":"6592851487","tag":{"amenity":"waste_basket"}},"type":"Feature"},
	{"geometry":{"coordinates":[24.98278,60.215667],"type":"Point"},"properties":{"osm_id":"6592851488","tag":{"amenity":"waste_basket"}},"type":"Feature"},
	{"geometry":{"coordinates":[24.98298,60.215868],"type":"Point"},"properties":{"osm_id":"6592851489","tag":{"amenity":"waste_basket"}},"type":"Feature"},
	{"geometry":{"coordinates":[24.98445,60.215734],"type":"Point"},"properties":{"osm_id":"6592851490","tag":{"amenity":"waste_basket"}},"type":"Feature"},
	{"geometry":{"coordinates":[24.982037,60.21573],"type":"Point"},"properties":{"osm_id":"6592851491","tag":{"amenity":"waste_basket"}},"type":"Feature"},
	{"geometry":{"coordinates":[24.974783,60.206356],"type":"Point"},"properties":{"osm_id":"6596729373","tag":{"amenity":"waste_basket"}},"type":"Feature"},
	{"geometry":{"coordinates":[24.973413,60.206181],"type":"Point"},"properties":{"osm_id":"6596729382","tag":{"amenity":"waste_basket"}},"type":"Feature"},
	{"geometry":{"coordinates":[24.968875,60.213225],"type":"Point"},"properties":{"osm_id":"6667362633","tag":{"amenity":"waste_basket"}},"type":"Feature"},
	{"geometry":{"coordinates":[24.974626,60.208968],"type":"Point"},"properties":{"osm_id":"6688178907","tag":{"amenity":"waste_basket","waste_basket":"molok"}},"type":"Feature"},
	{"geometry":{"coordinates":[24.972523,60.200727],"type":"Point"},"properties":{"osm_id":"6811471305","tag":{"amenity":"waste_basket"}},"type":"Feature"},
	{"geometry":{"coordinates":[24.997598,60.237853],"type":"Point"},"properties":{"osm_id":"6855587876","tag":{"amenity":"waste_basket"}},"type":"Feature"},
	{"geometry":{"coordinates":[24.983032,60.238732],"type":"Point"},"properties":{"osm_id":"6860944389","tag":{"amenity":"waste_basket"}},"type":"Feature"},
	{"geometry":{"coordinates":[24.985986,60.239256],"type":"Point"},"properties":{"osm_id":"6860944429","tag":{"amenity":"waste_basket"}},"type":"Feature"},
	{"geometry":{"coordinates":[25.032983,60.200289],"type":"Point"},"properties":{"osm_id":"6899928785","tag":{"amenity":"waste_basket"}},"type":"Feature"},
	{"geometry":{"coordinates":[24.967,60.203445],"type":"Point"},"properties":{"osm_id":"7008089131","tag":{"amenity":"waste_basket","material":"metal","waste":"trash","waste_basket":"molok"}},"type":"Feature"},
	{"geometry":{"coordinates":[24.966251,60.205715],"type":"Point"},"properties":{"osm_id":"7138700902","tag":{"amenity":"waste_basket"}},"type":"Feature"},
	{"geometry":{"coordinates":[24.966133,60.205806],"type":"Point"},"properties":{"osm_id":"7138700903","tag":{"amenity":"waste_basket"}},"type":"Feature"},
	{"geometry":{"coordinates":[25.031694,60.197967],"type":"Point"},"properties":{"osm_id":"7141308501","tag":{"amenity":"waste_basket","ele:msl":"37.8","ele:source":"GPS","waste":"trash"}},"type":"Feature"},
	{"geometry":{"coordinates":[25.032779,60.196286],"type":"Point"},"properties":{"osm_id":"7160184333","tag":{"amenity":"waste_basket","ele:msl":"31.8","ele:source":"GPS","waste":"trash"}},"type":"Feature"},
	{"geometry":{"coordinates":[25.035794,60.202375],"type":"Point"},"properties":{"osm_id":"7160763945","tag":{"amenity":"waste_basket","ele:msl":"36.2","ele:source":"GPS","waste":"trash"}},"type":"Feature"},
	{"geometry":{"coordinates":[25.033953,60.204407],"type":"Point"},"properties":{"osm_id":"7160763946","tag":{"amenity":"waste_basket","ele:msl":"48.0","ele:source":"GPS","waste":"trash"}},"type":"Feature"},
	{"geometry":{"coordinates":[25.030585,60.198103],"type":"Point"},"properties":{"osm_id":"7176877122","tag":{"amenity":"waste_basket","ele:msl":"40.3","ele:source":"GPS","waste":"trash"}},"type":"Feature"},
	{"geometry":{"coordinates":[25.031502,60.197789],"type":"Point"},"properties":{"osm_id":"7179292761","tag":{"amenity":"waste_basket","ele:msl":"36.2","ele:source":"GPS"}},"type":"Feature"},
	{"geometry":{"coordinates":[25.031461,60.196487],"type":"Point"},"properties":{"osm_id":"7179292764","tag":{"amenity":"waste_basket","ele:msl":"32.4","ele:source":"GPS"}},"type":"Feature"},
	{"geometry":{"coordinates":[25.036749,60.202701],"type":"Point"},"properties":{"osm_id":"7179323101","tag":{"amenity":"waste_basket","ele:msl":"43.9","ele:source":"GPS"}},"type":"Feature"},
	{"geometry":{"coordinates":[25.041818,60.210288],"type":"Point"},"properties":{"osm_id":"7350014152","tag":{"amenity":"waste_basket"}},"type":"Feature"},
	{"geometry":{"coordinates":[25.044801,60.20924],"type":"Point"},"properties":{"osm_id":"7350029988","tag":{"amenity":"waste_basket"}},"type":"Feature"},
	{"geometry":{"coordinates":[24.968898,60.204235],"type":"Point"},"properties":{"osm_id":"7453611211","tag":{"amenity":"waste_basket"}},"type":"Feature"},
	{"geometry":{"coordinates":[24.968443,60.204006],"type":"Point"},"properties":{"osm_id":"7453611212","tag":{"amenity":"waste_basket"}},"type":"Feature"},
	{"geometry":{"coordinates":[24.971747,60.216847],"type":"Point"},"properties":{"osm_id":"7454094928","tag":{"amenity":"waste_basket"}},"type":"Feature"},
	{"geometry":{"coordinates":[24.97518,60.208816],"type":"Point"},"properties":{"osm_id":"7467012799","tag":{"amenity":"waste_basket"}},"type":"Feature"},
	{"geometry":{"coordinates":[25.029432,60.199434],"type":"Point"},"properties":{"osm_id":"7501264986","tag":{"amenity":"waste_basket"}},"type":"Feature"},
	{"geometry":{"coordinates":[25.029131,60.199367],"type":"Point"},"properties":{"osm_id":"7501265385","tag":{"amenity":"waste_basket"}},"type":"Feature"},
	{"geometry":{"coordinates":[25.029174,60.199221],"type":"Point"},"properties":{"osm_id":"7501265485","tag":{"amenity":"waste_basket"}},"type":"Feature"},
	{"geometry":{"coordinates":[25.032778,60.197944],"type":"Point"},"properties":{"osm_id":"7556398464","tag":{"amenity":"waste_basket","ele:source":"GPS","ele:wgs84":"34.2","waste":"trash"}},"type":"Feature"},
	{"geometry":{"coordinates":[25.033212,60.198165],"type":"Point"},"properties":{"osm_id":"7556432285","tag":{"amenity":"waste_basket"}},"type":"Feature"},
	{"geometry":{"coordinates":[25.03253,60.198204],"type":"Point"},"properties":{"osm_id":"7556471785","tag":{"amenity":"waste_basket"}},"type":"Feature"},
	{"geometry":{"coordinates":[25.033771,60.19883],"type":"Point"},"properties":{"osm_id":"7695638185","tag":{"amenity":"waste_basket"}},"type":"Feature"},
	{"geometry":{"coordinates":[25.033272,60.198933],"type":"Point"},"properties":{"osm_id":"7695638186","tag":{"amenity":"waste_basket"}},"type":"Feature"},
	{"geometry":{"coordinates":[25.033992,60.199351],"type":"Point"},"properties":{"osm_id":"7695649785","tag":{"amenity":"waste_basket"}},"type":"Feature"},
	{"geometry":{"coordinates":[25.033089,60.198329],"type":"Point"},"properties":{"osm_id":"7766274897","tag":{"amenity":"waste_basket","ele:source":"GPS","ele:wgs84":"17.4","waste":"trash"}},"type":"Feature"},
	{"geometry":{"coordinates":[25.03284,60.198541],"type":"Point"},"properties":{"osm_id":"7766274906","tag":{"amenity":"waste_basket","ele:source":"GPS","ele:wgs84":"20.6","waste":"trash"}},"type":"Feature"},
	{"geometry":{"coordinates":[24.984402,60.214129],"type":"Point"},"properties":{"osm_id":"7777656297","tag":{"amenity":"waste_basket"}},"type":"Feature"},
	{"geometry":{"coordinates":[25.035566,60.203915],"type":"Point"},"properties":{"osm_id":"7786724912","tag":{"amenity":"waste_basket","ele:source":"GPS","ele:wgs84":"30.3","waste":"trash"}},"type":"Feature"},
	{"geometry":{"coordinates":[25.035789,60.20359],"type":"Point"},"properties":{"osm_id":"7786724914","tag":{"amenity":"waste_basket","ele:source":"GPS","ele:wgs84":"27.4","waste":"trash"}},"type":"Feature"},
	{"geometry":{"coordinates":[25.034357,60.204157],"type":"Point"},"properties":{"osm_id":"7786724916","tag":{"amenity":"waste_basket","ele:source":"GPS","ele:wgs84":"27.3","waste":"trash"}},"type":"Feature"}
]
}
