{
"type": "FeatureCollection",
"features": [
	{"geometry":{"coordinates":[24.999061,60.18637],"type":"Point"},"properties":{"osm_id":"59632057","tag":{"amenity":"recycling","recycling:cardboard":"yes","recycling:clothes":"yes","recycling:glass":"yes","recycling:paper":"yes","recycling:scrap_metal":"yes","recycling_type":"container"}},"type":"Feature"},
	{"geometry":{"coordinates":[25.007371,60.185997],"type":"Point"},"properties":{"osm_id":"249718748","tag":{"amenity":"recycling","recycling:batteries":"yes","recycling:cardboard":"yes","recycling:clothes":"yes","recycling:glass":"yes"}},"type":"Feature"},
	{"geometry":{"coordinates":[24.974666,60.167637],"type":"Point"},"properties":{"osm_id":"256705094","tag":{"amenity":"recycling","graffiti:tag":"FYS;TRY","recycling:glass":"yes","recycling:paper":"yes"}},"type":"Feature"},
	{"geometry":{"coordinates":[25.046337,60.168217],"type":"Point"},"properties":{"osm_id":"267135041","tag":{"amenity":"recycling","recycling:paper":"yes"}},"type":"Feature"},
	{"geometry":{"coordinates":[25.040642,60.167644],"type":"Point"},"properties":{"osm_id":"267135065","tag":{"amenity":"recycling","recycling:glass":"yes"}},"type":"Feature"},
	{"geometry":{"coordinates":[25.032477,60.193528],"type":"Point"},"properties":{"osm_id":"286287812","tag":{"amenity":"recycling","recycling:cardboard":"yes","recycling:paper":"yes","recycling_type":"container"}},"type":"Feature"},
	{"geometry":{"coordinates":[24.976309,60.166159],"type":"Point"},"properties":{"osm_id":"322885813","tag":{"amenity":"waste_disposal","waste":"litter"}},"type":"Feature"},
	{"geometry":{"coordinates":[24.97669,60.166288],"type":"Point"},"properties":{"osm_id":"322885817","tag":{"amenity":"waste_disposal","waste":"litter"}},"type":"Feature"},
	{"geometry":{"coordinates":[24.976835,60.165945],"type":"Point"},"properties":{"osm_id":"322885819","tag":{"amenity":"waste_disposal","waste":"litter"}},"type":"Feature"},
	{"geometry":{"coordinates":[24.976638,60.165796],"type":"Point"},"properties":{"osm_id":"322885820","tag":{"amenity":"waste_disposal","waste":"litter"}},"type":"Feature"},
	{"geometry":{"coordinates":[24.976285,60.165598],"type":"Point"},"properties":{"osm_id":"322885823","tag":{"amenity":"waste_disposal","waste":"litter"}},"type":"Feature"},
	{"geometry":{"coordinates":[24.977091,60.166422],"type":"Point"},"properties":{"osm_id":"322922635","tag":{"amenity":"waste_disposal","waste":"litter"}},"type":"Feature"},
	{"geometry":{"coordinates":[24.978125,60.166783],"type":"Point"},"properties":{"osm_id":"323124261","tag":{"amenity":"waste_disposal"}},"type":"Feature"},
	{"geometry":{"coordinates":[25.036746,60.192634],"type":"Point"},"properties":{"osm_id":"363581079","tag":{"amenity":"waste_basket"}},"type":"Feature"},
	{"geometry":{"coordinates":[25.030111,60.186912],"type":"Point"},"properties":{"osm_id":"363608309","tag":{"amenity":"waste_basket"}},"type":"Feature"},
	{"geometry":{"coordinates":[25.035557,60.185398],"type":"Point"},"properties":{"osm_id":"363701583","tag":{"amenity":"waste_basket"}},"type":"Feature"},
	{"geometry":{"coordinates":[25.035568,60.184932],"type":"Point"},"properties":{"osm_id":"363710599","tag":{"amenity":"waste_basket"}},"type":"Feature"},
	{"geometry":{"coordinates":[25.037204,60.186758],"type":"Point"},"properties":{"highway":"street_lamp","osm_id":"363824295","tag":{"amenity":"waste_basket","traffic_sign":"FI:423"}},"type":"Feature"},
	{"geometry":{"coordinates":[24.961311,60.167574],"type":"Point"},"properties":{"osm_id":"369558047","tag":{"amenity":"waste_basket","waste":"dog_excrement;litter"}},"type":"Feature"},
	{"geometry":{"coordinates":[24.961688,60.167813],"type":"Point"},"properties":{"osm_id":"369558312","tag":{"amenity":"waste_basket"}},"type":"Feature"},
	{"geometry":{"coordinates":[24.967241,60.168956],"type":"Point"},"properties":{"osm_id":"369572059","tag":{"amenity":"waste_basket"}},"type":"Feature"},
	{"geometry":{"coordinates":[24.971679,60.168573],"type":"Point"},"properties":{"osm_id":"369587378","tag":{"amenity":"waste_basket"}},"type":"Feature"},
	{"geometry":{"coordinates":[24.973181,60.169032],"type":"Point"},"properties":{"osm_id":"369592300","tag":{"amenity":"waste_basket"}},"type":"Feature"},
	{"geometry":{"coordinates":[24.974492,60.169079],"type":"Point"},"properties":{"osm_id":"369592310","tag":{"amenity":"waste_basket"}},"type":"Feature"},
	{"geometry":{"coordinates":[25.048198,60.195977],"type":"Point"},"properties":{"osm_id":"442441953","tag":{"amenity":"waste_basket"}},"type":"Feature"},
	{"geometry":{"coordinates":[24.962004,60.167821],"type":"Point"},"properties":{"osm_id":"445344962","tag":{"amenity":"recycling","recycling:clothes":"yes","recycling:glass":"yes"}},"type":"Feature"},
	{"geometry":{"coordinates":[24.97293,60.167045],"type":"Point"},"properties":{"osm_id":"445348560","tag":{"amenity":"waste_basket"}},"type":"Feature"},
	{"geometry":{"coordinates":[24.973591,60.167196],"type":"Point"},"properties":{"osm_id":"445348563","tag":{"amenity":"waste_basket"}},"type":"Feature"},
	{"geometry":{"coordinates":[24.975078,60.167486],"type":"Point"},"properties":{"osm_id":"445348571","tag":{"amenity":"waste_basket"}},"type":"Feature"},
	{"geometry":{"coordinates":[24.974998,60.167965],"type":"Point"},"properties":{"osm_id":"445348600","tag":{"amenity":"waste_basket"}},"type":"Feature"},
	{"geometry":{"coordinates":[25.006397,60.188975],"type":"Point"},"properties":{"osm_id":"446745384","tag":{"amenity":"recycling","recycling:glass":"yes"}},"type":"Feature"},
	{"geometry":{"coordinates":[25.006448,60.188843],"type":"Point"},"properties":{"osm_id":"446745641","tag":{"amenity":"recycling","recycling:batteries":"yes"}},"type":"Feature"},
	{"geometry":{"coordinates":[25.024997,60.196002],"type":"Point"},"properties":{"osm_id":"460369975","tag":{"amenity":"waste_basket"}},"type":"Feature"},
	{"geometry":{"coordinates":[25.037605,60.17861],"type":"Point"},"properties":{"osm_id":"514986626","tag":{"amenity":"waste_basket"}},"type":"Feature"},
	{"geometry":{"coordinates":[25.010724,60.190537],"type":"Point"},"properties":{"osm_id":"536488535","tag":{"access":"private","amenity":"recycling"}},"type":"Feature"},
	{"geometry":{"coordinates":[25.010394,60.190606],"type":"Point"},"properties":{"osm_id":"536488545","tag":{"access":"private","amenity":"recycling"}},"type":"Feature"},
	{"geometry":{"coordinates":[25.006461,60.189648],"type":"Point"},"properties":{"osm_id":"545724094","tag":{"access":"private","amenity":"recycling"}},"type":"Feature"},
	{"geometry":{"coordinates":[24.961358,60.180954],"type":"Point"},"properties":{"osm_id":"565400291","tag":{"amenity":"waste_basket","waste_basket":"yes"}},"type":"Feature"},
	{"geometry":{"coordinates":[24.961428,60.181238],"type":"Point"},"properties":{"osm_id":"565400297","tag":{"amenity":"waste_basket","graffiti:tag":"Padre;Aigheis","waste_basket":"yes"}},"type":"Feature"},
	{"geometry":{"coordinates":[24.965996,60.194868],"type":"Point"},"properties":{"osm_id":"568339799","tag":{"amenity":"waste_disposal","waste":"trash"}},"type":"Feature"},
	{"geometry":{"coordinates":[24.966647,60.194515],"type":"Point"},"properties":{"osm_id":"568342791","tag":{"amenity":"waste_disposal","waste":"trash"}},"type":"Feature"},
	{"geometry":{"coordinates":[24.962034,60.19177],"type":"Point"},"properties":{"osm_id":"605073673","tag":{"amenity":"waste_basket"}},"type":"Feature"},
	{"geometry":{"coordinates":[25.048205,60.161761],"type":"Point"},"properties":{"osm_id":"623051294","tag":{"amenity":"recycling","recycling:clothes":"yes","recycling:paper":"yes","recycling_type":"container"}},"type":"Feature"},
	{"geometry":{"coordinates":[24.961243,60.191264],"type":"Point"},"properties":{"osm_id":"633028016","tag":{"amenity":"waste_disposal","waste":"household"}},"type":"Feature"},
	{"geometry":{"coordinates":[24.961279,60.191229],"type":"Point"},"properties":{"osm_id":"633028017","tag":{"amenity":"waste_disposal","waste":"household"}},"type":"Feature"},
	{"geometry":{"coordinates":[25.021663,60.173489],"type":"Point"},"properties":{"osm_id":"645377438","tag":{"amenity":"recycling","recycling:paper":"yes","recycling_type":"container"}},"type":"Feature"},
	{"geometry":{"coordinates":[25.040408,60.177551],"type":"Point"},"properties":{"osm_id":"645572903","tag":{"amenity":"waste_basket"}},"type":"Feature"},
	{"geometry":{"coordinates":[24.964713,60.194601],"type":"Point"},"properties":{"osm_id":"664200984","tag":{"amenity":"recycling","recycling:batteries":"yes","recycling:glass":"yes"}},"type":"Feature"},
	{"geometry":{"coordinates":[24.961201,60.187951],"type":"Point"},"properties":{"osm_id":"667411965","tag":{"amenity":"waste_basket"}},"type":"Feature"},
	{"geometry":{"coordinates":[24.962013,60.189266],"type":"Point"},"properties":{"osm_id":"667417622","tag":{"amenity":"waste_basket"}},"type":"Feature"},
	{"geometry":{"coordinates":[25.014182,60.182399],"type":"Point"},"properties":{"osm_id":"760711891","tag":{"amenity":"recycling","recycling:paper":"yes","recycling_type":"container"}},"type":"Feature"},
	{"geometry":{"coordinates":[24.961797,60.158797],"type":"Point"},"properties":{"osm_id":"761272286","tag":{"amenity":"waste_basket"}},"type":"Feature"},
	{"geometry":{"coordinates":[24.977864,60.192671],"type":"Point"},"properties":{"osm_id":"765316171","tag":{"amenity":"waste_basket"}},"type":"Feature"},
	{"geometry":{"coordinates":[24.987621,60.175445],"type":"Point"},"properties":{"osm_id":"791725737","tag":{"amenity":"waste_basket"}},"type":"Feature"},
	{"geometry":{"coordinates":[25.038885,60.195573],"type":"Point"},"properties":{"osm_id":"806308756","tag":{"amenity":"waste_basket"}},"type":"Feature"},
	{"geometry":{"coordinates":[25.029447,60.194426],"type":"Point"},"properties":{"osm_id":"809550723","tag":{"amenity":"waste_basket"}},"type":"Feature"},
	{"geometry":{"coordinates":[25.029914,60.194965],"type":"Point"},"properties":{"osm_id":"809550726","tag":{"amenity":"waste_basket"}},"type":"Feature"},
	{"geometry":{"coordinates":[25.029357,60.194633],"type":"Point"},"properties":{"osm_id":"809550729","tag":{"amenity":"waste_basket","traffic_sign":"FI:312","traffic_sign:2":"FI:871[Ei koske linja-autoja]","traffic_sign:3":"FI:551[left]"}},"type":"Feature"},
	{"geometry":{"coordinates":[25.029196,60.194955],"type":"Point"},"properties":{"osm_id":"809550734","tag":{"amenity":"waste_basket"}},"type":"Feature"},
	{"geometry":{"coordinates":[25.044648,60.175382],"type":"Point"},"properties":{"osm_id":"896300545","tag":{"amenity":"recycling","recycling:clothes":"yes","recycling:glass":"yes","recycling:paper":"yes"}},"type":"Feature"},
	{"geometry":{"coordinates":[24.961953,60.179579],"type":"Point"},"properties":{"osm_id":"1401168042","tag":{"amenity":"waste_basket"}},"type":"Feature"},
	{"geometry":{"coordinates":[24.963274,60.17888],"type":"Point"},"properties":{"osm_id":"1401168059","tag":{"amenity":"waste_basket","graffiti:tag":"tuc-09"}},"type":"Feature"},
	{"geometry":{"coordinates":[24.963074,60.180225],"type":"Point"},"properties":{"osm_id":"1401168097","tag":{"amenity":"waste_basket","graffiti:tag":"GIUL;UNBO"}},"type":"Feature"},
	{"geometry":{"coordinates":[24.963046,60.156147],"type":"Point"},"properties":{"osm_id":"1519800323","tag":{"amenity":"waste_basket"}},"type":"Feature"},
	{"geometry":{"coordinates":[24.966056,60.188185],"type":"Point"},"properties":{"osm_id":"1629565521","tag":{"amenity":"waste_basket"}},"type":"Feature"},
	{"geometry":{"coordinates":[24.96315,60.192481],"type":"Point"},"properties":{"osm_id":"1683008511","tag":{"amenity":"waste_basket"}},"type":"Feature"},
	{"geometry":{"coordinates":[24.963068,60.192924],"type":"Point"},"properties":{"osm_id":"1683008545","tag":{"amenity":"waste_basket"}},"type":"Feature"},
	{"geometry":{"coordinates":[24.963973,60.194512],"type":"Point"},"properties":{"osm_id":"1783624966","tag":{"amenity":"waste_basket"}},"type":"Feature"},
	{"geometry":{"coordinates":[24.964717,60.185994],"type":"Point"},"properties":{"highway":"street_lamp","osm_id":"1821634475","tag":{"amenity":"waste_basket"}},"type":"Feature"},
	{"geometry":{"coordinates":[24.965352,60.1863],"type":"Point"},"properties":{"highway":"street_lamp","osm_id":"1821634497","tag":{"amenity":"waste_basket"}},"type":"Feature"},
	{"geometry":{"coordinates":[24.974215,60.167432],"type":"Point"},"properties":{"osm_id":"1921545964","tag":{"amenity":"waste_basket"}},"type":"Feature"},
	{"geometry":{"coordinates":[24.974631,60.167678],"type":"Point"},"properties":{"osm_id":"1921545992","tag":{"amenity":"recycling","graffiti:tag":"TRY;NSO","operator":"Fida l\u00c3\u00a4hetystori","recycling:clothes":"yes"}},"type":"Feature"},
	{"geometry":{"coordinates":[24.974614,60.167692],"type":"Point"},"properties":{"osm_id":"1921545993","tag":{"amenity":"recycling","graffiti:tag":"TRY;NSO;FYS","operator":"UFF","recycling:clothes":"yes"}},"type":"Feature"},
	{"geometry":{"coordinates":[24.976411,60.166618],"type":"Point"},"properties":{"osm_id":"1934840886","tag":{"amenity":"waste_basket"}},"type":"Feature"},
	{"geometry":{"coordinates":[24.975136,60.167856],"type":"Point"},"properties":{"osm_id":"1934840999","tag":{"amenity":"waste_basket"}},"type":"Feature"},
	{"geometry":{"coordinates":[24.977735,60.168278],"type":"Point"},"properties":{"osm_id":"1941119272","tag":{"amenity":"waste_basket"}},"type":"Feature"},
	{"geometry":{"coordinates":[24.977634,60.168377],"type":"Point"},"properties":{"osm_id":"1941119276","tag":{"amenity":"waste_basket"}},"type":"Feature"},
	{"geometry":{"coordinates":[24.966517,60.188445],"type":"Point"},"properties":{"osm_id":"2026188836","tag":{"amenity":"waste_basket"}},"type":"Feature"},
	{"geometry":{"coordinates":[24.968494,60.167777],"type":"Point"},"properties":{"osm_id":"2108929549","tag":{"amenity":"waste_basket"}},"type":"Feature"},
	{"geometry":{"coordinates":[24.968686,60.167497],"type":"Point"},"properties":{"osm_id":"2140004127","tag":{"amenity":"waste_basket"}},"type":"Feature"},
	{"geometry":{"coordinates":[25.035639,60.193385],"type":"Point"},"properties":{"osm_id":"2249215320","tag":{"amenity":"waste_basket","traffic_sign":"FI:424","traffic_sign:2":"FI:871[Sallittu mopoille]"}},"type":"Feature"},
	{"geometry":{"coordinates":[25.033272,60.193882],"type":"Point"},"properties":{"osm_id":"2249277273","tag":{"amenity":"waste_basket","traffic_sign":"round","traffic_sign:2":"FI:871[Sallittu mopoille]"}},"type":"Feature"},
	{"geometry":{"coordinates":[25.006344,60.188982],"type":"Point"},"properties":{"osm_id":"2289625592","tag":{"amenity":"waste_basket","traffic_sign":"FI:521a[down x2]","traffic_sign:2":"FI:836","traffic_sign:3":"FI:826[left]"}},"type":"Feature"},
	{"geometry":{"coordinates":[24.964814,60.190669],"type":"Point"},"properties":{"osm_id":"2301420717","tag":{"amenity":"waste_basket"}},"type":"Feature"},
	{"geometry":{"coordinates":[25.036018,60.190537],"type":"Point"},"properties":{"osm_id":"2302243887","tag":{"amenity":"waste_basket","traffic_sign":"FI:511"}},"type":"Feature"},
	{"geometry":{"coordinates":[25.025698,60.190537],"type":"Point"},"properties":{"osm_id":"2305434129","tag":{"amenity":"waste_basket","traffic_sign":"FI:521","traffic_sign:2":"FI:856b[2h 8-20]"}},"type":"Feature"},
	{"geometry":{"coordinates":[25.033807,60.186562],"type":"Point"},"properties":{"osm_id":"2308835716","tag":{"amenity":"waste_basket","traffic_sign":"FI:521","traffic_sign:2":"FI:856b[2h 8-20]"}},"type":"Feature"},
	{"geometry":{"coordinates":[25.032057,60.186606],"type":"Point"},"properties":{"osm_id":"2308835729","tag":{"amenity":"waste_basket","traffic_sign":"FI:521","traffic_sign:2":"FI:856b[2h 8-20]","traffic_sign:3":"FI:814[40 m]"}},"type":"Feature"},
	{"geometry":{"coordinates":[25.031597,60.193081],"type":"Point"},"properties":{"osm_id":"2312675432","tag":{"amenity":"waste_basket","traffic_sign":"FI:511"}},"type":"Feature"},
	{"geometry":{"coordinates":[24.983018,60.177108],"type":"Point"},"properties":{"osm_id":"2448677139","tag":{"amenity":"waste_basket"}},"type":"Feature"},
	{"geometry":{"coordinates":[25.030459,60.194745],"type":"Point"},"properties":{"osm_id":"2498885498","tag":{"amenity":"waste_basket"}},"type":"Feature"},
	{"geometry":{"coordinates":[24.970323,60.163915],"type":"Point"},"properties":{"osm_id":"2603517366","tag":{"amenity":"waste_basket"}},"type":"Feature"},
	{"geometry":{"coordinates":[24.968837,60.164162],"type":"Point"},"properties":{"osm_id":"2603517381","tag":{"amenity":"waste_basket"}},"type":"Feature"},
	{"geometry":{"coordinates":[24.970652,60.164332],"type":"Point"},"properties":{"osm_id":"2603517389","tag":{"amenity":"waste_basket"}},"type":"Feature"},
	{"geometry":{"coordinates":[24.96481,60.196151],"type":"Point"},"properties":{"osm_id":"2722971101","tag":{"amenity":"waste_basket","traffic_sign":"FI:521","traffic_sign:2":"FI:855a[9-21]","traffic_sign:3":"FI:871[Vy\u00c3\u00b6hyke 3 Ei koske P-tunnuksella K]","traffic_sign:4":"FI:521a[down]","traffic_sign:5":"FI:826[left]"}},"type":"Feature"},
	{"geometry":{"coordinates":[25.014595,60.154776],"type":"Point"},"properties":{"osm_id":"2915041197","tag":{"amenity":"waste_basket"}},"type":"Feature"},
	{"geometry":{"coordinates":[25.028464,60.177767],"type":"Point"},"properties":{"osm_id":"2981768628","tag":{"amenity":"waste_basket"}},"type":"Feature"},
	{"geometry":{"coordinates":[25.035301,60.179782],"type":"Point"},"properties":{"osm_id":"2992879682","tag":{"amenity":"waste_basket"}},"type":"Feature"},
	{"geometry":{"coordinates":[24.969857,60.166741],"type":"Point"},"properties":{"osm_id":"3265144483","tag":{"amenity":"waste_basket"}},"type":"Feature"},
	{"geometry":{"coordinates":[24.970071,60.166801],"type":"Point"},"properties":{"osm_id":"3265144484","tag":{"amenity":"waste_basket"}},"type":"Feature"},
	{"geometry":{"coordinates":[24.96892,60.16712],"type":"Point"},"properties":{"osm_id":"3265144486","tag":{"amenity":"waste_basket"}},"type":"Feature"},
	{"geometry":{"coordinates":[24.964941,60.166787],"type":"Point"},"properties":{"osm_id":"3274208212","tag":{"amenity":"waste_basket"}},"type":"Feature"},
	{"geometry":{"coordinates":[24.975038,60.168907],"type":"Point"},"properties":{"highway":"street_lamp","osm_id":"3283696325","tag":{"amenity":"waste_basket"}},"type":"Feature"},
	{"geometry":{"coordinates":[24.969698,60.168494],"type":"Point"},"properties":{"osm_id":"3289870157","tag":{"amenity":"waste_basket","recycling_type":"underground"}},"type":"Feature"},
	{"geometry":{"coordinates":[24.968525,60.168765],"type":"Point"},"properties":{"osm_id":"3289870564","tag":{"amenity":"waste_basket"}},"type":"Feature"},
	{"geometry":{"coordinates":[24.967563,60.168969],"type":"Point"},"properties":{"osm_id":"3289870584","tag":{"amenity":"waste_basket"}},"type":"Feature"},
	{"geometry":{"coordinates":[24.967931,60.169145],"type":"Point"},"properties":{"highway":"street_lamp","osm_id":"3289870607","tag":{"amenity":"waste_basket"}},"type":"Feature"},
	{"geometry":{"coordinates":[24.977873,60.167976],"type":"Point"},"properties":{"osm_id":"3303836802","tag":{"amenity":"waste_basket"}},"type":"Feature"},
	{"geometry":{"coordinates":[24.979391,60.16805],"type":"Point"},"properties":{"osm_id":"3303836804","tag":{"amenity":"waste_basket","graffiti:tag":"LCS;SAI;SPEKU1"}},"type":"Feature"},
	{"geometry":{"coordinates":[24.97812,60.167361],"type":"Point"},"properties":{"osm_id":"3303837472","tag":{"amenity":"waste_basket"}},"type":"Feature"},
	{"geometry":{"coordinates":[24.978148,60.167689],"type":"Point"},"properties":{"osm_id":"3303837571","tag":{"amenity":"waste_basket"}},"type":"Feature"},
	{"geometry":{"coordinates":[24.97953,60.167696],"type":"Point"},"properties":{"osm_id":"3303837572","tag":{"amenity":"waste_basket"}},"type":"Feature"},
	{"geometry":{"coordinates":[24.973536,60.165663],"type":"Point"},"properties":{"osm_id":"3326782380","tag":{"amenity":"waste_basket"}},"type":"Feature"},
	{"geometry":{"coordinates":[24.969822,60.172864],"type":"Point"},"properties":{"osm_id":"3359186818","tag":{"amenity":"waste_basket"}},"type":"Feature"},
	{"geometry":{"coordinates":[24.970027,60.173291],"type":"Point"},"properties":{"osm_id":"3359186827","tag":{"amenity":"waste_basket"}},"type":"Feature"},
	{"geometry":{"coordinates":[24.970132,60.174053],"type":"Point"},"properties":{"osm_id":"3359186854","tag":{"amenity":"waste_basket"}},"type":"Feature"},
	{"geometry":{"coordinates":[24.96573,60.173826],"type":"Point"},"properties":{"osm_id":"3359453205","tag":{"amenity":"waste_basket"}},"type":"Feature"},
	{"geometry":{"coordinates":[24.969605,60.173685],"type":"Point"},"properties":{"osm_id":"3359477984","tag":{"amenity":"waste_basket"}},"type":"Feature"},
	{"geometry":{"coordinates":[24.969344,60.173738],"type":"Point"},"properties":{"osm_id":"3359478678","tag":{"amenity":"waste_basket"}},"type":"Feature"},
	{"geometry":{"coordinates":[24.96825,60.174258],"type":"Point"},"properties":{"osm_id":"3359478689","tag":{"amenity":"waste_basket"}},"type":"Feature"},
	{"geometry":{"coordinates":[24.968598,60.17426],"type":"Point"},"properties":{"osm_id":"3359478691","tag":{"amenity":"waste_basket"}},"type":"Feature"},
	{"geometry":{"coordinates":[24.96643,60.188739],"type":"Point"},"properties":{"osm_id":"3367823717","tag":{"amenity":"waste_basket"}},"type":"Feature"},
	{"geometry":{"coordinates":[24.966302,60.188236],"type":"Point"},"properties":{"osm_id":"3367823886","tag":{"amenity":"waste_basket"}},"type":"Feature"},
	{"geometry":{"coordinates":[24.97749,60.192447],"type":"Point"},"properties":{"osm_id":"3393487255","tag":{"amenity":"waste_basket"}},"type":"Feature"},
	{"geometry":{"coordinates":[24.977344,60.192535],"type":"Point"},"properties":{"osm_id":"3393491685","tag":{"amenity":"waste_basket"}},"type":"Feature"},
	{"geometry":{"coordinates":[24.979074,60.193568],"type":"Point"},"properties":{"osm_id":"3393491686","tag":{"amenity":"waste_basket"}},"type":"Feature"},
	{"geometry":{"coordinates":[24.991259,60.18191],"type":"Point"},"properties":{"osm_id":"3528423527","tag":{"amenity":"waste_basket"}},"type":"Feature"},
	{"geometry":{"coordinates":[24.991641,60.181954],"type":"Point"},"properties":{"osm_id":"3528423528","tag":{"amenity":"waste_basket"}},"type":"Feature"},
	{"geometry":{"coordinates":[24.991186,60.182063],"type":"Point"},"properties":{"osm_id":"3528423531","tag":{"amenity":"waste_basket"}},"type":"Feature"},
	{"geometry":{"coordinates":[24.977863,60.168827],"type":"Point"},"properties":{"osm_id":"3667719353","tag":{"amenity":"waste_basket"}},"type":"Feature"},
	{"geometry":{"coordinates":[24.993105,60.17907],"type":"Point"},"properties":{"osm_id":"3714211409","tag":{"amenity":"waste_basket","waste_basket":"molok"}},"type":"Feature"},
	{"geometry":{"coordinates":[25.012969,60.194664],"type":"Point"},"properties":{"osm_id":"5020194827","tag":{"amenity":"waste_basket"}},"type":"Feature"},
	{"geometry":{"coordinates":[25.011234,60.195085],"type":"Point"},"properties":{"osm_id":"5020195231","tag":{"amenity":"waste_basket"}},"type":"Feature"},
	{"geometry":{"coordinates":[25.012851,60.194649],"type":"Point"},"properties":{"osm_id":"5020273826","tag":{"amenity":"waste_basket"}},"type":"Feature"},
	{"geometry":{"coordinates":[24.961611,60.155217],"type":"Point"},"properties":{"osm_id":"5666506925","tag":{"amenity":"waste_basket"}},"type":"Feature"},
	{"geometry":{"coordinates":[24.97876,60.167065],"type":"Point"},"properties":{"osm_id":"5954465800","tag":{"amenity":"waste_basket"}},"type":"Feature"},
	{"geometry":{"coordinates":[24.980059,60.186868],"type":"Point"},"properties":{"name":"Pullonpalautus","osm_id":"6060938287","tag":{"addr:city":"Helsinki","addr:housename":"Redi","addr:housenumber":"5","addr:postcode":"00580","addr:street":"Hermannin Rantatie","amenity":"recycling","level":"-2","recycling:glass_bottles":"yes","recycling:plastic_bottles":"yes","recycling_type":"container"}},"type":"Feature"},
	{"geometry":{"coordinates":[25.027227,60.193802],"type":"Point"},"properties":{"osm_id":"6449457001","tag":{"amenity":"recycling","operator":"Suomen Pakkkauskierr\u00c3\u00a4tys Rinki Oy","website":"https://rinkiin.fi"}},"type":"Feature"},
	{"geometry":{"coordinates":[24.983128,60.183575],"type":"Point"},"properties":{"osm_id":"6495316284","tag":{"amenity":"waste_basket"}},"type":"Feature"},
	{"geometry":{"coordinates":[24.981859,60.182549],"type":"Point"},"properties":{"osm_id":"6495323518","tag":{"amenity":"waste_basket"}},"type":"Feature"},
	{"geometry":{"coordinates":[24.980481,60.182658],"type":"Point"},"properties":{"osm_id":"6495323519","tag":{"amenity":"waste_basket"}},"type":"Feature"},
	{"geometry":{"coordinates":[24.978652,60.182863],"type":"Point"},"properties":{"osm_id":"6495323521","tag":{"amenity":"waste_basket"}},"type":"Feature"},
	{"geometry":{"coordinates":[24.977852,60.18296],"type":"Point"},"properties":{"osm_id":"6495323522","tag":{"amenity":"waste_basket"}},"type":"Feature"},
	{"geometry":{"coordinates":[24.97695,60.183192],"type":"Point"},"properties":{"osm_id":"6495323523","tag":{"amenity":"waste_basket"}},"type":"Feature"},
	{"geometry":{"coordinates":[24.976284,60.184122],"type":"Point"},"properties":{"osm_id":"6495323524","tag":{"amenity":"waste_basket"}},"type":"Feature"},
	{"geometry":{"coordinates":[24.975753,60.18396],"type":"Point"},"properties":{"osm_id":"6495323525","tag":{"amenity":"waste_basket"}},"type":"Feature"},
	{"geometry":{"coordinates":[24.978026,60.184338],"type":"Point"},"properties":{"osm_id":"6495323526","tag":{"amenity":"waste_basket"}},"type":"Feature"},
	{"geometry":{"coordinates":[24.97793,60.184921],"type":"Point"},"properties":{"osm_id":"6495323527","tag":{"amenity":"waste_basket"}},"type":"Feature"},
	{"geometry":{"coordinates":[24.97749,60.184355],"type":"Point"},"properties":{"osm_id":"6495324183","tag":{"amenity":"waste_basket"}},"type":"Feature"},
	{"geometry":{"coordinates":[24.977514,60.184522],"type":"Point"},"properties":{"osm_id":"6495324184","tag":{"amenity":"waste_basket"}},"type":"Feature"},
	{"geometry":{"coordinates":[24.976815,60.183487],"type":"Point"},"properties":{"osm_id":"6495326057","tag":{"amenity":"waste_basket"}},"type":"Feature"},
	{"geometry":{"coordinates":[24.982853,60.186039],"type":"Point"},"properties":{"osm_id":"6499370948","tag":{"amenity":"waste_basket"}},"type":"Feature"},
	{"geometry":{"coordinates":[24.983555,60.185956],"type":"Point"},"properties":{"osm_id":"6499371028","tag":{"amenity":"waste_basket"}},"type":"Feature"},
	{"geometry":{"coordinates":[24.984066,60.184772],"type":"Point"},"properties":{"osm_id":"6499405112","tag":{"amenity":"waste_basket"}},"type":"Feature"},
	{"geometry":{"coordinates":[24.983933,60.185276],"type":"Point"},"properties":{"osm_id":"6499405113","tag":{"amenity":"waste_basket"}},"type":"Feature"},
	{"geometry":{"coordinates":[24.983892,60.185492],"type":"Point"},"properties":{"osm_id":"6499405114","tag":{"amenity":"waste_basket"}},"type":"Feature"},
	{"geometry":{"coordinates":[24.981958,60.182728],"type":"Point"},"properties":{"osm_id":"6521248031","tag":{"amenity":"waste_basket"}},"type":"Feature"},
	{"geometry":{"coordinates":[24.982087,60.183022],"type":"Point"},"properties":{"osm_id":"6521248032","tag":{"amenity":"waste_basket"}},"type":"Feature"},
	{"geometry":{"coordinates":[24.98323,60.172442],"type":"Point"},"properties":{"osm_id":"6743878628","tag":{"amenity":"waste_basket"}},"type":"Feature"},
	{"geometry":{"coordinates":[24.980838,60.173839],"type":"Point"},"properties":{"osm_id":"6743878632","tag":{"amenity":"waste_basket"}},"type":"Feature"},
	{"geometry":{"coordinates":[24.982645,60.172662],"type":"Point"},"properties":{"osm_id":"6743878636","tag":{"amenity":"waste_basket"}},"type":"Feature"},
	{"geometry":{"coordinates":[24.982156,60.175694],"type":"Point"},"properties":{"osm_id":"6743925661","tag":{"amenity":"waste_basket"}},"type":"Feature"},
	{"geometry":{"coordinates":[24.982965,60.175991],"type":"Point"},"properties":{"osm_id":"6743925662","tag":{"amenity":"waste_basket"}},"type":"Feature"},
	{"geometry":{"coordinates":[24.983397,60.176569],"type":"Point"},"properties":{"osm_id":"6743925663","tag":{"amenity":"waste_basket"}},"type":"Feature"},
	{"geometry":{"coordinates":[24.977526,60.183235],"type":"Point"},"properties":{"osm_id":"6744042480","tag":{"amenity":"waste_basket"}},"type":"Feature"},
	{"geometry":{"coordinates":[24.970433,60.192282],"type":"Point"},"properties":{"osm_id":"6992036256","tag":{"amenity":"waste_basket"}},"type":"Feature"},
	{"geometry":{"coordinates":[24.969531,60.191892],"type":"Point"},"properties":{"osm_id":"6992036257","tag":{"amenity":"waste_basket"}},"type":"Feature"},
	{"geometry":{"coordinates":[24.967995,60.192153],"type":"Point"},"properties":{"osm_id":"6992036258","tag":{"amenity":"waste_basket"}},"type":"Feature"},
	{"geometry":{"coordinates":[24.968863,60.191952],"type":"Point"},"properties":{"osm_id":"6992036259","tag":{"amenity":"waste_basket"}},"type":"Feature"},
	{"geometry":{"coordinates":[24.968929,60.192285],"type":"Point"},"properties":{"osm_id":"6992036262","tag":{"amenity":"waste_basket"}},"type":"Feature"},
	{"geometry":{"coordinates":[24.969084,60.19245],"type":"Point"},"properties":{"osm_id":"6992036263","tag":{"amenity":"waste_basket"}},"type":"Feature"},
	{"geometry":{"coordinates":[24.969085,60.192344],"type":"Point"},"properties":{"osm_id":"6992036264","tag":{"amenity":"waste_basket"}},"type":"Feature"},
	{"geometry":{"coordinates":[24.969099,60.192337],"type":"Point"},"properties":{"osm_id":"6992036265","tag":{"amenity":"waste_basket"}},"type":"Feature"},
	{"geometry":{"coordinates":[24.969712,60.192274],"type":"Point"},"properties":{"osm_id":"6992036269","tag":{"amenity":"waste_basket"}},"type":"Feature"},
	{"geometry":{"coordinates":[24.970039,60.192302],"type":"Point"},"properties":{"osm_id":"6992036270","tag":{"amenity":"waste_basket"}},"type":"Feature"},
	{"geometry":{"coordinates":[25.031537,60.195055],"type":"Point"},"properties":{"osm_id":"7141308499","tag":{"amenity":"waste_basket","ele:msl":"30.7","ele:source":"GPS","waste":"trash"}},"type":"Feature"},
	{"geometry":{"coordinates":[24.978532,60.186241],"type":"Point"},"properties":{"osm_id":"7160312273","tag":{"amenity":"waste_basket"}},"type":"Feature"},
	{"geometry":{"coordinates":[25.029708,60.194869],"type":"Point"},"properties":{"osm_id":"7179292754","tag":{"amenity":"waste_basket","ele:msl":"31.2","ele:source":"GPS"}},"type":"Feature"},
	{"geometry":{"coordinates":[25.029032,60.194515],"type":"Point"},"properties":{"osm_id":"7179292755","tag":{"amenity":"waste_basket","ele:msl":"30.1","ele:source":"GPS"}},"type":"Feature"},
	{"geometry":{"coordinates":[25.031018,60.195502],"type":"Point"},"properties":{"osm_id":"7179292757","tag":{"amenity":"waste_basket","ele:msl":"31.3","ele:source":"GPS"}},"type":"Feature"},
	{"geometry":{"coordinates":[25.030091,60.195049],"type":"Point"},"properties":{"osm_id":"7179292759","tag":{"amenity":"waste_basket","ele:msl":"31.1","ele:source":"GPS"}},"type":"Feature"},
	{"geometry":{"coordinates":[25.029001,60.194572],"type":"Point"},"properties":{"osm_id":"7179292760","tag":{"amenity":"waste_basket","ele:msl":"29.4","ele:source":"GPS"}},"type":"Feature"},
	{"geometry":{"coordinates":[25.032809,60.177735],"type":"Point"},"properties":{"osm_id":"7545627445","tag":{"amenity":"waste_basket"}},"type":"Feature"},
	{"geometry":{"coordinates":[25.033794,60.180022],"type":"Point"},"properties":{"osm_id":"7545627452","tag":{"amenity":"waste_basket"}},"type":"Feature"},
	{"geometry":{"coordinates":[25.029287,60.18072],"type":"Point"},"properties":{"osm_id":"7545627461","tag":{"amenity":"waste_basket"}},"type":"Feature"},
	{"geometry":{"coordinates":[25.029599,60.180499],"type":"Point"},"properties":{"osm_id":"7545627462","tag":{"amenity":"waste_basket"}},"type":"Feature"},
	{"geometry":{"coordinates":[25.031658,60.178993],"type":"Point"},"properties":{"osm_id":"7545627471","tag":{"amenity":"waste_basket"}},"type":"Feature"},
	{"geometry":{"coordinates":[24.979437,60.181727],"type":"Point"},"properties":{"osm_id":"7617453008","tag":{"amenity":"waste_basket"}},"type":"Feature"},
	{"geometry":{"coordinates":[24.979101,60.181079],"type":"Point"},"properties":{"osm_id":"7617453013","tag":{"amenity":"waste_basket"}},"type":"Feature"},
	{"geometry":{"coordinates":[24.983455,60.18864],"type":"Point"},"properties":{"osm_id":"7679084999","tag":{"amenity":"recycling","level":"1"}},"type":"Feature"},
	{"geometry":{"coordinates":[24.982227,60.18881],"type":"Point"},"properties":{"osm_id":"7679353808","tag":{"addr:housenumber":"1","addr:street":"Capellankuja","amenity":"recycling","level":"1"}},"type":"Feature"},
	{"geometry":{"coordinates":[25.010774,60.182242],"type":"Point"},"properties":{"osm_id":"7755741142","tag":{"amenity":"waste_basket"}},"type":"Feature"},
	{"geometry":{"coordinates":[25.009077,60.18266],"type":"Point"},"properties":{"osm_id":"7755741146","tag":{"amenity":"waste_basket"}},"type":"Feature"},
	{"geometry":{"coordinates":[24.961928,60.168063],"type":"Point"},"properties":{"osm_id":"7809668883","tag":{"amenity":"waste_basket"}},"type":"Feature"},
	{"geometry":{"coordinates":[24.96128,60.168053],"type":"Point"},"properties":{"osm_id":"7809668885","tag":{"amenity":"waste_basket"}},"type":"Feature"},
	{"geometry":{"coordinates":[25.046761,60.161318],"type":"Point"},"properties":{"osm_id":"7823156083","tag":{"amenity":"waste_basket"}},"type":"Feature"}
]
}
