{
"type": "FeatureCollection",
"features": [
	{"geometry":{"coordinates":[25.022062,59.471893],"type":"Point"},"properties":{"osm_id":"1660918097","tag":{"amenity":"waste_basket","check_date":"2021-05-08"}},"type":"Feature"},
	{"geometry":{"coordinates":[24.9936,59.450537],"type":"Point"},"properties":{"osm_id":"6780753815","tag":{"amenity":"waste_basket"}},"type":"Feature"},
	{"geometry":{"coordinates":[24.993918,59.450677],"type":"Point"},"properties":{"osm_id":"6780753817","tag":{"amenity":"waste_basket"}},"type":"Feature"},
	{"geometry":{"coordinates":[24.994111,59.450679],"type":"Point"},"properties":{"osm_id":"6780753819","tag":{"amenity":"waste_basket"}},"type":"Feature"},
	{"geometry":{"coordinates":[25.020011,59.473252],"type":"Point"},"properties":{"osm_id":"7448031493","tag":{"amenity":"recycling","location":"overground","opening_hours":"08:00-23:00","recycling:glass_bottles":"yes","recycling:plastic_bottles":"yes","recycling_type":"container"}},"type":"Feature"},
	{"geometry":{"coordinates":[25.017234,59.486908],"type":"Point"},"properties":{"osm_id":"8503505390","tag":{"amenity":"waste_basket"}},"type":"Feature"},
	{"geometry":{"coordinates":[25.019053,59.487123],"type":"Point"},"properties":{"osm_id":"8503505413","tag":{"amenity":"waste_basket"}},"type":"Feature"},
	{"geometry":{"coordinates":[25.019155,59.48712],"type":"Point"},"properties":{"osm_id":"8503505414","tag":{"amenity":"waste_basket"}},"type":"Feature"},
	{"geometry":{"coordinates":[25.019116,59.487018],"type":"Point"},"properties":{"osm_id":"8503505415","tag":{"amenity":"waste_basket"}},"type":"Feature"},
	{"geometry":{"coordinates":[25.019034,59.487027],"type":"Point"},"properties":{"osm_id":"8503505416","tag":{"amenity":"waste_basket"}},"type":"Feature"},
	{"geometry":{"coordinates":[25.023765,59.486807],"type":"Point"},"properties":{"osm_id":"8503505549","tag":{"amenity":"waste_basket"}},"type":"Feature"},
	{"geometry":{"coordinates":[25.022641,59.486941],"type":"Point"},"properties":{"osm_id":"8503505559","tag":{"amenity":"waste_basket"}},"type":"Feature"},
	{"geometry":{"coordinates":[25.02139,59.486808],"type":"Point"},"properties":{"osm_id":"8503505562","tag":{"amenity":"waste_basket"}},"type":"Feature"},
	{"geometry":{"coordinates":[25.017836,59.488525],"type":"Point"},"properties":{"osm_id":"8503505582","tag":{"amenity":"waste_basket"}},"type":"Feature"},
	{"geometry":{"coordinates":[25.019537,59.489162],"type":"Point"},"properties":{"osm_id":"8503505593","tag":{"amenity":"waste_basket"}},"type":"Feature"},
	{"geometry":{"coordinates":[25.017152,59.483308],"type":"Point"},"properties":{"osm_id":"8503505783","tag":{"amenity":"waste_basket"}},"type":"Feature"},
	{"geometry":{"coordinates":[25.016965,59.483224],"type":"Point"},"properties":{"osm_id":"8503505784","tag":{"amenity":"waste_basket"}},"type":"Feature"},
	{"geometry":{"coordinates":[25.016751,59.48317],"type":"Point"},"properties":{"osm_id":"8503505785","tag":{"amenity":"waste_basket"}},"type":"Feature"},
	{"geometry":{"coordinates":[25.017024,59.483174],"type":"Point"},"properties":{"osm_id":"8503505786","tag":{"amenity":"waste_basket"}},"type":"Feature"},
	{"geometry":{"coordinates":[25.017239,59.483205],"type":"Point"},"properties":{"osm_id":"8503505787","tag":{"amenity":"waste_basket"}},"type":"Feature"},
	{"geometry":{"coordinates":[25.017302,59.482994],"type":"Point"},"properties":{"osm_id":"8503505789","tag":{"amenity":"waste_basket"}},"type":"Feature"},
	{"geometry":{"coordinates":[25.022762,59.482255],"type":"Point"},"properties":{"osm_id":"8503505828","tag":{"amenity":"waste_basket"}},"type":"Feature"},
	{"geometry":{"coordinates":[25.022616,59.482263],"type":"Point"},"properties":{"osm_id":"8503505830","tag":{"amenity":"waste_basket"}},"type":"Feature"},
	{"geometry":{"coordinates":[25.022617,59.482352],"type":"Point"},"properties":{"osm_id":"8503505832","tag":{"amenity":"waste_basket"}},"type":"Feature"},
	{"geometry":{"coordinates":[25.022796,59.482345],"type":"Point"},"properties":{"osm_id":"8503505834","tag":{"amenity":"waste_basket"}},"type":"Feature"},
	{"geometry":{"coordinates":[25.023049,59.485214],"type":"Point"},"properties":{"osm_id":"8503505984","tag":{"amenity":"waste_basket"}},"type":"Feature"},
	{"geometry":{"coordinates":[25.023179,59.485217],"type":"Point"},"properties":{"osm_id":"8503505986","tag":{"amenity":"waste_basket"}},"type":"Feature"},
	{"geometry":{"coordinates":[25.022998,59.485684],"type":"Point"},"properties":{"osm_id":"8503505992","tag":{"amenity":"waste_basket"}},"type":"Feature"},
	{"geometry":{"coordinates":[25.023942,59.487427],"type":"Point"},"properties":{"osm_id":"8503506024","tag":{"amenity":"waste_basket"}},"type":"Feature"},
	{"geometry":{"coordinates":[25.022696,59.485378],"type":"Point"},"properties":{"osm_id":"8812038797","tag":{"amenity":"waste_basket"}},"type":"Feature"},
	{"geometry":{"coordinates":[25.02285,59.48529],"type":"Point"},"properties":{"osm_id":"8812038798","tag":{"amenity":"waste_basket"}},"type":"Feature"}
]
}
