{
"type": "FeatureCollection",
"features": [
	{"geometry":{"coordinates":[25.038941,57.233525],"type":"Point"},"properties":{"osm_id":"728502333","tag":{"amenity":"recycling"}},"type":"Feature"},
	{"geometry":{"coordinates":[25.044097,57.254408],"type":"Point"},"properties":{"osm_id":"5598608890","tag":{"amenity":"waste_disposal"}},"type":"Feature"},
	{"geometry":{"coordinates":[25.043023,57.236303],"type":"Point"},"properties":{"osm_id":"7691169769","tag":{"amenity":"waste_basket"}},"type":"Feature"},
	{"geometry":{"coordinates":[25.043251,57.232862],"type":"Point"},"properties":{"osm_id":"9190841388","tag":{"amenity":"waste_basket"}},"type":"Feature"},
	{"geometry":{"coordinates":[25.01145,57.242639],"type":"Point"},"properties":{"osm_id":"9191259192","tag":{"amenity":"waste_basket"}},"type":"Feature"},
	{"geometry":{"coordinates":[25.015428,57.251964],"type":"Point"},"properties":{"osm_id":"9191342038","tag":{"amenity":"waste_basket"}},"type":"Feature"},
	{"geometry":{"coordinates":[25.015975,57.252786],"type":"Point"},"properties":{"osm_id":"9191352141","tag":{"amenity":"waste_basket","image":"https://westnordost.de/p/61409.jpg"}},"type":"Feature"}
]
}
