{
"type": "FeatureCollection",
"features": [
	{"geometry":{"coordinates":[16.428304,48.162094],"type":"Point"},"properties":{"osm_id":"344983559","tag":{"amenity":"recycling","location":"overground","recycling_type":"container"}},"type":"Feature"},
	{"geometry":{"coordinates":[16.426745,48.16013],"type":"Point"},"properties":{"osm_id":"346143645","tag":{"amenity":"recycling"}},"type":"Feature"},
	{"geometry":{"coordinates":[16.425084,48.157529],"type":"Point"},"properties":{"osm_id":"346144137","tag":{"amenity":"recycling"}},"type":"Feature"},
	{"geometry":{"coordinates":[16.423001,48.159729],"type":"Point"},"properties":{"osm_id":"346144139","tag":{"amenity":"recycling"}},"type":"Feature"},
	{"geometry":{"coordinates":[16.431326,48.165406],"type":"Point"},"properties":{"osm_id":"348089020","tag":{"amenity":"recycling"}},"type":"Feature"},
	{"geometry":{"coordinates":[16.415045,48.165216],"type":"Point"},"properties":{"osm_id":"349696456","tag":{"amenity":"recycling"}},"type":"Feature"},
	{"geometry":{"coordinates":[16.428346,48.161572],"type":"Point"},"properties":{"osm_id":"349698029","tag":{"amenity":"recycling","location":"overground","recycling_type":"container"}},"type":"Feature"},
	{"geometry":{"coordinates":[16.418344,48.162728],"type":"Point"},"properties":{"osm_id":"367796997","tag":{"amenity":"recycling"}},"type":"Feature"},
	{"geometry":{"coordinates":[16.419305,48.165723],"type":"Point"},"properties":{"osm_id":"372819577","tag":{"amenity":"recycling"}},"type":"Feature"},
	{"geometry":{"coordinates":[16.418727,48.164647],"type":"Point"},"properties":{"osm_id":"372819585","tag":{"amenity":"recycling"}},"type":"Feature"},
	{"geometry":{"coordinates":[16.365653,48.165506],"type":"Point"},"properties":{"osm_id":"473203155","tag":{"amenity":"recycling","operator":"Humana","recycling:clothes":"yes"}},"type":"Feature"},
	{"geometry":{"coordinates":[16.363709,48.16342],"type":"Point"},"properties":{"osm_id":"473203161","tag":{"amenity":"recycling","recycling:cans":"yes","recycling:glass":"yes","recycling:scrap_metal":"yes"}},"type":"Feature"},
	{"geometry":{"coordinates":[16.361138,48.163647],"type":"Point"},"properties":{"osm_id":"473203162","tag":{"amenity":"recycling","recycling:glass":"yes"}},"type":"Feature"},
	{"geometry":{"coordinates":[16.377086,48.157428],"type":"Point"},"properties":{"osm_id":"699095065","tag":{"amenity":"recycling","recycling:green_waste":"yes","recycling:paper":"yes","recycling:waste":"yes"}},"type":"Feature"},
	{"geometry":{"coordinates":[16.356674,48.163479],"type":"Point"},"properties":{"osm_id":"1152933254","tag":{"amenity":"waste_basket"}},"type":"Feature"},
	{"geometry":{"coordinates":[16.357532,48.163323],"type":"Point"},"properties":{"osm_id":"1152933309","tag":{"amenity":"waste_basket"}},"type":"Feature"},
	{"geometry":{"coordinates":[16.430658,48.131208],"type":"Point"},"properties":{"osm_id":"1686369945","tag":{"amenity":"waste_basket"}},"type":"Feature"},
	{"geometry":{"coordinates":[16.430302,48.131125],"type":"Point"},"properties":{"osm_id":"1686369971","tag":{"amenity":"waste_basket"}},"type":"Feature"},
	{"geometry":{"coordinates":[16.37163,48.113577],"type":"Point"},"properties":{"name":"M\u00c3\u00bcllsammelzentrum Hennersdorf","osm_id":"1889237203","tag":{"amenity":"recycling","recycling:batteries":"yes","recycling_type":"centre"}},"type":"Feature"},
	{"geometry":{"coordinates":[16.352816,48.161186],"type":"Point"},"properties":{"osm_id":"2402415803","tag":{"amenity":"waste_basket"}},"type":"Feature"},
	{"geometry":{"coordinates":[16.351925,48.162615],"type":"Point"},"properties":{"osm_id":"2402415804","tag":{"amenity":"waste_basket"}},"type":"Feature"},
	{"geometry":{"coordinates":[16.3576,48.159779],"type":"Point"},"properties":{"osm_id":"2402415806","tag":{"amenity":"waste_basket"}},"type":"Feature"},
	{"geometry":{"coordinates":[16.358324,48.15867],"type":"Point"},"properties":{"osm_id":"2402415807","tag":{"amenity":"waste_basket"}},"type":"Feature"},
	{"geometry":{"coordinates":[16.356594,48.157033],"type":"Point"},"properties":{"osm_id":"2402415808","tag":{"amenity":"waste_basket"}},"type":"Feature"},
	{"geometry":{"coordinates":[16.358195,48.155395],"type":"Point"},"properties":{"osm_id":"2402415809","tag":{"amenity":"waste_basket"}},"type":"Feature"},
	{"geometry":{"coordinates":[16.390835,48.14992],"type":"Point"},"properties":{"osm_id":"2447496219","tag":{"amenity":"waste_basket"}},"type":"Feature"},
	{"geometry":{"coordinates":[16.389239,48.150572],"type":"Point"},"properties":{"osm_id":"2447496221","tag":{"amenity":"waste_basket"}},"type":"Feature"},
	{"geometry":{"coordinates":[16.351293,48.162077],"type":"Point"},"properties":{"name":"M\u00c3\u00bcllbox","osm_id":"2599656816","tag":{"amenity":"waste_basket"}},"type":"Feature"},
	{"geometry":{"coordinates":[16.389037,48.150734],"type":"Point"},"properties":{"osm_id":"3067612139","tag":{"amenity":"waste_basket"}},"type":"Feature"},
	{"geometry":{"coordinates":[16.387693,48.151408],"type":"Point"},"properties":{"osm_id":"3095498982","tag":{"amenity":"waste_basket"}},"type":"Feature"},
	{"geometry":{"coordinates":[16.387335,48.151151],"type":"Point"},"properties":{"osm_id":"3095498983","tag":{"amenity":"waste_basket"}},"type":"Feature"},
	{"geometry":{"coordinates":[16.386977,48.150888],"type":"Point"},"properties":{"osm_id":"3095498984","tag":{"amenity":"waste_basket"}},"type":"Feature"},
	{"geometry":{"coordinates":[16.388806,48.150565],"type":"Point"},"properties":{"osm_id":"3095498985","tag":{"amenity":"waste_basket"}},"type":"Feature"},
	{"geometry":{"coordinates":[16.390589,48.149672],"type":"Point"},"properties":{"osm_id":"3095498999","tag":{"amenity":"waste_basket"}},"type":"Feature"},
	{"geometry":{"coordinates":[16.3914,48.149885],"type":"Point"},"properties":{"osm_id":"3097380906","tag":{"amenity":"waste_basket"}},"type":"Feature"},
	{"geometry":{"coordinates":[16.390573,48.149274],"type":"Point"},"properties":{"osm_id":"3097380907","tag":{"amenity":"waste_basket"}},"type":"Feature"},
	{"geometry":{"coordinates":[16.414324,48.133658],"type":"Point"},"properties":{"osm_id":"3325584809","tag":{"amenity":"recycling","recycling:cans":"yes","recycling:glass":"yes","recycling:paper":"yes","recycling:plastic_bottles":"yes"}},"type":"Feature"},
	{"geometry":{"coordinates":[16.412688,48.133536],"type":"Point"},"properties":{"osm_id":"3325584810","tag":{"amenity":"recycling","recycling:paper":"yes"}},"type":"Feature"},
	{"geometry":{"coordinates":[16.412385,48.13584],"type":"Point"},"properties":{"osm_id":"3325584811","tag":{"amenity":"recycling","recycling:paper":"yes"}},"type":"Feature"},
	{"geometry":{"coordinates":[16.417684,48.13241],"type":"Point"},"properties":{"osm_id":"3325584819","tag":{"amenity":"recycling","recycling:paper":"yes"}},"type":"Feature"},
	{"geometry":{"coordinates":[16.422112,48.131521],"type":"Point"},"properties":{"osm_id":"3325584820","tag":{"amenity":"recycling","recycling:cans":"yes","recycling:glass":"yes","recycling:green_waste":"yes","recycling:plastic_bottles":"yes"}},"type":"Feature"},
	{"geometry":{"coordinates":[16.422989,48.131551],"type":"Point"},"properties":{"osm_id":"3325584821","tag":{"amenity":"recycling","recycling:paper":"yes"}},"type":"Feature"},
	{"geometry":{"coordinates":[16.427244,48.131127],"type":"Point"},"properties":{"osm_id":"3325584822","tag":{"amenity":"recycling","recycling:glass":"yes"}},"type":"Feature"},
	{"geometry":{"coordinates":[16.408073,48.134708],"type":"Point"},"properties":{"osm_id":"3325594174","tag":{"amenity":"recycling","recycling:cans":"yes","recycling:glass":"yes","recycling:paper":"yes","recycling:plastic_bottles":"yes"}},"type":"Feature"},
	{"geometry":{"coordinates":[16.402501,48.136155],"type":"Point"},"properties":{"osm_id":"3325630285","tag":{"amenity":"recycling","recycling:cans":"yes","recycling:glass":"yes","recycling:green_waste":"yes","recycling:plastic_bottles":"yes"}},"type":"Feature"},
	{"geometry":{"coordinates":[16.403565,48.135703],"type":"Point"},"properties":{"osm_id":"3325630286","tag":{"amenity":"recycling","recycling:paper":"yes"}},"type":"Feature"},
	{"geometry":{"coordinates":[16.405493,48.139158],"type":"Point"},"properties":{"osm_id":"3325737324","tag":{"amenity":"recycling","location":"overground","recycling:green_waste":"yes","recycling_type":"container"}},"type":"Feature"},
	{"geometry":{"coordinates":[16.40605,48.139066],"type":"Point"},"properties":{"osm_id":"3325737325","tag":{"amenity":"recycling","location":"overground","recycling:green_waste":"yes","recycling_type":"container"}},"type":"Feature"},
	{"geometry":{"coordinates":[16.406242,48.139534],"type":"Point"},"properties":{"osm_id":"3325737326","tag":{"amenity":"recycling","location":"overground","recycling:green_waste":"yes","recycling_type":"container"}},"type":"Feature"},
	{"geometry":{"coordinates":[16.406528,48.139938],"type":"Point"},"properties":{"osm_id":"3325737327","tag":{"amenity":"recycling","location":"overground","recycling:green_waste":"yes","recycling_type":"container"}},"type":"Feature"},
	{"geometry":{"coordinates":[16.405478,48.140132],"type":"Point"},"properties":{"osm_id":"3325737328","tag":{"amenity":"recycling","location":"overground","recycling:green_waste":"yes","recycling_type":"container"}},"type":"Feature"},
	{"geometry":{"coordinates":[16.405978,48.138591],"type":"Point"},"properties":{"osm_id":"3325737329","tag":{"amenity":"recycling","location":"overground","recycling:green_waste":"yes","recycling_type":"container"}},"type":"Feature"},
	{"geometry":{"coordinates":[16.358667,48.15563],"type":"Point"},"properties":{"osm_id":"3342156026","tag":{"amenity":"waste_basket"}},"type":"Feature"},
	{"geometry":{"coordinates":[16.385772,48.165297],"type":"Point"},"properties":{"osm_id":"3534479767","tag":{"amenity":"recycling","recycling:glass":"yes","recycling:scrap_metal":"yes","recycling_type":"container"}},"type":"Feature"},
	{"geometry":{"coordinates":[16.375924,48.151019],"type":"Point"},"properties":{"osm_id":"3579245478","tag":{"amenity":"recycling","location":"overground","recycling:cans":"yes","recycling:glass":"yes","recycling:scrap_metal":"yes","recycling_type":"container"}},"type":"Feature"},
	{"geometry":{"coordinates":[16.373506,48.147686],"type":"Point"},"properties":{"osm_id":"3586847522","tag":{"amenity":"waste_basket"}},"type":"Feature"},
	{"geometry":{"coordinates":[16.378914,48.160307],"type":"Point"},"properties":{"osm_id":"3588099911","tag":{"amenity":"waste_basket"}},"type":"Feature"},
	{"geometry":{"coordinates":[16.379628,48.160496],"type":"Point"},"properties":{"osm_id":"3588099917","tag":{"amenity":"waste_basket"}},"type":"Feature"},
	{"geometry":{"coordinates":[16.380769,48.160883],"type":"Point"},"properties":{"osm_id":"3588099923","tag":{"amenity":"waste_basket"}},"type":"Feature"},
	{"geometry":{"coordinates":[16.370692,48.143799],"type":"Point"},"properties":{"osm_id":"3588163955","tag":{"amenity":"waste_basket"}},"type":"Feature"},
	{"geometry":{"coordinates":[16.348319,48.143739],"type":"Point"},"properties":{"osm_id":"3707909081","tag":{"amenity":"recycling","recycling:green_waste":"yes"}},"type":"Feature"},
	{"geometry":{"coordinates":[16.347772,48.143883],"type":"Point"},"properties":{"osm_id":"3707909082","tag":{"amenity":"recycling","recycling:green_waste":"yes"}},"type":"Feature"},
	{"geometry":{"coordinates":[16.349073,48.143474],"type":"Point"},"properties":{"osm_id":"3707909083","tag":{"amenity":"recycling","recycling:green_waste":"yes"}},"type":"Feature"},
	{"geometry":{"coordinates":[16.349451,48.144192],"type":"Point"},"properties":{"osm_id":"3707909084","tag":{"amenity":"recycling","recycling:green_waste":"yes"}},"type":"Feature"},
	{"geometry":{"coordinates":[16.349834,48.144842],"type":"Point"},"properties":{"osm_id":"3707909085","tag":{"amenity":"recycling","recycling:green_waste":"yes"}},"type":"Feature"},
	{"geometry":{"coordinates":[16.350152,48.145393],"type":"Point"},"properties":{"osm_id":"3707909086","tag":{"amenity":"recycling","recycling:green_waste":"yes"}},"type":"Feature"},
	{"geometry":{"coordinates":[16.349073,48.144979],"type":"Point"},"properties":{"osm_id":"3707909087","tag":{"amenity":"recycling","recycling:green_waste":"yes"}},"type":"Feature"},
	{"geometry":{"coordinates":[16.349416,48.145585],"type":"Point"},"properties":{"osm_id":"3707909088","tag":{"amenity":"recycling","recycling:green_waste":"yes"}},"type":"Feature"},
	{"geometry":{"coordinates":[16.349257,48.146458],"type":"Point"},"properties":{"osm_id":"3707909089","tag":{"amenity":"recycling","recycling:green_waste":"yes"}},"type":"Feature"},
	{"geometry":{"coordinates":[16.349549,48.146911],"type":"Point"},"properties":{"osm_id":"3707909090","tag":{"amenity":"recycling","recycling:green_waste":"yes"}},"type":"Feature"},
	{"geometry":{"coordinates":[16.348234,48.142827],"type":"Point"},"properties":{"osm_id":"3707938672","tag":{"amenity":"recycling","recycling:green_waste":"yes"}},"type":"Feature"},
	{"geometry":{"coordinates":[16.362935,48.157505],"type":"Point"},"properties":{"name":"Altglas, Plastikflaschen, Altkleidercontainer ...","osm_id":"3729187104","tag":{"amenity":"waste_disposal"}},"type":"Feature"},
	{"geometry":{"coordinates":[16.420259,48.127674],"type":"Point"},"properties":{"osm_id":"3779779729","tag":{"amenity":"waste_basket"}},"type":"Feature"},
	{"geometry":{"coordinates":[16.352662,48.148029],"type":"Point"},"properties":{"osm_id":"3954735229","tag":{"amenity":"recycling","operator":"MA48","recycling:cans":"yes","recycling:glass":"yes","recycling:glass_bottles":"yes","recycling:paper":"yes","recycling:plastic":"yes","recycling_type":"container"}},"type":"Feature"},
	{"geometry":{"coordinates":[16.420151,48.132171],"type":"Point"},"properties":{"osm_id":"4314807334","tag":{"amenity":"waste_basket"}},"type":"Feature"},
	{"geometry":{"coordinates":[16.419985,48.132233],"type":"Point"},"properties":{"osm_id":"4314807338","tag":{"amenity":"waste_basket"}},"type":"Feature"},
	{"geometry":{"coordinates":[16.426053,48.132765],"type":"Point"},"properties":{"osm_id":"4314807343","tag":{"amenity":"waste_basket"}},"type":"Feature"},
	{"geometry":{"coordinates":[16.375764,48.149377],"type":"Point"},"properties":{"osm_id":"4324214414","tag":{"amenity":"recycling","location":"overground","recycling_type":"container"}},"type":"Feature"},
	{"geometry":{"coordinates":[16.380967,48.149261],"type":"Point"},"properties":{"osm_id":"4324214415","tag":{"amenity":"recycling","location":"overground","recycling_type":"container"}},"type":"Feature"},
	{"geometry":{"coordinates":[16.382146,48.149495],"type":"Point"},"properties":{"osm_id":"4324214417","tag":{"amenity":"waste_disposal"}},"type":"Feature"},
	{"geometry":{"coordinates":[16.378812,48.150191],"type":"Point"},"properties":{"osm_id":"4324214418","tag":{"amenity":"recycling","location":"overground","recycling_type":"container"}},"type":"Feature"},
	{"geometry":{"coordinates":[16.378722,48.148866],"type":"Point"},"properties":{"osm_id":"4324313572","tag":{"amenity":"recycling","location":"overground","recycling_type":"container"}},"type":"Feature"},
	{"geometry":{"coordinates":[16.378204,48.14897],"type":"Point"},"properties":{"osm_id":"4324313574","tag":{"amenity":"recycling","location":"overground","recycling_type":"container"}},"type":"Feature"},
	{"geometry":{"coordinates":[16.377109,48.149225],"type":"Point"},"properties":{"osm_id":"4324313578","tag":{"amenity":"recycling","location":"overground","recycling_type":"container"}},"type":"Feature"},
	{"geometry":{"coordinates":[16.379248,48.149523],"type":"Point"},"properties":{"name":"recyclingcontainer","osm_id":"4324360306","tag":{"amenity":"recycling","location":"overground","recycling_type":"container"}},"type":"Feature"},
	{"geometry":{"coordinates":[16.347764,48.165669],"type":"Point"},"properties":{"osm_id":"4417820383","tag":{"amenity":"waste_basket"}},"type":"Feature"},
	{"geometry":{"coordinates":[16.403619,48.149859],"type":"Point"},"properties":{"osm_id":"4675377477","tag":{"amenity":"waste_basket"}},"type":"Feature"},
	{"geometry":{"coordinates":[16.40416,48.150078],"type":"Point"},"properties":{"osm_id":"4675377483","tag":{"amenity":"waste_basket"}},"type":"Feature"},
	{"geometry":{"coordinates":[16.404234,48.150757],"type":"Point"},"properties":{"osm_id":"4675377607","tag":{"amenity":"waste_basket"}},"type":"Feature"},
	{"geometry":{"coordinates":[16.402025,48.15092],"type":"Point"},"properties":{"osm_id":"4675377671","tag":{"amenity":"waste_basket"}},"type":"Feature"},
	{"geometry":{"coordinates":[16.401787,48.151037],"type":"Point"},"properties":{"osm_id":"4675377672","tag":{"amenity":"waste_basket"}},"type":"Feature"},
	{"geometry":{"coordinates":[16.422877,48.117912],"type":"Point"},"properties":{"osm_id":"4898036915","tag":{"amenity":"waste_basket"}},"type":"Feature"},
	{"geometry":{"coordinates":[16.431287,48.107592],"type":"Point"},"properties":{"osm_id":"4898036917","tag":{"amenity":"waste_basket"}},"type":"Feature"},
	{"geometry":{"coordinates":[16.434132,48.111575],"type":"Point"},"properties":{"osm_id":"4898036918","tag":{"amenity":"waste_basket"}},"type":"Feature"},
	{"geometry":{"coordinates":[16.435004,48.114583],"type":"Point"},"properties":{"osm_id":"4898037446","tag":{"amenity":"waste_basket"}},"type":"Feature"},
	{"geometry":{"coordinates":[16.434683,48.116305],"type":"Point"},"properties":{"osm_id":"4898037449","tag":{"amenity":"waste_basket"}},"type":"Feature"},
	{"geometry":{"coordinates":[16.380588,48.164416],"type":"Point"},"properties":{"osm_id":"5218915719","tag":{"amenity":"waste_basket"}},"type":"Feature"},
	{"geometry":{"coordinates":[16.383732,48.161317],"type":"Point"},"properties":{"osm_id":"5246501303","tag":{"amenity":"waste_basket"}},"type":"Feature"},
	{"geometry":{"coordinates":[16.383518,48.161282],"type":"Point"},"properties":{"osm_id":"5246501304","tag":{"amenity":"waste_basket"}},"type":"Feature"},
	{"geometry":{"coordinates":[16.383802,48.161349],"type":"Point"},"properties":{"osm_id":"5268194733","tag":{"amenity":"waste_basket"}},"type":"Feature"},
	{"geometry":{"coordinates":[16.401432,48.137828],"type":"Point"},"properties":{"osm_id":"5314200647","tag":{"amenity":"recycling","recycling:glass_bottles":"yes","recycling:paper":"yes","recycling_type":"container"}},"type":"Feature"},
	{"geometry":{"coordinates":[16.389914,48.157995],"type":"Point"},"properties":{"osm_id":"5501842396","tag":{"amenity":"waste_basket"}},"type":"Feature"},
	{"geometry":{"coordinates":[16.423617,48.152052],"type":"Point"},"properties":{"osm_id":"5570992448","tag":{"amenity":"waste_basket"}},"type":"Feature"},
	{"geometry":{"coordinates":[16.348173,48.117432],"type":"Point"},"properties":{"osm_id":"5591143329","tag":{"amenity":"waste_basket"}},"type":"Feature"},
	{"geometry":{"coordinates":[16.353952,48.114943],"type":"Point"},"properties":{"osm_id":"5591143348","tag":{"amenity":"waste_basket"}},"type":"Feature"},
	{"geometry":{"coordinates":[16.370904,48.109637],"type":"Point"},"properties":{"osm_id":"5591143375","tag":{"amenity":"waste_basket"}},"type":"Feature"},
	{"geometry":{"coordinates":[16.395335,48.112195],"type":"Point"},"properties":{"osm_id":"5591143467","tag":{"amenity":"recycling","recycling:glass_bottles":"yes","recycling_type":"container"}},"type":"Feature"},
	{"geometry":{"coordinates":[16.394798,48.124082],"type":"Point"},"properties":{"osm_id":"5591143472","tag":{"amenity":"waste_basket"}},"type":"Feature"},
	{"geometry":{"coordinates":[16.402337,48.147652],"type":"Point"},"properties":{"osm_id":"5618200839","tag":{"amenity":"waste_basket"}},"type":"Feature"},
	{"geometry":{"coordinates":[16.401885,48.148225],"type":"Point"},"properties":{"osm_id":"5618200859","tag":{"amenity":"waste_basket"}},"type":"Feature"},
	{"geometry":{"coordinates":[16.400922,48.147396],"type":"Point"},"properties":{"osm_id":"5618200892","tag":{"amenity":"waste_basket"}},"type":"Feature"},
	{"geometry":{"coordinates":[16.401077,48.147272],"type":"Point"},"properties":{"osm_id":"5618200895","tag":{"amenity":"waste_basket"}},"type":"Feature"},
	{"geometry":{"coordinates":[16.349592,48.115987],"type":"Point"},"properties":{"osm_id":"5749605666","tag":{"amenity":"waste_basket"}},"type":"Feature"},
	{"geometry":{"coordinates":[16.349028,48.114949],"type":"Point"},"properties":{"osm_id":"5749605667","tag":{"amenity":"waste_basket"}},"type":"Feature"},
	{"geometry":{"coordinates":[16.3495,48.11489],"type":"Point"},"properties":{"osm_id":"5749605669","tag":{"amenity":"waste_basket"}},"type":"Feature"},
	{"geometry":{"coordinates":[16.348416,48.153466],"type":"Point"},"properties":{"osm_id":"5766245188","tag":{"amenity":"waste_basket"}},"type":"Feature"},
	{"geometry":{"coordinates":[16.348801,48.154035],"type":"Point"},"properties":{"osm_id":"5766245189","tag":{"amenity":"waste_basket"}},"type":"Feature"},
	{"geometry":{"coordinates":[16.348953,48.154252],"type":"Point"},"properties":{"osm_id":"5766245190","tag":{"amenity":"recycling","recycling:glass_bottles":"yes","recycling_type":"container"}},"type":"Feature"},
	{"geometry":{"coordinates":[16.401432,48.165587],"type":"Point"},"properties":{"osm_id":"5807389566","tag":{"amenity":"waste_basket"}},"type":"Feature"},
	{"geometry":{"coordinates":[16.401238,48.165591],"type":"Point"},"properties":{"osm_id":"5807389568","tag":{"amenity":"recycling","recycling:plastic_bottles":"yes","recycling:waste":"yes","recycling_type":"container"}},"type":"Feature"},
	{"geometry":{"coordinates":[16.400868,48.165848],"type":"Point"},"properties":{"osm_id":"5807389573","tag":{"amenity":"waste_basket"}},"type":"Feature"},
	{"geometry":{"coordinates":[16.400533,48.166078],"type":"Point"},"properties":{"osm_id":"5807389611","tag":{"amenity":"waste_basket"}},"type":"Feature"},
	{"geometry":{"coordinates":[16.376662,48.156394],"type":"Point"},"properties":{"osm_id":"5809244424","tag":{"amenity":"recycling","recycling:glass":"yes","recycling_type":"container"}},"type":"Feature"},
	{"geometry":{"coordinates":[16.377075,48.155744],"type":"Point"},"properties":{"osm_id":"5809244429","tag":{"amenity":"waste_basket"}},"type":"Feature"},
	{"geometry":{"coordinates":[16.377552,48.155623],"type":"Point"},"properties":{"osm_id":"5809244430","tag":{"amenity":"waste_basket"}},"type":"Feature"},
	{"geometry":{"coordinates":[16.37771,48.155024],"type":"Point"},"properties":{"osm_id":"5809244433","tag":{"amenity":"waste_basket"}},"type":"Feature"},
	{"geometry":{"coordinates":[16.377723,48.154812],"type":"Point"},"properties":{"osm_id":"5809244434","tag":{"amenity":"waste_basket"}},"type":"Feature"},
	{"geometry":{"coordinates":[16.377392,48.154507],"type":"Point"},"properties":{"osm_id":"5809244435","tag":{"amenity":"waste_basket"}},"type":"Feature"},
	{"geometry":{"coordinates":[16.377312,48.153275],"type":"Point"},"properties":{"osm_id":"5809244440","tag":{"amenity":"recycling","recycling:clothes":"yes","recycling_type":"container"}},"type":"Feature"},
	{"geometry":{"coordinates":[16.376109,48.150992],"type":"Point"},"properties":{"osm_id":"5809244442","tag":{"amenity":"waste_basket"}},"type":"Feature"},
	{"geometry":{"coordinates":[16.385611,48.159902],"type":"Point"},"properties":{"osm_id":"5837084686","tag":{"amenity":"recycling","recycling_type":"container"}},"type":"Feature"},
	{"geometry":{"coordinates":[16.392779,48.157214],"type":"Point"},"properties":{"osm_id":"5899983342","tag":{"amenity":"recycling","recycling:clothes":"yes","recycling_type":"container"}},"type":"Feature"},
	{"geometry":{"coordinates":[16.391968,48.156795],"type":"Point"},"properties":{"osm_id":"5899983343","tag":{"amenity":"recycling","recycling_type":"container"}},"type":"Feature"},
	{"geometry":{"coordinates":[16.353998,48.148108],"type":"Point"},"properties":{"osm_id":"5929213339","tag":{"amenity":"waste_basket"}},"type":"Feature"},
	{"geometry":{"coordinates":[16.352874,48.14808],"type":"Point"},"properties":{"osm_id":"5929228792","tag":{"amenity":"waste_basket"}},"type":"Feature"},
	{"geometry":{"coordinates":[16.353153,48.147859],"type":"Point"},"properties":{"osm_id":"5929228793","tag":{"amenity":"waste_basket"}},"type":"Feature"},
	{"geometry":{"coordinates":[16.353744,48.147831],"type":"Point"},"properties":{"osm_id":"5929228794","tag":{"amenity":"waste_basket"}},"type":"Feature"},
	{"geometry":{"coordinates":[16.348024,48.151157],"type":"Point"},"properties":{"osm_id":"5929228795","tag":{"amenity":"waste_basket"}},"type":"Feature"},
	{"geometry":{"coordinates":[16.402415,48.153679],"type":"Point"},"properties":{"osm_id":"5955041141","tag":{"amenity":"waste_basket"}},"type":"Feature"},
	{"geometry":{"coordinates":[16.392092,48.145585],"type":"Point"},"properties":{"osm_id":"6482322714","tag":{"amenity":"recycling","recycling:glass":"yes","recycling_type":"container"}},"type":"Feature"},
	{"geometry":{"coordinates":[16.368579,48.115228],"type":"Point"},"properties":{"osm_id":"6531696354","tag":{"amenity":"waste_basket"}},"type":"Feature"},
	{"geometry":{"coordinates":[16.372743,48.114034],"type":"Point"},"properties":{"osm_id":"6713002795","tag":{"amenity":"waste_basket"}},"type":"Feature"},
	{"geometry":{"coordinates":[16.348385,48.117206],"type":"Point"},"properties":{"osm_id":"6720426844","tag":{"amenity":"waste_basket","waste":"dog_excrement"}},"type":"Feature"},
	{"geometry":{"coordinates":[16.398396,48.149762],"type":"Point"},"properties":{"osm_id":"6775073649","tag":{"amenity":"waste_basket","waste":"trash"}},"type":"Feature"},
	{"geometry":{"coordinates":[16.358628,48.11207],"type":"Point"},"properties":{"osm_id":"6810405933","tag":{"amenity":"waste_basket"}},"type":"Feature"},
	{"geometry":{"coordinates":[16.395211,48.164513],"type":"Point"},"properties":{"osm_id":"6912397720","tag":{"amenity":"waste_basket"}},"type":"Feature"},
	{"geometry":{"coordinates":[16.367542,48.162614],"type":"Point"},"properties":{"osm_id":"7019530932","tag":{"amenity":"waste_basket"}},"type":"Feature"},
	{"geometry":{"coordinates":[16.353349,48.166047],"type":"Point"},"properties":{"osm_id":"7049446617","tag":{"amenity":"waste_basket"}},"type":"Feature"},
	{"geometry":{"coordinates":[16.34941,48.1411],"type":"Point"},"properties":{"osm_id":"7460624081","tag":{"amenity":"recycling","recycling:clothes":"yes","recycling:glass_bottles":"yes","recycling:paper":"yes","recycling:plastic":"no","recycling:plastic_packaging":"yes","recycling_type":"container"}},"type":"Feature"},
	{"geometry":{"coordinates":[16.347829,48.149618],"type":"Point"},"properties":{"osm_id":"7549447576","tag":{"amenity":"waste_basket"}},"type":"Feature"},
	{"geometry":{"coordinates":[16.350079,48.147094],"type":"Point"},"properties":{"osm_id":"7549447583","tag":{"amenity":"waste_basket"}},"type":"Feature"},
	{"geometry":{"coordinates":[16.350339,48.147065],"type":"Point"},"properties":{"osm_id":"7549447596","tag":{"amenity":"waste_basket"}},"type":"Feature"},
	{"geometry":{"coordinates":[16.351128,48.147297],"type":"Point"},"properties":{"osm_id":"7549447609","tag":{"amenity":"waste_basket"}},"type":"Feature"},
	{"geometry":{"coordinates":[16.350868,48.146865],"type":"Point"},"properties":{"osm_id":"7549447610","tag":{"amenity":"waste_basket"}},"type":"Feature"},
	{"geometry":{"coordinates":[16.352541,48.146744],"type":"Point"},"properties":{"osm_id":"7549447614","tag":{"amenity":"waste_basket"}},"type":"Feature"},
	{"geometry":{"coordinates":[16.421876,48.16228],"type":"Point"},"properties":{"osm_id":"7596622729","tag":{"amenity":"waste_basket"}},"type":"Feature"},
	{"geometry":{"coordinates":[16.42189,48.16232],"type":"Point"},"properties":{"osm_id":"7596622730","tag":{"amenity":"recycling","recycling:cans":"yes","recycling:glass_bottles":"yes","recycling:plastic_bottles":"yes","recycling:tetrapak":"yes","recycling_type":"container"}},"type":"Feature"},
	{"geometry":{"coordinates":[16.423442,48.163591],"type":"Point"},"properties":{"osm_id":"7596622731","tag":{"amenity":"waste_basket"}},"type":"Feature"},
	{"geometry":{"coordinates":[16.422935,48.164123],"type":"Point"},"properties":{"osm_id":"7596645136","tag":{"amenity":"waste_basket"}},"type":"Feature"},
	{"geometry":{"coordinates":[16.423548,48.164633],"type":"Point"},"properties":{"osm_id":"7596645142","tag":{"amenity":"waste_basket"}},"type":"Feature"},
	{"geometry":{"coordinates":[16.375293,48.126945],"type":"Point"},"properties":{"osm_id":"7640599001","tag":{"amenity":"waste_basket"}},"type":"Feature"},
	{"geometry":{"coordinates":[16.368065,48.122187],"type":"Point"},"properties":{"osm_id":"7640599002","tag":{"amenity":"waste_basket"}},"type":"Feature"},
	{"geometry":{"coordinates":[16.416818,48.164422],"type":"Point"},"properties":{"osm_id":"7667906608","tag":{"amenity":"waste_basket"}},"type":"Feature"}
]
}
