{
"type": "FeatureCollection",
"features": [
	{"geometry":{"coordinates":[16.412025,47.969712],"type":"Point"},"properties":{"osm_id":"1682991471","tag":{"amenity":"waste_basket"}},"type":"Feature"},
	{"geometry":{"coordinates":[16.411186,47.953832],"type":"Point"},"properties":{"osm_id":"1683159141","tag":{"amenity":"recycling","recycling:cans":"yes","recycling:glass":"yes","recycling_type":"container"}},"type":"Feature"},
	{"geometry":{"coordinates":[16.40819,47.960468],"type":"Point"},"properties":{"osm_id":"1684475772","tag":{"amenity":"waste_basket"}},"type":"Feature"},
	{"geometry":{"coordinates":[16.404852,47.960977],"type":"Point"},"properties":{"osm_id":"1684573161","tag":{"amenity":"waste_basket"}},"type":"Feature"},
	{"geometry":{"coordinates":[16.406343,47.961925],"type":"Point"},"properties":{"osm_id":"1684573178","tag":{"amenity":"waste_basket"}},"type":"Feature"},
	{"geometry":{"coordinates":[16.405148,47.962404],"type":"Point"},"properties":{"osm_id":"1684573190","tag":{"amenity":"waste_basket"}},"type":"Feature"},
	{"geometry":{"coordinates":[16.403996,47.962624],"type":"Point"},"properties":{"osm_id":"1684573197","tag":{"amenity":"recycling","recycling:cans":"yes","recycling:clothes":"yes","recycling:glass":"yes","recycling:paper":"no","recycling:scrap_metal":"yes","recycling_type":"container"}},"type":"Feature"},
	{"geometry":{"coordinates":[16.400863,47.961966],"type":"Point"},"properties":{"osm_id":"1684600477","tag":{"amenity":"waste_basket"}},"type":"Feature"},
	{"geometry":{"coordinates":[16.400591,47.961996],"type":"Point"},"properties":{"osm_id":"1684600480","tag":{"amenity":"waste_basket"}},"type":"Feature"},
	{"geometry":{"coordinates":[16.402518,47.963711],"type":"Point"},"properties":{"osm_id":"1695939423","tag":{"amenity":"waste_basket"}},"type":"Feature"},
	{"geometry":{"coordinates":[16.402166,47.964585],"type":"Point"},"properties":{"osm_id":"1695971175","tag":{"amenity":"waste_basket"}},"type":"Feature"},
	{"geometry":{"coordinates":[16.404768,47.968678],"type":"Point"},"properties":{"osm_id":"1696042918","tag":{"amenity":"recycling","recycling_type":"container"}},"type":"Feature"},
	{"geometry":{"coordinates":[16.39977,47.970203],"type":"Point"},"properties":{"osm_id":"1696042922","tag":{"amenity":"waste_basket"}},"type":"Feature"},
	{"geometry":{"coordinates":[16.410148,47.973397],"type":"Point"},"properties":{"osm_id":"1696089944","tag":{"amenity":"recycling","recycling:cans":"yes","recycling:glass":"yes","recycling_type":"container"}},"type":"Feature"},
	{"geometry":{"coordinates":[16.40982,47.973549],"type":"Point"},"properties":{"osm_id":"1696089956","tag":{"amenity":"waste_basket"}},"type":"Feature"},
	{"geometry":{"coordinates":[16.408469,47.975957],"type":"Point"},"properties":{"osm_id":"1696089984","tag":{"amenity":"waste_basket"}},"type":"Feature"},
	{"geometry":{"coordinates":[16.396612,47.976145],"type":"Point"},"properties":{"osm_id":"1696089988","tag":{"amenity":"waste_basket"}},"type":"Feature"},
	{"geometry":{"coordinates":[16.405369,47.969118],"type":"Point"},"properties":{"osm_id":"1696130552","tag":{"amenity":"recycling","recycling:cans":"yes","recycling:glass":"yes","recycling_type":"container"}},"type":"Feature"},
	{"geometry":{"coordinates":[16.411249,47.966315],"type":"Point"},"properties":{"osm_id":"1696136408","tag":{"amenity":"waste_basket"}},"type":"Feature"},
	{"geometry":{"coordinates":[16.409955,47.968043],"type":"Point"},"properties":{"osm_id":"1696136418","tag":{"amenity":"waste_basket"}},"type":"Feature"},
	{"geometry":{"coordinates":[16.415529,47.957156],"type":"Point"},"properties":{"osm_id":"1696157214","tag":{"amenity":"waste_basket"}},"type":"Feature"},
	{"geometry":{"coordinates":[16.409029,47.95853],"type":"Point"},"properties":{"osm_id":"1696157231","tag":{"amenity":"recycling","recycling:cans":"yes","recycling:clothes":"yes","recycling:glass":"yes","recycling:paper":"no","recycling_type":"container"}},"type":"Feature"},
	{"geometry":{"coordinates":[16.410961,47.960044],"type":"Point"},"properties":{"osm_id":"1696157254","tag":{"amenity":"waste_basket"}},"type":"Feature"},
	{"geometry":{"coordinates":[16.401172,47.960305],"type":"Point"},"properties":{"osm_id":"1696157257","tag":{"amenity":"recycling","recycling:clothes":"yes","recycling_type":"container"}},"type":"Feature"},
	{"geometry":{"coordinates":[16.411194,47.962485],"type":"Point"},"properties":{"osm_id":"1696157284","tag":{"amenity":"waste_basket"}},"type":"Feature"},
	{"geometry":{"coordinates":[16.40422,47.964974],"type":"Point"},"properties":{"osm_id":"3388112288","tag":{"amenity":"waste_basket"}},"type":"Feature"},
	{"geometry":{"coordinates":[16.400037,47.962022],"type":"Point"},"properties":{"osm_id":"3407163275","tag":{"amenity":"recycling","recycling:cans":"yes","recycling:clothes":"yes","recycling:glass":"yes"}},"type":"Feature"},
	{"geometry":{"coordinates":[16.403003,47.961685],"type":"Point"},"properties":{"osm_id":"3411542953","tag":{"amenity":"waste_basket"}},"type":"Feature"},
	{"geometry":{"coordinates":[16.405783,47.947852],"type":"Point"},"properties":{"osm_id":"3420037904","tag":{"amenity":"recycling","location":"overground","recycling:clothes":"yes","recycling_type":"container"}},"type":"Feature"},
	{"geometry":{"coordinates":[16.408262,47.960801],"type":"Point"},"properties":{"osm_id":"3423716346","tag":{"amenity":"waste_basket"}},"type":"Feature"},
	{"geometry":{"coordinates":[16.405746,47.962147],"type":"Point"},"properties":{"osm_id":"3423716347","tag":{"amenity":"waste_basket"}},"type":"Feature"},
	{"geometry":{"coordinates":[16.414718,47.952432],"type":"Point"},"properties":{"osm_id":"3451846377","tag":{"amenity":"waste_basket"}},"type":"Feature"},
	{"geometry":{"coordinates":[16.416069,47.97103],"type":"Point"},"properties":{"osm_id":"3491061373","tag":{"amenity":"waste_basket","waste_basket:excrement_bags":"yes"}},"type":"Feature"},
	{"geometry":{"coordinates":[16.396009,47.942879],"type":"Point"},"properties":{"osm_id":"3497970945","tag":{"amenity":"recycling","recycling:cans":"yes","recycling:clothes":"yes","recycling:glass":"yes","recycling:scrap_metal":"no","recycling_type":"container"}},"type":"Feature"},
	{"geometry":{"coordinates":[16.40546,47.962281],"type":"Point"},"properties":{"osm_id":"3663404014","tag":{"amenity":"waste_basket"}},"type":"Feature"},
	{"geometry":{"coordinates":[16.405335,47.962339],"type":"Point"},"properties":{"osm_id":"3663404016","tag":{"amenity":"waste_basket"}},"type":"Feature"},
	{"geometry":{"coordinates":[16.412268,47.973062],"type":"Point"},"properties":{"barrier":"gate","osm_id":"3864127857","tag":{"access":"customers"}},"type":"Feature"},
	{"geometry":{"coordinates":[16.412464,47.973447],"type":"Point"},"properties":{"barrier":"gate","osm_id":"3864127866","tag":{"access":"customers"}},"type":"Feature"},
	{"geometry":{"coordinates":[16.410404,47.950642],"type":"Point"},"properties":{"osm_id":"3898617022","tag":{"amenity":"recycling","opening_hours":"24/7","recycling:cans":"yes","recycling:clothes":"yes","recycling:glass":"yes","recycling_type":"container"}},"type":"Feature"},
	{"geometry":{"coordinates":[16.429289,47.96386],"type":"Point"},"properties":{"osm_id":"4029082831","tag":{"amenity":"recycling","opening_hours":"24/7","recycling:cans":"yes","recycling:clothes":"yes","recycling:glass":"yes","recycling_type":"container","wheelchair":"yes"}},"type":"Feature"}
]
}
