{
"type": "FeatureCollection",
"features": [
	{"geometry":{"coordinates":[16.400578,43.546763],"type":"Point"},"properties":{"osm_id":"504321455","tag":{"amenity":"recycling","recycling:cans":"yes","recycling:clothes":"yes","recycling:glass":"yes","recycling:paper":"yes"}},"type":"Feature"},
	{"geometry":{"coordinates":[16.402001,43.54679],"type":"Point"},"properties":{"osm_id":"504321456","tag":{"amenity":"recycling","recycling:cans":"yes","recycling:clothes":"yes","recycling:glass":"yes","recycling:paper":"yes"}},"type":"Feature"},
	{"geometry":{"coordinates":[16.424154,43.56394],"type":"Point"},"properties":{"osm_id":"2360533086","tag":{"amenity":"waste_basket"}},"type":"Feature"},
	{"geometry":{"coordinates":[16.424243,43.564284],"type":"Point"},"properties":{"osm_id":"2360533090","tag":{"amenity":"waste_basket"}},"type":"Feature"},
	{"geometry":{"coordinates":[16.424034,43.56761],"type":"Point"},"properties":{"osm_id":"2360540442","tag":{"amenity":"waste_basket"}},"type":"Feature"},
	{"geometry":{"coordinates":[16.431459,43.558149],"type":"Point"},"properties":{"osm_id":"2360983512","tag":{"amenity":"waste_disposal","description":"Kanta za glomazni otpad"}},"type":"Feature"},
	{"geometry":{"coordinates":[16.429348,43.558433],"type":"Point"},"properties":{"osm_id":"2360983679","tag":{"amenity":"waste_disposal","description":"Kanta za glomazni otpad"}},"type":"Feature"},
	{"geometry":{"coordinates":[16.428316,43.555272],"type":"Point"},"properties":{"osm_id":"2360983842","tag":{"amenity":"waste_basket"}},"type":"Feature"},
	{"geometry":{"coordinates":[16.420805,43.551207],"type":"Point"},"properties":{"osm_id":"2360984311","tag":{"amenity":"waste_basket"}},"type":"Feature"},
	{"geometry":{"coordinates":[16.430982,43.558035],"type":"Point"},"properties":{"osm_id":"2362112669","tag":{"amenity":"waste_basket"}},"type":"Feature"},
	{"geometry":{"coordinates":[16.430612,43.557428],"type":"Point"},"properties":{"osm_id":"2362113836","tag":{"amenity":"waste_basket"}},"type":"Feature"},
	{"geometry":{"coordinates":[16.362251,43.553741],"type":"Point"},"properties":{"osm_id":"2503383480","tag":{"amenity":"waste_disposal"}},"type":"Feature"},
	{"geometry":{"coordinates":[16.36223,43.553742],"type":"Point"},"properties":{"osm_id":"2503383483","tag":{"amenity":"waste_disposal"}},"type":"Feature"},
	{"geometry":{"coordinates":[16.362208,43.553743],"type":"Point"},"properties":{"osm_id":"2503383485","tag":{"amenity":"waste_disposal"}},"type":"Feature"},
	{"geometry":{"coordinates":[16.36219,43.553744],"type":"Point"},"properties":{"osm_id":"2503383487","tag":{"amenity":"waste_disposal"}},"type":"Feature"},
	{"geometry":{"coordinates":[16.365825,43.553702],"type":"Point"},"properties":{"osm_id":"2537285299","tag":{"amenity":"waste_basket"}},"type":"Feature"},
	{"geometry":{"coordinates":[16.350962,43.553547],"type":"Point"},"properties":{"osm_id":"4811998283","tag":{"amenity":"waste_disposal"}},"type":"Feature"},
	{"geometry":{"coordinates":[16.427551,43.51729],"type":"Point"},"properties":{"osm_id":"6799242335","tag":{"amenity":"waste_disposal"}},"type":"Feature"},
	{"geometry":{"coordinates":[16.4275,43.517232],"type":"Point"},"properties":{"osm_id":"6799242336","tag":{"amenity":"recycling","recycling:glass":"yes","recycling:paper":"yes","recycling:plastic":"yes","recycling:tetrapak":"yes","recycling_type":"container"}},"type":"Feature"},
	{"geometry":{"coordinates":[16.430191,43.520118],"type":"Point"},"properties":{"osm_id":"7008225687","tag":{"amenity":"waste_disposal"}},"type":"Feature"}
]
}
