{
"type": "FeatureCollection",
"features": [
	{"geometry":{"coordinates":[30.260985,59.836174],"type":"Point"},"properties":{"osm_id":"610285930","tag":{"amenity":"waste_disposal"}},"type":"Feature"},
	{"geometry":{"coordinates":[30.264025,59.835349],"type":"Point"},"properties":{"osm_id":"610302430","tag":{"amenity":"waste_disposal"}},"type":"Feature"},
	{"geometry":{"coordinates":[30.257948,59.839026],"type":"Point"},"properties":{"osm_id":"610302437","tag":{"amenity":"waste_disposal"}},"type":"Feature"},
	{"geometry":{"coordinates":[30.241093,59.839968],"type":"Point"},"properties":{"osm_id":"1139445948","tag":{"amenity":"waste_disposal"}},"type":"Feature"},
	{"geometry":{"coordinates":[30.312675,59.844714],"type":"Point"},"properties":{"osm_id":"1142028859","tag":{"amenity":"waste_disposal"}},"type":"Feature"},
	{"geometry":{"coordinates":[30.313055,59.842032],"type":"Point"},"properties":{"osm_id":"1142028874","tag":{"amenity":"waste_disposal","waste":"trash"}},"type":"Feature"},
	{"geometry":{"coordinates":[30.31275,59.843117],"type":"Point"},"properties":{"osm_id":"1142028880","tag":{"amenity":"waste_disposal","waste":"trash"}},"type":"Feature"},
	{"geometry":{"coordinates":[30.31147,59.842833],"type":"Point"},"properties":{"osm_id":"1142028887","tag":{"amenity":"waste_disposal","waste":"trash"}},"type":"Feature"},
	{"geometry":{"coordinates":[30.310756,59.838149],"type":"Point"},"properties":{"osm_id":"1339987292","tag":{"amenity":"waste_basket"}},"type":"Feature"},
	{"geometry":{"coordinates":[30.25719,59.833698],"type":"Point"},"properties":{"osm_id":"1432914635","tag":{"amenity":"waste_disposal"}},"type":"Feature"},
	{"geometry":{"coordinates":[30.252327,59.832629],"type":"Point"},"properties":{"osm_id":"1436447919","tag":{"amenity":"waste_disposal"}},"type":"Feature"},
	{"geometry":{"coordinates":[30.255141,59.83803],"type":"Point"},"properties":{"osm_id":"1436509534","tag":{"amenity":"waste_disposal"}},"type":"Feature"},
	{"geometry":{"coordinates":[30.258295,59.834922],"type":"Point"},"properties":{"osm_id":"1631485742","tag":{"amenity":"waste_disposal"}},"type":"Feature"},
	{"geometry":{"coordinates":[30.25169,59.838514],"type":"Point"},"properties":{"osm_id":"1631485766","tag":{"amenity":"waste_disposal"}},"type":"Feature"},
	{"geometry":{"coordinates":[30.254065,59.835606],"type":"Point"},"properties":{"osm_id":"1964905807","tag":{"amenity":"waste_disposal"}},"type":"Feature"},
	{"geometry":{"coordinates":[30.252132,59.836744],"type":"Point"},"properties":{"osm_id":"1964905866","tag":{"amenity":"waste_disposal"}},"type":"Feature"},
	{"geometry":{"coordinates":[30.255303,59.840548],"type":"Point"},"properties":{"osm_id":"1964905962","tag":{"amenity":"waste_disposal"}},"type":"Feature"},
	{"geometry":{"coordinates":[30.247243,59.83578],"type":"Point"},"properties":{"osm_id":"1964993128","tag":{"amenity":"waste_disposal"}},"type":"Feature"},
	{"geometry":{"coordinates":[30.264891,59.837917],"type":"Point"},"properties":{"osm_id":"1989405118","tag":{"amenity":"waste_disposal"}},"type":"Feature"},
	{"geometry":{"coordinates":[30.263125,59.838884],"type":"Point"},"properties":{"osm_id":"1989405121","tag":{"amenity":"waste_disposal"}},"type":"Feature"},
	{"geometry":{"coordinates":[30.26737,59.839102],"type":"Point"},"properties":{"osm_id":"1989405124","tag":{"amenity":"waste_disposal"}},"type":"Feature"},
	{"geometry":{"coordinates":[30.254172,59.843478],"type":"Point"},"properties":{"osm_id":"2137487192","tag":{"amenity":"waste_disposal"}},"type":"Feature"},
	{"geometry":{"coordinates":[30.25509,59.844263],"type":"Point"},"properties":{"osm_id":"2137509292","tag":{"amenity":"waste_disposal"}},"type":"Feature"},
	{"geometry":{"coordinates":[30.258653,59.844672],"type":"Point"},"properties":{"osm_id":"2137509293","tag":{"amenity":"waste_disposal"}},"type":"Feature"},
	{"geometry":{"coordinates":[30.268472,59.840981],"type":"Point"},"properties":{"osm_id":"2304975457","tag":{"amenity":"waste_disposal"}},"type":"Feature"},
	{"geometry":{"coordinates":[30.267567,59.838131],"type":"Point"},"properties":{"osm_id":"2304998425","tag":{"amenity":"waste_disposal"}},"type":"Feature"},
	{"geometry":{"coordinates":[30.311971,59.839402],"type":"Point"},"properties":{"osm_id":"2344587770","tag":{"amenity":"waste_disposal"}},"type":"Feature"},
	{"geometry":{"coordinates":[30.311772,59.835326],"type":"Point"},"properties":{"osm_id":"2365860634","tag":{"amenity":"waste_disposal"}},"type":"Feature"},
	{"geometry":{"coordinates":[30.249411,59.838416],"type":"Point"},"properties":{"osm_id":"2518291696","tag":{"amenity":"waste_disposal"}},"type":"Feature"},
	{"geometry":{"coordinates":[30.319437,59.823691],"type":"Point"},"properties":{"name":"\u00d0\u00ad\u00d0\u00ba\u00d0\u00be\u00d0\u00b1\u00d0\u00be\u00d0\u00ba\u00d1\u0081","osm_id":"2929587103","tag":{"amenity":"recycling","recycling:batteries":"yes","recycling:fluorescent_tubes":"yes","recycling:hazardous_waste":"yes","recycling:hydrargyrum":"yes","recycling:low_energy_bulbs":"yes","recycling_type":"container"}},"type":"Feature"},
	{"geometry":{"coordinates":[30.318455,59.806038],"type":"Point"},"properties":{"name":"\u00d0\u00ad\u00d0\u00ba\u00d0\u00be\u00d0\u00b1\u00d0\u00be\u00d0\u00ba\u00d1\u0081","osm_id":"2929587202","tag":{"amenity":"recycling","recycling:batteries":"yes","recycling_type":"container"}},"type":"Feature"},
	{"geometry":{"coordinates":[30.309424,59.805406],"type":"Point"},"properties":{"name":"\u00d0\u00ad\u00d0\u00ba\u00d0\u00be\u00d0\u00b1\u00d0\u00be\u00d0\u00ba\u00d1\u0081","osm_id":"2929587203","tag":{"amenity":"recycling","recycling:batteries":"yes","recycling_type":"container"}},"type":"Feature"},
	{"geometry":{"coordinates":[30.300981,59.81085],"type":"Point"},"properties":{"osm_id":"2937278916","tag":{"amenity":"waste_disposal"}},"type":"Feature"},
	{"geometry":{"coordinates":[30.289375,59.811059],"type":"Point"},"properties":{"osm_id":"2937278917","tag":{"amenity":"waste_disposal"}},"type":"Feature"},
	{"geometry":{"coordinates":[30.3034,59.812206],"type":"Point"},"properties":{"osm_id":"2937278972","tag":{"amenity":"waste_disposal"}},"type":"Feature"},
	{"geometry":{"coordinates":[30.29635,59.813539],"type":"Point"},"properties":{"osm_id":"2937280934","tag":{"amenity":"waste_disposal"}},"type":"Feature"},
	{"geometry":{"coordinates":[30.301914,59.813326],"type":"Point"},"properties":{"osm_id":"2937281078","tag":{"amenity":"waste_disposal"}},"type":"Feature"},
	{"geometry":{"coordinates":[30.312936,59.83484],"type":"Point"},"properties":{"osm_id":"3040786465","tag":{"amenity":"waste_disposal"}},"type":"Feature"},
	{"geometry":{"coordinates":[30.260227,59.834608],"type":"Point"},"properties":{"osm_id":"3998342787","tag":{"amenity":"waste_disposal"}},"type":"Feature"},
	{"geometry":{"coordinates":[30.258325,59.837995],"type":"Point"},"properties":{"osm_id":"4003109741","tag":{"amenity":"waste_disposal"}},"type":"Feature"},
	{"geometry":{"coordinates":[30.256662,59.83706],"type":"Point"},"properties":{"osm_id":"4046035335","tag":{"amenity":"waste_disposal"}},"type":"Feature"},
	{"geometry":{"coordinates":[30.313031,59.833191],"type":"Point"},"properties":{"osm_id":"4157235428","tag":{"amenity":"waste_disposal"}},"type":"Feature"},
	{"geometry":{"coordinates":[30.312421,59.837188],"type":"Point"},"properties":{"osm_id":"4159112335","tag":{"amenity":"waste_disposal"}},"type":"Feature"},
	{"geometry":{"coordinates":[30.316867,59.839684],"type":"Point"},"properties":{"osm_id":"4163789730","tag":{"amenity":"waste_disposal"}},"type":"Feature"},
	{"geometry":{"coordinates":[30.247327,59.841065],"type":"Point"},"properties":{"osm_id":"4368950270","tag":{"amenity":"waste_disposal"}},"type":"Feature"},
	{"geometry":{"coordinates":[30.250748,59.836318],"type":"Point"},"properties":{"osm_id":"4590779971","tag":{"amenity":"waste_disposal"}},"type":"Feature"},
	{"geometry":{"coordinates":[30.316145,59.843445],"type":"Point"},"properties":{"osm_id":"4623897148","tag":{"amenity":"waste_disposal"}},"type":"Feature"},
	{"geometry":{"coordinates":[30.316062,59.844115],"type":"Point"},"properties":{"osm_id":"4623897149","tag":{"amenity":"waste_disposal"}},"type":"Feature"},
	{"geometry":{"coordinates":[30.308034,59.844695],"type":"Point"},"properties":{"osm_id":"4666209716","tag":{"amenity":"waste_disposal","waste":"trash"}},"type":"Feature"},
	{"geometry":{"coordinates":[30.310449,59.843285],"type":"Point"},"properties":{"osm_id":"4666209755","tag":{"amenity":"waste_disposal","waste":"trash"}},"type":"Feature"},
	{"geometry":{"coordinates":[30.314843,59.832927],"type":"Point"},"properties":{"name":"\u00d0\u00a1\u00d0\u00bf\u00d0\u00b0\u00d1\u0081\u00d0\u00b8\u00d0\u00b1\u00d0\u00be!","osm_id":"4685039884","tag":{"amenity":"recycling","recycling:clothes":"yes","recycling_type":"container"}},"type":"Feature"},
	{"geometry":{"coordinates":[30.31722,59.833952],"type":"Point"},"properties":{"osm_id":"4685039888","tag":{"amenity":"waste_disposal"}},"type":"Feature"},
	{"geometry":{"coordinates":[30.307851,59.84238],"type":"Point"},"properties":{"osm_id":"4708119272","tag":{"amenity":"waste_disposal","waste":"trash"}},"type":"Feature"},
	{"geometry":{"coordinates":[30.304708,59.843867],"type":"Point"},"properties":{"osm_id":"4708120013","tag":{"amenity":"waste_disposal","waste":"trash"}},"type":"Feature"},
	{"geometry":{"coordinates":[30.271034,59.838926],"type":"Point"},"properties":{"osm_id":"4724148307","tag":{"amenity":"waste_basket"}},"type":"Feature"},
	{"geometry":{"coordinates":[30.31547,59.834381],"type":"Point"},"properties":{"osm_id":"4724148363","tag":{"amenity":"waste_disposal"}},"type":"Feature"},
	{"geometry":{"coordinates":[30.252181,59.844001],"type":"Point"},"properties":{"osm_id":"5045277399","tag":{"amenity":"waste_basket"}},"type":"Feature"},
	{"geometry":{"coordinates":[30.252606,59.843843],"type":"Point"},"properties":{"osm_id":"5045277401","tag":{"amenity":"waste_basket"}},"type":"Feature"},
	{"geometry":{"coordinates":[30.253466,59.843387],"type":"Point"},"properties":{"osm_id":"5045277403","tag":{"amenity":"waste_basket"}},"type":"Feature"},
	{"geometry":{"coordinates":[30.309015,59.84068],"type":"Point"},"properties":{"osm_id":"5614024093","tag":{"amenity":"waste_disposal"}},"type":"Feature"},
	{"geometry":{"coordinates":[30.235881,59.831683],"type":"Point"},"properties":{"osm_id":"5869029966","tag":{"amenity":"waste_basket"}},"type":"Feature"},
	{"geometry":{"coordinates":[30.234784,59.832558],"type":"Point"},"properties":{"osm_id":"5869030009","tag":{"amenity":"waste_basket"}},"type":"Feature"},
	{"geometry":{"coordinates":[30.235332,59.832123],"type":"Point"},"properties":{"osm_id":"5869030020","tag":{"amenity":"waste_basket"}},"type":"Feature"},
	{"geometry":{"coordinates":[30.235672,59.831967],"type":"Point"},"properties":{"osm_id":"5869030032","tag":{"amenity":"waste_basket"}},"type":"Feature"},
	{"geometry":{"coordinates":[30.255873,59.841833],"type":"Point"},"properties":{"osm_id":"5894372819","tag":{"amenity":"waste_basket"}},"type":"Feature"},
	{"geometry":{"coordinates":[30.25586,59.841839],"type":"Point"},"properties":{"osm_id":"5894372827","tag":{"amenity":"waste_basket"}},"type":"Feature"},
	{"geometry":{"coordinates":[30.259267,59.835586],"type":"Point"},"properties":{"osm_id":"5931059516","tag":{"amenity":"recycling","recycling:batteries":"yes","recycling:lamps":"yes","recycling_type":"container"}},"type":"Feature"},
	{"geometry":{"coordinates":[30.315458,59.841555],"type":"Point"},"properties":{"osm_id":"7100655601","tag":{"amenity":"waste_basket"}},"type":"Feature"},
	{"geometry":{"coordinates":[30.314863,59.841981],"type":"Point"},"properties":{"osm_id":"7100655625","tag":{"amenity":"waste_basket"}},"type":"Feature"},
	{"geometry":{"coordinates":[30.31486,59.842297],"type":"Point"},"properties":{"osm_id":"7100655627","tag":{"amenity":"waste_basket"}},"type":"Feature"},
	{"geometry":{"coordinates":[30.31484,59.842591],"type":"Point"},"properties":{"osm_id":"7100655629","tag":{"amenity":"waste_basket"}},"type":"Feature"},
	{"geometry":{"coordinates":[30.314821,59.842896],"type":"Point"},"properties":{"osm_id":"7100655631","tag":{"amenity":"waste_basket"}},"type":"Feature"},
	{"geometry":{"coordinates":[30.314805,59.843185],"type":"Point"},"properties":{"osm_id":"7100655633","tag":{"amenity":"waste_basket"}},"type":"Feature"},
	{"geometry":{"coordinates":[30.314777,59.843555],"type":"Point"},"properties":{"osm_id":"7100655641","tag":{"amenity":"waste_basket"}},"type":"Feature"},
	{"geometry":{"coordinates":[30.314709,59.844641],"type":"Point"},"properties":{"osm_id":"7100655646","tag":{"amenity":"waste_basket"}},"type":"Feature"},
	{"geometry":{"coordinates":[30.314753,59.843919],"type":"Point"},"properties":{"osm_id":"7100655647","tag":{"amenity":"waste_basket"}},"type":"Feature"},
	{"geometry":{"coordinates":[30.314727,59.844281],"type":"Point"},"properties":{"osm_id":"7100655648","tag":{"amenity":"waste_basket"}},"type":"Feature"},
	{"geometry":{"coordinates":[30.266765,59.837185],"type":"Point"},"properties":{"osm_id":"7122093137","tag":{"access":"yes","amenity":"waste_disposal","waste":"trash"}},"type":"Feature"},
	{"geometry":{"coordinates":[30.262143,59.841934],"type":"Point"},"properties":{"osm_id":"7195746352","tag":{"amenity":"waste_disposal"}},"type":"Feature"},
	{"geometry":{"coordinates":[30.263869,59.842339],"type":"Point"},"properties":{"osm_id":"7393020373","tag":{"amenity":"waste_disposal"}},"type":"Feature"},
	{"geometry":{"coordinates":[30.266808,59.842126],"type":"Point"},"properties":{"osm_id":"7393020376","tag":{"amenity":"waste_disposal"}},"type":"Feature"},
	{"geometry":{"coordinates":[30.266102,59.839412],"type":"Point"},"properties":{"osm_id":"7393049608","tag":{"amenity":"waste_disposal"}},"type":"Feature"},
	{"geometry":{"coordinates":[30.261838,59.840594],"type":"Point"},"properties":{"osm_id":"7393049640","tag":{"amenity":"waste_disposal"}},"type":"Feature"},
	{"geometry":{"coordinates":[30.262023,59.844217],"type":"Point"},"properties":{"osm_id":"7393049642","tag":{"amenity":"waste_disposal"}},"type":"Feature"},
	{"geometry":{"coordinates":[30.260279,59.841834],"type":"Point"},"properties":{"osm_id":"7393049669","tag":{"amenity":"waste_disposal"}},"type":"Feature"},
	{"geometry":{"coordinates":[30.262894,59.836609],"type":"Point"},"properties":{"osm_id":"7393049677","tag":{"amenity":"waste_disposal"}},"type":"Feature"},
	{"geometry":{"coordinates":[30.244583,59.841087],"type":"Point"},"properties":{"osm_id":"7393625781","tag":{"amenity":"waste_disposal"}},"type":"Feature"},
	{"geometry":{"coordinates":[30.24777,59.839235],"type":"Point"},"properties":{"osm_id":"7393795938","tag":{"amenity":"waste_disposal"}},"type":"Feature"},
	{"geometry":{"coordinates":[30.271652,59.839893],"type":"Point"},"properties":{"osm_id":"7395422933","tag":{"amenity":"waste_disposal"}},"type":"Feature"},
	{"geometry":{"coordinates":[30.236153,59.840333],"type":"Point"},"properties":{"osm_id":"7397029323","tag":{"amenity":"waste_disposal"}},"type":"Feature"},
	{"geometry":{"coordinates":[30.234648,59.84161],"type":"Point"},"properties":{"osm_id":"7397029335","tag":{"amenity":"waste_disposal"}},"type":"Feature"},
	{"geometry":{"coordinates":[30.237895,59.84184],"type":"Point"},"properties":{"osm_id":"7471889563","tag":{"amenity":"waste_disposal"}},"type":"Feature"},
	{"geometry":{"coordinates":[30.235068,59.843362],"type":"Point"},"properties":{"osm_id":"7471889568","tag":{"amenity":"waste_disposal"}},"type":"Feature"},
	{"geometry":{"coordinates":[30.240463,59.841964],"type":"Point"},"properties":{"osm_id":"7471889582","tag":{"amenity":"waste_disposal"}},"type":"Feature"},
	{"geometry":{"coordinates":[30.237377,59.843338],"type":"Point"},"properties":{"osm_id":"7471901987","tag":{"amenity":"waste_disposal"}},"type":"Feature"},
	{"geometry":{"coordinates":[30.24128,59.843695],"type":"Point"},"properties":{"osm_id":"7474544387","tag":{"amenity":"waste_disposal"}},"type":"Feature"},
	{"geometry":{"coordinates":[30.267861,59.843689],"type":"Point"},"properties":{"osm_id":"7899039244","tag":{"amenity":"waste_disposal"}},"type":"Feature"},
	{"geometry":{"coordinates":[30.317117,59.835682],"type":"Point"},"properties":{"osm_id":"8004495427","tag":{"amenity":"waste_disposal"}},"type":"Feature"},
	{"geometry":{"coordinates":[30.317073,59.835671],"type":"Point"},"properties":{"osm_id":"8004495434","tag":{"amenity":"waste_disposal"}},"type":"Feature"},
	{"geometry":{"coordinates":[30.31704,59.836748],"type":"Point"},"properties":{"osm_id":"8004495444","tag":{"amenity":"waste_disposal"}},"type":"Feature"},
	{"geometry":{"coordinates":[30.317155,59.836751],"type":"Point"},"properties":{"osm_id":"8004495449","tag":{"amenity":"waste_disposal"}},"type":"Feature"}
]
}
