{
"type": "FeatureCollection",
"features": [
	{"geometry":{"coordinates":[87.118205,53.771598],"type":"Point"},"properties":{"osm_id":"809901443","tag":{"amenity":"waste_basket"}},"type":"Feature"},
	{"geometry":{"coordinates":[87.122716,53.76275],"type":"Point"},"properties":{"osm_id":"956940481","tag":{"amenity":"waste_basket"}},"type":"Feature"},
	{"geometry":{"coordinates":[87.119926,53.761515],"type":"Point"},"properties":{"osm_id":"956940573","tag":{"amenity":"waste_basket"}},"type":"Feature"},
	{"geometry":{"coordinates":[87.124825,53.761378],"type":"Point"},"properties":{"osm_id":"956940596","tag":{"amenity":"waste_basket"}},"type":"Feature"},
	{"geometry":{"coordinates":[87.120233,53.759722],"type":"Point"},"properties":{"osm_id":"956940755","tag":{"amenity":"waste_basket"}},"type":"Feature"},
	{"geometry":{"coordinates":[87.12541,53.762548],"type":"Point"},"properties":{"osm_id":"956953454","tag":{"amenity":"waste_basket"}},"type":"Feature"},
	{"geometry":{"coordinates":[87.127357,53.762694],"type":"Point"},"properties":{"osm_id":"956953465","tag":{"amenity":"waste_basket"}},"type":"Feature"},
	{"geometry":{"coordinates":[87.129746,53.762524],"type":"Point"},"properties":{"osm_id":"956953467","tag":{"amenity":"waste_basket"}},"type":"Feature"},
	{"geometry":{"coordinates":[87.126709,53.761241],"type":"Point"},"properties":{"osm_id":"1038232971","tag":{"amenity":"waste_basket"}},"type":"Feature"},
	{"geometry":{"coordinates":[87.126929,53.762085],"type":"Point"},"properties":{"osm_id":"1038232973","tag":{"amenity":"waste_basket"}},"type":"Feature"},
	{"geometry":{"coordinates":[87.136284,53.761492],"type":"Point"},"properties":{"name":"\u00d0\u00ad\u00d0\u00ba\u00d0\u00be\u00d0\u00bb\u00d0\u00be\u00d0\u00b3\u00d0\u00b8\u00d1\u0087\u00d0\u00b5\u00d1\u0081\u00d0\u00ba\u00d0\u00b8\u00d0\u00b9 \u00d0\u00a0\u00d0\u00b5\u00d0\u00b3\u00d0\u00b8\u00d0\u00be\u00d0\u00bd\u00d0\u00b0\u00d0\u00bb\u00d1\u008c\u00d0\u00bd\u00d1\u008b\u00d0\u00b9 \u00d0\u00a6\u00d0\u00b5\u00d0\u00bd\u00d1\u0082\u00d1\u0080","osm_id":"1396032608","tag":{"amenity":"recycling","recycling:glass":"yes","recycling:glass_bottles":"yes","recycling:paper":"yes","recycling:plastic":"yes","recycling_type":"centre"}},"type":"Feature"},
	{"geometry":{"coordinates":[87.113954,53.760494],"type":"Point"},"properties":{"osm_id":"2287940590","tag":{"amenity":"waste_basket"}},"type":"Feature"}
]
}
