{
"type": "FeatureCollection",
"features": [
	{"geometry":{"coordinates":[84.028125,28.174146],"type":"Point"},"properties":{"name":"Bhote Chautara","osm_id":"3397937720","place":"locality","tag":{"name:ne":"\u00e0\u00a4\u00ad\u00e0\u00a5\u008b\u00e0\u00a4\u009f\u00e0\u00a5\u0087 \u00e0\u00a4\u009a\u00e0\u00a5\u008c\u00e0\u00a4\u00a4\u00e0\u00a4\u00be\u00e0\u00a4\u00b0\u00e0\u00a4\u00be","natural":"tree"}},"type":"Feature"},
	{"geometry":{"coordinates":[84.026327,28.188215],"type":"Point"},"properties":{"name":"Bel Chautara","osm_id":"4177865626","tag":{"name:ne":"\u00e0\u00a4\u00ac\u00e0\u00a5\u0087\u00e0\u00a4\u00b2 \u00e0\u00a4\u009a\u00e0\u00a5\u008c\u00e0\u00a4\u00a4\u00e0\u00a4\u00be\u00e0\u00a4\u00b0\u00e0\u00a4\u00be","natural":"tree"}},"type":"Feature"},
	{"geometry":{"coordinates":[84.064485,28.16068],"type":"Point"},"properties":{"osm_id":"4252076670","tag":{"natural":"tree"}},"type":"Feature"},
	{"geometry":{"coordinates":[84.087827,28.152464],"type":"Point"},"properties":{"osm_id":"4761399126","tag":{"natural":"tree"}},"type":"Feature"},
	{"geometry":{"coordinates":[84.08567,28.152012],"type":"Point"},"properties":{"osm_id":"4761399127","tag":{"natural":"tree"}},"type":"Feature"},
	{"geometry":{"coordinates":[84.085805,28.151906],"type":"Point"},"properties":{"osm_id":"4761399128","tag":{"natural":"tree"}},"type":"Feature"},
	{"geometry":{"coordinates":[84.107924,28.175868],"type":"Point"},"properties":{"osm_id":"4780495224","tag":{"natural":"tree"}},"type":"Feature"},
	{"geometry":{"coordinates":[84.110694,28.173835],"type":"Point"},"properties":{"osm_id":"4780495225","tag":{"natural":"tree"}},"type":"Feature"},
	{"geometry":{"coordinates":[84.110423,28.173901],"type":"Point"},"properties":{"osm_id":"4780495226","tag":{"natural":"tree"}},"type":"Feature"},
	{"geometry":{"coordinates":[84.109238,28.174144],"type":"Point"},"properties":{"osm_id":"4780495227","tag":{"natural":"tree"}},"type":"Feature"},
	{"geometry":{"coordinates":[84.110506,28.174868],"type":"Point"},"properties":{"osm_id":"4780495228","tag":{"natural":"tree"}},"type":"Feature"},
	{"geometry":{"coordinates":[84.109675,28.175121],"type":"Point"},"properties":{"osm_id":"4780495229","tag":{"natural":"tree"}},"type":"Feature"},
	{"geometry":{"coordinates":[84.110244,28.175003],"type":"Point"},"properties":{"osm_id":"4780495230","tag":{"natural":"tree"}},"type":"Feature"},
	{"geometry":{"coordinates":[84.109973,28.175298],"type":"Point"},"properties":{"osm_id":"4780495231","tag":{"natural":"tree"}},"type":"Feature"},
	{"geometry":{"coordinates":[84.109753,28.174681],"type":"Point"},"properties":{"osm_id":"4780495232","tag":{"natural":"tree"}},"type":"Feature"},
	{"geometry":{"coordinates":[84.108651,28.174731],"type":"Point"},"properties":{"osm_id":"4780495233","tag":{"natural":"tree"}},"type":"Feature"},
	{"geometry":{"coordinates":[84.10894,28.174903],"type":"Point"},"properties":{"osm_id":"4780495234","tag":{"natural":"tree"}},"type":"Feature"},
	{"geometry":{"coordinates":[84.057526,28.152521],"type":"Point"},"properties":{"name":"chautara","osm_id":"5028094690","tag":{"addr:city":"Pokhara Lekhanath Metropolitan City","addr:country":"NP","addr:place":"Adarsha Chowk","natural":"tree"}},"type":"Feature"},
	{"geometry":{"coordinates":[84.023719,28.192834],"type":"Point"},"properties":{"name":"Chautari","osm_id":"5242239174","tag":{"natural":"tree"}},"type":"Feature"},
	{"geometry":{"coordinates":[84.097273,28.164304],"type":"Point"},"properties":{"name":"Chautari","osm_id":"5242388583","tag":{"natural":"tree"}},"type":"Feature"},
	{"geometry":{"coordinates":[84.068611,28.164595],"type":"Point"},"properties":{"name":"Pipal Tree","osm_id":"5456935010","tag":{"genus":"Ficus","natural":"tree","species":"religiosa"}},"type":"Feature"},
	{"geometry":{"coordinates":[84.088692,28.152255],"type":"Point"},"properties":{"name":"Mango Tree","osm_id":"5458057184","tag":{"natural":"tree"}},"type":"Feature"},
	{"geometry":{"coordinates":[84.077825,28.154112],"type":"Point"},"properties":{"osm_id":"5470473717","tag":{"natural":"tree"}},"type":"Feature"},
	{"geometry":{"coordinates":[84.046425,28.167946],"type":"Point"},"properties":{"osm_id":"5486091385","tag":{"natural":"tree"}},"type":"Feature"},
	{"geometry":{"coordinates":[84.082768,28.168998],"type":"Point"},"properties":{"name":"Chautari","osm_id":"5511156242","tag":{"natural":"tree"}},"type":"Feature"},
	{"geometry":{"coordinates":[84.075607,28.155949],"type":"Point"},"properties":{"name":"Pipal Chautari","osm_id":"5515371689","tag":{"natural":"tree"}},"type":"Feature"},
	{"geometry":{"coordinates":[84.027704,28.154662],"type":"Point"},"properties":{"name":"Chautari","osm_id":"5519011132","tag":{"natural":"tree"}},"type":"Feature"},
	{"geometry":{"coordinates":[84.061817,28.213515],"type":"Point"},"properties":{"name":"Chautara","osm_id":"5531255776","tag":{"natural":"tree"}},"type":"Feature"},
	{"geometry":{"coordinates":[84.061125,28.213076],"type":"Point"},"properties":{"name":"Chautara","osm_id":"5531255777","tag":{"natural":"tree"}},"type":"Feature"},
	{"geometry":{"coordinates":[84.058709,28.210744],"type":"Point"},"properties":{"name":"Chautara","osm_id":"5531255780","tag":{"bench":"yes","natural":"tree"}},"type":"Feature"},
	{"geometry":{"coordinates":[84.057107,28.210558],"type":"Point"},"properties":{"name":"Chautara","osm_id":"5531255781","tag":{"bench":"yes","natural":"tree"}},"type":"Feature"},
	{"geometry":{"coordinates":[84.063899,28.214202],"type":"Point"},"properties":{"name":"Bimirapani Community Agro-forest","osm_id":"5531277745","tag":{"natural":"tree"}},"type":"Feature"},
	{"geometry":{"coordinates":[84.063668,28.214053],"type":"Point"},"properties":{"name":"Chautari","osm_id":"5531277746","tag":{"natural":"tree"}},"type":"Feature"},
	{"geometry":{"coordinates":[84.110886,28.205207],"type":"Point"},"properties":{"osm_id":"5531278730","tag":{"amenity":"bench","natural":"tree"}},"type":"Feature"},
	{"geometry":{"coordinates":[84.105341,28.198981],"type":"Point"},"properties":{"osm_id":"5531278740","tag":{"amenity":"bench","natural":"tree"}},"type":"Feature"},
	{"geometry":{"coordinates":[84.109343,28.19969],"type":"Point"},"properties":{"osm_id":"5531278742","tag":{"amenity":"bench","natural":"tree"}},"type":"Feature"},
	{"geometry":{"coordinates":[84.106638,28.210543],"type":"Point"},"properties":{"osm_id":"5531322423","tag":{"amenity":"bench","natural":"tree"}},"type":"Feature"},
	{"geometry":{"coordinates":[84.091632,28.212439],"type":"Point"},"properties":{"name":"Chautara","osm_id":"5534085310","tag":{"natural":"tree"}},"type":"Feature"},
	{"geometry":{"coordinates":[84.083936,28.167867],"type":"Point"},"properties":{"name":"Peepal Tree","osm_id":"5581858128","tag":{"natural":"tree"}},"type":"Feature"},
	{"geometry":{"coordinates":[84.091429,28.188037],"type":"Point"},"properties":{"osm_id":"5581869642","tag":{"natural":"tree"}},"type":"Feature"},
	{"geometry":{"coordinates":[84.086746,28.189412],"type":"Point"},"properties":{"osm_id":"5581869651","tag":{"natural":"tree"}},"type":"Feature"},
	{"geometry":{"coordinates":[84.087011,28.187133],"type":"Point"},"properties":{"osm_id":"5581869658","tag":{"natural":"tree"}},"type":"Feature"},
	{"geometry":{"coordinates":[84.087345,28.186044],"type":"Point"},"properties":{"osm_id":"5581869659","tag":{"natural":"tree"}},"type":"Feature"},
	{"geometry":{"coordinates":[84.08615,28.183744],"type":"Point"},"properties":{"name":"Ban Chautara","osm_id":"5581869667","tag":{"natural":"tree"}},"type":"Feature"},
	{"geometry":{"coordinates":[84.103895,28.185202],"type":"Point"},"properties":{"osm_id":"5587974403","tag":{"natural":"tree"}},"type":"Feature"},
	{"geometry":{"coordinates":[84.050347,28.17994],"type":"Point"},"properties":{"osm_id":"6017236211","tag":{"natural":"tree"}},"type":"Feature"}
]
}
