{
"type": "FeatureCollection",
"features": [
	{"geometry":{"coordinates":[-111.849961,40.778007],"type":"Point"},"properties":{"osm_id":"1832540319","tag":{"amenity":"recycling","recycling:glass":"yes"}},"type":"Feature"},
	{"geometry":{"coordinates":[-111.86512,40.719903],"type":"Point"},"properties":{"osm_id":"1871665411","tag":{"amenity":"recycling","location":"overground","recycling:glass":"yes","recycling_type":"container"}},"type":"Feature"},
	{"geometry":{"coordinates":[-111.884519,40.778133],"type":"Point"},"properties":{"osm_id":"3450874693","tag":{"amenity":"waste_basket"}},"type":"Feature"},
	{"geometry":{"coordinates":[-111.873979,40.747447],"type":"Point"},"properties":{"osm_id":"4286291786","tag":{"amenity":"waste_basket"}},"type":"Feature"},
	{"geometry":{"coordinates":[-111.876127,40.744551],"type":"Point"},"properties":{"osm_id":"4286292110","tag":{"amenity":"recycling","location":"overground","recycling:glass_bottles":"yes","recycling_type":"container"}},"type":"Feature"},
	{"geometry":{"coordinates":[-111.873839,40.747926],"type":"Point"},"properties":{"osm_id":"4286292118","tag":{"amenity":"waste_basket"}},"type":"Feature"},
	{"geometry":{"coordinates":[-111.865564,40.749659],"type":"Point"},"properties":{"osm_id":"6069536269","tag":{"amenity":"waste_basket"}},"type":"Feature"},
	{"geometry":{"coordinates":[-111.865575,40.749929],"type":"Point"},"properties":{"osm_id":"6069536273","tag":{"amenity":"waste_basket"}},"type":"Feature"},
	{"geometry":{"coordinates":[-111.865622,40.75086],"type":"Point"},"properties":{"osm_id":"6069536274","tag":{"amenity":"waste_basket"}},"type":"Feature"},
	{"geometry":{"coordinates":[-111.8651,40.749673],"type":"Point"},"properties":{"osm_id":"6069540966","tag":{"amenity":"waste_basket"}},"type":"Feature"},
	{"geometry":{"coordinates":[-111.860175,40.725477],"type":"Point"},"properties":{"osm_id":"6086491924","tag":{"amenity":"waste_basket"}},"type":"Feature"},
	{"geometry":{"coordinates":[-111.865146,40.749978],"type":"Point"},"properties":{"osm_id":"6088954474","tag":{"amenity":"waste_basket"}},"type":"Feature"},
	{"geometry":{"coordinates":[-111.84564,40.762667],"type":"Point"},"properties":{"osm_id":"6448137817","tag":{"amenity":"waste_basket"}},"type":"Feature"},
	{"geometry":{"coordinates":[-111.845756,40.762764],"type":"Point"},"properties":{"osm_id":"6448137819","tag":{"amenity":"waste_basket"}},"type":"Feature"},
	{"geometry":{"coordinates":[-111.845728,40.762775],"type":"Point"},"properties":{"osm_id":"6448137820","tag":{"amenity":"waste_basket"}},"type":"Feature"},
	{"geometry":{"coordinates":[-111.845666,40.762655],"type":"Point"},"properties":{"osm_id":"6448137821","tag":{"amenity":"waste_basket"}},"type":"Feature"},
	{"geometry":{"coordinates":[-111.845121,40.763132],"type":"Point"},"properties":{"osm_id":"6448177329","tag":{"amenity":"waste_basket"}},"type":"Feature"},
	{"geometry":{"coordinates":[-111.844974,40.762969],"type":"Point"},"properties":{"osm_id":"6448177332","tag":{"amenity":"waste_basket"}},"type":"Feature"},
	{"geometry":{"coordinates":[-111.844987,40.762956],"type":"Point"},"properties":{"osm_id":"6448177334","tag":{"amenity":"waste_basket"}},"type":"Feature"},
	{"geometry":{"coordinates":[-111.878266,40.768224],"type":"Point"},"properties":{"osm_id":"6617356397","tag":{"amenity":"waste_disposal"}},"type":"Feature"},
	{"geometry":{"coordinates":[-111.870105,40.760848],"type":"Point"},"properties":{"osm_id":"6642105097","tag":{"amenity":"waste_basket","waste":"trash"}},"type":"Feature"},
	{"geometry":{"coordinates":[-111.874006,40.745034],"type":"Point"},"properties":{"osm_id":"6943291113","tag":{"amenity":"waste_basket"}},"type":"Feature"},
	{"geometry":{"coordinates":[-111.874027,40.744653],"type":"Point"},"properties":{"osm_id":"6943291120","tag":{"amenity":"waste_basket"}},"type":"Feature"},
	{"geometry":{"coordinates":[-111.874035,40.744298],"type":"Point"},"properties":{"osm_id":"6943291123","tag":{"amenity":"waste_basket"}},"type":"Feature"},
	{"geometry":{"coordinates":[-111.879052,40.727742],"type":"Point"},"properties":{"osm_id":"6953180025","tag":{"amenity":"waste_disposal"}},"type":"Feature"},
	{"geometry":{"coordinates":[-111.879051,40.727762],"type":"Point"},"properties":{"osm_id":"6953180026","tag":{"amenity":"waste_disposal"}},"type":"Feature"},
	{"geometry":{"coordinates":[-111.841859,40.76453],"type":"Point"},"properties":{"osm_id":"7341315391","tag":{"door":"yes","level":"4"}},"type":"Feature"}
]
}
