{
"type": "FeatureCollection",
"features": [
	{"geometry":{"coordinates":[-111.859451,33.425018],"type":"Point"},"properties":{"osm_id":"5020940171","tag":{"amenity":"waste_disposal"}},"type":"Feature"},
	{"geometry":{"coordinates":[-111.858453,33.425012],"type":"Point"},"properties":{"osm_id":"5020940172","tag":{"amenity":"waste_disposal"}},"type":"Feature"},
	{"geometry":{"coordinates":[-111.857798,33.425018],"type":"Point"},"properties":{"osm_id":"5020940173","tag":{"amenity":"waste_disposal"}},"type":"Feature"},
	{"geometry":{"coordinates":[-111.860504,33.424408],"type":"Point"},"properties":{"osm_id":"5020997197","tag":{"amenity":"waste_disposal"}},"type":"Feature"},
	{"geometry":{"coordinates":[-111.857628,33.424061],"type":"Point"},"properties":{"osm_id":"5021039847","tag":{"amenity":"waste_disposal"}},"type":"Feature"},
	{"geometry":{"coordinates":[-111.859301,33.424383],"type":"Point"},"properties":{"osm_id":"5021168465","tag":{"amenity":"waste_disposal"}},"type":"Feature"},
	{"geometry":{"coordinates":[-111.859788,33.424276],"type":"Point"},"properties":{"osm_id":"5021169362","tag":{"amenity":"waste_disposal"}},"type":"Feature"},
	{"geometry":{"coordinates":[-111.858638,33.424275],"type":"Point"},"properties":{"osm_id":"5021169363","tag":{"amenity":"waste_disposal"}},"type":"Feature"},
	{"geometry":{"coordinates":[-111.883138,33.426162],"type":"Point"},"properties":{"osm_id":"5744618026","tag":{"amenity":"waste_disposal"}},"type":"Feature"},
	{"geometry":{"coordinates":[-111.883084,33.428427],"type":"Point"},"properties":{"osm_id":"5744618030","tag":{"amenity":"waste_disposal"}},"type":"Feature"},
	{"geometry":{"coordinates":[-111.882504,33.428378],"type":"Point"},"properties":{"osm_id":"5744618033","tag":{"amenity":"waste_disposal"}},"type":"Feature"},
	{"geometry":{"coordinates":[-111.868952,33.396861],"type":"Point"},"properties":{"osm_id":"6558173879","tag":{"amenity":"waste_disposal"}},"type":"Feature"},
	{"geometry":{"coordinates":[-111.869764,33.39678],"type":"Point"},"properties":{"osm_id":"6558173880","tag":{"amenity":"waste_disposal"}},"type":"Feature"},
	{"geometry":{"coordinates":[-111.869777,33.397593],"type":"Point"},"properties":{"osm_id":"6558173881","tag":{"amenity":"waste_disposal"}},"type":"Feature"},
	{"geometry":{"coordinates":[-111.867705,33.397852],"type":"Point"},"properties":{"osm_id":"6558173882","tag":{"amenity":"waste_disposal"}},"type":"Feature"},
	{"geometry":{"coordinates":[-111.867749,33.396777],"type":"Point"},"properties":{"osm_id":"6558173883","tag":{"amenity":"waste_disposal"}},"type":"Feature"},
	{"geometry":{"coordinates":[-111.831216,33.43007],"type":"Point"},"properties":{"osm_id":"6779702849","tag":{"amenity":"waste_basket"}},"type":"Feature"},
	{"geometry":{"coordinates":[-111.818548,33.385247],"type":"Point"},"properties":{"name":"Battery Solutions","osm_id":"7276094153","tag":{"amenity":"recycling","recycling_type":"centre"}},"type":"Feature"},
	{"geometry":{"coordinates":[-111.832595,33.379191],"type":"Point"},"properties":{"name":"Cash For Cans","osm_id":"7725982855","tag":{"amenity":"recycling","recycling_type":"centre"}},"type":"Feature"}
]
}
