{
"type": "FeatureCollection",
"lastupdate": "2020-07-31T00:00:00Z",
"features": [
	{"geometry":{"coordinates":[8.126987,58.180779],"type":"Point"},"properties":{"osm_id":"1965054409","tag":{"amenity":"recycling","description":"S\u00f8rlandsparken, S\u00f8rlandssenteret v/parkeringsplass nordvest","recycling:clothes":"yes","recycling:glass_bottles":"yes","recycling_type":"container","ref:sortere":"14782"}},"type":"Feature"},
	{"geometry":{"coordinates":[8.138634,58.185859],"type":"Point"},"properties":{"osm_id":"2965231669","tag":{"amenity":"waste_basket"}},"type":"Feature"},
	{"geometry":{"coordinates":[8.136778,58.186291],"type":"Point"},"properties":{"osm_id":"2965231689","tag":{"amenity":"waste_basket"}},"type":"Feature"},
	{"geometry":{"coordinates":[8.13534,58.187619],"type":"Point"},"properties":{"osm_id":"2966708411","tag":{"amenity":"waste_basket"}},"type":"Feature"},
	{"geometry":{"coordinates":[8.136926,58.187714],"type":"Point"},"properties":{"osm_id":"2966708412","tag":{"amenity":"waste_basket"}},"type":"Feature"},
	{"geometry":{"coordinates":[8.139277,58.188431],"type":"Point"},"properties":{"osm_id":"2968166845","tag":{"amenity":"waste_basket"}},"type":"Feature"},
	{"geometry":{"coordinates":[8.140022,58.1851],"type":"Point"},"properties":{"osm_id":"2989946507","tag":{"amenity":"waste_basket"}},"type":"Feature"},
	{"geometry":{"coordinates":[8.139689,58.185769],"type":"Point"},"properties":{"osm_id":"2989946511","tag":{"amenity":"waste_basket"}},"type":"Feature"},
	{"geometry":{"coordinates":[8.140247,58.183284],"type":"Point"},"properties":{"osm_id":"2991311588","tag":{"amenity":"waste_basket"}},"type":"Feature"},
	{"geometry":{"coordinates":[8.140737,58.183376],"type":"Point"},"properties":{"osm_id":"2991311590","tag":{"amenity":"waste_basket"}},"type":"Feature"},
	{"geometry":{"coordinates":[8.091044,58.17654],"type":"Point"},"properties":{"osm_id":"4781309203","tag":{"amenity":"recycling","operator":"Brattbakken borettslag","recycling_type":"container"}},"type":"Feature"},
	{"geometry":{"coordinates":[8.08989,58.180074],"type":"Point"},"properties":{"osm_id":"4829538712","tag":{"amenity":"recycling","description":"H\u00e5nes/Tveit, H\u00e5nes senter v/matbutikk","recycling:glass_bottles":"yes","recycling_type":"container","ref:sortere":"14779"}},"type":"Feature"},
	{"geometry":{"coordinates":[8.160339,58.187587],"type":"Point"},"properties":{"osm_id":"5181779584","tag":{"amenity":"waste_basket"}},"type":"Feature"},
	{"geometry":{"coordinates":[8.160564,58.187851],"type":"Point"},"properties":{"osm_id":"5181779585","tag":{"amenity":"waste_basket"}},"type":"Feature"},
	{"geometry":{"coordinates":[8.159421,58.187753],"type":"Point"},"properties":{"osm_id":"5181779592","tag":{"amenity":"waste_basket"}},"type":"Feature"},
	{"geometry":{"coordinates":[8.159363,58.187808],"type":"Point"},"properties":{"osm_id":"5181779593","tag":{"amenity":"waste_basket"}},"type":"Feature"},
	{"geometry":{"coordinates":[8.159573,58.187731],"type":"Point"},"properties":{"osm_id":"5181779594","tag":{"amenity":"waste_basket"}},"type":"Feature"},
	{"geometry":{"coordinates":[8.088794,58.186275],"type":"Point"},"properties":{"osm_id":"5555200019","tag":{"access":"permissive","amenity":"recycling","description":"Hamresanden, Hamresanden s\u00f8r","recycling:paper":"yes","recycling:waste":"yes","recycling_type":"container","ref:sortere":"17210"}},"type":"Feature"},
	{"geometry":{"coordinates":[8.09197,58.17364],"type":"Point"},"properties":{"osm_id":"5555205499","tag":{"amenity":"recycling","description":"H\u00e5nes/Tveit, H\u00e5nes v/matbutikk","recycling:clothes":"yes","recycling:glass_bottles":"yes","recycling_type":"container","ref:sortere":"14780"}},"type":"Feature"}
]
}
