{
"type": "FeatureCollection",
"features": [
	{"geometry":{"coordinates":[8.12577,55.554661],"type":"Point"},"properties":{"osm_id":"283198884","tag":{"amenity":"waste_basket"}},"type":"Feature"},
	{"geometry":{"coordinates":[8.124465,55.554154],"type":"Point"},"properties":{"osm_id":"2440788974","tag":{"amenity":"waste_disposal"}},"type":"Feature"},
	{"geometry":{"coordinates":[8.12954,55.555091],"type":"Point"},"properties":{"osm_id":"2782179365","tag":{"amenity":"waste_basket"}},"type":"Feature"},
	{"geometry":{"coordinates":[8.128751,55.555122],"type":"Point"},"properties":{"osm_id":"2782179369","tag":{"amenity":"waste_basket"}},"type":"Feature"},
	{"geometry":{"coordinates":[8.13041,55.555193],"type":"Point"},"properties":{"osm_id":"2782179371","tag":{"amenity":"waste_basket"}},"type":"Feature"},
	{"geometry":{"coordinates":[8.131027,55.555272],"type":"Point"},"properties":{"osm_id":"2782179374","tag":{"amenity":"waste_basket"}},"type":"Feature"},
	{"geometry":{"coordinates":[8.132974,55.555507],"type":"Point"},"properties":{"osm_id":"2782179376","tag":{"amenity":"waste_basket"}},"type":"Feature"},
	{"geometry":{"coordinates":[8.132516,55.555578],"type":"Point"},"properties":{"osm_id":"2782179379","tag":{"amenity":"waste_basket"}},"type":"Feature"},
	{"geometry":{"coordinates":[8.133696,55.555585],"type":"Point"},"properties":{"osm_id":"2782179382","tag":{"amenity":"waste_basket"}},"type":"Feature"},
	{"geometry":{"coordinates":[8.133137,55.555632],"type":"Point"},"properties":{"osm_id":"2782179384","tag":{"amenity":"waste_basket"}},"type":"Feature"},
	{"geometry":{"coordinates":[8.135243,55.555734],"type":"Point"},"properties":{"osm_id":"2782179386","tag":{"amenity":"waste_basket"}},"type":"Feature"},
	{"geometry":{"coordinates":[8.133987,55.55575],"type":"Point"},"properties":{"osm_id":"2782179388","tag":{"amenity":"waste_basket"}},"type":"Feature"},
	{"geometry":{"coordinates":[8.135939,55.555887],"type":"Point"},"properties":{"osm_id":"2782179389","tag":{"amenity":"waste_basket"}},"type":"Feature"},
	{"geometry":{"coordinates":[8.136322,55.555623],"type":"Point"},"properties":{"osm_id":"2782210715","tag":{"amenity":"waste_basket"}},"type":"Feature"},
	{"geometry":{"coordinates":[8.133411,55.555892],"type":"Point"},"properties":{"osm_id":"2782215476","tag":{"amenity":"recycling","recycling:cans":"no","recycling:glass":"yes","recycling:paper":"yes","recycling_type":"container"}},"type":"Feature"},
	{"geometry":{"coordinates":[8.133592,55.555915],"type":"Point"},"properties":{"osm_id":"2782215478","tag":{"amenity":"waste_basket"}},"type":"Feature"},
	{"geometry":{"coordinates":[8.1342,55.555587],"type":"Point"},"properties":{"osm_id":"2782249989","tag":{"amenity":"waste_basket"}},"type":"Feature"},
	{"geometry":{"coordinates":[8.134261,55.555612],"type":"Point"},"properties":{"osm_id":"2782249992","tag":{"amenity":"waste_basket"}},"type":"Feature"},
	{"geometry":{"coordinates":[8.134168,55.55563],"type":"Point"},"properties":{"osm_id":"2782250000","tag":{"amenity":"waste_basket"}},"type":"Feature"},
	{"geometry":{"coordinates":[8.134255,55.555639],"type":"Point"},"properties":{"osm_id":"2782250006","tag":{"amenity":"waste_basket"}},"type":"Feature"},
	{"geometry":{"coordinates":[8.13453,55.555655],"type":"Point"},"properties":{"osm_id":"2782250010","tag":{"amenity":"waste_basket"}},"type":"Feature"},
	{"geometry":{"coordinates":[8.134593,55.555683],"type":"Point"},"properties":{"osm_id":"2782250019","tag":{"amenity":"waste_basket"}},"type":"Feature"},
	{"geometry":{"coordinates":[8.133511,55.555707],"type":"Point"},"properties":{"osm_id":"2782250027","tag":{"amenity":"waste_basket"}},"type":"Feature"},
	{"geometry":{"coordinates":[8.13369,55.555733],"type":"Point"},"properties":{"osm_id":"2782250044","tag":{"amenity":"waste_basket"}},"type":"Feature"},
	{"geometry":{"coordinates":[8.133632,55.555836],"type":"Point"},"properties":{"osm_id":"2782250063","tag":{"amenity":"waste_basket"}},"type":"Feature"},
	{"geometry":{"coordinates":[8.131485,55.555468],"type":"Point"},"properties":{"osm_id":"2789229663","tag":{"amenity":"waste_basket"}},"type":"Feature"},
	{"geometry":{"coordinates":[8.15271,55.539174],"type":"Point"},"properties":{"osm_id":"3516110738","tag":{"amenity":"waste_basket"}},"type":"Feature"},
	{"geometry":{"coordinates":[8.111726,55.549347],"type":"Point"},"properties":{"osm_id":"4240061480","tag":{"amenity":"waste_basket"}},"type":"Feature"},
	{"geometry":{"coordinates":[8.133685,55.543709],"type":"Point"},"properties":{"osm_id":"5625467997","tag":{"amenity":"waste_disposal"}},"type":"Feature"},
	{"geometry":{"coordinates":[8.133692,55.543695],"type":"Point"},"properties":{"osm_id":"5627577526","tag":{"amenity":"recycling","recycling:cans":"yes","recycling:glass":"yes","recycling:glass_bottles":"yes","recycling_type":"container"}},"type":"Feature"},
	{"geometry":{"coordinates":[8.133948,55.543837],"type":"Point"},"properties":{"osm_id":"5627593967","tag":{"amenity":"waste_basket"}},"type":"Feature"},
	{"geometry":{"coordinates":[8.139518,55.542081],"type":"Point"},"properties":{"osm_id":"6273835579","tag":{"amenity":"waste_disposal"}},"type":"Feature"}
]
}
