{
"type": "FeatureCollection",
"features": [
	{"geometry":{"coordinates":[8.118885,52.514269],"type":"Point"},"properties":{"osm_id":"5782611794","tag":{"amenity":"waste_basket"}},"type":"Feature"},
	{"geometry":{"coordinates":[8.096347,52.510148],"type":"Point"},"properties":{"osm_id":"5804475094","tag":{"amenity":"waste_basket"}},"type":"Feature"},
	{"geometry":{"coordinates":[8.09803,52.51153],"type":"Point"},"properties":{"osm_id":"5804475095","tag":{"amenity":"waste_basket"}},"type":"Feature"},
	{"geometry":{"coordinates":[8.150876,52.503589],"type":"Point"},"properties":{"name":"Dammer Recyclinghof Hillebrand GmbH","osm_id":"7321355454","tag":{"addr:city":"Damme","addr:housenumber":"88","addr:postcode":"49401","addr:street":"V\u00c3\u00b6rdener Stra\u00c3\u009fe","amenity":"recycling","email":"info@hillebrand-damme.de","fax":"+49 5491 5066","phone":"+49 5491 1451","recycling_type":"centre","website":"https://hillebrand-damme.de/"}},"type":"Feature"},
	{"geometry":{"coordinates":[8.103687,52.486991],"type":"Point"},"properties":{"osm_id":"8817849115","tag":{"amenity":"waste_basket"}},"type":"Feature"},
	{"geometry":{"coordinates":[8.121331,52.51541],"type":"Point"},"properties":{"osm_id":"8817870063","tag":{"amenity":"waste_basket"}},"type":"Feature"},
	{"geometry":{"coordinates":[8.087447,52.520635],"type":"Point"},"properties":{"osm_id":"9160330441","tag":{"amenity":"waste_basket","waste":"trash"}},"type":"Feature"},
	{"geometry":{"coordinates":[8.095444,52.520518],"type":"Point"},"properties":{"osm_id":"9160330444","tag":{"amenity":"waste_basket","waste":"trash"}},"type":"Feature"},
	{"geometry":{"coordinates":[8.102089,52.496376],"type":"Point"},"properties":{"osm_id":"9195370883","tag":{"amenity":"waste_basket","waste":"trash"}},"type":"Feature"},
	{"geometry":{"coordinates":[8.102541,52.49636],"type":"Point"},"properties":{"osm_id":"9195370884","tag":{"amenity":"waste_basket","waste":"trash"}},"type":"Feature"}
]
}
