{
"type": "FeatureCollection",
"features": [
	{"geometry":{"coordinates":[8.161369,52.405103],"type":"Point"},"properties":{"osm_id":"684276899","tag":{"amenity":"recycling","recycling_type":"container"}},"type":"Feature"},
	{"geometry":{"coordinates":[8.100953,52.419823],"type":"Point"},"properties":{"osm_id":"1260054064","tag":{"amenity":"recycling","recycling_type":"container"}},"type":"Feature"},
	{"geometry":{"coordinates":[8.155152,52.404493],"type":"Point"},"properties":{"osm_id":"1578632363","tag":{"amenity":"waste_basket","leisure":"picnic_table","tourism":"picnic_site"}},"type":"Feature"},
	{"geometry":{"coordinates":[8.161461,52.404905],"type":"Point"},"properties":{"osm_id":"1578639963","tag":{"amenity":"waste_basket","leisure":"picnic_table","tourism":"picnic_site"}},"type":"Feature"},
	{"geometry":{"coordinates":[8.117651,52.416866],"type":"Point"},"properties":{"osm_id":"3368644589","tag":{"amenity":"waste_basket"}},"type":"Feature"},
	{"geometry":{"coordinates":[8.098349,52.376396],"type":"Point"},"properties":{"osm_id":"8868947596","tag":{"amenity":"waste_basket"}},"type":"Feature"},
	{"geometry":{"coordinates":[8.117994,52.395633],"type":"Point"},"properties":{"osm_id":"8868949211","tag":{"amenity":"waste_basket"}},"type":"Feature"}
]
}
