{
"type": "FeatureCollection",
"lastupdate": "2020-08-06T00:00:00Z",
"features": [
	{"geometry":{"coordinates":[8.143642,52.04366],"type":"Point"},"properties":{"name":"Wertstoffhof Versmold","osm_id":"440936184","tag":{"amenity":"recycling","operator":"Remondis","recycling_type":"centre"}},"type":"Feature"},
	{"geometry":{"coordinates":[8.098808,52.00236],"type":"Point"},"properties":{"osm_id":"5766595031","tag":{"amenity":"waste_basket"}},"type":"Feature"},
	{"geometry":{"coordinates":[8.096233,52.002435],"type":"Point"},"properties":{"osm_id":"5766595032","tag":{"amenity":"waste_basket"}},"type":"Feature"},
	{"geometry":{"coordinates":[8.09702,52.002918],"type":"Point"},"properties":{"osm_id":"5766595033","tag":{"amenity":"waste_basket"}},"type":"Feature"},
	{"geometry":{"coordinates":[8.098133,52.002183],"type":"Point"},"properties":{"osm_id":"5766595034","tag":{"amenity":"waste_basket"}},"type":"Feature"},
	{"geometry":{"coordinates":[8.09899,52.002188],"type":"Point"},"properties":{"osm_id":"5766595042","tag":{"amenity":"waste_basket"}},"type":"Feature"},
	{"geometry":{"coordinates":[8.115114,52.007518],"type":"Point"},"properties":{"osm_id":"5766595046","tag":{"amenity":"waste_basket"}},"type":"Feature"},
	{"geometry":{"coordinates":[8.119266,52.008163],"type":"Point"},"properties":{"osm_id":"5766595806","tag":{"amenity":"waste_basket"}},"type":"Feature"},
	{"geometry":{"coordinates":[8.127772,52.011519],"type":"Point"},"properties":{"osm_id":"5766595808","tag":{"amenity":"waste_basket"}},"type":"Feature"},
	{"geometry":{"coordinates":[8.148497,52.032631],"type":"Point"},"properties":{"osm_id":"5766595809","tag":{"amenity":"waste_basket"}},"type":"Feature"},
	{"geometry":{"coordinates":[8.097748,52.002008],"type":"Point"},"properties":{"osm_id":"5766595853","tag":{"amenity":"waste_basket"}},"type":"Feature"},
	{"geometry":{"coordinates":[8.098048,52.001318],"type":"Point"},"properties":{"osm_id":"5766595855","tag":{"amenity":"waste_basket"}},"type":"Feature"},
	{"geometry":{"coordinates":[8.122427,52.01841],"type":"Point"},"properties":{"osm_id":"5769185280","tag":{"amenity":"recycling","recycling:glass":"yes","recycling_type":"container"}},"type":"Feature"},
	{"geometry":{"coordinates":[8.098943,52.00177],"type":"Point"},"properties":{"osm_id":"5773820934","tag":{"amenity":"waste_basket"}},"type":"Feature"}
]
}
