{
"type": "FeatureCollection",
"features": [
	{"geometry":{"coordinates":[8.089324,51.491203],"type":"Point"},"properties":{"osm_id":"564008619","tag":{"amenity":"recycling","location":"overground","recycling:clothes":"yes","recycling:glass":"yes","recycling_type":"container"}},"type":"Feature"},
	{"geometry":{"coordinates":[8.147844,51.486183],"type":"Point"},"properties":{"osm_id":"972499840","tag":{"amenity":"recycling","recycling:glass":"yes"}},"type":"Feature"},
	{"geometry":{"coordinates":[8.150797,51.458159],"type":"Point"},"properties":{"osm_id":"1071801582","tag":{"amenity":"waste_basket"}},"type":"Feature"},
	{"geometry":{"coordinates":[8.126648,51.495493],"type":"Point"},"properties":{"osm_id":"1506379629","tag":{"amenity":"waste_basket"}},"type":"Feature"},
	{"geometry":{"coordinates":[8.121249,51.489363],"type":"Point"},"properties":{"osm_id":"1515727811","tag":{"amenity":"waste_basket"}},"type":"Feature"},
	{"geometry":{"coordinates":[8.121325,51.49015],"type":"Point"},"properties":{"osm_id":"1515727813","tag":{"amenity":"waste_basket"}},"type":"Feature"},
	{"geometry":{"coordinates":[8.135978,51.479809],"type":"Point"},"properties":{"osm_id":"1531591988","tag":{"amenity":"waste_basket"}},"type":"Feature"},
	{"geometry":{"coordinates":[8.130988,51.483897],"type":"Point"},"properties":{"osm_id":"1531592154","tag":{"amenity":"waste_basket"}},"type":"Feature"},
	{"geometry":{"coordinates":[8.135358,51.484335],"type":"Point"},"properties":{"osm_id":"1531592184","tag":{"amenity":"waste_basket"}},"type":"Feature"},
	{"geometry":{"coordinates":[8.142048,51.486029],"type":"Point"},"properties":{"osm_id":"1531592207","tag":{"amenity":"waste_basket"}},"type":"Feature"},
	{"geometry":{"coordinates":[8.120426,51.490281],"type":"Point"},"properties":{"osm_id":"1531592278","tag":{"amenity":"waste_basket"}},"type":"Feature"},
	{"geometry":{"coordinates":[8.119588,51.49039],"type":"Point"},"properties":{"osm_id":"1531592280","tag":{"amenity":"waste_basket"}},"type":"Feature"},
	{"geometry":{"coordinates":[8.12059,51.491774],"type":"Point"},"properties":{"osm_id":"1531592298","tag":{"amenity":"waste_basket"}},"type":"Feature"},
	{"geometry":{"coordinates":[8.157825,51.466856],"type":"Point"},"properties":{"osm_id":"1940058662","tag":{"amenity":"waste_basket"}},"type":"Feature"},
	{"geometry":{"coordinates":[8.171003,51.481569],"type":"Point"},"properties":{"osm_id":"1940059159","tag":{"amenity":"waste_basket"}},"type":"Feature"},
	{"geometry":{"coordinates":[8.155008,51.455652],"type":"Point"},"properties":{"osm_id":"2008894317","tag":{"amenity":"waste_basket"}},"type":"Feature"},
	{"geometry":{"coordinates":[8.173024,51.507157],"type":"Point"},"properties":{"osm_id":"2262346349","tag":{"amenity":"recycling","recycling:clothes":"yes","recycling:glass":"yes","recycling:shoes":"yes"}},"type":"Feature"},
	{"geometry":{"coordinates":[8.096921,51.492329],"type":"Point"},"properties":{"osm_id":"2793691035","tag":{"amenity":"waste_basket"}},"type":"Feature"},
	{"geometry":{"coordinates":[8.157298,51.492794],"type":"Point"},"properties":{"osm_id":"3742972530","tag":{"amenity":"recycling","recycling:clothes":"yes","recycling:glass":"yes","recycling_type":"container"}},"type":"Feature"},
	{"geometry":{"coordinates":[8.121345,51.476572],"type":"Point"},"properties":{"osm_id":"4290774518","tag":{"amenity":"waste_basket"}},"type":"Feature"},
	{"geometry":{"coordinates":[8.118506,51.478179],"type":"Point"},"properties":{"osm_id":"4290774542","tag":{"amenity":"waste_basket"}},"type":"Feature"},
	{"geometry":{"coordinates":[8.154798,51.456005],"type":"Point"},"properties":{"osm_id":"4742685471","tag":{"amenity":"waste_basket"}},"type":"Feature"},
	{"geometry":{"coordinates":[8.154838,51.455668],"type":"Point"},"properties":{"osm_id":"4742685472","tag":{"amenity":"waste_basket"}},"type":"Feature"},
	{"geometry":{"coordinates":[8.156823,51.45514],"type":"Point"},"properties":{"osm_id":"4742685489","tag":{"amenity":"waste_basket"}},"type":"Feature"},
	{"geometry":{"coordinates":[8.122015,51.476746],"type":"Point"},"properties":{"osm_id":"6647270537","tag":{"amenity":"waste_basket"}},"type":"Feature"},
	{"geometry":{"coordinates":[8.166729,51.493612],"type":"Point"},"properties":{"osm_id":"8104278237","tag":{"amenity":"waste_basket","colour":"blue"}},"type":"Feature"},
	{"geometry":{"coordinates":[8.171092,51.491615],"type":"Point"},"properties":{"osm_id":"8104278310","tag":{"amenity":"waste_basket"}},"type":"Feature"},
	{"geometry":{"coordinates":[8.173049,51.507163],"type":"Point"},"properties":{"osm_id":"8109192362","tag":{"amenity":"recycling","recycling:clothes":"yes","recycling_type":"container"}},"type":"Feature"},
	{"geometry":{"coordinates":[8.173037,51.507148],"type":"Point"},"properties":{"osm_id":"8109192363","tag":{"amenity":"recycling","recycling:cans":"yes","recycling_type":"container"}},"type":"Feature"},
	{"geometry":{"coordinates":[8.173026,51.507134],"type":"Point"},"properties":{"osm_id":"8109192364","tag":{"amenity":"recycling","recycling:glass_bottles":"yes","recycling_type":"container"}},"type":"Feature"},
	{"geometry":{"coordinates":[8.095374,51.466722],"type":"Point"},"properties":{"osm_id":"8143634188","tag":{"amenity":"waste_basket"}},"type":"Feature"},
	{"geometry":{"coordinates":[8.108106,51.488795],"type":"Point"},"properties":{"osm_id":"8143634400","tag":{"amenity":"waste_basket"}},"type":"Feature"},
	{"geometry":{"coordinates":[8.129902,51.497356],"type":"Point"},"properties":{"osm_id":"8154556613","tag":{"amenity":"waste_basket"}},"type":"Feature"},
	{"geometry":{"coordinates":[8.126502,51.495432],"type":"Point"},"properties":{"osm_id":"8154585026","tag":{"amenity":"waste_basket"}},"type":"Feature"}
]
}
