{
"type": "FeatureCollection",
"lastupdate": "2020-08-04T00:00:00Z",
"features": [
	{"geometry":{"coordinates":[8.116847,50.49589],"type":"Point"},"properties":{"osm_id":"316842471","tag":{"amenity":"recycling","recycling:glass":"yes"}},"type":"Feature"},
	{"geometry":{"coordinates":[8.131717,50.463787],"type":"Point"},"properties":{"osm_id":"321249732","tag":{"amenity":"recycling","recycling:glass":"yes"}},"type":"Feature"},
	{"geometry":{"coordinates":[8.135009,50.513198],"type":"Point"},"properties":{"osm_id":"2598905872","tag":{"amenity":"recycling","recycling:glass":"yes"}},"type":"Feature"},
	{"geometry":{"coordinates":[8.126315,50.508923],"type":"Point"},"properties":{"osm_id":"2598907225","tag":{"amenity":"recycling","recycling:clothes":"yes","recycling:glass":"yes"}},"type":"Feature"},
	{"geometry":{"coordinates":[8.126344,50.509838],"type":"Point"},"properties":{"osm_id":"2620047648","tag":{"amenity":"recycling","recycling:clothes":"yes"}},"type":"Feature"},
	{"geometry":{"coordinates":[8.114972,50.496647],"type":"Point"},"properties":{"osm_id":"7034518224","tag":{"amenity":"recycling","opening_hours":"24/7","recycling:clothes":"yes","recycling:shoes":"yes","recycling_type":"container","wheelchair":"yes"}},"type":"Feature"},
	{"geometry":{"coordinates":[8.164846,50.489368],"type":"Point"},"properties":{"osm_id":"7619969477","tag":{"amenity":"waste_basket"}},"type":"Feature"}
]
}
