{
"type": "FeatureCollection",
"features": [
	{"geometry":{"coordinates":[8.101251,50.15812],"type":"Point"},"properties":{"osm_id":"299758028","tag":{"amenity":"recycling","recycling:glass_bottles":"yes","recycling_type":"container"}},"type":"Feature"},
	{"geometry":{"coordinates":[8.105173,50.160949],"type":"Point"},"properties":{"osm_id":"299759422","tag":{"amenity":"recycling","recycling:batteries":"no","recycling:clothes":"yes","recycling:glass_bottles":"yes","recycling_type":"container"}},"type":"Feature"},
	{"geometry":{"coordinates":[8.088359,50.133935],"type":"Point"},"properties":{"osm_id":"353119100","tag":{"amenity":"recycling","recycling:clothes":"yes","recycling:glass_bottles":"yes","recycling_type":"container"}},"type":"Feature"},
	{"geometry":{"coordinates":[8.154056,50.140875],"type":"Point"},"properties":{"osm_id":"701928610","tag":{"amenity":"recycling","recycling:green_waste":"yes","recycling_type":"container"}},"type":"Feature"},
	{"geometry":{"coordinates":[8.14844,50.134953],"type":"Point"},"properties":{"osm_id":"718575762","tag":{"amenity":"recycling","recycling:clothes":"yes","recycling:glass_bottles":"yes","recycling_type":"container"}},"type":"Feature"},
	{"geometry":{"coordinates":[8.160654,50.140726],"type":"Point"},"properties":{"osm_id":"731952047","tag":{"amenity":"recycling","recycling:clothes":"yes","recycling_type":"container"}},"type":"Feature"},
	{"geometry":{"coordinates":[8.139686,50.141233],"type":"Point"},"properties":{"osm_id":"738931958","tag":{"amenity":"recycling","opening_hours":"24/7","recycling:glass_bottles":"yes","recycling:green_waste":"yes","recycling_type":"container","wheelchair":"yes"}},"type":"Feature"},
	{"geometry":{"coordinates":[8.165965,50.140921],"type":"Point"},"properties":{"osm_id":"757464385","tag":{"amenity":"recycling","recycling:clothes":"yes","recycling:glass_bottles":"yes","recycling:green_waste":"yes","recycling_type":"container"}},"type":"Feature"},
	{"geometry":{"coordinates":[8.146894,50.132383],"type":"Point"},"properties":{"osm_id":"760371929","tag":{"amenity":"recycling","recycling:glass_bottles":"yes","recycling_type":"container"}},"type":"Feature"},
	{"geometry":{"coordinates":[8.146987,50.132353],"type":"Point"},"properties":{"osm_id":"760371933","tag":{"amenity":"recycling","recycling:green_waste":"yes","recycling_type":"container"}},"type":"Feature"},
	{"geometry":{"coordinates":[8.146121,50.144984],"type":"Point"},"properties":{"osm_id":"767522655","tag":{"amenity":"recycling","recycling:glass_bottles":"yes","recycling_type":"container"}},"type":"Feature"},
	{"geometry":{"coordinates":[8.137232,50.13754],"type":"Point"},"properties":{"osm_id":"823495750","tag":{"amenity":"recycling","recycling:glass_bottles":"yes","recycling_type":"container"}},"type":"Feature"},
	{"geometry":{"coordinates":[8.092222,50.133278],"type":"Point"},"properties":{"osm_id":"1264162528","tag":{"amenity":"waste_basket"}},"type":"Feature"},
	{"geometry":{"coordinates":[8.148952,50.169726],"type":"Point"},"properties":{"osm_id":"1280403761","tag":{"amenity":"recycling","recycling:green_waste":"yes","recycling_type":"container"}},"type":"Feature"},
	{"geometry":{"coordinates":[8.148894,50.169694],"type":"Point"},"properties":{"osm_id":"1280403764","tag":{"amenity":"recycling","recycling:glass_bottles":"yes","recycling_type":"container"}},"type":"Feature"},
	{"geometry":{"coordinates":[8.131742,50.133154],"type":"Point"},"properties":{"osm_id":"1585695311","tag":{"amenity":"recycling","recycling:clothes":"yes","recycling:glass_bottles":"yes","recycling:green_waste":"yes","recycling:shoes":"yes","recycling_type":"container"}},"type":"Feature"},
	{"geometry":{"coordinates":[8.155053,50.154324],"type":"Point"},"properties":{"osm_id":"1935819229","tag":{"amenity":"waste_basket"}},"type":"Feature"},
	{"geometry":{"coordinates":[8.093832,50.141658],"type":"Point"},"properties":{"barrier":"gate","osm_id":"1948999216"},"type":"Feature"},
	{"geometry":{"coordinates":[8.129171,50.130384],"type":"Point"},"properties":{"osm_id":"2182773052","tag":{"amenity":"recycling","recycling_type":"container"}},"type":"Feature"},
	{"geometry":{"coordinates":[8.1241,50.127799],"type":"Point"},"properties":{"osm_id":"2191323815","tag":{"amenity":"recycling","recycling:glass_bottles":"yes","recycling_type":"container"}},"type":"Feature"},
	{"geometry":{"coordinates":[8.120433,50.124945],"type":"Point"},"properties":{"osm_id":"2195855591","tag":{"amenity":"recycling","location":"overground","recycling:batteries":"yes","recycling_type":"container"}},"type":"Feature"},
	{"geometry":{"coordinates":[8.137567,50.131941],"type":"Point"},"properties":{"osm_id":"3073140040","tag":{"amenity":"recycling","recycling:glass_bottles":"yes","recycling_type":"container"}},"type":"Feature"},
	{"geometry":{"coordinates":[8.154389,50.152228],"type":"Point"},"properties":{"osm_id":"3435497606","tag":{"amenity":"recycling","recycling:glass_bottles":"yes","recycling_type":"container"}},"type":"Feature"},
	{"geometry":{"coordinates":[8.14299,50.13814],"type":"Point"},"properties":{"osm_id":"4066299895","tag":{"amenity":"waste_basket"}},"type":"Feature"},
	{"geometry":{"coordinates":[8.13282,50.140049],"type":"Point"},"properties":{"osm_id":"4086831306","tag":{"amenity":"waste_basket"}},"type":"Feature"},
	{"geometry":{"coordinates":[8.136997,50.148116],"type":"Point"},"properties":{"osm_id":"4102992123","tag":{"amenity":"waste_basket"}},"type":"Feature"},
	{"geometry":{"coordinates":[8.142895,50.138201],"type":"Point"},"properties":{"osm_id":"4119387181","tag":{"amenity":"recycling","recycling:clothes":"yes","recycling:glass_bottles":"yes","recycling:shoes":"yes","recycling_type":"container"}},"type":"Feature"},
	{"geometry":{"coordinates":[8.156969,50.137425],"type":"Point"},"properties":{"osm_id":"4123367404","tag":{"amenity":"recycling","recycling:glass_bottles":"yes","recycling_type":"container"}},"type":"Feature"},
	{"geometry":{"coordinates":[8.121506,50.120714],"type":"Point"},"properties":{"osm_id":"4124071447","tag":{"amenity":"waste_basket"}},"type":"Feature"},
	{"geometry":{"coordinates":[8.143263,50.143028],"type":"Point"},"properties":{"osm_id":"4135824240","tag":{"amenity":"recycling","opening_hours":"24/7","recycling:clothes":"yes","recycling_type":"container"}},"type":"Feature"},
	{"geometry":{"coordinates":[8.140762,50.139883],"type":"Point"},"properties":{"osm_id":"4146236481","tag":{"amenity":"waste_basket"}},"type":"Feature"},
	{"geometry":{"coordinates":[8.141845,50.140124],"type":"Point"},"properties":{"osm_id":"4149178979","tag":{"amenity":"waste_basket"}},"type":"Feature"},
	{"geometry":{"coordinates":[8.132846,50.134702],"type":"Point"},"properties":{"osm_id":"4155298761","tag":{"amenity":"waste_basket"}},"type":"Feature"},
	{"geometry":{"coordinates":[8.132473,50.136122],"type":"Point"},"properties":{"osm_id":"4155298768","tag":{"amenity":"waste_basket"}},"type":"Feature"},
	{"geometry":{"coordinates":[8.137201,50.134802],"type":"Point"},"properties":{"osm_id":"4170118001","tag":{"amenity":"waste_basket"}},"type":"Feature"},
	{"geometry":{"coordinates":[8.139672,50.134864],"type":"Point"},"properties":{"osm_id":"4170118002","tag":{"amenity":"waste_basket"}},"type":"Feature"},
	{"geometry":{"coordinates":[8.137105,50.135506],"type":"Point"},"properties":{"osm_id":"4170118027","tag":{"amenity":"waste_basket"}},"type":"Feature"},
	{"geometry":{"coordinates":[8.15089,50.13951],"type":"Point"},"properties":{"osm_id":"4185152253","tag":{"amenity":"waste_basket"}},"type":"Feature"},
	{"geometry":{"coordinates":[8.153512,50.133283],"type":"Point"},"properties":{"osm_id":"4187042213","tag":{"amenity":"waste_basket"}},"type":"Feature"},
	{"geometry":{"coordinates":[8.151814,50.133364],"type":"Point"},"properties":{"osm_id":"4187042214","tag":{"amenity":"waste_basket"}},"type":"Feature"},
	{"geometry":{"coordinates":[8.1524,50.133387],"type":"Point"},"properties":{"osm_id":"4187042215","tag":{"amenity":"waste_basket"}},"type":"Feature"},
	{"geometry":{"coordinates":[8.148291,50.134041],"type":"Point"},"properties":{"osm_id":"4187042218","tag":{"amenity":"waste_basket"}},"type":"Feature"},
	{"geometry":{"coordinates":[8.14383,50.133014],"type":"Point"},"properties":{"osm_id":"4222063735","tag":{"amenity":"waste_basket"}},"type":"Feature"},
	{"geometry":{"coordinates":[8.144226,50.128463],"type":"Point"},"properties":{"osm_id":"4233983686","tag":{"amenity":"waste_basket"}},"type":"Feature"},
	{"geometry":{"coordinates":[8.125978,50.16153],"type":"Point"},"properties":{"osm_id":"4237504906","tag":{"amenity":"waste_basket"}},"type":"Feature"},
	{"geometry":{"coordinates":[8.137467,50.131847],"type":"Point"},"properties":{"osm_id":"4248382147","tag":{"amenity":"waste_basket"}},"type":"Feature"},
	{"geometry":{"coordinates":[8.137606,50.13253],"type":"Point"},"properties":{"osm_id":"4248382154","tag":{"amenity":"waste_basket"}},"type":"Feature"},
	{"geometry":{"coordinates":[8.137429,50.133574],"type":"Point"},"properties":{"osm_id":"4248382170","tag":{"amenity":"waste_basket"}},"type":"Feature"},
	{"geometry":{"coordinates":[8.137316,50.134137],"type":"Point"},"properties":{"osm_id":"4248382183","tag":{"amenity":"waste_basket"}},"type":"Feature"},
	{"geometry":{"coordinates":[8.147338,50.151154],"type":"Point"},"properties":{"osm_id":"4250087574","tag":{"amenity":"waste_basket"}},"type":"Feature"},
	{"geometry":{"coordinates":[8.166584,50.147709],"type":"Point"},"properties":{"osm_id":"4254543456","tag":{"amenity":"waste_basket"}},"type":"Feature"},
	{"geometry":{"coordinates":[8.144946,50.1303],"type":"Point"},"properties":{"osm_id":"4258591841","tag":{"amenity":"waste_basket"}},"type":"Feature"},
	{"geometry":{"coordinates":[8.151394,50.152224],"type":"Point"},"properties":{"osm_id":"4271590415","tag":{"amenity":"waste_basket"}},"type":"Feature"},
	{"geometry":{"coordinates":[8.152672,50.152632],"type":"Point"},"properties":{"osm_id":"4271590421","tag":{"amenity":"waste_basket"}},"type":"Feature"},
	{"geometry":{"coordinates":[8.154318,50.152381],"type":"Point"},"properties":{"osm_id":"4280794653","tag":{"amenity":"waste_basket"}},"type":"Feature"},
	{"geometry":{"coordinates":[8.157615,50.144837],"type":"Point"},"properties":{"osm_id":"4284042332","tag":{"amenity":"recycling","recycling:glass_bottles":"yes","recycling_type":"container"}},"type":"Feature"},
	{"geometry":{"coordinates":[8.138387,50.136224],"type":"Point"},"properties":{"osm_id":"4287997348","tag":{"amenity":"waste_basket"}},"type":"Feature"},
	{"geometry":{"coordinates":[8.132132,50.131775],"type":"Point"},"properties":{"osm_id":"4290884843","tag":{"amenity":"waste_basket"}},"type":"Feature"},
	{"geometry":{"coordinates":[8.14744,50.14601],"type":"Point"},"properties":{"osm_id":"4293136410","tag":{"amenity":"waste_basket"}},"type":"Feature"},
	{"geometry":{"coordinates":[8.148744,50.146508],"type":"Point"},"properties":{"osm_id":"4293136419","tag":{"amenity":"waste_basket"}},"type":"Feature"},
	{"geometry":{"coordinates":[8.146761,50.13837],"type":"Point"},"properties":{"osm_id":"4301321245","tag":{"amenity":"waste_basket"}},"type":"Feature"},
	{"geometry":{"coordinates":[8.150739,50.154386],"type":"Point"},"properties":{"osm_id":"4302967721","tag":{"amenity":"waste_basket"}},"type":"Feature"},
	{"geometry":{"coordinates":[8.16396,50.139123],"type":"Point"},"properties":{"osm_id":"4316012683","tag":{"amenity":"recycling","recycling:glass_bottles":"yes","recycling_type":"container"}},"type":"Feature"},
	{"geometry":{"coordinates":[8.149081,50.141046],"type":"Point"},"properties":{"osm_id":"4317422258","tag":{"amenity":"waste_basket"}},"type":"Feature"},
	{"geometry":{"coordinates":[8.147751,50.148375],"type":"Point"},"properties":{"osm_id":"4321274014","tag":{"amenity":"recycling","opening_hours":"24/7","recycling:glass_bottles":"yes","recycling_type":"container","wheelchair":"yes"}},"type":"Feature"},
	{"geometry":{"coordinates":[8.154272,50.143967],"type":"Point"},"properties":{"osm_id":"4338214866","tag":{"amenity":"waste_basket"}},"type":"Feature"},
	{"geometry":{"coordinates":[8.154133,50.144162],"type":"Point"},"properties":{"osm_id":"4338214882","tag":{"amenity":"waste_basket"}},"type":"Feature"},
	{"geometry":{"coordinates":[8.154801,50.14299],"type":"Point"},"properties":{"osm_id":"4338215967","tag":{"amenity":"waste_basket"}},"type":"Feature"},
	{"geometry":{"coordinates":[8.153561,50.139686],"type":"Point"},"properties":{"osm_id":"4351265307","tag":{"amenity":"recycling","recycling:glass_bottles":"yes","recycling_type":"container"}},"type":"Feature"},
	{"geometry":{"coordinates":[8.132385,50.140419],"type":"Point"},"properties":{"osm_id":"4354064229","tag":{"amenity":"waste_basket"}},"type":"Feature"},
	{"geometry":{"coordinates":[8.13113,50.143745],"type":"Point"},"properties":{"osm_id":"4354064230","tag":{"amenity":"waste_basket"}},"type":"Feature"},
	{"geometry":{"coordinates":[8.142224,50.13997],"type":"Point"},"properties":{"osm_id":"4358794852","tag":{"amenity":"waste_basket"}},"type":"Feature"},
	{"geometry":{"coordinates":[8.130559,50.139398],"type":"Point"},"properties":{"osm_id":"4360416549","tag":{"amenity":"waste_basket"}},"type":"Feature"},
	{"geometry":{"coordinates":[8.127536,50.140186],"type":"Point"},"properties":{"osm_id":"4360416550","tag":{"amenity":"waste_basket"}},"type":"Feature"},
	{"geometry":{"coordinates":[8.152785,50.134969],"type":"Point"},"properties":{"osm_id":"4364556329","tag":{"amenity":"waste_basket"}},"type":"Feature"},
	{"geometry":{"coordinates":[8.171647,50.151536],"type":"Point"},"properties":{"osm_id":"4392297296","tag":{"amenity":"waste_basket"}},"type":"Feature"},
	{"geometry":{"coordinates":[8.143845,50.162772],"type":"Point"},"properties":{"osm_id":"4429097931","tag":{"amenity":"waste_basket"}},"type":"Feature"},
	{"geometry":{"coordinates":[8.142496,50.141438],"type":"Point"},"properties":{"osm_id":"4434482426","tag":{"amenity":"waste_basket"}},"type":"Feature"},
	{"geometry":{"coordinates":[8.144556,50.142153],"type":"Point"},"properties":{"osm_id":"4434482427","tag":{"amenity":"waste_basket"}},"type":"Feature"},
	{"geometry":{"coordinates":[8.122532,50.148657],"type":"Point"},"properties":{"osm_id":"4437718738","tag":{"amenity":"waste_basket"}},"type":"Feature"},
	{"geometry":{"coordinates":[8.126819,50.165438],"type":"Point"},"properties":{"osm_id":"4460406810","tag":{"amenity":"waste_basket"}},"type":"Feature"},
	{"geometry":{"coordinates":[8.150652,50.136752],"type":"Point"},"properties":{"osm_id":"4466395867","tag":{"amenity":"recycling","recycling:clothes":"yes","recycling:shoes":"yes","recycling_type":"container"}},"type":"Feature"},
	{"geometry":{"coordinates":[8.147001,50.16958],"type":"Point"},"properties":{"osm_id":"4517205262","tag":{"amenity":"waste_basket"}},"type":"Feature"},
	{"geometry":{"coordinates":[8.147674,50.17164],"type":"Point"},"properties":{"osm_id":"4517205263","tag":{"amenity":"waste_basket"}},"type":"Feature"},
	{"geometry":{"coordinates":[8.173129,50.156249],"type":"Point"},"properties":{"osm_id":"4519220214","tag":{"amenity":"waste_basket"}},"type":"Feature"},
	{"geometry":{"coordinates":[8.148153,50.135008],"type":"Point"},"properties":{"osm_id":"4547976567","tag":{"amenity":"recycling","recycling:clothes":"yes","recycling_type":"container"}},"type":"Feature"},
	{"geometry":{"coordinates":[8.124589,50.142597],"type":"Point"},"properties":{"osm_id":"4549404250","tag":{"amenity":"waste_basket"}},"type":"Feature"},
	{"geometry":{"coordinates":[8.142476,50.140161],"type":"Point"},"properties":{"osm_id":"4561923553","tag":{"amenity":"waste_basket"}},"type":"Feature"},
	{"geometry":{"coordinates":[8.142292,50.141395],"type":"Point"},"properties":{"osm_id":"4561923557","tag":{"amenity":"waste_basket"}},"type":"Feature"},
	{"geometry":{"coordinates":[8.142818,50.146252],"type":"Point"},"properties":{"osm_id":"4561923558","tag":{"amenity":"waste_basket"}},"type":"Feature"},
	{"geometry":{"coordinates":[8.13482,50.146672],"type":"Point"},"properties":{"osm_id":"4561923562","tag":{"amenity":"waste_basket"}},"type":"Feature"},
	{"geometry":{"coordinates":[8.119783,50.12587],"type":"Point"},"properties":{"osm_id":"4616536485","tag":{"amenity":"waste_basket"}},"type":"Feature"},
	{"geometry":{"coordinates":[8.119857,50.125731],"type":"Point"},"properties":{"osm_id":"4653113288","tag":{"amenity":"waste_basket"}},"type":"Feature"},
	{"geometry":{"coordinates":[8.155165,50.165565],"type":"Point"},"properties":{"osm_id":"4693651443","tag":{"amenity":"waste_basket"}},"type":"Feature"},
	{"geometry":{"coordinates":[8.159003,50.165032],"type":"Point"},"properties":{"osm_id":"4693651444","tag":{"amenity":"waste_basket"}},"type":"Feature"},
	{"geometry":{"coordinates":[8.149874,50.136958],"type":"Point"},"properties":{"osm_id":"4721683826","tag":{"amenity":"waste_basket"}},"type":"Feature"},
	{"geometry":{"coordinates":[8.101672,50.163438],"type":"Point"},"properties":{"osm_id":"4722721070","tag":{"amenity":"recycling","recycling:green_waste":"yes","recycling_type":"container"}},"type":"Feature"},
	{"geometry":{"coordinates":[8.102556,50.171262],"type":"Point"},"properties":{"osm_id":"4729488260","tag":{"amenity":"waste_basket"}},"type":"Feature"},
	{"geometry":{"coordinates":[8.148361,50.138454],"type":"Point"},"properties":{"osm_id":"4793806122","tag":{"amenity":"waste_basket"}},"type":"Feature"},
	{"geometry":{"coordinates":[8.114967,50.125264],"type":"Point"},"properties":{"osm_id":"4851322653","tag":{"amenity":"recycling","recycling:glass_bottles":"yes","recycling:green_waste":"yes","recycling_type":"container"}},"type":"Feature"},
	{"geometry":{"coordinates":[8.155144,50.145499],"type":"Point"},"properties":{"osm_id":"4868076816","tag":{"amenity":"waste_basket"}},"type":"Feature"},
	{"geometry":{"coordinates":[8.155451,50.146625],"type":"Point"},"properties":{"osm_id":"4868076823","tag":{"amenity":"waste_basket"}},"type":"Feature"},
	{"geometry":{"coordinates":[8.127195,50.121756],"type":"Point"},"properties":{"osm_id":"4913334304","tag":{"amenity":"waste_basket"}},"type":"Feature"},
	{"geometry":{"coordinates":[8.137469,50.137399],"type":"Point"},"properties":{"osm_id":"4913334308","tag":{"amenity":"waste_basket"}},"type":"Feature"},
	{"geometry":{"coordinates":[8.156216,50.136316],"type":"Point"},"properties":{"osm_id":"4966315551","tag":{"amenity":"waste_basket"}},"type":"Feature"},
	{"geometry":{"coordinates":[8.157073,50.136457],"type":"Point"},"properties":{"osm_id":"4966315552","tag":{"amenity":"waste_basket"}},"type":"Feature"},
	{"geometry":{"coordinates":[8.143948,50.146534],"type":"Point"},"properties":{"osm_id":"5130948379","tag":{"amenity":"waste_basket"}},"type":"Feature"},
	{"geometry":{"coordinates":[8.159986,50.137886],"type":"Point"},"properties":{"osm_id":"5135664225","tag":{"amenity":"recycling","recycling:green_waste":"yes","recycling_type":"container"}},"type":"Feature"},
	{"geometry":{"coordinates":[8.159849,50.139347],"type":"Point"},"properties":{"osm_id":"5135664280","tag":{"amenity":"waste_basket"}},"type":"Feature"},
	{"geometry":{"coordinates":[8.159079,50.139189],"type":"Point"},"properties":{"osm_id":"5135664283","tag":{"amenity":"waste_basket"}},"type":"Feature"},
	{"geometry":{"coordinates":[8.157676,50.138782],"type":"Point"},"properties":{"osm_id":"5135664284","tag":{"amenity":"waste_basket"}},"type":"Feature"},
	{"geometry":{"coordinates":[8.160937,50.145192],"type":"Point"},"properties":{"osm_id":"5314830227","tag":{"amenity":"waste_basket"}},"type":"Feature"},
	{"geometry":{"coordinates":[8.160237,50.145194],"type":"Point"},"properties":{"osm_id":"5314830229","tag":{"amenity":"waste_basket"}},"type":"Feature"},
	{"geometry":{"coordinates":[8.102117,50.161643],"type":"Point"},"properties":{"osm_id":"5337267290","tag":{"amenity":"waste_basket"}},"type":"Feature"},
	{"geometry":{"coordinates":[8.10226,50.159623],"type":"Point"},"properties":{"osm_id":"5337269495","tag":{"amenity":"recycling","recycling:clothes":"yes","recycling:shoes":"yes","recycling_type":"container"}},"type":"Feature"},
	{"geometry":{"coordinates":[8.146934,50.137266],"type":"Point"},"properties":{"osm_id":"5508744797","tag":{"amenity":"recycling","recycling:clothes":"yes","recycling:shoes":"yes","recycling_type":"container"}},"type":"Feature"},
	{"geometry":{"coordinates":[8.163987,50.140886],"type":"Point"},"properties":{"osm_id":"5664049494","tag":{"amenity":"waste_basket"}},"type":"Feature"},
	{"geometry":{"coordinates":[8.163402,50.141821],"type":"Point"},"properties":{"osm_id":"5664084182","tag":{"amenity":"waste_basket"}},"type":"Feature"},
	{"geometry":{"coordinates":[8.169517,50.147774],"type":"Point"},"properties":{"osm_id":"5692970146","tag":{"amenity":"waste_basket"}},"type":"Feature"},
	{"geometry":{"coordinates":[8.169161,50.147231],"type":"Point"},"properties":{"osm_id":"5692970148","tag":{"amenity":"waste_basket"}},"type":"Feature"},
	{"geometry":{"coordinates":[8.168257,50.14594],"type":"Point"},"properties":{"osm_id":"5692970150","tag":{"amenity":"waste_basket"}},"type":"Feature"},
	{"geometry":{"coordinates":[8.173277,50.160823],"type":"Point"},"properties":{"osm_id":"5699762816","tag":{"amenity":"waste_basket"}},"type":"Feature"},
	{"geometry":{"coordinates":[8.120875,50.125104],"type":"Point"},"properties":{"osm_id":"5892595167","tag":{"amenity":"waste_basket"}},"type":"Feature"},
	{"geometry":{"coordinates":[8.119993,50.125626],"type":"Point"},"properties":{"osm_id":"5984977240","tag":{"amenity":"waste_basket"}},"type":"Feature"},
	{"geometry":{"coordinates":[8.163394,50.14919],"type":"Point"},"properties":{"osm_id":"5985597207","tag":{"amenity":"waste_basket"}},"type":"Feature"},
	{"geometry":{"coordinates":[8.139774,50.139715],"type":"Point"},"properties":{"osm_id":"5994853823","tag":{"amenity":"waste_basket"}},"type":"Feature"},
	{"geometry":{"coordinates":[8.154156,50.14666],"type":"Point"},"properties":{"osm_id":"6178764686","tag":{"amenity":"waste_basket"}},"type":"Feature"},
	{"geometry":{"coordinates":[8.146833,50.143549],"type":"Point"},"properties":{"osm_id":"6178858718","tag":{"amenity":"waste_basket"}},"type":"Feature"},
	{"geometry":{"coordinates":[8.147558,50.167236],"type":"Point"},"properties":{"osm_id":"6286428456","tag":{"amenity":"waste_basket"}},"type":"Feature"},
	{"geometry":{"coordinates":[8.153028,50.136236],"type":"Point"},"properties":{"osm_id":"6354097392","tag":{"amenity":"waste_basket"}},"type":"Feature"},
	{"geometry":{"coordinates":[8.152934,50.135905],"type":"Point"},"properties":{"osm_id":"6354097393","tag":{"amenity":"waste_basket"}},"type":"Feature"},
	{"geometry":{"coordinates":[8.138862,50.135453],"type":"Point"},"properties":{"osm_id":"6354621098","tag":{"amenity":"waste_basket"}},"type":"Feature"},
	{"geometry":{"coordinates":[8.149887,50.138989],"type":"Point"},"properties":{"osm_id":"6439244124","tag":{"amenity":"waste_basket"}},"type":"Feature"},
	{"geometry":{"coordinates":[8.125292,50.144639],"type":"Point"},"properties":{"osm_id":"6473601082","tag":{"amenity":"waste_basket"}},"type":"Feature"},
	{"geometry":{"coordinates":[8.130242,50.15829],"type":"Point"},"properties":{"osm_id":"6628281741","tag":{"amenity":"waste_basket"}},"type":"Feature"},
	{"geometry":{"coordinates":[8.142763,50.147928],"type":"Point"},"properties":{"osm_id":"6666762188","tag":{"amenity":"waste_basket"}},"type":"Feature"},
	{"geometry":{"coordinates":[8.141773,50.151094],"type":"Point"},"properties":{"osm_id":"6666762189","tag":{"amenity":"waste_basket"}},"type":"Feature"},
	{"geometry":{"coordinates":[8.147108,50.153007],"type":"Point"},"properties":{"osm_id":"6666762190","tag":{"amenity":"waste_basket"}},"type":"Feature"},
	{"geometry":{"coordinates":[8.145769,50.151783],"type":"Point"},"properties":{"osm_id":"6666762191","tag":{"amenity":"waste_basket"}},"type":"Feature"},
	{"geometry":{"coordinates":[8.1607,50.148006],"type":"Point"},"properties":{"osm_id":"6898021935","tag":{"amenity":"waste_basket"}},"type":"Feature"},
	{"geometry":{"coordinates":[8.15951,50.146307],"type":"Point"},"properties":{"osm_id":"6898021937","tag":{"amenity":"waste_basket"}},"type":"Feature"},
	{"geometry":{"coordinates":[8.160796,50.143562],"type":"Point"},"properties":{"osm_id":"6971698184","tag":{"amenity":"recycling","opening_hours":"24/7","recycling:batteries":"yes","recycling_type":"container","wheelchair":"limited"}},"type":"Feature"},
	{"geometry":{"coordinates":[8.144624,50.14032],"type":"Point"},"properties":{"osm_id":"7628547075","tag":{"amenity":"waste_basket"}},"type":"Feature"},
	{"geometry":{"coordinates":[8.144521,50.140153],"type":"Point"},"properties":{"osm_id":"7628547077","tag":{"amenity":"waste_basket"}},"type":"Feature"},
	{"geometry":{"coordinates":[8.146922,50.154504],"type":"Point"},"properties":{"osm_id":"7884298713","tag":{"amenity":"waste_basket"}},"type":"Feature"}
]
}
