{
"type": "FeatureCollection",
"features": [
	{"geometry":{"coordinates":[8.170349,49.848189],"type":"Point"},"properties":{"osm_id":"251869304","tag":{"amenity":"recycling","recycling:glass_bottles":"yes"}},"type":"Feature"},
	{"geometry":{"coordinates":[8.119234,49.846144],"type":"Point"},"properties":{"osm_id":"268287072","tag":{"amenity":"recycling","location":"overground","recycling:glass_bottles":"yes","recycling_type":"container"}},"type":"Feature"},
	{"geometry":{"coordinates":[8.145874,49.872241],"type":"Point"},"properties":{"osm_id":"268630583","tag":{"amenity":"recycling","recycling:glass":"yes"}},"type":"Feature"},
	{"geometry":{"coordinates":[8.137901,49.866671],"type":"Point"},"properties":{"osm_id":"268836876","tag":{"amenity":"recycling"}},"type":"Feature"},
	{"geometry":{"coordinates":[8.157115,49.875924],"type":"Point"},"properties":{"osm_id":"270121142","tag":{"amenity":"recycling","recycling:glass":"yes"}},"type":"Feature"},
	{"geometry":{"coordinates":[8.122052,49.851908],"type":"Point"},"properties":{"osm_id":"280500373","tag":{"amenity":"recycling"}},"type":"Feature"},
	{"geometry":{"coordinates":[8.159999,49.881348],"type":"Point"},"properties":{"osm_id":"283198062","tag":{"amenity":"recycling"}},"type":"Feature"},
	{"geometry":{"coordinates":[8.111135,49.847207],"type":"Point"},"properties":{"osm_id":"408093771","tag":{"amenity":"recycling"}},"type":"Feature"},
	{"geometry":{"coordinates":[8.122213,49.839175],"type":"Point"},"properties":{"osm_id":"1883925611","tag":{"amenity":"recycling","recycling:glass_bottles":"yes","recycling_type":"container"}},"type":"Feature"},
	{"geometry":{"coordinates":[8.148809,49.871752],"type":"Point"},"properties":{"osm_id":"2495984702","tag":{"amenity":"waste_basket"}},"type":"Feature"},
	{"geometry":{"coordinates":[8.148893,49.871768],"type":"Point"},"properties":{"osm_id":"2495984705","tag":{"amenity":"waste_basket"}},"type":"Feature"},
	{"geometry":{"coordinates":[8.148836,49.871769],"type":"Point"},"properties":{"osm_id":"2495984706","tag":{"amenity":"waste_basket"}},"type":"Feature"},
	{"geometry":{"coordinates":[8.147847,49.873824],"type":"Point"},"properties":{"osm_id":"2496284362","tag":{"amenity":"waste_basket"}},"type":"Feature"},
	{"geometry":{"coordinates":[8.149252,49.874468],"type":"Point"},"properties":{"osm_id":"2496284369","tag":{"amenity":"waste_basket"}},"type":"Feature"},
	{"geometry":{"coordinates":[8.150243,49.874909],"type":"Point"},"properties":{"osm_id":"2496284371","tag":{"amenity":"waste_basket"}},"type":"Feature"},
	{"geometry":{"coordinates":[8.153947,49.873932],"type":"Point"},"properties":{"osm_id":"2496309136","tag":{"amenity":"waste_basket"}},"type":"Feature"},
	{"geometry":{"coordinates":[8.151846,49.875176],"type":"Point"},"properties":{"osm_id":"2831998785","tag":{"amenity":"waste_basket"}},"type":"Feature"},
	{"geometry":{"coordinates":[8.152508,49.875558],"type":"Point"},"properties":{"osm_id":"2831998786","tag":{"amenity":"waste_basket"}},"type":"Feature"},
	{"geometry":{"coordinates":[8.15289,49.875823],"type":"Point"},"properties":{"osm_id":"2831998787","tag":{"amenity":"waste_basket"}},"type":"Feature"},
	{"geometry":{"coordinates":[8.153326,49.8761],"type":"Point"},"properties":{"osm_id":"2831998788","tag":{"amenity":"waste_basket"}},"type":"Feature"},
	{"geometry":{"coordinates":[8.143318,49.87686],"type":"Point"},"properties":{"osm_id":"2831998789","tag":{"amenity":"waste_basket"}},"type":"Feature"},
	{"geometry":{"coordinates":[8.154036,49.877245],"type":"Point"},"properties":{"osm_id":"2831998791","tag":{"amenity":"waste_basket"}},"type":"Feature"},
	{"geometry":{"coordinates":[8.136689,49.865996],"type":"Point"},"properties":{"osm_id":"2832112477","tag":{"amenity":"waste_basket"}},"type":"Feature"},
	{"geometry":{"coordinates":[8.138442,49.866583],"type":"Point"},"properties":{"osm_id":"2832112481","tag":{"amenity":"waste_basket"}},"type":"Feature"},
	{"geometry":{"coordinates":[8.142221,49.867053],"type":"Point"},"properties":{"osm_id":"2832260508","tag":{"amenity":"waste_basket"}},"type":"Feature"},
	{"geometry":{"coordinates":[8.144522,49.869331],"type":"Point"},"properties":{"osm_id":"2832260516","tag":{"amenity":"waste_basket"}},"type":"Feature"},
	{"geometry":{"coordinates":[8.146216,49.871407],"type":"Point"},"properties":{"osm_id":"2832260521","tag":{"amenity":"waste_basket"}},"type":"Feature"},
	{"geometry":{"coordinates":[8.146154,49.871429],"type":"Point"},"properties":{"osm_id":"2832260523","tag":{"amenity":"waste_basket"}},"type":"Feature"},
	{"geometry":{"coordinates":[8.145744,49.871456],"type":"Point"},"properties":{"osm_id":"2832260524","tag":{"amenity":"waste_basket"}},"type":"Feature"},
	{"geometry":{"coordinates":[8.139166,49.867484],"type":"Point"},"properties":{"osm_id":"2838440187","tag":{"amenity":"waste_basket"}},"type":"Feature"},
	{"geometry":{"coordinates":[8.137916,49.866627],"type":"Point"},"properties":{"osm_id":"2838440188","tag":{"amenity":"waste_basket"}},"type":"Feature"},
	{"geometry":{"coordinates":[8.139446,49.869603],"type":"Point"},"properties":{"osm_id":"2838440189","tag":{"amenity":"waste_basket"}},"type":"Feature"},
	{"geometry":{"coordinates":[8.113228,49.838398],"type":"Point"},"properties":{"osm_id":"2923293550","tag":{"amenity":"waste_basket"}},"type":"Feature"},
	{"geometry":{"coordinates":[8.112997,49.838569],"type":"Point"},"properties":{"osm_id":"2923293551","tag":{"amenity":"waste_basket"}},"type":"Feature"},
	{"geometry":{"coordinates":[8.11311,49.838755],"type":"Point"},"properties":{"osm_id":"2923293553","tag":{"amenity":"waste_basket"}},"type":"Feature"},
	{"geometry":{"coordinates":[8.117753,49.842143],"type":"Point"},"properties":{"osm_id":"2923293554","tag":{"amenity":"waste_basket"}},"type":"Feature"},
	{"geometry":{"coordinates":[8.143922,49.87178],"type":"Point"},"properties":{"osm_id":"2923495825","tag":{"amenity":"waste_basket"}},"type":"Feature"},
	{"geometry":{"coordinates":[8.145053,49.872416],"type":"Point"},"properties":{"osm_id":"2923495826","tag":{"amenity":"waste_basket"}},"type":"Feature"},
	{"geometry":{"coordinates":[8.144762,49.874394],"type":"Point"},"properties":{"osm_id":"2923495827","tag":{"amenity":"waste_basket"}},"type":"Feature"},
	{"geometry":{"coordinates":[8.105139,49.83839],"type":"Point"},"properties":{"osm_id":"2925720880","tag":{"amenity":"waste_basket"}},"type":"Feature"},
	{"geometry":{"coordinates":[8.105182,49.838637],"type":"Point"},"properties":{"osm_id":"2925720884","tag":{"amenity":"waste_basket"}},"type":"Feature"},
	{"geometry":{"coordinates":[8.107197,49.838793],"type":"Point"},"properties":{"osm_id":"2925720887","tag":{"amenity":"waste_basket"}},"type":"Feature"},
	{"geometry":{"coordinates":[8.107687,49.839508],"type":"Point"},"properties":{"osm_id":"2925720891","tag":{"amenity":"waste_basket"}},"type":"Feature"},
	{"geometry":{"coordinates":[8.146649,49.8713],"type":"Point"},"properties":{"osm_id":"2925721009","tag":{"amenity":"waste_basket"}},"type":"Feature"},
	{"geometry":{"coordinates":[8.131634,49.861968],"type":"Point"},"properties":{"osm_id":"3389936042","tag":{"amenity":"waste_basket"}},"type":"Feature"},
	{"geometry":{"coordinates":[8.112072,49.845929],"type":"Point"},"properties":{"name":"Kayser GmbH Containerdienst","osm_id":"3623691125","tag":{"amenity":"recycling","recycling_type":"centre"}},"type":"Feature"},
	{"geometry":{"coordinates":[8.117692,49.842171],"type":"Point"},"properties":{"osm_id":"4097608135","tag":{"amenity":"waste_basket"}},"type":"Feature"}
]
}
