{
"type": "FeatureCollection",
"features": [
	{"geometry":{"coordinates":[8.173628,49.285519],"type":"Point"},"properties":{"osm_id":"294229072","tag":{"amenity":"recycling","recycling:clothes":"yes","recycling:glass_bottles":"yes"}},"type":"Feature"},
	{"geometry":{"coordinates":[8.146239,49.285239],"type":"Point"},"properties":{"osm_id":"866630080","tag":{"amenity":"recycling","recycling:glass":"yes"}},"type":"Feature"},
	{"geometry":{"coordinates":[8.107257,49.300311],"type":"Point"},"properties":{"osm_id":"1307034513","tag":{"amenity":"recycling","recycling:clothes":"yes","recycling:glass":"yes","recycling:paper":"yes","recycling_type":"container"}},"type":"Feature"},
	{"geometry":{"coordinates":[8.173426,49.27842],"type":"Point"},"properties":{"osm_id":"1567769839","tag":{"amenity":"recycling","recycling:glass":"yes","recycling:glass_bottles":"yes","recycling_type":"container"}},"type":"Feature"},
	{"geometry":{"coordinates":[8.1011,49.311539],"type":"Point"},"properties":{"osm_id":"2442340341","tag":{"amenity":"recycling"}},"type":"Feature"},
	{"geometry":{"coordinates":[8.136027,49.30092],"type":"Point"},"properties":{"osm_id":"3874729149","tag":{"amenity":"recycling","recycling:glass_bottles":"yes","recycling_type":"container"}},"type":"Feature"},
	{"geometry":{"coordinates":[8.116174,49.280291],"type":"Point"},"properties":{"osm_id":"4764151098","tag":{"amenity":"waste_basket"}},"type":"Feature"},
	{"geometry":{"coordinates":[8.11556,49.28063],"type":"Point"},"properties":{"osm_id":"4764151101","tag":{"amenity":"waste_basket"}},"type":"Feature"},
	{"geometry":{"coordinates":[8.106673,49.298587],"type":"Point"},"properties":{"osm_id":"5250819730","tag":{"amenity":"waste_basket"}},"type":"Feature"},
	{"geometry":{"coordinates":[8.127175,49.277135],"type":"Point"},"properties":{"osm_id":"7142815521","tag":{"amenity":"recycling","description":"Wei\u00df, Gr\u00fcn & Braun","operator":"Recyling Glas","recycling_type":"container"}},"type":"Feature"},
	{"geometry":{"coordinates":[8.130746,49.282396],"type":"Point"},"properties":{"osm_id":"7426461006","tag":{"amenity":"recycling","recycling:glass":"yes","recycling_type":"container"}},"type":"Feature"},
	{"geometry":{"coordinates":[8.137659,49.285858],"type":"Point"},"properties":{"osm_id":"7428701933","tag":{"amenity":"recycling","recycling:glass":"yes","recycling_type":"container"}},"type":"Feature"},
	{"geometry":{"coordinates":[8.107876,49.274511],"type":"Point"},"properties":{"osm_id":"7538413707","tag":{"amenity":"recycling","recycling:glass_bottles":"yes","recycling_type":"container"}},"type":"Feature"},
	{"geometry":{"coordinates":[8.10587,49.282982],"type":"Point"},"properties":{"osm_id":"7580041337","tag":{"amenity":"recycling","recycling:glass":"yes","recycling_type":"container"}},"type":"Feature"},
	{"geometry":{"coordinates":[8.114278,49.308062],"type":"Point"},"properties":{"osm_id":"7726166391","tag":{"amenity":"recycling","recycling:bottles":"yes"}},"type":"Feature"}
]
}
