{
"type": "FeatureCollection",
"lastupdate": "2020-08-06T00:00:00Z",
"features": [
	{"geometry":{"coordinates":[8.142467,49.233759],"type":"Point"},"properties":{"osm_id":"866630097","tag":{"amenity":"recycling","recycling:glass":"yes"}},"type":"Feature"},
	{"geometry":{"coordinates":[8.094903,49.257033],"type":"Point"},"properties":{"osm_id":"2618830412","tag":{"amenity":"recycling"}},"type":"Feature"},
	{"geometry":{"coordinates":[8.108972,49.256028],"type":"Point"},"properties":{"osm_id":"2955840009","tag":{"amenity":"recycling","recycling:clothes":"yes","recycling:glass":"yes"}},"type":"Feature"},
	{"geometry":{"coordinates":[8.126529,49.211004],"type":"Point"},"properties":{"name":"Klotz Rohstoffe","osm_id":"5647471576","tag":{"addr:city":"Landau in der Pfalz","addr:housenumber":"4","addr:postcode":"76829","addr:street":"Im Grein","amenity":"recycling","email":"info@klotz-rohstoffe.de","opening_hours":"Mo-Th 08:00-15:30; Fr-Sa 08:30-11:30","phone":"+49 6341 60071","recycling_type":"centre","website":"https://www.klotz-rohstoffe.de/"}},"type":"Feature"},
	{"geometry":{"coordinates":[8.12996,49.211726],"type":"Point"},"properties":{"name":"Arrowplast Kunststoff Recycling","osm_id":"5647479850","tag":{"addr:city":"Landau in der Pfalz","addr:housenumber":"13","addr:postcode":"76829","addr:street":"Im Grein","amenity":"recycling","email":"mail@arrowplast.de","fax":"+49 6341 9175799","phone":"+49 6341 917570","recycling_type":"centre","website":"http://www.arrowplast.de/"}},"type":"Feature"},
	{"geometry":{"coordinates":[8.169656,49.214776],"type":"Point"},"properties":{"osm_id":"6681800444","tag":{"amenity":"recycling","recycling:glass":"yes","recycling_type":"container"}},"type":"Feature"},
	{"geometry":{"coordinates":[8.138091,49.264461],"type":"Point"},"properties":{"osm_id":"7494787719","tag":{"amenity":"recycling","recycling:glass":"yes","recycling_type":"container"}},"type":"Feature"},
	{"geometry":{"coordinates":[8.118994,49.248797],"type":"Point"},"properties":{"osm_id":"7702642134","tag":{"amenity":"recycling","recycling:glass":"yes","recycling_type":"container"}},"type":"Feature"},
	{"geometry":{"coordinates":[8.170338,49.267448],"type":"Point"},"properties":{"osm_id":"7724224481","tag":{"amenity":"recycling","recycling:glass":"picnic_site","recycling_type":"container"}},"type":"Feature"}
]
}
