{
"type": "FeatureCollection",
"features": [
	{"geometry":{"coordinates":[8.10943,49.208328],"type":"Point"},"properties":{"osm_id":"441099726","tag":{"amenity":"recycling","recycling:clothes":"yes","recycling_type":"container"}},"type":"Feature"},
	{"geometry":{"coordinates":[8.121093,49.208831],"type":"Point"},"properties":{"osm_id":"758788586","tag":{"amenity":"recycling","recycling:clothes":"yes"}},"type":"Feature"},
	{"geometry":{"coordinates":[8.111714,49.192027],"type":"Point"},"properties":{"osm_id":"1352705667","tag":{"amenity":"waste_basket"}},"type":"Feature"},
	{"geometry":{"coordinates":[8.111104,49.192791],"type":"Point"},"properties":{"osm_id":"1352705668","tag":{"amenity":"waste_basket"}},"type":"Feature"},
	{"geometry":{"coordinates":[8.111719,49.187798],"type":"Point"},"properties":{"osm_id":"1710046669","tag":{"amenity":"waste_basket"}},"type":"Feature"},
	{"geometry":{"coordinates":[8.11145,49.188692],"type":"Point"},"properties":{"osm_id":"1710046684","tag":{"amenity":"waste_basket"}},"type":"Feature"},
	{"geometry":{"coordinates":[8.111838,49.186998],"type":"Point"},"properties":{"osm_id":"1712667900","tag":{"amenity":"waste_basket"}},"type":"Feature"},
	{"geometry":{"coordinates":[8.12237,49.195364],"type":"Point"},"properties":{"osm_id":"2079890150","tag":{"amenity":"waste_basket"}},"type":"Feature"},
	{"geometry":{"coordinates":[8.107207,49.203952],"type":"Point"},"properties":{"name":"CD","osm_id":"2256709679","tag":{"amenity":"recycling"}},"type":"Feature"},
	{"geometry":{"coordinates":[8.103753,49.204917],"type":"Point"},"properties":{"osm_id":"2308302445","tag":{"amenity":"waste_basket"}},"type":"Feature"},
	{"geometry":{"coordinates":[8.109106,49.184687],"type":"Point"},"properties":{"osm_id":"2397321124","tag":{"amenity":"waste_basket"}},"type":"Feature"},
	{"geometry":{"coordinates":[8.1111,49.195037],"type":"Point"},"properties":{"osm_id":"2632161480","tag":{"amenity":"waste_basket"}},"type":"Feature"},
	{"geometry":{"coordinates":[8.133191,49.189748],"type":"Point"},"properties":{"osm_id":"3142074802","tag":{"amenity":"waste_basket"}},"type":"Feature"},
	{"geometry":{"coordinates":[8.135535,49.190027],"type":"Point"},"properties":{"osm_id":"3142075866","tag":{"amenity":"waste_basket"}},"type":"Feature"},
	{"geometry":{"coordinates":[8.118203,49.187051],"type":"Point"},"properties":{"osm_id":"3908485691","tag":{"amenity":"waste_basket"}},"type":"Feature"},
	{"geometry":{"coordinates":[8.129725,49.192234],"type":"Point"},"properties":{"osm_id":"5333551108","tag":{"amenity":"recycling","recycling:clothes":"yes","recycling:shoes":"yes","recycling_type":"container"}},"type":"Feature"},
	{"geometry":{"coordinates":[8.136839,49.194521],"type":"Point"},"properties":{"name":"Altkleider Container","osm_id":"5333555141","tag":{"amenity":"recycling","recycling:clothes":"yes","recycling:shoes":"yes","recycling_type":"container"}},"type":"Feature"},
	{"geometry":{"coordinates":[8.159025,49.196789],"type":"Point"},"properties":{"name":"Gerach Container und Baumaschinen","osm_id":"5393799378","tag":{"addr:city":"Landau in der Pfalz","addr:housenumber":"3","addr:postcode":"76829","addr:street":"Kleiner Sand","amenity":"recycling","email":"info@gerach-gruppe.de","opening_hours":"Mo-Fr 07:00-17:00; Sa 07:30-12:00","operator":"Gerach Container GmbH","phone":"+49 6341 987710","recycling_type":"centre","website":"https://www.gerach-gruppe.de/"}},"type":"Feature"},
	{"geometry":{"coordinates":[8.136926,49.18766],"type":"Point"},"properties":{"name":"St\u00c3\u00a4dtischer Bauhof","osm_id":"5640262077","tag":{"addr:city":"Landau in der Pfalz","addr:housenumber":"18","addr:postcode":"76829","addr:street":"Albert-Einstein-Stra\u00c3\u009fe","amenity":"recycling","recycling_type":"centre"}},"type":"Feature"},
	{"geometry":{"coordinates":[8.173266,49.20708],"type":"Point"},"properties":{"barrier":"gate","osm_id":"6257656010"},"type":"Feature"},
	{"geometry":{"coordinates":[8.126368,49.198054],"type":"Point"},"properties":{"osm_id":"7025457838","tag":{"amenity":"waste_basket"}},"type":"Feature"},
	{"geometry":{"coordinates":[8.126144,49.198048],"type":"Point"},"properties":{"osm_id":"7025457844","tag":{"amenity":"waste_basket"}},"type":"Feature"}
]
}
