{
"type": "FeatureCollection",
"features": [
	{"geometry":{"coordinates":[8.144325,48.922137],"type":"Point"},"properties":{"osm_id":"261616769","tag":{"amenity":"recycling","recycling_type":"container"}},"type":"Feature"},
	{"geometry":{"coordinates":[8.155179,48.882723],"type":"Point"},"properties":{"osm_id":"3097987285","tag":{"amenity":"recycling","capacity":"1","lastcheck":"2016-03-30","operator":"Doll","recycling:clothes":"yes","recycling_type":"container"}},"type":"Feature"},
	{"geometry":{"coordinates":[8.137289,48.887633],"type":"Point"},"properties":{"osm_id":"3703699782","tag":{"amenity":"waste_basket"}},"type":"Feature"},
	{"geometry":{"coordinates":[8.138516,48.88686],"type":"Point"},"properties":{"osm_id":"4095879006","tag":{"amenity":"recycling","lastcheck":"2016-04-03","operator":"HeDi","recycling:clothes":"yes","recycling_type":"container"}},"type":"Feature"},
	{"geometry":{"coordinates":[8.106376,48.894975],"type":"Point"},"properties":{"osm_id":"4095879007","tag":{"amenity":"recycling","operator":"Vetis","recycling:clothes":"yes","recycling_type":"container","wikimedia_commons":"File:Seltz-FR67-Textil recycling vetis.jpg"}},"type":"Feature"},
	{"geometry":{"coordinates":[8.088121,48.895373],"type":"Point"},"properties":{"osm_id":"4322036561","tag":{"amenity":"recycling","recycling:glass_bottles":"yes","recycling_type":"container"}},"type":"Feature"},
	{"geometry":{"coordinates":[8.088161,48.895376],"type":"Point"},"properties":{"osm_id":"4322036562","tag":{"amenity":"recycling","capacity":"2","recycling:clothes":"yes","recycling_type":"container"}},"type":"Feature"},
	{"geometry":{"coordinates":[8.137083,48.88734],"type":"Point"},"properties":{"osm_id":"4346811182","tag":{"amenity":"waste_basket"}},"type":"Feature"},
	{"geometry":{"coordinates":[8.137004,48.887205],"type":"Point"},"properties":{"osm_id":"4346811214","tag":{"amenity":"waste_basket"}},"type":"Feature"},
	{"geometry":{"coordinates":[8.137149,48.887443],"type":"Point"},"properties":{"osm_id":"4346813747","tag":{"amenity":"waste_basket"}},"type":"Feature"},
	{"geometry":{"coordinates":[8.137218,48.88754],"type":"Point"},"properties":{"osm_id":"4346814357","tag":{"amenity":"waste_basket"}},"type":"Feature"},
	{"geometry":{"coordinates":[8.133378,48.888299],"type":"Point"},"properties":{"osm_id":"6849417872","tag":{"amenity":"waste_basket"}},"type":"Feature"},
	{"geometry":{"coordinates":[8.132833,48.888302],"type":"Point"},"properties":{"osm_id":"6849417884","tag":{"amenity":"waste_basket"}},"type":"Feature"},
	{"geometry":{"coordinates":[8.133142,48.888223],"type":"Point"},"properties":{"osm_id":"6849445489","tag":{"amenity":"waste_basket"}},"type":"Feature"},
	{"geometry":{"coordinates":[8.088019,48.895363],"type":"Point"},"properties":{"osm_id":"7528147529","tag":{"amenity":"recycling","recycling:glass_bottles":"yes","recycling_type":"container"}},"type":"Feature"},
	{"geometry":{"coordinates":[8.088053,48.895367],"type":"Point"},"properties":{"osm_id":"7528147530","tag":{"amenity":"recycling","recycling:glass_bottles":"yes","recycling_type":"container"}},"type":"Feature"},
	{"geometry":{"coordinates":[8.088087,48.89537],"type":"Point"},"properties":{"osm_id":"7528147531","tag":{"amenity":"recycling","recycling:glass_bottles":"yes","recycling_type":"container"}},"type":"Feature"}
]
}
