{
"type": "FeatureCollection",
"features": [
	{"geometry":{"coordinates":[8.088028,48.823077],"type":"Point"},"properties":{"osm_id":"1379198695","tag":{"amenity":"recycling","recycling_type":"container"}},"type":"Feature"},
	{"geometry":{"coordinates":[8.091148,48.863998],"type":"Point"},"properties":{"osm_id":"2234990557","tag":{"amenity":"recycling","recycling:glass_bottles":"yes","recycling_type":"container"}},"type":"Feature"},
	{"geometry":{"coordinates":[8.15154,48.819451],"type":"Point"},"properties":{"osm_id":"4089464253","tag":{"amenity":"recycling","lastcheck":"2016-10-25","operator":"CityGreenPoint","recycling:batteries":"yes","recycling:clothes":"yes","recycling:mobile_phones":"yes","recycling:shoes":"yes","recycling_type":"container"}},"type":"Feature"},
	{"geometry":{"coordinates":[8.135218,48.842314],"type":"Point"},"properties":{"osm_id":"4095879005","tag":{"amenity":"recycling","capacity":"2","lastcheck":"2016-04-03","operator":"CityGreenPoint","recycling:clothes":"yes","recycling_type":"container"}},"type":"Feature"},
	{"geometry":{"coordinates":[8.135529,48.823773],"type":"Point"},"properties":{"osm_id":"4099960378","tag":{"amenity":"recycling","capacity":"3","lastcheck":"2016-04-05","operator":"Kolping","recycling:clothes":"yes","recycling_type":"container"}},"type":"Feature"},
	{"geometry":{"coordinates":[8.113542,48.831248],"type":"Point"},"properties":{"osm_id":"4183827425","tag":{"amenity":"waste_basket"}},"type":"Feature"},
	{"geometry":{"coordinates":[8.113557,48.831295],"type":"Point"},"properties":{"osm_id":"4183827442","tag":{"amenity":"waste_basket"}},"type":"Feature"},
	{"geometry":{"coordinates":[8.113482,48.831339],"type":"Point"},"properties":{"osm_id":"4183827524","tag":{"amenity":"waste_basket"}},"type":"Feature"},
	{"geometry":{"coordinates":[8.113987,48.831261],"type":"Point"},"properties":{"osm_id":"4183831506","tag":{"amenity":"waste_basket"}},"type":"Feature"},
	{"geometry":{"coordinates":[8.154546,48.861846],"type":"Point"},"properties":{"osm_id":"6173229597","tag":{"amenity":"recycling","capacity":"1","lastcheck":"2018-12-30","operator":"Deutsches Rotes Kreuz","recycling:clothes":"yes","recycling_type":"container"}},"type":"Feature"},
	{"geometry":{"coordinates":[8.140494,48.84476],"type":"Point"},"properties":{"osm_id":"6535456338","tag":{"amenity":"recycling","capacity":"1","lastcheck":"2019-06-09","operator":"Deutsches Rotes Kreuz","recycling:clothes":"yes","recycling_type":"container"}},"type":"Feature"}
]
}
