{
"type": "FeatureCollection",
"features": [
	{"geometry":{"coordinates":[8.092988,48.718444],"type":"Point"},"properties":{"name":"LK Rastatt Bodenaushub- und Bauschuttdeponie","osm_id":"260178081","tag":{"amenity":"recycling"}},"type":"Feature"},
	{"geometry":{"coordinates":[8.165111,48.729431],"type":"Point"},"properties":{"osm_id":"301687110","tag":{"amenity":"recycling","recycling:glass_bottles":"yes","recycling_type":"container"}},"type":"Feature"},
	{"geometry":{"coordinates":[8.161413,48.725669],"type":"Point"},"properties":{"osm_id":"301689143","tag":{"amenity":"recycling","recycling:glass":"yes","recycling_type":"container"}},"type":"Feature"},
	{"geometry":{"coordinates":[8.168676,48.731586],"type":"Point"},"properties":{"osm_id":"348424314","tag":{"amenity":"recycling","recycling:glass_bottles":"yes","recycling_type":"container"}},"type":"Feature"},
	{"geometry":{"coordinates":[8.16786,48.731421],"type":"Point"},"properties":{"osm_id":"348424317","tag":{"amenity":"recycling","count":"2","operator":"Textilrecycling Thomas Doll GmbH","recycling:clothes":"yes","recycling_type":"container"}},"type":"Feature"},
	{"geometry":{"coordinates":[8.168461,48.698845],"type":"Point"},"properties":{"osm_id":"371212944","tag":{"amenity":"recycling","operator":"Deutsches Rotes Kreuz","recycling:clothes":"yes","recycling_type":"container"}},"type":"Feature"},
	{"geometry":{"coordinates":[8.162994,48.700329],"type":"Point"},"properties":{"osm_id":"371213167","tag":{"amenity":"recycling","recycling_type":"container"}},"type":"Feature"},
	{"geometry":{"coordinates":[8.130907,48.691],"type":"Point"},"properties":{"osm_id":"465612820","tag":{"amenity":"waste_basket","material":"plastic"}},"type":"Feature"},
	{"geometry":{"coordinates":[8.087848,48.728957],"type":"Point"},"properties":{"osm_id":"472328664","tag":{"amenity":"waste_basket"}},"type":"Feature"},
	{"geometry":{"coordinates":[8.087985,48.72876],"type":"Point"},"properties":{"osm_id":"472328665","tag":{"amenity":"waste_basket"}},"type":"Feature"},
	{"geometry":{"coordinates":[8.087906,48.725354],"type":"Point"},"properties":{"osm_id":"472366528","tag":{"amenity":"waste_basket"}},"type":"Feature"},
	{"geometry":{"coordinates":[8.135644,48.706582],"type":"Point"},"properties":{"osm_id":"483703950","tag":{"amenity":"recycling","operator:clothes":"DRK","recycling:clothes":"yes","recycling_type":"container"}},"type":"Feature"},
	{"geometry":{"coordinates":[8.088848,48.725082],"type":"Point"},"properties":{"osm_id":"502500504","tag":{"amenity":"recycling","recycling:clothes":"yes","recycling_type":"container"}},"type":"Feature"},
	{"geometry":{"coordinates":[8.088634,48.724942],"type":"Point"},"properties":{"osm_id":"502500519","tag":{"amenity":"waste_basket"}},"type":"Feature"},
	{"geometry":{"coordinates":[8.090899,48.712152],"type":"Point"},"properties":{"osm_id":"528606393","tag":{"amenity":"waste_basket"}},"type":"Feature"},
	{"geometry":{"coordinates":[8.091766,48.712269],"type":"Point"},"properties":{"osm_id":"528606410","tag":{"amenity":"waste_basket"}},"type":"Feature"},
	{"geometry":{"coordinates":[8.095507,48.712413],"type":"Point"},"properties":{"osm_id":"528606416","tag":{"amenity":"waste_basket"}},"type":"Feature"},
	{"geometry":{"coordinates":[8.095462,48.712308],"type":"Point"},"properties":{"osm_id":"528606418","tag":{"amenity":"waste_basket"}},"type":"Feature"},
	{"geometry":{"coordinates":[8.168655,48.711064],"type":"Point"},"properties":{"osm_id":"537747847","tag":{"amenity":"waste_basket","check_date":"2021-01-13"}},"type":"Feature"},
	{"geometry":{"coordinates":[8.171977,48.710719],"type":"Point"},"properties":{"osm_id":"537747862","tag":{"amenity":"waste_basket","check_date":"2021-01-13"}},"type":"Feature"},
	{"geometry":{"coordinates":[8.128404,48.738165],"type":"Point"},"properties":{"osm_id":"539717769","tag":{"amenity":"recycling","recycling:clothes":"yes","recycling_type":"container"}},"type":"Feature"},
	{"geometry":{"coordinates":[8.130012,48.73394],"type":"Point"},"properties":{"osm_id":"539757525","tag":{"amenity":"waste_basket"}},"type":"Feature"},
	{"geometry":{"coordinates":[8.127135,48.742245],"type":"Point"},"properties":{"osm_id":"648861924","tag":{"amenity":"waste_basket","check_date":"2021-10-01"}},"type":"Feature"},
	{"geometry":{"coordinates":[8.137101,48.740333],"type":"Point"},"properties":{"osm_id":"648861973","tag":{"amenity":"waste_basket"}},"type":"Feature"},
	{"geometry":{"coordinates":[8.130899,48.744603],"type":"Point"},"properties":{"osm_id":"648862012","tag":{"amenity":"waste_basket"}},"type":"Feature"},
	{"geometry":{"coordinates":[8.137755,48.746064],"type":"Point"},"properties":{"osm_id":"648862034","tag":{"amenity":"waste_basket"}},"type":"Feature"},
	{"geometry":{"coordinates":[8.139076,48.744474],"type":"Point"},"properties":{"osm_id":"648862038","tag":{"amenity":"waste_basket"}},"type":"Feature"},
	{"geometry":{"coordinates":[8.115726,48.717573],"type":"Point"},"properties":{"osm_id":"656204696","tag":{"amenity":"waste_basket"}},"type":"Feature"},
	{"geometry":{"coordinates":[8.109558,48.722389],"type":"Point"},"properties":{"osm_id":"656204854","tag":{"amenity":"recycling","recycling:clothes":"yes","recycling_type":"container"}},"type":"Feature"},
	{"geometry":{"coordinates":[8.109547,48.722942],"type":"Point"},"properties":{"osm_id":"656204858","tag":{"amenity":"waste_basket"}},"type":"Feature"},
	{"geometry":{"coordinates":[8.092019,48.711983],"type":"Point"},"properties":{"osm_id":"659515527","tag":{"amenity":"recycling","capacity":"1","lastcheck":"2017-07-04","operator":"Deutsches Rotes Kreuz","recycling:clothes":"yes","recycling_type":"container"}},"type":"Feature"},
	{"geometry":{"coordinates":[8.108115,48.720448],"type":"Point"},"properties":{"osm_id":"659515673","tag":{"amenity":"recycling","recycling:clothes":"yes","recycling_type":"container"}},"type":"Feature"},
	{"geometry":{"coordinates":[8.110027,48.724359],"type":"Point"},"properties":{"osm_id":"659515723","tag":{"amenity":"recycling","recycling:clothes":"yes","recycling_type":"container"}},"type":"Feature"},
	{"geometry":{"coordinates":[8.092629,48.727819],"type":"Point"},"properties":{"osm_id":"670635587","tag":{"amenity":"waste_basket"}},"type":"Feature"},
	{"geometry":{"coordinates":[8.111072,48.699545],"type":"Point"},"properties":{"osm_id":"681690204","tag":{"amenity":"waste_basket"}},"type":"Feature"},
	{"geometry":{"coordinates":[8.109746,48.700493],"type":"Point"},"properties":{"osm_id":"683128835","tag":{"amenity":"waste_basket"}},"type":"Feature"},
	{"geometry":{"coordinates":[8.109574,48.700568],"type":"Point"},"properties":{"osm_id":"683128837","tag":{"amenity":"recycling","recycling:clothes":"yes","recycling_type":"container"}},"type":"Feature"},
	{"geometry":{"coordinates":[8.120732,48.696428],"type":"Point"},"properties":{"osm_id":"683128938","tag":{"amenity":"waste_basket"}},"type":"Feature"},
	{"geometry":{"coordinates":[8.114592,48.714075],"type":"Point"},"properties":{"osm_id":"683855087","tag":{"amenity":"waste_basket"}},"type":"Feature"},
	{"geometry":{"coordinates":[8.113017,48.722444],"type":"Point"},"properties":{"osm_id":"683855230","tag":{"amenity":"waste_basket"}},"type":"Feature"},
	{"geometry":{"coordinates":[8.114929,48.721945],"type":"Point"},"properties":{"osm_id":"683855238","tag":{"amenity":"waste_basket"}},"type":"Feature"},
	{"geometry":{"coordinates":[8.12571,48.702986],"type":"Point"},"properties":{"osm_id":"702619267","tag":{"amenity":"waste_basket"}},"type":"Feature"},
	{"geometry":{"coordinates":[8.139369,48.69549],"type":"Point"},"properties":{"osm_id":"703106122","tag":{"amenity":"waste_basket","colour":"green","material":"plastic"}},"type":"Feature"},
	{"geometry":{"coordinates":[8.129657,48.73917],"type":"Point"},"properties":{"osm_id":"705888706","tag":{"amenity":"waste_basket"}},"type":"Feature"},
	{"geometry":{"coordinates":[8.131368,48.73809],"type":"Point"},"properties":{"osm_id":"709002176","tag":{"amenity":"waste_basket"}},"type":"Feature"},
	{"geometry":{"coordinates":[8.133744,48.736144],"type":"Point"},"properties":{"osm_id":"878590152","tag":{"amenity":"waste_basket"}},"type":"Feature"},
	{"geometry":{"coordinates":[8.133987,48.736145],"type":"Point"},"properties":{"osm_id":"878590331","tag":{"amenity":"waste_basket"}},"type":"Feature"},
	{"geometry":{"coordinates":[8.147107,48.734484],"type":"Point"},"properties":{"osm_id":"1117501908","tag":{"amenity":"waste_basket"}},"type":"Feature"},
	{"geometry":{"coordinates":[8.164631,48.732307],"type":"Point"},"properties":{"osm_id":"1146453709","tag":{"amenity":"recycling","operator:clothes":"DRK","recycling:clothes":"yes","recycling:glass":"yes","recycling_type":"container"}},"type":"Feature"},
	{"geometry":{"coordinates":[8.14423,48.734245],"type":"Point"},"properties":{"osm_id":"1300976138","tag":{"amenity":"waste_basket"}},"type":"Feature"},
	{"geometry":{"coordinates":[8.107805,48.720864],"type":"Point"},"properties":{"osm_id":"1583248871","tag":{"amenity":"waste_basket"}},"type":"Feature"},
	{"geometry":{"coordinates":[8.109773,48.724489],"type":"Point"},"properties":{"osm_id":"1583486311","tag":{"amenity":"waste_basket","recycling:glass":"yes"}},"type":"Feature"},
	{"geometry":{"coordinates":[8.158107,48.728788],"type":"Point"},"properties":{"osm_id":"2229790017","tag":{"amenity":"recycling","recycling:glass":"yes","recycling_type":"container"}},"type":"Feature"},
	{"geometry":{"coordinates":[8.148991,48.730537],"type":"Point"},"properties":{"osm_id":"2240044309","tag":{"amenity":"recycling","count":"2","recycling:glass":"yes","recycling_type":"container"}},"type":"Feature"},
	{"geometry":{"coordinates":[8.16946,48.727262],"type":"Point"},"properties":{"osm_id":"2247377940","tag":{"amenity":"recycling","count":"2","recycling:glass":"yes","recycling_type":"container"}},"type":"Feature"},
	{"geometry":{"coordinates":[8.138176,48.744656],"type":"Point"},"properties":{"osm_id":"2400660104","tag":{"amenity":"waste_basket"}},"type":"Feature"},
	{"geometry":{"coordinates":[8.122997,48.709623],"type":"Point"},"properties":{"osm_id":"2691084841","tag":{"amenity":"waste_basket"}},"type":"Feature"},
	{"geometry":{"coordinates":[8.123537,48.710196],"type":"Point"},"properties":{"osm_id":"2694227994","tag":{"amenity":"waste_basket"}},"type":"Feature"},
	{"geometry":{"coordinates":[8.134235,48.700964],"type":"Point"},"properties":{"osm_id":"2709765463","tag":{"amenity":"recycling","count":"2","operator":"Allgemeiner Rettungsverband Rhein-Main e.V. / Remitex","recycling:clothes":"yes","recycling_type":"container"}},"type":"Feature"},
	{"geometry":{"coordinates":[8.129539,48.696457],"type":"Point"},"properties":{"osm_id":"2966741377","tag":{"amenity":"waste_basket","check_date":"2020-12-31"}},"type":"Feature"},
	{"geometry":{"coordinates":[8.122187,48.715803],"type":"Point"},"properties":{"osm_id":"2967181851","tag":{"amenity":"recycling","operator":"FairTrade","recycling:clothes":"yes","recycling_type":"container"}},"type":"Feature"},
	{"geometry":{"coordinates":[8.133696,48.69589],"type":"Point"},"properties":{"osm_id":"2992518082","tag":{"amenity":"waste_basket","check_date":"2020-12-31"}},"type":"Feature"},
	{"geometry":{"coordinates":[8.108114,48.720489],"type":"Point"},"properties":{"osm_id":"2992575704","tag":{"amenity":"recycling","recycling:clothes":"yes","recycling_type":"container"}},"type":"Feature"},
	{"geometry":{"coordinates":[8.110283,48.724256],"type":"Point"},"properties":{"osm_id":"3015897029","tag":{"amenity":"recycling","recycling:glass":"yes","recycling_type":"container"}},"type":"Feature"},
	{"geometry":{"coordinates":[8.130404,48.703441],"type":"Point"},"properties":{"osm_id":"3122200007","tag":{"amenity":"recycling","recycling_type":"container"}},"type":"Feature"},
	{"geometry":{"coordinates":[8.130274,48.703494],"type":"Point"},"properties":{"osm_id":"3122200008","tag":{"amenity":"recycling","recycling_type":"container"}},"type":"Feature"},
	{"geometry":{"coordinates":[8.1588,48.699063],"type":"Point"},"properties":{"osm_id":"4006598364","tag":{"amenity":"recycling","check_date:recycling":"2021-01-13","operator":"Helfen-Direkt e.V.","recycling:clothes":"yes","recycling_type":"container"}},"type":"Feature"},
	{"geometry":{"coordinates":[8.091865,48.711793],"type":"Point"},"properties":{"osm_id":"4950175358","tag":{"amenity":"waste_basket","lastcheck":"2017-07-04","waste":"dog_excrement"}},"type":"Feature"},
	{"geometry":{"coordinates":[8.133537,48.696781],"type":"Point"},"properties":{"osm_id":"5799242689","tag":{"amenity":"waste_basket"}},"type":"Feature"},
	{"geometry":{"coordinates":[8.166198,48.72749],"type":"Point"},"properties":{"osm_id":"5876329246","tag":{"amenity":"recycling","operator":"texcyle","recycling:clothes":"yes","recycling:shoes":"yes","recycling_type":"container"}},"type":"Feature"},
	{"geometry":{"coordinates":[8.140285,48.695995],"type":"Point"},"properties":{"osm_id":"6462927503","tag":{"amenity":"waste_basket"}},"type":"Feature"},
	{"geometry":{"coordinates":[8.121541,48.714398],"type":"Point"},"properties":{"barrier":"gate","osm_id":"6475354322"},"type":"Feature"},
	{"geometry":{"coordinates":[8.138984,48.704331],"type":"Point"},"properties":{"osm_id":"6653459994","tag":{"amenity":"waste_basket","waste":"dog_excrement"}},"type":"Feature"},
	{"geometry":{"coordinates":[8.158928,48.727725],"type":"Point"},"properties":{"osm_id":"7089461078","tag":{"amenity":"recycling","operator":"TEXAID","recycling:clothes":"yes","recycling:shoes":"yes","recycling_type":"container"}},"type":"Feature"},
	{"geometry":{"coordinates":[8.165151,48.729433],"type":"Point"},"properties":{"osm_id":"7562321896","tag":{"amenity":"recycling","operator":"DRK","recycling:clothes":"yes","recycling_type":"container"}},"type":"Feature"},
	{"geometry":{"coordinates":[8.129861,48.695812],"type":"Point"},"properties":{"osm_id":"8319568349","tag":{"amenity":"recycling","operator":"Isevtex","recycling:clothes":"yes","recycling_type":"container"}},"type":"Feature"},
	{"geometry":{"coordinates":[8.168946,48.711046],"type":"Point"},"properties":{"osm_id":"8319581651","tag":{"amenity":"waste_basket","check_date":"2021-01-13"}},"type":"Feature"},
	{"geometry":{"coordinates":[8.127479,48.701084],"type":"Point"},"properties":{"osm_id":"8463113966","tag":{"amenity":"recycling","recycling:clothes":"yes","recycling_type":"container"}},"type":"Feature"}
]
}
