{
"type": "FeatureCollection",
"features": [
	{"geometry":{"coordinates":[8.131721,48.690656],"type":"Point"},"properties":{"osm_id":"430096796","tag":{"amenity":"recycling","operator":"Deutsche Rotes Kreuz","recycling:clothes":"yes","recycling_type":"container"}},"type":"Feature"},
	{"geometry":{"coordinates":[8.129178,48.689774],"type":"Point"},"properties":{"osm_id":"454089037","tag":{"amenity":"recycling","recycling_type":"container"}},"type":"Feature"},
	{"geometry":{"coordinates":[8.15021,48.659067],"type":"Point"},"properties":{"osm_id":"598701943","tag":{"amenity":"recycling","recycling:clothes":"yes","recycling_type":"container"}},"type":"Feature"},
	{"geometry":{"coordinates":[8.162476,48.658605],"type":"Point"},"properties":{"osm_id":"598921800","tag":{"amenity":"waste_basket"}},"type":"Feature"},
	{"geometry":{"coordinates":[8.167497,48.63892],"type":"Point"},"properties":{"osm_id":"599794235","tag":{"amenity":"waste_basket"}},"type":"Feature"},
	{"geometry":{"coordinates":[8.172813,48.663966],"type":"Point"},"properties":{"osm_id":"600122796","tag":{"amenity":"waste_basket"}},"type":"Feature"},
	{"geometry":{"coordinates":[8.093429,48.639869],"type":"Point"},"properties":{"osm_id":"685196340","tag":{"amenity":"recycling","recycling:clothes":"yes","recycling:glass":"no","recycling_type":"container"}},"type":"Feature"},
	{"geometry":{"coordinates":[8.093378,48.639764],"type":"Point"},"properties":{"osm_id":"685196344","tag":{"amenity":"recycling","recycling:glass":"yes","recycling_type":"container"}},"type":"Feature"},
	{"geometry":{"coordinates":[8.099946,48.638898],"type":"Point"},"properties":{"osm_id":"691512635","tag":{"amenity":"recycling","recycling:glass":"yes","recycling_type":"container"}},"type":"Feature"},
	{"geometry":{"coordinates":[8.158041,48.671583],"type":"Point"},"properties":{"osm_id":"975897619","tag":{"amenity":"waste_basket"}},"type":"Feature"},
	{"geometry":{"coordinates":[8.158351,48.672052],"type":"Point"},"properties":{"osm_id":"975897659","tag":{"amenity":"waste_basket"}},"type":"Feature"},
	{"geometry":{"coordinates":[8.15815,48.671142],"type":"Point"},"properties":{"osm_id":"976665016","tag":{"amenity":"waste_basket"}},"type":"Feature"},
	{"geometry":{"coordinates":[8.150935,48.666846],"type":"Point"},"properties":{"osm_id":"980538207","tag":{"amenity":"waste_basket"}},"type":"Feature"},
	{"geometry":{"coordinates":[8.156055,48.668233],"type":"Point"},"properties":{"osm_id":"984546645","tag":{"amenity":"waste_basket"}},"type":"Feature"},
	{"geometry":{"coordinates":[8.111771,48.635811],"type":"Point"},"properties":{"osm_id":"1179388693","tag":{"amenity":"recycling","mapillary":"Pbh3mIVJ3pjcZZErAu-7gA","recycling:clothes":"yes","recycling:glass":"yes","recycling_type":"container"}},"type":"Feature"},
	{"geometry":{"coordinates":[8.151758,48.668993],"type":"Point"},"properties":{"osm_id":"1256608172","tag":{"amenity":"recycling","operator":"Deutsches Rotes Kreuz","recycling:clothes":"yes","recycling_type":"container"}},"type":"Feature"},
	{"geometry":{"coordinates":[8.157214,48.670843],"type":"Point"},"properties":{"osm_id":"1259864775","tag":{"amenity":"waste_basket"}},"type":"Feature"},
	{"geometry":{"coordinates":[8.149526,48.659223],"type":"Point"},"properties":{"osm_id":"1588708707","tag":{"amenity":"waste_basket"}},"type":"Feature"},
	{"geometry":{"coordinates":[8.091474,48.635868],"type":"Point"},"properties":{"osm_id":"1786259385","tag":{"amenity":"recycling","recycling:glass_bottles":"yes","recycling_type":"container"}},"type":"Feature"},
	{"geometry":{"coordinates":[8.087007,48.6425],"type":"Point"},"properties":{"osm_id":"1788791538","tag":{"amenity":"recycling","recycling:batteries":"yes"}},"type":"Feature"},
	{"geometry":{"coordinates":[8.13055,48.652547],"type":"Point"},"properties":{"osm_id":"1938105540","tag":{"amenity":"recycling","recycling:clothes":"yes","recycling:glass":"yes","recycling_type":"container"}},"type":"Feature"},
	{"geometry":{"coordinates":[8.143968,48.638369],"type":"Point"},"properties":{"osm_id":"1941769501","tag":{"amenity":"recycling","recycling:glass":"yes","recycling_type":"container"}},"type":"Feature"},
	{"geometry":{"coordinates":[8.13035,48.648678],"type":"Point"},"properties":{"osm_id":"1956968389","tag":{"amenity":"recycling","recycling:glass":"yes","recycling_type":"container"}},"type":"Feature"},
	{"geometry":{"coordinates":[8.129731,48.654615],"type":"Point"},"properties":{"osm_id":"1978387086","tag":{"amenity":"waste_basket","waste":"dog_excrement"}},"type":"Feature"},
	{"geometry":{"coordinates":[8.131928,48.649517],"type":"Point"},"properties":{"osm_id":"1996849598","tag":{"amenity":"waste_basket"}},"type":"Feature"},
	{"geometry":{"coordinates":[8.128617,48.65275],"type":"Point"},"properties":{"osm_id":"1998589151","tag":{"amenity":"waste_basket"}},"type":"Feature"},
	{"geometry":{"coordinates":[8.157782,48.672157],"type":"Point"},"properties":{"osm_id":"2969787657","tag":{"amenity":"waste_basket"}},"type":"Feature"},
	{"geometry":{"coordinates":[8.157947,48.671406],"type":"Point"},"properties":{"osm_id":"2969787658","tag":{"amenity":"waste_basket"}},"type":"Feature"},
	{"geometry":{"coordinates":[8.15798,48.671285],"type":"Point"},"properties":{"osm_id":"2969787660","tag":{"amenity":"waste_basket"}},"type":"Feature"},
	{"geometry":{"coordinates":[8.138074,48.643496],"type":"Point"},"properties":{"osm_id":"5147228389","tag":{"amenity":"waste_basket"}},"type":"Feature"},
	{"geometry":{"coordinates":[8.137906,48.643331],"type":"Point"},"properties":{"osm_id":"5156786826","tag":{"amenity":"waste_basket"}},"type":"Feature"},
	{"geometry":{"coordinates":[8.090148,48.636444],"type":"Point"},"properties":{"osm_id":"5721276354","tag":{"amenity":"waste_basket"}},"type":"Feature"},
	{"geometry":{"coordinates":[8.123832,48.64754],"type":"Point"},"properties":{"osm_id":"6113887457","tag":{"amenity":"recycling","recycling:glass":"yes","recycling_type":"container"}},"type":"Feature"},
	{"geometry":{"coordinates":[8.11923,48.641811],"type":"Point"},"properties":{"osm_id":"7340002498","tag":{"amenity":"recycling","mapillary":"EBRvZfzheck-qb7VjpQemQ","recycling:clothes":"yes","recycling:glass":"yes","recycling_type":"container"}},"type":"Feature"}
]
}
