{
"type": "FeatureCollection",
"lastupdate": "2020-08-06T00:00:00Z",
"features": [
	{"geometry":{"coordinates":[8.155437,48.473099],"type":"Point"},"properties":{"osm_id":"999540110","tag":{"amenity":"recycling","recycling:clothes":"yes","recycling:glass":"yes"}},"type":"Feature"},
	{"geometry":{"coordinates":[8.154403,48.478884],"type":"Point"},"properties":{"osm_id":"1002580337","tag":{"amenity":"recycling","recycling:glass":"yes","recycling_type":"container"}},"type":"Feature"},
	{"geometry":{"coordinates":[8.087776,48.499569],"type":"Point"},"properties":{"osm_id":"2177515992","tag":{"amenity":"recycling","recycling:glass_bottles":"yes","recycling_type":"container"}},"type":"Feature"},
	{"geometry":{"coordinates":[8.139361,48.499936],"type":"Point"},"properties":{"osm_id":"4869969730","tag":{"amenity":"waste_basket"}},"type":"Feature"},
	{"geometry":{"coordinates":[8.092348,48.512467],"type":"Point"},"properties":{"osm_id":"5843640180","tag":{"amenity":"recycling","recycling:glass":"yes","recycling_type":"container"}},"type":"Feature"},
	{"geometry":{"coordinates":[8.15199,48.478604],"type":"Point"},"properties":{"osm_id":"6415827277","tag":{"amenity":"waste_basket"}},"type":"Feature"},
	{"geometry":{"coordinates":[8.151747,48.482006],"type":"Point"},"properties":{"osm_id":"6417695554","tag":{"amenity":"recycling","recycling:green_waste":"compost"}},"type":"Feature"}
]
}
