{
"type": "FeatureCollection",
"features": [
	{"geometry":{"coordinates":[8.090325,48.276515],"type":"Point"},"properties":{"osm_id":"1258448710","tag":{"amenity":"recycling","recycling:clothes":"yes","recycling:glass":"yes","recycling_type":"container"}},"type":"Feature"},
	{"geometry":{"coordinates":[8.095856,48.277143],"type":"Point"},"properties":{"osm_id":"1369279064","tag":{"amenity":"recycling","recycling:clothes":"yes","recycling:glass":"yes","recycling:shoes":"yes","recycling_type":"container"}},"type":"Feature"},
	{"geometry":{"coordinates":[8.094333,48.278141],"type":"Point"},"properties":{"osm_id":"1401317405","tag":{"amenity":"recycling","recycling:glass":"yes","recycling_type":"container"}},"type":"Feature"},
	{"geometry":{"coordinates":[8.091265,48.271723],"type":"Point"},"properties":{"osm_id":"1410390455","tag":{"amenity":"recycling","recycling:glass":"yes","recycling_type":"container"}},"type":"Feature"},
	{"geometry":{"coordinates":[8.098976,48.276669],"type":"Point"},"properties":{"osm_id":"1718548885","tag":{"amenity":"recycling","recycling:glass":"yes","recycling_type":"container"}},"type":"Feature"},
	{"geometry":{"coordinates":[8.093664,48.26761],"type":"Point"},"properties":{"osm_id":"1930960713","tag":{"amenity":"waste_basket"}},"type":"Feature"},
	{"geometry":{"coordinates":[8.10513,48.257779],"type":"Point"},"properties":{"osm_id":"2198586405","tag":{"amenity":"recycling","recycling:glass":"yes","recycling_type":"container"}},"type":"Feature"},
	{"geometry":{"coordinates":[8.156212,48.282044],"type":"Point"},"properties":{"osm_id":"2382256596","tag":{"amenity":"recycling","recycling:glass":"yes","recycling_type":"container"}},"type":"Feature"},
	{"geometry":{"coordinates":[8.167994,48.283019],"type":"Point"},"properties":{"osm_id":"4996326736","tag":{"amenity":"waste_basket"}},"type":"Feature"},
	{"geometry":{"coordinates":[8.11277,48.248816],"type":"Point"},"properties":{"osm_id":"7588431300","tag":{"amenity":"waste_basket","waste":"dog_excrement"}},"type":"Feature"},
	{"geometry":{"coordinates":[8.0881,48.279843],"type":"Point"},"properties":{"osm_id":"7927493522","tag":{"amenity":"waste_basket","level":"0","waste":"trash"}},"type":"Feature"},
	{"geometry":{"coordinates":[8.087894,48.279991],"type":"Point"},"properties":{"osm_id":"7927493533","tag":{"amenity":"waste_basket","level":"0","waste":"trash"}},"type":"Feature"},
	{"geometry":{"coordinates":[8.08844,48.279788],"type":"Point"},"properties":{"osm_id":"7927493551","tag":{"amenity":"waste_basket","level":"0","waste":"trash"}},"type":"Feature"}
]
}
