{
"type": "FeatureCollection",
"features": [
	{"geometry":{"coordinates":[8.148073,47.902668],"type":"Point"},"properties":{"osm_id":"259832391","tag":{"amenity":"recycling","recycling_type":"container"}},"type":"Feature"},
	{"geometry":{"coordinates":[8.092334,47.926872],"type":"Point"},"properties":{"osm_id":"1169239789","tag":{"amenity":"recycling","recycling:glass":"yes","recycling_type":"container"}},"type":"Feature"},
	{"geometry":{"coordinates":[8.163379,47.908868],"type":"Point"},"properties":{"name":"RAZ Hochschwarzwald","osm_id":"1720923705","tag":{"amenity":"recycling","recycling_type":"centre"}},"type":"Feature"},
	{"geometry":{"coordinates":[8.110443,47.905033],"type":"Point"},"properties":{"osm_id":"2082509613","tag":{"amenity":"recycling","recycling:clothes":"yes","recycling:glass_bottles":"yes","recycling_type":"container"}},"type":"Feature"},
	{"geometry":{"coordinates":[8.102692,47.910121],"type":"Point"},"properties":{"osm_id":"2467890195","tag":{"amenity":"waste_basket","board_type":"nature","description":"Naturschutzgebiet + Grillplatz","information":"board","tourism":"information"}},"type":"Feature"},
	{"geometry":{"coordinates":[8.095785,47.904938],"type":"Point"},"properties":{"osm_id":"3336456992","tag":{"amenity":"waste_basket"}},"type":"Feature"},
	{"geometry":{"coordinates":[8.105173,47.897555],"type":"Point"},"properties":{"osm_id":"3996370905","tag":{"amenity":"waste_basket"}},"type":"Feature"},
	{"geometry":{"coordinates":[8.10281,47.900839],"type":"Point"},"properties":{"osm_id":"4330851290","tag":{"amenity":"waste_basket"}},"type":"Feature"},
	{"geometry":{"coordinates":[8.101596,47.904645],"type":"Point"},"properties":{"osm_id":"4330890298","tag":{"amenity":"waste_basket"}},"type":"Feature"},
	{"geometry":{"coordinates":[8.105337,47.902516],"type":"Point"},"properties":{"osm_id":"4330923394","tag":{"amenity":"waste_basket"}},"type":"Feature"},
	{"geometry":{"coordinates":[8.106527,47.905717],"type":"Point"},"properties":{"osm_id":"4341423289","tag":{"amenity":"waste_basket"}},"type":"Feature"},
	{"geometry":{"coordinates":[8.152217,47.902375],"type":"Point"},"properties":{"osm_id":"4347527990","tag":{"amenity":"recycling","operator":"HeDi - Helfen-Direkt","phone":"+49 177 8306707","recycling_type":"container","website":"http://www.hedi-helfen-direkt.de"}},"type":"Feature"},
	{"geometry":{"coordinates":[8.143123,47.902129],"type":"Point"},"properties":{"osm_id":"4347527995","tag":{"amenity":"waste_basket"}},"type":"Feature"},
	{"geometry":{"coordinates":[8.154175,47.898814],"type":"Point"},"properties":{"osm_id":"4347528000","tag":{"amenity":"waste_basket"}},"type":"Feature"},
	{"geometry":{"coordinates":[8.145125,47.899571],"type":"Point"},"properties":{"osm_id":"4347537690","tag":{"amenity":"waste_basket"}},"type":"Feature"},
	{"geometry":{"coordinates":[8.153643,47.899061],"type":"Point"},"properties":{"osm_id":"4347537691","tag":{"amenity":"waste_basket"}},"type":"Feature"},
	{"geometry":{"coordinates":[8.153892,47.902451],"type":"Point"},"properties":{"osm_id":"4347543990","tag":{"amenity":"waste_basket"}},"type":"Feature"},
	{"geometry":{"coordinates":[8.156614,47.89916],"type":"Point"},"properties":{"osm_id":"4347543994","tag":{"amenity":"waste_basket"}},"type":"Feature"},
	{"geometry":{"coordinates":[8.163202,47.901616],"type":"Point"},"properties":{"osm_id":"4347543995","tag":{"amenity":"waste_basket"}},"type":"Feature"},
	{"geometry":{"coordinates":[8.155839,47.902856],"type":"Point"},"properties":{"osm_id":"4347544092","tag":{"amenity":"recycling","description":"Schuhe Kleidung","operator":"GLAESER textil","phone":"+49 731 398158","recycling:clothes":"yes","recycling:shoes":"yes","recycling_type":"container","website":"https://www.fair-collect.de/"}},"type":"Feature"},
	{"geometry":{"coordinates":[8.151509,47.901211],"type":"Point"},"properties":{"osm_id":"4347544093","tag":{"amenity":"waste_basket"}},"type":"Feature"},
	{"geometry":{"coordinates":[8.165981,47.902668],"type":"Point"},"properties":{"osm_id":"4347544101","tag":{"amenity":"waste_basket"}},"type":"Feature"},
	{"geometry":{"coordinates":[8.152353,47.902265],"type":"Point"},"properties":{"osm_id":"4347556691","tag":{"amenity":"waste_basket"}},"type":"Feature"},
	{"geometry":{"coordinates":[8.151925,47.899743],"type":"Point"},"properties":{"osm_id":"4347556695","tag":{"amenity":"waste_basket"}},"type":"Feature"},
	{"geometry":{"coordinates":[8.150772,47.901053],"type":"Point"},"properties":{"osm_id":"4347568189","tag":{"amenity":"waste_basket"}},"type":"Feature"},
	{"geometry":{"coordinates":[8.148063,47.901489],"type":"Point"},"properties":{"osm_id":"4347568289","tag":{"amenity":"waste_basket"}},"type":"Feature"},
	{"geometry":{"coordinates":[8.153094,47.899312],"type":"Point"},"properties":{"osm_id":"4347568491","tag":{"amenity":"waste_basket"}},"type":"Feature"},
	{"geometry":{"coordinates":[8.143669,47.89986],"type":"Point"},"properties":{"osm_id":"4347568590","tag":{"amenity":"waste_basket"}},"type":"Feature"},
	{"geometry":{"coordinates":[8.149269,47.899954],"type":"Point"},"properties":{"osm_id":"4347568595","tag":{"amenity":"waste_basket"}},"type":"Feature"},
	{"geometry":{"coordinates":[8.141525,47.900459],"type":"Point"},"properties":{"osm_id":"4347568789","tag":{"amenity":"waste_basket"}},"type":"Feature"},
	{"geometry":{"coordinates":[8.147221,47.899562],"type":"Point"},"properties":{"osm_id":"4347568791","tag":{"amenity":"waste_basket"}},"type":"Feature"},
	{"geometry":{"coordinates":[8.143735,47.900499],"type":"Point"},"properties":{"osm_id":"4347568889","tag":{"amenity":"waste_basket"}},"type":"Feature"},
	{"geometry":{"coordinates":[8.144844,47.899445],"type":"Point"},"properties":{"osm_id":"4347568890","tag":{"amenity":"waste_basket"}},"type":"Feature"},
	{"geometry":{"coordinates":[8.143485,47.89989],"type":"Point"},"properties":{"osm_id":"4347568990","tag":{"amenity":"waste_basket"}},"type":"Feature"},
	{"geometry":{"coordinates":[8.146471,47.899159],"type":"Point"},"properties":{"osm_id":"4347568992","tag":{"amenity":"waste_basket"}},"type":"Feature"},
	{"geometry":{"coordinates":[8.145106,47.899785],"type":"Point"},"properties":{"osm_id":"4347569189","tag":{"amenity":"waste_basket"}},"type":"Feature"},
	{"geometry":{"coordinates":[8.15278,47.899504],"type":"Point"},"properties":{"osm_id":"4347569889","tag":{"amenity":"waste_basket"}},"type":"Feature"},
	{"geometry":{"coordinates":[8.143083,47.888079],"type":"Point"},"properties":{"osm_id":"4404228643","tag":{"amenity":"waste_basket"}},"type":"Feature"},
	{"geometry":{"coordinates":[8.145049,47.888953],"type":"Point"},"properties":{"osm_id":"4404228644","tag":{"amenity":"waste_basket"}},"type":"Feature"},
	{"geometry":{"coordinates":[8.145709,47.889451],"type":"Point"},"properties":{"osm_id":"4404228645","tag":{"amenity":"waste_basket"}},"type":"Feature"},
	{"geometry":{"coordinates":[8.130864,47.889206],"type":"Point"},"properties":{"osm_id":"4404519343","tag":{"amenity":"waste_basket"}},"type":"Feature"},
	{"geometry":{"coordinates":[8.139124,47.893585],"type":"Point"},"properties":{"osm_id":"4406100985","tag":{"amenity":"waste_basket"}},"type":"Feature"},
	{"geometry":{"coordinates":[8.152737,47.902258],"type":"Point"},"properties":{"osm_id":"4427843904","tag":{"amenity":"waste_basket"}},"type":"Feature"},
	{"geometry":{"coordinates":[8.155744,47.903035],"type":"Point"},"properties":{"osm_id":"4427843907","tag":{"amenity":"waste_basket"}},"type":"Feature"},
	{"geometry":{"coordinates":[8.15594,47.903154],"type":"Point"},"properties":{"osm_id":"4427898598","tag":{"amenity":"waste_basket"}},"type":"Feature"},
	{"geometry":{"coordinates":[8.15546,47.903184],"type":"Point"},"properties":{"osm_id":"4427898599","tag":{"amenity":"waste_basket"}},"type":"Feature"},
	{"geometry":{"coordinates":[8.155861,47.903367],"type":"Point"},"properties":{"osm_id":"4427901204","tag":{"amenity":"waste_basket","level":"0","waste":"trash"}},"type":"Feature"},
	{"geometry":{"coordinates":[8.1058,47.905611],"type":"Point"},"properties":{"osm_id":"4585753895","tag":{"amenity":"waste_basket"}},"type":"Feature"},
	{"geometry":{"coordinates":[8.116967,47.9077],"type":"Point"},"properties":{"osm_id":"4585800590","tag":{"amenity":"waste_basket"}},"type":"Feature"},
	{"geometry":{"coordinates":[8.10465,47.911524],"type":"Point"},"properties":{"osm_id":"4585809489","tag":{"amenity":"waste_basket"}},"type":"Feature"},
	{"geometry":{"coordinates":[8.115512,47.904952],"type":"Point"},"properties":{"osm_id":"4585810090","tag":{"amenity":"waste_basket"}},"type":"Feature"},
	{"geometry":{"coordinates":[8.130823,47.886003],"type":"Point"},"properties":{"osm_id":"5528134098","tag":{"amenity":"waste_disposal"}},"type":"Feature"},
	{"geometry":{"coordinates":[8.130835,47.88599],"type":"Point"},"properties":{"osm_id":"5528134099","tag":{"amenity":"recycling","recycling_type":"container"}},"type":"Feature"},
	{"geometry":{"coordinates":[8.168578,47.894105],"type":"Point"},"properties":{"osm_id":"6820744841","tag":{"amenity":"waste_basket"}},"type":"Feature"},
	{"geometry":{"coordinates":[8.166577,47.889566],"type":"Point"},"properties":{"osm_id":"7119564511","tag":{"amenity":"waste_basket"}},"type":"Feature"},
	{"geometry":{"coordinates":[8.091536,47.913836],"type":"Point"},"properties":{"osm_id":"7530368578","tag":{"amenity":"recycling","recycling:glass":"yes","recycling:glass_bottles":"yes","recycling_type":"container","wheelchair":"yes"}},"type":"Feature"},
	{"geometry":{"coordinates":[8.090913,47.914686],"type":"Point"},"properties":{"osm_id":"7530368582","tag":{"amenity":"waste_basket","waste":"dog_excrement"}},"type":"Feature"},
	{"geometry":{"coordinates":[8.101997,47.907427],"type":"Point"},"properties":{"osm_id":"7530387042","tag":{"amenity":"waste_basket","waste":"trash"}},"type":"Feature"},
	{"geometry":{"coordinates":[8.106324,47.906072],"type":"Point"},"properties":{"osm_id":"7612920006","tag":{"amenity":"waste_basket","level":"0","waste":"trash"}},"type":"Feature"},
	{"geometry":{"coordinates":[8.106325,47.906259],"type":"Point"},"properties":{"osm_id":"7612920013","tag":{"amenity":"waste_basket","level":"0","waste":"trash"}},"type":"Feature"},
	{"geometry":{"coordinates":[8.105964,47.906418],"type":"Point"},"properties":{"osm_id":"7612920017","tag":{"amenity":"waste_basket","level":"0","waste":"trash"}},"type":"Feature"},
	{"geometry":{"coordinates":[8.10597,47.906244],"type":"Point"},"properties":{"osm_id":"7612920051","tag":{"amenity":"waste_basket","level":"0","waste":"trash"}},"type":"Feature"},
	{"geometry":{"coordinates":[8.155812,47.903317],"type":"Point"},"properties":{"osm_id":"7613086444","tag":{"amenity":"waste_basket","level":"0","waste":"trash"}},"type":"Feature"},
	{"geometry":{"coordinates":[8.155183,47.903295],"type":"Point"},"properties":{"osm_id":"7613172204","tag":{"amenity":"waste_basket"}},"type":"Feature"},
	{"geometry":{"coordinates":[8.155078,47.903256],"type":"Point"},"properties":{"osm_id":"7613172205","tag":{"amenity":"waste_basket"}},"type":"Feature"},
	{"geometry":{"coordinates":[8.154885,47.902762],"type":"Point"},"properties":{"osm_id":"7885176185","tag":{"amenity":"waste_basket"}},"type":"Feature"},
	{"geometry":{"coordinates":[8.117837,47.899121],"type":"Point"},"properties":{"osm_id":"7921423443","tag":{"amenity":"waste_basket","waste":"trash"}},"type":"Feature"}
]
}
