{
"type": "FeatureCollection",
"features": [
	{"geometry":{"coordinates":[8.150606,47.441481],"type":"Point"},"properties":{"osm_id":"1067481200","tag":{"amenity":"recycling"}},"type":"Feature"},
	{"geometry":{"coordinates":[8.125717,47.40154],"type":"Point"},"properties":{"osm_id":"1369115746","tag":{"amenity":"recycling"}},"type":"Feature"},
	{"geometry":{"coordinates":[8.141242,47.400994],"type":"Point"},"properties":{"osm_id":"2304319793","tag":{"amenity":"waste_basket"}},"type":"Feature"},
	{"geometry":{"coordinates":[8.121904,47.409303],"type":"Point"},"properties":{"osm_id":"2347858299","tag":{"amenity":"waste_basket"}},"type":"Feature"},
	{"geometry":{"coordinates":[8.133623,47.399117],"type":"Point"},"properties":{"osm_id":"2721408887","tag":{"amenity":"waste_basket"}},"type":"Feature"},
	{"geometry":{"coordinates":[8.168797,47.449356],"type":"Point"},"properties":{"osm_id":"2895592630","tag":{"amenity":"waste_basket"}},"type":"Feature"},
	{"geometry":{"coordinates":[8.169333,47.450034],"type":"Point"},"properties":{"osm_id":"2895592657","tag":{"amenity":"recycling","recycling:cans":"yes","recycling:clothes":"yes","recycling:glass":"yes"}},"type":"Feature"},
	{"geometry":{"coordinates":[8.165143,47.457037],"type":"Point"},"properties":{"osm_id":"2897150539","tag":{"amenity":"waste_basket"}},"type":"Feature"},
	{"geometry":{"coordinates":[8.117312,47.410232],"type":"Point"},"properties":{"osm_id":"3088088388","tag":{"amenity":"waste_basket"}},"type":"Feature"},
	{"geometry":{"coordinates":[8.11625,47.39996],"type":"Point"},"properties":{"osm_id":"3550592313","tag":{"amenity":"waste_disposal"}},"type":"Feature"},
	{"geometry":{"coordinates":[8.1731,47.404628],"type":"Point"},"properties":{"osm_id":"3677557878","tag":{"amenity":"waste_basket"}},"type":"Feature"},
	{"geometry":{"coordinates":[8.17036,47.418955],"type":"Point"},"properties":{"osm_id":"3731455941","tag":{"amenity":"waste_basket"}},"type":"Feature"},
	{"geometry":{"coordinates":[8.171069,47.419704],"type":"Point"},"properties":{"osm_id":"3731455945","tag":{"amenity":"waste_basket"}},"type":"Feature"},
	{"geometry":{"coordinates":[8.148591,47.415144],"type":"Point"},"properties":{"osm_id":"3838890417","tag":{"amenity":"waste_basket"}},"type":"Feature"},
	{"geometry":{"coordinates":[8.086762,47.415729],"type":"Point"},"properties":{"osm_id":"3838890433","tag":{"amenity":"waste_basket"}},"type":"Feature"},
	{"geometry":{"coordinates":[8.159145,47.417783],"type":"Point"},"properties":{"osm_id":"4183933302","tag":{"amenity":"waste_basket"}},"type":"Feature"},
	{"geometry":{"coordinates":[8.173325,47.416243],"type":"Point"},"properties":{"osm_id":"4475676886","tag":{"amenity":"waste_basket"}},"type":"Feature"},
	{"geometry":{"coordinates":[8.170053,47.416685],"type":"Point"},"properties":{"osm_id":"4475682199","tag":{"amenity":"waste_basket"}},"type":"Feature"},
	{"geometry":{"coordinates":[8.172749,47.399385],"type":"Point"},"properties":{"osm_id":"4564929000","tag":{"amenity":"waste_basket"}},"type":"Feature"},
	{"geometry":{"coordinates":[8.100423,47.442015],"type":"Point"},"properties":{"osm_id":"6473025801","tag":{"amenity":"waste_basket"}},"type":"Feature"},
	{"geometry":{"coordinates":[8.100975,47.442105],"type":"Point"},"properties":{"osm_id":"6473025802","tag":{"amenity":"waste_basket"}},"type":"Feature"},
	{"geometry":{"coordinates":[8.121813,47.40999],"type":"Point"},"properties":{"osm_id":"6574203041","tag":{"amenity":"waste_basket"}},"type":"Feature"},
	{"geometry":{"coordinates":[8.121735,47.41002],"type":"Point"},"properties":{"osm_id":"6574203042","tag":{"amenity":"waste_basket"}},"type":"Feature"},
	{"geometry":{"coordinates":[8.146239,47.433672],"type":"Point"},"properties":{"osm_id":"7704728990","tag":{"amenity":"waste_basket"}},"type":"Feature"},
	{"geometry":{"coordinates":[8.145568,47.435451],"type":"Point"},"properties":{"name":"robidog","osm_id":"7726781172","tag":{"amenity":"waste_basket","waste":"dog_excrement"}},"type":"Feature"},
	{"geometry":{"coordinates":[8.142765,47.434616],"type":"Point"},"properties":{"name":"robidog","osm_id":"7726781173","tag":{"amenity":"waste_basket","waste":"dog_excrement"}},"type":"Feature"},
	{"geometry":{"coordinates":[8.150051,47.431173],"type":"Point"},"properties":{"name":"robidog","osm_id":"7726910002","tag":{"amenity":"waste_basket","waste":"dog_excrement"}},"type":"Feature"},
	{"geometry":{"coordinates":[8.142035,47.435586],"type":"Point"},"properties":{"name":"robidog","osm_id":"7792104943","tag":{"amenity":"waste_basket","waste":"dog_excrement"}},"type":"Feature"},
	{"geometry":{"coordinates":[8.142276,47.43577],"type":"Point"},"properties":{"osm_id":"7792104944","tag":{"amenity":"waste_basket","material":"steel","waste":"trash"}},"type":"Feature"},
	{"geometry":{"coordinates":[8.146245,47.436926],"type":"Point"},"properties":{"osm_id":"7792104949","tag":{"amenity":"waste_basket","material":"steel"}},"type":"Feature"}
]
}
