{
"type": "FeatureCollection",
"features": [
	{"geometry":{"coordinates":[8.097878,47.179217],"type":"Point"},"properties":{"name":"Sammelhof Josef Frey AG","osm_id":"692074179","tag":{"amenity":"recycling","operator":"Josef Frey AG","recycling:batteries":"yes","recycling:cans":"yes","recycling:cardboard":"yes","recycling:clothes":"yes","recycling:glass":"yes","recycling:paper":"yes","recycling:scrap_metal":"yes","recycling_type":"centre"}},"type":"Feature"},
	{"geometry":{"coordinates":[8.101338,47.173176],"type":"Point"},"properties":{"osm_id":"1433581677","tag":{"amenity":"recycling","recycling_type":"container"}},"type":"Feature"},
	{"geometry":{"coordinates":[8.101847,47.166892],"type":"Point"},"properties":{"osm_id":"1433581678","tag":{"amenity":"recycling","recycling_type":"container"}},"type":"Feature"},
	{"geometry":{"coordinates":[8.107056,47.184247],"type":"Point"},"properties":{"name":"Sammelhof Beck & Co Umwelt AG","osm_id":"1541532033","tag":{"amenity":"recycling","operator":"Beck Umweltservice AG","recycling:batteries":"yes","recycling:cans":"yes","recycling:cardboard":"yes","recycling:clothes":"yes","recycling:glass":"yes","recycling:paper":"yes","recycling:scrap_metal":"yes","recycling_type":"centre"}},"type":"Feature"},
	{"geometry":{"coordinates":[8.098058,47.170774],"type":"Point"},"properties":{"osm_id":"2032819963","tag":{"amenity":"waste_basket"}},"type":"Feature"},
	{"geometry":{"coordinates":[8.097298,47.171739],"type":"Point"},"properties":{"osm_id":"2531914974","tag":{"amenity":"waste_basket"}},"type":"Feature"},
	{"geometry":{"coordinates":[8.100548,47.170768],"type":"Point"},"properties":{"osm_id":"2531914978","tag":{"amenity":"waste_basket"}},"type":"Feature"},
	{"geometry":{"coordinates":[8.102902,47.17154],"type":"Point"},"properties":{"osm_id":"2531914981","tag":{"amenity":"waste_basket"}},"type":"Feature"},
	{"geometry":{"coordinates":[8.102703,47.171979],"type":"Point"},"properties":{"osm_id":"2531914984","tag":{"amenity":"waste_basket"}},"type":"Feature"},
	{"geometry":{"coordinates":[8.102754,47.171969],"type":"Point"},"properties":{"osm_id":"2531914987","tag":{"amenity":"waste_basket"}},"type":"Feature"},
	{"geometry":{"coordinates":[8.102776,47.171936],"type":"Point"},"properties":{"osm_id":"2531914990","tag":{"amenity":"waste_basket"}},"type":"Feature"},
	{"geometry":{"coordinates":[8.103324,47.171776],"type":"Point"},"properties":{"osm_id":"2531914993","tag":{"amenity":"waste_basket"}},"type":"Feature"},
	{"geometry":{"coordinates":[8.103423,47.171776],"type":"Point"},"properties":{"osm_id":"2531914995","tag":{"amenity":"waste_basket"}},"type":"Feature"},
	{"geometry":{"coordinates":[8.104539,47.172515],"type":"Point"},"properties":{"osm_id":"2531914997","tag":{"amenity":"waste_basket"}},"type":"Feature"},
	{"geometry":{"coordinates":[8.104556,47.172609],"type":"Point"},"properties":{"osm_id":"2531914999","tag":{"amenity":"waste_basket"}},"type":"Feature"},
	{"geometry":{"coordinates":[8.110296,47.173781],"type":"Point"},"properties":{"osm_id":"2531915001","tag":{"amenity":"waste_basket"}},"type":"Feature"},
	{"geometry":{"coordinates":[8.110073,47.173733],"type":"Point"},"properties":{"osm_id":"2531915004","tag":{"amenity":"waste_basket"}},"type":"Feature"},
	{"geometry":{"coordinates":[8.108765,47.173888],"type":"Point"},"properties":{"osm_id":"2531915006","tag":{"amenity":"waste_basket"}},"type":"Feature"},
	{"geometry":{"coordinates":[8.109587,47.174312],"type":"Point"},"properties":{"osm_id":"2531933275","tag":{"amenity":"waste_basket"}},"type":"Feature"},
	{"geometry":{"coordinates":[8.109721,47.174354],"type":"Point"},"properties":{"osm_id":"2531933276","tag":{"amenity":"waste_basket"}},"type":"Feature"},
	{"geometry":{"coordinates":[8.108777,47.175139],"type":"Point"},"properties":{"osm_id":"2531933277","tag":{"amenity":"waste_basket"}},"type":"Feature"},
	{"geometry":{"coordinates":[8.107541,47.175189],"type":"Point"},"properties":{"osm_id":"2531933278","tag":{"amenity":"waste_basket"}},"type":"Feature"},
	{"geometry":{"coordinates":[8.107652,47.175145],"type":"Point"},"properties":{"osm_id":"2531933279","tag":{"amenity":"waste_basket"}},"type":"Feature"},
	{"geometry":{"coordinates":[8.10749,47.174973],"type":"Point"},"properties":{"osm_id":"2531933280","tag":{"amenity":"waste_basket"}},"type":"Feature"},
	{"geometry":{"coordinates":[8.107507,47.174693],"type":"Point"},"properties":{"osm_id":"2531933281","tag":{"amenity":"waste_basket"}},"type":"Feature"},
	{"geometry":{"coordinates":[8.107451,47.174477],"type":"Point"},"properties":{"osm_id":"2531933282","tag":{"amenity":"waste_basket"}},"type":"Feature"},
	{"geometry":{"coordinates":[8.105794,47.174931],"type":"Point"},"properties":{"osm_id":"2531933283","tag":{"amenity":"waste_basket"}},"type":"Feature"},
	{"geometry":{"coordinates":[8.107188,47.173632],"type":"Point"},"properties":{"osm_id":"2531933285","tag":{"amenity":"waste_basket"}},"type":"Feature"},
	{"geometry":{"coordinates":[8.107634,47.173166],"type":"Point"},"properties":{"osm_id":"2531933286","tag":{"amenity":"waste_basket"}},"type":"Feature"},
	{"geometry":{"coordinates":[8.108314,47.17409],"type":"Point"},"properties":{"osm_id":"2531933287","tag":{"amenity":"waste_basket"}},"type":"Feature"},
	{"geometry":{"coordinates":[8.109264,47.173917],"type":"Point"},"properties":{"osm_id":"2531933289","tag":{"amenity":"waste_basket"}},"type":"Feature"},
	{"geometry":{"coordinates":[8.109651,47.173827],"type":"Point"},"properties":{"osm_id":"2531933290","tag":{"amenity":"waste_basket"}},"type":"Feature"},
	{"geometry":{"coordinates":[8.108876,47.173348],"type":"Point"},"properties":{"osm_id":"2531933291","tag":{"amenity":"waste_basket"}},"type":"Feature"},
	{"geometry":{"coordinates":[8.109558,47.17281],"type":"Point"},"properties":{"osm_id":"2531933292","tag":{"amenity":"waste_basket"}},"type":"Feature"},
	{"geometry":{"coordinates":[8.109799,47.172519],"type":"Point"},"properties":{"osm_id":"2531933293","tag":{"amenity":"waste_basket"}},"type":"Feature"},
	{"geometry":{"coordinates":[8.110343,47.172454],"type":"Point"},"properties":{"osm_id":"2531933294","tag":{"amenity":"waste_basket"}},"type":"Feature"},
	{"geometry":{"coordinates":[8.110691,47.172101],"type":"Point"},"properties":{"osm_id":"2531933295","tag":{"amenity":"waste_basket"}},"type":"Feature"},
	{"geometry":{"coordinates":[8.111304,47.171575],"type":"Point"},"properties":{"osm_id":"2531933296","tag":{"amenity":"waste_basket"}},"type":"Feature"},
	{"geometry":{"coordinates":[8.110913,47.172432],"type":"Point"},"properties":{"osm_id":"2531933297","tag":{"amenity":"waste_basket"}},"type":"Feature"},
	{"geometry":{"coordinates":[8.110966,47.17253],"type":"Point"},"properties":{"osm_id":"2531933298","tag":{"amenity":"waste_basket"}},"type":"Feature"},
	{"geometry":{"coordinates":[8.111031,47.172455],"type":"Point"},"properties":{"osm_id":"2531933299","tag":{"amenity":"waste_basket"}},"type":"Feature"},
	{"geometry":{"coordinates":[8.111168,47.172354],"type":"Point"},"properties":{"osm_id":"2531933300","tag":{"amenity":"waste_basket"}},"type":"Feature"},
	{"geometry":{"coordinates":[8.110515,47.173027],"type":"Point"},"properties":{"osm_id":"2531933301","tag":{"amenity":"waste_basket"}},"type":"Feature"},
	{"geometry":{"coordinates":[8.110651,47.172858],"type":"Point"},"properties":{"osm_id":"2531933302","tag":{"amenity":"waste_basket"}},"type":"Feature"},
	{"geometry":{"coordinates":[8.111065,47.17148],"type":"Point"},"properties":{"osm_id":"2531933303","tag":{"amenity":"waste_basket"}},"type":"Feature"},
	{"geometry":{"coordinates":[8.11022,47.171008],"type":"Point"},"properties":{"osm_id":"2531933304","tag":{"amenity":"waste_basket"}},"type":"Feature"},
	{"geometry":{"coordinates":[8.109952,47.170924],"type":"Point"},"properties":{"osm_id":"2531933307","tag":{"amenity":"waste_basket"}},"type":"Feature"},
	{"geometry":{"coordinates":[8.109849,47.170772],"type":"Point"},"properties":{"osm_id":"2531933310","tag":{"amenity":"waste_basket"}},"type":"Feature"},
	{"geometry":{"coordinates":[8.10996,47.170624],"type":"Point"},"properties":{"osm_id":"2531933312","tag":{"amenity":"waste_basket"}},"type":"Feature"},
	{"geometry":{"coordinates":[8.109812,47.171026],"type":"Point"},"properties":{"osm_id":"2531933315","tag":{"amenity":"waste_basket"}},"type":"Feature"},
	{"geometry":{"coordinates":[8.108207,47.172197],"type":"Point"},"properties":{"osm_id":"2531933317","tag":{"amenity":"waste_basket"}},"type":"Feature"},
	{"geometry":{"coordinates":[8.108073,47.172284],"type":"Point"},"properties":{"osm_id":"2531933319","tag":{"amenity":"waste_basket"}},"type":"Feature"},
	{"geometry":{"coordinates":[8.107765,47.172598],"type":"Point"},"properties":{"osm_id":"2531933322","tag":{"amenity":"waste_basket"}},"type":"Feature"},
	{"geometry":{"coordinates":[8.106898,47.172522],"type":"Point"},"properties":{"osm_id":"2531933324","tag":{"amenity":"waste_basket"}},"type":"Feature"},
	{"geometry":{"coordinates":[8.106647,47.173116],"type":"Point"},"properties":{"osm_id":"2531933327","tag":{"amenity":"waste_basket"}},"type":"Feature"},
	{"geometry":{"coordinates":[8.104705,47.174227],"type":"Point"},"properties":{"osm_id":"2531933332","tag":{"amenity":"waste_basket"}},"type":"Feature"},
	{"geometry":{"coordinates":[8.10429,47.174221],"type":"Point"},"properties":{"osm_id":"2531933336","tag":{"amenity":"waste_basket"}},"type":"Feature"},
	{"geometry":{"coordinates":[8.103816,47.173814],"type":"Point"},"properties":{"osm_id":"2531933339","tag":{"amenity":"waste_basket"}},"type":"Feature"},
	{"geometry":{"coordinates":[8.104866,47.173835],"type":"Point"},"properties":{"osm_id":"2531933341","tag":{"amenity":"waste_basket"}},"type":"Feature"},
	{"geometry":{"coordinates":[8.10462,47.173862],"type":"Point"},"properties":{"osm_id":"2531933344","tag":{"amenity":"waste_basket"}},"type":"Feature"},
	{"geometry":{"coordinates":[8.104712,47.17355],"type":"Point"},"properties":{"osm_id":"2531933346","tag":{"amenity":"waste_basket"}},"type":"Feature"},
	{"geometry":{"coordinates":[8.104125,47.173432],"type":"Point"},"properties":{"osm_id":"2531933349","tag":{"amenity":"waste_basket"}},"type":"Feature"},
	{"geometry":{"coordinates":[8.104483,47.17336],"type":"Point"},"properties":{"osm_id":"2531933351","tag":{"amenity":"waste_basket"}},"type":"Feature"},
	{"geometry":{"coordinates":[8.10475,47.173476],"type":"Point"},"properties":{"osm_id":"2531933354","tag":{"amenity":"waste_basket"}},"type":"Feature"},
	{"geometry":{"coordinates":[8.104901,47.173301],"type":"Point"},"properties":{"osm_id":"2531933356","tag":{"amenity":"waste_basket"}},"type":"Feature"},
	{"geometry":{"coordinates":[8.105663,47.173064],"type":"Point"},"properties":{"osm_id":"2531933359","tag":{"amenity":"waste_basket"}},"type":"Feature"},
	{"geometry":{"coordinates":[8.106017,47.173064],"type":"Point"},"properties":{"osm_id":"2531933361","tag":{"amenity":"waste_basket"}},"type":"Feature"},
	{"geometry":{"coordinates":[8.105411,47.172541],"type":"Point"},"properties":{"osm_id":"2531933364","tag":{"amenity":"waste_basket"}},"type":"Feature"},
	{"geometry":{"coordinates":[8.106458,47.17263],"type":"Point"},"properties":{"osm_id":"2531933366","tag":{"amenity":"waste_basket"}},"type":"Feature"},
	{"geometry":{"coordinates":[8.107109,47.170702],"type":"Point"},"properties":{"osm_id":"2531933369","tag":{"amenity":"waste_basket"}},"type":"Feature"},
	{"geometry":{"coordinates":[8.106478,47.169625],"type":"Point"},"properties":{"osm_id":"2531933374","tag":{"amenity":"waste_basket"}},"type":"Feature"},
	{"geometry":{"coordinates":[8.106913,47.169584],"type":"Point"},"properties":{"osm_id":"2531933376","tag":{"amenity":"waste_basket"}},"type":"Feature"},
	{"geometry":{"coordinates":[8.107746,47.168852],"type":"Point"},"properties":{"osm_id":"2531934303","tag":{"amenity":"waste_basket"}},"type":"Feature"},
	{"geometry":{"coordinates":[8.107553,47.168755],"type":"Point"},"properties":{"osm_id":"2531934304","tag":{"amenity":"waste_basket"}},"type":"Feature"},
	{"geometry":{"coordinates":[8.107925,47.168629],"type":"Point"},"properties":{"osm_id":"2531934305","tag":{"amenity":"waste_basket"}},"type":"Feature"},
	{"geometry":{"coordinates":[8.107443,47.168378],"type":"Point"},"properties":{"osm_id":"2532008808","tag":{"amenity":"waste_basket"}},"type":"Feature"},
	{"geometry":{"coordinates":[8.108064,47.168384],"type":"Point"},"properties":{"osm_id":"2532008809","tag":{"amenity":"waste_basket"}},"type":"Feature"},
	{"geometry":{"coordinates":[8.107966,47.16835],"type":"Point"},"properties":{"osm_id":"2532008810","tag":{"amenity":"waste_basket"}},"type":"Feature"},
	{"geometry":{"coordinates":[8.107811,47.168433],"type":"Point"},"properties":{"osm_id":"2532008811","tag":{"amenity":"waste_basket"}},"type":"Feature"},
	{"geometry":{"coordinates":[8.1007,47.168567],"type":"Point"},"properties":{"osm_id":"2532008813","tag":{"amenity":"waste_basket"}},"type":"Feature"},
	{"geometry":{"coordinates":[8.098932,47.169987],"type":"Point"},"properties":{"osm_id":"2532008814","tag":{"amenity":"waste_basket"}},"type":"Feature"},
	{"geometry":{"coordinates":[8.098818,47.170086],"type":"Point"},"properties":{"osm_id":"2532008815","tag":{"amenity":"waste_basket"}},"type":"Feature"},
	{"geometry":{"coordinates":[8.098579,47.170052],"type":"Point"},"properties":{"osm_id":"2532008816","tag":{"amenity":"waste_basket"}},"type":"Feature"},
	{"geometry":{"coordinates":[8.098472,47.170157],"type":"Point"},"properties":{"osm_id":"2532008817","tag":{"amenity":"waste_basket"}},"type":"Feature"},
	{"geometry":{"coordinates":[8.098402,47.170492],"type":"Point"},"properties":{"osm_id":"2532008818","tag":{"amenity":"waste_basket"}},"type":"Feature"},
	{"geometry":{"coordinates":[8.097873,47.170961],"type":"Point"},"properties":{"osm_id":"2532008819","tag":{"amenity":"waste_basket"}},"type":"Feature"},
	{"geometry":{"coordinates":[8.098743,47.171223],"type":"Point"},"properties":{"osm_id":"2532008820","tag":{"amenity":"waste_basket"}},"type":"Feature"},
	{"geometry":{"coordinates":[8.099155,47.171383],"type":"Point"},"properties":{"osm_id":"2532008821","tag":{"amenity":"waste_basket"}},"type":"Feature"},
	{"geometry":{"coordinates":[8.100465,47.171782],"type":"Point"},"properties":{"osm_id":"2532008823","tag":{"amenity":"waste_basket"}},"type":"Feature"},
	{"geometry":{"coordinates":[8.101476,47.172356],"type":"Point"},"properties":{"osm_id":"2532008824","tag":{"amenity":"waste_basket"}},"type":"Feature"},
	{"geometry":{"coordinates":[8.101519,47.172743],"type":"Point"},"properties":{"osm_id":"2532008825","tag":{"amenity":"waste_basket"}},"type":"Feature"},
	{"geometry":{"coordinates":[8.10127,47.172708],"type":"Point"},"properties":{"osm_id":"2532008826","tag":{"amenity":"waste_basket"}},"type":"Feature"},
	{"geometry":{"coordinates":[8.105184,47.172486],"type":"Point"},"properties":{"osm_id":"2532008827","tag":{"amenity":"waste_basket"}},"type":"Feature"},
	{"geometry":{"coordinates":[8.118309,47.16299],"type":"Point"},"properties":{"osm_id":"2565054050","tag":{"amenity":"waste_basket"}},"type":"Feature"},
	{"geometry":{"coordinates":[8.118976,47.166275],"type":"Point"},"properties":{"osm_id":"2565054136","tag":{"amenity":"waste_basket"}},"type":"Feature"},
	{"geometry":{"coordinates":[8.119116,47.166553],"type":"Point"},"properties":{"osm_id":"2565054168","tag":{"amenity":"waste_basket"}},"type":"Feature"},
	{"geometry":{"coordinates":[8.119275,47.166851],"type":"Point"},"properties":{"osm_id":"2565054186","tag":{"amenity":"waste_basket"}},"type":"Feature"},
	{"geometry":{"coordinates":[8.119484,47.167166],"type":"Point"},"properties":{"osm_id":"2565054207","tag":{"amenity":"waste_basket"}},"type":"Feature"},
	{"geometry":{"coordinates":[8.119789,47.167513],"type":"Point"},"properties":{"osm_id":"2565054215","tag":{"amenity":"waste_basket"}},"type":"Feature"},
	{"geometry":{"coordinates":[8.120501,47.16924],"type":"Point"},"properties":{"osm_id":"2565054280","tag":{"amenity":"waste_basket"}},"type":"Feature"},
	{"geometry":{"coordinates":[8.125733,47.16955],"type":"Point"},"properties":{"osm_id":"2565054287","tag":{"amenity":"waste_basket"}},"type":"Feature"},
	{"geometry":{"coordinates":[8.125336,47.169678],"type":"Point"},"properties":{"osm_id":"2565054307","tag":{"amenity":"waste_basket"}},"type":"Feature"},
	{"geometry":{"coordinates":[8.12511,47.169773],"type":"Point"},"properties":{"osm_id":"2565054329","tag":{"amenity":"waste_basket"}},"type":"Feature"},
	{"geometry":{"coordinates":[8.126089,47.169801],"type":"Point"},"properties":{"osm_id":"2565054337","tag":{"amenity":"waste_basket"}},"type":"Feature"},
	{"geometry":{"coordinates":[8.12385,47.170275],"type":"Point"},"properties":{"osm_id":"2565054357","tag":{"amenity":"waste_basket"}},"type":"Feature"},
	{"geometry":{"coordinates":[8.119139,47.171003],"type":"Point"},"properties":{"osm_id":"2565054430","tag":{"amenity":"waste_basket"}},"type":"Feature"},
	{"geometry":{"coordinates":[8.124047,47.17117],"type":"Point"},"properties":{"osm_id":"2565054468","tag":{"amenity":"waste_basket"}},"type":"Feature"},
	{"geometry":{"coordinates":[8.11914,47.171195],"type":"Point"},"properties":{"osm_id":"2565054480","tag":{"amenity":"waste_basket"}},"type":"Feature"},
	{"geometry":{"coordinates":[8.121904,47.171779],"type":"Point"},"properties":{"osm_id":"2565054562","tag":{"amenity":"waste_basket"}},"type":"Feature"},
	{"geometry":{"coordinates":[8.121598,47.171833],"type":"Point"},"properties":{"osm_id":"2565054575","tag":{"amenity":"waste_basket"}},"type":"Feature"},
	{"geometry":{"coordinates":[8.121555,47.171833],"type":"Point"},"properties":{"osm_id":"2565054580","tag":{"amenity":"waste_basket"}},"type":"Feature"},
	{"geometry":{"coordinates":[8.121194,47.172108],"type":"Point"},"properties":{"osm_id":"2565054648","tag":{"amenity":"waste_basket"}},"type":"Feature"},
	{"geometry":{"coordinates":[8.12207,47.17269],"type":"Point"},"properties":{"osm_id":"2565054706","tag":{"amenity":"waste_basket"}},"type":"Feature"},
	{"geometry":{"coordinates":[8.122124,47.172807],"type":"Point"},"properties":{"osm_id":"2565054730","tag":{"amenity":"waste_basket"}},"type":"Feature"},
	{"geometry":{"coordinates":[8.122579,47.173166],"type":"Point"},"properties":{"osm_id":"2565054877","tag":{"amenity":"waste_basket"}},"type":"Feature"},
	{"geometry":{"coordinates":[8.122513,47.173171],"type":"Point"},"properties":{"osm_id":"2565054882","tag":{"amenity":"waste_basket"}},"type":"Feature"},
	{"geometry":{"coordinates":[8.11994,47.173211],"type":"Point"},"properties":{"osm_id":"2565054913","tag":{"amenity":"waste_basket"}},"type":"Feature"},
	{"geometry":{"coordinates":[8.123014,47.173326],"type":"Point"},"properties":{"osm_id":"2565055011","tag":{"amenity":"waste_basket"}},"type":"Feature"},
	{"geometry":{"coordinates":[8.123458,47.173385],"type":"Point"},"properties":{"osm_id":"2565055053","tag":{"amenity":"waste_basket"}},"type":"Feature"},
	{"geometry":{"coordinates":[8.123341,47.173495],"type":"Point"},"properties":{"osm_id":"2565055099","tag":{"amenity":"waste_basket"}},"type":"Feature"},
	{"geometry":{"coordinates":[8.123762,47.173577],"type":"Point"},"properties":{"osm_id":"2565055135","tag":{"amenity":"waste_basket"}},"type":"Feature"},
	{"geometry":{"coordinates":[8.123551,47.173604],"type":"Point"},"properties":{"osm_id":"2565055175","tag":{"amenity":"waste_basket"}},"type":"Feature"},
	{"geometry":{"coordinates":[8.123759,47.173721],"type":"Point"},"properties":{"osm_id":"2565055230","tag":{"amenity":"waste_basket"}},"type":"Feature"},
	{"geometry":{"coordinates":[8.120805,47.173915],"type":"Point"},"properties":{"osm_id":"2565055248","tag":{"amenity":"waste_basket"}},"type":"Feature"},
	{"geometry":{"coordinates":[8.121134,47.174004],"type":"Point"},"properties":{"osm_id":"2565055310","tag":{"amenity":"waste_basket"}},"type":"Feature"},
	{"geometry":{"coordinates":[8.124168,47.174023],"type":"Point"},"properties":{"osm_id":"2565055319","tag":{"amenity":"waste_basket"}},"type":"Feature"},
	{"geometry":{"coordinates":[8.124383,47.17419],"type":"Point"},"properties":{"osm_id":"2565055397","tag":{"amenity":"waste_basket"}},"type":"Feature"},
	{"geometry":{"coordinates":[8.124637,47.174407],"type":"Point"},"properties":{"osm_id":"2565055420","tag":{"amenity":"waste_basket"}},"type":"Feature"},
	{"geometry":{"coordinates":[8.123806,47.174416],"type":"Point"},"properties":{"osm_id":"2565055430","tag":{"amenity":"waste_basket"}},"type":"Feature"},
	{"geometry":{"coordinates":[8.12489,47.17453],"type":"Point"},"properties":{"osm_id":"2565055469","tag":{"amenity":"waste_basket"}},"type":"Feature"},
	{"geometry":{"coordinates":[8.105891,47.186288],"type":"Point"},"properties":{"osm_id":"2703041982","tag":{"amenity":"recycling","recycling:clothes":"yes","recycling:glass":"yes"}},"type":"Feature"},
	{"geometry":{"coordinates":[8.092782,47.213866],"type":"Point"},"properties":{"osm_id":"2837825667","tag":{"amenity":"recycling","recycling_type":"container"}},"type":"Feature"},
	{"geometry":{"coordinates":[8.095777,47.169223],"type":"Point"},"properties":{"osm_id":"4374647620","tag":{"amenity":"recycling","recycling:cans":"yes","recycling:glass":"yes","recycling_type":"container"}},"type":"Feature"},
	{"geometry":{"coordinates":[8.098012,47.170738],"type":"Point"},"properties":{"osm_id":"4455593071","tag":{"amenity":"waste_basket"}},"type":"Feature"},
	{"geometry":{"coordinates":[8.098012,47.170659],"type":"Point"},"properties":{"osm_id":"4455593073","tag":{"amenity":"waste_basket"}},"type":"Feature"},
	{"geometry":{"coordinates":[8.100053,47.168726],"type":"Point"},"properties":{"osm_id":"4689358623","tag":{"amenity":"recycling","operator":"contex","recycling:clothes":"yes","recycling_type":"container"}},"type":"Feature"},
	{"geometry":{"coordinates":[8.112338,47.164344],"type":"Point"},"properties":{"osm_id":"4704144815","tag":{"amenity":"recycling","recycling:batteries":"yes","recycling:cans":"yes","recycling:glass":"yes","recycling:paper":"yes","recycling_type":"container"}},"type":"Feature"},
	{"geometry":{"coordinates":[8.128077,47.175951],"type":"Point"},"properties":{"osm_id":"4829012932","tag":{"amenity":"waste_basket"}},"type":"Feature"},
	{"geometry":{"coordinates":[8.138382,47.182866],"type":"Point"},"properties":{"osm_id":"6444437099","tag":{"amenity":"waste_basket"}},"type":"Feature"}
]
}
