{
"type": "FeatureCollection",
"features": [
	{"geometry":{"coordinates":[8.164035,47.152737],"type":"Point"},"properties":{"osm_id":"1434634092","tag":{"amenity":"recycling","recycling_type":"container"}},"type":"Feature"},
	{"geometry":{"coordinates":[8.115085,47.15758],"type":"Point"},"properties":{"osm_id":"1880981056","tag":{"amenity":"recycling","recycling_type":"container"}},"type":"Feature"},
	{"geometry":{"coordinates":[8.098876,47.100488],"type":"Point"},"properties":{"name":"Robidog","osm_id":"2322059759","tag":{"amenity":"waste_basket"}},"type":"Feature"},
	{"geometry":{"coordinates":[8.094115,47.116371],"type":"Point"},"properties":{"osm_id":"2476537168","tag":{"amenity":"recycling","recycling_type":"container"}},"type":"Feature"},
	{"geometry":{"coordinates":[8.136335,47.136241],"type":"Point"},"properties":{"osm_id":"2495455521","tag":{"amenity":"recycling","recycling_type":"centre"}},"type":"Feature"},
	{"geometry":{"coordinates":[8.135794,47.134993],"type":"Point"},"properties":{"osm_id":"2506304165","tag":{"amenity":"waste_disposal"}},"type":"Feature"},
	{"geometry":{"coordinates":[8.118007,47.159318],"type":"Point"},"properties":{"osm_id":"2565053971","tag":{"amenity":"waste_basket"}},"type":"Feature"},
	{"geometry":{"coordinates":[8.129954,47.139734],"type":"Point"},"properties":{"osm_id":"2630205987","tag":{"amenity":"waste_basket"}},"type":"Feature"},
	{"geometry":{"coordinates":[8.145742,47.113016],"type":"Point"},"properties":{"osm_id":"3190264903","tag":{"amenity":"waste_basket"}},"type":"Feature"},
	{"geometry":{"coordinates":[8.129508,47.138871],"type":"Point"},"properties":{"osm_id":"3505938872","tag":{"amenity":"recycling"}},"type":"Feature"},
	{"geometry":{"coordinates":[8.170102,47.151999],"type":"Point"},"properties":{"osm_id":"4715617006","tag":{"amenity":"waste_basket"}},"type":"Feature"}
]
}
