{
"type": "FeatureCollection",
"features": [
	{"geometry":{"coordinates":[-74.011372,40.727338],"type":"Point"},"properties":{"osm_id":"3196459607","tag":{"amenity":"waste_basket"}},"type":"Feature"},
	{"geometry":{"coordinates":[-74.011478,40.727106],"type":"Point"},"properties":{"osm_id":"3196459615","tag":{"amenity":"recycling","location":"overground","recycling:cans":"yes","recycling:paper":"yes","recycling_type":"container"}},"type":"Feature"},
	{"geometry":{"coordinates":[-74.011477,40.72712],"type":"Point"},"properties":{"osm_id":"3196459616","tag":{"amenity":"waste_basket"}},"type":"Feature"},
	{"geometry":{"coordinates":[-74.013168,40.726188],"type":"Point"},"properties":{"osm_id":"3196459668","tag":{"amenity":"waste_basket"}},"type":"Feature"},
	{"geometry":{"coordinates":[-74.012946,40.726165],"type":"Point"},"properties":{"osm_id":"3196459669","tag":{"amenity":"waste_basket"}},"type":"Feature"},
	{"geometry":{"coordinates":[-74.014244,40.726297],"type":"Point"},"properties":{"osm_id":"3196459673","tag":{"amenity":"waste_basket"}},"type":"Feature"},
	{"geometry":{"coordinates":[-74.013914,40.726263],"type":"Point"},"properties":{"osm_id":"3196459674","tag":{"amenity":"waste_basket"}},"type":"Feature"},
	{"geometry":{"coordinates":[-74.011569,40.725769],"type":"Point"},"properties":{"osm_id":"3196459686","tag":{"amenity":"waste_basket"}},"type":"Feature"},
	{"geometry":{"coordinates":[-74.011657,40.725293],"type":"Point"},"properties":{"osm_id":"3196459712","tag":{"amenity":"waste_basket"}},"type":"Feature"},
	{"geometry":{"coordinates":[-74.011681,40.725173],"type":"Point"},"properties":{"osm_id":"3196459713","tag":{"amenity":"waste_basket"}},"type":"Feature"},
	{"geometry":{"coordinates":[-74.012202,40.723051],"type":"Point"},"properties":{"osm_id":"3196459827","tag":{"amenity":"waste_basket"}},"type":"Feature"},
	{"geometry":{"coordinates":[-74.012324,40.722518],"type":"Point"},"properties":{"osm_id":"3196459862","tag":{"amenity":"waste_basket"}},"type":"Feature"},
	{"geometry":{"coordinates":[-74.012228,40.72245],"type":"Point"},"properties":{"osm_id":"3196459863","tag":{"amenity":"waste_basket"}},"type":"Feature"},
	{"geometry":{"coordinates":[-74.01225,40.72233],"type":"Point"},"properties":{"osm_id":"3196459864","tag":{"amenity":"waste_basket"}},"type":"Feature"},
	{"geometry":{"coordinates":[-74.012491,40.721462],"type":"Point"},"properties":{"osm_id":"3196459934","tag":{"amenity":"waste_basket"}},"type":"Feature"},
	{"geometry":{"coordinates":[-74.013902,40.720175],"type":"Point"},"properties":{"osm_id":"3196463016","tag":{"amenity":"recycling","location":"overground","recycling_type":"container"}},"type":"Feature"},
	{"geometry":{"coordinates":[-74.00425,40.725399],"type":"Point"},"properties":{"osm_id":"4722107406","tag":{"amenity":"waste_basket"}},"type":"Feature"},
	{"geometry":{"coordinates":[-74.066912,40.736677],"type":"Point"},"properties":{"osm_id":"6152927567","tag":{"amenity":"waste_basket","waste":"dog_excrement"}},"type":"Feature"},
	{"geometry":{"coordinates":[-74.06673,40.736968],"type":"Point"},"properties":{"osm_id":"6152927574","tag":{"amenity":"waste_basket","waste":"dog_excrement"}},"type":"Feature"},
	{"geometry":{"coordinates":[-74.006061,40.75604],"type":"Point"},"properties":{"osm_id":"6575692623","tag":{"amenity":"recycling","colour":"brown","recycling:compost":"yes","recycling_type":"container"}},"type":"Feature"},
	{"geometry":{"coordinates":[-74.025685,40.744978],"type":"Point"},"properties":{"osm_id":"6760256302","tag":{"amenity":"waste_basket"}},"type":"Feature"},
	{"geometry":{"coordinates":[-74.02491,40.745731],"type":"Point"},"properties":{"osm_id":"6760256306","tag":{"amenity":"waste_basket","colour":"black","material":"metal"}},"type":"Feature"},
	{"geometry":{"coordinates":[-74.024918,40.745737],"type":"Point"},"properties":{"osm_id":"6760256307","tag":{"amenity":"recycling","colour":"blue","recycling_type":"container"}},"type":"Feature"},
	{"geometry":{"coordinates":[-74.025264,40.745875],"type":"Point"},"properties":{"osm_id":"6760256313","tag":{"amenity":"waste_basket","colour":"black","material":"metal"}},"type":"Feature"},
	{"geometry":{"coordinates":[-74.023909,40.745793],"type":"Point"},"properties":{"osm_id":"6760256343","tag":{"amenity":"waste_basket","colour":"blacl","material":"metal"}},"type":"Feature"},
	{"geometry":{"coordinates":[-74.023906,40.745801],"type":"Point"},"properties":{"osm_id":"6760256344","tag":{"amenity":"recycling","colour":"blue","material":"metal","recycling_type":"container"}},"type":"Feature"},
	{"geometry":{"coordinates":[-74.024275,40.746583],"type":"Point"},"properties":{"osm_id":"6760256351","tag":{"amenity":"waste_basket","colour":"black","material":"metal"}},"type":"Feature"},
	{"geometry":{"coordinates":[-74.024979,40.74527],"type":"Point"},"properties":{"osm_id":"6760256411","tag":{"amenity":"recycling","colour":"blue","material":"metal","recycling_type":"container"}},"type":"Feature"},
	{"geometry":{"coordinates":[-74.024959,40.74529],"type":"Point"},"properties":{"osm_id":"6760256412","tag":{"amenity":"waste_basket","colour":"black","material":"metal"}},"type":"Feature"},
	{"geometry":{"coordinates":[-74.025169,40.744459],"type":"Point"},"properties":{"osm_id":"6760256438","tag":{"amenity":"waste_basket"}},"type":"Feature"},
	{"geometry":{"coordinates":[-74.025176,40.744461],"type":"Point"},"properties":{"osm_id":"6760256439","tag":{"amenity":"recycling","recycling:cans":"yes","recycling:paper":"yes","recycling:plastic_bottles":"yes","recycling_type":"container"}},"type":"Feature"},
	{"geometry":{"coordinates":[-74.025566,40.744194],"type":"Point"},"properties":{"osm_id":"6760256443","tag":{"amenity":"waste_basket","material":"concrete"}},"type":"Feature"},
	{"geometry":{"coordinates":[-74.026807,40.743768],"type":"Point"},"properties":{"osm_id":"6760366047","tag":{"amenity":"waste_disposal"}},"type":"Feature"},
	{"geometry":{"coordinates":[-74.026763,40.743755],"type":"Point"},"properties":{"osm_id":"6760366048","tag":{"amenity":"waste_disposal"}},"type":"Feature"},
	{"geometry":{"coordinates":[-74.026842,40.743737],"type":"Point"},"properties":{"osm_id":"6760366049","tag":{"amenity":"waste_disposal"}},"type":"Feature"},
	{"geometry":{"coordinates":[-74.026813,40.743738],"type":"Point"},"properties":{"osm_id":"6760366050","tag":{"amenity":"waste_disposal"}},"type":"Feature"},
	{"geometry":{"coordinates":[-74.026774,40.74373],"type":"Point"},"properties":{"osm_id":"6760366051","tag":{"amenity":"waste_disposal"}},"type":"Feature"},
	{"geometry":{"coordinates":[-74.027352,40.742286],"type":"Point"},"properties":{"osm_id":"6760366069","tag":{"amenity":"waste_basket","colour":"black","material":"metal"}},"type":"Feature"},
	{"geometry":{"coordinates":[-74.026893,40.743128],"type":"Point"},"properties":{"osm_id":"6760366072","tag":{"amenity":"waste_basket","colour":"black","material":"metal"}},"type":"Feature"},
	{"geometry":{"coordinates":[-74.02699,40.743779],"type":"Point"},"properties":{"osm_id":"6760366073","tag":{"amenity":"waste_basket"}},"type":"Feature"},
	{"geometry":{"coordinates":[-74.027203,40.74288],"type":"Point"},"properties":{"osm_id":"6760369785","tag":{"amenity":"recycling","recycling_type":"container"}},"type":"Feature"},
	{"geometry":{"coordinates":[-74.025809,40.744742],"type":"Point"},"properties":{"osm_id":"6760369788","tag":{"amenity":"waste_basket"}},"type":"Feature"},
	{"geometry":{"coordinates":[-74.02629,40.743743],"type":"Point"},"properties":{"osm_id":"6762427703","tag":{"amenity":"waste_basket","colour":"black","material":"metal"}},"type":"Feature"},
	{"geometry":{"coordinates":[-74.023771,40.743833],"type":"Point"},"properties":{"osm_id":"6765321181","tag":{"amenity":"waste_basket"}},"type":"Feature"},
	{"geometry":{"coordinates":[-74.023762,40.743832],"type":"Point"},"properties":{"osm_id":"6765321182","tag":{"amenity":"recycling","recycling_type":"container"}},"type":"Feature"},
	{"geometry":{"coordinates":[-74.022823,40.744791],"type":"Point"},"properties":{"osm_id":"6765321204","tag":{"amenity":"waste_basket"}},"type":"Feature"},
	{"geometry":{"coordinates":[-74.022787,40.744886],"type":"Point"},"properties":{"osm_id":"6765321210","tag":{"amenity":"waste_basket"}},"type":"Feature"},
	{"geometry":{"coordinates":[-74.022696,40.745139],"type":"Point"},"properties":{"osm_id":"6765321216","tag":{"amenity":"waste_basket"}},"type":"Feature"},
	{"geometry":{"coordinates":[-74.027822,40.741993],"type":"Point"},"properties":{"osm_id":"6765485491","tag":{"amenity":"waste_basket","colour":"black","material":"metal"}},"type":"Feature"},
	{"geometry":{"coordinates":[-74.027873,40.742001],"type":"Point"},"properties":{"osm_id":"6765485492","tag":{"amenity":"waste_basket","colour":"black","material":"metal"}},"type":"Feature"},
	{"geometry":{"coordinates":[-74.028133,40.741083],"type":"Point"},"properties":{"osm_id":"6765485515","tag":{"amenity":"waste_basket"}},"type":"Feature"},
	{"geometry":{"coordinates":[-74.024731,40.745402],"type":"Point"},"properties":{"osm_id":"6767976956","tag":{"amenity":"waste_basket","colour":"black","material":"metal"}},"type":"Feature"},
	{"geometry":{"coordinates":[-74.026852,40.742749],"type":"Point"},"properties":{"osm_id":"6768369002","tag":{"amenity":"waste_basket","colour":"black","material":"metal"}},"type":"Feature"},
	{"geometry":{"coordinates":[-74.026868,40.742751],"type":"Point"},"properties":{"osm_id":"6768369003","tag":{"amenity":"recycling","colour":"blue","recycling_type":"container"}},"type":"Feature"},
	{"geometry":{"coordinates":[-74.027517,40.741791],"type":"Point"},"properties":{"osm_id":"6768369023","tag":{"amenity":"waste_basket"}},"type":"Feature"},
	{"geometry":{"coordinates":[-74.024685,40.746785],"type":"Point"},"properties":{"osm_id":"6770438539","tag":{"amenity":"waste_basket","colour":"black","material":"metal"}},"type":"Feature"},
	{"geometry":{"coordinates":[-74.032397,40.741956],"type":"Point"},"properties":{"osm_id":"6770506662","tag":{"amenity":"waste_basket","colour":"black"}},"type":"Feature"},
	{"geometry":{"coordinates":[-74.025258,40.744658],"type":"Point"},"properties":{"osm_id":"6770802229","tag":{"amenity":"waste_basket","material":"metal"}},"type":"Feature"},
	{"geometry":{"coordinates":[-74.025268,40.744628],"type":"Point"},"properties":{"osm_id":"6770802230","tag":{"amenity":"recycling","recycling_type":"container"}},"type":"Feature"},
	{"geometry":{"coordinates":[-74.027964,40.741434],"type":"Point"},"properties":{"osm_id":"6779511440","tag":{"amenity":"waste_basket"}},"type":"Feature"},
	{"geometry":{"coordinates":[-74.027713,40.741127],"type":"Point"},"properties":{"osm_id":"6779511443","tag":{"amenity":"waste_basket"}},"type":"Feature"},
	{"geometry":{"coordinates":[-74.025804,40.7405],"type":"Point"},"properties":{"osm_id":"6793444512","tag":{"amenity":"recycling","recycling_type":"container"}},"type":"Feature"},
	{"geometry":{"coordinates":[-74.025813,40.740497],"type":"Point"},"properties":{"osm_id":"6793444513","tag":{"amenity":"waste_basket"}},"type":"Feature"},
	{"geometry":{"coordinates":[-74.027809,40.740892],"type":"Point"},"properties":{"osm_id":"6797502842","tag":{"amenity":"waste_basket"}},"type":"Feature"},
	{"geometry":{"coordinates":[-74.027703,40.740988],"type":"Point"},"properties":{"osm_id":"6797504903","tag":{"amenity":"waste_basket"}},"type":"Feature"},
	{"geometry":{"coordinates":[-74.029351,40.738436],"type":"Point"},"properties":{"osm_id":"6799740799","tag":{"amenity":"waste_basket","colour":"black","material":"metal"}},"type":"Feature"},
	{"geometry":{"coordinates":[-74.030955,40.7376],"type":"Point"},"properties":{"osm_id":"6799740849","tag":{"amenity":"waste_basket"}},"type":"Feature"},
	{"geometry":{"coordinates":[-74.030952,40.73761],"type":"Point"},"properties":{"osm_id":"6799740850","tag":{"amenity":"recycling","recycling_type":"container"}},"type":"Feature"},
	{"geometry":{"coordinates":[-74.030753,40.737582],"type":"Point"},"properties":{"osm_id":"6799740851","tag":{"amenity":"recycling","recycling_type":"container"}},"type":"Feature"},
	{"geometry":{"coordinates":[-74.030751,40.737592],"type":"Point"},"properties":{"osm_id":"6799740852","tag":{"amenity":"waste_basket"}},"type":"Feature"},
	{"geometry":{"coordinates":[-74.029356,40.735838],"type":"Point"},"properties":{"osm_id":"6802746952","tag":{"amenity":"waste_basket"}},"type":"Feature"},
	{"geometry":{"coordinates":[-74.029367,40.73584],"type":"Point"},"properties":{"osm_id":"6802746953","tag":{"amenity":"recycling","recycling_type":"container"}},"type":"Feature"},
	{"geometry":{"coordinates":[-74.030069,40.736649],"type":"Point"},"properties":{"osm_id":"6802746959","tag":{"amenity":"recycling","recycling_type":"container"}},"type":"Feature"},
	{"geometry":{"coordinates":[-74.030071,40.736639],"type":"Point"},"properties":{"osm_id":"6802746960","tag":{"amenity":"waste_basket"}},"type":"Feature"},
	{"geometry":{"coordinates":[-74.031041,40.737329],"type":"Point"},"properties":{"osm_id":"6802747007","tag":{"amenity":"waste_basket"}},"type":"Feature"},
	{"geometry":{"coordinates":[-74.031037,40.737341],"type":"Point"},"properties":{"osm_id":"6802747008","tag":{"amenity":"recycling","recycling_type":"centre"}},"type":"Feature"},
	{"geometry":{"coordinates":[-74.030839,40.737294],"type":"Point"},"properties":{"osm_id":"6802747009","tag":{"amenity":"waste_basket"}},"type":"Feature"},
	{"geometry":{"coordinates":[-74.030841,40.737287],"type":"Point"},"properties":{"osm_id":"6802747010","tag":{"amenity":"recycling","recycling_type":"centre"}},"type":"Feature"},
	{"geometry":{"coordinates":[-74.03045,40.738588],"type":"Point"},"properties":{"osm_id":"6802747017","tag":{"amenity":"recycling","recycling_type":"container"}},"type":"Feature"},
	{"geometry":{"coordinates":[-74.030448,40.738595],"type":"Point"},"properties":{"osm_id":"6802747018","tag":{"amenity":"waste_basket"}},"type":"Feature"},
	{"geometry":{"coordinates":[-74.030639,40.73864],"type":"Point"},"properties":{"osm_id":"6802747019","tag":{"amenity":"waste_basket"}},"type":"Feature"},
	{"geometry":{"coordinates":[-74.030634,40.738647],"type":"Point"},"properties":{"osm_id":"6802747020","tag":{"amenity":"recycling","recycling_type":"container"}},"type":"Feature"},
	{"geometry":{"coordinates":[-74.030369,40.73885],"type":"Point"},"properties":{"osm_id":"6802747022","tag":{"amenity":"recycling","recycling_type":"container"}},"type":"Feature"},
	{"geometry":{"coordinates":[-74.030365,40.73886],"type":"Point"},"properties":{"osm_id":"6802747023","tag":{"amenity":"waste_basket"}},"type":"Feature"},
	{"geometry":{"coordinates":[-74.030261,40.739895],"type":"Point"},"properties":{"osm_id":"6802747028","tag":{"amenity":"waste_basket"}},"type":"Feature"},
	{"geometry":{"coordinates":[-74.03026,40.739904],"type":"Point"},"properties":{"osm_id":"6802747029","tag":{"amenity":"recycling","recycling_type":"container"}},"type":"Feature"},
	{"geometry":{"coordinates":[-74.029968,40.740174],"type":"Point"},"properties":{"osm_id":"6802747034","tag":{"amenity":"recycling","recycling_type":"container"}},"type":"Feature"},
	{"geometry":{"coordinates":[-74.029965,40.740186],"type":"Point"},"properties":{"osm_id":"6802747035","tag":{"amenity":"waste_basket"}},"type":"Feature"},
	{"geometry":{"coordinates":[-74.029877,40.741184],"type":"Point"},"properties":{"osm_id":"6802747044","tag":{"amenity":"waste_basket"}},"type":"Feature"},
	{"geometry":{"coordinates":[-74.029875,40.741193],"type":"Point"},"properties":{"osm_id":"6802747045","tag":{"amenity":"recycling","recycling_type":"container"}},"type":"Feature"},
	{"geometry":{"coordinates":[-74.02962,40.742034],"type":"Point"},"properties":{"osm_id":"6802747054","tag":{"amenity":"waste_basket"}},"type":"Feature"},
	{"geometry":{"coordinates":[-74.029617,40.742047],"type":"Point"},"properties":{"osm_id":"6802747055","tag":{"amenity":"recycling","recycling_type":"container"}},"type":"Feature"},
	{"geometry":{"coordinates":[-74.029308,40.74232],"type":"Point"},"properties":{"osm_id":"6802747056","tag":{"amenity":"waste_basket"}},"type":"Feature"},
	{"geometry":{"coordinates":[-74.02931,40.742313],"type":"Point"},"properties":{"osm_id":"6802747057","tag":{"amenity":"recycling","recycling_type":"container"}},"type":"Feature"},
	{"geometry":{"coordinates":[-74.029242,40.743323],"type":"Point"},"properties":{"osm_id":"6802747062","tag":{"amenity":"waste_basket"}},"type":"Feature"},
	{"geometry":{"coordinates":[-74.02924,40.743333],"type":"Point"},"properties":{"osm_id":"6802747063","tag":{"amenity":"recycling","recycling_type":"container"}},"type":"Feature"},
	{"geometry":{"coordinates":[-74.028823,40.744645],"type":"Point"},"properties":{"osm_id":"6802747077","tag":{"amenity":"waste_basket"}},"type":"Feature"},
	{"geometry":{"coordinates":[-74.02882,40.744654],"type":"Point"},"properties":{"osm_id":"6802747078","tag":{"amenity":"recycling","recycling_type":"container"}},"type":"Feature"},
	{"geometry":{"coordinates":[-74.027819,40.736394],"type":"Point"},"properties":{"osm_id":"6806128815","tag":{"amenity":"recycling","recycling_type":"container"}},"type":"Feature"},
	{"geometry":{"coordinates":[-74.027814,40.736409],"type":"Point"},"properties":{"osm_id":"6806128816","tag":{"amenity":"waste_basket"}},"type":"Feature"},
	{"geometry":{"coordinates":[-74.026351,40.741159],"type":"Point"},"properties":{"osm_id":"6806128901","tag":{"amenity":"waste_basket"}},"type":"Feature"},
	{"geometry":{"coordinates":[-74.026403,40.740953],"type":"Point"},"properties":{"osm_id":"6806128912","tag":{"amenity":"waste_basket"}},"type":"Feature"},
	{"geometry":{"coordinates":[-74.027741,40.736653],"type":"Point"},"properties":{"osm_id":"6806128981","tag":{"amenity":"recycling","recycling_type":"container"}},"type":"Feature"},
	{"geometry":{"coordinates":[-74.027738,40.736667],"type":"Point"},"properties":{"osm_id":"6806128982","tag":{"amenity":"waste_basket"}},"type":"Feature"},
	{"geometry":{"coordinates":[-74.027596,40.737122],"type":"Point"},"properties":{"osm_id":"6806128993","tag":{"amenity":"recycling","recycling_type":"container"}},"type":"Feature"},
	{"geometry":{"coordinates":[-74.027592,40.737135],"type":"Point"},"properties":{"osm_id":"6806128994","tag":{"amenity":"waste_basket"}},"type":"Feature"},
	{"geometry":{"coordinates":[-74.027649,40.736938],"type":"Point"},"properties":{"osm_id":"6806128995","tag":{"amenity":"recycling","recycling_type":"container"}},"type":"Feature"},
	{"geometry":{"coordinates":[-74.027645,40.736951],"type":"Point"},"properties":{"osm_id":"6806128996","tag":{"amenity":"waste_basket"}},"type":"Feature"},
	{"geometry":{"coordinates":[-74.027513,40.73739],"type":"Point"},"properties":{"osm_id":"6806129008","tag":{"amenity":"recycling","recycling_type":"container"}},"type":"Feature"},
	{"geometry":{"coordinates":[-74.02751,40.737399],"type":"Point"},"properties":{"osm_id":"6806129009","tag":{"amenity":"waste_basket"}},"type":"Feature"},
	{"geometry":{"coordinates":[-74.027426,40.737672],"type":"Point"},"properties":{"osm_id":"6806129016","tag":{"amenity":"recycling","recycling_type":"container"}},"type":"Feature"},
	{"geometry":{"coordinates":[-74.027423,40.737683],"type":"Point"},"properties":{"osm_id":"6806129017","tag":{"amenity":"waste_basket"}},"type":"Feature"},
	{"geometry":{"coordinates":[-74.027371,40.73787],"type":"Point"},"properties":{"osm_id":"6806129023","tag":{"amenity":"recycling","recycling_type":"container"}},"type":"Feature"},
	{"geometry":{"coordinates":[-74.027368,40.737879],"type":"Point"},"properties":{"osm_id":"6806129024","tag":{"amenity":"waste_basket"}},"type":"Feature"},
	{"geometry":{"coordinates":[-74.027314,40.738042],"type":"Point"},"properties":{"osm_id":"6806129033","tag":{"amenity":"recycling","recycling_type":"container"}},"type":"Feature"},
	{"geometry":{"coordinates":[-74.027312,40.738049],"type":"Point"},"properties":{"osm_id":"6806129034","tag":{"amenity":"waste_basket"}},"type":"Feature"},
	{"geometry":{"coordinates":[-74.02725,40.738271],"type":"Point"},"properties":{"osm_id":"6806129039","tag":{"amenity":"recycling","recycling_type":"container"}},"type":"Feature"},
	{"geometry":{"coordinates":[-74.027247,40.738282],"type":"Point"},"properties":{"osm_id":"6806129040","tag":{"amenity":"waste_basket"}},"type":"Feature"},
	{"geometry":{"coordinates":[-74.026994,40.739102],"type":"Point"},"properties":{"osm_id":"6806129065","tag":{"amenity":"waste_basket"}},"type":"Feature"},
	{"geometry":{"coordinates":[-74.026996,40.739094],"type":"Point"},"properties":{"osm_id":"6806129066","tag":{"amenity":"recycling","recycling_type":"container"}},"type":"Feature"},
	{"geometry":{"coordinates":[-74.027123,40.738686],"type":"Point"},"properties":{"osm_id":"6806129077","tag":{"amenity":"recycling","recycling_type":"container"}},"type":"Feature"},
	{"geometry":{"coordinates":[-74.02712,40.738695],"type":"Point"},"properties":{"osm_id":"6806129078","tag":{"amenity":"waste_basket"}},"type":"Feature"},
	{"geometry":{"coordinates":[-74.02686,40.739548],"type":"Point"},"properties":{"osm_id":"6806129082","tag":{"amenity":"recycling","recycling_type":"container"}},"type":"Feature"},
	{"geometry":{"coordinates":[-74.026858,40.739558],"type":"Point"},"properties":{"osm_id":"6806129083","tag":{"amenity":"waste_basket"}},"type":"Feature"},
	{"geometry":{"coordinates":[-74.026737,40.739956],"type":"Point"},"properties":{"osm_id":"6806129100","tag":{"amenity":"recycling","recycling_type":"container"}},"type":"Feature"},
	{"geometry":{"coordinates":[-74.026734,40.739965],"type":"Point"},"properties":{"osm_id":"6806129101","tag":{"amenity":"waste_basket"}},"type":"Feature"},
	{"geometry":{"coordinates":[-74.026616,40.740364],"type":"Point"},"properties":{"osm_id":"6806129112","tag":{"amenity":"recycling","recycling_type":"container"}},"type":"Feature"},
	{"geometry":{"coordinates":[-74.026611,40.740376],"type":"Point"},"properties":{"osm_id":"6806129113","tag":{"amenity":"waste_basket"}},"type":"Feature"},
	{"geometry":{"coordinates":[-74.03418,40.745072],"type":"Point"},"properties":{"osm_id":"6809102098","tag":{"amenity":"waste_disposal"}},"type":"Feature"},
	{"geometry":{"coordinates":[-74.024677,40.747512],"type":"Point"},"properties":{"osm_id":"7070161677","tag":{"amenity":"waste_disposal"}},"type":"Feature"},
	{"geometry":{"coordinates":[-74.024313,40.747322],"type":"Point"},"properties":{"osm_id":"7070163200","tag":{"amenity":"waste_disposal"}},"type":"Feature"},
	{"geometry":{"coordinates":[-74.025018,40.746105],"type":"Point"},"properties":{"osm_id":"7192168652","tag":{"amenity":"waste_basket"}},"type":"Feature"},
	{"geometry":{"coordinates":[-74.030927,40.752642],"type":"Point"},"properties":{"osm_id":"7276099263","tag":{"amenity":"waste_disposal"}},"type":"Feature"},
	{"geometry":{"coordinates":[-74.030944,40.752587],"type":"Point"},"properties":{"osm_id":"7276099264","tag":{"amenity":"waste_disposal"}},"type":"Feature"},
	{"geometry":{"coordinates":[-74.030952,40.752608],"type":"Point"},"properties":{"osm_id":"7276099265","tag":{"amenity":"waste_disposal"}},"type":"Feature"},
	{"geometry":{"coordinates":[-74.030945,40.752629],"type":"Point"},"properties":{"osm_id":"7276099266","tag":{"amenity":"waste_disposal"}},"type":"Feature"},
	{"geometry":{"coordinates":[-74.037507,40.737366],"type":"Point"},"properties":{"osm_id":"7293730068","tag":{"amenity":"waste_disposal"}},"type":"Feature"},
	{"geometry":{"coordinates":[-74.036353,40.751129],"type":"Point"},"properties":{"osm_id":"7304975287","tag":{"amenity":"waste_basket"}},"type":"Feature"},
	{"geometry":{"coordinates":[-74.030596,40.753373],"type":"Point"},"properties":{"osm_id":"7320815163","tag":{"amenity":"waste_disposal"}},"type":"Feature"},
	{"geometry":{"coordinates":[-74.030658,40.753382],"type":"Point"},"properties":{"osm_id":"7320815164","tag":{"amenity":"waste_disposal"}},"type":"Feature"}
]
}
