{
"type": "FeatureCollection",
"features": [
	{"geometry":{"coordinates":[-74.050888,4.755708],"type":"Point"},"properties":{"name":"basuras","osm_id":"1123496387","tag":{"amenity":"recycling"}},"type":"Feature"},
	{"geometry":{"coordinates":[-74.050705,4.755446],"type":"Point"},"properties":{"name":"basura","osm_id":"1123499682","tag":{"amenity":"recycling"}},"type":"Feature"},
	{"geometry":{"coordinates":[-74.050397,4.755526],"type":"Point"},"properties":{"name":"basura","osm_id":"1123499954","tag":{"amenity":"recycling"}},"type":"Feature"},
	{"geometry":{"coordinates":[-74.050105,4.755214],"type":"Point"},"properties":{"name":"basura","osm_id":"1123500089","tag":{"amenity":"recycling"}},"type":"Feature"},
	{"geometry":{"coordinates":[-74.038903,4.747928],"type":"Point"},"properties":{"osm_id":"1713638592","tag":{"amenity":"waste_basket"}},"type":"Feature"},
	{"geometry":{"coordinates":[-74.039418,4.748057],"type":"Point"},"properties":{"osm_id":"1713638595","tag":{"amenity":"waste_basket"}},"type":"Feature"},
	{"geometry":{"coordinates":[-74.039544,4.748295],"type":"Point"},"properties":{"osm_id":"1713638603","tag":{"amenity":"waste_basket"}},"type":"Feature"},
	{"geometry":{"coordinates":[-74.039102,4.747816],"type":"Point"},"properties":{"osm_id":"1713638619","tag":{"amenity":"waste_basket"}},"type":"Feature"},
	{"geometry":{"coordinates":[-74.039584,4.748137],"type":"Point"},"properties":{"osm_id":"1714731541","tag":{"amenity":"waste_basket"}},"type":"Feature"},
	{"geometry":{"coordinates":[-74.065728,4.74758],"type":"Point"},"properties":{"name":"Papeler\u00c3\u00ada Parvi","osm_id":"4110512097","tag":{"amenity":"waste_basket"}},"type":"Feature"},
	{"geometry":{"coordinates":[-74.064831,4.751556],"type":"Point"},"properties":{"osm_id":"6504719807","tag":{"amenity":"waste_basket"}},"type":"Feature"},
	{"geometry":{"coordinates":[-74.047546,4.760248],"type":"Point"},"properties":{"osm_id":"6898446439","tag":{"amenity":"waste_disposal"}},"type":"Feature"},
	{"geometry":{"coordinates":[-74.049727,4.757702],"type":"Point"},"properties":{"osm_id":"6898446451","tag":{"amenity":"waste_disposal"}},"type":"Feature"},
	{"geometry":{"coordinates":[-74.04955,4.757511],"type":"Point"},"properties":{"osm_id":"6898446457","tag":{"amenity":"waste_disposal"}},"type":"Feature"},
	{"geometry":{"coordinates":[-74.050188,4.758279],"type":"Point"},"properties":{"osm_id":"6898446465","tag":{"amenity":"waste_basket","waste":"trash"}},"type":"Feature"},
	{"geometry":{"coordinates":[-74.049656,4.758047],"type":"Point"},"properties":{"osm_id":"6898446479","tag":{"amenity":"waste_basket","waste":"trash"}},"type":"Feature"},
	{"geometry":{"coordinates":[-74.047571,4.76028],"type":"Point"},"properties":{"osm_id":"6898482418","tag":{"amenity":"waste_basket","waste":"trash"}},"type":"Feature"},
	{"geometry":{"coordinates":[-74.049889,4.75849],"type":"Point"},"properties":{"osm_id":"6898482432","tag":{"amenity":"waste_basket","waste":"trash"}},"type":"Feature"},
	{"geometry":{"coordinates":[-74.04924,4.757446],"type":"Point"},"properties":{"osm_id":"6898482437","tag":{"amenity":"waste_disposal"}},"type":"Feature"},
	{"geometry":{"coordinates":[-74.051673,4.746696],"type":"Point"},"properties":{"osm_id":"7038822818","tag":{"amenity":"waste_basket"}},"type":"Feature"},
	{"geometry":{"coordinates":[-74.052193,4.746937],"type":"Point"},"properties":{"osm_id":"7038822819","tag":{"amenity":"waste_basket"}},"type":"Feature"},
	{"geometry":{"coordinates":[-74.052589,4.747216],"type":"Point"},"properties":{"osm_id":"7038822820","tag":{"amenity":"waste_basket"}},"type":"Feature"},
	{"geometry":{"coordinates":[-74.052437,4.747324],"type":"Point"},"properties":{"osm_id":"7038822821","tag":{"amenity":"waste_basket"}},"type":"Feature"},
	{"geometry":{"coordinates":[-74.05353,4.74632],"type":"Point"},"properties":{"osm_id":"7038822822","tag":{"amenity":"waste_basket"}},"type":"Feature"},
	{"geometry":{"coordinates":[-74.05461,4.746001],"type":"Point"},"properties":{"osm_id":"7038822823","tag":{"amenity":"waste_basket"}},"type":"Feature"},
	{"geometry":{"coordinates":[-74.054194,4.746841],"type":"Point"},"properties":{"osm_id":"7038822824","tag":{"amenity":"waste_basket"}},"type":"Feature"},
	{"geometry":{"coordinates":[-74.050878,4.745963],"type":"Point"},"properties":{"osm_id":"7038822825","tag":{"amenity":"waste_basket"}},"type":"Feature"},
	{"geometry":{"coordinates":[-74.048336,4.746232],"type":"Point"},"properties":{"osm_id":"7038822828","tag":{"amenity":"waste_basket"}},"type":"Feature"},
	{"geometry":{"coordinates":[-74.048248,4.747023],"type":"Point"},"properties":{"osm_id":"7038822830","tag":{"amenity":"waste_basket"}},"type":"Feature"},
	{"geometry":{"coordinates":[-74.048307,4.746824],"type":"Point"},"properties":{"osm_id":"7038822831","tag":{"amenity":"waste_basket"}},"type":"Feature"},
	{"geometry":{"coordinates":[-74.048972,4.747402],"type":"Point"},"properties":{"osm_id":"7038822832","tag":{"amenity":"waste_basket"}},"type":"Feature"},
	{"geometry":{"coordinates":[-74.049302,4.748245],"type":"Point"},"properties":{"osm_id":"7038822833","tag":{"amenity":"waste_basket"}},"type":"Feature"},
	{"geometry":{"coordinates":[-74.050382,4.749068],"type":"Point"},"properties":{"osm_id":"7038822834","tag":{"amenity":"waste_basket"}},"type":"Feature"},
	{"geometry":{"coordinates":[-74.050465,4.74861],"type":"Point"},"properties":{"osm_id":"7038822835","tag":{"amenity":"waste_basket"}},"type":"Feature"},
	{"geometry":{"coordinates":[-74.051842,4.748682],"type":"Point"},"properties":{"osm_id":"7038822836","tag":{"amenity":"waste_basket"}},"type":"Feature"},
	{"geometry":{"coordinates":[-74.047704,4.745986],"type":"Point"},"properties":{"osm_id":"7038822838","tag":{"amenity":"waste_basket"}},"type":"Feature"},
	{"geometry":{"coordinates":[-74.047757,4.746152],"type":"Point"},"properties":{"osm_id":"7038822839","tag":{"amenity":"waste_basket"}},"type":"Feature"},
	{"geometry":{"coordinates":[-74.047625,4.746933],"type":"Point"},"properties":{"osm_id":"7038822840","tag":{"amenity":"waste_basket"}},"type":"Feature"},
	{"geometry":{"coordinates":[-74.047844,4.745496],"type":"Point"},"properties":{"osm_id":"7072947990","tag":{"amenity":"waste_basket"}},"type":"Feature"},
	{"geometry":{"coordinates":[-74.049737,4.746485],"type":"Point"},"properties":{"osm_id":"7116607589","tag":{"amenity":"waste_basket"}},"type":"Feature"},
	{"geometry":{"coordinates":[-74.049995,4.746532],"type":"Point"},"properties":{"osm_id":"7116607590","tag":{"amenity":"waste_basket"}},"type":"Feature"},
	{"geometry":{"coordinates":[-74.04871,4.749609],"type":"Point"},"properties":{"osm_id":"7116695534","tag":{"amenity":"waste_basket"}},"type":"Feature"},
	{"geometry":{"coordinates":[-74.048747,4.749411],"type":"Point"},"properties":{"osm_id":"7116695535","tag":{"amenity":"waste_basket"}},"type":"Feature"},
	{"geometry":{"coordinates":[-74.054468,4.74688],"type":"Point"},"properties":{"osm_id":"7489660011","tag":{"amenity":"waste_basket"}},"type":"Feature"},
	{"geometry":{"coordinates":[-74.054046,4.746601],"type":"Point"},"properties":{"osm_id":"7489660012","tag":{"amenity":"waste_basket"}},"type":"Feature"},
	{"geometry":{"coordinates":[-74.054156,4.745959],"type":"Point"},"properties":{"osm_id":"7489660171","tag":{"amenity":"waste_basket"}},"type":"Feature"},
	{"geometry":{"coordinates":[-74.054425,4.745986],"type":"Point"},"properties":{"osm_id":"7489660172","tag":{"amenity":"waste_basket"}},"type":"Feature"},
	{"geometry":{"coordinates":[-74.05439,4.746222],"type":"Point"},"properties":{"osm_id":"7489660173","tag":{"amenity":"waste_basket"}},"type":"Feature"},
	{"geometry":{"coordinates":[-74.04884,4.74521],"type":"Point"},"properties":{"osm_id":"7494644861","tag":{"amenity":"waste_basket"}},"type":"Feature"},
	{"geometry":{"coordinates":[-74.049226,4.745309],"type":"Point"},"properties":{"osm_id":"7494644862","tag":{"amenity":"waste_basket"}},"type":"Feature"},
	{"geometry":{"coordinates":[-74.049597,4.745355],"type":"Point"},"properties":{"osm_id":"7494644863","tag":{"amenity":"waste_basket"}},"type":"Feature"},
	{"geometry":{"coordinates":[-74.049633,4.745558],"type":"Point"},"properties":{"osm_id":"7494644866","tag":{"amenity":"waste_basket"}},"type":"Feature"},
	{"geometry":{"coordinates":[-74.048697,4.745145],"type":"Point"},"properties":{"osm_id":"7494644867","tag":{"amenity":"waste_basket"}},"type":"Feature"},
	{"geometry":{"coordinates":[-74.047939,4.745015],"type":"Point"},"properties":{"osm_id":"7494644869","tag":{"amenity":"waste_basket"}},"type":"Feature"},
	{"geometry":{"coordinates":[-74.050129,4.745526],"type":"Point"},"properties":{"osm_id":"7494644871","tag":{"amenity":"waste_basket"}},"type":"Feature"},
	{"geometry":{"coordinates":[-74.049884,4.745324],"type":"Point"},"properties":{"osm_id":"7494644873","tag":{"amenity":"waste_basket"}},"type":"Feature"},
	{"geometry":{"coordinates":[-74.049443,4.745219],"type":"Point"},"properties":{"osm_id":"7494734638","tag":{"amenity":"waste_basket"}},"type":"Feature"},
	{"geometry":{"coordinates":[-74.049045,4.745129],"type":"Point"},"properties":{"osm_id":"7494734639","tag":{"amenity":"waste_basket"}},"type":"Feature"},
	{"geometry":{"coordinates":[-74.048502,4.745037],"type":"Point"},"properties":{"osm_id":"7494734640","tag":{"amenity":"waste_basket"}},"type":"Feature"},
	{"geometry":{"coordinates":[-74.048137,4.744954],"type":"Point"},"properties":{"osm_id":"7494734641","tag":{"amenity":"waste_basket"}},"type":"Feature"},
	{"geometry":{"coordinates":[-74.050271,4.745409],"type":"Point"},"properties":{"osm_id":"7494734642","tag":{"amenity":"waste_basket"}},"type":"Feature"},
	{"geometry":{"coordinates":[-74.0507,4.745511],"type":"Point"},"properties":{"osm_id":"7494734643","tag":{"amenity":"waste_basket"}},"type":"Feature"},
	{"geometry":{"coordinates":[-74.05102,4.74558],"type":"Point"},"properties":{"osm_id":"7494734644","tag":{"amenity":"waste_basket"}},"type":"Feature"},
	{"geometry":{"coordinates":[-74.051521,4.745694],"type":"Point"},"properties":{"osm_id":"7494734645","tag":{"amenity":"waste_basket"}},"type":"Feature"},
	{"geometry":{"coordinates":[-74.052183,4.745845],"type":"Point"},"properties":{"osm_id":"7494734646","tag":{"amenity":"waste_basket"}},"type":"Feature"},
	{"geometry":{"coordinates":[-74.052843,4.745999],"type":"Point"},"properties":{"osm_id":"7494734647","tag":{"amenity":"waste_basket"}},"type":"Feature"},
	{"geometry":{"coordinates":[-74.053452,4.746171],"type":"Point"},"properties":{"osm_id":"7494734648","tag":{"amenity":"waste_basket"}},"type":"Feature"},
	{"geometry":{"coordinates":[-74.050878,4.746616],"type":"Point"},"properties":{"osm_id":"7495760325","tag":{"amenity":"waste_basket"}},"type":"Feature"},
	{"geometry":{"coordinates":[-74.052234,4.747238],"type":"Point"},"properties":{"osm_id":"7495760328","tag":{"amenity":"waste_basket"}},"type":"Feature"},
	{"geometry":{"coordinates":[-74.051837,4.746856],"type":"Point"},"properties":{"osm_id":"7495760329","tag":{"amenity":"waste_basket"}},"type":"Feature"},
	{"geometry":{"coordinates":[-74.051109,4.745758],"type":"Point"},"properties":{"osm_id":"7502526522","tag":{"amenity":"waste_basket"}},"type":"Feature"},
	{"geometry":{"coordinates":[-74.051094,4.746636],"type":"Point"},"properties":{"osm_id":"7515458073","tag":{"amenity":"waste_basket"}},"type":"Feature"},
	{"geometry":{"coordinates":[-74.058432,4.753413],"type":"Point"},"properties":{"osm_id":"7603287116","tag":{"amenity":"recycling","recycling_type":"container"}},"type":"Feature"}
]
}
