{
"type": "FeatureCollection",
"features": [
	{"geometry":{"coordinates":[-74.051822,4.672066],"type":"Point"},"properties":{"osm_id":"4070320689","tag":{"amenity":"waste_basket"}},"type":"Feature"},
	{"geometry":{"coordinates":[-74.053621,4.672959],"type":"Point"},"properties":{"osm_id":"4070320691","tag":{"amenity":"waste_basket"}},"type":"Feature"},
	{"geometry":{"coordinates":[-74.050398,4.671443],"type":"Point"},"properties":{"osm_id":"4070320692","tag":{"amenity":"waste_basket"}},"type":"Feature"},
	{"geometry":{"coordinates":[-74.082455,4.69694],"type":"Point"},"properties":{"osm_id":"4079434889","tag":{"amenity":"waste_basket"}},"type":"Feature"},
	{"geometry":{"coordinates":[-74.060578,4.709286],"type":"Point"},"properties":{"osm_id":"4080231430","tag":{"amenity":"waste_basket"}},"type":"Feature"},
	{"geometry":{"coordinates":[-74.082557,4.695907],"type":"Point"},"properties":{"osm_id":"4103950860","tag":{"amenity":"waste_basket"}},"type":"Feature"},
	{"geometry":{"coordinates":[-74.082437,4.695804],"type":"Point"},"properties":{"osm_id":"4103950861","tag":{"amenity":"waste_basket"}},"type":"Feature"},
	{"geometry":{"coordinates":[-74.082092,4.695514],"type":"Point"},"properties":{"osm_id":"4103950862","tag":{"amenity":"waste_basket"}},"type":"Feature"},
	{"geometry":{"coordinates":[-74.082532,4.695431],"type":"Point"},"properties":{"osm_id":"4103950863","tag":{"amenity":"waste_basket"}},"type":"Feature"},
	{"geometry":{"coordinates":[-74.046001,4.722234],"type":"Point"},"properties":{"osm_id":"4261487689","tag":{"amenity":"waste_basket"}},"type":"Feature"},
	{"geometry":{"coordinates":[-74.083287,4.677096],"type":"Point"},"properties":{"osm_id":"4684518589","tag":{"amenity":"waste_basket"}},"type":"Feature"},
	{"geometry":{"coordinates":[-74.072855,4.687597],"type":"Point"},"properties":{"osm_id":"4700329703","tag":{"amenity":"waste_basket"}},"type":"Feature"},
	{"geometry":{"coordinates":[-74.042046,4.701567],"type":"Point"},"properties":{"name":"ABRIGARTE","osm_id":"4895390640","tag":{"amenity":"recycling","recycling:clothes":"yes","recycling_type":"container"}},"type":"Feature"},
	{"geometry":{"coordinates":[-74.069405,4.658853],"type":"Point"},"properties":{"osm_id":"4991122926","tag":{"amenity":"waste_basket"}},"type":"Feature"},
	{"geometry":{"coordinates":[-74.07313,4.687204],"type":"Point"},"properties":{"osm_id":"5007680923","tag":{"addr:street":"Calle 98","amenity":"waste_basket"}},"type":"Feature"},
	{"geometry":{"coordinates":[-74.057698,4.675164],"type":"Point"},"properties":{"osm_id":"5067043326","tag":{"amenity":"waste_basket"}},"type":"Feature"},
	{"geometry":{"coordinates":[-74.05703,4.674688],"type":"Point"},"properties":{"osm_id":"5067043327","tag":{"amenity":"waste_basket"}},"type":"Feature"},
	{"geometry":{"coordinates":[-74.056022,4.674295],"type":"Point"},"properties":{"osm_id":"5067043329","tag":{"amenity":"waste_basket"}},"type":"Feature"},
	{"geometry":{"coordinates":[-74.058228,4.675438],"type":"Point"},"properties":{"osm_id":"5067062960","tag":{"amenity":"waste_disposal"}},"type":"Feature"},
	{"geometry":{"coordinates":[-74.057691,4.675161],"type":"Point"},"properties":{"osm_id":"5067062961","tag":{"amenity":"waste_disposal"}},"type":"Feature"},
	{"geometry":{"coordinates":[-74.057033,4.674848],"type":"Point"},"properties":{"osm_id":"5067062962","tag":{"amenity":"waste_disposal"}},"type":"Feature"},
	{"geometry":{"coordinates":[-74.056022,4.674295],"type":"Point"},"properties":{"osm_id":"5067062964","tag":{"amenity":"waste_disposal"}},"type":"Feature"},
	{"geometry":{"coordinates":[-74.057391,4.674521],"type":"Point"},"properties":{"osm_id":"5067080457","tag":{"amenity":"waste_basket"}},"type":"Feature"},
	{"geometry":{"coordinates":[-74.057768,4.674706],"type":"Point"},"properties":{"osm_id":"5067080458","tag":{"amenity":"waste_basket"}},"type":"Feature"},
	{"geometry":{"coordinates":[-74.064162,4.685221],"type":"Point"},"properties":{"name":"vidrios y aluminios rionegro","osm_id":"5227099375","tag":{"addr:city":"Bogot\u00c3\u00a1 D.C.","addr:street":"Carrera 57","amenity":"recycling","recycling_type":"centre"}},"type":"Feature"},
	{"geometry":{"coordinates":[-74.08344,4.689887],"type":"Point"},"properties":{"name":"Mi Tolima Chatarreria y Recicladora","osm_id":"5227205152","tag":{"addr:street":"Avenida Calle 80","amenity":"recycling"}},"type":"Feature"},
	{"geometry":{"coordinates":[-74.0643,4.685239],"type":"Point"},"properties":{"name":"Vdrios Y Aluminios Rionegro","osm_id":"5228643485","tag":{"addr:housenumber":"57-17","addr:street":"Calle 97","amenity":"recycling","recycling_type":"centre"}},"type":"Feature"},
	{"geometry":{"coordinates":[-74.062673,4.655155],"type":"Point"},"properties":{"osm_id":"6042197114","tag":{"amenity":"waste_basket"}},"type":"Feature"},
	{"geometry":{"coordinates":[-74.062566,4.655375],"type":"Point"},"properties":{"osm_id":"6042197125","tag":{"amenity":"waste_basket"}},"type":"Feature"},
	{"geometry":{"coordinates":[-74.048205,4.676909],"type":"Point"},"properties":{"osm_id":"6221663087","tag":{"amenity":"waste_basket"}},"type":"Feature"},
	{"geometry":{"coordinates":[-74.081049,4.701577],"type":"Point"},"properties":{"osm_id":"6374956532","tag":{"amenity":"waste_basket"}},"type":"Feature"},
	{"geometry":{"coordinates":[-74.047063,4.66981],"type":"Point"},"properties":{"osm_id":"6765324212","tag":{"amenity":"waste_basket"}},"type":"Feature"},
	{"geometry":{"coordinates":[-74.045137,4.668837],"type":"Point"},"properties":{"osm_id":"6765409960","tag":{"amenity":"waste_basket"}},"type":"Feature"},
	{"geometry":{"coordinates":[-74.050404,4.672406],"type":"Point"},"properties":{"osm_id":"6781081940","tag":{"amenity":"waste_basket"}},"type":"Feature"},
	{"geometry":{"coordinates":[-74.055059,4.673542],"type":"Point"},"properties":{"osm_id":"6786763640","tag":{"amenity":"waste_basket"}},"type":"Feature"},
	{"geometry":{"coordinates":[-74.050165,4.674741],"type":"Point"},"properties":{"osm_id":"6803026383","tag":{"amenity":"waste_basket"}},"type":"Feature"},
	{"geometry":{"coordinates":[-74.049212,4.671661],"type":"Point"},"properties":{"osm_id":"6803061534","tag":{"amenity":"waste_basket"}},"type":"Feature"},
	{"geometry":{"coordinates":[-74.050562,4.669423],"type":"Point"},"properties":{"osm_id":"6803074383","tag":{"amenity":"waste_basket"}},"type":"Feature"},
	{"geometry":{"coordinates":[-74.049465,4.671147],"type":"Point"},"properties":{"osm_id":"6803079017","tag":{"amenity":"waste_basket"}},"type":"Feature"},
	{"geometry":{"coordinates":[-74.048749,4.672521],"type":"Point"},"properties":{"osm_id":"6803116597","tag":{"amenity":"waste_basket"}},"type":"Feature"},
	{"geometry":{"coordinates":[-74.050043,4.670185],"type":"Point"},"properties":{"osm_id":"6803117915","tag":{"amenity":"waste_basket"}},"type":"Feature"},
	{"geometry":{"coordinates":[-74.054562,4.671367],"type":"Point"},"properties":{"osm_id":"6803117916","tag":{"amenity":"waste_basket"}},"type":"Feature"},
	{"geometry":{"coordinates":[-74.051828,4.66809],"type":"Point"},"properties":{"osm_id":"6803118226","tag":{"amenity":"waste_basket"}},"type":"Feature"},
	{"geometry":{"coordinates":[-74.049835,4.670485],"type":"Point"},"properties":{"osm_id":"6803118601","tag":{"amenity":"waste_basket"}},"type":"Feature"},
	{"geometry":{"coordinates":[-74.054873,4.671121],"type":"Point"},"properties":{"osm_id":"6803123714","tag":{"amenity":"waste_basket"}},"type":"Feature"},
	{"geometry":{"coordinates":[-74.050898,4.668947],"type":"Point"},"properties":{"osm_id":"6803128390","tag":{"amenity":"waste_basket"}},"type":"Feature"},
	{"geometry":{"coordinates":[-74.050852,4.660912],"type":"Point"},"properties":{"osm_id":"6835877148","tag":{"amenity":"waste_basket"}},"type":"Feature"},
	{"geometry":{"coordinates":[-74.049278,4.66939],"type":"Point"},"properties":{"osm_id":"7005113569","tag":{"amenity":"waste_basket"}},"type":"Feature"},
	{"geometry":{"coordinates":[-74.047779,4.669433],"type":"Point"},"properties":{"osm_id":"7188865670","tag":{"amenity":"waste_basket"}},"type":"Feature"},
	{"geometry":{"coordinates":[-74.047747,4.669019],"type":"Point"},"properties":{"osm_id":"7274333056","tag":{"amenity":"waste_basket"}},"type":"Feature"},
	{"geometry":{"coordinates":[-74.04797,4.669138],"type":"Point"},"properties":{"osm_id":"7274402025","tag":{"amenity":"waste_basket"}},"type":"Feature"},
	{"geometry":{"coordinates":[-74.04816,4.668811],"type":"Point"},"properties":{"osm_id":"7274402693","tag":{"amenity":"waste_basket"}},"type":"Feature"},
	{"geometry":{"coordinates":[-74.047654,4.669291],"type":"Point"},"properties":{"osm_id":"7288234467","tag":{"amenity":"waste_basket"}},"type":"Feature"}
]
}
