{
"type": "FeatureCollection",
"features": [
	{"geometry":{"coordinates":[-74.067079,4.627899],"type":"Point"},"properties":{"osm_id":"3393373086","tag":{"amenity":"waste_basket"}},"type":"Feature"},
	{"geometry":{"coordinates":[-74.066439,4.627188],"type":"Point"},"properties":{"osm_id":"3393373087","tag":{"amenity":"waste_basket"}},"type":"Feature"},
	{"geometry":{"coordinates":[-74.066061,4.627958],"type":"Point"},"properties":{"osm_id":"3393373088","tag":{"amenity":"waste_basket"}},"type":"Feature"},
	{"geometry":{"coordinates":[-74.066084,4.627807],"type":"Point"},"properties":{"osm_id":"3393373412","tag":{"amenity":"waste_basket"}},"type":"Feature"},
	{"geometry":{"coordinates":[-74.06596,4.628205],"type":"Point"},"properties":{"name":"Basura","osm_id":"3418417835","tag":{"amenity":"waste_basket"}},"type":"Feature"},
	{"geometry":{"coordinates":[-74.066169,4.630389],"type":"Point"},"properties":{"osm_id":"3419024309","tag":{"amenity":"waste_basket"}},"type":"Feature"},
	{"geometry":{"coordinates":[-74.067163,4.626482],"type":"Point"},"properties":{"osm_id":"3420658608","tag":{"amenity":"waste_basket"}},"type":"Feature"},
	{"geometry":{"coordinates":[-74.06734,4.626062],"type":"Point"},"properties":{"osm_id":"3420658609","tag":{"amenity":"waste_basket"}},"type":"Feature"},
	{"geometry":{"coordinates":[-74.067138,4.626904],"type":"Point"},"properties":{"osm_id":"3420658610","tag":{"amenity":"waste_basket"}},"type":"Feature"},
	{"geometry":{"coordinates":[-74.065505,4.627533],"type":"Point"},"properties":{"osm_id":"3420874193","tag":{"amenity":"waste_basket"}},"type":"Feature"},
	{"geometry":{"coordinates":[-74.065615,4.627069],"type":"Point"},"properties":{"osm_id":"3420874194","tag":{"amenity":"waste_basket"}},"type":"Feature"},
	{"geometry":{"coordinates":[-74.065687,4.627079],"type":"Point"},"properties":{"osm_id":"3420874993","tag":{"amenity":"waste_basket"}},"type":"Feature"},
	{"geometry":{"coordinates":[-74.065501,4.626011],"type":"Point"},"properties":{"osm_id":"3420874994","tag":{"amenity":"waste_basket"}},"type":"Feature"},
	{"geometry":{"coordinates":[-74.06549,4.625992],"type":"Point"},"properties":{"osm_id":"3420874995","tag":{"amenity":"waste_basket"}},"type":"Feature"},
	{"geometry":{"coordinates":[-74.075186,4.629324],"type":"Point"},"properties":{"osm_id":"3952989601","tag":{"amenity":"waste_basket"}},"type":"Feature"},
	{"geometry":{"coordinates":[-74.075149,4.629501],"type":"Point"},"properties":{"osm_id":"3952989604","tag":{"amenity":"waste_basket"}},"type":"Feature"},
	{"geometry":{"coordinates":[-74.075111,4.62984],"type":"Point"},"properties":{"osm_id":"3952989614","tag":{"amenity":"waste_basket"}},"type":"Feature"},
	{"geometry":{"coordinates":[-74.07515,4.630256],"type":"Point"},"properties":{"osm_id":"3952989636","tag":{"amenity":"waste_basket"}},"type":"Feature"},
	{"geometry":{"coordinates":[-74.07508,4.630353],"type":"Point"},"properties":{"osm_id":"3952989640","tag":{"amenity":"waste_basket"}},"type":"Feature"},
	{"geometry":{"coordinates":[-74.07508,4.630656],"type":"Point"},"properties":{"osm_id":"3952989649","tag":{"amenity":"waste_basket"}},"type":"Feature"},
	{"geometry":{"coordinates":[-74.075017,4.631008],"type":"Point"},"properties":{"osm_id":"3952989771","tag":{"amenity":"waste_basket"}},"type":"Feature"},
	{"geometry":{"coordinates":[-74.075023,4.631259],"type":"Point"},"properties":{"osm_id":"3952989782","tag":{"amenity":"waste_basket"}},"type":"Feature"},
	{"geometry":{"coordinates":[-74.0751,4.631537],"type":"Point"},"properties":{"osm_id":"3978105352","tag":{"amenity":"waste_basket"}},"type":"Feature"},
	{"geometry":{"coordinates":[-74.074938,4.631543],"type":"Point"},"properties":{"osm_id":"3978105356","tag":{"amenity":"waste_basket"}},"type":"Feature"},
	{"geometry":{"coordinates":[-74.075108,4.632732],"type":"Point"},"properties":{"osm_id":"3978585399","tag":{"amenity":"waste_basket"}},"type":"Feature"},
	{"geometry":{"coordinates":[-74.075138,4.632821],"type":"Point"},"properties":{"osm_id":"3978585429","tag":{"amenity":"waste_basket"}},"type":"Feature"},
	{"geometry":{"coordinates":[-74.075295,4.633344],"type":"Point"},"properties":{"osm_id":"3978585445","tag":{"amenity":"waste_basket"}},"type":"Feature"},
	{"geometry":{"coordinates":[-74.074984,4.631761],"type":"Point"},"properties":{"osm_id":"3978681313","tag":{"amenity":"waste_basket"}},"type":"Feature"},
	{"geometry":{"coordinates":[-74.074992,4.631875],"type":"Point"},"properties":{"osm_id":"3978681333","tag":{"amenity":"waste_basket"}},"type":"Feature"},
	{"geometry":{"coordinates":[-74.075124,4.632297],"type":"Point"},"properties":{"osm_id":"3978681347","tag":{"amenity":"waste_basket"}},"type":"Feature"},
	{"geometry":{"coordinates":[-74.075171,4.628959],"type":"Point"},"properties":{"osm_id":"3978836095","tag":{"amenity":"waste_basket"}},"type":"Feature"},
	{"geometry":{"coordinates":[-74.07455,4.625761],"type":"Point"},"properties":{"osm_id":"4004512564","tag":{"amenity":"waste_basket"}},"type":"Feature"},
	{"geometry":{"coordinates":[-74.074778,4.626071],"type":"Point"},"properties":{"osm_id":"4004512570","tag":{"amenity":"waste_basket"}},"type":"Feature"},
	{"geometry":{"coordinates":[-74.07501,4.626437],"type":"Point"},"properties":{"osm_id":"4004512577","tag":{"amenity":"waste_basket"}},"type":"Feature"},
	{"geometry":{"coordinates":[-74.075232,4.62693],"type":"Point"},"properties":{"osm_id":"4004512584","tag":{"amenity":"waste_basket"}},"type":"Feature"},
	{"geometry":{"coordinates":[-74.075307,4.62742],"type":"Point"},"properties":{"osm_id":"4004512585","tag":{"amenity":"waste_basket"}},"type":"Feature"},
	{"geometry":{"coordinates":[-74.075266,4.628301],"type":"Point"},"properties":{"osm_id":"4004513300","tag":{"amenity":"waste_basket"}},"type":"Feature"},
	{"geometry":{"coordinates":[-74.075158,4.628765],"type":"Point"},"properties":{"osm_id":"4004513309","tag":{"amenity":"waste_basket"}},"type":"Feature"},
	{"geometry":{"coordinates":[-74.062304,4.64981],"type":"Point"},"properties":{"osm_id":"4072288258","tag":{"amenity":"waste_basket"}},"type":"Feature"},
	{"geometry":{"coordinates":[-74.06305,4.64986],"type":"Point"},"properties":{"osm_id":"4072331807","tag":{"amenity":"waste_basket"}},"type":"Feature"},
	{"geometry":{"coordinates":[-74.062911,4.649924],"type":"Point"},"properties":{"osm_id":"4072331813","tag":{"amenity":"waste_basket"}},"type":"Feature"},
	{"geometry":{"coordinates":[-74.062711,4.650111],"type":"Point"},"properties":{"osm_id":"4072331837","tag":{"amenity":"waste_basket"}},"type":"Feature"},
	{"geometry":{"coordinates":[-74.062667,4.650191],"type":"Point"},"properties":{"osm_id":"4072331845","tag":{"amenity":"waste_basket"}},"type":"Feature"},
	{"geometry":{"coordinates":[-74.061456,4.649403],"type":"Point"},"properties":{"osm_id":"4072683557","tag":{"amenity":"waste_basket"}},"type":"Feature"},
	{"geometry":{"coordinates":[-74.061386,4.649501],"type":"Point"},"properties":{"osm_id":"4072683564","tag":{"amenity":"waste_basket"}},"type":"Feature"},
	{"geometry":{"coordinates":[-74.061715,4.649657],"type":"Point"},"properties":{"osm_id":"4072683576","tag":{"amenity":"waste_basket"}},"type":"Feature"},
	{"geometry":{"coordinates":[-74.061884,4.649191],"type":"Point"},"properties":{"osm_id":"4072717498","tag":{"amenity":"waste_basket"}},"type":"Feature"},
	{"geometry":{"coordinates":[-74.061639,4.649137],"type":"Point"},"properties":{"osm_id":"4072755254","tag":{"amenity":"waste_basket"}},"type":"Feature"},
	{"geometry":{"coordinates":[-74.061541,4.649275],"type":"Point"},"properties":{"osm_id":"4072755265","tag":{"amenity":"waste_basket"}},"type":"Feature"},
	{"geometry":{"coordinates":[-74.062784,4.649373],"type":"Point"},"properties":{"osm_id":"4072767195","tag":{"amenity":"waste_basket"}},"type":"Feature"},
	{"geometry":{"coordinates":[-74.062853,4.64939],"type":"Point"},"properties":{"osm_id":"4072767197","tag":{"amenity":"waste_basket"}},"type":"Feature"},
	{"geometry":{"coordinates":[-74.063006,4.649421],"type":"Point"},"properties":{"osm_id":"4072767200","tag":{"amenity":"waste_basket"}},"type":"Feature"},
	{"geometry":{"coordinates":[-74.063251,4.649471],"type":"Point"},"properties":{"osm_id":"4072767203","tag":{"amenity":"waste_basket"}},"type":"Feature"},
	{"geometry":{"coordinates":[-74.063344,4.649597],"type":"Point"},"properties":{"osm_id":"4072767229","tag":{"amenity":"waste_basket"}},"type":"Feature"},
	{"geometry":{"coordinates":[-74.063182,4.649883],"type":"Point"},"properties":{"osm_id":"4072767247","tag":{"amenity":"waste_basket"}},"type":"Feature"},
	{"geometry":{"coordinates":[-74.063298,4.649994],"type":"Point"},"properties":{"osm_id":"4072767251","tag":{"amenity":"waste_basket"}},"type":"Feature"},
	{"geometry":{"coordinates":[-74.067,4.604844],"type":"Point"},"properties":{"osm_id":"4080646845","tag":{"amenity":"waste_basket"}},"type":"Feature"},
	{"geometry":{"coordinates":[-74.066743,4.605317],"type":"Point"},"properties":{"osm_id":"4080646846","tag":{"amenity":"waste_basket"}},"type":"Feature"},
	{"geometry":{"coordinates":[-74.066769,4.605969],"type":"Point"},"properties":{"osm_id":"4082317437","tag":{"amenity":"waste_basket"}},"type":"Feature"},
	{"geometry":{"coordinates":[-74.065502,4.637102],"type":"Point"},"properties":{"osm_id":"4095716094","tag":{"amenity":"waste_basket"}},"type":"Feature"},
	{"geometry":{"coordinates":[-74.065147,4.637052],"type":"Point"},"properties":{"osm_id":"4095716095","tag":{"amenity":"waste_basket"}},"type":"Feature"},
	{"geometry":{"coordinates":[-74.065598,4.636766],"type":"Point"},"properties":{"osm_id":"4095716096","tag":{"amenity":"waste_basket"}},"type":"Feature"},
	{"geometry":{"coordinates":[-74.065681,4.636262],"type":"Point"},"properties":{"osm_id":"4095716097","tag":{"amenity":"waste_basket"}},"type":"Feature"},
	{"geometry":{"coordinates":[-74.066459,4.63191],"type":"Point"},"properties":{"osm_id":"4096483687","tag":{"amenity":"waste_disposal"}},"type":"Feature"},
	{"geometry":{"coordinates":[-74.066651,4.630397],"type":"Point"},"properties":{"osm_id":"4102607312","tag":{"amenity":"waste_basket"}},"type":"Feature"},
	{"geometry":{"coordinates":[-74.065662,4.636154],"type":"Point"},"properties":{"osm_id":"4104061443","tag":{"amenity":"waste_basket"}},"type":"Feature"},
	{"geometry":{"coordinates":[-74.065724,4.63594],"type":"Point"},"properties":{"osm_id":"4104061444","tag":{"amenity":"waste_basket"}},"type":"Feature"},
	{"geometry":{"coordinates":[-74.065778,4.635641],"type":"Point"},"properties":{"osm_id":"4104061445","tag":{"amenity":"waste_basket"}},"type":"Feature"},
	{"geometry":{"coordinates":[-74.065838,4.635311],"type":"Point"},"properties":{"osm_id":"4104061446","tag":{"amenity":"waste_basket"}},"type":"Feature"},
	{"geometry":{"coordinates":[-74.066819,4.629469],"type":"Point"},"properties":{"osm_id":"4105304537","tag":{"amenity":"waste_basket"}},"type":"Feature"},
	{"geometry":{"coordinates":[-74.06684,4.629332],"type":"Point"},"properties":{"osm_id":"4105304538","tag":{"amenity":"waste_basket"}},"type":"Feature"},
	{"geometry":{"coordinates":[-74.066892,4.62904],"type":"Point"},"properties":{"osm_id":"4105304539","tag":{"amenity":"waste_basket"}},"type":"Feature"},
	{"geometry":{"coordinates":[-74.066789,4.629666],"type":"Point"},"properties":{"osm_id":"4105304540","tag":{"amenity":"waste_basket"}},"type":"Feature"},
	{"geometry":{"coordinates":[-74.064914,4.628048],"type":"Point"},"properties":{"osm_id":"4113162729","tag":{"amenity":"waste_basket"}},"type":"Feature"},
	{"geometry":{"coordinates":[-74.064738,4.627335],"type":"Point"},"properties":{"osm_id":"4113165408","tag":{"amenity":"waste_basket"}},"type":"Feature"},
	{"geometry":{"coordinates":[-74.087573,4.572979],"type":"Point"},"properties":{"osm_id":"4117071321","tag":{"amenity":"waste_basket"}},"type":"Feature"},
	{"geometry":{"coordinates":[-74.087438,4.573601],"type":"Point"},"properties":{"osm_id":"4117071324","tag":{"amenity":"waste_basket"}},"type":"Feature"},
	{"geometry":{"coordinates":[-74.087947,4.573304],"type":"Point"},"properties":{"osm_id":"4117071325","tag":{"amenity":"waste_disposal"}},"type":"Feature"},
	{"geometry":{"coordinates":[-74.086383,4.649509],"type":"Point"},"properties":{"osm_id":"4571619291","tag":{"amenity":"waste_basket"}},"type":"Feature"},
	{"geometry":{"coordinates":[-74.087142,4.649765],"type":"Point"},"properties":{"osm_id":"4586318489","tag":{"amenity":"waste_basket"}},"type":"Feature"},
	{"geometry":{"coordinates":[-74.074029,4.613508],"type":"Point"},"properties":{"name":"Deposito Y Chatarreria","osm_id":"5136318162","tag":{"addr:street":"Avenida Caracas","amenity":"recycling","recycling_type":"centre"}},"type":"Feature"},
	{"geometry":{"coordinates":[-74.074042,4.61348],"type":"Point"},"properties":{"name":"Recicladora Los Delfines","osm_id":"5136323548","tag":{"addr:street":"Avenida Caracas","amenity":"recycling","recycling_type":"centre"}},"type":"Feature"},
	{"geometry":{"coordinates":[-74.082799,4.58809],"type":"Point"},"properties":{"name":"Comercializadoora De Recicial R & H","osm_id":"5206653275","tag":{"addr:street":"Diagonal 1A","amenity":"recycling","recycling_type":"centre"}},"type":"Feature"},
	{"geometry":{"coordinates":[-74.054104,4.607052],"type":"Point"},"properties":{"osm_id":"5614244124","tag":{"amenity":"recycling"}},"type":"Feature"},
	{"geometry":{"coordinates":[-74.053318,4.607234],"type":"Point"},"properties":{"osm_id":"5614244125","tag":{"amenity":"recycling"}},"type":"Feature"},
	{"geometry":{"coordinates":[-74.054827,4.603658],"type":"Point"},"properties":{"osm_id":"5614244126","tag":{"amenity":"recycling"}},"type":"Feature"},
	{"geometry":{"coordinates":[-74.054932,4.603661],"type":"Point"},"properties":{"osm_id":"5614244127","tag":{"amenity":"recycling"}},"type":"Feature"},
	{"geometry":{"coordinates":[-74.076759,4.620064],"type":"Point"},"properties":{"osm_id":"5614244132","tag":{"amenity":"recycling"}},"type":"Feature"},
	{"geometry":{"coordinates":[-74.053837,4.607301],"type":"Point"},"properties":{"osm_id":"5614244223","tag":{"amenity":"recycling"}},"type":"Feature"},
	{"geometry":{"coordinates":[-74.055158,4.605567],"type":"Point"},"properties":{"osm_id":"5614244322","tag":{"amenity":"recycling"}},"type":"Feature"},
	{"geometry":{"coordinates":[-74.055394,4.604112],"type":"Point"},"properties":{"osm_id":"5614244323","tag":{"amenity":"recycling"}},"type":"Feature"},
	{"geometry":{"coordinates":[-74.076899,4.619463],"type":"Point"},"properties":{"osm_id":"5614244324","tag":{"amenity":"recycling"}},"type":"Feature"},
	{"geometry":{"coordinates":[-74.055381,4.60432],"type":"Point"},"properties":{"osm_id":"5614244422","tag":{"amenity":"recycling"}},"type":"Feature"},
	{"geometry":{"coordinates":[-74.055291,4.603786],"type":"Point"},"properties":{"osm_id":"5614244423","tag":{"amenity":"recycling"}},"type":"Feature"},
	{"geometry":{"coordinates":[-74.077945,4.618953],"type":"Point"},"properties":{"osm_id":"5614245122","tag":{"amenity":"recycling"}},"type":"Feature"},
	{"geometry":{"coordinates":[-74.065457,4.626203],"type":"Point"},"properties":{"osm_id":"5866564918","tag":{"amenity":"waste_basket"}},"type":"Feature"},
	{"geometry":{"coordinates":[-74.065591,4.625632],"type":"Point"},"properties":{"osm_id":"5866587594","tag":{"amenity":"waste_disposal"}},"type":"Feature"},
	{"geometry":{"coordinates":[-74.065624,4.62564],"type":"Point"},"properties":{"osm_id":"5866587595","tag":{"amenity":"waste_disposal"}},"type":"Feature"},
	{"geometry":{"coordinates":[-74.065697,4.625338],"type":"Point"},"properties":{"osm_id":"5866587616","tag":{"amenity":"waste_disposal"}},"type":"Feature"},
	{"geometry":{"coordinates":[-74.065858,4.624691],"type":"Point"},"properties":{"osm_id":"5866589625","tag":{"amenity":"waste_basket"}},"type":"Feature"},
	{"geometry":{"coordinates":[-74.065855,4.624702],"type":"Point"},"properties":{"osm_id":"5866589626","tag":{"amenity":"waste_basket"}},"type":"Feature"},
	{"geometry":{"coordinates":[-74.065406,4.624929],"type":"Point"},"properties":{"osm_id":"5866589847","tag":{"amenity":"waste_disposal"}},"type":"Feature"},
	{"geometry":{"coordinates":[-74.065403,4.624917],"type":"Point"},"properties":{"osm_id":"5866589848","tag":{"amenity":"waste_disposal"}},"type":"Feature"},
	{"geometry":{"coordinates":[-74.065615,4.624576],"type":"Point"},"properties":{"osm_id":"5866589849","tag":{"amenity":"waste_disposal"}},"type":"Feature"},
	{"geometry":{"coordinates":[-74.065629,4.624586],"type":"Point"},"properties":{"osm_id":"5866589850","tag":{"amenity":"waste_disposal"}},"type":"Feature"},
	{"geometry":{"coordinates":[-74.065792,4.624975],"type":"Point"},"properties":{"osm_id":"5866589851","tag":{"amenity":"waste_disposal"}},"type":"Feature"},
	{"geometry":{"coordinates":[-74.065788,4.625013],"type":"Point"},"properties":{"osm_id":"5866589852","tag":{"amenity":"waste_disposal"}},"type":"Feature"},
	{"geometry":{"coordinates":[-74.065445,4.624127],"type":"Point"},"properties":{"osm_id":"5866594443","tag":{"amenity":"waste_basket"}},"type":"Feature"},
	{"geometry":{"coordinates":[-74.065286,4.624102],"type":"Point"},"properties":{"osm_id":"5866594444","tag":{"amenity":"waste_basket"}},"type":"Feature"},
	{"geometry":{"coordinates":[-74.065342,4.624249],"type":"Point"},"properties":{"osm_id":"5866594445","tag":{"amenity":"waste_basket"}},"type":"Feature"},
	{"geometry":{"coordinates":[-74.066066,4.623318],"type":"Point"},"properties":{"osm_id":"5866594515","tag":{"amenity":"waste_basket"}},"type":"Feature"},
	{"geometry":{"coordinates":[-74.066069,4.623391],"type":"Point"},"properties":{"osm_id":"5866594528","tag":{"amenity":"waste_basket"}},"type":"Feature"},
	{"geometry":{"coordinates":[-74.065921,4.623377],"type":"Point"},"properties":{"osm_id":"5866594530","tag":{"amenity":"waste_basket"}},"type":"Feature"},
	{"geometry":{"coordinates":[-74.065995,4.623897],"type":"Point"},"properties":{"osm_id":"5866594565","tag":{"amenity":"waste_disposal"}},"type":"Feature"},
	{"geometry":{"coordinates":[-74.065982,4.623896],"type":"Point"},"properties":{"osm_id":"5866594566","tag":{"amenity":"waste_disposal"}},"type":"Feature"},
	{"geometry":{"coordinates":[-74.065958,4.624085],"type":"Point"},"properties":{"osm_id":"5866594567","tag":{"amenity":"waste_disposal"}},"type":"Feature"},
	{"geometry":{"coordinates":[-74.065956,4.624094],"type":"Point"},"properties":{"osm_id":"5866594568","tag":{"amenity":"waste_disposal"}},"type":"Feature"},
	{"geometry":{"coordinates":[-74.064876,4.624532],"type":"Point"},"properties":{"osm_id":"5866594607","tag":{"amenity":"waste_basket"}},"type":"Feature"},
	{"geometry":{"coordinates":[-74.065045,4.62463],"type":"Point"},"properties":{"osm_id":"5866594608","tag":{"amenity":"waste_basket"}},"type":"Feature"},
	{"geometry":{"coordinates":[-74.065108,4.624623],"type":"Point"},"properties":{"osm_id":"5866594609","tag":{"amenity":"waste_basket"}},"type":"Feature"},
	{"geometry":{"coordinates":[-74.065267,4.624557],"type":"Point"},"properties":{"osm_id":"5866594610","tag":{"amenity":"waste_basket"}},"type":"Feature"},
	{"geometry":{"coordinates":[-74.065251,4.624649],"type":"Point"},"properties":{"osm_id":"5866594611","tag":{"amenity":"waste_basket"}},"type":"Feature"},
	{"geometry":{"coordinates":[-74.068512,4.61593],"type":"Point"},"properties":{"osm_id":"6042814281","tag":{"amenity":"waste_basket"}},"type":"Feature"},
	{"geometry":{"coordinates":[-74.068781,4.615566],"type":"Point"},"properties":{"osm_id":"6042814738","tag":{"amenity":"waste_basket"}},"type":"Feature"},
	{"geometry":{"coordinates":[-74.068662,4.615826],"type":"Point"},"properties":{"osm_id":"6042814739","tag":{"amenity":"waste_basket"}},"type":"Feature"},
	{"geometry":{"coordinates":[-74.067463,4.632569],"type":"Point"},"properties":{"osm_id":"6315246764","tag":{"amenity":"waste_basket"}},"type":"Feature"},
	{"geometry":{"coordinates":[-74.072032,4.633394],"type":"Point"},"properties":{"osm_id":"6316406116","tag":{"amenity":"waste_basket"}},"type":"Feature"},
	{"geometry":{"coordinates":[-74.068687,4.617913],"type":"Point"},"properties":{"osm_id":"6327919982","tag":{"amenity":"waste_basket"}},"type":"Feature"},
	{"geometry":{"coordinates":[-74.068705,4.618044],"type":"Point"},"properties":{"osm_id":"6327919983","tag":{"amenity":"waste_basket"}},"type":"Feature"},
	{"geometry":{"coordinates":[-74.067595,4.62458],"type":"Point"},"properties":{"osm_id":"6331309032","tag":{"amenity":"waste_basket"}},"type":"Feature"},
	{"geometry":{"coordinates":[-74.078954,4.630761],"type":"Point"},"properties":{"osm_id":"6371486820","tag":{"amenity":"waste_basket"}},"type":"Feature"},
	{"geometry":{"coordinates":[-74.077521,4.631645],"type":"Point"},"properties":{"osm_id":"6377173717","tag":{"amenity":"waste_basket"}},"type":"Feature"},
	{"geometry":{"coordinates":[-74.07144,4.627123],"type":"Point"},"properties":{"osm_id":"6426265339","tag":{"amenity":"waste_basket"}},"type":"Feature"},
	{"geometry":{"coordinates":[-74.071513,4.62685],"type":"Point"},"properties":{"osm_id":"6429732301","tag":{"amenity":"waste_basket"}},"type":"Feature"},
	{"geometry":{"coordinates":[-74.071442,4.626752],"type":"Point"},"properties":{"osm_id":"6429732302","tag":{"amenity":"waste_basket"}},"type":"Feature"},
	{"geometry":{"coordinates":[-74.072105,4.627222],"type":"Point"},"properties":{"osm_id":"6429732304","tag":{"amenity":"waste_basket"}},"type":"Feature"},
	{"geometry":{"coordinates":[-74.071959,4.626857],"type":"Point"},"properties":{"osm_id":"6429732306","tag":{"amenity":"waste_basket"}},"type":"Feature"},
	{"geometry":{"coordinates":[-74.069433,4.616604],"type":"Point"},"properties":{"osm_id":"6437371605","tag":{"amenity":"waste_basket"}},"type":"Feature"},
	{"geometry":{"coordinates":[-74.069429,4.616601],"type":"Point"},"properties":{"osm_id":"6437371606","tag":{"amenity":"recycling","recycling_type":"container"}},"type":"Feature"},
	{"geometry":{"coordinates":[-74.07192,4.619261],"type":"Point"},"properties":{"osm_id":"6439683077","tag":{"amenity":"waste_basket"}},"type":"Feature"},
	{"geometry":{"coordinates":[-74.072007,4.619082],"type":"Point"},"properties":{"osm_id":"6439683078","tag":{"amenity":"waste_basket"}},"type":"Feature"},
	{"geometry":{"coordinates":[-74.07213,4.618843],"type":"Point"},"properties":{"osm_id":"6439683194","tag":{"amenity":"waste_basket"}},"type":"Feature"},
	{"geometry":{"coordinates":[-74.071902,4.619029],"type":"Point"},"properties":{"osm_id":"6439683219","tag":{"amenity":"waste_basket"}},"type":"Feature"},
	{"geometry":{"coordinates":[-74.073151,4.616571],"type":"Point"},"properties":{"osm_id":"6446841519","tag":{"amenity":"waste_basket"}},"type":"Feature"},
	{"geometry":{"coordinates":[-74.053813,4.648565],"type":"Point"},"properties":{"osm_id":"6765412239","tag":{"amenity":"waste_basket"}},"type":"Feature"}
]
}
