{
"type": "FeatureCollection",
"features": [
	{"geometry":{"coordinates":[-3.28127,47.826299],"type":"Point"},"properties":{"osm_id":"1612040382","tag":{"amenity":"recycling","recycling:glass_bottles":"yes","recycling:paper":"yes","recycling_type":"container"}},"type":"Feature"},
	{"geometry":{"coordinates":[-3.281894,47.816452],"type":"Point"},"properties":{"osm_id":"2090265503","tag":{"amenity":"recycling","recycling:glass_bottles":"yes","recycling_type":"container"}},"type":"Feature"},
	{"geometry":{"coordinates":[-3.268975,47.846698],"type":"Point"},"properties":{"osm_id":"8283532047","tag":{"amenity":"recycling","recycling:clothes":"yes","recycling:glass_bottles":"yes","recycling:paper":"yes","recycling_type":"container"}},"type":"Feature"},
	{"geometry":{"coordinates":[-3.309115,47.824638],"type":"Point"},"properties":{"osm_id":"8990363164","tag":{"amenity":"recycling","opening_hours":"24/7","recycling:glass_bottles":"yes","recycling_type":"container","wheelchair":"no"}},"type":"Feature"},
	{"geometry":{"coordinates":[-3.309016,47.824665],"type":"Point"},"properties":{"osm_id":"8990363211","tag":{"amenity":"recycling","opening_hours":"24/7","recycling:paper":"yes","recycling_type":"container","wheelchair":"no"}},"type":"Feature"},
	{"geometry":{"coordinates":[-3.282653,47.816804],"type":"Point"},"properties":{"osm_id":"8996206472","tag":{"amenity":"waste_basket","check_date":"2021-08-10"}},"type":"Feature"}
]
}
