{
"type": "FeatureCollection",
"features": [
	{"geometry":{"coordinates":[-6.599093,42.552967],"type":"Point"},"properties":{"osm_id":"993833194","tag":{"addr:city":"Ponferrada","addr:postcode":"24402","amenity":"recycling","recycling:cans":"yes","recycling:glass_bottles":"yes","recycling:paper":"yes"}},"type":"Feature"},
	{"geometry":{"coordinates":[-6.595617,42.550293],"type":"Point"},"properties":{"name":"Punto limpio","osm_id":"1448495448","tag":{"addr:postcode":"24402","amenity":"recycling","recycling:batteries":"yes","recycling:cans":"yes","recycling:cartons":"yes","recycling:glass":"yes","recycling:green_waste":"yes","recycling:paper":"yes","recycling:plastic":"yes","recycling:waste":"yes","recycling_type":"centre"}},"type":"Feature"},
	{"geometry":{"coordinates":[-6.59529,42.55085],"type":"Point"},"properties":{"osm_id":"1448495515","tag":{"addr:postcode":"24402","amenity":"recycling","recycling:green_waste":"yes","recycling:waste":"yes","recycling_type":"container"}},"type":"Feature"},
	{"geometry":{"coordinates":[-6.595338,42.550111],"type":"Point"},"properties":{"osm_id":"1448496530","tag":{"addr:postcode":"24402","amenity":"recycling","recycling:green_waste":"yes","recycling:waste":"yes","recycling_type":"container"}},"type":"Feature"},
	{"geometry":{"coordinates":[-6.595591,42.55002],"type":"Point"},"properties":{"osm_id":"1448496547","tag":{"addr:postcode":"24402","amenity":"recycling","recycling:green_waste":"yes","recycling:waste":"yes","recycling_type":"container"}},"type":"Feature"},
	{"geometry":{"coordinates":[-6.595859,42.549325],"type":"Point"},"properties":{"osm_id":"1448496550","tag":{"addr:postcode":"24402","amenity":"recycling","recycling:cans":"yes","recycling:cartons":"yes","recycling:glass":"yes","recycling:glass_bottles":"yes","recycling:green_waste":"yes","recycling:paper":"yes","recycling:plastic":"yes","recycling:plastic_bottles":"yes","recycling:plastic_packaging":"yes","recycling:waste":"yes","recycling_type":"centre"}},"type":"Feature"},
	{"geometry":{"coordinates":[-6.596508,42.550301],"type":"Point"},"properties":{"osm_id":"1448496754","tag":{"addr:postcode":"24402","amenity":"recycling","recycling:cans":"yes","recycling:cartons":"yes","recycling:glass":"yes","recycling:glass_bottles":"yes","recycling:green_waste":"yes","recycling:paper":"yes","recycling:paper_packaging":"yes","recycling:plastic":"yes","recycling:plastic_bottles":"yes","recycling:plastic_packaging":"yes","recycling:waste":"yes","recycling_type":"centre"}},"type":"Feature"},
	{"geometry":{"coordinates":[-6.596009,42.549068],"type":"Point"},"properties":{"osm_id":"1448497440","tag":{"addr:postcode":"24402","amenity":"recycling","recycling:green_waste":"yes","recycling:waste":"yes","recycling_type":"container"}},"type":"Feature"},
	{"geometry":{"coordinates":[-6.59617,42.548574],"type":"Point"},"properties":{"osm_id":"1448497441","tag":{"addr:postcode":"24402","amenity":"recycling","recycling:cans":"yes","recycling:cartons":"yes","recycling:glass":"yes","recycling:glass_bottles":"yes","recycling:green_waste":"yes","recycling:paper":"yes","recycling:paper_packaging":"yes","recycling:plastic":"yes","recycling:plastic_bottles":"yes","recycling:plastic_packaging":"yes","recycling:waste":"yes","recycling_type":"centre"}},"type":"Feature"},
	{"geometry":{"coordinates":[-6.596851,42.54825],"type":"Point"},"properties":{"osm_id":"1448497691","tag":{"addr:postcode":"24402","amenity":"recycling","recycling:cans":"yes","recycling:cartons":"yes","recycling:glass":"yes","recycling:glass_bottles":"yes","recycling:green_waste":"yes","recycling:paper":"yes","recycling:paper_packaging":"yes","recycling:plastic":"yes","recycling:plastic_bottles":"yes","recycling:plastic_packaging":"yes","recycling:waste":"yes","recycling_type":"centre"}},"type":"Feature"},
	{"geometry":{"coordinates":[-6.597227,42.548432],"type":"Point"},"properties":{"osm_id":"1448497911","tag":{"addr:postcode":"24402","amenity":"recycling","recycling:waste":"yes","recycling_type":"container"}},"type":"Feature"},
	{"geometry":{"coordinates":[-6.595146,42.550532],"type":"Point"},"properties":{"osm_id":"1448904980","tag":{"addr:postcode":"24402","amenity":"waste_basket","designation":"Papelera"}},"type":"Feature"},
	{"geometry":{"coordinates":[-6.596856,42.548882],"type":"Point"},"properties":{"osm_id":"1448904981","tag":{"addr:postcode":"24402","amenity":"waste_basket","designation":"Papelera"}},"type":"Feature"},
	{"geometry":{"coordinates":[-6.59691,42.548768],"type":"Point"},"properties":{"osm_id":"1448904983","tag":{"addr:postcode":"24402","amenity":"waste_basket","designation":"Papelera"}},"type":"Feature"},
	{"geometry":{"coordinates":[-6.595193,42.550341],"type":"Point"},"properties":{"osm_id":"1448904984","tag":{"addr:postcode":"24402","amenity":"waste_basket","designation":"Papelera"}},"type":"Feature"},
	{"geometry":{"coordinates":[-6.602954,42.545292],"type":"Point"},"properties":{"osm_id":"1458109593","tag":{"addr:postcode":"24403","amenity":"recycling","recycling:batteries":"no","recycling:cans":"yes","recycling:glass_bottles":"yes","recycling:paper":"yes","recycling_type":"container"}},"type":"Feature"},
	{"geometry":{"coordinates":[-6.597855,42.550377],"type":"Point"},"properties":{"osm_id":"1466792166","tag":{"addr:postcode":"24402","amenity":"recycling","recycling:cans":"yes","recycling:glass_bottles":"yes","recycling:paper":"yes","recycling_type":"container"}},"type":"Feature"},
	{"geometry":{"coordinates":[-6.597952,42.546985],"type":"Point"},"properties":{"osm_id":"6404144042","tag":{"amenity":"recycling","recycling:cans":"yes","recycling:cardboard":"yes","recycling:glass":"yes","recycling:glass_bottles":"yes","recycling:paper":"yes","recycling:plastic_bottles":"yes","recycling:plastic_packaging":"yes","recycling:waste":"yes","recycling_type":"centre"}},"type":"Feature"}
]
}
