{
"type": "FeatureCollection",
"features": [
	{"geometry":{"coordinates":[7.685817,44.712226],"type":"Point"},"properties":{"name":"Farnia","osm_id":"5630126317","tag":{"circumference":"3.80","denotation":"natural_monument","height":"28.0","leaf_cycle":"deciduous","leaf_type":"broadleaved","name:de":"Stieleiche","name:en":"Common oak","name:es":"Roble com\u00c3\u00ban","name:fr":"Ch\u00c3\u00aane p\u00c3\u00a9doncul\u00c3\u00a9","natural":"tree","species":"Quercus robur 'Fastigiata Koster'","species:de":"Stieleiche","species:en":"Common oak","species:es":"Roble com\u00c3\u00ban","species:fr":"Ch\u00c3\u00aane p\u00c3\u00a9doncul\u00c3\u00a9","species:it":"Farnia","taxon":"Quercus robur"}},"type":"Feature"},
	{"geometry":{"coordinates":[7.705327,44.69995],"type":"Point"},"properties":{"name":"Ippocastano","osm_id":"5630135854","tag":{"circumference":"4.40","denotation":"natural_monument","height":"23.0","leaf_cycle":"deciduous","leaf_type":"broadleaved","name:de":"Gew\u00c3\u00b6hnliche Rosskastanie","name:en":"Horse-chestnut[","name:es":"Casta\u00c3\u00b1o de Indias","name:fr":"Marronnier commun","natural":"tree","species":"Aesculus hippocastanum","species:de":"Gew\u00c3\u00b6hnliche Rosskastanie","species:en":"Horse-chestnut[","species:es":"Casta\u00c3\u00b1o de Indias","species:fr":"Marronnier commun","species:it":"Ippocastano","taxon":"Aesculus hippocastanum"}},"type":"Feature"},
	{"geometry":{"coordinates":[7.731011,44.711574],"type":"Point"},"properties":{"name":"Platano comune","osm_id":"5630151157","tag":{"circumference":"6.20","denotation":"natural_monument","height":"33.0","leaf_cycle":"deciduous","leaf_type":"broadleaved","name:de":"Ahornbl\u00c3\u00a4ttrige Platane","name:en":"London plane","name:es":"Pl\u00c3\u00a1tano de sombra","name:fr":"Platane commun","natural":"tree","species":"Platanus acerifolia","species:de":"Ahornbl\u00c3\u00a4ttrige Platane","species:en":"London plane","species:es":"Pl\u00c3\u00a1tano de sombra","species:fr":"Platane commun","species:it":"Platano comune","taxon":"Platanus acerifolia"}},"type":"Feature"},
	{"geometry":{"coordinates":[7.685813,44.708594],"type":"Point"},"properties":{"name":"Cipresso calvo","osm_id":"5630168272","tag":{"circumference":"4.90","denotation":"natural_monument","height":"30.0","leaf_cycle":"semi_deciduous","leaf_type":"needleleaved","name:de":"Echte Sumpfzypresse","name:en":"Bald cypress","name:es":"Cipr\u00c3\u00a9s de los pantanos","name:fr":"Cypr\u00c3\u00a8s chauve","natural":"tree","species":"Taxodium distichum","species:de":"Echte Sumpfzypresse","species:en":"Bald cypress","species:es":"Cipr\u00c3\u00a9s de los pantanos","species:fr":"Cypr\u00c3\u00a8s chauve","species:it":"Cipresso calvo","taxon":"Taxodium distichum","wikidata":"Q55742296"}},"type":"Feature"}
]
}
