{
"type": "FeatureCollection",
"features": [
	{"geometry":{"coordinates":[7.69257,44.602565],"type":"Point"},"properties":{"osm_id":"2025385479","tag":{"natural":"tree"}},"type":"Feature"},
	{"geometry":{"coordinates":[7.692682,44.602581],"type":"Point"},"properties":{"osm_id":"2025385483","tag":{"natural":"tree"}},"type":"Feature"},
	{"geometry":{"coordinates":[7.672819,44.641077],"type":"Point"},"properties":{"osm_id":"4434423983","tag":{"natural":"tree"}},"type":"Feature"},
	{"geometry":{"coordinates":[7.672761,44.641032],"type":"Point"},"properties":{"osm_id":"4434423984","tag":{"natural":"tree"}},"type":"Feature"},
	{"geometry":{"coordinates":[7.672849,44.640948],"type":"Point"},"properties":{"osm_id":"4434423985","tag":{"natural":"tree"}},"type":"Feature"},
	{"geometry":{"coordinates":[7.672859,44.640888],"type":"Point"},"properties":{"osm_id":"4434423986","tag":{"natural":"tree"}},"type":"Feature"},
	{"geometry":{"coordinates":[7.672219,44.640769],"type":"Point"},"properties":{"osm_id":"4434423987","tag":{"natural":"tree"}},"type":"Feature"},
	{"geometry":{"coordinates":[7.671959,44.641344],"type":"Point"},"properties":{"osm_id":"4434423988","tag":{"natural":"tree"}},"type":"Feature"},
	{"geometry":{"coordinates":[7.672272,44.641268],"type":"Point"},"properties":{"osm_id":"4434424189","tag":{"natural":"tree"}},"type":"Feature"},
	{"geometry":{"coordinates":[7.672403,44.641214],"type":"Point"},"properties":{"osm_id":"4434424190","tag":{"natural":"tree"}},"type":"Feature"},
	{"geometry":{"coordinates":[7.659542,44.644041],"type":"Point"},"properties":{"name":"Platanus acerifolia","osm_id":"5635483712","tag":{"circumference":"7.20","denotation":"natural_monument","description":"Albero monumentale del Piemonte a) et\u00c3\u00a0 e/o dimensioni                                             g) valore storico, culturale, religioso","height":"20.0","leaf_cycle":"deciduous","leaf_type":"broadleaved","name:de":"Ahornbl\u00c3\u00a4ttrige Platane","name:en":"London plane","name:es":"Pl\u00c3\u00a1tano de sombra","name:fr":"Platane commun","name:it":"Platano comune","natural":"tree","protected":"yes","species":"Platanus x acerifolia","species:de":"Ahornbl\u00c3\u00a4ttrige Platane","species:en":"London plane","species:es":"Pl\u00c3\u00a1tano de sombra","species:fr":"Platane commun","species:it":"Platano comune"}},"type":"Feature"},
	{"geometry":{"coordinates":[7.662197,44.649039],"type":"Point"},"properties":{"osm_id":"7023995544","tag":{"natural":"tree"}},"type":"Feature"},
	{"geometry":{"coordinates":[7.658633,44.647883],"type":"Point"},"properties":{"osm_id":"8018187549","tag":{"natural":"tree"}},"type":"Feature"},
	{"geometry":{"coordinates":[7.658626,44.647917],"type":"Point"},"properties":{"osm_id":"8018187550","tag":{"natural":"tree"}},"type":"Feature"},
	{"geometry":{"coordinates":[7.658588,44.647902],"type":"Point"},"properties":{"osm_id":"8018187551","tag":{"natural":"tree"}},"type":"Feature"},
	{"geometry":{"coordinates":[7.658044,44.647852],"type":"Point"},"properties":{"osm_id":"8018187552","tag":{"natural":"tree"}},"type":"Feature"},
	{"geometry":{"coordinates":[7.657998,44.647857],"type":"Point"},"properties":{"osm_id":"8018187553","tag":{"natural":"tree"}},"type":"Feature"},
	{"geometry":{"coordinates":[7.658005,44.647821],"type":"Point"},"properties":{"osm_id":"8018187554","tag":{"natural":"tree"}},"type":"Feature"},
	{"geometry":{"coordinates":[7.658016,44.647979],"type":"Point"},"properties":{"osm_id":"8018187555","tag":{"natural":"tree"}},"type":"Feature"},
	{"geometry":{"coordinates":[7.658058,44.648035],"type":"Point"},"properties":{"osm_id":"8018187556","tag":{"natural":"tree"}},"type":"Feature"},
	{"geometry":{"coordinates":[7.658564,44.648018],"type":"Point"},"properties":{"osm_id":"8018187557","tag":{"natural":"tree"}},"type":"Feature"},
	{"geometry":{"coordinates":[7.658465,44.648067],"type":"Point"},"properties":{"osm_id":"8018187558","tag":{"natural":"tree"}},"type":"Feature"},
	{"geometry":{"coordinates":[7.657977,44.648038],"type":"Point"},"properties":{"osm_id":"8018187559","tag":{"natural":"tree"}},"type":"Feature"},
	{"geometry":{"coordinates":[7.658595,44.648101],"type":"Point"},"properties":{"osm_id":"8018187560","tag":{"natural":"tree"}},"type":"Feature"}
]
}
