{
"type": "FeatureCollection",
"features": [
	{"geometry":{"coordinates":[-6.060413,53.369357],"type":"Point"},"properties":{"osm_id":"388552424","tag":{"amenity":"recycling","recycling:clothes":"yes","recycling:glass":"yes","recycling_type":"container"}},"type":"Feature"},
	{"geometry":{"coordinates":[-6.057637,53.372819],"type":"Point"},"properties":{"osm_id":"388552425","tag":{"amenity":"recycling","recycling:cans":"yes"}},"type":"Feature"},
	{"geometry":{"coordinates":[-6.058631,53.37236],"type":"Point"},"properties":{"osm_id":"5585158763","tag":{"amenity":"waste_basket","colour":"black","material":"metal","operator":"Fingal County Council"}},"type":"Feature"},
	{"geometry":{"coordinates":[-6.054553,53.370973],"type":"Point"},"properties":{"osm_id":"5680693554","tag":{"amenity":"waste_basket","layer":"1","waste":"trash"}},"type":"Feature"},
	{"geometry":{"coordinates":[-6.055573,53.370751],"type":"Point"},"properties":{"osm_id":"5680693556","tag":{"amenity":"waste_basket","layer":"1","waste":"trash"}},"type":"Feature"},
	{"geometry":{"coordinates":[-6.055399,53.370654],"type":"Point"},"properties":{"osm_id":"5680693557","tag":{"amenity":"waste_basket","layer":"1","waste":"trash"}},"type":"Feature"},
	{"geometry":{"coordinates":[-6.054988,53.370603],"type":"Point"},"properties":{"osm_id":"5680693558","tag":{"amenity":"waste_basket","layer":"1","waste":"trash"}},"type":"Feature"},
	{"geometry":{"coordinates":[-6.058828,53.372936],"type":"Point"},"properties":{"osm_id":"6613089594","tag":{"amenity":"waste_basket","colour":"black","material":"metal","operator":"Fingal County Council"}},"type":"Feature"},
	{"geometry":{"coordinates":[-6.057518,53.372704],"type":"Point"},"properties":{"osm_id":"6613089604","tag":{"amenity":"recycling","colour":"red","material":"metal","recycling:clothes":"yes","recycling_type":"container"}},"type":"Feature"},
	{"geometry":{"coordinates":[-6.059003,53.37221],"type":"Point"},"properties":{"osm_id":"6613288070","tag":{"amenity":"waste_basket","colour":"red","material":"plastic","operator":"The Summit Stores"}},"type":"Feature"},
	{"geometry":{"coordinates":[-6.058246,53.381183],"type":"Point"},"properties":{"osm_id":"6657324780","tag":{"amenity":"waste_basket","colour":"black","material":"metal","operator":"Fingal County Council"}},"type":"Feature"},
	{"geometry":{"coordinates":[-6.059739,53.382224],"type":"Point"},"properties":{"osm_id":"6677861950","tag":{"amenity":"waste_basket","colour":"green","material":"steel","operator":"Fingal County Council"}},"type":"Feature"},
	{"geometry":{"coordinates":[-6.058237,53.372801],"type":"Point"},"properties":{"osm_id":"6721660556","tag":{"amenity":"waste_basket","colour":"red","operator":"Fingal County Council","waste":"dog_excrement"}},"type":"Feature"}
]
}
