{
"type": "FeatureCollection",
"features": [
	{"geometry":{"coordinates":[-5.985532,43.338209],"type":"Point"},"properties":{"osm_id":"2407240587","tag":{"amenity":"recycling","recycling_type":"container"}},"type":"Feature"},
	{"geometry":{"coordinates":[-5.991498,43.366422],"type":"Point"},"properties":{"osm_id":"4419329636","tag":{"amenity":"waste_basket","collection_times":"We","material":"plastic","operator":"Ayuntamiento de Grado","waste":"trash;household"}},"type":"Feature"},
	{"geometry":{"coordinates":[-5.990313,43.364937],"type":"Point"},"properties":{"osm_id":"4419329637","tag":{"amenity":"waste_basket"}},"type":"Feature"},
	{"geometry":{"coordinates":[-5.987154,43.36519],"type":"Point"},"properties":{"osm_id":"4775826527","tag":{"amenity":"waste_basket","collection_times":"We","material":"plastic","operator":"Ayuntamiento de Grado","waste":"trash;household"}},"type":"Feature"},
	{"geometry":{"coordinates":[-5.987945,43.367621],"type":"Point"},"properties":{"osm_id":"4775826528","tag":{"amenity":"waste_basket"}},"type":"Feature"},
	{"geometry":{"coordinates":[-5.991972,43.365919],"type":"Point"},"properties":{"osm_id":"8636517739","tag":{"amenity":"recycling","opening_hours":"24/7","opening_hours:covid19":"same","operator":"Cogersa","recycling:glass":"yes","recycling:metal":"yes","recycling:paper":"yes","recycling:plastic":"yes","recycling_type":"container"}},"type":"Feature"}
]
}
