{
"type": "FeatureCollection",
"features": [
	{"geometry":{"coordinates":[-5.989642,37.392448],"type":"Point"},"properties":{"osm_id":"747196458","tag":{"amenity":"waste_disposal"}},"type":"Feature"},
	{"geometry":{"coordinates":[-5.97962,37.387422],"type":"Point"},"properties":{"osm_id":"1313848660","tag":{"amenity":"recycling"}},"type":"Feature"},
	{"geometry":{"coordinates":[-5.999892,37.387953],"type":"Point"},"properties":{"osm_id":"1537230626","tag":{"amenity":"recycling"}},"type":"Feature"},
	{"geometry":{"coordinates":[-5.986666,37.384914],"type":"Point"},"properties":{"osm_id":"1720903501","tag":{"amenity":"recycling","recycling:glass_bottles":"yes","recycling:paper":"yes"}},"type":"Feature"},
	{"geometry":{"coordinates":[-5.996003,37.386287],"type":"Point"},"properties":{"osm_id":"1935219277","tag":{"amenity":"recycling","location":"overground","recycling:glass_bottles":"yes","recycling_type":"container"}},"type":"Feature"},
	{"geometry":{"coordinates":[-5.993928,37.389357],"type":"Point"},"properties":{"osm_id":"2319927997","tag":{"amenity":"waste_disposal"}},"type":"Feature"},
	{"geometry":{"coordinates":[-5.992628,37.383675],"type":"Point"},"properties":{"osm_id":"2344178661","tag":{"amenity":"recycling","recycling:glass_bottles":"yes","recycling_type":"container","source:date":"2011"}},"type":"Feature"},
	{"geometry":{"coordinates":[-5.992606,37.383684],"type":"Point"},"properties":{"osm_id":"2344178670","tag":{"amenity":"recycling","recycling:paper":"yes","recycling_type":"container","source:date":"2011"}},"type":"Feature"},
	{"geometry":{"coordinates":[-5.992355,37.383607],"type":"Point"},"properties":{"osm_id":"2344195212","tag":{"amenity":"recycling","recycling:cans":"yes","recycling_type":"container"}},"type":"Feature"},
	{"geometry":{"coordinates":[-5.992366,37.383619],"type":"Point"},"properties":{"osm_id":"2344195213","tag":{"amenity":"waste_disposal","recycling_type":"container"}},"type":"Feature"},
	{"geometry":{"coordinates":[-5.99344,37.382111],"type":"Point"},"properties":{"osm_id":"2914838480","tag":{"amenity":"recycling","recycling:paper":"yes","recycling_type":"container"}},"type":"Feature"},
	{"geometry":{"coordinates":[-5.993426,37.38212],"type":"Point"},"properties":{"osm_id":"2914838483","tag":{"amenity":"recycling","recycling:glass_bottles":"yes","recycling_type":"container"}},"type":"Feature"},
	{"geometry":{"coordinates":[-6.013531,37.385627],"type":"Point"},"properties":{"name":"org\u00c3\u00a1nica","osm_id":"3076460261","tag":{"amenity":"waste_basket"}},"type":"Feature"},
	{"geometry":{"coordinates":[-6.01215,37.381748],"type":"Point"},"properties":{"osm_id":"3076463530","tag":{"amenity":"recycling","recycling:cans":"yes","recycling:clothes":"yes","recycling:glass_bottles":"yes","recycling:paper":"yes"}},"type":"Feature"},
	{"geometry":{"coordinates":[-6.013547,37.385305],"type":"Point"},"properties":{"osm_id":"3076463533","tag":{"amenity":"recycling","recycling:cans":"yes","recycling:glass_bottles":"yes","recycling:paper":"yes","recycling_type":"container"}},"type":"Feature"},
	{"geometry":{"coordinates":[-6.009462,37.380648],"type":"Point"},"properties":{"osm_id":"3076463543","tag":{"amenity":"recycling","recycling:cans":"yes","recycling:glass_bottles":"yes","recycling:paper":"yes"}},"type":"Feature"},
	{"geometry":{"coordinates":[-6.008458,37.378971],"type":"Point"},"properties":{"osm_id":"3428158400","tag":{"amenity":"waste_basket","lamp_flames":"1","lamp_mount":"straight mast","leisure":"wast"}},"type":"Feature"},
	{"geometry":{"coordinates":[-6.008673,37.377608],"type":"Point"},"properties":{"osm_id":"3709406585","tag":{"amenity":"waste_basket"}},"type":"Feature"},
	{"geometry":{"coordinates":[-6.010115,37.379002],"type":"Point"},"properties":{"osm_id":"3753222490","tag":{"amenity":"waste_basket"}},"type":"Feature"},
	{"geometry":{"coordinates":[-6.009773,37.377919],"type":"Point"},"properties":{"osm_id":"3779329076","tag":{"amenity":"recycling","recycling_type":"container"}},"type":"Feature"},
	{"geometry":{"coordinates":[-6.050352,37.385753],"type":"Point"},"properties":{"osm_id":"4121921325","tag":{"amenity":"recycling","recycling:cans":"yes","recycling:clothes":"no","recycling:glass":"no","recycling:glass_bottles":"no","recycling:paper":"no","recycling:plastic":"yes"}},"type":"Feature"},
	{"geometry":{"coordinates":[-6.05033,37.385769],"type":"Point"},"properties":{"osm_id":"4121923187","tag":{"amenity":"waste_disposal"}},"type":"Feature"},
	{"geometry":{"coordinates":[-5.990533,37.390157],"type":"Point"},"properties":{"osm_id":"4157831794","tag":{"amenity":"recycling"}},"type":"Feature"},
	{"geometry":{"coordinates":[-6.013308,37.388255],"type":"Point"},"properties":{"osm_id":"4163077816","tag":{"amenity":"waste_disposal"}},"type":"Feature"},
	{"geometry":{"coordinates":[-5.995242,37.390993],"type":"Point"},"properties":{"osm_id":"4342971941","tag":{"amenity":"waste_disposal"}},"type":"Feature"},
	{"geometry":{"coordinates":[-5.995277,37.390999],"type":"Point"},"properties":{"osm_id":"4342971943","tag":{"amenity":"waste_disposal"}},"type":"Feature"},
	{"geometry":{"coordinates":[-5.986511,37.393023],"type":"Point"},"properties":{"osm_id":"4357602513","tag":{"amenity":"waste_disposal"}},"type":"Feature"},
	{"geometry":{"coordinates":[-5.98694,37.393129],"type":"Point"},"properties":{"osm_id":"4357602552","tag":{"amenity":"recycling","recycling:cans":"yes","recycling:cardboard":"yes","recycling:glass":"yes","recycling:glass_bottles":"yes","recycling:paper":"yes","recycling_type":"container"}},"type":"Feature"},
	{"geometry":{"coordinates":[-5.995315,37.392661],"type":"Point"},"properties":{"osm_id":"4390117769","tag":{"amenity":"waste_disposal"}},"type":"Feature"},
	{"geometry":{"coordinates":[-5.995293,37.392663],"type":"Point"},"properties":{"osm_id":"4390117770","tag":{"amenity":"waste_disposal"}},"type":"Feature"},
	{"geometry":{"coordinates":[-6.001876,37.387915],"type":"Point"},"properties":{"osm_id":"4402401486","tag":{"amenity":"recycling","recycling_type":"container"}},"type":"Feature"},
	{"geometry":{"coordinates":[-6.002001,37.388094],"type":"Point"},"properties":{"osm_id":"4402405115","tag":{"amenity":"recycling","recycling_type":"container"}},"type":"Feature"},
	{"geometry":{"coordinates":[-5.993769,37.387957],"type":"Point"},"properties":{"osm_id":"4420225689","tag":{"amenity":"waste_disposal"}},"type":"Feature"},
	{"geometry":{"coordinates":[-5.993815,37.388156],"type":"Point"},"properties":{"osm_id":"4420225710","tag":{"amenity":"recycling","recycling:cans":"yes","recycling:cardboard":"yes","recycling:glass":"yes","recycling:glass_bottles":"yes","recycling:paper":"yes","recycling_type":"container"}},"type":"Feature"},
	{"geometry":{"coordinates":[-6.001143,37.389915],"type":"Point"},"properties":{"osm_id":"4446102496","tag":{"amenity":"waste_basket"}},"type":"Feature"},
	{"geometry":{"coordinates":[-5.990706,37.384969],"type":"Point"},"properties":{"osm_id":"4446644597","tag":{"amenity":"waste_disposal"}},"type":"Feature"},
	{"geometry":{"coordinates":[-5.986619,37.422556],"type":"Point"},"properties":{"osm_id":"4534818770","tag":{"amenity":"waste_basket","description":"interfiere en el itinerario, pegada a la fachada"}},"type":"Feature"},
	{"geometry":{"coordinates":[-5.985771,37.422468],"type":"Point"},"properties":{"osm_id":"4534818809","tag":{"amenity":"waste_basket","description":"interfiere en el itinerario, pegada a la fachada"}},"type":"Feature"},
	{"geometry":{"coordinates":[-5.985696,37.422562],"type":"Point"},"properties":{"osm_id":"4534818810","tag":{"amenity":"waste_basket","description":"interfiere en el itinerario, pegada a la fachada"}},"type":"Feature"},
	{"geometry":{"coordinates":[-5.985649,37.423125],"type":"Point"},"properties":{"osm_id":"4534818837","tag":{"amenity":"waste_basket","description":"interfiere en el itinerario, pegada a la fachada","obstacle":"yes"}},"type":"Feature"},
	{"geometry":{"coordinates":[-5.985862,37.425014],"type":"Point"},"properties":{"osm_id":"4535102743","tag":{"amenity":"waste_basket","description":"interfiere en el itinerario, pegada a la fachada/ no tiene cubeta, solo soporte"}},"type":"Feature"},
	{"geometry":{"coordinates":[-5.985619,37.424345],"type":"Point"},"properties":{"osm_id":"4535102750","tag":{"amenity":"waste_basket","description":"interfiere en el itinerario, pegada a la fachada"}},"type":"Feature"},
	{"geometry":{"coordinates":[-5.986032,37.423178],"type":"Point"},"properties":{"osm_id":"4535102769","tag":{"amenity":"waste_basket","description":"interfiere en el itinerario, pegada a la fachada"}},"type":"Feature"},
	{"geometry":{"coordinates":[-5.98644,37.423074],"type":"Point"},"properties":{"osm_id":"4535102898","tag":{"amenity":"waste_basket","description":"interfiere en el itinerario, pegada a la fachada"}},"type":"Feature"},
	{"geometry":{"coordinates":[-5.986603,37.423051],"type":"Point"},"properties":{"osm_id":"4535102899","tag":{"amenity":"waste_basket","description":"interfiere en el itinerario, pegada a la fachada"}},"type":"Feature"},
	{"geometry":{"coordinates":[-5.980423,37.431273],"type":"Point"},"properties":{"osm_id":"4543231460","tag":{"amenity":"waste_basket","obstacle:foot":"yes"}},"type":"Feature"},
	{"geometry":{"coordinates":[-5.983215,37.426581],"type":"Point"},"properties":{"osm_id":"4550051041","tag":{"amenity":"waste_basket","description":"interfiere en el itinerario, pegada a la fachada"}},"type":"Feature"},
	{"geometry":{"coordinates":[-5.983642,37.426699],"type":"Point"},"properties":{"osm_id":"4550051048","tag":{"amenity":"waste_basket","description":"interfiere en el itinerario, pegada a la fachada"}},"type":"Feature"},
	{"geometry":{"coordinates":[-5.984294,37.426701],"type":"Point"},"properties":{"osm_id":"4550051057","tag":{"amenity":"waste_basket","description":"interfiere en el itinerario, pegada a la fachada"}},"type":"Feature"},
	{"geometry":{"coordinates":[-5.98582,37.426769],"type":"Point"},"properties":{"osm_id":"4550051068","tag":{"amenity":"waste_disposal","description":"disminuye ancho de la acera"}},"type":"Feature"},
	{"geometry":{"coordinates":[-5.981056,37.429099],"type":"Point"},"properties":{"osm_id":"4550853900","tag":{"amenity":"waste_basket","obstacle:foot":"yes"}},"type":"Feature"},
	{"geometry":{"coordinates":[-6.013065,37.387366],"type":"Point"},"properties":{"name":"Pl\u00c3\u00a1stico","osm_id":"4562203053","tag":{"amenity":"waste_disposal"}},"type":"Feature"},
	{"geometry":{"coordinates":[-6.013034,37.387366],"type":"Point"},"properties":{"name":"Vidrio","osm_id":"4562203055","tag":{"amenity":"waste_disposal"}},"type":"Feature"},
	{"geometry":{"coordinates":[-6.013091,37.387374],"type":"Point"},"properties":{"name":"Papel","osm_id":"4562204257","tag":{"amenity":"waste_disposal"}},"type":"Feature"},
	{"geometry":{"coordinates":[-6.012546,37.387347],"type":"Point"},"properties":{"name":"basura","osm_id":"4562204716","tag":{"amenity":"waste_disposal"}},"type":"Feature"},
	{"geometry":{"coordinates":[-5.983115,37.4269],"type":"Point"},"properties":{"osm_id":"4563541122","tag":{"amenity":"waste_basket","obstacle:foot":"yes"}},"type":"Feature"},
	{"geometry":{"coordinates":[-5.98354,37.426154],"type":"Point"},"properties":{"osm_id":"4563541123","tag":{"amenity":"waste_basket","obstacle:foot":"yes"}},"type":"Feature"},
	{"geometry":{"coordinates":[-5.983316,37.426571],"type":"Point"},"properties":{"osm_id":"4563566250","tag":{"amenity":"waste_disposal","description":"contenedor en acerado","obstacle:foot":"yes","obstacle:wheelchair":"yes"}},"type":"Feature"},
	{"geometry":{"coordinates":[-5.982334,37.42521],"type":"Point"},"properties":{"osm_id":"4563568345","tag":{"amenity":"waste_disposal","description":"contenedor en acerado","obstacle:foot":"yes","obstacle:wheelchair":"yes"}},"type":"Feature"},
	{"geometry":{"coordinates":[-5.983095,37.427249],"type":"Point"},"properties":{"osm_id":"4563574028","tag":{"amenity":"waste_disposal","description":"contenedor en acerado","obstacle:foot":"yes","obstacle:wheelchair":"yes"}},"type":"Feature"},
	{"geometry":{"coordinates":[-5.983643,37.427997],"type":"Point"},"properties":{"osm_id":"4564744854","tag":{"amenity":"recycling","recycling:paper":"yes","recycling_type":"container"}},"type":"Feature"},
	{"geometry":{"coordinates":[-5.98363,37.42801],"type":"Point"},"properties":{"osm_id":"4564744855","tag":{"amenity":"recycling","recycling:glass_bottles":"yes","recycling_type":"container"}},"type":"Feature"},
	{"geometry":{"coordinates":[-5.983617,37.428024],"type":"Point"},"properties":{"osm_id":"4564744856","tag":{"amenity":"recycling","recycling:aluminium":"yes","recycling:plastic_packaging":"yes","recycling_type":"container"}},"type":"Feature"},
	{"geometry":{"coordinates":[-5.983539,37.428097],"type":"Point"},"properties":{"osm_id":"4564744857","tag":{"amenity":"waste_disposal"}},"type":"Feature"},
	{"geometry":{"coordinates":[-5.983528,37.428107],"type":"Point"},"properties":{"osm_id":"4564744865","tag":{"amenity":"waste_disposal"}},"type":"Feature"},
	{"geometry":{"coordinates":[-5.983515,37.428096],"type":"Point"},"properties":{"osm_id":"4564744866","tag":{"amenity":"waste_basket","obstacle:foot":"yes"}},"type":"Feature"},
	{"geometry":{"coordinates":[-5.982076,37.429518],"type":"Point"},"properties":{"osm_id":"4564952955","tag":{"amenity":"recycling","recycling:aluminium":"yes","recycling:plastic_packaging":"yes","recycling_type":"container"}},"type":"Feature"},
	{"geometry":{"coordinates":[-5.982207,37.429399],"type":"Point"},"properties":{"osm_id":"4564952956","tag":{"amenity":"waste_disposal"}},"type":"Feature"},
	{"geometry":{"coordinates":[-5.982102,37.429491],"type":"Point"},"properties":{"osm_id":"4564952957","tag":{"amenity":"recycling","recycling:paper":"yes","recycling_type":"container"}},"type":"Feature"},
	{"geometry":{"coordinates":[-5.982088,37.429504],"type":"Point"},"properties":{"osm_id":"4564952958","tag":{"amenity":"recycling","recycling:glass_bottles":"yes","recycling_type":"container"}},"type":"Feature"},
	{"geometry":{"coordinates":[-5.981887,37.429795],"type":"Point"},"properties":{"osm_id":"4564966714","tag":{"amenity":"waste_basket","obstacle:foot":"yes"}},"type":"Feature"},
	{"geometry":{"coordinates":[-5.982255,37.429446],"type":"Point"},"properties":{"osm_id":"4564966715","tag":{"amenity":"waste_basket","obstacle:foot":"yes"}},"type":"Feature"},
	{"geometry":{"coordinates":[-5.998039,37.38786],"type":"Point"},"properties":{"osm_id":"4568618211","tag":{"amenity":"waste_basket"}},"type":"Feature"},
	{"geometry":{"coordinates":[-5.997884,37.387887],"type":"Point"},"properties":{"osm_id":"4568618212","tag":{"amenity":"waste_basket"}},"type":"Feature"},
	{"geometry":{"coordinates":[-5.991552,37.38492],"type":"Point"},"properties":{"osm_id":"4713200999","tag":{"amenity":"waste_basket"}},"type":"Feature"},
	{"geometry":{"coordinates":[-5.993432,37.392777],"type":"Point"},"properties":{"osm_id":"4881588959","tag":{"amenity":"recycling","recycling:cans":"yes","recycling:glass":"yes","recycling:glass_bottles":"yes","recycling:paper":"yes","recycling:plastic_bottles":"yes","recycling:plastic_packaging":"yes","recycling_type":"underground"}},"type":"Feature"},
	{"geometry":{"coordinates":[-5.988052,37.386627],"type":"Point"},"properties":{"osm_id":"5313618004","tag":{"amenity":"recycling"}},"type":"Feature"},
	{"geometry":{"coordinates":[-5.988444,37.386597],"type":"Point"},"properties":{"osm_id":"5314554858","tag":{"amenity":"recycling"}},"type":"Feature"},
	{"geometry":{"coordinates":[-5.995406,37.385082],"type":"Point"},"properties":{"osm_id":"5314954362","tag":{"amenity":"recycling"}},"type":"Feature"},
	{"geometry":{"coordinates":[-5.994059,37.392773],"type":"Point"},"properties":{"osm_id":"5316608149","tag":{"amenity":"recycling","recycling:organic":"yes","recycling:waste":"yes","recycling_type":"underground"}},"type":"Feature"},
	{"geometry":{"coordinates":[-5.995506,37.392027],"type":"Point"},"properties":{"osm_id":"5316610420","tag":{"amenity":"recycling","recycling_type":"underground"}},"type":"Feature"},
	{"geometry":{"coordinates":[-5.996808,37.386206],"type":"Point"},"properties":{"osm_id":"5316669429","tag":{"amenity":"recycling","recycling_type":"containers"}},"type":"Feature"},
	{"geometry":{"coordinates":[-5.993101,37.392763],"type":"Point"},"properties":{"osm_id":"5477477736","tag":{"amenity":"recycling","recycling:organic":"yes","recycling:waste":"yes","recycling_type":"underground"}},"type":"Feature"},
	{"geometry":{"coordinates":[-5.990865,37.392682],"type":"Point"},"properties":{"osm_id":"5477477737","tag":{"amenity":"recycling","recycling:organic":"yes","recycling:waste":"yes","recycling_type":"underground"}},"type":"Feature"},
	{"geometry":{"coordinates":[-5.990985,37.392697],"type":"Point"},"properties":{"osm_id":"5477477738","tag":{"amenity":"recycling","recycling:cans":"yes","recycling:glass":"yes","recycling:glass_bottles":"yes","recycling:paper":"yes","recycling:plastic_bottles":"yes","recycling:plastic_packaging":"yes","recycling_type":"underground"}},"type":"Feature"},
	{"geometry":{"coordinates":[-6.037219,37.38441],"type":"Point"},"properties":{"osm_id":"5542385294","tag":{"amenity":"waste_basket"}},"type":"Feature"},
	{"geometry":{"coordinates":[-6.037266,37.384264],"type":"Point"},"properties":{"osm_id":"5542385295","tag":{"amenity":"waste_basket"}},"type":"Feature"},
	{"geometry":{"coordinates":[-6.037072,37.384229],"type":"Point"},"properties":{"osm_id":"5542385296","tag":{"amenity":"waste_basket"}},"type":"Feature"},
	{"geometry":{"coordinates":[-6.037314,37.384402],"type":"Point"},"properties":{"osm_id":"5542397163","tag":{"amenity":"waste_basket"}},"type":"Feature"},
	{"geometry":{"coordinates":[-6.037276,37.384241],"type":"Point"},"properties":{"osm_id":"5542397165","tag":{"amenity":"waste_disposal"}},"type":"Feature"},
	{"geometry":{"coordinates":[-6.037257,37.38424],"type":"Point"},"properties":{"osm_id":"5542397166","tag":{"amenity":"recycling","recycling_type":"container"}},"type":"Feature"},
	{"geometry":{"coordinates":[-6.005493,37.3752],"type":"Point"},"properties":{"osm_id":"5595832448","tag":{"amenity":"waste_basket"}},"type":"Feature"},
	{"geometry":{"coordinates":[-6.004742,37.373492],"type":"Point"},"properties":{"osm_id":"5596249602","tag":{"amenity":"waste_basket"}},"type":"Feature"},
	{"geometry":{"coordinates":[-6.004659,37.373384],"type":"Point"},"properties":{"osm_id":"5596257043","tag":{"amenity":"waste_basket"}},"type":"Feature"},
	{"geometry":{"coordinates":[-6.010357,37.379994],"type":"Point"},"properties":{"highway":"street_lamp","osm_id":"5618941634","tag":{"amenity":"waste_basket","lamp_type":"electric"}},"type":"Feature"},
	{"geometry":{"coordinates":[-6.010556,37.380139],"type":"Point"},"properties":{"highway":"street_lamp","osm_id":"5619069569","tag":{"amenity":"waste_basket"}},"type":"Feature"},
	{"geometry":{"coordinates":[-6.010329,37.380323],"type":"Point"},"properties":{"highway":"street_lamp","osm_id":"5631779642","tag":{"amenity":"waste_basket","lamp_type":"electric"}},"type":"Feature"},
	{"geometry":{"coordinates":[-6.004556,37.379235],"type":"Point"},"properties":{"osm_id":"5648511676","tag":{"amenity":"waste_basket"}},"type":"Feature"},
	{"geometry":{"coordinates":[-5.981571,37.430625],"type":"Point"},"properties":{"osm_id":"5677574159","tag":{"addr:postcode":"41015","addr:street":"Calle Mejill\u00c3\u00b3n","amenity":"waste_basket"}},"type":"Feature"},
	{"geometry":{"coordinates":[-5.981546,37.430839],"type":"Point"},"properties":{"osm_id":"5677574162","tag":{"addr:postcode":"41015","addr:street":"Calle Mejill\u00c3\u00b3n","amenity":"waste_basket"}},"type":"Feature"},
	{"geometry":{"coordinates":[-5.985589,37.425843],"type":"Point"},"properties":{"osm_id":"5697662750","tag":{"amenity":"waste_basket"}},"type":"Feature"},
	{"geometry":{"coordinates":[-5.985538,37.426146],"type":"Point"},"properties":{"osm_id":"5697662752","tag":{"amenity":"waste_basket"}},"type":"Feature"},
	{"geometry":{"coordinates":[-5.985508,37.426175],"type":"Point"},"properties":{"osm_id":"5697662753","tag":{"amenity":"recycling","recycling_type":"container"}},"type":"Feature"},
	{"geometry":{"coordinates":[-5.985532,37.426164],"type":"Point"},"properties":{"osm_id":"5697662754","tag":{"amenity":"recycling","recycling_type":"container"}},"type":"Feature"},
	{"geometry":{"coordinates":[-5.985554,37.426153],"type":"Point"},"properties":{"osm_id":"5697662755","tag":{"amenity":"recycling","recycling_type":"container"}},"type":"Feature"},
	{"geometry":{"coordinates":[-5.985398,37.426278],"type":"Point"},"properties":{"osm_id":"5697662756","tag":{"amenity":"waste_basket"}},"type":"Feature"},
	{"geometry":{"coordinates":[-5.986356,37.423274],"type":"Point"},"properties":{"osm_id":"5697663467","tag":{"amenity":"waste_basket"}},"type":"Feature"},
	{"geometry":{"coordinates":[-5.986927,37.425594],"type":"Point"},"properties":{"osm_id":"5697663485","tag":{"amenity":"waste_basket"}},"type":"Feature"},
	{"geometry":{"coordinates":[-5.986744,37.425596],"type":"Point"},"properties":{"osm_id":"5697663486","tag":{"amenity":"waste_basket"}},"type":"Feature"},
	{"geometry":{"coordinates":[-5.986423,37.425632],"type":"Point"},"properties":{"osm_id":"5697663487","tag":{"amenity":"waste_basket"}},"type":"Feature"},
	{"geometry":{"coordinates":[-5.986667,37.425818],"type":"Point"},"properties":{"osm_id":"5697663488","tag":{"amenity":"waste_basket"}},"type":"Feature"},
	{"geometry":{"coordinates":[-5.986567,37.425614],"type":"Point"},"properties":{"osm_id":"5700516391","tag":{"amenity":"waste_basket"}},"type":"Feature"},
	{"geometry":{"coordinates":[-5.981337,37.431601],"type":"Point"},"properties":{"osm_id":"5700638053","tag":{"amenity":"waste_basket"}},"type":"Feature"},
	{"geometry":{"coordinates":[-5.982056,37.43174],"type":"Point"},"properties":{"osm_id":"5700638745","tag":{"amenity":"recycling","recycling:paper":"yes","recycling_type":"container"}},"type":"Feature"},
	{"geometry":{"coordinates":[-5.982039,37.431737],"type":"Point"},"properties":{"osm_id":"5700638746","tag":{"amenity":"recycling","recycling:paper":"yes","recycling_type":"container"}},"type":"Feature"},
	{"geometry":{"coordinates":[-5.982026,37.431733],"type":"Point"},"properties":{"osm_id":"5700638747","tag":{"amenity":"recycling","recycling:paper":"yes","recycling_type":"container"}},"type":"Feature"},
	{"geometry":{"coordinates":[-5.981829,37.432157],"type":"Point"},"properties":{"osm_id":"5700638752","tag":{"amenity":"waste_basket"}},"type":"Feature"},
	{"geometry":{"coordinates":[-5.981578,37.431827],"type":"Point"},"properties":{"osm_id":"5700638753","tag":{"amenity":"waste_basket"}},"type":"Feature"},
	{"geometry":{"coordinates":[-5.981148,37.432366],"type":"Point"},"properties":{"osm_id":"5700638757","tag":{"amenity":"waste_basket"}},"type":"Feature"},
	{"geometry":{"coordinates":[-5.981693,37.431941],"type":"Point"},"properties":{"osm_id":"5700638759","tag":{"amenity":"waste_basket"}},"type":"Feature"},
	{"geometry":{"coordinates":[-6.051096,37.385348],"type":"Point"},"properties":{"osm_id":"5774050948","tag":{"amenity":"recycling","recycling:cans":"yes","recycling:clothes":"no","recycling:glass":"no","recycling:glass_bottles":"no","recycling:paper":"no","recycling:plastic":"yes"}},"type":"Feature"},
	{"geometry":{"coordinates":[-6.051072,37.385364],"type":"Point"},"properties":{"osm_id":"5774050949","tag":{"amenity":"waste_disposal"}},"type":"Feature"},
	{"geometry":{"coordinates":[-6.050369,37.385745],"type":"Point"},"properties":{"osm_id":"5774050950","tag":{"amenity":"waste_disposal"}},"type":"Feature"},
	{"geometry":{"coordinates":[-6.049089,37.387019],"type":"Point"},"properties":{"osm_id":"5774050951","tag":{"amenity":"waste_disposal"}},"type":"Feature"},
	{"geometry":{"coordinates":[-6.049071,37.387027],"type":"Point"},"properties":{"osm_id":"5774050952","tag":{"amenity":"recycling","recycling:glass_bottles":"yes","recycling_type":"container"}},"type":"Feature"},
	{"geometry":{"coordinates":[-6.049054,37.387028],"type":"Point"},"properties":{"osm_id":"5774051153","tag":{"amenity":"recycling","recycling:plastic":"yes","recycling_type":"container"}},"type":"Feature"},
	{"geometry":{"coordinates":[-6.049034,37.387032],"type":"Point"},"properties":{"osm_id":"5774051154","tag":{"amenity":"recycling","recycling:paper":"yes","recycling_type":"container"}},"type":"Feature"},
	{"geometry":{"coordinates":[-6.052439,37.386385],"type":"Point"},"properties":{"osm_id":"5774051155","tag":{"amenity":"recycling","recycling:paper":"yes","recycling_type":"container"}},"type":"Feature"},
	{"geometry":{"coordinates":[-6.052465,37.386379],"type":"Point"},"properties":{"osm_id":"5774051156","tag":{"amenity":"waste_disposal"}},"type":"Feature"},
	{"geometry":{"coordinates":[-6.050553,37.385982],"type":"Point"},"properties":{"osm_id":"6262724393","tag":{"amenity":"waste_basket"}},"type":"Feature"},
	{"geometry":{"coordinates":[-6.050569,37.38606],"type":"Point"},"properties":{"osm_id":"6262724394","tag":{"amenity":"waste_basket"}},"type":"Feature"},
	{"geometry":{"coordinates":[-6.050373,37.386002],"type":"Point"},"properties":{"osm_id":"6262724395","tag":{"amenity":"waste_basket"}},"type":"Feature"},
	{"geometry":{"coordinates":[-6.050469,37.386103],"type":"Point"},"properties":{"osm_id":"6262724396","tag":{"amenity":"waste_basket"}},"type":"Feature"},
	{"geometry":{"coordinates":[-6.050264,37.385894],"type":"Point"},"properties":{"osm_id":"6262724397","tag":{"amenity":"waste_basket"}},"type":"Feature"},
	{"geometry":{"coordinates":[-6.008724,37.378337],"type":"Point"},"properties":{"osm_id":"6292598463","tag":{"amenity":"waste_basket"}},"type":"Feature"},
	{"geometry":{"coordinates":[-6.009709,37.37552],"type":"Point"},"properties":{"osm_id":"6515365798","tag":{"amenity":"waste_basket","material":"metal","operator":"LIPASAM"}},"type":"Feature"},
	{"geometry":{"coordinates":[-6.009602,37.375791],"type":"Point"},"properties":{"osm_id":"6515366788","tag":{"amenity":"waste_basket","material":"metal","operator":"LIPASAM"}},"type":"Feature"},
	{"geometry":{"coordinates":[-6.009517,37.375884],"type":"Point"},"properties":{"highway":"street_lamp","osm_id":"6515366789","tag":{"amenity":"waste_basket","lamp_flames":"1","lamp_mount":"straight mast","material":"metal","operator":"LIPASAM"}},"type":"Feature"},
	{"geometry":{"coordinates":[-6.04649,37.375],"type":"Point"},"properties":{"osm_id":"6534875703","tag":{"amenity":"waste_basket"}},"type":"Feature"},
	{"geometry":{"coordinates":[-6.046177,37.374838],"type":"Point"},"properties":{"osm_id":"6534875704","tag":{"amenity":"waste_basket"}},"type":"Feature"},
	{"geometry":{"coordinates":[-6.046953,37.374669],"type":"Point"},"properties":{"osm_id":"6534895395","tag":{"amenity":"waste_basket"}},"type":"Feature"},
	{"geometry":{"coordinates":[-6.046995,37.374522],"type":"Point"},"properties":{"osm_id":"6534895396","tag":{"amenity":"waste_basket"}},"type":"Feature"},
	{"geometry":{"coordinates":[-6.047037,37.374399],"type":"Point"},"properties":{"osm_id":"6534895397","tag":{"amenity":"waste_basket"}},"type":"Feature"},
	{"geometry":{"coordinates":[-6.047158,37.374408],"type":"Point"},"properties":{"osm_id":"6534895398","tag":{"amenity":"waste_basket"}},"type":"Feature"},
	{"geometry":{"coordinates":[-6.047295,37.374424],"type":"Point"},"properties":{"osm_id":"6534895399","tag":{"amenity":"waste_basket"}},"type":"Feature"},
	{"geometry":{"coordinates":[-6.047481,37.374439],"type":"Point"},"properties":{"osm_id":"6534895400","tag":{"amenity":"waste_basket"}},"type":"Feature"},
	{"geometry":{"coordinates":[-6.047222,37.374201],"type":"Point"},"properties":{"osm_id":"6534895401","tag":{"amenity":"waste_basket"}},"type":"Feature"},
	{"geometry":{"coordinates":[-6.047479,37.374236],"type":"Point"},"properties":{"osm_id":"6534895402","tag":{"amenity":"waste_basket"}},"type":"Feature"},
	{"geometry":{"coordinates":[-6.047775,37.374468],"type":"Point"},"properties":{"osm_id":"6534895403","tag":{"amenity":"waste_basket"}},"type":"Feature"},
	{"geometry":{"coordinates":[-6.047491,37.374661],"type":"Point"},"properties":{"osm_id":"6534895404","tag":{"amenity":"waste_basket"}},"type":"Feature"},
	{"geometry":{"coordinates":[-6.047532,37.374573],"type":"Point"},"properties":{"osm_id":"6534895405","tag":{"amenity":"waste_basket"}},"type":"Feature"},
	{"geometry":{"coordinates":[-6.045684,37.374781],"type":"Point"},"properties":{"osm_id":"6534895415","tag":{"amenity":"waste_basket"}},"type":"Feature"},
	{"geometry":{"coordinates":[-6.045609,37.374947],"type":"Point"},"properties":{"osm_id":"6534895416","tag":{"amenity":"waste_basket"}},"type":"Feature"},
	{"geometry":{"coordinates":[-6.045449,37.375204],"type":"Point"},"properties":{"osm_id":"6534895424","tag":{"amenity":"waste_basket"}},"type":"Feature"},
	{"geometry":{"coordinates":[-6.045195,37.37519],"type":"Point"},"properties":{"osm_id":"6534895425","tag":{"amenity":"waste_basket"}},"type":"Feature"},
	{"geometry":{"coordinates":[-6.044854,37.375148],"type":"Point"},"properties":{"osm_id":"6534895426","tag":{"amenity":"waste_basket"}},"type":"Feature"},
	{"geometry":{"coordinates":[-6.046693,37.37512],"type":"Point"},"properties":{"osm_id":"6534895448","tag":{"amenity":"waste_basket"}},"type":"Feature"},
	{"geometry":{"coordinates":[-6.047454,37.374933],"type":"Point"},"properties":{"osm_id":"6534895449","tag":{"amenity":"waste_basket"}},"type":"Feature"},
	{"geometry":{"coordinates":[-6.047537,37.375067],"type":"Point"},"properties":{"osm_id":"6534895462","tag":{"amenity":"waste_basket"}},"type":"Feature"},
	{"geometry":{"coordinates":[-6.045623,37.374598],"type":"Point"},"properties":{"osm_id":"6534900034","tag":{"amenity":"waste_basket"}},"type":"Feature"},
	{"geometry":{"coordinates":[-6.045714,37.374564],"type":"Point"},"properties":{"osm_id":"6534900035","tag":{"amenity":"waste_basket"}},"type":"Feature"},
	{"geometry":{"coordinates":[-6.046019,37.374356],"type":"Point"},"properties":{"osm_id":"6534900036","tag":{"amenity":"waste_basket"}},"type":"Feature"},
	{"geometry":{"coordinates":[-6.045982,37.373954],"type":"Point"},"properties":{"osm_id":"6534900037","tag":{"amenity":"waste_basket"}},"type":"Feature"},
	{"geometry":{"coordinates":[-6.046209,37.374185],"type":"Point"},"properties":{"osm_id":"6534900038","tag":{"amenity":"waste_basket"}},"type":"Feature"},
	{"geometry":{"coordinates":[-6.044661,37.374274],"type":"Point"},"properties":{"osm_id":"6534999679","tag":{"amenity":"waste_basket"}},"type":"Feature"},
	{"geometry":{"coordinates":[-6.044273,37.374031],"type":"Point"},"properties":{"osm_id":"6534999680","tag":{"amenity":"waste_basket"}},"type":"Feature"},
	{"geometry":{"coordinates":[-6.044606,37.37391],"type":"Point"},"properties":{"osm_id":"6534999681","tag":{"amenity":"waste_basket"}},"type":"Feature"},
	{"geometry":{"coordinates":[-6.043898,37.375111],"type":"Point"},"properties":{"osm_id":"6535005966","tag":{"amenity":"waste_basket"}},"type":"Feature"},
	{"geometry":{"coordinates":[-6.044866,37.374065],"type":"Point"},"properties":{"osm_id":"6535005982","tag":{"amenity":"waste_basket"}},"type":"Feature"},
	{"geometry":{"coordinates":[-6.044942,37.376],"type":"Point"},"properties":{"osm_id":"6535028815","tag":{"amenity":"waste_basket"}},"type":"Feature"},
	{"geometry":{"coordinates":[-6.044839,37.375875],"type":"Point"},"properties":{"osm_id":"6535028817","tag":{"amenity":"waste_basket"}},"type":"Feature"},
	{"geometry":{"coordinates":[-6.045804,37.375239],"type":"Point"},"properties":{"osm_id":"6535041492","tag":{"amenity":"waste_basket"}},"type":"Feature"},
	{"geometry":{"coordinates":[-6.047505,37.37325],"type":"Point"},"properties":{"osm_id":"6535070835","tag":{"amenity":"waste_basket"}},"type":"Feature"},
	{"geometry":{"coordinates":[-6.047309,37.372799],"type":"Point"},"properties":{"osm_id":"6535070836","tag":{"amenity":"waste_basket"}},"type":"Feature"},
	{"geometry":{"coordinates":[-6.046895,37.372336],"type":"Point"},"properties":{"osm_id":"6535070837","tag":{"amenity":"waste_basket"}},"type":"Feature"},
	{"geometry":{"coordinates":[-6.046971,37.3724],"type":"Point"},"properties":{"osm_id":"6535070838","tag":{"amenity":"waste_basket"}},"type":"Feature"},
	{"geometry":{"coordinates":[-6.040112,37.374662],"type":"Point"},"properties":{"osm_id":"6535198335","tag":{"amenity":"waste_basket"}},"type":"Feature"},
	{"geometry":{"coordinates":[-6.043196,37.378827],"type":"Point"},"properties":{"osm_id":"6535220614","tag":{"amenity":"waste_basket"}},"type":"Feature"},
	{"geometry":{"coordinates":[-6.043338,37.379121],"type":"Point"},"properties":{"osm_id":"6535254505","tag":{"amenity":"waste_basket"}},"type":"Feature"},
	{"geometry":{"coordinates":[-6.044835,37.380746],"type":"Point"},"properties":{"osm_id":"6535254506","tag":{"amenity":"waste_basket"}},"type":"Feature"},
	{"geometry":{"coordinates":[-6.044749,37.380893],"type":"Point"},"properties":{"osm_id":"6535254507","tag":{"amenity":"waste_basket"}},"type":"Feature"},
	{"geometry":{"coordinates":[-6.044695,37.381131],"type":"Point"},"properties":{"osm_id":"6535254508","tag":{"amenity":"waste_basket"}},"type":"Feature"},
	{"geometry":{"coordinates":[-6.045068,37.381116],"type":"Point"},"properties":{"osm_id":"6535254509","tag":{"amenity":"waste_basket"}},"type":"Feature"},
	{"geometry":{"coordinates":[-6.04506,37.380841],"type":"Point"},"properties":{"osm_id":"6535254510","tag":{"amenity":"waste_basket"}},"type":"Feature"},
	{"geometry":{"coordinates":[-6.044958,37.380567],"type":"Point"},"properties":{"osm_id":"6535254511","tag":{"amenity":"waste_basket"}},"type":"Feature"},
	{"geometry":{"coordinates":[-6.037435,37.373462],"type":"Point"},"properties":{"osm_id":"6535718768","tag":{"amenity":"waste_basket"}},"type":"Feature"},
	{"geometry":{"coordinates":[-6.03733,37.373572],"type":"Point"},"properties":{"osm_id":"6535718769","tag":{"amenity":"waste_basket"}},"type":"Feature"},
	{"geometry":{"coordinates":[-6.037307,37.373402],"type":"Point"},"properties":{"osm_id":"6535718770","tag":{"amenity":"waste_basket"}},"type":"Feature"},
	{"geometry":{"coordinates":[-6.03733,37.373069],"type":"Point"},"properties":{"osm_id":"6535718771","tag":{"amenity":"waste_basket"}},"type":"Feature"},
	{"geometry":{"coordinates":[-6.037514,37.373156],"type":"Point"},"properties":{"osm_id":"6535718772","tag":{"amenity":"waste_basket"}},"type":"Feature"},
	{"geometry":{"coordinates":[-6.037651,37.373385],"type":"Point"},"properties":{"osm_id":"6535718773","tag":{"amenity":"waste_basket"}},"type":"Feature"},
	{"geometry":{"coordinates":[-6.037184,37.373205],"type":"Point"},"properties":{"osm_id":"6535718775","tag":{"amenity":"waste_basket"}},"type":"Feature"},
	{"geometry":{"coordinates":[-6.045701,37.378743],"type":"Point"},"properties":{"osm_id":"6537700717","tag":{"amenity":"waste_basket"}},"type":"Feature"},
	{"geometry":{"coordinates":[-6.045973,37.378448],"type":"Point"},"properties":{"osm_id":"6537700719","tag":{"amenity":"waste_basket"}},"type":"Feature"},
	{"geometry":{"coordinates":[-6.046266,37.378509],"type":"Point"},"properties":{"osm_id":"6537700720","tag":{"amenity":"waste_basket"}},"type":"Feature"},
	{"geometry":{"coordinates":[-6.046429,37.37867],"type":"Point"},"properties":{"osm_id":"6537700721","tag":{"amenity":"waste_basket"}},"type":"Feature"},
	{"geometry":{"coordinates":[-6.046101,37.378782],"type":"Point"},"properties":{"osm_id":"6537700722","tag":{"amenity":"waste_basket"}},"type":"Feature"},
	{"geometry":{"coordinates":[-6.048869,37.378743],"type":"Point"},"properties":{"osm_id":"6537700784","tag":{"amenity":"waste_basket"}},"type":"Feature"},
	{"geometry":{"coordinates":[-6.049171,37.379187],"type":"Point"},"properties":{"osm_id":"6537700785","tag":{"amenity":"waste_basket"}},"type":"Feature"},
	{"geometry":{"coordinates":[-6.049142,37.379319],"type":"Point"},"properties":{"osm_id":"6537700786","tag":{"amenity":"waste_basket"}},"type":"Feature"},
	{"geometry":{"coordinates":[-6.049539,37.378928],"type":"Point"},"properties":{"osm_id":"6537700787","tag":{"amenity":"waste_basket"}},"type":"Feature"},
	{"geometry":{"coordinates":[-6.04837,37.379121],"type":"Point"},"properties":{"osm_id":"6537700788","tag":{"amenity":"waste_basket"}},"type":"Feature"},
	{"geometry":{"coordinates":[-6.048688,37.378858],"type":"Point"},"properties":{"osm_id":"6537700789","tag":{"amenity":"waste_basket"}},"type":"Feature"},
	{"geometry":{"coordinates":[-6.033494,37.377841],"type":"Point"},"properties":{"osm_id":"6537700820","tag":{"amenity":"waste_basket"}},"type":"Feature"},
	{"geometry":{"coordinates":[-6.033187,37.37784],"type":"Point"},"properties":{"osm_id":"6537700821","tag":{"amenity":"waste_basket"}},"type":"Feature"},
	{"geometry":{"coordinates":[-6.033112,37.37771],"type":"Point"},"properties":{"osm_id":"6537700822","tag":{"amenity":"waste_basket"}},"type":"Feature"},
	{"geometry":{"coordinates":[-6.033124,37.377564],"type":"Point"},"properties":{"osm_id":"6537700823","tag":{"amenity":"waste_basket"}},"type":"Feature"},
	{"geometry":{"coordinates":[-6.034374,37.373787],"type":"Point"},"properties":{"osm_id":"6537771736","tag":{"amenity":"waste_basket"}},"type":"Feature"},
	{"geometry":{"coordinates":[-6.03674,37.376135],"type":"Point"},"properties":{"osm_id":"6537771790","tag":{"amenity":"waste_basket"}},"type":"Feature"},
	{"geometry":{"coordinates":[-6.036868,37.375728],"type":"Point"},"properties":{"osm_id":"6537771791","tag":{"amenity":"waste_basket"}},"type":"Feature"},
	{"geometry":{"coordinates":[-6.03667,37.375844],"type":"Point"},"properties":{"osm_id":"6537771792","tag":{"amenity":"waste_basket"}},"type":"Feature"},
	{"geometry":{"coordinates":[-6.050265,37.376911],"type":"Point"},"properties":{"osm_id":"6538313933","tag":{"amenity":"waste_basket"}},"type":"Feature"},
	{"geometry":{"coordinates":[-6.050063,37.376832],"type":"Point"},"properties":{"osm_id":"6538313934","tag":{"amenity":"waste_basket"}},"type":"Feature"},
	{"geometry":{"coordinates":[-6.048082,37.378126],"type":"Point"},"properties":{"osm_id":"6538360141","tag":{"amenity":"waste_basket"}},"type":"Feature"},
	{"geometry":{"coordinates":[-6.047867,37.378006],"type":"Point"},"properties":{"osm_id":"6538360142","tag":{"amenity":"waste_basket"}},"type":"Feature"},
	{"geometry":{"coordinates":[-6.047941,37.377932],"type":"Point"},"properties":{"osm_id":"6538360143","tag":{"amenity":"waste_basket"}},"type":"Feature"},
	{"geometry":{"coordinates":[-6.048153,37.378028],"type":"Point"},"properties":{"osm_id":"6538360144","tag":{"amenity":"waste_basket"}},"type":"Feature"},
	{"geometry":{"coordinates":[-6.048095,37.377871],"type":"Point"},"properties":{"osm_id":"6538360145","tag":{"amenity":"waste_basket"}},"type":"Feature"},
	{"geometry":{"coordinates":[-6.048438,37.377778],"type":"Point"},"properties":{"osm_id":"6538360146","tag":{"amenity":"waste_basket"}},"type":"Feature"},
	{"geometry":{"coordinates":[-6.048195,37.377647],"type":"Point"},"properties":{"osm_id":"6538360147","tag":{"amenity":"waste_basket"}},"type":"Feature"},
	{"geometry":{"coordinates":[-6.048173,37.377783],"type":"Point"},"properties":{"osm_id":"6538360174","tag":{"amenity":"waste_basket"}},"type":"Feature"},
	{"geometry":{"coordinates":[-6.051474,37.376101],"type":"Point"},"properties":{"osm_id":"6538381535","tag":{"amenity":"waste_basket"}},"type":"Feature"},
	{"geometry":{"coordinates":[-6.051424,37.37594],"type":"Point"},"properties":{"osm_id":"6538381536","tag":{"amenity":"waste_basket"}},"type":"Feature"},
	{"geometry":{"coordinates":[-6.051586,37.375989],"type":"Point"},"properties":{"osm_id":"6538381537","tag":{"amenity":"waste_basket"}},"type":"Feature"},
	{"geometry":{"coordinates":[-6.051907,37.377488],"type":"Point"},"properties":{"osm_id":"6538392850","tag":{"amenity":"waste_basket"}},"type":"Feature"},
	{"geometry":{"coordinates":[-6.05175,37.377443],"type":"Point"},"properties":{"osm_id":"6538392852","tag":{"amenity":"waste_basket"}},"type":"Feature"},
	{"geometry":{"coordinates":[-6.051798,37.37736],"type":"Point"},"properties":{"osm_id":"6538392853","tag":{"amenity":"waste_basket"}},"type":"Feature"},
	{"geometry":{"coordinates":[-6.051945,37.377414],"type":"Point"},"properties":{"osm_id":"6538392854","tag":{"amenity":"waste_basket"}},"type":"Feature"},
	{"geometry":{"coordinates":[-6.044577,37.37344],"type":"Point"},"properties":{"osm_id":"6538443117","tag":{"amenity":"waste_basket"}},"type":"Feature"},
	{"geometry":{"coordinates":[-6.050376,37.370511],"type":"Point"},"properties":{"osm_id":"6538482640","tag":{"amenity":"waste_basket"}},"type":"Feature"},
	{"geometry":{"coordinates":[-6.050198,37.370604],"type":"Point"},"properties":{"osm_id":"6538482641","tag":{"amenity":"waste_basket"}},"type":"Feature"},
	{"geometry":{"coordinates":[-6.050333,37.370502],"type":"Point"},"properties":{"osm_id":"6538482642","tag":{"amenity":"waste_basket"}},"type":"Feature"},
	{"geometry":{"coordinates":[-6.050011,37.370771],"type":"Point"},"properties":{"osm_id":"6538482643","tag":{"amenity":"waste_basket"}},"type":"Feature"},
	{"geometry":{"coordinates":[-6.04994,37.370935],"type":"Point"},"properties":{"osm_id":"6538482644","tag":{"amenity":"waste_basket"}},"type":"Feature"},
	{"geometry":{"coordinates":[-6.050182,37.370943],"type":"Point"},"properties":{"osm_id":"6538482645","tag":{"amenity":"waste_basket"}},"type":"Feature"},
	{"geometry":{"coordinates":[-6.050372,37.370884],"type":"Point"},"properties":{"osm_id":"6538482646","tag":{"amenity":"waste_basket"}},"type":"Feature"},
	{"geometry":{"coordinates":[-6.050564,37.37066],"type":"Point"},"properties":{"osm_id":"6538482647","tag":{"amenity":"waste_basket"}},"type":"Feature"},
	{"geometry":{"coordinates":[-6.050097,37.371105],"type":"Point"},"properties":{"osm_id":"6538482648","tag":{"amenity":"waste_basket"}},"type":"Feature"},
	{"geometry":{"coordinates":[-6.049725,37.371131],"type":"Point"},"properties":{"osm_id":"6538482649","tag":{"amenity":"waste_basket"}},"type":"Feature"},
	{"geometry":{"coordinates":[-6.051657,37.370225],"type":"Point"},"properties":{"osm_id":"6541071636","tag":{"amenity":"waste_basket"}},"type":"Feature"},
	{"geometry":{"coordinates":[-6.051926,37.370396],"type":"Point"},"properties":{"osm_id":"6541071637","tag":{"amenity":"waste_basket"}},"type":"Feature"},
	{"geometry":{"coordinates":[-6.051894,37.370235],"type":"Point"},"properties":{"osm_id":"6541071638","tag":{"amenity":"waste_basket"}},"type":"Feature"},
	{"geometry":{"coordinates":[-6.0528,37.370967],"type":"Point"},"properties":{"osm_id":"6541071639","tag":{"amenity":"waste_basket"}},"type":"Feature"},
	{"geometry":{"coordinates":[-6.053052,37.370977],"type":"Point"},"properties":{"osm_id":"6541071640","tag":{"amenity":"waste_basket"}},"type":"Feature"},
	{"geometry":{"coordinates":[-6.053156,37.371178],"type":"Point"},"properties":{"osm_id":"6541071641","tag":{"amenity":"waste_basket"}},"type":"Feature"},
	{"geometry":{"coordinates":[-6.053445,37.371225],"type":"Point"},"properties":{"osm_id":"6541071642","tag":{"amenity":"waste_basket"}},"type":"Feature"},
	{"geometry":{"coordinates":[-6.054219,37.371854],"type":"Point"},"properties":{"osm_id":"6541071643","tag":{"amenity":"waste_basket"}},"type":"Feature"},
	{"geometry":{"coordinates":[-6.054556,37.37194],"type":"Point"},"properties":{"osm_id":"6541071644","tag":{"amenity":"waste_basket"}},"type":"Feature"},
	{"geometry":{"coordinates":[-6.054482,37.372012],"type":"Point"},"properties":{"osm_id":"6541071645","tag":{"amenity":"waste_basket"}},"type":"Feature"},
	{"geometry":{"coordinates":[-6.054806,37.372101],"type":"Point"},"properties":{"osm_id":"6541071646","tag":{"amenity":"waste_basket"}},"type":"Feature"},
	{"geometry":{"coordinates":[-6.055413,37.372262],"type":"Point"},"properties":{"osm_id":"6541071647","tag":{"amenity":"waste_basket"}},"type":"Feature"},
	{"geometry":{"coordinates":[-6.009431,37.376149],"type":"Point"},"properties":{"highway":"street_lamp","osm_id":"6542557686","tag":{"amenity":"waste_basket","lamp_flames":"1","lamp_mount":"straight mast","material":"metal","operator":"LIPASAM"}},"type":"Feature"},
	{"geometry":{"coordinates":[-6.009267,37.376686],"type":"Point"},"properties":{"highway":"street_lamp","osm_id":"6542605091","tag":{"amenity":"waste_basket","lamp_flames":"1","lamp_mount":"straight mast","material":"metal","operator":"LIPASAM"}},"type":"Feature"},
	{"geometry":{"coordinates":[-6.009297,37.375911],"type":"Point"},"properties":{"highway":"street_lamp","osm_id":"6542660887","tag":{"amenity":"waste_basket","lamp_flames":"1","lamp_mount":"straight mast","material":"metal","operator":"LIPASAM"}},"type":"Feature"},
	{"geometry":{"coordinates":[-6.009238,37.376371],"type":"Point"},"properties":{"osm_id":"6545220685","tag":{"amenity":"waste_basket","operator":"LIPASAM"}},"type":"Feature"},
	{"geometry":{"coordinates":[-6.009021,37.376542],"type":"Point"},"properties":{"osm_id":"6545220686","tag":{"amenity":"waste_basket","operator":"LIPASAM"}},"type":"Feature"},
	{"geometry":{"coordinates":[-6.011275,37.376547],"type":"Point"},"properties":{"osm_id":"6553701905","tag":{"amenity":"recycling","operator":"LIPASAM","recycling:waste":"yes","recycling_type":"container"}},"type":"Feature"},
	{"geometry":{"coordinates":[-6.010959,37.376857],"type":"Point"},"properties":{"osm_id":"6553701907","tag":{"amenity":"recycling","operator":"LIPASAM","recycling:waste":"yes","recycling_type":"container"}},"type":"Feature"},
	{"geometry":{"coordinates":[-6.011715,37.376199],"type":"Point"},"properties":{"osm_id":"6553702202","tag":{"amenity":"waste_basket","operator":"LIPASAM"}},"type":"Feature"},
	{"geometry":{"coordinates":[-6.011065,37.376756],"type":"Point"},"properties":{"osm_id":"6553702493","tag":{"amenity":"recycling","operator":"LIPASAM","recycling:cans":"yes","recycling:cardboard":"yes","recycling:glass":"yes","recycling:glass_bottles":"yes","recycling:paper":"yes","recycling:plastic":"yes","recycling:plastic_bottles":"yes","recycling:plastic_packaging":"yes","recycling:waste":"no","recycling_type":"container"}},"type":"Feature"},
	{"geometry":{"coordinates":[-6.01127,37.376589],"type":"Point"},"properties":{"osm_id":"6553702694","tag":{"amenity":"waste_basket","operator":"LIPASAM"}},"type":"Feature"},
	{"geometry":{"coordinates":[-6.010711,37.377118],"type":"Point"},"properties":{"osm_id":"6553702993","tag":{"amenity":"waste_basket","operator":"LIPASAM"}},"type":"Feature"},
	{"geometry":{"coordinates":[-6.010083,37.3777],"type":"Point"},"properties":{"osm_id":"6554092888","tag":{"amenity":"recycling","operator":"LIPASAM","recycling:cans":"yes","recycling:cardboard":"yes","recycling:glass":"yes","recycling:glass_bottles":"yes","recycling:paper":"yes","recycling:plastic":"yes","recycling:plastic_bottles":"yes","recycling:plastic_packaging":"yes","recycling:waste":"no","recycling_type":"container"}},"type":"Feature"},
	{"geometry":{"coordinates":[-6.010202,37.37762],"type":"Point"},"properties":{"osm_id":"6554092987","tag":{"amenity":"waste_basket","operator":"LIPASAM"}},"type":"Feature"},
	{"geometry":{"coordinates":[-6.010397,37.377394],"type":"Point"},"properties":{"osm_id":"6554093085","tag":{"amenity":"recycling","recycling:waste":"yes","recycling_type":"container"}},"type":"Feature"},
	{"geometry":{"coordinates":[-6.008433,37.378621],"type":"Point"},"properties":{"osm_id":"6554131890","tag":{"amenity":"recycling","operator":"LIPASAM","recycling:cans":"yes","recycling:cardboard":"yes","recycling:glass":"yes","recycling:glass_bottles":"yes","recycling:paper":"yes","recycling:plastic":"yes","recycling:plastic_bottles":"yes","recycling:plastic_packaging":"yes","recycling:waste":"no","recycling_type":"container"}},"type":"Feature"},
	{"geometry":{"coordinates":[-6.008822,37.378433],"type":"Point"},"properties":{"osm_id":"6554140787","tag":{"amenity":"waste_basket","operator":"LIPASAM"}},"type":"Feature"},
	{"geometry":{"coordinates":[-6.008387,37.378658],"type":"Point"},"properties":{"osm_id":"6554140792","tag":{"amenity":"waste_basket","operator":"LIPASAM"}},"type":"Feature"},
	{"geometry":{"coordinates":[-6.009144,37.375051],"type":"Point"},"properties":{"osm_id":"6566616410","tag":{"amenity":"recycling","operator":"LIPASAM","recycling:waste":"yes","recycling_type":"container"}},"type":"Feature"},
	{"geometry":{"coordinates":[-6.009139,37.374997],"type":"Point"},"properties":{"highway":"street_lamp","osm_id":"6566621011","tag":{"amenity":"waste_basket","lamp_flames":"1","lamp_mount":"straight mast","lamp_type":"electrical"}},"type":"Feature"},
	{"geometry":{"coordinates":[-6.04201,37.37154],"type":"Point"},"properties":{"osm_id":"6591813215","tag":{"amenity":"waste_basket"}},"type":"Feature"},
	{"geometry":{"coordinates":[-6.04226,37.371671],"type":"Point"},"properties":{"osm_id":"6591813216","tag":{"amenity":"waste_basket"}},"type":"Feature"},
	{"geometry":{"coordinates":[-6.042338,37.371552],"type":"Point"},"properties":{"osm_id":"6591813217","tag":{"amenity":"waste_basket"}},"type":"Feature"},
	{"geometry":{"coordinates":[-6.043088,37.372224],"type":"Point"},"properties":{"osm_id":"6591813246","tag":{"amenity":"waste_basket"}},"type":"Feature"},
	{"geometry":{"coordinates":[-6.042907,37.372065],"type":"Point"},"properties":{"osm_id":"6591813247","tag":{"amenity":"waste_basket"}},"type":"Feature"},
	{"geometry":{"coordinates":[-6.042993,37.371987],"type":"Point"},"properties":{"osm_id":"6591813248","tag":{"amenity":"waste_basket"}},"type":"Feature"},
	{"geometry":{"coordinates":[-6.043202,37.372049],"type":"Point"},"properties":{"osm_id":"6591813249","tag":{"amenity":"waste_basket"}},"type":"Feature"},
	{"geometry":{"coordinates":[-6.043339,37.372154],"type":"Point"},"properties":{"osm_id":"6591813250","tag":{"amenity":"waste_basket"}},"type":"Feature"},
	{"geometry":{"coordinates":[-6.044761,37.37421],"type":"Point"},"properties":{"osm_id":"6591813254","tag":{"amenity":"waste_basket"}},"type":"Feature"},
	{"geometry":{"coordinates":[-6.012583,37.380621],"type":"Point"},"properties":{"highway":"street_lamp","osm_id":"6615761896","tag":{"amenity":"waste_basket","lamp_flames":"1","lamp_mount":"straight_mast"}},"type":"Feature"},
	{"geometry":{"coordinates":[-6.013011,37.380993],"type":"Point"},"properties":{"osm_id":"6618610331","tag":{"amenity":"waste_basket","material":"metal"}},"type":"Feature"},
	{"geometry":{"coordinates":[-6.01245,37.380914],"type":"Point"},"properties":{"highway":"street_lamp","osm_id":"6618750479","tag":{"amenity":"waste_basket","lamp_flames":"1","lamp_mount":"straight_mast"}},"type":"Feature"},
	{"geometry":{"coordinates":[-6.013581,37.379698],"type":"Point"},"properties":{"highway":"street_lamp","osm_id":"6621871500","tag":{"amenity":"waste_basket","lamp_flames":"1","lamp_mount":"straight_mast"}},"type":"Feature"},
	{"geometry":{"coordinates":[-6.013818,37.379322],"type":"Point"},"properties":{"highway":"street_lamp","osm_id":"6621927531","tag":{"amenity":"waste_basket","lamp_flames":"1","lamp_mount":"straight_mast"}},"type":"Feature"},
	{"geometry":{"coordinates":[-6.01387,37.379465],"type":"Point"},"properties":{"highway":"street_lamp","osm_id":"6622118236","tag":{"amenity":"waste_basket","lamp_flames":"1","lamp_mount":"straight_mast"}},"type":"Feature"},
	{"geometry":{"coordinates":[-6.012509,37.379277],"type":"Point"},"properties":{"osm_id":"6631124198","tag":{"amenity":"waste_basket","material":"metal"}},"type":"Feature"},
	{"geometry":{"coordinates":[-6.001676,37.384762],"type":"Point"},"properties":{"osm_id":"6635984289","tag":{"amenity":"waste_basket"}},"type":"Feature"},
	{"geometry":{"coordinates":[-6.013119,37.37975],"type":"Point"},"properties":{"highway":"street_lamp","osm_id":"6637144881","tag":{"amenity":"waste_basket","lamp_flames":"1","lamp_mount":"straight_mast"}},"type":"Feature"},
	{"geometry":{"coordinates":[-6.013277,37.379391],"type":"Point"},"properties":{"highway":"street_lamp","osm_id":"6637150088","tag":{"amenity":"waste_basket","lamp_flames":"1","lamp_mount":"straight_mast"}},"type":"Feature"},
	{"geometry":{"coordinates":[-6.002206,37.379371],"type":"Point"},"properties":{"osm_id":"6641165793","tag":{"amenity":"waste_basket"}},"type":"Feature"},
	{"geometry":{"coordinates":[-6.002804,37.379904],"type":"Point"},"properties":{"osm_id":"6641179887","tag":{"amenity":"waste_basket"}},"type":"Feature"},
	{"geometry":{"coordinates":[-5.998931,37.375769],"type":"Point"},"properties":{"osm_id":"6641640086","tag":{"amenity":"waste_basket"}},"type":"Feature"},
	{"geometry":{"coordinates":[-6.000042,37.37725],"type":"Point"},"properties":{"osm_id":"6641686289","tag":{"amenity":"waste_basket"}},"type":"Feature"},
	{"geometry":{"coordinates":[-6.012285,37.379822],"type":"Point"},"properties":{"highway":"street_lamp","osm_id":"6644904222","tag":{"amenity":"waste_basket","lamp_flames":"1","lamp_mount":"straight_mast"}},"type":"Feature"},
	{"geometry":{"coordinates":[-6.012683,37.379853],"type":"Point"},"properties":{"highway":"street_lamp","osm_id":"6644904223","tag":{"amenity":"waste_basket","lamp_flames":"1","lamp_mount":"straight_mast"}},"type":"Feature"},
	{"geometry":{"coordinates":[-6.012503,37.379743],"type":"Point"},"properties":{"highway":"street_lamp","osm_id":"6644922095","tag":{"amenity":"waste_basket","lamp_flames":"1","lamp_mount":"straight_mast"}},"type":"Feature"},
	{"geometry":{"coordinates":[-6.01262,37.379556],"type":"Point"},"properties":{"highway":"street_lamp","osm_id":"6644922289","tag":{"amenity":"waste_basket","lamp_flames":"1","lamp_mount":"straight_mast"}},"type":"Feature"},
	{"geometry":{"coordinates":[-6.006733,37.381334],"type":"Point"},"properties":{"osm_id":"6652291289","tag":{"amenity":"recycling","recycling:clothes":"yes","recycling_type":"container"}},"type":"Feature"},
	{"geometry":{"coordinates":[-5.999765,37.382565],"type":"Point"},"properties":{"osm_id":"6667992985","tag":{"amenity":"waste_basket"}},"type":"Feature"},
	{"geometry":{"coordinates":[-6.008339,37.392393],"type":"Point"},"properties":{"osm_id":"7009817377","tag":{"amenity":"waste_basket"}},"type":"Feature"},
	{"geometry":{"coordinates":[-6.007572,37.390752],"type":"Point"},"properties":{"osm_id":"7009817467","tag":{"amenity":"waste_basket"}},"type":"Feature"},
	{"geometry":{"coordinates":[-6.001658,37.382912],"type":"Point"},"properties":{"osm_id":"7260073471","tag":{"amenity":"waste_basket","operator":"Lipasan"}},"type":"Feature"},
	{"geometry":{"coordinates":[-5.997505,37.412664],"type":"Point"},"properties":{"osm_id":"7440843834","tag":{"amenity":"waste_disposal"}},"type":"Feature"},
	{"geometry":{"coordinates":[-6.003675,37.372952],"type":"Point"},"properties":{"osm_id":"7809094821","tag":{"amenity":"waste_basket"}},"type":"Feature"},
	{"geometry":{"coordinates":[-6.003987,37.373119],"type":"Point"},"properties":{"osm_id":"7809094825","tag":{"amenity":"waste_basket"}},"type":"Feature"}
]
}
