{
"type": "FeatureCollection",
"lastupdate": "2020-08-02T00:00:00Z",
"features": [
	{"geometry":{"coordinates":[-0.400541,53.76298],"type":"Point"},"properties":{"osm_id":"249488316","tag":{"amenity":"recycling"}},"type":"Feature"},
	{"geometry":{"coordinates":[-0.367974,53.75356],"type":"Point"},"properties":{"osm_id":"1763227310","tag":{"amenity":"waste_basket"}},"type":"Feature"},
	{"geometry":{"coordinates":[-0.368492,53.754857],"type":"Point"},"properties":{"osm_id":"1763228995","tag":{"amenity":"waste_basket"}},"type":"Feature"},
	{"geometry":{"coordinates":[-0.370101,53.754883],"type":"Point"},"properties":{"osm_id":"1763230349","tag":{"amenity":"waste_basket"}},"type":"Feature"},
	{"geometry":{"coordinates":[-0.370101,53.756316],"type":"Point"},"properties":{"osm_id":"1763231832","tag":{"amenity":"waste_basket"}},"type":"Feature"},
	{"geometry":{"coordinates":[-0.370359,53.757807],"type":"Point"},"properties":{"osm_id":"1763232789","tag":{"amenity":"waste_basket"}},"type":"Feature"},
	{"geometry":{"coordinates":[-0.370531,53.757896],"type":"Point"},"properties":{"osm_id":"1763233491","tag":{"amenity":"waste_basket"}},"type":"Feature"},
	{"geometry":{"coordinates":[-0.354064,53.760779],"type":"Point"},"properties":{"osm_id":"3458504494","tag":{"addr:city":"Kingston upon Hull","addr:postcode":"HU5 2QR","addr:street":"Queens Road","amenity":"recycling","recycling:cans":"yes","recycling:glass":"yes"}},"type":"Feature"},
	{"geometry":{"coordinates":[-0.367861,53.752758],"type":"Point"},"properties":{"osm_id":"4755983055","tag":{"amenity":"waste_basket"}},"type":"Feature"},
	{"geometry":{"coordinates":[-0.3739,53.756081],"type":"Point"},"properties":{"osm_id":"4755996584","tag":{"amenity":"waste_basket"}},"type":"Feature"},
	{"geometry":{"coordinates":[-0.373411,53.751355],"type":"Point"},"properties":{"osm_id":"4755996585","tag":{"amenity":"waste_basket"}},"type":"Feature"},
	{"geometry":{"coordinates":[-0.376428,53.750796],"type":"Point"},"properties":{"osm_id":"4755996586","tag":{"amenity":"waste_basket"}},"type":"Feature"},
	{"geometry":{"coordinates":[-0.378776,53.750727],"type":"Point"},"properties":{"osm_id":"4755996587","tag":{"amenity":"waste_basket"}},"type":"Feature"},
	{"geometry":{"coordinates":[-0.373505,53.750691],"type":"Point"},"properties":{"osm_id":"4756009170","tag":{"amenity":"waste_basket"}},"type":"Feature"},
	{"geometry":{"coordinates":[-0.373025,53.750708],"type":"Point"},"properties":{"osm_id":"4756009171","tag":{"amenity":"waste_basket"}},"type":"Feature"},
	{"geometry":{"coordinates":[-0.362923,53.751388],"type":"Point"},"properties":{"osm_id":"4756009172","tag":{"amenity":"waste_basket"}},"type":"Feature"},
	{"geometry":{"coordinates":[-0.361026,53.752169],"type":"Point"},"properties":{"osm_id":"4756009173","tag":{"amenity":"waste_basket"}},"type":"Feature"},
	{"geometry":{"coordinates":[-0.360276,53.753689],"type":"Point"},"properties":{"osm_id":"4756009174","tag":{"amenity":"waste_basket"}},"type":"Feature"},
	{"geometry":{"coordinates":[-0.366942,53.752793],"type":"Point"},"properties":{"osm_id":"4756021076","tag":{"amenity":"waste_basket"}},"type":"Feature"}
]
}
