{
"type": "FeatureCollection",
"features": [
	{"geometry":{"coordinates":[-0.370325,50.809366],"type":"Point"},"properties":{"osm_id":"681510559","tag":{"amenity":"waste_disposal"}},"type":"Feature"},
	{"geometry":{"coordinates":[-0.413254,50.805901],"type":"Point"},"properties":{"osm_id":"5041422537","tag":{"amenity":"recycling","recycling:clothes":"yes","recycling:shoes":"yes","recycling_type":"container"}},"type":"Feature"},
	{"geometry":{"coordinates":[-0.417467,50.821198],"type":"Point"},"properties":{"osm_id":"8191700603","tag":{"amenity":"waste_basket","ashtray":"no","colour":"black","covered":"yes","operator":"Adur & Worthing Council Services"}},"type":"Feature"},
	{"geometry":{"coordinates":[-0.420183,50.823419],"type":"Point"},"properties":{"osm_id":"8191701007","tag":{"amenity":"waste_basket","ashtray":"no","colour":"black","covered":"yes","operator":"Adur & Worthing Council Services"}},"type":"Feature"},
	{"geometry":{"coordinates":[-0.42986,50.826694],"type":"Point"},"properties":{"osm_id":"8191814950","tag":{"amenity":"waste_basket","ashtray":"no","colour":"black","covered":"yes"}},"type":"Feature"},
	{"geometry":{"coordinates":[-0.429994,50.826733],"type":"Point"},"properties":{"osm_id":"8191872659","tag":{"amenity":"waste_basket","colour":"red","waste":"dog_excrement"}},"type":"Feature"},
	{"geometry":{"coordinates":[-0.42656,50.828921],"type":"Point"},"properties":{"osm_id":"8191892819","tag":{"amenity":"waste_basket","ashtray":"no","colour":"black","covered":"yes","operator":"Adur & Worthing Council Services"}},"type":"Feature"},
	{"geometry":{"coordinates":[-0.423842,50.819079],"type":"Point"},"properties":{"osm_id":"8191911713","tag":{"amenity":"waste_basket","ashtray":"no","colour":"red","covered":"yes"}},"type":"Feature"},
	{"geometry":{"coordinates":[-0.425824,50.825902],"type":"Point"},"properties":{"osm_id":"8191949781","tag":{"amenity":"waste_basket","ashtray":"no","colour":"green","covered":"yes"}},"type":"Feature"},
	{"geometry":{"coordinates":[-0.424235,50.821174],"type":"Point"},"properties":{"osm_id":"8191957170","tag":{"amenity":"waste_basket","colour":"red","covered":"yes","operator":"Adur & Worthing Councils","waste":"dog_excrement"}},"type":"Feature"},
	{"geometry":{"coordinates":[-0.424135,50.81894],"type":"Point"},"properties":{"osm_id":"8191961745","tag":{"amenity":"waste_basket","ashtray":"no","colour":"black","covered":"yes","operator":"Adur & Worthing Council Services"}},"type":"Feature"},
	{"geometry":{"coordinates":[-0.416845,50.814548],"type":"Point"},"properties":{"osm_id":"8192072844","tag":{"amenity":"waste_basket","ashtray":"no","colour":"black","covered":"yes","operator":"Adur & Worthing Council Services"}},"type":"Feature"},
	{"geometry":{"coordinates":[-0.409218,50.813416],"type":"Point"},"properties":{"osm_id":"8192130357","tag":{"amenity":"waste_basket","ashtray":"no","colour":"black","covered":"yes"}},"type":"Feature"}
]
}
