{
"type": "FeatureCollection",
"features": [
	{"geometry":{"coordinates":[-0.365287,48.586269],"type":"Point"},"properties":{"osm_id":"1406922444","tag":{"amenity":"recycling","recycling:clothes":"yes","recycling:glass_bottles":"yes","recycling:paper":"yes","recycling:plastic":"yes"}},"type":"Feature"},
	{"geometry":{"coordinates":[-0.370466,48.586688],"type":"Point"},"properties":{"osm_id":"2415885429","tag":{"amenity":"waste_basket"}},"type":"Feature"},
	{"geometry":{"coordinates":[-0.369481,48.58717],"type":"Point"},"properties":{"osm_id":"2415885440","tag":{"amenity":"waste_basket"}},"type":"Feature"},
	{"geometry":{"coordinates":[-0.371715,48.587302],"type":"Point"},"properties":{"osm_id":"2415885445","tag":{"amenity":"waste_basket"}},"type":"Feature"},
	{"geometry":{"coordinates":[-0.37248,48.58792],"type":"Point"},"properties":{"osm_id":"2415885455","tag":{"amenity":"waste_basket"}},"type":"Feature"},
	{"geometry":{"coordinates":[-0.368053,48.588328],"type":"Point"},"properties":{"osm_id":"2415885464","tag":{"amenity":"waste_basket"}},"type":"Feature"},
	{"geometry":{"coordinates":[-0.366878,48.589439],"type":"Point"},"properties":{"osm_id":"2415930300","tag":{"amenity":"waste_basket"}},"type":"Feature"},
	{"geometry":{"coordinates":[-0.367143,48.589709],"type":"Point"},"properties":{"osm_id":"2415930314","tag":{"amenity":"waste_basket"}},"type":"Feature"},
	{"geometry":{"coordinates":[-0.368362,48.590498],"type":"Point"},"properties":{"osm_id":"2415930353","tag":{"amenity":"waste_basket"}},"type":"Feature"},
	{"geometry":{"coordinates":[-0.368422,48.590637],"type":"Point"},"properties":{"osm_id":"2415930355","tag":{"amenity":"waste_basket"}},"type":"Feature"},
	{"geometry":{"coordinates":[-0.368616,48.590791],"type":"Point"},"properties":{"osm_id":"2415930360","tag":{"amenity":"waste_basket"}},"type":"Feature"},
	{"geometry":{"coordinates":[-0.368498,48.590976],"type":"Point"},"properties":{"osm_id":"2415930364","tag":{"amenity":"waste_basket"}},"type":"Feature"},
	{"geometry":{"coordinates":[-0.369421,48.591462],"type":"Point"},"properties":{"osm_id":"2415930371","tag":{"amenity":"waste_basket"}},"type":"Feature"},
	{"geometry":{"coordinates":[-0.370663,48.591757],"type":"Point"},"properties":{"osm_id":"2415930379","tag":{"amenity":"waste_basket"}},"type":"Feature"},
	{"geometry":{"coordinates":[-0.377329,48.591263],"type":"Point"},"properties":{"osm_id":"2415973879","tag":{"amenity":"waste_basket"}},"type":"Feature"},
	{"geometry":{"coordinates":[-0.374223,48.593122],"type":"Point"},"properties":{"osm_id":"2415973934","tag":{"amenity":"waste_basket"}},"type":"Feature"},
	{"geometry":{"coordinates":[-0.373298,48.593614],"type":"Point"},"properties":{"osm_id":"2415973955","tag":{"amenity":"waste_basket"}},"type":"Feature"},
	{"geometry":{"coordinates":[-0.372963,48.593734],"type":"Point"},"properties":{"osm_id":"2415973974","tag":{"amenity":"waste_basket"}},"type":"Feature"},
	{"geometry":{"coordinates":[-0.358796,48.5897],"type":"Point"},"properties":{"osm_id":"2548495872","tag":{"amenity":"waste_basket"}},"type":"Feature"},
	{"geometry":{"coordinates":[-0.357222,48.591496],"type":"Point"},"properties":{"osm_id":"2548495899","tag":{"amenity":"waste_basket"}},"type":"Feature"},
	{"geometry":{"coordinates":[-0.357005,48.591705],"type":"Point"},"properties":{"osm_id":"2548495902","tag":{"amenity":"waste_basket"}},"type":"Feature"},
	{"geometry":{"coordinates":[-0.356618,48.592135],"type":"Point"},"properties":{"osm_id":"2548495908","tag":{"amenity":"waste_basket"}},"type":"Feature"},
	{"geometry":{"coordinates":[-0.35833,48.592004],"type":"Point"},"properties":{"osm_id":"2549272354","tag":{"amenity":"waste_basket"}},"type":"Feature"},
	{"geometry":{"coordinates":[-0.358132,48.589297],"type":"Point"},"properties":{"osm_id":"2558310174","tag":{"amenity":"waste_basket"}},"type":"Feature"},
	{"geometry":{"coordinates":[-0.358325,48.58959],"type":"Point"},"properties":{"osm_id":"2591588224","tag":{"amenity":"waste_basket"}},"type":"Feature"},
	{"geometry":{"coordinates":[-0.357213,48.589745],"type":"Point"},"properties":{"osm_id":"2591588226","tag":{"amenity":"waste_basket"}},"type":"Feature"},
	{"geometry":{"coordinates":[-0.357825,48.589784],"type":"Point"},"properties":{"osm_id":"2591588229","tag":{"amenity":"waste_basket"}},"type":"Feature"},
	{"geometry":{"coordinates":[-0.357114,48.589864],"type":"Point"},"properties":{"osm_id":"2591588245","tag":{"amenity":"waste_basket"}},"type":"Feature"},
	{"geometry":{"coordinates":[-0.357827,48.589869],"type":"Point"},"properties":{"osm_id":"2591588247","tag":{"amenity":"waste_basket"}},"type":"Feature"},
	{"geometry":{"coordinates":[-0.357799,48.589937],"type":"Point"},"properties":{"osm_id":"2591588275","tag":{"amenity":"waste_basket"}},"type":"Feature"},
	{"geometry":{"coordinates":[-0.355834,48.58918],"type":"Point"},"properties":{"osm_id":"2970209355","tag":{"amenity":"waste_basket"}},"type":"Feature"},
	{"geometry":{"coordinates":[-0.356725,48.594993],"type":"Point"},"properties":{"osm_id":"2974337494","tag":{"amenity":"waste_basket"}},"type":"Feature"},
	{"geometry":{"coordinates":[-0.359918,48.595567],"type":"Point"},"properties":{"osm_id":"2975649171","tag":{"amenity":"waste_basket"}},"type":"Feature"},
	{"geometry":{"coordinates":[-0.358649,48.589573],"type":"Point"},"properties":{"osm_id":"3158102139","tag":{"amenity":"waste_basket"}},"type":"Feature"},
	{"geometry":{"coordinates":[-0.357608,48.59049],"type":"Point"},"properties":{"osm_id":"3158102140","tag":{"amenity":"waste_basket"}},"type":"Feature"},
	{"geometry":{"coordinates":[-0.364974,48.59336],"type":"Point"},"properties":{"osm_id":"3256935215","tag":{"amenity":"recycling","recycling:glass_bottles":"yes","recycling_type":"container"}},"type":"Feature"},
	{"geometry":{"coordinates":[-0.358439,48.585223],"type":"Point"},"properties":{"osm_id":"3625421409","tag":{"amenity":"waste_basket"}},"type":"Feature"},
	{"geometry":{"coordinates":[-0.358168,48.585281],"type":"Point"},"properties":{"osm_id":"3625421413","tag":{"amenity":"waste_basket"}},"type":"Feature"},
	{"geometry":{"coordinates":[-0.359232,48.585639],"type":"Point"},"properties":{"osm_id":"3625421424","tag":{"amenity":"waste_basket"}},"type":"Feature"},
	{"geometry":{"coordinates":[-0.390274,48.611489],"type":"Point"},"properties":{"osm_id":"4617196490","tag":{"amenity":"recycling","recycling_type":"container"}},"type":"Feature"},
	{"geometry":{"coordinates":[-0.396474,48.612531],"type":"Point"},"properties":{"name":"D\u00c3\u00a9ch\u00c3\u00a8terie\u00c2\u00a0de\u00c2\u00a0Saint-maurice-du-d\u00c3\u00a9sert","osm_id":"6960929989","tag":{"amenity":"recycling","operator":"Sirtom\u00c2\u00a0de\u00c2\u00a0la\u00c2\u00a0R\u00c3\u00a9gion\u00c2\u00a0Flers\u00c2\u00a0Cond\u00c3\u00a9","recycling_type":"centre","ref:FR:SINOE":"4209","start_date":"1997-12-01"}},"type":"Feature"}
]
}
