{
"type": "FeatureCollection",
"features": [
	{"geometry":{"coordinates":[-0.360769,47.117398],"type":"Point"},"properties":{"osm_id":"8066139435","tag":{"amenity":"waste_basket"}},"type":"Feature"},
	{"geometry":{"coordinates":[-0.361209,47.117157],"type":"Point"},"properties":{"osm_id":"8066139444","tag":{"amenity":"waste_basket"}},"type":"Feature"},
	{"geometry":{"coordinates":[-0.365546,47.117636],"type":"Point"},"properties":{"osm_id":"8074038142","tag":{"amenity":"waste_basket"}},"type":"Feature"},
	{"geometry":{"coordinates":[-0.361153,47.117914],"type":"Point"},"properties":{"osm_id":"8074333635","tag":{"amenity":"recycling","recycling:glass_bottles":"yes","recycling_type":"container"}},"type":"Feature"},
	{"geometry":{"coordinates":[-0.367252,47.118512],"type":"Point"},"properties":{"osm_id":"8080932162","tag":{"amenity":"recycling","recycling:glass":"yes","recycling_type":"container"}},"type":"Feature"},
	{"geometry":{"coordinates":[-0.364399,47.115395],"type":"Point"},"properties":{"osm_id":"8087625475","tag":{"amenity":"waste_basket","covered":"yes","indoor":"no","material":"concrete","waste":"trash"}},"type":"Feature"},
	{"geometry":{"coordinates":[-0.361205,47.117146],"type":"Point"},"properties":{"osm_id":"8108535590","tag":{"amenity":"waste_basket","waste":"dog_excrement"}},"type":"Feature"},
	{"geometry":{"coordinates":[-0.364995,47.115082],"type":"Point"},"properties":{"osm_id":"8108680459","tag":{"amenity":"waste_basket","waste":"trash"}},"type":"Feature"},
	{"geometry":{"coordinates":[-0.36529,47.1156],"type":"Point"},"properties":{"osm_id":"8119327815","tag":{"amenity":"recycling","recycling:glass_bottles":"yes","recycling_type":"container"}},"type":"Feature"}
]
}
