{
"type": "FeatureCollection",
"lastupdate": "2020-08-06T00:00:00Z",
"features": [
	{"geometry":{"coordinates":[-0.354351,44.563265],"type":"Point"},"properties":{"osm_id":"5868814968","tag":{"amenity":"recycling","recycling:clothes":"yes","recycling:shoes":"yes","recycling_type":"container","website":"http://www.lerelais.org/"}},"type":"Feature"},
	{"geometry":{"coordinates":[-0.354369,44.563239],"type":"Point"},"properties":{"osm_id":"5868814969","tag":{"amenity":"recycling","recycling:glass_bottles":"yes","recycling_type":"container"}},"type":"Feature"},
	{"geometry":{"coordinates":[-0.359104,44.54756],"type":"Point"},"properties":{"osm_id":"5868814970","tag":{"amenity":"recycling","recycling:cans":"yes","recycling:cartons":"yes","recycling:glass_bottles":"yes","recycling:paper":"yes","recycling:plastic_bottles":"yes","recycling_type":"container","website":"http://sictomsudgironde.fr/"}},"type":"Feature"},
	{"geometry":{"coordinates":[-0.38566,44.534469],"type":"Point"},"properties":{"osm_id":"6736008143","tag":{"amenity":"recycling","recycling:clothes":"yes","recycling:shoes":"yes","recycling_type":"container"}},"type":"Feature"},
	{"geometry":{"coordinates":[-0.38507,44.533503],"type":"Point"},"properties":{"osm_id":"6736014689","tag":{"amenity":"waste_basket"}},"type":"Feature"}
]
}
