{
"type": "FeatureCollection",
"features": [
	{"geometry":{"coordinates":[-0.420641,43.821359],"type":"Point"},"properties":{"osm_id":"7455703639","tag":{"amenity":"recycling","operator":"SICTOM du Marsan","recycling_type":"container"}},"type":"Feature"},
	{"geometry":{"coordinates":[-0.418778,43.820321],"type":"Point"},"properties":{"osm_id":"7455703640","tag":{"amenity":"recycling","operator":"SICTOM du Marsan","recycling_type":"container"}},"type":"Feature"},
	{"geometry":{"coordinates":[-0.418542,43.822757],"type":"Point"},"properties":{"osm_id":"8244332040","tag":{"amenity":"recycling","opening_hours":"24/7","operator":"SICTOM du Marsan","recycling:glass":"yes","recycling:glass_bottles":"yes","recycling:paper":"yes","recycling:plastic":"yes","recycling:plastic_bottles":"yes","recycling:verre":"yes","recycling_type":"container"}},"type":"Feature"},
	{"geometry":{"coordinates":[-0.428055,43.824449],"type":"Point"},"properties":{"osm_id":"8244462125","tag":{"amenity":"recycling","recycling:glass":"yes","recycling:glass_bottles":"yes","recycling:paper":"yes","recycling:plastic":"yes","recycling_type":"container"}},"type":"Feature"},
	{"geometry":{"coordinates":[-0.420615,43.828242],"type":"Point"},"properties":{"osm_id":"8268322523","tag":{"amenity":"recycling","recycling:cardboard":"yes","recycling:cartons":"yes","recycling:paper":"yes","recycling:paper_packaging":"yes","recycling:plastic_bottles":"yes","recycling:waste":"yes","recycling_type":"container"}},"type":"Feature"},
	{"geometry":{"coordinates":[-0.409961,43.824818],"type":"Point"},"properties":{"osm_id":"8268322525","tag":{"amenity":"recycling","recycling:waste":"yes","recycling_type":"container"}},"type":"Feature"},
	{"geometry":{"coordinates":[-0.435199,43.774932],"type":"Point"},"properties":{"osm_id":"8354328133","tag":{"amenity":"waste_disposal","operator":"Ville de Grenade-sur-l'Adour"}},"type":"Feature"},
	{"geometry":{"coordinates":[-0.419257,43.821355],"type":"Point"},"properties":{"osm_id":"8564658392","tag":{"amenity":"waste_basket"}},"type":"Feature"},
	{"geometry":{"coordinates":[-0.415248,43.822376],"type":"Point"},"properties":{"osm_id":"8949423804","tag":{"access":"permissive","amenity":"waste_disposal","operator":"SICTOM","waste":"recycling"}},"type":"Feature"},
	{"geometry":{"coordinates":[-0.425234,43.777983],"type":"Point"},"properties":{"osm_id":"9199499745","tag":{"amenity":"recycling","recycling_type":"container"}},"type":"Feature"},
	{"geometry":{"coordinates":[-0.425224,43.778003],"type":"Point"},"properties":{"osm_id":"9199499746","tag":{"amenity":"recycling","recycling_type":"container"}},"type":"Feature"},
	{"geometry":{"coordinates":[-0.425213,43.778021],"type":"Point"},"properties":{"osm_id":"9199499747","tag":{"amenity":"recycling","recycling_type":"container"}},"type":"Feature"}
]
}
