{
"type": "FeatureCollection",
"features": [
	{"geometry":{"coordinates":[-0.418104,43.759203],"type":"Point"},"properties":{"osm_id":"8564616011","tag":{"amenity":"recycling","operator":"SICTOM du Marsan","recycling_type":"container"}},"type":"Feature"},
	{"geometry":{"coordinates":[-0.428704,43.769076],"type":"Point"},"properties":{"osm_id":"8564644109","tag":{"amenity":"recycling","operator":"SICTOM du Marsan","recycling:glass":"yes","recycling:glass_bottles":"yes","recycling:paper":"yes","recycling_type":"container"}},"type":"Feature"},
	{"geometry":{"coordinates":[-0.422867,43.764812],"type":"Point"},"properties":{"osm_id":"8564667950","tag":{"amenity":"recycling","operator":"SICTOM du Marsan","recycling:glass":"yes","recycling:glass_bottles":"yes","recycling:paper":"yes","recycling_type":"container"}},"type":"Feature"},
	{"geometry":{"coordinates":[-0.426095,43.768623],"type":"Point"},"properties":{"osm_id":"8564668893","tag":{"amenity":"recycling","operator":"SICTOM du Marsan","recycling_type":"container"}},"type":"Feature"},
	{"geometry":{"coordinates":[-0.41143,43.710017],"type":"Point"},"properties":{"osm_id":"8752980554","tag":{"amenity":"recycling","recycling:beverage_cartons":"yes","recycling_type":"container"}},"type":"Feature"},
	{"geometry":{"coordinates":[-0.408867,43.723103],"type":"Point"},"properties":{"osm_id":"8753011591","tag":{"amenity":"recycling","recycling:glass":"yes","recycling:paper":"yes","recycling:plastic_packaging":"yes","recycling_type":"container"}},"type":"Feature"},
	{"geometry":{"coordinates":[-0.412404,43.710838],"type":"Point"},"properties":{"osm_id":"8753025654","tag":{"amenity":"recycling","recycling:glass":"yes","recycling_type":"container"}},"type":"Feature"}
]
}
