{
"type": "FeatureCollection",
"features": [
	{"geometry":{"coordinates":[-0.377275,43.696391],"type":"Point"},"properties":{"osm_id":"7965681258","tag":{"amenity":"waste_basket"}},"type":"Feature"},
	{"geometry":{"coordinates":[-0.37698,43.696418],"type":"Point"},"properties":{"osm_id":"7965749186","tag":{"amenity":"waste_basket"}},"type":"Feature"},
	{"geometry":{"coordinates":[-0.376385,43.696335],"type":"Point"},"properties":{"osm_id":"7965749187","tag":{"amenity":"waste_basket"}},"type":"Feature"},
	{"geometry":{"coordinates":[-0.376843,43.69589],"type":"Point"},"properties":{"osm_id":"7965749188","tag":{"amenity":"waste_basket"}},"type":"Feature"},
	{"geometry":{"coordinates":[-0.377496,43.696067],"type":"Point"},"properties":{"osm_id":"7965749189","tag":{"amenity":"waste_basket"}},"type":"Feature"},
	{"geometry":{"coordinates":[-0.377823,43.696187],"type":"Point"},"properties":{"osm_id":"7965749190","tag":{"amenity":"waste_basket"}},"type":"Feature"},
	{"geometry":{"coordinates":[-0.378328,43.695692],"type":"Point"},"properties":{"osm_id":"7965749191","tag":{"amenity":"waste_basket"}},"type":"Feature"},
	{"geometry":{"coordinates":[-0.37872,43.695277],"type":"Point"},"properties":{"osm_id":"7965749192","tag":{"amenity":"waste_basket"}},"type":"Feature"},
	{"geometry":{"coordinates":[-0.376042,43.695572],"type":"Point"},"properties":{"osm_id":"7965749193","tag":{"amenity":"waste_basket"}},"type":"Feature"},
	{"geometry":{"coordinates":[-0.375997,43.695149],"type":"Point"},"properties":{"osm_id":"7965749194","tag":{"amenity":"waste_basket"}},"type":"Feature"},
	{"geometry":{"coordinates":[-0.375395,43.694811],"type":"Point"},"properties":{"osm_id":"7965749195","tag":{"amenity":"waste_basket"}},"type":"Feature"},
	{"geometry":{"coordinates":[-0.374825,43.694753],"type":"Point"},"properties":{"osm_id":"7965749196","tag":{"amenity":"waste_basket"}},"type":"Feature"},
	{"geometry":{"coordinates":[-0.374335,43.695091],"type":"Point"},"properties":{"osm_id":"7965749198","tag":{"amenity":"waste_basket"}},"type":"Feature"},
	{"geometry":{"coordinates":[-0.374566,43.694671],"type":"Point"},"properties":{"osm_id":"7965749199","tag":{"amenity":"waste_basket"}},"type":"Feature"},
	{"geometry":{"coordinates":[-0.375177,43.695761],"type":"Point"},"properties":{"osm_id":"7965749200","tag":{"amenity":"waste_basket"}},"type":"Feature"},
	{"geometry":{"coordinates":[-0.374891,43.695772],"type":"Point"},"properties":{"osm_id":"7965749201","tag":{"amenity":"waste_basket"}},"type":"Feature"},
	{"geometry":{"coordinates":[-0.377284,43.697025],"type":"Point"},"properties":{"osm_id":"7965749202","tag":{"amenity":"waste_basket"}},"type":"Feature"},
	{"geometry":{"coordinates":[-0.377448,43.69678],"type":"Point"},"properties":{"osm_id":"7965749203","tag":{"amenity":"waste_basket"}},"type":"Feature"},
	{"geometry":{"coordinates":[-0.377801,43.696939],"type":"Point"},"properties":{"osm_id":"7965749204","tag":{"amenity":"waste_basket"}},"type":"Feature"},
	{"geometry":{"coordinates":[-0.378683,43.697114],"type":"Point"},"properties":{"osm_id":"7965749205","tag":{"amenity":"waste_basket"}},"type":"Feature"},
	{"geometry":{"coordinates":[-0.378323,43.697039],"type":"Point"},"properties":{"osm_id":"7965749206","tag":{"amenity":"waste_basket"}},"type":"Feature"},
	{"geometry":{"coordinates":[-0.378787,43.697245],"type":"Point"},"properties":{"osm_id":"7965749207","tag":{"amenity":"waste_basket"}},"type":"Feature"},
	{"geometry":{"coordinates":[-0.377733,43.695437],"type":"Point"},"properties":{"osm_id":"7965759047","tag":{"amenity":"recycling","operator":"Sictom Ouest","recycling:cans":"yes","recycling:cartons":"yes","recycling:magazines":"yes","recycling:paper":"yes","recycling:plastic":"yes","recycling:plastic_bottles":"yes","recycling:plastic_packaging":"yes","recycling:waste":"yes","recycling_type":"container"}},"type":"Feature"},
	{"geometry":{"coordinates":[-0.374618,43.694558],"type":"Point"},"properties":{"osm_id":"7965759048","tag":{"amenity":"recycling","recycling:clothes":"yes","recycling:glass":"yes","recycling:glass_bottles":"yes","recycling_type":"container"}},"type":"Feature"},
	{"geometry":{"coordinates":[-0.376659,43.695193],"type":"Point"},"properties":{"osm_id":"8022299194","tag":{"amenity":"recycling","opening_hours":"24/7","operator":"Sictom Ouest","recycling:glass":"yes","recycling:glass_bottles":"yes","recycling_type":"container"}},"type":"Feature"},
	{"geometry":{"coordinates":[-0.377016,43.69543],"type":"Point"},"properties":{"osm_id":"8024458472","tag":{"amenity":"recycling","recycling:cans":"yes","recycling:cartons":"yes","recycling:magazines":"yes","recycling:paper":"yes","recycling:plastic":"yes","recycling:plastic_bottles":"yes","recycling:plastic_packaging":"yes","recycling:waste":"yes","recycling_type":"container"}},"type":"Feature"},
	{"geometry":{"coordinates":[-0.379461,43.696598],"type":"Point"},"properties":{"osm_id":"8033004742","tag":{"amenity":"waste_basket"}},"type":"Feature"},
	{"geometry":{"coordinates":[-0.37472,43.694876],"type":"Point"},"properties":{"osm_id":"8033004763","tag":{"amenity":"waste_basket"}},"type":"Feature"},
	{"geometry":{"coordinates":[-0.376763,43.704198],"type":"Point"},"properties":{"osm_id":"8621180625","tag":{"amenity":"recycling","recycling_type":"container"}},"type":"Feature"},
	{"geometry":{"coordinates":[-0.38263,43.692871],"type":"Point"},"properties":{"osm_id":"8621180627","tag":{"amenity":"recycling","recycling:glass_bottles":"yes","recycling:paper":"yes","recycling:plastic":"yes","recycling:waste":"yes","recycling_type":"container"}},"type":"Feature"}
]
}
