{
"type": "FeatureCollection",
"features": [
	{"geometry":{"coordinates":[-0.424815,43.10502],"type":"Point"},"properties":{"osm_id":"4331075561","tag":{"amenity":"recycling","recycling:glass_bottles":"yes","recycling_type":"container"}},"type":"Feature"},
	{"geometry":{"coordinates":[-0.422859,43.107404],"type":"Point"},"properties":{"osm_id":"4331087681","tag":{"amenity":"waste_basket"}},"type":"Feature"},
	{"geometry":{"coordinates":[-0.420207,43.108625],"type":"Point"},"properties":{"osm_id":"4331088490","tag":{"amenity":"waste_basket"}},"type":"Feature"},
	{"geometry":{"coordinates":[-0.419042,43.109032],"type":"Point"},"properties":{"osm_id":"4331088493","tag":{"amenity":"waste_basket"}},"type":"Feature"},
	{"geometry":{"coordinates":[-0.424362,43.102983],"type":"Point"},"properties":{"osm_id":"4331161253","tag":{"amenity":"recycling","recycling:glass_bottles":"yes","recycling_type":"container"}},"type":"Feature"},
	{"geometry":{"coordinates":[-0.424317,43.102995],"type":"Point"},"properties":{"osm_id":"4331161255","tag":{"amenity":"recycling","recycling:waste":"yes","recycling_type":"container"}},"type":"Feature"},
	{"geometry":{"coordinates":[-0.427097,43.103081],"type":"Point"},"properties":{"osm_id":"4332134521","tag":{"amenity":"recycling","check_date:recycling":"2021-06-26","recycling:glass_bottles":"yes","recycling_type":"container"}},"type":"Feature"},
	{"geometry":{"coordinates":[-0.432401,43.103284],"type":"Point"},"properties":{"osm_id":"4334011015","tag":{"amenity":"waste_basket"}},"type":"Feature"},
	{"geometry":{"coordinates":[-0.432286,43.102775],"type":"Point"},"properties":{"osm_id":"4335465124","tag":{"amenity":"waste_basket"}},"type":"Feature"},
	{"geometry":{"coordinates":[-0.427551,43.09874],"type":"Point"},"properties":{"osm_id":"4335490117","tag":{"amenity":"waste_basket"}},"type":"Feature"},
	{"geometry":{"coordinates":[-0.422199,43.085965],"type":"Point"},"properties":{"osm_id":"4436457723","tag":{"amenity":"recycling","recycling:waste":"yes","recycling_type":"container"}},"type":"Feature"},
	{"geometry":{"coordinates":[-0.428873,43.105143],"type":"Point"},"properties":{"osm_id":"4966383530","tag":{"amenity":"waste_basket"}},"type":"Feature"},
	{"geometry":{"coordinates":[-0.432026,43.108922],"type":"Point"},"properties":{"osm_id":"4966410052","tag":{"amenity":"recycling","recycling:glass_bottles":"yes","recycling_type":"container"}},"type":"Feature"},
	{"geometry":{"coordinates":[-0.426975,43.10506],"type":"Point"},"properties":{"osm_id":"5052651750","tag":{"amenity":"recycling","recycling:waste":"yes","recycling_type":"container"}},"type":"Feature"},
	{"geometry":{"coordinates":[-0.428183,43.104742],"type":"Point"},"properties":{"osm_id":"5052656882","tag":{"amenity":"recycling","recycling:cans":"yes","recycling:plastic":"yes","recycling_type":"container"}},"type":"Feature"},
	{"geometry":{"coordinates":[-0.428209,43.104748],"type":"Point"},"properties":{"osm_id":"5052656883","tag":{"amenity":"recycling","recycling:glass_bottles":"yes","recycling_type":"container"}},"type":"Feature"},
	{"geometry":{"coordinates":[-0.419578,43.085299],"type":"Point"},"properties":{"osm_id":"5086311206","tag":{"amenity":"recycling","recycling:glass_bottles":"yes","recycling_type":"container"}},"type":"Feature"},
	{"geometry":{"coordinates":[-0.435629,43.106684],"type":"Point"},"properties":{"osm_id":"5101396404","tag":{"amenity":"waste_basket"}},"type":"Feature"},
	{"geometry":{"coordinates":[-0.406346,43.101928],"type":"Point"},"properties":{"osm_id":"7248188301","tag":{"amenity":"recycling","recycling:glass":"no","recycling:waste":"yes","recycling_type":"container"}},"type":"Feature"},
	{"geometry":{"coordinates":[-0.406282,43.10195],"type":"Point"},"properties":{"osm_id":"7248188302","tag":{"amenity":"recycling","recycling:glass":"no","recycling:waste":"yes","recycling_type":"container"}},"type":"Feature"},
	{"geometry":{"coordinates":[-0.406228,43.101966],"type":"Point"},"properties":{"osm_id":"7248188303","tag":{"amenity":"recycling","recycling:glass_bottles":"yes","recycling_type":"container"}},"type":"Feature"},
	{"geometry":{"coordinates":[-0.352341,43.130104],"type":"Point"},"properties":{"osm_id":"8592750023","tag":{"amenity":"recycling","recycling:green":"yes","recycling_type":"container"}},"type":"Feature"},
	{"geometry":{"coordinates":[-0.416766,43.069538],"type":"Point"},"properties":{"osm_id":"8702234736","tag":{"amenity":"recycling","recycling:glass":"yes","recycling:glass_bottles":"yes","recycling_type":"container"}},"type":"Feature"},
	{"geometry":{"coordinates":[-0.419382,43.09368],"type":"Point"},"properties":{"osm_id":"8702511338","tag":{"amenity":"recycling","recycling:glass":"yes","recycling:glass_bottles":"yes","recycling_type":"container"}},"type":"Feature"},
	{"geometry":{"coordinates":[-0.434043,43.104026],"type":"Point"},"properties":{"name":"Collecteur verre","osm_id":"9091578828","tag":{"amenity":"recycling","material":"glass"}},"type":"Feature"}
]
}
