{
"type": "FeatureCollection",
"features": [
	{"geometry":{"coordinates":[-0.363941,42.517203],"type":"Point"},"properties":{"osm_id":"3840933724","tag":{"addr:city":"Sabi\u00c3\u00b1\u00c3\u00a1nigo","addr:postcode":"22600","addr:street":"Avenida de Huesca","amenity":"recycling","recycling:cans":"yes","recycling:glass_bottles":"yes","recycling:paper":"yes","recycling:plastic":"yes","recycling_type":"container"}},"type":"Feature"},
	{"geometry":{"coordinates":[-0.370515,42.519386],"type":"Point"},"properties":{"osm_id":"3843116542","tag":{"amenity":"recycling","recycling:cans":"yes","recycling:cooking_oil":"yes","recycling:glass_bottles":"yes","recycling:paper":"yes","recycling:plastic":"yes","recycling_type":"container"}},"type":"Feature"},
	{"geometry":{"coordinates":[-0.359016,42.505431],"type":"Point"},"properties":{"osm_id":"4000431696","tag":{"amenity":"recycling","recycling:cans":"yes","recycling:glass_bottles":"no","recycling:paper":"yes","recycling_type":"container"}},"type":"Feature"},
	{"geometry":{"coordinates":[-0.360402,42.502642],"type":"Point"},"properties":{"osm_id":"4000593642","tag":{"addr:city":"El Puente Sardas","addr:postcode":"22600","addr:street":"Calle de los Derechos Humanos","amenity":"recycling","recycling:cans":"yes","recycling:glass_bottles":"yes","recycling:paper":"yes","recycling:plastic":"yes","recycling_type":"container"}},"type":"Feature"},
	{"geometry":{"coordinates":[-0.35938,42.502963],"type":"Point"},"properties":{"osm_id":"4000791456","tag":{"addr:city":"El Puente Sardas","addr:housenumber":"57","addr:postcode":"22600","addr:street":"Avenida del Ej\u00c3\u00a9rcito","amenity":"recycling","recycling:cans":"yes","recycling:glass_bottles":"yes","recycling:paper":"yes","recycling:plastic":"yes","recycling_type":"container"}},"type":"Feature"},
	{"geometry":{"coordinates":[-0.35938,42.502309],"type":"Point"},"properties":{"osm_id":"4000793310","tag":{"addr:city":"El Puente Sardas","addr:housenumber":"59","addr:postcode":"22600","addr:street":"Avenida del Ej\u00c3\u00a9rcito","amenity":"recycling","recycling:cans":"yes","recycling:glass_bottles":"yes","recycling:paper":"yes","recycling:plastic":"yes","recycling_type":"container"}},"type":"Feature"},
	{"geometry":{"coordinates":[-0.360808,42.501047],"type":"Point"},"properties":{"osm_id":"4000827679","tag":{"addr:city":"El Puente Sardas","addr:postcode":"22600","addr:street":"Camino Campo de Tiro","amenity":"recycling","recycling:cans":"yes","recycling:glass_bottles":"yes","recycling:organic_waste":"yes","recycling:paper":"yes","recycling:plastic":"yes","recycling_type":"container"}},"type":"Feature"},
	{"geometry":{"coordinates":[-0.3622,42.498742],"type":"Point"},"properties":{"osm_id":"4000845152","tag":{"addr:city":"El Puente Sardas","addr:postcode":"22600","addr:street":"Avenida del Ejercito","amenity":"recycling","recycling:cans":"yes","recycling:glass_bottles":"yes","recycling:paper":"yes","recycling:plastic":"yes","recycling_type":"container"}},"type":"Feature"},
	{"geometry":{"coordinates":[-0.357765,42.507032],"type":"Point"},"properties":{"osm_id":"4000994183","tag":{"addr:city":"El Puente de Sardas","addr:postcode":"22600","addr:street":"Avenida del Ejercito","amenity":"recycling","check_date:recycling":"2021-09-11","recycling:cans":"yes","recycling:glass_bottles":"yes","recycling:paper":"yes","recycling:plastic":"yes","recycling_type":"container"}},"type":"Feature"},
	{"geometry":{"coordinates":[-0.357794,42.506985],"type":"Point"},"properties":{"osm_id":"4000994184","tag":{"amenity":"waste_disposal"}},"type":"Feature"},
	{"geometry":{"coordinates":[-0.357983,42.507589],"type":"Point"},"properties":{"osm_id":"4001045927","tag":{"addr:city":"El Puente de Sardas","addr:postcode":"22600","addr:street":"Calle Hermanos Argensola","amenity":"recycling","recycling:cans":"yes","recycling:glass_bottles":"yes","recycling:paper":"yes","recycling:plastic":"yes","recycling_type":"container"}},"type":"Feature"},
	{"geometry":{"coordinates":[-0.362462,42.520761],"type":"Point"},"properties":{"osm_id":"4146890487","tag":{"addr:city":"Sabi\u00c3\u00b1\u00c3\u00a1nigo","addr:postcode":"22600","addr:street":"Calle del General Villacampa","amenity":"recycling","recycling:cans":"yes","recycling:glass_bottles":"yes","recycling:paper":"yes","recycling:plastic":"yes","recycling_type":"container"}},"type":"Feature"},
	{"geometry":{"coordinates":[-0.363755,42.521013],"type":"Point"},"properties":{"osm_id":"4146924118","tag":{"addr:city":"Sabi\u00c3\u00b1\u00c3\u00a1nigo","addr:housenumber":"2","addr:postcode":"22600","addr:street":"Paseo de la Corona","amenity":"recycling","recycling:cans":"yes","recycling:clothes":"no","recycling:glass_bottles":"yes","recycling:paper":"yes","recycling:plastic":"yes","recycling_type":"container"}},"type":"Feature"},
	{"geometry":{"coordinates":[-0.365314,42.521071],"type":"Point"},"properties":{"osm_id":"4147739818","tag":{"addr:city":"Sabi\u00c3\u00b1\u00c3\u00a1nigo","addr:postcode":"22600","addr:street":"Plaza de la Constituci\u00c3\u00b3n Espa\u00c3\u00b1ola de 1978","amenity":"recycling","recycling:cans":"yes","recycling:glass_bottles":"yes","recycling:paper":"yes","recycling:plastic":"yes","recycling_type":"container"}},"type":"Feature"},
	{"geometry":{"coordinates":[-0.367187,42.520917],"type":"Point"},"properties":{"osm_id":"4149406735","tag":{"addr:city":"Sabi\u00c3\u00b1\u00c3\u00a1nigo","addr:postcode":"22600","addr:street":"Calle de Panticosa","amenity":"recycling","recycling:cans":"yes","recycling:glass_bottles":"yes","recycling:paper":"yes","recycling:plastic":"yes","recycling_type":"container"}},"type":"Feature"},
	{"geometry":{"coordinates":[-0.372574,42.523119],"type":"Point"},"properties":{"osm_id":"4151545983","tag":{"addr:city":"Sabi\u00c3\u00b1\u00c3\u00a1nigo","addr:postcode":"22600","addr:street":"Calle de S\u00c3\u00a1nchez Ventura (D. Jos\u00c3\u00a9 M.)","amenity":"recycling","recycling:cans":"yes","recycling:glass_bottles":"yes","recycling:paper":"yes","recycling:plastic":"yes","recycling_type":"container"}},"type":"Feature"},
	{"geometry":{"coordinates":[-0.370033,42.518822],"type":"Point"},"properties":{"osm_id":"4153624342","tag":{"addr:city":"Sabi\u00c3\u00b1\u00c3\u00a1nigo","addr:postcode":"22600","addr:street":"Camino de Sabi\u00c3\u00b1\u00c3\u00a1nigo Alto","amenity":"recycling","recycling:cans":"yes","recycling:glass_bottles":"no","recycling:paper":"yes","recycling:plastic":"yes","recycling_type":"container"}},"type":"Feature"},
	{"geometry":{"coordinates":[-0.366839,42.517994],"type":"Point"},"properties":{"osm_id":"4207406489","tag":{"addr:city":"Sabi\u00c3\u00b1\u00c3\u00a1nigo","addr:postcode":"22600","addr:street":"Calle de Nuestra Se\u00c3\u00b1ora del Pilar","amenity":"recycling","recycling:glass_bottles":"yes","recycling:organic":"yes","recycling:paper":"yes","recycling:plastic":"yes","recycling:plastic_bottles":"yes","recycling:waste":"yes","recycling_type":"container"}},"type":"Feature"},
	{"geometry":{"coordinates":[-0.368077,42.518516],"type":"Point"},"properties":{"osm_id":"4207429849","tag":{"amenity":"recycling","recycling:cans":"yes","recycling:glass_bottles":"yes","recycling:organic":"yes","recycling:plastic":"yes","recycling:waste":"yes","recycling_type":"container"}},"type":"Feature"},
	{"geometry":{"coordinates":[-0.369063,42.518885],"type":"Point"},"properties":{"osm_id":"4207510461","tag":{"addr:city":"Sabi\u00c3\u00b1\u00c3\u00a1nigo","addr:housenumber":"42","addr:postcode":"22600","addr:street":"Calle del Serrablo","amenity":"recycling","recycling:glass_bottles":"yes","recycling:organic":"yes","recycling:paper":"yes","recycling:plastic_bottles":"yes","recycling_type":"container"}},"type":"Feature"},
	{"geometry":{"coordinates":[-0.434514,42.546508],"type":"Point"},"properties":{"osm_id":"4413504149","tag":{"addr:city":"Martillu\u00c3\u00a9","addr:street":"Calle de la Iglesia","amenity":"recycling","recycling:organic":"yes","recycling:paper":"yes","recycling_type":"container"}},"type":"Feature"},
	{"geometry":{"coordinates":[-0.358291,42.523508],"type":"Point"},"properties":{"osm_id":"4456603962","tag":{"amenity":"waste_basket"}},"type":"Feature"},
	{"geometry":{"coordinates":[-0.358436,42.523464],"type":"Point"},"properties":{"osm_id":"4456603963","tag":{"amenity":"waste_basket"}},"type":"Feature"},
	{"geometry":{"coordinates":[-0.357214,42.521836],"type":"Point"},"properties":{"osm_id":"4456651263","tag":{"amenity":"waste_basket"}},"type":"Feature"},
	{"geometry":{"coordinates":[-0.357086,42.521918],"type":"Point"},"properties":{"osm_id":"4456651264","tag":{"amenity":"waste_basket"}},"type":"Feature"},
	{"geometry":{"coordinates":[-0.356898,42.522029],"type":"Point"},"properties":{"osm_id":"4456651265","tag":{"amenity":"waste_basket"}},"type":"Feature"},
	{"geometry":{"coordinates":[-0.37699,42.53251],"type":"Point"},"properties":{"osm_id":"4530196901","tag":{"amenity":"waste_basket"}},"type":"Feature"},
	{"geometry":{"coordinates":[-0.364065,42.517784],"type":"Point"},"properties":{"osm_id":"4590512789","tag":{"amenity":"waste_basket"}},"type":"Feature"},
	{"geometry":{"coordinates":[-0.365162,42.518925],"type":"Point"},"properties":{"osm_id":"4910372721","tag":{"amenity":"waste_basket"}},"type":"Feature"},
	{"geometry":{"coordinates":[-0.364919,42.518852],"type":"Point"},"properties":{"osm_id":"4910372722","tag":{"amenity":"waste_basket"}},"type":"Feature"},
	{"geometry":{"coordinates":[-0.405161,42.525105],"type":"Point"},"properties":{"osm_id":"5111451564","tag":{"amenity":"recycling","recycling:glass_bottles":"yes","recycling:organic_waste":"yes","recycling:paper":"yes","recycling_type":"container"}},"type":"Feature"},
	{"geometry":{"coordinates":[-0.369118,42.518198],"type":"Point"},"properties":{"osm_id":"5772617353","tag":{"amenity":"waste_basket"}},"type":"Feature"},
	{"geometry":{"coordinates":[-0.363,42.501049],"type":"Point"},"properties":{"osm_id":"6712731630","tag":{"amenity":"recycling","recycling:glass_bottles":"yes","recycling:organic_waste":"yes","recycling:paper_packaging":"yes","recycling:plastic_bottles":"yes","recycling_type":"container"}},"type":"Feature"},
	{"geometry":{"coordinates":[-0.365878,42.519107],"type":"Point"},"properties":{"osm_id":"7264029174","tag":{"amenity":"waste_basket"}},"type":"Feature"},
	{"geometry":{"coordinates":[-0.359597,42.503552],"type":"Point"},"properties":{"osm_id":"7873453208","tag":{"amenity":"waste_basket"}},"type":"Feature"},
	{"geometry":{"coordinates":[-0.359701,42.503737],"type":"Point"},"properties":{"osm_id":"7873453210","tag":{"amenity":"waste_basket"}},"type":"Feature"}
]
}
