{
"type": "FeatureCollection",
"features": [
	{"geometry":{"coordinates":[0.138709,52.21619],"type":"Point"},"properties":{"osm_id":"21137355","tag":{"amenity":"recycling","location":"overground","recycling:batteries":"yes","recycling:clothes":"yes","recycling:shoes":"yes","recycling_type":"container"}},"type":"Feature"},
	{"geometry":{"coordinates":[0.15225,52.23052],"type":"Point"},"properties":{"osm_id":"21261084","tag":{"amenity":"recycling","location":"overground","recycling_type":"container"}},"type":"Feature"},
	{"geometry":{"coordinates":[0.136807,52.229674],"type":"Point"},"properties":{"osm_id":"21449507","tag":{"amenity":"recycling"}},"type":"Feature"},
	{"geometry":{"coordinates":[0.126751,52.231296],"type":"Point"},"properties":{"osm_id":"21449587","tag":{"amenity":"recycling"}},"type":"Feature"},
	{"geometry":{"coordinates":[0.127464,52.224902],"type":"Point"},"properties":{"osm_id":"21591335","tag":{"amenity":"recycling","operator":"Recolight","recycling:batteries":"yes","recycling:low_energy_bulbs":"yes","recycling_type":"container"}},"type":"Feature"},
	{"geometry":{"coordinates":[0.116378,52.216165],"type":"Point"},"properties":{"osm_id":"21591786","tag":{"amenity":"recycling"}},"type":"Feature"},
	{"geometry":{"coordinates":[0.156553,52.238649],"type":"Point"},"properties":{"osm_id":"308714223","tag":{"amenity":"recycling","location":"overground","recycling_type":"container"}},"type":"Feature"},
	{"geometry":{"coordinates":[0.160917,52.236847],"type":"Point"},"properties":{"osm_id":"392450371","tag":{"amenity":"recycling","recycling:cans":"yes"}},"type":"Feature"},
	{"geometry":{"coordinates":[0.144622,52.218736],"type":"Point"},"properties":{"osm_id":"1429177817","tag":{"amenity":"waste_basket"}},"type":"Feature"},
	{"geometry":{"coordinates":[0.151537,52.240334],"type":"Point"},"properties":{"osm_id":"2564567907","tag":{"amenity":"waste_basket","waste":"dog_waste"}},"type":"Feature"},
	{"geometry":{"coordinates":[0.150884,52.218905],"type":"Point"},"properties":{"osm_id":"3715910355","tag":{"amenity":"waste_basket"}},"type":"Feature"},
	{"geometry":{"coordinates":[0.154069,52.219169],"type":"Point"},"properties":{"osm_id":"3715910359","tag":{"amenity":"waste_basket"}},"type":"Feature"},
	{"geometry":{"coordinates":[0.170056,52.22482],"type":"Point"},"properties":{"osm_id":"3715910378","tag":{"amenity":"waste_basket"}},"type":"Feature"},
	{"geometry":{"coordinates":[0.170142,52.225017],"type":"Point"},"properties":{"osm_id":"3715910381","tag":{"amenity":"waste_basket"}},"type":"Feature"},
	{"geometry":{"coordinates":[0.118065,52.234707],"type":"Point"},"properties":{"osm_id":"4830537882","tag":{"amenity":"waste_basket"}},"type":"Feature"},
	{"geometry":{"coordinates":[0.093648,52.214749],"type":"Point"},"properties":{"name":"Bullard Labs","osm_id":"4892300002","tag":{"access":"private","amenity":"recycling","collection_times":"Weekly","operator":"University of Cambridge","recycling:fluorescent_tubes":"yes","recycling_type":"container"}},"type":"Feature"},
	{"geometry":{"coordinates":[0.088075,52.216752],"type":"Point"},"properties":{"osm_id":"4921819339","tag":{"amenity":"recycling","recycling_type":"container"}},"type":"Feature"},
	{"geometry":{"coordinates":[0.088047,52.217556],"type":"Point"},"properties":{"osm_id":"4921819576","tag":{"amenity":"recycling","recycling_type":"container"}},"type":"Feature"},
	{"geometry":{"coordinates":[0.088266,52.217689],"type":"Point"},"properties":{"osm_id":"4921819611","tag":{"amenity":"recycling","recycling_type":"container"}},"type":"Feature"},
	{"geometry":{"coordinates":[0.088292,52.21798],"type":"Point"},"properties":{"osm_id":"4921819780","tag":{"amenity":"recycling","recycling_type":"container"}},"type":"Feature"},
	{"geometry":{"coordinates":[0.095499,52.215019],"type":"Point"},"properties":{"name":"Greenwich House","osm_id":"4977527057","tag":{"access":"private","amenity":"recycling","collection_times":"During office hours","operator":"University of Cambridge","recycling:batteries":"yes","recycling:pens":"yes","recycling_type":"container"}},"type":"Feature"},
	{"geometry":{"coordinates":[0.158347,52.223949],"type":"Point"},"properties":{"osm_id":"5044217222","tag":{"amenity":"waste_basket"}},"type":"Feature"},
	{"geometry":{"coordinates":[0.154821,52.238909],"type":"Point"},"properties":{"osm_id":"5590057788","tag":{"amenity":"waste_basket"}},"type":"Feature"},
	{"geometry":{"coordinates":[0.160267,52.246448],"type":"Point"},"properties":{"osm_id":"5590143660","tag":{"amenity":"waste_basket"}},"type":"Feature"},
	{"geometry":{"coordinates":[0.1604,52.246155],"type":"Point"},"properties":{"osm_id":"5590143661","tag":{"amenity":"waste_basket","waste":"dog_excrement"}},"type":"Feature"},
	{"geometry":{"coordinates":[0.163211,52.244311],"type":"Point"},"properties":{"osm_id":"5590154282","tag":{"amenity":"waste_basket"}},"type":"Feature"},
	{"geometry":{"coordinates":[0.163268,52.236599],"type":"Point"},"properties":{"osm_id":"5590186465","tag":{"amenity":"waste_basket","waste":"dog_excrement"}},"type":"Feature"},
	{"geometry":{"coordinates":[0.162785,52.240231],"type":"Point"},"properties":{"osm_id":"5590343104","tag":{"amenity":"waste_basket"}},"type":"Feature"},
	{"geometry":{"coordinates":[0.156889,52.24585],"type":"Point"},"properties":{"osm_id":"5590429692","tag":{"amenity":"waste_basket","waste":"dog_excrement"}},"type":"Feature"},
	{"geometry":{"coordinates":[0.11127,52.216756],"type":"Point"},"properties":{"osm_id":"7014882536","tag":{"amenity":"recycling","operator":"The Salvation Army","recycling:clothes":"yes","recycling_type":"container"}},"type":"Feature"},
	{"geometry":{"coordinates":[0.135538,52.232732],"type":"Point"},"properties":{"osm_id":"7923524811","tag":{"amenity":"recycling","operator":"Recolight","recycling:batteries":"yes","recycling:low_energy_bulbs":"yes","recycling_type":"container"}},"type":"Feature"},
	{"geometry":{"coordinates":[0.135543,52.232736],"type":"Point"},"properties":{"osm_id":"7923524812","tag":{"amenity":"recycling","operator":"Salvation Army","recycling:clothes":"yes","recycling_type":"container"}},"type":"Feature"},
	{"geometry":{"coordinates":[0.135532,52.232729],"type":"Point"},"properties":{"osm_id":"7923524813","tag":{"amenity":"recycling","operator":"Veolia","recycling:cardboard":"yes","recycling_type":"container"}},"type":"Feature"},
	{"geometry":{"coordinates":[0.13552,52.232722],"type":"Point"},"properties":{"osm_id":"7923524814","tag":{"amenity":"recycling","operator":"Veolia","recycling:cans":"yes","recycling:cardboard":"yes","recycling:paper":"yes","recycling:plastic_bottles":"yes","recycling_type":"container"}},"type":"Feature"},
	{"geometry":{"coordinates":[0.135526,52.232725],"type":"Point"},"properties":{"osm_id":"7923524815","tag":{"amenity":"waste_disposal","operator":"Veolia"}},"type":"Feature"},
	{"geometry":{"coordinates":[0.127454,52.224882],"type":"Point"},"properties":{"osm_id":"7923524816","tag":{"amenity":"recycling","operator":"Salvation Army","recycling:clothes":"yes","recycling_type":"container"}},"type":"Feature"},
	{"geometry":{"coordinates":[0.127458,52.224889],"type":"Point"},"properties":{"osm_id":"7923524817","tag":{"amenity":"recycling","recycling:cans":"yes","recycling:cardboard":"yes","recycling:glass_bottles":"yes","recycling:paper":"yes","recycling:plastic_bottles":"yes","recycling_type":"container"}},"type":"Feature"},
	{"geometry":{"coordinates":[0.127461,52.224896],"type":"Point"},"properties":{"osm_id":"7923524818","tag":{"amenity":"waste_basket"}},"type":"Feature"}
]
}
