{
"type": "FeatureCollection",
"features": [
	{"geometry":{"coordinates":[0.098301,51.52392],"type":"Point"},"properties":{"name":"Barking Waste Transfer Station","osm_id":"670379640","tag":{"amenity":"recycling","recycling_type":"centre"}},"type":"Feature"},
	{"geometry":{"coordinates":[0.155825,51.529632],"type":"Point"},"properties":{"osm_id":"1362197419","tag":{"amenity":"waste_basket"}},"type":"Feature"},
	{"geometry":{"coordinates":[0.155996,51.532429],"type":"Point"},"properties":{"osm_id":"1363426480","tag":{"amenity":"waste_basket"}},"type":"Feature"},
	{"geometry":{"coordinates":[0.155529,51.530397],"type":"Point"},"properties":{"osm_id":"1363453469","tag":{"amenity":"waste_basket"}},"type":"Feature"},
	{"geometry":{"coordinates":[0.147721,51.542026],"type":"Point"},"properties":{"osm_id":"1369463429","tag":{"amenity":"waste_basket"}},"type":"Feature"},
	{"geometry":{"coordinates":[0.147742,51.541902],"type":"Point"},"properties":{"osm_id":"1369463441","tag":{"amenity":"waste_basket"}},"type":"Feature"},
	{"geometry":{"coordinates":[0.118023,51.561805],"type":"Point"},"properties":{"osm_id":"3679001332","tag":{"amenity":"waste_basket"}},"type":"Feature"},
	{"geometry":{"coordinates":[0.115512,51.558126],"type":"Point"},"properties":{"osm_id":"3679003876","tag":{"amenity":"waste_basket"}},"type":"Feature"},
	{"geometry":{"coordinates":[0.117658,51.559681],"type":"Point"},"properties":{"osm_id":"3679021107","tag":{"amenity":"waste_basket","waste":"dog"}},"type":"Feature"},
	{"geometry":{"coordinates":[0.117702,51.559484],"type":"Point"},"properties":{"osm_id":"3679021110","tag":{"amenity":"waste_basket"}},"type":"Feature"},
	{"geometry":{"coordinates":[0.117137,51.558133],"type":"Point"},"properties":{"osm_id":"3679021232","tag":{"amenity":"waste_basket"}},"type":"Feature"},
	{"geometry":{"coordinates":[0.116907,51.557866],"type":"Point"},"properties":{"osm_id":"3679021233","tag":{"amenity":"waste_basket"}},"type":"Feature"},
	{"geometry":{"coordinates":[0.117352,51.560955],"type":"Point"},"properties":{"osm_id":"3679022066","tag":{"amenity":"waste_basket","waste":"dog"}},"type":"Feature"},
	{"geometry":{"coordinates":[0.118496,51.560865],"type":"Point"},"properties":{"osm_id":"3679022074","tag":{"amenity":"waste_basket"}},"type":"Feature"},
	{"geometry":{"coordinates":[0.170055,51.553322],"type":"Point"},"properties":{"osm_id":"4393294045","tag":{"amenity":"waste_basket"}},"type":"Feature"},
	{"geometry":{"coordinates":[0.168529,51.55781],"type":"Point"},"properties":{"osm_id":"4393311044","tag":{"amenity":"waste_basket","waste":"dog_excrement"}},"type":"Feature"},
	{"geometry":{"coordinates":[0.167542,51.556902],"type":"Point"},"properties":{"osm_id":"4393328772","tag":{"amenity":"waste_basket","waste":"dog_excrement"}},"type":"Feature"},
	{"geometry":{"coordinates":[0.166109,51.559866],"type":"Point"},"properties":{"osm_id":"4393341310","tag":{"amenity":"waste_basket"}},"type":"Feature"},
	{"geometry":{"coordinates":[0.16634,51.560131],"type":"Point"},"properties":{"osm_id":"4393341362","tag":{"amenity":"waste_basket","waste":"dog_excrement"}},"type":"Feature"},
	{"geometry":{"coordinates":[0.16425,51.560976],"type":"Point"},"properties":{"osm_id":"4393341369","tag":{"amenity":"waste_basket"}},"type":"Feature"},
	{"geometry":{"coordinates":[0.162665,51.559614],"type":"Point"},"properties":{"osm_id":"4393369565","tag":{"amenity":"waste_basket"}},"type":"Feature"},
	{"geometry":{"coordinates":[0.162504,51.560476],"type":"Point"},"properties":{"osm_id":"4393369572","tag":{"amenity":"waste_basket"}},"type":"Feature"},
	{"geometry":{"coordinates":[0.161708,51.557718],"type":"Point"},"properties":{"osm_id":"4393385922","tag":{"amenity":"waste_basket","waste":"dog_excrement"}},"type":"Feature"},
	{"geometry":{"coordinates":[0.162349,51.55781],"type":"Point"},"properties":{"osm_id":"4393385931","tag":{"amenity":"waste_basket"}},"type":"Feature"},
	{"geometry":{"coordinates":[0.162472,51.557368],"type":"Point"},"properties":{"osm_id":"4393385946","tag":{"amenity":"waste_basket"}},"type":"Feature"},
	{"geometry":{"coordinates":[0.171602,51.552635],"type":"Point"},"properties":{"osm_id":"4393398016","tag":{"amenity":"waste_basket"}},"type":"Feature"},
	{"geometry":{"coordinates":[0.175695,51.552767],"type":"Point"},"properties":{"osm_id":"4393407413","tag":{"amenity":"waste_basket"}},"type":"Feature"},
	{"geometry":{"coordinates":[0.173755,51.516529],"type":"Point"},"properties":{"name":"SITA","osm_id":"5193849124","tag":{"amenity":"recycling"}},"type":"Feature"},
	{"geometry":{"coordinates":[0.109107,51.509549],"type":"Point"},"properties":{"osm_id":"5713754582","tag":{"amenity":"waste_basket"}},"type":"Feature"},
	{"geometry":{"coordinates":[0.123445,51.526562],"type":"Point"},"properties":{"osm_id":"6930040362","tag":{"amenity":"waste_basket"}},"type":"Feature"},
	{"geometry":{"coordinates":[0.120649,51.523005],"type":"Point"},"properties":{"osm_id":"6930060633","tag":{"amenity":"waste_basket"}},"type":"Feature"},
	{"geometry":{"coordinates":[0.119514,51.520593],"type":"Point"},"properties":{"osm_id":"6930060652","tag":{"amenity":"waste_basket"}},"type":"Feature"},
	{"geometry":{"coordinates":[0.115155,51.518513],"type":"Point"},"properties":{"osm_id":"6930060657","tag":{"amenity":"waste_basket"}},"type":"Feature"},
	{"geometry":{"coordinates":[0.114612,51.51888],"type":"Point"},"properties":{"osm_id":"6934353152","tag":{"amenity":"waste_basket"}},"type":"Feature"},
	{"geometry":{"coordinates":[0.119615,51.521237],"type":"Point"},"properties":{"osm_id":"6934353161","tag":{"amenity":"waste_basket"}},"type":"Feature"},
	{"geometry":{"coordinates":[0.124384,51.524842],"type":"Point"},"properties":{"osm_id":"6934384489","tag":{"amenity":"waste_basket"}},"type":"Feature"},
	{"geometry":{"coordinates":[0.098427,51.515596],"type":"Point"},"properties":{"osm_id":"7776071405","tag":{"amenity":"waste_basket"}},"type":"Feature"},
	{"geometry":{"coordinates":[0.097266,51.516879],"type":"Point"},"properties":{"osm_id":"7776071417","tag":{"amenity":"waste_basket"}},"type":"Feature"}
]
}
