{
"type": "FeatureCollection",
"features": [
	{"geometry":{"coordinates":[0.093824,51.457125],"type":"Point"},"properties":{"name":"Bexley Council Recycling","osm_id":"937008489","tag":{"amenity":"recycling"}},"type":"Feature"},
	{"geometry":{"coordinates":[0.130614,51.463271],"type":"Point"},"properties":{"osm_id":"1738560197","tag":{"amenity":"recycling"}},"type":"Feature"},
	{"geometry":{"coordinates":[0.175306,51.481744],"type":"Point"},"properties":{"osm_id":"2518919231","tag":{"amenity":"recycling"}},"type":"Feature"},
	{"geometry":{"coordinates":[0.108095,51.475234],"type":"Point"},"properties":{"osm_id":"2714006067","tag":{"amenity":"recycling","recycling:glass":"yes","recycling:paper":"yes"}},"type":"Feature"},
	{"geometry":{"coordinates":[0.157113,51.474714],"type":"Point"},"properties":{"osm_id":"4413975952","tag":{"amenity":"waste_basket","waste":"dog_excrement"}},"type":"Feature"},
	{"geometry":{"coordinates":[0.15574,51.475382],"type":"Point"},"properties":{"osm_id":"4413975954","tag":{"amenity":"recycling"}},"type":"Feature"},
	{"geometry":{"coordinates":[0.157263,51.474607],"type":"Point"},"properties":{"osm_id":"4413975971","tag":{"amenity":"waste_basket"}},"type":"Feature"},
	{"geometry":{"coordinates":[0.155654,51.475409],"type":"Point"},"properties":{"osm_id":"4413975978","tag":{"amenity":"waste_basket"}},"type":"Feature"},
	{"geometry":{"coordinates":[0.155051,51.475576],"type":"Point"},"properties":{"osm_id":"4413975985","tag":{"amenity":"waste_basket","waste":"dog_excrement"}},"type":"Feature"},
	{"geometry":{"coordinates":[0.154055,51.475386],"type":"Point"},"properties":{"osm_id":"4414028787","tag":{"amenity":"waste_basket"}},"type":"Feature"},
	{"geometry":{"coordinates":[0.152178,51.475489],"type":"Point"},"properties":{"osm_id":"4414032275","tag":{"amenity":"waste_basket","waste":"dog_excrement"}},"type":"Feature"},
	{"geometry":{"coordinates":[0.151328,51.477649],"type":"Point"},"properties":{"osm_id":"4414032682","tag":{"amenity":"waste_basket","waste":"dog_excrement"}},"type":"Feature"},
	{"geometry":{"coordinates":[0.151491,51.477721],"type":"Point"},"properties":{"osm_id":"4414032683","tag":{"amenity":"waste_basket"}},"type":"Feature"},
	{"geometry":{"coordinates":[0.154636,51.477939],"type":"Point"},"properties":{"osm_id":"4414042890","tag":{"amenity":"waste_basket","waste":"dog_excrement"}},"type":"Feature"},
	{"geometry":{"coordinates":[0.154777,51.47763],"type":"Point"},"properties":{"osm_id":"4414042891","tag":{"amenity":"waste_basket","waste":"dog_excrement"}},"type":"Feature"},
	{"geometry":{"coordinates":[0.155804,51.477922],"type":"Point"},"properties":{"osm_id":"4414042926","tag":{"amenity":"waste_basket"}},"type":"Feature"},
	{"geometry":{"coordinates":[0.154388,51.476051],"type":"Point"},"properties":{"osm_id":"4414044373","tag":{"amenity":"waste_basket","waste":"dog_excrement"}},"type":"Feature"},
	{"geometry":{"coordinates":[0.163314,51.457203],"type":"Point"},"properties":{"osm_id":"6030068565","tag":{"amenity":"waste_basket","waste":"dog_excrement"}},"type":"Feature"},
	{"geometry":{"coordinates":[0.162483,51.457263],"type":"Point"},"properties":{"osm_id":"6030068566","tag":{"amenity":"waste_basket"}},"type":"Feature"},
	{"geometry":{"coordinates":[0.160447,51.456225],"type":"Point"},"properties":{"osm_id":"6030068570","tag":{"amenity":"waste_basket","waste":"dog_excrement"}},"type":"Feature"},
	{"geometry":{"coordinates":[0.161755,51.459161],"type":"Point"},"properties":{"osm_id":"6030068785","tag":{"amenity":"waste_basket"}},"type":"Feature"},
	{"geometry":{"coordinates":[0.153884,51.468769],"type":"Point"},"properties":{"osm_id":"6149786508","tag":{"amenity":"waste_basket","waste":"dog_excrement"}},"type":"Feature"},
	{"geometry":{"coordinates":[0.158055,51.467916],"type":"Point"},"properties":{"osm_id":"6163894545","tag":{"amenity":"waste_basket","waste":"dog_excrement"}},"type":"Feature"},
	{"geometry":{"coordinates":[0.14341,51.463593],"type":"Point"},"properties":{"osm_id":"6166932457","tag":{"amenity":"waste_basket","waste":"dog_excrement"}},"type":"Feature"},
	{"geometry":{"coordinates":[0.161797,51.458719],"type":"Point"},"properties":{"osm_id":"6372278375","tag":{"amenity":"waste_basket","waste":"dog_excrement"}},"type":"Feature"},
	{"geometry":{"coordinates":[0.151751,51.491064],"type":"Point"},"properties":{"osm_id":"6432609618","tag":{"amenity":"recycling"}},"type":"Feature"},
	{"geometry":{"coordinates":[0.161878,51.472816],"type":"Point"},"properties":{"osm_id":"6432775116","tag":{"amenity":"waste_basket"}},"type":"Feature"},
	{"geometry":{"coordinates":[0.146878,51.465487],"type":"Point"},"properties":{"osm_id":"6473014556","tag":{"amenity":"waste_basket"}},"type":"Feature"},
	{"geometry":{"coordinates":[0.14654,51.465637],"type":"Point"},"properties":{"osm_id":"6473014557","tag":{"amenity":"waste_basket"}},"type":"Feature"},
	{"geometry":{"coordinates":[0.147165,51.465466],"type":"Point"},"properties":{"osm_id":"6473014559","tag":{"amenity":"waste_basket"}},"type":"Feature"},
	{"geometry":{"coordinates":[0.157751,51.467757],"type":"Point"},"properties":{"osm_id":"6473014562","tag":{"amenity":"waste_basket"}},"type":"Feature"},
	{"geometry":{"coordinates":[0.157316,51.467218],"type":"Point"},"properties":{"osm_id":"6491270700","tag":{"amenity":"recycling","recycling_type":"container"}},"type":"Feature"},
	{"geometry":{"coordinates":[0.157315,51.467225],"type":"Point"},"properties":{"osm_id":"6491270701","tag":{"amenity":"waste_basket"}},"type":"Feature"},
	{"geometry":{"coordinates":[0.153922,51.46898],"type":"Point"},"properties":{"osm_id":"6491270705","tag":{"amenity":"recycling","recycling_type":"container"}},"type":"Feature"},
	{"geometry":{"coordinates":[0.153921,51.468986],"type":"Point"},"properties":{"osm_id":"6491270706","tag":{"amenity":"waste_basket"}},"type":"Feature"},
	{"geometry":{"coordinates":[0.162797,51.475158],"type":"Point"},"properties":{"osm_id":"6518533088","tag":{"amenity":"waste_basket"}},"type":"Feature"},
	{"geometry":{"coordinates":[0.092355,51.49197],"type":"Point"},"properties":{"osm_id":"6535071870","tag":{"amenity":"waste_basket"}},"type":"Feature"},
	{"geometry":{"coordinates":[0.12895,51.504838],"type":"Point"},"properties":{"osm_id":"6542384530","tag":{"amenity":"waste_basket","waste_basket":"dog_excrement"}},"type":"Feature"},
	{"geometry":{"coordinates":[0.126297,51.505719],"type":"Point"},"properties":{"osm_id":"6542390405","tag":{"amenity":"waste_basket","waste_basket":"dog_excrement"}},"type":"Feature"},
	{"geometry":{"coordinates":[0.123781,51.504121],"type":"Point"},"properties":{"osm_id":"6542662102","tag":{"amenity":"waste_basket","waste_basket":"dog_excrement"}},"type":"Feature"},
	{"geometry":{"coordinates":[0.12508,51.504195],"type":"Point"},"properties":{"osm_id":"6542662104","tag":{"amenity":"waste_basket"}},"type":"Feature"},
	{"geometry":{"coordinates":[0.125267,51.505515],"type":"Point"},"properties":{"osm_id":"6542662108","tag":{"amenity":"waste_basket"}},"type":"Feature"},
	{"geometry":{"coordinates":[0.130366,51.499869],"type":"Point"},"properties":{"osm_id":"6544557490","tag":{"amenity":"waste_basket"}},"type":"Feature"},
	{"geometry":{"coordinates":[0.128309,51.49762],"type":"Point"},"properties":{"osm_id":"6545043043","tag":{"amenity":"waste_basket","waste":"dog_excrement"}},"type":"Feature"},
	{"geometry":{"coordinates":[0.128309,51.497598],"type":"Point"},"properties":{"osm_id":"6545043044","tag":{"amenity":"waste_basket"}},"type":"Feature"},
	{"geometry":{"coordinates":[0.14096,51.473189],"type":"Point"},"properties":{"osm_id":"6819438981","tag":{"amenity":"waste_basket"}},"type":"Feature"},
	{"geometry":{"coordinates":[0.091753,51.48135],"type":"Point"},"properties":{"osm_id":"6827970592","tag":{"amenity":"waste_basket"}},"type":"Feature"},
	{"geometry":{"coordinates":[0.09173,51.48134],"type":"Point"},"properties":{"osm_id":"6827970593","tag":{"amenity":"waste_basket","waste":"dog_excrement"}},"type":"Feature"},
	{"geometry":{"coordinates":[0.089057,51.48125],"type":"Point"},"properties":{"osm_id":"6828048661","tag":{"amenity":"waste_basket"}},"type":"Feature"},
	{"geometry":{"coordinates":[0.089044,51.481246],"type":"Point"},"properties":{"osm_id":"6828048662","tag":{"amenity":"waste_basket","waste":"dog_excrement"}},"type":"Feature"},
	{"geometry":{"coordinates":[0.167989,51.460395],"type":"Point"},"properties":{"osm_id":"7006205761","tag":{"amenity":"waste_basket"}},"type":"Feature"},
	{"geometry":{"coordinates":[0.167933,51.460368],"type":"Point"},"properties":{"osm_id":"7006205762","tag":{"amenity":"waste_basket","waste":"dog_excrement"}},"type":"Feature"},
	{"geometry":{"coordinates":[0.166775,51.463159],"type":"Point"},"properties":{"osm_id":"7006412684","tag":{"amenity":"waste_basket"}},"type":"Feature"},
	{"geometry":{"coordinates":[0.162875,51.456862],"type":"Point"},"properties":{"osm_id":"7040892242","tag":{"amenity":"waste_basket","lit":"yes","waste":"dog_excrement"}},"type":"Feature"},
	{"geometry":{"coordinates":[0.163072,51.456941],"type":"Point"},"properties":{"osm_id":"7040892243","tag":{"amenity":"waste_basket"}},"type":"Feature"},
	{"geometry":{"coordinates":[0.155004,51.475422],"type":"Point"},"properties":{"osm_id":"7515788367","tag":{"amenity":"waste_basket"}},"type":"Feature"},
	{"geometry":{"coordinates":[0.154671,51.473331],"type":"Point"},"properties":{"osm_id":"7515859348","tag":{"amenity":"waste_basket","waste":"dog_excrement"}},"type":"Feature"},
	{"geometry":{"coordinates":[0.135666,51.48309],"type":"Point"},"properties":{"osm_id":"7519129534","tag":{"amenity":"waste_basket"}},"type":"Feature"},
	{"geometry":{"coordinates":[0.152578,51.475419],"type":"Point"},"properties":{"osm_id":"7544622476","tag":{"amenity":"waste_basket"}},"type":"Feature"},
	{"geometry":{"coordinates":[0.136264,51.485178],"type":"Point"},"properties":{"osm_id":"7590465954","tag":{"amenity":"waste_basket","waste":"dog_excrement"}},"type":"Feature"},
	{"geometry":{"coordinates":[0.161928,51.456887],"type":"Point"},"properties":{"osm_id":"7942864445","tag":{"amenity":"waste_basket","waste":"dog_excrement"}},"type":"Feature"}
]
}
