{
"type": "FeatureCollection",
"features": [
	{"geometry":{"coordinates":[0.161124,51.409931],"type":"Point"},"properties":{"osm_id":"256116174","tag":{"amenity":"recycling"}},"type":"Feature"},
	{"geometry":{"coordinates":[0.171344,51.401832],"type":"Point"},"properties":{"osm_id":"283442250","tag":{"amenity":"recycling"}},"type":"Feature"},
	{"geometry":{"coordinates":[0.101894,51.435372],"type":"Point"},"properties":{"osm_id":"303997960","tag":{"amenity":"recycling","shop":"doityourself"}},"type":"Feature"},
	{"geometry":{"coordinates":[0.175149,51.409275],"type":"Point"},"properties":{"osm_id":"967206324","tag":{"amenity":"waste_basket"}},"type":"Feature"},
	{"geometry":{"coordinates":[0.175363,51.409285],"type":"Point"},"properties":{"osm_id":"967206531","tag":{"amenity":"waste_basket"}},"type":"Feature"},
	{"geometry":{"coordinates":[0.175,51.409191],"type":"Point"},"properties":{"osm_id":"967206656","tag":{"amenity":"waste_basket","waste":"dog_excrement"}},"type":"Feature"},
	{"geometry":{"coordinates":[0.174478,51.409431],"type":"Point"},"properties":{"osm_id":"967206899","tag":{"amenity":"waste_basket"}},"type":"Feature"},
	{"geometry":{"coordinates":[0.173268,51.408857],"type":"Point"},"properties":{"osm_id":"967284301","tag":{"amenity":"waste_basket"}},"type":"Feature"},
	{"geometry":{"coordinates":[0.172852,51.408899],"type":"Point"},"properties":{"osm_id":"967284518","tag":{"amenity":"waste_basket","waste":"dog_excrement"}},"type":"Feature"},
	{"geometry":{"coordinates":[0.17546,51.409452],"type":"Point"},"properties":{"osm_id":"968121614","tag":{"amenity":"recycling","recycling:glass":"yes","recycling:paper":"yes"}},"type":"Feature"},
	{"geometry":{"coordinates":[0.16196,51.401546],"type":"Point"},"properties":{"osm_id":"2781392460","tag":{"amenity":"waste_basket","waste":"dog_excrement"}},"type":"Feature"},
	{"geometry":{"coordinates":[0.16788,51.404381],"type":"Point"},"properties":{"osm_id":"2781392463","tag":{"amenity":"waste_basket","waste":"dog_excrement"}},"type":"Feature"},
	{"geometry":{"coordinates":[0.167192,51.406307],"type":"Point"},"properties":{"osm_id":"2781392472","tag":{"amenity":"waste_basket","waste":"dog_excrement"}},"type":"Feature"},
	{"geometry":{"coordinates":[0.171275,51.404808],"type":"Point"},"properties":{"osm_id":"3024083171","tag":{"amenity":"waste_basket","waste":"dog_excrement"}},"type":"Feature"},
	{"geometry":{"coordinates":[0.172736,51.404828],"type":"Point"},"properties":{"osm_id":"3024083172","tag":{"amenity":"waste_basket","waste":"dog_excrement"}},"type":"Feature"},
	{"geometry":{"coordinates":[0.17544,51.405316],"type":"Point"},"properties":{"osm_id":"3024083176","tag":{"amenity":"waste_basket","waste":"dog_excrement"}},"type":"Feature"},
	{"geometry":{"coordinates":[0.169941,51.405393],"type":"Point"},"properties":{"osm_id":"3024083177","tag":{"amenity":"waste_basket","waste":"dog_excrement"}},"type":"Feature"},
	{"geometry":{"coordinates":[0.171578,51.405505],"type":"Point"},"properties":{"osm_id":"3024083179","tag":{"amenity":"waste_basket","waste":"dog_excrement"}},"type":"Feature"},
	{"geometry":{"coordinates":[0.171439,51.406294],"type":"Point"},"properties":{"osm_id":"3024083197","tag":{"amenity":"waste_basket","waste":"dog_excrement"}},"type":"Feature"},
	{"geometry":{"coordinates":[0.101689,51.424743],"type":"Point"},"properties":{"osm_id":"5076404234","tag":{"amenity":"recycling","recycling_type":"container"}},"type":"Feature"},
	{"geometry":{"coordinates":[0.100772,51.42626],"type":"Point"},"properties":{"osm_id":"5181018319","tag":{"amenity":"waste_basket"}},"type":"Feature"},
	{"geometry":{"coordinates":[0.100773,51.42615],"type":"Point"},"properties":{"osm_id":"5181018621","tag":{"amenity":"waste_basket"}},"type":"Feature"},
	{"geometry":{"coordinates":[0.100772,51.426017],"type":"Point"},"properties":{"osm_id":"5181018622","tag":{"amenity":"waste_basket"}},"type":"Feature"},
	{"geometry":{"coordinates":[0.100771,51.426009],"type":"Point"},"properties":{"osm_id":"5181018623","tag":{"amenity":"waste_basket"}},"type":"Feature"},
	{"geometry":{"coordinates":[0.111315,51.417295],"type":"Point"},"properties":{"osm_id":"5181705497","tag":{"amenity":"waste_basket"}},"type":"Feature"},
	{"geometry":{"coordinates":[0.113573,51.417894],"type":"Point"},"properties":{"osm_id":"5181705498","tag":{"amenity":"waste_basket"}},"type":"Feature"},
	{"geometry":{"coordinates":[0.113636,51.417899],"type":"Point"},"properties":{"osm_id":"5181705499","tag":{"amenity":"waste_basket","waste":"dog_excrement"}},"type":"Feature"},
	{"geometry":{"coordinates":[0.111253,51.420076],"type":"Point"},"properties":{"osm_id":"5181705502","tag":{"amenity":"waste_basket"}},"type":"Feature"},
	{"geometry":{"coordinates":[0.111427,51.420097],"type":"Point"},"properties":{"osm_id":"5181705503","tag":{"amenity":"waste_basket"}},"type":"Feature"},
	{"geometry":{"coordinates":[0.110934,51.419738],"type":"Point"},"properties":{"osm_id":"5181705504","tag":{"amenity":"waste_basket"}},"type":"Feature"},
	{"geometry":{"coordinates":[0.117712,51.41862],"type":"Point"},"properties":{"osm_id":"5181854748","tag":{"amenity":"waste_basket"}},"type":"Feature"},
	{"geometry":{"coordinates":[0.117445,51.418862],"type":"Point"},"properties":{"osm_id":"5181854749","tag":{"amenity":"waste_basket"}},"type":"Feature"},
	{"geometry":{"coordinates":[0.115962,51.41799],"type":"Point"},"properties":{"osm_id":"5182856725","tag":{"amenity":"recycling","recycling_type":"container"}},"type":"Feature"},
	{"geometry":{"coordinates":[0.123072,51.416611],"type":"Point"},"properties":{"osm_id":"5182906023","tag":{"amenity":"waste_basket"}},"type":"Feature"},
	{"geometry":{"coordinates":[0.114063,51.420339],"type":"Point"},"properties":{"osm_id":"5182913049","tag":{"amenity":"waste_basket"}},"type":"Feature"},
	{"geometry":{"coordinates":[0.106611,51.424793],"type":"Point"},"properties":{"osm_id":"5182913051","tag":{"amenity":"waste_basket"}},"type":"Feature"},
	{"geometry":{"coordinates":[0.106288,51.424844],"type":"Point"},"properties":{"osm_id":"5182913052","tag":{"amenity":"waste_basket"}},"type":"Feature"},
	{"geometry":{"coordinates":[0.106002,51.424936],"type":"Point"},"properties":{"osm_id":"5182913053","tag":{"amenity":"waste_basket"}},"type":"Feature"},
	{"geometry":{"coordinates":[0.105467,51.424972],"type":"Point"},"properties":{"osm_id":"5182913054","tag":{"amenity":"waste_basket"}},"type":"Feature"},
	{"geometry":{"coordinates":[0.104974,51.42531],"type":"Point"},"properties":{"osm_id":"5182913056","tag":{"amenity":"waste_basket"}},"type":"Feature"},
	{"geometry":{"coordinates":[0.104375,51.425561],"type":"Point"},"properties":{"osm_id":"5182913057","tag":{"amenity":"waste_basket"}},"type":"Feature"},
	{"geometry":{"coordinates":[0.104297,51.425768],"type":"Point"},"properties":{"osm_id":"5182913060","tag":{"amenity":"waste_basket"}},"type":"Feature"},
	{"geometry":{"coordinates":[0.103929,51.425998],"type":"Point"},"properties":{"osm_id":"5182913061","tag":{"amenity":"waste_basket"}},"type":"Feature"},
	{"geometry":{"coordinates":[0.102901,51.426313],"type":"Point"},"properties":{"osm_id":"5182913063","tag":{"amenity":"waste_basket"}},"type":"Feature"},
	{"geometry":{"coordinates":[0.10205,51.426318],"type":"Point"},"properties":{"osm_id":"5182913064","tag":{"amenity":"waste_basket"}},"type":"Feature"},
	{"geometry":{"coordinates":[0.101609,51.426473],"type":"Point"},"properties":{"osm_id":"5182913065","tag":{"amenity":"waste_basket"}},"type":"Feature"},
	{"geometry":{"coordinates":[0.101218,51.426388],"type":"Point"},"properties":{"osm_id":"5182913067","tag":{"amenity":"waste_basket"}},"type":"Feature"},
	{"geometry":{"coordinates":[0.119528,51.417585],"type":"Point"},"properties":{"osm_id":"5186865652","tag":{"amenity":"recycling","recycling_type":"container"}},"type":"Feature"},
	{"geometry":{"coordinates":[0.119548,51.417613],"type":"Point"},"properties":{"osm_id":"5186865653","tag":{"amenity":"waste_basket"}},"type":"Feature"},
	{"geometry":{"coordinates":[0.11981,51.417786],"type":"Point"},"properties":{"osm_id":"5186897867","tag":{"amenity":"waste_basket"}},"type":"Feature"},
	{"geometry":{"coordinates":[0.119729,51.417781],"type":"Point"},"properties":{"osm_id":"5186897870","tag":{"amenity":"waste_basket"}},"type":"Feature"},
	{"geometry":{"coordinates":[0.097293,51.426126],"type":"Point"},"properties":{"osm_id":"5189683225","tag":{"amenity":"waste_basket","waste":"dog_excrement"}},"type":"Feature"},
	{"geometry":{"coordinates":[0.117779,51.420711],"type":"Point"},"properties":{"osm_id":"5190118483","tag":{"amenity":"recycling","recycling_type":"container"}},"type":"Feature"},
	{"geometry":{"coordinates":[0.100246,51.426552],"type":"Point"},"properties":{"osm_id":"5190208535","tag":{"amenity":"waste_basket"}},"type":"Feature"},
	{"geometry":{"coordinates":[0.100401,51.426374],"type":"Point"},"properties":{"osm_id":"5190208542","tag":{"amenity":"waste_basket"}},"type":"Feature"},
	{"geometry":{"coordinates":[0.100211,51.42637],"type":"Point"},"properties":{"osm_id":"5190208543","tag":{"amenity":"waste_basket"}},"type":"Feature"},
	{"geometry":{"coordinates":[0.102544,51.425216],"type":"Point"},"properties":{"osm_id":"5190267819","tag":{"amenity":"waste_basket"}},"type":"Feature"},
	{"geometry":{"coordinates":[0.118484,51.418572],"type":"Point"},"properties":{"osm_id":"5191321689","tag":{"amenity":"waste_basket"}},"type":"Feature"},
	{"geometry":{"coordinates":[0.117889,51.418922],"type":"Point"},"properties":{"osm_id":"5214739810","tag":{"amenity":"waste_basket"}},"type":"Feature"},
	{"geometry":{"coordinates":[0.117739,51.41855],"type":"Point"},"properties":{"osm_id":"5214739812","tag":{"amenity":"waste_basket"}},"type":"Feature"},
	{"geometry":{"coordinates":[0.093068,51.427797],"type":"Point"},"properties":{"osm_id":"6017702404","tag":{"amenity":"waste_basket"}},"type":"Feature"},
	{"geometry":{"coordinates":[0.093193,51.428055],"type":"Point"},"properties":{"osm_id":"6017702405","tag":{"amenity":"recycling","recycling_type":"container"}},"type":"Feature"},
	{"geometry":{"coordinates":[0.16956,51.453536],"type":"Point"},"properties":{"osm_id":"6030068538","tag":{"amenity":"waste_basket"}},"type":"Feature"},
	{"geometry":{"coordinates":[0.166473,51.453862],"type":"Point"},"properties":{"osm_id":"6030068542","tag":{"amenity":"waste_basket","waste":"dog_excrement"}},"type":"Feature"},
	{"geometry":{"coordinates":[0.154765,51.451047],"type":"Point"},"properties":{"osm_id":"6281108091","tag":{"amenity":"waste_basket"}},"type":"Feature"},
	{"geometry":{"coordinates":[0.154487,51.451038],"type":"Point"},"properties":{"osm_id":"6281108092","tag":{"amenity":"waste_basket","waste":"dog_excrement"}},"type":"Feature"},
	{"geometry":{"coordinates":[0.166687,51.447696],"type":"Point"},"properties":{"osm_id":"7036030885","tag":{"amenity":"waste_basket","waste":"dog_excrement"}},"type":"Feature"},
	{"geometry":{"coordinates":[0.166663,51.447689],"type":"Point"},"properties":{"osm_id":"7036030886","tag":{"amenity":"waste_basket"}},"type":"Feature"},
	{"geometry":{"coordinates":[0.16484,51.453007],"type":"Point"},"properties":{"osm_id":"7040892249","tag":{"amenity":"waste_basket","waste":"dog_excrement"}},"type":"Feature"},
	{"geometry":{"coordinates":[0.166222,51.449297],"type":"Point"},"properties":{"osm_id":"7040892263","tag":{"amenity":"waste_basket"}},"type":"Feature"},
	{"geometry":{"coordinates":[0.164642,51.445613],"type":"Point"},"properties":{"osm_id":"7253001250","tag":{"amenity":"waste_basket","waste":"dog_excrement"}},"type":"Feature"},
	{"geometry":{"coordinates":[0.1647,51.445646],"type":"Point"},"properties":{"osm_id":"7253001251","tag":{"amenity":"waste_basket"}},"type":"Feature"}
]
}
