{
"type": "FeatureCollection",
"features": [
	{"geometry":{"coordinates":[0.138539,45.645337],"type":"Point"},"properties":{"osm_id":"1946158251","tag":{"amenity":"recycling","recycling:glass":"yes","recycling:glass_bottles":"yes","recycling_type":"container"}},"type":"Feature"},
	{"geometry":{"coordinates":[0.143793,45.700428],"type":"Point"},"properties":{"osm_id":"2053325882","tag":{"amenity":"recycling","recycling:glass":"yes","recycling:glass_bottles":"yes","recycling_type":"container"}},"type":"Feature"},
	{"geometry":{"coordinates":[0.140829,45.660734],"type":"Point"},"properties":{"osm_id":"2658136558","tag":{"amenity":"recycling","location":"overground","recycling:glass":"yes","recycling_type":"container"}},"type":"Feature"},
	{"geometry":{"coordinates":[0.15709,45.649712],"type":"Point"},"properties":{"osm_id":"4594583869","tag":{"amenity":"recycling","location":"underground","recycling:glass_bottles":"yes","recycling_type":"container"}},"type":"Feature"},
	{"geometry":{"coordinates":[0.155472,45.648707],"type":"Point"},"properties":{"osm_id":"4594583871","tag":{"amenity":"recycling","location":"underground","recycling:glass_bottles":"yes","recycling_type":"container"}},"type":"Feature"},
	{"geometry":{"coordinates":[0.171484,45.667667],"type":"Point"},"properties":{"osm_id":"5316253240","tag":{"amenity":"recycling","recycling:clothes":"yes","recycling_type":"container"}},"type":"Feature"},
	{"geometry":{"coordinates":[0.171474,45.670859],"type":"Point"},"properties":{"osm_id":"5316253241","tag":{"amenity":"recycling","recycling:glass":"yes","recycling_type":"container"}},"type":"Feature"},
	{"geometry":{"coordinates":[0.129859,45.64622],"type":"Point"},"properties":{"osm_id":"6336091806","tag":{"amenity":"recycling","recycling:glass":"yes","recycling_type":"container"}},"type":"Feature"},
	{"geometry":{"coordinates":[0.173836,45.660212],"type":"Point"},"properties":{"osm_id":"7855400031","tag":{"amenity":"recycling","brand":"Le Relais","charity":"yes","phone":"+335 57 95 60 60","recycling:clothes":"yes","recycling:shoes":"yes","recycling_type":"container","website":"https://www.lerelais.org/"}},"type":"Feature"},
	{"geometry":{"coordinates":[0.165288,45.653315],"type":"Point"},"properties":{"osm_id":"7916522482","tag":{"amenity":"waste_basket"}},"type":"Feature"},
	{"geometry":{"coordinates":[0.162183,45.65364],"type":"Point"},"properties":{"osm_id":"7916527476","tag":{"amenity":"waste_basket"}},"type":"Feature"},
	{"geometry":{"coordinates":[0.162449,45.654609],"type":"Point"},"properties":{"osm_id":"7916547931","tag":{"amenity":"waste_basket"}},"type":"Feature"},
	{"geometry":{"coordinates":[0.162964,45.654184],"type":"Point"},"properties":{"osm_id":"7916557142","tag":{"amenity":"waste_basket"}},"type":"Feature"},
	{"geometry":{"coordinates":[0.164609,45.653303],"type":"Point"},"properties":{"osm_id":"7916559473","tag":{"amenity":"waste_basket"}},"type":"Feature"},
	{"geometry":{"coordinates":[0.162842,45.653917],"type":"Point"},"properties":{"osm_id":"7916559572","tag":{"amenity":"waste_basket"}},"type":"Feature"},
	{"geometry":{"coordinates":[0.162065,45.654448],"type":"Point"},"properties":{"osm_id":"7916559573","tag":{"amenity":"waste_basket"}},"type":"Feature"},
	{"geometry":{"coordinates":[0.166424,45.653612],"type":"Point"},"properties":{"osm_id":"7916559679","tag":{"amenity":"waste_basket"}},"type":"Feature"},
	{"geometry":{"coordinates":[0.162557,45.653788],"type":"Point"},"properties":{"osm_id":"7916559778","tag":{"amenity":"waste_basket"}},"type":"Feature"},
	{"geometry":{"coordinates":[0.161691,45.655041],"type":"Point"},"properties":{"osm_id":"7916560124","tag":{"amenity":"waste_basket"}},"type":"Feature"},
	{"geometry":{"coordinates":[0.162913,45.654058],"type":"Point"},"properties":{"osm_id":"7916563389","tag":{"amenity":"waste_basket"}},"type":"Feature"}
]
}
