{
"type": "FeatureCollection",
"features": [
	{"geometry":{"coordinates":[0.158049,45.643012],"type":"Point"},"properties":{"name":"Recyclage Verre","osm_id":"2716991014","tag":{"amenity":"recycling"}},"type":"Feature"},
	{"geometry":{"coordinates":[0.153386,45.632406],"type":"Point"},"properties":{"osm_id":"5729927766","tag":{"amenity":"recycling","recycling:glass":"yes","recycling_type":"container"}},"type":"Feature"},
	{"geometry":{"coordinates":[0.105898,45.620795],"type":"Point"},"properties":{"osm_id":"8004631045","tag":{"amenity":"recycling","brand":"Le Relais","charity":"yes","recycling:clothes":"yes","recycling:shoes":"yes","recycling_type":"container","website":"https://www.lerelais.org/"}},"type":"Feature"},
	{"geometry":{"coordinates":[0.105893,45.620792],"type":"Point"},"properties":{"osm_id":"8004631046","tag":{"amenity":"recycling","brand":"Le Relais","charity":"yes","recycling:clothes":"yes","recycling:shoes":"yes","recycling_type":"container","website":"https://www.lerelais.org/"}},"type":"Feature"},
	{"geometry":{"coordinates":[0.105887,45.620788],"type":"Point"},"properties":{"osm_id":"8004631047","tag":{"amenity":"recycling","brand":"Le Relais","charity":"yes","recycling:clothes":"yes","recycling:shoes":"yes","recycling_type":"container","website":"https://www.lerelais.org/"}},"type":"Feature"},
	{"geometry":{"coordinates":[0.174122,45.642985],"type":"Point"},"properties":{"osm_id":"9180305315","tag":{"amenity":"recycling","recycling:glass_bottles":"yes","recycling_type":"container"}},"type":"Feature"}
]
}
