{
"type": "FeatureCollection",
"features": [
	{"geometry":{"coordinates":[33.099535,34.699619],"type":"Point"},"properties":{"osm_id":"310507756","tag":{"amenity":"recycling","location":"overground","recycling:glass":"yes","recycling_type":"container"}},"type":"Feature"},
	{"geometry":{"coordinates":[33.103896,34.701726],"type":"Point"},"properties":{"osm_id":"580630571","tag":{"amenity":"recycling","recycling:glass":"yes"}},"type":"Feature"},
	{"geometry":{"coordinates":[33.10778,34.702712],"type":"Point"},"properties":{"osm_id":"1005858529","tag":{"amenity":"recycling","location":"overground","recycling:glass":"yes","recycling_type":"container"}},"type":"Feature"},
	{"geometry":{"coordinates":[33.107874,34.702752],"type":"Point"},"properties":{"osm_id":"1005858770","tag":{"amenity":"recycling","recycling:plastic":"yes"}},"type":"Feature"},
	{"geometry":{"coordinates":[33.099709,34.699528],"type":"Point"},"properties":{"osm_id":"1012845936","tag":{"amenity":"recycling"}},"type":"Feature"},
	{"geometry":{"coordinates":[33.06066,34.684518],"type":"Point"},"properties":{"osm_id":"3878784921","tag":{"amenity":"recycling","recycling:glass":"yes","recycling_type":"container"}},"type":"Feature"},
	{"geometry":{"coordinates":[33.119988,34.70738],"type":"Point"},"properties":{"osm_id":"5153780827","tag":{"amenity":"waste_disposal"}},"type":"Feature"},
	{"geometry":{"coordinates":[33.107044,34.702665],"type":"Point"},"properties":{"osm_id":"5214656588","tag":{"amenity":"waste_basket"}},"type":"Feature"},
	{"geometry":{"coordinates":[33.112874,34.70424],"type":"Point"},"properties":{"osm_id":"5251823541","tag":{"amenity":"waste_basket"}},"type":"Feature"},
	{"geometry":{"coordinates":[33.119062,34.706065],"type":"Point"},"properties":{"osm_id":"5251823545","tag":{"amenity":"waste_basket"}},"type":"Feature"},
	{"geometry":{"coordinates":[33.119317,34.706128],"type":"Point"},"properties":{"osm_id":"5251823546","tag":{"amenity":"waste_basket"}},"type":"Feature"},
	{"geometry":{"coordinates":[33.120411,34.706355],"type":"Point"},"properties":{"osm_id":"5251823547","tag":{"amenity":"waste_basket"}},"type":"Feature"},
	{"geometry":{"coordinates":[33.12083,34.706475],"type":"Point"},"properties":{"osm_id":"5251823548","tag":{"amenity":"waste_basket"}},"type":"Feature"},
	{"geometry":{"coordinates":[33.121398,34.706635],"type":"Point"},"properties":{"osm_id":"5251823549","tag":{"amenity":"waste_basket"}},"type":"Feature"},
	{"geometry":{"coordinates":[33.12214,34.706848],"type":"Point"},"properties":{"osm_id":"5251823552","tag":{"amenity":"waste_basket"}},"type":"Feature"},
	{"geometry":{"coordinates":[33.122452,34.706904],"type":"Point"},"properties":{"osm_id":"5251823556","tag":{"amenity":"waste_basket"}},"type":"Feature"},
	{"geometry":{"coordinates":[33.122722,34.706946],"type":"Point"},"properties":{"osm_id":"5251823558","tag":{"amenity":"waste_basket"}},"type":"Feature"},
	{"geometry":{"coordinates":[33.123425,34.707127],"type":"Point"},"properties":{"osm_id":"5251823561","tag":{"amenity":"waste_basket"}},"type":"Feature"},
	{"geometry":{"coordinates":[33.082368,34.694374],"type":"Point"},"properties":{"osm_id":"5455051611","tag":{"amenity":"waste_disposal"}},"type":"Feature"},
	{"geometry":{"coordinates":[33.048547,34.686846],"type":"Point"},"properties":{"osm_id":"6677506047","tag":{"access":"yes","amenity":"waste_disposal","collection_times":"monday, thursday","description":"Household waste","operator":"Limassol municipality"}},"type":"Feature"},
	{"geometry":{"coordinates":[33.048567,34.686853],"type":"Point"},"properties":{"name":"PMD collection point","osm_id":"6677506048","tag":{"access":"yes","amenity":"waste_disposal","collection_times":"friday","colour":"blue","description":"PMD recycling bin, collection point","operator":"Green-dot Cyprus"}},"type":"Feature"},
	{"geometry":{"coordinates":[33.050556,34.686944],"type":"Point"},"properties":{"osm_id":"6770407163","tag":{"access":"yes","amenity":"waste_disposal","colour":"green","description":"for glass waste","operator":"Greendot Cyprus"}},"type":"Feature"},
	{"geometry":{"coordinates":[33.051513,34.686851],"type":"Point"},"properties":{"osm_id":"6770407164","tag":{"access":"yes","amenity":"waste_disposal","colour":"green","description":"for glass","operator":"Greendot Cyprus"}},"type":"Feature"},
	{"geometry":{"coordinates":[33.047884,34.687057],"type":"Point"},"properties":{"osm_id":"6819789716","tag":{"access":"yes","amenity":"waste_disposal","collection_times":"monday, thursday","colour":"yellow","operator":"Limassol municipality"}},"type":"Feature"},
	{"geometry":{"coordinates":[33.081599,34.693469],"type":"Point"},"properties":{"osm_id":"7130956733","tag":{"amenity":"recycling","opening_hours":"24/7","recycling:glass":"yes","recycling:glass_bottles":"yes","recycling_type":"container"}},"type":"Feature"},
	{"geometry":{"coordinates":[33.086479,34.709249],"type":"Point"},"properties":{"osm_id":"7131242656","tag":{"amenity":"recycling","recycling:glass_bottles":"yes","recycling_type":"container"}},"type":"Feature"},
	{"geometry":{"coordinates":[33.08627,34.694323],"type":"Point"},"properties":{"osm_id":"7139070005","tag":{"amenity":"recycling","recycling:clothes":"yes","recycling:shoes":"yes","recycling_type":"container"}},"type":"Feature"},
	{"geometry":{"coordinates":[33.057269,34.697756],"type":"Point"},"properties":{"name":"used clothes","osm_id":"7384921759","tag":{"amenity":"recycling","operator":"anakyklos","recycling_type":"centre"}},"type":"Feature"},
	{"geometry":{"coordinates":[33.099459,34.70257],"type":"Point"},"properties":{"osm_id":"8158206303","tag":{"amenity":"waste_disposal","waste":"trash"}},"type":"Feature"},
	{"geometry":{"coordinates":[33.09945,34.70259],"type":"Point"},"properties":{"osm_id":"8158206304","tag":{"amenity":"waste_disposal","waste":"trash"}},"type":"Feature"},
	{"geometry":{"coordinates":[33.099446,34.702611],"type":"Point"},"properties":{"osm_id":"8158206305","tag":{"amenity":"waste_disposal","waste":"trash"}},"type":"Feature"}
]
}
