{
"type": "FeatureCollection",
"features": [
	{"geometry":{"coordinates":[-1.183873,43.012853],"type":"Point"},"properties":{"name":"Avellano de Orion 1","osm_id":"3948932676","tag":{"denotation":"natural_monument","height":"7.6","name:eu":"Oriongo hurritza 1","natural":"tree","source:date":"2009-12-01","species":"Corylus avellana L."}},"type":"Feature"},
	{"geometry":{"coordinates":[-1.183712,43.012645],"type":"Point"},"properties":{"name":"Avellano de Orion 2","osm_id":"3948932677","tag":{"denotation":"natural_monument","height":"8.4","name:eu":"Oriongo hurritza 2","natural":"tree","source:date":"2009-12-01","species":"Corylus avellana L."}},"type":"Feature"},
	{"geometry":{"coordinates":[-1.184213,43.011699],"type":"Point"},"properties":{"name":"Avellano de Orion 3","osm_id":"3948932678","tag":{"denotation":"natural_monument","name:eu":"Oriongo hurritza 3","natural":"tree","source:date":"2009-12-01","species":"Corylus avellana L."}},"type":"Feature"},
	{"geometry":{"coordinates":[-1.185552,43.012852],"type":"Point"},"properties":{"name":"Avellano de Orion 4","osm_id":"3948932679","tag":{"denotation":"natural_monument","name:eu":"Oriongo hurritza 4","natural":"tree","source:date":"2009-12-01","species":"Corylus avellana L."}},"type":"Feature"},
	{"geometry":{"coordinates":[-1.185487,43.013038],"type":"Point"},"properties":{"name":"Avellano de Orion 5","osm_id":"3948932680","tag":{"denotation":"natural_monument","name:eu":"Oriongo hurritza 5","natural":"tree","source:date":"2009-12-01","species":"Corylus avellana L."}},"type":"Feature"},
	{"geometry":{"coordinates":[-1.190245,43.014156],"type":"Point"},"properties":{"name":"Haya de los tres brazos","osm_id":"3948932698","tag":{"denotation":"natural_monument","height":"40","natural":"tree","source:date":"2009-12-01","species":"Fagus sylvatica L."}},"type":"Feature"}
]
}
