{
"type": "FeatureCollection",
"features": [
	{"geometry":{"coordinates":[29.928176,60.087626],"type":"Point"},"properties":{"osm_id":"2960024482","tag":{"amenity":"waste_disposal"}},"type":"Feature"},
	{"geometry":{"coordinates":[29.96906,60.087493],"type":"Point"},"properties":{"osm_id":"3634959464","tag":{"amenity":"waste_disposal"}},"type":"Feature"},
	{"geometry":{"coordinates":[29.960866,60.098454],"type":"Point"},"properties":{"osm_id":"4294188092","tag":{"amenity":"waste_disposal"}},"type":"Feature"},
	{"geometry":{"coordinates":[29.958313,60.0925],"type":"Point"},"properties":{"osm_id":"4360304491","tag":{"amenity":"recycling","location":"overground","recycling_type":"container"}},"type":"Feature"},
	{"geometry":{"coordinates":[29.944167,60.083274],"type":"Point"},"properties":{"name":"\u00d0\u009c\u00d0\u00b5\u00d0\u00b4\u00d0\u00b8\u00d1\u0083\u00d0\u00bc","osm_id":"4739429322","tag":{"amenity":"recycling","name:en":"Medium","phone":"+7 950 2293676","website":"http://www.metall-lom.ru"}},"type":"Feature"},
	{"geometry":{"coordinates":[29.94764,60.108232],"type":"Point"},"properties":{"osm_id":"4945437521","tag":{"amenity":"waste_disposal"}},"type":"Feature"},
	{"geometry":{"coordinates":[29.946633,60.101296],"type":"Point"},"properties":{"osm_id":"4973048177","tag":{"amenity":"waste_disposal"}},"type":"Feature"},
	{"geometry":{"coordinates":[29.965924,60.105272],"type":"Point"},"properties":{"osm_id":"5888165021","tag":{"amenity":"waste_disposal"}},"type":"Feature"},
	{"geometry":{"coordinates":[29.96631,60.104535],"type":"Point"},"properties":{"osm_id":"5888165202","tag":{"amenity":"waste_basket"}},"type":"Feature"},
	{"geometry":{"coordinates":[29.965853,60.104825],"type":"Point"},"properties":{"osm_id":"5888732000","tag":{"amenity":"waste_basket"}},"type":"Feature"},
	{"geometry":{"coordinates":[29.966541,60.103312],"type":"Point"},"properties":{"osm_id":"5905330360","tag":{"amenity":"waste_disposal"}},"type":"Feature"},
	{"geometry":{"coordinates":[29.970141,60.106717],"type":"Point"},"properties":{"osm_id":"5915867138","tag":{"amenity":"waste_basket"}},"type":"Feature"},
	{"geometry":{"coordinates":[29.970538,60.106762],"type":"Point"},"properties":{"osm_id":"5915867139","tag":{"amenity":"waste_basket"}},"type":"Feature"},
	{"geometry":{"coordinates":[29.957255,60.091869],"type":"Point"},"properties":{"osm_id":"5916708217","tag":{"amenity":"waste_disposal"}},"type":"Feature"},
	{"geometry":{"coordinates":[29.959865,60.090686],"type":"Point"},"properties":{"osm_id":"6298868894","tag":{"amenity":"waste_disposal"}},"type":"Feature"},
	{"geometry":{"coordinates":[29.965031,60.079368],"type":"Point"},"properties":{"osm_id":"8836591185","tag":{"amenity":"waste_disposal"}},"type":"Feature"},
	{"geometry":{"coordinates":[29.963446,60.080389],"type":"Point"},"properties":{"osm_id":"8836591187","tag":{"amenity":"waste_disposal"}},"type":"Feature"},
	{"geometry":{"coordinates":[29.961661,60.082454],"type":"Point"},"properties":{"osm_id":"8836591194","tag":{"access":"private","amenity":"waste_disposal"}},"type":"Feature"},
	{"geometry":{"coordinates":[29.965381,60.078337],"type":"Point"},"properties":{"osm_id":"8836595247","tag":{"access":"no","amenity":"waste_disposal"}},"type":"Feature"}
]
}
