{
"type": "FeatureCollection",
"features": [
	{"geometry":{"coordinates":[-82.69651,27.990778],"type":"Point"},"properties":{"highway":"bus_stop","name":"Main Street & 9th Avenue South","osm_id":"916897279","tag":{"amenity":"waste_basket","bench":"yes","gtfs_id":"4951","ntd_id":"4027","operator":"Pinellas Suncoast Transit Authority","route_ref":"62"}},"type":"Feature"},
	{"geometry":{"coordinates":[-82.697123,27.972771],"type":"Point"},"properties":{"osm_id":"2532661547","tag":{"amenity":"waste_basket"}},"type":"Feature"},
	{"geometry":{"coordinates":[-82.697198,27.973058],"type":"Point"},"properties":{"osm_id":"2532661558","tag":{"amenity":"waste_basket"}},"type":"Feature"},
	{"geometry":{"coordinates":[-82.697586,27.973343],"type":"Point"},"properties":{"osm_id":"2532661560","tag":{"amenity":"waste_basket"}},"type":"Feature"},
	{"geometry":{"coordinates":[-82.696185,27.990742],"type":"Point"},"properties":{"osm_id":"6091680824","tag":{"amenity":"waste_basket"}},"type":"Feature"},
	{"geometry":{"coordinates":[-82.695748,27.990764],"type":"Point"},"properties":{"osm_id":"6091680827","tag":{"amenity":"waste_basket"}},"type":"Feature"},
	{"geometry":{"coordinates":[-82.695158,27.990752],"type":"Point"},"properties":{"osm_id":"6091680829","tag":{"amenity":"waste_basket"}},"type":"Feature"},
	{"geometry":{"coordinates":[-82.694404,27.990752],"type":"Point"},"properties":{"osm_id":"6091680831","tag":{"amenity":"waste_basket"}},"type":"Feature"},
	{"geometry":{"coordinates":[-82.694125,27.990749],"type":"Point"},"properties":{"osm_id":"6091680835","tag":{"amenity":"waste_basket"}},"type":"Feature"},
	{"geometry":{"coordinates":[-82.690073,27.990721],"type":"Point"},"properties":{"osm_id":"6092923216","tag":{"amenity":"waste_basket"}},"type":"Feature"},
	{"geometry":{"coordinates":[-82.689688,27.990747],"type":"Point"},"properties":{"osm_id":"6092923218","tag":{"amenity":"waste_basket"}},"type":"Feature"}
]
}
