{
"type": "FeatureCollection",
"features": [
	{"geometry":{"coordinates":[126.992665,37.568321],"type":"Point"},"properties":{"osm_id":"3062927315","tag":{"amenity":"recycling","recycling_type":"container"}},"type":"Feature"},
	{"geometry":{"coordinates":[126.993091,37.56849],"type":"Point"},"properties":{"osm_id":"3062927905","tag":{"amenity":"recycling","recycling_type":"container"}},"type":"Feature"},
	{"geometry":{"coordinates":[126.976259,37.579064],"type":"Point"},"properties":{"osm_id":"3064930104","tag":{"amenity":"recycling","recycling_type":"container"}},"type":"Feature"},
	{"geometry":{"coordinates":[126.976769,37.563874],"type":"Point"},"properties":{"osm_id":"3205632861","tag":{"amenity":"waste_basket"}},"type":"Feature"},
	{"geometry":{"coordinates":[126.914333,37.549961],"type":"Point"},"properties":{"osm_id":"3224435061","tag":{"amenity":"waste_basket"}},"type":"Feature"},
	{"geometry":{"coordinates":[126.941648,37.513534],"type":"Point"},"properties":{"osm_id":"3227557061","tag":{"amenity":"waste_basket"}},"type":"Feature"},
	{"geometry":{"coordinates":[126.914269,37.549577],"type":"Point"},"properties":{"osm_id":"3394745194","tag":{"amenity":"waste_basket"}},"type":"Feature"},
	{"geometry":{"coordinates":[126.914808,37.550435],"type":"Point"},"properties":{"osm_id":"3394746393","tag":{"amenity":"waste_basket"}},"type":"Feature"},
	{"geometry":{"coordinates":[126.919949,37.554051],"type":"Point"},"properties":{"osm_id":"3433053593","tag":{"amenity":"waste_basket"}},"type":"Feature"},
	{"geometry":{"coordinates":[126.994546,37.55765],"type":"Point"},"properties":{"osm_id":"3737186844","tag":{"amenity":"waste_basket","mapillary":"ckY3gMKDRwPajxTYr2021g"}},"type":"Feature"},
	{"geometry":{"coordinates":[126.993852,37.557748],"type":"Point"},"properties":{"osm_id":"3737186852","tag":{"amenity":"waste_basket","mapillary":"jQnR9YP-lxDxwSkeIodSZg"}},"type":"Feature"},
	{"geometry":{"coordinates":[126.978583,37.535454],"type":"Point"},"properties":{"name":"F-86D '\u00ec\u0084\u00b8\u00ec\u009d\u00b4\u00eb\u00b2\u0084' \u00ec\u00a0\u0084\u00ed\u0088\u00ac\u00ea\u00b8\u00b0","osm_id":"3864013765","tag":{"amenity":"waste_basket","board_type":"history","direction":"90","information":"board","name:en":"F-86D 'SabreDog' Fighter (U.S.A.)","tourism":"information"}},"type":"Feature"},
	{"geometry":{"coordinates":[126.978237,37.535947],"type":"Point"},"properties":{"osm_id":"3865668415","tag":{"amenity":"waste_basket"}},"type":"Feature"},
	{"geometry":{"coordinates":[126.982708,37.563652],"type":"Point"},"properties":{"osm_id":"6255215785","tag":{"amenity":"waste_basket"}},"type":"Feature"},
	{"geometry":{"coordinates":[126.983475,37.561272],"type":"Point"},"properties":{"osm_id":"6255707586","tag":{"amenity":"waste_basket"}},"type":"Feature"},
	{"geometry":{"coordinates":[126.925603,37.557866],"type":"Point"},"properties":{"osm_id":"6257860085","tag":{"amenity":"waste_basket"}},"type":"Feature"},
	{"geometry":{"coordinates":[126.925319,37.55815],"type":"Point"},"properties":{"osm_id":"6257874185","tag":{"amenity":"waste_basket"}},"type":"Feature"},
	{"geometry":{"coordinates":[126.920776,37.549291],"type":"Point"},"properties":{"osm_id":"6257874285","tag":{"amenity":"waste_basket"}},"type":"Feature"}
]
}
