{
"type": "FeatureCollection",
"features": [
	{"geometry":{"coordinates":[11.980453,55.854447],"type":"Point"},"properties":{"osm_id":"1680837350","tag":{"amenity":"recycling","recycling:glass_bottles":"yes","recycling:paper":"yes","recycling_type":"container"}},"type":"Feature"},
	{"geometry":{"coordinates":[11.987439,55.847568],"type":"Point"},"properties":{"osm_id":"1686072554","tag":{"amenity":"recycling","recycling:glass_bottles":"yes","recycling:paper":"yes","recycling_type":"container"}},"type":"Feature"},
	{"geometry":{"coordinates":[11.98621,55.850816],"type":"Point"},"properties":{"osm_id":"1692183716","tag":{"amenity":"recycling","recycling:batteries":"yes","recycling:glass_bottles":"yes","recycling:paper":"yes","recycling_type":"container"}},"type":"Feature"},
	{"geometry":{"coordinates":[11.958216,55.855284],"type":"Point"},"properties":{"osm_id":"1704435935","tag":{"amenity":"waste_disposal","waste":"trash"}},"type":"Feature"},
	{"geometry":{"coordinates":[11.97337,55.854441],"type":"Point"},"properties":{"osm_id":"1704481696","tag":{"amenity":"waste_disposal","waste":"trash"}},"type":"Feature"},
	{"geometry":{"coordinates":[11.958545,55.830584],"type":"Point"},"properties":{"osm_id":"1728230374","tag":{"amenity":"recycling","recycling:glass_bottles":"yes","recycling:paper":"yes","recycling_type":"container"}},"type":"Feature"},
	{"geometry":{"coordinates":[11.959065,55.833858],"type":"Point"},"properties":{"osm_id":"1728230380","tag":{"amenity":"recycling","recycling:glass_bottles":"yes","recycling:paper":"yes","recycling_type":"container"}},"type":"Feature"},
	{"geometry":{"coordinates":[11.986375,55.848469],"type":"Point"},"properties":{"osm_id":"1731498682","tag":{"amenity":"waste_basket"}},"type":"Feature"},
	{"geometry":{"coordinates":[11.961898,55.839718],"type":"Point"},"properties":{"osm_id":"1735331720","tag":{"amenity":"recycling","recycling:glass":"yes","recycling:paper":"yes"}},"type":"Feature"},
	{"geometry":{"coordinates":[11.992361,55.83054],"type":"Point"},"properties":{"name":"J\u00c3\u00a6gerspris Genbrugsstation","osm_id":"1913262004","tag":{"amenity":"recycling","opening_hours":"Mo-Su 10:00-18:00","recycling_type":"centre"}},"type":"Feature"},
	{"geometry":{"coordinates":[11.985804,55.850118],"type":"Point"},"properties":{"osm_id":"1942781908","tag":{"amenity":"recycling","operator":"R\u00c3\u00b8de Kors","recycling:clothes":"yes","recycling_type":"container"}},"type":"Feature"},
	{"geometry":{"coordinates":[11.987412,55.848077],"type":"Point"},"properties":{"osm_id":"2343331196","tag":{"amenity":"waste_basket"}},"type":"Feature"},
	{"geometry":{"coordinates":[11.985501,55.849377],"type":"Point"},"properties":{"osm_id":"2344414875","tag":{"amenity":"recycling","recycling:newspaper":"yes","recycling:paper":"yes","recycling_type":"container"}},"type":"Feature"},
	{"geometry":{"coordinates":[11.978085,55.852956],"type":"Point"},"properties":{"osm_id":"2868340422","tag":{"amenity":"recycling","recycling:glass_bottles":"yes","recycling:newspaper":"yes","recycling:paper":"yes","recycling_type":"container"}},"type":"Feature"},
	{"geometry":{"coordinates":[11.986202,55.848875],"type":"Point"},"properties":{"osm_id":"2897671047","tag":{"amenity":"waste_basket"}},"type":"Feature"},
	{"geometry":{"coordinates":[11.985367,55.836214],"type":"Point"},"properties":{"osm_id":"2901074943","tag":{"amenity":"recycling","recycling:glass_bottles":"yes","recycling:newspaper":"yes","recycling:paper":"yes","recycling_type":"container"}},"type":"Feature"},
	{"geometry":{"coordinates":[11.987321,55.841786],"type":"Point"},"properties":{"osm_id":"2901089061","tag":{"amenity":"waste_basket"}},"type":"Feature"},
	{"geometry":{"coordinates":[11.986912,55.843438],"type":"Point"},"properties":{"osm_id":"3047006525","tag":{"amenity":"waste_basket"}},"type":"Feature"},
	{"geometry":{"coordinates":[11.985847,55.843577],"type":"Point"},"properties":{"osm_id":"3047006526","tag":{"amenity":"waste_basket"}},"type":"Feature"},
	{"geometry":{"coordinates":[11.985847,55.843278],"type":"Point"},"properties":{"osm_id":"3047006527","tag":{"amenity":"waste_basket"}},"type":"Feature"},
	{"geometry":{"coordinates":[11.986817,55.84339],"type":"Point"},"properties":{"osm_id":"3047006528","tag":{"amenity":"waste_basket"}},"type":"Feature"},
	{"geometry":{"coordinates":[11.986601,55.844031],"type":"Point"},"properties":{"osm_id":"3047006529","tag":{"amenity":"waste_basket"}},"type":"Feature"},
	{"geometry":{"coordinates":[11.986738,55.842608],"type":"Point"},"properties":{"osm_id":"3053219481","tag":{"amenity":"waste_basket"}},"type":"Feature"},
	{"geometry":{"coordinates":[11.986132,55.8413],"type":"Point"},"properties":{"osm_id":"3055615022","tag":{"amenity":"waste_basket"}},"type":"Feature"},
	{"geometry":{"coordinates":[11.978021,55.852087],"type":"Point"},"properties":{"osm_id":"3180922308","tag":{"amenity":"recycling","recycling:paper":"yes","recycling_type":"container"}},"type":"Feature"},
	{"geometry":{"coordinates":[11.979149,55.852093],"type":"Point"},"properties":{"osm_id":"3180922311","tag":{"amenity":"waste_basket"}},"type":"Feature"},
	{"geometry":{"coordinates":[11.978514,55.852118],"type":"Point"},"properties":{"osm_id":"3180922312","tag":{"amenity":"waste_basket"}},"type":"Feature"},
	{"geometry":{"coordinates":[11.980727,55.854598],"type":"Point"},"properties":{"osm_id":"3265574931","tag":{"amenity":"waste_basket"}},"type":"Feature"},
	{"geometry":{"coordinates":[11.997179,55.855],"type":"Point"},"properties":{"osm_id":"3278134870","tag":{"amenity":"waste_basket"}},"type":"Feature"},
	{"geometry":{"coordinates":[11.994044,55.869245],"type":"Point"},"properties":{"osm_id":"3292683900","tag":{"amenity":"recycling","recycling:glass_bottles":"yes","recycling:paper":"yes","recycling_type":"container"}},"type":"Feature"},
	{"geometry":{"coordinates":[11.957269,55.841802],"type":"Point"},"properties":{"osm_id":"3299185172","tag":{"amenity":"waste_basket"}},"type":"Feature"},
	{"geometry":{"coordinates":[11.987866,55.846279],"type":"Point"},"properties":{"osm_id":"3333700098","tag":{"amenity":"waste_basket"}},"type":"Feature"},
	{"geometry":{"coordinates":[12.029825,55.843205],"type":"Point"},"properties":{"osm_id":"3342821727","tag":{"amenity":"waste_basket"}},"type":"Feature"},
	{"geometry":{"coordinates":[12.030091,55.843186],"type":"Point"},"properties":{"osm_id":"3342821728","tag":{"amenity":"waste_basket"}},"type":"Feature"},
	{"geometry":{"coordinates":[12.029734,55.843461],"type":"Point"},"properties":{"osm_id":"3342821729","tag":{"amenity":"waste_basket"}},"type":"Feature"},
	{"geometry":{"coordinates":[11.987583,55.85004],"type":"Point"},"properties":{"osm_id":"3349661952","tag":{"amenity":"waste_basket"}},"type":"Feature"},
	{"geometry":{"coordinates":[11.986881,55.850451],"type":"Point"},"properties":{"osm_id":"3349661953","tag":{"amenity":"waste_basket"}},"type":"Feature"},
	{"geometry":{"coordinates":[11.98288,55.85542],"type":"Point"},"properties":{"osm_id":"3727844702","tag":{"amenity":"waste_basket"}},"type":"Feature"},
	{"geometry":{"coordinates":[11.983657,55.854815],"type":"Point"},"properties":{"osm_id":"3727844703","tag":{"amenity":"waste_basket"}},"type":"Feature"},
	{"geometry":{"coordinates":[11.982889,55.855379],"type":"Point"},"properties":{"osm_id":"3727844704","tag":{"amenity":"waste_basket"}},"type":"Feature"},
	{"geometry":{"coordinates":[11.983871,55.854732],"type":"Point"},"properties":{"osm_id":"3727844705","tag":{"amenity":"waste_basket"}},"type":"Feature"},
	{"geometry":{"coordinates":[11.982653,55.855489],"type":"Point"},"properties":{"osm_id":"3727844706","tag":{"amenity":"waste_basket"}},"type":"Feature"},
	{"geometry":{"coordinates":[11.986525,55.85515],"type":"Point"},"properties":{"osm_id":"3925663305","tag":{"amenity":"recycling","recycling:batteries":"yes","recycling:glass_bottles":"yes","recycling:newspaper":"yes","recycling_type":"container"}},"type":"Feature"},
	{"geometry":{"coordinates":[11.986376,55.850044],"type":"Point"},"properties":{"osm_id":"4128327655","tag":{"amenity":"recycling","recycling:glass_bottles":"yes","recycling:paper":"yes","recycling_type":"container"}},"type":"Feature"},
	{"geometry":{"coordinates":[12.013772,55.855153],"type":"Point"},"properties":{"osm_id":"5306741412","tag":{"amenity":"waste_basket"}},"type":"Feature"},
	{"geometry":{"coordinates":[11.977507,55.833129],"type":"Point"},"properties":{"osm_id":"5923977689","tag":{"amenity":"recycling","collection_times":"24/7","mapillary":"kgVAM6Qa2CvEpVmd-QLF8Q","recycling:glass_bottles":"yes","recycling:paper":"yes","recycling:plastic":"yes","recycling:scrap_metal":"yes","recycling_type":"container"}},"type":"Feature"},
	{"geometry":{"coordinates":[11.977442,55.83312],"type":"Point"},"properties":{"osm_id":"5924107195","tag":{"amenity":"waste_basket"}},"type":"Feature"}
]
}
