{
"type": "FeatureCollection",
"features": [
	{"geometry":{"coordinates":[12.038341,53.465357],"type":"Point"},"properties":{"osm_id":"415641658","tag":{"amenity":"recycling","location":"overground","recycling_type":"container"}},"type":"Feature"},
	{"geometry":{"coordinates":[12.020336,53.467766],"type":"Point"},"properties":{"osm_id":"1340912748","tag":{"amenity":"waste_basket"}},"type":"Feature"},
	{"geometry":{"coordinates":[12.028757,53.461743],"type":"Point"},"properties":{"osm_id":"2242854470","tag":{"amenity":"waste_basket"}},"type":"Feature"},
	{"geometry":{"coordinates":[12.029819,53.461445],"type":"Point"},"properties":{"osm_id":"2244853078","tag":{"amenity":"waste_basket"}},"type":"Feature"},
	{"geometry":{"coordinates":[12.029728,53.457758],"type":"Point"},"properties":{"osm_id":"3499617432","tag":{"amenity":"recycling","location":"overground","recycling:clothes":"yes","recycling:glass":"yes","recycling:paper":"yes","recycling_type":"container"}},"type":"Feature"},
	{"geometry":{"coordinates":[12.036338,53.463369],"type":"Point"},"properties":{"osm_id":"3522337384","tag":{"amenity":"recycling","location":"overground","recycling:clothes":"yes","recycling:glass":"yes","recycling:paper":"yes","recycling_type":"container"}},"type":"Feature"},
	{"geometry":{"coordinates":[12.029252,53.461148],"type":"Point"},"properties":{"osm_id":"4333761382","tag":{"amenity":"waste_basket"}},"type":"Feature"},
	{"geometry":{"coordinates":[12.029032,53.461858],"type":"Point"},"properties":{"osm_id":"4334598746","tag":{"amenity":"waste_basket"}},"type":"Feature"},
	{"geometry":{"coordinates":[12.029393,53.461745],"type":"Point"},"properties":{"osm_id":"4334598751","tag":{"amenity":"waste_basket"}},"type":"Feature"},
	{"geometry":{"coordinates":[12.028694,53.461874],"type":"Point"},"properties":{"osm_id":"4334598752","tag":{"amenity":"waste_basket"}},"type":"Feature"},
	{"geometry":{"coordinates":[12.02958,53.461552],"type":"Point"},"properties":{"osm_id":"4334598753","tag":{"amenity":"waste_basket"}},"type":"Feature"},
	{"geometry":{"coordinates":[12.034247,53.460554],"type":"Point"},"properties":{"osm_id":"4335894782","tag":{"amenity":"waste_basket"}},"type":"Feature"},
	{"geometry":{"coordinates":[12.028631,53.461604],"type":"Point"},"properties":{"osm_id":"4338331645","tag":{"amenity":"waste_basket"}},"type":"Feature"},
	{"geometry":{"coordinates":[12.029306,53.461316],"type":"Point"},"properties":{"osm_id":"4338331646","tag":{"amenity":"waste_basket"}},"type":"Feature"},
	{"geometry":{"coordinates":[12.029425,53.461208],"type":"Point"},"properties":{"osm_id":"4338331647","tag":{"amenity":"waste_basket"}},"type":"Feature"},
	{"geometry":{"coordinates":[12.029551,53.461353],"type":"Point"},"properties":{"osm_id":"4338331648","tag":{"amenity":"waste_basket"}},"type":"Feature"},
	{"geometry":{"coordinates":[12.030359,53.461167],"type":"Point"},"properties":{"osm_id":"4338331649","tag":{"amenity":"waste_basket"}},"type":"Feature"},
	{"geometry":{"coordinates":[12.029473,53.461875],"type":"Point"},"properties":{"osm_id":"4338331650","tag":{"amenity":"waste_basket"}},"type":"Feature"},
	{"geometry":{"coordinates":[12.028905,53.461522],"type":"Point"},"properties":{"osm_id":"4339048465","tag":{"amenity":"waste_basket"}},"type":"Feature"},
	{"geometry":{"coordinates":[12.028624,53.460783],"type":"Point"},"properties":{"osm_id":"4339048466","tag":{"amenity":"waste_basket"}},"type":"Feature"},
	{"geometry":{"coordinates":[12.028053,53.460937],"type":"Point"},"properties":{"osm_id":"4339048467","tag":{"amenity":"waste_basket"}},"type":"Feature"},
	{"geometry":{"coordinates":[12.027626,53.460616],"type":"Point"},"properties":{"osm_id":"4339048468","tag":{"amenity":"waste_basket"}},"type":"Feature"},
	{"geometry":{"coordinates":[12.030736,53.461131],"type":"Point"},"properties":{"osm_id":"4429479311","tag":{"amenity":"waste_basket"}},"type":"Feature"},
	{"geometry":{"coordinates":[12.031339,53.461029],"type":"Point"},"properties":{"osm_id":"4429479317","tag":{"amenity":"waste_basket"}},"type":"Feature"},
	{"geometry":{"coordinates":[12.028291,53.461857],"type":"Point"},"properties":{"osm_id":"4693249413","tag":{"amenity":"waste_basket"}},"type":"Feature"},
	{"geometry":{"coordinates":[12.029393,53.461956],"type":"Point"},"properties":{"osm_id":"4699907465","tag":{"amenity":"waste_basket"}},"type":"Feature"},
	{"geometry":{"coordinates":[12.029589,53.461986],"type":"Point"},"properties":{"osm_id":"4699907477","tag":{"amenity":"waste_basket"}},"type":"Feature"},
	{"geometry":{"coordinates":[12.030681,53.462465],"type":"Point"},"properties":{"osm_id":"4702314656","tag":{"amenity":"waste_basket"}},"type":"Feature"},
	{"geometry":{"coordinates":[12.030919,53.463452],"type":"Point"},"properties":{"osm_id":"4702314657","tag":{"amenity":"waste_basket"}},"type":"Feature"},
	{"geometry":{"coordinates":[12.029318,53.461405],"type":"Point"},"properties":{"osm_id":"4703737528","tag":{"amenity":"waste_basket"}},"type":"Feature"},
	{"geometry":{"coordinates":[12.030557,53.462152],"type":"Point"},"properties":{"osm_id":"4703737550","tag":{"amenity":"waste_basket"}},"type":"Feature"},
	{"geometry":{"coordinates":[12.028597,53.462102],"type":"Point"},"properties":{"osm_id":"4703737557","tag":{"amenity":"waste_basket"}},"type":"Feature"},
	{"geometry":{"coordinates":[12.028082,53.462352],"type":"Point"},"properties":{"osm_id":"4703737561","tag":{"amenity":"waste_basket"}},"type":"Feature"},
	{"geometry":{"coordinates":[12.028274,53.462349],"type":"Point"},"properties":{"osm_id":"4703737562","tag":{"amenity":"waste_basket"}},"type":"Feature"},
	{"geometry":{"coordinates":[12.027954,53.460307],"type":"Point"},"properties":{"osm_id":"4703737615","tag":{"amenity":"waste_basket"}},"type":"Feature"},
	{"geometry":{"coordinates":[12.024257,53.467429],"type":"Point"},"properties":{"osm_id":"5288480628","tag":{"amenity":"waste_basket"}},"type":"Feature"},
	{"geometry":{"coordinates":[12.029986,53.463421],"type":"Point"},"properties":{"osm_id":"5288480633","tag":{"amenity":"waste_basket"}},"type":"Feature"},
	{"geometry":{"coordinates":[12.026858,53.465275],"type":"Point"},"properties":{"osm_id":"5874202735","tag":{"amenity":"waste_basket"}},"type":"Feature"},
	{"geometry":{"coordinates":[12.031341,53.465505],"type":"Point"},"properties":{"osm_id":"5874260610","tag":{"amenity":"waste_basket"}},"type":"Feature"},
	{"geometry":{"coordinates":[12.031317,53.465565],"type":"Point"},"properties":{"osm_id":"5874261038","tag":{"amenity":"waste_basket"}},"type":"Feature"},
	{"geometry":{"coordinates":[12.024164,53.463787],"type":"Point"},"properties":{"osm_id":"5876948216","tag":{"amenity":"waste_basket"}},"type":"Feature"},
	{"geometry":{"coordinates":[12.031395,53.459193],"type":"Point"},"properties":{"osm_id":"5876948218","tag":{"amenity":"waste_basket"}},"type":"Feature"},
	{"geometry":{"coordinates":[12.030295,53.462299],"type":"Point"},"properties":{"osm_id":"5879724960","tag":{"amenity":"waste_basket"}},"type":"Feature"},
	{"geometry":{"coordinates":[12.029343,53.462093],"type":"Point"},"properties":{"osm_id":"5879730950","tag":{"amenity":"waste_basket"}},"type":"Feature"},
	{"geometry":{"coordinates":[12.029311,53.462275],"type":"Point"},"properties":{"osm_id":"5879730952","tag":{"amenity":"waste_basket"}},"type":"Feature"},
	{"geometry":{"coordinates":[12.029114,53.462285],"type":"Point"},"properties":{"osm_id":"5879730953","tag":{"amenity":"waste_basket"}},"type":"Feature"},
	{"geometry":{"coordinates":[12.029286,53.462477],"type":"Point"},"properties":{"osm_id":"5879730954","tag":{"amenity":"waste_basket"}},"type":"Feature"},
	{"geometry":{"coordinates":[12.030007,53.462328],"type":"Point"},"properties":{"osm_id":"5879730955","tag":{"amenity":"waste_basket"}},"type":"Feature"},
	{"geometry":{"coordinates":[12.032416,53.464015],"type":"Point"},"properties":{"osm_id":"5885762036","tag":{"amenity":"waste_basket"}},"type":"Feature"},
	{"geometry":{"coordinates":[12.035473,53.460225],"type":"Point"},"properties":{"osm_id":"5885762037","tag":{"amenity":"waste_basket"}},"type":"Feature"},
	{"geometry":{"coordinates":[12.029626,53.462335],"type":"Point"},"properties":{"osm_id":"5885764177","tag":{"amenity":"waste_basket"}},"type":"Feature"},
	{"geometry":{"coordinates":[12.029387,53.456295],"type":"Point"},"properties":{"osm_id":"5885764179","tag":{"amenity":"waste_basket"}},"type":"Feature"},
	{"geometry":{"coordinates":[12.038642,53.46026],"type":"Point"},"properties":{"osm_id":"5889051514","tag":{"amenity":"waste_basket"}},"type":"Feature"},
	{"geometry":{"coordinates":[12.027627,53.462421],"type":"Point"},"properties":{"osm_id":"5889051642","tag":{"amenity":"waste_basket"}},"type":"Feature"},
	{"geometry":{"coordinates":[12.021266,53.467838],"type":"Point"},"properties":{"osm_id":"5891618791","tag":{"amenity":"waste_basket"}},"type":"Feature"},
	{"geometry":{"coordinates":[12.01614,53.467266],"type":"Point"},"properties":{"osm_id":"5891618986","tag":{"amenity":"waste_basket"}},"type":"Feature"},
	{"geometry":{"coordinates":[12.030624,53.4633],"type":"Point"},"properties":{"osm_id":"5891618989","tag":{"amenity":"waste_basket"}},"type":"Feature"},
	{"geometry":{"coordinates":[12.029873,53.46319],"type":"Point"},"properties":{"osm_id":"5891619089","tag":{"amenity":"waste_basket"}},"type":"Feature"},
	{"geometry":{"coordinates":[12.029902,53.461257],"type":"Point"},"properties":{"osm_id":"5892390094","tag":{"amenity":"waste_basket"}},"type":"Feature"},
	{"geometry":{"coordinates":[12.028958,53.470468],"type":"Point"},"properties":{"osm_id":"5893900070","tag":{"amenity":"waste_basket"}},"type":"Feature"},
	{"geometry":{"coordinates":[12.029592,53.465482],"type":"Point"},"properties":{"osm_id":"5893900071","tag":{"amenity":"waste_basket"}},"type":"Feature"},
	{"geometry":{"coordinates":[12.029354,53.466496],"type":"Point"},"properties":{"osm_id":"5893900569","tag":{"amenity":"waste_basket"}},"type":"Feature"},
	{"geometry":{"coordinates":[12.039389,53.464797],"type":"Point"},"properties":{"osm_id":"6549248866","tag":{"amenity":"waste_basket","waste":"trash"}},"type":"Feature"},
	{"geometry":{"coordinates":[12.039803,53.46449],"type":"Point"},"properties":{"osm_id":"6549248867","tag":{"amenity":"waste_basket","waste":"trash"}},"type":"Feature"},
	{"geometry":{"coordinates":[12.039787,53.465078],"type":"Point"},"properties":{"osm_id":"6549248871","tag":{"amenity":"waste_basket","waste":"trash"}},"type":"Feature"},
	{"geometry":{"coordinates":[12.027723,53.458372],"type":"Point"},"properties":{"osm_id":"6796524341","tag":{"amenity":"waste_basket","waste":"trash"}},"type":"Feature"},
	{"geometry":{"coordinates":[12.020628,53.459321],"type":"Point"},"properties":{"osm_id":"7532706373","tag":{"amenity":"recycling","opening_hours":"Mo-Sa 09:00-19:00","recycling_type":"container"}},"type":"Feature"},
	{"geometry":{"coordinates":[12.037592,53.460506],"type":"Point"},"properties":{"osm_id":"7548131309","tag":{"amenity":"waste_basket"}},"type":"Feature"},
	{"geometry":{"coordinates":[12.039539,53.460059],"type":"Point"},"properties":{"osm_id":"7548131310","tag":{"amenity":"waste_basket"}},"type":"Feature"},
	{"geometry":{"coordinates":[12.032443,53.455431],"type":"Point"},"properties":{"osm_id":"7566042612","tag":{"amenity":"waste_basket"}},"type":"Feature"}
]
}
