{
"type": "FeatureCollection",
"features": [
	{"geometry":{"coordinates":[12.035367,52.582101],"type":"Point"},"properties":{"osm_id":"412863479","tag":{"amenity":"recycling","recycling:clothes":"yes","recycling:glass":"yes","recycling_type":"container"}},"type":"Feature"},
	{"geometry":{"coordinates":[11.979279,52.548166],"type":"Point"},"properties":{"highway":"bus_stop","name":"Lidl-Markt","osm_id":"461971925","tag":{"amenity":"waste_basket","bench":"yes","public_transport":"platform","wheelchair":"no"}},"type":"Feature"},
	{"geometry":{"coordinates":[11.980658,52.550615],"type":"Point"},"properties":{"osm_id":"3087274714","tag":{"amenity":"recycling","recycling:clothes":"yes","recycling:glass":"yes","recycling_type":"container"}},"type":"Feature"},
	{"geometry":{"coordinates":[11.969604,52.538077],"type":"Point"},"properties":{"osm_id":"4472026520","tag":{"amenity":"waste_basket"}},"type":"Feature"},
	{"geometry":{"coordinates":[11.969588,52.53809],"type":"Point"},"properties":{"osm_id":"4472026521","tag":{"amenity":"waste_basket"}},"type":"Feature"},
	{"geometry":{"coordinates":[11.971756,52.539427],"type":"Point"},"properties":{"osm_id":"4472026601","tag":{"amenity":"waste_basket"}},"type":"Feature"},
	{"geometry":{"coordinates":[11.971992,52.539559],"type":"Point"},"properties":{"osm_id":"4472026608","tag":{"amenity":"waste_basket"}},"type":"Feature"},
	{"geometry":{"coordinates":[11.972196,52.539689],"type":"Point"},"properties":{"osm_id":"4472026618","tag":{"amenity":"waste_basket"}},"type":"Feature"},
	{"geometry":{"coordinates":[11.973213,52.539849],"type":"Point"},"properties":{"osm_id":"4472026628","tag":{"amenity":"waste_basket"}},"type":"Feature"},
	{"geometry":{"coordinates":[11.9724,52.539873],"type":"Point"},"properties":{"osm_id":"4472026632","tag":{"amenity":"waste_basket"}},"type":"Feature"},
	{"geometry":{"coordinates":[11.972615,52.540061],"type":"Point"},"properties":{"osm_id":"4472026652","tag":{"amenity":"waste_basket"}},"type":"Feature"},
	{"geometry":{"coordinates":[11.972743,52.540224],"type":"Point"},"properties":{"osm_id":"4472026672","tag":{"amenity":"waste_basket"}},"type":"Feature"},
	{"geometry":{"coordinates":[11.973382,52.540283],"type":"Point"},"properties":{"osm_id":"4472026681","tag":{"amenity":"waste_basket"}},"type":"Feature"},
	{"geometry":{"coordinates":[11.974175,52.540377],"type":"Point"},"properties":{"osm_id":"4472026713","tag":{"amenity":"waste_basket"}},"type":"Feature"},
	{"geometry":{"coordinates":[11.97326,52.540519],"type":"Point"},"properties":{"osm_id":"4472026749","tag":{"amenity":"waste_basket"}},"type":"Feature"},
	{"geometry":{"coordinates":[11.973648,52.540797],"type":"Point"},"properties":{"osm_id":"4472026786","tag":{"amenity":"waste_basket"}},"type":"Feature"},
	{"geometry":{"coordinates":[11.97514,52.540908],"type":"Point"},"properties":{"osm_id":"4472026801","tag":{"amenity":"waste_basket"}},"type":"Feature"},
	{"geometry":{"coordinates":[11.974385,52.541254],"type":"Point"},"properties":{"osm_id":"4472026842","tag":{"amenity":"waste_basket"}},"type":"Feature"},
	{"geometry":{"coordinates":[11.974487,52.541278],"type":"Point"},"properties":{"osm_id":"4472026844","tag":{"amenity":"waste_basket"}},"type":"Feature"},
	{"geometry":{"coordinates":[11.976103,52.541435],"type":"Point"},"properties":{"osm_id":"4472026864","tag":{"amenity":"waste_basket"}},"type":"Feature"},
	{"geometry":{"coordinates":[11.975504,52.541629],"type":"Point"},"properties":{"osm_id":"4472026886","tag":{"amenity":"waste_basket"}},"type":"Feature"},
	{"geometry":{"coordinates":[11.975746,52.541711],"type":"Point"},"properties":{"osm_id":"4472026894","tag":{"amenity":"waste_basket"}},"type":"Feature"},
	{"geometry":{"coordinates":[11.976062,52.541826],"type":"Point"},"properties":{"osm_id":"4472026909","tag":{"amenity":"waste_basket"}},"type":"Feature"},
	{"geometry":{"coordinates":[11.976394,52.541932],"type":"Point"},"properties":{"osm_id":"4472026924","tag":{"amenity":"waste_basket"}},"type":"Feature"},
	{"geometry":{"coordinates":[11.977686,52.542042],"type":"Point"},"properties":{"osm_id":"4472026939","tag":{"amenity":"waste_basket"}},"type":"Feature"},
	{"geometry":{"coordinates":[11.977653,52.542063],"type":"Point"},"properties":{"osm_id":"4472026942","tag":{"amenity":"waste_basket"}},"type":"Feature"},
	{"geometry":{"coordinates":[11.977816,52.542196],"type":"Point"},"properties":{"osm_id":"4472026956","tag":{"amenity":"waste_basket"}},"type":"Feature"},
	{"geometry":{"coordinates":[11.977954,52.54225],"type":"Point"},"properties":{"osm_id":"4472026966","tag":{"amenity":"waste_basket"}},"type":"Feature"},
	{"geometry":{"coordinates":[11.978093,52.542304],"type":"Point"},"properties":{"osm_id":"4472026977","tag":{"amenity":"waste_basket"}},"type":"Feature"},
	{"geometry":{"coordinates":[11.978235,52.54236],"type":"Point"},"properties":{"osm_id":"4472026984","tag":{"amenity":"waste_basket"}},"type":"Feature"},
	{"geometry":{"coordinates":[11.97834,52.542632],"type":"Point"},"properties":{"osm_id":"4472027004","tag":{"amenity":"waste_basket"}},"type":"Feature"},
	{"geometry":{"coordinates":[11.978797,52.542864],"type":"Point"},"properties":{"osm_id":"4472027012","tag":{"amenity":"waste_basket"}},"type":"Feature"},
	{"geometry":{"coordinates":[11.979311,52.54331],"type":"Point"},"properties":{"osm_id":"4472027022","tag":{"amenity":"waste_basket"}},"type":"Feature"},
	{"geometry":{"coordinates":[11.979845,52.543652],"type":"Point"},"properties":{"osm_id":"4472027031","tag":{"amenity":"waste_basket"}},"type":"Feature"},
	{"geometry":{"coordinates":[11.979447,52.543676],"type":"Point"},"properties":{"osm_id":"4472027033","tag":{"amenity":"waste_basket"}},"type":"Feature"},
	{"geometry":{"coordinates":[11.979568,52.544266],"type":"Point"},"properties":{"osm_id":"4472027049","tag":{"amenity":"waste_basket"}},"type":"Feature"},
	{"geometry":{"coordinates":[11.97858,52.544596],"type":"Point"},"properties":{"osm_id":"4472027061","tag":{"amenity":"recycling","recycling:glass_bottles":"yes","recycling_type":"container"}},"type":"Feature"},
	{"geometry":{"coordinates":[11.981224,52.546174],"type":"Point"},"properties":{"osm_id":"4472027094","tag":{"amenity":"waste_basket"}},"type":"Feature"},
	{"geometry":{"coordinates":[11.982063,52.547467],"type":"Point"},"properties":{"osm_id":"4472027107","tag":{"amenity":"waste_basket"}},"type":"Feature"},
	{"geometry":{"coordinates":[11.96558,52.541613],"type":"Point"},"properties":{"highway":"bus_stop","name":"Stendaler Stra\u00c3\u009fe","osm_id":"4963602871","tag":{"amenity":"waste_basket","bench":"no","public_transport":"platform","shelter":"no"}},"type":"Feature"},
	{"geometry":{"coordinates":[11.966063,52.541536],"type":"Point"},"properties":{"highway":"bus_stop","name":"Stendaler Stra\u00c3\u009fe","osm_id":"4963602872","tag":{"amenity":"waste_basket","bench":"no","public_transport":"platform","shelter":"no"}},"type":"Feature"},
	{"geometry":{"coordinates":[11.979309,52.547922],"type":"Point"},"properties":{"highway":"bus_stop","name":"Lidl-Markt","osm_id":"4963602876","tag":{"amenity":"waste_basket","bench":"yes","public_transport":"platform","wheelchair":"no"}},"type":"Feature"},
	{"geometry":{"coordinates":[11.97993,52.552271],"type":"Point"},"properties":{"highway":"bus_stop","name":"Arneburger Stra\u00c3\u009fe","osm_id":"4963602877","tag":{"amenity":"waste_basket","bench":"yes","shelter":"no"}},"type":"Feature"},
	{"geometry":{"coordinates":[11.979753,52.552563],"type":"Point"},"properties":{"highway":"bus_stop","name":"Arneburger Stra\u00c3\u009fe","osm_id":"4963602879","tag":{"amenity":"waste_basket","bench":"yes","shelter":"no"}},"type":"Feature"},
	{"geometry":{"coordinates":[12.039826,52.578809],"type":"Point"},"properties":{"osm_id":"7230424453","tag":{"amenity":"recycling","recycling:clothes":"yes","recycling:glass":"yes","recycling:glass_bottles":"yes","recycling_type":"container"}},"type":"Feature"}
]
}
