{
"type": "FeatureCollection",
"features": [
	{"geometry":{"coordinates":[11.954396,51.747734],"type":"Point"},"properties":{"osm_id":"1417946568","tag":{"amenity":"recycling","recycling:clothes":"yes","recycling:glass":"yes","recycling_type":"container"}},"type":"Feature"},
	{"geometry":{"coordinates":[11.96118,51.745057],"type":"Point"},"properties":{"osm_id":"1420038601","tag":{"amenity":"recycling","recycling:glass":"yes","recycling:paper":"yes","recycling_type":"container"}},"type":"Feature"},
	{"geometry":{"coordinates":[11.954724,51.744309],"type":"Point"},"properties":{"osm_id":"1453566334","tag":{"amenity":"recycling","recycling:clothes":"yes","recycling:glass":"yes","recycling_type":"container"}},"type":"Feature"},
	{"geometry":{"coordinates":[11.95743,51.744197],"type":"Point"},"properties":{"osm_id":"1490282427","tag":{"amenity":"recycling","recycling:clothes":"yes","recycling:glass":"yes","recycling_type":"container"}},"type":"Feature"},
	{"geometry":{"coordinates":[11.958021,51.745262],"type":"Point"},"properties":{"osm_id":"1497201942","tag":{"amenity":"recycling","recycling:clothes":"yes","recycling:glass":"yes","recycling_type":"container"}},"type":"Feature"},
	{"geometry":{"coordinates":[11.958585,51.742526],"type":"Point"},"properties":{"osm_id":"1588266822","tag":{"amenity":"recycling","recycling:glass":"yes","recycling_type":"container"}},"type":"Feature"},
	{"geometry":{"coordinates":[11.955646,51.74694],"type":"Point"},"properties":{"osm_id":"1588266981","tag":{"amenity":"recycling","recycling:glass":"yes","recycling_type":"container"}},"type":"Feature"},
	{"geometry":{"coordinates":[12.02917,51.729875],"type":"Point"},"properties":{"osm_id":"1636590662","tag":{"amenity":"recycling","recycling:clothes":"yes","recycling:glass":"yes","recycling_type":"container"}},"type":"Feature"},
	{"geometry":{"coordinates":[11.961879,51.744384],"type":"Point"},"properties":{"osm_id":"1666296180","tag":{"amenity":"recycling","recycling_type":"container"}},"type":"Feature"},
	{"geometry":{"coordinates":[11.962616,51.739741],"type":"Point"},"properties":{"osm_id":"1673614090","tag":{"amenity":"recycling","recycling:clothes":"yes","recycling:glass":"yes","recycling_type":"container"}},"type":"Feature"},
	{"geometry":{"coordinates":[11.962976,51.741603],"type":"Point"},"properties":{"osm_id":"1673614150","tag":{"amenity":"recycling","recycling:glass":"yes","recycling_type":"container"}},"type":"Feature"},
	{"geometry":{"coordinates":[11.979149,51.752442],"type":"Point"},"properties":{"osm_id":"1673614505","tag":{"amenity":"recycling","recycling:clothes":"yes","recycling:glass":"yes","recycling_type":"container"}},"type":"Feature"},
	{"geometry":{"coordinates":[11.975397,51.753281],"type":"Point"},"properties":{"osm_id":"1673614515","tag":{"amenity":"waste_basket"}},"type":"Feature"},
	{"geometry":{"coordinates":[11.971495,51.75399],"type":"Point"},"properties":{"osm_id":"1673614552","tag":{"amenity":"waste_basket"}},"type":"Feature"},
	{"geometry":{"coordinates":[11.972002,51.75412],"type":"Point"},"properties":{"osm_id":"1673614560","tag":{"amenity":"waste_basket"}},"type":"Feature"},
	{"geometry":{"coordinates":[11.96708,51.739799],"type":"Point"},"properties":{"osm_id":"1678519078","tag":{"amenity":"recycling","recycling:glass":"yes","recycling_type":"container"}},"type":"Feature"},
	{"geometry":{"coordinates":[11.963512,51.742746],"type":"Point"},"properties":{"osm_id":"1678520931","tag":{"amenity":"recycling","recycling:glass":"yes","recycling_type":"container"}},"type":"Feature"},
	{"geometry":{"coordinates":[11.970754,51.743091],"type":"Point"},"properties":{"osm_id":"1678521733","tag":{"amenity":"recycling","recycling:clothes":"yes","recycling_type":"container"}},"type":"Feature"},
	{"geometry":{"coordinates":[11.971765,51.743365],"type":"Point"},"properties":{"osm_id":"1678522026","tag":{"amenity":"recycling","recycling:clothes":"yes","recycling_type":"container"}},"type":"Feature"},
	{"geometry":{"coordinates":[11.959909,51.743783],"type":"Point"},"properties":{"osm_id":"1678522189","tag":{"amenity":"recycling","recycling:clothes":"yes","recycling:glass":"yes","recycling_type":"container"}},"type":"Feature"},
	{"geometry":{"coordinates":[11.976941,51.753204],"type":"Point"},"properties":{"osm_id":"1678525078","tag":{"amenity":"waste_basket"}},"type":"Feature"},
	{"geometry":{"coordinates":[11.971584,51.753976],"type":"Point"},"properties":{"osm_id":"1678525245","tag":{"amenity":"waste_basket"}},"type":"Feature"},
	{"geometry":{"coordinates":[11.975648,51.754167],"type":"Point"},"properties":{"osm_id":"1679002844","tag":{"amenity":"waste_basket"}},"type":"Feature"},
	{"geometry":{"coordinates":[11.976172,51.754599],"type":"Point"},"properties":{"osm_id":"1682538239","tag":{"amenity":"waste_basket"}},"type":"Feature"},
	{"geometry":{"coordinates":[11.988189,51.752331],"type":"Point"},"properties":{"osm_id":"2284980329","tag":{"amenity":"waste_basket"}},"type":"Feature"},
	{"geometry":{"coordinates":[11.971258,51.740881],"type":"Point"},"properties":{"osm_id":"2326700352","tag":{"amenity":"recycling","recycling:clothes":"yes","recycling:glass":"yes","recycling_type":"container"}},"type":"Feature"},
	{"geometry":{"coordinates":[11.967717,51.749382],"type":"Point"},"properties":{"osm_id":"2884145803","tag":{"amenity":"recycling","recycling:clothes":"yes","recycling_type":"container"}},"type":"Feature"},
	{"geometry":{"coordinates":[11.988795,51.752194],"type":"Point"},"properties":{"osm_id":"4111352901","tag":{"amenity":"waste_basket","level":"1"}},"type":"Feature"},
	{"geometry":{"coordinates":[11.988231,51.752312],"type":"Point"},"properties":{"osm_id":"4111352910","tag":{"amenity":"waste_basket","level":"0"}},"type":"Feature"},
	{"geometry":{"coordinates":[12.039575,51.752138],"type":"Point"},"properties":{"osm_id":"4294761272","tag":{"amenity":"recycling","recycling:clothes":"yes","recycling:glass":"yes","recycling:glass_bottles":"yes","recycling_type":"container"}},"type":"Feature"},
	{"geometry":{"coordinates":[11.990706,51.742449],"type":"Point"},"properties":{"name":"Kaiser Entsorgung & Recycling GmbH NL K\u00c3\u00b6then","osm_id":"7834517763","tag":{"addr:city":"K\u00c3\u00b6then (Anhalt)","addr:housenumber":"3","addr:postcode":"06366","addr:street":"Am G\u00c3\u00bcterbahnhof","amenity":"recycling","opening_hours":"Mo - Fr 07:00 - 16:00","phone":"+493496212195","recycling_type":"centre","website":"http://www.kaiser-entsorgung.de/"}},"type":"Feature"}
]
}
