{
"type": "FeatureCollection",
"features": [
	{"geometry":{"coordinates":[12.025685,50.938015],"type":"Point"},"properties":{"osm_id":"441907078","tag":{"amenity":"recycling","recycling_type":"container"}},"type":"Feature"},
	{"geometry":{"coordinates":[12.007715,50.930213],"type":"Point"},"properties":{"osm_id":"552411017","tag":{"amenity":"recycling","recycling:clothes":"yes","recycling_type":"container"}},"type":"Feature"},
	{"geometry":{"coordinates":[11.97988,50.907659],"type":"Point"},"properties":{"osm_id":"771910249","tag":{"amenity":"recycling","recycling:clothes":"yes","recycling:glass":"yes","recycling:glass_bottles":"yes","recycling_type":"container"}},"type":"Feature"},
	{"geometry":{"coordinates":[12.027218,50.933077],"type":"Point"},"properties":{"osm_id":"823751106","tag":{"amenity":"recycling","recycling:glass":"yes","recycling_type":"container"}},"type":"Feature"},
	{"geometry":{"coordinates":[12.01644,50.930826],"type":"Point"},"properties":{"name":"Recyclinghof","osm_id":"1582354984","tag":{"amenity":"recycling","opening_hours":"Mo 13:00-18:00; Tu,Fr 09:00-12:00,13:00-18:00; We,Sa 09:00-12:00","phone":"+49 365 4375923","recycling:batteries":"yes","recycling:cans":"yes","recycling:clothes":"yes","recycling:glass":"yes","recycling:paper":"yes","recycling:scrap_metal":"yes","recycling_type":"centre","website":"http://www.gud-gera.de/recyclinghoefe"}},"type":"Feature"},
	{"geometry":{"coordinates":[11.958376,50.904782],"type":"Point"},"properties":{"osm_id":"4770190508","tag":{"amenity":"recycling","recycling:clothes":"yes","recycling:glass":"yes","recycling:glass_bottles":"yes","recycling_type":"container"}},"type":"Feature"},
	{"geometry":{"coordinates":[12.003219,50.910171],"type":"Point"},"properties":{"osm_id":"5200399855","tag":{"amenity":"recycling","recycling:clothes":"yes","recycling:glass":"yes","recycling:glass_bottles":"yes","recycling_type":"container"}},"type":"Feature"},
	{"geometry":{"coordinates":[12.014012,50.911937],"type":"Point"},"properties":{"osm_id":"5200399870","tag":{"amenity":"waste_basket"}},"type":"Feature"},
	{"geometry":{"coordinates":[11.963474,50.947736],"type":"Point"},"properties":{"osm_id":"6090865362","tag":{"amenity":"recycling","recycling:clothes":"yes","recycling:glass_bottles":"yes","recycling_type":"container"}},"type":"Feature"},
	{"geometry":{"coordinates":[11.975334,50.919264],"type":"Point"},"properties":{"osm_id":"6439761774","tag":{"amenity":"recycling","recycling:glass":"yes","recycling:glass_bottles":"yes","recycling_type":"container"}},"type":"Feature"}
]
}
