{
"type": "FeatureCollection",
"features": [
	{"geometry":{"coordinates":[12.00197,49.556164],"type":"Point"},"properties":{"osm_id":"621864334","tag":{"amenity":"recycling","opening_hours":"Mo-Su 07:00-19:00","recycling:cans":"yes","recycling:clothes":"yes","recycling:glass_bottles":"yes","recycling_type":"container"}},"type":"Feature"},
	{"geometry":{"coordinates":[12.005683,49.556204],"type":"Point"},"properties":{"osm_id":"665304166","tag":{"amenity":"recycling","recycling:glass":"yes","recycling:paper":"yes","recycling:scrap_metal":"yes"}},"type":"Feature"},
	{"geometry":{"coordinates":[12.001835,49.556199],"type":"Point"},"properties":{"osm_id":"3934623914","tag":{"amenity":"waste_basket","check_date":"2021-01-06"}},"type":"Feature"},
	{"geometry":{"coordinates":[12.003199,49.554915],"type":"Point"},"properties":{"osm_id":"3954199306","tag":{"amenity":"waste_basket","check_date":"2021-01-06"}},"type":"Feature"},
	{"geometry":{"coordinates":[12.007841,49.55528],"type":"Point"},"properties":{"osm_id":"3954199309","tag":{"amenity":"waste_basket","check_date":"2021-01-06"}},"type":"Feature"},
	{"geometry":{"coordinates":[12.006928,49.557007],"type":"Point"},"properties":{"osm_id":"3954199311","tag":{"amenity":"waste_basket"}},"type":"Feature"},
	{"geometry":{"coordinates":[11.971843,49.596597],"type":"Point"},"properties":{"osm_id":"4140756134","tag":{"amenity":"waste_basket"}},"type":"Feature"},
	{"geometry":{"coordinates":[11.971439,49.596708],"type":"Point"},"properties":{"osm_id":"4140756141","tag":{"amenity":"waste_basket"}},"type":"Feature"},
	{"geometry":{"coordinates":[12.012584,49.577653],"type":"Point"},"properties":{"osm_id":"6347871162","tag":{"amenity":"waste_basket","waste":"trash"}},"type":"Feature"},
	{"geometry":{"coordinates":[12.018955,49.590916],"type":"Point"},"properties":{"osm_id":"8443644014","tag":{"amenity":"waste_basket","waste":"trash"}},"type":"Feature"},
	{"geometry":{"coordinates":[12.01996,49.589092],"type":"Point"},"properties":{"osm_id":"8443653218","tag":{"amenity":"recycling","recycling:cans":"yes","recycling:cardboard":"yes","recycling:glass":"yes","recycling:paper":"no","recycling_type":"container"}},"type":"Feature"},
	{"geometry":{"coordinates":[12.020093,49.589493],"type":"Point"},"properties":{"osm_id":"8443653220","tag":{"amenity":"waste_basket","waste":"dog_excrement"}},"type":"Feature"},
	{"geometry":{"coordinates":[12.017986,49.591634],"type":"Point"},"properties":{"osm_id":"8465490348","tag":{"amenity":"waste_basket","waste":"trash"}},"type":"Feature"},
	{"geometry":{"coordinates":[12.019072,49.591418],"type":"Point"},"properties":{"osm_id":"8465490354","tag":{"amenity":"waste_basket","waste":"trash"}},"type":"Feature"},
	{"geometry":{"coordinates":[12.024273,49.595862],"type":"Point"},"properties":{"osm_id":"8497551239","tag":{"amenity":"waste_basket","waste":"trash"}},"type":"Feature"},
	{"geometry":{"coordinates":[12.021045,49.592838],"type":"Point"},"properties":{"osm_id":"8497551246","tag":{"amenity":"waste_basket","waste":"trash"}},"type":"Feature"},
	{"geometry":{"coordinates":[12.034197,49.584026],"type":"Point"},"properties":{"osm_id":"8636467736","tag":{"amenity":"waste_basket","waste":"trash"}},"type":"Feature"},
	{"geometry":{"coordinates":[12.024276,49.596501],"type":"Point"},"properties":{"osm_id":"8640896425","tag":{"amenity":"recycling","recycling:cans":"yes","recycling:clothes":"yes","recycling:glass":"yes","recycling:green_waste":"yes","recycling:paper":"yes","recycling_type":"container"}},"type":"Feature"}
]
}
