{
"type": "FeatureCollection",
"features": [
	{"geometry":{"coordinates":[12.001029,49.547753],"type":"Point"},"properties":{"highway":"bus_stop","name":"Rathaus","osm_id":"614676980","tag":{"amenity":"waste_basket"}},"type":"Feature"},
	{"geometry":{"coordinates":[11.988029,49.54486],"type":"Point"},"properties":{"osm_id":"616762515","tag":{"amenity":"waste_basket"}},"type":"Feature"},
	{"geometry":{"coordinates":[11.985348,49.544222],"type":"Point"},"properties":{"osm_id":"616769426","tag":{"amenity":"recycling","recycling:cans":"yes","recycling:glass":"yes"}},"type":"Feature"},
	{"geometry":{"coordinates":[11.9938,49.548416],"type":"Point"},"properties":{"osm_id":"635228241","tag":{"amenity":"waste_basket"}},"type":"Feature"},
	{"geometry":{"coordinates":[12.016517,49.5499],"type":"Point"},"properties":{"name":"Wertstoffhof Schnaittenbach","osm_id":"1542772066","tag":{"amenity":"recycling","opening_hours":"Mar Su[-1] - Oct Su[-1] - 1 days: Mo 09:00-18:00, We 15:00-18:00; Sa 09:00-12:00; Oct Su[-1] - Mar Su[-1] - 1 days: Mo 09:00-17:00, We 14:00-17:00, Sa 09:00-12:00; Tu, Th, Fr, Su, PH Off","recycling:cans":"yes","recycling:cardboard":"yes","recycling:clothes":"yes","recycling:electrical_appliances":"yes","recycling:glass":"yes","recycling:glass_bottles":"yes","recycling:green_waste":"yes","recycling:paper":"yes","recycling:plastic":"yes","recycling:plastic_bottles":"yes","recycling:plastic_packaging":"yes","recycling:scrap_metal":"yes","recycling:shoes":"yes","recycling:small_appliances":"yes","recycling_type":"centre"}},"type":"Feature"},
	{"geometry":{"coordinates":[11.967119,49.513155],"type":"Point"},"properties":{"osm_id":"2132488694","tag":{"amenity":"recycling","recycling:cans":"yes","recycling:glass":"yes","recycling_type":"container"}},"type":"Feature"},
	{"geometry":{"coordinates":[11.967319,49.520527],"type":"Point"},"properties":{"osm_id":"3733106395","tag":{"amenity":"waste_basket"}},"type":"Feature"},
	{"geometry":{"coordinates":[11.97754,49.516591],"type":"Point"},"properties":{"osm_id":"3733141317","tag":{"amenity":"waste_basket"}},"type":"Feature"},
	{"geometry":{"coordinates":[12.005407,49.550952],"type":"Point"},"properties":{"osm_id":"3954199295","tag":{"amenity":"waste_basket"}},"type":"Feature"},
	{"geometry":{"coordinates":[12.01048,49.549813],"type":"Point"},"properties":{"osm_id":"3956850326","tag":{"amenity":"waste_basket"}},"type":"Feature"},
	{"geometry":{"coordinates":[12.013014,49.550005],"type":"Point"},"properties":{"osm_id":"3956850328","tag":{"amenity":"waste_basket"}},"type":"Feature"},
	{"geometry":{"coordinates":[12.02011,49.550915],"type":"Point"},"properties":{"osm_id":"3956850336","tag":{"amenity":"waste_basket"}},"type":"Feature"},
	{"geometry":{"coordinates":[11.969381,49.514122],"type":"Point"},"properties":{"osm_id":"4469704721","tag":{"amenity":"waste_basket"}},"type":"Feature"},
	{"geometry":{"coordinates":[11.997927,49.546822],"type":"Point"},"properties":{"osm_id":"4471391505","tag":{"amenity":"waste_basket"}},"type":"Feature"},
	{"geometry":{"coordinates":[12.000634,49.547816],"type":"Point"},"properties":{"osm_id":"4471391508","tag":{"amenity":"waste_basket"}},"type":"Feature"},
	{"geometry":{"coordinates":[11.99406,49.546513],"type":"Point"},"properties":{"osm_id":"4471650586","tag":{"amenity":"waste_basket"}},"type":"Feature"},
	{"geometry":{"coordinates":[11.994035,49.546633],"type":"Point"},"properties":{"osm_id":"4471650589","tag":{"amenity":"waste_basket"}},"type":"Feature"},
	{"geometry":{"coordinates":[11.993874,49.546697],"type":"Point"},"properties":{"osm_id":"4471650591","tag":{"amenity":"waste_basket"}},"type":"Feature"},
	{"geometry":{"coordinates":[11.993262,49.546848],"type":"Point"},"properties":{"osm_id":"4471650602","tag":{"amenity":"waste_basket"}},"type":"Feature"},
	{"geometry":{"coordinates":[11.993604,49.547019],"type":"Point"},"properties":{"osm_id":"4471650606","tag":{"amenity":"waste_basket"}},"type":"Feature"},
	{"geometry":{"coordinates":[11.993454,49.547077],"type":"Point"},"properties":{"osm_id":"4471650612","tag":{"amenity":"waste_basket"}},"type":"Feature"},
	{"geometry":{"coordinates":[11.99383,49.547205],"type":"Point"},"properties":{"osm_id":"4471650627","tag":{"amenity":"waste_basket"}},"type":"Feature"},
	{"geometry":{"coordinates":[11.993391,49.547231],"type":"Point"},"properties":{"osm_id":"4471650630","tag":{"amenity":"waste_basket"}},"type":"Feature"},
	{"geometry":{"coordinates":[11.993508,49.547325],"type":"Point"},"properties":{"osm_id":"4471650632","tag":{"amenity":"waste_basket"}},"type":"Feature"},
	{"geometry":{"coordinates":[11.993348,49.547613],"type":"Point"},"properties":{"osm_id":"4471650635","tag":{"amenity":"waste_basket"}},"type":"Feature"},
	{"geometry":{"coordinates":[11.993055,49.54764],"type":"Point"},"properties":{"osm_id":"4471650636","tag":{"amenity":"waste_basket"}},"type":"Feature"},
	{"geometry":{"coordinates":[11.997433,49.545156],"type":"Point"},"properties":{"osm_id":"4474989225","tag":{"amenity":"waste_basket"}},"type":"Feature"},
	{"geometry":{"coordinates":[11.99841,49.545711],"type":"Point"},"properties":{"osm_id":"4474989244","tag":{"amenity":"waste_basket"}},"type":"Feature"},
	{"geometry":{"coordinates":[11.997404,49.545731],"type":"Point"},"properties":{"osm_id":"4474989245","tag":{"amenity":"waste_basket"}},"type":"Feature"},
	{"geometry":{"coordinates":[11.993722,49.546326],"type":"Point"},"properties":{"osm_id":"4474989250","tag":{"amenity":"waste_basket"}},"type":"Feature"},
	{"geometry":{"coordinates":[11.998895,49.546603],"type":"Point"},"properties":{"osm_id":"4474989252","tag":{"amenity":"waste_basket"}},"type":"Feature"},
	{"geometry":{"coordinates":[12.006921,49.549092],"type":"Point"},"properties":{"osm_id":"4510413755","tag":{"amenity":"waste_basket"}},"type":"Feature"},
	{"geometry":{"coordinates":[11.999059,49.54698],"type":"Point"},"properties":{"osm_id":"4510413756","tag":{"amenity":"waste_basket"}},"type":"Feature"},
	{"geometry":{"coordinates":[12.000456,49.547712],"type":"Point"},"properties":{"osm_id":"4510413757","tag":{"amenity":"waste_basket"}},"type":"Feature"},
	{"geometry":{"coordinates":[12.001311,49.546309],"type":"Point"},"properties":{"osm_id":"4510988377","tag":{"amenity":"waste_basket"}},"type":"Feature"},
	{"geometry":{"coordinates":[12.001153,49.545785],"type":"Point"},"properties":{"osm_id":"4510988508","tag":{"amenity":"waste_basket"}},"type":"Feature"},
	{"geometry":{"coordinates":[12.00068,49.545557],"type":"Point"},"properties":{"osm_id":"4510988509","tag":{"amenity":"waste_basket"}},"type":"Feature"},
	{"geometry":{"coordinates":[12.000387,49.545065],"type":"Point"},"properties":{"osm_id":"4510988514","tag":{"amenity":"waste_basket"}},"type":"Feature"},
	{"geometry":{"coordinates":[12.002291,49.546138],"type":"Point"},"properties":{"osm_id":"4526847731","tag":{"amenity":"recycling","recycling:plastic":"yes","recycling_type":"container"}},"type":"Feature"},
	{"geometry":{"coordinates":[12.002255,49.546206],"type":"Point"},"properties":{"osm_id":"4526847735","tag":{"amenity":"recycling","recycling:green_waste":"yes","recycling_type":"container"}},"type":"Feature"},
	{"geometry":{"coordinates":[12.000975,49.547951],"type":"Point"},"properties":{"osm_id":"4557767318","tag":{"amenity":"waste_basket"}},"type":"Feature"},
	{"geometry":{"coordinates":[12.005954,49.547183],"type":"Point"},"properties":{"osm_id":"4572188835","tag":{"amenity":"waste_basket"}},"type":"Feature"},
	{"geometry":{"coordinates":[12.0145,49.552953],"type":"Point"},"properties":{"osm_id":"4573410216","tag":{"amenity":"waste_basket"}},"type":"Feature"},
	{"geometry":{"coordinates":[12.003638,49.547912],"type":"Point"},"properties":{"osm_id":"6176818230","tag":{"amenity":"waste_basket","waste":"trash"}},"type":"Feature"},
	{"geometry":{"coordinates":[12.003518,49.541966],"type":"Point"},"properties":{"osm_id":"7554460939","tag":{"amenity":"waste_basket","waste":"trash"}},"type":"Feature"},
	{"geometry":{"coordinates":[12.000149,49.542286],"type":"Point"},"properties":{"osm_id":"7554460940","tag":{"amenity":"waste_basket","waste":"trash"}},"type":"Feature"}
]
}
