{
"type": "FeatureCollection",
"lastupdate": "2020-08-05T00:00:00Z",
"features": [
	{"geometry":{"coordinates":[12.031195,49.207304],"type":"Point"},"properties":{"osm_id":"527940977","tag":{"amenity":"recycling","recycling:clothes":"yes","recycling:glass":"yes"}},"type":"Feature"},
	{"geometry":{"coordinates":[12.034349,49.194927],"type":"Point"},"properties":{"osm_id":"2891634845","tag":{"amenity":"waste_basket"}},"type":"Feature"},
	{"geometry":{"coordinates":[12.033992,49.194246],"type":"Point"},"properties":{"osm_id":"2898676559","tag":{"amenity":"waste_basket"}},"type":"Feature"},
	{"geometry":{"coordinates":[12.03391,49.194413],"type":"Point"},"properties":{"osm_id":"2898676560","tag":{"amenity":"waste_basket"}},"type":"Feature"},
	{"geometry":{"coordinates":[11.956796,49.165988],"type":"Point"},"properties":{"osm_id":"3778540054","tag":{"amenity":"waste_basket"}},"type":"Feature"},
	{"geometry":{"coordinates":[11.95761,49.166609],"type":"Point"},"properties":{"osm_id":"3778540158","tag":{"amenity":"waste_basket"}},"type":"Feature"},
	{"geometry":{"coordinates":[11.992176,49.153714],"type":"Point"},"properties":{"name":"Recyclinghof Holzheim","osm_id":"3779290853","tag":{"amenity":"recycling","recycling_type":"container"}},"type":"Feature"},
	{"geometry":{"coordinates":[12.033489,49.194585],"type":"Point"},"properties":{"osm_id":"4846024028","tag":{"amenity":"waste_basket"}},"type":"Feature"},
	{"geometry":{"coordinates":[12.039042,49.20901],"type":"Point"},"properties":{"osm_id":"4851559930","tag":{"amenity":"waste_basket"}},"type":"Feature"},
	{"geometry":{"coordinates":[11.963163,49.168777],"type":"Point"},"properties":{"osm_id":"6699381161","tag":{"access":"customers","amenity":"recycling","recycling:glass_bottles":"yes","recycling:organic":"yes","recycling:plastic":"yes","recycling:waste":"yes","recycling_type":"container"}},"type":"Feature"}
]
}
