{
"type": "FeatureCollection",
"features": [
	{"geometry":{"coordinates":[12.033071,48.99822],"type":"Point"},"properties":{"name":"Wertstoffhof Sinzing","osm_id":"307719199","tag":{"amenity":"recycling","opening_hours":"Tu 09:00-12:00, Apr-Oct: Fr 13:00-18:00, Nov-Mar: Fr 13:00-17:00 (November bis M\u00c3\u00a4rz), Sa 09:00-14:00","recycling:batteries":"yes","recycling:clothes":"yes","recycling:glass":"yes","recycling_type":"centre","website":"http://www.sinzing.de/rathaus?Wertstoffhof"}},"type":"Feature"},
	{"geometry":{"coordinates":[12.03858,48.991742],"type":"Point"},"properties":{"osm_id":"309089780","tag":{"amenity":"recycling","recycling:glass":"yes"}},"type":"Feature"},
	{"geometry":{"coordinates":[12.03767,49.027737],"type":"Point"},"properties":{"barrier":"gate","osm_id":"3137459114","tag":{"access":"private","opening_hours":"Mo-Fr 07:00-16:00"}},"type":"Feature"},
	{"geometry":{"coordinates":[12.032804,49.012263],"type":"Point"},"properties":{"osm_id":"3823982078","tag":{"amenity":"recycling","recycling:green_waste":"yes"}},"type":"Feature"},
	{"geometry":{"coordinates":[12.032778,49.012367],"type":"Point"},"properties":{"osm_id":"3823982079","tag":{"amenity":"recycling","recycling:glass":"yes","recycling_type":"container"}},"type":"Feature"},
	{"geometry":{"coordinates":[12.038295,49.027347],"type":"Point"},"properties":{"barrier":"gate","osm_id":"5524901886","tag":{"access":"private","opening_hours":"Mo-Fr 07:00-16:00"}},"type":"Feature"},
	{"geometry":{"coordinates":[11.976556,49.007054],"type":"Point"},"properties":{"osm_id":"6097997874","tag":{"amenity":"recycling","recycling:batteries":"no","recycling:cans":"yes","recycling:clothes":"yes","recycling:glass":"yes","recycling:glass_bottles":"yes","recycling:mobile_phones":"no","recycling:paint":"no","recycling_type":"container"}},"type":"Feature"},
	{"geometry":{"coordinates":[12.030621,49.000374],"type":"Point"},"properties":{"osm_id":"9121204944","tag":{"amenity":"recycling","operator":"BRK Bereitschaft Sinzing-Pr\u00c3\u00bcfening","recycling:clothes":"yes","recycling_type":"container"}},"type":"Feature"}
]
}
