{
"type": "FeatureCollection",
"features": [
	{"geometry":{"coordinates":[11.975271,48.256346],"type":"Point"},"properties":{"osm_id":"288528660","tag":{"addr:street":"Auer Stra\u00c3\u009fe","amenity":"recycling","opening_hours":"Apr-Oct: Tu,Fr 18:00-19:00; Sa 09:00-12:00; Nov-Mar: Tu 17:00-18:00; Sa 09:00-12:00","recycling:batteries":"yes","recycling:cans":"yes","recycling:cardboard":"yes","recycling:clothes":"yes","recycling:glass":"yes","recycling:green_waste":"yes","recycling:plastic_bottles":"yes","recycling:scrap_metal":"yes","recycling_type":"centre","website":"https://www.landkreis-erding.de/abfallwirtschaft/rund-um-die-entsorgung/recyclinghoefe-containerplaetze/"}},"type":"Feature"},
	{"geometry":{"coordinates":[12.021346,48.270439],"type":"Point"},"properties":{"osm_id":"316207887","tag":{"amenity":"recycling","opening_hours":"Mo-Sa 07:00-12:00,14:00-19:00; Su,PH off","recycling:cans":"yes","recycling:cardboard":"yes","recycling:clothes":"yes","recycling:glass_bottles":"yes","recycling:paper":"yes","recycling:shoes":"yes","recycling_type":"container","website":"https://www.landkreis-erding.de/abfallwirtschaft/rund-um-die-entsorgung/recyclinghoefe-containerplaetze/"}},"type":"Feature"},
	{"geometry":{"coordinates":[11.973968,48.258565],"type":"Point"},"properties":{"osm_id":"6697992998","tag":{"amenity":"waste_basket"}},"type":"Feature"},
	{"geometry":{"coordinates":[11.963324,48.261886],"type":"Point"},"properties":{"osm_id":"8400651348","tag":{"amenity":"waste_basket"}},"type":"Feature"},
	{"geometry":{"coordinates":[11.970861,48.242953],"type":"Point"},"properties":{"osm_id":"8521520900","tag":{"amenity":"waste_basket"}},"type":"Feature"},
	{"geometry":{"coordinates":[11.975204,48.25613],"type":"Point"},"properties":{"osm_id":"8777236188","tag":{"amenity":"recycling","opening_hours":"Mo-Sa 07:00-12:00,14:00-19:00; Su,PH off","recycling:cans":"yes","recycling:cardboard":"yes","recycling:clothes":"yes","recycling:glass_bottles":"yes","recycling:paper":"yes","recycling:shoes":"yes","recycling_type":"container","website":"https://www.landkreis-erding.de/abfallwirtschaft/rund-um-die-entsorgung/recyclinghoefe-containerplaetze/"}},"type":"Feature"}
]
}
