{
"type": "FeatureCollection",
"features": [
	{"geometry":{"coordinates":[11.959562,48.044687],"type":"Point"},"properties":{"barrier":"gate","osm_id":"415941890"},"type":"Feature"},
	{"geometry":{"coordinates":[12.005009,47.99256],"type":"Point"},"properties":{"osm_id":"664012649","tag":{"amenity":"recycling"}},"type":"Feature"},
	{"geometry":{"coordinates":[11.970523,48.040714],"type":"Point"},"properties":{"osm_id":"734224333","tag":{"amenity":"waste_basket"}},"type":"Feature"},
	{"geometry":{"coordinates":[11.970691,48.041232],"type":"Point"},"properties":{"osm_id":"734224337","tag":{"amenity":"recycling","opening_hours":"Mo-Sa 07:00-19:00","recycling:glass":"yes","recycling:paper":"yes","recycling_type":"container"}},"type":"Feature"},
	{"geometry":{"coordinates":[11.970727,48.040699],"type":"Point"},"properties":{"osm_id":"734224393","tag":{"amenity":"waste_basket"}},"type":"Feature"},
	{"geometry":{"coordinates":[11.967471,48.039603],"type":"Point"},"properties":{"osm_id":"734227461","tag":{"amenity":"recycling","opening_hours":"Mo-Sa 07:00 - 19:00","recycling:clothes":"yes","recycling:glass_bottles":"yes","recycling:paper":"yes","recycling:plastic_bottles":"yes","recycling:plastic_packaging":"yes","recycling:shoes":"yes","recycling_type":"container"}},"type":"Feature"},
	{"geometry":{"coordinates":[11.961255,48.046028],"type":"Point"},"properties":{"osm_id":"773186362","tag":{"amenity":"waste_basket","waste":"trash"}},"type":"Feature"},
	{"geometry":{"coordinates":[11.961869,48.046526],"type":"Point"},"properties":{"osm_id":"773186583","tag":{"amenity":"waste_basket"}},"type":"Feature"},
	{"geometry":{"coordinates":[11.953632,48.045714],"type":"Point"},"properties":{"osm_id":"926512660","tag":{"amenity":"recycling","opening_hours":"Mo-Sa 08:00-20:00","opening_hours:covid19":"same","recycling:cardboard":"yes","recycling:glass_bottles":"yes","recycling:paper":"yes","recycling:plastic":"yes","recycling:plastic_packaging":"yes","recycling_type":"container"}},"type":"Feature"},
	{"geometry":{"coordinates":[11.965236,48.029552],"type":"Point"},"properties":{"osm_id":"1019782088","tag":{"amenity":"waste_basket"}},"type":"Feature"},
	{"geometry":{"coordinates":[11.967116,48.045713],"type":"Point"},"properties":{"osm_id":"1022250154","tag":{"amenity":"waste_basket","material":"metal"}},"type":"Feature"},
	{"geometry":{"coordinates":[11.959358,48.023615],"type":"Point"},"properties":{"osm_id":"1991037555","tag":{"amenity":"recycling"}},"type":"Feature"},
	{"geometry":{"coordinates":[11.971058,48.029211],"type":"Point"},"properties":{"osm_id":"2377282268","tag":{"amenity":"recycling","recycling_type":"centre"}},"type":"Feature"},
	{"geometry":{"coordinates":[11.959168,48.044949],"type":"Point"},"properties":{"barrier":"gate","osm_id":"4267001689"},"type":"Feature"},
	{"geometry":{"coordinates":[11.958034,48.040767],"type":"Point"},"properties":{"osm_id":"4289519069","tag":{"amenity":"waste_disposal"}},"type":"Feature"},
	{"geometry":{"coordinates":[11.964056,48.046149],"type":"Point"},"properties":{"osm_id":"6766899867","tag":{"amenity":"recycling","recycling:cans":"yes","recycling:clothes":"yes","recycling:glass_bottles":"yes","recycling:paper":"yes","recycling:plastic":"no","recycling:plastic_packaging":"yes","recycling:shoes":"yes","recycling_type":"container"}},"type":"Feature"},
	{"geometry":{"coordinates":[11.961621,48.046779],"type":"Point"},"properties":{"osm_id":"6815842529","tag":{"amenity":"waste_basket"}},"type":"Feature"},
	{"geometry":{"coordinates":[11.968461,48.047212],"type":"Point"},"properties":{"osm_id":"6935126466","tag":{"amenity":"waste_basket","material":"metal","waste":"trash"}},"type":"Feature"},
	{"geometry":{"coordinates":[11.95982,48.04472],"type":"Point"},"properties":{"osm_id":"6939070051","tag":{"amenity":"waste_basket"}},"type":"Feature"},
	{"geometry":{"coordinates":[11.966226,48.045368],"type":"Point"},"properties":{"osm_id":"7131016261","tag":{"amenity":"waste_basket"}},"type":"Feature"},
	{"geometry":{"coordinates":[11.966115,48.045503],"type":"Point"},"properties":{"osm_id":"7131016268","tag":{"amenity":"waste_basket"}},"type":"Feature"},
	{"geometry":{"coordinates":[11.967877,48.044486],"type":"Point"},"properties":{"osm_id":"7340055182","tag":{"access":"yes","amenity":"recycling","recycling:cardboard":"yes","recycling:cartons":"yes","recycling:clothes":"yes","recycling:glass":"yes","recycling:glass_bottles":"yes","recycling:magazines":"yes","recycling:newspaper":"yes","recycling:paper":"yes","recycling:paper_packaging":"yes","recycling:plastic":"yes","recycling:plastic_packaging":"yes","recycling_type":"container"}},"type":"Feature"},
	{"geometry":{"coordinates":[11.968806,48.03766],"type":"Point"},"properties":{"osm_id":"7366012115","tag":{"amenity":"waste_basket","material":"steel","waste":"trash;mixed"}},"type":"Feature"},
	{"geometry":{"coordinates":[11.968718,48.046676],"type":"Point"},"properties":{"osm_id":"7526430515","tag":{"amenity":"waste_basket","material":"metal","waste":"trash"}},"type":"Feature"},
	{"geometry":{"coordinates":[11.969016,48.046378],"type":"Point"},"properties":{"osm_id":"7526430516","tag":{"amenity":"waste_basket","material":"metal","waste":"trash"}},"type":"Feature"},
	{"geometry":{"coordinates":[11.968892,48.045889],"type":"Point"},"properties":{"osm_id":"7526498260","tag":{"amenity":"waste_basket","material":"metal","waste":"trash;cigarettes"}},"type":"Feature"},
	{"geometry":{"coordinates":[11.957866,48.03723],"type":"Point"},"properties":{"osm_id":"7595741110","tag":{"amenity":"waste_basket","waste":"dog_excrement"}},"type":"Feature"},
	{"geometry":{"coordinates":[11.960937,48.047229],"type":"Point"},"properties":{"osm_id":"7692294651","tag":{"amenity":"waste_basket"}},"type":"Feature"},
	{"geometry":{"coordinates":[11.962987,48.047236],"type":"Point"},"properties":{"osm_id":"7692327201","tag":{"amenity":"waste_basket"}},"type":"Feature"},
	{"geometry":{"coordinates":[11.966347,48.046653],"type":"Point"},"properties":{"osm_id":"7696191564","tag":{"amenity":"waste_basket","material":"metal","waste":"trash"}},"type":"Feature"},
	{"geometry":{"coordinates":[11.95364,48.045322],"type":"Point"},"properties":{"osm_id":"7751908314","tag":{"amenity":"waste_basket","material":"metal","waste":"trash;cigarettes"}},"type":"Feature"},
	{"geometry":{"coordinates":[11.968165,48.044612],"type":"Point"},"properties":{"osm_id":"7769136571","tag":{"amenity":"waste_basket","material":"metal","waste":"trash"}},"type":"Feature"},
	{"geometry":{"coordinates":[11.969904,48.045504],"type":"Point"},"properties":{"osm_id":"7800093842","tag":{"amenity":"waste_basket","material":"metal","waste":"trash"}},"type":"Feature"}
]
}
