{
"type": "FeatureCollection",
"features": [
	{"geometry":{"coordinates":[12.024115,47.864547],"type":"Point"},"properties":{"osm_id":"305132295","tag":{"amenity":"recycling","opening_hours":"Mo-Sa 07:00-20:00;PH off","recycling:paper":"yes","recycling_type":"container"}},"type":"Feature"},
	{"geometry":{"coordinates":[12.015008,47.869355],"type":"Point"},"properties":{"osm_id":"305132384","tag":{"amenity":"recycling","opening_hours":"Mo-Sa 07:00-19:00;PH off","recycling:beverage_cartons":"yes","recycling:cans":"yes","recycling:glass":"no","recycling:glass_bottles":"yes","recycling:paper":"yes","recycling:shoes":"yes","recycling_type":"container"}},"type":"Feature"},
	{"geometry":{"coordinates":[12.022156,47.859194],"type":"Point"},"properties":{"osm_id":"306569018","tag":{"amenity":"recycling","opening_hours":"Mo-Sa 07:00-20:00;PH off","recycling:cans":"yes","recycling:glass_bottles":"yes","recycling:paper":"yes","recycling_type":"container"}},"type":"Feature"},
	{"geometry":{"coordinates":[12.007673,47.866089],"type":"Point"},"properties":{"osm_id":"307505539","tag":{"amenity":"recycling","opening_hours":"Mo-Sa 07:00-20:00;PH off","recycling:paper":"yes","recycling_type":"container"}},"type":"Feature"},
	{"geometry":{"coordinates":[12.000665,47.866108],"type":"Point"},"properties":{"osm_id":"307619480","tag":{"amenity":"recycling","opening_hours":"Mo-Sa 07:00-20:00;PH off","recycling:paper":"yes","recycling_type":"container"}},"type":"Feature"},
	{"geometry":{"coordinates":[12.007317,47.868735],"type":"Point"},"properties":{"osm_id":"309616469","tag":{"amenity":"recycling","opening_hours":"Mo-Sa 07:00-20:00;PH off","recycling:cans":"yes","recycling:glass_bottles":"yes","recycling:paper":"yes","recycling_type":"container"}},"type":"Feature"},
	{"geometry":{"coordinates":[12.031062,47.858301],"type":"Point"},"properties":{"osm_id":"322787563","tag":{"amenity":"recycling","opening_hours":"Mo-Sa 07:00-20:00;PH off","recycling:paper":"yes","recycling_type":"container"}},"type":"Feature"},
	{"geometry":{"coordinates":[12.003668,47.856649],"type":"Point"},"properties":{"osm_id":"416365832","tag":{"amenity":"recycling","opening_hours":"Mo-Sa 07:00-20:00;PH off","recycling:beverage_cartons":"yes","recycling:cans":"yes","recycling:glass_bottles":"yes","recycling:paper":"yes","recycling_type":"container"}},"type":"Feature"},
	{"geometry":{"coordinates":[12.009405,47.862129],"type":"Point"},"properties":{"osm_id":"416367169","tag":{"amenity":"recycling","opening_hours":"Mo-Sa 07:00-20:00;PH off","recycling:paper":"yes","recycling_type":"container"}},"type":"Feature"},
	{"geometry":{"coordinates":[12.022297,47.853819],"type":"Point"},"properties":{"osm_id":"417796965","tag":{"amenity":"recycling","opening_hours":"Mo-Sa 07:00-20:00;PH off","recycling:cans":"yes","recycling:glass_bottles":"yes","recycling:paper":"yes","recycling_type":"container"}},"type":"Feature"},
	{"geometry":{"coordinates":[12.017281,47.850593],"type":"Point"},"properties":{"osm_id":"423346770","tag":{"amenity":"recycling"}},"type":"Feature"},
	{"geometry":{"coordinates":[12.004778,47.867394],"type":"Point"},"properties":{"osm_id":"441583829","tag":{"amenity":"recycling","opening_hours":"Mo-Sa 07:00-20:00;PH off","recycling:beverage_cartons":"yes","recycling:cans":"yes","recycling:glass_bottles":"yes","recycling:paper":"yes","recycling_type":"container"}},"type":"Feature"},
	{"geometry":{"coordinates":[12.000043,47.861448],"type":"Point"},"properties":{"osm_id":"444951266","tag":{"amenity":"recycling","opening_hours":"Mo-Sa 07:00-20:00;PH off","recycling:glass_bottles":"yes","recycling:paper":"yes","recycling_type":"container"}},"type":"Feature"},
	{"geometry":{"coordinates":[12.009196,47.859588],"type":"Point"},"properties":{"osm_id":"445420342","tag":{"amenity":"recycling","opening_hours":"Mo-Sa 07:00-20:00;PH off","recycling:paper":"yes","recycling_type":"container"}},"type":"Feature"},
	{"geometry":{"coordinates":[12.012914,47.856116],"type":"Point"},"properties":{"osm_id":"445432330","tag":{"amenity":"recycling","opening_hours":"Mo-Sa 07:00-20:00;PH off","recycling:cans":"yes","recycling:glass_bottles":"yes","recycling:paper":"yes","recycling_type":"container"}},"type":"Feature"},
	{"geometry":{"coordinates":[11.995453,47.8683],"type":"Point"},"properties":{"name":"Gr\u00c3\u00bcngutsammelstelle","osm_id":"948034528","tag":{"amenity":"recycling","opening_hours":"Dec-Mar: Fr 13:00-17:00,Sa 09:00-12:00;PH off","operator":"pro communo AG","recycling:green_waste":"yes","recycling_type":"centre"}},"type":"Feature"},
	{"geometry":{"coordinates":[12.033014,47.866395],"type":"Point"},"properties":{"osm_id":"1746188887","tag":{"amenity":"waste_basket"}},"type":"Feature"},
	{"geometry":{"coordinates":[12.033075,47.86644],"type":"Point"},"properties":{"osm_id":"1746188892","tag":{"amenity":"waste_basket"}},"type":"Feature"},
	{"geometry":{"coordinates":[11.959334,47.833696],"type":"Point"},"properties":{"osm_id":"1755267896","tag":{"amenity":"waste_basket"}},"type":"Feature"},
	{"geometry":{"coordinates":[11.964391,47.835244],"type":"Point"},"properties":{"osm_id":"1755267917","tag":{"amenity":"waste_basket"}},"type":"Feature"},
	{"geometry":{"coordinates":[11.957906,47.83578],"type":"Point"},"properties":{"osm_id":"1755267922","tag":{"amenity":"waste_basket"}},"type":"Feature"},
	{"geometry":{"coordinates":[11.960808,47.842423],"type":"Point"},"properties":{"osm_id":"1755267980","tag":{"amenity":"waste_basket"}},"type":"Feature"},
	{"geometry":{"coordinates":[11.972504,47.843119],"type":"Point"},"properties":{"osm_id":"1755383452","tag":{"amenity":"recycling","recycling:cans":"yes","recycling:glass":"yes","recycling:paper":"yes"}},"type":"Feature"},
	{"geometry":{"coordinates":[11.977297,47.844807],"type":"Point"},"properties":{"osm_id":"1755383680","tag":{"amenity":"waste_basket"}},"type":"Feature"},
	{"geometry":{"coordinates":[11.986816,47.861994],"type":"Point"},"properties":{"osm_id":"1829191207","tag":{"amenity":"recycling","opening_hours":"Mo-Sa 07:00-20:00;PH off","recycling:cans":"yes","recycling:glass_bottles":"yes","recycling:paper":"yes","recycling_type":"container"}},"type":"Feature"},
	{"geometry":{"coordinates":[11.973986,47.822914],"type":"Point"},"properties":{"osm_id":"3828356289","tag":{"addr:city":"Bad Feilnbach","addr:housenumber":"2","addr:postcode":"83075","addr:street":"Berblinger Stra\u00dfe","addr:suburb":"Dettendorf","amenity":"recycling","operator":"Landkreis Rosenheim","recycling:cans":"yes","recycling:clothes":"yes","recycling:glass":"yes","recycling:glass_bottles":"yes","recycling:paper":"yes","recycling:plastic":"no","recycling_type":"container"}},"type":"Feature"},
	{"geometry":{"coordinates":[12.008492,47.871465],"type":"Point"},"properties":{"barrier":"gate","osm_id":"4286868131"},"type":"Feature"},
	{"geometry":{"coordinates":[11.964097,47.871659],"type":"Point"},"properties":{"osm_id":"5651125764","tag":{"amenity":"recycling","recycling_type":"container"}},"type":"Feature"},
	{"geometry":{"coordinates":[11.959749,47.871754],"type":"Point"},"properties":{"osm_id":"6356685737","tag":{"amenity":"waste_basket"}},"type":"Feature"},
	{"geometry":{"coordinates":[12.015929,47.868699],"type":"Point"},"properties":{"osm_id":"7123822606","tag":{"amenity":"recycling","opening_hours":"Mo-Sa 07:00-19:00;PH off","recycling:paper":"yes","recycling_type":"container"}},"type":"Feature"},
	{"geometry":{"coordinates":[12.01394,47.863168],"type":"Point"},"properties":{"osm_id":"7147816469","tag":{"amenity":"recycling","opening_hours":"Mo-Sa 07:00-20:00;PH off","recycling:beverage_cartons":"yes","recycling:cans":"yes","recycling:glass_bottles":"yes","recycling:paper":"yes","recycling_type":"container"}},"type":"Feature"},
	{"geometry":{"coordinates":[12.031684,47.856891],"type":"Point"},"properties":{"osm_id":"7615750652","tag":{"amenity":"waste_basket","waste":"trash"}},"type":"Feature"}
]
}
