{
"type": "FeatureCollection",
"lastupdate": "2020-07-31T00:00:00Z",
"features": [
	{"geometry":{"coordinates":[12.013733,47.671433],"type":"Point"},"properties":{"osm_id":"347055359","tag":{"amenity":"recycling","recycling:batteries":"no","recycling:cans":"yes","recycling:clothes":"yes","recycling:glass":"no","recycling:packaging":"yes","recycling:paper":"no","recycling:scrap_metal":"no"}},"type":"Feature"},
	{"geometry":{"coordinates":[12.013727,47.671402],"type":"Point"},"properties":{"osm_id":"347055368","tag":{"amenity":"recycling","opening_hours":"Mo-Fr 07:00-19:00","recycling:batteries":"no","recycling:cans":"no","recycling:clothes":"no","recycling:glass":"yes","recycling:paper":"no","recycling:scrap_metal":"no"}},"type":"Feature"},
	{"geometry":{"coordinates":[12.013786,47.67125],"type":"Point"},"properties":{"name":"Wertstoffhof Bayrischzell","osm_id":"347055373","tag":{"amenity":"recycling","opening_hours":"We 14:00-18:00; Fr 14:00-17:00; Sa 08:00-12:00","recycling:batteries":"yes","recycling:cans":"yes","recycling:clothes":"yes","recycling:glass":"yes","recycling:paper":"yes","recycling:scrap_metal":"yes","website":"http://gemeinde.bayrischzell.de/oeffentliche-einrichtungen/wertstoffhof.html"}},"type":"Feature"},
	{"geometry":{"coordinates":[12.015851,47.675058],"type":"Point"},"properties":{"osm_id":"347062130","tag":{"amenity":"recycling","recycling:batteries":"no","recycling:cans":"no","recycling:clothes":"yes","recycling:glass":"no","recycling:paper":"no","recycling:scrap_metal":"no"}},"type":"Feature"},
	{"geometry":{"coordinates":[12.018297,47.675614],"type":"Point"},"properties":{"osm_id":"347062151","tag":{"amenity":"recycling","opening_hours":"Mo-Fr 07:00-19:00","recycling:batteries":"no","recycling:cans":"no","recycling:clothes":"no","recycling:glass":"yes","recycling:packaging":"yes","recycling:paper":"no","recycling:scrap_metal":"no"}},"type":"Feature"},
	{"geometry":{"coordinates":[11.987713,47.687418],"type":"Point"},"properties":{"osm_id":"359025299","tag":{"amenity":"waste_basket"}},"type":"Feature"},
	{"geometry":{"coordinates":[11.981266,47.687673],"type":"Point"},"properties":{"osm_id":"359025474","tag":{"amenity":"waste_basket"}},"type":"Feature"},
	{"geometry":{"coordinates":[11.998175,47.681389],"type":"Point"},"properties":{"osm_id":"359025486","tag":{"amenity":"waste_basket"}},"type":"Feature"},
	{"geometry":{"coordinates":[11.986943,47.687679],"type":"Point"},"properties":{"osm_id":"4461312341","tag":{"amenity":"waste_basket"}},"type":"Feature"},
	{"geometry":{"coordinates":[11.967753,47.693557],"type":"Point"},"properties":{"osm_id":"4739622070","tag":{"amenity":"waste_basket"}},"type":"Feature"},
	{"geometry":{"coordinates":[11.985762,47.688282],"type":"Point"},"properties":{"osm_id":"5626714124","tag":{"amenity":"waste_basket","waste":"trash"}},"type":"Feature"}
]
}
