{
"type": "FeatureCollection",
"features": [
	{"geometry":{"coordinates":[12.026515,46.085144],"type":"Point"},"properties":{"osm_id":"3052675439","tag":{"amenity":"recycling","recycling:glass":"yes","recycling:paper":"yes","recycling_type":"container"}},"type":"Feature"},
	{"geometry":{"coordinates":[12.02972,46.097591],"type":"Point"},"properties":{"osm_id":"7787309317","tag":{"amenity":"waste_basket","material":"wood","support":"wall"}},"type":"Feature"},
	{"geometry":{"coordinates":[12.026603,46.103378],"type":"Point"},"properties":{"osm_id":"7787947782","tag":{"amenity":"waste_basket"}},"type":"Feature"},
	{"geometry":{"coordinates":[12.026408,46.09262],"type":"Point"},"properties":{"osm_id":"7795036634","tag":{"amenity":"waste_disposal"}},"type":"Feature"},
	{"geometry":{"coordinates":[12.035906,46.091254],"type":"Point"},"properties":{"osm_id":"7795036648","tag":{"amenity":"waste_basket","material":"wood"}},"type":"Feature"},
	{"geometry":{"coordinates":[12.032462,46.095885],"type":"Point"},"properties":{"osm_id":"7795036665","tag":{"amenity":"waste_disposal"}},"type":"Feature"},
	{"geometry":{"coordinates":[12.027463,46.103191],"type":"Point"},"properties":{"osm_id":"7800714673","tag":{"amenity":"waste_disposal"}},"type":"Feature"},
	{"geometry":{"coordinates":[12.029275,46.107809],"type":"Point"},"properties":{"barrier":"gate","osm_id":"7801192975"},"type":"Feature"},
	{"geometry":{"coordinates":[12.029153,46.104034],"type":"Point"},"properties":{"osm_id":"7810080408","tag":{"amenity":"waste_disposal"}},"type":"Feature"},
	{"geometry":{"coordinates":[12.03004,46.113108],"type":"Point"},"properties":{"osm_id":"7820207208","tag":{"amenity":"waste_disposal"}},"type":"Feature"},
	{"geometry":{"coordinates":[12.035161,46.105572],"type":"Point"},"properties":{"osm_id":"7822106663","tag":{"amenity":"waste_disposal"}},"type":"Feature"},
	{"geometry":{"coordinates":[12.028951,46.111689],"type":"Point"},"properties":{"osm_id":"7826071020","tag":{"amenity":"waste_basket","colour":"brown","material":"wood"}},"type":"Feature"}
]
}
