{
"type": "FeatureCollection",
"features": [
	{"geometry":{"coordinates":[-70.683162,-33.404535],"type":"Point"},"properties":{"name":"Soco Metal","osm_id":"4442510605","tag":{"addr:housenumber":"2986","addr:street":"Bravo de Saravia","amenity":"recycling","recycling_type":"scrap metal"}},"type":"Feature"},
	{"geometry":{"coordinates":[-70.689087,-33.363616],"type":"Point"},"properties":{"osm_id":"6577368722","tag":{"amenity":"waste_basket"}},"type":"Feature"},
	{"geometry":{"coordinates":[-70.689307,-33.363444],"type":"Point"},"properties":{"osm_id":"6577368727","tag":{"amenity":"waste_basket"}},"type":"Feature"},
	{"geometry":{"coordinates":[-70.742514,-33.359392],"type":"Point"},"properties":{"osm_id":"8003618652","tag":{"amenity":"recycling","recycling:glass_bottles":"yes","recycling_type":"container"}},"type":"Feature"},
	{"geometry":{"coordinates":[-70.664975,-33.40766],"type":"Point"},"properties":{"osm_id":"8349571744","tag":{"amenity":"waste_basket"}},"type":"Feature"},
	{"geometry":{"coordinates":[-70.665496,-33.407502],"type":"Point"},"properties":{"osm_id":"8350056402","tag":{"amenity":"waste_basket"}},"type":"Feature"},
	{"geometry":{"coordinates":[-70.727216,-33.367539],"type":"Point"},"properties":{"name":"Punto Limpio TriCiclos","osm_id":"8957868716","tag":{"addr:housenumber":"581","addr:street":"Manuel Antonio Matta","amenity":"recycling","recycling:aluminium":"yes","recycling:cans":"yes","recycling:cardboard":"yes","recycling:drink_cartons":"yes","recycling:glass_bottles":"yes","recycling:newspaper":"yes","recycling:paper":"yes","recycling:pet":"yes","recycling:plastic_bags":"yes","recycling:plastic_bottles":"yes","recycling:plastic_packaging":"yes","recycling:tetrapak":"yes","recycling_type":"centre"}},"type":"Feature"}
]
}
