{
"type": "FeatureCollection",
"features": [
	{"geometry":{"coordinates":[-70.670469,-33.492551],"type":"Point"},"properties":{"name":"Punto de Reciclaje","osm_id":"3676456357","tag":{"addr:housenumber":"2500","addr:street":"Avenida La Marina","amenity":"recycling","operator":"EMERES","phone":"(+56 2) 2 558 8960","recycling:clothes":"no","recycling:glass":"yes","recycling:glass_bottles":"yes","recycling:paper":"yes","recycling:plastic":"yes","website":"http://www.directorioresiduos.cl/","wheelchair":"limited"}},"type":"Feature"},
	{"geometry":{"coordinates":[-70.684066,-33.493967],"type":"Point"},"properties":{"name":"Punto de Reciclaje","osm_id":"3676456359","tag":{"addr:street":"centroam\u00c3\u00a9rica","amenity":"recycling","operator":"EMERES","phone":"(+56 2) 2 558 8960","recycling:cans":"yes","recycling:clothes":"no","recycling:glass":"yes","recycling:paper":"yes","website":"http://www.directorioresiduos.cl/","wheelchair":"limited"}},"type":"Feature"},
	{"geometry":{"coordinates":[-70.672123,-33.485528],"type":"Point"},"properties":{"name":"Punto de Reciclaje","osm_id":"4981116088","tag":{"amenity":"recycling","operator":"EMERES","phone":"(+56 2) 2 558 8960","recycling:clothes":"no","recycling:glass":"yes","recycling:glass_bottles":"yes","recycling:paper":"yes","recycling:plastic":"yes","website":"http://www.directorioresiduos.cl/","wheelchair":"yes"}},"type":"Feature"},
	{"geometry":{"coordinates":[-70.66919,-33.448081],"type":"Point"},"properties":{"osm_id":"5319210127","tag":{"amenity":"waste_basket"}},"type":"Feature"},
	{"geometry":{"coordinates":[-70.671,-33.448561],"type":"Point"},"properties":{"osm_id":"5319210128","tag":{"amenity":"waste_basket"}},"type":"Feature"},
	{"geometry":{"coordinates":[-70.672789,-33.449048],"type":"Point"},"properties":{"osm_id":"5319210130","tag":{"amenity":"waste_basket"}},"type":"Feature"},
	{"geometry":{"coordinates":[-70.67307,-33.449263],"type":"Point"},"properties":{"osm_id":"5319210131","tag":{"amenity":"waste_basket"}},"type":"Feature"},
	{"geometry":{"coordinates":[-70.675393,-33.449804],"type":"Point"},"properties":{"osm_id":"5319210134","tag":{"amenity":"waste_basket"}},"type":"Feature"},
	{"geometry":{"coordinates":[-70.675595,-33.449814],"type":"Point"},"properties":{"osm_id":"5319210135","tag":{"amenity":"waste_basket"}},"type":"Feature"},
	{"geometry":{"coordinates":[-70.668988,-33.448027],"type":"Point"},"properties":{"osm_id":"5319210428","tag":{"amenity":"waste_basket"}},"type":"Feature"},
	{"geometry":{"coordinates":[-70.671757,-33.448767],"type":"Point"},"properties":{"osm_id":"5319210627","tag":{"amenity":"waste_basket"}},"type":"Feature"},
	{"geometry":{"coordinates":[-70.672565,-33.448991],"type":"Point"},"properties":{"osm_id":"5319210629","tag":{"amenity":"waste_basket"}},"type":"Feature"},
	{"geometry":{"coordinates":[-70.673226,-33.449302],"type":"Point"},"properties":{"osm_id":"5319210630","tag":{"amenity":"waste_basket"}},"type":"Feature"},
	{"geometry":{"coordinates":[-70.674591,-33.449451],"type":"Point"},"properties":{"osm_id":"5319210632","tag":{"amenity":"waste_basket"}},"type":"Feature"},
	{"geometry":{"coordinates":[-70.67574,-33.449871],"type":"Point"},"properties":{"osm_id":"5319210633","tag":{"amenity":"waste_basket"}},"type":"Feature"},
	{"geometry":{"coordinates":[-70.676988,-33.450224],"type":"Point"},"properties":{"osm_id":"5319213422","tag":{"amenity":"waste_basket"}},"type":"Feature"},
	{"geometry":{"coordinates":[-70.671362,-33.44865],"type":"Point"},"properties":{"osm_id":"5319213821","tag":{"amenity":"waste_basket"}},"type":"Feature"},
	{"geometry":{"coordinates":[-70.675945,-33.449952],"type":"Point"},"properties":{"osm_id":"5319213823","tag":{"amenity":"waste_basket"}},"type":"Feature"},
	{"geometry":{"coordinates":[-70.676282,-33.450041],"type":"Point"},"properties":{"osm_id":"5319213825","tag":{"amenity":"waste_basket"}},"type":"Feature"},
	{"geometry":{"coordinates":[-70.676873,-33.450193],"type":"Point"},"properties":{"osm_id":"5319213826","tag":{"amenity":"waste_basket"}},"type":"Feature"},
	{"geometry":{"coordinates":[-70.677806,-33.450437],"type":"Point"},"properties":{"osm_id":"5319213827","tag":{"amenity":"waste_basket"}},"type":"Feature"},
	{"geometry":{"coordinates":[-70.677972,-33.450483],"type":"Point"},"properties":{"osm_id":"5319220222","tag":{"amenity":"waste_basket"}},"type":"Feature"},
	{"geometry":{"coordinates":[-70.678987,-33.450438],"type":"Point"},"properties":{"osm_id":"5319220224","tag":{"amenity":"waste_basket"}},"type":"Feature"},
	{"geometry":{"coordinates":[-70.677068,-33.450242],"type":"Point"},"properties":{"osm_id":"5319223421","tag":{"amenity":"waste_basket"}},"type":"Feature"},
	{"geometry":{"coordinates":[-70.677941,-33.450446],"type":"Point"},"properties":{"osm_id":"5319223621","tag":{"amenity":"waste_basket"}},"type":"Feature"},
	{"geometry":{"coordinates":[-70.678945,-33.45071],"type":"Point"},"properties":{"osm_id":"5319223722","tag":{"amenity":"waste_basket"}},"type":"Feature"},
	{"geometry":{"coordinates":[-70.679279,-33.450738],"type":"Point"},"properties":{"osm_id":"5319223724","tag":{"amenity":"waste_basket"}},"type":"Feature"},
	{"geometry":{"coordinates":[-70.679323,-33.450753],"type":"Point"},"properties":{"osm_id":"5319223725","tag":{"amenity":"waste_basket"}},"type":"Feature"},
	{"geometry":{"coordinates":[-70.679023,-33.450737],"type":"Point"},"properties":{"osm_id":"5319224321","tag":{"amenity":"waste_basket"}},"type":"Feature"},
	{"geometry":{"coordinates":[-70.679166,-33.450685],"type":"Point"},"properties":{"osm_id":"5319224323","tag":{"amenity":"waste_basket"}},"type":"Feature"},
	{"geometry":{"coordinates":[-70.686865,-33.452751],"type":"Point"},"properties":{"osm_id":"5456696126","tag":{"amenity":"waste_basket"}},"type":"Feature"},
	{"geometry":{"coordinates":[-70.691659,-33.453892],"type":"Point"},"properties":{"osm_id":"5456696128","tag":{"amenity":"waste_basket"}},"type":"Feature"},
	{"geometry":{"coordinates":[-70.69524,-33.454726],"type":"Point"},"properties":{"osm_id":"5456696129","tag":{"amenity":"waste_basket"}},"type":"Feature"},
	{"geometry":{"coordinates":[-70.680839,-33.451353],"type":"Point"},"properties":{"osm_id":"5456701722","tag":{"amenity":"waste_basket"}},"type":"Feature"},
	{"geometry":{"coordinates":[-70.69097,-33.453719],"type":"Point"},"properties":{"osm_id":"5456701725","tag":{"amenity":"waste_basket"}},"type":"Feature"},
	{"geometry":{"coordinates":[-70.691519,-33.453855],"type":"Point"},"properties":{"osm_id":"5456701726","tag":{"amenity":"waste_basket"}},"type":"Feature"},
	{"geometry":{"coordinates":[-70.691722,-33.453908],"type":"Point"},"properties":{"osm_id":"5456701727","tag":{"amenity":"waste_basket"}},"type":"Feature"},
	{"geometry":{"coordinates":[-70.707478,-33.458044],"type":"Point"},"properties":{"osm_id":"5456701734","tag":{"amenity":"waste_basket"}},"type":"Feature"},
	{"geometry":{"coordinates":[-70.703428,-33.45698],"type":"Point"},"properties":{"osm_id":"5456701735","tag":{"amenity":"waste_basket"}},"type":"Feature"},
	{"geometry":{"coordinates":[-70.70252,-33.456759],"type":"Point"},"properties":{"osm_id":"5456701736","tag":{"amenity":"waste_basket"}},"type":"Feature"},
	{"geometry":{"coordinates":[-70.699265,-33.455979],"type":"Point"},"properties":{"osm_id":"5456701737","tag":{"amenity":"waste_basket"}},"type":"Feature"},
	{"geometry":{"coordinates":[-70.690919,-33.454114],"type":"Point"},"properties":{"osm_id":"5456701744","tag":{"amenity":"waste_basket"}},"type":"Feature"},
	{"geometry":{"coordinates":[-70.690836,-33.454095],"type":"Point"},"properties":{"osm_id":"5456701745","tag":{"amenity":"waste_basket"}},"type":"Feature"},
	{"geometry":{"coordinates":[-70.690663,-33.454615],"type":"Point"},"properties":{"osm_id":"5456701746","tag":{"amenity":"waste_basket"}},"type":"Feature"},
	{"geometry":{"coordinates":[-70.688781,-33.453579],"type":"Point"},"properties":{"osm_id":"5456701754","tag":{"amenity":"waste_basket"}},"type":"Feature"},
	{"geometry":{"coordinates":[-70.684984,-33.45265],"type":"Point"},"properties":{"osm_id":"5456701755","tag":{"amenity":"waste_basket"}},"type":"Feature"},
	{"geometry":{"coordinates":[-70.67245,-33.44928],"type":"Point"},"properties":{"osm_id":"5456701774","tag":{"amenity":"waste_basket"}},"type":"Feature"},
	{"geometry":{"coordinates":[-70.696655,-33.455059],"type":"Point"},"properties":{"osm_id":"5456701926","tag":{"amenity":"waste_basket"}},"type":"Feature"},
	{"geometry":{"coordinates":[-70.668467,-33.448375],"type":"Point"},"properties":{"osm_id":"5456701940","tag":{"amenity":"waste_basket"}},"type":"Feature"},
	{"geometry":{"coordinates":[-70.691588,-33.45388],"type":"Point"},"properties":{"osm_id":"5456702922","tag":{"amenity":"waste_basket"}},"type":"Feature"},
	{"geometry":{"coordinates":[-70.707009,-33.457935],"type":"Point"},"properties":{"osm_id":"5456702930","tag":{"amenity":"waste_basket"}},"type":"Feature"},
	{"geometry":{"coordinates":[-70.695075,-33.454992],"type":"Point"},"properties":{"osm_id":"5456702932","tag":{"amenity":"waste_basket"}},"type":"Feature"},
	{"geometry":{"coordinates":[-70.688597,-33.453547],"type":"Point"},"properties":{"osm_id":"5456702938","tag":{"amenity":"waste_basket"}},"type":"Feature"},
	{"geometry":{"coordinates":[-70.688156,-33.453417],"type":"Point"},"properties":{"osm_id":"5456702939","tag":{"amenity":"waste_basket"}},"type":"Feature"},
	{"geometry":{"coordinates":[-70.672797,-33.449384],"type":"Point"},"properties":{"osm_id":"5456702960","tag":{"amenity":"waste_basket"}},"type":"Feature"},
	{"geometry":{"coordinates":[-70.667022,-33.453762],"type":"Point"},"properties":{"name":"Punto Limpio UNAB","osm_id":"5523236716","tag":{"amenity":"recycling","location":"overground","recycling_type":"container"}},"type":"Feature"},
	{"geometry":{"coordinates":[-70.667532,-33.496433],"type":"Point"},"properties":{"name":"Punto de Reciclaje","osm_id":"5880053275","tag":{"addr:housenumber":"2500","addr:street":"Avenida La Marina","amenity":"recycling","operator":"EMERES","phone":"(+56 2) 2 558 8960","recycling:clothes":"no","recycling:glass":"yes","recycling:glass_bottles":"yes","recycling:paper":"yes","recycling:plastic":"yes","website":"http://www.directorioresiduos.cl/","wheelchair":"limited"}},"type":"Feature"},
	{"geometry":{"coordinates":[-70.679356,-33.498803],"type":"Point"},"properties":{"name":"Punto de Reciclaje","osm_id":"5880053276","tag":{"addr:housenumber":"2500","addr:street":"Avenida La Marina","amenity":"recycling","operator":"EMERES","phone":"(+56 2) 2 558 8960","recycling:clothes":"no","recycling:glass":"yes","recycling:glass_bottles":"yes","recycling:paper":"yes","recycling:plastic":"yes","website":"http://www.directorioresiduos.cl/","wheelchair":"limited"}},"type":"Feature"},
	{"geometry":{"coordinates":[-70.690886,-33.466242],"type":"Point"},"properties":{"name":"Romerelli","osm_id":"6067180555","tag":{"addr:city":"Estacion Central","addr:housenumber":"4169","addr:street":"Arzobispo Subercaseaux","amenity":"recycling","building":"commercial","email":"romerelli@romerelli.cl","opening_hours":"Mo-Fr 08:30-17:45","phone":"+56227764847","recycling:aluminium":"yes","recycling:cans":"yes","recycling:scrap_metal":"yes","recycling_type":"centre","website":"https://www.romerelli.cl/","wheelchair":"yes"}},"type":"Feature"},
	{"geometry":{"coordinates":[-70.694921,-33.443728],"type":"Point"},"properties":{"osm_id":"6073655986","tag":{"amenity":"recycling"}},"type":"Feature"},
	{"geometry":{"coordinates":[-70.694939,-33.443756],"type":"Point"},"properties":{"osm_id":"6079749486","tag":{"amenity":"recycling"}},"type":"Feature"},
	{"geometry":{"coordinates":[-70.673499,-33.463817],"type":"Point"},"properties":{"name":"Local de compra de aluminio y otros metales","osm_id":"6201401085","tag":{"amenity":"recycling"}},"type":"Feature"},
	{"geometry":{"coordinates":[-70.684007,-33.447909],"type":"Point"},"properties":{"osm_id":"6245509259","tag":{"amenity":"recycling","recycling_type":"container"}},"type":"Feature"},
	{"geometry":{"coordinates":[-70.703931,-33.468923],"type":"Point"},"properties":{"osm_id":"6287552011","tag":{"amenity":"waste_basket"}},"type":"Feature"},
	{"geometry":{"coordinates":[-70.671056,-33.48566],"type":"Point"},"properties":{"osm_id":"6872559597","tag":{"amenity":"waste_basket"}},"type":"Feature"},
	{"geometry":{"coordinates":[-70.671292,-33.485289],"type":"Point"},"properties":{"osm_id":"6872564917","tag":{"amenity":"waste_basket"}},"type":"Feature"},
	{"geometry":{"coordinates":[-70.671456,-33.48523],"type":"Point"},"properties":{"osm_id":"6872564918","tag":{"amenity":"waste_basket"}},"type":"Feature"},
	{"geometry":{"coordinates":[-70.66953,-33.486195],"type":"Point"},"properties":{"osm_id":"6872605455","tag":{"amenity":"waste_basket"}},"type":"Feature"},
	{"geometry":{"coordinates":[-70.669607,-33.486364],"type":"Point"},"properties":{"osm_id":"6872605458","tag":{"amenity":"waste_basket"}},"type":"Feature"},
	{"geometry":{"coordinates":[-70.668796,-33.487025],"type":"Point"},"properties":{"osm_id":"6872633544","tag":{"amenity":"waste_basket"}},"type":"Feature"},
	{"geometry":{"coordinates":[-70.668101,-33.485584],"type":"Point"},"properties":{"osm_id":"6874309134","tag":{"amenity":"waste_basket"}},"type":"Feature"},
	{"geometry":{"coordinates":[-70.668506,-33.485285],"type":"Point"},"properties":{"osm_id":"6874597599","tag":{"amenity":"waste_basket"}},"type":"Feature"},
	{"geometry":{"coordinates":[-70.668479,-33.485125],"type":"Point"},"properties":{"osm_id":"6874597602","tag":{"amenity":"waste_basket"}},"type":"Feature"},
	{"geometry":{"coordinates":[-70.668776,-33.485137],"type":"Point"},"properties":{"osm_id":"6874597607","tag":{"amenity":"waste_basket"}},"type":"Feature"},
	{"geometry":{"coordinates":[-70.668126,-33.485066],"type":"Point"},"properties":{"osm_id":"6874611551","tag":{"amenity":"waste_basket"}},"type":"Feature"},
	{"geometry":{"coordinates":[-70.666582,-33.441103],"type":"Point"},"properties":{"osm_id":"8397128534","tag":{"amenity":"waste_basket"}},"type":"Feature"},
	{"geometry":{"coordinates":[-70.665845,-33.441054],"type":"Point"},"properties":{"osm_id":"8397128536","tag":{"amenity":"waste_basket"}},"type":"Feature"},
	{"geometry":{"coordinates":[-70.6659,-33.441078],"type":"Point"},"properties":{"osm_id":"8397128537","tag":{"amenity":"waste_basket"}},"type":"Feature"},
	{"geometry":{"coordinates":[-70.666163,-33.440799],"type":"Point"},"properties":{"osm_id":"8397128601","tag":{"amenity":"waste_basket"}},"type":"Feature"},
	{"geometry":{"coordinates":[-70.665827,-33.440836],"type":"Point"},"properties":{"osm_id":"8397128615","tag":{"amenity":"waste_basket"}},"type":"Feature"},
	{"geometry":{"coordinates":[-70.665184,-33.440533],"type":"Point"},"properties":{"osm_id":"8446243713","tag":{"amenity":"waste_basket"}},"type":"Feature"},
	{"geometry":{"coordinates":[-70.665423,-33.44017],"type":"Point"},"properties":{"osm_id":"8464336812","tag":{"amenity":"waste_basket"}},"type":"Feature"},
	{"geometry":{"coordinates":[-70.665363,-33.440051],"type":"Point"},"properties":{"osm_id":"8464565420","tag":{"amenity":"waste_basket"}},"type":"Feature"},
	{"geometry":{"coordinates":[-70.666395,-33.44058],"type":"Point"},"properties":{"osm_id":"8465177862","tag":{"amenity":"waste_basket"}},"type":"Feature"},
	{"geometry":{"coordinates":[-70.666271,-33.440601],"type":"Point"},"properties":{"osm_id":"8474334988","tag":{"amenity":"waste_basket"}},"type":"Feature"},
	{"geometry":{"coordinates":[-70.666679,-33.440254],"type":"Point"},"properties":{"osm_id":"8481128220","tag":{"amenity":"waste_basket"}},"type":"Feature"},
	{"geometry":{"coordinates":[-70.666489,-33.440178],"type":"Point"},"properties":{"osm_id":"8481128225","tag":{"amenity":"waste_basket"}},"type":"Feature"},
	{"geometry":{"coordinates":[-70.66522,-33.440759],"type":"Point"},"properties":{"osm_id":"8489585009","tag":{"amenity":"waste_basket"}},"type":"Feature"},
	{"geometry":{"coordinates":[-70.665117,-33.440288],"type":"Point"},"properties":{"osm_id":"8489614401","tag":{"amenity":"waste_basket"}},"type":"Feature"},
	{"geometry":{"coordinates":[-70.665945,-33.440111],"type":"Point"},"properties":{"osm_id":"8490582556","tag":{"amenity":"waste_basket"}},"type":"Feature"},
	{"geometry":{"coordinates":[-70.665756,-33.440097],"type":"Point"},"properties":{"osm_id":"8490582560","tag":{"amenity":"waste_basket"}},"type":"Feature"},
	{"geometry":{"coordinates":[-70.665506,-33.440469],"type":"Point"},"properties":{"osm_id":"8502512016","tag":{"amenity":"waste_basket"}},"type":"Feature"},
	{"geometry":{"coordinates":[-70.666011,-33.440336],"type":"Point"},"properties":{"osm_id":"8502561172","tag":{"amenity":"waste_basket"}},"type":"Feature"},
	{"geometry":{"coordinates":[-70.666115,-33.440517],"type":"Point"},"properties":{"osm_id":"8502620998","tag":{"amenity":"waste_basket"}},"type":"Feature"},
	{"geometry":{"coordinates":[-70.666588,-33.440298],"type":"Point"},"properties":{"osm_id":"8502665338","tag":{"amenity":"waste_basket"}},"type":"Feature"},
	{"geometry":{"coordinates":[-70.666644,-33.440691],"type":"Point"},"properties":{"osm_id":"8509177801","tag":{"amenity":"waste_basket"}},"type":"Feature"},
	{"geometry":{"coordinates":[-70.681554,-33.441463],"type":"Point"},"properties":{"osm_id":"8528642989","tag":{"amenity":"waste_basket"}},"type":"Feature"},
	{"geometry":{"coordinates":[-70.681911,-33.441484],"type":"Point"},"properties":{"osm_id":"8528642990","tag":{"amenity":"waste_basket"}},"type":"Feature"},
	{"geometry":{"coordinates":[-70.682165,-33.441581],"type":"Point"},"properties":{"osm_id":"8528647635","tag":{"amenity":"waste_basket"}},"type":"Feature"},
	{"geometry":{"coordinates":[-70.681297,-33.44152],"type":"Point"},"properties":{"osm_id":"8528764916","tag":{"amenity":"waste_basket"}},"type":"Feature"},
	{"geometry":{"coordinates":[-70.681536,-33.441582],"type":"Point"},"properties":{"osm_id":"8528775521","tag":{"amenity":"waste_basket"}},"type":"Feature"},
	{"geometry":{"coordinates":[-70.682562,-33.441767],"type":"Point"},"properties":{"osm_id":"8528775550","tag":{"amenity":"waste_basket"}},"type":"Feature"},
	{"geometry":{"coordinates":[-70.682819,-33.441783],"type":"Point"},"properties":{"osm_id":"8528775551","tag":{"amenity":"waste_basket"}},"type":"Feature"},
	{"geometry":{"coordinates":[-70.682698,-33.441662],"type":"Point"},"properties":{"osm_id":"8528775560","tag":{"amenity":"waste_basket"}},"type":"Feature"},
	{"geometry":{"coordinates":[-70.681686,-33.440819],"type":"Point"},"properties":{"osm_id":"8528794138","tag":{"amenity":"waste_basket"}},"type":"Feature"},
	{"geometry":{"coordinates":[-70.682199,-33.441183],"type":"Point"},"properties":{"osm_id":"8528933171","tag":{"amenity":"waste_basket"}},"type":"Feature"},
	{"geometry":{"coordinates":[-70.681466,-33.441166],"type":"Point"},"properties":{"osm_id":"8528933205","tag":{"amenity":"waste_basket"}},"type":"Feature"},
	{"geometry":{"coordinates":[-70.665374,-33.441016],"type":"Point"},"properties":{"osm_id":"8535390185","tag":{"amenity":"waste_basket"}},"type":"Feature"},
	{"geometry":{"coordinates":[-70.666257,-33.441122],"type":"Point"},"properties":{"osm_id":"8535468623","tag":{"amenity":"waste_basket"}},"type":"Feature"},
	{"geometry":{"coordinates":[-70.665387,-33.45114],"type":"Point"},"properties":{"osm_id":"8608750482","tag":{"amenity":"waste_basket"}},"type":"Feature"},
	{"geometry":{"coordinates":[-70.666436,-33.440781],"type":"Point"},"properties":{"osm_id":"8915431567","tag":{"amenity":"waste_basket"}},"type":"Feature"},
	{"geometry":{"coordinates":[-70.681073,-33.441295],"type":"Point"},"properties":{"osm_id":"8954906902","tag":{"amenity":"waste_basket"}},"type":"Feature"}
]
}
