{
"type": "FeatureCollection",
"lastupdate": "2020-08-06T00:00:00Z",
"features": [
	{"geometry":{"coordinates":[-70.673556,-33.514999],"type":"Point"},"properties":{"osm_id":"3200714440","tag":{"addr:city":"Lo Espejo","addr:housenumber":"1410","addr:street":"Avenida Lincoln","amenity":"recycling","recycling:glass_bottles":"yes"}},"type":"Feature"},
	{"geometry":{"coordinates":[-70.679216,-33.522577],"type":"Point"},"properties":{"osm_id":"3200714441","tag":{"addr:city":"Lo Espejo","addr:housenumber":"1595","addr:street":"Avenida Adolfo Lopez Mateo","amenity":"recycling","recycling:glass_bottles":"yes"}},"type":"Feature"},
	{"geometry":{"coordinates":[-70.677383,-33.508494],"type":"Point"},"properties":{"osm_id":"3200714442","tag":{"addr:city":"Lo Espejo","addr:housenumber":"2356","addr:street":"Avenida Lo Ovalle","amenity":"recycling","recycling:glass_bottles":"yes"}},"type":"Feature"},
	{"geometry":{"coordinates":[-70.678452,-33.516588],"type":"Point"},"properties":{"osm_id":"3200714444","tag":{"addr:city":"Lo Espejo","addr:housenumber":"7171","addr:street":"Avenida Valpara\u00edso","amenity":"recycling","recycling:glass_bottles":"yes"}},"type":"Feature"},
	{"geometry":{"coordinates":[-70.698377,-33.522808],"type":"Point"},"properties":{"osm_id":"3200714445","tag":{"addr:city":"Lo Espejo","addr:housenumber":"8321","addr:street":"Avenida Central","amenity":"recycling","recycling:plastic_bottles":"yes"}},"type":"Feature"},
	{"geometry":{"coordinates":[-70.694116,-33.506508],"type":"Point"},"properties":{"osm_id":"3200715975","tag":{"addr:city":"Lo Espejo","addr:street":"Buenaventura","amenity":"recycling","recycling:glass_bottles":"yes"}},"type":"Feature"},
	{"geometry":{"coordinates":[-70.671337,-33.509984],"type":"Point"},"properties":{"osm_id":"3200715976","tag":{"addr:city":"Lo Espejo","addr:street":"Avenida Jos\u00e9 Joaquin Prieto","amenity":"recycling","recycling:glass_bottles":"yes"}},"type":"Feature"},
	{"geometry":{"coordinates":[-70.695036,-33.510575],"type":"Point"},"properties":{"osm_id":"3200715977","tag":{"addr:city":"Lo Espejo","addr:street":"Puerto Principe","amenity":"recycling","recycling:plastic_bottles":"yes"}},"type":"Feature"},
	{"geometry":{"coordinates":[-70.740538,-33.527198],"type":"Point"},"properties":{"name":"Romerelli","osm_id":"6279081237","tag":{"addr:city":"Maip\u00fa","addr:housenumber":"640","addr:street":"Los Yacimientos","amenity":"recycling","building":"industrial","operator":"Romerelli","recycling:aluminium":"yes","recycling:cans":"yes","recycling:scrap_metal":"yes","recycling_type":"centre"}},"type":"Feature"},
	{"geometry":{"coordinates":[-70.680509,-33.570483],"type":"Point"},"properties":{"osm_id":"6538848297","tag":{"amenity":"recycling","opening_hours":"24/7","recycling:cartons":"yes","recycling:glass":"yes","recycling:glass_bottles":"yes","recycling:newspapers":"yes","recycling:paper":"yes","recycling:paper_packaging":"yes","recycling:plastic_bottles":"yes","recycling_type":"centre"}},"type":"Feature"}
]
}
