{
"type": "FeatureCollection",
"features": [
	{"geometry":{"coordinates":[31.547474,3.552414],"type":"Point"},"properties":{"name":"Lokpe Health Center Disposable Pit","osm_id":"5594243583","tag":{"addr:county":"Aringa","addr:district":"Yumbe","addr:parish":"Lokpe","addr:subcounty":"Kochi","addr:village":"Masaka","amenity":"waste_disposal","fee":"no","lit":"no","operator:type":"government","source:form":"Sanitation;v3.0.2","start_date":"01/06/2011","waste":"Domestic"}},"type":"Feature"},
	{"geometry":{"coordinates":[31.547047,3.551812],"type":"Point"},"properties":{"name":"Lopke Health Center Placenta Pit","osm_id":"5594243586","tag":{"addr:county":"Aringa","addr:district":"Yumbe","addr:parish":"Lokpe","addr:subcounty":"Kochi","addr:village":"Masaka","amenity":"waste_disposal","fee":"no","lit":"no","operator:type":"government","source:form":"Sanitation;v3.0.2","start_date":"01/08/2015","waste":"Medical"}},"type":"Feature"},
	{"geometry":{"coordinates":[31.54398,3.55344],"type":"Point"},"properties":{"name":"Amaguru Primary Weste Disposal","osm_id":"5594243587","tag":{"addr:county":"Aringa","addr:district":"Yumbe","addr:parish":"Lokpe","addr:subcounty":"Kochi","addr:village":"Masaka","amenity":"waste_disposal","fee":"no","lit":"no","operator:type":"community","source:form":"Sanitation;v3.0.2","start_date":"01/02/2017","waste":"Domestic"}},"type":"Feature"},
	{"geometry":{"coordinates":[31.51566,3.578388],"type":"Point"},"properties":{"name":"Aliodraanyosi Waste Disposal Point","osm_id":"5594243593","tag":{"addr:county":"Aringa","addr:district":"Yumbe","addr:parish":"Lombe","addr:subcounty":"Kochi","addr:village":"Aliodraanyosi","amenity":"waste_disposal","fee":"no","lit":"no","operator:type":"community","source:form":"Sanitation;v3.0.2","start_date":"01/05/2004","waste":"Domestic"}},"type":"Feature"},
	{"geometry":{"coordinates":[31.51672,3.57829],"type":"Point"},"properties":{"name":"Lombe Primary School Domestic Waste Disposal Point","osm_id":"5594243599","tag":{"addr:county":"Aringa","addr:district":"Yumbe","addr:parish":"Lombe","addr:subcounty":"Kochi","addr:village":"Aliodraanyosi","amenity":"waste_disposal","fee":"no","lit":"no","operator:type":"community","source:form":"Sanitation;v3.0.2","start_date":"01/04/2016","waste":"Domestic"}},"type":"Feature"},
	{"geometry":{"coordinates":[31.515113,3.579163],"type":"Point"},"properties":{"name":"Aliodraanusi Domestic Disposal Point","osm_id":"5594243602","tag":{"addr:county":"Aringa","addr:district":"Yumbe","addr:parish":"Lombe","addr:subcounty":"Kochi","addr:village":"Aliodraanusi","amenity":"waste_disposal","fee":"no","lit":"no","operator:type":"community","source:form":"Sanitation;v3.0.2","start_date":"01/04/2015","waste":"Domestic"}},"type":"Feature"},
	{"geometry":{"coordinates":[31.501985,3.574937],"type":"Point"},"properties":{"osm_id":"5596451758","tag":{"addr:county":"Aringa","addr:district":"Yumbe","addr:parish":"Lombe","addr:subcounty":"Kochi","addr:village":"Lewa B","amenity":"waste_disposal","fee":"no","lit":"no","operator:type":"community","source:form":"Sanitation;v3.0.2","start_date":"01/05/2013","waste":"Domestic disposal point"}},"type":"Feature"}
]
}
