{
"type": "FeatureCollection",
"features": [
	{"geometry":{"coordinates":[-46.466054,-23.470118],"type":"Point"},"properties":{"osm_id":"3555180306","tag":{"natural":"tree"}},"type":"Feature"},
	{"geometry":{"coordinates":[-46.481168,-23.462355],"type":"Point"},"properties":{"osm_id":"3555215080","tag":{"natural":"tree"}},"type":"Feature"},
	{"geometry":{"coordinates":[-46.47441,-23.461037],"type":"Point"},"properties":{"osm_id":"3957144538","tag":{"natural":"tree"}},"type":"Feature"},
	{"geometry":{"coordinates":[-46.472551,-23.451997],"type":"Point"},"properties":{"name":"Pra\u00c3\u00a7a Luisi\u00c3\u00a2nia","osm_id":"4214586081","tag":{"addr:city":"guarulhos","addr:housenumber":"169","addr:postcode":"07180340","addr:street":"rua Lu\u00c3\u00adsiania","addr:suburb":"cidade jardim cumbica","leisure":"park","natural":"tree"}},"type":"Feature"},
	{"geometry":{"coordinates":[-46.483387,-23.463064],"type":"Point"},"properties":{"osm_id":"4215800612","tag":{"natural":"tree"}},"type":"Feature"},
	{"geometry":{"coordinates":[-46.452317,-23.404443],"type":"Point"},"properties":{"osm_id":"4219529822","tag":{"natural":"tree"}},"type":"Feature"},
	{"geometry":{"coordinates":[-46.469116,-23.416625],"type":"Point"},"properties":{"name":"R. Dino de Janeiro","osm_id":"4579808145","tag":{"natural":"tree"}},"type":"Feature"},
	{"geometry":{"coordinates":[-46.483871,-23.405011],"type":"Point"},"properties":{"osm_id":"4935894296","tag":{"natural":"tree"}},"type":"Feature"},
	{"geometry":{"coordinates":[-46.491316,-23.448204],"type":"Point"},"properties":{"osm_id":"5247390143","tag":{"natural":"tree"}},"type":"Feature"},
	{"geometry":{"coordinates":[-46.476863,-23.452819],"type":"Point"},"properties":{"name":"Pra\u00c3\u00a7a Parquinho","osm_id":"6382607255","tag":{"leisure":"park","natural":"tree"}},"type":"Feature"},
	{"geometry":{"coordinates":[-46.477471,-23.403666],"type":"Point"},"properties":{"osm_id":"6768392231","tag":{"natural":"tree","tree:ref":"natural"}},"type":"Feature"},
	{"geometry":{"coordinates":[-46.469174,-23.416837],"type":"Point"},"properties":{"highway":"bus_stop","osm_id":"6925164655","tag":{"natural":"tree"}},"type":"Feature"},
	{"geometry":{"coordinates":[-46.45598,-23.418542],"type":"Point"},"properties":{"osm_id":"8681012561","tag":{"natural":"tree"}},"type":"Feature"},
	{"geometry":{"coordinates":[-46.474484,-23.459328],"type":"Point"},"properties":{"osm_id":"8685651793","tag":{"natural":"tree"}},"type":"Feature"},
	{"geometry":{"coordinates":[-46.423391,-23.447484],"type":"Point"},"properties":{"osm_id":"8743467822","tag":{"natural":"tree"}},"type":"Feature"},
	{"geometry":{"coordinates":[-46.41401,-23.42378],"type":"Point"},"properties":{"osm_id":"8755715175","tag":{"height":"4","leaf_type":"broadleaved","natural":"tree"}},"type":"Feature"},
	{"geometry":{"coordinates":[-46.413696,-23.423866],"type":"Point"},"properties":{"osm_id":"8755715176","tag":{"height":"4","leaf_type":"broadleaved","natural":"tree"}},"type":"Feature"},
	{"geometry":{"coordinates":[-46.413505,-23.423919],"type":"Point"},"properties":{"osm_id":"8755715177","tag":{"height":"4","leaf_type":"broadleaved","natural":"tree"}},"type":"Feature"},
	{"geometry":{"coordinates":[-46.413302,-23.423975],"type":"Point"},"properties":{"osm_id":"8755715178","tag":{"height":"4","leaf_type":"broadleaved","natural":"tree"}},"type":"Feature"},
	{"geometry":{"coordinates":[-46.413035,-23.424048],"type":"Point"},"properties":{"osm_id":"8755715179","tag":{"height":"4","leaf_type":"broadleaved","natural":"tree"}},"type":"Feature"},
	{"geometry":{"coordinates":[-46.412939,-23.424074],"type":"Point"},"properties":{"osm_id":"8755715180","tag":{"height":"4","leaf_type":"broadleaved","natural":"tree"}},"type":"Feature"},
	{"geometry":{"coordinates":[-46.412826,-23.424105],"type":"Point"},"properties":{"osm_id":"8755715181","tag":{"height":"4","leaf_type":"broadleaved","natural":"tree"}},"type":"Feature"},
	{"geometry":{"coordinates":[-46.412584,-23.424172],"type":"Point"},"properties":{"osm_id":"8755715182","tag":{"height":"4","leaf_type":"broadleaved","natural":"tree"}},"type":"Feature"},
	{"geometry":{"coordinates":[-46.418995,-23.422158],"type":"Point"},"properties":{"osm_id":"8756522964","tag":{"height":"10","natural":"tree"}},"type":"Feature"},
	{"geometry":{"coordinates":[-46.418858,-23.422192],"type":"Point"},"properties":{"osm_id":"8756522965","tag":{"height":"10","natural":"tree"}},"type":"Feature"},
	{"geometry":{"coordinates":[-46.418725,-23.422227],"type":"Point"},"properties":{"osm_id":"8756522966","tag":{"height":"10","natural":"tree"}},"type":"Feature"},
	{"geometry":{"coordinates":[-46.41875,-23.42233],"type":"Point"},"properties":{"osm_id":"8756522967","tag":{"height":"10","natural":"tree"}},"type":"Feature"},
	{"geometry":{"coordinates":[-46.418802,-23.422473],"type":"Point"},"properties":{"osm_id":"8756522968","tag":{"height":"10","natural":"tree"}},"type":"Feature"},
	{"geometry":{"coordinates":[-46.418944,-23.42244],"type":"Point"},"properties":{"osm_id":"8756522969","tag":{"height":"10","natural":"tree"}},"type":"Feature"},
	{"geometry":{"coordinates":[-46.41908,-23.422392],"type":"Point"},"properties":{"osm_id":"8756522970","tag":{"height":"10","natural":"tree"}},"type":"Feature"},
	{"geometry":{"coordinates":[-46.419047,-23.422295],"type":"Point"},"properties":{"osm_id":"8756522971","tag":{"height":"10","natural":"tree"}},"type":"Feature"},
	{"geometry":{"coordinates":[-46.420315,-23.421844],"type":"Point"},"properties":{"osm_id":"8756588482","tag":{"height":"10","natural":"tree"}},"type":"Feature"},
	{"geometry":{"coordinates":[-46.42027,-23.421804],"type":"Point"},"properties":{"osm_id":"8756588483","tag":{"height":"10","natural":"tree"}},"type":"Feature"},
	{"geometry":{"coordinates":[-46.420111,-23.421845],"type":"Point"},"properties":{"osm_id":"8756588484","tag":{"height":"10","natural":"tree"}},"type":"Feature"},
	{"geometry":{"coordinates":[-46.42003,-23.421871],"type":"Point"},"properties":{"osm_id":"8756588485","tag":{"height":"10","natural":"tree"}},"type":"Feature"},
	{"geometry":{"coordinates":[-46.420054,-23.421981],"type":"Point"},"properties":{"osm_id":"8756588486","tag":{"height":"10","natural":"tree"}},"type":"Feature"},
	{"geometry":{"coordinates":[-46.420094,-23.422097],"type":"Point"},"properties":{"osm_id":"8756588487","tag":{"height":"10","natural":"tree"}},"type":"Feature"},
	{"geometry":{"coordinates":[-46.420191,-23.422122],"type":"Point"},"properties":{"osm_id":"8756588488","tag":{"height":"10","natural":"tree"}},"type":"Feature"},
	{"geometry":{"coordinates":[-46.420308,-23.422081],"type":"Point"},"properties":{"osm_id":"8756588489","tag":{"height":"10","natural":"tree"}},"type":"Feature"},
	{"geometry":{"coordinates":[-46.420401,-23.422043],"type":"Point"},"properties":{"osm_id":"8756588490","tag":{"height":"10","natural":"tree"}},"type":"Feature"},
	{"geometry":{"coordinates":[-46.42171,-23.421686],"type":"Point"},"properties":{"osm_id":"8756588504","tag":{"height":"10","natural":"tree"}},"type":"Feature"},
	{"geometry":{"coordinates":[-46.42164,-23.421437],"type":"Point"},"properties":{"osm_id":"8756588505","tag":{"height":"10","natural":"tree"}},"type":"Feature"},
	{"geometry":{"coordinates":[-46.421668,-23.421515],"type":"Point"},"properties":{"osm_id":"8756588506","tag":{"height":"10","natural":"tree"}},"type":"Feature"},
	{"geometry":{"coordinates":[-46.421414,-23.421487],"type":"Point"},"properties":{"osm_id":"8756588507","tag":{"height":"10","natural":"tree"}},"type":"Feature"},
	{"geometry":{"coordinates":[-46.421333,-23.421513],"type":"Point"},"properties":{"osm_id":"8756588508","tag":{"height":"10","natural":"tree"}},"type":"Feature"},
	{"geometry":{"coordinates":[-46.421357,-23.421623],"type":"Point"},"properties":{"osm_id":"8756588509","tag":{"height":"10","natural":"tree"}},"type":"Feature"},
	{"geometry":{"coordinates":[-46.421397,-23.421739],"type":"Point"},"properties":{"osm_id":"8756588510","tag":{"height":"10","natural":"tree"}},"type":"Feature"},
	{"geometry":{"coordinates":[-46.421494,-23.421764],"type":"Point"},"properties":{"osm_id":"8756588511","tag":{"height":"10","natural":"tree"}},"type":"Feature"},
	{"geometry":{"coordinates":[-46.421468,-23.421662],"type":"Point"},"properties":{"osm_id":"8756588512","tag":{"height":"10","natural":"tree"}},"type":"Feature"},
	{"geometry":{"coordinates":[-46.422106,-23.422897],"type":"Point"},"properties":{"osm_id":"8756624425","tag":{"height":"10","natural":"tree"}},"type":"Feature"},
	{"geometry":{"coordinates":[-46.422026,-23.422696],"type":"Point"},"properties":{"osm_id":"8756624426","tag":{"height":"10","natural":"tree"}},"type":"Feature"},
	{"geometry":{"coordinates":[-46.421982,-23.422654],"type":"Point"},"properties":{"osm_id":"8756624427","tag":{"height":"10","natural":"tree"}},"type":"Feature"},
	{"geometry":{"coordinates":[-46.421822,-23.422692],"type":"Point"},"properties":{"osm_id":"8756624428","tag":{"height":"10","natural":"tree"}},"type":"Feature"},
	{"geometry":{"coordinates":[-46.42174,-23.422716],"type":"Point"},"properties":{"osm_id":"8756624429","tag":{"height":"10","natural":"tree"}},"type":"Feature"},
	{"geometry":{"coordinates":[-46.421762,-23.422826],"type":"Point"},"properties":{"osm_id":"8756624430","tag":{"height":"10","natural":"tree"}},"type":"Feature"},
	{"geometry":{"coordinates":[-46.421799,-23.422944],"type":"Point"},"properties":{"osm_id":"8756624431","tag":{"height":"10","natural":"tree"}},"type":"Feature"},
	{"geometry":{"coordinates":[-46.421895,-23.422971],"type":"Point"},"properties":{"osm_id":"8756624432","tag":{"height":"10","natural":"tree"}},"type":"Feature"},
	{"geometry":{"coordinates":[-46.422013,-23.422932],"type":"Point"},"properties":{"osm_id":"8756624433","tag":{"height":"10","natural":"tree"}},"type":"Feature"},
	{"geometry":{"coordinates":[-46.420795,-23.423249],"type":"Point"},"properties":{"osm_id":"8756624447","tag":{"height":"10","natural":"tree"}},"type":"Feature"},
	{"geometry":{"coordinates":[-46.42071,-23.42305],"type":"Point"},"properties":{"osm_id":"8756624448","tag":{"height":"10","natural":"tree"}},"type":"Feature"},
	{"geometry":{"coordinates":[-46.420664,-23.42301],"type":"Point"},"properties":{"osm_id":"8756624449","tag":{"height":"10","natural":"tree"}},"type":"Feature"},
	{"geometry":{"coordinates":[-46.420506,-23.423051],"type":"Point"},"properties":{"osm_id":"8756624450","tag":{"height":"10","natural":"tree"}},"type":"Feature"},
	{"geometry":{"coordinates":[-46.420425,-23.423077],"type":"Point"},"properties":{"osm_id":"8756624451","tag":{"height":"10","natural":"tree"}},"type":"Feature"},
	{"geometry":{"coordinates":[-46.420449,-23.423187],"type":"Point"},"properties":{"osm_id":"8756624452","tag":{"height":"10","natural":"tree"}},"type":"Feature"},
	{"geometry":{"coordinates":[-46.420489,-23.423303],"type":"Point"},"properties":{"osm_id":"8756624453","tag":{"height":"10","natural":"tree"}},"type":"Feature"},
	{"geometry":{"coordinates":[-46.420586,-23.423328],"type":"Point"},"properties":{"osm_id":"8756624454","tag":{"height":"10","natural":"tree"}},"type":"Feature"},
	{"geometry":{"coordinates":[-46.420703,-23.423287],"type":"Point"},"properties":{"osm_id":"8756624455","tag":{"height":"10","natural":"tree"}},"type":"Feature"},
	{"geometry":{"coordinates":[-46.419458,-23.423617],"type":"Point"},"properties":{"osm_id":"8756624469","tag":{"height":"10","natural":"tree"}},"type":"Feature"},
	{"geometry":{"coordinates":[-46.419373,-23.423419],"type":"Point"},"properties":{"osm_id":"8756624470","tag":{"height":"10","natural":"tree"}},"type":"Feature"},
	{"geometry":{"coordinates":[-46.419327,-23.423378],"type":"Point"},"properties":{"osm_id":"8756624471","tag":{"height":"10","natural":"tree"}},"type":"Feature"},
	{"geometry":{"coordinates":[-46.419169,-23.42342],"type":"Point"},"properties":{"osm_id":"8756624472","tag":{"height":"10","natural":"tree"}},"type":"Feature"},
	{"geometry":{"coordinates":[-46.419087,-23.423445],"type":"Point"},"properties":{"osm_id":"8756624473","tag":{"height":"10","natural":"tree"}},"type":"Feature"},
	{"geometry":{"coordinates":[-46.419112,-23.423555],"type":"Point"},"properties":{"osm_id":"8756624474","tag":{"height":"10","natural":"tree"}},"type":"Feature"},
	{"geometry":{"coordinates":[-46.419152,-23.423672],"type":"Point"},"properties":{"osm_id":"8756624475","tag":{"height":"10","natural":"tree"}},"type":"Feature"},
	{"geometry":{"coordinates":[-46.419249,-23.423697],"type":"Point"},"properties":{"osm_id":"8756624476","tag":{"height":"10","natural":"tree"}},"type":"Feature"},
	{"geometry":{"coordinates":[-46.419366,-23.423655],"type":"Point"},"properties":{"osm_id":"8756624477","tag":{"height":"10","natural":"tree"}},"type":"Feature"},
	{"geometry":{"coordinates":[-46.419805,-23.42471],"type":"Point"},"properties":{"osm_id":"8756624484","tag":{"height":"10","natural":"tree"}},"type":"Feature"},
	{"geometry":{"coordinates":[-46.419769,-23.424616],"type":"Point"},"properties":{"osm_id":"8756624485","tag":{"height":"10","natural":"tree"}},"type":"Feature"},
	{"geometry":{"coordinates":[-46.419697,-23.424575],"type":"Point"},"properties":{"osm_id":"8756624486","tag":{"height":"10","natural":"tree"}},"type":"Feature"},
	{"geometry":{"coordinates":[-46.419539,-23.424617],"type":"Point"},"properties":{"osm_id":"8756624487","tag":{"height":"10","natural":"tree"}},"type":"Feature"},
	{"geometry":{"coordinates":[-46.419457,-23.424642],"type":"Point"},"properties":{"osm_id":"8756624488","tag":{"height":"10","natural":"tree"}},"type":"Feature"},
	{"geometry":{"coordinates":[-46.419482,-23.424752],"type":"Point"},"properties":{"osm_id":"8756624489","tag":{"height":"10","natural":"tree"}},"type":"Feature"},
	{"geometry":{"coordinates":[-46.419527,-23.424836],"type":"Point"},"properties":{"osm_id":"8756624490","tag":{"height":"10","natural":"tree"}},"type":"Feature"},
	{"geometry":{"coordinates":[-46.419657,-23.424811],"type":"Point"},"properties":{"osm_id":"8756624491","tag":{"height":"10","natural":"tree"}},"type":"Feature"},
	{"geometry":{"coordinates":[-46.419547,-23.424689],"type":"Point"},"properties":{"osm_id":"8756624492","tag":{"height":"10","natural":"tree"}},"type":"Feature"},
	{"geometry":{"coordinates":[-46.421153,-23.424404],"type":"Point"},"properties":{"osm_id":"8756624511","tag":{"height":"10","natural":"tree"}},"type":"Feature"},
	{"geometry":{"coordinates":[-46.421122,-23.424308],"type":"Point"},"properties":{"osm_id":"8756624512","tag":{"height":"10","natural":"tree"}},"type":"Feature"},
	{"geometry":{"coordinates":[-46.421052,-23.424265],"type":"Point"},"properties":{"osm_id":"8756624513","tag":{"height":"10","natural":"tree"}},"type":"Feature"},
	{"geometry":{"coordinates":[-46.420892,-23.424301],"type":"Point"},"properties":{"osm_id":"8756624514","tag":{"height":"10","natural":"tree"}},"type":"Feature"},
	{"geometry":{"coordinates":[-46.420897,-23.424373],"type":"Point"},"properties":{"osm_id":"8756624515","tag":{"height":"10","natural":"tree"}},"type":"Feature"},
	{"geometry":{"coordinates":[-46.420809,-23.424323],"type":"Point"},"properties":{"osm_id":"8756624516","tag":{"height":"10","natural":"tree"}},"type":"Feature"},
	{"geometry":{"coordinates":[-46.420829,-23.424434],"type":"Point"},"properties":{"osm_id":"8756624517","tag":{"height":"10","natural":"tree"}},"type":"Feature"},
	{"geometry":{"coordinates":[-46.42087,-23.42452],"type":"Point"},"properties":{"osm_id":"8756624518","tag":{"height":"10","natural":"tree"}},"type":"Feature"},
	{"geometry":{"coordinates":[-46.421001,-23.4245],"type":"Point"},"properties":{"osm_id":"8756624519","tag":{"height":"10","natural":"tree"}},"type":"Feature"},
	{"geometry":{"coordinates":[-46.422464,-23.424029],"type":"Point"},"properties":{"osm_id":"8756624533","tag":{"height":"10","natural":"tree"}},"type":"Feature"},
	{"geometry":{"coordinates":[-46.422428,-23.423935],"type":"Point"},"properties":{"osm_id":"8756624534","tag":{"height":"10","natural":"tree"}},"type":"Feature"},
	{"geometry":{"coordinates":[-46.422356,-23.423894],"type":"Point"},"properties":{"osm_id":"8756624535","tag":{"height":"10","natural":"tree"}},"type":"Feature"},
	{"geometry":{"coordinates":[-46.422198,-23.423936],"type":"Point"},"properties":{"osm_id":"8756624536","tag":{"height":"10","natural":"tree"}},"type":"Feature"},
	{"geometry":{"coordinates":[-46.422206,-23.424008],"type":"Point"},"properties":{"osm_id":"8756624537","tag":{"height":"10","natural":"tree"}},"type":"Feature"},
	{"geometry":{"coordinates":[-46.422117,-23.423961],"type":"Point"},"properties":{"osm_id":"8756624538","tag":{"height":"10","natural":"tree"}},"type":"Feature"},
	{"geometry":{"coordinates":[-46.422141,-23.424071],"type":"Point"},"properties":{"osm_id":"8756624539","tag":{"height":"10","natural":"tree"}},"type":"Feature"},
	{"geometry":{"coordinates":[-46.422186,-23.424155],"type":"Point"},"properties":{"osm_id":"8756624540","tag":{"height":"10","natural":"tree"}},"type":"Feature"},
	{"geometry":{"coordinates":[-46.422316,-23.424131],"type":"Point"},"properties":{"osm_id":"8756624541","tag":{"height":"10","natural":"tree"}},"type":"Feature"},
	{"geometry":{"coordinates":[-46.416176,-23.423181],"type":"Point"},"properties":{"osm_id":"8756624589","tag":{"height":"10","natural":"tree"}},"type":"Feature"},
	{"geometry":{"coordinates":[-46.416125,-23.423038],"type":"Point"},"properties":{"osm_id":"8756624590","tag":{"height":"10","natural":"tree"}},"type":"Feature"},
	{"geometry":{"coordinates":[-46.4161,-23.422935],"type":"Point"},"properties":{"osm_id":"8756624591","tag":{"height":"10","natural":"tree"}},"type":"Feature"},
	{"geometry":{"coordinates":[-46.416233,-23.4229],"type":"Point"},"properties":{"osm_id":"8756624592","tag":{"height":"10","natural":"tree"}},"type":"Feature"},
	{"geometry":{"coordinates":[-46.41637,-23.422866],"type":"Point"},"properties":{"osm_id":"8756624593","tag":{"height":"10","natural":"tree"}},"type":"Feature"},
	{"geometry":{"coordinates":[-46.416422,-23.423003],"type":"Point"},"properties":{"osm_id":"8756624594","tag":{"height":"10","natural":"tree"}},"type":"Feature"},
	{"geometry":{"coordinates":[-46.416454,-23.4231],"type":"Point"},"properties":{"osm_id":"8756624595","tag":{"height":"10","natural":"tree"}},"type":"Feature"},
	{"geometry":{"coordinates":[-46.416319,-23.423148],"type":"Point"},"properties":{"osm_id":"8756624596","tag":{"height":"10","natural":"tree"}},"type":"Feature"}
]
}
