{
"type": "FeatureCollection",
"features": [
	{"geometry":{"coordinates":[-5.921107,54.657803],"type":"Point"},"properties":{"osm_id":"6468571047","tag":{"amenity":"waste_basket"}},"type":"Feature"},
	{"geometry":{"coordinates":[-5.924613,54.658228],"type":"Point"},"properties":{"osm_id":"6548140038","tag":{"amenity":"waste_basket","colour":"black","material":"metal"}},"type":"Feature"},
	{"geometry":{"coordinates":[-5.925344,54.658015],"type":"Point"},"properties":{"osm_id":"6548140039","tag":{"amenity":"waste_basket","colour":"black","material":"metal"}},"type":"Feature"},
	{"geometry":{"coordinates":[-5.925225,54.65805],"type":"Point"},"properties":{"osm_id":"6548140040","tag":{"amenity":"waste_basket","colour":"blue","material":"metal"}},"type":"Feature"},
	{"geometry":{"coordinates":[-5.930364,54.66296],"type":"Point"},"properties":{"osm_id":"6907097757","tag":{"amenity":"waste_basket"}},"type":"Feature"},
	{"geometry":{"coordinates":[-5.923292,54.657442],"type":"Point"},"properties":{"osm_id":"6907098868","tag":{"amenity":"recycling","operator":"Cancer Fund for Children","recycling:clothes":"yes","recycling_type":"container"}},"type":"Feature"},
	{"geometry":{"coordinates":[-5.923287,54.657455],"type":"Point"},"properties":{"osm_id":"6907098869","tag":{"amenity":"recycling","operator":"Oxfam","recycling:clothes":"yes","recycling_type":"container"}},"type":"Feature"},
	{"geometry":{"coordinates":[-5.923332,54.657577],"type":"Point"},"properties":{"osm_id":"6907098870","tag":{"amenity":"recycling","operator":"Cancer Fund for Children","recycling:clothes":"yes","recycling_type":"container"}},"type":"Feature"},
	{"geometry":{"coordinates":[-5.923323,54.657569],"type":"Point"},"properties":{"osm_id":"6907098871","tag":{"amenity":"recycling","operator":"Cancer Fund for Children","recycling:clothes":"yes","recycling_type":"container"}},"type":"Feature"},
	{"geometry":{"coordinates":[-5.92329,54.657516],"type":"Point"},"properties":{"osm_id":"6907098872","tag":{"amenity":"recycling","recycling:glass_bottles":"yes","recycling_type":"container"}},"type":"Feature"},
	{"geometry":{"coordinates":[-5.923298,54.657524],"type":"Point"},"properties":{"osm_id":"6907098873","tag":{"amenity":"recycling","recycling:glass_bottles":"yes","recycling_type":"container"}},"type":"Feature"},
	{"geometry":{"coordinates":[-5.923306,54.657532],"type":"Point"},"properties":{"osm_id":"6907098874","tag":{"amenity":"recycling","recycling:glass_bottles":"yes","recycling_type":"container"}},"type":"Feature"},
	{"geometry":{"coordinates":[-5.923314,54.657541],"type":"Point"},"properties":{"osm_id":"6907098875","tag":{"amenity":"recycling","recycling_type":"container"}},"type":"Feature"},
	{"geometry":{"coordinates":[-5.923322,54.657549],"type":"Point"},"properties":{"osm_id":"6907098876","tag":{"amenity":"recycling","recycling_type":"container"}},"type":"Feature"},
	{"geometry":{"coordinates":[-5.923282,54.657507],"type":"Point"},"properties":{"osm_id":"6907098877","tag":{"amenity":"recycling","recycling:cans":"yes","recycling:tin":"yes","recycling_type":"container"}},"type":"Feature"},
	{"geometry":{"coordinates":[-5.930411,54.662777],"type":"Point"},"properties":{"osm_id":"6907099988","tag":{"amenity":"waste_basket"}},"type":"Feature"},
	{"geometry":{"coordinates":[-5.930268,54.662142],"type":"Point"},"properties":{"osm_id":"6907099989","tag":{"amenity":"waste_basket"}},"type":"Feature"},
	{"geometry":{"coordinates":[-5.923155,54.661068],"type":"Point"},"properties":{"osm_id":"7464239072","tag":{"amenity":"waste_basket","waste":"dog_excrement"}},"type":"Feature"}
]
}
