{
"type": "FeatureCollection",
"features": [
	{"geometry":{"coordinates":[-5.934467,43.555389],"type":"Point"},"properties":{"name":"Punto Limpio Calle del Fuero","osm_id":"1623190748","tag":{"amenity":"recycling","recycling_type":"centre"}},"type":"Feature"},
	{"geometry":{"coordinates":[-5.939075,43.540686],"type":"Point"},"properties":{"name":"Contenedores Recogida Residuos","osm_id":"1623205256","tag":{"amenity":"recycling","recycling:cartons":"yes","recycling:glass_bottles":"yes","recycling:paper":"yes","recycling:plastic_bottles":"yes","recycling_type":"container"}},"type":"Feature"},
	{"geometry":{"coordinates":[-5.923431,43.561314],"type":"Point"},"properties":{"osm_id":"2357938130","tag":{"amenity":"recycling","recycling_type":"container"}},"type":"Feature"},
	{"geometry":{"coordinates":[-5.924593,43.562937],"type":"Point"},"properties":{"osm_id":"2357938134","tag":{"amenity":"recycling","recycling_type":"container"}},"type":"Feature"},
	{"geometry":{"coordinates":[-5.900991,43.538151],"type":"Point"},"properties":{"osm_id":"2734309729","tag":{"amenity":"recycling","recycling_type":"container"}},"type":"Feature"},
	{"geometry":{"coordinates":[-5.898276,43.536575],"type":"Point"},"properties":{"osm_id":"2734309730","tag":{"amenity":"recycling","recycling_type":"container"}},"type":"Feature"},
	{"geometry":{"coordinates":[-5.951728,43.579169],"type":"Point"},"properties":{"osm_id":"3079214930","tag":{"amenity":"recycling","recycling_type":"container"}},"type":"Feature"},
	{"geometry":{"coordinates":[-5.941469,43.574971],"type":"Point"},"properties":{"osm_id":"3079214931","tag":{"amenity":"recycling","recycling_type":"container"}},"type":"Feature"},
	{"geometry":{"coordinates":[-5.94051,43.57476],"type":"Point"},"properties":{"osm_id":"3079214932","tag":{"amenity":"recycling","recycling_type":"container"}},"type":"Feature"},
	{"geometry":{"coordinates":[-5.938933,43.57479],"type":"Point"},"properties":{"osm_id":"3079215033","tag":{"amenity":"recycling","recycling_type":"container"}},"type":"Feature"},
	{"geometry":{"coordinates":[-5.937654,43.574552],"type":"Point"},"properties":{"osm_id":"3079215034","tag":{"amenity":"recycling","recycling_type":"container"}},"type":"Feature"},
	{"geometry":{"coordinates":[-5.930103,43.57443],"type":"Point"},"properties":{"osm_id":"3079215035","tag":{"amenity":"recycling","recycling_type":"container"}},"type":"Feature"},
	{"geometry":{"coordinates":[-5.928666,43.571724],"type":"Point"},"properties":{"osm_id":"3079215036","tag":{"amenity":"recycling","recycling_type":"container"}},"type":"Feature"},
	{"geometry":{"coordinates":[-5.928779,43.570546],"type":"Point"},"properties":{"osm_id":"3079215037","tag":{"amenity":"recycling","recycling_type":"container"}},"type":"Feature"},
	{"geometry":{"coordinates":[-5.928345,43.569793],"type":"Point"},"properties":{"osm_id":"3079215038","tag":{"amenity":"recycling","recycling_type":"container"}},"type":"Feature"},
	{"geometry":{"coordinates":[-5.96866,43.570834],"type":"Point"},"properties":{"osm_id":"3678424221","tag":{"amenity":"recycling","recycling:cardboard":"yes","recycling:glass_bottles":"yes","recycling:paper":"yes","recycling:plastic":"yes","recycling:plastic_bottles":"yes","recycling_type":"container"}},"type":"Feature"},
	{"geometry":{"coordinates":[-5.923851,43.554594],"type":"Point"},"properties":{"osm_id":"3722024599","tag":{"amenity":"recycling","recycling_type":"container"}},"type":"Feature"},
	{"geometry":{"coordinates":[-5.913429,43.548629],"type":"Point"},"properties":{"name":"Punto Limpio","osm_id":"4564983794","tag":{"amenity":"recycling","name:es":"Punto Limpio","recycling_type":"container"}},"type":"Feature"}
]
}
