{
"type": "FeatureCollection",
"lastupdate": "2020-08-03T00:00:00Z",
"features": [
	{"geometry":{"coordinates":[22.542097,63.532325],"type":"Point"},"properties":{"name":"Ekopunkt","osm_id":"619074560","tag":{"amenity":"recycling","name:fi":"Ekopiste","name:sv":"Ekopunkt","website":"https://www.ekorosk.fi/"}},"type":"Feature"},
	{"geometry":{"coordinates":[22.519323,63.520166],"type":"Point"},"properties":{"name":"Ekopunkt","osm_id":"619076766","tag":{"amenity":"recycling","name:fi":"Ekopiste","name:sv":"Ekopunkt","website":"https://www.ekorosk.fi/"}},"type":"Feature"},
	{"geometry":{"coordinates":[22.529018,63.519917],"type":"Point"},"properties":{"name":"Ekopunkt","osm_id":"619076769","tag":{"amenity":"recycling","name:fi":"Ekopiste","name:sv":"Ekopunkt","website":"https://www.ekorosk.fi/"}},"type":"Feature"},
	{"geometry":{"coordinates":[22.537208,63.529719],"type":"Point"},"properties":{"osm_id":"5002166492","tag":{"amenity":"recycling","recycling_type":"container"}},"type":"Feature"}
]
}
