{
"type": "FeatureCollection",
"features": [
	{"geometry":{"coordinates":[22.534244,51.226565],"type":"Point"},"properties":{"osm_id":"799627407","tag":{"amenity":"recycling","location":"overground","recycling_type":"container"}},"type":"Feature"},
	{"geometry":{"coordinates":[22.536018,51.229004],"type":"Point"},"properties":{"osm_id":"799627408","tag":{"amenity":"recycling","location":"overground","recycling_type":"container"}},"type":"Feature"},
	{"geometry":{"coordinates":[22.516279,51.234188],"type":"Point"},"properties":{"osm_id":"1694885193","tag":{"amenity":"recycling"}},"type":"Feature"},
	{"geometry":{"coordinates":[22.521672,51.226414],"type":"Point"},"properties":{"osm_id":"1860619505","tag":{"amenity":"waste_basket"}},"type":"Feature"},
	{"geometry":{"coordinates":[22.520008,51.226692],"type":"Point"},"properties":{"osm_id":"1860621587","tag":{"amenity":"waste_basket"}},"type":"Feature"},
	{"geometry":{"coordinates":[22.516144,51.226947],"type":"Point"},"properties":{"osm_id":"2100226605","tag":{"amenity":"recycling"}},"type":"Feature"},
	{"geometry":{"coordinates":[22.516158,51.22688],"type":"Point"},"properties":{"osm_id":"2100226609","tag":{"amenity":"waste_basket"}},"type":"Feature"},
	{"geometry":{"coordinates":[22.517291,51.226351],"type":"Point"},"properties":{"osm_id":"2100226613","tag":{"amenity":"waste_basket"}},"type":"Feature"},
	{"geometry":{"coordinates":[22.515256,51.227374],"type":"Point"},"properties":{"osm_id":"2101691212","tag":{"amenity":"waste_basket"}},"type":"Feature"},
	{"geometry":{"coordinates":[22.517762,51.225475],"type":"Point"},"properties":{"osm_id":"2101699467","tag":{"amenity":"waste_basket"}},"type":"Feature"},
	{"geometry":{"coordinates":[22.517555,51.225579],"type":"Point"},"properties":{"osm_id":"2101699469","tag":{"amenity":"waste_basket"}},"type":"Feature"},
	{"geometry":{"coordinates":[22.51914,51.226747],"type":"Point"},"properties":{"osm_id":"2101718539","tag":{"amenity":"waste_basket"}},"type":"Feature"},
	{"geometry":{"coordinates":[22.54829,51.204344],"type":"Point"},"properties":{"osm_id":"2470291493","tag":{"access":"no","amenity":"waste_disposal"}},"type":"Feature"},
	{"geometry":{"coordinates":[22.515308,51.232515],"type":"Point"},"properties":{"osm_id":"2907144320","tag":{"amenity":"recycling","recycling:cans":"yes","recycling:clothes":"yes","recycling:glass":"yes","recycling:paper":"yes"}},"type":"Feature"},
	{"geometry":{"coordinates":[22.512805,51.23325],"type":"Point"},"properties":{"osm_id":"2933341467","tag":{"amenity":"recycling","recycling:cans":"yes","recycling:clothes":"no","recycling:glass":"yes","recycling:paper":"yes"}},"type":"Feature"},
	{"geometry":{"coordinates":[22.51438,51.231956],"type":"Point"},"properties":{"osm_id":"2940423424","tag":{"amenity":"recycling","recycling:cans":"yes","recycling:clothes":"no","recycling:glass":"yes","recycling:paper":"yes"}},"type":"Feature"},
	{"geometry":{"coordinates":[22.513945,51.23233],"type":"Point"},"properties":{"osm_id":"2940423889","tag":{"amenity":"recycling","recycling:cans":"yes","recycling:clothes":"no","recycling:glass":"yes","recycling:paper":"yes"}},"type":"Feature"},
	{"geometry":{"coordinates":[22.513351,51.232899],"type":"Point"},"properties":{"osm_id":"2940424120","tag":{"amenity":"recycling","recycling_type":"container"}},"type":"Feature"},
	{"geometry":{"coordinates":[22.516665,51.230819],"type":"Point"},"properties":{"osm_id":"3085881439","tag":{"amenity":"recycling","recycling:cans":"yes","recycling:clothes":"no","recycling:glass":"yes","recycling:paper":"yes","recycling_type":"container"}},"type":"Feature"},
	{"geometry":{"coordinates":[22.520971,51.229405],"type":"Point"},"properties":{"osm_id":"3516652758","tag":{"amenity":"recycling","recycling:cans":"yes","recycling:clothes":"no","recycling:glass":"yes","recycling:paper":"yes"}},"type":"Feature"},
	{"geometry":{"coordinates":[22.58051,51.20701],"type":"Point"},"properties":{"osm_id":"3727421855","tag":{"amenity":"waste_basket"}},"type":"Feature"},
	{"geometry":{"coordinates":[22.580629,51.20704],"type":"Point"},"properties":{"osm_id":"3727421856","tag":{"amenity":"waste_basket"}},"type":"Feature"},
	{"geometry":{"coordinates":[22.58393,51.207165],"type":"Point"},"properties":{"osm_id":"3846856531","tag":{"amenity":"waste_basket"}},"type":"Feature"},
	{"geometry":{"coordinates":[22.586491,51.207595],"type":"Point"},"properties":{"osm_id":"3846862588","tag":{"amenity":"waste_basket"}},"type":"Feature"},
	{"geometry":{"coordinates":[22.585759,51.209389],"type":"Point"},"properties":{"osm_id":"3846876781","tag":{"amenity":"waste_basket"}},"type":"Feature"},
	{"geometry":{"coordinates":[22.576992,51.223674],"type":"Point"},"properties":{"osm_id":"3846899483","tag":{"amenity":"waste_basket"}},"type":"Feature"},
	{"geometry":{"coordinates":[22.579033,51.224389],"type":"Point"},"properties":{"osm_id":"3846899484","tag":{"amenity":"waste_basket"}},"type":"Feature"},
	{"geometry":{"coordinates":[22.583051,51.226857],"type":"Point"},"properties":{"osm_id":"3846971239","tag":{"amenity":"waste_basket"}},"type":"Feature"},
	{"geometry":{"coordinates":[22.585937,51.22784],"type":"Point"},"properties":{"osm_id":"3846971240","tag":{"amenity":"waste_basket"}},"type":"Feature"},
	{"geometry":{"coordinates":[22.585699,51.227994],"type":"Point"},"properties":{"osm_id":"3846971241","tag":{"amenity":"waste_basket"}},"type":"Feature"},
	{"geometry":{"coordinates":[22.525422,51.181076],"type":"Point"},"properties":{"osm_id":"5088361004","tag":{"amenity":"waste_basket"}},"type":"Feature"},
	{"geometry":{"coordinates":[22.542027,51.192021],"type":"Point"},"properties":{"osm_id":"5088524374","tag":{"amenity":"waste_basket"}},"type":"Feature"},
	{"geometry":{"coordinates":[22.546276,51.192858],"type":"Point"},"properties":{"osm_id":"5088524463","tag":{"amenity":"waste_basket"}},"type":"Feature"},
	{"geometry":{"coordinates":[22.54585,51.19155],"type":"Point"},"properties":{"osm_id":"5088524464","tag":{"amenity":"waste_basket"}},"type":"Feature"},
	{"geometry":{"coordinates":[22.564714,51.205751],"type":"Point"},"properties":{"osm_id":"5088524466","tag":{"amenity":"waste_basket"}},"type":"Feature"},
	{"geometry":{"coordinates":[22.524505,51.184868],"type":"Point"},"properties":{"osm_id":"5093504515","tag":{"amenity":"waste_basket"}},"type":"Feature"},
	{"geometry":{"coordinates":[22.539477,51.234365],"type":"Point"},"properties":{"name":"\u00c5\u009amietnik","osm_id":"5158370060","tag":{"amenity":"recycling","recycling_type":"container"}},"type":"Feature"},
	{"geometry":{"coordinates":[22.545359,51.218195],"type":"Point"},"properties":{"osm_id":"5188759234","tag":{"amenity":"recycling","recycling_type":"container"}},"type":"Feature"},
	{"geometry":{"coordinates":[22.545939,51.216764],"type":"Point"},"properties":{"osm_id":"5188760233","tag":{"amenity":"recycling","recycling_type":"container"}},"type":"Feature"},
	{"geometry":{"coordinates":[22.504976,51.219899],"type":"Point"},"properties":{"osm_id":"5243123224","tag":{"amenity":"recycling","recycling_type":"container"}},"type":"Feature"},
	{"geometry":{"coordinates":[22.517039,51.232708],"type":"Point"},"properties":{"osm_id":"6306673261","tag":{"amenity":"recycling","recycling_type":"container"}},"type":"Feature"},
	{"geometry":{"coordinates":[22.522593,51.231818],"type":"Point"},"properties":{"osm_id":"6318371477","tag":{"amenity":"waste_basket"}},"type":"Feature"},
	{"geometry":{"coordinates":[22.540868,51.196352],"type":"Point"},"properties":{"osm_id":"6355026509","tag":{"amenity":"waste_basket"}},"type":"Feature"},
	{"geometry":{"coordinates":[22.540826,51.196032],"type":"Point"},"properties":{"osm_id":"6355026510","tag":{"amenity":"waste_basket"}},"type":"Feature"},
	{"geometry":{"coordinates":[22.540319,51.195936],"type":"Point"},"properties":{"osm_id":"6355026511","tag":{"amenity":"waste_basket"}},"type":"Feature"},
	{"geometry":{"coordinates":[22.540373,51.196357],"type":"Point"},"properties":{"osm_id":"6355026512","tag":{"amenity":"waste_basket"}},"type":"Feature"},
	{"geometry":{"coordinates":[22.54251,51.200362],"type":"Point"},"properties":{"osm_id":"6357895043","tag":{"amenity":"recycling","recycling:clothes":"yes","recycling_type":"container"}},"type":"Feature"},
	{"geometry":{"coordinates":[22.542488,51.20036],"type":"Point"},"properties":{"osm_id":"6357895044","tag":{"amenity":"recycling","recycling:clothes":"yes","recycling_type":"container"}},"type":"Feature"},
	{"geometry":{"coordinates":[22.54247,51.200331],"type":"Point"},"properties":{"osm_id":"6357895045","tag":{"amenity":"recycling","recycling:clothes":"yes","recycling_type":"container"}},"type":"Feature"},
	{"geometry":{"coordinates":[22.542316,51.200339],"type":"Point"},"properties":{"osm_id":"6357895115","tag":{"amenity":"waste_basket"}},"type":"Feature"},
	{"geometry":{"coordinates":[22.542447,51.200597],"type":"Point"},"properties":{"osm_id":"6357895139","tag":{"amenity":"waste_basket"}},"type":"Feature"},
	{"geometry":{"coordinates":[22.542613,51.200494],"type":"Point"},"properties":{"osm_id":"6357895155","tag":{"amenity":"waste_basket"}},"type":"Feature"},
	{"geometry":{"coordinates":[22.539952,51.196877],"type":"Point"},"properties":{"osm_id":"6358007005","tag":{"amenity":"waste_basket"}},"type":"Feature"},
	{"geometry":{"coordinates":[22.540076,51.196813],"type":"Point"},"properties":{"osm_id":"6358007006","tag":{"amenity":"recycling","recycling:clothes":"yes","recycling_type":"container"}},"type":"Feature"},
	{"geometry":{"coordinates":[22.539907,51.196619],"type":"Point"},"properties":{"osm_id":"6358007007","tag":{"amenity":"recycling","recycling:clothes":"yes","recycling_type":"container"}},"type":"Feature"},
	{"geometry":{"coordinates":[22.539159,51.19586],"type":"Point"},"properties":{"osm_id":"6358007010","tag":{"amenity":"waste_basket"}},"type":"Feature"},
	{"geometry":{"coordinates":[22.543138,51.200497],"type":"Point"},"properties":{"osm_id":"6358007011","tag":{"amenity":"waste_basket"}},"type":"Feature"},
	{"geometry":{"coordinates":[22.542663,51.200321],"type":"Point"},"properties":{"osm_id":"6358007048","tag":{"amenity":"waste_basket"}},"type":"Feature"},
	{"geometry":{"coordinates":[22.543539,51.200268],"type":"Point"},"properties":{"osm_id":"6358007049","tag":{"amenity":"waste_basket"}},"type":"Feature"},
	{"geometry":{"coordinates":[22.543865,51.200253],"type":"Point"},"properties":{"osm_id":"6358007064","tag":{"amenity":"waste_basket"}},"type":"Feature"},
	{"geometry":{"coordinates":[22.543764,51.199991],"type":"Point"},"properties":{"osm_id":"6358007074","tag":{"amenity":"waste_disposal"}},"type":"Feature"},
	{"geometry":{"coordinates":[22.541346,51.196396],"type":"Point"},"properties":{"osm_id":"6400982602","tag":{"amenity":"waste_basket"}},"type":"Feature"},
	{"geometry":{"coordinates":[22.541296,51.196008],"type":"Point"},"properties":{"osm_id":"6400982606","tag":{"amenity":"waste_basket"}},"type":"Feature"},
	{"geometry":{"coordinates":[22.541181,51.195773],"type":"Point"},"properties":{"osm_id":"6400982608","tag":{"amenity":"waste_basket"}},"type":"Feature"},
	{"geometry":{"coordinates":[22.539324,51.195898],"type":"Point"},"properties":{"osm_id":"6401277569","tag":{"amenity":"waste_basket"}},"type":"Feature"},
	{"geometry":{"coordinates":[22.541495,51.195686],"type":"Point"},"properties":{"osm_id":"6402791090","tag":{"amenity":"waste_basket"}},"type":"Feature"},
	{"geometry":{"coordinates":[22.542032,51.195717],"type":"Point"},"properties":{"osm_id":"6402791094","tag":{"amenity":"waste_basket"}},"type":"Feature"},
	{"geometry":{"coordinates":[22.54214,51.19571],"type":"Point"},"properties":{"osm_id":"6402791095","tag":{"amenity":"waste_basket"}},"type":"Feature"},
	{"geometry":{"coordinates":[22.541795,51.195718],"type":"Point"},"properties":{"osm_id":"6402791096","tag":{"amenity":"waste_basket"}},"type":"Feature"},
	{"geometry":{"coordinates":[22.541857,51.195659],"type":"Point"},"properties":{"osm_id":"6402791097","tag":{"amenity":"waste_basket"}},"type":"Feature"},
	{"geometry":{"coordinates":[22.542341,51.195298],"type":"Point"},"properties":{"osm_id":"6404124660","tag":{"amenity":"waste_basket"}},"type":"Feature"},
	{"geometry":{"coordinates":[22.542563,51.195203],"type":"Point"},"properties":{"osm_id":"6407766006","tag":{"amenity":"waste_basket"}},"type":"Feature"},
	{"geometry":{"coordinates":[22.541767,51.196372],"type":"Point"},"properties":{"osm_id":"6409021068","tag":{"amenity":"waste_basket","start_date":"2019-04-16"}},"type":"Feature"},
	{"geometry":{"coordinates":[22.541846,51.196595],"type":"Point"},"properties":{"osm_id":"6409021069","tag":{"entrance":"main"}},"type":"Feature"},
	{"geometry":{"coordinates":[22.541732,51.196076],"type":"Point"},"properties":{"osm_id":"6409021071","tag":{"amenity":"waste_basket","start_date":"2019-04-16"}},"type":"Feature"},
	{"geometry":{"coordinates":[22.542281,51.196267],"type":"Point"},"properties":{"osm_id":"6410032178","tag":{"entrance":"main"}},"type":"Feature"},
	{"geometry":{"coordinates":[22.540969,51.196645],"type":"Point"},"properties":{"osm_id":"6410032179","tag":{"entrance":"main"}},"type":"Feature"},
	{"geometry":{"coordinates":[22.540191,51.196603],"type":"Point"},"properties":{"osm_id":"6410032181","tag":{"entrance":"main"}},"type":"Feature"},
	{"geometry":{"coordinates":[22.540197,51.196909],"type":"Point"},"properties":{"osm_id":"6414891159","tag":{"amenity":"waste_basket"}},"type":"Feature"},
	{"geometry":{"coordinates":[22.542264,51.196373],"type":"Point"},"properties":{"osm_id":"6414891160","tag":{"amenity":"waste_basket"}},"type":"Feature"},
	{"geometry":{"coordinates":[22.542225,51.196033],"type":"Point"},"properties":{"osm_id":"6414891161","tag":{"amenity":"waste_basket"}},"type":"Feature"},
	{"geometry":{"coordinates":[22.538683,51.195094],"type":"Point"},"properties":{"osm_id":"6415264337","tag":{"amenity":"waste_basket"}},"type":"Feature"},
	{"geometry":{"coordinates":[22.538196,51.195085],"type":"Point"},"properties":{"osm_id":"6415264357","tag":{"amenity":"waste_basket"}},"type":"Feature"},
	{"geometry":{"coordinates":[22.540586,51.195075],"type":"Point"},"properties":{"osm_id":"6416669034","tag":{"amenity":"recycling","recycling_type":"container"}},"type":"Feature"},
	{"geometry":{"coordinates":[22.540579,51.195075],"type":"Point"},"properties":{"osm_id":"6416669035","tag":{"amenity":"recycling","recycling_type":"container"}},"type":"Feature"},
	{"geometry":{"coordinates":[22.542287,51.196583],"type":"Point"},"properties":{"osm_id":"6432508306","tag":{"amenity":"waste_basket"}},"type":"Feature"},
	{"geometry":{"coordinates":[22.539915,51.196628],"type":"Point"},"properties":{"osm_id":"6468014387","tag":{"amenity":"recycling","recycling:clothes":"yes","recycling_type":"container"}},"type":"Feature"},
	{"geometry":{"coordinates":[22.542623,51.195091],"type":"Point"},"properties":{"osm_id":"6481112130","tag":{"amenity":"waste_basket"}},"type":"Feature"},
	{"geometry":{"coordinates":[22.546888,51.194976],"type":"Point"},"properties":{"osm_id":"6481112169","tag":{"amenity":"waste_basket"}},"type":"Feature"},
	{"geometry":{"coordinates":[22.546903,51.195146],"type":"Point"},"properties":{"osm_id":"6481112176","tag":{"amenity":"waste_basket"}},"type":"Feature"},
	{"geometry":{"coordinates":[22.541413,51.198757],"type":"Point"},"properties":{"osm_id":"6563351058","tag":{"amenity":"recycling","operator":"Fundacja u\u00c5\u009bmiechu","recycling:clothes":"yes","recycling_type":"container"}},"type":"Feature"},
	{"geometry":{"coordinates":[22.541298,51.198215],"type":"Point"},"properties":{"osm_id":"6718437440","tag":{"entrance":"main"}},"type":"Feature"},
	{"geometry":{"coordinates":[22.542024,51.198806],"type":"Point"},"properties":{"osm_id":"7086345715","tag":{"amenity":"waste_basket"}},"type":"Feature"},
	{"geometry":{"coordinates":[22.541525,51.198999],"type":"Point"},"properties":{"osm_id":"7088196898","tag":{"amenity":"waste_basket"}},"type":"Feature"},
	{"geometry":{"coordinates":[22.541239,51.198225],"type":"Point"},"properties":{"osm_id":"7088196899","tag":{"amenity":"recycling","operator":"Fundacja u\u00c5\u009bmiechu","recycling:clothes":"yes","recycling_type":"container"}},"type":"Feature"},
	{"geometry":{"coordinates":[22.541219,51.198228],"type":"Point"},"properties":{"osm_id":"7088196900","tag":{"amenity":"recycling","operator":"Fundacja Eco Textil","recycling:clothes":"yes","recycling_type":"container"}},"type":"Feature"},
	{"geometry":{"coordinates":[22.541519,51.198295],"type":"Point"},"properties":{"osm_id":"7088196905","tag":{"amenity":"waste_basket"}},"type":"Feature"},
	{"geometry":{"coordinates":[22.541692,51.198157],"type":"Point"},"properties":{"osm_id":"7088196907","tag":{"amenity":"waste_basket"}},"type":"Feature"},
	{"geometry":{"coordinates":[22.542354,51.198125],"type":"Point"},"properties":{"osm_id":"7088196915","tag":{"amenity":"waste_basket"}},"type":"Feature"},
	{"geometry":{"coordinates":[22.542429,51.198255],"type":"Point"},"properties":{"osm_id":"7088199635","tag":{"amenity":"waste_basket"}},"type":"Feature"},
	{"geometry":{"coordinates":[22.543249,51.198081],"type":"Point"},"properties":{"osm_id":"7088199652","tag":{"amenity":"waste_basket"}},"type":"Feature"},
	{"geometry":{"coordinates":[22.543122,51.198341],"type":"Point"},"properties":{"osm_id":"7222897725","tag":{"amenity":"waste_basket"}},"type":"Feature"},
	{"geometry":{"coordinates":[22.542211,51.19839],"type":"Point"},"properties":{"osm_id":"7222897726","tag":{"amenity":"waste_basket"}},"type":"Feature"}
]
}
