{
"type": "FeatureCollection",
"features": [
	{"geometry":{"coordinates":[10.305736,43.991979],"type":"Point"},"properties":{"name":"Lime","osm_id":"1345202166","tag":{"height":"20","leaf_type":"broadleaved","name:botanical":"Tilia","name:it":"Tiglio","natural":"tree"}},"type":"Feature"},
	{"geometry":{"coordinates":[10.305444,43.99188],"type":"Point"},"properties":{"name":"Lime","osm_id":"1345202168","tag":{"height":"20","leaf_type":"broadleaved","name:botanical":"Tilia","name:it":"Tiglio","natural":"tree"}},"type":"Feature"},
	{"geometry":{"coordinates":[10.305642,43.99182],"type":"Point"},"properties":{"name":"Lime","osm_id":"1345202175","tag":{"height":"20","leaf_type":"broadleaved","name:botanical":"Tilia","name:it":"Tiglio","natural":"tree"}},"type":"Feature"},
	{"geometry":{"coordinates":[10.305523,43.991794],"type":"Point"},"properties":{"name":"Lime","osm_id":"1345202200","tag":{"height":"20","leaf_type":"broadleaved","name:botanical":"Tilia","name:it":"Tiglio","natural":"tree"}},"type":"Feature"},
	{"geometry":{"coordinates":[10.305739,43.99184],"type":"Point"},"properties":{"name":"Lime","osm_id":"1345202246","tag":{"height":"20","leaf_type":"broadleaved","name:botanical":"Tilia","name:it":"Tiglio","natural":"tree"}},"type":"Feature"},
	{"geometry":{"coordinates":[10.305625,43.99194],"type":"Point"},"properties":{"name":"Lime","osm_id":"1345202261","tag":{"height":"20","leaf_type":"broadleaved","name:botanical":"Tilia","name:it":"Tiglio","natural":"tree"}},"type":"Feature"},
	{"geometry":{"coordinates":[10.305837,43.991865],"type":"Point"},"properties":{"name":"Lime","osm_id":"1345202287","tag":{"height":"20","leaf_type":"broadleaved","name:botanical":"Tilia","name:it":"Tiglio","natural":"tree"}},"type":"Feature"},
	{"geometry":{"coordinates":[10.305186,43.99169],"type":"Point"},"properties":{"name":"Cedar of Lebanon","osm_id":"2146912524","tag":{"height":"30","leaf_type":"needleleaved","name:botanical":"Cedrus libani","name:it":"Cedro del Libano","natural":"tree"}},"type":"Feature"},
	{"geometry":{"coordinates":[10.305336,43.991787],"type":"Point"},"properties":{"name":"Lime","osm_id":"2146912525","tag":{"height":"20","leaf_type":"broadleaved","name:botanical":"Tilia","name:it":"Tiglio","natural":"tree"}},"type":"Feature"},
	{"geometry":{"coordinates":[10.305427,43.991776],"type":"Point"},"properties":{"name":"Lime","osm_id":"2146912526","tag":{"height":"20","leaf_type":"broadleaved","name:botanical":"Tilia","name:it":"Tiglio","natural":"tree"}},"type":"Feature"},
	{"geometry":{"coordinates":[10.305266,43.991816],"type":"Point"},"properties":{"name":"Lime","osm_id":"2146912527","tag":{"height":"20","leaf_type":"broadleaved","name:botanical":"Tilia","name:it":"Tiglio","natural":"tree"}},"type":"Feature"},
	{"geometry":{"coordinates":[10.305343,43.991844],"type":"Point"},"properties":{"name":"Lime","osm_id":"2146912528","tag":{"height":"20","leaf_type":"broadleaved","name:botanical":"Tilia","name:it":"Tiglio","natural":"tree"}},"type":"Feature"},
	{"geometry":{"coordinates":[10.304694,43.991747],"type":"Point"},"properties":{"name":"Cypress","osm_id":"2147572395","tag":{"height":"18","leaf_type":"needleleaved","name:botanical":"Cupressus","name:it":"Cipresso","natural":"tree"}},"type":"Feature"},
	{"geometry":{"coordinates":[10.304709,43.991767],"type":"Point"},"properties":{"name":"Cypress","osm_id":"2147572396","tag":{"height":"18","leaf_type":"needleleaved","name:botanical":"Cupressus","name:it":"Cipresso","natural":"tree"}},"type":"Feature"},
	{"geometry":{"coordinates":[10.304724,43.991787],"type":"Point"},"properties":{"name":"Cypress","osm_id":"2147572397","tag":{"height":"18","leaf_type":"needleleaved","name:botanical":"Cupressus","name:it":"Cipresso","natural":"tree"}},"type":"Feature"},
	{"geometry":{"coordinates":[10.304739,43.991807],"type":"Point"},"properties":{"name":"Cypress","osm_id":"2147572398","tag":{"height":"18","leaf_type":"needleleaved","name:botanical":"Cupressus","name:it":"Cipresso","natural":"tree"}},"type":"Feature"},
	{"geometry":{"coordinates":[10.304755,43.991827],"type":"Point"},"properties":{"name":"Cypress","osm_id":"2147572399","tag":{"height":"18","leaf_type":"needleleaved","name:botanical":"Cupressus","name:it":"Cipresso","natural":"tree"}},"type":"Feature"},
	{"geometry":{"coordinates":[10.30477,43.991847],"type":"Point"},"properties":{"name":"Cypress","osm_id":"2147572400","tag":{"height":"18","leaf_type":"needleleaved","name:botanical":"Cupressus","name:it":"Cipresso","natural":"tree"}},"type":"Feature"},
	{"geometry":{"coordinates":[10.304785,43.991867],"type":"Point"},"properties":{"name":"Cypress","osm_id":"2147572401","tag":{"height":"18","leaf_type":"needleleaved","name:botanical":"Cupressus","name:it":"Cipresso","natural":"tree"}},"type":"Feature"},
	{"geometry":{"coordinates":[10.3048,43.991887],"type":"Point"},"properties":{"name":"Cypress","osm_id":"2147572402","tag":{"height":"18","leaf_type":"needleleaved","name:botanical":"Cupressus","name:it":"Cipresso","natural":"tree"}},"type":"Feature"}
]
}
