{
"type": "FeatureCollection",
"features": [
	{"geometry":{"coordinates":[11.574215,60.859622],"type":"Point"},"properties":{"osm_id":"8754374170","tag":{"amenity":"waste_basket"}},"type":"Feature"},
	{"geometry":{"coordinates":[11.559666,60.880772],"type":"Point"},"properties":{"osm_id":"8905641482","tag":{"amenity":"waste_basket","colour":"green","material":"plastic","waste":"trash"}},"type":"Feature"},
	{"geometry":{"coordinates":[11.559846,60.880552],"type":"Point"},"properties":{"osm_id":"8905641486","tag":{"amenity":"waste_basket","colour":"green","material":"plastic","waste":"trash"}},"type":"Feature"},
	{"geometry":{"coordinates":[11.559949,60.880583],"type":"Point"},"properties":{"osm_id":"8905641491","tag":{"amenity":"waste_basket","colour":"green","material":"plastic","waste":"trash"}},"type":"Feature"},
	{"geometry":{"coordinates":[11.56027,60.879391],"type":"Point"},"properties":{"osm_id":"8918890533","tag":{"amenity":"waste_basket","colour":"green","material":"plastic","waste":"trash"}},"type":"Feature"},
	{"geometry":{"coordinates":[11.559844,60.879209],"type":"Point"},"properties":{"osm_id":"8918890549","tag":{"amenity":"waste_basket","colour":"green","material":"plastic","waste":"trash"}},"type":"Feature"},
	{"geometry":{"coordinates":[11.562229,60.879607],"type":"Point"},"properties":{"osm_id":"8918890573","tag":{"amenity":"waste_basket","colour":"black","material":"metal","waste":"trash"}},"type":"Feature"},
	{"geometry":{"coordinates":[11.563144,60.879716],"type":"Point"},"properties":{"osm_id":"8918890578","tag":{"amenity":"waste_basket","colour":"black","material":"metal","waste":"trash"}},"type":"Feature"},
	{"geometry":{"coordinates":[11.56645,60.881412],"type":"Point"},"properties":{"osm_id":"8919813953","tag":{"amenity":"waste_basket","colour":"black","waste":"trash"}},"type":"Feature"},
	{"geometry":{"coordinates":[11.570755,60.883114],"type":"Point"},"properties":{"osm_id":"8933189247","tag":{"amenity":"waste_basket"}},"type":"Feature"},
	{"geometry":{"coordinates":[11.570456,60.883894],"type":"Point"},"properties":{"osm_id":"8933189248","tag":{"amenity":"waste_basket"}},"type":"Feature"},
	{"geometry":{"coordinates":[11.569132,60.883575],"type":"Point"},"properties":{"osm_id":"8933189253","tag":{"amenity":"waste_basket"}},"type":"Feature"},
	{"geometry":{"coordinates":[11.573866,60.881326],"type":"Point"},"properties":{"osm_id":"8934945496","tag":{"amenity":"waste_basket","colour":"green","material":"plastic","waste":"trash"}},"type":"Feature"},
	{"geometry":{"coordinates":[11.57499,60.882139],"type":"Point"},"properties":{"osm_id":"8934945497","tag":{"amenity":"waste_basket","colour":"green","material":"plastic","waste":"trash"}},"type":"Feature"},
	{"geometry":{"coordinates":[11.572312,60.882474],"type":"Point"},"properties":{"osm_id":"8934945498","tag":{"amenity":"waste_basket","colour":"green","material":"plastic","waste":"trash"}},"type":"Feature"},
	{"geometry":{"coordinates":[11.553431,60.880175],"type":"Point"},"properties":{"osm_id":"8955249443","tag":{"amenity":"waste_basket"}},"type":"Feature"}
]
}
