{
"type": "FeatureCollection",
"features": [
	{"geometry":{"coordinates":[11.548343,49.957471],"type":"Point"},"properties":{"osm_id":"315491218","tag":{"amenity":"recycling","recycling:batteries":"yes","recycling:books":"yes","recycling:cans":"yes","recycling:electrical_appliances":"yes","recycling:green_waste":"yes","recycling:plastic":"yes","recycling:plastic_bottles":"yes","recycling:scrap_metal":"yes","recycling:small_appliances":"yes","recycling_type":"centre"}},"type":"Feature"},
	{"geometry":{"coordinates":[11.578458,49.96247],"type":"Point"},"properties":{"osm_id":"385075366","tag":{"amenity":"recycling","recycling:cans":"yes","recycling:clothes":"no","recycling:glass":"no","recycling:glass_bottles":"yes","recycling:paper":"yes","recycling_type":"container"}},"type":"Feature"},
	{"geometry":{"coordinates":[11.569017,49.959153],"type":"Point"},"properties":{"osm_id":"385075374","tag":{"amenity":"recycling","location":"overground","opening_hours":"Mo-Fr 07:00-12:00,14:00-20:00; Sa 07:00-12:00","recycling:cans":"yes","recycling:glass":"yes","recycling:paper":"yes","recycling_type":"container"}},"type":"Feature"},
	{"geometry":{"coordinates":[11.581935,49.95277],"type":"Point"},"properties":{"osm_id":"800484599","tag":{"amenity":"recycling","location":"overground","recycling_type":"container"}},"type":"Feature"},
	{"geometry":{"coordinates":[11.578053,49.960715],"type":"Point"},"properties":{"osm_id":"853848300","tag":{"amenity":"waste_basket"}},"type":"Feature"},
	{"geometry":{"coordinates":[11.54795,49.991047],"type":"Point"},"properties":{"osm_id":"1240055213","tag":{"amenity":"recycling","recycling:glass":"yes","recycling_type":"container"}},"type":"Feature"},
	{"geometry":{"coordinates":[11.534064,49.969729],"type":"Point"},"properties":{"osm_id":"1347957611","tag":{"amenity":"recycling","recycling:clothes":"yes","recycling_type":"container"}},"type":"Feature"},
	{"geometry":{"coordinates":[11.533768,49.969678],"type":"Point"},"properties":{"osm_id":"1347957614","tag":{"amenity":"recycling","opening_hours":"Mo-Sa 08:00-19:00","operator":"Sita","recycling:cans":"yes","recycling:glass":"yes","recycling_type":"container"}},"type":"Feature"},
	{"geometry":{"coordinates":[11.537896,49.963211],"type":"Point"},"properties":{"osm_id":"1347957667","tag":{"amenity":"waste_basket"}},"type":"Feature"},
	{"geometry":{"coordinates":[11.600911,49.994741],"type":"Point"},"properties":{"osm_id":"1436456402","tag":{"amenity":"recycling","recycling:glass":"yes","recycling:scrap_metal":"yes","recycling_type":"container"}},"type":"Feature"},
	{"geometry":{"coordinates":[11.589083,49.959038],"type":"Point"},"properties":{"osm_id":"1603590974","tag":{"amenity":"recycling","recycling:cartons":"yes","recycling:glass":"yes","recycling:glass_bottles":"yes","recycling:newspaper":"yes","recycling:paper":"yes","recycling:paper_packaging":"yes","recycling_type":"container"}},"type":"Feature"},
	{"geometry":{"coordinates":[11.596782,49.956732],"type":"Point"},"properties":{"osm_id":"2057397501","tag":{"amenity":"recycling","recycling:glass":"yes","recycling:glass_bottles":"yes","recycling:paper":"yes","recycling_type":"container"}},"type":"Feature"},
	{"geometry":{"coordinates":[11.572073,49.952374],"type":"Point"},"properties":{"osm_id":"2277098934","tag":{"amenity":"recycling","location":"overground","recycling:cans":"yes","recycling:glass_bottles":"yes","recycling:paper":"yes","recycling_type":"container"}},"type":"Feature"},
	{"geometry":{"coordinates":[11.532269,49.96714],"type":"Point"},"properties":{"osm_id":"2414301227","tag":{"amenity":"waste_basket"}},"type":"Feature"},
	{"geometry":{"coordinates":[11.529689,49.966718],"type":"Point"},"properties":{"osm_id":"2415203904","tag":{"amenity":"waste_basket"}},"type":"Feature"},
	{"geometry":{"coordinates":[11.577334,49.953497],"type":"Point"},"properties":{"highway":"bus_stop","name":"G\u00c3\u00bcterbahnhof","osm_id":"3602868824","ref":"305,309","tag":{"amenity":"waste_basket","bus":"yes","departures_board":"timetable","network":"VGN","operator":"Stadtwerke Bayreuth Verkehr und B\u00c3\u00a4der GmbH","public_transport":"platform"}},"type":"Feature"},
	{"geometry":{"coordinates":[11.571477,49.952848],"type":"Point"},"properties":{"osm_id":"3638348623","tag":{"amenity":"waste_basket"}},"type":"Feature"},
	{"geometry":{"coordinates":[11.568042,49.952923],"type":"Point"},"properties":{"osm_id":"3638348624","tag":{"amenity":"waste_basket"}},"type":"Feature"},
	{"geometry":{"coordinates":[11.569678,49.951906],"type":"Point"},"properties":{"osm_id":"3897287321","tag":{"amenity":"waste_basket"}},"type":"Feature"},
	{"geometry":{"coordinates":[11.554541,49.953467],"type":"Point"},"properties":{"osm_id":"3914839132","tag":{"amenity":"waste_basket"}},"type":"Feature"},
	{"geometry":{"coordinates":[11.554212,49.95342],"type":"Point"},"properties":{"osm_id":"3914839133","tag":{"amenity":"waste_basket"}},"type":"Feature"},
	{"geometry":{"coordinates":[11.575107,49.989654],"type":"Point"},"properties":{"osm_id":"4369349960","tag":{"amenity":"recycling","recycling_type":"container"}},"type":"Feature"},
	{"geometry":{"coordinates":[11.586747,50.006363],"type":"Point"},"properties":{"osm_id":"4900586040","tag":{"amenity":"waste_basket"}},"type":"Feature"},
	{"geometry":{"coordinates":[11.575951,49.966607],"type":"Point"},"properties":{"osm_id":"5078772521","tag":{"amenity":"waste_basket"}},"type":"Feature"},
	{"geometry":{"coordinates":[11.579511,49.963745],"type":"Point"},"properties":{"osm_id":"5144967702","tag":{"amenity":"waste_basket"}},"type":"Feature"},
	{"geometry":{"coordinates":[11.579476,49.963638],"type":"Point"},"properties":{"osm_id":"5144967704","tag":{"amenity":"waste_basket"}},"type":"Feature"},
	{"geometry":{"coordinates":[11.57828,49.962487],"type":"Point"},"properties":{"osm_id":"5144976928","tag":{"amenity":"waste_basket"}},"type":"Feature"},
	{"geometry":{"coordinates":[11.58143,49.96114],"type":"Point"},"properties":{"osm_id":"5144983202","tag":{"amenity":"waste_basket"}},"type":"Feature"},
	{"geometry":{"coordinates":[11.580157,49.964035],"type":"Point"},"properties":{"osm_id":"5145054453","tag":{"amenity":"waste_basket"}},"type":"Feature"},
	{"geometry":{"coordinates":[11.580068,49.964075],"type":"Point"},"properties":{"osm_id":"5145054456","tag":{"amenity":"waste_basket"}},"type":"Feature"},
	{"geometry":{"coordinates":[11.58374,49.957822],"type":"Point"},"properties":{"osm_id":"5161142421","tag":{"amenity":"recycling","recycling:glass_bottles":"yes","recycling:paper":"yes","recycling_type":"container"}},"type":"Feature"},
	{"geometry":{"coordinates":[11.578874,49.95982],"type":"Point"},"properties":{"osm_id":"5169032556","tag":{"amenity":"waste_basket"}},"type":"Feature"},
	{"geometry":{"coordinates":[11.578849,49.959327],"type":"Point"},"properties":{"osm_id":"5169032563","tag":{"amenity":"waste_basket"}},"type":"Feature"},
	{"geometry":{"coordinates":[11.578826,49.960133],"type":"Point"},"properties":{"osm_id":"5169032566","tag":{"amenity":"waste_basket"}},"type":"Feature"},
	{"geometry":{"coordinates":[11.578143,49.95484],"type":"Point"},"properties":{"osm_id":"5169046734","tag":{"amenity":"waste_basket"}},"type":"Feature"},
	{"geometry":{"coordinates":[11.530387,49.978482],"type":"Point"},"properties":{"osm_id":"7412099423","tag":{"amenity":"waste_basket"}},"type":"Feature"}
]
}
