{
"type": "FeatureCollection",
"features": [
	{"geometry":{"coordinates":[11.550943,49.765359],"type":"Point"},"properties":{"name":"Wertstoffhof Pegnitz","osm_id":"340023500","tag":{"amenity":"recycling","opening_hours":"Tu 14:00-18:00; Th 14:00-20:00; Sa[-1] 10:00-14:00; PH off"}},"type":"Feature"},
	{"geometry":{"coordinates":[11.545944,49.748893],"type":"Point"},"properties":{"osm_id":"359551197","tag":{"amenity":"recycling","recycling:glass":"yes"}},"type":"Feature"},
	{"geometry":{"coordinates":[11.557813,49.7413],"type":"Point"},"properties":{"osm_id":"373342195","tag":{"amenity":"recycling","recycling:glass":"yes"}},"type":"Feature"},
	{"geometry":{"coordinates":[11.536319,49.748924],"type":"Point"},"properties":{"osm_id":"374460783","tag":{"amenity":"recycling","recycling:glass":"yes","recycling:paper":"yes"}},"type":"Feature"},
	{"geometry":{"coordinates":[11.54768,49.741328],"type":"Point"},"properties":{"osm_id":"386134488","tag":{"amenity":"recycling","mapillary":"LwpRiloe1jInTxW_rrM7FA","recycling:glass":"yes","recycling_type":"container","survey:date":"2018-08-05"}},"type":"Feature"},
	{"geometry":{"coordinates":[11.529542,49.755786],"type":"Point"},"properties":{"osm_id":"414026159","tag":{"amenity":"recycling","recycling:glass":"yes"}},"type":"Feature"},
	{"geometry":{"coordinates":[11.533584,49.741307],"type":"Point"},"properties":{"osm_id":"600093818","tag":{"amenity":"recycling","location":"overground","recycling:glass":"yes","recycling_type":"container"}},"type":"Feature"},
	{"geometry":{"coordinates":[11.518702,49.739469],"type":"Point"},"properties":{"osm_id":"807794634","tag":{"amenity":"recycling","recycling:cans":"yes","recycling:glass":"yes"}},"type":"Feature"},
	{"geometry":{"coordinates":[11.552874,49.757067],"type":"Point"},"properties":{"osm_id":"846440332","tag":{"amenity":"recycling","recycling:glass":"yes","recycling_type":"container"}},"type":"Feature"},
	{"geometry":{"coordinates":[11.545554,49.757171],"type":"Point"},"properties":{"osm_id":"850025395","tag":{"amenity":"recycling","recycling:clothes":"yes"}},"type":"Feature"},
	{"geometry":{"coordinates":[11.539824,49.781052],"type":"Point"},"properties":{"osm_id":"894103747","tag":{"amenity":"recycling","recycling:glass":"yes"}},"type":"Feature"},
	{"geometry":{"coordinates":[11.588985,49.74641],"type":"Point"},"properties":{"osm_id":"1387945661","tag":{"amenity":"waste_basket"}},"type":"Feature"},
	{"geometry":{"coordinates":[11.529673,49.727001],"type":"Point"},"properties":{"osm_id":"1412667975","tag":{"amenity":"recycling","recycling:glass":"yes","recycling:shoes":"yes"}},"type":"Feature"},
	{"geometry":{"coordinates":[11.544161,49.756019],"type":"Point"},"properties":{"osm_id":"1605053497","tag":{"amenity":"waste_basket"}},"type":"Feature"},
	{"geometry":{"coordinates":[11.542854,49.756575],"type":"Point"},"properties":{"osm_id":"1605053527","tag":{"amenity":"waste_basket"}},"type":"Feature"},
	{"geometry":{"coordinates":[11.54363,49.756407],"type":"Point"},"properties":{"osm_id":"1605791944","tag":{"amenity":"waste_basket"}},"type":"Feature"},
	{"geometry":{"coordinates":[11.540516,49.754708],"type":"Point"},"properties":{"osm_id":"1932931992","tag":{"amenity":"waste_basket"}},"type":"Feature"},
	{"geometry":{"coordinates":[11.545488,49.743445],"type":"Point"},"properties":{"osm_id":"3437408176","tag":{"amenity":"recycling","location":"overground","recycling:cans":"yes","recycling:clothes":"yes","recycling:glass":"yes","recycling_type":"container"}},"type":"Feature"},
	{"geometry":{"coordinates":[11.547128,49.752346],"type":"Point"},"properties":{"osm_id":"5226466008","tag":{"amenity":"waste_basket"}},"type":"Feature"},
	{"geometry":{"coordinates":[11.546852,49.75499],"type":"Point"},"properties":{"osm_id":"5226466009","tag":{"amenity":"waste_basket","fee":"no","vending":"excrement_bags"}},"type":"Feature"},
	{"geometry":{"coordinates":[11.548556,49.751202],"type":"Point"},"properties":{"osm_id":"5226466010","tag":{"amenity":"waste_basket","fee":"no","vending":"excrement_bags"}},"type":"Feature"},
	{"geometry":{"coordinates":[11.557019,49.741923],"type":"Point"},"properties":{"osm_id":"6034846781","tag":{"amenity":"waste_basket","vending":"excrement_bags","waste":"dog_excrement"}},"type":"Feature"},
	{"geometry":{"coordinates":[11.538611,49.748417],"type":"Point"},"properties":{"osm_id":"6034848252","tag":{"amenity":"waste_basket"}},"type":"Feature"},
	{"geometry":{"coordinates":[11.542846,49.755268],"type":"Point"},"properties":{"osm_id":"6753191976","tag":{"amenity":"waste_basket"}},"type":"Feature"},
	{"geometry":{"coordinates":[11.540745,49.754829],"type":"Point"},"properties":{"osm_id":"6753191977","tag":{"amenity":"waste_basket","fee":"no","vending":"excrement_bags"}},"type":"Feature"},
	{"geometry":{"coordinates":[11.547201,49.756414],"type":"Point"},"properties":{"osm_id":"6819971487","tag":{"amenity":"waste_basket"}},"type":"Feature"},
	{"geometry":{"coordinates":[11.547233,49.756837],"type":"Point"},"properties":{"osm_id":"6819971492","tag":{"amenity":"waste_basket"}},"type":"Feature"},
	{"geometry":{"coordinates":[11.547198,49.756757],"type":"Point"},"properties":{"osm_id":"6819971493","tag":{"amenity":"waste_basket"}},"type":"Feature"},
	{"geometry":{"coordinates":[11.548032,49.75855],"type":"Point"},"properties":{"osm_id":"6819971494","tag":{"amenity":"waste_basket"}},"type":"Feature"},
	{"geometry":{"coordinates":[11.541446,49.75595],"type":"Point"},"properties":{"osm_id":"6832369685","tag":{"amenity":"waste_basket"}},"type":"Feature"},
	{"geometry":{"coordinates":[11.539287,49.75469],"type":"Point"},"properties":{"osm_id":"6832369686","tag":{"amenity":"waste_basket"}},"type":"Feature"},
	{"geometry":{"coordinates":[11.541588,49.755077],"type":"Point"},"properties":{"osm_id":"6832369687","tag":{"amenity":"waste_basket"}},"type":"Feature"},
	{"geometry":{"coordinates":[11.554055,49.755147],"type":"Point"},"properties":{"osm_id":"6857013199","tag":{"amenity":"waste_basket","vending":"excrement_bags"}},"type":"Feature"},
	{"geometry":{"coordinates":[11.553009,49.755313],"type":"Point"},"properties":{"osm_id":"6857013200","tag":{"amenity":"waste_basket"}},"type":"Feature"},
	{"geometry":{"coordinates":[11.537807,49.758178],"type":"Point"},"properties":{"osm_id":"6886877929","tag":{"amenity":"waste_basket"}},"type":"Feature"}
]
}
