{
"type": "FeatureCollection",
"features": [
	{"geometry":{"coordinates":[11.582918,49.526922],"type":"Point"},"properties":{"osm_id":"685113200","tag":{"amenity":"recycling","recycling:cans":"yes","recycling:glass":"yes","recycling_type":"container"}},"type":"Feature"},
	{"geometry":{"coordinates":[11.565846,49.498798],"type":"Point"},"properties":{"name":"Wertstoffhof Weigendorf","osm_id":"3500960976","tag":{"amenity":"recycling","recycling_type":"centre"}},"type":"Feature"},
	{"geometry":{"coordinates":[11.514867,49.505734],"type":"Point"},"properties":{"osm_id":"4281587897","tag":{"amenity":"recycling","recycling:cans":"yes","recycling:clothes":"yes","recycling:glass_bottles":"yes","recycling_type":"container"}},"type":"Feature"},
	{"geometry":{"coordinates":[11.552625,49.497574],"type":"Point"},"properties":{"osm_id":"4362493440","tag":{"amenity":"waste_basket"}},"type":"Feature"},
	{"geometry":{"coordinates":[11.582658,49.525582],"type":"Point"},"properties":{"osm_id":"6771026273","tag":{"access":"private","amenity":"waste_disposal"}},"type":"Feature"},
	{"geometry":{"coordinates":[11.554271,49.498633],"type":"Point"},"properties":{"osm_id":"6916493294","tag":{"amenity":"waste_basket"}},"type":"Feature"},
	{"geometry":{"coordinates":[11.54576,49.496684],"type":"Point"},"properties":{"osm_id":"7419600214","tag":{"amenity":"waste_basket"}},"type":"Feature"}
]
}
