{
"type": "FeatureCollection",
"lastupdate": "2020-07-31T00:00:00Z",
"features": [
	{"geometry":{"coordinates":[11.551835,48.732077],"type":"Point"},"properties":{"osm_id":"318384272","tag":{"amenity":"recycling","recycling:clothes":"yes","recycling_type":"container"}},"type":"Feature"},
	{"geometry":{"coordinates":[11.549277,48.734552],"type":"Point"},"properties":{"osm_id":"318384283","tag":{"amenity":"recycling","recycling:glass":"yes","recycling_type":"container"}},"type":"Feature"},
	{"geometry":{"coordinates":[11.52819,48.71262],"type":"Point"},"properties":{"name":"Wertstoff-Sammelstelle","osm_id":"1914250345","tag":{"amenity":"recycling","recycling_type":"centre"}},"type":"Feature"},
	{"geometry":{"coordinates":[11.574521,48.733311],"type":"Point"},"properties":{"osm_id":"4239076773","tag":{"amenity":"recycling","recycling:clothes":"yes","recycling_type":"container"}},"type":"Feature"},
	{"geometry":{"coordinates":[11.561072,48.728578],"type":"Point"},"properties":{"osm_id":"4241498213","tag":{"amenity":"waste_basket"}},"type":"Feature"},
	{"geometry":{"coordinates":[11.565649,48.72902],"type":"Point"},"properties":{"osm_id":"4241498214","tag":{"amenity":"waste_basket"}},"type":"Feature"},
	{"geometry":{"coordinates":[11.573156,48.730869],"type":"Point"},"properties":{"osm_id":"4241498215","tag":{"amenity":"waste_basket"}},"type":"Feature"},
	{"geometry":{"coordinates":[11.575653,48.73069],"type":"Point"},"properties":{"osm_id":"4241498216","tag":{"amenity":"waste_basket"}},"type":"Feature"},
	{"geometry":{"coordinates":[11.59862,48.718948],"type":"Point"},"properties":{"osm_id":"6284633043","tag":{"amenity":"waste_basket","waste":"trash"}},"type":"Feature"}
]
}
