{
"type": "FeatureCollection",
"features": [
	{"geometry":{"coordinates":[11.582873,48.430145],"type":"Point"},"properties":{"osm_id":"2173347939","tag":{"amenity":"waste_basket"}},"type":"Feature"},
	{"geometry":{"coordinates":[11.583006,48.430338],"type":"Point"},"properties":{"osm_id":"2173347957","tag":{"amenity":"waste_basket"}},"type":"Feature"},
	{"geometry":{"coordinates":[11.548202,48.427213],"type":"Point"},"properties":{"osm_id":"5635325607","tag":{"amenity":"waste_basket","amenity_1":"vending_machine","vending":"excrement_bags","waste":"dog_excrement"}},"type":"Feature"},
	{"geometry":{"coordinates":[11.594862,48.433481],"type":"Point"},"properties":{"osm_id":"8586702119","tag":{"amenity":"waste_basket"}},"type":"Feature"},
	{"geometry":{"coordinates":[11.590325,48.430736],"type":"Point"},"properties":{"osm_id":"8586710632","tag":{"amenity":"waste_basket"}},"type":"Feature"},
	{"geometry":{"coordinates":[11.591031,48.432874],"type":"Point"},"properties":{"osm_id":"8586719017","tag":{"amenity":"waste_basket"}},"type":"Feature"}
]
}
