{
"type": "FeatureCollection",
"features": [
	{"geometry":{"coordinates":[11.568428,48.344239],"type":"Point"},"properties":{"name":"Wertstoffhof","osm_id":"294062654","tag":{"addr:city":"Fahrenzhausen","addr:housenumber":"23","addr:postcode":"85777","addr:street":"Ingolst\u00c3\u00a4dter Stra\u00c3\u009fe","amenity":"recycling","recycling_type":"centre"}},"type":"Feature"},
	{"geometry":{"coordinates":[11.598111,48.388485],"type":"Point"},"properties":{"osm_id":"304825753","tag":{"amenity":"recycling","recycling:cans":"yes","recycling:glass":"yes"}},"type":"Feature"},
	{"geometry":{"coordinates":[11.515813,48.371921],"type":"Point"},"properties":{"osm_id":"415905615","tag":{"amenity":"recycling","recycling:clothes":"no","recycling:glass":"yes"}},"type":"Feature"},
	{"geometry":{"coordinates":[11.597769,48.388493],"type":"Point"},"properties":{"osm_id":"4440582591","tag":{"amenity":"recycling"}},"type":"Feature"},
	{"geometry":{"coordinates":[11.573005,48.389738],"type":"Point"},"properties":{"osm_id":"5310464309","tag":{"amenity":"recycling","recycling:glass_bottles":"yes","recycling_type":"container"}},"type":"Feature"},
	{"geometry":{"coordinates":[11.572522,48.377798],"type":"Point"},"properties":{"osm_id":"7636544532","tag":{"amenity":"waste_basket"}},"type":"Feature"}
]
}
