{
"type": "FeatureCollection",
"features": [
	{"geometry":{"coordinates":[11.583986,47.761132],"type":"Point"},"properties":{"osm_id":"274014851","tag":{"amenity":"recycling","location":"overground","recycling:beverage_cartons":"yes","recycling_type":"container"}},"type":"Feature"},
	{"geometry":{"coordinates":[11.574519,47.761792],"type":"Point"},"properties":{"osm_id":"312798245","tag":{"amenity":"recycling","recycling:glass_bottles":"yes","recycling_type":"container"}},"type":"Feature"},
	{"geometry":{"coordinates":[11.569159,47.763674],"type":"Point"},"properties":{"name":"Wertstoffhof","osm_id":"392411246","tag":{"amenity":"recycling","recycling_type":"centre"}},"type":"Feature"},
	{"geometry":{"coordinates":[11.553721,47.756401],"type":"Point"},"properties":{"osm_id":"443815741","tag":{"amenity":"recycling"}},"type":"Feature"},
	{"geometry":{"coordinates":[11.548679,47.763604],"type":"Point"},"properties":{"osm_id":"746659004","tag":{"amenity":"waste_basket","odbl":"clean"}},"type":"Feature"},
	{"geometry":{"coordinates":[11.553988,47.761852],"type":"Point"},"properties":{"osm_id":"746659007","tag":{"amenity":"waste_basket","check_date":"2021-08-20"}},"type":"Feature"},
	{"geometry":{"coordinates":[11.574694,47.761982],"type":"Point"},"properties":{"osm_id":"893279440","tag":{"amenity":"recycling"}},"type":"Feature"},
	{"geometry":{"coordinates":[11.583126,47.757403],"type":"Point"},"properties":{"osm_id":"977842031","tag":{"amenity":"recycling","recycling:beverage_cartons":"yes","recycling:glass":"yes"}},"type":"Feature"},
	{"geometry":{"coordinates":[11.562125,47.756799],"type":"Point"},"properties":{"osm_id":"980824466","tag":{"amenity":"recycling"}},"type":"Feature"},
	{"geometry":{"coordinates":[11.572175,47.759615],"type":"Point"},"properties":{"osm_id":"1261301996","tag":{"amenity":"recycling","recycling:clothes":"yes","recycling:glass":"yes"}},"type":"Feature"},
	{"geometry":{"coordinates":[11.587785,47.756849],"type":"Point"},"properties":{"osm_id":"2883011413","tag":{"amenity":"waste_basket"}},"type":"Feature"},
	{"geometry":{"coordinates":[11.551834,47.773098],"type":"Point"},"properties":{"osm_id":"2945994576","tag":{"amenity":"recycling","location":"overground","recycling:glass":"yes","recycling_type":"container"}},"type":"Feature"},
	{"geometry":{"coordinates":[11.586191,47.76011],"type":"Point"},"properties":{"osm_id":"4372204692","tag":{"amenity":"waste_basket"}},"type":"Feature"},
	{"geometry":{"coordinates":[11.548873,47.763136],"type":"Point"},"properties":{"osm_id":"5258039803","tag":{"amenity":"recycling","recycling:glass":"yes","recycling_type":"container"}},"type":"Feature"},
	{"geometry":{"coordinates":[11.591331,47.810807],"type":"Point"},"properties":{"osm_id":"5569749614","tag":{"amenity":"waste_basket","waste":"dog_excrement"}},"type":"Feature"},
	{"geometry":{"coordinates":[11.558108,47.75828],"type":"Point"},"properties":{"osm_id":"7040044637","tag":{"amenity":"waste_basket"}},"type":"Feature"},
	{"geometry":{"coordinates":[11.557932,47.758957],"type":"Point"},"properties":{"osm_id":"7040044643","tag":{"amenity":"waste_basket"}},"type":"Feature"},
	{"geometry":{"coordinates":[11.557785,47.759519],"type":"Point"},"properties":{"osm_id":"7040044645","tag":{"amenity":"waste_basket"}},"type":"Feature"},
	{"geometry":{"coordinates":[11.581119,47.767207],"type":"Point"},"properties":{"osm_id":"7458208849","tag":{"amenity":"waste_basket"}},"type":"Feature"},
	{"geometry":{"coordinates":[11.581785,47.75834],"type":"Point"},"properties":{"osm_id":"7466834346","tag":{"amenity":"waste_basket"}},"type":"Feature"},
	{"geometry":{"coordinates":[11.562386,47.754098],"type":"Point"},"properties":{"osm_id":"8729051253","tag":{"amenity":"recycling","recycling:clothes":"yes","recycling_type":"container"}},"type":"Feature"},
	{"geometry":{"coordinates":[11.551436,47.758567],"type":"Point"},"properties":{"osm_id":"8892293193","tag":{"amenity":"recycling"}},"type":"Feature"}
]
}
