{
"type": "FeatureCollection",
"lastupdate": "2020-08-06T00:00:00Z",
"features": [
	{"geometry":{"coordinates":[11.553932,46.041861],"type":"Point"},"properties":{"osm_id":"2719640174","tag":{"amenity":"recycling","recycling_type":"container"}},"type":"Feature"},
	{"geometry":{"coordinates":[11.528199,46.05255],"type":"Point"},"properties":{"osm_id":"3919230509","tag":{"amenity":"recycling","recycling:glass":"yes","recycling_type":"container"}},"type":"Feature"},
	{"geometry":{"coordinates":[11.528218,46.052569],"type":"Point"},"properties":{"osm_id":"3919230512","tag":{"amenity":"recycling","recycling_type":"container"}},"type":"Feature"},
	{"geometry":{"coordinates":[11.528247,46.052645],"type":"Point"},"properties":{"osm_id":"3919230517","tag":{"amenity":"waste_basket"}},"type":"Feature"},
	{"geometry":{"coordinates":[11.523965,46.054553],"type":"Point"},"properties":{"barrier":"gate","osm_id":"4306331434","tag":{"access":"private","material":"metal"}},"type":"Feature"},
	{"geometry":{"coordinates":[11.532907,46.066502],"type":"Point"},"properties":{"osm_id":"5474058105","tag":{"amenity":"waste_basket"}},"type":"Feature"},
	{"geometry":{"coordinates":[11.568732,46.035789],"type":"Point"},"properties":{"name":"CRM Ospedaletto","osm_id":"6681856176","tag":{"addr:city":"Ospedaletto","addr:country":"IT","addr:postcode":"38050","addr:province":"TN","addr:state":"IT","addr:street":"Via Pradanella","amenity":"recycling","recycling_type":"centre"}},"type":"Feature"}
]
}
