{
"type": "FeatureCollection",
"features": [
	{"geometry":{"coordinates":[11.541556,3.869301],"type":"Point"},"properties":{"osm_id":"4756333743","tag":{"amenity":"waste_basket","designation":"Open dumpster"}},"type":"Feature"},
	{"geometry":{"coordinates":[11.567359,3.874831],"type":"Point"},"properties":{"osm_id":"5758799546","tag":{"amenity":"waste_disposal","waste":"d\u00c3\u00a9chets m\u00c3\u00a9nagers"}},"type":"Feature"},
	{"geometry":{"coordinates":[11.566148,3.882799],"type":"Point"},"properties":{"osm_id":"5758799547","tag":{"amenity":"waste_disposal","waste":"d\u00c3\u00a9chets m\u00c3\u00a9nagers"}},"type":"Feature"},
	{"geometry":{"coordinates":[11.519562,3.925155],"type":"Point"},"properties":{"osm_id":"5758861155","tag":{"amenity":"waste_basket","waste":"mixte"}},"type":"Feature"},
	{"geometry":{"coordinates":[11.525796,3.927457],"type":"Point"},"properties":{"osm_id":"5758861156","tag":{"amenity":"waste_basket","waste":"mixte"}},"type":"Feature"},
	{"geometry":{"coordinates":[11.522588,3.927012],"type":"Point"},"properties":{"osm_id":"5758861157","tag":{"amenity":"waste_basket","waste":"mixte"}},"type":"Feature"},
	{"geometry":{"coordinates":[11.533429,3.871155],"type":"Point"},"properties":{"osm_id":"7150598842","tag":{"amenity":"waste_basket"}},"type":"Feature"},
	{"geometry":{"coordinates":[11.53053,3.869518],"type":"Point"},"properties":{"osm_id":"7150598843","tag":{"amenity":"waste_basket"}},"type":"Feature"},
	{"geometry":{"coordinates":[11.534899,3.870021],"type":"Point"},"properties":{"osm_id":"7150598844","tag":{"amenity":"waste_basket"}},"type":"Feature"},
	{"geometry":{"coordinates":[11.537229,3.867908],"type":"Point"},"properties":{"osm_id":"7150598845","tag":{"amenity":"waste_basket"}},"type":"Feature"},
	{"geometry":{"coordinates":[11.534781,3.865798],"type":"Point"},"properties":{"osm_id":"7150598846","tag":{"amenity":"waste_basket"}},"type":"Feature"},
	{"geometry":{"coordinates":[11.532926,3.868426],"type":"Point"},"properties":{"osm_id":"7150598847","tag":{"amenity":"waste_basket"}},"type":"Feature"},
	{"geometry":{"coordinates":[11.530913,3.86795],"type":"Point"},"properties":{"osm_id":"7150621593","tag":{"amenity":"waste_basket"}},"type":"Feature"},
	{"geometry":{"coordinates":[11.529473,3.86449],"type":"Point"},"properties":{"osm_id":"7150621594","tag":{"amenity":"waste_basket"}},"type":"Feature"},
	{"geometry":{"coordinates":[11.528918,3.866998],"type":"Point"},"properties":{"osm_id":"7150621595","tag":{"amenity":"waste_basket"}},"type":"Feature"},
	{"geometry":{"coordinates":[11.525053,3.865351],"type":"Point"},"properties":{"osm_id":"7150621597","tag":{"amenity":"waste_basket"}},"type":"Feature"},
	{"geometry":{"coordinates":[11.532488,3.86716],"type":"Point"},"properties":{"osm_id":"7150621599","tag":{"amenity":"waste_basket"}},"type":"Feature"},
	{"geometry":{"coordinates":[11.533739,3.864962],"type":"Point"},"properties":{"osm_id":"7150622260","tag":{"amenity":"waste_basket"}},"type":"Feature"},
	{"geometry":{"coordinates":[11.52752,3.869331],"type":"Point"},"properties":{"osm_id":"7150622261","tag":{"amenity":"waste_basket"}},"type":"Feature"},
	{"geometry":{"coordinates":[11.533428,3.873095],"type":"Point"},"properties":{"osm_id":"7150629874","tag":{"amenity":"waste_basket"}},"type":"Feature"},
	{"geometry":{"coordinates":[11.53991,3.877539],"type":"Point"},"properties":{"osm_id":"7150629875","tag":{"amenity":"waste_basket"}},"type":"Feature"},
	{"geometry":{"coordinates":[11.541857,3.874542],"type":"Point"},"properties":{"osm_id":"7150629876","tag":{"amenity":"waste_basket"}},"type":"Feature"},
	{"geometry":{"coordinates":[11.540507,3.872016],"type":"Point"},"properties":{"osm_id":"7150629877","tag":{"amenity":"waste_basket"}},"type":"Feature"},
	{"geometry":{"coordinates":[11.550779,3.880019],"type":"Point"},"properties":{"osm_id":"7150640771","tag":{"amenity":"waste_basket"}},"type":"Feature"},
	{"geometry":{"coordinates":[11.543357,3.8777],"type":"Point"},"properties":{"osm_id":"7150640772","tag":{"amenity":"waste_basket"}},"type":"Feature"},
	{"geometry":{"coordinates":[11.548377,3.879012],"type":"Point"},"properties":{"osm_id":"7150640773","tag":{"amenity":"waste_basket"}},"type":"Feature"},
	{"geometry":{"coordinates":[11.544109,3.881916],"type":"Point"},"properties":{"osm_id":"7150640774","tag":{"amenity":"waste_basket"}},"type":"Feature"},
	{"geometry":{"coordinates":[11.541449,3.887731],"type":"Point"},"properties":{"osm_id":"7150644421","tag":{"amenity":"waste_basket"}},"type":"Feature"},
	{"geometry":{"coordinates":[11.538984,3.882062],"type":"Point"},"properties":{"osm_id":"7150644422","tag":{"amenity":"waste_basket"}},"type":"Feature"},
	{"geometry":{"coordinates":[11.535779,3.886154],"type":"Point"},"properties":{"osm_id":"7150644423","tag":{"amenity":"waste_basket"}},"type":"Feature"},
	{"geometry":{"coordinates":[11.541216,3.8839],"type":"Point"},"properties":{"osm_id":"7150644424","tag":{"amenity":"waste_basket"}},"type":"Feature"},
	{"geometry":{"coordinates":[11.566934,3.882711],"type":"Point"},"properties":{"osm_id":"7150645413","tag":{"amenity":"waste_basket"}},"type":"Feature"},
	{"geometry":{"coordinates":[11.56081,3.904699],"type":"Point"},"properties":{"osm_id":"7150645754","tag":{"amenity":"waste_basket"}},"type":"Feature"},
	{"geometry":{"coordinates":[11.558569,3.901013],"type":"Point"},"properties":{"osm_id":"7150645755","tag":{"amenity":"waste_basket"}},"type":"Feature"},
	{"geometry":{"coordinates":[11.554464,3.899817],"type":"Point"},"properties":{"osm_id":"7150645756","tag":{"amenity":"waste_basket"}},"type":"Feature"},
	{"geometry":{"coordinates":[11.558849,3.902579],"type":"Point"},"properties":{"osm_id":"7150645757","tag":{"amenity":"waste_basket"}},"type":"Feature"},
	{"geometry":{"coordinates":[11.544377,3.904124],"type":"Point"},"properties":{"osm_id":"7150654993","tag":{"amenity":"waste_basket"}},"type":"Feature"},
	{"geometry":{"coordinates":[11.542479,3.906816],"type":"Point"},"properties":{"osm_id":"7150654994","tag":{"amenity":"waste_basket"}},"type":"Feature"},
	{"geometry":{"coordinates":[11.54179,3.907642],"type":"Point"},"properties":{"osm_id":"7150654995","tag":{"amenity":"waste_basket"}},"type":"Feature"},
	{"geometry":{"coordinates":[11.54183,3.904693],"type":"Point"},"properties":{"osm_id":"7150654996","tag":{"amenity":"waste_basket"}},"type":"Feature"},
	{"geometry":{"coordinates":[11.567063,3.893266],"type":"Point"},"properties":{"osm_id":"7150655826","tag":{"amenity":"waste_basket"}},"type":"Feature"},
	{"geometry":{"coordinates":[11.565435,3.891388],"type":"Point"},"properties":{"osm_id":"7150655827","tag":{"amenity":"waste_basket"}},"type":"Feature"},
	{"geometry":{"coordinates":[11.566973,3.892219],"type":"Point"},"properties":{"osm_id":"7150655828","tag":{"amenity":"waste_basket"}},"type":"Feature"},
	{"geometry":{"coordinates":[11.564822,3.891303],"type":"Point"},"properties":{"osm_id":"7150655829","tag":{"amenity":"waste_basket"}},"type":"Feature"},
	{"geometry":{"coordinates":[11.550369,3.886583],"type":"Point"},"properties":{"osm_id":"7151093678","tag":{"amenity":"waste_basket"}},"type":"Feature"},
	{"geometry":{"coordinates":[11.543229,3.890294],"type":"Point"},"properties":{"osm_id":"7151093679","tag":{"amenity":"waste_basket"}},"type":"Feature"},
	{"geometry":{"coordinates":[11.556832,3.906535],"type":"Point"},"properties":{"osm_id":"7151142982","tag":{"amenity":"waste_basket"}},"type":"Feature"},
	{"geometry":{"coordinates":[11.565227,3.906773],"type":"Point"},"properties":{"osm_id":"7151142983","tag":{"amenity":"waste_basket"}},"type":"Feature"},
	{"geometry":{"coordinates":[11.571417,3.907726],"type":"Point"},"properties":{"osm_id":"7151142984","tag":{"amenity":"waste_basket"}},"type":"Feature"},
	{"geometry":{"coordinates":[11.549791,3.89774],"type":"Point"},"properties":{"osm_id":"7151162866","tag":{"amenity":"waste_basket"}},"type":"Feature"},
	{"geometry":{"coordinates":[11.547053,3.899763],"type":"Point"},"properties":{"osm_id":"7151162867","tag":{"amenity":"waste_basket"}},"type":"Feature"},
	{"geometry":{"coordinates":[11.542152,3.897962],"type":"Point"},"properties":{"osm_id":"7151162868","tag":{"amenity":"waste_basket"}},"type":"Feature"},
	{"geometry":{"coordinates":[11.540538,3.917818],"type":"Point"},"properties":{"osm_id":"7151177329","tag":{"amenity":"waste_basket"}},"type":"Feature"},
	{"geometry":{"coordinates":[11.543806,3.910498],"type":"Point"},"properties":{"osm_id":"7151185278","tag":{"amenity":"waste_basket"}},"type":"Feature"}
]
}
