{
"type": "FeatureCollection",
"features": [
	{"geometry":{"coordinates":[5.006477,52.222069],"type":"Point"},"properties":{"osm_id":"1208059593","tag":{"amenity":"waste_basket"}},"type":"Feature"},
	{"geometry":{"coordinates":[4.998232,52.229375],"type":"Point"},"properties":{"osm_id":"1240170206","tag":{"amenity":"waste_basket"}},"type":"Feature"},
	{"geometry":{"coordinates":[4.998334,52.230029],"type":"Point"},"properties":{"osm_id":"1240170375","tag":{"amenity":"waste_basket"}},"type":"Feature"},
	{"geometry":{"coordinates":[4.987414,52.247388],"type":"Point"},"properties":{"osm_id":"1274434711","tag":{"amenity":"waste_basket"}},"type":"Feature"},
	{"geometry":{"coordinates":[4.981623,52.252676],"type":"Point"},"properties":{"osm_id":"1274434714","tag":{"amenity":"waste_basket"}},"type":"Feature"},
	{"geometry":{"coordinates":[4.972352,52.26285],"type":"Point"},"properties":{"osm_id":"1274434775","tag":{"amenity":"waste_basket"}},"type":"Feature"},
	{"geometry":{"coordinates":[4.990139,52.246561],"type":"Point"},"properties":{"osm_id":"1274434799","tag":{"amenity":"waste_basket"}},"type":"Feature"},
	{"geometry":{"coordinates":[4.977743,52.259618],"type":"Point"},"properties":{"osm_id":"1274434948","tag":{"amenity":"waste_basket"}},"type":"Feature"},
	{"geometry":{"coordinates":[4.966272,52.252906],"type":"Point"},"properties":{"osm_id":"1484658760","tag":{"amenity":"waste_basket"}},"type":"Feature"},
	{"geometry":{"coordinates":[4.946472,52.258721],"type":"Point"},"properties":{"osm_id":"1484744214","tag":{"amenity":"waste_basket"}},"type":"Feature"},
	{"geometry":{"coordinates":[4.993696,52.2504],"type":"Point"},"properties":{"osm_id":"1484936689","tag":{"amenity":"waste_basket"}},"type":"Feature"},
	{"geometry":{"coordinates":[4.987514,52.25908],"type":"Point"},"properties":{"osm_id":"1484936744","tag":{"amenity":"waste_basket"}},"type":"Feature"},
	{"geometry":{"coordinates":[4.97862,52.260613],"type":"Point"},"properties":{"osm_id":"1484936767","tag":{"amenity":"waste_basket"}},"type":"Feature"},
	{"geometry":{"coordinates":[4.995296,52.258707],"type":"Point"},"properties":{"osm_id":"5134915589","tag":{"amenity":"waste_basket"}},"type":"Feature"},
	{"geometry":{"coordinates":[5.00397,52.219396],"type":"Point"},"properties":{"osm_id":"5599340426","tag":{"amenity":"waste_basket"}},"type":"Feature"},
	{"geometry":{"coordinates":[5.001537,52.225825],"type":"Point"},"properties":{"osm_id":"7529688619","tag":{"amenity":"waste_basket","waste":"trash"}},"type":"Feature"},
	{"geometry":{"coordinates":[4.998268,52.227018],"type":"Point"},"properties":{"osm_id":"7529688638","tag":{"amenity":"waste_basket","waste":"trash"}},"type":"Feature"}
]
}
