{
"type": "FeatureCollection",
"lastupdate": "2020-07-31T00:00:00Z",
"features": [
	{"geometry":{"coordinates":[5.007896,52.195843],"type":"Point"},"properties":{"osm_id":"1198264119","tag":{"amenity":"waste_basket"}},"type":"Feature"},
	{"geometry":{"coordinates":[5.003607,52.180071],"type":"Point"},"properties":{"osm_id":"1207915018","tag":{"amenity":"waste_basket"}},"type":"Feature"},
	{"geometry":{"coordinates":[4.933663,52.207828],"type":"Point"},"properties":{"osm_id":"1228992653","tag":{"amenity":"recycling","mapillary":"svtKfgspJTtYS_f0dYhysw","recycling:glass":"no","recycling:glass_bottles":"yes","recycling_type":"container","survey:date":"2020-05-22"}},"type":"Feature"},
	{"geometry":{"coordinates":[4.928578,52.187114],"type":"Point"},"properties":{"osm_id":"1228992685","tag":{"amenity":"waste_basket"}},"type":"Feature"},
	{"geometry":{"coordinates":[4.934103,52.20815],"type":"Point"},"properties":{"osm_id":"1228992734","tag":{"amenity":"waste_basket"}},"type":"Feature"},
	{"geometry":{"coordinates":[4.928873,52.187285],"type":"Point"},"properties":{"osm_id":"1228992788","tag":{"amenity":"waste_basket"}},"type":"Feature"},
	{"geometry":{"coordinates":[4.988499,52.184713],"type":"Point"},"properties":{"osm_id":"6893507393","tag":{"amenity":"waste_basket","waste":"trash"}},"type":"Feature"},
	{"geometry":{"coordinates":[4.988397,52.184493],"type":"Point"},"properties":{"osm_id":"6893507394","tag":{"amenity":"waste_basket","waste":"trash"}},"type":"Feature"},
	{"geometry":{"coordinates":[4.988201,52.184211],"type":"Point"},"properties":{"osm_id":"6893507395","tag":{"amenity":"waste_basket","waste":"trash"}},"type":"Feature"},
	{"geometry":{"coordinates":[4.988092,52.184397],"type":"Point"},"properties":{"osm_id":"6893507396","tag":{"amenity":"waste_basket","waste":"trash"}},"type":"Feature"},
	{"geometry":{"coordinates":[4.988064,52.184883],"type":"Point"},"properties":{"osm_id":"6893507397","tag":{"amenity":"waste_basket","waste":"trash"}},"type":"Feature"},
	{"geometry":{"coordinates":[4.988068,52.184689],"type":"Point"},"properties":{"osm_id":"6893507398","tag":{"amenity":"waste_basket","waste":"trash"}},"type":"Feature"},
	{"geometry":{"coordinates":[4.988176,52.184772],"type":"Point"},"properties":{"osm_id":"6893507399","tag":{"amenity":"waste_basket","waste":"trash"}},"type":"Feature"},
	{"geometry":{"coordinates":[4.987739,52.184848],"type":"Point"},"properties":{"osm_id":"6893507400","tag":{"amenity":"waste_basket","waste":"trash"}},"type":"Feature"},
	{"geometry":{"coordinates":[4.987748,52.184596],"type":"Point"},"properties":{"osm_id":"6893507401","tag":{"amenity":"waste_basket","waste":"trash"}},"type":"Feature"},
	{"geometry":{"coordinates":[4.987811,52.184213],"type":"Point"},"properties":{"osm_id":"6893507402","tag":{"amenity":"waste_basket","waste":"trash"}},"type":"Feature"}
]
}
