{
"type": "FeatureCollection",
"features": [
	{"geometry":{"coordinates":[4.946949,52.148157],"type":"Point"},"properties":{"osm_id":"1247754140","tag":{"amenity":"recycling","mapillary":"8uIg-uUVHpw1gmAYL97xng","recycling:glass":"no","recycling:glass_bottles":"yes","recycling_type":"container","survey:date":"2020-05-09"}},"type":"Feature"},
	{"geometry":{"coordinates":[4.947638,52.147585],"type":"Point"},"properties":{"osm_id":"1247754163","tag":{"amenity":"waste_basket"}},"type":"Feature"},
	{"geometry":{"coordinates":[4.946064,52.141585],"type":"Point"},"properties":{"osm_id":"1247754170","tag":{"amenity":"waste_basket"}},"type":"Feature"},
	{"geometry":{"coordinates":[4.947688,52.148044],"type":"Point"},"properties":{"osm_id":"1247754201","tag":{"amenity":"waste_basket"}},"type":"Feature"},
	{"geometry":{"coordinates":[4.958837,52.139151],"type":"Point"},"properties":{"osm_id":"1247754206","tag":{"amenity":"waste_basket"}},"type":"Feature"},
	{"geometry":{"coordinates":[4.986555,52.119752],"type":"Point"},"properties":{"osm_id":"3621793216","tag":{"amenity":"waste_basket"}},"type":"Feature"},
	{"geometry":{"coordinates":[4.986309,52.119732],"type":"Point"},"properties":{"osm_id":"3621793217","tag":{"amenity":"waste_basket"}},"type":"Feature"},
	{"geometry":{"coordinates":[5.008748,52.10709],"type":"Point"},"properties":{"osm_id":"4326633513","tag":{"amenity":"waste_basket","ref:source":"1247028.0"}},"type":"Feature"},
	{"geometry":{"coordinates":[4.991689,52.108889],"type":"Point"},"properties":{"osm_id":"4326633543","tag":{"amenity":"waste_basket","ref:source":"1247045.0"}},"type":"Feature"},
	{"geometry":{"coordinates":[4.992921,52.111054],"type":"Point"},"properties":{"osm_id":"4326633560","tag":{"amenity":"waste_basket","ref:source":"1247047.0"}},"type":"Feature"},
	{"geometry":{"coordinates":[5.009382,52.111505],"type":"Point"},"properties":{"osm_id":"4326633566","tag":{"amenity":"waste_basket","ref:source":"1247113.0"}},"type":"Feature"},
	{"geometry":{"coordinates":[4.983325,52.113366],"type":"Point"},"properties":{"osm_id":"4326633578","tag":{"amenity":"waste_basket","ref:source":"1247068.0"}},"type":"Feature"},
	{"geometry":{"coordinates":[4.983324,52.113378],"type":"Point"},"properties":{"osm_id":"4326633579","tag":{"amenity":"waste_basket","ref:source":"1247069.0"}},"type":"Feature"},
	{"geometry":{"coordinates":[4.994641,52.114184],"type":"Point"},"properties":{"osm_id":"4326633582","tag":{"amenity":"waste_basket","ref:source":"1247049.0"}},"type":"Feature"},
	{"geometry":{"coordinates":[4.976496,52.117333],"type":"Point"},"properties":{"osm_id":"4326633612","tag":{"amenity":"waste_basket","ref:source":"1247324.0"}},"type":"Feature"},
	{"geometry":{"coordinates":[4.993751,52.118366],"type":"Point"},"properties":{"osm_id":"4326633618","tag":{"amenity":"waste_basket","ref:source":"1247370.0"}},"type":"Feature"},
	{"geometry":{"coordinates":[4.998202,52.118846],"type":"Point"},"properties":{"osm_id":"4326633619","tag":{"amenity":"waste_basket","ref:source":"1247410.0"}},"type":"Feature"},
	{"geometry":{"coordinates":[4.997454,52.118846],"type":"Point"},"properties":{"osm_id":"4326633620","tag":{"amenity":"waste_basket","ref:source":"1247374.0"}},"type":"Feature"},
	{"geometry":{"coordinates":[4.983054,52.119621],"type":"Point"},"properties":{"osm_id":"4326633621","tag":{"amenity":"waste_basket","ref:source":"1247319.0"}},"type":"Feature"},
	{"geometry":{"coordinates":[4.986261,52.119745],"type":"Point"},"properties":{"osm_id":"4326633622","tag":{"amenity":"waste_basket","ref:source":"1247367.0"}},"type":"Feature"},
	{"geometry":{"coordinates":[4.986634,52.119769],"type":"Point"},"properties":{"osm_id":"4326633623","tag":{"amenity":"waste_basket","ref:source":"1247364.0"}},"type":"Feature"},
	{"geometry":{"coordinates":[4.998108,52.120378],"type":"Point"},"properties":{"osm_id":"4326633625","tag":{"amenity":"waste_basket","ref:source":"1247404.0"}},"type":"Feature"},
	{"geometry":{"coordinates":[4.996294,52.12038],"type":"Point"},"properties":{"osm_id":"4326633626","tag":{"amenity":"waste_basket","ref:source":"1247379.0"}},"type":"Feature"},
	{"geometry":{"coordinates":[4.996714,52.12058],"type":"Point"},"properties":{"osm_id":"4326633627","tag":{"amenity":"waste_basket","ref:source":"1247381.0"}},"type":"Feature"},
	{"geometry":{"coordinates":[4.99774,52.120946],"type":"Point"},"properties":{"osm_id":"4326633628","tag":{"amenity":"waste_basket","ref:source":"1247403.0"}},"type":"Feature"},
	{"geometry":{"coordinates":[4.998565,52.122186],"type":"Point"},"properties":{"osm_id":"4326633630","tag":{"amenity":"waste_basket","ref:source":"1247391.0"}},"type":"Feature"},
	{"geometry":{"coordinates":[4.997576,52.122395],"type":"Point"},"properties":{"osm_id":"4326633631","tag":{"amenity":"waste_basket","ref:source":"1247394.0"}},"type":"Feature"},
	{"geometry":{"coordinates":[4.998723,52.122395],"type":"Point"},"properties":{"osm_id":"4326633632","tag":{"amenity":"waste_basket","ref:source":"1247390.0"}},"type":"Feature"},
	{"geometry":{"coordinates":[4.998657,52.123578],"type":"Point"},"properties":{"osm_id":"4326633634","tag":{"amenity":"waste_basket","ref:source":"1247302.0"}},"type":"Feature"},
	{"geometry":{"coordinates":[4.953468,52.149504],"type":"Point"},"properties":{"osm_id":"6308071440","tag":{"amenity":"recycling","location":"underground","recycling:clothes":"yes","recycling:glass_bottles":"yes","recycling:plastic":"yes","recycling_type":"container"}},"type":"Feature"},
	{"geometry":{"coordinates":[4.948806,52.148792],"type":"Point"},"properties":{"osm_id":"6308071441","tag":{"amenity":"recycling","recycling:clothes":"yes","recycling_type":"container"}},"type":"Feature"}
]
}
