{
"type": "FeatureCollection",
"features": [
	{"geometry":{"coordinates":[4.980935,51.830686],"type":"Point"},"properties":{"osm_id":"877826821","tag":{"amenity":"waste_basket"}},"type":"Feature"},
	{"geometry":{"coordinates":[4.980899,51.830651],"type":"Point"},"properties":{"osm_id":"877826852","tag":{"amenity":"recycling","location":"underground","recycling:glass":"yes","recycling:plastic_bags":"yes","recycling:plastic_bottles":"yes","recycling:plastic_packaging":"yes","recycling_type":"container"}},"type":"Feature"},
	{"geometry":{"coordinates":[4.975097,51.830319],"type":"Point"},"properties":{"osm_id":"879338363","tag":{"amenity":"waste_basket"}},"type":"Feature"},
	{"geometry":{"coordinates":[4.97208,51.83058],"type":"Point"},"properties":{"osm_id":"879338380","tag":{"amenity":"waste_basket"}},"type":"Feature"},
	{"geometry":{"coordinates":[4.975764,51.830229],"type":"Point"},"properties":{"osm_id":"879338388","tag":{"amenity":"waste_basket"}},"type":"Feature"},
	{"geometry":{"coordinates":[4.974813,51.830331],"type":"Point"},"properties":{"osm_id":"879338393","tag":{"amenity":"waste_basket"}},"type":"Feature"},
	{"geometry":{"coordinates":[4.974071,51.830325],"type":"Point"},"properties":{"osm_id":"879338395","tag":{"amenity":"waste_basket"}},"type":"Feature"},
	{"geometry":{"coordinates":[4.973458,51.830412],"type":"Point"},"properties":{"osm_id":"879338403","tag":{"amenity":"waste_basket"}},"type":"Feature"},
	{"geometry":{"coordinates":[4.972741,51.830512],"type":"Point"},"properties":{"osm_id":"879338409","tag":{"amenity":"waste_basket"}},"type":"Feature"},
	{"geometry":{"coordinates":[4.976332,51.830112],"type":"Point"},"properties":{"osm_id":"879338425","tag":{"amenity":"waste_basket"}},"type":"Feature"},
	{"geometry":{"coordinates":[4.971736,51.830581],"type":"Point"},"properties":{"osm_id":"879338429","tag":{"amenity":"waste_basket"}},"type":"Feature"},
	{"geometry":{"coordinates":[4.974477,51.830296],"type":"Point"},"properties":{"osm_id":"879338431","tag":{"amenity":"waste_basket"}},"type":"Feature"},
	{"geometry":{"coordinates":[4.973899,51.830387],"type":"Point"},"properties":{"osm_id":"879338468","tag":{"amenity":"waste_basket"}},"type":"Feature"},
	{"geometry":{"coordinates":[4.973265,51.83043],"type":"Point"},"properties":{"osm_id":"879338473","tag":{"amenity":"waste_basket"}},"type":"Feature"},
	{"geometry":{"coordinates":[4.97626,51.830173],"type":"Point"},"properties":{"osm_id":"879338494","tag":{"amenity":"waste_basket"}},"type":"Feature"},
	{"geometry":{"coordinates":[4.972251,51.830531],"type":"Point"},"properties":{"osm_id":"879338520","tag":{"amenity":"waste_basket"}},"type":"Feature"},
	{"geometry":{"coordinates":[4.971555,51.830619],"type":"Point"},"properties":{"osm_id":"879338522","tag":{"amenity":"waste_basket"}},"type":"Feature"},
	{"geometry":{"coordinates":[4.971295,51.830581],"type":"Point"},"properties":{"osm_id":"879338527","tag":{"amenity":"waste_basket"}},"type":"Feature"},
	{"geometry":{"coordinates":[4.974333,51.830367],"type":"Point"},"properties":{"osm_id":"879338546","tag":{"amenity":"waste_basket"}},"type":"Feature"},
	{"geometry":{"coordinates":[4.973587,51.830356],"type":"Point"},"properties":{"osm_id":"879338561","tag":{"amenity":"waste_basket"}},"type":"Feature"},
	{"geometry":{"coordinates":[4.973122,51.830395],"type":"Point"},"properties":{"osm_id":"879338568","tag":{"amenity":"waste_basket"}},"type":"Feature"},
	{"geometry":{"coordinates":[4.976975,51.830145],"type":"Point"},"properties":{"osm_id":"879350216","tag":{"amenity":"recycling","location":"underground","recycling_type":"container"}},"type":"Feature"},
	{"geometry":{"coordinates":[4.980748,51.831707],"type":"Point"},"properties":{"osm_id":"894112719","tag":{"amenity":"waste_basket"}},"type":"Feature"},
	{"geometry":{"coordinates":[4.978019,51.827718],"type":"Point"},"properties":{"osm_id":"894123691","tag":{"amenity":"waste_basket"}},"type":"Feature"},
	{"geometry":{"coordinates":[4.977958,51.827742],"type":"Point"},"properties":{"osm_id":"894123715","tag":{"amenity":"recycling","location":"underground","recycling:glass":"yes","recycling_type":"container"}},"type":"Feature"},
	{"geometry":{"coordinates":[4.978919,51.831978],"type":"Point"},"properties":{"osm_id":"896349385","tag":{"amenity":"waste_basket"}},"type":"Feature"},
	{"geometry":{"coordinates":[4.976565,51.832973],"type":"Point"},"properties":{"osm_id":"905949772","tag":{"amenity":"recycling","recycling:cans":"yes","recycling_type":"container"}},"type":"Feature"},
	{"geometry":{"coordinates":[4.974268,51.829513],"type":"Point"},"properties":{"osm_id":"1077256067","tag":{"amenity":"recycling","mapillary":"HOvFglb4g-7eDr1-OTqukg","recycling:glass":"no","recycling:glass_bottles":"yes","recycling_type":"container","survey:date":"2019-05-12"}},"type":"Feature"},
	{"geometry":{"coordinates":[4.997579,51.832278],"type":"Point"},"properties":{"osm_id":"1082842484","tag":{"amenity":"recycling","recycling:cans":"yes","recycling:glass":"yes","recycling_type":"container"}},"type":"Feature"},
	{"geometry":{"coordinates":[4.987382,51.829827],"type":"Point"},"properties":{"osm_id":"1329738720","tag":{"amenity":"recycling","recycling:cans":"yes","recycling:glass":"yes","recycling:paper":"yes","recycling_type":"container"}},"type":"Feature"},
	{"geometry":{"coordinates":[5.006879,51.826881],"type":"Point"},"properties":{"osm_id":"1351714653","tag":{"amenity":"recycling","recycling:cans":"yes","recycling:glass":"yes","recycling:paper":"yes","recycling_type":"container"}},"type":"Feature"},
	{"geometry":{"coordinates":[4.966786,51.829715],"type":"Point"},"properties":{"osm_id":"1424371207","tag":{"amenity":"waste_basket"}},"type":"Feature"},
	{"geometry":{"coordinates":[4.976028,51.826871],"type":"Point"},"properties":{"osm_id":"2345755333","tag":{"amenity":"waste_basket"}},"type":"Feature"},
	{"geometry":{"coordinates":[4.976436,51.832622],"type":"Point"},"properties":{"osm_id":"2352795420","tag":{"amenity":"recycling","recycling:cans":"yes","recycling:glass":"yes","recycling_type":"container"}},"type":"Feature"},
	{"geometry":{"coordinates":[4.976433,51.832641],"type":"Point"},"properties":{"osm_id":"2352795423","tag":{"amenity":"waste_disposal"}},"type":"Feature"},
	{"geometry":{"coordinates":[4.976428,51.832665],"type":"Point"},"properties":{"osm_id":"2352795426","tag":{"amenity":"waste_disposal"}},"type":"Feature"},
	{"geometry":{"coordinates":[4.976836,51.833648],"type":"Point"},"properties":{"osm_id":"2352795577","tag":{"amenity":"waste_basket"}},"type":"Feature"},
	{"geometry":{"coordinates":[5.00274,51.826067],"type":"Point"},"properties":{"osm_id":"2850260061","tag":{"amenity":"waste_basket"}},"type":"Feature"},
	{"geometry":{"coordinates":[5.002578,51.826122],"type":"Point"},"properties":{"osm_id":"2850260062","tag":{"amenity":"waste_basket"}},"type":"Feature"},
	{"geometry":{"coordinates":[4.979015,51.828109],"type":"Point"},"properties":{"osm_id":"2850260075","tag":{"amenity":"waste_basket"}},"type":"Feature"},
	{"geometry":{"coordinates":[4.999449,51.816652],"type":"Point"},"properties":{"osm_id":"2850459840","tag":{"amenity":"waste_basket"}},"type":"Feature"},
	{"geometry":{"coordinates":[4.981062,51.816697],"type":"Point"},"properties":{"osm_id":"2850459841","tag":{"amenity":"waste_basket"}},"type":"Feature"},
	{"geometry":{"coordinates":[4.960388,51.818857],"type":"Point"},"properties":{"osm_id":"2850459851","tag":{"amenity":"waste_basket"}},"type":"Feature"},
	{"geometry":{"coordinates":[4.959499,51.819856],"type":"Point"},"properties":{"osm_id":"2850459856","tag":{"amenity":"waste_basket"}},"type":"Feature"},
	{"geometry":{"coordinates":[4.943297,51.813713],"type":"Point"},"properties":{"osm_id":"2850764410","tag":{"amenity":"waste_basket"}},"type":"Feature"},
	{"geometry":{"coordinates":[4.948328,51.820915],"type":"Point"},"properties":{"osm_id":"2850764428","tag":{"amenity":"waste_basket"}},"type":"Feature"},
	{"geometry":{"coordinates":[4.959929,51.819549],"type":"Point"},"properties":{"osm_id":"4411945112","tag":{"amenity":"waste_basket"}},"type":"Feature"},
	{"geometry":{"coordinates":[4.960228,51.833767],"type":"Point"},"properties":{"osm_id":"6244504783","tag":{"amenity":"recycling","recycling:glass":"yes","recycling:plastic":"yes","recycling:waste":"yes","recycling_type":"container"}},"type":"Feature"},
	{"geometry":{"coordinates":[4.959638,51.833751],"type":"Point"},"properties":{"osm_id":"6244504784","tag":{"amenity":"recycling","recycling:glass":"yes","recycling:plastic":"yes","recycling:waste":"yes","recycling_type":"container"}},"type":"Feature"},
	{"geometry":{"coordinates":[4.960887,51.833719],"type":"Point"},"properties":{"osm_id":"6244535713","tag":{"amenity":"waste_basket"}},"type":"Feature"},
	{"geometry":{"coordinates":[4.965138,51.834659],"type":"Point"},"properties":{"osm_id":"6255818159","tag":{"amenity":"recycling","location":"underground","recycling:glass":"yes","recycling:plastic":"yes","recycling:waste":"yes","recycling_type":"container"}},"type":"Feature"},
	{"geometry":{"coordinates":[4.966881,51.833769],"type":"Point"},"properties":{"osm_id":"6255874192","tag":{"amenity":"waste_basket","waste":"trash"}},"type":"Feature"},
	{"geometry":{"coordinates":[4.966789,51.833746],"type":"Point"},"properties":{"osm_id":"6255874193","tag":{"amenity":"waste_basket","waste":"trash"}},"type":"Feature"},
	{"geometry":{"coordinates":[4.967689,51.833425],"type":"Point"},"properties":{"osm_id":"6255876766","tag":{"amenity":"waste_basket","waste":"trash"}},"type":"Feature"},
	{"geometry":{"coordinates":[4.967342,51.83348],"type":"Point"},"properties":{"osm_id":"6255876767","tag":{"amenity":"waste_basket","waste":"trash"}},"type":"Feature"},
	{"geometry":{"coordinates":[4.967206,51.833228],"type":"Point"},"properties":{"osm_id":"6255876768","tag":{"amenity":"waste_basket","waste":"trash"}},"type":"Feature"},
	{"geometry":{"coordinates":[4.967329,51.833195],"type":"Point"},"properties":{"osm_id":"6255876769","tag":{"amenity":"waste_basket","waste":"trash"}},"type":"Feature"},
	{"geometry":{"coordinates":[4.96724,51.833091],"type":"Point"},"properties":{"osm_id":"6255876770","tag":{"amenity":"waste_basket","waste":"trash"}},"type":"Feature"},
	{"geometry":{"coordinates":[4.967112,51.833103],"type":"Point"},"properties":{"osm_id":"6255876771","tag":{"amenity":"waste_basket","waste":"trash"}},"type":"Feature"},
	{"geometry":{"coordinates":[4.966978,51.833124],"type":"Point"},"properties":{"osm_id":"6255876772","tag":{"amenity":"waste_basket","waste":"trash"}},"type":"Feature"},
	{"geometry":{"coordinates":[4.967093,51.833248],"type":"Point"},"properties":{"osm_id":"6255876773","tag":{"amenity":"waste_basket","waste":"trash"}},"type":"Feature"},
	{"geometry":{"coordinates":[4.967099,51.83348],"type":"Point"},"properties":{"osm_id":"6255876774","tag":{"amenity":"waste_basket","waste":"trash"}},"type":"Feature"},
	{"geometry":{"coordinates":[4.967328,51.833381],"type":"Point"},"properties":{"osm_id":"6255876775","tag":{"amenity":"waste_basket","waste":"trash"}},"type":"Feature"},
	{"geometry":{"coordinates":[4.955976,51.834488],"type":"Point"},"properties":{"osm_id":"6270203668","tag":{"amenity":"recycling","location":"underground","recycling:plastic":"yes","recycling_type":"container"}},"type":"Feature"},
	{"geometry":{"coordinates":[4.955965,51.83447],"type":"Point"},"properties":{"osm_id":"6270203669","tag":{"amenity":"recycling","location":"underground","recycling:paper":"yes","recycling_type":"container"}},"type":"Feature"},
	{"geometry":{"coordinates":[4.955955,51.834453],"type":"Point"},"properties":{"osm_id":"6270203670","tag":{"amenity":"recycling","location":"underground","recycling:glass":"yes","recycling_type":"container"}},"type":"Feature"},
	{"geometry":{"coordinates":[4.97039,51.826029],"type":"Point"},"properties":{"osm_id":"6284610349","tag":{"amenity":"waste_basket","waste":"trash"}},"type":"Feature"},
	{"geometry":{"coordinates":[4.968355,51.826419],"type":"Point"},"properties":{"osm_id":"6284613022","tag":{"amenity":"waste_basket","waste":"trash"}},"type":"Feature"},
	{"geometry":{"coordinates":[4.969343,51.82626],"type":"Point"},"properties":{"osm_id":"6284614827","tag":{"amenity":"waste_basket","waste":"trash"}},"type":"Feature"},
	{"geometry":{"coordinates":[4.969756,51.826118],"type":"Point"},"properties":{"osm_id":"6284614828","tag":{"amenity":"waste_basket","waste":"trash"}},"type":"Feature"},
	{"geometry":{"coordinates":[4.970167,51.825525],"type":"Point"},"properties":{"osm_id":"6284614853","tag":{"amenity":"waste_basket","waste":"trash"}},"type":"Feature"},
	{"geometry":{"coordinates":[4.97096,51.825318],"type":"Point"},"properties":{"osm_id":"6284614854","tag":{"amenity":"waste_basket","waste":"trash"}},"type":"Feature"},
	{"geometry":{"coordinates":[4.972961,51.825012],"type":"Point"},"properties":{"osm_id":"6284614867","tag":{"amenity":"waste_basket","waste":"trash"}},"type":"Feature"},
	{"geometry":{"coordinates":[4.969982,51.825967],"type":"Point"},"properties":{"osm_id":"6284615700","tag":{"amenity":"waste_basket","waste":"trash"}},"type":"Feature"},
	{"geometry":{"coordinates":[4.970411,51.826202],"type":"Point"},"properties":{"osm_id":"6284615726","tag":{"amenity":"waste_basket","waste":"trash"}},"type":"Feature"},
	{"geometry":{"coordinates":[4.970075,51.825682],"type":"Point"},"properties":{"osm_id":"6284615727","tag":{"amenity":"waste_basket","waste":"trash"}},"type":"Feature"},
	{"geometry":{"coordinates":[4.968819,51.826368],"type":"Point"},"properties":{"osm_id":"6284616006","tag":{"amenity":"waste_basket","waste":"trash"}},"type":"Feature"},
	{"geometry":{"coordinates":[4.970642,51.82537],"type":"Point"},"properties":{"osm_id":"6284616589","tag":{"amenity":"waste_basket","waste":"trash"}},"type":"Feature"},
	{"geometry":{"coordinates":[4.972602,51.825065],"type":"Point"},"properties":{"osm_id":"6284616591","tag":{"amenity":"waste_basket","waste":"trash"}},"type":"Feature"},
	{"geometry":{"coordinates":[4.972184,51.825127],"type":"Point"},"properties":{"osm_id":"6284616854","tag":{"amenity":"waste_basket","waste":"trash"}},"type":"Feature"},
	{"geometry":{"coordinates":[4.973097,51.82494],"type":"Point"},"properties":{"osm_id":"6284618108","tag":{"amenity":"waste_basket","waste":"trash"}},"type":"Feature"},
	{"geometry":{"coordinates":[4.973611,51.825247],"type":"Point"},"properties":{"osm_id":"6284618109","tag":{"amenity":"waste_basket","waste":"trash"}},"type":"Feature"},
	{"geometry":{"coordinates":[4.974395,51.825923],"type":"Point"},"properties":{"osm_id":"6284618112","tag":{"amenity":"waste_basket","waste":"trash"}},"type":"Feature"},
	{"geometry":{"coordinates":[4.974217,51.825911],"type":"Point"},"properties":{"osm_id":"6284618113","tag":{"amenity":"waste_basket","waste":"trash"}},"type":"Feature"},
	{"geometry":{"coordinates":[4.974351,51.825884],"type":"Point"},"properties":{"osm_id":"6284618114","tag":{"amenity":"waste_basket","waste":"trash"}},"type":"Feature"},
	{"geometry":{"coordinates":[4.974467,51.826063],"type":"Point"},"properties":{"osm_id":"6284618154","tag":{"amenity":"waste_basket","waste":"trash"}},"type":"Feature"},
	{"geometry":{"coordinates":[4.974469,51.82603],"type":"Point"},"properties":{"osm_id":"6284618155","tag":{"amenity":"waste_basket","waste":"trash"}},"type":"Feature"},
	{"geometry":{"coordinates":[4.974687,51.826409],"type":"Point"},"properties":{"osm_id":"6284618156","tag":{"amenity":"waste_basket","waste":"trash"}},"type":"Feature"},
	{"geometry":{"coordinates":[4.973287,51.824965],"type":"Point"},"properties":{"osm_id":"6284618527","tag":{"amenity":"waste_basket","waste":"trash"}},"type":"Feature"},
	{"geometry":{"coordinates":[4.973429,51.825101],"type":"Point"},"properties":{"osm_id":"6284618542","tag":{"amenity":"waste_basket","waste":"trash"}},"type":"Feature"},
	{"geometry":{"coordinates":[4.97387,51.825462],"type":"Point"},"properties":{"osm_id":"6284618543","tag":{"amenity":"waste_basket","waste":"trash"}},"type":"Feature"},
	{"geometry":{"coordinates":[4.974284,51.826011],"type":"Point"},"properties":{"osm_id":"6284618548","tag":{"amenity":"waste_basket","waste":"trash"}},"type":"Feature"},
	{"geometry":{"coordinates":[4.97458,51.826234],"type":"Point"},"properties":{"osm_id":"6284618550","tag":{"amenity":"waste_basket","waste":"trash"}},"type":"Feature"},
	{"geometry":{"coordinates":[4.973318,51.82504],"type":"Point"},"properties":{"osm_id":"6284618608","tag":{"amenity":"waste_basket","waste":"trash"}},"type":"Feature"},
	{"geometry":{"coordinates":[4.973513,51.825166],"type":"Point"},"properties":{"osm_id":"6284618611","tag":{"amenity":"waste_basket","waste":"trash"}},"type":"Feature"},
	{"geometry":{"coordinates":[4.973931,51.825759],"type":"Point"},"properties":{"osm_id":"6284618615","tag":{"amenity":"waste_basket","waste":"trash"}},"type":"Feature"},
	{"geometry":{"coordinates":[4.974944,51.826838],"type":"Point"},"properties":{"osm_id":"6284618633","tag":{"amenity":"waste_basket","waste":"trash"}},"type":"Feature"},
	{"geometry":{"coordinates":[4.971555,51.825844],"type":"Point"},"properties":{"osm_id":"6284618694","tag":{"amenity":"waste_basket","waste":"trash"}},"type":"Feature"},
	{"geometry":{"coordinates":[4.974493,51.826329],"type":"Point"},"properties":{"osm_id":"6284618829","tag":{"amenity":"waste_basket","waste":"trash"}},"type":"Feature"},
	{"geometry":{"coordinates":[4.974553,51.826417],"type":"Point"},"properties":{"osm_id":"6284618830","tag":{"amenity":"waste_basket","waste":"trash"}},"type":"Feature"},
	{"geometry":{"coordinates":[4.974825,51.826605],"type":"Point"},"properties":{"osm_id":"6284618925","tag":{"amenity":"waste_basket","waste":"trash"}},"type":"Feature"},
	{"geometry":{"coordinates":[4.974889,51.826712],"type":"Point"},"properties":{"osm_id":"6284619006","tag":{"amenity":"waste_basket","waste":"trash"}},"type":"Feature"},
	{"geometry":{"coordinates":[4.973172,51.825789],"type":"Point"},"properties":{"osm_id":"6284619985","tag":{"amenity":"waste_basket","waste":"trash"}},"type":"Feature"},
	{"geometry":{"coordinates":[4.972635,51.825822],"type":"Point"},"properties":{"osm_id":"6284620485","tag":{"amenity":"waste_basket","waste":"trash"}},"type":"Feature"},
	{"geometry":{"coordinates":[4.97463,51.829458],"type":"Point"},"properties":{"osm_id":"6284892986","tag":{"amenity":"waste_basket","waste":"trash"}},"type":"Feature"},
	{"geometry":{"coordinates":[4.953077,51.835747],"type":"Point"},"properties":{"osm_id":"6289688315","tag":{"amenity":"recycling","location":"underground","recycling_type":"container"}},"type":"Feature"},
	{"geometry":{"coordinates":[4.953087,51.835764],"type":"Point"},"properties":{"osm_id":"6289688316","tag":{"amenity":"recycling","location":"underground","recycling_type":"container"}},"type":"Feature"},
	{"geometry":{"coordinates":[4.953045,51.835773],"type":"Point"},"properties":{"osm_id":"6289688317","tag":{"amenity":"recycling","location":"underground","recycling_type":"container"}},"type":"Feature"},
	{"geometry":{"coordinates":[4.953036,51.835756],"type":"Point"},"properties":{"osm_id":"6289688318","tag":{"amenity":"recycling","location":"underground","recycling_type":"container"}},"type":"Feature"},
	{"geometry":{"coordinates":[4.953754,51.835625],"type":"Point"},"properties":{"osm_id":"6289689310","tag":{"amenity":"recycling","location":"underground","recycling_type":"container"}},"type":"Feature"},
	{"geometry":{"coordinates":[4.953783,51.835619],"type":"Point"},"properties":{"osm_id":"6289689311","tag":{"amenity":"recycling","location":"underground","recycling_type":"container"}},"type":"Feature"},
	{"geometry":{"coordinates":[4.953773,51.835601],"type":"Point"},"properties":{"osm_id":"6289689312","tag":{"amenity":"recycling","location":"underground","recycling_type":"container"}},"type":"Feature"},
	{"geometry":{"coordinates":[4.953744,51.835607],"type":"Point"},"properties":{"osm_id":"6289689313","tag":{"amenity":"recycling","location":"underground","recycling_type":"container"}},"type":"Feature"},
	{"geometry":{"coordinates":[4.955324,51.834886],"type":"Point"},"properties":{"osm_id":"6289689348","tag":{"amenity":"recycling","location":"underground","recycling_type":"container"}},"type":"Feature"},
	{"geometry":{"coordinates":[4.955295,51.834892],"type":"Point"},"properties":{"osm_id":"6289689349","tag":{"amenity":"recycling","location":"underground","recycling_type":"container"}},"type":"Feature"},
	{"geometry":{"coordinates":[4.954162,51.835245],"type":"Point"},"properties":{"osm_id":"6289689687","tag":{"amenity":"recycling","location":"underground","recycling_type":"container"}},"type":"Feature"},
	{"geometry":{"coordinates":[4.954192,51.835239],"type":"Point"},"properties":{"osm_id":"6289689688","tag":{"amenity":"recycling","location":"underground","recycling_type":"container"}},"type":"Feature"},
	{"geometry":{"coordinates":[4.954201,51.835258],"type":"Point"},"properties":{"osm_id":"6289689689","tag":{"amenity":"recycling","location":"underground","recycling_type":"container"}},"type":"Feature"},
	{"geometry":{"coordinates":[4.954172,51.835263],"type":"Point"},"properties":{"osm_id":"6289689690","tag":{"amenity":"recycling","location":"underground","recycling_type":"container"}},"type":"Feature"},
	{"geometry":{"coordinates":[4.957818,51.834037],"type":"Point"},"properties":{"osm_id":"6289698705","tag":{"amenity":"recycling","location":"underground","recycling_type":"container"}},"type":"Feature"},
	{"geometry":{"coordinates":[4.957808,51.834019],"type":"Point"},"properties":{"osm_id":"6289698706","tag":{"amenity":"recycling","location":"underground","recycling_type":"container"}},"type":"Feature"},
	{"geometry":{"coordinates":[4.957798,51.834],"type":"Point"},"properties":{"osm_id":"6289698707","tag":{"amenity":"recycling","location":"underground","recycling_type":"container"}},"type":"Feature"},
	{"geometry":{"coordinates":[4.957722,51.834035],"type":"Point"},"properties":{"osm_id":"6289698708","tag":{"amenity":"recycling","location":"underground","recycling_type":"container"}},"type":"Feature"},
	{"geometry":{"coordinates":[4.957713,51.834017],"type":"Point"},"properties":{"osm_id":"6289698709","tag":{"amenity":"recycling","location":"underground","recycling_type":"container"}},"type":"Feature"},
	{"geometry":{"coordinates":[4.962354,51.835579],"type":"Point"},"properties":{"osm_id":"6677190599","tag":{"amenity":"recycling","location":"underground","recycling_type":"container","source:date":"2019-08-02"}},"type":"Feature"},
	{"geometry":{"coordinates":[4.962355,51.835541],"type":"Point"},"properties":{"osm_id":"6677190600","tag":{"amenity":"recycling","location":"underground","recycling_type":"container","source:date":"2019-08-02"}},"type":"Feature"},
	{"geometry":{"coordinates":[4.960958,51.835521],"type":"Point"},"properties":{"osm_id":"6677190601","tag":{"amenity":"recycling","location":"underground","recycling_type":"container","source:date":"2019-08-02"}},"type":"Feature"},
	{"geometry":{"coordinates":[4.960943,51.835505],"type":"Point"},"properties":{"osm_id":"6677190602","tag":{"amenity":"recycling","location":"underground","recycling_type":"container","source:date":"2019-08-02"}},"type":"Feature"},
	{"geometry":{"coordinates":[4.960914,51.835473],"type":"Point"},"properties":{"osm_id":"6677190603","tag":{"amenity":"recycling","location":"underground","recycling_type":"container","source:date":"2019-08-02"}},"type":"Feature"},
	{"geometry":{"coordinates":[4.960168,51.835486],"type":"Point"},"properties":{"osm_id":"6677190608","tag":{"amenity":"recycling","location":"underground","recycling_type":"container","source:date":"2019-08-02"}},"type":"Feature"},
	{"geometry":{"coordinates":[4.960138,51.835487],"type":"Point"},"properties":{"osm_id":"6677190609","tag":{"amenity":"recycling","location":"underground","recycling_type":"container","source:date":"2019-08-02"}},"type":"Feature"}
]
}
