{
"type": "FeatureCollection",
"features": [
	{"geometry":{"coordinates":[4.965992,51.233779],"type":"Point"},"properties":{"osm_id":"2525243171","tag":{"amenity":"waste_basket"}},"type":"Feature"},
	{"geometry":{"coordinates":[4.922664,51.218075],"type":"Point"},"properties":{"osm_id":"4581674911","tag":{"amenity":"waste_basket"}},"type":"Feature"},
	{"geometry":{"coordinates":[4.952843,51.230744],"type":"Point"},"properties":{"osm_id":"4589050787","tag":{"amenity":"waste_basket"}},"type":"Feature"},
	{"geometry":{"coordinates":[4.94914,51.231154],"type":"Point"},"properties":{"osm_id":"4589050788","tag":{"amenity":"waste_basket"}},"type":"Feature"},
	{"geometry":{"coordinates":[4.943982,51.231652],"type":"Point"},"properties":{"osm_id":"4683313284","tag":{"amenity":"waste_basket"}},"type":"Feature"},
	{"geometry":{"coordinates":[4.941442,51.232612],"type":"Point"},"properties":{"osm_id":"4683313400","tag":{"amenity":"waste_basket"}},"type":"Feature"},
	{"geometry":{"coordinates":[4.965311,51.232962],"type":"Point"},"properties":{"osm_id":"4695291799","tag":{"amenity":"waste_basket"}},"type":"Feature"},
	{"geometry":{"coordinates":[4.958554,51.232851],"type":"Point"},"properties":{"osm_id":"4695291828","tag":{"amenity":"waste_basket"}},"type":"Feature"},
	{"geometry":{"coordinates":[4.958055,51.232407],"type":"Point"},"properties":{"osm_id":"4695291829","tag":{"amenity":"waste_basket"}},"type":"Feature"},
	{"geometry":{"coordinates":[4.955786,51.231729],"type":"Point"},"properties":{"osm_id":"4695291832","tag":{"amenity":"waste_basket"}},"type":"Feature"},
	{"geometry":{"coordinates":[4.954159,51.231565],"type":"Point"},"properties":{"osm_id":"4695291835","tag":{"amenity":"waste_basket"}},"type":"Feature"},
	{"geometry":{"coordinates":[4.955235,51.228352],"type":"Point"},"properties":{"osm_id":"4695291848","tag":{"amenity":"waste_basket"}},"type":"Feature"},
	{"geometry":{"coordinates":[4.976954,51.206086],"type":"Point"},"properties":{"osm_id":"6425920230","tag":{"amenity":"waste_basket"}},"type":"Feature"},
	{"geometry":{"coordinates":[4.979343,51.20417],"type":"Point"},"properties":{"osm_id":"6598922016","tag":{"amenity":"waste_basket","colour":"red"}},"type":"Feature"},
	{"geometry":{"coordinates":[4.981229,51.203911],"type":"Point"},"properties":{"osm_id":"6598922071","tag":{"amenity":"waste_basket","colour":"red","material":"metal"}},"type":"Feature"},
	{"geometry":{"coordinates":[4.933217,51.181784],"type":"Point"},"properties":{"osm_id":"7418632642","tag":{"amenity":"recycling","operator":"IOK","recycling:glass_bottles":"yes","recycling_type":"container"}},"type":"Feature"},
	{"geometry":{"coordinates":[4.954484,51.189815],"type":"Point"},"properties":{"osm_id":"7419084334","tag":{"amenity":"waste_basket"}},"type":"Feature"},
	{"geometry":{"coordinates":[4.993378,51.181481],"type":"Point"},"properties":{"osm_id":"7460817093","tag":{"amenity":"waste_basket","operator":"Stad Geel"}},"type":"Feature"},
	{"geometry":{"coordinates":[4.994683,51.182945],"type":"Point"},"properties":{"osm_id":"7460817140","tag":{"amenity":"waste_basket","operator":"Stad Geel"}},"type":"Feature"},
	{"geometry":{"coordinates":[4.979542,51.203261],"type":"Point"},"properties":{"osm_id":"7472433458","tag":{"amenity":"recycling","operator":"IOK","recycling:glass_bottles":"yes","recycling_type":"container"}},"type":"Feature"},
	{"geometry":{"coordinates":[4.965303,51.233032],"type":"Point"},"properties":{"osm_id":"7913631832","tag":{"amenity":"waste_basket","material":"wood;plastic","waste":"picnic_wrappers;drink_containers"}},"type":"Feature"}
]
}
