{
"type": "FeatureCollection",
"features": [
	{"geometry":{"coordinates":[4.991488,51.1761],"type":"Point"},"properties":{"osm_id":"1578782628","tag":{"amenity":"waste_basket","waste":"dog_excrement"}},"type":"Feature"},
	{"geometry":{"coordinates":[5.004136,51.145018],"type":"Point"},"properties":{"osm_id":"1707637545","tag":{"amenity":"waste_basket"}},"type":"Feature"},
	{"geometry":{"coordinates":[4.992484,51.173705],"type":"Point"},"properties":{"osm_id":"2995564608","tag":{"amenity":"waste_basket","waste":"dog_excrement"}},"type":"Feature"},
	{"geometry":{"coordinates":[4.969971,51.158518],"type":"Point"},"properties":{"barrier":"gate","osm_id":"3065907066"},"type":"Feature"},
	{"geometry":{"coordinates":[4.969556,51.158984],"type":"Point"},"properties":{"barrier":"gate","osm_id":"3065907072"},"type":"Feature"},
	{"geometry":{"coordinates":[4.985712,51.159446],"type":"Point"},"properties":{"osm_id":"3076584383","tag":{"amenity":"waste_basket","waste":"dog_excrement"}},"type":"Feature"},
	{"geometry":{"coordinates":[4.975744,51.163872],"type":"Point"},"properties":{"osm_id":"3087567891","tag":{"amenity":"recycling","recycling:clothes":"yes","recycling_type":"container"}},"type":"Feature"},
	{"geometry":{"coordinates":[4.97356,51.164452],"type":"Point"},"properties":{"osm_id":"3087751184","tag":{"amenity":"waste_basket"}},"type":"Feature"},
	{"geometry":{"coordinates":[5.001437,51.167403],"type":"Point"},"properties":{"osm_id":"3258478028","tag":{"amenity":"waste_basket","waste":"dog_excrement"}},"type":"Feature"},
	{"geometry":{"coordinates":[5.006195,51.167553],"type":"Point"},"properties":{"osm_id":"4144140098","tag":{"amenity":"recycling","recycling:green_waste":"yes","recycling_type":"container"}},"type":"Feature"},
	{"geometry":{"coordinates":[4.984338,51.160843],"type":"Point"},"properties":{"osm_id":"4911380112","tag":{"amenity":"waste_basket","waste":"dog_excrement"}},"type":"Feature"},
	{"geometry":{"coordinates":[4.993179,51.154013],"type":"Point"},"properties":{"osm_id":"6344293224","tag":{"amenity":"recycling","recycling:clothes":"yes","recycling_type":"container"}},"type":"Feature"},
	{"geometry":{"coordinates":[4.991417,51.157417],"type":"Point"},"properties":{"osm_id":"6373881785","tag":{"amenity":"waste_basket"}},"type":"Feature"},
	{"geometry":{"coordinates":[4.991155,51.157825],"type":"Point"},"properties":{"osm_id":"6373881789","tag":{"amenity":"waste_basket"}},"type":"Feature"},
	{"geometry":{"coordinates":[5.00038,51.163686],"type":"Point"},"properties":{"osm_id":"6407671108","tag":{"amenity":"recycling","operator":"IOK","recycling:glass_bottles":"yes","recycling_type":"container"}},"type":"Feature"},
	{"geometry":{"coordinates":[4.988755,51.158723],"type":"Point"},"properties":{"osm_id":"6503349085","tag":{"amenity":"waste_basket"}},"type":"Feature"},
	{"geometry":{"coordinates":[5.001435,51.163194],"type":"Point"},"properties":{"osm_id":"6517915797","tag":{"amenity":"recycling","operator":"VICT","recycling:clothes":"yes","recycling_type":"container"}},"type":"Feature"},
	{"geometry":{"coordinates":[4.941216,51.131824],"type":"Point"},"properties":{"osm_id":"6564208134","tag":{"amenity":"recycling","recycling:clothes":"yes","recycling_type":"container"}},"type":"Feature"},
	{"geometry":{"coordinates":[5.008606,51.127332],"type":"Point"},"properties":{"osm_id":"6595261737","tag":{"amenity":"waste_basket","colour":"yellow","material":"steel"}},"type":"Feature"},
	{"geometry":{"coordinates":[5.008376,51.127344],"type":"Point"},"properties":{"osm_id":"6595261738","tag":{"amenity":"waste_basket","colour":"yellow","material":"steel"}},"type":"Feature"},
	{"geometry":{"coordinates":[5.004524,51.161586],"type":"Point"},"properties":{"osm_id":"6630736205","tag":{"amenity":"waste_basket","waste":"dog_excrement"}},"type":"Feature"},
	{"geometry":{"coordinates":[4.982704,51.161093],"type":"Point"},"properties":{"osm_id":"6636885874","tag":{"amenity":"waste_basket","waste":"dog_excrement"}},"type":"Feature"},
	{"geometry":{"coordinates":[4.980846,51.15838],"type":"Point"},"properties":{"osm_id":"6842652730","tag":{"amenity":"waste_basket"}},"type":"Feature"},
	{"geometry":{"coordinates":[4.979069,51.135662],"type":"Point"},"properties":{"osm_id":"7063097529","tag":{"amenity":"recycling","recycling:clothes":"yes","recycling_type":"container"}},"type":"Feature"},
	{"geometry":{"coordinates":[5.009578,51.131038],"type":"Point"},"properties":{"osm_id":"7331811763","tag":{"amenity":"waste_basket","mapillary":"Pu8A2vTAKT2tnqdJkR79Qg","waste":"dog_excrement"}},"type":"Feature"},
	{"geometry":{"coordinates":[4.998927,51.12593],"type":"Point"},"properties":{"osm_id":"7347235862","tag":{"amenity":"waste_basket"}},"type":"Feature"},
	{"geometry":{"coordinates":[4.976971,51.124493],"type":"Point"},"properties":{"osm_id":"7383420538","tag":{"amenity":"waste_basket","colour":"green","operator":"Stad Geel"}},"type":"Feature"},
	{"geometry":{"coordinates":[4.976968,51.124418],"type":"Point"},"properties":{"osm_id":"7383420539","tag":{"amenity":"waste_basket","colour":"green","operator":"Stad Geel"}},"type":"Feature"},
	{"geometry":{"coordinates":[4.976715,51.124432],"type":"Point"},"properties":{"osm_id":"7383420540","tag":{"amenity":"waste_basket","colour":"green","operator":"Stad Geel"}},"type":"Feature"},
	{"geometry":{"coordinates":[4.976971,51.124559],"type":"Point"},"properties":{"osm_id":"7383431628","tag":{"amenity":"recycling","recycling:glass_bottles":"yes","recycling_type":"container"}},"type":"Feature"},
	{"geometry":{"coordinates":[4.976999,51.124325],"type":"Point"},"properties":{"osm_id":"7383431658","tag":{"amenity":"waste_basket","colour":"green","operator":"Stad Geel"}},"type":"Feature"},
	{"geometry":{"coordinates":[4.946234,51.166332],"type":"Point"},"properties":{"osm_id":"7391467844","tag":{"amenity":"waste_basket","operator":"Stad Geel"}},"type":"Feature"},
	{"geometry":{"coordinates":[4.94603,51.16651],"type":"Point"},"properties":{"osm_id":"7391467870","tag":{"amenity":"waste_basket","operator":"Stad Geel"}},"type":"Feature"},
	{"geometry":{"coordinates":[4.990102,51.157966],"type":"Point"},"properties":{"osm_id":"7403320417","tag":{"amenity":"waste_basket","operator":"Stad Geel"}},"type":"Feature"},
	{"geometry":{"coordinates":[4.990365,51.157924],"type":"Point"},"properties":{"osm_id":"7403320418","tag":{"amenity":"waste_basket","material":"metal","operator":"Stad Geel"}},"type":"Feature"},
	{"geometry":{"coordinates":[4.990976,51.157364],"type":"Point"},"properties":{"osm_id":"7403320419","tag":{"amenity":"waste_basket","material":"metal","operator":"Stad Geel"}},"type":"Feature"},
	{"geometry":{"coordinates":[4.983858,51.167771],"type":"Point"},"properties":{"osm_id":"7427025831","tag":{"amenity":"recycling","recycling:glass_bottles":"yes","recycling_type":"container"}},"type":"Feature"},
	{"geometry":{"coordinates":[4.991193,51.166752],"type":"Point"},"properties":{"osm_id":"7445755427","tag":{"amenity":"waste_basket","operator":"Stad Geel"}},"type":"Feature"},
	{"geometry":{"coordinates":[4.993135,51.166917],"type":"Point"},"properties":{"osm_id":"7446530928","tag":{"amenity":"waste_basket","colour":"yellow","operator":"Stad Geel"}},"type":"Feature"},
	{"geometry":{"coordinates":[4.987972,51.168704],"type":"Point"},"properties":{"osm_id":"7447961954","tag":{"amenity":"recycling","operator":"IOK","recycling:glass_bottles":"yes","recycling_type":"container"}},"type":"Feature"},
	{"geometry":{"coordinates":[4.987932,51.168697],"type":"Point"},"properties":{"osm_id":"7447961955","tag":{"amenity":"recycling","operator":"IOK","recycling:glass_bottles":"yes","recycling_type":"container"}},"type":"Feature"},
	{"geometry":{"coordinates":[4.971184,51.167133],"type":"Point"},"properties":{"osm_id":"7447961962","tag":{"amenity":"recycling","recycling_type":"container"}},"type":"Feature"},
	{"geometry":{"coordinates":[4.979505,51.165344],"type":"Point"},"properties":{"osm_id":"7455298342","tag":{"amenity":"waste_basket","waste":"dog_excrement"}},"type":"Feature"},
	{"geometry":{"coordinates":[4.960679,51.1712],"type":"Point"},"properties":{"osm_id":"7455414218","tag":{"amenity":"waste_basket"}},"type":"Feature"},
	{"geometry":{"coordinates":[4.988815,51.172183],"type":"Point"},"properties":{"osm_id":"7456938800","tag":{"amenity":"waste_basket"}},"type":"Feature"},
	{"geometry":{"coordinates":[4.994004,51.161791],"type":"Point"},"properties":{"osm_id":"7473110709","tag":{"amenity":"waste_basket"}},"type":"Feature"},
	{"geometry":{"coordinates":[4.994092,51.161873],"type":"Point"},"properties":{"osm_id":"7473110710","tag":{"amenity":"waste_basket","waste":"dog_excrement"}},"type":"Feature"},
	{"geometry":{"coordinates":[4.990664,51.158276],"type":"Point"},"properties":{"osm_id":"7502645920","tag":{"amenity":"waste_basket","waste":"dog_excrement"}},"type":"Feature"},
	{"geometry":{"coordinates":[4.948712,51.143804],"type":"Point"},"properties":{"osm_id":"7616011673","tag":{"amenity":"waste_basket","operator":"McDonald's"}},"type":"Feature"},
	{"geometry":{"coordinates":[4.948994,51.143437],"type":"Point"},"properties":{"osm_id":"7616046712","tag":{"amenity":"waste_basket"}},"type":"Feature"},
	{"geometry":{"coordinates":[4.948869,51.143178],"type":"Point"},"properties":{"osm_id":"7616046740","tag":{"amenity":"waste_basket","operator":"McDonald's"}},"type":"Feature"},
	{"geometry":{"coordinates":[4.981704,51.158981],"type":"Point"},"properties":{"osm_id":"7736901592","tag":{"amenity":"waste_basket"}},"type":"Feature"},
	{"geometry":{"coordinates":[4.986601,51.160869],"type":"Point"},"properties":{"osm_id":"7770345032","tag":{"amenity":"recycling","recycling:glass":"yes","recycling_type":"container"}},"type":"Feature"},
	{"geometry":{"coordinates":[4.990367,51.160525],"type":"Point"},"properties":{"osm_id":"7867750074","tag":{"amenity":"waste_basket","material":"metal","operator":"Stad Geel"}},"type":"Feature"},
	{"geometry":{"coordinates":[4.990917,51.160774],"type":"Point"},"properties":{"osm_id":"7867766769","tag":{"amenity":"waste_basket","material":"metal","operator":"Stad Geel"}},"type":"Feature"},
	{"geometry":{"coordinates":[4.991298,51.160671],"type":"Point"},"properties":{"osm_id":"7867766770","tag":{"amenity":"waste_basket","material":"metal","operator":"Stad Geel"}},"type":"Feature"},
	{"geometry":{"coordinates":[4.991226,51.160555],"type":"Point"},"properties":{"osm_id":"7867766771","tag":{"amenity":"waste_basket","material":"metal","operator":"Stad Geel"}},"type":"Feature"},
	{"geometry":{"coordinates":[4.990963,51.160616],"type":"Point"},"properties":{"osm_id":"7867766772","tag":{"amenity":"waste_basket","material":"metal","operator":"Stad Geel"}},"type":"Feature"},
	{"geometry":{"coordinates":[4.990823,51.160947],"type":"Point"},"properties":{"osm_id":"7867766773","tag":{"amenity":"waste_basket","material":"metal","operator":"Stad Geel"}},"type":"Feature"},
	{"geometry":{"coordinates":[4.990829,51.161568],"type":"Point"},"properties":{"osm_id":"7867766774","tag":{"amenity":"waste_basket","material":"metal","operator":"Stad Geel"}},"type":"Feature"},
	{"geometry":{"coordinates":[4.990901,51.161775],"type":"Point"},"properties":{"osm_id":"7867766775","tag":{"amenity":"waste_basket","material":"metal","operator":"Stad Geel"}},"type":"Feature"},
	{"geometry":{"coordinates":[4.990349,51.161898],"type":"Point"},"properties":{"osm_id":"7867766776","tag":{"amenity":"waste_basket","material":"metal","operator":"Stad Geel"}},"type":"Feature"},
	{"geometry":{"coordinates":[4.989909,51.162066],"type":"Point"},"properties":{"osm_id":"7867766777","tag":{"amenity":"waste_basket","material":"metal","operator":"Stad Geel"}},"type":"Feature"},
	{"geometry":{"coordinates":[4.990756,51.162389],"type":"Point"},"properties":{"osm_id":"7867766778","tag":{"amenity":"waste_basket","material":"metal","operator":"Stad Geel"}},"type":"Feature"},
	{"geometry":{"coordinates":[4.990995,51.162409],"type":"Point"},"properties":{"osm_id":"7867766779","tag":{"amenity":"waste_basket","material":"metal","operator":"Stad Geel"}},"type":"Feature"},
	{"geometry":{"coordinates":[4.991043,51.162086],"type":"Point"},"properties":{"osm_id":"7867766780","tag":{"amenity":"waste_basket","material":"metal","operator":"Stad Geel"}},"type":"Feature"},
	{"geometry":{"coordinates":[4.990024,51.161753],"type":"Point"},"properties":{"osm_id":"7867766781","tag":{"amenity":"waste_basket","material":"metal","operator":"Stad Geel"}},"type":"Feature"},
	{"geometry":{"coordinates":[4.988841,51.16163],"type":"Point"},"properties":{"osm_id":"7867768861","tag":{"amenity":"waste_basket","material":"metal","operator":"Stad Geel"}},"type":"Feature"},
	{"geometry":{"coordinates":[4.989702,51.161755],"type":"Point"},"properties":{"osm_id":"7867768862","tag":{"amenity":"waste_basket","material":"metal","operator":"Stad Geel"}},"type":"Feature"},
	{"geometry":{"coordinates":[4.988136,51.160932],"type":"Point"},"properties":{"osm_id":"7867768863","tag":{"amenity":"waste_basket","material":"metal","operator":"Stad Geel"}},"type":"Feature"},
	{"geometry":{"coordinates":[4.987189,51.161504],"type":"Point"},"properties":{"osm_id":"7867768864","tag":{"amenity":"waste_basket","material":"metal","operator":"Stad Geel"}},"type":"Feature"},
	{"geometry":{"coordinates":[4.987023,51.161814],"type":"Point"},"properties":{"osm_id":"7867768865","tag":{"amenity":"waste_basket","material":"metal","operator":"Stad Geel"}},"type":"Feature"},
	{"geometry":{"coordinates":[4.987218,51.161339],"type":"Point"},"properties":{"osm_id":"7867768866","tag":{"amenity":"waste_basket","material":"metal","operator":"Stad Geel"}},"type":"Feature"},
	{"geometry":{"coordinates":[4.986553,51.16119],"type":"Point"},"properties":{"osm_id":"7867768867","tag":{"amenity":"waste_basket","material":"metal","operator":"Stad Geel"}},"type":"Feature"},
	{"geometry":{"coordinates":[4.986121,51.161773],"type":"Point"},"properties":{"osm_id":"7867768868","tag":{"amenity":"waste_basket","material":"metal","operator":"Stad Geel"}},"type":"Feature"},
	{"geometry":{"coordinates":[4.989957,51.160613],"type":"Point"},"properties":{"osm_id":"7867799470","tag":{"amenity":"waste_basket","material":"metal","operator":"Stad Geel"}},"type":"Feature"},
	{"geometry":{"coordinates":[4.989868,51.161087],"type":"Point"},"properties":{"osm_id":"7867799471","tag":{"amenity":"waste_basket","material":"metal","operator":"Stad Geel"}},"type":"Feature"},
	{"geometry":{"coordinates":[4.989842,51.161181],"type":"Point"},"properties":{"osm_id":"7867799472","tag":{"amenity":"waste_basket","material":"metal","operator":"Stad Geel"}},"type":"Feature"},
	{"geometry":{"coordinates":[4.993514,51.163068],"type":"Point"},"properties":{"osm_id":"7867799473","tag":{"amenity":"waste_basket","material":"metal","operator":"Stad Geel"}},"type":"Feature"},
	{"geometry":{"coordinates":[4.992529,51.162927],"type":"Point"},"properties":{"osm_id":"7867799474","tag":{"amenity":"waste_basket","material":"metal","operator":"Stad Geel"}},"type":"Feature"},
	{"geometry":{"coordinates":[4.994584,51.163218],"type":"Point"},"properties":{"osm_id":"7867799475","tag":{"amenity":"waste_basket","material":"metal","operator":"Stad Geel"}},"type":"Feature"},
	{"geometry":{"coordinates":[4.995469,51.163307],"type":"Point"},"properties":{"osm_id":"7867799476","tag":{"amenity":"waste_basket","material":"metal","operator":"Stad Geel"}},"type":"Feature"},
	{"geometry":{"coordinates":[4.99088,51.162645],"type":"Point"},"properties":{"osm_id":"7867814238","tag":{"amenity":"waste_basket","material":"metal","operator":"Stad Geel"}},"type":"Feature"},
	{"geometry":{"coordinates":[4.991711,51.162826],"type":"Point"},"properties":{"osm_id":"7867814239","tag":{"amenity":"waste_basket","material":"metal","operator":"Stad Geel"}},"type":"Feature"},
	{"geometry":{"coordinates":[4.992124,51.162936],"type":"Point"},"properties":{"osm_id":"7867814240","tag":{"amenity":"waste_basket","operator":"Stad Geel"}},"type":"Feature"},
	{"geometry":{"coordinates":[4.993637,51.163235],"type":"Point"},"properties":{"osm_id":"7867814241","tag":{"amenity":"waste_basket","material":"metal","operator":"Stad Geel"}},"type":"Feature"},
	{"geometry":{"coordinates":[4.99423,51.163324],"type":"Point"},"properties":{"osm_id":"7867814242","tag":{"amenity":"waste_basket","material":"metal","operator":"Stad Geel"}},"type":"Feature"},
	{"geometry":{"coordinates":[4.995469,51.163393],"type":"Point"},"properties":{"osm_id":"7867814243","tag":{"amenity":"waste_basket","material":"metal","operator":"Stad Geel"}},"type":"Feature"},
	{"geometry":{"coordinates":[4.994034,51.161768],"type":"Point"},"properties":{"osm_id":"7867845327","tag":{"amenity":"waste_basket","operator":"Stad Geel"}},"type":"Feature"},
	{"geometry":{"coordinates":[4.991494,51.160648],"type":"Point"},"properties":{"osm_id":"7867845328","tag":{"amenity":"waste_basket","operator":"Stad Geel"}},"type":"Feature"},
	{"geometry":{"coordinates":[4.990053,51.160269],"type":"Point"},"properties":{"osm_id":"7867845329","tag":{"amenity":"waste_basket","operator":"Stad Geel"}},"type":"Feature"},
	{"geometry":{"coordinates":[4.98986,51.159755],"type":"Point"},"properties":{"osm_id":"7867929245","tag":{"amenity":"waste_basket","operator":"Stad Geel"}},"type":"Feature"},
	{"geometry":{"coordinates":[4.989407,51.159169],"type":"Point"},"properties":{"osm_id":"7867929246","tag":{"amenity":"waste_basket","operator":"Stad Geel"}},"type":"Feature"},
	{"geometry":{"coordinates":[4.988443,51.158516],"type":"Point"},"properties":{"osm_id":"7867929247","tag":{"amenity":"waste_basket"}},"type":"Feature"},
	{"geometry":{"coordinates":[4.988805,51.158602],"type":"Point"},"properties":{"osm_id":"7867929248","tag":{"amenity":"waste_basket","operator":"Stad Geel"}},"type":"Feature"},
	{"geometry":{"coordinates":[4.98846,51.158438],"type":"Point"},"properties":{"osm_id":"7867929249","tag":{"amenity":"waste_basket","operator":"Stad Geel"}},"type":"Feature"},
	{"geometry":{"coordinates":[4.9875,51.157827],"type":"Point"},"properties":{"osm_id":"7867944377","tag":{"amenity":"waste_basket","operator":"Stad Geel"}},"type":"Feature"},
	{"geometry":{"coordinates":[4.987348,51.157366],"type":"Point"},"properties":{"osm_id":"7867944378","tag":{"amenity":"waste_basket","operator":"Stad Geel"}},"type":"Feature"},
	{"geometry":{"coordinates":[4.989285,51.158951],"type":"Point"},"properties":{"osm_id":"7867944379","tag":{"amenity":"waste_basket","operator":"Stad Geel"}},"type":"Feature"},
	{"geometry":{"coordinates":[4.989742,51.159387],"type":"Point"},"properties":{"osm_id":"7867944380","tag":{"amenity":"waste_basket","operator":"Stad Geel"}},"type":"Feature"},
	{"geometry":{"coordinates":[4.989926,51.160305],"type":"Point"},"properties":{"osm_id":"7867944381","tag":{"amenity":"waste_basket","operator":"Stad Geel"}},"type":"Feature"},
	{"geometry":{"coordinates":[4.988762,51.160352],"type":"Point"},"properties":{"osm_id":"7867946639","tag":{"amenity":"waste_basket","operator":"Stad Geel"}},"type":"Feature"},
	{"geometry":{"coordinates":[4.988418,51.160316],"type":"Point"},"properties":{"osm_id":"7867946640","tag":{"amenity":"waste_basket","operator":"Stad Geel"}},"type":"Feature"},
	{"geometry":{"coordinates":[4.984454,51.15836],"type":"Point"},"properties":{"osm_id":"7867946641","tag":{"amenity":"waste_basket","operator":"Stad Geel"}},"type":"Feature"},
	{"geometry":{"coordinates":[4.984578,51.158268],"type":"Point"},"properties":{"osm_id":"7867946642","tag":{"amenity":"waste_basket","operator":"Stad Geel"}},"type":"Feature"},
	{"geometry":{"coordinates":[4.990285,51.158461],"type":"Point"},"properties":{"osm_id":"7868192993","tag":{"amenity":"waste_basket","operator":"Stad Geel"}},"type":"Feature"},
	{"geometry":{"coordinates":[4.990833,51.158271],"type":"Point"},"properties":{"osm_id":"7868192994","tag":{"amenity":"waste_basket","operator":"Stad Geel"}},"type":"Feature"},
	{"geometry":{"coordinates":[4.990272,51.158814],"type":"Point"},"properties":{"osm_id":"7868197192","tag":{"amenity":"waste_basket","operator":"Stad Geel"}},"type":"Feature"},
	{"geometry":{"coordinates":[4.991243,51.158518],"type":"Point"},"properties":{"osm_id":"7868197193","tag":{"amenity":"waste_basket","operator":"Stad Geel"}},"type":"Feature"},
	{"geometry":{"coordinates":[4.991589,51.158064],"type":"Point"},"properties":{"osm_id":"7868197194","tag":{"amenity":"waste_basket","operator":"Stad Geel"}},"type":"Feature"},
	{"geometry":{"coordinates":[4.990677,51.157827],"type":"Point"},"properties":{"osm_id":"7868197195","tag":{"amenity":"waste_basket","operator":"Stad Geel"}},"type":"Feature"},
	{"geometry":{"coordinates":[4.990261,51.157621],"type":"Point"},"properties":{"osm_id":"7868197196","tag":{"amenity":"waste_basket","operator":"Stad Geel"}},"type":"Feature"},
	{"geometry":{"coordinates":[4.990591,51.157366],"type":"Point"},"properties":{"osm_id":"7868197197","tag":{"amenity":"waste_basket","operator":"Stad Geel"}},"type":"Feature"},
	{"geometry":{"coordinates":[4.990684,51.157208],"type":"Point"},"properties":{"osm_id":"7868197198","tag":{"amenity":"waste_basket","operator":"Stad Geel"}},"type":"Feature"},
	{"geometry":{"coordinates":[4.985626,51.160387],"type":"Point"},"properties":{"osm_id":"7868633337","tag":{"amenity":"waste_basket","operator":"Stad Geel"}},"type":"Feature"},
	{"geometry":{"coordinates":[4.985784,51.160369],"type":"Point"},"properties":{"osm_id":"7868633338","tag":{"amenity":"waste_basket","operator":"Stad Geel"}},"type":"Feature"},
	{"geometry":{"coordinates":[4.985972,51.160359],"type":"Point"},"properties":{"osm_id":"7868633339","tag":{"amenity":"waste_basket","operator":"Stad Geel"}},"type":"Feature"},
	{"geometry":{"coordinates":[4.986267,51.160069],"type":"Point"},"properties":{"osm_id":"7868633340","tag":{"amenity":"waste_basket","operator":"Stad Geel"}},"type":"Feature"},
	{"geometry":{"coordinates":[4.985864,51.159893],"type":"Point"},"properties":{"osm_id":"7868633341","tag":{"amenity":"waste_basket","operator":"Stad Geel"}},"type":"Feature"},
	{"geometry":{"coordinates":[4.985513,51.16015],"type":"Point"},"properties":{"osm_id":"7868633342","tag":{"amenity":"waste_basket","operator":"Stad Geel"}},"type":"Feature"},
	{"geometry":{"coordinates":[4.985374,51.159839],"type":"Point"},"properties":{"osm_id":"7868633343","tag":{"amenity":"waste_basket","operator":"Stad Geel"}},"type":"Feature"},
	{"geometry":{"coordinates":[4.98536,51.159941],"type":"Point"},"properties":{"osm_id":"7868633344","tag":{"amenity":"waste_basket","operator":"Stad Geel"}},"type":"Feature"},
	{"geometry":{"coordinates":[4.984781,51.161364],"type":"Point"},"properties":{"osm_id":"7868667366","tag":{"amenity":"waste_basket","material":"metal"}},"type":"Feature"},
	{"geometry":{"coordinates":[4.984938,51.161465],"type":"Point"},"properties":{"osm_id":"7868667367","tag":{"amenity":"waste_basket","material":"metal"}},"type":"Feature"},
	{"geometry":{"coordinates":[4.9862,51.163378],"type":"Point"},"properties":{"osm_id":"7868705501","tag":{"amenity":"waste_basket"}},"type":"Feature"},
	{"geometry":{"coordinates":[4.985967,51.164891],"type":"Point"},"properties":{"osm_id":"7868705504","tag":{"amenity":"waste_basket","material":"metal","operator":"Stad Geel"}},"type":"Feature"},
	{"geometry":{"coordinates":[4.985316,51.168282],"type":"Point"},"properties":{"osm_id":"7868736415","tag":{"amenity":"waste_basket","operator":"Stad Geel"}},"type":"Feature"},
	{"geometry":{"coordinates":[4.98518,51.165467],"type":"Point"},"properties":{"osm_id":"7868736416","tag":{"amenity":"waste_basket","waste":"dog_excrement"}},"type":"Feature"},
	{"geometry":{"coordinates":[4.989603,51.168615],"type":"Point"},"properties":{"osm_id":"7868745632","tag":{"amenity":"waste_basket","operator":"Stad Geel"}},"type":"Feature"},
	{"geometry":{"coordinates":[4.993329,51.168352],"type":"Point"},"properties":{"osm_id":"7868745633","tag":{"amenity":"waste_basket","waste":"dog_excrement"}},"type":"Feature"},
	{"geometry":{"coordinates":[4.99143,51.16791],"type":"Point"},"properties":{"osm_id":"7868745634","tag":{"amenity":"waste_basket"}},"type":"Feature"},
	{"geometry":{"coordinates":[4.991674,51.167984],"type":"Point"},"properties":{"osm_id":"7868745636","tag":{"amenity":"waste_basket","operator":"Stad Geel"}},"type":"Feature"},
	{"geometry":{"coordinates":[4.988219,51.168459],"type":"Point"},"properties":{"osm_id":"7868764832","tag":{"amenity":"waste_basket","material":"plastic","operator":"Stad Geel"}},"type":"Feature"},
	{"geometry":{"coordinates":[4.98866,51.168596],"type":"Point"},"properties":{"osm_id":"7868764833","tag":{"amenity":"waste_basket","operator":"Stad Geel"}},"type":"Feature"},
	{"geometry":{"coordinates":[4.988531,51.168462],"type":"Point"},"properties":{"osm_id":"7868764834","tag":{"amenity":"waste_basket","operator":"Stad Geel"}},"type":"Feature"},
	{"geometry":{"coordinates":[4.988873,51.168457],"type":"Point"},"properties":{"osm_id":"7868764835","tag":{"amenity":"waste_basket","operator":"Stad Geel"}},"type":"Feature"},
	{"geometry":{"coordinates":[4.988805,51.168559],"type":"Point"},"properties":{"osm_id":"7868764836","tag":{"amenity":"waste_basket","operator":"Stad Geel"}},"type":"Feature"},
	{"geometry":{"coordinates":[4.989107,51.168657],"type":"Point"},"properties":{"osm_id":"7868764837","tag":{"amenity":"waste_basket","operator":"Stad Geel"}},"type":"Feature"},
	{"geometry":{"coordinates":[4.987497,51.167683],"type":"Point"},"properties":{"osm_id":"7868764838","tag":{"amenity":"waste_basket","operator":"Stad Geel"}},"type":"Feature"},
	{"geometry":{"coordinates":[4.989479,51.165021],"type":"Point"},"properties":{"osm_id":"7868764839","tag":{"amenity":"waste_basket","operator":"Stad Geel"}},"type":"Feature"},
	{"geometry":{"coordinates":[4.989744,51.164449],"type":"Point"},"properties":{"osm_id":"7868764840","tag":{"amenity":"waste_basket","operator":"Stad Geel"}},"type":"Feature"},
	{"geometry":{"coordinates":[4.990212,51.163976],"type":"Point"},"properties":{"osm_id":"7868764841","tag":{"amenity":"waste_basket","operator":"Stad Geel"}},"type":"Feature"}
]
}
