{
"type": "FeatureCollection",
"features": [
	{"geometry":{"coordinates":[4.927877,51.079294],"type":"Point"},"properties":{"osm_id":"2626284674","tag":{"amenity":"waste_basket"}},"type":"Feature"},
	{"geometry":{"coordinates":[4.921945,51.087254],"type":"Point"},"properties":{"osm_id":"2626284985","tag":{"amenity":"waste_basket"}},"type":"Feature"},
	{"geometry":{"coordinates":[4.948601,51.08772],"type":"Point"},"properties":{"osm_id":"2626285005","tag":{"amenity":"waste_basket"}},"type":"Feature"},
	{"geometry":{"coordinates":[4.922829,51.088866],"type":"Point"},"properties":{"osm_id":"2626285045","tag":{"amenity":"waste_basket"}},"type":"Feature"},
	{"geometry":{"coordinates":[4.92641,51.08986],"type":"Point"},"properties":{"osm_id":"2626285062","tag":{"amenity":"waste_basket"}},"type":"Feature"},
	{"geometry":{"coordinates":[5.005112,51.100658],"type":"Point"},"properties":{"osm_id":"3227980624","tag":{"amenity":"waste_basket"}},"type":"Feature"},
	{"geometry":{"coordinates":[5.004238,51.101173],"type":"Point"},"properties":{"osm_id":"3227981466","tag":{"amenity":"waste_basket"}},"type":"Feature"},
	{"geometry":{"coordinates":[5.003444,51.105362],"type":"Point"},"properties":{"osm_id":"3237807075","tag":{"amenity":"waste_basket"}},"type":"Feature"},
	{"geometry":{"coordinates":[5.006467,51.088476],"type":"Point"},"properties":{"osm_id":"3248274763","tag":{"amenity":"waste_basket"}},"type":"Feature"},
	{"geometry":{"coordinates":[4.977812,51.08855],"type":"Point"},"properties":{"osm_id":"3328296579","tag":{"amenity":"waste_basket"}},"type":"Feature"},
	{"geometry":{"coordinates":[4.978751,51.106977],"type":"Point"},"properties":{"osm_id":"3331715021","tag":{"amenity":"waste_basket"}},"type":"Feature"},
	{"geometry":{"coordinates":[4.978513,51.107081],"type":"Point"},"properties":{"osm_id":"3331715044","tag":{"amenity":"waste_basket"}},"type":"Feature"},
	{"geometry":{"coordinates":[4.986341,51.06995],"type":"Point"},"properties":{"osm_id":"5798524410","tag":{"amenity":"waste_basket"}},"type":"Feature"},
	{"geometry":{"coordinates":[4.985923,51.069622],"type":"Point"},"properties":{"osm_id":"5803826499","tag":{"amenity":"waste_basket"}},"type":"Feature"},
	{"geometry":{"coordinates":[4.985921,51.069878],"type":"Point"},"properties":{"osm_id":"5803826512","tag":{"amenity":"waste_basket"}},"type":"Feature"},
	{"geometry":{"coordinates":[4.983051,51.075576],"type":"Point"},"properties":{"osm_id":"5806663641","tag":{"amenity":"waste_disposal"}},"type":"Feature"},
	{"geometry":{"coordinates":[5.000774,51.098638],"type":"Point"},"properties":{"osm_id":"7274341341","tag":{"amenity":"waste_basket"}},"type":"Feature"},
	{"geometry":{"coordinates":[4.998167,51.101672],"type":"Point"},"properties":{"osm_id":"7276515747","tag":{"amenity":"waste_basket"}},"type":"Feature"},
	{"geometry":{"coordinates":[4.978177,51.123687],"type":"Point"},"properties":{"osm_id":"7383420527","tag":{"amenity":"waste_basket","mapillary":"U2EpTvEtKiJG4M7OUWvzRw","waste":"dog_excrement"}},"type":"Feature"},
	{"geometry":{"coordinates":[4.978031,51.123738],"type":"Point"},"properties":{"osm_id":"7383420532","tag":{"amenity":"waste_basket","operator":"Stad Geel"}},"type":"Feature"},
	{"geometry":{"coordinates":[4.977953,51.123769],"type":"Point"},"properties":{"osm_id":"7383420533","tag":{"amenity":"waste_basket","operator":"Stad Geel"}},"type":"Feature"},
	{"geometry":{"coordinates":[4.972099,51.122917],"type":"Point"},"properties":{"osm_id":"7383420565","tag":{"amenity":"waste_basket","colour":"yellow","operator":"Stad Geel"}},"type":"Feature"},
	{"geometry":{"coordinates":[4.972796,51.123108],"type":"Point"},"properties":{"osm_id":"7383420577","tag":{"amenity":"waste_basket","colour":"yellow","operator":"Stad Geel"}},"type":"Feature"},
	{"geometry":{"coordinates":[4.925755,51.105824],"type":"Point"},"properties":{"osm_id":"7482785685","tag":{"amenity":"waste_basket","colour":"Green","material":"steel","survey:date":"2020-05-04","waste":"trash"}},"type":"Feature"},
	{"geometry":{"coordinates":[4.976578,51.108796],"type":"Point"},"properties":{"osm_id":"7499382557","tag":{"amenity":"recycling","recycling:glass_bottles":"yes","recycling_type":"container"}},"type":"Feature"},
	{"geometry":{"coordinates":[4.976607,51.108784],"type":"Point"},"properties":{"osm_id":"7499382558","tag":{"amenity":"recycling","recycling:glass_bottles":"yes","recycling_type":"container"}},"type":"Feature"},
	{"geometry":{"coordinates":[4.977722,51.109609],"type":"Point"},"properties":{"osm_id":"7499456006","tag":{"amenity":"waste_basket"}},"type":"Feature"},
	{"geometry":{"coordinates":[4.947402,51.100739],"type":"Point"},"properties":{"osm_id":"7505497686","tag":{"amenity":"waste_basket"}},"type":"Feature"},
	{"geometry":{"coordinates":[4.947955,51.098284],"type":"Point"},"properties":{"osm_id":"7785649791","tag":{"amenity":"recycling","operator":"IOK Afvalbeheer","recycling:glass_bottles":"yes","recycling_type":"container"}},"type":"Feature"},
	{"geometry":{"coordinates":[4.947973,51.098559],"type":"Point"},"properties":{"osm_id":"7874604836","tag":{"amenity":"waste_basket","material":"metal","operator":"Stad Geel"}},"type":"Feature"},
	{"geometry":{"coordinates":[4.947942,51.098603],"type":"Point"},"properties":{"osm_id":"7874604837","tag":{"amenity":"waste_basket","material":"metal","operator":"Stad Geel"}},"type":"Feature"},
	{"geometry":{"coordinates":[4.948228,51.098576],"type":"Point"},"properties":{"osm_id":"7874604838","tag":{"amenity":"waste_basket","material":"metal","operator":"Stad Geel"}},"type":"Feature"}
]
}
