{
"type": "FeatureCollection",
"features": [
	{"geometry":{"coordinates":[4.951543,51.007832],"type":"Point"},"properties":{"osm_id":"461305240","tag":{"amenity":"recycling","recycling:clothes":"yes","recycling:glass":"yes"}},"type":"Feature"},
	{"geometry":{"coordinates":[4.975773,50.976887],"type":"Point"},"properties":{"osm_id":"2923629409","tag":{"amenity":"waste_basket"}},"type":"Feature"},
	{"geometry":{"coordinates":[4.975035,50.97665],"type":"Point"},"properties":{"osm_id":"2923630305","tag":{"amenity":"waste_basket"}},"type":"Feature"},
	{"geometry":{"coordinates":[4.979605,50.979762],"type":"Point"},"properties":{"osm_id":"4060533857","tag":{"amenity":"waste_basket"}},"type":"Feature"},
	{"geometry":{"coordinates":[4.978832,50.979551],"type":"Point"},"properties":{"osm_id":"4233721731","tag":{"amenity":"waste_basket"}},"type":"Feature"},
	{"geometry":{"coordinates":[4.97909,50.979618],"type":"Point"},"properties":{"osm_id":"4233721741","tag":{"amenity":"waste_basket"}},"type":"Feature"},
	{"geometry":{"coordinates":[4.980828,50.981039],"type":"Point"},"properties":{"osm_id":"4233721797","tag":{"amenity":"waste_basket"}},"type":"Feature"},
	{"geometry":{"coordinates":[4.986471,51.001298],"type":"Point"},"properties":{"osm_id":"4269653750","tag":{"amenity":"waste_basket"}},"type":"Feature"},
	{"geometry":{"coordinates":[4.987247,51.001532],"type":"Point"},"properties":{"osm_id":"4269653779","tag":{"amenity":"waste_basket"}},"type":"Feature"},
	{"geometry":{"coordinates":[4.987789,51.001622],"type":"Point"},"properties":{"osm_id":"4271351033","tag":{"amenity":"waste_basket"}},"type":"Feature"},
	{"geometry":{"coordinates":[4.987098,51.001714],"type":"Point"},"properties":{"osm_id":"4271351037","tag":{"amenity":"waste_basket"}},"type":"Feature"},
	{"geometry":{"coordinates":[4.987636,51.001759],"type":"Point"},"properties":{"osm_id":"4271351039","tag":{"amenity":"waste_basket"}},"type":"Feature"},
	{"geometry":{"coordinates":[4.984684,51.001863],"type":"Point"},"properties":{"osm_id":"4273181934","tag":{"amenity":"recycling","operator":"Curitas n.v.","recycling:clothes":"yes","recycling_type":"container"}},"type":"Feature"},
	{"geometry":{"coordinates":[4.94661,50.963616],"type":"Point"},"properties":{"osm_id":"4383262830","tag":{"amenity":"recycling","operator":"Curitas NV","recycling:clothes":"yes","recycling_type":"container"}},"type":"Feature"},
	{"geometry":{"coordinates":[4.94668,50.96362],"type":"Point"},"properties":{"osm_id":"4383262831","tag":{"amenity":"recycling","recycling:glass_bottles":"yes","recycling_type":"container"}},"type":"Feature"},
	{"geometry":{"coordinates":[4.950517,50.965126],"type":"Point"},"properties":{"osm_id":"4383262833","tag":{"amenity":"recycling","recycling:glass_bottles":"yes","recycling_type":"container"}},"type":"Feature"},
	{"geometry":{"coordinates":[4.950524,50.965163],"type":"Point"},"properties":{"osm_id":"4383262834","tag":{"amenity":"recycling","recycling:glass_bottles":"yes","recycling_type":"container"}},"type":"Feature"},
	{"geometry":{"coordinates":[4.95052,50.965144],"type":"Point"},"properties":{"osm_id":"4383265246","tag":{"amenity":"recycling","recycling:glass_bottles":"yes","recycling_type":"container"}},"type":"Feature"},
	{"geometry":{"coordinates":[4.950528,50.965192],"type":"Point"},"properties":{"osm_id":"4383265247","tag":{"amenity":"recycling","recycling:clothes":"yes","recycling_type":"container"}},"type":"Feature"},
	{"geometry":{"coordinates":[4.946644,50.963616],"type":"Point"},"properties":{"osm_id":"4383265766","tag":{"amenity":"recycling","recycling:glass_bottles":"yes","recycling_type":"container"}},"type":"Feature"},
	{"geometry":{"coordinates":[4.948195,50.97796],"type":"Point"},"properties":{"osm_id":"6251685905","tag":{"amenity":"recycling","recycling:glass":"yes","recycling_type":"container"}},"type":"Feature"},
	{"geometry":{"coordinates":[4.948183,50.977954],"type":"Point"},"properties":{"osm_id":"6251685906","tag":{"amenity":"recycling","recycling:clothes":"yes","recycling_type":"container"}},"type":"Feature"},
	{"geometry":{"coordinates":[4.982471,50.971694],"type":"Point"},"properties":{"name":"Textiel","osm_id":"7402017609","tag":{"amenity":"recycling","recycling:clothes":"yes","recycling_type":"container"}},"type":"Feature"},
	{"geometry":{"coordinates":[4.982492,50.97166],"type":"Point"},"properties":{"name":"Glas","osm_id":"7402017610","tag":{"amenity":"recycling","recycling:glass_bottles":"yes","recycling_type":"container"}},"type":"Feature"}
]
}
