{
"type": "FeatureCollection",
"features": [
	{"geometry":{"coordinates":[4.987236,47.314882],"type":"Point"},"properties":{"osm_id":"1501519465","tag":{"amenity":"waste_basket"}},"type":"Feature"},
	{"geometry":{"coordinates":[5.003707,47.312699],"type":"Point"},"properties":{"osm_id":"1630421513","tag":{"amenity":"waste_basket"}},"type":"Feature"},
	{"geometry":{"coordinates":[5.003898,47.312751],"type":"Point"},"properties":{"osm_id":"1630421514","tag":{"amenity":"waste_basket"}},"type":"Feature"},
	{"geometry":{"coordinates":[5.002856,47.312794],"type":"Point"},"properties":{"osm_id":"1630421519","tag":{"amenity":"waste_basket"}},"type":"Feature"},
	{"geometry":{"coordinates":[4.999076,47.313128],"type":"Point"},"properties":{"osm_id":"1630421537","tag":{"amenity":"waste_basket"}},"type":"Feature"},
	{"geometry":{"coordinates":[5.003201,47.313284],"type":"Point"},"properties":{"osm_id":"1630421569","tag":{"amenity":"waste_basket"}},"type":"Feature"},
	{"geometry":{"coordinates":[5.002778,47.313548],"type":"Point"},"properties":{"osm_id":"1630421640","tag":{"amenity":"waste_basket"}},"type":"Feature"},
	{"geometry":{"coordinates":[5.003086,47.313758],"type":"Point"},"properties":{"osm_id":"1630421685","tag":{"amenity":"waste_basket"}},"type":"Feature"},
	{"geometry":{"coordinates":[5.001921,47.314415],"type":"Point"},"properties":{"osm_id":"1630421721","tag":{"amenity":"waste_basket"}},"type":"Feature"},
	{"geometry":{"coordinates":[5.000873,47.314208],"type":"Point"},"properties":{"osm_id":"1630421737","tag":{"amenity":"waste_basket"}},"type":"Feature"},
	{"geometry":{"coordinates":[4.982134,47.31446],"type":"Point"},"properties":{"osm_id":"2623598293","tag":{"amenity":"waste_basket"}},"type":"Feature"},
	{"geometry":{"coordinates":[4.982484,47.315574],"type":"Point"},"properties":{"osm_id":"2623598451","tag":{"amenity":"waste_basket"}},"type":"Feature"},
	{"geometry":{"coordinates":[4.987154,47.315604],"type":"Point"},"properties":{"osm_id":"2623598453","tag":{"amenity":"waste_basket"}},"type":"Feature"},
	{"geometry":{"coordinates":[4.98679,47.315834],"type":"Point"},"properties":{"osm_id":"2623598483","tag":{"amenity":"waste_basket"}},"type":"Feature"},
	{"geometry":{"coordinates":[5.002259,47.287232],"type":"Point"},"properties":{"osm_id":"2628776543","tag":{"amenity":"waste_basket"}},"type":"Feature"},
	{"geometry":{"coordinates":[5.002986,47.287104],"type":"Point"},"properties":{"osm_id":"2628776556","tag":{"amenity":"waste_basket"}},"type":"Feature"},
	{"geometry":{"coordinates":[5.003289,47.320727],"type":"Point"},"properties":{"osm_id":"3790677158","tag":{"amenity":"waste_basket"}},"type":"Feature"},
	{"geometry":{"coordinates":[5.003041,47.320934],"type":"Point"},"properties":{"osm_id":"3790677160","tag":{"amenity":"waste_basket"}},"type":"Feature"},
	{"geometry":{"coordinates":[5.004692,47.323994],"type":"Point"},"properties":{"osm_id":"4384038500","tag":{"amenity":"waste_basket"}},"type":"Feature"},
	{"geometry":{"coordinates":[5.006112,47.323817],"type":"Point"},"properties":{"osm_id":"4384038501","tag":{"amenity":"waste_basket"}},"type":"Feature"},
	{"geometry":{"coordinates":[5.005611,47.323771],"type":"Point"},"properties":{"osm_id":"4384049991","tag":{"amenity":"waste_basket"}},"type":"Feature"},
	{"geometry":{"coordinates":[5.009165,47.28939],"type":"Point"},"properties":{"osm_id":"4510263417","tag":{"amenity":"waste_basket"}},"type":"Feature"},
	{"geometry":{"coordinates":[5.003831,47.289324],"type":"Point"},"properties":{"osm_id":"4510264383","tag":{"amenity":"recycling","recycling:glass":"yes","recycling_type":"container"}},"type":"Feature"},
	{"geometry":{"coordinates":[5.008658,47.28975],"type":"Point"},"properties":{"osm_id":"4510264384","tag":{"amenity":"recycling","recycling:glass":"yes","recycling_type":"container"}},"type":"Feature"},
	{"geometry":{"coordinates":[4.994566,47.312793],"type":"Point"},"properties":{"osm_id":"4763087394","tag":{"amenity":"waste_basket"}},"type":"Feature"},
	{"geometry":{"coordinates":[4.999019,47.291496],"type":"Point"},"properties":{"osm_id":"4810887201","tag":{"amenity":"waste_basket"}},"type":"Feature"},
	{"geometry":{"coordinates":[4.999175,47.291623],"type":"Point"},"properties":{"osm_id":"4810887202","tag":{"amenity":"waste_basket"}},"type":"Feature"},
	{"geometry":{"coordinates":[4.997614,47.29272],"type":"Point"},"properties":{"osm_id":"4810887206","tag":{"amenity":"waste_basket"}},"type":"Feature"},
	{"geometry":{"coordinates":[4.997819,47.29271],"type":"Point"},"properties":{"osm_id":"4810887207","tag":{"amenity":"waste_basket"}},"type":"Feature"},
	{"geometry":{"coordinates":[4.997757,47.292541],"type":"Point"},"properties":{"osm_id":"4810887208","tag":{"amenity":"waste_basket"}},"type":"Feature"},
	{"geometry":{"coordinates":[4.967646,47.303183],"type":"Point"},"properties":{"osm_id":"4896108891","tag":{"amenity":"waste_basket"}},"type":"Feature"},
	{"geometry":{"coordinates":[5.00081,47.316815],"type":"Point"},"properties":{"osm_id":"4909668420","tag":{"amenity":"waste_basket"}},"type":"Feature"},
	{"geometry":{"coordinates":[4.971373,47.315197],"type":"Point"},"properties":{"osm_id":"4977431936","tag":{"amenity":"waste_basket"}},"type":"Feature"},
	{"geometry":{"coordinates":[4.983251,47.321628],"type":"Point"},"properties":{"osm_id":"4977431961","tag":{"amenity":"waste_basket"}},"type":"Feature"},
	{"geometry":{"coordinates":[4.982649,47.321358],"type":"Point"},"properties":{"osm_id":"4977431962","tag":{"amenity":"waste_basket"}},"type":"Feature"},
	{"geometry":{"coordinates":[4.981905,47.321205],"type":"Point"},"properties":{"osm_id":"4977431963","tag":{"amenity":"waste_basket"}},"type":"Feature"},
	{"geometry":{"coordinates":[4.973176,47.281962],"type":"Point"},"properties":{"osm_id":"5048138241","tag":{"amenity":"waste_basket"}},"type":"Feature"},
	{"geometry":{"coordinates":[4.97297,47.282005],"type":"Point"},"properties":{"osm_id":"5048138242","tag":{"amenity":"waste_basket"}},"type":"Feature"},
	{"geometry":{"coordinates":[4.972752,47.282053],"type":"Point"},"properties":{"osm_id":"5048138243","tag":{"amenity":"waste_basket"}},"type":"Feature"},
	{"geometry":{"coordinates":[5.001198,47.311636],"type":"Point"},"properties":{"osm_id":"6681261196","tag":{"amenity":"waste_basket"}},"type":"Feature"},
	{"geometry":{"coordinates":[5.005799,47.328384],"type":"Point"},"properties":{"osm_id":"6958659516","tag":{"amenity":"waste_basket"}},"type":"Feature"},
	{"geometry":{"coordinates":[5.005684,47.328589],"type":"Point"},"properties":{"osm_id":"6958659517","tag":{"amenity":"waste_basket"}},"type":"Feature"},
	{"geometry":{"coordinates":[4.990576,47.289996],"type":"Point"},"properties":{"osm_id":"7274442157","tag":{"amenity":"waste_basket","material":"wood","operator":"Ville de Chen\u00c3\u00b4ve","waste":"trash"}},"type":"Feature"},
	{"geometry":{"coordinates":[4.999354,47.280434],"type":"Point"},"properties":{"osm_id":"7500358003","tag":{"amenity":"recycling","recycling:organic":"yes","recycling_type":"container"}},"type":"Feature"},
	{"geometry":{"coordinates":[5.003611,47.281286],"type":"Point"},"properties":{"osm_id":"7500358004","tag":{"amenity":"recycling","recycling:organic":"yes","recycling_type":"container"}},"type":"Feature"},
	{"geometry":{"coordinates":[5.002049,47.282496],"type":"Point"},"properties":{"osm_id":"7500358009","tag":{"amenity":"recycling","recycling:organic":"yes","recycling_type":"container"}},"type":"Feature"},
	{"geometry":{"coordinates":[4.993179,47.336236],"type":"Point"},"properties":{"osm_id":"7500397089","tag":{"amenity":"recycling","recycling:organic":"yes","recycling_type":"container"}},"type":"Feature"},
	{"geometry":{"coordinates":[4.984154,47.336787],"type":"Point"},"properties":{"osm_id":"7500397090","tag":{"amenity":"recycling","recycling:organic":"yes","recycling_type":"container"}},"type":"Feature"},
	{"geometry":{"coordinates":[4.984156,47.336754],"type":"Point"},"properties":{"osm_id":"7500397091","tag":{"amenity":"recycling","recycling:organic":"yes","recycling_type":"container"}},"type":"Feature"},
	{"geometry":{"coordinates":[4.984156,47.336725],"type":"Point"},"properties":{"osm_id":"7500397092","tag":{"amenity":"recycling","recycling:organic":"yes","recycling_type":"container"}},"type":"Feature"},
	{"geometry":{"coordinates":[4.973825,47.337172],"type":"Point"},"properties":{"osm_id":"7500397093","tag":{"amenity":"recycling","recycling:organic":"yes","recycling_type":"container"}},"type":"Feature"}
]
}
