{
"type": "FeatureCollection",
"lastupdate": "2020-08-06T00:00:00Z",
"features": [
	{"geometry":{"coordinates":[4.92949,47.129473],"type":"Point"},"properties":{"osm_id":"1997382169","tag":{"amenity":"recycling","recycling:batteries":"yes","recycling:cans":"yes","recycling:clothes":"yes","recycling:glass":"yes","recycling:paper":"yes","recycling:scrap_metal":"yes","recycling_type":"centre"}},"type":"Feature"},
	{"geometry":{"coordinates":[4.950423,47.13446],"type":"Point"},"properties":{"osm_id":"2700176056","tag":{"amenity":"recycling","recycling:glass":"yes","recycling:paper":"yes","recycling_type":"container"}},"type":"Feature"},
	{"geometry":{"coordinates":[4.950324,47.134583],"type":"Point"},"properties":{"osm_id":"2700176059","tag":{"amenity":"waste_basket"}},"type":"Feature"},
	{"geometry":{"coordinates":[4.990438,47.146368],"type":"Point"},"properties":{"osm_id":"3141636212","tag":{"amenity":"waste_basket"}},"type":"Feature"},
	{"geometry":{"coordinates":[4.931022,47.110841],"type":"Point"},"properties":{"osm_id":"3687333994","tag":{"amenity":"waste_basket"}},"type":"Feature"},
	{"geometry":{"coordinates":[4.931565,47.111612],"type":"Point"},"properties":{"osm_id":"3687334008","tag":{"amenity":"waste_basket"}},"type":"Feature"},
	{"geometry":{"coordinates":[4.944251,47.123701],"type":"Point"},"properties":{"osm_id":"3687334825","tag":{"amenity":"waste_basket"}},"type":"Feature"},
	{"geometry":{"coordinates":[4.94436,47.123871],"type":"Point"},"properties":{"osm_id":"3687334828","tag":{"amenity":"waste_basket"}},"type":"Feature"},
	{"geometry":{"coordinates":[4.944455,47.124068],"type":"Point"},"properties":{"osm_id":"3687334830","tag":{"amenity":"waste_basket"}},"type":"Feature"},
	{"geometry":{"coordinates":[4.965348,47.13136],"type":"Point"},"properties":{"osm_id":"4723362619","tag":{"amenity":"waste_basket"}},"type":"Feature"}
]
}
