{
"type": "FeatureCollection",
"features": [
	{"geometry":{"coordinates":[4.97566,45.833297],"type":"Point"},"properties":{"osm_id":"2420190464","tag":{"amenity":"recycling","recycling:glass_bottles":"yes","recycling:paper":"yes","recycling_type":"container"}},"type":"Feature"},
	{"geometry":{"coordinates":[4.977171,45.833734],"type":"Point"},"properties":{"osm_id":"2420190465","tag":{"amenity":"waste_basket"}},"type":"Feature"},
	{"geometry":{"coordinates":[4.976179,45.829458],"type":"Point"},"properties":{"osm_id":"2420203317","tag":{"amenity":"recycling"}},"type":"Feature"},
	{"geometry":{"coordinates":[4.979486,45.829141],"type":"Point"},"properties":{"osm_id":"2425290265","tag":{"amenity":"waste_basket"}},"type":"Feature"},
	{"geometry":{"coordinates":[4.983592,45.830444],"type":"Point"},"properties":{"osm_id":"2429073697","tag":{"amenity":"recycling","recycling:glass":"yes"}},"type":"Feature"},
	{"geometry":{"coordinates":[4.982282,45.829352],"type":"Point"},"properties":{"osm_id":"2429073698","tag":{"amenity":"waste_basket"}},"type":"Feature"},
	{"geometry":{"coordinates":[4.980262,45.82933],"type":"Point"},"properties":{"osm_id":"2430900987","tag":{"amenity":"waste_basket"}},"type":"Feature"},
	{"geometry":{"coordinates":[4.981036,45.831057],"type":"Point"},"properties":{"osm_id":"2430900995","tag":{"amenity":"waste_basket"}},"type":"Feature"},
	{"geometry":{"coordinates":[4.980587,45.831086],"type":"Point"},"properties":{"osm_id":"2430900998","tag":{"amenity":"waste_basket"}},"type":"Feature"},
	{"geometry":{"coordinates":[5.00081,45.835936],"type":"Point"},"properties":{"osm_id":"2431651785","tag":{"amenity":"recycling","recycling:glass_bottles":"yes","recycling_type":"container"}},"type":"Feature"},
	{"geometry":{"coordinates":[5.00174,45.840178],"type":"Point"},"properties":{"osm_id":"2431651851","tag":{"amenity":"waste_basket"}},"type":"Feature"},
	{"geometry":{"coordinates":[4.966831,45.829574],"type":"Point"},"properties":{"osm_id":"2441637706","tag":{"amenity":"recycling","recycling:glass_bottles":"yes"}},"type":"Feature"},
	{"geometry":{"coordinates":[4.976165,45.829485],"type":"Point"},"properties":{"osm_id":"2442563051","tag":{"amenity":"waste_basket"}},"type":"Feature"},
	{"geometry":{"coordinates":[4.977915,45.829506],"type":"Point"},"properties":{"osm_id":"2442563052","tag":{"amenity":"recycling","recycling:glass":"yes"}},"type":"Feature"},
	{"geometry":{"coordinates":[4.970212,45.828987],"type":"Point"},"properties":{"osm_id":"2444095731","tag":{"amenity":"recycling","recycling:glass_bottles":"yes"}},"type":"Feature"},
	{"geometry":{"coordinates":[5.001063,45.840091],"type":"Point"},"properties":{"osm_id":"2447844707","tag":{"amenity":"waste_basket"}},"type":"Feature"},
	{"geometry":{"coordinates":[5.006351,45.839714],"type":"Point"},"properties":{"osm_id":"2449489231","tag":{"amenity":"waste_basket"}},"type":"Feature"},
	{"geometry":{"coordinates":[5.005886,45.83665],"type":"Point"},"properties":{"osm_id":"2452543620","tag":{"amenity":"recycling","location":"overground","recycling:glass_bottles":"yes","recycling_type":"container"}},"type":"Feature"},
	{"geometry":{"coordinates":[4.998802,45.838597],"type":"Point"},"properties":{"osm_id":"2452866738","tag":{"amenity":"recycling"}},"type":"Feature"},
	{"geometry":{"coordinates":[4.975708,45.835567],"type":"Point"},"properties":{"osm_id":"2459922459","tag":{"amenity":"waste_basket"}},"type":"Feature"},
	{"geometry":{"coordinates":[4.978109,45.832795],"type":"Point"},"properties":{"osm_id":"2635139215","tag":{"amenity":"waste_basket"}},"type":"Feature"},
	{"geometry":{"coordinates":[5.0085,45.834402],"type":"Point"},"properties":{"osm_id":"2778984482","tag":{"amenity":"recycling","recycling:glass_bottles":"yes","recycling_type":"container"}},"type":"Feature"},
	{"geometry":{"coordinates":[4.999729,45.834512],"type":"Point"},"properties":{"osm_id":"2833243834","tag":{"amenity":"waste_basket"}},"type":"Feature"},
	{"geometry":{"coordinates":[5.004389,45.833078],"type":"Point"},"properties":{"osm_id":"2833250188","tag":{"amenity":"recycling","location":"overground","recycling:glass_bottles":"yes","recycling_type":"container"}},"type":"Feature"},
	{"geometry":{"coordinates":[5.005404,45.833418],"type":"Point"},"properties":{"osm_id":"2833250193","tag":{"amenity":"waste_basket"}},"type":"Feature"},
	{"geometry":{"coordinates":[4.996938,45.833893],"type":"Point"},"properties":{"osm_id":"2833272003","tag":{"amenity":"recycling","recycling:glass":"yes"}},"type":"Feature"},
	{"geometry":{"coordinates":[4.996942,45.833882],"type":"Point"},"properties":{"osm_id":"2833958460","tag":{"amenity":"waste_basket"}},"type":"Feature"},
	{"geometry":{"coordinates":[4.997552,45.838989],"type":"Point"},"properties":{"osm_id":"2968411922","tag":{"amenity":"waste_basket"}},"type":"Feature"},
	{"geometry":{"coordinates":[5.000926,45.839755],"type":"Point"},"properties":{"osm_id":"2968431237","tag":{"amenity":"waste_basket"}},"type":"Feature"},
	{"geometry":{"coordinates":[5.001026,45.839765],"type":"Point"},"properties":{"osm_id":"2968431242","tag":{"amenity":"waste_basket"}},"type":"Feature"},
	{"geometry":{"coordinates":[5.003457,45.836838],"type":"Point"},"properties":{"osm_id":"4017933590","tag":{"amenity":"waste_basket"}},"type":"Feature"},
	{"geometry":{"coordinates":[5.002938,45.837526],"type":"Point"},"properties":{"osm_id":"4017984302","tag":{"amenity":"waste_basket"}},"type":"Feature"},
	{"geometry":{"coordinates":[5.002554,45.837818],"type":"Point"},"properties":{"osm_id":"4017996693","tag":{"amenity":"waste_basket"}},"type":"Feature"},
	{"geometry":{"coordinates":[5.002105,45.83759],"type":"Point"},"properties":{"osm_id":"4017996990","tag":{"amenity":"waste_basket"}},"type":"Feature"},
	{"geometry":{"coordinates":[4.996956,45.830197],"type":"Point"},"properties":{"osm_id":"4126955789","tag":{"amenity":"recycling","recycling:glass_bottles":"yes","recycling_type":"container"}},"type":"Feature"},
	{"geometry":{"coordinates":[4.997011,45.830209],"type":"Point"},"properties":{"osm_id":"4130344353","tag":{"amenity":"recycling","recycling:glass_bottles":"yes","recycling_type":"container"}},"type":"Feature"},
	{"geometry":{"coordinates":[4.988338,45.83652],"type":"Point"},"properties":{"osm_id":"4351284187","tag":{"amenity":"recycling","recycling:glass_bottles":"yes","recycling_type":"container"}},"type":"Feature"},
	{"geometry":{"coordinates":[4.988327,45.836536],"type":"Point"},"properties":{"osm_id":"4351284188","tag":{"amenity":"recycling","recycling:glass_bottles":"yes","recycling_type":"container"}},"type":"Feature"},
	{"geometry":{"coordinates":[5.008469,45.834395],"type":"Point"},"properties":{"osm_id":"4375228796","tag":{"amenity":"recycling","recycling:glass_bottles":"yes","recycling_type":"container"}},"type":"Feature"},
	{"geometry":{"coordinates":[4.981098,45.834057],"type":"Point"},"properties":{"osm_id":"4376879743","tag":{"amenity":"waste_basket"}},"type":"Feature"},
	{"geometry":{"coordinates":[5.001336,45.841432],"type":"Point"},"properties":{"osm_id":"4416363831","tag":{"amenity":"waste_basket"}},"type":"Feature"},
	{"geometry":{"coordinates":[4.953023,45.831362],"type":"Point"},"properties":{"osm_id":"4547813307","tag":{"amenity":"recycling","recycling:glass_bottles":"yes","recycling_type":"container"}},"type":"Feature"},
	{"geometry":{"coordinates":[4.953008,45.831348],"type":"Point"},"properties":{"osm_id":"4547813308","tag":{"amenity":"waste_basket"}},"type":"Feature"},
	{"geometry":{"coordinates":[4.992568,45.832773],"type":"Point"},"properties":{"osm_id":"6228908098","tag":{"amenity":"waste_basket","wikimedia_commons":"File:Une poubelle pr\u00c3\u00a8s du bassin tampon Les Bottes (Beynost).jpg"}},"type":"Feature"},
	{"geometry":{"coordinates":[4.978074,45.83158],"type":"Point"},"properties":{"osm_id":"6236222342","tag":{"amenity":"waste_basket"}},"type":"Feature"},
	{"geometry":{"coordinates":[4.979163,45.830169],"type":"Point"},"properties":{"osm_id":"6239245657","tag":{"amenity":"waste_basket"}},"type":"Feature"},
	{"geometry":{"coordinates":[4.978366,45.829603],"type":"Point"},"properties":{"osm_id":"6241479176","tag":{"amenity":"waste_basket"}},"type":"Feature"},
	{"geometry":{"coordinates":[4.979199,45.830155],"type":"Point"},"properties":{"osm_id":"6241481790","tag":{"amenity":"waste_basket"}},"type":"Feature"},
	{"geometry":{"coordinates":[4.977652,45.830498],"type":"Point"},"properties":{"osm_id":"6254258536","tag":{"amenity":"recycling","recycling:glass":"no","recycling_type":"container"}},"type":"Feature"},
	{"geometry":{"coordinates":[4.978157,45.830729],"type":"Point"},"properties":{"osm_id":"6254275801","tag":{"amenity":"waste_basket"}},"type":"Feature"},
	{"geometry":{"coordinates":[4.979733,45.830693],"type":"Point"},"properties":{"osm_id":"6254324991","tag":{"amenity":"waste_basket"}},"type":"Feature"},
	{"geometry":{"coordinates":[4.977949,45.830564],"type":"Point"},"properties":{"osm_id":"6254325038","tag":{"amenity":"waste_basket"}},"type":"Feature"},
	{"geometry":{"coordinates":[4.980301,45.830616],"type":"Point"},"properties":{"osm_id":"6255700358","tag":{"amenity":"waste_basket"}},"type":"Feature"},
	{"geometry":{"coordinates":[4.979015,45.831082],"type":"Point"},"properties":{"osm_id":"6259426612","tag":{"amenity":"waste_basket"}},"type":"Feature"},
	{"geometry":{"coordinates":[4.976658,45.829273],"type":"Point"},"properties":{"osm_id":"6341784863","tag":{"amenity":"waste_basket"}},"type":"Feature"},
	{"geometry":{"coordinates":[4.977841,45.831724],"type":"Point"},"properties":{"osm_id":"6341792457","tag":{"amenity":"waste_basket"}},"type":"Feature"},
	{"geometry":{"coordinates":[4.978931,45.830841],"type":"Point"},"properties":{"osm_id":"6344407027","tag":{"amenity":"waste_basket"}},"type":"Feature"},
	{"geometry":{"coordinates":[4.9813,45.82933],"type":"Point"},"properties":{"osm_id":"6351795831","tag":{"amenity":"waste_basket"}},"type":"Feature"},
	{"geometry":{"coordinates":[4.981644,45.828924],"type":"Point"},"properties":{"osm_id":"6351795836","tag":{"amenity":"waste_basket"}},"type":"Feature"},
	{"geometry":{"coordinates":[4.988227,45.832102],"type":"Point"},"properties":{"osm_id":"6356102954","tag":{"amenity":"waste_basket"}},"type":"Feature"},
	{"geometry":{"coordinates":[4.982245,45.835474],"type":"Point"},"properties":{"osm_id":"6365826489","tag":{"amenity":"waste_basket"}},"type":"Feature"},
	{"geometry":{"coordinates":[4.982946,45.835234],"type":"Point"},"properties":{"osm_id":"6366199854","tag":{"amenity":"waste_basket"}},"type":"Feature"},
	{"geometry":{"coordinates":[4.978639,45.829175],"type":"Point"},"properties":{"osm_id":"6380490177","tag":{"amenity":"waste_basket"}},"type":"Feature"},
	{"geometry":{"coordinates":[4.978657,45.829067],"type":"Point"},"properties":{"osm_id":"6380490183","tag":{"amenity":"waste_basket"}},"type":"Feature"},
	{"geometry":{"coordinates":[4.974552,45.865858],"type":"Point"},"properties":{"osm_id":"6397064041","tag":{"amenity":"recycling","colour":"yellow","recycling:plastic":"yes","recycling_type":"container"}},"type":"Feature"},
	{"geometry":{"coordinates":[4.974527,45.865864],"type":"Point"},"properties":{"osm_id":"6397064042","tag":{"amenity":"recycling","colour":"yellow","recycling:plastic":"yes","recycling_type":"container"}},"type":"Feature"},
	{"geometry":{"coordinates":[4.974568,45.86588],"type":"Point"},"properties":{"osm_id":"6397064043","tag":{"amenity":"recycling","colour":"blue","recycling:paper":"yes","recycling_type":"container"}},"type":"Feature"},
	{"geometry":{"coordinates":[4.974539,45.865886],"type":"Point"},"properties":{"osm_id":"6397064044","tag":{"amenity":"recycling","colour":"green","recycling:glass":"yes","recycling_type":"container"}},"type":"Feature"},
	{"geometry":{"coordinates":[4.974543,45.865904],"type":"Point"},"properties":{"osm_id":"6397064045","tag":{"amenity":"waste_basket"}},"type":"Feature"},
	{"geometry":{"coordinates":[4.978676,45.829185],"type":"Point"},"properties":{"osm_id":"6413374317","tag":{"amenity":"waste_basket"}},"type":"Feature"},
	{"geometry":{"coordinates":[4.964894,45.874639],"type":"Point"},"properties":{"osm_id":"6482483512","tag":{"amenity":"waste_basket"}},"type":"Feature"},
	{"geometry":{"coordinates":[4.965435,45.87475],"type":"Point"},"properties":{"osm_id":"6482882162","tag":{"amenity":"waste_basket"}},"type":"Feature"},
	{"geometry":{"coordinates":[4.979446,45.830251],"type":"Point"},"properties":{"osm_id":"6676003396","tag":{"amenity":"waste_basket"}},"type":"Feature"},
	{"geometry":{"coordinates":[4.997517,45.837437],"type":"Point"},"properties":{"osm_id":"6677268418","tag":{"amenity":"waste_basket"}},"type":"Feature"},
	{"geometry":{"coordinates":[4.998638,45.83762],"type":"Point"},"properties":{"osm_id":"6679548984","tag":{"amenity":"waste_basket"}},"type":"Feature"},
	{"geometry":{"coordinates":[4.999294,45.835907],"type":"Point"},"properties":{"osm_id":"6708142937","tag":{"amenity":"waste_basket"}},"type":"Feature"},
	{"geometry":{"coordinates":[4.999062,45.835845],"type":"Point"},"properties":{"osm_id":"6708142945","tag":{"amenity":"waste_basket"}},"type":"Feature"},
	{"geometry":{"coordinates":[4.997218,45.837631],"type":"Point"},"properties":{"osm_id":"6710531945","tag":{"amenity":"waste_basket"}},"type":"Feature"},
	{"geometry":{"coordinates":[4.999923,45.836609],"type":"Point"},"properties":{"osm_id":"6711602470","tag":{"amenity":"waste_basket"}},"type":"Feature"},
	{"geometry":{"coordinates":[5.000605,45.836011],"type":"Point"},"properties":{"osm_id":"6796385761","tag":{"amenity":"waste_basket"}},"type":"Feature"},
	{"geometry":{"coordinates":[5.000507,45.835988],"type":"Point"},"properties":{"osm_id":"6796385763","tag":{"amenity":"waste_basket"}},"type":"Feature"},
	{"geometry":{"coordinates":[5.001958,45.840332],"type":"Point"},"properties":{"osm_id":"7216514263","tag":{"amenity":"waste_basket"}},"type":"Feature"},
	{"geometry":{"coordinates":[5.001916,45.840332],"type":"Point"},"properties":{"osm_id":"7216514264","tag":{"amenity":"recycling","recycling:glass_bottles":"yes","recycling_type":"container"}},"type":"Feature"},
	{"geometry":{"coordinates":[4.976466,45.835766],"type":"Point"},"properties":{"osm_id":"7642437249","tag":{"amenity":"waste_basket"}},"type":"Feature"}
]
}
