{
"type": "FeatureCollection",
"features": [
	{"geometry":{"coordinates":[4.931041,45.71445],"type":"Point"},"properties":{"osm_id":"1147590764","tag":{"amenity":"waste_basket"}},"type":"Feature"},
	{"geometry":{"coordinates":[4.931401,45.71432],"type":"Point"},"properties":{"osm_id":"1147590768","tag":{"amenity":"waste_basket"}},"type":"Feature"},
	{"geometry":{"coordinates":[4.931373,45.715188],"type":"Point"},"properties":{"osm_id":"1147590769","tag":{"amenity":"waste_basket"}},"type":"Feature"},
	{"geometry":{"coordinates":[4.931325,45.714259],"type":"Point"},"properties":{"osm_id":"1147590770","tag":{"amenity":"waste_basket"}},"type":"Feature"},
	{"geometry":{"coordinates":[4.931118,45.714504],"type":"Point"},"properties":{"osm_id":"1147590775","tag":{"amenity":"waste_basket"}},"type":"Feature"},
	{"geometry":{"coordinates":[4.929879,45.715462],"type":"Point"},"properties":{"osm_id":"1147590777","tag":{"amenity":"waste_basket"}},"type":"Feature"},
	{"geometry":{"coordinates":[4.930186,45.715729],"type":"Point"},"properties":{"osm_id":"1178802628","tag":{"amenity":"waste_basket"}},"type":"Feature"},
	{"geometry":{"coordinates":[4.928504,45.716899],"type":"Point"},"properties":{"osm_id":"1179456174","tag":{"amenity":"waste_basket"}},"type":"Feature"},
	{"geometry":{"coordinates":[4.928072,45.716588],"type":"Point"},"properties":{"osm_id":"1179456196","tag":{"amenity":"waste_basket"}},"type":"Feature"},
	{"geometry":{"coordinates":[4.971695,45.743711],"type":"Point"},"properties":{"osm_id":"1688614661","tag":{"amenity":"recycling","recycling:glass_bottles":"yes","recycling_type":"container"}},"type":"Feature"},
	{"geometry":{"coordinates":[4.931952,45.714554],"type":"Point"},"properties":{"osm_id":"1737983145","tag":{"amenity":"waste_basket"}},"type":"Feature"},
	{"geometry":{"coordinates":[4.922872,45.758878],"type":"Point"},"properties":{"osm_id":"2139127071","tag":{"amenity":"recycling","recycling:glass_bottles":"yes","recycling_type":"container"}},"type":"Feature"},
	{"geometry":{"coordinates":[4.927484,45.711756],"type":"Point"},"properties":{"osm_id":"2201167131","tag":{"amenity":"waste_basket"}},"type":"Feature"},
	{"geometry":{"coordinates":[4.925781,45.757988],"type":"Point"},"properties":{"osm_id":"2204913533","tag":{"amenity":"recycling","recycling:glass_bottles":"yes","recycling_type":"container"}},"type":"Feature"},
	{"geometry":{"coordinates":[4.926361,45.759068],"type":"Point"},"properties":{"osm_id":"2204913539","tag":{"amenity":"recycling","recycling:glass_bottles":"yes","recycling_type":"container"}},"type":"Feature"},
	{"geometry":{"coordinates":[4.977228,45.706507],"type":"Point"},"properties":{"osm_id":"2486399632","tag":{"amenity":"recycling","recycling:glass_bottles":"yes","recycling_type":"container"}},"type":"Feature"},
	{"geometry":{"coordinates":[4.939225,45.756772],"type":"Point"},"properties":{"osm_id":"2809653727","tag":{"addr:housenumber":"66"}},"type":"Feature"},
	{"geometry":{"coordinates":[4.932208,45.706782],"type":"Point"},"properties":{"osm_id":"3283583234","tag":{"amenity":"recycling","recycling:batteries":"no","recycling:cans":"no","recycling:clothes":"no","recycling:glass":"yes","recycling:paper":"no","recycling:scrap_metal":"no"}},"type":"Feature"},
	{"geometry":{"coordinates":[4.931563,45.714038],"type":"Point"},"properties":{"osm_id":"3627072679","tag":{"amenity":"recycling","recycling:cans":"no","recycling:glass":"no","recycling:glass_bottles":"yes","recycling_type":"container","wheelchair":"limited"}},"type":"Feature"},
	{"geometry":{"coordinates":[4.934061,45.717282],"type":"Point"},"properties":{"osm_id":"3627072680","tag":{"amenity":"recycling","recycling:cans":"yes","recycling:glass_bottles":"yes","recycling_type":"container","wheelchair":"limited"}},"type":"Feature"},
	{"geometry":{"coordinates":[4.973004,45.758071],"type":"Point"},"properties":{"osm_id":"3796686078","tag":{"amenity":"recycling","recycling:glass_bottles":"yes","recycling_type":"container"}},"type":"Feature"},
	{"geometry":{"coordinates":[4.935779,45.722805],"type":"Point"},"properties":{"osm_id":"3885380332","tag":{"amenity":"recycling","recycling:glass_bottles":"yes","recycling_type":"container"}},"type":"Feature"},
	{"geometry":{"coordinates":[4.933565,45.711045],"type":"Point"},"properties":{"osm_id":"3893041232","tag":{"amenity":"recycling","recycling:glass_bottles":"yes","recycling_type":"container"}},"type":"Feature"},
	{"geometry":{"coordinates":[4.945078,45.753181],"type":"Point"},"properties":{"osm_id":"3966035268","tag":{"amenity":"waste_basket"}},"type":"Feature"},
	{"geometry":{"coordinates":[4.94502,45.753511],"type":"Point"},"properties":{"osm_id":"3966035269","tag":{"amenity":"waste_basket"}},"type":"Feature"},
	{"geometry":{"coordinates":[4.945329,45.753682],"type":"Point"},"properties":{"osm_id":"3966035271","tag":{"amenity":"waste_basket"}},"type":"Feature"},
	{"geometry":{"coordinates":[4.953454,45.74055],"type":"Point"},"properties":{"osm_id":"3992901427","tag":{"amenity":"waste_basket"}},"type":"Feature"},
	{"geometry":{"coordinates":[4.953801,45.741426],"type":"Point"},"properties":{"osm_id":"3992901438","tag":{"amenity":"waste_basket"}},"type":"Feature"},
	{"geometry":{"coordinates":[4.954143,45.742369],"type":"Point"},"properties":{"osm_id":"3992909962","tag":{"amenity":"waste_basket"}},"type":"Feature"},
	{"geometry":{"coordinates":[4.954255,45.743625],"type":"Point"},"properties":{"osm_id":"3992909980","tag":{"amenity":"waste_basket"}},"type":"Feature"},
	{"geometry":{"coordinates":[4.954659,45.744685],"type":"Point"},"properties":{"osm_id":"3992910004","tag":{"amenity":"waste_basket"}},"type":"Feature"},
	{"geometry":{"coordinates":[4.955026,45.746378],"type":"Point"},"properties":{"osm_id":"3992910025","tag":{"amenity":"waste_basket"}},"type":"Feature"},
	{"geometry":{"coordinates":[4.956005,45.747191],"type":"Point"},"properties":{"osm_id":"3992910034","tag":{"amenity":"waste_basket"}},"type":"Feature"},
	{"geometry":{"coordinates":[4.95672,45.748014],"type":"Point"},"properties":{"osm_id":"3992910058","tag":{"amenity":"waste_basket"}},"type":"Feature"},
	{"geometry":{"coordinates":[4.958255,45.748186],"type":"Point"},"properties":{"osm_id":"3992910063","tag":{"amenity":"waste_basket"}},"type":"Feature"},
	{"geometry":{"coordinates":[4.959906,45.748299],"type":"Point"},"properties":{"osm_id":"3992910076","tag":{"amenity":"waste_basket"}},"type":"Feature"},
	{"geometry":{"coordinates":[4.964282,45.749653],"type":"Point"},"properties":{"osm_id":"3992910130","tag":{"amenity":"waste_basket"}},"type":"Feature"},
	{"geometry":{"coordinates":[4.974136,45.750372],"type":"Point"},"properties":{"osm_id":"3992910192","tag":{"amenity":"waste_basket"}},"type":"Feature"},
	{"geometry":{"coordinates":[4.96621,45.750379],"type":"Point"},"properties":{"osm_id":"3992910193","tag":{"amenity":"waste_basket"}},"type":"Feature"},
	{"geometry":{"coordinates":[4.970149,45.750854],"type":"Point"},"properties":{"osm_id":"3992910233","tag":{"amenity":"waste_basket"}},"type":"Feature"},
	{"geometry":{"coordinates":[4.96921,45.750943],"type":"Point"},"properties":{"osm_id":"3992910240","tag":{"amenity":"waste_basket"}},"type":"Feature"},
	{"geometry":{"coordinates":[4.977282,45.749492],"type":"Point"},"properties":{"osm_id":"3995896103","tag":{"amenity":"waste_basket"}},"type":"Feature"},
	{"geometry":{"coordinates":[4.982681,45.752044],"type":"Point"},"properties":{"osm_id":"3995896149","tag":{"amenity":"waste_basket"}},"type":"Feature"},
	{"geometry":{"coordinates":[5.001393,45.72755],"type":"Point"},"properties":{"osm_id":"4083439173","tag":{"amenity":"waste_basket"}},"type":"Feature"},
	{"geometry":{"coordinates":[4.925659,45.746519],"type":"Point"},"properties":{"osm_id":"4140198046","tag":{"amenity":"recycling"}},"type":"Feature"},
	{"geometry":{"coordinates":[4.955927,45.743241],"type":"Point"},"properties":{"osm_id":"4466208318","tag":{"amenity":"waste_basket"}},"type":"Feature"},
	{"geometry":{"coordinates":[4.926999,45.766892],"type":"Point"},"properties":{"osm_id":"4532437308","tag":{"amenity":"recycling","recycling:glass_bottles":"yes","recycling_type":"container"}},"type":"Feature"},
	{"geometry":{"coordinates":[4.938209,45.728227],"type":"Point"},"properties":{"osm_id":"4740730004","tag":{"amenity":"recycling","recycling:glass_bottles":"yes","recycling_type":"container"}},"type":"Feature"},
	{"geometry":{"coordinates":[4.931667,45.761735],"type":"Point"},"properties":{"osm_id":"4824479354","tag":{"amenity":"recycling","recycling:glass_bottles":"yes","recycling_type":"container"}},"type":"Feature"},
	{"geometry":{"coordinates":[5.008643,45.745037],"type":"Point"},"properties":{"barrier":"gate","osm_id":"5878049929"},"type":"Feature"},
	{"geometry":{"coordinates":[4.938499,45.706346],"type":"Point"},"properties":{"osm_id":"6240607292","tag":{"amenity":"waste_basket"}},"type":"Feature"},
	{"geometry":{"coordinates":[5.000519,45.761703],"type":"Point"},"properties":{"osm_id":"6737180541","tag":{"amenity":"waste_basket"}},"type":"Feature"},
	{"geometry":{"coordinates":[4.999469,45.761219],"type":"Point"},"properties":{"osm_id":"6745821420","tag":{"amenity":"waste_basket"}},"type":"Feature"},
	{"geometry":{"coordinates":[4.970046,45.738053],"type":"Point"},"properties":{"osm_id":"6899148304","tag":{"amenity":"waste_basket"}},"type":"Feature"},
	{"geometry":{"coordinates":[4.934573,45.719065],"type":"Point"},"properties":{"osm_id":"7208347668","tag":{"amenity":"waste_basket"}},"type":"Feature"},
	{"geometry":{"coordinates":[4.959547,45.758187],"type":"Point"},"properties":{"osm_id":"7271693531","tag":{"amenity":"waste_basket"}},"type":"Feature"},
	{"geometry":{"coordinates":[5.006428,45.73206],"type":"Point"},"properties":{"osm_id":"7428932895","tag":{"amenity":"waste_basket"}},"type":"Feature"},
	{"geometry":{"coordinates":[5.006798,45.732198],"type":"Point"},"properties":{"osm_id":"7428932897","tag":{"amenity":"waste_basket"}},"type":"Feature"},
	{"geometry":{"coordinates":[5.009387,45.732543],"type":"Point"},"properties":{"osm_id":"7443864108","tag":{"amenity":"waste_basket"}},"type":"Feature"},
	{"geometry":{"coordinates":[5.001853,45.735538],"type":"Point"},"properties":{"osm_id":"7444083536","tag":{"amenity":"waste_basket"}},"type":"Feature"},
	{"geometry":{"coordinates":[5.001927,45.735245],"type":"Point"},"properties":{"osm_id":"7444083537","tag":{"amenity":"recycling","recycling:glass_bottles":"yes","recycling:paper":"yes","recycling_type":"container"}},"type":"Feature"},
	{"geometry":{"coordinates":[5.00501,45.727494],"type":"Point"},"properties":{"osm_id":"7451340708","tag":{"amenity":"waste_basket"}},"type":"Feature"},
	{"geometry":{"coordinates":[5.004724,45.727232],"type":"Point"},"properties":{"osm_id":"7451340709","tag":{"amenity":"waste_basket"}},"type":"Feature"},
	{"geometry":{"coordinates":[5.003701,45.732993],"type":"Point"},"properties":{"osm_id":"7474321849","tag":{"amenity":"waste_basket"}},"type":"Feature"},
	{"geometry":{"coordinates":[5.003527,45.73302],"type":"Point"},"properties":{"osm_id":"7474321850","tag":{"amenity":"waste_basket"}},"type":"Feature"},
	{"geometry":{"coordinates":[5.002944,45.734073],"type":"Point"},"properties":{"osm_id":"7491441918","tag":{"amenity":"waste_basket"}},"type":"Feature"},
	{"geometry":{"coordinates":[5.004871,45.727544],"type":"Point"},"properties":{"osm_id":"7499166791","tag":{"amenity":"waste_basket"}},"type":"Feature"},
	{"geometry":{"coordinates":[5.002093,45.731612],"type":"Point"},"properties":{"osm_id":"7502570401","tag":{"amenity":"waste_basket"}},"type":"Feature"},
	{"geometry":{"coordinates":[5.002724,45.731517],"type":"Point"},"properties":{"osm_id":"7502570402","tag":{"amenity":"waste_basket"}},"type":"Feature"},
	{"geometry":{"coordinates":[5.002513,45.731519],"type":"Point"},"properties":{"osm_id":"7502570403","tag":{"amenity":"waste_basket"}},"type":"Feature"},
	{"geometry":{"coordinates":[5.002404,45.731574],"type":"Point"},"properties":{"osm_id":"7502570404","tag":{"amenity":"waste_basket"}},"type":"Feature"},
	{"geometry":{"coordinates":[5.005611,45.727948],"type":"Point"},"properties":{"osm_id":"7502570420","tag":{"amenity":"waste_basket"}},"type":"Feature"},
	{"geometry":{"coordinates":[4.999534,45.731854],"type":"Point"},"properties":{"osm_id":"7503165150","tag":{"amenity":"waste_basket"}},"type":"Feature"},
	{"geometry":{"coordinates":[4.998726,45.731827],"type":"Point"},"properties":{"osm_id":"7503165155","tag":{"amenity":"waste_basket"}},"type":"Feature"},
	{"geometry":{"coordinates":[4.998313,45.732077],"type":"Point"},"properties":{"osm_id":"7503165159","tag":{"amenity":"waste_basket"}},"type":"Feature"},
	{"geometry":{"coordinates":[5.005455,45.732243],"type":"Point"},"properties":{"osm_id":"7510073275","tag":{"amenity":"waste_basket"}},"type":"Feature"},
	{"geometry":{"coordinates":[5.005935,45.732161],"type":"Point"},"properties":{"osm_id":"7510073276","tag":{"amenity":"waste_basket"}},"type":"Feature"},
	{"geometry":{"coordinates":[5.005607,45.73212],"type":"Point"},"properties":{"osm_id":"7510073277","tag":{"amenity":"waste_basket"}},"type":"Feature"},
	{"geometry":{"coordinates":[5.005396,45.732143],"type":"Point"},"properties":{"osm_id":"7510073278","tag":{"amenity":"waste_basket"}},"type":"Feature"},
	{"geometry":{"coordinates":[5.001698,45.731683],"type":"Point"},"properties":{"osm_id":"7510099588","tag":{"amenity":"waste_basket"}},"type":"Feature"},
	{"geometry":{"coordinates":[5.000861,45.731743],"type":"Point"},"properties":{"osm_id":"7510099589","tag":{"amenity":"waste_basket"}},"type":"Feature"},
	{"geometry":{"coordinates":[5.000314,45.731756],"type":"Point"},"properties":{"osm_id":"7510099590","tag":{"amenity":"waste_basket"}},"type":"Feature"},
	{"geometry":{"coordinates":[4.99991,45.731715],"type":"Point"},"properties":{"osm_id":"7510099591","tag":{"amenity":"waste_basket"}},"type":"Feature"},
	{"geometry":{"coordinates":[4.997536,45.732257],"type":"Point"},"properties":{"osm_id":"7510099595","tag":{"amenity":"waste_basket"}},"type":"Feature"},
	{"geometry":{"coordinates":[4.99723,45.732524],"type":"Point"},"properties":{"osm_id":"7510099600","tag":{"amenity":"waste_basket"}},"type":"Feature"},
	{"geometry":{"coordinates":[4.99767,45.733045],"type":"Point"},"properties":{"osm_id":"7510099602","tag":{"amenity":"waste_basket"}},"type":"Feature"},
	{"geometry":{"coordinates":[5.007295,45.72283],"type":"Point"},"properties":{"osm_id":"7512291141","tag":{"amenity":"waste_basket"}},"type":"Feature"},
	{"geometry":{"coordinates":[5.007353,45.722806],"type":"Point"},"properties":{"osm_id":"7512291142","tag":{"amenity":"recycling","recycling:glass_bottles":"yes","recycling:paper":"yes","recycling_type":"container"}},"type":"Feature"},
	{"geometry":{"coordinates":[5.004027,45.723699],"type":"Point"},"properties":{"osm_id":"7512291158","tag":{"amenity":"waste_basket"}},"type":"Feature"},
	{"geometry":{"coordinates":[5.001844,45.724694],"type":"Point"},"properties":{"osm_id":"7512291164","tag":{"amenity":"waste_basket"}},"type":"Feature"},
	{"geometry":{"coordinates":[5.001867,45.724721],"type":"Point"},"properties":{"osm_id":"7512291165","tag":{"amenity":"recycling","recycling:glass_bottles":"yes","recycling:paper":"yes","recycling_type":"container"}},"type":"Feature"},
	{"geometry":{"coordinates":[5.002652,45.721064],"type":"Point"},"properties":{"osm_id":"7512291181","tag":{"amenity":"waste_basket"}},"type":"Feature"},
	{"geometry":{"coordinates":[5.006369,45.71986],"type":"Point"},"properties":{"osm_id":"7512335399","tag":{"amenity":"waste_basket"}},"type":"Feature"},
	{"geometry":{"coordinates":[5.006342,45.719889],"type":"Point"},"properties":{"osm_id":"7512335400","tag":{"amenity":"recycling","recycling:glass_bottles":"yes","recycling:paper":"yes","recycling_type":"container"}},"type":"Feature"},
	{"geometry":{"coordinates":[5.006161,45.719795],"type":"Point"},"properties":{"osm_id":"7512335407","tag":{"amenity":"waste_basket"}},"type":"Feature"},
	{"geometry":{"coordinates":[4.92323,45.761507],"type":"Point"},"properties":{"osm_id":"7512409595","tag":{"amenity":"recycling","recycling:glass_bottles":"yes","recycling_type":"container"}},"type":"Feature"},
	{"geometry":{"coordinates":[4.923078,45.760987],"type":"Point"},"properties":{"osm_id":"7512409671","tag":{"amenity":"waste_basket"}},"type":"Feature"},
	{"geometry":{"coordinates":[4.922043,45.760843],"type":"Point"},"properties":{"osm_id":"7512409672","tag":{"amenity":"waste_basket"}},"type":"Feature"},
	{"geometry":{"coordinates":[4.922417,45.761017],"type":"Point"},"properties":{"osm_id":"7512409675","tag":{"amenity":"waste_basket"}},"type":"Feature"},
	{"geometry":{"coordinates":[4.922174,45.760956],"type":"Point"},"properties":{"osm_id":"7512409676","tag":{"amenity":"waste_basket"}},"type":"Feature"},
	{"geometry":{"coordinates":[4.921896,45.760697],"type":"Point"},"properties":{"osm_id":"7512409678","tag":{"amenity":"waste_basket"}},"type":"Feature"},
	{"geometry":{"coordinates":[4.933035,45.763515],"type":"Point"},"properties":{"osm_id":"7514070460","tag":{"amenity":"waste_basket"}},"type":"Feature"},
	{"geometry":{"coordinates":[4.933047,45.763769],"type":"Point"},"properties":{"osm_id":"7514070462","tag":{"amenity":"waste_basket"}},"type":"Feature"},
	{"geometry":{"coordinates":[4.929529,45.762594],"type":"Point"},"properties":{"osm_id":"7514104790","tag":{"amenity":"waste_basket"}},"type":"Feature"},
	{"geometry":{"coordinates":[5.005474,45.731141],"type":"Point"},"properties":{"osm_id":"7515181766","tag":{"amenity":"waste_basket"}},"type":"Feature"},
	{"geometry":{"coordinates":[5.005245,45.731096],"type":"Point"},"properties":{"osm_id":"7515181767","tag":{"amenity":"waste_basket"}},"type":"Feature"},
	{"geometry":{"coordinates":[5.006004,45.731565],"type":"Point"},"properties":{"osm_id":"7515181768","tag":{"amenity":"waste_basket"}},"type":"Feature"},
	{"geometry":{"coordinates":[5.005445,45.731726],"type":"Point"},"properties":{"osm_id":"7515181769","tag":{"amenity":"waste_basket"}},"type":"Feature"},
	{"geometry":{"coordinates":[5.005573,45.731595],"type":"Point"},"properties":{"osm_id":"7515181776","tag":{"amenity":"waste_basket"}},"type":"Feature"},
	{"geometry":{"coordinates":[5.005781,45.731685],"type":"Point"},"properties":{"osm_id":"7515181779","tag":{"amenity":"waste_basket"}},"type":"Feature"},
	{"geometry":{"coordinates":[5.005215,45.730945],"type":"Point"},"properties":{"osm_id":"7515181783","tag":{"amenity":"waste_basket"}},"type":"Feature"},
	{"geometry":{"coordinates":[5.006113,45.731761],"type":"Point"},"properties":{"osm_id":"7515252790","tag":{"amenity":"waste_basket"}},"type":"Feature"},
	{"geometry":{"coordinates":[5.006495,45.731578],"type":"Point"},"properties":{"osm_id":"7515252799","tag":{"amenity":"waste_basket"}},"type":"Feature"},
	{"geometry":{"coordinates":[5.00625,45.731819],"type":"Point"},"properties":{"osm_id":"7515252800","tag":{"amenity":"waste_basket"}},"type":"Feature"},
	{"geometry":{"coordinates":[5.003682,45.732517],"type":"Point"},"properties":{"osm_id":"7515252806","tag":{"amenity":"waste_basket"}},"type":"Feature"},
	{"geometry":{"coordinates":[4.997761,45.732709],"type":"Point"},"properties":{"osm_id":"7515252826","tag":{"amenity":"waste_basket"}},"type":"Feature"},
	{"geometry":{"coordinates":[4.995816,45.732421],"type":"Point"},"properties":{"osm_id":"7515252827","tag":{"amenity":"waste_basket"}},"type":"Feature"},
	{"geometry":{"coordinates":[4.996646,45.732272],"type":"Point"},"properties":{"osm_id":"7515252828","tag":{"amenity":"waste_basket"}},"type":"Feature"},
	{"geometry":{"coordinates":[4.996214,45.732305],"type":"Point"},"properties":{"osm_id":"7515252829","tag":{"amenity":"waste_basket"}},"type":"Feature"},
	{"geometry":{"coordinates":[4.994845,45.730629],"type":"Point"},"properties":{"osm_id":"7515252835","tag":{"amenity":"waste_basket"}},"type":"Feature"},
	{"geometry":{"coordinates":[4.995262,45.731493],"type":"Point"},"properties":{"osm_id":"7515252839","tag":{"amenity":"waste_basket"}},"type":"Feature"},
	{"geometry":{"coordinates":[4.996145,45.73154],"type":"Point"},"properties":{"osm_id":"7515252840","tag":{"amenity":"waste_basket"}},"type":"Feature"},
	{"geometry":{"coordinates":[4.994438,45.730293],"type":"Point"},"properties":{"osm_id":"7515252852","tag":{"amenity":"waste_basket"}},"type":"Feature"},
	{"geometry":{"coordinates":[4.994209,45.730233],"type":"Point"},"properties":{"osm_id":"7515252853","tag":{"amenity":"waste_basket"}},"type":"Feature"},
	{"geometry":{"coordinates":[4.99416,45.730379],"type":"Point"},"properties":{"osm_id":"7515252854","tag":{"amenity":"waste_basket"}},"type":"Feature"},
	{"geometry":{"coordinates":[4.994051,45.730388],"type":"Point"},"properties":{"osm_id":"7515252855","tag":{"amenity":"waste_basket"}},"type":"Feature"},
	{"geometry":{"coordinates":[4.993851,45.730328],"type":"Point"},"properties":{"osm_id":"7515252856","tag":{"amenity":"waste_basket"}},"type":"Feature"},
	{"geometry":{"coordinates":[4.994149,45.730574],"type":"Point"},"properties":{"osm_id":"7515252865","tag":{"amenity":"waste_basket"}},"type":"Feature"},
	{"geometry":{"coordinates":[4.994139,45.730841],"type":"Point"},"properties":{"osm_id":"7515252869","tag":{"amenity":"waste_basket"}},"type":"Feature"},
	{"geometry":{"coordinates":[4.993762,45.730388],"type":"Point"},"properties":{"osm_id":"7515252871","tag":{"amenity":"recycling","recycling:glass_bottles":"yes","recycling_type":"container"}},"type":"Feature"},
	{"geometry":{"coordinates":[4.99317,45.730215],"type":"Point"},"properties":{"osm_id":"7515252877","tag":{"amenity":"waste_basket"}},"type":"Feature"},
	{"geometry":{"coordinates":[4.993005,45.730167],"type":"Point"},"properties":{"osm_id":"7515252878","tag":{"amenity":"waste_basket"}},"type":"Feature"},
	{"geometry":{"coordinates":[4.991554,45.728776],"type":"Point"},"properties":{"osm_id":"7515252890","tag":{"amenity":"waste_basket"}},"type":"Feature"},
	{"geometry":{"coordinates":[4.99514,45.729591],"type":"Point"},"properties":{"osm_id":"7515252897","tag":{"amenity":"waste_basket"}},"type":"Feature"},
	{"geometry":{"coordinates":[4.995403,45.729712],"type":"Point"},"properties":{"osm_id":"7515252898","tag":{"amenity":"waste_basket"}},"type":"Feature"},
	{"geometry":{"coordinates":[5.000857,45.729236],"type":"Point"},"properties":{"osm_id":"7515252912","tag":{"amenity":"recycling","recycling:glass_bottles":"yes","recycling:paper":"yes","recycling_type":"container"}},"type":"Feature"},
	{"geometry":{"coordinates":[4.982378,45.73363],"type":"Point"},"properties":{"osm_id":"7517102398","tag":{"amenity":"waste_basket"}},"type":"Feature"},
	{"geometry":{"coordinates":[4.995332,45.73266],"type":"Point"},"properties":{"osm_id":"7517102414","tag":{"amenity":"waste_basket"}},"type":"Feature"},
	{"geometry":{"coordinates":[4.995227,45.733055],"type":"Point"},"properties":{"osm_id":"7517102419","tag":{"amenity":"waste_basket"}},"type":"Feature"},
	{"geometry":{"coordinates":[4.995259,45.733129],"type":"Point"},"properties":{"osm_id":"7517102420","tag":{"amenity":"waste_basket"}},"type":"Feature"},
	{"geometry":{"coordinates":[4.99723,45.73382],"type":"Point"},"properties":{"osm_id":"7517102427","tag":{"amenity":"waste_basket"}},"type":"Feature"},
	{"geometry":{"coordinates":[4.997202,45.733852],"type":"Point"},"properties":{"osm_id":"7517102428","tag":{"amenity":"recycling","recycling:clothes":"yes","recycling:glass_bottles":"yes","recycling:paper":"yes","recycling_type":"container"}},"type":"Feature"},
	{"geometry":{"coordinates":[4.998032,45.733892],"type":"Point"},"properties":{"osm_id":"7517102429","tag":{"amenity":"waste_basket"}},"type":"Feature"},
	{"geometry":{"coordinates":[4.997902,45.733955],"type":"Point"},"properties":{"osm_id":"7517102436","tag":{"amenity":"waste_basket"}},"type":"Feature"},
	{"geometry":{"coordinates":[5.002712,45.733748],"type":"Point"},"properties":{"osm_id":"7517102451","tag":{"amenity":"waste_basket"}},"type":"Feature"},
	{"geometry":{"coordinates":[5.002735,45.733575],"type":"Point"},"properties":{"osm_id":"7517102452","tag":{"amenity":"waste_basket"}},"type":"Feature"},
	{"geometry":{"coordinates":[5.002519,45.733432],"type":"Point"},"properties":{"osm_id":"7517102471","tag":{"amenity":"waste_basket"}},"type":"Feature"},
	{"geometry":{"coordinates":[4.997912,45.732904],"type":"Point"},"properties":{"osm_id":"7517151594","tag":{"amenity":"waste_basket"}},"type":"Feature"},
	{"geometry":{"coordinates":[4.997834,45.732692],"type":"Point"},"properties":{"osm_id":"7517151598","tag":{"amenity":"waste_basket"}},"type":"Feature"},
	{"geometry":{"coordinates":[4.932299,45.72553],"type":"Point"},"properties":{"osm_id":"7519330939","tag":{"amenity":"recycling","recycling:glass_bottles":"yes","recycling_type":"container"}},"type":"Feature"},
	{"geometry":{"coordinates":[4.929714,45.726605],"type":"Point"},"properties":{"osm_id":"7519330947","tag":{"amenity":"waste_basket"}},"type":"Feature"},
	{"geometry":{"coordinates":[4.933679,45.736302],"type":"Point"},"properties":{"osm_id":"7519331114","tag":{"amenity":"recycling","recycling:glass_bottles":"yes","recycling_type":"container"}},"type":"Feature"},
	{"geometry":{"coordinates":[4.934691,45.737776],"type":"Point"},"properties":{"osm_id":"7519331116","tag":{"amenity":"recycling","recycling:cardboard":"yes","recycling:paper":"yes","recycling_type":"container"}},"type":"Feature"},
	{"geometry":{"coordinates":[4.932124,45.753439],"type":"Point"},"properties":{"osm_id":"7519331382","tag":{"amenity":"waste_basket"}},"type":"Feature"},
	{"geometry":{"coordinates":[4.935292,45.724766],"type":"Point"},"properties":{"osm_id":"7528366406","tag":{"amenity":"waste_basket"}},"type":"Feature"},
	{"geometry":{"coordinates":[4.932389,45.767158],"type":"Point"},"properties":{"osm_id":"7528516480","tag":{"amenity":"waste_basket"}},"type":"Feature"},
	{"geometry":{"coordinates":[4.931988,45.734421],"type":"Point"},"properties":{"osm_id":"7528526243","tag":{"amenity":"recycling","recycling:glass_bottles":"yes","recycling_type":"container"}},"type":"Feature"},
	{"geometry":{"coordinates":[4.9719,45.758275],"type":"Point"},"properties":{"osm_id":"7725470156","tag":{"amenity":"waste_basket"}},"type":"Feature"},
	{"geometry":{"coordinates":[4.974921,45.759282],"type":"Point"},"properties":{"osm_id":"7725474003","tag":{"amenity":"waste_basket"}},"type":"Feature"},
	{"geometry":{"coordinates":[4.976438,45.760472],"type":"Point"},"properties":{"osm_id":"7725484117","tag":{"amenity":"waste_basket"}},"type":"Feature"}
]
}
