{
"type": "FeatureCollection",
"features": [
	{"geometry":{"coordinates":[4.926851,45.648967],"type":"Point"},"properties":{"osm_id":"476467335","tag":{"amenity":"recycling","recycling:cardboard":"yes","recycling:clothes":"yes","recycling:glass":"yes","recycling:paper":"yes","recycling_type":"container"}},"type":"Feature"},
	{"geometry":{"coordinates":[4.952766,45.687875],"type":"Point"},"properties":{"osm_id":"1376135867","tag":{"amenity":"recycling","recycling:glass_bottles":"yes","recycling_type":"container"}},"type":"Feature"},
	{"geometry":{"coordinates":[4.955017,45.692067],"type":"Point"},"properties":{"osm_id":"1376136003","tag":{"amenity":"waste_basket"}},"type":"Feature"},
	{"geometry":{"coordinates":[4.936688,45.694333],"type":"Point"},"properties":{"osm_id":"1376136253","tag":{"amenity":"waste_basket"}},"type":"Feature"},
	{"geometry":{"coordinates":[4.936761,45.699329],"type":"Point"},"properties":{"osm_id":"1848883615","tag":{"amenity":"waste_basket"}},"type":"Feature"},
	{"geometry":{"coordinates":[4.936745,45.699424],"type":"Point"},"properties":{"osm_id":"1848883646","tag":{"amenity":"waste_basket"}},"type":"Feature"},
	{"geometry":{"coordinates":[4.95689,45.69025],"type":"Point"},"properties":{"osm_id":"2109113842","tag":{"amenity":"recycling","recycling:glass":"yes"}},"type":"Feature"},
	{"geometry":{"coordinates":[4.961687,45.692433],"type":"Point"},"properties":{"osm_id":"2792761001","tag":{"amenity":"recycling","recycling:PET":"yes","recycling:cans":"yes","recycling:cardboard":"yes","recycling:glass_bottles":"yes","recycling:paper":"yes","recycling:plastic":"yes","recycling:plastic_bottles":"yes","recycling:plastic_packaging":"yes","recycling:waste":"yes","recycling_type":"container"}},"type":"Feature"},
	{"geometry":{"coordinates":[4.961906,45.693095],"type":"Point"},"properties":{"osm_id":"2792761047","tag":{"amenity":"waste_basket"}},"type":"Feature"},
	{"geometry":{"coordinates":[4.962015,45.693418],"type":"Point"},"properties":{"osm_id":"2792761051","tag":{"amenity":"waste_basket"}},"type":"Feature"},
	{"geometry":{"coordinates":[4.962197,45.693741],"type":"Point"},"properties":{"osm_id":"2792761075","tag":{"amenity":"waste_basket"}},"type":"Feature"},
	{"geometry":{"coordinates":[4.962144,45.693841],"type":"Point"},"properties":{"osm_id":"2792761078","tag":{"amenity":"waste_basket"}},"type":"Feature"},
	{"geometry":{"coordinates":[4.962204,45.694026],"type":"Point"},"properties":{"osm_id":"2792761084","tag":{"amenity":"waste_basket"}},"type":"Feature"},
	{"geometry":{"coordinates":[4.962282,45.694287],"type":"Point"},"properties":{"osm_id":"2792761105","tag":{"amenity":"waste_basket"}},"type":"Feature"},
	{"geometry":{"coordinates":[4.962357,45.694555],"type":"Point"},"properties":{"osm_id":"2792761121","tag":{"amenity":"waste_basket"}},"type":"Feature"},
	{"geometry":{"coordinates":[4.975043,45.699386],"type":"Point"},"properties":{"osm_id":"3100257643","tag":{"amenity":"waste_basket"}},"type":"Feature"},
	{"geometry":{"coordinates":[4.975664,45.699418],"type":"Point"},"properties":{"osm_id":"3100257644","tag":{"amenity":"waste_basket"}},"type":"Feature"},
	{"geometry":{"coordinates":[4.976319,45.699098],"type":"Point"},"properties":{"osm_id":"3100257645","tag":{"amenity":"waste_basket"}},"type":"Feature"},
	{"geometry":{"coordinates":[4.977996,45.696558],"type":"Point"},"properties":{"osm_id":"3100273150","tag":{"amenity":"waste_basket"}},"type":"Feature"},
	{"geometry":{"coordinates":[4.977447,45.696418],"type":"Point"},"properties":{"osm_id":"3100273151","tag":{"amenity":"waste_basket"}},"type":"Feature"},
	{"geometry":{"coordinates":[4.929022,45.702542],"type":"Point"},"properties":{"osm_id":"3283583167","tag":{"amenity":"recycling","recycling:batteries":"no","recycling:cans":"no","recycling:clothes":"no","recycling:glass":"yes","recycling:paper":"no","recycling:scrap_metal":"no"}},"type":"Feature"},
	{"geometry":{"coordinates":[4.944013,45.697183],"type":"Point"},"properties":{"osm_id":"3340191473","tag":{"amenity":"waste_basket"}},"type":"Feature"},
	{"geometry":{"coordinates":[4.944087,45.697204],"type":"Point"},"properties":{"osm_id":"3340191477","tag":{"amenity":"waste_basket"}},"type":"Feature"},
	{"geometry":{"coordinates":[4.930853,45.697113],"type":"Point"},"properties":{"osm_id":"3834417998","tag":{"amenity":"waste_basket"}},"type":"Feature"},
	{"geometry":{"coordinates":[4.93061,45.697135],"type":"Point"},"properties":{"osm_id":"3834418002","tag":{"amenity":"waste_basket"}},"type":"Feature"},
	{"geometry":{"coordinates":[4.930446,45.697264],"type":"Point"},"properties":{"osm_id":"3834418008","tag":{"amenity":"waste_basket"}},"type":"Feature"},
	{"geometry":{"coordinates":[4.93079,45.697264],"type":"Point"},"properties":{"osm_id":"3834418009","tag":{"amenity":"waste_basket"}},"type":"Feature"},
	{"geometry":{"coordinates":[4.930223,45.697319],"type":"Point"},"properties":{"osm_id":"3834418012","tag":{"amenity":"waste_basket"}},"type":"Feature"},
	{"geometry":{"coordinates":[4.930659,45.697356],"type":"Point"},"properties":{"osm_id":"3834418015","tag":{"amenity":"waste_basket"}},"type":"Feature"},
	{"geometry":{"coordinates":[4.930214,45.697474],"type":"Point"},"properties":{"name":"Compost","osm_id":"3834418018","tag":{"amenity":"recycling","network":"Composteurs de quartier","operator":"Municipalit\u00c3\u00a9 - Agenda 21","recycling:garden_waste":"yes","recycling:green_waste":"yes","recycling:organic":"yes","recycling_type":"container","wheelchair":"no"}},"type":"Feature"},
	{"geometry":{"coordinates":[4.93964,45.691491],"type":"Point"},"properties":{"osm_id":"3889131569","tag":{"amenity":"waste_basket"}},"type":"Feature"},
	{"geometry":{"coordinates":[4.940227,45.691503],"type":"Point"},"properties":{"osm_id":"3889131574","tag":{"amenity":"waste_basket"}},"type":"Feature"},
	{"geometry":{"coordinates":[4.940242,45.691503],"type":"Point"},"properties":{"osm_id":"3889131575","tag":{"amenity":"recycling","recycling:waste":"yes","recycling_type":"container"}},"type":"Feature"},
	{"geometry":{"coordinates":[4.940073,45.692123],"type":"Point"},"properties":{"osm_id":"3889131585","tag":{"amenity":"waste_basket"}},"type":"Feature"},
	{"geometry":{"coordinates":[4.941023,45.692658],"type":"Point"},"properties":{"osm_id":"3889131591","tag":{"amenity":"waste_basket"}},"type":"Feature"},
	{"geometry":{"coordinates":[4.942476,45.697125],"type":"Point"},"properties":{"osm_id":"3892672230","tag":{"amenity":"waste_basket"}},"type":"Feature"},
	{"geometry":{"coordinates":[4.953248,45.68789],"type":"Point"},"properties":{"osm_id":"3893446374","tag":{"amenity":"waste_basket"}},"type":"Feature"},
	{"geometry":{"coordinates":[4.953234,45.689422],"type":"Point"},"properties":{"osm_id":"3902791953","tag":{"amenity":"waste_basket"}},"type":"Feature"},
	{"geometry":{"coordinates":[4.957518,45.665392],"type":"Point"},"properties":{"osm_id":"4217898921","tag":{"amenity":"recycling","recycling:clothes":"yes","recycling_type":"container"}},"type":"Feature"},
	{"geometry":{"coordinates":[4.962468,45.693015],"type":"Point"},"properties":{"osm_id":"4283908519","tag":{"amenity":"recycling","recycling_type":"container"}},"type":"Feature"},
	{"geometry":{"coordinates":[4.962492,45.693022],"type":"Point"},"properties":{"osm_id":"4283908522","tag":{"amenity":"waste_basket"}},"type":"Feature"},
	{"geometry":{"coordinates":[4.932493,45.673125],"type":"Point"},"properties":{"osm_id":"4368823252","tag":{"entrance":"main"}},"type":"Feature"},
	{"geometry":{"coordinates":[4.959034,45.664836],"type":"Point"},"properties":{"osm_id":"4445164129","tag":{"amenity":"recycling","recycling:glass_bottles":"yes","recycling_type":"container"}},"type":"Feature"},
	{"geometry":{"coordinates":[4.935801,45.696606],"type":"Point"},"properties":{"osm_id":"4641995351","tag":{"amenity":"waste_basket"}},"type":"Feature"},
	{"geometry":{"coordinates":[4.935822,45.696751],"type":"Point"},"properties":{"osm_id":"4641995352","tag":{"amenity":"waste_basket"}},"type":"Feature"},
	{"geometry":{"coordinates":[4.932956,45.695211],"type":"Point"},"properties":{"osm_id":"4650297044","tag":{"amenity":"waste_basket"}},"type":"Feature"},
	{"geometry":{"coordinates":[4.952926,45.687887],"type":"Point"},"properties":{"osm_id":"4690994003","tag":{"amenity":"recycling","operator":"Le Relais","recycling:clothes":"yes"}},"type":"Feature"},
	{"geometry":{"coordinates":[4.975032,45.6979],"type":"Point"},"properties":{"osm_id":"4805417521","tag":{"amenity":"waste_basket"}},"type":"Feature"},
	{"geometry":{"coordinates":[4.974829,45.697815],"type":"Point"},"properties":{"osm_id":"4805417530","tag":{"amenity":"waste_basket"}},"type":"Feature"},
	{"geometry":{"coordinates":[4.976255,45.697099],"type":"Point"},"properties":{"osm_id":"4805417576","tag":{"amenity":"waste_basket"}},"type":"Feature"},
	{"geometry":{"coordinates":[4.976553,45.697246],"type":"Point"},"properties":{"osm_id":"4805417577","tag":{"amenity":"waste_basket"}},"type":"Feature"},
	{"geometry":{"coordinates":[4.97752,45.696733],"type":"Point"},"properties":{"osm_id":"4805417585","tag":{"amenity":"waste_basket"}},"type":"Feature"},
	{"geometry":{"coordinates":[4.975571,45.697569],"type":"Point"},"properties":{"osm_id":"4805417586","tag":{"amenity":"waste_basket"}},"type":"Feature"},
	{"geometry":{"coordinates":[4.975747,45.697678],"type":"Point"},"properties":{"osm_id":"4805417587","tag":{"amenity":"waste_basket"}},"type":"Feature"},
	{"geometry":{"coordinates":[4.976149,45.697454],"type":"Point"},"properties":{"osm_id":"4805417592","tag":{"amenity":"waste_basket"}},"type":"Feature"},
	{"geometry":{"coordinates":[4.946506,45.696298],"type":"Point"},"properties":{"osm_id":"4924704096","tag":{"amenity":"waste_basket"}},"type":"Feature"},
	{"geometry":{"coordinates":[4.947458,45.696273],"type":"Point"},"properties":{"osm_id":"4924704097","tag":{"amenity":"waste_basket"}},"type":"Feature"},
	{"geometry":{"coordinates":[4.945142,45.696322],"type":"Point"},"properties":{"osm_id":"4924704098","tag":{"amenity":"waste_basket"}},"type":"Feature"},
	{"geometry":{"coordinates":[4.962787,45.693529],"type":"Point"},"properties":{"osm_id":"4998148422","tag":{"amenity":"recycling","recycling_type":"container","wheelchair":"yes"}},"type":"Feature"},
	{"geometry":{"coordinates":[4.962713,45.693501],"type":"Point"},"properties":{"osm_id":"4998148424","tag":{"amenity":"waste_basket"}},"type":"Feature"},
	{"geometry":{"coordinates":[4.955235,45.661584],"type":"Point"},"properties":{"osm_id":"5053907035","tag":{"amenity":"recycling","recycling:clothes":"yes","recycling_type":"container"}},"type":"Feature"},
	{"geometry":{"coordinates":[4.949371,45.674449],"type":"Point"},"properties":{"osm_id":"5056019548","tag":{"amenity":"waste_basket"}},"type":"Feature"},
	{"geometry":{"coordinates":[4.949403,45.674472],"type":"Point"},"properties":{"osm_id":"5056019552","tag":{"amenity":"recycling","recycling:glass_bottles":"yes","recycling_type":"container"}},"type":"Feature"},
	{"geometry":{"coordinates":[4.949429,45.674471],"type":"Point"},"properties":{"osm_id":"5056019554","tag":{"amenity":"recycling","recycling:clothes":"yes","recycling_type":"container"}},"type":"Feature"},
	{"geometry":{"coordinates":[4.931814,45.695072],"type":"Point"},"properties":{"osm_id":"5289736817","tag":{"amenity":"waste_basket"}},"type":"Feature"},
	{"geometry":{"coordinates":[4.931896,45.695119],"type":"Point"},"properties":{"osm_id":"5289736818","tag":{"amenity":"recycling","recycling:glass_bottles":"yes","recycling_type":"container"}},"type":"Feature"},
	{"geometry":{"coordinates":[4.963981,45.695368],"type":"Point"},"properties":{"osm_id":"5305212037","tag":{"amenity":"waste_basket"}},"type":"Feature"},
	{"geometry":{"coordinates":[4.95957,45.695194],"type":"Point"},"properties":{"osm_id":"5306240069","tag":{"amenity":"waste_basket"}},"type":"Feature"},
	{"geometry":{"coordinates":[4.962045,45.695004],"type":"Point"},"properties":{"osm_id":"5306240070","tag":{"amenity":"waste_basket"}},"type":"Feature"},
	{"geometry":{"coordinates":[4.960818,45.695099],"type":"Point"},"properties":{"osm_id":"5306240071","tag":{"amenity":"waste_basket"}},"type":"Feature"},
	{"geometry":{"coordinates":[4.957918,45.695318],"type":"Point"},"properties":{"osm_id":"5306240072","tag":{"amenity":"waste_basket"}},"type":"Feature"},
	{"geometry":{"coordinates":[4.93332,45.703486],"type":"Point"},"properties":{"osm_id":"5366368879","tag":{"amenity":"recycling","recycling:glass_bottles":"yes","recycling_type":"container"}},"type":"Feature"},
	{"geometry":{"coordinates":[4.93602,45.688751],"type":"Point"},"properties":{"osm_id":"5377801455","tag":{"amenity":"waste_basket"}},"type":"Feature"},
	{"geometry":{"coordinates":[4.936469,45.688547],"type":"Point"},"properties":{"osm_id":"5377801456","tag":{"amenity":"waste_basket"}},"type":"Feature"},
	{"geometry":{"coordinates":[4.990263,45.654792],"type":"Point"},"properties":{"osm_id":"5420327057","tag":{"amenity":"recycling","recycling:glass_bottles":"yes","recycling_type":"container"}},"type":"Feature"},
	{"geometry":{"coordinates":[4.990318,45.654801],"type":"Point"},"properties":{"osm_id":"5420327058","tag":{"amenity":"recycling","recycling:glass_bottles":"yes","recycling_type":"container"}},"type":"Feature"},
	{"geometry":{"coordinates":[4.990323,45.654837],"type":"Point"},"properties":{"osm_id":"5420327059","tag":{"amenity":"recycling","recycling:clothes":"yes","recycling_type":"container"}},"type":"Feature"},
	{"geometry":{"coordinates":[4.99033,45.654883],"type":"Point"},"properties":{"osm_id":"5420327060","tag":{"amenity":"waste_basket"}},"type":"Feature"},
	{"geometry":{"coordinates":[4.970006,45.661242],"type":"Point"},"properties":{"osm_id":"5420750136","tag":{"amenity":"waste_basket"}},"type":"Feature"},
	{"geometry":{"coordinates":[4.969477,45.661696],"type":"Point"},"properties":{"osm_id":"5420750137","tag":{"amenity":"waste_basket"}},"type":"Feature"},
	{"geometry":{"coordinates":[4.969838,45.661404],"type":"Point"},"properties":{"osm_id":"5420750140","tag":{"amenity":"waste_basket"}},"type":"Feature"},
	{"geometry":{"coordinates":[4.970281,45.661172],"type":"Point"},"properties":{"osm_id":"5420750141","tag":{"amenity":"waste_basket"}},"type":"Feature"},
	{"geometry":{"coordinates":[4.93773,45.690925],"type":"Point"},"properties":{"osm_id":"5459449617","tag":{"amenity":"waste_basket","waste":"trash"}},"type":"Feature"},
	{"geometry":{"coordinates":[4.933499,45.698766],"type":"Point"},"properties":{"name":"Verre","osm_id":"5484778295","tag":{"amenity":"recycling"}},"type":"Feature"},
	{"geometry":{"coordinates":[4.930207,45.697579],"type":"Point"},"properties":{"name":"Verre","osm_id":"5485003995","tag":{"amenity":"recycling","location":"underground","recycling:glass":"no","recycling:glass_bottles":"yes","recycling_type":"container"}},"type":"Feature"},
	{"geometry":{"coordinates":[4.967852,45.693513],"type":"Point"},"properties":{"osm_id":"5667379087","tag":{"amenity":"waste_basket","waste":"trash"}},"type":"Feature"},
	{"geometry":{"coordinates":[4.968828,45.694574],"type":"Point"},"properties":{"osm_id":"5667379088","tag":{"amenity":"waste_basket","waste":"trash"}},"type":"Feature"},
	{"geometry":{"coordinates":[4.964019,45.693223],"type":"Point"},"properties":{"osm_id":"5667379089","tag":{"amenity":"waste_basket","waste":"trash"}},"type":"Feature"},
	{"geometry":{"coordinates":[4.965461,45.693182],"type":"Point"},"properties":{"osm_id":"5667379091","tag":{"amenity":"waste_basket","waste":"trash"}},"type":"Feature"},
	{"geometry":{"coordinates":[4.964557,45.693387],"type":"Point"},"properties":{"osm_id":"5667379097","tag":{"amenity":"waste_basket","waste":"trash"}},"type":"Feature"},
	{"geometry":{"coordinates":[4.96386,45.694595],"type":"Point"},"properties":{"osm_id":"5667601521","tag":{"amenity":"waste_basket"}},"type":"Feature"},
	{"geometry":{"coordinates":[4.962652,45.694954],"type":"Point"},"properties":{"osm_id":"5667601693","tag":{"amenity":"waste_basket"}},"type":"Feature"},
	{"geometry":{"coordinates":[4.963638,45.694695],"type":"Point"},"properties":{"osm_id":"5667602384","tag":{"amenity":"waste_basket"}},"type":"Feature"},
	{"geometry":{"coordinates":[4.963524,45.694511],"type":"Point"},"properties":{"osm_id":"5667602385","tag":{"amenity":"waste_basket"}},"type":"Feature"},
	{"geometry":{"coordinates":[4.964378,45.69741],"type":"Point"},"properties":{"osm_id":"5700090441","tag":{"amenity":"waste_basket"}},"type":"Feature"},
	{"geometry":{"coordinates":[4.96574,45.697983],"type":"Point"},"properties":{"osm_id":"5700092593","tag":{"amenity":"waste_basket"}},"type":"Feature"},
	{"geometry":{"coordinates":[4.965117,45.69808],"type":"Point"},"properties":{"osm_id":"5700155556","tag":{"amenity":"waste_basket"}},"type":"Feature"},
	{"geometry":{"coordinates":[4.963929,45.697641],"type":"Point"},"properties":{"osm_id":"5700164875","tag":{"amenity":"waste_basket"}},"type":"Feature"},
	{"geometry":{"coordinates":[4.936568,45.695101],"type":"Point"},"properties":{"osm_id":"5723575423","tag":{"amenity":"waste_basket"}},"type":"Feature"},
	{"geometry":{"coordinates":[4.955281,45.684449],"type":"Point"},"properties":{"osm_id":"5732505521","tag":{"amenity":"recycling","recycling:glass_bottles":"yes","recycling_type":"container"}},"type":"Feature"},
	{"geometry":{"coordinates":[4.948151,45.69008],"type":"Point"},"properties":{"osm_id":"5938469331","tag":{"amenity":"waste_basket"}},"type":"Feature"},
	{"geometry":{"coordinates":[4.948029,45.690513],"type":"Point"},"properties":{"osm_id":"5938509576","tag":{"amenity":"waste_basket"}},"type":"Feature"},
	{"geometry":{"coordinates":[4.948325,45.690525],"type":"Point"},"properties":{"osm_id":"5938509577","tag":{"amenity":"waste_basket"}},"type":"Feature"},
	{"geometry":{"coordinates":[4.948281,45.689611],"type":"Point"},"properties":{"osm_id":"5939861004","tag":{"amenity":"waste_basket"}},"type":"Feature"},
	{"geometry":{"coordinates":[4.9512,45.696114],"type":"Point"},"properties":{"osm_id":"5951676821","tag":{"amenity":"waste_basket"}},"type":"Feature"},
	{"geometry":{"coordinates":[4.951321,45.696378],"type":"Point"},"properties":{"osm_id":"5951676824","tag":{"amenity":"waste_basket"}},"type":"Feature"},
	{"geometry":{"coordinates":[4.943627,45.696592],"type":"Point"},"properties":{"osm_id":"6007041703","tag":{"amenity":"waste_basket"}},"type":"Feature"},
	{"geometry":{"coordinates":[4.943679,45.697019],"type":"Point"},"properties":{"osm_id":"6007041704","tag":{"amenity":"waste_basket"}},"type":"Feature"},
	{"geometry":{"coordinates":[4.933917,45.693336],"type":"Point"},"properties":{"osm_id":"6032015875","tag":{"amenity":"waste_basket"}},"type":"Feature"},
	{"geometry":{"coordinates":[4.935093,45.693982],"type":"Point"},"properties":{"osm_id":"6032017031","tag":{"amenity":"waste_basket"}},"type":"Feature"},
	{"geometry":{"coordinates":[4.934469,45.693278],"type":"Point"},"properties":{"osm_id":"6032017128","tag":{"amenity":"waste_basket"}},"type":"Feature"},
	{"geometry":{"coordinates":[4.934203,45.693794],"type":"Point"},"properties":{"osm_id":"6032075437","tag":{"amenity":"waste_basket"}},"type":"Feature"},
	{"geometry":{"coordinates":[4.935149,45.69316],"type":"Point"},"properties":{"osm_id":"6032075445","tag":{"amenity":"waste_basket"}},"type":"Feature"},
	{"geometry":{"coordinates":[4.933986,45.693342],"type":"Point"},"properties":{"osm_id":"6032075447","tag":{"amenity":"waste_basket"}},"type":"Feature"},
	{"geometry":{"coordinates":[4.934247,45.693661],"type":"Point"},"properties":{"osm_id":"6032075448","tag":{"amenity":"waste_basket"}},"type":"Feature"},
	{"geometry":{"coordinates":[4.934718,45.693929],"type":"Point"},"properties":{"osm_id":"6032075449","tag":{"amenity":"waste_basket"}},"type":"Feature"},
	{"geometry":{"coordinates":[4.948739,45.688502],"type":"Point"},"properties":{"osm_id":"6256643711","tag":{"amenity":"recycling","recycling:plastic_bottles":"yes","recycling:plastic_packaging":"yes","recycling:waste":"yes","recycling_type":"container"}},"type":"Feature"},
	{"geometry":{"coordinates":[4.949251,45.688538],"type":"Point"},"properties":{"osm_id":"6256643712","tag":{"amenity":"recycling","operator":"Le Relais","recycling:clothes":"yes","recycling_type":"container"}},"type":"Feature"},
	{"geometry":{"coordinates":[4.950474,45.688333],"type":"Point"},"properties":{"osm_id":"6256643713","tag":{"amenity":"recycling","recycling:plastic_bottles":"yes","recycling:plastic_packaging":"yes","recycling:waste":"yes","recycling_type":"container"}},"type":"Feature"},
	{"geometry":{"coordinates":[4.942505,45.692221],"type":"Point"},"properties":{"osm_id":"6288250485","tag":{"amenity":"waste_basket"}},"type":"Feature"},
	{"geometry":{"coordinates":[4.942845,45.691812],"type":"Point"},"properties":{"osm_id":"6288250486","tag":{"amenity":"waste_basket"}},"type":"Feature"},
	{"geometry":{"coordinates":[4.941389,45.692934],"type":"Point"},"properties":{"osm_id":"6288527977","tag":{"amenity":"waste_basket"}},"type":"Feature"},
	{"geometry":{"coordinates":[4.941322,45.693148],"type":"Point"},"properties":{"osm_id":"6288528214","tag":{"amenity":"waste_basket"}},"type":"Feature"},
	{"geometry":{"coordinates":[4.941252,45.692557],"type":"Point"},"properties":{"osm_id":"6288528215","tag":{"amenity":"waste_basket"}},"type":"Feature"},
	{"geometry":{"coordinates":[4.941575,45.692599],"type":"Point"},"properties":{"osm_id":"6288528216","tag":{"amenity":"waste_basket"}},"type":"Feature"},
	{"geometry":{"coordinates":[4.941369,45.691152],"type":"Point"},"properties":{"osm_id":"6289081437","tag":{"amenity":"recycling","recycling:cans":"yes","recycling:cardboard":"yes","recycling:paper":"yes","recycling:plastic_bottles":"yes","recycling:waste":"yes","recycling_type":"container"}},"type":"Feature"},
	{"geometry":{"coordinates":[4.937805,45.69448],"type":"Point"},"properties":{"osm_id":"6317886316","tag":{"amenity":"waste_basket"}},"type":"Feature"},
	{"geometry":{"coordinates":[4.935152,45.694682],"type":"Point"},"properties":{"osm_id":"6380559787","tag":{"amenity":"waste_basket"}},"type":"Feature"},
	{"geometry":{"coordinates":[4.950565,45.69587],"type":"Point"},"properties":{"osm_id":"6446130112","tag":{"amenity":"recycling","recycling:bottles":"yes","recycling:clothes":"yes","recycling_type":"container"}},"type":"Feature"},
	{"geometry":{"coordinates":[4.943585,45.696165],"type":"Point"},"properties":{"osm_id":"6454473693","tag":{"amenity":"waste_basket"}},"type":"Feature"},
	{"geometry":{"coordinates":[4.937615,45.697015],"type":"Point"},"properties":{"osm_id":"6454679164","tag":{"amenity":"waste_basket"}},"type":"Feature"},
	{"geometry":{"coordinates":[4.943334,45.69642],"type":"Point"},"properties":{"osm_id":"6454683048","tag":{"amenity":"waste_basket"}},"type":"Feature"},
	{"geometry":{"coordinates":[4.942927,45.696508],"type":"Point"},"properties":{"osm_id":"6454683049","tag":{"amenity":"waste_basket"}},"type":"Feature"},
	{"geometry":{"coordinates":[4.942425,45.69663],"type":"Point"},"properties":{"osm_id":"6454683051","tag":{"amenity":"waste_basket"}},"type":"Feature"},
	{"geometry":{"coordinates":[4.937595,45.696561],"type":"Point"},"properties":{"osm_id":"6455277309","tag":{"amenity":"waste_basket"}},"type":"Feature"},
	{"geometry":{"coordinates":[4.945697,45.691097],"type":"Point"},"properties":{"osm_id":"6569601965","tag":{"amenity":"waste_basket"}},"type":"Feature"},
	{"geometry":{"coordinates":[4.94602,45.691181],"type":"Point"},"properties":{"osm_id":"6569611959","tag":{"amenity":"waste_basket"}},"type":"Feature"},
	{"geometry":{"coordinates":[4.945278,45.691158],"type":"Point"},"properties":{"osm_id":"6569613160","tag":{"amenity":"waste_basket"}},"type":"Feature"},
	{"geometry":{"coordinates":[4.944697,45.691058],"type":"Point"},"properties":{"osm_id":"6570085923","tag":{"amenity":"waste_basket"}},"type":"Feature"},
	{"geometry":{"coordinates":[4.943879,45.691156],"type":"Point"},"properties":{"osm_id":"6570085964","tag":{"amenity":"waste_basket","waste":"trash"}},"type":"Feature"},
	{"geometry":{"coordinates":[4.943581,45.691045],"type":"Point"},"properties":{"osm_id":"6570085966","tag":{"amenity":"waste_basket","waste":"trash"}},"type":"Feature"},
	{"geometry":{"coordinates":[4.943462,45.692503],"type":"Point"},"properties":{"osm_id":"6570711171","tag":{"amenity":"waste_basket"}},"type":"Feature"},
	{"geometry":{"coordinates":[4.942324,45.692774],"type":"Point"},"properties":{"osm_id":"6570725221","tag":{"amenity":"waste_basket"}},"type":"Feature"},
	{"geometry":{"coordinates":[4.941275,45.692387],"type":"Point"},"properties":{"osm_id":"6572669305","tag":{"amenity":"waste_basket"}},"type":"Feature"},
	{"geometry":{"coordinates":[4.969699,45.675361],"type":"Point"},"properties":{"osm_id":"6582302278","tag":{"amenity":"recycling","recycling":"container","recycling:clothes":"yes"}},"type":"Feature"},
	{"geometry":{"coordinates":[4.935392,45.705951],"type":"Point"},"properties":{"osm_id":"6825067880","tag":{"amenity":"waste_basket"}},"type":"Feature"},
	{"geometry":{"coordinates":[4.935392,45.705874],"type":"Point"},"properties":{"osm_id":"6825067881","tag":{"amenity":"waste_basket"}},"type":"Feature"},
	{"geometry":{"coordinates":[4.935697,45.705873],"type":"Point"},"properties":{"osm_id":"6825067882","tag":{"amenity":"waste_basket"}},"type":"Feature"},
	{"geometry":{"coordinates":[4.935694,45.705949],"type":"Point"},"properties":{"osm_id":"6825067883","tag":{"amenity":"waste_basket"}},"type":"Feature"},
	{"geometry":{"coordinates":[4.926641,45.697961],"type":"Point"},"properties":{"osm_id":"6841998829","tag":{"amenity":"recycling","recycling:glass_bottles":"yes","recycling_type":"container"}},"type":"Feature"},
	{"geometry":{"coordinates":[4.947204,45.688592],"type":"Point"},"properties":{"osm_id":"7114046774","tag":{"amenity":"waste_basket"}},"type":"Feature"},
	{"geometry":{"coordinates":[4.948906,45.688776],"type":"Point"},"properties":{"osm_id":"7114053352","tag":{"amenity":"waste_basket"}},"type":"Feature"},
	{"geometry":{"coordinates":[4.941486,45.701213],"type":"Point"},"properties":{"osm_id":"7193038639","tag":{"amenity":"waste_basket"}},"type":"Feature"},
	{"geometry":{"coordinates":[4.941287,45.70118],"type":"Point"},"properties":{"osm_id":"7193038645","tag":{"amenity":"waste_basket"}},"type":"Feature"},
	{"geometry":{"coordinates":[4.938338,45.699552],"type":"Point"},"properties":{"osm_id":"7193038646","tag":{"amenity":"recycling","recycling:glass_bottles":"yes","recycling_type":"container"}},"type":"Feature"},
	{"geometry":{"coordinates":[4.941162,45.701221],"type":"Point"},"properties":{"osm_id":"7193038649","tag":{"amenity":"waste_basket"}},"type":"Feature"},
	{"geometry":{"coordinates":[4.947109,45.689788],"type":"Point"},"properties":{"osm_id":"7227761737","tag":{"amenity":"waste_basket"}},"type":"Feature"},
	{"geometry":{"coordinates":[4.947791,45.688984],"type":"Point"},"properties":{"osm_id":"7227772771","tag":{"amenity":"waste_basket"}},"type":"Feature"},
	{"geometry":{"coordinates":[4.957725,45.674954],"type":"Point"},"properties":{"osm_id":"7266051203","tag":{"amenity":"waste_basket"}},"type":"Feature"},
	{"geometry":{"coordinates":[4.932645,45.693271],"type":"Point"},"properties":{"osm_id":"7291358932","tag":{"amenity":"recycling","recycling:glass_bottles":"yes","recycling_type":"container"}},"type":"Feature"},
	{"geometry":{"coordinates":[4.962559,45.692424],"type":"Point"},"properties":{"osm_id":"7305087306","tag":{"amenity":"recycling","recycling:PET":"yes","recycling:cans":"yes","recycling:cardboard":"yes","recycling:glass_bottles":"yes","recycling:paper":"yes","recycling:plastic":"yes","recycling:plastic_bottles":"yes","recycling:plastic_packaging":"yes","recycling:waste":"yes","recycling_type":"container"}},"type":"Feature"},
	{"geometry":{"coordinates":[4.962988,45.692501],"type":"Point"},"properties":{"osm_id":"7305087309","tag":{"amenity":"recycling","recycling:PET":"yes","recycling:cans":"yes","recycling:cardboard":"yes","recycling:glass_bottles":"yes","recycling:paper":"yes","recycling:plastic":"yes","recycling:plastic_bottles":"yes","recycling:plastic_packaging":"yes","recycling:waste":"yes","recycling_type":"container"}},"type":"Feature"},
	{"geometry":{"coordinates":[4.951103,45.696222],"type":"Point"},"properties":{"osm_id":"7647007943","tag":{"amenity":"waste_basket"}},"type":"Feature"},
	{"geometry":{"coordinates":[4.951104,45.695967],"type":"Point"},"properties":{"osm_id":"7647007944","tag":{"amenity":"waste_basket"}},"type":"Feature"},
	{"geometry":{"coordinates":[4.962537,45.692424],"type":"Point"},"properties":{"osm_id":"7711897981","tag":{"amenity":"recycling","recycling:cartons":"yes","recycling:glass_bottles":"yes","recycling:waste":"yes"}},"type":"Feature"},
	{"geometry":{"coordinates":[4.942624,45.699088],"type":"Point"},"properties":{"osm_id":"7766237788","tag":{"amenity":"waste_basket"}},"type":"Feature"},
	{"geometry":{"coordinates":[4.942351,45.695971],"type":"Point"},"properties":{"osm_id":"7803395798","tag":{"amenity":"waste_basket"}},"type":"Feature"},
	{"geometry":{"coordinates":[4.942248,45.695807],"type":"Point"},"properties":{"osm_id":"7803395799","tag":{"amenity":"waste_basket"}},"type":"Feature"},
	{"geometry":{"coordinates":[4.942421,45.696184],"type":"Point"},"properties":{"osm_id":"7803395800","tag":{"amenity":"waste_basket"}},"type":"Feature"},
	{"geometry":{"coordinates":[4.94255,45.696264],"type":"Point"},"properties":{"osm_id":"7803395801","tag":{"amenity":"waste_basket"}},"type":"Feature"},
	{"geometry":{"coordinates":[4.942712,45.696019],"type":"Point"},"properties":{"osm_id":"7803395802","tag":{"amenity":"waste_basket"}},"type":"Feature"},
	{"geometry":{"coordinates":[4.94155,45.696354],"type":"Point"},"properties":{"osm_id":"7803395813","tag":{"amenity":"recycling","recycling:glass_bottles":"yes","recycling_type":"container"}},"type":"Feature"},
	{"geometry":{"coordinates":[4.940854,45.692393],"type":"Point"},"properties":{"osm_id":"7803395818","tag":{"amenity":"waste_basket"}},"type":"Feature"},
	{"geometry":{"coordinates":[4.94079,45.692211],"type":"Point"},"properties":{"osm_id":"7803395819","tag":{"amenity":"waste_basket"}},"type":"Feature"},
	{"geometry":{"coordinates":[4.934211,45.697298],"type":"Point"},"properties":{"osm_id":"7806622667","tag":{"amenity":"recycling","recycling:glass_bottles":"yes","recycling_type":"container"}},"type":"Feature"},
	{"geometry":{"coordinates":[4.940967,45.694369],"type":"Point"},"properties":{"osm_id":"7806674385","tag":{"amenity":"waste_basket"}},"type":"Feature"}
]
}
