{
"type": "FeatureCollection",
"features": [
	{"geometry":{"coordinates":[4.925419,44.734272],"type":"Point"},"properties":{"osm_id":"4897371553","tag":{"amenity":"recycling","recycling_type":"container"}},"type":"Feature"},
	{"geometry":{"coordinates":[4.925281,44.730698],"type":"Point"},"properties":{"osm_id":"5003127179","tag":{"amenity":"recycling","opening_hours":"24/7","recycling:aluminium":"yes","recycling:cans":"yes","recycling:cardboard":"yes","recycling:glass_bottles":"yes","recycling:paper":"yes","recycling:plastic_bottles":"yes","recycling:plastic_packaging":"yes","recycling:waste":"yes","recycling_type":"container"}},"type":"Feature"},
	{"geometry":{"coordinates":[4.948439,44.724753],"type":"Point"},"properties":{"osm_id":"5069339310","tag":{"amenity":"recycling","recycling_type":"container"}},"type":"Feature"},
	{"geometry":{"coordinates":[4.97667,44.718452],"type":"Point"},"properties":{"osm_id":"5957227085","tag":{"amenity":"recycling","recycling_type":"container"}},"type":"Feature"},
	{"geometry":{"coordinates":[4.957083,44.7185],"type":"Point"},"properties":{"osm_id":"5957227086","tag":{"amenity":"waste_disposal"}},"type":"Feature"},
	{"geometry":{"coordinates":[4.95031,44.721091],"type":"Point"},"properties":{"osm_id":"6003422809","tag":{"amenity":"waste_disposal"}},"type":"Feature"},
	{"geometry":{"coordinates":[4.978494,44.73665],"type":"Point"},"properties":{"osm_id":"6303454644","tag":{"amenity":"waste_basket"}},"type":"Feature"},
	{"geometry":{"coordinates":[4.978567,44.736642],"type":"Point"},"properties":{"name":"Containers tri s\u00c3\u00a9lectif","osm_id":"6303459865","tag":{"amenity":"recycling","recycling_type":"container"}},"type":"Feature"},
	{"geometry":{"coordinates":[4.979947,44.735862],"type":"Point"},"properties":{"osm_id":"6303462229","tag":{"amenity":"waste_basket"}},"type":"Feature"},
	{"geometry":{"coordinates":[4.98002,44.735854],"type":"Point"},"properties":{"name":"containers tri s\u00c3\u00a9lectif","osm_id":"6303466614","tag":{"amenity":"recycling","recycling_type":"container"}},"type":"Feature"},
	{"geometry":{"coordinates":[5.006119,44.72992],"type":"Point"},"properties":{"name":"D\u00c3\u00a9chetterie municipale","osm_id":"6832819853","tag":{"amenity":"recycling","opening_hours":"Mo, Th-Sa 13:30-17:30; We 13:30-19:00; Sa 07:30-12:30","recycling_type":"centre"}},"type":"Feature"},
	{"geometry":{"coordinates":[5.007594,44.735753],"type":"Point"},"properties":{"osm_id":"7853943495","tag":{"amenity":"recycling","recycling:glass_bottles":"yes","recycling_type":"container"}},"type":"Feature"},
	{"geometry":{"coordinates":[5.00758,44.735772],"type":"Point"},"properties":{"osm_id":"7853943496","tag":{"amenity":"recycling","recycling:paper":"yes","recycling_type":"container"}},"type":"Feature"},
	{"geometry":{"coordinates":[5.007567,44.735791],"type":"Point"},"properties":{"osm_id":"7853943497","tag":{"amenity":"recycling","recycling:plastic_bottles":"yes","recycling_type":"container"}},"type":"Feature"}
]
}
