{
"type": "FeatureCollection",
"lastupdate": "2020-08-06T00:00:00Z",
"features": [
	{"geometry":{"coordinates":[5.007512,44.190128],"type":"Point"},"properties":{"osm_id":"3292542363","tag":{"amenity":"waste_basket"}},"type":"Feature"},
	{"geometry":{"coordinates":[5.006991,44.190301],"type":"Point"},"properties":{"osm_id":"3292545401","tag":{"amenity":"waste_basket"}},"type":"Feature"},
	{"geometry":{"coordinates":[5.007288,44.189545],"type":"Point"},"properties":{"osm_id":"3292616461","tag":{"amenity":"recycling","recycling:cans":"yes","recycling:glass":"no","recycling:paper":"yes","recycling_type":"container"}},"type":"Feature"},
	{"geometry":{"coordinates":[5.007306,44.189545],"type":"Point"},"properties":{"osm_id":"3292628328","tag":{"amenity":"waste_basket","waste":"trash"}},"type":"Feature"},
	{"geometry":{"coordinates":[5.00719,44.193481],"type":"Point"},"properties":{"osm_id":"3292639516","tag":{"amenity":"waste_basket","waste":"household"}},"type":"Feature"},
	{"geometry":{"coordinates":[5.002647,44.192983],"type":"Point"},"properties":{"osm_id":"3292649161","tag":{"amenity":"waste_basket","waste":"household"}},"type":"Feature"},
	{"geometry":{"coordinates":[5.002636,44.19297],"type":"Point"},"properties":{"osm_id":"3292651924","tag":{"amenity":"recycling","recycling:cans":"yes","recycling:glass_bottles":"yes","recycling:paper":"yes","recycling_type":"container"}},"type":"Feature"},
	{"geometry":{"coordinates":[5.008063,44.192744],"type":"Point"},"properties":{"osm_id":"3396587386","tag":{"amenity":"waste_basket"}},"type":"Feature"},
	{"geometry":{"coordinates":[5.008122,44.192742],"type":"Point"},"properties":{"osm_id":"3396588253","tag":{"amenity":"recycling","recycling:cans":"yes","recycling:glass":"no","recycling:glass_bottles":"yes","recycling:paper":"yes","recycling_type":"container"}},"type":"Feature"},
	{"geometry":{"coordinates":[5.007707,44.19395],"type":"Point"},"properties":{"osm_id":"3396592725","tag":{"amenity":"waste_basket"}},"type":"Feature"},
	{"geometry":{"coordinates":[5.007725,44.19387],"type":"Point"},"properties":{"osm_id":"3396598754","tag":{"amenity":"recycling","recycling:cans":"yes","recycling:paper":"yes","recycling_type":"container"}},"type":"Feature"},
	{"geometry":{"coordinates":[5.007195,44.193466],"type":"Point"},"properties":{"osm_id":"3396603214","tag":{"amenity":"recycling","recycling:paper":"yes","recycling_type":"container"}},"type":"Feature"},
	{"geometry":{"coordinates":[4.99541,44.19569],"type":"Point"},"properties":{"name":"Ordures m\u00c3\u00a9nag\u00c3\u00a8res","osm_id":"3396609577","tag":{"amenity":"waste_basket","recycling:cans":"no","recycling:clothes":"no","recycling:glass":"no","recycling:paper":"no"}},"type":"Feature"},
	{"geometry":{"coordinates":[4.995478,44.195654],"type":"Point"},"properties":{"osm_id":"3396626016","tag":{"amenity":"recycling","recycling:beverage_cartons":"yes","recycling:cans":"yes","recycling:magazines":"yes","recycling:paper":"yes","recycling:plastic_cartridges":"yes","recycling_type":"container"}},"type":"Feature"},
	{"geometry":{"coordinates":[5.007962,44.190889],"type":"Point"},"properties":{"osm_id":"3396629179","tag":{"amenity":"waste_basket"}},"type":"Feature"},
	{"geometry":{"coordinates":[5.008281,44.190788],"type":"Point"},"properties":{"osm_id":"3396633341","tag":{"amenity":"recycling","recycling:cans":"yes","recycling_type":"container"}},"type":"Feature"},
	{"geometry":{"coordinates":[5.006123,44.192273],"type":"Point"},"properties":{"osm_id":"3396633347","tag":{"amenity":"waste_basket"}},"type":"Feature"},
	{"geometry":{"coordinates":[5.005826,44.192637],"type":"Point"},"properties":{"osm_id":"3396638834","tag":{"amenity":"waste_basket"}},"type":"Feature"},
	{"geometry":{"coordinates":[5.006139,44.191722],"type":"Point"},"properties":{"osm_id":"3396638835","tag":{"amenity":"waste_basket"}},"type":"Feature"},
	{"geometry":{"coordinates":[5.005977,44.191663],"type":"Point"},"properties":{"osm_id":"3396638836","tag":{"amenity":"recycling","recycling:cans":"yes","recycling:paper":"yes","recycling_type":"container"}},"type":"Feature"},
	{"geometry":{"coordinates":[5.004758,44.192317],"type":"Point"},"properties":{"osm_id":"3396638837","tag":{"amenity":"recycling","recycling:cans":"yes","recycling:paper":"yes","recycling_type":"container"}},"type":"Feature"},
	{"geometry":{"coordinates":[5.006276,44.192906],"type":"Point"},"properties":{"osm_id":"3396648840","tag":{"amenity":"waste_basket"}},"type":"Feature"},
	{"geometry":{"coordinates":[5.007114,44.191971],"type":"Point"},"properties":{"osm_id":"3396648841","tag":{"amenity":"waste_basket"}},"type":"Feature"},
	{"geometry":{"coordinates":[5.007064,44.191971],"type":"Point"},"properties":{"osm_id":"3396648842","tag":{"amenity":"waste_basket"}},"type":"Feature"},
	{"geometry":{"coordinates":[5.007129,44.192348],"type":"Point"},"properties":{"osm_id":"3396648843","tag":{"amenity":"waste_basket"}},"type":"Feature"},
	{"geometry":{"coordinates":[4.999178,44.190541],"type":"Point"},"properties":{"osm_id":"5022696144","tag":{"amenity":"recycling","recycling_type":"container"}},"type":"Feature"},
	{"geometry":{"coordinates":[5.005164,44.189826],"type":"Point"},"properties":{"osm_id":"5022707200","tag":{"amenity":"recycling","recycling_type":"container"}},"type":"Feature"}
]
}
