{
"type": "FeatureCollection",
"features": [
	{"geometry":{"coordinates":[4.934638,43.592761],"type":"Point"},"properties":{"osm_id":"1787412180","tag":{"amenity":"recycling"}},"type":"Feature"},
	{"geometry":{"coordinates":[4.932213,43.593204],"type":"Point"},"properties":{"osm_id":"1787412210","tag":{"amenity":"recycling","recycling_type":"centre"}},"type":"Feature"},
	{"geometry":{"coordinates":[4.938613,43.592194],"type":"Point"},"properties":{"osm_id":"1787444437","tag":{"amenity":"recycling","recycling_type":"container"}},"type":"Feature"},
	{"geometry":{"coordinates":[4.938076,43.591516],"type":"Point"},"properties":{"osm_id":"1787464461","tag":{"amenity":"recycling","recycling_type":"container"}},"type":"Feature"},
	{"geometry":{"coordinates":[4.939339,43.591194],"type":"Point"},"properties":{"osm_id":"1787464502","tag":{"amenity":"recycling","recycling_type":"container"}},"type":"Feature"},
	{"geometry":{"coordinates":[4.934308,43.596372],"type":"Point"},"properties":{"osm_id":"1787726866","tag":{"amenity":"recycling","recycling_type":"container"}},"type":"Feature"},
	{"geometry":{"coordinates":[4.931214,43.595662],"type":"Point"},"properties":{"osm_id":"1894243676","tag":{"amenity":"recycling","recycling_type":"container"}},"type":"Feature"},
	{"geometry":{"coordinates":[4.935836,43.595544],"type":"Point"},"properties":{"osm_id":"1894243690","tag":{"amenity":"recycling","recycling_type":"centre"}},"type":"Feature"},
	{"geometry":{"coordinates":[4.943878,43.586633],"type":"Point"},"properties":{"osm_id":"2281962357","tag":{"amenity":"recycling"}},"type":"Feature"},
	{"geometry":{"coordinates":[4.993932,43.590413],"type":"Point"},"properties":{"osm_id":"2389657251","tag":{"amenity":"recycling"}},"type":"Feature"},
	{"geometry":{"coordinates":[4.993942,43.587575],"type":"Point"},"properties":{"osm_id":"2389714554","tag":{"amenity":"recycling"}},"type":"Feature"},
	{"geometry":{"coordinates":[5.000631,43.58118],"type":"Point"},"properties":{"osm_id":"3967907381","tag":{"amenity":"waste_basket"}},"type":"Feature"},
	{"geometry":{"coordinates":[5.000974,43.581595],"type":"Point"},"properties":{"osm_id":"3967907382","tag":{"amenity":"waste_basket"}},"type":"Feature"},
	{"geometry":{"coordinates":[5.000901,43.581637],"type":"Point"},"properties":{"osm_id":"3967907384","tag":{"amenity":"waste_basket"}},"type":"Feature"},
	{"geometry":{"coordinates":[5.00114,43.581669],"type":"Point"},"properties":{"osm_id":"3967907386","tag":{"amenity":"waste_basket"}},"type":"Feature"},
	{"geometry":{"coordinates":[5.000853,43.581178],"type":"Point"},"properties":{"osm_id":"3967907390","tag":{"amenity":"waste_basket"}},"type":"Feature"},
	{"geometry":{"coordinates":[5.000956,43.581164],"type":"Point"},"properties":{"osm_id":"3967907392","tag":{"amenity":"waste_basket"}},"type":"Feature"},
	{"geometry":{"coordinates":[5.000572,43.580696],"type":"Point"},"properties":{"osm_id":"3967907394","tag":{"amenity":"waste_basket"}},"type":"Feature"},
	{"geometry":{"coordinates":[5.008288,43.592775],"type":"Point"},"properties":{"name":"Bac de tri","osm_id":"6400241041","tag":{"amenity":"recycling","recycling_type":"centre"}},"type":"Feature"},
	{"geometry":{"coordinates":[5.005767,43.594112],"type":"Point"},"properties":{"osm_id":"6400241055","tag":{"amenity":"recycling","recycling_type":"centre"}},"type":"Feature"},
	{"geometry":{"coordinates":[5.005774,43.594148],"type":"Point"},"properties":{"osm_id":"6400241056","tag":{"amenity":"recycling","recycling_type":"centre"}},"type":"Feature"},
	{"geometry":{"coordinates":[4.995106,43.598555],"type":"Point"},"properties":{"name":"D\u00c3\u00a9ch\u00c3\u00a8terie\u00c2\u00a0de\u00c2\u00a0Miramas","osm_id":"6960482886","tag":{"amenity":"recycling","fax":"+33 4 90 17 41 20","operator":"Silim\u00c2\u00a0Environnement","phone":"+33 4 90 17 41 21","recycling_type":"centre","ref:FR:SINOE":"3511","start_date":"1995"}},"type":"Feature"},
	{"geometry":{"coordinates":[4.94087,43.587691],"type":"Point"},"properties":{"name":"D\u00c3\u00a9ch\u00c3\u00a8terie\u00c2\u00a0Istres\u00c2\u00a0(entressen)","osm_id":"6960930029","tag":{"amenity":"recycling","operator":"M\u00c3\u00a9tropole\u00c2\u00a0Aix-marseille\u00c2\u00a0Provence","phone":"+33 4 90 50 65 36","recycling_type":"centre","ref:FR:SINOE":"82474"}},"type":"Feature"},
	{"geometry":{"coordinates":[4.994815,43.598728],"type":"Point"},"properties":{"osm_id":"6983853158","tag":{"amenity":"recycling","recycling:green_waste":"yes","recycling_type":"container"}},"type":"Feature"},
	{"geometry":{"coordinates":[4.995122,43.598987],"type":"Point"},"properties":{"osm_id":"6983853159","tag":{"amenity":"recycling","operator":"silim","recycling:paper":"yes","recycling_type":"container"}},"type":"Feature"},
	{"geometry":{"coordinates":[4.992682,43.594813],"type":"Point"},"properties":{"osm_id":"7018006142","tag":{"amenity":"waste_basket"}},"type":"Feature"},
	{"geometry":{"coordinates":[4.992921,43.593944],"type":"Point"},"properties":{"osm_id":"7018828330","tag":{"amenity":"waste_basket"}},"type":"Feature"},
	{"geometry":{"coordinates":[4.992246,43.594809],"type":"Point"},"properties":{"osm_id":"7018836232","tag":{"amenity":"waste_basket"}},"type":"Feature"},
	{"geometry":{"coordinates":[4.992734,43.594106],"type":"Point"},"properties":{"osm_id":"7018840459","tag":{"amenity":"waste_basket"}},"type":"Feature"},
	{"geometry":{"coordinates":[4.992736,43.594025],"type":"Point"},"properties":{"osm_id":"7018840460","tag":{"amenity":"waste_basket"}},"type":"Feature"},
	{"geometry":{"coordinates":[4.992851,43.594158],"type":"Point"},"properties":{"osm_id":"7018840461","tag":{"amenity":"waste_basket"}},"type":"Feature"},
	{"geometry":{"coordinates":[4.993226,43.594109],"type":"Point"},"properties":{"osm_id":"7018840462","tag":{"amenity":"waste_basket"}},"type":"Feature"},
	{"geometry":{"coordinates":[4.993227,43.59403],"type":"Point"},"properties":{"osm_id":"7018840463","tag":{"amenity":"waste_basket"}},"type":"Feature"},
	{"geometry":{"coordinates":[4.993078,43.593738],"type":"Point"},"properties":{"osm_id":"7018842377","tag":{"amenity":"waste_basket"}},"type":"Feature"},
	{"geometry":{"coordinates":[4.993074,43.593885],"type":"Point"},"properties":{"osm_id":"7018843171","tag":{"amenity":"waste_basket"}},"type":"Feature"}
]
}
