{
"type": "FeatureCollection",
"features": [
	{"geometry":{"coordinates":[4.984778,43.407338],"type":"Point"},"properties":{"name":"Poubelle","osm_id":"3989834792","tag":{"amenity":"waste_basket"}},"type":"Feature"},
	{"geometry":{"coordinates":[4.984712,43.407377],"type":"Point"},"properties":{"name":"poubelle 2","osm_id":"3990013134","tag":{"amenity":"waste_basket"}},"type":"Feature"},
	{"geometry":{"coordinates":[4.984685,43.407241],"type":"Point"},"properties":{"name":"poubelle 3","osm_id":"3990016877","tag":{"amenity":"waste_basket"}},"type":"Feature"},
	{"geometry":{"coordinates":[4.995316,43.416894],"type":"Point"},"properties":{"osm_id":"4850525329","tag":{"amenity":"recycling","recycling:glass":"yes","recycling:glass_bottles":"yes","recycling_type":"container"}},"type":"Feature"},
	{"geometry":{"coordinates":[4.994553,43.412165],"type":"Point"},"properties":{"osm_id":"6611468985","tag":{"amenity":"recycling"}},"type":"Feature"},
	{"geometry":{"coordinates":[4.99456,43.412159],"type":"Point"},"properties":{"osm_id":"6611469085","tag":{"amenity":"recycling"}},"type":"Feature"},
	{"geometry":{"coordinates":[4.988648,43.410506],"type":"Point"},"properties":{"name":"papier","osm_id":"8538009817","tag":{"amenity":"recycling"}},"type":"Feature"},
	{"geometry":{"coordinates":[4.988703,43.410466],"type":"Point"},"properties":{"name":"vetement","osm_id":"8538009818","tag":{"amenity":"recycling"}},"type":"Feature"},
	{"geometry":{"coordinates":[4.988681,43.410478],"type":"Point"},"properties":{"name":"verre","osm_id":"8538009917","tag":{"amenity":"recycling"}},"type":"Feature"}
]
}
