{
"type": "FeatureCollection",
"features": [
	{"geometry":{"coordinates":[39.48724,13.520083],"type":"Point"},"properties":{"osm_id":"8736315517","tag":{"amenity":"recycling","name:en":"\u00e1\u0088\u0098\u00e1\u008b\u00b0\u00e1\u0089\u00a5\u00e1\u0088\u00ad 05 - medebr 05","operator":"Tedros Assefa","phone":"0960838383","recycling_type":"centre","website":"https://www.infomekelle.com"}},"type":"Feature"},
	{"geometry":{"coordinates":[39.487728,13.521521],"type":"Point"},"properties":{"osm_id":"8736315717","tag":{"amenity":"recycling","name:en":"\u00e1\u0088\u0098\u00e1\u008b\u00b0\u00e1\u0089\u00a5\u00e1\u0088\u00ad 05 - medebr 05","operator":"tedrosassefa@gmail.com","phone":"0960838383","recycling_type":"centre","website":"https://www.infomekelle.com"}},"type":"Feature"},
	{"geometry":{"coordinates":[39.486438,13.521276],"type":"Point"},"properties":{"osm_id":"8736315817","tag":{"amenity":"recycling","name:en":"\u00e1\u0088\u0098\u00e1\u008b\u00b0\u00e1\u0089\u00a5\u00e1\u0088\u00ad 05 - medebr 05","operator":"tedrosassefa@gmail.com","phone":"0960838383","recycling_type":"centre","website":"https://www.infomekelle.com"}},"type":"Feature"}
]
}
