{
"type": "FeatureCollection",
"features": [
	{"geometry":{"coordinates":[-4.697122,51.713297],"type":"Point"},"properties":{"osm_id":"4693256436","tag":{"amenity":"waste_basket"}},"type":"Feature"},
	{"geometry":{"coordinates":[-4.692975,51.716748],"type":"Point"},"properties":{"osm_id":"4693256443","tag":{"amenity":"waste_basket"}},"type":"Feature"},
	{"geometry":{"coordinates":[-4.690556,51.717913],"type":"Point"},"properties":{"osm_id":"4693256446","tag":{"amenity":"waste_basket"}},"type":"Feature"},
	{"geometry":{"coordinates":[-4.6867,51.722666],"type":"Point"},"properties":{"osm_id":"4693256483","tag":{"amenity":"waste_basket"}},"type":"Feature"},
	{"geometry":{"coordinates":[-4.686848,51.722446],"type":"Point"},"properties":{"osm_id":"4693256491","tag":{"amenity":"waste_basket"}},"type":"Feature"},
	{"geometry":{"coordinates":[-4.696108,51.706614],"type":"Point"},"properties":{"osm_id":"4693319020","tag":{"amenity":"waste_basket"}},"type":"Feature"},
	{"geometry":{"coordinates":[-4.701701,51.712003],"type":"Point"},"properties":{"osm_id":"4693361046","tag":{"amenity":"waste_basket"}},"type":"Feature"},
	{"geometry":{"coordinates":[-4.725969,51.702322],"type":"Point"},"properties":{"name":"Crane Cross Waste and Recycling Centre","osm_id":"5471154384","tag":{"amenity":"recycling","opening_hours:url":"https://www.pembrokeshire.gov.uk/waste-and-recycling-centres/site-opening-times-and-directions","owner":"Pembrokeshire County Council","ownership":"municipal","recycling_type":"centre","website":"https://www.pembrokeshire.gov.uk/waste-and-recycling-centres/crane-cross-waste-and-recycling-centre","wikidata":"Q106094991"}},"type":"Feature"}
]
}
