{
"type": "FeatureCollection",
"features": [
	{"geometry":{"coordinates":[-4.739763,41.6332],"type":"Point"},"properties":{"osm_id":"988256018","tag":{"amenity":"recycling","recycling:paper":"yes","recycling_type":"container"}},"type":"Feature"},
	{"geometry":{"coordinates":[-4.741355,41.634023],"type":"Point"},"properties":{"osm_id":"2320344004","tag":{"amenity":"recycling","recycling_type":"container"}},"type":"Feature"},
	{"geometry":{"coordinates":[-4.740303,41.634063],"type":"Point"},"properties":{"osm_id":"2386598737","tag":{"amenity":"recycling","recycling_type":"container"}},"type":"Feature"},
	{"geometry":{"coordinates":[-4.736866,41.634851],"type":"Point"},"properties":{"osm_id":"3099104167","tag":{"amenity":"waste_basket"}},"type":"Feature"},
	{"geometry":{"coordinates":[-4.683927,41.609417],"type":"Point"},"properties":{"osm_id":"4764291869","tag":{"amenity":"waste_disposal"}},"type":"Feature"},
	{"geometry":{"coordinates":[-4.68394,41.609423],"type":"Point"},"properties":{"osm_id":"4764291870","tag":{"amenity":"waste_disposal"}},"type":"Feature"},
	{"geometry":{"coordinates":[-4.68395,41.609428],"type":"Point"},"properties":{"osm_id":"4764291872","tag":{"amenity":"waste_disposal"}},"type":"Feature"},
	{"geometry":{"coordinates":[-4.683818,41.609537],"type":"Point"},"properties":{"osm_id":"4764291873","tag":{"amenity":"recycling","recycling:glass_bottles":"yes","recycling_type":"container"}},"type":"Feature"},
	{"geometry":{"coordinates":[-4.683818,41.60951],"type":"Point"},"properties":{"osm_id":"4764291874","tag":{"amenity":"recycling","recycling:cardboard":"yes","recycling:paper":"yes","recycling_type":"container"}},"type":"Feature"},
	{"geometry":{"coordinates":[-4.683818,41.609492],"type":"Point"},"properties":{"osm_id":"4764291875","tag":{"amenity":"recycling","recycling:cans":"yes","recycling:plastic":"yes","recycling:plastic_bottles":"yes","recycling:plastic_packaging":"yes","recycling_type":"container"}},"type":"Feature"},
	{"geometry":{"coordinates":[-4.683962,41.609434],"type":"Point"},"properties":{"osm_id":"4764291876","tag":{"amenity":"waste_disposal"}},"type":"Feature"},
	{"geometry":{"coordinates":[-4.683818,41.609524],"type":"Point"},"properties":{"osm_id":"4768739685","tag":{"amenity":"recycling","recycling:cardboard":"yes","recycling:paper":"yes","recycling_type":"container"}},"type":"Feature"},
	{"geometry":{"coordinates":[-4.726489,41.627066],"type":"Point"},"properties":{"osm_id":"5277110333","tag":{"amenity":"waste_disposal"}},"type":"Feature"},
	{"geometry":{"coordinates":[-4.729873,41.636087],"type":"Point"},"properties":{"osm_id":"5277156628","tag":{"amenity":"waste_disposal"}},"type":"Feature"},
	{"geometry":{"coordinates":[-4.729732,41.634462],"type":"Point"},"properties":{"osm_id":"5277156629","tag":{"amenity":"waste_disposal"}},"type":"Feature"},
	{"geometry":{"coordinates":[-4.731991,41.586063],"type":"Point"},"properties":{"osm_id":"6595270969","tag":{"amenity":"recycling","recycling:clothes":"yes;used","recycling:cooking_oil":"yes;used","recycling:shoes":"yes;used"}},"type":"Feature"},
	{"geometry":{"coordinates":[-4.72683,41.58934],"type":"Point"},"properties":{"osm_id":"6595273269","tag":{"amenity":"recycling","recycling:clothes":"yes","recycling:cooking_oil":"yes","recycling:shoes":"yes"}},"type":"Feature"},
	{"geometry":{"coordinates":[-4.731942,41.586032],"type":"Point"},"properties":{"osm_id":"6595286309","tag":{"amenity":"waste_disposal"}},"type":"Feature"},
	{"geometry":{"coordinates":[-4.729698,41.635383],"type":"Point"},"properties":{"osm_id":"7565978805","tag":{"amenity":"waste_disposal"}},"type":"Feature"},
	{"geometry":{"coordinates":[-4.730925,41.635661],"type":"Point"},"properties":{"osm_id":"7565978806","tag":{"amenity":"waste_disposal"}},"type":"Feature"},
	{"geometry":{"coordinates":[-4.729049,41.637837],"type":"Point"},"properties":{"osm_id":"7565978807","tag":{"amenity":"waste_disposal"}},"type":"Feature"},
	{"geometry":{"coordinates":[-4.729336,41.638765],"type":"Point"},"properties":{"osm_id":"7565978808","tag":{"amenity":"waste_disposal"}},"type":"Feature"},
	{"geometry":{"coordinates":[-4.729641,41.639436],"type":"Point"},"properties":{"osm_id":"7565978809","tag":{"amenity":"waste_disposal"}},"type":"Feature"},
	{"geometry":{"coordinates":[-4.734939,41.620482],"type":"Point"},"properties":{"name":"Reciclaje, gesti\u00c3\u00b3n de residuos","osm_id":"7833921208","tag":{"amenity":"recycling","opening_hours":"Mo-Fr 08:00-19:30; Sa 09:00-13:00","recycling_type":"centre"}},"type":"Feature"}
]
}
