{
"type": "FeatureCollection",
"features": [
	{"geometry":{"coordinates":[-4.682352,36.55188],"type":"Point"},"properties":{"osm_id":"1736282353","tag":{"amenity":"waste_basket"}},"type":"Feature"},
	{"geometry":{"coordinates":[-4.671253,36.556359],"type":"Point"},"properties":{"osm_id":"2385529947","tag":{"amenity":"recycling"}},"type":"Feature"},
	{"geometry":{"coordinates":[-4.669279,36.558074],"type":"Point"},"properties":{"osm_id":"2385530540","tag":{"amenity":"recycling"}},"type":"Feature"},
	{"geometry":{"coordinates":[-4.671647,36.559704],"type":"Point"},"properties":{"osm_id":"2385530882","tag":{"amenity":"recycling"}},"type":"Feature"},
	{"geometry":{"coordinates":[-4.673663,36.554038],"type":"Point"},"properties":{"osm_id":"2440226233","tag":{"amenity":"recycling","recycling_type":"container"}},"type":"Feature"},
	{"geometry":{"coordinates":[-4.66751,36.554354],"type":"Point"},"properties":{"osm_id":"2440226238","tag":{"amenity":"recycling"}},"type":"Feature"},
	{"geometry":{"coordinates":[-4.67002,36.555043],"type":"Point"},"properties":{"osm_id":"2440226244","tag":{"amenity":"recycling"}},"type":"Feature"},
	{"geometry":{"coordinates":[-4.669395,36.54678],"type":"Point"},"properties":{"osm_id":"6926374947","tag":{"amenity":"waste_disposal"}},"type":"Feature"},
	{"geometry":{"coordinates":[-4.66937,36.546772],"type":"Point"},"properties":{"osm_id":"6926374948","tag":{"amenity":"recycling","recycling_type":"container"}},"type":"Feature"},
	{"geometry":{"coordinates":[-4.67197,36.547896],"type":"Point"},"properties":{"osm_id":"6926374950","tag":{"amenity":"recycling","recycling_type":"container"}},"type":"Feature"},
	{"geometry":{"coordinates":[-4.671928,36.547892],"type":"Point"},"properties":{"osm_id":"6926374951","tag":{"amenity":"waste_disposal"}},"type":"Feature"},
	{"geometry":{"coordinates":[-4.674467,36.548138],"type":"Point"},"properties":{"osm_id":"6926374952","tag":{"amenity":"waste_disposal"}},"type":"Feature"},
	{"geometry":{"coordinates":[-4.674426,36.548142],"type":"Point"},"properties":{"osm_id":"6926374953","tag":{"amenity":"recycling","recycling_type":"container"}},"type":"Feature"},
	{"geometry":{"coordinates":[-4.689164,36.55461],"type":"Point"},"properties":{"name":"Planta de Gesti\u00c3\u00b3n de Residuos S\u00c3\u00b3lidos Urbanos","osm_id":"6968262653","tag":{"amenity":"recycling","recycling_type":"centre"}},"type":"Feature"},
	{"geometry":{"coordinates":[-4.673627,36.554031],"type":"Point"},"properties":{"osm_id":"6992391282","tag":{"amenity":"waste_disposal"}},"type":"Feature"},
	{"geometry":{"coordinates":[-4.675679,36.548408],"type":"Point"},"properties":{"osm_id":"6994494649","tag":{"amenity":"waste_disposal"}},"type":"Feature"},
	{"geometry":{"coordinates":[-4.675635,36.548427],"type":"Point"},"properties":{"osm_id":"6994494650","tag":{"amenity":"recycling","recycling_type":"container"}},"type":"Feature"}
]
}
