{
"type": "FeatureCollection",
"features": [
	{"geometry":{"coordinates":[40.004191,43.403533],"type":"Point"},"properties":{"osm_id":"7195176482","tag":{"amenity":"recycling","recycling_type":"container"}},"type":"Feature"},
	{"geometry":{"coordinates":[39.995944,43.396476],"type":"Point"},"properties":{"osm_id":"7263815924","tag":{"amenity":"recycling","recycling_type":"container"}},"type":"Feature"},
	{"geometry":{"coordinates":[40.00014,43.395902],"type":"Point"},"properties":{"osm_id":"7266426899","tag":{"amenity":"recycling","recycling_type":"container"}},"type":"Feature"},
	{"geometry":{"coordinates":[39.995951,43.396454],"type":"Point"},"properties":{"osm_id":"7494785074","tag":{"access":"yes","amenity":"waste_disposal"}},"type":"Feature"},
	{"geometry":{"coordinates":[40.002311,43.400694],"type":"Point"},"properties":{"osm_id":"7494938168","tag":{"amenity":"recycling","recycling_type":"container"}},"type":"Feature"},
	{"geometry":{"coordinates":[40.002343,43.400705],"type":"Point"},"properties":{"osm_id":"7494938169","tag":{"access":"private","amenity":"waste_disposal"}},"type":"Feature"},
	{"geometry":{"coordinates":[40.000496,43.401262],"type":"Point"},"properties":{"osm_id":"7498658951","tag":{"amenity":"recycling","recycling_type":"container"}},"type":"Feature"},
	{"geometry":{"coordinates":[40.000469,43.401248],"type":"Point"},"properties":{"osm_id":"7498658952","tag":{"access":"private","amenity":"waste_disposal"}},"type":"Feature"},
	{"geometry":{"coordinates":[39.998474,43.404768],"type":"Point"},"properties":{"osm_id":"7498872064","tag":{"access":"yes","amenity":"waste_disposal"}},"type":"Feature"},
	{"geometry":{"coordinates":[39.998464,43.404723],"type":"Point"},"properties":{"osm_id":"7498872065","tag":{"amenity":"recycling","recycling_type":"container"}},"type":"Feature"},
	{"geometry":{"coordinates":[40.002954,43.404801],"type":"Point"},"properties":{"osm_id":"7510453246","tag":{"amenity":"recycling","recycling_type":"container"}},"type":"Feature"},
	{"geometry":{"coordinates":[40.002971,43.40478],"type":"Point"},"properties":{"osm_id":"7510453247","tag":{"access":"private","amenity":"waste_disposal"}},"type":"Feature"},
	{"geometry":{"coordinates":[40.002756,43.407012],"type":"Point"},"properties":{"osm_id":"7514290046","tag":{"amenity":"recycling","recycling_type":"container"}},"type":"Feature"},
	{"geometry":{"coordinates":[40.002743,43.406997],"type":"Point"},"properties":{"osm_id":"7514290047","tag":{"amenity":"waste_disposal"}},"type":"Feature"},
	{"geometry":{"coordinates":[40.009496,43.425933],"type":"Point"},"properties":{"osm_id":"7518799479","tag":{"amenity":"waste_disposal"}},"type":"Feature"},
	{"geometry":{"coordinates":[40.024436,43.449417],"type":"Point"},"properties":{"osm_id":"7519504761","tag":{"amenity":"recycling","recycling_type":"container"}},"type":"Feature"},
	{"geometry":{"coordinates":[40.024396,43.449434],"type":"Point"},"properties":{"osm_id":"7519504762","tag":{"amenity":"waste_disposal"}},"type":"Feature"},
	{"geometry":{"coordinates":[40.02212,43.444496],"type":"Point"},"properties":{"osm_id":"7519548190","tag":{"amenity":"recycling","recycling_type":"container"}},"type":"Feature"},
	{"geometry":{"coordinates":[40.022099,43.444484],"type":"Point"},"properties":{"osm_id":"7519548191","tag":{"access":"yes","amenity":"waste_disposal"}},"type":"Feature"},
	{"geometry":{"coordinates":[39.99119,43.401618],"type":"Point"},"properties":{"osm_id":"7575353963","tag":{"amenity":"waste_disposal"}},"type":"Feature"},
	{"geometry":{"coordinates":[39.991171,43.401634],"type":"Point"},"properties":{"osm_id":"7575353964","tag":{"amenity":"recycling","recycling_type":"container"}},"type":"Feature"}
]
}
