{
"type": "FeatureCollection",
"features": [
	{"geometry":{"coordinates":[-78.86094,38.432644],"type":"Point"},"properties":{"osm_id":"3757585748","tag":{"amenity":"waste_basket"}},"type":"Feature"},
	{"geometry":{"coordinates":[-78.863034,38.433385],"type":"Point"},"properties":{"osm_id":"3779650963","tag":{"amenity":"waste_basket"}},"type":"Feature"},
	{"geometry":{"coordinates":[-78.863041,38.433375],"type":"Point"},"properties":{"osm_id":"3779654074","tag":{"amenity":"recycling","recycling_type":"container"}},"type":"Feature"},
	{"geometry":{"coordinates":[-78.862144,38.433897],"type":"Point"},"properties":{"osm_id":"3779700559","tag":{"amenity":"waste_basket","description":"Trash can outside of HHS basement"}},"type":"Feature"},
	{"geometry":{"coordinates":[-78.862511,38.433771],"type":"Point"},"properties":{"osm_id":"3779742757","tag":{"amenity":"waste_basket"}},"type":"Feature"},
	{"geometry":{"coordinates":[-78.860957,38.433384],"type":"Point"},"properties":{"osm_id":"3783418777","tag":{"amenity":"recycling","recycling:cans":"yes","recycling:glass_bottles":"yes","recycling_type":"container"}},"type":"Feature"},
	{"geometry":{"coordinates":[-78.838566,38.453408],"type":"Point"},"properties":{"osm_id":"5272047111","tag":{"amenity":"waste_disposal"}},"type":"Feature"}
]
}
