{
"type": "FeatureCollection",
"features": [
	{"geometry":{"coordinates":[-78.853316,36.00995],"type":"Point"},"properties":{"highway":"turning_circle","osm_id":"170677363"},"type":"Feature"},
	{"geometry":{"coordinates":[-78.91518,36.008754],"type":"Point"},"properties":{"osm_id":"4552754532","tag":{"amenity":"recycling","level":"0","recycling:aluminium_cans":"yes","recycling:books":"yes","recycling:bottles":"yes","recycling:cans":"yes","recycling:glass_bottles":"yes","recycling:magazines":"yes","recycling:newspaper":"yes","recycling:plastic_bottles":"yes","recycling:steel_cans":"yes","recycling:telephone_directories":"yes","recycling_type":"container"}},"type":"Feature"},
	{"geometry":{"coordinates":[-78.881644,35.975175],"type":"Point"},"properties":{"osm_id":"5528667047","tag":{"amenity":"waste_basket","waste":"trash"}},"type":"Feature"},
	{"geometry":{"coordinates":[-78.881919,35.97538],"type":"Point"},"properties":{"osm_id":"5528667050","tag":{"amenity":"waste_basket","waste":"trash"}},"type":"Feature"},
	{"geometry":{"coordinates":[-78.881453,35.975175],"type":"Point"},"properties":{"osm_id":"5528667053","tag":{"amenity":"waste_basket","waste":"trash"}},"type":"Feature"},
	{"geometry":{"coordinates":[-78.881227,35.974879],"type":"Point"},"properties":{"osm_id":"5528667054","tag":{"amenity":"waste_basket","waste":"trash"}},"type":"Feature"},
	{"geometry":{"coordinates":[-78.881925,35.97501],"type":"Point"},"properties":{"osm_id":"5528667056","tag":{"amenity":"waste_basket","waste":"trash"}},"type":"Feature"},
	{"geometry":{"coordinates":[-78.881343,35.975468],"type":"Point"},"properties":{"osm_id":"5528667058","tag":{"amenity":"waste_basket","waste":"trash"}},"type":"Feature"},
	{"geometry":{"coordinates":[-78.881883,35.975205],"type":"Point"},"properties":{"osm_id":"5528667059","tag":{"amenity":"waste_basket","waste":"trash"}},"type":"Feature"},
	{"geometry":{"coordinates":[-78.919208,36.018477],"type":"Point"},"properties":{"osm_id":"6026311367","tag":{"amenity":"waste_basket"}},"type":"Feature"},
	{"geometry":{"coordinates":[-78.918997,36.021151],"type":"Point"},"properties":{"osm_id":"6030842080","tag":{"amenity":"waste_basket"}},"type":"Feature"},
	{"geometry":{"coordinates":[-78.919819,36.019644],"type":"Point"},"properties":{"osm_id":"6106772347","tag":{"amenity":"waste_basket"}},"type":"Feature"},
	{"geometry":{"coordinates":[-78.897878,35.999877],"type":"Point"},"properties":{"osm_id":"6373892613","tag":{"amenity":"waste_disposal"}},"type":"Feature"},
	{"geometry":{"coordinates":[-78.897911,35.999872],"type":"Point"},"properties":{"osm_id":"6373892614","tag":{"amenity":"waste_disposal"}},"type":"Feature"},
	{"geometry":{"coordinates":[-78.913363,35.980653],"type":"Point"},"properties":{"osm_id":"6612418216","tag":{"amenity":"waste_basket"}},"type":"Feature"},
	{"geometry":{"coordinates":[-78.91071,36.001664],"type":"Point"},"properties":{"osm_id":"6623310155","tag":{"amenity":"waste_disposal"}},"type":"Feature"},
	{"geometry":{"coordinates":[-78.911838,36.002115],"type":"Point"},"properties":{"osm_id":"6623334456","tag":{"amenity":"waste_disposal"}},"type":"Feature"},
	{"geometry":{"coordinates":[-78.923218,35.991974],"type":"Point"},"properties":{"osm_id":"6654378004","tag":{"amenity":"waste_disposal"}},"type":"Feature"},
	{"geometry":{"coordinates":[-78.923145,35.993695],"type":"Point"},"properties":{"osm_id":"6654398012","tag":{"amenity":"waste_disposal"}},"type":"Feature"},
	{"geometry":{"coordinates":[-78.925327,36.016514],"type":"Point"},"properties":{"osm_id":"6656064116","tag":{"amenity":"waste_disposal"}},"type":"Feature"},
	{"geometry":{"coordinates":[-78.894476,35.995333],"type":"Point"},"properties":{"osm_id":"6678270038","tag":{"amenity":"waste_disposal"}},"type":"Feature"},
	{"geometry":{"coordinates":[-78.900927,35.9969],"type":"Point"},"properties":{"osm_id":"6737211158","tag":{"amenity":"waste_basket"}},"type":"Feature"},
	{"geometry":{"coordinates":[-78.913284,36.028115],"type":"Point"},"properties":{"osm_id":"6953148917","tag":{"amenity":"waste_disposal"}},"type":"Feature"},
	{"geometry":{"coordinates":[-78.877832,35.982276],"type":"Point"},"properties":{"osm_id":"6982007333","tag":{"amenity":"waste_basket"}},"type":"Feature"},
	{"geometry":{"coordinates":[-78.877683,35.982859],"type":"Point"},"properties":{"osm_id":"6982007337","tag":{"amenity":"waste_basket"}},"type":"Feature"},
	{"geometry":{"coordinates":[-78.877555,35.98285],"type":"Point"},"properties":{"osm_id":"6982007338","tag":{"amenity":"waste_basket"}},"type":"Feature"},
	{"geometry":{"coordinates":[-78.877969,35.982091],"type":"Point"},"properties":{"osm_id":"6982007339","tag":{"amenity":"waste_basket"}},"type":"Feature"}
]
}
