{
"type": "FeatureCollection",
"features": [
	{"geometry":{"coordinates":[36.226484,50.024868],"type":"Point"},"properties":{"osm_id":"1428848558","tag":{"amenity":"waste_basket"}},"type":"Feature"},
	{"geometry":{"coordinates":[36.22729,50.025146],"type":"Point"},"properties":{"osm_id":"1428848563","tag":{"amenity":"waste_basket"}},"type":"Feature"},
	{"geometry":{"coordinates":[36.228102,50.025441],"type":"Point"},"properties":{"osm_id":"1428848574","tag":{"amenity":"waste_basket"}},"type":"Feature"},
	{"geometry":{"coordinates":[36.228119,50.02594],"type":"Point"},"properties":{"osm_id":"1428848589","tag":{"amenity":"waste_basket"}},"type":"Feature"},
	{"geometry":{"coordinates":[36.228204,50.02618],"type":"Point"},"properties":{"osm_id":"1428848608","tag":{"amenity":"waste_basket"}},"type":"Feature"},
	{"geometry":{"coordinates":[36.228412,50.026231],"type":"Point"},"properties":{"osm_id":"1428848620","tag":{"amenity":"waste_basket"}},"type":"Feature"},
	{"geometry":{"coordinates":[36.228558,50.026253],"type":"Point"},"properties":{"osm_id":"1428848625","tag":{"amenity":"waste_basket"}},"type":"Feature"},
	{"geometry":{"coordinates":[36.227914,50.02622],"type":"Point"},"properties":{"osm_id":"1428848630","tag":{"amenity":"waste_basket"}},"type":"Feature"},
	{"geometry":{"coordinates":[36.22871,50.026272],"type":"Point"},"properties":{"osm_id":"1428848632","tag":{"amenity":"waste_basket"}},"type":"Feature"},
	{"geometry":{"coordinates":[36.228842,50.026286],"type":"Point"},"properties":{"osm_id":"1428848636","tag":{"amenity":"waste_basket"}},"type":"Feature"},
	{"geometry":{"coordinates":[36.230937,50.026266],"type":"Point"},"properties":{"osm_id":"1428848637","tag":{"amenity":"waste_basket"}},"type":"Feature"},
	{"geometry":{"coordinates":[36.23106,50.026267],"type":"Point"},"properties":{"osm_id":"1428848639","tag":{"amenity":"waste_basket"}},"type":"Feature"},
	{"geometry":{"coordinates":[36.228989,50.026298],"type":"Point"},"properties":{"osm_id":"1428848644","tag":{"amenity":"waste_basket"}},"type":"Feature"},
	{"geometry":{"coordinates":[36.231177,50.026288],"type":"Point"},"properties":{"osm_id":"1428848645","tag":{"amenity":"waste_basket"}},"type":"Feature"},
	{"geometry":{"coordinates":[36.229148,50.02631],"type":"Point"},"properties":{"osm_id":"1428848649","tag":{"amenity":"waste_basket"}},"type":"Feature"},
	{"geometry":{"coordinates":[36.229294,50.026325],"type":"Point"},"properties":{"osm_id":"1428848655","tag":{"amenity":"waste_basket"}},"type":"Feature"},
	{"geometry":{"coordinates":[36.231611,50.026324],"type":"Point"},"properties":{"osm_id":"1428848657","tag":{"amenity":"waste_basket"}},"type":"Feature"},
	{"geometry":{"coordinates":[36.229523,50.026343],"type":"Point"},"properties":{"osm_id":"1428848662","tag":{"amenity":"waste_basket"}},"type":"Feature"},
	{"geometry":{"coordinates":[36.229678,50.026359],"type":"Point"},"properties":{"osm_id":"1428848664","tag":{"amenity":"waste_basket"}},"type":"Feature"},
	{"geometry":{"coordinates":[36.229837,50.026375],"type":"Point"},"properties":{"osm_id":"1428848668","tag":{"amenity":"waste_basket"}},"type":"Feature"},
	{"geometry":{"coordinates":[36.229997,50.026387],"type":"Point"},"properties":{"osm_id":"1428848672","tag":{"amenity":"waste_basket"}},"type":"Feature"},
	{"geometry":{"coordinates":[36.230173,50.026407],"type":"Point"},"properties":{"osm_id":"1428848678","tag":{"amenity":"waste_basket"}},"type":"Feature"},
	{"geometry":{"coordinates":[36.230327,50.026427],"type":"Point"},"properties":{"osm_id":"1428848681","tag":{"amenity":"waste_basket"}},"type":"Feature"},
	{"geometry":{"coordinates":[36.23195,50.026356],"type":"Point"},"properties":{"osm_id":"1428848683","tag":{"amenity":"waste_basket"}},"type":"Feature"},
	{"geometry":{"coordinates":[36.232025,50.026362],"type":"Point"},"properties":{"osm_id":"1428848685","tag":{"amenity":"waste_basket"}},"type":"Feature"},
	{"geometry":{"coordinates":[36.230481,50.026453],"type":"Point"},"properties":{"osm_id":"1428848688","tag":{"amenity":"waste_basket"}},"type":"Feature"},
	{"geometry":{"coordinates":[36.228188,50.026676],"type":"Point"},"properties":{"osm_id":"1428848696","tag":{"amenity":"waste_basket"}},"type":"Feature"},
	{"geometry":{"coordinates":[36.228349,50.026683],"type":"Point"},"properties":{"osm_id":"1428848700","tag":{"amenity":"waste_basket"}},"type":"Feature"},
	{"geometry":{"coordinates":[36.228476,50.026688],"type":"Point"},"properties":{"osm_id":"1428848705","tag":{"amenity":"waste_basket"}},"type":"Feature"},
	{"geometry":{"coordinates":[36.228588,50.026699],"type":"Point"},"properties":{"osm_id":"1428848707","tag":{"amenity":"waste_basket"}},"type":"Feature"},
	{"geometry":{"coordinates":[36.228824,50.026703],"type":"Point"},"properties":{"osm_id":"1428848712","tag":{"amenity":"waste_basket"}},"type":"Feature"},
	{"geometry":{"coordinates":[36.228949,50.026708],"type":"Point"},"properties":{"osm_id":"1428848718","tag":{"amenity":"waste_basket"}},"type":"Feature"},
	{"geometry":{"coordinates":[36.229076,50.026714],"type":"Point"},"properties":{"osm_id":"1428848721","tag":{"amenity":"waste_basket"}},"type":"Feature"},
	{"geometry":{"coordinates":[36.229202,50.026713],"type":"Point"},"properties":{"osm_id":"1428848724","tag":{"amenity":"waste_basket"}},"type":"Feature"},
	{"geometry":{"coordinates":[36.229486,50.026729],"type":"Point"},"properties":{"osm_id":"1428848728","tag":{"amenity":"waste_basket"}},"type":"Feature"},
	{"geometry":{"coordinates":[36.229618,50.026737],"type":"Point"},"properties":{"osm_id":"1428848731","tag":{"amenity":"waste_basket"}},"type":"Feature"},
	{"geometry":{"coordinates":[36.229358,50.026723],"type":"Point"},"properties":{"osm_id":"1428848735","tag":{"amenity":"waste_basket"}},"type":"Feature"},
	{"geometry":{"coordinates":[36.229791,50.026748],"type":"Point"},"properties":{"osm_id":"1428848740","tag":{"amenity":"waste_basket"}},"type":"Feature"},
	{"geometry":{"coordinates":[36.229945,50.026754],"type":"Point"},"properties":{"osm_id":"1428848742","tag":{"amenity":"waste_basket"}},"type":"Feature"},
	{"geometry":{"coordinates":[36.230089,50.026768],"type":"Point"},"properties":{"osm_id":"1428848746","tag":{"amenity":"waste_basket"}},"type":"Feature"},
	{"geometry":{"coordinates":[36.230308,50.026783],"type":"Point"},"properties":{"osm_id":"1428848750","tag":{"amenity":"waste_basket"}},"type":"Feature"},
	{"geometry":{"coordinates":[36.230442,50.026789],"type":"Point"},"properties":{"osm_id":"1428848754","tag":{"amenity":"waste_basket"}},"type":"Feature"},
	{"geometry":{"coordinates":[36.230584,50.026794],"type":"Point"},"properties":{"osm_id":"1428848759","tag":{"amenity":"waste_basket"}},"type":"Feature"},
	{"geometry":{"coordinates":[36.227372,50.026885],"type":"Point"},"properties":{"osm_id":"1428848770","tag":{"amenity":"waste_basket"}},"type":"Feature"},
	{"geometry":{"coordinates":[36.227243,50.027076],"type":"Point"},"properties":{"osm_id":"1428848771","tag":{"amenity":"waste_basket"}},"type":"Feature"},
	{"geometry":{"coordinates":[36.227075,50.027358],"type":"Point"},"properties":{"osm_id":"1428848772","tag":{"amenity":"waste_basket"}},"type":"Feature"},
	{"geometry":{"coordinates":[36.226971,50.027539],"type":"Point"},"properties":{"osm_id":"1428848778","tag":{"amenity":"waste_basket"}},"type":"Feature"},
	{"geometry":{"coordinates":[36.224052,50.023899],"type":"Point"},"properties":{"osm_id":"1431405825","tag":{"amenity":"waste_basket"}},"type":"Feature"},
	{"geometry":{"coordinates":[36.231078,50.026268],"type":"Point"},"properties":{"osm_id":"1431406011","tag":{"amenity":"waste_basket"}},"type":"Feature"},
	{"geometry":{"coordinates":[36.231212,50.026276],"type":"Point"},"properties":{"osm_id":"1431406013","tag":{"amenity":"waste_disposal"}},"type":"Feature"},
	{"geometry":{"coordinates":[36.231217,50.026276],"type":"Point"},"properties":{"osm_id":"1431406015","tag":{"amenity":"waste_disposal"}},"type":"Feature"},
	{"geometry":{"coordinates":[36.232399,50.026779],"type":"Point"},"properties":{"osm_id":"1431406102","tag":{"amenity":"waste_basket"}},"type":"Feature"},
	{"geometry":{"coordinates":[36.224426,50.018804],"type":"Point"},"properties":{"osm_id":"1432163525","tag":{"amenity":"waste_basket"}},"type":"Feature"},
	{"geometry":{"coordinates":[36.223565,50.020814],"type":"Point"},"properties":{"osm_id":"1432163576","tag":{"amenity":"waste_basket"}},"type":"Feature"},
	{"geometry":{"coordinates":[36.226595,50.016796],"type":"Point"},"properties":{"osm_id":"1632407562","tag":{"amenity":"waste_disposal"}},"type":"Feature"},
	{"geometry":{"coordinates":[36.235791,50.031002],"type":"Point"},"properties":{"osm_id":"2124265452","tag":{"amenity":"waste_disposal"}},"type":"Feature"},
	{"geometry":{"coordinates":[36.235793,50.031014],"type":"Point"},"properties":{"osm_id":"2124265453","tag":{"amenity":"waste_disposal"}},"type":"Feature"},
	{"geometry":{"coordinates":[36.235795,50.031024],"type":"Point"},"properties":{"osm_id":"2124265454","tag":{"amenity":"waste_disposal"}},"type":"Feature"},
	{"geometry":{"coordinates":[36.227758,50.033881],"type":"Point"},"properties":{"osm_id":"2146201397","tag":{"amenity":"waste_disposal"}},"type":"Feature"},
	{"geometry":{"coordinates":[36.225317,50.034258],"type":"Point"},"properties":{"osm_id":"2146201419","tag":{"amenity":"waste_disposal"}},"type":"Feature"},
	{"geometry":{"coordinates":[36.229077,50.030267],"type":"Point"},"properties":{"osm_id":"2172278229","tag":{"amenity":"waste_disposal"}},"type":"Feature"},
	{"geometry":{"coordinates":[36.229088,50.030271],"type":"Point"},"properties":{"osm_id":"2172278230","tag":{"amenity":"waste_disposal"}},"type":"Feature"},
	{"geometry":{"coordinates":[36.229097,50.030276],"type":"Point"},"properties":{"osm_id":"2172278231","tag":{"amenity":"waste_disposal"}},"type":"Feature"},
	{"geometry":{"coordinates":[36.224116,50.023898],"type":"Point"},"properties":{"osm_id":"2574744046","tag":{"amenity":"waste_basket"}},"type":"Feature"},
	{"geometry":{"coordinates":[36.224104,50.023918],"type":"Point"},"properties":{"osm_id":"2574744047","tag":{"amenity":"waste_basket"}},"type":"Feature"},
	{"geometry":{"coordinates":[36.22373,50.025037],"type":"Point"},"properties":{"osm_id":"2574744049","tag":{"amenity":"waste_basket"}},"type":"Feature"},
	{"geometry":{"coordinates":[36.223709,50.03343],"type":"Point"},"properties":{"osm_id":"2701631470","tag":{"amenity":"waste_disposal"}},"type":"Feature"},
	{"geometry":{"coordinates":[36.22491,50.033622],"type":"Point"},"properties":{"osm_id":"2856127083","tag":{"amenity":"waste_disposal"}},"type":"Feature"},
	{"geometry":{"coordinates":[36.222122,50.035623],"type":"Point"},"properties":{"osm_id":"2856128121","tag":{"amenity":"waste_disposal"}},"type":"Feature"},
	{"geometry":{"coordinates":[36.222778,50.035609],"type":"Point"},"properties":{"osm_id":"2856128122","tag":{"amenity":"waste_disposal"}},"type":"Feature"},
	{"geometry":{"coordinates":[36.223145,50.035694],"type":"Point"},"properties":{"osm_id":"2856128123","tag":{"amenity":"waste_disposal"}},"type":"Feature"},
	{"geometry":{"coordinates":[36.2259,50.035676],"type":"Point"},"properties":{"osm_id":"2856128125","tag":{"amenity":"waste_disposal"}},"type":"Feature"},
	{"geometry":{"coordinates":[36.222925,50.036265],"type":"Point"},"properties":{"osm_id":"2856128142","tag":{"amenity":"waste_disposal"}},"type":"Feature"},
	{"geometry":{"coordinates":[36.22341,50.027626],"type":"Point"},"properties":{"osm_id":"3400658743","tag":{"amenity":"waste_basket"}},"type":"Feature"},
	{"geometry":{"coordinates":[36.244328,50.034836],"type":"Point"},"properties":{"osm_id":"3411460008","tag":{"amenity":"waste_disposal"}},"type":"Feature"},
	{"geometry":{"coordinates":[36.244336,50.034846],"type":"Point"},"properties":{"osm_id":"3411460009","tag":{"amenity":"waste_disposal"}},"type":"Feature"},
	{"geometry":{"coordinates":[36.244345,50.034856],"type":"Point"},"properties":{"osm_id":"3411460011","tag":{"amenity":"waste_disposal"}},"type":"Feature"},
	{"geometry":{"coordinates":[36.226602,50.028263],"type":"Point"},"properties":{"osm_id":"3413233196","tag":{"amenity":"waste_basket"}},"type":"Feature"},
	{"geometry":{"coordinates":[36.229603,50.029651],"type":"Point"},"properties":{"osm_id":"3434771726","tag":{"amenity":"waste_basket"}},"type":"Feature"},
	{"geometry":{"coordinates":[36.229456,50.029764],"type":"Point"},"properties":{"osm_id":"3434771729","tag":{"amenity":"waste_basket"}},"type":"Feature"},
	{"geometry":{"coordinates":[36.229288,50.029892],"type":"Point"},"properties":{"osm_id":"3434771732","tag":{"amenity":"waste_basket"}},"type":"Feature"},
	{"geometry":{"coordinates":[36.229133,50.030009],"type":"Point"},"properties":{"osm_id":"3434771735","tag":{"amenity":"waste_basket"}},"type":"Feature"},
	{"geometry":{"coordinates":[36.230196,50.030679],"type":"Point"},"properties":{"osm_id":"3459506920","tag":{"amenity":"waste_disposal"}},"type":"Feature"},
	{"geometry":{"coordinates":[36.230245,50.030693],"type":"Point"},"properties":{"osm_id":"3459506921","tag":{"amenity":"waste_disposal"}},"type":"Feature"},
	{"geometry":{"coordinates":[36.230267,50.030699],"type":"Point"},"properties":{"osm_id":"3459506922","tag":{"amenity":"waste_disposal"}},"type":"Feature"},
	{"geometry":{"coordinates":[36.230289,50.030706],"type":"Point"},"properties":{"osm_id":"3459506923","tag":{"amenity":"waste_disposal"}},"type":"Feature"},
	{"geometry":{"coordinates":[36.245054,50.035146],"type":"Point"},"properties":{"osm_id":"3599283462","tag":{"amenity":"waste_disposal"}},"type":"Feature"},
	{"geometry":{"coordinates":[36.243121,50.035416],"type":"Point"},"properties":{"osm_id":"3599283467","tag":{"amenity":"waste_disposal"}},"type":"Feature"},
	{"geometry":{"coordinates":[36.243143,50.035429],"type":"Point"},"properties":{"osm_id":"3599283468","tag":{"amenity":"waste_disposal"}},"type":"Feature"},
	{"geometry":{"coordinates":[36.243152,50.035441],"type":"Point"},"properties":{"osm_id":"3599283469","tag":{"amenity":"waste_disposal"}},"type":"Feature"},
	{"geometry":{"coordinates":[36.229112,50.030282],"type":"Point"},"properties":{"osm_id":"3607083349","tag":{"amenity":"waste_disposal"}},"type":"Feature"},
	{"geometry":{"coordinates":[36.227786,50.025328],"type":"Point"},"properties":{"osm_id":"3678922929","tag":{"amenity":"waste_basket"}},"type":"Feature"},
	{"geometry":{"coordinates":[36.213545,50.059971],"type":"Point"},"properties":{"osm_id":"3744561947","tag":{"amenity":"waste_disposal"}},"type":"Feature"},
	{"geometry":{"coordinates":[36.246999,50.011595],"type":"Point"},"properties":{"osm_id":"3911476455","tag":{"amenity":"waste_disposal"}},"type":"Feature"},
	{"geometry":{"coordinates":[36.245369,50.013244],"type":"Point"},"properties":{"osm_id":"3928545499","tag":{"amenity":"waste_disposal"}},"type":"Feature"},
	{"geometry":{"coordinates":[36.29158,50.048444],"type":"Point"},"properties":{"osm_id":"3936962484","tag":{"amenity":"waste_disposal"}},"type":"Feature"},
	{"geometry":{"coordinates":[36.289881,50.047524],"type":"Point"},"properties":{"osm_id":"3948684378","tag":{"amenity":"waste_disposal"}},"type":"Feature"},
	{"geometry":{"coordinates":[36.217416,50.028101],"type":"Point"},"properties":{"osm_id":"4243063697","tag":{"amenity":"waste_disposal"}},"type":"Feature"},
	{"geometry":{"coordinates":[36.226382,50.030885],"type":"Point"},"properties":{"osm_id":"4264581751","tag":{"amenity":"waste_disposal"}},"type":"Feature"},
	{"geometry":{"coordinates":[36.2899,50.038532],"type":"Point"},"properties":{"osm_id":"4370634294","tag":{"amenity":"waste_disposal"}},"type":"Feature"},
	{"geometry":{"coordinates":[36.290256,50.038898],"type":"Point"},"properties":{"osm_id":"4370710282","tag":{"amenity":"waste_disposal"}},"type":"Feature"},
	{"geometry":{"coordinates":[36.289928,50.038354],"type":"Point"},"properties":{"osm_id":"4373893301","tag":{"amenity":"waste_basket"}},"type":"Feature"},
	{"geometry":{"coordinates":[36.285686,50.037914],"type":"Point"},"properties":{"osm_id":"4373972197","tag":{"amenity":"waste_basket"}},"type":"Feature"},
	{"geometry":{"coordinates":[36.297629,50.028357],"type":"Point"},"properties":{"osm_id":"4438554091","tag":{"amenity":"waste_disposal"}},"type":"Feature"},
	{"geometry":{"coordinates":[36.298329,50.027813],"type":"Point"},"properties":{"osm_id":"4438564390","tag":{"amenity":"waste_disposal"}},"type":"Feature"},
	{"geometry":{"coordinates":[36.211709,50.057484],"type":"Point"},"properties":{"osm_id":"4675466408","tag":{"amenity":"waste_disposal"}},"type":"Feature"},
	{"geometry":{"coordinates":[36.291672,50.04977],"type":"Point"},"properties":{"osm_id":"4680678694","tag":{"amenity":"waste_disposal"}},"type":"Feature"},
	{"geometry":{"coordinates":[36.28975,50.049965],"type":"Point"},"properties":{"osm_id":"4680715990","tag":{"amenity":"waste_disposal"}},"type":"Feature"},
	{"geometry":{"coordinates":[36.229455,50.032127],"type":"Point"},"properties":{"osm_id":"4779719082","tag":{"amenity":"waste_disposal"}},"type":"Feature"},
	{"geometry":{"coordinates":[36.22949,50.032117],"type":"Point"},"properties":{"osm_id":"4779729829","tag":{"amenity":"waste_disposal"}},"type":"Feature"},
	{"geometry":{"coordinates":[36.223762,50.033436],"type":"Point"},"properties":{"osm_id":"4786965970","tag":{"amenity":"waste_disposal"}},"type":"Feature"},
	{"geometry":{"coordinates":[36.224592,50.016897],"type":"Point"},"properties":{"osm_id":"5620867521","tag":{"amenity":"waste_disposal"}},"type":"Feature"},
	{"geometry":{"coordinates":[36.210964,50.062315],"type":"Point"},"properties":{"osm_id":"6063033657","tag":{"amenity":"waste_disposal"}},"type":"Feature"},
	{"geometry":{"coordinates":[36.22511,50.03059],"type":"Point"},"properties":{"osm_id":"6475036614","tag":{"amenity":"waste_disposal"}},"type":"Feature"},
	{"geometry":{"coordinates":[36.228509,50.031092],"type":"Point"},"properties":{"osm_id":"6487609282","tag":{"amenity":"waste_disposal"}},"type":"Feature"},
	{"geometry":{"coordinates":[36.218355,50.015373],"type":"Point"},"properties":{"osm_id":"6877626028","tag":{"access":"yes","amenity":"waste_disposal"}},"type":"Feature"},
	{"geometry":{"coordinates":[36.218997,50.016093],"type":"Point"},"properties":{"osm_id":"7057224222","tag":{"amenity":"waste_disposal"}},"type":"Feature"},
	{"geometry":{"coordinates":[36.226077,50.011772],"type":"Point"},"properties":{"osm_id":"7131224387","tag":{"amenity":"recycling","opening_hours":"Mo-Sa 08:00-17:00","recycling:cans":"yes","recycling:cartons":"yes","recycling:glass":"yes","recycling:plastic":"yes","recycling:scrap_metal":"yes","recycling_type":"centre"}},"type":"Feature"},
	{"geometry":{"coordinates":[36.220426,50.014674],"type":"Point"},"properties":{"osm_id":"7152266972","tag":{"amenity":"waste_basket"}},"type":"Feature"},
	{"geometry":{"coordinates":[36.280525,50.044168],"type":"Point"},"properties":{"osm_id":"7429038140","tag":{"amenity":"waste_disposal"}},"type":"Feature"},
	{"geometry":{"coordinates":[36.231512,50.031863],"type":"Point"},"properties":{"osm_id":"7532232111","tag":{"amenity":"waste_disposal"}},"type":"Feature"},
	{"geometry":{"coordinates":[36.231481,50.031821],"type":"Point"},"properties":{"osm_id":"7532232112","tag":{"amenity":"recycling","recycling_type":"container"}},"type":"Feature"}
]
}
