{
"type": "FeatureCollection",
"lastupdate": "2020-07-31T00:00:00Z",
"features": [
	{"geometry":{"coordinates":[8.595378,53.058741],"type":"Point"},"properties":{"osm_id":"2348377913","tag":{"amenity":"recycling","recycling:clothes":"yes","recycling:glass_bottles":"yes","recycling_type":"container"}},"type":"Feature"},
	{"geometry":{"coordinates":[8.528899,53.064314],"type":"Point"},"properties":{"osm_id":"2927793596","tag":{"amenity":"recycling","recycling:clothes":"yes","recycling_type":"container"}},"type":"Feature"},
	{"geometry":{"coordinates":[8.525822,53.026948],"type":"Point"},"properties":{"osm_id":"2947790094","tag":{"amenity":"recycling","recycling:clothes":"yes","recycling:glass_bottles":"yes","recycling_type":"container"}},"type":"Feature"},
	{"geometry":{"coordinates":[8.56812,53.016085],"type":"Point"},"properties":{"osm_id":"3344350420","tag":{"amenity":"recycling","recycling:clothes":"yes","recycling:glass":"yes","recycling_type":"container"}},"type":"Feature"},
	{"geometry":{"coordinates":[8.541543,53.032342],"type":"Point"},"properties":{"osm_id":"3420121593","tag":{"amenity":"recycling","recycling:clothes":"yes","recycling:glass_bottles":"yes","recycling_type":"container"}},"type":"Feature"},
	{"geometry":{"coordinates":[8.560107,53.028497],"type":"Point"},"properties":{"osm_id":"4126029753","tag":{"amenity":"recycling","opening_hours":"Mo-Sa 07:00-19:00","recycling:glass_bottles":"yes","recycling_type":"container"}},"type":"Feature"},
	{"geometry":{"coordinates":[8.550542,53.046498],"type":"Point"},"properties":{"osm_id":"4551228141","tag":{"amenity":"recycling","recycling:clothes":"yes","recycling:shoes":"yes","recycling_type":"container"}},"type":"Feature"},
	{"geometry":{"coordinates":[8.603603,53.037446],"type":"Point"},"properties":{"osm_id":"5503627998","tag":{"amenity":"waste_basket","waste":"trash"}},"type":"Feature"},
	{"geometry":{"coordinates":[8.603912,53.03768],"type":"Point"},"properties":{"osm_id":"5503627999","tag":{"amenity":"waste_basket","waste":"dog_excrement"}},"type":"Feature"},
	{"geometry":{"coordinates":[8.545533,53.032411],"type":"Point"},"properties":{"osm_id":"5523508518","tag":{"amenity":"waste_basket"}},"type":"Feature"},
	{"geometry":{"coordinates":[8.538699,53.035505],"type":"Point"},"properties":{"osm_id":"6276695799","tag":{"amenity":"waste_basket"}},"type":"Feature"},
	{"geometry":{"coordinates":[8.59441,53.041261],"type":"Point"},"properties":{"osm_id":"6400895367","tag":{"amenity":"recycling","recycling:glass_bottles":"yes","recycling_type":"container"}},"type":"Feature"},
	{"geometry":{"coordinates":[8.542778,53.043374],"type":"Point"},"properties":{"osm_id":"7098905938","tag":{"amenity":"recycling","recycling:glass_bottles":"yes","recycling_type":"container"}},"type":"Feature"},
	{"geometry":{"coordinates":[8.610658,53.050712],"type":"Point"},"properties":{"osm_id":"7123384780","tag":{"amenity":"recycling","recycling:glass_bottles":"yes","recycling_type":"container"}},"type":"Feature"},
	{"geometry":{"coordinates":[8.606436,53.053656],"type":"Point"},"properties":{"osm_id":"7124835503","tag":{"amenity":"recycling","recycling:glass_bottles":"yes","recycling_type":"container"}},"type":"Feature"},
	{"geometry":{"coordinates":[8.552004,53.030315],"type":"Point"},"properties":{"osm_id":"7559227461","tag":{"amenity":"waste_basket","waste":"trash"}},"type":"Feature"}
]
}
