{
"type": "FeatureCollection",
"features": [
	{"geometry":{"coordinates":[8.609612,52.30755],"type":"Point"},"properties":{"osm_id":"7966587969","tag":{"amenity":"waste_disposal","waste":"glass"}},"type":"Feature"},
	{"geometry":{"coordinates":[8.552557,52.287943],"type":"Point"},"properties":{"osm_id":"8988415718","tag":{"amenity":"waste_basket"}},"type":"Feature"},
	{"geometry":{"coordinates":[8.552181,52.289637],"type":"Point"},"properties":{"osm_id":"8988419717","tag":{"amenity":"waste_basket"}},"type":"Feature"},
	{"geometry":{"coordinates":[8.534263,52.286448],"type":"Point"},"properties":{"osm_id":"9162438779","tag":{"amenity":"waste_basket","colour":"white"}},"type":"Feature"},
	{"geometry":{"coordinates":[8.53406,52.285433],"type":"Point"},"properties":{"osm_id":"9164256989","tag":{"amenity":"waste_basket"}},"type":"Feature"},
	{"geometry":{"coordinates":[8.534175,52.285796],"type":"Point"},"properties":{"osm_id":"9164256991","tag":{"amenity":"waste_basket"}},"type":"Feature"},
	{"geometry":{"coordinates":[8.53426,52.285973],"type":"Point"},"properties":{"osm_id":"9164256993","tag":{"amenity":"waste_basket"}},"type":"Feature"},
	{"geometry":{"coordinates":[8.533813,52.28599],"type":"Point"},"properties":{"osm_id":"9164281641","tag":{"amenity":"waste_basket"}},"type":"Feature"},
	{"geometry":{"coordinates":[8.533367,52.285929],"type":"Point"},"properties":{"osm_id":"9164281646","tag":{"amenity":"waste_basket"}},"type":"Feature"},
	{"geometry":{"coordinates":[8.532927,52.285955],"type":"Point"},"properties":{"osm_id":"9164281648","tag":{"amenity":"waste_basket"}},"type":"Feature"},
	{"geometry":{"coordinates":[8.531562,52.28577],"type":"Point"},"properties":{"osm_id":"9164281649","tag":{"amenity":"waste_basket"}},"type":"Feature"}
]
}
