{
"type": "FeatureCollection",
"features": [
	{"geometry":{"coordinates":[8.575189,52.115665],"type":"Point"},"properties":{"osm_id":"261060467","tag":{"amenity":"recycling","location":"overground","recycling_type":"container"}},"type":"Feature"},
	{"geometry":{"coordinates":[8.539662,52.112264],"type":"Point"},"properties":{"osm_id":"450941015","tag":{"amenity":"recycling","recycling:clothes":"yes","recycling:glass":"no","recycling:glass_bottles":"yes","recycling_type":"container"}},"type":"Feature"},
	{"geometry":{"coordinates":[8.608286,52.152462],"type":"Point"},"properties":{"osm_id":"518997767","tag":{"amenity":"recycling","recycling:clothes":"yes","recycling:glass_bottles":"yes","recycling_type":"container"}},"type":"Feature"},
	{"geometry":{"coordinates":[8.559208,52.13408],"type":"Point"},"properties":{"osm_id":"615785449","tag":{"amenity":"recycling","recycling:clothes":"yes","recycling_type":"container"}},"type":"Feature"},
	{"geometry":{"coordinates":[8.562094,52.135941],"type":"Point"},"properties":{"osm_id":"615785457","tag":{"amenity":"recycling","recycling:glass_bottles":"yes","recycling_type":"container"}},"type":"Feature"},
	{"geometry":{"coordinates":[8.609456,52.116385],"type":"Point"},"properties":{"osm_id":"1809980196","ref":"Oldinghauser Stra\u00c3\u009fe","tag":{"amenity":"recycling","recycling:clothes":"yes","recycling:glass_bottles":"yes","recycling_type":"container"}},"type":"Feature"},
	{"geometry":{"coordinates":[8.612769,52.112257],"type":"Point"},"properties":{"osm_id":"1854511241","tag":{"amenity":"waste_basket"}},"type":"Feature"},
	{"geometry":{"coordinates":[8.594532,52.111309],"type":"Point"},"properties":{"osm_id":"1881340561","tag":{"amenity":"waste_basket"}},"type":"Feature"},
	{"geometry":{"coordinates":[8.572062,52.137987],"type":"Point"},"properties":{"osm_id":"2251379119","tag":{"amenity":"recycling","recycling:clothes":"yes","recycling:glass":"yes","recycling_type":"container"}},"type":"Feature"},
	{"geometry":{"coordinates":[8.547583,52.140827],"type":"Point"},"properties":{"osm_id":"2522319866","tag":{"amenity":"recycling","recycling:glass_bottles":"yes","recycling_type":"container"}},"type":"Feature"},
	{"geometry":{"coordinates":[8.58189,52.12687],"type":"Point"},"properties":{"osm_id":"2779848463","tag":{"amenity":"waste_basket"}},"type":"Feature"},
	{"geometry":{"coordinates":[8.5391,52.147226],"type":"Point"},"properties":{"osm_id":"3451645027","tag":{"amenity":"waste_basket"}},"type":"Feature"},
	{"geometry":{"coordinates":[8.530446,52.140356],"type":"Point"},"properties":{"osm_id":"3451786540","tag":{"amenity":"waste_basket"}},"type":"Feature"},
	{"geometry":{"coordinates":[8.53012,52.140382],"type":"Point"},"properties":{"osm_id":"3451786541","tag":{"amenity":"recycling","recycling:glass_bottles":"yes","recycling_type":"container"}},"type":"Feature"},
	{"geometry":{"coordinates":[8.531259,52.140429],"type":"Point"},"properties":{"osm_id":"3451786543","tag":{"amenity":"recycling","recycling:clothes":"yes","recycling_type":"container"}},"type":"Feature"},
	{"geometry":{"coordinates":[8.54686,52.138311],"type":"Point"},"properties":{"osm_id":"3451842475","tag":{"amenity":"waste_basket","traffic_sign":"DE:240"}},"type":"Feature"},
	{"geometry":{"coordinates":[8.553354,52.142345],"type":"Point"},"properties":{"osm_id":"3452464425","tag":{"amenity":"recycling","recycling:glass_bottles":"yes","recycling_type":"container"}},"type":"Feature"},
	{"geometry":{"coordinates":[8.552749,52.142478],"type":"Point"},"properties":{"osm_id":"3452464427","tag":{"amenity":"waste_basket"}},"type":"Feature"},
	{"geometry":{"coordinates":[8.552245,52.142678],"type":"Point"},"properties":{"osm_id":"3452464429","tag":{"amenity":"waste_basket"}},"type":"Feature"},
	{"geometry":{"coordinates":[8.609742,52.122265],"type":"Point"},"properties":{"osm_id":"3452809975","tag":{"amenity":"waste_basket"}},"type":"Feature"},
	{"geometry":{"coordinates":[8.609692,52.122281],"type":"Point"},"properties":{"osm_id":"3452809980","tag":{"amenity":"waste_basket"}},"type":"Feature"},
	{"geometry":{"coordinates":[8.609855,52.122548],"type":"Point"},"properties":{"osm_id":"3452809996","tag":{"amenity":"waste_basket"}},"type":"Feature"},
	{"geometry":{"coordinates":[8.604825,52.146863],"type":"Point"},"properties":{"osm_id":"3454032145","tag":{"amenity":"recycling","recycling:glass_bottles":"yes","recycling_type":"container"}},"type":"Feature"},
	{"geometry":{"coordinates":[8.552739,52.138385],"type":"Point"},"properties":{"osm_id":"3454307547","tag":{"amenity":"waste_basket"}},"type":"Feature"},
	{"geometry":{"coordinates":[8.552579,52.138572],"type":"Point"},"properties":{"osm_id":"3454307550","tag":{"amenity":"waste_basket"}},"type":"Feature"},
	{"geometry":{"coordinates":[8.553477,52.140155],"type":"Point"},"properties":{"osm_id":"3454307554","tag":{"amenity":"waste_basket"}},"type":"Feature"},
	{"geometry":{"coordinates":[8.552509,52.137353],"type":"Point"},"properties":{"osm_id":"3454334609","tag":{"amenity":"recycling","recycling:clothes":"yes","recycling_type":"container"}},"type":"Feature"},
	{"geometry":{"coordinates":[8.55344,52.136981],"type":"Point"},"properties":{"osm_id":"3454459860","tag":{"amenity":"waste_basket"}},"type":"Feature"},
	{"geometry":{"coordinates":[8.554919,52.137225],"type":"Point"},"properties":{"osm_id":"3454459862","tag":{"amenity":"waste_basket"}},"type":"Feature"},
	{"geometry":{"coordinates":[8.559894,52.137783],"type":"Point"},"properties":{"osm_id":"3454459873","tag":{"amenity":"waste_basket"}},"type":"Feature"},
	{"geometry":{"coordinates":[8.56141,52.138958],"type":"Point"},"properties":{"osm_id":"3454459875","tag":{"amenity":"waste_basket"}},"type":"Feature"},
	{"geometry":{"coordinates":[8.563697,52.140003],"type":"Point"},"properties":{"osm_id":"3454459882","tag":{"amenity":"waste_basket"}},"type":"Feature"},
	{"geometry":{"coordinates":[8.6083,52.144545],"type":"Point"},"properties":{"osm_id":"3457220106","tag":{"amenity":"recycling","recycling:glass_bottles":"yes","recycling_type":"container"}},"type":"Feature"},
	{"geometry":{"coordinates":[8.606305,52.145584],"type":"Point"},"properties":{"osm_id":"5777274464","tag":{"amenity":"waste_basket"}},"type":"Feature"},
	{"geometry":{"coordinates":[8.552781,52.136393],"type":"Point"},"properties":{"osm_id":"6598976566","tag":{"amenity":"recycling","material":"metal","recycling:glass_bottles":"yes","recycling_type":"container"}},"type":"Feature"},
	{"geometry":{"coordinates":[8.564641,52.134892],"type":"Point"},"properties":{"osm_id":"7044112672","tag":{"amenity":"recycling","recycling:clothes":"yes","recycling:glass":"yes","recycling:glass_bottles":"yes","recycling:shoes":"yes","recycling_type":"container"}},"type":"Feature"},
	{"geometry":{"coordinates":[8.575215,52.135467],"type":"Point"},"properties":{"osm_id":"7450348252","tag":{"amenity":"recycling","recycling:glass":"yes","recycling:glass_bottles":"yes","recycling_type":"container"}},"type":"Feature"}
]
}
