{
"type": "FeatureCollection",
"features": [
	{"geometry":{"coordinates":[8.527299,52.060158],"type":"Point"},"properties":{"osm_id":"280143355","tag":{"amenity":"recycling","recycling:glass_bottles":"yes","recycling_type":"container"}},"type":"Feature"},
	{"geometry":{"coordinates":[8.562211,52.06282],"type":"Point"},"properties":{"barrier":"gate","osm_id":"299095681"},"type":"Feature"},
	{"geometry":{"coordinates":[8.598021,52.091004],"type":"Point"},"properties":{"osm_id":"332607222","ref":"Am Schmiedeskamp","tag":{"amenity":"recycling","recycling:glass_bottles":"yes","recycling_type":"container"}},"type":"Feature"},
	{"geometry":{"coordinates":[8.529898,52.055695],"type":"Point"},"properties":{"osm_id":"370052789","tag":{"amenity":"recycling","location":"overground","recycling:clothes":"yes","recycling_type":"container"}},"type":"Feature"},
	{"geometry":{"coordinates":[8.549855,52.0713],"type":"Point"},"properties":{"osm_id":"455209060","tag":{"amenity":"recycling","recycling:clothes":"yes","recycling:glass_bottles":"yes","recycling_type":"container"}},"type":"Feature"},
	{"geometry":{"coordinates":[8.534962,52.058392],"type":"Point"},"properties":{"osm_id":"455209082","tag":{"amenity":"recycling","recycling:cans":"no","recycling:clothes":"yes","recycling:glass_bottles":"yes","recycling:paper":"no","recycling_type":"container"}},"type":"Feature"},
	{"geometry":{"coordinates":[8.548691,52.054612],"type":"Point"},"properties":{"osm_id":"1497899143","tag":{"amenity":"recycling","recycling:glass_bottles":"yes","recycling_type":"container"}},"type":"Feature"},
	{"geometry":{"coordinates":[8.546312,52.05412],"type":"Point"},"properties":{"osm_id":"1629926704","tag":{"amenity":"recycling","recycling:glass_bottles":"yes","recycling_type":"container"}},"type":"Feature"},
	{"geometry":{"coordinates":[8.568105,52.054805],"type":"Point"},"properties":{"osm_id":"1659342963","tag":{"amenity":"waste_basket"}},"type":"Feature"},
	{"geometry":{"coordinates":[8.565129,52.055978],"type":"Point"},"properties":{"osm_id":"1659342965","tag":{"amenity":"waste_basket"}},"type":"Feature"},
	{"geometry":{"coordinates":[8.563691,52.056025],"type":"Point"},"properties":{"osm_id":"1659342976","tag":{"amenity":"waste_basket"}},"type":"Feature"},
	{"geometry":{"coordinates":[8.560391,52.056039],"type":"Point"},"properties":{"osm_id":"1659342992","tag":{"amenity":"waste_basket"}},"type":"Feature"},
	{"geometry":{"coordinates":[8.567399,52.057751],"type":"Point"},"properties":{"osm_id":"1659343002","tag":{"amenity":"waste_basket"}},"type":"Feature"},
	{"geometry":{"coordinates":[8.562803,52.057813],"type":"Point"},"properties":{"osm_id":"1659343012","tag":{"amenity":"waste_basket"}},"type":"Feature"},
	{"geometry":{"coordinates":[8.567906,52.059027],"type":"Point"},"properties":{"osm_id":"1659343029","tag":{"amenity":"waste_basket"}},"type":"Feature"},
	{"geometry":{"coordinates":[8.563386,52.0592],"type":"Point"},"properties":{"osm_id":"1659343044","tag":{"amenity":"waste_basket"}},"type":"Feature"},
	{"geometry":{"coordinates":[8.56627,52.060599],"type":"Point"},"properties":{"osm_id":"1659343055","tag":{"amenity":"waste_basket"}},"type":"Feature"},
	{"geometry":{"coordinates":[8.567141,52.060606],"type":"Point"},"properties":{"osm_id":"1659343056","tag":{"amenity":"waste_basket"}},"type":"Feature"},
	{"geometry":{"coordinates":[8.588453,52.102901],"type":"Point"},"properties":{"osm_id":"1882883679","tag":{"amenity":"waste_basket"}},"type":"Feature"},
	{"geometry":{"coordinates":[8.535329,52.056275],"type":"Point"},"properties":{"osm_id":"1962669076","tag":{"amenity":"recycling","recycling:glass_bottles":"yes","recycling_type":"container"}},"type":"Feature"},
	{"geometry":{"coordinates":[8.559983,52.052765],"type":"Point"},"properties":{"osm_id":"2182329839","tag":{"amenity":"recycling"}},"type":"Feature"},
	{"geometry":{"coordinates":[8.535437,52.053251],"type":"Point"},"properties":{"osm_id":"2289660849","tag":{"amenity":"waste_basket"}},"type":"Feature"},
	{"geometry":{"coordinates":[8.535938,52.053746],"type":"Point"},"properties":{"osm_id":"2289660856","tag":{"amenity":"waste_basket"}},"type":"Feature"},
	{"geometry":{"coordinates":[8.538816,52.053923],"type":"Point"},"properties":{"osm_id":"2289660861","tag":{"amenity":"waste_basket"}},"type":"Feature"},
	{"geometry":{"coordinates":[8.539606,52.054261],"type":"Point"},"properties":{"osm_id":"2289660867","tag":{"amenity":"waste_basket"}},"type":"Feature"},
	{"geometry":{"coordinates":[8.540551,52.054543],"type":"Point"},"properties":{"osm_id":"2289660871","tag":{"amenity":"waste_basket"}},"type":"Feature"},
	{"geometry":{"coordinates":[8.541845,52.054838],"type":"Point"},"properties":{"osm_id":"2289660876","tag":{"amenity":"waste_basket"}},"type":"Feature"},
	{"geometry":{"coordinates":[8.541932,52.054847],"type":"Point"},"properties":{"osm_id":"2289660879","tag":{"amenity":"waste_basket"}},"type":"Feature"},
	{"geometry":{"coordinates":[8.541722,52.055104],"type":"Point"},"properties":{"osm_id":"2289660884","tag":{"amenity":"waste_basket"}},"type":"Feature"},
	{"geometry":{"coordinates":[8.542554,52.055209],"type":"Point"},"properties":{"osm_id":"2289660886","tag":{"amenity":"waste_basket"}},"type":"Feature"},
	{"geometry":{"coordinates":[8.567278,52.055195],"type":"Point"},"properties":{"osm_id":"2292939634","tag":{"amenity":"waste_basket"}},"type":"Feature"},
	{"geometry":{"coordinates":[8.571231,52.055232],"type":"Point"},"properties":{"osm_id":"2292939643","tag":{"amenity":"waste_basket"}},"type":"Feature"},
	{"geometry":{"coordinates":[8.565901,52.055749],"type":"Point"},"properties":{"osm_id":"2292939646","tag":{"amenity":"waste_basket"}},"type":"Feature"},
	{"geometry":{"coordinates":[8.560734,52.055965],"type":"Point"},"properties":{"osm_id":"2292939651","tag":{"amenity":"waste_basket"}},"type":"Feature"},
	{"geometry":{"coordinates":[8.563163,52.0561],"type":"Point"},"properties":{"osm_id":"2292939660","tag":{"amenity":"waste_basket"}},"type":"Feature"},
	{"geometry":{"coordinates":[8.568998,52.056268],"type":"Point"},"properties":{"osm_id":"2292939665","tag":{"amenity":"waste_basket"}},"type":"Feature"},
	{"geometry":{"coordinates":[8.559148,52.056531],"type":"Point"},"properties":{"osm_id":"2292939667","tag":{"amenity":"waste_basket"}},"type":"Feature"},
	{"geometry":{"coordinates":[8.55837,52.056721],"type":"Point"},"properties":{"osm_id":"2292939672","tag":{"amenity":"waste_basket"}},"type":"Feature"},
	{"geometry":{"coordinates":[8.558726,52.05683],"type":"Point"},"properties":{"osm_id":"2292939677","tag":{"amenity":"waste_basket"}},"type":"Feature"},
	{"geometry":{"coordinates":[8.558468,52.056867],"type":"Point"},"properties":{"osm_id":"2292939686","tag":{"amenity":"waste_basket"}},"type":"Feature"},
	{"geometry":{"coordinates":[8.569465,52.057224],"type":"Point"},"properties":{"osm_id":"2292939704","tag":{"amenity":"waste_basket"}},"type":"Feature"},
	{"geometry":{"coordinates":[8.56244,52.057737],"type":"Point"},"properties":{"osm_id":"2292939723","tag":{"amenity":"waste_basket"}},"type":"Feature"},
	{"geometry":{"coordinates":[8.560896,52.058113],"type":"Point"},"properties":{"osm_id":"2292939733","tag":{"amenity":"waste_basket"}},"type":"Feature"},
	{"geometry":{"coordinates":[8.557256,52.058817],"type":"Point"},"properties":{"osm_id":"2292939739","tag":{"amenity":"waste_basket"}},"type":"Feature"},
	{"geometry":{"coordinates":[8.567755,52.060961],"type":"Point"},"properties":{"osm_id":"2292939748","tag":{"amenity":"waste_basket"}},"type":"Feature"},
	{"geometry":{"coordinates":[8.555848,52.058943],"type":"Point"},"properties":{"osm_id":"2298937528","tag":{"amenity":"waste_basket"}},"type":"Feature"},
	{"geometry":{"coordinates":[8.5551,52.059049],"type":"Point"},"properties":{"osm_id":"2298937535","tag":{"amenity":"waste_basket"}},"type":"Feature"},
	{"geometry":{"coordinates":[8.565983,52.061391],"type":"Point"},"properties":{"osm_id":"2298937543","tag":{"amenity":"waste_basket"}},"type":"Feature"},
	{"geometry":{"coordinates":[8.566133,52.06206],"type":"Point"},"properties":{"osm_id":"2298937560","tag":{"amenity":"waste_basket"}},"type":"Feature"},
	{"geometry":{"coordinates":[8.566108,52.06258],"type":"Point"},"properties":{"osm_id":"2298937568","tag":{"amenity":"waste_basket"}},"type":"Feature"},
	{"geometry":{"coordinates":[8.601089,52.073063],"type":"Point"},"properties":{"osm_id":"2298937607","tag":{"amenity":"waste_basket"}},"type":"Feature"},
	{"geometry":{"coordinates":[8.600065,52.073359],"type":"Point"},"properties":{"osm_id":"2298937628","tag":{"amenity":"waste_basket"}},"type":"Feature"},
	{"geometry":{"coordinates":[8.602015,52.07346],"type":"Point"},"properties":{"osm_id":"2298937646","tag":{"amenity":"waste_basket"}},"type":"Feature"},
	{"geometry":{"coordinates":[8.598852,52.073748],"type":"Point"},"properties":{"osm_id":"2298937661","tag":{"amenity":"waste_basket"}},"type":"Feature"},
	{"geometry":{"coordinates":[8.597219,52.074493],"type":"Point"},"properties":{"osm_id":"2298937671","tag":{"amenity":"waste_basket"}},"type":"Feature"},
	{"geometry":{"coordinates":[8.594595,52.075074],"type":"Point"},"properties":{"osm_id":"2298937676","tag":{"amenity":"waste_basket"}},"type":"Feature"},
	{"geometry":{"coordinates":[8.593531,52.075132],"type":"Point"},"properties":{"osm_id":"2298937682","tag":{"amenity":"waste_basket"}},"type":"Feature"},
	{"geometry":{"coordinates":[8.5931,52.075286],"type":"Point"},"properties":{"osm_id":"2298937701","tag":{"amenity":"waste_basket"}},"type":"Feature"},
	{"geometry":{"coordinates":[8.592346,52.07535],"type":"Point"},"properties":{"osm_id":"2298937710","tag":{"amenity":"waste_basket"}},"type":"Feature"},
	{"geometry":{"coordinates":[8.612063,52.077804],"type":"Point"},"properties":{"osm_id":"2298937717","tag":{"amenity":"waste_basket"}},"type":"Feature"},
	{"geometry":{"coordinates":[8.532116,52.052594],"type":"Point"},"properties":{"osm_id":"2448210970","tag":{"amenity":"waste_basket"}},"type":"Feature"},
	{"geometry":{"coordinates":[8.531885,52.053477],"type":"Point"},"properties":{"osm_id":"2448210974","tag":{"amenity":"waste_basket"}},"type":"Feature"},
	{"geometry":{"coordinates":[8.526466,52.053896],"type":"Point"},"properties":{"osm_id":"2448210977","tag":{"amenity":"waste_basket"}},"type":"Feature"},
	{"geometry":{"coordinates":[8.525488,52.053938],"type":"Point"},"properties":{"osm_id":"2448210979","tag":{"amenity":"waste_basket"}},"type":"Feature"},
	{"geometry":{"coordinates":[8.531107,52.054453],"type":"Point"},"properties":{"osm_id":"2448210984","tag":{"amenity":"waste_basket"}},"type":"Feature"},
	{"geometry":{"coordinates":[8.529308,52.05492],"type":"Point"},"properties":{"osm_id":"2448210987","tag":{"amenity":"waste_basket"}},"type":"Feature"},
	{"geometry":{"coordinates":[8.605506,52.069765],"type":"Point"},"properties":{"osm_id":"2561857562","tag":{"amenity":"waste_basket"}},"type":"Feature"},
	{"geometry":{"coordinates":[8.531311,52.056081],"type":"Point"},"properties":{"osm_id":"2836908085","tag":{"amenity":"waste_basket"}},"type":"Feature"},
	{"geometry":{"coordinates":[8.531034,52.056081],"type":"Point"},"properties":{"osm_id":"2836908086","tag":{"amenity":"waste_basket"}},"type":"Feature"},
	{"geometry":{"coordinates":[8.531396,52.056328],"type":"Point"},"properties":{"osm_id":"2836908089","tag":{"amenity":"waste_basket"}},"type":"Feature"},
	{"geometry":{"coordinates":[8.532356,52.057532],"type":"Point"},"properties":{"osm_id":"2836908091","tag":{"amenity":"waste_basket"}},"type":"Feature"},
	{"geometry":{"coordinates":[8.533374,52.058246],"type":"Point"},"properties":{"osm_id":"2836908092","tag":{"amenity":"waste_basket"}},"type":"Feature"},
	{"geometry":{"coordinates":[8.53688,52.059121],"type":"Point"},"properties":{"osm_id":"2836908231","tag":{"amenity":"waste_basket"}},"type":"Feature"},
	{"geometry":{"coordinates":[8.537441,52.059155],"type":"Point"},"properties":{"osm_id":"2836908241","tag":{"amenity":"waste_basket"}},"type":"Feature"},
	{"geometry":{"coordinates":[8.536739,52.059162],"type":"Point"},"properties":{"osm_id":"2836908243","tag":{"amenity":"waste_basket"}},"type":"Feature"},
	{"geometry":{"coordinates":[8.537586,52.059165],"type":"Point"},"properties":{"osm_id":"2836908245","tag":{"amenity":"waste_basket"}},"type":"Feature"},
	{"geometry":{"coordinates":[8.525731,52.090255],"type":"Point"},"properties":{"osm_id":"2836908333","tag":{"amenity":"waste_basket"}},"type":"Feature"},
	{"geometry":{"coordinates":[8.573613,52.055376],"type":"Point"},"properties":{"osm_id":"3740702866","tag":{"amenity":"waste_basket"}},"type":"Feature"},
	{"geometry":{"coordinates":[8.566808,52.060547],"type":"Point"},"properties":{"osm_id":"3740702910","tag":{"amenity":"waste_basket"}},"type":"Feature"},
	{"geometry":{"coordinates":[8.568067,52.060983],"type":"Point"},"properties":{"osm_id":"3740702918","tag":{"amenity":"waste_basket"}},"type":"Feature"},
	{"geometry":{"coordinates":[8.576566,52.061457],"type":"Point"},"properties":{"osm_id":"3740703026","tag":{"amenity":"waste_basket"}},"type":"Feature"},
	{"geometry":{"coordinates":[8.601792,52.073496],"type":"Point"},"properties":{"osm_id":"3760586015","tag":{"amenity":"waste_basket"}},"type":"Feature"},
	{"geometry":{"coordinates":[8.60426,52.071413],"type":"Point"},"properties":{"osm_id":"3760809703","tag":{"amenity":"waste_basket"}},"type":"Feature"},
	{"geometry":{"coordinates":[8.602062,52.072742],"type":"Point"},"properties":{"osm_id":"3760809724","tag":{"amenity":"waste_basket"}},"type":"Feature"},
	{"geometry":{"coordinates":[8.602718,52.072752],"type":"Point"},"properties":{"osm_id":"3760809725","tag":{"amenity":"waste_basket"}},"type":"Feature"},
	{"geometry":{"coordinates":[8.602368,52.072959],"type":"Point"},"properties":{"osm_id":"3760809729","tag":{"amenity":"waste_basket"}},"type":"Feature"},
	{"geometry":{"coordinates":[8.602581,52.073054],"type":"Point"},"properties":{"osm_id":"3760809742","tag":{"amenity":"waste_basket"}},"type":"Feature"},
	{"geometry":{"coordinates":[8.597453,52.074715],"type":"Point"},"properties":{"osm_id":"3760809755","tag":{"amenity":"waste_basket"}},"type":"Feature"},
	{"geometry":{"coordinates":[8.597709,52.07512],"type":"Point"},"properties":{"osm_id":"3760811967","tag":{"amenity":"waste_basket"}},"type":"Feature"},
	{"geometry":{"coordinates":[8.59205,52.075203],"type":"Point"},"properties":{"osm_id":"3760811975","tag":{"amenity":"waste_basket"}},"type":"Feature"},
	{"geometry":{"coordinates":[8.595903,52.075204],"type":"Point"},"properties":{"osm_id":"3760811977","tag":{"amenity":"waste_basket"}},"type":"Feature"},
	{"geometry":{"coordinates":[8.595419,52.075242],"type":"Point"},"properties":{"osm_id":"3760811990","tag":{"amenity":"waste_basket"}},"type":"Feature"},
	{"geometry":{"coordinates":[8.595319,52.075255],"type":"Point"},"properties":{"osm_id":"3760811992","tag":{"amenity":"waste_basket"}},"type":"Feature"},
	{"geometry":{"coordinates":[8.591937,52.075257],"type":"Point"},"properties":{"osm_id":"3760811993","tag":{"amenity":"waste_basket"}},"type":"Feature"},
	{"geometry":{"coordinates":[8.595041,52.07532],"type":"Point"},"properties":{"osm_id":"3760811998","tag":{"amenity":"waste_basket"}},"type":"Feature"},
	{"geometry":{"coordinates":[8.593312,52.07588],"type":"Point"},"properties":{"osm_id":"3760812004","tag":{"amenity":"waste_basket"}},"type":"Feature"},
	{"geometry":{"coordinates":[8.590013,52.076647],"type":"Point"},"properties":{"osm_id":"3760812012","tag":{"amenity":"waste_basket"}},"type":"Feature"},
	{"geometry":{"coordinates":[8.580118,52.066523],"type":"Point"},"properties":{"osm_id":"5068204137","tag":{"amenity":"recycling","operator":"Kolping","recycling:clothes":"yes","recycling_type":"container"}},"type":"Feature"},
	{"geometry":{"coordinates":[8.580155,52.066543],"type":"Point"},"properties":{"osm_id":"5068204138","tag":{"amenity":"recycling","recycling:glass_bottles":"yes","recycling_type":"container"}},"type":"Feature"},
	{"geometry":{"coordinates":[8.568993,52.053928],"type":"Point"},"properties":{"osm_id":"5076524021","tag":{"amenity":"recycling","mapillary":"dI6pn7Gt_ocN1TXoaJyIYA","recycling:glass_bottles":"yes","recycling_type":"container","survey:date":"2019-04-07"}},"type":"Feature"},
	{"geometry":{"coordinates":[8.544628,52.056105],"type":"Point"},"properties":{"osm_id":"5127122824","tag":{"amenity":"waste_basket"}},"type":"Feature"},
	{"geometry":{"coordinates":[8.598455,52.074726],"type":"Point"},"properties":{"osm_id":"5524693158","tag":{"amenity":"recycling","recycling:clothes":"yes","recycling_type":"container"}},"type":"Feature"},
	{"geometry":{"coordinates":[8.598512,52.074705],"type":"Point"},"properties":{"osm_id":"5524693159","tag":{"amenity":"recycling","recycling:glass_bottles":"yes","recycling_type":"container"}},"type":"Feature"},
	{"geometry":{"coordinates":[8.590537,52.065005],"type":"Point"},"properties":{"name":"Dehne","osm_id":"5524978596","tag":{"amenity":"recycling","recycling:hardcore":"yes","recycling_type":"centre"}},"type":"Feature"},
	{"geometry":{"coordinates":[8.597816,52.078593],"type":"Point"},"properties":{"osm_id":"5593919362","tag":{"amenity":"recycling","recycling:clothes":"yes","recycling:glass_bottles":"yes","recycling_type":"container"}},"type":"Feature"},
	{"geometry":{"coordinates":[8.549654,52.059365],"type":"Point"},"properties":{"osm_id":"6013953778","tag":{"amenity":"waste_basket"}},"type":"Feature"},
	{"geometry":{"coordinates":[8.5498,52.059356],"type":"Point"},"properties":{"osm_id":"6013953779","tag":{"amenity":"waste_basket"}},"type":"Feature"},
	{"geometry":{"coordinates":[8.549967,52.059344],"type":"Point"},"properties":{"osm_id":"6013953780","tag":{"amenity":"waste_basket"}},"type":"Feature"},
	{"geometry":{"coordinates":[8.534542,52.056259],"type":"Point"},"properties":{"osm_id":"6044764324","tag":{"amenity":"waste_basket"}},"type":"Feature"},
	{"geometry":{"coordinates":[8.535072,52.054842],"type":"Point"},"properties":{"osm_id":"6044779147","tag":{"amenity":"waste_basket"}},"type":"Feature"},
	{"geometry":{"coordinates":[8.530632,52.056304],"type":"Point"},"properties":{"osm_id":"6044779156","tag":{"amenity":"waste_basket"}},"type":"Feature"},
	{"geometry":{"coordinates":[8.568338,52.056377],"type":"Point"},"properties":{"osm_id":"6513148316","tag":{"amenity":"waste_basket"}},"type":"Feature"},
	{"geometry":{"coordinates":[8.567742,52.05669],"type":"Point"},"properties":{"osm_id":"6513148318","tag":{"amenity":"waste_basket"}},"type":"Feature"}
]
}
