{
"type": "FeatureCollection",
"features": [
	{"geometry":{"coordinates":[8.604779,51.951668],"type":"Point"},"properties":{"osm_id":"282208220","tag":{"amenity":"recycling","opening_hours":"Mo-Fr 07:00-19:00; PH closed","recycling:clothes":"yes","recycling:glass_bottles":"yes","recycling_type":"container"}},"type":"Feature"},
	{"geometry":{"coordinates":[8.580088,51.993015],"type":"Point"},"properties":{"osm_id":"453316314","tag":{"amenity":"recycling","location":"overground","recycling:glass_bottles":"yes","recycling_type":"container"}},"type":"Feature"},
	{"geometry":{"coordinates":[8.596633,51.953603],"type":"Point"},"properties":{"osm_id":"489361682","tag":{"amenity":"recycling","recycling:glass_bottles":"yes","recycling_type":"container"}},"type":"Feature"},
	{"geometry":{"coordinates":[8.581976,51.949699],"type":"Point"},"properties":{"osm_id":"498732304","tag":{"amenity":"recycling","mapillary":"_VFlMu_s4KD7tONStGg-FA","recycling:clothes":"yes","recycling:shoes":"yes","recycling_type":"container","survey:date":"2019-03-27"}},"type":"Feature"},
	{"geometry":{"coordinates":[8.535696,51.978071],"type":"Point"},"properties":{"osm_id":"1139111525","tag":{"amenity":"recycling","recycling:glass_bottles":"yes","recycling_type":"container"}},"type":"Feature"},
	{"geometry":{"coordinates":[8.573042,51.945168],"type":"Point"},"properties":{"osm_id":"1213725424","tag":{"amenity":"recycling","mapillary":"w_Oyu-iya5lztSv7_iZLsA","recycling:clothes":"yes","recycling:glass_bottles":"yes","recycling_type":"container","survey:date":"2019-03-24"}},"type":"Feature"},
	{"geometry":{"coordinates":[8.53981,51.970125],"type":"Point"},"properties":{"osm_id":"1286027670","tag":{"amenity":"recycling","recycling:glass_bottles":"yes","recycling_type":"container"}},"type":"Feature"},
	{"geometry":{"coordinates":[8.529441,51.962892],"type":"Point"},"properties":{"osm_id":"1290301169","tag":{"amenity":"recycling","recycling:glass":"yes"}},"type":"Feature"},
	{"geometry":{"coordinates":[8.552457,51.968218],"type":"Point"},"properties":{"osm_id":"1310296534","tag":{"amenity":"recycling","recycling:glass_bottles":"yes","recycling_type":"container"}},"type":"Feature"},
	{"geometry":{"coordinates":[8.600952,51.995391],"type":"Point"},"properties":{"osm_id":"1438243225","tag":{"amenity":"recycling","recycling:clothes":"yes","recycling_type":"container"}},"type":"Feature"},
	{"geometry":{"coordinates":[8.601027,51.995374],"type":"Point"},"properties":{"osm_id":"1438243226","tag":{"amenity":"recycling","recycling:clothes":"yes","recycling_type":"container"}},"type":"Feature"},
	{"geometry":{"coordinates":[8.552796,51.961106],"type":"Point"},"properties":{"osm_id":"1587547897","tag":{"amenity":"recycling","location":"overground","recycling:glass":"yes","recycling_type":"container"}},"type":"Feature"},
	{"geometry":{"coordinates":[8.569038,51.982565],"type":"Point"},"properties":{"osm_id":"1659684718","tag":{"amenity":"waste_basket"}},"type":"Feature"},
	{"geometry":{"coordinates":[8.55469,51.98661],"type":"Point"},"properties":{"osm_id":"1659684781","tag":{"amenity":"waste_basket"}},"type":"Feature"},
	{"geometry":{"coordinates":[8.546687,51.993031],"type":"Point"},"properties":{"osm_id":"1736342209","tag":{"amenity":"recycling","recycling:clothes":"yes","recycling:glass_bottles":"yes","recycling_type":"container"}},"type":"Feature"},
	{"geometry":{"coordinates":[8.525965,51.952986],"type":"Point"},"properties":{"osm_id":"1757100100","tag":{"amenity":"recycling","recycling:glass_bottles":"yes","recycling_type":"container"}},"type":"Feature"},
	{"geometry":{"coordinates":[8.57511,51.997365],"type":"Point"},"properties":{"osm_id":"1790766249","tag":{"amenity":"waste_basket"}},"type":"Feature"},
	{"geometry":{"coordinates":[8.575234,51.997432],"type":"Point"},"properties":{"osm_id":"1790766253","tag":{"amenity":"waste_basket"}},"type":"Feature"},
	{"geometry":{"coordinates":[8.575041,51.997691],"type":"Point"},"properties":{"osm_id":"1790766254","tag":{"amenity":"waste_basket"}},"type":"Feature"},
	{"geometry":{"coordinates":[8.574768,51.997858],"type":"Point"},"properties":{"osm_id":"1797005524","tag":{"amenity":"waste_basket"}},"type":"Feature"},
	{"geometry":{"coordinates":[8.575726,51.997217],"type":"Point"},"properties":{"osm_id":"1797005644","tag":{"amenity":"waste_basket"}},"type":"Feature"},
	{"geometry":{"coordinates":[8.58158,51.957515],"type":"Point"},"properties":{"osm_id":"1811905948","tag":{"amenity":"recycling","recycling:glass_bottles":"yes","recycling_type":"container"}},"type":"Feature"},
	{"geometry":{"coordinates":[8.596177,51.954223],"type":"Point"},"properties":{"osm_id":"2348404642","tag":{"amenity":"waste_basket"}},"type":"Feature"},
	{"geometry":{"coordinates":[8.59347,51.95475],"type":"Point"},"properties":{"osm_id":"2348404646","tag":{"amenity":"waste_basket"}},"type":"Feature"},
	{"geometry":{"coordinates":[8.547161,51.994807],"type":"Point"},"properties":{"osm_id":"2348404730","tag":{"amenity":"waste_basket"}},"type":"Feature"},
	{"geometry":{"coordinates":[8.594909,51.96412],"type":"Point"},"properties":{"osm_id":"2482083459","tag":{"amenity":"waste_basket"}},"type":"Feature"},
	{"geometry":{"coordinates":[8.59581,51.964359],"type":"Point"},"properties":{"osm_id":"2482083460","tag":{"amenity":"waste_basket"}},"type":"Feature"},
	{"geometry":{"coordinates":[8.526211,51.988135],"type":"Point"},"properties":{"osm_id":"2675267446","tag":{"amenity":"waste_basket"}},"type":"Feature"},
	{"geometry":{"coordinates":[8.529174,51.991008],"type":"Point"},"properties":{"osm_id":"2675267470","tag":{"amenity":"waste_basket"}},"type":"Feature"},
	{"geometry":{"coordinates":[8.535064,51.99242],"type":"Point"},"properties":{"osm_id":"2675267473","tag":{"amenity":"waste_basket"}},"type":"Feature"},
	{"geometry":{"coordinates":[8.529872,51.985228],"type":"Point"},"properties":{"osm_id":"2686935809","tag":{"amenity":"waste_basket"}},"type":"Feature"},
	{"geometry":{"coordinates":[8.529956,51.985309],"type":"Point"},"properties":{"osm_id":"2686935816","tag":{"amenity":"waste_basket"}},"type":"Feature"},
	{"geometry":{"coordinates":[8.589826,51.947946],"type":"Point"},"properties":{"osm_id":"2698312244","tag":{"amenity":"recycling","recycling:clothes":"yes","recycling:glass_bottles":"yes","recycling:paper":"no","recycling:shoes":"yes","recycling_type":"container"}},"type":"Feature"},
	{"geometry":{"coordinates":[8.592922,51.949654],"type":"Point"},"properties":{"osm_id":"2698312931","tag":{"amenity":"waste_basket"}},"type":"Feature"},
	{"geometry":{"coordinates":[8.59419,51.950323],"type":"Point"},"properties":{"osm_id":"2698312948","tag":{"amenity":"recycling","recycling:clothes":"yes","recycling:shoes":"yes","recycling_type":"container"}},"type":"Feature"},
	{"geometry":{"coordinates":[8.58154,51.945701],"type":"Point"},"properties":{"osm_id":"2699682054","tag":{"amenity":"recycling","recycling:clothes":"yes","recycling_type":"container"}},"type":"Feature"},
	{"geometry":{"coordinates":[8.592449,51.953174],"type":"Point"},"properties":{"osm_id":"2701205530","tag":{"amenity":"recycling","recycling:clothes":"yes","recycling:glass_bottles":"yes","recycling_type":"container"}},"type":"Feature"},
	{"geometry":{"coordinates":[8.587427,51.955122],"type":"Point"},"properties":{"osm_id":"2701205531","tag":{"amenity":"recycling","recycling:glass_bottles":"yes","recycling_type":"container"}},"type":"Feature"},
	{"geometry":{"coordinates":[8.594205,51.947797],"type":"Point"},"properties":{"osm_id":"2701711346","tag":{"amenity":"recycling","recycling:clothes":"yes","recycling_type":"container"}},"type":"Feature"},
	{"geometry":{"coordinates":[8.599755,51.951161],"type":"Point"},"properties":{"osm_id":"2701711414","tag":{"amenity":"recycling","recycling:clothes":"yes"}},"type":"Feature"},
	{"geometry":{"coordinates":[8.605702,51.95277],"type":"Point"},"properties":{"osm_id":"2701711469","tag":{"amenity":"recycling","recycling:clothes":"yes"}},"type":"Feature"},
	{"geometry":{"coordinates":[8.603678,51.95303],"type":"Point"},"properties":{"osm_id":"2701711498","tag":{"amenity":"recycling","recycling:clothes":"yes","recycling_type":"container"}},"type":"Feature"},
	{"geometry":{"coordinates":[8.585755,51.944708],"type":"Point"},"properties":{"osm_id":"2702675628","tag":{"amenity":"recycling","recycling:clothes":"yes","recycling:glass_bottles":"yes","recycling:shoes":"yes","recycling_type":"container"}},"type":"Feature"},
	{"geometry":{"coordinates":[8.578796,51.949528],"type":"Point"},"properties":{"osm_id":"2706053985","tag":{"amenity":"recycling","recycling:clothes":"yes","recycling_type":"container"}},"type":"Feature"},
	{"geometry":{"coordinates":[8.579628,51.950416],"type":"Point"},"properties":{"osm_id":"2706053990","tag":{"amenity":"recycling","recycling:clothes":"yes"}},"type":"Feature"},
	{"geometry":{"coordinates":[8.584721,51.951664],"type":"Point"},"properties":{"osm_id":"2706054002","tag":{"amenity":"recycling","operator":"Kolping Recycling GmbH","phone":"+49-661-5006895","recycling:shoes":"yes"}},"type":"Feature"},
	{"geometry":{"coordinates":[8.580188,51.953149],"type":"Point"},"properties":{"osm_id":"2706054037","tag":{"amenity":"recycling","recycling:clothes":"yes"}},"type":"Feature"},
	{"geometry":{"coordinates":[8.584154,51.953631],"type":"Point"},"properties":{"osm_id":"2706054041","tag":{"amenity":"recycling","recycling:clothes":"yes"}},"type":"Feature"},
	{"geometry":{"coordinates":[8.542435,51.970967],"type":"Point"},"properties":{"osm_id":"2713233335","tag":{"amenity":"recycling","recycling:clothes":"yes","recycling:glass_bottles":"yes","recycling_type":"container"}},"type":"Feature"},
	{"geometry":{"coordinates":[8.610153,51.973153],"type":"Point"},"properties":{"osm_id":"2752633695","tag":{"amenity":"waste_basket"}},"type":"Feature"},
	{"geometry":{"coordinates":[8.608661,51.97321],"type":"Point"},"properties":{"osm_id":"2752633704","tag":{"amenity":"waste_basket"}},"type":"Feature"},
	{"geometry":{"coordinates":[8.601178,51.975463],"type":"Point"},"properties":{"osm_id":"2752633712","tag":{"amenity":"waste_basket"}},"type":"Feature"},
	{"geometry":{"coordinates":[8.582928,51.979],"type":"Point"},"properties":{"osm_id":"2752633720","tag":{"amenity":"waste_basket"}},"type":"Feature"},
	{"geometry":{"coordinates":[8.556418,51.971732],"type":"Point"},"properties":{"osm_id":"2912512693","tag":{"amenity":"waste_basket"}},"type":"Feature"},
	{"geometry":{"coordinates":[8.556025,51.971831],"type":"Point"},"properties":{"osm_id":"2912512694","tag":{"amenity":"waste_basket"}},"type":"Feature"},
	{"geometry":{"coordinates":[8.596459,51.94719],"type":"Point"},"properties":{"osm_id":"2996809343","tag":{"amenity":"waste_basket"}},"type":"Feature"},
	{"geometry":{"coordinates":[8.568614,51.967249],"type":"Point"},"properties":{"osm_id":"3519800912","tag":{"amenity":"recycling","recycling:glass_bottles":"yes","recycling_type":"container"}},"type":"Feature"},
	{"geometry":{"coordinates":[8.56988,51.972403],"type":"Point"},"properties":{"osm_id":"3688464165","tag":{"amenity":"waste_basket"}},"type":"Feature"},
	{"geometry":{"coordinates":[8.528915,51.96079],"type":"Point"},"properties":{"osm_id":"3741954930","tag":{"amenity":"waste_basket"}},"type":"Feature"},
	{"geometry":{"coordinates":[8.528448,51.961424],"type":"Point"},"properties":{"osm_id":"3741954931","tag":{"amenity":"waste_basket"}},"type":"Feature"},
	{"geometry":{"coordinates":[8.540482,51.96277],"type":"Point"},"properties":{"osm_id":"3741954965","tag":{"amenity":"waste_basket"}},"type":"Feature"},
	{"geometry":{"coordinates":[8.5505,51.966984],"type":"Point"},"properties":{"osm_id":"3741954972","tag":{"amenity":"waste_basket"}},"type":"Feature"},
	{"geometry":{"coordinates":[8.550241,51.967229],"type":"Point"},"properties":{"osm_id":"3741954974","tag":{"amenity":"waste_basket"}},"type":"Feature"},
	{"geometry":{"coordinates":[8.534647,51.967375],"type":"Point"},"properties":{"osm_id":"3741954975","tag":{"amenity":"waste_basket"}},"type":"Feature"},
	{"geometry":{"coordinates":[8.535238,51.968364],"type":"Point"},"properties":{"osm_id":"3741954977","tag":{"amenity":"waste_basket"}},"type":"Feature"},
	{"geometry":{"coordinates":[8.53634,51.970219],"type":"Point"},"properties":{"osm_id":"3741954985","tag":{"amenity":"waste_basket"}},"type":"Feature"},
	{"geometry":{"coordinates":[8.536337,51.970992],"type":"Point"},"properties":{"osm_id":"3741954992","tag":{"amenity":"waste_basket"}},"type":"Feature"},
	{"geometry":{"coordinates":[8.536358,51.971066],"type":"Point"},"properties":{"osm_id":"3741954996","tag":{"amenity":"waste_basket"}},"type":"Feature"},
	{"geometry":{"coordinates":[8.54628,51.962958],"type":"Point"},"properties":{"osm_id":"3742748191","tag":{"amenity":"waste_basket"}},"type":"Feature"},
	{"geometry":{"coordinates":[8.5839,51.945083],"type":"Point"},"properties":{"osm_id":"3761815368","tag":{"amenity":"waste_basket"}},"type":"Feature"},
	{"geometry":{"coordinates":[8.585878,51.945174],"type":"Point"},"properties":{"osm_id":"3761815371","tag":{"amenity":"waste_basket"}},"type":"Feature"},
	{"geometry":{"coordinates":[8.583948,51.945241],"type":"Point"},"properties":{"osm_id":"3761815378","tag":{"amenity":"waste_basket"}},"type":"Feature"},
	{"geometry":{"coordinates":[8.585666,51.945296],"type":"Point"},"properties":{"osm_id":"3761815383","tag":{"amenity":"waste_basket"}},"type":"Feature"},
	{"geometry":{"coordinates":[8.583601,51.94545],"type":"Point"},"properties":{"osm_id":"3761815395","tag":{"amenity":"waste_basket"}},"type":"Feature"},
	{"geometry":{"coordinates":[8.583672,51.946029],"type":"Point"},"properties":{"osm_id":"3761815410","tag":{"amenity":"waste_basket"}},"type":"Feature"},
	{"geometry":{"coordinates":[8.584403,51.947121],"type":"Point"},"properties":{"osm_id":"3761815423","tag":{"amenity":"waste_basket"}},"type":"Feature"},
	{"geometry":{"coordinates":[8.585616,51.947694],"type":"Point"},"properties":{"osm_id":"3761815428","tag":{"amenity":"waste_basket"}},"type":"Feature"},
	{"geometry":{"coordinates":[8.585316,51.948113],"type":"Point"},"properties":{"osm_id":"3761815432","tag":{"amenity":"waste_basket"}},"type":"Feature"},
	{"geometry":{"coordinates":[8.588642,51.950071],"type":"Point"},"properties":{"osm_id":"3761815439","tag":{"amenity":"waste_basket"}},"type":"Feature"},
	{"geometry":{"coordinates":[8.590135,51.950708],"type":"Point"},"properties":{"osm_id":"3761815443","tag":{"amenity":"waste_basket"}},"type":"Feature"},
	{"geometry":{"coordinates":[8.591064,51.952562],"type":"Point"},"properties":{"osm_id":"3761815447","tag":{"amenity":"waste_basket"}},"type":"Feature"},
	{"geometry":{"coordinates":[8.590644,51.952619],"type":"Point"},"properties":{"osm_id":"3761815449","tag":{"amenity":"waste_basket"}},"type":"Feature"},
	{"geometry":{"coordinates":[8.599129,51.952838],"type":"Point"},"properties":{"osm_id":"3761815562","tag":{"amenity":"waste_basket"}},"type":"Feature"},
	{"geometry":{"coordinates":[8.590665,51.953201],"type":"Point"},"properties":{"osm_id":"3761815578","tag":{"amenity":"waste_basket"}},"type":"Feature"},
	{"geometry":{"coordinates":[8.58949,51.953681],"type":"Point"},"properties":{"osm_id":"3761815588","tag":{"amenity":"waste_basket"}},"type":"Feature"},
	{"geometry":{"coordinates":[8.594135,51.954121],"type":"Point"},"properties":{"osm_id":"3761815598","tag":{"amenity":"waste_basket"}},"type":"Feature"},
	{"geometry":{"coordinates":[8.59108,51.954429],"type":"Point"},"properties":{"osm_id":"3761815603","tag":{"amenity":"waste_basket"}},"type":"Feature"},
	{"geometry":{"coordinates":[8.590872,51.954432],"type":"Point"},"properties":{"osm_id":"3761815604","tag":{"amenity":"waste_basket"}},"type":"Feature"},
	{"geometry":{"coordinates":[8.591169,51.954688],"type":"Point"},"properties":{"osm_id":"3761815612","tag":{"amenity":"waste_basket"}},"type":"Feature"},
	{"geometry":{"coordinates":[8.591427,51.954779],"type":"Point"},"properties":{"osm_id":"3761815618","tag":{"amenity":"waste_basket"}},"type":"Feature"},
	{"geometry":{"coordinates":[8.59232,51.955073],"type":"Point"},"properties":{"osm_id":"3761815635","tag":{"amenity":"waste_basket"}},"type":"Feature"},
	{"geometry":{"coordinates":[8.569319,51.972583],"type":"Point"},"properties":{"osm_id":"4016442062","tag":{"amenity":"waste_basket"}},"type":"Feature"},
	{"geometry":{"coordinates":[8.5693,51.950911],"type":"Point"},"properties":{"osm_id":"4205353419","tag":{"amenity":"recycling","recycling:clothes":"yes","recycling:glass_bottles":"yes","recycling_type":"container"}},"type":"Feature"},
	{"geometry":{"coordinates":[8.558138,51.946069],"type":"Point"},"properties":{"osm_id":"5166683437","tag":{"amenity":"waste_basket"}},"type":"Feature"},
	{"geometry":{"coordinates":[8.55759,51.946985],"type":"Point"},"properties":{"osm_id":"5166683781","tag":{"amenity":"waste_basket"}},"type":"Feature"},
	{"geometry":{"coordinates":[8.594084,51.981873],"type":"Point"},"properties":{"osm_id":"6447651246","tag":{"amenity":"recycling","image":"File:EBC4B669-FA4A-F7F4-FEBC-8075B0926481.jpg","recycling:garden_waste":"yes","recycling:green_waste":"yes","recycling:organic":"yes","recycling_type":"container"}},"type":"Feature"},
	{"geometry":{"coordinates":[8.599187,51.957069],"type":"Point"},"properties":{"osm_id":"6621336599","tag":{"amenity":"waste_basket"}},"type":"Feature"},
	{"geometry":{"coordinates":[8.604109,51.965135],"type":"Point"},"properties":{"osm_id":"6621336609","tag":{"amenity":"waste_basket"}},"type":"Feature"},
	{"geometry":{"coordinates":[8.54581,51.992595],"type":"Point"},"properties":{"osm_id":"6643308673","tag":{"access":"private","amenity":"waste_disposal"}},"type":"Feature"},
	{"geometry":{"coordinates":[8.596454,51.953624],"type":"Point"},"properties":{"osm_id":"6647939370","tag":{"amenity":"waste_basket"}},"type":"Feature"},
	{"geometry":{"coordinates":[8.594545,51.953596],"type":"Point"},"properties":{"osm_id":"6647939373","tag":{"amenity":"waste_basket"}},"type":"Feature"},
	{"geometry":{"coordinates":[8.583764,51.946563],"type":"Point"},"properties":{"osm_id":"6694985351","tag":{"amenity":"waste_basket"}},"type":"Feature"},
	{"geometry":{"coordinates":[8.584204,51.947115],"type":"Point"},"properties":{"osm_id":"6694985354","tag":{"amenity":"waste_basket"}},"type":"Feature"},
	{"geometry":{"coordinates":[8.585146,51.948526],"type":"Point"},"properties":{"osm_id":"6694985361","tag":{"amenity":"waste_basket"}},"type":"Feature"},
	{"geometry":{"coordinates":[8.587303,51.949669],"type":"Point"},"properties":{"osm_id":"6694985379","tag":{"amenity":"waste_basket"}},"type":"Feature"},
	{"geometry":{"coordinates":[8.588457,51.949429],"type":"Point"},"properties":{"osm_id":"6694985382","tag":{"amenity":"waste_basket"}},"type":"Feature"},
	{"geometry":{"coordinates":[8.589243,51.946687],"type":"Point"},"properties":{"osm_id":"6695094488","tag":{"amenity":"waste_basket"}},"type":"Feature"},
	{"geometry":{"coordinates":[8.583476,51.947046],"type":"Point"},"properties":{"osm_id":"6695094489","tag":{"amenity":"waste_basket"}},"type":"Feature"},
	{"geometry":{"coordinates":[8.590666,51.946792],"type":"Point"},"properties":{"osm_id":"6695094516","tag":{"amenity":"waste_basket"}},"type":"Feature"},
	{"geometry":{"coordinates":[8.587801,51.946299],"type":"Point"},"properties":{"osm_id":"6695094532","tag":{"amenity":"waste_basket"}},"type":"Feature"},
	{"geometry":{"coordinates":[8.587763,51.945709],"type":"Point"},"properties":{"osm_id":"6695094533","tag":{"amenity":"waste_basket"}},"type":"Feature"},
	{"geometry":{"coordinates":[8.587118,51.946078],"type":"Point"},"properties":{"osm_id":"6695094537","tag":{"amenity":"waste_basket"}},"type":"Feature"},
	{"geometry":{"coordinates":[8.526364,51.98343],"type":"Point"},"properties":{"osm_id":"7636386693","tag":{"amenity":"waste_basket"}},"type":"Feature"}
]
}
