{
"type": "FeatureCollection",
"features": [
	{"geometry":{"coordinates":[8.586648,51.939532],"type":"Point"},"properties":{"osm_id":"288537538","tag":{"amenity":"recycling","recycling:glass_bottles":"yes","recycling:shoes":"yes","recycling_type":"container"}},"type":"Feature"},
	{"geometry":{"coordinates":[8.577796,51.93772],"type":"Point"},"properties":{"osm_id":"289045531","tag":{"amenity":"recycling","recycling:clothes":"yes","recycling:shoes":"yes"}},"type":"Feature"},
	{"geometry":{"coordinates":[8.599733,51.929496],"type":"Point"},"properties":{"osm_id":"473398706","tag":{"amenity":"recycling","recycling:clothes":"yes","recycling:glass_bottles":"yes","recycling_type":"container"}},"type":"Feature"},
	{"geometry":{"coordinates":[8.606688,51.916413],"type":"Point"},"properties":{"osm_id":"773603604","tag":{"amenity":"recycling","recycling:glass_bottles":"yes","recycling_type":"container"}},"type":"Feature"},
	{"geometry":{"coordinates":[8.544214,51.934163],"type":"Point"},"properties":{"osm_id":"2026405916","tag":{"amenity":"waste_basket"}},"type":"Feature"},
	{"geometry":{"coordinates":[8.566063,51.93911],"type":"Point"},"properties":{"osm_id":"2026405994","tag":{"amenity":"recycling","recycling:glass_bottles":"yes","recycling_type":"container"}},"type":"Feature"},
	{"geometry":{"coordinates":[8.610658,51.943291],"type":"Point"},"properties":{"osm_id":"2348404634","tag":{"amenity":"waste_basket"}},"type":"Feature"},
	{"geometry":{"coordinates":[8.550134,51.916474],"type":"Point"},"properties":{"osm_id":"2920509731","tag":{"amenity":"recycling"}},"type":"Feature"},
	{"geometry":{"coordinates":[8.597617,51.925932],"type":"Point"},"properties":{"osm_id":"2938054341","tag":{"amenity":"waste_basket"}},"type":"Feature"},
	{"geometry":{"coordinates":[8.596668,51.926748],"type":"Point"},"properties":{"osm_id":"2938054344","tag":{"amenity":"waste_basket"}},"type":"Feature"},
	{"geometry":{"coordinates":[8.564876,51.934497],"type":"Point"},"properties":{"osm_id":"2938054348","tag":{"amenity":"recycling","mapillary":"MeYUYU2-xQnOg3A9Itw8Iw","recycling:glass_bottles":"yes","recycling_type":"container","survey:date":"2019-03-27"}},"type":"Feature"},
	{"geometry":{"coordinates":[8.564917,51.934659],"type":"Point"},"properties":{"osm_id":"2938054350","tag":{"amenity":"waste_basket"}},"type":"Feature"},
	{"geometry":{"coordinates":[8.57748,51.940729],"type":"Point"},"properties":{"osm_id":"4412993964","tag":{"amenity":"waste_basket"}},"type":"Feature"},
	{"geometry":{"coordinates":[8.576261,51.941194],"type":"Point"},"properties":{"osm_id":"4412994305","tag":{"amenity":"waste_basket"}},"type":"Feature"},
	{"geometry":{"coordinates":[8.60826,51.904909],"type":"Point"},"properties":{"osm_id":"6707485026","tag":{"amenity":"recycling","opening_hours":"24/7","recycling:cans":"no","recycling:electrical_appliances":"yes","recycling:glass":"yes","recycling_type":"container"}},"type":"Feature"},
	{"geometry":{"coordinates":[8.583625,51.917779],"type":"Point"},"properties":{"osm_id":"7392300937","tag":{"amenity":"waste_basket"}},"type":"Feature"},
	{"geometry":{"coordinates":[8.608135,51.90265],"type":"Point"},"properties":{"osm_id":"7617539265","tag":{"amenity":"waste_basket"}},"type":"Feature"}
]
}
