{
"type": "FeatureCollection",
"features": [
	{"geometry":{"coordinates":[8.557837,51.769609],"type":"Point"},"properties":{"osm_id":"270208456","tag":{"amenity":"recycling","recycling:clothes":"yes","recycling:glass_bottles":"yes","recycling_type":"container"}},"type":"Feature"},
	{"geometry":{"coordinates":[8.554772,51.764993],"type":"Point"},"properties":{"osm_id":"270208858","tag":{"amenity":"recycling"}},"type":"Feature"},
	{"geometry":{"coordinates":[8.561573,51.727521],"type":"Point"},"properties":{"osm_id":"415980589","tag":{"amenity":"recycling","recycling:clothes":"yes","recycling:glass_bottles":"yes","recycling_type":"container"}},"type":"Feature"},
	{"geometry":{"coordinates":[8.597494,51.749855],"type":"Point"},"properties":{"osm_id":"494979407","tag":{"amenity":"recycling","recycling:clothes":"yes","recycling:glass_bottles":"yes","recycling_type":"container"}},"type":"Feature"},
	{"geometry":{"coordinates":[8.562026,51.771388],"type":"Point"},"properties":{"osm_id":"1174984127","tag":{"amenity":"recycling","recycling:glass_bottles":"yes","recycling_type":"container"}},"type":"Feature"},
	{"geometry":{"coordinates":[8.568058,51.732831],"type":"Point"},"properties":{"osm_id":"1294886109","tag":{"amenity":"waste_basket"}},"type":"Feature"},
	{"geometry":{"coordinates":[8.56612,51.770418],"type":"Point"},"properties":{"osm_id":"1320987593","tag":{"amenity":"waste_basket"}},"type":"Feature"},
	{"geometry":{"coordinates":[8.586589,51.76742],"type":"Point"},"properties":{"osm_id":"1320987598","tag":{"amenity":"waste_basket"}},"type":"Feature"},
	{"geometry":{"coordinates":[8.562136,51.727041],"type":"Point"},"properties":{"osm_id":"1449765396","tag":{"amenity":"waste_basket"}},"type":"Feature"},
	{"geometry":{"coordinates":[8.550334,51.753708],"type":"Point"},"properties":{"name":"Gr\u00c3\u00bcnsammelplatz","osm_id":"1762294177","tag":{"amenity":"recycling","recycling:green_waste":"yes","recycling_type":"centre"}},"type":"Feature"},
	{"geometry":{"coordinates":[8.56443,51.763085],"type":"Point"},"properties":{"osm_id":"1939836045","tag":{"amenity":"recycling","recycling:clothes":"yes","recycling:glass_bottles":"yes","recycling_type":"container"}},"type":"Feature"},
	{"geometry":{"coordinates":[8.563102,51.757421],"type":"Point"},"properties":{"osm_id":"2165444695","tag":{"amenity":"recycling","recycling:clothes":"yes","recycling_type":"container"}},"type":"Feature"},
	{"geometry":{"coordinates":[8.602796,51.746077],"type":"Point"},"properties":{"osm_id":"3276748185","tag":{"amenity":"waste_basket"}},"type":"Feature"},
	{"geometry":{"coordinates":[8.583552,51.764937],"type":"Point"},"properties":{"osm_id":"3623916390","tag":{"amenity":"waste_basket"}},"type":"Feature"},
	{"geometry":{"coordinates":[8.572092,51.767398],"type":"Point"},"properties":{"osm_id":"3659486759","tag":{"amenity":"waste_basket"}},"type":"Feature"},
	{"geometry":{"coordinates":[8.558596,51.763086],"type":"Point"},"properties":{"osm_id":"3659514749","tag":{"amenity":"waste_basket"}},"type":"Feature"},
	{"geometry":{"coordinates":[8.584685,51.746197],"type":"Point"},"properties":{"osm_id":"3659565945","tag":{"amenity":"waste_basket"}},"type":"Feature"},
	{"geometry":{"coordinates":[8.568113,51.765107],"type":"Point"},"properties":{"osm_id":"3681895161","tag":{"amenity":"recycling","recycling:clothes":"yes","recycling:glass_bottles":"yes","recycling_type":"container"}},"type":"Feature"},
	{"geometry":{"coordinates":[8.583489,51.770687],"type":"Point"},"properties":{"osm_id":"3681895176","tag":{"amenity":"recycling","recycling:clothes":"yes","recycling_type":"container"}},"type":"Feature"},
	{"geometry":{"coordinates":[8.567073,51.729667],"type":"Point"},"properties":{"osm_id":"3688053001","tag":{"amenity":"waste_basket"}},"type":"Feature"},
	{"geometry":{"coordinates":[8.566108,51.730193],"type":"Point"},"properties":{"osm_id":"3688055341","tag":{"amenity":"waste_basket"}},"type":"Feature"},
	{"geometry":{"coordinates":[8.570359,51.728949],"type":"Point"},"properties":{"osm_id":"3688133993","tag":{"amenity":"waste_basket"}},"type":"Feature"},
	{"geometry":{"coordinates":[8.563772,51.762274],"type":"Point"},"properties":{"osm_id":"4819471430","tag":{"amenity":"waste_basket"}},"type":"Feature"},
	{"geometry":{"coordinates":[8.552918,51.748771],"type":"Point"},"properties":{"osm_id":"6207002371","tag":{"amenity":"waste_basket"}},"type":"Feature"},
	{"geometry":{"coordinates":[8.552914,51.764503],"type":"Point"},"properties":{"osm_id":"6477606372","tag":{"amenity":"waste_basket"}},"type":"Feature"},
	{"geometry":{"coordinates":[8.553926,51.760247],"type":"Point"},"properties":{"osm_id":"6477607087","tag":{"amenity":"recycling","recycling:clothes":"yes","recycling:glass":"yes","recycling_type":"container"}},"type":"Feature"},
	{"geometry":{"coordinates":[8.553986,51.770277],"type":"Point"},"properties":{"osm_id":"6477680512","tag":{"amenity":"waste_basket"}},"type":"Feature"},
	{"geometry":{"coordinates":[8.562571,51.768328],"type":"Point"},"properties":{"osm_id":"6477698900","tag":{"amenity":"waste_basket"}},"type":"Feature"},
	{"geometry":{"coordinates":[8.562636,51.767932],"type":"Point"},"properties":{"osm_id":"6477698901","tag":{"amenity":"waste_basket"}},"type":"Feature"},
	{"geometry":{"coordinates":[8.561925,51.768072],"type":"Point"},"properties":{"osm_id":"6477698902","tag":{"amenity":"waste_basket"}},"type":"Feature"},
	{"geometry":{"coordinates":[8.567512,51.76286],"type":"Point"},"properties":{"osm_id":"6478086187","tag":{"amenity":"waste_basket"}},"type":"Feature"},
	{"geometry":{"coordinates":[8.591907,51.744841],"type":"Point"},"properties":{"osm_id":"6943850727","tag":{"amenity":"waste_basket"}},"type":"Feature"},
	{"geometry":{"coordinates":[8.565857,51.758248],"type":"Point"},"properties":{"osm_id":"6944569958","tag":{"amenity":"waste_basket"}},"type":"Feature"},
	{"geometry":{"coordinates":[8.549594,51.767003],"type":"Point"},"properties":{"osm_id":"7286256304","tag":{"amenity":"waste_basket"}},"type":"Feature"},
	{"geometry":{"coordinates":[8.593002,51.737777],"type":"Point"},"properties":{"osm_id":"7398401232","tag":{"amenity":"waste_basket"}},"type":"Feature"},
	{"geometry":{"coordinates":[8.554323,51.748552],"type":"Point"},"properties":{"osm_id":"7456113200","tag":{"amenity":"waste_basket","waste":"trash"}},"type":"Feature"},
	{"geometry":{"coordinates":[8.55697,51.766503],"type":"Point"},"properties":{"osm_id":"7764763436","tag":{"amenity":"waste_basket"}},"type":"Feature"},
	{"geometry":{"coordinates":[8.593187,51.738088],"type":"Point"},"properties":{"osm_id":"7888214074","tag":{"amenity":"waste_basket"}},"type":"Feature"},
	{"geometry":{"coordinates":[8.562117,51.755948],"type":"Point"},"properties":{"osm_id":"7890121186","tag":{"amenity":"recycling","recycling:glass":"yes","recycling_type":"container"}},"type":"Feature"},
	{"geometry":{"coordinates":[8.548474,51.763255],"type":"Point"},"properties":{"osm_id":"7895116069","tag":{"amenity":"waste_basket"}},"type":"Feature"},
	{"geometry":{"coordinates":[8.567749,51.730774],"type":"Point"},"properties":{"osm_id":"7899973020","tag":{"amenity":"waste_basket"}},"type":"Feature"}
]
}
