{
"type": "FeatureCollection",
"features": [
	{"geometry":{"coordinates":[8.600822,50.098957],"type":"Point"},"properties":{"osm_id":"384758823","tag":{"amenity":"recycling"}},"type":"Feature"},
	{"geometry":{"coordinates":[8.528852,50.107628],"type":"Point"},"properties":{"osm_id":"418164063","tag":{"amenity":"recycling","location":"overground","recycling:glass_bottles":"yes","recycling_type":"container"}},"type":"Feature"},
	{"geometry":{"coordinates":[8.605315,50.118887],"type":"Point"},"properties":{"osm_id":"445075286","tag":{"amenity":"recycling","recycling:clothes":"yes","recycling:glass_bottles":"yes"}},"type":"Feature"},
	{"geometry":{"coordinates":[8.599085,50.118517],"type":"Point"},"properties":{"osm_id":"455681022","tag":{"amenity":"recycling","recycling:glass_bottles":"yes"}},"type":"Feature"},
	{"geometry":{"coordinates":[8.558731,50.11789],"type":"Point"},"properties":{"osm_id":"476678017","tag":{"amenity":"recycling","recycling:glass_bottles":"yes","recycling_type":"container"}},"type":"Feature"},
	{"geometry":{"coordinates":[8.57124,50.098844],"type":"Point"},"properties":{"osm_id":"610302811","tag":{"amenity":"recycling","location":"overground","recycling:glass_bottles":"yes","recycling_type":"container"}},"type":"Feature"},
	{"geometry":{"coordinates":[8.572592,50.09995],"type":"Point"},"properties":{"osm_id":"620045813","tag":{"amenity":"recycling","recycling:glass_bottles":"yes","recycling_type":"container"}},"type":"Feature"},
	{"geometry":{"coordinates":[8.603785,50.118234],"type":"Point"},"properties":{"osm_id":"629147915","tag":{"amenity":"waste_basket"}},"type":"Feature"},
	{"geometry":{"coordinates":[8.573245,50.084993],"type":"Point"},"properties":{"osm_id":"685428188","tag":{"amenity":"recycling","location":"underground","mapillary":"DOefRG58z1Lt7bPTLeRfag","recycling:glass":"yes","recycling_type":"container","survey:date":"2019-02-26"}},"type":"Feature"},
	{"geometry":{"coordinates":[8.570273,50.087128],"type":"Point"},"properties":{"osm_id":"685428194","tag":{"amenity":"recycling","location":"overground","recycling:glass_bottles":"yes","recycling_type":"container"}},"type":"Feature"},
	{"geometry":{"coordinates":[8.591764,50.098788],"type":"Point"},"properties":{"osm_id":"902578716","tag":{"amenity":"recycling","recycling:clothes":"yes","recycling:glass_bottles":"yes","recycling_type":"container"}},"type":"Feature"},
	{"geometry":{"coordinates":[8.598569,50.111057],"type":"Point"},"properties":{"osm_id":"903780777","tag":{"amenity":"recycling","location":"overground","recycling_type":"container"}},"type":"Feature"},
	{"geometry":{"coordinates":[8.601838,50.105722],"type":"Point"},"properties":{"osm_id":"904872728","tag":{"amenity":"recycling","location":"overground","recycling:glass_bottles":"yes","recycling_type":"container"}},"type":"Feature"},
	{"geometry":{"coordinates":[8.597576,50.096456],"type":"Point"},"properties":{"osm_id":"1301675853","tag":{"amenity":"recycling","location":"overground","recycling_type":"container"}},"type":"Feature"},
	{"geometry":{"coordinates":[8.543216,50.065156],"type":"Point"},"properties":{"osm_id":"1589772691","tag":{"amenity":"recycling","recycling:clothes":"yes","recycling:glass":"yes","recycling_type":"container"}},"type":"Feature"},
	{"geometry":{"coordinates":[8.589894,50.099956],"type":"Point"},"properties":{"osm_id":"1600096217","tag":{"amenity":"recycling","recycling:clothes":"yes","recycling_type":"container"}},"type":"Feature"},
	{"geometry":{"coordinates":[8.573713,50.101865],"type":"Point"},"properties":{"osm_id":"1735533558","tag":{"amenity":"recycling","recycling:clothes":"yes","recycling:glass_bottles":"yes","recycling_type":"container"}},"type":"Feature"},
	{"geometry":{"coordinates":[8.576528,50.101698],"type":"Point"},"properties":{"osm_id":"1758389108","tag":{"amenity":"recycling","recycling:clothes":"yes","recycling:glass_bottles":"yes","recycling_type":"container"}},"type":"Feature"},
	{"geometry":{"coordinates":[8.570418,50.10284],"type":"Point"},"properties":{"osm_id":"1798262342","tag":{"amenity":"recycling","recycling:glass_bottles":"yes","recycling_type":"container"}},"type":"Feature"},
	{"geometry":{"coordinates":[8.538148,50.108313],"type":"Point"},"properties":{"osm_id":"2015658858","tag":{"amenity":"recycling","recycling:glass_bottles":"yes","recycling_type":"container"}},"type":"Feature"},
	{"geometry":{"coordinates":[8.53881,50.066077],"type":"Point"},"properties":{"osm_id":"2085734171","tag":{"amenity":"recycling","recycling:glass":"yes","recycling_type":"container"}},"type":"Feature"},
	{"geometry":{"coordinates":[8.52699,50.064382],"type":"Point"},"properties":{"osm_id":"2090236599","tag":{"amenity":"waste_basket"}},"type":"Feature"},
	{"geometry":{"coordinates":[8.527629,50.065013],"type":"Point"},"properties":{"osm_id":"2090236601","tag":{"amenity":"waste_basket"}},"type":"Feature"},
	{"geometry":{"coordinates":[8.52745,50.06981],"type":"Point"},"properties":{"osm_id":"2090236602","tag":{"amenity":"recycling","recycling:clothes":"yes","recycling:glass":"yes","recycling_type":"container"}},"type":"Feature"},
	{"geometry":{"coordinates":[8.529685,50.064825],"type":"Point"},"properties":{"osm_id":"2091244660","tag":{"amenity":"recycling","recycling:clothes":"yes","recycling:glass":"yes","recycling_type":"container"}},"type":"Feature"},
	{"geometry":{"coordinates":[8.579738,50.105865],"type":"Point"},"properties":{"osm_id":"2565195945","tag":{"amenity":"recycling","location":"overground","recycling:glass_bottles":"yes","recycling_type":"container"}},"type":"Feature"},
	{"geometry":{"coordinates":[8.581399,50.107744],"type":"Point"},"properties":{"osm_id":"2568616181","tag":{"amenity":"recycling","location":"overground","recycling:glass_bottles":"yes","recycling_type":"container"}},"type":"Feature"},
	{"geometry":{"coordinates":[8.58737,50.108206],"type":"Point"},"properties":{"osm_id":"2568616182","tag":{"amenity":"recycling","location":"overground","recycling:glass_bottles":"yes","recycling_type":"container"}},"type":"Feature"},
	{"geometry":{"coordinates":[8.561343,50.103112],"type":"Point"},"properties":{"osm_id":"2572601242","tag":{"amenity":"recycling"}},"type":"Feature"},
	{"geometry":{"coordinates":[8.600926,50.07274],"type":"Point"},"properties":{"osm_id":"3008690407","tag":{"amenity":"waste_basket"}},"type":"Feature"},
	{"geometry":{"coordinates":[8.594727,50.064856],"type":"Point"},"properties":{"osm_id":"3009041131","tag":{"amenity":"waste_basket"}},"type":"Feature"},
	{"geometry":{"coordinates":[8.597388,50.067903],"type":"Point"},"properties":{"osm_id":"3009042235","tag":{"amenity":"waste_basket"}},"type":"Feature"},
	{"geometry":{"coordinates":[8.545629,50.069149],"type":"Point"},"properties":{"osm_id":"3049350464","tag":{"amenity":"waste_basket"}},"type":"Feature"},
	{"geometry":{"coordinates":[8.545675,50.069372],"type":"Point"},"properties":{"osm_id":"3049350470","tag":{"amenity":"waste_basket"}},"type":"Feature"},
	{"geometry":{"coordinates":[8.572601,50.079176],"type":"Point"},"properties":{"osm_id":"3049350523","tag":{"amenity":"waste_basket"}},"type":"Feature"},
	{"geometry":{"coordinates":[8.598967,50.069868],"type":"Point"},"properties":{"osm_id":"3188927077","tag":{"amenity":"waste_basket"}},"type":"Feature"},
	{"geometry":{"coordinates":[8.599473,50.093826],"type":"Point"},"properties":{"osm_id":"3294356948","tag":{"amenity":"recycling","recycling:glass":"yes"}},"type":"Feature"},
	{"geometry":{"coordinates":[8.533629,50.067507],"type":"Point"},"properties":{"osm_id":"4159051595","tag":{"amenity":"recycling","recycling:clothes":"yes","recycling:glass":"yes","recycling_type":"container"}},"type":"Feature"},
	{"geometry":{"coordinates":[8.541829,50.086976],"type":"Point"},"properties":{"osm_id":"4424879771","tag":{"amenity":"recycling","recycling:paper":"yes","recycling_type":"container"}},"type":"Feature"},
	{"geometry":{"coordinates":[8.541804,50.086996],"type":"Point"},"properties":{"osm_id":"4424879772","tag":{"amenity":"waste_disposal","waste":"trash"}},"type":"Feature"},
	{"geometry":{"coordinates":[8.54011,50.085916],"type":"Point"},"properties":{"osm_id":"4433941161","tag":{"amenity":"waste_disposal","waste":"trash"}},"type":"Feature"},
	{"geometry":{"coordinates":[8.540011,50.085934],"type":"Point"},"properties":{"osm_id":"4433941162","tag":{"amenity":"recycling","recycling:paper":"yes","recycling_type":"container"}},"type":"Feature"},
	{"geometry":{"coordinates":[8.538864,50.087191],"type":"Point"},"properties":{"osm_id":"4440697625","tag":{"amenity":"waste_disposal","waste":"trash"}},"type":"Feature"},
	{"geometry":{"coordinates":[8.538851,50.087215],"type":"Point"},"properties":{"osm_id":"4440697626","tag":{"amenity":"recycling","recycling:paper":"yes","recycling_type":"container"}},"type":"Feature"},
	{"geometry":{"coordinates":[8.546003,50.087198],"type":"Point"},"properties":{"osm_id":"4463254837","tag":{"amenity":"waste_basket"}},"type":"Feature"},
	{"geometry":{"coordinates":[8.546401,50.087367],"type":"Point"},"properties":{"osm_id":"4464672141","tag":{"amenity":"waste_basket"}},"type":"Feature"},
	{"geometry":{"coordinates":[8.560244,50.101633],"type":"Point"},"properties":{"osm_id":"4589310045","tag":{"amenity":"recycling","recycling:glass_bottles":"yes","recycling_type":"container"}},"type":"Feature"},
	{"geometry":{"coordinates":[8.610148,50.100327],"type":"Point"},"properties":{"osm_id":"4843341447","tag":{"amenity":"recycling","recycling:glass_bottles":"yes","recycling_type":"container"}},"type":"Feature"},
	{"geometry":{"coordinates":[8.585184,50.103242],"type":"Point"},"properties":{"osm_id":"5227053692","tag":{"amenity":"waste_basket"}},"type":"Feature"},
	{"geometry":{"coordinates":[8.584807,50.102986],"type":"Point"},"properties":{"osm_id":"5227060089","tag":{"amenity":"waste_basket"}},"type":"Feature"},
	{"geometry":{"coordinates":[8.584218,50.102333],"type":"Point"},"properties":{"osm_id":"5227062530","tag":{"amenity":"waste_basket"}},"type":"Feature"},
	{"geometry":{"coordinates":[8.582717,50.101604],"type":"Point"},"properties":{"osm_id":"5227082587","tag":{"amenity":"waste_basket"}},"type":"Feature"},
	{"geometry":{"coordinates":[8.580585,50.078062],"type":"Point"},"properties":{"osm_id":"5536868381","tag":{"amenity":"waste_basket"}},"type":"Feature"},
	{"geometry":{"coordinates":[8.583671,50.101303],"type":"Point"},"properties":{"osm_id":"5949607972","tag":{"amenity":"waste_basket"}},"type":"Feature"},
	{"geometry":{"coordinates":[8.582459,50.100886],"type":"Point"},"properties":{"osm_id":"5949644865","tag":{"amenity":"waste_basket"}},"type":"Feature"},
	{"geometry":{"coordinates":[8.582514,50.101051],"type":"Point"},"properties":{"osm_id":"5949762189","tag":{"amenity":"waste_basket"}},"type":"Feature"},
	{"geometry":{"coordinates":[8.582401,50.101137],"type":"Point"},"properties":{"osm_id":"5949769407","tag":{"amenity":"waste_basket"}},"type":"Feature"},
	{"geometry":{"coordinates":[8.582558,50.101163],"type":"Point"},"properties":{"osm_id":"5949775242","tag":{"amenity":"waste_basket"}},"type":"Feature"},
	{"geometry":{"coordinates":[8.583766,50.087187],"type":"Point"},"properties":{"osm_id":"6306067828","tag":{"amenity":"recycling","recycling:glass_bottles":"yes","recycling_type":"container"}},"type":"Feature"},
	{"geometry":{"coordinates":[8.589392,50.086039],"type":"Point"},"properties":{"osm_id":"6306067829","tag":{"amenity":"recycling","recycling:clothes":"yes","recycling:glass_bottles":"yes","recycling_type":"container"}},"type":"Feature"},
	{"geometry":{"coordinates":[8.604482,50.086183],"type":"Point"},"properties":{"osm_id":"6306098656","tag":{"amenity":"recycling","recycling:glass_bottles":"yes","recycling_type":"container"}},"type":"Feature"},
	{"geometry":{"coordinates":[8.56924,50.110684],"type":"Point"},"properties":{"osm_id":"6306334053","tag":{"amenity":"recycling","recycling:glass_bottles":"yes","recycling_type":"container"}},"type":"Feature"},
	{"geometry":{"coordinates":[8.610045,50.082372],"type":"Point"},"properties":{"osm_id":"6306361476","tag":{"amenity":"recycling","recycling:glass_bottles":"yes","recycling_type":"container"}},"type":"Feature"},
	{"geometry":{"coordinates":[8.587196,50.082701],"type":"Point"},"properties":{"osm_id":"6306361477","tag":{"amenity":"recycling","recycling:glass_bottles":"yes","recycling_type":"container"}},"type":"Feature"},
	{"geometry":{"coordinates":[8.607879,50.080988],"type":"Point"},"properties":{"osm_id":"6307951512","tag":{"amenity":"recycling","recycling:glass_bottles":"yes","recycling_type":"container"}},"type":"Feature"},
	{"geometry":{"coordinates":[8.604168,50.079639],"type":"Point"},"properties":{"osm_id":"6307951513","tag":{"amenity":"recycling","recycling:glass_bottles":"yes","recycling_type":"container"}},"type":"Feature"},
	{"geometry":{"coordinates":[8.598824,50.084815],"type":"Point"},"properties":{"osm_id":"6320631324","tag":{"amenity":"recycling","recycling:glass_bottles":"yes","recycling_type":"container"}},"type":"Feature"},
	{"geometry":{"coordinates":[8.609593,50.086432],"type":"Point"},"properties":{"osm_id":"6321141322","tag":{"amenity":"recycling","recycling:glass_bottles":"yes","recycling_type":"container"}},"type":"Feature"},
	{"geometry":{"coordinates":[8.609511,50.085243],"type":"Point"},"properties":{"osm_id":"6323052544","tag":{"amenity":"recycling","recycling:glass_bottles":"yes","recycling_type":"container"}},"type":"Feature"},
	{"geometry":{"coordinates":[8.601616,50.0829],"type":"Point"},"properties":{"osm_id":"6323052545","tag":{"amenity":"recycling","recycling:glass_bottles":"yes","recycling_type":"container"}},"type":"Feature"},
	{"geometry":{"coordinates":[8.597479,50.09085],"type":"Point"},"properties":{"osm_id":"6324192710","tag":{"amenity":"recycling","recycling:glass_bottles":"yes","recycling_type":"container"}},"type":"Feature"},
	{"geometry":{"coordinates":[8.593092,50.085648],"type":"Point"},"properties":{"osm_id":"6326237920","tag":{"amenity":"recycling","recycling:glass_bottles":"yes","recycling_type":"container"}},"type":"Feature"},
	{"geometry":{"coordinates":[8.594212,50.083106],"type":"Point"},"properties":{"osm_id":"6326237921","tag":{"amenity":"recycling","recycling:glass_bottles":"yes","recycling_type":"container"}},"type":"Feature"},
	{"geometry":{"coordinates":[8.588769,50.084926],"type":"Point"},"properties":{"osm_id":"6334230958","tag":{"amenity":"recycling","recycling:glass_bottles":"yes","recycling_type":"container"}},"type":"Feature"},
	{"geometry":{"coordinates":[8.611037,50.090852],"type":"Point"},"properties":{"osm_id":"6334230960","tag":{"amenity":"recycling","recycling:glass_bottles":"yes","recycling_type":"container"}},"type":"Feature"},
	{"geometry":{"coordinates":[8.6072,50.090885],"type":"Point"},"properties":{"osm_id":"6334230961","tag":{"amenity":"recycling","recycling:glass_bottles":"yes","recycling_type":"container"}},"type":"Feature"},
	{"geometry":{"coordinates":[8.601849,50.105694],"type":"Point"},"properties":{"osm_id":"6337496089","tag":{"amenity":"recycling","recycling:clothes":"yes","recycling_type":"container"}},"type":"Feature"},
	{"geometry":{"coordinates":[8.602549,50.102895],"type":"Point"},"properties":{"osm_id":"6360548430","tag":{"amenity":"recycling","recycling:glass_bottles":"yes","recycling_type":"container"}},"type":"Feature"},
	{"geometry":{"coordinates":[8.581955,50.106662],"type":"Point"},"properties":{"osm_id":"6716479717","tag":{"amenity":"recycling","location":"overground","recycling:glass_bottles":"yes","recycling_type":"container"}},"type":"Feature"},
	{"geometry":{"coordinates":[8.541945,50.103106],"type":"Point"},"properties":{"osm_id":"6790649130","tag":{"amenity":"waste_basket","waste":"trash"}},"type":"Feature"},
	{"geometry":{"coordinates":[8.541613,50.103064],"type":"Point"},"properties":{"osm_id":"6790649131","tag":{"amenity":"waste_basket","waste":"trash"}},"type":"Feature"},
	{"geometry":{"coordinates":[8.541271,50.103036],"type":"Point"},"properties":{"osm_id":"6790649132","tag":{"amenity":"waste_basket","waste":"trash"}},"type":"Feature"},
	{"geometry":{"coordinates":[8.540895,50.102975],"type":"Point"},"properties":{"osm_id":"6790649133","tag":{"amenity":"waste_basket","waste":"trash"}},"type":"Feature"},
	{"geometry":{"coordinates":[8.540809,50.102797],"type":"Point"},"properties":{"osm_id":"6790649134","tag":{"amenity":"waste_basket","waste":"trash"}},"type":"Feature"},
	{"geometry":{"coordinates":[8.541306,50.102851],"type":"Point"},"properties":{"osm_id":"6790649135","tag":{"amenity":"waste_basket","waste":"trash"}},"type":"Feature"},
	{"geometry":{"coordinates":[8.541646,50.102891],"type":"Point"},"properties":{"osm_id":"6790649136","tag":{"amenity":"waste_basket","waste":"trash"}},"type":"Feature"},
	{"geometry":{"coordinates":[8.542004,50.102931],"type":"Point"},"properties":{"osm_id":"6790649137","tag":{"amenity":"waste_basket","waste":"trash"}},"type":"Feature"},
	{"geometry":{"coordinates":[8.541847,50.102728],"type":"Point"},"properties":{"osm_id":"6790649138","tag":{"amenity":"waste_basket","waste":"trash"}},"type":"Feature"},
	{"geometry":{"coordinates":[8.542074,50.102757],"type":"Point"},"properties":{"osm_id":"6790649139","tag":{"amenity":"waste_basket","waste":"trash"}},"type":"Feature"},
	{"geometry":{"coordinates":[8.542702,50.102824],"type":"Point"},"properties":{"osm_id":"6790649140","tag":{"amenity":"waste_basket","waste":"trash"}},"type":"Feature"},
	{"geometry":{"coordinates":[8.543006,50.102867],"type":"Point"},"properties":{"osm_id":"6790649141","tag":{"amenity":"waste_basket","waste":"trash"}},"type":"Feature"},
	{"geometry":{"coordinates":[8.543254,50.102893],"type":"Point"},"properties":{"osm_id":"6790649142","tag":{"amenity":"waste_basket","waste":"trash"}},"type":"Feature"},
	{"geometry":{"coordinates":[8.543717,50.102941],"type":"Point"},"properties":{"osm_id":"6790649143","tag":{"amenity":"waste_basket","waste":"trash"}},"type":"Feature"},
	{"geometry":{"coordinates":[8.543496,50.102932],"type":"Point"},"properties":{"osm_id":"6790649144","tag":{"amenity":"waste_basket","waste":"trash"}},"type":"Feature"},
	{"geometry":{"coordinates":[8.543089,50.103063],"type":"Point"},"properties":{"osm_id":"6790649145","tag":{"amenity":"waste_basket","waste":"trash"}},"type":"Feature"},
	{"geometry":{"coordinates":[8.542739,50.103024],"type":"Point"},"properties":{"osm_id":"6790649146","tag":{"amenity":"waste_basket","waste":"trash"}},"type":"Feature"},
	{"geometry":{"coordinates":[8.543738,50.10268],"type":"Point"},"properties":{"osm_id":"6790649147","tag":{"amenity":"waste_basket","waste":"trash"}},"type":"Feature"},
	{"geometry":{"coordinates":[8.543721,50.102543],"type":"Point"},"properties":{"osm_id":"6790649148","tag":{"amenity":"waste_basket","waste":"trash"}},"type":"Feature"},
	{"geometry":{"coordinates":[8.559721,50.09929],"type":"Point"},"properties":{"osm_id":"6944853121","tag":{"amenity":"waste_basket","waste":"trash"}},"type":"Feature"},
	{"geometry":{"coordinates":[8.571068,50.108805],"type":"Point"},"properties":{"osm_id":"6991555162","tag":{"amenity":"waste_basket","waste":"trash"}},"type":"Feature"},
	{"geometry":{"coordinates":[8.570911,50.108793],"type":"Point"},"properties":{"osm_id":"6991555163","tag":{"amenity":"waste_basket","waste":"trash"}},"type":"Feature"},
	{"geometry":{"coordinates":[8.599746,50.115773],"type":"Point"},"properties":{"osm_id":"7029148828","tag":{"amenity":"waste_basket","waste":"trash"}},"type":"Feature"},
	{"geometry":{"coordinates":[8.535874,50.10227],"type":"Point"},"properties":{"osm_id":"7258550302","tag":{"amenity":"recycling","recycling:glass_bottles":"yes","recycling_type":"container"}},"type":"Feature"},
	{"geometry":{"coordinates":[8.537281,50.102691],"type":"Point"},"properties":{"osm_id":"7258941392","tag":{"amenity":"recycling","recycling:glass_bottles":"yes","recycling_type":"container","wheelchair":"limited"}},"type":"Feature"},
	{"geometry":{"coordinates":[8.609356,50.119831],"type":"Point"},"properties":{"osm_id":"7395545811","tag":{"amenity":"waste_basket","waste":"trash"}},"type":"Feature"}
]
}
