{
"type": "FeatureCollection",
"features": [
	{"geometry":{"coordinates":[8.530779,50.062089],"type":"Point"},"properties":{"osm_id":"1035553845","tag":{"amenity":"recycling","recycling:clothes":"yes","recycling:glass":"yes","recycling_type":"container"}},"type":"Feature"},
	{"geometry":{"coordinates":[8.527217,50.055192],"type":"Point"},"properties":{"osm_id":"1172570655","tag":{"amenity":"recycling","recycling:clothes":"yes","recycling_type":"container"}},"type":"Feature"},
	{"geometry":{"coordinates":[8.52802,50.057216],"type":"Point"},"properties":{"osm_id":"1308677805","tag":{"amenity":"recycling","recycling:glass":"yes","recycling_type":"container"}},"type":"Feature"},
	{"geometry":{"coordinates":[8.532663,50.054726],"type":"Point"},"properties":{"osm_id":"2078454529","tag":{"amenity":"recycling","recycling:glass":"yes","recycling_type":"container"}},"type":"Feature"},
	{"geometry":{"coordinates":[8.532716,50.054759],"type":"Point"},"properties":{"osm_id":"2078454533","tag":{"amenity":"recycling","recycling:clothes":"yes","recycling_type":"container"}},"type":"Feature"},
	{"geometry":{"coordinates":[8.526205,50.063656],"type":"Point"},"properties":{"osm_id":"2090236597","tag":{"amenity":"waste_basket"}},"type":"Feature"},
	{"geometry":{"coordinates":[8.584487,50.052788],"type":"Point"},"properties":{"osm_id":"2142432000","tag":{"amenity":"recycling","recycling:cardboard":"yes","recycling:cartons":"yes","recycling:newspaper":"yes","recycling:paper":"yes","recycling:waste":"yes","recycling_type":"container"}},"type":"Feature"},
	{"geometry":{"coordinates":[8.589928,50.059221],"type":"Point"},"properties":{"osm_id":"3051044142","tag":{"amenity":"waste_basket"}},"type":"Feature"},
	{"geometry":{"coordinates":[8.590763,50.060318],"type":"Point"},"properties":{"osm_id":"3051044145","tag":{"amenity":"waste_basket"}},"type":"Feature"},
	{"geometry":{"coordinates":[8.591628,50.061352],"type":"Point"},"properties":{"osm_id":"3051044154","tag":{"amenity":"waste_basket"}},"type":"Feature"},
	{"geometry":{"coordinates":[8.593907,50.063917],"type":"Point"},"properties":{"osm_id":"3051044162","tag":{"amenity":"waste_basket"}},"type":"Feature"},
	{"geometry":{"coordinates":[8.578044,50.062796],"type":"Point"},"properties":{"osm_id":"3188752546","tag":{"amenity":"waste_basket"}},"type":"Feature"},
	{"geometry":{"coordinates":[8.607429,50.035213],"type":"Point"},"properties":{"osm_id":"3234138261","tag":{"amenity":"recycling","recycling:clothes":"yes","recycling:glass":"yes"}},"type":"Feature"},
	{"geometry":{"coordinates":[8.608337,50.034646],"type":"Point"},"properties":{"osm_id":"3234138361","tag":{"amenity":"recycling","recycling:clothes":"yes"}},"type":"Feature"},
	{"geometry":{"coordinates":[8.534321,50.058617],"type":"Point"},"properties":{"osm_id":"4438844966","tag":{"amenity":"recycling","recycling:clothes":"yes","recycling:shoes":"yes","recycling_type":"container"}},"type":"Feature"},
	{"geometry":{"coordinates":[8.53685,50.055432],"type":"Point"},"properties":{"osm_id":"4438878756","tag":{"amenity":"recycling","recycling:glass":"yes","recycling_type":"container"}},"type":"Feature"},
	{"geometry":{"coordinates":[8.534726,50.056467],"type":"Point"},"properties":{"osm_id":"4438924759","tag":{"amenity":"recycling","recycling:clothes":"yes","recycling:glass":"yes","recycling:shoes":"yes","recycling_type":"container"}},"type":"Feature"},
	{"geometry":{"coordinates":[8.530952,50.056027],"type":"Point"},"properties":{"osm_id":"4485203395","tag":{"amenity":"recycling","recycling:glass":"yes","recycling_type":"container"}},"type":"Feature"},
	{"geometry":{"coordinates":[8.527603,50.053926],"type":"Point"},"properties":{"osm_id":"4485203401","tag":{"amenity":"recycling","recycling:clothes":"yes","recycling_type":"container"}},"type":"Feature"},
	{"geometry":{"coordinates":[8.527744,50.053895],"type":"Point"},"properties":{"osm_id":"4485203410","tag":{"amenity":"recycling","recycling:glass":"yes","recycling_type":"container"}},"type":"Feature"},
	{"geometry":{"coordinates":[8.609685,50.036953],"type":"Point"},"properties":{"osm_id":"4694314853","tag":{"amenity":"recycling","recycling:glass_bottles":"yes","recycling_type":"container"}},"type":"Feature"},
	{"geometry":{"coordinates":[8.572945,50.051533],"type":"Point"},"properties":{"osm_id":"5119246589","tag":{"amenity":"waste_basket","indoor":"yes","level":"-2","vending":"drinks"}},"type":"Feature"},
	{"geometry":{"coordinates":[8.612262,50.032593],"type":"Point"},"properties":{"osm_id":"5435992553","tag":{"amenity":"recycling","recycling:green_waste":"yes","recycling_type":"container"}},"type":"Feature"},
	{"geometry":{"coordinates":[8.611071,50.032316],"type":"Point"},"properties":{"osm_id":"5435992566","tag":{"amenity":"recycling","recycling:green_waste":"yes","recycling_type":"container"}},"type":"Feature"},
	{"geometry":{"coordinates":[8.612685,50.037927],"type":"Point"},"properties":{"osm_id":"5443796526","tag":{"amenity":"recycling","recycling:green_waste":"yes","recycling_type":"container"}},"type":"Feature"},
	{"geometry":{"coordinates":[8.579251,50.052658],"type":"Point"},"properties":{"osm_id":"5574277417","tag":{"amenity":"waste_basket","waste":"trash"}},"type":"Feature"},
	{"geometry":{"coordinates":[8.577945,50.012931],"type":"Point"},"properties":{"osm_id":"5697441024","tag":{"amenity":"waste_basket","vending":"excrement_bags","waste":"dog_excrement"}},"type":"Feature"},
	{"geometry":{"coordinates":[8.573619,50.051502],"type":"Point"},"properties":{"osm_id":"6495589193","tag":{"amenity":"waste_basket","layer":"1","level":"2","operator":"Fraport AG"}},"type":"Feature"},
	{"geometry":{"coordinates":[8.573442,50.051464],"type":"Point"},"properties":{"osm_id":"6495589195","tag":{"amenity":"waste_basket","layer":"1","level":"2","operator":"Fraport AG"}},"type":"Feature"},
	{"geometry":{"coordinates":[8.573271,50.051427],"type":"Point"},"properties":{"osm_id":"6495589196","tag":{"amenity":"waste_basket","layer":"1","level":"2","operator":"Fraport AG"}},"type":"Feature"},
	{"geometry":{"coordinates":[8.593921,50.056661],"type":"Point"},"properties":{"osm_id":"7067534191","tag":{"amenity":"waste_basket","capacity":"2","description":"Zwei M\u00c3\u00bclleimer","layer":"1","operator":"Deutsche Bahn"}},"type":"Feature"},
	{"geometry":{"coordinates":[8.593611,50.056676],"type":"Point"},"properties":{"osm_id":"7067534194","tag":{"amenity":"waste_basket","capacity":"2","description":"Zwei M\u00c3\u00bclleimer","layer":"1","operator":"Deutsche Bahn"}},"type":"Feature"},
	{"geometry":{"coordinates":[8.577959,50.052616],"type":"Point"},"properties":{"osm_id":"7086795189","tag":{"amenity":"waste_basket","waste":"trash"}},"type":"Feature"},
	{"geometry":{"coordinates":[8.595437,50.05583],"type":"Point"},"properties":{"osm_id":"7144912385","tag":{"amenity":"waste_basket"}},"type":"Feature"}
]
}
