{
"type": "FeatureCollection",
"features": [
	{"geometry":{"coordinates":[8.584297,49.98371],"type":"Point"},"properties":{"osm_id":"2522274122","tag":{"amenity":"recycling","recycling:clothes":"yes","recycling:glass_bottles":"yes","recycling_type":"container"}},"type":"Feature"},
	{"geometry":{"coordinates":[8.597685,50.00257],"type":"Point"},"properties":{"osm_id":"3658392381","tag":{"amenity":"waste_basket"}},"type":"Feature"},
	{"geometry":{"coordinates":[8.583335,50.003733],"type":"Point"},"properties":{"osm_id":"3939870449","tag":{"amenity":"waste_basket"}},"type":"Feature"},
	{"geometry":{"coordinates":[8.560382,49.976807],"type":"Point"},"properties":{"osm_id":"3939960936","tag":{"amenity":"waste_basket"}},"type":"Feature"},
	{"geometry":{"coordinates":[8.563775,49.976926],"type":"Point"},"properties":{"osm_id":"3939960937","tag":{"amenity":"waste_basket"}},"type":"Feature"},
	{"geometry":{"coordinates":[8.569478,50.002119],"type":"Point"},"properties":{"osm_id":"3939962279","tag":{"amenity":"waste_basket"}},"type":"Feature"},
	{"geometry":{"coordinates":[8.569262,50.002561],"type":"Point"},"properties":{"osm_id":"3939962280","tag":{"amenity":"waste_basket"}},"type":"Feature"},
	{"geometry":{"coordinates":[8.569776,50.002641],"type":"Point"},"properties":{"osm_id":"3939962281","tag":{"amenity":"waste_basket"}},"type":"Feature"},
	{"geometry":{"coordinates":[8.568365,50.002812],"type":"Point"},"properties":{"osm_id":"3939962286","tag":{"amenity":"waste_basket"}},"type":"Feature"},
	{"geometry":{"coordinates":[8.572284,49.995812],"type":"Point"},"properties":{"osm_id":"3940092964","tag":{"amenity":"waste_basket"}},"type":"Feature"},
	{"geometry":{"coordinates":[8.577499,49.996868],"type":"Point"},"properties":{"osm_id":"4466540687","tag":{"amenity":"recycling","recycling:glass":"yes","recycling_type":"container"}},"type":"Feature"},
	{"geometry":{"coordinates":[8.543307,49.980035],"type":"Point"},"properties":{"osm_id":"4886412960","tag":{"amenity":"waste_basket"}},"type":"Feature"},
	{"geometry":{"coordinates":[8.546883,49.99193],"type":"Point"},"properties":{"osm_id":"4898271609","tag":{"amenity":"waste_basket"}},"type":"Feature"},
	{"geometry":{"coordinates":[8.553421,50.001024],"type":"Point"},"properties":{"osm_id":"4913776979","tag":{"amenity":"waste_basket"}},"type":"Feature"},
	{"geometry":{"coordinates":[8.594228,49.979304],"type":"Point"},"properties":{"osm_id":"5021646666","tag":{"access":"customers","amenity":"recycling","recycling_type":"container"}},"type":"Feature"},
	{"geometry":{"coordinates":[8.594185,49.979277],"type":"Point"},"properties":{"osm_id":"5021646667","tag":{"access":"customers","amenity":"waste_disposal"}},"type":"Feature"},
	{"geometry":{"coordinates":[8.573699,49.965612],"type":"Point"},"properties":{"osm_id":"5057146445","tag":{"amenity":"waste_basket"}},"type":"Feature"},
	{"geometry":{"coordinates":[8.594408,49.969023],"type":"Point"},"properties":{"osm_id":"5073644254","tag":{"amenity":"waste_basket"}},"type":"Feature"},
	{"geometry":{"coordinates":[8.588668,49.96535],"type":"Point"},"properties":{"osm_id":"5073644257","tag":{"amenity":"waste_basket"}},"type":"Feature"},
	{"geometry":{"coordinates":[8.536911,49.988843],"type":"Point"},"properties":{"osm_id":"5692860926","tag":{"amenity":"waste_basket"}},"type":"Feature"},
	{"geometry":{"coordinates":[8.537023,49.988868],"type":"Point"},"properties":{"osm_id":"5692860927","tag":{"amenity":"waste_basket"}},"type":"Feature"},
	{"geometry":{"coordinates":[8.527911,49.96784],"type":"Point"},"properties":{"osm_id":"5718660858","tag":{"amenity":"waste_basket"}},"type":"Feature"},
	{"geometry":{"coordinates":[8.541166,49.9681],"type":"Point"},"properties":{"osm_id":"5718660873","tag":{"amenity":"waste_basket"}},"type":"Feature"},
	{"geometry":{"coordinates":[8.565657,49.995095],"type":"Point"},"properties":{"osm_id":"6604021695","tag":{"amenity":"waste_basket"}},"type":"Feature"},
	{"geometry":{"coordinates":[8.565495,49.994975],"type":"Point"},"properties":{"osm_id":"6604021697","tag":{"amenity":"waste_basket"}},"type":"Feature"},
	{"geometry":{"coordinates":[8.598223,49.978966],"type":"Point"},"properties":{"osm_id":"7169930213","tag":{"access":"customers","amenity":"waste_disposal"}},"type":"Feature"},
	{"geometry":{"coordinates":[8.591523,49.995566],"type":"Point"},"properties":{"osm_id":"7910239642","tag":{"amenity":"recycling","recycling:glass_bottles":"yes","recycling_type":"container"}},"type":"Feature"}
]
}
