{
"type": "FeatureCollection",
"features": [
	{"geometry":{"coordinates":[8.556897,49.656769],"type":"Point"},"properties":{"osm_id":"27499260","tag":{"amenity":"recycling","recycling:clothes":"yes"}},"type":"Feature"},
	{"geometry":{"coordinates":[8.557079,49.653396],"type":"Point"},"properties":{"osm_id":"27499261","tag":{"amenity":"recycling","recycling:clothes":"yes","recycling:shoes":"yes","recycling_type":"container"}},"type":"Feature"},
	{"geometry":{"coordinates":[8.566927,49.662414],"type":"Point"},"properties":{"osm_id":"27501082","tag":{"amenity":"recycling","location":"overground","opening_hours":"24/7","opening_hours:covid19":"same","recycling:bottles":"yes","recycling:clothes":"yes","recycling:glass":"yes","recycling_type":"container"}},"type":"Feature"},
	{"geometry":{"coordinates":[8.572153,49.652918],"type":"Point"},"properties":{"osm_id":"29395717","tag":{"amenity":"recycling","recycling:clothes":"yes","recycling_type":"container"}},"type":"Feature"},
	{"geometry":{"coordinates":[8.553214,49.654285],"type":"Point"},"properties":{"osm_id":"29538723","tag":{"amenity":"recycling","recycling:green_waste":"yes"}},"type":"Feature"},
	{"geometry":{"coordinates":[8.565269,49.64221],"type":"Point"},"properties":{"osm_id":"29551877","tag":{"amenity":"recycling","location":"overground","recycling:bottles":"yes","recycling:clothes":"yes","recycling_type":"container"}},"type":"Feature"},
	{"geometry":{"coordinates":[8.563449,49.639693],"type":"Point"},"properties":{"osm_id":"29551901","tag":{"amenity":"recycling","recycling:bottles":"yes","recycling:clothes":"yes","recycling_type":"container"}},"type":"Feature"},
	{"geometry":{"coordinates":[8.551587,49.643386],"type":"Point"},"properties":{"osm_id":"1943135802","tag":{"amenity":"recycling","recycling:glass":"yes","recycling_type":"container"}},"type":"Feature"},
	{"geometry":{"coordinates":[8.541396,49.663705],"type":"Point"},"properties":{"osm_id":"2099675849","tag":{"amenity":"recycling","recycling:glass_bottles":"yes","recycling_type":"container"}},"type":"Feature"},
	{"geometry":{"coordinates":[8.572156,49.653519],"type":"Point"},"properties":{"osm_id":"3069883486","tag":{"amenity":"recycling","recycling_type":"container"}},"type":"Feature"},
	{"geometry":{"coordinates":[8.564193,49.625454],"type":"Point"},"properties":{"osm_id":"3354445990","tag":{"amenity":"waste_basket"}},"type":"Feature"},
	{"geometry":{"coordinates":[8.541354,49.663701],"type":"Point"},"properties":{"osm_id":"5894956028","tag":{"amenity":"recycling","recycling:clothes":"yes","recycling_type":"container"}},"type":"Feature"},
	{"geometry":{"coordinates":[8.553193,49.655253],"type":"Point"},"properties":{"osm_id":"7895502270","tag":{"amenity":"recycling","opening_hours":"24/7","opening_hours:covid19":"open","recycling:glass_bottles":"yes","recycling_type":"container"}},"type":"Feature"},
	{"geometry":{"coordinates":[8.56926,49.638346],"type":"Point"},"properties":{"osm_id":"7895518993","tag":{"amenity":"recycling","opening_hours":"24/7","opening_hours:covid19":"open","recycling:glass_bottles":"yes","recycling_type":"container"}},"type":"Feature"}
]
}
