{
"type": "FeatureCollection",
"features": [
	{"geometry":{"coordinates":[8.563913,49.466627],"type":"Point"},"properties":{"osm_id":"361118925","tag":{"amenity":"recycling","recycling:glass":"yes"}},"type":"Feature"},
	{"geometry":{"coordinates":[8.554374,49.462343],"type":"Point"},"properties":{"osm_id":"403187920","tag":{"amenity":"recycling","location":"overground","recycling:glass":"yes","recycling_type":"container"}},"type":"Feature"},
	{"geometry":{"coordinates":[8.566412,49.464308],"type":"Point"},"properties":{"osm_id":"414071461","tag":{"amenity":"recycling","location":"overground","recycling:clothes":"yes","recycling:glass":"yes","recycling_type":"container"}},"type":"Feature"},
	{"geometry":{"coordinates":[8.545027,49.489906],"type":"Point"},"properties":{"osm_id":"472379563","tag":{"amenity":"recycling","mapillary":"OqZTHtVUTl9bTHBFrnVlFg","recycling_type":"container","survey:date":"2018-06-30"}},"type":"Feature"},
	{"geometry":{"coordinates":[8.544666,49.490132],"type":"Point"},"properties":{"osm_id":"472379582","tag":{"amenity":"recycling","mapillary":"K_aGowZKrqQjpwCuIaB7cA","recycling_type":"container","survey:date":"2018-09-15"}},"type":"Feature"},
	{"geometry":{"coordinates":[8.546268,49.494423],"type":"Point"},"properties":{"osm_id":"520203519","tag":{"amenity":"recycling","recycling:glass_bottles":"yes","recycling_type":"container"}},"type":"Feature"},
	{"geometry":{"coordinates":[8.569143,49.459303],"type":"Point"},"properties":{"osm_id":"650740756","tag":{"amenity":"recycling","location":"overground","recycling_type":"container"}},"type":"Feature"},
	{"geometry":{"coordinates":[8.562743,49.458027],"type":"Point"},"properties":{"osm_id":"651893417","tag":{"amenity":"recycling","location":"overground","recycling:clothes":"yes","recycling:glass":"yes","recycling_type":"container"}},"type":"Feature"},
	{"geometry":{"coordinates":[8.530113,49.490455],"type":"Point"},"properties":{"osm_id":"658595701","tag":{"amenity":"recycling","recycling:clothes":"yes","recycling:glass":"yes","recycling_type":"container"}},"type":"Feature"},
	{"geometry":{"coordinates":[8.60086,49.473387],"type":"Point"},"properties":{"osm_id":"667464619","tag":{"amenity":"recycling","recycling:clothes":"yes","recycling_type":"container"}},"type":"Feature"},
	{"geometry":{"coordinates":[8.555362,49.460262],"type":"Point"},"properties":{"osm_id":"1141198693","tag":{"amenity":"recycling","location":"overground","recycling_type":"container"}},"type":"Feature"},
	{"geometry":{"coordinates":[8.52696,49.442754],"type":"Point"},"properties":{"osm_id":"1177074762","tag":{"amenity":"recycling","recycling:clothes":"yes","recycling:glass":"no","recycling:glass_bottles":"yes","recycling_type":"container"}},"type":"Feature"},
	{"geometry":{"coordinates":[8.612409,49.471018],"type":"Point"},"properties":{"osm_id":"1565035460","tag":{"amenity":"recycling","operator":"Kolping","recycling:clothes":"yes","recycling:shoes":"yes","recycling_type":"container"}},"type":"Feature"},
	{"geometry":{"coordinates":[8.565939,49.454406],"type":"Point"},"properties":{"osm_id":"1685572087","tag":{"amenity":"recycling","recycling:glass":"yes"}},"type":"Feature"},
	{"geometry":{"coordinates":[8.568973,49.462786],"type":"Point"},"properties":{"osm_id":"1691729104","tag":{"amenity":"recycling","mapillary":"Wb5bq2yp61Bom9_IKJ9cvQ","recycling:clothes":"yes","recycling_type":"container","survey:date":"2018-06-24"}},"type":"Feature"},
	{"geometry":{"coordinates":[8.563193,49.46741],"type":"Point"},"properties":{"osm_id":"1694159118","tag":{"amenity":"recycling","recycling:glass":"yes"}},"type":"Feature"},
	{"geometry":{"coordinates":[8.531528,49.480952],"type":"Point"},"properties":{"osm_id":"1737975593","tag":{"amenity":"recycling","recycling:clothes":"yes","recycling:glass_bottles":"yes","recycling_type":"container"}},"type":"Feature"},
	{"geometry":{"coordinates":[8.525806,49.493462],"type":"Point"},"properties":{"osm_id":"1753625213","tag":{"amenity":"recycling","recycling:clothes":"yes","recycling_type":"container"}},"type":"Feature"},
	{"geometry":{"coordinates":[8.530091,49.484145],"type":"Point"},"properties":{"osm_id":"1759448328","tag":{"amenity":"recycling","recycling:clothes":"yes","recycling:glass":"yes"}},"type":"Feature"},
	{"geometry":{"coordinates":[8.527667,49.486728],"type":"Point"},"properties":{"osm_id":"1759448865","tag":{"amenity":"recycling","recycling:glass":"yes"}},"type":"Feature"},
	{"geometry":{"coordinates":[8.611659,49.450235],"type":"Point"},"properties":{"osm_id":"1792575019","tag":{"amenity":"waste_basket"}},"type":"Feature"},
	{"geometry":{"coordinates":[8.610788,49.451525],"type":"Point"},"properties":{"osm_id":"1792575021","tag":{"amenity":"waste_basket"}},"type":"Feature"},
	{"geometry":{"coordinates":[8.608706,49.456593],"type":"Point"},"properties":{"osm_id":"1792575065","tag":{"amenity":"waste_basket"}},"type":"Feature"},
	{"geometry":{"coordinates":[8.585575,49.468781],"type":"Point"},"properties":{"osm_id":"1822621109","tag":{"amenity":"recycling","recycling:clothes":"yes"}},"type":"Feature"},
	{"geometry":{"coordinates":[8.589952,49.46956],"type":"Point"},"properties":{"osm_id":"1831777080","tag":{"amenity":"recycling","recycling:clothes":"yes","recycling_type":"container","source:position":"Bing 2012"}},"type":"Feature"},
	{"geometry":{"coordinates":[8.574143,49.44385],"type":"Point"},"properties":{"osm_id":"1837377010","tag":{"amenity":"recycling","recycling:clothes":"yes","recycling:glass":"yes"}},"type":"Feature"},
	{"geometry":{"coordinates":[8.583861,49.441506],"type":"Point"},"properties":{"osm_id":"1843728340","tag":{"amenity":"recycling","recycling:clothes":"yes","recycling:glass_bottles":"yes","recycling:shoes":"yes","recycling_type":"container"}},"type":"Feature"},
	{"geometry":{"coordinates":[8.57538,49.442055],"type":"Point"},"properties":{"osm_id":"1844356885","tag":{"amenity":"recycling","recycling:clothes":"yes","recycling:glass":"yes"}},"type":"Feature"},
	{"geometry":{"coordinates":[8.60902,49.450825],"type":"Point"},"properties":{"osm_id":"1845764196","tag":{"amenity":"recycling","recycling:clothes":"yes"}},"type":"Feature"},
	{"geometry":{"coordinates":[8.549812,49.470428],"type":"Point"},"properties":{"osm_id":"1924112698","tag":{"amenity":"recycling","recycling:batteries":"no","recycling:clothes":"yes","recycling:glass":"yes","recycling:small_appliances":"no","recycling_type":"container"}},"type":"Feature"},
	{"geometry":{"coordinates":[8.555003,49.471489],"type":"Point"},"properties":{"osm_id":"1930278593","tag":{"amenity":"recycling","recycling:cans":"no","recycling:clothes":"yes","recycling:glass":"yes","recycling_type":"container"}},"type":"Feature"},
	{"geometry":{"coordinates":[8.550933,49.462667],"type":"Point"},"properties":{"osm_id":"1947498123","tag":{"amenity":"recycling","recycling:clothes":"yes","recycling:glass":"yes","recycling_type":"container"}},"type":"Feature"},
	{"geometry":{"coordinates":[8.551473,49.465563],"type":"Point"},"properties":{"osm_id":"1947498301","tag":{"amenity":"recycling","recycling:clothes":"yes","recycling:glass":"yes","recycling_type":"container"}},"type":"Feature"},
	{"geometry":{"coordinates":[8.604885,49.446503],"type":"Point"},"properties":{"osm_id":"3152018858","tag":{"amenity":"waste_basket"}},"type":"Feature"},
	{"geometry":{"coordinates":[8.604719,49.446603],"type":"Point"},"properties":{"osm_id":"3152019263","tag":{"amenity":"waste_basket"}},"type":"Feature"},
	{"geometry":{"coordinates":[8.603983,49.447173],"type":"Point"},"properties":{"osm_id":"3152019303","tag":{"amenity":"waste_basket"}},"type":"Feature"},
	{"geometry":{"coordinates":[8.603697,49.447336],"type":"Point"},"properties":{"osm_id":"3152019322","tag":{"amenity":"waste_basket"}},"type":"Feature"},
	{"geometry":{"coordinates":[8.604369,49.463773],"type":"Point"},"properties":{"osm_id":"4256153124","tag":{"amenity":"waste_basket"}},"type":"Feature"},
	{"geometry":{"coordinates":[8.607986,49.461579],"type":"Point"},"properties":{"osm_id":"4263589703","tag":{"amenity":"waste_basket"}},"type":"Feature"},
	{"geometry":{"coordinates":[8.611636,49.458674],"type":"Point"},"properties":{"osm_id":"4263594775","tag":{"amenity":"waste_basket"}},"type":"Feature"},
	{"geometry":{"coordinates":[8.604473,49.462958],"type":"Point"},"properties":{"osm_id":"4265355416","tag":{"amenity":"waste_basket","source:position":"Bing 2012"}},"type":"Feature"},
	{"geometry":{"coordinates":[8.604129,49.463405],"type":"Point"},"properties":{"osm_id":"4265355420","tag":{"amenity":"waste_basket"}},"type":"Feature"},
	{"geometry":{"coordinates":[8.60425,49.46366],"type":"Point"},"properties":{"osm_id":"4265355424","tag":{"amenity":"waste_basket"}},"type":"Feature"},
	{"geometry":{"coordinates":[8.602825,49.466569],"type":"Point"},"properties":{"osm_id":"4265355426","tag":{"amenity":"waste_basket","source:position":"Bing 2012"}},"type":"Feature"},
	{"geometry":{"coordinates":[8.602697,49.466807],"type":"Point"},"properties":{"osm_id":"4265355427","tag":{"amenity":"waste_basket","source:position":"Bing 2012"}},"type":"Feature"},
	{"geometry":{"coordinates":[8.602264,49.467623],"type":"Point"},"properties":{"osm_id":"4265355428","tag":{"amenity":"waste_basket","source:position":"Bing 2012"}},"type":"Feature"},
	{"geometry":{"coordinates":[8.601884,49.468372],"type":"Point"},"properties":{"osm_id":"4265355429","tag":{"amenity":"waste_basket","source:position":"Bing 2012"}},"type":"Feature"},
	{"geometry":{"coordinates":[8.601087,49.469301],"type":"Point"},"properties":{"osm_id":"4265355430","tag":{"amenity":"waste_basket","source:position":"Bing 2012"}},"type":"Feature"},
	{"geometry":{"coordinates":[8.606333,49.464174],"type":"Point"},"properties":{"osm_id":"4265355503","tag":{"amenity":"waste_basket"}},"type":"Feature"},
	{"geometry":{"coordinates":[8.602763,49.465637],"type":"Point"},"properties":{"osm_id":"4265355508","tag":{"amenity":"waste_basket"}},"type":"Feature"},
	{"geometry":{"coordinates":[8.546416,49.476262],"type":"Point"},"properties":{"osm_id":"4523656011","tag":{"amenity":"waste_basket"}},"type":"Feature"},
	{"geometry":{"coordinates":[8.559571,49.472255],"type":"Point"},"properties":{"osm_id":"4523656013","tag":{"amenity":"waste_basket"}},"type":"Feature"},
	{"geometry":{"coordinates":[8.562149,49.470347],"type":"Point"},"properties":{"osm_id":"4523656020","tag":{"amenity":"waste_basket"}},"type":"Feature"},
	{"geometry":{"coordinates":[8.603437,49.471294],"type":"Point"},"properties":{"osm_id":"4523656024","tag":{"amenity":"waste_basket"}},"type":"Feature"},
	{"geometry":{"coordinates":[8.563233,49.468798],"type":"Point"},"properties":{"osm_id":"4523656110","tag":{"amenity":"waste_basket"}},"type":"Feature"},
	{"geometry":{"coordinates":[8.564074,49.467847],"type":"Point"},"properties":{"osm_id":"4523656113","tag":{"amenity":"waste_basket"}},"type":"Feature"},
	{"geometry":{"coordinates":[8.609001,49.471029],"type":"Point"},"properties":{"osm_id":"4538643583","tag":{"amenity":"waste_basket"}},"type":"Feature"},
	{"geometry":{"coordinates":[8.606162,49.470858],"type":"Point"},"properties":{"osm_id":"4538643600","tag":{"amenity":"waste_basket"}},"type":"Feature"},
	{"geometry":{"coordinates":[8.604182,49.470743],"type":"Point"},"properties":{"osm_id":"4538643610","tag":{"amenity":"waste_basket"}},"type":"Feature"},
	{"geometry":{"coordinates":[8.543832,49.488654],"type":"Point"},"properties":{"osm_id":"4794225871","tag":{"amenity":"waste_basket"}},"type":"Feature"},
	{"geometry":{"coordinates":[8.539026,49.448109],"type":"Point"},"properties":{"osm_id":"5615074569","tag":{"amenity":"waste_basket"}},"type":"Feature"},
	{"geometry":{"coordinates":[8.574618,49.439899],"type":"Point"},"properties":{"osm_id":"6815195074","tag":{"amenity":"waste_basket","mounting":"pole","waste":"trash"}},"type":"Feature"},
	{"geometry":{"coordinates":[8.568046,49.469264],"type":"Point"},"properties":{"osm_id":"6919695212","tag":{"amenity":"waste_basket","waste":"trash"}},"type":"Feature"}
]
}
