{
"type": "FeatureCollection",
"features": [
	{"geometry":{"coordinates":[8.575514,49.380099],"type":"Point"},"properties":{"osm_id":"260768714","tag":{"amenity":"recycling","location":"overground","recycling_type":"container"}},"type":"Feature"},
	{"geometry":{"coordinates":[8.589242,49.359367],"type":"Point"},"properties":{"osm_id":"2960233016","tag":{"amenity":"waste_basket"}},"type":"Feature"},
	{"geometry":{"coordinates":[8.578645,49.372993],"type":"Point"},"properties":{"osm_id":"3061292327","tag":{"amenity":"waste_basket"}},"type":"Feature"},
	{"geometry":{"coordinates":[8.57878,49.373182],"type":"Point"},"properties":{"osm_id":"3061295641","tag":{"amenity":"waste_basket"}},"type":"Feature"},
	{"geometry":{"coordinates":[8.53198,49.368953],"type":"Point"},"properties":{"osm_id":"3330485446","tag":{"amenity":"recycling","recycling:clothes":"yes","recycling_type":"container"}},"type":"Feature"},
	{"geometry":{"coordinates":[8.579059,49.373299],"type":"Point"},"properties":{"osm_id":"4569903790","tag":{"amenity":"waste_basket"}},"type":"Feature"},
	{"geometry":{"coordinates":[8.59592,49.37321],"type":"Point"},"properties":{"osm_id":"5106856244","tag":{"amenity":"waste_basket"}},"type":"Feature"},
	{"geometry":{"coordinates":[8.558803,49.377789],"type":"Point"},"properties":{"osm_id":"6510531765","tag":{"amenity":"waste_basket"}},"type":"Feature"},
	{"geometry":{"coordinates":[8.558165,49.378118],"type":"Point"},"properties":{"osm_id":"6510531766","tag":{"amenity":"waste_basket"}},"type":"Feature"},
	{"geometry":{"coordinates":[8.58077,49.368975],"type":"Point"},"properties":{"osm_id":"6790723483","tag":{"amenity":"waste_basket"}},"type":"Feature"},
	{"geometry":{"coordinates":[8.586108,49.360314],"type":"Point"},"properties":{"osm_id":"7801007625","tag":{"amenity":"waste_basket"}},"type":"Feature"},
	{"geometry":{"coordinates":[8.586951,49.361185],"type":"Point"},"properties":{"osm_id":"7801009118","tag":{"amenity":"waste_basket"}},"type":"Feature"},
	{"geometry":{"coordinates":[8.546437,49.381518],"type":"Point"},"properties":{"osm_id":"7937862845","tag":{"amenity":"waste_basket","material":"metal","waste":"trash"}},"type":"Feature"},
	{"geometry":{"coordinates":[8.548881,49.381163],"type":"Point"},"properties":{"osm_id":"7937862846","tag":{"amenity":"waste_basket","material":"metal"}},"type":"Feature"},
	{"geometry":{"coordinates":[8.55109,49.381517],"type":"Point"},"properties":{"osm_id":"7937862848","tag":{"amenity":"waste_basket","material":"metal"}},"type":"Feature"},
	{"geometry":{"coordinates":[8.555538,49.382046],"type":"Point"},"properties":{"osm_id":"7937862849","tag":{"amenity":"waste_basket"}},"type":"Feature"},
	{"geometry":{"coordinates":[8.559077,49.382245],"type":"Point"},"properties":{"osm_id":"7937862851","tag":{"amenity":"waste_basket"}},"type":"Feature"},
	{"geometry":{"coordinates":[8.559764,49.380748],"type":"Point"},"properties":{"osm_id":"7937862853","tag":{"amenity":"waste_basket"}},"type":"Feature"}
]
}
