{
"type": "FeatureCollection",
"features": [
	{"geometry":{"coordinates":[8.557013,49.291258],"type":"Point"},"properties":{"osm_id":"312265540","tag":{"amenity":"recycling"}},"type":"Feature"},
	{"geometry":{"coordinates":[8.585085,49.282682],"type":"Point"},"properties":{"osm_id":"889269570","tag":{"amenity":"waste_basket","tourism":"picnic_site"}},"type":"Feature"},
	{"geometry":{"coordinates":[8.536272,49.303235],"type":"Point"},"properties":{"osm_id":"2700261073","tag":{"amenity":"waste_basket"}},"type":"Feature"},
	{"geometry":{"coordinates":[8.529354,49.292359],"type":"Point"},"properties":{"osm_id":"3378148209","tag":{"amenity":"recycling","operator":"D\u00c3\u00a4sa Wiederverwertungs GmbH","recycling:batteries":"no","recycling:cans":"no","recycling:clothes":"yes","recycling:glass_bottles":"no","recycling:paper":"no","recycling:scrap_metal":"no","recycling:shoes":"yes","recycling_type":"container"}},"type":"Feature"},
	{"geometry":{"coordinates":[8.537287,49.316947],"type":"Point"},"properties":{"osm_id":"3667280680","tag":{"amenity":"waste_basket","level":"-1"}},"type":"Feature"},
	{"geometry":{"coordinates":[8.537135,49.317089],"type":"Point"},"properties":{"osm_id":"3667280688","tag":{"amenity":"waste_basket","level":"-1"}},"type":"Feature"},
	{"geometry":{"coordinates":[8.537421,49.317199],"type":"Point"},"properties":{"osm_id":"3667280703","tag":{"amenity":"waste_basket","level":"-1"}},"type":"Feature"},
	{"geometry":{"coordinates":[8.537467,49.317309],"type":"Point"},"properties":{"osm_id":"3667280716","tag":{"amenity":"waste_basket"}},"type":"Feature"},
	{"geometry":{"coordinates":[8.537717,49.317887],"type":"Point"},"properties":{"osm_id":"3667281043","tag":{"amenity":"waste_basket","level":"-1"}},"type":"Feature"},
	{"geometry":{"coordinates":[8.537459,49.31792],"type":"Point"},"properties":{"osm_id":"3667281047","tag":{"amenity":"waste_basket"}},"type":"Feature"},
	{"geometry":{"coordinates":[8.530211,49.291919],"type":"Point"},"properties":{"osm_id":"3924325590","tag":{"amenity":"waste_basket","layer":"2"}},"type":"Feature"},
	{"geometry":{"coordinates":[8.530162,49.291938],"type":"Point"},"properties":{"osm_id":"3924325591","tag":{"amenity":"waste_basket","layer":"2"}},"type":"Feature"},
	{"geometry":{"coordinates":[8.581777,49.296043],"type":"Point"},"properties":{"osm_id":"5116244312","tag":{"amenity":"recycling","recycling:green_waste":"yes","recycling_type":"container"}},"type":"Feature"},
	{"geometry":{"coordinates":[8.581189,49.296737],"type":"Point"},"properties":{"osm_id":"5116244313","tag":{"amenity":"recycling","recycling:green_waste":"yes","recycling_type":"container"}},"type":"Feature"},
	{"geometry":{"coordinates":[8.581577,49.296296],"type":"Point"},"properties":{"osm_id":"5116244314","tag":{"amenity":"recycling","recycling:green_waste":"yes","recycling_type":"container"}},"type":"Feature"},
	{"geometry":{"coordinates":[8.581955,49.296537],"type":"Point"},"properties":{"osm_id":"5116244315","tag":{"amenity":"recycling","recycling:green_waste":"yes","recycling_type":"container"}},"type":"Feature"},
	{"geometry":{"coordinates":[8.582821,49.295481],"type":"Point"},"properties":{"osm_id":"5116244316","tag":{"amenity":"recycling","recycling:green_waste":"yes","recycling_type":"container"}},"type":"Feature"},
	{"geometry":{"coordinates":[8.583111,49.295103],"type":"Point"},"properties":{"osm_id":"5116244317","tag":{"amenity":"recycling","recycling:green_waste":"yes","recycling_type":"container"}},"type":"Feature"},
	{"geometry":{"coordinates":[8.582308,49.295435],"type":"Point"},"properties":{"osm_id":"5116244318","tag":{"amenity":"recycling","recycling:green_waste":"yes","recycling_type":"container"}},"type":"Feature"},
	{"geometry":{"coordinates":[8.582806,49.294966],"type":"Point"},"properties":{"osm_id":"5116244626","tag":{"amenity":"recycling","recycling:green_waste":"yes","recycling_type":"container"}},"type":"Feature"},
	{"geometry":{"coordinates":[8.581522,49.296792],"type":"Point"},"properties":{"osm_id":"5116259444","tag":{"amenity":"recycling","recycling:green_waste":"yes","recycling_type":"container"}},"type":"Feature"},
	{"geometry":{"coordinates":[8.571536,49.30046],"type":"Point"},"properties":{"name":"Zentrale Sammelstelle f\u00c3\u00bcr Gr\u00c3\u00bcnschnitt und Hebewerke","osm_id":"5165216461","tag":{"amenity":"recycling","recycling:garden_waste":"yes","recycling_type":"centre"}},"type":"Feature"},
	{"geometry":{"coordinates":[8.558037,49.315405],"type":"Point"},"properties":{"osm_id":"6813960425","tag":{"amenity":"waste_basket","waste":"trash"}},"type":"Feature"},
	{"geometry":{"coordinates":[8.558472,49.31524],"type":"Point"},"properties":{"osm_id":"6813960431","tag":{"amenity":"waste_basket","waste":"trash"}},"type":"Feature"},
	{"geometry":{"coordinates":[8.564911,49.316122],"type":"Point"},"properties":{"osm_id":"6813960433","tag":{"amenity":"recycling","recycling:clothes":"yes","recycling_type":"container"}},"type":"Feature"},
	{"geometry":{"coordinates":[8.565779,49.318266],"type":"Point"},"properties":{"osm_id":"6813960434","tag":{"amenity":"waste_basket","waste":"trash"}},"type":"Feature"},
	{"geometry":{"coordinates":[8.568983,49.318275],"type":"Point"},"properties":{"osm_id":"6813960435","tag":{"amenity":"waste_basket","waste":"trash"}},"type":"Feature"},
	{"geometry":{"coordinates":[8.566205,49.316299],"type":"Point"},"properties":{"osm_id":"6813960436","tag":{"amenity":"waste_basket","waste":"trash"}},"type":"Feature"},
	{"geometry":{"coordinates":[8.571406,49.311026],"type":"Point"},"properties":{"osm_id":"6813960437","tag":{"amenity":"waste_basket","waste":"trash"}},"type":"Feature"},
	{"geometry":{"coordinates":[8.572053,49.313524],"type":"Point"},"properties":{"osm_id":"6813960438","tag":{"amenity":"waste_basket","waste":"trash"}},"type":"Feature"},
	{"geometry":{"coordinates":[8.568693,49.314918],"type":"Point"},"properties":{"osm_id":"6813960439","tag":{"amenity":"waste_basket","waste":"trash"}},"type":"Feature"},
	{"geometry":{"coordinates":[8.568925,49.314869],"type":"Point"},"properties":{"osm_id":"6813960440","tag":{"amenity":"waste_basket","waste":"trash"}},"type":"Feature"},
	{"geometry":{"coordinates":[8.565932,49.315726],"type":"Point"},"properties":{"osm_id":"6813960441","tag":{"amenity":"waste_basket","waste":"dog_excrement"}},"type":"Feature"},
	{"geometry":{"coordinates":[8.563869,49.313365],"type":"Point"},"properties":{"osm_id":"6813960442","tag":{"amenity":"waste_basket","waste":"dog_excrement"}},"type":"Feature"},
	{"geometry":{"coordinates":[8.562512,49.313547],"type":"Point"},"properties":{"osm_id":"6813960443","tag":{"amenity":"waste_basket","waste":"trash"}},"type":"Feature"},
	{"geometry":{"coordinates":[8.562226,49.313711],"type":"Point"},"properties":{"osm_id":"6813960444","tag":{"amenity":"waste_basket","waste":"trash"}},"type":"Feature"},
	{"geometry":{"coordinates":[8.56113,49.314084],"type":"Point"},"properties":{"osm_id":"6813960449","tag":{"amenity":"waste_basket","waste":"trash"}},"type":"Feature"},
	{"geometry":{"coordinates":[8.561048,49.314122],"type":"Point"},"properties":{"osm_id":"6813960456","tag":{"amenity":"waste_basket","waste":"trash"}},"type":"Feature"},
	{"geometry":{"coordinates":[8.560196,49.322594],"type":"Point"},"properties":{"osm_id":"6813960457","tag":{"amenity":"waste_basket","waste":"trash"}},"type":"Feature"},
	{"geometry":{"coordinates":[8.561551,49.321296],"type":"Point"},"properties":{"osm_id":"6813960459","tag":{"amenity":"waste_basket","waste":"trash"}},"type":"Feature"},
	{"geometry":{"coordinates":[8.560662,49.319982],"type":"Point"},"properties":{"osm_id":"6813960460","tag":{"amenity":"waste_basket","waste":"dog_excrement"}},"type":"Feature"},
	{"geometry":{"coordinates":[8.560464,49.319989],"type":"Point"},"properties":{"osm_id":"6813960462","tag":{"amenity":"waste_basket","waste":"trash"}},"type":"Feature"},
	{"geometry":{"coordinates":[8.562147,49.320363],"type":"Point"},"properties":{"osm_id":"6813960464","tag":{"amenity":"waste_basket","waste":"trash"}},"type":"Feature"},
	{"geometry":{"coordinates":[8.563426,49.319481],"type":"Point"},"properties":{"osm_id":"6813960466","tag":{"amenity":"waste_basket","waste":"trash"}},"type":"Feature"},
	{"geometry":{"coordinates":[8.563652,49.319131],"type":"Point"},"properties":{"osm_id":"6813960468","tag":{"amenity":"waste_basket","waste":"trash"}},"type":"Feature"},
	{"geometry":{"coordinates":[8.563167,49.318706],"type":"Point"},"properties":{"osm_id":"6813960469","tag":{"amenity":"waste_basket","waste":"trash"}},"type":"Feature"},
	{"geometry":{"coordinates":[8.561028,49.316868],"type":"Point"},"properties":{"osm_id":"6813960473","tag":{"amenity":"recycling","recycling:clothes":"yes","recycling:shoes":"yes","recycling_type":"container"}},"type":"Feature"},
	{"geometry":{"coordinates":[8.560319,49.316581],"type":"Point"},"properties":{"osm_id":"6813960474","tag":{"amenity":"waste_basket","waste":"trash"}},"type":"Feature"},
	{"geometry":{"coordinates":[8.565054,49.316023],"type":"Point"},"properties":{"osm_id":"6815440727","tag":{"amenity":"waste_basket","waste":"trash"}},"type":"Feature"},
	{"geometry":{"coordinates":[8.563642,49.315426],"type":"Point"},"properties":{"osm_id":"6815440728","tag":{"amenity":"waste_basket","waste":"trash"}},"type":"Feature"},
	{"geometry":{"coordinates":[8.562672,49.314069],"type":"Point"},"properties":{"osm_id":"6815440729","tag":{"amenity":"waste_basket","waste":"trash"}},"type":"Feature"},
	{"geometry":{"coordinates":[8.554621,49.312844],"type":"Point"},"properties":{"osm_id":"6815440730","tag":{"amenity":"waste_basket","waste":"trash"}},"type":"Feature"},
	{"geometry":{"coordinates":[8.554886,49.312826],"type":"Point"},"properties":{"osm_id":"6815440733","tag":{"amenity":"waste_basket","waste":"trash"}},"type":"Feature"},
	{"geometry":{"coordinates":[8.555009,49.312908],"type":"Point"},"properties":{"osm_id":"6815440734","tag":{"amenity":"waste_basket","waste":"trash"}},"type":"Feature"},
	{"geometry":{"coordinates":[8.557814,49.311886],"type":"Point"},"properties":{"osm_id":"6815440735","tag":{"amenity":"waste_basket","waste":"trash"}},"type":"Feature"},
	{"geometry":{"coordinates":[8.557331,49.31166],"type":"Point"},"properties":{"osm_id":"6815440736","tag":{"amenity":"waste_basket","waste":"trash"}},"type":"Feature"},
	{"geometry":{"coordinates":[8.556756,49.312871],"type":"Point"},"properties":{"osm_id":"6815440737","tag":{"amenity":"recycling","recycling:clothes":"yes","recycling:shoes":"yes","recycling_type":"container"}},"type":"Feature"},
	{"geometry":{"coordinates":[8.557268,49.311744],"type":"Point"},"properties":{"osm_id":"6815440738","tag":{"amenity":"recycling","recycling:clothes":"yes","recycling:shoes":"yes","recycling_type":"container"}},"type":"Feature"},
	{"geometry":{"coordinates":[8.557672,49.311705],"type":"Point"},"properties":{"osm_id":"6815440739","tag":{"amenity":"recycling","recycling:clothes":"yes","recycling:shoes":"yes","recycling_type":"container"}},"type":"Feature"},
	{"geometry":{"coordinates":[8.55855,49.311229],"type":"Point"},"properties":{"osm_id":"6815440740","tag":{"amenity":"recycling","recycling:clothes":"yes","recycling:shoes":"yes","recycling_type":"container"}},"type":"Feature"},
	{"geometry":{"coordinates":[8.560011,49.310592],"type":"Point"},"properties":{"osm_id":"6815440741","tag":{"amenity":"recycling","recycling:clothes":"yes","recycling:shoes":"yes","recycling_type":"container"}},"type":"Feature"},
	{"geometry":{"coordinates":[8.56289,49.310364],"type":"Point"},"properties":{"osm_id":"6815440742","tag":{"amenity":"waste_basket","waste":"trash"}},"type":"Feature"},
	{"geometry":{"coordinates":[8.537483,49.317368],"type":"Point"},"properties":{"osm_id":"7620364587","tag":{"amenity":"waste_basket","level":"-1","waste":"trash"}},"type":"Feature"}
]
}
