{
"type": "FeatureCollection",
"features": [
	{"geometry":{"coordinates":[8.598757,49.119448],"type":"Point"},"properties":{"osm_id":"256002909","tag":{"amenity":"recycling","recycling:clothes":"yes","recycling:glass":"yes","recycling:glass_bottles":"yes"}},"type":"Feature"},
	{"geometry":{"coordinates":[8.593457,49.124802],"type":"Point"},"properties":{"osm_id":"281704328","tag":{"amenity":"recycling","recycling:glass":"yes","recycling_type":"container"}},"type":"Feature"},
	{"geometry":{"coordinates":[8.537788,49.136245],"type":"Point"},"properties":{"osm_id":"286436781","tag":{"amenity":"recycling","recycling:clothes":"yes","recycling:glass_bottles":"yes","recycling:shoes":"yes","recycling_type":"container"}},"type":"Feature"},
	{"geometry":{"coordinates":[8.588622,49.13257],"type":"Point"},"properties":{"osm_id":"286541373","tag":{"amenity":"recycling","recycling:glass":"yes","recycling_type":"container"}},"type":"Feature"},
	{"geometry":{"coordinates":[8.529111,49.097516],"type":"Point"},"properties":{"osm_id":"291204287","tag":{"amenity":"recycling","recycling:glass":"yes","recycling_type":"container"}},"type":"Feature"},
	{"geometry":{"coordinates":[8.5313,49.104739],"type":"Point"},"properties":{"osm_id":"295145083","tag":{"amenity":"recycling","recycling:clothes":"yes","recycling:glass":"yes","recycling:shoes":"yes"}},"type":"Feature"},
	{"geometry":{"coordinates":[8.600432,49.118275],"type":"Point"},"properties":{"osm_id":"295803917","tag":{"amenity":"recycling","recycling:clothes":"yes","recycling:glass_bottles":"yes","recycling_type":"container"}},"type":"Feature"},
	{"geometry":{"coordinates":[8.574468,49.115155],"type":"Point"},"properties":{"osm_id":"299442733","tag":{"amenity":"recycling","recycling:glass":"yes"}},"type":"Feature"},
	{"geometry":{"coordinates":[8.607489,49.123302],"type":"Point"},"properties":{"osm_id":"302334295","tag":{"amenity":"recycling"}},"type":"Feature"},
	{"geometry":{"coordinates":[8.596998,49.132393],"type":"Point"},"properties":{"osm_id":"344441732","tag":{"amenity":"recycling","recycling:clothes":"yes","recycling_type":"container"}},"type":"Feature"},
	{"geometry":{"coordinates":[8.581982,49.120016],"type":"Point"},"properties":{"osm_id":"370595236","tag":{"amenity":"recycling","recycling:batteries":"yes","recycling:cans":"yes","recycling:clothes":"yes","recycling:glass":"yes","recycling:paper":"yes","recycling:scrap_metal":"yes"}},"type":"Feature"},
	{"geometry":{"coordinates":[8.593529,49.143448],"type":"Point"},"properties":{"osm_id":"372824043","tag":{"amenity":"recycling","recycling_type":"centre"}},"type":"Feature"},
	{"geometry":{"coordinates":[8.601299,49.124544],"type":"Point"},"properties":{"osm_id":"471225220","tag":{"amenity":"recycling","recycling:batteries":"no","recycling:cans":"no","recycling:clothes":"no","recycling:glass":"yes","recycling:paper":"no","recycling:scrap_metal":"no","recycling_type":"container"}},"type":"Feature"},
	{"geometry":{"coordinates":[8.584785,49.130167],"type":"Point"},"properties":{"osm_id":"553501217","tag":{"amenity":"recycling","recycling:clothes":"yes","recycling:glass":"yes","recycling_type":"container"}},"type":"Feature"},
	{"geometry":{"coordinates":[8.590363,49.123772],"type":"Point"},"properties":{"osm_id":"595586338","tag":{"amenity":"recycling","recycling:batteries":"no","recycling:cans":"no","recycling:clothes":"no","recycling:glass":"yes","recycling:paper":"no","recycling:scrap_metal":"no","recycling_type":"container"}},"type":"Feature"},
	{"geometry":{"coordinates":[8.565407,49.138752],"type":"Point"},"properties":{"osm_id":"604971753","tag":{"amenity":"waste_basket"}},"type":"Feature"},
	{"geometry":{"coordinates":[8.608116,49.134362],"type":"Point"},"properties":{"osm_id":"606354495","tag":{"amenity":"recycling","recycling:cans":"no","recycling:clothes":"no","recycling:glass":"yes","recycling:paper":"no"}},"type":"Feature"},
	{"geometry":{"coordinates":[8.588109,49.120566],"type":"Point"},"properties":{"osm_id":"632797001","tag":{"amenity":"recycling","recycling:batteries":"no","recycling:cans":"no","recycling:clothes":"yes","recycling:glass":"yes","recycling:paper":"no","recycling:scrap_metal":"no"}},"type":"Feature"},
	{"geometry":{"coordinates":[8.602118,49.125833],"type":"Point"},"properties":{"osm_id":"649212017","tag":{"amenity":"recycling","recycling:glass":"yes","recycling_type":"container"}},"type":"Feature"},
	{"geometry":{"coordinates":[8.584286,49.112585],"type":"Point"},"properties":{"osm_id":"726180268","tag":{"amenity":"recycling","recycling:glass":"yes"}},"type":"Feature"},
	{"geometry":{"coordinates":[8.55898,49.141431],"type":"Point"},"properties":{"man_made":"GfA","name":"Gesellschaft f\u00c3\u00bcr Abfallwirtschaft (GfA)","osm_id":"733869429","tag":{"amenity":"recycling","recycling_type":"centre"}},"type":"Feature"},
	{"geometry":{"coordinates":[8.585112,49.116808],"type":"Point"},"properties":{"osm_id":"1258363683","tag":{"amenity":"recycling","recycling:clothes":"yes","recycling:glass":"yes"}},"type":"Feature"},
	{"geometry":{"coordinates":[8.59956,49.129534],"type":"Point"},"properties":{"osm_id":"1637574088","tag":{"amenity":"recycling"}},"type":"Feature"},
	{"geometry":{"coordinates":[8.598098,49.114196],"type":"Point"},"properties":{"osm_id":"2721270728","tag":{"amenity":"recycling","recycling:glass_bottles":"yes","recycling_type":"container"}},"type":"Feature"},
	{"geometry":{"coordinates":[8.591606,49.116476],"type":"Point"},"properties":{"osm_id":"2721284231","tag":{"amenity":"recycling","recycling:glass_bottles":"yes","recycling_type":"container"}},"type":"Feature"},
	{"geometry":{"coordinates":[8.590821,49.116838],"type":"Point"},"properties":{"osm_id":"2734082462","tag":{"amenity":"recycling","recycling:glass_bottles":"yes","recycling_type":"container"}},"type":"Feature"},
	{"geometry":{"coordinates":[8.599837,49.122535],"type":"Point"},"properties":{"osm_id":"2913198760","tag":{"amenity":"recycling","recycling:glass":"yes","recycling_type":"container"}},"type":"Feature"},
	{"geometry":{"coordinates":[8.597241,49.122574],"type":"Point"},"properties":{"osm_id":"2913198761","tag":{"amenity":"recycling","recycling:glass":"yes","recycling_type":"container"}},"type":"Feature"},
	{"geometry":{"coordinates":[8.574687,49.119427],"type":"Point"},"properties":{"osm_id":"3261846963","tag":{"amenity":"recycling","recycling:glass":"yes","recycling:glass_bottles":"yes"}},"type":"Feature"},
	{"geometry":{"coordinates":[8.604168,49.135456],"type":"Point"},"properties":{"osm_id":"3412463208","tag":{"amenity":"recycling","recycling:cans":"no","recycling:clothes":"yes","recycling:glass":"no","recycling:paper":"no"}},"type":"Feature"},
	{"geometry":{"coordinates":[8.54756,49.10011],"type":"Point"},"properties":{"osm_id":"3474070786","tag":{"amenity":"waste_basket"}},"type":"Feature"},
	{"geometry":{"coordinates":[8.595305,49.128971],"type":"Point"},"properties":{"osm_id":"3508406408","tag":{"amenity":"waste_basket"}},"type":"Feature"},
	{"geometry":{"coordinates":[8.59528,49.12901],"type":"Point"},"properties":{"osm_id":"3508406409","tag":{"amenity":"waste_basket"}},"type":"Feature"},
	{"geometry":{"coordinates":[8.608367,49.104917],"type":"Point"},"properties":{"osm_id":"3992980311","tag":{"amenity":"recycling","recycling:glass":"yes","recycling_type":"container"}},"type":"Feature"},
	{"geometry":{"coordinates":[8.561454,49.138824],"type":"Point"},"properties":{"osm_id":"4387176891","tag":{"amenity":"recycling","lastcheck":"2016-09-06","recycling:glass":"yes","recycling_type":"container"}},"type":"Feature"},
	{"geometry":{"coordinates":[8.56147,49.138848],"type":"Point"},"properties":{"osm_id":"4387176892","tag":{"amenity":"recycling","capacity":"1","lastcheck":"2016-09-06","operator":"Tafel Bruchsal","recycling:clothes":"yes","recycling_type":"container"}},"type":"Feature"},
	{"geometry":{"coordinates":[8.55257,49.140802],"type":"Point"},"properties":{"osm_id":"4387176902","tag":{"amenity":"recycling","capacity":"1","lastcheck":"2016-09-06","operator":"D\u00c3\u00a4sa Wiederverwertungs GmbH","recycling:clothes":"yes","recycling_type":"container"}},"type":"Feature"},
	{"geometry":{"coordinates":[8.553014,49.141087],"type":"Point"},"properties":{"osm_id":"4387176909","tag":{"amenity":"recycling","capacity":"1","lastcheck":"2016-09-06","operator":"CityGreenPoint","recycling:clothes":"yes","recycling_type":"container"}},"type":"Feature"},
	{"geometry":{"coordinates":[8.537681,49.136251],"type":"Point"},"properties":{"osm_id":"4389500165","tag":{"amenity":"recycling","capacity":"2","lastcheck":"2016-09-07","operator":"Sehbehinderten Selbsthilfe Kurpfalz-Odenwald e.V.","recycling:clothes":"yes","recycling_type":"container"}},"type":"Feature"},
	{"geometry":{"coordinates":[8.537733,49.136247],"type":"Point"},"properties":{"osm_id":"4389500166","tag":{"amenity":"recycling","capacity":"3","lastcheck":"2016-09-07","operator":"Deutsches Rotes Kreuz","recycling:clothes":"yes","recycling:glass":"yes","recycling_type":"container"}},"type":"Feature"},
	{"geometry":{"coordinates":[8.532764,49.123675],"type":"Point"},"properties":{"osm_id":"4403209416","tag":{"amenity":"waste_basket"}},"type":"Feature"},
	{"geometry":{"coordinates":[8.537147,49.125099],"type":"Point"},"properties":{"osm_id":"4403209417","tag":{"amenity":"waste_basket"}},"type":"Feature"},
	{"geometry":{"coordinates":[8.568653,49.11611],"type":"Point"},"properties":{"osm_id":"4413669623","tag":{"amenity":"recycling","recycling:clothes":"yes","recycling:glass_bottles":"yes","recycling_type":"container","wheelchair":"yes"}},"type":"Feature"},
	{"geometry":{"coordinates":[8.571844,49.111143],"type":"Point"},"properties":{"osm_id":"4413677079","tag":{"amenity":"waste_basket"}},"type":"Feature"},
	{"geometry":{"coordinates":[8.57192,49.111676],"type":"Point"},"properties":{"osm_id":"4413677080","tag":{"amenity":"waste_basket"}},"type":"Feature"},
	{"geometry":{"coordinates":[8.571696,49.111756],"type":"Point"},"properties":{"osm_id":"4413677082","tag":{"amenity":"waste_basket"}},"type":"Feature"},
	{"geometry":{"coordinates":[8.572186,49.111788],"type":"Point"},"properties":{"osm_id":"4413677084","tag":{"amenity":"waste_basket"}},"type":"Feature"},
	{"geometry":{"coordinates":[8.572372,49.111865],"type":"Point"},"properties":{"osm_id":"4413677088","tag":{"amenity":"waste_basket"}},"type":"Feature"},
	{"geometry":{"coordinates":[8.571957,49.111866],"type":"Point"},"properties":{"osm_id":"4413678089","tag":{"amenity":"waste_basket"}},"type":"Feature"},
	{"geometry":{"coordinates":[8.571679,49.11194],"type":"Point"},"properties":{"osm_id":"4413678091","tag":{"amenity":"waste_basket"}},"type":"Feature"},
	{"geometry":{"coordinates":[8.571226,49.111961],"type":"Point"},"properties":{"osm_id":"4413678093","tag":{"amenity":"waste_basket"}},"type":"Feature"},
	{"geometry":{"coordinates":[8.572207,49.111967],"type":"Point"},"properties":{"osm_id":"4413678095","tag":{"amenity":"waste_basket"}},"type":"Feature"},
	{"geometry":{"coordinates":[8.571919,49.112035],"type":"Point"},"properties":{"osm_id":"4413678098","tag":{"amenity":"waste_basket"}},"type":"Feature"},
	{"geometry":{"coordinates":[8.57212,49.112122],"type":"Point"},"properties":{"osm_id":"4413678103","tag":{"amenity":"waste_basket"}},"type":"Feature"},
	{"geometry":{"coordinates":[8.571679,49.112129],"type":"Point"},"properties":{"osm_id":"4413678104","tag":{"amenity":"waste_basket"}},"type":"Feature"},
	{"geometry":{"coordinates":[8.571954,49.112226],"type":"Point"},"properties":{"osm_id":"4413678108","tag":{"amenity":"waste_basket"}},"type":"Feature"},
	{"geometry":{"coordinates":[8.571369,49.112627],"type":"Point"},"properties":{"osm_id":"4413678115","tag":{"amenity":"waste_basket"}},"type":"Feature"},
	{"geometry":{"coordinates":[8.571395,49.112697],"type":"Point"},"properties":{"osm_id":"4413678116","tag":{"amenity":"waste_basket"}},"type":"Feature"},
	{"geometry":{"coordinates":[8.571416,49.112769],"type":"Point"},"properties":{"osm_id":"4413678117","tag":{"amenity":"waste_basket"}},"type":"Feature"},
	{"geometry":{"coordinates":[8.589474,49.122898],"type":"Point"},"properties":{"name":"Altkleider Sammelcontainer","osm_id":"4810425145","tag":{"addr:city":"Bruchsal","addr:housenumber":"4","addr:postcode":"76646","addr:street":"Prinz-Wilhelm-Stra\u00c3\u009fe","amenity":"recycling","operator":"Malteser Bruchsal","recycling:cans":"no","recycling:clothes":"yes","recycling:glass":"no","recycling:glass_bottles":"no","recycling:paper":"no","recycling:plastic":"no","recycling_type":"container"}},"type":"Feature"},
	{"geometry":{"coordinates":[8.594056,49.119392],"type":"Point"},"properties":{"osm_id":"4826936076","tag":{"amenity":"waste_basket"}},"type":"Feature"},
	{"geometry":{"coordinates":[8.595093,49.119876],"type":"Point"},"properties":{"osm_id":"4826936221","tag":{"amenity":"waste_basket"}},"type":"Feature"},
	{"geometry":{"coordinates":[8.547945,49.144205],"type":"Point"},"properties":{"osm_id":"6314465155","tag":{"amenity":"recycling","recycling:clothes":"yes","recycling_type":"container"}},"type":"Feature"},
	{"geometry":{"coordinates":[8.547281,49.144334],"type":"Point"},"properties":{"osm_id":"6314465157","tag":{"amenity":"recycling","recycling:glass_bottles":"yes","recycling_type":"container"}},"type":"Feature"},
	{"geometry":{"coordinates":[8.547954,49.144374],"type":"Point"},"properties":{"osm_id":"6314465159","tag":{"amenity":"waste_basket","building":"yes"}},"type":"Feature"},
	{"geometry":{"coordinates":[8.548702,49.144232],"type":"Point"},"properties":{"osm_id":"6314465160","tag":{"amenity":"waste_basket","waste":"trash"}},"type":"Feature"},
	{"geometry":{"coordinates":[8.547619,49.143573],"type":"Point"},"properties":{"osm_id":"6315629321","tag":{"amenity":"waste_basket","waste":"trash"}},"type":"Feature"},
	{"geometry":{"coordinates":[8.589624,49.135507],"type":"Point"},"properties":{"osm_id":"7340190514","tag":{"amenity":"waste_basket","waste":"trash"}},"type":"Feature"},
	{"geometry":{"coordinates":[8.590143,49.135473],"type":"Point"},"properties":{"osm_id":"7340190532","tag":{"amenity":"waste_basket","waste":"trash"}},"type":"Feature"},
	{"geometry":{"coordinates":[8.600216,49.151402],"type":"Point"},"properties":{"osm_id":"7578925673","tag":{"amenity":"waste_basket","waste":"trash"}},"type":"Feature"}
]
}
