{
"type": "FeatureCollection",
"features": [
	{"geometry":{"coordinates":[8.568124,48.954387],"type":"Point"},"properties":{"osm_id":"251973485","tag":{"amenity":"recycling","recycling:clothes":"yes","recycling:glass":"yes","recycling:glass_bottles":"yes","recycling:shoes":"yes","recycling_type":"container"}},"type":"Feature"},
	{"geometry":{"coordinates":[8.58145,48.943319],"type":"Point"},"properties":{"osm_id":"254740655","tag":{"amenity":"recycling","recycling_type":"container"}},"type":"Feature"},
	{"geometry":{"coordinates":[8.556801,48.968597],"type":"Point"},"properties":{"osm_id":"254923170","tag":{"amenity":"recycling"}},"type":"Feature"},
	{"geometry":{"coordinates":[8.567825,48.953228],"type":"Point"},"properties":{"osm_id":"256092395","tag":{"amenity":"recycling","recycling:glass":"yes","recycling:glass_bottles":"yes","recycling_type":"container"}},"type":"Feature"},
	{"geometry":{"coordinates":[8.563413,48.937247],"type":"Point"},"properties":{"osm_id":"266561546","tag":{"amenity":"recycling","recycling_type":"container"}},"type":"Feature"},
	{"geometry":{"coordinates":[8.573347,48.925584],"type":"Point"},"properties":{"osm_id":"271939063","tag":{"amenity":"recycling","recycling:glass":"yes","recycling_type":"container"}},"type":"Feature"},
	{"geometry":{"coordinates":[8.56546,48.932406],"type":"Point"},"properties":{"osm_id":"276679254","tag":{"amenity":"recycling","recycling:glass":"yes","recycling_type":"container"}},"type":"Feature"},
	{"geometry":{"coordinates":[8.590978,48.960719],"type":"Point"},"properties":{"name":"Recyclinghof","osm_id":"276808902","tag":{"amenity":"recycling","recycling:batteries":"yes","recycling:clothes":"yes","recycling:electrical_items":"yes","recycling:glass":"yes","recycling:small_appliances":"yes","recycling:styrofoam":"yes","recycling:tv_monitor":"yes","recycling:white_goods":"yes","recycling_type":"centre"}},"type":"Feature"},
	{"geometry":{"coordinates":[8.611893,48.962006],"type":"Point"},"properties":{"osm_id":"357153673","tag":{"amenity":"waste_basket"}},"type":"Feature"},
	{"geometry":{"coordinates":[8.53315,48.935243],"type":"Point"},"properties":{"osm_id":"388372903","tag":{"amenity":"recycling","recycling:clothes":"yes"}},"type":"Feature"},
	{"geometry":{"coordinates":[8.570511,48.950769],"type":"Point"},"properties":{"osm_id":"1250841540","tag":{"amenity":"recycling","recycling:clothes":"yes","recycling_type":"container"}},"type":"Feature"},
	{"geometry":{"coordinates":[8.573346,48.941946],"type":"Point"},"properties":{"osm_id":"1614351411","tag":{"amenity":"recycling","check_date:recycling":"2021-09-04","recycling:glass_bottles":"yes","recycling_type":"container"}},"type":"Feature"},
	{"geometry":{"coordinates":[8.580455,48.95488],"type":"Point"},"properties":{"name":"H\u00c3\u00a4ckselplatz","osm_id":"1638269473","tag":{"amenity":"recycling","recycling:garden_waste":"yes","recycling:green_waste":"yes","recycling_type":"centre"}},"type":"Feature"},
	{"geometry":{"coordinates":[8.584477,48.955756],"type":"Point"},"properties":{"osm_id":"1638285686","tag":{"amenity":"recycling","mapillary":"bY55b0KKiEBoBsgF-s4zVw","recycling:clothes":"yes","recycling:shoes":"yes","recycling_type":"container","survey:date":"2017-08-07"}},"type":"Feature"},
	{"geometry":{"coordinates":[8.548087,48.972447],"type":"Point"},"properties":{"osm_id":"2715249981","tag":{"amenity":"recycling","recycling:glass":"yes","recycling_type":"container"}},"type":"Feature"},
	{"geometry":{"coordinates":[8.535711,48.938936],"type":"Point"},"properties":{"name":"Glas","osm_id":"3286270772","tag":{"amenity":"recycling","recycling:glass":"yes","recycling:glass_bottles":"yes","recycling:scrap_metal":"yes","recycling_type":"container"}},"type":"Feature"},
	{"geometry":{"coordinates":[8.569096,48.954767],"type":"Point"},"properties":{"osm_id":"3376359189","tag":{"amenity":"recycling","recycling:clothes":"yes","recycling:shoes":"yes","recycling_type":"container"}},"type":"Feature"},
	{"geometry":{"coordinates":[8.571387,48.941999],"type":"Point"},"properties":{"osm_id":"3376365118","tag":{"amenity":"recycling","recycling:clothes":"yes","recycling_type":"container"}},"type":"Feature"},
	{"geometry":{"coordinates":[8.552557,48.976886],"type":"Point"},"properties":{"osm_id":"3736464708","tag":{"amenity":"waste_basket"}},"type":"Feature"},
	{"geometry":{"coordinates":[8.552597,48.976968],"type":"Point"},"properties":{"osm_id":"3736464710","tag":{"amenity":"waste_basket"}},"type":"Feature"},
	{"geometry":{"coordinates":[8.555138,48.969765],"type":"Point"},"properties":{"osm_id":"3736464712","tag":{"amenity":"waste_basket"}},"type":"Feature"},
	{"geometry":{"coordinates":[8.527497,48.939112],"type":"Point"},"properties":{"name":"Glas","osm_id":"4017821107","tag":{"amenity":"recycling","recycling:glass_bottles":"yes","recycling_type":"container"}},"type":"Feature"},
	{"geometry":{"coordinates":[8.530294,48.93986],"type":"Point"},"properties":{"name":"Pappe","osm_id":"4031468216","tag":{"amenity":"recycling","recycling_type":"container"}},"type":"Feature"},
	{"geometry":{"coordinates":[8.555395,48.966253],"type":"Point"},"properties":{"osm_id":"4429208411","tag":{"amenity":"recycling","check_date:recycling":"2021-03-22","operator":"Deutsches Rotes Kreuz","recycling:clothes":"yes","recycling_type":"container"}},"type":"Feature"},
	{"geometry":{"coordinates":[8.535998,48.979744],"type":"Point"},"properties":{"osm_id":"6351689098","tag":{"amenity":"recycling","recycling:clothes":"yes","recycling_type":"container"}},"type":"Feature"},
	{"geometry":{"coordinates":[8.53372,48.980042],"type":"Point"},"properties":{"osm_id":"6351712887","tag":{"amenity":"waste_basket"}},"type":"Feature"},
	{"geometry":{"coordinates":[8.533843,48.980141],"type":"Point"},"properties":{"osm_id":"6351741685","tag":{"amenity":"waste_basket"}},"type":"Feature"},
	{"geometry":{"coordinates":[8.537675,48.980189],"type":"Point"},"properties":{"osm_id":"6351754787","tag":{"amenity":"waste_basket"}},"type":"Feature"},
	{"geometry":{"coordinates":[8.535969,48.979721],"type":"Point"},"properties":{"osm_id":"6351757785","tag":{"amenity":"recycling","recycling:clothes":"yes","recycling_type":"container"}},"type":"Feature"},
	{"geometry":{"coordinates":[8.565894,48.923349],"type":"Point"},"properties":{"osm_id":"7376683485","tag":{"amenity":"waste_basket","waste":"trash"}},"type":"Feature"},
	{"geometry":{"coordinates":[8.553944,48.979991],"type":"Point"},"properties":{"osm_id":"8357525468","tag":{"amenity":"waste_basket","material":"metal","waste":"trash"}},"type":"Feature"},
	{"geometry":{"coordinates":[8.554014,48.979753],"type":"Point"},"properties":{"osm_id":"8357525469","tag":{"amenity":"waste_basket","waste":"dog_excrement"}},"type":"Feature"},
	{"geometry":{"coordinates":[8.564988,48.932215],"type":"Point"},"properties":{"osm_id":"8787400240","tag":{"amenity":"recycling","operator":"DRK","recycling:clothes":"yes","recycling:shoes":"yes","recycling_type":"container"}},"type":"Feature"}
]
}
