{
"type": "FeatureCollection",
"features": [
	{"geometry":{"coordinates":[8.553682,48.877901],"type":"Point"},"properties":{"name":"H\u00c3\u00a4ckselplatz","osm_id":"520447494","tag":{"amenity":"recycling","recycling:green_waste":"yes","recycling_type":"centre"}},"type":"Feature"},
	{"geometry":{"coordinates":[8.538243,48.91831],"type":"Point"},"properties":{"osm_id":"550781879","tag":{"amenity":"recycling","recycling:glass":"yes","recycling_type":"container"}},"type":"Feature"},
	{"geometry":{"coordinates":[8.605285,48.894047],"type":"Point"},"properties":{"osm_id":"560406680","tag":{"amenity":"waste_basket"}},"type":"Feature"},
	{"geometry":{"coordinates":[8.605184,48.893992],"type":"Point"},"properties":{"osm_id":"560406682","tag":{"amenity":"waste_basket"}},"type":"Feature"},
	{"geometry":{"coordinates":[8.577453,48.898013],"type":"Point"},"properties":{"osm_id":"617811808","tag":{"amenity":"recycling","recycling:clothes":"yes","recycling_type":"container"}},"type":"Feature"},
	{"geometry":{"coordinates":[8.606401,48.892207],"type":"Point"},"properties":{"osm_id":"671575498","tag":{"amenity":"waste_basket"}},"type":"Feature"},
	{"geometry":{"coordinates":[8.606428,48.892182],"type":"Point"},"properties":{"osm_id":"671575504","tag":{"amenity":"waste_basket"}},"type":"Feature"},
	{"geometry":{"coordinates":[8.531989,48.912081],"type":"Point"},"properties":{"osm_id":"836313404","tag":{"amenity":"recycling","recycling:clothes":"yes","recycling:glass":"yes","recycling_type":"container"}},"type":"Feature"},
	{"geometry":{"coordinates":[8.53367,48.911583],"type":"Point"},"properties":{"name":"Gr\u00c3\u00bcnabfallsammelplatz","osm_id":"836313422","tag":{"amenity":"recycling","recycling:garden_waste":"yes","recycling:green_waste":"yes","recycling_type":"centre"}},"type":"Feature"},
	{"geometry":{"coordinates":[8.578288,48.894452],"type":"Point"},"properties":{"osm_id":"872098701","tag":{"amenity":"waste_basket"}},"type":"Feature"},
	{"geometry":{"coordinates":[8.578024,48.895232],"type":"Point"},"properties":{"osm_id":"872098709","tag":{"amenity":"waste_basket"}},"type":"Feature"},
	{"geometry":{"coordinates":[8.598304,48.874935],"type":"Point"},"properties":{"osm_id":"941369186","tag":{"amenity":"waste_basket"}},"type":"Feature"},
	{"geometry":{"coordinates":[8.592886,48.897289],"type":"Point"},"properties":{"osm_id":"2172417272","tag":{"amenity":"recycling","recycling:clothes":"yes","recycling:glass":"yes","recycling_type":"container"}},"type":"Feature"},
	{"geometry":{"coordinates":[8.577689,48.897894],"type":"Point"},"properties":{"osm_id":"2375487534","tag":{"amenity":"recycling","recycling:glass_bottles":"yes","recycling_type":"container"}},"type":"Feature"},
	{"geometry":{"coordinates":[8.603588,48.895575],"type":"Point"},"properties":{"osm_id":"4410674015","tag":{"amenity":"waste_basket","waste":"trash"}},"type":"Feature"},
	{"geometry":{"coordinates":[8.598538,48.900501],"type":"Point"},"properties":{"osm_id":"4410688089","tag":{"amenity":"waste_basket"}},"type":"Feature"},
	{"geometry":{"coordinates":[8.581385,48.902292],"type":"Point"},"properties":{"osm_id":"4410690451","tag":{"amenity":"waste_basket"}},"type":"Feature"},
	{"geometry":{"coordinates":[8.577196,48.904137],"type":"Point"},"properties":{"osm_id":"4410690914","tag":{"amenity":"recycling","operator":"DRK","recycling:clothes":"yes","recycling_type":"container"}},"type":"Feature"},
	{"geometry":{"coordinates":[8.557994,48.914743],"type":"Point"},"properties":{"osm_id":"4410694931","tag":{"amenity":"recycling","recycling:clothes":"yes","recycling_type":"container"}},"type":"Feature"},
	{"geometry":{"coordinates":[8.529547,48.912024],"type":"Point"},"properties":{"osm_id":"4410699355","tag":{"amenity":"recycling","recycling:clothes":"yes","recycling_type":"container"}},"type":"Feature"},
	{"geometry":{"coordinates":[8.526668,48.912174],"type":"Point"},"properties":{"osm_id":"4410699771","tag":{"amenity":"recycling","recycling:clothes":"yes","recycling:glass_bottles":"yes","recycling_type":"container"}},"type":"Feature"},
	{"geometry":{"coordinates":[8.609365,48.891214],"type":"Point"},"properties":{"osm_id":"4427837289","tag":{"amenity":"recycling","operator":"DRK","recycling:clothes":"yes","recycling_type":"container"}},"type":"Feature"},
	{"geometry":{"coordinates":[8.602914,48.895429],"type":"Point"},"properties":{"osm_id":"4427837290","tag":{"amenity":"recycling","recycling:clothes":"yes","recycling_type":"container"}},"type":"Feature"},
	{"geometry":{"coordinates":[8.569484,48.890951],"type":"Point"},"properties":{"osm_id":"4596941835","tag":{"amenity":"recycling","recycling:cars":"yes","recycling_type":"centre"}},"type":"Feature"},
	{"geometry":{"coordinates":[8.541427,48.919407],"type":"Point"},"properties":{"osm_id":"4905117922","tag":{"amenity":"recycling","description":"Altpapier-Abgabestelle","recycling:paper":"yes","recycling_type":"container"}},"type":"Feature"},
	{"geometry":{"coordinates":[8.559321,48.912084],"type":"Point"},"properties":{"osm_id":"5517075874","tag":{"amenity":"waste_basket","waste":"trash"}},"type":"Feature"},
	{"geometry":{"coordinates":[8.604006,48.894049],"type":"Point"},"properties":{"osm_id":"6297793614","tag":{"amenity":"waste_basket","waste":"trash"}},"type":"Feature"},
	{"geometry":{"coordinates":[8.607515,48.896909],"type":"Point"},"properties":{"osm_id":"6323872613","tag":{"amenity":"recycling","operator":"DRK","recycling:clothes":"yes","recycling_type":"container"}},"type":"Feature"},
	{"geometry":{"coordinates":[8.605119,48.892477],"type":"Point"},"properties":{"osm_id":"6323872628","tag":{"amenity":"waste_basket","waste":"trash"}},"type":"Feature"},
	{"geometry":{"coordinates":[8.606082,48.89194],"type":"Point"},"properties":{"osm_id":"6323872631","tag":{"amenity":"waste_basket","waste":"trash"}},"type":"Feature"},
	{"geometry":{"coordinates":[8.597633,48.899585],"type":"Point"},"properties":{"osm_id":"6334097947","tag":{"amenity":"waste_basket","waste":"trash"}},"type":"Feature"},
	{"geometry":{"coordinates":[8.603853,48.895588],"type":"Point"},"properties":{"osm_id":"6334097960","tag":{"amenity":"waste_basket","waste":"trash"}},"type":"Feature"},
	{"geometry":{"coordinates":[8.570823,48.902144],"type":"Point"},"properties":{"osm_id":"6367863496","tag":{"amenity":"recycling","recycling:clothes":"yes","recycling_type":"container"}},"type":"Feature"},
	{"geometry":{"coordinates":[8.603264,48.895289],"type":"Point"},"properties":{"osm_id":"6371243070","tag":{"amenity":"waste_basket","waste":"trash"}},"type":"Feature"},
	{"geometry":{"coordinates":[8.603363,48.895178],"type":"Point"},"properties":{"osm_id":"6371243078","tag":{"amenity":"waste_basket","waste":"trash"}},"type":"Feature"},
	{"geometry":{"coordinates":[8.568518,48.886766],"type":"Point"},"properties":{"osm_id":"6371243303","tag":{"amenity":"waste_basket","waste":"trash"}},"type":"Feature"},
	{"geometry":{"coordinates":[8.571162,48.900274],"type":"Point"},"properties":{"osm_id":"6372361346","tag":{"amenity":"waste_basket","waste":"trash"}},"type":"Feature"},
	{"geometry":{"coordinates":[8.540376,48.883433],"type":"Point"},"properties":{"osm_id":"6372361359","tag":{"amenity":"waste_basket","waste":"trash"}},"type":"Feature"},
	{"geometry":{"coordinates":[8.573318,48.903694],"type":"Point"},"properties":{"osm_id":"6403039073","tag":{"amenity":"recycling","recycling:clothes":"yes","recycling_type":"container"}},"type":"Feature"},
	{"geometry":{"coordinates":[8.543604,48.882895],"type":"Point"},"properties":{"osm_id":"6412753754","tag":{"amenity":"waste_basket","waste":"trash"}},"type":"Feature"},
	{"geometry":{"coordinates":[8.546826,48.888439],"type":"Point"},"properties":{"osm_id":"6412753775","tag":{"amenity":"recycling","operator":"DRK","recycling:clothes":"yes","recycling_type":"container"}},"type":"Feature"},
	{"geometry":{"coordinates":[8.556571,48.893943],"type":"Point"},"properties":{"osm_id":"6412753782","tag":{"amenity":"waste_basket","waste":"trash"}},"type":"Feature"},
	{"geometry":{"coordinates":[8.593287,48.896088],"type":"Point"},"properties":{"osm_id":"6415202732","tag":{"amenity":"waste_basket","waste":"trash"}},"type":"Feature"},
	{"geometry":{"coordinates":[8.575911,48.901133],"type":"Point"},"properties":{"osm_id":"6415202865","tag":{"amenity":"waste_basket","waste":"trash"}},"type":"Feature"},
	{"geometry":{"coordinates":[8.575325,48.901027],"type":"Point"},"properties":{"osm_id":"6415202866","tag":{"amenity":"waste_basket","waste":"trash"}},"type":"Feature"},
	{"geometry":{"coordinates":[8.57348,48.905685],"type":"Point"},"properties":{"osm_id":"6415202922","tag":{"amenity":"waste_basket","waste":"trash"}},"type":"Feature"},
	{"geometry":{"coordinates":[8.577763,48.904775],"type":"Point"},"properties":{"osm_id":"6415202971","tag":{"amenity":"waste_basket","waste":"trash"}},"type":"Feature"},
	{"geometry":{"coordinates":[8.576428,48.903869],"type":"Point"},"properties":{"osm_id":"6415202981","tag":{"amenity":"waste_basket","waste":"trash"}},"type":"Feature"},
	{"geometry":{"coordinates":[8.587336,48.899836],"type":"Point"},"properties":{"osm_id":"6415203055","tag":{"amenity":"waste_basket","waste":"trash"}},"type":"Feature"},
	{"geometry":{"coordinates":[8.607512,48.890249],"type":"Point"},"properties":{"osm_id":"6421470134","tag":{"amenity":"recycling","operator":"HeDi","recycling:clothes":"yes","recycling_type":"container"}},"type":"Feature"},
	{"geometry":{"coordinates":[8.6063,48.892332],"type":"Point"},"properties":{"osm_id":"6465382350","tag":{"amenity":"recycling","operator":"TEXAID","recycling:clothes":"yes","recycling_type":"container"}},"type":"Feature"},
	{"geometry":{"coordinates":[8.602102,48.897],"type":"Point"},"properties":{"osm_id":"6675717056","tag":{"amenity":"waste_basket","waste":"trash"}},"type":"Feature"},
	{"geometry":{"coordinates":[8.563829,48.914934],"type":"Point"},"properties":{"osm_id":"6716693781","tag":{"amenity":"waste_basket","waste":"trash"}},"type":"Feature"},
	{"geometry":{"coordinates":[8.59702,48.903469],"type":"Point"},"properties":{"osm_id":"6721907297","tag":{"amenity":"waste_basket","waste":"trash"}},"type":"Feature"},
	{"geometry":{"coordinates":[8.600289,48.903288],"type":"Point"},"properties":{"osm_id":"6721907304","tag":{"amenity":"waste_basket","waste":"trash"}},"type":"Feature"},
	{"geometry":{"coordinates":[8.596914,48.901693],"type":"Point"},"properties":{"osm_id":"6754252346","tag":{"amenity":"waste_basket","waste":"trash"}},"type":"Feature"},
	{"geometry":{"coordinates":[8.595406,48.874795],"type":"Point"},"properties":{"osm_id":"6760637601","tag":{"amenity":"waste_basket"}},"type":"Feature"},
	{"geometry":{"coordinates":[8.601972,48.8732],"type":"Point"},"properties":{"osm_id":"6760637739","tag":{"amenity":"waste_basket"}},"type":"Feature"},
	{"geometry":{"coordinates":[8.536274,48.882638],"type":"Point"},"properties":{"osm_id":"7373465930","tag":{"amenity":"waste_basket","waste":"trash"}},"type":"Feature"},
	{"geometry":{"coordinates":[8.5822,48.910809],"type":"Point"},"properties":{"osm_id":"7383228872","tag":{"amenity":"waste_basket","waste":"trash"}},"type":"Feature"},
	{"geometry":{"coordinates":[8.606062,48.893574],"type":"Point"},"properties":{"osm_id":"7412507245","tag":{"amenity":"recycling","recycling:clothes":"yes","recycling_type":"container"}},"type":"Feature"},
	{"geometry":{"coordinates":[8.596696,48.892307],"type":"Point"},"properties":{"osm_id":"7431383891","tag":{"amenity":"waste_basket","waste":"trash"}},"type":"Feature"},
	{"geometry":{"coordinates":[8.598228,48.917126],"type":"Point"},"properties":{"osm_id":"7499398128","tag":{"amenity":"waste_basket"}},"type":"Feature"},
	{"geometry":{"coordinates":[8.555539,48.886672],"type":"Point"},"properties":{"osm_id":"7563777143","tag":{"amenity":"waste_basket"}},"type":"Feature"},
	{"geometry":{"coordinates":[8.560619,48.88666],"type":"Point"},"properties":{"osm_id":"7563777184","tag":{"amenity":"waste_basket"}},"type":"Feature"}
]
}
