{
"type": "FeatureCollection",
"features": [
	{"geometry":{"coordinates":[8.600933,48.49298],"type":"Point"},"properties":{"osm_id":"279537495","tag":{"amenity":"recycling","recycling_type":"centre"}},"type":"Feature"},
	{"geometry":{"coordinates":[8.609079,48.483912],"type":"Point"},"properties":{"osm_id":"279537609","tag":{"amenity":"recycling","recycling_type":"container"}},"type":"Feature"},
	{"geometry":{"coordinates":[8.57651,48.476297],"type":"Point"},"properties":{"highway":"bus_stop","name":"Tumlingen Rathaus","osm_id":"334727782","tag":{"amenity":"waste_basket"}},"type":"Feature"},
	{"geometry":{"coordinates":[8.557376,48.488656],"type":"Point"},"properties":{"osm_id":"345661693","tag":{"amenity":"waste_basket"}},"type":"Feature"},
	{"geometry":{"coordinates":[8.574472,48.49553],"type":"Point"},"properties":{"osm_id":"349115323","tag":{"amenity":"waste_basket"}},"type":"Feature"},
	{"geometry":{"coordinates":[8.569818,48.495754],"type":"Point"},"properties":{"osm_id":"349115349","tag":{"amenity":"waste_basket"}},"type":"Feature"},
	{"geometry":{"coordinates":[8.565236,48.49356],"type":"Point"},"properties":{"osm_id":"349117753","tag":{"amenity":"waste_basket"}},"type":"Feature"},
	{"geometry":{"coordinates":[8.565028,48.493328],"type":"Point"},"properties":{"osm_id":"349117754","tag":{"amenity":"waste_basket"}},"type":"Feature"},
	{"geometry":{"coordinates":[8.564901,48.493033],"type":"Point"},"properties":{"osm_id":"349117760","tag":{"amenity":"waste_basket"}},"type":"Feature"},
	{"geometry":{"coordinates":[8.564974,48.492595],"type":"Point"},"properties":{"osm_id":"349117771","tag":{"amenity":"waste_basket"}},"type":"Feature"},
	{"geometry":{"coordinates":[8.564948,48.492381],"type":"Point"},"properties":{"osm_id":"349117773","tag":{"amenity":"waste_basket"}},"type":"Feature"},
	{"geometry":{"coordinates":[8.56218,48.489471],"type":"Point"},"properties":{"osm_id":"349169184","tag":{"amenity":"waste_basket"}},"type":"Feature"},
	{"geometry":{"coordinates":[8.561978,48.489886],"type":"Point"},"properties":{"osm_id":"349169185","tag":{"amenity":"waste_basket"}},"type":"Feature"},
	{"geometry":{"coordinates":[8.560847,48.489612],"type":"Point"},"properties":{"osm_id":"349169186","tag":{"amenity":"waste_basket"}},"type":"Feature"},
	{"geometry":{"coordinates":[8.559131,48.489864],"type":"Point"},"properties":{"osm_id":"349169187","tag":{"amenity":"waste_basket"}},"type":"Feature"},
	{"geometry":{"coordinates":[8.558132,48.489813],"type":"Point"},"properties":{"osm_id":"349169188","tag":{"amenity":"waste_basket"}},"type":"Feature"},
	{"geometry":{"coordinates":[8.557301,48.490026],"type":"Point"},"properties":{"osm_id":"349169189","tag":{"amenity":"waste_basket"}},"type":"Feature"},
	{"geometry":{"coordinates":[8.556288,48.490098],"type":"Point"},"properties":{"osm_id":"349169190","tag":{"amenity":"waste_basket"}},"type":"Feature"},
	{"geometry":{"coordinates":[8.555716,48.490175],"type":"Point"},"properties":{"osm_id":"349169191","tag":{"amenity":"waste_basket"}},"type":"Feature"},
	{"geometry":{"coordinates":[8.557352,48.490537],"type":"Point"},"properties":{"osm_id":"349169194","tag":{"amenity":"waste_basket"}},"type":"Feature"},
	{"geometry":{"coordinates":[8.55793,48.490399],"type":"Point"},"properties":{"osm_id":"349169195","tag":{"amenity":"waste_basket"}},"type":"Feature"},
	{"geometry":{"coordinates":[8.580821,48.471141],"type":"Point"},"properties":{"osm_id":"373411343","tag":{"amenity":"waste_basket"}},"type":"Feature"},
	{"geometry":{"coordinates":[8.583795,48.466833],"type":"Point"},"properties":{"osm_id":"373411572","tag":{"amenity":"waste_basket"}},"type":"Feature"},
	{"geometry":{"coordinates":[8.603939,48.483185],"type":"Point"},"properties":{"osm_id":"393115445","tag":{"amenity":"recycling","recycling_type":"container"}},"type":"Feature"},
	{"geometry":{"coordinates":[8.53847,48.506701],"type":"Point"},"properties":{"osm_id":"512195501","tag":{"amenity":"recycling","recycling_type":"container"}},"type":"Feature"},
	{"geometry":{"coordinates":[8.560156,48.494515],"type":"Point"},"properties":{"osm_id":"3503519392","tag":{"amenity":"recycling","recycling:clothes":"yes","recycling:glass_bottles":"yes","recycling:paper":"yes","recycling_type":"container"}},"type":"Feature"},
	{"geometry":{"coordinates":[8.592498,48.51264],"type":"Point"},"properties":{"osm_id":"3914551606","tag":{"amenity":"waste_basket"}},"type":"Feature"},
	{"geometry":{"coordinates":[8.581683,48.498928],"type":"Point"},"properties":{"osm_id":"4012367021","tag":{"amenity":"recycling","recycling:cans":"yes","recycling:clothes":"yes","recycling:glass":"yes","recycling_type":"container","wheelchair":"yes"}},"type":"Feature"}
]
}
