{
"type": "FeatureCollection",
"lastupdate": "2020-08-05T00:00:00Z",
"features": [
	{"geometry":{"coordinates":[8.553314,48.087823],"type":"Point"},"properties":{"osm_id":"104393431","tag":{"amenity":"recycling","recycling:glass_bottles":"yes","recycling_type":"container"}},"type":"Feature"},
	{"geometry":{"coordinates":[8.551911,48.091045],"type":"Point"},"properties":{"osm_id":"107604904","tag":{"amenity":"recycling","recycling:glass_bottles":"yes","recycling_type":"container"}},"type":"Feature"},
	{"geometry":{"coordinates":[8.549522,48.093411],"type":"Point"},"properties":{"osm_id":"119444455","tag":{"amenity":"recycling","recycling_type":"container"}},"type":"Feature"},
	{"geometry":{"coordinates":[8.547735,48.07585],"type":"Point"},"properties":{"osm_id":"201927171","tag":{"amenity":"recycling","recycling_type":"container"}},"type":"Feature"},
	{"geometry":{"coordinates":[8.539631,48.075407],"type":"Point"},"properties":{"osm_id":"206355745","tag":{"amenity":"recycling","recycling_type":"container"}},"type":"Feature"},
	{"geometry":{"coordinates":[8.539622,48.064365],"type":"Point"},"properties":{"osm_id":"452907451","tag":{"amenity":"recycling","recycling:glass":"yes","recycling:paper":"yes","recycling_type":"container"}},"type":"Feature"},
	{"geometry":{"coordinates":[8.540448,48.051259],"type":"Point"},"properties":{"osm_id":"524454603","tag":{"amenity":"recycling","location":"overground","recycling:glass":"yes","recycling_type":"container"}},"type":"Feature"},
	{"geometry":{"coordinates":[8.548018,48.059898],"type":"Point"},"properties":{"osm_id":"524454656","tag":{"amenity":"recycling","location":"overground","recycling:clothes":"yes","recycling:glass":"yes","recycling_type":"container"}},"type":"Feature"},
	{"geometry":{"coordinates":[8.551569,48.070059],"type":"Point"},"properties":{"osm_id":"581374061","tag":{"amenity":"recycling","recycling:clothes":"yes","recycling:glass":"yes","recycling_type":"container"}},"type":"Feature"},
	{"geometry":{"coordinates":[8.529812,48.056693],"type":"Point"},"properties":{"osm_id":"706538105","tag":{"amenity":"recycling","colour":"#808080","covered":"no","indoor":"no","material":"steel","operator":"Remondis","recycling:cans":"no","recycling:glass_bottles":"yes","recycling:paper":"no","recycling:plastic":"no","recycling_type":"container"}},"type":"Feature"},
	{"geometry":{"coordinates":[8.538742,48.062993],"type":"Point"},"properties":{"osm_id":"2059884838","tag":{"amenity":"recycling","recycling:glass":"yes","recycling:glass_bottles":"yes","recycling_type":"container"}},"type":"Feature"},
	{"geometry":{"coordinates":[8.528064,48.059456],"type":"Point"},"properties":{"osm_id":"2628950528","tag":{"amenity":"recycling","material":"metal","recycling:glass":"yes","recycling_type":"container"}},"type":"Feature"},
	{"geometry":{"coordinates":[8.52964,48.066796],"type":"Point"},"properties":{"osm_id":"2798905549","tag":{"amenity":"recycling","recycling:cans":"no","recycling:clothes":"yes","recycling:glass_bottles":"yes","recycling:paper":"no","recycling:plastic":"no","recycling_type":"container"}},"type":"Feature"},
	{"geometry":{"coordinates":[8.544904,48.066644],"type":"Point"},"properties":{"osm_id":"2799917151","tag":{"amenity":"recycling","recycling:glass":"yes","recycling_type":"container"}},"type":"Feature"},
	{"geometry":{"coordinates":[8.537556,48.070511],"type":"Point"},"properties":{"osm_id":"2836349099","tag":{"amenity":"recycling","recycling:paper":"yes","recycling_type":"container"}},"type":"Feature"},
	{"geometry":{"coordinates":[8.540237,48.073106],"type":"Point"},"properties":{"osm_id":"2893577597","tag":{"amenity":"recycling","recycling:glass_bottles":"yes","recycling_type":"container"}},"type":"Feature"},
	{"geometry":{"coordinates":[8.544564,48.075301],"type":"Point"},"properties":{"osm_id":"2907035866","tag":{"amenity":"recycling","recycling:glass":"yes","recycling_type":"container"}},"type":"Feature"},
	{"geometry":{"coordinates":[8.529463,48.055306],"type":"Point"},"properties":{"osm_id":"3781031384","tag":{"addr:city":"Villingen-Schwenningen","addr:postcode":"78054","amenity":"recycling","recycling:cans":"no","recycling:clothes":"yes","recycling:glass":"yes","recycling:glass_bottles":"yes","recycling:paper":"no","recycling:plastic":"no","recycling_type":"container"}},"type":"Feature"},
	{"geometry":{"coordinates":[8.528437,48.057194],"type":"Point"},"properties":{"osm_id":"3881242378","tag":{"amenity":"recycling","covered":"no","indoor":"no","material":"metal","recycling:cans":"no","recycling:glass_bottles":"yes","recycling:paper":"no","recycling:plastic":"no","recycling_type":"container"}},"type":"Feature"},
	{"geometry":{"coordinates":[8.585214,48.088032],"type":"Point"},"properties":{"osm_id":"4042670310","tag":{"amenity":"waste_basket"}},"type":"Feature"},
	{"geometry":{"coordinates":[8.585234,48.089402],"type":"Point"},"properties":{"osm_id":"4042670353","tag":{"amenity":"waste_basket"}},"type":"Feature"},
	{"geometry":{"coordinates":[8.531021,48.058047],"type":"Point"},"properties":{"osm_id":"4044863679","tag":{"amenity":"waste_basket"}},"type":"Feature"},
	{"geometry":{"coordinates":[8.594415,48.049584],"type":"Point"},"properties":{"osm_id":"4763025062","tag":{"amenity":"waste_basket"}},"type":"Feature"},
	{"geometry":{"coordinates":[8.53512,48.05983],"type":"Point"},"properties":{"osm_id":"5046916962","tag":{"amenity":"waste_basket"}},"type":"Feature"},
	{"geometry":{"coordinates":[8.536424,48.059428],"type":"Point"},"properties":{"osm_id":"5051578400","tag":{"amenity":"waste_basket"}},"type":"Feature"},
	{"geometry":{"coordinates":[8.530782,48.052413],"type":"Point"},"properties":{"osm_id":"5056566997","tag":{"amenity":"waste_basket"}},"type":"Feature"},
	{"geometry":{"coordinates":[8.530882,48.055553],"type":"Point"},"properties":{"osm_id":"5056567004","tag":{"amenity":"waste_basket"}},"type":"Feature"},
	{"geometry":{"coordinates":[8.53299,48.051055],"type":"Point"},"properties":{"osm_id":"5056567010","tag":{"amenity":"waste_basket"}},"type":"Feature"},
	{"geometry":{"coordinates":[8.532804,48.056168],"type":"Point"},"properties":{"osm_id":"5079290476","tag":{"amenity":"waste_basket"}},"type":"Feature"},
	{"geometry":{"coordinates":[8.533436,48.056434],"type":"Point"},"properties":{"osm_id":"5079290478","tag":{"amenity":"waste_basket"}},"type":"Feature"},
	{"geometry":{"coordinates":[8.534524,48.057404],"type":"Point"},"properties":{"osm_id":"5079290480","tag":{"amenity":"waste_basket"}},"type":"Feature"},
	{"geometry":{"coordinates":[8.528131,48.059481],"type":"Point"},"properties":{"osm_id":"5086253264","tag":{"amenity":"waste_basket"}},"type":"Feature"},
	{"geometry":{"coordinates":[8.53298,48.062479],"type":"Point"},"properties":{"osm_id":"5086253265","tag":{"amenity":"waste_basket"}},"type":"Feature"},
	{"geometry":{"coordinates":[8.533266,48.062523],"type":"Point"},"properties":{"osm_id":"5086253269","tag":{"amenity":"waste_basket"}},"type":"Feature"},
	{"geometry":{"coordinates":[8.532141,48.062164],"type":"Point"},"properties":{"osm_id":"5086253271","tag":{"amenity":"waste_basket"}},"type":"Feature"},
	{"geometry":{"coordinates":[8.532202,48.061755],"type":"Point"},"properties":{"osm_id":"5086287961","tag":{"amenity":"recycling","recycling:clothes":"yes","recycling_type":"container"}},"type":"Feature"},
	{"geometry":{"coordinates":[8.535347,48.05999],"type":"Point"},"properties":{"osm_id":"5097855664","tag":{"amenity":"waste_basket"}},"type":"Feature"},
	{"geometry":{"coordinates":[8.526401,48.065799],"type":"Point"},"properties":{"osm_id":"5191270563","tag":{"amenity":"recycling","location":"overground","recycling_type":"container"}},"type":"Feature"},
	{"geometry":{"coordinates":[8.530825,48.053419],"type":"Point"},"properties":{"osm_id":"5679680025","tag":{"amenity":"waste_basket"}},"type":"Feature"},
	{"geometry":{"coordinates":[8.53212,48.055486],"type":"Point"},"properties":{"osm_id":"5679682327","tag":{"amenity":"waste_basket"}},"type":"Feature"},
	{"geometry":{"coordinates":[8.530665,48.054398],"type":"Point"},"properties":{"osm_id":"5679688623","tag":{"amenity":"waste_basket"}},"type":"Feature"},
	{"geometry":{"coordinates":[8.532054,48.052303],"type":"Point"},"properties":{"osm_id":"5679688630","tag":{"amenity":"waste_basket"}},"type":"Feature"},
	{"geometry":{"coordinates":[8.530764,48.053479],"type":"Point"},"properties":{"osm_id":"5679688727","tag":{"amenity":"waste_basket"}},"type":"Feature"},
	{"geometry":{"coordinates":[8.530041,48.053218],"type":"Point"},"properties":{"osm_id":"5679688925","tag":{"amenity":"waste_basket"}},"type":"Feature"},
	{"geometry":{"coordinates":[8.531306,48.050924],"type":"Point"},"properties":{"osm_id":"5679689724","tag":{"amenity":"waste_basket"}},"type":"Feature"},
	{"geometry":{"coordinates":[8.530425,48.051065],"type":"Point"},"properties":{"osm_id":"5679690622","tag":{"amenity":"waste_basket"}},"type":"Feature"},
	{"geometry":{"coordinates":[8.528681,48.051936],"type":"Point"},"properties":{"osm_id":"6253610485","tag":{"amenity":"recycling","recycling:glass_bottles":"yes","recycling_type":"container"}},"type":"Feature"},
	{"geometry":{"coordinates":[8.553012,48.094442],"type":"Point"},"properties":{"osm_id":"6348744802","tag":{"amenity":"recycling","recycling:glass_bottles":"yes","recycling_type":"container"}},"type":"Feature"},
	{"geometry":{"coordinates":[8.541263,48.090101],"type":"Point"},"properties":{"osm_id":"6348790197","tag":{"amenity":"recycling","recycling:glass_bottles":"yes","recycling_type":"container"}},"type":"Feature"},
	{"geometry":{"coordinates":[8.530132,48.055194],"type":"Point"},"properties":{"osm_id":"6721879073","tag":{"amenity":"waste_basket","colour":"#808080","covered":"no","indoor":"no","material":"metal"}},"type":"Feature"},
	{"geometry":{"coordinates":[8.530497,48.05499],"type":"Point"},"properties":{"osm_id":"6721905285","tag":{"amenity":"waste_basket","material":"metal"}},"type":"Feature"},
	{"geometry":{"coordinates":[8.535471,48.058762],"type":"Point"},"properties":{"osm_id":"6780076395","tag":{"amenity":"waste_basket","colour":"dark grey","material":"steel"}},"type":"Feature"},
	{"geometry":{"coordinates":[8.535395,48.062663],"type":"Point"},"properties":{"osm_id":"6847513029","tag":{"amenity":"waste_basket"}},"type":"Feature"},
	{"geometry":{"coordinates":[8.535248,48.062879],"type":"Point"},"properties":{"osm_id":"6847554885","tag":{"amenity":"waste_basket"}},"type":"Feature"},
	{"geometry":{"coordinates":[8.535791,48.062114],"type":"Point"},"properties":{"osm_id":"6847554985","tag":{"amenity":"waste_basket"}},"type":"Feature"},
	{"geometry":{"coordinates":[8.585204,48.088236],"type":"Point"},"properties":{"osm_id":"7440375152","tag":{"amenity":"waste_basket","waste":"trash"}},"type":"Feature"},
	{"geometry":{"coordinates":[8.585388,48.088439],"type":"Point"},"properties":{"osm_id":"7440375154","tag":{"amenity":"waste_basket","waste":"trash"}},"type":"Feature"},
	{"geometry":{"coordinates":[8.53583,48.059847],"type":"Point"},"properties":{"osm_id":"7440375169","tag":{"amenity":"waste_basket","waste":"trash"}},"type":"Feature"},
	{"geometry":{"coordinates":[8.528522,48.052566],"type":"Point"},"properties":{"osm_id":"7441756054","tag":{"amenity":"waste_basket","waste":"trash"}},"type":"Feature"},
	{"geometry":{"coordinates":[8.546974,48.060201],"type":"Point"},"properties":{"osm_id":"7441756065","tag":{"amenity":"waste_basket","waste":"trash"}},"type":"Feature"}
]
}
