{
"type": "FeatureCollection",
"features": [
	{"geometry":{"coordinates":[8.586752,47.631974],"type":"Point"},"properties":{"osm_id":"549940721","tag":{"amenity":"recycling"}},"type":"Feature"},
	{"geometry":{"coordinates":[8.578941,47.607537],"type":"Point"},"properties":{"osm_id":"549941381","tag":{"amenity":"recycling","recycling_type":"centre"}},"type":"Feature"},
	{"geometry":{"coordinates":[8.577902,47.631013],"type":"Point"},"properties":{"osm_id":"2287344980","tag":{"amenity":"recycling","recycling_type":"container"}},"type":"Feature"},
	{"geometry":{"coordinates":[8.573168,47.627772],"type":"Point"},"properties":{"osm_id":"2287345102","tag":{"amenity":"waste_basket"}},"type":"Feature"},
	{"geometry":{"coordinates":[8.607304,47.59342],"type":"Point"},"properties":{"osm_id":"4724548944","tag":{"amenity":"waste_basket"}},"type":"Feature"},
	{"geometry":{"coordinates":[8.609477,47.593444],"type":"Point"},"properties":{"osm_id":"4729195186","tag":{"amenity":"waste_basket"}},"type":"Feature"},
	{"geometry":{"coordinates":[8.581397,47.581305],"type":"Point"},"properties":{"name":"Robidog","osm_id":"4831617913","tag":{"amenity":"waste_basket"}},"type":"Feature"},
	{"geometry":{"coordinates":[8.583628,47.579228],"type":"Point"},"properties":{"name":"Robidog","osm_id":"4831617914","tag":{"amenity":"waste_basket"}},"type":"Feature"},
	{"geometry":{"coordinates":[8.607569,47.59592],"type":"Point"},"properties":{"name":"Robidog","osm_id":"4831624898","tag":{"amenity":"waste_basket"}},"type":"Feature"},
	{"geometry":{"coordinates":[8.58309,47.591702],"type":"Point"},"properties":{"name":"Robidog","osm_id":"4831625032","tag":{"amenity":"waste_basket"}},"type":"Feature"},
	{"geometry":{"coordinates":[8.599704,47.605295],"type":"Point"},"properties":{"name":"Robidog","osm_id":"4831654301","tag":{"amenity":"waste_basket"}},"type":"Feature"},
	{"geometry":{"coordinates":[8.596209,47.604597],"type":"Point"},"properties":{"name":"Robidog","osm_id":"4831659939","tag":{"amenity":"waste_basket"}},"type":"Feature"},
	{"geometry":{"coordinates":[8.575755,47.628177],"type":"Point"},"properties":{"name":"REHM Entsorgungsfachbetrieb","osm_id":"4986344122","tag":{"amenity":"recycling","recycling_type":"centre","website":"http://rehm-lottstetten.de"}},"type":"Feature"},
	{"geometry":{"coordinates":[8.579274,47.631404],"type":"Point"},"properties":{"osm_id":"4988283122","tag":{"amenity":"recycling","recycling:clothes":"yes","recycling:shoes":"yes","recycling_type":"container"}},"type":"Feature"},
	{"geometry":{"coordinates":[8.574107,47.631969],"type":"Point"},"properties":{"osm_id":"5639847355","tag":{"amenity":"waste_basket"}},"type":"Feature"},
	{"geometry":{"coordinates":[8.579834,47.630614],"type":"Point"},"properties":{"osm_id":"6064582713","tag":{"amenity":"waste_basket"}},"type":"Feature"},
	{"geometry":{"coordinates":[8.571861,47.626837],"type":"Point"},"properties":{"osm_id":"6064582715","tag":{"amenity":"waste_basket"}},"type":"Feature"}
]
}
