{
"type": "FeatureCollection",
"lastupdate": "2020-08-03T00:00:00Z",
"features": [
	{"geometry":{"coordinates":[8.541117,47.521847],"type":"Point"},"properties":{"name":"Sonnenhof","osm_id":"293253774","tag":{"amenity":"recycling","collection_times":"Mo-Sa 7:00-12:00, 13:00-18:00","recycling:aluminium":"yes","recycling:cans":"yes","recycling:clothes":"yes","recycling:glass":"yes","recycling:glass_bottles":"yes","recycling_type":"container"}},"type":"Feature"},
	{"geometry":{"coordinates":[8.553757,47.540113],"type":"Point"},"properties":{"osm_id":"1569708645","tag":{"amenity":"waste_basket"}},"type":"Feature"},
	{"geometry":{"coordinates":[8.543025,47.521764],"type":"Point"},"properties":{"osm_id":"2280842694","tag":{"amenity":"waste_basket"}},"type":"Feature"},
	{"geometry":{"coordinates":[8.594848,47.56828],"type":"Point"},"properties":{"osm_id":"2460415922","tag":{"amenity":"recycling","recycling:cans":"yes","recycling:clothes":"yes","recycling:glass":"yes"}},"type":"Feature"},
	{"geometry":{"coordinates":[8.584843,47.53095],"type":"Point"},"properties":{"osm_id":"2576020117","tag":{"amenity":"recycling","recycling:glass":"yes","recycling:glass_bottles":"yes"}},"type":"Feature"},
	{"geometry":{"coordinates":[8.578242,47.535166],"type":"Point"},"properties":{"osm_id":"2820452257","tag":{"amenity":"recycling","recycling_type":"centre"}},"type":"Feature"},
	{"geometry":{"coordinates":[8.535164,47.52089],"type":"Point"},"properties":{"name":"Dreispitz","osm_id":"4188956851","tag":{"amenity":"recycling","recycling:aluminium":"yes","recycling:cans":"yes","recycling:glass":"yes","recycling:glass_bottles":"yes","recycling_type":"container"}},"type":"Feature"},
	{"geometry":{"coordinates":[8.594123,47.574783],"type":"Point"},"properties":{"name":"Robidog","osm_id":"4831654300","tag":{"amenity":"waste_basket"}},"type":"Feature"},
	{"geometry":{"coordinates":[8.541614,47.528374],"type":"Point"},"properties":{"osm_id":"4988293684","tag":{"amenity":"recycling","recycling:aluminium":"yes","recycling:glass":"yes","recycling_type":"container"}},"type":"Feature"},
	{"geometry":{"coordinates":[8.541907,47.528687],"type":"Point"},"properties":{"osm_id":"5167927387","tag":{"amenity":"waste_basket"}},"type":"Feature"},
	{"geometry":{"coordinates":[8.541863,47.528451],"type":"Point"},"properties":{"osm_id":"5167934322","tag":{"amenity":"waste_basket"}},"type":"Feature"},
	{"geometry":{"coordinates":[8.548903,47.519435],"type":"Point"},"properties":{"osm_id":"5167964609","tag":{"amenity":"waste_basket"}},"type":"Feature"},
	{"geometry":{"coordinates":[8.530722,47.518904],"type":"Point"},"properties":{"osm_id":"5209100161","tag":{"amenity":"waste_basket"}},"type":"Feature"},
	{"geometry":{"coordinates":[8.530481,47.572217],"type":"Point"},"properties":{"osm_id":"5639847339","tag":{"amenity":"waste_basket"}},"type":"Feature"},
	{"geometry":{"coordinates":[8.554471,47.551822],"type":"Point"},"properties":{"osm_id":"5639847347","tag":{"amenity":"waste_basket"}},"type":"Feature"},
	{"geometry":{"coordinates":[8.554524,47.552013],"type":"Point"},"properties":{"osm_id":"5639847350","tag":{"amenity":"waste_basket"}},"type":"Feature"},
	{"geometry":{"coordinates":[8.579622,47.529935],"type":"Point"},"properties":{"osm_id":"6532254323","tag":{"amenity":"waste_basket"}},"type":"Feature"},
	{"geometry":{"coordinates":[8.552305,47.519808],"type":"Point"},"properties":{"osm_id":"6630677374","tag":{"amenity":"waste_basket","waste":"dog_excrement"}},"type":"Feature"},
	{"geometry":{"coordinates":[8.566804,47.57522],"type":"Point"},"properties":{"osm_id":"6774862670","tag":{"amenity":"waste_basket"}},"type":"Feature"},
	{"geometry":{"coordinates":[8.537516,47.523925],"type":"Point"},"properties":{"osm_id":"6790323830","tag":{"amenity":"waste_basket"}},"type":"Feature"},
	{"geometry":{"coordinates":[8.537156,47.524051],"type":"Point"},"properties":{"osm_id":"6790336373","tag":{"amenity":"waste_basket"}},"type":"Feature"},
	{"geometry":{"coordinates":[8.53761,47.524118],"type":"Point"},"properties":{"osm_id":"6790337718","tag":{"amenity":"waste_basket"}},"type":"Feature"},
	{"geometry":{"coordinates":[8.54243,47.529354],"type":"Point"},"properties":{"osm_id":"6948452576","tag":{"amenity":"waste_basket"}},"type":"Feature"},
	{"geometry":{"coordinates":[8.550105,47.547526],"type":"Point"},"properties":{"osm_id":"7044878017","tag":{"amenity":"waste_basket"}},"type":"Feature"},
	{"geometry":{"coordinates":[8.574146,47.552052],"type":"Point"},"properties":{"osm_id":"7174733472","tag":{"amenity":"waste_basket","waste":"trash"}},"type":"Feature"},
	{"geometry":{"coordinates":[8.539601,47.529416],"type":"Point"},"properties":{"osm_id":"7606593368","tag":{"amenity":"waste_basket"}},"type":"Feature"},
	{"geometry":{"coordinates":[8.563654,47.520105],"type":"Point"},"properties":{"osm_id":"7619713654","tag":{"amenity":"waste_basket"}},"type":"Feature"}
]
}
