{
"type": "FeatureCollection",
"features": [
	{"geometry":{"coordinates":[8.530909,47.413475],"type":"Point"},"properties":{"osm_id":"101374244","tag":{"amenity":"recycling","description":"Container: Metall (3), Gr\u00c3\u00bcnglas (4), Weissglas (2), Braunglas (1)","opening_hours":"Mo-Sa 07:00-20:00","operator":"ERZ","recycling:aluminium":"yes","recycling:cans":"yes","recycling:glass_bottles":"yes","recycling_type":"container"}},"type":"Feature"},
	{"geometry":{"coordinates":[8.535594,47.409918],"type":"Point"},"properties":{"osm_id":"107908078","tag":{"amenity":"recycling","operator":"Texaid","recycling:clothes":"yes","recycling:shoes":"yes","recycling_type":"container"}},"type":"Feature"},
	{"geometry":{"coordinates":[8.535529,47.407021],"type":"Point"},"properties":{"osm_id":"307742549","tag":{"amenity":"recycling","description":"Container: Braunglas (1), Weissglas (1), Gr\u00c3\u00bcnglas (2), Metall (2); Speise\u00c3\u00b6l/Mineral\u00c3\u00b6l","opening_hours":"Mo-Sa 07:00-20:00","operator":"ERZ","recycling:aluminium":"yes","recycling:cans":"yes","recycling:cooking_oil":"yes","recycling:engine_oil":"yes","recycling:glass_bottles":"yes","recycling_type":"container"}},"type":"Feature"},
	{"geometry":{"coordinates":[8.549353,47.422346],"type":"Point"},"properties":{"osm_id":"336370605","tag":{"amenity":"recycling","description":"Container: Braunglas (1), Weissglas (3), Gr\u00c3\u00bcnglas (4), Metall (4); Speise\u00c3\u00b6l/Mineral\u00c3\u00b6l","opening_hours":"Mo-Sa 07:00-20:00","operator":"ERZ","recycling:aluminium":"yes","recycling:cans":"yes","recycling:cooking_oil":"yes","recycling:engine_oil":"yes","recycling:glass_bottles":"yes","recycling_type":"container"}},"type":"Feature"},
	{"geometry":{"coordinates":[8.540104,47.404967],"type":"Point"},"properties":{"osm_id":"346665424","tag":{"amenity":"recycling","description":"Container: Braunglas (1), Weissglas (2), Gr\u00c3\u00bcnglas (3), Metall (2)","opening_hours":"Mo-Sa 07:00-20:00","operator":"ERZ","recycling:aluminium":"yes","recycling:cans":"yes","recycling:glass_bottles":"yes","recycling_type":"container"}},"type":"Feature"},
	{"geometry":{"coordinates":[8.543539,47.418812],"type":"Point"},"properties":{"osm_id":"373505390","tag":{"amenity":"recycling","description":"Container: Metall (5), Gr\u00c3\u00bcnglas (5), Weissglas (3), Braunglas (2); Speise\u00c3\u00b6l/Mineral\u00c3\u00b6l","opening_hours":"Mo-Sa 07:00-20:00","operator":"ERZ","recycling:aluminium":"yes","recycling:cans":"yes","recycling:cooking_oil":"yes","recycling:engine_oil":"yes","recycling:glass_bottles":"yes","recycling_type":"container"}},"type":"Feature"},
	{"geometry":{"coordinates":[8.583316,47.451276],"type":"Point"},"properties":{"name":"Altbach / Stadthaus","osm_id":"380229600","tag":{"amenity":"recycling","recycling:clothes":"yes","recycling_type":"container"}},"type":"Feature"},
	{"geometry":{"coordinates":[8.539177,47.423049],"type":"Point"},"properties":{"osm_id":"445006864","tag":{"amenity":"recycling","description":"Container: Metall (3), Gr\u00c3\u00bcnglas (4), Weissglas (2), Braunglas (1)","opening_hours":"Mo-Sa 07:00-20:00","operator":"ERZ","recycling:aluminium":"yes","recycling:cans":"yes","recycling:glass_bottles":"yes","recycling_type":"container"}},"type":"Feature"},
	{"geometry":{"coordinates":[8.528231,47.411578],"type":"Point"},"properties":{"osm_id":"452160718","tag":{"amenity":"recycling","location":"overground","recycling_type":"container"}},"type":"Feature"},
	{"geometry":{"coordinates":[8.585433,47.402113],"type":"Point"},"properties":{"osm_id":"497288195","tag":{"amenity":"recycling","description":"Container: Braunglas (1), Weissglas (2), Gr\u00c3\u00bcnglas (3), Metall (3); Speise\u00c3\u00b6l/Mineral\u00c3\u00b6l","opening_hours":"Mo-Sa 07:00-20:00","operator":"ERZ","recycling:aluminium":"yes","recycling:cans":"yes","recycling:cooking_oil":"yes","recycling:engine_oil":"yes","recycling:glass_bottles":"yes","recycling_type":"container"}},"type":"Feature"},
	{"geometry":{"coordinates":[8.570521,47.403536],"type":"Point"},"properties":{"osm_id":"500913430","tag":{"amenity":"recycling","description":"Container: Metall (4), Gr\u00c3\u00bcnglas (5), Weissglas (3), Braunglas (2); Speise\u00c3\u00b6l/Mineral\u00c3\u00b6l","opening_hours":"Mo-Sa 07:00-20:00","operator":"ERZ","recycling:aluminium":"yes","recycling:cans":"yes","recycling:cooking_oil":"yes","recycling:engine_oil":"yes","recycling:glass_bottles":"yes","recycling_type":"container"}},"type":"Feature"},
	{"geometry":{"coordinates":[8.572124,47.413489],"type":"Point"},"properties":{"osm_id":"500922398","tag":{"amenity":"recycling","description":"Container: Metall (2), Gr\u00c3\u00bcnglas (2), Weissglas (1), Braunglas (1)","opening_hours":"Mo-Sa 07:00-20:00","operator":"ERZ","recycling:aluminium":"yes","recycling:cans":"yes","recycling:glass_bottles":"yes","recycling_type":"container"}},"type":"Feature"},
	{"geometry":{"coordinates":[8.532315,47.398645],"type":"Point"},"properties":{"osm_id":"503301670","tag":{"amenity":"recycling","description":"Container: Braunglas (1), Weissglas (2), Gr\u00c3\u00bcnglas (3), Metall (2); Speise\u00c3\u00b6l/Mineral\u00c3\u00b6l","opening_hours":"Mo-Sa 07:00-20:00","operator":"ERZ","recycling:aluminium":"yes","recycling:cans":"yes","recycling:cooking_oil":"yes","recycling:engine_oil":"yes","recycling:glass_bottles":"yes","recycling_type":"container"}},"type":"Feature"},
	{"geometry":{"coordinates":[8.600334,47.412807],"type":"Point"},"properties":{"osm_id":"591865329","tag":{"amenity":"recycling","opening_hours":"Mo-Sa 07:00-12:00,13:00-20:00; PH closed","recycling:aluminium":"yes","recycling:cans":"yes","recycling:glass":"yes","recycling_type":"container"}},"type":"Feature"},
	{"geometry":{"coordinates":[8.578504,47.404015],"type":"Point"},"properties":{"osm_id":"619429807","tag":{"amenity":"recycling","description":"Container: Metall (2), Gr\u00c3\u00bcnglas (2), Weissglas (1), Braunglas (1)","opening_hours":"Mo-Sa 07:00-20:00","operator":"ERZ","recycling:aluminium":"yes","recycling:cans":"yes","recycling:glass_bottles":"yes","recycling_type":"container"}},"type":"Feature"},
	{"geometry":{"coordinates":[8.588807,47.403274],"type":"Point"},"properties":{"osm_id":"619429811","tag":{"amenity":"recycling","description":"Universalcontainer: Braunglas, Weissglas, Gr\u00c3\u00bcnglas, Metall","opening_hours":"Mo-Sa 07:00-20:00","operator":"ERZ","recycling:aluminium":"yes","recycling:cans":"yes","recycling:glass_bottles":"yes","recycling_type":"container"}},"type":"Feature"},
	{"geometry":{"coordinates":[8.592145,47.399681],"type":"Point"},"properties":{"osm_id":"619429826","tag":{"amenity":"recycling","description":"Container: Metall (2), Gr\u00c3\u00bcnglas (2), Weissglas (2), Braunglas (1)","opening_hours":"Mo-Sa 07:00-20:00","operator":"ERZ","recycling:aluminium":"yes","recycling:cans":"yes","recycling:glass_bottles":"yes","recycling_type":"container"}},"type":"Feature"},
	{"geometry":{"coordinates":[8.531252,47.413436],"type":"Point"},"properties":{"osm_id":"668049026","tag":{"amenity":"waste_basket"}},"type":"Feature"},
	{"geometry":{"coordinates":[8.532666,47.412816],"type":"Point"},"properties":{"osm_id":"668049031","tag":{"amenity":"waste_basket"}},"type":"Feature"},
	{"geometry":{"coordinates":[8.536619,47.414545],"type":"Point"},"properties":{"osm_id":"678823002","tag":{"amenity":"waste_basket"}},"type":"Feature"},
	{"geometry":{"coordinates":[8.536938,47.414735],"type":"Point"},"properties":{"osm_id":"678823004","tag":{"amenity":"waste_basket"}},"type":"Feature"},
	{"geometry":{"coordinates":[8.537479,47.414701],"type":"Point"},"properties":{"osm_id":"678823029","tag":{"amenity":"waste_basket"}},"type":"Feature"},
	{"geometry":{"coordinates":[8.537632,47.4148],"type":"Point"},"properties":{"osm_id":"678823032","tag":{"amenity":"waste_basket"}},"type":"Feature"},
	{"geometry":{"coordinates":[8.536754,47.415108],"type":"Point"},"properties":{"osm_id":"678823064","tag":{"amenity":"waste_basket"}},"type":"Feature"},
	{"geometry":{"coordinates":[8.538311,47.414719],"type":"Point"},"properties":{"osm_id":"678823071","tag":{"amenity":"waste_basket"}},"type":"Feature"},
	{"geometry":{"coordinates":[8.538602,47.414715],"type":"Point"},"properties":{"osm_id":"678823096","tag":{"amenity":"waste_basket"}},"type":"Feature"},
	{"geometry":{"coordinates":[8.539197,47.414519],"type":"Point"},"properties":{"osm_id":"678823100","tag":{"amenity":"waste_basket"}},"type":"Feature"},
	{"geometry":{"coordinates":[8.539849,47.415431],"type":"Point"},"properties":{"osm_id":"678868184","tag":{"amenity":"waste_basket"}},"type":"Feature"},
	{"geometry":{"coordinates":[8.540543,47.415319],"type":"Point"},"properties":{"osm_id":"678868185","tag":{"amenity":"waste_basket"}},"type":"Feature"},
	{"geometry":{"coordinates":[8.540635,47.415043],"type":"Point"},"properties":{"osm_id":"678868188","tag":{"amenity":"waste_basket"}},"type":"Feature"},
	{"geometry":{"coordinates":[8.540795,47.415473],"type":"Point"},"properties":{"osm_id":"678868189","tag":{"amenity":"waste_basket"}},"type":"Feature"},
	{"geometry":{"coordinates":[8.539878,47.415828],"type":"Point"},"properties":{"osm_id":"678868192","tag":{"amenity":"waste_basket"}},"type":"Feature"},
	{"geometry":{"coordinates":[8.539869,47.415644],"type":"Point"},"properties":{"osm_id":"678868193","tag":{"amenity":"waste_basket"}},"type":"Feature"},
	{"geometry":{"coordinates":[8.540263,47.415751],"type":"Point"},"properties":{"osm_id":"678868194","tag":{"amenity":"waste_basket"}},"type":"Feature"},
	{"geometry":{"coordinates":[8.540411,47.415688],"type":"Point"},"properties":{"osm_id":"678868195","tag":{"amenity":"waste_basket"}},"type":"Feature"},
	{"geometry":{"coordinates":[8.540698,47.415625],"type":"Point"},"properties":{"osm_id":"678868196","tag":{"amenity":"waste_basket"}},"type":"Feature"},
	{"geometry":{"coordinates":[8.536185,47.413924],"type":"Point"},"properties":{"osm_id":"693205557","tag":{"amenity":"waste_basket"}},"type":"Feature"},
	{"geometry":{"coordinates":[8.536238,47.413642],"type":"Point"},"properties":{"osm_id":"693205570","tag":{"amenity":"waste_basket"}},"type":"Feature"},
	{"geometry":{"coordinates":[8.539505,47.415608],"type":"Point"},"properties":{"osm_id":"700787532","tag":{"amenity":"waste_basket"}},"type":"Feature"},
	{"geometry":{"coordinates":[8.53949,47.415454],"type":"Point"},"properties":{"osm_id":"700787533","tag":{"amenity":"waste_basket"}},"type":"Feature"},
	{"geometry":{"coordinates":[8.541555,47.41501],"type":"Point"},"properties":{"osm_id":"700787538","tag":{"amenity":"waste_basket"}},"type":"Feature"},
	{"geometry":{"coordinates":[8.541591,47.41529],"type":"Point"},"properties":{"osm_id":"700787539","tag":{"amenity":"waste_basket"}},"type":"Feature"},
	{"geometry":{"coordinates":[8.54162,47.415561],"type":"Point"},"properties":{"osm_id":"700787546","tag":{"amenity":"waste_basket"}},"type":"Feature"},
	{"geometry":{"coordinates":[8.552188,47.408347],"type":"Point"},"properties":{"osm_id":"701734698","tag":{"amenity":"recycling","description":"Container: Metall (2), Gr\u00c3\u00bcnglas (3), Weissglas (2), Braunglas (1)","opening_hours":"Mo-Sa 07:00-20:00","operator":"ERZ","recycling:aluminium":"yes","recycling:cans":"yes","recycling:glass_bottles":"yes","recycling_type":"container"}},"type":"Feature"},
	{"geometry":{"coordinates":[8.536663,47.425766],"type":"Point"},"properties":{"osm_id":"714160626","tag":{"amenity":"recycling","description":"Container: Braunglas (1), Weissglas (1), Gr\u00c3\u00bcnglas (1), Metall (2)","opening_hours":"Mo-Sa 07:00-20:00","operator":"ERZ","recycling:aluminium":"yes","recycling:cans":"yes","recycling:glass_bottles":"yes","recycling_type":"container","wheelchair":"yes"}},"type":"Feature"},
	{"geometry":{"coordinates":[8.545779,47.427424],"type":"Point"},"properties":{"osm_id":"759958832","tag":{"amenity":"recycling","operator":"Texaid","recycling:clothes":"yes","recycling:shoes":"yes","recycling_type":"container"}},"type":"Feature"},
	{"geometry":{"coordinates":[8.535141,47.416652],"type":"Point"},"properties":{"osm_id":"770691185","tag":{"amenity":"waste_basket"}},"type":"Feature"},
	{"geometry":{"coordinates":[8.537429,47.415123],"type":"Point"},"properties":{"osm_id":"770691349","tag":{"amenity":"waste_basket"}},"type":"Feature"},
	{"geometry":{"coordinates":[8.530349,47.44998],"type":"Point"},"properties":{"name":"Glas, Metall","osm_id":"842634422","tag":{"amenity":"recycling","location":"underground","recycling_type":"container"}},"type":"Feature"},
	{"geometry":{"coordinates":[8.536923,47.448032],"type":"Point"},"properties":{"name":"Sammelstelle R\u00c3\u00bcmelbach","osm_id":"842639415","tag":{"amenity":"recycling","recycling_type":"centre"}},"type":"Feature"},
	{"geometry":{"coordinates":[8.546119,47.402626],"type":"Point"},"properties":{"osm_id":"866961711","tag":{"amenity":"recycling","description":"Container: Braunglas (2), Weissglas (3), Gr\u00c3\u00bcnglas (3), Metall (3)","opening_hours":"Mo-Sa 07:00-20:00","operator":"ERZ","recycling:aluminium":"yes","recycling:cans":"yes","recycling:glass_bottles":"yes","recycling_type":"container"}},"type":"Feature"},
	{"geometry":{"coordinates":[8.550838,47.40466],"type":"Point"},"properties":{"osm_id":"926806725","tag":{"amenity":"recycling","description":"Container: Metall (3), Gr\u00c3\u00bcnglas (3), Weissglas (2), Braunglas (2)","opening_hours":"Mo-Sa 07:00-20:00","operator":"ERZ","recycling:aluminium":"yes","recycling:cans":"yes","recycling:glass_bottles":"yes","recycling_type":"container"}},"type":"Feature"},
	{"geometry":{"coordinates":[8.554255,47.404648],"type":"Point"},"properties":{"osm_id":"926806733","tag":{"amenity":"recycling","description":"Container: Metall (2), Gr\u00c3\u00bcnglas (3), Weissglas (2), Braunglas (1)","opening_hours":"Mo-Sa 07:00-20:00","operator":"ERZ","recycling:aluminium":"yes","recycling:cans":"yes","recycling:glass_bottles":"yes","recycling_type":"container"}},"type":"Feature"},
	{"geometry":{"coordinates":[8.550422,47.40723],"type":"Point"},"properties":{"osm_id":"942567949","tag":{"amenity":"waste_basket"}},"type":"Feature"},
	{"geometry":{"coordinates":[8.561672,47.408386],"type":"Point"},"properties":{"osm_id":"1229577735","tag":{"amenity":"recycling","description":"Container: Metall (2), Gr\u00c3\u00bcnglas (3), Weissglas (2), Braunglas (1)","opening_hours":"Mo-Sa 07:00-20:00","operator":"ERZ","recycling:aluminium":"yes","recycling:cans":"yes","recycling:glass_bottles":"yes","recycling_type":"container"}},"type":"Feature"},
	{"geometry":{"coordinates":[8.563399,47.410325],"type":"Point"},"properties":{"osm_id":"1229577736","tag":{"amenity":"recycling","operator":"Texaid","recycling:clothes":"yes","recycling:shoes":"yes","recycling_type":"container"}},"type":"Feature"},
	{"geometry":{"coordinates":[8.563257,47.410631],"type":"Point"},"properties":{"osm_id":"1229577738","tag":{"amenity":"recycling","operator":"Texaid","recycling:clothes":"yes","recycling:shoes":"yes","recycling_type":"container"}},"type":"Feature"},
	{"geometry":{"coordinates":[8.544203,47.408866],"type":"Point"},"properties":{"osm_id":"1269193178","tag":{"amenity":"recycling","description":"Container: Braunglas (1), Weissglas (1), Gr\u00c3\u00bcnglas (2), Metall (1)","opening_hours":"Mo-Sa 07:00-20:00","operator":"ERZ","recycling:aluminium":"yes","recycling:cans":"yes","recycling:glass_bottles":"yes","recycling_type":"container","wheelchair":"yes"}},"type":"Feature"},
	{"geometry":{"coordinates":[8.541689,47.406188],"type":"Point"},"properties":{"osm_id":"1269314730","tag":{"amenity":"waste_basket"}},"type":"Feature"},
	{"geometry":{"coordinates":[8.542344,47.405912],"type":"Point"},"properties":{"osm_id":"1269372070","tag":{"amenity":"waste_basket"}},"type":"Feature"},
	{"geometry":{"coordinates":[8.543007,47.406834],"type":"Point"},"properties":{"osm_id":"1269372074","tag":{"amenity":"waste_basket"}},"type":"Feature"},
	{"geometry":{"coordinates":[8.555475,47.404064],"type":"Point"},"properties":{"osm_id":"1305187001","tag":{"amenity":"waste_basket"}},"type":"Feature"},
	{"geometry":{"coordinates":[8.532513,47.407616],"type":"Point"},"properties":{"osm_id":"1320366970","tag":{"amenity":"recycling","operator":"Texaid","recycling:clothes":"yes","recycling:shoes":"yes","recycling_type":"container"}},"type":"Feature"},
	{"geometry":{"coordinates":[8.556855,47.404115],"type":"Point"},"properties":{"osm_id":"1389656273","tag":{"amenity":"recycling","description":"Container: Metall (2), Gr\u00c3\u00bcnglas (2), Weissglas (2), Braunglas (1)","opening_hours":"Mo-Sa 07:00-20:00","operator":"ERZ","recycling:aluminium":"yes","recycling:cans":"yes","recycling:glass_bottles":"yes","recycling_type":"container"}},"type":"Feature"},
	{"geometry":{"coordinates":[8.548106,47.402244],"type":"Point"},"properties":{"osm_id":"1436428220","tag":{"amenity":"recycling","operator":"Texaid","recycling:clothes":"yes","recycling:shoes":"yes","recycling_type":"container"}},"type":"Feature"},
	{"geometry":{"coordinates":[8.53297,47.410504],"type":"Point"},"properties":{"osm_id":"1617771677","tag":{"amenity":"waste_basket"}},"type":"Feature"},
	{"geometry":{"coordinates":[8.546802,47.406626],"type":"Point"},"properties":{"osm_id":"1617870594","tag":{"amenity":"waste_basket"}},"type":"Feature"},
	{"geometry":{"coordinates":[8.546696,47.40721],"type":"Point"},"properties":{"osm_id":"1617870639","tag":{"amenity":"waste_basket"}},"type":"Feature"},
	{"geometry":{"coordinates":[8.544899,47.408565],"type":"Point"},"properties":{"osm_id":"1617887418","tag":{"amenity":"waste_basket"}},"type":"Feature"},
	{"geometry":{"coordinates":[8.544996,47.408524],"type":"Point"},"properties":{"osm_id":"1617887481","tag":{"amenity":"recycling","operator":"Texaid","recycling:clothes":"yes","recycling:shoes":"yes","recycling_type":"container"}},"type":"Feature"},
	{"geometry":{"coordinates":[8.583714,47.448192],"type":"Point"},"properties":{"name":"Breitistrasse / Bahnhof","osm_id":"1762967775","tag":{"amenity":"recycling","location":"underground","recycling:aluminium":"yes","recycling:cans":"yes","recycling:glass":"yes","recycling:glass_bottles":"yes","recycling_type":"container"}},"type":"Feature"},
	{"geometry":{"coordinates":[8.582567,47.451353],"type":"Point"},"properties":{"name":"Altbach / Stadthaus","osm_id":"1790254425","tag":{"amenity":"recycling","location":"underground","recycling:aluminium":"yes","recycling:cans":"yes","recycling:glass":"yes","recycling_type":"container"}},"type":"Feature"},
	{"geometry":{"coordinates":[8.595283,47.444386],"type":"Point"},"properties":{"name":"Bushaltestelle Buchhalden","osm_id":"1790254432","tag":{"amenity":"recycling","recycling:aluminium":"yes","recycling:cans":"yes","recycling:clothes":"yes","recycling:glass":"yes","recycling_type":"container"}},"type":"Feature"},
	{"geometry":{"coordinates":[8.593466,47.453714],"type":"Point"},"properties":{"name":"Graswinkel","osm_id":"1790254453","tag":{"amenity":"recycling","recycling:aluminium":"yes","recycling:cans":"yes","recycling:clothes":"yes","recycling:glass":"yes","recycling:scrap_metal":"no","recycling_type":"container"}},"type":"Feature"},
	{"geometry":{"coordinates":[8.581111,47.446704],"type":"Point"},"properties":{"name":"Hauptsammelstelle R\u00c3\u00b6merweg","osm_id":"1790254456","tag":{"amenity":"recycling","opening_hours":"Mo-Fr 15:00-18:00; Sa 09:00-13:00","recycling:aluminium":"yes","recycling:animal_waste":"yes","recycling:batteries":"yes","recycling:bicycles":"yes","recycling:cans":"yes","recycling:cartons":"yes","recycling:clothes":"yes","recycling:cooking_oil":"yes","recycling:electrical_items":"yes","recycling:glass":"yes","recycling:paper":"yes","recycling:scrap_metal":"yes","recycling_type":"centre"}},"type":"Feature"},
	{"geometry":{"coordinates":[8.576184,47.446418],"type":"Point"},"properties":{"name":"L\u00c3\u00a4gernstrasse","osm_id":"1790254469","tag":{"amenity":"recycling","recycling:aluminium":"yes","recycling:clothes":"yes","recycling:glass":"yes","recycling:scrap_metal":"yes"}},"type":"Feature"},
	{"geometry":{"coordinates":[8.53318,47.411348],"type":"Point"},"properties":{"osm_id":"1847517503","tag":{"amenity":"waste_basket"}},"type":"Feature"},
	{"geometry":{"coordinates":[8.532877,47.412109],"type":"Point"},"properties":{"osm_id":"1847517504","tag":{"amenity":"waste_basket"}},"type":"Feature"},
	{"geometry":{"coordinates":[8.532739,47.41252],"type":"Point"},"properties":{"osm_id":"1847517505","tag":{"amenity":"waste_basket"}},"type":"Feature"},
	{"geometry":{"coordinates":[8.581134,47.436045],"type":"Point"},"properties":{"osm_id":"1907039065","tag":{"amenity":"waste_basket"}},"type":"Feature"},
	{"geometry":{"coordinates":[8.533634,47.412165],"type":"Point"},"properties":{"osm_id":"2024009563","tag":{"amenity":"waste_basket"}},"type":"Feature"},
	{"geometry":{"coordinates":[8.583386,47.448476],"type":"Point"},"properties":{"osm_id":"2124172563","tag":{"amenity":"waste_basket"}},"type":"Feature"},
	{"geometry":{"coordinates":[8.583549,47.448565],"type":"Point"},"properties":{"osm_id":"2124172566","tag":{"amenity":"waste_basket"}},"type":"Feature"},
	{"geometry":{"coordinates":[8.579961,47.409516],"type":"Point"},"properties":{"osm_id":"2549262969","tag":{"amenity":"waste_basket"}},"type":"Feature"},
	{"geometry":{"coordinates":[8.530472,47.420119],"type":"Point"},"properties":{"osm_id":"2628766566","tag":{"amenity":"waste_basket"}},"type":"Feature"},
	{"geometry":{"coordinates":[8.531124,47.413288],"type":"Point"},"properties":{"osm_id":"2630269598","tag":{"amenity":"waste_basket"}},"type":"Feature"},
	{"geometry":{"coordinates":[8.539754,47.410336],"type":"Point"},"properties":{"osm_id":"2636463187","tag":{"amenity":"recycling","description":"Container: Metall (2), Gr\u00c3\u00bcnglas (2), Weissglas (1), Braunglas (1)","opening_hours":"Mo-Sa 07:00-20:00","operator":"ERZ","recycling:aluminium":"yes","recycling:cans":"yes","recycling:glass_bottles":"yes","recycling_type":"container","wheelchair":"no"}},"type":"Feature"},
	{"geometry":{"coordinates":[8.567549,47.430969],"type":"Point"},"properties":{"name":"Parklplatz Bad","osm_id":"2734950523","tag":{"amenity":"recycling","recycling:cans":"yes","recycling:clothes":"yes","recycling:glass":"yes","recycling:paper":"no","recycling_type":"container"}},"type":"Feature"},
	{"geometry":{"coordinates":[8.547639,47.427655],"type":"Point"},"properties":{"osm_id":"3086649562","tag":{"amenity":"recycling","description":"Container: Metall (2), Gr\u00c3\u00bcnglas (2), Weissglas (1), Braunglas (1)","opening_hours":"Mo-Sa 07:00-20:00","operator":"ERZ","recycling:aluminium":"yes","recycling:cans":"yes","recycling:glass_bottles":"yes","recycling_type":"container"}},"type":"Feature"},
	{"geometry":{"coordinates":[8.540082,47.431496],"type":"Point"},"properties":{"osm_id":"3086649790","tag":{"amenity":"waste_basket","vending":"excrement_bags"}},"type":"Feature"},
	{"geometry":{"coordinates":[8.538292,47.418363],"type":"Point"},"properties":{"osm_id":"3087213408","tag":{"amenity":"waste_basket","operator":"Robidog","vending":"excrement_bags"}},"type":"Feature"},
	{"geometry":{"coordinates":[8.532112,47.400119],"type":"Point"},"properties":{"osm_id":"3137618531","tag":{"amenity":"waste_disposal"}},"type":"Feature"},
	{"geometry":{"coordinates":[8.53331,47.414285],"type":"Point"},"properties":{"osm_id":"3278776261","tag":{"amenity":"waste_basket"}},"type":"Feature"},
	{"geometry":{"coordinates":[8.588129,47.41161],"type":"Point"},"properties":{"osm_id":"3302876580","tag":{"amenity":"waste_basket"}},"type":"Feature"},
	{"geometry":{"coordinates":[8.536963,47.417055],"type":"Point"},"properties":{"osm_id":"3397820024","tag":{"amenity":"recycling","description":"Container: Metall (2), Gr\u00c3\u00bcnglas (2), Weissglas (1), Braunglas (1)","opening_hours":"Mo-Sa 07:00-20:00","operator":"ERZ","recycling:aluminium":"yes","recycling:cans":"yes","recycling:glass_bottles":"yes","recycling_type":"container","wheelchair":"yes"}},"type":"Feature"},
	{"geometry":{"coordinates":[8.530466,47.402594],"type":"Point"},"properties":{"osm_id":"3634557931","tag":{"amenity":"recycling","description":"Container: Braunglas (1), Weissglas (2), Gr\u00c3\u00bcnglas (3), Metall (3)","opening_hours":"Mo-Sa 07:00-20:00","operator":"ERZ","recycling:aluminium":"yes","recycling:cans":"yes","recycling:glass_bottles":"yes","recycling_type":"container"}},"type":"Feature"},
	{"geometry":{"coordinates":[8.529921,47.398615],"type":"Point"},"properties":{"osm_id":"3671109259","tag":{"amenity":"waste_basket"}},"type":"Feature"},
	{"geometry":{"coordinates":[8.529489,47.399843],"type":"Point"},"properties":{"osm_id":"3671109263","tag":{"amenity":"waste_basket"}},"type":"Feature"},
	{"geometry":{"coordinates":[8.52952,47.399463],"type":"Point"},"properties":{"osm_id":"3671109264","tag":{"amenity":"waste_basket"}},"type":"Feature"},
	{"geometry":{"coordinates":[8.529166,47.399721],"type":"Point"},"properties":{"osm_id":"3671109268","tag":{"amenity":"waste_basket"}},"type":"Feature"},
	{"geometry":{"coordinates":[8.602605,47.402003],"type":"Point"},"properties":{"osm_id":"4071976710","tag":{"amenity":"waste_basket","fee":"no","vending":"excrement_bags"}},"type":"Feature"},
	{"geometry":{"coordinates":[8.584552,47.422916],"type":"Point"},"properties":{"osm_id":"4080220662","tag":{"amenity":"waste_basket"}},"type":"Feature"},
	{"geometry":{"coordinates":[8.525768,47.41394],"type":"Point"},"properties":{"osm_id":"4131506423","tag":{"amenity":"waste_disposal","waste":"trash"}},"type":"Feature"},
	{"geometry":{"coordinates":[8.526647,47.41405],"type":"Point"},"properties":{"osm_id":"4131506425","tag":{"amenity":"waste_disposal","waste":"trash"}},"type":"Feature"},
	{"geometry":{"coordinates":[8.526615,47.414052],"type":"Point"},"properties":{"osm_id":"4131506426","tag":{"amenity":"waste_disposal","waste":"trash"}},"type":"Feature"},
	{"geometry":{"coordinates":[8.605244,47.403996],"type":"Point"},"properties":{"osm_id":"4149653890","tag":{"amenity":"waste_basket"}},"type":"Feature"},
	{"geometry":{"coordinates":[8.607475,47.403257],"type":"Point"},"properties":{"osm_id":"4149658993","tag":{"amenity":"recycling","recycling:PET":"yes","recycling_type":"container"}},"type":"Feature"},
	{"geometry":{"coordinates":[8.60492,47.404165],"type":"Point"},"properties":{"osm_id":"4184055305","tag":{"amenity":"waste_basket"}},"type":"Feature"},
	{"geometry":{"coordinates":[8.603564,47.4022],"type":"Point"},"properties":{"osm_id":"4191729135","tag":{"amenity":"recycling","location":"overground","operator":"Prodega","recycling:PET":"yes","recycling_type":"container"}},"type":"Feature"},
	{"geometry":{"coordinates":[8.604386,47.401604],"type":"Point"},"properties":{"osm_id":"4191729136","tag":{"amenity":"recycling","location":"overground","operator":"Prodega","recycling:cardboard":"yes","recycling_type":"container"}},"type":"Feature"},
	{"geometry":{"coordinates":[8.547777,47.416589],"type":"Point"},"properties":{"osm_id":"4199923787","tag":{"amenity":"waste_basket"}},"type":"Feature"},
	{"geometry":{"coordinates":[8.603418,47.401023],"type":"Point"},"properties":{"osm_id":"4209416566","tag":{"amenity":"recycling","indoor":"yes","level":"0","recycling:PET":"yes","recycling:batteries":"yes","recycling:cds":"yes","recycling:cream_gas_bottles":"yes","recycling:dvds":"yes","recycling:plastic_bottles":"yes","recycling:water_filter_cartridges":"yes"}},"type":"Feature"},
	{"geometry":{"coordinates":[8.578408,47.447895],"type":"Point"},"properties":{"osm_id":"4318455090","tag":{"amenity":"waste_basket"}},"type":"Feature"},
	{"geometry":{"coordinates":[8.606089,47.40499],"type":"Point"},"properties":{"osm_id":"4339102805","tag":{"amenity":"recycling","opening_hours":"Mo-Sa 08:00-20:00; Su, PH off","operator":"Stadt D\u00c3\u00bcbendorf","recycling:aluminium":"yes","recycling:cans":"yes","recycling:clothes":"yes","recycling:glass":"yes","recycling:tin":"yes","surveillance":"yes"}},"type":"Feature"},
	{"geometry":{"coordinates":[8.539057,47.413695],"type":"Point"},"properties":{"osm_id":"4341360705","tag":{"amenity":"waste_basket"}},"type":"Feature"},
	{"geometry":{"coordinates":[8.541067,47.414136],"type":"Point"},"properties":{"osm_id":"4346972191","tag":{"amenity":"waste_basket","manufacturer":"Anta Swiss"}},"type":"Feature"},
	{"geometry":{"coordinates":[8.598974,47.407778],"type":"Point"},"properties":{"osm_id":"4366137739","tag":{"amenity":"recycling","operator":"Texaid","recycling:clothes":"yes","recycling:shoes":"yes","recycling_type":"container"}},"type":"Feature"},
	{"geometry":{"coordinates":[8.548624,47.427263],"type":"Point"},"properties":{"osm_id":"4427961837","tag":{"amenity":"recycling","operator":"Texaid","recycling:clothes":"yes","recycling:shoes":"yes","recycling_type":"container"}},"type":"Feature"},
	{"geometry":{"coordinates":[8.550491,47.410935],"type":"Point"},"properties":{"osm_id":"4430011059","tag":{"amenity":"waste_basket","manufacturer":"Anta Swiss"}},"type":"Feature"},
	{"geometry":{"coordinates":[8.550782,47.410937],"type":"Point"},"properties":{"osm_id":"4430011060","tag":{"amenity":"waste_basket","manufacturer":"Anta Swiss"}},"type":"Feature"},
	{"geometry":{"coordinates":[8.550879,47.410862],"type":"Point"},"properties":{"osm_id":"4430011061","tag":{"amenity":"waste_basket","manufacturer":"Anta Swiss"}},"type":"Feature"},
	{"geometry":{"coordinates":[8.594316,47.416602],"type":"Point"},"properties":{"osm_id":"4468929504","tag":{"amenity":"recycling"}},"type":"Feature"},
	{"geometry":{"coordinates":[8.545443,47.412742],"type":"Point"},"properties":{"osm_id":"4512105545","tag":{"amenity":"waste_basket","level":"-1"}},"type":"Feature"},
	{"geometry":{"coordinates":[8.545627,47.412998],"type":"Point"},"properties":{"osm_id":"4512105552","tag":{"amenity":"waste_basket","level":"-1"}},"type":"Feature"},
	{"geometry":{"coordinates":[8.545528,47.412944],"type":"Point"},"properties":{"osm_id":"4512105555","tag":{"amenity":"waste_basket","level":"-1"}},"type":"Feature"},
	{"geometry":{"coordinates":[8.54551,47.412121],"type":"Point"},"properties":{"osm_id":"4512105561","tag":{"amenity":"waste_basket","level":"-1"}},"type":"Feature"},
	{"geometry":{"coordinates":[8.545546,47.412073],"type":"Point"},"properties":{"osm_id":"4512105571","tag":{"amenity":"waste_basket","level":"-1"}},"type":"Feature"},
	{"geometry":{"coordinates":[8.545842,47.413069],"type":"Point"},"properties":{"osm_id":"4512105577","tag":{"amenity":"waste_basket","level":"-1"}},"type":"Feature"},
	{"geometry":{"coordinates":[8.543508,47.412362],"type":"Point"},"properties":{"osm_id":"4512555324","tag":{"amenity":"waste_basket"}},"type":"Feature"},
	{"geometry":{"coordinates":[8.543813,47.412476],"type":"Point"},"properties":{"osm_id":"4512555325","tag":{"amenity":"waste_basket"}},"type":"Feature"},
	{"geometry":{"coordinates":[8.544085,47.41258],"type":"Point"},"properties":{"osm_id":"4512555331","tag":{"amenity":"waste_basket"}},"type":"Feature"},
	{"geometry":{"coordinates":[8.543249,47.411907],"type":"Point"},"properties":{"osm_id":"4512555346","tag":{"amenity":"waste_basket","level":"-1"}},"type":"Feature"},
	{"geometry":{"coordinates":[8.543369,47.411753],"type":"Point"},"properties":{"osm_id":"4512555348","tag":{"amenity":"waste_basket","level":"-1"}},"type":"Feature"},
	{"geometry":{"coordinates":[8.54345,47.41165],"type":"Point"},"properties":{"osm_id":"4512555349","tag":{"amenity":"waste_basket","level":"-1"}},"type":"Feature"},
	{"geometry":{"coordinates":[8.543544,47.411538],"type":"Point"},"properties":{"osm_id":"4512555350","tag":{"amenity":"waste_basket","level":"-1"}},"type":"Feature"},
	{"geometry":{"coordinates":[8.543279,47.411181],"type":"Point"},"properties":{"osm_id":"4512555358","tag":{"amenity":"waste_basket"}},"type":"Feature"},
	{"geometry":{"coordinates":[8.54367,47.411382],"type":"Point"},"properties":{"osm_id":"4512555371","tag":{"amenity":"waste_basket","level":"-1"}},"type":"Feature"},
	{"geometry":{"coordinates":[8.543703,47.411299],"type":"Point"},"properties":{"osm_id":"4512555375","tag":{"amenity":"waste_basket"}},"type":"Feature"},
	{"geometry":{"coordinates":[8.544176,47.411419],"type":"Point"},"properties":{"osm_id":"4512555377","tag":{"amenity":"waste_basket"}},"type":"Feature"},
	{"geometry":{"coordinates":[8.544635,47.411593],"type":"Point"},"properties":{"osm_id":"4512555378","tag":{"amenity":"waste_basket"}},"type":"Feature"},
	{"geometry":{"coordinates":[8.545468,47.412198],"type":"Point"},"properties":{"osm_id":"4512555384","tag":{"amenity":"waste_basket"}},"type":"Feature"},
	{"geometry":{"coordinates":[8.544972,47.41188],"type":"Point"},"properties":{"osm_id":"4512555385","tag":{"amenity":"waste_basket"}},"type":"Feature"},
	{"geometry":{"coordinates":[8.54502,47.411782],"type":"Point"},"properties":{"osm_id":"4512555386","tag":{"amenity":"waste_basket"}},"type":"Feature"},
	{"geometry":{"coordinates":[8.544924,47.411682],"type":"Point"},"properties":{"osm_id":"4512555387","tag":{"amenity":"waste_basket"}},"type":"Feature"},
	{"geometry":{"coordinates":[8.546322,47.412499],"type":"Point"},"properties":{"osm_id":"4512555696","tag":{"amenity":"waste_basket","level":"-1"}},"type":"Feature"},
	{"geometry":{"coordinates":[8.545717,47.412284],"type":"Point"},"properties":{"osm_id":"4512555700","tag":{"amenity":"waste_basket","level":"-1"}},"type":"Feature"},
	{"geometry":{"coordinates":[8.54549,47.412213],"type":"Point"},"properties":{"osm_id":"4512555704","tag":{"amenity":"waste_basket","level":"-1"}},"type":"Feature"},
	{"geometry":{"coordinates":[8.531701,47.398919],"type":"Point"},"properties":{"osm_id":"4515160925","tag":{"amenity":"waste_basket"}},"type":"Feature"},
	{"geometry":{"coordinates":[8.549424,47.409756],"type":"Point"},"properties":{"osm_id":"4558739348","tag":{"amenity":"recycling","description":"Container: Braunglas (1), Weissglas (2), Gr\u00c3\u00bcnglas (4), Metall (3); Speise\u00c3\u00b6l/Mineral\u00c3\u00b6l","opening_hours":"Mo-Sa 07:00-20:00","operator":"ERZ","recycling:aluminium":"yes","recycling:cans":"yes","recycling:cooking_oil":"yes","recycling:engine_oil":"yes","recycling:glass_bottles":"yes","recycling_type":"container"}},"type":"Feature"},
	{"geometry":{"coordinates":[8.600461,47.421756],"type":"Point"},"properties":{"osm_id":"4568933094","tag":{"amenity":"waste_basket"}},"type":"Feature"},
	{"geometry":{"coordinates":[8.602044,47.42313],"type":"Point"},"properties":{"osm_id":"4568933095","tag":{"amenity":"waste_basket"}},"type":"Feature"},
	{"geometry":{"coordinates":[8.545783,47.41301],"type":"Point"},"properties":{"osm_id":"4727195302","tag":{"amenity":"waste_basket"}},"type":"Feature"},
	{"geometry":{"coordinates":[8.554825,47.429738],"type":"Point"},"properties":{"osm_id":"4754873047","tag":{"amenity":"recycling","recycling:compost":"yes","recycling_type":"dump"}},"type":"Feature"},
	{"geometry":{"coordinates":[8.564242,47.413589],"type":"Point"},"properties":{"name":"Recyclinghof Hagenholz","osm_id":"4759356205","tag":{"addr:city":"Z\u00c3\u00bcrich","addr:country":"CH","addr:housenumber":"110","addr:postcode":"8050","addr:street":"Hagenholzstrasse","amenity":"recycling","description":"pay with: cash, card, coupons","opening_hours":"Mo-Fr 07:00-17:00; Sa 07:30-14:00","operator":"ERZ","phone":"+41 44 645 77 77","recycling:bicycles":"yes","recycling:cans":"no","recycling:cooking_oil":"no","recycling:electrical_appliances":"yes","recycling:engine_oil":"no","recycling:glass":"yes","recycling:glass_bottles":"no","recycling:green_waste":"no","recycling:plastic_bottles":"yes","recycling:plastic_packaging":"no","recycling:rubble":"yes","recycling:scrap_metal":"yes","recycling:small_appliances":"yes","recycling:tyres":"yes","recycling:waste":"yes","recycling_type":"centre"}},"type":"Feature"},
	{"geometry":{"coordinates":[8.563884,47.415503],"type":"Point"},"properties":{"osm_id":"4836869034","tag":{"amenity":"recycling","description":"Container: Metall (3), Gr\u00c3\u00bcnglas (3), Weissglas (3), Braunglas (2); Speise\u00c3\u00b6l/Mineral\u00c3\u00b6l","opening_hours":"Mo-Sa 07:00-20:00","operator":"ERZ","recycling:aluminium":"yes","recycling:cans":"yes","recycling:cooking_oil":"yes","recycling:engine_oil":"yes","recycling:glass_bottles":"yes","recycling_type":"container"}},"type":"Feature"},
	{"geometry":{"coordinates":[8.571187,47.409326],"type":"Point"},"properties":{"osm_id":"4864530780","tag":{"amenity":"recycling","description":"Container: Braunglas (1), Weissglas (2), Gr\u00c3\u00bcnglas (3), Metall (2); Speise\u00c3\u00b6l/Mineral\u00c3\u00b6l","opening_hours":"Mo-Sa 07:00-20:00","operator":"ERZ","recycling:aluminium":"yes","recycling:cans":"yes","recycling:cooking_oil":"yes","recycling:engine_oil":"yes","recycling:glass_bottles":"yes","recycling_type":"container"}},"type":"Feature"},
	{"geometry":{"coordinates":[8.539576,47.414128],"type":"Point"},"properties":{"osm_id":"4864530811","tag":{"amenity":"waste_basket"}},"type":"Feature"},
	{"geometry":{"coordinates":[8.53972,47.413792],"type":"Point"},"properties":{"osm_id":"4864531239","tag":{"amenity":"waste_basket"}},"type":"Feature"},
	{"geometry":{"coordinates":[8.540402,47.414061],"type":"Point"},"properties":{"osm_id":"4864531240","tag":{"amenity":"waste_basket"}},"type":"Feature"},
	{"geometry":{"coordinates":[8.5455,47.413077],"type":"Point"},"properties":{"osm_id":"4864531265","tag":{"amenity":"recycling","description":"Container: Braunglas (1), Weissglas (1), Gr\u00c3\u00bcnglas (2), Metall (3)","opening_hours":"Mo-Sa 07:00-20:00","operator":"ERZ","recycling:aluminium":"yes","recycling:cans":"yes","recycling:glass_bottles":"yes","recycling_type":"container","wheelchair":"no"}},"type":"Feature"},
	{"geometry":{"coordinates":[8.549735,47.421718],"type":"Point"},"properties":{"osm_id":"4864531269","tag":{"amenity":"waste_basket"}},"type":"Feature"},
	{"geometry":{"coordinates":[8.549629,47.421802],"type":"Point"},"properties":{"osm_id":"4864531270","tag":{"amenity":"waste_basket"}},"type":"Feature"},
	{"geometry":{"coordinates":[8.549923,47.421975],"type":"Point"},"properties":{"osm_id":"4864531271","tag":{"amenity":"waste_basket"}},"type":"Feature"},
	{"geometry":{"coordinates":[8.564582,47.415517],"type":"Point"},"properties":{"name":"Sonderabfall-Sammelstelle Hagenholz","osm_id":"4868938058","tag":{"amenity":"recycling","opening_hours":"Mo-Fr 07:00-17:00","operator":"ERZ","recycling:batteries":"yes","recycling:car_batteries":"yes","recycling:drugs":"yes","recycling:fluorescent_tubes":"yes","recycling:gas_bottles":"yes","recycling:low_energy_bulbs":"yes","recycling:paint":"yes","recycling:printer_cartridges":"yes","recycling:waste_oil":"yes","recycling_type":"centre"}},"type":"Feature"},
	{"geometry":{"coordinates":[8.541125,47.399771],"type":"Point"},"properties":{"osm_id":"4868938074","tag":{"amenity":"recycling","description":"Container: Braunglas (1), Weissglas (1), Gr\u00c3\u00bcnglas (2), Metall (2)","opening_hours":"Mo-Sa 07:00-20:00","operator":"ERZ","recycling:aluminium":"yes","recycling:cans":"yes","recycling:glass_bottles":"yes","recycling_type":"container"}},"type":"Feature"},
	{"geometry":{"coordinates":[8.591323,47.405108],"type":"Point"},"properties":{"osm_id":"4868938075","tag":{"amenity":"recycling","description":"Container: Braunglas (1), Weissglas (1), Gr\u00c3\u00bcnglas (2), Metall (1)","opening_hours":"Mo-Sa 07:00-20:00","operator":"ERZ","recycling:aluminium":"yes","recycling:cans":"yes","recycling:glass_bottles":"yes","recycling_type":"container"}},"type":"Feature"},
	{"geometry":{"coordinates":[8.584345,47.407682],"type":"Point"},"properties":{"osm_id":"4868938076","tag":{"amenity":"recycling","description":"Container: Metall (3), Gr\u00c3\u00bcnglas (3), Weissglas (2), Braunglas (1)","opening_hours":"Mo-Sa 07:00-20:00","operator":"ERZ","recycling:aluminium":"yes","recycling:cans":"yes","recycling:glass_bottles":"yes","recycling_type":"container"}},"type":"Feature"},
	{"geometry":{"coordinates":[8.543442,47.424888],"type":"Point"},"properties":{"osm_id":"4868938527","tag":{"amenity":"recycling","description":"Container: Metall (1), Gr\u00c3\u00bcnglas (2), Weissglas (1), Braunglas (1)","opening_hours":"Mo-Sa 07:00-20:00","operator":"ERZ","recycling:aluminium":"yes","recycling:cans":"yes","recycling:glass_bottles":"yes","recycling_type":"container","wheelchair":"yes"}},"type":"Feature"},
	{"geometry":{"coordinates":[8.590864,47.403227],"type":"Point"},"properties":{"osm_id":"4873312944","tag":{"amenity":"waste_basket"}},"type":"Feature"},
	{"geometry":{"coordinates":[8.571687,47.404679],"type":"Point"},"properties":{"osm_id":"4893875832","tag":{"amenity":"waste_basket"}},"type":"Feature"},
	{"geometry":{"coordinates":[8.571614,47.404722],"type":"Point"},"properties":{"osm_id":"4893875835","tag":{"amenity":"waste_basket"}},"type":"Feature"},
	{"geometry":{"coordinates":[8.546365,47.413393],"type":"Point"},"properties":{"osm_id":"4927009075","tag":{"amenity":"waste_basket"}},"type":"Feature"},
	{"geometry":{"coordinates":[8.546445,47.413548],"type":"Point"},"properties":{"osm_id":"4927009078","tag":{"amenity":"waste_basket"}},"type":"Feature"},
	{"geometry":{"coordinates":[8.546215,47.413479],"type":"Point"},"properties":{"osm_id":"4927009103","tag":{"amenity":"waste_basket"}},"type":"Feature"},
	{"geometry":{"coordinates":[8.546146,47.413324],"type":"Point"},"properties":{"osm_id":"4927009104","tag":{"amenity":"waste_basket"}},"type":"Feature"},
	{"geometry":{"coordinates":[8.545907,47.41347],"type":"Point"},"properties":{"osm_id":"4927009106","tag":{"amenity":"waste_basket"}},"type":"Feature"},
	{"geometry":{"coordinates":[8.545809,47.413575],"type":"Point"},"properties":{"osm_id":"4927009107","tag":{"amenity":"waste_basket"}},"type":"Feature"},
	{"geometry":{"coordinates":[8.54581,47.413393],"type":"Point"},"properties":{"osm_id":"4927009113","tag":{"amenity":"waste_basket"}},"type":"Feature"},
	{"geometry":{"coordinates":[8.545646,47.413582],"type":"Point"},"properties":{"osm_id":"4927009115","tag":{"amenity":"waste_basket"}},"type":"Feature"},
	{"geometry":{"coordinates":[8.539673,47.410335],"type":"Point"},"properties":{"osm_id":"4929039188","tag":{"amenity":"recycling","operator":"Texaid","recycling:clothes":"yes","recycling:shoes":"yes","recycling_type":"container"}},"type":"Feature"},
	{"geometry":{"coordinates":[8.53788,47.414274],"type":"Point"},"properties":{"osm_id":"4930932684","tag":{"amenity":"waste_basket"}},"type":"Feature"},
	{"geometry":{"coordinates":[8.538014,47.414203],"type":"Point"},"properties":{"osm_id":"4930932685","tag":{"amenity":"waste_basket"}},"type":"Feature"},
	{"geometry":{"coordinates":[8.540874,47.41606],"type":"Point"},"properties":{"osm_id":"4930932710","tag":{"amenity":"waste_basket"}},"type":"Feature"},
	{"geometry":{"coordinates":[8.540787,47.416258],"type":"Point"},"properties":{"osm_id":"4930932711","tag":{"amenity":"waste_basket"}},"type":"Feature"},
	{"geometry":{"coordinates":[8.540614,47.415882],"type":"Point"},"properties":{"osm_id":"4930932712","tag":{"amenity":"waste_basket"}},"type":"Feature"},
	{"geometry":{"coordinates":[8.541697,47.416209],"type":"Point"},"properties":{"osm_id":"4930932713","tag":{"amenity":"waste_basket"}},"type":"Feature"},
	{"geometry":{"coordinates":[8.541656,47.415842],"type":"Point"},"properties":{"osm_id":"4930932714","tag":{"amenity":"waste_basket"}},"type":"Feature"},
	{"geometry":{"coordinates":[8.545195,47.409939],"type":"Point"},"properties":{"osm_id":"4944286539","tag":{"amenity":"waste_basket"}},"type":"Feature"},
	{"geometry":{"coordinates":[8.544734,47.4085],"type":"Point"},"properties":{"osm_id":"4945854900","tag":{"amenity":"waste_basket"}},"type":"Feature"},
	{"geometry":{"coordinates":[8.541343,47.408073],"type":"Point"},"properties":{"osm_id":"4945854909","tag":{"amenity":"waste_basket"}},"type":"Feature"},
	{"geometry":{"coordinates":[8.539103,47.409034],"type":"Point"},"properties":{"osm_id":"4945857023","tag":{"amenity":"waste_basket"}},"type":"Feature"},
	{"geometry":{"coordinates":[8.539368,47.409096],"type":"Point"},"properties":{"osm_id":"4945857026","tag":{"amenity":"waste_basket"}},"type":"Feature"},
	{"geometry":{"coordinates":[8.539209,47.408722],"type":"Point"},"properties":{"osm_id":"4945857044","tag":{"amenity":"waste_basket"}},"type":"Feature"},
	{"geometry":{"coordinates":[8.539295,47.408598],"type":"Point"},"properties":{"osm_id":"4945857047","tag":{"amenity":"waste_basket"}},"type":"Feature"},
	{"geometry":{"coordinates":[8.543119,47.408961],"type":"Point"},"properties":{"osm_id":"4945857071","tag":{"amenity":"waste_basket"}},"type":"Feature"},
	{"geometry":{"coordinates":[8.546476,47.409422],"type":"Point"},"properties":{"osm_id":"4945857139","tag":{"amenity":"waste_basket"}},"type":"Feature"},
	{"geometry":{"coordinates":[8.577149,47.402922],"type":"Point"},"properties":{"osm_id":"4958439533","tag":{"amenity":"waste_basket"}},"type":"Feature"},
	{"geometry":{"coordinates":[8.577079,47.403037],"type":"Point"},"properties":{"osm_id":"4958439536","tag":{"amenity":"waste_basket"}},"type":"Feature"},
	{"geometry":{"coordinates":[8.534774,47.398619],"type":"Point"},"properties":{"osm_id":"4960082355","tag":{"amenity":"waste_basket"}},"type":"Feature"},
	{"geometry":{"coordinates":[8.534979,47.398752],"type":"Point"},"properties":{"osm_id":"4960082362","tag":{"amenity":"waste_basket"}},"type":"Feature"},
	{"geometry":{"coordinates":[8.534871,47.398889],"type":"Point"},"properties":{"osm_id":"4960082363","tag":{"amenity":"waste_basket"}},"type":"Feature"},
	{"geometry":{"coordinates":[8.535199,47.399611],"type":"Point"},"properties":{"osm_id":"4960082369","tag":{"amenity":"waste_basket"}},"type":"Feature"},
	{"geometry":{"coordinates":[8.540157,47.401675],"type":"Point"},"properties":{"osm_id":"4960082388","tag":{"amenity":"waste_basket"}},"type":"Feature"},
	{"geometry":{"coordinates":[8.539969,47.40092],"type":"Point"},"properties":{"osm_id":"4960082394","tag":{"amenity":"waste_basket"}},"type":"Feature"},
	{"geometry":{"coordinates":[8.541741,47.400249],"type":"Point"},"properties":{"osm_id":"4960082444","tag":{"amenity":"waste_basket"}},"type":"Feature"},
	{"geometry":{"coordinates":[8.543559,47.400249],"type":"Point"},"properties":{"osm_id":"4960082460","tag":{"amenity":"waste_basket"}},"type":"Feature"},
	{"geometry":{"coordinates":[8.543453,47.400298],"type":"Point"},"properties":{"osm_id":"4960082477","tag":{"amenity":"waste_basket"}},"type":"Feature"},
	{"geometry":{"coordinates":[8.535949,47.447852],"type":"Point"},"properties":{"osm_id":"5045493918","tag":{"amenity":"recycling","recycling:glass":"yes","recycling_type":"container"}},"type":"Feature"},
	{"geometry":{"coordinates":[8.533436,47.414338],"type":"Point"},"properties":{"osm_id":"5055063824","tag":{"amenity":"waste_basket"}},"type":"Feature"},
	{"geometry":{"coordinates":[8.531979,47.416155],"type":"Point"},"properties":{"osm_id":"5055063849","tag":{"amenity":"waste_basket"}},"type":"Feature"},
	{"geometry":{"coordinates":[8.582552,47.450115],"type":"Point"},"properties":{"osm_id":"5056885526","tag":{"amenity":"waste_basket"}},"type":"Feature"},
	{"geometry":{"coordinates":[8.543153,47.399353],"type":"Point"},"properties":{"osm_id":"5059914805","tag":{"amenity":"waste_basket"}},"type":"Feature"},
	{"geometry":{"coordinates":[8.572168,47.413445],"type":"Point"},"properties":{"osm_id":"5074986633","tag":{"amenity":"recycling","operator":"Texaid","recycling:clothes":"yes","recycling:shoes":"yes","recycling_type":"container"}},"type":"Feature"},
	{"geometry":{"coordinates":[8.571895,47.413546],"type":"Point"},"properties":{"osm_id":"5074986634","tag":{"amenity":"waste_basket"}},"type":"Feature"},
	{"geometry":{"coordinates":[8.569107,47.416325],"type":"Point"},"properties":{"osm_id":"5074986941","tag":{"amenity":"waste_basket"}},"type":"Feature"},
	{"geometry":{"coordinates":[8.585439,47.406689],"type":"Point"},"properties":{"osm_id":"5098324369","tag":{"amenity":"waste_basket"}},"type":"Feature"},
	{"geometry":{"coordinates":[8.586291,47.406853],"type":"Point"},"properties":{"osm_id":"5098324388","tag":{"amenity":"waste_basket"}},"type":"Feature"},
	{"geometry":{"coordinates":[8.591398,47.40261],"type":"Point"},"properties":{"osm_id":"5098324397","tag":{"amenity":"recycling","operator":"Texaid","recycling:clothes":"yes","recycling:shoes":"yes","recycling_type":"container"}},"type":"Feature"},
	{"geometry":{"coordinates":[8.594189,47.400555],"type":"Point"},"properties":{"osm_id":"5098325247","tag":{"amenity":"recycling","description":"Container: Metall (2), Gr\u00c3\u00bcnglas (2), Weissglas (2), Braunglas (1)","opening_hours":"Mo-Sa 07:00-20:00","operator":"ERZ","recycling:aluminium":"yes","recycling:cans":"yes","recycling:glass_bottles":"yes","recycling_type":"container"}},"type":"Feature"},
	{"geometry":{"coordinates":[8.53224,47.398632],"type":"Point"},"properties":{"osm_id":"5131699790","tag":{"amenity":"recycling","operator":"Texaid","recycling:clothes":"yes","recycling:shoes":"yes","recycling_type":"container"}},"type":"Feature"},
	{"geometry":{"coordinates":[8.559628,47.41356],"type":"Point"},"properties":{"osm_id":"5153705542","tag":{"amenity":"waste_basket"}},"type":"Feature"},
	{"geometry":{"coordinates":[8.541671,47.4103],"type":"Point"},"properties":{"osm_id":"5199139406","tag":{"amenity":"recycling","operator":"Texaid","recycling:clothes":"yes","recycling:shoes":"yes","recycling_type":"container"}},"type":"Feature"},
	{"geometry":{"coordinates":[8.537832,47.406151],"type":"Point"},"properties":{"osm_id":"5199139420","tag":{"amenity":"waste_basket"}},"type":"Feature"},
	{"geometry":{"coordinates":[8.552493,47.412933],"type":"Point"},"properties":{"osm_id":"5206444221","tag":{"amenity":"waste_basket"}},"type":"Feature"},
	{"geometry":{"coordinates":[8.543655,47.418841],"type":"Point"},"properties":{"osm_id":"5206444225","tag":{"amenity":"recycling","operator":"Texaid","recycling:clothes":"yes","recycling:shoes":"yes","recycling_type":"container"}},"type":"Feature"},
	{"geometry":{"coordinates":[8.544975,47.418871],"type":"Point"},"properties":{"osm_id":"5206444228","tag":{"amenity":"waste_basket"}},"type":"Feature"},
	{"geometry":{"coordinates":[8.538685,47.420014],"type":"Point"},"properties":{"osm_id":"5206444235","tag":{"amenity":"waste_basket"}},"type":"Feature"},
	{"geometry":{"coordinates":[8.535549,47.420037],"type":"Point"},"properties":{"osm_id":"5206444237","tag":{"amenity":"waste_basket"}},"type":"Feature"},
	{"geometry":{"coordinates":[8.535142,47.420051],"type":"Point"},"properties":{"osm_id":"5206444242","tag":{"amenity":"waste_basket"}},"type":"Feature"},
	{"geometry":{"coordinates":[8.53699,47.420691],"type":"Point"},"properties":{"osm_id":"5206444247","tag":{"amenity":"recycling","operator":"Texaid","recycling:clothes":"yes","recycling:shoes":"yes","recycling_type":"container"}},"type":"Feature"},
	{"geometry":{"coordinates":[8.537716,47.421424],"type":"Point"},"properties":{"osm_id":"5206444249","tag":{"amenity":"waste_basket"}},"type":"Feature"},
	{"geometry":{"coordinates":[8.537504,47.421223],"type":"Point"},"properties":{"osm_id":"5206444260","tag":{"amenity":"waste_basket"}},"type":"Feature"},
	{"geometry":{"coordinates":[8.538844,47.422114],"type":"Point"},"properties":{"osm_id":"5206444275","tag":{"amenity":"waste_basket"}},"type":"Feature"},
	{"geometry":{"coordinates":[8.538707,47.422555],"type":"Point"},"properties":{"osm_id":"5206444280","tag":{"amenity":"waste_basket"}},"type":"Feature"},
	{"geometry":{"coordinates":[8.539495,47.422178],"type":"Point"},"properties":{"osm_id":"5206444286","tag":{"amenity":"waste_basket"}},"type":"Feature"},
	{"geometry":{"coordinates":[8.5437,47.422879],"type":"Point"},"properties":{"osm_id":"5206444299","tag":{"amenity":"waste_basket"}},"type":"Feature"},
	{"geometry":{"coordinates":[8.54351,47.422804],"type":"Point"},"properties":{"osm_id":"5206444302","tag":{"amenity":"waste_basket"}},"type":"Feature"},
	{"geometry":{"coordinates":[8.557398,47.404698],"type":"Point"},"properties":{"osm_id":"5206661925","tag":{"amenity":"waste_basket"}},"type":"Feature"},
	{"geometry":{"coordinates":[8.612418,47.410891],"type":"Point"},"properties":{"name":"K. M\u00c3\u00bcller AG - Entsorgung und Transporte","osm_id":"5317028130","tag":{"amenity":"recycling","website":"https://kmuellerag.ch/"}},"type":"Feature"},
	{"geometry":{"coordinates":[8.602421,47.402141],"type":"Point"},"properties":{"osm_id":"5326951358","tag":{"amenity":"waste_basket","fee":"no","vending":"excrement_bags"}},"type":"Feature"},
	{"geometry":{"coordinates":[8.611428,47.410913],"type":"Point"},"properties":{"osm_id":"5342847998","tag":{"amenity":"recycling","location":"outdoor","recycling_type":"container"}},"type":"Feature"},
	{"geometry":{"coordinates":[8.546009,47.427754],"type":"Point"},"properties":{"osm_id":"5352957207","tag":{"amenity":"waste_basket"}},"type":"Feature"},
	{"geometry":{"coordinates":[8.549945,47.414843],"type":"Point"},"properties":{"osm_id":"5353388361","tag":{"amenity":"waste_basket"}},"type":"Feature"},
	{"geometry":{"coordinates":[8.553745,47.409541],"type":"Point"},"properties":{"osm_id":"5360871597","tag":{"amenity":"waste_basket"}},"type":"Feature"},
	{"geometry":{"coordinates":[8.571285,47.434537],"type":"Point"},"properties":{"osm_id":"5369422921","tag":{"amenity":"waste_basket"}},"type":"Feature"},
	{"geometry":{"coordinates":[8.528329,47.41138],"type":"Point"},"properties":{"osm_id":"5370500689","tag":{"amenity":"waste_basket"}},"type":"Feature"},
	{"geometry":{"coordinates":[8.526225,47.414061],"type":"Point"},"properties":{"osm_id":"5375489800","tag":{"amenity":"waste_basket"}},"type":"Feature"},
	{"geometry":{"coordinates":[8.527662,47.415187],"type":"Point"},"properties":{"osm_id":"5375490204","tag":{"amenity":"waste_basket"}},"type":"Feature"},
	{"geometry":{"coordinates":[8.526551,47.407688],"type":"Point"},"properties":{"osm_id":"5377428339","tag":{"amenity":"waste_basket"}},"type":"Feature"},
	{"geometry":{"coordinates":[8.526465,47.407455],"type":"Point"},"properties":{"osm_id":"5377428341","tag":{"amenity":"waste_basket"}},"type":"Feature"},
	{"geometry":{"coordinates":[8.538295,47.416533],"type":"Point"},"properties":{"osm_id":"5380841258","tag":{"amenity":"waste_basket"}},"type":"Feature"},
	{"geometry":{"coordinates":[8.538126,47.416541],"type":"Point"},"properties":{"osm_id":"5380841261","tag":{"amenity":"waste_basket"}},"type":"Feature"},
	{"geometry":{"coordinates":[8.535589,47.416581],"type":"Point"},"properties":{"osm_id":"5380841297","tag":{"amenity":"waste_basket"}},"type":"Feature"},
	{"geometry":{"coordinates":[8.532911,47.410368],"type":"Point"},"properties":{"osm_id":"5393304018","tag":{"amenity":"waste_basket"}},"type":"Feature"},
	{"geometry":{"coordinates":[8.5288,47.409361],"type":"Point"},"properties":{"osm_id":"5393304339","tag":{"amenity":"waste_basket"}},"type":"Feature"},
	{"geometry":{"coordinates":[8.530773,47.407308],"type":"Point"},"properties":{"osm_id":"5410139763","tag":{"amenity":"waste_basket"}},"type":"Feature"},
	{"geometry":{"coordinates":[8.530664,47.407422],"type":"Point"},"properties":{"osm_id":"5410139764","tag":{"amenity":"waste_basket"}},"type":"Feature"},
	{"geometry":{"coordinates":[8.530506,47.407816],"type":"Point"},"properties":{"osm_id":"5410139774","tag":{"amenity":"waste_basket"}},"type":"Feature"},
	{"geometry":{"coordinates":[8.528527,47.411964],"type":"Point"},"properties":{"osm_id":"5416718375","tag":{"amenity":"waste_basket"}},"type":"Feature"},
	{"geometry":{"coordinates":[8.535178,47.409318],"type":"Point"},"properties":{"osm_id":"5416719126","tag":{"amenity":"waste_basket"}},"type":"Feature"},
	{"geometry":{"coordinates":[8.56756,47.433348],"type":"Point"},"properties":{"name":"St. Anna-Strasse","osm_id":"5417435670","tag":{"amenity":"recycling","recycling:cans":"yes","recycling:clothes":"yes","recycling:glass":"yes","recycling:paper":"no","recycling_type":"container"}},"type":"Feature"},
	{"geometry":{"coordinates":[8.530536,47.403758],"type":"Point"},"properties":{"osm_id":"5431564524","tag":{"amenity":"waste_basket"}},"type":"Feature"},
	{"geometry":{"coordinates":[8.541394,47.403962],"type":"Point"},"properties":{"osm_id":"5432862286","tag":{"amenity":"waste_basket"}},"type":"Feature"},
	{"geometry":{"coordinates":[8.567938,47.41082],"type":"Point"},"properties":{"osm_id":"5435299935","tag":{"amenity":"waste_basket"}},"type":"Feature"},
	{"geometry":{"coordinates":[8.542717,47.404999],"type":"Point"},"properties":{"osm_id":"5440398810","tag":{"amenity":"waste_basket"}},"type":"Feature"},
	{"geometry":{"coordinates":[8.54197,47.40425],"type":"Point"},"properties":{"osm_id":"5440398821","tag":{"amenity":"waste_basket"}},"type":"Feature"},
	{"geometry":{"coordinates":[8.563285,47.410221],"type":"Point"},"properties":{"osm_id":"5456937816","tag":{"amenity":"waste_basket"}},"type":"Feature"},
	{"geometry":{"coordinates":[8.550729,47.405539],"type":"Point"},"properties":{"osm_id":"5456938044","tag":{"amenity":"waste_basket"}},"type":"Feature"},
	{"geometry":{"coordinates":[8.562327,47.404291],"type":"Point"},"properties":{"osm_id":"5459661761","tag":{"amenity":"waste_basket"}},"type":"Feature"},
	{"geometry":{"coordinates":[8.54197,47.417591],"type":"Point"},"properties":{"osm_id":"5467132783","tag":{"amenity":"waste_basket"}},"type":"Feature"},
	{"geometry":{"coordinates":[8.551967,47.417199],"type":"Point"},"properties":{"osm_id":"5467133208","tag":{"amenity":"waste_basket"}},"type":"Feature"},
	{"geometry":{"coordinates":[8.548836,47.422658],"type":"Point"},"properties":{"osm_id":"5473335661","tag":{"amenity":"waste_basket"}},"type":"Feature"},
	{"geometry":{"coordinates":[8.548689,47.422733],"type":"Point"},"properties":{"osm_id":"5473335662","tag":{"amenity":"waste_basket"}},"type":"Feature"},
	{"geometry":{"coordinates":[8.548498,47.422833],"type":"Point"},"properties":{"osm_id":"5473335663","tag":{"amenity":"waste_basket"}},"type":"Feature"},
	{"geometry":{"coordinates":[8.548312,47.422927],"type":"Point"},"properties":{"osm_id":"5473335664","tag":{"amenity":"waste_basket"}},"type":"Feature"},
	{"geometry":{"coordinates":[8.552779,47.42049],"type":"Point"},"properties":{"osm_id":"5473336496","tag":{"amenity":"waste_basket"}},"type":"Feature"},
	{"geometry":{"coordinates":[8.567876,47.403773],"type":"Point"},"properties":{"osm_id":"5473398152","tag":{"amenity":"waste_basket"}},"type":"Feature"},
	{"geometry":{"coordinates":[8.58632,47.403369],"type":"Point"},"properties":{"osm_id":"5491187362","tag":{"amenity":"waste_basket"}},"type":"Feature"},
	{"geometry":{"coordinates":[8.585347,47.402067],"type":"Point"},"properties":{"osm_id":"5491187365","tag":{"amenity":"recycling","operator":"Texaid","recycling:clothes":"yes","recycling:shoes":"yes","recycling_type":"container"}},"type":"Feature"},
	{"geometry":{"coordinates":[8.581027,47.404473],"type":"Point"},"properties":{"osm_id":"5496139284","tag":{"amenity":"recycling","operator":"Texaid","recycling:clothes":"yes","recycling:shoes":"yes","recycling_type":"container"}},"type":"Feature"},
	{"geometry":{"coordinates":[8.577587,47.405267],"type":"Point"},"properties":{"osm_id":"5496139308","tag":{"amenity":"waste_basket"}},"type":"Feature"},
	{"geometry":{"coordinates":[8.577211,47.405193],"type":"Point"},"properties":{"osm_id":"5496139310","tag":{"amenity":"waste_basket"}},"type":"Feature"},
	{"geometry":{"coordinates":[8.553292,47.39945],"type":"Point"},"properties":{"osm_id":"5496927913","tag":{"amenity":"waste_basket"}},"type":"Feature"},
	{"geometry":{"coordinates":[8.552906,47.399243],"type":"Point"},"properties":{"osm_id":"5496927917","tag":{"amenity":"waste_basket"}},"type":"Feature"},
	{"geometry":{"coordinates":[8.580179,47.408536],"type":"Point"},"properties":{"osm_id":"5499030820","tag":{"amenity":"waste_basket"}},"type":"Feature"},
	{"geometry":{"coordinates":[8.590965,47.405351],"type":"Point"},"properties":{"osm_id":"5499264893","tag":{"amenity":"recycling","operator":"Texaid","recycling:clothes":"yes","recycling:shoes":"yes","recycling_type":"container"}},"type":"Feature"},
	{"geometry":{"coordinates":[8.546243,47.425138],"type":"Point"},"properties":{"osm_id":"5508724398","tag":{"amenity":"waste_basket"}},"type":"Feature"},
	{"geometry":{"coordinates":[8.547782,47.424982],"type":"Point"},"properties":{"osm_id":"5508724400","tag":{"amenity":"waste_basket"}},"type":"Feature"},
	{"geometry":{"coordinates":[8.543924,47.428619],"type":"Point"},"properties":{"osm_id":"5508725705","tag":{"amenity":"waste_basket"}},"type":"Feature"},
	{"geometry":{"coordinates":[8.543425,47.428691],"type":"Point"},"properties":{"osm_id":"5508725707","tag":{"amenity":"waste_basket"}},"type":"Feature"},
	{"geometry":{"coordinates":[8.542404,47.428547],"type":"Point"},"properties":{"osm_id":"5508725718","tag":{"amenity":"waste_basket"}},"type":"Feature"},
	{"geometry":{"coordinates":[8.541031,47.429846],"type":"Point"},"properties":{"osm_id":"5508728625","tag":{"amenity":"waste_basket"}},"type":"Feature"},
	{"geometry":{"coordinates":[8.537062,47.429103],"type":"Point"},"properties":{"osm_id":"5510744969","tag":{"amenity":"waste_basket"}},"type":"Feature"},
	{"geometry":{"coordinates":[8.537157,47.429001],"type":"Point"},"properties":{"osm_id":"5510744988","tag":{"amenity":"waste_basket","vending":"excrement_bags"}},"type":"Feature"},
	{"geometry":{"coordinates":[8.536563,47.426264],"type":"Point"},"properties":{"osm_id":"5510745579","tag":{"amenity":"waste_basket","vending":"excrement_bags"}},"type":"Feature"},
	{"geometry":{"coordinates":[8.536352,47.425907],"type":"Point"},"properties":{"osm_id":"5510745581","tag":{"amenity":"waste_basket"}},"type":"Feature"},
	{"geometry":{"coordinates":[8.553449,47.425338],"type":"Point"},"properties":{"osm_id":"5516385914","tag":{"amenity":"waste_basket"}},"type":"Feature"},
	{"geometry":{"coordinates":[8.554054,47.425621],"type":"Point"},"properties":{"osm_id":"5516385949","tag":{"amenity":"waste_basket"}},"type":"Feature"},
	{"geometry":{"coordinates":[8.586182,47.400383],"type":"Point"},"properties":{"osm_id":"5516494245","tag":{"amenity":"waste_basket"}},"type":"Feature"},
	{"geometry":{"coordinates":[8.590957,47.39866],"type":"Point"},"properties":{"osm_id":"5516494256","tag":{"amenity":"waste_basket"}},"type":"Feature"},
	{"geometry":{"coordinates":[8.586371,47.400233],"type":"Point"},"properties":{"osm_id":"5516494270","tag":{"amenity":"waste_basket"}},"type":"Feature"},
	{"geometry":{"coordinates":[8.581619,47.401727],"type":"Point"},"properties":{"osm_id":"5516494280","tag":{"amenity":"waste_basket"}},"type":"Feature"},
	{"geometry":{"coordinates":[8.581721,47.401595],"type":"Point"},"properties":{"osm_id":"5516494283","tag":{"amenity":"waste_basket"}},"type":"Feature"},
	{"geometry":{"coordinates":[8.549084,47.422875],"type":"Point"},"properties":{"osm_id":"5516524639","tag":{"amenity":"waste_basket"}},"type":"Feature"},
	{"geometry":{"coordinates":[8.590954,47.398751],"type":"Point"},"properties":{"osm_id":"5518618274","tag":{"amenity":"waste_basket"}},"type":"Feature"},
	{"geometry":{"coordinates":[8.548363,47.424644],"type":"Point"},"properties":{"osm_id":"5520454606","tag":{"amenity":"waste_basket"}},"type":"Feature"},
	{"geometry":{"coordinates":[8.537315,47.42001],"type":"Point"},"properties":{"osm_id":"5523840114","tag":{"amenity":"waste_basket"}},"type":"Feature"},
	{"geometry":{"coordinates":[8.543161,47.420288],"type":"Point"},"properties":{"osm_id":"5523845300","tag":{"amenity":"waste_basket"}},"type":"Feature"},
	{"geometry":{"coordinates":[8.538551,47.420033],"type":"Point"},"properties":{"osm_id":"5523847641","tag":{"amenity":"waste_basket"}},"type":"Feature"},
	{"geometry":{"coordinates":[8.543367,47.421006],"type":"Point"},"properties":{"osm_id":"5523847672","tag":{"amenity":"waste_basket"}},"type":"Feature"},
	{"geometry":{"coordinates":[8.546387,47.423508],"type":"Point"},"properties":{"osm_id":"5599776477","tag":{"amenity":"waste_basket","waste":"trash"}},"type":"Feature"},
	{"geometry":{"coordinates":[8.543755,47.424525],"type":"Point"},"properties":{"osm_id":"5599776487","tag":{"amenity":"waste_basket","waste":"trash"}},"type":"Feature"},
	{"geometry":{"coordinates":[8.54696,47.423191],"type":"Point"},"properties":{"osm_id":"5599776491","tag":{"amenity":"waste_basket","waste":"trash"}},"type":"Feature"},
	{"geometry":{"coordinates":[8.589246,47.406815],"type":"Point"},"properties":{"osm_id":"5599944256","tag":{"amenity":"waste_basket","waste":"trash"}},"type":"Feature"},
	{"geometry":{"coordinates":[8.560815,47.418071],"type":"Point"},"properties":{"osm_id":"5600170245","tag":{"amenity":"waste_basket","waste":"trash"}},"type":"Feature"},
	{"geometry":{"coordinates":[8.560511,47.417993],"type":"Point"},"properties":{"osm_id":"5600170248","tag":{"amenity":"waste_basket","waste":"trash"}},"type":"Feature"},
	{"geometry":{"coordinates":[8.55431,47.420897],"type":"Point"},"properties":{"osm_id":"5600170251","tag":{"amenity":"waste_basket","waste":"trash"}},"type":"Feature"},
	{"geometry":{"coordinates":[8.551941,47.421206],"type":"Point"},"properties":{"osm_id":"5600170255","tag":{"amenity":"waste_basket","waste":"trash"}},"type":"Feature"},
	{"geometry":{"coordinates":[8.555392,47.420423],"type":"Point"},"properties":{"osm_id":"5600170256","tag":{"amenity":"waste_basket","waste":"trash"}},"type":"Feature"},
	{"geometry":{"coordinates":[8.573439,47.411008],"type":"Point"},"properties":{"osm_id":"5600170270","tag":{"amenity":"waste_basket","waste":"trash"}},"type":"Feature"},
	{"geometry":{"coordinates":[8.552035,47.399093],"type":"Point"},"properties":{"osm_id":"5615770683","tag":{"amenity":"waste_basket"}},"type":"Feature"},
	{"geometry":{"coordinates":[8.60519,47.398806],"type":"Point"},"properties":{"osm_id":"5661100822","tag":{"amenity":"waste_basket"}},"type":"Feature"},
	{"geometry":{"coordinates":[8.602496,47.400482],"type":"Point"},"properties":{"osm_id":"5663339825","tag":{"amenity":"waste_disposal"}},"type":"Feature"},
	{"geometry":{"coordinates":[8.605107,47.400103],"type":"Point"},"properties":{"osm_id":"5663370522","tag":{"amenity":"waste_basket"}},"type":"Feature"},
	{"geometry":{"coordinates":[8.604452,47.39975],"type":"Point"},"properties":{"osm_id":"5663370523","tag":{"amenity":"waste_disposal"}},"type":"Feature"},
	{"geometry":{"coordinates":[8.585456,47.406791],"type":"Point"},"properties":{"osm_id":"5669798317","tag":{"amenity":"waste_basket"}},"type":"Feature"},
	{"geometry":{"coordinates":[8.591088,47.406235],"type":"Point"},"properties":{"osm_id":"5690445051","tag":{"amenity":"waste_basket"}},"type":"Feature"},
	{"geometry":{"coordinates":[8.592045,47.405356],"type":"Point"},"properties":{"osm_id":"5690445082","tag":{"amenity":"waste_basket"}},"type":"Feature"},
	{"geometry":{"coordinates":[8.591565,47.40622],"type":"Point"},"properties":{"osm_id":"5690445216","tag":{"amenity":"waste_basket"}},"type":"Feature"},
	{"geometry":{"coordinates":[8.545342,47.416826],"type":"Point"},"properties":{"osm_id":"5710994958","tag":{"amenity":"waste_basket"}},"type":"Feature"},
	{"geometry":{"coordinates":[8.548268,47.406257],"type":"Point"},"properties":{"osm_id":"5710994978","tag":{"amenity":"waste_basket"}},"type":"Feature"},
	{"geometry":{"coordinates":[8.548363,47.406357],"type":"Point"},"properties":{"osm_id":"5711006945","tag":{"amenity":"waste_basket"}},"type":"Feature"},
	{"geometry":{"coordinates":[8.583125,47.44809],"type":"Point"},"properties":{"osm_id":"5739354856","tag":{"amenity":"waste_basket","backrest":"yes","colour":"black","material":"metal","seats":"8","waste":"trash"}},"type":"Feature"},
	{"geometry":{"coordinates":[8.583322,47.448179],"type":"Point"},"properties":{"osm_id":"5739354857","tag":{"amenity":"waste_basket","waste":"trash"}},"type":"Feature"},
	{"geometry":{"coordinates":[8.583709,47.448362],"type":"Point"},"properties":{"osm_id":"5740993660","tag":{"amenity":"waste_basket","waste":"trash"}},"type":"Feature"},
	{"geometry":{"coordinates":[8.581225,47.451251],"type":"Point"},"properties":{"osm_id":"5743204121","tag":{"amenity":"waste_basket","waste":"trash"}},"type":"Feature"},
	{"geometry":{"coordinates":[8.584289,47.447913],"type":"Point"},"properties":{"osm_id":"5743963265","tag":{"amenity":"waste_basket","waste":"trash"}},"type":"Feature"},
	{"geometry":{"coordinates":[8.580858,47.452476],"type":"Point"},"properties":{"osm_id":"5749765115","tag":{"amenity":"waste_basket","waste":"trash"}},"type":"Feature"},
	{"geometry":{"coordinates":[8.601889,47.401311],"type":"Point"},"properties":{"osm_id":"5751475330","tag":{"amenity":"waste_basket"}},"type":"Feature"},
	{"geometry":{"coordinates":[8.601779,47.401411],"type":"Point"},"properties":{"osm_id":"5751475331","tag":{"amenity":"waste_basket"}},"type":"Feature"},
	{"geometry":{"coordinates":[8.60101,47.400191],"type":"Point"},"properties":{"osm_id":"5751475333","tag":{"amenity":"waste_basket"}},"type":"Feature"},
	{"geometry":{"coordinates":[8.601502,47.39898],"type":"Point"},"properties":{"osm_id":"5751475336","tag":{"amenity":"waste_disposal"}},"type":"Feature"},
	{"geometry":{"coordinates":[8.604118,47.39871],"type":"Point"},"properties":{"osm_id":"5751475340","tag":{"amenity":"waste_basket"}},"type":"Feature"},
	{"geometry":{"coordinates":[8.605583,47.398494],"type":"Point"},"properties":{"osm_id":"5751475342","tag":{"amenity":"waste_basket"}},"type":"Feature"},
	{"geometry":{"coordinates":[8.605474,47.398447],"type":"Point"},"properties":{"osm_id":"5751475343","tag":{"amenity":"waste_basket"}},"type":"Feature"},
	{"geometry":{"coordinates":[8.600564,47.399012],"type":"Point"},"properties":{"osm_id":"5751491028","tag":{"amenity":"waste_basket"}},"type":"Feature"},
	{"geometry":{"coordinates":[8.600408,47.399033],"type":"Point"},"properties":{"osm_id":"5751491029","tag":{"amenity":"waste_basket"}},"type":"Feature"},
	{"geometry":{"coordinates":[8.605364,47.398835],"type":"Point"},"properties":{"osm_id":"5751491032","tag":{"amenity":"waste_basket"}},"type":"Feature"},
	{"geometry":{"coordinates":[8.606013,47.398692],"type":"Point"},"properties":{"osm_id":"5751491423","tag":{"amenity":"waste_basket"}},"type":"Feature"},
	{"geometry":{"coordinates":[8.610989,47.399114],"type":"Point"},"properties":{"osm_id":"5758615430","tag":{"amenity":"waste_basket"}},"type":"Feature"},
	{"geometry":{"coordinates":[8.55275,47.410633],"type":"Point"},"properties":{"osm_id":"5760276231","tag":{"amenity":"waste_basket","manufacturer":"Anta Swiss"}},"type":"Feature"},
	{"geometry":{"coordinates":[8.551922,47.410738],"type":"Point"},"properties":{"osm_id":"5760276244","tag":{"amenity":"waste_basket","manufacturer":"Anta Swiss"}},"type":"Feature"},
	{"geometry":{"coordinates":[8.552187,47.410751],"type":"Point"},"properties":{"osm_id":"5760276245","tag":{"amenity":"waste_basket","manufacturer":"Anta Swiss"}},"type":"Feature"},
	{"geometry":{"coordinates":[8.555985,47.410704],"type":"Point"},"properties":{"osm_id":"5760276612","tag":{"amenity":"waste_basket","manufacturer":"Anta Swiss"}},"type":"Feature"},
	{"geometry":{"coordinates":[8.60712,47.400198],"type":"Point"},"properties":{"osm_id":"5763521358","tag":{"amenity":"waste_basket"}},"type":"Feature"},
	{"geometry":{"coordinates":[8.608929,47.400895],"type":"Point"},"properties":{"osm_id":"5763521653","tag":{"amenity":"waste_basket"}},"type":"Feature"},
	{"geometry":{"coordinates":[8.607346,47.400042],"type":"Point"},"properties":{"osm_id":"5763521853","tag":{"amenity":"waste_basket"}},"type":"Feature"},
	{"geometry":{"coordinates":[8.544169,47.409697],"type":"Point"},"properties":{"osm_id":"5763790543","tag":{"amenity":"waste_basket","manufacturer":"Anta Swiss"}},"type":"Feature"},
	{"geometry":{"coordinates":[8.543823,47.409858],"type":"Point"},"properties":{"osm_id":"5763790544","tag":{"amenity":"waste_basket","manufacturer":"Anta Swiss"}},"type":"Feature"},
	{"geometry":{"coordinates":[8.551496,47.414294],"type":"Point"},"properties":{"osm_id":"5763792619","tag":{"amenity":"waste_basket","manufacturer":"Anta Swiss"}},"type":"Feature"},
	{"geometry":{"coordinates":[8.55147,47.414195],"type":"Point"},"properties":{"osm_id":"5763792625","tag":{"amenity":"waste_basket","manufacturer":"Anta Swiss"}},"type":"Feature"},
	{"geometry":{"coordinates":[8.595375,47.410457],"type":"Point"},"properties":{"osm_id":"5766026854","tag":{"amenity":"waste_basket"}},"type":"Feature"},
	{"geometry":{"coordinates":[8.595414,47.410252],"type":"Point"},"properties":{"osm_id":"5766026858","tag":{"amenity":"waste_basket"}},"type":"Feature"},
	{"geometry":{"coordinates":[8.595619,47.409464],"type":"Point"},"properties":{"osm_id":"5766026859","tag":{"amenity":"waste_basket"}},"type":"Feature"},
	{"geometry":{"coordinates":[8.59479,47.410755],"type":"Point"},"properties":{"osm_id":"5766029954","tag":{"amenity":"waste_basket"}},"type":"Feature"},
	{"geometry":{"coordinates":[8.594967,47.410626],"type":"Point"},"properties":{"osm_id":"5766030154","tag":{"amenity":"waste_basket"}},"type":"Feature"},
	{"geometry":{"coordinates":[8.593984,47.411543],"type":"Point"},"properties":{"osm_id":"5766031659","tag":{"amenity":"waste_basket"}},"type":"Feature"},
	{"geometry":{"coordinates":[8.594677,47.410862],"type":"Point"},"properties":{"osm_id":"5766032453","tag":{"amenity":"waste_basket"}},"type":"Feature"},
	{"geometry":{"coordinates":[8.594304,47.41128],"type":"Point"},"properties":{"osm_id":"5766032653","tag":{"amenity":"waste_basket"}},"type":"Feature"},
	{"geometry":{"coordinates":[8.594428,47.411173],"type":"Point"},"properties":{"osm_id":"5766032654","tag":{"amenity":"waste_basket","emergency":"fire_hydrant"}},"type":"Feature"},
	{"geometry":{"coordinates":[8.59549,47.410309],"type":"Point"},"properties":{"osm_id":"5766682757","tag":{"amenity":"waste_basket"}},"type":"Feature"},
	{"geometry":{"coordinates":[8.533206,47.3984],"type":"Point"},"properties":{"osm_id":"5779330750","tag":{"amenity":"waste_basket","manufacturer":"Anta Swiss"}},"type":"Feature"},
	{"geometry":{"coordinates":[8.533355,47.39838],"type":"Point"},"properties":{"osm_id":"5779331054","tag":{"amenity":"waste_basket","manufacturer":"Anta Swiss"}},"type":"Feature"},
	{"geometry":{"coordinates":[8.540953,47.413912],"type":"Point"},"properties":{"osm_id":"5784260810","tag":{"amenity":"waste_basket","manufacturer":"Anta Swiss"}},"type":"Feature"},
	{"geometry":{"coordinates":[8.564425,47.42448],"type":"Point"},"properties":{"osm_id":"5784918186","tag":{"amenity":"recycling","recycling_type":"container"}},"type":"Feature"},
	{"geometry":{"coordinates":[8.564621,47.424576],"type":"Point"},"properties":{"osm_id":"5784918187","tag":{"amenity":"recycling","recycling_type":"container"}},"type":"Feature"},
	{"geometry":{"coordinates":[8.562806,47.422753],"type":"Point"},"properties":{"osm_id":"5801099654","tag":{"amenity":"recycling","recycling:cans":"yes","recycling:glass":"yes","recycling_type":"container"}},"type":"Feature"},
	{"geometry":{"coordinates":[8.532737,47.398479],"type":"Point"},"properties":{"osm_id":"5819394185","tag":{"amenity":"waste_basket"}},"type":"Feature"},
	{"geometry":{"coordinates":[8.542587,47.414519],"type":"Point"},"properties":{"osm_id":"5954906205","tag":{"amenity":"recycling","recycling:glass":"yes","recycling_type":"underfloor-container"}},"type":"Feature"},
	{"geometry":{"coordinates":[8.585774,47.409864],"type":"Point"},"properties":{"osm_id":"5983037097","tag":{"amenity":"waste_basket"}},"type":"Feature"},
	{"geometry":{"coordinates":[8.582929,47.410186],"type":"Point"},"properties":{"osm_id":"5983039778","tag":{"amenity":"waste_basket"}},"type":"Feature"},
	{"geometry":{"coordinates":[8.584372,47.411615],"type":"Point"},"properties":{"osm_id":"5983046704","tag":{"amenity":"waste_basket"}},"type":"Feature"},
	{"geometry":{"coordinates":[8.587126,47.416366],"type":"Point"},"properties":{"osm_id":"5983068482","tag":{"amenity":"waste_basket"}},"type":"Feature"},
	{"geometry":{"coordinates":[8.532107,47.407808],"type":"Point"},"properties":{"osm_id":"6005556903","tag":{"amenity":"waste_basket"}},"type":"Feature"},
	{"geometry":{"coordinates":[8.540396,47.407629],"type":"Point"},"properties":{"osm_id":"6005557089","tag":{"amenity":"waste_basket"}},"type":"Feature"},
	{"geometry":{"coordinates":[8.548051,47.413324],"type":"Point"},"properties":{"osm_id":"6024682363","tag":{"amenity":"waste_basket"}},"type":"Feature"},
	{"geometry":{"coordinates":[8.544549,47.418321],"type":"Point"},"properties":{"osm_id":"6047288172","tag":{"amenity":"waste_basket"}},"type":"Feature"},
	{"geometry":{"coordinates":[8.547127,47.412843],"type":"Point"},"properties":{"osm_id":"6085280570","tag":{"amenity":"waste_basket"}},"type":"Feature"},
	{"geometry":{"coordinates":[8.548053,47.413255],"type":"Point"},"properties":{"osm_id":"6112881026","tag":{"amenity":"waste_basket"}},"type":"Feature"},
	{"geometry":{"coordinates":[8.611294,47.418409],"type":"Point"},"properties":{"osm_id":"6400710930","tag":{"amenity":"waste_basket","waste":"trash"}},"type":"Feature"},
	{"geometry":{"coordinates":[8.597855,47.419808],"type":"Point"},"properties":{"osm_id":"6400741663","tag":{"amenity":"waste_basket","waste":"trash"}},"type":"Feature"},
	{"geometry":{"coordinates":[8.562908,47.413076],"type":"Point"},"properties":{"osm_id":"6477645586","tag":{"amenity":"waste_basket"}},"type":"Feature"},
	{"geometry":{"coordinates":[8.546517,47.452193],"type":"Point"},"properties":{"osm_id":"6535960803","tag":{"amenity":"waste_basket","colour":"silver","material":"steel"}},"type":"Feature"},
	{"geometry":{"coordinates":[8.546449,47.452225],"type":"Point"},"properties":{"osm_id":"6535960804","tag":{"amenity":"waste_basket","colour":"silver","material":"steel"}},"type":"Feature"},
	{"geometry":{"coordinates":[8.546392,47.452251],"type":"Point"},"properties":{"osm_id":"6535960805","tag":{"amenity":"waste_basket","colour":"silver","material":"steel"}},"type":"Feature"},
	{"geometry":{"coordinates":[8.60242,47.408296],"type":"Point"},"properties":{"name":"Labdoo Annahmestelle f\u00c3\u00bcr Laptops","osm_id":"6542973127","tag":{"addr:city":"Wallisellen","addr:housenumber":"3","addr:postcode":"8304","addr:street":"Husacherstrasse","amenity":"recycling","brand":"Labdoo","charity":"yes","description":"Bei ERPsourcing AG k\u00c3\u00b6nnen zu den \u00c3\u00bcblichen B\u00c3\u00bcrozeiten von Montag bis Freitag Laptops am Empfang unter dem Hinweis auf Frank Geisler deponiert werden.","location":"indoor","operator":"ERPsourcing AG","recycling:computers":"yes","recycling:mobile_phones":"yes","service_times":"Mo-Fr","website":"https://www.labdoo.org/de/hub?h=16418"}},"type":"Feature"},
	{"geometry":{"coordinates":[8.561224,47.435205],"type":"Point"},"properties":{"osm_id":"6548383791","tag":{"amenity":"waste_basket","waste":"trash"}},"type":"Feature"},
	{"geometry":{"coordinates":[8.560982,47.435355],"type":"Point"},"properties":{"osm_id":"6548383813","tag":{"amenity":"waste_basket","waste":"trash"}},"type":"Feature"},
	{"geometry":{"coordinates":[8.546018,47.44743],"type":"Point"},"properties":{"osm_id":"6548890387","tag":{"amenity":"waste_basket","waste":"trash"}},"type":"Feature"},
	{"geometry":{"coordinates":[8.558489,47.413233],"type":"Point"},"properties":{"osm_id":"6584486507","tag":{"amenity":"waste_basket","waste":"trash"}},"type":"Feature"},
	{"geometry":{"coordinates":[8.557986,47.413077],"type":"Point"},"properties":{"osm_id":"6584486512","tag":{"amenity":"waste_basket","waste":"trash"}},"type":"Feature"},
	{"geometry":{"coordinates":[8.556191,47.413063],"type":"Point"},"properties":{"osm_id":"6584486519","tag":{"amenity":"waste_basket","waste":"trash"}},"type":"Feature"},
	{"geometry":{"coordinates":[8.556735,47.413068],"type":"Point"},"properties":{"osm_id":"6584486526","tag":{"amenity":"waste_basket","waste":"trash"}},"type":"Feature"},
	{"geometry":{"coordinates":[8.557372,47.413071],"type":"Point"},"properties":{"osm_id":"6584486531","tag":{"amenity":"waste_basket","waste":"trash"}},"type":"Feature"},
	{"geometry":{"coordinates":[8.529334,47.441376],"type":"Point"},"properties":{"osm_id":"6629691080","tag":{"amenity":"waste_basket","material":"metal"}},"type":"Feature"},
	{"geometry":{"coordinates":[8.529351,47.44127],"type":"Point"},"properties":{"osm_id":"6629691081","tag":{"amenity":"waste_basket","waste":"dog_excrement"}},"type":"Feature"},
	{"geometry":{"coordinates":[8.535553,47.434456],"type":"Point"},"properties":{"osm_id":"6629703737","tag":{"amenity":"waste_basket","bin":"*","fee":"no","payment:none":"yes","vending":"excrement_bags;waste","waste":"dog_excrement"}},"type":"Feature"},
	{"geometry":{"coordinates":[8.592243,47.409852],"type":"Point"},"properties":{"osm_id":"6644390545","tag":{"amenity":"waste_basket","waste":"trash"}},"type":"Feature"},
	{"geometry":{"coordinates":[8.592254,47.40889],"type":"Point"},"properties":{"osm_id":"6644390563","tag":{"amenity":"waste_basket","waste":"trash"}},"type":"Feature"},
	{"geometry":{"coordinates":[8.59297,47.409963],"type":"Point"},"properties":{"osm_id":"6644390580","tag":{"amenity":"waste_basket","waste":"trash"}},"type":"Feature"},
	{"geometry":{"coordinates":[8.567481,47.432863],"type":"Point"},"properties":{"osm_id":"6696894863","tag":{"amenity":"waste_basket","waste":"trash"}},"type":"Feature"},
	{"geometry":{"coordinates":[8.574196,47.425617],"type":"Point"},"properties":{"osm_id":"6696894877","tag":{"amenity":"waste_basket","waste":"trash"}},"type":"Feature"},
	{"geometry":{"coordinates":[8.607383,47.401182],"type":"Point"},"properties":{"osm_id":"6696894878","tag":{"amenity":"waste_basket","waste":"trash"}},"type":"Feature"},
	{"geometry":{"coordinates":[8.608997,47.400977],"type":"Point"},"properties":{"osm_id":"6702218273","tag":{"amenity":"waste_basket","waste":"trash"}},"type":"Feature"},
	{"geometry":{"coordinates":[8.608796,47.400917],"type":"Point"},"properties":{"osm_id":"6702218282","tag":{"amenity":"waste_basket","waste":"trash"}},"type":"Feature"},
	{"geometry":{"coordinates":[8.533021,47.454157],"type":"Point"},"properties":{"osm_id":"6819293011","tag":{"amenity":"waste_basket","waste":"cigarettes"}},"type":"Feature"},
	{"geometry":{"coordinates":[8.56816,47.423086],"type":"Point"},"properties":{"osm_id":"6904876230","tag":{"amenity":"waste_basket","waste":"trash"}},"type":"Feature"},
	{"geometry":{"coordinates":[8.593091,47.41496],"type":"Point"},"properties":{"osm_id":"6924557450","tag":{"amenity":"waste_basket","waste":"trash"}},"type":"Feature"},
	{"geometry":{"coordinates":[8.582896,47.455439],"type":"Point"},"properties":{"osm_id":"6927927950","tag":{"amenity":"waste_basket","waste":"trash"}},"type":"Feature"},
	{"geometry":{"coordinates":[8.583689,47.453162],"type":"Point"},"properties":{"osm_id":"6928166676","tag":{"amenity":"waste_basket","waste":"trash"}},"type":"Feature"},
	{"geometry":{"coordinates":[8.607835,47.430687],"type":"Point"},"properties":{"osm_id":"6928312018","tag":{"amenity":"waste_basket","waste":"trash"}},"type":"Feature"},
	{"geometry":{"coordinates":[8.580436,47.447339],"type":"Point"},"properties":{"osm_id":"6979437540","tag":{"amenity":"waste_basket","waste":"trash"}},"type":"Feature"},
	{"geometry":{"coordinates":[8.532893,47.453617],"type":"Point"},"properties":{"osm_id":"7043618800","tag":{"amenity":"waste_basket","waste":"trash"}},"type":"Feature"},
	{"geometry":{"coordinates":[8.534692,47.399303],"type":"Point"},"properties":{"osm_id":"7052424186","tag":{"amenity":"waste_basket"}},"type":"Feature"},
	{"geometry":{"coordinates":[8.526141,47.451131],"type":"Point"},"properties":{"osm_id":"7190282203","tag":{"amenity":"waste_basket","waste":"dog_excrement"}},"type":"Feature"},
	{"geometry":{"coordinates":[8.592612,47.413537],"type":"Point"},"properties":{"osm_id":"7295506239","tag":{"amenity":"waste_basket","waste":"trash"}},"type":"Feature"},
	{"geometry":{"coordinates":[8.587859,47.415898],"type":"Point"},"properties":{"osm_id":"7295506241","tag":{"amenity":"recycling","recycling:cans":"yes","recycling:clothes":"yes","recycling:glass_bottles":"yes","recycling:shoes":"yes","recycling_type":"container"}},"type":"Feature"},
	{"geometry":{"coordinates":[8.591684,47.422129],"type":"Point"},"properties":{"osm_id":"7295506242","tag":{"amenity":"waste_basket","waste":"trash"}},"type":"Feature"},
	{"geometry":{"coordinates":[8.590131,47.41739],"type":"Point"},"properties":{"osm_id":"7295506245","tag":{"amenity":"waste_basket","waste":"trash"}},"type":"Feature"},
	{"geometry":{"coordinates":[8.592241,47.422087],"type":"Point"},"properties":{"osm_id":"7295506246","tag":{"amenity":"waste_basket","waste":"trash"}},"type":"Feature"},
	{"geometry":{"coordinates":[8.592218,47.421888],"type":"Point"},"properties":{"osm_id":"7295506250","tag":{"amenity":"waste_basket","waste":"trash"}},"type":"Feature"},
	{"geometry":{"coordinates":[8.592271,47.413182],"type":"Point"},"properties":{"osm_id":"7295506262","tag":{"amenity":"waste_basket","waste":"trash"}},"type":"Feature"},
	{"geometry":{"coordinates":[8.59333,47.414225],"type":"Point"},"properties":{"osm_id":"7295506270","tag":{"amenity":"waste_basket","waste":"trash"}},"type":"Feature"},
	{"geometry":{"coordinates":[8.585642,47.411134],"type":"Point"},"properties":{"osm_id":"7297164744","tag":{"amenity":"waste_basket","waste":"trash"}},"type":"Feature"},
	{"geometry":{"coordinates":[8.599174,47.411104],"type":"Point"},"properties":{"osm_id":"7299935248","tag":{"amenity":"waste_basket","waste":"trash"}},"type":"Feature"},
	{"geometry":{"coordinates":[8.598136,47.411293],"type":"Point"},"properties":{"osm_id":"7299935256","tag":{"amenity":"waste_basket","waste":"trash"}},"type":"Feature"},
	{"geometry":{"coordinates":[8.577634,47.412971],"type":"Point"},"properties":{"osm_id":"7306708572","tag":{"amenity":"waste_basket","waste":"dog_excrement"}},"type":"Feature"},
	{"geometry":{"coordinates":[8.597477,47.410575],"type":"Point"},"properties":{"osm_id":"7310262068","tag":{"amenity":"recycling","recycling:green_waste":"yes","recycling:paper":"yes","recycling_type":"container"}},"type":"Feature"},
	{"geometry":{"coordinates":[8.594002,47.415341],"type":"Point"},"properties":{"osm_id":"7310262071","tag":{"amenity":"waste_basket","waste":"trash"}},"type":"Feature"},
	{"geometry":{"coordinates":[8.595633,47.413849],"type":"Point"},"properties":{"highway":"crossing","osm_id":"7310337490","tag":{"amenity":"waste_basket","waste":"trash"}},"type":"Feature"},
	{"geometry":{"coordinates":[8.599836,47.412184],"type":"Point"},"properties":{"osm_id":"7310337492","tag":{"amenity":"waste_basket","waste":"trash"}},"type":"Feature"},
	{"geometry":{"coordinates":[8.593053,47.414513],"type":"Point"},"properties":{"osm_id":"7310337493","tag":{"amenity":"waste_basket","waste":"trash"}},"type":"Feature"},
	{"geometry":{"coordinates":[8.592308,47.411943],"type":"Point"},"properties":{"osm_id":"7310337498","tag":{"amenity":"waste_basket","waste":"trash"}},"type":"Feature"},
	{"geometry":{"coordinates":[8.596836,47.413616],"type":"Point"},"properties":{"osm_id":"7310337500","tag":{"amenity":"waste_basket","waste":"trash"}},"type":"Feature"},
	{"geometry":{"coordinates":[8.600357,47.412839],"type":"Point"},"properties":{"osm_id":"7312795604","tag":{"amenity":"waste_basket","material":"steel","waste":"trash"}},"type":"Feature"},
	{"geometry":{"coordinates":[8.600255,47.412773],"type":"Point"},"properties":{"osm_id":"7312795605","tag":{"amenity":"recycling","recycling:clothes":"yes","recycling_type":"container"}},"type":"Feature"},
	{"geometry":{"coordinates":[8.584074,47.413274],"type":"Point"},"properties":{"osm_id":"7320647258","tag":{"addr:street":"Bahnweg","amenity":"waste_basket","waste":"dog_excrement"}},"type":"Feature"},
	{"geometry":{"coordinates":[8.582554,47.411992],"type":"Point"},"properties":{"osm_id":"7354813295","tag":{"amenity":"waste_basket","waste":"trash"}},"type":"Feature"},
	{"geometry":{"coordinates":[8.597357,47.406266],"type":"Point"},"properties":{"osm_id":"7368767697","tag":{"amenity":"waste_basket","waste":"trash"}},"type":"Feature"},
	{"geometry":{"coordinates":[8.605726,47.408425],"type":"Point"},"properties":{"osm_id":"7368767702","tag":{"amenity":"waste_basket","waste":"trash"}},"type":"Feature"},
	{"geometry":{"coordinates":[8.600837,47.404779],"type":"Point"},"properties":{"osm_id":"7368767705","tag":{"amenity":"waste_basket","waste":"trash"}},"type":"Feature"},
	{"geometry":{"coordinates":[8.593665,47.410201],"type":"Point"},"properties":{"osm_id":"7375845051","tag":{"amenity":"waste_basket","colour":"silver","material":"steel","waste":"trash"}},"type":"Feature"},
	{"geometry":{"coordinates":[8.592187,47.41181],"type":"Point"},"properties":{"osm_id":"7382856583","tag":{"amenity":"waste_basket","waste":"trash"}},"type":"Feature"},
	{"geometry":{"coordinates":[8.594181,47.411776],"type":"Point"},"properties":{"osm_id":"7382868587","tag":{"amenity":"waste_basket","waste":"trash"}},"type":"Feature"},
	{"geometry":{"coordinates":[8.596456,47.411161],"type":"Point"},"properties":{"osm_id":"7382868591","tag":{"amenity":"waste_basket","waste":"trash"}},"type":"Feature"},
	{"geometry":{"coordinates":[8.598615,47.410469],"type":"Point"},"properties":{"osm_id":"7382868592","tag":{"amenity":"waste_basket","waste":"trash"}},"type":"Feature"},
	{"geometry":{"coordinates":[8.594664,47.411408],"type":"Point"},"properties":{"osm_id":"7382868596","tag":{"amenity":"waste_basket","waste":"trash"}},"type":"Feature"},
	{"geometry":{"coordinates":[8.597144,47.410892],"type":"Point"},"properties":{"osm_id":"7382868600","tag":{"amenity":"waste_basket","waste":"trash"}},"type":"Feature"},
	{"geometry":{"coordinates":[8.598064,47.41045],"type":"Point"},"properties":{"osm_id":"7382868601","tag":{"amenity":"waste_basket","waste":"trash"}},"type":"Feature"},
	{"geometry":{"coordinates":[8.595144,47.41141],"type":"Point"},"properties":{"osm_id":"7382868602","tag":{"amenity":"waste_basket","waste":"trash"}},"type":"Feature"},
	{"geometry":{"coordinates":[8.593733,47.411827],"type":"Point"},"properties":{"osm_id":"7382868603","tag":{"amenity":"waste_basket","waste":"trash"}},"type":"Feature"},
	{"geometry":{"coordinates":[8.593824,47.411725],"type":"Point"},"properties":{"osm_id":"7382868604","tag":{"amenity":"waste_basket","waste":"trash"}},"type":"Feature"},
	{"geometry":{"coordinates":[8.593291,47.410031],"type":"Point"},"properties":{"osm_id":"7391683583","tag":{"amenity":"waste_basket","colour":"silver","material":"steel","waste":"trash"}},"type":"Feature"},
	{"geometry":{"coordinates":[8.590183,47.411594],"type":"Point"},"properties":{"osm_id":"7410591652","tag":{"amenity":"waste_basket"}},"type":"Feature"},
	{"geometry":{"coordinates":[8.589108,47.411953],"type":"Point"},"properties":{"osm_id":"7417408892","tag":{"amenity":"waste_basket","waste":"trash"}},"type":"Feature"},
	{"geometry":{"coordinates":[8.589233,47.411977],"type":"Point"},"properties":{"osm_id":"7417408898","tag":{"amenity":"waste_basket","waste":"trash"}},"type":"Feature"},
	{"geometry":{"coordinates":[8.588527,47.412551],"type":"Point"},"properties":{"osm_id":"7417408903","tag":{"amenity":"waste_basket","waste":"trash"}},"type":"Feature"},
	{"geometry":{"coordinates":[8.590648,47.408817],"type":"Point"},"properties":{"osm_id":"7419177580","tag":{"amenity":"waste_basket","waste":"trash"}},"type":"Feature"},
	{"geometry":{"coordinates":[8.597333,47.409759],"type":"Point"},"properties":{"osm_id":"7438540642","tag":{"amenity":"waste_basket","waste":"trash"}},"type":"Feature"},
	{"geometry":{"coordinates":[8.604054,47.408809],"type":"Point"},"properties":{"osm_id":"7438540651","tag":{"amenity":"waste_basket","waste":"trash"}},"type":"Feature"},
	{"geometry":{"coordinates":[8.603521,47.408884],"type":"Point"},"properties":{"osm_id":"7438540655","tag":{"amenity":"waste_basket","waste":"trash"}},"type":"Feature"},
	{"geometry":{"coordinates":[8.594205,47.410528],"type":"Point"},"properties":{"osm_id":"7444977221","tag":{"access":"yes","amenity":"waste_disposal","location":"underground","waste":"trash"}},"type":"Feature"},
	{"geometry":{"coordinates":[8.594276,47.410569],"type":"Point"},"properties":{"osm_id":"7444977222","tag":{"access":"yes","amenity":"waste_disposal","location":"underground","waste":"trash"}},"type":"Feature"},
	{"geometry":{"coordinates":[8.592912,47.410905],"type":"Point"},"properties":{"osm_id":"7444977223","tag":{"access":"yes","amenity":"waste_disposal","location":"underground","waste":"trash"}},"type":"Feature"},
	{"geometry":{"coordinates":[8.592848,47.410843],"type":"Point"},"properties":{"osm_id":"7444977224","tag":{"access":"yes","amenity":"waste_disposal","location":"underground","waste":"trash"}},"type":"Feature"},
	{"geometry":{"coordinates":[8.592509,47.410824],"type":"Point"},"properties":{"osm_id":"7444977225","tag":{"access":"yes","amenity":"waste_disposal","location":"underground","waste":"trash"}},"type":"Feature"},
	{"geometry":{"coordinates":[8.594809,47.41143],"type":"Point"},"properties":{"osm_id":"7444977226","tag":{"access":"yes","amenity":"waste_disposal","location":"underground","waste":"trash"}},"type":"Feature"},
	{"geometry":{"coordinates":[8.594832,47.411424],"type":"Point"},"properties":{"osm_id":"7444977227","tag":{"access":"yes","amenity":"waste_disposal","location":"underground","waste":"trash"}},"type":"Feature"},
	{"geometry":{"coordinates":[8.596191,47.411027],"type":"Point"},"properties":{"osm_id":"7444977228","tag":{"access":"yes","amenity":"waste_disposal","location":"underground","waste":"trash"}},"type":"Feature"},
	{"geometry":{"coordinates":[8.596168,47.411036],"type":"Point"},"properties":{"osm_id":"7444977229","tag":{"access":"yes","amenity":"waste_disposal","location":"underground","waste":"trash"}},"type":"Feature"},
	{"geometry":{"coordinates":[8.59753,47.410565],"type":"Point"},"properties":{"osm_id":"7444977230","tag":{"access":"yes","amenity":"waste_disposal","location":"underground","waste":"trash"}},"type":"Feature"},
	{"geometry":{"coordinates":[8.597554,47.410557],"type":"Point"},"properties":{"osm_id":"7444977231","tag":{"access":"yes","amenity":"waste_disposal","location":"underground","waste":"trash"}},"type":"Feature"},
	{"geometry":{"coordinates":[8.594243,47.410572],"type":"Point"},"properties":{"osm_id":"7444977232","tag":{"access":"private","amenity":"recycling","recycling:green_waste":"yes","recycling_type":"container"}},"type":"Feature"},
	{"geometry":{"coordinates":[8.593365,47.411217],"type":"Point"},"properties":{"osm_id":"7444977233","tag":{"access":"private","amenity":"recycling","recycling:green_waste":"yes","recycling_type":"container"}},"type":"Feature"},
	{"geometry":{"coordinates":[8.592981,47.410831],"type":"Point"},"properties":{"osm_id":"7444977234","tag":{"access":"private","amenity":"recycling","recycling:green_waste":"yes","recycling_type":"container"}},"type":"Feature"},
	{"geometry":{"coordinates":[8.590984,47.411111],"type":"Point"},"properties":{"osm_id":"7444977235","tag":{"access":"yes","amenity":"waste_disposal","location":"underground","waste":"trash"}},"type":"Feature"},
	{"geometry":{"coordinates":[8.590989,47.411338],"type":"Point"},"properties":{"osm_id":"7444977236","tag":{"access":"yes","amenity":"waste_disposal","location":"underground","waste":"trash"}},"type":"Feature"},
	{"geometry":{"coordinates":[8.59101,47.411328],"type":"Point"},"properties":{"osm_id":"7444977237","tag":{"access":"yes","amenity":"waste_disposal","location":"underground","waste":"trash"}},"type":"Feature"},
	{"geometry":{"coordinates":[8.588466,47.412135],"type":"Point"},"properties":{"osm_id":"7444977238","tag":{"access":"yes","amenity":"waste_disposal","location":"underground","waste":"trash"}},"type":"Feature"},
	{"geometry":{"coordinates":[8.588488,47.412129],"type":"Point"},"properties":{"osm_id":"7444977239","tag":{"access":"yes","amenity":"waste_disposal","location":"underground","waste":"trash"}},"type":"Feature"},
	{"geometry":{"coordinates":[8.595136,47.410004],"type":"Point"},"properties":{"osm_id":"7449305270","tag":{"amenity":"waste_basket"}},"type":"Feature"},
	{"geometry":{"coordinates":[8.596026,47.409437],"type":"Point"},"properties":{"osm_id":"7449305272","tag":{"amenity":"waste_basket","waste":"trash"}},"type":"Feature"},
	{"geometry":{"coordinates":[8.595258,47.41016],"type":"Point"},"properties":{"osm_id":"7449305273","tag":{"amenity":"waste_basket"}},"type":"Feature"},
	{"geometry":{"coordinates":[8.596965,47.409471],"type":"Point"},"properties":{"osm_id":"7449305276","tag":{"amenity":"waste_basket","waste":"trash"}},"type":"Feature"},
	{"geometry":{"coordinates":[8.596192,47.40944],"type":"Point"},"properties":{"osm_id":"7449305277","tag":{"amenity":"waste_basket","waste":"trash"}},"type":"Feature"},
	{"geometry":{"coordinates":[8.595749,47.409461],"type":"Point"},"properties":{"osm_id":"7449305278","tag":{"amenity":"waste_basket","waste":"trash"}},"type":"Feature"},
	{"geometry":{"coordinates":[8.595437,47.409973],"type":"Point"},"properties":{"osm_id":"7449305280","tag":{"amenity":"waste_basket"}},"type":"Feature"},
	{"geometry":{"coordinates":[8.595388,47.410495],"type":"Point"},"properties":{"osm_id":"7449305283","tag":{"amenity":"waste_basket"}},"type":"Feature"},
	{"geometry":{"coordinates":[8.594209,47.410346],"type":"Point"},"properties":{"osm_id":"7449305284","tag":{"amenity":"waste_basket"}},"type":"Feature"},
	{"geometry":{"coordinates":[8.59529,47.410337],"type":"Point"},"properties":{"osm_id":"7449368486","tag":{"amenity":"waste_basket"}},"type":"Feature"},
	{"geometry":{"coordinates":[8.597974,47.410199],"type":"Point"},"properties":{"osm_id":"7449368487","tag":{"amenity":"waste_basket","waste":"trash"}},"type":"Feature"},
	{"geometry":{"coordinates":[8.582101,47.422074],"type":"Point"},"properties":{"osm_id":"7452495084","tag":{"amenity":"waste_basket","waste":"trash"}},"type":"Feature"},
	{"geometry":{"coordinates":[8.586155,47.411894],"type":"Point"},"properties":{"osm_id":"7453028204","tag":{"access":"yes","amenity":"waste_disposal","location":"underground","waste":"trash"}},"type":"Feature"},
	{"geometry":{"coordinates":[8.5925,47.410808],"type":"Point"},"properties":{"osm_id":"7470050791","tag":{"access":"yes","amenity":"waste_disposal","location":"underground","waste":"trash"}},"type":"Feature"},
	{"geometry":{"coordinates":[8.590964,47.411077],"type":"Point"},"properties":{"osm_id":"7470050792","tag":{"access":"yes","amenity":"waste_disposal","location":"underground","waste":"trash"}},"type":"Feature"},
	{"geometry":{"coordinates":[8.590975,47.411094],"type":"Point"},"properties":{"osm_id":"7470050793","tag":{"access":"yes","amenity":"waste_disposal","location":"underground","waste":"trash"}},"type":"Feature"},
	{"geometry":{"coordinates":[8.590995,47.411121],"type":"Point"},"properties":{"osm_id":"7470050794","tag":{"access":"private","amenity":"recycling","recycling:green_waste":"yes","recycling_type":"underground"}},"type":"Feature"},
	{"geometry":{"coordinates":[8.590999,47.411129],"type":"Point"},"properties":{"osm_id":"7470050795","tag":{"access":"private","amenity":"recycling","recycling:green_waste":"yes","recycling_type":"underground"}},"type":"Feature"},
	{"geometry":{"coordinates":[8.592515,47.410844],"type":"Point"},"properties":{"osm_id":"7470050796","tag":{"access":"private","amenity":"recycling","recycling:green_waste":"yes","recycling_type":"underground"}},"type":"Feature"},
	{"geometry":{"coordinates":[8.592512,47.410837],"type":"Point"},"properties":{"osm_id":"7470050797","tag":{"access":"private","amenity":"recycling","recycling:green_waste":"yes","recycling_type":"underground"}},"type":"Feature"},
	{"geometry":{"coordinates":[8.594106,47.41272],"type":"Point"},"properties":{"osm_id":"7470050798","tag":{"access":"private","amenity":"recycling","recycling:green_waste":"yes","recycling_type":"underground"}},"type":"Feature"},
	{"geometry":{"coordinates":[8.594035,47.412744],"type":"Point"},"properties":{"osm_id":"7470050799","tag":{"access":"yes","amenity":"waste_disposal","location":"underground","waste":"trash"}},"type":"Feature"},
	{"geometry":{"coordinates":[8.59406,47.412736],"type":"Point"},"properties":{"osm_id":"7470050800","tag":{"access":"yes","amenity":"waste_disposal","location":"underground","waste":"trash"}},"type":"Feature"},
	{"geometry":{"coordinates":[8.594082,47.412728],"type":"Point"},"properties":{"osm_id":"7470050801","tag":{"access":"yes","amenity":"waste_disposal","location":"underground","waste":"trash"}},"type":"Feature"},
	{"geometry":{"coordinates":[8.591618,47.411457],"type":"Point"},"properties":{"osm_id":"7470050802","tag":{"access":"yes","amenity":"waste_disposal","location":"underground","waste":"trash"}},"type":"Feature"},
	{"geometry":{"coordinates":[8.591643,47.411451],"type":"Point"},"properties":{"osm_id":"7470050803","tag":{"access":"yes","amenity":"waste_disposal","location":"underground","waste":"trash"}},"type":"Feature"},
	{"geometry":{"coordinates":[8.603553,47.41806],"type":"Point"},"properties":{"osm_id":"7489231266","tag":{"amenity":"waste_basket"}},"type":"Feature"},
	{"geometry":{"coordinates":[8.588707,47.416809],"type":"Point"},"properties":{"osm_id":"7492157711","tag":{"amenity":"waste_basket","waste":"trash"}},"type":"Feature"},
	{"geometry":{"coordinates":[8.587933,47.416496],"type":"Point"},"properties":{"osm_id":"7492157713","tag":{"amenity":"waste_basket","waste":"trash"}},"type":"Feature"},
	{"geometry":{"coordinates":[8.525464,47.44316],"type":"Point"},"properties":{"osm_id":"7503683035","tag":{"amenity":"waste_basket","waste":"dog_excrement"}},"type":"Feature"},
	{"geometry":{"coordinates":[8.526517,47.436935],"type":"Point"},"properties":{"osm_id":"7503710889","tag":{"amenity":"waste_basket","waste":"dog_excrement"}},"type":"Feature"},
	{"geometry":{"coordinates":[8.588702,47.412007],"type":"Point"},"properties":{"osm_id":"7506298093","tag":{"amenity":"waste_basket","waste":"trash"}},"type":"Feature"},
	{"geometry":{"coordinates":[8.607067,47.412823],"type":"Point"},"properties":{"osm_id":"7525819726","tag":{"amenity":"waste_basket","waste":"trash"}},"type":"Feature"},
	{"geometry":{"coordinates":[8.530164,47.433658],"type":"Point"},"properties":{"osm_id":"7548447877","tag":{"amenity":"waste_basket","waste":"dog_excrement"}},"type":"Feature"},
	{"geometry":{"coordinates":[8.578683,47.417506],"type":"Point"},"properties":{"osm_id":"7572625204","tag":{"amenity":"recycling","recycling:clothes":"yes","recycling_type":"container"}},"type":"Feature"},
	{"geometry":{"coordinates":[8.578526,47.417536],"type":"Point"},"properties":{"osm_id":"7572625205","tag":{"access":"yes","amenity":"waste_disposal","location":"underground","waste":"trash"}},"type":"Feature"},
	{"geometry":{"coordinates":[8.578504,47.417527],"type":"Point"},"properties":{"osm_id":"7572625206","tag":{"access":"yes","amenity":"waste_disposal","location":"underground","waste":"trash"}},"type":"Feature"},
	{"geometry":{"coordinates":[8.578519,47.417512],"type":"Point"},"properties":{"osm_id":"7572625207","tag":{"access":"yes","amenity":"waste_disposal","location":"underground","waste":"trash"}},"type":"Feature"},
	{"geometry":{"coordinates":[8.578482,47.417517],"type":"Point"},"properties":{"osm_id":"7572625208","tag":{"access":"yes","amenity":"waste_disposal","location":"underground","waste":"trash"}},"type":"Feature"},
	{"geometry":{"coordinates":[8.578473,47.417493],"type":"Point"},"properties":{"osm_id":"7572625237","tag":{"amenity":"recycling","recycling:aluminium":"yes","recycling:cans":"yes","recycling:glass":"yes","recycling_type":"underfloor-container"}},"type":"Feature"},
	{"geometry":{"coordinates":[8.605674,47.409532],"type":"Point"},"properties":{"osm_id":"7575069010","tag":{"amenity":"waste_disposal","location":"underground","waste":"trash"}},"type":"Feature"},
	{"geometry":{"coordinates":[8.605402,47.409652],"type":"Point"},"properties":{"osm_id":"7575069011","tag":{"access":"private","amenity":"recycling","recycling:green_waste":"yes","recycling_type":"container"}},"type":"Feature"},
	{"geometry":{"coordinates":[8.605596,47.40941],"type":"Point"},"properties":{"osm_id":"7575069012","tag":{"access":"private","amenity":"recycling","recycling:green_waste":"yes","recycling_type":"container"}},"type":"Feature"},
	{"geometry":{"coordinates":[8.531062,47.422005],"type":"Point"},"properties":{"osm_id":"7598224605","tag":{"amenity":"waste_basket","material":"metal"}},"type":"Feature"},
	{"geometry":{"coordinates":[8.531165,47.422026],"type":"Point"},"properties":{"osm_id":"7598224606","tag":{"amenity":"waste_basket","material":"metal"}},"type":"Feature"},
	{"geometry":{"coordinates":[8.531398,47.422192],"type":"Point"},"properties":{"osm_id":"7598224620","tag":{"amenity":"waste_basket"}},"type":"Feature"},
	{"geometry":{"coordinates":[8.608462,47.412938],"type":"Point"},"properties":{"osm_id":"7869849386","tag":{"amenity":"waste_basket","waste":"trash"}},"type":"Feature"},
	{"geometry":{"coordinates":[8.609879,47.412013],"type":"Point"},"properties":{"osm_id":"7869849390","tag":{"amenity":"waste_basket","waste":"trash"}},"type":"Feature"},
	{"geometry":{"coordinates":[8.611057,47.413718],"type":"Point"},"properties":{"osm_id":"7869849394","tag":{"amenity":"waste_basket","waste":"trash"}},"type":"Feature"},
	{"geometry":{"coordinates":[8.608057,47.412705],"type":"Point"},"properties":{"osm_id":"7869849406","tag":{"amenity":"waste_basket","waste":"trash"}},"type":"Feature"},
	{"geometry":{"coordinates":[8.61123,47.413904],"type":"Point"},"properties":{"osm_id":"7874953267","tag":{"amenity":"waste_basket","waste":"trash"}},"type":"Feature"},
	{"geometry":{"coordinates":[8.588826,47.419561],"type":"Point"},"properties":{"osm_id":"7902610946","tag":{"amenity":"waste_basket","waste":"trash"}},"type":"Feature"},
	{"geometry":{"coordinates":[8.593751,47.418447],"type":"Point"},"properties":{"osm_id":"7902739521","tag":{"amenity":"waste_basket"}},"type":"Feature"},
	{"geometry":{"coordinates":[8.545632,47.417523],"type":"Point"},"properties":{"osm_id":"7952704124","tag":{"amenity":"waste_basket"}},"type":"Feature"},
	{"geometry":{"coordinates":[8.54544,47.416766],"type":"Point"},"properties":{"osm_id":"7952707783","tag":{"amenity":"waste_basket"}},"type":"Feature"},
	{"geometry":{"coordinates":[8.545443,47.416766],"type":"Point"},"properties":{"osm_id":"7952707783","tag":{"amenity":"waste_basket"}},"type":"Feature"}
]
}
