{
"type": "FeatureCollection",
"features": [
	{"geometry":{"coordinates":[8.53022,47.339809],"type":"Point"},"properties":{"osm_id":"84452153","tag":{"amenity":"recycling","description":"Container: Metall (1), Gr\u00c3\u00bcnglas (2), Weissglas (1), Braunglas (1); Speise\u00c3\u00b6l/Mineral\u00c3\u00b6l","opening_hours":"Mo-Sa 07:00-20:00","operator":"ERZ","recycling:aluminium":"yes","recycling:cans":"yes","recycling:glass_bottles":"yes","recycling_type":"container","wheelchair":"yes"}},"type":"Feature"},
	{"geometry":{"coordinates":[8.527802,47.348108],"type":"Point"},"properties":{"osm_id":"92615221","tag":{"amenity":"recycling","operator":"Texaid","recycling:clothes":"yes","recycling:shoes":"yes","recycling_type":"container"}},"type":"Feature"},
	{"geometry":{"coordinates":[8.530318,47.342586],"type":"Point"},"properties":{"osm_id":"102704900","tag":{"amenity":"recycling","description":"Container: Metall (2), Gr\u00c3\u00bcnglas (2), Weissglas (2), Braunglas (1)","opening_hours":"Mo-Sa 07:00-20:00","operator":"ERZ","recycling:aluminium":"yes","recycling:cans":"yes","recycling:glass_bottles":"yes","recycling_type":"container"}},"type":"Feature"},
	{"geometry":{"coordinates":[8.526655,47.34682],"type":"Point"},"properties":{"osm_id":"102705266","tag":{"amenity":"recycling","description":"Container: Braunglas (1), Weissglas (2), Gr\u00c3\u00bcnglas (3), Metall (2)","opening_hours":"Mo-Sa 07:00-20:00","operator":"ERZ","recycling:aluminium":"yes","recycling:cans":"yes","recycling:glass_bottles":"yes","recycling_type":"container"}},"type":"Feature"},
	{"geometry":{"coordinates":[8.534518,47.34605],"type":"Point"},"properties":{"name":"Avia Franz AG","osm_id":"103096904","tag":{"amenity":"fuel","branch":"Z\u00c3\u00bcrich Franz AG Wollishofen","brand":"Avia","brand:wikidata":"Q300147","fuel:diesel":"yes","fuel:octane_95":"yes","operator":"A.H. Meyer & Cie","shop":"convenience"}},"type":"Feature"},
	{"geometry":{"coordinates":[8.547704,47.384974],"type":"Point"},"properties":{"osm_id":"105507813","tag":{"amenity":"recycling","description":"Container: Metall (1), Gr\u00c3\u00bcnglas (2), Weissglas (1), Braunglas (1)","opening_hours":"Mo-Sa 07:00-20:00","operator":"ERZ","recycling:aluminium":"yes","recycling:cans":"yes","recycling:glass_bottles":"yes","recycling_type":"container","wheelchair":"yes"}},"type":"Feature"},
	{"geometry":{"coordinates":[8.529731,47.349805],"type":"Point"},"properties":{"osm_id":"119208266","tag":{"amenity":"recycling","operator":"Texaid","recycling:clothes":"yes","recycling:shoes":"yes","recycling_type":"container"}},"type":"Feature"},
	{"geometry":{"coordinates":[8.540708,47.387787],"type":"Point"},"properties":{"osm_id":"132073028","tag":{"amenity":"recycling","description":"Container: Metall (2), Gr\u00c3\u00bcnglas (3), Weissglas (2), Braunglas (1); Speise\u00c3\u00b6l/Mineral\u00c3\u00b6l","opening_hours":"Mo-Sa 07:00-20:00","operator":"ERZ","recycling:aluminium":"yes","recycling:cans":"yes","recycling:cooking_oil":"yes","recycling:engine_oil":"yes","recycling:glass_bottles":"yes","recycling_type":"container"}},"type":"Feature"},
	{"geometry":{"coordinates":[8.540231,47.3953],"type":"Point"},"properties":{"osm_id":"132074324","tag":{"amenity":"recycling","description":"Container: Metall (4), Gr\u00c3\u00bcnglas (4), Weissglas (2), Braunglas (1)","opening_hours":"Mo-Sa 07:00-20:00","operator":"ERZ","recycling:aluminium":"yes","recycling:cans":"yes","recycling:glass_bottles":"yes","recycling_type":"container"}},"type":"Feature"},
	{"geometry":{"coordinates":[8.525676,47.387464],"type":"Point"},"properties":{"osm_id":"149454336","tag":{"amenity":"recycling","description":"Container: Braunglas (1), Weissglas (1), Gr\u00c3\u00bcnglas (2), Metall (1); Speise\u00c3\u00b6l/Mineral\u00c3\u00b6l","opening_hours":"Mo-Sa 07:00-20:00","operator":"ERZ","recycling:aluminium":"yes","recycling:cans":"yes","recycling:cooking_oil":"yes","recycling:engine_oil":"yes","recycling:glass_bottles":"yes","recycling_type":"container","wheelchair":"yes"}},"type":"Feature"},
	{"geometry":{"coordinates":[8.543878,47.388755],"type":"Point"},"properties":{"osm_id":"255263149","tag":{"amenity":"recycling","description":"Container: Braunglas (1), Weissglas (1), Gr\u00c3\u00bcnglas (2), Metall (1)","opening_hours":"Mo-Sa 07:00-20:00","operator":"ERZ","recycling:aluminium":"yes","recycling:cans":"yes","recycling:glass_bottles":"yes","recycling_type":"container","wheelchair":"yes"}},"type":"Feature"},
	{"geometry":{"coordinates":[8.525535,47.361685],"type":"Point"},"properties":{"osm_id":"256337976","tag":{"amenity":"recycling","description":"Container: Braunglas (2), Weissglas (2), Gr\u00c3\u00bcnglas (3), Metall (2); Speise\u00c3\u00b6l/Mineral\u00c3\u00b6l","opening_hours":"Mo-Sa 07:00-20:00","operator":"ERZ","recycling:aluminium":"yes","recycling:cans":"yes","recycling:cooking_oil":"yes","recycling:engine_oil":"yes","recycling:glass_bottles":"yes","recycling_type":"container"}},"type":"Feature"},
	{"geometry":{"coordinates":[8.530568,47.344583],"type":"Point"},"properties":{"osm_id":"260138002","tag":{"amenity":"recycling","description":"Container: Metall (2), Gr\u00c3\u00bcnglas (2), Weissglas (1), Braunglas (1)","opening_hours":"Mo-Sa 07:00-20:00","operator":"ERZ","recycling:aluminium":"yes","recycling:cans":"yes","recycling:glass_bottles":"yes","recycling_type":"container","wheelchair":"yes"}},"type":"Feature"},
	{"geometry":{"coordinates":[8.55198,47.374155],"type":"Point"},"properties":{"osm_id":"262378044","tag":{"amenity":"recycling","description":"Container: Metall (2), Gr\u00c3\u00bcnglas (3), Weissglas (2), Braunglas (1)","opening_hours":"Mo-Sa 07:00-20:00","operator":"ERZ","recycling:aluminium":"yes","recycling:cans":"yes","recycling:glass_bottles":"yes","recycling_type":"container"}},"type":"Feature"},
	{"geometry":{"coordinates":[8.553118,47.366204],"type":"Point"},"properties":{"osm_id":"274824048","tag":{"amenity":"recycling","description":"Container: Metall (2), Gr\u00c3\u00bcnglas (3), Weissglas (2), Braunglas (1)","opening_hours":"Mo-Sa 07:00-20:00","operator":"ERZ","recycling:aluminium":"yes","recycling:cans":"yes","recycling:cooking_oil":"yes","recycling:engine_oil":"yes","recycling:glass_bottles":"yes","recycling_type":"container"}},"type":"Feature"},
	{"geometry":{"coordinates":[8.530262,47.364253],"type":"Point"},"properties":{"osm_id":"280719163","tag":{"amenity":"recycling","description":"Container: Braunglas (1), Weissglas (2), Gr\u00c3\u00bcnglas (3), Metall (2)","opening_hours":"Mo-Sa 07:00-20:00","operator":"ERZ","recycling:aluminium":"yes","recycling:cans":"yes","recycling:glass_bottles":"yes","recycling_type":"container"}},"type":"Feature"},
	{"geometry":{"coordinates":[8.528633,47.374272],"type":"Point"},"properties":{"osm_id":"295902440","tag":{"amenity":"recycling","description":"Container: Braunglas (1), Weissglas (1), Gr\u00c3\u00bcnglas (2), Metall (1); Speise\u00c3\u00b6l/Mineral\u00c3\u00b6l","opening_hours":"Mo-Sa 07:00-20:00","operator":"ERZ","recycling:aluminium":"yes","recycling:cans":"yes","recycling:cooking_oil":"yes","recycling:engine_oil":"yes","recycling:glass_bottles":"yes","recycling_type":"container","wheelchair":"yes"}},"type":"Feature"},
	{"geometry":{"coordinates":[8.560523,47.371214],"type":"Point"},"properties":{"osm_id":"299610464","tag":{"amenity":"recycling","description":"Container: Metall (2), Gr\u00c3\u00bcnglas (2), Weissglas (1), Braunglas (1)","opening_hours":"Mo-Sa 07:00-20:00","operator":"ERZ","recycling:aluminium":"yes","recycling:cans":"yes","recycling:glass_bottles":"yes","recycling_type":"container","wheelchair":"yes"}},"type":"Feature"},
	{"geometry":{"coordinates":[8.54669,47.37979],"type":"Point"},"properties":{"osm_id":"299752097","tag":{"amenity":"recycling","description":"Container: Braunglas (1), Weissglas (2), Gr\u00c3\u00bcnglas (3), Metall (2)","opening_hours":"Mo-Sa 07:00-20:00","operator":"ERZ","recycling:aluminium":"yes","recycling:cans":"yes","recycling:glass_bottles":"yes","recycling_type":"container"}},"type":"Feature"},
	{"geometry":{"coordinates":[8.528831,47.370128],"type":"Point"},"properties":{"osm_id":"313199677","tag":{"amenity":"recycling","description":"Container: Metall (1), Gr\u00c3\u00bcnglas (2), Weissglas (1), Braunglas (1)","opening_hours":"Mo-Sa 07:00-20:00","operator":"ERZ","recycling:aluminium":"yes","recycling:cans":"yes","recycling:glass_bottles":"yes","recycling_type":"container","wheelchair":"yes"}},"type":"Feature"},
	{"geometry":{"coordinates":[8.530031,47.393026],"type":"Point"},"properties":{"osm_id":"315086385","tag":{"amenity":"recycling","description":"Container: Metall (4), Gr\u00c3\u00bcnglas (4), Weissglas (3), Braunglas (2); Speise\u00c3\u00b6l/Mineral\u00c3\u00b6l","opening_hours":"Mo-Sa 07:00-20:00","operator":"ERZ","recycling:aluminium":"yes","recycling:cans":"yes","recycling:cooking_oil":"yes","recycling:engine_oil":"yes","recycling:glass_bottles":"yes","recycling_type":"container"}},"type":"Feature"},
	{"geometry":{"coordinates":[8.535808,47.352027],"type":"Point"},"properties":{"osm_id":"448423783","tag":{"amenity":"recycling","location":"overground","recycling:cans":"yes","recycling:paper":"yes","recycling_type":"container"}},"type":"Feature"},
	{"geometry":{"coordinates":[8.530678,47.383217],"type":"Point"},"properties":{"osm_id":"470219216","tag":{"amenity":"recycling","description":"Container: Metall (2), Gr\u00c3\u00bcnglas (1), Weissglas (1), Braunglas (1)","location":"underground","opening_hours":"Mo-Sa 07:00-20:00","operator":"ERZ","recycling:aluminium":"yes","recycling:cans":"yes","recycling:glass_bottles":"yes","recycling_type":"container","wheelchair":"yes"}},"type":"Feature"},
	{"geometry":{"coordinates":[8.583757,47.358172],"type":"Point"},"properties":{"osm_id":"497429822","tag":{"amenity":"recycling","description":"Container: Metall (2), Gr\u00c3\u00bcnglas (2), Weissglas (1), Braunglas (1), Speise\u00c3\u00b6l (1), Mineral\u00c3\u00b6l (1)","opening_hours":"Mo-Sa 07:00-20:00","operator":"ERZ","recycling:aluminium":"yes","recycling:cans":"yes","recycling:cooking_oil":"yes","recycling:engine_oil":"yes","recycling:glass_bottles":"yes","recycling_type":"underfloor-container"}},"type":"Feature"},
	{"geometry":{"coordinates":[8.593296,47.359414],"type":"Point"},"properties":{"osm_id":"497442606","tag":{"amenity":"recycling","description":"Container: Metall (5), Gr\u00c3\u00bcnglas (3), Weissglas (2), Braunglas (2); Speise\u00c3\u00b6l/Mineral\u00c3\u00b6l","opening_hours":"Mo-Sa 07:00-20:00","operator":"ERZ","recycling:aluminium":"yes","recycling:cans":"yes","recycling:cooking_oil":"yes","recycling:engine_oil":"yes","recycling:glass_bottles":"yes","recycling_type":"container"}},"type":"Feature"},
	{"geometry":{"coordinates":[8.597456,47.36214],"type":"Point"},"properties":{"osm_id":"497473632","tag":{"amenity":"recycling","description":"Container: Metall (2), Gr\u00c3\u00bcnglas (4), Weissglas (2), Braunglas (1); Speise\u00c3\u00b6l/Mineral\u00c3\u00b6l","opening_hours":"Mo-Sa 07:00-20:00","operator":"ERZ","recycling:aluminium":"yes","recycling:cans":"yes","recycling:cooking_oil":"yes","recycling:engine_oil":"yes","recycling:glass_bottles":"yes","recycling_type":"container"}},"type":"Feature"},
	{"geometry":{"coordinates":[8.552164,47.382472],"type":"Point"},"properties":{"osm_id":"546722547","tag":{"amenity":"recycling","description":"Container: Braunglas (1), Weissglas (2), Gr\u00c3\u00bcnglas (2), Metall (1)","opening_hours":"Mo-Sa 07:00-20:00","operator":"ERZ","recycling:aluminium":"yes","recycling:cans":"yes","recycling:glass_bottles":"yes","recycling_type":"container"}},"type":"Feature"},
	{"geometry":{"coordinates":[8.560117,47.37667],"type":"Point"},"properties":{"osm_id":"572760080","tag":{"amenity":"recycling","description":"Container: Metall (2), Gr\u00c3\u00bcnglas (4), Weissglas (2), Braunglas (1); Speise\u00c3\u00b6l/Mineral\u00c3\u00b6l","opening_hours":"Mo-Sa 07:00-20:00","operator":"ERZ","recycling:aluminium":"yes","recycling:cans":"yes","recycling:cooking_oil":"yes","recycling:engine_oil":"yes","recycling:glass_bottles":"yes","recycling_type":"container"}},"type":"Feature"},
	{"geometry":{"coordinates":[8.543423,47.374044],"type":"Point"},"properties":{"osm_id":"637820258","tag":{"amenity":"waste_disposal","waste":"trash"}},"type":"Feature"},
	{"geometry":{"coordinates":[8.542133,47.375947],"type":"Point"},"properties":{"osm_id":"637834268","tag":{"amenity":"recycling","description":"Container: Metall (2), Gr\u00c3\u00bcnglas (3), Weissglas (2), Braunglas (1)","opening_hours":"Mo-Sa 07:00-20:00","operator":"ERZ","recycling:aluminium":"yes","recycling:cans":"yes","recycling:glass_bottles":"yes","recycling_type":"container"}},"type":"Feature"},
	{"geometry":{"coordinates":[8.543646,47.374033],"type":"Point"},"properties":{"osm_id":"638952318","tag":{"amenity":"waste_basket"}},"type":"Feature"},
	{"geometry":{"coordinates":[8.543835,47.373166],"type":"Point"},"properties":{"osm_id":"638966015","tag":{"amenity":"waste_basket"}},"type":"Feature"},
	{"geometry":{"coordinates":[8.543806,47.373473],"type":"Point"},"properties":{"osm_id":"638966072","tag":{"amenity":"waste_basket"}},"type":"Feature"},
	{"geometry":{"coordinates":[8.543402,47.372885],"type":"Point"},"properties":{"osm_id":"638984366","tag":{"amenity":"waste_basket"}},"type":"Feature"},
	{"geometry":{"coordinates":[8.543648,47.372523],"type":"Point"},"properties":{"osm_id":"639029636","tag":{"amenity":"waste_disposal","waste":"trash"}},"type":"Feature"},
	{"geometry":{"coordinates":[8.543869,47.371714],"type":"Point"},"properties":{"osm_id":"639048671","tag":{"amenity":"waste_basket"}},"type":"Feature"},
	{"geometry":{"coordinates":[8.543814,47.374377],"type":"Point"},"properties":{"osm_id":"647962165","tag":{"amenity":"waste_basket"}},"type":"Feature"},
	{"geometry":{"coordinates":[8.543927,47.374456],"type":"Point"},"properties":{"osm_id":"656327547","tag":{"amenity":"waste_disposal","waste":"trash"}},"type":"Feature"},
	{"geometry":{"coordinates":[8.543433,47.375217],"type":"Point"},"properties":{"osm_id":"656327630","tag":{"amenity":"waste_basket"}},"type":"Feature"},
	{"geometry":{"coordinates":[8.544561,47.375976],"type":"Point"},"properties":{"osm_id":"656327830","tag":{"amenity":"waste_basket"}},"type":"Feature"},
	{"geometry":{"coordinates":[8.544007,47.376443],"type":"Point"},"properties":{"osm_id":"656327835","tag":{"amenity":"waste_basket"}},"type":"Feature"},
	{"geometry":{"coordinates":[8.544577,47.374846],"type":"Point"},"properties":{"osm_id":"656683917","tag":{"amenity":"waste_disposal","waste":"trash"}},"type":"Feature"},
	{"geometry":{"coordinates":[8.543913,47.375438],"type":"Point"},"properties":{"osm_id":"656683992","tag":{"amenity":"waste_basket"}},"type":"Feature"},
	{"geometry":{"coordinates":[8.544109,47.375554],"type":"Point"},"properties":{"osm_id":"656684040","tag":{"amenity":"waste_basket"}},"type":"Feature"},
	{"geometry":{"coordinates":[8.544674,47.374852],"type":"Point"},"properties":{"osm_id":"656684062","tag":{"amenity":"waste_basket"}},"type":"Feature"},
	{"geometry":{"coordinates":[8.542726,47.378542],"type":"Point"},"properties":{"osm_id":"683372625","tag":{"amenity":"waste_basket"}},"type":"Feature"},
	{"geometry":{"coordinates":[8.538472,47.374568],"type":"Point"},"properties":{"osm_id":"693318456","tag":{"amenity":"waste_basket"}},"type":"Feature"},
	{"geometry":{"coordinates":[8.538529,47.374661],"type":"Point"},"properties":{"osm_id":"693318463","tag":{"amenity":"waste_basket"}},"type":"Feature"},
	{"geometry":{"coordinates":[8.538773,47.374942],"type":"Point"},"properties":{"osm_id":"693318478","tag":{"amenity":"waste_basket"}},"type":"Feature"},
	{"geometry":{"coordinates":[8.538707,47.375651],"type":"Point"},"properties":{"osm_id":"693318499","tag":{"amenity":"waste_basket"}},"type":"Feature"},
	{"geometry":{"coordinates":[8.539891,47.374822],"type":"Point"},"properties":{"osm_id":"693318534","tag":{"amenity":"waste_basket"}},"type":"Feature"},
	{"geometry":{"coordinates":[8.540043,47.374973],"type":"Point"},"properties":{"osm_id":"693318545","tag":{"amenity":"waste_basket"}},"type":"Feature"},
	{"geometry":{"coordinates":[8.53992,47.376742],"type":"Point"},"properties":{"osm_id":"693318668","tag":{"amenity":"waste_basket"}},"type":"Feature"},
	{"geometry":{"coordinates":[8.548621,47.38609],"type":"Point"},"properties":{"osm_id":"693593279","tag":{"amenity":"recycling","indoor":"yes","location":"overground","recycling:batteries":"yes","recycling:plastic_bottles":"yes","recycling_type":"container"}},"type":"Feature"},
	{"geometry":{"coordinates":[8.532172,47.38441],"type":"Point"},"properties":{"osm_id":"725764631","tag":{"amenity":"waste_basket"}},"type":"Feature"},
	{"geometry":{"coordinates":[8.535491,47.382244],"type":"Point"},"properties":{"osm_id":"725764722","tag":{"amenity":"waste_basket"}},"type":"Feature"},
	{"geometry":{"coordinates":[8.534823,47.382818],"type":"Point"},"properties":{"osm_id":"725764747","tag":{"amenity":"waste_basket"}},"type":"Feature"},
	{"geometry":{"coordinates":[8.533029,47.383705],"type":"Point"},"properties":{"osm_id":"725764759","tag":{"amenity":"waste_basket"}},"type":"Feature"},
	{"geometry":{"coordinates":[8.535197,47.382294],"type":"Point"},"properties":{"osm_id":"725764856","tag":{"amenity":"waste_basket"}},"type":"Feature"},
	{"geometry":{"coordinates":[8.535599,47.382296],"type":"Point"},"properties":{"osm_id":"725764911","tag":{"amenity":"waste_basket"}},"type":"Feature"},
	{"geometry":{"coordinates":[8.535619,47.382583],"type":"Point"},"properties":{"osm_id":"725764931","tag":{"amenity":"waste_basket"}},"type":"Feature"},
	{"geometry":{"coordinates":[8.533118,47.383405],"type":"Point"},"properties":{"osm_id":"725764976","tag":{"amenity":"waste_basket"}},"type":"Feature"},
	{"geometry":{"coordinates":[8.535263,47.382596],"type":"Point"},"properties":{"osm_id":"725764987","tag":{"amenity":"waste_basket"}},"type":"Feature"},
	{"geometry":{"coordinates":[8.535095,47.382514],"type":"Point"},"properties":{"osm_id":"725765030","tag":{"amenity":"waste_basket"}},"type":"Feature"},
	{"geometry":{"coordinates":[8.533539,47.383085],"type":"Point"},"properties":{"osm_id":"725765064","tag":{"amenity":"waste_basket"}},"type":"Feature"},
	{"geometry":{"coordinates":[8.535078,47.382375],"type":"Point"},"properties":{"osm_id":"725765114","tag":{"amenity":"waste_basket"}},"type":"Feature"},
	{"geometry":{"coordinates":[8.527212,47.397158],"type":"Point"},"properties":{"osm_id":"726644262","tag":{"amenity":"recycling","description":"Container: Braunglas (1), Weissglas (1), Gr\u00c3\u00bcnglas (2), Metall (1)","opening_hours":"Mo-Sa 07:00-20:00","operator":"ERZ","recycling:aluminium":"yes","recycling:cans":"yes","recycling:glass_bottles":"yes","recycling_type":"container"}},"type":"Feature"},
	{"geometry":{"coordinates":[8.543573,47.381907],"type":"Point"},"properties":{"osm_id":"790930249","tag":{"amenity":"waste_basket"}},"type":"Feature"},
	{"geometry":{"coordinates":[8.539029,47.390938],"type":"Point"},"properties":{"osm_id":"792594111","tag":{"amenity":"waste_basket"}},"type":"Feature"},
	{"geometry":{"coordinates":[8.535545,47.387009],"type":"Point"},"properties":{"osm_id":"807254208","tag":{"amenity":"recycling","description":"Container: Braunglas (1), Weissglas (1), Gr\u00c3\u00bcnglas (2), Metall (1)","opening_hours":"Mo-Sa 07:00-20:00","operator":"ERZ","recycling:aluminium":"yes","recycling:cans":"yes","recycling:glass_bottles":"yes","recycling_type":"container","wheelchair":"yes"}},"type":"Feature"},
	{"geometry":{"coordinates":[8.528832,47.33982],"type":"Point"},"properties":{"osm_id":"853916724","tag":{"amenity":"waste_basket"}},"type":"Feature"},
	{"geometry":{"coordinates":[8.605764,47.345927],"type":"Point"},"properties":{"osm_id":"878437746","tag":{"amenity":"recycling","location":"underground","recycling_type":"container"}},"type":"Feature"},
	{"geometry":{"coordinates":[8.546192,47.372004],"type":"Point"},"properties":{"osm_id":"893351010","tag":{"amenity":"waste_basket"}},"type":"Feature"},
	{"geometry":{"coordinates":[8.545523,47.372022],"type":"Point"},"properties":{"osm_id":"893470167","tag":{"amenity":"waste_basket"}},"type":"Feature"},
	{"geometry":{"coordinates":[8.545702,47.371749],"type":"Point"},"properties":{"osm_id":"893470186","tag":{"amenity":"waste_disposal","waste":"trash"}},"type":"Feature"},
	{"geometry":{"coordinates":[8.545082,47.372098],"type":"Point"},"properties":{"osm_id":"893470434","tag":{"amenity":"waste_basket"}},"type":"Feature"},
	{"geometry":{"coordinates":[8.546927,47.371155],"type":"Point"},"properties":{"osm_id":"894815083","tag":{"amenity":"recycling","description":"Container: Braunglas (1), Weissglas (2), Gr\u00c3\u00bcnglas (3), Metall (1)","opening_hours":"Mo-Sa 07:00-20:00","operator":"ERZ","recycling:aluminium":"yes","recycling:cans":"yes","recycling:glass_bottles":"yes","recycling_type":"container"}},"type":"Feature"},
	{"geometry":{"coordinates":[8.545519,47.371266],"type":"Point"},"properties":{"osm_id":"895787599","tag":{"amenity":"waste_basket"}},"type":"Feature"},
	{"geometry":{"coordinates":[8.546667,47.369742],"type":"Point"},"properties":{"osm_id":"897902104","tag":{"amenity":"waste_disposal","waste":"trash"}},"type":"Feature"},
	{"geometry":{"coordinates":[8.545398,47.369613],"type":"Point"},"properties":{"osm_id":"897977630","tag":{"amenity":"waste_basket"}},"type":"Feature"},
	{"geometry":{"coordinates":[8.527092,47.383838],"type":"Point"},"properties":{"osm_id":"907840498","tag":{"amenity":"recycling","description":"Container: Metall (3), Gr\u00c3\u00bcnglas (3), Weissglas (2), Braunglas (1)","opening_hours":"Mo-Sa 07:00-20:00","operator":"ERZ","recycling:aluminium":"yes","recycling:cans":"yes","recycling:glass_bottles":"yes","recycling_type":"container"}},"type":"Feature"},
	{"geometry":{"coordinates":[8.532071,47.356678],"type":"Point"},"properties":{"osm_id":"907966321","tag":{"amenity":"recycling","description":"Universalcontainer: Braunglas, Weissglas, Gr\u00c3\u00bcnglas, Metall; Speise\u00c3\u00b6l/Mineral\u00c3\u00b6l","opening_hours":"Mo-Sa 07:00-20:00","operator":"ERZ","recycling:aluminium":"yes","recycling:cans":"yes","recycling:cooking_oil":"yes","recycling:engine_oil":"yes","recycling:glass_bottles":"yes","recycling_type":"container"}},"type":"Feature"},
	{"geometry":{"coordinates":[8.545634,47.368614],"type":"Point"},"properties":{"osm_id":"916945070","tag":{"amenity":"waste_basket"}},"type":"Feature"},
	{"geometry":{"coordinates":[8.561556,47.349598],"type":"Point"},"properties":{"osm_id":"926822553","tag":{"amenity":"recycling","operator":"Texaid","recycling:clothes":"yes","recycling:shoes":"yes","recycling_type":"container"}},"type":"Feature"},
	{"geometry":{"coordinates":[8.549135,47.383433],"type":"Point"},"properties":{"osm_id":"943875481","tag":{"amenity":"recycling","description":"Container: Metall (2), Gr\u00c3\u00bcnglas (2), Weissglas (1), Braunglas (1)","opening_hours":"Mo-Sa 07:00-20:00","operator":"ERZ","recycling:aluminium":"yes","recycling:cans":"yes","recycling:glass_bottles":"yes","recycling_type":"container"}},"type":"Feature"},
	{"geometry":{"coordinates":[8.553039,47.362808],"type":"Point"},"properties":{"osm_id":"946956874","tag":{"amenity":"waste_basket","vending":"excrement_bags"}},"type":"Feature"},
	{"geometry":{"coordinates":[8.555335,47.358181],"type":"Point"},"properties":{"osm_id":"946956889","tag":{"amenity":"recycling","description":"Container: Metall (2), Gr\u00c3\u00bcnglas (3), Weissglas (2), Braunglas (1)","opening_hours":"Mo-Sa 07:00-20:00","operator":"ERZ","recycling:aluminium":"yes","recycling:cans":"yes","recycling:glass_bottles":"yes","recycling_type":"container"}},"type":"Feature"},
	{"geometry":{"coordinates":[8.544966,47.369119],"type":"Point"},"properties":{"osm_id":"955271534","tag":{"amenity":"waste_basket"}},"type":"Feature"},
	{"geometry":{"coordinates":[8.54415,47.369758],"type":"Point"},"properties":{"osm_id":"955271630","tag":{"amenity":"waste_disposal","waste":"trash"}},"type":"Feature"},
	{"geometry":{"coordinates":[8.544029,47.371456],"type":"Point"},"properties":{"osm_id":"955271856","tag":{"amenity":"waste_basket"}},"type":"Feature"},
	{"geometry":{"coordinates":[8.545176,47.369026],"type":"Point"},"properties":{"osm_id":"955271900","tag":{"amenity":"waste_basket"}},"type":"Feature"},
	{"geometry":{"coordinates":[8.532847,47.382414],"type":"Point"},"properties":{"osm_id":"988648847","tag":{"amenity":"recycling","description":"Container: Metall (1), Gr\u00c3\u00bcnglas (2), Weissglas (1), Braunglas (1)","opening_hours":"Mo-Sa 07:00-20:00","operator":"ERZ","recycling:aluminium":"yes","recycling:cans":"yes","recycling:glass_bottles":"yes","recycling_type":"container","wheelchair":"yes"}},"type":"Feature"},
	{"geometry":{"coordinates":[8.538183,47.373538],"type":"Point"},"properties":{"osm_id":"1110775370","tag":{"amenity":"waste_basket"}},"type":"Feature"},
	{"geometry":{"coordinates":[8.52541,47.394192],"type":"Point"},"properties":{"osm_id":"1261033169","tag":{"amenity":"recycling","description":"Universalcontainer: Braunglas, Weissglas, Gr\u00c3\u00bcnglas, Metall","opening_hours":"Mo-Sa 07:00-20:00","operator":"ERZ","recycling:aluminium":"yes","recycling:cans":"yes","recycling:glass_bottles":"yes","recycling_type":"container"}},"type":"Feature"},
	{"geometry":{"coordinates":[8.549941,47.392589],"type":"Point"},"properties":{"osm_id":"1339410533","tag":{"amenity":"recycling","description":"Container: Braunglas (1), Weissglas (1), Gr\u00c3\u00bcnglas (3), Metall (2)","opening_hours":"Mo-Sa 07:00-20:00","operator":"ERZ","recycling:aluminium":"yes","recycling:cans":"yes","recycling:glass_bottles":"yes","recycling_type":"container"}},"type":"Feature"},
	{"geometry":{"coordinates":[8.550287,47.392648],"type":"Point"},"properties":{"osm_id":"1339410535","tag":{"amenity":"waste_basket"}},"type":"Feature"},
	{"geometry":{"coordinates":[8.550529,47.392912],"type":"Point"},"properties":{"osm_id":"1339410552","tag":{"amenity":"waste_basket"}},"type":"Feature"},
	{"geometry":{"coordinates":[8.543095,47.378843],"type":"Point"},"properties":{"osm_id":"1357158632","tag":{"amenity":"waste_basket"}},"type":"Feature"},
	{"geometry":{"coordinates":[8.565812,47.36589],"type":"Point"},"properties":{"osm_id":"1359733080","tag":{"amenity":"recycling","description":"Container: Metall (2), Gr\u00c3\u00bcnglas (4), Weissglas (2), Braunglas (2); Speise\u00c3\u00b6l/Mineral\u00c3\u00b6l","opening_hours":"Mo-Sa 07:00-20:00","operator":"ERZ","recycling:aluminium":"yes","recycling:cans":"yes","recycling:cooking_oil":"yes","recycling:engine_oil":"yes","recycling:glass_bottles":"yes","recycling_type":"container"}},"type":"Feature"},
	{"geometry":{"coordinates":[8.599215,47.345077],"type":"Point"},"properties":{"osm_id":"1585862797","tag":{"amenity":"recycling","recycling:batteries":"no","recycling:books":"no","recycling:cans":"yes","recycling:cardboard":"no","recycling:cartons":"no","recycling:clothes":"yes","recycling:electrical_appliances":"no","recycling:glass":"no","recycling:glass_bottles":"yes","recycling:green_waste":"no","recycling:magazines":"no","recycling:newspaper":"no","recycling:paper":"no","recycling:paper_packaging":"no","recycling:plastic":"no","recycling:plastic_bottles":"no","recycling:plastic_packaging":"no","recycling:scrap_metal":"no","recycling:small_appliances":"no","recycling:waste":"no","recycling:wood":"no","recycling_type":"container"}},"type":"Feature"},
	{"geometry":{"coordinates":[8.534974,47.368885],"type":"Point"},"properties":{"osm_id":"1601716726","tag":{"amenity":"recycling","description":"Container: Metall (1), Gr\u00c3\u00bcnglas (3), Weissglas (2), Braunglas (1)","opening_hours":"Mo-Sa 07:00-20:00","operator":"ERZ","recycling:aluminium":"yes","recycling:cans":"yes","recycling:glass_bottles":"yes","recycling_type":"container"}},"type":"Feature"},
	{"geometry":{"coordinates":[8.607487,47.355176],"type":"Point"},"properties":{"osm_id":"1828441838","tag":{"amenity":"waste_basket"}},"type":"Feature"},
	{"geometry":{"coordinates":[8.594757,47.357498],"type":"Point"},"properties":{"osm_id":"1829155674","tag":{"amenity":"waste_basket"}},"type":"Feature"},
	{"geometry":{"coordinates":[8.60235,47.355531],"type":"Point"},"properties":{"osm_id":"1829193249","tag":{"amenity":"waste_basket","vending":"excrement_bags"}},"type":"Feature"},
	{"geometry":{"coordinates":[8.53596,47.36115],"type":"Point"},"properties":{"osm_id":"1849716982","tag":{"amenity":"recycling","recycling:cans":"yes","recycling:glass":"yes","recycling:plastic_bottles":"yes","recycling_type":"container"}},"type":"Feature"},
	{"geometry":{"coordinates":[8.591708,47.398205],"type":"Point"},"properties":{"osm_id":"1878383093","tag":{"amenity":"recycling","description":"Container: Braunglas (1), Weissglas (2), Gr\u00c3\u00bcnglas (3), Metall (2)","opening_hours":"Mo-Sa 07:00-20:00","operator":"ERZ","recycling:aluminium":"yes","recycling:cans":"yes","recycling:glass_bottles":"yes","recycling_type":"container"}},"type":"Feature"},
	{"geometry":{"coordinates":[8.574134,47.384066],"type":"Point"},"properties":{"osm_id":"1894886287","tag":{"amenity":"waste_basket"}},"type":"Feature"},
	{"geometry":{"coordinates":[8.574377,47.385696],"type":"Point"},"properties":{"osm_id":"1894886292","tag":{"amenity":"waste_basket"}},"type":"Feature"},
	{"geometry":{"coordinates":[8.577949,47.386001],"type":"Point"},"properties":{"osm_id":"1894886308","tag":{"amenity":"waste_basket"}},"type":"Feature"},
	{"geometry":{"coordinates":[8.574395,47.386015],"type":"Point"},"properties":{"osm_id":"1894886312","tag":{"amenity":"waste_basket"}},"type":"Feature"},
	{"geometry":{"coordinates":[8.577728,47.386119],"type":"Point"},"properties":{"osm_id":"1894886314","tag":{"amenity":"waste_basket"}},"type":"Feature"},
	{"geometry":{"coordinates":[8.574645,47.386194],"type":"Point"},"properties":{"osm_id":"1894886316","tag":{"amenity":"waste_basket"}},"type":"Feature"},
	{"geometry":{"coordinates":[8.57462,47.386233],"type":"Point"},"properties":{"osm_id":"1894886318","tag":{"amenity":"waste_basket"}},"type":"Feature"},
	{"geometry":{"coordinates":[8.577306,47.386297],"type":"Point"},"properties":{"osm_id":"1894886320","tag":{"amenity":"waste_basket"}},"type":"Feature"},
	{"geometry":{"coordinates":[8.574989,47.386558],"type":"Point"},"properties":{"osm_id":"1894886325","tag":{"amenity":"waste_basket"}},"type":"Feature"},
	{"geometry":{"coordinates":[8.575808,47.386584],"type":"Point"},"properties":{"osm_id":"1894886328","tag":{"amenity":"waste_basket"}},"type":"Feature"},
	{"geometry":{"coordinates":[8.576151,47.386647],"type":"Point"},"properties":{"osm_id":"1894886333","tag":{"amenity":"waste_basket"}},"type":"Feature"},
	{"geometry":{"coordinates":[8.576079,47.38668],"type":"Point"},"properties":{"osm_id":"1894886335","tag":{"amenity":"waste_basket"}},"type":"Feature"},
	{"geometry":{"coordinates":[8.576476,47.386911],"type":"Point"},"properties":{"osm_id":"1894886339","tag":{"amenity":"waste_basket"}},"type":"Feature"},
	{"geometry":{"coordinates":[8.541768,47.371507],"type":"Point"},"properties":{"osm_id":"2205041425","tag":{"amenity":"waste_disposal","waste":"trash"}},"type":"Feature"},
	{"geometry":{"coordinates":[8.52798,47.368986],"type":"Point"},"properties":{"osm_id":"2266702307","tag":{"amenity":"waste_basket"}},"type":"Feature"},
	{"geometry":{"coordinates":[8.561053,47.351089],"type":"Point"},"properties":{"osm_id":"2277009910","tag":{"amenity":"recycling","description":"Container: Braunglas (1), Weissglas (1), Gr\u00c3\u00bcnglas (3), Metall (2)","opening_hours":"Mo-Sa 07:00-20:00","operator":"ERZ","recycling:aluminium":"yes","recycling:cans":"yes","recycling:glass_bottles":"yes","recycling_type":"container"}},"type":"Feature"},
	{"geometry":{"coordinates":[8.525526,47.369976],"type":"Point"},"properties":{"osm_id":"2277009915","tag":{"amenity":"waste_basket"}},"type":"Feature"},
	{"geometry":{"coordinates":[8.528505,47.388345],"type":"Point"},"properties":{"osm_id":"2277009929","tag":{"amenity":"waste_basket"}},"type":"Feature"},
	{"geometry":{"coordinates":[8.526291,47.369647],"type":"Point"},"properties":{"osm_id":"2286916833","tag":{"amenity":"waste_basket"}},"type":"Feature"},
	{"geometry":{"coordinates":[8.526321,47.369665],"type":"Point"},"properties":{"osm_id":"2286916834","tag":{"amenity":"waste_basket"}},"type":"Feature"},
	{"geometry":{"coordinates":[8.534742,47.372504],"type":"Point"},"properties":{"osm_id":"2309829504","tag":{"amenity":"waste_basket"}},"type":"Feature"},
	{"geometry":{"coordinates":[8.570922,47.348295],"type":"Point"},"properties":{"osm_id":"2335910062","tag":{"amenity":"recycling","description":"Container: Braunglas (1), Weissglas (2), Gr\u00c3\u00bcnglas (4), Metall (2)","opening_hours":"Mo-Sa 07:00-20:00","operator":"ERZ","recycling:aluminium":"yes","recycling:cans":"yes","recycling:glass_bottles":"yes","recycling_type":"container"}},"type":"Feature"},
	{"geometry":{"coordinates":[8.528397,47.376206],"type":"Point"},"properties":{"osm_id":"2341997683","tag":{"amenity":"recycling","description":"Container: Metall (3), Gr\u00c3\u00bcnglas (3), Weissglas (2), Braunglas (1)","opening_hours":"Mo-Sa 07:00-20:00","operator":"ERZ","recycling:aluminium":"yes","recycling:cans":"yes","recycling:glass_bottles":"yes","recycling_type":"container"}},"type":"Feature"},
	{"geometry":{"coordinates":[8.5478,47.365212],"type":"Point"},"properties":{"osm_id":"2429347241","tag":{"amenity":"waste_basket"}},"type":"Feature"},
	{"geometry":{"coordinates":[8.551027,47.375035],"type":"Point"},"properties":{"osm_id":"2514254328","tag":{"amenity":"waste_basket"}},"type":"Feature"},
	{"geometry":{"coordinates":[8.550513,47.37522],"type":"Point"},"properties":{"osm_id":"2514254335","tag":{"amenity":"waste_basket"}},"type":"Feature"},
	{"geometry":{"coordinates":[8.531559,47.367664],"type":"Point"},"properties":{"osm_id":"2809086459","tag":{"amenity":"waste_basket"}},"type":"Feature"},
	{"geometry":{"coordinates":[8.543271,47.375486],"type":"Point"},"properties":{"osm_id":"2864428170","tag":{"amenity":"waste_basket"}},"type":"Feature"},
	{"geometry":{"coordinates":[8.544615,47.375576],"type":"Point"},"properties":{"osm_id":"2960912932","tag":{"amenity":"waste_basket"}},"type":"Feature"},
	{"geometry":{"coordinates":[8.544902,47.375623],"type":"Point"},"properties":{"osm_id":"2960915634","tag":{"amenity":"waste_basket"}},"type":"Feature"},
	{"geometry":{"coordinates":[8.600877,47.35547],"type":"Point"},"properties":{"osm_id":"3050902390","tag":{"amenity":"recycling","description":"Container: Braunglas (1), Weissglas (2), Gr\u00c3\u00bcnglas (4), Metall (2)","opening_hours":"Mo-Sa 07:00-20:00","operator":"ERZ","recycling:aluminium":"yes","recycling:cans":"yes","recycling:glass_bottles":"yes","recycling_type":"container"}},"type":"Feature"},
	{"geometry":{"coordinates":[8.598851,47.369659],"type":"Point"},"properties":{"osm_id":"3075169980","tag":{"amenity":"waste_basket"}},"type":"Feature"},
	{"geometry":{"coordinates":[8.577364,47.386423],"type":"Point"},"properties":{"osm_id":"3140018868","tag":{"amenity":"waste_basket"}},"type":"Feature"},
	{"geometry":{"coordinates":[8.577328,47.3866],"type":"Point"},"properties":{"osm_id":"3140018869","tag":{"amenity":"waste_basket"}},"type":"Feature"},
	{"geometry":{"coordinates":[8.53224,47.378059],"type":"Point"},"properties":{"osm_id":"3472817631","tag":{"amenity":"recycling","description":"Container: Braunglas (1), Weissglas (1), Gr\u00c3\u00bcnglas (2), Metall (1)","opening_hours":"Mo-Sa 07:00-20:00","operator":"ERZ","recycling:aluminium":"yes","recycling:cans":"yes","recycling:glass_bottles":"yes","recycling_type":"container","wheelchair":"yes"}},"type":"Feature"},
	{"geometry":{"coordinates":[8.531955,47.37902],"type":"Point"},"properties":{"osm_id":"3472817632","tag":{"amenity":"waste_basket"}},"type":"Feature"},
	{"geometry":{"coordinates":[8.534508,47.37828],"type":"Point"},"properties":{"osm_id":"3472817634","tag":{"amenity":"waste_basket"}},"type":"Feature"},
	{"geometry":{"coordinates":[8.535505,47.377868],"type":"Point"},"properties":{"osm_id":"3472817635","tag":{"amenity":"waste_basket"}},"type":"Feature"},
	{"geometry":{"coordinates":[8.532546,47.376515],"type":"Point"},"properties":{"osm_id":"3472817636","tag":{"amenity":"waste_basket"}},"type":"Feature"},
	{"geometry":{"coordinates":[8.532022,47.378411],"type":"Point"},"properties":{"osm_id":"3472817637","tag":{"amenity":"waste_basket","manufacturer":"Anta Swiss"}},"type":"Feature"},
	{"geometry":{"coordinates":[8.532606,47.378857],"type":"Point"},"properties":{"osm_id":"3472817638","tag":{"amenity":"waste_basket"}},"type":"Feature"},
	{"geometry":{"coordinates":[8.534653,47.378212],"type":"Point"},"properties":{"osm_id":"3472817640","tag":{"amenity":"waste_basket"}},"type":"Feature"},
	{"geometry":{"coordinates":[8.531462,47.377289],"type":"Point"},"properties":{"osm_id":"3472817641","tag":{"amenity":"waste_basket"}},"type":"Feature"},
	{"geometry":{"coordinates":[8.531767,47.379056],"type":"Point"},"properties":{"osm_id":"3472817642","tag":{"amenity":"waste_basket"}},"type":"Feature"},
	{"geometry":{"coordinates":[8.533163,47.378772],"type":"Point"},"properties":{"osm_id":"3472817643","tag":{"amenity":"waste_basket"}},"type":"Feature"},
	{"geometry":{"coordinates":[8.533483,47.378645],"type":"Point"},"properties":{"osm_id":"3472817644","tag":{"amenity":"waste_basket"}},"type":"Feature"},
	{"geometry":{"coordinates":[8.53522,47.378003],"type":"Point"},"properties":{"osm_id":"3472817645","tag":{"amenity":"waste_basket"}},"type":"Feature"},
	{"geometry":{"coordinates":[8.596427,47.396962],"type":"Point"},"properties":{"osm_id":"3520489974","tag":{"access":"permissive","amenity":"waste_disposal"}},"type":"Feature"},
	{"geometry":{"coordinates":[8.54397,47.378904],"type":"Point"},"properties":{"osm_id":"3537752741","tag":{"amenity":"waste_basket"}},"type":"Feature"},
	{"geometry":{"coordinates":[8.540381,47.388702],"type":"Point"},"properties":{"osm_id":"3548296286","tag":{"amenity":"waste_basket"}},"type":"Feature"},
	{"geometry":{"coordinates":[8.540598,47.388663],"type":"Point"},"properties":{"osm_id":"3548296287","tag":{"amenity":"waste_basket"}},"type":"Feature"},
	{"geometry":{"coordinates":[8.540597,47.370202],"type":"Point"},"properties":{"osm_id":"3561119052","tag":{"amenity":"waste_disposal","waste":"trash"}},"type":"Feature"},
	{"geometry":{"coordinates":[8.541226,47.370297],"type":"Point"},"properties":{"osm_id":"3561119055","tag":{"amenity":"waste_basket"}},"type":"Feature"},
	{"geometry":{"coordinates":[8.541153,47.370573],"type":"Point"},"properties":{"osm_id":"3561463050","tag":{"amenity":"waste_basket"}},"type":"Feature"},
	{"geometry":{"coordinates":[8.528769,47.393168],"type":"Point"},"properties":{"osm_id":"3586082494","tag":{"amenity":"waste_basket"}},"type":"Feature"},
	{"geometry":{"coordinates":[8.529166,47.393299],"type":"Point"},"properties":{"osm_id":"3586082502","tag":{"amenity":"waste_basket"}},"type":"Feature"},
	{"geometry":{"coordinates":[8.530185,47.350321],"type":"Point"},"properties":{"osm_id":"3606707006","tag":{"amenity":"waste_basket","vending":"excrement_bags"}},"type":"Feature"},
	{"geometry":{"coordinates":[8.540837,47.37166],"type":"Point"},"properties":{"osm_id":"3645812994","tag":{"amenity":"waste_basket"}},"type":"Feature"},
	{"geometry":{"coordinates":[8.535995,47.376461],"type":"Point"},"properties":{"osm_id":"3645826993","tag":{"amenity":"waste_basket"}},"type":"Feature"},
	{"geometry":{"coordinates":[8.535903,47.376488],"type":"Point"},"properties":{"osm_id":"3645827093","tag":{"amenity":"waste_basket"}},"type":"Feature"},
	{"geometry":{"coordinates":[8.540997,47.371941],"type":"Point"},"properties":{"osm_id":"3645865752","tag":{"amenity":"waste_basket"}},"type":"Feature"},
	{"geometry":{"coordinates":[8.539878,47.372746],"type":"Point"},"properties":{"osm_id":"3645916994","tag":{"amenity":"waste_basket"}},"type":"Feature"},
	{"geometry":{"coordinates":[8.540219,47.372262],"type":"Point"},"properties":{"osm_id":"3645952046","tag":{"amenity":"waste_basket"}},"type":"Feature"},
	{"geometry":{"coordinates":[8.539501,47.372989],"type":"Point"},"properties":{"osm_id":"3645952053","tag":{"amenity":"waste_basket"}},"type":"Feature"},
	{"geometry":{"coordinates":[8.538953,47.37383],"type":"Point"},"properties":{"osm_id":"3645956471","tag":{"amenity":"waste_basket"}},"type":"Feature"},
	{"geometry":{"coordinates":[8.53932,47.373466],"type":"Point"},"properties":{"osm_id":"3645974295","tag":{"amenity":"waste_basket"}},"type":"Feature"},
	{"geometry":{"coordinates":[8.538739,47.374084],"type":"Point"},"properties":{"osm_id":"3645985627","tag":{"amenity":"waste_basket"}},"type":"Feature"},
	{"geometry":{"coordinates":[8.538765,47.374023],"type":"Point"},"properties":{"osm_id":"3645985628","tag":{"amenity":"waste_basket"}},"type":"Feature"},
	{"geometry":{"coordinates":[8.538518,47.374006],"type":"Point"},"properties":{"osm_id":"3645985629","tag":{"amenity":"waste_basket"}},"type":"Feature"},
	{"geometry":{"coordinates":[8.539207,47.369772],"type":"Point"},"properties":{"osm_id":"3646147397","tag":{"amenity":"waste_basket"}},"type":"Feature"},
	{"geometry":{"coordinates":[8.53955,47.370096],"type":"Point"},"properties":{"osm_id":"3646147496","tag":{"amenity":"waste_basket"}},"type":"Feature"},
	{"geometry":{"coordinates":[8.538573,47.371887],"type":"Point"},"properties":{"osm_id":"3646149898","tag":{"amenity":"waste_basket"}},"type":"Feature"},
	{"geometry":{"coordinates":[8.538992,47.370821],"type":"Point"},"properties":{"osm_id":"3646149902","tag":{"amenity":"waste_basket"}},"type":"Feature"},
	{"geometry":{"coordinates":[8.538749,47.371424],"type":"Point"},"properties":{"osm_id":"3646149905","tag":{"amenity":"waste_basket"}},"type":"Feature"},
	{"geometry":{"coordinates":[8.538346,47.372914],"type":"Point"},"properties":{"osm_id":"3646149908","tag":{"amenity":"waste_basket"}},"type":"Feature"},
	{"geometry":{"coordinates":[8.538392,47.372442],"type":"Point"},"properties":{"osm_id":"3646149915","tag":{"amenity":"waste_basket"}},"type":"Feature"},
	{"geometry":{"coordinates":[8.539098,47.370495],"type":"Point"},"properties":{"osm_id":"3646149917","tag":{"amenity":"waste_basket"}},"type":"Feature"},
	{"geometry":{"coordinates":[8.538482,47.372133],"type":"Point"},"properties":{"osm_id":"3646149919","tag":{"amenity":"waste_basket"}},"type":"Feature"},
	{"geometry":{"coordinates":[8.595849,47.397206],"type":"Point"},"properties":{"osm_id":"3650257834","tag":{"amenity":"waste_basket"}},"type":"Feature"},
	{"geometry":{"coordinates":[8.532186,47.397311],"type":"Point"},"properties":{"osm_id":"3671604376","tag":{"amenity":"recycling","operator":"Texaid","recycling:clothes":"yes","recycling:shoes":"yes","recycling_type":"container"}},"type":"Feature"},
	{"geometry":{"coordinates":[8.59583,47.396239],"type":"Point"},"properties":{"osm_id":"3674035331","tag":{"amenity":"waste_basket"}},"type":"Feature"},
	{"geometry":{"coordinates":[8.529198,47.359946],"type":"Point"},"properties":{"osm_id":"3745995583","tag":{"amenity":"waste_basket"}},"type":"Feature"},
	{"geometry":{"coordinates":[8.531218,47.360793],"type":"Point"},"properties":{"osm_id":"3760569253","tag":{"amenity":"waste_basket"}},"type":"Feature"},
	{"geometry":{"coordinates":[8.531469,47.36077],"type":"Point"},"properties":{"osm_id":"3760569256","tag":{"amenity":"waste_basket"}},"type":"Feature"},
	{"geometry":{"coordinates":[8.53167,47.3607],"type":"Point"},"properties":{"osm_id":"3760569859","tag":{"amenity":"waste_basket"}},"type":"Feature"},
	{"geometry":{"coordinates":[8.56698,47.353722],"type":"Point"},"properties":{"osm_id":"3767585149","tag":{"amenity":"waste_basket"}},"type":"Feature"},
	{"geometry":{"coordinates":[8.530035,47.362319],"type":"Point"},"properties":{"osm_id":"3771854859","tag":{"amenity":"waste_basket"}},"type":"Feature"},
	{"geometry":{"coordinates":[8.53,47.362691],"type":"Point"},"properties":{"osm_id":"3771854863","tag":{"amenity":"waste_basket"}},"type":"Feature"},
	{"geometry":{"coordinates":[8.525571,47.360733],"type":"Point"},"properties":{"osm_id":"3772024401","tag":{"amenity":"waste_basket"}},"type":"Feature"},
	{"geometry":{"coordinates":[8.531028,47.397846],"type":"Point"},"properties":{"osm_id":"3778190364","tag":{"amenity":"waste_basket","vending":"excrement_bags"}},"type":"Feature"},
	{"geometry":{"coordinates":[8.547321,47.393968],"type":"Point"},"properties":{"osm_id":"3853042735","tag":{"amenity":"waste_basket"}},"type":"Feature"},
	{"geometry":{"coordinates":[8.613143,47.393288],"type":"Point"},"properties":{"osm_id":"3909078477","tag":{"amenity":"waste_basket"}},"type":"Feature"},
	{"geometry":{"coordinates":[8.613211,47.393354],"type":"Point"},"properties":{"osm_id":"3909110378","tag":{"amenity":"waste_basket"}},"type":"Feature"},
	{"geometry":{"coordinates":[8.613098,47.393395],"type":"Point"},"properties":{"osm_id":"3909113787","tag":{"amenity":"waste_basket"}},"type":"Feature"},
	{"geometry":{"coordinates":[8.612318,47.388702],"type":"Point"},"properties":{"osm_id":"3910586358","tag":{"amenity":"waste_basket"}},"type":"Feature"},
	{"geometry":{"coordinates":[8.535816,47.378731],"type":"Point"},"properties":{"osm_id":"3973883775","tag":{"amenity":"waste_basket","layer":"-3","level":"-3"}},"type":"Feature"},
	{"geometry":{"coordinates":[8.596878,47.397906],"type":"Point"},"properties":{"osm_id":"4074887723","tag":{"amenity":"waste_basket"}},"type":"Feature"},
	{"geometry":{"coordinates":[8.596715,47.397782],"type":"Point"},"properties":{"osm_id":"4075349822","tag":{"amenity":"waste_basket"}},"type":"Feature"},
	{"geometry":{"coordinates":[8.596254,47.397229],"type":"Point"},"properties":{"osm_id":"4142986929","tag":{"amenity":"recycling","recycling:PET":"yes","recycling:aluminium":"yes","recycling:cans":"yes","recycling:clothes":"no","recycling:glass":"no","recycling:glass_bottles":"no","recycling:paper":"no","recycling:plastic":"no","recycling:plastic_bottles":"yes","recycling_type":"container"}},"type":"Feature"},
	{"geometry":{"coordinates":[8.543187,47.376647],"type":"Point"},"properties":{"osm_id":"4144499109","tag":{"amenity":"waste_basket"}},"type":"Feature"},
	{"geometry":{"coordinates":[8.539795,47.368191],"type":"Point"},"properties":{"osm_id":"4237318405","tag":{"amenity":"waste_basket"}},"type":"Feature"},
	{"geometry":{"coordinates":[8.539902,47.368227],"type":"Point"},"properties":{"osm_id":"4237319102","tag":{"amenity":"waste_basket"}},"type":"Feature"},
	{"geometry":{"coordinates":[8.539547,47.369235],"type":"Point"},"properties":{"osm_id":"4237319707","tag":{"amenity":"waste_basket"}},"type":"Feature"},
	{"geometry":{"coordinates":[8.539607,47.368671],"type":"Point"},"properties":{"osm_id":"4237319708","tag":{"amenity":"waste_basket"}},"type":"Feature"},
	{"geometry":{"coordinates":[8.539414,47.3691],"type":"Point"},"properties":{"osm_id":"4237342390","tag":{"amenity":"waste_basket"}},"type":"Feature"},
	{"geometry":{"coordinates":[8.540776,47.368918],"type":"Point"},"properties":{"osm_id":"4237357596","tag":{"amenity":"waste_basket"}},"type":"Feature"},
	{"geometry":{"coordinates":[8.540345,47.368501],"type":"Point"},"properties":{"osm_id":"4237364593","tag":{"amenity":"waste_basket"}},"type":"Feature"},
	{"geometry":{"coordinates":[8.541945,47.369103],"type":"Point"},"properties":{"osm_id":"4237467793","tag":{"amenity":"waste_basket"}},"type":"Feature"},
	{"geometry":{"coordinates":[8.54057,47.369686],"type":"Point"},"properties":{"osm_id":"4237468719","tag":{"amenity":"waste_basket"}},"type":"Feature"},
	{"geometry":{"coordinates":[8.564595,47.365577],"type":"Point"},"properties":{"osm_id":"4345544392","tag":{"amenity":"waste_basket"}},"type":"Feature"},
	{"geometry":{"coordinates":[8.562439,47.366012],"type":"Point"},"properties":{"osm_id":"4345747171","tag":{"amenity":"waste_basket"}},"type":"Feature"},
	{"geometry":{"coordinates":[8.573478,47.360691],"type":"Point"},"properties":{"osm_id":"4345774435","tag":{"amenity":"recycling","operator":"Texaid","recycling:clothes":"yes","recycling:shoes":"yes","recycling_type":"container"}},"type":"Feature"},
	{"geometry":{"coordinates":[8.531777,47.388079],"type":"Point"},"properties":{"osm_id":"4429425289","tag":{"amenity":"recycling","description":"Container: Metall (3), Gr\u00c3\u00bcnglas (3), Weissglas (2), Braunglas (1); Speise\u00c3\u00b6l/Mineral\u00c3\u00b6l","opening_hours":"Mo-Sa 07:00-20:00","operator":"ERZ","recycling:aluminium":"yes","recycling:cans":"yes","recycling:cooking_oil":"yes","recycling:engine_oil":"yes","recycling:glass_bottles":"yes","recycling_type":"container"}},"type":"Feature"},
	{"geometry":{"coordinates":[8.539829,47.374563],"type":"Point"},"properties":{"osm_id":"4496954092","tag":{"amenity":"waste_basket"}},"type":"Feature"},
	{"geometry":{"coordinates":[8.54042,47.3743],"type":"Point"},"properties":{"osm_id":"4496955837","tag":{"amenity":"waste_basket"}},"type":"Feature"},
	{"geometry":{"coordinates":[8.541411,47.374364],"type":"Point"},"properties":{"osm_id":"4496965542","tag":{"amenity":"waste_basket"}},"type":"Feature"},
	{"geometry":{"coordinates":[8.577499,47.358179],"type":"Point"},"properties":{"osm_id":"4513928695","tag":{"amenity":"recycling","description":"Container: Braunglas (1), Weissglas (1), Gr\u00c3\u00bcnglas (3), Metall (1)","opening_hours":"Mo-Sa 07:00-20:00","operator":"ERZ","recycling:aluminium":"yes","recycling:cans":"yes","recycling:glass_bottles":"yes","recycling_type":"container"}},"type":"Feature"},
	{"geometry":{"coordinates":[8.551947,47.374691],"type":"Point"},"properties":{"osm_id":"4513993323","tag":{"amenity":"waste_basket"}},"type":"Feature"},
	{"geometry":{"coordinates":[8.552397,47.373207],"type":"Point"},"properties":{"osm_id":"4513993324","tag":{"amenity":"waste_basket"}},"type":"Feature"},
	{"geometry":{"coordinates":[8.549593,47.37551],"type":"Point"},"properties":{"osm_id":"4513993325","tag":{"amenity":"waste_basket"}},"type":"Feature"},
	{"geometry":{"coordinates":[8.552716,47.373017],"type":"Point"},"properties":{"osm_id":"4513993328","tag":{"amenity":"waste_basket","colour":"gray","material":"metal","waste":"trash"}},"type":"Feature"},
	{"geometry":{"coordinates":[8.552341,47.373408],"type":"Point"},"properties":{"osm_id":"4513993331","tag":{"amenity":"waste_basket"}},"type":"Feature"},
	{"geometry":{"coordinates":[8.546775,47.379765],"type":"Point"},"properties":{"osm_id":"4514005033","tag":{"amenity":"waste_basket"}},"type":"Feature"},
	{"geometry":{"coordinates":[8.543662,47.38978],"type":"Point"},"properties":{"osm_id":"4514019324","tag":{"amenity":"waste_basket"}},"type":"Feature"},
	{"geometry":{"coordinates":[8.543911,47.389233],"type":"Point"},"properties":{"osm_id":"4514019326","tag":{"amenity":"waste_basket","fee":"no","vending":"excrement_bags"}},"type":"Feature"},
	{"geometry":{"coordinates":[8.593866,47.361326],"type":"Point"},"properties":{"osm_id":"4515627293","tag":{"amenity":"waste_basket"}},"type":"Feature"},
	{"geometry":{"coordinates":[8.574737,47.383328],"type":"Point"},"properties":{"osm_id":"4515627298","tag":{"amenity":"recycling","description":"Container: Braunglas (1), Weissglas (2), Gr\u00c3\u00bcnglas (4), Metall (2)","opening_hours":"Mo-Sa 07:00-20:00","operator":"ERZ","recycling:aluminium":"yes","recycling:cans":"yes","recycling:glass_bottles":"yes","recycling_type":"container"}},"type":"Feature"},
	{"geometry":{"coordinates":[8.593371,47.361912],"type":"Point"},"properties":{"osm_id":"4515627305","tag":{"amenity":"waste_basket"}},"type":"Feature"},
	{"geometry":{"coordinates":[8.590814,47.367851],"type":"Point"},"properties":{"osm_id":"4515627309","tag":{"amenity":"waste_basket"}},"type":"Feature"},
	{"geometry":{"coordinates":[8.572724,47.380549],"type":"Point"},"properties":{"osm_id":"4515627310","tag":{"amenity":"waste_basket"}},"type":"Feature"},
	{"geometry":{"coordinates":[8.572403,47.383102],"type":"Point"},"properties":{"osm_id":"4515627318","tag":{"amenity":"waste_basket"}},"type":"Feature"},
	{"geometry":{"coordinates":[8.572074,47.382537],"type":"Point"},"properties":{"osm_id":"4515627327","tag":{"amenity":"waste_basket"}},"type":"Feature"},
	{"geometry":{"coordinates":[8.573024,47.383557],"type":"Point"},"properties":{"osm_id":"4515627328","tag":{"amenity":"waste_basket"}},"type":"Feature"},
	{"geometry":{"coordinates":[8.573773,47.383701],"type":"Point"},"properties":{"osm_id":"4515627329","tag":{"amenity":"waste_basket"}},"type":"Feature"},
	{"geometry":{"coordinates":[8.594009,47.361195],"type":"Point"},"properties":{"osm_id":"4515627332","tag":{"amenity":"waste_basket"}},"type":"Feature"},
	{"geometry":{"coordinates":[8.572678,47.383121],"type":"Point"},"properties":{"osm_id":"4515627336","tag":{"amenity":"waste_basket"}},"type":"Feature"},
	{"geometry":{"coordinates":[8.5268,47.387892],"type":"Point"},"properties":{"osm_id":"4546723121","tag":{"amenity":"waste_basket"}},"type":"Feature"},
	{"geometry":{"coordinates":[8.574004,47.387327],"type":"Point"},"properties":{"osm_id":"4549020422","tag":{"amenity":"waste_basket"}},"type":"Feature"},
	{"geometry":{"coordinates":[8.593225,47.393794],"type":"Point"},"properties":{"osm_id":"4654011716","tag":{"amenity":"waste_basket"}},"type":"Feature"},
	{"geometry":{"coordinates":[8.601527,47.392576],"type":"Point"},"properties":{"osm_id":"4654011726","tag":{"amenity":"waste_basket"}},"type":"Feature"},
	{"geometry":{"coordinates":[8.569144,47.357631],"type":"Point"},"properties":{"osm_id":"4779457645","tag":{"amenity":"waste_basket"}},"type":"Feature"},
	{"geometry":{"coordinates":[8.603119,47.358417],"type":"Point"},"properties":{"osm_id":"4779486533","tag":{"amenity":"waste_basket"}},"type":"Feature"},
	{"geometry":{"coordinates":[8.602812,47.359327],"type":"Point"},"properties":{"osm_id":"4779486534","tag":{"amenity":"waste_basket"}},"type":"Feature"},
	{"geometry":{"coordinates":[8.53645,47.395006],"type":"Point"},"properties":{"osm_id":"4783727222","tag":{"amenity":"waste_basket"}},"type":"Feature"},
	{"geometry":{"coordinates":[8.535906,47.396173],"type":"Point"},"properties":{"osm_id":"4783747724","tag":{"amenity":"waste_disposal"}},"type":"Feature"},
	{"geometry":{"coordinates":[8.536616,47.395749],"type":"Point"},"properties":{"osm_id":"4783748723","tag":{"amenity":"waste_disposal","natural":"tree"}},"type":"Feature"},
	{"geometry":{"coordinates":[8.526171,47.36962],"type":"Point"},"properties":{"osm_id":"4808610760","tag":{"amenity":"waste_basket"}},"type":"Feature"},
	{"geometry":{"coordinates":[8.536794,47.395822],"type":"Point"},"properties":{"osm_id":"4868938063","tag":{"amenity":"recycling","description":"Container: Metall (1), Gr\u00c3\u00bcnglas (2), Weissglas (1), Braunglas (1)","opening_hours":"Mo-Sa 07:00-20:00","operator":"ERZ","recycling:aluminium":"yes","recycling:cans":"yes","recycling:glass_bottles":"yes","recycling_type":"container"}},"type":"Feature"},
	{"geometry":{"coordinates":[8.555365,47.356703],"type":"Point"},"properties":{"osm_id":"4868938064","tag":{"amenity":"recycling","description":"Container: Braunglas (1), Weissglas (1), Gr\u00c3\u00bcnglas (2), Metall (1); Speise\u00c3\u00b6l/Mineral\u00c3\u00b6l","opening_hours":"Mo-Sa 07:00-20:00","operator":"ERZ","recycling:aluminium":"yes","recycling:cans":"yes","recycling:cooking_oil":"yes","recycling:engine_oil":"yes","recycling:glass_bottles":"yes","recycling_type":"container","wheelchair":"yes"}},"type":"Feature"},
	{"geometry":{"coordinates":[8.559946,47.355066],"type":"Point"},"properties":{"osm_id":"4868938065","tag":{"amenity":"recycling","description":"Container: Braunglas (1), Weissglas (2), Gr\u00c3\u00bcnglas (3), Metall (2)","opening_hours":"Mo-Sa 07:00-20:00","operator":"ERZ","recycling:aluminium":"yes","recycling:cans":"yes","recycling:glass_bottles":"yes","recycling_type":"container"}},"type":"Feature"},
	{"geometry":{"coordinates":[8.561582,47.360488],"type":"Point"},"properties":{"osm_id":"4868938066","tag":{"amenity":"recycling","description":"Container: Braunglas (1), Weissglas (1), Gr\u00c3\u00bcnglas (2), Metall (1)","opening_hours":"Mo-Sa 07:00-20:00","operator":"ERZ","recycling:aluminium":"yes","recycling:cans":"yes","recycling:glass_bottles":"yes","recycling_type":"container","wheelchair":"yes"}},"type":"Feature"},
	{"geometry":{"coordinates":[8.55082,47.364571],"type":"Point"},"properties":{"osm_id":"4868938067","tag":{"amenity":"recycling","description":"Container: Braunglas (1), Weissglas (2), Gr\u00c3\u00bcnglas (2), Metall (1); Speise\u00c3\u00b6l/Mineral\u00c3\u00b6l","opening_hours":"Mo-Sa 07:00-20:00","operator":"ERZ","recycling:aluminium":"yes","recycling:cans":"yes","recycling:glass_bottles":"yes","recycling_type":"container"}},"type":"Feature"},
	{"geometry":{"coordinates":[8.554822,47.376573],"type":"Point"},"properties":{"osm_id":"4868938068","tag":{"amenity":"recycling","description":"Container: Braunglas (1), Weissglas (2), Gr\u00c3\u00bcnglas (3), Metall (1)","opening_hours":"Mo-Sa 07:00-20:00","operator":"ERZ","recycling:aluminium":"yes","recycling:cans":"yes","recycling:glass_bottles":"yes","recycling_type":"container"}},"type":"Feature"},
	{"geometry":{"coordinates":[8.54393,47.382953],"type":"Point"},"properties":{"osm_id":"4868938069","tag":{"amenity":"recycling","description":"Container: Braunglas (1), Weissglas (2), Gr\u00c3\u00bcnglas (3), Metall (2)","opening_hours":"Mo-Sa 07:00-20:00","operator":"ERZ","recycling:aluminium":"yes","recycling:cans":"yes","recycling:glass_bottles":"yes","recycling_type":"container"}},"type":"Feature"},
	{"geometry":{"coordinates":[8.544623,47.393643],"type":"Point"},"properties":{"osm_id":"4868938070","tag":{"amenity":"recycling","description":"Container: Metall (2), Gr\u00c3\u00bcnglas (2), Weissglas (2), Braunglas (1)","opening_hours":"Mo-Sa 07:00-20:00","operator":"ERZ","recycling:aluminium":"yes","recycling:cans":"yes","recycling:glass_bottles":"yes","recycling_type":"container"}},"type":"Feature"},
	{"geometry":{"coordinates":[8.574368,47.35456],"type":"Point"},"properties":{"osm_id":"4868938522","tag":{"amenity":"recycling","description":"Container: Metall (2), Gr\u00c3\u00bcnglas (2), Weissglas (2), Braunglas (1)","opening_hours":"Mo-Sa 07:00-20:00","operator":"ERZ","recycling:aluminium":"yes","recycling:cans":"yes","recycling:glass_bottles":"yes","recycling_type":"container"}},"type":"Feature"},
	{"geometry":{"coordinates":[8.551208,47.358988],"type":"Point"},"properties":{"osm_id":"4868938523","tag":{"amenity":"recycling","description":"Container: Metall (2), Gr\u00c3\u00bcnglas (3), Weissglas (2), Braunglas (1)","opening_hours":"Mo-Sa 07:00-20:00","operator":"ERZ","recycling:aluminium":"yes","recycling:cans":"yes","recycling:glass_bottles":"yes","recycling_type":"container"}},"type":"Feature"},
	{"geometry":{"coordinates":[8.536844,47.376807],"type":"Point"},"properties":{"osm_id":"4868938526","tag":{"amenity":"recycling","description":"Container: Braunglas (1), Weissglas (1), Gr\u00c3\u00bcnglas (1), Metall (1)","opening_hours":"Mo-Sa 07:00-20:00","operator":"ERZ","recycling:aluminium":"yes","recycling:cans":"yes","recycling:glass_bottles":"yes","recycling_type":"container","wheelchair":"limited"}},"type":"Feature"},
	{"geometry":{"coordinates":[8.571692,47.35829],"type":"Point"},"properties":{"osm_id":"4868938529","tag":{"amenity":"recycling","description":"Container: Metall (1), Gr\u00c3\u00bcnglas (2), Weissglas (1), Braunglas (1); Speise\u00c3\u00b6l/Mineral\u00c3\u00b6l","opening_hours":"Mo-Sa 07:00-20:00","operator":"ERZ","recycling:aluminium":"yes","recycling:cans":"yes","recycling:glass_bottles":"yes","recycling_type":"container","wheelchair":"yes"}},"type":"Feature"},
	{"geometry":{"coordinates":[8.536219,47.394945],"type":"Point"},"properties":{"osm_id":"4869996394","tag":{"amenity":"waste_basket"}},"type":"Feature"},
	{"geometry":{"coordinates":[8.554259,47.36486],"type":"Point"},"properties":{"osm_id":"4872461940","tag":{"amenity":"waste_basket"}},"type":"Feature"},
	{"geometry":{"coordinates":[8.554012,47.364963],"type":"Point"},"properties":{"osm_id":"4872461941","tag":{"amenity":"waste_basket"}},"type":"Feature"},
	{"geometry":{"coordinates":[8.549219,47.363904],"type":"Point"},"properties":{"osm_id":"4880906383","tag":{"amenity":"waste_basket"}},"type":"Feature"},
	{"geometry":{"coordinates":[8.549459,47.363327],"type":"Point"},"properties":{"osm_id":"4880906386","tag":{"amenity":"waste_basket"}},"type":"Feature"},
	{"geometry":{"coordinates":[8.549663,47.368216],"type":"Point"},"properties":{"osm_id":"4892315241","tag":{"amenity":"waste_basket"}},"type":"Feature"},
	{"geometry":{"coordinates":[8.571595,47.381779],"type":"Point"},"properties":{"osm_id":"4893948881","tag":{"amenity":"waste_basket"}},"type":"Feature"},
	{"geometry":{"coordinates":[8.571632,47.381855],"type":"Point"},"properties":{"osm_id":"4893948882","tag":{"amenity":"waste_basket"}},"type":"Feature"},
	{"geometry":{"coordinates":[8.560837,47.350315],"type":"Point"},"properties":{"osm_id":"4897669472","tag":{"amenity":"waste_basket"}},"type":"Feature"},
	{"geometry":{"coordinates":[8.5609,47.350233],"type":"Point"},"properties":{"osm_id":"4897669477","tag":{"amenity":"waste_basket"}},"type":"Feature"},
	{"geometry":{"coordinates":[8.541688,47.39769],"type":"Point"},"properties":{"osm_id":"4897669483","tag":{"amenity":"waste_basket"}},"type":"Feature"},
	{"geometry":{"coordinates":[8.541551,47.397474],"type":"Point"},"properties":{"osm_id":"4897669484","tag":{"amenity":"waste_basket"}},"type":"Feature"},
	{"geometry":{"coordinates":[8.541977,47.398125],"type":"Point"},"properties":{"osm_id":"4897669485","tag":{"amenity":"waste_basket"}},"type":"Feature"},
	{"geometry":{"coordinates":[8.541839,47.397916],"type":"Point"},"properties":{"osm_id":"4897669489","tag":{"amenity":"waste_basket"}},"type":"Feature"},
	{"geometry":{"coordinates":[8.563062,47.392731],"type":"Point"},"properties":{"osm_id":"4907566157","tag":{"amenity":"waste_basket"}},"type":"Feature"},
	{"geometry":{"coordinates":[8.562625,47.39308],"type":"Point"},"properties":{"osm_id":"4907566158","tag":{"amenity":"waste_basket"}},"type":"Feature"},
	{"geometry":{"coordinates":[8.562087,47.39304],"type":"Point"},"properties":{"osm_id":"4907566159","tag":{"amenity":"waste_basket"}},"type":"Feature"},
	{"geometry":{"coordinates":[8.541884,47.370449],"type":"Point"},"properties":{"osm_id":"4909102089","tag":{"amenity":"waste_basket"}},"type":"Feature"},
	{"geometry":{"coordinates":[8.583046,47.350699],"type":"Point"},"properties":{"osm_id":"4912996189","tag":{"amenity":"waste_basket"}},"type":"Feature"},
	{"geometry":{"coordinates":[8.583126,47.350908],"type":"Point"},"properties":{"osm_id":"4912996191","tag":{"amenity":"waste_basket"}},"type":"Feature"},
	{"geometry":{"coordinates":[8.54202,47.397844],"type":"Point"},"properties":{"osm_id":"4920832526","tag":{"amenity":"waste_basket"}},"type":"Feature"},
	{"geometry":{"coordinates":[8.541894,47.397648],"type":"Point"},"properties":{"osm_id":"4920832529","tag":{"amenity":"waste_basket"}},"type":"Feature"},
	{"geometry":{"coordinates":[8.543465,47.376625],"type":"Point"},"properties":{"osm_id":"4920832599","tag":{"amenity":"waste_basket"}},"type":"Feature"},
	{"geometry":{"coordinates":[8.543649,47.376888],"type":"Point"},"properties":{"osm_id":"4920832604","tag":{"amenity":"waste_basket"}},"type":"Feature"},
	{"geometry":{"coordinates":[8.543849,47.376972],"type":"Point"},"properties":{"osm_id":"4920832606","tag":{"amenity":"waste_basket"}},"type":"Feature"},
	{"geometry":{"coordinates":[8.545043,47.379159],"type":"Point"},"properties":{"osm_id":"4920833524","tag":{"amenity":"waste_basket"}},"type":"Feature"},
	{"geometry":{"coordinates":[8.545165,47.378928],"type":"Point"},"properties":{"osm_id":"4920833528","tag":{"amenity":"waste_basket"}},"type":"Feature"},
	{"geometry":{"coordinates":[8.54831,47.377661],"type":"Point"},"properties":{"osm_id":"4920833540","tag":{"amenity":"waste_basket"}},"type":"Feature"},
	{"geometry":{"coordinates":[8.54755,47.377227],"type":"Point"},"properties":{"osm_id":"4920833549","tag":{"amenity":"waste_basket"}},"type":"Feature"},
	{"geometry":{"coordinates":[8.547723,47.377262],"type":"Point"},"properties":{"osm_id":"4920833550","tag":{"amenity":"waste_basket"}},"type":"Feature"},
	{"geometry":{"coordinates":[8.548552,47.376841],"type":"Point"},"properties":{"osm_id":"4920833588","tag":{"amenity":"waste_basket"}},"type":"Feature"},
	{"geometry":{"coordinates":[8.55248,47.374966],"type":"Point"},"properties":{"osm_id":"4920833605","tag":{"amenity":"waste_basket"}},"type":"Feature"},
	{"geometry":{"coordinates":[8.552766,47.375039],"type":"Point"},"properties":{"osm_id":"4920833609","tag":{"amenity":"waste_basket"}},"type":"Feature"},
	{"geometry":{"coordinates":[8.559465,47.37633],"type":"Point"},"properties":{"osm_id":"4920833769","tag":{"amenity":"waste_basket"}},"type":"Feature"},
	{"geometry":{"coordinates":[8.559734,47.376615],"type":"Point"},"properties":{"osm_id":"4920833770","tag":{"amenity":"waste_basket"}},"type":"Feature"},
	{"geometry":{"coordinates":[8.559362,47.376404],"type":"Point"},"properties":{"osm_id":"4920833771","tag":{"amenity":"waste_basket"}},"type":"Feature"},
	{"geometry":{"coordinates":[8.559638,47.379326],"type":"Point"},"properties":{"osm_id":"4920833789","tag":{"amenity":"waste_basket"}},"type":"Feature"},
	{"geometry":{"coordinates":[8.559621,47.379176],"type":"Point"},"properties":{"osm_id":"4920833791","tag":{"amenity":"waste_basket"}},"type":"Feature"},
	{"geometry":{"coordinates":[8.559707,47.379237],"type":"Point"},"properties":{"osm_id":"4920833794","tag":{"amenity":"waste_basket"}},"type":"Feature"},
	{"geometry":{"coordinates":[8.564176,47.378804],"type":"Point"},"properties":{"osm_id":"4920833808","tag":{"amenity":"waste_basket"}},"type":"Feature"},
	{"geometry":{"coordinates":[8.564186,47.378687],"type":"Point"},"properties":{"osm_id":"4920833810","tag":{"amenity":"waste_basket"}},"type":"Feature"},
	{"geometry":{"coordinates":[8.567798,47.378445],"type":"Point"},"properties":{"osm_id":"4920833814","tag":{"amenity":"waste_basket"}},"type":"Feature"},
	{"geometry":{"coordinates":[8.568109,47.378598],"type":"Point"},"properties":{"osm_id":"4920833923","tag":{"amenity":"waste_basket"}},"type":"Feature"},
	{"geometry":{"coordinates":[8.54394,47.376707],"type":"Point"},"properties":{"osm_id":"4922411089","tag":{"amenity":"waste_basket"}},"type":"Feature"},
	{"geometry":{"coordinates":[8.544061,47.376859],"type":"Point"},"properties":{"osm_id":"4922411095","tag":{"amenity":"waste_basket"}},"type":"Feature"},
	{"geometry":{"coordinates":[8.55353,47.387256],"type":"Point"},"properties":{"osm_id":"4922412219","tag":{"amenity":"waste_basket"}},"type":"Feature"},
	{"geometry":{"coordinates":[8.548354,47.386068],"type":"Point"},"properties":{"osm_id":"4923059886","tag":{"amenity":"waste_basket"}},"type":"Feature"},
	{"geometry":{"coordinates":[8.548445,47.385953],"type":"Point"},"properties":{"osm_id":"4923059894","tag":{"amenity":"waste_basket"}},"type":"Feature"},
	{"geometry":{"coordinates":[8.548324,47.385877],"type":"Point"},"properties":{"osm_id":"4923059903","tag":{"amenity":"waste_basket"}},"type":"Feature"},
	{"geometry":{"coordinates":[8.548374,47.385751],"type":"Point"},"properties":{"osm_id":"4923059904","tag":{"amenity":"waste_basket"}},"type":"Feature"},
	{"geometry":{"coordinates":[8.551395,47.386758],"type":"Point"},"properties":{"osm_id":"4923059915","tag":{"amenity":"waste_basket"}},"type":"Feature"},
	{"geometry":{"coordinates":[8.54888,47.385884],"type":"Point"},"properties":{"osm_id":"4923059919","tag":{"amenity":"waste_basket"}},"type":"Feature"},
	{"geometry":{"coordinates":[8.554158,47.387416],"type":"Point"},"properties":{"osm_id":"4923062031","tag":{"amenity":"waste_basket"}},"type":"Feature"},
	{"geometry":{"coordinates":[8.554068,47.387343],"type":"Point"},"properties":{"osm_id":"4923062032","tag":{"amenity":"waste_basket"}},"type":"Feature"},
	{"geometry":{"coordinates":[8.551198,47.386783],"type":"Point"},"properties":{"osm_id":"4923062072","tag":{"amenity":"waste_basket"}},"type":"Feature"},
	{"geometry":{"coordinates":[8.552505,47.387173],"type":"Point"},"properties":{"osm_id":"4923062095","tag":{"amenity":"waste_basket"}},"type":"Feature"},
	{"geometry":{"coordinates":[8.555358,47.356543],"type":"Point"},"properties":{"osm_id":"4932408744","tag":{"amenity":"waste_basket"}},"type":"Feature"},
	{"geometry":{"coordinates":[8.557832,47.359286],"type":"Point"},"properties":{"osm_id":"4932408765","tag":{"amenity":"waste_basket"}},"type":"Feature"},
	{"geometry":{"coordinates":[8.558121,47.359387],"type":"Point"},"properties":{"osm_id":"4932408768","tag":{"amenity":"waste_basket"}},"type":"Feature"},
	{"geometry":{"coordinates":[8.564486,47.359647],"type":"Point"},"properties":{"osm_id":"4932409752","tag":{"amenity":"waste_basket"}},"type":"Feature"},
	{"geometry":{"coordinates":[8.569125,47.358593],"type":"Point"},"properties":{"osm_id":"4932409806","tag":{"amenity":"waste_basket"}},"type":"Feature"},
	{"geometry":{"coordinates":[8.569039,47.358541],"type":"Point"},"properties":{"osm_id":"4932409807","tag":{"amenity":"waste_basket"}},"type":"Feature"},
	{"geometry":{"coordinates":[8.551584,47.394962],"type":"Point"},"properties":{"osm_id":"4934203269","tag":{"amenity":"waste_basket"}},"type":"Feature"},
	{"geometry":{"coordinates":[8.552074,47.396315],"type":"Point"},"properties":{"osm_id":"4934203275","tag":{"amenity":"waste_basket"}},"type":"Feature"},
	{"geometry":{"coordinates":[8.549614,47.392614],"type":"Point"},"properties":{"osm_id":"4934205233","tag":{"amenity":"waste_basket"}},"type":"Feature"},
	{"geometry":{"coordinates":[8.549872,47.392475],"type":"Point"},"properties":{"osm_id":"4934205236","tag":{"amenity":"waste_basket"}},"type":"Feature"},
	{"geometry":{"coordinates":[8.549605,47.392553],"type":"Point"},"properties":{"osm_id":"4934205237","tag":{"amenity":"waste_basket"}},"type":"Feature"},
	{"geometry":{"coordinates":[8.547423,47.393539],"type":"Point"},"properties":{"osm_id":"4934205248","tag":{"amenity":"waste_basket"}},"type":"Feature"},
	{"geometry":{"coordinates":[8.545972,47.393951],"type":"Point"},"properties":{"osm_id":"4934205289","tag":{"amenity":"waste_basket"}},"type":"Feature"},
	{"geometry":{"coordinates":[8.545023,47.393673],"type":"Point"},"properties":{"osm_id":"4934205298","tag":{"amenity":"waste_basket"}},"type":"Feature"},
	{"geometry":{"coordinates":[8.544924,47.393553],"type":"Point"},"properties":{"osm_id":"4934205300","tag":{"amenity":"waste_basket"}},"type":"Feature"},
	{"geometry":{"coordinates":[8.552315,47.39504],"type":"Point"},"properties":{"osm_id":"4934939948","tag":{"amenity":"waste_basket"}},"type":"Feature"},
	{"geometry":{"coordinates":[8.552838,47.395398],"type":"Point"},"properties":{"osm_id":"4934939956","tag":{"amenity":"waste_basket"}},"type":"Feature"},
	{"geometry":{"coordinates":[8.552514,47.395163],"type":"Point"},"properties":{"osm_id":"4934939957","tag":{"amenity":"waste_basket"}},"type":"Feature"},
	{"geometry":{"coordinates":[8.552721,47.395229],"type":"Point"},"properties":{"osm_id":"4934939960","tag":{"amenity":"waste_basket"}},"type":"Feature"},
	{"geometry":{"coordinates":[8.550096,47.395457],"type":"Point"},"properties":{"osm_id":"4934939977","tag":{"amenity":"waste_basket"}},"type":"Feature"},
	{"geometry":{"coordinates":[8.546136,47.396123],"type":"Point"},"properties":{"osm_id":"4934940004","tag":{"amenity":"waste_basket"}},"type":"Feature"},
	{"geometry":{"coordinates":[8.566415,47.36409],"type":"Point"},"properties":{"osm_id":"4937236830","tag":{"amenity":"waste_basket","manufacturer":"Anta Swiss"}},"type":"Feature"},
	{"geometry":{"coordinates":[8.566451,47.363912],"type":"Point"},"properties":{"osm_id":"4937236837","tag":{"amenity":"waste_basket","manufacturer":"Anta Swiss"}},"type":"Feature"},
	{"geometry":{"coordinates":[8.566369,47.363997],"type":"Point"},"properties":{"osm_id":"4937236838","tag":{"amenity":"waste_basket","manufacturer":"Anta Swiss"}},"type":"Feature"},
	{"geometry":{"coordinates":[8.610786,47.346453],"type":"Point"},"properties":{"osm_id":"4951609799","tag":{"amenity":"waste_basket"}},"type":"Feature"},
	{"geometry":{"coordinates":[8.555802,47.376216],"type":"Point"},"properties":{"osm_id":"4954962949","tag":{"amenity":"waste_basket"}},"type":"Feature"},
	{"geometry":{"coordinates":[8.559551,47.376612],"type":"Point"},"properties":{"osm_id":"4954962952","tag":{"amenity":"waste_basket"}},"type":"Feature"},
	{"geometry":{"coordinates":[8.574466,47.38416],"type":"Point"},"properties":{"osm_id":"4954962962","tag":{"amenity":"waste_basket"}},"type":"Feature"},
	{"geometry":{"coordinates":[8.595685,47.396711],"type":"Point"},"properties":{"osm_id":"4958439548","tag":{"amenity":"waste_basket"}},"type":"Feature"},
	{"geometry":{"coordinates":[8.537187,47.395398],"type":"Point"},"properties":{"osm_id":"4960082336","tag":{"amenity":"waste_basket"}},"type":"Feature"},
	{"geometry":{"coordinates":[8.537254,47.395369],"type":"Point"},"properties":{"osm_id":"4960082342","tag":{"amenity":"waste_disposal","natural":"tree"}},"type":"Feature"},
	{"geometry":{"coordinates":[8.532841,47.366306],"type":"Point"},"properties":{"osm_id":"4962059716","tag":{"amenity":"waste_basket"}},"type":"Feature"},
	{"geometry":{"coordinates":[8.532732,47.36634],"type":"Point"},"properties":{"osm_id":"4962062821","tag":{"amenity":"waste_basket"}},"type":"Feature"},
	{"geometry":{"coordinates":[8.532565,47.366191],"type":"Point"},"properties":{"osm_id":"4962062822","tag":{"amenity":"waste_basket"}},"type":"Feature"},
	{"geometry":{"coordinates":[8.53924,47.369791],"type":"Point"},"properties":{"osm_id":"4962062842","tag":{"amenity":"waste_basket"}},"type":"Feature"},
	{"geometry":{"coordinates":[8.538893,47.369841],"type":"Point"},"properties":{"osm_id":"4962062844","tag":{"amenity":"waste_basket"}},"type":"Feature"},
	{"geometry":{"coordinates":[8.538771,47.369619],"type":"Point"},"properties":{"osm_id":"4962062849","tag":{"amenity":"waste_basket"}},"type":"Feature"},
	{"geometry":{"coordinates":[8.539382,47.370001],"type":"Point"},"properties":{"osm_id":"4962062850","tag":{"amenity":"waste_basket"}},"type":"Feature"},
	{"geometry":{"coordinates":[8.543574,47.382979],"type":"Point"},"properties":{"osm_id":"4963589198","tag":{"amenity":"waste_basket"}},"type":"Feature"},
	{"geometry":{"coordinates":[8.543409,47.382902],"type":"Point"},"properties":{"osm_id":"4963589218","tag":{"amenity":"waste_basket"}},"type":"Feature"},
	{"geometry":{"coordinates":[8.561539,47.355243],"type":"Point"},"properties":{"osm_id":"4968756002","tag":{"amenity":"waste_basket"}},"type":"Feature"},
	{"geometry":{"coordinates":[8.561364,47.355179],"type":"Point"},"properties":{"osm_id":"4968756004","tag":{"amenity":"waste_basket"}},"type":"Feature"},
	{"geometry":{"coordinates":[8.561761,47.35953],"type":"Point"},"properties":{"osm_id":"4968759160","tag":{"amenity":"waste_basket"}},"type":"Feature"},
	{"geometry":{"coordinates":[8.571669,47.358053],"type":"Point"},"properties":{"osm_id":"4968759184","tag":{"amenity":"waste_basket"}},"type":"Feature"},
	{"geometry":{"coordinates":[8.530818,47.362541],"type":"Point"},"properties":{"osm_id":"4970560404","tag":{"amenity":"waste_basket"}},"type":"Feature"},
	{"geometry":{"coordinates":[8.580533,47.35104],"type":"Point"},"properties":{"osm_id":"4970752937","tag":{"amenity":"waste_basket"}},"type":"Feature"},
	{"geometry":{"coordinates":[8.580521,47.350962],"type":"Point"},"properties":{"osm_id":"4970752938","tag":{"amenity":"waste_basket"}},"type":"Feature"},
	{"geometry":{"coordinates":[8.530018,47.371235],"type":"Point"},"properties":{"osm_id":"4971975795","tag":{"amenity":"waste_basket"}},"type":"Feature"},
	{"geometry":{"coordinates":[8.553406,47.366136],"type":"Point"},"properties":{"osm_id":"4972018141","tag":{"amenity":"waste_basket"}},"type":"Feature"},
	{"geometry":{"coordinates":[8.553494,47.365924],"type":"Point"},"properties":{"osm_id":"4972018147","tag":{"amenity":"waste_basket"}},"type":"Feature"},
	{"geometry":{"coordinates":[8.557522,47.35914],"type":"Point"},"properties":{"osm_id":"4972320510","tag":{"amenity":"waste_basket"}},"type":"Feature"},
	{"geometry":{"coordinates":[8.563337,47.359552],"type":"Point"},"properties":{"osm_id":"4972321641","tag":{"amenity":"waste_basket","operator":"Robidog","vending":"excrement_bags"}},"type":"Feature"},
	{"geometry":{"coordinates":[8.571826,47.357079],"type":"Point"},"properties":{"osm_id":"4972321772","tag":{"amenity":"waste_basket","operator":"Robidog","vending":"excrement_bags"}},"type":"Feature"},
	{"geometry":{"coordinates":[8.571733,47.357177],"type":"Point"},"properties":{"osm_id":"4972321773","tag":{"amenity":"waste_basket"}},"type":"Feature"},
	{"geometry":{"coordinates":[8.571953,47.358147],"type":"Point"},"properties":{"osm_id":"4972321809","tag":{"amenity":"waste_basket"}},"type":"Feature"},
	{"geometry":{"coordinates":[8.573604,47.354097],"type":"Point"},"properties":{"osm_id":"4973673258","tag":{"amenity":"waste_basket"}},"type":"Feature"},
	{"geometry":{"coordinates":[8.560847,47.36124],"type":"Point"},"properties":{"osm_id":"4973735204","tag":{"amenity":"waste_basket"}},"type":"Feature"},
	{"geometry":{"coordinates":[8.583374,47.351067],"type":"Point"},"properties":{"osm_id":"4975615816","tag":{"amenity":"waste_basket"}},"type":"Feature"},
	{"geometry":{"coordinates":[8.575011,47.354684],"type":"Point"},"properties":{"osm_id":"4975621173","tag":{"amenity":"waste_basket"}},"type":"Feature"},
	{"geometry":{"coordinates":[8.574939,47.354343],"type":"Point"},"properties":{"osm_id":"4975621228","tag":{"amenity":"waste_basket"}},"type":"Feature"},
	{"geometry":{"coordinates":[8.575361,47.354442],"type":"Point"},"properties":{"osm_id":"4975621266","tag":{"amenity":"waste_basket"}},"type":"Feature"},
	{"geometry":{"coordinates":[8.548711,47.370414],"type":"Point"},"properties":{"osm_id":"4975621284","tag":{"amenity":"waste_basket"}},"type":"Feature"},
	{"geometry":{"coordinates":[8.574908,47.354611],"type":"Point"},"properties":{"osm_id":"4975621287","tag":{"amenity":"waste_basket"}},"type":"Feature"},
	{"geometry":{"coordinates":[8.575,47.354493],"type":"Point"},"properties":{"osm_id":"4975621301","tag":{"amenity":"waste_basket"}},"type":"Feature"},
	{"geometry":{"coordinates":[8.548941,47.370505],"type":"Point"},"properties":{"osm_id":"4975621303","tag":{"amenity":"waste_basket"}},"type":"Feature"},
	{"geometry":{"coordinates":[8.557693,47.363109],"type":"Point"},"properties":{"osm_id":"4976091870","tag":{"amenity":"waste_basket"}},"type":"Feature"},
	{"geometry":{"coordinates":[8.557676,47.363227],"type":"Point"},"properties":{"osm_id":"4976091871","tag":{"amenity":"waste_basket"}},"type":"Feature"},
	{"geometry":{"coordinates":[8.571031,47.361068],"type":"Point"},"properties":{"osm_id":"4977038885","tag":{"amenity":"waste_basket"}},"type":"Feature"},
	{"geometry":{"coordinates":[8.598139,47.357045],"type":"Point"},"properties":{"osm_id":"4977048847","tag":{"amenity":"waste_basket"}},"type":"Feature"},
	{"geometry":{"coordinates":[8.600936,47.355166],"type":"Point"},"properties":{"osm_id":"4977048868","tag":{"amenity":"waste_basket"}},"type":"Feature"},
	{"geometry":{"coordinates":[8.560891,47.361988],"type":"Point"},"properties":{"osm_id":"4977281612","tag":{"amenity":"waste_basket"}},"type":"Feature"},
	{"geometry":{"coordinates":[8.53333,47.392105],"type":"Point"},"properties":{"osm_id":"5003248450","tag":{"amenity":"waste_basket"}},"type":"Feature"},
	{"geometry":{"coordinates":[8.532655,47.392675],"type":"Point"},"properties":{"osm_id":"5003248454","tag":{"amenity":"waste_basket"}},"type":"Feature"},
	{"geometry":{"coordinates":[8.529745,47.341409],"type":"Point"},"properties":{"osm_id":"5003332127","tag":{"amenity":"waste_basket"}},"type":"Feature"},
	{"geometry":{"coordinates":[8.529474,47.341574],"type":"Point"},"properties":{"osm_id":"5003332128","tag":{"amenity":"waste_basket"}},"type":"Feature"},
	{"geometry":{"coordinates":[8.532344,47.39608],"type":"Point"},"properties":{"osm_id":"5056489856","tag":{"amenity":"waste_basket"}},"type":"Feature"},
	{"geometry":{"coordinates":[8.543889,47.376927],"type":"Point"},"properties":{"osm_id":"5059919360","tag":{"amenity":"waste_basket"}},"type":"Feature"},
	{"geometry":{"coordinates":[8.565005,47.360285],"type":"Point"},"properties":{"osm_id":"5066113974","tag":{"amenity":"waste_basket"}},"type":"Feature"},
	{"geometry":{"coordinates":[8.565062,47.359598],"type":"Point"},"properties":{"osm_id":"5066113982","tag":{"amenity":"waste_basket","operator":"Robidog","vending":"excrement_bags"}},"type":"Feature"},
	{"geometry":{"coordinates":[8.562388,47.366207],"type":"Point"},"properties":{"osm_id":"5066114004","tag":{"amenity":"waste_basket"}},"type":"Feature"},
	{"geometry":{"coordinates":[8.55754,47.366522],"type":"Point"},"properties":{"osm_id":"5066114014","tag":{"amenity":"waste_basket"}},"type":"Feature"},
	{"geometry":{"coordinates":[8.557493,47.366379],"type":"Point"},"properties":{"osm_id":"5066114016","tag":{"amenity":"waste_basket"}},"type":"Feature"},
	{"geometry":{"coordinates":[8.562688,47.362882],"type":"Point"},"properties":{"osm_id":"5068728731","tag":{"amenity":"waste_basket"}},"type":"Feature"},
	{"geometry":{"coordinates":[8.562741,47.362802],"type":"Point"},"properties":{"osm_id":"5068728733","tag":{"amenity":"waste_basket"}},"type":"Feature"},
	{"geometry":{"coordinates":[8.565069,47.371084],"type":"Point"},"properties":{"osm_id":"5068728812","tag":{"amenity":"waste_basket"}},"type":"Feature"},
	{"geometry":{"coordinates":[8.565689,47.371279],"type":"Point"},"properties":{"osm_id":"5068728814","tag":{"amenity":"waste_basket","operator":"Robidog","vending":"excrement_bags"}},"type":"Feature"},
	{"geometry":{"coordinates":[8.555812,47.376361],"type":"Point"},"properties":{"osm_id":"5070369066","tag":{"amenity":"waste_basket"}},"type":"Feature"},
	{"geometry":{"coordinates":[8.565098,47.360393],"type":"Point"},"properties":{"osm_id":"5075203590","tag":{"amenity":"waste_basket"}},"type":"Feature"},
	{"geometry":{"coordinates":[8.568445,47.360186],"type":"Point"},"properties":{"osm_id":"5075203605","tag":{"amenity":"waste_basket"}},"type":"Feature"},
	{"geometry":{"coordinates":[8.568579,47.35981],"type":"Point"},"properties":{"osm_id":"5075203614","tag":{"amenity":"recycling","operator":"Texaid","recycling:clothes":"yes","recycling:shoes":"yes","recycling_type":"container"}},"type":"Feature"},
	{"geometry":{"coordinates":[8.529293,47.379041],"type":"Point"},"properties":{"osm_id":"5082669805","tag":{"amenity":"recycling","description":"Container: Metall (1), Gr\u00c3\u00bcnglas (2), Weissglas (1), Braunglas (1); Speise\u00c3\u00b6l/Mineral\u00c3\u00b6l","opening_hours":"Mo-Sa 07:00-20:00","operator":"ERZ","recycling:aluminium":"yes","recycling:cans":"yes","recycling:glass_bottles":"yes","recycling_type":"container","wheelchair":"yes"}},"type":"Feature"},
	{"geometry":{"coordinates":[8.544652,47.393699],"type":"Point"},"properties":{"osm_id":"5084699968","tag":{"amenity":"recycling","count":"3","operator":"Texaid","recycling:clothes":"yes","recycling:shoes":"yes","recycling_type":"container"}},"type":"Feature"},
	{"geometry":{"coordinates":[8.544174,47.380125],"type":"Point"},"properties":{"osm_id":"5104780318","tag":{"amenity":"waste_basket"}},"type":"Feature"},
	{"geometry":{"coordinates":[8.542128,47.385682],"type":"Point"},"properties":{"osm_id":"5104780336","tag":{"amenity":"waste_basket"}},"type":"Feature"},
	{"geometry":{"coordinates":[8.542625,47.385181],"type":"Point"},"properties":{"osm_id":"5104780339","tag":{"amenity":"waste_basket"}},"type":"Feature"},
	{"geometry":{"coordinates":[8.529903,47.343813],"type":"Point"},"properties":{"osm_id":"5115701085","tag":{"amenity":"waste_basket"}},"type":"Feature"},
	{"geometry":{"coordinates":[8.529892,47.343855],"type":"Point"},"properties":{"osm_id":"5115701086","tag":{"amenity":"waste_basket"}},"type":"Feature"},
	{"geometry":{"coordinates":[8.525546,47.36086],"type":"Point"},"properties":{"osm_id":"5115701106","tag":{"amenity":"waste_basket"}},"type":"Feature"},
	{"geometry":{"coordinates":[8.56949,47.350557],"type":"Point"},"properties":{"osm_id":"5122053868","tag":{"amenity":"waste_basket"}},"type":"Feature"},
	{"geometry":{"coordinates":[8.56926,47.350582],"type":"Point"},"properties":{"osm_id":"5122053875","tag":{"amenity":"waste_basket","vending":"excrement_bags"}},"type":"Feature"},
	{"geometry":{"coordinates":[8.570884,47.348721],"type":"Point"},"properties":{"osm_id":"5122053883","tag":{"amenity":"waste_basket"}},"type":"Feature"},
	{"geometry":{"coordinates":[8.574124,47.348172],"type":"Point"},"properties":{"osm_id":"5122053898","tag":{"amenity":"waste_basket"}},"type":"Feature"},
	{"geometry":{"coordinates":[8.566224,47.351931],"type":"Point"},"properties":{"osm_id":"5131801674","tag":{"amenity":"waste_basket"}},"type":"Feature"},
	{"geometry":{"coordinates":[8.566904,47.35175],"type":"Point"},"properties":{"osm_id":"5131801677","tag":{"amenity":"waste_basket"}},"type":"Feature"},
	{"geometry":{"coordinates":[8.527999,47.347921],"type":"Point"},"properties":{"osm_id":"5137182533","tag":{"amenity":"waste_basket"}},"type":"Feature"},
	{"geometry":{"coordinates":[8.527816,47.3484],"type":"Point"},"properties":{"osm_id":"5137182535","tag":{"amenity":"waste_basket"}},"type":"Feature"},
	{"geometry":{"coordinates":[8.526143,47.350505],"type":"Point"},"properties":{"osm_id":"5137182645","tag":{"amenity":"waste_basket","vending":"excrement_bags"}},"type":"Feature"},
	{"geometry":{"coordinates":[8.526516,47.35172],"type":"Point"},"properties":{"osm_id":"5137182678","tag":{"amenity":"waste_basket"}},"type":"Feature"},
	{"geometry":{"coordinates":[8.526076,47.354036],"type":"Point"},"properties":{"osm_id":"5137182791","tag":{"amenity":"waste_basket"}},"type":"Feature"},
	{"geometry":{"coordinates":[8.531589,47.340606],"type":"Point"},"properties":{"osm_id":"5137257223","tag":{"amenity":"waste_basket"}},"type":"Feature"},
	{"geometry":{"coordinates":[8.532861,47.340781],"type":"Point"},"properties":{"osm_id":"5138646291","tag":{"amenity":"waste_basket"}},"type":"Feature"},
	{"geometry":{"coordinates":[8.530187,47.377901],"type":"Point"},"properties":{"name":"zsge Recycling-Werkstatt","osm_id":"5169910275","tag":{"addr:city":"Z\u00c3\u00bcrich","addr:housenumber":"20","addr:postcode":"8004","addr:street":"Kanonengasse","amenity":"recycling","email":"recycling@zsge.ch","opening_hours":"Mo-Fr 09:00-11:30, 13:30-16:00; Tu 13:30-16:00","operator":"Z\u00c3\u00bcrcher Stiftung f\u00c3\u00bcr Gefangenen- und Entlassenenf\u00c3\u00bcrsorge","phone":"+41 44 296 80 08","recycling:batteries":"yes","recycling:electrical_appliances":"yes","recycling:electronics":"yes","recycling_type":"centre","website":"http://zsge.ch/sammelstelle/"}},"type":"Feature"},
	{"geometry":{"coordinates":[8.525464,47.34924],"type":"Point"},"properties":{"osm_id":"5215800458","tag":{"amenity":"waste_basket"}},"type":"Feature"},
	{"geometry":{"coordinates":[8.527876,47.350272],"type":"Point"},"properties":{"osm_id":"5215800469","tag":{"amenity":"waste_basket"}},"type":"Feature"},
	{"geometry":{"coordinates":[8.527731,47.35015],"type":"Point"},"properties":{"osm_id":"5215800471","tag":{"amenity":"waste_basket"}},"type":"Feature"},
	{"geometry":{"coordinates":[8.526936,47.355108],"type":"Point"},"properties":{"osm_id":"5215800487","tag":{"amenity":"waste_basket"}},"type":"Feature"},
	{"geometry":{"coordinates":[8.533816,47.345053],"type":"Point"},"properties":{"osm_id":"5224703305","tag":{"amenity":"waste_basket"}},"type":"Feature"},
	{"geometry":{"coordinates":[8.533149,47.344761],"type":"Point"},"properties":{"osm_id":"5224703308","tag":{"amenity":"waste_basket"}},"type":"Feature"},
	{"geometry":{"coordinates":[8.5332,47.344669],"type":"Point"},"properties":{"osm_id":"5224703316","tag":{"amenity":"waste_basket"}},"type":"Feature"},
	{"geometry":{"coordinates":[8.52657,47.344355],"type":"Point"},"properties":{"osm_id":"5224710791","tag":{"amenity":"waste_basket"}},"type":"Feature"},
	{"geometry":{"coordinates":[8.527763,47.345765],"type":"Point"},"properties":{"osm_id":"5224710992","tag":{"amenity":"waste_basket"}},"type":"Feature"},
	{"geometry":{"coordinates":[8.52641,47.34689],"type":"Point"},"properties":{"osm_id":"5224710995","tag":{"amenity":"recycling","operator":"Texaid","recycling:clothes":"yes","recycling:shoes":"yes","recycling_type":"container"}},"type":"Feature"},
	{"geometry":{"coordinates":[8.528197,47.342869],"type":"Point"},"properties":{"osm_id":"5229225611","tag":{"amenity":"waste_basket"}},"type":"Feature"},
	{"geometry":{"coordinates":[8.530377,47.351932],"type":"Point"},"properties":{"osm_id":"5232517480","tag":{"amenity":"waste_basket"}},"type":"Feature"},
	{"geometry":{"coordinates":[8.532419,47.362202],"type":"Point"},"properties":{"osm_id":"5242490856","tag":{"amenity":"waste_basket"}},"type":"Feature"},
	{"geometry":{"coordinates":[8.533267,47.360185],"type":"Point"},"properties":{"osm_id":"5242490874","tag":{"amenity":"waste_basket"}},"type":"Feature"},
	{"geometry":{"coordinates":[8.5321,47.35614],"type":"Point"},"properties":{"osm_id":"5242490897","tag":{"amenity":"waste_basket"}},"type":"Feature"},
	{"geometry":{"coordinates":[8.529471,47.349539],"type":"Point"},"properties":{"osm_id":"5242491680","tag":{"amenity":"waste_basket"}},"type":"Feature"},
	{"geometry":{"coordinates":[8.528768,47.359039],"type":"Point"},"properties":{"osm_id":"5245870163","tag":{"amenity":"waste_basket"}},"type":"Feature"},
	{"geometry":{"coordinates":[8.5356,47.360972],"type":"Point"},"properties":{"osm_id":"5250583329","tag":{"amenity":"recycling","description":"Container: Metall (1), Gr\u00c3\u00bcnglas (1), Weissglas (1), Braunglas (1)","opening_hours":"Mo-Sa 07:00-20:00","operator":"ERZ","recycling:aluminium":"yes","recycling:cans":"yes","recycling:glass_bottles":"yes","recycling_type":"container","wheelchair":"no"}},"type":"Feature"},
	{"geometry":{"coordinates":[8.535587,47.362778],"type":"Point"},"properties":{"osm_id":"5250583333","tag":{"amenity":"recycling","recycling:cans":"yes","recycling:plastic_bottles":"yes","recycling_type":"container"}},"type":"Feature"},
	{"geometry":{"coordinates":[8.535478,47.363545],"type":"Point"},"properties":{"osm_id":"5250583336","tag":{"amenity":"recycling","recycling:cans":"yes","recycling:plastic_bottles":"yes","recycling_type":"container"}},"type":"Feature"},
	{"geometry":{"coordinates":[8.535528,47.363533],"type":"Point"},"properties":{"osm_id":"5250583337","tag":{"amenity":"waste_basket"}},"type":"Feature"},
	{"geometry":{"coordinates":[8.590003,47.358737],"type":"Point"},"properties":{"osm_id":"5251995800","tag":{"amenity":"waste_basket"}},"type":"Feature"},
	{"geometry":{"coordinates":[8.53605,47.34131],"type":"Point"},"properties":{"osm_id":"5254058921","tag":{"amenity":"waste_basket"}},"type":"Feature"},
	{"geometry":{"coordinates":[8.536432,47.373064],"type":"Point"},"properties":{"osm_id":"5257661203","tag":{"amenity":"waste_basket"}},"type":"Feature"},
	{"geometry":{"coordinates":[8.532562,47.370596],"type":"Point"},"properties":{"osm_id":"5257663336","tag":{"amenity":"waste_basket"}},"type":"Feature"},
	{"geometry":{"coordinates":[8.535638,47.369109],"type":"Point"},"properties":{"osm_id":"5257663379","tag":{"amenity":"waste_basket"}},"type":"Feature"},
	{"geometry":{"coordinates":[8.536161,47.369158],"type":"Point"},"properties":{"osm_id":"5257663383","tag":{"amenity":"waste_basket"}},"type":"Feature"},
	{"geometry":{"coordinates":[8.53592,47.369211],"type":"Point"},"properties":{"osm_id":"5257663384","tag":{"amenity":"waste_basket"}},"type":"Feature"},
	{"geometry":{"coordinates":[8.526505,47.365178],"type":"Point"},"properties":{"osm_id":"5266883126","tag":{"amenity":"waste_basket"}},"type":"Feature"},
	{"geometry":{"coordinates":[8.526399,47.365306],"type":"Point"},"properties":{"osm_id":"5266883135","tag":{"amenity":"waste_basket"}},"type":"Feature"},
	{"geometry":{"coordinates":[8.59305,47.377907],"type":"Point"},"properties":{"osm_id":"5270577329","tag":{"amenity":"waste_basket"}},"type":"Feature"},
	{"geometry":{"coordinates":[8.606287,47.37631],"type":"Point"},"properties":{"osm_id":"5272150337","tag":{"amenity":"waste_basket"}},"type":"Feature"},
	{"geometry":{"coordinates":[8.577426,47.376025],"type":"Point"},"properties":{"osm_id":"5272786919","tag":{"amenity":"waste_basket"}},"type":"Feature"},
	{"geometry":{"coordinates":[8.556256,47.374426],"type":"Point"},"properties":{"osm_id":"5280541437","tag":{"amenity":"waste_basket"}},"type":"Feature"},
	{"geometry":{"coordinates":[8.552436,47.391385],"type":"Point"},"properties":{"osm_id":"5280776571","tag":{"amenity":"waste_basket"}},"type":"Feature"},
	{"geometry":{"coordinates":[8.588591,47.360857],"type":"Point"},"properties":{"osm_id":"5282110339","tag":{"amenity":"waste_basket"}},"type":"Feature"},
	{"geometry":{"coordinates":[8.585129,47.358836],"type":"Point"},"properties":{"osm_id":"5282110371","tag":{"amenity":"waste_basket"}},"type":"Feature"},
	{"geometry":{"coordinates":[8.585503,47.359723],"type":"Point"},"properties":{"osm_id":"5282110372","tag":{"amenity":"waste_basket"}},"type":"Feature"},
	{"geometry":{"coordinates":[8.554197,47.369405],"type":"Point"},"properties":{"osm_id":"5295634586","tag":{"amenity":"waste_basket"}},"type":"Feature"},
	{"geometry":{"coordinates":[8.525994,47.376326],"type":"Point"},"properties":{"osm_id":"5296075064","tag":{"amenity":"waste_basket"}},"type":"Feature"},
	{"geometry":{"coordinates":[8.525886,47.376257],"type":"Point"},"properties":{"osm_id":"5296075066","tag":{"amenity":"waste_basket"}},"type":"Feature"},
	{"geometry":{"coordinates":[8.534638,47.37277],"type":"Point"},"properties":{"osm_id":"5297551736","tag":{"amenity":"waste_basket"}},"type":"Feature"},
	{"geometry":{"coordinates":[8.540509,47.369706],"type":"Point"},"properties":{"osm_id":"5300681918","tag":{"amenity":"waste_disposal","waste":"trash"}},"type":"Feature"},
	{"geometry":{"coordinates":[8.565053,47.3623],"type":"Point"},"properties":{"osm_id":"5302540921","tag":{"amenity":"waste_basket"}},"type":"Feature"},
	{"geometry":{"coordinates":[8.565055,47.362574],"type":"Point"},"properties":{"osm_id":"5302559421","tag":{"amenity":"waste_basket"}},"type":"Feature"},
	{"geometry":{"coordinates":[8.565262,47.361783],"type":"Point"},"properties":{"osm_id":"5302559521","tag":{"amenity":"waste_basket"}},"type":"Feature"},
	{"geometry":{"coordinates":[8.532304,47.381022],"type":"Point"},"properties":{"osm_id":"5318671896","tag":{"amenity":"waste_basket"}},"type":"Feature"},
	{"geometry":{"coordinates":[8.536543,47.381971],"type":"Point"},"properties":{"osm_id":"5318671908","tag":{"amenity":"waste_basket"}},"type":"Feature"},
	{"geometry":{"coordinates":[8.561598,47.373288],"type":"Point"},"properties":{"osm_id":"5319946470","tag":{"amenity":"waste_basket"}},"type":"Feature"},
	{"geometry":{"coordinates":[8.564133,47.369739],"type":"Point"},"properties":{"osm_id":"5321772951","tag":{"amenity":"waste_basket"}},"type":"Feature"},
	{"geometry":{"coordinates":[8.560777,47.36372],"type":"Point"},"properties":{"osm_id":"5323724891","tag":{"amenity":"waste_basket","vending":"excrement_bags"}},"type":"Feature"},
	{"geometry":{"coordinates":[8.60499,47.348293],"type":"Point"},"properties":{"osm_id":"5326214744","tag":{"amenity":"recycling","recycling:glass":"yes","recycling_type":"container","wheelchair":"yes"}},"type":"Feature"},
	{"geometry":{"coordinates":[8.604976,47.348317],"type":"Point"},"properties":{"osm_id":"5326214745","tag":{"amenity":"waste_disposal"}},"type":"Feature"},
	{"geometry":{"coordinates":[8.604959,47.348306],"type":"Point"},"properties":{"osm_id":"5326214746","tag":{"amenity":"waste_disposal"}},"type":"Feature"},
	{"geometry":{"coordinates":[8.549613,47.380812],"type":"Point"},"properties":{"osm_id":"5331510794","tag":{"amenity":"waste_basket"}},"type":"Feature"},
	{"geometry":{"coordinates":[8.549585,47.382662],"type":"Point"},"properties":{"osm_id":"5331510807","tag":{"amenity":"waste_basket"}},"type":"Feature"},
	{"geometry":{"coordinates":[8.535076,47.363232],"type":"Point"},"properties":{"osm_id":"5356681352","tag":{"amenity":"waste_basket"}},"type":"Feature"},
	{"geometry":{"coordinates":[8.535375,47.362993],"type":"Point"},"properties":{"osm_id":"5356681353","tag":{"amenity":"waste_basket"}},"type":"Feature"},
	{"geometry":{"coordinates":[8.548394,47.369353],"type":"Point"},"properties":{"osm_id":"5356681363","tag":{"amenity":"waste_basket"}},"type":"Feature"},
	{"geometry":{"coordinates":[8.538342,47.391818],"type":"Point"},"properties":{"osm_id":"5370581672","tag":{"amenity":"waste_basket"}},"type":"Feature"},
	{"geometry":{"coordinates":[8.552091,47.382149],"type":"Point"},"properties":{"osm_id":"5382877320","tag":{"amenity":"waste_basket"}},"type":"Feature"},
	{"geometry":{"coordinates":[8.552242,47.382407],"type":"Point"},"properties":{"osm_id":"5382878133","tag":{"amenity":"waste_basket"}},"type":"Feature"},
	{"geometry":{"coordinates":[8.555966,47.380906],"type":"Point"},"properties":{"osm_id":"5382878145","tag":{"amenity":"waste_basket"}},"type":"Feature"},
	{"geometry":{"coordinates":[8.559067,47.379251],"type":"Point"},"properties":{"osm_id":"5382878174","tag":{"amenity":"waste_basket"}},"type":"Feature"},
	{"geometry":{"coordinates":[8.548123,47.383148],"type":"Point"},"properties":{"osm_id":"5386899512","tag":{"amenity":"waste_basket"}},"type":"Feature"},
	{"geometry":{"coordinates":[8.548229,47.383151],"type":"Point"},"properties":{"osm_id":"5386899513","tag":{"amenity":"waste_basket"}},"type":"Feature"},
	{"geometry":{"coordinates":[8.549348,47.383507],"type":"Point"},"properties":{"osm_id":"5386900833","tag":{"amenity":"waste_basket"}},"type":"Feature"},
	{"geometry":{"coordinates":[8.549115,47.383477],"type":"Point"},"properties":{"osm_id":"5386900835","tag":{"amenity":"waste_basket"}},"type":"Feature"},
	{"geometry":{"coordinates":[8.571739,47.347035],"type":"Point"},"properties":{"osm_id":"5388185641","tag":{"amenity":"waste_basket"}},"type":"Feature"},
	{"geometry":{"coordinates":[8.531906,47.357983],"type":"Point"},"properties":{"osm_id":"5395506482","tag":{"amenity":"waste_basket"}},"type":"Feature"},
	{"geometry":{"coordinates":[8.529897,47.358774],"type":"Point"},"properties":{"osm_id":"5395506483","tag":{"amenity":"waste_basket"}},"type":"Feature"},
	{"geometry":{"coordinates":[8.530535,47.358278],"type":"Point"},"properties":{"osm_id":"5395506486","tag":{"amenity":"waste_basket"}},"type":"Feature"},
	{"geometry":{"coordinates":[8.531174,47.359272],"type":"Point"},"properties":{"osm_id":"5395506487","tag":{"amenity":"waste_basket"}},"type":"Feature"},
	{"geometry":{"coordinates":[8.552427,47.380283],"type":"Point"},"properties":{"osm_id":"5400894653","tag":{"amenity":"waste_basket"}},"type":"Feature"},
	{"geometry":{"coordinates":[8.547491,47.372765],"type":"Point"},"properties":{"osm_id":"5403574173","tag":{"amenity":"waste_basket"}},"type":"Feature"},
	{"geometry":{"coordinates":[8.547318,47.372804],"type":"Point"},"properties":{"osm_id":"5403574174","tag":{"amenity":"waste_basket"}},"type":"Feature"},
	{"geometry":{"coordinates":[8.554889,47.357964],"type":"Point"},"properties":{"osm_id":"5406207391","tag":{"amenity":"waste_basket"}},"type":"Feature"},
	{"geometry":{"coordinates":[8.553835,47.358563],"type":"Point"},"properties":{"osm_id":"5406207395","tag":{"amenity":"waste_basket"}},"type":"Feature"},
	{"geometry":{"coordinates":[8.554228,47.357802],"type":"Point"},"properties":{"osm_id":"5406209148","tag":{"amenity":"waste_basket"}},"type":"Feature"},
	{"geometry":{"coordinates":[8.57394,47.379208],"type":"Point"},"properties":{"osm_id":"5420271017","tag":{"amenity":"waste_basket","vending":"excrement_bags"}},"type":"Feature"},
	{"geometry":{"coordinates":[8.577927,47.38532],"type":"Point"},"properties":{"osm_id":"5420271081","tag":{"amenity":"waste_basket","vending":"excrement_bags"}},"type":"Feature"},
	{"geometry":{"coordinates":[8.576873,47.384623],"type":"Point"},"properties":{"osm_id":"5420271101","tag":{"amenity":"waste_basket"}},"type":"Feature"},
	{"geometry":{"coordinates":[8.552381,47.360228],"type":"Point"},"properties":{"osm_id":"5424790083","tag":{"amenity":"waste_basket"}},"type":"Feature"},
	{"geometry":{"coordinates":[8.552586,47.359982],"type":"Point"},"properties":{"osm_id":"5424790086","tag":{"amenity":"waste_basket"}},"type":"Feature"},
	{"geometry":{"coordinates":[8.558032,47.357342],"type":"Point"},"properties":{"osm_id":"5426985208","tag":{"amenity":"waste_basket","operator":"Robidog","vending":"excrement_bags"}},"type":"Feature"},
	{"geometry":{"coordinates":[8.550775,47.364604],"type":"Point"},"properties":{"osm_id":"5426985270","tag":{"amenity":"recycling","operator":"Texaid","recycling:clothes":"yes","recycling:shoes":"yes","recycling_type":"container"}},"type":"Feature"},
	{"geometry":{"coordinates":[8.589731,47.394671],"type":"Point"},"properties":{"osm_id":"5435535637","tag":{"amenity":"waste_basket","waste":"trash"}},"type":"Feature"},
	{"geometry":{"coordinates":[8.558377,47.38209],"type":"Point"},"properties":{"osm_id":"5437863354","tag":{"amenity":"waste_basket"}},"type":"Feature"},
	{"geometry":{"coordinates":[8.557372,47.383034],"type":"Point"},"properties":{"osm_id":"5437863394","tag":{"amenity":"waste_basket","vending":"excrement_bags"}},"type":"Feature"},
	{"geometry":{"coordinates":[8.55609,47.386274],"type":"Point"},"properties":{"osm_id":"5437863625","tag":{"amenity":"waste_basket"}},"type":"Feature"},
	{"geometry":{"coordinates":[8.556167,47.386351],"type":"Point"},"properties":{"osm_id":"5437863629","tag":{"amenity":"waste_basket"}},"type":"Feature"},
	{"geometry":{"coordinates":[8.556273,47.386314],"type":"Point"},"properties":{"osm_id":"5437863632","tag":{"amenity":"waste_basket","vending":"excrement_bags"}},"type":"Feature"},
	{"geometry":{"coordinates":[8.560792,47.384203],"type":"Point"},"properties":{"osm_id":"5437863682","tag":{"amenity":"waste_basket"}},"type":"Feature"},
	{"geometry":{"coordinates":[8.561417,47.383979],"type":"Point"},"properties":{"osm_id":"5437863688","tag":{"amenity":"waste_basket"}},"type":"Feature"},
	{"geometry":{"coordinates":[8.562256,47.383051],"type":"Point"},"properties":{"osm_id":"5437863691","tag":{"amenity":"waste_basket","vending":"excrement_bags"}},"type":"Feature"},
	{"geometry":{"coordinates":[8.564513,47.381656],"type":"Point"},"properties":{"osm_id":"5437863705","tag":{"amenity":"waste_basket"}},"type":"Feature"},
	{"geometry":{"coordinates":[8.565191,47.381447],"type":"Point"},"properties":{"osm_id":"5437863708","tag":{"amenity":"waste_basket"}},"type":"Feature"},
	{"geometry":{"coordinates":[8.565929,47.383125],"type":"Point"},"properties":{"osm_id":"5437863953","tag":{"amenity":"waste_basket"}},"type":"Feature"},
	{"geometry":{"coordinates":[8.560247,47.376583],"type":"Point"},"properties":{"osm_id":"5442187909","tag":{"amenity":"waste_basket"}},"type":"Feature"},
	{"geometry":{"coordinates":[8.558207,47.381939],"type":"Point"},"properties":{"osm_id":"5442187926","tag":{"amenity":"waste_basket"}},"type":"Feature"},
	{"geometry":{"coordinates":[8.56164,47.380846],"type":"Point"},"properties":{"osm_id":"5442187954","tag":{"amenity":"waste_basket"}},"type":"Feature"},
	{"geometry":{"coordinates":[8.563622,47.375427],"type":"Point"},"properties":{"osm_id":"5445847126","tag":{"amenity":"waste_basket","vending":"excrement_bags"}},"type":"Feature"},
	{"geometry":{"coordinates":[8.564734,47.375659],"type":"Point"},"properties":{"osm_id":"5445847136","tag":{"amenity":"waste_basket"}},"type":"Feature"},
	{"geometry":{"coordinates":[8.562513,47.377628],"type":"Point"},"properties":{"osm_id":"5445847151","tag":{"amenity":"waste_basket"}},"type":"Feature"},
	{"geometry":{"coordinates":[8.554614,47.355193],"type":"Point"},"properties":{"osm_id":"5446752189","tag":{"amenity":"waste_basket"}},"type":"Feature"},
	{"geometry":{"coordinates":[8.554714,47.353629],"type":"Point"},"properties":{"osm_id":"5446752323","tag":{"amenity":"waste_basket"}},"type":"Feature"},
	{"geometry":{"coordinates":[8.557135,47.353019],"type":"Point"},"properties":{"osm_id":"5446752349","tag":{"amenity":"waste_basket","vending":"excrement_bags"}},"type":"Feature"},
	{"geometry":{"coordinates":[8.562766,47.356005],"type":"Point"},"properties":{"osm_id":"5464697402","tag":{"amenity":"waste_basket","vending":"excrement_bags"}},"type":"Feature"},
	{"geometry":{"coordinates":[8.564646,47.352485],"type":"Point"},"properties":{"osm_id":"5464697413","tag":{"amenity":"waste_basket"}},"type":"Feature"},
	{"geometry":{"coordinates":[8.552072,47.390225],"type":"Point"},"properties":{"osm_id":"5475863394","tag":{"amenity":"waste_basket"}},"type":"Feature"},
	{"geometry":{"coordinates":[8.55272,47.388915],"type":"Point"},"properties":{"osm_id":"5475863414","tag":{"amenity":"waste_basket"}},"type":"Feature"},
	{"geometry":{"coordinates":[8.555523,47.381335],"type":"Point"},"properties":{"osm_id":"5478272799","tag":{"amenity":"waste_basket"}},"type":"Feature"},
	{"geometry":{"coordinates":[8.556683,47.381414],"type":"Point"},"properties":{"osm_id":"5478272817","tag":{"amenity":"waste_basket"}},"type":"Feature"},
	{"geometry":{"coordinates":[8.554422,47.384723],"type":"Point"},"properties":{"osm_id":"5478278935","tag":{"amenity":"waste_basket"}},"type":"Feature"},
	{"geometry":{"coordinates":[8.545574,47.391198],"type":"Point"},"properties":{"osm_id":"5478295300","tag":{"amenity":"waste_basket"}},"type":"Feature"},
	{"geometry":{"coordinates":[8.552391,47.389928],"type":"Point"},"properties":{"osm_id":"5480703821","tag":{"amenity":"waste_basket"}},"type":"Feature"},
	{"geometry":{"coordinates":[8.553985,47.383603],"type":"Point"},"properties":{"osm_id":"5480703836","tag":{"amenity":"waste_basket"}},"type":"Feature"},
	{"geometry":{"coordinates":[8.560298,47.382086],"type":"Point"},"properties":{"osm_id":"5505798765","tag":{"amenity":"waste_basket","vending":"excrement_bags"}},"type":"Feature"},
	{"geometry":{"coordinates":[8.544036,47.380135],"type":"Point"},"properties":{"osm_id":"5511157760","tag":{"amenity":"waste_basket"}},"type":"Feature"},
	{"geometry":{"coordinates":[8.54898,47.389843],"type":"Point"},"properties":{"osm_id":"5513601003","tag":{"amenity":"waste_basket"}},"type":"Feature"},
	{"geometry":{"coordinates":[8.550057,47.387798],"type":"Point"},"properties":{"osm_id":"5513601010","tag":{"amenity":"waste_basket"}},"type":"Feature"},
	{"geometry":{"coordinates":[8.562708,47.372932],"type":"Point"},"properties":{"osm_id":"5518321513","tag":{"amenity":"waste_basket"}},"type":"Feature"},
	{"geometry":{"coordinates":[8.550802,47.389926],"type":"Point"},"properties":{"osm_id":"5518502269","tag":{"amenity":"waste_basket"}},"type":"Feature"},
	{"geometry":{"coordinates":[8.544104,47.387647],"type":"Point"},"properties":{"osm_id":"5522497592","tag":{"amenity":"waste_basket"}},"type":"Feature"},
	{"geometry":{"coordinates":[8.544257,47.38774],"type":"Point"},"properties":{"osm_id":"5522497593","tag":{"amenity":"waste_basket"}},"type":"Feature"},
	{"geometry":{"coordinates":[8.598956,47.363785],"type":"Point"},"properties":{"osm_id":"5522895537","tag":{"amenity":"waste_basket","waste":"trash"}},"type":"Feature"},
	{"geometry":{"coordinates":[8.539229,47.388093],"type":"Point"},"properties":{"osm_id":"5524043277","tag":{"amenity":"waste_basket"}},"type":"Feature"},
	{"geometry":{"coordinates":[8.536145,47.390981],"type":"Point"},"properties":{"osm_id":"5531155553","tag":{"amenity":"waste_basket"}},"type":"Feature"},
	{"geometry":{"coordinates":[8.535628,47.391427],"type":"Point"},"properties":{"osm_id":"5531155560","tag":{"amenity":"waste_basket"}},"type":"Feature"},
	{"geometry":{"coordinates":[8.535468,47.391272],"type":"Point"},"properties":{"osm_id":"5531155561","tag":{"amenity":"waste_basket"}},"type":"Feature"},
	{"geometry":{"coordinates":[8.529897,47.393416],"type":"Point"},"properties":{"osm_id":"5536093172","tag":{"amenity":"waste_basket"}},"type":"Feature"},
	{"geometry":{"coordinates":[8.538946,47.387149],"type":"Point"},"properties":{"osm_id":"5538143377","tag":{"amenity":"waste_basket"}},"type":"Feature"},
	{"geometry":{"coordinates":[8.539789,47.387142],"type":"Point"},"properties":{"osm_id":"5538143927","tag":{"amenity":"waste_basket"}},"type":"Feature"},
	{"geometry":{"coordinates":[8.540418,47.391322],"type":"Point"},"properties":{"osm_id":"5540619051","tag":{"amenity":"waste_basket"}},"type":"Feature"},
	{"geometry":{"coordinates":[8.53643,47.388243],"type":"Point"},"properties":{"osm_id":"5542803694","tag":{"amenity":"waste_basket"}},"type":"Feature"},
	{"geometry":{"coordinates":[8.529627,47.39333],"type":"Point"},"properties":{"osm_id":"5542807485","tag":{"amenity":"waste_basket"}},"type":"Feature"},
	{"geometry":{"coordinates":[8.529848,47.393257],"type":"Point"},"properties":{"osm_id":"5542807496","tag":{"amenity":"waste_basket"}},"type":"Feature"},
	{"geometry":{"coordinates":[8.53294,47.391044],"type":"Point"},"properties":{"osm_id":"5542807509","tag":{"amenity":"waste_basket"}},"type":"Feature"},
	{"geometry":{"coordinates":[8.534029,47.388334],"type":"Point"},"properties":{"osm_id":"5542807726","tag":{"amenity":"waste_basket"}},"type":"Feature"},
	{"geometry":{"coordinates":[8.539814,47.392456],"type":"Point"},"properties":{"osm_id":"5542807782","tag":{"amenity":"waste_disposal"}},"type":"Feature"},
	{"geometry":{"coordinates":[8.539545,47.392098],"type":"Point"},"properties":{"osm_id":"5542807783","tag":{"amenity":"waste_basket"}},"type":"Feature"},
	{"geometry":{"coordinates":[8.532404,47.390191],"type":"Point"},"properties":{"osm_id":"5556899585","tag":{"amenity":"waste_basket"}},"type":"Feature"},
	{"geometry":{"coordinates":[8.527225,47.39719],"type":"Point"},"properties":{"osm_id":"5562302142","tag":{"amenity":"recycling","operator":"Texaid","recycling:clothes":"yes","recycling:shoes":"yes","recycling_type":"container"}},"type":"Feature"},
	{"geometry":{"coordinates":[8.554741,47.358903],"type":"Point"},"properties":{"osm_id":"5566971753","tag":{"amenity":"recycling","operator":"Texaid","recycling:clothes":"yes","recycling:shoes":"yes","recycling_type":"container"}},"type":"Feature"},
	{"geometry":{"coordinates":[8.552557,47.357814],"type":"Point"},"properties":{"osm_id":"5566992569","tag":{"amenity":"waste_basket"}},"type":"Feature"},
	{"geometry":{"coordinates":[8.527923,47.394609],"type":"Point"},"properties":{"osm_id":"5576447532","tag":{"amenity":"waste_basket"}},"type":"Feature"},
	{"geometry":{"coordinates":[8.599383,47.369636],"type":"Point"},"properties":{"osm_id":"5613403138","tag":{"amenity":"waste_basket","waste":"trash"}},"type":"Feature"},
	{"geometry":{"coordinates":[8.529135,47.397759],"type":"Point"},"properties":{"osm_id":"5617898540","tag":{"amenity":"waste_basket"}},"type":"Feature"},
	{"geometry":{"coordinates":[8.52837,47.398059],"type":"Point"},"properties":{"osm_id":"5617898546","tag":{"amenity":"waste_basket"}},"type":"Feature"},
	{"geometry":{"coordinates":[8.591455,47.35799],"type":"Point"},"properties":{"osm_id":"5653959450","tag":{"amenity":"waste_basket"}},"type":"Feature"},
	{"geometry":{"coordinates":[8.571099,47.361179],"type":"Point"},"properties":{"osm_id":"5655744069","tag":{"amenity":"waste_basket"}},"type":"Feature"},
	{"geometry":{"coordinates":[8.571165,47.36383],"type":"Point"},"properties":{"osm_id":"5655744079","tag":{"amenity":"waste_basket","vending":"excrement_bags"}},"type":"Feature"},
	{"geometry":{"coordinates":[8.57363,47.364913],"type":"Point"},"properties":{"osm_id":"5655744095","tag":{"amenity":"waste_basket","vending":"excrement_bags"}},"type":"Feature"},
	{"geometry":{"coordinates":[8.573825,47.36317],"type":"Point"},"properties":{"osm_id":"5655744101","tag":{"amenity":"waste_basket"}},"type":"Feature"},
	{"geometry":{"coordinates":[8.578744,47.360379],"type":"Point"},"properties":{"osm_id":"5656607218","tag":{"amenity":"waste_basket"}},"type":"Feature"},
	{"geometry":{"coordinates":[8.586374,47.357278],"type":"Point"},"properties":{"osm_id":"5656607762","tag":{"amenity":"waste_basket"}},"type":"Feature"},
	{"geometry":{"coordinates":[8.560106,47.367723],"type":"Point"},"properties":{"osm_id":"5663117753","tag":{"amenity":"waste_basket"}},"type":"Feature"},
	{"geometry":{"coordinates":[8.566782,47.375033],"type":"Point"},"properties":{"osm_id":"5663118223","tag":{"amenity":"waste_basket"}},"type":"Feature"},
	{"geometry":{"coordinates":[8.56037,47.368109],"type":"Point"},"properties":{"osm_id":"5663118225","tag":{"amenity":"waste_basket"}},"type":"Feature"},
	{"geometry":{"coordinates":[8.560305,47.367725],"type":"Point"},"properties":{"osm_id":"5663118236","tag":{"amenity":"waste_basket"}},"type":"Feature"},
	{"geometry":{"coordinates":[8.579028,47.360429],"type":"Point"},"properties":{"osm_id":"5663853068","tag":{"amenity":"waste_basket"}},"type":"Feature"},
	{"geometry":{"coordinates":[8.593994,47.359839],"type":"Point"},"properties":{"osm_id":"5672026564","tag":{"amenity":"waste_basket"}},"type":"Feature"},
	{"geometry":{"coordinates":[8.591351,47.361035],"type":"Point"},"properties":{"osm_id":"5674611731","tag":{"amenity":"waste_basket","operator":"Robidog","vending":"excrement_bags"}},"type":"Feature"},
	{"geometry":{"coordinates":[8.586785,47.383455],"type":"Point"},"properties":{"osm_id":"5679710100","tag":{"amenity":"waste_basket"}},"type":"Feature"},
	{"geometry":{"coordinates":[8.587199,47.383459],"type":"Point"},"properties":{"osm_id":"5679710103","tag":{"amenity":"waste_basket"}},"type":"Feature"},
	{"geometry":{"coordinates":[8.529542,47.377061],"type":"Point"},"properties":{"osm_id":"5680499488","tag":{"amenity":"waste_basket"}},"type":"Feature"},
	{"geometry":{"coordinates":[8.526126,47.376243],"type":"Point"},"properties":{"osm_id":"5682256150","tag":{"amenity":"waste_basket"}},"type":"Feature"},
	{"geometry":{"coordinates":[8.526027,47.376164],"type":"Point"},"properties":{"osm_id":"5682256152","tag":{"amenity":"waste_basket"}},"type":"Feature"},
	{"geometry":{"coordinates":[8.545024,47.367494],"type":"Point"},"properties":{"osm_id":"5717871968","tag":{"amenity":"waste_basket"}},"type":"Feature"},
	{"geometry":{"coordinates":[8.545823,47.36693],"type":"Point"},"properties":{"osm_id":"5717871970","tag":{"amenity":"waste_basket"}},"type":"Feature"},
	{"geometry":{"coordinates":[8.54568,47.36675],"type":"Point"},"properties":{"osm_id":"5717871976","tag":{"amenity":"waste_basket"}},"type":"Feature"},
	{"geometry":{"coordinates":[8.54508,47.366556],"type":"Point"},"properties":{"osm_id":"5717871996","tag":{"amenity":"waste_basket"}},"type":"Feature"},
	{"geometry":{"coordinates":[8.583644,47.396128],"type":"Point"},"properties":{"osm_id":"5721925031","tag":{"amenity":"waste_basket","bin":"yes","vending":"excrement_bags"}},"type":"Feature"},
	{"geometry":{"coordinates":[8.530208,47.340902],"type":"Point"},"properties":{"osm_id":"5725291258","tag":{"amenity":"waste_basket","manufacturer":"Anta Swiss"}},"type":"Feature"},
	{"geometry":{"coordinates":[8.570945,47.347351],"type":"Point"},"properties":{"osm_id":"5731856185","tag":{"amenity":"waste_basket"}},"type":"Feature"},
	{"geometry":{"coordinates":[8.53382,47.377266],"type":"Point"},"properties":{"osm_id":"5736252078","tag":{"amenity":"waste_basket","manufacturer":"Anta Swiss"}},"type":"Feature"},
	{"geometry":{"coordinates":[8.534388,47.376904],"type":"Point"},"properties":{"osm_id":"5736252079","tag":{"amenity":"waste_basket","manufacturer":"Anta Swiss"}},"type":"Feature"},
	{"geometry":{"coordinates":[8.53293,47.377833],"type":"Point"},"properties":{"osm_id":"5736252080","tag":{"amenity":"waste_basket","manufacturer":"Anta Swiss"}},"type":"Feature"},
	{"geometry":{"coordinates":[8.534218,47.347942],"type":"Point"},"properties":{"osm_id":"5741391939","tag":{"amenity":"waste_basket"}},"type":"Feature"},
	{"geometry":{"coordinates":[8.534459,47.34723],"type":"Point"},"properties":{"osm_id":"5741391941","tag":{"amenity":"waste_basket"}},"type":"Feature"},
	{"geometry":{"coordinates":[8.544588,47.367208],"type":"Point"},"properties":{"osm_id":"5741746422","tag":{"amenity":"waste_basket"}},"type":"Feature"},
	{"geometry":{"coordinates":[8.546646,47.368281],"type":"Point"},"properties":{"osm_id":"5741748322","tag":{"amenity":"waste_basket","manufacturer":"Anta Swiss"}},"type":"Feature"},
	{"geometry":{"coordinates":[8.544177,47.367199],"type":"Point"},"properties":{"osm_id":"5741748423","tag":{"amenity":"waste_basket"}},"type":"Feature"},
	{"geometry":{"coordinates":[8.541883,47.366797],"type":"Point"},"properties":{"osm_id":"5741752223","tag":{"amenity":"waste_basket"}},"type":"Feature"},
	{"geometry":{"coordinates":[8.540535,47.366613],"type":"Point"},"properties":{"osm_id":"5741752224","tag":{"amenity":"waste_basket","manufacturer":"Anta Swiss"}},"type":"Feature"},
	{"geometry":{"coordinates":[8.600953,47.39193],"type":"Point"},"properties":{"osm_id":"5750261923","tag":{"amenity":"waste_basket"}},"type":"Feature"},
	{"geometry":{"coordinates":[8.549103,47.370331],"type":"Point"},"properties":{"osm_id":"5750262030","tag":{"amenity":"waste_basket"}},"type":"Feature"},
	{"geometry":{"coordinates":[8.546267,47.368108],"type":"Point"},"properties":{"osm_id":"5750262031","tag":{"amenity":"waste_basket","manufacturer":"Anta Swiss"}},"type":"Feature"},
	{"geometry":{"coordinates":[8.599889,47.397618],"type":"Point"},"properties":{"osm_id":"5750289821","tag":{"amenity":"waste_basket"}},"type":"Feature"},
	{"geometry":{"coordinates":[8.550583,47.372474],"type":"Point"},"properties":{"osm_id":"5750290022","tag":{"amenity":"waste_basket"}},"type":"Feature"},
	{"geometry":{"coordinates":[8.548721,47.370132],"type":"Point"},"properties":{"osm_id":"5750290023","tag":{"amenity":"waste_basket"}},"type":"Feature"},
	{"geometry":{"coordinates":[8.553312,47.373575],"type":"Point"},"properties":{"osm_id":"5750290121","tag":{"amenity":"waste_basket"}},"type":"Feature"},
	{"geometry":{"coordinates":[8.534433,47.350926],"type":"Point"},"properties":{"osm_id":"5751475323","tag":{"amenity":"waste_basket"}},"type":"Feature"},
	{"geometry":{"coordinates":[8.539108,47.365405],"type":"Point"},"properties":{"osm_id":"5751491021","tag":{"amenity":"waste_basket"}},"type":"Feature"},
	{"geometry":{"coordinates":[8.550565,47.378439],"type":"Point"},"properties":{"osm_id":"5753199830","tag":{"amenity":"waste_basket"}},"type":"Feature"},
	{"geometry":{"coordinates":[8.550135,47.378613],"type":"Point"},"properties":{"osm_id":"5753205321","tag":{"amenity":"waste_basket"}},"type":"Feature"},
	{"geometry":{"coordinates":[8.547882,47.365264],"type":"Point"},"properties":{"osm_id":"5754194649","tag":{"amenity":"waste_basket"}},"type":"Feature"},
	{"geometry":{"coordinates":[8.544775,47.367265],"type":"Point"},"properties":{"osm_id":"5754831321","tag":{"amenity":"waste_basket"}},"type":"Feature"},
	{"geometry":{"coordinates":[8.539595,47.366026],"type":"Point"},"properties":{"osm_id":"5754831421","tag":{"amenity":"waste_basket","layer":"1","manufacturer":"Anta Swiss"}},"type":"Feature"},
	{"geometry":{"coordinates":[8.575474,47.378785],"type":"Point"},"properties":{"osm_id":"5756646758","tag":{"amenity":"waste_basket","manufacturer":"Anta Swiss"}},"type":"Feature"},
	{"geometry":{"coordinates":[8.575772,47.378835],"type":"Point"},"properties":{"osm_id":"5756646759","tag":{"amenity":"waste_basket","manufacturer":"Anta Swiss"}},"type":"Feature"},
	{"geometry":{"coordinates":[8.579528,47.374457],"type":"Point"},"properties":{"osm_id":"5756646869","tag":{"amenity":"waste_basket","vending":"excrement_bags"}},"type":"Feature"},
	{"geometry":{"coordinates":[8.560754,47.368411],"type":"Point"},"properties":{"osm_id":"5756647310","tag":{"amenity":"waste_basket","manufacturer":"Anta Swiss"}},"type":"Feature"},
	{"geometry":{"coordinates":[8.556528,47.36935],"type":"Point"},"properties":{"osm_id":"5757320962","tag":{"amenity":"waste_basket","manufacturer":"Anta Swiss"}},"type":"Feature"},
	{"geometry":{"coordinates":[8.55658,47.369527],"type":"Point"},"properties":{"osm_id":"5757320963","tag":{"amenity":"waste_basket"}},"type":"Feature"},
	{"geometry":{"coordinates":[8.555879,47.369588],"type":"Point"},"properties":{"osm_id":"5757320971","tag":{"amenity":"waste_basket","manufacturer":"Anta Swiss"}},"type":"Feature"},
	{"geometry":{"coordinates":[8.555428,47.369283],"type":"Point"},"properties":{"osm_id":"5757320974","tag":{"amenity":"waste_basket"}},"type":"Feature"},
	{"geometry":{"coordinates":[8.552101,47.370034],"type":"Point"},"properties":{"osm_id":"5757320975","tag":{"amenity":"waste_basket"}},"type":"Feature"},
	{"geometry":{"coordinates":[8.553122,47.370776],"type":"Point"},"properties":{"osm_id":"5757320976","tag":{"amenity":"waste_basket","manufacturer":"Anta Swiss"}},"type":"Feature"},
	{"geometry":{"coordinates":[8.552939,47.370714],"type":"Point"},"properties":{"osm_id":"5757320977","tag":{"amenity":"waste_basket","manufacturer":"Anta Swiss"}},"type":"Feature"},
	{"geometry":{"coordinates":[8.552972,47.370763],"type":"Point"},"properties":{"osm_id":"5757320978","tag":{"amenity":"waste_basket","manufacturer":"Anta Swiss"}},"type":"Feature"},
	{"geometry":{"coordinates":[8.552665,47.370878],"type":"Point"},"properties":{"osm_id":"5757320979","tag":{"amenity":"waste_basket","manufacturer":"Anta Swiss"}},"type":"Feature"},
	{"geometry":{"coordinates":[8.55273,47.371084],"type":"Point"},"properties":{"osm_id":"5757320980","tag":{"amenity":"waste_basket","manufacturer":"Anta Swiss"}},"type":"Feature"},
	{"geometry":{"coordinates":[8.552848,47.371073],"type":"Point"},"properties":{"osm_id":"5757320981","tag":{"amenity":"waste_basket","manufacturer":"Anta Swiss"}},"type":"Feature"},
	{"geometry":{"coordinates":[8.552869,47.370911],"type":"Point"},"properties":{"osm_id":"5757320982","tag":{"amenity":"waste_basket","manufacturer":"Anta Swiss"}},"type":"Feature"},
	{"geometry":{"coordinates":[8.552465,47.371085],"type":"Point"},"properties":{"osm_id":"5757320983","tag":{"amenity":"waste_basket","manufacturer":"Anta Swiss"}},"type":"Feature"},
	{"geometry":{"coordinates":[8.551562,47.372883],"type":"Point"},"properties":{"osm_id":"5757320984","tag":{"amenity":"waste_basket","manufacturer":"Anta Swiss"}},"type":"Feature"},
	{"geometry":{"coordinates":[8.552701,47.373289],"type":"Point"},"properties":{"osm_id":"5757320985","tag":{"amenity":"waste_basket","manufacturer":"Anta Swiss"}},"type":"Feature"},
	{"geometry":{"coordinates":[8.552849,47.373344],"type":"Point"},"properties":{"osm_id":"5757320986","tag":{"amenity":"waste_basket"}},"type":"Feature"},
	{"geometry":{"coordinates":[8.606737,47.397017],"type":"Point"},"properties":{"osm_id":"5757868921","tag":{"amenity":"waste_basket"}},"type":"Feature"},
	{"geometry":{"coordinates":[8.606084,47.397188],"type":"Point"},"properties":{"osm_id":"5757868922","tag":{"amenity":"waste_basket"}},"type":"Feature"},
	{"geometry":{"coordinates":[8.610983,47.398082],"type":"Point"},"properties":{"osm_id":"5758615427","tag":{"amenity":"waste_disposal"}},"type":"Feature"},
	{"geometry":{"coordinates":[8.611741,47.398096],"type":"Point"},"properties":{"osm_id":"5758615724","tag":{"amenity":"waste_disposal"}},"type":"Feature"},
	{"geometry":{"coordinates":[8.541088,47.367615],"type":"Point"},"properties":{"osm_id":"5761644798","tag":{"amenity":"waste_basket","manufacturer":"Anta Swiss"}},"type":"Feature"},
	{"geometry":{"coordinates":[8.540269,47.367497],"type":"Point"},"properties":{"osm_id":"5761644799","tag":{"amenity":"waste_basket","manufacturer":"Anta Swiss"}},"type":"Feature"},
	{"geometry":{"coordinates":[8.54123,47.367164],"type":"Point"},"properties":{"osm_id":"5761656409","tag":{"amenity":"waste_basket","manufacturer":"Anta Swiss"}},"type":"Feature"},
	{"geometry":{"coordinates":[8.546111,47.368104],"type":"Point"},"properties":{"osm_id":"5761762747","tag":{"amenity":"waste_disposal","fee":"yes","fee:description":"Z\u00c3\u00bcri-Sack","location":"underground","operator":"ERZ","waste":"trash"}},"type":"Feature"},
	{"geometry":{"coordinates":[8.546126,47.368088],"type":"Point"},"properties":{"osm_id":"5761762748","tag":{"amenity":"waste_disposal","fee":"yes","fee:description":"Z\u00c3\u00bcri-Sack","location":"underground","operator":"ERZ","waste":"trash"}},"type":"Feature"},
	{"geometry":{"coordinates":[8.54809,47.369406],"type":"Point"},"properties":{"osm_id":"5761764066","tag":{"amenity":"waste_basket"}},"type":"Feature"},
	{"geometry":{"coordinates":[8.548542,47.369914],"type":"Point"},"properties":{"osm_id":"5761764067","tag":{"amenity":"waste_basket"}},"type":"Feature"},
	{"geometry":{"coordinates":[8.535906,47.371296],"type":"Point"},"properties":{"osm_id":"5761778395","tag":{"amenity":"waste_basket","manufacturer":"Anta Swiss"}},"type":"Feature"},
	{"geometry":{"coordinates":[8.535228,47.372],"type":"Point"},"properties":{"osm_id":"5761778397","tag":{"amenity":"waste_basket","manufacturer":"Anta Swiss"}},"type":"Feature"},
	{"geometry":{"coordinates":[8.534648,47.372417],"type":"Point"},"properties":{"osm_id":"5761778399","tag":{"amenity":"waste_basket","manufacturer":"Anta Swiss"}},"type":"Feature"},
	{"geometry":{"coordinates":[8.591737,47.383366],"type":"Point"},"properties":{"osm_id":"5761906618","tag":{"amenity":"waste_basket"}},"type":"Feature"},
	{"geometry":{"coordinates":[8.578161,47.380441],"type":"Point"},"properties":{"osm_id":"5767152555","tag":{"amenity":"waste_basket"}},"type":"Feature"},
	{"geometry":{"coordinates":[8.550416,47.372262],"type":"Point"},"properties":{"osm_id":"5767158554","tag":{"amenity":"waste_basket"}},"type":"Feature"},
	{"geometry":{"coordinates":[8.550571,47.37108],"type":"Point"},"properties":{"osm_id":"5767158555","tag":{"amenity":"waste_disposal"}},"type":"Feature"},
	{"geometry":{"coordinates":[8.57799,47.380464],"type":"Point"},"properties":{"osm_id":"5767158654","tag":{"amenity":"waste_basket"}},"type":"Feature"},
	{"geometry":{"coordinates":[8.534283,47.349895],"type":"Point"},"properties":{"osm_id":"5767158655","tag":{"amenity":"waste_basket"}},"type":"Feature"},
	{"geometry":{"coordinates":[8.549259,47.370348],"type":"Point"},"properties":{"osm_id":"5767158853","tag":{"amenity":"waste_basket"}},"type":"Feature"},
	{"geometry":{"coordinates":[8.535467,47.362596],"type":"Point"},"properties":{"osm_id":"5767158953","tag":{"amenity":"waste_basket"}},"type":"Feature"},
	{"geometry":{"coordinates":[8.534292,47.354603],"type":"Point"},"properties":{"osm_id":"5769992899","tag":{"amenity":"waste_basket"}},"type":"Feature"},
	{"geometry":{"coordinates":[8.534778,47.355085],"type":"Point"},"properties":{"osm_id":"5769992902","tag":{"amenity":"waste_basket"}},"type":"Feature"},
	{"geometry":{"coordinates":[8.534193,47.355218],"type":"Point"},"properties":{"osm_id":"5769992904","tag":{"amenity":"waste_basket"}},"type":"Feature"},
	{"geometry":{"coordinates":[8.531632,47.371805],"type":"Point"},"properties":{"osm_id":"5770475990","tag":{"amenity":"waste_basket","manufacturer":"Anta Swiss"}},"type":"Feature"},
	{"geometry":{"coordinates":[8.528164,47.368503],"type":"Point"},"properties":{"osm_id":"5770488138","tag":{"amenity":"waste_basket"}},"type":"Feature"},
	{"geometry":{"coordinates":[8.56673,47.363791],"type":"Point"},"properties":{"osm_id":"5774685660","tag":{"amenity":"waste_basket","manufacturer":"Anta Swiss"}},"type":"Feature"},
	{"geometry":{"coordinates":[8.533334,47.373489],"type":"Point"},"properties":{"osm_id":"5777113925","tag":{"amenity":"waste_basket","manufacturer":"Anta Swiss"}},"type":"Feature"},
	{"geometry":{"coordinates":[8.533324,47.373148],"type":"Point"},"properties":{"osm_id":"5777113926","tag":{"amenity":"waste_basket","manufacturer":"Anta Swiss"}},"type":"Feature"},
	{"geometry":{"coordinates":[8.53368,47.39803],"type":"Point"},"properties":{"osm_id":"5779330739","tag":{"amenity":"waste_basket","manufacturer":"Anta Swiss"}},"type":"Feature"},
	{"geometry":{"coordinates":[8.533256,47.398256],"type":"Point"},"properties":{"osm_id":"5779330741","tag":{"amenity":"waste_basket","manufacturer":"Anta Swiss"}},"type":"Feature"},
	{"geometry":{"coordinates":[8.533465,47.398066],"type":"Point"},"properties":{"osm_id":"5779331061","tag":{"amenity":"waste_basket","manufacturer":"Anta Swiss"}},"type":"Feature"},
	{"geometry":{"coordinates":[8.530258,47.343365],"type":"Point"},"properties":{"osm_id":"5779392056","tag":{"amenity":"waste_basket","manufacturer":"Anta Swiss"}},"type":"Feature"},
	{"geometry":{"coordinates":[8.530317,47.343434],"type":"Point"},"properties":{"osm_id":"5779392058","tag":{"amenity":"waste_basket","manufacturer":"Anta Swiss"}},"type":"Feature"},
	{"geometry":{"coordinates":[8.530385,47.3416],"type":"Point"},"properties":{"osm_id":"5779392061","tag":{"amenity":"waste_basket"}},"type":"Feature"},
	{"geometry":{"coordinates":[8.530394,47.341027],"type":"Point"},"properties":{"osm_id":"5779392067","tag":{"amenity":"waste_basket","manufacturer":"Anta Swiss"}},"type":"Feature"},
	{"geometry":{"coordinates":[8.530355,47.340625],"type":"Point"},"properties":{"osm_id":"5779392069","tag":{"amenity":"waste_basket"}},"type":"Feature"},
	{"geometry":{"coordinates":[8.530328,47.340515],"type":"Point"},"properties":{"osm_id":"5779392070","tag":{"amenity":"waste_basket"}},"type":"Feature"},
	{"geometry":{"coordinates":[8.535523,47.349763],"type":"Point"},"properties":{"osm_id":"5801535100","tag":{"amenity":"waste_disposal"}},"type":"Feature"},
	{"geometry":{"coordinates":[8.528124,47.382619],"type":"Point"},"properties":{"osm_id":"5831955485","tag":{"amenity":"waste_basket"}},"type":"Feature"},
	{"geometry":{"coordinates":[8.527463,47.383495],"type":"Point"},"properties":{"osm_id":"5831955585","tag":{"amenity":"waste_basket"}},"type":"Feature"},
	{"geometry":{"coordinates":[8.54178,47.373335],"type":"Point"},"properties":{"osm_id":"5893131228","tag":{"amenity":"waste_basket","waste":"trash"}},"type":"Feature"},
	{"geometry":{"coordinates":[8.541964,47.373868],"type":"Point"},"properties":{"osm_id":"5893257508","tag":{"amenity":"waste_basket","waste":"trash"}},"type":"Feature"},
	{"geometry":{"coordinates":[8.541485,47.36957],"type":"Point"},"properties":{"osm_id":"5894361728","tag":{"amenity":"waste_basket","waste":"trash"}},"type":"Feature"},
	{"geometry":{"coordinates":[8.539973,47.367597],"type":"Point"},"properties":{"osm_id":"5894361729","tag":{"amenity":"waste_basket","waste":"trash"}},"type":"Feature"},
	{"geometry":{"coordinates":[8.54165,47.36982],"type":"Point"},"properties":{"osm_id":"5894361731","tag":{"amenity":"waste_basket","waste":"trash"}},"type":"Feature"},
	{"geometry":{"coordinates":[8.540151,47.367635],"type":"Point"},"properties":{"osm_id":"5894361736","tag":{"amenity":"waste_basket","waste":"trash"}},"type":"Feature"},
	{"geometry":{"coordinates":[8.541675,47.369029],"type":"Point"},"properties":{"osm_id":"5894361738","tag":{"amenity":"waste_basket","waste":"trash"}},"type":"Feature"},
	{"geometry":{"coordinates":[8.537365,47.368511],"type":"Point"},"properties":{"osm_id":"5894413378","tag":{"amenity":"waste_basket","waste":"trash"}},"type":"Feature"},
	{"geometry":{"coordinates":[8.537675,47.380031],"type":"Point"},"properties":{"osm_id":"5897598080","tag":{"amenity":"waste_basket","waste":"trash"}},"type":"Feature"},
	{"geometry":{"coordinates":[8.537338,47.379842],"type":"Point"},"properties":{"osm_id":"5897598081","tag":{"amenity":"waste_basket","waste":"trash"}},"type":"Feature"},
	{"geometry":{"coordinates":[8.537559,47.379834],"type":"Point"},"properties":{"osm_id":"5897598083","tag":{"amenity":"waste_basket","waste":"trash"}},"type":"Feature"},
	{"geometry":{"coordinates":[8.537465,47.379948],"type":"Point"},"properties":{"osm_id":"5897604386","tag":{"amenity":"waste_basket","waste":"trash"}},"type":"Feature"},
	{"geometry":{"coordinates":[8.543122,47.371199],"type":"Point"},"properties":{"osm_id":"5981244257","tag":{"amenity":"waste_basket","waste":"trash"}},"type":"Feature"},
	{"geometry":{"coordinates":[8.525736,47.384472],"type":"Point"},"properties":{"osm_id":"6112837785","tag":{"amenity":"waste_basket"}},"type":"Feature"},
	{"geometry":{"coordinates":[8.554524,47.385823],"type":"Point"},"properties":{"osm_id":"6133524812","tag":{"amenity":"waste_basket"}},"type":"Feature"},
	{"geometry":{"coordinates":[8.55418,47.386241],"type":"Point"},"properties":{"osm_id":"6133524813","tag":{"amenity":"waste_basket"}},"type":"Feature"},
	{"geometry":{"coordinates":[8.554103,47.386322],"type":"Point"},"properties":{"osm_id":"6133524814","tag":{"amenity":"waste_basket"}},"type":"Feature"},
	{"geometry":{"coordinates":[8.554042,47.38639],"type":"Point"},"properties":{"osm_id":"6133524816","tag":{"amenity":"waste_basket"}},"type":"Feature"},
	{"geometry":{"coordinates":[8.553982,47.386456],"type":"Point"},"properties":{"osm_id":"6133524817","tag":{"amenity":"waste_basket"}},"type":"Feature"},
	{"geometry":{"coordinates":[8.553923,47.386522],"type":"Point"},"properties":{"osm_id":"6133524818","tag":{"amenity":"waste_basket"}},"type":"Feature"},
	{"geometry":{"coordinates":[8.53599,47.370027],"type":"Point"},"properties":{"osm_id":"6147200399","tag":{"amenity":"waste_basket","waste":"trash"}},"type":"Feature"},
	{"geometry":{"coordinates":[8.536114,47.369792],"type":"Point"},"properties":{"osm_id":"6147200400","tag":{"amenity":"waste_basket","waste":"trash"}},"type":"Feature"},
	{"geometry":{"coordinates":[8.535876,47.369946],"type":"Point"},"properties":{"osm_id":"6147200402","tag":{"amenity":"waste_basket","waste":"trash"}},"type":"Feature"},
	{"geometry":{"coordinates":[8.530086,47.385175],"type":"Point"},"properties":{"osm_id":"6224748285","tag":{"amenity":"waste_basket"}},"type":"Feature"},
	{"geometry":{"coordinates":[8.590529,47.393892],"type":"Point"},"properties":{"osm_id":"6390231646","tag":{"amenity":"waste_basket"}},"type":"Feature"},
	{"geometry":{"coordinates":[8.592646,47.39228],"type":"Point"},"properties":{"osm_id":"6390231663","tag":{"amenity":"waste_basket","waste":"trash"}},"type":"Feature"},
	{"geometry":{"coordinates":[8.546394,47.383958],"type":"Point"},"properties":{"osm_id":"6390293660","tag":{"amenity":"waste_basket","waste":"trash"}},"type":"Feature"},
	{"geometry":{"coordinates":[8.546771,47.383616],"type":"Point"},"properties":{"osm_id":"6390293662","tag":{"amenity":"waste_basket","waste":"trash"}},"type":"Feature"},
	{"geometry":{"coordinates":[8.576135,47.387834],"type":"Point"},"properties":{"osm_id":"6407065004","tag":{"amenity":"waste_basket"}},"type":"Feature"},
	{"geometry":{"coordinates":[8.574029,47.38765],"type":"Point"},"properties":{"osm_id":"6407065007","tag":{"amenity":"waste_basket"}},"type":"Feature"},
	{"geometry":{"coordinates":[8.573796,47.384702],"type":"Point"},"properties":{"osm_id":"6407065010","tag":{"amenity":"waste_basket"}},"type":"Feature"},
	{"geometry":{"coordinates":[8.540976,47.374632],"type":"Point"},"properties":{"osm_id":"6420698156","tag":{"amenity":"waste_basket"}},"type":"Feature"},
	{"geometry":{"coordinates":[8.569727,47.355564],"type":"Point"},"properties":{"osm_id":"6482733513","tag":{"amenity":"waste_basket"}},"type":"Feature"},
	{"geometry":{"coordinates":[8.559061,47.356389],"type":"Point"},"properties":{"osm_id":"6515144367","tag":{"amenity":"waste_basket"}},"type":"Feature"},
	{"geometry":{"coordinates":[8.55899,47.356511],"type":"Point"},"properties":{"osm_id":"6515144368","tag":{"amenity":"waste_basket"}},"type":"Feature"},
	{"geometry":{"coordinates":[8.558607,47.35753],"type":"Point"},"properties":{"osm_id":"6515144369","tag":{"amenity":"waste_basket"}},"type":"Feature"},
	{"geometry":{"coordinates":[8.559321,47.357005],"type":"Point"},"properties":{"osm_id":"6515151435","tag":{"amenity":"waste_basket"}},"type":"Feature"},
	{"geometry":{"coordinates":[8.543062,47.374238],"type":"Point"},"properties":{"osm_id":"6594524208","tag":{"amenity":"waste_basket"}},"type":"Feature"},
	{"geometry":{"coordinates":[8.594816,47.359766],"type":"Point"},"properties":{"osm_id":"6602377279","tag":{"amenity":"waste_basket"}},"type":"Feature"},
	{"geometry":{"coordinates":[8.528211,47.371087],"type":"Point"},"properties":{"osm_id":"6633179767","tag":{"amenity":"waste_basket"}},"type":"Feature"},
	{"geometry":{"coordinates":[8.533364,47.380281],"type":"Point"},"properties":{"osm_id":"6769845232","tag":{"amenity":"waste_basket"}},"type":"Feature"},
	{"geometry":{"coordinates":[8.532347,47.380845],"type":"Point"},"properties":{"osm_id":"6769845243","tag":{"amenity":"waste_disposal","location":"underground"}},"type":"Feature"},
	{"geometry":{"coordinates":[8.534217,47.38164],"type":"Point"},"properties":{"osm_id":"6872113572","tag":{"amenity":"recycling","recycling:clothes":"yes","recycling_type":"container"}},"type":"Feature"},
	{"geometry":{"coordinates":[8.551893,47.374957],"type":"Point"},"properties":{"osm_id":"6970734771","tag":{"amenity":"waste_basket"}},"type":"Feature"},
	{"geometry":{"coordinates":[8.58577,47.359141],"type":"Point"},"properties":{"osm_id":"6992575321","tag":{"amenity":"recycling","opening_hours":"Mo-Sa 08:00-20:00","recycling:plastic_bottles":"yes","recycling_type":"container"}},"type":"Feature"},
	{"geometry":{"coordinates":[8.537899,47.384741],"type":"Point"},"properties":{"osm_id":"6992617158","tag":{"amenity":"waste_basket","waste":"Abfalleimer"}},"type":"Feature"},
	{"geometry":{"coordinates":[8.539247,47.38369],"type":"Point"},"properties":{"osm_id":"6992638618","tag":{"amenity":"waste_basket","waste":"Abfalleimer"}},"type":"Feature"},
	{"geometry":{"coordinates":[8.542958,47.375577],"type":"Point"},"properties":{"osm_id":"6992727712","tag":{"amenity":"waste_basket","waste":"trash"}},"type":"Feature"},
	{"geometry":{"coordinates":[8.542511,47.375607],"type":"Point"},"properties":{"osm_id":"6992727713","tag":{"amenity":"waste_basket","waste":"trash"}},"type":"Feature"},
	{"geometry":{"coordinates":[8.541263,47.379221],"type":"Point"},"properties":{"osm_id":"6992727714","tag":{"amenity":"waste_basket","waste":"Hundekot und M\u00c3\u00bcll"}},"type":"Feature"},
	{"geometry":{"coordinates":[8.598221,47.355619],"type":"Point"},"properties":{"osm_id":"7015319599","tag":{"amenity":"waste_basket","waste":"trash"}},"type":"Feature"},
	{"geometry":{"coordinates":[8.540393,47.395668],"type":"Point"},"properties":{"osm_id":"7046931285","tag":{"amenity":"recycling","recycling:plastic_bottles":"yes","recycling_type":"container"}},"type":"Feature"},
	{"geometry":{"coordinates":[8.5579,47.375283],"type":"Point"},"properties":{"osm_id":"7051691870","tag":{"amenity":"waste_basket"}},"type":"Feature"},
	{"geometry":{"coordinates":[8.551397,47.373121],"type":"Point"},"properties":{"osm_id":"7054780955","tag":{"amenity":"waste_basket","waste":"trash"}},"type":"Feature"},
	{"geometry":{"coordinates":[8.55055,47.37297],"type":"Point"},"properties":{"osm_id":"7054801657","tag":{"amenity":"waste_basket","waste":"trash"}},"type":"Feature"},
	{"geometry":{"coordinates":[8.550362,47.373443],"type":"Point"},"properties":{"osm_id":"7054808874","tag":{"amenity":"waste_basket","waste":"trash"}},"type":"Feature"},
	{"geometry":{"coordinates":[8.548443,47.377657],"type":"Point"},"properties":{"osm_id":"7054938424","tag":{"amenity":"waste_basket","waste":"trash"}},"type":"Feature"},
	{"geometry":{"coordinates":[8.548295,47.379242],"type":"Point"},"properties":{"osm_id":"7054988204","tag":{"amenity":"waste_basket","waste":"trash"}},"type":"Feature"},
	{"geometry":{"coordinates":[8.548731,47.384605],"type":"Point"},"properties":{"osm_id":"7055086050","tag":{"amenity":"waste_basket","waste":"trash"}},"type":"Feature"},
	{"geometry":{"coordinates":[8.547068,47.385805],"type":"Point"},"properties":{"osm_id":"7055110173","tag":{"amenity":"waste_basket","waste":"trash"}},"type":"Feature"},
	{"geometry":{"coordinates":[8.542218,47.375688],"type":"Point"},"properties":{"osm_id":"7058220155","tag":{"amenity":"waste_basket","waste":"trash"}},"type":"Feature"},
	{"geometry":{"coordinates":[8.544723,47.39617],"type":"Point"},"properties":{"osm_id":"7061657472","tag":{"amenity":"waste_basket","waste":"trash"}},"type":"Feature"},
	{"geometry":{"coordinates":[8.544725,47.396261],"type":"Point"},"properties":{"osm_id":"7062744551","tag":{"amenity":"waste_basket","waste":"trash"}},"type":"Feature"},
	{"geometry":{"coordinates":[8.548383,47.376893],"type":"Point"},"properties":{"osm_id":"7073458312","tag":{"amenity":"waste_basket","waste":"trash"}},"type":"Feature"},
	{"geometry":{"coordinates":[8.548275,47.377101],"type":"Point"},"properties":{"osm_id":"7073458313","tag":{"amenity":"waste_basket","waste":"trash"}},"type":"Feature"},
	{"geometry":{"coordinates":[8.531143,47.365257],"type":"Point"},"properties":{"osm_id":"7168777461","tag":{"amenity":"recycling","location":"indoor","opening_hours":"Mo-Fr 10:30-18:30; Sa 09:00-16:00; PH closed","operator":"B\u00c3\u00bccher-Brocky","recycling:books":"yes","website":"http://buecher-brocky.ch/2018/02/19/wann-koennen-buecher-angeliefert-werden/"}},"type":"Feature"},
	{"geometry":{"coordinates":[8.536241,47.380294],"type":"Point"},"properties":{"osm_id":"7196042300","tag":{"amenity":"recycling","brand":"Velafrica","charity":"yes","description":"Velafrica sammelt ausgediente Velos, macht sie wieder flott und verschifft sie nach Afrika.","location":"indoor","operator":"Veloplus","operator:type":"business","recycling:bicycles":"yes","recycling_type":"centre","service_times":"Mo-Fr 09:00-19:00; Sa 09:00-18:00","website":"https://www.veloplus.ch/engagement/afrikaprojekte"}},"type":"Feature"},
	{"geometry":{"coordinates":[8.546894,47.37541],"type":"Point"},"properties":{"osm_id":"7204059917","tag":{"amenity":"waste_basket","waste":"trash"}},"type":"Feature"},
	{"geometry":{"coordinates":[8.547317,47.368358],"type":"Point"},"properties":{"osm_id":"7204083318","tag":{"amenity":"waste_basket","waste":"trash"}},"type":"Feature"},
	{"geometry":{"coordinates":[8.539891,47.381643],"type":"Point"},"properties":{"osm_id":"7259658397","tag":{"amenity":"waste_basket"}},"type":"Feature"},
	{"geometry":{"coordinates":[8.540517,47.380695],"type":"Point"},"properties":{"osm_id":"7259658407","tag":{"amenity":"waste_basket"}},"type":"Feature"},
	{"geometry":{"coordinates":[8.54946,47.395272],"type":"Point"},"properties":{"osm_id":"7312972667","tag":{"amenity":"waste_basket"}},"type":"Feature"},
	{"geometry":{"coordinates":[8.549518,47.39527],"type":"Point"},"properties":{"osm_id":"7312972668","tag":{"amenity":"waste_basket"}},"type":"Feature"},
	{"geometry":{"coordinates":[8.549693,47.395243],"type":"Point"},"properties":{"osm_id":"7312972671","tag":{"amenity":"waste_basket"}},"type":"Feature"},
	{"geometry":{"coordinates":[8.605583,47.355371],"type":"Point"},"properties":{"osm_id":"7370162408","tag":{"amenity":"recycling","recycling:glass":"yes","recycling_type":"container"}},"type":"Feature"},
	{"geometry":{"coordinates":[8.541323,47.366263],"type":"Point"},"properties":{"osm_id":"7434246282","tag":{"amenity":"waste_basket"}},"type":"Feature"},
	{"geometry":{"coordinates":[8.54152,47.366204],"type":"Point"},"properties":{"osm_id":"7434246284","tag":{"amenity":"waste_basket"}},"type":"Feature"},
	{"geometry":{"coordinates":[8.541044,47.366218],"type":"Point"},"properties":{"osm_id":"7434310086","tag":{"amenity":"waste_basket"}},"type":"Feature"},
	{"geometry":{"coordinates":[8.540819,47.366089],"type":"Point"},"properties":{"osm_id":"7434310088","tag":{"amenity":"waste_basket"}},"type":"Feature"},
	{"geometry":{"coordinates":[8.554983,47.367357],"type":"Point"},"properties":{"osm_id":"7439461108","tag":{"amenity":"waste_basket"}},"type":"Feature"},
	{"geometry":{"coordinates":[8.554098,47.366329],"type":"Point"},"properties":{"osm_id":"7439461111","tag":{"amenity":"waste_basket"}},"type":"Feature"},
	{"geometry":{"coordinates":[8.555529,47.367309],"type":"Point"},"properties":{"osm_id":"7439461113","tag":{"amenity":"waste_basket"}},"type":"Feature"},
	{"geometry":{"coordinates":[8.559391,47.364057],"type":"Point"},"properties":{"osm_id":"7439461114","tag":{"amenity":"waste_basket"}},"type":"Feature"},
	{"geometry":{"coordinates":[8.554457,47.366031],"type":"Point"},"properties":{"osm_id":"7439461115","tag":{"amenity":"waste_basket"}},"type":"Feature"},
	{"geometry":{"coordinates":[8.555114,47.366808],"type":"Point"},"properties":{"osm_id":"7439461117","tag":{"amenity":"waste_basket"}},"type":"Feature"},
	{"geometry":{"coordinates":[8.555347,47.367487],"type":"Point"},"properties":{"osm_id":"7439461119","tag":{"amenity":"waste_basket"}},"type":"Feature"},
	{"geometry":{"coordinates":[8.554648,47.365894],"type":"Point"},"properties":{"osm_id":"7439461121","tag":{"amenity":"waste_basket"}},"type":"Feature"},
	{"geometry":{"coordinates":[8.55524,47.36695],"type":"Point"},"properties":{"osm_id":"7439461123","tag":{"amenity":"waste_basket"}},"type":"Feature"},
	{"geometry":{"coordinates":[8.560309,47.365284],"type":"Point"},"properties":{"osm_id":"7439461124","tag":{"amenity":"waste_basket"}},"type":"Feature"},
	{"geometry":{"coordinates":[8.555484,47.367051],"type":"Point"},"properties":{"osm_id":"7439461128","tag":{"amenity":"waste_basket"}},"type":"Feature"},
	{"geometry":{"coordinates":[8.587591,47.348954],"type":"Point"},"properties":{"osm_id":"7511208527","tag":{"amenity":"waste_basket","waste":"trash"}},"type":"Feature"},
	{"geometry":{"coordinates":[8.585396,47.350003],"type":"Point"},"properties":{"osm_id":"7511208530","tag":{"amenity":"waste_basket","waste":"trash"}},"type":"Feature"},
	{"geometry":{"coordinates":[8.591857,47.347171],"type":"Point"},"properties":{"osm_id":"7511208531","tag":{"amenity":"waste_basket","waste":"trash"}},"type":"Feature"},
	{"geometry":{"coordinates":[8.583755,47.346008],"type":"Point"},"properties":{"osm_id":"7512307103","tag":{"amenity":"waste_basket","waste":"trash"}},"type":"Feature"},
	{"geometry":{"coordinates":[8.58246,47.340438],"type":"Point"},"properties":{"osm_id":"7513733369","tag":{"amenity":"waste_basket","waste":"trash"}},"type":"Feature"},
	{"geometry":{"coordinates":[8.584524,47.339526],"type":"Point"},"properties":{"osm_id":"7513746914","tag":{"amenity":"waste_basket","waste":"trash"}},"type":"Feature"},
	{"geometry":{"coordinates":[8.574076,47.397976],"type":"Point"},"properties":{"osm_id":"7518306852","tag":{"amenity":"waste_basket","waste":"trash"}},"type":"Feature"},
	{"geometry":{"coordinates":[8.551542,47.395362],"type":"Point"},"properties":{"osm_id":"7521938641","tag":{"amenity":"waste_basket","waste":"trash"}},"type":"Feature"},
	{"geometry":{"coordinates":[8.597738,47.340062],"type":"Point"},"properties":{"osm_id":"7562199776","tag":{"amenity":"waste_basket","waste":"trash"}},"type":"Feature"},
	{"geometry":{"coordinates":[8.538219,47.372832],"type":"Point"},"properties":{"osm_id":"7724566835","tag":{"amenity":"waste_basket"}},"type":"Feature"},
	{"geometry":{"coordinates":[8.536631,47.385493],"type":"Point"},"properties":{"osm_id":"7767168673","tag":{"amenity":"waste_basket","waste":"trash"}},"type":"Feature"},
	{"geometry":{"coordinates":[8.543038,47.371107],"type":"Point"},"properties":{"osm_id":"7815524035","tag":{"amenity":"waste_disposal","location":"underground","waste":"trash"}},"type":"Feature"},
	{"geometry":{"coordinates":[8.543063,47.370122],"type":"Point"},"properties":{"osm_id":"7815524040","tag":{"amenity":"waste_basket","waste":"trash"}},"type":"Feature"},
	{"geometry":{"coordinates":[8.542892,47.370929],"type":"Point"},"properties":{"osm_id":"7815524042","tag":{"amenity":"waste_basket","waste":"trash"}},"type":"Feature"},
	{"geometry":{"coordinates":[8.538912,47.382044],"type":"Point"},"properties":{"osm_id":"7852701868","tag":{"amenity":"waste_basket"}},"type":"Feature"}
]
}
