{
"type": "FeatureCollection",
"features": [
	{"geometry":{"coordinates":[8.527682,47.334654],"type":"Point"},"properties":{"osm_id":"80052443","tag":{"amenity":"recycling","description":"Container: Metall (2), Gr\u00c3\u00bcnglas (3), Weissglas (2), Braunglas (1)","opening_hours":"Mo-Sa 07:00-20:00","operator":"ERZ","recycling:aluminium":"yes","recycling:cans":"yes","recycling:glass_bottles":"yes","recycling_type":"container"}},"type":"Feature"},
	{"geometry":{"coordinates":[8.525789,47.310061],"type":"Point"},"properties":{"osm_id":"432622454","tag":{"amenity":"recycling","opening_hours":"Mo-Fr 07:00-12:00, 13:00-19:00; Sa 07:00-12:00, 13:00-17:00","opening_hours:covid19":"same","recycling:cans":"yes","recycling:clothes":"yes","recycling:glass_bottles":"yes","recycling_type":"underfloor-container"}},"type":"Feature"},
	{"geometry":{"coordinates":[8.545047,47.321368],"type":"Point"},"properties":{"osm_id":"470590314","tag":{"amenity":"recycling","location":"underground","recycling:cans":"yes","recycling:clothes":"yes","recycling:glass":"no","recycling:glass_bottles":"yes","recycling:scrap_metal":"yes","recycling_type":"container"}},"type":"Feature"},
	{"geometry":{"coordinates":[8.532573,47.288392],"type":"Point"},"properties":{"osm_id":"491480847","tag":{"amenity":"recycling","recycling:batteries":"no","recycling:cans":"yes","recycling:clothes":"yes","recycling:glass":"yes","recycling:scrap_metal":"yes","recycling_type":"container"}},"type":"Feature"},
	{"geometry":{"coordinates":[8.540873,47.291081],"type":"Point"},"properties":{"osm_id":"496329306","tag":{"amenity":"recycling","recycling:cans":"yes","recycling:clothes":"yes","recycling:glass":"yes","recycling:scrap_metal":"yes"}},"type":"Feature"},
	{"geometry":{"coordinates":[8.562476,47.288239],"type":"Point"},"properties":{"osm_id":"577339769","tag":{"amenity":"recycling","recycling:cans":"yes","recycling:clothes":"yes","recycling:glass":"yes","recycling:scrap_metal":"yes"}},"type":"Feature"},
	{"geometry":{"coordinates":[8.563523,47.291276],"type":"Point"},"properties":{"osm_id":"577339771","tag":{"amenity":"recycling","location":"overground","recycling:cans":"yes","recycling:clothes":"yes","recycling:glass":"yes","recycling:scrap_metal":"yes","recycling_type":"container"}},"type":"Feature"},
	{"geometry":{"coordinates":[8.576632,47.337196],"type":"Point"},"properties":{"osm_id":"615175949","tag":{"amenity":"recycling","recycling:aluminium":"yes","recycling:cans":"yes","recycling:glass_bottles":"yes","recycling_type":"container"}},"type":"Feature"},
	{"geometry":{"coordinates":[8.560782,47.30283],"type":"Point"},"properties":{"osm_id":"664810975","tag":{"amenity":"recycling","recycling:clothes":"yes","recycling:glass":"yes","recycling:glass_bottles":"yes","recycling_type":"container"}},"type":"Feature"},
	{"geometry":{"coordinates":[8.554261,47.291738],"type":"Point"},"properties":{"osm_id":"1071065144","tag":{"amenity":"recycling","recycling:cans":"yes","recycling:clothes":"yes","recycling:glass":"yes","recycling:paper":"no","recycling:scrap_metal":"yes"}},"type":"Feature"},
	{"geometry":{"coordinates":[8.545839,47.303316],"type":"Point"},"properties":{"osm_id":"1078854140","tag":{"amenity":"recycling","recycling:cans":"yes","recycling:glass":"yes","recycling:scrap_metal":"no"}},"type":"Feature"},
	{"geometry":{"coordinates":[8.53165,47.309976],"type":"Point"},"properties":{"osm_id":"1078854156","tag":{"amenity":"recycling","recycling:clothes":"yes"}},"type":"Feature"},
	{"geometry":{"coordinates":[8.564071,47.294537],"type":"Point"},"properties":{"osm_id":"1078854158","tag":{"amenity":"recycling","location":"underground","recycling:cans":"yes","recycling:glass":"yes","recycling:scrap_metal":"no","recycling_type":"container"}},"type":"Feature"},
	{"geometry":{"coordinates":[8.578962,47.279448],"type":"Point"},"properties":{"osm_id":"1115854754","tag":{"amenity":"recycling","recycling:cans":"yes","recycling:clothes":"yes","recycling:glass":"yes","recycling:scrap_metal":"yes"}},"type":"Feature"},
	{"geometry":{"coordinates":[8.572884,47.28476],"type":"Point"},"properties":{"osm_id":"1115940540","tag":{"amenity":"recycling","recycling:cans":"yes","recycling:clothes":"yes","recycling:glass":"yes","recycling:scrap_metal":"yes"}},"type":"Feature"},
	{"geometry":{"coordinates":[8.54824,47.324049],"type":"Point"},"properties":{"osm_id":"1177226657","tag":{"amenity":"recycling","location":"overground","recycling:cans":"yes","recycling:clothes":"yes","recycling:glass":"yes","recycling:paper":"yes","recycling_type":"container"}},"type":"Feature"},
	{"geometry":{"coordinates":[8.549938,47.317113],"type":"Point"},"properties":{"osm_id":"1683429074","tag":{"amenity":"recycling","recycling:cans":"yes","recycling:clothes":"yes","recycling:garbage":"yes","recycling:glass":"yes","recycling:scrap_metal":"yes","recycling:shoes":"yes","recycling_type":"container"}},"type":"Feature"},
	{"geometry":{"coordinates":[8.529792,47.30673],"type":"Point"},"properties":{"osm_id":"1686851276","tag":{"amenity":"recycling"}},"type":"Feature"},
	{"geometry":{"coordinates":[8.547133,47.285899],"type":"Point"},"properties":{"osm_id":"2077891292","tag":{"amenity":"recycling","recycling:cans":"yes","recycling:clothes":"yes","recycling:glass":"yes","recycling:scrap_metal":"yes"}},"type":"Feature"},
	{"geometry":{"coordinates":[8.554408,47.313233],"type":"Point"},"properties":{"osm_id":"2079973556","tag":{"amenity":"waste_basket"}},"type":"Feature"},
	{"geometry":{"coordinates":[8.551109,47.310675],"type":"Point"},"properties":{"osm_id":"2079973571","tag":{"amenity":"waste_basket"}},"type":"Feature"},
	{"geometry":{"coordinates":[8.554022,47.313879],"type":"Point"},"properties":{"osm_id":"2079973580","tag":{"amenity":"waste_basket"}},"type":"Feature"},
	{"geometry":{"coordinates":[8.556782,47.311299],"type":"Point"},"properties":{"osm_id":"2079973585","tag":{"amenity":"waste_basket"}},"type":"Feature"},
	{"geometry":{"coordinates":[8.556621,47.311559],"type":"Point"},"properties":{"osm_id":"2079973597","tag":{"amenity":"waste_basket"}},"type":"Feature"},
	{"geometry":{"coordinates":[8.556343,47.312181],"type":"Point"},"properties":{"osm_id":"2079973598","tag":{"amenity":"waste_basket"}},"type":"Feature"},
	{"geometry":{"coordinates":[8.55539,47.313994],"type":"Point"},"properties":{"osm_id":"2079973600","tag":{"amenity":"waste_basket"}},"type":"Feature"},
	{"geometry":{"coordinates":[8.556722,47.311541],"type":"Point"},"properties":{"osm_id":"2079973601","tag":{"amenity":"waste_basket"}},"type":"Feature"},
	{"geometry":{"coordinates":[8.556943,47.310965],"type":"Point"},"properties":{"osm_id":"2079973605","tag":{"amenity":"waste_basket"}},"type":"Feature"},
	{"geometry":{"coordinates":[8.553852,47.313572],"type":"Point"},"properties":{"osm_id":"2079973615","tag":{"amenity":"waste_basket"}},"type":"Feature"},
	{"geometry":{"coordinates":[8.558218,47.309947],"type":"Point"},"properties":{"osm_id":"2080030843","tag":{"amenity":"waste_basket"}},"type":"Feature"},
	{"geometry":{"coordinates":[8.558403,47.309429],"type":"Point"},"properties":{"osm_id":"2080030894","tag":{"amenity":"waste_basket"}},"type":"Feature"},
	{"geometry":{"coordinates":[8.557872,47.309838],"type":"Point"},"properties":{"osm_id":"2080030895","tag":{"amenity":"waste_basket"}},"type":"Feature"},
	{"geometry":{"coordinates":[8.554224,47.311543],"type":"Point"},"properties":{"osm_id":"2080058502","tag":{"amenity":"waste_basket"}},"type":"Feature"},
	{"geometry":{"coordinates":[8.552508,47.310323],"type":"Point"},"properties":{"osm_id":"2080058505","tag":{"amenity":"waste_basket"}},"type":"Feature"},
	{"geometry":{"coordinates":[8.557065,47.308143],"type":"Point"},"properties":{"osm_id":"2080086541","tag":{"amenity":"waste_basket"}},"type":"Feature"},
	{"geometry":{"coordinates":[8.556091,47.309137],"type":"Point"},"properties":{"osm_id":"2080086543","tag":{"amenity":"waste_basket"}},"type":"Feature"},
	{"geometry":{"coordinates":[8.553495,47.308387],"type":"Point"},"properties":{"osm_id":"2080086549","tag":{"amenity":"waste_basket"}},"type":"Feature"},
	{"geometry":{"coordinates":[8.553302,47.307712],"type":"Point"},"properties":{"osm_id":"2080086555","tag":{"amenity":"waste_basket"}},"type":"Feature"},
	{"geometry":{"coordinates":[8.553286,47.309912],"type":"Point"},"properties":{"osm_id":"2080086558","tag":{"amenity":"waste_basket"}},"type":"Feature"},
	{"geometry":{"coordinates":[8.55365,47.30839],"type":"Point"},"properties":{"osm_id":"2080086559","tag":{"amenity":"waste_basket"}},"type":"Feature"},
	{"geometry":{"coordinates":[8.554137,47.308509],"type":"Point"},"properties":{"osm_id":"2080086561","tag":{"amenity":"waste_basket"}},"type":"Feature"},
	{"geometry":{"coordinates":[8.555202,47.309579],"type":"Point"},"properties":{"osm_id":"2080086562","tag":{"amenity":"waste_basket"}},"type":"Feature"},
	{"geometry":{"coordinates":[8.554206,47.308316],"type":"Point"},"properties":{"osm_id":"2080086563","tag":{"amenity":"waste_basket"}},"type":"Feature"},
	{"geometry":{"coordinates":[8.55497,47.306511],"type":"Point"},"properties":{"osm_id":"2080113845","tag":{"amenity":"waste_basket"}},"type":"Feature"},
	{"geometry":{"coordinates":[8.555292,47.306237],"type":"Point"},"properties":{"osm_id":"2080113847","tag":{"amenity":"waste_basket"}},"type":"Feature"},
	{"geometry":{"coordinates":[8.556121,47.303363],"type":"Point"},"properties":{"osm_id":"2080113854","tag":{"amenity":"waste_basket"}},"type":"Feature"},
	{"geometry":{"coordinates":[8.554709,47.307497],"type":"Point"},"properties":{"osm_id":"2080113857","tag":{"amenity":"waste_basket"}},"type":"Feature"},
	{"geometry":{"coordinates":[8.555571,47.306429],"type":"Point"},"properties":{"osm_id":"2080113860","tag":{"amenity":"recycling","recycling:clothes":"yes","recycling:glass":"yes","recycling:glass_bottles":"yes","recycling_type":"container"}},"type":"Feature"},
	{"geometry":{"coordinates":[8.556016,47.306304],"type":"Point"},"properties":{"osm_id":"2080113862","tag":{"amenity":"waste_basket"}},"type":"Feature"},
	{"geometry":{"coordinates":[8.561245,47.30239],"type":"Point"},"properties":{"osm_id":"2080113866","tag":{"amenity":"waste_basket"}},"type":"Feature"},
	{"geometry":{"coordinates":[8.557086,47.303723],"type":"Point"},"properties":{"osm_id":"2080113867","tag":{"amenity":"waste_basket"}},"type":"Feature"},
	{"geometry":{"coordinates":[8.558763,47.307562],"type":"Point"},"properties":{"osm_id":"2080113869","tag":{"amenity":"waste_basket"}},"type":"Feature"},
	{"geometry":{"coordinates":[8.561135,47.302687],"type":"Point"},"properties":{"osm_id":"2080113872","tag":{"amenity":"waste_basket"}},"type":"Feature"},
	{"geometry":{"coordinates":[8.55547,47.305778],"type":"Point"},"properties":{"osm_id":"2080113873","tag":{"amenity":"recycling","recycling:cans":"yes","recycling:cartons":"yes","recycling:glass":"yes","recycling:scrap_metal":"yes","recycling_type":"container"}},"type":"Feature"},
	{"geometry":{"coordinates":[8.558316,47.307686],"type":"Point"},"properties":{"osm_id":"2080113874","tag":{"amenity":"waste_basket"}},"type":"Feature"},
	{"geometry":{"coordinates":[8.534316,47.320579],"type":"Point"},"properties":{"osm_id":"2294882671","tag":{"amenity":"waste_basket"}},"type":"Feature"},
	{"geometry":{"coordinates":[8.534091,47.320792],"type":"Point"},"properties":{"osm_id":"2294882690","tag":{"amenity":"waste_basket"}},"type":"Feature"},
	{"geometry":{"coordinates":[8.561948,47.300354],"type":"Point"},"properties":{"osm_id":"2467297357","tag":{"amenity":"recycling","recycling:cans":"yes","recycling:clothes":"yes","recycling:glass":"yes","recycling:scrap_metal":"yes","recycling_type":"container"}},"type":"Feature"},
	{"geometry":{"coordinates":[8.561991,47.296923],"type":"Point"},"properties":{"osm_id":"2698567536","tag":{"amenity":"recycling","recycling:cans":"yes","recycling:clothes":"yes","recycling:glass":"yes","recycling:paper":"no"}},"type":"Feature"},
	{"geometry":{"coordinates":[8.53405,47.304818],"type":"Point"},"properties":{"osm_id":"2714559997","tag":{"amenity":"recycling","recycling:cans":"no","recycling:clothes":"no","recycling:glass":"yes","recycling:paper":"no"}},"type":"Feature"},
	{"geometry":{"coordinates":[8.549333,47.286355],"type":"Point"},"properties":{"osm_id":"3015886831","tag":{"amenity":"recycling"}},"type":"Feature"},
	{"geometry":{"coordinates":[8.554375,47.307909],"type":"Point"},"properties":{"osm_id":"3699753663","tag":{"amenity":"recycling"}},"type":"Feature"},
	{"geometry":{"coordinates":[8.557988,47.283135],"type":"Point"},"properties":{"osm_id":"3711115155","tag":{"amenity":"waste_basket"}},"type":"Feature"},
	{"geometry":{"coordinates":[8.56712,47.290234],"type":"Point"},"properties":{"osm_id":"3808113350","tag":{"amenity":"waste_basket"}},"type":"Feature"},
	{"geometry":{"coordinates":[8.564549,47.294979],"type":"Point"},"properties":{"osm_id":"3815681268","tag":{"amenity":"waste_basket"}},"type":"Feature"},
	{"geometry":{"coordinates":[8.564516,47.2921],"type":"Point"},"properties":{"osm_id":"3817872314","tag":{"amenity":"waste_basket"}},"type":"Feature"},
	{"geometry":{"coordinates":[8.554114,47.284345],"type":"Point"},"properties":{"osm_id":"3821040221","tag":{"amenity":"waste_basket"}},"type":"Feature"},
	{"geometry":{"coordinates":[8.559253,47.292833],"type":"Point"},"properties":{"osm_id":"3825040681","tag":{"amenity":"waste_basket"}},"type":"Feature"},
	{"geometry":{"coordinates":[8.534417,47.318882],"type":"Point"},"properties":{"osm_id":"3912974308","tag":{"amenity":"recycling","recycling_type":"container"}},"type":"Feature"},
	{"geometry":{"coordinates":[8.529223,47.317313],"type":"Point"},"properties":{"barrier":"gate","osm_id":"4076717236"},"type":"Feature"},
	{"geometry":{"coordinates":[8.528795,47.317636],"type":"Point"},"properties":{"barrier":"gate","osm_id":"4076717249"},"type":"Feature"},
	{"geometry":{"coordinates":[8.605704,47.321708],"type":"Point"},"properties":{"osm_id":"4171398254","tag":{"amenity":"waste_basket"}},"type":"Feature"},
	{"geometry":{"coordinates":[8.60946,47.299024],"type":"Point"},"properties":{"osm_id":"4199335112","tag":{"amenity":"waste_basket"}},"type":"Feature"},
	{"geometry":{"coordinates":[8.525478,47.312633],"type":"Point"},"properties":{"osm_id":"4405730712","tag":{"amenity":"waste_basket"}},"type":"Feature"},
	{"geometry":{"coordinates":[8.608492,47.314666],"type":"Point"},"properties":{"osm_id":"4424289972","tag":{"amenity":"waste_basket","waste":"dog_excrement"}},"type":"Feature"},
	{"geometry":{"coordinates":[8.610455,47.310331],"type":"Point"},"properties":{"osm_id":"4424289973","tag":{"amenity":"waste_basket","waste":"dog_excrement"}},"type":"Feature"},
	{"geometry":{"coordinates":[8.590901,47.30638],"type":"Point"},"properties":{"osm_id":"4424402107","tag":{"amenity":"recycling","location":"underground","opening_hours":"Mo-Fr 07:00-12:00,13:00-20:00; Sa 07:00-12:00,13:00-18:00; PH off","recycling:cans":"yes","recycling:clothes":"yes","recycling:glass_bottles":"yes","recycling_type":"container"}},"type":"Feature"},
	{"geometry":{"coordinates":[8.591971,47.30487],"type":"Point"},"properties":{"osm_id":"4428301600","tag":{"amenity":"waste_basket","waste":"dog_excrement"}},"type":"Feature"},
	{"geometry":{"coordinates":[8.59623,47.304099],"type":"Point"},"properties":{"osm_id":"4429653838","tag":{"amenity":"waste_basket","waste":"dog_excrement"}},"type":"Feature"},
	{"geometry":{"coordinates":[8.598011,47.305406],"type":"Point"},"properties":{"osm_id":"4439805853","tag":{"amenity":"waste_basket","waste":"dog_excrement"}},"type":"Feature"},
	{"geometry":{"coordinates":[8.602733,47.305625],"type":"Point"},"properties":{"osm_id":"4450525430","tag":{"amenity":"waste_basket","waste":"dog_excrement"}},"type":"Feature"},
	{"geometry":{"coordinates":[8.602527,47.305915],"type":"Point"},"properties":{"osm_id":"4450525432","tag":{"amenity":"recycling","location":"underground","opening_hours":"Mo-Fr 07:00-12:00,13:00-20:00; Sa 07:00-12:00,13:00-18:00; PH off","recycling:cans":"yes","recycling:glass_bottles":"yes","recycling_type":"container"}},"type":"Feature"},
	{"geometry":{"coordinates":[8.602562,47.305929],"type":"Point"},"properties":{"osm_id":"4450525433","tag":{"amenity":"waste_basket"}},"type":"Feature"},
	{"geometry":{"coordinates":[8.597763,47.303198],"type":"Point"},"properties":{"osm_id":"4450863806","tag":{"amenity":"waste_basket","waste":"dog_excrement"}},"type":"Feature"},
	{"geometry":{"coordinates":[8.598754,47.307006],"type":"Point"},"properties":{"osm_id":"4451116171","tag":{"amenity":"waste_basket","waste":"dog_excrement"}},"type":"Feature"},
	{"geometry":{"coordinates":[8.605353,47.308191],"type":"Point"},"properties":{"osm_id":"4477963449","tag":{"amenity":"waste_basket","waste":"dog_excrement"}},"type":"Feature"},
	{"geometry":{"coordinates":[8.594365,47.303272],"type":"Point"},"properties":{"osm_id":"4478064823","tag":{"amenity":"waste_basket","waste":"dog_excrement"}},"type":"Feature"},
	{"geometry":{"coordinates":[8.587252,47.306966],"type":"Point"},"properties":{"osm_id":"4885984121","tag":{"amenity":"waste_basket"}},"type":"Feature"},
	{"geometry":{"coordinates":[8.581324,47.319365],"type":"Point"},"properties":{"osm_id":"4937973960","tag":{"amenity":"recycling","opening_hours":"Mo-Fr 07:00-12:00, 13:00-19:00; Sa 07:00-12:00, 13:00-18:00","recycling:cans":"yes","recycling:glass":"yes","recycling_type":"container"}},"type":"Feature"},
	{"geometry":{"coordinates":[8.611799,47.282878],"type":"Point"},"properties":{"osm_id":"4949425302","tag":{"amenity":"recycling","recycling:glass":"yes","recycling_type":"container"}},"type":"Feature"},
	{"geometry":{"coordinates":[8.530077,47.335204],"type":"Point"},"properties":{"osm_id":"5053905832","tag":{"amenity":"waste_basket"}},"type":"Feature"},
	{"geometry":{"coordinates":[8.533066,47.336831],"type":"Point"},"properties":{"osm_id":"5115701063","tag":{"amenity":"waste_basket"}},"type":"Feature"},
	{"geometry":{"coordinates":[8.534653,47.332959],"type":"Point"},"properties":{"osm_id":"5115701074","tag":{"amenity":"waste_basket"}},"type":"Feature"},
	{"geometry":{"coordinates":[8.600246,47.333686],"type":"Point"},"properties":{"osm_id":"5181746369","tag":{"amenity":"waste_basket"}},"type":"Feature"},
	{"geometry":{"coordinates":[8.537055,47.338069],"type":"Point"},"properties":{"osm_id":"5254058795","tag":{"amenity":"waste_basket"}},"type":"Feature"},
	{"geometry":{"coordinates":[8.547521,47.329901],"type":"Point"},"properties":{"osm_id":"5661100821","tag":{"amenity":"waste_basket"}},"type":"Feature"},
	{"geometry":{"coordinates":[8.545823,47.331657],"type":"Point"},"properties":{"osm_id":"5661100921","tag":{"amenity":"waste_basket"}},"type":"Feature"},
	{"geometry":{"coordinates":[8.545468,47.332351],"type":"Point"},"properties":{"osm_id":"5661101121","tag":{"amenity":"waste_basket"}},"type":"Feature"},
	{"geometry":{"coordinates":[8.548558,47.326789],"type":"Point"},"properties":{"osm_id":"5661126222","tag":{"amenity":"waste_basket"}},"type":"Feature"},
	{"geometry":{"coordinates":[8.526427,47.312654],"type":"Point"},"properties":{"osm_id":"5665866017","tag":{"amenity":"waste_basket"}},"type":"Feature"},
	{"geometry":{"coordinates":[8.535622,47.33465],"type":"Point"},"properties":{"osm_id":"5713445024","tag":{"amenity":"waste_basket"}},"type":"Feature"},
	{"geometry":{"coordinates":[8.534271,47.334035],"type":"Point"},"properties":{"osm_id":"5713445029","tag":{"amenity":"waste_basket"}},"type":"Feature"},
	{"geometry":{"coordinates":[8.551293,47.322238],"type":"Point"},"properties":{"osm_id":"5730028822","tag":{"amenity":"waste_basket"}},"type":"Feature"},
	{"geometry":{"coordinates":[8.55118,47.322456],"type":"Point"},"properties":{"osm_id":"5730028921","tag":{"amenity":"waste_basket"}},"type":"Feature"},
	{"geometry":{"coordinates":[8.552975,47.304735],"type":"Point"},"properties":{"osm_id":"5731804257","tag":{"amenity":"waste_basket"}},"type":"Feature"},
	{"geometry":{"coordinates":[8.538929,47.332078],"type":"Point"},"properties":{"osm_id":"5740404623","tag":{"amenity":"waste_basket"}},"type":"Feature"},
	{"geometry":{"coordinates":[8.540548,47.333514],"type":"Point"},"properties":{"osm_id":"5742183232","tag":{"amenity":"waste_basket","manufacturer":"Robidog","vending":"excrement_bags"}},"type":"Feature"},
	{"geometry":{"coordinates":[8.538189,47.331571],"type":"Point"},"properties":{"osm_id":"5742183261","tag":{"amenity":"waste_basket"}},"type":"Feature"},
	{"geometry":{"coordinates":[8.608834,47.315706],"type":"Point"},"properties":{"osm_id":"5751035265","tag":{"amenity":"waste_basket"}},"type":"Feature"},
	{"geometry":{"coordinates":[8.608083,47.316098],"type":"Point"},"properties":{"osm_id":"5751035266","tag":{"amenity":"waste_basket"}},"type":"Feature"},
	{"geometry":{"coordinates":[8.608211,47.316134],"type":"Point"},"properties":{"osm_id":"5751035267","tag":{"amenity":"waste_basket"}},"type":"Feature"},
	{"geometry":{"coordinates":[8.607877,47.315928],"type":"Point"},"properties":{"osm_id":"5751035268","tag":{"amenity":"waste_basket"}},"type":"Feature"},
	{"geometry":{"coordinates":[8.607605,47.316034],"type":"Point"},"properties":{"osm_id":"5751035269","tag":{"amenity":"waste_disposal"}},"type":"Feature"},
	{"geometry":{"coordinates":[8.530235,47.337268],"type":"Point"},"properties":{"osm_id":"5767152557","tag":{"amenity":"waste_basket"}},"type":"Feature"},
	{"geometry":{"coordinates":[8.530334,47.338501],"type":"Point"},"properties":{"osm_id":"5779392072","tag":{"amenity":"waste_basket","manufacturer":"Anta Swiss"}},"type":"Feature"},
	{"geometry":{"coordinates":[8.530151,47.338313],"type":"Point"},"properties":{"osm_id":"5779392073","tag":{"amenity":"waste_basket","manufacturer":"Anta Swiss"}},"type":"Feature"},
	{"geometry":{"coordinates":[8.530154,47.338438],"type":"Point"},"properties":{"osm_id":"5779392074","tag":{"amenity":"waste_basket","manufacturer":"Anta Swiss"}},"type":"Feature"},
	{"geometry":{"coordinates":[8.555381,47.27987],"type":"Point"},"properties":{"osm_id":"5823791049","tag":{"amenity":"waste_basket"}},"type":"Feature"},
	{"geometry":{"coordinates":[8.550082,47.280962],"type":"Point"},"properties":{"osm_id":"5832559683","tag":{"amenity":"waste_basket"}},"type":"Feature"},
	{"geometry":{"coordinates":[8.544198,47.283349],"type":"Point"},"properties":{"osm_id":"5971496145","tag":{"amenity":"recycling","operator":"Lidl","recycling:clothes":"yes","recycling_type":"container"}},"type":"Feature"},
	{"geometry":{"coordinates":[8.545498,47.283989],"type":"Point"},"properties":{"osm_id":"5971554920","tag":{"amenity":"waste_basket"}},"type":"Feature"},
	{"geometry":{"coordinates":[8.525551,47.304381],"type":"Point"},"properties":{"osm_id":"6385232402","tag":{"amenity":"waste_basket"}},"type":"Feature"},
	{"geometry":{"coordinates":[8.526034,47.307649],"type":"Point"},"properties":{"osm_id":"6385232406","tag":{"amenity":"waste_basket"}},"type":"Feature"},
	{"geometry":{"coordinates":[8.544431,47.305205],"type":"Point"},"properties":{"name":"Labdoo Annahmestelle f\u00c3\u00bcr Laptops","osm_id":"6543081215","tag":{"addr:city":"R\u00c3\u00bcschlikon","addr:housenumber":"21","addr:postcode":"8803","addr:street":"Loostrasse","amenity":"recycling","brand":"Labdoo","charity":"yes","description":"Bitte vorher mit Gian-Maria Daffr\u00c3\u00a9 unter +41-76-426-1616 einen Termin vereinbaren.","location":"indoor","operator":"Gian-Maria Daffr\u00c3\u00a9","phone":"+41 76 426 1616","recycling:computers":"yes","recycling:mobile_phones":"yes","website":"https://www.labdoo.org/de/hub?h=62279"}},"type":"Feature"},
	{"geometry":{"coordinates":[8.55117,47.301072],"type":"Point"},"properties":{"osm_id":"6660632000","tag":{"amenity":"waste_basket","waste":"trash"}},"type":"Feature"},
	{"geometry":{"coordinates":[8.551531,47.301239],"type":"Point"},"properties":{"osm_id":"6660665929","tag":{"amenity":"waste_basket","waste":"trash"}},"type":"Feature"},
	{"geometry":{"coordinates":[8.529629,47.334813],"type":"Point"},"properties":{"osm_id":"7543305186","tag":{"amenity":"recycling","collection_times":"Mo-Sa 08:00-20:00","operator":"VOI Paradies","recycling:batteries":"yes","recycling:plastic":"yes","recycling_type":"container","survey:date":"2020-05-21"}},"type":"Feature"},
	{"geometry":{"coordinates":[8.529023,47.292278],"type":"Point"},"properties":{"osm_id":"7554668242","tag":{"amenity":"waste_basket","waste":"trash"}},"type":"Feature"},
	{"geometry":{"coordinates":[8.529087,47.291529],"type":"Point"},"properties":{"osm_id":"7554668245","tag":{"amenity":"waste_basket","waste":"trash"}},"type":"Feature"},
	{"geometry":{"coordinates":[8.529282,47.290771],"type":"Point"},"properties":{"osm_id":"7554668246","tag":{"amenity":"waste_basket","waste":"trash"}},"type":"Feature"},
	{"geometry":{"coordinates":[8.603316,47.338509],"type":"Point"},"properties":{"osm_id":"7561886600","tag":{"amenity":"waste_basket","waste":"trash"}},"type":"Feature"},
	{"geometry":{"coordinates":[8.608694,47.336943],"type":"Point"},"properties":{"osm_id":"7561886609","tag":{"amenity":"waste_basket","waste":"trash"}},"type":"Feature"},
	{"geometry":{"coordinates":[8.603893,47.33775],"type":"Point"},"properties":{"osm_id":"7561886634","tag":{"amenity":"waste_basket","waste":"trash"}},"type":"Feature"},
	{"geometry":{"coordinates":[8.606826,47.336875],"type":"Point"},"properties":{"osm_id":"7561886635","tag":{"amenity":"waste_basket","waste":"trash"}},"type":"Feature"},
	{"geometry":{"coordinates":[8.596425,47.303842],"type":"Point"},"properties":{"osm_id":"7563986201","tag":{"amenity":"waste_basket"}},"type":"Feature"},
	{"geometry":{"coordinates":[8.581258,47.319779],"type":"Point"},"properties":{"osm_id":"7728204839","tag":{"amenity":"waste_basket"}},"type":"Feature"},
	{"geometry":{"coordinates":[8.581428,47.319349],"type":"Point"},"properties":{"osm_id":"7728204841","tag":{"amenity":"waste_basket"}},"type":"Feature"},
	{"geometry":{"coordinates":[8.585062,47.310391],"type":"Point"},"properties":{"name":"Wertstoffsammelstelle K\u00c3\u00bcsnacht & Erlenbach","osm_id":"7728215741","tag":{"addr:city":"K\u00c3\u00bcsnacht (ZH)","addr:housenumber":"2f","addr:postcode":"8700","addr:street":"Gartenstrasse","amenity":"recycling","opening_hours":"Mo-Di 09:00-12:00, 14:00-17:00; Mi 09:00-12:00,14:00-19:00; Sa 08:00-12:00","recycling:cartons":"yes","recycling:clothes":"yes","recycling:electrical_appliances":"yes","recycling:paper":"yes","recycling:scrap_metal":"yes","recycling:wood":"yes","recycling_type":"centre"}},"type":"Feature"},
	{"geometry":{"coordinates":[8.573138,47.328102],"type":"Point"},"properties":{"osm_id":"7806424958","tag":{"amenity":"waste_basket"}},"type":"Feature"},
	{"geometry":{"coordinates":[8.572989,47.328156],"type":"Point"},"properties":{"osm_id":"7806428845","tag":{"amenity":"waste_basket"}},"type":"Feature"},
	{"geometry":{"coordinates":[8.577806,47.32179],"type":"Point"},"properties":{"osm_id":"7835619825","tag":{"amenity":"waste_basket"}},"type":"Feature"},
	{"geometry":{"coordinates":[8.58189,47.318049],"type":"Point"},"properties":{"osm_id":"7835635739","tag":{"amenity":"waste_basket"}},"type":"Feature"},
	{"geometry":{"coordinates":[8.577883,47.321782],"type":"Point"},"properties":{"osm_id":"7874997389","tag":{"amenity":"waste_basket"}},"type":"Feature"},
	{"geometry":{"coordinates":[8.527525,47.314376],"type":"Point"},"properties":{"osm_id":"7924965650","tag":{"amenity":"waste_basket","waste":"trash"}},"type":"Feature"},
	{"geometry":{"coordinates":[8.52648,47.314241],"type":"Point"},"properties":{"osm_id":"7924965651","tag":{"amenity":"waste_basket","waste":"trash"}},"type":"Feature"},
	{"geometry":{"coordinates":[8.526041,47.313184],"type":"Point"},"properties":{"osm_id":"7924965658","tag":{"amenity":"waste_basket","waste":"trash"}},"type":"Feature"},
	{"geometry":{"coordinates":[8.529063,47.316434],"type":"Point"},"properties":{"osm_id":"7924965663","tag":{"amenity":"waste_basket","waste":"trash"}},"type":"Feature"}
]
}
