{
"type": "FeatureCollection",
"features": [
	{"geometry":{"coordinates":[8.571648,47.201023],"type":"Point"},"properties":{"osm_id":"461031113","tag":{"amenity":"recycling"}},"type":"Feature"},
	{"geometry":{"coordinates":[8.576218,47.204567],"type":"Point"},"properties":{"osm_id":"461031344","tag":{"amenity":"recycling"}},"type":"Feature"},
	{"geometry":{"coordinates":[8.592376,47.178585],"type":"Point"},"properties":{"osm_id":"676682588","tag":{"amenity":"recycling","opening_hours":"24/7","recycling:glass":"yes","recycling:scrap_metal":"no","recycling_type":"container"}},"type":"Feature"},
	{"geometry":{"coordinates":[8.530413,47.175089],"type":"Point"},"properties":{"osm_id":"3366324841","tag":{"amenity":"waste_basket","waste":"dog_excrement"}},"type":"Feature"},
	{"geometry":{"coordinates":[8.530687,47.176396],"type":"Point"},"properties":{"osm_id":"3366324846","tag":{"amenity":"waste_basket","waste":"dog_excrement"}},"type":"Feature"},
	{"geometry":{"coordinates":[8.53332,47.203854],"type":"Point"},"properties":{"osm_id":"4456886779","tag":{"amenity":"waste_basket","check_date":"2021-01-24"}},"type":"Feature"},
	{"geometry":{"coordinates":[8.526261,47.195125],"type":"Point"},"properties":{"osm_id":"4970398921","tag":{"amenity":"waste_basket"}},"type":"Feature"},
	{"geometry":{"coordinates":[8.549097,47.167399],"type":"Point"},"properties":{"osm_id":"4979424622","tag":{"amenity":"waste_basket"}},"type":"Feature"},
	{"geometry":{"coordinates":[8.53328,47.165701],"type":"Point"},"properties":{"osm_id":"4979454522","tag":{"amenity":"waste_basket"}},"type":"Feature"},
	{"geometry":{"coordinates":[8.53065,47.165126],"type":"Point"},"properties":{"osm_id":"4979458622","tag":{"amenity":"waste_basket"}},"type":"Feature"},
	{"geometry":{"coordinates":[8.527506,47.163944],"type":"Point"},"properties":{"osm_id":"4979471622","tag":{"amenity":"waste_basket"}},"type":"Feature"},
	{"geometry":{"coordinates":[8.606537,47.217216],"type":"Point"},"properties":{"osm_id":"5478160121","tag":{"amenity":"waste_basket"}},"type":"Feature"},
	{"geometry":{"coordinates":[8.607519,47.216391],"type":"Point"},"properties":{"osm_id":"5478166324","tag":{"amenity":"waste_basket"}},"type":"Feature"},
	{"geometry":{"coordinates":[8.610383,47.216035],"type":"Point"},"properties":{"osm_id":"5478167521","tag":{"amenity":"waste_basket"}},"type":"Feature"},
	{"geometry":{"coordinates":[8.609791,47.215896],"type":"Point"},"properties":{"osm_id":"5478178825","tag":{"amenity":"recycling","recycling:cans":"yes","recycling:clothes":"yes","recycling:glass_bottles":"yes","recycling_type":"container"}},"type":"Feature"},
	{"geometry":{"coordinates":[8.569098,47.197299],"type":"Point"},"properties":{"osm_id":"6391595441","tag":{"amenity":"waste_basket","waste":"trash"}},"type":"Feature"},
	{"geometry":{"coordinates":[8.611616,47.206247],"type":"Point"},"properties":{"osm_id":"6561897387","tag":{"amenity":"waste_basket"}},"type":"Feature"},
	{"geometry":{"coordinates":[8.587555,47.171518],"type":"Point"},"properties":{"osm_id":"6974190934","tag":{"amenity":"waste_basket","waste":"trash"}},"type":"Feature"},
	{"geometry":{"coordinates":[8.590634,47.176425],"type":"Point"},"properties":{"osm_id":"6974190936","tag":{"amenity":"waste_basket"}},"type":"Feature"},
	{"geometry":{"coordinates":[8.590501,47.178383],"type":"Point"},"properties":{"osm_id":"6974190955","tag":{"amenity":"waste_basket","waste":"trash"}},"type":"Feature"},
	{"geometry":{"coordinates":[8.568774,47.2065],"type":"Point"},"properties":{"osm_id":"7573382762","tag":{"amenity":"waste_basket","waste":"trash"}},"type":"Feature"},
	{"geometry":{"coordinates":[8.547645,47.194337],"type":"Point"},"properties":{"osm_id":"7573382773","tag":{"amenity":"waste_basket","waste":"trash"}},"type":"Feature"},
	{"geometry":{"coordinates":[8.542403,47.194519],"type":"Point"},"properties":{"osm_id":"7573382778","tag":{"amenity":"waste_basket","waste":"trash"}},"type":"Feature"},
	{"geometry":{"coordinates":[8.541064,47.195089],"type":"Point"},"properties":{"osm_id":"7573382779","tag":{"amenity":"waste_basket","waste":"trash"}},"type":"Feature"},
	{"geometry":{"coordinates":[8.527264,47.188624],"type":"Point"},"properties":{"osm_id":"7673252347","tag":{"amenity":"waste_basket","waste":"trash"}},"type":"Feature"},
	{"geometry":{"coordinates":[8.528393,47.187978],"type":"Point"},"properties":{"osm_id":"7673252355","tag":{"amenity":"waste_basket","waste":"trash"}},"type":"Feature"},
	{"geometry":{"coordinates":[8.530852,47.188755],"type":"Point"},"properties":{"osm_id":"7673252378","tag":{"amenity":"waste_basket","waste":"trash"}},"type":"Feature"},
	{"geometry":{"coordinates":[8.530731,47.190181],"type":"Point"},"properties":{"osm_id":"7673255695","tag":{"amenity":"waste_basket","waste":"trash"}},"type":"Feature"},
	{"geometry":{"coordinates":[8.529619,47.187052],"type":"Point"},"properties":{"osm_id":"7673255705","tag":{"amenity":"waste_basket","waste":"trash"}},"type":"Feature"},
	{"geometry":{"coordinates":[8.59869,47.197935],"type":"Point"},"properties":{"osm_id":"8074303123","tag":{"amenity":"waste_basket","waste":"trash"}},"type":"Feature"},
	{"geometry":{"coordinates":[8.54379,47.189683],"type":"Point"},"properties":{"osm_id":"8119550248","tag":{"amenity":"waste_basket","waste":"trash"}},"type":"Feature"},
	{"geometry":{"coordinates":[8.528793,47.196203],"type":"Point"},"properties":{"osm_id":"8383646138","tag":{"amenity":"waste_basket"}},"type":"Feature"},
	{"geometry":{"coordinates":[8.60193,47.173688],"type":"Point"},"properties":{"name":"\u00c3\u0096kihof","osm_id":"8686031802","tag":{"addr:city":"Menzingen","addr:housenumber":"11","addr:postcode":"6313","addr:street":"Industriestrasse","amenity":"recycling","recycling:aluminium":"yes","recycling:batteries":"yes","recycling:beverage_cartons":"yes","recycling:books":"yes","recycling:cans":"yes","recycling:cardboard":"yes","recycling:clothes":"yes","recycling:electrical_appliances":"yes","recycling:glass":"yes","recycling:glass_bottles":"yes","recycling:magazines":"yes","recycling:newspaper":"yes","recycling:paper":"yes","recycling:paper_packaging":"yes","recycling:plastic":"yes","recycling:plastic_bottles":"yes","recycling:plastic_packaging":"yes","recycling:scrap_metal":"yes","recycling:shoes":"yes","recycling:small_appliances":"yes","recycling:waste":"yes","recycling:wood":"yes","recycling_type":"centre","website":"https://www.zug4you.ch/en/info-guides/recycling"}},"type":"Feature"}
]
}
