{
"type": "FeatureCollection",
"features": [
	{"geometry":{"coordinates":[8.563432,40.736913],"type":"Point"},"properties":{"osm_id":"2284634018","tag":{"amenity":"recycling","recycling_type":"centre"}},"type":"Feature"},
	{"geometry":{"coordinates":[8.563523,40.736894],"type":"Point"},"properties":{"name":"Centro riciclo","osm_id":"2284635124","tag":{"amenity":"recycling","recycling_type":"centre"}},"type":"Feature"},
	{"geometry":{"coordinates":[8.563966,40.736556],"type":"Point"},"properties":{"name":"Centro del riuso solidale","osm_id":"5594238852","tag":{"amenity":"recycling","opening_hours":"Sa 09:00-12:00","operator":"Comune di Sassari","phone":"329 088 2861","recycling_type":"centre"}},"type":"Feature"},
	{"geometry":{"coordinates":[8.552231,40.714463],"type":"Point"},"properties":{"osm_id":"6327509430","tag":{"amenity":"waste_disposal"}},"type":"Feature"},
	{"geometry":{"coordinates":[8.552842,40.71465],"type":"Point"},"properties":{"osm_id":"6327512620","tag":{"amenity":"waste_disposal"}},"type":"Feature"}
]
}
