{
"type": "FeatureCollection",
"features": [
	{"geometry":{"coordinates":[-79.699675,43.584116],"type":"Point"},"properties":{"osm_id":"416013027","tag":{"amenity":"waste_basket"}},"type":"Feature"},
	{"geometry":{"coordinates":[-79.709519,43.58274],"type":"Point"},"properties":{"osm_id":"416018335","tag":{"amenity":"waste_basket"}},"type":"Feature"},
	{"geometry":{"coordinates":[-79.712003,43.581602],"type":"Point"},"properties":{"osm_id":"416018579","tag":{"amenity":"waste_basket"}},"type":"Feature"},
	{"geometry":{"coordinates":[-79.647122,43.59404],"type":"Point"},"properties":{"osm_id":"1862821639","tag":{"amenity":"waste_basket"}},"type":"Feature"},
	{"geometry":{"coordinates":[-79.631531,43.640116],"type":"Point"},"properties":{"name":"Heritage Crystal Clean","osm_id":"5470131587","tag":{"amenity":"recycling","recycling_type":"centre"}},"type":"Feature"},
	{"geometry":{"coordinates":[-79.686395,43.629824],"type":"Point"},"properties":{"osm_id":"5695586576","tag":{"amenity":"waste_basket","colour":"grey"}},"type":"Feature"},
	{"geometry":{"coordinates":[-79.696442,43.58644],"type":"Point"},"properties":{"osm_id":"5779735640","tag":{"amenity":"recycling","recycling:clothes":"yes","recycling_type":"container"}},"type":"Feature"}
]
}
