{
"type": "FeatureCollection",
"features": [
	{"geometry":{"coordinates":[6.008073,50.724195],"type":"Point"},"properties":{"osm_id":"733257501","tag":{"description":"Holzbank darum, metallgitte als R\u00c3\u00bcckenlehne und Baumschutz","natural":"tree"}},"type":"Feature"},
	{"geometry":{"coordinates":[6.002404,50.692847],"type":"Point"},"properties":{"name":"Bruchweide","osm_id":"1432149181","tag":{"name:de":"Bruchweide","name:fr":"Saule fragile","natural":"tree","species":"Salix fragilis"}},"type":"Feature"},
	{"geometry":{"coordinates":[6.005141,50.691679],"type":"Point"},"properties":{"name":"Buche","osm_id":"1432149183","tag":{"name:de":"Buche","name:fr":"H\u00c3\u00aatre commun","natural":"tree","species":"Fagus sylvatica"}},"type":"Feature"},
	{"geometry":{"coordinates":[6.001405,50.692666],"type":"Point"},"properties":{"name":"Flaumeiche","osm_id":"1432149192","tag":{"name:de":"Flaumeiche","name:fr":"Ch\u00c3\u00aane pubescent","natural":"tree","species":"Quelcus pubescens"}},"type":"Feature"},
	{"geometry":{"coordinates":[6.006105,50.691131],"type":"Point"},"properties":{"name":"Mispel","osm_id":"1432149201","tag":{"name:de":"Mispel","name:fr":"N\u00c3\u00a9flier","natural":"tree","species":"Mespilus"}},"type":"Feature"},
	{"geometry":{"coordinates":[6.005451,50.69151],"type":"Point"},"properties":{"name":"Sommerlinde","osm_id":"1432149403","tag":{"name:de":"Sommerlinde","name:fr":"Tilleul \u00c3\u00a0 larges feuilles","natural":"tree","species":"Tilia platyphyllos"}},"type":"Feature"},
	{"geometry":{"coordinates":[6.004192,50.692307],"type":"Point"},"properties":{"name":"Stieleiche","osm_id":"1432149404","tag":{"name:de":"Stieleiche","name:fr":"Ch\u00c3\u00aane p\u00c3\u00a9dorcul\u00c3\u00a9","natural":"tree","species":"Quelcus robur"}},"type":"Feature"},
	{"geometry":{"coordinates":[6.004668,50.692099],"type":"Point"},"properties":{"name":"Wei\u00c3\u009fdorn","osm_id":"1432149406","tag":{"name:de":"Wei\u00c3\u009fdorn","name:fr":"Aub\u00c3\u00a9pine","natural":"tree","species":"Crataegus monogyna"}},"type":"Feature"},
	{"geometry":{"coordinates":[6.005328,50.691588],"type":"Point"},"properties":{"name":"Winterlinde","osm_id":"1432149407","tag":{"name:de":"Winterlinde","name:fr":"Tilleul","natural":"tree","species":"Tilia cordata"}},"type":"Feature"},
	{"geometry":{"coordinates":[6.00806,50.68836],"type":"Point"},"properties":{"name":"Holunder","osm_id":"1446063076","tag":{"name:de":"Holunder","name:fr":"Sureau noir","natural":"tree","species":"Sambucus nigra"}},"type":"Feature"},
	{"geometry":{"coordinates":[6.007858,50.687118],"type":"Point"},"properties":{"name":"Rotdorn","osm_id":"1446063077","tag":{"name:de":"Rotdorn","name:fr":"Aub\u00c3\u00a9pine rouge","natural":"tree","species":"Crataegus monogyna \"Paul's Scarlett\""}},"type":"Feature"},
	{"geometry":{"coordinates":[6.008133,50.687515],"type":"Point"},"properties":{"name":"Speierling","osm_id":"1446063078","tag":{"name:de":"Speierling","name:fr":"Sorbier domestique","natural":"tree","species":"Sorbus domestica"}},"type":"Feature"},
	{"geometry":{"coordinates":[6.008184,50.687775],"type":"Point"},"properties":{"name":"Traubenkirsche","osm_id":"1446063079","tag":{"name:de":"Traubenkirsche","name:fr":"Cerisier \u00c3\u00a0 grappes","natural":"tree","species":"Prunus padus"}},"type":"Feature"},
	{"geometry":{"coordinates":[6.00079,50.69192],"type":"Point"},"properties":{"name":"Liguster","osm_id":"1454233614","tag":{"name:de":"Liguster","name:fr":"Tro\u00c3\u00a8ne","natural":"tree","species":"Ligustrum vulgare"}},"type":"Feature"},
	{"geometry":{"coordinates":[6.01507,50.688284],"type":"Point"},"properties":{"name":"Baumefeu","osm_id":"1470007347","tag":{"name:de":"Baumefeu","name:fr":"Lierre grimpant","natural":"tree","species":"Hedera helix \"arborescens\""}},"type":"Feature"},
	{"geometry":{"coordinates":[6.015287,50.688987],"type":"Point"},"properties":{"name":"Echte Walnuss","osm_id":"1470007356","tag":{"name:de":"Echte Walnuss","name:fr":"Noyer","natural":"tree","species":"Juglans regia"}},"type":"Feature"},
	{"geometry":{"coordinates":[6.015003,50.689306],"type":"Point"},"properties":{"name":"Essbirnbaum","osm_id":"1470007360","tag":{"name:de":"Essbirnbaum","name:fr":"Poirier","natural":"tree","species":"Pyrus domestica"}},"type":"Feature"},
	{"geometry":{"coordinates":[6.007528,50.688597],"type":"Point"},"properties":{"name":"Esskastanie","osm_id":"1470007363","tag":{"name:de":"Esskastanie","name:fr":"Ch\u00c3\u00a2taignier","natural":"tree","species":"Castanea sanva"}},"type":"Feature"},
	{"geometry":{"coordinates":[5.99883,50.688555],"type":"Point"},"properties":{"name":"Feldahorn","osm_id":"1470007372","tag":{"name:de":"Feldahorn","name:fr":"Erable champ\u00c3\u00aatre","natural":"tree","species":"Acer campestre"}},"type":"Feature"},
	{"geometry":{"coordinates":[6.015077,50.688266],"type":"Point"},"properties":{"name":"Gemeine Esche","osm_id":"1470007373","tag":{"name:de":"Gemeine Esche","name:fr":"Fr\u00c3\u00aane commun","natural":"tree","species":"Fraxinus excelsior"}},"type":"Feature"},
	{"geometry":{"coordinates":[5.998271,50.688314],"type":"Point"},"properties":{"name":"Gemeiner Schneeball","osm_id":"1470007374","tag":{"name:de":"Gemeiner Schneeball","name:fr":"Viorne obier","natural":"tree","species":"Viburnum opulus"}},"type":"Feature"},
	{"geometry":{"coordinates":[6.013674,50.690071],"type":"Point"},"properties":{"name":"Hainbuche","osm_id":"1470007385","tag":{"name:de":"Hainbuche","name:fr":"Charme","natural":"tree","species":"Carpinus betulus"}},"type":"Feature"},
	{"geometry":{"coordinates":[6.009039,50.689861],"type":"Point"},"properties":{"name":"H\u00c3\u00a4ngebirke","osm_id":"1470007388","tag":{"name:de":"H\u00c3\u00a4ngebirke","name:fr":"Bouleau","natural":"tree","species":"Betula pendula pendula"}},"type":"Feature"},
	{"geometry":{"coordinates":[6.000319,50.68794],"type":"Point"},"properties":{"name":"Mehlbeere","osm_id":"1470007390","tag":{"name:de":"Mehlbeere","name:fr":"Alisier","natural":"tree","species":"Sorbus aria"}},"type":"Feature"},
	{"geometry":{"coordinates":[6.014263,50.689995],"type":"Point"},"properties":{"name":"Pappel","osm_id":"1470007398","tag":{"name:de":"Pappel","name:fr":"Peuplier","natural":"tree","species":"Populus canadensis"}},"type":"Feature"},
	{"geometry":{"coordinates":[6.015179,50.688565],"type":"Point"},"properties":{"name":"Pflaumenbaum","osm_id":"1470007401","tag":{"name:de":"Pflaumenbaum","name:fr":"Prunier","natural":"tree","species":"Prunus domestica"}},"type":"Feature"},
	{"geometry":{"coordinates":[6.00893,50.689756],"type":"Point"},"properties":{"name":"Rosskastanie","osm_id":"1470007460","tag":{"name:de":"Rosskastanie","name:fr":"Marronier","natural":"tree","species":"Aesculus hippocastanum"}},"type":"Feature"},
	{"geometry":{"coordinates":[6.004293,50.687926],"type":"Point"},"properties":{"name":"Schlehe","osm_id":"1470007462","tag":{"name:de":"Schlehe","name:fr":"Prunellier","natural":"tree","species":"Prunus spinosa"}},"type":"Feature"},
	{"geometry":{"coordinates":[6.002886,50.687401],"type":"Point"},"properties":{"name":"Spindelbaum","osm_id":"1470007464","tag":{"name:de":"Spindelbaum","name:fr":"Fusain","natural":"tree","species":"Euonymus europaea"}},"type":"Feature"},
	{"geometry":{"coordinates":[5.999648,50.688255],"type":"Point"},"properties":{"name":"Stechpalme","osm_id":"1470007472","tag":{"name:de":"Stechpalme","name:fr":"Houx","natural":"tree","species":"Ilex auifolium"}},"type":"Feature"},
	{"geometry":{"coordinates":[6.001372,50.687652],"type":"Point"},"properties":{"name":"Vogelbeerbaum","osm_id":"1470007474","tag":{"name:de":"Vogelbeerbaum","name:fr":"Sorbier","natural":"tree","species":"Sorbus aucuparla"}},"type":"Feature"},
	{"geometry":{"coordinates":[6.028265,50.681123],"type":"Point"},"properties":{"osm_id":"1498938684","tag":{"natural":"tree"}},"type":"Feature"},
	{"geometry":{"coordinates":[5.983249,50.706673],"type":"Point"},"properties":{"osm_id":"1548794186","tag":{"denotation":"avenue","leaf_cycle":"deciduous","leaf_type":"broadleaved","natural":"tree"}},"type":"Feature"},
	{"geometry":{"coordinates":[5.98273,50.706099],"type":"Point"},"properties":{"osm_id":"1548853852","tag":{"denotation":"avenue","leaf_cycle":"deciduous","leaf_type":"broadleaved","natural":"tree"}},"type":"Feature"},
	{"geometry":{"coordinates":[6.037444,50.723171],"type":"Point"},"properties":{"osm_id":"1923688708","tag":{"natural":"tree"}},"type":"Feature"},
	{"geometry":{"coordinates":[6.037743,50.723204],"type":"Point"},"properties":{"osm_id":"1923688714","tag":{"natural":"tree"}},"type":"Feature"},
	{"geometry":{"coordinates":[6.037949,50.723217],"type":"Point"},"properties":{"osm_id":"1923688716","tag":{"natural":"tree"}},"type":"Feature"},
	{"geometry":{"coordinates":[6.038465,50.723262],"type":"Point"},"properties":{"osm_id":"1923688721","tag":{"natural":"tree"}},"type":"Feature"},
	{"geometry":{"coordinates":[6.038612,50.723278],"type":"Point"},"properties":{"osm_id":"1923688724","tag":{"natural":"tree"}},"type":"Feature"},
	{"geometry":{"coordinates":[5.99898,50.708737],"type":"Point"},"properties":{"osm_id":"2352014733","tag":{"natural":"tree"}},"type":"Feature"},
	{"geometry":{"coordinates":[5.999736,50.708771],"type":"Point"},"properties":{"osm_id":"2352014734","tag":{"natural":"tree"}},"type":"Feature"},
	{"geometry":{"coordinates":[5.999233,50.708873],"type":"Point"},"properties":{"osm_id":"2352014735","tag":{"natural":"tree"}},"type":"Feature"},
	{"geometry":{"coordinates":[5.999731,50.708876],"type":"Point"},"properties":{"osm_id":"2352014736","tag":{"natural":"tree"}},"type":"Feature"},
	{"geometry":{"coordinates":[5.999433,50.708947],"type":"Point"},"properties":{"osm_id":"2352014737","tag":{"natural":"tree"}},"type":"Feature"},
	{"geometry":{"coordinates":[5.999614,50.708993],"type":"Point"},"properties":{"osm_id":"2352014738","tag":{"natural":"tree"}},"type":"Feature"},
	{"geometry":{"coordinates":[5.99938,50.70904],"type":"Point"},"properties":{"osm_id":"2352014739","tag":{"natural":"tree"}},"type":"Feature"},
	{"geometry":{"coordinates":[5.999919,50.708953],"type":"Point"},"properties":{"osm_id":"2352015791","tag":{"natural":"tree"}},"type":"Feature"},
	{"geometry":{"coordinates":[6.00008,50.709049],"type":"Point"},"properties":{"osm_id":"2352015792","tag":{"natural":"tree"}},"type":"Feature"},
	{"geometry":{"coordinates":[5.990628,50.71626],"type":"Point"},"properties":{"osm_id":"2352242476","tag":{"natural":"tree"}},"type":"Feature"},
	{"geometry":{"coordinates":[5.990414,50.716363],"type":"Point"},"properties":{"osm_id":"2352242477","tag":{"natural":"tree"}},"type":"Feature"},
	{"geometry":{"coordinates":[5.990221,50.716457],"type":"Point"},"properties":{"osm_id":"2352242478","tag":{"natural":"tree"}},"type":"Feature"},
	{"geometry":{"coordinates":[5.990025,50.716556],"type":"Point"},"properties":{"osm_id":"2352242479","tag":{"natural":"tree"}},"type":"Feature"},
	{"geometry":{"coordinates":[5.989822,50.716654],"type":"Point"},"properties":{"osm_id":"2352242480","tag":{"natural":"tree"}},"type":"Feature"},
	{"geometry":{"coordinates":[5.989673,50.716738],"type":"Point"},"properties":{"osm_id":"2352242481","tag":{"natural":"tree"}},"type":"Feature"},
	{"geometry":{"coordinates":[5.989565,50.7168],"type":"Point"},"properties":{"osm_id":"2352242482","tag":{"natural":"tree"}},"type":"Feature"},
	{"geometry":{"coordinates":[5.989412,50.716884],"type":"Point"},"properties":{"osm_id":"2352242483","tag":{"natural":"tree"}},"type":"Feature"},
	{"geometry":{"coordinates":[5.989287,50.71695],"type":"Point"},"properties":{"osm_id":"2352242484","tag":{"natural":"tree"}},"type":"Feature"},
	{"geometry":{"coordinates":[5.989206,50.716991],"type":"Point"},"properties":{"osm_id":"2352242485","tag":{"natural":"tree"}},"type":"Feature"},
	{"geometry":{"coordinates":[5.985609,50.713544],"type":"Point"},"properties":{"osm_id":"2352249074","tag":{"natural":"tree"}},"type":"Feature"},
	{"geometry":{"coordinates":[5.985619,50.713571],"type":"Point"},"properties":{"osm_id":"2352249077","tag":{"natural":"tree"}},"type":"Feature"},
	{"geometry":{"coordinates":[5.985624,50.7136],"type":"Point"},"properties":{"osm_id":"2352249080","tag":{"natural":"tree"}},"type":"Feature"},
	{"geometry":{"coordinates":[5.985629,50.713632],"type":"Point"},"properties":{"osm_id":"2352249082","tag":{"natural":"tree"}},"type":"Feature"},
	{"geometry":{"coordinates":[6.000466,50.70801],"type":"Point"},"properties":{"osm_id":"2356696483","tag":{"natural":"tree"}},"type":"Feature"},
	{"geometry":{"coordinates":[5.999644,50.708086],"type":"Point"},"properties":{"osm_id":"2356696484","tag":{"natural":"tree"}},"type":"Feature"},
	{"geometry":{"coordinates":[6.000043,50.708196],"type":"Point"},"properties":{"osm_id":"2356696485","tag":{"natural":"tree"}},"type":"Feature"},
	{"geometry":{"coordinates":[5.999807,50.708215],"type":"Point"},"properties":{"osm_id":"2356696486","tag":{"natural":"tree"}},"type":"Feature"},
	{"geometry":{"coordinates":[5.999494,50.708255],"type":"Point"},"properties":{"osm_id":"2356696487","tag":{"natural":"tree"}},"type":"Feature"},
	{"geometry":{"coordinates":[5.999018,50.708396],"type":"Point"},"properties":{"osm_id":"2356696491","tag":{"natural":"tree"}},"type":"Feature"},
	{"geometry":{"coordinates":[5.999534,50.708398],"type":"Point"},"properties":{"osm_id":"2356696492","tag":{"natural":"tree"}},"type":"Feature"},
	{"geometry":{"coordinates":[6.001894,50.706816],"type":"Point"},"properties":{"osm_id":"2356706329","tag":{"natural":"tree"}},"type":"Feature"},
	{"geometry":{"coordinates":[6.002406,50.706824],"type":"Point"},"properties":{"osm_id":"2356706331","tag":{"natural":"tree"}},"type":"Feature"},
	{"geometry":{"coordinates":[6.002035,50.706843],"type":"Point"},"properties":{"osm_id":"2356706332","tag":{"natural":"tree"}},"type":"Feature"},
	{"geometry":{"coordinates":[6.002922,50.707039],"type":"Point"},"properties":{"osm_id":"2356706336","tag":{"natural":"tree"}},"type":"Feature"},
	{"geometry":{"coordinates":[6.004049,50.707617],"type":"Point"},"properties":{"osm_id":"2356706342","tag":{"natural":"tree"}},"type":"Feature"},
	{"geometry":{"coordinates":[6.003692,50.707667],"type":"Point"},"properties":{"osm_id":"2356706343","tag":{"natural":"tree"}},"type":"Feature"},
	{"geometry":{"coordinates":[5.998858,50.701292],"type":"Point"},"properties":{"osm_id":"2357995133","tag":{"natural":"tree"}},"type":"Feature"},
	{"geometry":{"coordinates":[5.998673,50.701359],"type":"Point"},"properties":{"osm_id":"2357995134","tag":{"natural":"tree"}},"type":"Feature"},
	{"geometry":{"coordinates":[5.998355,50.701453],"type":"Point"},"properties":{"osm_id":"2357995135","tag":{"natural":"tree"}},"type":"Feature"},
	{"geometry":{"coordinates":[5.998534,50.70157],"type":"Point"},"properties":{"osm_id":"2357995136","tag":{"natural":"tree"}},"type":"Feature"},
	{"geometry":{"coordinates":[5.998688,50.701665],"type":"Point"},"properties":{"osm_id":"2357995137","tag":{"natural":"tree"}},"type":"Feature"},
	{"geometry":{"coordinates":[5.998803,50.701756],"type":"Point"},"properties":{"osm_id":"2357995138","tag":{"natural":"tree"}},"type":"Feature"},
	{"geometry":{"coordinates":[5.998728,50.701854],"type":"Point"},"properties":{"osm_id":"2357995139","tag":{"natural":"tree"}},"type":"Feature"},
	{"geometry":{"coordinates":[5.998404,50.701958],"type":"Point"},"properties":{"osm_id":"2357995140","tag":{"natural":"tree"}},"type":"Feature"},
	{"geometry":{"coordinates":[5.997921,50.701961],"type":"Point"},"properties":{"osm_id":"2357995141","tag":{"natural":"tree"}},"type":"Feature"},
	{"geometry":{"coordinates":[5.999218,50.702005],"type":"Point"},"properties":{"osm_id":"2357995142","tag":{"natural":"tree"}},"type":"Feature"},
	{"geometry":{"coordinates":[5.999431,50.702065],"type":"Point"},"properties":{"osm_id":"2357995143","tag":{"natural":"tree"}},"type":"Feature"},
	{"geometry":{"coordinates":[5.988638,50.698103],"type":"Point"},"properties":{"osm_id":"2358552273","tag":{"natural":"tree"}},"type":"Feature"},
	{"geometry":{"coordinates":[5.988506,50.698397],"type":"Point"},"properties":{"osm_id":"2358552274","tag":{"natural":"tree"}},"type":"Feature"},
	{"geometry":{"coordinates":[5.986748,50.698458],"type":"Point"},"properties":{"osm_id":"2358552275","tag":{"natural":"tree"}},"type":"Feature"},
	{"geometry":{"coordinates":[5.988506,50.698519],"type":"Point"},"properties":{"osm_id":"2358552276","tag":{"natural":"tree"}},"type":"Feature"},
	{"geometry":{"coordinates":[5.986836,50.698615],"type":"Point"},"properties":{"osm_id":"2358552279","tag":{"natural":"tree"}},"type":"Feature"},
	{"geometry":{"coordinates":[5.986956,50.698681],"type":"Point"},"properties":{"osm_id":"2358552281","tag":{"natural":"tree"}},"type":"Feature"},
	{"geometry":{"coordinates":[5.986768,50.698742],"type":"Point"},"properties":{"osm_id":"2358552282","tag":{"natural":"tree"}},"type":"Feature"},
	{"geometry":{"coordinates":[5.989584,50.698754],"type":"Point"},"properties":{"osm_id":"2358552283","tag":{"natural":"tree"}},"type":"Feature"},
	{"geometry":{"coordinates":[5.988834,50.698759],"type":"Point"},"properties":{"osm_id":"2358552284","tag":{"natural":"tree"}},"type":"Feature"},
	{"geometry":{"coordinates":[5.988998,50.69884],"type":"Point"},"properties":{"osm_id":"2358552287","tag":{"natural":"tree"}},"type":"Feature"},
	{"geometry":{"coordinates":[5.989785,50.698869],"type":"Point"},"properties":{"osm_id":"2358552288","tag":{"natural":"tree"}},"type":"Feature"},
	{"geometry":{"coordinates":[5.986792,50.698874],"type":"Point"},"properties":{"osm_id":"2358552289","tag":{"natural":"tree"}},"type":"Feature"},
	{"geometry":{"coordinates":[5.987337,50.698889],"type":"Point"},"properties":{"osm_id":"2358552291","tag":{"natural":"tree"}},"type":"Feature"},
	{"geometry":{"coordinates":[5.986663,50.698806],"type":"Point"},"properties":{"osm_id":"2358552294","tag":{"natural":"tree"}},"type":"Feature"},
	{"geometry":{"coordinates":[5.988694,50.698684],"type":"Point"},"properties":{"osm_id":"2358552295","tag":{"natural":"tree"}},"type":"Feature"},
	{"geometry":{"coordinates":[5.987473,50.698963],"type":"Point"},"properties":{"osm_id":"2358552296","tag":{"natural":"tree"}},"type":"Feature"},
	{"geometry":{"coordinates":[5.989723,50.698964],"type":"Point"},"properties":{"osm_id":"2358552297","tag":{"natural":"tree"}},"type":"Feature"},
	{"geometry":{"coordinates":[5.989097,50.699034],"type":"Point"},"properties":{"osm_id":"2358552303","tag":{"natural":"tree"}},"type":"Feature"},
	{"geometry":{"coordinates":[5.987861,50.699064],"type":"Point"},"properties":{"osm_id":"2358552304","tag":{"natural":"tree"}},"type":"Feature"},
	{"geometry":{"coordinates":[5.990023,50.699114],"type":"Point"},"properties":{"osm_id":"2358552308","tag":{"natural":"tree"}},"type":"Feature"},
	{"geometry":{"coordinates":[5.99019,50.699156],"type":"Point"},"properties":{"osm_id":"2358552309","tag":{"natural":"tree"}},"type":"Feature"},
	{"geometry":{"coordinates":[5.988913,50.699236],"type":"Point"},"properties":{"osm_id":"2358552310","tag":{"natural":"tree"}},"type":"Feature"},
	{"geometry":{"coordinates":[5.990065,50.699252],"type":"Point"},"properties":{"osm_id":"2358552311","tag":{"natural":"tree"}},"type":"Feature"},
	{"geometry":{"coordinates":[5.98778,50.699263],"type":"Point"},"properties":{"osm_id":"2358552312","tag":{"natural":"tree"}},"type":"Feature"},
	{"geometry":{"coordinates":[5.988041,50.699306],"type":"Point"},"properties":{"osm_id":"2358552313","tag":{"natural":"tree"}},"type":"Feature"},
	{"geometry":{"coordinates":[5.989063,50.699487],"type":"Point"},"properties":{"osm_id":"2358552314","tag":{"natural":"tree"}},"type":"Feature"},
	{"geometry":{"coordinates":[5.987449,50.699564],"type":"Point"},"properties":{"osm_id":"2358552315","tag":{"natural":"tree"}},"type":"Feature"},
	{"geometry":{"coordinates":[5.989006,50.699606],"type":"Point"},"properties":{"osm_id":"2358552316","tag":{"natural":"tree"}},"type":"Feature"},
	{"geometry":{"coordinates":[5.988572,50.694137],"type":"Point"},"properties":{"osm_id":"2358581291","tag":{"natural":"tree"}},"type":"Feature"},
	{"geometry":{"coordinates":[5.988442,50.694205],"type":"Point"},"properties":{"osm_id":"2358581297","tag":{"natural":"tree"}},"type":"Feature"},
	{"geometry":{"coordinates":[5.987462,50.694556],"type":"Point"},"properties":{"osm_id":"2358581303","tag":{"natural":"tree"}},"type":"Feature"},
	{"geometry":{"coordinates":[5.987174,50.694693],"type":"Point"},"properties":{"osm_id":"2358581306","tag":{"natural":"tree"}},"type":"Feature"},
	{"geometry":{"coordinates":[5.990101,50.694786],"type":"Point"},"properties":{"osm_id":"2358581310","tag":{"natural":"tree"}},"type":"Feature"},
	{"geometry":{"coordinates":[5.988448,50.695184],"type":"Point"},"properties":{"osm_id":"2358581312","tag":{"natural":"tree"}},"type":"Feature"},
	{"geometry":{"coordinates":[5.98825,50.695227],"type":"Point"},"properties":{"osm_id":"2358581315","tag":{"natural":"tree"}},"type":"Feature"},
	{"geometry":{"coordinates":[5.990007,50.695606],"type":"Point"},"properties":{"osm_id":"2358581317","tag":{"denotation":"agricultural","leaf_cycle":"deciduous","leaf_type":"broadleaved","natural":"tree"}},"type":"Feature"},
	{"geometry":{"coordinates":[6.001202,50.692658],"type":"Point"},"properties":{"name":"Flaumeiche","osm_id":"2358599027","tag":{"name:de":"Flaumeiche","name:fr":"Ch\u00c3\u00aane pubescent","natural":"tree","species":"Quelcus pubescens"}},"type":"Feature"},
	{"geometry":{"coordinates":[6.001239,50.692742],"type":"Point"},"properties":{"name":"Flaumeiche","osm_id":"2358599028","tag":{"name:de":"Flaumeiche","name:fr":"Ch\u00c3\u00aane pubescent","natural":"tree","species":"Quelcus pubescens"}},"type":"Feature"},
	{"geometry":{"coordinates":[6.014682,50.703383],"type":"Point"},"properties":{"osm_id":"2359541548","tag":{"natural":"tree"}},"type":"Feature"},
	{"geometry":{"coordinates":[6.01464,50.705344],"type":"Point"},"properties":{"osm_id":"2359542130","tag":{"natural":"tree"}},"type":"Feature"},
	{"geometry":{"coordinates":[6.013381,50.70566],"type":"Point"},"properties":{"osm_id":"2359542131","tag":{"natural":"tree"}},"type":"Feature"},
	{"geometry":{"coordinates":[6.011207,50.706683],"type":"Point"},"properties":{"osm_id":"2359542133","tag":{"natural":"tree"}},"type":"Feature"},
	{"geometry":{"coordinates":[6.031377,50.703215],"type":"Point"},"properties":{"osm_id":"2359588072","tag":{"natural":"tree"}},"type":"Feature"},
	{"geometry":{"coordinates":[6.03033,50.703397],"type":"Point"},"properties":{"osm_id":"2359588073","tag":{"natural":"tree"}},"type":"Feature"},
	{"geometry":{"coordinates":[6.026546,50.70611],"type":"Point"},"properties":{"osm_id":"2359596064","tag":{"natural":"tree"}},"type":"Feature"},
	{"geometry":{"coordinates":[6.026522,50.706144],"type":"Point"},"properties":{"osm_id":"2359596065","tag":{"natural":"tree"}},"type":"Feature"},
	{"geometry":{"coordinates":[6.026386,50.706307],"type":"Point"},"properties":{"osm_id":"2359596066","tag":{"natural":"tree"}},"type":"Feature"},
	{"geometry":{"coordinates":[6.024853,50.706732],"type":"Point"},"properties":{"osm_id":"2359596067","tag":{"natural":"tree"}},"type":"Feature"},
	{"geometry":{"coordinates":[6.015989,50.705102],"type":"Point"},"properties":{"osm_id":"2369924188","tag":{"natural":"tree"}},"type":"Feature"},
	{"geometry":{"coordinates":[6.022064,50.706611],"type":"Point"},"properties":{"osm_id":"2369945991","tag":{"natural":"tree"}},"type":"Feature"},
	{"geometry":{"coordinates":[6.022252,50.706654],"type":"Point"},"properties":{"osm_id":"2369945993","tag":{"natural":"tree"}},"type":"Feature"},
	{"geometry":{"coordinates":[6.022413,50.706713],"type":"Point"},"properties":{"osm_id":"2369945995","tag":{"natural":"tree"}},"type":"Feature"},
	{"geometry":{"coordinates":[6.022639,50.706845],"type":"Point"},"properties":{"osm_id":"2369945996","tag":{"natural":"tree"}},"type":"Feature"},
	{"geometry":{"coordinates":[6.022873,50.706956],"type":"Point"},"properties":{"osm_id":"2369945997","tag":{"natural":"tree"}},"type":"Feature"},
	{"geometry":{"coordinates":[6.022788,50.707082],"type":"Point"},"properties":{"osm_id":"2369945998","tag":{"natural":"tree"}},"type":"Feature"},
	{"geometry":{"coordinates":[6.023392,50.707363],"type":"Point"},"properties":{"osm_id":"2369945999","tag":{"natural":"tree"}},"type":"Feature"},
	{"geometry":{"coordinates":[6.023358,50.707573],"type":"Point"},"properties":{"osm_id":"2369946000","tag":{"natural":"tree"}},"type":"Feature"},
	{"geometry":{"coordinates":[6.030295,50.729791],"type":"Point"},"properties":{"osm_id":"2381678568","tag":{"natural":"tree"}},"type":"Feature"},
	{"geometry":{"coordinates":[6.015165,50.705538],"type":"Point"},"properties":{"osm_id":"2385336948","tag":{"natural":"tree"}},"type":"Feature"},
	{"geometry":{"coordinates":[6.015199,50.705843],"type":"Point"},"properties":{"osm_id":"2385336955","tag":{"natural":"tree"}},"type":"Feature"},
	{"geometry":{"coordinates":[6.014736,50.705868],"type":"Point"},"properties":{"osm_id":"2385336965","tag":{"natural":"tree"}},"type":"Feature"},
	{"geometry":{"coordinates":[6.014427,50.706025],"type":"Point"},"properties":{"osm_id":"2385336970","tag":{"natural":"tree"}},"type":"Feature"},
	{"geometry":{"coordinates":[6.014477,50.706185],"type":"Point"},"properties":{"osm_id":"2385336976","tag":{"natural":"tree"}},"type":"Feature"},
	{"geometry":{"coordinates":[6.015815,50.705434],"type":"Point"},"properties":{"osm_id":"2392836927","tag":{"natural":"tree"}},"type":"Feature"},
	{"geometry":{"coordinates":[6.026279,50.725175],"type":"Point"},"properties":{"osm_id":"2405043802","tag":{"natural":"tree"}},"type":"Feature"},
	{"geometry":{"coordinates":[6.026341,50.726779],"type":"Point"},"properties":{"osm_id":"2405043803","tag":{"natural":"tree"}},"type":"Feature"},
	{"geometry":{"coordinates":[6.025986,50.727048],"type":"Point"},"properties":{"osm_id":"2405043804","tag":{"natural":"tree"}},"type":"Feature"},
	{"geometry":{"coordinates":[6.025683,50.727094],"type":"Point"},"properties":{"osm_id":"2405043805","tag":{"natural":"tree"}},"type":"Feature"},
	{"geometry":{"coordinates":[6.025859,50.7272],"type":"Point"},"properties":{"osm_id":"2405043806","tag":{"natural":"tree"}},"type":"Feature"},
	{"geometry":{"coordinates":[6.025599,50.727295],"type":"Point"},"properties":{"osm_id":"2405043807","tag":{"natural":"tree"}},"type":"Feature"},
	{"geometry":{"coordinates":[5.989173,50.724317],"type":"Point"},"properties":{"osm_id":"2406778199","tag":{"natural":"tree"}},"type":"Feature"},
	{"geometry":{"coordinates":[5.981598,50.71897],"type":"Point"},"properties":{"osm_id":"2408291435","tag":{"natural":"tree"}},"type":"Feature"},
	{"geometry":{"coordinates":[5.981964,50.71902],"type":"Point"},"properties":{"osm_id":"2408291436","tag":{"natural":"tree"}},"type":"Feature"},
	{"geometry":{"coordinates":[5.981535,50.71928],"type":"Point"},"properties":{"osm_id":"2408291439","tag":{"natural":"tree"}},"type":"Feature"},
	{"geometry":{"coordinates":[5.981258,50.719385],"type":"Point"},"properties":{"osm_id":"2408291440","tag":{"natural":"tree"}},"type":"Feature"},
	{"geometry":{"coordinates":[6.025099,50.727311],"type":"Point"},"properties":{"osm_id":"2484807123","tag":{"natural":"tree"}},"type":"Feature"},
	{"geometry":{"coordinates":[6.024863,50.727485],"type":"Point"},"properties":{"osm_id":"2484807124","tag":{"natural":"tree"}},"type":"Feature"},
	{"geometry":{"coordinates":[6.026843,50.727902],"type":"Point"},"properties":{"osm_id":"2484807131","tag":{"natural":"tree"}},"type":"Feature"},
	{"geometry":{"coordinates":[6.026651,50.728036],"type":"Point"},"properties":{"osm_id":"2484807133","tag":{"natural":"tree"}},"type":"Feature"},
	{"geometry":{"coordinates":[6.026463,50.728136],"type":"Point"},"properties":{"osm_id":"2484807135","tag":{"natural":"tree"}},"type":"Feature"},
	{"geometry":{"coordinates":[6.035351,50.700282],"type":"Point"},"properties":{"osm_id":"2508980542","tag":{"natural":"tree"}},"type":"Feature"},
	{"geometry":{"coordinates":[5.983485,50.718969],"type":"Point"},"properties":{"osm_id":"2536230301","tag":{"natural":"tree"}},"type":"Feature"},
	{"geometry":{"coordinates":[5.983626,50.719007],"type":"Point"},"properties":{"osm_id":"2536230302","tag":{"natural":"tree"}},"type":"Feature"},
	{"geometry":{"coordinates":[5.983763,50.719083],"type":"Point"},"properties":{"osm_id":"2536230304","tag":{"natural":"tree"}},"type":"Feature"},
	{"geometry":{"coordinates":[5.983889,50.719135],"type":"Point"},"properties":{"osm_id":"2536230305","tag":{"natural":"tree"}},"type":"Feature"},
	{"geometry":{"coordinates":[5.983995,50.71919],"type":"Point"},"properties":{"osm_id":"2536230307","tag":{"natural":"tree"}},"type":"Feature"},
	{"geometry":{"coordinates":[5.984135,50.719262],"type":"Point"},"properties":{"osm_id":"2536230308","tag":{"natural":"tree"}},"type":"Feature"},
	{"geometry":{"coordinates":[5.984367,50.719364],"type":"Point"},"properties":{"osm_id":"2536230310","tag":{"natural":"tree"}},"type":"Feature"},
	{"geometry":{"coordinates":[6.006451,50.711327],"type":"Point"},"properties":{"osm_id":"2582241752","tag":{"natural":"tree"}},"type":"Feature"},
	{"geometry":{"coordinates":[6.006246,50.711429],"type":"Point"},"properties":{"osm_id":"2582241760","tag":{"natural":"tree"}},"type":"Feature"},
	{"geometry":{"coordinates":[6.030234,50.709985],"type":"Point"},"properties":{"osm_id":"2796138874","tag":{"natural":"tree"}},"type":"Feature"},
	{"geometry":{"coordinates":[6.040231,50.70162],"type":"Point"},"properties":{"osm_id":"2806041008","tag":{"natural":"tree"}},"type":"Feature"},
	{"geometry":{"coordinates":[6.05303,50.695477],"type":"Point"},"properties":{"osm_id":"3276396933","tag":{"leaf_type":"broadleaved","natural":"tree"}},"type":"Feature"},
	{"geometry":{"coordinates":[6.053908,50.695794],"type":"Point"},"properties":{"osm_id":"3276396936","tag":{"leaf_type":"broadleaved","natural":"tree"}},"type":"Feature"},
	{"geometry":{"coordinates":[6.015927,50.705517],"type":"Point"},"properties":{"osm_id":"4870368348","tag":{"natural":"tree"}},"type":"Feature"},
	{"geometry":{"coordinates":[6.015791,50.705542],"type":"Point"},"properties":{"osm_id":"4870368349","tag":{"natural":"tree"}},"type":"Feature"},
	{"geometry":{"coordinates":[6.040024,50.687067],"type":"Point"},"properties":{"osm_id":"5540483987","tag":{"natural":"tree"}},"type":"Feature"},
	{"geometry":{"coordinates":[6.040002,50.687058],"type":"Point"},"properties":{"osm_id":"5540483999","tag":{"natural":"tree"}},"type":"Feature"},
	{"geometry":{"coordinates":[6.040932,50.692487],"type":"Point"},"properties":{"osm_id":"5540484002","tag":{"natural":"tree"}},"type":"Feature"}
]
}
