{
"type": "FeatureCollection",
"features": [
	{"geometry":{"coordinates":[137.853443,35.532556],"type":"Point"},"properties":{"name":"\u00e9\u00ba\u00bb\u00e7\u00b8\u00be\u00e3\u0081\u00ae\u00e9\u0087\u008c \u00e7\u009f\u00b3\u00e5\u00a1\u009a\u00e6\u00a1\u009c","osm_id":"5571388463","tag":{"denotation":"natural_monument","name:en":"Ishidsuka no Sakura","name:ja":"\u00e9\u00ba\u00bb\u00e7\u00b8\u00be\u00e3\u0081\u00ae\u00e9\u0087\u008c \u00e7\u009f\u00b3\u00e5\u00a1\u009a\u00e6\u00a1\u009c","natural":"tree","tourism":"attraction","website":"https://msnav.com/navi/kanko/sakura/ishiduka"}},"type":"Feature"},
	{"geometry":{"coordinates":[137.854055,35.533143],"type":"Point"},"properties":{"name":"\u00e9\u00ba\u00bb\u00e7\u00b8\u00be\u00e3\u0081\u00ae\u00e9\u0087\u008c\u00e8\u0088\u009e\u00e5\u008f\u00b0\u00e6\u00a1\u009c","osm_id":"5571390699","tag":{"denotation":"natural_monument","diameter":"400cm","height":"12","leaf_cycle":"deciduous","leaf_type":"broadleaved","name:en":"Omi no Sato Butaizakura","name:ja-Hira":"\u00e3\u0081\u008a\u00e3\u0081\u00bf\u00e3\u0081\u00ae\u00e3\u0081\u0095\u00e3\u0081\u00a8\u00e3\u0081\u00b6\u00e3\u0081\u009f\u00e3\u0081\u0084\u00e3\u0081\u0096\u00e3\u0081\u008f\u00e3\u0082\u0089","natural":"tree","tourism":"attraction","website":"https://www.city.iida.lg.jp/site/bunkazai/butaizakura.html"}},"type":"Feature"},
	{"geometry":{"coordinates":[137.856538,35.533886],"type":"Point"},"properties":{"osm_id":"5907299437","tag":{"natural":"tree"}},"type":"Feature"},
	{"geometry":{"coordinates":[137.862816,35.547139],"type":"Point"},"properties":{"name":"\u00e6\u009d\u00be\u00e6\u00ba\u0090\u00e5\u00af\u00ba\u00e3\u0081\u00ae\u00e6\u00a1\u009c","osm_id":"5922422618","tag":{"denotation":"landmark","name:en":"Shogenji no Sakura","name:ja":"\u00e6\u009d\u00be\u00e6\u00ba\u0090\u00e5\u00af\u00ba\u00e3\u0081\u00ae\u00e6\u00a1\u009c","natural":"tree"}},"type":"Feature"},
	{"geometry":{"coordinates":[137.891749,35.577648],"type":"Point"},"properties":{"osm_id":"6948593113","tag":{"natural":"tree"}},"type":"Feature"},
	{"geometry":{"coordinates":[137.891635,35.577676],"type":"Point"},"properties":{"osm_id":"6948593114","tag":{"natural":"tree"}},"type":"Feature"},
	{"geometry":{"coordinates":[137.8915,35.577707],"type":"Point"},"properties":{"osm_id":"6948593115","tag":{"natural":"tree"}},"type":"Feature"},
	{"geometry":{"coordinates":[137.890698,35.57814],"type":"Point"},"properties":{"osm_id":"6948593116","tag":{"natural":"tree"}},"type":"Feature"},
	{"geometry":{"coordinates":[137.89072,35.578176],"type":"Point"},"properties":{"osm_id":"6948593117","tag":{"natural":"tree"}},"type":"Feature"},
	{"geometry":{"coordinates":[137.890746,35.578516],"type":"Point"},"properties":{"osm_id":"6949982841","tag":{"natural":"tree"}},"type":"Feature"},
	{"geometry":{"coordinates":[137.895645,35.551085],"type":"Point"},"properties":{"osm_id":"8277209005","tag":{"natural":"tree"}},"type":"Feature"},
	{"geometry":{"coordinates":[137.871686,35.54694],"type":"Point"},"properties":{"osm_id":"8547199260","tag":{"natural":"tree"}},"type":"Feature"},
	{"geometry":{"coordinates":[137.871384,35.54662],"type":"Point"},"properties":{"osm_id":"8547199261","tag":{"natural":"tree"}},"type":"Feature"},
	{"geometry":{"coordinates":[137.861754,35.537243],"type":"Point"},"properties":{"name":"\u00e3\u0081\u0084\u00e3\u0081\u0084\u00e3\u0081\u00a1\u00e3\u0081\u0093\u00e6\u00a1\u009c","osm_id":"9027985440","tag":{"natural":"tree"}},"type":"Feature"}
]
}
