{
"type": "FeatureCollection",
"features": [
	{"geometry":{"coordinates":[137.834597,35.489199],"type":"Point"},"properties":{"name":"\u00e3\u0081\u008f\u00e3\u0082\u0088\u00e3\u0081\u00a8\u00e3\u0081\u00ae\u00e6\u009e\u009d\u00e5\u009e\u0082\u00e3\u0082\u008c\u00e6\u00a1\u009c","osm_id":"4851931776","tag":{"denotation":"natural_monument","leaf_cycle":"deciduous","leaf_type":"broadleaved","name:en":"Kuyoto Weeping Cherry Tree","name:ja":"\u00e3\u0081\u008f\u00e3\u0082\u0088\u00e3\u0081\u00a8\u00e3\u0081\u00ae\u00e6\u009e\u009d\u00e5\u009e\u0082\u00e3\u0082\u008c\u00e6\u00a1\u009c","natural":"tree","tourism":"attraction","website":"http://msnav.com/navi/kanko/sakura/kuyoto"}},"type":"Feature"},
	{"geometry":{"coordinates":[137.822815,35.512752],"type":"Point"},"properties":{"name":"\u00e6\u00b8\u0085\u00e7\u00a7\u0080\u00e6\u00a1\u009c","osm_id":"5543882962","tag":{"natural":"tree"}},"type":"Feature"},
	{"geometry":{"coordinates":[137.823165,35.512579],"type":"Point"},"properties":{"name":"\u00e5\u008d\u0083\u00e4\u00bb\u00a3\u00e8\u0094\u00b5\u00e6\u00a1\u009c","osm_id":"5543882963","tag":{"natural":"tree"}},"type":"Feature"},
	{"geometry":{"coordinates":[137.830138,35.513361],"type":"Point"},"properties":{"name":"\u00e6\u00a1\u009c\u00e4\u00b8\u00b8\u00e3\u0081\u00ae\u00e5\u00a4\u00ab\u00e5\u00a9\u00a6\u00e6\u00a1\u009c","osm_id":"5571412075","tag":{"natural":"tree"}},"type":"Feature"},
	{"geometry":{"coordinates":[137.829931,35.518033],"type":"Point"},"properties":{"name":"\u00e5\u00b0\u0082\u00e7\u0085\u00a7\u00e5\u00af\u00ba\u00e3\u0081\u00ae\u00e6\u009e\u009d\u00e5\u009e\u0082\u00e3\u0082\u008c\u00e6\u00a1\u009c","osm_id":"5575255839","tag":{"denotation":"natural_monument","leaf_cycle":"deciduous","leaf_type":"broadleaved","name:en":"Senshoji Weeping Cherry Tree (Shidarezakura)","name:ja":"\u00e5\u00b0\u0082\u00e7\u0085\u00a7\u00e5\u00af\u00ba\u00e3\u0081\u00ae\u00e6\u009e\u009d\u00e5\u009e\u0082\u00e3\u0082\u008c\u00e6\u00a1\u009c","natural":"tree","tourism":"attraction","website":"http://msnav.com/navi/kanko/sakura/senshouji"}},"type":"Feature"},
	{"geometry":{"coordinates":[137.832198,35.516849],"type":"Point"},"properties":{"name":"\u00e9\u00bb\u0084\u00e6\u00a2\u0085\u00e9\u0099\u00a2\u00e3\u0081\u00ae\u00e7\u00b4\u0085\u00e3\u0081\u0097\u00e3\u0081\u00a0\u00e3\u0082\u008c\u00e6\u00a1\u009c","osm_id":"5575255842","tag":{"circumference":"5.5","denotation":"natural_monument","height":"16","leaf_cycle":"deciduous","leaf_type":"broadleaved","name:en":"Obaiin Weeping Cherry Tree","name:ja-Latn":"Oubaiin no beni shidare zakura","natural":"tree","tourism":"attraction","website":"https://www.city.iida.lg.jp/site/bunkazai/oubaiin.html"}},"type":"Feature"},
	{"geometry":{"coordinates":[137.831256,35.517357],"type":"Point"},"properties":{"name":"\u00e6\u00ad\u00a3\u00e6\u00b0\u00b8\u00e5\u00af\u00ba\u00e3\u0081\u00ae\u00e3\u0082\u00b7\u00e3\u0083\u0080\u00e3\u0083\u00ac\u00e3\u0082\u00b6\u00e3\u0082\u00af\u00e3\u0083\u00a9","osm_id":"5575255845","tag":{"natural":"tree"}},"type":"Feature"},
	{"geometry":{"coordinates":[137.870521,35.502853],"type":"Point"},"properties":{"osm_id":"7914457078","tag":{"natural":"tree"}},"type":"Feature"},
	{"geometry":{"coordinates":[137.870656,35.502804],"type":"Point"},"properties":{"osm_id":"7914457079","tag":{"natural":"tree"}},"type":"Feature"},
	{"geometry":{"coordinates":[137.870414,35.502779],"type":"Point"},"properties":{"osm_id":"7914457080","tag":{"natural":"tree"}},"type":"Feature"},
	{"geometry":{"coordinates":[137.870512,35.502727],"type":"Point"},"properties":{"osm_id":"7914457081","tag":{"natural":"tree"}},"type":"Feature"},
	{"geometry":{"coordinates":[137.870626,35.502675],"type":"Point"},"properties":{"osm_id":"7914457082","tag":{"natural":"tree"}},"type":"Feature"},
	{"geometry":{"coordinates":[137.830804,35.512236],"type":"Point"},"properties":{"name":"\u00e5\u00ae\u0089\u00e5\u00af\u008c\u00e6\u00a1\u009c","osm_id":"8505335771","tag":{"circumference":"6.4","denotation":"natural_monument","height":"20","leaf_cycle":"deciduous","leaf_type":"broadleaved","name:en":"Yasutomi Cherry Tree","name:ja":"\u00e5\u00ae\u0089\u00e5\u00af\u008c\u00e6\u00a1\u009c","natural":"tree","website":"https://www.go-nagano.net/topics_detail6/id=1760"}},"type":"Feature"},
	{"geometry":{"coordinates":[137.88048,35.464387],"type":"Point"},"properties":{"name":"\u00e4\u00b8\u008a\u00e4\u00b9\u0085\u00e5\u00a0\u0085\u00e3\u0081\u00ae\u00e6\u00a1\u009c \u00e2\u0091\u00a4","osm_id":"8605686021","tag":{"denotation":"natural_monument","leaf_cycle":"deciduous","leaf_type":"broadleaved","natural":"tree"}},"type":"Feature"},
	{"geometry":{"coordinates":[137.85084,35.480061],"type":"Point"},"properties":{"name":"\u00e4\u00b8\u0089\u00e7\u009f\u00b3\u00e3\u0081\u00ae\u00e3\u0081\u0097\u00e3\u0081\u00a0\u00e3\u0082\u008c\u00e6\u00a1\u009c","osm_id":"9000578745","tag":{"denotation":"landmark","leaf_cycle":"deciduous","leaf_type":"broadleaved","name:en":"Mitsuishi Weeping Cherry Tree","name:ja":"\u00e4\u00b8\u0089\u00e7\u009f\u00b3\u00e3\u0081\u00ae\u00e3\u0081\u0097\u00e3\u0081\u00a0\u00e3\u0082\u008c\u00e6\u00a1\u009c","natural":"tree"}},"type":"Feature"}
]
}
