{
"type": "FeatureCollection",
"features": [
	{"geometry":{"coordinates":[23.679274,60.075467],"type":"Point"},"properties":{"name":"Karis \u00c3\u00a5teranv\u00c3\u00a4ndningscentral","osm_id":"257354642","tag":{"amenity":"recycling","name:fi":"Karjaan kierr\u00c3\u00a4tyskeskus","name:sv":"Karis \u00c3\u00a5teranv\u00c3\u00a4ndningscentral"}},"type":"Feature"},
	{"geometry":{"coordinates":[23.663153,60.071361],"type":"Point"},"properties":{"osm_id":"763029695","tag":{"amenity":"recycling","recycling:batteries":"yes","recycling:cans":"yes","recycling:glass":"yes","recycling:paper":"yes"}},"type":"Feature"},
	{"geometry":{"coordinates":[23.674154,60.073918],"type":"Point"},"properties":{"osm_id":"6832278377","tag":{"amenity":"waste_basket"}},"type":"Feature"},
	{"geometry":{"coordinates":[23.673404,60.073311],"type":"Point"},"properties":{"osm_id":"6832278384","tag":{"amenity":"waste_basket"}},"type":"Feature"},
	{"geometry":{"coordinates":[23.662002,60.070687],"type":"Point"},"properties":{"osm_id":"6832319487","tag":{"amenity":"waste_basket"}},"type":"Feature"},
	{"geometry":{"coordinates":[23.662094,60.070769],"type":"Point"},"properties":{"osm_id":"6832319504","tag":{"amenity":"waste_basket"}},"type":"Feature"}
]
}
