{
"type": "FeatureCollection",
"features": [
	{"geometry":{"coordinates":[23.719764,38.084895],"type":"Point"},"properties":{"osm_id":"1998003829","tag":{"amenity":"recycling"}},"type":"Feature"},
	{"geometry":{"coordinates":[23.677428,38.100237],"type":"Point"},"properties":{"osm_id":"5367812922","tag":{"amenity":"waste_basket","tourism":"picnic_site"}},"type":"Feature"},
	{"geometry":{"coordinates":[23.666563,38.100096],"type":"Point"},"properties":{"osm_id":"6238399729","tag":{"amenity":"waste_basket"}},"type":"Feature"},
	{"geometry":{"coordinates":[23.666494,38.100075],"type":"Point"},"properties":{"osm_id":"6238402415","tag":{"amenity":"waste_basket"}},"type":"Feature"},
	{"geometry":{"coordinates":[23.666537,38.099798],"type":"Point"},"properties":{"osm_id":"6238402621","tag":{"amenity":"waste_basket"}},"type":"Feature"},
	{"geometry":{"coordinates":[23.666554,38.099995],"type":"Point"},"properties":{"osm_id":"6238402623","tag":{"amenity":"waste_basket"}},"type":"Feature"},
	{"geometry":{"coordinates":[23.70823,38.092987],"type":"Point"},"properties":{"osm_id":"6402996429","tag":{"amenity":"waste_basket"}},"type":"Feature"},
	{"geometry":{"coordinates":[23.708581,38.087407],"type":"Point"},"properties":{"osm_id":"6402996682","tag":{"amenity":"waste_basket"}},"type":"Feature"},
	{"geometry":{"coordinates":[23.697467,38.089695],"type":"Point"},"properties":{"osm_id":"6446032121","tag":{"amenity":"waste_basket"}},"type":"Feature"},
	{"geometry":{"coordinates":[23.705578,38.079403],"type":"Point"},"properties":{"osm_id":"6450569864","tag":{"amenity":"waste_basket"}},"type":"Feature"},
	{"geometry":{"coordinates":[23.705573,38.079264],"type":"Point"},"properties":{"osm_id":"6450569865","tag":{"amenity":"waste_basket"}},"type":"Feature"},
	{"geometry":{"coordinates":[23.705853,38.079313],"type":"Point"},"properties":{"osm_id":"6450571410","tag":{"amenity":"waste_basket"}},"type":"Feature"},
	{"geometry":{"coordinates":[23.705535,38.079349],"type":"Point"},"properties":{"osm_id":"6450571810","tag":{"amenity":"waste_basket"}},"type":"Feature"},
	{"geometry":{"coordinates":[23.705819,38.079406],"type":"Point"},"properties":{"osm_id":"6450572381","tag":{"amenity":"waste_basket"}},"type":"Feature"},
	{"geometry":{"coordinates":[23.709498,38.090123],"type":"Point"},"properties":{"osm_id":"6466182066","tag":{"amenity":"waste_basket"}},"type":"Feature"},
	{"geometry":{"coordinates":[23.703674,38.075282],"type":"Point"},"properties":{"osm_id":"6475654432","tag":{"amenity":"waste_basket"}},"type":"Feature"},
	{"geometry":{"coordinates":[23.702403,38.074867],"type":"Point"},"properties":{"osm_id":"6475661449","tag":{"amenity":"waste_basket"}},"type":"Feature"},
	{"geometry":{"coordinates":[23.702959,38.075068],"type":"Point"},"properties":{"osm_id":"6475661450","tag":{"amenity":"waste_basket"}},"type":"Feature"},
	{"geometry":{"coordinates":[23.703174,38.075139],"type":"Point"},"properties":{"osm_id":"6475661452","tag":{"amenity":"waste_basket"}},"type":"Feature"},
	{"geometry":{"coordinates":[23.702861,38.075086],"type":"Point"},"properties":{"osm_id":"6475662526","tag":{"amenity":"waste_basket"}},"type":"Feature"},
	{"geometry":{"coordinates":[23.702683,38.075015],"type":"Point"},"properties":{"osm_id":"6475662527","tag":{"amenity":"waste_basket"}},"type":"Feature"},
	{"geometry":{"coordinates":[23.702647,38.074964],"type":"Point"},"properties":{"osm_id":"6475662529","tag":{"amenity":"waste_basket"}},"type":"Feature"},
	{"geometry":{"coordinates":[23.702858,38.075037],"type":"Point"},"properties":{"osm_id":"6475662530","tag":{"amenity":"waste_basket"}},"type":"Feature"},
	{"geometry":{"coordinates":[23.70234,38.074893],"type":"Point"},"properties":{"osm_id":"6475662676","tag":{"amenity":"waste_basket"}},"type":"Feature"},
	{"geometry":{"coordinates":[23.702752,38.075],"type":"Point"},"properties":{"osm_id":"6475662723","tag":{"amenity":"waste_basket"}},"type":"Feature"},
	{"geometry":{"coordinates":[23.710967,38.08663],"type":"Point"},"properties":{"osm_id":"6513153342","tag":{"amenity":"waste_basket"}},"type":"Feature"},
	{"geometry":{"coordinates":[23.711131,38.08634],"type":"Point"},"properties":{"osm_id":"6513210850","tag":{"amenity":"waste_basket"}},"type":"Feature"},
	{"geometry":{"coordinates":[23.709196,38.078127],"type":"Point"},"properties":{"osm_id":"6513223149","tag":{"amenity":"waste_basket"}},"type":"Feature"},
	{"geometry":{"coordinates":[23.706093,38.073184],"type":"Point"},"properties":{"osm_id":"6513251777","tag":{"amenity":"waste_basket"}},"type":"Feature"},
	{"geometry":{"coordinates":[23.706241,38.073173],"type":"Point"},"properties":{"osm_id":"6513264343","tag":{"amenity":"waste_basket"}},"type":"Feature"},
	{"geometry":{"coordinates":[23.705919,38.072925],"type":"Point"},"properties":{"osm_id":"6513268140","tag":{"amenity":"waste_basket"}},"type":"Feature"},
	{"geometry":{"coordinates":[23.705824,38.073103],"type":"Point"},"properties":{"osm_id":"6513269638","tag":{"amenity":"waste_basket"}},"type":"Feature"},
	{"geometry":{"coordinates":[23.706469,38.073973],"type":"Point"},"properties":{"osm_id":"6513269900","tag":{"amenity":"waste_basket"}},"type":"Feature"},
	{"geometry":{"coordinates":[23.700848,38.087658],"type":"Point"},"properties":{"osm_id":"6517803464","tag":{"amenity":"waste_basket"}},"type":"Feature"},
	{"geometry":{"coordinates":[23.700937,38.087578],"type":"Point"},"properties":{"osm_id":"6604805254","tag":{"amenity":"waste_basket"}},"type":"Feature"},
	{"geometry":{"coordinates":[23.705022,38.087468],"type":"Point"},"properties":{"osm_id":"6617551821","tag":{"amenity":"waste_basket"}},"type":"Feature"},
	{"geometry":{"coordinates":[23.70479,38.087581],"type":"Point"},"properties":{"osm_id":"6617563936","tag":{"amenity":"waste_basket"}},"type":"Feature"},
	{"geometry":{"coordinates":[23.691553,38.096071],"type":"Point"},"properties":{"osm_id":"6703617585","tag":{"amenity":"waste_basket"}},"type":"Feature"},
	{"geometry":{"coordinates":[23.688334,38.101674],"type":"Point"},"properties":{"osm_id":"6709596715","tag":{"amenity":"waste_basket"}},"type":"Feature"},
	{"geometry":{"coordinates":[23.699841,38.098009],"type":"Point"},"properties":{"osm_id":"6715662687","tag":{"amenity":"waste_basket"}},"type":"Feature"},
	{"geometry":{"coordinates":[23.699848,38.097956],"type":"Point"},"properties":{"osm_id":"6715664925","tag":{"amenity":"waste_basket"}},"type":"Feature"}
]
}
