{
"type": "FeatureCollection",
"lastupdate": "2020-08-05T00:00:00Z",
"features": [
	{"geometry":{"coordinates":[23.730087,37.99306],"type":"Point"},"properties":{"osm_id":"1240970386","tag":{"amenity":"recycling","recycling:clothes":"yes","recycling:shoes":"yes","recycling_type":"container"}},"type":"Feature"},
	{"geometry":{"coordinates":[23.730089,37.993157],"type":"Point"},"properties":{"osm_id":"1240970389","tag":{"amenity":"recycling","recycling:paper":"yes"}},"type":"Feature"},
	{"geometry":{"coordinates":[23.726648,37.978188],"type":"Point"},"properties":{"osm_id":"2335285956","tag":{"amenity":"waste_basket"}},"type":"Feature"},
	{"geometry":{"coordinates":[23.728453,37.97764],"type":"Point"},"properties":{"osm_id":"2335286005","tag":{"amenity":"waste_basket"}},"type":"Feature"},
	{"geometry":{"coordinates":[23.724501,37.97781],"type":"Point"},"properties":{"osm_id":"2335286628","tag":{"amenity":"waste_basket"}},"type":"Feature"},
	{"geometry":{"coordinates":[23.725432,37.978531],"type":"Point"},"properties":{"osm_id":"2335287814","tag":{"amenity":"waste_basket"}},"type":"Feature"},
	{"geometry":{"coordinates":[23.724929,37.978626],"type":"Point"},"properties":{"osm_id":"2335289438","tag":{"amenity":"waste_basket"}},"type":"Feature"},
	{"geometry":{"coordinates":[23.724553,37.979231],"type":"Point"},"properties":{"osm_id":"2335289439","tag":{"amenity":"waste_basket"}},"type":"Feature"},
	{"geometry":{"coordinates":[23.726547,37.979196],"type":"Point"},"properties":{"osm_id":"2335289440","tag":{"amenity":"waste_basket"}},"type":"Feature"},
	{"geometry":{"coordinates":[23.726328,37.979338],"type":"Point"},"properties":{"osm_id":"2335289441","tag":{"amenity":"waste_basket"}},"type":"Feature"},
	{"geometry":{"coordinates":[23.72599,37.979568],"type":"Point"},"properties":{"osm_id":"2335289442","tag":{"amenity":"waste_basket"}},"type":"Feature"},
	{"geometry":{"coordinates":[23.727634,37.979806],"type":"Point"},"properties":{"osm_id":"2335289444","tag":{"amenity":"waste_basket"}},"type":"Feature"},
	{"geometry":{"coordinates":[23.725889,37.98061],"type":"Point"},"properties":{"osm_id":"2335290192","tag":{"amenity":"waste_basket"}},"type":"Feature"},
	{"geometry":{"coordinates":[23.725935,37.980782],"type":"Point"},"properties":{"osm_id":"2335290193","tag":{"amenity":"waste_basket"}},"type":"Feature"},
	{"geometry":{"coordinates":[23.725348,37.980755],"type":"Point"},"properties":{"osm_id":"2335290194","tag":{"amenity":"waste_basket"}},"type":"Feature"},
	{"geometry":{"coordinates":[23.724895,37.98056],"type":"Point"},"properties":{"osm_id":"2335290195","tag":{"amenity":"waste_basket"}},"type":"Feature"},
	{"geometry":{"coordinates":[23.725074,37.981021],"type":"Point"},"properties":{"osm_id":"2335290196","tag":{"amenity":"waste_basket"}},"type":"Feature"},
	{"geometry":{"coordinates":[23.724363,37.980989],"type":"Point"},"properties":{"osm_id":"2335290197","tag":{"amenity":"waste_basket"}},"type":"Feature"},
	{"geometry":{"coordinates":[23.725989,37.981273],"type":"Point"},"properties":{"osm_id":"2335290198","tag":{"amenity":"waste_basket"}},"type":"Feature"},
	{"geometry":{"coordinates":[23.726078,37.981301],"type":"Point"},"properties":{"osm_id":"2335290201","tag":{"amenity":"waste_basket"}},"type":"Feature"},
	{"geometry":{"coordinates":[23.645491,37.938437],"type":"Point"},"properties":{"osm_id":"3397565115","tag":{"amenity":"recycling"}},"type":"Feature"},
	{"geometry":{"coordinates":[23.710604,37.933081],"type":"Point"},"properties":{"osm_id":"3718692501","tag":{"amenity":"recycling"}},"type":"Feature"},
	{"geometry":{"coordinates":[23.644444,37.944147],"type":"Point"},"properties":{"osm_id":"3784600112","tag":{"amenity":"recycling"}},"type":"Feature"},
	{"geometry":{"coordinates":[23.707185,37.992805],"type":"Point"},"properties":{"osm_id":"3786450911","tag":{"amenity":"waste_basket"}},"type":"Feature"},
	{"geometry":{"coordinates":[23.707087,37.992675],"type":"Point"},"properties":{"osm_id":"3786450912","tag":{"amenity":"waste_basket"}},"type":"Feature"},
	{"geometry":{"coordinates":[23.707255,37.99213],"type":"Point"},"properties":{"osm_id":"3786450914","tag":{"amenity":"waste_basket"}},"type":"Feature"},
	{"geometry":{"coordinates":[23.708528,37.990287],"type":"Point"},"properties":{"osm_id":"3786450920","tag":{"amenity":"waste_basket"}},"type":"Feature"},
	{"geometry":{"coordinates":[23.713246,37.98506],"type":"Point"},"properties":{"osm_id":"3786451216","tag":{"amenity":"recycling"}},"type":"Feature"},
	{"geometry":{"coordinates":[23.707584,37.992204],"type":"Point"},"properties":{"osm_id":"3786452121","tag":{"amenity":"waste_basket"}},"type":"Feature"},
	{"geometry":{"coordinates":[23.708601,37.990688],"type":"Point"},"properties":{"osm_id":"3786452125","tag":{"amenity":"waste_basket"}},"type":"Feature"},
	{"geometry":{"coordinates":[23.708131,37.990776],"type":"Point"},"properties":{"osm_id":"3786452126","tag":{"amenity":"waste_basket"}},"type":"Feature"},
	{"geometry":{"coordinates":[23.708337,37.990449],"type":"Point"},"properties":{"osm_id":"3786452129","tag":{"amenity":"waste_basket"}},"type":"Feature"},
	{"geometry":{"coordinates":[23.709374,37.990896],"type":"Point"},"properties":{"osm_id":"3786452132","tag":{"amenity":"waste_basket"}},"type":"Feature"},
	{"geometry":{"coordinates":[23.714224,37.984492],"type":"Point"},"properties":{"osm_id":"3786452880","tag":{"amenity":"waste_basket"}},"type":"Feature"},
	{"geometry":{"coordinates":[23.701721,37.991517],"type":"Point"},"properties":{"osm_id":"3786452893","tag":{"amenity":"recycling"}},"type":"Feature"},
	{"geometry":{"coordinates":[23.708364,37.992016],"type":"Point"},"properties":{"osm_id":"3786456537","tag":{"amenity":"waste_basket"}},"type":"Feature"},
	{"geometry":{"coordinates":[23.708395,37.991644],"type":"Point"},"properties":{"osm_id":"3786456539","tag":{"amenity":"waste_basket"}},"type":"Feature"},
	{"geometry":{"coordinates":[23.708747,37.99041],"type":"Point"},"properties":{"osm_id":"3786456564","tag":{"amenity":"waste_basket"}},"type":"Feature"},
	{"geometry":{"coordinates":[23.709306,37.991115],"type":"Point"},"properties":{"osm_id":"3786456567","tag":{"amenity":"waste_basket"}},"type":"Feature"},
	{"geometry":{"coordinates":[23.708289,37.991912],"type":"Point"},"properties":{"osm_id":"3786456661","tag":{"amenity":"waste_basket"}},"type":"Feature"},
	{"geometry":{"coordinates":[23.708823,37.990732],"type":"Point"},"properties":{"osm_id":"3786456663","tag":{"amenity":"waste_basket"}},"type":"Feature"},
	{"geometry":{"coordinates":[23.719605,37.975947],"type":"Point"},"properties":{"osm_id":"3793368915","tag":{"amenity":"waste_basket"}},"type":"Feature"},
	{"geometry":{"coordinates":[23.720084,37.97612],"type":"Point"},"properties":{"osm_id":"3793368916","tag":{"amenity":"waste_basket"}},"type":"Feature"},
	{"geometry":{"coordinates":[23.669057,37.944819],"type":"Point"},"properties":{"osm_id":"3793382070","tag":{"amenity":"recycling"}},"type":"Feature"},
	{"geometry":{"coordinates":[23.646297,37.941966],"type":"Point"},"properties":{"osm_id":"3803531181","tag":{"amenity":"waste_basket"}},"type":"Feature"},
	{"geometry":{"coordinates":[23.720839,37.969516],"type":"Point"},"properties":{"osm_id":"4005839447","tag":{"amenity":"waste_basket"}},"type":"Feature"},
	{"geometry":{"coordinates":[23.720855,37.969478],"type":"Point"},"properties":{"osm_id":"4005839448","tag":{"amenity":"waste_basket"}},"type":"Feature"},
	{"geometry":{"coordinates":[23.717403,37.966546],"type":"Point"},"properties":{"osm_id":"4005844762","tag":{"amenity":"waste_basket"}},"type":"Feature"},
	{"geometry":{"coordinates":[23.681524,37.955507],"type":"Point"},"properties":{"osm_id":"4014860070","tag":{"amenity":"waste_basket"}},"type":"Feature"},
	{"geometry":{"coordinates":[23.651239,37.934491],"type":"Point"},"properties":{"osm_id":"4022931442","tag":{"amenity":"waste_basket"}},"type":"Feature"},
	{"geometry":{"coordinates":[23.651351,37.934593],"type":"Point"},"properties":{"osm_id":"4022931443","tag":{"amenity":"waste_basket"}},"type":"Feature"},
	{"geometry":{"coordinates":[23.651958,37.93522],"type":"Point"},"properties":{"osm_id":"4022931452","tag":{"amenity":"waste_basket"}},"type":"Feature"},
	{"geometry":{"coordinates":[23.688692,37.957674],"type":"Point"},"properties":{"osm_id":"4025034840","tag":{"amenity":"waste_basket"}},"type":"Feature"},
	{"geometry":{"coordinates":[23.68885,37.95772],"type":"Point"},"properties":{"osm_id":"4025034841","tag":{"amenity":"waste_basket"}},"type":"Feature"},
	{"geometry":{"coordinates":[23.689933,37.958054],"type":"Point"},"properties":{"osm_id":"4025034850","tag":{"amenity":"waste_basket"}},"type":"Feature"},
	{"geometry":{"coordinates":[23.690039,37.958088],"type":"Point"},"properties":{"osm_id":"4025034851","tag":{"amenity":"waste_basket"}},"type":"Feature"},
	{"geometry":{"coordinates":[23.690161,37.958119],"type":"Point"},"properties":{"osm_id":"4025034858","tag":{"amenity":"waste_basket"}},"type":"Feature"},
	{"geometry":{"coordinates":[23.692141,37.957778],"type":"Point"},"properties":{"osm_id":"4025034866","tag":{"amenity":"waste_basket"}},"type":"Feature"},
	{"geometry":{"coordinates":[23.692575,37.958875],"type":"Point"},"properties":{"osm_id":"4025034867","tag":{"amenity":"waste_basket"}},"type":"Feature"},
	{"geometry":{"coordinates":[23.692715,37.958913],"type":"Point"},"properties":{"osm_id":"4025034868","tag":{"amenity":"waste_basket"}},"type":"Feature"},
	{"geometry":{"coordinates":[23.688489,37.954168],"type":"Point"},"properties":{"osm_id":"4026822412","tag":{"amenity":"waste_basket"}},"type":"Feature"},
	{"geometry":{"coordinates":[23.686649,37.954628],"type":"Point"},"properties":{"osm_id":"4026822415","tag":{"amenity":"waste_basket"}},"type":"Feature"},
	{"geometry":{"coordinates":[23.682895,37.944468],"type":"Point"},"properties":{"osm_id":"4027090064","tag":{"amenity":"waste_basket"}},"type":"Feature"},
	{"geometry":{"coordinates":[23.687777,37.952276],"type":"Point"},"properties":{"osm_id":"4027090071","tag":{"amenity":"waste_basket"}},"type":"Feature"},
	{"geometry":{"coordinates":[23.689441,37.954035],"type":"Point"},"properties":{"osm_id":"4027090075","tag":{"amenity":"waste_basket"}},"type":"Feature"},
	{"geometry":{"coordinates":[23.689639,37.954149],"type":"Point"},"properties":{"osm_id":"4027090077","tag":{"amenity":"waste_basket"}},"type":"Feature"},
	{"geometry":{"coordinates":[23.714073,37.960453],"type":"Point"},"properties":{"osm_id":"4028652566","tag":{"amenity":"waste_basket"}},"type":"Feature"},
	{"geometry":{"coordinates":[23.70267,37.961456],"type":"Point"},"properties":{"osm_id":"4028663502","tag":{"amenity":"waste_basket"}},"type":"Feature"},
	{"geometry":{"coordinates":[23.702426,37.961342],"type":"Point"},"properties":{"osm_id":"4028663507","tag":{"amenity":"waste_basket"}},"type":"Feature"},
	{"geometry":{"coordinates":[23.71224,37.974349],"type":"Point"},"properties":{"osm_id":"4029086972","tag":{"amenity":"waste_basket"}},"type":"Feature"},
	{"geometry":{"coordinates":[23.7121,37.974091],"type":"Point"},"properties":{"osm_id":"4029086973","tag":{"amenity":"waste_basket"}},"type":"Feature"},
	{"geometry":{"coordinates":[23.711711,37.973447],"type":"Point"},"properties":{"osm_id":"4029086979","tag":{"amenity":"waste_basket"}},"type":"Feature"},
	{"geometry":{"coordinates":[23.711554,37.973134],"type":"Point"},"properties":{"osm_id":"4029086981","tag":{"amenity":"waste_basket"}},"type":"Feature"},
	{"geometry":{"coordinates":[23.711018,37.972268],"type":"Point"},"properties":{"osm_id":"4029086983","tag":{"amenity":"waste_basket"}},"type":"Feature"},
	{"geometry":{"coordinates":[23.710863,37.971916],"type":"Point"},"properties":{"osm_id":"4029086987","tag":{"amenity":"waste_basket"}},"type":"Feature"},
	{"geometry":{"coordinates":[23.710684,37.971582],"type":"Point"},"properties":{"osm_id":"4029086991","tag":{"amenity":"waste_basket"}},"type":"Feature"},
	{"geometry":{"coordinates":[23.710177,37.970691],"type":"Point"},"properties":{"osm_id":"4029284160","tag":{"amenity":"waste_basket"}},"type":"Feature"},
	{"geometry":{"coordinates":[23.709814,37.970006],"type":"Point"},"properties":{"osm_id":"4029284166","tag":{"amenity":"waste_basket"}},"type":"Feature"},
	{"geometry":{"coordinates":[23.709609,37.969641],"type":"Point"},"properties":{"osm_id":"4029284173","tag":{"amenity":"waste_basket"}},"type":"Feature"},
	{"geometry":{"coordinates":[23.708469,37.967531],"type":"Point"},"properties":{"osm_id":"4029284179","tag":{"amenity":"waste_basket"}},"type":"Feature"},
	{"geometry":{"coordinates":[23.70215,37.961198],"type":"Point"},"properties":{"osm_id":"4029284650","tag":{"amenity":"waste_basket"}},"type":"Feature"},
	{"geometry":{"coordinates":[23.701866,37.961043],"type":"Point"},"properties":{"osm_id":"4029284652","tag":{"amenity":"waste_basket"}},"type":"Feature"},
	{"geometry":{"coordinates":[23.699571,37.959939],"type":"Point"},"properties":{"osm_id":"4029284655","tag":{"amenity":"waste_basket"}},"type":"Feature"},
	{"geometry":{"coordinates":[23.698746,37.959526],"type":"Point"},"properties":{"osm_id":"4029306696","tag":{"amenity":"waste_basket"}},"type":"Feature"},
	{"geometry":{"coordinates":[23.697676,37.959247],"type":"Point"},"properties":{"osm_id":"4029306715","tag":{"amenity":"waste_basket"}},"type":"Feature"},
	{"geometry":{"coordinates":[23.697251,37.958999],"type":"Point"},"properties":{"osm_id":"4029306716","tag":{"amenity":"waste_basket"}},"type":"Feature"},
	{"geometry":{"coordinates":[23.696005,37.958391],"type":"Point"},"properties":{"osm_id":"4029306740","tag":{"amenity":"waste_basket"}},"type":"Feature"},
	{"geometry":{"coordinates":[23.696821,37.958813],"type":"Point"},"properties":{"osm_id":"4029306741","tag":{"amenity":"waste_basket"}},"type":"Feature"},
	{"geometry":{"coordinates":[23.696465,37.958633],"type":"Point"},"properties":{"osm_id":"4029306742","tag":{"amenity":"waste_basket"}},"type":"Feature"},
	{"geometry":{"coordinates":[23.695109,37.957915],"type":"Point"},"properties":{"osm_id":"4029306744","tag":{"amenity":"waste_basket"}},"type":"Feature"},
	{"geometry":{"coordinates":[23.694565,37.957608],"type":"Point"},"properties":{"osm_id":"4029306749","tag":{"amenity":"waste_basket"}},"type":"Feature"},
	{"geometry":{"coordinates":[23.694,37.957285],"type":"Point"},"properties":{"osm_id":"4029306750","tag":{"amenity":"waste_basket"}},"type":"Feature"},
	{"geometry":{"coordinates":[23.693217,37.956789],"type":"Point"},"properties":{"osm_id":"4029306751","tag":{"amenity":"waste_basket"}},"type":"Feature"},
	{"geometry":{"coordinates":[23.698449,37.95938],"type":"Point"},"properties":{"osm_id":"4043285708","tag":{"amenity":"waste_basket"}},"type":"Feature"},
	{"geometry":{"coordinates":[23.706434,37.963152],"type":"Point"},"properties":{"osm_id":"4080863516","tag":{"amenity":"waste_basket"}},"type":"Feature"},
	{"geometry":{"coordinates":[23.706665,37.963197],"type":"Point"},"properties":{"osm_id":"4080863517","tag":{"amenity":"waste_basket"}},"type":"Feature"},
	{"geometry":{"coordinates":[23.706749,37.963289],"type":"Point"},"properties":{"osm_id":"4080863518","tag":{"amenity":"waste_basket"}},"type":"Feature"},
	{"geometry":{"coordinates":[23.706847,37.963234],"type":"Point"},"properties":{"osm_id":"4080863519","tag":{"amenity":"waste_basket"}},"type":"Feature"},
	{"geometry":{"coordinates":[23.706857,37.963311],"type":"Point"},"properties":{"osm_id":"4080863520","tag":{"amenity":"waste_basket"}},"type":"Feature"},
	{"geometry":{"coordinates":[23.721585,37.976646],"type":"Point"},"properties":{"osm_id":"4261861963","tag":{"amenity":"recycling","location":"overground","recycling_type":"container"}},"type":"Feature"},
	{"geometry":{"coordinates":[23.682103,37.991744],"type":"Point"},"properties":{"osm_id":"4270653180","tag":{"amenity":"recycling"}},"type":"Feature"},
	{"geometry":{"coordinates":[23.728468,37.976125],"type":"Point"},"properties":{"osm_id":"4285025725","tag":{"amenity":"waste_basket"}},"type":"Feature"},
	{"geometry":{"coordinates":[23.720485,37.972843],"type":"Point"},"properties":{"osm_id":"4294301482","tag":{"amenity":"recycling","location":"overground","recycling_type":"container"}},"type":"Feature"},
	{"geometry":{"coordinates":[23.703625,37.962248],"type":"Point"},"properties":{"osm_id":"4294301486","tag":{"amenity":"waste_basket"}},"type":"Feature"},
	{"geometry":{"coordinates":[23.685064,37.943724],"type":"Point"},"properties":{"osm_id":"4294301658","tag":{"amenity":"recycling","recycling:glass":"yes"}},"type":"Feature"},
	{"geometry":{"coordinates":[23.669026,37.944858],"type":"Point"},"properties":{"osm_id":"4294301659","tag":{"amenity":"recycling"}},"type":"Feature"},
	{"geometry":{"coordinates":[23.727203,37.9657],"type":"Point"},"properties":{"osm_id":"4311006344","tag":{"amenity":"recycling","recycling_type":"container"}},"type":"Feature"},
	{"geometry":{"coordinates":[23.726342,37.965143],"type":"Point"},"properties":{"osm_id":"4311006345","tag":{"amenity":"recycling","recycling_type":"container"}},"type":"Feature"},
	{"geometry":{"coordinates":[23.719241,37.96225],"type":"Point"},"properties":{"osm_id":"4311008392","tag":{"amenity":"recycling"}},"type":"Feature"},
	{"geometry":{"coordinates":[23.717644,37.962454],"type":"Point"},"properties":{"osm_id":"4311008793","tag":{"amenity":"recycling"}},"type":"Feature"},
	{"geometry":{"coordinates":[23.645146,37.945105],"type":"Point"},"properties":{"osm_id":"4311010130","tag":{"amenity":"recycling","location":"underground","recycling_type":"container"}},"type":"Feature"},
	{"geometry":{"coordinates":[23.644954,37.942655],"type":"Point"},"properties":{"osm_id":"4311012324","tag":{"amenity":"waste_basket"}},"type":"Feature"},
	{"geometry":{"coordinates":[23.727632,37.96961],"type":"Point"},"properties":{"osm_id":"4320423731","tag":{"amenity":"waste_basket"}},"type":"Feature"},
	{"geometry":{"coordinates":[23.702472,37.955758],"type":"Point"},"properties":{"osm_id":"4321071413","tag":{"amenity":"recycling","recycling_type":"container"}},"type":"Feature"},
	{"geometry":{"coordinates":[23.645857,37.94146],"type":"Point"},"properties":{"osm_id":"4325929453","tag":{"amenity":"recycling"}},"type":"Feature"},
	{"geometry":{"coordinates":[23.647683,37.933696],"type":"Point"},"properties":{"osm_id":"4325930200","tag":{"amenity":"waste_basket"}},"type":"Feature"},
	{"geometry":{"coordinates":[23.648095,37.934391],"type":"Point"},"properties":{"osm_id":"4325930202","tag":{"amenity":"waste_basket"}},"type":"Feature"},
	{"geometry":{"coordinates":[23.646805,37.93305],"type":"Point"},"properties":{"osm_id":"4325930290","tag":{"amenity":"waste_basket"}},"type":"Feature"},
	{"geometry":{"coordinates":[23.646969,37.933093],"type":"Point"},"properties":{"osm_id":"4325930291","tag":{"amenity":"waste_basket"}},"type":"Feature"},
	{"geometry":{"coordinates":[23.647693,37.933601],"type":"Point"},"properties":{"osm_id":"4325930295","tag":{"amenity":"waste_basket"}},"type":"Feature"},
	{"geometry":{"coordinates":[23.650033,37.938892],"type":"Point"},"properties":{"osm_id":"4325930394","tag":{"amenity":"waste_basket"}},"type":"Feature"},
	{"geometry":{"coordinates":[23.644542,37.943507],"type":"Point"},"properties":{"osm_id":"4337350682","tag":{"amenity":"waste_basket"}},"type":"Feature"},
	{"geometry":{"coordinates":[23.64455,37.943501],"type":"Point"},"properties":{"osm_id":"4337351045","tag":{"amenity":"waste_basket"}},"type":"Feature"},
	{"geometry":{"coordinates":[23.727463,37.979995],"type":"Point"},"properties":{"osm_id":"4362841191","tag":{"amenity":"recycling","name:el":"\u0391\u03bd\u03b1\u03ba\u03cd\u03ba\u03bb\u03c9\u03c3\u03b7 \u03bc\u03c0\u03b1\u03c4\u03b1\u03c1\u03b9\u03ce\u03bd","name:en":"empty batteries deposit","recycling:batteries":"yes"}},"type":"Feature"},
	{"geometry":{"coordinates":[23.645692,37.944304],"type":"Point"},"properties":{"osm_id":"4382616078","tag":{"amenity":"waste_basket"}},"type":"Feature"},
	{"geometry":{"coordinates":[23.727194,37.983747],"type":"Point"},"properties":{"osm_id":"4395971301","tag":{"addr:city":"\u0391\u03b8\u03ae\u03bd\u03b1","addr:housenumber":"4","addr:street":"\u03a0\u03b1\u03bd\u03b1\u03b3\u03ae \u03a4\u03c3\u03b1\u03bb\u03b4\u03ac\u03c1\u03b7","amenity":"recycling","recycling:glass":"yes"}},"type":"Feature"},
	{"geometry":{"coordinates":[23.72637,37.96416],"type":"Point"},"properties":{"osm_id":"4400863123","tag":{"amenity":"recycling","recycling_type":"container"}},"type":"Feature"},
	{"geometry":{"coordinates":[23.646488,37.980182],"type":"Point"},"properties":{"osm_id":"4413064421","tag":{"addr:city":"\u039a\u03bf\u03c1\u03c5\u03b4\u03b1\u03bb\u03bb\u03cc\u03c2","addr:street":"\u0393\u03c1\u03b7\u03b3\u03bf\u03c1\u03af\u03bf\u03c5 \u039b\u03b1\u03bc\u03c0\u03c1\u03ac\u03ba\u03b7","amenity":"recycling","recycling:glass":"yes"}},"type":"Feature"},
	{"geometry":{"coordinates":[23.644439,37.929277],"type":"Point"},"properties":{"osm_id":"4422706438","tag":{"amenity":"recycling"}},"type":"Feature"},
	{"geometry":{"coordinates":[23.648809,37.93908],"type":"Point"},"properties":{"osm_id":"4422706782","tag":{"amenity":"recycling","location":"overground","recycling_type":"container"}},"type":"Feature"},
	{"geometry":{"coordinates":[23.644915,37.940111],"type":"Point"},"properties":{"osm_id":"4535968146","tag":{"amenity":"waste_basket"}},"type":"Feature"},
	{"geometry":{"coordinates":[23.649534,37.94164],"type":"Point"},"properties":{"osm_id":"4536216199","tag":{"amenity":"recycling","location":"underground","recycling_type":"container"}},"type":"Feature"},
	{"geometry":{"coordinates":[23.649166,37.941836],"type":"Point"},"properties":{"osm_id":"4536216685","tag":{"amenity":"recycling","location":"underground","recycling_type":"container"}},"type":"Feature"},
	{"geometry":{"coordinates":[23.657791,37.944241],"type":"Point"},"properties":{"osm_id":"4561124757","tag":{"amenity":"recycling"}},"type":"Feature"},
	{"geometry":{"coordinates":[23.653102,37.944708],"type":"Point"},"properties":{"osm_id":"4561131236","tag":{"amenity":"recycling","description":"underground"}},"type":"Feature"},
	{"geometry":{"coordinates":[23.646479,37.942526],"type":"Point"},"properties":{"osm_id":"4561132820","tag":{"amenity":"recycling"}},"type":"Feature"},
	{"geometry":{"coordinates":[23.712427,37.968495],"type":"Point"},"properties":{"osm_id":"4571321139","tag":{"addr:city":"\u0391\u03b8\u03ae\u03bd\u03b1","addr:housenumber":"58","addr:street":"\u03a4\u03c1\u03ce\u03c9\u03bd","amenity":"recycling","recycling:glass":"yes","recycling_type":"container"}},"type":"Feature"},
	{"geometry":{"coordinates":[23.712829,37.969059],"type":"Point"},"properties":{"osm_id":"4571323413","tag":{"addr:city":"\u0391\u03b8\u03ae\u03bd\u03b1","addr:housenumber":"41","addr:street":"\u0399\u03c9\u03bd\u03c9\u03bd","amenity":"recycling","recycling:glass":"yes","recycling_type":"container"}},"type":"Feature"},
	{"geometry":{"coordinates":[23.729035,37.982484],"type":"Point"},"properties":{"osm_id":"4592786111","tag":{"amenity":"waste_basket"}},"type":"Feature"},
	{"geometry":{"coordinates":[23.728144,37.982654],"type":"Point"},"properties":{"name":"recycling bin","osm_id":"4592786118","tag":{"amenity":"recycling"}},"type":"Feature"},
	{"geometry":{"coordinates":[23.72902,37.982954],"type":"Point"},"properties":{"osm_id":"4592836058","tag":{"amenity":"waste_basket"}},"type":"Feature"},
	{"geometry":{"coordinates":[23.728454,37.98356],"type":"Point"},"properties":{"osm_id":"4592836060","tag":{"amenity":"waste_basket"}},"type":"Feature"},
	{"geometry":{"coordinates":[23.728822,37.981879],"type":"Point"},"properties":{"osm_id":"4592836062","tag":{"amenity":"waste_basket"}},"type":"Feature"},
	{"geometry":{"coordinates":[23.728763,37.983254],"type":"Point"},"properties":{"osm_id":"4592836067","tag":{"amenity":"waste_basket"}},"type":"Feature"},
	{"geometry":{"coordinates":[23.728869,37.981872],"type":"Point"},"properties":{"osm_id":"4592836073","tag":{"amenity":"waste_basket"}},"type":"Feature"},
	{"geometry":{"coordinates":[23.728865,37.982001],"type":"Point"},"properties":{"osm_id":"4592836074","tag":{"amenity":"waste_basket"}},"type":"Feature"},
	{"geometry":{"coordinates":[23.728956,37.982173],"type":"Point"},"properties":{"osm_id":"4592836075","tag":{"amenity":"waste_basket"}},"type":"Feature"},
	{"geometry":{"coordinates":[23.728598,37.983448],"type":"Point"},"properties":{"osm_id":"4592836076","tag":{"amenity":"waste_basket"}},"type":"Feature"},
	{"geometry":{"coordinates":[23.728776,37.981705],"type":"Point"},"properties":{"osm_id":"4592836079","tag":{"amenity":"waste_basket"}},"type":"Feature"},
	{"geometry":{"coordinates":[23.729032,37.982526],"type":"Point"},"properties":{"name":"recycling bin","osm_id":"4592836080","tag":{"amenity":"recycling"}},"type":"Feature"},
	{"geometry":{"coordinates":[23.72785,37.981841],"type":"Point"},"properties":{"osm_id":"4592904391","tag":{"amenity":"waste_basket"}},"type":"Feature"},
	{"geometry":{"coordinates":[23.727168,37.981054],"type":"Point"},"properties":{"osm_id":"4593019696","tag":{"amenity":"waste_basket"}},"type":"Feature"},
	{"geometry":{"coordinates":[23.727322,37.981026],"type":"Point"},"properties":{"osm_id":"4593019705","tag":{"amenity":"waste_basket"}},"type":"Feature"},
	{"geometry":{"coordinates":[23.730076,37.982001],"type":"Point"},"properties":{"osm_id":"4593087720","tag":{"amenity":"waste_basket"}},"type":"Feature"},
	{"geometry":{"coordinates":[23.729557,37.982631],"type":"Point"},"properties":{"osm_id":"4593087727","tag":{"amenity":"waste_basket"}},"type":"Feature"},
	{"geometry":{"coordinates":[23.730001,37.981728],"type":"Point"},"properties":{"osm_id":"4593087734","tag":{"amenity":"waste_basket"}},"type":"Feature"},
	{"geometry":{"coordinates":[23.72997,37.982146],"type":"Point"},"properties":{"osm_id":"4593087735","tag":{"amenity":"waste_basket"}},"type":"Feature"},
	{"geometry":{"coordinates":[23.729407,37.982465],"type":"Point"},"properties":{"osm_id":"4593087736","tag":{"amenity":"waste_basket"}},"type":"Feature"},
	{"geometry":{"coordinates":[23.730074,37.981658],"type":"Point"},"properties":{"osm_id":"4596699803","tag":{"amenity":"waste_basket"}},"type":"Feature"},
	{"geometry":{"coordinates":[23.726945,37.97955],"type":"Point"},"properties":{"osm_id":"4596746745","tag":{"amenity":"waste_basket"}},"type":"Feature"},
	{"geometry":{"coordinates":[23.726794,37.978875],"type":"Point"},"properties":{"osm_id":"4596753078","tag":{"amenity":"recycling"}},"type":"Feature"},
	{"geometry":{"coordinates":[23.730456,37.980783],"type":"Point"},"properties":{"osm_id":"4596754948","tag":{"amenity":"waste_basket"}},"type":"Feature"},
	{"geometry":{"coordinates":[23.730158,37.980495],"type":"Point"},"properties":{"osm_id":"4596754954","tag":{"amenity":"recycling"}},"type":"Feature"},
	{"geometry":{"coordinates":[23.726705,37.978519],"type":"Point"},"properties":{"osm_id":"4596758289","tag":{"amenity":"waste_basket"}},"type":"Feature"},
	{"geometry":{"coordinates":[23.726595,37.978087],"type":"Point"},"properties":{"osm_id":"4596762206","tag":{"amenity":"waste_basket"}},"type":"Feature"},
	{"geometry":{"coordinates":[23.728643,37.980924],"type":"Point"},"properties":{"osm_id":"4596766792","tag":{"amenity":"waste_basket"}},"type":"Feature"},
	{"geometry":{"coordinates":[23.72626,37.976737],"type":"Point"},"properties":{"osm_id":"4596780620","tag":{"amenity":"waste_basket"}},"type":"Feature"},
	{"geometry":{"coordinates":[23.727989,37.976487],"type":"Point"},"properties":{"osm_id":"4596795949","tag":{"amenity":"waste_basket"}},"type":"Feature"},
	{"geometry":{"coordinates":[23.728555,37.98093],"type":"Point"},"properties":{"osm_id":"4596815325","tag":{"amenity":"waste_basket"}},"type":"Feature"},
	{"geometry":{"coordinates":[23.729362,37.980716],"type":"Point"},"properties":{"osm_id":"4596815333","tag":{"amenity":"recycling"}},"type":"Feature"},
	{"geometry":{"coordinates":[23.729943,37.979576],"type":"Point"},"properties":{"osm_id":"4596882252","tag":{"amenity":"recycling"}},"type":"Feature"},
	{"geometry":{"coordinates":[23.729902,37.979977],"type":"Point"},"properties":{"osm_id":"4596898246","tag":{"amenity":"recycling","recycling_type":"container"}},"type":"Feature"},
	{"geometry":{"coordinates":[23.730011,37.98048],"type":"Point"},"properties":{"osm_id":"4596898247","tag":{"amenity":"waste_basket"}},"type":"Feature"},
	{"geometry":{"coordinates":[23.729933,37.980169],"type":"Point"},"properties":{"osm_id":"4596898248","tag":{"amenity":"waste_basket"}},"type":"Feature"},
	{"geometry":{"coordinates":[23.729897,37.979957],"type":"Point"},"properties":{"osm_id":"4596898249","tag":{"amenity":"recycling"}},"type":"Feature"},
	{"geometry":{"coordinates":[23.729183,37.979595],"type":"Point"},"properties":{"osm_id":"4596949936","tag":{"amenity":"recycling"}},"type":"Feature"},
	{"geometry":{"coordinates":[23.729168,37.979598],"type":"Point"},"properties":{"osm_id":"4596949939","tag":{"amenity":"recycling"}},"type":"Feature"},
	{"geometry":{"coordinates":[23.728609,37.979558],"type":"Point"},"properties":{"osm_id":"4596975686","tag":{"amenity":"waste_basket"}},"type":"Feature"},
	{"geometry":{"coordinates":[23.728559,37.979566],"type":"Point"},"properties":{"osm_id":"4596977090","tag":{"amenity":"waste_basket"}},"type":"Feature"},
	{"geometry":{"coordinates":[23.729219,37.979324],"type":"Point"},"properties":{"osm_id":"4596977097","tag":{"amenity":"waste_basket"}},"type":"Feature"},
	{"geometry":{"coordinates":[23.729201,37.97934],"type":"Point"},"properties":{"osm_id":"4596977101","tag":{"amenity":"waste_basket"}},"type":"Feature"},
	{"geometry":{"coordinates":[23.7273,37.979814],"type":"Point"},"properties":{"osm_id":"4596987207","tag":{"amenity":"recycling"}},"type":"Feature"},
	{"geometry":{"coordinates":[23.729316,37.976323],"type":"Point"},"properties":{"osm_id":"4602187016","tag":{"amenity":"waste_basket"}},"type":"Feature"},
	{"geometry":{"coordinates":[23.728443,37.979664],"type":"Point"},"properties":{"osm_id":"4602275120","tag":{"amenity":"waste_basket"}},"type":"Feature"},
	{"geometry":{"coordinates":[23.726691,37.978356],"type":"Point"},"properties":{"osm_id":"4602339715","tag":{"amenity":"waste_basket"}},"type":"Feature"},
	{"geometry":{"coordinates":[23.727103,37.978461],"type":"Point"},"properties":{"osm_id":"4602339716","tag":{"amenity":"waste_basket"}},"type":"Feature"},
	{"geometry":{"coordinates":[23.728926,37.978701],"type":"Point"},"properties":{"osm_id":"4602358790","tag":{"amenity":"waste_basket"}},"type":"Feature"},
	{"geometry":{"coordinates":[23.72693,37.977992],"type":"Point"},"properties":{"osm_id":"4602398687","tag":{"amenity":"waste_basket"}},"type":"Feature"},
	{"geometry":{"coordinates":[23.728647,37.977796],"type":"Point"},"properties":{"osm_id":"4602433038","tag":{"amenity":"waste_basket"}},"type":"Feature"},
	{"geometry":{"coordinates":[23.730074,37.977644],"type":"Point"},"properties":{"osm_id":"4602437920","tag":{"amenity":"waste_basket"}},"type":"Feature"},
	{"geometry":{"coordinates":[23.729768,37.97772],"type":"Point"},"properties":{"osm_id":"4602437924","tag":{"amenity":"waste_basket"}},"type":"Feature"},
	{"geometry":{"coordinates":[23.729284,37.977985],"type":"Point"},"properties":{"osm_id":"4602448051","tag":{"amenity":"waste_basket"}},"type":"Feature"},
	{"geometry":{"coordinates":[23.729116,37.978519],"type":"Point"},"properties":{"osm_id":"4602448053","tag":{"amenity":"waste_basket"}},"type":"Feature"},
	{"geometry":{"coordinates":[23.645646,37.936389],"type":"Point"},"properties":{"osm_id":"4659956301","tag":{"amenity":"recycling","location":"underground","recycling_type":"container"}},"type":"Feature"},
	{"geometry":{"coordinates":[23.645915,37.935845],"type":"Point"},"properties":{"osm_id":"4659956302","tag":{"amenity":"waste_basket"}},"type":"Feature"},
	{"geometry":{"coordinates":[23.646463,37.933138],"type":"Point"},"properties":{"osm_id":"4659956312","tag":{"amenity":"recycling"}},"type":"Feature"},
	{"geometry":{"coordinates":[23.726587,37.977277],"type":"Point"},"properties":{"osm_id":"4683654111","tag":{"amenity":"waste_basket"}},"type":"Feature"},
	{"geometry":{"coordinates":[23.72932,37.977665],"type":"Point"},"properties":{"osm_id":"4683778920","tag":{"amenity":"waste_basket"}},"type":"Feature"},
	{"geometry":{"coordinates":[23.727799,37.976944],"type":"Point"},"properties":{"osm_id":"4683797344","tag":{"amenity":"recycling"}},"type":"Feature"},
	{"geometry":{"coordinates":[23.727724,37.976948],"type":"Point"},"properties":{"osm_id":"4683797345","tag":{"amenity":"recycling"}},"type":"Feature"},
	{"geometry":{"coordinates":[23.728233,37.976944],"type":"Point"},"properties":{"osm_id":"4683797346","tag":{"amenity":"waste_basket"}},"type":"Feature"},
	{"geometry":{"coordinates":[23.728829,37.976489],"type":"Point"},"properties":{"osm_id":"4683805361","tag":{"amenity":"waste_basket"}},"type":"Feature"},
	{"geometry":{"coordinates":[23.728826,37.976443],"type":"Point"},"properties":{"osm_id":"4683805366","tag":{"amenity":"recycling"}},"type":"Feature"},
	{"geometry":{"coordinates":[23.726645,37.964316],"type":"Point"},"properties":{"osm_id":"4704641321","tag":{"amenity":"recycling","recycling_type":"container"}},"type":"Feature"},
	{"geometry":{"coordinates":[23.644348,37.939989],"type":"Point"},"properties":{"osm_id":"4746025669","tag":{"amenity":"waste_basket"}},"type":"Feature"},
	{"geometry":{"coordinates":[23.723361,37.970208],"type":"Point"},"properties":{"osm_id":"4746029648","tag":{"amenity":"waste_basket"}},"type":"Feature"},
	{"geometry":{"coordinates":[23.721346,37.970514],"type":"Point"},"properties":{"osm_id":"4746029650","tag":{"amenity":"waste_basket"}},"type":"Feature"},
	{"geometry":{"coordinates":[23.644751,37.940448],"type":"Point"},"properties":{"osm_id":"4746029658","tag":{"amenity":"waste_basket"}},"type":"Feature"},
	{"geometry":{"coordinates":[23.72475,37.970046],"type":"Point"},"properties":{"osm_id":"4746030369","tag":{"amenity":"waste_basket"}},"type":"Feature"},
	{"geometry":{"coordinates":[23.720511,37.976493],"type":"Point"},"properties":{"osm_id":"4746030373","tag":{"amenity":"waste_basket"}},"type":"Feature"},
	{"geometry":{"coordinates":[23.719862,37.95899],"type":"Point"},"properties":{"osm_id":"4767437861","tag":{"amenity":"recycling","recycling:glass":"yes","recycling_type":"container"}},"type":"Feature"},
	{"geometry":{"coordinates":[23.68651,37.94809],"type":"Point"},"properties":{"osm_id":"4781588357","tag":{"amenity":"recycling"}},"type":"Feature"},
	{"geometry":{"coordinates":[23.690634,37.943278],"type":"Point"},"properties":{"osm_id":"4781603368","tag":{"amenity":"recycling","recycling_type":"centre"}},"type":"Feature"},
	{"geometry":{"coordinates":[23.643759,37.940269],"type":"Point"},"properties":{"osm_id":"4872849512","tag":{"amenity":"waste_basket"}},"type":"Feature"},
	{"geometry":{"coordinates":[23.643958,37.940243],"type":"Point"},"properties":{"osm_id":"4872849513","tag":{"amenity":"waste_basket"}},"type":"Feature"},
	{"geometry":{"coordinates":[23.644073,37.94016],"type":"Point"},"properties":{"osm_id":"4872849515","tag":{"amenity":"waste_basket"}},"type":"Feature"},
	{"geometry":{"coordinates":[23.643923,37.940384],"type":"Point"},"properties":{"osm_id":"4872851405","tag":{"amenity":"waste_basket"}},"type":"Feature"},
	{"geometry":{"coordinates":[23.643971,37.940305],"type":"Point"},"properties":{"osm_id":"4872851623","tag":{"amenity":"waste_basket"}},"type":"Feature"},
	{"geometry":{"coordinates":[23.644259,37.940054],"type":"Point"},"properties":{"osm_id":"4872851625","tag":{"amenity":"waste_basket"}},"type":"Feature"},
	{"geometry":{"coordinates":[23.724225,37.980939],"type":"Point"},"properties":{"osm_id":"4921366521","tag":{"amenity":"waste_basket"}},"type":"Feature"},
	{"geometry":{"coordinates":[23.681335,37.943742],"type":"Point"},"properties":{"osm_id":"4922733222","tag":{"amenity":"waste_basket"}},"type":"Feature"},
	{"geometry":{"coordinates":[23.726651,37.964602],"type":"Point"},"properties":{"osm_id":"5066942923","tag":{"amenity":"waste_basket"}},"type":"Feature"},
	{"geometry":{"coordinates":[23.651859,37.943216],"type":"Point"},"properties":{"osm_id":"5167421545","tag":{"amenity":"recycling"}},"type":"Feature"},
	{"geometry":{"coordinates":[23.652052,37.943444],"type":"Point"},"properties":{"osm_id":"5167423233","tag":{"amenity":"recycling"}},"type":"Feature"},
	{"geometry":{"coordinates":[23.66172,37.943359],"type":"Point"},"properties":{"osm_id":"5173883783","tag":{"amenity":"recycling","recycling:glass":"yes","recycling_type":"container"}},"type":"Feature"},
	{"geometry":{"coordinates":[23.647003,37.941598],"type":"Point"},"properties":{"osm_id":"5228465619","tag":{"amenity":"waste_basket"}},"type":"Feature"},
	{"geometry":{"coordinates":[23.661857,37.939446],"type":"Point"},"properties":{"osm_id":"5228465625","tag":{"amenity":"waste_basket"}},"type":"Feature"},
	{"geometry":{"coordinates":[23.643581,37.942987],"type":"Point"},"properties":{"osm_id":"5483686667","tag":{"amenity":"waste_basket"}},"type":"Feature"},
	{"geometry":{"coordinates":[23.669788,37.944839],"type":"Point"},"properties":{"osm_id":"5483686668","tag":{"amenity":"waste_basket"}},"type":"Feature"},
	{"geometry":{"coordinates":[23.651252,37.940544],"type":"Point"},"properties":{"osm_id":"5483687450","tag":{"amenity":"waste_basket"}},"type":"Feature"},
	{"geometry":{"coordinates":[23.652049,37.940116],"type":"Point"},"properties":{"osm_id":"5483687451","tag":{"amenity":"waste_basket"}},"type":"Feature"},
	{"geometry":{"coordinates":[23.650668,37.93766],"type":"Point"},"properties":{"osm_id":"5483687731","tag":{"amenity":"waste_basket"}},"type":"Feature"},
	{"geometry":{"coordinates":[23.65251,37.938025],"type":"Point"},"properties":{"osm_id":"5483687748","tag":{"amenity":"waste_basket"}},"type":"Feature"},
	{"geometry":{"coordinates":[23.652416,37.937928],"type":"Point"},"properties":{"osm_id":"5483687960","tag":{"amenity":"waste_basket"}},"type":"Feature"},
	{"geometry":{"coordinates":[23.652605,37.937833],"type":"Point"},"properties":{"osm_id":"5483688028","tag":{"amenity":"waste_basket"}},"type":"Feature"},
	{"geometry":{"coordinates":[23.70669,37.937122],"type":"Point"},"properties":{"osm_id":"5519232876","tag":{"amenity":"waste_basket"}},"type":"Feature"},
	{"geometry":{"coordinates":[23.704657,37.944418],"type":"Point"},"properties":{"osm_id":"5521445783","tag":{"amenity":"waste_basket"}},"type":"Feature"},
	{"geometry":{"coordinates":[23.642915,37.9428],"type":"Point"},"properties":{"osm_id":"5656362118","tag":{"amenity":"waste_basket"}},"type":"Feature"},
	{"geometry":{"coordinates":[23.643537,37.944141],"type":"Point"},"properties":{"osm_id":"5656379335","tag":{"amenity":"waste_basket"}},"type":"Feature"},
	{"geometry":{"coordinates":[23.643056,37.942953],"type":"Point"},"properties":{"osm_id":"5656380897","tag":{"amenity":"waste_basket"}},"type":"Feature"},
	{"geometry":{"coordinates":[23.643345,37.94323],"type":"Point"},"properties":{"osm_id":"5656381008","tag":{"amenity":"waste_basket"}},"type":"Feature"},
	{"geometry":{"coordinates":[23.643166,37.94309],"type":"Point"},"properties":{"osm_id":"5656382128","tag":{"amenity":"waste_basket"}},"type":"Feature"},
	{"geometry":{"coordinates":[23.643405,37.943329],"type":"Point"},"properties":{"osm_id":"5656383122","tag":{"amenity":"waste_basket"}},"type":"Feature"},
	{"geometry":{"coordinates":[23.716676,37.969793],"type":"Point"},"properties":{"osm_id":"5685609675","tag":{"amenity":"waste_basket"}},"type":"Feature"},
	{"geometry":{"coordinates":[23.696245,37.939446],"type":"Point"},"properties":{"osm_id":"5694418621","tag":{"addr:city":"\u03a0\u03b1\u03bb\u03b1\u03b9\u03cc \u03a6\u03ac\u03bb\u03b7\u03c1\u03bf","addr:housenumber":"5","addr:street":"\u03a0\u03b5\u03bd\u03c4\u03ad\u03bb\u03b7\u03c2","amenity":"recycling","recycling:glass":"yes","recycling_type":"centre"}},"type":"Feature"},
	{"geometry":{"coordinates":[23.69411,37.92904],"type":"Point"},"properties":{"osm_id":"5730578516","tag":{"amenity":"waste_basket"}},"type":"Feature"},
	{"geometry":{"coordinates":[23.694146,37.92909],"type":"Point"},"properties":{"osm_id":"5730578517","tag":{"amenity":"waste_basket"}},"type":"Feature"},
	{"geometry":{"coordinates":[23.694118,37.929106],"type":"Point"},"properties":{"osm_id":"5730578518","tag":{"amenity":"waste_basket"}},"type":"Feature"},
	{"geometry":{"coordinates":[23.695374,37.95209],"type":"Point"},"properties":{"osm_id":"5740426411","tag":{"amenity":"recycling","location":"overground","recycling:glass_bottles":"yes","recycling_type":"container"}},"type":"Feature"},
	{"geometry":{"coordinates":[23.68476,37.943014],"type":"Point"},"properties":{"osm_id":"5824558109","tag":{"amenity":"recycling","description":"Recycling glass"}},"type":"Feature"},
	{"geometry":{"coordinates":[23.725789,37.975901],"type":"Point"},"properties":{"osm_id":"5835173095","tag":{"amenity":"waste_basket"}},"type":"Feature"},
	{"geometry":{"coordinates":[23.654697,37.962394],"type":"Point"},"properties":{"osm_id":"5839870086","tag":{"amenity":"recycling"}},"type":"Feature"},
	{"geometry":{"coordinates":[23.688147,37.931584],"type":"Point"},"properties":{"osm_id":"5897746885","tag":{"amenity":"recycling","description":"glass recycling"}},"type":"Feature"},
	{"geometry":{"coordinates":[23.66224,37.938581],"type":"Point"},"properties":{"osm_id":"5899312787","tag":{"amenity":"recycling","description":"glass recycling","location":"underground","recycling_type":"container"}},"type":"Feature"},
	{"geometry":{"coordinates":[23.646654,37.942332],"type":"Point"},"properties":{"osm_id":"5928057747","tag":{"amenity":"recycling","description":"glass recycling"}},"type":"Feature"},
	{"geometry":{"coordinates":[23.71389,37.993111],"type":"Point"},"properties":{"osm_id":"5985517632","tag":{"amenity":"waste_basket"}},"type":"Feature"},
	{"geometry":{"coordinates":[23.723489,37.960142],"type":"Point"},"properties":{"osm_id":"6259774766","tag":{"amenity":"waste_basket"}},"type":"Feature"},
	{"geometry":{"coordinates":[23.723475,37.960364],"type":"Point"},"properties":{"osm_id":"6259778547","tag":{"amenity":"waste_basket"}},"type":"Feature"},
	{"geometry":{"coordinates":[23.723475,37.960029],"type":"Point"},"properties":{"osm_id":"6259778548","tag":{"amenity":"waste_basket"}},"type":"Feature"},
	{"geometry":{"coordinates":[23.722542,37.959744],"type":"Point"},"properties":{"osm_id":"6259778553","tag":{"amenity":"waste_basket"}},"type":"Feature"},
	{"geometry":{"coordinates":[23.723459,37.960235],"type":"Point"},"properties":{"osm_id":"6259779615","tag":{"amenity":"waste_basket"}},"type":"Feature"},
	{"geometry":{"coordinates":[23.7228,37.959975],"type":"Point"},"properties":{"osm_id":"6259779649","tag":{"amenity":"waste_basket"}},"type":"Feature"},
	{"geometry":{"coordinates":[23.650737,37.9766],"type":"Point"},"properties":{"osm_id":"6361438869","tag":{"amenity":"recycling","recycling:glass_bottles":"yes","recycling_type":"container"}},"type":"Feature"},
	{"geometry":{"coordinates":[23.726777,37.96481],"type":"Point"},"properties":{"osm_id":"6444700170","tag":{"amenity":"recycling","recycling:clothes":"yes","recycling:shoes":"yes","recycling_type":"container"}},"type":"Feature"},
	{"geometry":{"coordinates":[23.721157,37.976687],"type":"Point"},"properties":{"osm_id":"6472913109","tag":{"amenity":"waste_basket"}},"type":"Feature"},
	{"geometry":{"coordinates":[23.706453,37.971247],"type":"Point"},"properties":{"osm_id":"6538461706","tag":{"amenity":"recycling","description":"\u03c1\u03bf\u03cd\u03c7\u03b1, \u03c0\u03b1\u03c0\u03bf\u03cd\u03c4\u03c3\u03b9\u03b1, \u03bb\u03b5\u03c5\u03ba\u03ac \u03b5\u03af\u03b4\u03b7, \u03c4\u03c3\u03ac\u03bd\u03c4\u03b5\u03c2, \u03b1\u03be\u03b5\u03c3\u03bf\u03c5\u03ac\u03c1"}},"type":"Feature"},
	{"geometry":{"coordinates":[23.711358,37.9804],"type":"Point"},"properties":{"osm_id":"6538474499","tag":{"amenity":"recycling","recycling:glass":"yes"}},"type":"Feature"},
	{"geometry":{"coordinates":[23.707739,37.969994],"type":"Point"},"properties":{"osm_id":"6538481913","tag":{"amenity":"recycling","description":"\u03b3\u03c5\u03b1\u03bb\u03af"}},"type":"Feature"},
	{"geometry":{"coordinates":[23.707322,37.974236],"type":"Point"},"properties":{"osm_id":"6542226948","tag":{"amenity":"waste_basket"}},"type":"Feature"},
	{"geometry":{"coordinates":[23.707247,37.974329],"type":"Point"},"properties":{"osm_id":"6542229499","tag":{"amenity":"waste_basket"}},"type":"Feature"},
	{"geometry":{"coordinates":[23.727454,37.99345],"type":"Point"},"properties":{"osm_id":"6568789888","tag":{"amenity":"recycling","colour":"red","material":"metal","recycling:clothes":"yes","recycling:shoes":"yes","recycling_type":"container"}},"type":"Feature"},
	{"geometry":{"coordinates":[23.718497,37.979925],"type":"Point"},"properties":{"osm_id":"6582763294","tag":{"amenity":"recycling","colour":"blue","material":"plastic","recycling:glass_bottles":"yes","recycling_type":"container"}},"type":"Feature"},
	{"geometry":{"coordinates":[23.662285,37.973272],"type":"Point"},"properties":{"osm_id":"6590037212","tag":{"addr:city":"\u0394\u03b7\u03bc\u03bf\u03c4\u03b9\u03ba\u03ae \u0395\u03bd\u03cc\u03c4\u03b7\u03c4\u03b1 \u039d\u03af\u03ba\u03b1\u03b9\u03b1\u03c2","amenity":"recycling","recycling_type":"centre"}},"type":"Feature"},
	{"geometry":{"coordinates":[23.719044,37.959367],"type":"Point"},"properties":{"osm_id":"6594916305","tag":{"amenity":"waste_basket"}},"type":"Feature"},
	{"geometry":{"coordinates":[23.719318,37.959588],"type":"Point"},"properties":{"osm_id":"6594916306","tag":{"amenity":"waste_basket"}},"type":"Feature"},
	{"geometry":{"coordinates":[23.710987,37.962055],"type":"Point"},"properties":{"osm_id":"6614247338","tag":{"amenity":"recycling","colour":"blue","material":"plastic","recycling:glass_bottles":"yes","recycling_type":"container"}},"type":"Feature"},
	{"geometry":{"coordinates":[23.719263,37.962117],"type":"Point"},"properties":{"osm_id":"6614459161","tag":{"amenity":"recycling","colour":"red","material":"metal","recycling:clothes":"yes","recycling:shoes":"yes","recycling_type":"container"}},"type":"Feature"},
	{"geometry":{"coordinates":[23.643147,37.941269],"type":"Point"},"properties":{"osm_id":"6658113894","tag":{"amenity":"recycling","colour":"blue","material":"plastic","recycling:glass_bottles":"yes","recycling_type":"container"}},"type":"Feature"},
	{"geometry":{"coordinates":[23.646246,37.943422],"type":"Point"},"properties":{"osm_id":"6831865735","tag":{"amenity":"recycling","colour":"blue","material":"plastic","recycling:glass_bottles":"yes","recycling_type":"container"}},"type":"Feature"},
	{"geometry":{"coordinates":[23.710545,37.978741],"type":"Point"},"properties":{"osm_id":"6939055889","tag":{"amenity":"waste_basket"}},"type":"Feature"},
	{"geometry":{"coordinates":[23.710779,37.978644],"type":"Point"},"properties":{"osm_id":"6939079484","tag":{"amenity":"waste_basket"}},"type":"Feature"},
	{"geometry":{"coordinates":[23.711812,37.978498],"type":"Point"},"properties":{"osm_id":"6939081699","tag":{"amenity":"waste_basket"}},"type":"Feature"},
	{"geometry":{"coordinates":[23.712033,37.978421],"type":"Point"},"properties":{"osm_id":"6939087022","tag":{"amenity":"waste_basket"}},"type":"Feature"},
	{"geometry":{"coordinates":[23.708733,37.963103],"type":"Point"},"properties":{"osm_id":"7016662448","tag":{"amenity":"waste_basket"}},"type":"Feature"},
	{"geometry":{"coordinates":[23.708434,37.96322],"type":"Point"},"properties":{"osm_id":"7016663600","tag":{"amenity":"waste_basket"}},"type":"Feature"},
	{"geometry":{"coordinates":[23.708131,37.963212],"type":"Point"},"properties":{"osm_id":"7016666198","tag":{"amenity":"waste_basket"}},"type":"Feature"},
	{"geometry":{"coordinates":[23.708256,37.963087],"type":"Point"},"properties":{"osm_id":"7016668147","tag":{"amenity":"waste_basket"}},"type":"Feature"},
	{"geometry":{"coordinates":[23.708623,37.967483],"type":"Point"},"properties":{"osm_id":"7045275338","tag":{"amenity":"recycling","recycling:clothes":"yes"}},"type":"Feature"},
	{"geometry":{"coordinates":[23.712816,37.967169],"type":"Point"},"properties":{"osm_id":"7126406787","tag":{"amenity":"recycling","colour":"red","material":"metal","recycling:clothes":"yes","recycling:shoes":"yes","recycling_type":"container"}},"type":"Feature"},
	{"geometry":{"coordinates":[23.706792,37.968114],"type":"Point"},"properties":{"osm_id":"7636049420","tag":{"amenity":"recycling","colour":"red","material":"metal","recycling:clothes":"yes","recycling:shoes":"yes","recycling_type":"container"}},"type":"Feature"},
	{"geometry":{"coordinates":[23.703664,37.968597],"type":"Point"},"properties":{"osm_id":"7695309197","tag":{"amenity":"recycling","colour":"red","material":"metal","recycling:clothes":"yes","recycling:shoes":"yes","recycling_type":"container"}},"type":"Feature"},
	{"geometry":{"coordinates":[23.729871,37.979316],"type":"Point"},"properties":{"osm_id":"7744458388","tag":{"amenity":"recycling","colour":"red","material":"metal","recycling:clothes":"yes","recycling:shoes":"yes","recycling_type":"container"}},"type":"Feature"},
	{"geometry":{"coordinates":[23.646715,37.939304],"type":"Point"},"properties":{"osm_id":"7752028425","tag":{"amenity":"recycling","description":"\u03b3\u03c5\u03b1\u03bb\u03af"}},"type":"Feature"}
]
}
