{
"type": "FeatureCollection",
"lastupdate": "2020-08-04T00:00:00Z",
"features": [
	{"geometry":{"coordinates":[21.669364,63.093229],"type":"Point"},"properties":{"name":"Ekopiste","osm_id":"1531074420","tag":{"amenity":"recycling"}},"type":"Feature"},
	{"geometry":{"coordinates":[21.699273,63.085834],"type":"Point"},"properties":{"name":"Ekopiste","osm_id":"2008751655","tag":{"amenity":"recycling"}},"type":"Feature"},
	{"geometry":{"coordinates":[21.683747,63.090795],"type":"Point"},"properties":{"name":"Ekopiste","osm_id":"2008751659","tag":{"amenity":"recycling"}},"type":"Feature"},
	{"geometry":{"coordinates":[21.669205,63.10048],"type":"Point"},"properties":{"name":"Ekopiste","osm_id":"2008751663","tag":{"amenity":"recycling"}},"type":"Feature"},
	{"geometry":{"coordinates":[21.644169,63.087719],"type":"Point"},"properties":{"osm_id":"5248785088","tag":{"amenity":"waste_basket"}},"type":"Feature"},
	{"geometry":{"coordinates":[21.629019,63.101732],"type":"Point"},"properties":{"osm_id":"6769262261","tag":{"amenity":"waste_basket"}},"type":"Feature"}
]
}
