{
"type": "FeatureCollection",
"features": [
	{"geometry":{"coordinates":[21.641033,47.534077],"type":"Point"},"properties":{"osm_id":"651350836","tag":{"amenity":"recycling"}},"type":"Feature"},
	{"geometry":{"coordinates":[21.64859,47.535053],"type":"Point"},"properties":{"osm_id":"1336808846","tag":{"amenity":"recycling"}},"type":"Feature"},
	{"geometry":{"coordinates":[21.647601,47.54884],"type":"Point"},"properties":{"name":"Szelekt\u00c3\u00adv hullad\u00c3\u00a9kgy\u00c5\u00b1jt\u00c5\u0091 sziget","osm_id":"2784599442","tag":{"amenity":"recycling","name:hu":"Szelekt\u00c3\u00adv hullad\u00c3\u00a9kgy\u00c5\u00b1jt\u00c5\u0091 sziget","recycling_type":"container"}},"type":"Feature"},
	{"geometry":{"coordinates":[21.645617,47.528803],"type":"Point"},"properties":{"osm_id":"2829917698","tag":{"amenity":"recycling","recycling:cans":"yes","recycling:clothes":"no","recycling:glass_bottles":"yes","recycling:paper":"yes","recycling_type":"container"}},"type":"Feature"},
	{"geometry":{"coordinates":[21.625584,47.534713],"type":"Point"},"properties":{"osm_id":"2910082307","tag":{"amenity":"waste_basket"}},"type":"Feature"},
	{"geometry":{"coordinates":[21.640041,47.5412],"type":"Point"},"properties":{"osm_id":"2910082329","tag":{"amenity":"waste_basket"}},"type":"Feature"},
	{"geometry":{"coordinates":[21.641127,47.542002],"type":"Point"},"properties":{"osm_id":"2910082330","tag":{"amenity":"waste_basket"}},"type":"Feature"},
	{"geometry":{"coordinates":[21.625735,47.528801],"type":"Point"},"properties":{"osm_id":"2914198205","tag":{"amenity":"waste_basket"}},"type":"Feature"},
	{"geometry":{"coordinates":[21.625272,47.529116],"type":"Point"},"properties":{"osm_id":"2914198209","tag":{"amenity":"waste_basket"}},"type":"Feature"},
	{"geometry":{"coordinates":[21.62524,47.529544],"type":"Point"},"properties":{"osm_id":"2914198212","tag":{"amenity":"waste_basket"}},"type":"Feature"},
	{"geometry":{"coordinates":[21.625178,47.530173],"type":"Point"},"properties":{"osm_id":"2914198220","tag":{"amenity":"waste_basket"}},"type":"Feature"},
	{"geometry":{"coordinates":[21.624378,47.530209],"type":"Point"},"properties":{"osm_id":"2914198222","tag":{"amenity":"waste_basket"}},"type":"Feature"},
	{"geometry":{"coordinates":[21.624491,47.530252],"type":"Point"},"properties":{"osm_id":"2914198224","tag":{"amenity":"waste_basket"}},"type":"Feature"},
	{"geometry":{"coordinates":[21.625069,47.530314],"type":"Point"},"properties":{"osm_id":"2914198227","tag":{"amenity":"waste_basket"}},"type":"Feature"},
	{"geometry":{"coordinates":[21.624925,47.53076],"type":"Point"},"properties":{"osm_id":"2914198247","tag":{"amenity":"waste_basket"}},"type":"Feature"},
	{"geometry":{"coordinates":[21.625244,47.530821],"type":"Point"},"properties":{"osm_id":"2914198248","tag":{"amenity":"waste_basket"}},"type":"Feature"},
	{"geometry":{"coordinates":[21.624299,47.530832],"type":"Point"},"properties":{"osm_id":"2914198250","tag":{"amenity":"waste_basket"}},"type":"Feature"},
	{"geometry":{"coordinates":[21.625052,47.530845],"type":"Point"},"properties":{"osm_id":"2914198251","tag":{"amenity":"waste_basket"}},"type":"Feature"},
	{"geometry":{"coordinates":[21.624665,47.530898],"type":"Point"},"properties":{"osm_id":"2914198254","tag":{"amenity":"waste_basket"}},"type":"Feature"},
	{"geometry":{"coordinates":[21.624769,47.531327],"type":"Point"},"properties":{"osm_id":"2914198277","tag":{"amenity":"waste_basket"}},"type":"Feature"},
	{"geometry":{"coordinates":[21.624926,47.531399],"type":"Point"},"properties":{"osm_id":"2914198282","tag":{"amenity":"waste_basket"}},"type":"Feature"},
	{"geometry":{"coordinates":[21.631236,47.534661],"type":"Point"},"properties":{"osm_id":"3088247572","tag":{"amenity":"recycling"}},"type":"Feature"},
	{"geometry":{"coordinates":[21.662765,47.530053],"type":"Point"},"properties":{"osm_id":"3437027453","tag":{"amenity":"recycling","source:date":"2012-07-23","url":"http://turistautak.hu/poi.php?id=79499"}},"type":"Feature"},
	{"geometry":{"coordinates":[21.672767,47.530717],"type":"Point"},"properties":{"osm_id":"3437027454","tag":{"addr:street":"V\u00c3\u00a1mosp\u00c3\u00a9rcsi \u00c3\u00bat (DRMKK el\u00c5\u0091tt)","amenity":"recycling","source:date":"2011-05-03","url":"http://turistautak.hu/poi.php?id=39722"}},"type":"Feature"},
	{"geometry":{"coordinates":[21.639202,47.531554],"type":"Point"},"properties":{"osm_id":"3437027456","tag":{"amenity":"recycling","recycling_type":"container","source:date":"2011-05-03","url":"http://turistautak.hu/poi.php?id=102736"}},"type":"Feature"},
	{"geometry":{"coordinates":[21.6856,47.531667],"type":"Point"},"properties":{"osm_id":"3437027457","tag":{"addr:street":"V\u00c3\u00a1mosp\u00c3\u00a9rcsi \u00c3\u00bat (Kondorosi buszfordul\u00c3\u00b3)","amenity":"recycling","source:date":"2013-04-21","url":"http://turistautak.hu/poi.php?id=39721"}},"type":"Feature"},
	{"geometry":{"coordinates":[21.621433,47.534933],"type":"Point"},"properties":{"osm_id":"3437027464","tag":{"amenity":"recycling","recycling_type":"container","source:date":"2012-02-15","url":"http://turistautak.hu/poi.php?id=133777"}},"type":"Feature"},
	{"geometry":{"coordinates":[21.621909,47.537432],"type":"Point"},"properties":{"osm_id":"3437027466","tag":{"amenity":"recycling","recycling_type":"container","source:date":"2011-05-03","url":"http://turistautak.hu/poi.php?id=102735"}},"type":"Feature"},
	{"geometry":{"coordinates":[21.62176,47.541185],"type":"Point"},"properties":{"osm_id":"3437027467","tag":{"addr:street":"Egyetem sug\u00c3\u00a1r\u00c3\u00bat - F\u00c3\u00bcredi \u00c3\u00bat keresztez\u00c5\u0091d\u00c3\u00a9s","amenity":"recycling","recycling_type":"container","source:date":"2014-11-06","url":"http://turistautak.hu/poi.php?id=11239"}},"type":"Feature"},
	{"geometry":{"coordinates":[21.658467,47.543233],"type":"Point"},"properties":{"osm_id":"3437027471","tag":{"amenity":"recycling","source:date":"2014-05-23","url":"http://turistautak.hu/poi.php?id=168816"}},"type":"Feature"},
	{"geometry":{"coordinates":[21.631267,47.543783],"type":"Point"},"properties":{"osm_id":"3437027472","tag":{"addr:city":"Debrecen","addr:housenumber":"33","addr:postcode":"4028","addr:street":"Hadh\u00c3\u00a1zi \u00c3\u00bat","amenity":"recycling","recycling:cans":"yes","recycling:glass_bottles":"yes","recycling:paper":"yes","recycling:plastic":"yes","recycling_type":"container","source:date":"2008-06-06","url":"http://turistautak.hu/poi.php?id=49046"}},"type":"Feature"},
	{"geometry":{"coordinates":[21.634033,47.545167],"type":"Point"},"properties":{"osm_id":"3437027473","tag":{"addr:city":"Debrecen","addr:housenumber":"46","addr:postcode":"4028","addr:street":"Hadh\u00c3\u00a1zi \u00c3\u00bat","amenity":"recycling","recycling_type":"container","source:date":"2008-06-06","url":"http://turistautak.hu/poi.php?id=49047"}},"type":"Feature"},
	{"geometry":{"coordinates":[21.636402,47.527867],"type":"Point"},"properties":{"osm_id":"3437028452","tag":{"addr:city":"Debrecen","addr:housenumber":"31","addr:postcode":"4029","addr:street":"Baross utca","amenity":"recycling","recycling_type":"container","source:date":"2011-05-03","url":"http://turistautak.hu/poi.php?id=96195"}},"type":"Feature"},
	{"geometry":{"coordinates":[21.63972,47.529672],"type":"Point"},"properties":{"osm_id":"3437028456","tag":{"addr:street":"Alkotm\u00c3\u00a1ny utca","amenity":"recycling","description":"Debrecen Farakt\u00c3\u00a1r utca k\u00c3\u00b6rny\u00c3\u00a9ke, pontosabban az Alkotm\u00c3\u00a1ny-Cseng\u00c5\u0091-K\u00c3\u00a9sm\u00c3\u00a1rk utcai lak\u00c3\u00b3telepen","recycling_type":"container","source:date":"2011-05-03","url":"http://turistautak.hu/poi.php?id=7289"}},"type":"Feature"},
	{"geometry":{"coordinates":[21.653302,47.529752],"type":"Point"},"properties":{"osm_id":"3437028457","tag":{"amenity":"recycling","source:date":"2011-05-03","url":"http://turistautak.hu/poi.php?id=80034"}},"type":"Feature"},
	{"geometry":{"coordinates":[21.647102,47.561742],"type":"Point"},"properties":{"osm_id":"3437029108","tag":{"amenity":"recycling","source:date":"2013-04-21","url":"http://turistautak.hu/poi.php?id=14513"}},"type":"Feature"},
	{"geometry":{"coordinates":[21.636288,47.518121],"type":"Point"},"properties":{"osm_id":"3493904754","tag":{"amenity":"recycling","recycling:cans":"yes","recycling:glass_bottles":"yes","recycling:paper":"yes","recycling_type":"container"}},"type":"Feature"},
	{"geometry":{"coordinates":[21.641875,47.521788],"type":"Point"},"properties":{"osm_id":"3493904756","tag":{"amenity":"recycling","recycling:cans":"yes","recycling:glass_bottles":"yes","recycling:paper":"yes","recycling_type":"container"}},"type":"Feature"},
	{"geometry":{"coordinates":[21.635325,47.521807],"type":"Point"},"properties":{"osm_id":"3493904757","tag":{"amenity":"recycling","recycling:cans":"yes","recycling:glass_bottles":"yes","recycling:paper":"yes","recycling_type":"container"}},"type":"Feature"},
	{"geometry":{"coordinates":[21.658967,47.519168],"type":"Point"},"properties":{"osm_id":"3493904758","tag":{"amenity":"recycling","recycling:cans":"yes","recycling:glass_bottles":"yes","recycling:paper":"yes","recycling_type":"container"}},"type":"Feature"},
	{"geometry":{"coordinates":[21.67115,47.52187],"type":"Point"},"properties":{"osm_id":"3493935182","tag":{"amenity":"recycling","recycling:cans":"yes","recycling:glass_bottles":"yes","recycling:paper":"yes","recycling_type":"container"}},"type":"Feature"},
	{"geometry":{"coordinates":[21.673236,47.525076],"type":"Point"},"properties":{"osm_id":"3493935183","tag":{"amenity":"recycling","recycling:cans":"yes","recycling:glass_bottles":"yes","recycling:paper":"yes","recycling_type":"container"}},"type":"Feature"},
	{"geometry":{"coordinates":[21.678378,47.521829],"type":"Point"},"properties":{"osm_id":"3493935184","tag":{"amenity":"recycling","recycling:cans":"yes","recycling:glass_bottles":"yes","recycling:paper":"yes","recycling_type":"container"}},"type":"Feature"},
	{"geometry":{"coordinates":[21.680336,47.520245],"type":"Point"},"properties":{"osm_id":"3493935185","tag":{"amenity":"recycling","recycling:cans":"yes","recycling:glass":"yes","recycling:paper":"yes"}},"type":"Feature"},
	{"geometry":{"coordinates":[21.672439,47.55813],"type":"Point"},"properties":{"osm_id":"3502822874","tag":{"amenity":"recycling","recycling:cans":"yes","recycling:glass":"yes","recycling:paper":"yes"}},"type":"Feature"},
	{"geometry":{"coordinates":[21.668245,47.554863],"type":"Point"},"properties":{"osm_id":"3502822875","tag":{"amenity":"recycling","recycling:cans":"yes","recycling:glass_bottles":"yes","recycling:paper":"yes","recycling_type":"container"}},"type":"Feature"},
	{"geometry":{"coordinates":[21.66854,47.54803],"type":"Point"},"properties":{"osm_id":"3502822876","tag":{"amenity":"recycling","recycling:cans":"yes","recycling:glass":"yes","recycling:paper":"yes"}},"type":"Feature"},
	{"geometry":{"coordinates":[21.67127,47.546394],"type":"Point"},"properties":{"osm_id":"3502822877","tag":{"amenity":"recycling","recycling:cans":"yes","recycling:glass":"yes","recycling:paper":"yes"}},"type":"Feature"},
	{"geometry":{"coordinates":[21.669457,47.544361],"type":"Point"},"properties":{"osm_id":"3502822878","tag":{"amenity":"recycling","recycling:cans":"yes","recycling:glass_bottles":"yes","recycling:paper":"yes","recycling_type":"container"}},"type":"Feature"},
	{"geometry":{"coordinates":[21.671515,47.542424],"type":"Point"},"properties":{"osm_id":"3507354565","tag":{"amenity":"recycling","recycling:cans":"yes","recycling:glass_bottles":"yes","recycling:paper":"yes","recycling_type":"container"}},"type":"Feature"},
	{"geometry":{"coordinates":[21.671158,47.532929],"type":"Point"},"properties":{"osm_id":"3507354566","tag":{"amenity":"recycling","recycling:cans":"yes","recycling:glass":"yes","recycling:paper":"yes"}},"type":"Feature"},
	{"geometry":{"coordinates":[21.666373,47.543373],"type":"Point"},"properties":{"osm_id":"3507360168","tag":{"amenity":"recycling","recycling:cans":"yes","recycling:glass":"yes","recycling:paper":"yes"}},"type":"Feature"},
	{"geometry":{"coordinates":[21.654008,47.538839],"type":"Point"},"properties":{"osm_id":"3508345528","tag":{"amenity":"recycling","recycling:cans":"yes","recycling:glass":"yes","recycling:paper":"yes"}},"type":"Feature"},
	{"geometry":{"coordinates":[21.653563,47.53567],"type":"Point"},"properties":{"osm_id":"3508345529","tag":{"amenity":"recycling","recycling:cans":"yes","recycling:glass":"yes","recycling:paper":"yes"}},"type":"Feature"},
	{"geometry":{"coordinates":[21.653051,47.53345],"type":"Point"},"properties":{"osm_id":"3508345530","tag":{"amenity":"recycling","recycling:cans":"yes","recycling:glass":"yes","recycling:paper":"yes"}},"type":"Feature"},
	{"geometry":{"coordinates":[21.647954,47.538736],"type":"Point"},"properties":{"osm_id":"3508345531","tag":{"amenity":"recycling","recycling:cans":"yes","recycling:glass_bottles":"yes","recycling:paper":"yes","recycling_type":"container"}},"type":"Feature"},
	{"geometry":{"coordinates":[21.650025,47.546044],"type":"Point"},"properties":{"osm_id":"3508345532","tag":{"amenity":"recycling","recycling:cans":"yes","recycling:glass_bottles":"yes","recycling:paper":"yes","recycling_type":"container"}},"type":"Feature"},
	{"geometry":{"coordinates":[21.653134,47.54708],"type":"Point"},"properties":{"osm_id":"3508345533","tag":{"amenity":"recycling","recycling:cans":"yes","recycling:glass":"yes","recycling:paper":"yes"}},"type":"Feature"},
	{"geometry":{"coordinates":[21.657624,47.548231],"type":"Point"},"properties":{"osm_id":"3508345534","tag":{"amenity":"recycling","recycling:cans":"yes","recycling:glass_bottles":"yes","recycling:paper":"yes","recycling_type":"container"}},"type":"Feature"},
	{"geometry":{"coordinates":[21.649577,47.551812],"type":"Point"},"properties":{"osm_id":"3508345535","tag":{"amenity":"recycling","recycling:cans":"yes","recycling:glass_bottles":"yes","recycling:paper":"yes","recycling_type":"container"}},"type":"Feature"},
	{"geometry":{"coordinates":[21.64315,47.547103],"type":"Point"},"properties":{"osm_id":"3508345536","tag":{"amenity":"recycling","recycling:cans":"yes","recycling:glass_bottles":"yes","recycling:paper":"yes","recycling_type":"container"}},"type":"Feature"},
	{"geometry":{"coordinates":[21.64502,47.548054],"type":"Point"},"properties":{"osm_id":"3508345537","tag":{"amenity":"recycling","recycling:cans":"yes","recycling:glass_bottles":"yes","recycling:paper":"yes","recycling_type":"container"}},"type":"Feature"},
	{"geometry":{"coordinates":[21.646147,47.549708],"type":"Point"},"properties":{"osm_id":"3508345538","tag":{"amenity":"recycling","recycling:cans":"yes","recycling:glass_bottles":"yes","recycling:paper":"yes","recycling_type":"container"}},"type":"Feature"},
	{"geometry":{"coordinates":[21.645619,47.551108],"type":"Point"},"properties":{"osm_id":"3508367453","tag":{"amenity":"recycling","recycling:cans":"yes","recycling:glass_bottles":"yes","recycling:paper":"yes","recycling_type":"container"}},"type":"Feature"},
	{"geometry":{"coordinates":[21.638045,47.547002],"type":"Point"},"properties":{"osm_id":"3508367454","tag":{"amenity":"recycling","recycling:cans":"yes","recycling:glass_bottles":"yes","recycling:paper":"yes","recycling:plastic":"yes","recycling_type":"container"}},"type":"Feature"},
	{"geometry":{"coordinates":[21.637665,47.542526],"type":"Point"},"properties":{"osm_id":"3508367455","tag":{"amenity":"recycling","recycling:cans":"yes","recycling:glass_bottles":"yes","recycling:paper":"yes","recycling_type":"container"}},"type":"Feature"},
	{"geometry":{"coordinates":[21.641376,47.543739],"type":"Point"},"properties":{"osm_id":"3508367456","tag":{"amenity":"recycling","recycling:cans":"yes","recycling:glass":"yes","recycling:paper":"yes"}},"type":"Feature"},
	{"geometry":{"coordinates":[21.635755,47.543277],"type":"Point"},"properties":{"osm_id":"3508367457","tag":{"amenity":"recycling","recycling:cans":"yes","recycling:glass_bottles":"yes","recycling:paper":"yes","recycling_type":"container"}},"type":"Feature"},
	{"geometry":{"coordinates":[21.63325,47.543671],"type":"Point"},"properties":{"osm_id":"3508367458","tag":{"amenity":"recycling","recycling:cans":"yes","recycling:glass_bottles":"yes","recycling:paper":"yes","recycling_type":"container"}},"type":"Feature"},
	{"geometry":{"coordinates":[21.629062,47.543211],"type":"Point"},"properties":{"osm_id":"3508379521","tag":{"amenity":"recycling","recycling:cans":"yes","recycling:glass_bottles":"yes","recycling:paper":"yes","recycling_type":"container"}},"type":"Feature"},
	{"geometry":{"coordinates":[21.623037,47.542471],"type":"Point"},"properties":{"osm_id":"3508379522","tag":{"amenity":"recycling","recycling:cans":"yes","recycling:glass_bottles":"yes","recycling:paper":"yes","recycling_type":"container"}},"type":"Feature"},
	{"geometry":{"coordinates":[21.622408,47.544518],"type":"Point"},"properties":{"osm_id":"3508379523","tag":{"amenity":"recycling","recycling:cans":"yes","recycling:glass_bottles":"yes","recycling:paper":"yes","recycling_type":"container"}},"type":"Feature"},
	{"geometry":{"coordinates":[21.622514,47.520565],"type":"Point"},"properties":{"osm_id":"3512608033","tag":{"amenity":"recycling","recycling:cans":"yes","recycling:glass_bottles":"yes","recycling:paper":"yes","recycling_type":"container"}},"type":"Feature"},
	{"geometry":{"coordinates":[21.625661,47.522311],"type":"Point"},"properties":{"osm_id":"3512608034","tag":{"amenity":"recycling","recycling:cans":"yes","recycling:glass":"yes","recycling:paper":"yes"}},"type":"Feature"},
	{"geometry":{"coordinates":[21.627988,47.524429],"type":"Point"},"properties":{"osm_id":"3512608035","tag":{"amenity":"recycling","recycling:cans":"yes","recycling:glass_bottles":"yes","recycling:paper":"yes","recycling_type":"container"}},"type":"Feature"},
	{"geometry":{"coordinates":[21.634614,47.524415],"type":"Point"},"properties":{"osm_id":"3512608037","tag":{"amenity":"recycling","recycling:cans":"yes","recycling:glass_bottles":"yes","recycling:paper":"yes","recycling_type":"container"}},"type":"Feature"},
	{"geometry":{"coordinates":[21.632289,47.525635],"type":"Point"},"properties":{"osm_id":"3512608039","tag":{"amenity":"recycling","recycling:cans":"yes","recycling:glass_bottles":"yes","recycling:paper":"yes","recycling_type":"container"}},"type":"Feature"},
	{"geometry":{"coordinates":[21.636157,47.526701],"type":"Point"},"properties":{"osm_id":"3512608040","tag":{"amenity":"recycling","recycling:cans":"yes","recycling:glass_bottles":"yes","recycling:paper":"yes","recycling_type":"container"}},"type":"Feature"},
	{"geometry":{"coordinates":[21.62727,47.538901],"type":"Point"},"properties":{"osm_id":"3512619415","tag":{"amenity":"recycling","recycling:cans":"yes","recycling:glass":"yes","recycling:paper":"yes"}},"type":"Feature"},
	{"geometry":{"coordinates":[21.635874,47.535452],"type":"Point"},"properties":{"osm_id":"3512619416","tag":{"amenity":"recycling","recycling:cans":"yes","recycling:glass_bottles":"yes","recycling:paper":"yes","recycling_type":"container"}},"type":"Feature"},
	{"geometry":{"coordinates":[21.641825,47.527131],"type":"Point"},"properties":{"osm_id":"3512630031","tag":{"amenity":"recycling","recycling:cans":"yes","recycling:glass_bottles":"yes","recycling:paper":"yes","recycling_type":"container"}},"type":"Feature"},
	{"geometry":{"coordinates":[21.654389,47.528461],"type":"Point"},"properties":{"osm_id":"3512630032","tag":{"amenity":"recycling","recycling:cans":"yes","recycling:glass_bottles":"yes","recycling:paper":"yes","recycling_type":"container"}},"type":"Feature"},
	{"geometry":{"coordinates":[21.649835,47.52807],"type":"Point"},"properties":{"osm_id":"3512630033","tag":{"amenity":"recycling","recycling:cans":"yes","recycling:glass_bottles":"yes","recycling:paper":"yes","recycling_type":"container"}},"type":"Feature"},
	{"geometry":{"coordinates":[21.644161,47.53466],"type":"Point"},"properties":{"osm_id":"3512642287","tag":{"amenity":"recycling","recycling:cans":"yes","recycling:glass_bottles":"yes","recycling:paper":"yes","recycling_type":"container"}},"type":"Feature"},
	{"geometry":{"coordinates":[21.643402,47.532666],"type":"Point"},"properties":{"osm_id":"3512642289","tag":{"amenity":"recycling","recycling:cans":"yes","recycling:glass_bottles":"yes","recycling:paper":"yes","recycling_type":"container"}},"type":"Feature"},
	{"geometry":{"coordinates":[21.642552,47.530923],"type":"Point"},"properties":{"osm_id":"3512642290","tag":{"amenity":"recycling","recycling:cans":"yes","recycling:glass_bottles":"yes","recycling:paper":"yes","recycling_type":"container"}},"type":"Feature"},
	{"geometry":{"coordinates":[21.654437,47.541246],"type":"Point"},"properties":{"osm_id":"3512821018","tag":{"amenity":"recycling","recycling:cans":"yes","recycling:glass":"yes","recycling:paper":"yes"}},"type":"Feature"},
	{"geometry":{"coordinates":[21.623751,47.52259],"type":"Point"},"properties":{"osm_id":"3816379672","tag":{"amenity":"recycling","recycling_type":"container","source:date":"2011-05-03","url":"http://turistautak.hu/poi.php?id=95921"}},"type":"Feature"},
	{"geometry":{"coordinates":[21.63994,47.541813],"type":"Point"},"properties":{"osm_id":"3869367886","tag":{"amenity":"waste_basket"}},"type":"Feature"},
	{"geometry":{"coordinates":[21.639677,47.541959],"type":"Point"},"properties":{"osm_id":"3869367887","tag":{"amenity":"waste_basket"}},"type":"Feature"},
	{"geometry":{"coordinates":[21.639553,47.541997],"type":"Point"},"properties":{"osm_id":"3869367888","tag":{"amenity":"waste_basket"}},"type":"Feature"},
	{"geometry":{"coordinates":[21.639778,47.542351],"type":"Point"},"properties":{"osm_id":"3869367903","tag":{"amenity":"waste_basket"}},"type":"Feature"},
	{"geometry":{"coordinates":[21.639979,47.542616],"type":"Point"},"properties":{"osm_id":"3869367904","tag":{"amenity":"waste_basket"}},"type":"Feature"},
	{"geometry":{"coordinates":[21.63995,47.542614],"type":"Point"},"properties":{"osm_id":"3869367905","tag":{"amenity":"waste_basket"}},"type":"Feature"},
	{"geometry":{"coordinates":[21.640278,47.543019],"type":"Point"},"properties":{"osm_id":"3869367914","tag":{"amenity":"waste_basket"}},"type":"Feature"},
	{"geometry":{"coordinates":[21.625624,47.552868],"type":"Point"},"properties":{"osm_id":"4228349691","tag":{"amenity":"waste_basket"}},"type":"Feature"},
	{"geometry":{"coordinates":[21.625778,47.552943],"type":"Point"},"properties":{"osm_id":"4228357091","tag":{"amenity":"waste_basket"}},"type":"Feature"},
	{"geometry":{"coordinates":[21.625334,47.552729],"type":"Point"},"properties":{"osm_id":"4233282793","tag":{"amenity":"waste_basket"}},"type":"Feature"},
	{"geometry":{"coordinates":[21.625481,47.552827],"type":"Point"},"properties":{"osm_id":"4233284790","tag":{"amenity":"waste_basket"}},"type":"Feature"},
	{"geometry":{"coordinates":[21.625226,47.552631],"type":"Point"},"properties":{"osm_id":"4233284791","tag":{"amenity":"waste_basket"}},"type":"Feature"},
	{"geometry":{"coordinates":[21.639747,47.531808],"type":"Point"},"properties":{"osm_id":"5531154382","tag":{"amenity":"waste_basket"}},"type":"Feature"},
	{"geometry":{"coordinates":[21.636913,47.52728],"type":"Point"},"properties":{"osm_id":"5764497566","tag":{"amenity":"waste_basket"}},"type":"Feature"},
	{"geometry":{"coordinates":[21.6363,47.527634],"type":"Point"},"properties":{"osm_id":"5764497572","tag":{"amenity":"waste_basket"}},"type":"Feature"}
]
}
