{
"type": "FeatureCollection",
"lastupdate": "2020-08-01T00:00:00Z",
"features": [
	{"geometry":{"coordinates":[1.492305,49.097665],"type":"Point"},"properties":{"osm_id":"2804179247","tag":{"amenity":"waste_basket"}},"type":"Feature"},
	{"geometry":{"coordinates":[1.490561,49.097948],"type":"Point"},"properties":{"osm_id":"2804179248","tag":{"amenity":"recycling","recycling:clothes":"yes","recycling:glass":"yes"}},"type":"Feature"},
	{"geometry":{"coordinates":[1.49135,49.098213],"type":"Point"},"properties":{"osm_id":"2804179249","tag":{"amenity":"recycling","recycling:glass":"yes"}},"type":"Feature"},
	{"geometry":{"coordinates":[1.491331,49.098222],"type":"Point"},"properties":{"osm_id":"2804179250","tag":{"amenity":"waste_basket"}},"type":"Feature"},
	{"geometry":{"coordinates":[1.492102,49.097729],"type":"Point"},"properties":{"osm_id":"2821391061","tag":{"amenity":"waste_basket"}},"type":"Feature"},
	{"geometry":{"coordinates":[1.491879,49.09793],"type":"Point"},"properties":{"osm_id":"2821391062","tag":{"amenity":"waste_basket"}},"type":"Feature"},
	{"geometry":{"coordinates":[1.491517,49.09803],"type":"Point"},"properties":{"osm_id":"2821391063","tag":{"amenity":"waste_basket"}},"type":"Feature"},
	{"geometry":{"coordinates":[1.491124,49.098323],"type":"Point"},"properties":{"osm_id":"2823598378","tag":{"amenity":"recycling","recycling:batteries":"yes"}},"type":"Feature"},
	{"geometry":{"coordinates":[1.482504,49.09627],"type":"Point"},"properties":{"osm_id":"2832707994","tag":{"amenity":"recycling","recycling:glass":"yes","recycling_type":"container"}},"type":"Feature"},
	{"geometry":{"coordinates":[1.464442,49.103068],"type":"Point"},"properties":{"osm_id":"2834021971","tag":{"amenity":"recycling","recycling:clothes":"yes","recycling:glass":"yes"}},"type":"Feature"},
	{"geometry":{"coordinates":[1.473482,49.099757],"type":"Point"},"properties":{"osm_id":"2834063184","tag":{"amenity":"waste_basket"}},"type":"Feature"},
	{"geometry":{"coordinates":[1.473121,49.099916],"type":"Point"},"properties":{"osm_id":"2834063190","tag":{"amenity":"recycling","recycling:glass":"yes"}},"type":"Feature"},
	{"geometry":{"coordinates":[1.482299,49.096141],"type":"Point"},"properties":{"osm_id":"2834108543","tag":{"amenity":"waste_basket"}},"type":"Feature"},
	{"geometry":{"coordinates":[1.453647,49.100277],"type":"Point"},"properties":{"osm_id":"2834231632","tag":{"amenity":"waste_basket"}},"type":"Feature"},
	{"geometry":{"coordinates":[1.452876,49.103164],"type":"Point"},"properties":{"osm_id":"2834346681","tag":{"amenity":"waste_basket"}},"type":"Feature"},
	{"geometry":{"coordinates":[1.469792,49.098508],"type":"Point"},"properties":{"osm_id":"2851805132","tag":{"amenity":"recycling","recycling:cans":"yes","recycling:paper":"yes","recycling_type":"container"}},"type":"Feature"},
	{"geometry":{"coordinates":[1.458545,49.098577],"type":"Point"},"properties":{"osm_id":"2911697487","tag":{"amenity":"waste_basket"}},"type":"Feature"},
	{"geometry":{"coordinates":[1.458571,49.098808],"type":"Point"},"properties":{"osm_id":"2911697491","tag":{"amenity":"recycling","recycling:glass":"yes"}},"type":"Feature"},
	{"geometry":{"coordinates":[1.459336,49.099298],"type":"Point"},"properties":{"osm_id":"2911697493","tag":{"amenity":"waste_basket"}},"type":"Feature"},
	{"geometry":{"coordinates":[1.416723,49.141548],"type":"Point"},"properties":{"name":"Conteneur \u00c3\u00a0 verre","osm_id":"4154880490","tag":{"amenity":"recycling","recycling:cans":"no","recycling:clothes":"no","recycling:glass":"no","recycling:glass_bottles":"yes","recycling:paper":"no","recycling:plastic":"no"}},"type":"Feature"},
	{"geometry":{"coordinates":[1.487483,49.108788],"type":"Point"},"properties":{"osm_id":"4403285676","tag":{"amenity":"waste_basket"}},"type":"Feature"}
]
}
