{
"type": "FeatureCollection",
"features": [
	{"geometry":{"coordinates":[1.48247,49.092029],"type":"Point"},"properties":{"osm_id":"1610738942","tag":{"amenity":"recycling","recycling:glass":"yes","recycling_type":"container"}},"type":"Feature"},
	{"geometry":{"coordinates":[1.484708,49.090462],"type":"Point"},"properties":{"osm_id":"1617765489","tag":{"amenity":"recycling","recycling:glass":"yes","recycling_type":"container"}},"type":"Feature"},
	{"geometry":{"coordinates":[1.484486,49.091281],"type":"Point"},"properties":{"osm_id":"1617765499","tag":{"amenity":"recycling","recycling:glass":"yes","recycling_type":"container"}},"type":"Feature"},
	{"geometry":{"coordinates":[1.49091,49.089837],"type":"Point"},"properties":{"osm_id":"1938262096","tag":{"amenity":"recycling","recycling:glass":"yes"}},"type":"Feature"},
	{"geometry":{"coordinates":[1.471825,49.072314],"type":"Point"},"properties":{"osm_id":"2709382628","tag":{"amenity":"waste_basket","tourism":"picnic_site"}},"type":"Feature"},
	{"geometry":{"coordinates":[1.463423,49.082773],"type":"Point"},"properties":{"osm_id":"2709382670","tag":{"amenity":"recycling","recycling:glass":"yes","recycling_type":"container"}},"type":"Feature"},
	{"geometry":{"coordinates":[1.464125,49.08756],"type":"Point"},"properties":{"osm_id":"2709382693","tag":{"amenity":"recycling","recycling:glass":"yes","recycling_type":"container"}},"type":"Feature"},
	{"geometry":{"coordinates":[1.467581,49.088886],"type":"Point"},"properties":{"osm_id":"2709382696","tag":{"amenity":"recycling","recycling:glass":"yes","recycling_type":"container"}},"type":"Feature"},
	{"geometry":{"coordinates":[1.485291,49.09269],"type":"Point"},"properties":{"osm_id":"2709382705","tag":{"amenity":"recycling","recycling:glass":"yes","recycling_type":"container"}},"type":"Feature"},
	{"geometry":{"coordinates":[1.494083,49.089985],"type":"Point"},"properties":{"osm_id":"2804320934","tag":{"amenity":"waste_basket"}},"type":"Feature"},
	{"geometry":{"coordinates":[1.493534,49.090263],"type":"Point"},"properties":{"osm_id":"2804320936","tag":{"amenity":"waste_basket"}},"type":"Feature"},
	{"geometry":{"coordinates":[1.493028,49.090502],"type":"Point"},"properties":{"osm_id":"2804320940","tag":{"amenity":"waste_basket"}},"type":"Feature"},
	{"geometry":{"coordinates":[1.491984,49.09113],"type":"Point"},"properties":{"osm_id":"2804320952","tag":{"amenity":"waste_basket"}},"type":"Feature"},
	{"geometry":{"coordinates":[1.491461,49.091428],"type":"Point"},"properties":{"osm_id":"2804320960","tag":{"amenity":"waste_basket"}},"type":"Feature"},
	{"geometry":{"coordinates":[1.491018,49.091457],"type":"Point"},"properties":{"osm_id":"2804404475","tag":{"amenity":"waste_basket"}},"type":"Feature"},
	{"geometry":{"coordinates":[1.491208,49.091596],"type":"Point"},"properties":{"osm_id":"2804404479","tag":{"amenity":"waste_basket"}},"type":"Feature"},
	{"geometry":{"coordinates":[1.490107,49.09207],"type":"Point"},"properties":{"osm_id":"2804404484","tag":{"amenity":"waste_basket"}},"type":"Feature"},
	{"geometry":{"coordinates":[1.490135,49.092582],"type":"Point"},"properties":{"osm_id":"2804404492","tag":{"amenity":"waste_basket"}},"type":"Feature"},
	{"geometry":{"coordinates":[1.489957,49.092725],"type":"Point"},"properties":{"osm_id":"2804404500","tag":{"amenity":"waste_basket"}},"type":"Feature"},
	{"geometry":{"coordinates":[1.491689,49.090656],"type":"Point"},"properties":{"osm_id":"2804430752","tag":{"amenity":"recycling","recycling:cans":"yes","recycling:glass":"yes","recycling:paper":"yes","recycling:scrap_metal":"yes","recycling_type":"container"}},"type":"Feature"},
	{"geometry":{"coordinates":[1.490381,49.091909],"type":"Point"},"properties":{"osm_id":"2804430756","tag":{"amenity":"waste_basket"}},"type":"Feature"},
	{"geometry":{"coordinates":[1.489732,49.092336],"type":"Point"},"properties":{"osm_id":"2804430761","tag":{"amenity":"waste_basket"}},"type":"Feature"},
	{"geometry":{"coordinates":[1.48938,49.092749],"type":"Point"},"properties":{"osm_id":"2804430766","tag":{"amenity":"waste_basket"}},"type":"Feature"},
	{"geometry":{"coordinates":[1.489816,49.090726],"type":"Point"},"properties":{"osm_id":"2804443053","tag":{"amenity":"waste_basket"}},"type":"Feature"},
	{"geometry":{"coordinates":[1.478202,49.091226],"type":"Point"},"properties":{"osm_id":"2810105404","tag":{"amenity":"waste_basket"}},"type":"Feature"},
	{"geometry":{"coordinates":[1.477867,49.09143],"type":"Point"},"properties":{"osm_id":"2810105405","tag":{"amenity":"waste_basket"}},"type":"Feature"},
	{"geometry":{"coordinates":[1.478625,49.091644],"type":"Point"},"properties":{"osm_id":"2810105407","tag":{"amenity":"waste_basket"}},"type":"Feature"},
	{"geometry":{"coordinates":[1.477515,49.091685],"type":"Point"},"properties":{"osm_id":"2810105409","tag":{"amenity":"waste_basket"}},"type":"Feature"},
	{"geometry":{"coordinates":[1.482198,49.091784],"type":"Point"},"properties":{"osm_id":"2810105412","tag":{"amenity":"waste_basket"}},"type":"Feature"},
	{"geometry":{"coordinates":[1.481785,49.091827],"type":"Point"},"properties":{"osm_id":"2810105414","tag":{"amenity":"waste_basket"}},"type":"Feature"},
	{"geometry":{"coordinates":[1.482155,49.091836],"type":"Point"},"properties":{"osm_id":"2810105415","tag":{"amenity":"waste_basket"}},"type":"Feature"},
	{"geometry":{"coordinates":[1.485037,49.091481],"type":"Point"},"properties":{"osm_id":"2823598376","tag":{"amenity":"recycling","recycling:batteries":"yes"}},"type":"Feature"},
	{"geometry":{"coordinates":[1.48787,49.091587],"type":"Point"},"properties":{"osm_id":"2823598377","tag":{"amenity":"recycling","recycling:glass":"yes"}},"type":"Feature"},
	{"geometry":{"coordinates":[1.489081,49.092047],"type":"Point"},"properties":{"osm_id":"2834135113","tag":{"amenity":"waste_basket"}},"type":"Feature"},
	{"geometry":{"coordinates":[1.49188,49.084311],"type":"Point"},"properties":{"osm_id":"2910790846","tag":{"amenity":"recycling","recycling:glass":"yes"}},"type":"Feature"},
	{"geometry":{"coordinates":[1.489739,49.081554],"type":"Point"},"properties":{"osm_id":"2910826594","tag":{"amenity":"waste_basket"}},"type":"Feature"},
	{"geometry":{"coordinates":[1.490328,49.082282],"type":"Point"},"properties":{"osm_id":"2910826598","tag":{"amenity":"waste_basket"}},"type":"Feature"},
	{"geometry":{"coordinates":[1.488512,49.081645],"type":"Point"},"properties":{"osm_id":"2910835583","tag":{"amenity":"waste_basket"}},"type":"Feature"},
	{"geometry":{"coordinates":[1.488196,49.081769],"type":"Point"},"properties":{"osm_id":"2910835587","tag":{"amenity":"waste_basket"}},"type":"Feature"},
	{"geometry":{"coordinates":[1.487687,49.083643],"type":"Point"},"properties":{"osm_id":"2910841736","tag":{"amenity":"recycling","recycling:glass":"yes"}},"type":"Feature"},
	{"geometry":{"coordinates":[1.488659,49.076406],"type":"Point"},"properties":{"osm_id":"2911083128","tag":{"amenity":"waste_basket"}},"type":"Feature"},
	{"geometry":{"coordinates":[1.488842,49.076728],"type":"Point"},"properties":{"osm_id":"2911083136","tag":{"amenity":"waste_basket"}},"type":"Feature"},
	{"geometry":{"coordinates":[1.488945,49.077156],"type":"Point"},"properties":{"osm_id":"2911083153","tag":{"amenity":"waste_basket"}},"type":"Feature"},
	{"geometry":{"coordinates":[1.48859,49.07754],"type":"Point"},"properties":{"osm_id":"2911083166","tag":{"amenity":"waste_basket"}},"type":"Feature"},
	{"geometry":{"coordinates":[1.489439,49.077961],"type":"Point"},"properties":{"osm_id":"2911083186","tag":{"amenity":"waste_basket"}},"type":"Feature"},
	{"geometry":{"coordinates":[1.48823,49.078051],"type":"Point"},"properties":{"osm_id":"2911083194","tag":{"amenity":"waste_basket"}},"type":"Feature"},
	{"geometry":{"coordinates":[1.488525,49.078277],"type":"Point"},"properties":{"osm_id":"2911083809","tag":{"amenity":"waste_basket"}},"type":"Feature"},
	{"geometry":{"coordinates":[1.479535,49.083253],"type":"Point"},"properties":{"osm_id":"2911141103","tag":{"amenity":"recycling","recycling:clothes":"yes","recycling:glass":"yes"}},"type":"Feature"},
	{"geometry":{"coordinates":[1.476433,49.059056],"type":"Point"},"properties":{"osm_id":"3202057299","tag":{"amenity":"recycling","recycling:cans":"no","recycling:glass":"yes"}},"type":"Feature"},
	{"geometry":{"coordinates":[1.450863,49.090302],"type":"Point"},"properties":{"osm_id":"4452772843","tag":{"amenity":"recycling","recycling:glass":"yes","recycling_type":"container"}},"type":"Feature"},
	{"geometry":{"coordinates":[1.457531,49.093658],"type":"Point"},"properties":{"osm_id":"4452772844","tag":{"amenity":"recycling","recycling:glass":"yes","recycling_type":"container"}},"type":"Feature"},
	{"geometry":{"coordinates":[1.487297,49.092763],"type":"Point"},"properties":{"osm_id":"5212533799","tag":{"amenity":"recycling","recycling:glass":"yes","recycling_type":"container"}},"type":"Feature"},
	{"geometry":{"coordinates":[1.466325,49.078085],"type":"Point"},"properties":{"osm_id":"5267935578","tag":{"amenity":"waste_basket"}},"type":"Feature"},
	{"geometry":{"coordinates":[1.483135,49.091417],"type":"Point"},"properties":{"osm_id":"6480013417","tag":{"amenity":"waste_basket"}},"type":"Feature"}
]
}
