{
"type": "FeatureCollection",
"features": [
	{"geometry":{"coordinates":[1.493416,48.458523],"type":"Point"},"properties":{"osm_id":"605912390","tag":{"amenity":"recycling","recycling:glass":"no"}},"type":"Feature"},
	{"geometry":{"coordinates":[1.479584,48.470425],"type":"Point"},"properties":{"osm_id":"2569041769","ref":"LEVE_EM_024_A","tag":{"amenity":"recycling","recycling:glass_bottles":"yes","recycling_type":"container","source:ref":"survey","wheelchair":"yes"}},"type":"Feature"},
	{"geometry":{"coordinates":[1.479588,48.470446],"type":"Point"},"properties":{"osm_id":"2776296245","ref":"LEVE_VR_024_A","tag":{"amenity":"recycling","recycling:glass":"yes","recycling_type":"container","source:ref":"survey","wheelchair":"yes"}},"type":"Feature"},
	{"geometry":{"coordinates":[1.486129,48.461227],"type":"Point"},"properties":{"osm_id":"2833697799","tag":{"amenity":"waste_basket"}},"type":"Feature"},
	{"geometry":{"coordinates":[1.484028,48.46307],"type":"Point"},"properties":{"osm_id":"2833697914","tag":{"amenity":"waste_basket"}},"type":"Feature"},
	{"geometry":{"coordinates":[1.480489,48.46949],"type":"Point"},"properties":{"osm_id":"2833697938","tag":{"amenity":"waste_basket","operator":"Mairie de L\u00c3\u00a8ves"}},"type":"Feature"},
	{"geometry":{"coordinates":[1.492394,48.460193],"type":"Point"},"properties":{"osm_id":"5720733895","tag":{"amenity":"recycling","recycling:glass_bottles":"yes","recycling_type":"container"}},"type":"Feature"},
	{"geometry":{"coordinates":[1.485505,48.461858],"type":"Point"},"properties":{"osm_id":"7296626885","tag":{"amenity":"waste_basket"}},"type":"Feature"}
]
}
