{
"type": "FeatureCollection",
"features": [
	{"geometry":{"coordinates":[1.470256,48.451605],"type":"Point"},"properties":{"osm_id":"588514349","tag":{"amenity":"recycling","location":"overground","recycling:cans":"yes","recycling:glass":"no","recycling:glass_bottles":"yes","recycling_type":"container"}},"type":"Feature"},
	{"geometry":{"coordinates":[1.457623,48.440795],"type":"Point"},"properties":{"osm_id":"1389370642","tag":{"amenity":"recycling"}},"type":"Feature"},
	{"geometry":{"coordinates":[1.436197,48.445659],"type":"Point"},"properties":{"osm_id":"1527232619","tag":{"amenity":"waste_basket"}},"type":"Feature"},
	{"geometry":{"coordinates":[1.483867,48.446071],"type":"Point"},"properties":{"osm_id":"2208021809","tag":{"amenity":"waste_basket"}},"type":"Feature"},
	{"geometry":{"coordinates":[1.492764,48.445505],"type":"Point"},"properties":{"osm_id":"2223468458","tag":{"amenity":"waste_basket"}},"type":"Feature"},
	{"geometry":{"coordinates":[1.490968,48.4521],"type":"Point"},"properties":{"osm_id":"2223468519","tag":{"amenity":"waste_basket"}},"type":"Feature"},
	{"geometry":{"coordinates":[1.487635,48.448412],"type":"Point"},"properties":{"osm_id":"2231255747","tag":{"amenity":"waste_basket"}},"type":"Feature"},
	{"geometry":{"coordinates":[1.48907,48.449393],"type":"Point"},"properties":{"osm_id":"2239986676","tag":{"amenity":"waste_basket"}},"type":"Feature"},
	{"geometry":{"coordinates":[1.490033,48.449791],"type":"Point"},"properties":{"osm_id":"2240063786","tag":{"amenity":"waste_basket"}},"type":"Feature"},
	{"geometry":{"coordinates":[1.482963,48.452558],"type":"Point"},"properties":{"osm_id":"2325533830","tag":{"amenity":"recycling","recycling:glass_bottles":"yes","recycling:paper":"yes","recycling_type":"container"}},"type":"Feature"},
	{"geometry":{"coordinates":[1.452013,48.431554],"type":"Point"},"properties":{"osm_id":"2899974852","tag":{"amenity":"waste_basket"}},"type":"Feature"},
	{"geometry":{"coordinates":[1.451905,48.432062],"type":"Point"},"properties":{"osm_id":"2899974871","ref":"LUCE_VR_036_A","tag":{"amenity":"recycling","recycling:glass":"yes","recycling_type":"container"}},"type":"Feature"},
	{"geometry":{"coordinates":[1.451869,48.432072],"type":"Point"},"properties":{"osm_id":"2899974872","ref":"LUCE_VR_052_A","tag":{"amenity":"recycling","recycling:cans":"yes","recycling:paper":"yes","recycling_type":"container"}},"type":"Feature"},
	{"geometry":{"coordinates":[1.455399,48.432843],"type":"Point"},"properties":{"osm_id":"2899974878","tag":{"amenity":"waste_basket"}},"type":"Feature"},
	{"geometry":{"coordinates":[1.455439,48.433406],"type":"Point"},"properties":{"osm_id":"2899974880","tag":{"amenity":"waste_basket"}},"type":"Feature"},
	{"geometry":{"coordinates":[1.45418,48.435875],"type":"Point"},"properties":{"osm_id":"2899974883","tag":{"amenity":"recycling","recycling:cans":"yes","recycling:paper":"yes","recycling_type":"container","wheelchair":"yes"}},"type":"Feature"},
	{"geometry":{"coordinates":[1.454139,48.435884],"type":"Point"},"properties":{"osm_id":"2899974884","tag":{"amenity":"waste_basket","wheelchair":"yes"}},"type":"Feature"},
	{"geometry":{"coordinates":[1.454186,48.435901],"type":"Point"},"properties":{"osm_id":"2899974885","tag":{"amenity":"recycling","recycling:glass":"yes","recycling_type":"container","wheelchair":"yes"}},"type":"Feature"},
	{"geometry":{"coordinates":[1.454147,48.435906],"type":"Point"},"properties":{"osm_id":"2899974886","tag":{"amenity":"waste_basket","wheelchair":"yes"}},"type":"Feature"},
	{"geometry":{"coordinates":[1.452955,48.436276],"type":"Point"},"properties":{"osm_id":"2899974891","tag":{"amenity":"waste_basket","colour":"blue"}},"type":"Feature"},
	{"geometry":{"coordinates":[1.493066,48.432581],"type":"Point"},"properties":{"osm_id":"3459328282","tag":{"amenity":"recycling","recycling:glass":"yes","recycling_type":"container"}},"type":"Feature"},
	{"geometry":{"coordinates":[1.491921,48.43395],"type":"Point"},"properties":{"osm_id":"3459328285","tag":{"amenity":"recycling","recycling:clothes":"no","recycling:glass":"yes"}},"type":"Feature"},
	{"geometry":{"coordinates":[1.483269,48.44409],"type":"Point"},"properties":{"osm_id":"4068550309","tag":{"amenity":"waste_basket"}},"type":"Feature"},
	{"geometry":{"coordinates":[1.483268,48.443994],"type":"Point"},"properties":{"osm_id":"4068550310","tag":{"amenity":"waste_basket"}},"type":"Feature"},
	{"geometry":{"coordinates":[1.483341,48.44379],"type":"Point"},"properties":{"osm_id":"4068550311","tag":{"amenity":"waste_basket"}},"type":"Feature"},
	{"geometry":{"coordinates":[1.483396,48.44376],"type":"Point"},"properties":{"osm_id":"4068550312","tag":{"amenity":"waste_basket"}},"type":"Feature"},
	{"geometry":{"coordinates":[1.483906,48.443618],"type":"Point"},"properties":{"osm_id":"4068550313","tag":{"amenity":"waste_basket"}},"type":"Feature"},
	{"geometry":{"coordinates":[1.484459,48.443658],"type":"Point"},"properties":{"osm_id":"4068550314","tag":{"amenity":"waste_basket"}},"type":"Feature"},
	{"geometry":{"coordinates":[1.484922,48.443243],"type":"Point"},"properties":{"osm_id":"4068550315","tag":{"amenity":"waste_basket"}},"type":"Feature"},
	{"geometry":{"coordinates":[1.485655,48.442697],"type":"Point"},"properties":{"osm_id":"4068550317","tag":{"amenity":"waste_basket"}},"type":"Feature"},
	{"geometry":{"coordinates":[1.485438,48.442784],"type":"Point"},"properties":{"osm_id":"4068550318","tag":{"amenity":"waste_basket"}},"type":"Feature"},
	{"geometry":{"coordinates":[1.485138,48.443351],"type":"Point"},"properties":{"osm_id":"4068550319","tag":{"amenity":"waste_basket"}},"type":"Feature"},
	{"geometry":{"coordinates":[1.486173,48.442763],"type":"Point"},"properties":{"osm_id":"4068550320","tag":{"amenity":"waste_basket"}},"type":"Feature"},
	{"geometry":{"coordinates":[1.487515,48.442337],"type":"Point"},"properties":{"osm_id":"4068550321","tag":{"amenity":"waste_basket"}},"type":"Feature"},
	{"geometry":{"coordinates":[1.48796,48.442248],"type":"Point"},"properties":{"osm_id":"4068550322","tag":{"amenity":"waste_basket"}},"type":"Feature"},
	{"geometry":{"coordinates":[1.489114,48.44211],"type":"Point"},"properties":{"osm_id":"4068550323","tag":{"amenity":"waste_basket"}},"type":"Feature"},
	{"geometry":{"coordinates":[1.488948,48.442403],"type":"Point"},"properties":{"osm_id":"4068550324","tag":{"amenity":"waste_basket"}},"type":"Feature"},
	{"geometry":{"coordinates":[1.489416,48.442335],"type":"Point"},"properties":{"osm_id":"4068550325","tag":{"amenity":"waste_basket"}},"type":"Feature"},
	{"geometry":{"coordinates":[1.490017,48.442736],"type":"Point"},"properties":{"osm_id":"4068550326","tag":{"amenity":"waste_basket"}},"type":"Feature"},
	{"geometry":{"coordinates":[1.489953,48.442964],"type":"Point"},"properties":{"osm_id":"4068550327","tag":{"amenity":"waste_basket"}},"type":"Feature"},
	{"geometry":{"coordinates":[1.490071,48.443038],"type":"Point"},"properties":{"osm_id":"4068550328","tag":{"amenity":"waste_basket"}},"type":"Feature"},
	{"geometry":{"coordinates":[1.489942,48.44435],"type":"Point"},"properties":{"osm_id":"4068550329","tag":{"amenity":"waste_basket"}},"type":"Feature"},
	{"geometry":{"coordinates":[1.490297,48.444376],"type":"Point"},"properties":{"osm_id":"4068550330","tag":{"amenity":"waste_basket"}},"type":"Feature"},
	{"geometry":{"coordinates":[1.489125,48.446007],"type":"Point"},"properties":{"osm_id":"4068550331","tag":{"amenity":"waste_basket"}},"type":"Feature"},
	{"geometry":{"coordinates":[1.48883,48.44648],"type":"Point"},"properties":{"osm_id":"4068550332","tag":{"amenity":"waste_basket"}},"type":"Feature"},
	{"geometry":{"coordinates":[1.488733,48.446655],"type":"Point"},"properties":{"osm_id":"4068550333","tag":{"amenity":"waste_basket"}},"type":"Feature"},
	{"geometry":{"coordinates":[1.487083,48.446086],"type":"Point"},"properties":{"osm_id":"4068550334","tag":{"amenity":"waste_basket"}},"type":"Feature"},
	{"geometry":{"coordinates":[1.486492,48.445717],"type":"Point"},"properties":{"osm_id":"4068550335","tag":{"amenity":"waste_basket"}},"type":"Feature"},
	{"geometry":{"coordinates":[1.485559,48.445247],"type":"Point"},"properties":{"osm_id":"4068550336","tag":{"amenity":"waste_basket"}},"type":"Feature"},
	{"geometry":{"coordinates":[1.485441,48.445624],"type":"Point"},"properties":{"osm_id":"4068550337","tag":{"amenity":"waste_basket"}},"type":"Feature"},
	{"geometry":{"coordinates":[1.485055,48.445411],"type":"Point"},"properties":{"osm_id":"4068550338","tag":{"amenity":"waste_basket"}},"type":"Feature"},
	{"geometry":{"coordinates":[1.485268,48.445962],"type":"Point"},"properties":{"osm_id":"4068550339","tag":{"amenity":"waste_basket"}},"type":"Feature"},
	{"geometry":{"coordinates":[1.484756,48.446214],"type":"Point"},"properties":{"osm_id":"4068550340","tag":{"amenity":"waste_basket"}},"type":"Feature"},
	{"geometry":{"coordinates":[1.484086,48.445678],"type":"Point"},"properties":{"osm_id":"4068550341","tag":{"amenity":"waste_basket"}},"type":"Feature"},
	{"geometry":{"coordinates":[1.483885,48.445418],"type":"Point"},"properties":{"osm_id":"4068550342","tag":{"amenity":"waste_basket"}},"type":"Feature"},
	{"geometry":{"coordinates":[1.483794,48.445182],"type":"Point"},"properties":{"osm_id":"4068550343","tag":{"amenity":"waste_basket"}},"type":"Feature"},
	{"geometry":{"coordinates":[1.48351,48.445845],"type":"Point"},"properties":{"osm_id":"4068550344","tag":{"amenity":"waste_basket"}},"type":"Feature"},
	{"geometry":{"coordinates":[1.484963,48.447059],"type":"Point"},"properties":{"osm_id":"4068550345","tag":{"amenity":"waste_basket"}},"type":"Feature"},
	{"geometry":{"coordinates":[1.4838,48.444877],"type":"Point"},"properties":{"osm_id":"4068550346","tag":{"amenity":"waste_basket"}},"type":"Feature"},
	{"geometry":{"coordinates":[1.483995,48.444636],"type":"Point"},"properties":{"osm_id":"4068550348","tag":{"amenity":"waste_basket"}},"type":"Feature"},
	{"geometry":{"coordinates":[1.484236,48.444491],"type":"Point"},"properties":{"osm_id":"4068550349","tag":{"amenity":"waste_basket"}},"type":"Feature"},
	{"geometry":{"coordinates":[1.484308,48.444406],"type":"Point"},"properties":{"osm_id":"4068550350","tag":{"amenity":"waste_basket"}},"type":"Feature"},
	{"geometry":{"coordinates":[1.484394,48.444269],"type":"Point"},"properties":{"osm_id":"4068550352","tag":{"amenity":"waste_basket"}},"type":"Feature"},
	{"geometry":{"coordinates":[1.484808,48.444592],"type":"Point"},"properties":{"osm_id":"4068550353","tag":{"amenity":"waste_basket"}},"type":"Feature"},
	{"geometry":{"coordinates":[1.484908,48.444579],"type":"Point"},"properties":{"osm_id":"4068550354","tag":{"amenity":"waste_basket"}},"type":"Feature"},
	{"geometry":{"coordinates":[1.485251,48.444916],"type":"Point"},"properties":{"osm_id":"4068550355","tag":{"amenity":"waste_basket"}},"type":"Feature"},
	{"geometry":{"coordinates":[1.486875,48.444692],"type":"Point"},"properties":{"osm_id":"4068550356","tag":{"amenity":"waste_basket"}},"type":"Feature"},
	{"geometry":{"coordinates":[1.485884,48.443737],"type":"Point"},"properties":{"osm_id":"4068571065","tag":{"amenity":"waste_basket"}},"type":"Feature"},
	{"geometry":{"coordinates":[1.486946,48.443869],"type":"Point"},"properties":{"osm_id":"4068571066","tag":{"amenity":"waste_basket"}},"type":"Feature"},
	{"geometry":{"coordinates":[1.487528,48.443952],"type":"Point"},"properties":{"osm_id":"4068571067","tag":{"amenity":"waste_basket"}},"type":"Feature"},
	{"geometry":{"coordinates":[1.487638,48.44368],"type":"Point"},"properties":{"osm_id":"4068571068","tag":{"amenity":"waste_basket"}},"type":"Feature"},
	{"geometry":{"coordinates":[1.487525,48.443456],"type":"Point"},"properties":{"osm_id":"4068571069","tag":{"amenity":"waste_basket"}},"type":"Feature"},
	{"geometry":{"coordinates":[1.488648,48.444341],"type":"Point"},"properties":{"osm_id":"4068571070","tag":{"amenity":"waste_basket"}},"type":"Feature"},
	{"geometry":{"coordinates":[1.488453,48.444566],"type":"Point"},"properties":{"osm_id":"4068571071","tag":{"amenity":"waste_basket"}},"type":"Feature"},
	{"geometry":{"coordinates":[1.488384,48.444588],"type":"Point"},"properties":{"osm_id":"4068571072","tag":{"amenity":"waste_disposal"}},"type":"Feature"},
	{"geometry":{"coordinates":[1.485728,48.443801],"type":"Point"},"properties":{"osm_id":"4068571073","tag":{"amenity":"waste_disposal"}},"type":"Feature"},
	{"geometry":{"coordinates":[1.487531,48.442467],"type":"Point"},"properties":{"osm_id":"4068571074","tag":{"amenity":"waste_disposal"}},"type":"Feature"},
	{"geometry":{"coordinates":[1.487987,48.442399],"type":"Point"},"properties":{"osm_id":"4068571075","tag":{"amenity":"waste_disposal"}},"type":"Feature"},
	{"geometry":{"coordinates":[1.489831,48.443072],"type":"Point"},"properties":{"osm_id":"4068571076","tag":{"amenity":"waste_disposal"}},"type":"Feature"},
	{"geometry":{"coordinates":[1.484607,48.443687],"type":"Point"},"properties":{"osm_id":"4068571077","tag":{"amenity":"waste_disposal"}},"type":"Feature"},
	{"geometry":{"coordinates":[1.484618,48.444356],"type":"Point"},"properties":{"osm_id":"4068571078","tag":{"amenity":"waste_disposal"}},"type":"Feature"},
	{"geometry":{"coordinates":[1.484988,48.444762],"type":"Point"},"properties":{"osm_id":"4068571079","tag":{"amenity":"waste_disposal"}},"type":"Feature"},
	{"geometry":{"coordinates":[1.484301,48.445605],"type":"Point"},"properties":{"osm_id":"4068571080","tag":{"amenity":"waste_disposal"}},"type":"Feature"},
	{"geometry":{"coordinates":[1.485052,48.446529],"type":"Point"},"properties":{"osm_id":"4068571081","tag":{"amenity":"waste_disposal"}},"type":"Feature"},
	{"geometry":{"coordinates":[1.485524,48.445584],"type":"Point"},"properties":{"osm_id":"4068571082","tag":{"amenity":"waste_disposal"}},"type":"Feature"},
	{"geometry":{"coordinates":[1.487686,48.446555],"type":"Point"},"properties":{"osm_id":"4068571083","tag":{"amenity":"waste_disposal"}},"type":"Feature"},
	{"geometry":{"coordinates":[1.489537,48.446498],"type":"Point"},"properties":{"osm_id":"4068571084","tag":{"amenity":"waste_disposal"}},"type":"Feature"},
	{"geometry":{"coordinates":[1.489542,48.446445],"type":"Point"},"properties":{"osm_id":"4068571085","tag":{"amenity":"waste_disposal"}},"type":"Feature"},
	{"geometry":{"coordinates":[1.489349,48.445801],"type":"Point"},"properties":{"osm_id":"4068571086","tag":{"amenity":"waste_disposal"}},"type":"Feature"},
	{"geometry":{"coordinates":[1.490282,48.445719],"type":"Point"},"properties":{"osm_id":"4068571087","tag":{"amenity":"waste_disposal"}},"type":"Feature"},
	{"geometry":{"coordinates":[1.487216,48.447082],"type":"Point"},"properties":{"osm_id":"4068604798","tag":{"amenity":"waste_basket"}},"type":"Feature"},
	{"geometry":{"coordinates":[1.487048,48.447256],"type":"Point"},"properties":{"osm_id":"4068604799","tag":{"amenity":"waste_basket"}},"type":"Feature"},
	{"geometry":{"coordinates":[1.485879,48.446954],"type":"Point"},"properties":{"osm_id":"4068604800","tag":{"amenity":"waste_basket"}},"type":"Feature"},
	{"geometry":{"coordinates":[1.485927,48.447196],"type":"Point"},"properties":{"osm_id":"4068604801","tag":{"amenity":"waste_basket"}},"type":"Feature"},
	{"geometry":{"coordinates":[1.4859,48.447164],"type":"Point"},"properties":{"osm_id":"4068604802","tag":{"amenity":"waste_disposal"}},"type":"Feature"},
	{"geometry":{"coordinates":[1.486152,48.447948],"type":"Point"},"properties":{"osm_id":"4068604803","tag":{"amenity":"waste_disposal"}},"type":"Feature"},
	{"geometry":{"coordinates":[1.486705,48.447975],"type":"Point"},"properties":{"osm_id":"4068604804","tag":{"amenity":"waste_disposal"}},"type":"Feature"},
	{"geometry":{"coordinates":[1.486511,48.448107],"type":"Point"},"properties":{"osm_id":"4068604805","tag":{"amenity":"waste_basket"}},"type":"Feature"},
	{"geometry":{"coordinates":[1.486372,48.448448],"type":"Point"},"properties":{"osm_id":"4068604806","tag":{"amenity":"waste_basket"}},"type":"Feature"},
	{"geometry":{"coordinates":[1.487145,48.448658],"type":"Point"},"properties":{"osm_id":"4068604807","tag":{"amenity":"waste_disposal"}},"type":"Feature"},
	{"geometry":{"coordinates":[1.487475,48.44854],"type":"Point"},"properties":{"osm_id":"4068604808","tag":{"amenity":"waste_basket"}},"type":"Feature"},
	{"geometry":{"coordinates":[1.487826,48.448954],"type":"Point"},"properties":{"osm_id":"4068604809","tag":{"amenity":"waste_disposal"}},"type":"Feature"},
	{"geometry":{"coordinates":[1.488786,48.448377],"type":"Point"},"properties":{"osm_id":"4068604810","tag":{"amenity":"waste_basket"}},"type":"Feature"},
	{"geometry":{"coordinates":[1.488977,48.448332],"type":"Point"},"properties":{"osm_id":"4068604811","tag":{"amenity":"waste_basket"}},"type":"Feature"},
	{"geometry":{"coordinates":[1.489025,48.448343],"type":"Point"},"properties":{"osm_id":"4068604812","tag":{"amenity":"waste_basket"}},"type":"Feature"},
	{"geometry":{"coordinates":[1.488877,48.448385],"type":"Point"},"properties":{"osm_id":"4068604813","tag":{"amenity":"waste_basket"}},"type":"Feature"},
	{"geometry":{"coordinates":[1.488658,48.448768],"type":"Point"},"properties":{"osm_id":"4068604814","tag":{"amenity":"waste_basket"}},"type":"Feature"},
	{"geometry":{"coordinates":[1.488754,48.449338],"type":"Point"},"properties":{"osm_id":"4068604815","tag":{"amenity":"waste_basket"}},"type":"Feature"},
	{"geometry":{"coordinates":[1.489068,48.449292],"type":"Point"},"properties":{"osm_id":"4068604816","tag":{"amenity":"waste_basket"}},"type":"Feature"},
	{"geometry":{"coordinates":[1.489111,48.449311],"type":"Point"},"properties":{"osm_id":"4068604817","tag":{"amenity":"waste_basket"}},"type":"Feature"},
	{"geometry":{"coordinates":[1.488739,48.449199],"type":"Point"},"properties":{"osm_id":"4068604818","tag":{"amenity":"waste_basket"}},"type":"Feature"},
	{"geometry":{"coordinates":[1.49003,48.449752],"type":"Point"},"properties":{"osm_id":"4068604819","tag":{"amenity":"waste_basket"}},"type":"Feature"},
	{"geometry":{"coordinates":[1.490116,48.449473],"type":"Point"},"properties":{"osm_id":"4068604820","tag":{"amenity":"waste_basket"}},"type":"Feature"},
	{"geometry":{"coordinates":[1.489918,48.449321],"type":"Point"},"properties":{"osm_id":"4068604821","tag":{"amenity":"waste_disposal"}},"type":"Feature"},
	{"geometry":{"coordinates":[1.489623,48.44953],"type":"Point"},"properties":{"osm_id":"4068604822","tag":{"amenity":"waste_basket"}},"type":"Feature"},
	{"geometry":{"coordinates":[1.489591,48.450843],"type":"Point"},"properties":{"osm_id":"4068604823","tag":{"amenity":"waste_disposal"}},"type":"Feature"},
	{"geometry":{"coordinates":[1.468634,48.448208],"type":"Point"},"properties":{"osm_id":"4218077389","tag":{"amenity":"recycling","recycling:glass":"yes","recycling:glass_bottles":"yes","recycling_type":"container"}},"type":"Feature"},
	{"geometry":{"coordinates":[1.491648,48.450258],"type":"Point"},"properties":{"osm_id":"5168802069","tag":{"amenity":"waste_basket"}},"type":"Feature"},
	{"geometry":{"coordinates":[1.491844,48.449858],"type":"Point"},"properties":{"osm_id":"5168802071","tag":{"amenity":"waste_basket"}},"type":"Feature"},
	{"geometry":{"coordinates":[1.492732,48.448284],"type":"Point"},"properties":{"osm_id":"5168802075","tag":{"amenity":"waste_basket"}},"type":"Feature"},
	{"geometry":{"coordinates":[1.487691,48.443915],"type":"Point"},"properties":{"osm_id":"5175107321","tag":{"amenity":"waste_disposal"}},"type":"Feature"},
	{"geometry":{"coordinates":[1.487685,48.443892],"type":"Point"},"properties":{"osm_id":"5175107322","tag":{"amenity":"recycling","location":"underground","recycling_type":"container"}},"type":"Feature"},
	{"geometry":{"coordinates":[1.4733,48.429834],"type":"Point"},"properties":{"osm_id":"5749855215","tag":{"amenity":"recycling","recycling:glass":"yes","recycling_type":"container","wheelchair":"yes"}},"type":"Feature"},
	{"geometry":{"coordinates":[1.473367,48.429827],"type":"Point"},"properties":{"osm_id":"5749855216","tag":{"amenity":"recycling","recycling:cans":"yes","recycling:cardboard":"yes","recycling:paper":"yes","recycling:plastic":"yes","recycling_type":"container","wheelchair":"yes"}},"type":"Feature"},
	{"geometry":{"coordinates":[1.473334,48.429831],"type":"Point"},"properties":{"osm_id":"5749855217","tag":{"amenity":"waste_disposal","waste":"trash","wheelchair":"yes"}},"type":"Feature"},
	{"geometry":{"coordinates":[1.462861,48.440836],"type":"Point"},"properties":{"osm_id":"5934463327","tag":{"amenity":"waste_basket"}},"type":"Feature"},
	{"geometry":{"coordinates":[1.463031,48.441342],"type":"Point"},"properties":{"osm_id":"5934463328","tag":{"amenity":"recycling","recycling_type":"container"}},"type":"Feature"},
	{"geometry":{"coordinates":[1.46728,48.44632],"type":"Point"},"properties":{"osm_id":"5934671144","tag":{"amenity":"waste_basket","waste":"dog_excrement"}},"type":"Feature"},
	{"geometry":{"coordinates":[1.469183,48.454105],"type":"Point"},"properties":{"osm_id":"7260531585","tag":{"amenity":"recycling","recycling:clothes":"yes","recycling:glass_bottles":"yes","recycling:paper":"yes","recycling:plastic":"yes","recycling_type":"container","survey:date":"2020-03-03"}},"type":"Feature"},
	{"geometry":{"coordinates":[1.470121,48.453418],"type":"Point"},"properties":{"osm_id":"7260534086","tag":{"amenity":"waste_basket","survey:date":"2020-03-03","waste":"trash"}},"type":"Feature"},
	{"geometry":{"coordinates":[1.483394,48.447001],"type":"Point"},"properties":{"osm_id":"7260723086","tag":{"amenity":"waste_basket","survey:date":"2020-03-03","waste":"trash"}},"type":"Feature"},
	{"geometry":{"coordinates":[1.484556,48.446919],"type":"Point"},"properties":{"osm_id":"7260724185","tag":{"amenity":"waste_basket","survey:date":"2020-03-03","waste":"trash"}},"type":"Feature"},
	{"geometry":{"coordinates":[1.484158,48.447262],"type":"Point"},"properties":{"osm_id":"7260730085","tag":{"amenity":"waste_basket","survey:date":"2020-03-03","waste":"trash"}},"type":"Feature"},
	{"geometry":{"coordinates":[1.48353,48.446889],"type":"Point"},"properties":{"osm_id":"7260735185","tag":{"amenity":"waste_basket","survey:date":"2020-03-03","waste":"trash"}},"type":"Feature"},
	{"geometry":{"coordinates":[1.488179,48.444616],"type":"Point"},"properties":{"osm_id":"7260803485","tag":{"amenity":"waste_basket","survey:date":"2020-03-03","waste":"trash"}},"type":"Feature"},
	{"geometry":{"coordinates":[1.487318,48.446738],"type":"Point"},"properties":{"osm_id":"7260841488","tag":{"amenity":"waste_basket","survey:date":"2020-03-03","waste":"trash"}},"type":"Feature"},
	{"geometry":{"coordinates":[1.487616,48.446886],"type":"Point"},"properties":{"osm_id":"7260887885","tag":{"amenity":"waste_basket","survey:date":"2020-03-03","waste":"trash"}},"type":"Feature"},
	{"geometry":{"coordinates":[1.48727,48.447117],"type":"Point"},"properties":{"osm_id":"7260900785","tag":{"amenity":"waste_basket","survey:date":"2020-03-03","waste":"trash"}},"type":"Feature"},
	{"geometry":{"coordinates":[1.486833,48.447208],"type":"Point"},"properties":{"osm_id":"7260900786","tag":{"amenity":"waste_basket","survey:date":"2020-03-03","waste":"trash"}},"type":"Feature"},
	{"geometry":{"coordinates":[1.486293,48.44681],"type":"Point"},"properties":{"osm_id":"7260904985","tag":{"amenity":"waste_basket","survey:date":"2020-03-03","waste":"trash"}},"type":"Feature"},
	{"geometry":{"coordinates":[1.482781,48.446692],"type":"Point"},"properties":{"osm_id":"7260937285","tag":{"amenity":"waste_basket","survey:date":"2020-03-03","waste":"trash"}},"type":"Feature"},
	{"geometry":{"coordinates":[1.474711,48.447764],"type":"Point"},"properties":{"osm_id":"7260975285","tag":{"amenity":"waste_basket","survey:date":"2020-03-03","waste":"trash"}},"type":"Feature"},
	{"geometry":{"coordinates":[1.474177,48.447772],"type":"Point"},"properties":{"osm_id":"7260975385","tag":{"amenity":"waste_basket","survey:date":"2020-03-03","waste":"trash"}},"type":"Feature"},
	{"geometry":{"coordinates":[1.465723,48.4514],"type":"Point"},"properties":{"osm_id":"7296299687","tag":{"amenity":"waste_basket"}},"type":"Feature"},
	{"geometry":{"coordinates":[1.463695,48.451328],"type":"Point"},"properties":{"osm_id":"7296320986","tag":{"amenity":"waste_basket"}},"type":"Feature"},
	{"geometry":{"coordinates":[1.467481,48.451602],"type":"Point"},"properties":{"osm_id":"7296328489","tag":{"amenity":"waste_basket"}},"type":"Feature"},
	{"geometry":{"coordinates":[1.471579,48.452456],"type":"Point"},"properties":{"osm_id":"7296355585","tag":{"amenity":"waste_basket"}},"type":"Feature"},
	{"geometry":{"coordinates":[1.489239,48.446965],"type":"Point"},"properties":{"osm_id":"7296817085","tag":{"amenity":"waste_basket"}},"type":"Feature"},
	{"geometry":{"coordinates":[1.48469,48.446091],"type":"Point"},"properties":{"osm_id":"7296828986","tag":{"amenity":"waste_basket"}},"type":"Feature"},
	{"geometry":{"coordinates":[1.480268,48.455291],"type":"Point"},"properties":{"osm_id":"7324846012","tag":{"amenity":"recycling","recycling:glass":"yes","recycling_type":"underfloor-container"}},"type":"Feature"},
	{"geometry":{"coordinates":[1.480247,48.455272],"type":"Point"},"properties":{"osm_id":"7324846013","tag":{"amenity":"recycling","recycling:waste":"yes","recycling_type":"underfloor-container"}},"type":"Feature"},
	{"geometry":{"coordinates":[1.480242,48.455304],"type":"Point"},"properties":{"osm_id":"7324846014","tag":{"amenity":"recycling","recycling:paper":"yes","recycling_type":"underfloor-container"}},"type":"Feature"},
	{"geometry":{"coordinates":[1.480222,48.455283],"type":"Point"},"properties":{"osm_id":"7324846015","tag":{"amenity":"recycling","recycling:beverage_cartons":"yes","recycling:cans":"yes","recycling:cartons":"yes","recycling:plastic_bottles":"yes","recycling_type":"underfloor-container"}},"type":"Feature"},
	{"geometry":{"coordinates":[1.464292,48.455863],"type":"Point"},"properties":{"osm_id":"7372945991","tag":{"amenity":"recycling","recycling:glass":"yes","recycling_type":"underfloor-container"}},"type":"Feature"},
	{"geometry":{"coordinates":[1.464248,48.455872],"type":"Point"},"properties":{"osm_id":"7372945996","tag":{"amenity":"recycling","recycling:aluminium":"yes","recycling:beverage_cartons":"yes","recycling:cans":"yes","recycling:cartons":"yes","recycling:plastic_bottles":"yes","recycling:plastic_packaging":"yes","recycling_type":"underfloor-container"}},"type":"Feature"},
	{"geometry":{"coordinates":[1.470343,48.453777],"type":"Point"},"properties":{"osm_id":"7543640086","tag":{"amenity":"waste_basket"}},"type":"Feature"},
	{"geometry":{"coordinates":[1.472129,48.447917],"type":"Point"},"properties":{"osm_id":"7545343185","tag":{"amenity":"waste_basket","waste":"poubelle"}},"type":"Feature"},
	{"geometry":{"coordinates":[1.473816,48.447671],"type":"Point"},"properties":{"osm_id":"7545414387","tag":{"amenity":"waste_basket","waste":"poubelle"}},"type":"Feature"},
	{"geometry":{"coordinates":[1.470536,48.449972],"type":"Point"},"properties":{"osm_id":"7545475086","tag":{"amenity":"waste_basket","waste":"poubelle"}},"type":"Feature"},
	{"geometry":{"coordinates":[1.469106,48.449616],"type":"Point"},"properties":{"osm_id":"7545946585","tag":{"amenity":"waste_basket","waste":"poubelle"}},"type":"Feature"},
	{"geometry":{"coordinates":[1.46402,48.447968],"type":"Point"},"properties":{"osm_id":"7545946586","tag":{"amenity":"waste_basket","waste":"poubelle"}},"type":"Feature"},
	{"geometry":{"coordinates":[1.461799,48.447396],"type":"Point"},"properties":{"osm_id":"7545946588","tag":{"amenity":"waste_basket","waste":"poubelle"}},"type":"Feature"},
	{"geometry":{"coordinates":[1.460623,48.447339],"type":"Point"},"properties":{"osm_id":"7545946885","tag":{"amenity":"waste_basket","waste":"pouvelle"}},"type":"Feature"},
	{"geometry":{"coordinates":[1.466504,48.453443],"type":"Point"},"properties":{"osm_id":"7545979585","tag":{"amenity":"waste_basket","waste":"poubelle"}},"type":"Feature"},
	{"geometry":{"coordinates":[1.466654,48.451659],"type":"Point"},"properties":{"osm_id":"7547022685","tag":{"amenity":"waste_basket","waste":"poubelle"}},"type":"Feature"},
	{"geometry":{"coordinates":[1.46765,48.448724],"type":"Point"},"properties":{"osm_id":"7548393886","tag":{"amenity":"waste_basket","waste":"poubelle"}},"type":"Feature"},
	{"geometry":{"coordinates":[1.464161,48.449922],"type":"Point"},"properties":{"osm_id":"7548393888","tag":{"amenity":"waste_basket","waste":"Poubelke"}},"type":"Feature"},
	{"geometry":{"coordinates":[1.468532,48.448491],"type":"Point"},"properties":{"osm_id":"7548470785","tag":{"amenity":"waste_basket","waste":"poubelle"}},"type":"Feature"},
	{"geometry":{"coordinates":[1.466247,48.451316],"type":"Point"},"properties":{"osm_id":"7550604785","tag":{"amenity":"waste_basket","waste":"Poubelle"}},"type":"Feature"},
	{"geometry":{"coordinates":[1.458843,48.451417],"type":"Point"},"properties":{"osm_id":"7550604788","tag":{"amenity":"waste_basket","waste":"Poubelle"}},"type":"Feature"},
	{"geometry":{"coordinates":[1.452334,48.450035],"type":"Point"},"properties":{"osm_id":"7551035885","tag":{"amenity":"waste_basket","waste":"Poubelle"}},"type":"Feature"},
	{"geometry":{"coordinates":[1.471252,48.438983],"type":"Point"},"properties":{"osm_id":"7846601849","tag":{"amenity":"waste_disposal","waste":"trash"}},"type":"Feature"},
	{"geometry":{"coordinates":[1.468942,48.434635],"type":"Point"},"properties":{"osm_id":"7861121564","tag":{"amenity":"waste_basket"}},"type":"Feature"},
	{"geometry":{"coordinates":[1.471525,48.438744],"type":"Point"},"properties":{"osm_id":"7861168420","tag":{"amenity":"waste_basket"}},"type":"Feature"}
]
}
