{
"type": "FeatureCollection",
"lastupdate": "2020-07-31T00:00:00Z",
"features": [
	{"geometry":{"coordinates":[1.407153,47.639818],"type":"Point"},"properties":{"osm_id":"2297016606","tag":{"amenity":"waste_basket"}},"type":"Feature"},
	{"geometry":{"coordinates":[1.453959,47.645241],"type":"Point"},"properties":{"name":"D\u00c3\u00a9ch\u00c3\u00a8terie\u00c2\u00a0de\u00c2\u00a0Montlivault","osm_id":"2706842478","tag":{"amenity":"recycling","operator":"Syndicat\u00a0Mixte\u00a0de\u00a0Collecte\u00a0et\u00a0de\u00a0Traitement\u00a0des\u00a0D\u00e9chets\u00a0du\u00a0Blaisois","phone":"+33 2 54 74 62 53","recycling:cans":"yes","recycling:glass_bottles":"yes","recycling:paper":"yes","recycling_type":"centre","ref:FR:SINOE":"3216","start_date":"1994-12-20"}},"type":"Feature"},
	{"geometry":{"coordinates":[1.480615,47.637018],"type":"Point"},"properties":{"osm_id":"2706852858","tag":{"amenity":"recycling","recycling:glass_bottles":"yes","recycling:paper":"yes"}},"type":"Feature"},
	{"geometry":{"coordinates":[1.447637,47.639612],"type":"Point"},"properties":{"name":"D\u00c3\u00a9chetterie","osm_id":"6440585703","tag":{"amenity":"recycling","recycling:glass_bottles":"yes","recycling:paper":"yes","recycling:plastic":"yes"}},"type":"Feature"},
	{"geometry":{"coordinates":[1.446854,47.675782],"type":"Point"},"properties":{"name":"D\u00c3\u00a9ch\u00c3\u00a8terie\u00c2\u00a0de\u00c2\u00a0Suevres","osm_id":"6960930040","tag":{"amenity":"recycling","fax":"+33 2 54 81 40 89","operator":"Everclean","phone":"+33 2 54 81 41 38","recycling_type":"centre","ref:FR:SINOE":"38556"}},"type":"Feature"}
]
}
