{
"type": "FeatureCollection",
"lastupdate": "2020-08-03T00:00:00Z",
"features": [
	{"geometry":{"coordinates":[1.418331,43.713868],"type":"Point"},"properties":{"osm_id":"716366482","tag":{"amenity":"recycling"}},"type":"Feature"},
	{"geometry":{"coordinates":[1.406916,43.730207],"type":"Point"},"properties":{"osm_id":"2272668740","tag":{"amenity":"waste_basket"}},"type":"Feature"},
	{"geometry":{"coordinates":[1.407,43.736746],"type":"Point"},"properties":{"osm_id":"2272668828","tag":{"amenity":"waste_basket"}},"type":"Feature"},
	{"geometry":{"coordinates":[1.406641,43.730956],"type":"Point"},"properties":{"osm_id":"2272668886","tag":{"amenity":"waste_basket"}},"type":"Feature"},
	{"geometry":{"coordinates":[1.478522,43.710436],"type":"Point"},"properties":{"osm_id":"3711149129","tag":{"amenity":"recycling","recycling:cans":"no","recycling:clothes":"no","recycling:glass_bottles":"yes","recycling:paper":"no","recycling_type":"container"}},"type":"Feature"},
	{"geometry":{"coordinates":[1.476691,43.734993],"type":"Point"},"properties":{"name":"bottle bank","osm_id":"3822601263","tag":{"amenity":"recycling","recycling:cans":"no","recycling:clothes":"no","recycling:glass":"no","recycling:glass_bottles":"yes","recycling:paper":"no","recycling:plastic":"no"}},"type":"Feature"},
	{"geometry":{"coordinates":[1.427161,43.744685],"type":"Point"},"properties":{"osm_id":"5029252525","tag":{"amenity":"recycling","recycling:glass_bottles":"yes","recycling_type":"container"}},"type":"Feature"},
	{"geometry":{"coordinates":[1.43182,43.751843],"type":"Point"},"properties":{"osm_id":"5030054321","tag":{"amenity":"recycling","recycling:glass_bottles":"yes","recycling_type":"container"}},"type":"Feature"},
	{"geometry":{"coordinates":[1.429602,43.749985],"type":"Point"},"properties":{"osm_id":"5030054721","tag":{"amenity":"recycling","recycling:glass_bottles":"yes","recycling_type":"container"}},"type":"Feature"},
	{"geometry":{"coordinates":[1.483858,43.719533],"type":"Point"},"properties":{"osm_id":"5421282806","tag":{"amenity":"recycling","recycling:glass_bottles":"yes","recycling_type":"container"}},"type":"Feature"},
	{"geometry":{"coordinates":[1.429237,43.768888],"type":"Point"},"properties":{"osm_id":"5850973236","tag":{"amenity":"recycling","location":"overground","recycling:clothes":"yes","recycling:glass":"no","recycling:glass_bottles":"yes","recycling_type":"container"}},"type":"Feature"},
	{"geometry":{"coordinates":[1.440094,43.725379],"type":"Point"},"properties":{"osm_id":"5863280847","tag":{"amenity":"recycling","location":"overground","operator":"Toulouse M\u00e9tropole","recycling:clothes":"yes","recycling:glass":"no","recycling:glass_bottles":"yes","recycling_type":"container"}},"type":"Feature"},
	{"geometry":{"coordinates":[1.492424,43.754119],"type":"Point"},"properties":{"osm_id":"5863926314","tag":{"amenity":"recycling","recycling:glass_bottles":"yes","recycling_type":"container"}},"type":"Feature"},
	{"geometry":{"coordinates":[1.40731,43.732033],"type":"Point"},"properties":{"osm_id":"5887416175","tag":{"amenity":"recycling","location":"overground","operator":"Toulouse M\u00e9tropole","recycling:glass":"no","recycling:glass_bottles":"yes","recycling_type":"container"}},"type":"Feature"},
	{"geometry":{"coordinates":[1.421444,43.725342],"type":"Point"},"properties":{"osm_id":"5887448565","tag":{"amenity":"recycling","location":"overground","operator":"Toulouse M\u00e9tropole","recycling:glass":"no","recycling:glass_bottles":"yes","recycling_type":"container"}},"type":"Feature"},
	{"geometry":{"coordinates":[1.414823,43.726855],"type":"Point"},"properties":{"osm_id":"5887448566","tag":{"amenity":"recycling","location":"overground","operator":"Toulouse M\u00e9tropole","recycling:glass":"no","recycling:glass_bottles":"yes","recycling_type":"container"}},"type":"Feature"},
	{"geometry":{"coordinates":[1.413538,43.727848],"type":"Point"},"properties":{"osm_id":"5887448722","tag":{"amenity":"recycling","location":"overground","operator":"Toulouse M\u00e9tropole","recycling:clothes":"yes","recycling:glass":"no","recycling:glass_bottles":"yes","recycling_type":"container"}},"type":"Feature"},
	{"geometry":{"coordinates":[1.410945,43.722528],"type":"Point"},"properties":{"osm_id":"5887482427","tag":{"amenity":"recycling","location":"overground","operator":"Toulouse M\u00e9tropole","recycling:glass":"no","recycling:glass_bottles":"yes","recycling_type":"container"}},"type":"Feature"},
	{"geometry":{"coordinates":[1.420297,43.722636],"type":"Point"},"properties":{"osm_id":"5887482795","tag":{"amenity":"recycling","location":"overground","operator":"Toulouse M\u00e9tropole","recycling:glass":"no","recycling:glass_bottles":"yes","recycling_type":"container"}},"type":"Feature"},
	{"geometry":{"coordinates":[1.436821,43.719705],"type":"Point"},"properties":{"osm_id":"5887496707","tag":{"amenity":"recycling","location":"overground","operator":"Toulouse M\u00e9tropole","recycling:clothes":"yes","recycling:glass":"no","recycling:glass_bottles":"yes","recycling_type":"container"}},"type":"Feature"},
	{"geometry":{"coordinates":[1.433766,43.724332],"type":"Point"},"properties":{"osm_id":"5887496753","tag":{"amenity":"recycling","location":"overground","operator":"Toulouse M\u00e9tropole","recycling:glass":"no","recycling:glass_bottles":"yes","recycling_type":"container"}},"type":"Feature"}
]
}
