{
"type": "FeatureCollection",
"features": [
	{"geometry":{"coordinates":[1.487138,43.573842],"type":"Point"},"properties":{"highway":"mini_roundabout","osm_id":"245305406"},"type":"Feature"},
	{"geometry":{"coordinates":[1.424171,43.576021],"type":"Point"},"properties":{"osm_id":"249087787","tag":{"amenity":"recycling","location":"overground","operator":"Toulouse M\u00c3\u00a9tropole","recycling:glass":"no","recycling:glass_bottles":"yes","recycling_type":"container"}},"type":"Feature"},
	{"geometry":{"coordinates":[1.474291,43.579167],"type":"Point"},"properties":{"osm_id":"338920667","tag":{"amenity":"recycling","location":"overground","operator":"Toulouse M\u00c3\u00a9tropole","recycling:glass":"no","recycling:glass_bottles":"yes","recycling_type":"container"}},"type":"Feature"},
	{"geometry":{"coordinates":[1.479161,43.576914],"type":"Point"},"properties":{"osm_id":"338925487","tag":{"amenity":"recycling","location":"overground","operator":"Toulouse M\u00c3\u00a9tropole","recycling:glass":"no","recycling:glass_bottles":"yes","recycling_type":"container"}},"type":"Feature"},
	{"geometry":{"coordinates":[1.420532,43.578759],"type":"Point"},"properties":{"osm_id":"456844419","tag":{"amenity":"recycling","recycling:glass":"yes"}},"type":"Feature"},
	{"geometry":{"coordinates":[1.468028,43.553492],"type":"Point"},"properties":{"osm_id":"667002066","tag":{"amenity":"recycling","location":"overground","operator":"Toulouse M\u00c3\u00a9tropole","recycling:glass":"no","recycling:glass_bottles":"yes","recycling_type":"container"}},"type":"Feature"},
	{"geometry":{"coordinates":[1.485359,43.575817],"type":"Point"},"properties":{"osm_id":"686774223","tag":{"amenity":"waste_basket"}},"type":"Feature"},
	{"geometry":{"coordinates":[1.48372,43.574473],"type":"Point"},"properties":{"osm_id":"686774227","tag":{"amenity":"waste_basket"}},"type":"Feature"},
	{"geometry":{"coordinates":[1.486354,43.576936],"type":"Point"},"properties":{"osm_id":"686774232","tag":{"amenity":"waste_basket"}},"type":"Feature"},
	{"geometry":{"coordinates":[1.484999,43.575583],"type":"Point"},"properties":{"osm_id":"686774237","tag":{"amenity":"waste_basket"}},"type":"Feature"},
	{"geometry":{"coordinates":[1.484533,43.575269],"type":"Point"},"properties":{"osm_id":"686774239","tag":{"amenity":"waste_basket"}},"type":"Feature"},
	{"geometry":{"coordinates":[1.483931,43.573951],"type":"Point"},"properties":{"osm_id":"686774249","tag":{"amenity":"waste_basket"}},"type":"Feature"},
	{"geometry":{"coordinates":[1.485712,43.576405],"type":"Point"},"properties":{"osm_id":"686774251","tag":{"amenity":"waste_basket"}},"type":"Feature"},
	{"geometry":{"coordinates":[1.484936,43.575656],"type":"Point"},"properties":{"osm_id":"686774253","tag":{"amenity":"waste_basket"}},"type":"Feature"},
	{"geometry":{"coordinates":[1.484063,43.574788],"type":"Point"},"properties":{"osm_id":"686774255","tag":{"amenity":"waste_basket"}},"type":"Feature"},
	{"geometry":{"coordinates":[1.48317,43.57498],"type":"Point"},"properties":{"osm_id":"686774260","tag":{"amenity":"waste_basket"}},"type":"Feature"},
	{"geometry":{"coordinates":[1.48612,43.576707],"type":"Point"},"properties":{"osm_id":"686774264","tag":{"amenity":"waste_basket"}},"type":"Feature"},
	{"geometry":{"coordinates":[1.484233,43.574911],"type":"Point"},"properties":{"osm_id":"686774267","tag":{"amenity":"waste_basket"}},"type":"Feature"},
	{"geometry":{"coordinates":[1.489081,43.54235],"type":"Point"},"properties":{"name":"Le Relais Emma\u00c3\u00bcs","osm_id":"885525174","tag":{"amenity":"recycling","description":"dons de v\u00c3\u00aatements","recycling:clothes":"yes","recycling_type":"container"}},"type":"Feature"},
	{"geometry":{"coordinates":[1.474268,43.559434],"type":"Point"},"properties":{"osm_id":"920418981","tag":{"amenity":"recycling","recycling:green_waste":"yes"}},"type":"Feature"},
	{"geometry":{"coordinates":[1.473779,43.573987],"type":"Point"},"properties":{"osm_id":"1345746841","tag":{"amenity":"recycling","location":"overground","operator":"Toulouse M\u00c3\u00a9tropole","recycling:glass":"no","recycling:glass_bottles":"yes","recycling_type":"container"}},"type":"Feature"},
	{"geometry":{"coordinates":[1.471002,43.576063],"type":"Point"},"properties":{"osm_id":"1345748146","tag":{"amenity":"recycling","location":"overground","operator":"Toulouse M\u00c3\u00a9tropole","recycling:glass":"no","recycling:glass_bottles":"yes","recycling_type":"container","source:location":"ToulouseMetropole - Orthophotoplan 2015"}},"type":"Feature"},
	{"geometry":{"coordinates":[1.462799,43.574115],"type":"Point"},"properties":{"osm_id":"1393542072","tag":{"amenity":"recycling","location":"overground","operator":"Toulouse M\u00c3\u00a9tropole","recycling:batteries":"no","recycling:books":"no","recycling:cans":"no","recycling:cardboard":"no","recycling:cartons":"no","recycling:clothes":"no","recycling:electrical_appliances":"no","recycling:glass":"no","recycling:glass_bottles":"yes","recycling:green_waste":"no","recycling:magazines":"no","recycling:newspaper":"no","recycling:paper":"no","recycling:paper_packaging":"no","recycling:plastic":"no","recycling:plastic_bottles":"no","recycling:plastic_packaging":"no","recycling:scrap_metal":"no","recycling:small_appliances":"no","recycling:waste":"no","recycling:wood":"no","recycling_type":"container"}},"type":"Feature"},
	{"geometry":{"coordinates":[1.471241,43.53775],"type":"Point"},"properties":{"osm_id":"1584351801","tag":{"amenity":"recycling","recycling:batteries":"no","recycling:cans":"yes","recycling:cartons":"yes","recycling:clothes":"no","recycling:electrical_appliances":"no","recycling:glass":"no","recycling:glass_bottles":"no","recycling:paper_packaging":"yes","recycling:plastic":"yes","recycling:plastic_bottles":"yes","recycling_type":"container"}},"type":"Feature"},
	{"geometry":{"coordinates":[1.468137,43.55504],"type":"Point"},"properties":{"osm_id":"1665647301","tag":{"amenity":"recycling","location":"overground","operator":"Toulouse M\u00c3\u00a9tropole","recycling:clothes":"yes","recycling:glass":"no","recycling:glass_bottles":"yes","recycling_type":"container"}},"type":"Feature"},
	{"geometry":{"coordinates":[1.452475,43.573795],"type":"Point"},"properties":{"osm_id":"1978008655","tag":{"amenity":"recycling","location":"overground","operator":"Toulouse M\u00c3\u00a9tropole","recycling:clothes":"yes","recycling:glass":"no","recycling:glass_bottles":"yes","recycling_type":"container"}},"type":"Feature"},
	{"geometry":{"coordinates":[1.45839,43.550477],"type":"Point"},"properties":{"osm_id":"2692363929","tag":{"amenity":"recycling","recycling:cans":"no","recycling:clothes":"no","recycling:glass":"yes","recycling:paper":"no"}},"type":"Feature"},
	{"geometry":{"coordinates":[1.490161,43.544604],"type":"Point"},"properties":{"osm_id":"2983711068","tag":{"amenity":"recycling","recycling:cans":"yes","recycling:glass_bottles":"yes","recycling:paper":"yes","recycling_type":"container"}},"type":"Feature"},
	{"geometry":{"coordinates":[1.463006,43.574052],"type":"Point"},"properties":{"name":"Borne Le Relais","osm_id":"3110694282","tag":{"amenity":"recycling","location":"overground","operator":"Toulouse M\u00c3\u00a9tropole","recycling:cans":"no","recycling:clothes":"yes","recycling:glass":"no","recycling:glass_bottles":"no","recycling:paper":"no","recycling_type":"container"}},"type":"Feature"},
	{"geometry":{"coordinates":[1.426848,43.580056],"type":"Point"},"properties":{"osm_id":"3309339454","tag":{"amenity":"recycling","location":"overground","operator":"Toulouse M\u00c3\u00a9tropole","recycling:glass":"no","recycling:glass_bottles":"yes","recycling_type":"container"}},"type":"Feature"},
	{"geometry":{"coordinates":[1.490738,43.573435],"type":"Point"},"properties":{"osm_id":"3400079042","tag":{"amenity":"waste_basket"}},"type":"Feature"},
	{"geometry":{"coordinates":[1.490679,43.573506],"type":"Point"},"properties":{"osm_id":"3400079043","tag":{"amenity":"waste_basket"}},"type":"Feature"},
	{"geometry":{"coordinates":[1.483579,43.573756],"type":"Point"},"properties":{"osm_id":"3400084136","tag":{"amenity":"recycling","location":"overground","operator":"Toulouse M\u00c3\u00a9tropole","recycling:glass":"no","recycling:glass_bottles":"yes","recycling_type":"container"}},"type":"Feature"},
	{"geometry":{"coordinates":[1.491258,43.57402],"type":"Point"},"properties":{"osm_id":"3400084137","tag":{"amenity":"recycling","location":"overground","operator":"Toulouse M\u00c3\u00a9tropole","recycling:cans":"no","recycling:clothes":"no","recycling:glass":"no","recycling:glass_bottles":"yes","recycling:paper":"no","recycling:plastic":"no","recycling_type":"container"}},"type":"Feature"},
	{"geometry":{"coordinates":[1.493736,43.575868],"type":"Point"},"properties":{"osm_id":"3400084138","tag":{"amenity":"recycling","recycling:glass_bottles":"yes","recycling_type":"container"}},"type":"Feature"},
	{"geometry":{"coordinates":[1.451066,43.576569],"type":"Point"},"properties":{"osm_id":"3492049272","tag":{"amenity":"recycling","location":"overground","operator":"Toulouse M\u00c3\u00a9tropole","recycling:glass":"no","recycling:glass_bottles":"yes","recycling_type":"container"}},"type":"Feature"},
	{"geometry":{"coordinates":[1.446094,43.57821],"type":"Point"},"properties":{"osm_id":"3594667689","tag":{"amenity":"waste_basket"}},"type":"Feature"},
	{"geometry":{"coordinates":[1.446696,43.578463],"type":"Point"},"properties":{"osm_id":"3613379238","tag":{"amenity":"waste_basket"}},"type":"Feature"},
	{"geometry":{"coordinates":[1.475506,43.565863],"type":"Point"},"properties":{"osm_id":"3660680393","tag":{"amenity":"waste_basket"}},"type":"Feature"},
	{"geometry":{"coordinates":[1.469087,43.570562],"type":"Point"},"properties":{"osm_id":"3693522011","tag":{"amenity":"recycling","location":"overground","operator":"Toulouse M\u00c3\u00a9tropole","recycling:glass":"no","recycling:glass_bottles":"yes","recycling_type":"container"}},"type":"Feature"},
	{"geometry":{"coordinates":[1.464844,43.567491],"type":"Point"},"properties":{"osm_id":"3717347840","tag":{"amenity":"recycling","location":"overground","operator":"Toulouse M\u00c3\u00a9tropole","recycling:glass":"no","recycling:glass_bottles":"yes","recycling_type":"container"}},"type":"Feature"},
	{"geometry":{"coordinates":[1.465665,43.567371],"type":"Point"},"properties":{"osm_id":"3717347841","tag":{"amenity":"recycling","recycling:clothes":"yes","recycling_type":"container"}},"type":"Feature"},
	{"geometry":{"coordinates":[1.45744,43.554778],"type":"Point"},"properties":{"osm_id":"3854192135","tag":{"amenity":"recycling","recycling:glass_bottles":"yes"}},"type":"Feature"},
	{"geometry":{"coordinates":[1.454635,43.549858],"type":"Point"},"properties":{"osm_id":"3854192136","tag":{"amenity":"recycling"}},"type":"Feature"},
	{"geometry":{"coordinates":[1.456679,43.54784],"type":"Point"},"properties":{"osm_id":"3854192137","tag":{"amenity":"recycling","recycling:glass_bottles":"yes","recycling_type":"container"}},"type":"Feature"},
	{"geometry":{"coordinates":[1.483649,43.578999],"type":"Point"},"properties":{"osm_id":"3858595286","tag":{"amenity":"recycling","location":"overground","operator":"Toulouse M\u00c3\u00a9tropole","recycling:cans":"no","recycling:clothes":"no","recycling:glass":"no","recycling:glass_bottles":"yes","recycling:paper":"no","recycling:plastic":"no","recycling_type":"container","website":"https://www.toulouse.fr/web/proprete-dechets/recup-verre"}},"type":"Feature"},
	{"geometry":{"coordinates":[1.450408,43.553031],"type":"Point"},"properties":{"osm_id":"3870924136","tag":{"amenity":"recycling","recycling_type":"container"}},"type":"Feature"},
	{"geometry":{"coordinates":[1.490812,43.579073],"type":"Point"},"properties":{"osm_id":"3874495372","tag":{"amenity":"waste_basket"}},"type":"Feature"},
	{"geometry":{"coordinates":[1.493944,43.577825],"type":"Point"},"properties":{"osm_id":"3874495373","tag":{"amenity":"waste_basket"}},"type":"Feature"},
	{"geometry":{"coordinates":[1.480792,43.579595],"type":"Point"},"properties":{"osm_id":"3885932810","tag":{"amenity":"waste_basket"}},"type":"Feature"},
	{"geometry":{"coordinates":[1.493588,43.577807],"type":"Point"},"properties":{"osm_id":"3885935954","tag":{"amenity":"waste_basket"}},"type":"Feature"},
	{"geometry":{"coordinates":[1.457734,43.538419],"type":"Point"},"properties":{"osm_id":"3893247819","tag":{"amenity":"waste_basket"}},"type":"Feature"},
	{"geometry":{"coordinates":[1.457885,43.538292],"type":"Point"},"properties":{"osm_id":"3893247822","tag":{"amenity":"waste_basket"}},"type":"Feature"},
	{"geometry":{"coordinates":[1.458943,43.538981],"type":"Point"},"properties":{"osm_id":"3893251319","tag":{"amenity":"waste_basket"}},"type":"Feature"},
	{"geometry":{"coordinates":[1.455463,43.542119],"type":"Point"},"properties":{"osm_id":"3894124627","tag":{"amenity":"waste_basket"}},"type":"Feature"},
	{"geometry":{"coordinates":[1.452945,43.545667],"type":"Point"},"properties":{"osm_id":"3894146773","tag":{"amenity":"waste_basket"}},"type":"Feature"},
	{"geometry":{"coordinates":[1.453186,43.546843],"type":"Point"},"properties":{"osm_id":"3894314032","tag":{"amenity":"waste_basket"}},"type":"Feature"},
	{"geometry":{"coordinates":[1.428841,43.570694],"type":"Point"},"properties":{"osm_id":"3895234122","tag":{"amenity":"waste_basket"}},"type":"Feature"},
	{"geometry":{"coordinates":[1.429768,43.568817],"type":"Point"},"properties":{"osm_id":"3895267440","tag":{"amenity":"waste_basket"}},"type":"Feature"},
	{"geometry":{"coordinates":[1.429679,43.568421],"type":"Point"},"properties":{"osm_id":"3895267441","tag":{"amenity":"waste_basket"}},"type":"Feature"},
	{"geometry":{"coordinates":[1.428267,43.566239],"type":"Point"},"properties":{"osm_id":"3895267443","tag":{"amenity":"waste_basket"}},"type":"Feature"},
	{"geometry":{"coordinates":[1.427599,43.564288],"type":"Point"},"properties":{"osm_id":"3895267444","tag":{"amenity":"waste_basket"}},"type":"Feature"},
	{"geometry":{"coordinates":[1.429787,43.569634],"type":"Point"},"properties":{"osm_id":"3895267446","tag":{"amenity":"waste_basket"}},"type":"Feature"},
	{"geometry":{"coordinates":[1.429803,43.56922],"type":"Point"},"properties":{"osm_id":"3895267447","tag":{"amenity":"waste_basket"}},"type":"Feature"},
	{"geometry":{"coordinates":[1.429079,43.567286],"type":"Point"},"properties":{"osm_id":"3895267448","tag":{"amenity":"waste_basket"}},"type":"Feature"},
	{"geometry":{"coordinates":[1.428807,43.566947],"type":"Point"},"properties":{"osm_id":"3895267449","tag":{"amenity":"waste_basket"}},"type":"Feature"},
	{"geometry":{"coordinates":[1.428531,43.566596],"type":"Point"},"properties":{"osm_id":"3895267450","tag":{"amenity":"waste_basket"}},"type":"Feature"},
	{"geometry":{"coordinates":[1.427648,43.564694],"type":"Point"},"properties":{"osm_id":"3895267452","tag":{"amenity":"waste_basket"}},"type":"Feature"},
	{"geometry":{"coordinates":[1.429535,43.568039],"type":"Point"},"properties":{"osm_id":"3895267454","tag":{"amenity":"waste_basket"}},"type":"Feature"},
	{"geometry":{"coordinates":[1.429318,43.567653],"type":"Point"},"properties":{"osm_id":"3895267455","tag":{"amenity":"waste_basket"}},"type":"Feature"},
	{"geometry":{"coordinates":[1.428052,43.565878],"type":"Point"},"properties":{"osm_id":"3895267456","tag":{"amenity":"waste_basket"}},"type":"Feature"},
	{"geometry":{"coordinates":[1.427872,43.565486],"type":"Point"},"properties":{"osm_id":"3895267757","tag":{"amenity":"waste_basket"}},"type":"Feature"},
	{"geometry":{"coordinates":[1.427725,43.565081],"type":"Point"},"properties":{"osm_id":"3895267758","tag":{"amenity":"waste_basket"}},"type":"Feature"},
	{"geometry":{"coordinates":[1.427749,43.563093],"type":"Point"},"properties":{"osm_id":"3895411360","tag":{"amenity":"waste_basket"}},"type":"Feature"},
	{"geometry":{"coordinates":[1.427877,43.562706],"type":"Point"},"properties":{"osm_id":"3895411361","tag":{"amenity":"waste_basket"}},"type":"Feature"},
	{"geometry":{"coordinates":[1.429182,43.560931],"type":"Point"},"properties":{"osm_id":"3895411362","tag":{"amenity":"waste_basket"}},"type":"Feature"},
	{"geometry":{"coordinates":[1.429546,43.560643],"type":"Point"},"properties":{"osm_id":"3895411364","tag":{"amenity":"waste_basket"}},"type":"Feature"},
	{"geometry":{"coordinates":[1.427621,43.563874],"type":"Point"},"properties":{"osm_id":"3895411365","tag":{"amenity":"waste_basket"}},"type":"Feature"},
	{"geometry":{"coordinates":[1.427668,43.56347],"type":"Point"},"properties":{"osm_id":"3895411366","tag":{"amenity":"waste_basket"}},"type":"Feature"},
	{"geometry":{"coordinates":[1.428548,43.561594],"type":"Point"},"properties":{"osm_id":"3895411368","tag":{"amenity":"waste_basket"}},"type":"Feature"},
	{"geometry":{"coordinates":[1.428853,43.561256],"type":"Point"},"properties":{"osm_id":"3895411369","tag":{"amenity":"waste_basket"}},"type":"Feature"},
	{"geometry":{"coordinates":[1.428078,43.562297],"type":"Point"},"properties":{"osm_id":"3895411370","tag":{"amenity":"waste_basket"}},"type":"Feature"},
	{"geometry":{"coordinates":[1.42828,43.561938],"type":"Point"},"properties":{"osm_id":"3895411371","tag":{"amenity":"waste_basket"}},"type":"Feature"},
	{"geometry":{"coordinates":[1.429938,43.560384],"type":"Point"},"properties":{"osm_id":"3895411372","tag":{"amenity":"waste_basket"}},"type":"Feature"},
	{"geometry":{"coordinates":[1.4303,43.560087],"type":"Point"},"properties":{"osm_id":"3895422943","tag":{"amenity":"waste_basket"}},"type":"Feature"},
	{"geometry":{"coordinates":[1.430655,43.559752],"type":"Point"},"properties":{"osm_id":"3895422944","tag":{"amenity":"waste_basket"}},"type":"Feature"},
	{"geometry":{"coordinates":[1.430956,43.55942],"type":"Point"},"properties":{"osm_id":"3895422945","tag":{"amenity":"waste_basket"}},"type":"Feature"},
	{"geometry":{"coordinates":[1.431232,43.559048],"type":"Point"},"properties":{"osm_id":"3895422947","tag":{"amenity":"waste_basket"}},"type":"Feature"},
	{"geometry":{"coordinates":[1.431461,43.558679],"type":"Point"},"properties":{"osm_id":"3895422948","tag":{"amenity":"waste_basket"}},"type":"Feature"},
	{"geometry":{"coordinates":[1.43164,43.558295],"type":"Point"},"properties":{"osm_id":"3895422949","tag":{"amenity":"waste_basket"}},"type":"Feature"},
	{"geometry":{"coordinates":[1.431799,43.557913],"type":"Point"},"properties":{"osm_id":"3895422951","tag":{"amenity":"waste_basket"}},"type":"Feature"},
	{"geometry":{"coordinates":[1.459587,43.579782],"type":"Point"},"properties":{"osm_id":"3903211620","tag":{"amenity":"recycling","location":"overground","operator":"Toulouse M\u00c3\u00a9tropole","recycling:glass":"no","recycling:glass_bottles":"yes","recycling_type":"container"}},"type":"Feature"},
	{"geometry":{"coordinates":[1.458791,43.539152],"type":"Point"},"properties":{"osm_id":"3903241810","tag":{"amenity":"waste_basket"}},"type":"Feature"},
	{"geometry":{"coordinates":[1.453352,43.575122],"type":"Point"},"properties":{"osm_id":"3905066625","tag":{"amenity":"waste_basket"}},"type":"Feature"},
	{"geometry":{"coordinates":[1.459402,43.579352],"type":"Point"},"properties":{"osm_id":"3905070752","tag":{"amenity":"waste_basket"}},"type":"Feature"},
	{"geometry":{"coordinates":[1.459238,43.57939],"type":"Point"},"properties":{"osm_id":"3905070860","tag":{"amenity":"waste_basket","fee":"no","vending":"excrement_bags"}},"type":"Feature"},
	{"geometry":{"coordinates":[1.470098,43.533333],"type":"Point"},"properties":{"osm_id":"3954279940","tag":{"amenity":"recycling","recycling:glass_bottles":"yes","recycling_type":"container"}},"type":"Feature"},
	{"geometry":{"coordinates":[1.479636,43.537286],"type":"Point"},"properties":{"osm_id":"3954279943","tag":{"amenity":"recycling","recycling:glass_bottles":"yes","recycling_type":"container"}},"type":"Feature"},
	{"geometry":{"coordinates":[1.470964,43.550021],"type":"Point"},"properties":{"osm_id":"3955325573","tag":{"amenity":"recycling","location":"underground","recycling:glass_bottles":"yes","recycling_type":"container"}},"type":"Feature"},
	{"geometry":{"coordinates":[1.449063,43.558105],"type":"Point"},"properties":{"osm_id":"3980827112","tag":{"amenity":"waste_basket","source:location":"ToulouseMetropole - Orthophotoplan 2015"}},"type":"Feature"},
	{"geometry":{"coordinates":[1.449417,43.55811],"type":"Point"},"properties":{"osm_id":"3980827113","tag":{"amenity":"waste_basket","source:location":"ToulouseMetropole - Orthophotoplan 2015"}},"type":"Feature"},
	{"geometry":{"coordinates":[1.449544,43.558129],"type":"Point"},"properties":{"osm_id":"3980827114","tag":{"amenity":"waste_basket","source:location":"ToulouseMetropole - Orthophotoplan 2015"}},"type":"Feature"},
	{"geometry":{"coordinates":[1.443107,43.575401],"type":"Point"},"properties":{"osm_id":"3980827223","tag":{"amenity":"recycling","location":"overground","operator":"Toulouse M\u00c3\u00a9tropole","recycling:clothes":"yes","recycling:glass":"no","recycling:glass_bottles":"yes","recycling_type":"container"}},"type":"Feature"},
	{"geometry":{"coordinates":[1.492977,43.576248],"type":"Point"},"properties":{"osm_id":"4010997689","tag":{"amenity":"waste_basket"}},"type":"Feature"},
	{"geometry":{"coordinates":[1.467239,43.567333],"type":"Point"},"properties":{"osm_id":"4011662512","tag":{"amenity":"recycling","location":"overground","operator":"Toulouse M\u00c3\u00a9tropole","recycling:glass":"no","recycling:glass_bottles":"yes","recycling_type":"container"}},"type":"Feature"},
	{"geometry":{"coordinates":[1.474952,43.56297],"type":"Point"},"properties":{"osm_id":"4011662513","tag":{"amenity":"recycling","recycling:glass_bottles":"yes","recycling_type":"container"}},"type":"Feature"},
	{"geometry":{"coordinates":[1.476467,43.556496],"type":"Point"},"properties":{"osm_id":"4011662514","tag":{"amenity":"recycling","recycling:glass_bottles":"yes","recycling_type":"container"}},"type":"Feature"},
	{"geometry":{"coordinates":[1.473144,43.558924],"type":"Point"},"properties":{"osm_id":"4011662515","tag":{"amenity":"recycling","location":"overground","operator":"Toulouse M\u00c3\u00a9tropole","recycling:glass":"no","recycling:glass_bottles":"yes","recycling_type":"container"}},"type":"Feature"},
	{"geometry":{"coordinates":[1.473957,43.564284],"type":"Point"},"properties":{"osm_id":"4015214396","tag":{"amenity":"recycling","location":"overground","operator":"Toulouse M\u00c3\u00a9tropole","recycling:glass":"no","recycling:glass_bottles":"yes","recycling_type":"container"}},"type":"Feature"},
	{"geometry":{"coordinates":[1.465655,43.568848],"type":"Point"},"properties":{"osm_id":"4015214398","tag":{"amenity":"recycling","recycling:glass":"yes"}},"type":"Feature"},
	{"geometry":{"coordinates":[1.47052,43.564372],"type":"Point"},"properties":{"osm_id":"4158098330","tag":{"amenity":"recycling","location":"overground","operator":"Toulouse M\u00c3\u00a9tropole","recycling:glass":"no","recycling:glass_bottles":"yes","recycling_type":"container"}},"type":"Feature"},
	{"geometry":{"coordinates":[1.46378,43.570417],"type":"Point"},"properties":{"osm_id":"4209510151","tag":{"amenity":"recycling","location":"overground","operator":"Toulouse M\u00c3\u00a9tropole","recycling:glass":"no","recycling:glass_bottles":"yes","recycling_type":"container"}},"type":"Feature"},
	{"geometry":{"coordinates":[1.465309,43.556704],"type":"Point"},"properties":{"osm_id":"4335503568","tag":{"amenity":"recycling","location":"overground","operator":"Toulouse M\u00c3\u00a9tropole","recycling:glass":"no","recycling:glass_bottles":"yes","recycling_type":"container"}},"type":"Feature"},
	{"geometry":{"coordinates":[1.474765,43.573387],"type":"Point"},"properties":{"osm_id":"4384100210","tag":{"amenity":"recycling","location":"overground","operator":"Toulouse M\u00c3\u00a9tropole","recycling:glass":"no","recycling:glass_bottles":"yes","recycling_type":"container"}},"type":"Feature"},
	{"geometry":{"coordinates":[1.467706,43.578282],"type":"Point"},"properties":{"osm_id":"4395043259","tag":{"amenity":"recycling","location":"overground","operator":"Toulouse M\u00c3\u00a9tropole","recycling:clothes":"yes","recycling:glass":"no","recycling:glass_bottles":"yes","recycling_type":"container"}},"type":"Feature"},
	{"geometry":{"coordinates":[1.411624,43.579201],"type":"Point"},"properties":{"osm_id":"4402537850","tag":{"amenity":"waste_basket"}},"type":"Feature"},
	{"geometry":{"coordinates":[1.411673,43.57909],"type":"Point"},"properties":{"osm_id":"4402537851","tag":{"amenity":"waste_basket"}},"type":"Feature"},
	{"geometry":{"coordinates":[1.411811,43.579205],"type":"Point"},"properties":{"osm_id":"4402537852","tag":{"amenity":"waste_basket"}},"type":"Feature"},
	{"geometry":{"coordinates":[1.411876,43.57949],"type":"Point"},"properties":{"osm_id":"4402537853","tag":{"amenity":"waste_basket"}},"type":"Feature"},
	{"geometry":{"coordinates":[1.411823,43.579449],"type":"Point"},"properties":{"osm_id":"4402537854","tag":{"amenity":"waste_basket"}},"type":"Feature"},
	{"geometry":{"coordinates":[1.411514,43.578942],"type":"Point"},"properties":{"name":"R\u00c3\u00a9cup' Verre","osm_id":"4402537855","tag":{"amenity":"recycling","location":"overground","operator":"Toulouse M\u00c3\u00a9tropole","recycling:glass":"no","recycling:glass_bottles":"yes","recycling_type":"container"}},"type":"Feature"},
	{"geometry":{"coordinates":[1.410776,43.579167],"type":"Point"},"properties":{"osm_id":"4402537859","tag":{"amenity":"waste_basket"}},"type":"Feature"},
	{"geometry":{"coordinates":[1.410872,43.578862],"type":"Point"},"properties":{"osm_id":"4402537860","tag":{"amenity":"waste_basket"}},"type":"Feature"},
	{"geometry":{"coordinates":[1.411287,43.578952],"type":"Point"},"properties":{"osm_id":"4402537861","tag":{"amenity":"waste_basket"}},"type":"Feature"},
	{"geometry":{"coordinates":[1.476182,43.553998],"type":"Point"},"properties":{"name":"Poubelle","osm_id":"4405605152","tag":{"amenity":"waste_basket"}},"type":"Feature"},
	{"geometry":{"coordinates":[1.475728,43.553709],"type":"Point"},"properties":{"name":"Poubelle","osm_id":"4405613406","tag":{"amenity":"waste_basket"}},"type":"Feature"},
	{"geometry":{"coordinates":[1.475629,43.553553],"type":"Point"},"properties":{"osm_id":"4405614233","tag":{"amenity":"recycling","recycling:glass_bottles":"yes","recycling_type":"container"}},"type":"Feature"},
	{"geometry":{"coordinates":[1.481453,43.545833],"type":"Point"},"properties":{"osm_id":"4405624164","tag":{"amenity":"waste_basket"}},"type":"Feature"},
	{"geometry":{"coordinates":[1.482705,43.546564],"type":"Point"},"properties":{"osm_id":"4405626188","tag":{"amenity":"recycling","recycling:glass_bottles":"yes","recycling_type":"container"}},"type":"Feature"},
	{"geometry":{"coordinates":[1.47488,43.552969],"type":"Point"},"properties":{"osm_id":"4405632252","tag":{"amenity":"waste_disposal"}},"type":"Feature"},
	{"geometry":{"coordinates":[1.472522,43.553667],"type":"Point"},"properties":{"name":"Poubelle","osm_id":"4405642240","tag":{"amenity":"waste_disposal"}},"type":"Feature"},
	{"geometry":{"coordinates":[1.482413,43.548765],"type":"Point"},"properties":{"osm_id":"4405674510","tag":{"amenity":"waste_basket"}},"type":"Feature"},
	{"geometry":{"coordinates":[1.480601,43.547118],"type":"Point"},"properties":{"osm_id":"4406693141","tag":{"amenity":"waste_basket"}},"type":"Feature"},
	{"geometry":{"coordinates":[1.48054,43.547266],"type":"Point"},"properties":{"osm_id":"4406693147","tag":{"amenity":"waste_basket"}},"type":"Feature"},
	{"geometry":{"coordinates":[1.480744,43.54731],"type":"Point"},"properties":{"osm_id":"4406693149","tag":{"amenity":"waste_basket"}},"type":"Feature"},
	{"geometry":{"coordinates":[1.462686,43.571196],"type":"Point"},"properties":{"osm_id":"4413129486","tag":{"amenity":"recycling","location":"overground","operator":"Toulouse M\u00c3\u00a9tropole","recycling:glass":"no","recycling:glass_bottles":"yes","recycling_type":"container"}},"type":"Feature"},
	{"geometry":{"coordinates":[1.464553,43.566733],"type":"Point"},"properties":{"osm_id":"4413133261","tag":{"amenity":"waste_disposal"}},"type":"Feature"},
	{"geometry":{"coordinates":[1.459751,43.562918],"type":"Point"},"properties":{"osm_id":"4413138022","tag":{"amenity":"waste_disposal"}},"type":"Feature"},
	{"geometry":{"coordinates":[1.459786,43.562892],"type":"Point"},"properties":{"osm_id":"4413138023","tag":{"amenity":"waste_disposal"}},"type":"Feature"},
	{"geometry":{"coordinates":[1.459852,43.563247],"type":"Point"},"properties":{"osm_id":"4413138025","tag":{"amenity":"waste_disposal"}},"type":"Feature"},
	{"geometry":{"coordinates":[1.459553,43.562926],"type":"Point"},"properties":{"osm_id":"4413138028","tag":{"amenity":"waste_disposal"}},"type":"Feature"},
	{"geometry":{"coordinates":[1.459504,43.56292],"type":"Point"},"properties":{"osm_id":"4413138029","tag":{"amenity":"waste_disposal"}},"type":"Feature"},
	{"geometry":{"coordinates":[1.459212,43.563525],"type":"Point"},"properties":{"osm_id":"4413138030","tag":{"amenity":"waste_disposal"}},"type":"Feature"},
	{"geometry":{"coordinates":[1.458548,43.563108],"type":"Point"},"properties":{"osm_id":"4413138035","tag":{"amenity":"waste_disposal"}},"type":"Feature"},
	{"geometry":{"coordinates":[1.456219,43.561143],"type":"Point"},"properties":{"osm_id":"4413138047","tag":{"amenity":"waste_disposal"}},"type":"Feature"},
	{"geometry":{"coordinates":[1.456294,43.561089],"type":"Point"},"properties":{"osm_id":"4413138048","tag":{"amenity":"waste_disposal"}},"type":"Feature"},
	{"geometry":{"coordinates":[1.457985,43.560262],"type":"Point"},"properties":{"osm_id":"4413138052","tag":{"amenity":"waste_disposal"}},"type":"Feature"},
	{"geometry":{"coordinates":[1.458296,43.55997],"type":"Point"},"properties":{"osm_id":"4413138053","tag":{"amenity":"waste_disposal"}},"type":"Feature"},
	{"geometry":{"coordinates":[1.458096,43.560911],"type":"Point"},"properties":{"osm_id":"4413138055","tag":{"amenity":"waste_disposal"}},"type":"Feature"},
	{"geometry":{"coordinates":[1.458849,43.565576],"type":"Point"},"properties":{"osm_id":"4413138068","tag":{"amenity":"waste_basket"}},"type":"Feature"},
	{"geometry":{"coordinates":[1.458915,43.565568],"type":"Point"},"properties":{"osm_id":"4413138069","tag":{"amenity":"waste_basket"}},"type":"Feature"},
	{"geometry":{"coordinates":[1.458283,43.56589],"type":"Point"},"properties":{"osm_id":"4413138070","tag":{"amenity":"waste_basket"}},"type":"Feature"},
	{"geometry":{"coordinates":[1.458116,43.565909],"type":"Point"},"properties":{"osm_id":"4413138071","tag":{"amenity":"waste_basket"}},"type":"Feature"},
	{"geometry":{"coordinates":[1.45663,43.565012],"type":"Point"},"properties":{"osm_id":"4413138075","tag":{"amenity":"waste_basket"}},"type":"Feature"},
	{"geometry":{"coordinates":[1.457314,43.564945],"type":"Point"},"properties":{"osm_id":"4413138079","tag":{"amenity":"waste_basket"}},"type":"Feature"},
	{"geometry":{"coordinates":[1.457352,43.564968],"type":"Point"},"properties":{"osm_id":"4413138080","tag":{"amenity":"waste_basket"}},"type":"Feature"},
	{"geometry":{"coordinates":[1.458283,43.565307],"type":"Point"},"properties":{"osm_id":"4413138083","tag":{"amenity":"waste_basket"}},"type":"Feature"},
	{"geometry":{"coordinates":[1.458009,43.565337],"type":"Point"},"properties":{"osm_id":"4413138085","tag":{"amenity":"waste_basket"}},"type":"Feature"},
	{"geometry":{"coordinates":[1.459138,43.564738],"type":"Point"},"properties":{"osm_id":"4413138087","tag":{"amenity":"waste_disposal"}},"type":"Feature"},
	{"geometry":{"coordinates":[1.466606,43.569438],"type":"Point"},"properties":{"osm_id":"4413138292","tag":{"amenity":"waste_disposal"}},"type":"Feature"},
	{"geometry":{"coordinates":[1.468121,43.570255],"type":"Point"},"properties":{"osm_id":"4413138294","tag":{"amenity":"waste_disposal"}},"type":"Feature"},
	{"geometry":{"coordinates":[1.467577,43.570386],"type":"Point"},"properties":{"osm_id":"4413138295","tag":{"amenity":"waste_disposal"}},"type":"Feature"},
	{"geometry":{"coordinates":[1.467194,43.570664],"type":"Point"},"properties":{"osm_id":"4413138297","tag":{"amenity":"waste_disposal"}},"type":"Feature"},
	{"geometry":{"coordinates":[1.468009,43.570711],"type":"Point"},"properties":{"osm_id":"4413138298","tag":{"amenity":"waste_basket"}},"type":"Feature"},
	{"geometry":{"coordinates":[1.466631,43.571405],"type":"Point"},"properties":{"osm_id":"4413138301","tag":{"amenity":"waste_disposal"}},"type":"Feature"},
	{"geometry":{"coordinates":[1.466343,43.571726],"type":"Point"},"properties":{"osm_id":"4413138308","tag":{"amenity":"waste_disposal"}},"type":"Feature"},
	{"geometry":{"coordinates":[1.466136,43.571885],"type":"Point"},"properties":{"osm_id":"4413138310","tag":{"amenity":"waste_disposal"}},"type":"Feature"},
	{"geometry":{"coordinates":[1.46683,43.572153],"type":"Point"},"properties":{"osm_id":"4413138313","tag":{"amenity":"waste_basket"}},"type":"Feature"},
	{"geometry":{"coordinates":[1.465969,43.572882],"type":"Point"},"properties":{"osm_id":"4413138315","tag":{"amenity":"waste_disposal"}},"type":"Feature"},
	{"geometry":{"coordinates":[1.466329,43.572537],"type":"Point"},"properties":{"osm_id":"4413138316","tag":{"amenity":"waste_basket"}},"type":"Feature"},
	{"geometry":{"coordinates":[1.458727,43.564355],"type":"Point"},"properties":{"osm_id":"4413138390","tag":{"amenity":"waste_disposal"}},"type":"Feature"},
	{"geometry":{"coordinates":[1.458278,43.564101],"type":"Point"},"properties":{"osm_id":"4413138392","tag":{"amenity":"waste_disposal"}},"type":"Feature"},
	{"geometry":{"coordinates":[1.469855,43.562449],"type":"Point"},"properties":{"osm_id":"4413140408","tag":{"amenity":"waste_disposal"}},"type":"Feature"},
	{"geometry":{"coordinates":[1.469407,43.563223],"type":"Point"},"properties":{"osm_id":"4413140417","tag":{"amenity":"waste_disposal"}},"type":"Feature"},
	{"geometry":{"coordinates":[1.459891,43.568092],"type":"Point"},"properties":{"osm_id":"4413141166","tag":{"amenity":"waste_basket"}},"type":"Feature"},
	{"geometry":{"coordinates":[1.466314,43.559795],"type":"Point"},"properties":{"osm_id":"4413142956","tag":{"amenity":"waste_basket"}},"type":"Feature"},
	{"geometry":{"coordinates":[1.466421,43.559682],"type":"Point"},"properties":{"osm_id":"4413142957","tag":{"amenity":"waste_basket"}},"type":"Feature"},
	{"geometry":{"coordinates":[1.466643,43.559455],"type":"Point"},"properties":{"osm_id":"4413142958","tag":{"amenity":"waste_basket"}},"type":"Feature"},
	{"geometry":{"coordinates":[1.466533,43.559571],"type":"Point"},"properties":{"osm_id":"4413142959","tag":{"amenity":"waste_basket"}},"type":"Feature"},
	{"geometry":{"coordinates":[1.466813,43.559293],"type":"Point"},"properties":{"osm_id":"4413142960","tag":{"amenity":"waste_basket"}},"type":"Feature"},
	{"geometry":{"coordinates":[1.457527,43.561072],"type":"Point"},"properties":{"osm_id":"4413143302","tag":{"amenity":"waste_disposal"}},"type":"Feature"},
	{"geometry":{"coordinates":[1.45729,43.561074],"type":"Point"},"properties":{"osm_id":"4413143303","tag":{"amenity":"waste_disposal"}},"type":"Feature"},
	{"geometry":{"coordinates":[1.457308,43.560978],"type":"Point"},"properties":{"osm_id":"4413143304","tag":{"amenity":"waste_disposal"}},"type":"Feature"},
	{"geometry":{"coordinates":[1.457432,43.560992],"type":"Point"},"properties":{"osm_id":"4413143305","tag":{"amenity":"waste_disposal"}},"type":"Feature"},
	{"geometry":{"coordinates":[1.457592,43.560988],"type":"Point"},"properties":{"osm_id":"4413143306","tag":{"amenity":"waste_disposal"}},"type":"Feature"},
	{"geometry":{"coordinates":[1.457626,43.561591],"type":"Point"},"properties":{"osm_id":"4413143308","tag":{"amenity":"waste_disposal"}},"type":"Feature"},
	{"geometry":{"coordinates":[1.45774,43.561668],"type":"Point"},"properties":{"osm_id":"4413143309","tag":{"amenity":"waste_disposal"}},"type":"Feature"},
	{"geometry":{"coordinates":[1.458316,43.562053],"type":"Point"},"properties":{"osm_id":"4413143313","tag":{"amenity":"waste_disposal"}},"type":"Feature"},
	{"geometry":{"coordinates":[1.458443,43.56214],"type":"Point"},"properties":{"osm_id":"4413143314","tag":{"amenity":"waste_disposal"}},"type":"Feature"},
	{"geometry":{"coordinates":[1.459023,43.562522],"type":"Point"},"properties":{"osm_id":"4413143317","tag":{"amenity":"waste_disposal"}},"type":"Feature"},
	{"geometry":{"coordinates":[1.459149,43.562612],"type":"Point"},"properties":{"osm_id":"4413143318","tag":{"amenity":"waste_disposal"}},"type":"Feature"},
	{"geometry":{"coordinates":[1.45934,43.562724],"type":"Point"},"properties":{"osm_id":"4413143320","tag":{"amenity":"waste_disposal"}},"type":"Feature"},
	{"geometry":{"coordinates":[1.465183,43.572034],"type":"Point"},"properties":{"osm_id":"4413146394","tag":{"amenity":"waste_disposal"}},"type":"Feature"},
	{"geometry":{"coordinates":[1.464875,43.571892],"type":"Point"},"properties":{"osm_id":"4413146395","tag":{"amenity":"waste_disposal"}},"type":"Feature"},
	{"geometry":{"coordinates":[1.464689,43.571818],"type":"Point"},"properties":{"osm_id":"4413146396","tag":{"amenity":"recycling","location":"overground","operator":"Toulouse M\u00c3\u00a9tropole","recycling:glass":"no","recycling:glass_bottles":"yes","recycling_type":"container"}},"type":"Feature"},
	{"geometry":{"coordinates":[1.46394,43.5708],"type":"Point"},"properties":{"osm_id":"4413146401","tag":{"amenity":"waste_disposal"}},"type":"Feature"},
	{"geometry":{"coordinates":[1.465149,43.571317],"type":"Point"},"properties":{"osm_id":"4413146405","tag":{"amenity":"waste_basket"}},"type":"Feature"},
	{"geometry":{"coordinates":[1.465978,43.57053],"type":"Point"},"properties":{"osm_id":"4413148445","tag":{"amenity":"waste_basket"}},"type":"Feature"},
	{"geometry":{"coordinates":[1.466412,43.570178],"type":"Point"},"properties":{"osm_id":"4413148446","tag":{"amenity":"waste_basket"}},"type":"Feature"},
	{"geometry":{"coordinates":[1.464176,43.565739],"type":"Point"},"properties":{"osm_id":"4413153918","tag":{"amenity":"waste_disposal"}},"type":"Feature"},
	{"geometry":{"coordinates":[1.472191,43.559646],"type":"Point"},"properties":{"osm_id":"4413156759","tag":{"amenity":"waste_disposal"}},"type":"Feature"},
	{"geometry":{"coordinates":[1.472319,43.559923],"type":"Point"},"properties":{"osm_id":"4413167211","tag":{"amenity":"recycling"}},"type":"Feature"},
	{"geometry":{"coordinates":[1.468711,43.57049],"type":"Point"},"properties":{"osm_id":"4413168928","tag":{"amenity":"waste_disposal"}},"type":"Feature"},
	{"geometry":{"coordinates":[1.469395,43.571103],"type":"Point"},"properties":{"osm_id":"4413168931","tag":{"amenity":"waste_basket"}},"type":"Feature"},
	{"geometry":{"coordinates":[1.469311,43.571678],"type":"Point"},"properties":{"osm_id":"4413168941","tag":{"amenity":"waste_basket"}},"type":"Feature"},
	{"geometry":{"coordinates":[1.469173,43.571754],"type":"Point"},"properties":{"osm_id":"4413168942","tag":{"amenity":"waste_basket"}},"type":"Feature"},
	{"geometry":{"coordinates":[1.468652,43.571915],"type":"Point"},"properties":{"osm_id":"4413168943","tag":{"amenity":"waste_basket"}},"type":"Feature"},
	{"geometry":{"coordinates":[1.469108,43.572069],"type":"Point"},"properties":{"osm_id":"4413168945","tag":{"amenity":"waste_basket"}},"type":"Feature"},
	{"geometry":{"coordinates":[1.468792,43.57256],"type":"Point"},"properties":{"osm_id":"4413168948","tag":{"amenity":"waste_basket"}},"type":"Feature"},
	{"geometry":{"coordinates":[1.469207,43.572942],"type":"Point"},"properties":{"osm_id":"4413168951","tag":{"amenity":"waste_basket"}},"type":"Feature"},
	{"geometry":{"coordinates":[1.468956,43.573151],"type":"Point"},"properties":{"osm_id":"4413168952","tag":{"amenity":"waste_basket"}},"type":"Feature"},
	{"geometry":{"coordinates":[1.466954,43.572239],"type":"Point"},"properties":{"osm_id":"4413168961","tag":{"amenity":"waste_basket"}},"type":"Feature"},
	{"geometry":{"coordinates":[1.460663,43.56734],"type":"Point"},"properties":{"osm_id":"4413169197","tag":{"amenity":"waste_basket"}},"type":"Feature"},
	{"geometry":{"coordinates":[1.455293,43.563667],"type":"Point"},"properties":{"osm_id":"4413177466","tag":{"amenity":"waste_basket"}},"type":"Feature"},
	{"geometry":{"coordinates":[1.455382,43.563565],"type":"Point"},"properties":{"osm_id":"4413177467","tag":{"amenity":"recycling","check_date:recycling":"2020-09-26","location":"overground","operator":"Toulouse M\u00c3\u00a9tropole","recycling:glass":"no","recycling:glass_bottles":"yes","recycling_type":"container"}},"type":"Feature"},
	{"geometry":{"coordinates":[1.456089,43.564682],"type":"Point"},"properties":{"osm_id":"4413177468","tag":{"amenity":"waste_disposal"}},"type":"Feature"},
	{"geometry":{"coordinates":[1.458578,43.56161],"type":"Point"},"properties":{"osm_id":"4413179212","tag":{"amenity":"waste_basket"}},"type":"Feature"},
	{"geometry":{"coordinates":[1.456038,43.564658],"type":"Point"},"properties":{"osm_id":"4413181001","tag":{"access":"private","amenity":"recycling","recycling:paper":"yes","recycling:plastic":"yes","recycling_type":"container"}},"type":"Feature"},
	{"geometry":{"coordinates":[1.469867,43.562441],"type":"Point"},"properties":{"osm_id":"4413188511","tag":{"amenity":"waste_disposal"}},"type":"Feature"},
	{"geometry":{"coordinates":[1.472397,43.55984],"type":"Point"},"properties":{"osm_id":"4413188514","tag":{"amenity":"waste_disposal"}},"type":"Feature"},
	{"geometry":{"coordinates":[1.471722,43.560026],"type":"Point"},"properties":{"osm_id":"4413188516","tag":{"amenity":"waste_disposal","recycling:glass_bottles":"yes"}},"type":"Feature"},
	{"geometry":{"coordinates":[1.470734,43.561557],"type":"Point"},"properties":{"osm_id":"4413188531","tag":{"amenity":"waste_disposal"}},"type":"Feature"},
	{"geometry":{"coordinates":[1.460333,43.562924],"type":"Point"},"properties":{"osm_id":"4413189618","tag":{"amenity":"recycling","location":"overground","operator":"Toulouse M\u00c3\u00a9tropole","recycling:clothes":"yes","recycling:glass":"no","recycling:glass_bottles":"yes","recycling_type":"container"}},"type":"Feature"},
	{"geometry":{"coordinates":[1.467609,43.565584],"type":"Point"},"properties":{"osm_id":"4413190297","tag":{"amenity":"waste_disposal"}},"type":"Feature"},
	{"geometry":{"coordinates":[1.470102,43.567226],"type":"Point"},"properties":{"osm_id":"4413191296","tag":{"amenity":"waste_basket"}},"type":"Feature"},
	{"geometry":{"coordinates":[1.476989,43.558911],"type":"Point"},"properties":{"osm_id":"4413195775","tag":{"amenity":"waste_basket"}},"type":"Feature"},
	{"geometry":{"coordinates":[1.462358,43.564617],"type":"Point"},"properties":{"osm_id":"4413196328","tag":{"amenity":"waste_basket"}},"type":"Feature"},
	{"geometry":{"coordinates":[1.4623,43.564547],"type":"Point"},"properties":{"osm_id":"4413196329","tag":{"amenity":"recycling","location":"overground","operator":"Toulouse M\u00c3\u00a9tropole","recycling:glass":"no","recycling:glass_bottles":"yes","recycling_type":"container"}},"type":"Feature"},
	{"geometry":{"coordinates":[1.469177,43.562545],"type":"Point"},"properties":{"osm_id":"4413196968","tag":{"amenity":"waste_basket"}},"type":"Feature"},
	{"geometry":{"coordinates":[1.46454,43.565218],"type":"Point"},"properties":{"osm_id":"4413197240","tag":{"amenity":"waste_disposal"}},"type":"Feature"},
	{"geometry":{"coordinates":[1.465982,43.56336],"type":"Point"},"properties":{"osm_id":"4413197800","tag":{"amenity":"waste_basket"}},"type":"Feature"},
	{"geometry":{"coordinates":[1.465349,43.564025],"type":"Point"},"properties":{"osm_id":"4413197801","tag":{"amenity":"waste_basket"}},"type":"Feature"},
	{"geometry":{"coordinates":[1.468908,43.567843],"type":"Point"},"properties":{"osm_id":"4413204392","tag":{"amenity":"waste_basket"}},"type":"Feature"},
	{"geometry":{"coordinates":[1.470259,43.569855],"type":"Point"},"properties":{"osm_id":"4413205580","tag":{"amenity":"waste_basket"}},"type":"Feature"},
	{"geometry":{"coordinates":[1.469402,43.568072],"type":"Point"},"properties":{"osm_id":"4413206687","tag":{"amenity":"waste_basket"}},"type":"Feature"},
	{"geometry":{"coordinates":[1.466401,43.569132],"type":"Point"},"properties":{"osm_id":"4413206794","tag":{"amenity":"waste_basket"}},"type":"Feature"},
	{"geometry":{"coordinates":[1.466757,43.568657],"type":"Point"},"properties":{"osm_id":"4413206795","tag":{"amenity":"waste_basket"}},"type":"Feature"},
	{"geometry":{"coordinates":[1.468192,43.569602],"type":"Point"},"properties":{"osm_id":"4413207158","tag":{"amenity":"waste_basket"}},"type":"Feature"},
	{"geometry":{"coordinates":[1.468022,43.569924],"type":"Point"},"properties":{"osm_id":"4413208438","tag":{"amenity":"waste_basket"}},"type":"Feature"},
	{"geometry":{"coordinates":[1.46692,43.568577],"type":"Point"},"properties":{"osm_id":"4413208561","tag":{"amenity":"waste_basket"}},"type":"Feature"},
	{"geometry":{"coordinates":[1.466896,43.568445],"type":"Point"},"properties":{"osm_id":"4413208562","tag":{"amenity":"waste_basket"}},"type":"Feature"},
	{"geometry":{"coordinates":[1.470249,43.567981],"type":"Point"},"properties":{"osm_id":"4413208564","tag":{"amenity":"waste_basket"}},"type":"Feature"},
	{"geometry":{"coordinates":[1.470498,43.567715],"type":"Point"},"properties":{"osm_id":"4413208565","tag":{"amenity":"waste_basket"}},"type":"Feature"},
	{"geometry":{"coordinates":[1.469964,43.568113],"type":"Point"},"properties":{"osm_id":"4413208567","tag":{"amenity":"waste_disposal"}},"type":"Feature"},
	{"geometry":{"coordinates":[1.470066,43.568486],"type":"Point"},"properties":{"osm_id":"4413208568","tag":{"amenity":"waste_basket"}},"type":"Feature"},
	{"geometry":{"coordinates":[1.469412,43.56828],"type":"Point"},"properties":{"osm_id":"4413209067","tag":{"amenity":"waste_basket"}},"type":"Feature"},
	{"geometry":{"coordinates":[1.467131,43.557577],"type":"Point"},"properties":{"osm_id":"4413212847","tag":{"amenity":"recycling","location":"overground","operator":"Toulouse M\u00c3\u00a9tropole","recycling:glass":"no","recycling:glass_bottles":"yes","recycling_type":"container"}},"type":"Feature"},
	{"geometry":{"coordinates":[1.466632,43.557281],"type":"Point"},"properties":{"osm_id":"4413212870","tag":{"amenity":"waste_disposal"}},"type":"Feature"},
	{"geometry":{"coordinates":[1.470126,43.556454],"type":"Point"},"properties":{"osm_id":"4413246412","tag":{"amenity":"waste_disposal"}},"type":"Feature"},
	{"geometry":{"coordinates":[1.492795,43.572508],"type":"Point"},"properties":{"osm_id":"4565073739","tag":{"amenity":"recycling","recycling:glass_bottles":"yes","recycling_type":"container"}},"type":"Feature"},
	{"geometry":{"coordinates":[1.485671,43.577832],"type":"Point"},"properties":{"osm_id":"4593301221","tag":{"amenity":"recycling","location":"overground","operator":"Toulouse M\u00c3\u00a9tropole","recycling:glass":"no","recycling:glass_bottles":"yes","recycling_type":"container"}},"type":"Feature"},
	{"geometry":{"coordinates":[1.476602,43.578676],"type":"Point"},"properties":{"osm_id":"4593330838","tag":{"amenity":"recycling","location":"overground","operator":"Toulouse M\u00c3\u00a9tropole","recycling:glass":"no","recycling:glass_bottles":"yes","recycling_type":"container"}},"type":"Feature"},
	{"geometry":{"coordinates":[1.407465,43.567289],"type":"Point"},"properties":{"osm_id":"4726784671","tag":{"amenity":"recycling","location":"overground","operator":"Toulouse M\u00c3\u00a9tropole","recycling:glass":"no","recycling:glass_bottles":"yes","recycling_type":"container"}},"type":"Feature"},
	{"geometry":{"coordinates":[1.420314,43.570495],"type":"Point"},"properties":{"osm_id":"4730413971","tag":{"amenity":"recycling","recycling:glass_bottles":"yes","recycling_type":"container"}},"type":"Feature"},
	{"geometry":{"coordinates":[1.466776,43.549762],"type":"Point"},"properties":{"osm_id":"4775629622","tag":{"amenity":"recycling","recycling:glass_bottles":"yes","recycling_type":"container"}},"type":"Feature"},
	{"geometry":{"coordinates":[1.472233,43.537954],"type":"Point"},"properties":{"osm_id":"4828218329","tag":{"amenity":"recycling","recycling:clothes":"no","recycling:electrical_appliances":"no","recycling:glass":"no","recycling:glass_bottles":"no","recycling_type":"container"}},"type":"Feature"},
	{"geometry":{"coordinates":[1.471651,43.537685],"type":"Point"},"properties":{"osm_id":"4828218330","tag":{"amenity":"recycling","recycling:batteries":"no","recycling:clothes":"no","recycling:glass":"no","recycling:glass_bottles":"no","recycling_type":"container"}},"type":"Feature"},
	{"geometry":{"coordinates":[1.445518,43.564393],"type":"Point"},"properties":{"osm_id":"5062481223","tag":{"amenity":"waste_basket"}},"type":"Feature"},
	{"geometry":{"coordinates":[1.490821,43.563836],"type":"Point"},"properties":{"osm_id":"5155220218","tag":{"amenity":"recycling","recycling:clothes":"yes","recycling:glass_bottles":"yes","recycling_type":"container"}},"type":"Feature"},
	{"geometry":{"coordinates":[1.480101,43.5633],"type":"Point"},"properties":{"osm_id":"5155220219","tag":{"amenity":"recycling","location":"overground","operator":"Toulouse M\u00c3\u00a9tropole","recycling:glass":"no","recycling:glass_bottles":"yes","recycling_type":"container"}},"type":"Feature"},
	{"geometry":{"coordinates":[1.416526,43.570087],"type":"Point"},"properties":{"osm_id":"5155221422","tag":{"amenity":"recycling","recycling:glass_bottles":"yes","recycling_type":"container"}},"type":"Feature"},
	{"geometry":{"coordinates":[1.416497,43.570093],"type":"Point"},"properties":{"osm_id":"5155221423","tag":{"amenity":"recycling","recycling:clothes":"yes","recycling_type":"container"}},"type":"Feature"},
	{"geometry":{"coordinates":[1.413339,43.519368],"type":"Point"},"properties":{"osm_id":"5169531598","tag":{"amenity":"waste_basket"}},"type":"Feature"},
	{"geometry":{"coordinates":[1.415243,43.521314],"type":"Point"},"properties":{"osm_id":"5169531599","tag":{"amenity":"waste_basket"}},"type":"Feature"},
	{"geometry":{"coordinates":[1.417044,43.525181],"type":"Point"},"properties":{"osm_id":"5169533935","tag":{"amenity":"waste_basket"}},"type":"Feature"},
	{"geometry":{"coordinates":[1.417387,43.524831],"type":"Point"},"properties":{"osm_id":"5169533936","tag":{"amenity":"waste_basket"}},"type":"Feature"},
	{"geometry":{"coordinates":[1.418872,43.524073],"type":"Point"},"properties":{"osm_id":"5169533939","tag":{"amenity":"waste_basket"}},"type":"Feature"},
	{"geometry":{"coordinates":[1.421349,43.52288],"type":"Point"},"properties":{"osm_id":"5169533940","tag":{"amenity":"recycling","recycling:glass_bottles":"yes","recycling_type":"container"}},"type":"Feature"},
	{"geometry":{"coordinates":[1.489985,43.577374],"type":"Point"},"properties":{"osm_id":"5255763259","tag":{"amenity":"waste_basket"}},"type":"Feature"},
	{"geometry":{"coordinates":[1.487634,43.577544],"type":"Point"},"properties":{"osm_id":"5257598570","tag":{"amenity":"waste_basket"}},"type":"Feature"},
	{"geometry":{"coordinates":[1.484918,43.574023],"type":"Point"},"properties":{"osm_id":"5267908239","tag":{"amenity":"waste_basket"}},"type":"Feature"},
	{"geometry":{"coordinates":[1.483939,43.574383],"type":"Point"},"properties":{"osm_id":"5267908240","tag":{"amenity":"waste_basket"}},"type":"Feature"},
	{"geometry":{"coordinates":[1.483935,43.574455],"type":"Point"},"properties":{"osm_id":"5267908241","tag":{"amenity":"waste_basket"}},"type":"Feature"},
	{"geometry":{"coordinates":[1.486256,43.577165],"type":"Point"},"properties":{"osm_id":"5267908242","tag":{"amenity":"waste_basket"}},"type":"Feature"},
	{"geometry":{"coordinates":[1.486428,43.576902],"type":"Point"},"properties":{"osm_id":"5267908243","tag":{"amenity":"waste_basket"}},"type":"Feature"},
	{"geometry":{"coordinates":[1.4852,43.575626],"type":"Point"},"properties":{"osm_id":"5271434814","tag":{"amenity":"waste_basket"}},"type":"Feature"},
	{"geometry":{"coordinates":[1.484812,43.575553],"type":"Point"},"properties":{"osm_id":"5271434815","tag":{"amenity":"waste_basket"}},"type":"Feature"},
	{"geometry":{"coordinates":[1.424787,43.559352],"type":"Point"},"properties":{"osm_id":"5332983621","tag":{"amenity":"waste_basket"}},"type":"Feature"},
	{"geometry":{"coordinates":[1.424637,43.55937],"type":"Point"},"properties":{"osm_id":"5332983622","tag":{"amenity":"waste_basket"}},"type":"Feature"},
	{"geometry":{"coordinates":[1.429937,43.557612],"type":"Point"},"properties":{"osm_id":"5332983686","tag":{"amenity":"waste_basket"}},"type":"Feature"},
	{"geometry":{"coordinates":[1.430018,43.557511],"type":"Point"},"properties":{"osm_id":"5332983687","tag":{"amenity":"waste_basket"}},"type":"Feature"},
	{"geometry":{"coordinates":[1.430475,43.557564],"type":"Point"},"properties":{"osm_id":"5332983688","tag":{"amenity":"waste_basket"}},"type":"Feature"},
	{"geometry":{"coordinates":[1.468942,43.552556],"type":"Point"},"properties":{"osm_id":"5333486387","tag":{"amenity":"waste_basket"}},"type":"Feature"},
	{"geometry":{"coordinates":[1.468897,43.55288],"type":"Point"},"properties":{"osm_id":"5333486388","tag":{"amenity":"waste_basket"}},"type":"Feature"},
	{"geometry":{"coordinates":[1.467166,43.554622],"type":"Point"},"properties":{"osm_id":"5333486391","tag":{"amenity":"waste_basket"}},"type":"Feature"},
	{"geometry":{"coordinates":[1.466567,43.555746],"type":"Point"},"properties":{"osm_id":"5333486394","tag":{"amenity":"waste_basket"}},"type":"Feature"},
	{"geometry":{"coordinates":[1.468155,43.554642],"type":"Point"},"properties":{"osm_id":"5333486395","tag":{"amenity":"waste_basket"}},"type":"Feature"},
	{"geometry":{"coordinates":[1.424145,43.572912],"type":"Point"},"properties":{"osm_id":"5334031824","tag":{"amenity":"waste_basket"}},"type":"Feature"},
	{"geometry":{"coordinates":[1.424294,43.57344],"type":"Point"},"properties":{"osm_id":"5334031825","tag":{"amenity":"waste_basket"}},"type":"Feature"},
	{"geometry":{"coordinates":[1.42448,43.571434],"type":"Point"},"properties":{"osm_id":"5334031828","tag":{"amenity":"waste_basket"}},"type":"Feature"},
	{"geometry":{"coordinates":[1.4243,43.570314],"type":"Point"},"properties":{"osm_id":"5334031830","tag":{"amenity":"waste_basket"}},"type":"Feature"},
	{"geometry":{"coordinates":[1.42033,43.570389],"type":"Point"},"properties":{"osm_id":"5334031833","tag":{"amenity":"waste_basket"}},"type":"Feature"},
	{"geometry":{"coordinates":[1.419969,43.570573],"type":"Point"},"properties":{"osm_id":"5334031834","tag":{"amenity":"waste_basket"}},"type":"Feature"},
	{"geometry":{"coordinates":[1.416816,43.570906],"type":"Point"},"properties":{"osm_id":"5334031835","tag":{"amenity":"waste_basket"}},"type":"Feature"},
	{"geometry":{"coordinates":[1.417216,43.570988],"type":"Point"},"properties":{"osm_id":"5334031838","tag":{"amenity":"waste_basket"}},"type":"Feature"},
	{"geometry":{"coordinates":[1.412254,43.576356],"type":"Point"},"properties":{"osm_id":"5339441795","tag":{"amenity":"waste_basket"}},"type":"Feature"},
	{"geometry":{"coordinates":[1.412017,43.57418],"type":"Point"},"properties":{"osm_id":"5339441808","tag":{"amenity":"waste_basket"}},"type":"Feature"},
	{"geometry":{"coordinates":[1.412581,43.573923],"type":"Point"},"properties":{"osm_id":"5339441809","tag":{"amenity":"waste_basket"}},"type":"Feature"},
	{"geometry":{"coordinates":[1.454085,43.57712],"type":"Point"},"properties":{"osm_id":"5361674929","tag":{"amenity":"recycling","location":"overground","operator":"Toulouse M\u00c3\u00a9tropole","recycling:glass":"no","recycling:glass_bottles":"yes","recycling_type":"container"}},"type":"Feature"},
	{"geometry":{"coordinates":[1.474616,43.542768],"type":"Point"},"properties":{"osm_id":"5393818691","tag":{"amenity":"recycling","recycling:glass_bottles":"yes","recycling_type":"container"}},"type":"Feature"},
	{"geometry":{"coordinates":[1.475448,43.546006],"type":"Point"},"properties":{"osm_id":"5393828291","tag":{"amenity":"waste_basket"}},"type":"Feature"},
	{"geometry":{"coordinates":[1.469937,43.570516],"type":"Point"},"properties":{"osm_id":"5469119224","tag":{"amenity":"waste_basket"}},"type":"Feature"},
	{"geometry":{"coordinates":[1.46934,43.573987],"type":"Point"},"properties":{"man_made":"mast","osm_id":"5469143822","tag":{"amenity":"waste_basket","tower:type":"lighting"}},"type":"Feature"},
	{"geometry":{"coordinates":[1.46972,43.572508],"type":"Point"},"properties":{"osm_id":"5469143823","tag":{"amenity":"waste_basket"}},"type":"Feature"},
	{"geometry":{"coordinates":[1.470227,43.569941],"type":"Point"},"properties":{"osm_id":"5469195721","tag":{"amenity":"waste_basket"}},"type":"Feature"},
	{"geometry":{"coordinates":[1.475685,43.548525],"type":"Point"},"properties":{"osm_id":"5485015152","tag":{"amenity":"waste_basket"}},"type":"Feature"},
	{"geometry":{"coordinates":[1.474853,43.545883],"type":"Point"},"properties":{"osm_id":"5485015178","tag":{"amenity":"waste_basket"}},"type":"Feature"},
	{"geometry":{"coordinates":[1.475644,43.553553],"type":"Point"},"properties":{"osm_id":"5632343911","tag":{"amenity":"recycling","recycling:paper":"yes","recycling_type":"container"}},"type":"Feature"},
	{"geometry":{"coordinates":[1.474156,43.552741],"type":"Point"},"properties":{"osm_id":"5634889027","tag":{"amenity":"waste_basket"}},"type":"Feature"},
	{"geometry":{"coordinates":[1.469384,43.552169],"type":"Point"},"properties":{"osm_id":"5639640866","tag":{"amenity":"waste_basket"}},"type":"Feature"},
	{"geometry":{"coordinates":[1.469266,43.55107],"type":"Point"},"properties":{"osm_id":"5639660125","tag":{"amenity":"waste_basket"}},"type":"Feature"},
	{"geometry":{"coordinates":[1.469562,43.550911],"type":"Point"},"properties":{"osm_id":"5639660126","tag":{"amenity":"waste_basket"}},"type":"Feature"},
	{"geometry":{"coordinates":[1.469761,43.551357],"type":"Point"},"properties":{"osm_id":"5639660127","tag":{"amenity":"waste_basket"}},"type":"Feature"},
	{"geometry":{"coordinates":[1.473477,43.558903],"type":"Point"},"properties":{"osm_id":"5694325106","tag":{"amenity":"waste_basket"}},"type":"Feature"},
	{"geometry":{"coordinates":[1.473287,43.558908],"type":"Point"},"properties":{"osm_id":"5694325107","tag":{"amenity":"waste_basket"}},"type":"Feature"},
	{"geometry":{"coordinates":[1.480884,43.562537],"type":"Point"},"properties":{"osm_id":"5695196492","tag":{"amenity":"waste_basket"}},"type":"Feature"},
	{"geometry":{"coordinates":[1.481034,43.562569],"type":"Point"},"properties":{"osm_id":"5695196493","tag":{"amenity":"waste_basket"}},"type":"Feature"},
	{"geometry":{"coordinates":[1.474222,43.564156],"type":"Point"},"properties":{"osm_id":"5695196495","tag":{"amenity":"waste_basket"}},"type":"Feature"},
	{"geometry":{"coordinates":[1.474384,43.564188],"type":"Point"},"properties":{"osm_id":"5695196496","tag":{"amenity":"waste_basket"}},"type":"Feature"},
	{"geometry":{"coordinates":[1.478213,43.564524],"type":"Point"},"properties":{"osm_id":"5695196499","tag":{"amenity":"waste_basket"}},"type":"Feature"},
	{"geometry":{"coordinates":[1.478164,43.56463],"type":"Point"},"properties":{"osm_id":"5695196500","tag":{"amenity":"waste_basket"}},"type":"Feature"},
	{"geometry":{"coordinates":[1.490494,43.563936],"type":"Point"},"properties":{"osm_id":"5700544506","tag":{"amenity":"waste_basket"}},"type":"Feature"},
	{"geometry":{"coordinates":[1.490527,43.564049],"type":"Point"},"properties":{"osm_id":"5700544507","tag":{"amenity":"waste_basket"}},"type":"Feature"},
	{"geometry":{"coordinates":[1.473623,43.576056],"type":"Point"},"properties":{"osm_id":"5778889172","tag":{"amenity":"recycling","location":"overground","operator":"Toulouse M\u00c3\u00a9tropole","recycling:glass":"no","recycling:glass_bottles":"yes","recycling_type":"container"}},"type":"Feature"},
	{"geometry":{"coordinates":[1.468607,43.572338],"type":"Point"},"properties":{"osm_id":"5801777340","tag":{"amenity":"recycling","location":"overground","operator":"Toulouse M\u00c3\u00a9tropole","recycling:glass":"no","recycling:glass_bottles":"yes","recycling_type":"container"}},"type":"Feature"},
	{"geometry":{"coordinates":[1.490947,43.580033],"type":"Point"},"properties":{"osm_id":"5820284399","tag":{"amenity":"recycling","location":"overground","operator":"Toulouse M\u00c3\u00a9tropole","recycling:glass":"no","recycling:glass_bottles":"yes","recycling_type":"container"}},"type":"Feature"},
	{"geometry":{"coordinates":[1.488635,43.575745],"type":"Point"},"properties":{"osm_id":"5820481626","tag":{"amenity":"recycling","location":"overground","operator":"Toulouse M\u00c3\u00a9tropole","recycling:glass":"no","recycling:glass_bottles":"yes","recycling_type":"container"}},"type":"Feature"},
	{"geometry":{"coordinates":[1.478287,43.579151],"type":"Point"},"properties":{"osm_id":"5820512469","tag":{"amenity":"recycling","location":"overground","operator":"Toulouse M\u00c3\u00a9tropole","recycling:glass":"no","recycling:glass_bottles":"yes","recycling_type":"container"}},"type":"Feature"},
	{"geometry":{"coordinates":[1.472873,43.579689],"type":"Point"},"properties":{"osm_id":"5820523480","tag":{"amenity":"recycling","location":"overground","operator":"Toulouse M\u00c3\u00a9tropole","recycling:glass":"no","recycling:glass_bottles":"yes","recycling_type":"container"}},"type":"Feature"},
	{"geometry":{"coordinates":[1.475342,43.575829],"type":"Point"},"properties":{"osm_id":"5820570259","tag":{"amenity":"recycling","location":"overground","operator":"Toulouse M\u00c3\u00a9tropole","recycling:glass":"no","recycling:glass_bottles":"yes","recycling_type":"container"}},"type":"Feature"},
	{"geometry":{"coordinates":[1.474408,43.576377],"type":"Point"},"properties":{"osm_id":"5820570261","tag":{"amenity":"recycling","location":"overground","operator":"Toulouse M\u00c3\u00a9tropole","recycling:glass":"no","recycling:glass_bottles":"yes","recycling_type":"container"}},"type":"Feature"},
	{"geometry":{"coordinates":[1.465012,43.573827],"type":"Point"},"properties":{"osm_id":"5820584859","tag":{"amenity":"recycling","location":"overground","operator":"Toulouse M\u00c3\u00a9tropole","recycling:glass":"no","recycling:glass_bottles":"yes","recycling_type":"container"}},"type":"Feature"},
	{"geometry":{"coordinates":[1.462228,43.575836],"type":"Point"},"properties":{"osm_id":"5820590265","tag":{"amenity":"recycling","location":"overground","operator":"Toulouse M\u00c3\u00a9tropole","recycling:glass":"no","recycling:glass_bottles":"yes","recycling_type":"container"}},"type":"Feature"},
	{"geometry":{"coordinates":[1.458632,43.573803],"type":"Point"},"properties":{"osm_id":"5820600659","tag":{"amenity":"recycling","location":"overground","operator":"Toulouse M\u00c3\u00a9tropole","recycling:glass":"no","recycling:glass_bottles":"yes","recycling_type":"container"}},"type":"Feature"},
	{"geometry":{"coordinates":[1.459395,43.573324],"type":"Point"},"properties":{"osm_id":"5820600660","tag":{"amenity":"recycling","location":"overground","operator":"Toulouse M\u00c3\u00a9tropole","recycling:glass":"no","recycling:glass_bottles":"yes","recycling_type":"container"}},"type":"Feature"},
	{"geometry":{"coordinates":[1.461363,43.572296],"type":"Point"},"properties":{"osm_id":"5820600661","tag":{"amenity":"recycling","location":"overground","operator":"Toulouse M\u00c3\u00a9tropole","recycling:glass":"no","recycling:glass_bottles":"yes","recycling_type":"container"}},"type":"Feature"},
	{"geometry":{"coordinates":[1.455282,43.575918],"type":"Point"},"properties":{"osm_id":"5820626515","tag":{"amenity":"recycling","location":"overground","operator":"Toulouse M\u00c3\u00a9tropole","recycling:glass":"no","recycling:glass_bottles":"yes","recycling_type":"container"}},"type":"Feature"},
	{"geometry":{"coordinates":[1.456354,43.579421],"type":"Point"},"properties":{"osm_id":"5820647053","tag":{"amenity":"recycling","location":"overground","operator":"Toulouse M\u00c3\u00a9tropole","recycling:clothes":"yes","recycling_type":"container"}},"type":"Feature"},
	{"geometry":{"coordinates":[1.456205,43.579543],"type":"Point"},"properties":{"osm_id":"5820647054","tag":{"amenity":"recycling","location":"overground","operator":"Toulouse M\u00c3\u00a9tropole","recycling:glass":"no","recycling:glass_bottles":"yes","recycling_type":"container"}},"type":"Feature"},
	{"geometry":{"coordinates":[1.450252,43.578054],"type":"Point"},"properties":{"osm_id":"5820647060","tag":{"amenity":"recycling","location":"overground","operator":"Toulouse M\u00c3\u00a9tropole","recycling:glass":"no","recycling:glass_bottles":"yes","recycling_type":"container"}},"type":"Feature"},
	{"geometry":{"coordinates":[1.460028,43.576866],"type":"Point"},"properties":{"osm_id":"5820647548","tag":{"amenity":"recycling","location":"overground","operator":"Toulouse M\u00c3\u00a9tropole","recycling:clothes":"yes","recycling:glass":"no","recycling:glass_bottles":"yes","recycling_type":"container"}},"type":"Feature"},
	{"geometry":{"coordinates":[1.464258,43.577146],"type":"Point"},"properties":{"osm_id":"5820652424","tag":{"amenity":"recycling","location":"overground","operator":"Toulouse M\u00c3\u00a9tropole","recycling:glass":"no","recycling:glass_bottles":"yes","recycling_type":"container"}},"type":"Feature"},
	{"geometry":{"coordinates":[1.448588,43.573882],"type":"Point"},"properties":{"osm_id":"5820699116","tag":{"amenity":"recycling","location":"overground","operator":"Toulouse M\u00c3\u00a9tropole","recycling:clothes":"yes","recycling:glass":"no","recycling:glass_bottles":"yes","recycling_type":"container"}},"type":"Feature"},
	{"geometry":{"coordinates":[1.449468,43.574783],"type":"Point"},"properties":{"osm_id":"5820714512","tag":{"amenity":"recycling","location":"overground","operator":"Toulouse M\u00c3\u00a9tropole","recycling:clothes":"yes","recycling:glass":"no","recycling:glass_bottles":"yes","recycling_type":"container"}},"type":"Feature"},
	{"geometry":{"coordinates":[1.446745,43.575163],"type":"Point"},"properties":{"osm_id":"5820714514","tag":{"amenity":"recycling","location":"overground","operator":"Toulouse M\u00c3\u00a9tropole","recycling:clothes":"yes","recycling:glass":"no","recycling:glass_bottles":"yes","recycling_type":"container"}},"type":"Feature"},
	{"geometry":{"coordinates":[1.446705,43.578782],"type":"Point"},"properties":{"osm_id":"5820715954","tag":{"amenity":"recycling","location":"overground","operator":"Toulouse M\u00c3\u00a9tropole","recycling:glass":"no","recycling:glass_bottles":"yes","recycling_type":"container"}},"type":"Feature"},
	{"geometry":{"coordinates":[1.443283,43.578265],"type":"Point"},"properties":{"osm_id":"5820736999","tag":{"amenity":"recycling","location":"overground","operator":"Toulouse M\u00c3\u00a9tropole","recycling:clothes":"yes","recycling:glass":"no","recycling:glass_bottles":"yes","recycling_type":"container"}},"type":"Feature"},
	{"geometry":{"coordinates":[1.439362,43.577267],"type":"Point"},"properties":{"osm_id":"5820768820","tag":{"amenity":"recycling","location":"overground","operator":"Toulouse M\u00c3\u00a9tropole","recycling:clothes":"yes","recycling:glass":"no","recycling:glass_bottles":"yes","recycling_type":"container"}},"type":"Feature"},
	{"geometry":{"coordinates":[1.439754,43.576154],"type":"Point"},"properties":{"osm_id":"5820768836","tag":{"amenity":"recycling","location":"overground","operator":"Toulouse M\u00c3\u00a9tropole","recycling:glass":"no","recycling:glass_bottles":"yes","recycling_type":"container"}},"type":"Feature"},
	{"geometry":{"coordinates":[1.445725,43.579802],"type":"Point"},"properties":{"osm_id":"5820768839","tag":{"amenity":"recycling","location":"overground","operator":"Toulouse M\u00c3\u00a9tropole","recycling:glass":"no","recycling:glass_bottles":"yes","recycling_type":"container"}},"type":"Feature"},
	{"geometry":{"coordinates":[1.434602,43.579943],"type":"Point"},"properties":{"osm_id":"5822275720","tag":{"amenity":"recycling","location":"overground","operator":"Toulouse M\u00c3\u00a9tropole","recycling:glass":"no","recycling:glass_bottles":"yes","recycling_type":"container"}},"type":"Feature"},
	{"geometry":{"coordinates":[1.433991,43.576609],"type":"Point"},"properties":{"osm_id":"5822321556","tag":{"amenity":"recycling","location":"overground","operator":"Toulouse M\u00c3\u00a9tropole","recycling:glass":"no","recycling:glass_bottles":"yes","recycling_type":"container"}},"type":"Feature"},
	{"geometry":{"coordinates":[1.454545,43.571018],"type":"Point"},"properties":{"osm_id":"5822441857","tag":{"amenity":"recycling","location":"overground","operator":"Toulouse M\u00c3\u00a9tropole","recycling:glass":"no","recycling:glass_bottles":"yes","recycling_type":"container"}},"type":"Feature"},
	{"geometry":{"coordinates":[1.457353,43.57178],"type":"Point"},"properties":{"osm_id":"5822454129","tag":{"amenity":"recycling","location":"overground","operator":"Toulouse M\u00c3\u00a9tropole","recycling:clothes":"yes","recycling:glass":"no","recycling:glass_bottles":"yes","recycling_type":"container"}},"type":"Feature"},
	{"geometry":{"coordinates":[1.456419,43.568952],"type":"Point"},"properties":{"osm_id":"5822454130","tag":{"amenity":"recycling","location":"overground","operator":"Toulouse M\u00c3\u00a9tropole","recycling:glass":"no","recycling:glass_bottles":"yes","recycling_type":"container"}},"type":"Feature"},
	{"geometry":{"coordinates":[1.458417,43.566765],"type":"Point"},"properties":{"osm_id":"5822476551","tag":{"amenity":"recycling","location":"overground","operator":"Toulouse M\u00c3\u00a9tropole","recycling:glass":"no","recycling:glass_bottles":"yes","recycling_type":"container"}},"type":"Feature"},
	{"geometry":{"coordinates":[1.471951,43.570317],"type":"Point"},"properties":{"osm_id":"5822515781","tag":{"amenity":"recycling","location":"overground","operator":"Toulouse M\u00c3\u00a9tropole","recycling:glass":"no","recycling:glass_bottles":"yes","recycling_type":"container"}},"type":"Feature"},
	{"geometry":{"coordinates":[1.47123,43.57102],"type":"Point"},"properties":{"osm_id":"5822515782","tag":{"amenity":"recycling","location":"overground","operator":"Toulouse M\u00c3\u00a9tropole","recycling:glass":"no","recycling:glass_bottles":"yes","recycling_type":"container"}},"type":"Feature"},
	{"geometry":{"coordinates":[1.473903,43.564326],"type":"Point"},"properties":{"osm_id":"5822565191","tag":{"amenity":"waste_disposal"}},"type":"Feature"},
	{"geometry":{"coordinates":[1.472377,43.567234],"type":"Point"},"properties":{"osm_id":"5822565251","tag":{"amenity":"recycling","location":"overground","operator":"Toulouse M\u00c3\u00a9tropole","recycling:glass":"no","recycling:glass_bottles":"yes","recycling_type":"container"}},"type":"Feature"},
	{"geometry":{"coordinates":[1.467104,43.557556],"type":"Point"},"properties":{"osm_id":"5822628046","tag":{"amenity":"waste_disposal"}},"type":"Feature"},
	{"geometry":{"coordinates":[1.457198,43.560251],"type":"Point"},"properties":{"osm_id":"5822649561","tag":{"amenity":"recycling","location":"overground","operator":"Toulouse M\u00c3\u00a9tropole","recycling:glass":"no","recycling:glass_bottles":"yes","recycling_type":"container"}},"type":"Feature"},
	{"geometry":{"coordinates":[1.464612,43.565289],"type":"Point"},"properties":{"osm_id":"5822649562","tag":{"amenity":"recycling","location":"overground","operator":"Toulouse M\u00c3\u00a9tropole","recycling:glass":"no","recycling:glass_bottles":"yes","recycling_type":"container"}},"type":"Feature"},
	{"geometry":{"coordinates":[1.462898,43.562856],"type":"Point"},"properties":{"osm_id":"5822649563","tag":{"amenity":"recycling","location":"overground","operator":"Toulouse M\u00c3\u00a9tropole","recycling:glass":"no","recycling:glass_bottles":"yes","recycling_type":"container"}},"type":"Feature"},
	{"geometry":{"coordinates":[1.458249,43.564216],"type":"Point"},"properties":{"osm_id":"5822655402","tag":{"amenity":"recycling","location":"overground","operator":"Toulouse M\u00c3\u00a9tropole","recycling:glass":"no","recycling:glass_bottles":"yes","recycling_type":"container"}},"type":"Feature"},
	{"geometry":{"coordinates":[1.444488,43.571577],"type":"Point"},"properties":{"osm_id":"5824914354","tag":{"amenity":"recycling","location":"overground","operator":"Toulouse M\u00c3\u00a9tropole","recycling:glass":"no","recycling:glass_bottles":"yes","recycling_type":"container"}},"type":"Feature"},
	{"geometry":{"coordinates":[1.445007,43.572124],"type":"Point"},"properties":{"osm_id":"5824914355","tag":{"amenity":"recycling","location":"overground","operator":"Toulouse M\u00c3\u00a9tropole","recycling:glass":"no","recycling:glass_bottles":"yes","recycling_type":"container"}},"type":"Feature"},
	{"geometry":{"coordinates":[1.450184,43.571008],"type":"Point"},"properties":{"osm_id":"5824934378","tag":{"amenity":"recycling","location":"overground","operator":"Toulouse M\u00c3\u00a9tropole","recycling:glass":"no","recycling:glass_bottles":"yes","recycling_type":"container"}},"type":"Feature"},
	{"geometry":{"coordinates":[1.448187,43.570056],"type":"Point"},"properties":{"osm_id":"5824934379","tag":{"amenity":"recycling","location":"overground","operator":"Toulouse M\u00c3\u00a9tropole","recycling:glass":"no","recycling:glass_bottles":"yes","recycling_type":"container"}},"type":"Feature"},
	{"geometry":{"coordinates":[1.451939,43.567618],"type":"Point"},"properties":{"osm_id":"5824941311","tag":{"amenity":"recycling","location":"overground","operator":"Toulouse M\u00c3\u00a9tropole","recycling:glass":"no","recycling:glass_bottles":"yes","recycling_type":"container"}},"type":"Feature"},
	{"geometry":{"coordinates":[1.453002,43.566517],"type":"Point"},"properties":{"osm_id":"5824945324","tag":{"amenity":"recycling","location":"overground","operator":"Toulouse M\u00c3\u00a9tropole","recycling:clothes":"yes","recycling:glass":"no","recycling:glass_bottles":"yes","recycling_type":"container"}},"type":"Feature"},
	{"geometry":{"coordinates":[1.4483,43.560683],"type":"Point"},"properties":{"osm_id":"5824960837","tag":{"amenity":"recycling","location":"overground","operator":"Toulouse M\u00c3\u00a9tropole","recycling:clothes":"yes","recycling_type":"container"}},"type":"Feature"},
	{"geometry":{"coordinates":[1.44889,43.562108],"type":"Point"},"properties":{"osm_id":"5824960838","tag":{"amenity":"waste_disposal"}},"type":"Feature"},
	{"geometry":{"coordinates":[1.448015,43.562011],"type":"Point"},"properties":{"osm_id":"5824960962","tag":{"amenity":"recycling","location":"overground","operator":"Toulouse M\u00c3\u00a9tropole","recycling:clothes":"yes","recycling:glass":"no","recycling:glass_bottles":"yes","recycling_type":"container"}},"type":"Feature"},
	{"geometry":{"coordinates":[1.439588,43.561495],"type":"Point"},"properties":{"osm_id":"5824962881","tag":{"amenity":"recycling","location":"overground","operator":"Toulouse M\u00c3\u00a9tropole","recycling:glass":"no","recycling:glass_bottles":"yes","recycling_type":"container"}},"type":"Feature"},
	{"geometry":{"coordinates":[1.440753,43.55825],"type":"Point"},"properties":{"osm_id":"5824962882","tag":{"amenity":"recycling","location":"overground","operator":"Toulouse M\u00c3\u00a9tropole","recycling:glass":"no","recycling:glass_bottles":"yes","recycling_type":"container"}},"type":"Feature"},
	{"geometry":{"coordinates":[1.449031,43.554245],"type":"Point"},"properties":{"osm_id":"5824967050","tag":{"amenity":"waste_basket"}},"type":"Feature"},
	{"geometry":{"coordinates":[1.447847,43.556416],"type":"Point"},"properties":{"osm_id":"5824967052","tag":{"amenity":"waste_basket"}},"type":"Feature"},
	{"geometry":{"coordinates":[1.489097,43.54233],"type":"Point"},"properties":{"osm_id":"5828948625","tag":{"amenity":"recycling","recycling:glass":"no","recycling:glass_bottles":"yes","recycling_type":"container"}},"type":"Feature"},
	{"geometry":{"coordinates":[1.407444,43.572637],"type":"Point"},"properties":{"osm_id":"5836478470","tag":{"amenity":"recycling","location":"overground","operator":"Toulouse M\u00c3\u00a9tropole","recycling:glass":"no","recycling:glass_bottles":"yes","recycling_type":"container"}},"type":"Feature"},
	{"geometry":{"coordinates":[1.407234,43.571193],"type":"Point"},"properties":{"osm_id":"5836480712","tag":{"amenity":"recycling","location":"overground","operator":"Toulouse M\u00c3\u00a9tropole","recycling:glass":"no","recycling:glass_bottles":"yes","recycling_type":"container"}},"type":"Feature"},
	{"geometry":{"coordinates":[1.407224,43.57083],"type":"Point"},"properties":{"osm_id":"5836518625","tag":{"amenity":"recycling","location":"overground","operator":"Toulouse M\u00c3\u00a9tropole","recycling:glass":"no","recycling:glass_bottles":"yes","recycling_type":"container"}},"type":"Feature"},
	{"geometry":{"coordinates":[1.411791,43.566698],"type":"Point"},"properties":{"osm_id":"5836547980","tag":{"amenity":"recycling","location":"overground","operator":"Toulouse M\u00c3\u00a9tropole","recycling:glass":"no","recycling:glass_bottles":"yes","recycling_type":"container"}},"type":"Feature"},
	{"geometry":{"coordinates":[1.411002,43.567035],"type":"Point"},"properties":{"osm_id":"5836549699","tag":{"amenity":"recycling","location":"overground","operator":"Toulouse M\u00c3\u00a9tropole","recycling:glass":"no","recycling:glass_bottles":"yes","recycling_type":"container"}},"type":"Feature"},
	{"geometry":{"coordinates":[1.412962,43.568785],"type":"Point"},"properties":{"osm_id":"5836549700","tag":{"amenity":"recycling","location":"overground","operator":"Toulouse M\u00c3\u00a9tropole","recycling:glass":"no","recycling:glass_bottles":"yes","recycling_type":"container"}},"type":"Feature"},
	{"geometry":{"coordinates":[1.410674,43.569318],"type":"Point"},"properties":{"osm_id":"5836549701","tag":{"amenity":"recycling","location":"overground","operator":"Toulouse M\u00c3\u00a9tropole","recycling:glass":"no","recycling:glass_bottles":"yes","recycling_type":"container"}},"type":"Feature"},
	{"geometry":{"coordinates":[1.410185,43.564903],"type":"Point"},"properties":{"osm_id":"5836564772","tag":{"amenity":"recycling","location":"overground","operator":"Toulouse M\u00c3\u00a9tropole","recycling:glass":"no","recycling:glass_bottles":"yes","recycling_type":"container"}},"type":"Feature"},
	{"geometry":{"coordinates":[1.413191,43.564278],"type":"Point"},"properties":{"osm_id":"5836564773","tag":{"amenity":"recycling","location":"overground","operator":"Toulouse M\u00c3\u00a9tropole","recycling:clothes":"yes","recycling:glass":"no","recycling:glass_bottles":"yes","recycling_type":"container"}},"type":"Feature"},
	{"geometry":{"coordinates":[1.414983,43.565527],"type":"Point"},"properties":{"osm_id":"5836564774","tag":{"amenity":"recycling","location":"overground","operator":"Toulouse M\u00c3\u00a9tropole","recycling:clothes":"yes","recycling_type":"container"}},"type":"Feature"},
	{"geometry":{"coordinates":[1.406902,43.558586],"type":"Point"},"properties":{"osm_id":"5837970873","tag":{"amenity":"recycling","location":"overground","operator":"Toulouse M\u00c3\u00a9tropole","recycling:clothes":"yes","recycling:glass":"no","recycling:glass_bottles":"yes","recycling_type":"container"}},"type":"Feature"},
	{"geometry":{"coordinates":[1.413204,43.562872],"type":"Point"},"properties":{"osm_id":"5837999306","tag":{"amenity":"recycling","location":"overground","operator":"Toulouse M\u00c3\u00a9tropole","recycling:glass":"no","recycling:glass_bottles":"yes","recycling_type":"container"}},"type":"Feature"},
	{"geometry":{"coordinates":[1.412208,43.561737],"type":"Point"},"properties":{"osm_id":"5837999308","tag":{"amenity":"recycling","location":"overground","operator":"Toulouse M\u00c3\u00a9tropole","recycling:glass":"no","recycling:glass_bottles":"yes","recycling_type":"container"}},"type":"Feature"},
	{"geometry":{"coordinates":[1.412721,43.560826],"type":"Point"},"properties":{"osm_id":"5837999309","tag":{"amenity":"recycling","location":"overground","operator":"Toulouse M\u00c3\u00a9tropole","recycling:clothes":"yes","recycling_type":"container"}},"type":"Feature"},
	{"geometry":{"coordinates":[1.409083,43.560611],"type":"Point"},"properties":{"osm_id":"5837999335","tag":{"amenity":"recycling","location":"overground","operator":"Toulouse M\u00c3\u00a9tropole","recycling:clothes":"yes","recycling:glass":"no","recycling:glass_bottles":"yes","recycling_type":"container"}},"type":"Feature"},
	{"geometry":{"coordinates":[1.411053,43.559575],"type":"Point"},"properties":{"osm_id":"5837999336","tag":{"amenity":"recycling","location":"overground","operator":"Toulouse M\u00c3\u00a9tropole","recycling:glass":"no","recycling:glass_bottles":"yes","recycling_type":"container"}},"type":"Feature"},
	{"geometry":{"coordinates":[1.406808,43.553491],"type":"Point"},"properties":{"osm_id":"5838028211","tag":{"amenity":"recycling","location":"overground","operator":"Toulouse M\u00c3\u00a9tropole","recycling:glass":"no","recycling:glass_bottles":"yes","recycling_type":"container"}},"type":"Feature"},
	{"geometry":{"coordinates":[1.457121,43.529064],"type":"Point"},"properties":{"osm_id":"5863926212","tag":{"amenity":"recycling","recycling:glass_bottles":"yes","recycling_type":"container"}},"type":"Feature"},
	{"geometry":{"coordinates":[1.416286,43.577591],"type":"Point"},"properties":{"osm_id":"5929309116","tag":{"amenity":"recycling","location":"overground","operator":"Toulouse M\u00c3\u00a9tropole","recycling:glass":"no","recycling:glass_bottles":"yes","recycling_type":"container"}},"type":"Feature"},
	{"geometry":{"coordinates":[1.416727,43.578452],"type":"Point"},"properties":{"osm_id":"5929309117","tag":{"amenity":"recycling","location":"overground","operator":"Toulouse M\u00c3\u00a9tropole","recycling:glass":"no","recycling:glass_bottles":"yes","recycling_type":"container"}},"type":"Feature"},
	{"geometry":{"coordinates":[1.417197,43.579598],"type":"Point"},"properties":{"osm_id":"5929309123","tag":{"amenity":"recycling","location":"overground","operator":"Toulouse M\u00c3\u00a9tropole","recycling:glass":"no","recycling:glass_bottles":"yes","recycling_type":"container"}},"type":"Feature"},
	{"geometry":{"coordinates":[1.416567,43.580065],"type":"Point"},"properties":{"osm_id":"5929309124","tag":{"amenity":"recycling","location":"overground","operator":"Toulouse M\u00c3\u00a9tropole","recycling:clothes":"yes","recycling:glass":"no","recycling:glass_bottles":"yes","recycling_type":"container"}},"type":"Feature"},
	{"geometry":{"coordinates":[1.414885,43.579304],"type":"Point"},"properties":{"osm_id":"5929309125","tag":{"amenity":"recycling","location":"overground","operator":"Toulouse M\u00c3\u00a9tropole","recycling:glass":"no","recycling:glass_bottles":"yes","recycling_type":"container"}},"type":"Feature"},
	{"geometry":{"coordinates":[1.41399,43.578342],"type":"Point"},"properties":{"osm_id":"5929309130","tag":{"amenity":"recycling","location":"overground","operator":"Toulouse M\u00c3\u00a9tropole","recycling:glass":"no","recycling:glass_bottles":"yes","recycling_type":"container"}},"type":"Feature"},
	{"geometry":{"coordinates":[1.413112,43.578419],"type":"Point"},"properties":{"osm_id":"5929309131","tag":{"amenity":"recycling","location":"overground","operator":"Toulouse M\u00c3\u00a9tropole","recycling:glass":"no","recycling:glass_bottles":"yes","recycling_type":"container"}},"type":"Feature"},
	{"geometry":{"coordinates":[1.412296,43.579866],"type":"Point"},"properties":{"osm_id":"5929309132","tag":{"amenity":"recycling","location":"overground","operator":"Toulouse M\u00c3\u00a9tropole","recycling:glass":"no","recycling:glass_bottles":"yes","recycling_type":"container"}},"type":"Feature"},
	{"geometry":{"coordinates":[1.413752,43.573797],"type":"Point"},"properties":{"osm_id":"5929315655","tag":{"amenity":"recycling","location":"overground","operator":"Toulouse M\u00c3\u00a9tropole","recycling:clothes":"yes","recycling:glass":"no","recycling:glass_bottles":"yes","recycling_type":"container"}},"type":"Feature"},
	{"geometry":{"coordinates":[1.410509,43.574453],"type":"Point"},"properties":{"osm_id":"5929315657","tag":{"amenity":"recycling","location":"overground","operator":"Toulouse M\u00c3\u00a9tropole","recycling:glass":"no","recycling:glass_bottles":"yes","recycling_type":"container"}},"type":"Feature"},
	{"geometry":{"coordinates":[1.411535,43.575868],"type":"Point"},"properties":{"osm_id":"5929315663","tag":{"amenity":"recycling","location":"overground","operator":"Toulouse M\u00c3\u00a9tropole","recycling:glass":"no","recycling:glass_bottles":"yes","recycling_type":"container"}},"type":"Feature"},
	{"geometry":{"coordinates":[1.414657,43.576832],"type":"Point"},"properties":{"osm_id":"5929315666","tag":{"amenity":"recycling","location":"overground","operator":"Toulouse M\u00c3\u00a9tropole","recycling:glass":"no","recycling:glass_bottles":"yes","recycling_type":"container"}},"type":"Feature"},
	{"geometry":{"coordinates":[1.417327,43.576074],"type":"Point"},"properties":{"osm_id":"5929315667","tag":{"amenity":"recycling","location":"overground","operator":"Toulouse M\u00c3\u00a9tropole","recycling:glass":"no","recycling:glass_bottles":"yes","recycling_type":"container"}},"type":"Feature"},
	{"geometry":{"coordinates":[1.413562,43.570671],"type":"Point"},"properties":{"osm_id":"5929317978","tag":{"amenity":"recycling","location":"overground","operator":"Toulouse M\u00c3\u00a9tropole","recycling:glass":"no","recycling:glass_bottles":"yes","recycling_type":"container"}},"type":"Feature"},
	{"geometry":{"coordinates":[1.411948,43.572403],"type":"Point"},"properties":{"osm_id":"5929317979","tag":{"amenity":"recycling","location":"overground","operator":"Toulouse M\u00c3\u00a9tropole","recycling:clothes":"yes","recycling:glass":"no","recycling:glass_bottles":"yes","recycling_type":"container"}},"type":"Feature"},
	{"geometry":{"coordinates":[1.419509,43.573966],"type":"Point"},"properties":{"osm_id":"5929342940","tag":{"amenity":"recycling","location":"overground","operator":"Toulouse M\u00c3\u00a9tropole","recycling:glass":"no","recycling:glass_bottles":"yes","recycling_type":"container"}},"type":"Feature"},
	{"geometry":{"coordinates":[1.419891,43.572795],"type":"Point"},"properties":{"osm_id":"5929342960","tag":{"amenity":"recycling","location":"overground","operator":"Toulouse M\u00c3\u00a9tropole","recycling:glass":"no","recycling:glass_bottles":"yes","recycling_type":"container"}},"type":"Feature"},
	{"geometry":{"coordinates":[1.424318,43.570759],"type":"Point"},"properties":{"osm_id":"5929368218","tag":{"amenity":"recycling","location":"overground","operator":"Toulouse M\u00c3\u00a9tropole","recycling:glass":"no","recycling:glass_bottles":"yes","recycling_type":"container"}},"type":"Feature"},
	{"geometry":{"coordinates":[1.423944,43.578012],"type":"Point"},"properties":{"osm_id":"5929368232","tag":{"amenity":"recycling","location":"overground","operator":"Toulouse M\u00c3\u00a9tropole","recycling:glass":"no","recycling:glass_bottles":"yes","recycling_type":"container"}},"type":"Feature"},
	{"geometry":{"coordinates":[1.422132,43.57711],"type":"Point"},"properties":{"osm_id":"5929368233","tag":{"amenity":"recycling","location":"overground","operator":"Toulouse M\u00c3\u00a9tropole","recycling:clothes":"yes","recycling:glass":"no","recycling:glass_bottles":"yes","recycling_type":"container"}},"type":"Feature"},
	{"geometry":{"coordinates":[1.423956,43.575039],"type":"Point"},"properties":{"osm_id":"5929368234","tag":{"amenity":"recycling","location":"overground","operator":"Toulouse M\u00c3\u00a9tropole","recycling:glass":"no","recycling:glass_bottles":"yes","recycling_type":"container"}},"type":"Feature"},
	{"geometry":{"coordinates":[1.491786,43.571601],"type":"Point"},"properties":{"osm_id":"5933917920","tag":{"amenity":"waste_basket"}},"type":"Feature"},
	{"geometry":{"coordinates":[1.415948,43.552993],"type":"Point"},"properties":{"osm_id":"5949041461","tag":{"amenity":"recycling","location":"overground","operator":"Toulouse M\u00c3\u00a9tropole","recycling:glass":"no","recycling:glass_bottles":"yes","recycling_type":"container"}},"type":"Feature"},
	{"geometry":{"coordinates":[1.422637,43.554129],"type":"Point"},"properties":{"osm_id":"5949041470","tag":{"amenity":"recycling","location":"overground","operator":"Toulouse M\u00c3\u00a9tropole","recycling:glass":"no","recycling:glass_bottles":"yes","recycling_type":"container"}},"type":"Feature"},
	{"geometry":{"coordinates":[1.418143,43.557536],"type":"Point"},"properties":{"osm_id":"5949046395","tag":{"amenity":"recycling","location":"overground","operator":"Toulouse M\u00c3\u00a9tropole","recycling:glass":"no","recycling:glass_bottles":"yes","recycling_type":"container"}},"type":"Feature"},
	{"geometry":{"coordinates":[1.424431,43.559931],"type":"Point"},"properties":{"osm_id":"5949046403","tag":{"amenity":"recycling","location":"overground","operator":"Toulouse M\u00c3\u00a9tropole","recycling:glass":"no","recycling:glass_bottles":"yes","recycling_type":"container"}},"type":"Feature"},
	{"geometry":{"coordinates":[1.426391,43.56296],"type":"Point"},"properties":{"osm_id":"5949054496","tag":{"amenity":"recycling","location":"overground","operator":"Toulouse M\u00c3\u00a9tropole","recycling:glass":"no","recycling:glass_bottles":"yes","recycling_type":"container"}},"type":"Feature"},
	{"geometry":{"coordinates":[1.430049,43.557363],"type":"Point"},"properties":{"osm_id":"5949054497","tag":{"amenity":"recycling","location":"overground","operator":"Toulouse M\u00c3\u00a9tropole","recycling:glass":"no","recycling:glass_bottles":"yes","recycling_type":"container"}},"type":"Feature"},
	{"geometry":{"coordinates":[1.431997,43.554735],"type":"Point"},"properties":{"osm_id":"5949054498","tag":{"amenity":"recycling","location":"overground","operator":"Toulouse M\u00c3\u00a9tropole","recycling:glass":"no","recycling:glass_bottles":"yes","recycling_type":"container"}},"type":"Feature"},
	{"geometry":{"coordinates":[1.41447,43.549486],"type":"Point"},"properties":{"osm_id":"5949054500","tag":{"amenity":"recycling","location":"overground","operator":"Toulouse M\u00c3\u00a9tropole","recycling:glass":"no","recycling:glass_bottles":"yes","recycling_type":"container"}},"type":"Feature"},
	{"geometry":{"coordinates":[1.434014,43.5717],"type":"Point"},"properties":{"osm_id":"5949066080","tag":{"amenity":"recycling","location":"overground","operator":"Toulouse M\u00c3\u00a9tropole","recycling:glass":"no","recycling:glass_bottles":"yes","recycling_type":"container"}},"type":"Feature"},
	{"geometry":{"coordinates":[1.449673,43.54221],"type":"Point"},"properties":{"osm_id":"5949097570","tag":{"amenity":"recycling","location":"overground","operator":"Toulouse M\u00c3\u00a9tropole","recycling:glass":"no","recycling:glass_bottles":"yes","recycling_type":"container"}},"type":"Feature"},
	{"geometry":{"coordinates":[1.453177,43.546186],"type":"Point"},"properties":{"osm_id":"5949106259","tag":{"amenity":"recycling","location":"overground","operator":"Toulouse M\u00c3\u00a9tropole","recycling:glass":"no","recycling:glass_bottles":"yes","recycling_type":"container"}},"type":"Feature"},
	{"geometry":{"coordinates":[1.451937,43.54531],"type":"Point"},"properties":{"osm_id":"5949106267","tag":{"amenity":"recycling","location":"overground","operator":"Toulouse M\u00c3\u00a9tropole","recycling:glass":"no","recycling:glass_bottles":"yes","recycling_type":"container"}},"type":"Feature"},
	{"geometry":{"coordinates":[1.45803,43.552048],"type":"Point"},"properties":{"osm_id":"5951089330","tag":{"amenity":"recycling","location":"overground","operator":"Toulouse M\u00c3\u00a9tropole","recycling:glass":"no","recycling:glass_bottles":"yes","recycling_type":"container"}},"type":"Feature"},
	{"geometry":{"coordinates":[1.456142,43.557719],"type":"Point"},"properties":{"osm_id":"5951089331","tag":{"amenity":"recycling","location":"overground","operator":"Toulouse M\u00c3\u00a9tropole","recycling:clothes":"yes","recycling:glass":"no","recycling:glass_bottles":"yes","recycling_type":"container"}},"type":"Feature"},
	{"geometry":{"coordinates":[1.452334,43.554236],"type":"Point"},"properties":{"osm_id":"5951097032","tag":{"amenity":"recycling","location":"overground","operator":"Toulouse M\u00c3\u00a9tropole","recycling:glass":"no","recycling:glass_bottles":"yes","recycling_type":"container"}},"type":"Feature"},
	{"geometry":{"coordinates":[1.452055,43.553082],"type":"Point"},"properties":{"osm_id":"5951098385","tag":{"amenity":"recycling","location":"overground","operator":"Toulouse M\u00c3\u00a9tropole","recycling:clothes":"yes","recycling_type":"container"}},"type":"Feature"},
	{"geometry":{"coordinates":[1.455544,43.548599],"type":"Point"},"properties":{"osm_id":"5951105359","tag":{"amenity":"recycling","location":"overground","operator":"Toulouse M\u00c3\u00a9tropole","recycling:glass":"no","recycling:glass_bottles":"yes","recycling_type":"container"}},"type":"Feature"},
	{"geometry":{"coordinates":[1.481088,43.554884],"type":"Point"},"properties":{"osm_id":"5951115510","tag":{"amenity":"recycling","location":"overground","operator":"Toulouse M\u00c3\u00a9tropole","recycling:glass":"no","recycling:glass_bottles":"yes","recycling_type":"container"}},"type":"Feature"},
	{"geometry":{"coordinates":[1.423753,43.579733],"type":"Point"},"properties":{"osm_id":"5951127562","tag":{"amenity":"recycling","location":"overground","operator":"Toulouse M\u00c3\u00a9tropole","recycling:glass":"no","recycling:glass_bottles":"yes","recycling_type":"container"}},"type":"Feature"},
	{"geometry":{"coordinates":[1.427173,43.578584],"type":"Point"},"properties":{"osm_id":"5951127563","tag":{"amenity":"recycling","location":"overground","operator":"Toulouse M\u00c3\u00a9tropole","recycling:glass":"no","recycling:glass_bottles":"yes","recycling_type":"container"}},"type":"Feature"},
	{"geometry":{"coordinates":[1.419902,43.579486],"type":"Point"},"properties":{"osm_id":"5951134244","tag":{"amenity":"recycling","location":"overground","operator":"Toulouse M\u00c3\u00a9tropole","recycling:glass":"no","recycling:glass_bottles":"yes","recycling_type":"container"}},"type":"Feature"},
	{"geometry":{"coordinates":[1.476775,43.574891],"type":"Point"},"properties":{"osm_id":"5954589112","tag":{"amenity":"recycling","location":"overground","operator":"Toulouse M\u00c3\u00a9tropole","recycling:glass":"no","recycling:glass_bottles":"yes","recycling_type":"container"}},"type":"Feature"},
	{"geometry":{"coordinates":[1.465564,43.569028],"type":"Point"},"properties":{"osm_id":"5954669115","tag":{"amenity":"recycling","location":"overground","operator":"Toulouse M\u00c3\u00a9tropole","recycling:glass":"no","recycling:glass_bottles":"yes","recycling_type":"container"}},"type":"Feature"},
	{"geometry":{"coordinates":[1.419773,43.573039],"type":"Point"},"properties":{"osm_id":"6121158801","tag":{"amenity":"waste_basket"}},"type":"Feature"},
	{"geometry":{"coordinates":[1.479752,43.549799],"type":"Point"},"properties":{"osm_id":"6152445404","tag":{"amenity":"recycling","recycling:glass_bottles":"yes","recycling_type":"container"}},"type":"Feature"},
	{"geometry":{"coordinates":[1.487418,43.57341],"type":"Point"},"properties":{"osm_id":"6164350795","tag":{"amenity":"waste_basket"}},"type":"Feature"},
	{"geometry":{"coordinates":[1.487465,43.573598],"type":"Point"},"properties":{"osm_id":"6164350796","tag":{"amenity":"waste_basket"}},"type":"Feature"},
	{"geometry":{"coordinates":[1.487616,43.57323],"type":"Point"},"properties":{"osm_id":"6164350806","tag":{"amenity":"waste_basket"}},"type":"Feature"},
	{"geometry":{"coordinates":[1.483874,43.541124],"type":"Point"},"properties":{"osm_id":"6225077878","tag":{"amenity":"waste_basket"}},"type":"Feature"},
	{"geometry":{"coordinates":[1.484096,43.541153],"type":"Point"},"properties":{"osm_id":"6225077881","tag":{"amenity":"waste_basket"}},"type":"Feature"},
	{"geometry":{"coordinates":[1.484383,43.541202],"type":"Point"},"properties":{"osm_id":"6225077883","tag":{"amenity":"waste_basket"}},"type":"Feature"},
	{"geometry":{"coordinates":[1.484825,43.541179],"type":"Point"},"properties":{"osm_id":"6225078485","tag":{"amenity":"waste_basket"}},"type":"Feature"},
	{"geometry":{"coordinates":[1.440488,43.577686],"type":"Point"},"properties":{"osm_id":"6238792436","tag":{"amenity":"waste_basket"}},"type":"Feature"},
	{"geometry":{"coordinates":[1.440729,43.577842],"type":"Point"},"properties":{"osm_id":"6238792438","tag":{"amenity":"waste_basket"}},"type":"Feature"},
	{"geometry":{"coordinates":[1.478331,43.547472],"type":"Point"},"properties":{"osm_id":"6247832540","tag":{"amenity":"waste_basket"}},"type":"Feature"},
	{"geometry":{"coordinates":[1.479201,43.547367],"type":"Point"},"properties":{"osm_id":"6247884654","tag":{"amenity":"waste_basket"}},"type":"Feature"},
	{"geometry":{"coordinates":[1.479339,43.547106],"type":"Point"},"properties":{"osm_id":"6247884655","tag":{"amenity":"waste_basket"}},"type":"Feature"},
	{"geometry":{"coordinates":[1.479111,43.547094],"type":"Point"},"properties":{"osm_id":"6247884656","tag":{"amenity":"waste_basket"}},"type":"Feature"},
	{"geometry":{"coordinates":[1.485493,43.540837],"type":"Point"},"properties":{"osm_id":"6254537632","tag":{"amenity":"waste_basket"}},"type":"Feature"},
	{"geometry":{"coordinates":[1.479918,43.540869],"type":"Point"},"properties":{"osm_id":"6257818200","tag":{"amenity":"recycling","recycling:glass_bottles":"yes","recycling_type":"container"}},"type":"Feature"},
	{"geometry":{"coordinates":[1.468971,43.551077],"type":"Point"},"properties":{"osm_id":"6257845208","tag":{"amenity":"recycling","opening_hours":"24/7","operator":"Le Relais","recycling:clothes":"yes","recycling_type":"container","website":"https://www.lerelais.org"}},"type":"Feature"},
	{"geometry":{"coordinates":[1.477776,43.542948],"type":"Point"},"properties":{"osm_id":"6259846982","tag":{"amenity":"recycling","recycling:glass_bottles":"yes","recycling_type":"container"}},"type":"Feature"},
	{"geometry":{"coordinates":[1.477113,43.554859],"type":"Point"},"properties":{"osm_id":"6268172227","tag":{"amenity":"waste_basket"}},"type":"Feature"},
	{"geometry":{"coordinates":[1.485353,43.541129],"type":"Point"},"properties":{"osm_id":"6433775053","tag":{"amenity":"waste_basket"}},"type":"Feature"},
	{"geometry":{"coordinates":[1.486165,43.540886],"type":"Point"},"properties":{"osm_id":"6433781183","tag":{"amenity":"waste_basket"}},"type":"Feature"},
	{"geometry":{"coordinates":[1.486379,43.541004],"type":"Point"},"properties":{"osm_id":"6433782186","tag":{"amenity":"waste_basket"}},"type":"Feature"},
	{"geometry":{"coordinates":[1.447162,43.550478],"type":"Point"},"properties":{"osm_id":"6441535434","tag":{"amenity":"recycling","opening_hours":"24/7","recycling:glass_bottles":"yes","recycling_type":"container"}},"type":"Feature"},
	{"geometry":{"coordinates":[1.483184,43.553941],"type":"Point"},"properties":{"osm_id":"6447962957","tag":{"amenity":"recycling","opening_hours":"24/7","recycling:glass_bottles":"yes","recycling_type":"container"}},"type":"Feature"},
	{"geometry":{"coordinates":[1.469053,43.550999],"type":"Point"},"properties":{"osm_id":"6448008878","tag":{"amenity":"recycling","opening_hours":"24/7","recycling:glass_bottles":"yes","recycling_type":"container"}},"type":"Feature"},
	{"geometry":{"coordinates":[1.468962,43.551075],"type":"Point"},"properties":{"osm_id":"6448012918","tag":{"amenity":"recycling","opening_hours":"24/7","operator":"Le Relais","recycling:clothes":"yes","recycling_type":"container","website":"https://www.lerelais.org"}},"type":"Feature"},
	{"geometry":{"coordinates":[1.476438,43.556485],"type":"Point"},"properties":{"osm_id":"6481422233","tag":{"amenity":"recycling","opening_hours":"24/7","recycling:clothes":"yes","recycling_type":"container"}},"type":"Feature"},
	{"geometry":{"coordinates":[1.468157,43.555053],"type":"Point"},"properties":{"osm_id":"6484132789","tag":{"amenity":"recycling","opening_hours":"24/7","operator":"Le Relais","recycling:clothes":"yes","recycling_type":"container"}},"type":"Feature"},
	{"geometry":{"coordinates":[1.479724,43.540521],"type":"Point"},"properties":{"osm_id":"6562897346","tag":{"amenity":"waste_basket"}},"type":"Feature"},
	{"geometry":{"coordinates":[1.47984,43.540571],"type":"Point"},"properties":{"osm_id":"6562897347","tag":{"amenity":"waste_basket"}},"type":"Feature"},
	{"geometry":{"coordinates":[1.479977,43.540573],"type":"Point"},"properties":{"osm_id":"6562897348","tag":{"amenity":"waste_basket"}},"type":"Feature"},
	{"geometry":{"coordinates":[1.480129,43.540643],"type":"Point"},"properties":{"osm_id":"6562897349","tag":{"amenity":"waste_basket"}},"type":"Feature"},
	{"geometry":{"coordinates":[1.468894,43.569706],"type":"Point"},"properties":{"osm_id":"6624339709","tag":{"amenity":"waste_disposal"}},"type":"Feature"},
	{"geometry":{"coordinates":[1.46255,43.573263],"type":"Point"},"properties":{"osm_id":"6628659784","tag":{"amenity":"recycling","material":"wood","recycling:compost":"yes","recycling_type":"container"}},"type":"Feature"},
	{"geometry":{"coordinates":[1.474757,43.54266],"type":"Point"},"properties":{"osm_id":"6684088447","tag":{"amenity":"recycling","operator":"Le Relais","recycling:clothes":"yes","recycling_type":"container","website":"https://www.lerelais.org"}},"type":"Feature"},
	{"geometry":{"coordinates":[1.448167,43.557027],"type":"Point"},"properties":{"osm_id":"6708336500","tag":{"amenity":"waste_basket"}},"type":"Feature"},
	{"geometry":{"coordinates":[1.445825,43.558691],"type":"Point"},"properties":{"osm_id":"6708336501","tag":{"amenity":"waste_basket"}},"type":"Feature"},
	{"geometry":{"coordinates":[1.445604,43.559259],"type":"Point"},"properties":{"osm_id":"6708336505","tag":{"amenity":"waste_basket"}},"type":"Feature"},
	{"geometry":{"coordinates":[1.451883,43.549651],"type":"Point"},"properties":{"osm_id":"6718754706","tag":{"amenity":"waste_basket"}},"type":"Feature"},
	{"geometry":{"coordinates":[1.452778,43.549452],"type":"Point"},"properties":{"osm_id":"6718754708","tag":{"amenity":"waste_basket"}},"type":"Feature"},
	{"geometry":{"coordinates":[1.451766,43.550461],"type":"Point"},"properties":{"osm_id":"6718754718","tag":{"amenity":"waste_basket"}},"type":"Feature"},
	{"geometry":{"coordinates":[1.454526,43.550017],"type":"Point"},"properties":{"osm_id":"6718754739","tag":{"amenity":"waste_basket"}},"type":"Feature"},
	{"geometry":{"coordinates":[1.493564,43.580019],"type":"Point"},"properties":{"osm_id":"6817232124","tag":{"amenity":"recycling","recycling:glass_bottles":"yes","recycling_type":"container"}},"type":"Feature"},
	{"geometry":{"coordinates":[1.456705,43.547814],"type":"Point"},"properties":{"osm_id":"6875499302","tag":{"amenity":"recycling","recycling:clothes":"yes","recycling_type":"container"}},"type":"Feature"},
	{"geometry":{"coordinates":[1.485807,43.54827],"type":"Point"},"properties":{"osm_id":"6898055848","tag":{"amenity":"waste_basket"}},"type":"Feature"},
	{"geometry":{"coordinates":[1.486099,43.548245],"type":"Point"},"properties":{"osm_id":"6898055849","tag":{"amenity":"waste_basket"}},"type":"Feature"},
	{"geometry":{"coordinates":[1.486292,43.548324],"type":"Point"},"properties":{"osm_id":"6898055850","tag":{"amenity":"waste_basket"}},"type":"Feature"},
	{"geometry":{"coordinates":[1.485856,43.548218],"type":"Point"},"properties":{"osm_id":"6898055851","tag":{"amenity":"waste_basket"}},"type":"Feature"},
	{"geometry":{"coordinates":[1.489524,43.563411],"type":"Point"},"properties":{"osm_id":"6914961125","tag":{"amenity":"waste_basket"}},"type":"Feature"},
	{"geometry":{"coordinates":[1.488987,43.563434],"type":"Point"},"properties":{"osm_id":"6914961130","tag":{"amenity":"waste_basket"}},"type":"Feature"},
	{"geometry":{"coordinates":[1.488845,43.563591],"type":"Point"},"properties":{"osm_id":"6914961132","tag":{"amenity":"waste_basket"}},"type":"Feature"},
	{"geometry":{"coordinates":[1.489035,43.563912],"type":"Point"},"properties":{"osm_id":"6914961136","tag":{"amenity":"waste_basket"}},"type":"Feature"},
	{"geometry":{"coordinates":[1.480786,43.555899],"type":"Point"},"properties":{"osm_id":"7016327083","tag":{"amenity":"waste_basket","waste":"trash"}},"type":"Feature"},
	{"geometry":{"coordinates":[1.480914,43.556232],"type":"Point"},"properties":{"osm_id":"7016327084","tag":{"amenity":"waste_basket","waste":"trash"}},"type":"Feature"},
	{"geometry":{"coordinates":[1.462053,43.557388],"type":"Point"},"properties":{"osm_id":"7044163583","tag":{"amenity":"waste_disposal"}},"type":"Feature"},
	{"geometry":{"coordinates":[1.463549,43.557064],"type":"Point"},"properties":{"osm_id":"7044479193","tag":{"amenity":"waste_disposal"}},"type":"Feature"},
	{"geometry":{"coordinates":[1.463564,43.557042],"type":"Point"},"properties":{"osm_id":"7044479194","tag":{"amenity":"recycling","recycling:glass_bottles":"yes","recycling_type":"container"}},"type":"Feature"},
	{"geometry":{"coordinates":[1.475077,43.562872],"type":"Point"},"properties":{"osm_id":"7077042136","tag":{"amenity":"recycling","recycling:glass_bottles":"yes","recycling_type":"container"}},"type":"Feature"},
	{"geometry":{"coordinates":[1.450389,43.548976],"type":"Point"},"properties":{"osm_id":"7471423242","tag":{"access":"permissive","amenity":"waste_disposal"}},"type":"Feature"},
	{"geometry":{"coordinates":[1.450512,43.549322],"type":"Point"},"properties":{"osm_id":"7471423243","tag":{"access":"permissive","amenity":"waste_disposal"}},"type":"Feature"},
	{"geometry":{"coordinates":[1.457424,43.55477],"type":"Point"},"properties":{"osm_id":"7653577150","tag":{"amenity":"recycling","recycling:clothes":"yes","recycling_type":"container"}},"type":"Feature"},
	{"geometry":{"coordinates":[1.472422,43.575312],"type":"Point"},"properties":{"osm_id":"7775824366","tag":{"amenity":"recycling","recycling:glass":"yes"}},"type":"Feature"},
	{"geometry":{"coordinates":[1.439779,43.576355],"type":"Point"},"properties":{"osm_id":"7799374429","tag":{"amenity":"recycling","recycling_type":"container"}},"type":"Feature"},
	{"geometry":{"coordinates":[1.481629,43.556614],"type":"Point"},"properties":{"osm_id":"7829804184","tag":{"amenity":"waste_basket","waste":"trash"}},"type":"Feature"},
	{"geometry":{"coordinates":[1.470079,43.562086],"type":"Point"},"properties":{"osm_id":"7856554651","tag":{"amenity":"waste_basket"}},"type":"Feature"},
	{"geometry":{"coordinates":[1.470187,43.561977],"type":"Point"},"properties":{"osm_id":"7856554653","tag":{"amenity":"waste_basket"}},"type":"Feature"},
	{"geometry":{"coordinates":[1.477957,43.54723],"type":"Point"},"properties":{"osm_id":"7887043363","tag":{"amenity":"waste_basket"}},"type":"Feature"}
]
}
