{
"type": "FeatureCollection",
"features": [
	{"geometry":{"coordinates":[1.492584,42.768483],"type":"Point"},"properties":{"osm_id":"1885702136","tag":{"amenity":"recycling","recycling_type":"container"}},"type":"Feature"},
	{"geometry":{"coordinates":[1.477512,42.782534],"type":"Point"},"properties":{"osm_id":"4331512475","tag":{"amenity":"recycling","recycling_type":"container"}},"type":"Feature"},
	{"geometry":{"coordinates":[1.478583,42.767043],"type":"Point"},"properties":{"name":"Vertex-Emma\u00c3\u00bcs","osm_id":"6654456602","tag":{"amenity":"recycling","phone":"+33 5 34 09 35 41","recycling:clothes":"yes","recycling:shoes":"yes"}},"type":"Feature"},
	{"geometry":{"coordinates":[1.489919,42.769859],"type":"Point"},"properties":{"osm_id":"6654497559","tag":{"amenity":"recycling","recycling:glass":"yes","recycling:glass_bottles":"yes"}},"type":"Feature"},
	{"geometry":{"coordinates":[1.491231,42.762061],"type":"Point"},"properties":{"osm_id":"7316300749","tag":{"amenity":"recycling","opening_hours":"24/7","recycling:paper":"yes","recycling_type":"container"}},"type":"Feature"},
	{"geometry":{"coordinates":[1.491209,42.762057],"type":"Point"},"properties":{"osm_id":"7316300750","tag":{"amenity":"recycling","opening_hours":"24/7","recycling:glass_bottles":"yes","recycling_type":"container"}},"type":"Feature"}
]
}
