{
"type": "FeatureCollection",
"features": [
	{"geometry":{"coordinates":[1.430666,38.998462],"type":"Point"},"properties":{"osm_id":"4443128501","tag":{"amenity":"recycling","recycling:plastic":"yes","recycling_type":"container"}},"type":"Feature"},
	{"geometry":{"coordinates":[1.430682,38.998463],"type":"Point"},"properties":{"osm_id":"4443128502","tag":{"amenity":"recycling","recycling:glass_bottles":"yes","recycling_type":"container"}},"type":"Feature"},
	{"geometry":{"coordinates":[1.430646,38.998462],"type":"Point"},"properties":{"osm_id":"4443128503","tag":{"amenity":"recycling","recycling:waste":"yes","recycling_type":"container"}},"type":"Feature"},
	{"geometry":{"coordinates":[1.4307,38.998465],"type":"Point"},"properties":{"osm_id":"4443128504","tag":{"amenity":"recycling","recycling:paper":"yes","recycling_type":"container"}},"type":"Feature"},
	{"geometry":{"coordinates":[1.430624,38.998463],"type":"Point"},"properties":{"osm_id":"4443128505","tag":{"amenity":"recycling","recycling:waste":"yes","recycling_type":"container"}},"type":"Feature"},
	{"geometry":{"coordinates":[1.426983,38.998976],"type":"Point"},"properties":{"osm_id":"4443306542","tag":{"amenity":"recycling","recycling_type":"container"}},"type":"Feature"},
	{"geometry":{"coordinates":[1.426983,38.998963],"type":"Point"},"properties":{"osm_id":"4443306543","tag":{"amenity":"recycling","recycling_type":"container"}},"type":"Feature"},
	{"geometry":{"coordinates":[1.426983,38.998952],"type":"Point"},"properties":{"osm_id":"4443306544","tag":{"amenity":"recycling","recycling_type":"container"}},"type":"Feature"},
	{"geometry":{"coordinates":[1.426984,38.99894],"type":"Point"},"properties":{"osm_id":"4443306545","tag":{"amenity":"recycling","recycling_type":"container"}},"type":"Feature"},
	{"geometry":{"coordinates":[1.429169,38.997818],"type":"Point"},"properties":{"osm_id":"4443662641","tag":{"amenity":"recycling","recycling_type":"container"}},"type":"Feature"},
	{"geometry":{"coordinates":[1.429196,38.997813],"type":"Point"},"properties":{"osm_id":"4443662642","tag":{"amenity":"recycling","recycling_type":"container"}},"type":"Feature"},
	{"geometry":{"coordinates":[1.429219,38.99781],"type":"Point"},"properties":{"osm_id":"4443662643","tag":{"amenity":"recycling","recycling_type":"container"}},"type":"Feature"},
	{"geometry":{"coordinates":[1.429246,38.997803],"type":"Point"},"properties":{"osm_id":"4443662644","tag":{"amenity":"recycling","recycling_type":"container"}},"type":"Feature"},
	{"geometry":{"coordinates":[1.429269,38.9978],"type":"Point"},"properties":{"osm_id":"4443662645","tag":{"amenity":"recycling","recycling_type":"container"}},"type":"Feature"}
]
}
