{
"type": "FeatureCollection",
"lastupdate": "2020-08-06T00:00:00Z",
"features": [
	{"geometry":{"coordinates":[140.013855,35.65913],"type":"Point"},"properties":{"name":"\u00e7\u00bf\u0092\u00e5\u00bf\u0097\u00e9\u0087\u008e\u00e5\u00b8\u0082\u00e3\u0083\u00aa\u00e3\u0082\u00b5\u00e3\u0082\u00a4\u00e3\u0082\u00af\u00e3\u0083\u00ab\u00e3\u0083\u0097\u00e3\u0083\u00a9\u00e3\u0082\u00b6","osm_id":"4869827281","tag":{"amenity":"recycling","name:en":"Recycling Plaza","recycling_type":"centre"}},"type":"Feature"},
	{"geometry":{"coordinates":[140.053159,35.6713],"type":"Point"},"properties":{"osm_id":"5591918448","tag":{"amenity":"waste_basket"}},"type":"Feature"},
	{"geometry":{"coordinates":[140.054453,35.671386],"type":"Point"},"properties":{"osm_id":"5591918456","tag":{"amenity":"waste_basket"}},"type":"Feature"},
	{"geometry":{"coordinates":[140.054037,35.669342],"type":"Point"},"properties":{"osm_id":"5592042043","tag":{"amenity":"waste_basket"}},"type":"Feature"},
	{"geometry":{"coordinates":[140.029529,35.66031],"type":"Point"},"properties":{"osm_id":"5592148913","tag":{"amenity":"waste_basket"}},"type":"Feature"},
	{"geometry":{"coordinates":[140.028601,35.66062],"type":"Point"},"properties":{"osm_id":"5592148917","tag":{"amenity":"waste_basket"}},"type":"Feature"},
	{"geometry":{"coordinates":[140.029077,35.659565],"type":"Point"},"properties":{"osm_id":"5592211936","tag":{"amenity":"waste_basket"}},"type":"Feature"},
	{"geometry":{"coordinates":[140.028035,35.659886],"type":"Point"},"properties":{"osm_id":"5592211938","tag":{"amenity":"waste_basket"}},"type":"Feature"}
]
}
