{
"type": "FeatureCollection",
"features": [
	{"geometry":{"coordinates":[0.391997,52.242989],"type":"Point"},"properties":{"osm_id":"242588029","tag":{"amenity":"recycling"}},"type":"Feature"},
	{"geometry":{"coordinates":[0.386912,52.261392],"type":"Point"},"properties":{"osm_id":"242588185","tag":{"amenity":"recycling"}},"type":"Feature"},
	{"geometry":{"coordinates":[0.401881,52.245909],"type":"Point"},"properties":{"osm_id":"246524580","tag":{"amenity":"recycling"}},"type":"Feature"},
	{"geometry":{"coordinates":[0.394234,52.256379],"type":"Point"},"properties":{"name":"Suffolk CC Household Wast Recycling Site","osm_id":"246524648","tag":{"amenity":"recycling"}},"type":"Feature"},
	{"geometry":{"coordinates":[0.39876,52.260603],"type":"Point"},"properties":{"osm_id":"246524758","tag":{"amenity":"recycling"}},"type":"Feature"},
	{"geometry":{"coordinates":[0.402252,52.242589],"type":"Point"},"properties":{"osm_id":"248937810","tag":{"amenity":"recycling"}},"type":"Feature"},
	{"geometry":{"coordinates":[0.407372,52.238469],"type":"Point"},"properties":{"osm_id":"2006164140","tag":{"amenity":"waste_basket"}},"type":"Feature"},
	{"geometry":{"coordinates":[0.405526,52.243738],"type":"Point"},"properties":{"osm_id":"2006258879","tag":{"amenity":"waste_basket"}},"type":"Feature"},
	{"geometry":{"coordinates":[0.405443,52.243774],"type":"Point"},"properties":{"osm_id":"2006258882","tag":{"amenity":"waste_basket"}},"type":"Feature"},
	{"geometry":{"coordinates":[0.40525,52.243925],"type":"Point"},"properties":{"osm_id":"2006258886","tag":{"amenity":"waste_basket"}},"type":"Feature"},
	{"geometry":{"coordinates":[0.40502,52.246829],"type":"Point"},"properties":{"osm_id":"2006272753","tag":{"amenity":"waste_basket"}},"type":"Feature"},
	{"geometry":{"coordinates":[0.408133,52.244952],"type":"Point"},"properties":{"osm_id":"2156653464","tag":{"amenity":"waste_basket"}},"type":"Feature"},
	{"geometry":{"coordinates":[0.409118,52.245444],"type":"Point"},"properties":{"osm_id":"2156675099","tag":{"amenity":"waste_basket"}},"type":"Feature"},
	{"geometry":{"coordinates":[0.39857,52.245212],"type":"Point"},"properties":{"name":"Dustbin (not dog waste)","osm_id":"4784452061","tag":{"amenity":"waste_basket"}},"type":"Feature"},
	{"geometry":{"coordinates":[0.398496,52.245002],"type":"Point"},"properties":{"name":"Dustbin","osm_id":"4784452062","tag":{"amenity":"waste_basket"}},"type":"Feature"},
	{"geometry":{"coordinates":[0.399576,52.244963],"type":"Point"},"properties":{"name":"Dustbin","osm_id":"4784452063","tag":{"amenity":"waste_basket"}},"type":"Feature"},
	{"geometry":{"coordinates":[0.402497,52.243564],"type":"Point"},"properties":{"osm_id":"4784456588","tag":{"amenity":"waste_basket"}},"type":"Feature"},
	{"geometry":{"coordinates":[0.401478,52.244095],"type":"Point"},"properties":{"osm_id":"4784456702","tag":{"amenity":"waste_basket"}},"type":"Feature"},
	{"geometry":{"coordinates":[0.402718,52.243431],"type":"Point"},"properties":{"osm_id":"4784459258","tag":{"amenity":"waste_basket"}},"type":"Feature"},
	{"geometry":{"coordinates":[0.398225,52.244309],"type":"Point"},"properties":{"name":"Dustbin","osm_id":"4809639158","tag":{"amenity":"waste_basket"}},"type":"Feature"},
	{"geometry":{"coordinates":[0.401889,52.243804],"type":"Point"},"properties":{"name":"Dustbin","osm_id":"4809639159","tag":{"amenity":"waste_basket"}},"type":"Feature"},
	{"geometry":{"coordinates":[0.39604,52.245037],"type":"Point"},"properties":{"name":"Dustbin","osm_id":"4809644996","tag":{"amenity":"waste_basket"}},"type":"Feature"},
	{"geometry":{"coordinates":[0.403326,52.24506],"type":"Point"},"properties":{"name":"Dustbin","osm_id":"4809644998","tag":{"amenity":"waste_basket"}},"type":"Feature"},
	{"geometry":{"coordinates":[0.403425,52.242922],"type":"Point"},"properties":{"name":"Dustbin","osm_id":"4809887693","tag":{"amenity":"waste_basket"}},"type":"Feature"},
	{"geometry":{"coordinates":[0.4035,52.242854],"type":"Point"},"properties":{"name":"Dustbin","osm_id":"4809887694","tag":{"amenity":"waste_basket"}},"type":"Feature"},
	{"geometry":{"coordinates":[0.404046,52.243152],"type":"Point"},"properties":{"name":"Dustbin","osm_id":"4809887695","tag":{"amenity":"waste_basket"}},"type":"Feature"},
	{"geometry":{"coordinates":[0.407846,52.244825],"type":"Point"},"properties":{"name":"Dustbin","osm_id":"4809887696","tag":{"amenity":"waste_basket"}},"type":"Feature"},
	{"geometry":{"coordinates":[0.40878,52.244415],"type":"Point"},"properties":{"name":"Dustbin","osm_id":"4809887697","tag":{"amenity":"waste_basket"}},"type":"Feature"},
	{"geometry":{"coordinates":[0.396311,52.247515],"type":"Point"},"properties":{"name":"Dustbin","osm_id":"4827757445","tag":{"amenity":"waste_basket"}},"type":"Feature"},
	{"geometry":{"coordinates":[0.408548,52.242779],"type":"Point"},"properties":{"osm_id":"6762899732","tag":{"amenity":"recycling","recycling:glass":"yes","recycling_type":"container"}},"type":"Feature"}
]
}
