{
"type": "FeatureCollection",
"lastupdate": "2020-08-04T00:00:00Z",
"features": [
	{"geometry":{"coordinates":[0.386103,44.742594],"type":"Point"},"properties":{"osm_id":"1995746619","tag":{"amenity":"recycling","recycling:glass":"yes"}},"type":"Feature"},
	{"geometry":{"coordinates":[0.423054,44.757303],"type":"Point"},"properties":{"name":"D\u00c3\u00a9ch\u00c3\u00a8terie de Sigoules","osm_id":"4379653922","tag":{"amenity":"recycling","recycling_type":"centre","website":"http://www.smd3.fr/en-route-pour-la-decheterie/les-decheteries-du-smbgd/decheterie-de-sigoules.php"}},"type":"Feature"},
	{"geometry":{"coordinates":[0.409228,44.759369],"type":"Point"},"properties":{"name":"Bornes \u00c3\u00a0 verre","osm_id":"4412949097","tag":{"amenity":"recycling","recycling:glass":"yes","recycling:glass_bottles":"yes"}},"type":"Feature"},
	{"geometry":{"coordinates":[0.410392,44.758188],"type":"Point"},"properties":{"osm_id":"5004912845","tag":{"amenity":"recycling","recycling:glass_bottles":"yes","recycling_type":"container"}},"type":"Feature"},
	{"geometry":{"coordinates":[0.410873,44.757385],"type":"Point"},"properties":{"osm_id":"7009184877","tag":{"amenity":"recycling","operator":"Le Relais","recycling:clothes":"yes","recycling_type":"container","website":"https://lerelais.org/"}},"type":"Feature"}
]
}
