{
"type": "FeatureCollection",
"features": [
	{"geometry":{"coordinates":[-123.238777,49.260915],"type":"Point"},"properties":{"osm_id":"703594173","tag":{"amenity":"recycling","recycling:clothes":"yes"}},"type":"Feature"},
	{"geometry":{"coordinates":[-123.233305,49.25353],"type":"Point"},"properties":{"osm_id":"1231226345","tag":{"amenity":"waste_basket"}},"type":"Feature"},
	{"geometry":{"coordinates":[-123.232711,49.253637],"type":"Point"},"properties":{"osm_id":"1231226425","tag":{"amenity":"waste_basket"}},"type":"Feature"},
	{"geometry":{"coordinates":[-123.231938,49.253435],"type":"Point"},"properties":{"osm_id":"1231226440","tag":{"amenity":"waste_basket"}},"type":"Feature"},
	{"geometry":{"coordinates":[-123.23148,49.253853],"type":"Point"},"properties":{"osm_id":"1231226443","tag":{"amenity":"waste_basket"}},"type":"Feature"},
	{"geometry":{"coordinates":[-123.232005,49.252919],"type":"Point"},"properties":{"osm_id":"1233278081","tag":{"amenity":"waste_basket"}},"type":"Feature"},
	{"geometry":{"coordinates":[-123.257214,49.266788],"type":"Point"},"properties":{"osm_id":"1234226136","tag":{"amenity":"waste_basket"}},"type":"Feature"},
	{"geometry":{"coordinates":[-123.257437,49.266827],"type":"Point"},"properties":{"osm_id":"1234226188","tag":{"amenity":"waste_basket"}},"type":"Feature"},
	{"geometry":{"coordinates":[-123.259786,49.267531],"type":"Point"},"properties":{"osm_id":"1234226210","tag":{"amenity":"waste_basket"}},"type":"Feature"},
	{"geometry":{"coordinates":[-123.23573,49.254896],"type":"Point"},"properties":{"osm_id":"1234993956","tag":{"amenity":"waste_basket"}},"type":"Feature"},
	{"geometry":{"coordinates":[-123.235092,49.254131],"type":"Point"},"properties":{"osm_id":"1369634139","tag":{"amenity":"waste_basket"}},"type":"Feature"},
	{"geometry":{"coordinates":[-123.238011,49.257993],"type":"Point"},"properties":{"osm_id":"1676542271","tag":{"amenity":"waste_basket"}},"type":"Feature"},
	{"geometry":{"coordinates":[-123.245165,49.265691],"type":"Point"},"properties":{"osm_id":"1677835620","tag":{"amenity":"waste_basket"}},"type":"Feature"},
	{"geometry":{"coordinates":[-123.244595,49.253073],"type":"Point"},"properties":{"osm_id":"1695780316","tag":{"amenity":"waste_basket","check_date":"2021-02-02"}},"type":"Feature"},
	{"geometry":{"coordinates":[-123.257654,49.264858],"type":"Point"},"properties":{"osm_id":"1702146113","tag":{"amenity":"waste_basket"}},"type":"Feature"},
	{"geometry":{"coordinates":[-123.256491,49.263487],"type":"Point"},"properties":{"osm_id":"1702149414","tag":{"amenity":"waste_basket"}},"type":"Feature"},
	{"geometry":{"coordinates":[-123.255128,49.265867],"type":"Point"},"properties":{"name":"Garbage Can","osm_id":"3947305340","tag":{"amenity":"waste_basket"}},"type":"Feature"},
	{"geometry":{"coordinates":[-123.238075,49.257448],"type":"Point"},"properties":{"osm_id":"4959082925","tag":{"amenity":"waste_basket"}},"type":"Feature"},
	{"geometry":{"coordinates":[-123.239334,49.259442],"type":"Point"},"properties":{"osm_id":"4959083022","tag":{"amenity":"waste_basket"}},"type":"Feature"},
	{"geometry":{"coordinates":[-123.244727,49.265083],"type":"Point"},"properties":{"osm_id":"4959121321","tag":{"amenity":"waste_basket"}},"type":"Feature"},
	{"geometry":{"coordinates":[-123.251219,49.259044],"type":"Point"},"properties":{"osm_id":"5850214021","tag":{"amenity":"waste_basket"}},"type":"Feature"},
	{"geometry":{"coordinates":[-123.255949,49.263112],"type":"Point"},"properties":{"osm_id":"6167671923","tag":{"amenity":"recycling","colour":"white","level":"0","operator":"Developmental Disabilities Association","recycling:books":"yes","recycling:clothes":"yes","recycling:shoes":"yes"}},"type":"Feature"},
	{"geometry":{"coordinates":[-123.248552,49.26088],"type":"Point"},"properties":{"osm_id":"6327816577","tag":{"amenity":"waste_basket"}},"type":"Feature"},
	{"geometry":{"coordinates":[-123.248785,49.267168],"type":"Point"},"properties":{"osm_id":"6328176153","tag":{"amenity":"waste_basket"}},"type":"Feature"},
	{"geometry":{"coordinates":[-123.227554,49.213063],"type":"Point"},"properties":{"osm_id":"6556657743","tag":{"amenity":"waste_basket"}},"type":"Feature"},
	{"geometry":{"coordinates":[-123.253174,49.263192],"type":"Point"},"properties":{"osm_id":"6794438549","tag":{"amenity":"waste_disposal"}},"type":"Feature"},
	{"geometry":{"coordinates":[-123.25381,49.260822],"type":"Point"},"properties":{"name":"E-Waste Drop-off","osm_id":"6796313307","tag":{"amenity":"recycling","covered":"yes","indoor":"no","operator":"UBC Waste Management","recycling:electrical_items":"yes","recycling_type":"container"}},"type":"Feature"},
	{"geometry":{"coordinates":[-123.257673,49.26521],"type":"Point"},"properties":{"osm_id":"6814482029","tag":{"amenity":"waste_disposal"}},"type":"Feature"},
	{"geometry":{"coordinates":[-123.250298,49.260112],"type":"Point"},"properties":{"osm_id":"7042300108","tag":{"amenity":"waste_basket"}},"type":"Feature"},
	{"geometry":{"coordinates":[-123.258966,49.263238],"type":"Point"},"properties":{"osm_id":"8616229402","tag":{"amenity":"waste_basket"}},"type":"Feature"},
	{"geometry":{"coordinates":[-123.258658,49.26328],"type":"Point"},"properties":{"osm_id":"8616229408","tag":{"amenity":"waste_basket"}},"type":"Feature"},
	{"geometry":{"coordinates":[-123.242227,49.266735],"type":"Point"},"properties":{"osm_id":"8618981360","tag":{"amenity":"waste_basket"}},"type":"Feature"},
	{"geometry":{"coordinates":[-123.259537,49.265671],"type":"Point"},"properties":{"osm_id":"9195830742","tag":{"amenity":"waste_disposal"}},"type":"Feature"},
	{"geometry":{"coordinates":[-123.250471,49.253945],"type":"Point"},"properties":{"osm_id":"9195960305","tag":{"amenity":"waste_basket"}},"type":"Feature"},
	{"geometry":{"coordinates":[-123.25046,49.253945],"type":"Point"},"properties":{"osm_id":"9195994128","tag":{"amenity":"recycling","recycling_type":"container"}},"type":"Feature"}
]
}
