{
"type": "FeatureCollection",
"features": [
	{"geometry":{"coordinates":[-81.848797,43.249795],"type":"Point"},"properties":{"osm_id":"5991959884","tag":{"amenity":"recycling","recycling_type":"container","waste":"trash"}},"type":"Feature"},
	{"geometry":{"coordinates":[-81.847643,43.24637],"type":"Point"},"properties":{"osm_id":"6407428894","tag":{"amenity":"waste_disposal"}},"type":"Feature"},
	{"geometry":{"coordinates":[-81.847548,43.246406],"type":"Point"},"properties":{"name":"Empties bin","osm_id":"6407428895","tag":{"amenity":"recycling","recycling_type":"centre"}},"type":"Feature"},
	{"geometry":{"coordinates":[-81.852712,43.254325],"type":"Point"},"properties":{"osm_id":"6407523679","tag":{"amenity":"waste_disposal"}},"type":"Feature"},
	{"geometry":{"coordinates":[-81.852675,43.254271],"type":"Point"},"properties":{"name":"Empties bin","osm_id":"6407523680","tag":{"amenity":"recycling","recycling_type":"container"}},"type":"Feature"},
	{"geometry":{"coordinates":[-81.858127,43.252434],"type":"Point"},"properties":{"name":"Empties bin","osm_id":"6407552812","tag":{"amenity":"recycling","recycling_type":"container"}},"type":"Feature"},
	{"geometry":{"coordinates":[-81.859777,43.251597],"type":"Point"},"properties":{"name":"Empties bin","osm_id":"6407552813","tag":{"amenity":"recycling","recycling_type":"container"}},"type":"Feature"},
	{"geometry":{"coordinates":[-81.859871,43.251615],"type":"Point"},"properties":{"osm_id":"6407556227","tag":{"amenity":"waste_disposal"}},"type":"Feature"}
]
}
