{
"type": "FeatureCollection",
"features": [
	{"geometry":{"coordinates":[143.679343,-38.758098],"type":"Point"},"properties":{"osm_id":"8377144197","tag":{"amenity":"waste_basket","waste_basket":"trash"}},"type":"Feature"},
	{"geometry":{"coordinates":[143.678487,-38.756576],"type":"Point"},"properties":{"osm_id":"8377144200","tag":{"amenity":"waste_basket","waste_basket":"general"}},"type":"Feature"},
	{"geometry":{"coordinates":[143.678422,-38.756599],"type":"Point"},"properties":{"osm_id":"8377144201","tag":{"amenity":"waste_basket","waste_basket":"separate"}},"type":"Feature"},
	{"geometry":{"coordinates":[143.678106,-38.760696],"type":"Point"},"properties":{"osm_id":"8379777370","tag":{"amenity":"waste_basket","waste":"trash"}},"type":"Feature"},
	{"geometry":{"coordinates":[143.677231,-38.75959],"type":"Point"},"properties":{"osm_id":"8379777394","tag":{"amenity":"waste_basket"}},"type":"Feature"},
	{"geometry":{"coordinates":[143.674975,-38.759413],"type":"Point"},"properties":{"osm_id":"8379825535","tag":{"amenity":"waste_basket"}},"type":"Feature"},
	{"geometry":{"coordinates":[143.674782,-38.759371],"type":"Point"},"properties":{"osm_id":"8379825536","tag":{"amenity":"waste_basket"}},"type":"Feature"},
	{"geometry":{"coordinates":[143.669156,-38.754445],"type":"Point"},"properties":{"osm_id":"8384096748","tag":{"amenity":"waste_basket"}},"type":"Feature"},
	{"geometry":{"coordinates":[143.668918,-38.754738],"type":"Point"},"properties":{"osm_id":"8384096750","tag":{"amenity":"waste_basket"}},"type":"Feature"},
	{"geometry":{"coordinates":[143.670568,-38.758999],"type":"Point"},"properties":{"osm_id":"8386621383","tag":{"amenity":"waste_basket"}},"type":"Feature"},
	{"geometry":{"coordinates":[143.670633,-38.758566],"type":"Point"},"properties":{"osm_id":"8386621384","tag":{"amenity":"waste_basket"}},"type":"Feature"},
	{"geometry":{"coordinates":[143.669221,-38.757174],"type":"Point"},"properties":{"osm_id":"8386621408","tag":{"amenity":"waste_basket"}},"type":"Feature"}
]
}
