{
"type": "FeatureCollection",
"features": [
	{"geometry":{"coordinates":[45.315662,34.625457],"type":"Point"},"properties":{"name":"\u00d8\u00b4\u00d8\u00a7\u00d8\u00b1\u00d9\u0088\u00d8\u00a7\u00d9\u0086\u00d9\u0089 \u00d9\u0083\u00d9\u0084\u00d8\u00a7\u00d8\u00b1","osm_id":"4361682197","tag":{"amenity":"waste_basket","name:ar":"\u0634\u0627\u0631\u0648\u0627\u0646\u0649 \u0643\u0644\u0627\u0631"}},"type":"Feature"},
	{"geometry":{"coordinates":[45.315904,34.625473],"type":"Point"},"properties":{"name":"\u00d8\u00a8\u00d9\u0084\u00d8\u00af\u00d9\u008a\u00d8\u00a9 \u00d9\u0083\u00d9\u0084\u00d8\u00a7\u00d8\u00b1","osm_id":"4361816891","tag":{"amenity":"waste_disposal","name:ar":"\u0628\u0644\u062f\u064a\u0629 \u0643\u0644\u0627\u0631"}},"type":"Feature"},
	{"geometry":{"coordinates":[45.315669,34.625481],"type":"Point"},"properties":{"name":"\u00d8\u00a8\u00d9\u0084\u00d8\u00af\u00d9\u008a\u00d8\u00a9 \u00d9\u0083\u00d9\u0084\u00d8\u00a7\u00d8\u00b1","osm_id":"4361817090","tag":{"amenity":"waste_disposal","name:ar":"\u0628\u0644\u062f\u064a\u0629 \u0643\u0644\u0627\u0631"}},"type":"Feature"}
]
}
