{
"type": "FeatureCollection",
"features": [
	{"geometry":{"coordinates":[-149.613977,-17.579879],"type":"Point"},"properties":{"osm_id":"8603723940","tag":{"amenity":"waste_basket","government":"commune","operator:type":"government","waste":"mixed"}},"type":"Feature"},
	{"geometry":{"coordinates":[-149.613699,-17.57828],"type":"Point"},"properties":{"osm_id":"8630608796","tag":{"amenity":"waste_basket"}},"type":"Feature"},
	{"geometry":{"coordinates":[-149.613625,-17.578243],"type":"Point"},"properties":{"osm_id":"8630626522","tag":{"access":"private","amenity":"waste_disposal"}},"type":"Feature"},
	{"geometry":{"coordinates":[-149.613858,-17.579765],"type":"Point"},"properties":{"osm_id":"8653830500","tag":{"amenity":"waste_basket","government":"commune","operator:type":"government","waste":"mixed"}},"type":"Feature"},
	{"geometry":{"coordinates":[-149.616152,-17.57572],"type":"Point"},"properties":{"osm_id":"8984764269","tag":{"amenity":"waste_basket","waste":"trash"}},"type":"Feature"},
	{"geometry":{"coordinates":[-149.616145,-17.576145],"type":"Point"},"properties":{"osm_id":"8984764270","tag":{"amenity":"waste_basket","waste":"trash"}},"type":"Feature"},
	{"geometry":{"coordinates":[-149.615889,-17.577035],"type":"Point"},"properties":{"osm_id":"8984764271","tag":{"amenity":"waste_basket","waste":"trash"}},"type":"Feature"}
]
}
