{
"type": "FeatureCollection",
"features": [
	{"geometry":{"coordinates":[-17.464626,14.679342],"type":"Point"},"properties":{"osm_id":"2173743020","tag":{"amenity":"waste_basket"}},"type":"Feature"},
	{"geometry":{"coordinates":[-17.463463,14.6799],"type":"Point"},"properties":{"osm_id":"2179604148","tag":{"amenity":"waste_basket","source:date":"2013-03-01"}},"type":"Feature"},
	{"geometry":{"coordinates":[-17.467764,14.681074],"type":"Point"},"properties":{"osm_id":"6958135954","tag":{"amenity":"waste_disposal","waste":"depotoire sauvage"}},"type":"Feature"},
	{"geometry":{"coordinates":[-17.467245,14.682814],"type":"Point"},"properties":{"osm_id":"6958135968","tag":{"amenity":"waste_disposal","waste":"Depotoire sauvage"}},"type":"Feature"},
	{"geometry":{"coordinates":[-17.464509,14.684913],"type":"Point"},"properties":{"osm_id":"8917271121","tag":{"amenity":"waste_disposal","waste":"mixed"}},"type":"Feature"},
	{"geometry":{"coordinates":[-17.468194,14.684697],"type":"Point"},"properties":{"osm_id":"8917309703","tag":{"amenity":"waste_disposal","waste":"mixed"}},"type":"Feature"}
]
}
