{
"type": "FeatureCollection",
"features": [
	{"geometry":{"coordinates":[-67.722899,-53.766738],"type":"Point"},"properties":{"osm_id":"8934159984","tag":{"addr:city":"Rio Grande","addr:housenumber":"779","addr:postcode":"9420","addr:street":"Luisa Rosso","amenity":"recycling","operator":"Subsecretaria de Ambiente y Espacio P\u00c3\u00bablico","recycling_type":"container"}},"type":"Feature"},
	{"geometry":{"coordinates":[-67.731042,-53.769255],"type":"Point"},"properties":{"osm_id":"8934187207","tag":{"addr:city":"Rio Grande","addr:housenumber":"1195","addr:postcode":"9420","addr:street":"Isla de Los Estados","amenity":"recycling","operator":"Subsecretaria de ambiente y espacio p\u00c3\u00bablico","recycling_type":"container"}},"type":"Feature"},
	{"geometry":{"coordinates":[-67.720682,-53.773404],"type":"Point"},"properties":{"osm_id":"8934200978","tag":{"addr:city":"Rio Grande","addr:housenumber":"691","addr:postcode":"9420","addr:street":"Oscar Alfredo G\u00c3\u00a1lvez","amenity":"recycling","operator":"Subsecretaria de Ambiente y Espacio P\u00c3\u00bablico","recycling_type":"container"}},"type":"Feature"},
	{"geometry":{"coordinates":[-67.722901,-53.763427],"type":"Point"},"properties":{"osm_id":"8934203885","tag":{"addr:city":"Rio Grande","addr:housenumber":"1089","addr:postcode":"9420","addr:street":"Prefectura Naval Argentina","amenity":"recycling","operator":"Subsecretaria de Ambiente y Espacio P\u00c3\u00bablico","recycling:sheet_metal":"yes","recycling_type":"container"}},"type":"Feature"},
	{"geometry":{"coordinates":[-67.725082,-53.769676],"type":"Point"},"properties":{"osm_id":"8934214130","tag":{"amenity":"recycling","operator":"Subsecretaria de Ambiente y Espacio P\u00c3\u00bablico","recycling_type":"container"}},"type":"Feature"},
	{"geometry":{"coordinates":[-67.712666,-53.768913],"type":"Point"},"properties":{"osm_id":"8934233242","tag":{"addr:city":"Rio Grande","addr:housenumber":"651","addr:postcode":"9420","addr:street":"Marcelo Torcuato de Alvear","amenity":"recycling","operator":"Subsecretaria de ambiente y espacio p\u00c3\u00bablico","recycling_type":"container"}},"type":"Feature"},
	{"geometry":{"coordinates":[-67.729196,-53.769451],"type":"Point"},"properties":{"osm_id":"8934233457","tag":{"addr:city":"Rio Grande","addr:housenumber":"417","addr:postcode":"9420","addr:street":"\u00c3\u0081ngela Vallese","amenity":"recycling","operator":"Subsecretaria de ambiente y espacio p\u00c3\u00bablico","recycling_type":"container"}},"type":"Feature"},
	{"geometry":{"coordinates":[-67.704915,-53.769558],"type":"Point"},"properties":{"osm_id":"8934234855","tag":{"addr:city":"Rio Grande","addr:housenumber":"250","addr:postcode":"9420","addr:street":"12 de Octubre","amenity":"recycling","operator":"Subsecretaria de ambiente y espacio p\u00c3\u00bablico","recycling_type":"container"}},"type":"Feature"},
	{"geometry":{"coordinates":[-67.727004,-53.76167],"type":"Point"},"properties":{"osm_id":"8934234961","tag":{"addr:city":"Rio Grande","addr:housenumber":"1090","addr:postcode":"9420","addr:street":"Victoria Ocampo","amenity":"recycling","operator":"Subsecretaria de ambiente y espacio p\u00c3\u00bablico","recycling:sheet_metal":"yes","recycling_type":"container"}},"type":"Feature"},
	{"geometry":{"coordinates":[-67.704776,-53.785771],"type":"Point"},"properties":{"osm_id":"8934238355","tag":{"addr:city":"Rio Grande","addr:housenumber":"702","addr:postcode":"9420","addr:street":"Avenida Perito Moreno","amenity":"recycling","operator":"Subsecretaria de ambiente y espacio p\u00c3\u00bablico","recycling:sheet_metal":"yes","recycling_type":"container"}},"type":"Feature"},
	{"geometry":{"coordinates":[-67.707921,-53.788289],"type":"Point"},"properties":{"osm_id":"8934259277","tag":{"addr:city":"Rio Grande","addr:housenumber":"1091","addr:postcode":"9420","addr:street":"Luis Piedrabuena","amenity":"recycling","operator":"Subsecretaria de ambiente y espacio p\u00c3\u00bablico","recycling:pet":"yes","recycling_type":"container"}},"type":"Feature"},
	{"geometry":{"coordinates":[-67.736636,-53.75075],"type":"Point"},"properties":{"osm_id":"8934282666","tag":{"addr:city":"Rio Grande","addr:housenumber":"1011","addr:postcode":"9420","addr:street":"Faustino Minicci","amenity":"recycling","operator":"Subsecretaria de ambiente y espacio p\u00c3\u00bablico","recycling_type":"container"}},"type":"Feature"}
]
}
