{
"type": "FeatureCollection",
"lastupdate": "2020-08-01T00:00:00Z",
"features": [
	{"geometry":{"coordinates":[26.738631,60.873899],"type":"Point"},"properties":{"name":"Hy\u00c3\u00b6tyj\u00c3\u00a4tepiste, Tornionm\u00c3\u00a4ki","osm_id":"1303671143","tag":{"addr:city":"Kouvola","addr:postcode":"45200","addr:street":"Utinkatu","amenity":"recycling","recycling:batteries":"yes","recycling:cans":"yes","recycling:cartons":"yes","recycling:clothes":"yes","recycling:electrical_appliances":"no","recycling:glass":"yes","recycling:glass_bottles":"yes","recycling:green_waste":"no","recycling:magazines":"yes","recycling:newspaper":"yes","recycling:paper":"yes","recycling:paper_packaging":"yes","recycling:plastic":"yes","recycling:plastic_bottles":"no","recycling:plastic_packaging":"no","recycling:scrap_metal":"yes","recycling:small_appliances":"no","recycling:waste":"no","recycling:wood":"no","recycling_type":"container"}},"type":"Feature"},
	{"geometry":{"coordinates":[26.720106,60.860536],"type":"Point"},"properties":{"osm_id":"1516326509","tag":{"addr:city":"Kouvola","addr:housenumber":"9","addr:postcode":"45120","addr:street":"Kotkankallionkatu","amenity":"waste_basket","opening_hours":"Mo-Su 09:00-21:00"}},"type":"Feature"},
	{"geometry":{"coordinates":[26.740658,60.881213],"type":"Point"},"properties":{"osm_id":"1640390642","tag":{"amenity":"waste_basket"}},"type":"Feature"},
	{"geometry":{"coordinates":[26.740566,60.881216],"type":"Point"},"properties":{"name":"Hy\u00c3\u00b6tyj\u00c3\u00a4tepiste, Viitakumpu","osm_id":"1640391196","tag":{"amenity":"recycling","recycling:batteries":"yes","recycling:cans":"yes","recycling:electrical_appliances":"no","recycling:glass":"yes","recycling:glass_bottles":"yes","recycling:green_waste":"no","recycling:magazines":"yes","recycling:newspaper":"yes","recycling:paper":"yes","recycling:paper_packaging":"yes","recycling:plastic":"no","recycling:plastic_bottles":"no","recycling:plastic_packaging":"no","recycling:scrap_metal":"yes","recycling:small_appliances":"no","recycling:waste":"no","recycling_type":"container"}},"type":"Feature"},
	{"geometry":{"coordinates":[26.773474,60.886889],"type":"Point"},"properties":{"osm_id":"1654300909","tag":{"amenity":"waste_basket"}},"type":"Feature"},
	{"geometry":{"coordinates":[26.727891,60.874575],"type":"Point"},"properties":{"osm_id":"1660616057","tag":{"amenity":"waste_basket"}},"type":"Feature"},
	{"geometry":{"coordinates":[26.720551,60.860678],"type":"Point"},"properties":{"name":"Hy\u00c3\u00b6tyj\u00c3\u00a4tepiste, Vahtero","osm_id":"1711197546","tag":{"amenity":"recycling","recycling:batteries":"yes","recycling:cans":"yes","recycling:electrical_appliances":"no","recycling:glass":"yes","recycling:glass_bottles":"yes","recycling:green_waste":"no","recycling:magazines":"yes","recycling:newspaper":"yes","recycling:paper":"yes","recycling:paper_packaging":"yes","recycling:scrap_metal":"yes","recycling:small_appliances":"no","recycling:waste":"no","recycling:wood":"no","recycling_type":"container"}},"type":"Feature"},
	{"geometry":{"coordinates":[26.772682,60.883463],"type":"Point"},"properties":{"osm_id":"1738080427","tag":{"amenity":"waste_basket"}},"type":"Feature"},
	{"geometry":{"coordinates":[26.77413,60.883596],"type":"Point"},"properties":{"osm_id":"1738080437","tag":{"amenity":"waste_basket"}},"type":"Feature"},
	{"geometry":{"coordinates":[26.773712,60.882993],"type":"Point"},"properties":{"osm_id":"1738080498","tag":{"amenity":"waste_basket"}},"type":"Feature"},
	{"geometry":{"coordinates":[26.776185,60.883191],"type":"Point"},"properties":{"osm_id":"1738080580","tag":{"amenity":"waste_basket"}},"type":"Feature"},
	{"geometry":{"coordinates":[26.774624,60.883173],"type":"Point"},"properties":{"osm_id":"1738080615","tag":{"amenity":"waste_basket"}},"type":"Feature"},
	{"geometry":{"coordinates":[26.736415,60.851531],"type":"Point"},"properties":{"name":"Hy\u00c3\u00b6tyj\u00c3\u00a4tepiste, Pappikallio","osm_id":"1752312848","tag":{"amenity":"recycling","recycling:batteries":"yes","recycling:cans":"yes","recycling:electrical_appliances":"no","recycling:glass":"yes","recycling:glass_bottles":"yes","recycling:green_waste":"no","recycling:magazines":"yes","recycling:newspaper":"yes","recycling:paper":"yes","recycling:paper_packaging":"yes","recycling:scrap_metal":"yes","recycling:small_appliances":"no","recycling:waste":"no","recycling:wood":"no","recycling_type":"container"}},"type":"Feature"},
	{"geometry":{"coordinates":[26.727526,60.877072],"type":"Point"},"properties":{"osm_id":"1752313530","tag":{"amenity":"waste_basket"}},"type":"Feature"},
	{"geometry":{"coordinates":[26.736474,60.851555],"type":"Point"},"properties":{"osm_id":"1752314308","tag":{"amenity":"waste_basket"}},"type":"Feature"},
	{"geometry":{"coordinates":[26.727577,60.877058],"type":"Point"},"properties":{"name":"Hy\u00c3\u00b6tyj\u00c3\u00a4tepiste, Pikku-Palom\u00c3\u00a4ki","osm_id":"1752314748","tag":{"amenity":"recycling","recycling:cans":"yes","recycling:glass":"yes","recycling:glass_bottles":"yes","recycling:green_waste":"no","recycling:magazines":"yes","recycling:newspaper":"yes","recycling:paper":"yes","recycling:paper_packaging":"yes","recycling:scrap_metal":"yes","recycling:small_appliances":"no","recycling_type":"container"}},"type":"Feature"},
	{"geometry":{"coordinates":[26.747664,60.877166],"type":"Point"},"properties":{"osm_id":"1769238590","tag":{"amenity":"waste_basket"}},"type":"Feature"},
	{"geometry":{"coordinates":[26.732128,60.857778],"type":"Point"},"properties":{"osm_id":"1918244243","tag":{"amenity":"waste_basket"}},"type":"Feature"},
	{"geometry":{"coordinates":[26.749568,60.859591],"type":"Point"},"properties":{"name":"Hy\u00c3\u00b6tyj\u00c3\u00a4tepiste, Mielakka","osm_id":"1918267614","tag":{"amenity":"recycling","recycling:batteries":"yes","recycling:cans":"yes","recycling:electrical_appliances":"no","recycling:glass":"yes","recycling:glass_bottles":"yes","recycling:green_waste":"no","recycling:magazines":"yes","recycling:newspaper":"yes","recycling:paper":"yes","recycling:paper_packaging":"yes","recycling:scrap_metal":"yes","recycling:small_appliances":"no","recycling:waste":"no","recycling:wood":"no","recycling_type":"container"}},"type":"Feature"},
	{"geometry":{"coordinates":[26.737189,60.878693],"type":"Point"},"properties":{"osm_id":"1944056490","tag":{"amenity":"waste_basket"}},"type":"Feature"},
	{"geometry":{"coordinates":[26.73375,60.876599],"type":"Point"},"properties":{"osm_id":"2041597325","tag":{"amenity":"waste_basket"}},"type":"Feature"},
	{"geometry":{"coordinates":[26.726509,60.873216],"type":"Point"},"properties":{"osm_id":"2099691203","tag":{"amenity":"waste_basket"}},"type":"Feature"},
	{"geometry":{"coordinates":[26.7386,60.873928],"type":"Point"},"properties":{"osm_id":"2151598045","tag":{"amenity":"waste_basket"}},"type":"Feature"},
	{"geometry":{"coordinates":[26.735036,60.873384],"type":"Point"},"properties":{"osm_id":"2285638956","tag":{"amenity":"waste_basket"}},"type":"Feature"},
	{"geometry":{"coordinates":[26.776288,60.883598],"type":"Point"},"properties":{"osm_id":"2313973143","tag":{"amenity":"waste_basket"}},"type":"Feature"},
	{"geometry":{"coordinates":[26.776279,60.883433],"type":"Point"},"properties":{"osm_id":"2313973283","tag":{"amenity":"waste_basket"}},"type":"Feature"},
	{"geometry":{"coordinates":[26.775673,60.883321],"type":"Point"},"properties":{"osm_id":"2313973325","tag":{"amenity":"waste_basket"}},"type":"Feature"},
	{"geometry":{"coordinates":[26.775948,60.883376],"type":"Point"},"properties":{"osm_id":"2313973355","tag":{"amenity":"waste_basket"}},"type":"Feature"},
	{"geometry":{"coordinates":[26.720268,60.872464],"type":"Point"},"properties":{"osm_id":"2462869551","tag":{"amenity":"waste_basket"}},"type":"Feature"},
	{"geometry":{"coordinates":[26.767355,60.886254],"type":"Point"},"properties":{"osm_id":"2843979702","tag":{"amenity":"waste_basket"}},"type":"Feature"},
	{"geometry":{"coordinates":[26.767188,60.886408],"type":"Point"},"properties":{"osm_id":"2843979760","tag":{"amenity":"waste_basket"}},"type":"Feature"},
	{"geometry":{"coordinates":[26.768384,60.886521],"type":"Point"},"properties":{"osm_id":"2843979789","tag":{"amenity":"waste_basket"}},"type":"Feature"},
	{"geometry":{"coordinates":[26.768012,60.887018],"type":"Point"},"properties":{"osm_id":"2843979983","tag":{"amenity":"waste_basket"}},"type":"Feature"},
	{"geometry":{"coordinates":[26.767541,60.887058],"type":"Point"},"properties":{"osm_id":"2843979996","tag":{"amenity":"waste_basket"}},"type":"Feature"},
	{"geometry":{"coordinates":[26.766581,60.887261],"type":"Point"},"properties":{"osm_id":"2843980183","tag":{"amenity":"waste_basket"}},"type":"Feature"},
	{"geometry":{"coordinates":[26.773454,60.887557],"type":"Point"},"properties":{"osm_id":"2845684328","tag":{"amenity":"waste_basket"}},"type":"Feature"},
	{"geometry":{"coordinates":[26.774213,60.887597],"type":"Point"},"properties":{"osm_id":"2845684333","tag":{"amenity":"waste_basket"}},"type":"Feature"},
	{"geometry":{"coordinates":[26.774361,60.887616],"type":"Point"},"properties":{"osm_id":"2845684337","tag":{"amenity":"waste_basket"}},"type":"Feature"},
	{"geometry":{"coordinates":[26.773312,60.887684],"type":"Point"},"properties":{"osm_id":"2845684351","tag":{"amenity":"waste_basket"}},"type":"Feature"},
	{"geometry":{"coordinates":[26.719667,60.872281],"type":"Point"},"properties":{"osm_id":"3002531527","tag":{"amenity":"waste_basket"}},"type":"Feature"},
	{"geometry":{"coordinates":[26.735938,60.873787],"type":"Point"},"properties":{"osm_id":"3417229443","tag":{"amenity":"waste_basket"}},"type":"Feature"},
	{"geometry":{"coordinates":[26.73496,60.875582],"type":"Point"},"properties":{"osm_id":"3498726675","tag":{"amenity":"waste_basket"}},"type":"Feature"},
	{"geometry":{"coordinates":[26.735022,60.873697],"type":"Point"},"properties":{"osm_id":"4070126362","tag":{"amenity":"waste_basket"}},"type":"Feature"},
	{"geometry":{"coordinates":[26.735112,60.87367],"type":"Point"},"properties":{"osm_id":"4070126363","tag":{"amenity":"waste_basket"}},"type":"Feature"},
	{"geometry":{"coordinates":[26.727857,60.876362],"type":"Point"},"properties":{"osm_id":"4331337028","tag":{"amenity":"waste_basket"}},"type":"Feature"},
	{"geometry":{"coordinates":[26.728693,60.876308],"type":"Point"},"properties":{"osm_id":"4331337029","tag":{"amenity":"waste_basket"}},"type":"Feature"},
	{"geometry":{"coordinates":[26.732817,60.876459],"type":"Point"},"properties":{"osm_id":"5784593908","tag":{"amenity":"waste_basket"}},"type":"Feature"},
	{"geometry":{"coordinates":[26.733505,60.876569],"type":"Point"},"properties":{"osm_id":"5784593909","tag":{"amenity":"waste_basket"}},"type":"Feature"},
	{"geometry":{"coordinates":[26.732404,60.876244],"type":"Point"},"properties":{"osm_id":"5784593910","tag":{"amenity":"waste_basket"}},"type":"Feature"},
	{"geometry":{"coordinates":[26.728995,60.887504],"type":"Point"},"properties":{"osm_id":"6873492233","tag":{"amenity":"waste_basket","waste":"trash"}},"type":"Feature"}
]
}
