{
"type": "FeatureCollection",
"features": [
	{"geometry":{"coordinates":[26.139619,44.467058],"type":"Point"},"properties":{"osm_id":"1935441468","tag":{"addr:city":"Bucure\u00c8\u0099ti","amenity":"recycling"}},"type":"Feature"},
	{"geometry":{"coordinates":[26.139116,44.465505],"type":"Point"},"properties":{"name":"fier vechi","osm_id":"2377267281","tag":{"addr:city":"Bucure\u00c8\u0099ti","addr:housenumber":"1","addr:street":"Strada Maior Vasile B\u00c4\u0083cil\u00c4\u0083","amenity":"recycling"}},"type":"Feature"},
	{"geometry":{"coordinates":[26.122982,44.480746],"type":"Point"},"properties":{"osm_id":"4099182154","tag":{"amenity":"recycling","recycling:cans":"yes","recycling:glass_bottles":"no","recycling:paper":"yes","recycling:plastic":"yes","recycling_type":"container"}},"type":"Feature"},
	{"geometry":{"coordinates":[26.121765,44.481222],"type":"Point"},"properties":{"osm_id":"4099182155","tag":{"amenity":"recycling","recycling:cans":"yes","recycling:paper":"yes","recycling:plastic":"yes","recycling_type":"container"}},"type":"Feature"},
	{"geometry":{"coordinates":[26.17828,44.495359],"type":"Point"},"properties":{"osm_id":"5416772777","tag":{"amenity":"recycling","recycling_type":"container"}},"type":"Feature"},
	{"geometry":{"coordinates":[26.180213,44.49544],"type":"Point"},"properties":{"osm_id":"5435691325","tag":{"amenity":"waste_disposal"}},"type":"Feature"},
	{"geometry":{"coordinates":[26.180292,44.495495],"type":"Point"},"properties":{"osm_id":"5435691326","tag":{"amenity":"waste_disposal"}},"type":"Feature"},
	{"geometry":{"coordinates":[26.180099,44.495092],"type":"Point"},"properties":{"osm_id":"5435691329","tag":{"amenity":"waste_basket"}},"type":"Feature"},
	{"geometry":{"coordinates":[26.176663,44.496076],"type":"Point"},"properties":{"osm_id":"5660970806","tag":{"amenity":"waste_basket"}},"type":"Feature"},
	{"geometry":{"coordinates":[26.176991,44.496023],"type":"Point"},"properties":{"osm_id":"5660970807","tag":{"amenity":"waste_basket"}},"type":"Feature"}
]
}
