{
"type": "FeatureCollection",
"features": [
	{"geometry":{"coordinates":[20.774467,48.191733],"type":"Point"},"properties":{"osm_id":"3437757040","tag":{"addr:city":"Saj\u00c3\u00b3ecseg","addr:housenumber":"69","addr:postcode":"3793","addr:street":"\u00c3\u0081llom\u00c3\u00a1s utca","amenity":"recycling","recycling:glass_bottles":"yes","recycling_type":"container","source:date":"2012-05-08","toilets:wheelchair":"no","url":"http://turistautak.hu/poi.php?id=48585","wheelchair":"no"}},"type":"Feature"},
	{"geometry":{"coordinates":[20.774317,48.1746],"type":"Point"},"properties":{"osm_id":"3437757159","tag":{"addr:city":"Saj\u00c3\u00b3kereszt\u00c3\u00bar","addr:housenumber":"124","addr:postcode":"3791","addr:street":"Pet\u00c5\u0091fi S\u00c3\u00a1ndor utca","amenity":"recycling","recycling:glass_bottles":"yes","recycling_type":"container","source:date":"2012-05-08","url":"http://turistautak.hu/poi.php?id=48292"}},"type":"Feature"},
	{"geometry":{"coordinates":[20.827613,48.184445],"type":"Point"},"properties":{"osm_id":"3437757173","tag":{"amenity":"recycling","source:date":"2012-05-08","url":"http://turistautak.hu/poi.php?id=112007"}},"type":"Feature"},
	{"geometry":{"coordinates":[20.7855,48.219033],"type":"Point"},"properties":{"osm_id":"3462281863","tag":{"addr:city":"Boldva","addr:housenumber":"8","addr:postcode":"3794","addr:street":"Arany J\u00c3\u00a1nos \u00c3\u00bat","amenity":"recycling","recycling:glass_bottles":"yes","recycling_type":"container","source:date":"2012-05-08","url":"http://turistautak.hu/poi.php?id=48584"}},"type":"Feature"},
	{"geometry":{"coordinates":[20.815845,48.19736],"type":"Point"},"properties":{"osm_id":"6388057793","tag":{"amenity":"recycling","recycling:glass_bottles":"yes","recycling_type":"container"}},"type":"Feature"}
]
}
