{
"type": "FeatureCollection",
"lastupdate": "2020-08-02T00:00:00Z",
"features": [
	{"geometry":{"coordinates":[20.783345,48.077925],"type":"Point"},"properties":{"osm_id":"1108732956","tag":{"amenity":"recycling","recycling:cans":"yes","recycling:clothes":"no","recycling:glass":"yes","recycling:paper":"yes"}},"type":"Feature"},
	{"geometry":{"coordinates":[20.801816,48.056605],"type":"Point"},"properties":{"osm_id":"1383289992","tag":{"amenity":"recycling"}},"type":"Feature"},
	{"geometry":{"coordinates":[20.784647,48.082201],"type":"Point"},"properties":{"osm_id":"3192015810","tag":{"amenity":"recycling","recycling:cans":"yes","recycling:clothes":"no","recycling:glass":"yes","recycling:paper":"yes"}},"type":"Feature"},
	{"geometry":{"coordinates":[20.824964,48.068977],"type":"Point"},"properties":{"name":"Szelekt\u00c3\u00adv gy\u00c5\u00b1jt\u00c5\u0091ed\u00c3\u00a9nyek","osm_id":"3205931107","tag":{"amenity":"recycling","recycling:cans":"yes","recycling:glass":"yes","recycling:paper":"yes","recycling_type":"container"}},"type":"Feature"},
	{"geometry":{"coordinates":[20.790875,48.106991],"type":"Point"},"properties":{"osm_id":"3233047843","tag":{"amenity":"recycling","location":"overground","recycling:cans":"yes","recycling:glass_bottles":"yes","recycling:paper":"yes","recycling:plastic":"yes","recycling_type":"container"}},"type":"Feature"},
	{"geometry":{"coordinates":[20.785326,48.102152],"type":"Point"},"properties":{"osm_id":"3233068362","tag":{"amenity":"recycling","recycling:books":"yes","recycling:cans":"no","recycling:clothes":"no","recycling:glass":"no","recycling:paper":"no"}},"type":"Feature"},
	{"geometry":{"coordinates":[20.782525,48.102143],"type":"Point"},"properties":{"osm_id":"3234325078","tag":{"amenity":"recycling","recycling:books":"yes","recycling:cans":"no","recycling:clothes":"no","recycling:glass":"no","recycling:paper":"no"}},"type":"Feature"},
	{"geometry":{"coordinates":[20.783796,48.07915],"type":"Point"},"properties":{"osm_id":"3234325093","tag":{"amenity":"recycling","recycling:cans":"yes","recycling:clothes":"no","recycling:glass":"yes","recycling:paper":"yes"}},"type":"Feature"},
	{"geometry":{"coordinates":[20.783276,48.077702],"type":"Point"},"properties":{"osm_id":"3234325098","tag":{"amenity":"recycling"}},"type":"Feature"},
	{"geometry":{"coordinates":[20.751855,48.102937],"type":"Point"},"properties":{"osm_id":"3258911374","tag":{"amenity":"recycling","recycling:cans":"yes","recycling:clothes":"no","recycling:glass":"yes","recycling:paper":"yes"}},"type":"Feature"},
	{"geometry":{"coordinates":[20.756703,48.103756],"type":"Point"},"properties":{"osm_id":"3258911376","tag":{"amenity":"recycling","recycling:cans":"yes","recycling:clothes":"no","recycling:glass":"yes","recycling:paper":"yes"}},"type":"Feature"},
	{"geometry":{"coordinates":[20.762873,48.104133],"type":"Point"},"properties":{"osm_id":"3258911377","tag":{"amenity":"recycling","recycling:cans":"yes","recycling:clothes":"no","recycling:glass":"yes","recycling:paper":"yes"}},"type":"Feature"},
	{"geometry":{"coordinates":[20.776467,48.054967],"type":"Point"},"properties":{"osm_id":"3437150249","tag":{"addr:city":"Miskolc","addr:housenumber":"72","addr:postcode":"3516","addr:street":"Bacsinszky Andr\u00e1s utca","amenity":"recycling","source:date":"2012-05-18","url":"http://turistautak.hu/poi.php?id=49561"}},"type":"Feature"},
	{"geometry":{"coordinates":[20.788767,48.056217],"type":"Point"},"properties":{"osm_id":"3437150253","tag":{"addr:city":"Miskolc","addr:housenumber":"28","addr:postcode":"3516","addr:street":"Szol\u00e1rtsik S\u00e1ndor t\u00e9r","amenity":"recycling","source:date":"2012-05-18","url":"http://turistautak.hu/poi.php?id=48481"}},"type":"Feature"},
	{"geometry":{"coordinates":[20.8009,48.056767],"type":"Point"},"properties":{"osm_id":"3437150257","tag":{"addr:street":"Miskolc, Cora","amenity":"recycling","source:date":"2012-05-18","url":"http://turistautak.hu/poi.php?id=71953"}},"type":"Feature"},
	{"geometry":{"coordinates":[20.829617,48.06575],"type":"Point"},"properties":{"osm_id":"3437150280","tag":{"addr:city":"Miskolc","addr:housenumber":"1","addr:postcode":"3521","addr:street":"Berekkert utca","amenity":"recycling","recycling_type":"container","source:date":"2012-05-18","url":"http://turistautak.hu/poi.php?id=42087"}},"type":"Feature"},
	{"geometry":{"coordinates":[20.779167,48.0678],"type":"Point"},"properties":{"osm_id":"3437150284","tag":{"addr:city":"Miskolc","addr:street":"Alm\u00e1skert utca","amenity":"recycling","source:date":"2012-05-18","url":"http://turistautak.hu/poi.php?id=68950"}},"type":"Feature"},
	{"geometry":{"coordinates":[20.829117,48.06975],"type":"Point"},"properties":{"osm_id":"3437150290","tag":{"addr:city":"Miskolc","addr:housenumber":"4","addr:postcode":"3521","addr:street":"M\u00e1lyva utca","addr:suburb":"Szirma","amenity":"recycling","recycling_type":"container","source:date":"2012-05-18","url":"http://turistautak.hu/poi.php?id=42089"}},"type":"Feature"},
	{"geometry":{"coordinates":[20.774117,48.072983],"type":"Point"},"properties":{"osm_id":"3437150499","tag":{"addr:city":"Miskolc","addr:housenumber":"72","addr:postcode":"3508","addr:street":"Fut\u00f3 utca","amenity":"recycling","source:date":"2012-05-18","url":"http://turistautak.hu/poi.php?id=47635"}},"type":"Feature"},
	{"geometry":{"coordinates":[20.825667,48.074583],"type":"Point"},"properties":{"osm_id":"3437150505","tag":{"addr:city":"Miskolc","addr:housenumber":"2","addr:postcode":"3521","addr:street":"Hajn\u00f3czy J\u00f3zsef utca","addr:suburb":"Szirma","amenity":"recycling","source:date":"2012-05-18","url":"http://turistautak.hu/poi.php?id=39940"}},"type":"Feature"},
	{"geometry":{"coordinates":[20.785717,48.07465],"type":"Point"},"properties":{"osm_id":"3437150506","tag":{"addr:city":"Miskolc","addr:street":"Szeretet utca","amenity":"recycling","source:date":"2012-05-18","url":"http://turistautak.hu/poi.php?id=60812"}},"type":"Feature"},
	{"geometry":{"coordinates":[20.78015,48.076483],"type":"Point"},"properties":{"osm_id":"3437150509","tag":{"addr:city":"Miskolc","addr:housenumber":"95","addr:postcode":"3529","addr:street":"Szentgy\u00f6rgy utca","amenity":"recycling","source:date":"2012-05-18","url":"http://turistautak.hu/poi.php?id=43973"}},"type":"Feature"},
	{"geometry":{"coordinates":[20.7783,48.077883],"type":"Point"},"properties":{"osm_id":"3437150516","tag":{"addr:city":"Miskolc","addr:street":"S\u00e1lyi Istv\u00e1n utca","amenity":"recycling","source:date":"2012-05-18","url":"http://turistautak.hu/poi.php?id=65183"}},"type":"Feature"},
	{"geometry":{"coordinates":[20.779183,48.077933],"type":"Point"},"properties":{"osm_id":"3437150517","tag":{"addr:city":"Miskolc","addr:street":"Ny\u00edri D\u00e1niel utca","amenity":"recycling","source:date":"2012-05-18","url":"http://turistautak.hu/poi.php?id=65182"}},"type":"Feature"},
	{"geometry":{"coordinates":[20.777983,48.08025],"type":"Point"},"properties":{"osm_id":"3437150529","tag":{"addr:city":"Miskolc","addr:housenumber":"42","addr:postcode":"3529","addr:street":"Szentgy\u00f6rgy \u00fat","amenity":"recycling","source:date":"2012-05-18","url":"http://turistautak.hu/poi.php?id=48674"}},"type":"Feature"},
	{"geometry":{"coordinates":[20.77915,48.08065],"type":"Point"},"properties":{"osm_id":"3437150534","tag":{"addr:city":"Miskolc","addr:street":"Geszteny\u00e9s utca","amenity":"recycling","source:date":"2012-05-18","url":"http://turistautak.hu/poi.php?id=65184"}},"type":"Feature"},
	{"geometry":{"coordinates":[20.783017,48.081867],"type":"Point"},"properties":{"osm_id":"3437150548","tag":{"addr:city":"Miskolc","addr:street":"K\u00f6z\u00e9pszer utca","amenity":"recycling","source:date":"2012-05-18","url":"http://turistautak.hu/poi.php?id=62698"}},"type":"Feature"},
	{"geometry":{"coordinates":[20.769167,48.0821],"type":"Point"},"properties":{"osm_id":"3437150551","tag":{"addr:city":"Miskolc","addr:housename":"Egyetemv\u00e1ros E/5 koll\u00e9gium","amenity":"recycling","source:date":"2013-12-02","url":"http://turistautak.hu/poi.php?id=47633"}},"type":"Feature"},
	{"geometry":{"coordinates":[20.784882,48.083201],"type":"Point"},"properties":{"osm_id":"3437150554","tag":{"amenity":"recycling","source:date":"2011-07-04","url":"http://turistautak.hu/poi.php?id=102053"}},"type":"Feature"},
	{"geometry":{"coordinates":[20.779006,48.08502],"type":"Point"},"properties":{"osm_id":"3437150564","tag":{"addr:city":"Miskolc","addr:housenumber":"7","addr:postcode":"3529","addr:street":"\u00c1fony\u00e1s utca","amenity":"recycling","source:date":"2012-05-18","url":"http://turistautak.hu/poi.php?id=43865"}},"type":"Feature"},
	{"geometry":{"coordinates":[20.774418,48.085876],"type":"Point"},"properties":{"osm_id":"3437150570","tag":{"addr:city":"Miskolc","addr:housenumber":"2","addr:postcode":"3524","addr:street":"Klapka Gy\u00f6rgy utca","amenity":"recycling","recycling:plastic":"yes","recycling:plastic_bottles":"yes","recycling_type":"container","source:date":"2012-05-18","url":"http://turistautak.hu/poi.php?id=47345"}},"type":"Feature"},
	{"geometry":{"coordinates":[20.78651,48.086299],"type":"Point"},"properties":{"osm_id":"3437150572","tag":{"amenity":"recycling","source:date":"2012-01-19","url":"http://turistautak.hu/poi.php?id=128706"}},"type":"Feature"},
	{"geometry":{"coordinates":[20.815967,48.087083],"type":"Point"},"properties":{"osm_id":"3437150578","tag":{"addr:city":"Miskolc","addr:housenumber":"1","addr:postcode":"3528","addr:street":"Berzsenyi D\u00e1niel utca","amenity":"recycling","source:date":"2012-05-18","url":"http://turistautak.hu/poi.php?id=39950"}},"type":"Feature"},
	{"geometry":{"coordinates":[20.782517,48.089833],"type":"Point"},"properties":{"osm_id":"3437150707","tag":{"addr:city":"Miskolc","addr:housenumber":"15","addr:postcode":"3529","addr:street":"Derkovits Gyula utca","amenity":"recycling","source:date":"2012-05-18","url":"http://turistautak.hu/poi.php?id=47344"}},"type":"Feature"},
	{"geometry":{"coordinates":[20.806588,48.092615],"type":"Point"},"properties":{"osm_id":"3437150731","tag":{"addr:city":"Miskolc","addr:street":"Kisfaludy utca","amenity":"recycling","source:date":"2012-05-18","url":"http://turistautak.hu/poi.php?id=1713"}},"type":"Feature"},
	{"geometry":{"coordinates":[20.771623,48.093056],"type":"Point"},"properties":{"osm_id":"3437150734","tag":{"addr:city":"Miskolc","addr:street":"Klapka Gy\u00f6rgy utca","amenity":"recycling","source:date":"2013-02-15","url":"http://turistautak.hu/poi.php?id=43863"}},"type":"Feature"},
	{"geometry":{"coordinates":[20.814617,48.093467],"type":"Point"},"properties":{"osm_id":"3437150738","tag":{"addr:city":"Miskolc","addr:housenumber":"51","addr:postcode":"3528","addr:street":"Alf\u00f6ldi utca","amenity":"recycling","source:date":"2012-05-18","url":"http://turistautak.hu/poi.php?id=41714"}},"type":"Feature"},
	{"geometry":{"coordinates":[20.771583,48.094883],"type":"Point"},"properties":{"osm_id":"3437150755","tag":{"addr:city":"Miskolc","addr:housenumber":"7","addr:postcode":"3524","addr:street":"Pattanty\u00fas \u00c1brah\u00e1m G\u00e9za utca","amenity":"recycling","source:date":"2012-05-18","url":"http://turistautak.hu/poi.php?id=51633"}},"type":"Feature"},
	{"geometry":{"coordinates":[20.776767,48.09515],"type":"Point"},"properties":{"osm_id":"3437150762","tag":{"amenity":"recycling","source:date":"2013-12-02","url":"http://turistautak.hu/poi.php?id=115416"}},"type":"Feature"},
	{"geometry":{"coordinates":[20.793167,48.09755],"type":"Point"},"properties":{"osm_id":"3437150777","tag":{"addr:city":"Miskolc","addr:housenumber":"1","addr:postcode":"3530","addr:street":"Bihari J\u00e1nos utca","amenity":"recycling","source:date":"2012-05-18","url":"http://turistautak.hu/poi.php?id=39945"}},"type":"Feature"},
	{"geometry":{"coordinates":[20.798917,48.0981],"type":"Point"},"properties":{"osm_id":"3437150781","tag":{"addr:city":"Miskolc","addr:housenumber":"21","addr:postcode":"3527","addr:street":"Kont Istv\u00e1n utca","amenity":"recycling","source:date":"2012-05-18","url":"http://turistautak.hu/poi.php?id=39946"}},"type":"Feature"},
	{"geometry":{"coordinates":[20.7964,48.09965],"type":"Point"},"properties":{"osm_id":"3437150802","tag":{"addr:city":"Miskolc","addr:housenumber":"93","addr:postcode":"3530","addr:street":"V\u00f6r\u00f6smarty Mih\u00e1ly utca","amenity":"recycling","source:date":"2012-05-18","url":"http://turistautak.hu/poi.php?id=39947"}},"type":"Feature"},
	{"geometry":{"coordinates":[20.787583,48.101717],"type":"Point"},"properties":{"osm_id":"3437150824","tag":{"addr:city":"Miskolc","addr:housenumber":"7","addr:postcode":"3530","addr:street":"Arany J\u00e1nos utca","amenity":"recycling","source:date":"2012-05-18","url":"http://turistautak.hu/poi.php?id=39944"}},"type":"Feature"},
	{"geometry":{"coordinates":[20.806117,48.1018],"type":"Point"},"properties":{"osm_id":"3437150825","tag":{"addr:city":"Miskolc","addr:housenumber":"20","addr:postcode":"3527","addr:street":"Augusztus 20. utca","amenity":"recycling","source:date":"2012-05-18","url":"http://turistautak.hu/poi.php?id=42659"}},"type":"Feature"},
	{"geometry":{"coordinates":[20.77795,48.102333],"type":"Point"},"properties":{"osm_id":"3437150828","tag":{"addr:city":"Miskolc","addr:street":"R\u00e1k\u00f3czi Ferenc utca","amenity":"recycling","source:date":"2013-12-02","url":"http://turistautak.hu/poi.php?id=40161"}},"type":"Feature"},
	{"geometry":{"coordinates":[20.771271,48.10288],"type":"Point"},"properties":{"osm_id":"3437150831","tag":{"addr:city":"Miskolc","addr:housenumber":"2","addr:postcode":"3530","addr:street":"Malomsz\u00f6g utca","amenity":"recycling","source:date":"2012-05-18","url":"http://turistautak.hu/poi.php?id=43974"}},"type":"Feature"},
	{"geometry":{"coordinates":[20.772946,48.102949],"type":"Point"},"properties":{"osm_id":"3437150832","tag":{"addr:city":"Miskolc","addr:housenumber":"4","addr:postcode":"3530","addr:street":"Pet\u0151fi S\u00e1ndor utca","amenity":"recycling","source:date":"2013-12-02","url":"http://turistautak.hu/poi.php?id=46247"}},"type":"Feature"},
	{"geometry":{"coordinates":[20.757584,48.103356],"type":"Point"},"properties":{"osm_id":"3437150839","tag":{"addr:city":"Miskolc","addr:housenumber":"2","addr:postcode":"3531","addr:street":"Th\u00f6k\u00f6ly Imre utca","amenity":"recycling","source:date":"2012-05-18","url":"http://turistautak.hu/poi.php?id=48604"}},"type":"Feature"},
	{"geometry":{"coordinates":[20.76795,48.103367],"type":"Point"},"properties":{"osm_id":"3437150840","tag":{"addr:city":"Miskolc","addr:street":"Serh\u00e1z utca","amenity":"recycling","recycling:cans":"yes","recycling:cartons":"yes","recycling:glass_bottles":"yes","recycling:paper":"yes","recycling:plastic_bottles":"yes","recycling_type":"container"}},"type":"Feature"},
	{"geometry":{"coordinates":[20.754733,48.1035],"type":"Point"},"properties":{"osm_id":"3437150842","tag":{"addr:city":"Miskolc","addr:street":"Aba utca","amenity":"recycling","recycling:cans":"yes","recycling:glass":"yes","recycling:paper":"yes","source:date":"2012-05-18","url":"http://turistautak.hu/poi.php?id=47674"}},"type":"Feature"},
	{"geometry":{"coordinates":[20.804167,48.103783],"type":"Point"},"properties":{"osm_id":"3437150843","tag":{"addr:city":"Miskolc","addr:street":"Bolyai J\u00e1nos utca","amenity":"recycling","source:date":"2012-05-18","url":"http://turistautak.hu/poi.php?id=42657"}},"type":"Feature"},
	{"geometry":{"coordinates":[20.780417,48.104063],"type":"Point"},"properties":{"osm_id":"3437150849","tag":{"addr:city":"Miskolc","addr:housenumber":"1","addr:postcode":"3525","addr:street":"Patak utca","amenity":"recycling","source:date":"2012-05-18","url":"http://turistautak.hu/poi.php?id=40160"}},"type":"Feature"},
	{"geometry":{"coordinates":[20.8024,48.104317],"type":"Point"},"properties":{"osm_id":"3437150852","tag":{"addr:city":"Miskolc","addr:housenumber":"9","addr:postcode":"3527","addr:street":"K\u0151r\u00f6si Csoma S\u00e1ndor utca","amenity":"recycling","source:date":"2012-05-18","url":"http://turistautak.hu/poi.php?id=42658"}},"type":"Feature"},
	{"geometry":{"coordinates":[20.7599,48.105067],"type":"Point"},"properties":{"osm_id":"3437150859","tag":{"addr:city":"Miskolc","addr:housenumber":"12","addr:postcode":"3531","addr:street":"Gy\u0151ri kapu","amenity":"recycling","source:date":"2012-05-18","url":"http://turistautak.hu/poi.php?id=47016"}},"type":"Feature"},
	{"geometry":{"coordinates":[20.768983,48.105463],"type":"Point"},"properties":{"osm_id":"3437150864","tag":{"addr:city":"Miskolc","addr:housenumber":"12","addr:postcode":"3525","addr:street":"Tizeshonv\u00e9d utca","amenity":"recycling","recycling:cans":"yes","recycling:glass_bottles":"yes","recycling:paper":"yes","recycling:plastic_bottles":"yes","recycling_type":"container"}},"type":"Feature"},
	{"geometry":{"coordinates":[20.775867,48.105683],"type":"Point"},"properties":{"osm_id":"3437150867","tag":{"addr:city":"Miskolc","addr:street":"Dayka G\u00e1bor utca","amenity":"recycling","source:date":"2012-05-18","url":"http://turistautak.hu/poi.php?id=47012"}},"type":"Feature"},
	{"geometry":{"coordinates":[20.798783,48.105733],"type":"Point"},"properties":{"osm_id":"3437150869","tag":{"addr:city":"Miskolc","addr:street":"Eperjesi utca","amenity":"recycling","source:date":"2012-05-18","url":"http://turistautak.hu/poi.php?id=63827"}},"type":"Feature"},
	{"geometry":{"coordinates":[20.772667,48.10675],"type":"Point"},"properties":{"osm_id":"3437150882","tag":{"addr:city":"Miskolc","addr:housenumber":"14","addr:postcode":"3525","addr:street":"Vologda utca","amenity":"recycling","source:date":"2012-05-18","url":"http://turistautak.hu/poi.php?id=47013"}},"type":"Feature"},
	{"geometry":{"coordinates":[20.804677,48.067671],"type":"Point"},"properties":{"name":"Hullad\u00c3\u00a9kudvar","osm_id":"3633736260","tag":{"addr:city":"Miskolc","addr:postcode":"3521","addr:street":"Bog\u00e1ncs utca","amenity":"recycling","phone":"+36 70 383 0242","recycling_type":"centre"}},"type":"Feature"},
	{"geometry":{"coordinates":[20.790908,48.066962],"type":"Point"},"properties":{"name":"Szelekt\u00c3\u00adv gy\u00c5\u00b1jt\u00c3\u00a9s","osm_id":"4472920989","tag":{"amenity":"recycling","name:hu":"Szelekt\u00edv gy\u0171jt\u00e9s"}},"type":"Feature"},
	{"geometry":{"coordinates":[20.747796,48.100912],"type":"Point"},"properties":{"name":"szelekt\u00c3\u00adv hullad\u00c3\u00a9kgy\u00c5\u00b1jt\u00c5\u0091","osm_id":"4827159261","tag":{"amenity":"recycling","recycling_type":"container"}},"type":"Feature"},
	{"geometry":{"coordinates":[20.747478,48.102779],"type":"Point"},"properties":{"name":"szelekt\u00c3\u00adv hullad\u00c3\u00a9kgy\u00c5\u00b1jt\u00c5\u0091","osm_id":"4827159262","tag":{"amenity":"recycling","recycling:cans":"yes","recycling:glass":"yes","recycling:paper":"yes","recycling:plastic_bottles":"yes","recycling_type":"container"}},"type":"Feature"},
	{"geometry":{"coordinates":[20.776731,48.101799],"type":"Point"},"properties":{"osm_id":"5087464399","tag":{"amenity":"waste_basket"}},"type":"Feature"},
	{"geometry":{"coordinates":[20.782405,48.083295],"type":"Point"},"properties":{"osm_id":"5087464411","tag":{"amenity":"waste_basket","waste":"dog_excrement"}},"type":"Feature"},
	{"geometry":{"coordinates":[20.784165,48.080465],"type":"Point"},"properties":{"osm_id":"5087464412","tag":{"amenity":"waste_basket","waste":"dog_excrement"}},"type":"Feature"},
	{"geometry":{"coordinates":[20.769948,48.079643],"type":"Point"},"properties":{"osm_id":"5103170756","tag":{"amenity":"waste_basket"}},"type":"Feature"},
	{"geometry":{"coordinates":[20.769133,48.079489],"type":"Point"},"properties":{"osm_id":"5151333633","tag":{"amenity":"recycling","recycling:glass":"yes","recycling_type":"container"}},"type":"Feature"},
	{"geometry":{"coordinates":[20.765709,48.082254],"type":"Point"},"properties":{"osm_id":"5227092786","tag":{"amenity":"waste_basket"}},"type":"Feature"},
	{"geometry":{"coordinates":[20.768435,48.081776],"type":"Point"},"properties":{"osm_id":"5227095326","tag":{"amenity":"waste_basket"}},"type":"Feature"},
	{"geometry":{"coordinates":[20.768476,48.081795],"type":"Point"},"properties":{"osm_id":"5227095330","tag":{"amenity":"waste_basket"}},"type":"Feature"},
	{"geometry":{"coordinates":[20.768538,48.081793],"type":"Point"},"properties":{"osm_id":"5227095335","tag":{"amenity":"waste_basket"}},"type":"Feature"},
	{"geometry":{"coordinates":[20.768529,48.081786],"type":"Point"},"properties":{"osm_id":"5227095338","tag":{"amenity":"waste_basket"}},"type":"Feature"},
	{"geometry":{"coordinates":[20.768535,48.081805],"type":"Point"},"properties":{"osm_id":"5227095339","tag":{"amenity":"waste_basket"}},"type":"Feature"},
	{"geometry":{"coordinates":[20.790267,48.100066],"type":"Point"},"properties":{"osm_id":"5287543752","tag":{"amenity":"waste_basket"}},"type":"Feature"},
	{"geometry":{"coordinates":[20.782361,48.081773],"type":"Point"},"properties":{"osm_id":"5423461850","tag":{"amenity":"waste_basket"}},"type":"Feature"},
	{"geometry":{"coordinates":[20.771257,48.095855],"type":"Point"},"properties":{"osm_id":"5577172157","tag":{"amenity":"recycling","recycling:glass":"yes","recycling:glass_bottles":"yes","recycling:paper":"yes","recycling:plastic":"yes","recycling:plastic_bottles":"yes","recycling_type":"container"}},"type":"Feature"},
	{"geometry":{"coordinates":[20.773563,48.087703],"type":"Point"},"properties":{"osm_id":"6503433863","tag":{"amenity":"recycling","recycling:plastic":"yes","recycling:plastic_bottles":"yes","recycling_type":"container"}},"type":"Feature"},
	{"geometry":{"coordinates":[20.773568,48.087677],"type":"Point"},"properties":{"osm_id":"6503433864","tag":{"amenity":"recycling","recycling:glass":"yes","recycling:scrap_metal":"yes","recycling_type":"container"}},"type":"Feature"},
	{"geometry":{"coordinates":[20.768341,48.094136],"type":"Point"},"properties":{"osm_id":"6503433865","tag":{"amenity":"recycling","recycling:cardboard":"yes","recycling:magazines":"yes","recycling:newspaper":"yes","recycling:paper":"yes","recycling_type":"container"}},"type":"Feature"},
	{"geometry":{"coordinates":[20.774421,48.085861],"type":"Point"},"properties":{"osm_id":"6503700631","tag":{"amenity":"recycling","recycling:cardboard":"yes","recycling:magazines":"yes","recycling:newspaper":"yes","recycling:paper":"yes","recycling_type":"container"}},"type":"Feature"},
	{"geometry":{"coordinates":[20.774423,48.085845],"type":"Point"},"properties":{"osm_id":"6503700632","tag":{"amenity":"recycling","recycling:glass":"yes","recycling:glass_bottles":"yes","recycling_type":"container"}},"type":"Feature"},
	{"geometry":{"coordinates":[20.774326,48.087153],"type":"Point"},"properties":{"osm_id":"6557069618","tag":{"amenity":"waste_basket","colour":"green","material":"steel"}},"type":"Feature"},
	{"geometry":{"coordinates":[20.7746,48.087193],"type":"Point"},"properties":{"osm_id":"6557069620","tag":{"amenity":"waste_basket","colour":"green","material":"steel"}},"type":"Feature"},
	{"geometry":{"coordinates":[20.789853,48.103104],"type":"Point"},"properties":{"osm_id":"6707388161","tag":{"amenity":"waste_basket","colour":"green","material":"steel"}},"type":"Feature"},
	{"geometry":{"coordinates":[20.789641,48.10309],"type":"Point"},"properties":{"osm_id":"6707388162","tag":{"amenity":"waste_basket","colour":"green","material":"steel"}},"type":"Feature"},
	{"geometry":{"coordinates":[20.789273,48.102998],"type":"Point"},"properties":{"osm_id":"6707538199","tag":{"amenity":"waste_basket","material":"metal"}},"type":"Feature"},
	{"geometry":{"coordinates":[20.789346,48.103325],"type":"Point"},"properties":{"osm_id":"6707538202","tag":{"amenity":"waste_basket","colour":"green","material":"steel"}},"type":"Feature"}
]
}
