{
"type": "FeatureCollection",
"features": [
	{"geometry":{"coordinates":[16.743941,50.497885],"type":"Point"},"properties":{"osm_id":"5840382931","tag":{"amenity":"waste_basket"}},"type":"Feature"},
	{"geometry":{"coordinates":[16.741598,50.500841],"type":"Point"},"properties":{"osm_id":"5840382933","tag":{"amenity":"waste_basket"}},"type":"Feature"},
	{"geometry":{"coordinates":[16.739012,50.496797],"type":"Point"},"properties":{"name":"Kosz na \u00c5\u009bmieci","osm_id":"5840389188","tag":{"amenity":"waste_basket"}},"type":"Feature"},
	{"geometry":{"coordinates":[16.736528,50.476069],"type":"Point"},"properties":{"osm_id":"7820874612","tag":{"amenity":"waste_basket","colour":"yellow","material":"metal","operator":"Nadle\u00c5\u009bnictwo Bardo \u00c5\u009al\u00c4\u0085skie"}},"type":"Feature"},
	{"geometry":{"coordinates":[16.736438,50.47594],"type":"Point"},"properties":{"osm_id":"7820874613","tag":{"amenity":"waste_basket","colour":"yellow","material":"metal","operator":"Nadle\u00c5\u009bnictwo Bardo \u00c5\u009al\u00c4\u0085skie"}},"type":"Feature"}
]
}
