{
"type": "FeatureCollection",
"features": [
	{"geometry":{"coordinates":[16.752592,49.62484],"type":"Point"},"properties":{"osm_id":"2954646835","tag":{"amenity":"recycling","recycling_type":"container"}},"type":"Feature"},
	{"geometry":{"coordinates":[16.752257,49.62563],"type":"Point"},"properties":{"osm_id":"2954646851","tag":{"amenity":"waste_basket"}},"type":"Feature"},
	{"geometry":{"coordinates":[16.707883,49.631352],"type":"Point"},"properties":{"osm_id":"2954646994","tag":{"amenity":"recycling","recycling:clothes":"yes","recycling:paper":"yes"}},"type":"Feature"},
	{"geometry":{"coordinates":[16.7055,49.631997],"type":"Point"},"properties":{"osm_id":"2954647023","tag":{"amenity":"recycling"}},"type":"Feature"},
	{"geometry":{"coordinates":[16.711844,49.632342],"type":"Point"},"properties":{"osm_id":"2954647072","tag":{"amenity":"waste_basket"}},"type":"Feature"},
	{"geometry":{"coordinates":[16.71129,49.632463],"type":"Point"},"properties":{"osm_id":"2954647084","tag":{"amenity":"waste_basket"}},"type":"Feature"},
	{"geometry":{"coordinates":[16.71152,49.632476],"type":"Point"},"properties":{"osm_id":"2954647087","tag":{"amenity":"waste_basket"}},"type":"Feature"},
	{"geometry":{"coordinates":[16.71157,49.632697],"type":"Point"},"properties":{"osm_id":"2954647129","tag":{"amenity":"waste_basket"}},"type":"Feature"},
	{"geometry":{"coordinates":[16.711967,49.6328],"type":"Point"},"properties":{"osm_id":"2954647147","tag":{"amenity":"waste_basket"}},"type":"Feature"},
	{"geometry":{"coordinates":[16.711417,49.632991],"type":"Point"},"properties":{"osm_id":"2954647180","tag":{"amenity":"waste_basket"}},"type":"Feature"},
	{"geometry":{"coordinates":[16.786649,49.662828],"type":"Point"},"properties":{"osm_id":"3101112790","tag":{"amenity":"waste_basket"}},"type":"Feature"},
	{"geometry":{"coordinates":[16.786715,49.662944],"type":"Point"},"properties":{"osm_id":"3101112796","tag":{"amenity":"recycling"}},"type":"Feature"},
	{"geometry":{"coordinates":[16.70933,49.630559],"type":"Point"},"properties":{"osm_id":"3361819832","tag":{"addr:city":"Jev\u00c3\u00ad\u00c4\u008dko","addr:postcode":"56943","addr:street":"M. Mikul\u00c3\u00a1\u00c5\u00a1e","amenity":"recycling","recycling:clothes":"no","recycling:glass":"yes","recycling:glass_bottles":"yes","recycling:paper":"yes","recycling:plastic":"yes"}},"type":"Feature"},
	{"geometry":{"coordinates":[16.710066,49.630872],"type":"Point"},"properties":{"osm_id":"3361819833","tag":{"addr:city":"Jev\u00c3\u00ad\u00c4\u008dko","addr:postcode":"56943","addr:street":"Na Salajce","amenity":"recycling","recycling:clothes":"yes","recycling:glass":"yes","recycling:paper":"yes","recycling:plastic":"yes","recycling_type":"container"}},"type":"Feature"},
	{"geometry":{"coordinates":[16.758696,49.646968],"type":"Point"},"properties":{"osm_id":"4462343971","tag":{"amenity":"waste_basket"}},"type":"Feature"},
	{"geometry":{"coordinates":[16.712007,49.633741],"type":"Point"},"properties":{"osm_id":"5861742104","tag":{"amenity":"waste_basket"}},"type":"Feature"},
	{"geometry":{"coordinates":[16.758327,49.647386],"type":"Point"},"properties":{"osm_id":"7003195535","tag":{"amenity":"recycling","recycling:glass":"yes","recycling:paper":"yes","recycling:plastic":"yes","recycling_type":"container"}},"type":"Feature"},
	{"geometry":{"coordinates":[16.71062,49.635262],"type":"Point"},"properties":{"osm_id":"7832510819","tag":{"amenity":"waste_basket","waste":"trash"}},"type":"Feature"}
]
}
