{
"type": "FeatureCollection",
"features": [
	{"geometry":{"coordinates":[16.703281,49.403398],"type":"Point"},"properties":{"osm_id":"2755162926","tag":{"amenity":"waste_basket"}},"type":"Feature"},
	{"geometry":{"coordinates":[16.775982,49.401349],"type":"Point"},"properties":{"osm_id":"2939810495","tag":{"amenity":"waste_basket"}},"type":"Feature"},
	{"geometry":{"coordinates":[16.776312,49.401907],"type":"Point"},"properties":{"osm_id":"2939810507","tag":{"amenity":"waste_basket"}},"type":"Feature"},
	{"geometry":{"coordinates":[16.776693,49.402023],"type":"Point"},"properties":{"osm_id":"2939810510","tag":{"amenity":"waste_basket"}},"type":"Feature"},
	{"geometry":{"coordinates":[16.747771,49.409129],"type":"Point"},"properties":{"osm_id":"3252741800","tag":{"amenity":"waste_disposal"}},"type":"Feature"},
	{"geometry":{"coordinates":[16.720417,49.402675],"type":"Point"},"properties":{"osm_id":"3586778156","tag":{"amenity":"recycling","recycling_type":"container"}},"type":"Feature"},
	{"geometry":{"coordinates":[16.70025,49.408965],"type":"Point"},"properties":{"osm_id":"3586778607","tag":{"amenity":"recycling"}},"type":"Feature"},
	{"geometry":{"coordinates":[16.699302,49.411271],"type":"Point"},"properties":{"osm_id":"3586778706","tag":{"amenity":"waste_basket"}},"type":"Feature"},
	{"geometry":{"coordinates":[16.699544,49.411733],"type":"Point"},"properties":{"osm_id":"3586778728","tag":{"amenity":"waste_basket"}},"type":"Feature"},
	{"geometry":{"coordinates":[16.699851,49.411869],"type":"Point"},"properties":{"osm_id":"3586778737","tag":{"amenity":"recycling"}},"type":"Feature"},
	{"geometry":{"coordinates":[16.699632,49.421556],"type":"Point"},"properties":{"osm_id":"3586778845","tag":{"amenity":"recycling"}},"type":"Feature"},
	{"geometry":{"coordinates":[16.709601,49.397781],"type":"Point"},"properties":{"osm_id":"4742613911","tag":{"amenity":"recycling","recycling_type":"centre","website":"https://www.vavrinec.cz/sberny-dvur-odpadu/"}},"type":"Feature"},
	{"geometry":{"coordinates":[16.72101,49.392225],"type":"Point"},"properties":{"osm_id":"5324389966","tag":{"amenity":"recycling","recycling_type":"container"}},"type":"Feature"},
	{"geometry":{"coordinates":[16.737049,49.415128],"type":"Point"},"properties":{"osm_id":"6391990286","tag":{"amenity":"recycling","recycling_type":"container"}},"type":"Feature"},
	{"geometry":{"coordinates":[16.739167,49.415543],"type":"Point"},"properties":{"osm_id":"6391990294","tag":{"amenity":"waste_basket"}},"type":"Feature"},
	{"geometry":{"coordinates":[16.739492,49.415551],"type":"Point"},"properties":{"osm_id":"6391990295","tag":{"amenity":"waste_basket"}},"type":"Feature"}
]
}
