{
"type": "FeatureCollection",
"features": [
	{"geometry":{"coordinates":[16.766102,48.020088],"type":"Point"},"properties":{"osm_id":"446261635","tag":{"amenity":"recycling","recycling:cans":"yes","recycling:glass":"yes","recycling:scrap_metal":"no","recycling_type":"container"}},"type":"Feature"},
	{"geometry":{"coordinates":[16.732182,48.011389],"type":"Point"},"properties":{"osm_id":"1206303004","tag":{"amenity":"recycling","recycling_type":"container"}},"type":"Feature"},
	{"geometry":{"coordinates":[16.77728,48.029082],"type":"Point"},"properties":{"osm_id":"3730905551","tag":{"amenity":"recycling","recycling:cans":"yes","recycling:glass":"yes","recycling_type":"container"}},"type":"Feature"},
	{"geometry":{"coordinates":[16.770345,48.025196],"type":"Point"},"properties":{"osm_id":"3730913157","tag":{"amenity":"waste_basket"}},"type":"Feature"},
	{"geometry":{"coordinates":[16.779955,48.030403],"type":"Point"},"properties":{"osm_id":"4604313369","tag":{"amenity":"waste_basket"}},"type":"Feature"},
	{"geometry":{"coordinates":[16.736905,48.024433],"type":"Point"},"properties":{"osm_id":"4888505669","tag":{"amenity":"waste_basket"}},"type":"Feature"},
	{"geometry":{"coordinates":[16.735872,48.024482],"type":"Point"},"properties":{"osm_id":"4888505670","tag":{"amenity":"waste_basket"}},"type":"Feature"},
	{"geometry":{"coordinates":[16.772259,48.014569],"type":"Point"},"properties":{"osm_id":"5111463523","tag":{"amenity":"recycling","recycling:cans":"yes","recycling:glass_bottles":"yes","recycling_type":"container"}},"type":"Feature"},
	{"geometry":{"coordinates":[16.769827,48.01492],"type":"Point"},"properties":{"osm_id":"5111463530","tag":{"amenity":"recycling","recycling:cans":"yes","recycling:cardboard":"yes","recycling:paper":"yes","recycling:plastic_bottles":"yes","recycling_type":"container"}},"type":"Feature"},
	{"geometry":{"coordinates":[16.780939,48.018633],"type":"Point"},"properties":{"osm_id":"5333571508","tag":{"amenity":"waste_basket"}},"type":"Feature"},
	{"geometry":{"coordinates":[16.732584,48.032763],"type":"Point"},"properties":{"osm_id":"7241124103","tag":{"amenity":"waste_basket"}},"type":"Feature"},
	{"geometry":{"coordinates":[16.75786,48.0227],"type":"Point"},"properties":{"osm_id":"7884583227","tag":{"amenity":"waste_basket"}},"type":"Feature"},
	{"geometry":{"coordinates":[16.782504,48.03127],"type":"Point"},"properties":{"osm_id":"7912697084","tag":{"amenity":"recycling","recycling:clothes":"yes","recycling:metal":"yes","recycling_type":"container"}},"type":"Feature"}
]
}
