{
"type": "FeatureCollection",
"features": [
	{"geometry":{"coordinates":[75.241416,30.255186],"type":"Point"},"properties":{"osm_id":"5668943825","tag":{"amenity":"waste_disposal"}},"type":"Feature"},
	{"geometry":{"coordinates":[75.241463,30.255027],"type":"Point"},"properties":{"osm_id":"5668943826","tag":{"amenity":"waste_disposal"}},"type":"Feature"},
	{"geometry":{"coordinates":[75.241662,30.254913],"type":"Point"},"properties":{"osm_id":"5668943827","tag":{"amenity":"waste_disposal"}},"type":"Feature"},
	{"geometry":{"coordinates":[75.241884,30.254902],"type":"Point"},"properties":{"osm_id":"5668943828","tag":{"amenity":"waste_disposal"}},"type":"Feature"},
	{"geometry":{"coordinates":[75.242102,30.254856],"type":"Point"},"properties":{"osm_id":"5668943829","tag":{"amenity":"waste_disposal"}},"type":"Feature"},
	{"geometry":{"coordinates":[75.24057,30.254856],"type":"Point"},"properties":{"osm_id":"5668943836","tag":{"amenity":"waste_disposal"}},"type":"Feature"},
	{"geometry":{"coordinates":[75.240721,30.254747],"type":"Point"},"properties":{"osm_id":"5668943837","tag":{"amenity":"waste_disposal"}},"type":"Feature"},
	{"geometry":{"coordinates":[75.240842,30.25463],"type":"Point"},"properties":{"osm_id":"5668943838","tag":{"amenity":"waste_disposal"}},"type":"Feature"},
	{"geometry":{"coordinates":[75.240949,30.254639],"type":"Point"},"properties":{"osm_id":"5668943839","tag":{"amenity":"waste_disposal"}},"type":"Feature"},
	{"geometry":{"coordinates":[75.240991,30.25484],"type":"Point"},"properties":{"osm_id":"5668943840","tag":{"amenity":"waste_disposal"}},"type":"Feature"},
	{"geometry":{"coordinates":[75.241044,30.255016],"type":"Point"},"properties":{"osm_id":"5668943841","tag":{"amenity":"waste_disposal"}},"type":"Feature"},
	{"geometry":{"coordinates":[75.241517,30.25479],"type":"Point"},"properties":{"osm_id":"5668943850","tag":{"amenity":"waste_disposal"}},"type":"Feature"},
	{"geometry":{"coordinates":[75.241466,30.2547],"type":"Point"},"properties":{"osm_id":"5668943851","tag":{"amenity":"waste_disposal","status":"clean"}},"type":"Feature"},
	{"geometry":{"coordinates":[75.241404,30.254569],"type":"Point"},"properties":{"osm_id":"5668943852","tag":{"amenity":"waste_disposal"}},"type":"Feature"},
	{"geometry":{"coordinates":[75.241441,30.254386],"type":"Point"},"properties":{"osm_id":"5668943853","tag":{"amenity":"waste_disposal"}},"type":"Feature"},
	{"geometry":{"coordinates":[75.241586,30.254256],"type":"Point"},"properties":{"osm_id":"5668943854","tag":{"amenity":"waste_disposal"}},"type":"Feature"},
	{"geometry":{"coordinates":[75.241641,30.254147],"type":"Point"},"properties":{"osm_id":"5668943855","tag":{"amenity":"waste_disposal"}},"type":"Feature"}
]
}
