{
"type": "FeatureCollection",
"features": [
	{"geometry":{"coordinates":[-123.718039,48.805592],"type":"Point"},"properties":{"name":"Return-It","osm_id":"857834693","tag":{"amenity":"recycling","operator":"Encorp","recycling:beverage_cartons":"yes","recycling:cans":"yes","recycling:glass_bottles":"yes","recycling:plastic_bottles":"yes","recycling:small_appliances":"yes","recycling:tv_monitor":"yes"}},"type":"Feature"},
	{"geometry":{"coordinates":[-123.709423,48.785511],"type":"Point"},"properties":{"osm_id":"2037786241","tag":{"amenity":"waste_basket"}},"type":"Feature"},
	{"geometry":{"coordinates":[-123.709873,48.785548],"type":"Point"},"properties":{"osm_id":"2037786245","tag":{"amenity":"waste_basket"}},"type":"Feature"},
	{"geometry":{"coordinates":[-123.727655,48.786004],"type":"Point"},"properties":{"osm_id":"2037786290","tag":{"amenity":"waste_basket"}},"type":"Feature"},
	{"geometry":{"coordinates":[-123.724734,48.786843],"type":"Point"},"properties":{"osm_id":"2037786397","tag":{"amenity":"waste_basket"}},"type":"Feature"},
	{"geometry":{"coordinates":[-123.72701,48.798067],"type":"Point"},"properties":{"osm_id":"2037786773","tag":{"amenity":"waste_basket"}},"type":"Feature"},
	{"geometry":{"coordinates":[-123.723769,48.799407],"type":"Point"},"properties":{"osm_id":"2037786814","tag":{"amenity":"waste_basket"}},"type":"Feature"},
	{"geometry":{"coordinates":[-123.710296,48.789654],"type":"Point"},"properties":{"osm_id":"2037790212","tag":{"amenity":"waste_basket"}},"type":"Feature"},
	{"geometry":{"coordinates":[-123.685325,48.759564],"type":"Point"},"properties":{"osm_id":"2341517219","tag":{"amenity":"waste_basket"}},"type":"Feature"},
	{"geometry":{"coordinates":[-123.66282,48.791517],"type":"Point"},"properties":{"osm_id":"2341517230","tag":{"amenity":"waste_basket"}},"type":"Feature"},
	{"geometry":{"coordinates":[-123.719853,48.799022],"type":"Point"},"properties":{"osm_id":"2950143542","tag":{"amenity":"waste_basket"}},"type":"Feature"},
	{"geometry":{"coordinates":[-123.722976,48.800359],"type":"Point"},"properties":{"osm_id":"2950143573","tag":{"amenity":"waste_basket"}},"type":"Feature"},
	{"geometry":{"coordinates":[-123.70762,48.768681],"type":"Point"},"properties":{"osm_id":"4179501447","tag":{"amenity":"waste_basket"}},"type":"Feature"},
	{"geometry":{"coordinates":[-123.705234,48.787441],"type":"Point"},"properties":{"osm_id":"4396958564","tag":{"amenity":"waste_basket"}},"type":"Feature"},
	{"geometry":{"coordinates":[-123.671577,48.788318],"type":"Point"},"properties":{"osm_id":"7370516262","tag":{"amenity":"waste_basket"}},"type":"Feature"},
	{"geometry":{"coordinates":[-123.671065,48.788196],"type":"Point"},"properties":{"osm_id":"7370516263","tag":{"amenity":"waste_basket"}},"type":"Feature"},
	{"geometry":{"coordinates":[-123.671154,48.788289],"type":"Point"},"properties":{"osm_id":"7370516264","tag":{"amenity":"waste_basket"}},"type":"Feature"},
	{"geometry":{"coordinates":[-123.694589,48.79059],"type":"Point"},"properties":{"osm_id":"7370533660","tag":{"amenity":"waste_basket"}},"type":"Feature"},
	{"geometry":{"coordinates":[-123.734063,48.782045],"type":"Point"},"properties":{"osm_id":"7393899051","tag":{"amenity":"waste_basket"}},"type":"Feature"},
	{"geometry":{"coordinates":[-123.7127,48.782324],"type":"Point"},"properties":{"osm_id":"7393906480","tag":{"amenity":"waste_basket"}},"type":"Feature"},
	{"geometry":{"coordinates":[-123.712893,48.781956],"type":"Point"},"properties":{"osm_id":"7393906483","tag":{"amenity":"waste_basket"}},"type":"Feature"},
	{"geometry":{"coordinates":[-123.713008,48.781936],"type":"Point"},"properties":{"osm_id":"7393923989","tag":{"amenity":"waste_basket"}},"type":"Feature"},
	{"geometry":{"coordinates":[-123.713282,48.781726],"type":"Point"},"properties":{"osm_id":"7393923992","tag":{"amenity":"waste_basket"}},"type":"Feature"},
	{"geometry":{"coordinates":[-123.713321,48.781731],"type":"Point"},"properties":{"osm_id":"7393923993","tag":{"amenity":"recycling","recycling_type":"container"}},"type":"Feature"},
	{"geometry":{"coordinates":[-123.712974,48.781156],"type":"Point"},"properties":{"osm_id":"7393924013","tag":{"amenity":"waste_basket"}},"type":"Feature"},
	{"geometry":{"coordinates":[-123.725284,48.795845],"type":"Point"},"properties":{"osm_id":"7393926771","tag":{"amenity":"waste_basket"}},"type":"Feature"},
	{"geometry":{"coordinates":[-123.696655,48.759964],"type":"Point"},"properties":{"osm_id":"7396535980","tag":{"amenity":"waste_basket"}},"type":"Feature"},
	{"geometry":{"coordinates":[-123.702123,48.782726],"type":"Point"},"properties":{"osm_id":"7400400030","tag":{"amenity":"waste_basket"}},"type":"Feature"},
	{"geometry":{"coordinates":[-123.70188,48.782804],"type":"Point"},"properties":{"osm_id":"7400400031","tag":{"amenity":"waste_basket"}},"type":"Feature"}
]
}
