{
"type": "FeatureCollection",
"features": [
	{"geometry":{"coordinates":[-83.377925,33.943669],"type":"Point"},"properties":{"osm_id":"2457106698","tag":{"amenity":"recycling"}},"type":"Feature"},
	{"geometry":{"coordinates":[-83.396135,33.947223],"type":"Point"},"properties":{"osm_id":"2457106705","tag":{"amenity":"recycling"}},"type":"Feature"},
	{"geometry":{"coordinates":[-83.334917,33.96723],"type":"Point"},"properties":{"name":"Athens-Clarke County Recycling Facility","osm_id":"2457106710","tag":{"addr:city":"Athens","addr:housenumber":"699","addr:street":"Hancock Industrial Way","amenity":"recycling","recycling_type":"centre"}},"type":"Feature"},
	{"geometry":{"coordinates":[-83.378777,33.969365],"type":"Point"},"properties":{"osm_id":"2457106711","tag":{"amenity":"recycling"}},"type":"Feature"},
	{"geometry":{"coordinates":[-83.395926,33.982868],"type":"Point"},"properties":{"osm_id":"2457106712","tag":{"amenity":"recycling"}},"type":"Feature"},
	{"geometry":{"coordinates":[-83.353831,33.997869],"type":"Point"},"properties":{"name":"North - Athens-Clarke County Fire Station #9","osm_id":"2457106715","tag":{"addr:city":"Athens","addr:housenumber":"1650","addr:street":"Danielsville Road","amenity":"recycling","website":"http://www.athensclarkecounty.com/index.aspx?NID=1330"}},"type":"Feature"},
	{"geometry":{"coordinates":[-83.341959,33.990274],"type":"Point"},"properties":{"name":"Northeast - Athens Technical College","osm_id":"2457522726","tag":{"amenity":"recycling","website":"http://www.athensclarkecounty.com/index.aspx?NID=1330"}},"type":"Feature"},
	{"geometry":{"coordinates":[-83.395759,33.976558],"type":"Point"},"properties":{"name":"Free I.T. Athens","osm_id":"2537352354","tag":{"addr:city":"Athens","addr:housename":"Free I.T. Athens - Suite #9","addr:housenumber":"160","addr:postcode":"30608","addr:state":"GA","addr:street":"Winston Drive","amenity":"recycling","phone":"706-621-6157","recycling_type":"centre","shop":"computer","website":"http://www.freeitathens.org","wheelchair":"yes"}},"type":"Feature"},
	{"geometry":{"coordinates":[-83.407829,33.96313],"type":"Point"},"properties":{"osm_id":"7944721828","tag":{"amenity":"waste_disposal"}},"type":"Feature"},
	{"geometry":{"coordinates":[-83.407963,33.963372],"type":"Point"},"properties":{"osm_id":"7947786630","tag":{"amenity":"recycling"}},"type":"Feature"}
]
}
