{
"type": "FeatureCollection",
"features": [
	{"geometry":{"coordinates":[-83.326918,33.942843],"type":"Point"},"properties":{"name":"Southeast - ACC Tag Office Lot","osm_id":"2457106695","tag":{"amenity":"recycling","recycling_type":"container","website":"http://www.athensclarkecounty.com/index.aspx?NID=1330"}},"type":"Feature"},
	{"geometry":{"coordinates":[-83.372794,33.9414],"type":"Point"},"properties":{"osm_id":"7977403452","tag":{"amenity":"recycling"}},"type":"Feature"},
	{"geometry":{"coordinates":[-83.373192,33.941278],"type":"Point"},"properties":{"osm_id":"7977403465","tag":{"amenity":"recycling"}},"type":"Feature"},
	{"geometry":{"coordinates":[-83.370323,33.938729],"type":"Point"},"properties":{"osm_id":"7985449409","tag":{"amenity":"recycling"}},"type":"Feature"},
	{"geometry":{"coordinates":[-83.370425,33.940055],"type":"Point"},"properties":{"osm_id":"8000624462","tag":{"amenity":"recycling"}},"type":"Feature"},
	{"geometry":{"coordinates":[-83.370721,33.939325],"type":"Point"},"properties":{"osm_id":"8000652920","tag":{"amenity":"waste_basket"}},"type":"Feature"},
	{"geometry":{"coordinates":[-83.370709,33.939326],"type":"Point"},"properties":{"osm_id":"8000652924","tag":{"amenity":"recycling"}},"type":"Feature"},
	{"geometry":{"coordinates":[-83.370782,33.942304],"type":"Point"},"properties":{"osm_id":"8000688270","tag":{"amenity":"waste_basket"}},"type":"Feature"},
	{"geometry":{"coordinates":[-83.37078,33.942315],"type":"Point"},"properties":{"osm_id":"8000688274","tag":{"amenity":"recycling"}},"type":"Feature"},
	{"geometry":{"coordinates":[-83.371077,33.942259],"type":"Point"},"properties":{"osm_id":"8000717091","tag":{"amenity":"recycling"}},"type":"Feature"}
]
}
