{
"type": "FeatureCollection",
"features": [
	{"geometry":{"coordinates":[13.538834,48.933785],"type":"Point"},"properties":{"name":"Ahorn","osm_id":"823790846","tag":{"natural":"tree","species:de":"Ahorn"}},"type":"Feature"},
	{"geometry":{"coordinates":[13.616153,48.952076],"type":"Point"},"properties":{"osm_id":"1396644081","tag":{"name:botanical":"Prunus","natural":"tree"}},"type":"Feature"},
	{"geometry":{"coordinates":[13.616115,48.952276],"type":"Point"},"properties":{"osm_id":"1396644083","tag":{"name:botanical":"Prunus","natural":"tree"}},"type":"Feature"},
	{"geometry":{"coordinates":[13.615727,48.952557],"type":"Point"},"properties":{"osm_id":"1998438550","tag":{"natural":"tree"}},"type":"Feature"},
	{"geometry":{"coordinates":[13.615802,48.952603],"type":"Point"},"properties":{"osm_id":"1998438554","tag":{"natural":"tree"}},"type":"Feature"},
	{"geometry":{"coordinates":[13.614423,48.924628],"type":"Point"},"properties":{"osm_id":"2515954814","tag":{"natural":"tree","species:de":"L\u00c3\u00a4rche"}},"type":"Feature"},
	{"geometry":{"coordinates":[13.617127,48.955728],"type":"Point"},"properties":{"osm_id":"3145539031","tag":{"name:de":"Bildlbaum","natural":"tree"}},"type":"Feature"},
	{"geometry":{"coordinates":[13.536799,48.923245],"type":"Point"},"properties":{"name":"Dicke Tanne","osm_id":"3755669848","tag":{"natural":"tree"}},"type":"Feature"},
	{"geometry":{"coordinates":[13.547027,48.92979],"type":"Point"},"properties":{"name":"Ahorn","osm_id":"3755705687","tag":{"leaf_cycle":"deciduous","leaf_type":"broadleaved","natural":"tree"}},"type":"Feature"},
	{"geometry":{"coordinates":[13.587345,48.942651],"type":"Point"},"properties":{"osm_id":"3914173672","tag":{"natural":"tree"}},"type":"Feature"},
	{"geometry":{"coordinates":[13.583555,48.943881],"type":"Point"},"properties":{"osm_id":"3914174481","tag":{"natural":"tree"}},"type":"Feature"},
	{"geometry":{"coordinates":[13.585904,48.942989],"type":"Point"},"properties":{"osm_id":"3914186017","tag":{"natural":"tree"}},"type":"Feature"},
	{"geometry":{"coordinates":[13.583526,48.943756],"type":"Point"},"properties":{"osm_id":"3923107715","tag":{"natural":"tree"}},"type":"Feature"},
	{"geometry":{"coordinates":[13.583229,48.943551],"type":"Point"},"properties":{"osm_id":"3923107716","tag":{"natural":"tree"}},"type":"Feature"},
	{"geometry":{"coordinates":[13.607886,48.936747],"type":"Point"},"properties":{"osm_id":"3923113191","tag":{"natural":"tree"}},"type":"Feature"},
	{"geometry":{"coordinates":[13.608589,48.935655],"type":"Point"},"properties":{"osm_id":"3923113192","tag":{"natural":"tree"}},"type":"Feature"},
	{"geometry":{"coordinates":[13.607425,48.936934],"type":"Point"},"properties":{"osm_id":"3923113193","tag":{"natural":"tree"}},"type":"Feature"},
	{"geometry":{"coordinates":[13.606156,48.937265],"type":"Point"},"properties":{"osm_id":"3923113194","tag":{"natural":"tree"}},"type":"Feature"},
	{"geometry":{"coordinates":[13.607816,48.936654],"type":"Point"},"properties":{"osm_id":"3923113195","tag":{"natural":"tree"}},"type":"Feature"},
	{"geometry":{"coordinates":[13.607796,48.93645],"type":"Point"},"properties":{"osm_id":"3923113196","tag":{"natural":"tree"}},"type":"Feature"},
	{"geometry":{"coordinates":[13.606145,48.937389],"type":"Point"},"properties":{"osm_id":"3923113197","tag":{"natural":"tree"}},"type":"Feature"},
	{"geometry":{"coordinates":[13.614573,48.925419],"type":"Point"},"properties":{"osm_id":"3923128289","tag":{"natural":"tree"}},"type":"Feature"},
	{"geometry":{"coordinates":[13.614483,48.925236],"type":"Point"},"properties":{"osm_id":"3923128290","tag":{"natural":"tree"}},"type":"Feature"},
	{"geometry":{"coordinates":[13.614482,48.925114],"type":"Point"},"properties":{"osm_id":"3923128291","tag":{"natural":"tree"}},"type":"Feature"},
	{"geometry":{"coordinates":[13.614753,48.925003],"type":"Point"},"properties":{"osm_id":"3923128292","tag":{"natural":"tree"}},"type":"Feature"},
	{"geometry":{"coordinates":[13.614613,48.9255],"type":"Point"},"properties":{"osm_id":"3923128293","tag":{"natural":"tree"}},"type":"Feature"},
	{"geometry":{"coordinates":[13.6146,48.924874],"type":"Point"},"properties":{"osm_id":"3923128294","tag":{"natural":"tree"}},"type":"Feature"},
	{"geometry":{"coordinates":[13.537859,48.95648],"type":"Point"},"properties":{"name":"Ahorn","osm_id":"4415602714","tag":{"leaf_cycle":"deciduous","leaf_type":"broadleaved","natural":"tree"}},"type":"Feature"},
	{"geometry":{"coordinates":[13.537851,48.956514],"type":"Point"},"properties":{"name":"Ahorn","osm_id":"4415602715","tag":{"leaf_cycle":"deciduous","leaf_type":"broadleaved","natural":"tree"}},"type":"Feature"},
	{"geometry":{"coordinates":[13.537834,48.956541],"type":"Point"},"properties":{"name":"Ahorn","osm_id":"4415602716","tag":{"leaf_cycle":"deciduous","leaf_type":"broadleaved","natural":"tree"}},"type":"Feature"},
	{"geometry":{"coordinates":[13.537859,48.956551],"type":"Point"},"properties":{"name":"Ahorn","osm_id":"4415602717","tag":{"leaf_cycle":"evergreen","leaf_type":"broadleaved","natural":"tree"}},"type":"Feature"},
	{"geometry":{"coordinates":[13.537856,48.956541],"type":"Point"},"properties":{"name":"Ahorn","osm_id":"4415602718","tag":{"leaf_cycle":"deciduous","leaf_type":"broadleaved","natural":"tree"}},"type":"Feature"},
	{"geometry":{"coordinates":[13.537873,48.95654],"type":"Point"},"properties":{"name":"Ahorn","osm_id":"4415602719","tag":{"leaf_cycle":"deciduous","leaf_type":"broadleaved","natural":"tree"}},"type":"Feature"},
	{"geometry":{"coordinates":[13.544782,48.971341],"type":"Point"},"properties":{"osm_id":"5392800637","tag":{"denotation":"landmark","leaf_cycle":"evergreen","leaf_type":"needleleaved","natural":"tree"}},"type":"Feature"},
	{"geometry":{"coordinates":[13.563208,48.935469],"type":"Point"},"properties":{"osm_id":"6477394391","tag":{"natural":"tree"}},"type":"Feature"},
	{"geometry":{"coordinates":[13.563197,48.935237],"type":"Point"},"properties":{"osm_id":"6477394392","tag":{"natural":"tree"}},"type":"Feature"},
	{"geometry":{"coordinates":[13.563114,48.935156],"type":"Point"},"properties":{"osm_id":"6477394393","tag":{"natural":"tree"}},"type":"Feature"},
	{"geometry":{"coordinates":[13.562973,48.935133],"type":"Point"},"properties":{"osm_id":"6477394394","tag":{"natural":"tree"}},"type":"Feature"},
	{"geometry":{"coordinates":[13.563286,48.93506],"type":"Point"},"properties":{"osm_id":"6477394395","tag":{"natural":"tree"}},"type":"Feature"},
	{"geometry":{"coordinates":[13.559023,48.938684],"type":"Point"},"properties":{"osm_id":"6477704962","tag":{"natural":"tree"}},"type":"Feature"},
	{"geometry":{"coordinates":[13.622249,48.951499],"type":"Point"},"properties":{"osm_id":"7833242853","tag":{"denotation":"natural_monument","leaf_cycle":"deciduous","leaf_type":"needleleaved","name:de":"L\u00c3\u00a4rche","natural":"tree"}},"type":"Feature"},
	{"geometry":{"coordinates":[13.618801,48.952291],"type":"Point"},"properties":{"osm_id":"7833242854","tag":{"denotation":"natural_monument","leaf_cycle":"deciduous","leaf_type":"needleleaved","name:de":"L\u00c3\u00a4rche","natural":"tree"}},"type":"Feature"},
	{"geometry":{"coordinates":[13.613512,48.954612],"type":"Point"},"properties":{"osm_id":"7833249290","tag":{"denotation":"natural_monument","leaf_cycle":"deciduous","leaf_type":"broadleaved","name:de":"Linde","natural":"tree"}},"type":"Feature"},
	{"geometry":{"coordinates":[13.613318,48.954595],"type":"Point"},"properties":{"osm_id":"7833249291","tag":{"denotation":"natural_monument","leaf_cycle":"deciduous","leaf_type":"broadleaved","name:de":"Ahorn","natural":"tree"}},"type":"Feature"}
]
}
