{
"type": "FeatureCollection",
"features": [
	{"geometry":{"coordinates":[21.340009,48.75075],"type":"Point"},"properties":{"osm_id":"2441234277","tag":{"amenity":"waste_basket"}},"type":"Feature"},
	{"geometry":{"coordinates":[21.340445,48.750881],"type":"Point"},"properties":{"osm_id":"2441234280","tag":{"amenity":"waste_basket"}},"type":"Feature"},
	{"geometry":{"coordinates":[21.343435,48.752914],"type":"Point"},"properties":{"osm_id":"2441234327","tag":{"amenity":"waste_disposal"}},"type":"Feature"},
	{"geometry":{"coordinates":[21.343605,48.753072],"type":"Point"},"properties":{"osm_id":"2441234339","tag":{"amenity":"waste_basket"}},"type":"Feature"},
	{"geometry":{"coordinates":[21.3423,48.755295],"type":"Point"},"properties":{"osm_id":"2441234394","tag":{"amenity":"waste_disposal"}},"type":"Feature"},
	{"geometry":{"coordinates":[21.341505,48.757136],"type":"Point"},"properties":{"osm_id":"2441234452","tag":{"amenity":"waste_basket"}},"type":"Feature"},
	{"geometry":{"coordinates":[21.341271,48.757515],"type":"Point"},"properties":{"osm_id":"2441234476","tag":{"amenity":"recycling","recycling:clothes":"yes","recycling_type":"container"}},"type":"Feature"},
	{"geometry":{"coordinates":[21.341245,48.757602],"type":"Point"},"properties":{"osm_id":"2441234484","tag":{"amenity":"waste_disposal"}},"type":"Feature"},
	{"geometry":{"coordinates":[21.345026,48.757627],"type":"Point"},"properties":{"osm_id":"2441234490","tag":{"amenity":"waste_disposal"}},"type":"Feature"},
	{"geometry":{"coordinates":[21.347061,48.758265],"type":"Point"},"properties":{"osm_id":"2441234534","tag":{"amenity":"waste_disposal"}},"type":"Feature"},
	{"geometry":{"coordinates":[21.317446,48.76966],"type":"Point"},"properties":{"osm_id":"2441234909","tag":{"amenity":"waste_disposal"}},"type":"Feature"},
	{"geometry":{"coordinates":[21.317477,48.769667],"type":"Point"},"properties":{"osm_id":"2441234910","tag":{"amenity":"recycling","recycling:glass":"yes"}},"type":"Feature"},
	{"geometry":{"coordinates":[21.347692,48.791555],"type":"Point"},"properties":{"osm_id":"2441235375","tag":{"amenity":"recycling","recycling:clothes":"yes","recycling_type":"container"}},"type":"Feature"},
	{"geometry":{"coordinates":[21.348888,48.79235],"type":"Point"},"properties":{"osm_id":"2441235395","tag":{"amenity":"waste_disposal"}},"type":"Feature"},
	{"geometry":{"coordinates":[21.352216,48.794099],"type":"Point"},"properties":{"osm_id":"2441235430","tag":{"amenity":"waste_disposal"}},"type":"Feature"},
	{"geometry":{"coordinates":[21.352228,48.794139],"type":"Point"},"properties":{"osm_id":"2441235431","tag":{"amenity":"recycling","recycling:glass":"yes","recycling_type":"container"}},"type":"Feature"},
	{"geometry":{"coordinates":[21.288317,48.769985],"type":"Point"},"properties":{"osm_id":"2441257295","tag":{"amenity":"waste_disposal"}},"type":"Feature"},
	{"geometry":{"coordinates":[21.270914,48.749796],"type":"Point"},"properties":{"osm_id":"5586006644","tag":{"amenity":"waste_basket"}},"type":"Feature"},
	{"geometry":{"coordinates":[21.271076,48.749554],"type":"Point"},"properties":{"osm_id":"5586006646","tag":{"amenity":"waste_basket"}},"type":"Feature"},
	{"geometry":{"coordinates":[21.270904,48.749521],"type":"Point"},"properties":{"osm_id":"5586006647","tag":{"amenity":"waste_basket"}},"type":"Feature"},
	{"geometry":{"coordinates":[21.27056,48.749505],"type":"Point"},"properties":{"osm_id":"5586006649","tag":{"amenity":"waste_basket"}},"type":"Feature"},
	{"geometry":{"coordinates":[21.305146,48.797377],"type":"Point"},"properties":{"osm_id":"6100698321","tag":{"amenity":"waste_basket"}},"type":"Feature"},
	{"geometry":{"coordinates":[21.304958,48.797315],"type":"Point"},"properties":{"osm_id":"6100698329","tag":{"amenity":"waste_basket"}},"type":"Feature"},
	{"geometry":{"coordinates":[21.30499,48.797117],"type":"Point"},"properties":{"osm_id":"6100698341","tag":{"amenity":"waste_basket"}},"type":"Feature"},
	{"geometry":{"coordinates":[21.273828,48.753685],"type":"Point"},"properties":{"barrier":"gate","osm_id":"6537188191","tag":{"access":"permissive","bicycle":"no","horse":"no","motor_vehicle":"no","opening_hours":"24/7"}},"type":"Feature"},
	{"geometry":{"coordinates":[21.272369,48.750141],"type":"Point"},"properties":{"osm_id":"6779409369","tag":{"amenity":"waste_basket"}},"type":"Feature"},
	{"geometry":{"coordinates":[21.276181,48.756659],"type":"Point"},"properties":{"osm_id":"6869314157","tag":{"amenity":"recycling","colour":"grey","indoor":"no","material":"metal","operator":"Ekocharita","recycling:clothes":"yes","recycling:shoes":"yes","recycling_type":"container"}},"type":"Feature"},
	{"geometry":{"coordinates":[21.273776,48.753737],"type":"Point"},"properties":{"osm_id":"6869314158","tag":{"amenity":"recycling","colour":"grey","indoor":"no","material":"metal","operator":"Ekocharita","recycling:clothes":"yes","recycling:shoes":"yes","recycling_type":"container"}},"type":"Feature"},
	{"geometry":{"coordinates":[21.272497,48.758848],"type":"Point"},"properties":{"osm_id":"6869314161","tag":{"amenity":"recycling","colour":"grey","indoor":"no","material":"metal","operator":"Ekocharita","recycling:clothes":"yes","recycling:shoes":"yes","recycling_type":"container"}},"type":"Feature"},
	{"geometry":{"coordinates":[21.272911,48.756314],"type":"Point"},"properties":{"osm_id":"6869314164","tag":{"amenity":"recycling","colour":"grey","indoor":"no","material":"metal","operator":"Ekocharita","recycling:clothes":"yes","recycling:shoes":"yes","recycling_type":"container"}},"type":"Feature"},
	{"geometry":{"coordinates":[21.298585,48.759553],"type":"Point"},"properties":{"osm_id":"7160279926","tag":{"amenity":"waste_basket"}},"type":"Feature"},
	{"geometry":{"coordinates":[21.298839,48.760143],"type":"Point"},"properties":{"osm_id":"7160299051","tag":{"amenity":"waste_basket"}},"type":"Feature"},
	{"geometry":{"coordinates":[21.296642,48.769537],"type":"Point"},"properties":{"osm_id":"7160329333","tag":{"amenity":"waste_basket"}},"type":"Feature"}
]
}
