{
"type": "FeatureCollection",
"features": [
	{"geometry":{"coordinates":[21.345063,48.707591],"type":"Point"},"properties":{"osm_id":"1906786277","tag":{"amenity":"recycling","recycling:glass":"yes","recycling:plastic":"yes","recycling_type":"container"}},"type":"Feature"},
	{"geometry":{"coordinates":[21.343797,48.692877],"type":"Point"},"properties":{"osm_id":"1914310910","tag":{"amenity":"waste_basket"}},"type":"Feature"},
	{"geometry":{"coordinates":[21.34731,48.692879],"type":"Point"},"properties":{"osm_id":"1914310912","tag":{"amenity":"recycling","recycling:glass":"yes","recycling:plastic":"yes","recycling_type":"container"}},"type":"Feature"},
	{"geometry":{"coordinates":[21.34429,48.692919],"type":"Point"},"properties":{"osm_id":"1914310915","tag":{"amenity":"recycling","recycling:glass":"yes","recycling:plastic":"yes","recycling_type":"container"}},"type":"Feature"},
	{"geometry":{"coordinates":[21.343653,48.694618],"type":"Point"},"properties":{"osm_id":"1914310958","tag":{"amenity":"recycling","recycling:clothes":"yes","recycling_type":"container"}},"type":"Feature"},
	{"geometry":{"coordinates":[21.346094,48.694673],"type":"Point"},"properties":{"osm_id":"1914310984","tag":{"amenity":"recycling","recycling:glass":"yes","recycling:plastic":"yes","recycling_type":"container"}},"type":"Feature"},
	{"geometry":{"coordinates":[21.294922,48.720461],"type":"Point"},"properties":{"osm_id":"5378327439","tag":{"amenity":"waste_disposal"}},"type":"Feature"},
	{"geometry":{"coordinates":[21.294069,48.719079],"type":"Point"},"properties":{"osm_id":"5378327463","tag":{"amenity":"waste_disposal"}},"type":"Feature"},
	{"geometry":{"coordinates":[21.294526,48.719973],"type":"Point"},"properties":{"osm_id":"5378327849","tag":{"amenity":"waste_disposal"}},"type":"Feature"},
	{"geometry":{"coordinates":[21.294303,48.719764],"type":"Point"},"properties":{"osm_id":"5378327853","tag":{"amenity":"waste_basket"}},"type":"Feature"},
	{"geometry":{"coordinates":[21.294122,48.719459],"type":"Point"},"properties":{"osm_id":"5378332720","tag":{"amenity":"waste_basket"}},"type":"Feature"},
	{"geometry":{"coordinates":[21.293778,48.719103],"type":"Point"},"properties":{"osm_id":"5378336527","tag":{"amenity":"waste_basket"}},"type":"Feature"},
	{"geometry":{"coordinates":[21.293267,48.719075],"type":"Point"},"properties":{"osm_id":"5378336537","tag":{"amenity":"waste_basket"}},"type":"Feature"},
	{"geometry":{"coordinates":[21.293557,48.719483],"type":"Point"},"properties":{"osm_id":"5378336549","tag":{"amenity":"waste_basket"}},"type":"Feature"},
	{"geometry":{"coordinates":[21.293752,48.719797],"type":"Point"},"properties":{"osm_id":"5378336573","tag":{"amenity":"waste_basket"}},"type":"Feature"},
	{"geometry":{"coordinates":[21.293984,48.720132],"type":"Point"},"properties":{"osm_id":"5378336574","tag":{"amenity":"waste_basket"}},"type":"Feature"},
	{"geometry":{"coordinates":[21.288581,48.725183],"type":"Point"},"properties":{"osm_id":"5526065916","tag":{"amenity":"waste_disposal"}},"type":"Feature"},
	{"geometry":{"coordinates":[21.288588,48.725159],"type":"Point"},"properties":{"osm_id":"5526065917","tag":{"amenity":"recycling","recycling_type":"container"}},"type":"Feature"},
	{"geometry":{"coordinates":[21.288906,48.725931],"type":"Point"},"properties":{"osm_id":"5526068630","tag":{"amenity":"waste_disposal"}},"type":"Feature"},
	{"geometry":{"coordinates":[21.288868,48.725929],"type":"Point"},"properties":{"osm_id":"5526068631","tag":{"amenity":"recycling","recycling_type":"container"}},"type":"Feature"},
	{"geometry":{"coordinates":[21.289233,48.726175],"type":"Point"},"properties":{"osm_id":"5526068632","tag":{"amenity":"waste_disposal"}},"type":"Feature"},
	{"geometry":{"coordinates":[21.2892,48.726175],"type":"Point"},"properties":{"osm_id":"5526068633","tag":{"amenity":"recycling","recycling_type":"container"}},"type":"Feature"},
	{"geometry":{"coordinates":[21.277526,48.728921],"type":"Point"},"properties":{"osm_id":"5571683941","tag":{"amenity":"waste_basket"}},"type":"Feature"},
	{"geometry":{"coordinates":[21.274142,48.735917],"type":"Point"},"properties":{"osm_id":"5571683942","tag":{"amenity":"waste_basket"}},"type":"Feature"},
	{"geometry":{"coordinates":[21.278558,48.742804],"type":"Point"},"properties":{"osm_id":"5585281380","tag":{"amenity":"waste_basket"}},"type":"Feature"},
	{"geometry":{"coordinates":[21.279356,48.703966],"type":"Point"},"properties":{"osm_id":"5586006101","tag":{"amenity":"waste_basket"}},"type":"Feature"},
	{"geometry":{"coordinates":[21.27929,48.703916],"type":"Point"},"properties":{"osm_id":"5586006102","tag":{"amenity":"waste_basket"}},"type":"Feature"},
	{"geometry":{"coordinates":[21.279255,48.703862],"type":"Point"},"properties":{"osm_id":"5586006103","tag":{"amenity":"waste_basket"}},"type":"Feature"},
	{"geometry":{"coordinates":[21.279215,48.703775],"type":"Point"},"properties":{"osm_id":"5586006104","tag":{"amenity":"waste_basket"}},"type":"Feature"},
	{"geometry":{"coordinates":[21.279264,48.70351],"type":"Point"},"properties":{"osm_id":"5586006105","tag":{"amenity":"waste_basket"}},"type":"Feature"},
	{"geometry":{"coordinates":[21.276834,48.73066],"type":"Point"},"properties":{"osm_id":"5586006621","tag":{"amenity":"waste_basket"}},"type":"Feature"},
	{"geometry":{"coordinates":[21.27679,48.730596],"type":"Point"},"properties":{"osm_id":"5586006622","tag":{"amenity":"waste_basket"}},"type":"Feature"},
	{"geometry":{"coordinates":[21.276527,48.730235],"type":"Point"},"properties":{"osm_id":"5586006623","tag":{"amenity":"waste_basket"}},"type":"Feature"},
	{"geometry":{"coordinates":[21.276853,48.730111],"type":"Point"},"properties":{"osm_id":"5586006624","tag":{"amenity":"waste_basket"}},"type":"Feature"},
	{"geometry":{"coordinates":[21.276597,48.730088],"type":"Point"},"properties":{"osm_id":"5586006625","tag":{"amenity":"waste_basket"}},"type":"Feature"},
	{"geometry":{"coordinates":[21.281343,48.696374],"type":"Point"},"properties":{"osm_id":"5614869198","tag":{"amenity":"waste_basket","wheelchair":"yes"}},"type":"Feature"},
	{"geometry":{"coordinates":[21.281325,48.696385],"type":"Point"},"properties":{"osm_id":"5614869199","tag":{"amenity":"waste_basket","wheelchair":"yes"}},"type":"Feature"},
	{"geometry":{"coordinates":[21.280292,48.705188],"type":"Point"},"properties":{"osm_id":"5641899629","tag":{"amenity":"waste_basket"}},"type":"Feature"},
	{"geometry":{"coordinates":[21.280314,48.705209],"type":"Point"},"properties":{"osm_id":"5641899630","tag":{"amenity":"waste_disposal"}},"type":"Feature"},
	{"geometry":{"coordinates":[21.280221,48.705199],"type":"Point"},"properties":{"osm_id":"5641899644","tag":{"amenity":"waste_basket"}},"type":"Feature"},
	{"geometry":{"coordinates":[21.280737,48.703812],"type":"Point"},"properties":{"osm_id":"5641899653","tag":{"amenity":"waste_basket"}},"type":"Feature"},
	{"geometry":{"coordinates":[21.275647,48.734381],"type":"Point"},"properties":{"osm_id":"5641920994","tag":{"amenity":"waste_disposal"}},"type":"Feature"},
	{"geometry":{"coordinates":[21.28066,48.69151],"type":"Point"},"properties":{"osm_id":"5642559345","tag":{"amenity":"waste_disposal"}},"type":"Feature"},
	{"geometry":{"coordinates":[21.280412,48.69117],"type":"Point"},"properties":{"osm_id":"5642559346","tag":{"amenity":"waste_basket"}},"type":"Feature"},
	{"geometry":{"coordinates":[21.28007,48.691146],"type":"Point"},"properties":{"osm_id":"5642559366","tag":{"amenity":"waste_basket"}},"type":"Feature"},
	{"geometry":{"coordinates":[21.273127,48.720214],"type":"Point"},"properties":{"osm_id":"5643617388","tag":{"amenity":"waste_basket"}},"type":"Feature"},
	{"geometry":{"coordinates":[21.273255,48.720118],"type":"Point"},"properties":{"osm_id":"5643617391","tag":{"amenity":"waste_basket"}},"type":"Feature"},
	{"geometry":{"coordinates":[21.273385,48.720216],"type":"Point"},"properties":{"osm_id":"5643617396","tag":{"amenity":"waste_disposal"}},"type":"Feature"},
	{"geometry":{"coordinates":[21.278245,48.74003],"type":"Point"},"properties":{"osm_id":"5646276250","tag":{"amenity":"waste_basket"}},"type":"Feature"},
	{"geometry":{"coordinates":[21.283893,48.702882],"type":"Point"},"properties":{"osm_id":"5663422677","tag":{"amenity":"waste_basket"}},"type":"Feature"},
	{"geometry":{"coordinates":[21.290723,48.730577],"type":"Point"},"properties":{"osm_id":"5731107582","tag":{"amenity":"waste_basket"}},"type":"Feature"},
	{"geometry":{"coordinates":[21.292007,48.724938],"type":"Point"},"properties":{"osm_id":"5731107597","tag":{"amenity":"waste_basket"}},"type":"Feature"},
	{"geometry":{"coordinates":[21.292053,48.724846],"type":"Point"},"properties":{"osm_id":"5731107598","tag":{"amenity":"waste_disposal"}},"type":"Feature"},
	{"geometry":{"coordinates":[21.292245,48.724484],"type":"Point"},"properties":{"osm_id":"5731107612","tag":{"amenity":"waste_basket"}},"type":"Feature"},
	{"geometry":{"coordinates":[21.295781,48.732906],"type":"Point"},"properties":{"osm_id":"6033748585","tag":{"amenity":"waste_disposal"}},"type":"Feature"},
	{"geometry":{"coordinates":[21.295764,48.732874],"type":"Point"},"properties":{"osm_id":"6033748586","tag":{"amenity":"waste_disposal"}},"type":"Feature"},
	{"geometry":{"coordinates":[21.292909,48.732189],"type":"Point"},"properties":{"osm_id":"6033748648","tag":{"amenity":"waste_basket"}},"type":"Feature"},
	{"geometry":{"coordinates":[21.285939,48.734904],"type":"Point"},"properties":{"osm_id":"6033748711","tag":{"amenity":"waste_disposal"}},"type":"Feature"},
	{"geometry":{"coordinates":[21.285937,48.734874],"type":"Point"},"properties":{"osm_id":"6033748712","tag":{"amenity":"recycling","recycling_type":"container"}},"type":"Feature"},
	{"geometry":{"coordinates":[21.281063,48.693291],"type":"Point"},"properties":{"osm_id":"6215672742","tag":{"amenity":"waste_basket"}},"type":"Feature"},
	{"geometry":{"coordinates":[21.28105,48.693122],"type":"Point"},"properties":{"osm_id":"6215672743","tag":{"amenity":"waste_basket"}},"type":"Feature"},
	{"geometry":{"coordinates":[21.289083,48.692011],"type":"Point"},"properties":{"osm_id":"6238654757","tag":{"amenity":"waste_basket"}},"type":"Feature"},
	{"geometry":{"coordinates":[21.289225,48.692143],"type":"Point"},"properties":{"osm_id":"6238654773","tag":{"amenity":"waste_basket"}},"type":"Feature"},
	{"geometry":{"coordinates":[21.288892,48.692594],"type":"Point"},"properties":{"osm_id":"6238654778","tag":{"amenity":"waste_basket"}},"type":"Feature"},
	{"geometry":{"coordinates":[21.289131,48.692468],"type":"Point"},"properties":{"osm_id":"6238654779","tag":{"amenity":"waste_basket"}},"type":"Feature"},
	{"geometry":{"coordinates":[21.28875,48.692696],"type":"Point"},"properties":{"osm_id":"6238654780","tag":{"amenity":"waste_basket"}},"type":"Feature"},
	{"geometry":{"coordinates":[21.288651,48.692962],"type":"Point"},"properties":{"osm_id":"6238660088","tag":{"amenity":"waste_basket"}},"type":"Feature"},
	{"geometry":{"coordinates":[21.288344,48.693239],"type":"Point"},"properties":{"osm_id":"6238660089","tag":{"amenity":"waste_basket"}},"type":"Feature"},
	{"geometry":{"coordinates":[21.288316,48.693319],"type":"Point"},"properties":{"osm_id":"6238660090","tag":{"amenity":"waste_basket"}},"type":"Feature"},
	{"geometry":{"coordinates":[21.288328,48.693305],"type":"Point"},"properties":{"osm_id":"6238660091","tag":{"amenity":"waste_basket"}},"type":"Feature"},
	{"geometry":{"coordinates":[21.286765,48.69448],"type":"Point"},"properties":{"osm_id":"6350997870","tag":{"amenity":"waste_basket"}},"type":"Feature"},
	{"geometry":{"coordinates":[21.293,48.731838],"type":"Point"},"properties":{"osm_id":"6403848999","tag":{"amenity":"waste_disposal","operator":"Klas"}},"type":"Feature"},
	{"geometry":{"coordinates":[21.292519,48.732348],"type":"Point"},"properties":{"osm_id":"6403849008","tag":{"amenity":"waste_basket"}},"type":"Feature"},
	{"geometry":{"coordinates":[21.292776,48.726287],"type":"Point"},"properties":{"osm_id":"6403849019","tag":{"amenity":"waste_basket"}},"type":"Feature"},
	{"geometry":{"coordinates":[21.296763,48.728094],"type":"Point"},"properties":{"osm_id":"6479082317","tag":{"amenity":"waste_disposal"}},"type":"Feature"},
	{"geometry":{"coordinates":[21.29685,48.727728],"type":"Point"},"properties":{"osm_id":"6479082318","tag":{"amenity":"waste_disposal"}},"type":"Feature"},
	{"geometry":{"coordinates":[21.296948,48.727349],"type":"Point"},"properties":{"osm_id":"6479082319","tag":{"amenity":"waste_disposal"}},"type":"Feature"},
	{"geometry":{"coordinates":[21.296259,48.728679],"type":"Point"},"properties":{"osm_id":"6479082359","tag":{"amenity":"waste_disposal"}},"type":"Feature"},
	{"geometry":{"coordinates":[21.291739,48.732053],"type":"Point"},"properties":{"osm_id":"6531818223","tag":{"amenity":"waste_basket"}},"type":"Feature"},
	{"geometry":{"coordinates":[21.291827,48.732009],"type":"Point"},"properties":{"osm_id":"6531818224","tag":{"amenity":"waste_basket"}},"type":"Feature"},
	{"geometry":{"coordinates":[21.291978,48.731939],"type":"Point"},"properties":{"osm_id":"6531818225","tag":{"amenity":"waste_basket"}},"type":"Feature"},
	{"geometry":{"coordinates":[21.292305,48.720139],"type":"Point"},"properties":{"osm_id":"6532248271","tag":{"amenity":"waste_basket"}},"type":"Feature"},
	{"geometry":{"coordinates":[21.282598,48.69783],"type":"Point"},"properties":{"osm_id":"6576161717","tag":{"amenity":"waste_basket"}},"type":"Feature"},
	{"geometry":{"coordinates":[21.296344,48.727207],"type":"Point"},"properties":{"osm_id":"6631757622","tag":{"amenity":"waste_basket"}},"type":"Feature"},
	{"geometry":{"coordinates":[21.296349,48.727259],"type":"Point"},"properties":{"osm_id":"6631757623","tag":{"amenity":"waste_basket","waste":"dog_excrement"}},"type":"Feature"},
	{"geometry":{"coordinates":[21.296373,48.727457],"type":"Point"},"properties":{"osm_id":"6631757624","tag":{"amenity":"waste_basket"}},"type":"Feature"},
	{"geometry":{"coordinates":[21.279534,48.716371],"type":"Point"},"properties":{"osm_id":"6634389707","tag":{"amenity":"waste_basket"}},"type":"Feature"},
	{"geometry":{"coordinates":[21.279723,48.716237],"type":"Point"},"properties":{"osm_id":"6634389738","tag":{"amenity":"waste_basket"}},"type":"Feature"},
	{"geometry":{"coordinates":[21.279091,48.711398],"type":"Point"},"properties":{"osm_id":"6634390047","tag":{"amenity":"waste_basket"}},"type":"Feature"},
	{"geometry":{"coordinates":[21.293426,48.725815],"type":"Point"},"properties":{"osm_id":"7024204123","tag":{"amenity":"waste_basket"}},"type":"Feature"},
	{"geometry":{"coordinates":[21.288098,48.729872],"type":"Point"},"properties":{"osm_id":"7472055424","tag":{"amenity":"recycling","recycling_type":"container"}},"type":"Feature"},
	{"geometry":{"coordinates":[21.295295,48.729646],"type":"Point"},"properties":{"osm_id":"7770888060","tag":{"amenity":"waste_basket","waste":"dog_excrement"}},"type":"Feature"},
	{"geometry":{"coordinates":[21.289057,48.732371],"type":"Point"},"properties":{"osm_id":"7837099745","tag":{"amenity":"waste_basket"}},"type":"Feature"},
	{"geometry":{"coordinates":[21.283299,48.737254],"type":"Point"},"properties":{"osm_id":"7837099769","tag":{"amenity":"waste_basket"}},"type":"Feature"},
	{"geometry":{"coordinates":[21.28356,48.737576],"type":"Point"},"properties":{"osm_id":"7837131411","tag":{"amenity":"waste_basket"}},"type":"Feature"},
	{"geometry":{"coordinates":[21.283045,48.737829],"type":"Point"},"properties":{"osm_id":"7837131415","tag":{"amenity":"waste_basket"}},"type":"Feature"},
	{"geometry":{"coordinates":[21.276696,48.744257],"type":"Point"},"properties":{"osm_id":"7837131428","tag":{"amenity":"waste_basket","waste":"dog_excrement"}},"type":"Feature"}
]
}
