{
"type": "FeatureCollection",
"features": [
	{"geometry":{"coordinates":[21.347479,48.6908],"type":"Point"},"properties":{"osm_id":"1914310864","tag":{"amenity":"recycling","recycling:glass":"yes","recycling:plastic":"yes","recycling_type":"container"}},"type":"Feature"},
	{"geometry":{"coordinates":[21.28508,48.684164],"type":"Point"},"properties":{"osm_id":"5390867158","tag":{"amenity":"waste_basket"}},"type":"Feature"},
	{"geometry":{"coordinates":[21.317857,48.670328],"type":"Point"},"properties":{"osm_id":"5390905910","tag":{"amenity":"waste_basket"}},"type":"Feature"},
	{"geometry":{"coordinates":[21.318429,48.67119],"type":"Point"},"properties":{"osm_id":"5390906232","tag":{"amenity":"waste_basket"}},"type":"Feature"},
	{"geometry":{"coordinates":[21.285989,48.683768],"type":"Point"},"properties":{"osm_id":"5569876890","tag":{"amenity":"waste_disposal"}},"type":"Feature"},
	{"geometry":{"coordinates":[21.28596,48.683783],"type":"Point"},"properties":{"osm_id":"5569876891","tag":{"amenity":"waste_disposal"}},"type":"Feature"},
	{"geometry":{"coordinates":[21.286365,48.684051],"type":"Point"},"properties":{"osm_id":"5569876903","tag":{"amenity":"waste_basket"}},"type":"Feature"},
	{"geometry":{"coordinates":[21.286346,48.684419],"type":"Point"},"properties":{"osm_id":"5569877026","tag":{"amenity":"waste_basket"}},"type":"Feature"},
	{"geometry":{"coordinates":[21.28614,48.684194],"type":"Point"},"properties":{"osm_id":"5569877031","tag":{"amenity":"waste_basket"}},"type":"Feature"},
	{"geometry":{"coordinates":[21.319892,48.669067],"type":"Point"},"properties":{"osm_id":"5571683933","tag":{"amenity":"waste_basket"}},"type":"Feature"},
	{"geometry":{"coordinates":[21.270841,48.671978],"type":"Point"},"properties":{"osm_id":"5571683937","tag":{"amenity":"waste_basket"}},"type":"Feature"},
	{"geometry":{"coordinates":[21.28433,48.689553],"type":"Point"},"properties":{"osm_id":"5576715162","tag":{"amenity":"waste_basket"}},"type":"Feature"},
	{"geometry":{"coordinates":[21.284858,48.688041],"type":"Point"},"properties":{"osm_id":"5576715214","tag":{"amenity":"waste_basket"}},"type":"Feature"},
	{"geometry":{"coordinates":[21.291323,48.687359],"type":"Point"},"properties":{"osm_id":"5576715236","tag":{"amenity":"waste_basket"}},"type":"Feature"},
	{"geometry":{"coordinates":[21.289109,48.684834],"type":"Point"},"properties":{"osm_id":"5576715270","tag":{"amenity":"waste_basket"}},"type":"Feature"},
	{"geometry":{"coordinates":[21.293484,48.682189],"type":"Point"},"properties":{"osm_id":"5576715299","tag":{"amenity":"waste_basket"}},"type":"Feature"},
	{"geometry":{"coordinates":[21.293378,48.682431],"type":"Point"},"properties":{"osm_id":"5576715303","tag":{"amenity":"waste_basket"}},"type":"Feature"},
	{"geometry":{"coordinates":[21.294714,48.680292],"type":"Point"},"properties":{"osm_id":"5576715346","tag":{"amenity":"waste_basket"}},"type":"Feature"},
	{"geometry":{"coordinates":[21.294772,48.680245],"type":"Point"},"properties":{"osm_id":"5576715347","tag":{"amenity":"waste_basket"}},"type":"Feature"},
	{"geometry":{"coordinates":[21.296865,48.679296],"type":"Point"},"properties":{"osm_id":"5576715377","tag":{"amenity":"waste_basket"}},"type":"Feature"},
	{"geometry":{"coordinates":[21.27216,48.668875],"type":"Point"},"properties":{"osm_id":"5641899250","tag":{"amenity":"waste_basket"}},"type":"Feature"},
	{"geometry":{"coordinates":[21.272119,48.669198],"type":"Point"},"properties":{"osm_id":"5641899256","tag":{"amenity":"waste_basket"}},"type":"Feature"},
	{"geometry":{"coordinates":[21.272238,48.669465],"type":"Point"},"properties":{"osm_id":"5641899266","tag":{"amenity":"waste_basket"}},"type":"Feature"},
	{"geometry":{"coordinates":[21.272026,48.669589],"type":"Point"},"properties":{"osm_id":"5641899267","tag":{"amenity":"waste_basket"}},"type":"Feature"},
	{"geometry":{"coordinates":[21.272229,48.669634],"type":"Point"},"properties":{"osm_id":"5641899268","tag":{"amenity":"waste_basket"}},"type":"Feature"},
	{"geometry":{"coordinates":[21.271848,48.669828],"type":"Point"},"properties":{"osm_id":"5641899272","tag":{"amenity":"waste_disposal"}},"type":"Feature"},
	{"geometry":{"coordinates":[21.271759,48.669658],"type":"Point"},"properties":{"osm_id":"5641899277","tag":{"amenity":"waste_basket"}},"type":"Feature"},
	{"geometry":{"coordinates":[21.312386,48.672642],"type":"Point"},"properties":{"osm_id":"5663422720","tag":{"amenity":"waste_basket"}},"type":"Feature"},
	{"geometry":{"coordinates":[21.317083,48.677106],"type":"Point"},"properties":{"osm_id":"5663634569","tag":{"amenity":"waste_basket"}},"type":"Feature"},
	{"geometry":{"coordinates":[21.317014,48.677215],"type":"Point"},"properties":{"osm_id":"5663634570","tag":{"amenity":"waste_basket"}},"type":"Feature"},
	{"geometry":{"coordinates":[21.282042,48.685892],"type":"Point"},"properties":{"name":"Zbern\u00c3\u00bd dvor","osm_id":"5715149549","tag":{"amenity":"recycling","operator":"JOZEF FIGE\u00c4\u00bd \u00e2\u0080\u0093 KOV \u00e2\u0080\u0093 NZP\u00c3\u009a","recycling_type":"centre"}},"type":"Feature"},
	{"geometry":{"coordinates":[21.288621,48.680924],"type":"Point"},"properties":{"osm_id":"5731107362","tag":{"amenity":"waste_basket"}},"type":"Feature"},
	{"geometry":{"coordinates":[21.288692,48.680879],"type":"Point"},"properties":{"osm_id":"5731107363","tag":{"amenity":"waste_basket"}},"type":"Feature"},
	{"geometry":{"coordinates":[21.282578,48.686835],"type":"Point"},"properties":{"osm_id":"5731107527","tag":{"amenity":"waste_basket"}},"type":"Feature"},
	{"geometry":{"coordinates":[21.282668,48.68682],"type":"Point"},"properties":{"osm_id":"5731107528","tag":{"amenity":"waste_basket"}},"type":"Feature"},
	{"geometry":{"coordinates":[21.282833,48.686767],"type":"Point"},"properties":{"osm_id":"5731107529","tag":{"amenity":"waste_basket"}},"type":"Feature"},
	{"geometry":{"coordinates":[21.29946,48.676221],"type":"Point"},"properties":{"osm_id":"5766155550","tag":{"amenity":"waste_basket"}},"type":"Feature"},
	{"geometry":{"coordinates":[21.295344,48.680482],"type":"Point"},"properties":{"osm_id":"5766155970","tag":{"amenity":"waste_disposal"}},"type":"Feature"},
	{"geometry":{"coordinates":[21.300507,48.675875],"type":"Point"},"properties":{"osm_id":"6083462616","tag":{"amenity":"waste_basket"}},"type":"Feature"},
	{"geometry":{"coordinates":[21.289684,48.684059],"type":"Point"},"properties":{"osm_id":"6109370970","tag":{"amenity":"waste_basket"}},"type":"Feature"},
	{"geometry":{"coordinates":[21.289702,48.684022],"type":"Point"},"properties":{"osm_id":"6109370971","tag":{"amenity":"waste_basket"}},"type":"Feature"},
	{"geometry":{"coordinates":[21.289776,48.684317],"type":"Point"},"properties":{"osm_id":"6109370972","tag":{"amenity":"waste_basket"}},"type":"Feature"},
	{"geometry":{"coordinates":[21.289315,48.690638],"type":"Point"},"properties":{"osm_id":"6238654750","tag":{"amenity":"waste_disposal"}},"type":"Feature"},
	{"geometry":{"coordinates":[21.289194,48.690394],"type":"Point"},"properties":{"osm_id":"6238654751","tag":{"amenity":"waste_basket"}},"type":"Feature"},
	{"geometry":{"coordinates":[21.354102,48.675422],"type":"Point"},"properties":{"osm_id":"6358087073","tag":{"amenity":"recycling","recycling:glass":"yes","recycling:paper":"yes","recycling_type":"container"}},"type":"Feature"},
	{"geometry":{"coordinates":[21.353917,48.675602],"type":"Point"},"properties":{"osm_id":"6358090391","tag":{"amenity":"recycling","recycling:clothes":"yes","recycling_type":"container"}},"type":"Feature"},
	{"geometry":{"coordinates":[21.353748,48.675469],"type":"Point"},"properties":{"osm_id":"6358090439","tag":{"amenity":"recycling","recycling:plastic":"yes","recycling_type":"container"}},"type":"Feature"},
	{"geometry":{"coordinates":[21.288551,48.679464],"type":"Point"},"properties":{"barrier":"gate","osm_id":"6441525611","tag":{"bicycle":"yes","foot":"yes","horse":"no","motor_vehicle":"yes"}},"type":"Feature"},
	{"geometry":{"coordinates":[21.286162,48.684018],"type":"Point"},"properties":{"osm_id":"6781447285","tag":{"amenity":"waste_basket"}},"type":"Feature"},
	{"geometry":{"coordinates":[21.319453,48.665547],"type":"Point"},"properties":{"osm_id":"7393386424","tag":{"amenity":"waste_basket"}},"type":"Feature"},
	{"geometry":{"coordinates":[21.316818,48.66676],"type":"Point"},"properties":{"osm_id":"7393386425","tag":{"amenity":"waste_basket"}},"type":"Feature"},
	{"geometry":{"coordinates":[21.28455,48.687213],"type":"Point"},"properties":{"barrier":"gate","osm_id":"7773666876","tag":{"access":"permit","material":"metal","opening_hours":"24/7","wheelchair":"limited"}},"type":"Feature"},
	{"geometry":{"coordinates":[21.285307,48.690541],"type":"Point"},"properties":{"osm_id":"7773666878","tag":{"amenity":"waste_basket","material":"concrete","waste":"trash"}},"type":"Feature"},
	{"geometry":{"coordinates":[21.290088,48.686747],"type":"Point"},"properties":{"osm_id":"7894972496","ref":"1049","tag":{"amenity":"recycling","material":"metal","opening_hours":"24/7","opening_hours:covid19":"same","operator":"Ekocharita","recycling:clothes":"yes","recycling:shoes":"yes","recycling_type":"container"}},"type":"Feature"},
	{"geometry":{"coordinates":[21.290142,48.686784],"type":"Point"},"properties":{"osm_id":"7894972497","tag":{"amenity":"recycling","recycling_type":"container"}},"type":"Feature"},
	{"geometry":{"coordinates":[21.290197,48.686818],"type":"Point"},"properties":{"osm_id":"7894972498","tag":{"amenity":"waste_disposal"}},"type":"Feature"},
	{"geometry":{"coordinates":[21.302131,48.673906],"type":"Point"},"properties":{"osm_id":"8546934601","tag":{"amenity":"waste_basket","waste":"dog_excrement"}},"type":"Feature"},
	{"geometry":{"coordinates":[21.291735,48.688353],"type":"Point"},"properties":{"osm_id":"8617187763","tag":{"amenity":"waste_basket"}},"type":"Feature"},
	{"geometry":{"coordinates":[21.301701,48.671769],"type":"Point"},"properties":{"osm_id":"9002014009","tag":{"amenity":"waste_disposal"}},"type":"Feature"},
	{"geometry":{"coordinates":[21.301652,48.67177],"type":"Point"},"properties":{"osm_id":"9002014010","tag":{"amenity":"recycling","recycling_type":"container"}},"type":"Feature"}
]
}
