{
"type": "FeatureCollection",
"features": [
	{"geometry":{"coordinates":[21.326633,48.3762],"type":"Point"},"properties":{"osm_id":"3439663492","tag":{"addr:street":"Mogyor\u00c3\u00b3ska","amenity":"recycling","source:date":"2011-05-08","url":"http://turistautak.hu/poi.php?id=21675"}},"type":"Feature"},
	{"geometry":{"coordinates":[21.343183,48.391133],"type":"Point"},"properties":{"osm_id":"3439665127","tag":{"addr:city":"Reg\u00c3\u00a9c","addr:country":"HU","addr:postcode":"3893","addr:street":"F\u00c5\u0091 utca","amenity":"recycling","recycling:glass_bottles":"yes","recycling:paper":"yes","recycling:plastic":"yes","recycling:plastic_packaging":"no","recycling_type":"container","source:date":"2011-05-08","url":"http://turistautak.hu/poi.php?id=21676"}},"type":"Feature"},
	{"geometry":{"coordinates":[21.31292,48.373033],"type":"Point"},"properties":{"osm_id":"7881145872","tag":{"amenity":"waste_basket"}},"type":"Feature"},
	{"geometry":{"coordinates":[21.344423,48.392399],"type":"Point"},"properties":{"osm_id":"8872735431","tag":{"amenity":"waste_basket","waste":"trash"}},"type":"Feature"},
	{"geometry":{"coordinates":[21.346096,48.39415],"type":"Point"},"properties":{"osm_id":"8872735443","tag":{"amenity":"waste_basket","waste":"trash"}},"type":"Feature"},
	{"geometry":{"coordinates":[21.316454,48.375284],"type":"Point"},"properties":{"osm_id":"8887702986","tag":{"amenity":"waste_basket","waste":"trash"}},"type":"Feature"},
	{"geometry":{"coordinates":[21.309502,48.37535],"type":"Point"},"properties":{"osm_id":"8887702989","tag":{"amenity":"waste_basket","waste":"trash"}},"type":"Feature"}
]
}
