{
"type": "FeatureCollection",
"features": [
	{"geometry":{"coordinates":[-81.337368,41.527872],"type":"Point"},"properties":{"osm_id":"8947854582","tag":{"addr:city":"Chesterland","addr:housenumber":"12535","addr:postcode":"44026","addr:state":"Ohio","addr:street":"Chillicothe Road","amenity":"recycling","building":"no","recycling_type":"centre"}},"type":"Feature"},
	{"geometry":{"coordinates":[-81.34105,41.521546],"type":"Point"},"properties":{"osm_id":"8948045026","tag":{"access":"private","amenity":"waste_disposal","colour":"green","operator":"Dairy Queen","waste":"trash"}},"type":"Feature"},
	{"geometry":{"coordinates":[-81.344483,41.521856],"type":"Point"},"properties":{"osm_id":"8948045035","tag":{"amenity":"waste_basket","material":"concrete","operator":"McDonalds","waste":"trash"}},"type":"Feature"},
	{"geometry":{"coordinates":[-81.344467,41.521747],"type":"Point"},"properties":{"osm_id":"8948045036","tag":{"amenity":"waste_basket","material":"plastic","operator":"McDonalds","waste":"trash"}},"type":"Feature"},
	{"geometry":{"coordinates":[-81.341104,41.521703],"type":"Point"},"properties":{"osm_id":"8948045037","tag":{"amenity":"waste_basket","material":"metal","operator":"Dairy Queen","waste":"trash"}},"type":"Feature"},
	{"geometry":{"coordinates":[-81.341105,41.52169],"type":"Point"},"properties":{"osm_id":"8948045038","tag":{"amenity":"waste_basket","material":"metal","operator":"Dairy Queen","waste":"trash"}},"type":"Feature"},
	{"geometry":{"coordinates":[-81.341056,41.521705],"type":"Point"},"properties":{"osm_id":"8948045039","tag":{"amenity":"waste_basket","material":"plastic","operator":"Dairy Queen","waste":"trash"}},"type":"Feature"},
	{"geometry":{"coordinates":[-81.341031,41.521704],"type":"Point"},"properties":{"osm_id":"8948045040","tag":{"amenity":"waste_basket","material":"plastic","operator":"Dairy Queen","waste":"trash"}},"type":"Feature"},
	{"geometry":{"coordinates":[-81.34485,41.521191],"type":"Point"},"properties":{"osm_id":"8948074231","tag":{"access":"private","amenity":"waste_disposal","operator":"McDonalds","waste":"trash"}},"type":"Feature"},
	{"geometry":{"coordinates":[-81.337498,41.528067],"type":"Point"},"properties":{"osm_id":"8948074232","tag":{"access":"yes","amenity":"waste_disposal","material":"metal","operator":"Chester Township","waste":"recycling"}},"type":"Feature"},
	{"geometry":{"coordinates":[-81.337486,41.528021],"type":"Point"},"properties":{"osm_id":"8948074233","tag":{"access":"yes","amenity":"waste_disposal","material":"metal","operator":"Chester Township","waste":"recycling"}},"type":"Feature"},
	{"geometry":{"coordinates":[-81.337482,41.527982],"type":"Point"},"properties":{"osm_id":"8948074234","tag":{"access":"yes","amenity":"waste_disposal","material":"metal","operator":"Chester Township","waste":"recycling"}},"type":"Feature"},
	{"geometry":{"coordinates":[-81.337479,41.527945],"type":"Point"},"properties":{"osm_id":"8948074235","tag":{"access":"yes","amenity":"waste_disposal","material":"metal","operator":"Chester Township","waste":"recycling"}},"type":"Feature"},
	{"geometry":{"coordinates":[-81.337463,41.527909],"type":"Point"},"properties":{"osm_id":"8948074236","tag":{"access":"yes","amenity":"waste_disposal","material":"metal","operator":"Chester Township","waste":"recycling"}},"type":"Feature"},
	{"geometry":{"coordinates":[-81.33745,41.527872],"type":"Point"},"properties":{"osm_id":"8948074237","tag":{"access":"yes","amenity":"waste_disposal","material":"metal","operator":"Chester Township","waste":"recycling"}},"type":"Feature"},
	{"geometry":{"coordinates":[-81.337439,41.527837],"type":"Point"},"properties":{"osm_id":"8948074238","tag":{"access":"yes","amenity":"waste_disposal","material":"metal","operator":"Chester Township","waste":"recycling"}},"type":"Feature"},
	{"geometry":{"coordinates":[-81.337423,41.527802],"type":"Point"},"properties":{"osm_id":"8948074239","tag":{"access":"yes","amenity":"waste_disposal","material":"metal","operator":"Chester Township","waste":"recycling"}},"type":"Feature"},
	{"geometry":{"coordinates":[-81.3374,41.527762],"type":"Point"},"properties":{"osm_id":"8948074240","tag":{"access":"yes","amenity":"waste_disposal","material":"metal","operator":"Chester Township","waste":"recycling"}},"type":"Feature"},
	{"geometry":{"coordinates":[-81.33737,41.527729],"type":"Point"},"properties":{"osm_id":"8948074241","tag":{"access":"yes","amenity":"waste_disposal","material":"metal","operator":"Chester Township","waste":"recycling"}},"type":"Feature"},
	{"geometry":{"coordinates":[-81.337341,41.528002],"type":"Point"},"properties":{"osm_id":"8948074242","tag":{"access":"yes","amenity":"waste_disposal","material":"metal","operator":"Chester Township","waste":"recycling"}},"type":"Feature"},
	{"geometry":{"coordinates":[-81.337313,41.527975],"type":"Point"},"properties":{"osm_id":"8948074243","tag":{"access":"yes","amenity":"waste_disposal","material":"metal","operator":"Chester Township","waste":"recycling"}},"type":"Feature"},
	{"geometry":{"coordinates":[-81.337288,41.527943],"type":"Point"},"properties":{"osm_id":"8948074244","tag":{"access":"yes","amenity":"waste_disposal","material":"metal","operator":"Chester Township","waste":"recycling"}},"type":"Feature"},
	{"geometry":{"coordinates":[-81.337266,41.527904],"type":"Point"},"properties":{"osm_id":"8948074245","tag":{"access":"yes","amenity":"waste_disposal","material":"metal","operator":"Chester Township","waste":"recycling"}},"type":"Feature"}
]
}
