{
"type": "FeatureCollection",
"features": [
	{"geometry":{"coordinates":[-81.360462,41.476197],"type":"Point"},"properties":{"name":"Sku Grid","osm_id":"7841021486","tag":{"addr:city":"Novelty","addr:housenumber":"7876","addr:postcode":"44072","addr:state":"OH","addr:street":"Woodsway Lane","amenity":"waste_disposal","description":"RACHITSKIY RESEARCH AND DEVELOPMENT, LLC  Owner of: Sku Grid Sku Fetch SKU IO Hydra Lister Sku Hunter Sku Runner Discount Cabin Wiselister","gambling":"racketeering","opening_hours":"24/7","opening_hours:covid19":"open","operator":"ANTON RACHITSKIY","phone":"+1-202-567-7041","smoking":"yes","waste":"dog_excrement;excrements;toilet","website":"https://skugrid.com"}},"type":"Feature"},
	{"geometry":{"coordinates":[-81.363278,41.494604],"type":"Point"},"properties":{"osm_id":"9143568599","tag":{"access":"private","amenity":"waste_disposal","colour":"yellow;green","material":"metal","operator":"Westwood Elementary School","waste":"trash"}},"type":"Feature"}
]
}
