{
"type": "FeatureCollection",
"features": [
	{"geometry":{"coordinates":[-81.325217,28.642624],"type":"Point"},"properties":{"osm_id":"6833571771","tag":{"amenity":"waste_disposal"}},"type":"Feature"},
	{"geometry":{"coordinates":[-81.324275,28.643192],"type":"Point"},"properties":{"osm_id":"6833571773","tag":{"amenity":"waste_basket","waste":"dog_excrement"}},"type":"Feature"},
	{"geometry":{"coordinates":[-81.328311,28.643232],"type":"Point"},"properties":{"osm_id":"6833571774","tag":{"amenity":"waste_basket","waste":"dog_excrement"}},"type":"Feature"},
	{"geometry":{"coordinates":[-81.326021,28.640884],"type":"Point"},"properties":{"osm_id":"6833580235","tag":{"amenity":"waste_disposal"}},"type":"Feature"},
	{"geometry":{"coordinates":[-81.355411,28.627533],"type":"Point"},"properties":{"osm_id":"6833594585","tag":{"amenity":"waste_disposal"}},"type":"Feature"},
	{"geometry":{"coordinates":[-81.348025,28.67827],"type":"Point"},"properties":{"name":"GLE Scrap Metal","osm_id":"7375683928","tag":{"addr:city":"Casselberry","addr:housenumber":"295","addr:postcode":"32707","addr:state":"FL","addr:street":"Lyman Road","amenity":"recycling","contact:email":"GLE.SEO.Chatter@gmail.com","contact:facebook":"https://www.facebook.com/GLEScrapMetalFlorida/","contact:instagram":"https://www.instagram.com/p/B3U_OfYnnkD/","contact:website":"https://glescrap.com/","opening_hours":"Mo-Fr 08:00-16:30; Sa 08:00-12:00; Su off","phone":"+1-407-834-5928","recycling_type":"centre"}},"type":"Feature"}
]
}
