{
"type": "FeatureCollection",
"features": [
	{"geometry":{"coordinates":[18.934752,47.446927],"type":"Point"},"properties":{"osm_id":"1228538278","tag":{"genus":"Prunus","genus:en":"cherry","natural":"tree","type":"cherry"}},"type":"Feature"},
	{"geometry":{"coordinates":[18.910745,47.426985],"type":"Point"},"properties":{"name":"Plat\u00c3\u00a1n","osm_id":"1980025194","tag":{"denotation":"landmark","genus":"Platanus","height":"25","leaf_type":"broadleaved","natural":"tree","species":"Platanus hybrida"}},"type":"Feature"},
	{"geometry":{"coordinates":[18.8989,47.430709],"type":"Point"},"properties":{"name":"Vadszilva","osm_id":"2380344226","tag":{"leaf_type":"broadleaved","natural":"tree","species":"Prunus"}},"type":"Feature"},
	{"geometry":{"coordinates":[18.925621,47.419788],"type":"Point"},"properties":{"osm_id":"3721633216","tag":{"natural":"tree"}},"type":"Feature"},
	{"geometry":{"coordinates":[18.920474,47.421058],"type":"Point"},"properties":{"osm_id":"3721633217","tag":{"natural":"tree"}},"type":"Feature"},
	{"geometry":{"coordinates":[18.952258,47.413066],"type":"Point"},"properties":{"osm_id":"3761586436","tag":{"natural":"tree"}},"type":"Feature"},
	{"geometry":{"coordinates":[18.952248,47.412999],"type":"Point"},"properties":{"osm_id":"3761586437","tag":{"natural":"tree"}},"type":"Feature"},
	{"geometry":{"coordinates":[18.930796,47.45339],"type":"Point"},"properties":{"osm_id":"3808309237","tag":{"natural":"tree"}},"type":"Feature"},
	{"geometry":{"coordinates":[18.962121,47.448846],"type":"Point"},"properties":{"osm_id":"4471628810","tag":{"description":"yellow fruit","natural":"tree","taxon":"Prunus cerasifera","taxon:en":"cherry plum","taxon:genus":"Prunus"}},"type":"Feature"},
	{"geometry":{"coordinates":[18.962117,47.448968],"type":"Point"},"properties":{"osm_id":"4471628811","tag":{"description":"red fruit","natural":"tree","taxon":"Prunus cerasifera","taxon:en":"cherry plum","taxon:genus":"Prunus"}},"type":"Feature"},
	{"geometry":{"coordinates":[18.962349,47.449076],"type":"Point"},"properties":{"osm_id":"4471628812","tag":{"description":"yellow fruit","natural":"tree","taxon":"Prunus cerasifera","taxon:en":"cherry plum","taxon:genus":"Prunus"}},"type":"Feature"},
	{"geometry":{"coordinates":[18.962247,47.449672],"type":"Point"},"properties":{"osm_id":"4471628813","tag":{"description":"red fruit","natural":"tree","taxon":"Prunus cerasifera","taxon:en":"cherry plum","taxon:genus":"Prunus"}},"type":"Feature"},
	{"geometry":{"coordinates":[18.962248,47.449689],"type":"Point"},"properties":{"osm_id":"4471628814","tag":{"natural":"tree","taxon":"Juglans regia","taxon:en":"walnut","taxon:genus":"Juglans"}},"type":"Feature"},
	{"geometry":{"coordinates":[18.96299,47.450684],"type":"Point"},"properties":{"osm_id":"4471628815","tag":{"description":"red fruit","natural":"tree","taxon":"Prunus cerasifera","taxon:en":"cherry plum","taxon:genus":"Prunus"}},"type":"Feature"},
	{"geometry":{"coordinates":[18.963867,47.451712],"type":"Point"},"properties":{"osm_id":"4471628822","tag":{"natural":"tree","taxon":"Malus domestica","taxon:en":"apple","taxon:genus":"Malus"}},"type":"Feature"},
	{"geometry":{"coordinates":[18.969886,47.452383],"type":"Point"},"properties":{"osm_id":"4471628823","tag":{"natural":"tree","taxon":"Prunus avium","taxon:en":"sweet cherry","taxon:genus":"Prunus"}},"type":"Feature"},
	{"geometry":{"coordinates":[18.969686,47.453015],"type":"Point"},"properties":{"osm_id":"4471628824","tag":{"natural":"tree","taxon":"Prunus avium","taxon:en":"sweet cherry","taxon:genus":"Prunus"}},"type":"Feature"},
	{"geometry":{"coordinates":[18.938237,47.41895],"type":"Point"},"properties":{"osm_id":"4638447827","tag":{"denotation":"single","leaf_cycle":"deciduous","leaf_type":"broadleaved","natural":"tree"}},"type":"Feature"},
	{"geometry":{"coordinates":[18.938138,47.41892],"type":"Point"},"properties":{"osm_id":"4638447828","tag":{"denotation":"single","leaf_cycle":"deciduous","leaf_type":"broadleaved","natural":"tree"}},"type":"Feature"},
	{"geometry":{"coordinates":[18.954635,47.412811],"type":"Point"},"properties":{"osm_id":"4868040261","tag":{"natural":"tree"}},"type":"Feature"},
	{"geometry":{"coordinates":[18.954898,47.412702],"type":"Point"},"properties":{"osm_id":"4868040262","tag":{"natural":"tree"}},"type":"Feature"},
	{"geometry":{"coordinates":[18.944889,47.413251],"type":"Point"},"properties":{"osm_id":"4897633192","tag":{"leaf_type":"needleleaved","natural":"tree"}},"type":"Feature"},
	{"geometry":{"coordinates":[18.949876,47.410275],"type":"Point"},"properties":{"osm_id":"4907700806","tag":{"leaf_type":"needleleaved","natural":"tree"}},"type":"Feature"},
	{"geometry":{"coordinates":[18.949336,47.410101],"type":"Point"},"properties":{"osm_id":"4907702177","tag":{"leaf_type":"needleleaved","natural":"tree"}},"type":"Feature"},
	{"geometry":{"coordinates":[18.949332,47.409924],"type":"Point"},"properties":{"osm_id":"4907702194","tag":{"leaf_type":"broadleaved","natural":"tree"}},"type":"Feature"},
	{"geometry":{"coordinates":[18.949333,47.409712],"type":"Point"},"properties":{"osm_id":"4907702204","tag":{"leaf_type":"broadleaved","natural":"tree"}},"type":"Feature"},
	{"geometry":{"coordinates":[18.94747,47.403896],"type":"Point"},"properties":{"osm_id":"4915764896","tag":{"leaf_type":"needleleaved","natural":"tree"}},"type":"Feature"},
	{"geometry":{"coordinates":[18.944186,47.401917],"type":"Point"},"properties":{"osm_id":"4916830995","tag":{"leaf_type":"broadleaved","natural":"tree"}},"type":"Feature"},
	{"geometry":{"coordinates":[18.951137,47.410053],"type":"Point"},"properties":{"osm_id":"4919704302","tag":{"leaf_type":"needleleaved","natural":"tree"}},"type":"Feature"},
	{"geometry":{"coordinates":[18.95141,47.409898],"type":"Point"},"properties":{"osm_id":"4919704303","tag":{"leaf_type":"needleleaved","natural":"tree"}},"type":"Feature"},
	{"geometry":{"coordinates":[18.950472,47.409731],"type":"Point"},"properties":{"osm_id":"4919704312","tag":{"leaf_type":"needleleaved","natural":"tree"}},"type":"Feature"},
	{"geometry":{"coordinates":[18.950305,47.409805],"type":"Point"},"properties":{"osm_id":"4919704313","tag":{"leaf_type":"broadleaved","natural":"tree"}},"type":"Feature"},
	{"geometry":{"coordinates":[18.950401,47.409878],"type":"Point"},"properties":{"osm_id":"4919704314","tag":{"leaf_type":"broadleaved","natural":"tree"}},"type":"Feature"},
	{"geometry":{"coordinates":[18.950463,47.409913],"type":"Point"},"properties":{"osm_id":"4919704315","tag":{"leaf_type":"broadleaved","natural":"tree"}},"type":"Feature"},
	{"geometry":{"coordinates":[18.950612,47.409976],"type":"Point"},"properties":{"osm_id":"4919704316","tag":{"leaf_type":"broadleaved","natural":"tree"}},"type":"Feature"},
	{"geometry":{"coordinates":[18.950574,47.409949],"type":"Point"},"properties":{"osm_id":"4919704317","tag":{"leaf_type":"needleleaved","natural":"tree"}},"type":"Feature"},
	{"geometry":{"coordinates":[18.951808,47.406197],"type":"Point"},"properties":{"osm_id":"4925209080","tag":{"leaf_type":"needleleaved","natural":"tree"}},"type":"Feature"},
	{"geometry":{"coordinates":[18.952029,47.406196],"type":"Point"},"properties":{"osm_id":"4925209108","tag":{"leaf_type":"broadleaved","natural":"tree"}},"type":"Feature"},
	{"geometry":{"coordinates":[18.956547,47.404749],"type":"Point"},"properties":{"osm_id":"4926886632","tag":{"leaf_cycle":"evergreen","natural":"tree"}},"type":"Feature"},
	{"geometry":{"coordinates":[18.94194,47.398779],"type":"Point"},"properties":{"osm_id":"4930979852","tag":{"leaf_type":"needleleaved","natural":"tree"}},"type":"Feature"},
	{"geometry":{"coordinates":[18.944618,47.409014],"type":"Point"},"properties":{"osm_id":"4934416118","tag":{"natural":"tree"}},"type":"Feature"},
	{"geometry":{"coordinates":[18.944565,47.408991],"type":"Point"},"properties":{"osm_id":"4934416119","tag":{"natural":"tree"}},"type":"Feature"},
	{"geometry":{"coordinates":[18.974641,47.440242],"type":"Point"},"properties":{"osm_id":"5013587787","tag":{"natural":"tree"}},"type":"Feature"},
	{"geometry":{"coordinates":[18.976561,47.440676],"type":"Point"},"properties":{"osm_id":"5013587788","tag":{"natural":"tree"}},"type":"Feature"},
	{"geometry":{"coordinates":[18.976696,47.440561],"type":"Point"},"properties":{"osm_id":"5013587789","tag":{"natural":"tree"}},"type":"Feature"},
	{"geometry":{"coordinates":[18.977376,47.440377],"type":"Point"},"properties":{"osm_id":"5013587790","tag":{"natural":"tree"}},"type":"Feature"},
	{"geometry":{"coordinates":[18.973082,47.440328],"type":"Point"},"properties":{"osm_id":"5013587791","tag":{"natural":"tree"}},"type":"Feature"},
	{"geometry":{"coordinates":[18.971129,47.439969],"type":"Point"},"properties":{"osm_id":"5013587792","tag":{"natural":"tree"}},"type":"Feature"},
	{"geometry":{"coordinates":[18.970565,47.440138],"type":"Point"},"properties":{"osm_id":"5013587793","tag":{"natural":"tree"}},"type":"Feature"},
	{"geometry":{"coordinates":[18.970999,47.440294],"type":"Point"},"properties":{"osm_id":"5013587794","tag":{"natural":"tree"}},"type":"Feature"},
	{"geometry":{"coordinates":[18.9657,47.439874],"type":"Point"},"properties":{"osm_id":"5013587795","tag":{"natural":"tree"}},"type":"Feature"},
	{"geometry":{"coordinates":[18.965808,47.439957],"type":"Point"},"properties":{"osm_id":"5013587796","tag":{"natural":"tree"}},"type":"Feature"},
	{"geometry":{"coordinates":[18.964209,47.439378],"type":"Point"},"properties":{"osm_id":"5013587797","tag":{"natural":"tree"}},"type":"Feature"},
	{"geometry":{"coordinates":[18.965469,47.439355],"type":"Point"},"properties":{"osm_id":"5013587798","tag":{"natural":"tree"}},"type":"Feature"},
	{"geometry":{"coordinates":[18.965651,47.439601],"type":"Point"},"properties":{"osm_id":"5013587799","tag":{"natural":"tree"}},"type":"Feature"},
	{"geometry":{"coordinates":[18.973838,47.440591],"type":"Point"},"properties":{"osm_id":"5013587923","tag":{"natural":"tree"}},"type":"Feature"},
	{"geometry":{"coordinates":[18.973855,47.440417],"type":"Point"},"properties":{"osm_id":"5013587924","tag":{"natural":"tree"}},"type":"Feature"},
	{"geometry":{"coordinates":[18.973672,47.440353],"type":"Point"},"properties":{"osm_id":"5013587925","tag":{"natural":"tree"}},"type":"Feature"},
	{"geometry":{"coordinates":[18.971619,47.440159],"type":"Point"},"properties":{"osm_id":"5013587926","tag":{"natural":"tree"}},"type":"Feature"},
	{"geometry":{"coordinates":[18.971306,47.440309],"type":"Point"},"properties":{"osm_id":"5013587927","tag":{"natural":"tree"}},"type":"Feature"},
	{"geometry":{"coordinates":[18.923998,47.403014],"type":"Point"},"properties":{"name":"\u00c3\u0089rdi v\u00c3\u00a9dett t\u00c3\u00b6lgy","osm_id":"5188307327","tag":{"addr:city":"\u00c3\u0089rd","addr:country":"HU","addr:housenumber":"32","addr:postcode":"2030","addr:street":"Als\u00c3\u00b3v\u00c3\u00b6lgyi \u00c3\u00bat","addr:suburb":"Als\u00c3\u00b3v\u00c3\u00b6lgy","circumference":"5","denotation":"natural_monument","description":"kora: kb.250\u00c3\u00a9v; t\u00c3\u00b6rzs\u00c3\u00a1tm\u00c3\u00a9r\u00c5\u0091: 5m","diameter_crown":"100","genus":"t\u00c3\u00b6lgyfa, Quercus","height":"22","leaf_cycle":"deciduous","leaf_type":"broadleaved","leisure":"nature_reserve","natural":"tree","protect_class":"7","species":"Quercus","start_date":"1770","taxon":"Fagales","tourism":"attraction"}},"type":"Feature"},
	{"geometry":{"coordinates":[18.979181,47.434661],"type":"Point"},"properties":{"osm_id":"5210488135","tag":{"natural":"tree","taxon":"Prunus cerasifera","taxon:en":"cherry plum","taxon:genus":"Prunus"}},"type":"Feature"},
	{"geometry":{"coordinates":[18.978189,47.444452],"type":"Point"},"properties":{"osm_id":"5210488180","tag":{"natural":"tree","taxon":"Prunus cerasifera","taxon:en":"cherry plum","taxon:genus":"Prunus"}},"type":"Feature"},
	{"geometry":{"coordinates":[18.978175,47.444458],"type":"Point"},"properties":{"osm_id":"5210488181","tag":{"natural":"tree","taxon":"Prunus cerasifera","taxon:en":"cherry plum","taxon:genus":"Prunus"}},"type":"Feature"},
	{"geometry":{"coordinates":[18.942542,47.420123],"type":"Point"},"properties":{"osm_id":"5210488962","tag":{"natural":"tree","taxon":"Prunus cerasifera","taxon:en":"cherry plum","taxon:genus":"Prunus"}},"type":"Feature"},
	{"geometry":{"coordinates":[18.942528,47.420129],"type":"Point"},"properties":{"osm_id":"5210488963","tag":{"natural":"tree","taxon":"Prunus cerasifera","taxon:en":"cherry plum","taxon:genus":"Prunus"}},"type":"Feature"},
	{"geometry":{"coordinates":[18.94399,47.420503],"type":"Point"},"properties":{"osm_id":"5210488964","tag":{"natural":"tree","taxon":"Prunus cerasifera","taxon:en":"cherry plum","taxon:genus":"Prunus"}},"type":"Feature"},
	{"geometry":{"coordinates":[18.943976,47.420509],"type":"Point"},"properties":{"osm_id":"5210488965","tag":{"natural":"tree","taxon":"Prunus cerasifera","taxon:en":"cherry plum","taxon:genus":"Prunus"}},"type":"Feature"},
	{"geometry":{"coordinates":[18.947115,47.425483],"type":"Point"},"properties":{"osm_id":"5210489016","tag":{"natural":"tree","taxon":"Prunus cerasifera","taxon:en":"cherry plum","taxon:genus":"Prunus"}},"type":"Feature"},
	{"geometry":{"coordinates":[18.947101,47.425489],"type":"Point"},"properties":{"osm_id":"5210489017","tag":{"natural":"tree","taxon":"Prunus cerasifera","taxon:en":"cherry plum","taxon:genus":"Prunus"}},"type":"Feature"},
	{"geometry":{"coordinates":[18.94742,47.425821],"type":"Point"},"properties":{"osm_id":"5210489020","tag":{"natural":"tree","taxon":"Prunus cerasifera","taxon:en":"cherry plum","taxon:genus":"Prunus"}},"type":"Feature"},
	{"geometry":{"coordinates":[18.947406,47.425827],"type":"Point"},"properties":{"osm_id":"5210489421","tag":{"natural":"tree","taxon":"Prunus cerasifera","taxon:en":"cherry plum","taxon:genus":"Prunus"}},"type":"Feature"},
	{"geometry":{"coordinates":[18.974304,47.428964],"type":"Point"},"properties":{"osm_id":"5210489436","tag":{"natural":"tree","taxon":"Prunus cerasifera","taxon:en":"cherry plum","taxon:genus":"Prunus"}},"type":"Feature"},
	{"geometry":{"coordinates":[18.975752,47.429344],"type":"Point"},"properties":{"osm_id":"5210489437","tag":{"natural":"tree","taxon":"Prunus cerasifera","taxon:en":"cherry plum","taxon:genus":"Prunus"}},"type":"Feature"},
	{"geometry":{"coordinates":[18.9776,47.430427],"type":"Point"},"properties":{"osm_id":"5210489450","tag":{"natural":"tree","taxon":"Prunus cerasifera","taxon:en":"cherry plum","taxon:genus":"Prunus"}},"type":"Feature"},
	{"geometry":{"coordinates":[18.978877,47.434323],"type":"Point"},"properties":{"osm_id":"5210489507","tag":{"natural":"tree","taxon":"Prunus cerasifera","taxon:en":"cherry plum","taxon:genus":"Prunus"}},"type":"Feature"},
	{"geometry":{"coordinates":[18.929411,47.41967],"type":"Point"},"properties":{"osm_id":"5249593164","tag":{"natural":"tree"}},"type":"Feature"},
	{"geometry":{"coordinates":[18.926624,47.421037],"type":"Point"},"properties":{"osm_id":"5249593220","tag":{"natural":"tree"}},"type":"Feature"},
	{"geometry":{"coordinates":[18.926662,47.420584],"type":"Point"},"properties":{"osm_id":"5249593334","tag":{"leaf_cycle":"deciduous","leaf_type":"broadleaved","natural":"tree"}},"type":"Feature"},
	{"geometry":{"coordinates":[18.929475,47.41978],"type":"Point"},"properties":{"osm_id":"5249602397","tag":{"natural":"tree"}},"type":"Feature"},
	{"geometry":{"coordinates":[18.930044,47.419522],"type":"Point"},"properties":{"name":"feny\u00c5\u0091","osm_id":"5249602398","tag":{"height":"15","leaf_cycle":"evergreen","leaf_type":"needleleaved","natural":"tree"}},"type":"Feature"},
	{"geometry":{"coordinates":[18.929754,47.419639],"type":"Point"},"properties":{"name":"feny\u00c5\u0091","osm_id":"5249602399","tag":{"height":"15","leaf_cycle":"evergreen","leaf_type":"needleleaved","natural":"tree"}},"type":"Feature"},
	{"geometry":{"coordinates":[18.926985,47.420398],"type":"Point"},"properties":{"osm_id":"5249602400","tag":{"natural":"tree"}},"type":"Feature"},
	{"geometry":{"coordinates":[18.926938,47.420346],"type":"Point"},"properties":{"osm_id":"5249602401","tag":{"natural":"tree"}},"type":"Feature"},
	{"geometry":{"coordinates":[18.930946,47.41827],"type":"Point"},"properties":{"osm_id":"5250309483","tag":{"leaf_cycle":"deciduous","leaf_type":"broadleaved","natural":"tree","species":"meggy"}},"type":"Feature"},
	{"geometry":{"coordinates":[18.931421,47.418404],"type":"Point"},"properties":{"osm_id":"5250309484","tag":{"leaf_cycle":"deciduous","leaf_type":"broadleaved","natural":"tree","species":"meggy"}},"type":"Feature"},
	{"geometry":{"coordinates":[18.931288,47.418462],"type":"Point"},"properties":{"osm_id":"5250309485","tag":{"leaf_cycle":"deciduous","leaf_type":"broadleaved","natural":"tree","species":"meggy"}},"type":"Feature"},
	{"geometry":{"coordinates":[18.930279,47.418462],"type":"Point"},"properties":{"osm_id":"5250309496","tag":{"leaf_cycle":"deciduous","leaf_type":"broadleaved","natural":"tree","species":"meggy"}},"type":"Feature"},
	{"geometry":{"coordinates":[18.930209,47.418402],"type":"Point"},"properties":{"osm_id":"5250309497","tag":{"leaf_cycle":"deciduous","leaf_type":"broadleaved","natural":"tree","species":"meggy"}},"type":"Feature"},
	{"geometry":{"coordinates":[18.927789,47.419321],"type":"Point"},"properties":{"osm_id":"5250309722","tag":{"leaf_cycle":"deciduous","leaf_type":"broadleaved","natural":"tree","species":"meggy"}},"type":"Feature"},
	{"geometry":{"coordinates":[18.928484,47.41954],"type":"Point"},"properties":{"osm_id":"5250309723","tag":{"leaf_cycle":"deciduous","leaf_type":"broadleaved","natural":"tree","species":"meggy"}},"type":"Feature"},
	{"geometry":{"coordinates":[18.928363,47.420323],"type":"Point"},"properties":{"osm_id":"5250309724","tag":{"leaf_cycle":"deciduous","leaf_type":"broadleaved","natural":"tree","species":"meggy"}},"type":"Feature"},
	{"geometry":{"coordinates":[18.92875,47.419991],"type":"Point"},"properties":{"osm_id":"5250309725","tag":{"leaf_cycle":"deciduous","leaf_type":"broadleaved","natural":"tree"}},"type":"Feature"},
	{"geometry":{"coordinates":[18.92934,47.419518],"type":"Point"},"properties":{"osm_id":"5250309726","tag":{"leaf_cycle":"deciduous","leaf_type":"broadleaved","natural":"tree","species":"meggy"}},"type":"Feature"},
	{"geometry":{"coordinates":[18.92926,47.41938],"type":"Point"},"properties":{"osm_id":"5250309805","tag":{"leaf_cycle":"deciduous","leaf_type":"broadleaved","natural":"tree","species":"meggy"}},"type":"Feature"},
	{"geometry":{"coordinates":[18.929462,47.41938],"type":"Point"},"properties":{"osm_id":"5250309810","tag":{"description":"r\u00c3\u00b6nk","leaf_cycle":"deciduous","leaf_type":"broadleaved","natural":"tree","species":"meggy"}},"type":"Feature"},
	{"geometry":{"coordinates":[18.929242,47.419549],"type":"Point"},"properties":{"osm_id":"5250309811","tag":{"description":"r\u00c3\u00b6nk","leaf_cycle":"deciduous","leaf_type":"broadleaved","natural":"tree","species":"meggy"}},"type":"Feature"},
	{"geometry":{"coordinates":[18.929434,47.419641],"type":"Point"},"properties":{"osm_id":"5250309812","tag":{"leaf_cycle":"deciduous","leaf_type":"broadleaved","natural":"tree","species":"meggy"}},"type":"Feature"},
	{"geometry":{"coordinates":[18.92934,47.419008],"type":"Point"},"properties":{"osm_id":"5250309818","tag":{"leaf_cycle":"deciduous","leaf_type":"broadleaved","natural":"tree","species":"meggy"}},"type":"Feature"},
	{"geometry":{"coordinates":[18.929581,47.419412],"type":"Point"},"properties":{"osm_id":"5250309819","tag":{"leaf_cycle":"deciduous","leaf_type":"broadleaved","natural":"tree","species":"meggy"}},"type":"Feature"},
	{"geometry":{"coordinates":[18.929436,47.419308],"type":"Point"},"properties":{"osm_id":"5250309826","tag":{"leaf_cycle":"deciduous","leaf_type":"broadleaved","natural":"tree","species":"meggy"}},"type":"Feature"},
	{"geometry":{"coordinates":[18.92937,47.41908],"type":"Point"},"properties":{"osm_id":"5250309833","tag":{"leaf_cycle":"deciduous","leaf_type":"broadleaved","natural":"tree","species":"meggy"}},"type":"Feature"},
	{"geometry":{"coordinates":[18.925754,47.421412],"type":"Point"},"properties":{"osm_id":"5250315320","tag":{"leaf_cycle":"deciduous","leaf_type":"broadleaved","natural":"tree"}},"type":"Feature"},
	{"geometry":{"coordinates":[18.925617,47.421478],"type":"Point"},"properties":{"osm_id":"5250315821","tag":{"leaf_cycle":"deciduous","leaf_type":"broadleaved","natural":"tree"}},"type":"Feature"},
	{"geometry":{"coordinates":[18.924454,47.421474],"type":"Point"},"properties":{"osm_id":"5250315849","tag":{"leaf_cycle":"deciduous","leaf_type":"broadleaved","natural":"tree"}},"type":"Feature"},
	{"geometry":{"coordinates":[18.927182,47.434256],"type":"Point"},"properties":{"osm_id":"5250569724","tag":{"natural":"tree"}},"type":"Feature"},
	{"geometry":{"coordinates":[18.92713,47.434314],"type":"Point"},"properties":{"osm_id":"5250569725","tag":{"natural":"tree"}},"type":"Feature"},
	{"geometry":{"coordinates":[18.923046,47.416124],"type":"Point"},"properties":{"osm_id":"5250569738","tag":{"leaf_cycle":"deciduous","leaf_type":"broadleaved","natural":"tree"}},"type":"Feature"},
	{"geometry":{"coordinates":[18.926255,47.416583],"type":"Point"},"properties":{"osm_id":"5250569744","tag":{"leaf_cycle":"deciduous","leaf_type":"broadleaved","natural":"tree"}},"type":"Feature"},
	{"geometry":{"coordinates":[18.926134,47.416454],"type":"Point"},"properties":{"osm_id":"5250569745","tag":{"leaf_cycle":"deciduous","leaf_type":"broadleaved","natural":"tree"}},"type":"Feature"},
	{"geometry":{"coordinates":[18.925971,47.416366],"type":"Point"},"properties":{"osm_id":"5250569746","tag":{"leaf_cycle":"deciduous","leaf_type":"broadleaved","natural":"tree"}},"type":"Feature"},
	{"geometry":{"coordinates":[18.925241,47.41672],"type":"Point"},"properties":{"osm_id":"5250569747","tag":{"leaf_cycle":"deciduous","leaf_type":"broadleaved","natural":"tree"}},"type":"Feature"},
	{"geometry":{"coordinates":[18.92563,47.416607],"type":"Point"},"properties":{"osm_id":"5250569748","tag":{"leaf_cycle":"deciduous","leaf_type":"broadleaved","natural":"tree"}},"type":"Feature"},
	{"geometry":{"coordinates":[18.900168,47.418188],"type":"Point"},"properties":{"osm_id":"5251780048","tag":{"natural":"tree"}},"type":"Feature"},
	{"geometry":{"coordinates":[18.899886,47.418266],"type":"Point"},"properties":{"osm_id":"5253868977","tag":{"natural":"tree"}},"type":"Feature"},
	{"geometry":{"coordinates":[18.92988,47.457768],"type":"Point"},"properties":{"osm_id":"5287935364","tag":{"leaf_cycle":"deciduous","leaf_type":"broadleaved","natural":"tree"}},"type":"Feature"},
	{"geometry":{"coordinates":[18.929397,47.457741],"type":"Point"},"properties":{"osm_id":"5287935365","tag":{"leaf_cycle":"deciduous","leaf_type":"broadleaved","natural":"tree"}},"type":"Feature"},
	{"geometry":{"coordinates":[18.930119,47.45744],"type":"Point"},"properties":{"osm_id":"5287935366","tag":{"leaf_cycle":"deciduous","leaf_type":"broadleaved","natural":"tree"}},"type":"Feature"},
	{"geometry":{"coordinates":[18.930725,47.457415],"type":"Point"},"properties":{"osm_id":"5287935367","tag":{"leaf_cycle":"deciduous","leaf_type":"broadleaved","natural":"tree"}},"type":"Feature"},
	{"geometry":{"coordinates":[18.93054,47.456965],"type":"Point"},"properties":{"osm_id":"5287935368","tag":{"leaf_cycle":"deciduous","leaf_type":"broadleaved","natural":"tree"}},"type":"Feature"},
	{"geometry":{"coordinates":[18.930164,47.456898],"type":"Point"},"properties":{"osm_id":"5287935369","tag":{"leaf_cycle":"deciduous","leaf_type":"broadleaved","natural":"tree"}},"type":"Feature"},
	{"geometry":{"coordinates":[18.931331,47.457191],"type":"Point"},"properties":{"osm_id":"5287935370","tag":{"leaf_cycle":"deciduous","leaf_type":"broadleaved","natural":"tree"}},"type":"Feature"},
	{"geometry":{"coordinates":[18.931286,47.455795],"type":"Point"},"properties":{"osm_id":"5287935373","tag":{"leaf_cycle":"deciduous","leaf_type":"broadleaved","natural":"tree"}},"type":"Feature"},
	{"geometry":{"coordinates":[18.930199,47.455585],"type":"Point"},"properties":{"osm_id":"5287935374","tag":{"leaf_cycle":"deciduous","leaf_type":"broadleaved","natural":"tree"}},"type":"Feature"},
	{"geometry":{"coordinates":[18.929907,47.45514],"type":"Point"},"properties":{"osm_id":"5287935375","tag":{"leaf_cycle":"deciduous","leaf_type":"broadleaved","natural":"tree"}},"type":"Feature"},
	{"geometry":{"coordinates":[18.93109,47.455349],"type":"Point"},"properties":{"osm_id":"5287935376","tag":{"leaf_cycle":"deciduous","leaf_type":"broadleaved","natural":"tree"}},"type":"Feature"},
	{"geometry":{"coordinates":[18.93257,47.455416],"type":"Point"},"properties":{"osm_id":"5287935377","tag":{"leaf_cycle":"deciduous","leaf_type":"broadleaved","natural":"tree"}},"type":"Feature"},
	{"geometry":{"coordinates":[18.933407,47.455572],"type":"Point"},"properties":{"osm_id":"5287935378","tag":{"leaf_cycle":"deciduous","leaf_type":"broadleaved","natural":"tree"}},"type":"Feature"},
	{"geometry":{"coordinates":[18.933278,47.45575],"type":"Point"},"properties":{"osm_id":"5287935379","tag":{"leaf_cycle":"deciduous","leaf_type":"broadleaved","natural":"tree"}},"type":"Feature"},
	{"geometry":{"coordinates":[18.931548,47.456321],"type":"Point"},"properties":{"osm_id":"5287935380","tag":{"leaf_cycle":"deciduous","leaf_type":"broadleaved","natural":"tree"}},"type":"Feature"},
	{"geometry":{"coordinates":[18.931017,47.456243],"type":"Point"},"properties":{"osm_id":"5287935381","tag":{"leaf_cycle":"deciduous","leaf_type":"broadleaved","natural":"tree"}},"type":"Feature"},
	{"geometry":{"coordinates":[18.930945,47.45653],"type":"Point"},"properties":{"osm_id":"5287935382","tag":{"leaf_cycle":"deciduous","leaf_type":"broadleaved","natural":"tree"}},"type":"Feature"},
	{"geometry":{"coordinates":[18.97684,47.447499],"type":"Point"},"properties":{"osm_id":"5290595900","tag":{"natural":"tree"}},"type":"Feature"},
	{"geometry":{"coordinates":[18.970701,47.453631],"type":"Point"},"properties":{"osm_id":"5290618138","tag":{"natural":"tree"}},"type":"Feature"},
	{"geometry":{"coordinates":[18.972031,47.453983],"type":"Point"},"properties":{"osm_id":"5290618139","tag":{"natural":"tree"}},"type":"Feature"},
	{"geometry":{"coordinates":[18.937938,47.418815],"type":"Point"},"properties":{"osm_id":"5363919725","tag":{"natural":"tree"}},"type":"Feature"},
	{"geometry":{"coordinates":[18.93801,47.418842],"type":"Point"},"properties":{"osm_id":"5363919726","tag":{"natural":"tree"}},"type":"Feature"},
	{"geometry":{"coordinates":[18.938071,47.418864],"type":"Point"},"properties":{"osm_id":"5363919727","tag":{"natural":"tree"}},"type":"Feature"},
	{"geometry":{"coordinates":[18.938328,47.418977],"type":"Point"},"properties":{"osm_id":"5363919728","tag":{"natural":"tree"}},"type":"Feature"},
	{"geometry":{"coordinates":[18.948044,47.408995],"type":"Point"},"properties":{"osm_id":"5384926818","tag":{"leaf_cycle":"evergreen","leaf_type":"needleleaved","natural":"tree"}},"type":"Feature"},
	{"geometry":{"coordinates":[18.947866,47.408896],"type":"Point"},"properties":{"osm_id":"5384931726","tag":{"natural":"tree"}},"type":"Feature"},
	{"geometry":{"coordinates":[18.947802,47.408862],"type":"Point"},"properties":{"osm_id":"5384931727","tag":{"natural":"tree"}},"type":"Feature"},
	{"geometry":{"coordinates":[18.947695,47.408808],"type":"Point"},"properties":{"osm_id":"5384931728","tag":{"natural":"tree"}},"type":"Feature"},
	{"geometry":{"coordinates":[18.901004,47.453472],"type":"Point"},"properties":{"osm_id":"5484663390","tag":{"natural":"tree"}},"type":"Feature"},
	{"geometry":{"coordinates":[18.901071,47.453473],"type":"Point"},"properties":{"osm_id":"5484663391","tag":{"natural":"tree"}},"type":"Feature"},
	{"geometry":{"coordinates":[18.901137,47.453472],"type":"Point"},"properties":{"osm_id":"5484663392","tag":{"natural":"tree"}},"type":"Feature"},
	{"geometry":{"coordinates":[18.901133,47.453428],"type":"Point"},"properties":{"osm_id":"5484663393","tag":{"natural":"tree"}},"type":"Feature"},
	{"geometry":{"coordinates":[18.901006,47.453427],"type":"Point"},"properties":{"osm_id":"5484663394","tag":{"natural":"tree"}},"type":"Feature"},
	{"geometry":{"coordinates":[18.901066,47.453426],"type":"Point"},"properties":{"osm_id":"5484663395","tag":{"natural":"tree"}},"type":"Feature"},
	{"geometry":{"coordinates":[18.912416,47.435616],"type":"Point"},"properties":{"osm_id":"5486748923","tag":{"natural":"tree"}},"type":"Feature"},
	{"geometry":{"coordinates":[18.911976,47.435379],"type":"Point"},"properties":{"osm_id":"5486748924","tag":{"natural":"tree"}},"type":"Feature"},
	{"geometry":{"coordinates":[18.911579,47.435223],"type":"Point"},"properties":{"osm_id":"5486748935","tag":{"natural":"tree"}},"type":"Feature"},
	{"geometry":{"coordinates":[18.911805,47.435127],"type":"Point"},"properties":{"osm_id":"5486748936","tag":{"natural":"tree"}},"type":"Feature"},
	{"geometry":{"coordinates":[18.91178,47.435254],"type":"Point"},"properties":{"osm_id":"5486748937","tag":{"natural":"tree"}},"type":"Feature"},
	{"geometry":{"coordinates":[18.953395,47.412686],"type":"Point"},"properties":{"osm_id":"5523467351","tag":{"leaf_cycle":"evergreen","leaf_type":"needleleaved","natural":"tree"}},"type":"Feature"},
	{"geometry":{"coordinates":[18.95335,47.412501],"type":"Point"},"properties":{"osm_id":"5523467352","tag":{"leaf_type":"broadleaved","natural":"tree"}},"type":"Feature"},
	{"geometry":{"coordinates":[18.953056,47.412633],"type":"Point"},"properties":{"osm_id":"5523467353","tag":{"leaf_cycle":"evergreen","leaf_type":"leafless","natural":"tree"}},"type":"Feature"},
	{"geometry":{"coordinates":[18.951408,47.414201],"type":"Point"},"properties":{"osm_id":"5534773090","tag":{"leaf_cycle":"evergreen","leaf_type":"needleleaved","natural":"tree"}},"type":"Feature"},
	{"geometry":{"coordinates":[18.951329,47.414354],"type":"Point"},"properties":{"osm_id":"5534773091","tag":{"leaf_cycle":"evergreen","leaf_type":"needleleaved","natural":"tree"}},"type":"Feature"},
	{"geometry":{"coordinates":[18.948385,47.40263],"type":"Point"},"properties":{"osm_id":"5695512968","tag":{"leaf_cycle":"evergreen","leaf_type":"needleleaved","natural":"tree"}},"type":"Feature"},
	{"geometry":{"coordinates":[18.94846,47.402423],"type":"Point"},"properties":{"osm_id":"5695512969","tag":{"leaf_cycle":"deciduous","leaf_type":"broadleaved","natural":"tree"}},"type":"Feature"},
	{"geometry":{"coordinates":[18.941768,47.398962],"type":"Point"},"properties":{"osm_id":"5695513043","tag":{"leaf_cycle":"evergreen","leaf_type":"needleleaved","natural":"tree"}},"type":"Feature"},
	{"geometry":{"coordinates":[18.904845,47.451352],"type":"Point"},"properties":{"osm_id":"8536395954","tag":{"denotation":"urban","leaf_cycle":"deciduous","natural":"tree"}},"type":"Feature"},
	{"geometry":{"coordinates":[18.904865,47.45145],"type":"Point"},"properties":{"osm_id":"8536395955","tag":{"denotation":"urban","leaf_cycle":"deciduous","natural":"tree"}},"type":"Feature"},
	{"geometry":{"coordinates":[18.904733,47.451411],"type":"Point"},"properties":{"osm_id":"8536395956","tag":{"denotation":"urban","leaf_cycle":"deciduous","natural":"tree"}},"type":"Feature"},
	{"geometry":{"coordinates":[18.9023,47.450748],"type":"Point"},"properties":{"osm_id":"8536395958","tag":{"denotation":"urban","leaf_cycle":"deciduous","natural":"tree","start_date":"2021-03-01"}},"type":"Feature"},
	{"geometry":{"coordinates":[18.902232,47.450751],"type":"Point"},"properties":{"osm_id":"8536395959","tag":{"denotation":"urban","leaf_cycle":"deciduous","natural":"tree","start_date":"2021-03-01"}},"type":"Feature"},
	{"geometry":{"coordinates":[18.902165,47.450757],"type":"Point"},"properties":{"osm_id":"8536395960","tag":{"denotation":"urban","leaf_cycle":"deciduous","natural":"tree","start_date":"2021-03-01"}},"type":"Feature"},
	{"geometry":{"coordinates":[18.91346,47.453152],"type":"Point"},"properties":{"osm_id":"8653561568","tag":{"denotation":"landmark","leaf_cycle":"deciduous","leaf_type":"broadleaved","natural":"tree"}},"type":"Feature"},
	{"geometry":{"coordinates":[18.898483,47.441494],"type":"Point"},"properties":{"osm_id":"8811967129","tag":{"leaf_cycle":"deciduous","leaf_type":"broadleaved","natural":"tree"}},"type":"Feature"},
	{"geometry":{"coordinates":[18.898496,47.441439],"type":"Point"},"properties":{"osm_id":"8811967130","tag":{"leaf_cycle":"deciduous","leaf_type":"broadleaved","natural":"tree"}},"type":"Feature"},
	{"geometry":{"coordinates":[18.898574,47.441419],"type":"Point"},"properties":{"osm_id":"8811967131","tag":{"leaf_cycle":"deciduous","leaf_type":"broadleaved","natural":"tree"}},"type":"Feature"},
	{"geometry":{"coordinates":[18.898901,47.441733],"type":"Point"},"properties":{"osm_id":"8811967132","tag":{"leaf_cycle":"deciduous","leaf_type":"broadleaved","natural":"tree"}},"type":"Feature"},
	{"geometry":{"coordinates":[18.898921,47.441673],"type":"Point"},"properties":{"osm_id":"8811967133","tag":{"leaf_cycle":"deciduous","leaf_type":"broadleaved","natural":"tree"}},"type":"Feature"},
	{"geometry":{"coordinates":[18.898999,47.441653],"type":"Point"},"properties":{"osm_id":"8811967134","tag":{"leaf_cycle":"deciduous","leaf_type":"broadleaved","natural":"tree"}},"type":"Feature"},
	{"geometry":{"coordinates":[18.966105,47.441878],"type":"Point"},"properties":{"osm_id":"8815691407","tag":{"description":"ez a fa ben\u00c5\u0091tte az eg\u00c3\u00a9sz utat","natural":"tree"}},"type":"Feature"},
	{"geometry":{"coordinates":[18.896769,47.440094],"type":"Point"},"properties":{"osm_id":"8818329794","tag":{"leaf_cycle":"deciduous","leaf_type":"broadleaved","natural":"tree"}},"type":"Feature"},
	{"geometry":{"coordinates":[18.896817,47.421866],"type":"Point"},"properties":{"osm_id":"8828079012","tag":{"leaf_cycle":"deciduous","leaf_type":"broadleaved","natural":"tree"}},"type":"Feature"},
	{"geometry":{"coordinates":[18.931782,47.399994],"type":"Point"},"properties":{"osm_id":"8919957523","tag":{"denotation":"urban","leaf_cycle":"deciduous","leaf_type":"broadleaved","natural":"tree"}},"type":"Feature"},
	{"geometry":{"coordinates":[18.931388,47.400057],"type":"Point"},"properties":{"osm_id":"8919957524","tag":{"denotation":"urban","leaf_cycle":"deciduous","leaf_type":"broadleaved","natural":"tree"}},"type":"Feature"},
	{"geometry":{"coordinates":[18.931294,47.399859],"type":"Point"},"properties":{"osm_id":"8919957525","tag":{"denotation":"urban","leaf_cycle":"deciduous","leaf_type":"broadleaved","natural":"tree"}},"type":"Feature"},
	{"geometry":{"coordinates":[18.931339,47.399965],"type":"Point"},"properties":{"osm_id":"8919957526","tag":{"denotation":"urban","leaf_cycle":"deciduous","leaf_type":"broadleaved","natural":"tree"}},"type":"Feature"},
	{"geometry":{"coordinates":[18.930905,47.400231],"type":"Point"},"properties":{"osm_id":"8919957527","tag":{"denotation":"urban","leaf_cycle":"deciduous","leaf_type":"broadleaved","natural":"tree"}},"type":"Feature"},
	{"geometry":{"coordinates":[18.931624,47.400351],"type":"Point"},"properties":{"osm_id":"8919957528","tag":{"denotation":"urban","leaf_cycle":"deciduous","leaf_type":"broadleaved","natural":"tree"}},"type":"Feature"},
	{"geometry":{"coordinates":[18.931658,47.40005],"type":"Point"},"properties":{"osm_id":"8919957529","tag":{"denotation":"urban","leaf_cycle":"deciduous","leaf_type":"broadleaved","natural":"tree"}},"type":"Feature"},
	{"geometry":{"coordinates":[18.931551,47.400148],"type":"Point"},"properties":{"osm_id":"8919957530","tag":{"denotation":"urban","leaf_cycle":"deciduous","leaf_type":"broadleaved","natural":"tree"}},"type":"Feature"},
	{"geometry":{"coordinates":[18.923585,47.403498],"type":"Point"},"properties":{"osm_id":"8919957550","tag":{"denotation":"urban","leaf_cycle":"evergreen","leaf_type":"needleleaved","natural":"tree"}},"type":"Feature"},
	{"geometry":{"coordinates":[18.924179,47.403209],"type":"Point"},"properties":{"osm_id":"8919957551","tag":{"denotation":"urban","leaf_cycle":"evergreen","leaf_type":"needleleaved","natural":"tree"}},"type":"Feature"},
	{"geometry":{"coordinates":[18.924146,47.403256],"type":"Point"},"properties":{"osm_id":"8919957552","tag":{"denotation":"urban","leaf_cycle":"evergreen","leaf_type":"needleleaved","natural":"tree"}},"type":"Feature"},
	{"geometry":{"coordinates":[18.923731,47.402979],"type":"Point"},"properties":{"osm_id":"8919957556","tag":{"denotation":"urban","leaf_cycle":"evergreen","leaf_type":"needleleaved","natural":"tree"}},"type":"Feature"},
	{"geometry":{"coordinates":[18.92463,47.40262],"type":"Point"},"properties":{"osm_id":"8919957557","tag":{"denotation":"urban","leaf_cycle":"evergreen","leaf_type":"needleleaved","natural":"tree"}},"type":"Feature"},
	{"geometry":{"coordinates":[18.924691,47.402529],"type":"Point"},"properties":{"osm_id":"8919957558","tag":{"denotation":"urban","leaf_cycle":"evergreen","leaf_type":"needleleaved","natural":"tree"}},"type":"Feature"},
	{"geometry":{"coordinates":[18.92441,47.402854],"type":"Point"},"properties":{"osm_id":"8919957559","tag":{"denotation":"urban","leaf_cycle":"evergreen","leaf_type":"needleleaved","natural":"tree"}},"type":"Feature"},
	{"geometry":{"coordinates":[18.924451,47.402783],"type":"Point"},"properties":{"osm_id":"8919957560","tag":{"denotation":"urban","leaf_cycle":"evergreen","leaf_type":"needleleaved","natural":"tree"}},"type":"Feature"},
	{"geometry":{"coordinates":[18.924508,47.402644],"type":"Point"},"properties":{"osm_id":"8919957561","tag":{"denotation":"urban","leaf_cycle":"evergreen","leaf_type":"needleleaved","natural":"tree"}},"type":"Feature"},
	{"geometry":{"coordinates":[18.924207,47.402583],"type":"Point"},"properties":{"osm_id":"8919957562","tag":{"denotation":"urban","leaf_cycle":"evergreen","leaf_type":"needleleaved","natural":"tree"}},"type":"Feature"},
	{"geometry":{"coordinates":[18.935019,47.400901],"type":"Point"},"properties":{"osm_id":"8922147985","tag":{"denotation":"urban","leaf_cycle":"deciduous","leaf_type":"broadleaved","natural":"tree"}},"type":"Feature"},
	{"geometry":{"coordinates":[18.929008,47.398403],"type":"Point"},"properties":{"osm_id":"8922148014","tag":{"denotation":"urban","leaf_cycle":"deciduous","leaf_type":"broadleaved","natural":"tree"}},"type":"Feature"},
	{"geometry":{"coordinates":[18.929049,47.398567],"type":"Point"},"properties":{"osm_id":"8922148015","tag":{"denotation":"urban","leaf_cycle":"deciduous","leaf_type":"broadleaved","natural":"tree"}},"type":"Feature"},
	{"geometry":{"coordinates":[18.924996,47.401937],"type":"Point"},"properties":{"osm_id":"8923094208","tag":{"denotation":"urban","leaf_cycle":"evergreen","leaf_type":"needleleaved","natural":"tree"}},"type":"Feature"},
	{"geometry":{"coordinates":[18.925071,47.401871],"type":"Point"},"properties":{"osm_id":"8923094209","tag":{"denotation":"urban","leaf_cycle":"evergreen","leaf_type":"needleleaved","natural":"tree"}},"type":"Feature"},
	{"geometry":{"coordinates":[18.925373,47.402386],"type":"Point"},"properties":{"osm_id":"8923131817","tag":{"denotation":"urban","leaf_cycle":"evergreen","leaf_type":"needleleaved","natural":"tree"}},"type":"Feature"},
	{"geometry":{"coordinates":[18.925433,47.402461],"type":"Point"},"properties":{"osm_id":"8923131818","tag":{"denotation":"urban","leaf_cycle":"evergreen","leaf_type":"needleleaved","natural":"tree"}},"type":"Feature"},
	{"geometry":{"coordinates":[18.925591,47.402169],"type":"Point"},"properties":{"osm_id":"8923131819","tag":{"denotation":"urban","leaf_cycle":"deciduous","leaf_type":"broadleaved","natural":"tree"}},"type":"Feature"},
	{"geometry":{"coordinates":[18.925076,47.403067],"type":"Point"},"properties":{"osm_id":"8923131830","tag":{"denotation":"urban","leaf_cycle":"deciduous","leaf_type":"broadleaved","natural":"tree"}},"type":"Feature"},
	{"geometry":{"coordinates":[18.924875,47.402995],"type":"Point"},"properties":{"osm_id":"8923131831","tag":{"denotation":"urban","leaf_cycle":"deciduous","leaf_type":"broadleaved","natural":"tree"}},"type":"Feature"},
	{"geometry":{"coordinates":[18.924628,47.402799],"type":"Point"},"properties":{"osm_id":"8923131832","tag":{"denotation":"urban","leaf_cycle":"deciduous","leaf_type":"broadleaved","natural":"tree"}},"type":"Feature"},
	{"geometry":{"coordinates":[18.923392,47.402521],"type":"Point"},"properties":{"osm_id":"8923131833","tag":{"denotation":"urban","leaf_cycle":"deciduous","leaf_type":"broadleaved","natural":"tree"}},"type":"Feature"},
	{"geometry":{"coordinates":[18.921721,47.402323],"type":"Point"},"properties":{"osm_id":"8923131840","tag":{"denotation":"urban","leaf_cycle":"deciduous","leaf_type":"broadleaved","natural":"tree"}},"type":"Feature"},
	{"geometry":{"coordinates":[18.919124,47.401847],"type":"Point"},"properties":{"osm_id":"8923131841","tag":{"denotation":"urban","leaf_cycle":"deciduous","leaf_type":"broadleaved","natural":"tree"}},"type":"Feature"},
	{"geometry":{"coordinates":[18.919999,47.402078],"type":"Point"},"properties":{"osm_id":"8923131842","tag":{"denotation":"urban","leaf_cycle":"deciduous","leaf_type":"broadleaved","natural":"tree"}},"type":"Feature"},
	{"geometry":{"coordinates":[18.920085,47.401949],"type":"Point"},"properties":{"osm_id":"8923131843","tag":{"denotation":"urban","leaf_cycle":"deciduous","leaf_type":"broadleaved","natural":"tree"}},"type":"Feature"},
	{"geometry":{"coordinates":[18.920272,47.401953],"type":"Point"},"properties":{"osm_id":"8923131844","tag":{"denotation":"urban","leaf_cycle":"deciduous","leaf_type":"broadleaved","natural":"tree"}},"type":"Feature"},
	{"geometry":{"coordinates":[18.921158,47.402563],"type":"Point"},"properties":{"osm_id":"8923131845","tag":{"denotation":"urban","leaf_cycle":"deciduous","leaf_type":"broadleaved","natural":"tree"}},"type":"Feature"},
	{"geometry":{"coordinates":[18.917368,47.404618],"type":"Point"},"properties":{"osm_id":"8923131846","tag":{"denotation":"urban","leaf_cycle":"deciduous","leaf_type":"broadleaved","natural":"tree"}},"type":"Feature"},
	{"geometry":{"coordinates":[18.917824,47.403579],"type":"Point"},"properties":{"osm_id":"8923131847","tag":{"denotation":"urban","leaf_cycle":"deciduous","leaf_type":"broadleaved","natural":"tree"}},"type":"Feature"},
	{"geometry":{"coordinates":[18.918891,47.403145],"type":"Point"},"properties":{"osm_id":"8923131848","tag":{"denotation":"urban","leaf_cycle":"deciduous","leaf_type":"broadleaved","natural":"tree"}},"type":"Feature"},
	{"geometry":{"coordinates":[18.920069,47.402926],"type":"Point"},"properties":{"osm_id":"8923131849","tag":{"denotation":"urban","leaf_cycle":"deciduous","leaf_type":"broadleaved","natural":"tree"}},"type":"Feature"},
	{"geometry":{"coordinates":[18.919774,47.40296],"type":"Point"},"properties":{"osm_id":"8923131850","tag":{"denotation":"urban","leaf_cycle":"deciduous","leaf_type":"broadleaved","natural":"tree"}},"type":"Feature"},
	{"geometry":{"coordinates":[18.919567,47.402895],"type":"Point"},"properties":{"osm_id":"8923131851","tag":{"denotation":"urban","leaf_cycle":"deciduous","leaf_type":"broadleaved","natural":"tree"}},"type":"Feature"},
	{"geometry":{"coordinates":[18.94887,47.403568],"type":"Point"},"properties":{"osm_id":"8961364886","tag":{"denotation":"urban","leaf_cycle":"deciduous","leaf_type":"broadleaved","natural":"tree"}},"type":"Feature"},
	{"geometry":{"coordinates":[18.948807,47.403815],"type":"Point"},"properties":{"osm_id":"8961364887","tag":{"denotation":"urban","leaf_cycle":"deciduous","leaf_type":"broadleaved","natural":"tree"}},"type":"Feature"},
	{"geometry":{"coordinates":[18.90662,47.407065],"type":"Point"},"properties":{"osm_id":"8962866852","tag":{"denotation":"urban","leaf_cycle":"deciduous","leaf_type":"broadleaved","natural":"tree"}},"type":"Feature"},
	{"geometry":{"coordinates":[18.904804,47.407752],"type":"Point"},"properties":{"osm_id":"8962902197","tag":{"denotation":"urban","leaf_cycle":"deciduous","leaf_type":"broadleaved","natural":"tree"}},"type":"Feature"},
	{"geometry":{"coordinates":[18.916098,47.439066],"type":"Point"},"properties":{"osm_id":"9041605358","tag":{"leaf_cycle":"deciduous","leaf_type":"broadleaved","natural":"tree"}},"type":"Feature"},
	{"geometry":{"coordinates":[18.974311,47.415636],"type":"Point"},"properties":{"osm_id":"9174083168","tag":{"denotation":"landmark","leaf_cycle":"deciduous","leaf_type":"broadleaved","natural":"tree"}},"type":"Feature"},
	{"geometry":{"coordinates":[18.97413,47.415622],"type":"Point"},"properties":{"osm_id":"9174083169","tag":{"denotation":"landmark","leaf_cycle":"deciduous","leaf_type":"broadleaved","natural":"tree"}},"type":"Feature"},
	{"geometry":{"coordinates":[18.973446,47.415545],"type":"Point"},"properties":{"osm_id":"9174083172","tag":{"denotation":"landmark","leaf_cycle":"deciduous","leaf_type":"broadleaved","natural":"tree"}},"type":"Feature"},
	{"geometry":{"coordinates":[18.973018,47.415915],"type":"Point"},"properties":{"osm_id":"9174083173","tag":{"denotation":"landmark","leaf_cycle":"deciduous","leaf_type":"broadleaved","natural":"tree"}},"type":"Feature"},
	{"geometry":{"coordinates":[18.980271,47.415632],"type":"Point"},"properties":{"osm_id":"9175348452","tag":{"denotation":"urban","leaf_cycle":"deciduous","leaf_type":"broadleaved","natural":"tree"}},"type":"Feature"},
	{"geometry":{"coordinates":[18.980408,47.415717],"type":"Point"},"properties":{"osm_id":"9175348453","tag":{"denotation":"urban","leaf_cycle":"deciduous","leaf_type":"broadleaved","natural":"tree"}},"type":"Feature"},
	{"geometry":{"coordinates":[18.979387,47.416317],"type":"Point"},"properties":{"osm_id":"9175348454","tag":{"denotation":"urban","leaf_cycle":"deciduous","leaf_type":"broadleaved","natural":"tree"}},"type":"Feature"},
	{"geometry":{"coordinates":[18.980847,47.414463],"type":"Point"},"properties":{"osm_id":"9175348455","tag":{"denotation":"urban","leaf_cycle":"deciduous","leaf_type":"broadleaved","natural":"tree"}},"type":"Feature"},
	{"geometry":{"coordinates":[18.981789,47.414264],"type":"Point"},"properties":{"osm_id":"9175348456","tag":{"denotation":"urban","leaf_cycle":"deciduous","leaf_type":"broadleaved","natural":"tree"}},"type":"Feature"}
]
}
