{
"type": "FeatureCollection",
"features": [
	{"geometry":{"coordinates":[34.333404,61.797444],"type":"Point"},"properties":{"osm_id":"520089653","tag":{"amenity":"waste_basket"}},"type":"Feature"},
	{"geometry":{"coordinates":[34.336723,61.794577],"type":"Point"},"properties":{"osm_id":"1291817436","tag":{"amenity":"waste_disposal"}},"type":"Feature"},
	{"geometry":{"coordinates":[34.305854,61.8015],"type":"Point"},"properties":{"osm_id":"1352827052","tag":{"amenity":"waste_basket"}},"type":"Feature"},
	{"geometry":{"coordinates":[34.305645,61.801536],"type":"Point"},"properties":{"osm_id":"1352827054","tag":{"amenity":"waste_basket"}},"type":"Feature"},
	{"geometry":{"coordinates":[34.27922,61.809008],"type":"Point"},"properties":{"osm_id":"1358033547","ref":"2092","tag":{"amenity":"waste_disposal"}},"type":"Feature"},
	{"geometry":{"coordinates":[34.312811,61.804722],"type":"Point"},"properties":{"osm_id":"1371536551","ref":"1034","tag":{"amenity":"waste_disposal"}},"type":"Feature"},
	{"geometry":{"coordinates":[34.313046,61.800877],"type":"Point"},"properties":{"osm_id":"1379643909","tag":{"amenity":"waste_disposal"}},"type":"Feature"},
	{"geometry":{"coordinates":[34.314957,61.801148],"type":"Point"},"properties":{"osm_id":"1379643919","tag":{"amenity":"waste_basket"}},"type":"Feature"},
	{"geometry":{"coordinates":[34.324989,61.801319],"type":"Point"},"properties":{"osm_id":"1721429247","tag":{"amenity":"waste_basket"}},"type":"Feature"},
	{"geometry":{"coordinates":[34.32505,61.801337],"type":"Point"},"properties":{"osm_id":"1721429249","tag":{"amenity":"waste_basket"}},"type":"Feature"},
	{"geometry":{"coordinates":[34.325317,61.80217],"type":"Point"},"properties":{"osm_id":"1721429259","tag":{"amenity":"waste_basket"}},"type":"Feature"},
	{"geometry":{"coordinates":[34.325735,61.802371],"type":"Point"},"properties":{"osm_id":"1721429266","tag":{"amenity":"waste_basket"}},"type":"Feature"},
	{"geometry":{"coordinates":[34.330247,61.80308],"type":"Point"},"properties":{"osm_id":"1733383101","tag":{"amenity":"waste_disposal"}},"type":"Feature"},
	{"geometry":{"coordinates":[34.331598,61.801985],"type":"Point"},"properties":{"osm_id":"1733707573","ref":"1074","tag":{"amenity":"waste_disposal"}},"type":"Feature"},
	{"geometry":{"coordinates":[34.342941,61.799885],"type":"Point"},"properties":{"osm_id":"1736321491","tag":{"amenity":"waste_basket"}},"type":"Feature"},
	{"geometry":{"coordinates":[34.341612,61.800508],"type":"Point"},"properties":{"osm_id":"1736321608","tag":{"amenity":"waste_basket"}},"type":"Feature"},
	{"geometry":{"coordinates":[34.347857,61.800609],"type":"Point"},"properties":{"osm_id":"1736321611","ref":"1120","tag":{"amenity":"waste_disposal"}},"type":"Feature"},
	{"geometry":{"coordinates":[34.342663,61.800775],"type":"Point"},"properties":{"osm_id":"1736321659","tag":{"amenity":"waste_basket"}},"type":"Feature"},
	{"geometry":{"coordinates":[34.34027,61.800956],"type":"Point"},"properties":{"osm_id":"1736321695","tag":{"amenity":"waste_basket"}},"type":"Feature"},
	{"geometry":{"coordinates":[34.340146,61.800998],"type":"Point"},"properties":{"osm_id":"1736321701","tag":{"amenity":"waste_basket"}},"type":"Feature"},
	{"geometry":{"coordinates":[34.339645,61.801161],"type":"Point"},"properties":{"osm_id":"1736321751","tag":{"amenity":"waste_basket"}},"type":"Feature"},
	{"geometry":{"coordinates":[34.333391,61.802186],"type":"Point"},"properties":{"osm_id":"1736321893","tag":{"amenity":"waste_basket"}},"type":"Feature"},
	{"geometry":{"coordinates":[34.335728,61.802601],"type":"Point"},"properties":{"osm_id":"1736321899","tag":{"amenity":"waste_basket"}},"type":"Feature"},
	{"geometry":{"coordinates":[34.334991,61.802754],"type":"Point"},"properties":{"osm_id":"1736321902","tag":{"amenity":"waste_basket"}},"type":"Feature"},
	{"geometry":{"coordinates":[34.335395,61.802776],"type":"Point"},"properties":{"osm_id":"1736321904","tag":{"amenity":"waste_basket"}},"type":"Feature"},
	{"geometry":{"coordinates":[34.348986,61.801381],"type":"Point"},"properties":{"osm_id":"1736446115","tag":{"amenity":"waste_basket"}},"type":"Feature"},
	{"geometry":{"coordinates":[34.357429,61.800251],"type":"Point"},"properties":{"osm_id":"1737496183","tag":{"amenity":"waste_basket"}},"type":"Feature"},
	{"geometry":{"coordinates":[34.352852,61.801838],"type":"Point"},"properties":{"osm_id":"1737496258","tag":{"amenity":"waste_basket"}},"type":"Feature"},
	{"geometry":{"coordinates":[34.364277,61.780722],"type":"Point"},"properties":{"osm_id":"1740301722","tag":{"amenity":"waste_disposal"}},"type":"Feature"},
	{"geometry":{"coordinates":[34.364501,61.794188],"type":"Point"},"properties":{"osm_id":"1744195293","tag":{"amenity":"waste_disposal"}},"type":"Feature"},
	{"geometry":{"coordinates":[34.357742,61.788822],"type":"Point"},"properties":{"osm_id":"1744596913","tag":{"amenity":"waste_basket"}},"type":"Feature"},
	{"geometry":{"coordinates":[34.35743,61.789519],"type":"Point"},"properties":{"osm_id":"1744597064","tag":{"amenity":"waste_disposal"}},"type":"Feature"},
	{"geometry":{"coordinates":[34.343066,61.7802],"type":"Point"},"properties":{"osm_id":"1750028410","tag":{"amenity":"waste_disposal"}},"type":"Feature"},
	{"geometry":{"coordinates":[34.348051,61.781509],"type":"Point"},"properties":{"osm_id":"1750028486","tag":{"amenity":"waste_basket"}},"type":"Feature"},
	{"geometry":{"coordinates":[34.349534,61.782422],"type":"Point"},"properties":{"osm_id":"1750028512","tag":{"amenity":"waste_basket"}},"type":"Feature"},
	{"geometry":{"coordinates":[34.355547,61.786098],"type":"Point"},"properties":{"osm_id":"1768267405","tag":{"amenity":"waste_basket"}},"type":"Feature"},
	{"geometry":{"coordinates":[34.354302,61.787619],"type":"Point"},"properties":{"osm_id":"1768267417","tag":{"amenity":"waste_basket"}},"type":"Feature"},
	{"geometry":{"coordinates":[34.352392,61.78327],"type":"Point"},"properties":{"osm_id":"1773521548","tag":{"amenity":"waste_basket"}},"type":"Feature"},
	{"geometry":{"coordinates":[34.354877,61.784085],"type":"Point"},"properties":{"osm_id":"1773521602","tag":{"amenity":"waste_basket"}},"type":"Feature"},
	{"geometry":{"coordinates":[34.355011,61.784129],"type":"Point"},"properties":{"osm_id":"1773521604","tag":{"amenity":"waste_basket"}},"type":"Feature"},
	{"geometry":{"coordinates":[34.357165,61.784773],"type":"Point"},"properties":{"osm_id":"1773521677","tag":{"amenity":"waste_basket"}},"type":"Feature"},
	{"geometry":{"coordinates":[34.356216,61.790465],"type":"Point"},"properties":{"osm_id":"1781833859","tag":{"amenity":"waste_disposal"}},"type":"Feature"},
	{"geometry":{"coordinates":[34.346334,61.794093],"type":"Point"},"properties":{"osm_id":"1783547333","tag":{"amenity":"waste_basket"}},"type":"Feature"},
	{"geometry":{"coordinates":[34.345228,61.794937],"type":"Point"},"properties":{"osm_id":"1783547555","tag":{"amenity":"waste_basket"}},"type":"Feature"},
	{"geometry":{"coordinates":[34.33311,61.796713],"type":"Point"},"properties":{"osm_id":"1783877119","tag":{"amenity":"waste_disposal"}},"type":"Feature"},
	{"geometry":{"coordinates":[34.325898,61.798075],"type":"Point"},"properties":{"osm_id":"1905496322","tag":{"amenity":"waste_disposal"}},"type":"Feature"},
	{"geometry":{"coordinates":[34.32121,61.798873],"type":"Point"},"properties":{"osm_id":"1905496358","tag":{"amenity":"waste_disposal"}},"type":"Feature"},
	{"geometry":{"coordinates":[34.309629,61.804153],"type":"Point"},"properties":{"name":"\u00d0\u00a6\u00d0\u00b2\u00d0\u00b5\u00d1\u0082\u00d0\u009c\u00d0\u00b5\u00d1\u0082","osm_id":"2141609915","tag":{"amenity":"recycling"}},"type":"Feature"},
	{"geometry":{"coordinates":[34.316033,61.80046],"type":"Point"},"properties":{"osm_id":"2333008549","tag":{"amenity":"waste_disposal"}},"type":"Feature"},
	{"geometry":{"coordinates":[34.316498,61.80111],"type":"Point"},"properties":{"osm_id":"2333008736","tag":{"amenity":"waste_disposal"}},"type":"Feature"},
	{"geometry":{"coordinates":[34.358392,61.774241],"type":"Point"},"properties":{"osm_id":"2389467699","tag":{"amenity":"waste_basket"}},"type":"Feature"},
	{"geometry":{"coordinates":[34.345478,61.798298],"type":"Point"},"properties":{"osm_id":"2466650839","tag":{"amenity":"waste_disposal","waste":"trash"}},"type":"Feature"},
	{"geometry":{"coordinates":[34.349788,61.796673],"type":"Point"},"properties":{"osm_id":"2466650840","tag":{"amenity":"waste_disposal","waste":"trash"}},"type":"Feature"},
	{"geometry":{"coordinates":[34.352846,61.796058],"type":"Point"},"properties":{"osm_id":"2466650841","tag":{"amenity":"waste_disposal","waste":"trash"}},"type":"Feature"},
	{"geometry":{"coordinates":[34.354085,61.794466],"type":"Point"},"properties":{"osm_id":"2466650845","tag":{"amenity":"waste_basket"}},"type":"Feature"},
	{"geometry":{"coordinates":[34.329262,61.797872],"type":"Point"},"properties":{"osm_id":"2532676739","tag":{"amenity":"recycling","location":"overground","opening_hours":"24/7","recycling:cardboard":"yes","recycling:paper":"yes","recycling_type":"container"}},"type":"Feature"},
	{"geometry":{"coordinates":[34.27952,61.774208],"type":"Point"},"properties":{"osm_id":"2902204825","tag":{"amenity":"waste_disposal"}},"type":"Feature"},
	{"geometry":{"coordinates":[34.333684,61.787745],"type":"Point"},"properties":{"osm_id":"2911918226","tag":{"amenity":"waste_disposal"}},"type":"Feature"},
	{"geometry":{"coordinates":[34.33338,61.808327],"type":"Point"},"properties":{"osm_id":"2917020023","tag":{"amenity":"waste_disposal"}},"type":"Feature"},
	{"geometry":{"coordinates":[34.304367,61.801005],"type":"Point"},"properties":{"name":"\u00d0\u0091\u00d0\u00be\u00d0\u00b3\u00d0\u00b0\u00d1\u0082\u00d1\u008b\u00d1\u0080\u00d1\u008c","osm_id":"3227859730","tag":{"amenity":"waste_disposal","shop":"bakery"}},"type":"Feature"},
	{"geometry":{"coordinates":[34.304746,61.800914],"type":"Point"},"properties":{"osm_id":"3227861693","tag":{"amenity":"waste_disposal"}},"type":"Feature"},
	{"geometry":{"coordinates":[34.304722,61.800928],"type":"Point"},"properties":{"osm_id":"3227861695","tag":{"amenity":"waste_disposal"}},"type":"Feature"},
	{"geometry":{"coordinates":[34.316613,61.799933],"type":"Point"},"properties":{"osm_id":"3448252393","tag":{"amenity":"waste_basket"}},"type":"Feature"},
	{"geometry":{"coordinates":[34.314112,61.800842],"type":"Point"},"properties":{"osm_id":"3448253597","tag":{"amenity":"waste_disposal"}},"type":"Feature"},
	{"geometry":{"coordinates":[34.297394,61.78405],"type":"Point"},"properties":{"man_made":"works","name":"\u00d0\u00ad\u00d0\u00ba\u00d0\u00be\u00d0\u00bb\u00d0\u00b8\u00d0\u00bd\u00d1\u0082","osm_id":"3472586527","tag":{"amenity":"recycling","recycling:paper":"yes","recycling_type":"centre"}},"type":"Feature"},
	{"geometry":{"coordinates":[34.34532,61.794817],"type":"Point"},"properties":{"osm_id":"3981995825","tag":{"amenity":"waste_basket"}},"type":"Feature"},
	{"geometry":{"coordinates":[34.330252,61.798121],"type":"Point"},"properties":{"osm_id":"4029604070","tag":{"amenity":"waste_basket"}},"type":"Feature"},
	{"geometry":{"coordinates":[34.328848,61.798405],"type":"Point"},"properties":{"osm_id":"4029607180","tag":{"amenity":"waste_basket"}},"type":"Feature"},
	{"geometry":{"coordinates":[34.332368,61.797669],"type":"Point"},"properties":{"osm_id":"4029607181","tag":{"amenity":"waste_basket"}},"type":"Feature"},
	{"geometry":{"coordinates":[34.333762,61.79738],"type":"Point"},"properties":{"osm_id":"4029607444","tag":{"amenity":"waste_basket"}},"type":"Feature"},
	{"geometry":{"coordinates":[34.328488,61.7985],"type":"Point"},"properties":{"osm_id":"4029607489","tag":{"amenity":"waste_basket"}},"type":"Feature"},
	{"geometry":{"coordinates":[34.318777,61.775358],"type":"Point"},"properties":{"osm_id":"4212999814","tag":{"amenity":"waste_disposal"}},"type":"Feature"},
	{"geometry":{"coordinates":[34.317663,61.77759],"type":"Point"},"properties":{"osm_id":"4212999815","tag":{"amenity":"waste_disposal"}},"type":"Feature"},
	{"geometry":{"coordinates":[34.326865,61.806762],"type":"Point"},"properties":{"osm_id":"4214369844","tag":{"amenity":"waste_disposal"}},"type":"Feature"},
	{"geometry":{"coordinates":[34.356301,61.784881],"type":"Point"},"properties":{"osm_id":"4246346490","tag":{"amenity":"waste_disposal"}},"type":"Feature"},
	{"geometry":{"coordinates":[34.357253,61.798909],"type":"Point"},"properties":{"osm_id":"4284083145","tag":{"amenity":"waste_disposal"}},"type":"Feature"},
	{"geometry":{"coordinates":[34.329591,61.783393],"type":"Point"},"properties":{"osm_id":"4297608796","tag":{"amenity":"waste_disposal"}},"type":"Feature"},
	{"geometry":{"coordinates":[34.330841,61.806104],"type":"Point"},"properties":{"osm_id":"4328385905","tag":{"amenity":"waste_disposal"}},"type":"Feature"},
	{"geometry":{"coordinates":[34.345447,61.788663],"type":"Point"},"properties":{"osm_id":"4344304890","tag":{"amenity":"waste_basket"}},"type":"Feature"},
	{"geometry":{"coordinates":[34.344866,61.788729],"type":"Point"},"properties":{"osm_id":"4344304989","tag":{"amenity":"waste_basket"}},"type":"Feature"},
	{"geometry":{"coordinates":[34.343389,61.788584],"type":"Point"},"properties":{"osm_id":"4345620888","tag":{"amenity":"waste_basket"}},"type":"Feature"},
	{"geometry":{"coordinates":[34.343809,61.788628],"type":"Point"},"properties":{"osm_id":"4345621592","tag":{"amenity":"waste_basket"}},"type":"Feature"},
	{"geometry":{"coordinates":[34.302903,61.798416],"type":"Point"},"properties":{"osm_id":"4441177497","tag":{"amenity":"waste_disposal"}},"type":"Feature"},
	{"geometry":{"coordinates":[34.332544,61.797392],"type":"Point"},"properties":{"osm_id":"4611813267","tag":{"amenity":"waste_disposal"}},"type":"Feature"},
	{"geometry":{"coordinates":[34.329265,61.800263],"type":"Point"},"properties":{"osm_id":"4617123892","tag":{"amenity":"waste_disposal"}},"type":"Feature"},
	{"geometry":{"coordinates":[34.340457,61.795545],"type":"Point"},"properties":{"osm_id":"4617179990","tag":{"amenity":"waste_disposal"}},"type":"Feature"},
	{"geometry":{"coordinates":[34.326853,61.781129],"type":"Point"},"properties":{"osm_id":"4876385375","tag":{"amenity":"waste_disposal"}},"type":"Feature"},
	{"geometry":{"coordinates":[34.32098,61.781541],"type":"Point"},"properties":{"osm_id":"6534639893","tag":{"amenity":"waste_disposal"}},"type":"Feature"},
	{"geometry":{"coordinates":[34.331749,61.798614],"type":"Point"},"properties":{"osm_id":"6720338273","tag":{"amenity":"waste_disposal"}},"type":"Feature"},
	{"geometry":{"coordinates":[34.348229,61.788444],"type":"Point"},"properties":{"osm_id":"6834285486","tag":{"amenity":"recycling","location":"overground","recycling:glass_bottles":"yes","recycling:paper":"yes","recycling:plastic":"yes","recycling_type":"container"}},"type":"Feature"},
	{"geometry":{"coordinates":[34.346833,61.783494],"type":"Point"},"properties":{"osm_id":"7208127004","tag":{"amenity":"waste_disposal","waste":"trash"}},"type":"Feature"},
	{"geometry":{"coordinates":[34.346808,61.783486],"type":"Point"},"properties":{"osm_id":"7208127005","tag":{"amenity":"waste_disposal","waste":"trash"}},"type":"Feature"},
	{"geometry":{"coordinates":[34.346775,61.783475],"type":"Point"},"properties":{"osm_id":"7208127006","tag":{"amenity":"waste_disposal","waste":"trash"}},"type":"Feature"},
	{"geometry":{"coordinates":[34.350332,61.786805],"type":"Point"},"properties":{"osm_id":"7212754328","tag":{"amenity":"waste_disposal","waste":"trash"}},"type":"Feature"},
	{"geometry":{"coordinates":[34.336443,61.78814],"type":"Point"},"properties":{"osm_id":"7258223980","tag":{"amenity":"waste_disposal"}},"type":"Feature"},
	{"geometry":{"coordinates":[34.333012,61.80549],"type":"Point"},"properties":{"osm_id":"7823908793","tag":{"amenity":"waste_disposal","waste":"trash"}},"type":"Feature"}
]
}
