{
"type": "FeatureCollection",
"features": [
	{"geometry":{"coordinates":[-52.475837,5.010006],"type":"Point"},"properties":{"name":"collecteur d'objets en verre","osm_id":"4719461363","tag":{"addr:city":"Macouria","addr:postcode":"97355","addr:street":"Rue Sidonie Poitevin","amenity":"waste_disposal","description":"Collecteur d'objets (bouteilles) en verre"}},"type":"Feature"},
	{"geometry":{"coordinates":[-52.473637,5.010094],"type":"Point"},"properties":{"name":"collecteur de verre","osm_id":"4719565439","tag":{"amenity":"waste_disposal"}},"type":"Feature"},
	{"geometry":{"coordinates":[-52.51346,5.039883],"type":"Point"},"properties":{"osm_id":"5757099930","tag":{"amenity":"recycling","recycling:glass_bottles":"yes","recycling_type":"container","source:position":"GPS"}},"type":"Feature"},
	{"geometry":{"coordinates":[-52.475878,5.010011],"type":"Point"},"properties":{"name":"local bac \u00c3\u00a0 poubelles \u00c3\u00a0 couvercle vert","osm_id":"5785125700","tag":{"addr:city":"Macouria","addr:postcode":"97355","addr:street":"Rue Sidonie Poitevin","amenity":"waste_disposal","collection_times":"mardi et samedi matin"}},"type":"Feature"}
]
}
