{
"type": "FeatureCollection",
"features": [
	{"geometry":{"coordinates":[14.441421,59.324357],"type":"Point"},"properties":{"osm_id":"26362654","tag":{"amenity":"recycling"}},"type":"Feature"},
	{"geometry":{"coordinates":[14.482028,59.313125],"type":"Point"},"properties":{"osm_id":"1406548605","tag":{"amenity":"recycling","email":"kontakt@ftiab.se","operator":"F\u00c3\u00b6rpacknings & Tidningsinsamlingen","recycling:batteries":"yes","recycling:cardboard":"yes","recycling:glass":"yes","recycling:glass_bottles":"yes","recycling:paper":"yes","recycling:plastic_packaging":"yes","recycling_type":"container","website":"https://www.ftiab.se/"}},"type":"Feature"},
	{"geometry":{"coordinates":[14.501785,59.313768],"type":"Point"},"properties":{"osm_id":"1406548606","tag":{"amenity":"recycling","email":"kontakt@ftiab.se","operator":"F\u00c3\u00b6rpacknings & Tidningsinsamlingen","recycling:batteries":"yes","recycling:cans":"yes","recycling:glass":"yes","recycling:glass_bottles":"yes","recycling:paper":"yes","recycling:plastic_packaging":"yes","recycling_type":"container","website":"https://www.ftiab.se/"}},"type":"Feature"},
	{"geometry":{"coordinates":[14.4965,59.32694],"type":"Point"},"properties":{"osm_id":"1756720311","tag":{"amenity":"recycling","email":"kontakt@ftiab.se","operator":"F\u00c3\u00b6rpacknings & Tidningsinsamlingen","recycling:cans":"yes","recycling:cardboard":"yes","recycling:glass":"yes","recycling:glass_bottles":"yes","recycling:paper":"yes","recycling:plastic":"yes","recycling_type":"container","website":"https://www.ftiab.se/"}},"type":"Feature"},
	{"geometry":{"coordinates":[14.480813,59.311507],"type":"Point"},"properties":{"osm_id":"1855046625","tag":{"amenity":"recycling","email":"kontakt@ftiab.se","location":"overground","operator":"F\u00c3\u00b6rpacknings & Tidningsinsamlingen","recycling:batteries":"yes","recycling:glass_bottles":"yes","recycling:paper":"yes","recycling:scrap_metal":"yes","recycling_type":"container","website":"https://www.ftiab.se/"}},"type":"Feature"},
	{"geometry":{"coordinates":[14.478588,59.314264],"type":"Point"},"properties":{"osm_id":"5249980227","tag":{"amenity":"waste_basket","waste":"dog_excrement"}},"type":"Feature"},
	{"geometry":{"coordinates":[14.493854,59.311158],"type":"Point"},"properties":{"osm_id":"5249980294","tag":{"amenity":"waste_basket","waste":"dog_excrement"}},"type":"Feature"},
	{"geometry":{"coordinates":[14.489224,59.311331],"type":"Point"},"properties":{"osm_id":"5249980295","tag":{"amenity":"waste_basket","waste":"dog_excrement"}},"type":"Feature"},
	{"geometry":{"coordinates":[14.495253,59.316825],"type":"Point"},"properties":{"osm_id":"5392485434","tag":{"amenity":"waste_basket","waste":"dog_excrement"}},"type":"Feature"},
	{"geometry":{"coordinates":[14.495462,59.320171],"type":"Point"},"properties":{"osm_id":"5558608093","tag":{"amenity":"recycling","email":"kontakt@ftiab.se","operator":"F\u00c3\u00b6rpacknings & Tidningsinsamlingen","recycling:cans":"yes","recycling:glass_bottles":"yes","recycling:paper":"yes","recycling:plastic_packaging":"yes","recycling_type":"container","website":"https://www.ftiab.se/"}},"type":"Feature"},
	{"geometry":{"coordinates":[14.500123,59.311971],"type":"Point"},"properties":{"osm_id":"5820718576","tag":{"amenity":"waste_basket","waste":"dog_excrement"}},"type":"Feature"},
	{"geometry":{"coordinates":[14.479852,59.319032],"type":"Point"},"properties":{"osm_id":"5908524227","tag":{"amenity":"waste_basket","waste":"dog_excrement"}},"type":"Feature"},
	{"geometry":{"coordinates":[14.480448,59.321817],"type":"Point"},"properties":{"osm_id":"5908524228","tag":{"amenity":"waste_basket","waste":"dog_excrement"}},"type":"Feature"},
	{"geometry":{"coordinates":[14.474705,59.31129],"type":"Point"},"properties":{"osm_id":"5950697390","tag":{"amenity":"waste_basket","waste":"dog_excrement"}},"type":"Feature"},
	{"geometry":{"coordinates":[14.483354,59.312709],"type":"Point"},"properties":{"osm_id":"6018483602","tag":{"amenity":"waste_basket","waste":"dog_excrement"}},"type":"Feature"},
	{"geometry":{"coordinates":[14.48396,59.318754],"type":"Point"},"properties":{"osm_id":"6053016056","tag":{"amenity":"waste_basket","waste":"dog_excrement"}},"type":"Feature"},
	{"geometry":{"coordinates":[14.501113,59.324287],"type":"Point"},"properties":{"osm_id":"6444538377","tag":{"amenity":"waste_basket","waste":"dog_excrement"}},"type":"Feature"}
]
}
