{
"type": "FeatureCollection",
"features": [
	{"geometry":{"coordinates":[14.455089,56.066428],"type":"Point"},"properties":{"name":"Sopor","osm_id":"2123045094","tag":{"amenity":"waste_disposal"}},"type":"Feature"},
	{"geometry":{"coordinates":[14.455126,56.066446],"type":"Point"},"properties":{"name":"Tunna f\u00c3\u00b6r grillkol","osm_id":"2123045097","tag":{"amenity":"waste_basket"}},"type":"Feature"},
	{"geometry":{"coordinates":[14.467751,56.071854],"type":"Point"},"properties":{"osm_id":"4437953023","tag":{"amenity":"waste_basket"}},"type":"Feature"},
	{"geometry":{"coordinates":[14.479114,56.067464],"type":"Point"},"properties":{"osm_id":"4455288398","tag":{"amenity":"waste_basket"}},"type":"Feature"},
	{"geometry":{"coordinates":[14.477298,56.068953],"type":"Point"},"properties":{"osm_id":"4455288406","tag":{"amenity":"waste_basket"}},"type":"Feature"},
	{"geometry":{"coordinates":[14.477512,56.069457],"type":"Point"},"properties":{"osm_id":"4455288411","tag":{"amenity":"waste_basket"}},"type":"Feature"},
	{"geometry":{"coordinates":[14.479162,56.066745],"type":"Point"},"properties":{"osm_id":"8931045593","tag":{"amenity":"waste_basket"}},"type":"Feature"},
	{"geometry":{"coordinates":[14.479386,56.066507],"type":"Point"},"properties":{"osm_id":"8931045599","tag":{"amenity":"waste_basket"}},"type":"Feature"},
	{"geometry":{"coordinates":[14.479146,56.066725],"type":"Point"},"properties":{"osm_id":"8931045600","tag":{"amenity":"waste_basket"}},"type":"Feature"},
	{"geometry":{"coordinates":[14.479336,56.066557],"type":"Point"},"properties":{"osm_id":"8931045601","tag":{"amenity":"waste_basket"}},"type":"Feature"},
	{"geometry":{"coordinates":[14.47924,56.066883],"type":"Point"},"properties":{"osm_id":"8931101888","tag":{"amenity":"waste_basket"}},"type":"Feature"},
	{"geometry":{"coordinates":[14.47925,56.067002],"type":"Point"},"properties":{"osm_id":"8931101894","tag":{"amenity":"waste_basket"}},"type":"Feature"}
]
}
