{
"type": "FeatureCollection",
"features": [
	{"geometry":{"coordinates":[14.463873,53.939842],"type":"Point"},"properties":{"osm_id":"3057823388","tag":{"amenity":"waste_basket","check_date":"2021-09-19"}},"type":"Feature"},
	{"geometry":{"coordinates":[14.443033,53.934254],"type":"Point"},"properties":{"osm_id":"6260306245","tag":{"amenity":"waste_basket"}},"type":"Feature"},
	{"geometry":{"coordinates":[14.44763,53.924485],"type":"Point"},"properties":{"osm_id":"6260621231","tag":{"amenity":"waste_basket"}},"type":"Feature"},
	{"geometry":{"coordinates":[14.446914,53.924703],"type":"Point"},"properties":{"osm_id":"6260621233","tag":{"amenity":"waste_basket"}},"type":"Feature"},
	{"geometry":{"coordinates":[14.44723,53.924765],"type":"Point"},"properties":{"osm_id":"6260621234","tag":{"amenity":"waste_basket"}},"type":"Feature"},
	{"geometry":{"coordinates":[14.447498,53.924716],"type":"Point"},"properties":{"osm_id":"6260621235","tag":{"amenity":"waste_basket"}},"type":"Feature"},
	{"geometry":{"coordinates":[14.447402,53.925033],"type":"Point"},"properties":{"osm_id":"6260621236","tag":{"amenity":"waste_basket"}},"type":"Feature"},
	{"geometry":{"coordinates":[14.447688,53.924976],"type":"Point"},"properties":{"osm_id":"6260621239","tag":{"amenity":"waste_basket","mapillary":"nhq2b2rfnMEatsolE0VJ7w"}},"type":"Feature"},
	{"geometry":{"coordinates":[14.474954,53.933098],"type":"Point"},"properties":{"osm_id":"7707206427","tag":{"amenity":"recycling","opening_hours":"24/7","recycling:glass":"yes","recycling:glass_bottles":"yes","recycling:metal":"yes","recycling:organic":"yes","recycling:plastic":"yes","recycling:waste":"yes","recycling_type":"container","wheelchair":"yes"}},"type":"Feature"},
	{"geometry":{"coordinates":[14.475382,53.933491],"type":"Point"},"properties":{"osm_id":"7707214432","tag":{"amenity":"waste_basket","material":"wood","waste":"trash"}},"type":"Feature"}
]
}
