{
"type": "FeatureCollection",
"features": [
	{"geometry":{"coordinates":[14.493506,53.447357],"type":"Point"},"properties":{"osm_id":"298119095","tag":{"amenity":"recycling"}},"type":"Feature"},
	{"geometry":{"coordinates":[14.501718,53.450277],"type":"Point"},"properties":{"osm_id":"298119116","tag":{"amenity":"recycling","location":"overground","recycling_type":"container"}},"type":"Feature"},
	{"geometry":{"coordinates":[14.4452,53.475521],"type":"Point"},"properties":{"osm_id":"410349730","tag":{"amenity":"recycling"}},"type":"Feature"},
	{"geometry":{"coordinates":[14.451269,53.475551],"type":"Point"},"properties":{"osm_id":"410349731","tag":{"amenity":"recycling"}},"type":"Feature"},
	{"geometry":{"coordinates":[14.458816,53.45666],"type":"Point"},"properties":{"osm_id":"410370685","tag":{"amenity":"recycling"}},"type":"Feature"},
	{"geometry":{"coordinates":[14.46965,53.443305],"type":"Point"},"properties":{"osm_id":"497121724","tag":{"amenity":"recycling"}},"type":"Feature"},
	{"geometry":{"coordinates":[14.467345,53.438102],"type":"Point"},"properties":{"osm_id":"497121867","tag":{"amenity":"recycling"}},"type":"Feature"},
	{"geometry":{"coordinates":[14.468876,53.43855],"type":"Point"},"properties":{"osm_id":"497121868","tag":{"amenity":"recycling"}},"type":"Feature"},
	{"geometry":{"coordinates":[14.497367,53.455247],"type":"Point"},"properties":{"osm_id":"545001371","tag":{"amenity":"recycling","location":"overground","recycling_type":"container"}},"type":"Feature"},
	{"geometry":{"coordinates":[14.487064,53.452647],"type":"Point"},"properties":{"osm_id":"702984803","tag":{"amenity":"recycling"}},"type":"Feature"},
	{"geometry":{"coordinates":[14.49694,53.448798],"type":"Point"},"properties":{"osm_id":"702994159","tag":{"amenity":"recycling","location":"overground","recycling_type":"container"}},"type":"Feature"},
	{"geometry":{"coordinates":[14.496564,53.449917],"type":"Point"},"properties":{"osm_id":"702994160","tag":{"amenity":"recycling","location":"overground","recycling_type":"container"}},"type":"Feature"},
	{"geometry":{"coordinates":[14.500103,53.449092],"type":"Point"},"properties":{"osm_id":"702994164","tag":{"amenity":"recycling","location":"overground","recycling_type":"container"}},"type":"Feature"},
	{"geometry":{"coordinates":[14.499897,53.450331],"type":"Point"},"properties":{"osm_id":"702994168","tag":{"amenity":"recycling","location":"overground","recycling_type":"container"}},"type":"Feature"},
	{"geometry":{"coordinates":[14.500955,53.466491],"type":"Point"},"properties":{"osm_id":"757991714","tag":{"amenity":"waste_basket"}},"type":"Feature"},
	{"geometry":{"coordinates":[14.464166,53.455937],"type":"Point"},"properties":{"osm_id":"1744122549","tag":{"amenity":"recycling"}},"type":"Feature"},
	{"geometry":{"coordinates":[14.488805,53.453168],"type":"Point"},"properties":{"osm_id":"1744172396","tag":{"amenity":"waste_basket"}},"type":"Feature"},
	{"geometry":{"coordinates":[14.489926,53.44834],"type":"Point"},"properties":{"osm_id":"1744185085","tag":{"amenity":"recycling"}},"type":"Feature"},
	{"geometry":{"coordinates":[14.501856,53.452659],"type":"Point"},"properties":{"osm_id":"1744291066","tag":{"amenity":"recycling"}},"type":"Feature"},
	{"geometry":{"coordinates":[14.499118,53.437323],"type":"Point"},"properties":{"osm_id":"2041055915","tag":{"amenity":"recycling","recycling:glass":"yes","recycling:paper":"yes","recycling:plastic":"yes","recycling_type":"container"}},"type":"Feature"},
	{"geometry":{"coordinates":[14.496359,53.437694],"type":"Point"},"properties":{"osm_id":"2041791213","tag":{"amenity":"recycling","recycling:clothes":"yes","recycling:glass":"yes","recycling:paper":"yes","recycling:plastic":"yes","recycling_type":"container"}},"type":"Feature"},
	{"geometry":{"coordinates":[14.488173,53.479796],"type":"Point"},"properties":{"osm_id":"2275719047","tag":{"amenity":"waste_basket"}},"type":"Feature"},
	{"geometry":{"coordinates":[14.500721,53.446355],"type":"Point"},"properties":{"osm_id":"4293849845","tag":{"amenity":"recycling"}},"type":"Feature"},
	{"geometry":{"coordinates":[14.501147,53.447427],"type":"Point"},"properties":{"osm_id":"4293849849","tag":{"amenity":"recycling"}},"type":"Feature"},
	{"geometry":{"coordinates":[14.501005,53.44741],"type":"Point"},"properties":{"osm_id":"4293849850","tag":{"amenity":"recycling"}},"type":"Feature"},
	{"geometry":{"coordinates":[14.501871,53.450534],"type":"Point"},"properties":{"osm_id":"4293849860","tag":{"amenity":"recycling","location":"overground","recycling_type":"container"}},"type":"Feature"},
	{"geometry":{"coordinates":[14.497833,53.480401],"type":"Point"},"properties":{"osm_id":"4760705715","tag":{"amenity":"waste_basket"}},"type":"Feature"},
	{"geometry":{"coordinates":[14.494875,53.480115],"type":"Point"},"properties":{"osm_id":"4760705717","tag":{"amenity":"waste_basket"}},"type":"Feature"},
	{"geometry":{"coordinates":[14.488785,53.483411],"type":"Point"},"properties":{"osm_id":"4810659480","tag":{"amenity":"waste_basket"}},"type":"Feature"},
	{"geometry":{"coordinates":[14.491954,53.479378],"type":"Point"},"properties":{"osm_id":"5214501872","tag":{"amenity":"waste_basket"}},"type":"Feature"},
	{"geometry":{"coordinates":[14.478499,53.478846],"type":"Point"},"properties":{"osm_id":"5504018407","tag":{"amenity":"waste_disposal"}},"type":"Feature"},
	{"geometry":{"coordinates":[14.471105,53.48174],"type":"Point"},"properties":{"osm_id":"5538658230","tag":{"amenity":"waste_basket"}},"type":"Feature"},
	{"geometry":{"coordinates":[14.497297,53.469703],"type":"Point"},"properties":{"osm_id":"5541246942","tag":{"amenity":"waste_disposal"}},"type":"Feature"},
	{"geometry":{"coordinates":[14.47383,53.474896],"type":"Point"},"properties":{"osm_id":"5546450763","tag":{"amenity":"waste_disposal"}},"type":"Feature"},
	{"geometry":{"coordinates":[14.477161,53.473788],"type":"Point"},"properties":{"osm_id":"5546450765","tag":{"amenity":"waste_disposal"}},"type":"Feature"},
	{"geometry":{"coordinates":[14.497478,53.47344],"type":"Point"},"properties":{"osm_id":"5561202965","tag":{"amenity":"waste_disposal"}},"type":"Feature"},
	{"geometry":{"coordinates":[14.498009,53.472938],"type":"Point"},"properties":{"osm_id":"5561202966","tag":{"amenity":"waste_disposal"}},"type":"Feature"},
	{"geometry":{"coordinates":[14.497742,53.46143],"type":"Point"},"properties":{"osm_id":"6000043966","tag":{"amenity":"waste_basket"}},"type":"Feature"},
	{"geometry":{"coordinates":[14.492972,53.46498],"type":"Point"},"properties":{"osm_id":"6000043967","tag":{"amenity":"waste_basket"}},"type":"Feature"},
	{"geometry":{"coordinates":[14.490455,53.466913],"type":"Point"},"properties":{"osm_id":"6000043970","tag":{"amenity":"waste_basket"}},"type":"Feature"},
	{"geometry":{"coordinates":[14.484051,53.485244],"type":"Point"},"properties":{"osm_id":"6003311224","tag":{"amenity":"waste_basket"}},"type":"Feature"},
	{"geometry":{"coordinates":[14.475104,53.48052],"type":"Point"},"properties":{"osm_id":"6022475712","tag":{"amenity":"waste_basket"}},"type":"Feature"},
	{"geometry":{"coordinates":[14.473964,53.481862],"type":"Point"},"properties":{"osm_id":"6022475714","tag":{"amenity":"waste_basket"}},"type":"Feature"},
	{"geometry":{"coordinates":[14.468161,53.482212],"type":"Point"},"properties":{"osm_id":"6022475717","tag":{"amenity":"waste_basket"}},"type":"Feature"},
	{"geometry":{"coordinates":[14.469478,53.481607],"type":"Point"},"properties":{"osm_id":"6022475718","tag":{"amenity":"waste_basket"}},"type":"Feature"},
	{"geometry":{"coordinates":[14.466441,53.482134],"type":"Point"},"properties":{"osm_id":"6022475720","tag":{"amenity":"waste_basket"}},"type":"Feature"},
	{"geometry":{"coordinates":[14.463228,53.48179],"type":"Point"},"properties":{"osm_id":"6022475721","tag":{"amenity":"waste_basket"}},"type":"Feature"},
	{"geometry":{"coordinates":[14.462163,53.479147],"type":"Point"},"properties":{"osm_id":"6022475722","tag":{"amenity":"waste_basket"}},"type":"Feature"},
	{"geometry":{"coordinates":[14.479321,53.471942],"type":"Point"},"properties":{"osm_id":"6022769242","tag":{"amenity":"waste_basket"}},"type":"Feature"},
	{"geometry":{"coordinates":[14.481284,53.473756],"type":"Point"},"properties":{"osm_id":"6177239486","tag":{"amenity":"waste_basket"}},"type":"Feature"},
	{"geometry":{"coordinates":[14.485167,53.477037],"type":"Point"},"properties":{"osm_id":"6188040832","tag":{"amenity":"waste_basket"}},"type":"Feature"},
	{"geometry":{"coordinates":[14.485542,53.474115],"type":"Point"},"properties":{"osm_id":"6188040835","tag":{"amenity":"waste_basket"}},"type":"Feature"},
	{"geometry":{"coordinates":[14.482845,53.474088],"type":"Point"},"properties":{"osm_id":"6188040845","tag":{"amenity":"waste_basket"}},"type":"Feature"},
	{"geometry":{"coordinates":[14.48203,53.474046],"type":"Point"},"properties":{"osm_id":"6188040846","tag":{"amenity":"waste_basket"}},"type":"Feature"},
	{"geometry":{"coordinates":[14.480987,53.474487],"type":"Point"},"properties":{"osm_id":"6188040847","tag":{"amenity":"waste_basket"}},"type":"Feature"},
	{"geometry":{"coordinates":[14.478169,53.476411],"type":"Point"},"properties":{"osm_id":"6188040854","tag":{"amenity":"waste_basket"}},"type":"Feature"},
	{"geometry":{"coordinates":[14.478223,53.479887],"type":"Point"},"properties":{"osm_id":"6188040856","tag":{"amenity":"waste_basket"}},"type":"Feature"},
	{"geometry":{"coordinates":[14.478026,53.479972],"type":"Point"},"properties":{"osm_id":"6188040857","tag":{"amenity":"waste_basket"}},"type":"Feature"},
	{"geometry":{"coordinates":[14.475795,53.480192],"type":"Point"},"properties":{"osm_id":"6188040858","tag":{"amenity":"waste_basket"}},"type":"Feature"},
	{"geometry":{"coordinates":[14.488494,53.475835],"type":"Point"},"properties":{"osm_id":"6223649170","tag":{"amenity":"waste_basket"}},"type":"Feature"},
	{"geometry":{"coordinates":[14.488517,53.476714],"type":"Point"},"properties":{"osm_id":"6223649173","tag":{"amenity":"waste_basket"}},"type":"Feature"},
	{"geometry":{"coordinates":[14.491653,53.476619],"type":"Point"},"properties":{"osm_id":"6223649177","tag":{"amenity":"waste_basket"}},"type":"Feature"},
	{"geometry":{"coordinates":[14.489698,53.450468],"type":"Point"},"properties":{"osm_id":"6326300755","tag":{"amenity":"waste_basket"}},"type":"Feature"},
	{"geometry":{"coordinates":[14.490098,53.451865],"type":"Point"},"properties":{"osm_id":"6326300773","tag":{"amenity":"recycling","recycling:clothes":"yes","recycling:glass":"yes","recycling:paper":"yes","recycling:plastic":"yes","recycling_type":"container"}},"type":"Feature"},
	{"geometry":{"coordinates":[14.489817,53.453159],"type":"Point"},"properties":{"osm_id":"6326300993","tag":{"amenity":"waste_basket"}},"type":"Feature"},
	{"geometry":{"coordinates":[14.48994,53.453286],"type":"Point"},"properties":{"osm_id":"6326300994","tag":{"amenity":"recycling","recycling:glass":"yes","recycling:paper":"yes","recycling:plastic":"yes","recycling_type":"container"}},"type":"Feature"},
	{"geometry":{"coordinates":[14.49481,53.459524],"type":"Point"},"properties":{"osm_id":"6327764336","tag":{"amenity":"waste_basket"}},"type":"Feature"},
	{"geometry":{"coordinates":[14.491158,53.457785],"type":"Point"},"properties":{"osm_id":"6327764352","tag":{"amenity":"waste_basket"}},"type":"Feature"},
	{"geometry":{"coordinates":[14.489772,53.456318],"type":"Point"},"properties":{"osm_id":"6327764356","tag":{"amenity":"recycling","recycling:clothes":"yes","recycling:glass":"yes","recycling:paper":"yes","recycling:plastic":"yes","recycling_type":"container"}},"type":"Feature"},
	{"geometry":{"coordinates":[14.489787,53.453624],"type":"Point"},"properties":{"osm_id":"6329782857","tag":{"amenity":"waste_basket"}},"type":"Feature"},
	{"geometry":{"coordinates":[14.489753,53.453895],"type":"Point"},"properties":{"osm_id":"6329782862","tag":{"amenity":"waste_basket"}},"type":"Feature"},
	{"geometry":{"coordinates":[14.484524,53.477688],"type":"Point"},"properties":{"osm_id":"6343125288","tag":{"amenity":"recycling","recycling:clothes":"yes","recycling_type":"container"}},"type":"Feature"},
	{"geometry":{"coordinates":[14.475046,53.482814],"type":"Point"},"properties":{"osm_id":"6546048345","tag":{"amenity":"waste_basket"}},"type":"Feature"},
	{"geometry":{"coordinates":[14.480731,53.480401],"type":"Point"},"properties":{"osm_id":"6546050889","tag":{"amenity":"recycling","recycling_type":"container"}},"type":"Feature"},
	{"geometry":{"coordinates":[14.484196,53.477012],"type":"Point"},"properties":{"name":"pojemnik na odzie\u00c5\u00bc","osm_id":"7447363859","tag":{"amenity":"recycling","collection_times":"24/7","recycling:clothes":"yes","recycling_type":"container"}},"type":"Feature"},
	{"geometry":{"coordinates":[14.494721,53.469057],"type":"Point"},"properties":{"osm_id":"7647454366","tag":{"amenity":"waste_basket"}},"type":"Feature"},
	{"geometry":{"coordinates":[14.43887,53.479638],"type":"Point"},"properties":{"osm_id":"7747333469","tag":{"amenity":"waste_basket"}},"type":"Feature"},
	{"geometry":{"coordinates":[14.501717,53.481625],"type":"Point"},"properties":{"osm_id":"7747363593","tag":{"amenity":"waste_basket"}},"type":"Feature"},
	{"geometry":{"coordinates":[14.501907,53.481298],"type":"Point"},"properties":{"osm_id":"7747363594","tag":{"amenity":"waste_basket"}},"type":"Feature"}
]
}
