{
"type": "FeatureCollection",
"features": [
	{"geometry":{"coordinates":[14.474557,51.003752],"type":"Point"},"properties":{"osm_id":"2398666509","tag":{"amenity":"recycling","recycling:glass":"yes","recycling:paper":"yes","recycling:plastic":"yes","recycling_type":"container"}},"type":"Feature"},
	{"geometry":{"coordinates":[14.429617,51.003027],"type":"Point"},"properties":{"osm_id":"2398680686","tag":{"amenity":"recycling"}},"type":"Feature"},
	{"geometry":{"coordinates":[14.453277,51.001007],"type":"Point"},"properties":{"osm_id":"2810685069","tag":{"amenity":"recycling","recycling:cans":"yes","recycling:glass":"yes"}},"type":"Feature"},
	{"geometry":{"coordinates":[14.443646,51.002209],"type":"Point"},"properties":{"osm_id":"2810686146","tag":{"amenity":"recycling","location":"overground","recycling:glass":"yes","recycling:paper":"yes","recycling_type":"container"}},"type":"Feature"},
	{"geometry":{"coordinates":[14.45221,51.002637],"type":"Point"},"properties":{"osm_id":"2810689273","tag":{"amenity":"recycling","recycling:glass":"yes","recycling:paper":"yes","recycling:plastic":"yes","recycling_type":"container"}},"type":"Feature"},
	{"geometry":{"coordinates":[14.453904,51.005244],"type":"Point"},"properties":{"osm_id":"2810689506","tag":{"amenity":"recycling","recycling:glass":"yes","recycling:paper":"yes","recycling_type":"container"}},"type":"Feature"},
	{"geometry":{"coordinates":[14.465389,51.00527],"type":"Point"},"properties":{"osm_id":"7566441104","tag":{"amenity":"recycling","recycling:glass":"yes","recycling:paper":"yes","recycling:plastic":"yes","recycling_type":"container"}},"type":"Feature"},
	{"geometry":{"coordinates":[14.456344,51.005318],"type":"Point"},"properties":{"osm_id":"9124768115","tag":{"amenity":"waste_basket"}},"type":"Feature"},
	{"geometry":{"coordinates":[14.455474,51.005209],"type":"Point"},"properties":{"osm_id":"9124776202","tag":{"amenity":"waste_basket"}},"type":"Feature"},
	{"geometry":{"coordinates":[14.457745,51.004462],"type":"Point"},"properties":{"osm_id":"9124793915","tag":{"amenity":"waste_disposal"}},"type":"Feature"},
	{"geometry":{"coordinates":[14.458588,51.005839],"type":"Point"},"properties":{"osm_id":"9124853674","tag":{"amenity":"waste_disposal"}},"type":"Feature"},
	{"geometry":{"coordinates":[14.453206,51.003566],"type":"Point"},"properties":{"osm_id":"9124863404","tag":{"amenity":"waste_basket"}},"type":"Feature"},
	{"geometry":{"coordinates":[14.458512,51.004634],"type":"Point"},"properties":{"osm_id":"9124879948","tag":{"amenity":"waste_basket"}},"type":"Feature"},
	{"geometry":{"coordinates":[14.456322,51.00399],"type":"Point"},"properties":{"osm_id":"9124882597","tag":{"amenity":"waste_basket"}},"type":"Feature"},
	{"geometry":{"coordinates":[14.451957,51.004258],"type":"Point"},"properties":{"osm_id":"9124882598","tag":{"amenity":"waste_basket"}},"type":"Feature"},
	{"geometry":{"coordinates":[14.465605,51.005174],"type":"Point"},"properties":{"osm_id":"9124882599","tag":{"amenity":"waste_basket"}},"type":"Feature"},
	{"geometry":{"coordinates":[14.456414,51.004834],"type":"Point"},"properties":{"osm_id":"9124883747","tag":{"amenity":"waste_basket"}},"type":"Feature"},
	{"geometry":{"coordinates":[14.456071,51.005109],"type":"Point"},"properties":{"osm_id":"9124886524","tag":{"amenity":"waste_basket"}},"type":"Feature"},
	{"geometry":{"coordinates":[14.453225,51.003534],"type":"Point"},"properties":{"osm_id":"9124886525","tag":{"amenity":"waste_basket"}},"type":"Feature"}
]
}
