{
"type": "FeatureCollection",
"features": [
	{"geometry":{"coordinates":[14.49711,50.352864],"type":"Point"},"properties":{"osm_id":"1754093863","tag":{"amenity":"recycling","recycling:glass":"yes","recycling:paper":"yes","recycling_type":"container"}},"type":"Feature"},
	{"geometry":{"coordinates":[14.455854,50.361453],"type":"Point"},"properties":{"osm_id":"2254574325","tag":{"amenity":"waste_basket"}},"type":"Feature"},
	{"geometry":{"coordinates":[14.48077,50.345744],"type":"Point"},"properties":{"osm_id":"3233676228","tag":{"amenity":"waste_basket"}},"type":"Feature"},
	{"geometry":{"coordinates":[14.480099,50.34588],"type":"Point"},"properties":{"osm_id":"3233676229","tag":{"amenity":"waste_basket"}},"type":"Feature"},
	{"geometry":{"coordinates":[14.479469,50.346188],"type":"Point"},"properties":{"osm_id":"3233676236","tag":{"amenity":"waste_basket"}},"type":"Feature"},
	{"geometry":{"coordinates":[14.481354,50.346915],"type":"Point"},"properties":{"osm_id":"3233676248","tag":{"amenity":"recycling","recycling:electric":"yes","recycling:glass":"yes","recycling:paper":"yes","recycling_type":"container"}},"type":"Feature"},
	{"geometry":{"coordinates":[14.483452,50.34819],"type":"Point"},"properties":{"osm_id":"3233676252","tag":{"amenity":"waste_basket"}},"type":"Feature"},
	{"geometry":{"coordinates":[14.484138,50.349013],"type":"Point"},"properties":{"osm_id":"3233676254","tag":{"amenity":"waste_basket"}},"type":"Feature"},
	{"geometry":{"coordinates":[14.48833,50.349319],"type":"Point"},"properties":{"osm_id":"3233676258","tag":{"amenity":"waste_basket"}},"type":"Feature"},
	{"geometry":{"coordinates":[14.484268,50.349512],"type":"Point"},"properties":{"osm_id":"3233676764","tag":{"amenity":"waste_basket"}},"type":"Feature"},
	{"geometry":{"coordinates":[14.487602,50.350167],"type":"Point"},"properties":{"osm_id":"3233676771","tag":{"amenity":"waste_basket"}},"type":"Feature"},
	{"geometry":{"coordinates":[14.48498,50.35058],"type":"Point"},"properties":{"osm_id":"3233676774","tag":{"amenity":"waste_basket"}},"type":"Feature"},
	{"geometry":{"coordinates":[14.486078,50.35099],"type":"Point"},"properties":{"osm_id":"3233676776","tag":{"amenity":"waste_basket"}},"type":"Feature"},
	{"geometry":{"coordinates":[14.488411,50.351103],"type":"Point"},"properties":{"osm_id":"3233676778","tag":{"amenity":"waste_basket"}},"type":"Feature"},
	{"geometry":{"coordinates":[14.48839,50.351167],"type":"Point"},"properties":{"osm_id":"3233676780","tag":{"amenity":"waste_basket"}},"type":"Feature"},
	{"geometry":{"coordinates":[14.488545,50.351526],"type":"Point"},"properties":{"osm_id":"3233676784","tag":{"amenity":"waste_basket"}},"type":"Feature"},
	{"geometry":{"coordinates":[14.489421,50.351613],"type":"Point"},"properties":{"osm_id":"3233676788","tag":{"amenity":"waste_basket"}},"type":"Feature"},
	{"geometry":{"coordinates":[14.487234,50.351877],"type":"Point"},"properties":{"osm_id":"3233676795","tag":{"amenity":"waste_basket"}},"type":"Feature"},
	{"geometry":{"coordinates":[14.487262,50.352276],"type":"Point"},"properties":{"osm_id":"3233676805","tag":{"amenity":"waste_basket"}},"type":"Feature"},
	{"geometry":{"coordinates":[14.473176,50.350367],"type":"Point"},"properties":{"osm_id":"3234913278","tag":{"amenity":"waste_basket"}},"type":"Feature"},
	{"geometry":{"coordinates":[14.473078,50.350522],"type":"Point"},"properties":{"osm_id":"3234913283","tag":{"amenity":"waste_basket"}},"type":"Feature"},
	{"geometry":{"coordinates":[14.472023,50.350561],"type":"Point"},"properties":{"osm_id":"3234913286","tag":{"amenity":"waste_basket"}},"type":"Feature"},
	{"geometry":{"coordinates":[14.472902,50.350751],"type":"Point"},"properties":{"osm_id":"3234913288","tag":{"amenity":"waste_basket"}},"type":"Feature"},
	{"geometry":{"coordinates":[14.472885,50.350771],"type":"Point"},"properties":{"osm_id":"3234913295","tag":{"amenity":"waste_basket"}},"type":"Feature"},
	{"geometry":{"coordinates":[14.472804,50.350874],"type":"Point"},"properties":{"osm_id":"3234913301","tag":{"amenity":"waste_basket"}},"type":"Feature"},
	{"geometry":{"coordinates":[14.483767,50.350876],"type":"Point"},"properties":{"osm_id":"3234913302","tag":{"amenity":"waste_basket"}},"type":"Feature"},
	{"geometry":{"coordinates":[14.472745,50.350951],"type":"Point"},"properties":{"osm_id":"3234913308","tag":{"amenity":"waste_basket"}},"type":"Feature"},
	{"geometry":{"coordinates":[14.47258,50.351172],"type":"Point"},"properties":{"osm_id":"3234913315","tag":{"amenity":"waste_basket"}},"type":"Feature"},
	{"geometry":{"coordinates":[14.472403,50.351271],"type":"Point"},"properties":{"osm_id":"3234913316","tag":{"amenity":"waste_basket"}},"type":"Feature"},
	{"geometry":{"coordinates":[14.475668,50.351464],"type":"Point"},"properties":{"osm_id":"3234913322","tag":{"amenity":"waste_basket"}},"type":"Feature"},
	{"geometry":{"coordinates":[14.478848,50.351541],"type":"Point"},"properties":{"osm_id":"3234913323","tag":{"amenity":"waste_basket"}},"type":"Feature"},
	{"geometry":{"coordinates":[14.475058,50.351566],"type":"Point"},"properties":{"osm_id":"3234913326","tag":{"amenity":"waste_basket"}},"type":"Feature"},
	{"geometry":{"coordinates":[14.474846,50.351606],"type":"Point"},"properties":{"osm_id":"3234913330","tag":{"amenity":"waste_basket"}},"type":"Feature"},
	{"geometry":{"coordinates":[14.472351,50.351662],"type":"Point"},"properties":{"osm_id":"3234913336","tag":{"amenity":"waste_basket"}},"type":"Feature"},
	{"geometry":{"coordinates":[14.472068,50.351797],"type":"Point"},"properties":{"osm_id":"3234913342","tag":{"amenity":"waste_basket"}},"type":"Feature"},
	{"geometry":{"coordinates":[14.475289,50.351986],"type":"Point"},"properties":{"osm_id":"3234913344","tag":{"amenity":"waste_basket"}},"type":"Feature"},
	{"geometry":{"coordinates":[14.473927,50.352001],"type":"Point"},"properties":{"osm_id":"3234913345","tag":{"amenity":"waste_basket"}},"type":"Feature"},
	{"geometry":{"coordinates":[14.472471,50.352021],"type":"Point"},"properties":{"osm_id":"3234913346","tag":{"amenity":"waste_basket"}},"type":"Feature"},
	{"geometry":{"coordinates":[14.472147,50.352036],"type":"Point"},"properties":{"osm_id":"3234913348","tag":{"amenity":"waste_basket"}},"type":"Feature"},
	{"geometry":{"coordinates":[14.47769,50.352117],"type":"Point"},"properties":{"osm_id":"3234913352","tag":{"amenity":"waste_basket"}},"type":"Feature"},
	{"geometry":{"coordinates":[14.473931,50.352256],"type":"Point"},"properties":{"osm_id":"3234913356","tag":{"amenity":"waste_basket"}},"type":"Feature"},
	{"geometry":{"coordinates":[14.475009,50.35232],"type":"Point"},"properties":{"osm_id":"3234913358","tag":{"amenity":"waste_basket"}},"type":"Feature"},
	{"geometry":{"coordinates":[14.472872,50.352348],"type":"Point"},"properties":{"osm_id":"3234913359","tag":{"amenity":"waste_basket"}},"type":"Feature"},
	{"geometry":{"coordinates":[14.473417,50.352473],"type":"Point"},"properties":{"osm_id":"3234913362","tag":{"amenity":"waste_basket"}},"type":"Feature"},
	{"geometry":{"coordinates":[14.477057,50.352599],"type":"Point"},"properties":{"osm_id":"3234913364","tag":{"amenity":"waste_basket"}},"type":"Feature"},
	{"geometry":{"coordinates":[14.474431,50.35266],"type":"Point"},"properties":{"osm_id":"3234913365","tag":{"amenity":"waste_basket"}},"type":"Feature"},
	{"geometry":{"coordinates":[14.476573,50.352903],"type":"Point"},"properties":{"osm_id":"3234913367","tag":{"amenity":"waste_basket"}},"type":"Feature"},
	{"geometry":{"coordinates":[14.474116,50.352939],"type":"Point"},"properties":{"osm_id":"3234913369","tag":{"amenity":"waste_basket"}},"type":"Feature"},
	{"geometry":{"coordinates":[14.472575,50.353019],"type":"Point"},"properties":{"osm_id":"3234913372","tag":{"amenity":"waste_basket"}},"type":"Feature"},
	{"geometry":{"coordinates":[14.472552,50.353058],"type":"Point"},"properties":{"osm_id":"3234913373","tag":{"amenity":"waste_basket"}},"type":"Feature"},
	{"geometry":{"coordinates":[14.482225,50.35362],"type":"Point"},"properties":{"osm_id":"3234913377","tag":{"amenity":"waste_basket"}},"type":"Feature"},
	{"geometry":{"coordinates":[14.474368,50.353783],"type":"Point"},"properties":{"osm_id":"3234913378","tag":{"amenity":"waste_basket"}},"type":"Feature"},
	{"geometry":{"coordinates":[14.473186,50.353813],"type":"Point"},"properties":{"osm_id":"3234913385","tag":{"amenity":"waste_basket"}},"type":"Feature"},
	{"geometry":{"coordinates":[14.471611,50.357763],"type":"Point"},"properties":{"osm_id":"4872991183","tag":{"amenity":"waste_disposal"}},"type":"Feature"},
	{"geometry":{"coordinates":[14.49209,50.352813],"type":"Point"},"properties":{"osm_id":"6183276300","tag":{"amenity":"recycling","recycling:cans":"yes","recycling:glass":"yes","recycling:paper":"yes","recycling_type":"container"}},"type":"Feature"},
	{"geometry":{"coordinates":[14.475618,50.351281],"type":"Point"},"properties":{"osm_id":"7171781208","tag":{"amenity":"recycling","recycling:glass":"yes","recycling_type":"container"}},"type":"Feature"},
	{"geometry":{"coordinates":[14.475616,50.351293],"type":"Point"},"properties":{"osm_id":"7171781209","tag":{"amenity":"recycling","recycling:paper":"yes","recycling_type":"container"}},"type":"Feature"},
	{"geometry":{"coordinates":[14.47562,50.351268],"type":"Point"},"properties":{"osm_id":"7171781210","tag":{"amenity":"recycling","recycling:plastic":"yes","recycling_type":"container"}},"type":"Feature"},
	{"geometry":{"coordinates":[14.487361,50.355647],"type":"Point"},"properties":{"osm_id":"7171795644","tag":{"amenity":"recycling","operator":"FCC BEC","recycling_type":"centre"}},"type":"Feature"}
]
}
