{
"type": "FeatureCollection",
"features": [
	{"geometry":{"coordinates":[14.479872,50.00717],"type":"Point"},"properties":{"osm_id":"683140632","tag":{"amenity":"recycling","recycling:glass":"yes","recycling:paper":"yes","recycling:plastic":"yes","recycling_type":"container"}},"type":"Feature"},
	{"geometry":{"coordinates":[14.464236,49.993287],"type":"Point"},"properties":{"osm_id":"1419618755","tag":{"amenity":"recycling","recycling_type":"container"}},"type":"Feature"},
	{"geometry":{"coordinates":[14.420363,49.998448],"type":"Point"},"properties":{"osm_id":"1680999038","tag":{"amenity":"recycling","recycling_type":"container"}},"type":"Feature"},
	{"geometry":{"coordinates":[14.4231,50.006565],"type":"Point"},"properties":{"osm_id":"1681000061","tag":{"amenity":"recycling","recycling_type":"container"}},"type":"Feature"},
	{"geometry":{"coordinates":[14.420012,50.007125],"type":"Point"},"properties":{"osm_id":"1681000083","tag":{"amenity":"recycling","recycling_type":"container"}},"type":"Feature"},
	{"geometry":{"coordinates":[14.418634,50.004204],"type":"Point"},"properties":{"name":"kompost","osm_id":"2225106210","tag":{"amenity":"recycling","recycling:green_waste":"yes"}},"type":"Feature"},
	{"geometry":{"coordinates":[14.433541,50.002297],"type":"Point"},"properties":{"osm_id":"2225146043","tag":{"amenity":"recycling","location":"overground","recycling:green_waste":"yes","recycling_type":"container"}},"type":"Feature"},
	{"geometry":{"coordinates":[14.481659,50.004538],"type":"Point"},"properties":{"osm_id":"2802049606","tag":{"amenity":"recycling","recycling_type":"container"}},"type":"Feature"},
	{"geometry":{"coordinates":[14.463453,50.00159],"type":"Point"},"properties":{"osm_id":"2802098245","tag":{"amenity":"recycling","recycling_type":"container"}},"type":"Feature"},
	{"geometry":{"coordinates":[14.463202,50.00084],"type":"Point"},"properties":{"osm_id":"2802098271","tag":{"amenity":"recycling","recycling:waste":"yes","recycling_type":"container"}},"type":"Feature"},
	{"geometry":{"coordinates":[14.464813,50.00596],"type":"Point"},"properties":{"osm_id":"2802099914","tag":{"amenity":"recycling","recycling_type":"container"}},"type":"Feature"},
	{"geometry":{"coordinates":[14.464679,50.001641],"type":"Point"},"properties":{"osm_id":"2802100143","tag":{"amenity":"recycling","recycling_type":"container"}},"type":"Feature"},
	{"geometry":{"coordinates":[14.460753,50.001292],"type":"Point"},"properties":{"osm_id":"2802101574","tag":{"amenity":"recycling","recycling_type":"container"}},"type":"Feature"},
	{"geometry":{"coordinates":[14.461736,50.002027],"type":"Point"},"properties":{"osm_id":"2802102736","tag":{"amenity":"recycling","recycling_type":"container"}},"type":"Feature"},
	{"geometry":{"coordinates":[14.46228,50.002764],"type":"Point"},"properties":{"osm_id":"2802103822","tag":{"amenity":"recycling","recycling_type":"container"}},"type":"Feature"},
	{"geometry":{"coordinates":[14.461821,50.004753],"type":"Point"},"properties":{"osm_id":"2802106094","tag":{"amenity":"recycling","recycling_type":"container"}},"type":"Feature"},
	{"geometry":{"coordinates":[14.462311,50.003727],"type":"Point"},"properties":{"osm_id":"2802107027","tag":{"amenity":"recycling","recycling_type":"container"}},"type":"Feature"},
	{"geometry":{"coordinates":[14.467767,49.996187],"type":"Point"},"properties":{"osm_id":"2802116582","tag":{"amenity":"recycling","recycling_type":"container"}},"type":"Feature"},
	{"geometry":{"coordinates":[14.457814,50.006185],"type":"Point"},"properties":{"osm_id":"2802116800","tag":{"amenity":"recycling","recycling_type":"container"}},"type":"Feature"},
	{"geometry":{"coordinates":[14.453227,50.00569],"type":"Point"},"properties":{"osm_id":"2802119864","tag":{"amenity":"recycling","recycling_type":"container"}},"type":"Feature"},
	{"geometry":{"coordinates":[14.471158,49.995601],"type":"Point"},"properties":{"osm_id":"2802128260","tag":{"amenity":"recycling","recycling_type":"container"}},"type":"Feature"},
	{"geometry":{"coordinates":[14.47066,49.994746],"type":"Point"},"properties":{"osm_id":"2802133886","tag":{"amenity":"recycling","recycling_type":"container"}},"type":"Feature"},
	{"geometry":{"coordinates":[14.467817,49.991107],"type":"Point"},"properties":{"osm_id":"2802134368","tag":{"amenity":"recycling"}},"type":"Feature"},
	{"geometry":{"coordinates":[14.464883,49.991689],"type":"Point"},"properties":{"osm_id":"2802134369","tag":{"amenity":"recycling","recycling_type":"container"}},"type":"Feature"},
	{"geometry":{"coordinates":[14.467029,49.993374],"type":"Point"},"properties":{"osm_id":"2802136462","tag":{"amenity":"recycling","recycling_type":"container"}},"type":"Feature"},
	{"geometry":{"coordinates":[14.46444,49.995114],"type":"Point"},"properties":{"osm_id":"2802138746","tag":{"amenity":"recycling","recycling_type":"container"}},"type":"Feature"},
	{"geometry":{"coordinates":[14.448775,49.988657],"type":"Point"},"properties":{"osm_id":"2802144272","tag":{"amenity":"recycling","recycling_type":"container"}},"type":"Feature"},
	{"geometry":{"coordinates":[14.447812,49.987308],"type":"Point"},"properties":{"osm_id":"2802153158","tag":{"amenity":"recycling","recycling_type":"container"}},"type":"Feature"},
	{"geometry":{"coordinates":[14.444871,49.988567],"type":"Point"},"properties":{"osm_id":"2802154139","tag":{"amenity":"recycling","recycling_type":"container"}},"type":"Feature"},
	{"geometry":{"coordinates":[14.434795,49.994346],"type":"Point"},"properties":{"osm_id":"2802154142","tag":{"amenity":"recycling","recycling_type":"container"}},"type":"Feature"},
	{"geometry":{"coordinates":[14.431887,49.971991],"type":"Point"},"properties":{"osm_id":"2802156135","tag":{"amenity":"recycling","recycling_type":"container"}},"type":"Feature"},
	{"geometry":{"coordinates":[14.431644,49.96932],"type":"Point"},"properties":{"osm_id":"2802156197","tag":{"amenity":"recycling","recycling_type":"container"}},"type":"Feature"},
	{"geometry":{"coordinates":[14.428985,49.969416],"type":"Point"},"properties":{"osm_id":"2802160209","tag":{"amenity":"recycling","recycling_type":"container"}},"type":"Feature"},
	{"geometry":{"coordinates":[14.425178,49.96689],"type":"Point"},"properties":{"osm_id":"2802161323","tag":{"amenity":"recycling","recycling_type":"container"}},"type":"Feature"},
	{"geometry":{"coordinates":[14.423915,49.971266],"type":"Point"},"properties":{"osm_id":"2802162881","tag":{"amenity":"recycling","recycling_type":"container"}},"type":"Feature"},
	{"geometry":{"coordinates":[14.422166,49.972969],"type":"Point"},"properties":{"osm_id":"2802162884","tag":{"amenity":"recycling","recycling_type":"container"}},"type":"Feature"},
	{"geometry":{"coordinates":[14.41476,49.989074],"type":"Point"},"properties":{"osm_id":"2802180197","tag":{"amenity":"recycling","recycling_type":"container"}},"type":"Feature"},
	{"geometry":{"coordinates":[14.415792,49.991877],"type":"Point"},"properties":{"osm_id":"2802180659","tag":{"amenity":"recycling","recycling_type":"container"}},"type":"Feature"},
	{"geometry":{"coordinates":[14.453417,50.006723],"type":"Point"},"properties":{"osm_id":"2852508683","tag":{"amenity":"recycling","recycling_type":"container"}},"type":"Feature"},
	{"geometry":{"coordinates":[14.451695,50.006417],"type":"Point"},"properties":{"osm_id":"2852508684","tag":{"amenity":"recycling","recycling_type":"container"}},"type":"Feature"},
	{"geometry":{"coordinates":[14.42668,50.007471],"type":"Point"},"properties":{"osm_id":"2852511315","tag":{"amenity":"recycling","recycling_type":"container"}},"type":"Feature"},
	{"geometry":{"coordinates":[14.426051,50.007576],"type":"Point"},"properties":{"osm_id":"2852511316","tag":{"amenity":"recycling","recycling_type":"container"}},"type":"Feature"},
	{"geometry":{"coordinates":[14.433239,50.007564],"type":"Point"},"properties":{"osm_id":"2852511319","tag":{"amenity":"recycling","recycling_type":"container"}},"type":"Feature"},
	{"geometry":{"coordinates":[14.433545,50.006768],"type":"Point"},"properties":{"osm_id":"2852511320","tag":{"amenity":"recycling","recycling_type":"container"}},"type":"Feature"},
	{"geometry":{"coordinates":[14.43261,50.006423],"type":"Point"},"properties":{"osm_id":"2852511321","tag":{"amenity":"recycling","recycling_type":"container"}},"type":"Feature"},
	{"geometry":{"coordinates":[14.429741,50.00685],"type":"Point"},"properties":{"osm_id":"2852511322","tag":{"amenity":"recycling","recycling_type":"container"}},"type":"Feature"},
	{"geometry":{"coordinates":[14.43547,50.007702],"type":"Point"},"properties":{"osm_id":"2852511323","tag":{"amenity":"recycling","recycling_type":"container"}},"type":"Feature"},
	{"geometry":{"coordinates":[14.435733,50.00722],"type":"Point"},"properties":{"osm_id":"2852523676","tag":{"amenity":"recycling","recycling_type":"container"}},"type":"Feature"},
	{"geometry":{"coordinates":[14.428868,50.006293],"type":"Point"},"properties":{"osm_id":"2852523678","tag":{"amenity":"recycling","recycling_type":"container"}},"type":"Feature"},
	{"geometry":{"coordinates":[14.420179,50.005339],"type":"Point"},"properties":{"osm_id":"2852523679","tag":{"amenity":"recycling","recycling_type":"container"}},"type":"Feature"},
	{"geometry":{"coordinates":[14.420658,50.002308],"type":"Point"},"properties":{"osm_id":"2852523680","tag":{"amenity":"recycling","recycling_type":"container"}},"type":"Feature"},
	{"geometry":{"coordinates":[14.421267,50.001432],"type":"Point"},"properties":{"osm_id":"2852523681","tag":{"amenity":"recycling","recycling_type":"container"}},"type":"Feature"},
	{"geometry":{"coordinates":[14.421749,49.999821],"type":"Point"},"properties":{"osm_id":"2852523682","tag":{"amenity":"recycling","recycling_type":"container"}},"type":"Feature"},
	{"geometry":{"coordinates":[14.417636,49.998716],"type":"Point"},"properties":{"osm_id":"2852523683","tag":{"amenity":"recycling","recycling_type":"container"}},"type":"Feature"},
	{"geometry":{"coordinates":[14.422768,49.999176],"type":"Point"},"properties":{"osm_id":"2852523684","tag":{"amenity":"recycling","recycling_type":"container"}},"type":"Feature"},
	{"geometry":{"coordinates":[14.424442,49.999607],"type":"Point"},"properties":{"osm_id":"2852523685","tag":{"amenity":"recycling","recycling_type":"container"}},"type":"Feature"},
	{"geometry":{"coordinates":[14.424563,50.000168],"type":"Point"},"properties":{"osm_id":"2852523686","tag":{"amenity":"recycling","recycling_type":"container"}},"type":"Feature"},
	{"geometry":{"coordinates":[14.425823,50.000419],"type":"Point"},"properties":{"osm_id":"2852523687","tag":{"amenity":"recycling","recycling_type":"container"}},"type":"Feature"},
	{"geometry":{"coordinates":[14.427194,50.000606],"type":"Point"},"properties":{"osm_id":"2852523688","tag":{"amenity":"recycling","location":"overground","recycling_type":"container"}},"type":"Feature"},
	{"geometry":{"coordinates":[14.428777,50.001058],"type":"Point"},"properties":{"osm_id":"2852523689","tag":{"amenity":"recycling","location":"overground","recycling:glass":"yes","recycling:others":"yes","recycling:paper":"yes","recycling:plastic":"yes","recycling:tetrapak":"yes","recycling_type":"container"}},"type":"Feature"},
	{"geometry":{"coordinates":[14.429467,50.001008],"type":"Point"},"properties":{"osm_id":"2852523690","tag":{"amenity":"recycling","location":"overground","recycling_type":"container"}},"type":"Feature"},
	{"geometry":{"coordinates":[14.430803,50.000304],"type":"Point"},"properties":{"osm_id":"2852523691","tag":{"amenity":"recycling","location":"overground","recycling_type":"container"}},"type":"Feature"},
	{"geometry":{"coordinates":[14.431803,50.000334],"type":"Point"},"properties":{"osm_id":"2852523692","tag":{"amenity":"recycling","location":"overground","recycling_type":"container"}},"type":"Feature"},
	{"geometry":{"coordinates":[14.430959,50.002172],"type":"Point"},"properties":{"osm_id":"2852523693","tag":{"amenity":"recycling","location":"overground","recycling_type":"container"}},"type":"Feature"},
	{"geometry":{"coordinates":[14.427816,50.002224],"type":"Point"},"properties":{"osm_id":"2852523694","tag":{"amenity":"recycling","location":"overground","recycling_type":"container"}},"type":"Feature"},
	{"geometry":{"coordinates":[14.428992,50.002182],"type":"Point"},"properties":{"osm_id":"2852523695","tag":{"amenity":"recycling","location":"overground","recycling_type":"container"}},"type":"Feature"},
	{"geometry":{"coordinates":[14.429989,50.002123],"type":"Point"},"properties":{"osm_id":"2852523696","tag":{"amenity":"recycling","location":"overground","recycling_type":"container"}},"type":"Feature"},
	{"geometry":{"coordinates":[14.426562,50.002069],"type":"Point"},"properties":{"osm_id":"2852523697","tag":{"amenity":"recycling","recycling_type":"container"}},"type":"Feature"},
	{"geometry":{"coordinates":[14.427123,49.997386],"type":"Point"},"properties":{"osm_id":"2852523698","tag":{"amenity":"recycling","recycling_type":"container"}},"type":"Feature"},
	{"geometry":{"coordinates":[14.424224,49.996697],"type":"Point"},"properties":{"osm_id":"2852523699","tag":{"amenity":"recycling","recycling_type":"container"}},"type":"Feature"},
	{"geometry":{"coordinates":[14.433144,49.993517],"type":"Point"},"properties":{"osm_id":"2852523700","tag":{"amenity":"recycling","recycling_type":"container"}},"type":"Feature"},
	{"geometry":{"coordinates":[14.416529,49.997939],"type":"Point"},"properties":{"osm_id":"2852531705","tag":{"amenity":"recycling","recycling_type":"container"}},"type":"Feature"},
	{"geometry":{"coordinates":[14.415988,49.99972],"type":"Point"},"properties":{"osm_id":"2852531706","tag":{"amenity":"recycling","recycling_type":"container"}},"type":"Feature"},
	{"geometry":{"coordinates":[14.416051,50.00199],"type":"Point"},"properties":{"osm_id":"2852531716","tag":{"amenity":"recycling","recycling_type":"container"}},"type":"Feature"},
	{"geometry":{"coordinates":[14.415636,50.006797],"type":"Point"},"properties":{"osm_id":"2852539269","tag":{"amenity":"recycling","recycling_type":"container"}},"type":"Feature"},
	{"geometry":{"coordinates":[14.463992,50.003872],"type":"Point"},"properties":{"osm_id":"2885010785","tag":{"amenity":"recycling","recycling_type":"container"}},"type":"Feature"},
	{"geometry":{"coordinates":[14.454798,49.962131],"type":"Point"},"properties":{"osm_id":"4402479588","tag":{"amenity":"recycling","recycling_type":"container"}},"type":"Feature"},
	{"geometry":{"coordinates":[14.429147,49.957071],"type":"Point"},"properties":{"osm_id":"4729213133","tag":{"amenity":"recycling","recycling:clothes":"yes","recycling:electrical_appliances":"yes","recycling:glass":"yes","recycling:paper":"yes","recycling:plastic":"yes","recycling_type":"container"}},"type":"Feature"},
	{"geometry":{"coordinates":[14.498896,49.992167],"type":"Point"},"properties":{"osm_id":"6020617429","tag":{"amenity":"waste_basket"}},"type":"Feature"},
	{"geometry":{"coordinates":[14.491402,50.006454],"type":"Point"},"properties":{"osm_id":"6020617430","tag":{"amenity":"waste_basket"}},"type":"Feature"},
	{"geometry":{"coordinates":[14.487594,50.007209],"type":"Point"},"properties":{"osm_id":"6020617438","tag":{"amenity":"waste_basket","material":"wood"}},"type":"Feature"},
	{"geometry":{"coordinates":[14.428612,50.001029],"type":"Point"},"properties":{"osm_id":"6058662885","tag":{"amenity":"recycling","recycling:others":"yes","recycling_type":"container"}},"type":"Feature"},
	{"geometry":{"coordinates":[14.428637,50.001494],"type":"Point"},"properties":{"osm_id":"6058662886","tag":{"amenity":"recycling","recycling:others":"yes","recycling_type":"container"}},"type":"Feature"},
	{"geometry":{"coordinates":[14.428504,50.0002],"type":"Point"},"properties":{"osm_id":"6058662887","tag":{"amenity":"recycling","recycling:textile":"yes","recycling_type":"container"}},"type":"Feature"},
	{"geometry":{"coordinates":[14.497901,49.981664],"type":"Point"},"properties":{"osm_id":"6291865942","tag":{"amenity":"recycling","recycling:beverage_cartons":"yes","recycling:glass":"yes","recycling:paper":"yes","recycling:plastic":"yes","recycling_type":"container"}},"type":"Feature"},
	{"geometry":{"coordinates":[14.493888,50.006931],"type":"Point"},"properties":{"osm_id":"6302085700","tag":{"amenity":"waste_basket"}},"type":"Feature"},
	{"geometry":{"coordinates":[14.474439,50.007103],"type":"Point"},"properties":{"osm_id":"6326408768","tag":{"amenity":"recycling","recycling_type":"centre"}},"type":"Feature"},
	{"geometry":{"coordinates":[14.414869,50.005578],"type":"Point"},"properties":{"osm_id":"6356981401","tag":{"amenity":"recycling","recycling_type":"container"}},"type":"Feature"},
	{"geometry":{"coordinates":[14.496929,49.983507],"type":"Point"},"properties":{"osm_id":"6416242042","tag":{"amenity":"recycling","recycling:beverage_cartons":"yes","recycling:glass":"yes","recycling:paper":"yes","recycling:plastic":"yes","recycling_type":"container"}},"type":"Feature"},
	{"geometry":{"coordinates":[14.497018,49.984448],"type":"Point"},"properties":{"osm_id":"6416242075","tag":{"amenity":"recycling","recycling:beverage_cartons":"yes","recycling:glass":"yes","recycling:paper":"yes","recycling:plastic":"yes","recycling_type":"container"}},"type":"Feature"},
	{"geometry":{"coordinates":[14.441511,49.991449],"type":"Point"},"properties":{"osm_id":"6434188244","tag":{"amenity":"recycling","recycling_type":"container"}},"type":"Feature"},
	{"geometry":{"coordinates":[14.463351,50.000948],"type":"Point"},"properties":{"osm_id":"6770477636","tag":{"amenity":"recycling","recycling:waste":"yes","recycling_type":"container"}},"type":"Feature"},
	{"geometry":{"coordinates":[14.490342,50.007573],"type":"Point"},"properties":{"osm_id":"6882413827","tag":{"amenity":"waste_basket","colour":"green","material":"plastic"}},"type":"Feature"},
	{"geometry":{"coordinates":[14.454499,49.962735],"type":"Point"},"properties":{"osm_id":"7058441161","tag":{"amenity":"waste_basket"}},"type":"Feature"},
	{"geometry":{"coordinates":[14.454716,49.962712],"type":"Point"},"properties":{"osm_id":"7058441162","tag":{"amenity":"waste_basket"}},"type":"Feature"},
	{"geometry":{"coordinates":[14.455097,49.962592],"type":"Point"},"properties":{"osm_id":"7058441163","tag":{"amenity":"waste_basket"}},"type":"Feature"},
	{"geometry":{"coordinates":[14.455496,49.962592],"type":"Point"},"properties":{"osm_id":"7058441175","tag":{"amenity":"waste_basket"}},"type":"Feature"},
	{"geometry":{"coordinates":[14.455264,49.962736],"type":"Point"},"properties":{"osm_id":"7058442588","tag":{"amenity":"waste_basket"}},"type":"Feature"},
	{"geometry":{"coordinates":[14.467716,49.993353],"type":"Point"},"properties":{"osm_id":"7115026903","tag":{"amenity":"waste_basket"}},"type":"Feature"},
	{"geometry":{"coordinates":[14.468508,49.991746],"type":"Point"},"properties":{"osm_id":"7171319856","tag":{"amenity":"waste_basket","waste":"trash"}},"type":"Feature"},
	{"geometry":{"coordinates":[14.420167,49.99259],"type":"Point"},"properties":{"osm_id":"7194250351","tag":{"amenity":"waste_basket"}},"type":"Feature"},
	{"geometry":{"coordinates":[14.417197,49.992165],"type":"Point"},"properties":{"osm_id":"7199803438","tag":{"amenity":"recycling","recycling_type":"container"}},"type":"Feature"},
	{"geometry":{"coordinates":[14.420064,49.992546],"type":"Point"},"properties":{"osm_id":"7199803439","tag":{"amenity":"recycling","recycling_type":"container"}},"type":"Feature"},
	{"geometry":{"coordinates":[14.416856,49.991951],"type":"Point"},"properties":{"osm_id":"7199803440","tag":{"amenity":"waste_basket"}},"type":"Feature"},
	{"geometry":{"coordinates":[14.48097,49.962392],"type":"Point"},"properties":{"osm_id":"7375167294","tag":{"amenity":"recycling","recycling:plastic":"yes","recycling_type":"container"}},"type":"Feature"},
	{"geometry":{"coordinates":[14.473808,49.995912],"type":"Point"},"properties":{"osm_id":"7648778631","tag":{"amenity":"recycling","recycling:cartons":"yes","recycling:glass":"yes","recycling:paper":"yes","recycling:plastic":"yes","recycling_type":"container"}},"type":"Feature"},
	{"geometry":{"coordinates":[14.454116,49.961225],"type":"Point"},"properties":{"osm_id":"7649386999","tag":{"amenity":"recycling","operator":"Fyzik\u00c3\u00a1ln\u00c3\u00ad \u00c3\u00bastav, v.v.i. (private)","recycling:paper":"yes","recycling:plastic":"yes","recycling:scrap_metal":"yes","recycling:wood":"yes","recycling_type":"container"}},"type":"Feature"},
	{"geometry":{"coordinates":[14.451407,49.968202],"type":"Point"},"properties":{"osm_id":"7707618162","tag":{"amenity":"waste_basket","waste":"dog_excrement"}},"type":"Feature"}
]
}
