{
"type": "FeatureCollection",
"features": [
	{"geometry":{"coordinates":[14.464851,46.825558],"type":"Point"},"properties":{"osm_id":"1929834259","tag":{"amenity":"waste_basket"}},"type":"Feature"},
	{"geometry":{"coordinates":[14.467172,46.809063],"type":"Point"},"properties":{"osm_id":"1930598849","tag":{"amenity":"waste_basket"}},"type":"Feature"},
	{"geometry":{"coordinates":[14.464802,46.807357],"type":"Point"},"properties":{"osm_id":"1930718234","tag":{"amenity":"recycling","recycling:cans":"yes","recycling:glass":"yes","recycling_type":"container"}},"type":"Feature"},
	{"geometry":{"coordinates":[14.467002,46.808811],"type":"Point"},"properties":{"osm_id":"1930718327","tag":{"amenity":"recycling","recycling:cans":"yes","recycling:glass":"yes","recycling_type":"container"}},"type":"Feature"},
	{"geometry":{"coordinates":[14.467396,46.809042],"type":"Point"},"properties":{"osm_id":"2385881818","tag":{"amenity":"recycling","recycling:clothes":"yes","recycling_type":"container"}},"type":"Feature"},
	{"geometry":{"coordinates":[14.470495,46.805042],"type":"Point"},"properties":{"osm_id":"2385907639","tag":{"amenity":"waste_basket","covered":"no","leisure":"picnic_table","tourism":"picnic_site"}},"type":"Feature"},
	{"geometry":{"coordinates":[14.466957,46.806603],"type":"Point"},"properties":{"osm_id":"2385907640","tag":{"amenity":"waste_basket","covered":"no","tourism":"picnic_site"}},"type":"Feature"},
	{"geometry":{"coordinates":[14.466479,46.808876],"type":"Point"},"properties":{"osm_id":"2385907646","tag":{"amenity":"waste_basket","covered":"no","tourism":"picnic_site"}},"type":"Feature"},
	{"geometry":{"coordinates":[14.467399,46.809711],"type":"Point"},"properties":{"osm_id":"2385907671","tag":{"amenity":"waste_basket","covered":"no","tourism":"picnic_site"}},"type":"Feature"},
	{"geometry":{"coordinates":[14.467405,46.809731],"type":"Point"},"properties":{"osm_id":"2385907674","tag":{"amenity":"waste_basket","covered":"no","tourism":"picnic_site"}},"type":"Feature"}
]
}
