{
"type": "FeatureCollection",
"features": [
	{"geometry":{"coordinates":[14.425589,35.910369],"type":"Point"},"properties":{"osm_id":"803172322","tag":{"amenity":"recycling"}},"type":"Feature"},
	{"geometry":{"coordinates":[14.4893,35.909382],"type":"Point"},"properties":{"osm_id":"2081251164","tag":{"amenity":"recycling","recycling:glass":"yes","recycling:paper":"yes","recycling:scrap_metal":"yes"}},"type":"Feature"},
	{"geometry":{"coordinates":[14.49483,35.912781],"type":"Point"},"properties":{"osm_id":"2081251176","tag":{"amenity":"recycling","recycling:glass":"yes","recycling:paper":"yes","recycling:scrap_metal":"yes"}},"type":"Feature"},
	{"geometry":{"coordinates":[14.493884,35.91368],"type":"Point"},"properties":{"osm_id":"2081251178","tag":{"amenity":"recycling","location":"overground","recycling:glass":"yes","recycling:paper":"yes","recycling:scrap_metal":"yes","recycling_type":"container"}},"type":"Feature"},
	{"geometry":{"coordinates":[14.478076,35.921368],"type":"Point"},"properties":{"osm_id":"2084720997","tag":{"amenity":"recycling","recycling:glass":"yes","recycling:paper":"yes","recycling:scrap_metal":"yes"}},"type":"Feature"},
	{"geometry":{"coordinates":[14.478524,35.912114],"type":"Point"},"properties":{"osm_id":"2803009527","tag":{"amenity":"waste_basket"}},"type":"Feature"},
	{"geometry":{"coordinates":[14.480633,35.914622],"type":"Point"},"properties":{"osm_id":"2803009530","tag":{"amenity":"waste_basket"}},"type":"Feature"},
	{"geometry":{"coordinates":[14.486132,35.915839],"type":"Point"},"properties":{"osm_id":"2803009532","tag":{"amenity":"recycling","recycling:cans":"yes","recycling:glass":"yes","recycling:paper":"yes","recycling:scrap_metal":"yes","recycling_type":"container"}},"type":"Feature"},
	{"geometry":{"coordinates":[14.489425,35.918565],"type":"Point"},"properties":{"osm_id":"2803009534","tag":{"amenity":"recycling","recycling:cans":"yes","recycling:glass":"yes","recycling:paper":"yes","recycling:scrap_metal":"yes","recycling_type":"container"}},"type":"Feature"},
	{"geometry":{"coordinates":[14.480868,35.91471],"type":"Point"},"properties":{"osm_id":"2803444976","tag":{"amenity":"recycling","recycling:cans":"yes","recycling:clothes":"yes","recycling:glass":"yes","recycling:paper":"yes","recycling:scrap_metal":"yes","recycling_type":"container"}},"type":"Feature"},
	{"geometry":{"coordinates":[14.498319,35.917429],"type":"Point"},"properties":{"osm_id":"2804929692","tag":{"amenity":"recycling","recycling:cans":"yes","recycling:glass":"yes","recycling:paper":"yes","recycling:scrap_metal":"yes"}},"type":"Feature"},
	{"geometry":{"coordinates":[14.415549,35.945442],"type":"Point"},"properties":{"osm_id":"2805530158","tag":{"amenity":"recycling","recycling:cans":"yes","recycling:glass":"yes","recycling:paper":"yes","recycling:scrap_metal":"yes","recycling_type":"container"}},"type":"Feature"},
	{"geometry":{"coordinates":[14.484289,35.902996],"type":"Point"},"properties":{"name":"Bin","osm_id":"3583362084","tag":{"amenity":"waste_basket","name:en":"Bin"}},"type":"Feature"},
	{"geometry":{"coordinates":[14.485302,35.903024],"type":"Point"},"properties":{"name":"Recycling wheelie bins","osm_id":"3583400256","tag":{"amenity":"recycling"}},"type":"Feature"},
	{"geometry":{"coordinates":[14.485601,35.902607],"type":"Point"},"properties":{"osm_id":"3583410736","tag":{"amenity":"waste_basket"}},"type":"Feature"},
	{"geometry":{"coordinates":[14.485827,35.902646],"type":"Point"},"properties":{"osm_id":"3586671543","tag":{"amenity":"waste_basket"}},"type":"Feature"},
	{"geometry":{"coordinates":[14.485844,35.902762],"type":"Point"},"properties":{"osm_id":"3586671544","tag":{"amenity":"waste_basket"}},"type":"Feature"},
	{"geometry":{"coordinates":[14.485752,35.902297],"type":"Point"},"properties":{"osm_id":"3586671545","tag":{"amenity":"waste_basket"}},"type":"Feature"},
	{"geometry":{"coordinates":[14.493247,35.923488],"type":"Point"},"properties":{"osm_id":"4957158835","tag":{"amenity":"waste_basket"}},"type":"Feature"},
	{"geometry":{"coordinates":[14.447208,35.898248],"type":"Point"},"properties":{"osm_id":"5026550902","tag":{"amenity":"waste_basket"}},"type":"Feature"},
	{"geometry":{"coordinates":[14.475543,35.901938],"type":"Point"},"properties":{"osm_id":"5054391753","tag":{"amenity":"waste_basket"}},"type":"Feature"},
	{"geometry":{"coordinates":[14.49279,35.89467],"type":"Point"},"properties":{"osm_id":"5160240901","tag":{"amenity":"recycling","recycling_type":"container"}},"type":"Feature"},
	{"geometry":{"coordinates":[14.491855,35.890102],"type":"Point"},"properties":{"osm_id":"5160243023","tag":{"amenity":"recycling","recycling_type":"container"}},"type":"Feature"},
	{"geometry":{"coordinates":[14.479875,35.910475],"type":"Point"},"properties":{"osm_id":"5174486785","tag":{"amenity":"recycling","recycling_type":"container"}},"type":"Feature"},
	{"geometry":{"coordinates":[14.486269,35.909476],"type":"Point"},"properties":{"osm_id":"5174486790","tag":{"amenity":"recycling","recycling:glass":"yes","recycling:paper":"yes","recycling:plastic":"yes","recycling_type":"container"}},"type":"Feature"},
	{"geometry":{"coordinates":[14.483534,35.91008],"type":"Point"},"properties":{"osm_id":"5174486792","tag":{"amenity":"recycling","recycling_type":"container"}},"type":"Feature"},
	{"geometry":{"coordinates":[14.457669,35.895396],"type":"Point"},"properties":{"osm_id":"5193202392","tag":{"amenity":"recycling","recycling_type":"container"}},"type":"Feature"},
	{"geometry":{"coordinates":[14.478699,35.897985],"type":"Point"},"properties":{"osm_id":"5201959466","tag":{"amenity":"recycling","recycling_type":"container"}},"type":"Feature"},
	{"geometry":{"coordinates":[14.432976,35.895131],"type":"Point"},"properties":{"osm_id":"5203670574","tag":{"amenity":"recycling","recycling:clothes":"yes","recycling_type":"container"}},"type":"Feature"},
	{"geometry":{"coordinates":[14.440903,35.891863],"type":"Point"},"properties":{"osm_id":"5203670634","tag":{"amenity":"recycling","recycling:clothes":"yes","recycling_type":"container"}},"type":"Feature"},
	{"geometry":{"coordinates":[14.471607,35.898854],"type":"Point"},"properties":{"osm_id":"5241401508","tag":{"amenity":"recycling","recycling_type":"container"}},"type":"Feature"},
	{"geometry":{"coordinates":[14.43788,35.912574],"type":"Point"},"properties":{"osm_id":"5244173696","tag":{"amenity":"recycling","recycling_type":"container"}},"type":"Feature"},
	{"geometry":{"coordinates":[14.467608,35.910044],"type":"Point"},"properties":{"osm_id":"5248346060","tag":{"amenity":"recycling","recycling_type":"container"}},"type":"Feature"},
	{"geometry":{"coordinates":[14.494714,35.889991],"type":"Point"},"properties":{"osm_id":"5253531859","tag":{"amenity":"recycling","recycling_type":"container"}},"type":"Feature"},
	{"geometry":{"coordinates":[14.487154,35.898096],"type":"Point"},"properties":{"osm_id":"5262229780","tag":{"amenity":"recycling","recycling_type":"container"}},"type":"Feature"},
	{"geometry":{"coordinates":[14.466621,35.901512],"type":"Point"},"properties":{"osm_id":"5265272990","tag":{"amenity":"recycling","recycling_type":"container"}},"type":"Feature"},
	{"geometry":{"coordinates":[14.495919,35.889831],"type":"Point"},"properties":{"osm_id":"5272446660","tag":{"amenity":"recycling","recycling_type":"container"}},"type":"Feature"},
	{"geometry":{"coordinates":[14.496451,35.89361],"type":"Point"},"properties":{"osm_id":"5272446661","tag":{"amenity":"recycling","recycling_type":"container"}},"type":"Feature"},
	{"geometry":{"coordinates":[14.470745,35.890551],"type":"Point"},"properties":{"osm_id":"5290219837","tag":{"amenity":"recycling","recycling_type":"container"}},"type":"Feature"},
	{"geometry":{"coordinates":[14.476258,35.908142],"type":"Point"},"properties":{"osm_id":"5291984809","tag":{"amenity":"recycling","recycling:glass":"yes","recycling:paper":"yes","recycling:plastic":"yes","recycling_type":"container"}},"type":"Feature"},
	{"geometry":{"coordinates":[14.476348,35.908252],"type":"Point"},"properties":{"osm_id":"5291984810","tag":{"amenity":"recycling","recycling:clothes":"yes","recycling_type":"container"}},"type":"Feature"},
	{"geometry":{"coordinates":[14.422106,35.911255],"type":"Point"},"properties":{"osm_id":"5351200003","tag":{"amenity":"recycling","recycling_type":"container"}},"type":"Feature"},
	{"geometry":{"coordinates":[14.481223,35.926152],"type":"Point"},"properties":{"osm_id":"5387150938","tag":{"amenity":"recycling","recycling_type":"container"}},"type":"Feature"},
	{"geometry":{"coordinates":[14.477848,35.930207],"type":"Point"},"properties":{"osm_id":"5387150980","tag":{"amenity":"recycling","recycling_type":"container"}},"type":"Feature"},
	{"geometry":{"coordinates":[14.456923,35.903156],"type":"Point"},"properties":{"osm_id":"5695953602","tag":{"amenity":"recycling","recycling_type":"container"}},"type":"Feature"},
	{"geometry":{"coordinates":[14.456798,35.903088],"type":"Point"},"properties":{"osm_id":"5695953603","tag":{"amenity":"recycling","recycling_type":"container"}},"type":"Feature"},
	{"geometry":{"coordinates":[14.450373,35.89969],"type":"Point"},"properties":{"osm_id":"5765719990","tag":{"amenity":"waste_basket","waste":"dog_excrement"}},"type":"Feature"},
	{"geometry":{"coordinates":[14.473941,35.898539],"type":"Point"},"properties":{"osm_id":"5798413365","tag":{"amenity":"recycling","recycling:cardboard":"yes","recycling:glass":"yes","recycling:glass_bottles":"yes","recycling:paper":"yes","recycling:plastic_bottles":"yes","recycling_type":"container"}},"type":"Feature"},
	{"geometry":{"coordinates":[14.418432,35.913806],"type":"Point"},"properties":{"osm_id":"6146939256","tag":{"amenity":"recycling","recycling:glass":"yes","recycling:paper":"yes","recycling_type":"container"}},"type":"Feature"},
	{"geometry":{"coordinates":[14.4857,35.928096],"type":"Point"},"properties":{"osm_id":"6215878093","tag":{"amenity":"recycling","recycling_type":"container"}},"type":"Feature"},
	{"geometry":{"coordinates":[14.475535,35.909987],"type":"Point"},"properties":{"osm_id":"6241021165","tag":{"amenity":"recycling","recycling:clothes":"yes","recycling:glass":"yes","recycling:paper":"yes","recycling:plastic":"yes","recycling_type":"container"}},"type":"Feature"},
	{"geometry":{"coordinates":[14.483456,35.926809],"type":"Point"},"properties":{"osm_id":"6293193330","tag":{"amenity":"recycling","recycling:cartons":"yes","recycling:glass":"yes","recycling:plastic":"yes","recycling_type":"container"}},"type":"Feature"},
	{"geometry":{"coordinates":[14.475461,35.925324],"type":"Point"},"properties":{"osm_id":"6333130028","tag":{"amenity":"recycling","recycling:cardboard":"yes","recycling:glass":"yes","recycling:paper":"yes","recycling:plastic":"yes","recycling_type":"container"}},"type":"Feature"},
	{"geometry":{"coordinates":[14.457098,35.935175],"type":"Point"},"properties":{"osm_id":"6393621390","tag":{"amenity":"recycling","recycling_type":"container"}},"type":"Feature"},
	{"geometry":{"coordinates":[14.452979,35.937234],"type":"Point"},"properties":{"osm_id":"6393621425","tag":{"amenity":"recycling","recycling_type":"container"}},"type":"Feature"},
	{"geometry":{"coordinates":[14.421005,35.952671],"type":"Point"},"properties":{"osm_id":"6393662001","tag":{"amenity":"recycling","recycling_type":"container"}},"type":"Feature"},
	{"geometry":{"coordinates":[14.468208,35.917532],"type":"Point"},"properties":{"osm_id":"6413533480","tag":{"amenity":"recycling","recycling_type":"container"}},"type":"Feature"},
	{"geometry":{"coordinates":[14.474138,35.909002],"type":"Point"},"properties":{"osm_id":"6819507575","tag":{"amenity":"recycling","recycling_type":"container"}},"type":"Feature"},
	{"geometry":{"coordinates":[14.424973,35.947717],"type":"Point"},"properties":{"osm_id":"6953666049","tag":{"amenity":"waste_basket"}},"type":"Feature"},
	{"geometry":{"coordinates":[14.423816,35.946119],"type":"Point"},"properties":{"osm_id":"6953709090","tag":{"amenity":"waste_basket"}},"type":"Feature"},
	{"geometry":{"coordinates":[14.421189,35.953606],"type":"Point"},"properties":{"osm_id":"7001092223","tag":{"amenity":"waste_basket"}},"type":"Feature"},
	{"geometry":{"coordinates":[14.416263,35.948302],"type":"Point"},"properties":{"osm_id":"7003583095","tag":{"amenity":"recycling","recycling:clothes":"yes"}},"type":"Feature"},
	{"geometry":{"coordinates":[14.422248,35.948608],"type":"Point"},"properties":{"osm_id":"7038155144","tag":{"amenity":"waste_basket"}},"type":"Feature"},
	{"geometry":{"coordinates":[14.417818,35.9557],"type":"Point"},"properties":{"osm_id":"7130595084","tag":{"amenity":"waste_basket","waste":"trash"}},"type":"Feature"},
	{"geometry":{"coordinates":[14.41731,35.954286],"type":"Point"},"properties":{"osm_id":"7131314770","tag":{"amenity":"waste_basket","waste":"trash"}},"type":"Feature"},
	{"geometry":{"coordinates":[14.417655,35.955423],"type":"Point"},"properties":{"osm_id":"7131314771","tag":{"amenity":"waste_basket","waste":"trash"}},"type":"Feature"},
	{"geometry":{"coordinates":[14.417365,35.954563],"type":"Point"},"properties":{"osm_id":"7131314775","tag":{"amenity":"waste_basket","waste":"trash"}},"type":"Feature"},
	{"geometry":{"coordinates":[14.445156,35.950099],"type":"Point"},"properties":{"osm_id":"7739289559","tag":{"amenity":"waste_basket"}},"type":"Feature"},
	{"geometry":{"coordinates":[14.425748,35.89484],"type":"Point"},"properties":{"name":"Civic Amenity Site","osm_id":"7865128597","tag":{"amenity":"recycling","operator":"Wasteserve","operator:type":"public","recycling_type":"centre"}},"type":"Feature"}
]
}
