{
"type": "FeatureCollection",
"features": [
	{"geometry":{"coordinates":[28.181045,61.068667],"type":"Point"},"properties":{"osm_id":"478516501","tag":{"amenity":"waste_basket"}},"type":"Feature"},
	{"geometry":{"coordinates":[28.178816,61.065305],"type":"Point"},"properties":{"osm_id":"482094280","tag":{"amenity":"waste_basket"}},"type":"Feature"},
	{"geometry":{"coordinates":[28.186386,61.062512],"type":"Point"},"properties":{"osm_id":"482094329","tag":{"amenity":"waste_basket"}},"type":"Feature"},
	{"geometry":{"coordinates":[28.153019,61.086694],"type":"Point"},"properties":{"name":"Hy\u00c3\u00b6tyhalli","osm_id":"968048912","tag":{"addr:city":"Lappeenranta","addr:country":"FI","addr:housenumber":"10","addr:postcode":"53950","addr:street":"Kivisalmenkatu","amenity":"recycling","opening_hours":"Mo-Fr 09:00-18:00; Sa 09:00-14:00; Su off","operator":"Lappeenrannan seudun kierr\u00c3\u00a4tysyhdistys ry"}},"type":"Feature"},
	{"geometry":{"coordinates":[28.185826,61.059595],"type":"Point"},"properties":{"osm_id":"5716177854","tag":{"amenity":"waste_basket"}},"type":"Feature"},
	{"geometry":{"coordinates":[28.150706,61.077492],"type":"Point"},"properties":{"osm_id":"5774988191","tag":{"amenity":"recycling"}},"type":"Feature"},
	{"geometry":{"coordinates":[28.187909,61.061128],"type":"Point"},"properties":{"osm_id":"6820609186","tag":{"amenity":"waste_basket"}},"type":"Feature"},
	{"geometry":{"coordinates":[28.188374,61.061276],"type":"Point"},"properties":{"osm_id":"6820609188","tag":{"amenity":"waste_basket"}},"type":"Feature"},
	{"geometry":{"coordinates":[28.187261,61.061656],"type":"Point"},"properties":{"osm_id":"6820609194","tag":{"amenity":"waste_basket"}},"type":"Feature"},
	{"geometry":{"coordinates":[28.186858,61.061743],"type":"Point"},"properties":{"osm_id":"6820609195","tag":{"amenity":"waste_basket"}},"type":"Feature"},
	{"geometry":{"coordinates":[28.18849,61.058604],"type":"Point"},"properties":{"osm_id":"6820609201","tag":{"amenity":"waste_basket"}},"type":"Feature"},
	{"geometry":{"coordinates":[28.188767,61.061332],"type":"Point"},"properties":{"osm_id":"6820633388","tag":{"amenity":"waste_basket"}},"type":"Feature"},
	{"geometry":{"coordinates":[28.188152,61.061669],"type":"Point"},"properties":{"osm_id":"6820633391","tag":{"amenity":"waste_basket"}},"type":"Feature"},
	{"geometry":{"coordinates":[28.18864,61.061363],"type":"Point"},"properties":{"osm_id":"6820649385","tag":{"amenity":"waste_basket"}},"type":"Feature"},
	{"geometry":{"coordinates":[28.186416,61.061958],"type":"Point"},"properties":{"osm_id":"6820649487","tag":{"amenity":"waste_basket"}},"type":"Feature"},
	{"geometry":{"coordinates":[28.186767,61.061163],"type":"Point"},"properties":{"osm_id":"6820650086","tag":{"amenity":"waste_basket"}},"type":"Feature"},
	{"geometry":{"coordinates":[28.19747,61.058834],"type":"Point"},"properties":{"osm_id":"7387348062","tag":{"amenity":"waste_basket","colour":"red","material":"metal","waste":"mixed"}},"type":"Feature"},
	{"geometry":{"coordinates":[28.18662,61.062325],"type":"Point"},"properties":{"osm_id":"8870361834","tag":{"amenity":"waste_basket"}},"type":"Feature"},
	{"geometry":{"coordinates":[28.195422,61.058899],"type":"Point"},"properties":{"osm_id":"8916775623","tag":{"amenity":"waste_basket"}},"type":"Feature"},
	{"geometry":{"coordinates":[28.19329,61.058727],"type":"Point"},"properties":{"osm_id":"8922761704","tag":{"amenity":"waste_basket"}},"type":"Feature"},
	{"geometry":{"coordinates":[28.193105,61.060416],"type":"Point"},"properties":{"osm_id":"8926149608","tag":{"amenity":"waste_basket"}},"type":"Feature"},
	{"geometry":{"coordinates":[28.196611,61.066186],"type":"Point"},"properties":{"osm_id":"8929283204","tag":{"amenity":"waste_basket"}},"type":"Feature"},
	{"geometry":{"coordinates":[28.190216,61.061734],"type":"Point"},"properties":{"osm_id":"8929299138","tag":{"amenity":"waste_basket"}},"type":"Feature"},
	{"geometry":{"coordinates":[28.190518,61.061767],"type":"Point"},"properties":{"osm_id":"8929299139","tag":{"amenity":"waste_basket"}},"type":"Feature"},
	{"geometry":{"coordinates":[28.191318,61.061907],"type":"Point"},"properties":{"osm_id":"8929313033","tag":{"amenity":"waste_basket"}},"type":"Feature"},
	{"geometry":{"coordinates":[28.192814,61.064755],"type":"Point"},"properties":{"osm_id":"8929313050","tag":{"amenity":"waste_basket"}},"type":"Feature"},
	{"geometry":{"coordinates":[28.186464,61.061722],"type":"Point"},"properties":{"osm_id":"8930101731","tag":{"amenity":"waste_basket"}},"type":"Feature"},
	{"geometry":{"coordinates":[28.196691,61.059639],"type":"Point"},"properties":{"osm_id":"8930819818","tag":{"amenity":"waste_basket"}},"type":"Feature"},
	{"geometry":{"coordinates":[28.204036,61.060644],"type":"Point"},"properties":{"osm_id":"8930849072","tag":{"amenity":"waste_basket"}},"type":"Feature"}
]
}
