{
"type": "FeatureCollection",
"features": [
	{"geometry":{"coordinates":[28.156233,59.375825],"type":"Point"},"properties":{"osm_id":"5924099439","tag":{"amenity":"waste_disposal"}},"type":"Feature"},
	{"geometry":{"coordinates":[28.146483,59.37585],"type":"Point"},"properties":{"osm_id":"6264553287","tag":{"amenity":"recycling"}},"type":"Feature"},
	{"geometry":{"coordinates":[28.145829,59.375468],"type":"Point"},"properties":{"name":"NJK","osm_id":"6264553288","tag":{"amenity":"recycling"}},"type":"Feature"},
	{"geometry":{"coordinates":[28.145687,59.37553],"type":"Point"},"properties":{"osm_id":"6264555786","tag":{"amenity":"recycling"}},"type":"Feature"},
	{"geometry":{"coordinates":[28.179289,59.367932],"type":"Point"},"properties":{"osm_id":"6518091093","tag":{"amenity":"waste_basket","waste":"dog_excrement"}},"type":"Feature"},
	{"geometry":{"coordinates":[28.199891,59.375427],"type":"Point"},"properties":{"osm_id":"6869688502","tag":{"amenity":"waste_basket"}},"type":"Feature"},
	{"geometry":{"coordinates":[28.200852,59.375352],"type":"Point"},"properties":{"osm_id":"6869688503","tag":{"amenity":"waste_basket"}},"type":"Feature"},
	{"geometry":{"coordinates":[28.198433,59.375524],"type":"Point"},"properties":{"osm_id":"6869914211","tag":{"amenity":"waste_basket","colour":"black","lid":"yes","material":"plastic"}},"type":"Feature"},
	{"geometry":{"coordinates":[28.198384,59.375517],"type":"Point"},"properties":{"osm_id":"6869914212","tag":{"amenity":"waste_basket","colour":"black","material":"plastic"}},"type":"Feature"},
	{"geometry":{"coordinates":[28.197894,59.375385],"type":"Point"},"properties":{"osm_id":"6869914213","tag":{"amenity":"waste_basket","colour":"black","material":"plastic"}},"type":"Feature"},
	{"geometry":{"coordinates":[28.198086,59.375565],"type":"Point"},"properties":{"osm_id":"6869914214","tag":{"amenity":"waste_basket","colour":"black","material":"plastic"}},"type":"Feature"},
	{"geometry":{"coordinates":[28.197616,59.375386],"type":"Point"},"properties":{"osm_id":"6869914215","tag":{"amenity":"waste_basket","colour":"black","material":"plastic"}},"type":"Feature"},
	{"geometry":{"coordinates":[28.197562,59.375383],"type":"Point"},"properties":{"osm_id":"6869914216","tag":{"amenity":"waste_basket","colour":"black","material":"plastic"}},"type":"Feature"},
	{"geometry":{"coordinates":[28.197263,59.375363],"type":"Point"},"properties":{"osm_id":"6869914217","tag":{"amenity":"waste_basket","colour":"black","material":"plastic"}},"type":"Feature"},
	{"geometry":{"coordinates":[28.1972,59.375359],"type":"Point"},"properties":{"osm_id":"6869914218","tag":{"amenity":"waste_basket","colour":"black","material":"plastic"}},"type":"Feature"},
	{"geometry":{"coordinates":[28.197317,59.375502],"type":"Point"},"properties":{"osm_id":"6869914219","tag":{"amenity":"waste_basket","colour":"black","material":"plastic"}},"type":"Feature"},
	{"geometry":{"coordinates":[28.197279,59.375588],"type":"Point"},"properties":{"osm_id":"6869914220","tag":{"amenity":"waste_basket","colour":"black","material":"plastic"}},"type":"Feature"},
	{"geometry":{"coordinates":[28.197237,59.375694],"type":"Point"},"properties":{"osm_id":"6869914221","tag":{"amenity":"waste_basket","colour":"black","material":"plastic"}},"type":"Feature"},
	{"geometry":{"coordinates":[28.197383,59.37577],"type":"Point"},"properties":{"osm_id":"6869914225","tag":{"amenity":"waste_basket","colour":"black","material":"plastic"}},"type":"Feature"},
	{"geometry":{"coordinates":[28.197989,59.375094],"type":"Point"},"properties":{"osm_id":"6869914246","tag":{"amenity":"waste_basket","colour":"black","material":"plastic"}},"type":"Feature"},
	{"geometry":{"coordinates":[28.198049,59.374887],"type":"Point"},"properties":{"osm_id":"6869914247","tag":{"amenity":"waste_basket","colour":"black","material":"plastic"}},"type":"Feature"},
	{"geometry":{"coordinates":[28.198114,59.374654],"type":"Point"},"properties":{"osm_id":"6869914248","tag":{"amenity":"waste_basket","colour":"black","material":"plastic"}},"type":"Feature"},
	{"geometry":{"coordinates":[28.198406,59.374516],"type":"Point"},"properties":{"osm_id":"6869914249","tag":{"amenity":"waste_basket","colour":"black","material":"plastic"}},"type":"Feature"},
	{"geometry":{"coordinates":[28.198484,59.374527],"type":"Point"},"properties":{"osm_id":"6869914250","tag":{"amenity":"waste_basket","colour":"black","material":"plastic"}},"type":"Feature"},
	{"geometry":{"coordinates":[28.198566,59.374536],"type":"Point"},"properties":{"osm_id":"6869914251","tag":{"amenity":"waste_basket","colour":"black","material":"plastic"}},"type":"Feature"},
	{"geometry":{"coordinates":[28.198686,59.374705],"type":"Point"},"properties":{"osm_id":"6869914261","tag":{"amenity":"waste_basket","colour":"black","material":"plastic"}},"type":"Feature"},
	{"geometry":{"coordinates":[28.198632,59.374879],"type":"Point"},"properties":{"osm_id":"6869914262","tag":{"amenity":"waste_basket","colour":"black","material":"plastic"}},"type":"Feature"},
	{"geometry":{"coordinates":[28.198584,59.375037],"type":"Point"},"properties":{"osm_id":"6869914263","tag":{"amenity":"waste_basket","colour":"black","material":"plastic"}},"type":"Feature"},
	{"geometry":{"coordinates":[28.195186,59.376313],"type":"Point"},"properties":{"osm_id":"6870831026","tag":{"amenity":"waste_basket","material":"concrete"}},"type":"Feature"},
	{"geometry":{"coordinates":[28.195429,59.376339],"type":"Point"},"properties":{"osm_id":"6870831027","tag":{"amenity":"waste_basket","material":"concrete"}},"type":"Feature"},
	{"geometry":{"coordinates":[28.193098,59.375353],"type":"Point"},"properties":{"osm_id":"6870869748","tag":{"amenity":"recycling","material":"metal","recycling:glass":"yes","recycling_type":"container"}},"type":"Feature"},
	{"geometry":{"coordinates":[28.198654,59.377379],"type":"Point"},"properties":{"osm_id":"6877863524","tag":{"amenity":"waste_basket"}},"type":"Feature"},
	{"geometry":{"coordinates":[28.154602,59.385453],"type":"Point"},"properties":{"osm_id":"6886412479","tag":{"amenity":"waste_basket"}},"type":"Feature"},
	{"geometry":{"coordinates":[28.160971,59.38407],"type":"Point"},"properties":{"osm_id":"6903035931","tag":{"amenity":"waste_basket"}},"type":"Feature"},
	{"geometry":{"coordinates":[28.186556,59.377853],"type":"Point"},"properties":{"osm_id":"6915197752","tag":{"amenity":"waste_basket"}},"type":"Feature"},
	{"geometry":{"coordinates":[28.180292,59.379282],"type":"Point"},"properties":{"osm_id":"6924904388","tag":{"amenity":"waste_basket","material":"concrete"}},"type":"Feature"},
	{"geometry":{"coordinates":[28.171269,59.381338],"type":"Point"},"properties":{"osm_id":"6935257953","tag":{"amenity":"waste_basket"}},"type":"Feature"},
	{"geometry":{"coordinates":[28.163742,59.383044],"type":"Point"},"properties":{"osm_id":"6937736212","tag":{"amenity":"waste_basket"}},"type":"Feature"},
	{"geometry":{"coordinates":[28.173832,59.380695],"type":"Point"},"properties":{"osm_id":"7002763342","tag":{"amenity":"waste_basket","material":"stone"}},"type":"Feature"},
	{"geometry":{"coordinates":[28.190583,59.377163],"type":"Point"},"properties":{"osm_id":"7002764725","tag":{"amenity":"waste_basket"}},"type":"Feature"},
	{"geometry":{"coordinates":[28.193044,59.377237],"type":"Point"},"properties":{"osm_id":"7008613231","tag":{"amenity":"waste_basket"}},"type":"Feature"},
	{"geometry":{"coordinates":[28.195339,59.377998],"type":"Point"},"properties":{"osm_id":"7008614195","tag":{"amenity":"waste_basket"}},"type":"Feature"},
	{"geometry":{"coordinates":[28.192058,59.377768],"type":"Point"},"properties":{"osm_id":"7011872437","tag":{"amenity":"waste_basket"}},"type":"Feature"},
	{"geometry":{"coordinates":[28.191178,59.378428],"type":"Point"},"properties":{"osm_id":"7011884747","tag":{"amenity":"waste_basket"}},"type":"Feature"}
]
}
