{
"type": "FeatureCollection",
"features": [
	{"geometry":{"coordinates":[28.188601,45.907222],"type":"Point"},"properties":{"osm_id":"4602168493","tag":{"amenity":"waste_disposal"}},"type":"Feature"},
	{"geometry":{"coordinates":[28.199928,45.890813],"type":"Point"},"properties":{"osm_id":"4635077390","tag":{"amenity":"waste_disposal"}},"type":"Feature"},
	{"geometry":{"coordinates":[28.192077,45.90818],"type":"Point"},"properties":{"osm_id":"6268404786","tag":{"amenity":"waste_disposal","operator":"\u00d0\u00bf\u00d1\u0080\u00d0\u00b8\u00d0\u00bc\u00d0\u00b0\u00d1\u0080\u00d0\u00b8\u00d1\u008f"}},"type":"Feature"},
	{"geometry":{"coordinates":[28.203452,45.908391],"type":"Point"},"properties":{"osm_id":"6896865685","tag":{"amenity":"waste_basket"}},"type":"Feature"},
	{"geometry":{"coordinates":[28.203383,45.90841],"type":"Point"},"properties":{"name":"Meter","osm_id":"6896865686","tag":{"amenity":"recycling","name:ru":"\u00d0\u009c\u00d0\u00b5\u00d1\u0082\u00d0\u00b5\u00d1\u0080","operator":"Modernus"}},"type":"Feature"}
]
}
