{
"type": "FeatureCollection",
"lastupdate": "2020-08-02T00:00:00Z",
"features": [
	{"geometry":{"coordinates":[28.179974,70.182411],"type":"Point"},"properties":{"name":"\u00c3\u0098FAS","osm_id":"1982689937","tag":{"amenity":"recycling"}},"type":"Feature"},
	{"geometry":{"coordinates":[28.180067,70.182482],"type":"Point"},"properties":{"osm_id":"1982693157","tag":{"amenity":"waste_basket"}},"type":"Feature"},
	{"geometry":{"coordinates":[28.186757,70.182743],"type":"Point"},"properties":{"osm_id":"3445369613","tag":{"amenity":"waste_basket"}},"type":"Feature"},
	{"geometry":{"coordinates":[28.180535,70.181617],"type":"Point"},"properties":{"name":"Gassanjarg gjenbruksstasjon","osm_id":"5555204657","tag":{"amenity":"recycling","phone":"+47 78925480","recycling:asbestos":"yes","recycling:batteries":"yes","recycling:boats":"yes","recycling:drugs":"yes","recycling:electrical_items":"yes","recycling:garden_waste":"yes","recycling:glass":"yes","recycling:glass_bottles":"yes","recycling:hazardous_waste":"yes","recycling:marine_waste":"yes","recycling:metal":"yes","recycling:organic":"yes","recycling:paper":"yes","recycling:plasterboard":"yes","recycling:plastic":"yes","recycling:plastic_packaging":"yes","recycling:polystyrene_foam":"yes","recycling:rubble":"yes","recycling:scrap_metal":"yes","recycling:tyres":"yes","recycling:waste":"yes","recycling:wood":"yes","recycling_type":"centre","ref:sortere":"1100"}},"type":"Feature"},
	{"geometry":{"coordinates":[28.180728,70.181804],"type":"Point"},"properties":{"name":"Gassanjarga avfallsanlegg","osm_id":"5861081957","tag":{"amenity":"recycling","opening_hours":"Mo-Fr 08:00-15:00","operator":"\u00d8st-Finnmark Avfallsselskap ANS","phone":"+4778928469","type":"centre","website":"http://www.ofas.no/miljostasjoner/gassangjarg/"}},"type":"Feature"},
	{"geometry":{"coordinates":[28.1898,70.199253],"type":"Point"},"properties":{"osm_id":"6195508592","tag":{"amenity":"recycling","description":"Utsett av containere i Tana kommune","operator":"RASK A/S","phone":"+47 41729600","recycling:marine_waste":"yes","recycling_type":"container","ref:sortere":"32","website":"http://rask.no"}},"type":"Feature"}
]
}
