{
"type": "FeatureCollection",
"features": [
	{"geometry":{"coordinates":[14.33065,51.727468],"type":"Point"},"properties":{"osm_id":"313346447","tag":{"amenity":"recycling"}},"type":"Feature"},
	{"geometry":{"coordinates":[14.326981,51.73037],"type":"Point"},"properties":{"osm_id":"313349366","tag":{"amenity":"recycling"}},"type":"Feature"},
	{"geometry":{"coordinates":[14.327442,51.731381],"type":"Point"},"properties":{"osm_id":"313350177","tag":{"amenity":"recycling"}},"type":"Feature"},
	{"geometry":{"coordinates":[14.341621,51.742752],"type":"Point"},"properties":{"osm_id":"374170754","tag":{"amenity":"recycling","location":"overground","recycling_type":"container"}},"type":"Feature"},
	{"geometry":{"coordinates":[14.33337,51.764279],"type":"Point"},"properties":{"osm_id":"617630726","tag":{"amenity":"recycling","location":"overground","recycling_type":"container"}},"type":"Feature"},
	{"geometry":{"coordinates":[14.333199,51.76449],"type":"Point"},"properties":{"osm_id":"617630727","tag":{"amenity":"recycling","location":"overground","recycling_type":"container"}},"type":"Feature"},
	{"geometry":{"coordinates":[14.340066,51.731423],"type":"Point"},"properties":{"osm_id":"726664848","tag":{"amenity":"recycling"}},"type":"Feature"},
	{"geometry":{"coordinates":[14.335155,51.768536],"type":"Point"},"properties":{"osm_id":"1014451722","tag":{"amenity":"recycling"}},"type":"Feature"},
	{"geometry":{"coordinates":[14.330276,51.766413],"type":"Point"},"properties":{"osm_id":"1014451748","tag":{"amenity":"recycling","recycling_type":"container"}},"type":"Feature"},
	{"geometry":{"coordinates":[14.340427,51.771154],"type":"Point"},"properties":{"osm_id":"1038082708","tag":{"amenity":"recycling"}},"type":"Feature"},
	{"geometry":{"coordinates":[14.339979,51.770632],"type":"Point"},"properties":{"osm_id":"1038082709","tag":{"amenity":"recycling"}},"type":"Feature"},
	{"geometry":{"coordinates":[14.37922,51.777655],"type":"Point"},"properties":{"osm_id":"1382322743","tag":{"amenity":"recycling","recycling_type":"container"}},"type":"Feature"},
	{"geometry":{"coordinates":[14.372835,51.764186],"type":"Point"},"properties":{"name":"Wertstoffhof der ALBA Cottbus GmbH","osm_id":"1386927773","tag":{"amenity":"recycling","recycling:batteries":"yes","recycling:cans":"yes","recycling:glass":"yes","recycling:paper":"yes","recycling:scrap_metal":"yes","recycling_type":"centre"}},"type":"Feature"},
	{"geometry":{"coordinates":[14.369913,51.741677],"type":"Point"},"properties":{"osm_id":"1387902754","tag":{"amenity":"recycling"}},"type":"Feature"},
	{"geometry":{"coordinates":[14.365053,51.733291],"type":"Point"},"properties":{"osm_id":"1397449988","tag":{"amenity":"recycling","location":"overground","recycling:glass":"yes","recycling:paper":"yes","recycling_type":"container"}},"type":"Feature"},
	{"geometry":{"coordinates":[14.36914,51.73741],"type":"Point"},"properties":{"osm_id":"1397545985","tag":{"amenity":"recycling","recycling:clothes":"yes","recycling:glass":"yes","recycling:glass_bottles":"yes","recycling:paper":"yes","recycling_type":"container"}},"type":"Feature"},
	{"geometry":{"coordinates":[14.330003,51.766754],"type":"Point"},"properties":{"osm_id":"1406433819","tag":{"amenity":"recycling","recycling_type":"container"}},"type":"Feature"},
	{"geometry":{"coordinates":[14.327235,51.772905],"type":"Point"},"properties":{"osm_id":"1417939434","tag":{"amenity":"recycling","recycling:glass":"yes","recycling:paper":"yes","recycling_type":"container"}},"type":"Feature"},
	{"geometry":{"coordinates":[14.326643,51.773519],"type":"Point"},"properties":{"osm_id":"1417939435","tag":{"amenity":"recycling","recycling:glass":"yes","recycling:paper":"yes","recycling_type":"container"}},"type":"Feature"},
	{"geometry":{"coordinates":[14.327876,51.774104],"type":"Point"},"properties":{"osm_id":"1417939436","tag":{"amenity":"recycling","recycling:glass":"yes","recycling:paper":"yes","recycling_type":"container"}},"type":"Feature"},
	{"geometry":{"coordinates":[14.336888,51.770333],"type":"Point"},"properties":{"osm_id":"1419252874","tag":{"amenity":"recycling","recycling:glass":"yes","recycling:paper":"yes","recycling_type":"container"}},"type":"Feature"},
	{"geometry":{"coordinates":[14.340647,51.771261],"type":"Point"},"properties":{"osm_id":"1419252913","tag":{"amenity":"recycling","recycling:glass":"yes","recycling_type":"container"}},"type":"Feature"},
	{"geometry":{"coordinates":[14.326598,51.761761],"type":"Point"},"properties":{"osm_id":"1427338236","tag":{"amenity":"recycling","recycling:glass":"yes","recycling:paper":"yes","recycling_type":"container"}},"type":"Feature"},
	{"geometry":{"coordinates":[14.328387,51.763412],"type":"Point"},"properties":{"osm_id":"1438318868","tag":{"amenity":"recycling","recycling:glass":"yes","recycling:paper":"yes","recycling_type":"container"}},"type":"Feature"},
	{"geometry":{"coordinates":[14.32916,51.738874],"type":"Point"},"properties":{"osm_id":"1448538905","tag":{"amenity":"recycling","recycling:glass":"yes","recycling:paper":"yes","recycling_type":"container"}},"type":"Feature"},
	{"geometry":{"coordinates":[14.329656,51.740654],"type":"Point"},"properties":{"osm_id":"1448551221","tag":{"amenity":"recycling","recycling:glass":"yes","recycling:paper":"yes","recycling_type":"container"}},"type":"Feature"},
	{"geometry":{"coordinates":[14.32991,51.73715],"type":"Point"},"properties":{"osm_id":"1525354148","tag":{"amenity":"recycling","recycling:glass":"yes","recycling:paper":"yes","recycling_type":"container"}},"type":"Feature"},
	{"geometry":{"coordinates":[14.327312,51.733633],"type":"Point"},"properties":{"osm_id":"1530080966","tag":{"amenity":"recycling","recycling:clothes":"yes","recycling:glass":"yes","recycling:paper":"yes","recycling_type":"container"}},"type":"Feature"},
	{"geometry":{"coordinates":[14.335117,51.728667],"type":"Point"},"properties":{"osm_id":"1540701084","tag":{"amenity":"recycling","recycling:paper":"yes","recycling_type":"container"}},"type":"Feature"},
	{"geometry":{"coordinates":[14.333638,51.729026],"type":"Point"},"properties":{"osm_id":"1540701115","tag":{"amenity":"recycling","recycling:paper":"yes","recycling_type":"container"}},"type":"Feature"},
	{"geometry":{"coordinates":[14.334282,51.727932],"type":"Point"},"properties":{"osm_id":"1541551633","tag":{"amenity":"recycling","recycling:glass":"yes","recycling_type":"container"}},"type":"Feature"},
	{"geometry":{"coordinates":[14.332111,51.728196],"type":"Point"},"properties":{"osm_id":"1541551650","tag":{"amenity":"recycling","recycling:glass":"yes","recycling_type":"container"}},"type":"Feature"},
	{"geometry":{"coordinates":[14.330374,51.728439],"type":"Point"},"properties":{"osm_id":"1541551669","tag":{"amenity":"recycling","recycling:glass":"yes","recycling_type":"container"}},"type":"Feature"},
	{"geometry":{"coordinates":[14.328846,51.729112],"type":"Point"},"properties":{"osm_id":"1541551752","tag":{"amenity":"recycling","recycling:clothes":"yes","recycling:glass":"yes","recycling:paper":"yes","recycling_type":"container"}},"type":"Feature"},
	{"geometry":{"coordinates":[14.329987,51.728383],"type":"Point"},"properties":{"osm_id":"1541558782","tag":{"amenity":"recycling","recycling:glass":"yes","recycling_type":"container"}},"type":"Feature"},
	{"geometry":{"coordinates":[14.328301,51.728543],"type":"Point"},"properties":{"osm_id":"1541562593","tag":{"amenity":"recycling","recycling:glass":"yes","recycling_type":"container"}},"type":"Feature"},
	{"geometry":{"coordinates":[14.340202,51.769478],"type":"Point"},"properties":{"osm_id":"1691694681","tag":{"amenity":"recycling","recycling_type":"container"}},"type":"Feature"},
	{"geometry":{"coordinates":[14.342975,51.770066],"type":"Point"},"properties":{"osm_id":"1691694730","tag":{"amenity":"recycling","recycling_type":"container"}},"type":"Feature"},
	{"geometry":{"coordinates":[14.344484,51.779594],"type":"Point"},"properties":{"osm_id":"1696643545","tag":{"amenity":"recycling","recycling:glass":"yes","recycling:paper":"yes","recycling_type":"container"}},"type":"Feature"},
	{"geometry":{"coordinates":[14.344883,51.779652],"type":"Point"},"properties":{"osm_id":"1696643596","tag":{"amenity":"recycling","recycling:glass":"yes","recycling:paper":"yes","recycling_type":"container"}},"type":"Feature"},
	{"geometry":{"coordinates":[14.340354,51.779885],"type":"Point"},"properties":{"osm_id":"1696643844","tag":{"amenity":"recycling","recycling:glass":"yes","recycling:paper":"yes","recycling_type":"container"}},"type":"Feature"},
	{"geometry":{"coordinates":[14.344638,51.780025],"type":"Point"},"properties":{"osm_id":"1696643969","tag":{"amenity":"recycling","recycling:glass":"yes","recycling:paper":"yes","recycling_type":"container"}},"type":"Feature"},
	{"geometry":{"coordinates":[14.342132,51.780165],"type":"Point"},"properties":{"osm_id":"1696644147","tag":{"amenity":"recycling","recycling:glass":"yes","recycling:paper":"yes","recycling_type":"container"}},"type":"Feature"},
	{"geometry":{"coordinates":[14.342476,51.780227],"type":"Point"},"properties":{"osm_id":"1696644232","tag":{"amenity":"recycling","recycling:glass":"yes","recycling:paper":"yes","recycling_type":"container"}},"type":"Feature"},
	{"geometry":{"coordinates":[14.342757,51.780277],"type":"Point"},"properties":{"osm_id":"1696644318","tag":{"amenity":"recycling","recycling:glass":"yes","recycling:paper":"yes","recycling_type":"container"}},"type":"Feature"},
	{"geometry":{"coordinates":[14.349641,51.765015],"type":"Point"},"properties":{"osm_id":"1935602652","tag":{"amenity":"waste_disposal"}},"type":"Feature"},
	{"geometry":{"coordinates":[14.350967,51.765084],"type":"Point"},"properties":{"osm_id":"1935602653","tag":{"amenity":"waste_disposal"}},"type":"Feature"},
	{"geometry":{"coordinates":[14.35233,51.76521],"type":"Point"},"properties":{"osm_id":"1935602654","tag":{"amenity":"waste_disposal"}},"type":"Feature"},
	{"geometry":{"coordinates":[14.349264,51.765718],"type":"Point"},"properties":{"osm_id":"1935602661","tag":{"amenity":"recycling","leisure":"playground","recycling_type":"container"}},"type":"Feature"},
	{"geometry":{"coordinates":[14.351255,51.765816],"type":"Point"},"properties":{"osm_id":"1935602663","tag":{"amenity":"recycling","leisure":"playground","recycling_type":"container"}},"type":"Feature"},
	{"geometry":{"coordinates":[14.33117,51.748248],"type":"Point"},"properties":{"osm_id":"1973984536","tag":{"amenity":"recycling","recycling:glass_bottles":"yes","recycling:plastic_bottles":"yes","recycling_type":"container"}},"type":"Feature"},
	{"geometry":{"coordinates":[14.339722,51.742358],"type":"Point"},"properties":{"osm_id":"2184454287","tag":{"amenity":"waste_basket"}},"type":"Feature"},
	{"geometry":{"coordinates":[14.398919,51.734065],"type":"Point"},"properties":{"osm_id":"2240033556","tag":{"amenity":"recycling","recycling:glass":"yes","recycling:paper":"yes"}},"type":"Feature"},
	{"geometry":{"coordinates":[14.361475,51.738566],"type":"Point"},"properties":{"osm_id":"2496145319","tag":{"amenity":"waste_basket"}},"type":"Feature"},
	{"geometry":{"coordinates":[14.365387,51.740717],"type":"Point"},"properties":{"osm_id":"2496145325","tag":{"amenity":"waste_basket"}},"type":"Feature"},
	{"geometry":{"coordinates":[14.36635,51.741504],"type":"Point"},"properties":{"osm_id":"2496145327","tag":{"amenity":"waste_basket"}},"type":"Feature"},
	{"geometry":{"coordinates":[14.365626,51.742044],"type":"Point"},"properties":{"osm_id":"2496145329","tag":{"amenity":"waste_basket"}},"type":"Feature"},
	{"geometry":{"coordinates":[14.364558,51.742047],"type":"Point"},"properties":{"osm_id":"2496145330","tag":{"amenity":"waste_basket"}},"type":"Feature"},
	{"geometry":{"coordinates":[14.364724,51.742491],"type":"Point"},"properties":{"osm_id":"2496145333","tag":{"amenity":"waste_basket"}},"type":"Feature"},
	{"geometry":{"coordinates":[14.351601,51.752689],"type":"Point"},"properties":{"osm_id":"3164232197","tag":{"amenity":"waste_basket"}},"type":"Feature"},
	{"geometry":{"coordinates":[14.342425,51.757495],"type":"Point"},"properties":{"osm_id":"3164254579","tag":{"amenity":"waste_basket"}},"type":"Feature"},
	{"geometry":{"coordinates":[14.342396,51.756519],"type":"Point"},"properties":{"osm_id":"3164254581","tag":{"amenity":"waste_basket"}},"type":"Feature"},
	{"geometry":{"coordinates":[14.349155,51.767496],"type":"Point"},"properties":{"osm_id":"3164254584","tag":{"amenity":"waste_basket"}},"type":"Feature"},
	{"geometry":{"coordinates":[14.355529,51.771961],"type":"Point"},"properties":{"osm_id":"3164254592","tag":{"amenity":"waste_basket"}},"type":"Feature"},
	{"geometry":{"coordinates":[14.350843,51.766953],"type":"Point"},"properties":{"osm_id":"3164254595","tag":{"amenity":"waste_basket"}},"type":"Feature"},
	{"geometry":{"coordinates":[14.346988,51.766588],"type":"Point"},"properties":{"osm_id":"3164254602","tag":{"amenity":"waste_basket"}},"type":"Feature"},
	{"geometry":{"coordinates":[14.345239,51.766906],"type":"Point"},"properties":{"osm_id":"3164254607","tag":{"amenity":"waste_basket"}},"type":"Feature"},
	{"geometry":{"coordinates":[14.340894,51.766988],"type":"Point"},"properties":{"osm_id":"3164254610","tag":{"amenity":"waste_basket"}},"type":"Feature"},
	{"geometry":{"coordinates":[14.339317,51.766002],"type":"Point"},"properties":{"osm_id":"3164254613","tag":{"amenity":"waste_basket"}},"type":"Feature"},
	{"geometry":{"coordinates":[14.339974,51.764548],"type":"Point"},"properties":{"osm_id":"3164254617","tag":{"amenity":"waste_basket"}},"type":"Feature"},
	{"geometry":{"coordinates":[14.34167,51.763333],"type":"Point"},"properties":{"osm_id":"3164254620","tag":{"amenity":"waste_basket"}},"type":"Feature"},
	{"geometry":{"coordinates":[14.341691,51.762911],"type":"Point"},"properties":{"osm_id":"3164254623","tag":{"amenity":"waste_basket"}},"type":"Feature"},
	{"geometry":{"coordinates":[14.341726,51.762803],"type":"Point"},"properties":{"osm_id":"3164254627","tag":{"amenity":"waste_basket"}},"type":"Feature"},
	{"geometry":{"coordinates":[14.342087,51.760809],"type":"Point"},"properties":{"osm_id":"3164254630","tag":{"amenity":"waste_basket"}},"type":"Feature"},
	{"geometry":{"coordinates":[14.341972,51.761604],"type":"Point"},"properties":{"osm_id":"3164254632","tag":{"amenity":"waste_basket"}},"type":"Feature"},
	{"geometry":{"coordinates":[14.341944,51.762493],"type":"Point"},"properties":{"osm_id":"3164254634","tag":{"amenity":"waste_basket"}},"type":"Feature"},
	{"geometry":{"coordinates":[14.342476,51.758128],"type":"Point"},"properties":{"osm_id":"3164254635","tag":{"amenity":"waste_basket"}},"type":"Feature"},
	{"geometry":{"coordinates":[14.342399,51.758573],"type":"Point"},"properties":{"osm_id":"3164254637","tag":{"amenity":"waste_basket"}},"type":"Feature"},
	{"geometry":{"coordinates":[14.342122,51.759933],"type":"Point"},"properties":{"osm_id":"3164254638","tag":{"amenity":"waste_basket"}},"type":"Feature"},
	{"geometry":{"coordinates":[14.342484,51.757497],"type":"Point"},"properties":{"osm_id":"3164254641","tag":{"amenity":"waste_basket"}},"type":"Feature"},
	{"geometry":{"coordinates":[14.345306,51.736129],"type":"Point"},"properties":{"osm_id":"3166128796","tag":{"amenity":"waste_basket"}},"type":"Feature"},
	{"geometry":{"coordinates":[14.350646,51.730714],"type":"Point"},"properties":{"osm_id":"3166128804","tag":{"amenity":"waste_basket"}},"type":"Feature"},
	{"geometry":{"coordinates":[14.342986,51.755321],"type":"Point"},"properties":{"osm_id":"3166128811","tag":{"amenity":"waste_basket"}},"type":"Feature"},
	{"geometry":{"coordinates":[14.345926,51.7524],"type":"Point"},"properties":{"osm_id":"3166128814","tag":{"amenity":"waste_basket"}},"type":"Feature"},
	{"geometry":{"coordinates":[14.345856,51.750729],"type":"Point"},"properties":{"osm_id":"3166128815","tag":{"amenity":"waste_basket"}},"type":"Feature"},
	{"geometry":{"coordinates":[14.346339,51.734421],"type":"Point"},"properties":{"osm_id":"3166128816","tag":{"amenity":"waste_basket"}},"type":"Feature"},
	{"geometry":{"coordinates":[14.359219,51.743164],"type":"Point"},"properties":{"osm_id":"3166128817","tag":{"amenity":"waste_basket"}},"type":"Feature"},
	{"geometry":{"coordinates":[14.346365,51.752221],"type":"Point"},"properties":{"osm_id":"3166128818","tag":{"amenity":"waste_basket"}},"type":"Feature"},
	{"geometry":{"coordinates":[14.342589,51.756047],"type":"Point"},"properties":{"osm_id":"3166128819","tag":{"amenity":"waste_basket"}},"type":"Feature"},
	{"geometry":{"coordinates":[14.343711,51.745549],"type":"Point"},"properties":{"osm_id":"3166128821","tag":{"amenity":"waste_basket"}},"type":"Feature"},
	{"geometry":{"coordinates":[14.346894,51.751177],"type":"Point"},"properties":{"osm_id":"3166128830","tag":{"amenity":"waste_basket"}},"type":"Feature"},
	{"geometry":{"coordinates":[14.362253,51.743916],"type":"Point"},"properties":{"osm_id":"3166128831","tag":{"amenity":"waste_basket"}},"type":"Feature"},
	{"geometry":{"coordinates":[14.346831,51.751055],"type":"Point"},"properties":{"osm_id":"3166128836","tag":{"amenity":"waste_basket"}},"type":"Feature"},
	{"geometry":{"coordinates":[14.356306,51.742867],"type":"Point"},"properties":{"osm_id":"3166128839","tag":{"amenity":"waste_basket"}},"type":"Feature"},
	{"geometry":{"coordinates":[14.343571,51.754247],"type":"Point"},"properties":{"osm_id":"3166128840","tag":{"amenity":"waste_basket"}},"type":"Feature"},
	{"geometry":{"coordinates":[14.363798,51.744714],"type":"Point"},"properties":{"osm_id":"3166128845","tag":{"amenity":"waste_basket"}},"type":"Feature"},
	{"geometry":{"coordinates":[14.343687,51.739077],"type":"Point"},"properties":{"osm_id":"3166128849","tag":{"amenity":"waste_basket"}},"type":"Feature"},
	{"geometry":{"coordinates":[14.349174,51.731546],"type":"Point"},"properties":{"osm_id":"3166128850","tag":{"amenity":"waste_basket"}},"type":"Feature"},
	{"geometry":{"coordinates":[14.331927,51.734195],"type":"Point"},"properties":{"osm_id":"4293138770","tag":{"addr:city":"Cottbus","addr:housenumber":"12","addr:postcode":"03050","addr:street":"Hardenbergstra\u00c3\u009fe","amenity":"recycling","recycling:cans":"yes","recycling:glass_bottles":"yes","recycling:paper":"yes","recycling:plastic":"yes"}},"type":"Feature"},
	{"geometry":{"coordinates":[14.333706,51.734034],"type":"Point"},"properties":{"osm_id":"4293138771","tag":{"addr:city":"Cottbus","addr:postcode":"03050","addr:street":"Hardenbergstra\u00c3\u009fe","amenity":"recycling","recycling:clothes":"yes"}},"type":"Feature"},
	{"geometry":{"coordinates":[14.331578,51.740816],"type":"Point"},"properties":{"osm_id":"4293138772","tag":{"amenity":"recycling","recycling:cans":"yes","recycling:glass_bottles":"yes","recycling:paper":"yes","recycling:plastic":"yes","recycling:plastic_packaging":"yes","recycling_type":"container"}},"type":"Feature"},
	{"geometry":{"coordinates":[14.328134,51.755384],"type":"Point"},"properties":{"osm_id":"4355017489","tag":{"amenity":"waste_basket"}},"type":"Feature"},
	{"geometry":{"coordinates":[14.353818,51.742723],"type":"Point"},"properties":{"osm_id":"4394528191","tag":{"amenity":"waste_basket"}},"type":"Feature"},
	{"geometry":{"coordinates":[14.352948,51.742542],"type":"Point"},"properties":{"osm_id":"4394528192","tag":{"amenity":"waste_basket"}},"type":"Feature"},
	{"geometry":{"coordinates":[14.35365,51.742564],"type":"Point"},"properties":{"osm_id":"4394560090","tag":{"amenity":"waste_basket"}},"type":"Feature"},
	{"geometry":{"coordinates":[14.349748,51.74264],"type":"Point"},"properties":{"osm_id":"4394561608","tag":{"amenity":"waste_basket"}},"type":"Feature"},
	{"geometry":{"coordinates":[14.350275,51.742618],"type":"Point"},"properties":{"osm_id":"4394564600","tag":{"amenity":"waste_basket"}},"type":"Feature"},
	{"geometry":{"coordinates":[14.352459,51.742515],"type":"Point"},"properties":{"osm_id":"4394576190","tag":{"amenity":"waste_basket"}},"type":"Feature"},
	{"geometry":{"coordinates":[14.348595,51.742428],"type":"Point"},"properties":{"osm_id":"4397221800","tag":{"amenity":"waste_basket"}},"type":"Feature"},
	{"geometry":{"coordinates":[14.349158,51.74253],"type":"Point"},"properties":{"osm_id":"4397281595","tag":{"amenity":"waste_basket"}},"type":"Feature"},
	{"geometry":{"coordinates":[14.347783,51.742124],"type":"Point"},"properties":{"osm_id":"4397367992","tag":{"amenity":"waste_basket"}},"type":"Feature"},
	{"geometry":{"coordinates":[14.34965,51.74331],"type":"Point"},"properties":{"osm_id":"4397367993","tag":{"amenity":"waste_basket"}},"type":"Feature"},
	{"geometry":{"coordinates":[14.349078,51.743707],"type":"Point"},"properties":{"osm_id":"4397379591","tag":{"amenity":"waste_basket"}},"type":"Feature"},
	{"geometry":{"coordinates":[14.349717,51.74331],"type":"Point"},"properties":{"osm_id":"4397397690","tag":{"amenity":"waste_basket"}},"type":"Feature"},
	{"geometry":{"coordinates":[14.331518,51.756226],"type":"Point"},"properties":{"osm_id":"4973640203","tag":{"amenity":"recycling","recycling:glass_bottles":"yes","recycling_type":"container"}},"type":"Feature"},
	{"geometry":{"coordinates":[14.375917,51.774156],"type":"Point"},"properties":{"osm_id":"5553711421","tag":{"amenity":"waste_basket"}},"type":"Feature"},
	{"geometry":{"coordinates":[14.348016,51.757663],"type":"Point"},"properties":{"osm_id":"6673767148","tag":{"amenity":"waste_disposal"}},"type":"Feature"},
	{"geometry":{"coordinates":[14.347915,51.757452],"type":"Point"},"properties":{"osm_id":"6673767149","tag":{"amenity":"waste_disposal"}},"type":"Feature"},
	{"geometry":{"coordinates":[14.35025,51.762697],"type":"Point"},"properties":{"osm_id":"7235810536","tag":{"amenity":"recycling","recycling:glass_bottles":"yes","recycling_type":"container"}},"type":"Feature"},
	{"geometry":{"coordinates":[14.355026,51.761706],"type":"Point"},"properties":{"osm_id":"7369777496","tag":{"amenity":"waste_disposal"}},"type":"Feature"},
	{"geometry":{"coordinates":[14.354233,51.761716],"type":"Point"},"properties":{"osm_id":"7369777497","tag":{"amenity":"waste_disposal"}},"type":"Feature"},
	{"geometry":{"coordinates":[14.353936,51.760591],"type":"Point"},"properties":{"osm_id":"7370252487","tag":{"amenity":"waste_disposal"}},"type":"Feature"},
	{"geometry":{"coordinates":[14.35123,51.761113],"type":"Point"},"properties":{"osm_id":"7370252609","tag":{"amenity":"waste_disposal"}},"type":"Feature"},
	{"geometry":{"coordinates":[14.34651,51.76474],"type":"Point"},"properties":{"osm_id":"7370252678","tag":{"amenity":"waste_disposal"}},"type":"Feature"},
	{"geometry":{"coordinates":[14.344111,51.764666],"type":"Point"},"properties":{"osm_id":"7370252683","tag":{"amenity":"waste_disposal"}},"type":"Feature"},
	{"geometry":{"coordinates":[14.349493,51.764527],"type":"Point"},"properties":{"osm_id":"7370252684","tag":{"amenity":"waste_disposal"}},"type":"Feature"},
	{"geometry":{"coordinates":[14.349598,51.765443],"type":"Point"},"properties":{"osm_id":"7370252697","tag":{"amenity":"waste_disposal"}},"type":"Feature"},
	{"geometry":{"coordinates":[14.349118,51.763573],"type":"Point"},"properties":{"osm_id":"7370252698","tag":{"amenity":"waste_disposal"}},"type":"Feature"},
	{"geometry":{"coordinates":[14.349115,51.763614],"type":"Point"},"properties":{"osm_id":"7370252699","tag":{"amenity":"waste_disposal"}},"type":"Feature"},
	{"geometry":{"coordinates":[14.350378,51.764193],"type":"Point"},"properties":{"osm_id":"7370252700","tag":{"amenity":"waste_disposal"}},"type":"Feature"},
	{"geometry":{"coordinates":[14.350732,51.761911],"type":"Point"},"properties":{"osm_id":"7370259159","tag":{"amenity":"waste_disposal"}},"type":"Feature"},
	{"geometry":{"coordinates":[14.349285,51.758146],"type":"Point"},"properties":{"osm_id":"7370300796","tag":{"amenity":"waste_disposal"}},"type":"Feature"},
	{"geometry":{"coordinates":[14.349906,51.75837],"type":"Point"},"properties":{"osm_id":"7370300797","tag":{"amenity":"waste_disposal"}},"type":"Feature"},
	{"geometry":{"coordinates":[14.356915,51.761005],"type":"Point"},"properties":{"osm_id":"7370300834","tag":{"amenity":"waste_disposal"}},"type":"Feature"},
	{"geometry":{"coordinates":[14.356119,51.761002],"type":"Point"},"properties":{"osm_id":"7370300835","tag":{"amenity":"waste_disposal"}},"type":"Feature"},
	{"geometry":{"coordinates":[14.355322,51.760985],"type":"Point"},"properties":{"osm_id":"7370300836","tag":{"amenity":"waste_disposal"}},"type":"Feature"},
	{"geometry":{"coordinates":[14.356199,51.760338],"type":"Point"},"properties":{"osm_id":"7370300845","tag":{"amenity":"waste_disposal"}},"type":"Feature"},
	{"geometry":{"coordinates":[14.349823,51.757255],"type":"Point"},"properties":{"osm_id":"7376487931","tag":{"amenity":"waste_disposal"}},"type":"Feature"},
	{"geometry":{"coordinates":[14.347637,51.756048],"type":"Point"},"properties":{"osm_id":"7476341702","tag":{"amenity":"waste_disposal","waste":"trash"}},"type":"Feature"},
	{"geometry":{"coordinates":[14.348952,51.756254],"type":"Point"},"properties":{"osm_id":"7476341703","tag":{"amenity":"waste_disposal","waste":"trash"}},"type":"Feature"},
	{"geometry":{"coordinates":[14.344697,51.757993],"type":"Point"},"properties":{"osm_id":"7496936118","tag":{"amenity":"waste_disposal","waste":"trash"}},"type":"Feature"},
	{"geometry":{"coordinates":[14.34421,51.758611],"type":"Point"},"properties":{"osm_id":"7496936119","tag":{"amenity":"waste_disposal","waste":"trash"}},"type":"Feature"},
	{"geometry":{"coordinates":[14.343417,51.758817],"type":"Point"},"properties":{"osm_id":"7496936120","tag":{"amenity":"waste_disposal","waste":"trash"}},"type":"Feature"},
	{"geometry":{"coordinates":[14.349796,51.755231],"type":"Point"},"properties":{"osm_id":"7500493224","tag":{"amenity":"waste_disposal","waste":"trash"}},"type":"Feature"},
	{"geometry":{"coordinates":[14.349413,51.756459],"type":"Point"},"properties":{"osm_id":"7500493244","tag":{"amenity":"recycling","recycling:glass_bottles":"yes","recycling_type":"container"}},"type":"Feature"},
	{"geometry":{"coordinates":[14.347938,51.757427],"type":"Point"},"properties":{"osm_id":"7513591926","tag":{"amenity":"recycling","recycling:paper":"yes","recycling:plastic":"yes","recycling_type":"container"}},"type":"Feature"},
	{"geometry":{"coordinates":[14.348062,51.757681],"type":"Point"},"properties":{"osm_id":"7513591928","tag":{"amenity":"recycling","recycling:paper":"yes","recycling:plastic":"yes","recycling_type":"container"}},"type":"Feature"},
	{"geometry":{"coordinates":[14.349947,51.758387],"type":"Point"},"properties":{"osm_id":"7513591929","tag":{"amenity":"recycling","recycling:paper":"yes","recycling:plastic":"yes","recycling_type":"container"}},"type":"Feature"},
	{"geometry":{"coordinates":[14.349329,51.758159],"type":"Point"},"properties":{"osm_id":"7513591930","tag":{"amenity":"recycling","recycling:paper":"yes","recycling:plastic":"yes","recycling_type":"container"}},"type":"Feature"},
	{"geometry":{"coordinates":[14.350217,51.756824],"type":"Point"},"properties":{"osm_id":"7513591931","tag":{"amenity":"waste_disposal"}},"type":"Feature"},
	{"geometry":{"coordinates":[14.350242,51.756795],"type":"Point"},"properties":{"osm_id":"7513591932","tag":{"amenity":"recycling","recycling:paper":"yes","recycling:plastic":"yes","recycling_type":"container"}},"type":"Feature"},
	{"geometry":{"coordinates":[14.349457,51.757574],"type":"Point"},"properties":{"osm_id":"7513591933","tag":{"amenity":"waste_disposal"}},"type":"Feature"},
	{"geometry":{"coordinates":[14.349482,51.757544],"type":"Point"},"properties":{"osm_id":"7513591934","tag":{"amenity":"recycling","recycling:paper":"yes","recycling:plastic":"yes","recycling_type":"container"}},"type":"Feature"},
	{"geometry":{"coordinates":[14.349849,51.757225],"type":"Point"},"properties":{"osm_id":"7513591935","tag":{"amenity":"recycling","recycling:paper":"yes","recycling:plastic":"yes","recycling_type":"container"}},"type":"Feature"},
	{"geometry":{"coordinates":[14.348921,51.756244],"type":"Point"},"properties":{"osm_id":"7513591936","tag":{"amenity":"recycling","recycling:paper":"yes","recycling:plastic":"yes","recycling_type":"container"}},"type":"Feature"},
	{"geometry":{"coordinates":[14.34661,51.757794],"type":"Point"},"properties":{"osm_id":"7517261073","tag":{"amenity":"recycling","recycling:glass_bottles":"yes","recycling:paper":"yes","recycling:plastic":"yes","recycling_type":"container"}},"type":"Feature"},
	{"geometry":{"coordinates":[14.337952,51.757103],"type":"Point"},"properties":{"osm_id":"7549387829","tag":{"amenity":"recycling","recycling:paper":"yes","recycling:plastic_packaging":"yes","recycling_type":"container"}},"type":"Feature"},
	{"geometry":{"coordinates":[14.337964,51.757082],"type":"Point"},"properties":{"osm_id":"7549387830","tag":{"amenity":"waste_disposal","waste":"trash"}},"type":"Feature"},
	{"geometry":{"coordinates":[14.337877,51.757169],"type":"Point"},"properties":{"osm_id":"7549387839","tag":{"amenity":"waste_basket","waste":"trash"}},"type":"Feature"},
	{"geometry":{"coordinates":[14.32982,51.757265],"type":"Point"},"properties":{"osm_id":"7596071027","tag":{"amenity":"waste_basket","waste":"trash"}},"type":"Feature"},
	{"geometry":{"coordinates":[14.331094,51.754686],"type":"Point"},"properties":{"osm_id":"7619428759","tag":{"amenity":"waste_basket","waste":"trash"}},"type":"Feature"},
	{"geometry":{"coordinates":[14.343877,51.750265],"type":"Point"},"properties":{"osm_id":"7630035841","tag":{"amenity":"waste_basket","waste":"trash"}},"type":"Feature"},
	{"geometry":{"coordinates":[14.342026,51.750624],"type":"Point"},"properties":{"osm_id":"7630035960","tag":{"amenity":"waste_basket","waste":"trash"}},"type":"Feature"},
	{"geometry":{"coordinates":[14.340255,51.75011],"type":"Point"},"properties":{"osm_id":"7630036071","tag":{"amenity":"waste_basket","waste":"trash"}},"type":"Feature"},
	{"geometry":{"coordinates":[14.335181,51.743208],"type":"Point"},"properties":{"osm_id":"7660953947","tag":{"amenity":"waste_disposal","waste":"trash"}},"type":"Feature"},
	{"geometry":{"coordinates":[14.335193,51.743236],"type":"Point"},"properties":{"osm_id":"7660953948","tag":{"amenity":"recycling","recycling:paper":"yes","recycling:plastic":"yes","recycling_type":"container"}},"type":"Feature"},
	{"geometry":{"coordinates":[14.335306,51.745007],"type":"Point"},"properties":{"osm_id":"7660954046","tag":{"amenity":"waste_basket","waste":"trash"}},"type":"Feature"},
	{"geometry":{"coordinates":[14.348889,51.756351],"type":"Point"},"properties":{"osm_id":"7677660479","tag":{"amenity":"waste_basket","waste":"trash"}},"type":"Feature"},
	{"geometry":{"coordinates":[14.331129,51.74825],"type":"Point"},"properties":{"osm_id":"7781683178","tag":{"amenity":"waste_disposal","waste":"trash"}},"type":"Feature"},
	{"geometry":{"coordinates":[14.331493,51.74877],"type":"Point"},"properties":{"osm_id":"7781706516","tag":{"amenity":"waste_basket","waste":"trash"}},"type":"Feature"},
	{"geometry":{"coordinates":[14.330433,51.747621],"type":"Point"},"properties":{"osm_id":"7781706727","tag":{"amenity":"waste_basket","waste":"trash"}},"type":"Feature"},
	{"geometry":{"coordinates":[14.32967,51.747728],"type":"Point"},"properties":{"osm_id":"7781706737","tag":{"amenity":"waste_basket","waste":"trash"}},"type":"Feature"},
	{"geometry":{"coordinates":[14.329627,51.747564],"type":"Point"},"properties":{"osm_id":"7781706762","tag":{"amenity":"waste_basket","waste":"trash"}},"type":"Feature"},
	{"geometry":{"coordinates":[14.329193,51.747552],"type":"Point"},"properties":{"osm_id":"7781706770","tag":{"amenity":"waste_basket","waste":"trash"}},"type":"Feature"},
	{"geometry":{"coordinates":[14.32894,51.747113],"type":"Point"},"properties":{"osm_id":"7781706856","tag":{"amenity":"waste_basket","waste":"trash"}},"type":"Feature"},
	{"geometry":{"coordinates":[14.329017,51.746424],"type":"Point"},"properties":{"osm_id":"7781706934","tag":{"amenity":"waste_basket","waste":"trash"}},"type":"Feature"},
	{"geometry":{"coordinates":[14.329202,51.745712],"type":"Point"},"properties":{"osm_id":"7781707031","tag":{"amenity":"recycling","recycling:glass":"yes","recycling_type":"container","wheelchair":"yes"}},"type":"Feature"},
	{"geometry":{"coordinates":[14.35138,51.752837],"type":"Point"},"properties":{"osm_id":"7801035428","tag":{"amenity":"waste_basket"}},"type":"Feature"},
	{"geometry":{"coordinates":[14.343185,51.750345],"type":"Point"},"properties":{"osm_id":"7801094560","tag":{"amenity":"waste_basket","waste":"trash"}},"type":"Feature"},
	{"geometry":{"coordinates":[14.337174,51.749079],"type":"Point"},"properties":{"osm_id":"7801094561","tag":{"amenity":"waste_basket","waste":"trash"}},"type":"Feature"},
	{"geometry":{"coordinates":[14.34096,51.749679],"type":"Point"},"properties":{"osm_id":"7801094562","tag":{"amenity":"waste_basket","waste":"trash"}},"type":"Feature"},
	{"geometry":{"coordinates":[14.342624,51.750025],"type":"Point"},"properties":{"osm_id":"7801094563","tag":{"amenity":"waste_basket","waste":"trash"}},"type":"Feature"},
	{"geometry":{"coordinates":[14.346801,51.751522],"type":"Point"},"properties":{"osm_id":"7801094719","tag":{"amenity":"waste_basket"}},"type":"Feature"},
	{"geometry":{"coordinates":[14.346662,51.751746],"type":"Point"},"properties":{"osm_id":"7801094720","tag":{"amenity":"waste_basket"}},"type":"Feature"},
	{"geometry":{"coordinates":[14.346475,51.752039],"type":"Point"},"properties":{"osm_id":"7801094747","tag":{"amenity":"waste_basket"}},"type":"Feature"},
	{"geometry":{"coordinates":[14.345631,51.752762],"type":"Point"},"properties":{"osm_id":"7801094769","tag":{"amenity":"waste_disposal","waste":"trash"}},"type":"Feature"},
	{"geometry":{"coordinates":[14.34559,51.752767],"type":"Point"},"properties":{"osm_id":"7801094786","tag":{"amenity":"recycling","recycling:glass_bottles":"yes","recycling_type":"container"}},"type":"Feature"},
	{"geometry":{"coordinates":[14.347515,51.752698],"type":"Point"},"properties":{"osm_id":"7801094816","tag":{"amenity":"waste_basket","waste":"trash"}},"type":"Feature"},
	{"geometry":{"coordinates":[14.348163,51.752668],"type":"Point"},"properties":{"osm_id":"7801094820","tag":{"amenity":"waste_basket","waste":"trash"}},"type":"Feature"},
	{"geometry":{"coordinates":[14.348986,51.752783],"type":"Point"},"properties":{"osm_id":"7801094825","tag":{"amenity":"waste_basket","waste":"trash"}},"type":"Feature"},
	{"geometry":{"coordinates":[14.350176,51.752715],"type":"Point"},"properties":{"osm_id":"7801094836","tag":{"amenity":"waste_basket","waste":"trash"}},"type":"Feature"},
	{"geometry":{"coordinates":[14.351256,51.752444],"type":"Point"},"properties":{"osm_id":"7801468857","tag":{"amenity":"waste_basket","waste":"trash"}},"type":"Feature"},
	{"geometry":{"coordinates":[14.347872,51.751506],"type":"Point"},"properties":{"osm_id":"7806717277","tag":{"amenity":"waste_basket","waste":"trash"}},"type":"Feature"},
	{"geometry":{"coordinates":[14.34844,51.751788],"type":"Point"},"properties":{"osm_id":"7806717278","tag":{"amenity":"waste_basket","waste":"trash"}},"type":"Feature"},
	{"geometry":{"coordinates":[14.348567,51.752363],"type":"Point"},"properties":{"osm_id":"7806717280","tag":{"amenity":"waste_basket","waste":"trash"}},"type":"Feature"},
	{"geometry":{"coordinates":[14.348779,51.752554],"type":"Point"},"properties":{"osm_id":"7806717281","tag":{"amenity":"waste_basket","waste":"trash"}},"type":"Feature"},
	{"geometry":{"coordinates":[14.338199,51.753526],"type":"Point"},"properties":{"osm_id":"7807327915","tag":{"amenity":"waste_disposal","waste":"trash"}},"type":"Feature"},
	{"geometry":{"coordinates":[14.34016,51.754225],"type":"Point"},"properties":{"osm_id":"7807328122","tag":{"amenity":"waste_disposal","waste":"trash"}},"type":"Feature"},
	{"geometry":{"coordinates":[14.339446,51.754212],"type":"Point"},"properties":{"osm_id":"7807328123","tag":{"amenity":"waste_disposal","waste":"trash"}},"type":"Feature"},
	{"geometry":{"coordinates":[14.339214,51.754248],"type":"Point"},"properties":{"osm_id":"7807328214","tag":{"amenity":"recycling","recycling:clothes":"yes","recycling_type":"container","wheelchair":"yes"}},"type":"Feature"},
	{"geometry":{"coordinates":[14.33882,51.754237],"type":"Point"},"properties":{"osm_id":"7807328215","tag":{"amenity":"recycling","recycling:glass_bottles":"yes","recycling_type":"container","wheelchair":"yes"}},"type":"Feature"},
	{"geometry":{"coordinates":[14.341412,51.772794],"type":"Point"},"properties":{"osm_id":"7833030058","tag":{"amenity":"waste_disposal","waste":"trash"}},"type":"Feature"},
	{"geometry":{"coordinates":[14.328712,51.756043],"type":"Point"},"properties":{"osm_id":"7875491779","tag":{"amenity":"waste_disposal","waste":"trash"}},"type":"Feature"},
	{"geometry":{"coordinates":[14.328925,51.756356],"type":"Point"},"properties":{"osm_id":"7875500894","tag":{"amenity":"waste_disposal","waste":"trash"}},"type":"Feature"},
	{"geometry":{"coordinates":[14.328874,51.756101],"type":"Point"},"properties":{"osm_id":"7875500904","tag":{"amenity":"waste_disposal","waste":"trash"}},"type":"Feature"},
	{"geometry":{"coordinates":[14.349373,51.760339],"type":"Point"},"properties":{"osm_id":"7884022761","tag":{"amenity":"waste_basket","waste":"trash"}},"type":"Feature"},
	{"geometry":{"coordinates":[14.349235,51.761901],"type":"Point"},"properties":{"osm_id":"7884031359","tag":{"amenity":"waste_basket","waste":"trash"}},"type":"Feature"},
	{"geometry":{"coordinates":[14.327457,51.750504],"type":"Point"},"properties":{"osm_id":"7888065097","tag":{"amenity":"waste_basket","waste":"trash"}},"type":"Feature"},
	{"geometry":{"coordinates":[14.327752,51.746045],"type":"Point"},"properties":{"osm_id":"7891069389","tag":{"amenity":"waste_basket","waste":"trash"}},"type":"Feature"},
	{"geometry":{"coordinates":[14.346414,51.76397],"type":"Point"},"properties":{"osm_id":"7893649186","tag":{"amenity":"recycling","recycling:paper":"yes","recycling:plastic_bottles":"yes","recycling_type":"container"}},"type":"Feature"},
	{"geometry":{"coordinates":[14.346359,51.76397],"type":"Point"},"properties":{"osm_id":"7893649187","tag":{"amenity":"waste_disposal","waste":"trash"}},"type":"Feature"},
	{"geometry":{"coordinates":[14.345196,51.763901],"type":"Point"},"properties":{"osm_id":"7893649188","tag":{"amenity":"recycling","recycling:paper":"yes","recycling:plastic_bottles":"yes","recycling_type":"container"}},"type":"Feature"},
	{"geometry":{"coordinates":[14.345193,51.763923],"type":"Point"},"properties":{"osm_id":"7893649189","tag":{"amenity":"waste_disposal","waste":"trash"}},"type":"Feature"},
	{"geometry":{"coordinates":[14.34437,51.763964],"type":"Point"},"properties":{"osm_id":"7893649271","tag":{"amenity":"waste_disposal","waste":"trash"}},"type":"Feature"},
	{"geometry":{"coordinates":[14.344373,51.763941],"type":"Point"},"properties":{"osm_id":"7893649272","tag":{"amenity":"recycling","recycling:paper":"yes","recycling:plastic_bottles":"yes","recycling_type":"container"}},"type":"Feature"},
	{"geometry":{"coordinates":[14.346317,51.763248],"type":"Point"},"properties":{"osm_id":"7893649395","tag":{"amenity":"recycling","recycling:paper":"yes","recycling:plastic_bottles":"yes","recycling_type":"container"}},"type":"Feature"},
	{"geometry":{"coordinates":[14.346379,51.763249],"type":"Point"},"properties":{"osm_id":"7893649396","tag":{"amenity":"waste_disposal","waste":"trash"}},"type":"Feature"},
	{"geometry":{"coordinates":[14.345142,51.763129],"type":"Point"},"properties":{"osm_id":"7893649421","tag":{"amenity":"recycling","recycling:paper":"yes","recycling:plastic_bottles":"yes","recycling_type":"container"}},"type":"Feature"},
	{"geometry":{"coordinates":[14.345135,51.763145],"type":"Point"},"properties":{"osm_id":"7893649422","tag":{"amenity":"waste_disposal","waste":"trash"}},"type":"Feature"},
	{"geometry":{"coordinates":[14.344127,51.763307],"type":"Point"},"properties":{"osm_id":"7893649495","tag":{"amenity":"recycling","recycling:paper":"yes","recycling:plastic_bottles":"yes","recycling_type":"container"}},"type":"Feature"},
	{"geometry":{"coordinates":[14.344125,51.76333],"type":"Point"},"properties":{"osm_id":"7893649496","tag":{"amenity":"waste_disposal","waste":"trash"}},"type":"Feature"},
	{"geometry":{"coordinates":[14.345266,51.763397],"type":"Point"},"properties":{"osm_id":"7894329603","tag":{"amenity":"waste_disposal","waste":"trash"}},"type":"Feature"},
	{"geometry":{"coordinates":[14.345269,51.76338],"type":"Point"},"properties":{"osm_id":"7894329604","tag":{"amenity":"recycling","recycling:paper":"yes","recycling:plastic_bottles":"yes","recycling_type":"container"}},"type":"Feature"},
	{"geometry":{"coordinates":[14.328129,51.747362],"type":"Point"},"properties":{"osm_id":"7902898832","tag":{"amenity":"waste_basket","waste":"trash"}},"type":"Feature"},
	{"geometry":{"coordinates":[14.327803,51.74537],"type":"Point"},"properties":{"osm_id":"7902900006","tag":{"amenity":"recycling","recycling:paper":"yes","recycling:plastic_packaging":"yes","recycling_type":"container"}},"type":"Feature"},
	{"geometry":{"coordinates":[14.327342,51.744727],"type":"Point"},"properties":{"osm_id":"7902900040","tag":{"amenity":"waste_disposal","waste":"trash"}},"type":"Feature"},
	{"geometry":{"coordinates":[14.330925,51.746298],"type":"Point"},"properties":{"osm_id":"7904912188","tag":{"amenity":"waste_disposal","waste":"trash"}},"type":"Feature"},
	{"geometry":{"coordinates":[14.330974,51.74629],"type":"Point"},"properties":{"osm_id":"7904912189","tag":{"amenity":"recycling","recycling:plastic_packaging":"yes","recycling_type":"container"}},"type":"Feature"},
	{"geometry":{"coordinates":[14.330882,51.746305],"type":"Point"},"properties":{"osm_id":"7904912190","tag":{"amenity":"recycling","recycling:paper":"yes","recycling_type":"container"}},"type":"Feature"},
	{"geometry":{"coordinates":[14.332389,51.743054],"type":"Point"},"properties":{"osm_id":"7905994217","tag":{"amenity":"waste_disposal","waste":"trash"}},"type":"Feature"},
	{"geometry":{"coordinates":[14.332708,51.742515],"type":"Point"},"properties":{"osm_id":"7905994218","tag":{"amenity":"recycling","recycling:clothes":"yes","recycling_type":"container"}},"type":"Feature"},
	{"geometry":{"coordinates":[14.332759,51.742426],"type":"Point"},"properties":{"osm_id":"7905994219","tag":{"amenity":"recycling","recycling:glass":"yes","recycling_type":"container"}},"type":"Feature"},
	{"geometry":{"coordinates":[14.332726,51.742485],"type":"Point"},"properties":{"osm_id":"7905994262","tag":{"amenity":"recycling","recycling:plastic_packaging":"yes","recycling_type":"container"}},"type":"Feature"},
	{"geometry":{"coordinates":[14.332743,51.742456],"type":"Point"},"properties":{"osm_id":"7905994263","tag":{"amenity":"recycling","recycling:paper":"yes","recycling_type":"container"}},"type":"Feature"},
	{"geometry":{"coordinates":[14.332649,51.74262],"type":"Point"},"properties":{"osm_id":"7905994264","tag":{"amenity":"waste_disposal","waste":"trash"}},"type":"Feature"},
	{"geometry":{"coordinates":[14.330191,51.742441],"type":"Point"},"properties":{"osm_id":"7905994576","tag":{"amenity":"recycling","recycling:plastic_packaging":"yes","recycling_type":"container"}},"type":"Feature"},
	{"geometry":{"coordinates":[14.330181,51.742415],"type":"Point"},"properties":{"osm_id":"7905994577","tag":{"amenity":"recycling","recycling:paper":"yes","recycling_type":"container"}},"type":"Feature"},
	{"geometry":{"coordinates":[14.330172,51.742393],"type":"Point"},"properties":{"osm_id":"7905994578","tag":{"amenity":"waste_disposal","waste":"trash"}},"type":"Feature"},
	{"geometry":{"coordinates":[14.33032,51.7428],"type":"Point"},"properties":{"osm_id":"7905994579","tag":{"amenity":"waste_disposal","waste":"trash"}},"type":"Feature"},
	{"geometry":{"coordinates":[14.330329,51.742823],"type":"Point"},"properties":{"osm_id":"7905994580","tag":{"amenity":"recycling","recycling:paper":"yes","recycling_type":"container"}},"type":"Feature"},
	{"geometry":{"coordinates":[14.330338,51.742849],"type":"Point"},"properties":{"osm_id":"7905994581","tag":{"amenity":"recycling","recycling:plastic_packaging":"yes","recycling_type":"container"}},"type":"Feature"},
	{"geometry":{"coordinates":[14.330431,51.743118],"type":"Point"},"properties":{"osm_id":"7905994582","tag":{"amenity":"recycling","recycling:paper":"yes","recycling_type":"container"}},"type":"Feature"},
	{"geometry":{"coordinates":[14.330439,51.743141],"type":"Point"},"properties":{"osm_id":"7905994583","tag":{"amenity":"recycling","recycling:plastic_packaging":"yes","recycling_type":"container"}},"type":"Feature"},
	{"geometry":{"coordinates":[14.330429,51.74309],"type":"Point"},"properties":{"osm_id":"7905994584","tag":{"amenity":"waste_disposal","waste":"trash"}},"type":"Feature"},
	{"geometry":{"coordinates":[14.339802,51.749543],"type":"Point"},"properties":{"osm_id":"7909290561","tag":{"amenity":"waste_basket","waste":"trash"}},"type":"Feature"},
	{"geometry":{"coordinates":[14.338984,51.747068],"type":"Point"},"properties":{"osm_id":"7909292477","tag":{"amenity":"waste_disposal","waste":"trash"}},"type":"Feature"},
	{"geometry":{"coordinates":[14.338986,51.747106],"type":"Point"},"properties":{"osm_id":"7909292478","tag":{"amenity":"recycling","recycling:plastic_packaging":"yes","recycling_type":"container"}},"type":"Feature"},
	{"geometry":{"coordinates":[14.338997,51.747088],"type":"Point"},"properties":{"osm_id":"7909292479","tag":{"amenity":"recycling","recycling:paper":"yes","recycling_type":"container"}},"type":"Feature"},
	{"geometry":{"coordinates":[14.33929,51.746244],"type":"Point"},"properties":{"osm_id":"7909292570","tag":{"amenity":"waste_disposal","waste":"trash"}},"type":"Feature"},
	{"geometry":{"coordinates":[14.33826,51.746121],"type":"Point"},"properties":{"osm_id":"7909292571","tag":{"amenity":"recycling","recycling:paper":"yes","recycling_type":"container"}},"type":"Feature"},
	{"geometry":{"coordinates":[14.338311,51.74611],"type":"Point"},"properties":{"osm_id":"7909292572","tag":{"amenity":"recycling","recycling:plastic_packaging":"yes","recycling_type":"container"}},"type":"Feature"},
	{"geometry":{"coordinates":[14.338292,51.746078],"type":"Point"},"properties":{"osm_id":"7909292573","tag":{"amenity":"waste_disposal","waste":"trash"}},"type":"Feature"},
	{"geometry":{"coordinates":[14.338937,51.745942],"type":"Point"},"properties":{"osm_id":"7909292574","tag":{"amenity":"recycling","recycling:glass":"yes","recycling_type":"container"}},"type":"Feature"},
	{"geometry":{"coordinates":[14.338898,51.745933],"type":"Point"},"properties":{"osm_id":"7909292575","tag":{"amenity":"waste_disposal","waste":"trash"}},"type":"Feature"},
	{"geometry":{"coordinates":[14.338261,51.745785],"type":"Point"},"properties":{"osm_id":"7909292576","tag":{"amenity":"waste_disposal","waste":"trash"}},"type":"Feature"},
	{"geometry":{"coordinates":[14.33701,51.745488],"type":"Point"},"properties":{"osm_id":"7909292600","tag":{"amenity":"recycling","recycling:clothes":"yes","recycling_type":"container"}},"type":"Feature"},
	{"geometry":{"coordinates":[14.336962,51.745477],"type":"Point"},"properties":{"osm_id":"7909292601","tag":{"amenity":"recycling","recycling:glass":"yes","recycling_type":"container"}},"type":"Feature"},
	{"geometry":{"coordinates":[14.334791,51.744904],"type":"Point"},"properties":{"osm_id":"7909292692","tag":{"amenity":"recycling","recycling:plastic_packaging":"yes","recycling_type":"container"}},"type":"Feature"},
	{"geometry":{"coordinates":[14.334776,51.744933],"type":"Point"},"properties":{"osm_id":"7909292693","tag":{"amenity":"waste_disposal","waste":"trash"}},"type":"Feature"},
	{"geometry":{"coordinates":[14.334754,51.744967],"type":"Point"},"properties":{"osm_id":"7909292706","tag":{"amenity":"recycling","recycling:clothes":"yes","recycling_type":"container"}},"type":"Feature"},
	{"geometry":{"coordinates":[14.333177,51.744906],"type":"Point"},"properties":{"osm_id":"7909292726","tag":{"amenity":"waste_disposal","waste":"trash"}},"type":"Feature"}
]
}
