{
"type": "FeatureCollection",
"lastupdate": "2020-08-01T00:00:00Z",
"features": [
	{"geometry":{"coordinates":[14.333401,50.991307],"type":"Point"},"properties":{"osm_id":"1470660914","tag":{"amenity":"recycling"}},"type":"Feature"},
	{"geometry":{"coordinates":[14.331338,50.993434],"type":"Point"},"properties":{"name":"Kontejner na pap\u00c3\u00adr a sklo","osm_id":"2795818884","tag":{"amenity":"recycling"}},"type":"Feature"},
	{"geometry":{"coordinates":[14.337438,50.989998],"type":"Point"},"properties":{"osm_id":"3407201860","tag":{"amenity":"waste_basket"}},"type":"Feature"},
	{"geometry":{"coordinates":[14.333074,50.991269],"type":"Point"},"properties":{"osm_id":"3407201882","tag":{"amenity":"waste_basket"}},"type":"Feature"},
	{"geometry":{"coordinates":[14.348309,50.977482],"type":"Point"},"properties":{"osm_id":"4173440653","tag":{"amenity":"recycling","recycling_type":"container"}},"type":"Feature"},
	{"geometry":{"coordinates":[14.375086,50.962228],"type":"Point"},"properties":{"osm_id":"4177300013","tag":{"amenity":"recycling","recycling_type":"container"}},"type":"Feature"},
	{"geometry":{"coordinates":[14.347306,51.003696],"type":"Point"},"properties":{"osm_id":"6010662994","tag":{"amenity":"recycling","recycling_type":"container"}},"type":"Feature"},
	{"geometry":{"coordinates":[14.368613,51.009394],"type":"Point"},"properties":{"osm_id":"6651080167","tag":{"amenity":"waste_basket"}},"type":"Feature"}
]
}
