{
"type": "FeatureCollection",
"features": [
	{"geometry":{"coordinates":[14.396282,50.270598],"type":"Point"},"properties":{"osm_id":"669525119","tag":{"amenity":"recycling"}},"type":"Feature"},
	{"geometry":{"coordinates":[14.397668,50.273466],"type":"Point"},"properties":{"osm_id":"669525125","tag":{"amenity":"recycling","recycling_type":"container"}},"type":"Feature"},
	{"geometry":{"coordinates":[14.410313,50.234029],"type":"Point"},"properties":{"osm_id":"1649298403","tag":{"amenity":"recycling","recycling:cartons":"yes","recycling:glass":"yes","recycling:paper":"yes","recycling:plastic":"yes","recycling_type":"container"}},"type":"Feature"},
	{"geometry":{"coordinates":[14.408158,50.235512],"type":"Point"},"properties":{"osm_id":"1649298404","tag":{"amenity":"recycling"}},"type":"Feature"},
	{"geometry":{"coordinates":[14.329975,50.278572],"type":"Point"},"properties":{"osm_id":"1962265929","tag":{"amenity":"waste_basket"}},"type":"Feature"},
	{"geometry":{"coordinates":[14.327631,50.270141],"type":"Point"},"properties":{"osm_id":"2484947686","tag":{"amenity":"recycling","location":"overground","operator":"M\u00c4\u009bsto Veltrusy","recycling:beverage_cartons":"yes","recycling:glass":"yes","recycling:paper":"yes","recycling:plastic":"yes","recycling_type":"container"}},"type":"Feature"},
	{"geometry":{"coordinates":[14.411496,50.236127],"type":"Point"},"properties":{"osm_id":"2511957959","tag":{"amenity":"recycling","recycling:glass":"yes","recycling:paper":"yes","recycling:plastic":"yes","recycling_type":"container"}},"type":"Feature"},
	{"geometry":{"coordinates":[14.395692,50.277728],"type":"Point"},"properties":{"osm_id":"2527626671","tag":{"amenity":"recycling","recycling_type":"container"}},"type":"Feature"},
	{"geometry":{"coordinates":[14.399477,50.274172],"type":"Point"},"properties":{"osm_id":"2560974268","tag":{"amenity":"recycling","recycling_type":"container"}},"type":"Feature"},
	{"geometry":{"coordinates":[14.395985,50.27426],"type":"Point"},"properties":{"osm_id":"2560974523","tag":{"amenity":"recycling","recycling_type":"container"}},"type":"Feature"},
	{"geometry":{"coordinates":[14.372439,50.23623],"type":"Point"},"properties":{"osm_id":"3205766751","tag":{"amenity":"recycling","recycling_type":"container"}},"type":"Feature"},
	{"geometry":{"coordinates":[14.385853,50.234112],"type":"Point"},"properties":{"osm_id":"3790564166","tag":{"amenity":"recycling","recycling_type":"container"}},"type":"Feature"},
	{"geometry":{"coordinates":[14.412249,50.235123],"type":"Point"},"properties":{"osm_id":"3803136041","tag":{"amenity":"waste_basket"}},"type":"Feature"},
	{"geometry":{"coordinates":[14.41374,50.234207],"type":"Point"},"properties":{"osm_id":"3826505105","tag":{"amenity":"recycling","recycling:glass":"yes","recycling:paper":"yes","recycling:plastic":"yes","recycling_type":"container"}},"type":"Feature"},
	{"geometry":{"coordinates":[14.337043,50.267078],"type":"Point"},"properties":{"name":"Sb\u00c4\u009brn\u00c3\u00a9 m\u00c3\u00adsto Veltrusy","osm_id":"4097096789","tag":{"amenity":"recycling","email":"kosek@veltrusy.cz","operator":"M\u00c4\u009bsto Veltrusy","operator:type":"public","recycling:batteries":"yes","recycling:beverage_cartons":"yes","recycling:cans":"yes","recycling:clothes":"yes","recycling:electrical_appliances":"yes","recycling:glass":"yes","recycling:green_waste":"yes","recycling:organic":"yes","recycling:paper":"yes","recycling:plastic":"yes","recycling:wood":"yes","recycling_type":"centre","website":"https://www.veltrusy.cz/sluzby/odpady"}},"type":"Feature"},
	{"geometry":{"coordinates":[14.336344,50.272281],"type":"Point"},"properties":{"osm_id":"7035510231","tag":{"amenity":"recycling","operator":"M\u00c4\u009bsto Veltrusy","recycling:glass":"yes","recycling:paper":"yes","recycling:plastic":"yes","recycling_type":"container"}},"type":"Feature"},
	{"geometry":{"coordinates":[14.333408,50.270144],"type":"Point"},"properties":{"osm_id":"7035510232","tag":{"amenity":"recycling","operator":"M\u00c4\u009bsto Veltrusy","recycling:beverage_cartons":"yes","recycling:glass":"yes","recycling:paper":"yes","recycling:plastic":"yes","recycling_type":"container"}},"type":"Feature"},
	{"geometry":{"coordinates":[14.332167,50.267964],"type":"Point"},"properties":{"osm_id":"7035510233","tag":{"amenity":"recycling","operator":"M\u00c4\u009bsto Veltrusy","recycling:beverage_cartons":"yes","recycling:clothes":"yes","recycling:glass":"yes","recycling:paper":"yes","recycling:plastic":"yes","recycling_type":"container"}},"type":"Feature"},
	{"geometry":{"coordinates":[14.33627,50.268552],"type":"Point"},"properties":{"osm_id":"7036894401","tag":{"amenity":"recycling","operator":"M\u00c4\u009bsto Veltrusy","recycling:beverage_cartons":"yes","recycling:glass":"yes","recycling:paper":"yes","recycling:plastic":"yes","recycling_type":"container"}},"type":"Feature"},
	{"geometry":{"coordinates":[14.411438,50.233283],"type":"Point"},"properties":{"osm_id":"7480581281","tag":{"amenity":"waste_basket"}},"type":"Feature"},
	{"geometry":{"coordinates":[14.409597,50.237001],"type":"Point"},"properties":{"osm_id":"8075116013","tag":{"amenity":"recycling","recycling_type":"container"}},"type":"Feature"},
	{"geometry":{"coordinates":[14.368499,50.277659],"type":"Point"},"properties":{"osm_id":"8224175320","tag":{"amenity":"recycling","recycling_type":"container"}},"type":"Feature"},
	{"geometry":{"coordinates":[14.370188,50.27728],"type":"Point"},"properties":{"osm_id":"8224175321","tag":{"amenity":"recycling","recycling_type":"container"}},"type":"Feature"},
	{"geometry":{"coordinates":[14.371753,50.278283],"type":"Point"},"properties":{"osm_id":"8224175322","tag":{"amenity":"recycling","recycling_type":"container"}},"type":"Feature"},
	{"geometry":{"coordinates":[14.413674,50.235863],"type":"Point"},"properties":{"osm_id":"8628783610","tag":{"amenity":"recycling","recycling:cartons":"yes","recycling:glass":"yes","recycling:paper":"yes","recycling:plastic":"yes","recycling_type":"container"}},"type":"Feature"},
	{"geometry":{"coordinates":[14.412836,50.233489],"type":"Point"},"properties":{"osm_id":"8628783611","tag":{"amenity":"recycling","recycling:paper":"yes","recycling:plastic":"yes","recycling_type":"container"}},"type":"Feature"},
	{"geometry":{"coordinates":[14.412746,50.233853],"type":"Point"},"properties":{"osm_id":"8672413596","tag":{"amenity":"recycling","recycling:cartons":"yes","recycling:glass":"yes","recycling:paper":"yes","recycling:plastic":"yes","recycling_type":"container"}},"type":"Feature"},
	{"geometry":{"coordinates":[14.408665,50.237033],"type":"Point"},"properties":{"osm_id":"8676652609","tag":{"amenity":"recycling","recycling:glass":"yes","recycling:paper":"yes","recycling:plastic":"yes","recycling_type":"container"}},"type":"Feature"}
]
}
