{
"type": "FeatureCollection",
"features": [
	{"geometry":{"coordinates":[14.4082,50.179667],"type":"Point"},"properties":{"name":"Sb\u00c4\u009brn\u00c3\u00bd dv\u00c5\u00afr Klecany","osm_id":"1392328705","tag":{"amenity":"recycling","opening_hours":"Jan-Mar Tu,Th 12:00-15:00; Su 08:00-12:00; Apr-Oct Tu,Th 09:00-17:00; We,Fr 13:00-15:30; Sa 09:00-13:00; Su 08:00-12:00; Nov-Dec Tu,Th 12:00-15:00; Su 08:00-12:00","operator":"M\u00c4\u009bstsk\u00c3\u00bd \u00c3\u00ba\u00c5\u0099ad Klecany","phone":"+420 737723562","recycling_type":"centre"}},"type":"Feature"},
	{"geometry":{"coordinates":[14.399831,50.197012],"type":"Point"},"properties":{"osm_id":"1704092713","tag":{"amenity":"recycling"}},"type":"Feature"},
	{"geometry":{"coordinates":[14.376344,50.210557],"type":"Point"},"properties":{"osm_id":"1704093412","tag":{"amenity":"recycling"}},"type":"Feature"},
	{"geometry":{"coordinates":[14.354826,50.19725],"type":"Point"},"properties":{"osm_id":"1754755720","tag":{"amenity":"recycling"}},"type":"Feature"},
	{"geometry":{"coordinates":[14.36186,50.199387],"type":"Point"},"properties":{"osm_id":"1754755723","tag":{"amenity":"recycling","recycling:glass":"yes","recycling:paper":"yes","recycling:plastic":"yes","recycling_type":"container"}},"type":"Feature"},
	{"geometry":{"coordinates":[14.372101,50.191109],"type":"Point"},"properties":{"osm_id":"1755082822","tag":{"amenity":"recycling"}},"type":"Feature"},
	{"geometry":{"coordinates":[14.398421,50.206084],"type":"Point"},"properties":{"osm_id":"1844031052","tag":{"amenity":"recycling","recycling:glass":"yes","recycling:paper":"yes","recycling:plastic":"yes","recycling_type":"container"}},"type":"Feature"},
	{"geometry":{"coordinates":[14.384353,50.190756],"type":"Point"},"properties":{"osm_id":"1948722222","tag":{"amenity":"recycling","recycling_type":"container"}},"type":"Feature"},
	{"geometry":{"coordinates":[14.397677,50.207179],"type":"Point"},"properties":{"osm_id":"2140304203","tag":{"amenity":"recycling"}},"type":"Feature"},
	{"geometry":{"coordinates":[14.381123,50.229273],"type":"Point"},"properties":{"osm_id":"2319722724","tag":{"amenity":"recycling","recycling_type":"container"}},"type":"Feature"},
	{"geometry":{"coordinates":[14.379709,50.208551],"type":"Point"},"properties":{"osm_id":"2405811839","tag":{"amenity":"recycling","recycling:glass":"yes","recycling:paper":"yes","recycling:plastic":"yes","recycling_type":"container"}},"type":"Feature"},
	{"geometry":{"coordinates":[14.368975,50.194127],"type":"Point"},"properties":{"osm_id":"2439708573","tag":{"amenity":"recycling","location":"underground","recycling_type":"container"}},"type":"Feature"},
	{"geometry":{"coordinates":[14.364943,50.204324],"type":"Point"},"properties":{"osm_id":"2503492174","tag":{"amenity":"recycling","recycling_type":"container"}},"type":"Feature"},
	{"geometry":{"coordinates":[14.331566,50.191019],"type":"Point"},"properties":{"osm_id":"2725173607","tag":{"amenity":"recycling","recycling_type":"container"}},"type":"Feature"},
	{"geometry":{"coordinates":[14.412106,50.229298],"type":"Point"},"properties":{"osm_id":"2923144359","tag":{"amenity":"recycling","recycling:plastic":"yes","recycling_type":"container"}},"type":"Feature"},
	{"geometry":{"coordinates":[14.357784,50.22895],"type":"Point"},"properties":{"osm_id":"3205768364","tag":{"amenity":"recycling","recycling:clothes":"yes","recycling:glass":"yes","recycling:paper":"yes","recycling_type":"centre"}},"type":"Feature"},
	{"geometry":{"coordinates":[14.407167,50.17918],"type":"Point"},"properties":{"osm_id":"3268908361","tag":{"amenity":"recycling","opening_hours":"Mo-Fr 08:00-16:00","recycling_type":"centre","website":"http://sbernesurovinyklecany.cz"}},"type":"Feature"},
	{"geometry":{"coordinates":[14.402656,50.225289],"type":"Point"},"properties":{"osm_id":"3720371396","tag":{"amenity":"recycling","recycling_type":"container"}},"type":"Feature"},
	{"geometry":{"coordinates":[14.409165,50.228847],"type":"Point"},"properties":{"osm_id":"3826505106","tag":{"amenity":"recycling","recycling_type":"container"}},"type":"Feature"},
	{"geometry":{"coordinates":[14.357438,50.177556],"type":"Point"},"properties":{"osm_id":"3982228811","tag":{"amenity":"waste_basket"}},"type":"Feature"},
	{"geometry":{"coordinates":[14.357419,50.17747],"type":"Point"},"properties":{"osm_id":"3982228815","tag":{"amenity":"waste_basket"}},"type":"Feature"},
	{"geometry":{"coordinates":[14.385856,50.192844],"type":"Point"},"properties":{"osm_id":"4939900114","tag":{"amenity":"recycling","recycling_type":"container"}},"type":"Feature"},
	{"geometry":{"coordinates":[14.3587,50.229069],"type":"Point"},"properties":{"osm_id":"5344584933","tag":{"amenity":"waste_basket"}},"type":"Feature"},
	{"geometry":{"coordinates":[14.36447,50.197734],"type":"Point"},"properties":{"osm_id":"6021090185","tag":{"amenity":"waste_basket"}},"type":"Feature"},
	{"geometry":{"coordinates":[14.36447,50.197873],"type":"Point"},"properties":{"osm_id":"6021090186","tag":{"amenity":"waste_basket"}},"type":"Feature"},
	{"geometry":{"coordinates":[14.364194,50.197682],"type":"Point"},"properties":{"osm_id":"6021090187","tag":{"amenity":"waste_basket"}},"type":"Feature"},
	{"geometry":{"coordinates":[14.364148,50.197289],"type":"Point"},"properties":{"osm_id":"6021090188","tag":{"amenity":"waste_basket"}},"type":"Feature"},
	{"geometry":{"coordinates":[14.409219,50.229305],"type":"Point"},"properties":{"osm_id":"6080483188","tag":{"amenity":"waste_basket"}},"type":"Feature"},
	{"geometry":{"coordinates":[14.409186,50.2291],"type":"Point"},"properties":{"osm_id":"6080499791","tag":{"amenity":"waste_basket"}},"type":"Feature"},
	{"geometry":{"coordinates":[14.409531,50.229084],"type":"Point"},"properties":{"osm_id":"6080500286","tag":{"amenity":"waste_basket"}},"type":"Feature"},
	{"geometry":{"coordinates":[14.409546,50.229304],"type":"Point"},"properties":{"osm_id":"6080500287","tag":{"amenity":"waste_basket"}},"type":"Feature"},
	{"geometry":{"coordinates":[14.409869,50.177036],"type":"Point"},"properties":{"osm_id":"6449316912","tag":{"amenity":"waste_basket"}},"type":"Feature"},
	{"geometry":{"coordinates":[14.397128,50.227968],"type":"Point"},"properties":{"osm_id":"7206119950","tag":{"amenity":"waste_basket"}},"type":"Feature"},
	{"geometry":{"coordinates":[14.381867,50.231687],"type":"Point"},"properties":{"osm_id":"7228529999","tag":{"amenity":"recycling","recycling:beverage_cartons":"yes","recycling:glass":"yes","recycling:paper":"yes","recycling:plastic":"yes","recycling_type":"container"}},"type":"Feature"},
	{"geometry":{"coordinates":[14.412761,50.230231],"type":"Point"},"properties":{"osm_id":"7378993507","tag":{"amenity":"recycling","recycling:cartons":"yes","recycling:glass":"yes","recycling:paper":"yes","recycling:plastic":"yes","recycling_type":"container"}},"type":"Feature"},
	{"geometry":{"coordinates":[14.364353,50.197755],"type":"Point"},"properties":{"osm_id":"7390104285","tag":{"amenity":"waste_basket"}},"type":"Feature"},
	{"geometry":{"coordinates":[14.355007,50.178863],"type":"Point"},"properties":{"osm_id":"7454407288","tag":{"amenity":"recycling","recycling:cans":"yes","recycling:glass":"yes","recycling:paper":"yes","recycling:plastic":"yes","recycling_type":"container"}},"type":"Feature"},
	{"geometry":{"coordinates":[14.355722,50.179288],"type":"Point"},"properties":{"osm_id":"7549753348","tag":{"amenity":"recycling","recycling:cans":"yes","recycling:glass":"yes","recycling:paper":"yes","recycling:plastic":"yes","recycling_type":"container"}},"type":"Feature"},
	{"geometry":{"coordinates":[14.365747,50.198953],"type":"Point"},"properties":{"osm_id":"7747545738","tag":{"amenity":"waste_basket"}},"type":"Feature"},
	{"geometry":{"coordinates":[14.357153,50.177825],"type":"Point"},"properties":{"osm_id":"7820188312","tag":{"amenity":"waste_basket"}},"type":"Feature"},
	{"geometry":{"coordinates":[14.357134,50.177845],"type":"Point"},"properties":{"osm_id":"7820188313","tag":{"amenity":"recycling","recycling:paper":"yes","recycling:plastic":"yes","recycling_type":"container"}},"type":"Feature"}
]
}
