{
"type": "FeatureCollection",
"features": [
	{"geometry":{"coordinates":[14.372477,50.125279],"type":"Point"},"properties":{"osm_id":"1003134378","tag":{"amenity":"recycling"}},"type":"Feature"},
	{"geometry":{"coordinates":[14.393717,50.133197],"type":"Point"},"properties":{"osm_id":"1228912640","tag":{"amenity":"recycling","location":"overground","recycling_type":"container"}},"type":"Feature"},
	{"geometry":{"coordinates":[14.411334,50.125654],"type":"Point"},"properties":{"osm_id":"1300528933","tag":{"amenity":"recycling"}},"type":"Feature"},
	{"geometry":{"coordinates":[14.413042,50.127452],"type":"Point"},"properties":{"osm_id":"1300529075","tag":{"amenity":"recycling","recycling_type":"container"}},"type":"Feature"},
	{"geometry":{"coordinates":[14.411367,50.127539],"type":"Point"},"properties":{"osm_id":"1300529224","tag":{"amenity":"recycling","location":"overground","recycling_type":"container"}},"type":"Feature"},
	{"geometry":{"coordinates":[14.374847,50.140377],"type":"Point"},"properties":{"osm_id":"1300685397","tag":{"amenity":"recycling","location":"overground","recycling_type":"container"}},"type":"Feature"},
	{"geometry":{"coordinates":[14.378657,50.142475],"type":"Point"},"properties":{"osm_id":"1300685481","tag":{"amenity":"recycling"}},"type":"Feature"},
	{"geometry":{"coordinates":[14.382614,50.130655],"type":"Point"},"properties":{"osm_id":"1306860143","tag":{"amenity":"recycling","recycling:cartons":"yes","recycling:glass":"yes","recycling:paper":"yes","recycling:plastic":"yes","recycling_type":"container"}},"type":"Feature"},
	{"geometry":{"coordinates":[14.396973,50.164351],"type":"Point"},"properties":{"osm_id":"1307013972","tag":{"amenity":"recycling","recycling_type":"container"}},"type":"Feature"},
	{"geometry":{"coordinates":[14.387843,50.165753],"type":"Point"},"properties":{"osm_id":"1307013973","tag":{"amenity":"recycling","recycling_type":"container"}},"type":"Feature"},
	{"geometry":{"coordinates":[14.39759,50.158025],"type":"Point"},"properties":{"osm_id":"1307013976","tag":{"amenity":"recycling","recycling_type":"container"}},"type":"Feature"},
	{"geometry":{"coordinates":[14.39774,50.167457],"type":"Point"},"properties":{"osm_id":"1307013983","tag":{"amenity":"recycling","recycling_type":"container"}},"type":"Feature"},
	{"geometry":{"coordinates":[14.389086,50.123189],"type":"Point"},"properties":{"osm_id":"1307117566","tag":{"amenity":"recycling"}},"type":"Feature"},
	{"geometry":{"coordinates":[14.389513,50.163741],"type":"Point"},"properties":{"osm_id":"1316424829","tag":{"amenity":"recycling","recycling:beverage_cartons":"yes","recycling:glass":"yes","recycling:paper":"yes","recycling:plastic":"yes","recycling_type":"container"}},"type":"Feature"},
	{"geometry":{"coordinates":[14.391067,50.157183],"type":"Point"},"properties":{"osm_id":"1350493634","tag":{"amenity":"recycling","recycling_type":"container"}},"type":"Feature"},
	{"geometry":{"coordinates":[14.387194,50.160994],"type":"Point"},"properties":{"osm_id":"1350493635","tag":{"amenity":"recycling","recycling_type":"container"}},"type":"Feature"},
	{"geometry":{"coordinates":[14.38124,50.161328],"type":"Point"},"properties":{"osm_id":"1350493636","tag":{"amenity":"recycling","recycling_type":"container"}},"type":"Feature"},
	{"geometry":{"coordinates":[14.370588,50.165176],"type":"Point"},"properties":{"osm_id":"1350498584","tag":{"amenity":"recycling","recycling_type":"container"}},"type":"Feature"},
	{"geometry":{"coordinates":[14.393383,50.161908],"type":"Point"},"properties":{"osm_id":"1350590104","tag":{"amenity":"recycling","recycling:beverage_cartons":"yes","recycling:glass":"yes","recycling:paper":"yes","recycling:plastic":"yes","recycling_type":"container"}},"type":"Feature"},
	{"geometry":{"coordinates":[14.411871,50.130624],"type":"Point"},"properties":{"osm_id":"1540728282","tag":{"amenity":"recycling"}},"type":"Feature"},
	{"geometry":{"coordinates":[14.381887,50.135079],"type":"Point"},"properties":{"osm_id":"1620809116","tag":{"amenity":"recycling"}},"type":"Feature"},
	{"geometry":{"coordinates":[14.409983,50.131501],"type":"Point"},"properties":{"osm_id":"1665285836","tag":{"amenity":"recycling","recycling:electrical_appliances":"yes","recycling_type":"container"}},"type":"Feature"},
	{"geometry":{"coordinates":[14.40709,50.129305],"type":"Point"},"properties":{"osm_id":"1846220834","tag":{"amenity":"recycling","recycling_type":"container"}},"type":"Feature"},
	{"geometry":{"coordinates":[14.404498,50.13325],"type":"Point"},"properties":{"osm_id":"1865097183","tag":{"amenity":"recycling","location":"overground","recycling_type":"container"}},"type":"Feature"},
	{"geometry":{"coordinates":[14.406552,50.132459],"type":"Point"},"properties":{"osm_id":"1865097184","tag":{"amenity":"recycling","recycling:glass":"yes","recycling:paper":"yes","recycling:plastic":"yes"}},"type":"Feature"},
	{"geometry":{"coordinates":[14.407258,50.132163],"type":"Point"},"properties":{"osm_id":"1865097185","tag":{"amenity":"recycling"}},"type":"Feature"},
	{"geometry":{"coordinates":[14.409424,50.131829],"type":"Point"},"properties":{"osm_id":"1865097186","tag":{"amenity":"recycling","recycling:clothes":"yes"}},"type":"Feature"},
	{"geometry":{"coordinates":[14.368232,50.13195],"type":"Point"},"properties":{"osm_id":"1871505708","tag":{"amenity":"recycling","recycling_type":"container"}},"type":"Feature"},
	{"geometry":{"coordinates":[14.404887,50.166444],"type":"Point"},"properties":{"osm_id":"2012041384","tag":{"amenity":"recycling","recycling_type":"container"}},"type":"Feature"},
	{"geometry":{"coordinates":[14.404474,50.171512],"type":"Point"},"properties":{"osm_id":"2173086987","tag":{"amenity":"recycling"}},"type":"Feature"},
	{"geometry":{"coordinates":[14.383039,50.130765],"type":"Point"},"properties":{"osm_id":"2271213711","tag":{"amenity":"waste_disposal"}},"type":"Feature"},
	{"geometry":{"coordinates":[14.380891,50.137865],"type":"Point"},"properties":{"osm_id":"2271213744","tag":{"amenity":"recycling","recycling:batteries":"yes","recycling:glass":"yes","recycling:paper":"yes","recycling:plastic":"yes","recycling_type":"container"}},"type":"Feature"},
	{"geometry":{"coordinates":[14.400426,50.122759],"type":"Point"},"properties":{"osm_id":"2353092461","tag":{"amenity":"recycling"}},"type":"Feature"},
	{"geometry":{"coordinates":[14.409685,50.156992],"type":"Point"},"properties":{"osm_id":"2411345162","tag":{"amenity":"recycling","recycling:glass_bottles":"yes","recycling:paper":"yes","recycling:plastic":"yes","recycling_type":"container"}},"type":"Feature"},
	{"geometry":{"coordinates":[14.400956,50.171877],"type":"Point"},"properties":{"osm_id":"2416385051","tag":{"amenity":"recycling","recycling_type":"container"}},"type":"Feature"},
	{"geometry":{"coordinates":[14.381114,50.129626],"type":"Point"},"properties":{"osm_id":"2478509567","tag":{"amenity":"recycling","location":"overground","recycling_type":"container"}},"type":"Feature"},
	{"geometry":{"coordinates":[14.372687,50.141419],"type":"Point"},"properties":{"osm_id":"2478509579","tag":{"amenity":"recycling","recycling:glass":"yes","recycling:paper":"yes","recycling:plastic":"yes","recycling_type":"container"}},"type":"Feature"},
	{"geometry":{"coordinates":[14.351025,50.17086],"type":"Point"},"properties":{"osm_id":"2536227600","tag":{"amenity":"recycling","recycling_type":"container"}},"type":"Feature"},
	{"geometry":{"coordinates":[14.332479,50.134695],"type":"Point"},"properties":{"osm_id":"2578637006","tag":{"amenity":"recycling","recycling:clothes":"yes","recycling_type":"container"}},"type":"Feature"},
	{"geometry":{"coordinates":[14.383711,50.16294],"type":"Point"},"properties":{"osm_id":"2608896202","tag":{"amenity":"waste_basket"}},"type":"Feature"},
	{"geometry":{"coordinates":[14.377468,50.164296],"type":"Point"},"properties":{"osm_id":"2608896207","tag":{"amenity":"recycling","recycling:cartons":"yes","recycling:glass":"yes","recycling:paper":"yes","recycling:plastic":"yes","recycling_type":"container"}},"type":"Feature"},
	{"geometry":{"coordinates":[14.389576,50.162116],"type":"Point"},"properties":{"osm_id":"2608896212","tag":{"amenity":"waste_basket"}},"type":"Feature"},
	{"geometry":{"coordinates":[14.389544,50.161999],"type":"Point"},"properties":{"osm_id":"2608896214","tag":{"amenity":"waste_basket"}},"type":"Feature"},
	{"geometry":{"coordinates":[14.365826,50.173498],"type":"Point"},"properties":{"osm_id":"2826443951","tag":{"amenity":"recycling","recycling:paper":"yes","recycling_type":"container"}},"type":"Feature"},
	{"geometry":{"coordinates":[14.355845,50.173705],"type":"Point"},"properties":{"osm_id":"2952954337","tag":{"amenity":"recycling","recycling_type":"container"}},"type":"Feature"},
	{"geometry":{"coordinates":[14.402647,50.125628],"type":"Point"},"properties":{"osm_id":"3013983697","tag":{"amenity":"recycling","recycling_type":"container"}},"type":"Feature"},
	{"geometry":{"coordinates":[14.411552,50.175673],"type":"Point"},"properties":{"osm_id":"3045162000","tag":{"amenity":"recycling","recycling:cartons":"yes","recycling:clothes":"yes","recycling:glass":"yes","recycling:paper":"yes","recycling:plastic":"yes","recycling_type":"container"}},"type":"Feature"},
	{"geometry":{"coordinates":[14.372069,50.159971],"type":"Point"},"properties":{"osm_id":"3162998439","tag":{"amenity":"recycling","recycling:glass":"yes","recycling:paper":"yes","recycling:plastic":"yes","recycling_type":"container"}},"type":"Feature"},
	{"geometry":{"coordinates":[14.409577,50.133946],"type":"Point"},"properties":{"osm_id":"3164696589","tag":{"amenity":"recycling","recycling_type":"container"}},"type":"Feature"},
	{"geometry":{"coordinates":[14.410937,50.120689],"type":"Point"},"properties":{"osm_id":"3255788203","tag":{"amenity":"recycling"}},"type":"Feature"},
	{"geometry":{"coordinates":[14.393737,50.135665],"type":"Point"},"properties":{"osm_id":"3512307138","tag":{"amenity":"waste_basket"}},"type":"Feature"},
	{"geometry":{"coordinates":[14.400453,50.122719],"type":"Point"},"properties":{"osm_id":"3549806252","tag":{"amenity":"waste_basket"}},"type":"Feature"},
	{"geometry":{"coordinates":[14.404775,50.166994],"type":"Point"},"properties":{"osm_id":"3728776428","tag":{"amenity":"waste_basket"}},"type":"Feature"},
	{"geometry":{"coordinates":[14.413818,50.138072],"type":"Point"},"properties":{"osm_id":"3832316065","tag":{"amenity":"recycling","recycling:cans":"yes","recycling:glass":"yes","recycling:paper":"yes","recycling:plastic":"yes","recycling_type":"container"}},"type":"Feature"},
	{"geometry":{"coordinates":[14.340753,50.160538],"type":"Point"},"properties":{"osm_id":"3923794959","tag":{"amenity":"waste_basket"}},"type":"Feature"},
	{"geometry":{"coordinates":[14.398109,50.122557],"type":"Point"},"properties":{"osm_id":"4167040233","tag":{"amenity":"waste_basket"}},"type":"Feature"},
	{"geometry":{"coordinates":[14.403444,50.159178],"type":"Point"},"properties":{"osm_id":"4813359067","tag":{"amenity":"recycling","recycling:glass":"yes","recycling:paper":"yes","recycling:plastic":"yes","recycling_type":"container"}},"type":"Feature"},
	{"geometry":{"coordinates":[14.398564,50.123111],"type":"Point"},"properties":{"osm_id":"5014506677","tag":{"amenity":"waste_basket"}},"type":"Feature"},
	{"geometry":{"coordinates":[14.395375,50.137339],"type":"Point"},"properties":{"osm_id":"5201652993","tag":{"amenity":"recycling","recycling:cartons":"yes","recycling:glass":"yes","recycling:paper":"yes","recycling:plastic":"yes","recycling_type":"container"}},"type":"Feature"},
	{"geometry":{"coordinates":[14.408623,50.128909],"type":"Point"},"properties":{"osm_id":"5211846181","tag":{"amenity":"recycling","recycling_type":"container"}},"type":"Feature"},
	{"geometry":{"coordinates":[14.407183,50.133786],"type":"Point"},"properties":{"osm_id":"5266008417","tag":{"amenity":"recycling","recycling:glass":"yes","recycling:paper":"yes","recycling:plastic":"yes","recycling_type":"container"}},"type":"Feature"},
	{"geometry":{"coordinates":[14.365359,50.173258],"type":"Point"},"properties":{"osm_id":"5625193231","tag":{"amenity":"waste_basket"}},"type":"Feature"},
	{"geometry":{"coordinates":[14.364939,50.171699],"type":"Point"},"properties":{"osm_id":"5625193236","tag":{"amenity":"waste_basket"}},"type":"Feature"},
	{"geometry":{"coordinates":[14.360925,50.173853],"type":"Point"},"properties":{"osm_id":"5625193261","tag":{"amenity":"recycling","recycling:beverage_cartons":"yes","recycling:glass":"yes","recycling:paper":"yes","recycling:plastic":"yes","recycling_type":"container"}},"type":"Feature"},
	{"geometry":{"coordinates":[14.388754,50.143666],"type":"Point"},"properties":{"osm_id":"5660847423","tag":{"amenity":"recycling","recycling:glass":"yes","recycling:paper":"yes","recycling:plastic":"yes","recycling_type":"container"}},"type":"Feature"},
	{"geometry":{"coordinates":[14.405023,50.175894],"type":"Point"},"properties":{"osm_id":"6315663851","tag":{"amenity":"waste_basket"}},"type":"Feature"},
	{"geometry":{"coordinates":[14.407502,50.176216],"type":"Point"},"properties":{"osm_id":"6315663852","tag":{"amenity":"recycling","recycling:cans":"yes","recycling:glass":"yes","recycling:paper":"yes","recycling:plastic":"yes","recycling_type":"container"}},"type":"Feature"},
	{"geometry":{"coordinates":[14.378415,50.126754],"type":"Point"},"properties":{"osm_id":"6466971903","tag":{"amenity":"recycling","recycling_type":"container"}},"type":"Feature"},
	{"geometry":{"coordinates":[14.341335,50.1317],"type":"Point"},"properties":{"osm_id":"6718675131","tag":{"amenity":"recycling","recycling_type":"container"}},"type":"Feature"},
	{"geometry":{"coordinates":[14.377543,50.13265],"type":"Point"},"properties":{"osm_id":"6786434286","tag":{"amenity":"waste_basket"}},"type":"Feature"},
	{"geometry":{"coordinates":[14.377625,50.132615],"type":"Point"},"properties":{"osm_id":"6786434385","tag":{"amenity":"waste_basket"}},"type":"Feature"},
	{"geometry":{"coordinates":[14.37733,50.133007],"type":"Point"},"properties":{"osm_id":"6786434485","tag":{"amenity":"waste_basket"}},"type":"Feature"},
	{"geometry":{"coordinates":[14.392596,50.160289],"type":"Point"},"properties":{"osm_id":"6840927322","tag":{"amenity":"recycling","recycling_type":"container"}},"type":"Feature"},
	{"geometry":{"coordinates":[14.375555,50.165454],"type":"Point"},"properties":{"osm_id":"6840928571","tag":{"amenity":"recycling","recycling_type":"container"}},"type":"Feature"},
	{"geometry":{"coordinates":[14.3741,50.163083],"type":"Point"},"properties":{"osm_id":"6840943045","tag":{"amenity":"recycling","recycling_type":"container"}},"type":"Feature"},
	{"geometry":{"coordinates":[14.335992,50.161575],"type":"Point"},"properties":{"osm_id":"6840969832","tag":{"amenity":"recycling","recycling:cans":"yes","recycling:clothes":"yes","recycling:glass":"yes","recycling:paper":"yes","recycling:plastic":"yes","recycling:shoes":"yes","recycling_type":"container"}},"type":"Feature"},
	{"geometry":{"coordinates":[14.341423,50.164244],"type":"Point"},"properties":{"osm_id":"7242798445","tag":{"amenity":"recycling","recycling:paper":"yes","recycling:plastic":"yes","recycling_type":"container"}},"type":"Feature"},
	{"geometry":{"coordinates":[14.384738,50.1427],"type":"Point"},"properties":{"osm_id":"7444974422","tag":{"amenity":"recycling","recycling:beverage_cartons":"yes","recycling:glass":"yes","recycling:paper":"yes","recycling:plastic":"yes","recycling_type":"container"}},"type":"Feature"},
	{"geometry":{"coordinates":[14.367084,50.168396],"type":"Point"},"properties":{"osm_id":"7580113799","tag":{"amenity":"recycling","recycling_type":"container"}},"type":"Feature"},
	{"geometry":{"coordinates":[14.398254,50.170874],"type":"Point"},"properties":{"osm_id":"7580122893","tag":{"amenity":"waste_basket"}},"type":"Feature"}
]
}
