{
"type": "FeatureCollection",
"lastupdate": "2020-08-04T00:00:00Z",
"features": [
	{"geometry":{"coordinates":[14.357461,46.606944],"type":"Point"},"properties":{"osm_id":"745760843","tag":{"amenity":"recycling","recycling:glass":"yes","recycling:paper":"yes","recycling_type":"container"}},"type":"Feature"},
	{"geometry":{"coordinates":[14.353983,46.608582],"type":"Point"},"properties":{"osm_id":"1750105233","tag":{"amenity":"recycling","recycling:glass":"yes","recycling_type":"container"}},"type":"Feature"},
	{"geometry":{"coordinates":[14.330501,46.607393],"type":"Point"},"properties":{"name":"Altstoffsammelstelle S\u00c3\u00bcd","osm_id":"3047097172","tag":{"addr:city":"Klagenfurt am W\u00f6rthersee","addr:country":"AT","addr:housenumber":"48","addr:postcode":"9020","addr:street":"Stadlweg","amenity":"recycling","opening_hours":"Mo-Fr 06:00-19:00; Sa 07:00-12:00","operator":"Stadt Klagenfurt","payment:cash":"yes","recycling:batteries":"yes","recycling:cans":"yes","recycling:cardboard":"yes","recycling:electrical_appliances":"yes","recycling:garden_waste":"no","recycling:glass":"yes","recycling:glass_bottles":"yes","recycling:green_waste":"no","recycling:paper":"yes","recycling:scrap_metal":"yes","recycling:small_appliances":"yes","recycling_type":"centre"}},"type":"Feature"}
]
}
