{
"type": "FeatureCollection",
"features": [
	{"geometry":{"coordinates":[-84.26248,39.562156],"type":"Point"},"properties":{"osm_id":"6682216057","tag":{"amenity":"waste_disposal"}},"type":"Feature"},
	{"geometry":{"coordinates":[-84.261406,39.562039],"type":"Point"},"properties":{"osm_id":"6682220347","tag":{"amenity":"waste_disposal"}},"type":"Feature"},
	{"geometry":{"coordinates":[-84.261769,39.563497],"type":"Point"},"properties":{"osm_id":"6682220356","tag":{"amenity":"waste_disposal"}},"type":"Feature"},
	{"geometry":{"coordinates":[-84.26211,39.563278],"type":"Point"},"properties":{"osm_id":"6682220357","tag":{"amenity":"waste_disposal"}},"type":"Feature"},
	{"geometry":{"coordinates":[-84.262406,39.563483],"type":"Point"},"properties":{"osm_id":"6682220360","tag":{"amenity":"waste_disposal"}},"type":"Feature"},
	{"geometry":{"coordinates":[-84.263509,39.562044],"type":"Point"},"properties":{"osm_id":"6682220390","tag":{"amenity":"waste_disposal"}},"type":"Feature"},
	{"geometry":{"coordinates":[-84.264324,39.563552],"type":"Point"},"properties":{"osm_id":"6682220393","tag":{"amenity":"waste_disposal"}},"type":"Feature"},
	{"geometry":{"coordinates":[-84.263821,39.563516],"type":"Point"},"properties":{"osm_id":"6682220394","tag":{"amenity":"waste_disposal"}},"type":"Feature"},
	{"geometry":{"coordinates":[-84.263327,39.56359],"type":"Point"},"properties":{"osm_id":"6682220395","tag":{"amenity":"waste_disposal"}},"type":"Feature"},
	{"geometry":{"coordinates":[-84.263872,39.561964],"type":"Point"},"properties":{"osm_id":"6682220396","tag":{"amenity":"waste_disposal"}},"type":"Feature"},
	{"geometry":{"coordinates":[-84.265339,39.561721],"type":"Point"},"properties":{"osm_id":"6682220398","tag":{"amenity":"waste_disposal"}},"type":"Feature"},
	{"geometry":{"coordinates":[-84.265844,39.561876],"type":"Point"},"properties":{"osm_id":"6682220399","tag":{"amenity":"waste_disposal"}},"type":"Feature"},
	{"geometry":{"coordinates":[-84.264076,39.561273],"type":"Point"},"properties":{"osm_id":"6682220400","tag":{"amenity":"waste_disposal"}},"type":"Feature"},
	{"geometry":{"coordinates":[-84.267477,39.558004],"type":"Point"},"properties":{"osm_id":"6682220405","tag":{"amenity":"waste_disposal"}},"type":"Feature"},
	{"geometry":{"coordinates":[-84.266117,39.558771],"type":"Point"},"properties":{"osm_id":"6682220406","tag":{"amenity":"waste_disposal"}},"type":"Feature"},
	{"geometry":{"coordinates":[-84.26903,39.557142],"type":"Point"},"properties":{"osm_id":"6682220407","tag":{"amenity":"waste_disposal"}},"type":"Feature"},
	{"geometry":{"coordinates":[-84.254208,39.560856],"type":"Point"},"properties":{"osm_id":"6682220408","tag":{"amenity":"waste_disposal"}},"type":"Feature"},
	{"geometry":{"coordinates":[-84.254859,39.562826],"type":"Point"},"properties":{"osm_id":"6682220414","tag":{"amenity":"waste_disposal"}},"type":"Feature"},
	{"geometry":{"coordinates":[-84.25453,39.562704],"type":"Point"},"properties":{"osm_id":"6682220421","tag":{"amenity":"waste_disposal"}},"type":"Feature"},
	{"geometry":{"coordinates":[-84.258433,39.563472],"type":"Point"},"properties":{"osm_id":"6682220426","tag":{"amenity":"waste_disposal"}},"type":"Feature"},
	{"geometry":{"coordinates":[-84.265004,39.563996],"type":"Point"},"properties":{"osm_id":"6682220440","tag":{"amenity":"waste_disposal"}},"type":"Feature"},
	{"geometry":{"coordinates":[-84.265455,39.56369],"type":"Point"},"properties":{"osm_id":"6682220441","tag":{"amenity":"waste_disposal"}},"type":"Feature"},
	{"geometry":{"coordinates":[-84.264049,39.560818],"type":"Point"},"properties":{"osm_id":"6682220442","tag":{"amenity":"waste_disposal"}},"type":"Feature"},
	{"geometry":{"coordinates":[-84.2855,39.564686],"type":"Point"},"properties":{"osm_id":"6682249144","tag":{"amenity":"waste_disposal"}},"type":"Feature"},
	{"geometry":{"coordinates":[-84.285366,39.564315],"type":"Point"},"properties":{"osm_id":"6682249165","tag":{"amenity":"recycling","brand":"Planet Aid","brand:wikidata":"Q7201055","operator":"Planet Aid","operator:wikidata":"Q7201055","recycling:clothes":"yes","recycling:shoes":"yes","recycling_type":"container"}},"type":"Feature"}
]
}
