{
"type": "FeatureCollection",
"features": [
	{"geometry":{"coordinates":[-84.246655,39.261052],"type":"Point"},"properties":{"osm_id":"850513719","tag":{"amenity":"recycling","recycling:paper":"yes"}},"type":"Feature"},
	{"geometry":{"coordinates":[-84.270544,39.261388],"type":"Point"},"properties":{"osm_id":"6385269267","tag":{"amenity":"waste_disposal"}},"type":"Feature"},
	{"geometry":{"coordinates":[-84.272064,39.262249],"type":"Point"},"properties":{"osm_id":"6385269272","tag":{"amenity":"waste_disposal"}},"type":"Feature"},
	{"geometry":{"coordinates":[-84.27126,39.262935],"type":"Point"},"properties":{"osm_id":"6385269608","tag":{"amenity":"waste_disposal"}},"type":"Feature"},
	{"geometry":{"coordinates":[-84.265628,39.267246],"type":"Point"},"properties":{"osm_id":"6385269660","tag":{"amenity":"waste_disposal"}},"type":"Feature"},
	{"geometry":{"coordinates":[-84.26634,39.268668],"type":"Point"},"properties":{"osm_id":"6385269672","tag":{"amenity":"waste_disposal"}},"type":"Feature"},
	{"geometry":{"coordinates":[-84.266306,39.269666],"type":"Point"},"properties":{"osm_id":"6385269678","tag":{"amenity":"waste_disposal"}},"type":"Feature"},
	{"geometry":{"coordinates":[-84.254709,39.267353],"type":"Point"},"properties":{"osm_id":"6485467504","tag":{"amenity":"waste_disposal"}},"type":"Feature"},
	{"geometry":{"coordinates":[-84.271484,39.269282],"type":"Point"},"properties":{"osm_id":"6486935436","tag":{"amenity":"waste_disposal"}},"type":"Feature"},
	{"geometry":{"coordinates":[-84.270666,39.269807],"type":"Point"},"properties":{"osm_id":"6486935437","tag":{"amenity":"waste_disposal"}},"type":"Feature"},
	{"geometry":{"coordinates":[-84.27158,39.267638],"type":"Point"},"properties":{"osm_id":"6486935454","tag":{"amenity":"waste_disposal"}},"type":"Feature"},
	{"geometry":{"coordinates":[-84.270214,39.267566],"type":"Point"},"properties":{"osm_id":"6486935459","tag":{"amenity":"waste_disposal"}},"type":"Feature"},
	{"geometry":{"coordinates":[-84.280411,39.243135],"type":"Point"},"properties":{"osm_id":"6683415562","tag":{"amenity":"waste_disposal"}},"type":"Feature"},
	{"geometry":{"coordinates":[-84.247469,39.25984],"type":"Point"},"properties":{"name":"Saint Vincent de Paul","osm_id":"6789434469","tag":{"amenity":"recycling","brand":"Saint Vincent de Paul","brand:wikidata":"Q66581837","recycling:clothes":"yes","recycling:shoes":"yes","recycling_type":"container","short_name":"SVdP"}},"type":"Feature"},
	{"geometry":{"coordinates":[-84.246583,39.259956],"type":"Point"},"properties":{"osm_id":"6789434476","tag":{"amenity":"waste_disposal"}},"type":"Feature"},
	{"geometry":{"coordinates":[-84.27034,39.270931],"type":"Point"},"properties":{"osm_id":"7180032541","tag":{"amenity":"waste_disposal"}},"type":"Feature"},
	{"geometry":{"coordinates":[-84.278993,39.258406],"type":"Point"},"properties":{"osm_id":"8294823317","tag":{"amenity":"waste_disposal"}},"type":"Feature"},
	{"geometry":{"coordinates":[-84.267701,39.263523],"type":"Point"},"properties":{"osm_id":"8294823318","tag":{"amenity":"waste_disposal"}},"type":"Feature"},
	{"geometry":{"coordinates":[-84.259397,39.26868],"type":"Point"},"properties":{"osm_id":"8294823319","tag":{"amenity":"waste_disposal"}},"type":"Feature"},
	{"geometry":{"coordinates":[-84.260128,39.267823],"type":"Point"},"properties":{"osm_id":"8294823320","tag":{"amenity":"waste_disposal"}},"type":"Feature"},
	{"geometry":{"coordinates":[-84.266838,39.267097],"type":"Point"},"properties":{"osm_id":"8294823321","tag":{"amenity":"waste_disposal"}},"type":"Feature"},
	{"geometry":{"coordinates":[-84.280064,39.255522],"type":"Point"},"properties":{"osm_id":"8294823418","tag":{"amenity":"waste_disposal"}},"type":"Feature"},
	{"geometry":{"coordinates":[-84.27976,39.256948],"type":"Point"},"properties":{"osm_id":"8294823419","tag":{"amenity":"waste_disposal"}},"type":"Feature"},
	{"geometry":{"coordinates":[-84.279355,39.257034],"type":"Point"},"properties":{"osm_id":"8294823420","tag":{"amenity":"waste_disposal"}},"type":"Feature"},
	{"geometry":{"coordinates":[-84.279173,39.257206],"type":"Point"},"properties":{"osm_id":"8294823421","tag":{"amenity":"waste_disposal"}},"type":"Feature"},
	{"geometry":{"coordinates":[-84.267039,39.272045],"type":"Point"},"properties":{"osm_id":"8784951471","tag":{"amenity":"waste_disposal"}},"type":"Feature"},
	{"geometry":{"coordinates":[-84.267237,39.271633],"type":"Point"},"properties":{"osm_id":"8784951472","tag":{"amenity":"waste_disposal"}},"type":"Feature"},
	{"geometry":{"coordinates":[-84.268228,39.267951],"type":"Point"},"properties":{"osm_id":"8805611146","tag":{"amenity":"waste_disposal"}},"type":"Feature"},
	{"geometry":{"coordinates":[-84.268138,39.265916],"type":"Point"},"properties":{"osm_id":"8805659122","tag":{"amenity":"waste_disposal"}},"type":"Feature"},
	{"geometry":{"coordinates":[-84.269038,39.26532],"type":"Point"},"properties":{"osm_id":"8805659123","tag":{"amenity":"waste_disposal"}},"type":"Feature"},
	{"geometry":{"coordinates":[-84.2695,39.265971],"type":"Point"},"properties":{"osm_id":"8805659124","tag":{"amenity":"waste_disposal"}},"type":"Feature"},
	{"geometry":{"coordinates":[-84.268642,39.271102],"type":"Point"},"properties":{"osm_id":"8805792008","tag":{"amenity":"waste_disposal"}},"type":"Feature"},
	{"geometry":{"coordinates":[-84.268646,39.271801],"type":"Point"},"properties":{"osm_id":"8805792012","tag":{"amenity":"waste_disposal"}},"type":"Feature"},
	{"geometry":{"coordinates":[-84.258534,39.268005],"type":"Point"},"properties":{"osm_id":"8810865838","tag":{"amenity":"waste_basket"}},"type":"Feature"}
]
}
