{
"type": "FeatureCollection",
"features": [
	{"geometry":{"coordinates":[-84.227155,30.389667],"type":"Point"},"properties":{"osm_id":"2632642847","tag":{"amenity":"waste_basket"}},"type":"Feature"},
	{"geometry":{"coordinates":[-84.212271,30.447192],"type":"Point"},"properties":{"osm_id":"3865503661","tag":{"amenity":"waste_basket"}},"type":"Feature"},
	{"geometry":{"coordinates":[-84.212386,30.447205],"type":"Point"},"properties":{"osm_id":"3865503662","tag":{"amenity":"waste_basket"}},"type":"Feature"},
	{"geometry":{"coordinates":[-84.212462,30.446952],"type":"Point"},"properties":{"osm_id":"3865503663","tag":{"amenity":"waste_basket"}},"type":"Feature"},
	{"geometry":{"coordinates":[-84.212396,30.447096],"type":"Point"},"properties":{"osm_id":"3865519057","tag":{"amenity":"waste_basket"}},"type":"Feature"},
	{"geometry":{"coordinates":[-84.212181,30.447244],"type":"Point"},"properties":{"osm_id":"3865519058","tag":{"amenity":"waste_basket"}},"type":"Feature"},
	{"geometry":{"coordinates":[-84.212224,30.447188],"type":"Point"},"properties":{"osm_id":"3865519157","tag":{"amenity":"waste_basket"}},"type":"Feature"},
	{"geometry":{"coordinates":[-84.280333,30.434405],"type":"Point"},"properties":{"osm_id":"3865966857","tag":{"amenity":"waste_basket","waste":"trash"}},"type":"Feature"},
	{"geometry":{"coordinates":[-84.211727,30.446414],"type":"Point"},"properties":{"osm_id":"3879207829","tag":{"amenity":"waste_basket"}},"type":"Feature"},
	{"geometry":{"coordinates":[-84.211747,30.446536],"type":"Point"},"properties":{"osm_id":"3879207830","tag":{"amenity":"waste_basket"}},"type":"Feature"},
	{"geometry":{"coordinates":[-84.28084,30.441768],"type":"Point"},"properties":{"osm_id":"4546872986","tag":{"amenity":"waste_basket"}},"type":"Feature"},
	{"geometry":{"coordinates":[-84.242001,30.442453],"type":"Point"},"properties":{"osm_id":"6122135094","tag":{"amenity":"waste_disposal"}},"type":"Feature"},
	{"geometry":{"coordinates":[-84.272253,30.431828],"type":"Point"},"properties":{"osm_id":"6233959537","tag":{"amenity":"waste_basket"}},"type":"Feature"},
	{"geometry":{"coordinates":[-84.272285,30.431843],"type":"Point"},"properties":{"osm_id":"6233959538","tag":{"amenity":"waste_basket"}},"type":"Feature"},
	{"geometry":{"coordinates":[-84.27274,30.432217],"type":"Point"},"properties":{"osm_id":"6233959542","tag":{"amenity":"waste_basket"}},"type":"Feature"},
	{"geometry":{"coordinates":[-84.271079,30.434892],"type":"Point"},"properties":{"osm_id":"6333547538","tag":{"amenity":"waste_basket","waste":"trash"}},"type":"Feature"},
	{"geometry":{"coordinates":[-84.276928,30.435894],"type":"Point"},"properties":{"osm_id":"6333650901","tag":{"amenity":"recycling","recycling_type":"container"}},"type":"Feature"},
	{"geometry":{"coordinates":[-84.27693,30.43588],"type":"Point"},"properties":{"osm_id":"6333650905","tag":{"amenity":"waste_basket","waste":"trash"}},"type":"Feature"},
	{"geometry":{"coordinates":[-84.271471,30.437037],"type":"Point"},"properties":{"osm_id":"6345628614","tag":{"amenity":"waste_basket","waste":"trash"}},"type":"Feature"},
	{"geometry":{"coordinates":[-84.276405,30.437506],"type":"Point"},"properties":{"osm_id":"6345673697","tag":{"amenity":"waste_basket","waste":"trash"}},"type":"Feature"},
	{"geometry":{"coordinates":[-84.276396,30.437513],"type":"Point"},"properties":{"osm_id":"6345673698","tag":{"amenity":"recycling","recycling_type":"container"}},"type":"Feature"},
	{"geometry":{"coordinates":[-84.277089,30.43479],"type":"Point"},"properties":{"osm_id":"6348470498","tag":{"amenity":"recycling","recycling_type":"container"}},"type":"Feature"},
	{"geometry":{"coordinates":[-84.277089,30.434797],"type":"Point"},"properties":{"osm_id":"6348470500","tag":{"amenity":"waste_basket","waste":"trash"}},"type":"Feature"},
	{"geometry":{"coordinates":[-84.26141,30.439846],"type":"Point"},"properties":{"osm_id":"6446345259","tag":{"amenity":"waste_basket"}},"type":"Feature"},
	{"geometry":{"coordinates":[-84.261417,30.439845],"type":"Point"},"properties":{"osm_id":"6446345260","tag":{"amenity":"recycling","recycling_type":"container"}},"type":"Feature"},
	{"geometry":{"coordinates":[-84.276544,30.438298],"type":"Point"},"properties":{"osm_id":"6452787200","tag":{"amenity":"waste_basket","waste":"trash"}},"type":"Feature"},
	{"geometry":{"coordinates":[-84.280323,30.434405],"type":"Point"},"properties":{"osm_id":"6452787207","tag":{"amenity":"recycling","recycling_type":"container","waste":"trash"}},"type":"Feature"},
	{"geometry":{"coordinates":[-84.27588,30.434838],"type":"Point"},"properties":{"osm_id":"6456204090","tag":{"amenity":"recycling","recycling_type":"container"}},"type":"Feature"},
	{"geometry":{"coordinates":[-84.276883,30.433778],"type":"Point"},"properties":{"osm_id":"6456204104","tag":{"amenity":"recycling","recycling_type":"container"}},"type":"Feature"},
	{"geometry":{"coordinates":[-84.275883,30.434828],"type":"Point"},"properties":{"osm_id":"6456204107","tag":{"amenity":"waste_basket","waste":"trash"}},"type":"Feature"},
	{"geometry":{"coordinates":[-84.27713,30.433901],"type":"Point"},"properties":{"osm_id":"6456204113","tag":{"amenity":"waste_basket","waste":"trash"}},"type":"Feature"},
	{"geometry":{"coordinates":[-84.27713,30.433889],"type":"Point"},"properties":{"osm_id":"6456204125","tag":{"amenity":"recycling","recycling_type":"container"}},"type":"Feature"},
	{"geometry":{"coordinates":[-84.280452,30.433807],"type":"Point"},"properties":{"osm_id":"6462839993","tag":{"amenity":"recycling","recycling_type":"container"}},"type":"Feature"},
	{"geometry":{"coordinates":[-84.278283,30.434084],"type":"Point"},"properties":{"osm_id":"6462840001","tag":{"amenity":"recycling","recycling_type":"container"}},"type":"Feature"},
	{"geometry":{"coordinates":[-84.280471,30.433808],"type":"Point"},"properties":{"osm_id":"6462840009","tag":{"amenity":"waste_basket","waste":"trash"}},"type":"Feature"},
	{"geometry":{"coordinates":[-84.278281,30.434065],"type":"Point"},"properties":{"osm_id":"6462840010","tag":{"amenity":"waste_basket","waste":"trash"}},"type":"Feature"},
	{"geometry":{"coordinates":[-84.278363,30.434298],"type":"Point"},"properties":{"osm_id":"6462840012","tag":{"amenity":"recycling","recycling_type":"container"}},"type":"Feature"},
	{"geometry":{"coordinates":[-84.276444,30.435528],"type":"Point"},"properties":{"osm_id":"6462840028","tag":{"amenity":"recycling","recycling_type":"container"}},"type":"Feature"},
	{"geometry":{"coordinates":[-84.276453,30.435528],"type":"Point"},"properties":{"osm_id":"6462840065","tag":{"amenity":"waste_basket","waste":"trash"}},"type":"Feature"},
	{"geometry":{"coordinates":[-84.278363,30.434305],"type":"Point"},"properties":{"osm_id":"6462840189","tag":{"amenity":"waste_basket","waste":"trash"}},"type":"Feature"},
	{"geometry":{"coordinates":[-84.277006,30.438591],"type":"Point"},"properties":{"osm_id":"6473540129","tag":{"amenity":"waste_basket","waste":"trash"}},"type":"Feature"},
	{"geometry":{"coordinates":[-84.276961,30.438387],"type":"Point"},"properties":{"osm_id":"6473540140","tag":{"amenity":"waste_basket","waste":"trash"}},"type":"Feature"},
	{"geometry":{"coordinates":[-84.276802,30.438401],"type":"Point"},"properties":{"osm_id":"6473540163","tag":{"amenity":"waste_basket","waste":"trash"}},"type":"Feature"},
	{"geometry":{"coordinates":[-84.275608,30.436563],"type":"Point"},"properties":{"osm_id":"6575570092","tag":{"amenity":"waste_basket","waste":"trash"}},"type":"Feature"},
	{"geometry":{"coordinates":[-84.275944,30.437124],"type":"Point"},"properties":{"osm_id":"6575570094","tag":{"amenity":"waste_basket","waste":"trash"}},"type":"Feature"},
	{"geometry":{"coordinates":[-84.276308,30.434513],"type":"Point"},"properties":{"osm_id":"6575570095","tag":{"amenity":"waste_basket","waste":"trash"}},"type":"Feature"},
	{"geometry":{"coordinates":[-84.275939,30.437112],"type":"Point"},"properties":{"osm_id":"6575570096","tag":{"amenity":"recycling","recycling_type":"container"}},"type":"Feature"},
	{"geometry":{"coordinates":[-84.276318,30.434513],"type":"Point"},"properties":{"osm_id":"6575570098","tag":{"amenity":"recycling","recycling_type":"container"}},"type":"Feature"},
	{"geometry":{"coordinates":[-84.275607,30.436552],"type":"Point"},"properties":{"osm_id":"6575570104","tag":{"amenity":"recycling","recycling_type":"container"}},"type":"Feature"},
	{"geometry":{"coordinates":[-84.240631,30.410307],"type":"Point"},"properties":{"osm_id":"6631157447","tag":{"access":"private","amenity":"waste_disposal"}},"type":"Feature"},
	{"geometry":{"coordinates":[-84.277463,30.433868],"type":"Point"},"properties":{"osm_id":"6818046201","tag":{"amenity":"waste_basket","waste":"trash"}},"type":"Feature"},
	{"geometry":{"coordinates":[-84.277442,30.433852],"type":"Point"},"properties":{"osm_id":"6818046203","tag":{"amenity":"recycling","recycling_type":"container"}},"type":"Feature"},
	{"geometry":{"coordinates":[-84.280866,30.443558],"type":"Point"},"properties":{"osm_id":"6980924618","tag":{"amenity":"waste_basket","waste":"trash"}},"type":"Feature"},
	{"geometry":{"coordinates":[-84.28052,30.441798],"type":"Point"},"properties":{"osm_id":"6980924622","tag":{"amenity":"waste_basket","waste":"trash"}},"type":"Feature"},
	{"geometry":{"coordinates":[-84.280913,30.441948],"type":"Point"},"properties":{"osm_id":"6980924626","tag":{"amenity":"waste_basket","waste":"trash"}},"type":"Feature"},
	{"geometry":{"coordinates":[-84.275228,30.445148],"type":"Point"},"properties":{"osm_id":"7070694575","tag":{"amenity":"waste_basket","waste":"trash"}},"type":"Feature"},
	{"geometry":{"coordinates":[-84.27523,30.44546],"type":"Point"},"properties":{"osm_id":"7070694577","tag":{"amenity":"waste_basket","backrest":"yes","colour":"red","material":"wood"}},"type":"Feature"},
	{"geometry":{"coordinates":[-84.275229,30.445525],"type":"Point"},"properties":{"osm_id":"7070694578","tag":{"amenity":"waste_basket","waste":"trash"}},"type":"Feature"},
	{"geometry":{"coordinates":[-84.27522,30.445764],"type":"Point"},"properties":{"osm_id":"7070694583","tag":{"amenity":"waste_basket","waste":"trash"}},"type":"Feature"},
	{"geometry":{"coordinates":[-84.275229,30.446041],"type":"Point"},"properties":{"osm_id":"7070694584","tag":{"amenity":"waste_basket","waste":"trash"}},"type":"Feature"},
	{"geometry":{"coordinates":[-84.236289,30.409533],"type":"Point"},"properties":{"osm_id":"7344826506","tag":{"access":"private","amenity":"waste_disposal"}},"type":"Feature"},
	{"geometry":{"coordinates":[-84.250462,30.448249],"type":"Point"},"properties":{"osm_id":"7348550524","tag":{"amenity":"waste_basket","waste":"trash"}},"type":"Feature"},
	{"geometry":{"coordinates":[-84.241028,30.429508],"type":"Point"},"properties":{"osm_id":"7795087277","tag":{"access":"privateBosch","amenity":"waste_disposal"}},"type":"Feature"},
	{"geometry":{"coordinates":[-84.241031,30.429547],"type":"Point"},"properties":{"osm_id":"7795087278","tag":{"access":"privateBosch","amenity":"waste_disposal"}},"type":"Feature"},
	{"geometry":{"coordinates":[-84.227777,30.427972],"type":"Point"},"properties":{"osm_id":"7826453549","tag":{"access":"private","amenity":"waste_disposal"}},"type":"Feature"},
	{"geometry":{"coordinates":[-84.227469,30.428023],"type":"Point"},"properties":{"osm_id":"7826453550","tag":{"access":"private","amenity":"waste_disposal"}},"type":"Feature"},
	{"geometry":{"coordinates":[-84.227525,30.427892],"type":"Point"},"properties":{"osm_id":"7826453551","tag":{"access":"private","amenity":"waste_disposal"}},"type":"Feature"}
]
}
