{
"type": "FeatureCollection",
"lastupdate": "2020-08-02T00:00:00Z",
"features": [
	{"geometry":{"coordinates":[-84.220654,10.018851],"type":"Point"},"properties":{"osm_id":"2517040811","tag":{"amenity":"recycling","operator":"Municipalidad de Alajuela","recycling:glass":"yes","recycling:paper":"yes","recycling:plastic":"yes","recycling_type":"container"}},"type":"Feature"},
	{"geometry":{"coordinates":[-84.207759,10.013142],"type":"Point"},"properties":{"osm_id":"3769152936","tag":{"amenity":"waste_basket"}},"type":"Feature"},
	{"geometry":{"coordinates":[-84.219296,10.018984],"type":"Point"},"properties":{"osm_id":"3952088277","tag":{"amenity":"recycling","recycling_type":"center"}},"type":"Feature"},
	{"geometry":{"coordinates":[-84.205123,10.017524],"type":"Point"},"properties":{"osm_id":"6437544695","ref":"1","tag":{"amenity":"recycling","operator":"Comunidad Pionera","recycling:organic":"yes","recycling_type":"container"}},"type":"Feature"},
	{"geometry":{"coordinates":[-84.205355,10.016061],"type":"Point"},"properties":{"osm_id":"6437568838","ref":"6","tag":{"amenity":"recycling","operator":"Comunidad Pionera","recycling:organic":"yes","recycling_type":"container"}},"type":"Feature"},
	{"geometry":{"coordinates":[-84.21377,10.014339],"type":"Point"},"properties":{"osm_id":"6437610701","tag":{"amenity":"waste_basket"}},"type":"Feature"},
	{"geometry":{"coordinates":[-84.213086,10.015156],"type":"Point"},"properties":{"osm_id":"6439878875","tag":{"amenity":"waste_basket"}},"type":"Feature"},
	{"geometry":{"coordinates":[-84.205013,10.016821],"type":"Point"},"properties":{"osm_id":"6440839060","ref":"2","tag":{"amenity":"recycling","operator":"Comunidad Pionera","recycling:organic":"yes","recycling_type":"container"}},"type":"Feature"},
	{"geometry":{"coordinates":[-84.212606,10.016846],"type":"Point"},"properties":{"osm_id":"6484608493","tag":{"amenity":"waste_basket"}},"type":"Feature"},
	{"geometry":{"coordinates":[-84.211773,10.006764],"type":"Point"},"properties":{"osm_id":"6486953285","tag":{"amenity":"waste_basket","collection_times":"Tuesday and Friday","description":"There are Twin trash cans in front of International Mall","operator":"Municipalidad de Alajuela"}},"type":"Feature"},
	{"geometry":{"coordinates":[-84.217554,10.019443],"type":"Point"},"properties":{"osm_id":"6488262539","tag":{"amenity":"waste_basket"}},"type":"Feature"},
	{"geometry":{"coordinates":[-84.215082,10.020222],"type":"Point"},"properties":{"osm_id":"6488262540","tag":{"amenity":"waste_basket"}},"type":"Feature"},
	{"geometry":{"coordinates":[-84.211869,10.021129],"type":"Point"},"properties":{"osm_id":"6488262542","tag":{"amenity":"waste_basket"}},"type":"Feature"},
	{"geometry":{"coordinates":[-84.211055,10.021395],"type":"Point"},"properties":{"osm_id":"6488262543","tag":{"amenity":"waste_basket"}},"type":"Feature"},
	{"geometry":{"coordinates":[-84.20509,10.01813],"type":"Point"},"properties":{"osm_id":"6488331881","tag":{"amenity":"waste_basket","operator":"Municipalidad de Alajuela","waste":"trash"}},"type":"Feature"},
	{"geometry":{"coordinates":[-84.213802,10.01655],"type":"Point"},"properties":{"osm_id":"6489528627","tag":{"amenity":"waste_basket"}},"type":"Feature"},
	{"geometry":{"coordinates":[-84.216402,10.019857],"type":"Point"},"properties":{"name":"La Maravilla","osm_id":"6489791358","tag":{"amenity":"waste_basket","bus":"yes","public_transport":"stop_position"}},"type":"Feature"},
	{"geometry":{"coordinates":[-84.214062,10.01603],"type":"Point"},"properties":{"osm_id":"6492215353","tag":{"amenity":"waste_basket"}},"type":"Feature"},
	{"geometry":{"coordinates":[-84.214298,10.015952],"type":"Point"},"properties":{"osm_id":"6492215354","tag":{"amenity":"waste_basket"}},"type":"Feature"},
	{"geometry":{"coordinates":[-84.21006,10.017183],"type":"Point"},"properties":{"osm_id":"6492268545","tag":{"amenity":"waste_basket"}},"type":"Feature"},
	{"geometry":{"coordinates":[-84.206652,10.012495],"type":"Point"},"properties":{"osm_id":"6492320799","tag":{"amenity":"waste_basket","collection_times":"todos los dias"}},"type":"Feature"},
	{"geometry":{"coordinates":[-84.214039,10.014372],"type":"Point"},"properties":{"osm_id":"6492368943","tag":{"amenity":"waste_basket"}},"type":"Feature"},
	{"geometry":{"coordinates":[-84.209045,10.017402],"type":"Point"},"properties":{"osm_id":"6492420837","tag":{"amenity":"waste_basket"}},"type":"Feature"},
	{"geometry":{"coordinates":[-84.214069,10.019918],"type":"Point"},"properties":{"name":"Municipalidad de Alajuela","osm_id":"6492523937","tag":{"amenity":"waste_basket","collection_times":"Martes y viernes."}},"type":"Feature"},
	{"geometry":{"coordinates":[-84.216354,10.01984],"type":"Point"},"properties":{"osm_id":"6493018071","tag":{"amenity":"waste_basket","description":"junto al poste de luz"}},"type":"Feature"},
	{"geometry":{"coordinates":[-84.21426,10.016308],"type":"Point"},"properties":{"osm_id":"6493294284","tag":{"amenity":"waste_basket","waste":"trash"}},"type":"Feature"},
	{"geometry":{"coordinates":[-84.218924,10.009923],"type":"Point"},"properties":{"osm_id":"6493331245","tag":{"amenity":"waste_basket","collection_times":"Tuesday and Friday","description":"It is located inside the playground but one can access it by the edge of the mesh","operator":"Municipalidad de Alajuela"}},"type":"Feature"},
	{"geometry":{"coordinates":[-84.214793,10.02039],"type":"Point"},"properties":{"name":"Municipalidad de Alajuela","osm_id":"6493347948","tag":{"amenity":"waste_basket","collection_times":"Martes y Viernes"}},"type":"Feature"},
	{"geometry":{"coordinates":[-84.213679,10.014354],"type":"Point"},"properties":{"osm_id":"6493801649","tag":{"amenity":"waste_basket"}},"type":"Feature"},
	{"geometry":{"coordinates":[-84.217977,10.00681],"type":"Point"},"properties":{"osm_id":"6495482521","tag":{"amenity":"waste_basket","waste":"trash"}},"type":"Feature"},
	{"geometry":{"coordinates":[-84.213846,10.016705],"type":"Point"},"properties":{"osm_id":"6495779466","tag":{"amenity":"waste_basket"}},"type":"Feature"},
	{"geometry":{"coordinates":[-84.213521,10.016579],"type":"Point"},"properties":{"osm_id":"6495838796","tag":{"amenity":"waste_basket"}},"type":"Feature"},
	{"geometry":{"coordinates":[-84.213698,10.020491],"type":"Point"},"properties":{"osm_id":"7107619765","tag":{"amenity":"waste_basket"}},"type":"Feature"},
	{"geometry":{"coordinates":[-84.214193,10.019663],"type":"Point"},"properties":{"osm_id":"7107641280","tag":{"amenity":"waste_basket"}},"type":"Feature"},
	{"geometry":{"coordinates":[-84.213555,10.020063],"type":"Point"},"properties":{"osm_id":"7107664789","tag":{"amenity":"waste_basket"}},"type":"Feature"}
]
}
