{
"type": "FeatureCollection",
"features": [
	{"geometry":{"coordinates":[-1.778031,53.646373],"type":"Point"},"properties":{"osm_id":"1039830776","tag":{"amenity":"waste_basket"}},"type":"Feature"},
	{"geometry":{"coordinates":[-1.776821,53.645841],"type":"Point"},"properties":{"osm_id":"1039830938","tag":{"amenity":"waste_basket"}},"type":"Feature"},
	{"geometry":{"coordinates":[-1.776994,53.645989],"type":"Point"},"properties":{"osm_id":"1039830953","tag":{"amenity":"waste_basket"}},"type":"Feature"},
	{"geometry":{"coordinates":[-1.783206,53.644797],"type":"Point"},"properties":{"osm_id":"1041331272","tag":{"amenity":"waste_basket"}},"type":"Feature"},
	{"geometry":{"coordinates":[-1.780414,53.645622],"type":"Point"},"properties":{"osm_id":"1055328731","tag":{"amenity":"waste_basket"}},"type":"Feature"},
	{"geometry":{"coordinates":[-1.777707,53.645933],"type":"Point"},"properties":{"osm_id":"1055328763","tag":{"amenity":"waste_basket"}},"type":"Feature"},
	{"geometry":{"coordinates":[-1.77353,53.672806],"type":"Point"},"properties":{"osm_id":"1361028212","tag":{"amenity":"waste_basket"}},"type":"Feature"},
	{"geometry":{"coordinates":[-1.772475,53.671072],"type":"Point"},"properties":{"osm_id":"1434904486","tag":{"amenity":"waste_basket"}},"type":"Feature"},
	{"geometry":{"coordinates":[-1.791837,53.65573],"type":"Point"},"properties":{"name":"Bottle Bank","osm_id":"3551989863","tag":{"amenity":"recycling","recycling_type":"container"}},"type":"Feature"},
	{"geometry":{"coordinates":[-1.789179,53.649759],"type":"Point"},"properties":{"osm_id":"4790824188","tag":{"amenity":"waste_basket"}},"type":"Feature"},
	{"geometry":{"coordinates":[-1.781144,53.648091],"type":"Point"},"properties":{"osm_id":"7234413031","tag":{"amenity":"waste_basket"}},"type":"Feature"},
	{"geometry":{"coordinates":[-1.781413,53.647542],"type":"Point"},"properties":{"osm_id":"7234413032","tag":{"amenity":"waste_basket","colour":"green","material":"metal","waste":"recycling"}},"type":"Feature"},
	{"geometry":{"coordinates":[-1.78141,53.64753],"type":"Point"},"properties":{"osm_id":"7234413033","tag":{"amenity":"waste_basket","colour":"black","material":"metal","waste":"litter"}},"type":"Feature"},
	{"geometry":{"coordinates":[-1.78132,53.647237],"type":"Point"},"properties":{"osm_id":"7234413034","tag":{"amenity":"waste_basket","colour":"blue","material":"metal"}},"type":"Feature"},
	{"geometry":{"coordinates":[-1.78072,53.647767],"type":"Point"},"properties":{"osm_id":"7234413041","tag":{"amenity":"waste_basket"}},"type":"Feature"}
]
}
