{
"type": "FeatureCollection",
"features": [
	{"geometry":{"coordinates":[-1.789523,53.628209],"type":"Point"},"properties":{"osm_id":"1277447792","tag":{"amenity":"waste_basket"}},"type":"Feature"},
	{"geometry":{"coordinates":[-1.787577,53.63073],"type":"Point"},"properties":{"osm_id":"1277447810","tag":{"amenity":"waste_basket"}},"type":"Feature"},
	{"geometry":{"coordinates":[-1.769664,53.624022],"type":"Point"},"properties":{"osm_id":"1279689386","tag":{"amenity":"waste_basket"}},"type":"Feature"},
	{"geometry":{"coordinates":[-1.774408,53.627013],"type":"Point"},"properties":{"osm_id":"1308161017","tag":{"amenity":"waste_basket"}},"type":"Feature"},
	{"geometry":{"coordinates":[-1.78472,53.627457],"type":"Point"},"properties":{"osm_id":"1324360030","tag":{"amenity":"waste_basket"}},"type":"Feature"},
	{"geometry":{"coordinates":[-1.786608,53.628478],"type":"Point"},"properties":{"osm_id":"1324360118","tag":{"amenity":"waste_basket"}},"type":"Feature"},
	{"geometry":{"coordinates":[-1.793669,53.631849],"type":"Point"},"properties":{"osm_id":"1510655364","tag":{"amenity":"recycling","recycling:glass":"yes"}},"type":"Feature"},
	{"geometry":{"coordinates":[-1.811543,53.643168],"type":"Point"},"properties":{"osm_id":"1534826980","tag":{"amenity":"recycling","operator":"Save The Mothers Trust","recycling:clothes":"yes","recycling:paper":"yes"}},"type":"Feature"},
	{"geometry":{"coordinates":[-1.803503,53.642327],"type":"Point"},"properties":{"osm_id":"1535922285","tag":{"amenity":"recycling","recycling:clothes":"yes"}},"type":"Feature"},
	{"geometry":{"coordinates":[-1.805074,53.642519],"type":"Point"},"properties":{"osm_id":"1535922312","tag":{"amenity":"waste_basket"}},"type":"Feature"},
	{"geometry":{"coordinates":[-1.811595,53.643938],"type":"Point"},"properties":{"osm_id":"1535922416","tag":{"amenity":"waste_basket"}},"type":"Feature"},
	{"geometry":{"coordinates":[-1.813574,53.64403],"type":"Point"},"properties":{"osm_id":"1535922428","tag":{"amenity":"waste_basket"}},"type":"Feature"},
	{"geometry":{"coordinates":[-1.813785,53.64419],"type":"Point"},"properties":{"osm_id":"1535922452","tag":{"amenity":"waste_basket"}},"type":"Feature"},
	{"geometry":{"coordinates":[-1.810236,53.638256],"type":"Point"},"properties":{"name":"Glass","osm_id":"2080325161","tag":{"amenity":"recycling","recycling_type":"container"}},"type":"Feature"},
	{"geometry":{"coordinates":[-1.76297,53.644077],"type":"Point"},"properties":{"osm_id":"2107337308","tag":{"amenity":"waste_basket"}},"type":"Feature"},
	{"geometry":{"coordinates":[-1.762209,53.6444],"type":"Point"},"properties":{"osm_id":"2107337396","tag":{"amenity":"waste_basket"}},"type":"Feature"},
	{"geometry":{"coordinates":[-1.802265,53.635978],"type":"Point"},"properties":{"osm_id":"2376472654","tag":{"amenity":"waste_basket"}},"type":"Feature"},
	{"geometry":{"coordinates":[-1.803235,53.636351],"type":"Point"},"properties":{"osm_id":"2376472658","tag":{"amenity":"waste_basket"}},"type":"Feature"},
	{"geometry":{"coordinates":[-1.8031,53.636142],"type":"Point"},"properties":{"osm_id":"2376472661","tag":{"amenity":"recycling","recycling:clothes":"yes","recycling_type":"container"}},"type":"Feature"},
	{"geometry":{"coordinates":[-1.804024,53.636449],"type":"Point"},"properties":{"osm_id":"2376485453","tag":{"amenity":"waste_basket"}},"type":"Feature"},
	{"geometry":{"coordinates":[-1.807091,53.637196],"type":"Point"},"properties":{"osm_id":"2376485457","tag":{"amenity":"waste_basket"}},"type":"Feature"},
	{"geometry":{"coordinates":[-1.807751,53.638204],"type":"Point"},"properties":{"osm_id":"2376589327","tag":{"amenity":"waste_basket"}},"type":"Feature"},
	{"geometry":{"coordinates":[-1.807564,53.638122],"type":"Point"},"properties":{"osm_id":"2376589331","tag":{"amenity":"waste_basket"}},"type":"Feature"},
	{"geometry":{"coordinates":[-1.823095,53.638778],"type":"Point"},"properties":{"osm_id":"2400234908","tag":{"amenity":"waste_basket"}},"type":"Feature"},
	{"geometry":{"coordinates":[-1.823317,53.638784],"type":"Point"},"properties":{"osm_id":"2400234915","tag":{"amenity":"waste_basket"}},"type":"Feature"},
	{"geometry":{"coordinates":[-1.794435,53.620252],"type":"Point"},"properties":{"osm_id":"2415169117","tag":{"amenity":"waste_basket"}},"type":"Feature"},
	{"geometry":{"coordinates":[-1.794397,53.620142],"type":"Point"},"properties":{"osm_id":"2415169137","tag":{"amenity":"waste_basket"}},"type":"Feature"},
	{"geometry":{"coordinates":[-1.793354,53.618732],"type":"Point"},"properties":{"osm_id":"2415237511","tag":{"amenity":"waste_basket"}},"type":"Feature"},
	{"geometry":{"coordinates":[-1.792437,53.618543],"type":"Point"},"properties":{"osm_id":"2415237513","tag":{"amenity":"waste_basket"}},"type":"Feature"},
	{"geometry":{"coordinates":[-1.791872,53.604052],"type":"Point"},"properties":{"osm_id":"2558097121","tag":{"amenity":"recycling","recycling_type":"container"}},"type":"Feature"},
	{"geometry":{"coordinates":[-1.769877,53.622555],"type":"Point"},"properties":{"osm_id":"2808137942","tag":{"amenity":"waste_basket"}},"type":"Feature"}
]
}
