{
"type": "FeatureCollection",
"features": [
	{"geometry":{"coordinates":[-1.843235,52.460623],"type":"Point"},"properties":{"name":"Tyseley Public Waste Disposal Site","osm_id":"60028271","tag":{"amenity":"recycling"}},"type":"Feature"},
	{"geometry":{"coordinates":[-1.816183,52.461007],"type":"Point"},"properties":{"osm_id":"463175322","tag":{"amenity":"recycling"}},"type":"Feature"},
	{"geometry":{"coordinates":[-1.821589,52.445978],"type":"Point"},"properties":{"osm_id":"715391576","tag":{"amenity":"recycling"}},"type":"Feature"},
	{"geometry":{"coordinates":[-1.7944,52.464255],"type":"Point"},"properties":{"osm_id":"727768984","tag":{"amenity":"recycling"}},"type":"Feature"},
	{"geometry":{"coordinates":[-1.810213,52.466464],"type":"Point"},"properties":{"osm_id":"762426267","tag":{"amenity":"recycling"}},"type":"Feature"},
	{"geometry":{"coordinates":[-1.80378,52.461218],"type":"Point"},"properties":{"osm_id":"762426353","tag":{"amenity":"recycling"}},"type":"Feature"},
	{"geometry":{"coordinates":[-1.835857,52.438214],"type":"Point"},"properties":{"osm_id":"3778528204","tag":{"amenity":"recycling"}},"type":"Feature"},
	{"geometry":{"coordinates":[-1.785517,52.444583],"type":"Point"},"properties":{"osm_id":"3812374124","tag":{"amenity":"recycling"}},"type":"Feature"},
	{"geometry":{"coordinates":[-1.760893,52.480153],"type":"Point"},"properties":{"osm_id":"4493233290","tag":{"amenity":"recycling"}},"type":"Feature"},
	{"geometry":{"coordinates":[-1.76987,52.441292],"type":"Point"},"properties":{"osm_id":"6083698098","tag":{"amenity":"waste_basket","waste":"dog_excrement"}},"type":"Feature"},
	{"geometry":{"coordinates":[-1.765049,52.442936],"type":"Point"},"properties":{"osm_id":"6083698108","tag":{"amenity":"waste_basket"}},"type":"Feature"},
	{"geometry":{"coordinates":[-1.767498,52.442988],"type":"Point"},"properties":{"osm_id":"6083698112","tag":{"amenity":"waste_basket"}},"type":"Feature"},
	{"geometry":{"coordinates":[-1.767823,52.443564],"type":"Point"},"properties":{"osm_id":"6083698120","tag":{"amenity":"waste_basket"}},"type":"Feature"},
	{"geometry":{"coordinates":[-1.767619,52.441149],"type":"Point"},"properties":{"osm_id":"6083698134","tag":{"amenity":"waste_basket"}},"type":"Feature"},
	{"geometry":{"coordinates":[-1.770258,52.441352],"type":"Point"},"properties":{"osm_id":"6083698138","tag":{"amenity":"waste_basket"}},"type":"Feature"},
	{"geometry":{"coordinates":[-1.770378,52.441897],"type":"Point"},"properties":{"osm_id":"6083698139","tag":{"amenity":"waste_basket"}},"type":"Feature"},
	{"geometry":{"coordinates":[-1.770394,52.442735],"type":"Point"},"properties":{"osm_id":"6083698140","tag":{"amenity":"waste_basket"}},"type":"Feature"},
	{"geometry":{"coordinates":[-1.763316,52.443182],"type":"Point"},"properties":{"osm_id":"6083698179","tag":{"amenity":"waste_basket"}},"type":"Feature"},
	{"geometry":{"coordinates":[-1.763602,52.442775],"type":"Point"},"properties":{"osm_id":"6083698180","tag":{"amenity":"waste_basket","waste":"dog_excrement"}},"type":"Feature"},
	{"geometry":{"coordinates":[-1.763838,52.442863],"type":"Point"},"properties":{"osm_id":"6083698181","tag":{"amenity":"waste_basket"}},"type":"Feature"},
	{"geometry":{"coordinates":[-1.820413,52.43804],"type":"Point"},"properties":{"osm_id":"7414632012","tag":{"amenity":"waste_basket"}},"type":"Feature"},
	{"geometry":{"coordinates":[-1.819816,52.438722],"type":"Point"},"properties":{"osm_id":"7414632013","tag":{"amenity":"waste_basket"}},"type":"Feature"}
]
}
