{
"type": "FeatureCollection",
"lastupdate": "2020-08-04T00:00:00Z",
"features": [
	{"geometry":{"coordinates":[-1.794196,47.969293],"type":"Point"},"properties":{"osm_id":"304167227","tag":{"amenity":"recycling","recycling:glass":"yes","recycling_type":"container"}},"type":"Feature"},
	{"geometry":{"coordinates":[-1.830339,47.983897],"type":"Point"},"properties":{"osm_id":"447079432","tag":{"amenity":"recycling","recycling:glass":"yes"}},"type":"Feature"},
	{"geometry":{"coordinates":[-1.792468,47.979077],"type":"Point"},"properties":{"osm_id":"708055409","tag":{"access":"yes","amenity":"recycling","fee":"no","recycling:glass_bottles":"yes","recycling:glass_jars":"yes","recycling_type":"container","wheelchair":"no"}},"type":"Feature"},
	{"geometry":{"coordinates":[-1.800078,47.961175],"type":"Point"},"properties":{"osm_id":"847517685","tag":{"amenity":"waste_basket"}},"type":"Feature"},
	{"geometry":{"coordinates":[-1.794694,47.964087],"type":"Point"},"properties":{"osm_id":"847532820","tag":{"amenity":"waste_basket"}},"type":"Feature"},
	{"geometry":{"coordinates":[-1.795135,47.965221],"type":"Point"},"properties":{"osm_id":"847532861","tag":{"amenity":"waste_basket"}},"type":"Feature"},
	{"geometry":{"coordinates":[-1.805673,47.96405],"type":"Point"},"properties":{"osm_id":"854255108","tag":{"amenity":"waste_basket"}},"type":"Feature"},
	{"geometry":{"coordinates":[-1.81729,47.952734],"type":"Point"},"properties":{"osm_id":"854255150","tag":{"amenity":"recycling","recycling:glass":"yes","recycling:paper":"yes"}},"type":"Feature"},
	{"geometry":{"coordinates":[-1.800867,47.965499],"type":"Point"},"properties":{"osm_id":"2839209111","tag":{"amenity":"recycling","recycling_type":"container"}},"type":"Feature"},
	{"geometry":{"coordinates":[-1.804196,47.96364],"type":"Point"},"properties":{"osm_id":"2839257317","tag":{"amenity":"recycling","recycling_type":"container"}},"type":"Feature"},
	{"geometry":{"coordinates":[-1.80425,47.963877],"type":"Point"},"properties":{"osm_id":"2839257330","tag":{"amenity":"waste_basket"}},"type":"Feature"},
	{"geometry":{"coordinates":[-1.814827,47.974323],"type":"Point"},"properties":{"osm_id":"4481008920","tag":{"amenity":"waste_basket","wheelchair":"yes"}},"type":"Feature"},
	{"geometry":{"coordinates":[-1.788956,47.971143],"type":"Point"},"properties":{"osm_id":"5272170813","tag":{"amenity":"recycling","recycling_type":"container"}},"type":"Feature"},
	{"geometry":{"coordinates":[-1.793757,47.970964],"type":"Point"},"properties":{"osm_id":"5288219881","tag":{"amenity":"waste_basket","wheelchair":"yes"}},"type":"Feature"},
	{"geometry":{"coordinates":[-1.799044,47.968896],"type":"Point"},"properties":{"osm_id":"6858458817","tag":{"amenity":"waste_basket"}},"type":"Feature"}
]
}
