{
"type": "FeatureCollection",
"features": [
	{"geometry":{"coordinates":[-1.773627,47.605616],"type":"Point"},"properties":{"name":"VE 1 Gu\u00c3\u00a9m\u00c3\u00a9n\u00c3\u00a9 Panfao-Parking Cimeti\u00c3\u00a8re","osm_id":"4823350670","tag":{"amenity":"recycling","operator":"Communaut\u00c3\u00a9 de Communes du Pays de Redon","recycling:glass_bottles":"yes","recycling_type":"container"}},"type":"Feature"},
	{"geometry":{"coordinates":[-1.830457,47.629828],"type":"Point"},"properties":{"name":"Gu\u00c3\u00a9m\u00c3\u00a9n\u00c3\u00a9 Penfao - Parking Tannerie - 8","osm_id":"4823350685","tag":{"amenity":"recycling","operator":"Communaut\u00c3\u00a9 de Communes du Pays de Redon","recycling:glass_bottles":"yes","recycling_type":"container"}},"type":"Feature"},
	{"geometry":{"coordinates":[-1.844369,47.627698],"type":"Point"},"properties":{"name":"Gu\u00c3\u00a9m\u00c3\u00a9n\u00c3\u00a9 Penfao - Rue Neuve - 4","osm_id":"4823350689","tag":{"amenity":"recycling","operator":"Communaut\u00c3\u00a9 de Communes du Pays de Redon","recycling:glass_bottles":"yes","recycling_type":"container"}},"type":"Feature"},
	{"geometry":{"coordinates":[-1.81717,47.625501],"type":"Point"},"properties":{"name":"Gu\u00c3\u00a9m\u00c3\u00a9n\u00c3\u00a9 Penfao - Stade Bellevue - 7","osm_id":"4823350704","tag":{"amenity":"recycling","operator":"Communaut\u00c3\u00a9 de Communes du Pays de Redon","recycling:glass_bottles":"yes","recycling_type":"container"}},"type":"Feature"},
	{"geometry":{"coordinates":[-1.788562,47.600849],"type":"Point"},"properties":{"name":"Gu\u00c3\u00a9m\u00c3\u00a9n\u00c3\u00a9 Penfao - Guenouvry - Le Verger - 1","osm_id":"4823350711","tag":{"amenity":"recycling","operator":"Communaut\u00c3\u00a9 de Communes du Pays de Redon","recycling:glass_bottles":"yes","recycling_type":"container"}},"type":"Feature"},
	{"geometry":{"coordinates":[-1.823147,47.629402],"type":"Point"},"properties":{"name":"Gu\u00c3\u00a9m\u00c3\u00a9n\u00c3\u00a9 Penfao - Chemin de la Fontaine - 6","osm_id":"4823350713","tag":{"amenity":"recycling","operator":"Communaut\u00c3\u00a9 de Communes du Pays de Redon","recycling:glass_bottles":"yes","recycling_type":"container"}},"type":"Feature"},
	{"geometry":{"coordinates":[-1.833129,47.635251],"type":"Point"},"properties":{"name":"Gu\u00c3\u00a9m\u00c3\u00a9n\u00c3\u00a9 Penfao - Place du Nord - 9","osm_id":"4823352144","tag":{"amenity":"recycling","operator":"Communaut\u00c3\u00a9 de Communes du Pays de Redon","recycling:glass_bottles":"yes","recycling_type":"container"}},"type":"Feature"},
	{"geometry":{"coordinates":[-1.841854,47.629325],"type":"Point"},"properties":{"name":"Gu\u00c3\u00a9m\u00c3\u00a9n\u00c3\u00a9 Penfao - La Houssine - 5","osm_id":"4823352148","tag":{"amenity":"recycling","operator":"Communaut\u00c3\u00a9 de Communes du Pays de Redon","recycling:glass_bottles":"yes","recycling_type":"container"}},"type":"Feature"},
	{"geometry":{"coordinates":[-1.831179,47.625827],"type":"Point"},"properties":{"osm_id":"7629278415","tag":{"amenity":"waste_basket"}},"type":"Feature"},
	{"geometry":{"coordinates":[-1.831258,47.626082],"type":"Point"},"properties":{"osm_id":"7629278416","tag":{"amenity":"waste_basket"}},"type":"Feature"},
	{"geometry":{"coordinates":[-1.819481,47.625123],"type":"Point"},"properties":{"osm_id":"7801603287","tag":{"amenity":"waste_basket"}},"type":"Feature"},
	{"geometry":{"coordinates":[-1.819479,47.6257],"type":"Point"},"properties":{"osm_id":"7801603288","tag":{"amenity":"waste_basket"}},"type":"Feature"},
	{"geometry":{"coordinates":[-1.819424,47.625842],"type":"Point"},"properties":{"osm_id":"7801603291","tag":{"amenity":"waste_basket"}},"type":"Feature"}
]
}
