{
"type": "FeatureCollection",
"features": [
	{"geometry":{"coordinates":[-1.773101,46.542618],"type":"Point"},"properties":{"osm_id":"2411026562","tag":{"amenity":"recycling","recycling:glass":"no"}},"type":"Feature"},
	{"geometry":{"coordinates":[-1.807419,46.502281],"type":"Point"},"properties":{"osm_id":"3052640970","tag":{"amenity":"recycling","recycling:glass":"yes","recycling:paper":"yes","recycling_type":"container"}},"type":"Feature"},
	{"geometry":{"coordinates":[-1.790785,46.517399],"type":"Point"},"properties":{"osm_id":"3053268782","tag":{"amenity":"recycling","recycling:glass":"yes","recycling:paper":"yes"}},"type":"Feature"},
	{"geometry":{"coordinates":[-1.760059,46.506743],"type":"Point"},"properties":{"osm_id":"3724161783","tag":{"amenity":"recycling","recycling:glass":"yes","recycling_type":"container"}},"type":"Feature"},
	{"geometry":{"coordinates":[-1.781662,46.537406],"type":"Point"},"properties":{"osm_id":"3932450316","tag":{"amenity":"recycling"}},"type":"Feature"},
	{"geometry":{"coordinates":[-1.788875,46.507676],"type":"Point"},"properties":{"osm_id":"4024257103","tag":{"amenity":"recycling"}},"type":"Feature"},
	{"geometry":{"coordinates":[-1.786102,46.510228],"type":"Point"},"properties":{"osm_id":"4133478491","tag":{"amenity":"recycling","recycling:glass":"yes","recycling:glass_bottles":"yes"}},"type":"Feature"},
	{"geometry":{"coordinates":[-1.79837,46.505401],"type":"Point"},"properties":{"osm_id":"4181713712","tag":{"amenity":"recycling"}},"type":"Feature"},
	{"geometry":{"coordinates":[-1.803652,46.509365],"type":"Point"},"properties":{"osm_id":"4268064160","tag":{"amenity":"recycling"}},"type":"Feature"},
	{"geometry":{"coordinates":[-1.793774,46.503095],"type":"Point"},"properties":{"osm_id":"4312799594","tag":{"amenity":"recycling","recycling_type":"container"}},"type":"Feature"},
	{"geometry":{"coordinates":[-1.795475,46.502474],"type":"Point"},"properties":{"osm_id":"4312799603","tag":{"amenity":"recycling","colour":"green","recycling:glass":"yes","recycling_type":"container"}},"type":"Feature"},
	{"geometry":{"coordinates":[-1.795912,46.500173],"type":"Point"},"properties":{"osm_id":"4312799605","tag":{"amenity":"recycling","colour":"red","recycling:glass":"yes","recycling_type":"container"}},"type":"Feature"},
	{"geometry":{"coordinates":[-1.796869,46.500889],"type":"Point"},"properties":{"osm_id":"4312804815","tag":{"amenity":"waste_basket"}},"type":"Feature"},
	{"geometry":{"coordinates":[-1.795745,46.538163],"type":"Point"},"properties":{"osm_id":"4455340990","tag":{"amenity":"recycling"}},"type":"Feature"},
	{"geometry":{"coordinates":[-1.781426,46.53678],"type":"Point"},"properties":{"osm_id":"4542913469","tag":{"amenity":"recycling","recycling_type":"container"}},"type":"Feature"},
	{"geometry":{"coordinates":[-1.795508,46.502464],"type":"Point"},"properties":{"osm_id":"7068096192","tag":{"amenity":"recycling","colour":"grey","recycling_type":"container"}},"type":"Feature"},
	{"geometry":{"coordinates":[-1.793733,46.50311],"type":"Point"},"properties":{"osm_id":"7068096194","tag":{"amenity":"recycling","colour":"green","recycling:glass":"yes","recycling_type":"container"}},"type":"Feature"},
	{"geometry":{"coordinates":[-1.793716,46.503116],"type":"Point"},"properties":{"osm_id":"7068096195","tag":{"amenity":"recycling","colour":"yellow","recycling_type":"container"}},"type":"Feature"},
	{"geometry":{"coordinates":[-1.7937,46.503123],"type":"Point"},"properties":{"osm_id":"7068096196","tag":{"amenity":"recycling","colour":"yellow","recycling_type":"container"}},"type":"Feature"},
	{"geometry":{"coordinates":[-1.793683,46.503129],"type":"Point"},"properties":{"osm_id":"7068096197","tag":{"amenity":"recycling","colour":"blue","recycling_type":"container"}},"type":"Feature"},
	{"geometry":{"coordinates":[-1.793667,46.503135],"type":"Point"},"properties":{"osm_id":"7068096198","tag":{"amenity":"recycling","colour":"blue","recycling_type":"container"}},"type":"Feature"},
	{"geometry":{"coordinates":[-1.793749,46.503104],"type":"Point"},"properties":{"osm_id":"7068096199","tag":{"amenity":"recycling","colour":"green","recycling:glass":"yes","recycling_type":"container"}},"type":"Feature"},
	{"geometry":{"coordinates":[-1.79589,46.500182],"type":"Point"},"properties":{"osm_id":"7068096211","tag":{"amenity":"recycling","colour":"blue","recycling:glass":"yes","recycling_type":"container","seamark:small_craft_facility:category":"refuse_bin","seamark:type":"small_craft_facility"}},"type":"Feature"},
	{"geometry":{"coordinates":[-1.795869,46.500192],"type":"Point"},"properties":{"osm_id":"7068096212","tag":{"amenity":"recycling","colour":"green","recycling:glass":"yes","recycling_type":"container"}},"type":"Feature"},
	{"geometry":{"coordinates":[-1.806238,46.516852],"type":"Point"},"properties":{"osm_id":"7562691880","tag":{"amenity":"recycling","recycling:glass_bottles":"yes","recycling:paper":"yes","recycling_type":"container"}},"type":"Feature"},
	{"geometry":{"coordinates":[-1.786084,46.510218],"type":"Point"},"properties":{"osm_id":"7682624369","tag":{"amenity":"recycling","mapillary":"WZhiEE1cViAppA9pjS8Zxs","recycling:cans":"yes","recycling:plastic_bottles":"yes"}},"type":"Feature"},
	{"geometry":{"coordinates":[-1.780427,46.499615],"type":"Point"},"properties":{"osm_id":"7704453689","tag":{"amenity":"waste_basket"}},"type":"Feature"},
	{"geometry":{"coordinates":[-1.78076,46.49959],"type":"Point"},"properties":{"osm_id":"7704453690","tag":{"amenity":"waste_basket"}},"type":"Feature"},
	{"geometry":{"coordinates":[-1.781122,46.500055],"type":"Point"},"properties":{"osm_id":"7704542874","tag":{"amenity":"waste_basket"}},"type":"Feature"},
	{"geometry":{"coordinates":[-1.781438,46.500693],"type":"Point"},"properties":{"osm_id":"7704542883","tag":{"amenity":"waste_basket"}},"type":"Feature"}
]
}
