{
"type": "FeatureCollection",
"features": [
	{"geometry":{"coordinates":[-1.81541,37.210826],"type":"Point"},"properties":{"name":"Contenedor de basura","osm_id":"4416495808","tag":{"amenity":"waste_disposal","waste":"trash"}},"type":"Feature"},
	{"geometry":{"coordinates":[-1.815456,37.210844],"type":"Point"},"properties":{"osm_id":"4417538420","tag":{"amenity":"recycling","recycling:cans":"yes","recycling:plastic":"yes","recycling_type":"container"}},"type":"Feature"},
	{"geometry":{"coordinates":[-1.816347,37.210219],"type":"Point"},"properties":{"osm_id":"4417701501","tag":{"amenity":"recycling","recycling:bags":"yes","recycling:cans":"yes","recycling:plastic":"yes","recycling_type":"container"}},"type":"Feature"},
	{"geometry":{"coordinates":[-1.816319,37.210213],"type":"Point"},"properties":{"osm_id":"4417701502","tag":{"amenity":"waste_disposal"}},"type":"Feature"},
	{"geometry":{"coordinates":[-1.822262,37.176351],"type":"Point"},"properties":{"osm_id":"5929345186","tag":{"amenity":"waste_basket"}},"type":"Feature"},
	{"geometry":{"coordinates":[-1.816219,37.208151],"type":"Point"},"properties":{"osm_id":"6761102194","tag":{"amenity":"recycling","recycling_type":"container"}},"type":"Feature"},
	{"geometry":{"coordinates":[-1.803143,37.228163],"type":"Point"},"properties":{"name":"Reciclaje V\u00c3\u00addrio","osm_id":"9020028220","tag":{"amenity":"recycling","recycling_type":"container"}},"type":"Feature"},
	{"geometry":{"coordinates":[-1.80305,37.228168],"type":"Point"},"properties":{"name":"Reciclaje de Papel","osm_id":"9020028221","tag":{"amenity":"recycling","name:en":"Reciclaje de Papel y Cart\u00c3\u00b3n","name:es":"Reciclaje de Papel y Cart\u00c3\u00b3n","recycling_type":"container"}},"type":"Feature"},
	{"geometry":{"coordinates":[-1.803098,37.228169],"type":"Point"},"properties":{"name":"Reciclaje Envases de Pl\u00c3\u00a1stico","osm_id":"9020095717","tag":{"amenity":"recycling","recycling_type":"container"}},"type":"Feature"}
]
}
