{
"type": "FeatureCollection",
"features": [
	{"geometry":{"coordinates":[14.115407,50.137877],"type":"Point"},"properties":{"osm_id":"1436669673","tag":{"addr:conscriptionnumber":"2054","addr:country":"CZ","addr:housenumber":"2054","addr:place":"Kro\u00c4\u008dehlavy","addr:postcode":"27201","addr:street":"Lacinova","denotation":"cluster","leaf_cycle":"deciduous","leaf_type":"broadleaved","natural":"tree","ref:ruian:addr":"1434331"}},"type":"Feature"},
	{"geometry":{"coordinates":[14.102887,50.136729],"type":"Point"},"properties":{"osm_id":"3349661581","tag":{"natural":"tree"}},"type":"Feature"},
	{"geometry":{"coordinates":[14.103522,50.135666],"type":"Point"},"properties":{"osm_id":"3349673515","tag":{"natural":"tree"}},"type":"Feature"},
	{"geometry":{"coordinates":[14.103677,50.135741],"type":"Point"},"properties":{"osm_id":"3349683250","tag":{"natural":"tree"}},"type":"Feature"},
	{"geometry":{"coordinates":[14.103604,50.13582],"type":"Point"},"properties":{"osm_id":"3349683252","tag":{"natural":"tree"}},"type":"Feature"},
	{"geometry":{"coordinates":[14.103532,50.135899],"type":"Point"},"properties":{"osm_id":"3349683254","tag":{"natural":"tree"}},"type":"Feature"},
	{"geometry":{"coordinates":[14.103459,50.135979],"type":"Point"},"properties":{"osm_id":"3349683256","tag":{"natural":"tree"}},"type":"Feature"},
	{"geometry":{"coordinates":[14.103386,50.136058],"type":"Point"},"properties":{"osm_id":"3349683258","tag":{"natural":"tree"}},"type":"Feature"},
	{"geometry":{"coordinates":[14.103847,50.135779],"type":"Point"},"properties":{"osm_id":"3349693298","tag":{"natural":"tree"}},"type":"Feature"},
	{"geometry":{"coordinates":[14.1037,50.135799],"type":"Point"},"properties":{"osm_id":"3349693299","tag":{"natural":"tree"}},"type":"Feature"},
	{"geometry":{"coordinates":[14.103623,50.135882],"type":"Point"},"properties":{"osm_id":"3349693301","tag":{"natural":"tree"}},"type":"Feature"},
	{"geometry":{"coordinates":[14.103545,50.135968],"type":"Point"},"properties":{"osm_id":"3349693302","tag":{"natural":"tree"}},"type":"Feature"},
	{"geometry":{"coordinates":[14.103474,50.13605],"type":"Point"},"properties":{"osm_id":"3349693303","tag":{"natural":"tree"}},"type":"Feature"},
	{"geometry":{"coordinates":[14.104237,50.135965],"type":"Point"},"properties":{"osm_id":"3349710868","tag":{"natural":"tree"}},"type":"Feature"},
	{"geometry":{"coordinates":[14.104176,50.136001],"type":"Point"},"properties":{"osm_id":"3349710870","tag":{"natural":"tree"}},"type":"Feature"},
	{"geometry":{"coordinates":[14.104116,50.136036],"type":"Point"},"properties":{"osm_id":"3349710872","tag":{"natural":"tree"}},"type":"Feature"},
	{"geometry":{"coordinates":[14.104056,50.136072],"type":"Point"},"properties":{"osm_id":"3349710874","tag":{"natural":"tree"}},"type":"Feature"},
	{"geometry":{"coordinates":[14.103995,50.136108],"type":"Point"},"properties":{"osm_id":"3349710877","tag":{"natural":"tree"}},"type":"Feature"},
	{"geometry":{"coordinates":[14.103936,50.136142],"type":"Point"},"properties":{"osm_id":"3349710879","tag":{"natural":"tree"}},"type":"Feature"},
	{"geometry":{"coordinates":[14.103875,50.136178],"type":"Point"},"properties":{"osm_id":"3349710881","tag":{"natural":"tree"}},"type":"Feature"},
	{"geometry":{"coordinates":[14.105146,50.135285],"type":"Point"},"properties":{"osm_id":"3349717716","tag":{"natural":"tree"}},"type":"Feature"},
	{"geometry":{"coordinates":[14.105063,50.135344],"type":"Point"},"properties":{"osm_id":"3349717717","tag":{"natural":"tree"}},"type":"Feature"},
	{"geometry":{"coordinates":[14.105134,50.135376],"type":"Point"},"properties":{"osm_id":"3349717720","tag":{"natural":"tree"}},"type":"Feature"},
	{"geometry":{"coordinates":[14.104981,50.135404],"type":"Point"},"properties":{"osm_id":"3349717721","tag":{"natural":"tree"}},"type":"Feature"},
	{"geometry":{"coordinates":[14.10508,50.135415],"type":"Point"},"properties":{"osm_id":"3349717722","tag":{"natural":"tree"}},"type":"Feature"},
	{"geometry":{"coordinates":[14.105025,50.135454],"type":"Point"},"properties":{"osm_id":"3349717723","tag":{"natural":"tree"}},"type":"Feature"},
	{"geometry":{"coordinates":[14.1049,50.135463],"type":"Point"},"properties":{"osm_id":"3349717724","tag":{"natural":"tree"}},"type":"Feature"},
	{"geometry":{"coordinates":[14.104971,50.135493],"type":"Point"},"properties":{"osm_id":"3349717725","tag":{"natural":"tree"}},"type":"Feature"},
	{"geometry":{"coordinates":[14.104817,50.135523],"type":"Point"},"properties":{"osm_id":"3349717726","tag":{"natural":"tree"}},"type":"Feature"},
	{"geometry":{"coordinates":[14.104917,50.135532],"type":"Point"},"properties":{"osm_id":"3349717727","tag":{"natural":"tree"}},"type":"Feature"},
	{"geometry":{"coordinates":[14.104862,50.135571],"type":"Point"},"properties":{"osm_id":"3349717729","tag":{"natural":"tree"}},"type":"Feature"},
	{"geometry":{"coordinates":[14.104735,50.135582],"type":"Point"},"properties":{"osm_id":"3349717730","tag":{"natural":"tree"}},"type":"Feature"},
	{"geometry":{"coordinates":[14.104652,50.135642],"type":"Point"},"properties":{"osm_id":"3349717731","tag":{"natural":"tree"}},"type":"Feature"},
	{"geometry":{"coordinates":[14.104357,50.135895],"type":"Point"},"properties":{"osm_id":"3349735816","tag":{"natural":"tree"}},"type":"Feature"},
	{"geometry":{"coordinates":[14.104296,50.13593],"type":"Point"},"properties":{"osm_id":"3349735817","tag":{"natural":"tree"}},"type":"Feature"},
	{"geometry":{"coordinates":[14.104049,50.136003],"type":"Point"},"properties":{"osm_id":"3349751400","tag":{"natural":"tree"}},"type":"Feature"},
	{"geometry":{"coordinates":[14.103971,50.136048],"type":"Point"},"properties":{"osm_id":"3349751401","tag":{"natural":"tree"}},"type":"Feature"},
	{"geometry":{"coordinates":[14.103894,50.136095],"type":"Point"},"properties":{"osm_id":"3349751402","tag":{"natural":"tree"}},"type":"Feature"},
	{"geometry":{"coordinates":[14.103815,50.136142],"type":"Point"},"properties":{"osm_id":"3349751403","tag":{"natural":"tree"}},"type":"Feature"},
	{"geometry":{"coordinates":[14.103736,50.136187],"type":"Point"},"properties":{"osm_id":"3349751404","tag":{"natural":"tree"}},"type":"Feature"},
	{"geometry":{"coordinates":[14.103431,50.136175],"type":"Point"},"properties":{"osm_id":"3349953529","tag":{"natural":"tree"}},"type":"Feature"},
	{"geometry":{"coordinates":[14.103459,50.136188],"type":"Point"},"properties":{"osm_id":"3349953530","tag":{"natural":"tree"}},"type":"Feature"},
	{"geometry":{"coordinates":[14.103495,50.136211],"type":"Point"},"properties":{"osm_id":"3349953532","tag":{"natural":"tree"}},"type":"Feature"},
	{"geometry":{"coordinates":[14.103318,50.136133],"type":"Point"},"properties":{"osm_id":"3349963916","tag":{"natural":"tree"}},"type":"Feature"},
	{"geometry":{"coordinates":[14.103233,50.136231],"type":"Point"},"properties":{"osm_id":"3349963919","tag":{"natural":"tree"}},"type":"Feature"},
	{"geometry":{"coordinates":[14.103168,50.136301],"type":"Point"},"properties":{"osm_id":"3349963921","tag":{"natural":"tree"}},"type":"Feature"},
	{"geometry":{"coordinates":[14.103104,50.136371],"type":"Point"},"properties":{"osm_id":"3349963923","tag":{"natural":"tree"}},"type":"Feature"},
	{"geometry":{"coordinates":[14.10304,50.136442],"type":"Point"},"properties":{"osm_id":"3349963925","tag":{"natural":"tree"}},"type":"Feature"},
	{"geometry":{"coordinates":[14.102977,50.136512],"type":"Point"},"properties":{"osm_id":"3349963927","tag":{"natural":"tree"}},"type":"Feature"},
	{"geometry":{"coordinates":[14.102912,50.136583],"type":"Point"},"properties":{"osm_id":"3349963929","tag":{"natural":"tree"}},"type":"Feature"},
	{"geometry":{"coordinates":[14.103369,50.136169],"type":"Point"},"properties":{"osm_id":"3349974219","tag":{"natural":"tree"}},"type":"Feature"},
	{"geometry":{"coordinates":[14.103325,50.136204],"type":"Point"},"properties":{"osm_id":"3349974220","tag":{"natural":"tree"}},"type":"Feature"},
	{"geometry":{"coordinates":[14.10326,50.136277],"type":"Point"},"properties":{"osm_id":"3349974221","tag":{"natural":"tree"}},"type":"Feature"},
	{"geometry":{"coordinates":[14.103193,50.13635],"type":"Point"},"properties":{"osm_id":"3349974223","tag":{"natural":"tree"}},"type":"Feature"},
	{"geometry":{"coordinates":[14.103126,50.136423],"type":"Point"},"properties":{"osm_id":"3349974224","tag":{"natural":"tree"}},"type":"Feature"},
	{"geometry":{"coordinates":[14.103071,50.136105],"type":"Point"},"properties":{"osm_id":"3350012105","tag":{"natural":"tree"}},"type":"Feature"},
	{"geometry":{"coordinates":[14.103003,50.13618],"type":"Point"},"properties":{"osm_id":"3350012107","tag":{"natural":"tree"}},"type":"Feature"},
	{"geometry":{"coordinates":[14.102936,50.136255],"type":"Point"},"properties":{"osm_id":"3350012108","tag":{"natural":"tree"}},"type":"Feature"},
	{"geometry":{"coordinates":[14.102869,50.136329],"type":"Point"},"properties":{"osm_id":"3350012109","tag":{"natural":"tree"}},"type":"Feature"},
	{"geometry":{"coordinates":[14.102801,50.136405],"type":"Point"},"properties":{"osm_id":"3350012111","tag":{"natural":"tree"}},"type":"Feature"},
	{"geometry":{"coordinates":[14.102734,50.13648],"type":"Point"},"properties":{"osm_id":"3350012112","tag":{"natural":"tree"}},"type":"Feature"},
	{"geometry":{"coordinates":[14.102667,50.136555],"type":"Point"},"properties":{"osm_id":"3350012113","tag":{"natural":"tree"}},"type":"Feature"},
	{"geometry":{"coordinates":[14.1026,50.136629],"type":"Point"},"properties":{"osm_id":"3350012115","tag":{"natural":"tree"}},"type":"Feature"},
	{"geometry":{"coordinates":[14.102549,50.136725],"type":"Point"},"properties":{"osm_id":"3350012116","tag":{"natural":"tree"}},"type":"Feature"},
	{"geometry":{"coordinates":[14.102498,50.13678],"type":"Point"},"properties":{"osm_id":"3350012117","tag":{"natural":"tree"}},"type":"Feature"},
	{"geometry":{"coordinates":[14.089308,50.136818],"type":"Point"},"properties":{"osm_id":"3718459045","tag":{"natural":"tree"}},"type":"Feature"},
	{"geometry":{"coordinates":[14.070268,50.151496],"type":"Point"},"properties":{"osm_id":"4258465425","tag":{"genus":"Quercus","natural":"tree","species":"Robur","taxon":"Quercus Robur","taxon:cs":"Dub Letn\u00c3\u00ad"}},"type":"Feature"},
	{"geometry":{"coordinates":[14.103886,50.152887],"type":"Point"},"properties":{"osm_id":"5016095268","tag":{"natural":"tree"}},"type":"Feature"},
	{"geometry":{"coordinates":[14.10414,50.15258],"type":"Point"},"properties":{"osm_id":"5016095269","tag":{"natural":"tree"}},"type":"Feature"},
	{"geometry":{"coordinates":[14.104005,50.152794],"type":"Point"},"properties":{"osm_id":"5016095270","tag":{"natural":"tree"}},"type":"Feature"},
	{"geometry":{"coordinates":[14.103944,50.152985],"type":"Point"},"properties":{"osm_id":"5016095271","tag":{"natural":"tree"}},"type":"Feature"},
	{"geometry":{"coordinates":[14.104219,50.152641],"type":"Point"},"properties":{"osm_id":"5016095272","tag":{"natural":"tree"}},"type":"Feature"},
	{"geometry":{"coordinates":[14.104083,50.152855],"type":"Point"},"properties":{"osm_id":"5016095273","tag":{"natural":"tree"}},"type":"Feature"},
	{"geometry":{"coordinates":[14.10409,50.152567],"type":"Point"},"properties":{"osm_id":"5016095274","tag":{"natural":"tree"}},"type":"Feature"},
	{"geometry":{"coordinates":[14.103999,50.152709],"type":"Point"},"properties":{"osm_id":"5016095275","tag":{"natural":"tree"}},"type":"Feature"},
	{"geometry":{"coordinates":[14.104236,50.152521],"type":"Point"},"properties":{"osm_id":"5016095276","tag":{"natural":"tree"}},"type":"Feature"},
	{"geometry":{"coordinates":[14.104151,50.152748],"type":"Point"},"properties":{"osm_id":"5016095277","tag":{"natural":"tree"}},"type":"Feature"},
	{"geometry":{"coordinates":[14.103915,50.152937],"type":"Point"},"properties":{"osm_id":"5016095278","tag":{"natural":"tree"}},"type":"Feature"},
	{"geometry":{"coordinates":[14.103863,50.152923],"type":"Point"},"properties":{"osm_id":"5016095279","tag":{"natural":"tree"}},"type":"Feature"},
	{"geometry":{"coordinates":[14.104191,50.152593],"type":"Point"},"properties":{"osm_id":"5016095280","tag":{"natural":"tree"}},"type":"Feature"},
	{"geometry":{"coordinates":[14.104056,50.152807],"type":"Point"},"properties":{"osm_id":"5016095281","tag":{"natural":"tree"}},"type":"Feature"},
	{"geometry":{"coordinates":[14.104309,50.152498],"type":"Point"},"properties":{"osm_id":"5016095282","tag":{"natural":"tree"}},"type":"Feature"},
	{"geometry":{"coordinates":[14.104095,50.152651],"type":"Point"},"properties":{"osm_id":"5016095283","tag":{"natural":"tree"}},"type":"Feature"},
	{"geometry":{"coordinates":[14.104038,50.152927],"type":"Point"},"properties":{"osm_id":"5016095284","tag":{"natural":"tree"}},"type":"Feature"},
	{"geometry":{"coordinates":[14.104124,50.1527],"type":"Point"},"properties":{"osm_id":"5016095285","tag":{"natural":"tree"}},"type":"Feature"},
	{"geometry":{"coordinates":[14.103977,50.152745],"type":"Point"},"properties":{"osm_id":"5016095286","tag":{"natural":"tree"}},"type":"Feature"},
	{"geometry":{"coordinates":[14.104287,50.152534],"type":"Point"},"properties":{"osm_id":"5016095287","tag":{"natural":"tree"}},"type":"Feature"},
	{"geometry":{"coordinates":[14.104027,50.152758],"type":"Point"},"properties":{"osm_id":"5016095288","tag":{"natural":"tree"}},"type":"Feature"},
	{"geometry":{"coordinates":[14.104207,50.152473],"type":"Point"},"properties":{"osm_id":"5016095289","tag":{"natural":"tree"}},"type":"Feature"},
	{"geometry":{"coordinates":[14.10384,50.15296],"type":"Point"},"properties":{"osm_id":"5016095290","tag":{"natural":"tree"}},"type":"Feature"},
	{"geometry":{"coordinates":[14.104242,50.152605],"type":"Point"},"properties":{"osm_id":"5016095291","tag":{"natural":"tree"}},"type":"Feature"},
	{"geometry":{"coordinates":[14.104106,50.15282],"type":"Point"},"properties":{"osm_id":"5016095292","tag":{"natural":"tree"}},"type":"Feature"},
	{"geometry":{"coordinates":[14.103993,50.152998],"type":"Point"},"properties":{"osm_id":"5016095293","tag":{"natural":"tree"}},"type":"Feature"},
	{"geometry":{"coordinates":[14.104146,50.152664],"type":"Point"},"properties":{"osm_id":"5016095294","tag":{"natural":"tree"}},"type":"Feature"},
	{"geometry":{"coordinates":[14.104067,50.152602],"type":"Point"},"properties":{"osm_id":"5016095295","tag":{"natural":"tree"}},"type":"Feature"},
	{"geometry":{"coordinates":[14.103989,50.152914],"type":"Point"},"properties":{"osm_id":"5016095296","tag":{"natural":"tree"}},"type":"Feature"},
	{"geometry":{"coordinates":[14.104174,50.152712],"type":"Point"},"properties":{"osm_id":"5016095297","tag":{"natural":"tree"}},"type":"Feature"},
	{"geometry":{"coordinates":[14.103937,50.152901],"type":"Point"},"properties":{"osm_id":"5016095298","tag":{"natural":"tree"}},"type":"Feature"},
	{"geometry":{"coordinates":[14.103954,50.152781],"type":"Point"},"properties":{"osm_id":"5016095299","tag":{"natural":"tree"}},"type":"Feature"},
	{"geometry":{"coordinates":[14.104214,50.152557],"type":"Point"},"properties":{"osm_id":"5016095300","tag":{"natural":"tree"}},"type":"Feature"},
	{"geometry":{"coordinates":[14.104079,50.152771],"type":"Point"},"properties":{"osm_id":"5016095301","tag":{"natural":"tree"}},"type":"Feature"},
	{"geometry":{"coordinates":[14.103892,50.152972],"type":"Point"},"properties":{"osm_id":"5016095302","tag":{"natural":"tree"}},"type":"Feature"},
	{"geometry":{"coordinates":[14.104117,50.152616],"type":"Point"},"properties":{"osm_id":"5016095303","tag":{"natural":"tree"}},"type":"Feature"},
	{"geometry":{"coordinates":[14.103982,50.15283],"type":"Point"},"properties":{"osm_id":"5016095304","tag":{"natural":"tree"}},"type":"Feature"},
	{"geometry":{"coordinates":[14.104155,50.152461],"type":"Point"},"properties":{"osm_id":"5016095305","tag":{"natural":"tree"}},"type":"Feature"},
	{"geometry":{"coordinates":[14.104196,50.152677],"type":"Point"},"properties":{"osm_id":"5016095306","tag":{"natural":"tree"}},"type":"Feature"},
	{"geometry":{"coordinates":[14.104045,50.152638],"type":"Point"},"properties":{"osm_id":"5016095307","tag":{"natural":"tree"}},"type":"Feature"},
	{"geometry":{"coordinates":[14.10405,50.152723],"type":"Point"},"properties":{"osm_id":"5016095308","tag":{"natural":"tree"}},"type":"Feature"},
	{"geometry":{"coordinates":[14.104015,50.152962],"type":"Point"},"properties":{"osm_id":"5016095309","tag":{"natural":"tree"}},"type":"Feature"},
	{"geometry":{"coordinates":[14.103931,50.152816],"type":"Point"},"properties":{"osm_id":"5016095310","tag":{"natural":"tree"}},"type":"Feature"},
	{"geometry":{"coordinates":[14.104264,50.15257],"type":"Point"},"properties":{"osm_id":"5016095311","tag":{"natural":"tree"}},"type":"Feature"},
	{"geometry":{"coordinates":[14.104129,50.152784],"type":"Point"},"properties":{"osm_id":"5016095312","tag":{"natural":"tree"}},"type":"Feature"},
	{"geometry":{"coordinates":[14.104259,50.152486],"type":"Point"},"properties":{"osm_id":"5016095313","tag":{"natural":"tree"}},"type":"Feature"},
	{"geometry":{"coordinates":[14.104169,50.152628],"type":"Point"},"properties":{"osm_id":"5016095314","tag":{"natural":"tree"}},"type":"Feature"},
	{"geometry":{"coordinates":[14.104034,50.152842],"type":"Point"},"properties":{"osm_id":"5016095315","tag":{"natural":"tree"}},"type":"Feature"},
	{"geometry":{"coordinates":[14.104135,50.152496],"type":"Point"},"properties":{"osm_id":"5016095316","tag":{"natural":"tree"}},"type":"Feature"},
	{"geometry":{"coordinates":[14.104072,50.152687],"type":"Point"},"properties":{"osm_id":"5016095317","tag":{"natural":"tree"}},"type":"Feature"},
	{"geometry":{"coordinates":[14.104022,50.152674],"type":"Point"},"properties":{"osm_id":"5016095318","tag":{"natural":"tree"}},"type":"Feature"},
	{"geometry":{"coordinates":[14.104185,50.152509],"type":"Point"},"properties":{"osm_id":"5016095319","tag":{"natural":"tree"}},"type":"Feature"},
	{"geometry":{"coordinates":[14.104101,50.152735],"type":"Point"},"properties":{"osm_id":"5016095320","tag":{"natural":"tree"}},"type":"Feature"},
	{"geometry":{"coordinates":[14.103966,50.152949],"type":"Point"},"properties":{"osm_id":"5016095521","tag":{"natural":"tree"}},"type":"Feature"},
	{"geometry":{"coordinates":[14.073144,50.13987],"type":"Point"},"properties":{"osm_id":"5274096437","tag":{"natural":"tree"}},"type":"Feature"},
	{"geometry":{"coordinates":[14.073282,50.139865],"type":"Point"},"properties":{"osm_id":"5274096438","tag":{"natural":"tree"}},"type":"Feature"},
	{"geometry":{"coordinates":[14.073422,50.139859],"type":"Point"},"properties":{"osm_id":"5274096439","tag":{"natural":"tree"}},"type":"Feature"},
	{"geometry":{"coordinates":[14.073561,50.139854],"type":"Point"},"properties":{"osm_id":"5274096440","tag":{"natural":"tree"}},"type":"Feature"},
	{"geometry":{"coordinates":[14.073775,50.139747],"type":"Point"},"properties":{"osm_id":"5275106363","tag":{"natural":"tree"}},"type":"Feature"},
	{"geometry":{"coordinates":[14.073725,50.139847],"type":"Point"},"properties":{"osm_id":"5275106364","tag":{"natural":"tree"}},"type":"Feature"},
	{"geometry":{"coordinates":[14.07292,50.139326],"type":"Point"},"properties":{"osm_id":"5294946133","tag":{"natural":"tree"}},"type":"Feature"},
	{"geometry":{"coordinates":[14.07291,50.139256],"type":"Point"},"properties":{"osm_id":"5294946134","tag":{"natural":"tree"}},"type":"Feature"},
	{"geometry":{"coordinates":[14.072904,50.139184],"type":"Point"},"properties":{"osm_id":"5294946135","tag":{"natural":"tree"}},"type":"Feature"},
	{"geometry":{"coordinates":[14.07081,50.140768],"type":"Point"},"properties":{"osm_id":"5320807506","tag":{"leaf_type":"broadleaved","natural":"tree"}},"type":"Feature"},
	{"geometry":{"coordinates":[14.071714,50.140734],"type":"Point"},"properties":{"osm_id":"5320807507","tag":{"leaf_type":"broadleaved","natural":"tree"}},"type":"Feature"},
	{"geometry":{"coordinates":[14.073013,50.140686],"type":"Point"},"properties":{"osm_id":"5320807508","tag":{"leaf_type":"broadleaved","natural":"tree"}},"type":"Feature"},
	{"geometry":{"coordinates":[14.072082,50.140722],"type":"Point"},"properties":{"osm_id":"5320807509","tag":{"leaf_type":"broadleaved","natural":"tree"}},"type":"Feature"},
	{"geometry":{"coordinates":[14.070947,50.140765],"type":"Point"},"properties":{"osm_id":"5320807510","tag":{"leaf_type":"broadleaved","natural":"tree"}},"type":"Feature"},
	{"geometry":{"coordinates":[14.072827,50.140693],"type":"Point"},"properties":{"osm_id":"5320807511","tag":{"leaf_type":"broadleaved","natural":"tree"}},"type":"Feature"},
	{"geometry":{"coordinates":[14.071085,50.140759],"type":"Point"},"properties":{"osm_id":"5320807512","tag":{"leaf_type":"broadleaved","natural":"tree"}},"type":"Feature"},
	{"geometry":{"coordinates":[14.072216,50.140716],"type":"Point"},"properties":{"osm_id":"5320807513","tag":{"leaf_type":"broadleaved","natural":"tree"}},"type":"Feature"},
	{"geometry":{"coordinates":[14.071574,50.14074],"type":"Point"},"properties":{"osm_id":"5320807514","tag":{"leaf_type":"broadleaved","natural":"tree"}},"type":"Feature"},
	{"geometry":{"coordinates":[14.072634,50.140701],"type":"Point"},"properties":{"osm_id":"5320807515","tag":{"leaf_type":"broadleaved","natural":"tree"}},"type":"Feature"},
	{"geometry":{"coordinates":[14.072358,50.14071],"type":"Point"},"properties":{"osm_id":"5320807516","tag":{"leaf_type":"broadleaved","natural":"tree"}},"type":"Feature"},
	{"geometry":{"coordinates":[14.071429,50.140745],"type":"Point"},"properties":{"osm_id":"5320807517","tag":{"leaf_type":"broadleaved","natural":"tree"}},"type":"Feature"},
	{"geometry":{"coordinates":[14.076954,50.140541],"type":"Point"},"properties":{"osm_id":"5329695285","tag":{"leaf_type":"broadleaved","natural":"tree"}},"type":"Feature"},
	{"geometry":{"coordinates":[14.074043,50.14065],"type":"Point"},"properties":{"osm_id":"5329695286","tag":{"leaf_type":"broadleaved","natural":"tree"}},"type":"Feature"},
	{"geometry":{"coordinates":[14.07636,50.140562],"type":"Point"},"properties":{"osm_id":"5329695287","tag":{"leaf_type":"broadleaved","natural":"tree"}},"type":"Feature"},
	{"geometry":{"coordinates":[14.074627,50.140629],"type":"Point"},"properties":{"osm_id":"5329695288","tag":{"leaf_type":"broadleaved","natural":"tree"}},"type":"Feature"},
	{"geometry":{"coordinates":[14.076813,50.140546],"type":"Point"},"properties":{"osm_id":"5329695289","tag":{"leaf_type":"broadleaved","natural":"tree"}},"type":"Feature"},
	{"geometry":{"coordinates":[14.074342,50.140641],"type":"Point"},"properties":{"osm_id":"5329695290","tag":{"leaf_type":"broadleaved","natural":"tree"}},"type":"Feature"},
	{"geometry":{"coordinates":[14.07842,50.140525],"type":"Point"},"properties":{"osm_id":"5329695291","tag":{"leaf_type":"broadleaved","natural":"tree"}},"type":"Feature"},
	{"geometry":{"coordinates":[14.074939,50.140617],"type":"Point"},"properties":{"osm_id":"5329695292","tag":{"leaf_type":"broadleaved","natural":"tree"}},"type":"Feature"},
	{"geometry":{"coordinates":[14.076676,50.140551],"type":"Point"},"properties":{"osm_id":"5329695293","tag":{"leaf_type":"broadleaved","natural":"tree"}},"type":"Feature"},
	{"geometry":{"coordinates":[14.078685,50.140532],"type":"Point"},"properties":{"osm_id":"5329695294","tag":{"leaf_type":"broadleaved","natural":"tree"}},"type":"Feature"},
	{"geometry":{"coordinates":[14.075069,50.140612],"type":"Point"},"properties":{"osm_id":"5329695295","tag":{"leaf_type":"broadleaved","natural":"tree"}},"type":"Feature"},
	{"geometry":{"coordinates":[14.078129,50.140521],"type":"Point"},"properties":{"osm_id":"5329695296","tag":{"leaf_type":"broadleaved","natural":"tree"}},"type":"Feature"},
	{"geometry":{"coordinates":[14.075195,50.140606],"type":"Point"},"properties":{"osm_id":"5329695297","tag":{"leaf_type":"broadleaved","natural":"tree"}},"type":"Feature"},
	{"geometry":{"coordinates":[14.077538,50.140524],"type":"Point"},"properties":{"osm_id":"5329695298","tag":{"leaf_type":"broadleaved","natural":"tree"}},"type":"Feature"},
	{"geometry":{"coordinates":[14.077994,50.140521],"type":"Point"},"properties":{"osm_id":"5329695299","tag":{"leaf_type":"broadleaved","natural":"tree"}},"type":"Feature"},
	{"geometry":{"coordinates":[14.075507,50.140596],"type":"Point"},"properties":{"osm_id":"5329695300","tag":{"leaf_type":"broadleaved","natural":"tree"}},"type":"Feature"},
	{"geometry":{"coordinates":[14.077398,50.140527],"type":"Point"},"properties":{"osm_id":"5329695301","tag":{"leaf_type":"broadleaved","natural":"tree"}},"type":"Feature"},
	{"geometry":{"coordinates":[14.073763,50.140661],"type":"Point"},"properties":{"osm_id":"5329695302","tag":{"leaf_type":"broadleaved","natural":"tree"}},"type":"Feature"},
	{"geometry":{"coordinates":[14.076109,50.140573],"type":"Point"},"properties":{"osm_id":"5329695303","tag":{"leaf_type":"broadleaved","natural":"tree"}},"type":"Feature"},
	{"geometry":{"coordinates":[14.07786,50.140521],"type":"Point"},"properties":{"osm_id":"5329695304","tag":{"leaf_type":"broadleaved","natural":"tree"}},"type":"Feature"},
	{"geometry":{"coordinates":[14.075646,50.140591],"type":"Point"},"properties":{"osm_id":"5329695305","tag":{"leaf_type":"broadleaved","natural":"tree"}},"type":"Feature"},
	{"geometry":{"coordinates":[14.077255,50.140531],"type":"Point"},"properties":{"osm_id":"5329695306","tag":{"leaf_type":"broadleaved","natural":"tree"}},"type":"Feature"},
	{"geometry":{"coordinates":[14.073902,50.140656],"type":"Point"},"properties":{"osm_id":"5329695307","tag":{"leaf_type":"broadleaved","natural":"tree"}},"type":"Feature"},
	{"geometry":{"coordinates":[14.076231,50.140567],"type":"Point"},"properties":{"osm_id":"5329695308","tag":{"leaf_type":"broadleaved","natural":"tree"}},"type":"Feature"},
	{"geometry":{"coordinates":[14.074481,50.140634],"type":"Point"},"properties":{"osm_id":"5329695309","tag":{"leaf_type":"broadleaved","natural":"tree"}},"type":"Feature"},
	{"geometry":{"coordinates":[14.075786,50.140586],"type":"Point"},"properties":{"osm_id":"5329695310","tag":{"leaf_type":"broadleaved","natural":"tree"}},"type":"Feature"},
	{"geometry":{"coordinates":[14.105949,50.13662],"type":"Point"},"properties":{"osm_id":"5434731759","tag":{"denotation":"single","leaf_cycle":"deciduous","leaf_type":"broadleaved","natural":"tree"}},"type":"Feature"},
	{"geometry":{"coordinates":[14.116102,50.137965],"type":"Point"},"properties":{"name":"Acer platanoides","osm_id":"5434731760","tag":{"denotation":"single","leaf_cycle":"deciduous","leaf_type":"broadleaved","natural":"tree"}},"type":"Feature"},
	{"geometry":{"coordinates":[14.116174,50.137947],"type":"Point"},"properties":{"osm_id":"5434731761","tag":{"denotation":"single","leaf_cycle":"deciduous","leaf_type":"broadleaved","natural":"tree"}},"type":"Feature"},
	{"geometry":{"coordinates":[14.116043,50.13783],"type":"Point"},"properties":{"osm_id":"5434731762","tag":{"denotation":"single","leaf_cycle":"deciduous","leaf_type":"broadleaved","natural":"tree"}},"type":"Feature"},
	{"geometry":{"coordinates":[14.116099,50.137767],"type":"Point"},"properties":{"osm_id":"5434731763","tag":{"denotation":"single","leaf_cycle":"deciduous","leaf_type":"broadleaved","natural":"tree"}},"type":"Feature"},
	{"geometry":{"coordinates":[14.116382,50.138115],"type":"Point"},"properties":{"osm_id":"5434731764","tag":{"denotation":"single","leaf_cycle":"deciduous","leaf_type":"broadleaved","natural":"tree"}},"type":"Feature"},
	{"geometry":{"coordinates":[14.116415,50.138348],"type":"Point"},"properties":{"osm_id":"5434731765","tag":{"denotation":"single","leaf_cycle":"deciduous","leaf_type":"broadleaved","natural":"tree"}},"type":"Feature"},
	{"geometry":{"coordinates":[14.115903,50.13834],"type":"Point"},"properties":{"osm_id":"5434731766","tag":{"denotation":"single","leaf_cycle":"deciduous","leaf_type":"broadleaved","natural":"tree"}},"type":"Feature"},
	{"geometry":{"coordinates":[14.1156,50.138279],"type":"Point"},"properties":{"osm_id":"5434731767","tag":{"denotation":"single","leaf_cycle":"deciduous","leaf_type":"broadleaved","natural":"tree"}},"type":"Feature"},
	{"geometry":{"coordinates":[14.116445,50.138462],"type":"Point"},"properties":{"osm_id":"5434731768","tag":{"denotation":"single","leaf_cycle":"deciduous","leaf_type":"broadleaved","natural":"tree"}},"type":"Feature"},
	{"geometry":{"coordinates":[14.116433,50.138249],"type":"Point"},"properties":{"osm_id":"5434731769","tag":{"denotation":"single","leaf_cycle":"deciduous","leaf_type":"broadleaved","natural":"tree"}},"type":"Feature"},
	{"geometry":{"coordinates":[14.115735,50.137812],"type":"Point"},"properties":{"osm_id":"5434731770","tag":{"denotation":"cluster","leaf_cycle":"deciduous","leaf_type":"broadleaved","natural":"tree"}},"type":"Feature"},
	{"geometry":{"coordinates":[14.114965,50.138125],"type":"Point"},"properties":{"osm_id":"5434731771","tag":{"denotation":"single","leaf_cycle":"deciduous","leaf_type":"broadleaved","natural":"tree"}},"type":"Feature"},
	{"geometry":{"coordinates":[14.115079,50.138195],"type":"Point"},"properties":{"osm_id":"5434731772","tag":{"denotation":"single","leaf_cycle":"deciduous","leaf_type":"broadleaved","natural":"tree"}},"type":"Feature"},
	{"geometry":{"coordinates":[14.116034,50.138629],"type":"Point"},"properties":{"osm_id":"5434731774","tag":{"denotation":"single","leaf_cycle":"deciduous","leaf_type":"broadleaved","natural":"tree"}},"type":"Feature"},
	{"geometry":{"coordinates":[14.092269,50.144578],"type":"Point"},"properties":{"osm_id":"5691037120","tag":{"leaf_type":"broadleaved","natural":"tree"}},"type":"Feature"},
	{"geometry":{"coordinates":[14.09233,50.144604],"type":"Point"},"properties":{"osm_id":"5691037221","tag":{"leaf_type":"broadleaved","natural":"tree"}},"type":"Feature"},
	{"geometry":{"coordinates":[14.092423,50.144622],"type":"Point"},"properties":{"osm_id":"5691037222","tag":{"leaf_type":"broadleaved","natural":"tree"}},"type":"Feature"},
	{"geometry":{"coordinates":[14.092488,50.144669],"type":"Point"},"properties":{"osm_id":"5691037223","tag":{"leaf_type":"broadleaved","natural":"tree"}},"type":"Feature"},
	{"geometry":{"coordinates":[14.092613,50.144719],"type":"Point"},"properties":{"osm_id":"5691037224","tag":{"leaf_type":"broadleaved","natural":"tree"}},"type":"Feature"},
	{"geometry":{"coordinates":[14.092695,50.144752],"type":"Point"},"properties":{"osm_id":"5691037225","tag":{"leaf_type":"broadleaved","natural":"tree"}},"type":"Feature"},
	{"geometry":{"coordinates":[14.092673,50.144812],"type":"Point"},"properties":{"osm_id":"5691037226","tag":{"leaf_type":"broadleaved","natural":"tree"}},"type":"Feature"},
	{"geometry":{"coordinates":[14.092312,50.144683],"type":"Point"},"properties":{"osm_id":"5691042266","tag":{"leaf_type":"broadleaved","natural":"tree"}},"type":"Feature"},
	{"geometry":{"coordinates":[14.092287,50.144696],"type":"Point"},"properties":{"osm_id":"5691042267","tag":{"leaf_type":"broadleaved","natural":"tree"}},"type":"Feature"},
	{"geometry":{"coordinates":[14.09224,50.144734],"type":"Point"},"properties":{"osm_id":"5691042270","tag":{"leaf_type":"broadleaved","natural":"tree"}},"type":"Feature"},
	{"geometry":{"coordinates":[14.092352,50.144727],"type":"Point"},"properties":{"osm_id":"5691042272","tag":{"leaf_type":"broadleaved","natural":"tree"}},"type":"Feature"},
	{"geometry":{"coordinates":[14.0924,50.144724],"type":"Point"},"properties":{"osm_id":"5691042273","tag":{"leaf_type":"broadleaved","natural":"tree"}},"type":"Feature"},
	{"geometry":{"coordinates":[14.092398,50.144772],"type":"Point"},"properties":{"osm_id":"5691042274","tag":{"leaf_type":"broadleaved","natural":"tree"}},"type":"Feature"},
	{"geometry":{"coordinates":[14.092514,50.14477],"type":"Point"},"properties":{"osm_id":"5691042276","tag":{"leaf_type":"broadleaved","natural":"tree"}},"type":"Feature"},
	{"geometry":{"coordinates":[14.092069,50.144666],"type":"Point"},"properties":{"osm_id":"5691054125","tag":{"leaf_type":"broadleaved","natural":"tree"}},"type":"Feature"},
	{"geometry":{"coordinates":[14.092144,50.144693],"type":"Point"},"properties":{"osm_id":"5691054126","tag":{"leaf_type":"broadleaved","natural":"tree"}},"type":"Feature"}
]
}
