{
"type": "FeatureCollection",
"features": [
	{"geometry":{"coordinates":[145.019444,-37.700781],"type":"Point"},"properties":{"osm_id":"3036539864","tag":{"amenity":"waste_basket"}},"type":"Feature"},
	{"geometry":{"coordinates":[145.015815,-37.701431],"type":"Point"},"properties":{"osm_id":"3067873094","tag":{"amenity":"waste_basket"}},"type":"Feature"},
	{"geometry":{"coordinates":[144.937487,-37.649683],"type":"Point"},"properties":{"name":"Visy wastepaper & waste management","osm_id":"4080490068","tag":{"amenity":"recycling","recycling_type":"centre"}},"type":"Feature"},
	{"geometry":{"coordinates":[145.015937,-37.673935],"type":"Point"},"properties":{"osm_id":"5222790812","tag":{"amenity":"waste_basket"}},"type":"Feature"},
	{"geometry":{"coordinates":[145.016194,-37.672424],"type":"Point"},"properties":{"osm_id":"5222791627","tag":{"amenity":"waste_basket"}},"type":"Feature"},
	{"geometry":{"coordinates":[145.017764,-37.672129],"type":"Point"},"properties":{"osm_id":"5222791638","tag":{"amenity":"waste_basket"}},"type":"Feature"},
	{"geometry":{"coordinates":[145.017205,-37.673131],"type":"Point"},"properties":{"osm_id":"5222791639","tag":{"amenity":"waste_basket"}},"type":"Feature"},
	{"geometry":{"coordinates":[145.016002,-37.673083],"type":"Point"},"properties":{"osm_id":"5222791646","tag":{"amenity":"waste_basket"}},"type":"Feature"},
	{"geometry":{"coordinates":[145.0176,-37.673094],"type":"Point"},"properties":{"osm_id":"5222791683","tag":{"amenity":"waste_basket"}},"type":"Feature"},
	{"geometry":{"coordinates":[145.017055,-37.673778],"type":"Point"},"properties":{"osm_id":"5222791698","tag":{"amenity":"waste_basket"}},"type":"Feature"},
	{"geometry":{"coordinates":[145.017021,-37.673178],"type":"Point"},"properties":{"osm_id":"5222791726","tag":{"amenity":"waste_basket"}},"type":"Feature"},
	{"geometry":{"coordinates":[145.015317,-37.7116],"type":"Point"},"properties":{"osm_id":"5665132884","tag":{"amenity":"waste_basket"}},"type":"Feature"},
	{"geometry":{"coordinates":[144.989766,-37.704907],"type":"Point"},"properties":{"osm_id":"5689096304","tag":{"amenity":"waste_basket"}},"type":"Feature"},
	{"geometry":{"coordinates":[144.989747,-37.70473],"type":"Point"},"properties":{"osm_id":"5689096306","tag":{"amenity":"waste_basket"}},"type":"Feature"},
	{"geometry":{"coordinates":[145.017563,-37.652154],"type":"Point"},"properties":{"osm_id":"5872919665","tag":{"amenity":"waste_basket"}},"type":"Feature"},
	{"geometry":{"coordinates":[145.017552,-37.65232],"type":"Point"},"properties":{"osm_id":"5872919678","tag":{"amenity":"waste_basket"}},"type":"Feature"},
	{"geometry":{"coordinates":[145.002964,-37.715934],"type":"Point"},"properties":{"osm_id":"7089882852","tag":{"amenity":"waste_basket"}},"type":"Feature"}
]
}
