{
"type": "FeatureCollection",
"features": [
	{"geometry":{"coordinates":[144.985656,-37.798937],"type":"Point"},"properties":{"name":"Chilcorp Metal Recycling","osm_id":"615135627","tag":{"addr:city":"Collingwood","addr:housenumber":"28-30","addr:postcode":"3066","addr:state":"VIC","addr:street":"Johnston Street","addr:suburb":"Collingwood","amenity":"recycling","phone":"+61 3 94162068","recycling_type":"centre","website":"https://www.chilcorp.com"}},"type":"Feature"},
	{"geometry":{"coordinates":[144.942405,-37.838732],"type":"Point"},"properties":{"osm_id":"1633692384","tag":{"amenity":"waste_basket"}},"type":"Feature"},
	{"geometry":{"coordinates":[144.941475,-37.838582],"type":"Point"},"properties":{"osm_id":"1636085489","tag":{"amenity":"waste_basket"}},"type":"Feature"},
	{"geometry":{"coordinates":[144.992823,-37.788175],"type":"Point"},"properties":{"osm_id":"1735976093","tag":{"amenity":"waste_basket"}},"type":"Feature"},
	{"geometry":{"coordinates":[144.993729,-37.788234],"type":"Point"},"properties":{"osm_id":"1735976099","tag":{"amenity":"waste_basket"}},"type":"Feature"},
	{"geometry":{"coordinates":[144.944974,-37.839948],"type":"Point"},"properties":{"osm_id":"1736037019","tag":{"amenity":"waste_basket","check_date":"2021-01-11"}},"type":"Feature"},
	{"geometry":{"coordinates":[144.981471,-37.811896],"type":"Point"},"properties":{"osm_id":"1745051767","tag":{"amenity":"waste_basket"}},"type":"Feature"},
	{"geometry":{"coordinates":[144.981154,-37.810413],"type":"Point"},"properties":{"osm_id":"1745054642","tag":{"amenity":"waste_basket"}},"type":"Feature"},
	{"geometry":{"coordinates":[144.981222,-37.810403],"type":"Point"},"properties":{"osm_id":"1745055154","tag":{"amenity":"recycling"}},"type":"Feature"},
	{"geometry":{"coordinates":[144.983403,-37.810541],"type":"Point"},"properties":{"osm_id":"1745058650","tag":{"amenity":"waste_basket"}},"type":"Feature"},
	{"geometry":{"coordinates":[144.982967,-37.811827],"type":"Point"},"properties":{"osm_id":"1745062304","tag":{"amenity":"waste_basket"}},"type":"Feature"},
	{"geometry":{"coordinates":[144.982968,-37.811845],"type":"Point"},"properties":{"osm_id":"1745062565","tag":{"amenity":"recycling"}},"type":"Feature"},
	{"geometry":{"coordinates":[144.982645,-37.813232],"type":"Point"},"properties":{"osm_id":"1745063522","tag":{"amenity":"waste_basket"}},"type":"Feature"},
	{"geometry":{"coordinates":[144.982823,-37.81388],"type":"Point"},"properties":{"osm_id":"1745063664","tag":{"amenity":"waste_basket"}},"type":"Feature"},
	{"geometry":{"coordinates":[144.98233,-37.814989],"type":"Point"},"properties":{"osm_id":"1745063995","tag":{"amenity":"waste_basket"}},"type":"Feature"},
	{"geometry":{"coordinates":[144.982349,-37.815697],"type":"Point"},"properties":{"osm_id":"1745064401","tag":{"amenity":"waste_basket"}},"type":"Feature"},
	{"geometry":{"coordinates":[144.982371,-37.815721],"type":"Point"},"properties":{"osm_id":"1745064463","tag":{"amenity":"recycling"}},"type":"Feature"},
	{"geometry":{"coordinates":[144.980539,-37.813666],"type":"Point"},"properties":{"osm_id":"1745066566","tag":{"amenity":"waste_basket"}},"type":"Feature"},
	{"geometry":{"coordinates":[144.98055,-37.813695],"type":"Point"},"properties":{"osm_id":"1745066932","tag":{"amenity":"recycling"}},"type":"Feature"},
	{"geometry":{"coordinates":[144.981066,-37.813012],"type":"Point"},"properties":{"osm_id":"1746150770","tag":{"amenity":"waste_basket"}},"type":"Feature"},
	{"geometry":{"coordinates":[144.980954,-37.813125],"type":"Point"},"properties":{"osm_id":"1746150863","tag":{"amenity":"recycling"}},"type":"Feature"},
	{"geometry":{"coordinates":[144.980684,-37.812169],"type":"Point"},"properties":{"osm_id":"1762720633","tag":{"amenity":"waste_basket"}},"type":"Feature"},
	{"geometry":{"coordinates":[144.94383,-37.790251],"type":"Point"},"properties":{"osm_id":"1918171515","tag":{"amenity":"waste_basket"}},"type":"Feature"},
	{"geometry":{"coordinates":[144.969577,-37.820198],"type":"Point"},"properties":{"osm_id":"2093038825","tag":{"amenity":"waste_basket"}},"type":"Feature"},
	{"geometry":{"coordinates":[144.973797,-37.805269],"type":"Point"},"properties":{"osm_id":"2102415432","tag":{"amenity":"waste_basket","operator":"City of Yarra"}},"type":"Feature"},
	{"geometry":{"coordinates":[144.977458,-37.805839],"type":"Point"},"properties":{"osm_id":"2102415953","tag":{"amenity":"waste_basket","check_date":"2021-05-23"}},"type":"Feature"},
	{"geometry":{"coordinates":[144.978879,-37.806],"type":"Point"},"properties":{"osm_id":"2102416048","tag":{"amenity":"waste_basket"}},"type":"Feature"},
	{"geometry":{"coordinates":[144.987161,-37.799802],"type":"Point"},"properties":{"osm_id":"2103414171","tag":{"amenity":"waste_basket","operator":"City of Yarra"}},"type":"Feature"},
	{"geometry":{"coordinates":[144.987543,-37.799366],"type":"Point"},"properties":{"osm_id":"2103414728","tag":{"amenity":"waste_basket"}},"type":"Feature"},
	{"geometry":{"coordinates":[144.987185,-37.799211],"type":"Point"},"properties":{"osm_id":"2103415310","tag":{"amenity":"waste_basket","operator":"City of Yarra"}},"type":"Feature"},
	{"geometry":{"coordinates":[144.969932,-37.821669],"type":"Point"},"properties":{"osm_id":"2104831811","tag":{"amenity":"waste_basket"}},"type":"Feature"},
	{"geometry":{"coordinates":[144.966385,-37.808666],"type":"Point"},"properties":{"osm_id":"2109641348","tag":{"amenity":"waste_basket"}},"type":"Feature"},
	{"geometry":{"coordinates":[144.966074,-37.80874],"type":"Point"},"properties":{"osm_id":"2109642017","tag":{"amenity":"waste_basket"}},"type":"Feature"},
	{"geometry":{"coordinates":[144.967009,-37.810734],"type":"Point"},"properties":{"osm_id":"2109643950","tag":{"amenity":"waste_basket"}},"type":"Feature"},
	{"geometry":{"coordinates":[144.983725,-37.801606],"type":"Point"},"properties":{"osm_id":"2138396917","tag":{"amenity":"waste_basket","operator":"City of Yarra"}},"type":"Feature"},
	{"geometry":{"coordinates":[144.983845,-37.802068],"type":"Point"},"properties":{"osm_id":"2138397392","tag":{"amenity":"waste_basket"}},"type":"Feature"},
	{"geometry":{"coordinates":[144.961544,-37.799263],"type":"Point"},"properties":{"osm_id":"2353026170","tag":{"amenity":"waste_basket"}},"type":"Feature"},
	{"geometry":{"coordinates":[144.961421,-37.799352],"type":"Point"},"properties":{"osm_id":"2353026171","tag":{"amenity":"waste_basket"}},"type":"Feature"},
	{"geometry":{"coordinates":[144.961013,-37.799144],"type":"Point"},"properties":{"osm_id":"2353027626","tag":{"amenity":"waste_basket"}},"type":"Feature"},
	{"geometry":{"coordinates":[144.960359,-37.799008],"type":"Point"},"properties":{"osm_id":"2353028369","tag":{"amenity":"waste_basket"}},"type":"Feature"},
	{"geometry":{"coordinates":[144.960295,-37.799173],"type":"Point"},"properties":{"osm_id":"2353028386","tag":{"amenity":"waste_basket"}},"type":"Feature"},
	{"geometry":{"coordinates":[144.959757,-37.79833],"type":"Point"},"properties":{"osm_id":"2353032958","tag":{"amenity":"waste_basket"}},"type":"Feature"},
	{"geometry":{"coordinates":[144.95966,-37.79802],"type":"Point"},"properties":{"osm_id":"2353033017","tag":{"amenity":"waste_basket"}},"type":"Feature"},
	{"geometry":{"coordinates":[144.959669,-37.797488],"type":"Point"},"properties":{"osm_id":"2353035516","tag":{"amenity":"waste_basket"}},"type":"Feature"},
	{"geometry":{"coordinates":[144.959121,-37.797361],"type":"Point"},"properties":{"osm_id":"2353036736","tag":{"amenity":"waste_basket"}},"type":"Feature"},
	{"geometry":{"coordinates":[144.958871,-37.797767],"type":"Point"},"properties":{"osm_id":"2353038917","tag":{"amenity":"waste_basket"}},"type":"Feature"},
	{"geometry":{"coordinates":[144.958738,-37.797362],"type":"Point"},"properties":{"osm_id":"2353039290","tag":{"amenity":"waste_basket"}},"type":"Feature"},
	{"geometry":{"coordinates":[144.959985,-37.796878],"type":"Point"},"properties":{"osm_id":"2353045701","tag":{"amenity":"waste_basket"}},"type":"Feature"},
	{"geometry":{"coordinates":[144.993653,-37.788625],"type":"Point"},"properties":{"osm_id":"2355607807","tag":{"amenity":"waste_basket","operator":"City of Yarra"}},"type":"Feature"},
	{"geometry":{"coordinates":[144.997043,-37.826523],"type":"Point"},"properties":{"osm_id":"2356976920","tag":{"amenity":"recycling","recycling_type":"container","wheelchair":"yes"}},"type":"Feature"},
	{"geometry":{"coordinates":[144.99707,-37.826347],"type":"Point"},"properties":{"osm_id":"2356978390","tag":{"amenity":"recycling","recycling_type":"container","wheelchair":"yes"}},"type":"Feature"},
	{"geometry":{"coordinates":[144.966023,-37.81831],"type":"Point"},"properties":{"osm_id":"2357000173","tag":{"amenity":"waste_basket","level":"-1"}},"type":"Feature"},
	{"geometry":{"coordinates":[144.966106,-37.818433],"type":"Point"},"properties":{"osm_id":"2357000521","tag":{"amenity":"waste_basket","level":"-1","recycling_type":"container"}},"type":"Feature"},
	{"geometry":{"coordinates":[144.966189,-37.818588],"type":"Point"},"properties":{"osm_id":"2357000715","tag":{"amenity":"waste_basket","level":"-1"}},"type":"Feature"},
	{"geometry":{"coordinates":[144.966254,-37.818709],"type":"Point"},"properties":{"osm_id":"2357001086","tag":{"amenity":"waste_basket","level":"-1"}},"type":"Feature"},
	{"geometry":{"coordinates":[144.962643,-37.798902],"type":"Point"},"properties":{"name":"Cardboard","osm_id":"2361214253","tag":{"addr:city":"Parkville","addr:postcode":"3000","addr:street":"Porters Lane","amenity":"waste_basket","description":"at the end of Porters Lane","operator":"Visy"}},"type":"Feature"},
	{"geometry":{"coordinates":[144.961457,-37.798491],"type":"Point"},"properties":{"osm_id":"2361225338","tag":{"amenity":"waste_basket"}},"type":"Feature"},
	{"geometry":{"coordinates":[144.961142,-37.797295],"type":"Point"},"properties":{"osm_id":"2361227761","tag":{"amenity":"waste_basket"}},"type":"Feature"},
	{"geometry":{"coordinates":[144.961623,-37.797225],"type":"Point"},"properties":{"osm_id":"2361228006","tag":{"amenity":"waste_basket"}},"type":"Feature"},
	{"geometry":{"coordinates":[144.961712,-37.796993],"type":"Point"},"properties":{"osm_id":"2361229888","tag":{"amenity":"waste_basket"}},"type":"Feature"},
	{"geometry":{"coordinates":[144.961861,-37.796282],"type":"Point"},"properties":{"osm_id":"2361236291","tag":{"addr:city":"Parkville","addr:postcode":"3000","addr:street":"Tin Alley","amenity":"waste_basket"}},"type":"Feature"},
	{"geometry":{"coordinates":[144.961667,-37.796057],"type":"Point"},"properties":{"osm_id":"2361236658","tag":{"amenity":"waste_basket"}},"type":"Feature"},
	{"geometry":{"coordinates":[144.962099,-37.795958],"type":"Point"},"properties":{"osm_id":"2361239117","tag":{"amenity":"waste_basket"}},"type":"Feature"},
	{"geometry":{"coordinates":[144.96247,-37.795411],"type":"Point"},"properties":{"osm_id":"2361241237","tag":{"amenity":"waste_basket"}},"type":"Feature"},
	{"geometry":{"coordinates":[144.962414,-37.794834],"type":"Point"},"properties":{"osm_id":"2361243687","tag":{"amenity":"waste_basket"}},"type":"Feature"},
	{"geometry":{"coordinates":[144.960388,-37.796132],"type":"Point"},"properties":{"osm_id":"2361250307","tag":{"amenity":"waste_basket"}},"type":"Feature"},
	{"geometry":{"coordinates":[145.018813,-37.855841],"type":"Point"},"properties":{"osm_id":"2362727063","tag":{"amenity":"recycling","recycling_type":"container"}},"type":"Feature"},
	{"geometry":{"coordinates":[145.018786,-37.856037],"type":"Point"},"properties":{"osm_id":"2362727494","tag":{"amenity":"recycling","recycling_type":"container"}},"type":"Feature"},
	{"geometry":{"coordinates":[145.019136,-37.855943],"type":"Point"},"properties":{"osm_id":"2362729029","tag":{"amenity":"recycling","recycling_type":"container"}},"type":"Feature"},
	{"geometry":{"coordinates":[145.019003,-37.856056],"type":"Point"},"properties":{"osm_id":"2362729044","tag":{"amenity":"recycling","recycling_type":"container"}},"type":"Feature"},
	{"geometry":{"coordinates":[145.019135,-37.856428],"type":"Point"},"properties":{"osm_id":"2362729510","tag":{"amenity":"recycling","recycling_type":"container"}},"type":"Feature"},
	{"geometry":{"coordinates":[144.964934,-37.811429],"type":"Point"},"properties":{"osm_id":"2379760364","tag":{"amenity":"waste_basket","check_date":"2020-12-24"}},"type":"Feature"},
	{"geometry":{"coordinates":[144.964672,-37.811141],"type":"Point"},"properties":{"osm_id":"2379760392","tag":{"amenity":"waste_basket","check_date":"2020-12-24"}},"type":"Feature"},
	{"geometry":{"coordinates":[144.964395,-37.810628],"type":"Point"},"properties":{"osm_id":"2379760968","tag":{"amenity":"recycling","recycling_type":"container"}},"type":"Feature"},
	{"geometry":{"coordinates":[144.962203,-37.799739],"type":"Point"},"properties":{"osm_id":"2410556752","tag":{"amenity":"waste_basket"}},"type":"Feature"},
	{"geometry":{"coordinates":[144.96272,-37.799549],"type":"Point"},"properties":{"osm_id":"2410559534","tag":{"amenity":"waste_basket"}},"type":"Feature"},
	{"geometry":{"coordinates":[144.99419,-37.799887],"type":"Point"},"properties":{"osm_id":"2616608448","tag":{"amenity":"waste_basket"}},"type":"Feature"},
	{"geometry":{"coordinates":[144.99906,-37.813429],"type":"Point"},"properties":{"name":"needle disposal box","osm_id":"2672755688","tag":{"amenity":"waste_basket","survey:date":"2014-02-15","waste":"needles"}},"type":"Feature"},
	{"geometry":{"coordinates":[144.983474,-37.814055],"type":"Point"},"properties":{"osm_id":"2678593774","tag":{"amenity":"recycling","recycling:clothes":"yes","recycling_type":"container","survey:date":"2014-02-16"}},"type":"Feature"},
	{"geometry":{"coordinates":[144.995749,-37.810814],"type":"Point"},"properties":{"osm_id":"2678597651","tag":{"amenity":"waste_basket","survey:date":"2014-02-16","waste":"needles"}},"type":"Feature"},
	{"geometry":{"coordinates":[145.001524,-37.811425],"type":"Point"},"properties":{"osm_id":"2686224551","tag":{"amenity":"waste_disposal","waste":"needles"}},"type":"Feature"},
	{"geometry":{"coordinates":[144.992591,-37.799752],"type":"Point"},"properties":{"osm_id":"2688005573","tag":{"amenity":"waste_basket","check_date":"2021-02-22"}},"type":"Feature"},
	{"geometry":{"coordinates":[144.992743,-37.799953],"type":"Point"},"properties":{"osm_id":"2688005575","tag":{"amenity":"waste_basket","check_date":"2021-02-22","operator":"City of Yarra"}},"type":"Feature"},
	{"geometry":{"coordinates":[144.986402,-37.805145],"type":"Point"},"properties":{"osm_id":"2688014263","tag":{"amenity":"waste_basket","survey:date":"2014-02-17"}},"type":"Feature"},
	{"geometry":{"coordinates":[144.95722,-37.8231],"type":"Point"},"properties":{"osm_id":"2689531632","tag":{"amenity":"waste_basket"}},"type":"Feature"},
	{"geometry":{"coordinates":[145.009221,-37.801128],"type":"Point"},"properties":{"osm_id":"2692214914","tag":{"amenity":"waste_basket"}},"type":"Feature"},
	{"geometry":{"coordinates":[144.973062,-37.810333],"type":"Point"},"properties":{"osm_id":"2692538946","tag":{"amenity":"waste_basket"}},"type":"Feature"},
	{"geometry":{"coordinates":[144.973038,-37.810365],"type":"Point"},"properties":{"osm_id":"2692538947","tag":{"amenity":"recycling","recycling_type":"container"}},"type":"Feature"},
	{"geometry":{"coordinates":[144.974192,-37.809573],"type":"Point"},"properties":{"osm_id":"2692539293","tag":{"amenity":"recycling","recycling_type":"container"}},"type":"Feature"},
	{"geometry":{"coordinates":[144.974231,-37.809546],"type":"Point"},"properties":{"osm_id":"2692539422","tag":{"amenity":"waste_basket"}},"type":"Feature"},
	{"geometry":{"coordinates":[144.974759,-37.80955],"type":"Point"},"properties":{"osm_id":"2692539555","tag":{"amenity":"waste_basket"}},"type":"Feature"},
	{"geometry":{"coordinates":[144.974476,-37.809292],"type":"Point"},"properties":{"osm_id":"2692539678","tag":{"amenity":"waste_basket"}},"type":"Feature"},
	{"geometry":{"coordinates":[144.975465,-37.809628],"type":"Point"},"properties":{"osm_id":"2692539981","tag":{"amenity":"waste_basket"}},"type":"Feature"},
	{"geometry":{"coordinates":[144.975481,-37.809741],"type":"Point"},"properties":{"osm_id":"2692540206","tag":{"amenity":"waste_basket"}},"type":"Feature"},
	{"geometry":{"coordinates":[144.975827,-37.809425],"type":"Point"},"properties":{"osm_id":"2692540397","tag":{"amenity":"waste_basket"}},"type":"Feature"},
	{"geometry":{"coordinates":[144.975904,-37.808958],"type":"Point"},"properties":{"osm_id":"2692540463","tag":{"amenity":"waste_basket"}},"type":"Feature"},
	{"geometry":{"coordinates":[144.975643,-37.808611],"type":"Point"},"properties":{"osm_id":"2692540664","tag":{"amenity":"waste_basket"}},"type":"Feature"},
	{"geometry":{"coordinates":[144.976373,-37.808549],"type":"Point"},"properties":{"osm_id":"2692540733","tag":{"amenity":"waste_basket"}},"type":"Feature"},
	{"geometry":{"coordinates":[144.976604,-37.808574],"type":"Point"},"properties":{"osm_id":"2692541032","tag":{"amenity":"waste_basket"}},"type":"Feature"},
	{"geometry":{"coordinates":[144.979133,-37.808315],"type":"Point"},"properties":{"osm_id":"2692567371","tag":{"amenity":"waste_basket"}},"type":"Feature"},
	{"geometry":{"coordinates":[144.982577,-37.808596],"type":"Point"},"properties":{"osm_id":"2692568016","tag":{"amenity":"waste_basket"}},"type":"Feature"},
	{"geometry":{"coordinates":[144.982718,-37.808681],"type":"Point"},"properties":{"osm_id":"2692568017","tag":{"amenity":"waste_basket"}},"type":"Feature"},
	{"geometry":{"coordinates":[144.982707,-37.808441],"type":"Point"},"properties":{"osm_id":"2692568018","tag":{"amenity":"waste_basket"}},"type":"Feature"},
	{"geometry":{"coordinates":[144.982664,-37.808881],"type":"Point"},"properties":{"osm_id":"2692573960","tag":{"amenity":"waste_basket"}},"type":"Feature"},
	{"geometry":{"coordinates":[144.983428,-37.808754],"type":"Point"},"properties":{"osm_id":"2692573990","tag":{"amenity":"waste_basket"}},"type":"Feature"},
	{"geometry":{"coordinates":[144.993136,-37.80352],"type":"Point"},"properties":{"osm_id":"2692614019","tag":{"amenity":"waste_basket"}},"type":"Feature"},
	{"geometry":{"coordinates":[144.993104,-37.803553],"type":"Point"},"properties":{"osm_id":"2692614035","tag":{"amenity":"recycling","recycling_type":"container"}},"type":"Feature"},
	{"geometry":{"coordinates":[144.994283,-37.802873],"type":"Point"},"properties":{"osm_id":"2694320616","tag":{"amenity":"waste_basket"}},"type":"Feature"},
	{"geometry":{"coordinates":[144.994288,-37.802896],"type":"Point"},"properties":{"osm_id":"2694320617","tag":{"amenity":"recycling","recycling_type":"container","survey:date":"2014-02-17"}},"type":"Feature"},
	{"geometry":{"coordinates":[144.997391,-37.80032],"type":"Point"},"properties":{"osm_id":"2694395236","tag":{"amenity":"waste_basket","survey:date":"2014-02-17"}},"type":"Feature"},
	{"geometry":{"coordinates":[145.004444,-37.802382],"type":"Point"},"properties":{"osm_id":"2695703883","tag":{"amenity":"waste_basket"}},"type":"Feature"},
	{"geometry":{"coordinates":[145.005051,-37.802646],"type":"Point"},"properties":{"osm_id":"2695703929","tag":{"amenity":"waste_basket"}},"type":"Feature"},
	{"geometry":{"coordinates":[145.005856,-37.803199],"type":"Point"},"properties":{"osm_id":"2695720620","tag":{"amenity":"waste_basket"}},"type":"Feature"},
	{"geometry":{"coordinates":[144.998716,-37.805486],"type":"Point"},"properties":{"osm_id":"2695729269","tag":{"amenity":"waste_basket"}},"type":"Feature"},
	{"geometry":{"coordinates":[144.958132,-37.821248],"type":"Point"},"properties":{"osm_id":"2696065815","tag":{"amenity":"waste_basket"}},"type":"Feature"},
	{"geometry":{"coordinates":[144.95767,-37.821254],"type":"Point"},"properties":{"osm_id":"2696065816","tag":{"amenity":"waste_basket"}},"type":"Feature"},
	{"geometry":{"coordinates":[144.983444,-37.811748],"type":"Point"},"properties":{"osm_id":"2696446362","tag":{"amenity":"waste_basket"}},"type":"Feature"},
	{"geometry":{"coordinates":[144.983553,-37.811537],"type":"Point"},"properties":{"osm_id":"2696446369","tag":{"amenity":"waste_basket"}},"type":"Feature"},
	{"geometry":{"coordinates":[144.984097,-37.811784],"type":"Point"},"properties":{"osm_id":"2696446371","tag":{"amenity":"waste_basket"}},"type":"Feature"},
	{"geometry":{"coordinates":[144.986519,-37.811447],"type":"Point"},"properties":{"osm_id":"2696446378","tag":{"amenity":"waste_basket"}},"type":"Feature"},
	{"geometry":{"coordinates":[144.986935,-37.811108],"type":"Point"},"properties":{"osm_id":"2696446445","tag":{"amenity":"waste_basket"}},"type":"Feature"},
	{"geometry":{"coordinates":[145.001758,-37.803082],"type":"Point"},"properties":{"osm_id":"2697548483","tag":{"amenity":"waste_basket"}},"type":"Feature"},
	{"geometry":{"coordinates":[144.994672,-37.809876],"type":"Point"},"properties":{"osm_id":"2697593551","tag":{"amenity":"waste_basket"}},"type":"Feature"},
	{"geometry":{"coordinates":[144.994661,-37.810021],"type":"Point"},"properties":{"osm_id":"2697593552","tag":{"amenity":"waste_basket"}},"type":"Feature"},
	{"geometry":{"coordinates":[144.995263,-37.810078],"type":"Point"},"properties":{"osm_id":"2697593555","tag":{"amenity":"waste_basket"}},"type":"Feature"},
	{"geometry":{"coordinates":[145.009842,-37.828484],"type":"Point"},"properties":{"osm_id":"2699195728","tag":{"amenity":"waste_basket"}},"type":"Feature"},
	{"geometry":{"coordinates":[145.002357,-37.826131],"type":"Point"},"properties":{"osm_id":"2699248364","tag":{"amenity":"waste_basket"}},"type":"Feature"},
	{"geometry":{"coordinates":[145.001132,-37.825978],"type":"Point"},"properties":{"osm_id":"2699248420","tag":{"amenity":"waste_basket"}},"type":"Feature"},
	{"geometry":{"coordinates":[145.00067,-37.826055],"type":"Point"},"properties":{"osm_id":"2699248440","tag":{"amenity":"waste_basket"}},"type":"Feature"},
	{"geometry":{"coordinates":[144.999865,-37.825998],"type":"Point"},"properties":{"osm_id":"2699248478","tag":{"amenity":"waste_basket"}},"type":"Feature"},
	{"geometry":{"coordinates":[144.998036,-37.825752],"type":"Point"},"properties":{"osm_id":"2699248515","tag":{"amenity":"waste_basket"}},"type":"Feature"},
	{"geometry":{"coordinates":[144.99775,-37.825912],"type":"Point"},"properties":{"osm_id":"2699248535","tag":{"amenity":"waste_basket"}},"type":"Feature"},
	{"geometry":{"coordinates":[144.997989,-37.825615],"type":"Point"},"properties":{"osm_id":"2699248554","tag":{"amenity":"waste_basket"}},"type":"Feature"},
	{"geometry":{"coordinates":[144.996125,-37.825588],"type":"Point"},"properties":{"osm_id":"2699248920","tag":{"amenity":"waste_basket"}},"type":"Feature"},
	{"geometry":{"coordinates":[144.96321,-37.802829],"type":"Point"},"properties":{"osm_id":"2700936590","tag":{"amenity":"waste_basket"}},"type":"Feature"},
	{"geometry":{"coordinates":[144.963215,-37.802752],"type":"Point"},"properties":{"osm_id":"2700936594","tag":{"amenity":"recycling","recycling_type":"container"}},"type":"Feature"},
	{"geometry":{"coordinates":[144.963654,-37.803141],"type":"Point"},"properties":{"osm_id":"2700936605","tag":{"amenity":"waste_basket"}},"type":"Feature"},
	{"geometry":{"coordinates":[144.96331,-37.80373],"type":"Point"},"properties":{"osm_id":"2700936613","tag":{"amenity":"waste_basket"}},"type":"Feature"},
	{"geometry":{"coordinates":[144.963098,-37.804441],"type":"Point"},"properties":{"osm_id":"2700936621","tag":{"amenity":"waste_basket"}},"type":"Feature"},
	{"geometry":{"coordinates":[144.963311,-37.805129],"type":"Point"},"properties":{"osm_id":"2700936625","tag":{"amenity":"waste_basket"}},"type":"Feature"},
	{"geometry":{"coordinates":[144.962125,-37.811401],"type":"Point"},"properties":{"osm_id":"2701086299","tag":{"amenity":"recycling","recycling:clothes":"yes","recycling_type":"container"}},"type":"Feature"},
	{"geometry":{"coordinates":[144.962624,-37.812078],"type":"Point"},"properties":{"osm_id":"2701086300","tag":{"amenity":"waste_basket","check_date":"2021-01-01"}},"type":"Feature"},
	{"geometry":{"coordinates":[144.962033,-37.812233],"type":"Point"},"properties":{"osm_id":"2701086301","tag":{"amenity":"waste_basket","check_date":"2021-01-09"}},"type":"Feature"},
	{"geometry":{"coordinates":[144.966001,-37.808817],"type":"Point"},"properties":{"osm_id":"2701086305","tag":{"amenity":"waste_basket"}},"type":"Feature"},
	{"geometry":{"coordinates":[144.966472,-37.808977],"type":"Point"},"properties":{"osm_id":"2701086306","tag":{"amenity":"waste_basket"}},"type":"Feature"},
	{"geometry":{"coordinates":[144.960425,-37.797112],"type":"Point"},"properties":{"osm_id":"2702202945","tag":{"amenity":"waste_basket"}},"type":"Feature"},
	{"geometry":{"coordinates":[144.970723,-37.820687],"type":"Point"},"properties":{"osm_id":"2705171087","tag":{"amenity":"waste_basket"}},"type":"Feature"},
	{"geometry":{"coordinates":[144.95496,-37.799908],"type":"Point"},"properties":{"osm_id":"2711792024","tag":{"amenity":"waste_basket"}},"type":"Feature"},
	{"geometry":{"coordinates":[144.955393,-37.799652],"type":"Point"},"properties":{"osm_id":"2711792161","tag":{"amenity":"waste_basket"}},"type":"Feature"},
	{"geometry":{"coordinates":[144.960356,-37.799934],"type":"Point"},"properties":{"osm_id":"2711795734","tag":{"amenity":"waste_basket"}},"type":"Feature"},
	{"geometry":{"coordinates":[144.960686,-37.799447],"type":"Point"},"properties":{"osm_id":"2711797308","tag":{"amenity":"waste_basket"}},"type":"Feature"},
	{"geometry":{"coordinates":[144.960438,-37.798171],"type":"Point"},"properties":{"osm_id":"2724428923","tag":{"amenity":"waste_basket"}},"type":"Feature"},
	{"geometry":{"coordinates":[144.960589,-37.801119],"type":"Point"},"properties":{"osm_id":"2724624447","tag":{"amenity":"waste_basket"}},"type":"Feature"},
	{"geometry":{"coordinates":[144.992508,-37.803967],"type":"Point"},"properties":{"osm_id":"2738100599","tag":{"amenity":"waste_basket","operator":"City of Yarra"}},"type":"Feature"},
	{"geometry":{"coordinates":[144.962342,-37.800379],"type":"Point"},"properties":{"osm_id":"2753269712","tag":{"amenity":"waste_basket"}},"type":"Feature"},
	{"geometry":{"coordinates":[144.962612,-37.800429],"type":"Point"},"properties":{"osm_id":"2753276325","tag":{"amenity":"waste_basket"}},"type":"Feature"},
	{"geometry":{"coordinates":[144.962583,-37.800183],"type":"Point"},"properties":{"osm_id":"2753277794","tag":{"amenity":"waste_basket"}},"type":"Feature"},
	{"geometry":{"coordinates":[144.964454,-37.809712],"type":"Point"},"properties":{"osm_id":"2753426476","tag":{"amenity":"waste_basket"}},"type":"Feature"},
	{"geometry":{"coordinates":[144.964415,-37.79707],"type":"Point"},"properties":{"osm_id":"2760171130","tag":{"amenity":"waste_basket"}},"type":"Feature"},
	{"geometry":{"coordinates":[145.007463,-37.827491],"type":"Point"},"properties":{"osm_id":"2763398690","tag":{"amenity":"waste_basket"}},"type":"Feature"},
	{"geometry":{"coordinates":[144.993125,-37.800332],"type":"Point"},"properties":{"osm_id":"2798031401","tag":{"amenity":"waste_basket"}},"type":"Feature"},
	{"geometry":{"coordinates":[144.992841,-37.798863],"type":"Point"},"properties":{"osm_id":"2960450735","tag":{"amenity":"waste_basket"}},"type":"Feature"},
	{"geometry":{"coordinates":[144.998463,-37.812403],"type":"Point"},"properties":{"osm_id":"2962233494","tag":{"amenity":"waste_basket","survey:date":"2014-02-24"}},"type":"Feature"},
	{"geometry":{"coordinates":[144.99272,-37.803639],"type":"Point"},"properties":{"osm_id":"2966891033","tag":{"amenity":"waste_basket","operator":"City of Yarra"}},"type":"Feature"},
	{"geometry":{"coordinates":[145.005164,-37.80873],"type":"Point"},"properties":{"osm_id":"2967254217","tag":{"amenity":"waste_basket","survey:date":"2014-02-22"}},"type":"Feature"},
	{"geometry":{"coordinates":[144.983826,-37.78837],"type":"Point"},"properties":{"osm_id":"2987230633","tag":{"amenity":"waste_basket"}},"type":"Feature"},
	{"geometry":{"coordinates":[144.983804,-37.788251],"type":"Point"},"properties":{"osm_id":"2987233633","tag":{"amenity":"waste_basket"}},"type":"Feature"},
	{"geometry":{"coordinates":[144.983332,-37.789319],"type":"Point"},"properties":{"osm_id":"2987267933","tag":{"amenity":"waste_basket"}},"type":"Feature"},
	{"geometry":{"coordinates":[144.96245,-37.79776],"type":"Point"},"properties":{"osm_id":"3001751333","tag":{"amenity":"waste_basket","check_date":"2021-03-04"}},"type":"Feature"},
	{"geometry":{"coordinates":[144.960692,-37.798348],"type":"Point"},"properties":{"osm_id":"3011901294","tag":{"amenity":"waste_basket"}},"type":"Feature"},
	{"geometry":{"coordinates":[144.961177,-37.798506],"type":"Point"},"properties":{"osm_id":"3011901296","tag":{"amenity":"waste_basket"}},"type":"Feature"},
	{"geometry":{"coordinates":[144.991704,-37.832026],"type":"Point"},"properties":{"osm_id":"3066355633","tag":{"amenity":"waste_basket"}},"type":"Feature"},
	{"geometry":{"coordinates":[145.01013,-37.798735],"type":"Point"},"properties":{"osm_id":"3110519029","tag":{"amenity":"waste_basket"}},"type":"Feature"},
	{"geometry":{"coordinates":[144.973626,-37.805981],"type":"Point"},"properties":{"osm_id":"3164098561","tag":{"amenity":"waste_basket","check_date":"2021-08-01","operator":"City of Yarra"}},"type":"Feature"},
	{"geometry":{"coordinates":[144.969644,-37.805207],"type":"Point"},"properties":{"osm_id":"3237277042","tag":{"amenity":"waste_basket"}},"type":"Feature"},
	{"geometry":{"coordinates":[144.950143,-37.817756],"type":"Point"},"properties":{"osm_id":"3259282313","tag":{"amenity":"waste_basket","level":"1"}},"type":"Feature"},
	{"geometry":{"coordinates":[144.968352,-37.808367],"type":"Point"},"properties":{"osm_id":"3269958761","tag":{"amenity":"waste_basket"}},"type":"Feature"},
	{"geometry":{"coordinates":[144.94374,-37.814193],"type":"Point"},"properties":{"osm_id":"3375923622","tag":{"amenity":"waste_basket"}},"type":"Feature"},
	{"geometry":{"coordinates":[144.964174,-37.798411],"type":"Point"},"properties":{"osm_id":"3415579316","tag":{"amenity":"waste_basket"}},"type":"Feature"},
	{"geometry":{"coordinates":[144.964113,-37.798625],"type":"Point"},"properties":{"osm_id":"3415579317","tag":{"amenity":"waste_basket"}},"type":"Feature"},
	{"geometry":{"coordinates":[144.963802,-37.79855],"type":"Point"},"properties":{"osm_id":"3415579319","tag":{"amenity":"waste_basket"}},"type":"Feature"},
	{"geometry":{"coordinates":[144.961196,-37.831716],"type":"Point"},"properties":{"osm_id":"3416936876","tag":{"amenity":"recycling"}},"type":"Feature"},
	{"geometry":{"coordinates":[144.953996,-37.812279],"type":"Point"},"properties":{"osm_id":"3442391197","tag":{"amenity":"waste_basket"}},"type":"Feature"},
	{"geometry":{"coordinates":[144.953744,-37.812595],"type":"Point"},"properties":{"osm_id":"3442391198","tag":{"amenity":"waste_basket"}},"type":"Feature"},
	{"geometry":{"coordinates":[144.95389,-37.812645],"type":"Point"},"properties":{"osm_id":"3442391204","tag":{"amenity":"waste_basket"}},"type":"Feature"},
	{"geometry":{"coordinates":[144.953466,-37.812686],"type":"Point"},"properties":{"osm_id":"3442391205","tag":{"amenity":"waste_basket"}},"type":"Feature"},
	{"geometry":{"coordinates":[144.954049,-37.812988],"type":"Point"},"properties":{"osm_id":"3442409120","tag":{"amenity":"waste_basket"}},"type":"Feature"},
	{"geometry":{"coordinates":[144.963307,-37.814125],"type":"Point"},"properties":{"osm_id":"3472628033","tag":{"amenity":"waste_basket","check_date":"2021-01-21"}},"type":"Feature"},
	{"geometry":{"coordinates":[144.963242,-37.814113],"type":"Point"},"properties":{"osm_id":"3472628036","tag":{"amenity":"waste_basket","check_date":"2021-01-21"}},"type":"Feature"},
	{"geometry":{"coordinates":[144.963043,-37.806529],"type":"Point"},"properties":{"osm_id":"3523510815","tag":{"amenity":"waste_basket"}},"type":"Feature"},
	{"geometry":{"coordinates":[144.962091,-37.806682],"type":"Point"},"properties":{"osm_id":"3523510818","tag":{"amenity":"waste_basket"}},"type":"Feature"},
	{"geometry":{"coordinates":[144.962788,-37.806453],"type":"Point"},"properties":{"osm_id":"3523510820","tag":{"amenity":"waste_basket"}},"type":"Feature"},
	{"geometry":{"coordinates":[144.961053,-37.806667],"type":"Point"},"properties":{"osm_id":"3523510821","tag":{"amenity":"waste_basket"}},"type":"Feature"},
	{"geometry":{"coordinates":[144.962685,-37.806734],"type":"Point"},"properties":{"osm_id":"3523510829","tag":{"amenity":"waste_basket"}},"type":"Feature"},
	{"geometry":{"coordinates":[144.968523,-37.820355],"type":"Point"},"properties":{"osm_id":"3557255804","tag":{"amenity":"waste_basket"}},"type":"Feature"},
	{"geometry":{"coordinates":[144.937233,-37.83786],"type":"Point"},"properties":{"osm_id":"3661783050","tag":{"amenity":"waste_basket","check_date":"2021-01-25"}},"type":"Feature"},
	{"geometry":{"coordinates":[144.937455,-37.837585],"type":"Point"},"properties":{"osm_id":"3661786178","tag":{"amenity":"waste_basket","check_date":"2021-01-25"}},"type":"Feature"},
	{"geometry":{"coordinates":[144.940804,-37.840123],"type":"Point"},"properties":{"osm_id":"3661803232","tag":{"amenity":"waste_basket","check_date":"2021-01-07"}},"type":"Feature"},
	{"geometry":{"coordinates":[144.940873,-37.84039],"type":"Point"},"properties":{"osm_id":"3661803415","tag":{"amenity":"waste_basket","check_date":"2021-01-07"}},"type":"Feature"},
	{"geometry":{"coordinates":[144.939155,-37.841782],"type":"Point"},"properties":{"osm_id":"3662346151","tag":{"amenity":"waste_basket","check_date":"2021-01-07"}},"type":"Feature"},
	{"geometry":{"coordinates":[144.940049,-37.840911],"type":"Point"},"properties":{"osm_id":"3662346807","tag":{"amenity":"waste_basket","check_date":"2021-01-07"}},"type":"Feature"},
	{"geometry":{"coordinates":[144.939416,-37.841926],"type":"Point"},"properties":{"osm_id":"3662347335","tag":{"amenity":"waste_basket","check_date":"2021-01-07"}},"type":"Feature"},
	{"geometry":{"coordinates":[144.935428,-37.836797],"type":"Point"},"properties":{"osm_id":"3663191897","tag":{"amenity":"waste_basket","check_date":"2021-02-23"}},"type":"Feature"},
	{"geometry":{"coordinates":[144.94617,-37.834719],"type":"Point"},"properties":{"osm_id":"3665295010","tag":{"amenity":"waste_basket","check_date":"2021-01-18"}},"type":"Feature"},
	{"geometry":{"coordinates":[144.963884,-37.821144],"type":"Point"},"properties":{"osm_id":"3669045484","tag":{"amenity":"waste_basket"}},"type":"Feature"},
	{"geometry":{"coordinates":[144.963965,-37.821313],"type":"Point"},"properties":{"osm_id":"3669059897","tag":{"amenity":"waste_basket"}},"type":"Feature"},
	{"geometry":{"coordinates":[144.94062,-37.834673],"type":"Point"},"properties":{"osm_id":"3696408633","tag":{"amenity":"waste_basket","check_date":"2021-01-24"}},"type":"Feature"},
	{"geometry":{"coordinates":[144.940877,-37.834501],"type":"Point"},"properties":{"osm_id":"3696408634","tag":{"amenity":"waste_basket","check_date":"2021-01-24"}},"type":"Feature"},
	{"geometry":{"coordinates":[144.943508,-37.833002],"type":"Point"},"properties":{"osm_id":"3698390324","tag":{"amenity":"waste_basket","check_date":"2021-01-26"}},"type":"Feature"},
	{"geometry":{"coordinates":[144.932083,-37.841113],"type":"Point"},"properties":{"osm_id":"3699785942","tag":{"amenity":"waste_basket","check_date":"2021-01-07"}},"type":"Feature"},
	{"geometry":{"coordinates":[144.932692,-37.841169],"type":"Point"},"properties":{"osm_id":"3699785943","tag":{"amenity":"waste_basket","check_date":"2021-01-07"}},"type":"Feature"},
	{"geometry":{"coordinates":[144.959444,-37.796814],"type":"Point"},"properties":{"osm_id":"3812209780","tag":{"amenity":"waste_basket"}},"type":"Feature"},
	{"geometry":{"coordinates":[144.957343,-37.815775],"type":"Point"},"properties":{"osm_id":"3815018357","tag":{"amenity":"waste_basket"}},"type":"Feature"},
	{"geometry":{"coordinates":[144.973232,-37.80553],"type":"Point"},"properties":{"osm_id":"3816607258","tag":{"amenity":"waste_basket"}},"type":"Feature"},
	{"geometry":{"coordinates":[144.983396,-37.803641],"type":"Point"},"properties":{"osm_id":"3816612257","tag":{"amenity":"waste_basket"}},"type":"Feature"},
	{"geometry":{"coordinates":[144.950902,-37.822],"type":"Point"},"properties":{"osm_id":"3818227425","tag":{"amenity":"waste_basket"}},"type":"Feature"},
	{"geometry":{"coordinates":[144.97358,-37.793114],"type":"Point"},"properties":{"osm_id":"3868670649","tag":{"amenity":"waste_basket"}},"type":"Feature"},
	{"geometry":{"coordinates":[144.973681,-37.79312],"type":"Point"},"properties":{"osm_id":"3868670650","tag":{"amenity":"waste_basket"}},"type":"Feature"},
	{"geometry":{"coordinates":[145.011863,-37.827232],"type":"Point"},"properties":{"osm_id":"3937076857","tag":{"amenity":"waste_basket"}},"type":"Feature"},
	{"geometry":{"coordinates":[145.009857,-37.827012],"type":"Point"},"properties":{"osm_id":"3937076858","tag":{"amenity":"waste_basket"}},"type":"Feature"},
	{"geometry":{"coordinates":[145.009586,-37.826908],"type":"Point"},"properties":{"osm_id":"3937076859","tag":{"amenity":"waste_basket"}},"type":"Feature"},
	{"geometry":{"coordinates":[145.00742,-37.826745],"type":"Point"},"properties":{"osm_id":"3937076860","tag":{"amenity":"waste_basket"}},"type":"Feature"},
	{"geometry":{"coordinates":[145.006892,-37.826624],"type":"Point"},"properties":{"osm_id":"3937076861","tag":{"amenity":"waste_basket"}},"type":"Feature"},
	{"geometry":{"coordinates":[145.002645,-37.826218],"type":"Point"},"properties":{"osm_id":"3937076862","tag":{"amenity":"waste_basket"}},"type":"Feature"},
	{"geometry":{"coordinates":[144.997638,-37.825602],"type":"Point"},"properties":{"osm_id":"3937076864","tag":{"amenity":"waste_basket"}},"type":"Feature"},
	{"geometry":{"coordinates":[144.995855,-37.825373],"type":"Point"},"properties":{"osm_id":"3937082265","tag":{"amenity":"waste_basket"}},"type":"Feature"},
	{"geometry":{"coordinates":[144.993298,-37.825102],"type":"Point"},"properties":{"osm_id":"3937082266","tag":{"amenity":"waste_basket"}},"type":"Feature"},
	{"geometry":{"coordinates":[144.975507,-37.818185],"type":"Point"},"properties":{"osm_id":"3937087601","tag":{"amenity":"waste_basket"}},"type":"Feature"},
	{"geometry":{"coordinates":[144.977512,-37.803316],"type":"Point"},"properties":{"osm_id":"4029303295","tag":{"amenity":"waste_basket"}},"type":"Feature"},
	{"geometry":{"coordinates":[144.98867,-37.78979],"type":"Point"},"properties":{"osm_id":"4067828575","tag":{"amenity":"waste_basket"}},"type":"Feature"},
	{"geometry":{"coordinates":[144.984466,-37.79743],"type":"Point"},"properties":{"osm_id":"4069407889","tag":{"amenity":"waste_basket","operator":"City of Yarra"}},"type":"Feature"},
	{"geometry":{"coordinates":[144.985373,-37.805335],"type":"Point"},"properties":{"osm_id":"4111058890","tag":{"amenity":"waste_basket"}},"type":"Feature"},
	{"geometry":{"coordinates":[144.985599,-37.805187],"type":"Point"},"properties":{"osm_id":"4111066589","tag":{"amenity":"waste_basket"}},"type":"Feature"},
	{"geometry":{"coordinates":[144.98329,-37.805092],"type":"Point"},"properties":{"osm_id":"4135140530","tag":{"amenity":"waste_basket"}},"type":"Feature"},
	{"geometry":{"coordinates":[144.938142,-37.837013],"type":"Point"},"properties":{"osm_id":"4192561691","tag":{"amenity":"waste_basket","check_date":"2021-01-25"}},"type":"Feature"},
	{"geometry":{"coordinates":[144.942842,-37.836352],"type":"Point"},"properties":{"osm_id":"4213226391","tag":{"amenity":"waste_basket","check_date":"2021-01-25"}},"type":"Feature"},
	{"geometry":{"coordinates":[144.936748,-37.842792],"type":"Point"},"properties":{"osm_id":"4214639693","tag":{"amenity":"waste_basket","check_date":"2021-01-07"}},"type":"Feature"},
	{"geometry":{"coordinates":[144.936748,-37.842775],"type":"Point"},"properties":{"osm_id":"4214681092","tag":{"amenity":"waste_basket","check_date":"2021-01-07"}},"type":"Feature"},
	{"geometry":{"coordinates":[144.970066,-37.816609],"type":"Point"},"properties":{"osm_id":"4217575105","tag":{"amenity":"waste_basket"}},"type":"Feature"},
	{"geometry":{"coordinates":[145.014751,-37.82478],"type":"Point"},"properties":{"osm_id":"4353912812","tag":{"amenity":"waste_basket","material":"metal","operator":"City of Yarra","waste":"trash"}},"type":"Feature"},
	{"geometry":{"coordinates":[145.014873,-37.825155],"type":"Point"},"properties":{"osm_id":"4353912813","tag":{"amenity":"waste_basket"}},"type":"Feature"},
	{"geometry":{"coordinates":[145.014615,-37.825464],"type":"Point"},"properties":{"osm_id":"4353912814","tag":{"amenity":"waste_basket"}},"type":"Feature"},
	{"geometry":{"coordinates":[145.014612,-37.825485],"type":"Point"},"properties":{"osm_id":"4353912815","tag":{"amenity":"waste_basket"}},"type":"Feature"},
	{"geometry":{"coordinates":[145.014048,-37.825385],"type":"Point"},"properties":{"osm_id":"4353912816","tag":{"amenity":"waste_basket"}},"type":"Feature"},
	{"geometry":{"coordinates":[144.968871,-37.819693],"type":"Point"},"properties":{"osm_id":"4405478699","tag":{"amenity":"waste_basket"}},"type":"Feature"},
	{"geometry":{"coordinates":[144.96945,-37.819646],"type":"Point"},"properties":{"osm_id":"4405526589","tag":{"amenity":"waste_basket"}},"type":"Feature"},
	{"geometry":{"coordinates":[144.983454,-37.816901],"type":"Point"},"properties":{"osm_id":"4469565291","tag":{"amenity":"waste_basket"}},"type":"Feature"},
	{"geometry":{"coordinates":[144.98507,-37.819042],"type":"Point"},"properties":{"osm_id":"4469635391","tag":{"amenity":"waste_basket"}},"type":"Feature"},
	{"geometry":{"coordinates":[144.965499,-37.834561],"type":"Point"},"properties":{"osm_id":"4548871060","tag":{"amenity":"waste_basket","check_date":"2021-02-04"}},"type":"Feature"},
	{"geometry":{"coordinates":[144.96571,-37.834467],"type":"Point"},"properties":{"osm_id":"4548871061","tag":{"amenity":"waste_basket","check_date":"2021-02-04"}},"type":"Feature"},
	{"geometry":{"coordinates":[144.962189,-37.800308],"type":"Point"},"properties":{"osm_id":"4586306894","tag":{"amenity":"waste_basket"}},"type":"Feature"},
	{"geometry":{"coordinates":[144.965696,-37.81687],"type":"Point"},"properties":{"osm_id":"4719654689","tag":{"amenity":"waste_basket"}},"type":"Feature"},
	{"geometry":{"coordinates":[144.965024,-37.818019],"type":"Point"},"properties":{"osm_id":"4719654690","tag":{"amenity":"waste_basket"}},"type":"Feature"},
	{"geometry":{"coordinates":[144.94969,-37.803219],"type":"Point"},"properties":{"osm_id":"4730421709","tag":{"amenity":"waste_basket"}},"type":"Feature"},
	{"geometry":{"coordinates":[144.949172,-37.805432],"type":"Point"},"properties":{"osm_id":"4742273057","tag":{"amenity":"waste_basket"}},"type":"Feature"},
	{"geometry":{"coordinates":[144.949392,-37.805266],"type":"Point"},"properties":{"osm_id":"4742273058","tag":{"amenity":"waste_basket"}},"type":"Feature"},
	{"geometry":{"coordinates":[144.950318,-37.80537],"type":"Point"},"properties":{"osm_id":"4742273153","tag":{"amenity":"waste_basket"}},"type":"Feature"},
	{"geometry":{"coordinates":[144.950612,-37.80514],"type":"Point"},"properties":{"osm_id":"4742309332","tag":{"amenity":"waste_basket","check_date":"2021-05-22"}},"type":"Feature"},
	{"geometry":{"coordinates":[144.966075,-37.802668],"type":"Point"},"properties":{"osm_id":"4789290546","tag":{"amenity":"waste_basket"}},"type":"Feature"},
	{"geometry":{"coordinates":[144.965634,-37.802612],"type":"Point"},"properties":{"osm_id":"4789290547","tag":{"amenity":"waste_basket"}},"type":"Feature"},
	{"geometry":{"coordinates":[144.966172,-37.802158],"type":"Point"},"properties":{"osm_id":"4789290548","tag":{"amenity":"waste_basket"}},"type":"Feature"},
	{"geometry":{"coordinates":[144.96585,-37.802629],"type":"Point"},"properties":{"osm_id":"4789290552","tag":{"amenity":"waste_basket"}},"type":"Feature"},
	{"geometry":{"coordinates":[144.966498,-37.802174],"type":"Point"},"properties":{"osm_id":"4789290554","tag":{"amenity":"waste_basket"}},"type":"Feature"},
	{"geometry":{"coordinates":[144.965703,-37.802207],"type":"Point"},"properties":{"osm_id":"4789290558","tag":{"amenity":"waste_basket"}},"type":"Feature"},
	{"geometry":{"coordinates":[144.96596,-37.802227],"type":"Point"},"properties":{"osm_id":"4789290559","tag":{"amenity":"waste_basket"}},"type":"Feature"},
	{"geometry":{"coordinates":[144.966557,-37.802254],"type":"Point"},"properties":{"osm_id":"4789290560","tag":{"amenity":"waste_basket"}},"type":"Feature"},
	{"geometry":{"coordinates":[144.964746,-37.802684],"type":"Point"},"properties":{"osm_id":"4789296576","tag":{"amenity":"waste_basket"}},"type":"Feature"},
	{"geometry":{"coordinates":[144.963839,-37.802389],"type":"Point"},"properties":{"osm_id":"4789296580","tag":{"amenity":"waste_basket"}},"type":"Feature"},
	{"geometry":{"coordinates":[144.967179,-37.838542],"type":"Point"},"properties":{"osm_id":"4804794182","tag":{"amenity":"waste_basket"}},"type":"Feature"},
	{"geometry":{"coordinates":[144.967333,-37.83859],"type":"Point"},"properties":{"osm_id":"4804794184","tag":{"amenity":"waste_basket"}},"type":"Feature"},
	{"geometry":{"coordinates":[144.967163,-37.840163],"type":"Point"},"properties":{"osm_id":"4804799068","tag":{"amenity":"waste_basket"}},"type":"Feature"},
	{"geometry":{"coordinates":[144.959304,-37.798834],"type":"Point"},"properties":{"osm_id":"4805272740","tag":{"amenity":"waste_basket"}},"type":"Feature"},
	{"geometry":{"coordinates":[144.953388,-37.794608],"type":"Point"},"properties":{"osm_id":"4808868609","tag":{"amenity":"waste_basket"}},"type":"Feature"},
	{"geometry":{"coordinates":[144.955677,-37.810453],"type":"Point"},"properties":{"osm_id":"4957706246","tag":{"amenity":"waste_basket"}},"type":"Feature"},
	{"geometry":{"coordinates":[144.956145,-37.81172],"type":"Point"},"properties":{"osm_id":"4957706247","tag":{"amenity":"waste_basket","check_date":"2021-03-25"}},"type":"Feature"},
	{"geometry":{"coordinates":[144.955134,-37.812006],"type":"Point"},"properties":{"osm_id":"4957706248","tag":{"amenity":"waste_basket"}},"type":"Feature"},
	{"geometry":{"coordinates":[144.954556,-37.811331],"type":"Point"},"properties":{"osm_id":"4957706249","tag":{"amenity":"waste_basket"}},"type":"Feature"},
	{"geometry":{"coordinates":[144.955051,-37.809715],"type":"Point"},"properties":{"osm_id":"4957706250","tag":{"amenity":"waste_basket"}},"type":"Feature"},
	{"geometry":{"coordinates":[144.954826,-37.808632],"type":"Point"},"properties":{"osm_id":"4957706251","tag":{"amenity":"waste_basket"}},"type":"Feature"},
	{"geometry":{"coordinates":[144.95592,-37.811082],"type":"Point"},"properties":{"osm_id":"4957706252","tag":{"amenity":"waste_basket"}},"type":"Feature"},
	{"geometry":{"coordinates":[144.955127,-37.810317],"type":"Point"},"properties":{"osm_id":"4957706253","tag":{"amenity":"waste_basket"}},"type":"Feature"},
	{"geometry":{"coordinates":[144.955011,-37.809746],"type":"Point"},"properties":{"osm_id":"4957706254","tag":{"amenity":"waste_basket"}},"type":"Feature"},
	{"geometry":{"coordinates":[144.954615,-37.808708],"type":"Point"},"properties":{"osm_id":"4957706255","tag":{"amenity":"waste_basket"}},"type":"Feature"},
	{"geometry":{"coordinates":[144.953616,-37.810081],"type":"Point"},"properties":{"osm_id":"4957706256","tag":{"amenity":"waste_basket"}},"type":"Feature"},
	{"geometry":{"coordinates":[144.956221,-37.811654],"type":"Point"},"properties":{"osm_id":"4957706257","tag":{"amenity":"waste_basket","check_date":"2021-03-25"}},"type":"Feature"},
	{"geometry":{"coordinates":[144.955129,-37.81031],"type":"Point"},"properties":{"osm_id":"4957706258","tag":{"amenity":"waste_basket"}},"type":"Feature"},
	{"geometry":{"coordinates":[144.955915,-37.811074],"type":"Point"},"properties":{"osm_id":"4957706259","tag":{"amenity":"waste_basket"}},"type":"Feature"},
	{"geometry":{"coordinates":[144.954249,-37.809671],"type":"Point"},"properties":{"osm_id":"4957706260","tag":{"amenity":"waste_basket"}},"type":"Feature"},
	{"geometry":{"coordinates":[144.954045,-37.810696],"type":"Point"},"properties":{"osm_id":"4957706261","tag":{"amenity":"waste_basket"}},"type":"Feature"},
	{"geometry":{"coordinates":[144.953978,-37.812281],"type":"Point"},"properties":{"osm_id":"4957706262","tag":{"amenity":"waste_basket"}},"type":"Feature"},
	{"geometry":{"coordinates":[144.953199,-37.809397],"type":"Point"},"properties":{"osm_id":"4957706263","tag":{"amenity":"waste_basket"}},"type":"Feature"},
	{"geometry":{"coordinates":[144.955029,-37.80973],"type":"Point"},"properties":{"osm_id":"4957706264","tag":{"amenity":"waste_basket"}},"type":"Feature"},
	{"geometry":{"coordinates":[144.953901,-37.811281],"type":"Point"},"properties":{"osm_id":"4957706265","tag":{"amenity":"waste_basket"}},"type":"Feature"},
	{"geometry":{"coordinates":[144.955316,-37.809708],"type":"Point"},"properties":{"osm_id":"4957706266","tag":{"amenity":"waste_basket"}},"type":"Feature"},
	{"geometry":{"coordinates":[144.95321,-37.809402],"type":"Point"},"properties":{"osm_id":"4957706267","tag":{"amenity":"waste_basket"}},"type":"Feature"},
	{"geometry":{"coordinates":[144.954246,-37.812005],"type":"Point"},"properties":{"osm_id":"4957706268","tag":{"amenity":"waste_basket"}},"type":"Feature"},
	{"geometry":{"coordinates":[144.954694,-37.810823],"type":"Point"},"properties":{"osm_id":"4957706269","tag":{"amenity":"waste_basket"}},"type":"Feature"},
	{"geometry":{"coordinates":[144.955921,-37.810967],"type":"Point"},"properties":{"osm_id":"4957706270","tag":{"amenity":"waste_basket"}},"type":"Feature"},
	{"geometry":{"coordinates":[144.954248,-37.811994],"type":"Point"},"properties":{"osm_id":"4957706271","tag":{"amenity":"waste_basket"}},"type":"Feature"},
	{"geometry":{"coordinates":[144.954552,-37.811324],"type":"Point"},"properties":{"osm_id":"4957706272","tag":{"amenity":"waste_basket"}},"type":"Feature"},
	{"geometry":{"coordinates":[144.954266,-37.809661],"type":"Point"},"properties":{"osm_id":"4957706273","tag":{"amenity":"waste_basket"}},"type":"Feature"},
	{"geometry":{"coordinates":[144.95563,-37.811701],"type":"Point"},"properties":{"osm_id":"4957706274","tag":{"amenity":"waste_basket"}},"type":"Feature"},
	{"geometry":{"coordinates":[144.955641,-37.811706],"type":"Point"},"properties":{"osm_id":"4957706275","tag":{"amenity":"waste_basket"}},"type":"Feature"},
	{"geometry":{"coordinates":[144.953623,-37.81009],"type":"Point"},"properties":{"osm_id":"4957706276","tag":{"amenity":"waste_basket"}},"type":"Feature"},
	{"geometry":{"coordinates":[144.955071,-37.809703],"type":"Point"},"properties":{"osm_id":"4957706277","tag":{"amenity":"waste_basket"}},"type":"Feature"},
	{"geometry":{"coordinates":[144.947242,-37.810449],"type":"Point"},"properties":{"osm_id":"4957734503","tag":{"amenity":"waste_basket"}},"type":"Feature"},
	{"geometry":{"coordinates":[144.943406,-37.805649],"type":"Point"},"properties":{"osm_id":"4957734504","tag":{"amenity":"waste_basket"}},"type":"Feature"},
	{"geometry":{"coordinates":[144.942242,-37.806174],"type":"Point"},"properties":{"osm_id":"4957734505","tag":{"amenity":"waste_basket"}},"type":"Feature"},
	{"geometry":{"coordinates":[144.946732,-37.806865],"type":"Point"},"properties":{"osm_id":"4957734506","tag":{"amenity":"waste_basket"}},"type":"Feature"},
	{"geometry":{"coordinates":[144.947244,-37.807385],"type":"Point"},"properties":{"osm_id":"4957734508","tag":{"amenity":"waste_basket"}},"type":"Feature"},
	{"geometry":{"coordinates":[144.944625,-37.805934],"type":"Point"},"properties":{"osm_id":"4957734509","tag":{"amenity":"waste_basket"}},"type":"Feature"},
	{"geometry":{"coordinates":[144.942653,-37.806858],"type":"Point"},"properties":{"osm_id":"4957734510","tag":{"amenity":"waste_basket"}},"type":"Feature"},
	{"geometry":{"coordinates":[144.946948,-37.807276],"type":"Point"},"properties":{"osm_id":"4957734511","tag":{"amenity":"waste_basket"}},"type":"Feature"},
	{"geometry":{"coordinates":[144.947148,-37.808131],"type":"Point"},"properties":{"osm_id":"4957734512","tag":{"amenity":"waste_basket"}},"type":"Feature"},
	{"geometry":{"coordinates":[144.943961,-37.807186],"type":"Point"},"properties":{"osm_id":"4957734513","tag":{"amenity":"waste_basket"}},"type":"Feature"},
	{"geometry":{"coordinates":[144.947723,-37.808008],"type":"Point"},"properties":{"osm_id":"4957734514","tag":{"amenity":"waste_basket"}},"type":"Feature"},
	{"geometry":{"coordinates":[144.942679,-37.807397],"type":"Point"},"properties":{"osm_id":"4957734515","tag":{"amenity":"waste_basket"}},"type":"Feature"},
	{"geometry":{"coordinates":[144.945784,-37.807945],"type":"Point"},"properties":{"osm_id":"4957734516","tag":{"amenity":"waste_basket"}},"type":"Feature"},
	{"geometry":{"coordinates":[144.947655,-37.807758],"type":"Point"},"properties":{"osm_id":"4957734517","tag":{"amenity":"waste_basket"}},"type":"Feature"},
	{"geometry":{"coordinates":[144.94792,-37.807915],"type":"Point"},"properties":{"osm_id":"4957734518","tag":{"amenity":"waste_basket"}},"type":"Feature"},
	{"geometry":{"coordinates":[144.947612,-37.810868],"type":"Point"},"properties":{"osm_id":"4957734519","tag":{"amenity":"waste_basket"}},"type":"Feature"},
	{"geometry":{"coordinates":[144.946103,-37.809229],"type":"Point"},"properties":{"osm_id":"4957734520","tag":{"amenity":"waste_basket"}},"type":"Feature"},
	{"geometry":{"coordinates":[144.94881,-37.808781],"type":"Point"},"properties":{"osm_id":"4957734521","tag":{"amenity":"waste_basket"}},"type":"Feature"},
	{"geometry":{"coordinates":[144.950595,-37.811669],"type":"Point"},"properties":{"osm_id":"4996764357","tag":{"amenity":"waste_basket"}},"type":"Feature"},
	{"geometry":{"coordinates":[144.951207,-37.813127],"type":"Point"},"properties":{"osm_id":"4996764358","tag":{"amenity":"waste_basket"}},"type":"Feature"},
	{"geometry":{"coordinates":[144.949444,-37.811204],"type":"Point"},"properties":{"osm_id":"4996764359","tag":{"amenity":"waste_basket"}},"type":"Feature"},
	{"geometry":{"coordinates":[144.951305,-37.810912],"type":"Point"},"properties":{"osm_id":"4996764360","tag":{"amenity":"waste_basket"}},"type":"Feature"},
	{"geometry":{"coordinates":[144.950821,-37.811523],"type":"Point"},"properties":{"osm_id":"4996764361","tag":{"amenity":"waste_basket"}},"type":"Feature"},
	{"geometry":{"coordinates":[144.951049,-37.812652],"type":"Point"},"properties":{"osm_id":"4996764362","tag":{"amenity":"waste_basket"}},"type":"Feature"},
	{"geometry":{"coordinates":[144.953507,-37.811896],"type":"Point"},"properties":{"osm_id":"4996764363","tag":{"amenity":"waste_basket"}},"type":"Feature"},
	{"geometry":{"coordinates":[144.950905,-37.812343],"type":"Point"},"properties":{"osm_id":"4996764364","tag":{"amenity":"waste_basket"}},"type":"Feature"},
	{"geometry":{"coordinates":[144.952289,-37.810407],"type":"Point"},"properties":{"osm_id":"4996764365","tag":{"amenity":"waste_basket"}},"type":"Feature"},
	{"geometry":{"coordinates":[144.952869,-37.810515],"type":"Point"},"properties":{"osm_id":"4996764366","tag":{"amenity":"waste_basket"}},"type":"Feature"},
	{"geometry":{"coordinates":[144.950999,-37.811905],"type":"Point"},"properties":{"osm_id":"4996764367","tag":{"amenity":"waste_basket"}},"type":"Feature"},
	{"geometry":{"coordinates":[144.953155,-37.811132],"type":"Point"},"properties":{"osm_id":"4996764368","tag":{"amenity":"waste_basket"}},"type":"Feature"},
	{"geometry":{"coordinates":[144.950076,-37.813448],"type":"Point"},"properties":{"osm_id":"4996764369","tag":{"amenity":"waste_basket"}},"type":"Feature"},
	{"geometry":{"coordinates":[144.951235,-37.813069],"type":"Point"},"properties":{"osm_id":"4996764370","tag":{"amenity":"waste_basket"}},"type":"Feature"},
	{"geometry":{"coordinates":[144.953686,-37.812418],"type":"Point"},"properties":{"osm_id":"4996764371","tag":{"amenity":"waste_basket"}},"type":"Feature"},
	{"geometry":{"coordinates":[144.950066,-37.813456],"type":"Point"},"properties":{"osm_id":"4996764372","tag":{"amenity":"waste_basket"}},"type":"Feature"},
	{"geometry":{"coordinates":[144.960652,-37.797685],"type":"Point"},"properties":{"osm_id":"5021242839","tag":{"amenity":"waste_basket"}},"type":"Feature"},
	{"geometry":{"coordinates":[144.961504,-37.797919],"type":"Point"},"properties":{"osm_id":"5021242840","tag":{"amenity":"waste_basket"}},"type":"Feature"},
	{"geometry":{"coordinates":[144.962467,-37.801664],"type":"Point"},"properties":{"osm_id":"5021246207","tag":{"amenity":"waste_basket"}},"type":"Feature"},
	{"geometry":{"coordinates":[144.962409,-37.801497],"type":"Point"},"properties":{"osm_id":"5021246208","tag":{"amenity":"waste_basket"}},"type":"Feature"},
	{"geometry":{"coordinates":[144.961208,-37.800203],"type":"Point"},"properties":{"osm_id":"5021246209","tag":{"amenity":"waste_basket"}},"type":"Feature"},
	{"geometry":{"coordinates":[144.960329,-37.800071],"type":"Point"},"properties":{"osm_id":"5021246210","tag":{"amenity":"waste_basket"}},"type":"Feature"},
	{"geometry":{"coordinates":[144.994,-37.792166],"type":"Point"},"properties":{"osm_id":"5034383013","tag":{"amenity":"waste_basket"}},"type":"Feature"},
	{"geometry":{"coordinates":[144.998278,-37.809966],"type":"Point"},"properties":{"name":"Inner City Metal Recycler","osm_id":"5123921795","tag":{"amenity":"recycling"}},"type":"Feature"},
	{"geometry":{"coordinates":[144.998421,-37.810287],"type":"Point"},"properties":{"osm_id":"5123921801","tag":{"amenity":"waste_basket"}},"type":"Feature"},
	{"geometry":{"coordinates":[144.962499,-37.795187],"type":"Point"},"properties":{"osm_id":"5177215142","tag":{"amenity":"waste_basket"}},"type":"Feature"},
	{"geometry":{"coordinates":[144.95686,-37.83874],"type":"Point"},"properties":{"osm_id":"5217442904","tag":{"amenity":"waste_basket"}},"type":"Feature"},
	{"geometry":{"coordinates":[144.956425,-37.838821],"type":"Point"},"properties":{"osm_id":"5217442970","tag":{"amenity":"waste_basket"}},"type":"Feature"},
	{"geometry":{"coordinates":[144.968258,-37.81805],"type":"Point"},"properties":{"osm_id":"5227301501","tag":{"amenity":"waste_disposal"}},"type":"Feature"},
	{"geometry":{"coordinates":[144.97183,-37.819563],"type":"Point"},"properties":{"osm_id":"5227301502","tag":{"amenity":"waste_disposal"}},"type":"Feature"},
	{"geometry":{"coordinates":[144.970754,-37.819575],"type":"Point"},"properties":{"osm_id":"5227304032","tag":{"amenity":"waste_disposal"}},"type":"Feature"},
	{"geometry":{"coordinates":[144.970819,-37.807722],"type":"Point"},"properties":{"osm_id":"5289349543","tag":{"amenity":"waste_basket"}},"type":"Feature"},
	{"geometry":{"coordinates":[144.969055,-37.808144],"type":"Point"},"properties":{"osm_id":"5289349546","tag":{"amenity":"waste_basket"}},"type":"Feature"},
	{"geometry":{"coordinates":[144.968635,-37.808044],"type":"Point"},"properties":{"osm_id":"5289349548","tag":{"amenity":"waste_basket"}},"type":"Feature"},
	{"geometry":{"coordinates":[144.968524,-37.808113],"type":"Point"},"properties":{"osm_id":"5289349550","tag":{"amenity":"waste_basket"}},"type":"Feature"},
	{"geometry":{"coordinates":[144.964817,-37.809413],"type":"Point"},"properties":{"osm_id":"5290693619","tag":{"amenity":"waste_basket"}},"type":"Feature"},
	{"geometry":{"coordinates":[144.964769,-37.809202],"type":"Point"},"properties":{"osm_id":"5290693620","tag":{"amenity":"waste_basket"}},"type":"Feature"},
	{"geometry":{"coordinates":[144.96401,-37.80943],"type":"Point"},"properties":{"osm_id":"5290694923","tag":{"amenity":"waste_basket"}},"type":"Feature"},
	{"geometry":{"coordinates":[144.963865,-37.809399],"type":"Point"},"properties":{"osm_id":"5290694927","tag":{"amenity":"waste_basket"}},"type":"Feature"},
	{"geometry":{"coordinates":[144.963671,-37.809532],"type":"Point"},"properties":{"osm_id":"5290694934","tag":{"amenity":"waste_basket"}},"type":"Feature"},
	{"geometry":{"coordinates":[144.963415,-37.809608],"type":"Point"},"properties":{"osm_id":"5290694935","tag":{"amenity":"waste_basket"}},"type":"Feature"},
	{"geometry":{"coordinates":[144.962737,-37.809793],"type":"Point"},"properties":{"osm_id":"5290694936","tag":{"amenity":"waste_basket"}},"type":"Feature"},
	{"geometry":{"coordinates":[144.961845,-37.810246],"type":"Point"},"properties":{"osm_id":"5290694939","tag":{"amenity":"waste_basket"}},"type":"Feature"},
	{"geometry":{"coordinates":[144.959751,-37.801961],"type":"Point"},"properties":{"osm_id":"5436484565","tag":{"amenity":"waste_basket"}},"type":"Feature"},
	{"geometry":{"coordinates":[144.962956,-37.799973],"type":"Point"},"properties":{"osm_id":"5436484566","tag":{"amenity":"waste_basket"}},"type":"Feature"},
	{"geometry":{"coordinates":[145.001736,-37.793457],"type":"Point"},"properties":{"name":"Yarra Council Recycling Drop-off Point","osm_id":"5481895335","tag":{"amenity":"recycling","recycling_type":"centre"}},"type":"Feature"},
	{"geometry":{"coordinates":[145.001725,-37.793387],"type":"Point"},"properties":{"barrier":"gate","osm_id":"5481895336"},"type":"Feature"},
	{"geometry":{"coordinates":[144.964767,-37.79699],"type":"Point"},"properties":{"osm_id":"5541608705","tag":{"amenity":"waste_basket"}},"type":"Feature"},
	{"geometry":{"coordinates":[144.963966,-37.79972],"type":"Point"},"properties":{"osm_id":"5541608707","tag":{"amenity":"waste_basket"}},"type":"Feature"},
	{"geometry":{"coordinates":[144.964573,-37.796979],"type":"Point"},"properties":{"osm_id":"5541608708","tag":{"amenity":"waste_basket"}},"type":"Feature"},
	{"geometry":{"coordinates":[144.963936,-37.799864],"type":"Point"},"properties":{"osm_id":"5541608710","tag":{"amenity":"waste_basket"}},"type":"Feature"},
	{"geometry":{"coordinates":[144.964749,-37.796699],"type":"Point"},"properties":{"osm_id":"5541608711","tag":{"amenity":"waste_basket"}},"type":"Feature"},
	{"geometry":{"coordinates":[144.964619,-37.798267],"type":"Point"},"properties":{"osm_id":"5541608712","tag":{"amenity":"waste_basket"}},"type":"Feature"},
	{"geometry":{"coordinates":[144.964307,-37.799326],"type":"Point"},"properties":{"osm_id":"5541608713","tag":{"amenity":"waste_basket"}},"type":"Feature"},
	{"geometry":{"coordinates":[144.94503,-37.78998],"type":"Point"},"properties":{"osm_id":"5646976876","tag":{"amenity":"waste_basket"}},"type":"Feature"},
	{"geometry":{"coordinates":[144.958345,-37.806523],"type":"Point"},"properties":{"osm_id":"5665193625","tag":{"amenity":"waste_basket"}},"type":"Feature"},
	{"geometry":{"coordinates":[144.958174,-37.807397],"type":"Point"},"properties":{"osm_id":"5665193627","tag":{"amenity":"waste_basket"}},"type":"Feature"},
	{"geometry":{"coordinates":[144.95839,-37.806317],"type":"Point"},"properties":{"osm_id":"5665193628","tag":{"amenity":"waste_basket"}},"type":"Feature"},
	{"geometry":{"coordinates":[144.994006,-37.792168],"type":"Point"},"properties":{"osm_id":"5733388518","tag":{"amenity":"waste_basket","waste":"dog_excrement"}},"type":"Feature"},
	{"geometry":{"coordinates":[144.962255,-37.788731],"type":"Point"},"properties":{"osm_id":"5754915564","tag":{"amenity":"waste_basket"}},"type":"Feature"},
	{"geometry":{"coordinates":[144.96232,-37.793874],"type":"Point"},"properties":{"osm_id":"5754925023","tag":{"amenity":"waste_basket"}},"type":"Feature"},
	{"geometry":{"coordinates":[144.961117,-37.791567],"type":"Point"},"properties":{"osm_id":"5754925024","tag":{"amenity":"waste_basket"}},"type":"Feature"},
	{"geometry":{"coordinates":[144.961836,-37.79359],"type":"Point"},"properties":{"osm_id":"5754925025","tag":{"amenity":"waste_basket"}},"type":"Feature"},
	{"geometry":{"coordinates":[144.962835,-37.796663],"type":"Point"},"properties":{"osm_id":"5754930933","tag":{"amenity":"waste_basket"}},"type":"Feature"},
	{"geometry":{"coordinates":[144.963291,-37.797577],"type":"Point"},"properties":{"osm_id":"5754930934","tag":{"amenity":"waste_basket"}},"type":"Feature"},
	{"geometry":{"coordinates":[144.950196,-37.795475],"type":"Point"},"properties":{"osm_id":"5808680685","tag":{"amenity":"waste_basket","waste":"trash"}},"type":"Feature"},
	{"geometry":{"coordinates":[144.949915,-37.795306],"type":"Point"},"properties":{"osm_id":"5808680686","tag":{"amenity":"waste_basket","waste":"trash"}},"type":"Feature"},
	{"geometry":{"coordinates":[144.964307,-37.810119],"type":"Point"},"properties":{"osm_id":"5841114888","tag":{"amenity":"waste_basket"}},"type":"Feature"},
	{"geometry":{"coordinates":[144.964255,-37.810015],"type":"Point"},"properties":{"osm_id":"5841114889","tag":{"amenity":"waste_basket"}},"type":"Feature"},
	{"geometry":{"coordinates":[144.966545,-37.818319],"type":"Point"},"properties":{"osm_id":"5856680723","tag":{"amenity":"waste_basket","level":"-1"}},"type":"Feature"},
	{"geometry":{"coordinates":[144.966665,-37.818621],"type":"Point"},"properties":{"osm_id":"5856680726","tag":{"amenity":"waste_basket","level":"-1"}},"type":"Feature"},
	{"geometry":{"coordinates":[144.966462,-37.818192],"type":"Point"},"properties":{"osm_id":"5856680731","tag":{"amenity":"waste_basket","level":"-1"}},"type":"Feature"},
	{"geometry":{"coordinates":[144.966729,-37.818809],"type":"Point"},"properties":{"osm_id":"5856680735","tag":{"amenity":"waste_basket","level":"-1"}},"type":"Feature"},
	{"geometry":{"coordinates":[144.966415,-37.818021],"type":"Point"},"properties":{"osm_id":"5856680741","tag":{"amenity":"waste_basket","level":"-1"}},"type":"Feature"},
	{"geometry":{"coordinates":[144.966609,-37.818486],"type":"Point"},"properties":{"osm_id":"5856680744","tag":{"amenity":"waste_basket","level":"-1"}},"type":"Feature"},
	{"geometry":{"coordinates":[144.978603,-37.809765],"type":"Point"},"properties":{"osm_id":"5897596517","tag":{"amenity":"waste_basket"}},"type":"Feature"},
	{"geometry":{"coordinates":[144.971179,-37.818354],"type":"Point"},"properties":{"osm_id":"5922126209","tag":{"amenity":"waste_basket"}},"type":"Feature"},
	{"geometry":{"coordinates":[144.969978,-37.818358],"type":"Point"},"properties":{"osm_id":"5922126218","tag":{"amenity":"waste_basket"}},"type":"Feature"},
	{"geometry":{"coordinates":[144.972208,-37.809548],"type":"Point"},"properties":{"osm_id":"5938036769","tag":{"amenity":"waste_basket"}},"type":"Feature"},
	{"geometry":{"coordinates":[144.972266,-37.809676],"type":"Point"},"properties":{"osm_id":"5938036776","tag":{"amenity":"waste_basket"}},"type":"Feature"},
	{"geometry":{"coordinates":[144.946549,-37.822735],"type":"Point"},"properties":{"osm_id":"5980747988","tag":{"amenity":"waste_basket"}},"type":"Feature"},
	{"geometry":{"coordinates":[144.96651,-37.810939],"type":"Point"},"properties":{"osm_id":"5980747989","tag":{"amenity":"waste_basket"}},"type":"Feature"},
	{"geometry":{"coordinates":[144.965764,-37.811149],"type":"Point"},"properties":{"osm_id":"5980747990","tag":{"amenity":"waste_basket"}},"type":"Feature"},
	{"geometry":{"coordinates":[144.962392,-37.806701],"type":"Point"},"properties":{"osm_id":"5982185654","tag":{"amenity":"waste_basket"}},"type":"Feature"},
	{"geometry":{"coordinates":[144.960075,-37.807171],"type":"Point"},"properties":{"osm_id":"5982185668","tag":{"amenity":"waste_basket"}},"type":"Feature"},
	{"geometry":{"coordinates":[144.963463,-37.808974],"type":"Point"},"properties":{"osm_id":"5982185683","tag":{"amenity":"waste_basket"}},"type":"Feature"},
	{"geometry":{"coordinates":[144.962513,-37.807014],"type":"Point"},"properties":{"osm_id":"5982185684","tag":{"amenity":"waste_basket"}},"type":"Feature"},
	{"geometry":{"coordinates":[144.959728,-37.807212],"type":"Point"},"properties":{"osm_id":"5982186585","tag":{"amenity":"waste_basket"}},"type":"Feature"},
	{"geometry":{"coordinates":[144.963168,-37.808356],"type":"Point"},"properties":{"osm_id":"5982186589","tag":{"amenity":"waste_basket"}},"type":"Feature"},
	{"geometry":{"coordinates":[144.941862,-37.821462],"type":"Point"},"properties":{"osm_id":"6028990686","tag":{"amenity":"waste_basket"}},"type":"Feature"},
	{"geometry":{"coordinates":[144.957998,-37.806649],"type":"Point"},"properties":{"osm_id":"6033425571","tag":{"amenity":"waste_basket"}},"type":"Feature"},
	{"geometry":{"coordinates":[144.958912,-37.806806],"type":"Point"},"properties":{"osm_id":"6033425574","tag":{"amenity":"waste_basket"}},"type":"Feature"},
	{"geometry":{"coordinates":[144.957902,-37.807153],"type":"Point"},"properties":{"osm_id":"6033425576","tag":{"amenity":"waste_basket"}},"type":"Feature"},
	{"geometry":{"coordinates":[144.960635,-37.815168],"type":"Point"},"properties":{"osm_id":"6089154672","tag":{"amenity":"waste_basket"}},"type":"Feature"},
	{"geometry":{"coordinates":[144.960715,-37.815359],"type":"Point"},"properties":{"osm_id":"6089154674","tag":{"amenity":"waste_basket"}},"type":"Feature"},
	{"geometry":{"coordinates":[144.960942,-37.815108],"type":"Point"},"properties":{"osm_id":"6089154675","tag":{"amenity":"waste_basket"}},"type":"Feature"},
	{"geometry":{"coordinates":[144.965312,-37.803174],"type":"Point"},"properties":{"osm_id":"6127343691","tag":{"amenity":"waste_basket"}},"type":"Feature"},
	{"geometry":{"coordinates":[144.943604,-37.812843],"type":"Point"},"properties":{"osm_id":"6136859943","tag":{"amenity":"waste_basket"}},"type":"Feature"},
	{"geometry":{"coordinates":[144.961083,-37.810263],"type":"Point"},"properties":{"osm_id":"6163158883","tag":{"amenity":"waste_basket"}},"type":"Feature"},
	{"geometry":{"coordinates":[144.961163,-37.810181],"type":"Point"},"properties":{"osm_id":"6163158884","tag":{"amenity":"waste_basket"}},"type":"Feature"},
	{"geometry":{"coordinates":[144.961359,-37.810019],"type":"Point"},"properties":{"osm_id":"6163160887","tag":{"amenity":"waste_basket"}},"type":"Feature"},
	{"geometry":{"coordinates":[144.942305,-37.81292],"type":"Point"},"properties":{"osm_id":"6174465051","tag":{"amenity":"waste_basket"}},"type":"Feature"},
	{"geometry":{"coordinates":[144.964193,-37.821303],"type":"Point"},"properties":{"osm_id":"6241052925","tag":{"amenity":"waste_basket"}},"type":"Feature"},
	{"geometry":{"coordinates":[144.964466,-37.821128],"type":"Point"},"properties":{"osm_id":"6241052927","tag":{"amenity":"waste_basket"}},"type":"Feature"},
	{"geometry":{"coordinates":[144.957219,-37.789868],"type":"Point"},"properties":{"osm_id":"6258751565","tag":{"amenity":"waste_basket"}},"type":"Feature"},
	{"geometry":{"coordinates":[144.958228,-37.791878],"type":"Point"},"properties":{"osm_id":"6258760395","tag":{"amenity":"waste_basket"}},"type":"Feature"},
	{"geometry":{"coordinates":[144.959963,-37.79535],"type":"Point"},"properties":{"osm_id":"6258769221","tag":{"amenity":"waste_basket"}},"type":"Feature"},
	{"geometry":{"coordinates":[144.964332,-37.797616],"type":"Point"},"properties":{"osm_id":"6273114206","tag":{"amenity":"waste_basket"}},"type":"Feature"},
	{"geometry":{"coordinates":[144.968108,-37.81853],"type":"Point"},"properties":{"osm_id":"6281985193","tag":{"amenity":"waste_basket"}},"type":"Feature"},
	{"geometry":{"coordinates":[144.967954,-37.818433],"type":"Point"},"properties":{"osm_id":"6281985194","tag":{"amenity":"waste_basket"}},"type":"Feature"},
	{"geometry":{"coordinates":[144.967816,-37.818415],"type":"Point"},"properties":{"osm_id":"6281992634","tag":{"amenity":"waste_basket"}},"type":"Feature"},
	{"geometry":{"coordinates":[144.967803,-37.818589],"type":"Point"},"properties":{"osm_id":"6281992635","tag":{"amenity":"waste_basket"}},"type":"Feature"},
	{"geometry":{"coordinates":[144.970276,-37.811006],"type":"Point"},"properties":{"osm_id":"6283768293","tag":{"amenity":"waste_basket"}},"type":"Feature"},
	{"geometry":{"coordinates":[144.970298,-37.811167],"type":"Point"},"properties":{"osm_id":"6283768295","tag":{"amenity":"waste_basket"}},"type":"Feature"},
	{"geometry":{"coordinates":[144.970198,-37.810957],"type":"Point"},"properties":{"osm_id":"6283768296","tag":{"amenity":"waste_basket"}},"type":"Feature"},
	{"geometry":{"coordinates":[144.983298,-37.81263],"type":"Point"},"properties":{"osm_id":"6338804086","tag":{"amenity":"waste_basket"}},"type":"Feature"},
	{"geometry":{"coordinates":[144.983082,-37.813992],"type":"Point"},"properties":{"osm_id":"6338804087","tag":{"amenity":"waste_basket"}},"type":"Feature"},
	{"geometry":{"coordinates":[144.982787,-37.815722],"type":"Point"},"properties":{"osm_id":"6338804089","tag":{"amenity":"waste_basket"}},"type":"Feature"},
	{"geometry":{"coordinates":[144.982756,-37.815909],"type":"Point"},"properties":{"osm_id":"6338804090","tag":{"amenity":"waste_basket"}},"type":"Feature"},
	{"geometry":{"coordinates":[144.983214,-37.816047],"type":"Point"},"properties":{"osm_id":"6338804091","tag":{"amenity":"waste_basket"}},"type":"Feature"},
	{"geometry":{"coordinates":[144.98279,-37.815998],"type":"Point"},"properties":{"osm_id":"6338804092","tag":{"amenity":"waste_basket"}},"type":"Feature"},
	{"geometry":{"coordinates":[144.943245,-37.788536],"type":"Point"},"properties":{"osm_id":"6345984905","tag":{"amenity":"waste_basket"}},"type":"Feature"},
	{"geometry":{"coordinates":[144.966673,-37.813912],"type":"Point"},"properties":{"osm_id":"6357531488","tag":{"amenity":"waste_basket"}},"type":"Feature"},
	{"geometry":{"coordinates":[144.966577,-37.81371],"type":"Point"},"properties":{"osm_id":"6357531502","tag":{"amenity":"waste_basket"}},"type":"Feature"},
	{"geometry":{"coordinates":[144.969729,-37.821628],"type":"Point"},"properties":{"osm_id":"6415593485","tag":{"amenity":"waste_basket"}},"type":"Feature"},
	{"geometry":{"coordinates":[144.956782,-37.830542],"type":"Point"},"properties":{"osm_id":"6486975483","tag":{"amenity":"waste_basket"}},"type":"Feature"},
	{"geometry":{"coordinates":[144.954905,-37.830206],"type":"Point"},"properties":{"osm_id":"6503128159","tag":{"amenity":"waste_basket"}},"type":"Feature"},
	{"geometry":{"coordinates":[144.947315,-37.79426],"type":"Point"},"properties":{"osm_id":"6598231483","tag":{"amenity":"recycling","recycling:clothes":"yes","recycling_type":"container"}},"type":"Feature"},
	{"geometry":{"coordinates":[144.941981,-37.820687],"type":"Point"},"properties":{"osm_id":"6678524938","tag":{"amenity":"waste_basket"}},"type":"Feature"},
	{"geometry":{"coordinates":[144.943831,-37.820205],"type":"Point"},"properties":{"osm_id":"6678524956","tag":{"amenity":"waste_basket"}},"type":"Feature"},
	{"geometry":{"coordinates":[144.94271,-37.820862],"type":"Point"},"properties":{"osm_id":"6678524960","tag":{"amenity":"waste_basket"}},"type":"Feature"},
	{"geometry":{"coordinates":[144.942971,-37.820188],"type":"Point"},"properties":{"osm_id":"6678524961","tag":{"amenity":"waste_basket"}},"type":"Feature"},
	{"geometry":{"coordinates":[144.94401,-37.820552],"type":"Point"},"properties":{"osm_id":"6678524964","tag":{"amenity":"waste_basket"}},"type":"Feature"},
	{"geometry":{"coordinates":[144.944263,-37.821146],"type":"Point"},"properties":{"osm_id":"6678524971","tag":{"amenity":"waste_basket"}},"type":"Feature"},
	{"geometry":{"coordinates":[144.943329,-37.821013],"type":"Point"},"properties":{"osm_id":"6678532306","tag":{"amenity":"waste_basket"}},"type":"Feature"},
	{"geometry":{"coordinates":[144.942217,-37.820405],"type":"Point"},"properties":{"osm_id":"6678532328","tag":{"amenity":"waste_basket"}},"type":"Feature"},
	{"geometry":{"coordinates":[144.94384,-37.820537],"type":"Point"},"properties":{"osm_id":"6678532335","tag":{"amenity":"waste_basket"}},"type":"Feature"},
	{"geometry":{"coordinates":[144.941559,-37.820376],"type":"Point"},"properties":{"osm_id":"6678532339","tag":{"amenity":"waste_basket"}},"type":"Feature"},
	{"geometry":{"coordinates":[144.943722,-37.821111],"type":"Point"},"properties":{"osm_id":"6678532350","tag":{"amenity":"waste_basket"}},"type":"Feature"},
	{"geometry":{"coordinates":[144.941679,-37.820539],"type":"Point"},"properties":{"osm_id":"6678532359","tag":{"amenity":"waste_basket"}},"type":"Feature"},
	{"geometry":{"coordinates":[144.942378,-37.82078],"type":"Point"},"properties":{"osm_id":"6678532409","tag":{"amenity":"waste_basket"}},"type":"Feature"},
	{"geometry":{"coordinates":[144.9412,-37.820609],"type":"Point"},"properties":{"osm_id":"6680132291","tag":{"amenity":"waste_basket"}},"type":"Feature"},
	{"geometry":{"coordinates":[144.940516,-37.820747],"type":"Point"},"properties":{"osm_id":"6680132301","tag":{"amenity":"waste_basket"}},"type":"Feature"},
	{"geometry":{"coordinates":[144.940713,-37.820844],"type":"Point"},"properties":{"osm_id":"6680787301","tag":{"amenity":"waste_basket"}},"type":"Feature"},
	{"geometry":{"coordinates":[144.942827,-37.821112],"type":"Point"},"properties":{"osm_id":"6680787309","tag":{"amenity":"waste_basket"}},"type":"Feature"},
	{"geometry":{"coordinates":[144.9417,-37.820841],"type":"Point"},"properties":{"osm_id":"6680787317","tag":{"amenity":"waste_basket"}},"type":"Feature"},
	{"geometry":{"coordinates":[144.941804,-37.821517],"type":"Point"},"properties":{"osm_id":"6680787340","tag":{"amenity":"waste_basket"}},"type":"Feature"},
	{"geometry":{"coordinates":[144.941441,-37.820818],"type":"Point"},"properties":{"osm_id":"6680787345","tag":{"amenity":"waste_basket"}},"type":"Feature"},
	{"geometry":{"coordinates":[144.942632,-37.821064],"type":"Point"},"properties":{"osm_id":"6680787351","tag":{"amenity":"waste_basket"}},"type":"Feature"},
	{"geometry":{"coordinates":[144.943291,-37.821336],"type":"Point"},"properties":{"osm_id":"6680787367","tag":{"amenity":"waste_basket"}},"type":"Feature"},
	{"geometry":{"coordinates":[144.943423,-37.821374],"type":"Point"},"properties":{"osm_id":"6680797598","tag":{"amenity":"waste_basket"}},"type":"Feature"},
	{"geometry":{"coordinates":[144.942663,-37.821689],"type":"Point"},"properties":{"osm_id":"6680797616","tag":{"amenity":"waste_basket"}},"type":"Feature"},
	{"geometry":{"coordinates":[144.942504,-37.821299],"type":"Point"},"properties":{"osm_id":"6680797634","tag":{"amenity":"waste_basket"}},"type":"Feature"},
	{"geometry":{"coordinates":[144.94219,-37.82101],"type":"Point"},"properties":{"osm_id":"6680797637","tag":{"amenity":"waste_basket"}},"type":"Feature"},
	{"geometry":{"coordinates":[144.94088,-37.820061],"type":"Point"},"properties":{"osm_id":"6680797639","tag":{"amenity":"waste_basket"}},"type":"Feature"},
	{"geometry":{"coordinates":[144.943422,-37.821965],"type":"Point"},"properties":{"osm_id":"6680797668","tag":{"amenity":"waste_basket"}},"type":"Feature"},
	{"geometry":{"coordinates":[144.941944,-37.820902],"type":"Point"},"properties":{"osm_id":"6680797690","tag":{"amenity":"waste_basket"}},"type":"Feature"},
	{"geometry":{"coordinates":[144.941116,-37.820725],"type":"Point"},"properties":{"osm_id":"6680797719","tag":{"amenity":"waste_basket"}},"type":"Feature"},
	{"geometry":{"coordinates":[144.940203,-37.82052],"type":"Point"},"properties":{"osm_id":"6680834384","tag":{"amenity":"waste_basket"}},"type":"Feature"},
	{"geometry":{"coordinates":[144.939574,-37.820211],"type":"Point"},"properties":{"osm_id":"6680866089","tag":{"amenity":"waste_basket"}},"type":"Feature"},
	{"geometry":{"coordinates":[144.940343,-37.820656],"type":"Point"},"properties":{"osm_id":"6680866101","tag":{"amenity":"waste_basket"}},"type":"Feature"},
	{"geometry":{"coordinates":[144.940366,-37.820465],"type":"Point"},"properties":{"osm_id":"6680866106","tag":{"amenity":"waste_basket"}},"type":"Feature"},
	{"geometry":{"coordinates":[144.93963,-37.819947],"type":"Point"},"properties":{"osm_id":"6680866115","tag":{"amenity":"waste_basket"}},"type":"Feature"},
	{"geometry":{"coordinates":[144.940098,-37.820036],"type":"Point"},"properties":{"osm_id":"6680866116","tag":{"amenity":"waste_basket"}},"type":"Feature"},
	{"geometry":{"coordinates":[144.947201,-37.820971],"type":"Point"},"properties":{"osm_id":"6682059883","tag":{"amenity":"waste_basket"}},"type":"Feature"},
	{"geometry":{"coordinates":[144.950504,-37.82002],"type":"Point"},"properties":{"osm_id":"6682182686","tag":{"amenity":"waste_basket"}},"type":"Feature"},
	{"geometry":{"coordinates":[144.947252,-37.821179],"type":"Point"},"properties":{"osm_id":"6682182688","tag":{"amenity":"waste_basket"}},"type":"Feature"},
	{"geometry":{"coordinates":[144.943764,-37.819673],"type":"Point"},"properties":{"osm_id":"6699781915","tag":{"amenity":"waste_basket"}},"type":"Feature"},
	{"geometry":{"coordinates":[144.944341,-37.819567],"type":"Point"},"properties":{"osm_id":"6699781953","tag":{"amenity":"waste_basket"}},"type":"Feature"},
	{"geometry":{"coordinates":[144.945049,-37.820031],"type":"Point"},"properties":{"osm_id":"6699781954","tag":{"amenity":"waste_basket"}},"type":"Feature"},
	{"geometry":{"coordinates":[144.942532,-37.820093],"type":"Point"},"properties":{"osm_id":"6699781956","tag":{"amenity":"waste_basket"}},"type":"Feature"},
	{"geometry":{"coordinates":[144.944931,-37.820522],"type":"Point"},"properties":{"osm_id":"6699795686","tag":{"amenity":"waste_basket"}},"type":"Feature"},
	{"geometry":{"coordinates":[144.944203,-37.820729],"type":"Point"},"properties":{"osm_id":"6699795690","tag":{"amenity":"waste_basket"}},"type":"Feature"},
	{"geometry":{"coordinates":[144.944277,-37.819974],"type":"Point"},"properties":{"osm_id":"6699795696","tag":{"amenity":"waste_basket"}},"type":"Feature"},
	{"geometry":{"coordinates":[144.944214,-37.819607],"type":"Point"},"properties":{"osm_id":"6699795705","tag":{"amenity":"waste_basket"}},"type":"Feature"},
	{"geometry":{"coordinates":[144.943494,-37.819816],"type":"Point"},"properties":{"osm_id":"6699795726","tag":{"amenity":"waste_basket"}},"type":"Feature"},
	{"geometry":{"coordinates":[144.944118,-37.820491],"type":"Point"},"properties":{"osm_id":"6699795741","tag":{"amenity":"waste_basket"}},"type":"Feature"},
	{"geometry":{"coordinates":[144.94249,-37.819661],"type":"Point"},"properties":{"osm_id":"6699795756","tag":{"amenity":"waste_basket"}},"type":"Feature"},
	{"geometry":{"coordinates":[144.945421,-37.820554],"type":"Point"},"properties":{"osm_id":"6699795784","tag":{"amenity":"waste_basket"}},"type":"Feature"},
	{"geometry":{"coordinates":[144.942891,-37.81999],"type":"Point"},"properties":{"osm_id":"6699795795","tag":{"amenity":"waste_basket"}},"type":"Feature"},
	{"geometry":{"coordinates":[144.942246,-37.820177],"type":"Point"},"properties":{"osm_id":"6699795808","tag":{"amenity":"waste_basket"}},"type":"Feature"},
	{"geometry":{"coordinates":[144.944569,-37.820242],"type":"Point"},"properties":{"osm_id":"6699795817","tag":{"amenity":"waste_basket"}},"type":"Feature"},
	{"geometry":{"coordinates":[144.943477,-37.81892],"type":"Point"},"properties":{"osm_id":"6720432748","tag":{"amenity":"waste_basket"}},"type":"Feature"},
	{"geometry":{"coordinates":[144.942761,-37.81906],"type":"Point"},"properties":{"osm_id":"6720432762","tag":{"amenity":"waste_basket"}},"type":"Feature"},
	{"geometry":{"coordinates":[144.942742,-37.818766],"type":"Point"},"properties":{"osm_id":"6720432771","tag":{"amenity":"waste_basket"}},"type":"Feature"},
	{"geometry":{"coordinates":[144.944154,-37.818634],"type":"Point"},"properties":{"osm_id":"6720432782","tag":{"amenity":"waste_basket"}},"type":"Feature"},
	{"geometry":{"coordinates":[144.942907,-37.818818],"type":"Point"},"properties":{"osm_id":"6720432783","tag":{"amenity":"waste_basket"}},"type":"Feature"},
	{"geometry":{"coordinates":[144.94254,-37.819276],"type":"Point"},"properties":{"osm_id":"6720446192","tag":{"amenity":"waste_basket"}},"type":"Feature"},
	{"geometry":{"coordinates":[144.9429,-37.818961],"type":"Point"},"properties":{"osm_id":"6720446201","tag":{"amenity":"waste_basket"}},"type":"Feature"},
	{"geometry":{"coordinates":[144.945224,-37.821509],"type":"Point"},"properties":{"osm_id":"6741639502","tag":{"amenity":"waste_basket"}},"type":"Feature"},
	{"geometry":{"coordinates":[144.947325,-37.821924],"type":"Point"},"properties":{"osm_id":"6741639523","tag":{"amenity":"waste_basket"}},"type":"Feature"},
	{"geometry":{"coordinates":[144.944518,-37.821526],"type":"Point"},"properties":{"osm_id":"6741639529","tag":{"amenity":"waste_basket"}},"type":"Feature"},
	{"geometry":{"coordinates":[144.945159,-37.821392],"type":"Point"},"properties":{"osm_id":"6741639533","tag":{"amenity":"waste_basket"}},"type":"Feature"},
	{"geometry":{"coordinates":[144.946529,-37.821387],"type":"Point"},"properties":{"osm_id":"6741639542","tag":{"amenity":"waste_basket"}},"type":"Feature"},
	{"geometry":{"coordinates":[144.94582,-37.821551],"type":"Point"},"properties":{"osm_id":"6741639554","tag":{"amenity":"waste_basket"}},"type":"Feature"},
	{"geometry":{"coordinates":[144.946456,-37.822675],"type":"Point"},"properties":{"osm_id":"6741639558","tag":{"amenity":"waste_basket"}},"type":"Feature"},
	{"geometry":{"coordinates":[144.945429,-37.82246],"type":"Point"},"properties":{"osm_id":"6741639583","tag":{"amenity":"waste_basket"}},"type":"Feature"},
	{"geometry":{"coordinates":[144.945608,-37.821578],"type":"Point"},"properties":{"osm_id":"6741639592","tag":{"amenity":"waste_basket"}},"type":"Feature"},
	{"geometry":{"coordinates":[144.946941,-37.821268],"type":"Point"},"properties":{"osm_id":"6741639594","tag":{"amenity":"waste_basket"}},"type":"Feature"},
	{"geometry":{"coordinates":[144.943556,-37.821287],"type":"Point"},"properties":{"osm_id":"6741639595","tag":{"amenity":"waste_basket"}},"type":"Feature"},
	{"geometry":{"coordinates":[144.944696,-37.822153],"type":"Point"},"properties":{"osm_id":"6741639597","tag":{"amenity":"waste_basket"}},"type":"Feature"},
	{"geometry":{"coordinates":[144.946027,-37.821515],"type":"Point"},"properties":{"osm_id":"6741639599","tag":{"amenity":"waste_basket"}},"type":"Feature"},
	{"geometry":{"coordinates":[144.94547,-37.82149],"type":"Point"},"properties":{"osm_id":"6741639624","tag":{"amenity":"waste_basket"}},"type":"Feature"},
	{"geometry":{"coordinates":[144.943892,-37.821368],"type":"Point"},"properties":{"osm_id":"6741639627","tag":{"amenity":"waste_basket"}},"type":"Feature"},
	{"geometry":{"coordinates":[144.944808,-37.821591],"type":"Point"},"properties":{"osm_id":"6741639647","tag":{"amenity":"waste_basket"}},"type":"Feature"},
	{"geometry":{"coordinates":[144.947743,-37.82174],"type":"Point"},"properties":{"osm_id":"6741639648","tag":{"amenity":"waste_basket"}},"type":"Feature"},
	{"geometry":{"coordinates":[144.968908,-37.818476],"type":"Point"},"properties":{"osm_id":"6741658211","tag":{"amenity":"waste_basket"}},"type":"Feature"},
	{"geometry":{"coordinates":[144.975874,-37.820996],"type":"Point"},"properties":{"osm_id":"6741658213","tag":{"amenity":"waste_basket"}},"type":"Feature"},
	{"geometry":{"coordinates":[144.974948,-37.819946],"type":"Point"},"properties":{"osm_id":"6741658225","tag":{"amenity":"waste_basket"}},"type":"Feature"},
	{"geometry":{"coordinates":[144.97415,-37.818869],"type":"Point"},"properties":{"osm_id":"6741658234","tag":{"amenity":"waste_basket"}},"type":"Feature"},
	{"geometry":{"coordinates":[144.944526,-37.822165],"type":"Point"},"properties":{"osm_id":"6742281157","tag":{"amenity":"waste_basket"}},"type":"Feature"},
	{"geometry":{"coordinates":[144.947324,-37.820101],"type":"Point"},"properties":{"osm_id":"6743435096","tag":{"amenity":"waste_basket"}},"type":"Feature"},
	{"geometry":{"coordinates":[144.945969,-37.819445],"type":"Point"},"properties":{"osm_id":"6743435103","tag":{"amenity":"waste_basket"}},"type":"Feature"},
	{"geometry":{"coordinates":[144.946623,-37.820867],"type":"Point"},"properties":{"osm_id":"6743435108","tag":{"amenity":"waste_basket"}},"type":"Feature"},
	{"geometry":{"coordinates":[144.946514,-37.821166],"type":"Point"},"properties":{"osm_id":"6743435111","tag":{"amenity":"waste_basket"}},"type":"Feature"},
	{"geometry":{"coordinates":[144.947788,-37.819874],"type":"Point"},"properties":{"osm_id":"6743435131","tag":{"amenity":"waste_basket"}},"type":"Feature"},
	{"geometry":{"coordinates":[144.945921,-37.819917],"type":"Point"},"properties":{"osm_id":"6743435141","tag":{"amenity":"waste_basket"}},"type":"Feature"},
	{"geometry":{"coordinates":[144.94773,-37.820152],"type":"Point"},"properties":{"osm_id":"6743435144","tag":{"amenity":"waste_basket"}},"type":"Feature"},
	{"geometry":{"coordinates":[144.948403,-37.820608],"type":"Point"},"properties":{"osm_id":"6743435149","tag":{"amenity":"waste_basket"}},"type":"Feature"},
	{"geometry":{"coordinates":[144.946211,-37.821243],"type":"Point"},"properties":{"osm_id":"6743435155","tag":{"amenity":"waste_basket"}},"type":"Feature"},
	{"geometry":{"coordinates":[144.946669,-37.819549],"type":"Point"},"properties":{"osm_id":"6743435160","tag":{"amenity":"waste_basket"}},"type":"Feature"},
	{"geometry":{"coordinates":[144.946163,-37.82076],"type":"Point"},"properties":{"osm_id":"6743436213","tag":{"amenity":"waste_basket"}},"type":"Feature"},
	{"geometry":{"coordinates":[144.944621,-37.81853],"type":"Point"},"properties":{"osm_id":"6760874955","tag":{"amenity":"waste_basket"}},"type":"Feature"},
	{"geometry":{"coordinates":[144.945132,-37.819345],"type":"Point"},"properties":{"osm_id":"6760874958","tag":{"amenity":"waste_basket"}},"type":"Feature"},
	{"geometry":{"coordinates":[144.944763,-37.819452],"type":"Point"},"properties":{"osm_id":"6760874979","tag":{"amenity":"waste_basket"}},"type":"Feature"},
	{"geometry":{"coordinates":[144.945343,-37.818262],"type":"Point"},"properties":{"osm_id":"6760877791","tag":{"amenity":"waste_basket"}},"type":"Feature"},
	{"geometry":{"coordinates":[144.945472,-37.820181],"type":"Point"},"properties":{"osm_id":"6760877794","tag":{"amenity":"waste_basket"}},"type":"Feature"},
	{"geometry":{"coordinates":[144.946424,-37.818803],"type":"Point"},"properties":{"osm_id":"6760877801","tag":{"amenity":"waste_basket"}},"type":"Feature"},
	{"geometry":{"coordinates":[144.944834,-37.818341],"type":"Point"},"properties":{"osm_id":"6760877848","tag":{"amenity":"waste_basket"}},"type":"Feature"},
	{"geometry":{"coordinates":[144.944953,-37.818341],"type":"Point"},"properties":{"osm_id":"6760877849","tag":{"amenity":"waste_basket"}},"type":"Feature"},
	{"geometry":{"coordinates":[144.945811,-37.819501],"type":"Point"},"properties":{"osm_id":"6760877861","tag":{"amenity":"waste_basket"}},"type":"Feature"},
	{"geometry":{"coordinates":[144.946238,-37.819019],"type":"Point"},"properties":{"osm_id":"6760877971","tag":{"amenity":"waste_basket"}},"type":"Feature"},
	{"geometry":{"coordinates":[144.945804,-37.818125],"type":"Point"},"properties":{"osm_id":"6760877983","tag":{"amenity":"waste_basket"}},"type":"Feature"},
	{"geometry":{"coordinates":[144.97642,-37.813937],"type":"Point"},"properties":{"osm_id":"6761086850","tag":{"amenity":"waste_basket"}},"type":"Feature"},
	{"geometry":{"coordinates":[144.978003,-37.813372],"type":"Point"},"properties":{"osm_id":"6761086860","tag":{"amenity":"waste_basket"}},"type":"Feature"},
	{"geometry":{"coordinates":[144.97425,-37.812372],"type":"Point"},"properties":{"osm_id":"6761103626","tag":{"amenity":"waste_basket"}},"type":"Feature"},
	{"geometry":{"coordinates":[144.974487,-37.812407],"type":"Point"},"properties":{"osm_id":"6761103630","tag":{"amenity":"waste_basket"}},"type":"Feature"},
	{"geometry":{"coordinates":[144.975205,-37.814959],"type":"Point"},"properties":{"osm_id":"6763450627","tag":{"amenity":"waste_basket"}},"type":"Feature"},
	{"geometry":{"coordinates":[144.977087,-37.815212],"type":"Point"},"properties":{"osm_id":"6763450628","tag":{"amenity":"waste_basket"}},"type":"Feature"},
	{"geometry":{"coordinates":[144.975013,-37.815134],"type":"Point"},"properties":{"osm_id":"6763450654","tag":{"amenity":"waste_basket"}},"type":"Feature"},
	{"geometry":{"coordinates":[144.975955,-37.814291],"type":"Point"},"properties":{"osm_id":"6763450662","tag":{"amenity":"waste_basket"}},"type":"Feature"},
	{"geometry":{"coordinates":[144.974805,-37.814233],"type":"Point"},"properties":{"osm_id":"6763450679","tag":{"amenity":"waste_basket"}},"type":"Feature"},
	{"geometry":{"coordinates":[144.975237,-37.813509],"type":"Point"},"properties":{"osm_id":"6763450684","tag":{"amenity":"waste_basket"}},"type":"Feature"},
	{"geometry":{"coordinates":[144.974876,-37.813878],"type":"Point"},"properties":{"osm_id":"6763458490","tag":{"amenity":"waste_basket"}},"type":"Feature"},
	{"geometry":{"coordinates":[144.97454,-37.813732],"type":"Point"},"properties":{"osm_id":"6763458499","tag":{"amenity":"waste_basket"}},"type":"Feature"},
	{"geometry":{"coordinates":[144.974755,-37.813531],"type":"Point"},"properties":{"osm_id":"6763458511","tag":{"amenity":"waste_basket"}},"type":"Feature"},
	{"geometry":{"coordinates":[144.964129,-37.81047],"type":"Point"},"properties":{"osm_id":"6778625075","tag":{"amenity":"waste_basket"}},"type":"Feature"},
	{"geometry":{"coordinates":[144.967199,-37.817196],"type":"Point"},"properties":{"osm_id":"6800617657","tag":{"amenity":"waste_basket"}},"type":"Feature"},
	{"geometry":{"coordinates":[144.966973,-37.816662],"type":"Point"},"properties":{"osm_id":"6800617658","tag":{"amenity":"waste_basket"}},"type":"Feature"},
	{"geometry":{"coordinates":[144.966849,-37.816398],"type":"Point"},"properties":{"osm_id":"6800617659","tag":{"amenity":"waste_basket"}},"type":"Feature"},
	{"geometry":{"coordinates":[145.000663,-37.796165],"type":"Point"},"properties":{"osm_id":"6813556961","tag":{"amenity":"waste_basket"}},"type":"Feature"},
	{"geometry":{"coordinates":[144.971214,-37.814223],"type":"Point"},"properties":{"osm_id":"6822003748","tag":{"amenity":"waste_basket"}},"type":"Feature"},
	{"geometry":{"coordinates":[144.970441,-37.814455],"type":"Point"},"properties":{"osm_id":"6822003758","tag":{"amenity":"waste_basket"}},"type":"Feature"},
	{"geometry":{"coordinates":[144.971817,-37.813867],"type":"Point"},"properties":{"osm_id":"6822003760","tag":{"amenity":"waste_basket"}},"type":"Feature"},
	{"geometry":{"coordinates":[144.968976,-37.814947],"type":"Point"},"properties":{"osm_id":"6822003761","tag":{"amenity":"waste_basket"}},"type":"Feature"},
	{"geometry":{"coordinates":[144.969215,-37.814622],"type":"Point"},"properties":{"osm_id":"6822003763","tag":{"amenity":"waste_basket"}},"type":"Feature"},
	{"geometry":{"coordinates":[144.969287,-37.81512],"type":"Point"},"properties":{"osm_id":"6822003765","tag":{"amenity":"waste_basket"}},"type":"Feature"},
	{"geometry":{"coordinates":[144.969387,-37.814728],"type":"Point"},"properties":{"osm_id":"6822003772","tag":{"amenity":"waste_basket"}},"type":"Feature"},
	{"geometry":{"coordinates":[144.971688,-37.814239],"type":"Point"},"properties":{"osm_id":"6822003776","tag":{"amenity":"waste_basket"}},"type":"Feature"},
	{"geometry":{"coordinates":[144.969354,-37.815249],"type":"Point"},"properties":{"osm_id":"6822003777","tag":{"amenity":"waste_basket"}},"type":"Feature"},
	{"geometry":{"coordinates":[144.971439,-37.814229],"type":"Point"},"properties":{"osm_id":"6822003779","tag":{"amenity":"waste_basket"}},"type":"Feature"},
	{"geometry":{"coordinates":[144.971975,-37.814002],"type":"Point"},"properties":{"osm_id":"6822023386","tag":{"amenity":"waste_basket"}},"type":"Feature"},
	{"geometry":{"coordinates":[144.954689,-37.799768],"type":"Point"},"properties":{"osm_id":"6829037541","tag":{"amenity":"waste_basket"}},"type":"Feature"},
	{"geometry":{"coordinates":[144.982397,-37.82773],"type":"Point"},"properties":{"osm_id":"6846372053","tag":{"amenity":"waste_basket","material":"metal"}},"type":"Feature"},
	{"geometry":{"coordinates":[144.982666,-37.827788],"type":"Point"},"properties":{"osm_id":"6846372054","tag":{"amenity":"waste_basket","material":"metal"}},"type":"Feature"},
	{"geometry":{"coordinates":[144.982936,-37.827839],"type":"Point"},"properties":{"osm_id":"6846372055","tag":{"amenity":"waste_basket","material":"metal"}},"type":"Feature"},
	{"geometry":{"coordinates":[144.983374,-37.827913],"type":"Point"},"properties":{"osm_id":"6846372056","tag":{"amenity":"waste_basket","material":"metal"}},"type":"Feature"},
	{"geometry":{"coordinates":[144.981907,-37.827607],"type":"Point"},"properties":{"osm_id":"6846372057","tag":{"amenity":"waste_basket","material":"metal"}},"type":"Feature"},
	{"geometry":{"coordinates":[144.981631,-37.827517],"type":"Point"},"properties":{"osm_id":"6846372058","tag":{"amenity":"waste_basket","material":"metal"}},"type":"Feature"},
	{"geometry":{"coordinates":[144.955337,-37.799948],"type":"Point"},"properties":{"osm_id":"6859521855","tag":{"amenity":"waste_basket"}},"type":"Feature"},
	{"geometry":{"coordinates":[144.955507,-37.799968],"type":"Point"},"properties":{"osm_id":"6859521856","tag":{"amenity":"waste_basket"}},"type":"Feature"},
	{"geometry":{"coordinates":[144.955394,-37.800235],"type":"Point"},"properties":{"osm_id":"6859563762","tag":{"amenity":"waste_basket"}},"type":"Feature"},
	{"geometry":{"coordinates":[144.950149,-37.820331],"type":"Point"},"properties":{"osm_id":"6868179836","tag":{"amenity":"waste_basket"}},"type":"Feature"},
	{"geometry":{"coordinates":[144.952071,-37.819778],"type":"Point"},"properties":{"osm_id":"6868180661","tag":{"amenity":"waste_basket"}},"type":"Feature"},
	{"geometry":{"coordinates":[144.940876,-37.813424],"type":"Point"},"properties":{"osm_id":"6879858838","tag":{"amenity":"waste_basket"}},"type":"Feature"},
	{"geometry":{"coordinates":[144.94098,-37.813385],"type":"Point"},"properties":{"osm_id":"6879858839","tag":{"amenity":"waste_basket"}},"type":"Feature"},
	{"geometry":{"coordinates":[144.940873,-37.813419],"type":"Point"},"properties":{"osm_id":"6879858840","tag":{"amenity":"recycling","recycling_type":"container"}},"type":"Feature"},
	{"geometry":{"coordinates":[144.940976,-37.813381],"type":"Point"},"properties":{"osm_id":"6879858841","tag":{"amenity":"recycling","recycling_type":"container"}},"type":"Feature"},
	{"geometry":{"coordinates":[144.940604,-37.81359],"type":"Point"},"properties":{"osm_id":"6879858842","tag":{"amenity":"waste_basket"}},"type":"Feature"},
	{"geometry":{"coordinates":[144.938873,-37.815302],"type":"Point"},"properties":{"osm_id":"6879900624","tag":{"amenity":"waste_basket"}},"type":"Feature"},
	{"geometry":{"coordinates":[144.938869,-37.81529],"type":"Point"},"properties":{"osm_id":"6879900625","tag":{"amenity":"recycling","recycling_type":"container"}},"type":"Feature"},
	{"geometry":{"coordinates":[144.965963,-37.81446],"type":"Point"},"properties":{"osm_id":"6953129991","tag":{"amenity":"waste_basket","waste":"trash"}},"type":"Feature"},
	{"geometry":{"coordinates":[144.966098,-37.814332],"type":"Point"},"properties":{"osm_id":"6953129992","tag":{"amenity":"waste_basket","waste":"trash"}},"type":"Feature"},
	{"geometry":{"coordinates":[144.963347,-37.801917],"type":"Point"},"properties":{"osm_id":"6988629737","tag":{"amenity":"waste_basket"}},"type":"Feature"},
	{"geometry":{"coordinates":[145.00285,-37.793092],"type":"Point"},"properties":{"osm_id":"7012433036","tag":{"amenity":"waste_basket"}},"type":"Feature"},
	{"geometry":{"coordinates":[144.993336,-37.799775],"type":"Point"},"properties":{"osm_id":"7012598399","tag":{"amenity":"waste_basket"}},"type":"Feature"},
	{"geometry":{"coordinates":[144.994022,-37.800025],"type":"Point"},"properties":{"osm_id":"7012598400","tag":{"amenity":"waste_basket"}},"type":"Feature"},
	{"geometry":{"coordinates":[144.993435,-37.799958],"type":"Point"},"properties":{"osm_id":"7012598401","tag":{"amenity":"waste_basket"}},"type":"Feature"},
	{"geometry":{"coordinates":[144.992847,-37.799475],"type":"Point"},"properties":{"osm_id":"7012615972","tag":{"amenity":"waste_basket"}},"type":"Feature"},
	{"geometry":{"coordinates":[145.003254,-37.791462],"type":"Point"},"properties":{"osm_id":"7013338594","tag":{"amenity":"waste_basket"}},"type":"Feature"},
	{"geometry":{"coordinates":[145.003284,-37.790384],"type":"Point"},"properties":{"osm_id":"7016351256","tag":{"amenity":"waste_basket"}},"type":"Feature"},
	{"geometry":{"coordinates":[145.00246,-37.79085],"type":"Point"},"properties":{"osm_id":"7016351257","tag":{"amenity":"waste_basket"}},"type":"Feature"},
	{"geometry":{"coordinates":[145.003284,-37.790384],"type":"Point"},"properties":{"osm_id":"7016354558","tag":{"amenity":"waste_basket"}},"type":"Feature"},
	{"geometry":{"coordinates":[145.004534,-37.790412],"type":"Point"},"properties":{"osm_id":"7016392805","tag":{"amenity":"waste_basket"}},"type":"Feature"},
	{"geometry":{"coordinates":[145.004036,-37.79103],"type":"Point"},"properties":{"osm_id":"7016392806","tag":{"amenity":"waste_basket"}},"type":"Feature"},
	{"geometry":{"coordinates":[145.003692,-37.790532],"type":"Point"},"properties":{"osm_id":"7016392807","tag":{"amenity":"waste_basket"}},"type":"Feature"},
	{"geometry":{"coordinates":[144.979024,-37.79848],"type":"Point"},"properties":{"osm_id":"7017910621","tag":{"amenity":"waste_basket"}},"type":"Feature"},
	{"geometry":{"coordinates":[144.98073,-37.806056],"type":"Point"},"properties":{"osm_id":"7034437063","tag":{"amenity":"waste_basket"}},"type":"Feature"},
	{"geometry":{"coordinates":[144.989245,-37.797252],"type":"Point"},"properties":{"osm_id":"7034469845","tag":{"amenity":"waste_basket"}},"type":"Feature"},
	{"geometry":{"coordinates":[144.995708,-37.792615],"type":"Point"},"properties":{"osm_id":"7034476128","tag":{"amenity":"waste_basket"}},"type":"Feature"},
	{"geometry":{"coordinates":[145.002972,-37.789249],"type":"Point"},"properties":{"osm_id":"7034543028","tag":{"amenity":"waste_basket"}},"type":"Feature"},
	{"geometry":{"coordinates":[144.987546,-37.819174],"type":"Point"},"properties":{"osm_id":"7042923005","tag":{"amenity":"waste_basket"}},"type":"Feature"},
	{"geometry":{"coordinates":[144.999747,-37.817009],"type":"Point"},"properties":{"osm_id":"7057441887","tag":{"amenity":"waste_basket","waste":"dog_excrement"}},"type":"Feature"},
	{"geometry":{"coordinates":[145.000864,-37.81627],"type":"Point"},"properties":{"osm_id":"7057441888","tag":{"amenity":"waste_basket","waste":"dog_excrement"}},"type":"Feature"},
	{"geometry":{"coordinates":[145.001567,-37.817059],"type":"Point"},"properties":{"osm_id":"7057469866","tag":{"amenity":"waste_basket","waste":"dog_excrement"}},"type":"Feature"},
	{"geometry":{"coordinates":[145.000608,-37.817361],"type":"Point"},"properties":{"osm_id":"7057766639","tag":{"amenity":"waste_basket","waste":"dog_excrement"}},"type":"Feature"},
	{"geometry":{"coordinates":[144.999961,-37.816417],"type":"Point"},"properties":{"osm_id":"7057780223","tag":{"amenity":"waste_basket"}},"type":"Feature"},
	{"geometry":{"coordinates":[145.00153,-37.816608],"type":"Point"},"properties":{"osm_id":"7057780224","tag":{"amenity":"waste_basket"}},"type":"Feature"},
	{"geometry":{"coordinates":[144.962505,-37.800068],"type":"Point"},"properties":{"osm_id":"7058965383","tag":{"amenity":"waste_basket"}},"type":"Feature"},
	{"geometry":{"coordinates":[144.994499,-37.818086],"type":"Point"},"properties":{"osm_id":"7068145310","tag":{"amenity":"waste_basket"}},"type":"Feature"},
	{"geometry":{"coordinates":[144.995612,-37.818135],"type":"Point"},"properties":{"osm_id":"7068145311","tag":{"amenity":"waste_basket"}},"type":"Feature"},
	{"geometry":{"coordinates":[144.99495,-37.818048],"type":"Point"},"properties":{"osm_id":"7068145313","tag":{"amenity":"waste_basket"}},"type":"Feature"},
	{"geometry":{"coordinates":[144.996364,-37.818306],"type":"Point"},"properties":{"osm_id":"7068145315","tag":{"amenity":"waste_basket"}},"type":"Feature"},
	{"geometry":{"coordinates":[144.994983,-37.818142],"type":"Point"},"properties":{"osm_id":"7068145316","tag":{"amenity":"waste_basket"}},"type":"Feature"},
	{"geometry":{"coordinates":[144.996824,-37.818282],"type":"Point"},"properties":{"osm_id":"7068145318","tag":{"amenity":"waste_basket"}},"type":"Feature"},
	{"geometry":{"coordinates":[144.967012,-37.800919],"type":"Point"},"properties":{"osm_id":"7093887156","tag":{"amenity":"waste_basket"}},"type":"Feature"},
	{"geometry":{"coordinates":[144.999877,-37.814145],"type":"Point"},"properties":{"osm_id":"7105899708","tag":{"amenity":"waste_basket"}},"type":"Feature"},
	{"geometry":{"coordinates":[144.932116,-37.788242],"type":"Point"},"properties":{"osm_id":"7140986301","tag":{"amenity":"waste_basket","operator":"Moonee Valley City Council"}},"type":"Feature"},
	{"geometry":{"coordinates":[144.936747,-37.838167],"type":"Point"},"properties":{"osm_id":"7241419054","tag":{"amenity":"waste_basket","waste":"trash"}},"type":"Feature"},
	{"geometry":{"coordinates":[144.941156,-37.835131],"type":"Point"},"properties":{"osm_id":"7249123859","tag":{"amenity":"waste_basket"}},"type":"Feature"},
	{"geometry":{"coordinates":[144.932881,-37.840863],"type":"Point"},"properties":{"osm_id":"7249456574","tag":{"amenity":"waste_basket","waste":"trash"}},"type":"Feature"},
	{"geometry":{"coordinates":[144.937132,-37.836978],"type":"Point"},"properties":{"osm_id":"7249630689","tag":{"amenity":"waste_basket","waste":"trash"}},"type":"Feature"},
	{"geometry":{"coordinates":[144.937451,-37.837087],"type":"Point"},"properties":{"osm_id":"7249630690","tag":{"amenity":"waste_basket","waste":"trash"}},"type":"Feature"},
	{"geometry":{"coordinates":[144.964955,-37.8116],"type":"Point"},"properties":{"osm_id":"7624877014","tag":{"amenity":"waste_basket"}},"type":"Feature"},
	{"geometry":{"coordinates":[144.951932,-37.806685],"type":"Point"},"properties":{"osm_id":"7816455814","tag":{"amenity":"waste_basket","operator":"City of Melbourne"}},"type":"Feature"},
	{"geometry":{"coordinates":[144.951607,-37.807845],"type":"Point"},"properties":{"osm_id":"7816455823","tag":{"amenity":"waste_basket","operator":"City of Melbourne"}},"type":"Feature"},
	{"geometry":{"coordinates":[144.951253,-37.806967],"type":"Point"},"properties":{"osm_id":"7816455824","tag":{"amenity":"waste_basket","operator":"City of Melbourne"}},"type":"Feature"},
	{"geometry":{"coordinates":[144.951911,-37.805538],"type":"Point"},"properties":{"osm_id":"7875233274","tag":{"amenity":"waste_basket","operator":"City of Melbourne","waste":"trash"}},"type":"Feature"},
	{"geometry":{"coordinates":[144.951567,-37.805278],"type":"Point"},"properties":{"osm_id":"7875233275","tag":{"amenity":"waste_basket","operator":"City of Melbourne","waste":"trash"}},"type":"Feature"},
	{"geometry":{"coordinates":[144.950967,-37.80543],"type":"Point"},"properties":{"osm_id":"7875233276","tag":{"amenity":"waste_basket","operator":"City of Melbourne","waste":"trash"}},"type":"Feature"},
	{"geometry":{"coordinates":[144.951599,-37.805504],"type":"Point"},"properties":{"osm_id":"7875233277","tag":{"amenity":"waste_basket","operator":"City of Melbourne","waste":"trash"}},"type":"Feature"},
	{"geometry":{"coordinates":[144.953766,-37.844505],"type":"Point"},"properties":{"osm_id":"7915369181","tag":{"amenity":"recycling","recycling:glass":"yes","recycling:glass_bottles":"yes","recycling_type":"container"}},"type":"Feature"},
	{"geometry":{"coordinates":[144.95203,-37.837814],"type":"Point"},"properties":{"osm_id":"7929884758","tag":{"amenity":"recycling","recycling:glass_bottles":"yes","recycling_type":"container"}},"type":"Feature"},
	{"geometry":{"coordinates":[144.952431,-37.833918],"type":"Point"},"properties":{"osm_id":"7936101616","tag":{"amenity":"recycling","recycling:glass_bottles":"yes","recycling_type":"container"}},"type":"Feature"},
	{"geometry":{"coordinates":[144.953152,-37.839882],"type":"Point"},"properties":{"osm_id":"8165791449","tag":{"amenity":"waste_basket"}},"type":"Feature"},
	{"geometry":{"coordinates":[144.960607,-37.853823],"type":"Point"},"properties":{"osm_id":"8268281102","tag":{"amenity":"waste_basket"}},"type":"Feature"},
	{"geometry":{"coordinates":[144.961186,-37.854128],"type":"Point"},"properties":{"osm_id":"8268291156","tag":{"amenity":"waste_basket"}},"type":"Feature"},
	{"geometry":{"coordinates":[144.960492,-37.853783],"type":"Point"},"properties":{"osm_id":"8268293069","tag":{"amenity":"waste_basket"}},"type":"Feature"},
	{"geometry":{"coordinates":[145.014767,-37.816212],"type":"Point"},"properties":{"osm_id":"8428430840","tag":{"amenity":"waste_basket"}},"type":"Feature"},
	{"geometry":{"coordinates":[145.015514,-37.816259],"type":"Point"},"properties":{"osm_id":"8428430841","tag":{"amenity":"waste_basket"}},"type":"Feature"},
	{"geometry":{"coordinates":[144.986216,-37.805198],"type":"Point"},"properties":{"osm_id":"8462868873","tag":{"amenity":"waste_basket"}},"type":"Feature"},
	{"geometry":{"coordinates":[144.984907,-37.807973],"type":"Point"},"properties":{"osm_id":"8462868874","tag":{"amenity":"waste_basket"}},"type":"Feature"},
	{"geometry":{"coordinates":[144.984201,-37.806815],"type":"Point"},"properties":{"osm_id":"8462868875","tag":{"amenity":"waste_basket"}},"type":"Feature"},
	{"geometry":{"coordinates":[144.990694,-37.812535],"type":"Point"},"properties":{"osm_id":"8526520060","tag":{"amenity":"waste_basket","operator":"City of Yarra","waste":"mixed"}},"type":"Feature"},
	{"geometry":{"coordinates":[144.990938,-37.812755],"type":"Point"},"properties":{"osm_id":"8526520062","tag":{"amenity":"waste_basket","material":"metal","operator":"City of Yarra","waste":"mixed"}},"type":"Feature"},
	{"geometry":{"coordinates":[144.952973,-37.816168],"type":"Point"},"properties":{"osm_id":"8552288729","tag":{"amenity":"waste_basket"}},"type":"Feature"},
	{"geometry":{"coordinates":[144.955127,-37.818876],"type":"Point"},"properties":{"osm_id":"8552288733","tag":{"amenity":"waste_basket"}},"type":"Feature"},
	{"geometry":{"coordinates":[144.961378,-37.816889],"type":"Point"},"properties":{"osm_id":"8552288741","tag":{"amenity":"waste_basket"}},"type":"Feature"},
	{"geometry":{"coordinates":[144.96184,-37.816758],"type":"Point"},"properties":{"osm_id":"8552288743","tag":{"amenity":"waste_basket"}},"type":"Feature"},
	{"geometry":{"coordinates":[144.966996,-37.815273],"type":"Point"},"properties":{"osm_id":"8552288747","tag":{"amenity":"waste_basket"}},"type":"Feature"},
	{"geometry":{"coordinates":[144.962001,-37.830231],"type":"Point"},"properties":{"osm_id":"8586956777","tag":{"amenity":"waste_basket","material":"steel"}},"type":"Feature"},
	{"geometry":{"coordinates":[144.971193,-37.821844],"type":"Point"},"properties":{"osm_id":"8972336141","tag":{"amenity":"waste_basket"}},"type":"Feature"},
	{"geometry":{"coordinates":[144.97294,-37.82084],"type":"Point"},"properties":{"osm_id":"8972382966","tag":{"amenity":"waste_basket"}},"type":"Feature"},
	{"geometry":{"coordinates":[144.972872,-37.820823],"type":"Point"},"properties":{"osm_id":"8972382967","tag":{"amenity":"recycling","recycling_type":"container"}},"type":"Feature"},
	{"geometry":{"coordinates":[144.983372,-37.816982],"type":"Point"},"properties":{"osm_id":"8998978428","tag":{"amenity":"waste_basket"}},"type":"Feature"},
	{"geometry":{"coordinates":[144.983366,-37.816993],"type":"Point"},"properties":{"osm_id":"8998978429","tag":{"amenity":"recycling","recycling_type":"container"}},"type":"Feature"},
	{"geometry":{"coordinates":[144.98232,-37.818733],"type":"Point"},"properties":{"osm_id":"8998978446","tag":{"amenity":"waste_basket"}},"type":"Feature"},
	{"geometry":{"coordinates":[144.984183,-37.818578],"type":"Point"},"properties":{"osm_id":"8998978448","tag":{"amenity":"recycling","recycling_type":"container"}},"type":"Feature"},
	{"geometry":{"coordinates":[144.984228,-37.818595],"type":"Point"},"properties":{"osm_id":"8998978449","tag":{"amenity":"recycling","recycling_type":"container"}},"type":"Feature"},
	{"geometry":{"coordinates":[145.014176,-37.823916],"type":"Point"},"properties":{"osm_id":"9013057373","tag":{"amenity":"waste_basket","material":"metal","operator":"City of Yarra","waste":"trash"}},"type":"Feature"},
	{"geometry":{"coordinates":[145.013202,-37.827079],"type":"Point"},"properties":{"osm_id":"9013062524","tag":{"amenity":"waste_basket","material":"metal","operator":"City of Yarra","waste":"trash"}},"type":"Feature"}
]
}
