{
"type": "FeatureCollection",
"features": [
	{"geometry":{"coordinates":[20.591367,47.887083],"type":"Point"},"properties":{"osm_id":"3445463612","tag":{"addr:city":"Tard","addr:street":"B\u00c3\u00a9ke \u00c3\u00bat","amenity":"recycling","recycling:glass_bottles":"yes","recycling_type":"container","source:date":"2012-05-18","url":"http://turistautak.hu/poi.php?id=57228"}},"type":"Feature"},
	{"geometry":{"coordinates":[20.634386,47.922374],"type":"Point"},"properties":{"name":"szelekt\u00c3\u00adv hullad\u00c3\u00a9kgy\u00c5\u00b1jt\u00c5\u0091","osm_id":"3905738538","tag":{"amenity":"recycling","recycling_type":"container"}},"type":"Feature"},
	{"geometry":{"coordinates":[20.634479,47.922069],"type":"Point"},"properties":{"osm_id":"4391431726","tag":{"amenity":"waste_basket"}},"type":"Feature"},
	{"geometry":{"coordinates":[20.602976,47.874957],"type":"Point"},"properties":{"osm_id":"4507742633","tag":{"amenity":"waste_basket"}},"type":"Feature"},
	{"geometry":{"coordinates":[20.596644,47.882194],"type":"Point"},"properties":{"osm_id":"4507742647","tag":{"amenity":"waste_basket"}},"type":"Feature"},
	{"geometry":{"coordinates":[20.630137,47.925362],"type":"Point"},"properties":{"osm_id":"4936792130","tag":{"amenity":"waste_basket"}},"type":"Feature"}
]
}
