{
"type": "FeatureCollection",
"features": [
	{"geometry":{"coordinates":[-8.361939,43.31576],"type":"Point"},"properties":{"osm_id":"1714750290","tag":{"amenity":"recycling","recycling_type":"container"}},"type":"Feature"},
	{"geometry":{"coordinates":[-8.364846,43.313927],"type":"Point"},"properties":{"osm_id":"1714758510","tag":{"amenity":"recycling","location":"overground","recycling_type":"container"}},"type":"Feature"},
	{"geometry":{"coordinates":[-8.363175,43.314153],"type":"Point"},"properties":{"osm_id":"1714763866","tag":{"amenity":"recycling","recycling_type":"container"}},"type":"Feature"},
	{"geometry":{"coordinates":[-8.36387,43.313882],"type":"Point"},"properties":{"osm_id":"1714764770","tag":{"amenity":"recycling","recycling_type":"container"}},"type":"Feature"},
	{"geometry":{"coordinates":[-8.365455,43.316011],"type":"Point"},"properties":{"osm_id":"1714800712","tag":{"amenity":"recycling","location":"overground","recycling_type":"container"}},"type":"Feature"},
	{"geometry":{"coordinates":[-8.365262,43.316109],"type":"Point"},"properties":{"osm_id":"1714801247","tag":{"amenity":"recycling","location":"overground","recycling_type":"container"}},"type":"Feature"},
	{"geometry":{"coordinates":[-8.365774,43.315623],"type":"Point"},"properties":{"osm_id":"1714806938","tag":{"amenity":"recycling","location":"overground","recycling_type":"container"}},"type":"Feature"},
	{"geometry":{"coordinates":[-8.366284,43.314754],"type":"Point"},"properties":{"osm_id":"1714814310","tag":{"amenity":"recycling","location":"overground","recycling_type":"container"}},"type":"Feature"},
	{"geometry":{"coordinates":[-8.430152,43.2954],"type":"Point"},"properties":{"osm_id":"1720991134","tag":{"amenity":"recycling","recycling_type":"container"}},"type":"Feature"},
	{"geometry":{"coordinates":[-8.429567,43.294736],"type":"Point"},"properties":{"osm_id":"1720991950","tag":{"amenity":"recycling","recycling_type":"container"}},"type":"Feature"},
	{"geometry":{"coordinates":[-8.427974,43.299589],"type":"Point"},"properties":{"osm_id":"1724202936","tag":{"amenity":"recycling","recycling_type":"container"}},"type":"Feature"},
	{"geometry":{"coordinates":[-8.410058,43.314492],"type":"Point"},"properties":{"osm_id":"1990039906","tag":{"amenity":"recycling","recycling_type":"container"}},"type":"Feature"},
	{"geometry":{"coordinates":[-8.378851,43.321593],"type":"Point"},"properties":{"osm_id":"2019446918","tag":{"amenity":"recycling","mapillary":"H1GWk9JUMJzd6ttq-89o5A","recycling_type":"container","survey:date":"2020-01-10"}},"type":"Feature"},
	{"geometry":{"coordinates":[-8.402674,43.275145],"type":"Point"},"properties":{"barrier":"lift_gate","osm_id":"2041100048"},"type":"Feature"},
	{"geometry":{"coordinates":[-8.412443,43.321815],"type":"Point"},"properties":{"osm_id":"2306681831","tag":{"amenity":"recycling","recycling_type":"container"}},"type":"Feature"},
	{"geometry":{"coordinates":[-8.354524,43.319513],"type":"Point"},"properties":{"osm_id":"3290202991","tag":{"amenity":"recycling","recycling:cans":"no","recycling:clothes":"no","recycling:paper":"yes","recycling_type":"container"}},"type":"Feature"},
	{"geometry":{"coordinates":[-8.385827,43.295691],"type":"Point"},"properties":{"osm_id":"3684057784","tag":{"amenity":"recycling","recycling_type":"container"}},"type":"Feature"},
	{"geometry":{"coordinates":[-8.368732,43.26328],"type":"Point"},"properties":{"osm_id":"3801077937","tag":{"amenity":"recycling","recycling:cans":"yes","recycling:glass":"yes","recycling:plastic":"yes","recycling_type":"container"}},"type":"Feature"},
	{"geometry":{"coordinates":[-8.354114,43.319883],"type":"Point"},"properties":{"osm_id":"3801832167","tag":{"amenity":"waste_basket"}},"type":"Feature"},
	{"geometry":{"coordinates":[-8.429282,43.295475],"type":"Point"},"properties":{"osm_id":"4818481190","tag":{"amenity":"recycling","recycling_type":"container"}},"type":"Feature"},
	{"geometry":{"coordinates":[-8.42576,43.301435],"type":"Point"},"properties":{"osm_id":"4818517944","tag":{"amenity":"recycling","recycling_type":"container"}},"type":"Feature"},
	{"geometry":{"coordinates":[-8.425189,43.301299],"type":"Point"},"properties":{"osm_id":"4818517957","tag":{"amenity":"recycling","recycling_type":"container"}},"type":"Feature"},
	{"geometry":{"coordinates":[-8.397693,43.323333],"type":"Point"},"properties":{"osm_id":"4962761069","tag":{"amenity":"recycling","recycling:organic":"yes","recycling:plastic":"yes","recycling_type":"container"}},"type":"Feature"},
	{"geometry":{"coordinates":[-8.407379,43.324051],"type":"Point"},"properties":{"osm_id":"4962761070","tag":{"amenity":"recycling","recycling_type":"container"}},"type":"Feature"},
	{"geometry":{"coordinates":[-8.350778,43.322036],"type":"Point"},"properties":{"osm_id":"4989948599","tag":{"amenity":"recycling","recycling_type":"container"}},"type":"Feature"},
	{"geometry":{"coordinates":[-8.351272,43.322673],"type":"Point"},"properties":{"osm_id":"4989948604","tag":{"amenity":"recycling","recycling_type":"container"}},"type":"Feature"},
	{"geometry":{"coordinates":[-8.361861,43.297907],"type":"Point"},"properties":{"osm_id":"5082795751","tag":{"amenity":"waste_basket"}},"type":"Feature"},
	{"geometry":{"coordinates":[-8.362423,43.296418],"type":"Point"},"properties":{"osm_id":"5082795756","tag":{"amenity":"waste_basket"}},"type":"Feature"},
	{"geometry":{"coordinates":[-8.363869,43.295794],"type":"Point"},"properties":{"osm_id":"5082795766","tag":{"amenity":"waste_basket"}},"type":"Feature"},
	{"geometry":{"coordinates":[-8.363867,43.295166],"type":"Point"},"properties":{"osm_id":"5082795775","tag":{"amenity":"waste_basket"}},"type":"Feature"},
	{"geometry":{"coordinates":[-8.364268,43.29519],"type":"Point"},"properties":{"osm_id":"5082795779","tag":{"amenity":"waste_basket"}},"type":"Feature"},
	{"geometry":{"coordinates":[-8.36486,43.295135],"type":"Point"},"properties":{"osm_id":"5082795784","tag":{"amenity":"waste_basket"}},"type":"Feature"},
	{"geometry":{"coordinates":[-8.365926,43.294968],"type":"Point"},"properties":{"osm_id":"5082795787","tag":{"amenity":"waste_basket"}},"type":"Feature"},
	{"geometry":{"coordinates":[-8.366217,43.294566],"type":"Point"},"properties":{"osm_id":"5082795806","tag":{"amenity":"waste_basket"}},"type":"Feature"},
	{"geometry":{"coordinates":[-8.366641,43.293914],"type":"Point"},"properties":{"osm_id":"5082795809","tag":{"amenity":"waste_basket"}},"type":"Feature"},
	{"geometry":{"coordinates":[-8.367194,43.292917],"type":"Point"},"properties":{"osm_id":"5082795815","tag":{"amenity":"waste_basket"}},"type":"Feature"},
	{"geometry":{"coordinates":[-8.367718,43.292734],"type":"Point"},"properties":{"osm_id":"5082795818","tag":{"amenity":"waste_basket"}},"type":"Feature"},
	{"geometry":{"coordinates":[-8.367679,43.292727],"type":"Point"},"properties":{"osm_id":"5082795819","tag":{"amenity":"waste_basket"}},"type":"Feature"},
	{"geometry":{"coordinates":[-8.365767,43.295195],"type":"Point"},"properties":{"osm_id":"5082796022","tag":{"amenity":"waste_basket"}},"type":"Feature"},
	{"geometry":{"coordinates":[-8.417455,43.314513],"type":"Point"},"properties":{"osm_id":"5577344979","tag":{"amenity":"waste_basket"}},"type":"Feature"},
	{"geometry":{"coordinates":[-8.357037,43.319051],"type":"Point"},"properties":{"osm_id":"5692758515","tag":{"amenity":"waste_basket"}},"type":"Feature"},
	{"geometry":{"coordinates":[-8.356725,43.319114],"type":"Point"},"properties":{"osm_id":"5692759927","tag":{"amenity":"waste_basket"}},"type":"Feature"},
	{"geometry":{"coordinates":[-8.357097,43.319098],"type":"Point"},"properties":{"osm_id":"5692759936","tag":{"amenity":"waste_basket"}},"type":"Feature"},
	{"geometry":{"coordinates":[-8.357304,43.319277],"type":"Point"},"properties":{"osm_id":"5692759939","tag":{"amenity":"waste_basket"}},"type":"Feature"},
	{"geometry":{"coordinates":[-8.370208,43.321045],"type":"Point"},"properties":{"osm_id":"6068870901","tag":{"amenity":"waste_basket"}},"type":"Feature"},
	{"geometry":{"coordinates":[-8.383568,43.322412],"type":"Point"},"properties":{"osm_id":"6424123851","tag":{"amenity":"recycling","mapillary":"q4pTG5OvalYbGiIedBri1A","recycling_type":"container","survey:date":"2019-09-25"}},"type":"Feature"},
	{"geometry":{"coordinates":[-8.38345,43.321206],"type":"Point"},"properties":{"osm_id":"6424124086","tag":{"amenity":"recycling","recycling_type":"container"}},"type":"Feature"},
	{"geometry":{"coordinates":[-8.383549,43.321877],"type":"Point"},"properties":{"osm_id":"6424128778","tag":{"amenity":"waste_basket"}},"type":"Feature"},
	{"geometry":{"coordinates":[-8.381068,43.321173],"type":"Point"},"properties":{"osm_id":"6424129502","tag":{"amenity":"waste_basket"}},"type":"Feature"},
	{"geometry":{"coordinates":[-8.380856,43.320632],"type":"Point"},"properties":{"osm_id":"6424129503","tag":{"amenity":"waste_basket"}},"type":"Feature"},
	{"geometry":{"coordinates":[-8.381073,43.321464],"type":"Point"},"properties":{"osm_id":"6424129641","tag":{"amenity":"waste_basket"}},"type":"Feature"},
	{"geometry":{"coordinates":[-8.383461,43.321291],"type":"Point"},"properties":{"osm_id":"6424129885","tag":{"amenity":"waste_basket"}},"type":"Feature"},
	{"geometry":{"coordinates":[-8.381467,43.321593],"type":"Point"},"properties":{"osm_id":"6424130338","tag":{"amenity":"recycling","recycling_type":"container"}},"type":"Feature"},
	{"geometry":{"coordinates":[-8.371105,43.320456],"type":"Point"},"properties":{"osm_id":"6426633021","tag":{"amenity":"waste_basket"}},"type":"Feature"},
	{"geometry":{"coordinates":[-8.372956,43.321379],"type":"Point"},"properties":{"osm_id":"6426643781","tag":{"amenity":"waste_basket"}},"type":"Feature"},
	{"geometry":{"coordinates":[-8.374,43.321896],"type":"Point"},"properties":{"osm_id":"6426646946","tag":{"amenity":"waste_basket"}},"type":"Feature"},
	{"geometry":{"coordinates":[-8.374634,43.322515],"type":"Point"},"properties":{"osm_id":"6426650869","tag":{"amenity":"waste_basket"}},"type":"Feature"},
	{"geometry":{"coordinates":[-8.375582,43.322924],"type":"Point"},"properties":{"osm_id":"6426651329","tag":{"amenity":"waste_basket"}},"type":"Feature"},
	{"geometry":{"coordinates":[-8.378191,43.32414],"type":"Point"},"properties":{"osm_id":"6426656041","tag":{"amenity":"waste_basket"}},"type":"Feature"},
	{"geometry":{"coordinates":[-8.378583,43.324301],"type":"Point"},"properties":{"osm_id":"6426658556","tag":{"amenity":"waste_basket"}},"type":"Feature"},
	{"geometry":{"coordinates":[-8.378728,43.324395],"type":"Point"},"properties":{"osm_id":"6426659415","tag":{"amenity":"waste_basket"}},"type":"Feature"},
	{"geometry":{"coordinates":[-8.378923,43.324484],"type":"Point"},"properties":{"osm_id":"6426663040","tag":{"amenity":"waste_basket"}},"type":"Feature"},
	{"geometry":{"coordinates":[-8.38002,43.325139],"type":"Point"},"properties":{"osm_id":"6426667279","tag":{"amenity":"waste_basket"}},"type":"Feature"},
	{"geometry":{"coordinates":[-8.401509,43.324984],"type":"Point"},"properties":{"osm_id":"6801536185","tag":{"amenity":"recycling","recycling:glass_bottles":"yes","recycling:organic":"yes","recycling:paper":"yes","recycling:plastic":"yes","recycling_type":"container"}},"type":"Feature"},
	{"geometry":{"coordinates":[-8.399485,43.325123],"type":"Point"},"properties":{"osm_id":"6801536186","tag":{"amenity":"recycling","recycling:organic":"yes","recycling:plastic":"yes","recycling_type":"container"}},"type":"Feature"},
	{"geometry":{"coordinates":[-8.39548,43.323894],"type":"Point"},"properties":{"osm_id":"6801536187","tag":{"amenity":"recycling","recycling:organic":"yes","recycling:plastic":"yes","recycling_type":"container"}},"type":"Feature"},
	{"geometry":{"coordinates":[-8.394342,43.324045],"type":"Point"},"properties":{"osm_id":"6801536385","tag":{"amenity":"recycling","recycling:organic":"yes","recycling:plastic":"yes","recycling_type":"container"}},"type":"Feature"},
	{"geometry":{"coordinates":[-8.372181,43.314421],"type":"Point"},"properties":{"osm_id":"6822661795","tag":{"amenity":"waste_basket"}},"type":"Feature"},
	{"geometry":{"coordinates":[-8.383038,43.32095],"type":"Point"},"properties":{"osm_id":"6841868238","tag":{"amenity":"waste_basket"}},"type":"Feature"},
	{"geometry":{"coordinates":[-8.381667,43.321766],"type":"Point"},"properties":{"osm_id":"7218794086","tag":{"amenity":"waste_basket"}},"type":"Feature"},
	{"geometry":{"coordinates":[-8.384578,43.318231],"type":"Point"},"properties":{"osm_id":"9006429502","tag":{"amenity":"waste_disposal","waste":"organic"}},"type":"Feature"},
	{"geometry":{"coordinates":[-8.384609,43.318239],"type":"Point"},"properties":{"osm_id":"9006429503","tag":{"amenity":"waste_disposal","waste":"inorganic"}},"type":"Feature"},
	{"geometry":{"coordinates":[-8.38465,43.31823],"type":"Point"},"properties":{"osm_id":"9006429504","tag":{"amenity":"recycling","recycling:cardboard":"yes","recycling:newspaper":"yes","recycling:paper":"yes","recycling_type":"container"}},"type":"Feature"},
	{"geometry":{"coordinates":[-8.384552,43.318301],"type":"Point"},"properties":{"osm_id":"9006429506","tag":{"amenity":"recycling","recycling:glass":"yes","recycling:glass_bottles":"yes","recycling_type":"container"}},"type":"Feature"},
	{"geometry":{"coordinates":[-8.385309,43.318567],"type":"Point"},"properties":{"osm_id":"9006429508","tag":{"amenity":"waste_disposal","waste":"inorganic"}},"type":"Feature"},
	{"geometry":{"coordinates":[-8.385285,43.318561],"type":"Point"},"properties":{"osm_id":"9006429509","tag":{"amenity":"waste_disposal","waste":"organic"}},"type":"Feature"}
]
}
