{
"type": "FeatureCollection",
"features": [
	{"geometry":{"coordinates":[-8.365434,43.180827],"type":"Point"},"properties":{"osm_id":"8038176282","tag":{"amenity":"waste_disposal"}},"type":"Feature"},
	{"geometry":{"coordinates":[-8.350084,43.168951],"type":"Point"},"properties":{"osm_id":"8051600338","tag":{"amenity":"waste_disposal"}},"type":"Feature"},
	{"geometry":{"coordinates":[-8.350514,43.169155],"type":"Point"},"properties":{"osm_id":"8051600339","tag":{"amenity":"waste_disposal"}},"type":"Feature"},
	{"geometry":{"coordinates":[-8.350409,43.169294],"type":"Point"},"properties":{"osm_id":"8051600341","tag":{"amenity":"waste_disposal"}},"type":"Feature"},
	{"geometry":{"coordinates":[-8.350577,43.16923],"type":"Point"},"properties":{"osm_id":"8051600342","tag":{"amenity":"waste_disposal"}},"type":"Feature"},
	{"geometry":{"coordinates":[-8.35044,43.16909],"type":"Point"},"properties":{"osm_id":"8051600346","tag":{"amenity":"waste_disposal"}},"type":"Feature"},
	{"geometry":{"coordinates":[-8.350938,43.168739],"type":"Point"},"properties":{"osm_id":"8051600347","tag":{"amenity":"waste_disposal"}},"type":"Feature"},
	{"geometry":{"coordinates":[-8.350512,43.169375],"type":"Point"},"properties":{"osm_id":"8051600352","tag":{"amenity":"waste_disposal","waste":"cigarettes"}},"type":"Feature"},
	{"geometry":{"coordinates":[-8.3506,43.170043],"type":"Point"},"properties":{"osm_id":"8051600431","tag":{"amenity":"recycling","recycling:glass":"yes","recycling:glass_bottles":"yes","recycling:glass_jars":"yes","recycling_type":"container"}},"type":"Feature"},
	{"geometry":{"coordinates":[-8.350609,43.170033],"type":"Point"},"properties":{"osm_id":"8051600432","tag":{"amenity":"recycling","recycling:paper":"yes","recycling:paper_packaging":"yes","recycling_type":"container"}},"type":"Feature"}
]
}
