{
"type": "FeatureCollection",
"features": [
	{"geometry":{"coordinates":[-8.363428,42.908366],"type":"Point"},"properties":{"osm_id":"4945340849","tag":{"amenity":"waste_disposal"}},"type":"Feature"},
	{"geometry":{"coordinates":[-8.350221,42.914757],"type":"Point"},"properties":{"osm_id":"4945340927","tag":{"amenity":"waste_disposal"}},"type":"Feature"},
	{"geometry":{"coordinates":[-8.364037,42.907],"type":"Point"},"properties":{"osm_id":"4945350527","tag":{"amenity":"waste_disposal"}},"type":"Feature"},
	{"geometry":{"coordinates":[-8.363857,42.906595],"type":"Point"},"properties":{"osm_id":"4945355421","tag":{"amenity":"waste_disposal"}},"type":"Feature"},
	{"geometry":{"coordinates":[-8.362669,42.904722],"type":"Point"},"properties":{"osm_id":"4945457429","tag":{"amenity":"waste_disposal"}},"type":"Feature"},
	{"geometry":{"coordinates":[-8.361868,42.904854],"type":"Point"},"properties":{"osm_id":"4945457433","tag":{"amenity":"waste_disposal"}},"type":"Feature"},
	{"geometry":{"coordinates":[-8.363029,42.905318],"type":"Point"},"properties":{"osm_id":"4945486125","tag":{"amenity":"waste_disposal"}},"type":"Feature"},
	{"geometry":{"coordinates":[-8.360796,42.905507],"type":"Point"},"properties":{"osm_id":"4945498822","tag":{"amenity":"waste_disposal"}},"type":"Feature"},
	{"geometry":{"coordinates":[-8.360568,42.905686],"type":"Point"},"properties":{"osm_id":"4945521924","tag":{"amenity":"waste_basket"}},"type":"Feature"},
	{"geometry":{"coordinates":[-8.36117,42.905285],"type":"Point"},"properties":{"osm_id":"4946059822","tag":{"amenity":"waste_disposal"}},"type":"Feature"},
	{"geometry":{"coordinates":[-8.362947,42.902828],"type":"Point"},"properties":{"osm_id":"4946059825","tag":{"amenity":"waste_basket"}},"type":"Feature"},
	{"geometry":{"coordinates":[-8.363208,42.901816],"type":"Point"},"properties":{"osm_id":"4946059826","tag":{"amenity":"waste_disposal"}},"type":"Feature"},
	{"geometry":{"coordinates":[-8.362945,42.903172],"type":"Point"},"properties":{"osm_id":"4946060024","tag":{"amenity":"waste_disposal"}},"type":"Feature"},
	{"geometry":{"coordinates":[-8.359012,42.907472],"type":"Point"},"properties":{"osm_id":"4946060121","tag":{"amenity":"waste_disposal"}},"type":"Feature"},
	{"geometry":{"coordinates":[-8.362507,42.904155],"type":"Point"},"properties":{"osm_id":"4946060123","tag":{"amenity":"waste_basket"}},"type":"Feature"},
	{"geometry":{"coordinates":[-8.36247,42.904],"type":"Point"},"properties":{"osm_id":"4946060124","tag":{"amenity":"waste_disposal"}},"type":"Feature"},
	{"geometry":{"coordinates":[-8.36217,42.904798],"type":"Point"},"properties":{"osm_id":"4946060126","tag":{"amenity":"waste_basket"}},"type":"Feature"},
	{"geometry":{"coordinates":[-8.360449,42.90587],"type":"Point"},"properties":{"name":"Minipunto Limpo","osm_id":"4946060128","tag":{"amenity":"recycling","name:es":"Minipunto Limpio"}},"type":"Feature"},
	{"geometry":{"coordinates":[-8.360988,42.905477],"type":"Point"},"properties":{"osm_id":"4946079624","tag":{"amenity":"waste_disposal"}},"type":"Feature"},
	{"geometry":{"coordinates":[-8.359732,42.906526],"type":"Point"},"properties":{"osm_id":"4946080522","tag":{"amenity":"waste_disposal"}},"type":"Feature"},
	{"geometry":{"coordinates":[-8.364916,42.907963],"type":"Point"},"properties":{"osm_id":"4946532121","tag":{"amenity":"waste_disposal"}},"type":"Feature"},
	{"geometry":{"coordinates":[-8.387171,42.903422],"type":"Point"},"properties":{"osm_id":"4946532221","tag":{"amenity":"waste_disposal"}},"type":"Feature"},
	{"geometry":{"coordinates":[-8.391456,42.905359],"type":"Point"},"properties":{"osm_id":"4946532423","tag":{"amenity":"waste_disposal"}},"type":"Feature"}
]
}
