{
"type": "FeatureCollection",
"lastupdate": "2020-08-01T00:00:00Z",
"features": [
	{"geometry":{"coordinates":[-8.432139,41.650311],"type":"Point"},"properties":{"osm_id":"1487881861","tag":{"amenity":"recycling"}},"type":"Feature"},
	{"geometry":{"coordinates":[-8.421997,41.684825],"type":"Point"},"properties":{"osm_id":"1715024507","tag":{"amenity":"recycling","recycling_type":"container"}},"type":"Feature"},
	{"geometry":{"coordinates":[-8.42822,41.685246],"type":"Point"},"properties":{"osm_id":"2681386633","tag":{"amenity":"recycling"}},"type":"Feature"},
	{"geometry":{"coordinates":[-8.403593,41.67261],"type":"Point"},"properties":{"osm_id":"2681386634","tag":{"amenity":"recycling"}},"type":"Feature"},
	{"geometry":{"coordinates":[-8.371791,41.683158],"type":"Point"},"properties":{"osm_id":"2682348195","tag":{"amenity":"recycling"}},"type":"Feature"},
	{"geometry":{"coordinates":[-8.36073,41.693816],"type":"Point"},"properties":{"osm_id":"2682348198","tag":{"amenity":"recycling"}},"type":"Feature"},
	{"geometry":{"coordinates":[-8.352879,41.694999],"type":"Point"},"properties":{"osm_id":"2682348199","tag":{"amenity":"recycling"}},"type":"Feature"},
	{"geometry":{"coordinates":[-8.417788,41.659544],"type":"Point"},"properties":{"osm_id":"2745955372","tag":{"amenity":"recycling","recycling_type":"container"}},"type":"Feature"},
	{"geometry":{"coordinates":[-8.39784,41.67088],"type":"Point"},"properties":{"osm_id":"2745955523","tag":{"amenity":"recycling"}},"type":"Feature"},
	{"geometry":{"coordinates":[-8.381753,41.661114],"type":"Point"},"properties":{"name":"Ecoponto","osm_id":"2745955575","tag":{"amenity":"recycling","opening_hours":"null","service":"recycling"}},"type":"Feature"},
	{"geometry":{"coordinates":[-8.37608,41.65239],"type":"Point"},"properties":{"name":"Ecoponto","osm_id":"2745955790","tag":{"amenity":"recycling","opening_hours":"null","recycling_type":"container"}},"type":"Feature"},
	{"geometry":{"coordinates":[-8.397303,41.645087],"type":"Point"},"properties":{"name":"Ecoponto","osm_id":"2897145380","tag":{"amenity":"recycling"}},"type":"Feature"},
	{"geometry":{"coordinates":[-8.393546,41.647218],"type":"Point"},"properties":{"name":"Ecoponto","osm_id":"2897145381","tag":{"amenity":"recycling"}},"type":"Feature"},
	{"geometry":{"coordinates":[-8.371767,41.656118],"type":"Point"},"properties":{"name":"Ecoponto","osm_id":"3467847095","tag":{"amenity":"recycling"}},"type":"Feature"},
	{"geometry":{"coordinates":[-8.425745,41.694365],"type":"Point"},"properties":{"name":"Ecoponto","osm_id":"3471471715","tag":{"amenity":"recycling"}},"type":"Feature"},
	{"geometry":{"coordinates":[-8.409458,41.703691],"type":"Point"},"properties":{"osm_id":"3790662195","tag":{"amenity":"recycling","recycling:glass_bottles":"yes","recycling:paper":"yes","recycling:plastic":"yes"}},"type":"Feature"},
	{"geometry":{"coordinates":[-8.415401,41.695756],"type":"Point"},"properties":{"osm_id":"3790662197","tag":{"amenity":"recycling","recycling:glass_bottles":"yes","recycling:paper":"yes","recycling:plastic":"yes"}},"type":"Feature"},
	{"geometry":{"coordinates":[-8.372568,41.640395],"type":"Point"},"properties":{"osm_id":"5304684751","tag":{"amenity":"recycling","recycling_type":"container"}},"type":"Feature"}
]
}
