{
"type": "FeatureCollection",
"features": [
	{"geometry":{"coordinates":[-8.410934,41.496661],"type":"Point"},"properties":{"osm_id":"1156874138","tag":{"amenity":"recycling"}},"type":"Feature"},
	{"geometry":{"coordinates":[-8.411073,41.491421],"type":"Point"},"properties":{"osm_id":"1156874139","tag":{"amenity":"recycling","recycling_type":"container"}},"type":"Feature"},
	{"geometry":{"coordinates":[-8.424635,41.499634],"type":"Point"},"properties":{"osm_id":"1156874143","tag":{"amenity":"recycling"}},"type":"Feature"},
	{"geometry":{"coordinates":[-8.41691,41.49821],"type":"Point"},"properties":{"osm_id":"1156874156","tag":{"amenity":"recycling"}},"type":"Feature"},
	{"geometry":{"coordinates":[-8.435947,41.503764],"type":"Point"},"properties":{"name":"Ecoponto","osm_id":"1623989832","tag":{"amenity":"recycling","recycling_type":"container"}},"type":"Feature"},
	{"geometry":{"coordinates":[-8.398965,41.445689],"type":"Point"},"properties":{"osm_id":"1779719030","tag":{"amenity":"recycling"}},"type":"Feature"},
	{"geometry":{"coordinates":[-8.363082,41.455731],"type":"Point"},"properties":{"osm_id":"1944298154","tag":{"amenity":"recycling"}},"type":"Feature"},
	{"geometry":{"coordinates":[-8.35703,41.453323],"type":"Point"},"properties":{"osm_id":"1946019077","tag":{"amenity":"recycling"}},"type":"Feature"},
	{"geometry":{"coordinates":[-8.362314,41.495171],"type":"Point"},"properties":{"osm_id":"2966540214","tag":{"amenity":"recycling"}},"type":"Feature"},
	{"geometry":{"coordinates":[-8.357554,41.488223],"type":"Point"},"properties":{"name":"Ecoponto","osm_id":"2977398521","tag":{"amenity":"recycling"}},"type":"Feature"},
	{"geometry":{"coordinates":[-8.425811,41.482043],"type":"Point"},"properties":{"name":"Ecoponto","osm_id":"3080711001","tag":{"amenity":"recycling","mapillary":"zfI8VzA_FvcuVHR7Dp7bjA","recycling_type":"container","survey:date":"2019-03-13"}},"type":"Feature"},
	{"geometry":{"coordinates":[-8.402966,41.499711],"type":"Point"},"properties":{"name":"Ecoponto","osm_id":"3207650891","tag":{"amenity":"recycling"}},"type":"Feature"},
	{"geometry":{"coordinates":[-8.362042,41.494481],"type":"Point"},"properties":{"osm_id":"3616995934","tag":{"amenity":"recycling"}},"type":"Feature"},
	{"geometry":{"coordinates":[-8.364419,41.448368],"type":"Point"},"properties":{"osm_id":"4528179676","tag":{"amenity":"recycling"}},"type":"Feature"}
]
}
