{
"type": "FeatureCollection",
"features": [
	{"geometry":{"coordinates":[-8.39169,40.847449],"type":"Point"},"properties":{"osm_id":"1216015268","tag":{"amenity":"recycling","recycling:cans":"yes","recycling:paper":"yes"}},"type":"Feature"},
	{"geometry":{"coordinates":[-8.391742,40.849992],"type":"Point"},"properties":{"osm_id":"1216100428","tag":{"amenity":"recycling","recycling:paper":"yes"}},"type":"Feature"},
	{"geometry":{"coordinates":[-8.394832,40.84795],"type":"Point"},"properties":{"osm_id":"1801728728","tag":{"amenity":"recycling"}},"type":"Feature"},
	{"geometry":{"coordinates":[-8.396706,40.84894],"type":"Point"},"properties":{"osm_id":"1804057597","tag":{"amenity":"recycling"}},"type":"Feature"},
	{"geometry":{"coordinates":[-8.396621,40.848924],"type":"Point"},"properties":{"osm_id":"1804058007","tag":{"amenity":"waste_basket"}},"type":"Feature"},
	{"geometry":{"coordinates":[-8.396266,40.847698],"type":"Point"},"properties":{"osm_id":"1804089073","tag":{"amenity":"waste_basket"}},"type":"Feature"},
	{"geometry":{"coordinates":[-8.394888,40.847901],"type":"Point"},"properties":{"osm_id":"1804089074","tag":{"amenity":"waste_basket"}},"type":"Feature"},
	{"geometry":{"coordinates":[-8.395451,40.849768],"type":"Point"},"properties":{"osm_id":"1804089115","tag":{"amenity":"waste_basket"}},"type":"Feature"},
	{"geometry":{"coordinates":[-8.395532,40.849739],"type":"Point"},"properties":{"osm_id":"1804089177","tag":{"amenity":"recycling","mapillary":"86k9SKYP5_FZWoWffnV1kA","recycling_type":"container","survey:date":"2019-03-01"}},"type":"Feature"},
	{"geometry":{"coordinates":[-8.39411,40.850356],"type":"Point"},"properties":{"osm_id":"1804089203","tag":{"amenity":"waste_basket"}},"type":"Feature"},
	{"geometry":{"coordinates":[-8.393863,40.849007],"type":"Point"},"properties":{"osm_id":"1804089304","tag":{"amenity":"waste_basket"}},"type":"Feature"},
	{"geometry":{"coordinates":[-8.393279,40.850616],"type":"Point"},"properties":{"osm_id":"1804090224","tag":{"amenity":"waste_basket"}},"type":"Feature"},
	{"geometry":{"coordinates":[-8.393096,40.84922],"type":"Point"},"properties":{"osm_id":"1804090867","tag":{"amenity":"waste_basket"}},"type":"Feature"},
	{"geometry":{"coordinates":[-8.391134,40.849334],"type":"Point"},"properties":{"osm_id":"1812864992","tag":{"amenity":"waste_basket"}},"type":"Feature"},
	{"geometry":{"coordinates":[-8.394869,40.849222],"type":"Point"},"properties":{"osm_id":"2302427683","tag":{"amenity":"waste_basket"}},"type":"Feature"},
	{"geometry":{"coordinates":[-8.394948,40.853692],"type":"Point"},"properties":{"osm_id":"2302434936","tag":{"amenity":"waste_basket"}},"type":"Feature"},
	{"geometry":{"coordinates":[-8.394589,40.853314],"type":"Point"},"properties":{"osm_id":"2302434938","tag":{"amenity":"waste_basket"}},"type":"Feature"},
	{"geometry":{"coordinates":[-8.394965,40.853976],"type":"Point"},"properties":{"osm_id":"2302434939","tag":{"amenity":"waste_basket"}},"type":"Feature"},
	{"geometry":{"coordinates":[-8.397437,40.85325],"type":"Point"},"properties":{"osm_id":"2302442052","tag":{"amenity":"waste_basket"}},"type":"Feature"},
	{"geometry":{"coordinates":[-8.398999,40.85256],"type":"Point"},"properties":{"osm_id":"2302442054","tag":{"amenity":"waste_basket"}},"type":"Feature"},
	{"geometry":{"coordinates":[-8.392586,40.854353],"type":"Point"},"properties":{"osm_id":"2302442284","tag":{"amenity":"waste_basket"}},"type":"Feature"},
	{"geometry":{"coordinates":[-8.39422,40.847466],"type":"Point"},"properties":{"osm_id":"2302443997","tag":{"amenity":"waste_basket"}},"type":"Feature"},
	{"geometry":{"coordinates":[-8.395601,40.849037],"type":"Point"},"properties":{"osm_id":"2302445794","tag":{"amenity":"waste_basket"}},"type":"Feature"},
	{"geometry":{"coordinates":[-8.394815,40.849128],"type":"Point"},"properties":{"osm_id":"2302445806","tag":{"amenity":"waste_basket"}},"type":"Feature"},
	{"geometry":{"coordinates":[-8.392647,40.854013],"type":"Point"},"properties":{"osm_id":"2302447610","tag":{"amenity":"waste_basket"}},"type":"Feature"},
	{"geometry":{"coordinates":[-8.393138,40.853698],"type":"Point"},"properties":{"osm_id":"2302447889","tag":{"amenity":"waste_basket"}},"type":"Feature"},
	{"geometry":{"coordinates":[-8.397272,40.847894],"type":"Point"},"properties":{"osm_id":"2302448814","tag":{"amenity":"waste_basket"}},"type":"Feature"},
	{"geometry":{"coordinates":[-8.395799,40.853371],"type":"Point"},"properties":{"osm_id":"2302451693","tag":{"amenity":"waste_basket"}},"type":"Feature"},
	{"geometry":{"coordinates":[-8.3957,40.847792],"type":"Point"},"properties":{"osm_id":"2302457511","tag":{"amenity":"waste_basket"}},"type":"Feature"},
	{"geometry":{"coordinates":[-8.395336,40.847726],"type":"Point"},"properties":{"osm_id":"2302457512","tag":{"amenity":"waste_basket"}},"type":"Feature"},
	{"geometry":{"coordinates":[-8.394219,40.847918],"type":"Point"},"properties":{"osm_id":"2302458874","tag":{"amenity":"waste_basket"}},"type":"Feature"},
	{"geometry":{"coordinates":[-8.393965,40.848714],"type":"Point"},"properties":{"osm_id":"2302458875","tag":{"amenity":"recycling"}},"type":"Feature"},
	{"geometry":{"coordinates":[-8.39407,40.848624],"type":"Point"},"properties":{"osm_id":"2302459619","tag":{"amenity":"waste_basket"}},"type":"Feature"},
	{"geometry":{"coordinates":[-8.395295,40.849452],"type":"Point"},"properties":{"osm_id":"2302459620","tag":{"amenity":"waste_basket"}},"type":"Feature"},
	{"geometry":{"coordinates":[-8.395277,40.849824],"type":"Point"},"properties":{"osm_id":"2302520514","tag":{"amenity":"waste_basket"}},"type":"Feature"},
	{"geometry":{"coordinates":[-8.395049,40.849637],"type":"Point"},"properties":{"osm_id":"2302521273","tag":{"amenity":"waste_basket"}},"type":"Feature"},
	{"geometry":{"coordinates":[-8.394963,40.849804],"type":"Point"},"properties":{"osm_id":"2302522307","tag":{"amenity":"waste_basket"}},"type":"Feature"},
	{"geometry":{"coordinates":[-8.394167,40.849866],"type":"Point"},"properties":{"osm_id":"2302524201","tag":{"amenity":"waste_basket"}},"type":"Feature"},
	{"geometry":{"coordinates":[-8.394794,40.851461],"type":"Point"},"properties":{"osm_id":"2302525450","tag":{"amenity":"waste_basket"}},"type":"Feature"},
	{"geometry":{"coordinates":[-8.395234,40.850871],"type":"Point"},"properties":{"osm_id":"2302525926","tag":{"amenity":"waste_basket"}},"type":"Feature"},
	{"geometry":{"coordinates":[-8.376968,40.856995],"type":"Point"},"properties":{"name":"Ecoponto","osm_id":"2305065893","tag":{"amenity":"recycling","recycling:glass":"yes","recycling:paper":"yes","recycling:plastic":"yes"}},"type":"Feature"},
	{"geometry":{"coordinates":[-8.378792,40.849978],"type":"Point"},"properties":{"osm_id":"2305069527","tag":{"amenity":"waste_basket"}},"type":"Feature"},
	{"geometry":{"coordinates":[-8.376515,40.856894],"type":"Point"},"properties":{"osm_id":"2305069854","tag":{"amenity":"waste_basket"}},"type":"Feature"},
	{"geometry":{"coordinates":[-8.377124,40.856301],"type":"Point"},"properties":{"osm_id":"2305075372","tag":{"amenity":"waste_basket","description":"Papeleira"}},"type":"Feature"},
	{"geometry":{"coordinates":[-8.376981,40.856455],"type":"Point"},"properties":{"osm_id":"2305075374","tag":{"amenity":"waste_basket","description":"Papeleira"}},"type":"Feature"},
	{"geometry":{"coordinates":[-8.376732,40.856725],"type":"Point"},"properties":{"osm_id":"2305075375","tag":{"amenity":"waste_basket","description":"Papeleira"}},"type":"Feature"},
	{"geometry":{"coordinates":[-8.377229,40.856599],"type":"Point"},"properties":{"osm_id":"2305075376","tag":{"amenity":"waste_basket"}},"type":"Feature"},
	{"geometry":{"coordinates":[-8.377193,40.856431],"type":"Point"},"properties":{"osm_id":"2305075377","tag":{"amenity":"waste_basket","description":"Papeleira"}},"type":"Feature"},
	{"geometry":{"coordinates":[-8.377097,40.85661],"type":"Point"},"properties":{"osm_id":"2305075379","tag":{"amenity":"waste_basket","description":"Papeleira"}},"type":"Feature"},
	{"geometry":{"coordinates":[-8.377368,40.856192],"type":"Point"},"properties":{"osm_id":"2305075380","tag":{"amenity":"waste_basket","description":"Papeleira"}},"type":"Feature"},
	{"geometry":{"coordinates":[-8.377006,40.856786],"type":"Point"},"properties":{"osm_id":"2305075381","tag":{"amenity":"waste_basket","description":"Papeleira"}},"type":"Feature"},
	{"geometry":{"coordinates":[-8.37699,40.856472],"type":"Point"},"properties":{"osm_id":"2305075382","tag":{"amenity":"waste_basket","description":"Papeleira"}},"type":"Feature"},
	{"geometry":{"coordinates":[-8.376821,40.856612],"type":"Point"},"properties":{"osm_id":"2305075383","tag":{"amenity":"waste_basket","description":"Papeleira"}},"type":"Feature"},
	{"geometry":{"coordinates":[-8.376977,40.857044],"type":"Point"},"properties":{"osm_id":"2305098563","tag":{"amenity":"recycling"}},"type":"Feature"},
	{"geometry":{"coordinates":[-8.377559,40.855399],"type":"Point"},"properties":{"osm_id":"2305117407","tag":{"amenity":"waste_basket","description":"Papeleira"}},"type":"Feature"},
	{"geometry":{"coordinates":[-8.377403,40.855678],"type":"Point"},"properties":{"osm_id":"2305117411","tag":{"amenity":"waste_basket","description":"Papeleira"}},"type":"Feature"},
	{"geometry":{"coordinates":[-8.377201,40.855999],"type":"Point"},"properties":{"osm_id":"2305117414","tag":{"amenity":"waste_basket","description":"Papeleira"}},"type":"Feature"},
	{"geometry":{"coordinates":[-8.382528,40.849381],"type":"Point"},"properties":{"osm_id":"2305123239","tag":{"amenity":"recycling"}},"type":"Feature"},
	{"geometry":{"coordinates":[-8.391597,40.850063],"type":"Point"},"properties":{"osm_id":"2305123355","tag":{"amenity":"recycling"}},"type":"Feature"},
	{"geometry":{"coordinates":[-8.375879,40.857509],"type":"Point"},"properties":{"osm_id":"2305128155","tag":{"amenity":"waste_disposal"}},"type":"Feature"},
	{"geometry":{"coordinates":[-8.374718,40.85899],"type":"Point"},"properties":{"osm_id":"2305128156","tag":{"amenity":"waste_disposal"}},"type":"Feature"},
	{"geometry":{"coordinates":[-8.375654,40.858422],"type":"Point"},"properties":{"osm_id":"2305128157","tag":{"amenity":"waste_disposal"}},"type":"Feature"},
	{"geometry":{"coordinates":[-8.37544,40.859303],"type":"Point"},"properties":{"osm_id":"2305128158","tag":{"amenity":"waste_disposal"}},"type":"Feature"},
	{"geometry":{"coordinates":[-8.3749,40.858428],"type":"Point"},"properties":{"osm_id":"2305129064","tag":{"amenity":"waste_disposal"}},"type":"Feature"},
	{"geometry":{"coordinates":[-8.377078,40.85833],"type":"Point"},"properties":{"osm_id":"2305129065","tag":{"amenity":"waste_disposal"}},"type":"Feature"},
	{"geometry":{"coordinates":[-8.381235,40.849899],"type":"Point"},"properties":{"osm_id":"2305132304","tag":{"amenity":"recycling"}},"type":"Feature"},
	{"geometry":{"coordinates":[-8.374966,40.856038],"type":"Point"},"properties":{"osm_id":"2305149338","tag":{"amenity":"waste_basket","description":"Caixote do Lixo"}},"type":"Feature"},
	{"geometry":{"coordinates":[-8.374985,40.856028],"type":"Point"},"properties":{"name":"Ecoponto","osm_id":"2305150118","tag":{"amenity":"recycling","recycling_type":"centre"}},"type":"Feature"},
	{"geometry":{"coordinates":[-8.3806,40.850895],"type":"Point"},"properties":{"osm_id":"2305150295","tag":{"amenity":"recycling","recycling:books":"yes","recycling:cartons":"yes","recycling:glass":"yes","recycling:glass_bottles":"yes","recycling:magazines":"yes","recycling:newspaper":"yes","recycling:paper":"yes","recycling:paper_packaging":"yes","recycling:plastic":"yes","recycling:plastic_bottles":"yes","recycling:plastic_packaging":"yes","recycling_type":"centre"}},"type":"Feature"},
	{"geometry":{"coordinates":[-8.382039,40.868229],"type":"Point"},"properties":{"name":"Eco Ponto","osm_id":"2308415359","tag":{"amenity":"recycling"}},"type":"Feature"},
	{"geometry":{"coordinates":[-8.396752,40.85163],"type":"Point"},"properties":{"osm_id":"2312974038","tag":{"amenity":"waste_basket"}},"type":"Feature"},
	{"geometry":{"coordinates":[-8.396932,40.850439],"type":"Point"},"properties":{"osm_id":"2312974039","tag":{"amenity":"waste_basket"}},"type":"Feature"},
	{"geometry":{"coordinates":[-8.398571,40.849185],"type":"Point"},"properties":{"osm_id":"2312974042","tag":{"amenity":"waste_basket"}},"type":"Feature"},
	{"geometry":{"coordinates":[-8.39669,40.850757],"type":"Point"},"properties":{"osm_id":"2312974043","tag":{"amenity":"waste_basket"}},"type":"Feature"},
	{"geometry":{"coordinates":[-8.397876,40.849414],"type":"Point"},"properties":{"osm_id":"2312974044","tag":{"amenity":"waste_basket"}},"type":"Feature"},
	{"geometry":{"coordinates":[-8.395379,40.854175],"type":"Point"},"properties":{"osm_id":"2312975235","tag":{"amenity":"waste_basket"}},"type":"Feature"},
	{"geometry":{"coordinates":[-8.393882,40.854824],"type":"Point"},"properties":{"osm_id":"2312975236","tag":{"amenity":"waste_basket"}},"type":"Feature"},
	{"geometry":{"coordinates":[-8.396903,40.853574],"type":"Point"},"properties":{"osm_id":"2312975238","tag":{"amenity":"waste_basket"}},"type":"Feature"},
	{"geometry":{"coordinates":[-8.39905,40.848399],"type":"Point"},"properties":{"osm_id":"2312980624","tag":{"amenity":"waste_basket"}},"type":"Feature"},
	{"geometry":{"coordinates":[-8.398083,40.851488],"type":"Point"},"properties":{"osm_id":"2312980625","tag":{"amenity":"waste_basket"}},"type":"Feature"},
	{"geometry":{"coordinates":[-8.401377,40.850321],"type":"Point"},"properties":{"osm_id":"2312980627","tag":{"amenity":"waste_basket"}},"type":"Feature"},
	{"geometry":{"coordinates":[-8.397701,40.849695],"type":"Point"},"properties":{"osm_id":"2312980628","tag":{"amenity":"waste_basket"}},"type":"Feature"},
	{"geometry":{"coordinates":[-8.39763,40.851817],"type":"Point"},"properties":{"osm_id":"2312980629","tag":{"amenity":"waste_basket"}},"type":"Feature"},
	{"geometry":{"coordinates":[-8.397603,40.850684],"type":"Point"},"properties":{"osm_id":"2312980631","tag":{"amenity":"waste_basket"}},"type":"Feature"},
	{"geometry":{"coordinates":[-8.397459,40.849755],"type":"Point"},"properties":{"osm_id":"2312980632","tag":{"amenity":"waste_basket"}},"type":"Feature"},
	{"geometry":{"coordinates":[-8.391699,40.84941],"type":"Point"},"properties":{"osm_id":"2312983374","tag":{"amenity":"waste_disposal"}},"type":"Feature"},
	{"geometry":{"coordinates":[-8.401117,40.850848],"type":"Point"},"properties":{"osm_id":"2312984763","tag":{"amenity":"waste_basket"}},"type":"Feature"},
	{"geometry":{"coordinates":[-8.393016,40.854869],"type":"Point"},"properties":{"osm_id":"2312985023","tag":{"amenity":"waste_basket"}},"type":"Feature"},
	{"geometry":{"coordinates":[-8.396095,40.852646],"type":"Point"},"properties":{"osm_id":"2312985024","tag":{"amenity":"waste_basket"}},"type":"Feature"},
	{"geometry":{"coordinates":[-8.396747,40.852415],"type":"Point"},"properties":{"osm_id":"2312985025","tag":{"amenity":"waste_basket"}},"type":"Feature"},
	{"geometry":{"coordinates":[-8.395239,40.851784],"type":"Point"},"properties":{"osm_id":"2312985027","tag":{"amenity":"waste_basket"}},"type":"Feature"},
	{"geometry":{"coordinates":[-8.395998,40.851212],"type":"Point"},"properties":{"osm_id":"2312985028","tag":{"amenity":"waste_basket"}},"type":"Feature"},
	{"geometry":{"coordinates":[-8.394869,40.852477],"type":"Point"},"properties":{"osm_id":"2312985029","tag":{"amenity":"waste_basket"}},"type":"Feature"},
	{"geometry":{"coordinates":[-8.394424,40.852563],"type":"Point"},"properties":{"osm_id":"2312985031","tag":{"amenity":"waste_basket"}},"type":"Feature"},
	{"geometry":{"coordinates":[-8.397906,40.855395],"type":"Point"},"properties":{"osm_id":"2313052837","tag":{"amenity":"waste_disposal"}},"type":"Feature"},
	{"geometry":{"coordinates":[-8.397927,40.855392],"type":"Point"},"properties":{"osm_id":"2313052838","tag":{"amenity":"recycling"}},"type":"Feature"},
	{"geometry":{"coordinates":[-8.395095,40.855571],"type":"Point"},"properties":{"osm_id":"2313052839","tag":{"amenity":"waste_disposal"}},"type":"Feature"},
	{"geometry":{"coordinates":[-8.399721,40.855327],"type":"Point"},"properties":{"osm_id":"2313052840","tag":{"amenity":"recycling"}},"type":"Feature"},
	{"geometry":{"coordinates":[-8.395137,40.855565],"type":"Point"},"properties":{"osm_id":"2313052841","tag":{"amenity":"recycling"}},"type":"Feature"},
	{"geometry":{"coordinates":[-8.393549,40.851471],"type":"Point"},"properties":{"osm_id":"2313052842","tag":{"amenity":"recycling","mapillary":"8svFtniEH8086Ii4wCQmrQ","recycling_type":"container","survey:date":"2019-03-01"}},"type":"Feature"},
	{"geometry":{"coordinates":[-8.399697,40.855328],"type":"Point"},"properties":{"osm_id":"2313060351","tag":{"amenity":"waste_disposal"}},"type":"Feature"},
	{"geometry":{"coordinates":[-8.394877,40.857714],"type":"Point"},"properties":{"osm_id":"2313118444","tag":{"amenity":"waste_disposal"}},"type":"Feature"},
	{"geometry":{"coordinates":[-8.390513,40.852439],"type":"Point"},"properties":{"osm_id":"2313137536","tag":{"amenity":"waste_disposal"}},"type":"Feature"},
	{"geometry":{"coordinates":[-8.390205,40.854175],"type":"Point"},"properties":{"osm_id":"2313141947","tag":{"amenity":"waste_disposal"}},"type":"Feature"},
	{"geometry":{"coordinates":[-8.390754,40.85351],"type":"Point"},"properties":{"osm_id":"2313141950","tag":{"amenity":"waste_basket"}},"type":"Feature"},
	{"geometry":{"coordinates":[-8.390376,40.852492],"type":"Point"},"properties":{"osm_id":"2313141953","tag":{"amenity":"waste_basket"}},"type":"Feature"},
	{"geometry":{"coordinates":[-8.391878,40.852682],"type":"Point"},"properties":{"osm_id":"2313144191","tag":{"amenity":"waste_disposal"}},"type":"Feature"},
	{"geometry":{"coordinates":[-8.39301,40.851928],"type":"Point"},"properties":{"osm_id":"2313145175","tag":{"amenity":"waste_disposal"}},"type":"Feature"},
	{"geometry":{"coordinates":[-8.413449,40.8506],"type":"Point"},"properties":{"osm_id":"2604524031","tag":{"amenity":"waste_basket"}},"type":"Feature"},
	{"geometry":{"coordinates":[-8.413423,40.850611],"type":"Point"},"properties":{"osm_id":"2604524502","tag":{"amenity":"recycling"}},"type":"Feature"},
	{"geometry":{"coordinates":[-8.392874,40.853654],"type":"Point"},"properties":{"osm_id":"7757014713","tag":{"amenity":"waste_basket"}},"type":"Feature"}
]
}
