{
"type": "FeatureCollection",
"features": [
	{"geometry":{"coordinates":[-8.353189,37.106293],"type":"Point"},"properties":{"osm_id":"4330967343","tag":{"amenity":"waste_disposal"}},"type":"Feature"},
	{"geometry":{"coordinates":[-8.353242,37.106274],"type":"Point"},"properties":{"osm_id":"4330967344","tag":{"amenity":"recycling","mapillary":"9c87ygt-BFDT-IwOEW0iUQ","recycling_type":"container","survey:date":"2018-05-09"}},"type":"Feature"},
	{"geometry":{"coordinates":[-8.355741,37.103599],"type":"Point"},"properties":{"osm_id":"4331518968","tag":{"amenity":"waste_disposal"}},"type":"Feature"},
	{"geometry":{"coordinates":[-8.355746,37.103583],"type":"Point"},"properties":{"osm_id":"4331518969","tag":{"amenity":"recycling"}},"type":"Feature"},
	{"geometry":{"coordinates":[-8.350928,37.107632],"type":"Point"},"properties":{"osm_id":"4331518972","tag":{"amenity":"recycling"}},"type":"Feature"},
	{"geometry":{"coordinates":[-8.35092,37.107644],"type":"Point"},"properties":{"osm_id":"4331518973","tag":{"amenity":"waste_disposal"}},"type":"Feature"},
	{"geometry":{"coordinates":[-8.361062,37.101956],"type":"Point"},"properties":{"osm_id":"4331533851","tag":{"amenity":"waste_disposal"}},"type":"Feature"},
	{"geometry":{"coordinates":[-8.361085,37.101956],"type":"Point"},"properties":{"osm_id":"4331533852","tag":{"amenity":"recycling","location":"overground","recycling_type":"container"}},"type":"Feature"},
	{"geometry":{"coordinates":[-8.362113,37.104248],"type":"Point"},"properties":{"osm_id":"4342495906","tag":{"amenity":"recycling"}},"type":"Feature"},
	{"geometry":{"coordinates":[-8.362128,37.104245],"type":"Point"},"properties":{"osm_id":"4342495907","tag":{"amenity":"waste_basket"}},"type":"Feature"},
	{"geometry":{"coordinates":[-8.367999,37.10447],"type":"Point"},"properties":{"osm_id":"4344517222","tag":{"amenity":"recycling"}},"type":"Feature"},
	{"geometry":{"coordinates":[-8.367968,37.104484],"type":"Point"},"properties":{"osm_id":"4344517235","tag":{"amenity":"recycling"}},"type":"Feature"},
	{"geometry":{"coordinates":[-8.367942,37.104497],"type":"Point"},"properties":{"osm_id":"4344517236","tag":{"amenity":"waste_disposal"}},"type":"Feature"},
	{"geometry":{"coordinates":[-8.372631,37.10776],"type":"Point"},"properties":{"osm_id":"4344592836","tag":{"amenity":"recycling"}},"type":"Feature"},
	{"geometry":{"coordinates":[-8.372606,37.107761],"type":"Point"},"properties":{"osm_id":"4344592837","tag":{"amenity":"recycling"}},"type":"Feature"},
	{"geometry":{"coordinates":[-8.372586,37.107765],"type":"Point"},"properties":{"osm_id":"4344592838","tag":{"amenity":"waste_basket"}},"type":"Feature"},
	{"geometry":{"coordinates":[-8.356167,37.101092],"type":"Point"},"properties":{"osm_id":"4353680671","tag":{"amenity":"recycling"}},"type":"Feature"},
	{"geometry":{"coordinates":[-8.356161,37.101072],"type":"Point"},"properties":{"osm_id":"4353680672","tag":{"amenity":"recycling"}},"type":"Feature"},
	{"geometry":{"coordinates":[-8.356158,37.101052],"type":"Point"},"properties":{"osm_id":"4353680673","tag":{"amenity":"recycling"}},"type":"Feature"},
	{"geometry":{"coordinates":[-8.356155,37.101026],"type":"Point"},"properties":{"osm_id":"4353680674","tag":{"amenity":"waste_disposal"}},"type":"Feature"},
	{"geometry":{"coordinates":[-8.356,37.104199],"type":"Point"},"properties":{"osm_id":"4353949771","tag":{"amenity":"recycling"}},"type":"Feature"},
	{"geometry":{"coordinates":[-8.355979,37.104162],"type":"Point"},"properties":{"osm_id":"4353949772","tag":{"amenity":"waste_disposal"}},"type":"Feature"},
	{"geometry":{"coordinates":[-8.357753,37.104133],"type":"Point"},"properties":{"osm_id":"4353967633","tag":{"amenity":"recycling"}},"type":"Feature"},
	{"geometry":{"coordinates":[-8.357717,37.104129],"type":"Point"},"properties":{"osm_id":"4353967634","tag":{"amenity":"recycling"}},"type":"Feature"},
	{"geometry":{"coordinates":[-8.366326,37.104092],"type":"Point"},"properties":{"osm_id":"4353995177","tag":{"amenity":"waste_disposal"}},"type":"Feature"},
	{"geometry":{"coordinates":[-8.36629,37.104068],"type":"Point"},"properties":{"osm_id":"4353995178","tag":{"amenity":"recycling"}},"type":"Feature"},
	{"geometry":{"coordinates":[-8.354915,37.100384],"type":"Point"},"properties":{"osm_id":"4354081037","tag":{"amenity":"recycling"}},"type":"Feature"},
	{"geometry":{"coordinates":[-8.354901,37.100383],"type":"Point"},"properties":{"osm_id":"4354081038","tag":{"amenity":"waste_basket"}},"type":"Feature"},
	{"geometry":{"coordinates":[-8.377357,37.153383],"type":"Point"},"properties":{"osm_id":"7077970108","tag":{"access":"yes","amenity":"waste_disposal","waste":"recycling;mixed"}},"type":"Feature"},
	{"geometry":{"coordinates":[-8.399549,37.124082],"type":"Point"},"properties":{"osm_id":"7902587608","tag":{"amenity":"waste_disposal"}},"type":"Feature"},
	{"geometry":{"coordinates":[-8.399089,37.125145],"type":"Point"},"properties":{"osm_id":"7902587613","tag":{"amenity":"recycling","recycling:glass":"yes","recycling:paper":"yes","recycling:plastic":"yes","recycling_type":"container"}},"type":"Feature"}
]
}
