{
"type": "FeatureCollection",
"features": [
	{"geometry":{"coordinates":[14.136016,66.308931],"type":"Point"},"properties":{"osm_id":"5555204221","tag":{"amenity":"recycling","description":"Meieritomta","recycling:glass_bottles":"yes","recycling:paper":"yes","recycling_type":"container","ref:sortere":"15967"}},"type":"Feature"},
	{"geometry":{"coordinates":[14.134814,66.306266],"type":"Point"},"properties":{"osm_id":"5555204222","tag":{"amenity":"recycling","description":"Mosenteret","recycling:glass_bottles":"yes","recycling_type":"container","ref:sortere":"15966"}},"type":"Feature"},
	{"geometry":{"coordinates":[14.12707,66.31348],"type":"Point"},"properties":{"osm_id":"5555206040","tag":{"amenity":"recycling","description":"Moskj\u00c3\u00a6ran","recycling:clothes":"yes","recycling:glass_bottles":"yes","recycling:paper":"yes","recycling_type":"container","ref:sortere":"14549"}},"type":"Feature"},
	{"geometry":{"coordinates":[14.132998,66.310129],"type":"Point"},"properties":{"osm_id":"6572578888","tag":{"amenity":"waste_basket","waste":"trash"}},"type":"Feature"},
	{"geometry":{"coordinates":[14.13274,66.309635],"type":"Point"},"properties":{"osm_id":"6572578890","tag":{"amenity":"waste_basket","waste":"trash"}},"type":"Feature"},
	{"geometry":{"coordinates":[14.135137,66.306291],"type":"Point"},"properties":{"osm_id":"7777634264","tag":{"amenity":"waste_basket"}},"type":"Feature"},
	{"geometry":{"coordinates":[14.136452,66.309975],"type":"Point"},"properties":{"osm_id":"7777635762","tag":{"amenity":"waste_basket"}},"type":"Feature"},
	{"geometry":{"coordinates":[14.13664,66.309093],"type":"Point"},"properties":{"osm_id":"7777656290","tag":{"amenity":"waste_basket"}},"type":"Feature"},
	{"geometry":{"coordinates":[14.137133,66.310804],"type":"Point"},"properties":{"osm_id":"7778067212","tag":{"amenity":"waste_basket"}},"type":"Feature"},
	{"geometry":{"coordinates":[14.129836,66.309455],"type":"Point"},"properties":{"osm_id":"7778125937","tag":{"amenity":"waste_basket"}},"type":"Feature"},
	{"geometry":{"coordinates":[14.137624,66.310794],"type":"Point"},"properties":{"osm_id":"7778136431","tag":{"amenity":"waste_basket"}},"type":"Feature"},
	{"geometry":{"coordinates":[14.134235,66.310626],"type":"Point"},"properties":{"osm_id":"7778154387","tag":{"amenity":"waste_basket"}},"type":"Feature"},
	{"geometry":{"coordinates":[14.136018,66.309944],"type":"Point"},"properties":{"osm_id":"7778156256","tag":{"amenity":"waste_basket","level":"-1"}},"type":"Feature"}
]
}
