{
"type": "FeatureCollection",
"features": [
	{"geometry":{"coordinates":[14.102188,59.314381],"type":"Point"},"properties":{"osm_id":"1055501735","tag":{"amenity":"recycling","recycling_type":"container"}},"type":"Feature"},
	{"geometry":{"coordinates":[14.114917,59.327003],"type":"Point"},"properties":{"osm_id":"1779844723","tag":{"amenity":"recycling"}},"type":"Feature"},
	{"geometry":{"coordinates":[14.137133,59.319074],"type":"Point"},"properties":{"osm_id":"1783953606","tag":{"amenity":"recycling"}},"type":"Feature"},
	{"geometry":{"coordinates":[14.110654,59.319097],"type":"Point"},"properties":{"osm_id":"2566445767","tag":{"amenity":"recycling"}},"type":"Feature"},
	{"geometry":{"coordinates":[14.088441,59.33337],"type":"Point"},"properties":{"osm_id":"2566445768","tag":{"amenity":"recycling","recycling_type":"container"}},"type":"Feature"},
	{"geometry":{"coordinates":[14.096661,59.320268],"type":"Point"},"properties":{"osm_id":"2566459751","tag":{"amenity":"recycling"}},"type":"Feature"},
	{"geometry":{"coordinates":[14.103534,59.353864],"type":"Point"},"properties":{"name":"Strandmossens \u00c3\u00a5tervinningscentral","osm_id":"6723347902","tag":{"amenity":"recycling","recycling_type":"centre"}},"type":"Feature"}
]
}
