{
"type": "FeatureCollection",
"features": [
	{"geometry":{"coordinates":[14.147902,56.028967],"type":"Point"},"properties":{"osm_id":"1373897223","tag":{"amenity":"waste_basket","layer":"1"}},"type":"Feature"},
	{"geometry":{"coordinates":[14.148683,56.029193],"type":"Point"},"properties":{"osm_id":"1373897234","tag":{"amenity":"waste_basket","layer":"1"}},"type":"Feature"},
	{"geometry":{"coordinates":[14.145382,56.053234],"type":"Point"},"properties":{"osm_id":"7512186790","tag":{"amenity":"waste_basket"}},"type":"Feature"},
	{"geometry":{"coordinates":[14.143261,56.04729],"type":"Point"},"properties":{"osm_id":"7512186813","tag":{"amenity":"waste_basket"}},"type":"Feature"},
	{"geometry":{"coordinates":[14.08581,56.055883],"type":"Point"},"properties":{"osm_id":"7683894915","tag":{"amenity":"waste_basket"}},"type":"Feature"},
	{"geometry":{"coordinates":[14.086119,56.055833],"type":"Point"},"properties":{"osm_id":"7683894922","tag":{"amenity":"waste_basket"}},"type":"Feature"},
	{"geometry":{"coordinates":[14.085002,56.058011],"type":"Point"},"properties":{"osm_id":"7683894935","tag":{"amenity":"waste_basket"}},"type":"Feature"}
]
}
