{
"type": "FeatureCollection",
"features": [
	{"geometry":{"coordinates":[14.069347,52.370426],"type":"Point"},"properties":{"osm_id":"3339373762","tag":{"amenity":"recycling","recycling:glass":"yes","recycling_type":"container"}},"type":"Feature"},
	{"geometry":{"coordinates":[14.065486,52.36434],"type":"Point"},"properties":{"osm_id":"3350286851","tag":{"amenity":"recycling","recycling:cans":"no","recycling:glass":"yes","recycling:paper":"no","recycling_type":"container"}},"type":"Feature"},
	{"geometry":{"coordinates":[14.06566,52.373967],"type":"Point"},"properties":{"osm_id":"3371409776","tag":{"amenity":"recycling","recycling:cans":"no","recycling:glass":"yes","recycling:glass_bottles":"yes","recycling:paper":"no","recycling:plastic":"no","recycling_type":"container"}},"type":"Feature"},
	{"geometry":{"coordinates":[14.064992,52.360304],"type":"Point"},"properties":{"osm_id":"3393521287","tag":{"amenity":"recycling","recycling:cans":"no","recycling:clothes":"yes","recycling:glass":"yes","recycling:paper":"no","recycling_type":"container"}},"type":"Feature"},
	{"geometry":{"coordinates":[14.08213,52.342535],"type":"Point"},"properties":{"osm_id":"3508179861","tag":{"amenity":"recycling","recycling:cans":"no","recycling:glass":"yes","recycling:glass_bottles":"yes","recycling:paper":"no","recycling:plastic":"no","recycling_type":"container"}},"type":"Feature"},
	{"geometry":{"coordinates":[14.077976,52.362982],"type":"Point"},"properties":{"osm_id":"3604654623","tag":{"addr:city":"F\u00c3\u00bcrstenwalde/Spree","addr:postcode":"15517","addr:street":"Neue Gartenstra\u00c3\u009fe","amenity":"recycling","operator":"KWU","recycling:cans":"no","recycling:glass":"yes","recycling:paper":"no","recycling_type":"container"}},"type":"Feature"},
	{"geometry":{"coordinates":[14.066502,52.352914],"type":"Point"},"properties":{"osm_id":"3640604085","tag":{"amenity":"recycling","recycling:cans":"no","recycling:glass":"yes","recycling:paper":"no","recycling_type":"container"}},"type":"Feature"},
	{"geometry":{"coordinates":[14.073608,52.360298],"type":"Point"},"properties":{"osm_id":"3829502384","tag":{"amenity":"recycling","recycling:cans":"no","recycling:glass":"yes","recycling:glass_bottles":"yes","recycling:paper":"no","recycling:plastic":"no","recycling_type":"container"}},"type":"Feature"},
	{"geometry":{"coordinates":[14.067545,52.371701],"type":"Point"},"properties":{"osm_id":"4119378009","tag":{"amenity":"recycling","recycling:cans":"no","recycling:glass":"yes","recycling:glass_bottles":"yes","recycling:paper":"no","recycling:plastic":"no","recycling_type":"container"}},"type":"Feature"},
	{"geometry":{"coordinates":[14.066023,52.349046],"type":"Point"},"properties":{"osm_id":"4467539604","tag":{"amenity":"recycling","recycling:clothes":"yes","recycling:glass_bottles":"yes","recycling_type":"container"}},"type":"Feature"},
	{"geometry":{"coordinates":[14.074806,52.340986],"type":"Point"},"properties":{"osm_id":"4608565030","tag":{"amenity":"recycling","recycling:clothes":"yes","recycling:glass_bottles":"yes","recycling_type":"container"}},"type":"Feature"},
	{"geometry":{"coordinates":[14.066171,52.353317],"type":"Point"},"properties":{"osm_id":"5336772814","tag":{"amenity":"recycling","recycling:cans":"no","recycling:clothes":"yes","recycling:glass":"yes","recycling:paper":"no","recycling_type":"container"}},"type":"Feature"},
	{"geometry":{"coordinates":[14.065117,52.340752],"type":"Point"},"properties":{"osm_id":"5585867663","tag":{"amenity":"recycling","recycling:clothes":"yes","recycling:glass_bottles":"yes","recycling_type":"container"}},"type":"Feature"},
	{"geometry":{"coordinates":[14.072077,52.365548],"type":"Point"},"properties":{"osm_id":"5748194199","tag":{"amenity":"recycling","recycling:glass":"yes","recycling_type":"container"}},"type":"Feature"},
	{"geometry":{"coordinates":[14.063011,52.356456],"type":"Point"},"properties":{"osm_id":"5775276122","tag":{"amenity":"waste_basket"}},"type":"Feature"},
	{"geometry":{"coordinates":[14.063194,52.356992],"type":"Point"},"properties":{"osm_id":"5775276123","tag":{"amenity":"waste_basket"}},"type":"Feature"},
	{"geometry":{"coordinates":[14.063573,52.35744],"type":"Point"},"properties":{"osm_id":"5775276124","tag":{"amenity":"waste_basket","colour":"RAL 9006","material":"steel","operator":"Stadt F\u00c3\u00bcrstenwalde/Spree","waste":"cigarettes;litter"}},"type":"Feature"},
	{"geometry":{"coordinates":[14.063296,52.357717],"type":"Point"},"properties":{"osm_id":"5775276125","tag":{"amenity":"waste_basket","colour":"RAL 9006","material":"steel","operator":"Stadt F\u00c3\u00bcrstenwalde/Spree","waste":"cigarettes;litter"}},"type":"Feature"},
	{"geometry":{"coordinates":[14.063695,52.358365],"type":"Point"},"properties":{"osm_id":"5775276127","tag":{"amenity":"waste_basket","colour":"RAL 9006","material":"steel","operator":"Stadt F\u00c3\u00bcrstenwalde/Spree","waste":"cigarettes;litter"}},"type":"Feature"},
	{"geometry":{"coordinates":[14.063382,52.358689],"type":"Point"},"properties":{"osm_id":"5775276130","tag":{"amenity":"waste_basket","colour":"RAL 9006","material":"steel","operator":"Stadt F\u00c3\u00bcrstenwalde/Spree","waste":"cigarettes;litter"}},"type":"Feature"},
	{"geometry":{"coordinates":[14.063782,52.35879],"type":"Point"},"properties":{"osm_id":"5775276131","tag":{"amenity":"waste_basket","colour":"RAL 9006","material":"steel","operator":"Stadt F\u00c3\u00bcrstenwalde/Spree","waste":"cigarettes;litter"}},"type":"Feature"},
	{"geometry":{"coordinates":[14.063879,52.359051],"type":"Point"},"properties":{"osm_id":"5775276132","tag":{"amenity":"waste_basket","operator":"Stadt F\u00c3\u00bcrstenwalde/Spree","waste":"litter;cigarettes"}},"type":"Feature"},
	{"geometry":{"coordinates":[14.06371,52.358627],"type":"Point"},"properties":{"osm_id":"5775276134","tag":{"amenity":"waste_basket","colour":"RAL 9006","material":"steel","operator":"Stadt F\u00c3\u00bcrstenwalde/Spree","waste":"cigarettes;litter"}},"type":"Feature"},
	{"geometry":{"coordinates":[14.063895,52.358388],"type":"Point"},"properties":{"osm_id":"5775276135","tag":{"amenity":"waste_basket","colour":"RAL 9006","material":"steel","operator":"Stadt F\u00c3\u00bcrstenwalde/Spree","waste":"cigarettes;litter"}},"type":"Feature"},
	{"geometry":{"coordinates":[14.063938,52.358527],"type":"Point"},"properties":{"osm_id":"5775276136","tag":{"amenity":"waste_basket","colour":"RAL 9006","material":"steel","operator":"Stadt F\u00c3\u00bcrstenwalde/Spree","waste":"cigarettes;litter"}},"type":"Feature"},
	{"geometry":{"coordinates":[14.064044,52.358823],"type":"Point"},"properties":{"osm_id":"5775276138","tag":{"amenity":"waste_basket","colour":"RAL 9006","material":"steel","operator":"Stadt F\u00c3\u00bcrstenwalde/Spree","waste":"cigarettes;litter"}},"type":"Feature"},
	{"geometry":{"coordinates":[14.064091,52.35898],"type":"Point"},"properties":{"osm_id":"5775276139","tag":{"amenity":"waste_basket","colour":"RAL 9006","material":"steel","operator":"Stadt F\u00c3\u00bcrstenwalde/Spree","waste":"cigarettes;litter"}},"type":"Feature"},
	{"geometry":{"coordinates":[14.064566,52.359955],"type":"Point"},"properties":{"osm_id":"5775276140","tag":{"amenity":"waste_basket","material":"steel","waste":"cigarettes;litter"}},"type":"Feature"},
	{"geometry":{"coordinates":[14.065116,52.35997],"type":"Point"},"properties":{"osm_id":"5775276141","tag":{"amenity":"waste_basket","material":"steel","waste":"cigarettes;litter"}},"type":"Feature"},
	{"geometry":{"coordinates":[14.064848,52.359955],"type":"Point"},"properties":{"osm_id":"5775276142","tag":{"amenity":"waste_basket","material":"steel","waste":"litter;cigarettes"}},"type":"Feature"},
	{"geometry":{"coordinates":[14.070922,52.358399],"type":"Point"},"properties":{"osm_id":"5841561198","tag":{"amenity":"recycling","recycling:clothes":"yes","recycling:glass":"yes","recycling_type":"container"}},"type":"Feature"},
	{"geometry":{"coordinates":[14.08067,52.371895],"type":"Point"},"properties":{"osm_id":"5845742470","tag":{"amenity":"recycling","recycling:clothes":"yes","recycling:glass":"yes","recycling_type":"container"}},"type":"Feature"},
	{"geometry":{"coordinates":[14.071588,52.374593],"type":"Point"},"properties":{"osm_id":"5951091612","tag":{"amenity":"waste_basket"}},"type":"Feature"},
	{"geometry":{"coordinates":[14.071376,52.374217],"type":"Point"},"properties":{"osm_id":"5951091613","tag":{"amenity":"waste_basket"}},"type":"Feature"},
	{"geometry":{"coordinates":[14.068011,52.359243],"type":"Point"},"properties":{"osm_id":"5953636272","tag":{"amenity":"waste_basket","colour":"RAL 9006","material":"steel","operator":"Stadt F\u00c3\u00bcrstenwalde/Spree"}},"type":"Feature"},
	{"geometry":{"coordinates":[14.066139,52.360013],"type":"Point"},"properties":{"osm_id":"5953636273","tag":{"amenity":"waste_basket"}},"type":"Feature"},
	{"geometry":{"coordinates":[14.064157,52.359679],"type":"Point"},"properties":{"osm_id":"5953769125","tag":{"amenity":"waste_basket"}},"type":"Feature"},
	{"geometry":{"coordinates":[14.064353,52.358288],"type":"Point"},"properties":{"osm_id":"5963559282","tag":{"amenity":"waste_basket","colour":"RAL 9006","material":"steel","operator":"Stadt F\u00c3\u00bcrstenwalde/Spree","waste":"cigarettes;litter"}},"type":"Feature"},
	{"geometry":{"coordinates":[14.067844,52.374942],"type":"Point"},"properties":{"osm_id":"6056913744","tag":{"amenity":"waste_basket"}},"type":"Feature"},
	{"geometry":{"coordinates":[14.068538,52.374294],"type":"Point"},"properties":{"osm_id":"6056913745","tag":{"amenity":"waste_basket"}},"type":"Feature"},
	{"geometry":{"coordinates":[14.068779,52.374054],"type":"Point"},"properties":{"osm_id":"6056913746","tag":{"amenity":"waste_basket"}},"type":"Feature"},
	{"geometry":{"coordinates":[14.065889,52.357971],"type":"Point"},"properties":{"osm_id":"6138708831","tag":{"amenity":"waste_basket","colour":"RAL 9006","material":"steel","operator":"Stadt F\u00c3\u00bcrstenwalde/Spree","waste":"cigarettes;litter"}},"type":"Feature"},
	{"geometry":{"coordinates":[14.065116,52.35896],"type":"Point"},"properties":{"osm_id":"6138708832","tag":{"amenity":"waste_basket","colour":"RAL 9006","material":"steel","operator":"Stadt F\u00c3\u00bcrstenwalde/Spree","waste":"cigarettes;litter"}},"type":"Feature"},
	{"geometry":{"coordinates":[14.067824,52.360328],"type":"Point"},"properties":{"osm_id":"6312260687","tag":{"amenity":"waste_basket","guidepost":"direction","information":"guidepost","operator":"Stadt F\u00c3\u00bcrstenwalde/Spree","tourism":"information","waste_basket":"yes"}},"type":"Feature"},
	{"geometry":{"coordinates":[14.081511,52.360888],"type":"Point"},"properties":{"osm_id":"6312260688","tag":{"amenity":"waste_basket","colour":"RAL 9006","material":"steel","operator":"Stadt F\u00c3\u00bcrstenwalde/Spree"}},"type":"Feature"},
	{"geometry":{"coordinates":[14.071959,52.362226],"type":"Point"},"properties":{"osm_id":"6312260690","tag":{"amenity":"waste_basket","colour":"RAL 9006","material":"steel","operator":"Stadt F\u00c3\u00bcrstenwalde/Spree"}},"type":"Feature"},
	{"geometry":{"coordinates":[14.071041,52.35651],"type":"Point"},"properties":{"osm_id":"6414781812","tag":{"amenity":"waste_basket","colour":"RAL 9006","material":"steel","waste":"litter;cigarettes"}},"type":"Feature"},
	{"geometry":{"coordinates":[14.071282,52.356374],"type":"Point"},"properties":{"osm_id":"6414781813","tag":{"amenity":"waste_basket","colour":"RAL 9006","material":"steel","waste":"litter;cigarettes"}},"type":"Feature"},
	{"geometry":{"coordinates":[14.078051,52.355664],"type":"Point"},"properties":{"osm_id":"6414781814","tag":{"amenity":"waste_basket","colour":"ral 9006","material":"steel","operator":"Stadt F\u00c3\u00bcrstenwalde/Spree","waste":"litter;cigarettes"}},"type":"Feature"},
	{"geometry":{"coordinates":[14.078421,52.355739],"type":"Point"},"properties":{"osm_id":"6414781815","tag":{"amenity":"waste_basket","colour":"RAL 9006","material":"steel","operator":"Stadt F\u00c3\u00bcrstenwalde/Spree","waste":"litter;cigarettes"}},"type":"Feature"},
	{"geometry":{"coordinates":[14.085612,52.343106],"type":"Point"},"properties":{"osm_id":"6414781817","tag":{"amenity":"waste_basket","colour":"RAL 9006","material":"steel","operator":"Stadt F\u00c3\u00bcrstenwalde/Spree","waste":"litter;cigarettes"}},"type":"Feature"},
	{"geometry":{"coordinates":[14.084444,52.343018],"type":"Point"},"properties":{"osm_id":"6426524020","tag":{"amenity":"waste_basket","colour":"RAL 9006","material":"steel","operator":"Stadt F\u00c3\u00bcrstenwalde/Spree","waste":"litter;cigarettes"}},"type":"Feature"},
	{"geometry":{"coordinates":[14.084092,52.343121],"type":"Point"},"properties":{"osm_id":"6426524021","tag":{"amenity":"waste_basket","colour":"RAL 9006","material":"steel","operator":"Stadt F\u00c3\u00bcrstenwalde/Spree","waste":"litter;cigarettes"}},"type":"Feature"},
	{"geometry":{"coordinates":[14.085665,52.34391],"type":"Point"},"properties":{"osm_id":"6518751591","tag":{"amenity":"waste_basket","colour":"RAL 9006","material":"steel","operator":"Stadt F\u00c3\u00bcrstenwalde/Spree","waste":"litter;cigarettes"}},"type":"Feature"},
	{"geometry":{"coordinates":[14.075521,52.345883],"type":"Point"},"properties":{"osm_id":"6579653508","tag":{"amenity":"waste_basket","colour":"RAL 9006","material":"steel","operator":"SPIKO","waste":"cigarettes;litter"}},"type":"Feature"},
	{"geometry":{"coordinates":[14.07493,52.34623],"type":"Point"},"properties":{"osm_id":"6579653509","tag":{"amenity":"waste_basket","colour":"RAL 9006","material":"steel","operator":"SPIKO","waste":"cigarettes;litter"}},"type":"Feature"},
	{"geometry":{"coordinates":[14.075233,52.346402],"type":"Point"},"properties":{"osm_id":"6579653510","tag":{"amenity":"waste_basket","colour":"RAL 9006","material":"steel","operator":"SPIKO","waste":"litter"}},"type":"Feature"},
	{"geometry":{"coordinates":[14.081467,52.345763],"type":"Point"},"properties":{"osm_id":"6579653512","tag":{"amenity":"waste_basket"}},"type":"Feature"},
	{"geometry":{"coordinates":[14.081537,52.345702],"type":"Point"},"properties":{"osm_id":"6579653513","tag":{"amenity":"waste_basket"}},"type":"Feature"},
	{"geometry":{"coordinates":[14.081396,52.345821],"type":"Point"},"properties":{"osm_id":"6579653514","tag":{"amenity":"waste_basket"}},"type":"Feature"},
	{"geometry":{"coordinates":[14.064849,52.369346],"type":"Point"},"properties":{"osm_id":"6634719547","tag":{"amenity":"waste_basket","colour":"9006","material":"steel","operator":"SPIKO","waste":"cigarettes;litter"}},"type":"Feature"},
	{"geometry":{"coordinates":[14.06453,52.369174],"type":"Point"},"properties":{"osm_id":"6634719548","tag":{"amenity":"waste_basket","colour":"9006","material":"steel","operator":"SPIKO","waste":"litter"}},"type":"Feature"},
	{"geometry":{"coordinates":[14.065118,52.369137],"type":"Point"},"properties":{"osm_id":"6634719549","tag":{"amenity":"waste_basket","colour":"9006","material":"steel","operator":"SPIKO","waste":"litter"}},"type":"Feature"},
	{"geometry":{"coordinates":[14.064887,52.368981],"type":"Point"},"properties":{"osm_id":"6634719550","tag":{"amenity":"waste_basket","colour":"9006","material":"steel","operator":"SPIKO","waste":"litter"}},"type":"Feature"},
	{"geometry":{"coordinates":[14.064282,52.369044],"type":"Point"},"properties":{"osm_id":"6634719551","tag":{"amenity":"waste_basket","colour":"9006","material":"steel","operator":"SPIKO","waste":"litter"}},"type":"Feature"},
	{"geometry":{"coordinates":[14.064736,52.368571],"type":"Point"},"properties":{"osm_id":"6634719552","tag":{"amenity":"waste_basket","colour":"9006","material":"steel","operator":"SPIKO","waste":"litter"}},"type":"Feature"},
	{"geometry":{"coordinates":[14.064151,52.368334],"type":"Point"},"properties":{"osm_id":"6634719553","tag":{"amenity":"waste_basket","colour":"9006","material":"steel","operator":"SPIKO","waste":"cigarettes;litter"}},"type":"Feature"},
	{"geometry":{"coordinates":[14.064614,52.368252],"type":"Point"},"properties":{"osm_id":"6634719554","tag":{"amenity":"waste_basket","colour":"9006","material":"steel","operator":"SPIKO","waste":"litter;cigarettes"}},"type":"Feature"},
	{"geometry":{"coordinates":[14.06431,52.368627],"type":"Point"},"properties":{"osm_id":"6634719555","tag":{"amenity":"waste_basket","colour":"9006","material":"steel","operator":"SPIKO","waste":"litter"}},"type":"Feature"},
	{"geometry":{"coordinates":[14.064887,52.358267],"type":"Point"},"properties":{"osm_id":"6779697090","tag":{"amenity":"waste_basket","colour":"RAL 9006","material":"steel","operator":"Stadt F\u00c3\u00bcrstenwalde/Spree","waste":"cigarettes;litter"}},"type":"Feature"},
	{"geometry":{"coordinates":[14.065091,52.358216],"type":"Point"},"properties":{"osm_id":"6779697091","tag":{"amenity":"waste_basket","colour":"RAL 9006","material":"steel","operator":"Stadt F\u00c3\u00bcrstenwalde/Spree","waste":"litter"}},"type":"Feature"},
	{"geometry":{"coordinates":[14.081625,52.373707],"type":"Point"},"properties":{"osm_id":"6779697092","tag":{"amenity":"waste_basket","colour":"RAL 9006","material":"steel","operator":"Stadt F\u00c3\u00bcrstenwalde/Spree","waste":"cigarettes;litter"}},"type":"Feature"},
	{"geometry":{"coordinates":[14.080186,52.374011],"type":"Point"},"properties":{"osm_id":"6779697093","tag":{"amenity":"waste_basket","colour":"RAL 9006","material":"steel","operator":"Stadt F\u00c3\u00bcrstenwalde/Spree","waste":"cigarettes;litter"}},"type":"Feature"},
	{"geometry":{"coordinates":[14.076245,52.374682],"type":"Point"},"properties":{"osm_id":"6779697094","tag":{"amenity":"waste_basket","colour":"RAL 9006","material":"steel","operator":"Stadt F\u00c3\u00bcrstenwalde/Spree","waste":"cigarettes;litter"}},"type":"Feature"},
	{"geometry":{"coordinates":[14.073661,52.371906],"type":"Point"},"properties":{"osm_id":"6779697095","tag":{"amenity":"waste_basket","colour":"RAL 9006","material":"steel","operator":"Stadt F\u00c3\u00bcrstenwalde/Spree","waste":"cigarettes;litter"}},"type":"Feature"},
	{"geometry":{"coordinates":[14.065559,52.373609],"type":"Point"},"properties":{"osm_id":"6779697096","tag":{"amenity":"waste_basket","colour":"RAL 9006","material":"steel","operator":"Stadt F\u00c3\u00bcrstenwalde/Spree","waste":"cigarettes;litter"}},"type":"Feature"},
	{"geometry":{"coordinates":[14.076713,52.333042],"type":"Point"},"properties":{"osm_id":"7112759282","tag":{"amenity":"recycling","recycling:glass_bottles":"yes","recycling_type":"container"}},"type":"Feature"},
	{"geometry":{"coordinates":[14.064333,52.36104],"type":"Point"},"properties":{"osm_id":"7456677905","tag":{"amenity":"waste_basket","colour":"RAL 9006","material":"steel","operator":"Stadt F\u00c3\u00bcrstenwalde/Spree","waste":"cigarettes;litter"}},"type":"Feature"},
	{"geometry":{"coordinates":[14.064548,52.360372],"type":"Point"},"properties":{"osm_id":"7456677906","tag":{"amenity":"waste_basket","colour":"RAL 9006","material":"steel","operator":"Stadt F\u00c3\u00bcrstenwalde/Spree","waste":"cigarettes;litter"}},"type":"Feature"},
	{"geometry":{"coordinates":[14.077332,52.342136],"type":"Point"},"properties":{"osm_id":"7456677917","tag":{"amenity":"waste_basket","colour":"RAL 9006","material":"steel","operator":"Stadt F\u00c3\u00bcrstenwalde/Spree","waste":"cigarettes;litter"}},"type":"Feature"},
	{"geometry":{"coordinates":[14.073287,52.343261],"type":"Point"},"properties":{"osm_id":"7456677918","tag":{"amenity":"waste_basket","colour":"RAL 9006","material":"steel","operator":"Stadt F\u00c3\u00bcrstenwalde/Spree","waste":"cigarettes;litter"}},"type":"Feature"},
	{"geometry":{"coordinates":[14.072986,52.344007],"type":"Point"},"properties":{"osm_id":"7456677919","tag":{"amenity":"waste_basket","colour":"RAL 9006","material":"steel","operator":"Stadt F\u00c3\u00bcrstenwalde/Spree","waste":"cigarettes;litter"}},"type":"Feature"},
	{"geometry":{"coordinates":[14.079982,52.346396],"type":"Point"},"properties":{"osm_id":"7456677920","tag":{"amenity":"waste_basket","colour":"RAL 9006","material":"steel","operator":"Stadt F\u00c3\u00bcrstenwalde/Spree","waste":"cigarettes;litter"}},"type":"Feature"},
	{"geometry":{"coordinates":[14.079646,52.346848],"type":"Point"},"properties":{"osm_id":"7456677921","tag":{"amenity":"waste_basket","colour":"RAL 9006","material":"steel","operator":"Stadt F\u00c3\u00bcrstenwalde/Spree","waste":"cigarettes;litter"}},"type":"Feature"},
	{"geometry":{"coordinates":[14.075492,52.350175],"type":"Point"},"properties":{"osm_id":"7456677924","tag":{"amenity":"waste_basket","colour":"RAL 9006","material":"steel","operator":"Stadt F\u00c3\u00bcrstenwalde/Spree","waste":"cigarettes;litter"}},"type":"Feature"},
	{"geometry":{"coordinates":[14.071677,52.346072],"type":"Point"},"properties":{"osm_id":"7456677925","tag":{"amenity":"waste_basket","colour":"RAL 9006","material":"steel","operator":"Stadt F\u00c3\u00bcrstenwalde/Spree","waste":"cigarettes;litter"}},"type":"Feature"},
	{"geometry":{"coordinates":[14.072029,52.345188],"type":"Point"},"properties":{"osm_id":"7456677926","tag":{"amenity":"waste_basket","colour":"RAL 9006","material":"steel","operator":"Stadt F\u00c3\u00bcrstenwalde/Spree","waste":"cigarettes;litter"}},"type":"Feature"},
	{"geometry":{"coordinates":[14.070378,52.344015],"type":"Point"},"properties":{"osm_id":"7456677927","tag":{"amenity":"waste_basket","colour":"RAL 9006","material":"steel","operator":"SPIKO","waste":"litter"}},"type":"Feature"},
	{"geometry":{"coordinates":[14.062533,52.353969],"type":"Point"},"properties":{"osm_id":"7456677933","tag":{"amenity":"waste_basket","colour":"RAL 9006","material":"steel","operator":"Stadt F\u00c3\u00bcrstenwalde/Spree","waste":"cigarettes;litter"}},"type":"Feature"},
	{"geometry":{"coordinates":[14.072209,52.369991],"type":"Point"},"properties":{"osm_id":"7554186211","tag":{"amenity":"waste_basket","colour":"RAL 9006","material":"steel","operator":"Stadt F\u00c3\u00bcrstenwalde/Spree","waste":"cigarettes;litter"}},"type":"Feature"},
	{"geometry":{"coordinates":[14.069608,52.366462],"type":"Point"},"properties":{"osm_id":"7554186212","tag":{"amenity":"waste_basket","colour":"RAL 9006","material":"steel","operator":"Stadt F\u00c3\u00bcrstenwalde/Spree","waste":"cigarettes;litter"}},"type":"Feature"},
	{"geometry":{"coordinates":[14.080935,52.362486],"type":"Point"},"properties":{"osm_id":"7591871180","tag":{"amenity":"waste_basket","colour":"RAL 9006","material":"steel","operator":"Stadt F\u00c3\u00bcrstenwalde/Spree","waste":"cigarettes;litter"}},"type":"Feature"},
	{"geometry":{"coordinates":[14.064338,52.353315],"type":"Point"},"properties":{"osm_id":"7593055587","tag":{"amenity":"waste_basket","colour":"RAL 9006","material":"steel","operator":"Stadt F\u00c3\u00bcrstenwalde/Spree","waste":"cigarettes;litter"}},"type":"Feature"},
	{"geometry":{"coordinates":[14.065024,52.340947],"type":"Point"},"properties":{"osm_id":"7731824904","tag":{"amenity":"waste_basket","colour":"RAL 9006","material":"steel","operator":"Stadt F\u00c3\u00bcrstenwalde/Spree","waste":"cigarettes;litter"}},"type":"Feature"},
	{"geometry":{"coordinates":[14.068297,52.340377],"type":"Point"},"properties":{"osm_id":"7731824905","tag":{"amenity":"waste_basket","colour":"RAL 9006","material":"steel","operator":"SPIKO","waste":"cigarettes;litter"}},"type":"Feature"},
	{"geometry":{"coordinates":[14.068264,52.340135],"type":"Point"},"properties":{"osm_id":"7731824906","tag":{"amenity":"waste_basket","colour":"RAL 9006","material":"steel","operator":"SPIKO","waste":"cigarettes;litter"}},"type":"Feature"},
	{"geometry":{"coordinates":[14.067863,52.340461],"type":"Point"},"properties":{"osm_id":"7731824907","tag":{"amenity":"waste_basket","colour":"RAL 9006","material":"steel","operator":"SPIKO","waste":"litter"}},"type":"Feature"},
	{"geometry":{"coordinates":[14.067724,52.340228],"type":"Point"},"properties":{"osm_id":"7731824908","tag":{"amenity":"waste_basket","colour":"RAL 9006","material":"steel","operator":"SPIKO","waste":"litter"}},"type":"Feature"},
	{"geometry":{"coordinates":[14.067409,52.340153],"type":"Point"},"properties":{"osm_id":"7731824909","tag":{"amenity":"waste_basket","colour":"RAL 9006","material":"steel","operator":"SPIKO","waste":"cigarettes;litter"}},"type":"Feature"},
	{"geometry":{"coordinates":[14.068142,52.355715],"type":"Point"},"properties":{"osm_id":"7731824910","tag":{"amenity":"waste_basket","colour":"RAL 9006","material":"steel","operator":"Stadt F\u00c3\u00bcrstenwalde/Spree","waste":"cigarettes;litter"}},"type":"Feature"},
	{"geometry":{"coordinates":[14.065374,52.363522],"type":"Point"},"properties":{"osm_id":"7826754809","tag":{"amenity":"waste_basket","colour":"RAL 9006","material":"steel","operator":"Stadt F\u00c3\u00bcrstenwalde/Spree","waste":"cigarettes;litter"}},"type":"Feature"},
	{"geometry":{"coordinates":[14.064734,52.363852],"type":"Point"},"properties":{"osm_id":"7826754810","tag":{"amenity":"waste_basket","colour":"RAL 9006","material":"steel","operator":"Stadt F\u00c3\u00bcrstenwalde/Spree","waste":"cigarettes;litter"}},"type":"Feature"},
	{"geometry":{"coordinates":[14.067173,52.362938],"type":"Point"},"properties":{"osm_id":"7826754811","tag":{"amenity":"waste_basket","colour":"RAL 9006","material":"steel","operator":"Stadt F\u00c3\u00bcrstenwalde/Spree","waste":"cigarettes;litter"}},"type":"Feature"},
	{"geometry":{"coordinates":[14.067481,52.362795],"type":"Point"},"properties":{"osm_id":"7826754812","tag":{"amenity":"waste_basket","colour":"RAL 9006","material":"steel","operator":"Stadt F\u00c3\u00bcrstenwalde/Spree","waste":"cigarettes;litter"}},"type":"Feature"},
	{"geometry":{"coordinates":[14.067512,52.36124],"type":"Point"},"properties":{"osm_id":"7826754813","tag":{"amenity":"waste_basket","colour":"RAL 9006","material":"steel","operator":"Stadt F\u00c3\u00bcrstenwalde/Spree","waste":"cigarettes;litter"}},"type":"Feature"},
	{"geometry":{"coordinates":[14.070245,52.359731],"type":"Point"},"properties":{"osm_id":"7826754814","tag":{"amenity":"waste_basket","colour":"RAL 9006","material":"steel","operator":"Stadt F\u00c3\u00bcrstenwalde/Spree","waste":"cigarettes;litter"}},"type":"Feature"},
	{"geometry":{"coordinates":[14.070467,52.359508],"type":"Point"},"properties":{"osm_id":"7826754815","tag":{"amenity":"waste_basket","colour":"RAL 9006","material":"steel","operator":"Stadt F\u00c3\u00bcrstenwalde/Spree","waste":"cigarettes;litter"}},"type":"Feature"},
	{"geometry":{"coordinates":[14.070043,52.359376],"type":"Point"},"properties":{"osm_id":"7826754816","tag":{"amenity":"waste_basket","colour":"RAL 9006","material":"steel","operator":"Stadt F\u00c3\u00bcrstenwalde/Spree","waste":"cigarettes;litter"}},"type":"Feature"},
	{"geometry":{"coordinates":[14.070463,52.359008],"type":"Point"},"properties":{"osm_id":"7826754817","tag":{"amenity":"waste_basket","colour":"RAL 9006","material":"steel","operator":"Stadt F\u00c3\u00bcrstenwalde/Spree","waste":"cigarettes;litter"}},"type":"Feature"},
	{"geometry":{"coordinates":[14.063035,52.358536],"type":"Point"},"properties":{"osm_id":"7826754818","tag":{"amenity":"waste_basket","colour":"RAL 9006","material":"steel","operator":"Stadt F\u00c3\u00bcrstenwalde/Spree","waste":"cigarettes;litter"}},"type":"Feature"},
	{"geometry":{"coordinates":[14.063552,52.358203],"type":"Point"},"properties":{"osm_id":"7826754819","tag":{"amenity":"waste_basket","colour":"RAL 9006","material":"steel","operator":"Stadt F\u00c3\u00bcrstenwalde/Spree","waste":"cigarettes;litter"}},"type":"Feature"},
	{"geometry":{"coordinates":[14.063455,52.357739],"type":"Point"},"properties":{"osm_id":"7826754820","tag":{"amenity":"waste_basket","colour":"RAL 9006","material":"steel","operator":"Stadt F\u00c3\u00bcrstenwalde/Spree","waste":"cigarettes;litter"}},"type":"Feature"},
	{"geometry":{"coordinates":[14.065949,52.36411],"type":"Point"},"properties":{"osm_id":"7826754834","tag":{"amenity":"waste_basket","colour":"RAL 9006","material":"steel","operator":"SPIKO","waste":"litter"}},"type":"Feature"},
	{"geometry":{"coordinates":[14.066241,52.364336],"type":"Point"},"properties":{"osm_id":"7826754835","tag":{"amenity":"waste_basket","colour":"RAL 9006","material":"steel","operator":"SPIKO","waste":"litter"}},"type":"Feature"},
	{"geometry":{"coordinates":[14.065216,52.353131],"type":"Point"},"properties":{"osm_id":"7869376487","tag":{"amenity":"waste_basket","colour":"RAL 9006","material":"steel","operator":"Stadt F\u00c3\u00bcrstenwalde/Spree","waste":"cigarettes;litter"}},"type":"Feature"},
	{"geometry":{"coordinates":[14.06551,52.35347],"type":"Point"},"properties":{"osm_id":"7869376488","tag":{"amenity":"waste_basket","colour":"RAL 9006","material":"steel","operator":"Stadt F\u00c3\u00bcrstenwalde/Spree","waste":"cigarettes;litter"}},"type":"Feature"},
	{"geometry":{"coordinates":[14.065818,52.35302],"type":"Point"},"properties":{"osm_id":"7869376489","tag":{"amenity":"waste_basket","colour":"RAL 9006","material":"steel","operator":"Stadt F\u00c3\u00bcrstenwalde/Spree","waste":"cigarettes;litter"}},"type":"Feature"}
]
}
