{
"type": "FeatureCollection",
"features": [
	{"geometry":{"coordinates":[14.145534,51.834573],"type":"Point"},"properties":{"osm_id":"265835612","tag":{"amenity":"recycling","check_date":"2021-08-13","recycling_type":"container"}},"type":"Feature"},
	{"geometry":{"coordinates":[14.147441,51.829288],"type":"Point"},"properties":{"osm_id":"417569952","tag":{"amenity":"recycling","recycling:clothes":"yes","recycling:glass":"yes","recycling_type":"container"}},"type":"Feature"},
	{"geometry":{"coordinates":[14.099894,51.809353],"type":"Point"},"properties":{"osm_id":"441224721","tag":{"amenity":"recycling","recycling:glass":"yes","recycling:paper":"yes"}},"type":"Feature"},
	{"geometry":{"coordinates":[14.149307,51.835442],"type":"Point"},"properties":{"osm_id":"1191119748","tag":{"amenity":"recycling","recycling:glass":"yes","recycling:paper":"yes","recycling_type":"container"}},"type":"Feature"},
	{"geometry":{"coordinates":[14.149654,51.835717],"type":"Point"},"properties":{"osm_id":"1191125707","tag":{"amenity":"recycling","recycling:glass":"yes","recycling:paper":"yes","recycling_type":"container"}},"type":"Feature"},
	{"geometry":{"coordinates":[14.149272,51.834491],"type":"Point"},"properties":{"osm_id":"1191163927","tag":{"amenity":"recycling","recycling:glass":"yes","recycling:paper":"yes","recycling_type":"container"}},"type":"Feature"},
	{"geometry":{"coordinates":[14.097901,51.801162],"type":"Point"},"properties":{"osm_id":"1459282847","tag":{"amenity":"recycling","recycling:glass":"yes","recycling_type":"container"}},"type":"Feature"},
	{"geometry":{"coordinates":[14.071883,51.784348],"type":"Point"},"properties":{"osm_id":"1510650333","tag":{"amenity":"recycling","recycling:glass":"yes","recycling_type":"container"}},"type":"Feature"},
	{"geometry":{"coordinates":[14.144854,51.832193],"type":"Point"},"properties":{"osm_id":"3710583209","tag":{"amenity":"waste_basket"}},"type":"Feature"},
	{"geometry":{"coordinates":[14.095561,51.786647],"type":"Point"},"properties":{"osm_id":"4022269982","tag":{"amenity":"recycling"}},"type":"Feature"},
	{"geometry":{"coordinates":[14.135542,51.832058],"type":"Point"},"properties":{"osm_id":"4170296498","tag":{"amenity":"waste_basket"}},"type":"Feature"},
	{"geometry":{"coordinates":[14.144267,51.793992],"type":"Point"},"properties":{"osm_id":"4230204638","tag":{"amenity":"recycling"}},"type":"Feature"},
	{"geometry":{"coordinates":[14.140693,51.833965],"type":"Point"},"properties":{"osm_id":"4818212235","tag":{"amenity":"waste_basket"}},"type":"Feature"},
	{"geometry":{"coordinates":[14.142417,51.834249],"type":"Point"},"properties":{"osm_id":"8971546541","tag":{"amenity":"waste_basket"}},"type":"Feature"},
	{"geometry":{"coordinates":[14.142244,51.834524],"type":"Point"},"properties":{"osm_id":"8971546543","tag":{"amenity":"waste_basket"}},"type":"Feature"}
]
}
