{
"type": "FeatureCollection",
"features": [
	{"geometry":{"coordinates":[14.128062,51.559008],"type":"Point"},"properties":{"osm_id":"4908539306","tag":{"amenity":"waste_disposal","waste":"greywater"}},"type":"Feature"},
	{"geometry":{"coordinates":[14.127863,51.558392],"type":"Point"},"properties":{"osm_id":"4909473560","tag":{"amenity":"waste_basket"}},"type":"Feature"},
	{"geometry":{"coordinates":[14.127731,51.558521],"type":"Point"},"properties":{"osm_id":"4909473561","tag":{"amenity":"waste_basket"}},"type":"Feature"},
	{"geometry":{"coordinates":[14.127526,51.558762],"type":"Point"},"properties":{"osm_id":"4909473562","tag":{"amenity":"waste_basket"}},"type":"Feature"},
	{"geometry":{"coordinates":[14.128311,51.558875],"type":"Point"},"properties":{"osm_id":"4909473567","tag":{"amenity":"waste_basket"}},"type":"Feature"},
	{"geometry":{"coordinates":[14.099155,51.526775],"type":"Point"},"properties":{"osm_id":"7674949378","tag":{"amenity":"waste_basket"}},"type":"Feature"}
]
}
