{
"type": "FeatureCollection",
"lastupdate": "2020-08-01T00:00:00Z",
"features": [
	{"geometry":{"coordinates":[14.125875,50.535232],"type":"Point"},"properties":{"osm_id":"912111551","tag":{"amenity":"recycling","recycling:cans":"yes","recycling:glass":"yes","recycling:paper":"yes","recycling_type":"container"}},"type":"Feature"},
	{"geometry":{"coordinates":[14.137487,50.533658],"type":"Point"},"properties":{"osm_id":"912111552","tag":{"amenity":"recycling","recycling:cans":"yes","recycling:glass":"yes","recycling:paper":"yes","recycling_type":"container"}},"type":"Feature"},
	{"geometry":{"coordinates":[14.123306,50.533572],"type":"Point"},"properties":{"osm_id":"1186400745","tag":{"amenity":"recycling","recycling:cans":"yes","recycling:glass":"yes","recycling:paper":"yes"}},"type":"Feature"},
	{"geometry":{"coordinates":[14.134753,50.540922],"type":"Point"},"properties":{"osm_id":"1187326097","tag":{"amenity":"recycling","recycling:clothes":"yes","recycling_type":"container"}},"type":"Feature"},
	{"geometry":{"coordinates":[14.125817,50.542278],"type":"Point"},"properties":{"name":"Sb\u00c4\u009brn\u00c3\u00bd dv\u00c5\u00afr Litom\u00c4\u009b\u00c5\u0099ice","osm_id":"4763834456","tag":{"addr:city":"Litom\u011b\u0159ice","addr:postcode":"41201","addr:street":"Nerudova","amenity":"recycling","opening_hours":"Po,st 8:30-16:00 hod \u00dat,\u010dt 8:30-18:00 hod P\u00e1 8:30-15:00 hod So 8:00-14:30 hod","operator":"M\u011bsto Litom\u011b\u0159ice","recycling_type":"centre","website":"https://www.tsmlt.cz/dvur-ltm.html"}},"type":"Feature"},
	{"geometry":{"coordinates":[14.124299,50.537062],"type":"Point"},"properties":{"osm_id":"7014875207","tag":{"amenity":"recycling","recycling:cardboard":"yes","recycling:glass":"yes","recycling:glass_bottles":"yes","recycling:paper":"yes","recycling:plastic":"yes","recycling:plastic_packaging":"yes","recycling_type":"container"}},"type":"Feature"}
]
}
