{
"type": "FeatureCollection",
"features": [
	{"geometry":{"coordinates":[14.080823,47.493722],"type":"Point"},"properties":{"osm_id":"4239064826","tag":{"amenity":"recycling","description":"Die M\u00c3\u00bcllkontainer k\u00c3\u00b6nnen von den BewohnerInnen des Bleiberges verwendet werden. Die zwei Tonnen werden alle 14 Tage von einem Entsorgungsteam entleert.","recycling_type":"container"}},"type":"Feature"},
	{"geometry":{"coordinates":[14.098898,47.492449],"type":"Point"},"properties":{"osm_id":"4906122459","tag":{"amenity":"waste_basket"}},"type":"Feature"},
	{"geometry":{"coordinates":[14.107981,47.508022],"type":"Point"},"properties":{"osm_id":"7352584627","tag":{"amenity":"waste_basket","material":"plastic"}},"type":"Feature"},
	{"geometry":{"coordinates":[14.109173,47.508574],"type":"Point"},"properties":{"osm_id":"7352584634","tag":{"amenity":"waste_basket","material":"plastic"}},"type":"Feature"},
	{"geometry":{"coordinates":[14.102119,47.504933],"type":"Point"},"properties":{"osm_id":"7361433478","tag":{"amenity":"waste_basket"}},"type":"Feature"},
	{"geometry":{"coordinates":[14.094317,47.510243],"type":"Point"},"properties":{"osm_id":"7376903392","tag":{"amenity":"waste_basket"}},"type":"Feature"},
	{"geometry":{"coordinates":[14.095216,47.50948],"type":"Point"},"properties":{"osm_id":"7376903412","tag":{"amenity":"waste_basket"}},"type":"Feature"},
	{"geometry":{"coordinates":[14.089977,47.513562],"type":"Point"},"properties":{"osm_id":"7387682616","tag":{"amenity":"waste_basket"}},"type":"Feature"},
	{"geometry":{"coordinates":[14.126217,47.462781],"type":"Point"},"properties":{"osm_id":"8737326282","tag":{"amenity":"recycling","recycling:paper":"yes","recycling_type":"container"}},"type":"Feature"},
	{"geometry":{"coordinates":[14.119236,47.512854],"type":"Point"},"properties":{"osm_id":"8749692544","tag":{"amenity":"recycling","recycling:glass_bottles":"yes","recycling:paper":"yes","recycling_type":"container"}},"type":"Feature"},
	{"geometry":{"coordinates":[14.105387,47.505992],"type":"Point"},"properties":{"osm_id":"8750063163","tag":{"amenity":"waste_basket"}},"type":"Feature"},
	{"geometry":{"coordinates":[14.104579,47.505667],"type":"Point"},"properties":{"osm_id":"8750063194","tag":{"amenity":"waste_basket"}},"type":"Feature"},
	{"geometry":{"coordinates":[14.103966,47.50537],"type":"Point"},"properties":{"osm_id":"8750063201","tag":{"amenity":"waste_basket"}},"type":"Feature"},
	{"geometry":{"coordinates":[14.098742,47.505445],"type":"Point"},"properties":{"osm_id":"8750076062","tag":{"amenity":"waste_basket"}},"type":"Feature"}
]
}
