{
"type": "FeatureCollection",
"features": [
	{"geometry":{"coordinates":[14.108694,46.406485],"type":"Point"},"properties":{"osm_id":"5095689945","tag":{"amenity":"waste_basket"}},"type":"Feature"},
	{"geometry":{"coordinates":[14.108779,46.406421],"type":"Point"},"properties":{"osm_id":"5095689946","tag":{"amenity":"waste_basket"}},"type":"Feature"},
	{"geometry":{"coordinates":[14.108867,46.406367],"type":"Point"},"properties":{"osm_id":"5095689947","tag":{"amenity":"waste_basket"}},"type":"Feature"},
	{"geometry":{"coordinates":[14.108968,46.406295],"type":"Point"},"properties":{"osm_id":"5095689948","tag":{"amenity":"waste_basket"}},"type":"Feature"},
	{"geometry":{"coordinates":[14.107634,46.394227],"type":"Point"},"properties":{"osm_id":"5095838564","tag":{"amenity":"waste_basket","material":"wood"}},"type":"Feature"},
	{"geometry":{"coordinates":[14.107665,46.406689],"type":"Point"},"properties":{"osm_id":"7500438862","tag":{"amenity":"recycling"}},"type":"Feature"},
	{"geometry":{"coordinates":[14.107485,46.394173],"type":"Point"},"properties":{"osm_id":"8464307045","tag":{"amenity":"waste_basket","material":"wood"}},"type":"Feature"},
	{"geometry":{"coordinates":[14.099241,46.400656],"type":"Point"},"properties":{"osm_id":"8468088600","tag":{"amenity":"waste_basket","colour":"brown","material":"wood","waste":"mixed"}},"type":"Feature"},
	{"geometry":{"coordinates":[14.085565,46.393513],"type":"Point"},"properties":{"osm_id":"8473570063","tag":{"amenity":"waste_basket","material":"wood"}},"type":"Feature"}
]
}
