{
"type": "FeatureCollection",
"features": [
	{"geometry":{"coordinates":[-71.65665,-35.425292],"type":"Point"},"properties":{"osm_id":"6005950463","tag":{"addr:city":"Talca","addr:street":"Calle 2 Norte","amenity":"waste_basket"}},"type":"Feature"},
	{"geometry":{"coordinates":[-71.656502,-35.425362],"type":"Point"},"properties":{"osm_id":"6005992323","tag":{"addr:city":"Talca","addr:street":"Calle 2 Norte","amenity":"waste_basket"}},"type":"Feature"},
	{"geometry":{"coordinates":[-71.65553,-35.425385],"type":"Point"},"properties":{"osm_id":"6006030715","tag":{"addr:city":"Talca","addr:street":"Calle 2 Norte","amenity":"waste_basket"}},"type":"Feature"},
	{"geometry":{"coordinates":[-71.655529,-35.425448],"type":"Point"},"properties":{"osm_id":"6006030716","tag":{"addr:city":"Talca","addr:street":"Calle 2 Norte","amenity":"waste_basket"}},"type":"Feature"},
	{"geometry":{"coordinates":[-71.656197,-35.425048],"type":"Point"},"properties":{"osm_id":"6006239629","tag":{"amenity":"waste_basket"}},"type":"Feature"},
	{"geometry":{"coordinates":[-71.656768,-35.425692],"type":"Point"},"properties":{"osm_id":"6006410292","tag":{"addr:city":"Talca","addr:street":"Calle 7 Oriente","amenity":"waste_basket"}},"type":"Feature"},
	{"geometry":{"coordinates":[-71.665715,-35.424585],"type":"Point"},"properties":{"osm_id":"6223788075","tag":{"amenity":"waste_basket"}},"type":"Feature"},
	{"geometry":{"coordinates":[-71.666386,-35.424541],"type":"Point"},"properties":{"osm_id":"6223789789","tag":{"addr:city":"Talca","addr:street":"Calle 2 Norte","amenity":"waste_basket"}},"type":"Feature"},
	{"geometry":{"coordinates":[-71.666392,-35.424613],"type":"Point"},"properties":{"osm_id":"6223789790","tag":{"addr:city":"Talca","addr:street":"Calle 2 Norte","amenity":"waste_basket"}},"type":"Feature"},
	{"geometry":{"coordinates":[-71.665262,-35.424693],"type":"Point"},"properties":{"osm_id":"6223806496","tag":{"amenity":"waste_basket"}},"type":"Feature"},
	{"geometry":{"coordinates":[-71.664927,-35.424646],"type":"Point"},"properties":{"osm_id":"6223822475","tag":{"addr:city":"Talca","addr:street":"Calle 2 Norte","amenity":"waste_basket"}},"type":"Feature"},
	{"geometry":{"coordinates":[-71.665091,-35.424746],"type":"Point"},"properties":{"osm_id":"6223822478","tag":{"addr:city":"Talca","addr:street":"Calle 1 Oriente","amenity":"waste_basket"}},"type":"Feature"}
]
}
