{
"type": "FeatureCollection",
"features": [
	{"geometry":{"coordinates":[37.723352,55.892717],"type":"Point"},"properties":{"osm_id":"661071506","tag":{"amenity":"waste_disposal"}},"type":"Feature"},
	{"geometry":{"coordinates":[37.719631,55.89125],"type":"Point"},"properties":{"osm_id":"661082594","tag":{"amenity":"waste_disposal"}},"type":"Feature"},
	{"geometry":{"coordinates":[37.721179,55.891547],"type":"Point"},"properties":{"osm_id":"661082636","tag":{"amenity":"waste_disposal"}},"type":"Feature"},
	{"geometry":{"coordinates":[37.721054,55.892822],"type":"Point"},"properties":{"osm_id":"661082657","tag":{"amenity":"waste_disposal"}},"type":"Feature"},
	{"geometry":{"coordinates":[37.72347,55.893069],"type":"Point"},"properties":{"osm_id":"661620518","tag":{"amenity":"waste_disposal"}},"type":"Feature"},
	{"geometry":{"coordinates":[37.723153,55.923681],"type":"Point"},"properties":{"osm_id":"767262158","tag":{"amenity":"recycling"}},"type":"Feature"},
	{"geometry":{"coordinates":[37.712471,55.894721],"type":"Point"},"properties":{"osm_id":"843126828","tag":{"amenity":"waste_disposal"}},"type":"Feature"},
	{"geometry":{"coordinates":[37.726224,55.896363],"type":"Point"},"properties":{"osm_id":"1066348174","tag":{"amenity":"waste_disposal"}},"type":"Feature"},
	{"geometry":{"coordinates":[37.719755,55.890933],"type":"Point"},"properties":{"osm_id":"1066348231","tag":{"amenity":"waste_disposal"}},"type":"Feature"},
	{"geometry":{"coordinates":[37.728414,55.894735],"type":"Point"},"properties":{"osm_id":"1066348260","tag":{"amenity":"waste_disposal"}},"type":"Feature"},
	{"geometry":{"coordinates":[37.719547,55.893861],"type":"Point"},"properties":{"osm_id":"1066348320","tag":{"amenity":"waste_disposal"}},"type":"Feature"},
	{"geometry":{"coordinates":[37.717343,55.890223],"type":"Point"},"properties":{"osm_id":"1066348357","tag":{"amenity":"waste_disposal"}},"type":"Feature"},
	{"geometry":{"coordinates":[37.719591,55.893931],"type":"Point"},"properties":{"osm_id":"1066348458","tag":{"amenity":"waste_disposal"}},"type":"Feature"},
	{"geometry":{"coordinates":[37.712633,55.891449],"type":"Point"},"properties":{"osm_id":"1066348514","tag":{"amenity":"waste_disposal","shop":"convenience"}},"type":"Feature"},
	{"geometry":{"coordinates":[37.720277,55.893614],"type":"Point"},"properties":{"osm_id":"1066348543","tag":{"amenity":"waste_disposal"}},"type":"Feature"},
	{"geometry":{"coordinates":[37.728729,55.892094],"type":"Point"},"properties":{"osm_id":"1066348572","tag":{"amenity":"waste_disposal"}},"type":"Feature"},
	{"geometry":{"coordinates":[37.718209,55.907742],"type":"Point"},"properties":{"osm_id":"1108937538","tag":{"amenity":"waste_disposal","waste":"trash"}},"type":"Feature"},
	{"geometry":{"coordinates":[37.717269,55.90945],"type":"Point"},"properties":{"osm_id":"1108954001","tag":{"amenity":"waste_disposal","waste":"trash"}},"type":"Feature"},
	{"geometry":{"coordinates":[37.724415,55.886536],"type":"Point"},"properties":{"osm_id":"1132180537","tag":{"amenity":"waste_disposal"}},"type":"Feature"},
	{"geometry":{"coordinates":[37.735091,55.889954],"type":"Point"},"properties":{"osm_id":"1132180541","tag":{"amenity":"waste_disposal"}},"type":"Feature"},
	{"geometry":{"coordinates":[37.724143,55.887419],"type":"Point"},"properties":{"osm_id":"1132180546","tag":{"amenity":"waste_disposal"}},"type":"Feature"},
	{"geometry":{"coordinates":[37.734329,55.891467],"type":"Point"},"properties":{"osm_id":"1132180548","tag":{"amenity":"waste_disposal"}},"type":"Feature"},
	{"geometry":{"coordinates":[37.727902,55.888203],"type":"Point"},"properties":{"osm_id":"1132180551","tag":{"amenity":"waste_disposal"}},"type":"Feature"},
	{"geometry":{"coordinates":[37.728351,55.89041],"type":"Point"},"properties":{"osm_id":"1132180552","tag":{"amenity":"waste_disposal"}},"type":"Feature"},
	{"geometry":{"coordinates":[37.729845,55.889389],"type":"Point"},"properties":{"osm_id":"1195323131","tag":{"amenity":"waste_disposal"}},"type":"Feature"},
	{"geometry":{"coordinates":[37.732344,55.892737],"type":"Point"},"properties":{"osm_id":"1256325603","tag":{"amenity":"waste_disposal"}},"type":"Feature"},
	{"geometry":{"coordinates":[37.743875,55.895665],"type":"Point"},"properties":{"osm_id":"1256325624","tag":{"amenity":"waste_disposal"}},"type":"Feature"},
	{"geometry":{"coordinates":[37.743253,55.900697],"type":"Point"},"properties":{"osm_id":"1256325631","tag":{"amenity":"waste_disposal"}},"type":"Feature"},
	{"geometry":{"coordinates":[37.736967,55.895244],"type":"Point"},"properties":{"osm_id":"1256325639","tag":{"amenity":"waste_disposal"}},"type":"Feature"},
	{"geometry":{"coordinates":[37.747683,55.900502],"type":"Point"},"properties":{"osm_id":"1256325649","tag":{"amenity":"waste_disposal"}},"type":"Feature"},
	{"geometry":{"coordinates":[37.7095,55.875617],"type":"Point"},"properties":{"osm_id":"1260425819","tag":{"amenity":"waste_disposal"}},"type":"Feature"},
	{"geometry":{"coordinates":[37.725002,55.875886],"type":"Point"},"properties":{"osm_id":"1277894744","tag":{"amenity":"waste_disposal"}},"type":"Feature"},
	{"geometry":{"coordinates":[37.706915,55.903025],"type":"Point"},"properties":{"osm_id":"1290886750","tag":{"amenity":"waste_disposal"}},"type":"Feature"},
	{"geometry":{"coordinates":[37.707773,55.903061],"type":"Point"},"properties":{"osm_id":"1290886752","tag":{"amenity":"waste_disposal"}},"type":"Feature"},
	{"geometry":{"coordinates":[37.709297,55.902628],"type":"Point"},"properties":{"osm_id":"1290886754","tag":{"amenity":"waste_disposal"}},"type":"Feature"},
	{"geometry":{"coordinates":[37.707205,55.902631],"type":"Point"},"properties":{"osm_id":"1290886755","tag":{"amenity":"waste_disposal"}},"type":"Feature"},
	{"geometry":{"coordinates":[37.733345,55.893318],"type":"Point"},"properties":{"osm_id":"1296856021","tag":{"amenity":"waste_disposal"}},"type":"Feature"},
	{"geometry":{"coordinates":[37.745108,55.894355],"type":"Point"},"properties":{"osm_id":"1296856594","tag":{"amenity":"waste_disposal"}},"type":"Feature"},
	{"geometry":{"coordinates":[37.735248,55.894156],"type":"Point"},"properties":{"osm_id":"1296856658","tag":{"amenity":"waste_disposal"}},"type":"Feature"},
	{"geometry":{"coordinates":[37.780942,55.89573],"type":"Point"},"properties":{"osm_id":"1315871311","tag":{"amenity":"waste_basket"}},"type":"Feature"},
	{"geometry":{"coordinates":[37.777249,55.895359],"type":"Point"},"properties":{"osm_id":"1325429407","tag":{"amenity":"waste_disposal"}},"type":"Feature"},
	{"geometry":{"coordinates":[37.73962,55.898557],"type":"Point"},"properties":{"osm_id":"1352926576","tag":{"amenity":"waste_basket"}},"type":"Feature"},
	{"geometry":{"coordinates":[37.726415,55.888691],"type":"Point"},"properties":{"osm_id":"1381931130","tag":{"amenity":"recycling","recycling:glass":"yes","recycling_type":"container"}},"type":"Feature"},
	{"geometry":{"coordinates":[37.726402,55.893306],"type":"Point"},"properties":{"osm_id":"1440501903","tag":{"amenity":"recycling","recycling:cans":"yes","recycling_type":"container"}},"type":"Feature"},
	{"geometry":{"coordinates":[37.726716,55.893587],"type":"Point"},"properties":{"osm_id":"1440515964","tag":{"amenity":"recycling","recycling:cans":"yes","recycling_type":"container"}},"type":"Feature"},
	{"geometry":{"coordinates":[37.721452,55.894368],"type":"Point"},"properties":{"osm_id":"1440515967","tag":{"amenity":"recycling","recycling:cans":"yes","recycling:paper":"no","recycling_type":"container"}},"type":"Feature"},
	{"geometry":{"coordinates":[37.727634,55.895766],"type":"Point"},"properties":{"osm_id":"1440516077","tag":{"amenity":"recycling","recycling:cans":"yes","recycling_type":"container"}},"type":"Feature"},
	{"geometry":{"coordinates":[37.721825,55.896052],"type":"Point"},"properties":{"osm_id":"1440516088","tag":{"amenity":"waste_disposal"}},"type":"Feature"},
	{"geometry":{"coordinates":[37.727714,55.894284],"type":"Point"},"properties":{"osm_id":"1644369023","tag":{"amenity":"recycling","recycling:cans":"yes","recycling_type":"container"}},"type":"Feature"},
	{"geometry":{"coordinates":[37.730419,55.895086],"type":"Point"},"properties":{"osm_id":"1644369038","tag":{"amenity":"waste_disposal"}},"type":"Feature"},
	{"geometry":{"coordinates":[37.718307,55.898958],"type":"Point"},"properties":{"osm_id":"1671682248","tag":{"amenity":"waste_disposal"}},"type":"Feature"},
	{"geometry":{"coordinates":[37.73573,55.887885],"type":"Point"},"properties":{"osm_id":"1690337318","tag":{"amenity":"waste_disposal"}},"type":"Feature"},
	{"geometry":{"coordinates":[37.708113,55.90523],"type":"Point"},"properties":{"osm_id":"1818620572","tag":{"amenity":"waste_disposal"}},"type":"Feature"},
	{"geometry":{"coordinates":[37.706869,55.904078],"type":"Point"},"properties":{"osm_id":"1818620576","tag":{"amenity":"waste_disposal"}},"type":"Feature"},
	{"geometry":{"coordinates":[37.71033,55.904776],"type":"Point"},"properties":{"osm_id":"1818623332","tag":{"amenity":"waste_disposal"}},"type":"Feature"},
	{"geometry":{"coordinates":[37.720035,55.896624],"type":"Point"},"properties":{"osm_id":"1923650131","tag":{"amenity":"waste_disposal"}},"type":"Feature"},
	{"geometry":{"coordinates":[37.731854,55.889186],"type":"Point"},"properties":{"osm_id":"1936492088","tag":{"amenity":"waste_disposal"}},"type":"Feature"},
	{"geometry":{"coordinates":[37.741883,55.89953],"type":"Point"},"properties":{"osm_id":"1958680478","tag":{"amenity":"waste_disposal"}},"type":"Feature"},
	{"geometry":{"coordinates":[37.712108,55.905065],"type":"Point"},"properties":{"osm_id":"1983658664","tag":{"amenity":"waste_disposal"}},"type":"Feature"},
	{"geometry":{"coordinates":[37.738535,55.900566],"type":"Point"},"properties":{"osm_id":"2017942771","tag":{"amenity":"waste_disposal"}},"type":"Feature"},
	{"geometry":{"coordinates":[37.738485,55.90057],"type":"Point"},"properties":{"osm_id":"2017942772","tag":{"amenity":"recycling","recycling:glass":"yes","recycling:paper":"no","recycling:scrap_metal":"no","recycling_type":"container"}},"type":"Feature"},
	{"geometry":{"coordinates":[37.726447,55.893287],"type":"Point"},"properties":{"osm_id":"2030667056","tag":{"amenity":"waste_disposal"}},"type":"Feature"},
	{"geometry":{"coordinates":[37.72677,55.893589],"type":"Point"},"properties":{"osm_id":"2030667057","tag":{"amenity":"waste_disposal"}},"type":"Feature"},
	{"geometry":{"coordinates":[37.727746,55.894267],"type":"Point"},"properties":{"osm_id":"2030667058","tag":{"amenity":"waste_disposal"}},"type":"Feature"},
	{"geometry":{"coordinates":[37.721466,55.894389],"type":"Point"},"properties":{"osm_id":"2030667059","tag":{"amenity":"waste_disposal"}},"type":"Feature"},
	{"geometry":{"coordinates":[37.727644,55.895755],"type":"Point"},"properties":{"osm_id":"2030667070","tag":{"amenity":"waste_disposal"}},"type":"Feature"},
	{"geometry":{"coordinates":[37.723616,55.88989],"type":"Point"},"properties":{"osm_id":"2074903852","tag":{"amenity":"recycling","waste":"trash"}},"type":"Feature"},
	{"geometry":{"coordinates":[37.725892,55.891368],"type":"Point"},"properties":{"osm_id":"2074903869","tag":{"amenity":"recycling","recycling:cans":"yes","recycling:paper":"no","recycling_type":"container"}},"type":"Feature"},
	{"geometry":{"coordinates":[37.732063,55.905271],"type":"Point"},"properties":{"osm_id":"2129345841","tag":{"amenity":"waste_disposal"}},"type":"Feature"},
	{"geometry":{"coordinates":[37.737771,55.908182],"type":"Point"},"properties":{"osm_id":"2417822286","tag":{"amenity":"waste_disposal"}},"type":"Feature"},
	{"geometry":{"coordinates":[37.728005,55.895044],"type":"Point"},"properties":{"osm_id":"2536504770","tag":{"amenity":"waste_disposal"}},"type":"Feature"},
	{"geometry":{"coordinates":[37.711992,55.895295],"type":"Point"},"properties":{"osm_id":"2536504771","tag":{"amenity":"waste_disposal"}},"type":"Feature"},
	{"geometry":{"coordinates":[37.717238,55.896241],"type":"Point"},"properties":{"osm_id":"2536504772","tag":{"amenity":"waste_disposal"}},"type":"Feature"},
	{"geometry":{"coordinates":[37.717133,55.899306],"type":"Point"},"properties":{"osm_id":"2536504775","tag":{"amenity":"waste_disposal"}},"type":"Feature"},
	{"geometry":{"coordinates":[37.725214,55.90291],"type":"Point"},"properties":{"osm_id":"2536504777","tag":{"amenity":"waste_disposal"}},"type":"Feature"},
	{"geometry":{"coordinates":[37.739683,55.90467],"type":"Point"},"properties":{"osm_id":"2536504780","tag":{"amenity":"waste_disposal"}},"type":"Feature"},
	{"geometry":{"coordinates":[37.748953,55.90565],"type":"Point"},"properties":{"osm_id":"2536504783","tag":{"amenity":"waste_disposal"}},"type":"Feature"},
	{"geometry":{"coordinates":[37.734009,55.906357],"type":"Point"},"properties":{"osm_id":"2536504786","tag":{"amenity":"waste_disposal"}},"type":"Feature"},
	{"geometry":{"coordinates":[37.714176,55.913621],"type":"Point"},"properties":{"osm_id":"2629874845","tag":{"amenity":"waste_basket"}},"type":"Feature"},
	{"geometry":{"coordinates":[37.714177,55.913648],"type":"Point"},"properties":{"osm_id":"2629874851","tag":{"amenity":"waste_basket"}},"type":"Feature"},
	{"geometry":{"coordinates":[37.714179,55.913672],"type":"Point"},"properties":{"osm_id":"2629874856","tag":{"amenity":"waste_basket"}},"type":"Feature"},
	{"geometry":{"coordinates":[37.713719,55.913761],"type":"Point"},"properties":{"osm_id":"2629876105","tag":{"amenity":"waste_basket"}},"type":"Feature"},
	{"geometry":{"coordinates":[37.713739,55.913784],"type":"Point"},"properties":{"osm_id":"2629876107","tag":{"amenity":"waste_basket"}},"type":"Feature"},
	{"geometry":{"coordinates":[37.713758,55.913806],"type":"Point"},"properties":{"osm_id":"2629876110","tag":{"amenity":"waste_basket"}},"type":"Feature"},
	{"geometry":{"coordinates":[37.751331,55.907368],"type":"Point"},"properties":{"osm_id":"2866277383","tag":{"amenity":"waste_disposal"}},"type":"Feature"},
	{"geometry":{"coordinates":[37.713103,55.914631],"type":"Point"},"properties":{"osm_id":"3092306855","tag":{"amenity":"waste_disposal"}},"type":"Feature"},
	{"geometry":{"coordinates":[37.713046,55.915608],"type":"Point"},"properties":{"osm_id":"3092315440","tag":{"amenity":"waste_disposal"}},"type":"Feature"},
	{"geometry":{"coordinates":[37.712371,55.91419],"type":"Point"},"properties":{"osm_id":"3092315441","tag":{"amenity":"waste_disposal"}},"type":"Feature"},
	{"geometry":{"coordinates":[37.709695,55.914455],"type":"Point"},"properties":{"osm_id":"3092315442","tag":{"amenity":"waste_disposal"}},"type":"Feature"},
	{"geometry":{"coordinates":[37.70944,55.91615],"type":"Point"},"properties":{"osm_id":"3092315443","tag":{"amenity":"waste_disposal"}},"type":"Feature"},
	{"geometry":{"coordinates":[37.710474,55.916167],"type":"Point"},"properties":{"osm_id":"3092315444","tag":{"amenity":"waste_disposal"}},"type":"Feature"},
	{"geometry":{"coordinates":[37.706163,55.878707],"type":"Point"},"properties":{"osm_id":"3542212056","tag":{"amenity":"recycling"}},"type":"Feature"},
	{"geometry":{"coordinates":[37.707639,55.920484],"type":"Point"},"properties":{"osm_id":"3615888126","tag":{"amenity":"recycling","description":"\u00d0\u0092 \u00d0\u00bc\u00d0\u00b0\u00d0\u00b3\u00d0\u00b0\u00d0\u00b7\u00d0\u00b8\u00d0\u00bd\u00d0\u00b5 Media Markt","operator":"\u00d0\u009c\u00d0\u00b5\u00d0\u00b3\u00d0\u00b0\u00d0\u00bf\u00d0\u00be\u00d0\u00bb\u00d0\u00b8\u00d1\u0081\u00d1\u0080\u00d0\u00b5\u00d1\u0081\u00d1\u0083\u00d1\u0080\u00d1\u0081","recycling:batteries":"yes","recycling_type":"container"}},"type":"Feature"},
	{"geometry":{"coordinates":[37.786992,55.919211],"type":"Point"},"properties":{"osm_id":"3680276828","tag":{"amenity":"waste_disposal"}},"type":"Feature"},
	{"geometry":{"coordinates":[37.717206,55.8962],"type":"Point"},"properties":{"osm_id":"3757660925","tag":{"amenity":"recycling","operator":"\u00d0\u00a1\u00d0\u00bf\u00d0\u00b5\u00d1\u0086\u00d1\u0080\u00d0\u00b5\u00d0\u00bc\u00d1\u0082\u00d1\u0080\u00d0\u00b0\u00d0\u00bd\u00d1\u0081","recycling:aluminium_cans":"yes","recycling:books":"yes","recycling:magazines":"yes","recycling:newspaper":"yes","recycling:paper":"yes","recycling:plastic_bottles":"yes","recycling_type":"container","website":"http://spetsremtrans.su/"}},"type":"Feature"},
	{"geometry":{"coordinates":[37.713462,55.878922],"type":"Point"},"properties":{"osm_id":"3904090894","tag":{"amenity":"waste_basket"}},"type":"Feature"},
	{"geometry":{"coordinates":[37.711081,55.878213],"type":"Point"},"properties":{"osm_id":"3997229748","tag":{"amenity":"waste_disposal"}},"type":"Feature"},
	{"geometry":{"coordinates":[37.732369,55.87801],"type":"Point"},"properties":{"osm_id":"4183121986","tag":{"amenity":"waste_disposal"}},"type":"Feature"},
	{"geometry":{"coordinates":[37.731418,55.907523],"type":"Point"},"properties":{"osm_id":"4221469290","tag":{"amenity":"waste_basket"}},"type":"Feature"},
	{"geometry":{"coordinates":[37.73122,55.907379],"type":"Point"},"properties":{"osm_id":"4221517389","tag":{"amenity":"waste_basket"}},"type":"Feature"},
	{"geometry":{"coordinates":[37.726395,55.908847],"type":"Point"},"properties":{"osm_id":"4239863091","tag":{"amenity":"waste_disposal"}},"type":"Feature"},
	{"geometry":{"coordinates":[37.719276,55.875737],"type":"Point"},"properties":{"osm_id":"4240940833","tag":{"amenity":"waste_disposal"}},"type":"Feature"},
	{"geometry":{"coordinates":[37.709413,55.879101],"type":"Point"},"properties":{"osm_id":"4285600689","tag":{"amenity":"waste_basket"}},"type":"Feature"},
	{"geometry":{"coordinates":[37.749319,55.923311],"type":"Point"},"properties":{"osm_id":"4399538493","tag":{"amenity":"waste_disposal"}},"type":"Feature"},
	{"geometry":{"coordinates":[37.785048,55.878729],"type":"Point"},"properties":{"osm_id":"4731942322","tag":{"amenity":"waste_basket"}},"type":"Feature"},
	{"geometry":{"coordinates":[37.726099,55.915191],"type":"Point"},"properties":{"osm_id":"4962664523","tag":{"amenity":"waste_disposal"}},"type":"Feature"},
	{"geometry":{"coordinates":[37.724783,55.915221],"type":"Point"},"properties":{"osm_id":"4962664524","tag":{"amenity":"waste_disposal"}},"type":"Feature"},
	{"geometry":{"coordinates":[37.724287,55.913313],"type":"Point"},"properties":{"osm_id":"5146538022","tag":{"amenity":"waste_disposal"}},"type":"Feature"},
	{"geometry":{"coordinates":[37.737186,55.906237],"type":"Point"},"properties":{"osm_id":"5288680806","tag":{"amenity":"waste_disposal"}},"type":"Feature"},
	{"geometry":{"coordinates":[37.718915,55.890198],"type":"Point"},"properties":{"osm_id":"5803592733","tag":{"amenity":"waste_disposal"}},"type":"Feature"},
	{"geometry":{"coordinates":[37.725626,55.891272],"type":"Point"},"properties":{"osm_id":"5804527891","tag":{"amenity":"waste_disposal"}},"type":"Feature"},
	{"geometry":{"coordinates":[37.725924,55.891389],"type":"Point"},"properties":{"osm_id":"5804527892","tag":{"amenity":"waste_disposal"}},"type":"Feature"},
	{"geometry":{"coordinates":[37.725661,55.891296],"type":"Point"},"properties":{"osm_id":"5804527893","tag":{"amenity":"recycling","recycling_type":"container"}},"type":"Feature"},
	{"geometry":{"coordinates":[37.724945,55.890892],"type":"Point"},"properties":{"osm_id":"5804527896","tag":{"amenity":"waste_disposal"}},"type":"Feature"},
	{"geometry":{"coordinates":[37.721448,55.897945],"type":"Point"},"properties":{"osm_id":"5853508072","tag":{"amenity":"waste_disposal"}},"type":"Feature"},
	{"geometry":{"coordinates":[37.721483,55.897934],"type":"Point"},"properties":{"osm_id":"5853508073","tag":{"amenity":"recycling","recycling_type":"container"}},"type":"Feature"},
	{"geometry":{"coordinates":[37.724952,55.894561],"type":"Point"},"properties":{"osm_id":"5855733078","tag":{"amenity":"waste_disposal"}},"type":"Feature"},
	{"geometry":{"coordinates":[37.72502,55.894544],"type":"Point"},"properties":{"osm_id":"5855733079","tag":{"amenity":"recycling","recycling_type":"container"}},"type":"Feature"},
	{"geometry":{"coordinates":[37.723648,55.889875],"type":"Point"},"properties":{"osm_id":"5862265192","tag":{"amenity":"waste_disposal"}},"type":"Feature"},
	{"geometry":{"coordinates":[37.721228,55.891541],"type":"Point"},"properties":{"osm_id":"5865671185","tag":{"amenity":"recycling","recycling_type":"container"}},"type":"Feature"},
	{"geometry":{"coordinates":[37.708828,55.902134],"type":"Point"},"properties":{"osm_id":"5915369685","tag":{"amenity":"waste_disposal"}},"type":"Feature"},
	{"geometry":{"coordinates":[37.715898,55.899076],"type":"Point"},"properties":{"osm_id":"6044718413","tag":{"amenity":"waste_disposal"}},"type":"Feature"},
	{"geometry":{"coordinates":[37.715166,55.892751],"type":"Point"},"properties":{"osm_id":"6053187500","tag":{"amenity":"waste_disposal"}},"type":"Feature"},
	{"geometry":{"coordinates":[37.716565,55.892476],"type":"Point"},"properties":{"osm_id":"6053187501","tag":{"amenity":"waste_disposal"}},"type":"Feature"},
	{"geometry":{"coordinates":[37.714006,55.893529],"type":"Point"},"properties":{"osm_id":"6132249148","tag":{"amenity":"waste_disposal"}},"type":"Feature"},
	{"geometry":{"coordinates":[37.712014,55.894146],"type":"Point"},"properties":{"osm_id":"6132249149","tag":{"amenity":"waste_disposal"}},"type":"Feature"},
	{"geometry":{"coordinates":[37.713916,55.903187],"type":"Point"},"properties":{"osm_id":"6394850170","tag":{"amenity":"waste_disposal"}},"type":"Feature"},
	{"geometry":{"coordinates":[37.751364,55.915339],"type":"Point"},"properties":{"osm_id":"6831797968","tag":{"amenity":"waste_basket"}},"type":"Feature"},
	{"geometry":{"coordinates":[37.715482,55.91014],"type":"Point"},"properties":{"osm_id":"7315740567","tag":{"amenity":"waste_disposal"}},"type":"Feature"},
	{"geometry":{"coordinates":[37.758411,55.919981],"type":"Point"},"properties":{"osm_id":"7375304053","tag":{"amenity":"waste_disposal"}},"type":"Feature"},
	{"geometry":{"coordinates":[37.757758,55.919989],"type":"Point"},"properties":{"osm_id":"7375304054","tag":{"amenity":"waste_disposal"}},"type":"Feature"},
	{"geometry":{"coordinates":[37.759137,55.920134],"type":"Point"},"properties":{"osm_id":"7375304055","tag":{"amenity":"waste_disposal"}},"type":"Feature"},
	{"geometry":{"coordinates":[37.722067,55.878134],"type":"Point"},"properties":{"osm_id":"7756844591","tag":{"amenity":"waste_disposal"}},"type":"Feature"},
	{"geometry":{"coordinates":[37.715399,55.877028],"type":"Point"},"properties":{"osm_id":"7756949995","tag":{"amenity":"waste_disposal"}},"type":"Feature"},
	{"geometry":{"coordinates":[37.743718,55.90235],"type":"Point"},"properties":{"osm_id":"7936760079","tag":{"amenity":"waste_disposal"}},"type":"Feature"}
]
}
