{
"type": "FeatureCollection",
"features": [
	{"geometry":{"coordinates":[37.710428,55.757722],"type":"Point"},"properties":{"osm_id":"705631385","tag":{"amenity":"waste_disposal","waste":"trash"}},"type":"Feature"},
	{"geometry":{"coordinates":[37.763306,55.728012],"type":"Point"},"properties":{"osm_id":"1057068573","tag":{"amenity":"recycling"}},"type":"Feature"},
	{"geometry":{"coordinates":[37.763201,55.727254],"type":"Point"},"properties":{"osm_id":"1057068946","tag":{"amenity":"recycling"}},"type":"Feature"},
	{"geometry":{"coordinates":[37.728169,55.766538],"type":"Point"},"properties":{"osm_id":"2146273566","tag":{"amenity":"waste_disposal","waste":"trash"}},"type":"Feature"},
	{"geometry":{"coordinates":[37.711553,55.772957],"type":"Point"},"properties":{"osm_id":"2494484792","tag":{"amenity":"waste_disposal"}},"type":"Feature"},
	{"geometry":{"coordinates":[37.714343,55.770686],"type":"Point"},"properties":{"osm_id":"2494503411","tag":{"amenity":"waste_disposal"}},"type":"Feature"},
	{"geometry":{"coordinates":[37.747508,55.735863],"type":"Point"},"properties":{"osm_id":"3125466780","tag":{"amenity":"recycling","location":"overground","recycling_type":"container"}},"type":"Feature"},
	{"geometry":{"coordinates":[37.731241,55.729963],"type":"Point"},"properties":{"osm_id":"3615888121","tag":{"amenity":"recycling","opening_hours":"08:30-22:30","operator":"\u00d0\u009c\u00d0\u00b5\u00d0\u00b3\u00d0\u00b0\u00d0\u00bf\u00d0\u00be\u00d0\u00bb\u00d0\u00b8\u00d1\u0081\u00d1\u0080\u00d0\u00b5\u00d1\u0081\u00d1\u0083\u00d1\u0080\u00d1\u0081","recycling:batteries":"yes","recycling_type":"container"}},"type":"Feature"},
	{"geometry":{"coordinates":[37.776219,55.746843],"type":"Point"},"properties":{"osm_id":"3664783293","tag":{"amenity":"waste_disposal"}},"type":"Feature"},
	{"geometry":{"coordinates":[37.773795,55.747539],"type":"Point"},"properties":{"osm_id":"3664783294","tag":{"amenity":"waste_disposal"}},"type":"Feature"},
	{"geometry":{"coordinates":[37.769108,55.747737],"type":"Point"},"properties":{"osm_id":"3664783295","tag":{"amenity":"waste_disposal"}},"type":"Feature"},
	{"geometry":{"coordinates":[37.705229,55.766529],"type":"Point"},"properties":{"osm_id":"3688884398","tag":{"amenity":"waste_disposal","waste":"trash"}},"type":"Feature"},
	{"geometry":{"coordinates":[37.717077,55.75236],"type":"Point"},"properties":{"osm_id":"3750376536","tag":{"amenity":"waste_basket"}},"type":"Feature"},
	{"geometry":{"coordinates":[37.715164,55.75694],"type":"Point"},"properties":{"osm_id":"3752831200","tag":{"amenity":"waste_basket"}},"type":"Feature"},
	{"geometry":{"coordinates":[37.715051,55.75698],"type":"Point"},"properties":{"osm_id":"3752831201","tag":{"amenity":"waste_basket"}},"type":"Feature"},
	{"geometry":{"coordinates":[37.714567,55.757218],"type":"Point"},"properties":{"osm_id":"3752831202","tag":{"amenity":"waste_basket"}},"type":"Feature"},
	{"geometry":{"coordinates":[37.708368,55.754479],"type":"Point"},"properties":{"osm_id":"3758528350","tag":{"amenity":"waste_basket"}},"type":"Feature"},
	{"geometry":{"coordinates":[37.706806,55.754552],"type":"Point"},"properties":{"osm_id":"3758550345","tag":{"amenity":"waste_basket"}},"type":"Feature"},
	{"geometry":{"coordinates":[37.706848,55.754588],"type":"Point"},"properties":{"osm_id":"3758550346","tag":{"amenity":"waste_basket"}},"type":"Feature"},
	{"geometry":{"coordinates":[37.707796,55.759065],"type":"Point"},"properties":{"osm_id":"3762387306","tag":{"amenity":"waste_basket"}},"type":"Feature"},
	{"geometry":{"coordinates":[37.711531,55.75458],"type":"Point"},"properties":{"osm_id":"3787370879","tag":{"amenity":"waste_basket"}},"type":"Feature"},
	{"geometry":{"coordinates":[37.711411,55.75479],"type":"Point"},"properties":{"osm_id":"3787370883","tag":{"amenity":"waste_basket"}},"type":"Feature"},
	{"geometry":{"coordinates":[37.711293,55.754995],"type":"Point"},"properties":{"osm_id":"3787370884","tag":{"amenity":"waste_basket"}},"type":"Feature"},
	{"geometry":{"coordinates":[37.712398,55.75585],"type":"Point"},"properties":{"osm_id":"3787370885","tag":{"amenity":"waste_basket"}},"type":"Feature"},
	{"geometry":{"coordinates":[37.71278,55.755854],"type":"Point"},"properties":{"osm_id":"3787370886","tag":{"amenity":"waste_basket"}},"type":"Feature"},
	{"geometry":{"coordinates":[37.713172,55.755858],"type":"Point"},"properties":{"osm_id":"3787370887","tag":{"amenity":"waste_basket"}},"type":"Feature"},
	{"geometry":{"coordinates":[37.714225,55.75431],"type":"Point"},"properties":{"osm_id":"3790069804","tag":{"amenity":"waste_disposal","waste":"trash"}},"type":"Feature"},
	{"geometry":{"coordinates":[37.717001,55.75126],"type":"Point"},"properties":{"osm_id":"3815104909","tag":{"amenity":"waste_basket"}},"type":"Feature"},
	{"geometry":{"coordinates":[37.706246,55.760476],"type":"Point"},"properties":{"osm_id":"3819490813","tag":{"amenity":"waste_disposal"}},"type":"Feature"},
	{"geometry":{"coordinates":[37.712852,55.757126],"type":"Point"},"properties":{"osm_id":"3854440260","tag":{"amenity":"waste_basket"}},"type":"Feature"},
	{"geometry":{"coordinates":[37.712916,55.757184],"type":"Point"},"properties":{"osm_id":"3854440261","tag":{"amenity":"waste_basket"}},"type":"Feature"},
	{"geometry":{"coordinates":[37.713575,55.75755],"type":"Point"},"properties":{"osm_id":"3854440266","tag":{"amenity":"waste_basket"}},"type":"Feature"},
	{"geometry":{"coordinates":[37.714551,55.757588],"type":"Point"},"properties":{"osm_id":"3854440267","tag":{"amenity":"waste_basket"}},"type":"Feature"},
	{"geometry":{"coordinates":[37.713641,55.758147],"type":"Point"},"properties":{"osm_id":"3854440278","tag":{"amenity":"waste_disposal","waste":"trash"}},"type":"Feature"},
	{"geometry":{"coordinates":[37.716675,55.752897],"type":"Point"},"properties":{"osm_id":"3893970358","tag":{"amenity":"waste_basket"}},"type":"Feature"},
	{"geometry":{"coordinates":[37.710292,55.754288],"type":"Point"},"properties":{"osm_id":"3893970361","tag":{"amenity":"waste_basket"}},"type":"Feature"},
	{"geometry":{"coordinates":[37.71047,55.754438],"type":"Point"},"properties":{"osm_id":"3893970364","tag":{"amenity":"waste_basket"}},"type":"Feature"},
	{"geometry":{"coordinates":[37.71439,55.757666],"type":"Point"},"properties":{"osm_id":"3970759526","tag":{"amenity":"waste_basket"}},"type":"Feature"},
	{"geometry":{"coordinates":[37.714285,55.7577],"type":"Point"},"properties":{"osm_id":"3970759534","tag":{"amenity":"waste_basket"}},"type":"Feature"},
	{"geometry":{"coordinates":[37.714433,55.757711],"type":"Point"},"properties":{"osm_id":"3970759544","tag":{"amenity":"waste_basket"}},"type":"Feature"},
	{"geometry":{"coordinates":[37.714255,55.757726],"type":"Point"},"properties":{"osm_id":"3970759553","tag":{"amenity":"waste_basket"}},"type":"Feature"},
	{"geometry":{"coordinates":[37.714347,55.75774],"type":"Point"},"properties":{"osm_id":"3970759858","tag":{"amenity":"waste_basket"}},"type":"Feature"},
	{"geometry":{"coordinates":[37.714346,55.757765],"type":"Point"},"properties":{"osm_id":"3970759862","tag":{"amenity":"waste_basket"}},"type":"Feature"},
	{"geometry":{"coordinates":[37.714309,55.757799],"type":"Point"},"properties":{"osm_id":"3970759870","tag":{"amenity":"waste_basket"}},"type":"Feature"},
	{"geometry":{"coordinates":[37.713224,55.758339],"type":"Point"},"properties":{"osm_id":"3970759915","tag":{"amenity":"waste_basket"}},"type":"Feature"},
	{"geometry":{"coordinates":[37.712422,55.758588],"type":"Point"},"properties":{"osm_id":"3970760064","tag":{"amenity":"waste_basket"}},"type":"Feature"},
	{"geometry":{"coordinates":[37.712483,55.758588],"type":"Point"},"properties":{"osm_id":"3970760065","tag":{"amenity":"waste_basket"}},"type":"Feature"},
	{"geometry":{"coordinates":[37.712533,55.75864],"type":"Point"},"properties":{"osm_id":"3970760093","tag":{"amenity":"waste_basket"}},"type":"Feature"},
	{"geometry":{"coordinates":[37.775979,55.752081],"type":"Point"},"properties":{"osm_id":"3973917577","tag":{"amenity":"waste_disposal"}},"type":"Feature"},
	{"geometry":{"coordinates":[37.7093,55.764138],"type":"Point"},"properties":{"osm_id":"3990287857","tag":{"amenity":"waste_disposal","waste":"trash"}},"type":"Feature"},
	{"geometry":{"coordinates":[37.714268,55.761786],"type":"Point"},"properties":{"osm_id":"4118762203","tag":{"amenity":"waste_disposal","waste":"trash"}},"type":"Feature"},
	{"geometry":{"coordinates":[37.716389,55.760546],"type":"Point"},"properties":{"osm_id":"4148702853","tag":{"amenity":"waste_disposal"}},"type":"Feature"},
	{"geometry":{"coordinates":[37.71831,55.76371],"type":"Point"},"properties":{"osm_id":"4165162189","tag":{"amenity":"waste_disposal"}},"type":"Feature"},
	{"geometry":{"coordinates":[37.776921,55.748161],"type":"Point"},"properties":{"osm_id":"4168652890","tag":{"amenity":"waste_disposal"}},"type":"Feature"},
	{"geometry":{"coordinates":[37.76772,55.753129],"type":"Point"},"properties":{"osm_id":"4177286494","tag":{"amenity":"waste_disposal"}},"type":"Feature"},
	{"geometry":{"coordinates":[37.717188,55.753512],"type":"Point"},"properties":{"osm_id":"4230154804","tag":{"amenity":"waste_basket"}},"type":"Feature"},
	{"geometry":{"coordinates":[37.717358,55.753452],"type":"Point"},"properties":{"osm_id":"4230156007","tag":{"amenity":"waste_basket"}},"type":"Feature"},
	{"geometry":{"coordinates":[37.717344,55.753486],"type":"Point"},"properties":{"osm_id":"4230163894","tag":{"amenity":"waste_basket"}},"type":"Feature"},
	{"geometry":{"coordinates":[37.717242,55.753522],"type":"Point"},"properties":{"osm_id":"4230165190","tag":{"amenity":"waste_basket"}},"type":"Feature"},
	{"geometry":{"coordinates":[37.716787,55.757483],"type":"Point"},"properties":{"osm_id":"4352227097","tag":{"amenity":"waste_basket"}},"type":"Feature"},
	{"geometry":{"coordinates":[37.716365,55.757152],"type":"Point"},"properties":{"osm_id":"4352227099","tag":{"amenity":"waste_basket"}},"type":"Feature"},
	{"geometry":{"coordinates":[37.716363,55.757132],"type":"Point"},"properties":{"osm_id":"4352227100","tag":{"amenity":"waste_basket"}},"type":"Feature"},
	{"geometry":{"coordinates":[37.752247,55.774846],"type":"Point"},"properties":{"osm_id":"4369662712","tag":{"amenity":"waste_disposal"}},"type":"Feature"},
	{"geometry":{"coordinates":[37.747933,55.774562],"type":"Point"},"properties":{"osm_id":"4369669262","tag":{"amenity":"waste_disposal"}},"type":"Feature"},
	{"geometry":{"coordinates":[37.714856,55.756208],"type":"Point"},"properties":{"osm_id":"4402088109","tag":{"amenity":"waste_disposal","waste":"trash"}},"type":"Feature"},
	{"geometry":{"coordinates":[37.705495,55.760096],"type":"Point"},"properties":{"osm_id":"4552452675","tag":{"amenity":"waste_basket"}},"type":"Feature"},
	{"geometry":{"coordinates":[37.705416,55.760031],"type":"Point"},"properties":{"osm_id":"4552452676","tag":{"amenity":"waste_basket"}},"type":"Feature"},
	{"geometry":{"coordinates":[37.705528,55.759934],"type":"Point"},"properties":{"osm_id":"4552452679","tag":{"amenity":"waste_basket"}},"type":"Feature"},
	{"geometry":{"coordinates":[37.705411,55.759977],"type":"Point"},"properties":{"osm_id":"4552452680","tag":{"amenity":"waste_basket"}},"type":"Feature"},
	{"geometry":{"coordinates":[37.705978,55.758798],"type":"Point"},"properties":{"osm_id":"4552452683","tag":{"amenity":"waste_basket"}},"type":"Feature"},
	{"geometry":{"coordinates":[37.706653,55.758597],"type":"Point"},"properties":{"osm_id":"4552453692","tag":{"amenity":"waste_basket"}},"type":"Feature"},
	{"geometry":{"coordinates":[37.706582,55.75862],"type":"Point"},"properties":{"osm_id":"4552453693","tag":{"amenity":"waste_basket"}},"type":"Feature"},
	{"geometry":{"coordinates":[37.782972,55.752884],"type":"Point"},"properties":{"osm_id":"4703365597","tag":{"amenity":"waste_basket"}},"type":"Feature"},
	{"geometry":{"coordinates":[37.782916,55.752875],"type":"Point"},"properties":{"osm_id":"4703365598","tag":{"amenity":"waste_basket"}},"type":"Feature"},
	{"geometry":{"coordinates":[37.782998,55.75284],"type":"Point"},"properties":{"osm_id":"4703365599","tag":{"amenity":"waste_basket"}},"type":"Feature"},
	{"geometry":{"coordinates":[37.782945,55.752831],"type":"Point"},"properties":{"osm_id":"4703365600","tag":{"amenity":"waste_basket"}},"type":"Feature"},
	{"geometry":{"coordinates":[37.782899,55.752905],"type":"Point"},"properties":{"osm_id":"4703365606","tag":{"amenity":"waste_basket"}},"type":"Feature"},
	{"geometry":{"coordinates":[37.782954,55.752916],"type":"Point"},"properties":{"osm_id":"4703365607","tag":{"amenity":"waste_basket"}},"type":"Feature"},
	{"geometry":{"coordinates":[37.782875,55.75295],"type":"Point"},"properties":{"osm_id":"4703365608","tag":{"amenity":"waste_basket"}},"type":"Feature"},
	{"geometry":{"coordinates":[37.782925,55.752959],"type":"Point"},"properties":{"osm_id":"4703365609","tag":{"amenity":"waste_basket"}},"type":"Feature"},
	{"geometry":{"coordinates":[37.789114,55.750666],"type":"Point"},"properties":{"osm_id":"4739909984","tag":{"amenity":"waste_disposal"}},"type":"Feature"},
	{"geometry":{"coordinates":[37.786097,55.751016],"type":"Point"},"properties":{"osm_id":"4759958325","tag":{"amenity":"waste_basket"}},"type":"Feature"},
	{"geometry":{"coordinates":[37.789168,55.773768],"type":"Point"},"properties":{"osm_id":"4935702429","tag":{"amenity":"waste_disposal"}},"type":"Feature"},
	{"geometry":{"coordinates":[37.785103,55.773788],"type":"Point"},"properties":{"osm_id":"4935702430","tag":{"amenity":"waste_disposal"}},"type":"Feature"},
	{"geometry":{"coordinates":[37.789178,55.77164],"type":"Point"},"properties":{"osm_id":"4935702432","tag":{"amenity":"waste_basket"}},"type":"Feature"},
	{"geometry":{"coordinates":[37.788977,55.747921],"type":"Point"},"properties":{"osm_id":"5049914906","tag":{"amenity":"waste_disposal"}},"type":"Feature"},
	{"geometry":{"coordinates":[37.788384,55.751293],"type":"Point"},"properties":{"osm_id":"5128231021","tag":{"amenity":"waste_basket"}},"type":"Feature"},
	{"geometry":{"coordinates":[37.790147,55.751288],"type":"Point"},"properties":{"osm_id":"5128557921","tag":{"amenity":"waste_disposal"}},"type":"Feature"},
	{"geometry":{"coordinates":[37.765226,55.737372],"type":"Point"},"properties":{"osm_id":"5209137833","tag":{"amenity":"recycling"}},"type":"Feature"},
	{"geometry":{"coordinates":[37.750883,55.769456],"type":"Point"},"properties":{"osm_id":"5794065156","tag":{"amenity":"waste_basket"}},"type":"Feature"},
	{"geometry":{"coordinates":[37.751025,55.769259],"type":"Point"},"properties":{"osm_id":"5794074753","tag":{"amenity":"waste_basket"}},"type":"Feature"},
	{"geometry":{"coordinates":[37.750723,55.769456],"type":"Point"},"properties":{"osm_id":"5794075053","tag":{"amenity":"waste_basket"}},"type":"Feature"},
	{"geometry":{"coordinates":[37.759211,55.773314],"type":"Point"},"properties":{"osm_id":"5800826242","tag":{"amenity":"waste_basket"}},"type":"Feature"},
	{"geometry":{"coordinates":[37.708456,55.77551],"type":"Point"},"properties":{"osm_id":"6060058519","tag":{"amenity":"waste_disposal","waste":"trash"}},"type":"Feature"},
	{"geometry":{"coordinates":[37.710468,55.77482],"type":"Point"},"properties":{"osm_id":"6060058520","tag":{"amenity":"waste_disposal","waste":"trash"}},"type":"Feature"},
	{"geometry":{"coordinates":[37.708167,55.775916],"type":"Point"},"properties":{"osm_id":"6060058521","tag":{"amenity":"waste_disposal","waste":"trash"}},"type":"Feature"},
	{"geometry":{"coordinates":[37.717613,55.764857],"type":"Point"},"properties":{"osm_id":"6088522163","tag":{"amenity":"waste_disposal"}},"type":"Feature"},
	{"geometry":{"coordinates":[37.739821,55.739926],"type":"Point"},"properties":{"osm_id":"6204209962","tag":{"amenity":"waste_disposal"}},"type":"Feature"},
	{"geometry":{"coordinates":[37.737971,55.741321],"type":"Point"},"properties":{"osm_id":"6204253792","tag":{"amenity":"waste_disposal"}},"type":"Feature"},
	{"geometry":{"coordinates":[37.71132,55.753102],"type":"Point"},"properties":{"osm_id":"6257464239","tag":{"amenity":"waste_basket"}},"type":"Feature"},
	{"geometry":{"coordinates":[37.716155,55.748279],"type":"Point"},"properties":{"osm_id":"6396971286","tag":{"amenity":"waste_disposal"}},"type":"Feature"},
	{"geometry":{"coordinates":[37.717272,55.749173],"type":"Point"},"properties":{"osm_id":"6397009288","tag":{"amenity":"waste_basket"}},"type":"Feature"},
	{"geometry":{"coordinates":[37.719387,55.747698],"type":"Point"},"properties":{"osm_id":"6397020285","tag":{"amenity":"waste_basket"}},"type":"Feature"},
	{"geometry":{"coordinates":[37.717723,55.748243],"type":"Point"},"properties":{"osm_id":"6397221809","tag":{"amenity":"waste_basket"}},"type":"Feature"},
	{"geometry":{"coordinates":[37.717449,55.748533],"type":"Point"},"properties":{"osm_id":"6397221811","tag":{"amenity":"waste_basket"}},"type":"Feature"},
	{"geometry":{"coordinates":[37.717387,55.748629],"type":"Point"},"properties":{"osm_id":"6397221812","tag":{"amenity":"waste_basket"}},"type":"Feature"},
	{"geometry":{"coordinates":[37.717301,55.748762],"type":"Point"},"properties":{"osm_id":"6397221813","tag":{"amenity":"waste_basket"}},"type":"Feature"},
	{"geometry":{"coordinates":[37.717225,55.748877],"type":"Point"},"properties":{"osm_id":"6397221818","tag":{"amenity":"waste_basket"}},"type":"Feature"},
	{"geometry":{"coordinates":[37.717155,55.748986],"type":"Point"},"properties":{"osm_id":"6397221819","tag":{"amenity":"waste_basket"}},"type":"Feature"},
	{"geometry":{"coordinates":[37.715399,55.748414],"type":"Point"},"properties":{"osm_id":"6402483200","tag":{"amenity":"waste_basket"}},"type":"Feature"},
	{"geometry":{"coordinates":[37.715366,55.748504],"type":"Point"},"properties":{"osm_id":"6402483202","tag":{"amenity":"waste_basket"}},"type":"Feature"},
	{"geometry":{"coordinates":[37.71527,55.748601],"type":"Point"},"properties":{"osm_id":"6402483203","tag":{"amenity":"waste_basket"}},"type":"Feature"},
	{"geometry":{"coordinates":[37.715226,55.748675],"type":"Point"},"properties":{"osm_id":"6402483205","tag":{"amenity":"waste_basket"}},"type":"Feature"},
	{"geometry":{"coordinates":[37.715413,55.74873],"type":"Point"},"properties":{"osm_id":"6402483207","tag":{"amenity":"waste_basket"}},"type":"Feature"},
	{"geometry":{"coordinates":[37.715673,55.748799],"type":"Point"},"properties":{"osm_id":"6402483209","tag":{"amenity":"waste_basket"}},"type":"Feature"},
	{"geometry":{"coordinates":[37.715122,55.749082],"type":"Point"},"properties":{"osm_id":"6402515057","tag":{"amenity":"waste_basket"}},"type":"Feature"},
	{"geometry":{"coordinates":[37.715434,55.749144],"type":"Point"},"properties":{"osm_id":"6402515058","tag":{"amenity":"waste_basket"}},"type":"Feature"},
	{"geometry":{"coordinates":[37.78532,55.750335],"type":"Point"},"properties":{"osm_id":"6524685853","tag":{"amenity":"recycling","recycling:glass":"yes","recycling:plastic":"yes","recycling_type":"container"}},"type":"Feature"},
	{"geometry":{"coordinates":[37.706404,55.776348],"type":"Point"},"properties":{"osm_id":"6899006718","tag":{"amenity":"waste_disposal"}},"type":"Feature"},
	{"geometry":{"coordinates":[37.792315,55.751475],"type":"Point"},"properties":{"osm_id":"7134069586","tag":{"amenity":"recycling","recycling:glass":"yes","recycling:plastic":"yes","recycling_type":"container"}},"type":"Feature"},
	{"geometry":{"coordinates":[37.769381,55.727723],"type":"Point"},"properties":{"osm_id":"7766434290","tag":{"amenity":"waste_disposal"}},"type":"Feature"},
	{"geometry":{"coordinates":[37.768303,55.730951],"type":"Point"},"properties":{"osm_id":"7766434324","tag":{"amenity":"waste_disposal"}},"type":"Feature"},
	{"geometry":{"coordinates":[37.766503,55.729293],"type":"Point"},"properties":{"osm_id":"7766434325","tag":{"amenity":"waste_disposal"}},"type":"Feature"},
	{"geometry":{"coordinates":[37.768732,55.729037],"type":"Point"},"properties":{"osm_id":"7766894681","tag":{"amenity":"waste_disposal"}},"type":"Feature"},
	{"geometry":{"coordinates":[37.77164,55.729076],"type":"Point"},"properties":{"osm_id":"7767142292","tag":{"amenity":"waste_disposal"}},"type":"Feature"},
	{"geometry":{"coordinates":[37.770706,55.727455],"type":"Point"},"properties":{"osm_id":"7767142293","tag":{"amenity":"waste_disposal"}},"type":"Feature"},
	{"geometry":{"coordinates":[37.775313,55.729894],"type":"Point"},"properties":{"osm_id":"7866485664","tag":{"amenity":"recycling","operator":"\u00d0\u0093\u00d0\u00a3\u00d0\u009f \u00d0\u00ad\u00d0\u00ba\u00d0\u00be\u00d1\u0082\u00d0\u00b5\u00d1\u0085\u00d0\u00bf\u00d1\u0080\u00d0\u00be\u00d0\u00bc","recycling:glass":"yes","recycling:plastic":"yes","recycling_type":"container"}},"type":"Feature"}
]
}
