{
"type": "FeatureCollection",
"features": [
	{"geometry":{"coordinates":[37.783248,55.700159],"type":"Point"},"properties":{"osm_id":"766691788","tag":{"amenity":"waste_disposal"}},"type":"Feature"},
	{"geometry":{"coordinates":[37.72917,55.691134],"type":"Point"},"properties":{"osm_id":"1024913598","tag":{"amenity":"recycling"}},"type":"Feature"},
	{"geometry":{"coordinates":[37.750245,55.698637],"type":"Point"},"properties":{"osm_id":"2268520557","tag":{"amenity":"waste_disposal"}},"type":"Feature"},
	{"geometry":{"coordinates":[37.732203,55.689242],"type":"Point"},"properties":{"osm_id":"2414812944","tag":{"amenity":"recycling"}},"type":"Feature"},
	{"geometry":{"coordinates":[37.732344,55.688315],"type":"Point"},"properties":{"osm_id":"2414813152","tag":{"amenity":"recycling"}},"type":"Feature"},
	{"geometry":{"coordinates":[37.728884,55.681629],"type":"Point"},"properties":{"osm_id":"2559663374","tag":{"amenity":"recycling"}},"type":"Feature"},
	{"geometry":{"coordinates":[37.743173,55.679167],"type":"Point"},"properties":{"osm_id":"2620176767","tag":{"amenity":"waste_disposal"}},"type":"Feature"},
	{"geometry":{"coordinates":[37.742917,55.695059],"type":"Point"},"properties":{"osm_id":"3217045358","tag":{"amenity":"recycling"}},"type":"Feature"},
	{"geometry":{"coordinates":[37.742531,55.694567],"type":"Point"},"properties":{"osm_id":"3217045877","tag":{"amenity":"recycling"}},"type":"Feature"},
	{"geometry":{"coordinates":[37.777467,55.715376],"type":"Point"},"properties":{"osm_id":"3256805364","tag":{"amenity":"waste_disposal"}},"type":"Feature"},
	{"geometry":{"coordinates":[37.780918,55.716056],"type":"Point"},"properties":{"osm_id":"3256805366","tag":{"amenity":"waste_disposal"}},"type":"Feature"},
	{"geometry":{"coordinates":[37.772176,55.709049],"type":"Point"},"properties":{"osm_id":"3300107512","tag":{"amenity":"waste_disposal"}},"type":"Feature"},
	{"geometry":{"coordinates":[37.769654,55.707033],"type":"Point"},"properties":{"osm_id":"3329603870","tag":{"amenity":"waste_disposal"}},"type":"Feature"},
	{"geometry":{"coordinates":[37.780939,55.71375],"type":"Point"},"properties":{"osm_id":"3550722044","tag":{"amenity":"waste_disposal"}},"type":"Feature"},
	{"geometry":{"coordinates":[37.786028,55.718299],"type":"Point"},"properties":{"osm_id":"3706072763","tag":{"amenity":"waste_basket"}},"type":"Feature"},
	{"geometry":{"coordinates":[37.792583,55.716249],"type":"Point"},"properties":{"osm_id":"3728248085","tag":{"amenity":"waste_basket"}},"type":"Feature"},
	{"geometry":{"coordinates":[37.79295,55.716257],"type":"Point"},"properties":{"osm_id":"3728248087","tag":{"amenity":"waste_basket"}},"type":"Feature"},
	{"geometry":{"coordinates":[37.79286,55.716276],"type":"Point"},"properties":{"osm_id":"3728248090","tag":{"amenity":"waste_basket"}},"type":"Feature"},
	{"geometry":{"coordinates":[37.792592,55.716287],"type":"Point"},"properties":{"osm_id":"3728248091","tag":{"amenity":"waste_basket"}},"type":"Feature"},
	{"geometry":{"coordinates":[37.792764,55.716297],"type":"Point"},"properties":{"osm_id":"3728248092","tag":{"amenity":"waste_basket"}},"type":"Feature"},
	{"geometry":{"coordinates":[37.792691,55.716313],"type":"Point"},"properties":{"osm_id":"3728248093","tag":{"amenity":"waste_basket"}},"type":"Feature"},
	{"geometry":{"coordinates":[37.792695,55.716322],"type":"Point"},"properties":{"osm_id":"3728654737","tag":{"amenity":"waste_basket"}},"type":"Feature"},
	{"geometry":{"coordinates":[37.792423,55.716577],"type":"Point"},"properties":{"osm_id":"3737540825","tag":{"amenity":"waste_basket"}},"type":"Feature"},
	{"geometry":{"coordinates":[37.792433,55.716601],"type":"Point"},"properties":{"osm_id":"3737540925","tag":{"amenity":"waste_basket"}},"type":"Feature"},
	{"geometry":{"coordinates":[37.728981,55.705491],"type":"Point"},"properties":{"osm_id":"3778487599","tag":{"amenity":"waste_disposal"}},"type":"Feature"},
	{"geometry":{"coordinates":[37.728996,55.705409],"type":"Point"},"properties":{"osm_id":"3778487600","tag":{"amenity":"waste_disposal"}},"type":"Feature"},
	{"geometry":{"coordinates":[37.729,55.705323],"type":"Point"},"properties":{"osm_id":"3778487601","tag":{"amenity":"waste_disposal"}},"type":"Feature"},
	{"geometry":{"coordinates":[37.728722,55.705346],"type":"Point"},"properties":{"osm_id":"3778498262","tag":{"addr:city":"\u00d0\u009c\u00d0\u00be\u00d1\u0081\u00d0\u00ba\u00d0\u00b2\u00d0\u00b0","amenity":"recycling","recycling:paper":"yes","recycling:plastic":"yes","recycling_type":"centre"}},"type":"Feature"},
	{"geometry":{"coordinates":[37.730105,55.705946],"type":"Point"},"properties":{"osm_id":"3778527294","tag":{"amenity":"waste_disposal"}},"type":"Feature"},
	{"geometry":{"coordinates":[37.730132,55.706014],"type":"Point"},"properties":{"osm_id":"3778527295","tag":{"addr:city":"\u00d0\u009c\u00d0\u00be\u00d1\u0081\u00d0\u00ba\u00d0\u00b2\u00d0\u00b0","amenity":"recycling","recycling:paper":"yes","recycling_type":"container"}},"type":"Feature"},
	{"geometry":{"coordinates":[37.771432,55.701775],"type":"Point"},"properties":{"osm_id":"3860456892","tag":{"amenity":"waste_disposal"}},"type":"Feature"},
	{"geometry":{"coordinates":[37.788309,55.686133],"type":"Point"},"properties":{"osm_id":"4157133592","tag":{"amenity":"waste_disposal"}},"type":"Feature"},
	{"geometry":{"coordinates":[37.745033,55.717461],"type":"Point"},"properties":{"osm_id":"4158317396","tag":{"amenity":"waste_basket"}},"type":"Feature"},
	{"geometry":{"coordinates":[37.744531,55.718685],"type":"Point"},"properties":{"osm_id":"4158317994","tag":{"amenity":"waste_basket"}},"type":"Feature"},
	{"geometry":{"coordinates":[37.744639,55.718542],"type":"Point"},"properties":{"osm_id":"4158317995","tag":{"amenity":"waste_basket"}},"type":"Feature"},
	{"geometry":{"coordinates":[37.748255,55.718047],"type":"Point"},"properties":{"osm_id":"4158317997","tag":{"amenity":"waste_disposal","waste":"trash"}},"type":"Feature"},
	{"geometry":{"coordinates":[37.744871,55.717695],"type":"Point"},"properties":{"osm_id":"4158317999","tag":{"amenity":"waste_basket"}},"type":"Feature"},
	{"geometry":{"coordinates":[37.744728,55.717915],"type":"Point"},"properties":{"osm_id":"4158353092","tag":{"amenity":"waste_basket"}},"type":"Feature"},
	{"geometry":{"coordinates":[37.779049,55.695416],"type":"Point"},"properties":{"osm_id":"4226584491","tag":{"amenity":"waste_basket"}},"type":"Feature"},
	{"geometry":{"coordinates":[37.780775,55.694658],"type":"Point"},"properties":{"osm_id":"4226584494","tag":{"amenity":"waste_basket"}},"type":"Feature"},
	{"geometry":{"coordinates":[37.779815,55.694983],"type":"Point"},"properties":{"osm_id":"4226589502","tag":{"amenity":"waste_basket"}},"type":"Feature"},
	{"geometry":{"coordinates":[37.785075,55.690146],"type":"Point"},"properties":{"osm_id":"4226589696","tag":{"amenity":"waste_basket"}},"type":"Feature"},
	{"geometry":{"coordinates":[37.783349,55.690104],"type":"Point"},"properties":{"osm_id":"4226594890","tag":{"amenity":"waste_basket"}},"type":"Feature"},
	{"geometry":{"coordinates":[37.777521,55.698699],"type":"Point"},"properties":{"osm_id":"4226734790","tag":{"amenity":"waste_basket"}},"type":"Feature"},
	{"geometry":{"coordinates":[37.785148,55.712043],"type":"Point"},"properties":{"osm_id":"4232393586","tag":{"amenity":"waste_disposal"}},"type":"Feature"},
	{"geometry":{"coordinates":[37.783946,55.71167],"type":"Point"},"properties":{"osm_id":"4241278598","tag":{"amenity":"waste_disposal"}},"type":"Feature"},
	{"geometry":{"coordinates":[37.76111,55.689059],"type":"Point"},"properties":{"osm_id":"4250503819","tag":{"amenity":"waste_disposal"}},"type":"Feature"},
	{"geometry":{"coordinates":[37.742887,55.709476],"type":"Point"},"properties":{"osm_id":"4284112424","tag":{"amenity":"waste_basket"}},"type":"Feature"},
	{"geometry":{"coordinates":[37.742987,55.709476],"type":"Point"},"properties":{"osm_id":"4284112425","tag":{"amenity":"waste_basket"}},"type":"Feature"},
	{"geometry":{"coordinates":[37.744442,55.713584],"type":"Point"},"properties":{"osm_id":"4285689464","tag":{"amenity":"waste_basket"}},"type":"Feature"},
	{"geometry":{"coordinates":[37.744342,55.713785],"type":"Point"},"properties":{"osm_id":"4285689469","tag":{"amenity":"waste_basket"}},"type":"Feature"},
	{"geometry":{"coordinates":[37.744264,55.713786],"type":"Point"},"properties":{"osm_id":"4285689470","tag":{"amenity":"waste_basket"}},"type":"Feature"},
	{"geometry":{"coordinates":[37.744213,55.713813],"type":"Point"},"properties":{"osm_id":"4285689473","tag":{"amenity":"waste_basket"}},"type":"Feature"},
	{"geometry":{"coordinates":[37.744199,55.713844],"type":"Point"},"properties":{"osm_id":"4285689475","tag":{"amenity":"waste_basket"}},"type":"Feature"},
	{"geometry":{"coordinates":[37.744256,55.713927],"type":"Point"},"properties":{"osm_id":"4285689481","tag":{"amenity":"waste_basket"}},"type":"Feature"},
	{"geometry":{"coordinates":[37.743971,55.714128],"type":"Point"},"properties":{"osm_id":"4285689488","tag":{"amenity":"waste_basket"}},"type":"Feature"},
	{"geometry":{"coordinates":[37.744138,55.714148],"type":"Point"},"properties":{"osm_id":"4285689492","tag":{"amenity":"waste_basket"}},"type":"Feature"},
	{"geometry":{"coordinates":[37.743954,55.714202],"type":"Point"},"properties":{"osm_id":"4285689498","tag":{"amenity":"waste_basket"}},"type":"Feature"},
	{"geometry":{"coordinates":[37.744105,55.714218],"type":"Point"},"properties":{"osm_id":"4285689502","tag":{"amenity":"waste_basket"}},"type":"Feature"},
	{"geometry":{"coordinates":[37.74258,55.714254],"type":"Point"},"properties":{"osm_id":"4285689508","tag":{"amenity":"waste_disposal","waste":"trash"}},"type":"Feature"},
	{"geometry":{"coordinates":[37.744204,55.714255],"type":"Point"},"properties":{"osm_id":"4285689509","tag":{"amenity":"waste_basket"}},"type":"Feature"},
	{"geometry":{"coordinates":[37.744025,55.714405],"type":"Point"},"properties":{"osm_id":"4285689520","tag":{"amenity":"waste_basket"}},"type":"Feature"},
	{"geometry":{"coordinates":[37.743944,55.714553],"type":"Point"},"properties":{"osm_id":"4285689526","tag":{"amenity":"waste_basket"}},"type":"Feature"},
	{"geometry":{"coordinates":[37.744181,55.714578],"type":"Point"},"properties":{"osm_id":"4285689529","tag":{"amenity":"waste_basket"}},"type":"Feature"},
	{"geometry":{"coordinates":[37.746005,55.710776],"type":"Point"},"properties":{"osm_id":"4298058758","tag":{"amenity":"waste_basket"}},"type":"Feature"},
	{"geometry":{"coordinates":[37.745969,55.711129],"type":"Point"},"properties":{"osm_id":"4298058762","tag":{"amenity":"waste_basket"}},"type":"Feature"},
	{"geometry":{"coordinates":[37.745769,55.711632],"type":"Point"},"properties":{"osm_id":"4298058768","tag":{"amenity":"waste_basket"}},"type":"Feature"},
	{"geometry":{"coordinates":[37.744328,55.714943],"type":"Point"},"properties":{"osm_id":"4298059354","tag":{"amenity":"waste_basket"}},"type":"Feature"},
	{"geometry":{"coordinates":[37.744285,55.715008],"type":"Point"},"properties":{"osm_id":"4298059357","tag":{"amenity":"waste_basket"}},"type":"Feature"},
	{"geometry":{"coordinates":[37.744239,55.715083],"type":"Point"},"properties":{"osm_id":"4298059361","tag":{"amenity":"waste_basket"}},"type":"Feature"},
	{"geometry":{"coordinates":[37.7442,55.715154],"type":"Point"},"properties":{"osm_id":"4298059372","tag":{"amenity":"waste_basket"}},"type":"Feature"},
	{"geometry":{"coordinates":[37.742419,55.716875],"type":"Point"},"properties":{"osm_id":"4298059402","tag":{"amenity":"waste_basket"}},"type":"Feature"},
	{"geometry":{"coordinates":[37.742908,55.717113],"type":"Point"},"properties":{"osm_id":"4298059418","tag":{"amenity":"waste_basket"}},"type":"Feature"},
	{"geometry":{"coordinates":[37.742174,55.717225],"type":"Point"},"properties":{"osm_id":"4298059424","tag":{"amenity":"waste_basket"}},"type":"Feature"},
	{"geometry":{"coordinates":[37.741284,55.719541],"type":"Point"},"properties":{"osm_id":"4298059693","tag":{"amenity":"waste_basket"}},"type":"Feature"},
	{"geometry":{"coordinates":[37.740797,55.719613],"type":"Point"},"properties":{"osm_id":"4298059697","tag":{"amenity":"waste_basket"}},"type":"Feature"},
	{"geometry":{"coordinates":[37.741037,55.719691],"type":"Point"},"properties":{"osm_id":"4298059709","tag":{"amenity":"waste_basket"}},"type":"Feature"},
	{"geometry":{"coordinates":[37.740641,55.719774],"type":"Point"},"properties":{"osm_id":"4298059719","tag":{"amenity":"waste_basket"}},"type":"Feature"},
	{"geometry":{"coordinates":[37.740929,55.719844],"type":"Point"},"properties":{"osm_id":"4298059734","tag":{"amenity":"waste_basket"}},"type":"Feature"},
	{"geometry":{"coordinates":[37.783251,55.709949],"type":"Point"},"properties":{"osm_id":"4339694903","tag":{"amenity":"waste_disposal"}},"type":"Feature"},
	{"geometry":{"coordinates":[37.773917,55.712498],"type":"Point"},"properties":{"osm_id":"4402777406","tag":{"amenity":"waste_disposal"}},"type":"Feature"},
	{"geometry":{"coordinates":[37.790725,55.710506],"type":"Point"},"properties":{"osm_id":"4533656594","tag":{"amenity":"waste_disposal"}},"type":"Feature"},
	{"geometry":{"coordinates":[37.750762,55.702877],"type":"Point"},"properties":{"osm_id":"4550463112","tag":{"amenity":"waste_disposal"}},"type":"Feature"},
	{"geometry":{"coordinates":[37.738225,55.712373],"type":"Point"},"properties":{"osm_id":"4558110190","tag":{"amenity":"waste_disposal"}},"type":"Feature"},
	{"geometry":{"coordinates":[37.741284,55.715055],"type":"Point"},"properties":{"osm_id":"4558489137","tag":{"amenity":"waste_disposal"}},"type":"Feature"},
	{"geometry":{"coordinates":[37.742261,55.710733],"type":"Point"},"properties":{"osm_id":"4643660390","tag":{"amenity":"waste_disposal"}},"type":"Feature"},
	{"geometry":{"coordinates":[37.786468,55.71932],"type":"Point"},"properties":{"osm_id":"4809411939","tag":{"amenity":"waste_basket"}},"type":"Feature"},
	{"geometry":{"coordinates":[37.786358,55.719403],"type":"Point"},"properties":{"osm_id":"4809411940","tag":{"amenity":"waste_basket"}},"type":"Feature"},
	{"geometry":{"coordinates":[37.719926,55.693415],"type":"Point"},"properties":{"osm_id":"4904785622","tag":{"amenity":"waste_disposal"}},"type":"Feature"},
	{"geometry":{"coordinates":[37.787831,55.690807],"type":"Point"},"properties":{"osm_id":"4988049622","tag":{"amenity":"waste_disposal"}},"type":"Feature"},
	{"geometry":{"coordinates":[37.787779,55.691813],"type":"Point"},"properties":{"osm_id":"4988069023","tag":{"amenity":"waste_basket"}},"type":"Feature"},
	{"geometry":{"coordinates":[37.78846,55.691613],"type":"Point"},"properties":{"osm_id":"4988069024","tag":{"amenity":"waste_basket"}},"type":"Feature"},
	{"geometry":{"coordinates":[37.750108,55.69156],"type":"Point"},"properties":{"osm_id":"5062951147","tag":{"amenity":"waste_basket"}},"type":"Feature"},
	{"geometry":{"coordinates":[37.749407,55.691832],"type":"Point"},"properties":{"osm_id":"5062951150","tag":{"amenity":"waste_basket"}},"type":"Feature"},
	{"geometry":{"coordinates":[37.723476,55.690789],"type":"Point"},"properties":{"osm_id":"5129216021","tag":{"amenity":"waste_disposal"}},"type":"Feature"},
	{"geometry":{"coordinates":[37.790061,55.722221],"type":"Point"},"properties":{"osm_id":"5335382804","tag":{"amenity":"waste_disposal"}},"type":"Feature"},
	{"geometry":{"coordinates":[37.740461,55.695507],"type":"Point"},"properties":{"osm_id":"5340629822","tag":{"amenity":"waste_disposal"}},"type":"Feature"},
	{"geometry":{"coordinates":[37.785277,55.689537],"type":"Point"},"properties":{"osm_id":"5406278571","tag":{"amenity":"waste_basket"}},"type":"Feature"},
	{"geometry":{"coordinates":[37.785262,55.689404],"type":"Point"},"properties":{"osm_id":"5406278572","tag":{"amenity":"waste_basket"}},"type":"Feature"},
	{"geometry":{"coordinates":[37.761749,55.706576],"type":"Point"},"properties":{"osm_id":"5473211317","tag":{"amenity":"waste_disposal"}},"type":"Feature"},
	{"geometry":{"coordinates":[37.783413,55.701078],"type":"Point"},"properties":{"osm_id":"5798397172","tag":{"amenity":"waste_disposal"}},"type":"Feature"},
	{"geometry":{"coordinates":[37.781271,55.701549],"type":"Point"},"properties":{"osm_id":"5798608264","tag":{"amenity":"waste_disposal"}},"type":"Feature"},
	{"geometry":{"coordinates":[37.78469,55.699905],"type":"Point"},"properties":{"osm_id":"5798608265","tag":{"amenity":"waste_disposal"}},"type":"Feature"},
	{"geometry":{"coordinates":[37.744522,55.696074],"type":"Point"},"properties":{"osm_id":"5892811010","tag":{"amenity":"waste_disposal"}},"type":"Feature"},
	{"geometry":{"coordinates":[37.774223,55.720343],"type":"Point"},"properties":{"osm_id":"6041254127","tag":{"amenity":"waste_disposal"}},"type":"Feature"},
	{"geometry":{"coordinates":[37.756248,55.677899],"type":"Point"},"properties":{"osm_id":"6050938188","tag":{"amenity":"waste_basket"}},"type":"Feature"},
	{"geometry":{"coordinates":[37.753822,55.679618],"type":"Point"},"properties":{"osm_id":"6050938200","tag":{"amenity":"waste_basket"}},"type":"Feature"},
	{"geometry":{"coordinates":[37.754607,55.680748],"type":"Point"},"properties":{"osm_id":"6050938203","tag":{"amenity":"waste_basket"}},"type":"Feature"},
	{"geometry":{"coordinates":[37.757524,55.687629],"type":"Point"},"properties":{"osm_id":"6050938217","tag":{"amenity":"waste_basket"}},"type":"Feature"},
	{"geometry":{"coordinates":[37.755282,55.689688],"type":"Point"},"properties":{"osm_id":"6050938218","tag":{"amenity":"waste_basket"}},"type":"Feature"},
	{"geometry":{"coordinates":[37.759511,55.689043],"type":"Point"},"properties":{"osm_id":"6050977010","tag":{"amenity":"waste_basket"}},"type":"Feature"},
	{"geometry":{"coordinates":[37.764494,55.685326],"type":"Point"},"properties":{"osm_id":"6050984288","tag":{"amenity":"waste_basket"}},"type":"Feature"},
	{"geometry":{"coordinates":[37.761486,55.68724],"type":"Point"},"properties":{"osm_id":"6050984398","tag":{"amenity":"waste_basket"}},"type":"Feature"},
	{"geometry":{"coordinates":[37.761166,55.688317],"type":"Point"},"properties":{"osm_id":"6050995885","tag":{"amenity":"waste_basket"}},"type":"Feature"},
	{"geometry":{"coordinates":[37.754102,55.686878],"type":"Point"},"properties":{"osm_id":"6051343119","tag":{"amenity":"waste_basket"}},"type":"Feature"},
	{"geometry":{"coordinates":[37.756644,55.69045],"type":"Point"},"properties":{"osm_id":"6051343130","tag":{"amenity":"waste_basket"}},"type":"Feature"},
	{"geometry":{"coordinates":[37.758758,55.689774],"type":"Point"},"properties":{"osm_id":"6051343132","tag":{"amenity":"waste_basket"}},"type":"Feature"},
	{"geometry":{"coordinates":[37.760098,55.689613],"type":"Point"},"properties":{"osm_id":"6051343136","tag":{"amenity":"waste_basket"}},"type":"Feature"},
	{"geometry":{"coordinates":[37.757417,55.689708],"type":"Point"},"properties":{"osm_id":"6051343137","tag":{"amenity":"waste_basket"}},"type":"Feature"},
	{"geometry":{"coordinates":[37.756569,55.689933],"type":"Point"},"properties":{"osm_id":"6051343138","tag":{"amenity":"waste_basket"}},"type":"Feature"},
	{"geometry":{"coordinates":[37.756717,55.689895],"type":"Point"},"properties":{"osm_id":"6051343140","tag":{"amenity":"waste_basket"}},"type":"Feature"},
	{"geometry":{"coordinates":[37.75687,55.689858],"type":"Point"},"properties":{"osm_id":"6051343142","tag":{"amenity":"waste_basket"}},"type":"Feature"},
	{"geometry":{"coordinates":[37.760428,55.688954],"type":"Point"},"properties":{"osm_id":"6051343145","tag":{"amenity":"waste_basket"}},"type":"Feature"},
	{"geometry":{"coordinates":[37.761498,55.688668],"type":"Point"},"properties":{"osm_id":"6051343147","tag":{"amenity":"waste_basket"}},"type":"Feature"},
	{"geometry":{"coordinates":[37.764557,55.685409],"type":"Point"},"properties":{"osm_id":"6051343839","tag":{"amenity":"waste_basket"}},"type":"Feature"},
	{"geometry":{"coordinates":[37.764474,55.685426],"type":"Point"},"properties":{"osm_id":"6051343841","tag":{"amenity":"waste_basket"}},"type":"Feature"},
	{"geometry":{"coordinates":[37.76442,55.68534],"type":"Point"},"properties":{"osm_id":"6051343843","tag":{"amenity":"waste_basket"}},"type":"Feature"},
	{"geometry":{"coordinates":[37.752895,55.684698],"type":"Point"},"properties":{"osm_id":"6051360243","tag":{"amenity":"waste_basket"}},"type":"Feature"},
	{"geometry":{"coordinates":[37.752783,55.684544],"type":"Point"},"properties":{"osm_id":"6051360244","tag":{"amenity":"waste_basket"}},"type":"Feature"},
	{"geometry":{"coordinates":[37.752672,55.684391],"type":"Point"},"properties":{"osm_id":"6051360245","tag":{"amenity":"waste_basket"}},"type":"Feature"},
	{"geometry":{"coordinates":[37.752561,55.684236],"type":"Point"},"properties":{"osm_id":"6051360246","tag":{"amenity":"waste_basket"}},"type":"Feature"},
	{"geometry":{"coordinates":[37.752785,55.686317],"type":"Point"},"properties":{"osm_id":"6051360255","tag":{"amenity":"waste_basket"}},"type":"Feature"},
	{"geometry":{"coordinates":[37.752669,55.686164],"type":"Point"},"properties":{"osm_id":"6051360257","tag":{"amenity":"waste_basket"}},"type":"Feature"},
	{"geometry":{"coordinates":[37.752552,55.686012],"type":"Point"},"properties":{"osm_id":"6051360259","tag":{"amenity":"waste_basket"}},"type":"Feature"},
	{"geometry":{"coordinates":[37.752438,55.68586],"type":"Point"},"properties":{"osm_id":"6051360261","tag":{"amenity":"waste_basket"}},"type":"Feature"},
	{"geometry":{"coordinates":[37.752329,55.685712],"type":"Point"},"properties":{"osm_id":"6051360263","tag":{"amenity":"waste_basket"}},"type":"Feature"},
	{"geometry":{"coordinates":[37.752216,55.68556],"type":"Point"},"properties":{"osm_id":"6051360265","tag":{"amenity":"waste_basket"}},"type":"Feature"},
	{"geometry":{"coordinates":[37.752102,55.685409],"type":"Point"},"properties":{"osm_id":"6051360267","tag":{"amenity":"waste_basket"}},"type":"Feature"},
	{"geometry":{"coordinates":[37.751992,55.685257],"type":"Point"},"properties":{"osm_id":"6051360269","tag":{"amenity":"waste_basket"}},"type":"Feature"},
	{"geometry":{"coordinates":[37.753795,55.683695],"type":"Point"},"properties":{"osm_id":"6051368370","tag":{"amenity":"waste_basket"}},"type":"Feature"},
	{"geometry":{"coordinates":[37.753257,55.683823],"type":"Point"},"properties":{"osm_id":"6051368371","tag":{"amenity":"waste_basket"}},"type":"Feature"},
	{"geometry":{"coordinates":[37.752988,55.683883],"type":"Point"},"properties":{"osm_id":"6051368372","tag":{"amenity":"waste_basket"}},"type":"Feature"},
	{"geometry":{"coordinates":[37.754325,55.683551],"type":"Point"},"properties":{"osm_id":"6051368373","tag":{"amenity":"waste_basket"}},"type":"Feature"},
	{"geometry":{"coordinates":[37.753442,55.678458],"type":"Point"},"properties":{"osm_id":"6051527537","tag":{"amenity":"waste_basket"}},"type":"Feature"},
	{"geometry":{"coordinates":[37.753417,55.678602],"type":"Point"},"properties":{"osm_id":"6051527538","tag":{"amenity":"waste_basket"}},"type":"Feature"},
	{"geometry":{"coordinates":[37.753395,55.678753],"type":"Point"},"properties":{"osm_id":"6051527539","tag":{"amenity":"waste_basket"}},"type":"Feature"},
	{"geometry":{"coordinates":[37.753359,55.678906],"type":"Point"},"properties":{"osm_id":"6051527540","tag":{"amenity":"waste_basket"}},"type":"Feature"},
	{"geometry":{"coordinates":[37.753967,55.679625],"type":"Point"},"properties":{"osm_id":"6051527541","tag":{"amenity":"waste_basket"}},"type":"Feature"},
	{"geometry":{"coordinates":[37.753902,55.679487],"type":"Point"},"properties":{"osm_id":"6051527542","tag":{"amenity":"waste_basket"}},"type":"Feature"},
	{"geometry":{"coordinates":[37.753845,55.679354],"type":"Point"},"properties":{"osm_id":"6051527543","tag":{"amenity":"waste_basket"}},"type":"Feature"},
	{"geometry":{"coordinates":[37.753805,55.679223],"type":"Point"},"properties":{"osm_id":"6051527544","tag":{"amenity":"waste_basket"}},"type":"Feature"},
	{"geometry":{"coordinates":[37.756652,55.682098],"type":"Point"},"properties":{"osm_id":"6051527574","tag":{"amenity":"waste_basket"}},"type":"Feature"},
	{"geometry":{"coordinates":[37.756725,55.682089],"type":"Point"},"properties":{"osm_id":"6051527575","tag":{"amenity":"waste_basket"}},"type":"Feature"},
	{"geometry":{"coordinates":[37.756804,55.68208],"type":"Point"},"properties":{"osm_id":"6051527576","tag":{"amenity":"waste_basket"}},"type":"Feature"},
	{"geometry":{"coordinates":[37.756902,55.682063],"type":"Point"},"properties":{"osm_id":"6051527577","tag":{"amenity":"waste_basket"}},"type":"Feature"},
	{"geometry":{"coordinates":[37.756893,55.682042],"type":"Point"},"properties":{"osm_id":"6051527578","tag":{"amenity":"waste_basket"}},"type":"Feature"},
	{"geometry":{"coordinates":[37.756574,55.681899],"type":"Point"},"properties":{"osm_id":"6051527579","tag":{"amenity":"waste_basket"}},"type":"Feature"},
	{"geometry":{"coordinates":[37.756645,55.681892],"type":"Point"},"properties":{"osm_id":"6051527580","tag":{"amenity":"waste_basket"}},"type":"Feature"},
	{"geometry":{"coordinates":[37.756727,55.681883],"type":"Point"},"properties":{"osm_id":"6051527581","tag":{"amenity":"waste_basket"}},"type":"Feature"},
	{"geometry":{"coordinates":[37.756847,55.681861],"type":"Point"},"properties":{"osm_id":"6051527582","tag":{"amenity":"waste_basket"}},"type":"Feature"},
	{"geometry":{"coordinates":[37.756854,55.681881],"type":"Point"},"properties":{"osm_id":"6051527583","tag":{"amenity":"waste_basket"}},"type":"Feature"},
	{"geometry":{"coordinates":[37.753091,55.680828],"type":"Point"},"properties":{"osm_id":"6051628422","tag":{"amenity":"waste_basket"}},"type":"Feature"},
	{"geometry":{"coordinates":[37.753381,55.680846],"type":"Point"},"properties":{"osm_id":"6051628423","tag":{"amenity":"waste_basket"}},"type":"Feature"},
	{"geometry":{"coordinates":[37.753672,55.680866],"type":"Point"},"properties":{"osm_id":"6051628424","tag":{"amenity":"waste_basket"}},"type":"Feature"},
	{"geometry":{"coordinates":[37.753961,55.680884],"type":"Point"},"properties":{"osm_id":"6051628425","tag":{"amenity":"waste_basket"}},"type":"Feature"},
	{"geometry":{"coordinates":[37.75425,55.680904],"type":"Point"},"properties":{"osm_id":"6051628426","tag":{"amenity":"waste_basket"}},"type":"Feature"},
	{"geometry":{"coordinates":[37.754538,55.68092],"type":"Point"},"properties":{"osm_id":"6051628427","tag":{"amenity":"waste_basket"}},"type":"Feature"},
	{"geometry":{"coordinates":[37.776943,55.697581],"type":"Point"},"properties":{"osm_id":"6052682686","tag":{"amenity":"waste_basket"}},"type":"Feature"},
	{"geometry":{"coordinates":[37.777161,55.696829],"type":"Point"},"properties":{"osm_id":"6052682687","tag":{"amenity":"waste_basket"}},"type":"Feature"},
	{"geometry":{"coordinates":[37.777051,55.697012],"type":"Point"},"properties":{"osm_id":"6052692586","tag":{"amenity":"waste_basket"}},"type":"Feature"},
	{"geometry":{"coordinates":[37.77472,55.697543],"type":"Point"},"properties":{"osm_id":"6052716487","tag":{"amenity":"waste_basket"}},"type":"Feature"},
	{"geometry":{"coordinates":[37.773828,55.697397],"type":"Point"},"properties":{"osm_id":"6052716588","tag":{"amenity":"waste_basket"}},"type":"Feature"},
	{"geometry":{"coordinates":[37.773946,55.697657],"type":"Point"},"properties":{"osm_id":"6052716589","tag":{"amenity":"waste_basket"}},"type":"Feature"},
	{"geometry":{"coordinates":[37.764621,55.698388],"type":"Point"},"properties":{"osm_id":"6052752186","tag":{"amenity":"waste_basket"}},"type":"Feature"},
	{"geometry":{"coordinates":[37.763433,55.698529],"type":"Point"},"properties":{"osm_id":"6052762487","tag":{"amenity":"waste_basket"}},"type":"Feature"},
	{"geometry":{"coordinates":[37.762372,55.698681],"type":"Point"},"properties":{"osm_id":"6052763186","tag":{"amenity":"waste_basket"}},"type":"Feature"},
	{"geometry":{"coordinates":[37.760295,55.694833],"type":"Point"},"properties":{"osm_id":"6052790490","tag":{"amenity":"waste_basket"}},"type":"Feature"},
	{"geometry":{"coordinates":[37.761907,55.694614],"type":"Point"},"properties":{"osm_id":"6053057741","tag":{"amenity":"waste_basket"}},"type":"Feature"},
	{"geometry":{"coordinates":[37.761758,55.694278],"type":"Point"},"properties":{"osm_id":"6053057744","tag":{"amenity":"waste_basket"}},"type":"Feature"},
	{"geometry":{"coordinates":[37.761674,55.694053],"type":"Point"},"properties":{"osm_id":"6053057747","tag":{"amenity":"waste_basket"}},"type":"Feature"},
	{"geometry":{"coordinates":[37.761658,55.694982],"type":"Point"},"properties":{"osm_id":"6053057761","tag":{"amenity":"waste_basket"}},"type":"Feature"},
	{"geometry":{"coordinates":[37.761609,55.694825],"type":"Point"},"properties":{"osm_id":"6053057763","tag":{"amenity":"waste_basket"}},"type":"Feature"},
	{"geometry":{"coordinates":[37.761556,55.694698],"type":"Point"},"properties":{"osm_id":"6053057765","tag":{"amenity":"waste_basket"}},"type":"Feature"},
	{"geometry":{"coordinates":[37.761496,55.694544],"type":"Point"},"properties":{"osm_id":"6053057767","tag":{"amenity":"waste_basket"}},"type":"Feature"},
	{"geometry":{"coordinates":[37.761434,55.694386],"type":"Point"},"properties":{"osm_id":"6053057769","tag":{"amenity":"waste_basket"}},"type":"Feature"},
	{"geometry":{"coordinates":[37.761386,55.69423],"type":"Point"},"properties":{"osm_id":"6053057771","tag":{"amenity":"waste_basket"}},"type":"Feature"},
	{"geometry":{"coordinates":[37.760496,55.695306],"type":"Point"},"properties":{"osm_id":"6053057990","tag":{"amenity":"waste_basket"}},"type":"Feature"},
	{"geometry":{"coordinates":[37.760415,55.69516],"type":"Point"},"properties":{"osm_id":"6053057992","tag":{"amenity":"waste_basket"}},"type":"Feature"},
	{"geometry":{"coordinates":[37.760361,55.695018],"type":"Point"},"properties":{"osm_id":"6053057994","tag":{"amenity":"waste_basket"}},"type":"Feature"},
	{"geometry":{"coordinates":[37.760217,55.694507],"type":"Point"},"properties":{"osm_id":"6053057996","tag":{"amenity":"waste_basket"}},"type":"Feature"},
	{"geometry":{"coordinates":[37.76027,55.694651],"type":"Point"},"properties":{"osm_id":"6053057998","tag":{"amenity":"waste_basket"}},"type":"Feature"},
	{"geometry":{"coordinates":[37.763453,55.697211],"type":"Point"},"properties":{"osm_id":"6053076290","tag":{"amenity":"waste_basket"}},"type":"Feature"},
	{"geometry":{"coordinates":[37.763323,55.696904],"type":"Point"},"properties":{"osm_id":"6053076292","tag":{"amenity":"waste_basket"}},"type":"Feature"},
	{"geometry":{"coordinates":[37.763256,55.696747],"type":"Point"},"properties":{"osm_id":"6053076293","tag":{"amenity":"waste_basket"}},"type":"Feature"},
	{"geometry":{"coordinates":[37.763191,55.696594],"type":"Point"},"properties":{"osm_id":"6053076294","tag":{"amenity":"waste_basket"}},"type":"Feature"},
	{"geometry":{"coordinates":[37.76281,55.696453],"type":"Point"},"properties":{"osm_id":"6053076307","tag":{"amenity":"waste_disposal"}},"type":"Feature"},
	{"geometry":{"coordinates":[37.761903,55.697217],"type":"Point"},"properties":{"osm_id":"6053076315","tag":{"amenity":"waste_basket"}},"type":"Feature"},
	{"geometry":{"coordinates":[37.761974,55.697379],"type":"Point"},"properties":{"osm_id":"6053076316","tag":{"amenity":"waste_basket"}},"type":"Feature"},
	{"geometry":{"coordinates":[37.762054,55.69756],"type":"Point"},"properties":{"osm_id":"6053076318","tag":{"amenity":"waste_basket"}},"type":"Feature"},
	{"geometry":{"coordinates":[37.760559,55.695956],"type":"Point"},"properties":{"osm_id":"6053076332","tag":{"amenity":"waste_basket"}},"type":"Feature"},
	{"geometry":{"coordinates":[37.763617,55.698504],"type":"Point"},"properties":{"osm_id":"6053104537","tag":{"amenity":"waste_basket"}},"type":"Feature"},
	{"geometry":{"coordinates":[37.762729,55.698312],"type":"Point"},"properties":{"osm_id":"6053104538","tag":{"amenity":"waste_disposal"}},"type":"Feature"},
	{"geometry":{"coordinates":[37.776431,55.697631],"type":"Point"},"properties":{"osm_id":"6053135122","tag":{"amenity":"waste_basket"}},"type":"Feature"},
	{"geometry":{"coordinates":[37.768991,55.699339],"type":"Point"},"properties":{"osm_id":"6053161380","tag":{"amenity":"waste_basket"}},"type":"Feature"},
	{"geometry":{"coordinates":[37.766788,55.699654],"type":"Point"},"properties":{"osm_id":"6053161392","tag":{"amenity":"waste_basket"}},"type":"Feature"},
	{"geometry":{"coordinates":[37.766724,55.698963],"type":"Point"},"properties":{"osm_id":"6053161395","tag":{"amenity":"waste_basket"}},"type":"Feature"},
	{"geometry":{"coordinates":[37.766784,55.699116],"type":"Point"},"properties":{"osm_id":"6053161397","tag":{"amenity":"waste_basket"}},"type":"Feature"},
	{"geometry":{"coordinates":[37.766128,55.698623],"type":"Point"},"properties":{"osm_id":"6053161408","tag":{"amenity":"waste_disposal"}},"type":"Feature"},
	{"geometry":{"coordinates":[37.768812,55.698385],"type":"Point"},"properties":{"osm_id":"6053170168","tag":{"amenity":"waste_disposal"}},"type":"Feature"},
	{"geometry":{"coordinates":[37.768705,55.699195],"type":"Point"},"properties":{"osm_id":"6053170169","tag":{"amenity":"waste_basket"}},"type":"Feature"},
	{"geometry":{"coordinates":[37.768656,55.69905],"type":"Point"},"properties":{"osm_id":"6053170170","tag":{"amenity":"waste_basket"}},"type":"Feature"},
	{"geometry":{"coordinates":[37.768587,55.698882],"type":"Point"},"properties":{"osm_id":"6053170172","tag":{"amenity":"waste_basket"}},"type":"Feature"},
	{"geometry":{"coordinates":[37.768502,55.698714],"type":"Point"},"properties":{"osm_id":"6053170174","tag":{"amenity":"waste_basket"}},"type":"Feature"},
	{"geometry":{"coordinates":[37.778709,55.697536],"type":"Point"},"properties":{"osm_id":"6053216938","tag":{"amenity":"waste_basket"}},"type":"Feature"},
	{"geometry":{"coordinates":[37.778739,55.697666],"type":"Point"},"properties":{"osm_id":"6053216939","tag":{"amenity":"waste_basket"}},"type":"Feature"},
	{"geometry":{"coordinates":[37.77841,55.697341],"type":"Point"},"properties":{"osm_id":"6053216945","tag":{"amenity":"waste_disposal"}},"type":"Feature"},
	{"geometry":{"coordinates":[37.778213,55.697924],"type":"Point"},"properties":{"osm_id":"6053216946","tag":{"amenity":"waste_basket"}},"type":"Feature"},
	{"geometry":{"coordinates":[37.778211,55.697762],"type":"Point"},"properties":{"osm_id":"6053216947","tag":{"amenity":"waste_basket"}},"type":"Feature"},
	{"geometry":{"coordinates":[37.778169,55.697726],"type":"Point"},"properties":{"osm_id":"6053216948","tag":{"amenity":"waste_basket"}},"type":"Feature"},
	{"geometry":{"coordinates":[37.77501,55.697563],"type":"Point"},"properties":{"osm_id":"6053216963","tag":{"amenity":"waste_disposal"}},"type":"Feature"},
	{"geometry":{"coordinates":[37.774664,55.69765],"type":"Point"},"properties":{"osm_id":"6053216964","tag":{"amenity":"waste_basket"}},"type":"Feature"},
	{"geometry":{"coordinates":[37.774746,55.697843],"type":"Point"},"properties":{"osm_id":"6053216965","tag":{"amenity":"waste_basket"}},"type":"Feature"},
	{"geometry":{"coordinates":[37.774825,55.698024],"type":"Point"},"properties":{"osm_id":"6053216966","tag":{"amenity":"waste_basket"}},"type":"Feature"},
	{"geometry":{"coordinates":[37.774901,55.698201],"type":"Point"},"properties":{"osm_id":"6053216967","tag":{"amenity":"waste_basket"}},"type":"Feature"},
	{"geometry":{"coordinates":[37.774963,55.698353],"type":"Point"},"properties":{"osm_id":"6053216968","tag":{"amenity":"waste_basket"}},"type":"Feature"},
	{"geometry":{"coordinates":[37.774218,55.698423],"type":"Point"},"properties":{"osm_id":"6053216975","tag":{"amenity":"waste_basket"}},"type":"Feature"},
	{"geometry":{"coordinates":[37.774133,55.698236],"type":"Point"},"properties":{"osm_id":"6053216976","tag":{"amenity":"waste_basket"}},"type":"Feature"},
	{"geometry":{"coordinates":[37.774059,55.698068],"type":"Point"},"properties":{"osm_id":"6053216978","tag":{"amenity":"waste_basket"}},"type":"Feature"},
	{"geometry":{"coordinates":[37.773992,55.69791],"type":"Point"},"properties":{"osm_id":"6053216979","tag":{"amenity":"waste_basket"}},"type":"Feature"},
	{"geometry":{"coordinates":[37.773924,55.697746],"type":"Point"},"properties":{"osm_id":"6053216980","tag":{"amenity":"waste_basket"}},"type":"Feature"},
	{"geometry":{"coordinates":[37.774065,55.697611],"type":"Point"},"properties":{"osm_id":"6053217586","tag":{"amenity":"waste_disposal"}},"type":"Feature"},
	{"geometry":{"coordinates":[37.772477,55.697792],"type":"Point"},"properties":{"osm_id":"6053217600","tag":{"amenity":"waste_disposal"}},"type":"Feature"},
	{"geometry":{"coordinates":[37.772742,55.698799],"type":"Point"},"properties":{"osm_id":"6053217601","tag":{"amenity":"waste_basket"}},"type":"Feature"},
	{"geometry":{"coordinates":[37.76319,55.693235],"type":"Point"},"properties":{"osm_id":"6053288602","tag":{"amenity":"waste_basket"}},"type":"Feature"},
	{"geometry":{"coordinates":[37.77775,55.696233],"type":"Point"},"properties":{"osm_id":"6053288646","tag":{"amenity":"waste_basket"}},"type":"Feature"},
	{"geometry":{"coordinates":[37.780907,55.697779],"type":"Point"},"properties":{"osm_id":"6053288667","tag":{"amenity":"waste_basket"}},"type":"Feature"},
	{"geometry":{"coordinates":[37.780639,55.697564],"type":"Point"},"properties":{"osm_id":"6053288669","tag":{"amenity":"waste_basket"}},"type":"Feature"},
	{"geometry":{"coordinates":[37.780521,55.697246],"type":"Point"},"properties":{"osm_id":"6053288670","tag":{"amenity":"waste_basket"}},"type":"Feature"},
	{"geometry":{"coordinates":[37.78058,55.696959],"type":"Point"},"properties":{"osm_id":"6053288674","tag":{"amenity":"waste_disposal"}},"type":"Feature"},
	{"geometry":{"coordinates":[37.77978,55.697544],"type":"Point"},"properties":{"osm_id":"6053288676","tag":{"amenity":"waste_basket"}},"type":"Feature"},
	{"geometry":{"coordinates":[37.779716,55.69738],"type":"Point"},"properties":{"osm_id":"6053288678","tag":{"amenity":"waste_basket"}},"type":"Feature"},
	{"geometry":{"coordinates":[37.744809,55.707499],"type":"Point"},"properties":{"osm_id":"6067167319","tag":{"amenity":"waste_basket"}},"type":"Feature"},
	{"geometry":{"coordinates":[37.744507,55.707425],"type":"Point"},"properties":{"osm_id":"6067167321","tag":{"amenity":"waste_basket"}},"type":"Feature"},
	{"geometry":{"coordinates":[37.744184,55.707343],"type":"Point"},"properties":{"osm_id":"6067167323","tag":{"amenity":"waste_basket"}},"type":"Feature"},
	{"geometry":{"coordinates":[37.749206,55.704603],"type":"Point"},"properties":{"osm_id":"6067259450","tag":{"amenity":"waste_basket"}},"type":"Feature"},
	{"geometry":{"coordinates":[37.74909,55.704767],"type":"Point"},"properties":{"osm_id":"6067259452","tag":{"amenity":"waste_basket"}},"type":"Feature"},
	{"geometry":{"coordinates":[37.748977,55.704938],"type":"Point"},"properties":{"osm_id":"6067259454","tag":{"amenity":"waste_basket"}},"type":"Feature"},
	{"geometry":{"coordinates":[37.748512,55.705631],"type":"Point"},"properties":{"osm_id":"6067259455","tag":{"amenity":"waste_basket"}},"type":"Feature"},
	{"geometry":{"coordinates":[37.7484,55.705804],"type":"Point"},"properties":{"osm_id":"6067259456","tag":{"amenity":"waste_basket"}},"type":"Feature"},
	{"geometry":{"coordinates":[37.750295,55.702835],"type":"Point"},"properties":{"osm_id":"6067290555","tag":{"amenity":"waste_basket"}},"type":"Feature"},
	{"geometry":{"coordinates":[37.753614,55.700021],"type":"Point"},"properties":{"osm_id":"6067330752","tag":{"amenity":"waste_basket"}},"type":"Feature"},
	{"geometry":{"coordinates":[37.754159,55.701295],"type":"Point"},"properties":{"osm_id":"6067330764","tag":{"amenity":"waste_basket"}},"type":"Feature"},
	{"geometry":{"coordinates":[37.753626,55.701292],"type":"Point"},"properties":{"osm_id":"6067330766","tag":{"amenity":"waste_basket"}},"type":"Feature"},
	{"geometry":{"coordinates":[37.752604,55.701636],"type":"Point"},"properties":{"osm_id":"6067330771","tag":{"amenity":"waste_basket"}},"type":"Feature"},
	{"geometry":{"coordinates":[37.752875,55.699347],"type":"Point"},"properties":{"osm_id":"6067359734","tag":{"amenity":"waste_basket"}},"type":"Feature"},
	{"geometry":{"coordinates":[37.73611,55.714428],"type":"Point"},"properties":{"osm_id":"6203171090","tag":{"amenity":"waste_basket"}},"type":"Feature"},
	{"geometry":{"coordinates":[37.737037,55.713959],"type":"Point"},"properties":{"osm_id":"6203821010","tag":{"amenity":"waste_basket"}},"type":"Feature"},
	{"geometry":{"coordinates":[37.737226,55.714054],"type":"Point"},"properties":{"osm_id":"6203821012","tag":{"amenity":"waste_basket"}},"type":"Feature"},
	{"geometry":{"coordinates":[37.737212,55.714138],"type":"Point"},"properties":{"osm_id":"6203821014","tag":{"amenity":"waste_basket"}},"type":"Feature"},
	{"geometry":{"coordinates":[37.737089,55.714221],"type":"Point"},"properties":{"osm_id":"6203821016","tag":{"amenity":"waste_basket"}},"type":"Feature"},
	{"geometry":{"coordinates":[37.736931,55.714323],"type":"Point"},"properties":{"osm_id":"6203821018","tag":{"amenity":"waste_basket"}},"type":"Feature"},
	{"geometry":{"coordinates":[37.736836,55.714386],"type":"Point"},"properties":{"osm_id":"6203821019","tag":{"amenity":"waste_basket"}},"type":"Feature"},
	{"geometry":{"coordinates":[37.73677,55.714432],"type":"Point"},"properties":{"osm_id":"6203821022","tag":{"amenity":"waste_basket"}},"type":"Feature"},
	{"geometry":{"coordinates":[37.736492,55.714369],"type":"Point"},"properties":{"osm_id":"6203821023","tag":{"amenity":"waste_basket"}},"type":"Feature"},
	{"geometry":{"coordinates":[37.736454,55.714331],"type":"Point"},"properties":{"osm_id":"6203821025","tag":{"amenity":"waste_basket"}},"type":"Feature"},
	{"geometry":{"coordinates":[37.741152,55.715568],"type":"Point"},"properties":{"osm_id":"6203897934","tag":{"amenity":"waste_basket"}},"type":"Feature"},
	{"geometry":{"coordinates":[37.742041,55.715627],"type":"Point"},"properties":{"osm_id":"6203897935","tag":{"amenity":"waste_basket"}},"type":"Feature"},
	{"geometry":{"coordinates":[37.742272,55.715265],"type":"Point"},"properties":{"osm_id":"6203897936","tag":{"amenity":"waste_basket"}},"type":"Feature"},
	{"geometry":{"coordinates":[37.742489,55.714935],"type":"Point"},"properties":{"osm_id":"6203897938","tag":{"amenity":"waste_basket"}},"type":"Feature"},
	{"geometry":{"coordinates":[37.742449,55.714768],"type":"Point"},"properties":{"osm_id":"6203897939","tag":{"amenity":"waste_basket"}},"type":"Feature"},
	{"geometry":{"coordinates":[37.74168,55.714602],"type":"Point"},"properties":{"osm_id":"6203897941","tag":{"amenity":"waste_basket"}},"type":"Feature"},
	{"geometry":{"coordinates":[37.741458,55.714682],"type":"Point"},"properties":{"osm_id":"6203897942","tag":{"amenity":"waste_basket"}},"type":"Feature"},
	{"geometry":{"coordinates":[37.74033,55.717739],"type":"Point"},"properties":{"osm_id":"6203941747","tag":{"amenity":"waste_basket"}},"type":"Feature"},
	{"geometry":{"coordinates":[37.738336,55.718505],"type":"Point"},"properties":{"osm_id":"6203968737","tag":{"amenity":"waste_disposal"}},"type":"Feature"},
	{"geometry":{"coordinates":[37.739341,55.718484],"type":"Point"},"properties":{"osm_id":"6203968738","tag":{"amenity":"waste_disposal"}},"type":"Feature"},
	{"geometry":{"coordinates":[37.738739,55.719142],"type":"Point"},"properties":{"osm_id":"6203977785","tag":{"amenity":"waste_basket"}},"type":"Feature"},
	{"geometry":{"coordinates":[37.738725,55.71897],"type":"Point"},"properties":{"osm_id":"6203977786","tag":{"amenity":"waste_basket"}},"type":"Feature"},
	{"geometry":{"coordinates":[37.738711,55.718817],"type":"Point"},"properties":{"osm_id":"6203977787","tag":{"amenity":"waste_basket"}},"type":"Feature"},
	{"geometry":{"coordinates":[37.73869,55.718663],"type":"Point"},"properties":{"osm_id":"6203977789","tag":{"amenity":"waste_basket"}},"type":"Feature"},
	{"geometry":{"coordinates":[37.739652,55.719896],"type":"Point"},"properties":{"osm_id":"6203987724","tag":{"amenity":"waste_disposal"}},"type":"Feature"},
	{"geometry":{"coordinates":[37.737597,55.721989],"type":"Point"},"properties":{"osm_id":"6204028260","tag":{"amenity":"waste_basket"}},"type":"Feature"},
	{"geometry":{"coordinates":[37.737587,55.721815],"type":"Point"},"properties":{"osm_id":"6204028261","tag":{"amenity":"waste_basket"}},"type":"Feature"},
	{"geometry":{"coordinates":[37.737573,55.721643],"type":"Point"},"properties":{"osm_id":"6204028262","tag":{"amenity":"waste_basket"}},"type":"Feature"},
	{"geometry":{"coordinates":[37.737563,55.721469],"type":"Point"},"properties":{"osm_id":"6204028263","tag":{"amenity":"waste_basket"}},"type":"Feature"},
	{"geometry":{"coordinates":[37.737552,55.721296],"type":"Point"},"properties":{"osm_id":"6204028264","tag":{"amenity":"waste_basket"}},"type":"Feature"},
	{"geometry":{"coordinates":[37.737652,55.723986],"type":"Point"},"properties":{"osm_id":"6204045966","tag":{"amenity":"waste_basket"}},"type":"Feature"},
	{"geometry":{"coordinates":[37.737647,55.72382],"type":"Point"},"properties":{"osm_id":"6204045967","tag":{"amenity":"waste_basket"}},"type":"Feature"},
	{"geometry":{"coordinates":[37.737637,55.723656],"type":"Point"},"properties":{"osm_id":"6204045968","tag":{"amenity":"waste_basket"}},"type":"Feature"},
	{"geometry":{"coordinates":[37.737629,55.723489],"type":"Point"},"properties":{"osm_id":"6204045969","tag":{"amenity":"waste_basket"}},"type":"Feature"},
	{"geometry":{"coordinates":[37.737617,55.723325],"type":"Point"},"properties":{"osm_id":"6204045970","tag":{"amenity":"waste_basket"}},"type":"Feature"},
	{"geometry":{"coordinates":[37.723251,55.681809],"type":"Point"},"properties":{"osm_id":"6205334285","tag":{"amenity":"waste_disposal"}},"type":"Feature"},
	{"geometry":{"coordinates":[37.717892,55.682604],"type":"Point"},"properties":{"osm_id":"6205363085","tag":{"amenity":"waste_disposal"}},"type":"Feature"},
	{"geometry":{"coordinates":[37.718289,55.684509],"type":"Point"},"properties":{"osm_id":"6205370185","tag":{"amenity":"waste_disposal"}},"type":"Feature"},
	{"geometry":{"coordinates":[37.716482,55.686184],"type":"Point"},"properties":{"osm_id":"6205384586","tag":{"amenity":"waste_basket"}},"type":"Feature"},
	{"geometry":{"coordinates":[37.724709,55.685956],"type":"Point"},"properties":{"osm_id":"6205403287","tag":{"amenity":"waste_disposal"}},"type":"Feature"},
	{"geometry":{"coordinates":[37.723195,55.686535],"type":"Point"},"properties":{"osm_id":"6205403288","tag":{"amenity":"waste_disposal"}},"type":"Feature"},
	{"geometry":{"coordinates":[37.721422,55.684387],"type":"Point"},"properties":{"osm_id":"6205408889","tag":{"amenity":"waste_disposal"}},"type":"Feature"},
	{"geometry":{"coordinates":[37.722548,55.685195],"type":"Point"},"properties":{"osm_id":"6205422785","tag":{"amenity":"waste_disposal"}},"type":"Feature"},
	{"geometry":{"coordinates":[37.722787,55.686255],"type":"Point"},"properties":{"osm_id":"6205452285","tag":{"amenity":"waste_disposal"}},"type":"Feature"},
	{"geometry":{"coordinates":[37.726021,55.692883],"type":"Point"},"properties":{"osm_id":"6205470693","tag":{"amenity":"waste_disposal"}},"type":"Feature"},
	{"geometry":{"coordinates":[37.722166,55.684874],"type":"Point"},"properties":{"osm_id":"6205844952","tag":{"amenity":"waste_basket"}},"type":"Feature"},
	{"geometry":{"coordinates":[37.721675,55.684868],"type":"Point"},"properties":{"osm_id":"6205844953","tag":{"amenity":"waste_basket"}},"type":"Feature"},
	{"geometry":{"coordinates":[37.721168,55.684861],"type":"Point"},"properties":{"osm_id":"6205844954","tag":{"amenity":"waste_basket"}},"type":"Feature"},
	{"geometry":{"coordinates":[37.720328,55.684786],"type":"Point"},"properties":{"osm_id":"6205885279","tag":{"amenity":"waste_basket"}},"type":"Feature"},
	{"geometry":{"coordinates":[37.719967,55.684785],"type":"Point"},"properties":{"osm_id":"6205885280","tag":{"amenity":"waste_basket"}},"type":"Feature"},
	{"geometry":{"coordinates":[37.719508,55.684789],"type":"Point"},"properties":{"osm_id":"6205885281","tag":{"amenity":"waste_basket"}},"type":"Feature"},
	{"geometry":{"coordinates":[37.718108,55.684369],"type":"Point"},"properties":{"osm_id":"6206034166","tag":{"amenity":"waste_basket"}},"type":"Feature"},
	{"geometry":{"coordinates":[37.718108,55.684184],"type":"Point"},"properties":{"osm_id":"6206034168","tag":{"amenity":"waste_basket"}},"type":"Feature"},
	{"geometry":{"coordinates":[37.718127,55.684014],"type":"Point"},"properties":{"osm_id":"6206034170","tag":{"amenity":"waste_basket"}},"type":"Feature"},
	{"geometry":{"coordinates":[37.718137,55.683843],"type":"Point"},"properties":{"osm_id":"6206034171","tag":{"amenity":"waste_basket"}},"type":"Feature"},
	{"geometry":{"coordinates":[37.718225,55.683631],"type":"Point"},"properties":{"osm_id":"6206034173","tag":{"amenity":"waste_basket"}},"type":"Feature"},
	{"geometry":{"coordinates":[37.718374,55.683465],"type":"Point"},"properties":{"osm_id":"6206034175","tag":{"amenity":"waste_basket"}},"type":"Feature"},
	{"geometry":{"coordinates":[37.718513,55.683324],"type":"Point"},"properties":{"osm_id":"6206034177","tag":{"amenity":"waste_basket"}},"type":"Feature"},
	{"geometry":{"coordinates":[37.718676,55.683155],"type":"Point"},"properties":{"osm_id":"6206034180","tag":{"amenity":"waste_basket"}},"type":"Feature"},
	{"geometry":{"coordinates":[37.718105,55.682221],"type":"Point"},"properties":{"osm_id":"6206060373","tag":{"amenity":"waste_basket"}},"type":"Feature"},
	{"geometry":{"coordinates":[37.718109,55.68204],"type":"Point"},"properties":{"osm_id":"6206060374","tag":{"amenity":"waste_basket"}},"type":"Feature"},
	{"geometry":{"coordinates":[37.718112,55.681858],"type":"Point"},"properties":{"osm_id":"6206060375","tag":{"amenity":"waste_basket"}},"type":"Feature"},
	{"geometry":{"coordinates":[37.718114,55.681693],"type":"Point"},"properties":{"osm_id":"6206060383","tag":{"amenity":"waste_basket"}},"type":"Feature"},
	{"geometry":{"coordinates":[37.718225,55.681492],"type":"Point"},"properties":{"osm_id":"6206060384","tag":{"amenity":"waste_basket"}},"type":"Feature"},
	{"geometry":{"coordinates":[37.71837,55.681331],"type":"Point"},"properties":{"osm_id":"6206060785","tag":{"amenity":"waste_basket"}},"type":"Feature"},
	{"geometry":{"coordinates":[37.71866,55.681012],"type":"Point"},"properties":{"osm_id":"6206060786","tag":{"amenity":"waste_basket"}},"type":"Feature"},
	{"geometry":{"coordinates":[37.719364,55.680987],"type":"Point"},"properties":{"osm_id":"6206073539","tag":{"amenity":"waste_basket"}},"type":"Feature"},
	{"geometry":{"coordinates":[37.719676,55.680985],"type":"Point"},"properties":{"osm_id":"6206073541","tag":{"amenity":"waste_basket"}},"type":"Feature"},
	{"geometry":{"coordinates":[37.719991,55.680982],"type":"Point"},"properties":{"osm_id":"6206073543","tag":{"amenity":"waste_basket"}},"type":"Feature"},
	{"geometry":{"coordinates":[37.72031,55.680981],"type":"Point"},"properties":{"osm_id":"6206073545","tag":{"amenity":"waste_basket"}},"type":"Feature"},
	{"geometry":{"coordinates":[37.720621,55.680977],"type":"Point"},"properties":{"osm_id":"6206073547","tag":{"amenity":"waste_basket"}},"type":"Feature"},
	{"geometry":{"coordinates":[37.72094,55.680974],"type":"Point"},"properties":{"osm_id":"6206073549","tag":{"amenity":"waste_basket"}},"type":"Feature"},
	{"geometry":{"coordinates":[37.725986,55.682655],"type":"Point"},"properties":{"osm_id":"6206177556","tag":{"amenity":"waste_disposal"}},"type":"Feature"},
	{"geometry":{"coordinates":[37.725929,55.682195],"type":"Point"},"properties":{"osm_id":"6206199790","tag":{"amenity":"waste_basket"}},"type":"Feature"},
	{"geometry":{"coordinates":[37.725584,55.682421],"type":"Point"},"properties":{"osm_id":"6206199794","tag":{"amenity":"waste_disposal"}},"type":"Feature"},
	{"geometry":{"coordinates":[37.729317,55.681648],"type":"Point"},"properties":{"osm_id":"6206255194","tag":{"amenity":"waste_basket"}},"type":"Feature"},
	{"geometry":{"coordinates":[37.729338,55.681827],"type":"Point"},"properties":{"osm_id":"6206255197","tag":{"amenity":"waste_basket"}},"type":"Feature"},
	{"geometry":{"coordinates":[37.729373,55.682006],"type":"Point"},"properties":{"osm_id":"6206255199","tag":{"amenity":"waste_basket"}},"type":"Feature"},
	{"geometry":{"coordinates":[37.729386,55.682173],"type":"Point"},"properties":{"osm_id":"6206255201","tag":{"amenity":"waste_basket"}},"type":"Feature"},
	{"geometry":{"coordinates":[37.729415,55.682352],"type":"Point"},"properties":{"osm_id":"6206255203","tag":{"amenity":"waste_basket"}},"type":"Feature"},
	{"geometry":{"coordinates":[37.729436,55.682533],"type":"Point"},"properties":{"osm_id":"6206255206","tag":{"amenity":"waste_basket"}},"type":"Feature"},
	{"geometry":{"coordinates":[37.730428,55.683423],"type":"Point"},"properties":{"osm_id":"6206305509","tag":{"amenity":"waste_disposal"}},"type":"Feature"},
	{"geometry":{"coordinates":[37.730928,55.68495],"type":"Point"},"properties":{"osm_id":"6206333072","tag":{"amenity":"waste_basket"}},"type":"Feature"},
	{"geometry":{"coordinates":[37.730878,55.685519],"type":"Point"},"properties":{"osm_id":"6206335868","tag":{"amenity":"waste_basket"}},"type":"Feature"},
	{"geometry":{"coordinates":[37.730482,55.686725],"type":"Point"},"properties":{"osm_id":"6206341607","tag":{"amenity":"waste_basket"}},"type":"Feature"},
	{"geometry":{"coordinates":[37.730646,55.686564],"type":"Point"},"properties":{"osm_id":"6206341609","tag":{"amenity":"waste_basket"}},"type":"Feature"},
	{"geometry":{"coordinates":[37.730837,55.686412],"type":"Point"},"properties":{"osm_id":"6206341611","tag":{"amenity":"waste_basket"}},"type":"Feature"},
	{"geometry":{"coordinates":[37.731015,55.686254],"type":"Point"},"properties":{"osm_id":"6206341613","tag":{"amenity":"waste_basket"}},"type":"Feature"},
	{"geometry":{"coordinates":[37.731189,55.686094],"type":"Point"},"properties":{"osm_id":"6206341615","tag":{"amenity":"waste_basket"}},"type":"Feature"},
	{"geometry":{"coordinates":[37.731373,55.68594],"type":"Point"},"properties":{"osm_id":"6206341617","tag":{"amenity":"waste_basket"}},"type":"Feature"},
	{"geometry":{"coordinates":[37.731676,55.685997],"type":"Point"},"properties":{"osm_id":"6206344162","tag":{"amenity":"waste_disposal"}},"type":"Feature"},
	{"geometry":{"coordinates":[37.731981,55.686831],"type":"Point"},"properties":{"osm_id":"6206358735","tag":{"amenity":"waste_disposal"}},"type":"Feature"},
	{"geometry":{"coordinates":[37.731713,55.68675],"type":"Point"},"properties":{"osm_id":"6206374535","tag":{"amenity":"waste_basket"}},"type":"Feature"},
	{"geometry":{"coordinates":[37.731542,55.686883],"type":"Point"},"properties":{"osm_id":"6206374537","tag":{"amenity":"waste_basket"}},"type":"Feature"},
	{"geometry":{"coordinates":[37.731346,55.687033],"type":"Point"},"properties":{"osm_id":"6206374539","tag":{"amenity":"waste_basket"}},"type":"Feature"},
	{"geometry":{"coordinates":[37.731152,55.687185],"type":"Point"},"properties":{"osm_id":"6206374541","tag":{"amenity":"waste_basket"}},"type":"Feature"},
	{"geometry":{"coordinates":[37.730962,55.687335],"type":"Point"},"properties":{"osm_id":"6206374543","tag":{"amenity":"waste_basket"}},"type":"Feature"},
	{"geometry":{"coordinates":[37.730772,55.687487],"type":"Point"},"properties":{"osm_id":"6206374544","tag":{"amenity":"waste_basket"}},"type":"Feature"},
	{"geometry":{"coordinates":[37.732471,55.687497],"type":"Point"},"properties":{"osm_id":"6206377789","tag":{"amenity":"waste_disposal"}},"type":"Feature"},
	{"geometry":{"coordinates":[37.730907,55.688247],"type":"Point"},"properties":{"osm_id":"6206385107","tag":{"amenity":"waste_basket"}},"type":"Feature"},
	{"geometry":{"coordinates":[37.731108,55.688121],"type":"Point"},"properties":{"osm_id":"6206385109","tag":{"amenity":"waste_basket"}},"type":"Feature"},
	{"geometry":{"coordinates":[37.731308,55.687997],"type":"Point"},"properties":{"osm_id":"6206385111","tag":{"amenity":"waste_basket"}},"type":"Feature"},
	{"geometry":{"coordinates":[37.73152,55.687875],"type":"Point"},"properties":{"osm_id":"6206385114","tag":{"amenity":"waste_basket"}},"type":"Feature"},
	{"geometry":{"coordinates":[37.731955,55.688419],"type":"Point"},"properties":{"osm_id":"6206420437","tag":{"amenity":"waste_basket"}},"type":"Feature"},
	{"geometry":{"coordinates":[37.731723,55.688547],"type":"Point"},"properties":{"osm_id":"6206420439","tag":{"amenity":"waste_basket"}},"type":"Feature"},
	{"geometry":{"coordinates":[37.73149,55.688679],"type":"Point"},"properties":{"osm_id":"6206420441","tag":{"amenity":"waste_basket"}},"type":"Feature"},
	{"geometry":{"coordinates":[37.731259,55.688806],"type":"Point"},"properties":{"osm_id":"6206420443","tag":{"amenity":"waste_basket"}},"type":"Feature"},
	{"geometry":{"coordinates":[37.731018,55.688934],"type":"Point"},"properties":{"osm_id":"6206420445","tag":{"amenity":"waste_basket"}},"type":"Feature"},
	{"geometry":{"coordinates":[37.730771,55.689076],"type":"Point"},"properties":{"osm_id":"6206420447","tag":{"amenity":"waste_basket"}},"type":"Feature"},
	{"geometry":{"coordinates":[37.729757,55.690486],"type":"Point"},"properties":{"osm_id":"6206442158","tag":{"amenity":"waste_basket"}},"type":"Feature"},
	{"geometry":{"coordinates":[37.729154,55.690559],"type":"Point"},"properties":{"osm_id":"6206442161","tag":{"amenity":"waste_basket"}},"type":"Feature"},
	{"geometry":{"coordinates":[37.728845,55.690596],"type":"Point"},"properties":{"osm_id":"6206442163","tag":{"amenity":"waste_basket"}},"type":"Feature"},
	{"geometry":{"coordinates":[37.728539,55.690632],"type":"Point"},"properties":{"osm_id":"6206442165","tag":{"amenity":"waste_basket"}},"type":"Feature"},
	{"geometry":{"coordinates":[37.728235,55.690668],"type":"Point"},"properties":{"osm_id":"6206442167","tag":{"amenity":"waste_basket"}},"type":"Feature"},
	{"geometry":{"coordinates":[37.727928,55.690705],"type":"Point"},"properties":{"osm_id":"6206442169","tag":{"amenity":"waste_basket"}},"type":"Feature"},
	{"geometry":{"coordinates":[37.727622,55.690743],"type":"Point"},"properties":{"osm_id":"6206442170","tag":{"amenity":"waste_basket"}},"type":"Feature"},
	{"geometry":{"coordinates":[37.727324,55.692076],"type":"Point"},"properties":{"osm_id":"6206479509","tag":{"amenity":"waste_basket"}},"type":"Feature"},
	{"geometry":{"coordinates":[37.727181,55.691912],"type":"Point"},"properties":{"osm_id":"6206479511","tag":{"amenity":"waste_basket"}},"type":"Feature"},
	{"geometry":{"coordinates":[37.727032,55.69175],"type":"Point"},"properties":{"osm_id":"6206479513","tag":{"amenity":"waste_basket"}},"type":"Feature"},
	{"geometry":{"coordinates":[37.726891,55.691587],"type":"Point"},"properties":{"osm_id":"6206479515","tag":{"amenity":"waste_basket"}},"type":"Feature"},
	{"geometry":{"coordinates":[37.726185,55.692736],"type":"Point"},"properties":{"osm_id":"6206494465","tag":{"amenity":"waste_basket"}},"type":"Feature"},
	{"geometry":{"coordinates":[37.726429,55.692627],"type":"Point"},"properties":{"osm_id":"6206494467","tag":{"amenity":"waste_basket"}},"type":"Feature"},
	{"geometry":{"coordinates":[37.726715,55.692506],"type":"Point"},"properties":{"osm_id":"6206494469","tag":{"amenity":"waste_basket"}},"type":"Feature"},
	{"geometry":{"coordinates":[37.726963,55.692397],"type":"Point"},"properties":{"osm_id":"6206494471","tag":{"amenity":"waste_basket"}},"type":"Feature"},
	{"geometry":{"coordinates":[37.751826,55.687594],"type":"Point"},"properties":{"osm_id":"6274660785","tag":{"amenity":"waste_disposal"}},"type":"Feature"},
	{"geometry":{"coordinates":[37.748527,55.685079],"type":"Point"},"properties":{"osm_id":"6274661103","tag":{"amenity":"waste_basket"}},"type":"Feature"},
	{"geometry":{"coordinates":[37.736574,55.686569],"type":"Point"},"properties":{"osm_id":"6274775796","tag":{"amenity":"waste_basket"}},"type":"Feature"},
	{"geometry":{"coordinates":[37.739793,55.686392],"type":"Point"},"properties":{"osm_id":"6274775886","tag":{"amenity":"waste_disposal"}},"type":"Feature"},
	{"geometry":{"coordinates":[37.737434,55.678486],"type":"Point"},"properties":{"osm_id":"6274806090","tag":{"amenity":"waste_basket"}},"type":"Feature"},
	{"geometry":{"coordinates":[37.737252,55.678157],"type":"Point"},"properties":{"osm_id":"6274806091","tag":{"amenity":"waste_disposal"}},"type":"Feature"},
	{"geometry":{"coordinates":[37.73673,55.684406],"type":"Point"},"properties":{"osm_id":"6274806987","tag":{"amenity":"waste_basket"}},"type":"Feature"},
	{"geometry":{"coordinates":[37.735939,55.679284],"type":"Point"},"properties":{"osm_id":"6275047361","tag":{"amenity":"waste_basket"}},"type":"Feature"},
	{"geometry":{"coordinates":[37.735981,55.679021],"type":"Point"},"properties":{"osm_id":"6275047362","tag":{"amenity":"waste_basket"}},"type":"Feature"},
	{"geometry":{"coordinates":[37.738326,55.685651],"type":"Point"},"properties":{"osm_id":"6275244894","tag":{"amenity":"waste_basket"}},"type":"Feature"},
	{"geometry":{"coordinates":[37.738288,55.685825],"type":"Point"},"properties":{"osm_id":"6275244897","tag":{"amenity":"waste_basket"}},"type":"Feature"},
	{"geometry":{"coordinates":[37.738254,55.686018],"type":"Point"},"properties":{"osm_id":"6275244900","tag":{"amenity":"waste_basket"}},"type":"Feature"},
	{"geometry":{"coordinates":[37.739184,55.686429],"type":"Point"},"properties":{"osm_id":"6275244905","tag":{"amenity":"waste_basket"}},"type":"Feature"},
	{"geometry":{"coordinates":[37.73871,55.686404],"type":"Point"},"properties":{"osm_id":"6275244908","tag":{"amenity":"waste_basket"}},"type":"Feature"},
	{"geometry":{"coordinates":[37.738322,55.686378],"type":"Point"},"properties":{"osm_id":"6275244912","tag":{"amenity":"waste_basket"}},"type":"Feature"},
	{"geometry":{"coordinates":[37.738042,55.686243],"type":"Point"},"properties":{"osm_id":"6275244916","tag":{"amenity":"waste_basket"}},"type":"Feature"},
	{"geometry":{"coordinates":[37.738768,55.684159],"type":"Point"},"properties":{"osm_id":"6276829936","tag":{"amenity":"waste_basket"}},"type":"Feature"},
	{"geometry":{"coordinates":[37.738483,55.684177],"type":"Point"},"properties":{"osm_id":"6276829937","tag":{"amenity":"waste_basket"}},"type":"Feature"},
	{"geometry":{"coordinates":[37.738451,55.684394],"type":"Point"},"properties":{"osm_id":"6276829938","tag":{"amenity":"waste_basket"}},"type":"Feature"},
	{"geometry":{"coordinates":[37.738414,55.684625],"type":"Point"},"properties":{"osm_id":"6276829940","tag":{"amenity":"waste_basket"}},"type":"Feature"},
	{"geometry":{"coordinates":[37.75154,55.687255],"type":"Point"},"properties":{"osm_id":"6276851375","tag":{"amenity":"waste_basket"}},"type":"Feature"},
	{"geometry":{"coordinates":[37.751199,55.687338],"type":"Point"},"properties":{"osm_id":"6276851378","tag":{"amenity":"waste_basket"}},"type":"Feature"},
	{"geometry":{"coordinates":[37.750872,55.687417],"type":"Point"},"properties":{"osm_id":"6276851381","tag":{"amenity":"waste_basket"}},"type":"Feature"},
	{"geometry":{"coordinates":[37.771122,55.72285],"type":"Point"},"properties":{"osm_id":"6424031637","tag":{"amenity":"waste_basket"}},"type":"Feature"},
	{"geometry":{"coordinates":[37.771192,55.722824],"type":"Point"},"properties":{"osm_id":"6424031638","tag":{"amenity":"waste_basket"}},"type":"Feature"},
	{"geometry":{"coordinates":[37.775628,55.721325],"type":"Point"},"properties":{"osm_id":"6424031647","tag":{"amenity":"waste_basket"}},"type":"Feature"},
	{"geometry":{"coordinates":[37.775697,55.7213],"type":"Point"},"properties":{"osm_id":"6424031648","tag":{"amenity":"waste_basket"}},"type":"Feature"},
	{"geometry":{"coordinates":[37.736707,55.700141],"type":"Point"},"properties":{"osm_id":"6475285606","tag":{"amenity":"recycling","recycling:cans":"yes","recycling:glass":"yes","recycling:paper":"yes","recycling:plastic":"yes","recycling_type":"container"}},"type":"Feature"},
	{"geometry":{"coordinates":[37.771323,55.72319],"type":"Point"},"properties":{"osm_id":"6508733804","tag":{"amenity":"waste_disposal"}},"type":"Feature"},
	{"geometry":{"coordinates":[37.75436,55.681618],"type":"Point"},"properties":{"osm_id":"6703910836","tag":{"amenity":"waste_disposal"}},"type":"Feature"},
	{"geometry":{"coordinates":[37.785469,55.718844],"type":"Point"},"properties":{"osm_id":"7171966566","tag":{"amenity":"waste_disposal"}},"type":"Feature"},
	{"geometry":{"coordinates":[37.73664,55.682712],"type":"Point"},"properties":{"osm_id":"7885818103","tag":{"amenity":"waste_basket"}},"type":"Feature"},
	{"geometry":{"coordinates":[37.739548,55.682896],"type":"Point"},"properties":{"osm_id":"7888412772","tag":{"access":"yes","amenity":"waste_disposal","operator":"\u00d0\u009c\u00d0\u00a1\u00d0\u009a-\u00d0\u009d\u00d0\u00a2","waste":"mixed;recycling"}},"type":"Feature"}
]
}
