{
"type": "FeatureCollection",
"features": [
	{"geometry":{"coordinates":[37.742534,55.644213],"type":"Point"},"properties":{"osm_id":"605402224","tag":{"amenity":"waste_disposal","waste":"trash"}},"type":"Feature"},
	{"geometry":{"coordinates":[37.742565,55.644162],"type":"Point"},"properties":{"osm_id":"605403308","tag":{"amenity":"waste_disposal","waste":"trash"}},"type":"Feature"},
	{"geometry":{"coordinates":[37.736014,55.645727],"type":"Point"},"properties":{"osm_id":"610777447","tag":{"amenity":"waste_disposal","waste":"trash"}},"type":"Feature"},
	{"geometry":{"coordinates":[37.755987,55.669505],"type":"Point"},"properties":{"osm_id":"1166605625","tag":{"amenity":"recycling"}},"type":"Feature"},
	{"geometry":{"coordinates":[37.758223,55.672228],"type":"Point"},"properties":{"osm_id":"1166691812","tag":{"amenity":"waste_disposal"}},"type":"Feature"},
	{"geometry":{"coordinates":[37.770125,55.638454],"type":"Point"},"properties":{"osm_id":"1195789237","tag":{"amenity":"waste_disposal"}},"type":"Feature"},
	{"geometry":{"coordinates":[37.771805,55.639576],"type":"Point"},"properties":{"osm_id":"1195789298","tag":{"amenity":"waste_disposal"}},"type":"Feature"},
	{"geometry":{"coordinates":[37.774433,55.64253],"type":"Point"},"properties":{"osm_id":"1195789348","tag":{"amenity":"waste_disposal"}},"type":"Feature"},
	{"geometry":{"coordinates":[37.723542,55.635957],"type":"Point"},"properties":{"osm_id":"1219620983","tag":{"amenity":"waste_disposal"}},"type":"Feature"},
	{"geometry":{"coordinates":[37.722824,55.636954],"type":"Point"},"properties":{"osm_id":"1219621200","tag":{"amenity":"waste_disposal"}},"type":"Feature"},
	{"geometry":{"coordinates":[37.737605,55.633827],"type":"Point"},"properties":{"osm_id":"1219817915","tag":{"amenity":"waste_disposal"}},"type":"Feature"},
	{"geometry":{"coordinates":[37.73496,55.629712],"type":"Point"},"properties":{"osm_id":"1279331392","tag":{"amenity":"waste_disposal"}},"type":"Feature"},
	{"geometry":{"coordinates":[37.738875,55.629703],"type":"Point"},"properties":{"osm_id":"1279331397","tag":{"amenity":"waste_disposal"}},"type":"Feature"},
	{"geometry":{"coordinates":[37.725436,55.671862],"type":"Point"},"properties":{"osm_id":"1329851678","tag":{"amenity":"waste_disposal"}},"type":"Feature"},
	{"geometry":{"coordinates":[37.725253,55.672149],"type":"Point"},"properties":{"osm_id":"1329851796","tag":{"amenity":"waste_disposal"}},"type":"Feature"},
	{"geometry":{"coordinates":[37.716037,55.650535],"type":"Point"},"properties":{"osm_id":"2454008136","tag":{"amenity":"waste_disposal"}},"type":"Feature"},
	{"geometry":{"coordinates":[37.714227,55.650554],"type":"Point"},"properties":{"osm_id":"2454008138","tag":{"amenity":"waste_disposal"}},"type":"Feature"},
	{"geometry":{"coordinates":[37.730776,55.657409],"type":"Point"},"properties":{"osm_id":"2511596629","tag":{"amenity":"waste_basket","description":"\u00d0\u009d\u00d0\u00b5 \u00d1\u0081\u00d0\u00be\u00d1\u0080\u00d0\u00b8\u00d1\u0082\u00d1\u008c"}},"type":"Feature"},
	{"geometry":{"coordinates":[37.716294,55.646624],"type":"Point"},"properties":{"osm_id":"2640793466","tag":{"amenity":"waste_disposal"}},"type":"Feature"},
	{"geometry":{"coordinates":[37.726946,55.64737],"type":"Point"},"properties":{"osm_id":"3068510358","tag":{"amenity":"waste_basket"}},"type":"Feature"},
	{"geometry":{"coordinates":[37.768986,55.674173],"type":"Point"},"properties":{"osm_id":"3409573460","tag":{"amenity":"waste_disposal"}},"type":"Feature"},
	{"geometry":{"coordinates":[37.770623,55.674146],"type":"Point"},"properties":{"osm_id":"3409573461","tag":{"amenity":"waste_disposal"}},"type":"Feature"},
	{"geometry":{"coordinates":[37.711435,55.664395],"type":"Point"},"properties":{"name":"\u00d0\u0092\u00d1\u008b\u00d0\u00b2\u00d0\u00be\u00d0\u00b7 \u00d0\u00bc\u00d1\u0083\u00d1\u0081\u00d0\u00be\u00d1\u0080\u00d0\u00b0","osm_id":"3520020022","tag":{"amenity":"waste_disposal","contact:phone":"+7 495 518-43-10","contact:website":"http://musor-skt.ru/"}},"type":"Feature"},
	{"geometry":{"coordinates":[37.73425,55.645099],"type":"Point"},"properties":{"osm_id":"4317847491","tag":{"amenity":"waste_disposal"}},"type":"Feature"},
	{"geometry":{"coordinates":[37.733847,55.646348],"type":"Point"},"properties":{"osm_id":"4317850689","tag":{"amenity":"waste_disposal"}},"type":"Feature"},
	{"geometry":{"coordinates":[37.781185,55.665406],"type":"Point"},"properties":{"osm_id":"4542919381","tag":{"amenity":"waste_disposal"}},"type":"Feature"},
	{"geometry":{"coordinates":[37.781378,55.665689],"type":"Point"},"properties":{"osm_id":"4542919411","tag":{"amenity":"waste_disposal"}},"type":"Feature"},
	{"geometry":{"coordinates":[37.781284,55.666038],"type":"Point"},"properties":{"osm_id":"4545062876","tag":{"amenity":"waste_disposal"}},"type":"Feature"},
	{"geometry":{"coordinates":[37.783057,55.666595],"type":"Point"},"properties":{"osm_id":"4546123891","tag":{"amenity":"waste_disposal"}},"type":"Feature"},
	{"geometry":{"coordinates":[37.737512,55.665447],"type":"Point"},"properties":{"name":"\u00d0\u009f\u00d1\u0080\u00d0\u00b8\u00d0\u00b5\u00d0\u00bc \u00d0\u00bc\u00d0\u00b5\u00d1\u0082\u00d0\u00b0\u00d0\u00bb\u00d0\u00bb\u00d0\u00be\u00d0\u00bb\u00d0\u00be\u00d0\u00bc\u00d0\u00b0","osm_id":"4576758099","tag":{"amenity":"recycling","name:ru":"\u00d0\u009f\u00d1\u0080\u00d0\u00b8\u00d0\u00b5\u00d0\u00bc \u00d0\u00bc\u00d0\u00b5\u00d1\u0082\u00d0\u00b0\u00d0\u00bb\u00d0\u00bb\u00d0\u00be\u00d0\u00bb\u00d0\u00be\u00d0\u00bc\u00d0\u00b0","phone":"+79162223311"}},"type":"Feature"},
	{"geometry":{"coordinates":[37.778193,55.665341],"type":"Point"},"properties":{"osm_id":"4733178710","tag":{"amenity":"waste_disposal"}},"type":"Feature"},
	{"geometry":{"coordinates":[37.764808,55.647441],"type":"Point"},"properties":{"osm_id":"4811299623","tag":{"amenity":"waste_disposal"}},"type":"Feature"},
	{"geometry":{"coordinates":[37.759764,55.673994],"type":"Point"},"properties":{"osm_id":"4940793224","tag":{"amenity":"waste_basket"}},"type":"Feature"},
	{"geometry":{"coordinates":[37.760107,55.674005],"type":"Point"},"properties":{"osm_id":"4940793422","tag":{"amenity":"waste_basket"}},"type":"Feature"},
	{"geometry":{"coordinates":[37.761395,55.673543],"type":"Point"},"properties":{"osm_id":"4940794822","tag":{"amenity":"waste_basket"}},"type":"Feature"},
	{"geometry":{"coordinates":[37.765361,55.672153],"type":"Point"},"properties":{"osm_id":"4942704522","tag":{"amenity":"waste_basket"}},"type":"Feature"},
	{"geometry":{"coordinates":[37.761601,55.674535],"type":"Point"},"properties":{"osm_id":"4944517824","tag":{"amenity":"waste_basket"}},"type":"Feature"},
	{"geometry":{"coordinates":[37.779429,55.669276],"type":"Point"},"properties":{"osm_id":"4944521021","tag":{"amenity":"waste_basket"}},"type":"Feature"},
	{"geometry":{"coordinates":[37.751902,55.636278],"type":"Point"},"properties":{"osm_id":"5083087350","tag":{"amenity":"waste_disposal"}},"type":"Feature"},
	{"geometry":{"coordinates":[37.751249,55.637852],"type":"Point"},"properties":{"osm_id":"5083087778","tag":{"amenity":"waste_disposal"}},"type":"Feature"},
	{"geometry":{"coordinates":[37.73083,55.643578],"type":"Point"},"properties":{"osm_id":"5290447324","tag":{"amenity":"waste_disposal","waste":"trash"}},"type":"Feature"},
	{"geometry":{"coordinates":[37.757137,55.659235],"type":"Point"},"properties":{"osm_id":"5642195722","tag":{"amenity":"waste_basket"}},"type":"Feature"},
	{"geometry":{"coordinates":[37.735114,55.632615],"type":"Point"},"properties":{"osm_id":"5648701066","tag":{"amenity":"waste_basket"}},"type":"Feature"},
	{"geometry":{"coordinates":[37.735038,55.632832],"type":"Point"},"properties":{"osm_id":"5648701069","tag":{"amenity":"waste_basket"}},"type":"Feature"},
	{"geometry":{"coordinates":[37.734808,55.633092],"type":"Point"},"properties":{"osm_id":"5648701072","tag":{"amenity":"waste_basket"}},"type":"Feature"},
	{"geometry":{"coordinates":[37.735294,55.633221],"type":"Point"},"properties":{"osm_id":"5648701078","tag":{"amenity":"waste_basket"}},"type":"Feature"},
	{"geometry":{"coordinates":[37.736386,55.633355],"type":"Point"},"properties":{"osm_id":"5648701089","tag":{"amenity":"waste_basket"}},"type":"Feature"},
	{"geometry":{"coordinates":[37.771132,55.636912],"type":"Point"},"properties":{"osm_id":"5777535277","tag":{"amenity":"waste_basket"}},"type":"Feature"},
	{"geometry":{"coordinates":[37.772293,55.630769],"type":"Point"},"properties":{"osm_id":"5777536367","tag":{"amenity":"waste_basket"}},"type":"Feature"},
	{"geometry":{"coordinates":[37.772617,55.63091],"type":"Point"},"properties":{"osm_id":"5777536536","tag":{"amenity":"waste_basket"}},"type":"Feature"},
	{"geometry":{"coordinates":[37.775952,55.636873],"type":"Point"},"properties":{"osm_id":"5777536822","tag":{"amenity":"waste_basket"}},"type":"Feature"},
	{"geometry":{"coordinates":[37.773143,55.63752],"type":"Point"},"properties":{"osm_id":"5787431566","tag":{"amenity":"waste_basket"}},"type":"Feature"},
	{"geometry":{"coordinates":[37.773055,55.637561],"type":"Point"},"properties":{"osm_id":"5787431567","tag":{"amenity":"waste_basket"}},"type":"Feature"},
	{"geometry":{"coordinates":[37.77288,55.637607],"type":"Point"},"properties":{"osm_id":"5787431568","tag":{"amenity":"waste_basket"}},"type":"Feature"},
	{"geometry":{"coordinates":[37.747255,55.630808],"type":"Point"},"properties":{"osm_id":"5825235256","tag":{"amenity":"waste_basket"}},"type":"Feature"},
	{"geometry":{"coordinates":[37.747392,55.630812],"type":"Point"},"properties":{"osm_id":"5825235257","tag":{"amenity":"waste_basket"}},"type":"Feature"},
	{"geometry":{"coordinates":[37.741994,55.629751],"type":"Point"},"properties":{"osm_id":"5825238753","tag":{"amenity":"waste_basket"}},"type":"Feature"},
	{"geometry":{"coordinates":[37.747187,55.630828],"type":"Point"},"properties":{"osm_id":"5825240956","tag":{"amenity":"waste_basket"}},"type":"Feature"},
	{"geometry":{"coordinates":[37.747303,55.631175],"type":"Point"},"properties":{"osm_id":"5825240957","tag":{"amenity":"waste_basket"}},"type":"Feature"},
	{"geometry":{"coordinates":[37.749169,55.632043],"type":"Point"},"properties":{"osm_id":"5825245455","tag":{"amenity":"waste_basket"}},"type":"Feature"},
	{"geometry":{"coordinates":[37.747326,55.630793],"type":"Point"},"properties":{"osm_id":"5825245853","tag":{"amenity":"waste_basket"}},"type":"Feature"},
	{"geometry":{"coordinates":[37.747457,55.630835],"type":"Point"},"properties":{"osm_id":"5825246053","tag":{"amenity":"waste_basket"}},"type":"Feature"},
	{"geometry":{"coordinates":[37.740649,55.641279],"type":"Point"},"properties":{"osm_id":"5825294155","tag":{"amenity":"waste_basket"}},"type":"Feature"},
	{"geometry":{"coordinates":[37.745213,55.629873],"type":"Point"},"properties":{"osm_id":"5826998896","tag":{"amenity":"waste_basket"}},"type":"Feature"},
	{"geometry":{"coordinates":[37.747295,55.629646],"type":"Point"},"properties":{"osm_id":"5826998897","tag":{"amenity":"waste_basket"}},"type":"Feature"},
	{"geometry":{"coordinates":[37.747308,55.629486],"type":"Point"},"properties":{"osm_id":"5826998898","tag":{"amenity":"waste_basket"}},"type":"Feature"},
	{"geometry":{"coordinates":[37.747788,55.630163],"type":"Point"},"properties":{"osm_id":"5827021015","tag":{"amenity":"waste_basket"}},"type":"Feature"},
	{"geometry":{"coordinates":[37.748117,55.630168],"type":"Point"},"properties":{"osm_id":"5827021018","tag":{"amenity":"waste_basket"}},"type":"Feature"},
	{"geometry":{"coordinates":[37.748516,55.630175],"type":"Point"},"properties":{"osm_id":"5827021021","tag":{"amenity":"waste_basket"}},"type":"Feature"},
	{"geometry":{"coordinates":[37.748853,55.630185],"type":"Point"},"properties":{"osm_id":"5827021026","tag":{"amenity":"waste_basket"}},"type":"Feature"},
	{"geometry":{"coordinates":[37.748854,55.62999],"type":"Point"},"properties":{"osm_id":"5827021033","tag":{"amenity":"waste_basket"}},"type":"Feature"},
	{"geometry":{"coordinates":[37.748861,55.629422],"type":"Point"},"properties":{"osm_id":"5827021038","tag":{"amenity":"waste_basket"}},"type":"Feature"},
	{"geometry":{"coordinates":[37.747984,55.634483],"type":"Point"},"properties":{"osm_id":"5827047880","tag":{"amenity":"waste_basket"}},"type":"Feature"},
	{"geometry":{"coordinates":[37.748152,55.635315],"type":"Point"},"properties":{"osm_id":"5827150714","tag":{"amenity":"waste_basket"}},"type":"Feature"},
	{"geometry":{"coordinates":[37.74554,55.636707],"type":"Point"},"properties":{"osm_id":"5828345709","tag":{"amenity":"waste_basket"}},"type":"Feature"},
	{"geometry":{"coordinates":[37.744929,55.636872],"type":"Point"},"properties":{"osm_id":"5828345714","tag":{"amenity":"waste_basket"}},"type":"Feature"},
	{"geometry":{"coordinates":[37.739667,55.633896],"type":"Point"},"properties":{"osm_id":"5894603286","tag":{"amenity":"waste_basket"}},"type":"Feature"},
	{"geometry":{"coordinates":[37.743458,55.644852],"type":"Point"},"properties":{"osm_id":"5908343623","tag":{"amenity":"waste_basket"}},"type":"Feature"},
	{"geometry":{"coordinates":[37.741066,55.648497],"type":"Point"},"properties":{"osm_id":"5908343634","tag":{"amenity":"waste_basket"}},"type":"Feature"},
	{"geometry":{"coordinates":[37.741435,55.648545],"type":"Point"},"properties":{"osm_id":"5908343635","tag":{"amenity":"waste_basket"}},"type":"Feature"},
	{"geometry":{"coordinates":[37.741794,55.648706],"type":"Point"},"properties":{"osm_id":"5908343636","tag":{"amenity":"waste_basket"}},"type":"Feature"},
	{"geometry":{"coordinates":[37.742012,55.648898],"type":"Point"},"properties":{"osm_id":"5908343637","tag":{"amenity":"waste_basket"}},"type":"Feature"},
	{"geometry":{"coordinates":[37.74206,55.649067],"type":"Point"},"properties":{"osm_id":"5908343638","tag":{"amenity":"waste_basket"}},"type":"Feature"},
	{"geometry":{"coordinates":[37.741963,55.649321],"type":"Point"},"properties":{"osm_id":"5908343639","tag":{"amenity":"waste_basket"}},"type":"Feature"},
	{"geometry":{"coordinates":[37.741865,55.649633],"type":"Point"},"properties":{"osm_id":"5908343640","tag":{"amenity":"waste_basket"}},"type":"Feature"},
	{"geometry":{"coordinates":[37.741517,55.649751],"type":"Point"},"properties":{"osm_id":"5908343641","tag":{"amenity":"waste_basket"}},"type":"Feature"},
	{"geometry":{"coordinates":[37.741001,55.649805],"type":"Point"},"properties":{"osm_id":"5908343642","tag":{"amenity":"waste_basket"}},"type":"Feature"},
	{"geometry":{"coordinates":[37.740516,55.649746],"type":"Point"},"properties":{"osm_id":"5908343643","tag":{"amenity":"waste_basket"}},"type":"Feature"},
	{"geometry":{"coordinates":[37.770283,55.633383],"type":"Point"},"properties":{"osm_id":"5939729030","tag":{"amenity":"waste_disposal"}},"type":"Feature"},
	{"geometry":{"coordinates":[37.744504,55.653181],"type":"Point"},"properties":{"osm_id":"6044789300","tag":{"amenity":"waste_basket"}},"type":"Feature"},
	{"geometry":{"coordinates":[37.74365,55.653109],"type":"Point"},"properties":{"osm_id":"6044797387","tag":{"amenity":"waste_basket"}},"type":"Feature"},
	{"geometry":{"coordinates":[37.73823,55.653487],"type":"Point"},"properties":{"osm_id":"6045024328","tag":{"amenity":"waste_basket"}},"type":"Feature"},
	{"geometry":{"coordinates":[37.738543,55.653776],"type":"Point"},"properties":{"osm_id":"6045024331","tag":{"amenity":"waste_basket"}},"type":"Feature"},
	{"geometry":{"coordinates":[37.738907,55.653903],"type":"Point"},"properties":{"osm_id":"6045024334","tag":{"amenity":"waste_basket"}},"type":"Feature"},
	{"geometry":{"coordinates":[37.739475,55.65397],"type":"Point"},"properties":{"osm_id":"6045024337","tag":{"amenity":"waste_basket"}},"type":"Feature"},
	{"geometry":{"coordinates":[37.739946,55.653894],"type":"Point"},"properties":{"osm_id":"6045024340","tag":{"amenity":"waste_basket"}},"type":"Feature"},
	{"geometry":{"coordinates":[37.740349,55.653521],"type":"Point"},"properties":{"osm_id":"6045024359","tag":{"amenity":"waste_basket"}},"type":"Feature"},
	{"geometry":{"coordinates":[37.740453,55.653238],"type":"Point"},"properties":{"osm_id":"6045024362","tag":{"amenity":"waste_basket"}},"type":"Feature"},
	{"geometry":{"coordinates":[37.740119,55.652803],"type":"Point"},"properties":{"osm_id":"6045024365","tag":{"amenity":"waste_basket"}},"type":"Feature"},
	{"geometry":{"coordinates":[37.739412,55.652657],"type":"Point"},"properties":{"osm_id":"6045024368","tag":{"amenity":"waste_basket"}},"type":"Feature"},
	{"geometry":{"coordinates":[37.744495,55.655262],"type":"Point"},"properties":{"osm_id":"6045035435","tag":{"amenity":"waste_basket"}},"type":"Feature"},
	{"geometry":{"coordinates":[37.744069,55.655298],"type":"Point"},"properties":{"osm_id":"6045035437","tag":{"amenity":"waste_basket"}},"type":"Feature"},
	{"geometry":{"coordinates":[37.744169,55.652262],"type":"Point"},"properties":{"osm_id":"6045041906","tag":{"amenity":"waste_basket"}},"type":"Feature"},
	{"geometry":{"coordinates":[37.744292,55.651965],"type":"Point"},"properties":{"osm_id":"6045041907","tag":{"amenity":"waste_basket"}},"type":"Feature"},
	{"geometry":{"coordinates":[37.745865,55.659675],"type":"Point"},"properties":{"osm_id":"6047018488","tag":{"amenity":"waste_basket"}},"type":"Feature"},
	{"geometry":{"coordinates":[37.747686,55.660585],"type":"Point"},"properties":{"osm_id":"6047051685","tag":{"amenity":"waste_basket"}},"type":"Feature"},
	{"geometry":{"coordinates":[37.747337,55.662604],"type":"Point"},"properties":{"osm_id":"6047091286","tag":{"amenity":"waste_basket"}},"type":"Feature"},
	{"geometry":{"coordinates":[37.747236,55.66258],"type":"Point"},"properties":{"osm_id":"6047094285","tag":{"amenity":"waste_basket"}},"type":"Feature"},
	{"geometry":{"coordinates":[37.750791,55.664283],"type":"Point"},"properties":{"osm_id":"6047109088","tag":{"amenity":"waste_basket"}},"type":"Feature"},
	{"geometry":{"coordinates":[37.74723,55.661666],"type":"Point"},"properties":{"osm_id":"6047297152","tag":{"amenity":"waste_basket"}},"type":"Feature"},
	{"geometry":{"coordinates":[37.747129,55.661628],"type":"Point"},"properties":{"osm_id":"6047297153","tag":{"amenity":"waste_basket"}},"type":"Feature"},
	{"geometry":{"coordinates":[37.74713,55.662003],"type":"Point"},"properties":{"osm_id":"6047299397","tag":{"amenity":"waste_basket"}},"type":"Feature"},
	{"geometry":{"coordinates":[37.749144,55.664726],"type":"Point"},"properties":{"osm_id":"6047360481","tag":{"amenity":"waste_basket"}},"type":"Feature"},
	{"geometry":{"coordinates":[37.748954,55.664021],"type":"Point"},"properties":{"osm_id":"6047370473","tag":{"amenity":"waste_basket"}},"type":"Feature"},
	{"geometry":{"coordinates":[37.748017,55.660184],"type":"Point"},"properties":{"osm_id":"6047408784","tag":{"amenity":"waste_basket"}},"type":"Feature"},
	{"geometry":{"coordinates":[37.746873,55.660958],"type":"Point"},"properties":{"osm_id":"6047415093","tag":{"amenity":"waste_basket"}},"type":"Feature"},
	{"geometry":{"coordinates":[37.746552,55.660852],"type":"Point"},"properties":{"osm_id":"6047415097","tag":{"amenity":"waste_basket"}},"type":"Feature"},
	{"geometry":{"coordinates":[37.746221,55.66074],"type":"Point"},"properties":{"osm_id":"6047415101","tag":{"amenity":"waste_basket"}},"type":"Feature"},
	{"geometry":{"coordinates":[37.747407,55.660511],"type":"Point"},"properties":{"osm_id":"6047415106","tag":{"amenity":"waste_basket"}},"type":"Feature"},
	{"geometry":{"coordinates":[37.747613,55.660337],"type":"Point"},"properties":{"osm_id":"6047415110","tag":{"amenity":"waste_basket"}},"type":"Feature"},
	{"geometry":{"coordinates":[37.747771,55.660202],"type":"Point"},"properties":{"osm_id":"6047415114","tag":{"amenity":"waste_basket"}},"type":"Feature"},
	{"geometry":{"coordinates":[37.754521,55.665515],"type":"Point"},"properties":{"osm_id":"6049648296","tag":{"amenity":"waste_basket"}},"type":"Feature"},
	{"geometry":{"coordinates":[37.757282,55.673052],"type":"Point"},"properties":{"osm_id":"6049987206","tag":{"amenity":"waste_basket"}},"type":"Feature"},
	{"geometry":{"coordinates":[37.75745,55.672946],"type":"Point"},"properties":{"osm_id":"6049987207","tag":{"amenity":"waste_basket"}},"type":"Feature"},
	{"geometry":{"coordinates":[37.759489,55.671868],"type":"Point"},"properties":{"osm_id":"6050007534","tag":{"amenity":"waste_basket"}},"type":"Feature"},
	{"geometry":{"coordinates":[37.759415,55.671672],"type":"Point"},"properties":{"osm_id":"6050007537","tag":{"amenity":"waste_basket"}},"type":"Feature"},
	{"geometry":{"coordinates":[37.759319,55.671428],"type":"Point"},"properties":{"osm_id":"6050007540","tag":{"amenity":"waste_basket"}},"type":"Feature"},
	{"geometry":{"coordinates":[37.759078,55.670799],"type":"Point"},"properties":{"osm_id":"6050007543","tag":{"amenity":"waste_basket"}},"type":"Feature"},
	{"geometry":{"coordinates":[37.75947,55.67223],"type":"Point"},"properties":{"osm_id":"6050007552","tag":{"amenity":"waste_basket"}},"type":"Feature"},
	{"geometry":{"coordinates":[37.759164,55.672497],"type":"Point"},"properties":{"osm_id":"6050007555","tag":{"amenity":"waste_basket"}},"type":"Feature"},
	{"geometry":{"coordinates":[37.758363,55.672488],"type":"Point"},"properties":{"osm_id":"6050007556","tag":{"amenity":"waste_basket"}},"type":"Feature"},
	{"geometry":{"coordinates":[37.758885,55.66966],"type":"Point"},"properties":{"osm_id":"6050019604","tag":{"amenity":"waste_basket"}},"type":"Feature"},
	{"geometry":{"coordinates":[37.758449,55.669138],"type":"Point"},"properties":{"osm_id":"6050051653","tag":{"amenity":"waste_basket"}},"type":"Feature"},
	{"geometry":{"coordinates":[37.758227,55.668728],"type":"Point"},"properties":{"osm_id":"6050051657","tag":{"amenity":"waste_basket"}},"type":"Feature"},
	{"geometry":{"coordinates":[37.758132,55.668463],"type":"Point"},"properties":{"osm_id":"6050051660","tag":{"amenity":"waste_basket"}},"type":"Feature"},
	{"geometry":{"coordinates":[37.758359,55.668371],"type":"Point"},"properties":{"osm_id":"6050051666","tag":{"amenity":"waste_basket"}},"type":"Feature"},
	{"geometry":{"coordinates":[37.757774,55.668483],"type":"Point"},"properties":{"osm_id":"6050051672","tag":{"amenity":"waste_basket"}},"type":"Feature"},
	{"geometry":{"coordinates":[37.757365,55.668482],"type":"Point"},"properties":{"osm_id":"6050051675","tag":{"amenity":"waste_basket"}},"type":"Feature"},
	{"geometry":{"coordinates":[37.755144,55.666183],"type":"Point"},"properties":{"osm_id":"6050068447","tag":{"amenity":"waste_basket"}},"type":"Feature"},
	{"geometry":{"coordinates":[37.756383,55.66629],"type":"Point"},"properties":{"osm_id":"6050068453","tag":{"amenity":"waste_basket"}},"type":"Feature"},
	{"geometry":{"coordinates":[37.756342,55.667491],"type":"Point"},"properties":{"osm_id":"6050068461","tag":{"amenity":"waste_basket"}},"type":"Feature"},
	{"geometry":{"coordinates":[37.756165,55.666532],"type":"Point"},"properties":{"osm_id":"6050077136","tag":{"amenity":"waste_basket"}},"type":"Feature"},
	{"geometry":{"coordinates":[37.75537,55.666563],"type":"Point"},"properties":{"osm_id":"6050077139","tag":{"amenity":"waste_basket"}},"type":"Feature"},
	{"geometry":{"coordinates":[37.75422,55.664939],"type":"Point"},"properties":{"osm_id":"6050114808","tag":{"amenity":"waste_basket"}},"type":"Feature"},
	{"geometry":{"coordinates":[37.754876,55.665061],"type":"Point"},"properties":{"osm_id":"6050114812","tag":{"amenity":"waste_basket"}},"type":"Feature"},
	{"geometry":{"coordinates":[37.754619,55.677341],"type":"Point"},"properties":{"osm_id":"6050938190","tag":{"amenity":"waste_basket"}},"type":"Feature"},
	{"geometry":{"coordinates":[37.753454,55.676765],"type":"Point"},"properties":{"osm_id":"6050938192","tag":{"amenity":"waste_basket"}},"type":"Feature"},
	{"geometry":{"coordinates":[37.759222,55.674798],"type":"Point"},"properties":{"osm_id":"6050976788","tag":{"amenity":"waste_basket"}},"type":"Feature"},
	{"geometry":{"coordinates":[37.762018,55.677135],"type":"Point"},"properties":{"osm_id":"6050976985","tag":{"amenity":"waste_basket"}},"type":"Feature"},
	{"geometry":{"coordinates":[37.758919,55.677487],"type":"Point"},"properties":{"osm_id":"6050976989","tag":{"amenity":"waste_basket"}},"type":"Feature"},
	{"geometry":{"coordinates":[37.758893,55.674815],"type":"Point"},"properties":{"osm_id":"6051471715","tag":{"amenity":"waste_basket"}},"type":"Feature"},
	{"geometry":{"coordinates":[37.758832,55.67467],"type":"Point"},"properties":{"osm_id":"6051471716","tag":{"amenity":"waste_basket"}},"type":"Feature"},
	{"geometry":{"coordinates":[37.75878,55.674524],"type":"Point"},"properties":{"osm_id":"6051471717","tag":{"amenity":"waste_basket"}},"type":"Feature"},
	{"geometry":{"coordinates":[37.752934,55.6602],"type":"Point"},"properties":{"osm_id":"6087607613","tag":{"amenity":"recycling"}},"type":"Feature"},
	{"geometry":{"coordinates":[37.725517,55.635149],"type":"Point"},"properties":{"osm_id":"6111040085","tag":{"amenity":"waste_basket"}},"type":"Feature"},
	{"geometry":{"coordinates":[37.724787,55.635756],"type":"Point"},"properties":{"osm_id":"6111507061","tag":{"amenity":"waste_basket"}},"type":"Feature"},
	{"geometry":{"coordinates":[37.725113,55.635762],"type":"Point"},"properties":{"osm_id":"6111507064","tag":{"amenity":"waste_basket"}},"type":"Feature"},
	{"geometry":{"coordinates":[37.725116,55.635883],"type":"Point"},"properties":{"osm_id":"6111507067","tag":{"amenity":"waste_basket"}},"type":"Feature"},
	{"geometry":{"coordinates":[37.725122,55.636125],"type":"Point"},"properties":{"osm_id":"6111507070","tag":{"amenity":"waste_basket"}},"type":"Feature"},
	{"geometry":{"coordinates":[37.722966,55.636683],"type":"Point"},"properties":{"osm_id":"6111511636","tag":{"amenity":"waste_basket"}},"type":"Feature"},
	{"geometry":{"coordinates":[37.723056,55.636868],"type":"Point"},"properties":{"osm_id":"6111511639","tag":{"amenity":"waste_basket"}},"type":"Feature"},
	{"geometry":{"coordinates":[37.723335,55.636965],"type":"Point"},"properties":{"osm_id":"6111511642","tag":{"amenity":"waste_basket"}},"type":"Feature"},
	{"geometry":{"coordinates":[37.725022,55.636911],"type":"Point"},"properties":{"osm_id":"6111525730","tag":{"amenity":"waste_basket"}},"type":"Feature"},
	{"geometry":{"coordinates":[37.725445,55.636861],"type":"Point"},"properties":{"osm_id":"6111525732","tag":{"amenity":"waste_basket"}},"type":"Feature"},
	{"geometry":{"coordinates":[37.725403,55.636638],"type":"Point"},"properties":{"osm_id":"6111525735","tag":{"amenity":"waste_basket"}},"type":"Feature"},
	{"geometry":{"coordinates":[37.724022,55.636879],"type":"Point"},"properties":{"osm_id":"6111525738","tag":{"amenity":"waste_basket"}},"type":"Feature"},
	{"geometry":{"coordinates":[37.724467,55.636865],"type":"Point"},"properties":{"osm_id":"6111525741","tag":{"amenity":"waste_basket"}},"type":"Feature"},
	{"geometry":{"coordinates":[37.724024,55.635928],"type":"Point"},"properties":{"osm_id":"6111530486","tag":{"amenity":"waste_basket"}},"type":"Feature"},
	{"geometry":{"coordinates":[37.724445,55.635924],"type":"Point"},"properties":{"osm_id":"6111530489","tag":{"amenity":"waste_basket"}},"type":"Feature"},
	{"geometry":{"coordinates":[37.72329,55.636212],"type":"Point"},"properties":{"osm_id":"6111544703","tag":{"amenity":"waste_basket"}},"type":"Feature"},
	{"geometry":{"coordinates":[37.723281,55.635993],"type":"Point"},"properties":{"osm_id":"6111544705","tag":{"amenity":"waste_basket"}},"type":"Feature"},
	{"geometry":{"coordinates":[37.723295,55.635751],"type":"Point"},"properties":{"osm_id":"6111544707","tag":{"amenity":"waste_basket"}},"type":"Feature"},
	{"geometry":{"coordinates":[37.723745,55.635734],"type":"Point"},"properties":{"osm_id":"6111544712","tag":{"amenity":"waste_basket"}},"type":"Feature"},
	{"geometry":{"coordinates":[37.72073,55.636639],"type":"Point"},"properties":{"osm_id":"6111555194","tag":{"amenity":"waste_basket"}},"type":"Feature"},
	{"geometry":{"coordinates":[37.720265,55.636695],"type":"Point"},"properties":{"osm_id":"6111570680","tag":{"amenity":"waste_disposal"}},"type":"Feature"},
	{"geometry":{"coordinates":[37.719131,55.636913],"type":"Point"},"properties":{"osm_id":"6111582002","tag":{"amenity":"waste_basket"}},"type":"Feature"},
	{"geometry":{"coordinates":[37.719442,55.636782],"type":"Point"},"properties":{"osm_id":"6111582005","tag":{"amenity":"waste_basket"}},"type":"Feature"},
	{"geometry":{"coordinates":[37.719425,55.636528],"type":"Point"},"properties":{"osm_id":"6111588815","tag":{"amenity":"waste_disposal"}},"type":"Feature"},
	{"geometry":{"coordinates":[37.719861,55.636038],"type":"Point"},"properties":{"osm_id":"6111603921","tag":{"amenity":"waste_basket"}},"type":"Feature"},
	{"geometry":{"coordinates":[37.720292,55.636031],"type":"Point"},"properties":{"osm_id":"6111603923","tag":{"amenity":"waste_basket"}},"type":"Feature"},
	{"geometry":{"coordinates":[37.719134,55.636293],"type":"Point"},"properties":{"osm_id":"6111622431","tag":{"amenity":"waste_basket"}},"type":"Feature"},
	{"geometry":{"coordinates":[37.71913,55.636069],"type":"Point"},"properties":{"osm_id":"6111622433","tag":{"amenity":"waste_basket"}},"type":"Feature"},
	{"geometry":{"coordinates":[37.719444,55.635844],"type":"Point"},"properties":{"osm_id":"6111622438","tag":{"amenity":"waste_basket"}},"type":"Feature"},
	{"geometry":{"coordinates":[37.720717,55.635804],"type":"Point"},"properties":{"osm_id":"6111639877","tag":{"amenity":"waste_basket"}},"type":"Feature"},
	{"geometry":{"coordinates":[37.72106,55.635828],"type":"Point"},"properties":{"osm_id":"6111639880","tag":{"amenity":"waste_basket"}},"type":"Feature"},
	{"geometry":{"coordinates":[37.721069,55.636036],"type":"Point"},"properties":{"osm_id":"6111639883","tag":{"amenity":"waste_basket"}},"type":"Feature"},
	{"geometry":{"coordinates":[37.721091,55.636221],"type":"Point"},"properties":{"osm_id":"6111645285","tag":{"amenity":"waste_basket"}},"type":"Feature"},
	{"geometry":{"coordinates":[37.72964,55.651486],"type":"Point"},"properties":{"osm_id":"6201715641","tag":{"amenity":"waste_basket"}},"type":"Feature"},
	{"geometry":{"coordinates":[37.729861,55.651183],"type":"Point"},"properties":{"osm_id":"6201715645","tag":{"amenity":"waste_basket"}},"type":"Feature"},
	{"geometry":{"coordinates":[37.729872,55.650963],"type":"Point"},"properties":{"osm_id":"6201715647","tag":{"amenity":"waste_basket"}},"type":"Feature"},
	{"geometry":{"coordinates":[37.729881,55.650737],"type":"Point"},"properties":{"osm_id":"6201715649","tag":{"amenity":"waste_basket"}},"type":"Feature"},
	{"geometry":{"coordinates":[37.729888,55.650501],"type":"Point"},"properties":{"osm_id":"6201715651","tag":{"amenity":"waste_basket"}},"type":"Feature"},
	{"geometry":{"coordinates":[37.729911,55.650263],"type":"Point"},"properties":{"osm_id":"6201715661","tag":{"amenity":"waste_basket"}},"type":"Feature"},
	{"geometry":{"coordinates":[37.730185,55.650172],"type":"Point"},"properties":{"osm_id":"6201715663","tag":{"amenity":"waste_basket"}},"type":"Feature"},
	{"geometry":{"coordinates":[37.730618,55.650176],"type":"Point"},"properties":{"osm_id":"6201715666","tag":{"amenity":"waste_basket"}},"type":"Feature"},
	{"geometry":{"coordinates":[37.729803,55.650136],"type":"Point"},"properties":{"osm_id":"6201715670","tag":{"amenity":"waste_basket"}},"type":"Feature"},
	{"geometry":{"coordinates":[37.720856,55.651723],"type":"Point"},"properties":{"osm_id":"6201808767","tag":{"amenity":"waste_basket"}},"type":"Feature"},
	{"geometry":{"coordinates":[37.721185,55.651728],"type":"Point"},"properties":{"osm_id":"6201808768","tag":{"amenity":"waste_basket"}},"type":"Feature"},
	{"geometry":{"coordinates":[37.721508,55.651733],"type":"Point"},"properties":{"osm_id":"6201808770","tag":{"amenity":"waste_basket"}},"type":"Feature"},
	{"geometry":{"coordinates":[37.721844,55.651739],"type":"Point"},"properties":{"osm_id":"6201808772","tag":{"amenity":"waste_basket"}},"type":"Feature"},
	{"geometry":{"coordinates":[37.722154,55.651742],"type":"Point"},"properties":{"osm_id":"6201808774","tag":{"amenity":"waste_basket"}},"type":"Feature"},
	{"geometry":{"coordinates":[37.722488,55.651746],"type":"Point"},"properties":{"osm_id":"6201808776","tag":{"amenity":"waste_basket"}},"type":"Feature"},
	{"geometry":{"coordinates":[37.718893,55.650678],"type":"Point"},"properties":{"osm_id":"6201873537","tag":{"amenity":"waste_basket"}},"type":"Feature"},
	{"geometry":{"coordinates":[37.719112,55.650806],"type":"Point"},"properties":{"osm_id":"6201873538","tag":{"amenity":"waste_basket"}},"type":"Feature"},
	{"geometry":{"coordinates":[37.719323,55.650938],"type":"Point"},"properties":{"osm_id":"6201873539","tag":{"amenity":"waste_basket"}},"type":"Feature"},
	{"geometry":{"coordinates":[37.719548,55.651076],"type":"Point"},"properties":{"osm_id":"6201873540","tag":{"amenity":"waste_basket"}},"type":"Feature"},
	{"geometry":{"coordinates":[37.719766,55.651209],"type":"Point"},"properties":{"osm_id":"6201873541","tag":{"amenity":"waste_basket"}},"type":"Feature"},
	{"geometry":{"coordinates":[37.719986,55.651345],"type":"Point"},"properties":{"osm_id":"6201873542","tag":{"amenity":"waste_basket"}},"type":"Feature"},
	{"geometry":{"coordinates":[37.720217,55.651481],"type":"Point"},"properties":{"osm_id":"6201873544","tag":{"amenity":"waste_basket"}},"type":"Feature"},
	{"geometry":{"coordinates":[37.744287,55.673854],"type":"Point"},"properties":{"osm_id":"6262319687","tag":{"amenity":"waste_disposal"}},"type":"Feature"},
	{"geometry":{"coordinates":[37.745583,55.674347],"type":"Point"},"properties":{"osm_id":"6262679585","tag":{"amenity":"waste_basket"}},"type":"Feature"},
	{"geometry":{"coordinates":[37.74555,55.674521],"type":"Point"},"properties":{"osm_id":"6262679586","tag":{"amenity":"waste_basket"}},"type":"Feature"},
	{"geometry":{"coordinates":[37.745527,55.674688],"type":"Point"},"properties":{"osm_id":"6262679588","tag":{"amenity":"waste_basket"}},"type":"Feature"},
	{"geometry":{"coordinates":[37.744491,55.674454],"type":"Point"},"properties":{"osm_id":"6262679593","tag":{"amenity":"waste_basket"}},"type":"Feature"},
	{"geometry":{"coordinates":[37.745229,55.675759],"type":"Point"},"properties":{"osm_id":"6262702687","tag":{"amenity":"waste_basket"}},"type":"Feature"},
	{"geometry":{"coordinates":[37.745254,55.675577],"type":"Point"},"properties":{"osm_id":"6262702689","tag":{"amenity":"waste_basket"}},"type":"Feature"},
	{"geometry":{"coordinates":[37.745315,55.675209],"type":"Point"},"properties":{"osm_id":"6262702692","tag":{"amenity":"waste_basket"}},"type":"Feature"},
	{"geometry":{"coordinates":[37.744628,55.675866],"type":"Point"},"properties":{"osm_id":"6262702710","tag":{"amenity":"waste_disposal"}},"type":"Feature"},
	{"geometry":{"coordinates":[37.743672,55.673344],"type":"Point"},"properties":{"osm_id":"6262709653","tag":{"amenity":"waste_basket"}},"type":"Feature"},
	{"geometry":{"coordinates":[37.743709,55.673175],"type":"Point"},"properties":{"osm_id":"6262709655","tag":{"amenity":"waste_basket"}},"type":"Feature"},
	{"geometry":{"coordinates":[37.743782,55.672821],"type":"Point"},"properties":{"osm_id":"6262709661","tag":{"amenity":"waste_basket"}},"type":"Feature"},
	{"geometry":{"coordinates":[37.745175,55.648717],"type":"Point"},"properties":{"osm_id":"6272309785","tag":{"amenity":"waste_basket"}},"type":"Feature"},
	{"geometry":{"coordinates":[37.754474,55.646389],"type":"Point"},"properties":{"osm_id":"6272805557","tag":{"amenity":"waste_basket"}},"type":"Feature"},
	{"geometry":{"coordinates":[37.751829,55.648275],"type":"Point"},"properties":{"osm_id":"6273001463","tag":{"amenity":"waste_basket"}},"type":"Feature"},
	{"geometry":{"coordinates":[37.75153,55.648245],"type":"Point"},"properties":{"osm_id":"6273001464","tag":{"amenity":"waste_basket"}},"type":"Feature"},
	{"geometry":{"coordinates":[37.753517,55.648315],"type":"Point"},"properties":{"osm_id":"6273027111","tag":{"amenity":"waste_basket"}},"type":"Feature"},
	{"geometry":{"coordinates":[37.753354,55.648166],"type":"Point"},"properties":{"osm_id":"6273027116","tag":{"amenity":"waste_basket"}},"type":"Feature"},
	{"geometry":{"coordinates":[37.753365,55.648061],"type":"Point"},"properties":{"osm_id":"6273048933","tag":{"amenity":"waste_basket"}},"type":"Feature"},
	{"geometry":{"coordinates":[37.753444,55.647844],"type":"Point"},"properties":{"osm_id":"6273048935","tag":{"amenity":"waste_basket"}},"type":"Feature"},
	{"geometry":{"coordinates":[37.753498,55.647701],"type":"Point"},"properties":{"osm_id":"6273048937","tag":{"amenity":"waste_basket"}},"type":"Feature"},
	{"geometry":{"coordinates":[37.753559,55.64753],"type":"Point"},"properties":{"osm_id":"6273048939","tag":{"amenity":"waste_basket"}},"type":"Feature"},
	{"geometry":{"coordinates":[37.753659,55.647518],"type":"Point"},"properties":{"osm_id":"6273048941","tag":{"amenity":"waste_basket"}},"type":"Feature"},
	{"geometry":{"coordinates":[37.753915,55.647554],"type":"Point"},"properties":{"osm_id":"6273048943","tag":{"amenity":"waste_basket"}},"type":"Feature"},
	{"geometry":{"coordinates":[37.754207,55.647594],"type":"Point"},"properties":{"osm_id":"6273048945","tag":{"amenity":"waste_basket"}},"type":"Feature"},
	{"geometry":{"coordinates":[37.754543,55.647638],"type":"Point"},"properties":{"osm_id":"6273048947","tag":{"amenity":"waste_basket"}},"type":"Feature"},
	{"geometry":{"coordinates":[37.75472,55.647781],"type":"Point"},"properties":{"osm_id":"6273048949","tag":{"amenity":"waste_basket"}},"type":"Feature"},
	{"geometry":{"coordinates":[37.755972,55.647155],"type":"Point"},"properties":{"osm_id":"6273060159","tag":{"amenity":"waste_basket"}},"type":"Feature"},
	{"geometry":{"coordinates":[37.75618,55.647096],"type":"Point"},"properties":{"osm_id":"6273060162","tag":{"amenity":"waste_basket"}},"type":"Feature"},
	{"geometry":{"coordinates":[37.756398,55.646723],"type":"Point"},"properties":{"osm_id":"6273067787","tag":{"amenity":"waste_basket"}},"type":"Feature"},
	{"geometry":{"coordinates":[37.756499,55.646505],"type":"Point"},"properties":{"osm_id":"6273067790","tag":{"amenity":"waste_basket"}},"type":"Feature"},
	{"geometry":{"coordinates":[37.756146,55.646079],"type":"Point"},"properties":{"osm_id":"6273067793","tag":{"amenity":"waste_basket"}},"type":"Feature"},
	{"geometry":{"coordinates":[37.75641,55.64628],"type":"Point"},"properties":{"osm_id":"6273067795","tag":{"amenity":"waste_basket"}},"type":"Feature"},
	{"geometry":{"coordinates":[37.755809,55.645966],"type":"Point"},"properties":{"osm_id":"6273067798","tag":{"amenity":"waste_basket"}},"type":"Feature"},
	{"geometry":{"coordinates":[37.755465,55.64592],"type":"Point"},"properties":{"osm_id":"6273067801","tag":{"amenity":"waste_basket"}},"type":"Feature"},
	{"geometry":{"coordinates":[37.754252,55.646086],"type":"Point"},"properties":{"osm_id":"6273099143","tag":{"amenity":"waste_basket"}},"type":"Feature"},
	{"geometry":{"coordinates":[37.75407,55.646114],"type":"Point"},"properties":{"osm_id":"6273099145","tag":{"amenity":"waste_basket"}},"type":"Feature"},
	{"geometry":{"coordinates":[37.754004,55.646265],"type":"Point"},"properties":{"osm_id":"6273099148","tag":{"amenity":"waste_basket"}},"type":"Feature"},
	{"geometry":{"coordinates":[37.753935,55.646448],"type":"Point"},"properties":{"osm_id":"6273099151","tag":{"amenity":"waste_basket"}},"type":"Feature"},
	{"geometry":{"coordinates":[37.753864,55.646624],"type":"Point"},"properties":{"osm_id":"6273099154","tag":{"amenity":"waste_basket"}},"type":"Feature"},
	{"geometry":{"coordinates":[37.753877,55.646777],"type":"Point"},"properties":{"osm_id":"6273099156","tag":{"amenity":"waste_basket"}},"type":"Feature"},
	{"geometry":{"coordinates":[37.75512,55.646723],"type":"Point"},"properties":{"osm_id":"6273099158","tag":{"amenity":"waste_basket"}},"type":"Feature"},
	{"geometry":{"coordinates":[37.754715,55.646994],"type":"Point"},"properties":{"osm_id":"6273099161","tag":{"amenity":"waste_basket"}},"type":"Feature"},
	{"geometry":{"coordinates":[37.754373,55.646953],"type":"Point"},"properties":{"osm_id":"6273099163","tag":{"amenity":"waste_basket"}},"type":"Feature"},
	{"geometry":{"coordinates":[37.754014,55.64691],"type":"Point"},"properties":{"osm_id":"6273099165","tag":{"amenity":"waste_basket"}},"type":"Feature"},
	{"geometry":{"coordinates":[37.727531,55.63523],"type":"Point"},"properties":{"osm_id":"6276975086","tag":{"amenity":"waste_basket"}},"type":"Feature"},
	{"geometry":{"coordinates":[37.735316,55.6323],"type":"Point"},"properties":{"osm_id":"6276975185","tag":{"amenity":"waste_basket"}},"type":"Feature"},
	{"geometry":{"coordinates":[37.713571,55.636636],"type":"Point"},"properties":{"osm_id":"6277348851","tag":{"amenity":"waste_basket"}},"type":"Feature"},
	{"geometry":{"coordinates":[37.713924,55.636189],"type":"Point"},"properties":{"osm_id":"6277348856","tag":{"amenity":"waste_basket"}},"type":"Feature"},
	{"geometry":{"coordinates":[37.713924,55.636224],"type":"Point"},"properties":{"osm_id":"6277348857","tag":{"amenity":"waste_basket"}},"type":"Feature"},
	{"geometry":{"coordinates":[37.738218,55.6348],"type":"Point"},"properties":{"osm_id":"6277375651","tag":{"amenity":"waste_basket"}},"type":"Feature"},
	{"geometry":{"coordinates":[37.737749,55.63471],"type":"Point"},"properties":{"osm_id":"6277375655","tag":{"amenity":"waste_basket"}},"type":"Feature"},
	{"geometry":{"coordinates":[37.738334,55.635134],"type":"Point"},"properties":{"osm_id":"6277375658","tag":{"amenity":"waste_basket"}},"type":"Feature"},
	{"geometry":{"coordinates":[37.737965,55.63509],"type":"Point"},"properties":{"osm_id":"6277375660","tag":{"amenity":"waste_basket"}},"type":"Feature"},
	{"geometry":{"coordinates":[37.73881,55.635413],"type":"Point"},"properties":{"osm_id":"6277391265","tag":{"amenity":"waste_basket"}},"type":"Feature"},
	{"geometry":{"coordinates":[37.739181,55.63546],"type":"Point"},"properties":{"osm_id":"6277391267","tag":{"amenity":"waste_basket"}},"type":"Feature"},
	{"geometry":{"coordinates":[37.739553,55.635501],"type":"Point"},"properties":{"osm_id":"6277391269","tag":{"amenity":"waste_basket"}},"type":"Feature"},
	{"geometry":{"coordinates":[37.739927,55.635547],"type":"Point"},"properties":{"osm_id":"6277391272","tag":{"amenity":"waste_basket"}},"type":"Feature"},
	{"geometry":{"coordinates":[37.740327,55.6356],"type":"Point"},"properties":{"osm_id":"6277391276","tag":{"amenity":"waste_basket"}},"type":"Feature"},
	{"geometry":{"coordinates":[37.7404,55.634999],"type":"Point"},"properties":{"osm_id":"6277391278","tag":{"amenity":"waste_basket"}},"type":"Feature"},
	{"geometry":{"coordinates":[37.740377,55.635066],"type":"Point"},"properties":{"osm_id":"6277391279","tag":{"amenity":"waste_basket"}},"type":"Feature"},
	{"geometry":{"coordinates":[37.740328,55.635211],"type":"Point"},"properties":{"osm_id":"6277391281","tag":{"amenity":"waste_basket"}},"type":"Feature"},
	{"geometry":{"coordinates":[37.740306,55.635279],"type":"Point"},"properties":{"osm_id":"6277391282","tag":{"amenity":"waste_basket"}},"type":"Feature"},
	{"geometry":{"coordinates":[37.740229,55.633929],"type":"Point"},"properties":{"osm_id":"6277408393","tag":{"amenity":"waste_basket"}},"type":"Feature"},
	{"geometry":{"coordinates":[37.739866,55.633883],"type":"Point"},"properties":{"osm_id":"6277408396","tag":{"amenity":"waste_basket"}},"type":"Feature"},
	{"geometry":{"coordinates":[37.739496,55.633837],"type":"Point"},"properties":{"osm_id":"6277408400","tag":{"amenity":"waste_basket"}},"type":"Feature"},
	{"geometry":{"coordinates":[37.73912,55.633791],"type":"Point"},"properties":{"osm_id":"6277408403","tag":{"amenity":"waste_basket"}},"type":"Feature"},
	{"geometry":{"coordinates":[37.740413,55.63371],"type":"Point"},"properties":{"osm_id":"6277408405","tag":{"amenity":"waste_basket"}},"type":"Feature"},
	{"geometry":{"coordinates":[37.735214,55.629765],"type":"Point"},"properties":{"osm_id":"6277415991","tag":{"amenity":"waste_basket"}},"type":"Feature"},
	{"geometry":{"coordinates":[37.735635,55.629765],"type":"Point"},"properties":{"osm_id":"6277415993","tag":{"amenity":"waste_basket"}},"type":"Feature"},
	{"geometry":{"coordinates":[37.736058,55.629764],"type":"Point"},"properties":{"osm_id":"6277415995","tag":{"amenity":"waste_basket"}},"type":"Feature"},
	{"geometry":{"coordinates":[37.734958,55.629733],"type":"Point"},"properties":{"osm_id":"6277416000","tag":{"amenity":"recycling","recycling:plastic":"yes","recycling_type":"container"}},"type":"Feature"},
	{"geometry":{"coordinates":[37.735796,55.628736],"type":"Point"},"properties":{"osm_id":"6277417564","tag":{"amenity":"waste_basket"}},"type":"Feature"},
	{"geometry":{"coordinates":[37.735425,55.628736],"type":"Point"},"properties":{"osm_id":"6277417565","tag":{"amenity":"waste_basket"}},"type":"Feature"},
	{"geometry":{"coordinates":[37.73508,55.628941],"type":"Point"},"properties":{"osm_id":"6277419422","tag":{"amenity":"waste_basket"}},"type":"Feature"},
	{"geometry":{"coordinates":[37.735081,55.62916],"type":"Point"},"properties":{"osm_id":"6277419424","tag":{"amenity":"waste_basket"}},"type":"Feature"},
	{"geometry":{"coordinates":[37.735082,55.629386],"type":"Point"},"properties":{"osm_id":"6277419426","tag":{"amenity":"waste_basket"}},"type":"Feature"},
	{"geometry":{"coordinates":[37.736292,55.629312],"type":"Point"},"properties":{"osm_id":"6277421659","tag":{"amenity":"waste_basket"}},"type":"Feature"},
	{"geometry":{"coordinates":[37.736298,55.62909],"type":"Point"},"properties":{"osm_id":"6277421661","tag":{"amenity":"waste_basket"}},"type":"Feature"},
	{"geometry":{"coordinates":[37.736311,55.628891],"type":"Point"},"properties":{"osm_id":"6277421663","tag":{"amenity":"waste_basket"}},"type":"Feature"},
	{"geometry":{"coordinates":[37.749508,55.628034],"type":"Point"},"properties":{"osm_id":"6480976289","tag":{"amenity":"waste_disposal"}},"type":"Feature"},
	{"geometry":{"coordinates":[37.747662,55.62877],"type":"Point"},"properties":{"osm_id":"6481042486","tag":{"amenity":"waste_basket"}},"type":"Feature"},
	{"geometry":{"coordinates":[37.747302,55.629055],"type":"Point"},"properties":{"osm_id":"6481084785","tag":{"amenity":"waste_disposal"}},"type":"Feature"},
	{"geometry":{"coordinates":[37.746382,55.629188],"type":"Point"},"properties":{"osm_id":"6481084885","tag":{"amenity":"waste_disposal"}},"type":"Feature"},
	{"geometry":{"coordinates":[37.745008,55.629132],"type":"Point"},"properties":{"osm_id":"6481084886","tag":{"amenity":"waste_disposal"}},"type":"Feature"},
	{"geometry":{"coordinates":[37.743215,55.630162],"type":"Point"},"properties":{"osm_id":"6481113685","tag":{"amenity":"waste_disposal"}},"type":"Feature"},
	{"geometry":{"coordinates":[37.749017,55.632607],"type":"Point"},"properties":{"osm_id":"6481114785","tag":{"amenity":"waste_disposal","operator":"\u00d0\u0096\u00d0\u00b8\u00d0\u00bb\u00d0\u00b8\u00d1\u0089\u00d0\u00bd\u00d0\u00b8\u00d0\u00ba"}},"type":"Feature"},
	{"geometry":{"coordinates":[37.747616,55.632661],"type":"Point"},"properties":{"osm_id":"6481129285","tag":{"amenity":"waste_basket"}},"type":"Feature"},
	{"geometry":{"coordinates":[37.749508,55.628022],"type":"Point"},"properties":{"osm_id":"6481403059","tag":{"amenity":"recycling","recycling:plastic_bottles":"yes","recycling_type":"container"}},"type":"Feature"},
	{"geometry":{"coordinates":[37.743198,55.630162],"type":"Point"},"properties":{"osm_id":"6481416555","tag":{"amenity":"recycling","recycling:plastic_bottles":"yes","recycling_type":"container"}},"type":"Feature"},
	{"geometry":{"coordinates":[37.744991,55.629131],"type":"Point"},"properties":{"osm_id":"6481416556","tag":{"amenity":"recycling","recycling:plastic_bottles":"yes","recycling_type":"container"}},"type":"Feature"},
	{"geometry":{"coordinates":[37.744259,55.628772],"type":"Point"},"properties":{"osm_id":"6481419075","tag":{"amenity":"waste_basket"}},"type":"Feature"},
	{"geometry":{"coordinates":[37.745079,55.628789],"type":"Point"},"properties":{"osm_id":"6481419076","tag":{"amenity":"waste_basket"}},"type":"Feature"},
	{"geometry":{"coordinates":[37.749005,55.632606],"type":"Point"},"properties":{"osm_id":"6481432449","tag":{"amenity":"recycling","recycling:plastic_bottles":"yes","recycling_type":"container"}},"type":"Feature"},
	{"geometry":{"coordinates":[37.747289,55.634401],"type":"Point"},"properties":{"osm_id":"6481467907","tag":{"amenity":"waste_basket"}},"type":"Feature"},
	{"geometry":{"coordinates":[37.747367,55.634192],"type":"Point"},"properties":{"osm_id":"6481467909","tag":{"amenity":"waste_basket"}},"type":"Feature"},
	{"geometry":{"coordinates":[37.747451,55.63398],"type":"Point"},"properties":{"osm_id":"6481467911","tag":{"amenity":"waste_basket"}},"type":"Feature"},
	{"geometry":{"coordinates":[37.747532,55.633768],"type":"Point"},"properties":{"osm_id":"6481467913","tag":{"amenity":"waste_basket"}},"type":"Feature"},
	{"geometry":{"coordinates":[37.747622,55.633553],"type":"Point"},"properties":{"osm_id":"6481467915","tag":{"amenity":"waste_basket"}},"type":"Feature"},
	{"geometry":{"coordinates":[37.746045,55.634778],"type":"Point"},"properties":{"osm_id":"6481476718","tag":{"amenity":"waste_basket"}},"type":"Feature"},
	{"geometry":{"coordinates":[37.745979,55.634986],"type":"Point"},"properties":{"osm_id":"6481476719","tag":{"amenity":"waste_basket"}},"type":"Feature"},
	{"geometry":{"coordinates":[37.746282,55.635173],"type":"Point"},"properties":{"osm_id":"6481476723","tag":{"amenity":"waste_basket"}},"type":"Feature"},
	{"geometry":{"coordinates":[37.746769,55.635226],"type":"Point"},"properties":{"osm_id":"6481476725","tag":{"amenity":"waste_basket"}},"type":"Feature"},
	{"geometry":{"coordinates":[37.747205,55.635273],"type":"Point"},"properties":{"osm_id":"6481476728","tag":{"amenity":"waste_basket"}},"type":"Feature"},
	{"geometry":{"coordinates":[37.745061,55.634006],"type":"Point"},"properties":{"osm_id":"6481502711","tag":{"amenity":"waste_basket"}},"type":"Feature"},
	{"geometry":{"coordinates":[37.745128,55.63423],"type":"Point"},"properties":{"osm_id":"6481502714","tag":{"amenity":"waste_basket"}},"type":"Feature"},
	{"geometry":{"coordinates":[37.749242,55.630268],"type":"Point"},"properties":{"osm_id":"6482323088","tag":{"amenity":"waste_disposal"}},"type":"Feature"},
	{"geometry":{"coordinates":[37.726537,55.643339],"type":"Point"},"properties":{"osm_id":"6482397988","tag":{"amenity":"waste_basket"}},"type":"Feature"},
	{"geometry":{"coordinates":[37.714139,55.643164],"type":"Point"},"properties":{"osm_id":"6482402485","tag":{"amenity":"waste_disposal"}},"type":"Feature"},
	{"geometry":{"coordinates":[37.709859,55.644716],"type":"Point"},"properties":{"osm_id":"6482423986","tag":{"amenity":"waste_disposal"}},"type":"Feature"},
	{"geometry":{"coordinates":[37.710721,55.643129],"type":"Point"},"properties":{"osm_id":"6482424685","tag":{"amenity":"waste_basket"}},"type":"Feature"},
	{"geometry":{"coordinates":[37.711289,55.64409],"type":"Point"},"properties":{"osm_id":"6482424885","tag":{"amenity":"waste_disposal"}},"type":"Feature"},
	{"geometry":{"coordinates":[37.742627,55.629897],"type":"Point"},"properties":{"osm_id":"6482757012","tag":{"amenity":"waste_basket"}},"type":"Feature"},
	{"geometry":{"coordinates":[37.742561,55.629744],"type":"Point"},"properties":{"osm_id":"6482757014","tag":{"amenity":"waste_basket"}},"type":"Feature"},
	{"geometry":{"coordinates":[37.710054,55.641251],"type":"Point"},"properties":{"osm_id":"6482779022","tag":{"amenity":"waste_basket"}},"type":"Feature"},
	{"geometry":{"coordinates":[37.710244,55.641371],"type":"Point"},"properties":{"osm_id":"6482779023","tag":{"amenity":"waste_basket"}},"type":"Feature"},
	{"geometry":{"coordinates":[37.711075,55.640947],"type":"Point"},"properties":{"osm_id":"6482779026","tag":{"amenity":"waste_basket"}},"type":"Feature"},
	{"geometry":{"coordinates":[37.712081,55.640823],"type":"Point"},"properties":{"osm_id":"6482779027","tag":{"amenity":"waste_basket"}},"type":"Feature"},
	{"geometry":{"coordinates":[37.711603,55.640883],"type":"Point"},"properties":{"osm_id":"6482779028","tag":{"amenity":"waste_basket"}},"type":"Feature"},
	{"geometry":{"coordinates":[37.714139,55.643155],"type":"Point"},"properties":{"osm_id":"6482783208","tag":{"amenity":"recycling","recycling:plastic_bottles":"yes","recycling_type":"container"}},"type":"Feature"},
	{"geometry":{"coordinates":[37.709883,55.644737],"type":"Point"},"properties":{"osm_id":"6482817693","tag":{"amenity":"recycling","recycling:plastic_bottles":"yes","recycling_type":"container"}},"type":"Feature"},
	{"geometry":{"coordinates":[37.711287,55.644107],"type":"Point"},"properties":{"osm_id":"6482817694","tag":{"amenity":"recycling","recycling:plastic_bottles":"yes","recycling_type":"container"}},"type":"Feature"},
	{"geometry":{"coordinates":[37.749243,55.630248],"type":"Point"},"properties":{"osm_id":"6482889187","tag":{"amenity":"recycling","recycling:plastic_bottles":"yes","recycling_type":"container"}},"type":"Feature"},
	{"geometry":{"coordinates":[37.747281,55.629054],"type":"Point"},"properties":{"osm_id":"6482889188","tag":{"amenity":"recycling","recycling:plastic_bottles":"yes","recycling_type":"container"}},"type":"Feature"},
	{"geometry":{"coordinates":[37.738729,55.643626],"type":"Point"},"properties":{"osm_id":"6482912574","tag":{"amenity":"waste_basket"}},"type":"Feature"},
	{"geometry":{"coordinates":[37.739025,55.643417],"type":"Point"},"properties":{"osm_id":"6482912576","tag":{"amenity":"waste_basket"}},"type":"Feature"},
	{"geometry":{"coordinates":[37.73942,55.643425],"type":"Point"},"properties":{"osm_id":"6482912578","tag":{"amenity":"waste_basket"}},"type":"Feature"},
	{"geometry":{"coordinates":[37.739812,55.643365],"type":"Point"},"properties":{"osm_id":"6482912579","tag":{"amenity":"waste_basket"}},"type":"Feature"},
	{"geometry":{"coordinates":[37.740173,55.643375],"type":"Point"},"properties":{"osm_id":"6482912580","tag":{"amenity":"waste_basket"}},"type":"Feature"},
	{"geometry":{"coordinates":[37.740574,55.643382],"type":"Point"},"properties":{"osm_id":"6482912581","tag":{"amenity":"waste_basket"}},"type":"Feature"},
	{"geometry":{"coordinates":[37.738694,55.643309],"type":"Point"},"properties":{"osm_id":"6482912582","tag":{"amenity":"waste_basket"}},"type":"Feature"},
	{"geometry":{"coordinates":[37.733527,55.643691],"type":"Point"},"properties":{"osm_id":"6482923254","tag":{"amenity":"waste_basket"}},"type":"Feature"},
	{"geometry":{"coordinates":[37.733944,55.6437],"type":"Point"},"properties":{"osm_id":"6482923256","tag":{"amenity":"waste_basket"}},"type":"Feature"},
	{"geometry":{"coordinates":[37.734357,55.643702],"type":"Point"},"properties":{"osm_id":"6482923258","tag":{"amenity":"waste_basket"}},"type":"Feature"},
	{"geometry":{"coordinates":[37.73488,55.643623],"type":"Point"},"properties":{"osm_id":"6482923263","tag":{"amenity":"waste_basket"}},"type":"Feature"},
	{"geometry":{"coordinates":[37.733772,55.644679],"type":"Point"},"properties":{"osm_id":"6482929073","tag":{"amenity":"waste_basket"}},"type":"Feature"},
	{"geometry":{"coordinates":[37.734147,55.644687],"type":"Point"},"properties":{"osm_id":"6482929074","tag":{"amenity":"waste_basket"}},"type":"Feature"},
	{"geometry":{"coordinates":[37.734518,55.644696],"type":"Point"},"properties":{"osm_id":"6482929075","tag":{"amenity":"waste_basket"}},"type":"Feature"},
	{"geometry":{"coordinates":[37.734633,55.644519],"type":"Point"},"properties":{"osm_id":"6482929079","tag":{"amenity":"waste_basket"}},"type":"Feature"},
	{"geometry":{"coordinates":[37.734644,55.64436],"type":"Point"},"properties":{"osm_id":"6482929080","tag":{"amenity":"waste_basket"}},"type":"Feature"},
	{"geometry":{"coordinates":[37.734662,55.644198],"type":"Point"},"properties":{"osm_id":"6482929081","tag":{"amenity":"waste_basket"}},"type":"Feature"},
	{"geometry":{"coordinates":[37.734668,55.644085],"type":"Point"},"properties":{"osm_id":"6482929082","tag":{"amenity":"waste_basket"}},"type":"Feature"},
	{"geometry":{"coordinates":[37.731062,55.644165],"type":"Point"},"properties":{"osm_id":"6482936863","tag":{"amenity":"waste_basket"}},"type":"Feature"},
	{"geometry":{"coordinates":[37.731094,55.64394],"type":"Point"},"properties":{"osm_id":"6482936864","tag":{"amenity":"waste_basket"}},"type":"Feature"},
	{"geometry":{"coordinates":[37.73158,55.64376],"type":"Point"},"properties":{"osm_id":"6482936870","tag":{"amenity":"waste_basket"}},"type":"Feature"},
	{"geometry":{"coordinates":[37.731965,55.643763],"type":"Point"},"properties":{"osm_id":"6482936872","tag":{"amenity":"waste_basket"}},"type":"Feature"},
	{"geometry":{"coordinates":[37.732371,55.643769],"type":"Point"},"properties":{"osm_id":"6482936874","tag":{"amenity":"waste_basket"}},"type":"Feature"},
	{"geometry":{"coordinates":[37.732692,55.643775],"type":"Point"},"properties":{"osm_id":"6482936876","tag":{"amenity":"waste_basket"}},"type":"Feature"},
	{"geometry":{"coordinates":[37.725625,55.643535],"type":"Point"},"properties":{"osm_id":"6482959819","tag":{"amenity":"waste_basket"}},"type":"Feature"},
	{"geometry":{"coordinates":[37.7252,55.643525],"type":"Point"},"properties":{"osm_id":"6482959820","tag":{"amenity":"waste_basket"}},"type":"Feature"},
	{"geometry":{"coordinates":[37.725966,55.643714],"type":"Point"},"properties":{"osm_id":"6482959823","tag":{"amenity":"waste_basket"}},"type":"Feature"},
	{"geometry":{"coordinates":[37.72595,55.643921],"type":"Point"},"properties":{"osm_id":"6482959824","tag":{"amenity":"waste_basket"}},"type":"Feature"},
	{"geometry":{"coordinates":[37.72594,55.644136],"type":"Point"},"properties":{"osm_id":"6482959825","tag":{"amenity":"waste_basket"}},"type":"Feature"},
	{"geometry":{"coordinates":[37.726146,55.643504],"type":"Point"},"properties":{"osm_id":"6482959829","tag":{"amenity":"waste_basket"}},"type":"Feature"},
	{"geometry":{"coordinates":[37.71559,55.642789],"type":"Point"},"properties":{"osm_id":"6482981849","tag":{"amenity":"waste_basket"}},"type":"Feature"},
	{"geometry":{"coordinates":[37.715989,55.642795],"type":"Point"},"properties":{"osm_id":"6482981850","tag":{"amenity":"waste_basket"}},"type":"Feature"},
	{"geometry":{"coordinates":[37.716765,55.642807],"type":"Point"},"properties":{"osm_id":"6482981851","tag":{"amenity":"waste_basket"}},"type":"Feature"},
	{"geometry":{"coordinates":[37.717156,55.642818],"type":"Point"},"properties":{"osm_id":"6482981852","tag":{"amenity":"waste_basket"}},"type":"Feature"},
	{"geometry":{"coordinates":[37.717491,55.642882],"type":"Point"},"properties":{"osm_id":"6482981853","tag":{"amenity":"waste_basket"}},"type":"Feature"},
	{"geometry":{"coordinates":[37.717473,55.643186],"type":"Point"},"properties":{"osm_id":"6482981854","tag":{"amenity":"waste_basket"}},"type":"Feature"},
	{"geometry":{"coordinates":[37.717729,55.642748],"type":"Point"},"properties":{"osm_id":"6482981864","tag":{"amenity":"waste_basket"}},"type":"Feature"},
	{"geometry":{"coordinates":[37.714278,55.643224],"type":"Point"},"properties":{"osm_id":"6482984452","tag":{"amenity":"waste_basket"}},"type":"Feature"},
	{"geometry":{"coordinates":[37.714254,55.643408],"type":"Point"},"properties":{"osm_id":"6482984453","tag":{"amenity":"waste_basket"}},"type":"Feature"},
	{"geometry":{"coordinates":[37.714243,55.643581],"type":"Point"},"properties":{"osm_id":"6482984454","tag":{"amenity":"waste_basket"}},"type":"Feature"},
	{"geometry":{"coordinates":[37.71213,55.64278],"type":"Point"},"properties":{"osm_id":"6482986145","tag":{"amenity":"waste_basket"}},"type":"Feature"},
	{"geometry":{"coordinates":[37.712484,55.642785],"type":"Point"},"properties":{"osm_id":"6482986146","tag":{"amenity":"waste_basket"}},"type":"Feature"},
	{"geometry":{"coordinates":[37.712843,55.642798],"type":"Point"},"properties":{"osm_id":"6482986147","tag":{"amenity":"waste_basket"}},"type":"Feature"},
	{"geometry":{"coordinates":[37.713213,55.642803],"type":"Point"},"properties":{"osm_id":"6482986148","tag":{"amenity":"waste_basket"}},"type":"Feature"},
	{"geometry":{"coordinates":[37.713581,55.642807],"type":"Point"},"properties":{"osm_id":"6482986149","tag":{"amenity":"waste_basket"}},"type":"Feature"},
	{"geometry":{"coordinates":[37.713935,55.642813],"type":"Point"},"properties":{"osm_id":"6482986150","tag":{"amenity":"waste_basket"}},"type":"Feature"},
	{"geometry":{"coordinates":[37.710083,55.643844],"type":"Point"},"properties":{"osm_id":"6482988252","tag":{"amenity":"waste_basket"}},"type":"Feature"},
	{"geometry":{"coordinates":[37.710107,55.643715],"type":"Point"},"properties":{"osm_id":"6482988254","tag":{"amenity":"waste_basket"}},"type":"Feature"},
	{"geometry":{"coordinates":[37.710118,55.64351],"type":"Point"},"properties":{"osm_id":"6482988256","tag":{"amenity":"waste_basket"}},"type":"Feature"},
	{"geometry":{"coordinates":[37.710118,55.643308],"type":"Point"},"properties":{"osm_id":"6482988259","tag":{"amenity":"waste_basket"}},"type":"Feature"},
	{"geometry":{"coordinates":[37.710451,55.643095],"type":"Point"},"properties":{"osm_id":"6482988260","tag":{"amenity":"waste_basket"}},"type":"Feature"},
	{"geometry":{"coordinates":[37.71033,55.644666],"type":"Point"},"properties":{"osm_id":"6482992945","tag":{"amenity":"waste_basket"}},"type":"Feature"},
	{"geometry":{"coordinates":[37.710343,55.644483],"type":"Point"},"properties":{"osm_id":"6482992946","tag":{"amenity":"waste_basket"}},"type":"Feature"},
	{"geometry":{"coordinates":[37.710381,55.644292],"type":"Point"},"properties":{"osm_id":"6482992947","tag":{"amenity":"waste_basket"}},"type":"Feature"},
	{"geometry":{"coordinates":[37.710386,55.644189],"type":"Point"},"properties":{"osm_id":"6482992948","tag":{"amenity":"waste_basket"}},"type":"Feature"},
	{"geometry":{"coordinates":[37.711907,55.645934],"type":"Point"},"properties":{"osm_id":"6483003126","tag":{"amenity":"waste_basket"}},"type":"Feature"},
	{"geometry":{"coordinates":[37.711703,55.645797],"type":"Point"},"properties":{"osm_id":"6483003128","tag":{"amenity":"waste_basket"}},"type":"Feature"},
	{"geometry":{"coordinates":[37.711504,55.645659],"type":"Point"},"properties":{"osm_id":"6483003130","tag":{"amenity":"waste_basket"}},"type":"Feature"},
	{"geometry":{"coordinates":[37.711311,55.645528],"type":"Point"},"properties":{"osm_id":"6483003132","tag":{"amenity":"waste_basket"}},"type":"Feature"},
	{"geometry":{"coordinates":[37.711109,55.645389],"type":"Point"},"properties":{"osm_id":"6483003134","tag":{"amenity":"waste_basket"}},"type":"Feature"},
	{"geometry":{"coordinates":[37.710905,55.645252],"type":"Point"},"properties":{"osm_id":"6483003136","tag":{"amenity":"waste_basket"}},"type":"Feature"},
	{"geometry":{"coordinates":[37.710708,55.645118],"type":"Point"},"properties":{"osm_id":"6483003138","tag":{"amenity":"waste_basket"}},"type":"Feature"},
	{"geometry":{"coordinates":[37.710518,55.644993],"type":"Point"},"properties":{"osm_id":"6483003140","tag":{"amenity":"waste_basket"}},"type":"Feature"},
	{"geometry":{"coordinates":[37.713347,55.646153],"type":"Point"},"properties":{"osm_id":"6483003151","tag":{"amenity":"waste_basket"}},"type":"Feature"},
	{"geometry":{"coordinates":[37.712732,55.64612],"type":"Point"},"properties":{"osm_id":"6483003152","tag":{"amenity":"waste_basket"}},"type":"Feature"},
	{"geometry":{"coordinates":[37.712433,55.646102],"type":"Point"},"properties":{"osm_id":"6483003153","tag":{"amenity":"waste_basket"}},"type":"Feature"},
	{"geometry":{"coordinates":[37.752295,55.643029],"type":"Point"},"properties":{"osm_id":"6542557689","tag":{"amenity":"waste_basket"}},"type":"Feature"},
	{"geometry":{"coordinates":[37.748341,55.629169],"type":"Point"},"properties":{"osm_id":"6542561585","tag":{"amenity":"waste_disposal"}},"type":"Feature"},
	{"geometry":{"coordinates":[37.751489,55.643565],"type":"Point"},"properties":{"osm_id":"6542604985","tag":{"amenity":"waste_basket"}},"type":"Feature"},
	{"geometry":{"coordinates":[37.751785,55.643451],"type":"Point"},"properties":{"osm_id":"6542605085","tag":{"amenity":"waste_basket"}},"type":"Feature"},
	{"geometry":{"coordinates":[37.754276,55.6433],"type":"Point"},"properties":{"osm_id":"6542605185","tag":{"amenity":"waste_basket"}},"type":"Feature"},
	{"geometry":{"coordinates":[37.766217,55.651527],"type":"Point"},"properties":{"osm_id":"6542661087","tag":{"amenity":"waste_disposal"}},"type":"Feature"},
	{"geometry":{"coordinates":[37.748362,55.629171],"type":"Point"},"properties":{"osm_id":"6543124858","tag":{"amenity":"recycling","recycling:plastic_bottles":"yes","recycling_type":"container"}},"type":"Feature"},
	{"geometry":{"coordinates":[37.754236,55.643388],"type":"Point"},"properties":{"osm_id":"6543232677","tag":{"amenity":"waste_basket"}},"type":"Feature"},
	{"geometry":{"coordinates":[37.764462,55.65359],"type":"Point"},"properties":{"osm_id":"6543942470","tag":{"amenity":"waste_basket"}},"type":"Feature"},
	{"geometry":{"coordinates":[37.764214,55.653792],"type":"Point"},"properties":{"osm_id":"6543942471","tag":{"amenity":"waste_basket"}},"type":"Feature"},
	{"geometry":{"coordinates":[37.763906,55.654047],"type":"Point"},"properties":{"osm_id":"6543942472","tag":{"amenity":"waste_basket"}},"type":"Feature"},
	{"geometry":{"coordinates":[37.763658,55.654256],"type":"Point"},"properties":{"osm_id":"6543942473","tag":{"amenity":"waste_basket"}},"type":"Feature"},
	{"geometry":{"coordinates":[37.763382,55.654489],"type":"Point"},"properties":{"osm_id":"6543942474","tag":{"amenity":"waste_basket"}},"type":"Feature"},
	{"geometry":{"coordinates":[37.750312,55.643771],"type":"Point"},"properties":{"osm_id":"6545472297","tag":{"amenity":"recycling","recycling:glass":"yes","recycling_type":"container"}},"type":"Feature"},
	{"geometry":{"coordinates":[37.750269,55.643764],"type":"Point"},"properties":{"osm_id":"6545472298","tag":{"amenity":"recycling","recycling:plastic":"yes","recycling_type":"container"}},"type":"Feature"},
	{"geometry":{"coordinates":[37.757512,55.646561],"type":"Point"},"properties":{"osm_id":"6545559598","tag":{"amenity":"waste_basket"}},"type":"Feature"},
	{"geometry":{"coordinates":[37.757914,55.646518],"type":"Point"},"properties":{"osm_id":"6545559601","tag":{"amenity":"waste_basket"}},"type":"Feature"},
	{"geometry":{"coordinates":[37.758257,55.646536],"type":"Point"},"properties":{"osm_id":"6545559603","tag":{"amenity":"waste_basket"}},"type":"Feature"},
	{"geometry":{"coordinates":[37.758591,55.646661],"type":"Point"},"properties":{"osm_id":"6545559604","tag":{"amenity":"waste_basket"}},"type":"Feature"},
	{"geometry":{"coordinates":[37.758846,55.646839],"type":"Point"},"properties":{"osm_id":"6545559606","tag":{"amenity":"waste_basket"}},"type":"Feature"},
	{"geometry":{"coordinates":[37.758917,55.647058],"type":"Point"},"properties":{"osm_id":"6545559609","tag":{"amenity":"waste_basket"}},"type":"Feature"},
	{"geometry":{"coordinates":[37.758895,55.647289],"type":"Point"},"properties":{"osm_id":"6545559610","tag":{"amenity":"waste_basket"}},"type":"Feature"},
	{"geometry":{"coordinates":[37.758646,55.647469],"type":"Point"},"properties":{"osm_id":"6545559612","tag":{"amenity":"waste_basket"}},"type":"Feature"},
	{"geometry":{"coordinates":[37.761346,55.648513],"type":"Point"},"properties":{"osm_id":"6545601497","tag":{"amenity":"waste_basket"}},"type":"Feature"},
	{"geometry":{"coordinates":[37.760982,55.648607],"type":"Point"},"properties":{"osm_id":"6545601500","tag":{"amenity":"waste_basket"}},"type":"Feature"},
	{"geometry":{"coordinates":[37.761355,55.648215],"type":"Point"},"properties":{"osm_id":"6545601505","tag":{"amenity":"waste_basket"}},"type":"Feature"},
	{"geometry":{"coordinates":[37.7611,55.647625],"type":"Point"},"properties":{"osm_id":"6545601507","tag":{"amenity":"waste_basket"}},"type":"Feature"},
	{"geometry":{"coordinates":[37.760781,55.647486],"type":"Point"},"properties":{"osm_id":"6545601510","tag":{"amenity":"waste_basket"}},"type":"Feature"},
	{"geometry":{"coordinates":[37.760475,55.647451],"type":"Point"},"properties":{"osm_id":"6545601512","tag":{"amenity":"waste_basket"}},"type":"Feature"},
	{"geometry":{"coordinates":[37.759989,55.647496],"type":"Point"},"properties":{"osm_id":"6545601513","tag":{"amenity":"waste_basket"}},"type":"Feature"},
	{"geometry":{"coordinates":[37.765602,55.649326],"type":"Point"},"properties":{"osm_id":"6545613261","tag":{"amenity":"waste_basket"}},"type":"Feature"},
	{"geometry":{"coordinates":[37.76515,55.649253],"type":"Point"},"properties":{"osm_id":"6545613262","tag":{"amenity":"waste_basket"}},"type":"Feature"},
	{"geometry":{"coordinates":[37.764674,55.649166],"type":"Point"},"properties":{"osm_id":"6545613266","tag":{"amenity":"waste_basket"}},"type":"Feature"},
	{"geometry":{"coordinates":[37.764234,55.648838],"type":"Point"},"properties":{"osm_id":"6545634186","tag":{"amenity":"waste_basket"}},"type":"Feature"},
	{"geometry":{"coordinates":[37.763768,55.648958],"type":"Point"},"properties":{"osm_id":"6545634187","tag":{"amenity":"waste_basket"}},"type":"Feature"},
	{"geometry":{"coordinates":[37.766015,55.649913],"type":"Point"},"properties":{"osm_id":"6545679388","tag":{"amenity":"waste_basket"}},"type":"Feature"},
	{"geometry":{"coordinates":[37.765653,55.649757],"type":"Point"},"properties":{"osm_id":"6545679389","tag":{"amenity":"waste_basket"}},"type":"Feature"},
	{"geometry":{"coordinates":[37.766518,55.650223],"type":"Point"},"properties":{"osm_id":"6545699983","tag":{"amenity":"waste_basket"}},"type":"Feature"},
	{"geometry":{"coordinates":[37.766746,55.65043],"type":"Point"},"properties":{"osm_id":"6545699984","tag":{"amenity":"waste_basket"}},"type":"Feature"},
	{"geometry":{"coordinates":[37.766825,55.650683],"type":"Point"},"properties":{"osm_id":"6545711185","tag":{"amenity":"waste_basket"}},"type":"Feature"},
	{"geometry":{"coordinates":[37.766892,55.650897],"type":"Point"},"properties":{"osm_id":"6545711186","tag":{"amenity":"waste_basket"}},"type":"Feature"},
	{"geometry":{"coordinates":[37.766816,55.651073],"type":"Point"},"properties":{"osm_id":"6545711187","tag":{"amenity":"waste_basket"}},"type":"Feature"},
	{"geometry":{"coordinates":[37.765814,55.652411],"type":"Point"},"properties":{"osm_id":"6545744148","tag":{"amenity":"waste_basket"}},"type":"Feature"},
	{"geometry":{"coordinates":[37.766086,55.652178],"type":"Point"},"properties":{"osm_id":"6545744149","tag":{"amenity":"waste_basket"}},"type":"Feature"},
	{"geometry":{"coordinates":[37.766377,55.651927],"type":"Point"},"properties":{"osm_id":"6545744150","tag":{"amenity":"waste_basket"}},"type":"Feature"},
	{"geometry":{"coordinates":[37.762847,55.652743],"type":"Point"},"properties":{"osm_id":"6545774751","tag":{"amenity":"waste_basket"}},"type":"Feature"},
	{"geometry":{"coordinates":[37.749601,55.643291],"type":"Point"},"properties":{"osm_id":"6549184441","tag":{"amenity":"waste_basket"}},"type":"Feature"},
	{"geometry":{"coordinates":[37.749802,55.643311],"type":"Point"},"properties":{"osm_id":"6549184444","tag":{"amenity":"waste_basket"}},"type":"Feature"},
	{"geometry":{"coordinates":[37.749192,55.643246],"type":"Point"},"properties":{"osm_id":"6549184445","tag":{"amenity":"waste_basket"}},"type":"Feature"},
	{"geometry":{"coordinates":[37.749393,55.643266],"type":"Point"},"properties":{"osm_id":"6549184448","tag":{"amenity":"waste_basket"}},"type":"Feature"},
	{"geometry":{"coordinates":[37.749981,55.64291],"type":"Point"},"properties":{"osm_id":"6549184460","tag":{"amenity":"waste_basket"}},"type":"Feature"},
	{"geometry":{"coordinates":[37.749989,55.643025],"type":"Point"},"properties":{"osm_id":"6549184461","tag":{"amenity":"waste_basket"}},"type":"Feature"},
	{"geometry":{"coordinates":[37.709254,55.651609],"type":"Point"},"properties":{"osm_id":"6549459586","tag":{"amenity":"waste_disposal"}},"type":"Feature"},
	{"geometry":{"coordinates":[37.72551,55.646107],"type":"Point"},"properties":{"osm_id":"6549503186","tag":{"amenity":"waste_basket"}},"type":"Feature"},
	{"geometry":{"coordinates":[37.723031,55.646196],"type":"Point"},"properties":{"osm_id":"6549503187","tag":{"amenity":"waste_disposal"}},"type":"Feature"},
	{"geometry":{"coordinates":[37.726397,55.646137],"type":"Point"},"properties":{"osm_id":"6549512085","tag":{"amenity":"waste_basket"}},"type":"Feature"},
	{"geometry":{"coordinates":[37.725977,55.646137],"type":"Point"},"properties":{"osm_id":"6549512086","tag":{"amenity":"waste_basket"}},"type":"Feature"},
	{"geometry":{"coordinates":[37.713236,55.645458],"type":"Point"},"properties":{"osm_id":"6549790886","tag":{"amenity":"waste_disposal"}},"type":"Feature"},
	{"geometry":{"coordinates":[37.709237,55.651624],"type":"Point"},"properties":{"osm_id":"6549995482","tag":{"amenity":"recycling","recycling:plastic_bottles":"yes","recycling_type":"container"}},"type":"Feature"},
	{"geometry":{"coordinates":[37.723016,55.646196],"type":"Point"},"properties":{"osm_id":"6550000296","tag":{"amenity":"recycling","recycling:craft":"yes","recycling:glass":"yes","recycling:metal":"yes","recycling:plastic":"yes","recycling_type":"container"}},"type":"Feature"},
	{"geometry":{"coordinates":[37.715966,55.645903],"type":"Point"},"properties":{"osm_id":"6550106668","tag":{"amenity":"recycling","recycling:plastic_bottles":"yes","recycling_type":"container"}},"type":"Feature"},
	{"geometry":{"coordinates":[37.715973,55.645898],"type":"Point"},"properties":{"osm_id":"6550106669","tag":{"amenity":"waste_disposal"}},"type":"Feature"},
	{"geometry":{"coordinates":[37.707785,55.656456],"type":"Point"},"properties":{"osm_id":"6550107370","tag":{"amenity":"waste_disposal"}},"type":"Feature"},
	{"geometry":{"coordinates":[37.706341,55.656224],"type":"Point"},"properties":{"osm_id":"6550151711","tag":{"amenity":"waste_basket"}},"type":"Feature"},
	{"geometry":{"coordinates":[37.70612,55.656151],"type":"Point"},"properties":{"osm_id":"6550151712","tag":{"amenity":"waste_basket"}},"type":"Feature"},
	{"geometry":{"coordinates":[37.760347,55.656563],"type":"Point"},"properties":{"osm_id":"6551002989","tag":{"amenity":"waste_basket"}},"type":"Feature"},
	{"geometry":{"coordinates":[37.776246,55.665812],"type":"Point"},"properties":{"osm_id":"6555754336","tag":{"amenity":"waste_basket"}},"type":"Feature"},
	{"geometry":{"coordinates":[37.776063,55.665977],"type":"Point"},"properties":{"osm_id":"6555754339","tag":{"amenity":"waste_basket"}},"type":"Feature"},
	{"geometry":{"coordinates":[37.775506,55.666135],"type":"Point"},"properties":{"osm_id":"6555754342","tag":{"amenity":"waste_basket"}},"type":"Feature"},
	{"geometry":{"coordinates":[37.775042,55.666187],"type":"Point"},"properties":{"osm_id":"6555754344","tag":{"amenity":"waste_basket"}},"type":"Feature"},
	{"geometry":{"coordinates":[37.774553,55.666634],"type":"Point"},"properties":{"osm_id":"6555794799","tag":{"amenity":"waste_basket"}},"type":"Feature"},
	{"geometry":{"coordinates":[37.774051,55.666906],"type":"Point"},"properties":{"osm_id":"6555794802","tag":{"amenity":"waste_basket"}},"type":"Feature"},
	{"geometry":{"coordinates":[37.773679,55.666956],"type":"Point"},"properties":{"osm_id":"6555794804","tag":{"amenity":"waste_basket"}},"type":"Feature"},
	{"geometry":{"coordinates":[37.773312,55.666991],"type":"Point"},"properties":{"osm_id":"6555794806","tag":{"amenity":"waste_basket"}},"type":"Feature"},
	{"geometry":{"coordinates":[37.772788,55.666928],"type":"Point"},"properties":{"osm_id":"6555794808","tag":{"amenity":"waste_basket"}},"type":"Feature"},
	{"geometry":{"coordinates":[37.772491,55.666813],"type":"Point"},"properties":{"osm_id":"6555794809","tag":{"amenity":"waste_basket"}},"type":"Feature"},
	{"geometry":{"coordinates":[37.772173,55.666758],"type":"Point"},"properties":{"osm_id":"6555794811","tag":{"amenity":"waste_basket"}},"type":"Feature"},
	{"geometry":{"coordinates":[37.771766,55.666799],"type":"Point"},"properties":{"osm_id":"6555794813","tag":{"amenity":"waste_basket"}},"type":"Feature"},
	{"geometry":{"coordinates":[37.771379,55.666836],"type":"Point"},"properties":{"osm_id":"6555794816","tag":{"amenity":"waste_basket"}},"type":"Feature"},
	{"geometry":{"coordinates":[37.770739,55.666947],"type":"Point"},"properties":{"osm_id":"6555794818","tag":{"amenity":"waste_basket"}},"type":"Feature"},
	{"geometry":{"coordinates":[37.770458,55.666834],"type":"Point"},"properties":{"osm_id":"6555794820","tag":{"amenity":"waste_basket"}},"type":"Feature"},
	{"geometry":{"coordinates":[37.757725,55.655218],"type":"Point"},"properties":{"osm_id":"6587280235","tag":{"amenity":"recycling","recycling:glass":"yes","recycling_type":"container"}},"type":"Feature"},
	{"geometry":{"coordinates":[37.757705,55.655232],"type":"Point"},"properties":{"osm_id":"6587280236","tag":{"amenity":"recycling","recycling:paper":"yes","recycling_type":"container"}},"type":"Feature"},
	{"geometry":{"coordinates":[37.757685,55.655247],"type":"Point"},"properties":{"osm_id":"6587280237","tag":{"amenity":"recycling","recycling:plastic":"yes","recycling_type":"container"}},"type":"Feature"},
	{"geometry":{"coordinates":[37.757665,55.655261],"type":"Point"},"properties":{"osm_id":"6587280238","tag":{"amenity":"recycling","recycling:metal":"yes","recycling_type":"container"}},"type":"Feature"},
	{"geometry":{"coordinates":[37.758806,55.65546],"type":"Point"},"properties":{"osm_id":"6587280246","tag":{"amenity":"waste_basket"}},"type":"Feature"},
	{"geometry":{"coordinates":[37.758489,55.655343],"type":"Point"},"properties":{"osm_id":"6587280247","tag":{"amenity":"waste_basket"}},"type":"Feature"},
	{"geometry":{"coordinates":[37.758181,55.655225],"type":"Point"},"properties":{"osm_id":"6587280248","tag":{"amenity":"waste_basket"}},"type":"Feature"},
	{"geometry":{"coordinates":[37.757864,55.655088],"type":"Point"},"properties":{"osm_id":"6587280249","tag":{"amenity":"waste_basket"}},"type":"Feature"},
	{"geometry":{"coordinates":[37.760144,55.655949],"type":"Point"},"properties":{"osm_id":"6587289083","tag":{"amenity":"waste_basket"}},"type":"Feature"},
	{"geometry":{"coordinates":[37.759807,55.655822],"type":"Point"},"properties":{"osm_id":"6587289084","tag":{"amenity":"waste_basket"}},"type":"Feature"},
	{"geometry":{"coordinates":[37.760493,55.656217],"type":"Point"},"properties":{"osm_id":"6587292407","tag":{"amenity":"waste_basket"}},"type":"Feature"},
	{"geometry":{"coordinates":[37.759467,55.655688],"type":"Point"},"properties":{"osm_id":"6587305485","tag":{"amenity":"waste_basket"}},"type":"Feature"},
	{"geometry":{"coordinates":[37.759732,55.656891],"type":"Point"},"properties":{"osm_id":"6587312799","tag":{"amenity":"recycling","recycling:metal":"yes","recycling_type":"container"}},"type":"Feature"},
	{"geometry":{"coordinates":[37.759746,55.656897],"type":"Point"},"properties":{"osm_id":"6587312800","tag":{"amenity":"recycling","recycling:plastic":"yes","recycling_type":"container"}},"type":"Feature"},
	{"geometry":{"coordinates":[37.759761,55.656903],"type":"Point"},"properties":{"osm_id":"6587312801","tag":{"amenity":"recycling","recycling:paper":"yes","recycling_type":"container"}},"type":"Feature"},
	{"geometry":{"coordinates":[37.759775,55.656909],"type":"Point"},"properties":{"osm_id":"6587312802","tag":{"amenity":"recycling","recycling:glass":"yes","recycling_type":"container"}},"type":"Feature"},
	{"geometry":{"coordinates":[37.758866,55.658305],"type":"Point"},"properties":{"osm_id":"6587318273","tag":{"amenity":"waste_basket"}},"type":"Feature"},
	{"geometry":{"coordinates":[37.758958,55.658043],"type":"Point"},"properties":{"osm_id":"6587318274","tag":{"amenity":"waste_basket"}},"type":"Feature"},
	{"geometry":{"coordinates":[37.759204,55.657834],"type":"Point"},"properties":{"osm_id":"6587318275","tag":{"amenity":"waste_basket"}},"type":"Feature"},
	{"geometry":{"coordinates":[37.759452,55.657626],"type":"Point"},"properties":{"osm_id":"6587318276","tag":{"amenity":"waste_basket"}},"type":"Feature"},
	{"geometry":{"coordinates":[37.759702,55.657418],"type":"Point"},"properties":{"osm_id":"6587318277","tag":{"amenity":"waste_basket"}},"type":"Feature"},
	{"geometry":{"coordinates":[37.759954,55.657207],"type":"Point"},"properties":{"osm_id":"6587318278","tag":{"amenity":"waste_basket"}},"type":"Feature"},
	{"geometry":{"coordinates":[37.760206,55.656997],"type":"Point"},"properties":{"osm_id":"6587318279","tag":{"amenity":"waste_basket"}},"type":"Feature"},
	{"geometry":{"coordinates":[37.760502,55.659702],"type":"Point"},"properties":{"osm_id":"6590410165","tag":{"amenity":"waste_basket"}},"type":"Feature"},
	{"geometry":{"coordinates":[37.760935,55.659253],"type":"Point"},"properties":{"osm_id":"6590427053","tag":{"amenity":"waste_basket"}},"type":"Feature"},
	{"geometry":{"coordinates":[37.761166,55.659067],"type":"Point"},"properties":{"osm_id":"6590427054","tag":{"amenity":"waste_basket"}},"type":"Feature"},
	{"geometry":{"coordinates":[37.761391,55.658889],"type":"Point"},"properties":{"osm_id":"6590427055","tag":{"amenity":"waste_basket"}},"type":"Feature"},
	{"geometry":{"coordinates":[37.769847,55.666114],"type":"Point"},"properties":{"osm_id":"6662270541","tag":{"amenity":"waste_basket"}},"type":"Feature"},
	{"geometry":{"coordinates":[37.77013,55.665867],"type":"Point"},"properties":{"osm_id":"6662270544","tag":{"amenity":"waste_basket"}},"type":"Feature"},
	{"geometry":{"coordinates":[37.769561,55.666297],"type":"Point"},"properties":{"osm_id":"6662270549","tag":{"amenity":"waste_basket"}},"type":"Feature"},
	{"geometry":{"coordinates":[37.769914,55.666605],"type":"Point"},"properties":{"osm_id":"6662270552","tag":{"amenity":"waste_basket"}},"type":"Feature"},
	{"geometry":{"coordinates":[37.767977,55.665682],"type":"Point"},"properties":{"osm_id":"6662349363","tag":{"amenity":"waste_basket"}},"type":"Feature"},
	{"geometry":{"coordinates":[37.76857,55.665436],"type":"Point"},"properties":{"osm_id":"6662349365","tag":{"amenity":"waste_basket"}},"type":"Feature"},
	{"geometry":{"coordinates":[37.768376,55.665599],"type":"Point"},"properties":{"osm_id":"6662349369","tag":{"amenity":"waste_basket"}},"type":"Feature"},
	{"geometry":{"coordinates":[37.760772,55.661796],"type":"Point"},"properties":{"osm_id":"6662390473","tag":{"amenity":"waste_basket"}},"type":"Feature"},
	{"geometry":{"coordinates":[37.760637,55.661673],"type":"Point"},"properties":{"osm_id":"6662390475","tag":{"amenity":"waste_basket"}},"type":"Feature"},
	{"geometry":{"coordinates":[37.76064,55.661431],"type":"Point"},"properties":{"osm_id":"6662390476","tag":{"amenity":"waste_basket"}},"type":"Feature"},
	{"geometry":{"coordinates":[37.760633,55.661176],"type":"Point"},"properties":{"osm_id":"6662390479","tag":{"amenity":"waste_basket"}},"type":"Feature"},
	{"geometry":{"coordinates":[37.76038,55.660732],"type":"Point"},"properties":{"osm_id":"6662466785","tag":{"amenity":"waste_basket"}},"type":"Feature"},
	{"geometry":{"coordinates":[37.760525,55.660944],"type":"Point"},"properties":{"osm_id":"6662466787","tag":{"amenity":"waste_basket"}},"type":"Feature"},
	{"geometry":{"coordinates":[37.760267,55.660543],"type":"Point"},"properties":{"osm_id":"6662466789","tag":{"amenity":"waste_basket"}},"type":"Feature"},
	{"geometry":{"coordinates":[37.764753,55.6643],"type":"Point"},"properties":{"osm_id":"6695681238","tag":{"amenity":"waste_basket"}},"type":"Feature"},
	{"geometry":{"coordinates":[37.765046,55.664403],"type":"Point"},"properties":{"osm_id":"6695681239","tag":{"amenity":"waste_basket"}},"type":"Feature"},
	{"geometry":{"coordinates":[37.765402,55.664596],"type":"Point"},"properties":{"osm_id":"6695681240","tag":{"amenity":"waste_basket"}},"type":"Feature"},
	{"geometry":{"coordinates":[37.765721,55.664716],"type":"Point"},"properties":{"osm_id":"6695681241","tag":{"amenity":"waste_basket"}},"type":"Feature"},
	{"geometry":{"coordinates":[37.766028,55.664834],"type":"Point"},"properties":{"osm_id":"6695681242","tag":{"amenity":"waste_basket"}},"type":"Feature"},
	{"geometry":{"coordinates":[37.766357,55.664956],"type":"Point"},"properties":{"osm_id":"6695681243","tag":{"amenity":"waste_basket"}},"type":"Feature"},
	{"geometry":{"coordinates":[37.767317,55.665261],"type":"Point"},"properties":{"osm_id":"6695681245","tag":{"amenity":"waste_basket"}},"type":"Feature"},
	{"geometry":{"coordinates":[37.767075,55.665165],"type":"Point"},"properties":{"osm_id":"6695681246","tag":{"amenity":"waste_basket"}},"type":"Feature"},
	{"geometry":{"coordinates":[37.764272,55.663657],"type":"Point"},"properties":{"osm_id":"6770468705","tag":{"amenity":"waste_basket"}},"type":"Feature"},
	{"geometry":{"coordinates":[37.763992,55.663902],"type":"Point"},"properties":{"osm_id":"6770468708","tag":{"amenity":"waste_basket"}},"type":"Feature"},
	{"geometry":{"coordinates":[37.76379,55.664072],"type":"Point"},"properties":{"osm_id":"6770468712","tag":{"amenity":"waste_basket"}},"type":"Feature"},
	{"geometry":{"coordinates":[37.762271,55.662653],"type":"Point"},"properties":{"osm_id":"6770471750","tag":{"amenity":"waste_basket"}},"type":"Feature"},
	{"geometry":{"coordinates":[37.762545,55.662439],"type":"Point"},"properties":{"osm_id":"6770471751","tag":{"amenity":"waste_basket"}},"type":"Feature"}
]
}
