{
"type": "FeatureCollection",
"features": [
	{"geometry":{"coordinates":[37.736098,55.609921],"type":"Point"},"properties":{"osm_id":"660559920","tag":{"amenity":"waste_disposal"}},"type":"Feature"},
	{"geometry":{"coordinates":[37.735696,55.60911],"type":"Point"},"properties":{"osm_id":"660559976","tag":{"amenity":"waste_disposal"}},"type":"Feature"},
	{"geometry":{"coordinates":[37.726046,55.596628],"type":"Point"},"properties":{"osm_id":"718375356","tag":{"amenity":"recycling"}},"type":"Feature"},
	{"geometry":{"coordinates":[37.719755,55.597242],"type":"Point"},"properties":{"osm_id":"825866908","tag":{"amenity":"waste_disposal","waste":"trash"}},"type":"Feature"},
	{"geometry":{"coordinates":[37.707135,55.607762],"type":"Point"},"properties":{"osm_id":"893134122","tag":{"amenity":"waste_disposal"}},"type":"Feature"},
	{"geometry":{"coordinates":[37.708344,55.607794],"type":"Point"},"properties":{"osm_id":"893134139","tag":{"amenity":"waste_disposal"}},"type":"Feature"},
	{"geometry":{"coordinates":[37.760988,55.590022],"type":"Point"},"properties":{"osm_id":"1074597252","tag":{"amenity":"waste_disposal"}},"type":"Feature"},
	{"geometry":{"coordinates":[37.707773,55.625153],"type":"Point"},"properties":{"osm_id":"1085509286","ref":"1990180","tag":{"amenity":"waste_disposal","collection_times":"07:00-11:00","operator":"\u00d0\u0093\u00d0\u00a3\u00d0\u009f \"\u00d0\u00ad\u00d0\u00ba\u00d0\u00be\u00d1\u0082\u00d0\u00b5\u00d1\u0085\u00d0\u00bf\u00d1\u0080\u00d0\u00be\u00d0\u00bc\""}},"type":"Feature"},
	{"geometry":{"coordinates":[37.710158,55.606628],"type":"Point"},"properties":{"osm_id":"1112461344","tag":{"amenity":"waste_disposal"}},"type":"Feature"},
	{"geometry":{"coordinates":[37.712373,55.600594],"type":"Point"},"properties":{"osm_id":"1113785451","tag":{"amenity":"waste_disposal"}},"type":"Feature"},
	{"geometry":{"coordinates":[37.709883,55.602205],"type":"Point"},"properties":{"osm_id":"1113785540","tag":{"amenity":"waste_disposal"}},"type":"Feature"},
	{"geometry":{"coordinates":[37.713814,55.603395],"type":"Point"},"properties":{"osm_id":"1113785869","tag":{"amenity":"waste_disposal"}},"type":"Feature"},
	{"geometry":{"coordinates":[37.708049,55.603578],"type":"Point"},"properties":{"osm_id":"1113785954","tag":{"amenity":"waste_disposal"}},"type":"Feature"},
	{"geometry":{"coordinates":[37.723853,55.595621],"type":"Point"},"properties":{"osm_id":"1119043049","tag":{"amenity":"waste_disposal","waste":"trash"}},"type":"Feature"},
	{"geometry":{"coordinates":[37.714073,55.605876],"type":"Point"},"properties":{"osm_id":"1125341938","tag":{"amenity":"waste_disposal"}},"type":"Feature"},
	{"geometry":{"coordinates":[37.712843,55.607965],"type":"Point"},"properties":{"osm_id":"1125341940","tag":{"amenity":"waste_disposal"}},"type":"Feature"},
	{"geometry":{"coordinates":[37.715668,55.608283],"type":"Point"},"properties":{"osm_id":"1125341951","tag":{"amenity":"waste_disposal"}},"type":"Feature"},
	{"geometry":{"coordinates":[37.715231,55.606983],"type":"Point"},"properties":{"osm_id":"1125342027","tag":{"amenity":"waste_disposal"}},"type":"Feature"},
	{"geometry":{"coordinates":[37.715775,55.606145],"type":"Point"},"properties":{"osm_id":"1125342033","tag":{"amenity":"waste_disposal"}},"type":"Feature"},
	{"geometry":{"coordinates":[37.716053,55.609244],"type":"Point"},"properties":{"osm_id":"1125342108","tag":{"amenity":"waste_disposal"}},"type":"Feature"},
	{"geometry":{"coordinates":[37.716468,55.607364],"type":"Point"},"properties":{"osm_id":"1125342121","tag":{"amenity":"waste_disposal"}},"type":"Feature"},
	{"geometry":{"coordinates":[37.716111,55.609937],"type":"Point"},"properties":{"osm_id":"1125342179","tag":{"amenity":"waste_disposal"}},"type":"Feature"},
	{"geometry":{"coordinates":[37.708142,55.607039],"type":"Point"},"properties":{"osm_id":"1137663437","tag":{"amenity":"waste_disposal"}},"type":"Feature"},
	{"geometry":{"coordinates":[37.715882,55.602179],"type":"Point"},"properties":{"osm_id":"1137698954","tag":{"amenity":"waste_disposal"}},"type":"Feature"},
	{"geometry":{"coordinates":[37.720231,55.601777],"type":"Point"},"properties":{"osm_id":"1137699078","tag":{"amenity":"waste_disposal"}},"type":"Feature"},
	{"geometry":{"coordinates":[37.716556,55.601016],"type":"Point"},"properties":{"osm_id":"1137699112","tag":{"amenity":"waste_disposal"}},"type":"Feature"},
	{"geometry":{"coordinates":[37.726922,55.604909],"type":"Point"},"properties":{"osm_id":"1137761706","tag":{"amenity":"waste_disposal"}},"type":"Feature"},
	{"geometry":{"coordinates":[37.728415,55.603358],"type":"Point"},"properties":{"osm_id":"1137761719","tag":{"amenity":"waste_disposal"}},"type":"Feature"},
	{"geometry":{"coordinates":[37.726005,55.606787],"type":"Point"},"properties":{"osm_id":"1137761980","tag":{"amenity":"waste_disposal"}},"type":"Feature"},
	{"geometry":{"coordinates":[37.725561,55.60851],"type":"Point"},"properties":{"osm_id":"1137797702","tag":{"amenity":"waste_disposal"}},"type":"Feature"},
	{"geometry":{"coordinates":[37.730218,55.609009],"type":"Point"},"properties":{"osm_id":"1137878248","tag":{"amenity":"waste_disposal"}},"type":"Feature"},
	{"geometry":{"coordinates":[37.730082,55.604724],"type":"Point"},"properties":{"osm_id":"1137878675","tag":{"amenity":"waste_disposal"}},"type":"Feature"},
	{"geometry":{"coordinates":[37.732169,55.60595],"type":"Point"},"properties":{"osm_id":"1137878786","tag":{"amenity":"waste_disposal"}},"type":"Feature"},
	{"geometry":{"coordinates":[37.731832,55.606618],"type":"Point"},"properties":{"osm_id":"1137878877","tag":{"amenity":"waste_disposal"}},"type":"Feature"},
	{"geometry":{"coordinates":[37.735069,55.615958],"type":"Point"},"properties":{"osm_id":"1151737480","tag":{"amenity":"waste_disposal"}},"type":"Feature"},
	{"geometry":{"coordinates":[37.733956,55.618556],"type":"Point"},"properties":{"osm_id":"1151737519","tag":{"amenity":"waste_disposal"}},"type":"Feature"},
	{"geometry":{"coordinates":[37.735961,55.614492],"type":"Point"},"properties":{"osm_id":"1151737529","tag":{"amenity":"waste_disposal"}},"type":"Feature"},
	{"geometry":{"coordinates":[37.707327,55.611037],"type":"Point"},"properties":{"osm_id":"1157846085","tag":{"amenity":"waste_disposal"}},"type":"Feature"},
	{"geometry":{"coordinates":[37.706603,55.612366],"type":"Point"},"properties":{"osm_id":"1157951285","tag":{"amenity":"waste_disposal"}},"type":"Feature"},
	{"geometry":{"coordinates":[37.715005,55.604103],"type":"Point"},"properties":{"osm_id":"1165984610","tag":{"amenity":"waste_disposal"}},"type":"Feature"},
	{"geometry":{"coordinates":[37.71508,55.6035],"type":"Point"},"properties":{"osm_id":"1165984614","tag":{"amenity":"waste_disposal"}},"type":"Feature"},
	{"geometry":{"coordinates":[37.717563,55.603997],"type":"Point"},"properties":{"osm_id":"1165984641","tag":{"amenity":"waste_disposal"}},"type":"Feature"},
	{"geometry":{"coordinates":[37.71784,55.604348],"type":"Point"},"properties":{"osm_id":"1165984719","tag":{"amenity":"waste_disposal"}},"type":"Feature"},
	{"geometry":{"coordinates":[37.734714,55.610412],"type":"Point"},"properties":{"osm_id":"1200960623","tag":{"amenity":"waste_disposal"}},"type":"Feature"},
	{"geometry":{"coordinates":[37.709966,55.607494],"type":"Point"},"properties":{"osm_id":"1206209962","tag":{"amenity":"waste_disposal"}},"type":"Feature"},
	{"geometry":{"coordinates":[37.707748,55.604772],"type":"Point"},"properties":{"osm_id":"1206210031","tag":{"amenity":"waste_disposal"}},"type":"Feature"},
	{"geometry":{"coordinates":[37.705511,55.604743],"type":"Point"},"properties":{"osm_id":"1206210126","tag":{"amenity":"waste_disposal"}},"type":"Feature"},
	{"geometry":{"coordinates":[37.734293,55.609337],"type":"Point"},"properties":{"osm_id":"1210324803","tag":{"amenity":"waste_disposal"}},"type":"Feature"},
	{"geometry":{"coordinates":[37.734493,55.606514],"type":"Point"},"properties":{"osm_id":"1211242047","tag":{"amenity":"waste_disposal"}},"type":"Feature"},
	{"geometry":{"coordinates":[37.736905,55.605145],"type":"Point"},"properties":{"osm_id":"1211242071","tag":{"amenity":"waste_disposal"}},"type":"Feature"},
	{"geometry":{"coordinates":[37.735294,55.604854],"type":"Point"},"properties":{"osm_id":"1211242100","tag":{"amenity":"waste_disposal"}},"type":"Feature"},
	{"geometry":{"coordinates":[37.736575,55.605739],"type":"Point"},"properties":{"osm_id":"1211242114","tag":{"amenity":"waste_disposal"}},"type":"Feature"},
	{"geometry":{"coordinates":[37.740796,55.610404],"type":"Point"},"properties":{"osm_id":"1212250404","tag":{"amenity":"waste_disposal"}},"type":"Feature"},
	{"geometry":{"coordinates":[37.708147,55.615328],"type":"Point"},"properties":{"osm_id":"1212575978","tag":{"amenity":"waste_disposal"}},"type":"Feature"},
	{"geometry":{"coordinates":[37.708086,55.615142],"type":"Point"},"properties":{"osm_id":"1212575998","tag":{"amenity":"waste_disposal"}},"type":"Feature"},
	{"geometry":{"coordinates":[37.743889,55.626956],"type":"Point"},"properties":{"osm_id":"1279408951","tag":{"amenity":"waste_disposal"}},"type":"Feature"},
	{"geometry":{"coordinates":[37.745866,55.62766],"type":"Point"},"properties":{"osm_id":"1279408988","tag":{"amenity":"waste_disposal"}},"type":"Feature"},
	{"geometry":{"coordinates":[37.744343,55.601435],"type":"Point"},"properties":{"osm_id":"1416498333","tag":{"amenity":"waste_disposal"}},"type":"Feature"},
	{"geometry":{"coordinates":[37.743652,55.60339],"type":"Point"},"properties":{"osm_id":"1416498337","tag":{"amenity":"waste_disposal"}},"type":"Feature"},
	{"geometry":{"coordinates":[37.734172,55.622415],"type":"Point"},"properties":{"osm_id":"1529634631","tag":{"amenity":"waste_disposal"}},"type":"Feature"},
	{"geometry":{"coordinates":[37.740705,55.622979],"type":"Point"},"properties":{"osm_id":"1529634660","tag":{"amenity":"waste_disposal"}},"type":"Feature"},
	{"geometry":{"coordinates":[37.734743,55.623248],"type":"Point"},"properties":{"osm_id":"1529634662","tag":{"amenity":"waste_disposal"}},"type":"Feature"},
	{"geometry":{"coordinates":[37.732354,55.623339],"type":"Point"},"properties":{"osm_id":"1529634664","tag":{"amenity":"waste_disposal"}},"type":"Feature"},
	{"geometry":{"coordinates":[37.735883,55.623841],"type":"Point"},"properties":{"osm_id":"1529634670","tag":{"amenity":"waste_disposal"}},"type":"Feature"},
	{"geometry":{"coordinates":[37.746069,55.615978],"type":"Point"},"properties":{"osm_id":"1534461855","tag":{"amenity":"waste_disposal"}},"type":"Feature"},
	{"geometry":{"coordinates":[37.747094,55.616009],"type":"Point"},"properties":{"osm_id":"1534461857","tag":{"amenity":"waste_disposal"}},"type":"Feature"},
	{"geometry":{"coordinates":[37.748162,55.617887],"type":"Point"},"properties":{"osm_id":"1534461868","tag":{"amenity":"waste_disposal"}},"type":"Feature"},
	{"geometry":{"coordinates":[37.746074,55.618565],"type":"Point"},"properties":{"osm_id":"1534461869","tag":{"amenity":"waste_disposal"}},"type":"Feature"},
	{"geometry":{"coordinates":[37.748538,55.619074],"type":"Point"},"properties":{"osm_id":"1534461871","tag":{"amenity":"waste_disposal"}},"type":"Feature"},
	{"geometry":{"coordinates":[37.750388,55.619954],"type":"Point"},"properties":{"osm_id":"1534461873","tag":{"amenity":"waste_disposal"}},"type":"Feature"},
	{"geometry":{"coordinates":[37.74601,55.621008],"type":"Point"},"properties":{"osm_id":"1534461875","tag":{"amenity":"waste_disposal"}},"type":"Feature"},
	{"geometry":{"coordinates":[37.750703,55.618593],"type":"Point"},"properties":{"osm_id":"1534473852","tag":{"amenity":"waste_disposal"}},"type":"Feature"},
	{"geometry":{"coordinates":[37.749593,55.609345],"type":"Point"},"properties":{"osm_id":"1923460069","tag":{"amenity":"waste_disposal"}},"type":"Feature"},
	{"geometry":{"coordinates":[37.750902,55.609638],"type":"Point"},"properties":{"osm_id":"1923460087","tag":{"amenity":"waste_disposal"}},"type":"Feature"},
	{"geometry":{"coordinates":[37.746821,55.610087],"type":"Point"},"properties":{"osm_id":"1923460102","tag":{"amenity":"waste_disposal"}},"type":"Feature"},
	{"geometry":{"coordinates":[37.746988,55.606837],"type":"Point"},"properties":{"osm_id":"1923477301","tag":{"amenity":"waste_disposal"}},"type":"Feature"},
	{"geometry":{"coordinates":[37.749644,55.607518],"type":"Point"},"properties":{"osm_id":"1923477341","tag":{"amenity":"waste_disposal"}},"type":"Feature"},
	{"geometry":{"coordinates":[37.749123,55.605978],"type":"Point"},"properties":{"osm_id":"1923512625","tag":{"amenity":"waste_disposal"}},"type":"Feature"},
	{"geometry":{"coordinates":[37.7507,55.606642],"type":"Point"},"properties":{"osm_id":"1923512675","tag":{"amenity":"waste_disposal"}},"type":"Feature"},
	{"geometry":{"coordinates":[37.753015,55.60827],"type":"Point"},"properties":{"osm_id":"1953496204","tag":{"amenity":"recycling"}},"type":"Feature"},
	{"geometry":{"coordinates":[37.756972,55.609575],"type":"Point"},"properties":{"osm_id":"1953496344","tag":{"amenity":"waste_disposal"}},"type":"Feature"},
	{"geometry":{"coordinates":[37.752299,55.620217],"type":"Point"},"properties":{"osm_id":"1993648637","tag":{"amenity":"waste_disposal"}},"type":"Feature"},
	{"geometry":{"coordinates":[37.751253,55.621073],"type":"Point"},"properties":{"osm_id":"1993648652","tag":{"amenity":"waste_disposal"}},"type":"Feature"},
	{"geometry":{"coordinates":[37.72238,55.595523],"type":"Point"},"properties":{"osm_id":"2683137021","ref":"3103577","tag":{"amenity":"waste_disposal","collection_times":"12:00-16:00","operator":"\u00d0\u009e\u00d0\u009e\u00d0\u009e \"\u00d0\u00a1\u00d0\u00bf\u00d0\u00b5\u00d1\u0086\u00d1\u0082\u00d1\u0080\u00d0\u00b0\u00d0\u00bd\u00d1\u0081-\u00d0\u00ad\u00d0\u009a\u00d0\u009e\""}},"type":"Feature"},
	{"geometry":{"coordinates":[37.72635,55.624111],"type":"Point"},"properties":{"osm_id":"2683139205","tag":{"amenity":"recycling"}},"type":"Feature"},
	{"geometry":{"coordinates":[37.710559,55.620615],"type":"Point"},"properties":{"osm_id":"2928072158","ref":"3454595","tag":{"amenity":"waste_disposal","collection_times":"07:00-11:00","operator":"\u00d0\u0093\u00d0\u00a3\u00d0\u009f \"\u00d0\u00ad\u00d0\u00ba\u00d0\u00be\u00d1\u0082\u00d0\u00b5\u00d1\u0085\u00d0\u00bf\u00d1\u0080\u00d0\u00be\u00d0\u00bc\""}},"type":"Feature"},
	{"geometry":{"coordinates":[37.706669,55.620955],"type":"Point"},"properties":{"osm_id":"2928072169","tag":{"amenity":"waste_disposal"}},"type":"Feature"},
	{"geometry":{"coordinates":[37.713815,55.625132],"type":"Point"},"properties":{"osm_id":"2964256585","tag":{"amenity":"waste_disposal","collection_times":"07:00-09:00","operator":"\u00d0\u0093\u00d0\u00a3\u00d0\u009f \"\u00d0\u00ad\u00d0\u00ba\u00d0\u00be\u00d1\u0082\u00d0\u00b5\u00d1\u0085\u00d0\u00bf\u00d1\u0080\u00d0\u00be\u00d0\u00bc\""}},"type":"Feature"},
	{"geometry":{"coordinates":[37.708896,55.626019],"type":"Point"},"properties":{"osm_id":"2970497063","tag":{"amenity":"waste_disposal","collection_times":"11:00-12:00","operator":"\u00d0\u0093\u00d0\u00a3\u00d0\u009f \"\u00d0\u00ad\u00d0\u00ba\u00d0\u00be\u00d1\u0082\u00d0\u00b5\u00d1\u0085\u00d0\u00bf\u00d1\u0080\u00d0\u00be\u00d0\u00bc\""}},"type":"Feature"},
	{"geometry":{"coordinates":[37.716156,55.624189],"type":"Point"},"properties":{"osm_id":"3338489829","tag":{"amenity":"waste_disposal","collection_times":"07:00-09:00","operator":"\u00d0\u0093\u00d0\u00a3\u00d0\u009f \"\u00d0\u00ad\u00d0\u00ba\u00d0\u00be\u00d1\u0082\u00d0\u00b5\u00d1\u0085\u00d0\u00bf\u00d1\u0080\u00d0\u00be\u00d0\u00bc\""}},"type":"Feature"},
	{"geometry":{"coordinates":[37.706207,55.619463],"type":"Point"},"properties":{"osm_id":"3538202875","tag":{"amenity":"waste_disposal"}},"type":"Feature"},
	{"geometry":{"coordinates":[37.706609,55.624946],"type":"Point"},"properties":{"osm_id":"3564396740","ref":"1991406","tag":{"amenity":"waste_disposal","collection_times":"07:00-11:00","operator":"\u00d0\u0093\u00d0\u00a3\u00d0\u009f \"\u00d0\u00ad\u00d0\u00ba\u00d0\u00be\u00d1\u0082\u00d0\u00b5\u00d1\u0085\u00d0\u00bf\u00d1\u0080\u00d0\u00be\u00d0\u00bc\""}},"type":"Feature"},
	{"geometry":{"coordinates":[37.724968,55.588783],"type":"Point"},"properties":{"osm_id":"3615888116","tag":{"amenity":"recycling","operator":"\u00d0\u009c\u00d0\u00b5\u00d0\u00b3\u00d0\u00b0\u00d0\u00bf\u00d0\u00be\u00d0\u00bb\u00d0\u00b8\u00d1\u0081\u00d1\u0080\u00d0\u00b5\u00d1\u0081\u00d1\u0083\u00d1\u0080\u00d1\u0081","recycling:batteries":"yes","recycling_type":"container"}},"type":"Feature"},
	{"geometry":{"coordinates":[37.71146,55.615775],"type":"Point"},"properties":{"osm_id":"3637983867","tag":{"amenity":"waste_disposal"}},"type":"Feature"},
	{"geometry":{"coordinates":[37.711957,55.617083],"type":"Point"},"properties":{"osm_id":"3637983869","tag":{"amenity":"waste_disposal"}},"type":"Feature"},
	{"geometry":{"coordinates":[37.717427,55.596515],"type":"Point"},"properties":{"osm_id":"3762586488","ref":"3092723","tag":{"amenity":"waste_disposal","collection_times":"07:00-11:00","operator":"\u00d0\u009e\u00d0\u009e\u00d0\u009e \"\u00d0\u00a1\u00d0\u00bf\u00d0\u00b5\u00d1\u0086\u00d1\u0082\u00d1\u0080\u00d0\u00b0\u00d0\u00bd\u00d1\u0081-\u00d0\u00ad\u00d0\u009a\u00d0\u009e\""}},"type":"Feature"},
	{"geometry":{"coordinates":[37.748267,55.605449],"type":"Point"},"properties":{"osm_id":"4107485189","tag":{"amenity":"waste_disposal"}},"type":"Feature"},
	{"geometry":{"coordinates":[37.717201,55.627445],"type":"Point"},"properties":{"osm_id":"4148802661","ref":"30943367","tag":{"amenity":"waste_disposal","collection_times":"07:00-11:00","operator":"\u00d0\u0093\u00d0\u00a3\u00d0\u009f \"\u00d0\u00ad\u00d0\u00ba\u00d0\u00be\u00d1\u0082\u00d0\u00b5\u00d1\u0085\u00d0\u00bf\u00d1\u0080\u00d0\u00be\u00d0\u00bc\""}},"type":"Feature"},
	{"geometry":{"coordinates":[37.71971,55.62774],"type":"Point"},"properties":{"osm_id":"4148802664","tag":{"amenity":"waste_disposal"}},"type":"Feature"},
	{"geometry":{"coordinates":[37.718819,55.62684],"type":"Point"},"properties":{"osm_id":"4155950957","ref":"1996544","tag":{"amenity":"waste_disposal","collection_times":"07:00-11:00","operator":"\u00d0\u0093\u00d0\u00a3\u00d0\u009f \"\u00d0\u00ad\u00d0\u00ba\u00d0\u00be\u00d1\u0082\u00d0\u00b5\u00d1\u0085\u00d0\u00bf\u00d1\u0080\u00d0\u00be\u00d0\u00bc\""}},"type":"Feature"},
	{"geometry":{"coordinates":[37.736062,55.622321],"type":"Point"},"properties":{"osm_id":"4166336492","tag":{"amenity":"waste_disposal"}},"type":"Feature"},
	{"geometry":{"coordinates":[37.736082,55.62484],"type":"Point"},"properties":{"osm_id":"4166336500","tag":{"amenity":"waste_disposal"}},"type":"Feature"},
	{"geometry":{"coordinates":[37.709104,55.611844],"type":"Point"},"properties":{"osm_id":"4188214040","ref":"1994636","tag":{"amenity":"waste_disposal","collection_times":"09:00-13:00","operator":"\u00d0\u0093\u00d0\u00a3\u00d0\u009f \"\u00d0\u00ad\u00d0\u00ba\u00d0\u00be\u00d1\u0082\u00d0\u00b5\u00d1\u0085\u00d0\u00bf\u00d1\u0080\u00d0\u00be\u00d0\u00bc\""}},"type":"Feature"},
	{"geometry":{"coordinates":[37.726688,55.607377],"type":"Point"},"properties":{"osm_id":"4237587074","tag":{"amenity":"waste_disposal"}},"type":"Feature"},
	{"geometry":{"coordinates":[37.726976,55.608587],"type":"Point"},"properties":{"osm_id":"4237587076","tag":{"amenity":"waste_disposal"}},"type":"Feature"},
	{"geometry":{"coordinates":[37.732383,55.606507],"type":"Point"},"properties":{"osm_id":"4237587190","tag":{"amenity":"waste_disposal"}},"type":"Feature"},
	{"geometry":{"coordinates":[37.748543,55.605748],"type":"Point"},"properties":{"osm_id":"4241429225","tag":{"amenity":"waste_disposal"}},"type":"Feature"},
	{"geometry":{"coordinates":[37.722031,55.626877],"type":"Point"},"properties":{"osm_id":"4254700490","tag":{"amenity":"waste_disposal"}},"type":"Feature"},
	{"geometry":{"coordinates":[37.721699,55.627727],"type":"Point"},"properties":{"osm_id":"4254700513","tag":{"amenity":"waste_disposal"}},"type":"Feature"},
	{"geometry":{"coordinates":[37.72057,55.625586],"type":"Point"},"properties":{"osm_id":"4258953374","tag":{"amenity":"waste_disposal"}},"type":"Feature"},
	{"geometry":{"coordinates":[37.760898,55.616717],"type":"Point"},"properties":{"osm_id":"4375731873","tag":{"amenity":"waste_basket"}},"type":"Feature"},
	{"geometry":{"coordinates":[37.755378,55.614493],"type":"Point"},"properties":{"osm_id":"4375782096","tag":{"amenity":"waste_basket"}},"type":"Feature"},
	{"geometry":{"coordinates":[37.755852,55.614751],"type":"Point"},"properties":{"osm_id":"4375782102","tag":{"amenity":"waste_basket"}},"type":"Feature"},
	{"geometry":{"coordinates":[37.757108,55.615116],"type":"Point"},"properties":{"osm_id":"4375782109","tag":{"amenity":"waste_basket"}},"type":"Feature"},
	{"geometry":{"coordinates":[37.757183,55.615142],"type":"Point"},"properties":{"osm_id":"4375782110","tag":{"amenity":"waste_basket"}},"type":"Feature"},
	{"geometry":{"coordinates":[37.757493,55.615234],"type":"Point"},"properties":{"osm_id":"4375782113","tag":{"amenity":"waste_basket"}},"type":"Feature"},
	{"geometry":{"coordinates":[37.757987,55.615398],"type":"Point"},"properties":{"osm_id":"4375782117","tag":{"amenity":"waste_basket"}},"type":"Feature"},
	{"geometry":{"coordinates":[37.758038,55.615419],"type":"Point"},"properties":{"osm_id":"4375782118","tag":{"amenity":"waste_basket"}},"type":"Feature"},
	{"geometry":{"coordinates":[37.759111,55.615814],"type":"Point"},"properties":{"osm_id":"4375782126","tag":{"amenity":"waste_basket"}},"type":"Feature"},
	{"geometry":{"coordinates":[37.712041,55.626036],"type":"Point"},"properties":{"osm_id":"4382515415","ref":"3476989","tag":{"amenity":"waste_disposal","collection_times":"07:00-11:00","operator":"\u00d0\u0093\u00d0\u00a3\u00d0\u009f \"\u00d0\u00ad\u00d0\u00ba\u00d0\u00be\u00d1\u0082\u00d0\u00b5\u00d1\u0085\u00d0\u00bf\u00d1\u0080\u00d0\u00be\u00d0\u00bc\""}},"type":"Feature"},
	{"geometry":{"coordinates":[37.713304,55.626867],"type":"Point"},"properties":{"osm_id":"4382515428","ref":"3477055","tag":{"amenity":"waste_disposal","collection_times":"07:00-11:00","operator":"\u00d0\u0093\u00d0\u00a3\u00d0\u009f \"\u00d0\u00ad\u00d0\u00ba\u00d0\u00be\u00d1\u0082\u00d0\u00b5\u00d1\u0085\u00d0\u00bf\u00d1\u0080\u00d0\u00be\u00d0\u00bc\""}},"type":"Feature"},
	{"geometry":{"coordinates":[37.721737,55.595881],"type":"Point"},"properties":{"osm_id":"4392707805","ref":"3103578","tag":{"amenity":"waste_disposal","collection_times":"12:00-16:00","operator":"\u00d0\u009e\u00d0\u009e\u00d0\u009e \"\u00d0\u00a1\u00d0\u00bf\u00d0\u00b5\u00d1\u0086\u00d1\u0082\u00d1\u0080\u00d0\u00b0\u00d0\u00bd\u00d1\u0081-\u00d0\u00ad\u00d0\u009a\u00d0\u009e\""}},"type":"Feature"},
	{"geometry":{"coordinates":[37.754656,55.614398],"type":"Point"},"properties":{"osm_id":"4393717064","tag":{"amenity":"waste_basket"}},"type":"Feature"},
	{"geometry":{"coordinates":[37.723011,55.597669],"type":"Point"},"properties":{"osm_id":"4399805089","tag":{"amenity":"waste_disposal"}},"type":"Feature"},
	{"geometry":{"coordinates":[37.706438,55.620166],"type":"Point"},"properties":{"osm_id":"4426769291","ref":"31015028","tag":{"amenity":"waste_disposal","collection_times":"09:00-13:00","operator":"\u00d0\u0093\u00d0\u00a3\u00d0\u009f \"\u00d0\u00ad\u00d0\u00ba\u00d0\u00be\u00d1\u0082\u00d0\u00b5\u00d1\u0085\u00d0\u00bf\u00d1\u0080\u00d0\u00be\u00d0\u00bc\""}},"type":"Feature"},
	{"geometry":{"coordinates":[37.705156,55.620659],"type":"Point"},"properties":{"osm_id":"4426769298","ref":"29789854","tag":{"amenity":"waste_disposal","collection_times":"09:00-13:00","operator":"\u00d0\u0093\u00d0\u00a3\u00d0\u009f \"\u00d0\u00ad\u00d0\u00ba\u00d0\u00be\u00d1\u0082\u00d0\u00b5\u00d1\u0085\u00d0\u00bf\u00d1\u0080\u00d0\u00be\u00d0\u00bc\""}},"type":"Feature"},
	{"geometry":{"coordinates":[37.733434,55.604833],"type":"Point"},"properties":{"osm_id":"4441893791","tag":{"amenity":"waste_disposal"}},"type":"Feature"},
	{"geometry":{"coordinates":[37.731125,55.603783],"type":"Point"},"properties":{"osm_id":"4441912491","tag":{"amenity":"waste_disposal"}},"type":"Feature"},
	{"geometry":{"coordinates":[37.749354,55.610137],"type":"Point"},"properties":{"osm_id":"4669153158","tag":{"amenity":"waste_disposal"}},"type":"Feature"},
	{"geometry":{"coordinates":[37.739693,55.626928],"type":"Point"},"properties":{"osm_id":"4833331142","ref":"3481944","tag":{"amenity":"waste_disposal","collection_times":"07:00-11:00","operator":"\u00d0\u0093\u00d0\u00a3\u00d0\u009f \"\u00d0\u00ad\u00d0\u00ba\u00d0\u00be\u00d1\u0082\u00d0\u00b5\u00d1\u0085\u00d0\u00bf\u00d1\u0080\u00d0\u00be\u00d0\u00bc\""}},"type":"Feature"},
	{"geometry":{"coordinates":[37.739142,55.626907],"type":"Point"},"properties":{"osm_id":"4833331143","ref":"3481962","tag":{"amenity":"waste_disposal","collection_times":"07:00-11:00","operator":"\u00d0\u0093\u00d0\u00a3\u00d0\u009f \"\u00d0\u00ad\u00d0\u00ba\u00d0\u00be\u00d1\u0082\u00d0\u00b5\u00d1\u0085\u00d0\u00bf\u00d1\u0080\u00d0\u00be\u00d0\u00bc\""}},"type":"Feature"},
	{"geometry":{"coordinates":[37.737348,55.626906],"type":"Point"},"properties":{"osm_id":"4833331154","ref":"5523741","tag":{"amenity":"waste_disposal","collection_times":"07:00-11:00","operator":"\u00d0\u0093\u00d0\u00a3\u00d0\u009f \"\u00d0\u00ad\u00d0\u00ba\u00d0\u00be\u00d1\u0082\u00d0\u00b5\u00d1\u0085\u00d0\u00bf\u00d1\u0080\u00d0\u00be\u00d0\u00bc\""}},"type":"Feature"},
	{"geometry":{"coordinates":[37.709662,55.621837],"type":"Point"},"properties":{"osm_id":"4876646636","ref":"1991543","tag":{"amenity":"waste_disposal","collection_times":"07:00-11:00","operator":"\u00d0\u0093\u00d0\u00a3\u00d0\u009f \"\u00d0\u00ad\u00d0\u00ba\u00d0\u00be\u00d1\u0082\u00d0\u00b5\u00d1\u0085\u00d0\u00bf\u00d1\u0080\u00d0\u00be\u00d0\u00bc\""}},"type":"Feature"},
	{"geometry":{"coordinates":[37.710432,55.621905],"type":"Point"},"properties":{"osm_id":"4876646641","tag":{"amenity":"waste_disposal"}},"type":"Feature"},
	{"geometry":{"coordinates":[37.705111,55.600301],"type":"Point"},"properties":{"osm_id":"4995562304","tag":{"amenity":"waste_basket"}},"type":"Feature"},
	{"geometry":{"coordinates":[37.705371,55.600098],"type":"Point"},"properties":{"osm_id":"4995562305","tag":{"amenity":"waste_basket"}},"type":"Feature"},
	{"geometry":{"coordinates":[37.70592,55.6],"type":"Point"},"properties":{"osm_id":"4995562306","tag":{"amenity":"waste_basket"}},"type":"Feature"},
	{"geometry":{"coordinates":[37.707594,55.600138],"type":"Point"},"properties":{"osm_id":"4995562307","tag":{"amenity":"waste_basket"}},"type":"Feature"},
	{"geometry":{"coordinates":[37.707562,55.60016],"type":"Point"},"properties":{"osm_id":"4995562308","tag":{"amenity":"waste_basket"}},"type":"Feature"},
	{"geometry":{"coordinates":[37.70751,55.600166],"type":"Point"},"properties":{"osm_id":"4995562309","tag":{"amenity":"waste_basket"}},"type":"Feature"},
	{"geometry":{"coordinates":[37.707465,55.60015],"type":"Point"},"properties":{"osm_id":"4995562310","tag":{"amenity":"waste_basket"}},"type":"Feature"},
	{"geometry":{"coordinates":[37.707039,55.599955],"type":"Point"},"properties":{"osm_id":"4995562311","tag":{"amenity":"waste_basket"}},"type":"Feature"},
	{"geometry":{"coordinates":[37.707083,55.59996],"type":"Point"},"properties":{"osm_id":"4995562312","tag":{"amenity":"waste_basket"}},"type":"Feature"},
	{"geometry":{"coordinates":[37.707116,55.599942],"type":"Point"},"properties":{"osm_id":"4995562313","tag":{"amenity":"waste_basket"}},"type":"Feature"},
	{"geometry":{"coordinates":[37.707114,55.599916],"type":"Point"},"properties":{"osm_id":"4995562314","tag":{"amenity":"waste_basket"}},"type":"Feature"},
	{"geometry":{"coordinates":[37.707942,55.599732],"type":"Point"},"properties":{"osm_id":"4995562329","tag":{"amenity":"waste_basket"}},"type":"Feature"},
	{"geometry":{"coordinates":[37.707876,55.599737],"type":"Point"},"properties":{"osm_id":"4995562330","tag":{"amenity":"waste_basket"}},"type":"Feature"},
	{"geometry":{"coordinates":[37.708452,55.599689],"type":"Point"},"properties":{"osm_id":"4995562342","tag":{"amenity":"waste_basket"}},"type":"Feature"},
	{"geometry":{"coordinates":[37.732111,55.605391],"type":"Point"},"properties":{"osm_id":"5039808509","tag":{"amenity":"waste_disposal"}},"type":"Feature"},
	{"geometry":{"coordinates":[37.719044,55.623977],"type":"Point"},"properties":{"osm_id":"5135947724","tag":{"amenity":"waste_disposal","collection_times":"07:00-09:00","operator":"\u00d0\u0093\u00d0\u00a3\u00d0\u009f \"\u00d0\u00ad\u00d0\u00ba\u00d0\u00be\u00d1\u0082\u00d0\u00b5\u00d1\u0085\u00d0\u00bf\u00d1\u0080\u00d0\u00be\u00d0\u00bc\""}},"type":"Feature"},
	{"geometry":{"coordinates":[37.717363,55.623666],"type":"Point"},"properties":{"osm_id":"5135947725","tag":{"amenity":"waste_disposal","collection_times":"07:00-09:00","operator":"\u00d0\u0093\u00d0\u00a3\u00d0\u009f \"\u00d0\u00ad\u00d0\u00ba\u00d0\u00be\u00d1\u0082\u00d0\u00b5\u00d1\u0085\u00d0\u00bf\u00d1\u0080\u00d0\u00be\u00d0\u00bc\""}},"type":"Feature"},
	{"geometry":{"coordinates":[37.741172,55.600339],"type":"Point"},"properties":{"osm_id":"5161683217","tag":{"amenity":"waste_basket"}},"type":"Feature"},
	{"geometry":{"coordinates":[37.741696,55.621694],"type":"Point"},"properties":{"osm_id":"5224825709","tag":{"amenity":"waste_disposal"}},"type":"Feature"},
	{"geometry":{"coordinates":[37.742843,55.60878],"type":"Point"},"properties":{"osm_id":"5357307522","tag":{"amenity":"waste_disposal"}},"type":"Feature"},
	{"geometry":{"coordinates":[37.742906,55.607334],"type":"Point"},"properties":{"osm_id":"5359290376","tag":{"amenity":"waste_disposal"}},"type":"Feature"},
	{"geometry":{"coordinates":[37.741669,55.608752],"type":"Point"},"properties":{"osm_id":"5359294389","tag":{"amenity":"waste_disposal"}},"type":"Feature"},
	{"geometry":{"coordinates":[37.707027,55.623892],"type":"Point"},"properties":{"osm_id":"5410505786","tag":{"amenity":"recycling","description":"\u00d0\u009a\u00d0\u00be\u00d1\u0080\u00d0\u00be\u00d0\u00b1\u00d0\u00ba\u00d0\u00b0 \u00d0\u00b2\u00d0\u00be \"\u00d0\u0092\u00d0\u00ba\u00d1\u0083\u00d1\u0081\u00d0\u0092\u00d0\u00b8\u00d0\u00bb\u00d0\u00bb\". \u00d0\u00a0\u00d0\u00b0\u00d1\u0081\u00d0\u00bf\u00d0\u00be\u00d0\u00bb\u00d0\u00be\u00d0\u00b6\u00d0\u00b5\u00d0\u00bd\u00d0\u00b0 \u00d1\u0083 \u00d1\u0081\u00d1\u0082\u00d0\u00b5\u00d0\u00bd\u00d1\u008b \u00d1\u0081\u00d0\u00bf\u00d1\u0080\u00d0\u00b0\u00d0\u00b2\u00d0\u00b0 \u00d0\u00be\u00d1\u0082 \u00d0\u00b2\u00d1\u0085\u00d0\u00be\u00d0\u00b4\u00d0\u00b0.","opening_hours":"Mo-Su 09:00-22:00","recycling:batteries":"yes","recycling:cans":"no","recycling:cardboard":"no","recycling:clothes":"no","recycling:electrical_appliances":"no","recycling:glass":"no","recycling:glass_bottles":"no","recycling:green_waste":"no","recycling:paper":"no","recycling:plastic":"no","recycling:plastic_bottles":"no","recycling:plastic_packaging":"no","recycling:scrap_metal":"no","recycling:shoes":"no","recycling:small_appliances":"no","recycling:waste":"no","recycling_type":"container"}},"type":"Feature"},
	{"geometry":{"coordinates":[37.744634,55.59455],"type":"Point"},"properties":{"osm_id":"5454317061","tag":{"amenity":"waste_basket"}},"type":"Feature"},
	{"geometry":{"coordinates":[37.742158,55.599454],"type":"Point"},"properties":{"osm_id":"5484598770","tag":{"amenity":"waste_disposal"}},"type":"Feature"},
	{"geometry":{"coordinates":[37.746658,55.604962],"type":"Point"},"properties":{"osm_id":"5491621122","tag":{"amenity":"waste_disposal"}},"type":"Feature"},
	{"geometry":{"coordinates":[37.751562,55.590046],"type":"Point"},"properties":{"osm_id":"5501099824","tag":{"amenity":"waste_disposal"}},"type":"Feature"},
	{"geometry":{"coordinates":[37.716534,55.62471],"type":"Point"},"properties":{"osm_id":"5507944296","tag":{"amenity":"recycling","recycling:car_batteries":"yes","recycling:paper":"yes","recycling:plastic":"yes","recycling:scrap_metal":"yes","recycling_type":"centre"}},"type":"Feature"},
	{"geometry":{"coordinates":[37.75279,55.6153],"type":"Point"},"properties":{"osm_id":"5548381421","tag":{"amenity":"waste_disposal"}},"type":"Feature"},
	{"geometry":{"coordinates":[37.742058,55.599312],"type":"Point"},"properties":{"osm_id":"5564975969","tag":{"amenity":"waste_basket"}},"type":"Feature"},
	{"geometry":{"coordinates":[37.747709,55.596179],"type":"Point"},"properties":{"osm_id":"5569790832","tag":{"amenity":"waste_basket"}},"type":"Feature"},
	{"geometry":{"coordinates":[37.744215,55.595561],"type":"Point"},"properties":{"osm_id":"5569790837","tag":{"amenity":"waste_basket"}},"type":"Feature"},
	{"geometry":{"coordinates":[37.743068,55.597197],"type":"Point"},"properties":{"osm_id":"5627552462","tag":{"amenity":"waste_basket"}},"type":"Feature"},
	{"geometry":{"coordinates":[37.742504,55.597628],"type":"Point"},"properties":{"osm_id":"5627552463","tag":{"amenity":"waste_basket"}},"type":"Feature"},
	{"geometry":{"coordinates":[37.7415,55.598856],"type":"Point"},"properties":{"osm_id":"5627552464","tag":{"amenity":"waste_basket"}},"type":"Feature"},
	{"geometry":{"coordinates":[37.740173,55.60482],"type":"Point"},"properties":{"osm_id":"5627552469","tag":{"amenity":"waste_basket"}},"type":"Feature"},
	{"geometry":{"coordinates":[37.740144,55.604779],"type":"Point"},"properties":{"osm_id":"5627552470","tag":{"amenity":"waste_basket"}},"type":"Feature"},
	{"geometry":{"coordinates":[37.71969,55.600306],"type":"Point"},"properties":{"osm_id":"5628777328","tag":{"amenity":"waste_basket"}},"type":"Feature"},
	{"geometry":{"coordinates":[37.719483,55.600352],"type":"Point"},"properties":{"osm_id":"5628796526","tag":{"amenity":"waste_basket"}},"type":"Feature"},
	{"geometry":{"coordinates":[37.719511,55.600281],"type":"Point"},"properties":{"osm_id":"5628796527","tag":{"amenity":"waste_basket"}},"type":"Feature"},
	{"geometry":{"coordinates":[37.718925,55.600062],"type":"Point"},"properties":{"osm_id":"5630596024","tag":{"amenity":"waste_basket"}},"type":"Feature"},
	{"geometry":{"coordinates":[37.717756,55.59973],"type":"Point"},"properties":{"osm_id":"5630614023","tag":{"amenity":"waste_basket"}},"type":"Feature"},
	{"geometry":{"coordinates":[37.719511,55.600092],"type":"Point"},"properties":{"osm_id":"5630616222","tag":{"amenity":"waste_basket"}},"type":"Feature"},
	{"geometry":{"coordinates":[37.750544,55.622343],"type":"Point"},"properties":{"osm_id":"5643341624","tag":{"amenity":"waste_basket"}},"type":"Feature"},
	{"geometry":{"coordinates":[37.750503,55.622432],"type":"Point"},"properties":{"osm_id":"5643341625","tag":{"amenity":"waste_basket"}},"type":"Feature"},
	{"geometry":{"coordinates":[37.750454,55.622381],"type":"Point"},"properties":{"osm_id":"5643370725","tag":{"amenity":"waste_basket"}},"type":"Feature"},
	{"geometry":{"coordinates":[37.750584,55.622359],"type":"Point"},"properties":{"osm_id":"5643370726","tag":{"amenity":"waste_basket"}},"type":"Feature"},
	{"geometry":{"coordinates":[37.743693,55.604844],"type":"Point"},"properties":{"osm_id":"5643442023","tag":{"amenity":"waste_basket"}},"type":"Feature"},
	{"geometry":{"coordinates":[37.752399,55.622917],"type":"Point"},"properties":{"osm_id":"5643792550","tag":{"amenity":"waste_basket"}},"type":"Feature"},
	{"geometry":{"coordinates":[37.752779,55.622963],"type":"Point"},"properties":{"osm_id":"5643792553","tag":{"amenity":"waste_basket"}},"type":"Feature"},
	{"geometry":{"coordinates":[37.753151,55.623009],"type":"Point"},"properties":{"osm_id":"5643792556","tag":{"amenity":"waste_basket"}},"type":"Feature"},
	{"geometry":{"coordinates":[37.753574,55.623061],"type":"Point"},"properties":{"osm_id":"5643792559","tag":{"amenity":"waste_basket"}},"type":"Feature"},
	{"geometry":{"coordinates":[37.754066,55.623072],"type":"Point"},"properties":{"osm_id":"5643792562","tag":{"amenity":"waste_basket"}},"type":"Feature"},
	{"geometry":{"coordinates":[37.754397,55.623062],"type":"Point"},"properties":{"osm_id":"5643792565","tag":{"amenity":"waste_basket"}},"type":"Feature"},
	{"geometry":{"coordinates":[37.75471,55.623055],"type":"Point"},"properties":{"osm_id":"5643792568","tag":{"amenity":"waste_basket"}},"type":"Feature"},
	{"geometry":{"coordinates":[37.755028,55.623048],"type":"Point"},"properties":{"osm_id":"5643792571","tag":{"amenity":"waste_basket"}},"type":"Feature"},
	{"geometry":{"coordinates":[37.75206,55.62255],"type":"Point"},"properties":{"osm_id":"5643792582","tag":{"amenity":"waste_basket"}},"type":"Feature"},
	{"geometry":{"coordinates":[37.752047,55.622311],"type":"Point"},"properties":{"osm_id":"5643792585","tag":{"amenity":"waste_basket"}},"type":"Feature"},
	{"geometry":{"coordinates":[37.752126,55.622082],"type":"Point"},"properties":{"osm_id":"5643792588","tag":{"amenity":"waste_basket"}},"type":"Feature"},
	{"geometry":{"coordinates":[37.75215,55.621906],"type":"Point"},"properties":{"osm_id":"5643792591","tag":{"amenity":"waste_basket"}},"type":"Feature"},
	{"geometry":{"coordinates":[37.7524,55.621676],"type":"Point"},"properties":{"osm_id":"5643792596","tag":{"amenity":"waste_basket"}},"type":"Feature"},
	{"geometry":{"coordinates":[37.752569,55.62153],"type":"Point"},"properties":{"osm_id":"5643792599","tag":{"amenity":"waste_basket"}},"type":"Feature"},
	{"geometry":{"coordinates":[37.752791,55.621353],"type":"Point"},"properties":{"osm_id":"5643792602","tag":{"amenity":"waste_basket"}},"type":"Feature"},
	{"geometry":{"coordinates":[37.753002,55.621176],"type":"Point"},"properties":{"osm_id":"5643792605","tag":{"amenity":"waste_basket"}},"type":"Feature"},
	{"geometry":{"coordinates":[37.753124,55.62096],"type":"Point"},"properties":{"osm_id":"5643792608","tag":{"amenity":"waste_basket"}},"type":"Feature"},
	{"geometry":{"coordinates":[37.753159,55.620743],"type":"Point"},"properties":{"osm_id":"5643792611","tag":{"amenity":"waste_basket"}},"type":"Feature"},
	{"geometry":{"coordinates":[37.753186,55.620534],"type":"Point"},"properties":{"osm_id":"5643792614","tag":{"amenity":"waste_basket"}},"type":"Feature"},
	{"geometry":{"coordinates":[37.753218,55.620319],"type":"Point"},"properties":{"osm_id":"5643792617","tag":{"amenity":"waste_basket"}},"type":"Feature"},
	{"geometry":{"coordinates":[37.752658,55.617657],"type":"Point"},"properties":{"osm_id":"5643792698","tag":{"amenity":"waste_basket"}},"type":"Feature"},
	{"geometry":{"coordinates":[37.708285,55.603308],"type":"Point"},"properties":{"osm_id":"5645278834","tag":{"amenity":"waste_basket"}},"type":"Feature"},
	{"geometry":{"coordinates":[37.708388,55.603095],"type":"Point"},"properties":{"osm_id":"5645278837","tag":{"amenity":"waste_basket"}},"type":"Feature"},
	{"geometry":{"coordinates":[37.708898,55.60268],"type":"Point"},"properties":{"osm_id":"5645278843","tag":{"amenity":"waste_basket"}},"type":"Feature"},
	{"geometry":{"coordinates":[37.709105,55.602541],"type":"Point"},"properties":{"osm_id":"5645278846","tag":{"amenity":"waste_basket"}},"type":"Feature"},
	{"geometry":{"coordinates":[37.709304,55.602406],"type":"Point"},"properties":{"osm_id":"5645278849","tag":{"amenity":"waste_basket"}},"type":"Feature"},
	{"geometry":{"coordinates":[37.709507,55.602266],"type":"Point"},"properties":{"osm_id":"5645278852","tag":{"amenity":"waste_basket"}},"type":"Feature"},
	{"geometry":{"coordinates":[37.709709,55.602132],"type":"Point"},"properties":{"osm_id":"5645278855","tag":{"amenity":"waste_basket"}},"type":"Feature"},
	{"geometry":{"coordinates":[37.709911,55.601994],"type":"Point"},"properties":{"osm_id":"5645278858","tag":{"amenity":"waste_basket"}},"type":"Feature"},
	{"geometry":{"coordinates":[37.710111,55.601862],"type":"Point"},"properties":{"osm_id":"5645278861","tag":{"amenity":"waste_basket"}},"type":"Feature"},
	{"geometry":{"coordinates":[37.710319,55.601723],"type":"Point"},"properties":{"osm_id":"5645278864","tag":{"amenity":"waste_basket"}},"type":"Feature"},
	{"geometry":{"coordinates":[37.710533,55.601576],"type":"Point"},"properties":{"osm_id":"5645278867","tag":{"amenity":"waste_basket"}},"type":"Feature"},
	{"geometry":{"coordinates":[37.710736,55.601438],"type":"Point"},"properties":{"osm_id":"5645278870","tag":{"amenity":"waste_basket"}},"type":"Feature"},
	{"geometry":{"coordinates":[37.710937,55.601304],"type":"Point"},"properties":{"osm_id":"5645278873","tag":{"amenity":"waste_basket"}},"type":"Feature"},
	{"geometry":{"coordinates":[37.711154,55.601159],"type":"Point"},"properties":{"osm_id":"5645278876","tag":{"amenity":"waste_basket"}},"type":"Feature"},
	{"geometry":{"coordinates":[37.711357,55.601021],"type":"Point"},"properties":{"osm_id":"5645278879","tag":{"amenity":"waste_basket"}},"type":"Feature"},
	{"geometry":{"coordinates":[37.711561,55.600885],"type":"Point"},"properties":{"osm_id":"5645278882","tag":{"amenity":"waste_basket"}},"type":"Feature"},
	{"geometry":{"coordinates":[37.711767,55.600748],"type":"Point"},"properties":{"osm_id":"5645278885","tag":{"amenity":"waste_basket"}},"type":"Feature"},
	{"geometry":{"coordinates":[37.711977,55.600605],"type":"Point"},"properties":{"osm_id":"5645278888","tag":{"amenity":"waste_basket"}},"type":"Feature"},
	{"geometry":{"coordinates":[37.712188,55.600463],"type":"Point"},"properties":{"osm_id":"5645278891","tag":{"amenity":"waste_basket"}},"type":"Feature"},
	{"geometry":{"coordinates":[37.712365,55.600349],"type":"Point"},"properties":{"osm_id":"5645278894","tag":{"amenity":"waste_basket"}},"type":"Feature"},
	{"geometry":{"coordinates":[37.712935,55.600194],"type":"Point"},"properties":{"osm_id":"5645278912","tag":{"amenity":"waste_basket"}},"type":"Feature"},
	{"geometry":{"coordinates":[37.713262,55.600262],"type":"Point"},"properties":{"osm_id":"5645278915","tag":{"amenity":"waste_basket"}},"type":"Feature"},
	{"geometry":{"coordinates":[37.713611,55.600329],"type":"Point"},"properties":{"osm_id":"5645278918","tag":{"amenity":"waste_basket"}},"type":"Feature"},
	{"geometry":{"coordinates":[37.713926,55.600392],"type":"Point"},"properties":{"osm_id":"5645279221","tag":{"amenity":"waste_basket"}},"type":"Feature"},
	{"geometry":{"coordinates":[37.714205,55.60045],"type":"Point"},"properties":{"osm_id":"5645279224","tag":{"amenity":"waste_basket"}},"type":"Feature"},
	{"geometry":{"coordinates":[37.714589,55.600525],"type":"Point"},"properties":{"osm_id":"5645279227","tag":{"amenity":"waste_basket"}},"type":"Feature"},
	{"geometry":{"coordinates":[37.714842,55.600574],"type":"Point"},"properties":{"osm_id":"5645279230","tag":{"amenity":"waste_basket"}},"type":"Feature"},
	{"geometry":{"coordinates":[37.716725,55.600947],"type":"Point"},"properties":{"osm_id":"5645279241","tag":{"amenity":"waste_basket"}},"type":"Feature"},
	{"geometry":{"coordinates":[37.717088,55.601027],"type":"Point"},"properties":{"osm_id":"5645279242","tag":{"amenity":"waste_basket"}},"type":"Feature"},
	{"geometry":{"coordinates":[37.732098,55.621254],"type":"Point"},"properties":{"osm_id":"5646260711","tag":{"amenity":"waste_basket"}},"type":"Feature"},
	{"geometry":{"coordinates":[37.73176,55.621215],"type":"Point"},"properties":{"osm_id":"5646260714","tag":{"amenity":"waste_basket"}},"type":"Feature"},
	{"geometry":{"coordinates":[37.731357,55.621163],"type":"Point"},"properties":{"osm_id":"5646260717","tag":{"amenity":"waste_basket"}},"type":"Feature"},
	{"geometry":{"coordinates":[37.731012,55.621122],"type":"Point"},"properties":{"osm_id":"5646260720","tag":{"amenity":"waste_basket"}},"type":"Feature"},
	{"geometry":{"coordinates":[37.732566,55.621289],"type":"Point"},"properties":{"osm_id":"5646264123","tag":{"amenity":"waste_basket"}},"type":"Feature"},
	{"geometry":{"coordinates":[37.732955,55.621283],"type":"Point"},"properties":{"osm_id":"5646264126","tag":{"amenity":"waste_basket"}},"type":"Feature"},
	{"geometry":{"coordinates":[37.733335,55.621275],"type":"Point"},"properties":{"osm_id":"5646264129","tag":{"amenity":"waste_basket"}},"type":"Feature"},
	{"geometry":{"coordinates":[37.733685,55.621265],"type":"Point"},"properties":{"osm_id":"5646264132","tag":{"amenity":"waste_basket"}},"type":"Feature"},
	{"geometry":{"coordinates":[37.735026,55.621382],"type":"Point"},"properties":{"osm_id":"5646264147","tag":{"amenity":"waste_basket"}},"type":"Feature"},
	{"geometry":{"coordinates":[37.73537,55.621385],"type":"Point"},"properties":{"osm_id":"5646264150","tag":{"amenity":"waste_basket"}},"type":"Feature"},
	{"geometry":{"coordinates":[37.735779,55.621391],"type":"Point"},"properties":{"osm_id":"5646264153","tag":{"amenity":"waste_basket"}},"type":"Feature"},
	{"geometry":{"coordinates":[37.736164,55.621398],"type":"Point"},"properties":{"osm_id":"5646264156","tag":{"amenity":"waste_basket"}},"type":"Feature"},
	{"geometry":{"coordinates":[37.730721,55.620464],"type":"Point"},"properties":{"osm_id":"5646264171","tag":{"amenity":"waste_basket"}},"type":"Feature"},
	{"geometry":{"coordinates":[37.730764,55.620228],"type":"Point"},"properties":{"osm_id":"5646264174","tag":{"amenity":"waste_basket"}},"type":"Feature"},
	{"geometry":{"coordinates":[37.730799,55.620034],"type":"Point"},"properties":{"osm_id":"5646264177","tag":{"amenity":"waste_basket"}},"type":"Feature"},
	{"geometry":{"coordinates":[37.731081,55.619151],"type":"Point"},"properties":{"osm_id":"5646264186","tag":{"amenity":"waste_basket"}},"type":"Feature"},
	{"geometry":{"coordinates":[37.711447,55.60576],"type":"Point"},"properties":{"osm_id":"5650259316","tag":{"amenity":"waste_basket"}},"type":"Feature"},
	{"geometry":{"coordinates":[37.711305,55.60604],"type":"Point"},"properties":{"osm_id":"5650259319","tag":{"amenity":"waste_basket"}},"type":"Feature"},
	{"geometry":{"coordinates":[37.710994,55.606464],"type":"Point"},"properties":{"osm_id":"5650263324","tag":{"amenity":"waste_basket"}},"type":"Feature"},
	{"geometry":{"coordinates":[37.710552,55.606758],"type":"Point"},"properties":{"osm_id":"5650263327","tag":{"amenity":"waste_basket"}},"type":"Feature"},
	{"geometry":{"coordinates":[37.708111,55.61058],"type":"Point"},"properties":{"osm_id":"5650263346","tag":{"amenity":"waste_basket"}},"type":"Feature"},
	{"geometry":{"coordinates":[37.708011,55.610781],"type":"Point"},"properties":{"osm_id":"5650263349","tag":{"amenity":"waste_basket"}},"type":"Feature"},
	{"geometry":{"coordinates":[37.707743,55.611137],"type":"Point"},"properties":{"osm_id":"5650263352","tag":{"amenity":"waste_basket"}},"type":"Feature"},
	{"geometry":{"coordinates":[37.707351,55.611437],"type":"Point"},"properties":{"osm_id":"5650263355","tag":{"amenity":"waste_basket"}},"type":"Feature"},
	{"geometry":{"coordinates":[37.706698,55.611645],"type":"Point"},"properties":{"osm_id":"5650263358","tag":{"amenity":"waste_basket"}},"type":"Feature"},
	{"geometry":{"coordinates":[37.749157,55.61887],"type":"Point"},"properties":{"osm_id":"5650314021","tag":{"amenity":"waste_disposal"}},"type":"Feature"},
	{"geometry":{"coordinates":[37.724768,55.61949],"type":"Point"},"properties":{"osm_id":"5694376553","tag":{"amenity":"waste_basket"}},"type":"Feature"},
	{"geometry":{"coordinates":[37.724957,55.619328],"type":"Point"},"properties":{"osm_id":"5694376554","tag":{"amenity":"waste_basket"}},"type":"Feature"},
	{"geometry":{"coordinates":[37.725112,55.619181],"type":"Point"},"properties":{"osm_id":"5694376555","tag":{"amenity":"waste_basket"}},"type":"Feature"},
	{"geometry":{"coordinates":[37.72528,55.619032],"type":"Point"},"properties":{"osm_id":"5694376556","tag":{"amenity":"waste_basket"}},"type":"Feature"},
	{"geometry":{"coordinates":[37.72545,55.61888],"type":"Point"},"properties":{"osm_id":"5694376557","tag":{"amenity":"waste_basket"}},"type":"Feature"},
	{"geometry":{"coordinates":[37.72561,55.618737],"type":"Point"},"properties":{"osm_id":"5694376560","tag":{"amenity":"waste_basket"}},"type":"Feature"},
	{"geometry":{"coordinates":[37.726014,55.618599],"type":"Point"},"properties":{"osm_id":"5694376561","tag":{"amenity":"waste_basket"}},"type":"Feature"},
	{"geometry":{"coordinates":[37.726177,55.618452],"type":"Point"},"properties":{"osm_id":"5694376562","tag":{"amenity":"waste_basket"}},"type":"Feature"},
	{"geometry":{"coordinates":[37.726344,55.618301],"type":"Point"},"properties":{"osm_id":"5694376563","tag":{"amenity":"waste_basket"}},"type":"Feature"},
	{"geometry":{"coordinates":[37.726497,55.618163],"type":"Point"},"properties":{"osm_id":"5694376564","tag":{"amenity":"waste_basket"}},"type":"Feature"},
	{"geometry":{"coordinates":[37.726692,55.618028],"type":"Point"},"properties":{"osm_id":"5694376569","tag":{"amenity":"waste_basket"}},"type":"Feature"},
	{"geometry":{"coordinates":[37.726855,55.61788],"type":"Point"},"properties":{"osm_id":"5694376572","tag":{"amenity":"waste_basket"}},"type":"Feature"},
	{"geometry":{"coordinates":[37.727258,55.617239],"type":"Point"},"properties":{"osm_id":"5694376587","tag":{"amenity":"waste_basket"}},"type":"Feature"},
	{"geometry":{"coordinates":[37.721039,55.619788],"type":"Point"},"properties":{"osm_id":"5694376588","tag":{"amenity":"waste_basket"}},"type":"Feature"},
	{"geometry":{"coordinates":[37.721357,55.619835],"type":"Point"},"properties":{"osm_id":"5694376589","tag":{"amenity":"waste_basket"}},"type":"Feature"},
	{"geometry":{"coordinates":[37.721685,55.619885],"type":"Point"},"properties":{"osm_id":"5694376590","tag":{"amenity":"waste_basket"}},"type":"Feature"},
	{"geometry":{"coordinates":[37.721954,55.619928],"type":"Point"},"properties":{"osm_id":"5694376591","tag":{"amenity":"waste_basket"}},"type":"Feature"},
	{"geometry":{"coordinates":[37.722483,55.619945],"type":"Point"},"properties":{"osm_id":"5694376592","tag":{"amenity":"waste_basket"}},"type":"Feature"},
	{"geometry":{"coordinates":[37.722796,55.619904],"type":"Point"},"properties":{"osm_id":"5694376593","tag":{"amenity":"waste_basket"}},"type":"Feature"},
	{"geometry":{"coordinates":[37.723108,55.619867],"type":"Point"},"properties":{"osm_id":"5694376594","tag":{"amenity":"waste_basket"}},"type":"Feature"},
	{"geometry":{"coordinates":[37.723447,55.619828],"type":"Point"},"properties":{"osm_id":"5694376595","tag":{"amenity":"waste_basket"}},"type":"Feature"},
	{"geometry":{"coordinates":[37.723721,55.619793],"type":"Point"},"properties":{"osm_id":"5694376596","tag":{"amenity":"waste_basket"}},"type":"Feature"},
	{"geometry":{"coordinates":[37.724001,55.619759],"type":"Point"},"properties":{"osm_id":"5694376597","tag":{"amenity":"waste_basket"}},"type":"Feature"},
	{"geometry":{"coordinates":[37.736168,55.623541],"type":"Point"},"properties":{"osm_id":"5694380130","tag":{"amenity":"waste_basket"}},"type":"Feature"},
	{"geometry":{"coordinates":[37.733053,55.624634],"type":"Point"},"properties":{"osm_id":"5694380134","tag":{"amenity":"waste_basket"}},"type":"Feature"},
	{"geometry":{"coordinates":[37.733428,55.624641],"type":"Point"},"properties":{"osm_id":"5694380137","tag":{"amenity":"waste_basket"}},"type":"Feature"},
	{"geometry":{"coordinates":[37.733793,55.624644],"type":"Point"},"properties":{"osm_id":"5694380140","tag":{"amenity":"waste_basket"}},"type":"Feature"},
	{"geometry":{"coordinates":[37.73416,55.624651],"type":"Point"},"properties":{"osm_id":"5694380143","tag":{"amenity":"waste_basket"}},"type":"Feature"},
	{"geometry":{"coordinates":[37.734574,55.624655],"type":"Point"},"properties":{"osm_id":"5694380146","tag":{"amenity":"waste_basket"}},"type":"Feature"},
	{"geometry":{"coordinates":[37.734901,55.624661],"type":"Point"},"properties":{"osm_id":"5694380149","tag":{"amenity":"waste_basket"}},"type":"Feature"},
	{"geometry":{"coordinates":[37.735311,55.62467],"type":"Point"},"properties":{"osm_id":"5694380152","tag":{"amenity":"waste_basket"}},"type":"Feature"},
	{"geometry":{"coordinates":[37.735644,55.624672],"type":"Point"},"properties":{"osm_id":"5694380155","tag":{"amenity":"waste_basket"}},"type":"Feature"},
	{"geometry":{"coordinates":[37.737281,55.625473],"type":"Point"},"properties":{"osm_id":"5694380175","tag":{"amenity":"waste_basket"}},"type":"Feature"},
	{"geometry":{"coordinates":[37.741299,55.62445],"type":"Point"},"properties":{"osm_id":"5694380182","tag":{"amenity":"waste_basket"}},"type":"Feature"},
	{"geometry":{"coordinates":[37.741261,55.624662],"type":"Point"},"properties":{"osm_id":"5694380185","tag":{"amenity":"waste_basket"}},"type":"Feature"},
	{"geometry":{"coordinates":[37.741227,55.624855],"type":"Point"},"properties":{"osm_id":"5694380188","tag":{"amenity":"waste_basket"}},"type":"Feature"},
	{"geometry":{"coordinates":[37.741147,55.62534],"type":"Point"},"properties":{"osm_id":"5694380193","tag":{"amenity":"waste_basket"}},"type":"Feature"},
	{"geometry":{"coordinates":[37.741111,55.625584],"type":"Point"},"properties":{"osm_id":"5694380196","tag":{"amenity":"waste_basket"}},"type":"Feature"},
	{"geometry":{"coordinates":[37.741732,55.623694],"type":"Point"},"properties":{"osm_id":"5694380211","tag":{"amenity":"waste_basket"}},"type":"Feature"},
	{"geometry":{"coordinates":[37.735352,55.625561],"type":"Point"},"properties":{"osm_id":"5694380222","tag":{"amenity":"waste_basket"}},"type":"Feature"},
	{"geometry":{"coordinates":[37.757333,55.616678],"type":"Point"},"properties":{"osm_id":"5696708760","tag":{"amenity":"waste_basket"}},"type":"Feature"},
	{"geometry":{"coordinates":[37.757648,55.616693],"type":"Point"},"properties":{"osm_id":"5696708763","tag":{"amenity":"waste_basket"}},"type":"Feature"},
	{"geometry":{"coordinates":[37.757938,55.616705],"type":"Point"},"properties":{"osm_id":"5696708766","tag":{"amenity":"waste_basket"}},"type":"Feature"},
	{"geometry":{"coordinates":[37.758324,55.616761],"type":"Point"},"properties":{"osm_id":"5696708769","tag":{"amenity":"waste_basket"}},"type":"Feature"},
	{"geometry":{"coordinates":[37.758289,55.616968],"type":"Point"},"properties":{"osm_id":"5696708772","tag":{"amenity":"waste_basket"}},"type":"Feature"},
	{"geometry":{"coordinates":[37.758259,55.617185],"type":"Point"},"properties":{"osm_id":"5696708775","tag":{"amenity":"waste_basket"}},"type":"Feature"},
	{"geometry":{"coordinates":[37.758225,55.617391],"type":"Point"},"properties":{"osm_id":"5696708778","tag":{"amenity":"waste_basket"}},"type":"Feature"},
	{"geometry":{"coordinates":[37.756895,55.617503],"type":"Point"},"properties":{"osm_id":"5696708811","tag":{"amenity":"waste_basket"}},"type":"Feature"},
	{"geometry":{"coordinates":[37.756562,55.617488],"type":"Point"},"properties":{"osm_id":"5696708814","tag":{"amenity":"waste_basket"}},"type":"Feature"},
	{"geometry":{"coordinates":[37.755887,55.618001],"type":"Point"},"properties":{"osm_id":"5696708819","tag":{"amenity":"waste_basket"}},"type":"Feature"},
	{"geometry":{"coordinates":[37.756425,55.618428],"type":"Point"},"properties":{"osm_id":"5696708922","tag":{"amenity":"waste_basket"}},"type":"Feature"},
	{"geometry":{"coordinates":[37.760337,55.617946],"type":"Point"},"properties":{"osm_id":"5696842843","tag":{"amenity":"waste_basket"}},"type":"Feature"},
	{"geometry":{"coordinates":[37.759512,55.617529],"type":"Point"},"properties":{"osm_id":"5696842851","tag":{"amenity":"waste_basket"}},"type":"Feature"},
	{"geometry":{"coordinates":[37.759173,55.617509],"type":"Point"},"properties":{"osm_id":"5696842854","tag":{"amenity":"waste_basket"}},"type":"Feature"},
	{"geometry":{"coordinates":[37.760381,55.618669],"type":"Point"},"properties":{"osm_id":"5697014466","tag":{"amenity":"waste_basket"}},"type":"Feature"},
	{"geometry":{"coordinates":[37.760437,55.618306],"type":"Point"},"properties":{"osm_id":"5697014471","tag":{"amenity":"waste_basket"}},"type":"Feature"},
	{"geometry":{"coordinates":[37.745114,55.595853],"type":"Point"},"properties":{"osm_id":"5712280813","tag":{"amenity":"waste_basket"}},"type":"Feature"},
	{"geometry":{"coordinates":[37.747086,55.593847],"type":"Point"},"properties":{"osm_id":"5712280814","tag":{"amenity":"waste_basket"}},"type":"Feature"},
	{"geometry":{"coordinates":[37.740763,55.602837],"type":"Point"},"properties":{"osm_id":"5735084898","tag":{"amenity":"waste_basket"}},"type":"Feature"},
	{"geometry":{"coordinates":[37.740624,55.602813],"type":"Point"},"properties":{"osm_id":"5735086541","tag":{"amenity":"waste_basket"}},"type":"Feature"},
	{"geometry":{"coordinates":[37.745539,55.621769],"type":"Point"},"properties":{"osm_id":"5777656198","tag":{"amenity":"waste_disposal"}},"type":"Feature"},
	{"geometry":{"coordinates":[37.745918,55.622355],"type":"Point"},"properties":{"osm_id":"5777657173","tag":{"amenity":"waste_basket"}},"type":"Feature"},
	{"geometry":{"coordinates":[37.743754,55.62242],"type":"Point"},"properties":{"osm_id":"5825199658","tag":{"amenity":"waste_basket"}},"type":"Feature"},
	{"geometry":{"coordinates":[37.743509,55.62026],"type":"Point"},"properties":{"osm_id":"5825208753","tag":{"amenity":"waste_basket"}},"type":"Feature"},
	{"geometry":{"coordinates":[37.7435,55.620328],"type":"Point"},"properties":{"osm_id":"5825208853","tag":{"amenity":"waste_basket"}},"type":"Feature"},
	{"geometry":{"coordinates":[37.743504,55.622138],"type":"Point"},"properties":{"osm_id":"5825212754","tag":{"amenity":"waste_basket"}},"type":"Feature"},
	{"geometry":{"coordinates":[37.743867,55.622355],"type":"Point"},"properties":{"osm_id":"5825213053","tag":{"amenity":"waste_basket"}},"type":"Feature"},
	{"geometry":{"coordinates":[37.74303,55.622608],"type":"Point"},"properties":{"osm_id":"5825218653","tag":{"amenity":"waste_basket"}},"type":"Feature"},
	{"geometry":{"coordinates":[37.743013,55.622679],"type":"Point"},"properties":{"osm_id":"5825218654","tag":{"amenity":"waste_basket"}},"type":"Feature"},
	{"geometry":{"coordinates":[37.742391,55.627047],"type":"Point"},"properties":{"osm_id":"5825237454","tag":{"amenity":"waste_basket"}},"type":"Feature"},
	{"geometry":{"coordinates":[37.742356,55.627129],"type":"Point"},"properties":{"osm_id":"5825238653","tag":{"amenity":"waste_basket"}},"type":"Feature"},
	{"geometry":{"coordinates":[37.717654,55.622207],"type":"Point"},"properties":{"osm_id":"5826443487","tag":{"amenity":"waste_disposal"}},"type":"Feature"},
	{"geometry":{"coordinates":[37.756761,55.587448],"type":"Point"},"properties":{"osm_id":"5839478185","tag":{"amenity":"waste_basket"}},"type":"Feature"},
	{"geometry":{"coordinates":[37.746129,55.622362],"type":"Point"},"properties":{"osm_id":"5845213293","tag":{"amenity":"waste_basket"}},"type":"Feature"},
	{"geometry":{"coordinates":[37.745958,55.622358],"type":"Point"},"properties":{"osm_id":"5845213294","tag":{"amenity":"waste_basket"}},"type":"Feature"},
	{"geometry":{"coordinates":[37.709822,55.614026],"type":"Point"},"properties":{"osm_id":"5883912015","tag":{"amenity":"waste_basket"}},"type":"Feature"},
	{"geometry":{"coordinates":[37.710094,55.614069],"type":"Point"},"properties":{"osm_id":"5883912018","tag":{"amenity":"waste_basket"}},"type":"Feature"},
	{"geometry":{"coordinates":[37.710425,55.614126],"type":"Point"},"properties":{"osm_id":"5883912021","tag":{"amenity":"waste_basket"}},"type":"Feature"},
	{"geometry":{"coordinates":[37.710746,55.614176],"type":"Point"},"properties":{"osm_id":"5883912024","tag":{"amenity":"waste_basket"}},"type":"Feature"},
	{"geometry":{"coordinates":[37.711045,55.61423],"type":"Point"},"properties":{"osm_id":"5883912027","tag":{"amenity":"waste_basket"}},"type":"Feature"},
	{"geometry":{"coordinates":[37.711381,55.61428],"type":"Point"},"properties":{"osm_id":"5883912028","tag":{"amenity":"waste_basket"}},"type":"Feature"},
	{"geometry":{"coordinates":[37.711676,55.614318],"type":"Point"},"properties":{"osm_id":"5883912031","tag":{"amenity":"waste_basket"}},"type":"Feature"},
	{"geometry":{"coordinates":[37.730513,55.588043],"type":"Point"},"properties":{"osm_id":"5891082986","tag":{"amenity":"waste_basket"}},"type":"Feature"},
	{"geometry":{"coordinates":[37.730473,55.587823],"type":"Point"},"properties":{"osm_id":"5891117118","tag":{"amenity":"waste_basket"}},"type":"Feature"},
	{"geometry":{"coordinates":[37.745082,55.621605],"type":"Point"},"properties":{"osm_id":"5894556588","tag":{"amenity":"waste_basket"}},"type":"Feature"},
	{"geometry":{"coordinates":[37.743119,55.624452],"type":"Point"},"properties":{"osm_id":"5894581516","tag":{"amenity":"waste_basket"}},"type":"Feature"},
	{"geometry":{"coordinates":[37.743102,55.624558],"type":"Point"},"properties":{"osm_id":"5894583961","tag":{"amenity":"waste_basket"}},"type":"Feature"},
	{"geometry":{"coordinates":[37.744543,55.621525],"type":"Point"},"properties":{"osm_id":"5894587386","tag":{"amenity":"waste_basket"}},"type":"Feature"},
	{"geometry":{"coordinates":[37.726938,55.605468],"type":"Point"},"properties":{"osm_id":"5901138586","tag":{"amenity":"waste_basket"}},"type":"Feature"},
	{"geometry":{"coordinates":[37.72731,55.605518],"type":"Point"},"properties":{"osm_id":"5901138587","tag":{"amenity":"waste_basket"}},"type":"Feature"},
	{"geometry":{"coordinates":[37.713998,55.605795],"type":"Point"},"properties":{"osm_id":"5907164419","tag":{"amenity":"waste_basket"}},"type":"Feature"},
	{"geometry":{"coordinates":[37.705256,55.609602],"type":"Point"},"properties":{"osm_id":"5907164423","tag":{"amenity":"waste_basket"}},"type":"Feature"},
	{"geometry":{"coordinates":[37.705588,55.609659],"type":"Point"},"properties":{"osm_id":"5907164424","tag":{"amenity":"waste_basket"}},"type":"Feature"},
	{"geometry":{"coordinates":[37.705924,55.609714],"type":"Point"},"properties":{"osm_id":"5907164425","tag":{"amenity":"waste_basket"}},"type":"Feature"},
	{"geometry":{"coordinates":[37.706264,55.609768],"type":"Point"},"properties":{"osm_id":"5907164426","tag":{"amenity":"waste_basket"}},"type":"Feature"},
	{"geometry":{"coordinates":[37.706591,55.609826],"type":"Point"},"properties":{"osm_id":"5907164427","tag":{"amenity":"waste_basket"}},"type":"Feature"},
	{"geometry":{"coordinates":[37.706927,55.609882],"type":"Point"},"properties":{"osm_id":"5907164428","tag":{"amenity":"waste_basket"}},"type":"Feature"},
	{"geometry":{"coordinates":[37.707265,55.609935],"type":"Point"},"properties":{"osm_id":"5907164429","tag":{"amenity":"waste_basket"}},"type":"Feature"},
	{"geometry":{"coordinates":[37.707591,55.609987],"type":"Point"},"properties":{"osm_id":"5907164430","tag":{"amenity":"waste_basket"}},"type":"Feature"},
	{"geometry":{"coordinates":[37.739162,55.59553],"type":"Point"},"properties":{"osm_id":"5914387249","tag":{"amenity":"waste_basket"}},"type":"Feature"},
	{"geometry":{"coordinates":[37.744544,55.605293],"type":"Point"},"properties":{"osm_id":"5934719759","tag":{"amenity":"waste_basket"}},"type":"Feature"},
	{"geometry":{"coordinates":[37.744627,55.605609],"type":"Point"},"properties":{"osm_id":"5949152133","tag":{"amenity":"waste_basket"}},"type":"Feature"},
	{"geometry":{"coordinates":[37.744867,55.605229],"type":"Point"},"properties":{"osm_id":"5949152134","tag":{"amenity":"waste_basket"}},"type":"Feature"},
	{"geometry":{"coordinates":[37.709359,55.6147],"type":"Point"},"properties":{"osm_id":"6011173255","tag":{"amenity":"waste_basket"}},"type":"Feature"},
	{"geometry":{"coordinates":[37.762275,55.587346],"type":"Point"},"properties":{"osm_id":"6015442690","tag":{"amenity":"waste_basket"}},"type":"Feature"},
	{"geometry":{"coordinates":[37.762765,55.587426],"type":"Point"},"properties":{"osm_id":"6015442691","tag":{"amenity":"waste_basket"}},"type":"Feature"},
	{"geometry":{"coordinates":[37.757677,55.588868],"type":"Point"},"properties":{"osm_id":"6015601090","tag":{"amenity":"waste_basket"}},"type":"Feature"},
	{"geometry":{"coordinates":[37.75599,55.588393],"type":"Point"},"properties":{"osm_id":"6015793681","tag":{"amenity":"waste_basket"}},"type":"Feature"},
	{"geometry":{"coordinates":[37.75624,55.588315],"type":"Point"},"properties":{"osm_id":"6015793682","tag":{"amenity":"waste_basket"}},"type":"Feature"},
	{"geometry":{"coordinates":[37.762817,55.587436],"type":"Point"},"properties":{"osm_id":"6015877521","tag":{"amenity":"waste_basket"}},"type":"Feature"},
	{"geometry":{"coordinates":[37.762177,55.587321],"type":"Point"},"properties":{"osm_id":"6015877522","tag":{"amenity":"waste_basket"}},"type":"Feature"},
	{"geometry":{"coordinates":[37.762227,55.587335],"type":"Point"},"properties":{"osm_id":"6015877523","tag":{"amenity":"waste_basket"}},"type":"Feature"},
	{"geometry":{"coordinates":[37.762329,55.587357],"type":"Point"},"properties":{"osm_id":"6015877524","tag":{"amenity":"waste_basket"}},"type":"Feature"},
	{"geometry":{"coordinates":[37.740371,55.602576],"type":"Point"},"properties":{"osm_id":"6017752075","tag":{"amenity":"waste_basket"}},"type":"Feature"},
	{"geometry":{"coordinates":[37.740826,55.601899],"type":"Point"},"properties":{"osm_id":"6017752084","tag":{"amenity":"waste_basket"}},"type":"Feature"},
	{"geometry":{"coordinates":[37.740758,55.602036],"type":"Point"},"properties":{"osm_id":"6017752187","tag":{"amenity":"waste_basket"}},"type":"Feature"},
	{"geometry":{"coordinates":[37.740686,55.602185],"type":"Point"},"properties":{"osm_id":"6017752190","tag":{"amenity":"waste_basket"}},"type":"Feature"},
	{"geometry":{"coordinates":[37.740644,55.602335],"type":"Point"},"properties":{"osm_id":"6017752193","tag":{"amenity":"waste_basket"}},"type":"Feature"},
	{"geometry":{"coordinates":[37.729982,55.587009],"type":"Point"},"properties":{"osm_id":"6018441287","tag":{"amenity":"waste_basket"}},"type":"Feature"},
	{"geometry":{"coordinates":[37.729984,55.58718],"type":"Point"},"properties":{"osm_id":"6018441290","tag":{"amenity":"waste_basket"}},"type":"Feature"},
	{"geometry":{"coordinates":[37.729993,55.587344],"type":"Point"},"properties":{"osm_id":"6018441291","tag":{"amenity":"waste_basket"}},"type":"Feature"},
	{"geometry":{"coordinates":[37.733111,55.587921],"type":"Point"},"properties":{"osm_id":"6018441527","tag":{"amenity":"waste_basket"}},"type":"Feature"},
	{"geometry":{"coordinates":[37.732871,55.58803],"type":"Point"},"properties":{"osm_id":"6018441528","tag":{"amenity":"waste_basket"}},"type":"Feature"},
	{"geometry":{"coordinates":[37.73246,55.588217],"type":"Point"},"properties":{"osm_id":"6018441529","tag":{"amenity":"waste_basket"}},"type":"Feature"},
	{"geometry":{"coordinates":[37.732216,55.58833],"type":"Point"},"properties":{"osm_id":"6018441530","tag":{"amenity":"waste_basket"}},"type":"Feature"},
	{"geometry":{"coordinates":[37.731973,55.588442],"type":"Point"},"properties":{"osm_id":"6018441531","tag":{"amenity":"waste_basket"}},"type":"Feature"},
	{"geometry":{"coordinates":[37.744248,55.605338],"type":"Point"},"properties":{"osm_id":"6047436377","tag":{"amenity":"waste_basket"}},"type":"Feature"},
	{"geometry":{"coordinates":[37.741151,55.605065],"type":"Point"},"properties":{"osm_id":"6049209847","tag":{"amenity":"waste_basket"}},"type":"Feature"},
	{"geometry":{"coordinates":[37.740992,55.605032],"type":"Point"},"properties":{"osm_id":"6049209848","tag":{"amenity":"waste_basket"}},"type":"Feature"},
	{"geometry":{"coordinates":[37.754851,55.608101],"type":"Point"},"properties":{"osm_id":"6052420489","tag":{"amenity":"waste_basket"}},"type":"Feature"},
	{"geometry":{"coordinates":[37.754711,55.607913],"type":"Point"},"properties":{"osm_id":"6052420490","tag":{"amenity":"waste_basket"}},"type":"Feature"},
	{"geometry":{"coordinates":[37.705686,55.625116],"type":"Point"},"properties":{"osm_id":"6068491886","tag":{"amenity":"waste_basket"}},"type":"Feature"},
	{"geometry":{"coordinates":[37.705827,55.624864],"type":"Point"},"properties":{"osm_id":"6068491887","tag":{"amenity":"waste_basket"}},"type":"Feature"},
	{"geometry":{"coordinates":[37.705973,55.624591],"type":"Point"},"properties":{"osm_id":"6068491888","tag":{"amenity":"waste_basket"}},"type":"Feature"},
	{"geometry":{"coordinates":[37.706683,55.62548],"type":"Point"},"properties":{"osm_id":"6068491893","tag":{"amenity":"waste_basket"}},"type":"Feature"},
	{"geometry":{"coordinates":[37.70623,55.625401],"type":"Point"},"properties":{"osm_id":"6068491895","tag":{"amenity":"waste_basket"}},"type":"Feature"},
	{"geometry":{"coordinates":[37.70578,55.62532],"type":"Point"},"properties":{"osm_id":"6068491897","tag":{"amenity":"waste_basket"}},"type":"Feature"},
	{"geometry":{"coordinates":[37.70549,55.625196],"type":"Point"},"properties":{"osm_id":"6068491902","tag":{"amenity":"waste_basket"}},"type":"Feature"},
	{"geometry":{"coordinates":[37.711281,55.621249],"type":"Point"},"properties":{"osm_id":"6069025385","tag":{"amenity":"waste_basket"}},"type":"Feature"},
	{"geometry":{"coordinates":[37.711312,55.621224],"type":"Point"},"properties":{"osm_id":"6069025386","tag":{"amenity":"waste_basket"}},"type":"Feature"},
	{"geometry":{"coordinates":[37.716055,55.611295],"type":"Point"},"properties":{"osm_id":"6069042755","tag":{"amenity":"waste_basket"}},"type":"Feature"},
	{"geometry":{"coordinates":[37.716085,55.611266],"type":"Point"},"properties":{"osm_id":"6069042756","tag":{"amenity":"waste_basket"}},"type":"Feature"},
	{"geometry":{"coordinates":[37.715846,55.611879],"type":"Point"},"properties":{"osm_id":"6069042758","tag":{"amenity":"waste_basket"}},"type":"Feature"},
	{"geometry":{"coordinates":[37.715864,55.611847],"type":"Point"},"properties":{"osm_id":"6069042759","tag":{"amenity":"waste_basket"}},"type":"Feature"},
	{"geometry":{"coordinates":[37.715588,55.61241],"type":"Point"},"properties":{"osm_id":"6069042761","tag":{"amenity":"waste_basket"}},"type":"Feature"},
	{"geometry":{"coordinates":[37.715604,55.612377],"type":"Point"},"properties":{"osm_id":"6069042762","tag":{"amenity":"waste_basket"}},"type":"Feature"},
	{"geometry":{"coordinates":[37.715378,55.612702],"type":"Point"},"properties":{"osm_id":"6069042764","tag":{"amenity":"waste_basket"}},"type":"Feature"},
	{"geometry":{"coordinates":[37.715024,55.613368],"type":"Point"},"properties":{"osm_id":"6069042766","tag":{"amenity":"waste_basket"}},"type":"Feature"},
	{"geometry":{"coordinates":[37.715046,55.61334],"type":"Point"},"properties":{"osm_id":"6069042767","tag":{"amenity":"waste_basket"}},"type":"Feature"},
	{"geometry":{"coordinates":[37.714944,55.613453],"type":"Point"},"properties":{"osm_id":"6069042769","tag":{"amenity":"waste_basket"}},"type":"Feature"},
	{"geometry":{"coordinates":[37.714808,55.613611],"type":"Point"},"properties":{"osm_id":"6069042771","tag":{"amenity":"waste_basket"}},"type":"Feature"},
	{"geometry":{"coordinates":[37.714143,55.615736],"type":"Point"},"properties":{"osm_id":"6069042774","tag":{"amenity":"waste_basket"}},"type":"Feature"},
	{"geometry":{"coordinates":[37.713281,55.616214],"type":"Point"},"properties":{"osm_id":"6069042777","tag":{"amenity":"waste_basket"}},"type":"Feature"},
	{"geometry":{"coordinates":[37.713012,55.616748],"type":"Point"},"properties":{"osm_id":"6069042779","tag":{"amenity":"waste_basket"}},"type":"Feature"},
	{"geometry":{"coordinates":[37.712895,55.617065],"type":"Point"},"properties":{"osm_id":"6069042781","tag":{"amenity":"waste_basket"}},"type":"Feature"},
	{"geometry":{"coordinates":[37.712899,55.617032],"type":"Point"},"properties":{"osm_id":"6069042782","tag":{"amenity":"waste_basket"}},"type":"Feature"},
	{"geometry":{"coordinates":[37.71287,55.617222],"type":"Point"},"properties":{"osm_id":"6069042784","tag":{"amenity":"waste_basket"}},"type":"Feature"},
	{"geometry":{"coordinates":[37.712874,55.617189],"type":"Point"},"properties":{"osm_id":"6069050285","tag":{"amenity":"waste_basket"}},"type":"Feature"},
	{"geometry":{"coordinates":[37.712863,55.617404],"type":"Point"},"properties":{"osm_id":"6069050288","tag":{"amenity":"waste_basket"}},"type":"Feature"},
	{"geometry":{"coordinates":[37.712859,55.617438],"type":"Point"},"properties":{"osm_id":"6069050289","tag":{"amenity":"waste_basket"}},"type":"Feature"},
	{"geometry":{"coordinates":[37.742672,55.607658],"type":"Point"},"properties":{"osm_id":"6071310006","tag":{"amenity":"waste_basket"}},"type":"Feature"},
	{"geometry":{"coordinates":[37.742763,55.607624],"type":"Point"},"properties":{"osm_id":"6071310007","tag":{"amenity":"waste_basket"}},"type":"Feature"},
	{"geometry":{"coordinates":[37.742818,55.607674],"type":"Point"},"properties":{"osm_id":"6071310008","tag":{"amenity":"waste_basket"}},"type":"Feature"},
	{"geometry":{"coordinates":[37.742735,55.607708],"type":"Point"},"properties":{"osm_id":"6071310009","tag":{"amenity":"waste_basket"}},"type":"Feature"},
	{"geometry":{"coordinates":[37.705384,55.611839],"type":"Point"},"properties":{"osm_id":"6074567353","tag":{"amenity":"waste_basket"}},"type":"Feature"},
	{"geometry":{"coordinates":[37.705722,55.611341],"type":"Point"},"properties":{"osm_id":"6074567365","tag":{"amenity":"waste_basket"}},"type":"Feature"},
	{"geometry":{"coordinates":[37.70581,55.611177],"type":"Point"},"properties":{"osm_id":"6074567366","tag":{"amenity":"waste_basket"}},"type":"Feature"},
	{"geometry":{"coordinates":[37.70591,55.611018],"type":"Point"},"properties":{"osm_id":"6074567367","tag":{"amenity":"waste_basket"}},"type":"Feature"},
	{"geometry":{"coordinates":[37.705985,55.610847],"type":"Point"},"properties":{"osm_id":"6074567368","tag":{"amenity":"waste_basket"}},"type":"Feature"},
	{"geometry":{"coordinates":[37.706069,55.610681],"type":"Point"},"properties":{"osm_id":"6074567369","tag":{"amenity":"waste_basket"}},"type":"Feature"},
	{"geometry":{"coordinates":[37.706156,55.610516],"type":"Point"},"properties":{"osm_id":"6074567370","tag":{"amenity":"waste_basket"}},"type":"Feature"},
	{"geometry":{"coordinates":[37.706246,55.610354],"type":"Point"},"properties":{"osm_id":"6074567371","tag":{"amenity":"waste_basket"}},"type":"Feature"},
	{"geometry":{"coordinates":[37.706331,55.610189],"type":"Point"},"properties":{"osm_id":"6074567372","tag":{"amenity":"waste_basket"}},"type":"Feature"},
	{"geometry":{"coordinates":[37.711624,55.610522],"type":"Point"},"properties":{"osm_id":"6074567398","tag":{"amenity":"waste_basket"}},"type":"Feature"},
	{"geometry":{"coordinates":[37.711876,55.610433],"type":"Point"},"properties":{"osm_id":"6074567399","tag":{"amenity":"waste_basket"}},"type":"Feature"},
	{"geometry":{"coordinates":[37.741612,55.594809],"type":"Point"},"properties":{"osm_id":"6074567502","tag":{"amenity":"waste_basket"}},"type":"Feature"},
	{"geometry":{"coordinates":[37.721381,55.611857],"type":"Point"},"properties":{"osm_id":"6080606355","tag":{"amenity":"waste_basket"}},"type":"Feature"},
	{"geometry":{"coordinates":[37.721343,55.61185],"type":"Point"},"properties":{"osm_id":"6080606356","tag":{"amenity":"waste_basket"}},"type":"Feature"},
	{"geometry":{"coordinates":[37.721301,55.611845],"type":"Point"},"properties":{"osm_id":"6080606357","tag":{"amenity":"waste_basket"}},"type":"Feature"},
	{"geometry":{"coordinates":[37.721233,55.611814],"type":"Point"},"properties":{"osm_id":"6080606358","tag":{"amenity":"waste_basket"}},"type":"Feature"},
	{"geometry":{"coordinates":[37.721195,55.611808],"type":"Point"},"properties":{"osm_id":"6080606359","tag":{"amenity":"waste_basket"}},"type":"Feature"},
	{"geometry":{"coordinates":[37.721153,55.611803],"type":"Point"},"properties":{"osm_id":"6080606360","tag":{"amenity":"waste_basket"}},"type":"Feature"},
	{"geometry":{"coordinates":[37.721096,55.611773],"type":"Point"},"properties":{"osm_id":"6080606361","tag":{"amenity":"waste_basket"}},"type":"Feature"},
	{"geometry":{"coordinates":[37.721058,55.611767],"type":"Point"},"properties":{"osm_id":"6080606362","tag":{"amenity":"waste_basket"}},"type":"Feature"},
	{"geometry":{"coordinates":[37.764213,55.58763],"type":"Point"},"properties":{"osm_id":"6093335269","tag":{"amenity":"waste_basket"}},"type":"Feature"},
	{"geometry":{"coordinates":[37.733317,55.614119],"type":"Point"},"properties":{"osm_id":"6106749788","tag":{"amenity":"waste_basket"}},"type":"Feature"},
	{"geometry":{"coordinates":[37.732316,55.614373],"type":"Point"},"properties":{"osm_id":"6106989541","tag":{"amenity":"waste_basket"}},"type":"Feature"},
	{"geometry":{"coordinates":[37.732626,55.614386],"type":"Point"},"properties":{"osm_id":"6106989543","tag":{"amenity":"waste_basket"}},"type":"Feature"},
	{"geometry":{"coordinates":[37.732964,55.614403],"type":"Point"},"properties":{"osm_id":"6106989545","tag":{"amenity":"waste_basket"}},"type":"Feature"},
	{"geometry":{"coordinates":[37.733277,55.614417],"type":"Point"},"properties":{"osm_id":"6106989547","tag":{"amenity":"waste_basket"}},"type":"Feature"},
	{"geometry":{"coordinates":[37.733592,55.614431],"type":"Point"},"properties":{"osm_id":"6106989551","tag":{"amenity":"waste_basket"}},"type":"Feature"},
	{"geometry":{"coordinates":[37.733876,55.614443],"type":"Point"},"properties":{"osm_id":"6106989553","tag":{"amenity":"waste_basket"}},"type":"Feature"},
	{"geometry":{"coordinates":[37.721104,55.595622],"type":"Point"},"properties":{"osm_id":"6109187385","tag":{"amenity":"waste_basket"}},"type":"Feature"},
	{"geometry":{"coordinates":[37.720849,55.595203],"type":"Point"},"properties":{"osm_id":"6109458754","tag":{"amenity":"waste_basket"}},"type":"Feature"},
	{"geometry":{"coordinates":[37.721291,55.595254],"type":"Point"},"properties":{"osm_id":"6109458755","tag":{"amenity":"waste_basket"}},"type":"Feature"},
	{"geometry":{"coordinates":[37.721654,55.595299],"type":"Point"},"properties":{"osm_id":"6109458756","tag":{"amenity":"waste_basket"}},"type":"Feature"},
	{"geometry":{"coordinates":[37.722008,55.595348],"type":"Point"},"properties":{"osm_id":"6109458757","tag":{"amenity":"waste_basket"}},"type":"Feature"},
	{"geometry":{"coordinates":[37.725821,55.626788],"type":"Point"},"properties":{"osm_id":"6110928390","tag":{"amenity":"waste_basket"}},"type":"Feature"},
	{"geometry":{"coordinates":[37.725811,55.626637],"type":"Point"},"properties":{"osm_id":"6111477583","tag":{"amenity":"waste_basket"}},"type":"Feature"},
	{"geometry":{"coordinates":[37.726191,55.626624],"type":"Point"},"properties":{"osm_id":"6111477786","tag":{"amenity":"waste_basket"}},"type":"Feature"},
	{"geometry":{"coordinates":[37.726475,55.626729],"type":"Point"},"properties":{"osm_id":"6111477789","tag":{"amenity":"waste_basket"}},"type":"Feature"},
	{"geometry":{"coordinates":[37.72705,55.626697],"type":"Point"},"properties":{"osm_id":"6111477792","tag":{"amenity":"waste_basket"}},"type":"Feature"},
	{"geometry":{"coordinates":[37.727313,55.626486],"type":"Point"},"properties":{"osm_id":"6111477795","tag":{"amenity":"waste_basket"}},"type":"Feature"},
	{"geometry":{"coordinates":[37.727296,55.626279],"type":"Point"},"properties":{"osm_id":"6111477797","tag":{"amenity":"waste_basket"}},"type":"Feature"},
	{"geometry":{"coordinates":[37.727276,55.626053],"type":"Point"},"properties":{"osm_id":"6111477800","tag":{"amenity":"waste_basket"}},"type":"Feature"},
	{"geometry":{"coordinates":[37.727564,55.626367],"type":"Point"},"properties":{"osm_id":"6111477804","tag":{"amenity":"waste_disposal"}},"type":"Feature"},
	{"geometry":{"coordinates":[37.728205,55.626958],"type":"Point"},"properties":{"osm_id":"6113569302","tag":{"amenity":"waste_basket"}},"type":"Feature"},
	{"geometry":{"coordinates":[37.728862,55.627731],"type":"Point"},"properties":{"osm_id":"6113569314","tag":{"amenity":"waste_basket"}},"type":"Feature"},
	{"geometry":{"coordinates":[37.728654,55.62777],"type":"Point"},"properties":{"osm_id":"6113569317","tag":{"amenity":"waste_basket"}},"type":"Feature"},
	{"geometry":{"coordinates":[37.740452,55.599154],"type":"Point"},"properties":{"osm_id":"6113618746","tag":{"amenity":"waste_basket"}},"type":"Feature"},
	{"geometry":{"coordinates":[37.740321,55.599364],"type":"Point"},"properties":{"osm_id":"6113618747","tag":{"amenity":"waste_basket"}},"type":"Feature"},
	{"geometry":{"coordinates":[37.739883,55.599866],"type":"Point"},"properties":{"osm_id":"6113618749","tag":{"amenity":"waste_basket"}},"type":"Feature"},
	{"geometry":{"coordinates":[37.739496,55.599976],"type":"Point"},"properties":{"osm_id":"6113618750","tag":{"amenity":"waste_basket"}},"type":"Feature"},
	{"geometry":{"coordinates":[37.739199,55.600146],"type":"Point"},"properties":{"osm_id":"6113618751","tag":{"amenity":"waste_basket"}},"type":"Feature"},
	{"geometry":{"coordinates":[37.738737,55.600531],"type":"Point"},"properties":{"osm_id":"6113618755","tag":{"amenity":"waste_basket"}},"type":"Feature"},
	{"geometry":{"coordinates":[37.738091,55.600976],"type":"Point"},"properties":{"osm_id":"6113618756","tag":{"amenity":"waste_basket"}},"type":"Feature"},
	{"geometry":{"coordinates":[37.739778,55.601632],"type":"Point"},"properties":{"osm_id":"6123547445","tag":{"amenity":"recycling","recycling:plastic_bottles":"yes","recycling_type":"container"}},"type":"Feature"},
	{"geometry":{"coordinates":[37.723452,55.62581],"type":"Point"},"properties":{"osm_id":"6124958092","tag":{"amenity":"waste_basket"}},"type":"Feature"},
	{"geometry":{"coordinates":[37.725883,55.625128],"type":"Point"},"properties":{"osm_id":"6125319007","tag":{"amenity":"waste_basket"}},"type":"Feature"},
	{"geometry":{"coordinates":[37.723297,55.625994],"type":"Point"},"properties":{"osm_id":"6125319013","tag":{"amenity":"waste_disposal"}},"type":"Feature"},
	{"geometry":{"coordinates":[37.727647,55.618016],"type":"Point"},"properties":{"osm_id":"6125356855","tag":{"amenity":"waste_basket"}},"type":"Feature"},
	{"geometry":{"coordinates":[37.727674,55.618123],"type":"Point"},"properties":{"osm_id":"6125356857","tag":{"amenity":"waste_basket"}},"type":"Feature"},
	{"geometry":{"coordinates":[37.717453,55.625035],"type":"Point"},"properties":{"osm_id":"6125385113","tag":{"amenity":"waste_basket"}},"type":"Feature"},
	{"geometry":{"coordinates":[37.717755,55.625086],"type":"Point"},"properties":{"osm_id":"6125385114","tag":{"amenity":"waste_basket"}},"type":"Feature"},
	{"geometry":{"coordinates":[37.718018,55.625131],"type":"Point"},"properties":{"osm_id":"6125385115","tag":{"amenity":"waste_basket"}},"type":"Feature"},
	{"geometry":{"coordinates":[37.718362,55.625186],"type":"Point"},"properties":{"osm_id":"6125385117","tag":{"amenity":"waste_basket"}},"type":"Feature"},
	{"geometry":{"coordinates":[37.718664,55.625236],"type":"Point"},"properties":{"osm_id":"6125385119","tag":{"amenity":"waste_basket"}},"type":"Feature"},
	{"geometry":{"coordinates":[37.719276,55.625337],"type":"Point"},"properties":{"osm_id":"6125385121","tag":{"amenity":"waste_basket"}},"type":"Feature"},
	{"geometry":{"coordinates":[37.719578,55.625387],"type":"Point"},"properties":{"osm_id":"6125385122","tag":{"amenity":"waste_basket"}},"type":"Feature"},
	{"geometry":{"coordinates":[37.719877,55.625437],"type":"Point"},"properties":{"osm_id":"6125385124","tag":{"amenity":"waste_basket"}},"type":"Feature"},
	{"geometry":{"coordinates":[37.720181,55.625479],"type":"Point"},"properties":{"osm_id":"6125385126","tag":{"amenity":"waste_basket"}},"type":"Feature"},
	{"geometry":{"coordinates":[37.720622,55.62544],"type":"Point"},"properties":{"osm_id":"6125385141","tag":{"amenity":"waste_basket"}},"type":"Feature"},
	{"geometry":{"coordinates":[37.720932,55.625497],"type":"Point"},"properties":{"osm_id":"6125385143","tag":{"amenity":"waste_basket"}},"type":"Feature"},
	{"geometry":{"coordinates":[37.721232,55.625544],"type":"Point"},"properties":{"osm_id":"6125385145","tag":{"amenity":"waste_basket"}},"type":"Feature"},
	{"geometry":{"coordinates":[37.721482,55.625585],"type":"Point"},"properties":{"osm_id":"6125385146","tag":{"amenity":"waste_basket"}},"type":"Feature"},
	{"geometry":{"coordinates":[37.719642,55.625503],"type":"Point"},"properties":{"osm_id":"6125393964","tag":{"amenity":"waste_disposal"}},"type":"Feature"},
	{"geometry":{"coordinates":[37.718677,55.625907],"type":"Point"},"properties":{"osm_id":"6125399073","tag":{"amenity":"waste_basket"}},"type":"Feature"},
	{"geometry":{"coordinates":[37.718395,55.625862],"type":"Point"},"properties":{"osm_id":"6125399075","tag":{"amenity":"waste_basket"}},"type":"Feature"},
	{"geometry":{"coordinates":[37.71811,55.625815],"type":"Point"},"properties":{"osm_id":"6125399077","tag":{"amenity":"waste_basket"}},"type":"Feature"},
	{"geometry":{"coordinates":[37.717825,55.625769],"type":"Point"},"properties":{"osm_id":"6125399079","tag":{"amenity":"waste_basket"}},"type":"Feature"},
	{"geometry":{"coordinates":[37.719697,55.626121],"type":"Point"},"properties":{"osm_id":"6125403030","tag":{"amenity":"waste_basket"}},"type":"Feature"},
	{"geometry":{"coordinates":[37.719364,55.626071],"type":"Point"},"properties":{"osm_id":"6125403031","tag":{"amenity":"waste_basket"}},"type":"Feature"},
	{"geometry":{"coordinates":[37.714436,55.625808],"type":"Point"},"properties":{"osm_id":"6126515515","tag":{"amenity":"waste_basket"}},"type":"Feature"},
	{"geometry":{"coordinates":[37.714164,55.625818],"type":"Point"},"properties":{"osm_id":"6126515516","tag":{"amenity":"waste_basket"}},"type":"Feature"},
	{"geometry":{"coordinates":[37.714133,55.625408],"type":"Point"},"properties":{"osm_id":"6126530545","tag":{"amenity":"waste_basket"}},"type":"Feature"},
	{"geometry":{"coordinates":[37.714524,55.62547],"type":"Point"},"properties":{"osm_id":"6126530547","tag":{"amenity":"waste_basket"}},"type":"Feature"},
	{"geometry":{"coordinates":[37.716166,55.625746],"type":"Point"},"properties":{"osm_id":"6126537052","tag":{"amenity":"waste_basket"}},"type":"Feature"},
	{"geometry":{"coordinates":[37.71578,55.625684],"type":"Point"},"properties":{"osm_id":"6126537053","tag":{"amenity":"waste_basket"}},"type":"Feature"},
	{"geometry":{"coordinates":[37.721744,55.627157],"type":"Point"},"properties":{"osm_id":"6126544215","tag":{"amenity":"waste_basket"}},"type":"Feature"},
	{"geometry":{"coordinates":[37.721672,55.627325],"type":"Point"},"properties":{"osm_id":"6126544216","tag":{"amenity":"waste_basket"}},"type":"Feature"},
	{"geometry":{"coordinates":[37.721597,55.627444],"type":"Point"},"properties":{"osm_id":"6126544217","tag":{"amenity":"waste_basket"}},"type":"Feature"},
	{"geometry":{"coordinates":[37.721312,55.627543],"type":"Point"},"properties":{"osm_id":"6126544218","tag":{"amenity":"waste_basket"}},"type":"Feature"},
	{"geometry":{"coordinates":[37.72102,55.6275],"type":"Point"},"properties":{"osm_id":"6126544219","tag":{"amenity":"waste_basket"}},"type":"Feature"},
	{"geometry":{"coordinates":[37.720699,55.627448],"type":"Point"},"properties":{"osm_id":"6126544220","tag":{"amenity":"waste_basket"}},"type":"Feature"},
	{"geometry":{"coordinates":[37.720387,55.627399],"type":"Point"},"properties":{"osm_id":"6126544221","tag":{"amenity":"waste_basket"}},"type":"Feature"},
	{"geometry":{"coordinates":[37.720082,55.627346],"type":"Point"},"properties":{"osm_id":"6126544222","tag":{"amenity":"waste_basket"}},"type":"Feature"},
	{"geometry":{"coordinates":[37.71924,55.627607],"type":"Point"},"properties":{"osm_id":"6126544223","tag":{"amenity":"waste_basket"}},"type":"Feature"},
	{"geometry":{"coordinates":[37.718936,55.627559],"type":"Point"},"properties":{"osm_id":"6126544225","tag":{"amenity":"waste_basket"}},"type":"Feature"},
	{"geometry":{"coordinates":[37.71863,55.627511],"type":"Point"},"properties":{"osm_id":"6126544227","tag":{"amenity":"waste_basket"}},"type":"Feature"},
	{"geometry":{"coordinates":[37.71833,55.62746],"type":"Point"},"properties":{"osm_id":"6126544229","tag":{"amenity":"waste_basket"}},"type":"Feature"},
	{"geometry":{"coordinates":[37.718026,55.627411],"type":"Point"},"properties":{"osm_id":"6126544231","tag":{"amenity":"waste_basket"}},"type":"Feature"},
	{"geometry":{"coordinates":[37.717726,55.627359],"type":"Point"},"properties":{"osm_id":"6126544234","tag":{"amenity":"waste_basket"}},"type":"Feature"},
	{"geometry":{"coordinates":[37.721327,55.62672],"type":"Point"},"properties":{"osm_id":"6126567351","tag":{"amenity":"waste_basket"}},"type":"Feature"},
	{"geometry":{"coordinates":[37.720983,55.626665],"type":"Point"},"properties":{"osm_id":"6126567353","tag":{"amenity":"waste_basket"}},"type":"Feature"},
	{"geometry":{"coordinates":[37.72064,55.626609],"type":"Point"},"properties":{"osm_id":"6126567354","tag":{"amenity":"waste_basket"}},"type":"Feature"},
	{"geometry":{"coordinates":[37.720297,55.626554],"type":"Point"},"properties":{"osm_id":"6126567356","tag":{"amenity":"waste_basket"}},"type":"Feature"},
	{"geometry":{"coordinates":[37.720066,55.626552],"type":"Point"},"properties":{"osm_id":"6126567357","tag":{"amenity":"waste_basket"}},"type":"Feature"},
	{"geometry":{"coordinates":[37.719989,55.626704],"type":"Point"},"properties":{"osm_id":"6126567358","tag":{"amenity":"waste_basket"}},"type":"Feature"},
	{"geometry":{"coordinates":[37.719912,55.626856],"type":"Point"},"properties":{"osm_id":"6126567360","tag":{"amenity":"waste_basket"}},"type":"Feature"},
	{"geometry":{"coordinates":[37.722004,55.626872],"type":"Point"},"properties":{"osm_id":"6126570880","tag":{"amenity":"recycling","recycling:plastic_bottles":"yes","recycling_type":"container"}},"type":"Feature"},
	{"geometry":{"coordinates":[37.72708,55.626556],"type":"Point"},"properties":{"osm_id":"6126573774","tag":{"amenity":"waste_basket"}},"type":"Feature"},
	{"geometry":{"coordinates":[37.728343,55.625769],"type":"Point"},"properties":{"osm_id":"6126590849","tag":{"amenity":"waste_basket"}},"type":"Feature"},
	{"geometry":{"coordinates":[37.72484,55.605153],"type":"Point"},"properties":{"osm_id":"6128876005","tag":{"amenity":"waste_basket"}},"type":"Feature"},
	{"geometry":{"coordinates":[37.724789,55.605242],"type":"Point"},"properties":{"osm_id":"6128876006","tag":{"amenity":"waste_basket"}},"type":"Feature"},
	{"geometry":{"coordinates":[37.709947,55.608604],"type":"Point"},"properties":{"osm_id":"6128999410","tag":{"amenity":"waste_basket"}},"type":"Feature"},
	{"geometry":{"coordinates":[37.720261,55.611679],"type":"Point"},"properties":{"osm_id":"6129142178","tag":{"amenity":"waste_basket"}},"type":"Feature"},
	{"geometry":{"coordinates":[37.711582,55.609041],"type":"Point"},"properties":{"osm_id":"6129169725","tag":{"amenity":"waste_basket"}},"type":"Feature"},
	{"geometry":{"coordinates":[37.71189,55.609088],"type":"Point"},"properties":{"osm_id":"6129169727","tag":{"amenity":"waste_basket"}},"type":"Feature"},
	{"geometry":{"coordinates":[37.712193,55.609139],"type":"Point"},"properties":{"osm_id":"6129169729","tag":{"amenity":"waste_basket"}},"type":"Feature"},
	{"geometry":{"coordinates":[37.71248,55.609184],"type":"Point"},"properties":{"osm_id":"6129169731","tag":{"amenity":"waste_basket"}},"type":"Feature"},
	{"geometry":{"coordinates":[37.712784,55.609234],"type":"Point"},"properties":{"osm_id":"6129169733","tag":{"amenity":"waste_basket"}},"type":"Feature"},
	{"geometry":{"coordinates":[37.71309,55.609281],"type":"Point"},"properties":{"osm_id":"6129169735","tag":{"amenity":"waste_basket"}},"type":"Feature"},
	{"geometry":{"coordinates":[37.713415,55.609331],"type":"Point"},"properties":{"osm_id":"6129169737","tag":{"amenity":"waste_basket"}},"type":"Feature"},
	{"geometry":{"coordinates":[37.713721,55.60938],"type":"Point"},"properties":{"osm_id":"6129169739","tag":{"amenity":"waste_basket"}},"type":"Feature"},
	{"geometry":{"coordinates":[37.714027,55.609427],"type":"Point"},"properties":{"osm_id":"6129169741","tag":{"amenity":"waste_basket"}},"type":"Feature"},
	{"geometry":{"coordinates":[37.714332,55.609474],"type":"Point"},"properties":{"osm_id":"6129169743","tag":{"amenity":"waste_basket"}},"type":"Feature"},
	{"geometry":{"coordinates":[37.714638,55.609522],"type":"Point"},"properties":{"osm_id":"6129169745","tag":{"amenity":"waste_basket"}},"type":"Feature"},
	{"geometry":{"coordinates":[37.714728,55.609662],"type":"Point"},"properties":{"osm_id":"6129169747","tag":{"amenity":"waste_disposal"}},"type":"Feature"},
	{"geometry":{"coordinates":[37.714944,55.609571],"type":"Point"},"properties":{"osm_id":"6129169748","tag":{"amenity":"waste_basket"}},"type":"Feature"},
	{"geometry":{"coordinates":[37.715249,55.609619],"type":"Point"},"properties":{"osm_id":"6129169750","tag":{"amenity":"waste_basket"}},"type":"Feature"},
	{"geometry":{"coordinates":[37.715462,55.609652],"type":"Point"},"properties":{"osm_id":"6129169752","tag":{"amenity":"waste_basket"}},"type":"Feature"},
	{"geometry":{"coordinates":[37.715512,55.60966],"type":"Point"},"properties":{"osm_id":"6129169753","tag":{"amenity":"waste_basket"}},"type":"Feature"},
	{"geometry":{"coordinates":[37.705334,55.607998],"type":"Point"},"properties":{"osm_id":"6129228715","tag":{"amenity":"waste_basket"}},"type":"Feature"},
	{"geometry":{"coordinates":[37.705709,55.608057],"type":"Point"},"properties":{"osm_id":"6129228717","tag":{"amenity":"waste_basket"}},"type":"Feature"},
	{"geometry":{"coordinates":[37.706038,55.608117],"type":"Point"},"properties":{"osm_id":"6129228719","tag":{"amenity":"waste_basket"}},"type":"Feature"},
	{"geometry":{"coordinates":[37.706262,55.608221],"type":"Point"},"properties":{"osm_id":"6129228721","tag":{"amenity":"recycling","recycling:plastic_bottles":"yes","recycling_type":"container"}},"type":"Feature"},
	{"geometry":{"coordinates":[37.706254,55.60822],"type":"Point"},"properties":{"osm_id":"6129228722","tag":{"amenity":"waste_disposal"}},"type":"Feature"},
	{"geometry":{"coordinates":[37.706309,55.608168],"type":"Point"},"properties":{"osm_id":"6129228723","tag":{"amenity":"waste_basket"}},"type":"Feature"},
	{"geometry":{"coordinates":[37.706649,55.608219],"type":"Point"},"properties":{"osm_id":"6129228725","tag":{"amenity":"waste_basket"}},"type":"Feature"},
	{"geometry":{"coordinates":[37.706984,55.608268],"type":"Point"},"properties":{"osm_id":"6129228727","tag":{"amenity":"waste_basket"}},"type":"Feature"},
	{"geometry":{"coordinates":[37.707314,55.608317],"type":"Point"},"properties":{"osm_id":"6129228730","tag":{"amenity":"waste_basket"}},"type":"Feature"},
	{"geometry":{"coordinates":[37.707691,55.608378],"type":"Point"},"properties":{"osm_id":"6129228731","tag":{"amenity":"waste_basket"}},"type":"Feature"},
	{"geometry":{"coordinates":[37.707975,55.608423],"type":"Point"},"properties":{"osm_id":"6129228733","tag":{"amenity":"waste_basket"}},"type":"Feature"},
	{"geometry":{"coordinates":[37.708297,55.608565],"type":"Point"},"properties":{"osm_id":"6129228734","tag":{"amenity":"waste_disposal"}},"type":"Feature"},
	{"geometry":{"coordinates":[37.708315,55.608478],"type":"Point"},"properties":{"osm_id":"6129228735","tag":{"amenity":"waste_basket"}},"type":"Feature"},
	{"geometry":{"coordinates":[37.708647,55.608528],"type":"Point"},"properties":{"osm_id":"6129228737","tag":{"amenity":"waste_basket"}},"type":"Feature"},
	{"geometry":{"coordinates":[37.708975,55.608576],"type":"Point"},"properties":{"osm_id":"6129228739","tag":{"amenity":"waste_basket"}},"type":"Feature"},
	{"geometry":{"coordinates":[37.705822,55.606724],"type":"Point"},"properties":{"osm_id":"6129250463","tag":{"amenity":"waste_basket"}},"type":"Feature"},
	{"geometry":{"coordinates":[37.70537,55.606893],"type":"Point"},"properties":{"osm_id":"6129250464","tag":{"amenity":"waste_basket"}},"type":"Feature"},
	{"geometry":{"coordinates":[37.705284,55.607052],"type":"Point"},"properties":{"osm_id":"6129250466","tag":{"amenity":"waste_basket"}},"type":"Feature"},
	{"geometry":{"coordinates":[37.705201,55.607197],"type":"Point"},"properties":{"osm_id":"6129250468","tag":{"amenity":"waste_basket"}},"type":"Feature"},
	{"geometry":{"coordinates":[37.705103,55.607373],"type":"Point"},"properties":{"osm_id":"6129250470","tag":{"amenity":"waste_basket"}},"type":"Feature"},
	{"geometry":{"coordinates":[37.705679,55.607188],"type":"Point"},"properties":{"osm_id":"6129250476","tag":{"amenity":"waste_disposal"}},"type":"Feature"},
	{"geometry":{"coordinates":[37.705687,55.607189],"type":"Point"},"properties":{"osm_id":"6129250477","tag":{"amenity":"recycling","recycling:plastic_bottles":"yes","recycling_type":"container"}},"type":"Feature"},
	{"geometry":{"coordinates":[37.761169,55.620612],"type":"Point"},"properties":{"osm_id":"6133206981","tag":{"amenity":"recycling","recycling:plastic_bottles":"yes","recycling_type":"container"}},"type":"Feature"},
	{"geometry":{"coordinates":[37.761179,55.620622],"type":"Point"},"properties":{"osm_id":"6133206982","tag":{"amenity":"waste_disposal"}},"type":"Feature"},
	{"geometry":{"coordinates":[37.76096,55.620697],"type":"Point"},"properties":{"osm_id":"6133209534","tag":{"amenity":"waste_basket"}},"type":"Feature"},
	{"geometry":{"coordinates":[37.760167,55.620869],"type":"Point"},"properties":{"osm_id":"6133226333","tag":{"amenity":"waste_basket"}},"type":"Feature"},
	{"geometry":{"coordinates":[37.759855,55.620994],"type":"Point"},"properties":{"osm_id":"6133226335","tag":{"amenity":"waste_basket"}},"type":"Feature"},
	{"geometry":{"coordinates":[37.75954,55.621125],"type":"Point"},"properties":{"osm_id":"6133226337","tag":{"amenity":"waste_basket"}},"type":"Feature"},
	{"geometry":{"coordinates":[37.758794,55.620386],"type":"Point"},"properties":{"osm_id":"6133302707","tag":{"amenity":"waste_basket"}},"type":"Feature"},
	{"geometry":{"coordinates":[37.759513,55.62008],"type":"Point"},"properties":{"osm_id":"6133305709","tag":{"amenity":"waste_disposal"}},"type":"Feature"},
	{"geometry":{"coordinates":[37.759484,55.620078],"type":"Point"},"properties":{"osm_id":"6133305710","tag":{"amenity":"recycling","recycling:plastic_bottles":"yes","recycling_type":"container"}},"type":"Feature"},
	{"geometry":{"coordinates":[37.757539,55.617274],"type":"Point"},"properties":{"osm_id":"6133352761","tag":{"amenity":"waste_disposal"}},"type":"Feature"},
	{"geometry":{"coordinates":[37.757529,55.617265],"type":"Point"},"properties":{"osm_id":"6133352762","tag":{"amenity":"recycling","recycling:plastic_bottles":"yes","recycling_type":"container"}},"type":"Feature"},
	{"geometry":{"coordinates":[37.757392,55.618407],"type":"Point"},"properties":{"osm_id":"6133352780","tag":{"amenity":"waste_disposal"}},"type":"Feature"},
	{"geometry":{"coordinates":[37.757382,55.618398],"type":"Point"},"properties":{"osm_id":"6133352781","tag":{"amenity":"recycling","recycling:plastic_bottles":"yes","recycling_type":"container"}},"type":"Feature"},
	{"geometry":{"coordinates":[37.757149,55.619623],"type":"Point"},"properties":{"osm_id":"6133352782","tag":{"amenity":"waste_basket"}},"type":"Feature"},
	{"geometry":{"coordinates":[37.757179,55.619441],"type":"Point"},"properties":{"osm_id":"6133352783","tag":{"amenity":"waste_basket"}},"type":"Feature"},
	{"geometry":{"coordinates":[37.757207,55.619258],"type":"Point"},"properties":{"osm_id":"6133352784","tag":{"amenity":"waste_basket"}},"type":"Feature"},
	{"geometry":{"coordinates":[37.757239,55.619074],"type":"Point"},"properties":{"osm_id":"6133353185","tag":{"amenity":"waste_basket"}},"type":"Feature"},
	{"geometry":{"coordinates":[37.757269,55.618893],"type":"Point"},"properties":{"osm_id":"6133353186","tag":{"amenity":"waste_basket"}},"type":"Feature"},
	{"geometry":{"coordinates":[37.757301,55.61871],"type":"Point"},"properties":{"osm_id":"6133353187","tag":{"amenity":"waste_basket"}},"type":"Feature"},
	{"geometry":{"coordinates":[37.757145,55.619782],"type":"Point"},"properties":{"osm_id":"6133353227","tag":{"amenity":"waste_disposal"}},"type":"Feature"},
	{"geometry":{"coordinates":[37.757552,55.617639],"type":"Point"},"properties":{"osm_id":"6133353383","tag":{"amenity":"waste_basket"}},"type":"Feature"},
	{"geometry":{"coordinates":[37.757526,55.617805],"type":"Point"},"properties":{"osm_id":"6133360085","tag":{"amenity":"waste_basket"}},"type":"Feature"},
	{"geometry":{"coordinates":[37.757504,55.61797],"type":"Point"},"properties":{"osm_id":"6133360087","tag":{"amenity":"waste_basket"}},"type":"Feature"},
	{"geometry":{"coordinates":[37.757474,55.618136],"type":"Point"},"properties":{"osm_id":"6133360090","tag":{"amenity":"waste_basket"}},"type":"Feature"},
	{"geometry":{"coordinates":[37.756392,55.619596],"type":"Point"},"properties":{"osm_id":"6133362240","tag":{"amenity":"waste_basket"}},"type":"Feature"},
	{"geometry":{"coordinates":[37.755907,55.619571],"type":"Point"},"properties":{"osm_id":"6133362242","tag":{"amenity":"waste_basket"}},"type":"Feature"},
	{"geometry":{"coordinates":[37.75588,55.618657],"type":"Point"},"properties":{"osm_id":"6133366800","tag":{"amenity":"waste_basket"}},"type":"Feature"},
	{"geometry":{"coordinates":[37.75585,55.618885],"type":"Point"},"properties":{"osm_id":"6133366802","tag":{"amenity":"waste_basket"}},"type":"Feature"},
	{"geometry":{"coordinates":[37.755817,55.619111],"type":"Point"},"properties":{"osm_id":"6133366804","tag":{"amenity":"waste_basket"}},"type":"Feature"},
	{"geometry":{"coordinates":[37.75579,55.619333],"type":"Point"},"properties":{"osm_id":"6133366807","tag":{"amenity":"waste_basket"}},"type":"Feature"},
	{"geometry":{"coordinates":[37.744713,55.595445],"type":"Point"},"properties":{"osm_id":"6150133093","tag":{"amenity":"waste_basket"}},"type":"Feature"},
	{"geometry":{"coordinates":[37.730012,55.612049],"type":"Point"},"properties":{"osm_id":"6153985299","tag":{"amenity":"waste_basket"}},"type":"Feature"},
	{"geometry":{"coordinates":[37.729956,55.612042],"type":"Point"},"properties":{"osm_id":"6153985300","tag":{"amenity":"waste_basket"}},"type":"Feature"},
	{"geometry":{"coordinates":[37.729943,55.61204],"type":"Point"},"properties":{"osm_id":"6153985301","tag":{"amenity":"waste_basket"}},"type":"Feature"},
	{"geometry":{"coordinates":[37.729498,55.611971],"type":"Point"},"properties":{"osm_id":"6153985306","tag":{"amenity":"waste_basket"}},"type":"Feature"},
	{"geometry":{"coordinates":[37.728926,55.611817],"type":"Point"},"properties":{"osm_id":"6153985317","tag":{"amenity":"recycling","recycling:plastic_bottles":"yes","recycling_type":"container"}},"type":"Feature"},
	{"geometry":{"coordinates":[37.734377,55.583735],"type":"Point"},"properties":{"osm_id":"6155793185","tag":{"amenity":"waste_basket"}},"type":"Feature"},
	{"geometry":{"coordinates":[37.742801,55.599903],"type":"Point"},"properties":{"osm_id":"6161732165","tag":{"amenity":"recycling","recycling:plastic_bottles":"yes","recycling_type":"container"}},"type":"Feature"},
	{"geometry":{"coordinates":[37.74327,55.601881],"type":"Point"},"properties":{"osm_id":"6161732170","tag":{"amenity":"recycling","recycling:plastic_bottles":"yes","recycling_type":"container"}},"type":"Feature"},
	{"geometry":{"coordinates":[37.743737,55.603402],"type":"Point"},"properties":{"osm_id":"6161732177","tag":{"amenity":"recycling","recycling:plastic_bottles":"yes","recycling_type":"container"}},"type":"Feature"},
	{"geometry":{"coordinates":[37.744884,55.6039],"type":"Point"},"properties":{"osm_id":"6161732184","tag":{"amenity":"recycling","recycling:plastic_bottles":"yes","recycling_type":"container"}},"type":"Feature"},
	{"geometry":{"coordinates":[37.744563,55.604693],"type":"Point"},"properties":{"osm_id":"6161732592","tag":{"amenity":"recycling","recycling:plastic_bottles":"yes","recycling_type":"container"}},"type":"Feature"},
	{"geometry":{"coordinates":[37.710009,55.614251],"type":"Point"},"properties":{"osm_id":"6253274326","tag":{"amenity":"waste_basket"}},"type":"Feature"},
	{"geometry":{"coordinates":[37.710034,55.614198],"type":"Point"},"properties":{"osm_id":"6253274327","tag":{"amenity":"waste_basket"}},"type":"Feature"},
	{"geometry":{"coordinates":[37.710369,55.614502],"type":"Point"},"properties":{"osm_id":"6253274328","tag":{"amenity":"waste_basket"}},"type":"Feature"},
	{"geometry":{"coordinates":[37.710187,55.614627],"type":"Point"},"properties":{"osm_id":"6253274329","tag":{"amenity":"waste_basket"}},"type":"Feature"},
	{"geometry":{"coordinates":[37.71028,55.614786],"type":"Point"},"properties":{"osm_id":"6253274330","tag":{"amenity":"waste_basket"}},"type":"Feature"},
	{"geometry":{"coordinates":[37.741108,55.602804],"type":"Point"},"properties":{"osm_id":"6258218985","tag":{"amenity":"recycling","recycling:plastic_bottles":"yes","recycling_type":"container"}},"type":"Feature"},
	{"geometry":{"coordinates":[37.742259,55.599378],"type":"Point"},"properties":{"osm_id":"6260521070","tag":{"amenity":"recycling","recycling:glass_bottles":"yes","recycling_type":"container"}},"type":"Feature"},
	{"geometry":{"coordinates":[37.74229,55.599366],"type":"Point"},"properties":{"osm_id":"6260521071","tag":{"amenity":"recycling","recycling:plastic_bottles":"yes","recycling_type":"container"}},"type":"Feature"},
	{"geometry":{"coordinates":[37.75586,55.62196],"type":"Point"},"properties":{"osm_id":"6279105293","tag":{"amenity":"waste_disposal"}},"type":"Feature"},
	{"geometry":{"coordinates":[37.757749,55.622038],"type":"Point"},"properties":{"osm_id":"6279105294","tag":{"amenity":"waste_disposal"}},"type":"Feature"},
	{"geometry":{"coordinates":[37.758458,55.621703],"type":"Point"},"properties":{"osm_id":"6279105295","tag":{"amenity":"waste_disposal"}},"type":"Feature"},
	{"geometry":{"coordinates":[37.759236,55.621171],"type":"Point"},"properties":{"osm_id":"6279105887","tag":{"amenity":"waste_disposal"}},"type":"Feature"},
	{"geometry":{"coordinates":[37.753344,55.622025],"type":"Point"},"properties":{"osm_id":"6279150885","tag":{"amenity":"waste_disposal"}},"type":"Feature"},
	{"geometry":{"coordinates":[37.758221,55.620496],"type":"Point"},"properties":{"osm_id":"6279252785","tag":{"amenity":"waste_disposal"}},"type":"Feature"},
	{"geometry":{"coordinates":[37.745475,55.621778],"type":"Point"},"properties":{"osm_id":"6279469617","tag":{"amenity":"recycling","recycling:plastic_bottles":"yes","recycling_type":"container"}},"type":"Feature"},
	{"geometry":{"coordinates":[37.746399,55.621714],"type":"Point"},"properties":{"osm_id":"6279469620","tag":{"amenity":"waste_basket"}},"type":"Feature"},
	{"geometry":{"coordinates":[37.74677,55.621732],"type":"Point"},"properties":{"osm_id":"6279469623","tag":{"amenity":"waste_basket"}},"type":"Feature"},
	{"geometry":{"coordinates":[37.747172,55.621752],"type":"Point"},"properties":{"osm_id":"6279469626","tag":{"amenity":"waste_basket"}},"type":"Feature"},
	{"geometry":{"coordinates":[37.747552,55.621773],"type":"Point"},"properties":{"osm_id":"6279469630","tag":{"amenity":"waste_basket"}},"type":"Feature"},
	{"geometry":{"coordinates":[37.747933,55.621788],"type":"Point"},"properties":{"osm_id":"6279469633","tag":{"amenity":"waste_basket"}},"type":"Feature"},
	{"geometry":{"coordinates":[37.748269,55.621806],"type":"Point"},"properties":{"osm_id":"6279469637","tag":{"amenity":"waste_basket"}},"type":"Feature"},
	{"geometry":{"coordinates":[37.748661,55.621806],"type":"Point"},"properties":{"osm_id":"6279469639","tag":{"amenity":"waste_basket"}},"type":"Feature"},
	{"geometry":{"coordinates":[37.7491,55.621828],"type":"Point"},"properties":{"osm_id":"6279469641","tag":{"amenity":"waste_basket"}},"type":"Feature"},
	{"geometry":{"coordinates":[37.749548,55.621774],"type":"Point"},"properties":{"osm_id":"6279469648","tag":{"amenity":"waste_basket"}},"type":"Feature"},
	{"geometry":{"coordinates":[37.749914,55.621697],"type":"Point"},"properties":{"osm_id":"6279469650","tag":{"amenity":"waste_basket"}},"type":"Feature"},
	{"geometry":{"coordinates":[37.750259,55.62161],"type":"Point"},"properties":{"osm_id":"6279469654","tag":{"amenity":"waste_basket"}},"type":"Feature"},
	{"geometry":{"coordinates":[37.750315,55.621672],"type":"Point"},"properties":{"osm_id":"6279469655","tag":{"amenity":"waste_disposal"}},"type":"Feature"},
	{"geometry":{"coordinates":[37.750287,55.621684],"type":"Point"},"properties":{"osm_id":"6279469656","tag":{"amenity":"recycling","recycling:plastic_bottles":"yes","recycling_type":"container"}},"type":"Feature"},
	{"geometry":{"coordinates":[37.750597,55.621523],"type":"Point"},"properties":{"osm_id":"6279469658","tag":{"amenity":"waste_basket"}},"type":"Feature"},
	{"geometry":{"coordinates":[37.751221,55.621105],"type":"Point"},"properties":{"osm_id":"6279475491","tag":{"amenity":"recycling","recycling:plastic_bottles":"yes","recycling_type":"container"}},"type":"Feature"},
	{"geometry":{"coordinates":[37.753277,55.622025],"type":"Point"},"properties":{"osm_id":"6279482970","tag":{"amenity":"recycling","recycling:plastic_bottles":"yes","recycling_type":"container"}},"type":"Feature"},
	{"geometry":{"coordinates":[37.75515,55.621698],"type":"Point"},"properties":{"osm_id":"6279498130","tag":{"amenity":"waste_basket"}},"type":"Feature"},
	{"geometry":{"coordinates":[37.754784,55.621685],"type":"Point"},"properties":{"osm_id":"6279498133","tag":{"amenity":"waste_basket"}},"type":"Feature"},
	{"geometry":{"coordinates":[37.754299,55.621666],"type":"Point"},"properties":{"osm_id":"6279498136","tag":{"amenity":"waste_basket"}},"type":"Feature"},
	{"geometry":{"coordinates":[37.755865,55.621745],"type":"Point"},"properties":{"osm_id":"6279508504","tag":{"amenity":"waste_basket"}},"type":"Feature"},
	{"geometry":{"coordinates":[37.756186,55.621764],"type":"Point"},"properties":{"osm_id":"6279508511","tag":{"amenity":"waste_basket"}},"type":"Feature"},
	{"geometry":{"coordinates":[37.756502,55.621779],"type":"Point"},"properties":{"osm_id":"6279508514","tag":{"amenity":"waste_basket"}},"type":"Feature"},
	{"geometry":{"coordinates":[37.756813,55.621799],"type":"Point"},"properties":{"osm_id":"6279508517","tag":{"amenity":"waste_basket"}},"type":"Feature"},
	{"geometry":{"coordinates":[37.757141,55.621818],"type":"Point"},"properties":{"osm_id":"6279508524","tag":{"amenity":"waste_basket"}},"type":"Feature"},
	{"geometry":{"coordinates":[37.757468,55.621838],"type":"Point"},"properties":{"osm_id":"6279508527","tag":{"amenity":"waste_basket"}},"type":"Feature"},
	{"geometry":{"coordinates":[37.75771,55.622056],"type":"Point"},"properties":{"osm_id":"6279513318","tag":{"amenity":"recycling","recycling:plastic_bottles":"yes","recycling_type":"container"}},"type":"Feature"},
	{"geometry":{"coordinates":[37.757203,55.619786],"type":"Point"},"properties":{"osm_id":"6279513319","tag":{"amenity":"recycling","recycling:plastic_bottles":"yes","recycling_type":"container"}},"type":"Feature"},
	{"geometry":{"coordinates":[37.758423,55.621717],"type":"Point"},"properties":{"osm_id":"6279521708","tag":{"amenity":"recycling","recycling:plastic_bottles":"yes","recycling_type":"container"}},"type":"Feature"},
	{"geometry":{"coordinates":[37.758425,55.621213],"type":"Point"},"properties":{"osm_id":"6279521710","tag":{"amenity":"waste_basket"}},"type":"Feature"},
	{"geometry":{"coordinates":[37.758461,55.621031],"type":"Point"},"properties":{"osm_id":"6279521713","tag":{"amenity":"waste_basket"}},"type":"Feature"},
	{"geometry":{"coordinates":[37.758499,55.62085],"type":"Point"},"properties":{"osm_id":"6279521716","tag":{"amenity":"waste_basket"}},"type":"Feature"},
	{"geometry":{"coordinates":[37.758527,55.620678],"type":"Point"},"properties":{"osm_id":"6279521719","tag":{"amenity":"waste_basket"}},"type":"Feature"},
	{"geometry":{"coordinates":[37.75821,55.620543],"type":"Point"},"properties":{"osm_id":"6279521777","tag":{"amenity":"recycling","recycling:plastic_bottles":"yes","recycling_type":"container"}},"type":"Feature"},
	{"geometry":{"coordinates":[37.715368,55.598847],"type":"Point"},"properties":{"osm_id":"6294123385","tag":{"amenity":"waste_disposal"}},"type":"Feature"},
	{"geometry":{"coordinates":[37.744798,55.596095],"type":"Point"},"properties":{"osm_id":"6294228273","tag":{"amenity":"recycling","recycling:glass":"yes","recycling:paper":"yes","recycling:plastic":"yes","recycling:scrap_metal":"yes","recycling_type":"container"}},"type":"Feature"},
	{"geometry":{"coordinates":[37.719885,55.597589],"type":"Point"},"properties":{"osm_id":"6297331891","tag":{"amenity":"recycling","recycling:plastic_bottles":"yes","recycling_type":"container"}},"type":"Feature"},
	{"geometry":{"coordinates":[37.719853,55.597584],"type":"Point"},"properties":{"osm_id":"6297331892","tag":{"amenity":"waste_disposal","waste":"trash"}},"type":"Feature"},
	{"geometry":{"coordinates":[37.719741,55.597259],"type":"Point"},"properties":{"osm_id":"6297331893","tag":{"amenity":"recycling","recycling:plastic_bottles":"yes","recycling_type":"container"}},"type":"Feature"},
	{"geometry":{"coordinates":[37.717453,55.596815],"type":"Point"},"properties":{"osm_id":"6297331894","tag":{"amenity":"waste_basket"}},"type":"Feature"},
	{"geometry":{"coordinates":[37.717242,55.596953],"type":"Point"},"properties":{"osm_id":"6297331897","tag":{"amenity":"waste_basket"}},"type":"Feature"},
	{"geometry":{"coordinates":[37.717023,55.597092],"type":"Point"},"properties":{"osm_id":"6297331899","tag":{"amenity":"waste_basket"}},"type":"Feature"},
	{"geometry":{"coordinates":[37.716821,55.597232],"type":"Point"},"properties":{"osm_id":"6297331902","tag":{"amenity":"waste_basket"}},"type":"Feature"},
	{"geometry":{"coordinates":[37.716608,55.597376],"type":"Point"},"properties":{"osm_id":"6297331905","tag":{"amenity":"waste_basket"}},"type":"Feature"},
	{"geometry":{"coordinates":[37.7164,55.59751],"type":"Point"},"properties":{"osm_id":"6297331910","tag":{"amenity":"waste_basket"}},"type":"Feature"},
	{"geometry":{"coordinates":[37.716091,55.597695],"type":"Point"},"properties":{"osm_id":"6297331912","tag":{"amenity":"waste_basket"}},"type":"Feature"},
	{"geometry":{"coordinates":[37.715945,55.597925],"type":"Point"},"properties":{"osm_id":"6297331914","tag":{"amenity":"waste_disposal"}},"type":"Feature"},
	{"geometry":{"coordinates":[37.715933,55.597934],"type":"Point"},"properties":{"osm_id":"6297331915","tag":{"amenity":"recycling","recycling:plastic_bottles":"yes","recycling_type":"container"}},"type":"Feature"},
	{"geometry":{"coordinates":[37.715997,55.597782],"type":"Point"},"properties":{"osm_id":"6297331917","tag":{"amenity":"waste_basket"}},"type":"Feature"},
	{"geometry":{"coordinates":[37.715768,55.597928],"type":"Point"},"properties":{"osm_id":"6297331919","tag":{"amenity":"waste_basket"}},"type":"Feature"},
	{"geometry":{"coordinates":[37.715547,55.598078],"type":"Point"},"properties":{"osm_id":"6297331921","tag":{"amenity":"waste_basket"}},"type":"Feature"},
	{"geometry":{"coordinates":[37.714895,55.598491],"type":"Point"},"properties":{"osm_id":"6297331924","tag":{"amenity":"waste_basket"}},"type":"Feature"},
	{"geometry":{"coordinates":[37.714737,55.598731],"type":"Point"},"properties":{"osm_id":"6297331925","tag":{"amenity":"waste_basket"}},"type":"Feature"},
	{"geometry":{"coordinates":[37.740672,55.602957],"type":"Point"},"properties":{"osm_id":"6330243088","tag":{"amenity":"waste_basket"}},"type":"Feature"},
	{"geometry":{"coordinates":[37.740658,55.602954],"type":"Point"},"properties":{"osm_id":"6330243089","tag":{"amenity":"waste_basket"}},"type":"Feature"},
	{"geometry":{"coordinates":[37.706193,55.607504],"type":"Point"},"properties":{"osm_id":"6362116858","tag":{"amenity":"waste_basket"}},"type":"Feature"},
	{"geometry":{"coordinates":[37.706524,55.607547],"type":"Point"},"properties":{"osm_id":"6362116859","tag":{"amenity":"waste_basket"}},"type":"Feature"},
	{"geometry":{"coordinates":[37.706841,55.607595],"type":"Point"},"properties":{"osm_id":"6362116860","tag":{"amenity":"waste_basket"}},"type":"Feature"},
	{"geometry":{"coordinates":[37.707179,55.607656],"type":"Point"},"properties":{"osm_id":"6362116861","tag":{"amenity":"waste_basket"}},"type":"Feature"},
	{"geometry":{"coordinates":[37.707479,55.607705],"type":"Point"},"properties":{"osm_id":"6362116862","tag":{"amenity":"waste_basket"}},"type":"Feature"},
	{"geometry":{"coordinates":[37.707759,55.607746],"type":"Point"},"properties":{"osm_id":"6362116863","tag":{"amenity":"waste_basket"}},"type":"Feature"},
	{"geometry":{"coordinates":[37.708542,55.607349],"type":"Point"},"properties":{"osm_id":"6363286431","tag":{"amenity":"waste_basket"}},"type":"Feature"},
	{"geometry":{"coordinates":[37.708967,55.602849],"type":"Point"},"properties":{"osm_id":"6364728088","tag":{"amenity":"waste_disposal"}},"type":"Feature"},
	{"geometry":{"coordinates":[37.721208,55.597902],"type":"Point"},"properties":{"osm_id":"6364782785","tag":{"amenity":"waste_disposal"}},"type":"Feature"},
	{"geometry":{"coordinates":[37.720015,55.599819],"type":"Point"},"properties":{"osm_id":"6366882085","tag":{"amenity":"recycling","recycling:plastic":"yes","recycling_type":"container"}},"type":"Feature"},
	{"geometry":{"coordinates":[37.721091,55.599932],"type":"Point"},"properties":{"osm_id":"6367277185","tag":{"amenity":"recycling","recycling:plastic":"yes","recycling_type":"container"}},"type":"Feature"},
	{"geometry":{"coordinates":[37.71957,55.59718],"type":"Point"},"properties":{"osm_id":"6368335708","tag":{"amenity":"waste_basket"}},"type":"Feature"},
	{"geometry":{"coordinates":[37.719455,55.597352],"type":"Point"},"properties":{"osm_id":"6368335710","tag":{"amenity":"waste_basket"}},"type":"Feature"},
	{"geometry":{"coordinates":[37.719342,55.597519],"type":"Point"},"properties":{"osm_id":"6368335712","tag":{"amenity":"waste_basket"}},"type":"Feature"},
	{"geometry":{"coordinates":[37.719234,55.597685],"type":"Point"},"properties":{"osm_id":"6368335713","tag":{"amenity":"waste_basket"}},"type":"Feature"},
	{"geometry":{"coordinates":[37.718912,55.597971],"type":"Point"},"properties":{"osm_id":"6368335715","tag":{"amenity":"waste_basket"}},"type":"Feature"},
	{"geometry":{"coordinates":[37.718713,55.598077],"type":"Point"},"properties":{"osm_id":"6368335717","tag":{"amenity":"waste_basket"}},"type":"Feature"},
	{"geometry":{"coordinates":[37.718479,55.598195],"type":"Point"},"properties":{"osm_id":"6368335722","tag":{"amenity":"waste_basket"}},"type":"Feature"},
	{"geometry":{"coordinates":[37.718241,55.598319],"type":"Point"},"properties":{"osm_id":"6368335724","tag":{"amenity":"waste_basket"}},"type":"Feature"},
	{"geometry":{"coordinates":[37.71801,55.598438],"type":"Point"},"properties":{"osm_id":"6368335726","tag":{"amenity":"waste_basket"}},"type":"Feature"},
	{"geometry":{"coordinates":[37.71777,55.598561],"type":"Point"},"properties":{"osm_id":"6368335727","tag":{"amenity":"waste_basket"}},"type":"Feature"},
	{"geometry":{"coordinates":[37.717598,55.5987],"type":"Point"},"properties":{"osm_id":"6368335740","tag":{"amenity":"waste_basket"}},"type":"Feature"},
	{"geometry":{"coordinates":[37.717478,55.598878],"type":"Point"},"properties":{"osm_id":"6368335742","tag":{"amenity":"waste_basket"}},"type":"Feature"},
	{"geometry":{"coordinates":[37.717363,55.599053],"type":"Point"},"properties":{"osm_id":"6368335744","tag":{"amenity":"waste_basket"}},"type":"Feature"},
	{"geometry":{"coordinates":[37.717244,55.599233],"type":"Point"},"properties":{"osm_id":"6368335746","tag":{"amenity":"waste_basket"}},"type":"Feature"},
	{"geometry":{"coordinates":[37.721218,55.597889],"type":"Point"},"properties":{"osm_id":"6368335761","tag":{"amenity":"recycling","recycling:plastic":"yes","recycling_type":"container"}},"type":"Feature"},
	{"geometry":{"coordinates":[37.721099,55.599912],"type":"Point"},"properties":{"osm_id":"6368335762","tag":{"amenity":"waste_disposal"}},"type":"Feature"},
	{"geometry":{"coordinates":[37.720031,55.599786],"type":"Point"},"properties":{"osm_id":"6368335763","tag":{"amenity":"waste_disposal"}},"type":"Feature"},
	{"geometry":{"coordinates":[37.719898,55.599617],"type":"Point"},"properties":{"osm_id":"6368439843","tag":{"amenity":"waste_basket"}},"type":"Feature"},
	{"geometry":{"coordinates":[37.720016,55.599438],"type":"Point"},"properties":{"osm_id":"6368439844","tag":{"amenity":"waste_basket"}},"type":"Feature"},
	{"geometry":{"coordinates":[37.720132,55.599257],"type":"Point"},"properties":{"osm_id":"6368439846","tag":{"amenity":"waste_basket"}},"type":"Feature"},
	{"geometry":{"coordinates":[37.720249,55.599078],"type":"Point"},"properties":{"osm_id":"6368439848","tag":{"amenity":"waste_basket"}},"type":"Feature"},
	{"geometry":{"coordinates":[37.720367,55.598898],"type":"Point"},"properties":{"osm_id":"6368439851","tag":{"amenity":"waste_basket"}},"type":"Feature"},
	{"geometry":{"coordinates":[37.720476,55.598718],"type":"Point"},"properties":{"osm_id":"6368439852","tag":{"amenity":"waste_basket"}},"type":"Feature"},
	{"geometry":{"coordinates":[37.720592,55.598535],"type":"Point"},"properties":{"osm_id":"6368439854","tag":{"amenity":"waste_basket"}},"type":"Feature"},
	{"geometry":{"coordinates":[37.720717,55.598355],"type":"Point"},"properties":{"osm_id":"6368439856","tag":{"amenity":"waste_basket"}},"type":"Feature"},
	{"geometry":{"coordinates":[37.720821,55.598172],"type":"Point"},"properties":{"osm_id":"6368439858","tag":{"amenity":"waste_basket"}},"type":"Feature"},
	{"geometry":{"coordinates":[37.720934,55.597991],"type":"Point"},"properties":{"osm_id":"6368439859","tag":{"amenity":"waste_basket"}},"type":"Feature"},
	{"geometry":{"coordinates":[37.755176,55.607745],"type":"Point"},"properties":{"osm_id":"6384768399","tag":{"amenity":"waste_basket"}},"type":"Feature"},
	{"geometry":{"coordinates":[37.75516,55.607727],"type":"Point"},"properties":{"osm_id":"6384768400","tag":{"amenity":"waste_basket"}},"type":"Feature"},
	{"geometry":{"coordinates":[37.711424,55.610916],"type":"Point"},"properties":{"osm_id":"6432657088","tag":{"amenity":"waste_disposal"}},"type":"Feature"},
	{"geometry":{"coordinates":[37.709481,55.61123],"type":"Point"},"properties":{"osm_id":"6432657089","tag":{"amenity":"waste_basket"}},"type":"Feature"},
	{"geometry":{"coordinates":[37.709307,55.611585],"type":"Point"},"properties":{"osm_id":"6432657090","tag":{"amenity":"waste_basket"}},"type":"Feature"},
	{"geometry":{"coordinates":[37.715094,55.611376],"type":"Point"},"properties":{"osm_id":"6432700786","tag":{"amenity":"waste_disposal"}},"type":"Feature"},
	{"geometry":{"coordinates":[37.715053,55.611376],"type":"Point"},"properties":{"osm_id":"6433060285","tag":{"amenity":"recycling","recycling:plastic_bottles":"yes","recycling_type":"container"}},"type":"Feature"},
	{"geometry":{"coordinates":[37.70909,55.611844],"type":"Point"},"properties":{"osm_id":"6433062029","tag":{"amenity":"recycling","recycling:plastic_bottles":"yes","recycling_type":"container"}},"type":"Feature"},
	{"geometry":{"coordinates":[37.711401,55.610912],"type":"Point"},"properties":{"osm_id":"6433062030","tag":{"amenity":"recycling","recycling:plastic_bottles":"yes","recycling_type":"container"}},"type":"Feature"},
	{"geometry":{"coordinates":[37.710866,55.610643],"type":"Point"},"properties":{"osm_id":"6433739964","tag":{"amenity":"waste_basket"}},"type":"Feature"},
	{"geometry":{"coordinates":[37.711157,55.61069],"type":"Point"},"properties":{"osm_id":"6433739966","tag":{"amenity":"waste_basket"}},"type":"Feature"},
	{"geometry":{"coordinates":[37.711461,55.610748],"type":"Point"},"properties":{"osm_id":"6433739967","tag":{"amenity":"waste_basket"}},"type":"Feature"},
	{"geometry":{"coordinates":[37.711778,55.61079],"type":"Point"},"properties":{"osm_id":"6433739969","tag":{"amenity":"waste_basket"}},"type":"Feature"},
	{"geometry":{"coordinates":[37.711987,55.610845],"type":"Point"},"properties":{"osm_id":"6433739971","tag":{"amenity":"waste_basket"}},"type":"Feature"},
	{"geometry":{"coordinates":[37.712297,55.61087],"type":"Point"},"properties":{"osm_id":"6433739972","tag":{"amenity":"waste_basket"}},"type":"Feature"},
	{"geometry":{"coordinates":[37.712688,55.610932],"type":"Point"},"properties":{"osm_id":"6433739973","tag":{"amenity":"waste_basket"}},"type":"Feature"},
	{"geometry":{"coordinates":[37.71291,55.610971],"type":"Point"},"properties":{"osm_id":"6433739974","tag":{"amenity":"waste_basket"}},"type":"Feature"},
	{"geometry":{"coordinates":[37.713216,55.611009],"type":"Point"},"properties":{"osm_id":"6433739975","tag":{"amenity":"waste_basket"}},"type":"Feature"},
	{"geometry":{"coordinates":[37.713522,55.611056],"type":"Point"},"properties":{"osm_id":"6433739976","tag":{"amenity":"waste_basket"}},"type":"Feature"},
	{"geometry":{"coordinates":[37.713836,55.611106],"type":"Point"},"properties":{"osm_id":"6433739977","tag":{"amenity":"waste_basket"}},"type":"Feature"},
	{"geometry":{"coordinates":[37.714147,55.611152],"type":"Point"},"properties":{"osm_id":"6433739978","tag":{"amenity":"waste_basket"}},"type":"Feature"},
	{"geometry":{"coordinates":[37.714458,55.611196],"type":"Point"},"properties":{"osm_id":"6433739979","tag":{"amenity":"waste_basket"}},"type":"Feature"},
	{"geometry":{"coordinates":[37.714768,55.61124],"type":"Point"},"properties":{"osm_id":"6433739980","tag":{"amenity":"waste_basket"}},"type":"Feature"},
	{"geometry":{"coordinates":[37.713001,55.611179],"type":"Point"},"properties":{"osm_id":"6433740088","tag":{"amenity":"waste_disposal"}},"type":"Feature"},
	{"geometry":{"coordinates":[37.705519,55.615657],"type":"Point"},"properties":{"osm_id":"6433745852","tag":{"amenity":"waste_basket"}},"type":"Feature"},
	{"geometry":{"coordinates":[37.740843,55.615562],"type":"Point"},"properties":{"osm_id":"6434137385","tag":{"amenity":"waste_disposal"}},"type":"Feature"},
	{"geometry":{"coordinates":[37.737353,55.620635],"type":"Point"},"properties":{"osm_id":"6434144889","tag":{"amenity":"waste_disposal"}},"type":"Feature"},
	{"geometry":{"coordinates":[37.740189,55.619452],"type":"Point"},"properties":{"osm_id":"6434145092","tag":{"amenity":"waste_disposal"}},"type":"Feature"},
	{"geometry":{"coordinates":[37.738064,55.616545],"type":"Point"},"properties":{"osm_id":"6434152585","tag":{"amenity":"waste_disposal"}},"type":"Feature"},
	{"geometry":{"coordinates":[37.734347,55.618322],"type":"Point"},"properties":{"osm_id":"6434152586","tag":{"amenity":"waste_disposal"}},"type":"Feature"},
	{"geometry":{"coordinates":[37.737038,55.619201],"type":"Point"},"properties":{"osm_id":"6434152587","tag":{"amenity":"waste_basket"}},"type":"Feature"},
	{"geometry":{"coordinates":[37.73748,55.616715],"type":"Point"},"properties":{"osm_id":"6434152785","tag":{"amenity":"waste_disposal"}},"type":"Feature"},
	{"geometry":{"coordinates":[37.737055,55.61906],"type":"Point"},"properties":{"osm_id":"6434152986","tag":{"amenity":"waste_basket"}},"type":"Feature"},
	{"geometry":{"coordinates":[37.737089,55.618743],"type":"Point"},"properties":{"osm_id":"6434153285","tag":{"amenity":"waste_disposal"}},"type":"Feature"},
	{"geometry":{"coordinates":[37.737907,55.618664],"type":"Point"},"properties":{"osm_id":"6434153485","tag":{"amenity":"waste_disposal"}},"type":"Feature"},
	{"geometry":{"coordinates":[37.735554,55.620696],"type":"Point"},"properties":{"osm_id":"6434182085","tag":{"amenity":"waste_basket"}},"type":"Feature"},
	{"geometry":{"coordinates":[37.740865,55.615578],"type":"Point"},"properties":{"osm_id":"6434394879","tag":{"amenity":"recycling","recycling:plastic_bottles":"yes","recycling_type":"container"}},"type":"Feature"},
	{"geometry":{"coordinates":[37.737467,55.616752],"type":"Point"},"properties":{"osm_id":"6434403505","tag":{"amenity":"recycling","recycling:plastic_bottles":"yes","recycling_type":"container"}},"type":"Feature"},
	{"geometry":{"coordinates":[37.738059,55.616577],"type":"Point"},"properties":{"osm_id":"6434403506","tag":{"amenity":"recycling","recycling:plastic_bottles":"yes","recycling_type":"container"}},"type":"Feature"},
	{"geometry":{"coordinates":[37.737886,55.618643],"type":"Point"},"properties":{"osm_id":"6434414637","tag":{"amenity":"recycling","recycling:plastic_bottles":"yes","recycling_type":"container"}},"type":"Feature"},
	{"geometry":{"coordinates":[37.73435,55.618296],"type":"Point"},"properties":{"osm_id":"6434414638","tag":{"amenity":"recycling","recycling:plastic_bottles":"yes","recycling_type":"container"}},"type":"Feature"},
	{"geometry":{"coordinates":[37.737082,55.618771],"type":"Point"},"properties":{"osm_id":"6434423431","tag":{"amenity":"recycling","recycling:plastic_bottles":"yes","recycling_type":"container"}},"type":"Feature"},
	{"geometry":{"coordinates":[37.740207,55.619464],"type":"Point"},"properties":{"osm_id":"6434425647","tag":{"amenity":"recycling","recycling:plastic_bottles":"yes","recycling_type":"container"}},"type":"Feature"},
	{"geometry":{"coordinates":[37.737351,55.620624],"type":"Point"},"properties":{"osm_id":"6434439211","tag":{"amenity":"recycling","recycling:plastic_bottles":"yes","recycling_type":"container"}},"type":"Feature"},
	{"geometry":{"coordinates":[37.738268,55.616438],"type":"Point"},"properties":{"osm_id":"6436857284","tag":{"amenity":"waste_basket"}},"type":"Feature"},
	{"geometry":{"coordinates":[37.738576,55.616455],"type":"Point"},"properties":{"osm_id":"6436857286","tag":{"amenity":"waste_basket"}},"type":"Feature"},
	{"geometry":{"coordinates":[37.738889,55.616474],"type":"Point"},"properties":{"osm_id":"6436857288","tag":{"amenity":"waste_basket"}},"type":"Feature"},
	{"geometry":{"coordinates":[37.739218,55.616495],"type":"Point"},"properties":{"osm_id":"6436857290","tag":{"amenity":"waste_basket"}},"type":"Feature"},
	{"geometry":{"coordinates":[37.739547,55.616516],"type":"Point"},"properties":{"osm_id":"6436857292","tag":{"amenity":"waste_basket"}},"type":"Feature"},
	{"geometry":{"coordinates":[37.739845,55.616535],"type":"Point"},"properties":{"osm_id":"6436857294","tag":{"amenity":"waste_basket"}},"type":"Feature"},
	{"geometry":{"coordinates":[37.740168,55.616555],"type":"Point"},"properties":{"osm_id":"6436857296","tag":{"amenity":"waste_basket"}},"type":"Feature"},
	{"geometry":{"coordinates":[37.74047,55.616572],"type":"Point"},"properties":{"osm_id":"6436857297","tag":{"amenity":"waste_basket"}},"type":"Feature"},
	{"geometry":{"coordinates":[37.737539,55.61638],"type":"Point"},"properties":{"osm_id":"6436857299","tag":{"amenity":"waste_basket"}},"type":"Feature"},
	{"geometry":{"coordinates":[37.737109,55.616349],"type":"Point"},"properties":{"osm_id":"6436857300","tag":{"amenity":"waste_basket"}},"type":"Feature"},
	{"geometry":{"coordinates":[37.736678,55.616323],"type":"Point"},"properties":{"osm_id":"6436857304","tag":{"amenity":"waste_basket"}},"type":"Feature"},
	{"geometry":{"coordinates":[37.736736,55.618324],"type":"Point"},"properties":{"osm_id":"6436866465","tag":{"amenity":"waste_basket"}},"type":"Feature"},
	{"geometry":{"coordinates":[37.737189,55.618351],"type":"Point"},"properties":{"osm_id":"6436866467","tag":{"amenity":"waste_basket"}},"type":"Feature"},
	{"geometry":{"coordinates":[37.736325,55.618317],"type":"Point"},"properties":{"osm_id":"6436866468","tag":{"amenity":"waste_basket"}},"type":"Feature"},
	{"geometry":{"coordinates":[37.740092,55.618538],"type":"Point"},"properties":{"osm_id":"6436877283","tag":{"amenity":"waste_basket"}},"type":"Feature"},
	{"geometry":{"coordinates":[37.739784,55.618513],"type":"Point"},"properties":{"osm_id":"6436877685","tag":{"amenity":"waste_basket"}},"type":"Feature"},
	{"geometry":{"coordinates":[37.739479,55.618497],"type":"Point"},"properties":{"osm_id":"6436877687","tag":{"amenity":"waste_basket"}},"type":"Feature"},
	{"geometry":{"coordinates":[37.739174,55.618482],"type":"Point"},"properties":{"osm_id":"6436877688","tag":{"amenity":"waste_basket"}},"type":"Feature"},
	{"geometry":{"coordinates":[37.738872,55.618465],"type":"Point"},"properties":{"osm_id":"6436877690","tag":{"amenity":"waste_basket"}},"type":"Feature"},
	{"geometry":{"coordinates":[37.738566,55.618443],"type":"Point"},"properties":{"osm_id":"6436877692","tag":{"amenity":"waste_basket"}},"type":"Feature"},
	{"geometry":{"coordinates":[37.738262,55.618422],"type":"Point"},"properties":{"osm_id":"6436877694","tag":{"amenity":"waste_basket"}},"type":"Feature"},
	{"geometry":{"coordinates":[37.737955,55.618405],"type":"Point"},"properties":{"osm_id":"6436877697","tag":{"amenity":"waste_basket"}},"type":"Feature"},
	{"geometry":{"coordinates":[37.737733,55.620351],"type":"Point"},"properties":{"osm_id":"6436909098","tag":{"amenity":"waste_basket"}},"type":"Feature"},
	{"geometry":{"coordinates":[37.738045,55.620364],"type":"Point"},"properties":{"osm_id":"6436909099","tag":{"amenity":"waste_basket"}},"type":"Feature"},
	{"geometry":{"coordinates":[37.738302,55.620379],"type":"Point"},"properties":{"osm_id":"6436909100","tag":{"amenity":"waste_basket"}},"type":"Feature"},
	{"geometry":{"coordinates":[37.738594,55.620406],"type":"Point"},"properties":{"osm_id":"6436909103","tag":{"amenity":"waste_basket"}},"type":"Feature"},
	{"geometry":{"coordinates":[37.738916,55.62042],"type":"Point"},"properties":{"osm_id":"6436909105","tag":{"amenity":"waste_basket"}},"type":"Feature"},
	{"geometry":{"coordinates":[37.739316,55.620433],"type":"Point"},"properties":{"osm_id":"6436909107","tag":{"amenity":"waste_basket"}},"type":"Feature"},
	{"geometry":{"coordinates":[37.73963,55.620446],"type":"Point"},"properties":{"osm_id":"6436909109","tag":{"amenity":"waste_basket"}},"type":"Feature"},
	{"geometry":{"coordinates":[37.739878,55.620465],"type":"Point"},"properties":{"osm_id":"6436909110","tag":{"amenity":"waste_basket"}},"type":"Feature"},
	{"geometry":{"coordinates":[37.736389,55.620413],"type":"Point"},"properties":{"osm_id":"6436909129","tag":{"amenity":"waste_basket"}},"type":"Feature"},
	{"geometry":{"coordinates":[37.736772,55.620422],"type":"Point"},"properties":{"osm_id":"6436909130","tag":{"amenity":"waste_basket"}},"type":"Feature"},
	{"geometry":{"coordinates":[37.744984,55.618025],"type":"Point"},"properties":{"osm_id":"6480950785","tag":{"amenity":"waste_basket"}},"type":"Feature"},
	{"geometry":{"coordinates":[37.743672,55.623652],"type":"Point"},"properties":{"osm_id":"6480962786","tag":{"amenity":"waste_basket"}},"type":"Feature"},
	{"geometry":{"coordinates":[37.743659,55.626329],"type":"Point"},"properties":{"osm_id":"6480976285","tag":{"amenity":"waste_disposal"}},"type":"Feature"},
	{"geometry":{"coordinates":[37.743917,55.626477],"type":"Point"},"properties":{"osm_id":"6480980885","tag":{"amenity":"waste_disposal"}},"type":"Feature"},
	{"geometry":{"coordinates":[37.743322,55.626747],"type":"Point"},"properties":{"osm_id":"6480981185","tag":{"amenity":"waste_basket"}},"type":"Feature"},
	{"geometry":{"coordinates":[37.749039,55.626957],"type":"Point"},"properties":{"osm_id":"6481028800","tag":{"amenity":"waste_disposal"}},"type":"Feature"},
	{"geometry":{"coordinates":[37.743919,55.626469],"type":"Point"},"properties":{"osm_id":"6481374092","tag":{"amenity":"recycling","recycling:plastic_bottles":"yes","recycling_type":"container"}},"type":"Feature"},
	{"geometry":{"coordinates":[37.743869,55.626957],"type":"Point"},"properties":{"osm_id":"6481379085","tag":{"amenity":"recycling","recycling:plastic_bottles":"yes","recycling_type":"container"}},"type":"Feature"},
	{"geometry":{"coordinates":[37.745865,55.627687],"type":"Point"},"properties":{"osm_id":"6481386875","tag":{"amenity":"recycling","recycling:plastic_bottles":"yes","recycling_type":"container"}},"type":"Feature"},
	{"geometry":{"coordinates":[37.746135,55.627559],"type":"Point"},"properties":{"osm_id":"6481386877","tag":{"amenity":"waste_basket"}},"type":"Feature"},
	{"geometry":{"coordinates":[37.745958,55.627349],"type":"Point"},"properties":{"osm_id":"6481386879","tag":{"amenity":"waste_basket"}},"type":"Feature"},
	{"geometry":{"coordinates":[37.749066,55.626952],"type":"Point"},"properties":{"osm_id":"6481391891","tag":{"amenity":"recycling","recycling:plastic_bottles":"yes","recycling_type":"container"}},"type":"Feature"},
	{"geometry":{"coordinates":[37.749037,55.62748],"type":"Point"},"properties":{"osm_id":"6481396633","tag":{"amenity":"waste_basket"}},"type":"Feature"},
	{"geometry":{"coordinates":[37.7489,55.627225],"type":"Point"},"properties":{"osm_id":"6481396635","tag":{"amenity":"waste_basket"}},"type":"Feature"},
	{"geometry":{"coordinates":[37.745428,55.626402],"type":"Point"},"properties":{"osm_id":"6482321085","tag":{"amenity":"waste_disposal"}},"type":"Feature"},
	{"geometry":{"coordinates":[37.747143,55.626411],"type":"Point"},"properties":{"osm_id":"6482323085","tag":{"amenity":"waste_disposal"}},"type":"Feature"},
	{"geometry":{"coordinates":[37.74593,55.626919],"type":"Point"},"properties":{"osm_id":"6482323086","tag":{"amenity":"waste_basket"}},"type":"Feature"},
	{"geometry":{"coordinates":[37.745436,55.614429],"type":"Point"},"properties":{"osm_id":"6482751965","tag":{"amenity":"waste_basket"}},"type":"Feature"},
	{"geometry":{"coordinates":[37.745412,55.614564],"type":"Point"},"properties":{"osm_id":"6482751966","tag":{"amenity":"waste_basket"}},"type":"Feature"},
	{"geometry":{"coordinates":[37.745203,55.614514],"type":"Point"},"properties":{"osm_id":"6482751967","tag":{"amenity":"waste_basket"}},"type":"Feature"},
	{"geometry":{"coordinates":[37.745213,55.614404],"type":"Point"},"properties":{"osm_id":"6482751968","tag":{"amenity":"waste_basket"}},"type":"Feature"},
	{"geometry":{"coordinates":[37.717979,55.600901],"type":"Point"},"properties":{"osm_id":"6483739690","tag":{"amenity":"waste_basket"}},"type":"Feature"},
	{"geometry":{"coordinates":[37.717399,55.600625],"type":"Point"},"properties":{"osm_id":"6483739691","tag":{"amenity":"waste_basket"}},"type":"Feature"},
	{"geometry":{"coordinates":[37.717013,55.60068],"type":"Point"},"properties":{"osm_id":"6483751697","tag":{"amenity":"waste_basket"}},"type":"Feature"},
	{"geometry":{"coordinates":[37.714697,55.600838],"type":"Point"},"properties":{"osm_id":"6483751699","tag":{"amenity":"waste_disposal"}},"type":"Feature"},
	{"geometry":{"coordinates":[37.719205,55.601168],"type":"Point"},"properties":{"osm_id":"6483751791","tag":{"amenity":"waste_basket"}},"type":"Feature"},
	{"geometry":{"coordinates":[37.716644,55.600472],"type":"Point"},"properties":{"osm_id":"6483751890","tag":{"amenity":"waste_disposal"}},"type":"Feature"},
	{"geometry":{"coordinates":[37.718313,55.600984],"type":"Point"},"properties":{"osm_id":"6483752586","tag":{"amenity":"waste_basket"}},"type":"Feature"},
	{"geometry":{"coordinates":[37.719637,55.601101],"type":"Point"},"properties":{"osm_id":"6483752587","tag":{"amenity":"waste_basket"}},"type":"Feature"},
	{"geometry":{"coordinates":[37.711959,55.60238],"type":"Point"},"properties":{"osm_id":"6483758687","tag":{"amenity":"waste_disposal"}},"type":"Feature"},
	{"geometry":{"coordinates":[37.709816,55.604013],"type":"Point"},"properties":{"osm_id":"6483780485","tag":{"amenity":"waste_disposal"}},"type":"Feature"},
	{"geometry":{"coordinates":[37.70511,55.61918],"type":"Point"},"properties":{"osm_id":"6484065685","tag":{"amenity":"waste_disposal"}},"type":"Feature"},
	{"geometry":{"coordinates":[37.711928,55.6164],"type":"Point"},"properties":{"osm_id":"6484101685","tag":{"amenity":"waste_disposal"}},"type":"Feature"},
	{"geometry":{"coordinates":[37.71189,55.616396],"type":"Point"},"properties":{"osm_id":"6486005825","tag":{"amenity":"recycling","recycling:plastic_bottles":"yes","recycling_type":"container"}},"type":"Feature"},
	{"geometry":{"coordinates":[37.7051,55.619187],"type":"Point"},"properties":{"osm_id":"6486008699","tag":{"amenity":"recycling","recycling:plastic_bottles":"yes","recycling_type":"container"}},"type":"Feature"},
	{"geometry":{"coordinates":[37.708986,55.602835],"type":"Point"},"properties":{"osm_id":"6486044281","tag":{"amenity":"recycling","recycling:plastic_bottles":"yes","recycling_type":"container"}},"type":"Feature"},
	{"geometry":{"coordinates":[37.709788,55.604014],"type":"Point"},"properties":{"osm_id":"6486044385","tag":{"amenity":"recycling","recycling:plastic_bottles":"yes","recycling_type":"container"}},"type":"Feature"},
	{"geometry":{"coordinates":[37.711967,55.602369],"type":"Point"},"properties":{"osm_id":"6486057844","tag":{"amenity":"recycling","recycling:plastic_bottles":"yes","recycling_type":"container"}},"type":"Feature"},
	{"geometry":{"coordinates":[37.716653,55.600458],"type":"Point"},"properties":{"osm_id":"6486076111","tag":{"amenity":"recycling","recycling:plastic_bottles":"yes","recycling_type":"container"}},"type":"Feature"},
	{"geometry":{"coordinates":[37.714701,55.600825],"type":"Point"},"properties":{"osm_id":"6486076112","tag":{"amenity":"recycling","recycling:plastic_bottles":"yes","recycling_type":"container"}},"type":"Feature"},
	{"geometry":{"coordinates":[37.714308,55.601804],"type":"Point"},"properties":{"osm_id":"6486151210","tag":{"amenity":"waste_basket"}},"type":"Feature"},
	{"geometry":{"coordinates":[37.714401,55.60163],"type":"Point"},"properties":{"osm_id":"6486151212","tag":{"amenity":"waste_basket"}},"type":"Feature"},
	{"geometry":{"coordinates":[37.714497,55.60146],"type":"Point"},"properties":{"osm_id":"6486151214","tag":{"amenity":"waste_basket"}},"type":"Feature"},
	{"geometry":{"coordinates":[37.710226,55.60376],"type":"Point"},"properties":{"osm_id":"6486181939","tag":{"amenity":"waste_basket"}},"type":"Feature"},
	{"geometry":{"coordinates":[37.710482,55.603647],"type":"Point"},"properties":{"osm_id":"6486181941","tag":{"amenity":"waste_basket"}},"type":"Feature"},
	{"geometry":{"coordinates":[37.71074,55.603536],"type":"Point"},"properties":{"osm_id":"6486181943","tag":{"amenity":"waste_basket"}},"type":"Feature"},
	{"geometry":{"coordinates":[37.710992,55.603421],"type":"Point"},"properties":{"osm_id":"6486181945","tag":{"amenity":"waste_basket"}},"type":"Feature"},
	{"geometry":{"coordinates":[37.711239,55.603309],"type":"Point"},"properties":{"osm_id":"6486181947","tag":{"amenity":"waste_basket"}},"type":"Feature"},
	{"geometry":{"coordinates":[37.711499,55.603203],"type":"Point"},"properties":{"osm_id":"6486181950","tag":{"amenity":"waste_basket"}},"type":"Feature"},
	{"geometry":{"coordinates":[37.711816,55.603062],"type":"Point"},"properties":{"osm_id":"6486181952","tag":{"amenity":"waste_basket"}},"type":"Feature"},
	{"geometry":{"coordinates":[37.712068,55.602941],"type":"Point"},"properties":{"osm_id":"6486181953","tag":{"amenity":"waste_basket"}},"type":"Feature"},
	{"geometry":{"coordinates":[37.707445,55.603976],"type":"Point"},"properties":{"osm_id":"6486202155","tag":{"amenity":"waste_basket"}},"type":"Feature"},
	{"geometry":{"coordinates":[37.707803,55.604039],"type":"Point"},"properties":{"osm_id":"6486202156","tag":{"amenity":"waste_basket"}},"type":"Feature"},
	{"geometry":{"coordinates":[37.708025,55.603576],"type":"Point"},"properties":{"osm_id":"6486202160","tag":{"amenity":"recycling","recycling:plastic_bottles":"yes","recycling_type":"container"}},"type":"Feature"},
	{"geometry":{"coordinates":[37.705892,55.604547],"type":"Point"},"properties":{"osm_id":"6486215088","tag":{"amenity":"waste_basket"}},"type":"Feature"},
	{"geometry":{"coordinates":[37.706103,55.604414],"type":"Point"},"properties":{"osm_id":"6486215090","tag":{"amenity":"waste_basket"}},"type":"Feature"},
	{"geometry":{"coordinates":[37.706311,55.604281],"type":"Point"},"properties":{"osm_id":"6486215092","tag":{"amenity":"waste_basket"}},"type":"Feature"},
	{"geometry":{"coordinates":[37.706519,55.604147],"type":"Point"},"properties":{"osm_id":"6486215094","tag":{"amenity":"waste_basket"}},"type":"Feature"},
	{"geometry":{"coordinates":[37.706732,55.604013],"type":"Point"},"properties":{"osm_id":"6486215095","tag":{"amenity":"waste_basket"}},"type":"Feature"},
	{"geometry":{"coordinates":[37.705481,55.604728],"type":"Point"},"properties":{"osm_id":"6486254472","tag":{"amenity":"recycling","recycling:plastic_bottles":"yes","recycling_type":"container"}},"type":"Feature"},
	{"geometry":{"coordinates":[37.706173,55.61946],"type":"Point"},"properties":{"osm_id":"6486391245","tag":{"amenity":"recycling","recycling:plastic_bottles":"yes","recycling_type":"container"}},"type":"Feature"},
	{"geometry":{"coordinates":[37.712366,55.615596],"type":"Point"},"properties":{"osm_id":"6486392335","tag":{"amenity":"waste_basket"}},"type":"Feature"},
	{"geometry":{"coordinates":[37.712453,55.615606],"type":"Point"},"properties":{"osm_id":"6486392336","tag":{"amenity":"waste_basket"}},"type":"Feature"},
	{"geometry":{"coordinates":[37.712418,55.615586],"type":"Point"},"properties":{"osm_id":"6486392337","tag":{"amenity":"waste_basket"}},"type":"Feature"},
	{"geometry":{"coordinates":[37.712405,55.615619],"type":"Point"},"properties":{"osm_id":"6486392338","tag":{"amenity":"waste_basket"}},"type":"Feature"},
	{"geometry":{"coordinates":[37.712004,55.615985],"type":"Point"},"properties":{"osm_id":"6486400968","tag":{"amenity":"waste_basket"}},"type":"Feature"},
	{"geometry":{"coordinates":[37.711927,55.61614],"type":"Point"},"properties":{"osm_id":"6486400970","tag":{"amenity":"waste_basket"}},"type":"Feature"},
	{"geometry":{"coordinates":[37.712039,55.616666],"type":"Point"},"properties":{"osm_id":"6486403361","tag":{"amenity":"waste_basket"}},"type":"Feature"},
	{"geometry":{"coordinates":[37.711931,55.616894],"type":"Point"},"properties":{"osm_id":"6486403362","tag":{"amenity":"waste_basket"}},"type":"Feature"},
	{"geometry":{"coordinates":[37.710948,55.617646],"type":"Point"},"properties":{"osm_id":"6486407490","tag":{"amenity":"waste_basket"}},"type":"Feature"},
	{"geometry":{"coordinates":[37.710648,55.617595],"type":"Point"},"properties":{"osm_id":"6486407491","tag":{"amenity":"waste_basket"}},"type":"Feature"},
	{"geometry":{"coordinates":[37.757119,55.589249],"type":"Point"},"properties":{"osm_id":"6495423285","tag":{"amenity":"waste_disposal"}},"type":"Feature"},
	{"geometry":{"coordinates":[37.757091,55.589228],"type":"Point"},"properties":{"osm_id":"6495803387","tag":{"amenity":"recycling","recycling:aluminium":"yes","recycling:craft":"yes","recycling:glass_bottles":"yes","recycling:plastic_bottles":"yes","recycling_type":"container"}},"type":"Feature"},
	{"geometry":{"coordinates":[37.739967,55.60462],"type":"Point"},"properties":{"osm_id":"6537697730","tag":{"amenity":"recycling","recycling:plastic_bottles":"yes","recycling_type":"container"}},"type":"Feature"},
	{"geometry":{"coordinates":[37.729315,55.613653],"type":"Point"},"properties":{"osm_id":"6539852486","tag":{"amenity":"waste_disposal"}},"type":"Feature"},
	{"geometry":{"coordinates":[37.726895,55.619683],"type":"Point"},"properties":{"osm_id":"6539868301","tag":{"amenity":"waste_disposal"}},"type":"Feature"},
	{"geometry":{"coordinates":[37.726392,55.621055],"type":"Point"},"properties":{"osm_id":"6539868388","tag":{"amenity":"waste_disposal"}},"type":"Feature"},
	{"geometry":{"coordinates":[37.727608,55.617456],"type":"Point"},"properties":{"osm_id":"6539868685","tag":{"amenity":"waste_disposal"}},"type":"Feature"},
	{"geometry":{"coordinates":[37.725688,55.622955],"type":"Point"},"properties":{"osm_id":"6539914385","tag":{"amenity":"waste_basket"}},"type":"Feature"},
	{"geometry":{"coordinates":[37.72909,55.613366],"type":"Point"},"properties":{"osm_id":"6540417799","tag":{"amenity":"waste_disposal"}},"type":"Feature"},
	{"geometry":{"coordinates":[37.729033,55.613359],"type":"Point"},"properties":{"osm_id":"6540417800","tag":{"amenity":"recycling","recycling:plastic_bottles":"yes","recycling_type":"container"}},"type":"Feature"},
	{"geometry":{"coordinates":[37.728315,55.61523],"type":"Point"},"properties":{"osm_id":"6540548126","tag":{"amenity":"waste_basket"}},"type":"Feature"},
	{"geometry":{"coordinates":[37.728421,55.615023],"type":"Point"},"properties":{"osm_id":"6540548128","tag":{"amenity":"waste_basket"}},"type":"Feature"},
	{"geometry":{"coordinates":[37.72852,55.614812],"type":"Point"},"properties":{"osm_id":"6540548130","tag":{"amenity":"waste_basket"}},"type":"Feature"},
	{"geometry":{"coordinates":[37.728631,55.614601],"type":"Point"},"properties":{"osm_id":"6540548132","tag":{"amenity":"waste_basket"}},"type":"Feature"},
	{"geometry":{"coordinates":[37.728727,55.614393],"type":"Point"},"properties":{"osm_id":"6540548134","tag":{"amenity":"waste_basket"}},"type":"Feature"},
	{"geometry":{"coordinates":[37.728842,55.614182],"type":"Point"},"properties":{"osm_id":"6540548135","tag":{"amenity":"waste_basket"}},"type":"Feature"},
	{"geometry":{"coordinates":[37.72892,55.614028],"type":"Point"},"properties":{"osm_id":"6540548136","tag":{"amenity":"waste_basket"}},"type":"Feature"},
	{"geometry":{"coordinates":[37.72903,55.613816],"type":"Point"},"properties":{"osm_id":"6540548137","tag":{"amenity":"waste_basket"}},"type":"Feature"},
	{"geometry":{"coordinates":[37.726089,55.623466],"type":"Point"},"properties":{"osm_id":"6540661388","tag":{"amenity":"waste_disposal"}},"type":"Feature"},
	{"geometry":{"coordinates":[37.726028,55.623457],"type":"Point"},"properties":{"osm_id":"6540661389","tag":{"amenity":"recycling","recycling:plastic_bottles":"yes","recycling_type":"container"}},"type":"Feature"},
	{"geometry":{"coordinates":[37.726078,55.623382],"type":"Point"},"properties":{"osm_id":"6540661390","tag":{"amenity":"waste_disposal"}},"type":"Feature"},
	{"geometry":{"coordinates":[37.726127,55.623387],"type":"Point"},"properties":{"osm_id":"6540661391","tag":{"amenity":"recycling","recycling:plastic_bottles":"yes","recycling_type":"container"}},"type":"Feature"},
	{"geometry":{"coordinates":[37.723121,55.623171],"type":"Point"},"properties":{"osm_id":"6540830586","tag":{"amenity":"waste_basket"}},"type":"Feature"},
	{"geometry":{"coordinates":[37.723514,55.623232],"type":"Point"},"properties":{"osm_id":"6540830587","tag":{"amenity":"waste_basket"}},"type":"Feature"},
	{"geometry":{"coordinates":[37.723819,55.62328],"type":"Point"},"properties":{"osm_id":"6540830588","tag":{"amenity":"waste_basket"}},"type":"Feature"},
	{"geometry":{"coordinates":[37.724121,55.623326],"type":"Point"},"properties":{"osm_id":"6540830589","tag":{"amenity":"waste_basket"}},"type":"Feature"},
	{"geometry":{"coordinates":[37.724582,55.623325],"type":"Point"},"properties":{"osm_id":"6540830590","tag":{"amenity":"waste_basket"}},"type":"Feature"},
	{"geometry":{"coordinates":[37.724917,55.623279],"type":"Point"},"properties":{"osm_id":"6540830591","tag":{"amenity":"waste_basket"}},"type":"Feature"},
	{"geometry":{"coordinates":[37.725239,55.623238],"type":"Point"},"properties":{"osm_id":"6540830592","tag":{"amenity":"waste_basket"}},"type":"Feature"},
	{"geometry":{"coordinates":[37.725549,55.623195],"type":"Point"},"properties":{"osm_id":"6540830593","tag":{"amenity":"waste_basket"}},"type":"Feature"},
	{"geometry":{"coordinates":[37.726467,55.622192],"type":"Point"},"properties":{"osm_id":"6540830602","tag":{"amenity":"waste_basket"}},"type":"Feature"},
	{"geometry":{"coordinates":[37.726484,55.622412],"type":"Point"},"properties":{"osm_id":"6540830603","tag":{"amenity":"waste_basket"}},"type":"Feature"},
	{"geometry":{"coordinates":[37.726549,55.622838],"type":"Point"},"properties":{"osm_id":"6540830604","tag":{"amenity":"waste_basket"}},"type":"Feature"},
	{"geometry":{"coordinates":[37.726567,55.623065],"type":"Point"},"properties":{"osm_id":"6540830605","tag":{"amenity":"waste_basket"}},"type":"Feature"},
	{"geometry":{"coordinates":[37.726596,55.623275],"type":"Point"},"properties":{"osm_id":"6540830606","tag":{"amenity":"waste_basket"}},"type":"Feature"},
	{"geometry":{"coordinates":[37.719673,55.622707],"type":"Point"},"properties":{"osm_id":"6542092744","tag":{"amenity":"waste_disposal"}},"type":"Feature"},
	{"geometry":{"coordinates":[37.719645,55.622702],"type":"Point"},"properties":{"osm_id":"6542092745","tag":{"amenity":"recycling","recycling:plastic_bottles":"yes","recycling_type":"container"}},"type":"Feature"},
	{"geometry":{"coordinates":[37.721111,55.622498],"type":"Point"},"properties":{"osm_id":"6542092761","tag":{"amenity":"waste_basket"}},"type":"Feature"},
	{"geometry":{"coordinates":[37.720784,55.622527],"type":"Point"},"properties":{"osm_id":"6542092762","tag":{"amenity":"waste_basket"}},"type":"Feature"},
	{"geometry":{"coordinates":[37.721756,55.62244],"type":"Point"},"properties":{"osm_id":"6542092763","tag":{"amenity":"waste_basket"}},"type":"Feature"},
	{"geometry":{"coordinates":[37.721435,55.622473],"type":"Point"},"properties":{"osm_id":"6542092764","tag":{"amenity":"waste_basket"}},"type":"Feature"},
	{"geometry":{"coordinates":[37.72246,55.622534],"type":"Point"},"properties":{"osm_id":"6542092765","tag":{"amenity":"waste_basket"}},"type":"Feature"},
	{"geometry":{"coordinates":[37.72215,55.622476],"type":"Point"},"properties":{"osm_id":"6542092767","tag":{"amenity":"waste_basket"}},"type":"Feature"},
	{"geometry":{"coordinates":[37.723102,55.622651],"type":"Point"},"properties":{"osm_id":"6542092768","tag":{"amenity":"waste_basket"}},"type":"Feature"},
	{"geometry":{"coordinates":[37.722784,55.622592],"type":"Point"},"properties":{"osm_id":"6542092769","tag":{"amenity":"waste_basket"}},"type":"Feature"},
	{"geometry":{"coordinates":[37.718699,55.622414],"type":"Point"},"properties":{"osm_id":"6542092773","tag":{"amenity":"waste_basket"}},"type":"Feature"},
	{"geometry":{"coordinates":[37.719312,55.622537],"type":"Point"},"properties":{"osm_id":"6542092774","tag":{"amenity":"waste_basket"}},"type":"Feature"},
	{"geometry":{"coordinates":[37.719002,55.622475],"type":"Point"},"properties":{"osm_id":"6542092775","tag":{"amenity":"waste_basket"}},"type":"Feature"},
	{"geometry":{"coordinates":[37.719627,55.622596],"type":"Point"},"properties":{"osm_id":"6542092777","tag":{"amenity":"waste_basket"}},"type":"Feature"},
	{"geometry":{"coordinates":[37.720061,55.622603],"type":"Point"},"properties":{"osm_id":"6542092779","tag":{"amenity":"waste_basket"}},"type":"Feature"},
	{"geometry":{"coordinates":[37.720459,55.622554],"type":"Point"},"properties":{"osm_id":"6542092780","tag":{"amenity":"waste_basket"}},"type":"Feature"},
	{"geometry":{"coordinates":[37.719016,55.623972],"type":"Point"},"properties":{"osm_id":"6542092783","tag":{"amenity":"recycling","recycling:plastic_bottles":"yes","recycling_type":"container"}},"type":"Feature"},
	{"geometry":{"coordinates":[37.72494,55.624658],"type":"Point"},"properties":{"osm_id":"6542155719","tag":{"amenity":"recycling","recycling:plastic_bottles":"yes","recycling_type":"container"}},"type":"Feature"},
	{"geometry":{"coordinates":[37.724961,55.624655],"type":"Point"},"properties":{"osm_id":"6542155720","tag":{"amenity":"waste_disposal"}},"type":"Feature"},
	{"geometry":{"coordinates":[37.722226,55.624335],"type":"Point"},"properties":{"osm_id":"6542176345","tag":{"amenity":"waste_disposal"}},"type":"Feature"},
	{"geometry":{"coordinates":[37.722214,55.624322],"type":"Point"},"properties":{"osm_id":"6542176346","tag":{"amenity":"recycling","recycling:plastic_bottles":"yes","recycling_type":"container"}},"type":"Feature"},
	{"geometry":{"coordinates":[37.718061,55.623651],"type":"Point"},"properties":{"osm_id":"6542201693","tag":{"amenity":"waste_basket"}},"type":"Feature"},
	{"geometry":{"coordinates":[37.718364,55.623712],"type":"Point"},"properties":{"osm_id":"6542201694","tag":{"amenity":"waste_basket"}},"type":"Feature"},
	{"geometry":{"coordinates":[37.718674,55.623774],"type":"Point"},"properties":{"osm_id":"6542201695","tag":{"amenity":"waste_basket"}},"type":"Feature"},
	{"geometry":{"coordinates":[37.718989,55.623833],"type":"Point"},"properties":{"osm_id":"6542201696","tag":{"amenity":"waste_basket"}},"type":"Feature"},
	{"geometry":{"coordinates":[37.719518,55.62382],"type":"Point"},"properties":{"osm_id":"6542201697","tag":{"amenity":"waste_basket"}},"type":"Feature"},
	{"geometry":{"coordinates":[37.719822,55.62379],"type":"Point"},"properties":{"osm_id":"6542201698","tag":{"amenity":"waste_basket"}},"type":"Feature"},
	{"geometry":{"coordinates":[37.720146,55.623763],"type":"Point"},"properties":{"osm_id":"6542201699","tag":{"amenity":"waste_basket"}},"type":"Feature"},
	{"geometry":{"coordinates":[37.720473,55.623734],"type":"Point"},"properties":{"osm_id":"6542201700","tag":{"amenity":"waste_basket"}},"type":"Feature"},
	{"geometry":{"coordinates":[37.720797,55.62371],"type":"Point"},"properties":{"osm_id":"6542201701","tag":{"amenity":"waste_basket"}},"type":"Feature"},
	{"geometry":{"coordinates":[37.721118,55.623677],"type":"Point"},"properties":{"osm_id":"6542201702","tag":{"amenity":"waste_basket"}},"type":"Feature"},
	{"geometry":{"coordinates":[37.721512,55.623713],"type":"Point"},"properties":{"osm_id":"6542201703","tag":{"amenity":"waste_basket"}},"type":"Feature"},
	{"geometry":{"coordinates":[37.721823,55.623771],"type":"Point"},"properties":{"osm_id":"6542201704","tag":{"amenity":"waste_basket"}},"type":"Feature"},
	{"geometry":{"coordinates":[37.722146,55.623828],"type":"Point"},"properties":{"osm_id":"6542201705","tag":{"amenity":"waste_basket"}},"type":"Feature"},
	{"geometry":{"coordinates":[37.722464,55.623887],"type":"Point"},"properties":{"osm_id":"6542201706","tag":{"amenity":"waste_basket"}},"type":"Feature"},
	{"geometry":{"coordinates":[37.726371,55.625413],"type":"Point"},"properties":{"osm_id":"6542217768","tag":{"amenity":"waste_disposal"}},"type":"Feature"},
	{"geometry":{"coordinates":[37.726343,55.625423],"type":"Point"},"properties":{"osm_id":"6542217769","tag":{"amenity":"recycling","recycling:plastic_bottles":"yes","recycling_type":"container"}},"type":"Feature"},
	{"geometry":{"coordinates":[37.725621,55.624418],"type":"Point"},"properties":{"osm_id":"6542223344","tag":{"amenity":"waste_basket"}},"type":"Feature"},
	{"geometry":{"coordinates":[37.725298,55.624458],"type":"Point"},"properties":{"osm_id":"6542223345","tag":{"amenity":"waste_basket"}},"type":"Feature"},
	{"geometry":{"coordinates":[37.724984,55.624502],"type":"Point"},"properties":{"osm_id":"6542223346","tag":{"amenity":"waste_basket"}},"type":"Feature"},
	{"geometry":{"coordinates":[37.724654,55.624537],"type":"Point"},"properties":{"osm_id":"6542223347","tag":{"amenity":"waste_basket"}},"type":"Feature"},
	{"geometry":{"coordinates":[37.724108,55.624541],"type":"Point"},"properties":{"osm_id":"6542223348","tag":{"amenity":"waste_basket"}},"type":"Feature"},
	{"geometry":{"coordinates":[37.723812,55.624489],"type":"Point"},"properties":{"osm_id":"6542223349","tag":{"amenity":"waste_basket"}},"type":"Feature"},
	{"geometry":{"coordinates":[37.723493,55.624443],"type":"Point"},"properties":{"osm_id":"6542223350","tag":{"amenity":"waste_basket"}},"type":"Feature"},
	{"geometry":{"coordinates":[37.723192,55.624391],"type":"Point"},"properties":{"osm_id":"6542223351","tag":{"amenity":"waste_basket"}},"type":"Feature"},
	{"geometry":{"coordinates":[37.722877,55.624338],"type":"Point"},"properties":{"osm_id":"6542223352","tag":{"amenity":"waste_basket"}},"type":"Feature"},
	{"geometry":{"coordinates":[37.722582,55.624292],"type":"Point"},"properties":{"osm_id":"6542223353","tag":{"amenity":"waste_basket"}},"type":"Feature"},
	{"geometry":{"coordinates":[37.739028,55.600599],"type":"Point"},"properties":{"osm_id":"6542258005","tag":{"amenity":"waste_basket"}},"type":"Feature"},
	{"geometry":{"coordinates":[37.738902,55.601021],"type":"Point"},"properties":{"osm_id":"6542258007","tag":{"amenity":"waste_basket"}},"type":"Feature"},
	{"geometry":{"coordinates":[37.741276,55.598894],"type":"Point"},"properties":{"osm_id":"6542258013","tag":{"amenity":"waste_basket"}},"type":"Feature"},
	{"geometry":{"coordinates":[37.740703,55.599427],"type":"Point"},"properties":{"osm_id":"6542258015","tag":{"amenity":"waste_basket"}},"type":"Feature"},
	{"geometry":{"coordinates":[37.740933,55.599375],"type":"Point"},"properties":{"osm_id":"6542258016","tag":{"amenity":"waste_basket"}},"type":"Feature"},
	{"geometry":{"coordinates":[37.741041,55.59926],"type":"Point"},"properties":{"osm_id":"6542258017","tag":{"amenity":"waste_basket"}},"type":"Feature"},
	{"geometry":{"coordinates":[37.745487,55.622838],"type":"Point"},"properties":{"osm_id":"6542468186","tag":{"amenity":"waste_disposal"}},"type":"Feature"},
	{"geometry":{"coordinates":[37.746123,55.622732],"type":"Point"},"properties":{"osm_id":"6542468187","tag":{"amenity":"waste_disposal"}},"type":"Feature"},
	{"geometry":{"coordinates":[37.747396,55.62277],"type":"Point"},"properties":{"osm_id":"6542468188","tag":{"amenity":"waste_basket"}},"type":"Feature"},
	{"geometry":{"coordinates":[37.749112,55.623168],"type":"Point"},"properties":{"osm_id":"6542468190","tag":{"amenity":"waste_disposal"}},"type":"Feature"},
	{"geometry":{"coordinates":[37.748788,55.623239],"type":"Point"},"properties":{"osm_id":"6542468191","tag":{"amenity":"waste_basket"}},"type":"Feature"},
	{"geometry":{"coordinates":[37.746542,55.622738],"type":"Point"},"properties":{"osm_id":"6542521885","tag":{"amenity":"waste_basket"}},"type":"Feature"},
	{"geometry":{"coordinates":[37.7476,55.623167],"type":"Point"},"properties":{"osm_id":"6542521886","tag":{"amenity":"waste_basket"}},"type":"Feature"},
	{"geometry":{"coordinates":[37.748052,55.623204],"type":"Point"},"properties":{"osm_id":"6542521887","tag":{"amenity":"waste_basket"}},"type":"Feature"},
	{"geometry":{"coordinates":[37.751417,55.625287],"type":"Point"},"properties":{"osm_id":"6542521892","tag":{"amenity":"waste_basket"}},"type":"Feature"},
	{"geometry":{"coordinates":[37.749007,55.623667],"type":"Point"},"properties":{"osm_id":"6542531586","tag":{"amenity":"waste_basket"}},"type":"Feature"},
	{"geometry":{"coordinates":[37.749969,55.623711],"type":"Point"},"properties":{"osm_id":"6542531587","tag":{"amenity":"waste_basket"}},"type":"Feature"},
	{"geometry":{"coordinates":[37.750077,55.62603],"type":"Point"},"properties":{"osm_id":"6542533490","tag":{"amenity":"waste_disposal"}},"type":"Feature"},
	{"geometry":{"coordinates":[37.751023,55.625736],"type":"Point"},"properties":{"osm_id":"6542550885","tag":{"amenity":"waste_disposal"}},"type":"Feature"},
	{"geometry":{"coordinates":[37.749114,55.623154],"type":"Point"},"properties":{"osm_id":"6543117225","tag":{"amenity":"recycling","recycling:plastic_bottles":"yes","recycling_type":"container"}},"type":"Feature"},
	{"geometry":{"coordinates":[37.745487,55.622823],"type":"Point"},"properties":{"osm_id":"6543141455","tag":{"amenity":"recycling","recycling:plastic_bottles":"yes","recycling_type":"container"}},"type":"Feature"},
	{"geometry":{"coordinates":[37.746095,55.622727],"type":"Point"},"properties":{"osm_id":"6543141456","tag":{"amenity":"recycling","recycling:plastic_bottles":"yes","recycling_type":"container"}},"type":"Feature"},
	{"geometry":{"coordinates":[37.750059,55.626016],"type":"Point"},"properties":{"osm_id":"6543150130","tag":{"amenity":"recycling","recycling:plastic_bottles":"yes","recycling_type":"container"}},"type":"Feature"},
	{"geometry":{"coordinates":[37.751044,55.625734],"type":"Point"},"properties":{"osm_id":"6543150131","tag":{"amenity":"recycling","recycling:plastic_bottles":"yes","recycling_type":"container"}},"type":"Feature"},
	{"geometry":{"coordinates":[37.74603,55.615975],"type":"Point"},"properties":{"osm_id":"6543275164","tag":{"amenity":"recycling","recycling:plastic_bottles":"yes","recycling_type":"container"}},"type":"Feature"},
	{"geometry":{"coordinates":[37.744024,55.614708],"type":"Point"},"properties":{"osm_id":"6597391232","tag":{"amenity":"recycling","recycling:plastic":"yes","recycling_type":"container"}},"type":"Feature"},
	{"geometry":{"coordinates":[37.744023,55.614728],"type":"Point"},"properties":{"osm_id":"6597391233","tag":{"amenity":"recycling","recycling:glass":"yes","recycling_type":"container"}},"type":"Feature"},
	{"geometry":{"coordinates":[37.755352,55.59182],"type":"Point"},"properties":{"osm_id":"6791436803","tag":{"amenity":"waste_basket"}},"type":"Feature"},
	{"geometry":{"coordinates":[37.755332,55.591826],"type":"Point"},"properties":{"osm_id":"6791436804","tag":{"amenity":"waste_basket"}},"type":"Feature"},
	{"geometry":{"coordinates":[37.725492,55.607692],"type":"Point"},"properties":{"osm_id":"6960744046","tag":{"amenity":"waste_disposal"}},"type":"Feature"},
	{"geometry":{"coordinates":[37.7288,55.605783],"type":"Point"},"properties":{"osm_id":"6960744049","tag":{"amenity":"waste_disposal","waste":"trash"}},"type":"Feature"},
	{"geometry":{"coordinates":[37.72358,55.604553],"type":"Point"},"properties":{"osm_id":"6960779306","tag":{"amenity":"waste_disposal","waste":"trash"}},"type":"Feature"},
	{"geometry":{"coordinates":[37.738971,55.602241],"type":"Point"},"properties":{"osm_id":"6961344739","tag":{"amenity":"waste_disposal"}},"type":"Feature"},
	{"geometry":{"coordinates":[37.738991,55.602203],"type":"Point"},"properties":{"osm_id":"6961344740","tag":{"amenity":"recycling","recycling:plastic_bottles":"yes","recycling_type":"container"}},"type":"Feature"},
	{"geometry":{"coordinates":[37.738225,55.601811],"type":"Point"},"properties":{"osm_id":"6961344741","tag":{"amenity":"waste_disposal"}},"type":"Feature"},
	{"geometry":{"coordinates":[37.738292,55.601825],"type":"Point"},"properties":{"osm_id":"6961344742","tag":{"amenity":"recycling","recycling:plastic_bottles":"yes","recycling_type":"container"}},"type":"Feature"},
	{"geometry":{"coordinates":[37.73338,55.589122],"type":"Point"},"properties":{"osm_id":"7041984552","tag":{"amenity":"recycling","recycling:aluminium":"yes","recycling:scrap_metal":"yes","recycling_type":"centre"}},"type":"Feature"},
	{"geometry":{"coordinates":[37.718766,55.603359],"type":"Point"},"properties":{"osm_id":"7198572007","tag":{"amenity":"waste_disposal"}},"type":"Feature"},
	{"geometry":{"coordinates":[37.717304,55.60453],"type":"Point"},"properties":{"osm_id":"7198745649","tag":{"amenity":"waste_disposal","waste":"trash"}},"type":"Feature"},
	{"geometry":{"coordinates":[37.717834,55.606357],"type":"Point"},"properties":{"osm_id":"7223452285","tag":{"amenity":"recycling","recycling:paper":"yes","recycling_type":"container"}},"type":"Feature"},
	{"geometry":{"coordinates":[37.717772,55.606348],"type":"Point"},"properties":{"osm_id":"7223452286","tag":{"amenity":"recycling","recycling:plastic":"yes","recycling_type":"container"}},"type":"Feature"},
	{"geometry":{"coordinates":[37.717714,55.606341],"type":"Point"},"properties":{"osm_id":"7223452287","tag":{"amenity":"waste_disposal"}},"type":"Feature"},
	{"geometry":{"coordinates":[37.713535,55.606083],"type":"Point"},"properties":{"osm_id":"7223452288","tag":{"amenity":"waste_basket"}},"type":"Feature"},
	{"geometry":{"coordinates":[37.722417,55.612134],"type":"Point"},"properties":{"osm_id":"7228575086","tag":{"amenity":"waste_basket"}},"type":"Feature"},
	{"geometry":{"coordinates":[37.726371,55.612728],"type":"Point"},"properties":{"osm_id":"7228575087","tag":{"amenity":"waste_basket"}},"type":"Feature"},
	{"geometry":{"coordinates":[37.726367,55.612736],"type":"Point"},"properties":{"osm_id":"7228575088","tag":{"amenity":"waste_basket"}},"type":"Feature"},
	{"geometry":{"coordinates":[37.726474,55.611816],"type":"Point"},"properties":{"osm_id":"7228575094","tag":{"amenity":"waste_disposal"}},"type":"Feature"},
	{"geometry":{"coordinates":[37.727092,55.610156],"type":"Point"},"properties":{"osm_id":"7228575109","tag":{"amenity":"waste_disposal"}},"type":"Feature"},
	{"geometry":{"coordinates":[37.75249,55.619083],"type":"Point"},"properties":{"osm_id":"7787895485","tag":{"amenity":"waste_disposal"}},"type":"Feature"},
	{"geometry":{"coordinates":[37.753952,55.617103],"type":"Point"},"properties":{"osm_id":"7787921185","tag":{"amenity":"waste_disposal"}},"type":"Feature"},
	{"geometry":{"coordinates":[37.756706,55.616616],"type":"Point"},"properties":{"osm_id":"7787921187","tag":{"amenity":"waste_disposal"}},"type":"Feature"},
	{"geometry":{"coordinates":[37.75062,55.619118],"type":"Point"},"properties":{"osm_id":"7788292441","tag":{"amenity":"waste_basket"}},"type":"Feature"},
	{"geometry":{"coordinates":[37.750587,55.619351],"type":"Point"},"properties":{"osm_id":"7788292443","tag":{"amenity":"waste_basket"}},"type":"Feature"},
	{"geometry":{"coordinates":[37.749487,55.619795],"type":"Point"},"properties":{"osm_id":"7788292449","tag":{"amenity":"waste_basket"}},"type":"Feature"},
	{"geometry":{"coordinates":[37.749096,55.619777],"type":"Point"},"properties":{"osm_id":"7788292451","tag":{"amenity":"waste_basket"}},"type":"Feature"},
	{"geometry":{"coordinates":[37.748791,55.619841],"type":"Point"},"properties":{"osm_id":"7788292458","tag":{"amenity":"waste_basket"}},"type":"Feature"},
	{"geometry":{"coordinates":[37.748761,55.620019],"type":"Point"},"properties":{"osm_id":"7788292460","tag":{"amenity":"waste_basket"}},"type":"Feature"},
	{"geometry":{"coordinates":[37.74794,55.620609],"type":"Point"},"properties":{"osm_id":"7788292467","tag":{"amenity":"waste_basket"}},"type":"Feature"},
	{"geometry":{"coordinates":[37.74766,55.620587],"type":"Point"},"properties":{"osm_id":"7788292469","tag":{"amenity":"waste_basket"}},"type":"Feature"},
	{"geometry":{"coordinates":[37.747387,55.620569],"type":"Point"},"properties":{"osm_id":"7788292471","tag":{"amenity":"waste_basket"}},"type":"Feature"},
	{"geometry":{"coordinates":[37.747013,55.620546],"type":"Point"},"properties":{"osm_id":"7788292473","tag":{"amenity":"waste_basket"}},"type":"Feature"},
	{"geometry":{"coordinates":[37.746828,55.620532],"type":"Point"},"properties":{"osm_id":"7788292475","tag":{"amenity":"waste_basket"}},"type":"Feature"},
	{"geometry":{"coordinates":[37.746562,55.620518],"type":"Point"},"properties":{"osm_id":"7788292477","tag":{"amenity":"waste_basket"}},"type":"Feature"},
	{"geometry":{"coordinates":[37.745051,55.6197],"type":"Point"},"properties":{"osm_id":"7788292478","tag":{"amenity":"waste_basket"}},"type":"Feature"},
	{"geometry":{"coordinates":[37.745083,55.619487],"type":"Point"},"properties":{"osm_id":"7788292479","tag":{"amenity":"waste_basket"}},"type":"Feature"},
	{"geometry":{"coordinates":[37.745129,55.619261],"type":"Point"},"properties":{"osm_id":"7788292480","tag":{"amenity":"waste_basket"}},"type":"Feature"},
	{"geometry":{"coordinates":[37.745161,55.61904],"type":"Point"},"properties":{"osm_id":"7788292481","tag":{"amenity":"waste_basket"}},"type":"Feature"},
	{"geometry":{"coordinates":[37.745204,55.618805],"type":"Point"},"properties":{"osm_id":"7788292482","tag":{"amenity":"waste_basket"}},"type":"Feature"},
	{"geometry":{"coordinates":[37.756801,55.616439],"type":"Point"},"properties":{"osm_id":"7788361894","tag":{"amenity":"waste_basket"}},"type":"Feature"},
	{"geometry":{"coordinates":[37.756636,55.616228],"type":"Point"},"properties":{"osm_id":"7788361896","tag":{"amenity":"waste_basket"}},"type":"Feature"},
	{"geometry":{"coordinates":[37.756332,55.616235],"type":"Point"},"properties":{"osm_id":"7788361898","tag":{"amenity":"waste_basket"}},"type":"Feature"},
	{"geometry":{"coordinates":[37.756269,55.61623],"type":"Point"},"properties":{"osm_id":"7788361900","tag":{"amenity":"waste_basket"}},"type":"Feature"},
	{"geometry":{"coordinates":[37.755206,55.616295],"type":"Point"},"properties":{"osm_id":"7788361908","tag":{"amenity":"waste_disposal"}},"type":"Feature"},
	{"geometry":{"coordinates":[37.754896,55.616133],"type":"Point"},"properties":{"osm_id":"7788361910","tag":{"amenity":"waste_basket"}},"type":"Feature"},
	{"geometry":{"coordinates":[37.754619,55.616117],"type":"Point"},"properties":{"osm_id":"7788361912","tag":{"amenity":"waste_basket"}},"type":"Feature"},
	{"geometry":{"coordinates":[37.754411,55.616109],"type":"Point"},"properties":{"osm_id":"7788361914","tag":{"amenity":"waste_basket"}},"type":"Feature"},
	{"geometry":{"coordinates":[37.753945,55.616085],"type":"Point"},"properties":{"osm_id":"7788361916","tag":{"amenity":"waste_basket"}},"type":"Feature"},
	{"geometry":{"coordinates":[37.753847,55.616133],"type":"Point"},"properties":{"osm_id":"7788361918","tag":{"amenity":"waste_basket"}},"type":"Feature"},
	{"geometry":{"coordinates":[37.753822,55.616243],"type":"Point"},"properties":{"osm_id":"7788361920","tag":{"amenity":"waste_basket"}},"type":"Feature"},
	{"geometry":{"coordinates":[37.753791,55.616419],"type":"Point"},"properties":{"osm_id":"7788361922","tag":{"amenity":"waste_basket"}},"type":"Feature"},
	{"geometry":{"coordinates":[37.753764,55.616603],"type":"Point"},"properties":{"osm_id":"7788361924","tag":{"amenity":"waste_basket"}},"type":"Feature"},
	{"geometry":{"coordinates":[37.753731,55.616785],"type":"Point"},"properties":{"osm_id":"7788361925","tag":{"amenity":"waste_basket"}},"type":"Feature"},
	{"geometry":{"coordinates":[37.75365,55.617363],"type":"Point"},"properties":{"osm_id":"7788361937","tag":{"amenity":"waste_basket"}},"type":"Feature"},
	{"geometry":{"coordinates":[37.753732,55.617527],"type":"Point"},"properties":{"osm_id":"7788361938","tag":{"amenity":"waste_basket"}},"type":"Feature"},
	{"geometry":{"coordinates":[37.75385,55.617692],"type":"Point"},"properties":{"osm_id":"7788361940","tag":{"amenity":"waste_basket"}},"type":"Feature"},
	{"geometry":{"coordinates":[37.75386,55.617857],"type":"Point"},"properties":{"osm_id":"7788361942","tag":{"amenity":"waste_disposal"}},"type":"Feature"},
	{"geometry":{"coordinates":[37.753983,55.617861],"type":"Point"},"properties":{"osm_id":"7788361944","tag":{"amenity":"waste_basket"}},"type":"Feature"},
	{"geometry":{"coordinates":[37.754074,55.617984],"type":"Point"},"properties":{"osm_id":"7788361946","tag":{"amenity":"waste_basket"}},"type":"Feature"},
	{"geometry":{"coordinates":[37.75419,55.618146],"type":"Point"},"properties":{"osm_id":"7788361947","tag":{"amenity":"waste_basket"}},"type":"Feature"},
	{"geometry":{"coordinates":[37.754331,55.618373],"type":"Point"},"properties":{"osm_id":"7788361949","tag":{"amenity":"waste_basket"}},"type":"Feature"},
	{"geometry":{"coordinates":[37.754112,55.618586],"type":"Point"},"properties":{"osm_id":"7788361950","tag":{"amenity":"waste_disposal"}},"type":"Feature"},
	{"geometry":{"coordinates":[37.754285,55.618635],"type":"Point"},"properties":{"osm_id":"7788361951","tag":{"amenity":"waste_basket"}},"type":"Feature"},
	{"geometry":{"coordinates":[37.754261,55.618813],"type":"Point"},"properties":{"osm_id":"7788361952","tag":{"amenity":"waste_basket"}},"type":"Feature"},
	{"geometry":{"coordinates":[37.754238,55.618992],"type":"Point"},"properties":{"osm_id":"7788361954","tag":{"amenity":"waste_basket"}},"type":"Feature"},
	{"geometry":{"coordinates":[37.746793,55.612072],"type":"Point"},"properties":{"osm_id":"7830520475","tag":{"amenity":"waste_disposal"}},"type":"Feature"}
]
}
