{
"type": "FeatureCollection",
"features": [
	{"geometry":{"coordinates":[37.740866,55.504677],"type":"Point"},"properties":{"osm_id":"4611610174","tag":{"amenity":"waste_disposal"}},"type":"Feature"},
	{"geometry":{"coordinates":[37.713081,55.515015],"type":"Point"},"properties":{"osm_id":"7302134464","tag":{"amenity":"waste_disposal"}},"type":"Feature"},
	{"geometry":{"coordinates":[37.726581,55.487963],"type":"Point"},"properties":{"osm_id":"7372558832","tag":{"amenity":"waste_disposal"}},"type":"Feature"},
	{"geometry":{"coordinates":[37.719532,55.482329],"type":"Point"},"properties":{"osm_id":"7372565390","tag":{"amenity":"waste_disposal"}},"type":"Feature"},
	{"geometry":{"coordinates":[37.721032,55.491213],"type":"Point"},"properties":{"osm_id":"7372565391","tag":{"amenity":"waste_disposal"}},"type":"Feature"},
	{"geometry":{"coordinates":[37.727191,55.490523],"type":"Point"},"properties":{"osm_id":"7372565392","tag":{"amenity":"waste_disposal"}},"type":"Feature"},
	{"geometry":{"coordinates":[37.735824,55.504234],"type":"Point"},"properties":{"name":"\u00d0\u00a0\u00d0\u00b0\u00d0\u00b7\u00d0\u00b1\u00d0\u00be\u00d1\u0080\u00d0\u00ba\u00d0\u00b0 \u00d0\u00be\u00d1\u0082\u00d0\u00b5\u00d1\u0087\u00d0\u00b5\u00d1\u0081\u00d1\u0082\u00d0\u00b2\u00d0\u00b5\u00d0\u00bd\u00d0\u00bd\u00d0\u00be\u00d0\u00b3\u00d0\u00be \u00d0\u00b0\u00d0\u00b2\u00d1\u0082\u00d0\u00be\u00d0\u00bf\u00d1\u0080\u00d0\u00be\u00d0\u00bc\u00d0\u00b0 \u00d0\u00b2 \u00d0\u0091\u00d0\u00b5\u00d0\u00bb\u00d0\u00b5\u00d1\u0083\u00d1\u0082\u00d0\u00be\u00d0\u00b2\u00d0\u00be","osm_id":"7473351360","tag":{"addr:housenumber":"17","addr:street":"\u0426\u0435\u043d\u0442\u0440\u0430\u043b\u044c\u043d\u0430\u044f \u0443\u043b\u0438\u0446\u0430","amenity":"recycling","brand":"BMW;Daewoo;Lada;VAZ","contact:mobile":"+7 905 777-76-78","contact:vk":"https://vk.com/public88347876","contact:youtube":"https://www.youtube.com/watch?v=unS6aXKgoNI","recycling:cars":"yes","recycling_type":"centre","second_hand":"only","shop":"car_parts"}},"type":"Feature"}
]
}
