{
"type": "FeatureCollection",
"features": [
	{"geometry":{"coordinates":[37.741141,48.129793],"type":"Point"},"properties":{"osm_id":"1601613363","tag":{"amenity":"waste_disposal"}},"type":"Feature"},
	{"geometry":{"coordinates":[37.740245,48.127704],"type":"Point"},"properties":{"osm_id":"1601663998","tag":{"amenity":"waste_disposal"}},"type":"Feature"},
	{"geometry":{"coordinates":[37.74513,48.130174],"type":"Point"},"properties":{"osm_id":"1601685247","tag":{"amenity":"waste_disposal"}},"type":"Feature"},
	{"geometry":{"coordinates":[37.747219,48.129851],"type":"Point"},"properties":{"osm_id":"1602007063","tag":{"amenity":"waste_disposal"}},"type":"Feature"},
	{"geometry":{"coordinates":[37.744793,48.127017],"type":"Point"},"properties":{"osm_id":"1605668187","tag":{"amenity":"waste_disposal"}},"type":"Feature"},
	{"geometry":{"coordinates":[37.744595,48.128545],"type":"Point"},"properties":{"osm_id":"1605668198","tag":{"amenity":"waste_basket"}},"type":"Feature"},
	{"geometry":{"coordinates":[37.743272,48.12938],"type":"Point"},"properties":{"osm_id":"1605668235","tag":{"amenity":"waste_disposal"}},"type":"Feature"},
	{"geometry":{"coordinates":[37.737313,48.131668],"type":"Point"},"properties":{"osm_id":"1605668315","tag":{"amenity":"waste_disposal"}},"type":"Feature"},
	{"geometry":{"coordinates":[37.745572,48.132246],"type":"Point"},"properties":{"osm_id":"1605668322","tag":{"amenity":"waste_disposal"}},"type":"Feature"},
	{"geometry":{"coordinates":[37.736659,48.130351],"type":"Point"},"properties":{"osm_id":"1605836298","tag":{"amenity":"waste_disposal"}},"type":"Feature"},
	{"geometry":{"coordinates":[37.738056,48.129473],"type":"Point"},"properties":{"osm_id":"1619789250","tag":{"amenity":"waste_disposal"}},"type":"Feature"},
	{"geometry":{"coordinates":[37.74351,48.134757],"type":"Point"},"properties":{"osm_id":"1619789737","tag":{"amenity":"waste_disposal"}},"type":"Feature"},
	{"geometry":{"coordinates":[37.744958,48.133518],"type":"Point"},"properties":{"osm_id":"1623003113","tag":{"amenity":"waste_disposal"}},"type":"Feature"},
	{"geometry":{"coordinates":[37.7412,48.131144],"type":"Point"},"properties":{"osm_id":"2061163985","tag":{"amenity":"waste_disposal"}},"type":"Feature"},
	{"geometry":{"coordinates":[37.74447,48.131395],"type":"Point"},"properties":{"osm_id":"2061163988","tag":{"amenity":"waste_disposal"}},"type":"Feature"},
	{"geometry":{"coordinates":[37.738696,48.133946],"type":"Point"},"properties":{"osm_id":"2061480743","tag":{"amenity":"waste_disposal"}},"type":"Feature"},
	{"geometry":{"coordinates":[37.741892,48.134277],"type":"Point"},"properties":{"osm_id":"2061480757","tag":{"amenity":"waste_disposal"}},"type":"Feature"},
	{"geometry":{"coordinates":[37.747507,48.129681],"type":"Point"},"properties":{"osm_id":"2503366817","tag":{"amenity":"waste_disposal"}},"type":"Feature"},
	{"geometry":{"coordinates":[37.739567,48.131274],"type":"Point"},"properties":{"osm_id":"2503822563","tag":{"amenity":"waste_disposal"}},"type":"Feature"},
	{"geometry":{"coordinates":[37.741948,48.136569],"type":"Point"},"properties":{"osm_id":"2503822614","tag":{"amenity":"waste_disposal"}},"type":"Feature"},
	{"geometry":{"coordinates":[37.739831,48.134071],"type":"Point"},"properties":{"osm_id":"2505340749","tag":{"amenity":"waste_disposal"}},"type":"Feature"},
	{"geometry":{"coordinates":[37.745584,48.134868],"type":"Point"},"properties":{"osm_id":"2506596191","tag":{"amenity":"waste_disposal"}},"type":"Feature"},
	{"geometry":{"coordinates":[37.74118,48.126714],"type":"Point"},"properties":{"osm_id":"2508939022","tag":{"amenity":"waste_disposal"}},"type":"Feature"},
	{"geometry":{"coordinates":[37.746502,48.127599],"type":"Point"},"properties":{"osm_id":"2508939029","tag":{"amenity":"waste_disposal"}},"type":"Feature"},
	{"geometry":{"coordinates":[37.744027,48.13736],"type":"Point"},"properties":{"osm_id":"2508939149","tag":{"amenity":"waste_disposal"}},"type":"Feature"},
	{"geometry":{"coordinates":[37.740266,48.135188],"type":"Point"},"properties":{"osm_id":"2509388619","tag":{"amenity":"recycling","recycling:glass":"yes","recycling_type":"centre"}},"type":"Feature"},
	{"geometry":{"coordinates":[37.747627,48.134762],"type":"Point"},"properties":{"osm_id":"2509831013","tag":{"amenity":"waste_disposal"}},"type":"Feature"},
	{"geometry":{"coordinates":[37.740059,48.139856],"type":"Point"},"properties":{"osm_id":"2509831033","tag":{"amenity":"waste_disposal"}},"type":"Feature"},
	{"geometry":{"coordinates":[37.733804,48.131108],"type":"Point"},"properties":{"osm_id":"2510168627","tag":{"amenity":"waste_disposal"}},"type":"Feature"},
	{"geometry":{"coordinates":[37.732357,48.133637],"type":"Point"},"properties":{"osm_id":"2511300099","tag":{"amenity":"waste_disposal"}},"type":"Feature"},
	{"geometry":{"coordinates":[37.746832,48.129694],"type":"Point"},"properties":{"osm_id":"2519530107","tag":{"amenity":"waste_disposal"}},"type":"Feature"},
	{"geometry":{"coordinates":[37.734464,48.128196],"type":"Point"},"properties":{"osm_id":"2527564107","tag":{"amenity":"waste_disposal"}},"type":"Feature"},
	{"geometry":{"coordinates":[37.736846,48.132636],"type":"Point"},"properties":{"osm_id":"2560785470","tag":{"amenity":"waste_disposal"}},"type":"Feature"},
	{"geometry":{"coordinates":[37.73613,48.134155],"type":"Point"},"properties":{"osm_id":"2560785514","tag":{"amenity":"waste_disposal"}},"type":"Feature"},
	{"geometry":{"coordinates":[37.744172,48.136428],"type":"Point"},"properties":{"osm_id":"2562642572","tag":{"amenity":"waste_disposal"}},"type":"Feature"},
	{"geometry":{"coordinates":[37.757247,48.125384],"type":"Point"},"properties":{"osm_id":"2624169917","tag":{"amenity":"waste_disposal"}},"type":"Feature"},
	{"geometry":{"coordinates":[37.758592,48.125765],"type":"Point"},"properties":{"osm_id":"2624169952","tag":{"amenity":"waste_disposal"}},"type":"Feature"},
	{"geometry":{"coordinates":[37.759397,48.125942],"type":"Point"},"properties":{"osm_id":"2624169964","tag":{"amenity":"waste_disposal"}},"type":"Feature"},
	{"geometry":{"coordinates":[37.745287,48.1351],"type":"Point"},"properties":{"osm_id":"2624169994","tag":{"amenity":"waste_disposal"}},"type":"Feature"},
	{"geometry":{"coordinates":[37.736657,48.126758],"type":"Point"},"properties":{"osm_id":"2633720502","tag":{"amenity":"waste_disposal"}},"type":"Feature"},
	{"geometry":{"coordinates":[37.733139,48.129113],"type":"Point"},"properties":{"osm_id":"2633720633","tag":{"amenity":"waste_disposal"}},"type":"Feature"},
	{"geometry":{"coordinates":[37.745121,48.139367],"type":"Point"},"properties":{"osm_id":"3829206909","tag":{"amenity":"waste_disposal"}},"type":"Feature"},
	{"geometry":{"coordinates":[37.746032,48.139355],"type":"Point"},"properties":{"osm_id":"3829228587","tag":{"amenity":"waste_disposal"}},"type":"Feature"},
	{"geometry":{"coordinates":[37.749282,48.127751],"type":"Point"},"properties":{"osm_id":"6751958487","tag":{"amenity":"waste_disposal"}},"type":"Feature"},
	{"geometry":{"coordinates":[37.742993,48.128039],"type":"Point"},"properties":{"osm_id":"6763938186","tag":{"amenity":"waste_disposal","operator":"\u00d1\u0085\u00d0\u00be\u00d0\u00b1\u00d0\u00b8\u00d1\u0082"}},"type":"Feature"},
	{"geometry":{"coordinates":[37.741166,48.135483],"type":"Point"},"properties":{"osm_id":"6763949485","tag":{"amenity":"waste_disposal"}},"type":"Feature"},
	{"geometry":{"coordinates":[37.74118,48.135492],"type":"Point"},"properties":{"osm_id":"6763949486","tag":{"amenity":"waste_disposal"}},"type":"Feature"}
]
}
