{
"type": "FeatureCollection",
"features": [
	{"geometry":{"coordinates":[37.743052,48.059421],"type":"Point"},"properties":{"osm_id":"1626853932","tag":{"amenity":"waste_disposal"}},"type":"Feature"},
	{"geometry":{"coordinates":[37.778213,48.059509],"type":"Point"},"properties":{"osm_id":"2508095042","tag":{"amenity":"waste_disposal"}},"type":"Feature"},
	{"geometry":{"coordinates":[37.745625,48.054846],"type":"Point"},"properties":{"osm_id":"2514424132","tag":{"amenity":"waste_disposal"}},"type":"Feature"},
	{"geometry":{"coordinates":[37.76402,48.059952],"type":"Point"},"properties":{"osm_id":"2527707176","tag":{"amenity":"waste_disposal"}},"type":"Feature"},
	{"geometry":{"coordinates":[37.783623,48.062763],"type":"Point"},"properties":{"osm_id":"2533464524","tag":{"amenity":"waste_disposal"}},"type":"Feature"},
	{"geometry":{"coordinates":[37.7765,48.058661],"type":"Point"},"properties":{"osm_id":"2587154306","tag":{"amenity":"waste_disposal"}},"type":"Feature"},
	{"geometry":{"coordinates":[37.787983,48.050217],"type":"Point"},"properties":{"name":"\u00d0\u00bf\u00d0\u00bf\u00d0\u00bc \"\u00d0\u00b7\u00d0\u00b0\u00d1\u0081\u00d1\u008f\u00d0\u00b4\u00d1\u008c\u00d0\u00ba\u00d0\u00be\"","osm_id":"4510503289","tag":{"amenity":"recycling","name:ru":"\u00d0\u00bf\u00d0\u00bf\u00d0\u00bc \"\u00d0\u00b7\u00d0\u00b0\u00d1\u0081\u00d1\u008f\u00d0\u00b4\u00d1\u008c\u00d0\u00ba\u00d0\u00be\"","name:uk":"\u00d0\u00bf\u00d0\u00bf\u00d0\u00bc \"\u00d0\u00b7\u00d0\u00b0\u00d1\u0081\u00d1\u008f\u00d0\u00b4\u00d1\u008c\u00d0\u00ba\u00d0\u00be\""}},"type":"Feature"}
]
}
