{
"type": "FeatureCollection",
"features": [
	{"geometry":{"coordinates":[-105.295361,40.014367],"type":"Point"},"properties":{"osm_id":"1478604782","tag":{"amenity":"waste_basket"}},"type":"Feature"},
	{"geometry":{"coordinates":[-105.30493,40.003943],"type":"Point"},"properties":{"osm_id":"1700602036","tag":{"amenity":"waste_basket"}},"type":"Feature"},
	{"geometry":{"coordinates":[-105.30615,40.004981],"type":"Point"},"properties":{"osm_id":"1700602052","tag":{"amenity":"waste_basket"}},"type":"Feature"},
	{"geometry":{"coordinates":[-105.300097,40.01362],"type":"Point"},"properties":{"osm_id":"2313533921","tag":{"amenity":"waste_basket"}},"type":"Feature"},
	{"geometry":{"coordinates":[-105.342097,40.015529],"type":"Point"},"properties":{"osm_id":"4360890960","tag":{"amenity":"waste_basket"}},"type":"Feature"},
	{"geometry":{"coordinates":[-105.325158,40.008941],"type":"Point"},"properties":{"osm_id":"9065141362","tag":{"amenity":"waste_basket","mapillary":"772570860292027","material":"metal","operator":"City of Boulder Open Space and Mountain Parks"}},"type":"Feature"}
]
}
