{
"type": "FeatureCollection",
"features": [
	{"geometry":{"coordinates":[13.737051,52.512538],"type":"Point"},"properties":{"osm_id":"2719929665","tag":{"amenity":"recycling","recycling:clothes":"yes","recycling:glass":"yes"}},"type":"Feature"},
	{"geometry":{"coordinates":[13.733721,52.517254],"type":"Point"},"properties":{"osm_id":"2719935087","tag":{"amenity":"recycling","recycling:clothes":"yes","recycling:glass":"yes"}},"type":"Feature"},
	{"geometry":{"coordinates":[13.742495,52.519133],"type":"Point"},"properties":{"osm_id":"2721133382","tag":{"amenity":"recycling","recycling:clothes":"yes","recycling:glass":"yes"}},"type":"Feature"},
	{"geometry":{"coordinates":[13.73652,52.513124],"type":"Point"},"properties":{"osm_id":"2723131194","tag":{"amenity":"waste_basket"}},"type":"Feature"},
	{"geometry":{"coordinates":[13.736694,52.513113],"type":"Point"},"properties":{"osm_id":"2723131200","tag":{"amenity":"waste_basket"}},"type":"Feature"},
	{"geometry":{"coordinates":[13.747482,52.515006],"type":"Point"},"properties":{"osm_id":"2723154175","tag":{"amenity":"waste_basket"}},"type":"Feature"},
	{"geometry":{"coordinates":[13.748475,52.516296],"type":"Point"},"properties":{"osm_id":"2723154444","tag":{"amenity":"waste_basket"}},"type":"Feature"},
	{"geometry":{"coordinates":[13.748839,52.51665],"type":"Point"},"properties":{"osm_id":"2723154445","tag":{"amenity":"waste_basket"}},"type":"Feature"},
	{"geometry":{"coordinates":[13.74818,52.515658],"type":"Point"},"properties":{"osm_id":"2723158474","tag":{"amenity":"waste_basket"}},"type":"Feature"},
	{"geometry":{"coordinates":[13.748106,52.515798],"type":"Point"},"properties":{"osm_id":"2723158478","tag":{"amenity":"waste_basket"}},"type":"Feature"},
	{"geometry":{"coordinates":[13.762071,52.52549],"type":"Point"},"properties":{"osm_id":"2726747032","tag":{"amenity":"waste_basket","check_date":"2021-08-28"}},"type":"Feature"},
	{"geometry":{"coordinates":[13.753912,52.520351],"type":"Point"},"properties":{"osm_id":"2729733628","tag":{"amenity":"waste_basket"}},"type":"Feature"},
	{"geometry":{"coordinates":[13.753699,52.520206],"type":"Point"},"properties":{"osm_id":"2729733631","tag":{"amenity":"waste_basket"}},"type":"Feature"},
	{"geometry":{"coordinates":[13.746949,52.524619],"type":"Point"},"properties":{"osm_id":"2810717340","tag":{"amenity":"recycling"}},"type":"Feature"},
	{"geometry":{"coordinates":[13.746997,52.518164],"type":"Point"},"properties":{"osm_id":"2850377290","tag":{"amenity":"waste_basket"}},"type":"Feature"},
	{"geometry":{"coordinates":[13.746316,52.51928],"type":"Point"},"properties":{"osm_id":"2850377291","tag":{"amenity":"waste_basket"}},"type":"Feature"},
	{"geometry":{"coordinates":[13.754823,52.52579],"type":"Point"},"properties":{"osm_id":"2868706542","tag":{"amenity":"waste_basket"}},"type":"Feature"},
	{"geometry":{"coordinates":[13.789221,52.49233],"type":"Point"},"properties":{"osm_id":"3821827568","tag":{"amenity":"recycling","recycling:clothes":"yes","recycling:glass_bottles":"yes","recycling_type":"container"}},"type":"Feature"},
	{"geometry":{"coordinates":[13.717904,52.483552],"type":"Point"},"properties":{"osm_id":"5998159901","tag":{"amenity":"waste_basket","waste":"trash"}},"type":"Feature"},
	{"geometry":{"coordinates":[13.790497,52.527548],"type":"Point"},"properties":{"osm_id":"8465107512","tag":{"amenity":"waste_basket"}},"type":"Feature"},
	{"geometry":{"coordinates":[13.787411,52.528006],"type":"Point"},"properties":{"osm_id":"8466259495","tag":{"amenity":"recycling","recycling:glass_bottles":"yes","recycling:glass_bottles:colour":"white;green;brown","recycling_type":"container"}},"type":"Feature"},
	{"geometry":{"coordinates":[13.748773,52.516442],"type":"Point"},"properties":{"osm_id":"8467250855","tag":{"amenity":"waste_basket"}},"type":"Feature"},
	{"geometry":{"coordinates":[13.750186,52.517252],"type":"Point"},"properties":{"osm_id":"8515951887","tag":{"amenity":"recycling","recycling:clothes":"yes","recycling_type":"container"}},"type":"Feature"},
	{"geometry":{"coordinates":[13.722653,52.516149],"type":"Point"},"properties":{"osm_id":"8538006195","tag":{"amenity":"recycling","recycling:clothes":"yes","recycling_type":"container"}},"type":"Feature"}
]
}
