{
"type": "FeatureCollection",
"features": [
	{"geometry":{"coordinates":[13.721393,52.300035],"type":"Point"},"properties":{"osm_id":"4395205513","tag":{"amenity":"waste_basket"}},"type":"Feature"},
	{"geometry":{"coordinates":[13.720736,52.296535],"type":"Point"},"properties":{"osm_id":"5595181389","tag":{"amenity":"recycling","recycling:clothes":"yes","recycling_type":"container","wheelchair":"yes"}},"type":"Feature"},
	{"geometry":{"coordinates":[13.720643,52.29406],"type":"Point"},"properties":{"osm_id":"6098703611","tag":{"amenity":"recycling","recycling:clothes":"yes","recycling:glass_bottles":"yes","recycling_type":"container","wheelchair":"yes"}},"type":"Feature"},
	{"geometry":{"coordinates":[13.71321,52.298014],"type":"Point"},"properties":{"osm_id":"6539969417","tag":{"access":"private","amenity":"recycling","operator":"FSG","recycling:cardboard":"yes","recycling:paper":"yes","recycling_type":"container"}},"type":"Feature"},
	{"geometry":{"coordinates":[13.724396,52.296968],"type":"Point"},"properties":{"osm_id":"6814692369","tag":{"amenity":"recycling","description":"Friedhofsabfallentsorgung","opening_hours":"sunrise-sunset","operator":"Stadt K\u00f6nigs Wusterhausen","recycling:green_waste":"yes","recycling:waste":"yes","recycling_type":"container","wheelchair":"limited"}},"type":"Feature"},
	{"geometry":{"coordinates":[13.718786,52.315264],"type":"Point"},"properties":{"osm_id":"6841582795","tag":{"amenity":"recycling","recycling:glass_bottles":"yes","recycling_type":"container"}},"type":"Feature"},
	{"geometry":{"coordinates":[13.789622,52.294354],"type":"Point"},"properties":{"osm_id":"7160775446","tag":{"amenity":"waste_basket"}},"type":"Feature"},
	{"geometry":{"coordinates":[13.720966,52.300035],"type":"Point"},"properties":{"osm_id":"7429084676","tag":{"amenity":"waste_basket"}},"type":"Feature"},
	{"geometry":{"coordinates":[13.721525,52.300026],"type":"Point"},"properties":{"osm_id":"7429084682","tag":{"amenity":"waste_basket"}},"type":"Feature"},
	{"geometry":{"coordinates":[13.714517,52.295829],"type":"Point"},"properties":{"osm_id":"7462655170","tag":{"amenity":"waste_basket","waste":"dog_excrement"}},"type":"Feature"},
	{"geometry":{"coordinates":[13.713961,52.29543],"type":"Point"},"properties":{"osm_id":"7470597556","tag":{"amenity":"waste_basket","waste":"dog_excrement"}},"type":"Feature"},
	{"geometry":{"coordinates":[13.752911,52.268963],"type":"Point"},"properties":{"osm_id":"7591693721","tag":{"amenity":"waste_basket"}},"type":"Feature"}
]
}
