{
"type": "FeatureCollection",
"lastupdate": "2020-07-31T00:00:00Z",
"features": [
	{"geometry":{"coordinates":[13.73033,51.162337],"type":"Point"},"properties":{"osm_id":"261047480","tag":{"amenity":"recycling","recycling:clothes":"yes","recycling:glass_bottles":"yes","recycling_type":"container"}},"type":"Feature"},
	{"geometry":{"coordinates":[13.763905,51.164235],"type":"Point"},"properties":{"osm_id":"262347563","tag":{"amenity":"recycling","recycling:clothes":"yes","recycling:glass_bottles":"yes","recycling_type":"container"}},"type":"Feature"},
	{"geometry":{"coordinates":[13.790263,51.125241],"type":"Point"},"properties":{"osm_id":"266836073","tag":{"amenity":"recycling","recycling:clothes":"yes","recycling:glass_bottles":"yes","recycling_type":"container"}},"type":"Feature"},
	{"geometry":{"coordinates":[13.734479,51.130316],"type":"Point"},"properties":{"osm_id":"540213420","tag":{"amenity":"recycling","recycling_type":"container"}},"type":"Feature"},
	{"geometry":{"coordinates":[13.795733,51.13912],"type":"Point"},"properties":{"osm_id":"1655031184","tag":{"amenity":"recycling","recycling:glass":"yes","recycling:paper":"yes","recycling_type":"container"}},"type":"Feature"},
	{"geometry":{"coordinates":[13.739434,51.144489],"type":"Point"},"properties":{"osm_id":"2421924655","tag":{"amenity":"recycling","recycling:clothes":"yes","recycling:glass_bottles":"yes","recycling:paper":"yes","recycling_type":"container"}},"type":"Feature"},
	{"geometry":{"coordinates":[13.735596,51.125094],"type":"Point"},"properties":{"osm_id":"2457214480","tag":{"amenity":"recycling","recycling:cans":"no","recycling:glass":"yes","recycling:glass_bottles":"yes","recycling:paper":"no","recycling_type":"container"}},"type":"Feature"},
	{"geometry":{"coordinates":[13.765692,51.124652],"type":"Point"},"properties":{"osm_id":"3461429819","tag":{"amenity":"waste_basket","level":"0"}},"type":"Feature"},
	{"geometry":{"coordinates":[13.765992,51.124965],"type":"Point"},"properties":{"osm_id":"3461429835","tag":{"amenity":"waste_basket","level":"1"}},"type":"Feature"},
	{"geometry":{"coordinates":[13.765369,51.124579],"type":"Point"},"properties":{"osm_id":"3461448332","tag":{"amenity":"waste_basket","level":"0"}},"type":"Feature"},
	{"geometry":{"coordinates":[13.765211,51.125193],"type":"Point"},"properties":{"osm_id":"3461495696","tag":{"amenity":"waste_basket","level":"1"}},"type":"Feature"},
	{"geometry":{"coordinates":[13.765067,51.12528],"type":"Point"},"properties":{"osm_id":"3461495704","tag":{"amenity":"waste_basket","level":"1"}},"type":"Feature"},
	{"geometry":{"coordinates":[13.764916,51.125371],"type":"Point"},"properties":{"osm_id":"3461495711","tag":{"amenity":"waste_basket","level":"1"}},"type":"Feature"},
	{"geometry":{"coordinates":[13.791066,51.131762],"type":"Point"},"properties":{"osm_id":"3469757942","tag":{"amenity":"recycling","recycling:cans":"no"}},"type":"Feature"},
	{"geometry":{"coordinates":[13.791862,51.131854],"type":"Point"},"properties":{"osm_id":"3469757944","tag":{"amenity":"recycling"}},"type":"Feature"},
	{"geometry":{"coordinates":[13.775092,51.127275],"type":"Point"},"properties":{"osm_id":"4554587779","tag":{"amenity":"recycling","recycling:glass":"yes","recycling_type":"container"}},"type":"Feature"},
	{"geometry":{"coordinates":[13.791226,51.12449],"type":"Point"},"properties":{"osm_id":"5656292749","tag":{"amenity":"waste_basket"}},"type":"Feature"},
	{"geometry":{"coordinates":[13.791231,51.124508],"type":"Point"},"properties":{"osm_id":"5656292750","tag":{"amenity":"waste_basket"}},"type":"Feature"},
	{"geometry":{"coordinates":[13.791345,51.124911],"type":"Point"},"properties":{"osm_id":"5656295040","tag":{"amenity":"waste_basket"}},"type":"Feature"},
	{"geometry":{"coordinates":[13.791341,51.124883],"type":"Point"},"properties":{"osm_id":"5656295043","tag":{"amenity":"waste_basket"}},"type":"Feature"},
	{"geometry":{"coordinates":[13.782137,51.127739],"type":"Point"},"properties":{"osm_id":"5663006214","tag":{"amenity":"waste_basket"}},"type":"Feature"},
	{"geometry":{"coordinates":[13.785525,51.126631],"type":"Point"},"properties":{"osm_id":"5663006215","tag":{"amenity":"waste_basket"}},"type":"Feature"},
	{"geometry":{"coordinates":[13.785437,51.126644],"type":"Point"},"properties":{"osm_id":"5663006216","tag":{"amenity":"waste_basket"}},"type":"Feature"},
	{"geometry":{"coordinates":[13.79162,51.139866],"type":"Point"},"properties":{"osm_id":"5980989819","tag":{"amenity":"waste_basket"}},"type":"Feature"},
	{"geometry":{"coordinates":[13.791625,51.139875],"type":"Point"},"properties":{"osm_id":"5996524272","tag":{"amenity":"waste_basket"}},"type":"Feature"},
	{"geometry":{"coordinates":[13.792252,51.149227],"type":"Point"},"properties":{"osm_id":"6217252665","tag":{"amenity":"waste_basket"}},"type":"Feature"},
	{"geometry":{"coordinates":[13.741444,51.125265],"type":"Point"},"properties":{"osm_id":"6616166596","tag":{"amenity":"waste_basket","waste":"trash"}},"type":"Feature"},
	{"geometry":{"coordinates":[13.794387,51.134759],"type":"Point"},"properties":{"osm_id":"7653034932","tag":{"amenity":"waste_basket"}},"type":"Feature"}
]
}
