{
"type": "FeatureCollection",
"features": [
	{"geometry":{"coordinates":[13.750344,50.764589],"type":"Point"},"properties":{"osm_id":"1965429840","tag":{"amenity":"recycling","recycling:clothes":"yes","recycling:glass_bottles":"yes","recycling_type":"container"}},"type":"Feature"},
	{"geometry":{"coordinates":[13.763391,50.736661],"type":"Point"},"properties":{"osm_id":"2132551060","tag":{"amenity":"recycling","recycling:clothes":"yes","recycling:glass":"yes","recycling_type":"container"}},"type":"Feature"},
	{"geometry":{"coordinates":[13.747855,50.781349],"type":"Point"},"properties":{"osm_id":"2316216098","tag":{"amenity":"recycling","recycling:glass":"yes"}},"type":"Feature"},
	{"geometry":{"coordinates":[13.761836,50.763756],"type":"Point"},"properties":{"osm_id":"2424615327","tag":{"amenity":"recycling","recycling:clothes":"yes","recycling:glass_bottles":"yes","recycling_type":"container"}},"type":"Feature"},
	{"geometry":{"coordinates":[13.754386,50.765926],"type":"Point"},"properties":{"osm_id":"2533435627","tag":{"amenity":"waste_basket"}},"type":"Feature"},
	{"geometry":{"coordinates":[13.753077,50.767484],"type":"Point"},"properties":{"osm_id":"2566442106","tag":{"amenity":"recycling","recycling:clothes":"yes","recycling:glass":"yes","recycling_type":"container"}},"type":"Feature"},
	{"geometry":{"coordinates":[13.75172,50.767686],"type":"Point"},"properties":{"osm_id":"2566442135","tag":{"amenity":"waste_disposal"}},"type":"Feature"},
	{"geometry":{"coordinates":[13.750796,50.767879],"type":"Point"},"properties":{"osm_id":"2566442160","tag":{"amenity":"waste_disposal"}},"type":"Feature"},
	{"geometry":{"coordinates":[13.752478,50.768],"type":"Point"},"properties":{"osm_id":"2566442186","tag":{"amenity":"waste_disposal"}},"type":"Feature"},
	{"geometry":{"coordinates":[13.75205,50.76808],"type":"Point"},"properties":{"osm_id":"2566442202","tag":{"amenity":"waste_disposal"}},"type":"Feature"},
	{"geometry":{"coordinates":[13.750468,50.767962],"type":"Point"},"properties":{"osm_id":"2566442218","tag":{"amenity":"waste_disposal"}},"type":"Feature"},
	{"geometry":{"coordinates":[13.751417,50.768219],"type":"Point"},"properties":{"osm_id":"2566442256","tag":{"amenity":"waste_disposal"}},"type":"Feature"},
	{"geometry":{"coordinates":[13.751053,50.768314],"type":"Point"},"properties":{"osm_id":"2566442273","tag":{"amenity":"waste_disposal"}},"type":"Feature"},
	{"geometry":{"coordinates":[13.749631,50.768329],"type":"Point"},"properties":{"osm_id":"2566442282","tag":{"amenity":"waste_disposal"}},"type":"Feature"},
	{"geometry":{"coordinates":[13.748563,50.76908],"type":"Point"},"properties":{"osm_id":"2566442332","tag":{"amenity":"waste_disposal"}},"type":"Feature"},
	{"geometry":{"coordinates":[13.748474,50.764941],"type":"Point"},"properties":{"osm_id":"2576858278","tag":{"amenity":"waste_disposal"}},"type":"Feature"},
	{"geometry":{"coordinates":[13.749024,50.764853],"type":"Point"},"properties":{"osm_id":"2576858279","tag":{"amenity":"waste_disposal"}},"type":"Feature"},
	{"geometry":{"coordinates":[13.749497,50.764989],"type":"Point"},"properties":{"osm_id":"2576858282","tag":{"amenity":"waste_disposal"}},"type":"Feature"},
	{"geometry":{"coordinates":[13.748403,50.765346],"type":"Point"},"properties":{"osm_id":"2576858288","tag":{"amenity":"waste_disposal"}},"type":"Feature"},
	{"geometry":{"coordinates":[13.749341,50.765458],"type":"Point"},"properties":{"osm_id":"2576858295","tag":{"amenity":"waste_disposal"}},"type":"Feature"},
	{"geometry":{"coordinates":[13.748908,50.765598],"type":"Point"},"properties":{"osm_id":"2576858309","tag":{"amenity":"waste_disposal"}},"type":"Feature"},
	{"geometry":{"coordinates":[13.74955,50.765631],"type":"Point"},"properties":{"osm_id":"2576858310","tag":{"amenity":"waste_disposal"}},"type":"Feature"},
	{"geometry":{"coordinates":[13.748255,50.765805],"type":"Point"},"properties":{"osm_id":"2576858333","tag":{"amenity":"waste_disposal"}},"type":"Feature"},
	{"geometry":{"coordinates":[13.747761,50.765832],"type":"Point"},"properties":{"osm_id":"2576858336","tag":{"amenity":"waste_disposal"}},"type":"Feature"},
	{"geometry":{"coordinates":[13.749399,50.766004],"type":"Point"},"properties":{"osm_id":"2576858371","tag":{"amenity":"waste_disposal"}},"type":"Feature"},
	{"geometry":{"coordinates":[13.74865,50.766206],"type":"Point"},"properties":{"osm_id":"2576858410","tag":{"amenity":"waste_disposal"}},"type":"Feature"},
	{"geometry":{"coordinates":[13.75331,50.765947],"type":"Point"},"properties":{"osm_id":"2578021851","tag":{"amenity":"waste_basket"}},"type":"Feature"},
	{"geometry":{"coordinates":[13.753454,50.766046],"type":"Point"},"properties":{"osm_id":"2578021862","tag":{"amenity":"waste_basket"}},"type":"Feature"},
	{"geometry":{"coordinates":[13.750784,50.763468],"type":"Point"},"properties":{"osm_id":"2582500268","tag":{"amenity":"waste_disposal"}},"type":"Feature"},
	{"geometry":{"coordinates":[13.749172,50.763468],"type":"Point"},"properties":{"osm_id":"2582500269","tag":{"amenity":"waste_disposal"}},"type":"Feature"},
	{"geometry":{"coordinates":[13.749132,50.763527],"type":"Point"},"properties":{"osm_id":"2582500290","tag":{"amenity":"waste_disposal"}},"type":"Feature"},
	{"geometry":{"coordinates":[13.749967,50.763809],"type":"Point"},"properties":{"osm_id":"2582500396","tag":{"amenity":"waste_disposal"}},"type":"Feature"},
	{"geometry":{"coordinates":[13.749417,50.763871],"type":"Point"},"properties":{"osm_id":"2582500439","tag":{"amenity":"waste_disposal"}},"type":"Feature"},
	{"geometry":{"coordinates":[13.7642,50.757903],"type":"Point"},"properties":{"osm_id":"2639520341","tag":{"amenity":"waste_disposal"}},"type":"Feature"},
	{"geometry":{"coordinates":[13.765426,50.760135],"type":"Point"},"properties":{"name":"Wertstoffhof","osm_id":"2639822619","tag":{"addr:city":"Altenberg","addr:country":"DE","addr:housenumber":"5a","addr:postcode":"01773","addr:street":"Zinnwalder Stra\u00c3\u009fe","amenity":"waste_disposal"}},"type":"Feature"},
	{"geometry":{"coordinates":[13.757999,50.761057],"type":"Point"},"properties":{"osm_id":"2676790534","tag":{"amenity":"waste_basket"}},"type":"Feature"},
	{"geometry":{"coordinates":[13.750034,50.768131],"type":"Point"},"properties":{"osm_id":"2954280041","tag":{"amenity":"waste_disposal"}},"type":"Feature"},
	{"geometry":{"coordinates":[13.74927,50.768581],"type":"Point"},"properties":{"osm_id":"2954280042","tag":{"amenity":"waste_disposal"}},"type":"Feature"},
	{"geometry":{"coordinates":[13.749,50.768763],"type":"Point"},"properties":{"osm_id":"2954280043","tag":{"amenity":"waste_disposal","opening_hours":"24/7"}},"type":"Feature"},
	{"geometry":{"coordinates":[13.784613,50.761196],"type":"Point"},"properties":{"osm_id":"6282940509","tag":{"amenity":"recycling","recycling:clothes":"yes","recycling:shoes":"yes","recycling_type":"container"}},"type":"Feature"},
	{"geometry":{"coordinates":[13.784756,50.76123],"type":"Point"},"properties":{"osm_id":"6282940510","tag":{"amenity":"recycling","recycling:glass_bottles":"yes","recycling:paper":"yes","recycling_type":"container"}},"type":"Feature"},
	{"geometry":{"coordinates":[13.790784,50.758322],"type":"Point"},"properties":{"osm_id":"7614588988","tag":{"amenity":"waste_basket"}},"type":"Feature"},
	{"geometry":{"coordinates":[13.755686,50.763877],"type":"Point"},"properties":{"osm_id":"7832498253","tag":{"amenity":"waste_basket","waste":"dog_excrement"}},"type":"Feature"}
]
}
