{
"type": "FeatureCollection",
"lastupdate": "2020-08-01T00:00:00Z",
"features": [
	{"geometry":{"coordinates":[13.769876,49.859407],"type":"Point"},"properties":{"osm_id":"1398204659","tag":{"amenity":"recycling","recycling:glass":"yes","recycling:paper":"yes","recycling_type":"container"}},"type":"Feature"},
	{"geometry":{"coordinates":[13.768737,49.850433],"type":"Point"},"properties":{"is_in":"Zbiroh, Plze\u00c5\u0088sk\u00c3\u00bd kraj, CZ","name":"Sb\u00c4\u009brna kovov\u00c3\u00a9ho \u00c5\u00a1rotu","osm_id":"2534844471","tag":{"addr:city":"Zbiroh","addr:conscriptionnumber":"595","addr:country":"CZ","addr:housenumber":"595","addr:postcode":"33808","addr:street":"Sl\u00e1dkova","amenity":"recycling","email":"venasrot@seznam.cz","opening_hours":"Mo-Fr 09:00-17:00, Sa 13:00-17:00","phone":"+420 606 274 696","recycling:iron":"yes","recycling:metal":"yes","recycling:scrap_metal":"yes","recycling_type":"centre","ref:ruian":"27431029","source:addr":"ruian"}},"type":"Feature"},
	{"geometry":{"coordinates":[13.721448,49.893119],"type":"Point"},"properties":{"osm_id":"2714320463","tag":{"amenity":"recycling","recycling:glass":"yes","recycling:paper":"yes","recycling:plastic":"yes","recycling_type":"container"}},"type":"Feature"},
	{"geometry":{"coordinates":[13.773222,49.859355],"type":"Point"},"properties":{"osm_id":"5372511867","tag":{"amenity":"recycling","recycling:clothes":"yes","recycling:electronics":"yes","recycling:glass":"yes","recycling:paper":"yes","recycling:plastic":"yes","recycling_type":"container"}},"type":"Feature"},
	{"geometry":{"coordinates":[13.77109,49.858015],"type":"Point"},"properties":{"osm_id":"5372522847","tag":{"amenity":"recycling","recycling:glass":"yes","recycling:paper":"yes","recycling:plastic":"yes","recycling_type":"container"}},"type":"Feature"},
	{"geometry":{"coordinates":[13.72034,49.852499],"type":"Point"},"properties":{"osm_id":"6856016683","tag":{"amenity":"recycling","recycling_type":"centre"}},"type":"Feature"},
	{"geometry":{"coordinates":[13.775582,49.850504],"type":"Point"},"properties":{"osm_id":"7541895786","tag":{"amenity":"waste_basket"}},"type":"Feature"}
]
}
