{
"type": "FeatureCollection",
"features": [
	{"geometry":{"coordinates":[13.782398,48.047806],"type":"Point"},"properties":{"osm_id":"1365676172","tag":{"amenity":"recycling"}},"type":"Feature"},
	{"geometry":{"coordinates":[13.72603,48.016843],"type":"Point"},"properties":{"osm_id":"2270072191","tag":{"amenity":"waste_basket"}},"type":"Feature"},
	{"geometry":{"coordinates":[13.729006,48.018353],"type":"Point"},"properties":{"osm_id":"2271073841","tag":{"amenity":"waste_basket"}},"type":"Feature"},
	{"geometry":{"coordinates":[13.725364,48.01694],"type":"Point"},"properties":{"osm_id":"2277760057","tag":{"amenity":"waste_basket"}},"type":"Feature"},
	{"geometry":{"coordinates":[13.724616,48.017148],"type":"Point"},"properties":{"osm_id":"2277760090","tag":{"amenity":"waste_basket"}},"type":"Feature"},
	{"geometry":{"coordinates":[13.724943,48.015075],"type":"Point"},"properties":{"osm_id":"2280027635","tag":{"amenity":"recycling","recycling:paper":"yes","recycling_type":"container"}},"type":"Feature"},
	{"geometry":{"coordinates":[13.725179,48.015233],"type":"Point"},"properties":{"highway":"street_lamp","osm_id":"2280027637","tag":{"amenity":"waste_basket","lamp:shape":"directed","lamp:support":"pole"}},"type":"Feature"},
	{"geometry":{"coordinates":[13.724479,48.015686],"type":"Point"},"properties":{"osm_id":"2280027660","tag":{"amenity":"waste_basket"}},"type":"Feature"},
	{"geometry":{"coordinates":[13.725997,48.015898],"type":"Point"},"properties":{"osm_id":"2304042444","tag":{"amenity":"recycling","recycling:paper":"yes","recycling_type":"container"}},"type":"Feature"},
	{"geometry":{"coordinates":[13.724001,48.014461],"type":"Point"},"properties":{"osm_id":"2310489090","tag":{"amenity":"waste_basket"}},"type":"Feature"},
	{"geometry":{"coordinates":[13.724288,48.014501],"type":"Point"},"properties":{"osm_id":"2310489095","tag":{"amenity":"waste_basket","check_date":"2021-02-05"}},"type":"Feature"},
	{"geometry":{"coordinates":[13.727251,48.018269],"type":"Point"},"properties":{"osm_id":"2310489358","tag":{"amenity":"recycling","recycling:paper":"yes","recycling_type":"container"}},"type":"Feature"},
	{"geometry":{"coordinates":[13.723747,48.012948],"type":"Point"},"properties":{"osm_id":"2326316623","tag":{"amenity":"recycling","recycling:paper":"yes","recycling_type":"container"}},"type":"Feature"},
	{"geometry":{"coordinates":[13.722842,48.013096],"type":"Point"},"properties":{"osm_id":"2326316648","tag":{"amenity":"recycling","recycling:paper":"yes","recycling_type":"container"}},"type":"Feature"},
	{"geometry":{"coordinates":[13.72267,48.013138],"type":"Point"},"properties":{"osm_id":"2326316659","tag":{"amenity":"waste_basket"}},"type":"Feature"},
	{"geometry":{"coordinates":[13.723306,48.013855],"type":"Point"},"properties":{"osm_id":"2326316840","tag":{"amenity":"waste_basket"}},"type":"Feature"},
	{"geometry":{"coordinates":[13.722818,48.01392],"type":"Point"},"properties":{"osm_id":"2326316861","tag":{"amenity":"waste_basket"}},"type":"Feature"},
	{"geometry":{"coordinates":[13.729411,48.019478],"type":"Point"},"properties":{"osm_id":"2345092318","tag":{"amenity":"recycling","recycling:scrap_metal":"yes","recycling_type":"container"}},"type":"Feature"},
	{"geometry":{"coordinates":[13.729728,48.019816],"type":"Point"},"properties":{"osm_id":"2345092326","tag":{"amenity":"recycling","recycling:scrap_metal":"yes","recycling_type":"container"}},"type":"Feature"},
	{"geometry":{"coordinates":[13.730929,48.021398],"type":"Point"},"properties":{"osm_id":"2345092454","tag":{"amenity":"recycling","recycling:glass":"yes","recycling:paper":"yes","recycling_type":"container"}},"type":"Feature"},
	{"geometry":{"coordinates":[13.738718,48.021655],"type":"Point"},"properties":{"osm_id":"2356344841","tag":{"amenity":"recycling","recycling:paper":"yes","recycling_type":"container"}},"type":"Feature"},
	{"geometry":{"coordinates":[13.729339,48.020556],"type":"Point"},"properties":{"osm_id":"2367933020","tag":{"amenity":"recycling","recycling:paper":"yes","recycling_type":"container"}},"type":"Feature"},
	{"geometry":{"coordinates":[13.722321,48.010741],"type":"Point"},"properties":{"osm_id":"2382470351","tag":{"amenity":"waste_basket"}},"type":"Feature"},
	{"geometry":{"coordinates":[13.722502,48.010819],"type":"Point"},"properties":{"osm_id":"2382470352","tag":{"amenity":"waste_basket"}},"type":"Feature"},
	{"geometry":{"coordinates":[13.726862,48.01636],"type":"Point"},"properties":{"osm_id":"2386837136","tag":{"amenity":"waste_basket"}},"type":"Feature"},
	{"geometry":{"coordinates":[13.728672,48.017118],"type":"Point"},"properties":{"osm_id":"2386837331","tag":{"amenity":"recycling","recycling:cans":"yes","recycling:glass_bottles":"yes","recycling:paper":"yes","recycling_type":"container"}},"type":"Feature"},
	{"geometry":{"coordinates":[13.730083,48.017651],"type":"Point"},"properties":{"osm_id":"2386837445","tag":{"amenity":"waste_basket"}},"type":"Feature"},
	{"geometry":{"coordinates":[13.731172,48.018098],"type":"Point"},"properties":{"osm_id":"2386875464","tag":{"amenity":"waste_basket"}},"type":"Feature"},
	{"geometry":{"coordinates":[13.733137,48.018063],"type":"Point"},"properties":{"osm_id":"2388736740","tag":{"amenity":"recycling","recycling:paper":"yes","recycling_type":"container"}},"type":"Feature"},
	{"geometry":{"coordinates":[13.737921,48.033428],"type":"Point"},"properties":{"osm_id":"2389013146","tag":{"amenity":"recycling","recycling:glass_bottles":"yes","recycling:paper":"yes"}},"type":"Feature"},
	{"geometry":{"coordinates":[13.724244,47.998832],"type":"Point"},"properties":{"osm_id":"2406440977","tag":{"amenity":"waste_basket"}},"type":"Feature"},
	{"geometry":{"coordinates":[13.72467,48.002684],"type":"Point"},"properties":{"osm_id":"2406441022","tag":{"amenity":"recycling","recycling:bottles":"yes","recycling:cans":"yes","recycling:paper":"yes","recycling:plastic":"yes","recycling_type":"container"}},"type":"Feature"},
	{"geometry":{"coordinates":[13.725696,48.003014],"type":"Point"},"properties":{"osm_id":"2406441028","tag":{"amenity":"waste_basket","check_date":"2021-02-20"}},"type":"Feature"},
	{"geometry":{"coordinates":[13.725552,48.004608],"type":"Point"},"properties":{"osm_id":"2406441048","tag":{"amenity":"waste_basket","source:location":"geoimage.at"}},"type":"Feature"},
	{"geometry":{"coordinates":[13.73029,47.998058],"type":"Point"},"properties":{"osm_id":"2407117027","tag":{"amenity":"waste_basket"}},"type":"Feature"},
	{"geometry":{"coordinates":[13.732121,48.016506],"type":"Point"},"properties":{"osm_id":"2420288036","tag":{"amenity":"recycling","buildt":"2008","colour":"blue","inscription":"Altkleidersammelbox","operator":".A.S.A. Abfall Service AG","phone":"+43-732-301010","recycling:clothes":"yes","recycling:shoes":"yes","recycling_type":"container","website":"http://www.asa-group.com/de/Osterreich.asa"}},"type":"Feature"},
	{"geometry":{"coordinates":[13.71419,47.998046],"type":"Point"},"properties":{"osm_id":"2429451433","tag":{"amenity":"waste_basket","source:location":"geoimage.at"}},"type":"Feature"},
	{"geometry":{"coordinates":[13.71333,47.998181],"type":"Point"},"properties":{"osm_id":"2429451452","tag":{"amenity":"waste_basket"}},"type":"Feature"},
	{"geometry":{"coordinates":[13.714497,47.998212],"type":"Point"},"properties":{"osm_id":"2429451458","tag":{"amenity":"waste_basket","source:location":"geoimage.at"}},"type":"Feature"},
	{"geometry":{"coordinates":[13.714808,47.998364],"type":"Point"},"properties":{"osm_id":"2429451467","tag":{"amenity":"waste_basket","source:location":"geoimage.at"}},"type":"Feature"},
	{"geometry":{"coordinates":[13.716407,48.003881],"type":"Point"},"properties":{"osm_id":"2429451486","tag":{"amenity":"waste_basket"}},"type":"Feature"},
	{"geometry":{"coordinates":[13.716339,48.004059],"type":"Point"},"properties":{"osm_id":"2429451491","tag":{"amenity":"waste_basket"}},"type":"Feature"},
	{"geometry":{"coordinates":[13.717101,48.006944],"type":"Point"},"properties":{"osm_id":"2429451515","tag":{"amenity":"waste_basket"}},"type":"Feature"},
	{"geometry":{"coordinates":[13.716456,48.007289],"type":"Point"},"properties":{"osm_id":"2429451544","tag":{"amenity":"waste_basket"}},"type":"Feature"},
	{"geometry":{"coordinates":[13.716359,47.998134],"type":"Point"},"properties":{"osm_id":"2429522082","tag":{"amenity":"waste_basket","source:location":"geoimage.at"}},"type":"Feature"},
	{"geometry":{"coordinates":[13.716568,47.998177],"type":"Point"},"properties":{"osm_id":"2429522093","tag":{"amenity":"waste_basket","source:location":"geoimage.at"}},"type":"Feature"},
	{"geometry":{"coordinates":[13.716946,47.998319],"type":"Point"},"properties":{"osm_id":"2429522118","tag":{"amenity":"waste_basket","source:location":"geoimage.at"}},"type":"Feature"},
	{"geometry":{"coordinates":[13.716915,47.998617],"type":"Point"},"properties":{"osm_id":"2429522137","tag":{"amenity":"waste_basket","source:location":"geoimage.at"}},"type":"Feature"},
	{"geometry":{"coordinates":[13.71601,47.998401],"type":"Point"},"properties":{"osm_id":"2430578380","tag":{"amenity":"waste_basket","source:location":"geoimage.at"}},"type":"Feature"},
	{"geometry":{"coordinates":[13.716346,47.998801],"type":"Point"},"properties":{"osm_id":"2430578394","tag":{"amenity":"waste_basket","source:location":"geoimage.at"}},"type":"Feature"},
	{"geometry":{"coordinates":[13.713815,47.997825],"type":"Point"},"properties":{"osm_id":"2430632784","tag":{"amenity":"waste_basket"}},"type":"Feature"},
	{"geometry":{"coordinates":[13.719297,47.998638],"type":"Point"},"properties":{"osm_id":"2430632834","tag":{"amenity":"waste_basket"}},"type":"Feature"},
	{"geometry":{"coordinates":[13.715011,47.998671],"type":"Point"},"properties":{"osm_id":"2430632841","tag":{"amenity":"waste_basket","source:location":"geoimage.at"}},"type":"Feature"},
	{"geometry":{"coordinates":[13.718762,47.998679],"type":"Point"},"properties":{"osm_id":"2430632843","tag":{"amenity":"waste_basket"}},"type":"Feature"},
	{"geometry":{"coordinates":[13.715659,47.998782],"type":"Point"},"properties":{"osm_id":"2430632853","tag":{"amenity":"waste_basket"}},"type":"Feature"},
	{"geometry":{"coordinates":[13.714511,47.998797],"type":"Point"},"properties":{"osm_id":"2430632855","tag":{"amenity":"waste_basket"}},"type":"Feature"},
	{"geometry":{"coordinates":[13.716147,47.999071],"type":"Point"},"properties":{"osm_id":"2430632878","tag":{"amenity":"waste_basket"}},"type":"Feature"},
	{"geometry":{"coordinates":[13.716211,47.999083],"type":"Point"},"properties":{"osm_id":"2430632881","tag":{"amenity":"waste_basket"}},"type":"Feature"},
	{"geometry":{"coordinates":[13.715893,47.999267],"type":"Point"},"properties":{"osm_id":"2430632886","tag":{"amenity":"waste_basket"}},"type":"Feature"},
	{"geometry":{"coordinates":[13.722841,48.008062],"type":"Point"},"properties":{"osm_id":"2430641361","tag":{"amenity":"waste_basket","source:location":"geoimage.at"}},"type":"Feature"},
	{"geometry":{"coordinates":[13.722071,48.012808],"type":"Point"},"properties":{"osm_id":"2516984928","tag":{"amenity":"waste_basket","check_date":"2021-07-06","source:location":"geoimage.at"}},"type":"Feature"},
	{"geometry":{"coordinates":[13.721529,48.011186],"type":"Point"},"properties":{"osm_id":"2518086291","tag":{"amenity":"waste_basket"}},"type":"Feature"},
	{"geometry":{"coordinates":[13.7216,48.011481],"type":"Point"},"properties":{"osm_id":"2518086371","tag":{"access":"private","amenity":"recycling","recycling:green_waste":"yes","recycling:paper":"yes","recycling:plastic":"yes","recycling_type":"container"}},"type":"Feature"},
	{"geometry":{"coordinates":[13.721177,48.011493],"type":"Point"},"properties":{"osm_id":"2518086377","tag":{"amenity":"recycling","recycling:paper":"yes","recycling_type":"container"}},"type":"Feature"},
	{"geometry":{"coordinates":[13.721879,48.010837],"type":"Point"},"properties":{"osm_id":"2519315997","tag":{"amenity":"waste_basket"}},"type":"Feature"},
	{"geometry":{"coordinates":[13.722202,48.010934],"type":"Point"},"properties":{"osm_id":"2519316024","tag":{"amenity":"waste_basket"}},"type":"Feature"},
	{"geometry":{"coordinates":[13.721945,48.010956],"type":"Point"},"properties":{"osm_id":"2519316027","tag":{"amenity":"waste_basket"}},"type":"Feature"},
	{"geometry":{"coordinates":[13.722277,48.011009],"type":"Point"},"properties":{"osm_id":"2519316030","tag":{"amenity":"waste_basket"}},"type":"Feature"},
	{"geometry":{"coordinates":[13.722678,48.011168],"type":"Point"},"properties":{"highway":"street_lamp","osm_id":"2519316041","tag":{"amenity":"waste_basket","lamp:shape":"cylindrical","lamp:support":"pole","source:location":"geoimage.at"}},"type":"Feature"},
	{"geometry":{"coordinates":[13.722436,48.011486],"type":"Point"},"properties":{"highway":"street_lamp","osm_id":"2519316065","tag":{"amenity":"waste_basket","lamp:shape":"cylindrical","lamp:support":"pole","source:location":"geoimage.at"}},"type":"Feature"},
	{"geometry":{"coordinates":[13.722284,48.011514],"type":"Point"},"properties":{"osm_id":"2519316070","tag":{"amenity":"waste_basket","capacity":"58"}},"type":"Feature"},
	{"geometry":{"coordinates":[13.722224,48.01174],"type":"Point"},"properties":{"highway":"street_lamp","osm_id":"2519316105","tag":{"amenity":"waste_basket","lamp:shape":"cylindrical","lamp:support":"pole","source:location":"geoimage.at"}},"type":"Feature"},
	{"geometry":{"coordinates":[13.722205,48.011742],"type":"Point"},"properties":{"osm_id":"2519316112","tag":{"amenity":"waste_basket","source:location":"geoimage.at"}},"type":"Feature"},
	{"geometry":{"coordinates":[13.721233,48.011609],"type":"Point"},"properties":{"highway":"street_lamp","osm_id":"2521426859","tag":{"amenity":"waste_basket","lamp:shape":"cylindrical","lamp:support":"pole","source:location":"geoimage.at"}},"type":"Feature"},
	{"geometry":{"coordinates":[13.720124,48.017062],"type":"Point"},"properties":{"osm_id":"2554930272","tag":{"amenity":"waste_basket"}},"type":"Feature"},
	{"geometry":{"coordinates":[13.720148,48.017142],"type":"Point"},"properties":{"osm_id":"2554930279","tag":{"amenity":"waste_basket","check_date":"2021-02-05"}},"type":"Feature"},
	{"geometry":{"coordinates":[13.72188,48.019458],"type":"Point"},"properties":{"osm_id":"2554930426","tag":{"amenity":"waste_basket","check_date":"2021-02-20"}},"type":"Feature"},
	{"geometry":{"coordinates":[13.722155,48.010491],"type":"Point"},"properties":{"osm_id":"2588536351","tag":{"amenity":"recycling","capacity:container":"2","recycling:paper":"yes","recycling_type":"container"}},"type":"Feature"},
	{"geometry":{"coordinates":[13.720315,48.010787],"type":"Point"},"properties":{"osm_id":"2625437041","tag":{"amenity":"waste_basket"}},"type":"Feature"},
	{"geometry":{"coordinates":[13.720903,48.011364],"type":"Point"},"properties":{"osm_id":"2625437072","tag":{"amenity":"waste_basket","source:location":"geoimage.at"}},"type":"Feature"},
	{"geometry":{"coordinates":[13.720005,48.010415],"type":"Point"},"properties":{"osm_id":"2626501029","tag":{"amenity":"waste_basket","source:location":"geoimage.at"}},"type":"Feature"},
	{"geometry":{"coordinates":[13.720108,48.010332],"type":"Point"},"properties":{"osm_id":"2640311939","tag":{"amenity":"waste_basket"}},"type":"Feature"},
	{"geometry":{"coordinates":[13.719664,48.009877],"type":"Point"},"properties":{"osm_id":"2654658342","tag":{"amenity":"waste_basket"}},"type":"Feature"},
	{"geometry":{"coordinates":[13.719034,48.009585],"type":"Point"},"properties":{"osm_id":"2734784957","tag":{"amenity":"waste_basket"}},"type":"Feature"},
	{"geometry":{"coordinates":[13.718798,48.009023],"type":"Point"},"properties":{"osm_id":"2793804961","tag":{"amenity":"waste_basket"}},"type":"Feature"},
	{"geometry":{"coordinates":[13.718596,48.009121],"type":"Point"},"properties":{"osm_id":"2793804991","tag":{"amenity":"waste_basket"}},"type":"Feature"},
	{"geometry":{"coordinates":[13.720995,48.012431],"type":"Point"},"properties":{"osm_id":"2904663413","tag":{"amenity":"waste_basket","indoor":"yes","level":"-1"}},"type":"Feature"},
	{"geometry":{"coordinates":[13.711395,48.00582],"type":"Point"},"properties":{"osm_id":"2978239727","tag":{"amenity":"waste_basket","indoor":"yes"}},"type":"Feature"},
	{"geometry":{"coordinates":[13.728023,47.997631],"type":"Point"},"properties":{"osm_id":"3678002009","tag":{"amenity":"recycling","recycling_type":"container"}},"type":"Feature"},
	{"geometry":{"coordinates":[13.728244,47.9977],"type":"Point"},"properties":{"osm_id":"3678002013","tag":{"amenity":"recycling","recycling_type":"container"}},"type":"Feature"},
	{"geometry":{"coordinates":[13.714014,47.999942],"type":"Point"},"properties":{"osm_id":"3857467466","tag":{"amenity":"waste_basket"}},"type":"Feature"},
	{"geometry":{"coordinates":[13.724827,48.020463],"type":"Point"},"properties":{"osm_id":"3890836301","tag":{"amenity":"waste_basket"}},"type":"Feature"},
	{"geometry":{"coordinates":[13.725055,48.02055],"type":"Point"},"properties":{"highway":"street_lamp","osm_id":"3890836303","tag":{"amenity":"waste_basket"}},"type":"Feature"},
	{"geometry":{"coordinates":[13.725789,48.020649],"type":"Point"},"properties":{"osm_id":"3890836307","tag":{"amenity":"waste_basket"}},"type":"Feature"},
	{"geometry":{"coordinates":[13.761504,48.047745],"type":"Point"},"properties":{"osm_id":"3953658051","tag":{"amenity":"waste_basket"}},"type":"Feature"},
	{"geometry":{"coordinates":[13.711394,48.004733],"type":"Point"},"properties":{"osm_id":"4007045332","tag":{"amenity":"recycling","recycling_type":"container"}},"type":"Feature"},
	{"geometry":{"coordinates":[13.711889,48.005908],"type":"Point"},"properties":{"osm_id":"4441836046","tag":{"amenity":"waste_basket","check_date":"2021-01-18"}},"type":"Feature"},
	{"geometry":{"coordinates":[13.724203,48.013186],"type":"Point"},"properties":{"osm_id":"5862272157","tag":{"amenity":"waste_basket"}},"type":"Feature"},
	{"geometry":{"coordinates":[13.724196,48.013157],"type":"Point"},"properties":{"osm_id":"5862272158","tag":{"amenity":"recycling","recycling_type":"container"}},"type":"Feature"},
	{"geometry":{"coordinates":[13.724224,48.013176],"type":"Point"},"properties":{"osm_id":"5862272159","tag":{"amenity":"recycling","recycling_type":"container"}},"type":"Feature"},
	{"geometry":{"coordinates":[13.716121,48.020364],"type":"Point"},"properties":{"osm_id":"8342916236","tag":{"amenity":"waste_basket","material":"metal"}},"type":"Feature"}
]
}
