{
"type": "FeatureCollection",
"features": [
	{"geometry":{"coordinates":[13.769439,47.802872],"type":"Point"},"properties":{"osm_id":"393889931","tag":{"amenity":"recycling","recycling:cans":"yes","recycling:glass":"yes","recycling:paper":"yes","recycling_type":"container"}},"type":"Feature"},
	{"geometry":{"coordinates":[13.77503,47.796294],"type":"Point"},"properties":{"name":"Altstoff Sammelzentrum","osm_id":"639371933","tag":{"amenity":"recycling","at_bev:addr_date":"2021-04-01","collection_times":"We 13:00-17:00; Fr 08:00-18:00; Sa 08:00-12:00","contact:phone":"06133 79299","contact:website":"www.altstoffsammelzentrum.at","recycling:batteries":"yes","recycling:cans":"yes","recycling:clothes":"yes","recycling:glass":"yes","recycling:paper":"yes","recycling:scrap_metal":"yes","recycling_type":"centre"}},"type":"Feature"},
	{"geometry":{"coordinates":[13.774489,47.811706],"type":"Point"},"properties":{"osm_id":"651154508","tag":{"amenity":"recycling","recycling:glass":"yes"}},"type":"Feature"},
	{"geometry":{"coordinates":[13.773063,47.8129],"type":"Point"},"properties":{"osm_id":"670129884","tag":{"amenity":"waste_basket"}},"type":"Feature"},
	{"geometry":{"coordinates":[13.773544,47.812846],"type":"Point"},"properties":{"osm_id":"670129911","tag":{"amenity":"waste_basket"}},"type":"Feature"},
	{"geometry":{"coordinates":[13.773642,47.813093],"type":"Point"},"properties":{"osm_id":"670129919","tag":{"amenity":"waste_basket"}},"type":"Feature"},
	{"geometry":{"coordinates":[13.772046,47.810952],"type":"Point"},"properties":{"osm_id":"685990566","tag":{"amenity":"waste_basket"}},"type":"Feature"},
	{"geometry":{"coordinates":[13.772291,47.811616],"type":"Point"},"properties":{"osm_id":"685990576","tag":{"amenity":"waste_basket"}},"type":"Feature"},
	{"geometry":{"coordinates":[13.789978,47.808759],"type":"Point"},"properties":{"osm_id":"1874814517","tag":{"amenity":"recycling","recycling:cans":"no","recycling:glass":"yes","recycling:scrap_metal":"yes"}},"type":"Feature"},
	{"geometry":{"coordinates":[13.772548,47.807901],"type":"Point"},"properties":{"osm_id":"1876810858","tag":{"amenity":"waste_basket"}},"type":"Feature"},
	{"geometry":{"coordinates":[13.764299,47.788088],"type":"Point"},"properties":{"osm_id":"2327332972","tag":{"amenity":"waste_basket"}},"type":"Feature"},
	{"geometry":{"coordinates":[13.772345,47.794897],"type":"Point"},"properties":{"osm_id":"2327332979","tag":{"amenity":"waste_basket"}},"type":"Feature"},
	{"geometry":{"coordinates":[13.772315,47.794875],"type":"Point"},"properties":{"osm_id":"2328889552","tag":{"amenity":"recycling","recycling:scrap_metal":"yes","recycling_type":"container"}},"type":"Feature"},
	{"geometry":{"coordinates":[13.772332,47.794887],"type":"Point"},"properties":{"osm_id":"2328889553","tag":{"amenity":"recycling","recycling:glass":"yes","recycling_type":"container"}},"type":"Feature"},
	{"geometry":{"coordinates":[13.772398,47.794938],"type":"Point"},"properties":{"osm_id":"2328889554","tag":{"amenity":"recycling","recycling:paper":"yes","recycling_type":"container"}},"type":"Feature"},
	{"geometry":{"coordinates":[13.787081,47.80754],"type":"Point"},"properties":{"osm_id":"2328941000","tag":{"amenity":"waste_basket"}},"type":"Feature"},
	{"geometry":{"coordinates":[13.780757,47.807626],"type":"Point"},"properties":{"osm_id":"2328941009","tag":{"entrance":"yes"}},"type":"Feature"},
	{"geometry":{"coordinates":[13.779836,47.808336],"type":"Point"},"properties":{"osm_id":"2328941025","tag":{"amenity":"recycling","operator":"Pfarre Ebensee","recycling:paper":"yes","recycling_type":"container"}},"type":"Feature"},
	{"geometry":{"coordinates":[13.77543,47.810217],"type":"Point"},"properties":{"osm_id":"2328941076","tag":{"amenity":"waste_basket"}},"type":"Feature"},
	{"geometry":{"coordinates":[13.770368,47.803658],"type":"Point"},"properties":{"osm_id":"2334008493","tag":{"amenity":"recycling","recycling:paper":"yes","recycling_type":"container"}},"type":"Feature"},
	{"geometry":{"coordinates":[13.759276,47.787426],"type":"Point"},"properties":{"osm_id":"2336695972","tag":{"amenity":"recycling","recycling:cans":"yes","recycling_type":"container"}},"type":"Feature"},
	{"geometry":{"coordinates":[13.759307,47.787439],"type":"Point"},"properties":{"osm_id":"2336695976","tag":{"amenity":"recycling","recycling:paper":"yes","recycling_type":"container"}},"type":"Feature"},
	{"geometry":{"coordinates":[13.759259,47.787446],"type":"Point"},"properties":{"osm_id":"2336695977","tag":{"amenity":"recycling","recycling:glass":"yes","recycling_type":"container"}},"type":"Feature"},
	{"geometry":{"coordinates":[13.758862,47.787748],"type":"Point"},"properties":{"osm_id":"2336696004","tag":{"amenity":"waste_basket"}},"type":"Feature"},
	{"geometry":{"coordinates":[13.760249,47.784895],"type":"Point"},"properties":{"osm_id":"2337735774","tag":{"amenity":"waste_basket"}},"type":"Feature"},
	{"geometry":{"coordinates":[13.764181,47.788074],"type":"Point"},"properties":{"osm_id":"2337735795","tag":{"amenity":"recycling","recycling:scrap_metal":"yes","recycling_type":"container"}},"type":"Feature"},
	{"geometry":{"coordinates":[13.770772,47.809726],"type":"Point"},"properties":{"osm_id":"2437723243","tag":{"amenity":"waste_basket","source:location":"geoimage.at"}},"type":"Feature"},
	{"geometry":{"coordinates":[13.716647,47.766181],"type":"Point"},"properties":{"osm_id":"3663333551","tag":{"amenity":"recycling","recycling:glass":"yes","recycling:scrap_metal":"yes","recycling_type":"container"}},"type":"Feature"},
	{"geometry":{"coordinates":[13.795891,47.804268],"type":"Point"},"properties":{"osm_id":"6643114265","tag":{"amenity":"recycling","recycling:glass_bottles":"yes","recycling:scrap_metal":"yes","recycling_type":"container"}},"type":"Feature"}
]
}
