{
"type": "FeatureCollection",
"features": [
	{"geometry":{"coordinates":[13.767194,43.108074],"type":"Point"},"properties":{"osm_id":"3172070401","tag":{"addr:city":"Lapedona","addr:postcode":"63823","addr:street":"Via San Quirico","amenity":"recycling","recycling:cans":"no","recycling:clothes":"no","recycling:glass":"yes","recycling:paper":"yes","recycling:plastic":"yes","recycling_type":"container"}},"type":"Feature"},
	{"geometry":{"coordinates":[13.769255,43.108782],"type":"Point"},"properties":{"osm_id":"3172070402","tag":{"addr:city":"Lapedona","addr:postcode":"63823","addr:street":"Via San Quirico","amenity":"recycling","recycling:cans":"no","recycling:clothes":"no","recycling:glass":"no","recycling:paper":"yes","recycling:plastic":"yes","recycling_type":"container"}},"type":"Feature"},
	{"geometry":{"coordinates":[13.772569,43.109505],"type":"Point"},"properties":{"osm_id":"3172070403","tag":{"addr:city":"Lapedona","addr:postcode":"63823","addr:street":"Borgo Castellano","amenity":"recycling","recycling:cans":"no","recycling:clothes":"no","recycling:glass":"yes","recycling:paper":"yes","recycling:plastic":"yes","recycling_type":"container"}},"type":"Feature"},
	{"geometry":{"coordinates":[13.774404,43.110046],"type":"Point"},"properties":{"osm_id":"3172070404","tag":{"addr:city":"Lapedona","addr:postcode":"63823","addr:street":"Via XXIV Maggio","amenity":"recycling","recycling:batteries":"yes","recycling:cans":"no","recycling:clothes":"no","recycling:glass":"yes","recycling:paper":"yes","recycling:plastic":"yes","recycling_type":"container"}},"type":"Feature"},
	{"geometry":{"coordinates":[13.750705,43.105465],"type":"Point"},"properties":{"osm_id":"3172070405","tag":{"addr:city":"Lapedona","addr:postcode":"63823","addr:street":"Via Madonna Bruna","amenity":"recycling","recycling:cans":"no","recycling:clothes":"no","recycling:glass":"yes","recycling:paper":"yes","recycling:plastic":"yes","recycling_type":"container"}},"type":"Feature"}
]
}
