{
"type": "FeatureCollection",
"features": [
	{"geometry":{"coordinates":[6.395001,52.278364],"type":"Point"},"properties":{"name":"Afvalbrengpunt","osm_id":"2771946705","tag":{"addr:city":"Holten","addr:housenumber":"14","addr:postcode":"7451PN","addr:street":"Montageweg","amenity":"recycling","operator":"Gemeente Rijssen-Holten","recycling_type":"centre","source:date":"2014-03-24"}},"type":"Feature"},
	{"geometry":{"coordinates":[6.414703,52.280602],"type":"Point"},"properties":{"osm_id":"3269690654","tag":{"amenity":"waste_basket"}},"type":"Feature"},
	{"geometry":{"coordinates":[6.399116,52.270481],"type":"Point"},"properties":{"osm_id":"3450478754","tag":{"amenity":"waste_basket"}},"type":"Feature"},
	{"geometry":{"coordinates":[6.351452,52.320157],"type":"Point"},"properties":{"osm_id":"3592963928","tag":{"amenity":"waste_basket"}},"type":"Feature"},
	{"geometry":{"coordinates":[6.405739,52.284968],"type":"Point"},"properties":{"osm_id":"3617751976","tag":{"amenity":"waste_basket"}},"type":"Feature"},
	{"geometry":{"coordinates":[6.408609,52.277313],"type":"Point"},"properties":{"osm_id":"3618171967","tag":{"amenity":"waste_basket"}},"type":"Feature"},
	{"geometry":{"coordinates":[6.406274,52.282035],"type":"Point"},"properties":{"osm_id":"3733537952","tag":{"amenity":"waste_basket"}},"type":"Feature"},
	{"geometry":{"coordinates":[6.406098,52.282161],"type":"Point"},"properties":{"osm_id":"3733537953","tag":{"amenity":"waste_basket"}},"type":"Feature"},
	{"geometry":{"coordinates":[6.396927,52.29558],"type":"Point"},"properties":{"osm_id":"3785808358","tag":{"amenity":"waste_basket"}},"type":"Feature"},
	{"geometry":{"coordinates":[6.389423,52.312198],"type":"Point"},"properties":{"osm_id":"4311523466","tag":{"amenity":"waste_basket"}},"type":"Feature"},
	{"geometry":{"coordinates":[6.365213,52.312249],"type":"Point"},"properties":{"osm_id":"6466640343","tag":{"amenity":"waste_basket","waste":"trash"}},"type":"Feature"},
	{"geometry":{"coordinates":[6.3677,52.310702],"type":"Point"},"properties":{"osm_id":"6466640349","tag":{"amenity":"waste_basket","waste":"trash"}},"type":"Feature"},
	{"geometry":{"coordinates":[6.363704,52.307829],"type":"Point"},"properties":{"osm_id":"6750121108","tag":{"amenity":"waste_basket","waste":"trash"}},"type":"Feature"},
	{"geometry":{"coordinates":[6.410792,52.275818],"type":"Point"},"properties":{"osm_id":"6979763838","tag":{"amenity":"waste_basket"}},"type":"Feature"}
]
}
