{
"type": "FeatureCollection",
"features": [
	{"geometry":{"coordinates":[6.333513,52.25013],"type":"Point"},"properties":{"osm_id":"3450478732","tag":{"amenity":"waste_basket"}},"type":"Feature"},
	{"geometry":{"coordinates":[6.368992,52.259005],"type":"Point"},"properties":{"osm_id":"3450478738","tag":{"amenity":"waste_basket"}},"type":"Feature"},
	{"geometry":{"coordinates":[6.370222,52.260365],"type":"Point"},"properties":{"osm_id":"3450478740","tag":{"amenity":"waste_basket"}},"type":"Feature"},
	{"geometry":{"coordinates":[6.346181,52.266141],"type":"Point"},"properties":{"osm_id":"3472687378","tag":{"amenity":"waste_basket"}},"type":"Feature"},
	{"geometry":{"coordinates":[6.390473,52.248813],"type":"Point"},"properties":{"osm_id":"3498878572","tag":{"amenity":"waste_basket"}},"type":"Feature"},
	{"geometry":{"coordinates":[6.347207,52.242446],"type":"Point"},"properties":{"osm_id":"3499063344","tag":{"amenity":"waste_basket"}},"type":"Feature"},
	{"geometry":{"coordinates":[6.331162,52.25634],"type":"Point"},"properties":{"osm_id":"3617751967","tag":{"amenity":"waste_basket"}},"type":"Feature"},
	{"geometry":{"coordinates":[6.377309,52.249315],"type":"Point"},"properties":{"osm_id":"3625543962","tag":{"amenity":"waste_basket"}},"type":"Feature"},
	{"geometry":{"coordinates":[6.359721,52.251977],"type":"Point"},"properties":{"osm_id":"3625543963","tag":{"amenity":"waste_basket"}},"type":"Feature"},
	{"geometry":{"coordinates":[6.354258,52.253905],"type":"Point"},"properties":{"osm_id":"3625543965","tag":{"amenity":"waste_basket"}},"type":"Feature"},
	{"geometry":{"coordinates":[6.391819,52.220187],"type":"Point"},"properties":{"osm_id":"3665886834","tag":{"amenity":"waste_basket"}},"type":"Feature"},
	{"geometry":{"coordinates":[6.392197,52.222262],"type":"Point"},"properties":{"osm_id":"3665940271","tag":{"amenity":"waste_basket"}},"type":"Feature"},
	{"geometry":{"coordinates":[6.405634,52.23339],"type":"Point"},"properties":{"osm_id":"3679154143","tag":{"amenity":"waste_basket"}},"type":"Feature"},
	{"geometry":{"coordinates":[6.405619,52.233514],"type":"Point"},"properties":{"osm_id":"3679154146","tag":{"amenity":"waste_basket"}},"type":"Feature"},
	{"geometry":{"coordinates":[6.351943,52.238364],"type":"Point"},"properties":{"osm_id":"4324381418","tag":{"amenity":"waste_basket"}},"type":"Feature"},
	{"geometry":{"coordinates":[6.347102,52.250247],"type":"Point"},"properties":{"osm_id":"4618586510","tag":{"amenity":"waste_basket"}},"type":"Feature"},
	{"geometry":{"coordinates":[6.346787,52.22334],"type":"Point"},"properties":{"osm_id":"5048449900","tag":{"amenity":"waste_basket"}},"type":"Feature"},
	{"geometry":{"coordinates":[6.371561,52.253411],"type":"Point"},"properties":{"osm_id":"5254593093","tag":{"amenity":"waste_basket"}},"type":"Feature"},
	{"geometry":{"coordinates":[6.344417,52.217636],"type":"Point"},"properties":{"osm_id":"6781035002","tag":{"amenity":"waste_disposal"}},"type":"Feature"},
	{"geometry":{"coordinates":[6.344363,52.217596],"type":"Point"},"properties":{"osm_id":"6781035008","tag":{"amenity":"recycling","recycling:glass":"yes","recycling:glass_bottles":"yes","recycling_type":"container"}},"type":"Feature"},
	{"geometry":{"coordinates":[6.345291,52.217421],"type":"Point"},"properties":{"osm_id":"6781068927","tag":{"amenity":"waste_basket","waste":"trash"}},"type":"Feature"},
	{"geometry":{"coordinates":[6.347494,52.217448],"type":"Point"},"properties":{"osm_id":"6781068931","tag":{"amenity":"waste_basket","waste":"trash"}},"type":"Feature"},
	{"geometry":{"coordinates":[6.34566,52.217585],"type":"Point"},"properties":{"osm_id":"6781068932","tag":{"amenity":"waste_basket","waste":"trash"}},"type":"Feature"},
	{"geometry":{"coordinates":[6.347093,52.216883],"type":"Point"},"properties":{"osm_id":"6794886809","tag":{"amenity":"waste_basket","waste":"trash"}},"type":"Feature"},
	{"geometry":{"coordinates":[6.346258,52.218054],"type":"Point"},"properties":{"osm_id":"6794886814","tag":{"amenity":"recycling","recycling:glass":"yes","recycling:glass_bottles":"yes","recycling_type":"container"}},"type":"Feature"},
	{"geometry":{"coordinates":[6.346247,52.218049],"type":"Point"},"properties":{"osm_id":"6794886832","tag":{"amenity":"recycling","recycling:paper":"yes","recycling_type":"container"}},"type":"Feature"},
	{"geometry":{"coordinates":[6.346272,52.218059],"type":"Point"},"properties":{"osm_id":"6794886837","tag":{"amenity":"waste_basket","waste":"trash"}},"type":"Feature"},
	{"geometry":{"coordinates":[6.347416,52.217643],"type":"Point"},"properties":{"osm_id":"6795231974","tag":{"amenity":"waste_basket","waste":"trash"}},"type":"Feature"},
	{"geometry":{"coordinates":[6.345117,52.219214],"type":"Point"},"properties":{"osm_id":"6795238488","tag":{"amenity":"waste_basket","waste":"trash"}},"type":"Feature"},
	{"geometry":{"coordinates":[6.346548,52.216637],"type":"Point"},"properties":{"osm_id":"6795300364","tag":{"amenity":"waste_basket","waste":"trash"}},"type":"Feature"},
	{"geometry":{"coordinates":[6.344297,52.217351],"type":"Point"},"properties":{"osm_id":"6795320093","tag":{"amenity":"waste_basket","waste":"trash"}},"type":"Feature"},
	{"geometry":{"coordinates":[6.347792,52.216401],"type":"Point"},"properties":{"osm_id":"6795408476","tag":{"amenity":"waste_basket","waste":"trash"}},"type":"Feature"},
	{"geometry":{"coordinates":[6.348658,52.216483],"type":"Point"},"properties":{"osm_id":"6815691637","tag":{"amenity":"recycling","recycling:paper":"yes","recycling_type":"container"}},"type":"Feature"},
	{"geometry":{"coordinates":[6.348653,52.216477],"type":"Point"},"properties":{"osm_id":"6815691638","tag":{"amenity":"recycling","recycling:glass":"yes","recycling_type":"container"}},"type":"Feature"},
	{"geometry":{"coordinates":[6.34865,52.216471],"type":"Point"},"properties":{"osm_id":"6815691639","tag":{"amenity":"waste_basket"}},"type":"Feature"}
]
}
