{
"type": "FeatureCollection",
"features": [
	{"geometry":{"coordinates":[6.401656,52.160252],"type":"Point"},"properties":{"osm_id":"1605546923","tag":{"amenity":"waste_basket"}},"type":"Feature"},
	{"geometry":{"coordinates":[6.381062,52.142946],"type":"Point"},"properties":{"osm_id":"3265456036","tag":{"amenity":"recycling","recycling_type":"container"}},"type":"Feature"},
	{"geometry":{"coordinates":[6.330155,52.157423],"type":"Point"},"properties":{"osm_id":"3486557435","tag":{"amenity":"waste_basket"}},"type":"Feature"},
	{"geometry":{"coordinates":[6.358717,52.154471],"type":"Point"},"properties":{"osm_id":"3486641531","tag":{"amenity":"waste_basket"}},"type":"Feature"},
	{"geometry":{"coordinates":[6.397051,52.158597],"type":"Point"},"properties":{"osm_id":"4187328421","tag":{"amenity":"waste_basket"}},"type":"Feature"},
	{"geometry":{"coordinates":[6.388706,52.111426],"type":"Point"},"properties":{"osm_id":"4251272531","tag":{"amenity":"waste_basket"}},"type":"Feature"},
	{"geometry":{"coordinates":[6.399094,52.159958],"type":"Point"},"properties":{"osm_id":"4251469003","tag":{"amenity":"waste_basket"}},"type":"Feature"},
	{"geometry":{"coordinates":[6.32915,52.109641],"type":"Point"},"properties":{"osm_id":"4838653993","tag":{"amenity":"waste_basket"}},"type":"Feature"},
	{"geometry":{"coordinates":[6.397189,52.14727],"type":"Point"},"properties":{"osm_id":"5533970907","tag":{"amenity":"waste_basket","waste":"trash"}},"type":"Feature"},
	{"geometry":{"coordinates":[6.412383,52.156997],"type":"Point"},"properties":{"osm_id":"5545223334","tag":{"amenity":"waste_basket","waste":"trash"}},"type":"Feature"},
	{"geometry":{"coordinates":[6.412885,52.152225],"type":"Point"},"properties":{"osm_id":"5545223350","tag":{"amenity":"waste_basket","waste":"trash"}},"type":"Feature"},
	{"geometry":{"coordinates":[6.413378,52.147757],"type":"Point"},"properties":{"osm_id":"5545223354","tag":{"amenity":"waste_basket","waste":"trash"}},"type":"Feature"},
	{"geometry":{"coordinates":[6.410451,52.154159],"type":"Point"},"properties":{"osm_id":"5564564132","tag":{"amenity":"waste_basket","waste":"trash"}},"type":"Feature"},
	{"geometry":{"coordinates":[6.3922,52.123905],"type":"Point"},"properties":{"osm_id":"5584461449","tag":{"amenity":"waste_basket","waste":"trash"}},"type":"Feature"},
	{"geometry":{"coordinates":[6.40159,52.159996],"type":"Point"},"properties":{"osm_id":"6196348910","tag":{"amenity":"waste_basket"}},"type":"Feature"},
	{"geometry":{"coordinates":[6.39665,52.154394],"type":"Point"},"properties":{"osm_id":"6197814317","tag":{"amenity":"waste_basket"}},"type":"Feature"},
	{"geometry":{"coordinates":[6.407939,52.155001],"type":"Point"},"properties":{"osm_id":"6248165394","tag":{"amenity":"waste_basket"}},"type":"Feature"},
	{"geometry":{"coordinates":[6.404331,52.154824],"type":"Point"},"properties":{"osm_id":"6835374061","tag":{"amenity":"waste_basket"}},"type":"Feature"},
	{"geometry":{"coordinates":[6.413018,52.157346],"type":"Point"},"properties":{"name":"afval","osm_id":"7227488327","tag":{"amenity":"waste_basket"}},"type":"Feature"},
	{"geometry":{"coordinates":[6.412819,52.157578],"type":"Point"},"properties":{"name":"sfval","osm_id":"7227493220","tag":{"amenity":"waste_basket"}},"type":"Feature"}
]
}
