{
"type": "FeatureCollection",
"features": [
	{"geometry":{"coordinates":[6.411767,51.373521],"type":"Point"},"properties":{"osm_id":"334295139","tag":{"amenity":"recycling","recycling:clothes":"yes","recycling_type":"container"}},"type":"Feature"},
	{"geometry":{"coordinates":[6.408165,51.367376],"type":"Point"},"properties":{"osm_id":"364382844","tag":{"amenity":"recycling","recycling:glass_bottles":"yes","recycling_type":"container"}},"type":"Feature"},
	{"geometry":{"coordinates":[6.405745,51.372882],"type":"Point"},"properties":{"osm_id":"364382910","tag":{"amenity":"recycling","recycling:glass_bottles":"yes","recycling_type":"container"}},"type":"Feature"},
	{"geometry":{"coordinates":[6.387715,51.36931],"type":"Point"},"properties":{"osm_id":"380285096","tag":{"amenity":"recycling","recycling:glass_bottles":"yes","recycling_type":"container"}},"type":"Feature"},
	{"geometry":{"coordinates":[6.411888,51.369968],"type":"Point"},"properties":{"osm_id":"440306479","tag":{"amenity":"recycling","recycling:glass_bottles":"yes","recycling_type":"container"}},"type":"Feature"},
	{"geometry":{"coordinates":[6.411982,51.364246],"type":"Point"},"properties":{"osm_id":"471066979","tag":{"amenity":"recycling","recycling:glass_bottles":"yes","recycling_type":"container"}},"type":"Feature"},
	{"geometry":{"coordinates":[6.338417,51.356189],"type":"Point"},"properties":{"osm_id":"487093213","tag":{"amenity":"recycling","recycling:clothes":"yes","recycling:glass":"no","recycling:glass_bottles":"yes","recycling_type":"container"}},"type":"Feature"},
	{"geometry":{"coordinates":[6.414095,51.34738],"type":"Point"},"properties":{"osm_id":"851736682","tag":{"amenity":"recycling","recycling:clothes":"yes","recycling:glass_bottles":"yes","recycling_type":"container"}},"type":"Feature"},
	{"geometry":{"coordinates":[6.36131,51.366506],"type":"Point"},"properties":{"osm_id":"971919965","tag":{"amenity":"waste_basket"}},"type":"Feature"},
	{"geometry":{"coordinates":[6.362794,51.366578],"type":"Point"},"properties":{"osm_id":"971920001","tag":{"amenity":"waste_basket"}},"type":"Feature"},
	{"geometry":{"coordinates":[6.414206,51.347617],"type":"Point"},"properties":{"osm_id":"1264097667","tag":{"amenity":"recycling","recycling:clothes":"yes","recycling:glass_bottles":"yes","recycling_type":"container"}},"type":"Feature"},
	{"geometry":{"coordinates":[6.412632,51.360515],"type":"Point"},"properties":{"osm_id":"1830564675","tag":{"amenity":"recycling","recycling:glass_bottles":"yes","recycling_type":"container"}},"type":"Feature"},
	{"geometry":{"coordinates":[6.407382,51.367409],"type":"Point"},"properties":{"osm_id":"3244323032","tag":{"amenity":"waste_disposal","waste":"grey_water"}},"type":"Feature"},
	{"geometry":{"coordinates":[6.407318,51.367413],"type":"Point"},"properties":{"osm_id":"3244323033","tag":{"amenity":"waste_disposal","waste":"trash"}},"type":"Feature"},
	{"geometry":{"coordinates":[6.346437,51.346493],"type":"Point"},"properties":{"osm_id":"3667030835","tag":{"amenity":"recycling","recycling:glass":"no","recycling:glass_bottles":"yes","recycling_type":"container"}},"type":"Feature"},
	{"geometry":{"coordinates":[6.416003,51.365222],"type":"Point"},"properties":{"osm_id":"4896666224","tag":{"amenity":"waste_basket"}},"type":"Feature"},
	{"geometry":{"coordinates":[6.415687,51.364236],"type":"Point"},"properties":{"osm_id":"4896737326","tag":{"amenity":"waste_basket"}},"type":"Feature"},
	{"geometry":{"coordinates":[6.415683,51.364487],"type":"Point"},"properties":{"osm_id":"4896789222","tag":{"amenity":"waste_basket"}},"type":"Feature"},
	{"geometry":{"coordinates":[6.372289,51.35135],"type":"Point"},"properties":{"osm_id":"5110001783","tag":{"amenity":"waste_basket"}},"type":"Feature"},
	{"geometry":{"coordinates":[6.411638,51.364863],"type":"Point"},"properties":{"osm_id":"6210600910","tag":{"amenity":"waste_basket","waste":"trash"}},"type":"Feature"},
	{"geometry":{"coordinates":[6.411511,51.364827],"type":"Point"},"properties":{"osm_id":"6210600911","tag":{"amenity":"waste_basket","waste":"trash"}},"type":"Feature"},
	{"geometry":{"coordinates":[6.411717,51.364752],"type":"Point"},"properties":{"osm_id":"6210600912","tag":{"amenity":"waste_basket","waste":"trash"}},"type":"Feature"},
	{"geometry":{"coordinates":[6.411581,51.364713],"type":"Point"},"properties":{"osm_id":"6210600913","tag":{"amenity":"waste_basket","waste":"trash"}},"type":"Feature"},
	{"geometry":{"coordinates":[6.411957,51.364337],"type":"Point"},"properties":{"osm_id":"6210600914","tag":{"amenity":"waste_basket","waste":"trash"}},"type":"Feature"},
	{"geometry":{"coordinates":[6.410872,51.366741],"type":"Point"},"properties":{"osm_id":"6210661833","tag":{"amenity":"waste_basket","waste":"trash"}},"type":"Feature"},
	{"geometry":{"coordinates":[6.408468,51.367766],"type":"Point"},"properties":{"osm_id":"6211425645","tag":{"amenity":"waste_basket","waste":"trash"}},"type":"Feature"},
	{"geometry":{"coordinates":[6.408501,51.367815],"type":"Point"},"properties":{"osm_id":"6211425646","tag":{"amenity":"waste_basket","waste":"trash"}},"type":"Feature"},
	{"geometry":{"coordinates":[6.408514,51.367837],"type":"Point"},"properties":{"osm_id":"6211425647","tag":{"amenity":"waste_basket","waste":"trash"}},"type":"Feature"},
	{"geometry":{"coordinates":[6.409986,51.363507],"type":"Point"},"properties":{"osm_id":"6211572569","tag":{"amenity":"waste_basket","waste":"trash"}},"type":"Feature"}
]
}
