{
"type": "FeatureCollection",
"features": [
	{"geometry":{"coordinates":[6.393429,51.251133],"type":"Point"},"properties":{"osm_id":"321280988","tag":{"amenity":"recycling","recycling:glass_bottles":"yes","recycling_type":"container"}},"type":"Feature"},
	{"geometry":{"coordinates":[6.387576,51.265851],"type":"Point"},"properties":{"osm_id":"321295623","tag":{"amenity":"recycling","recycling:glass_bottles":"yes","recycling_type":"container"}},"type":"Feature"},
	{"geometry":{"coordinates":[6.375258,51.258021],"type":"Point"},"properties":{"osm_id":"321339660","tag":{"amenity":"recycling","recycling:glass_bottles":"yes","recycling_type":"container"}},"type":"Feature"},
	{"geometry":{"coordinates":[6.388606,51.259207],"type":"Point"},"properties":{"osm_id":"321341205","tag":{"amenity":"recycling","recycling:glass_bottles":"yes","recycling_type":"container"}},"type":"Feature"},
	{"geometry":{"coordinates":[6.36006,51.289025],"type":"Point"},"properties":{"osm_id":"345217630","tag":{"amenity":"recycling","recycling:glass_bottles":"yes","recycling_type":"container"}},"type":"Feature"},
	{"geometry":{"coordinates":[6.388036,51.256032],"type":"Point"},"properties":{"osm_id":"347049023","tag":{"amenity":"recycling","description":"Weissglass, Gr\u00c3\u00bcnglass und Braunglass, sowie 2x Altkleider","recycling:clothes":"yes","recycling:glass_bottles":"yes","recycling_type":"container"}},"type":"Feature"},
	{"geometry":{"coordinates":[6.410528,51.249578],"type":"Point"},"properties":{"osm_id":"357591392","tag":{"amenity":"recycling","recycling:glass_bottles":"yes","recycling_type":"container"}},"type":"Feature"},
	{"geometry":{"coordinates":[6.40643,51.262782],"type":"Point"},"properties":{"osm_id":"366040013","tag":{"amenity":"recycling","recycling:glass_bottles":"yes","recycling_type":"container"}},"type":"Feature"},
	{"geometry":{"coordinates":[6.390376,51.251445],"type":"Point"},"properties":{"osm_id":"370940672","tag":{"amenity":"recycling","recycling:glass_bottles":"yes","recycling_type":"container"}},"type":"Feature"},
	{"geometry":{"coordinates":[6.399273,51.251772],"type":"Point"},"properties":{"osm_id":"378241372","tag":{"amenity":"recycling","recycling:glass_bottles":"yes","recycling_type":"container"}},"type":"Feature"},
	{"geometry":{"coordinates":[6.39008,51.27182],"type":"Point"},"properties":{"osm_id":"378250343","tag":{"amenity":"recycling","recycling:glass_bottles":"yes","recycling_type":"container"}},"type":"Feature"},
	{"geometry":{"coordinates":[6.386748,51.245728],"type":"Point"},"properties":{"osm_id":"380285087","tag":{"amenity":"recycling","recycling:glass_bottles":"yes","recycling_type":"container"}},"type":"Feature"},
	{"geometry":{"coordinates":[6.397675,51.264635],"type":"Point"},"properties":{"osm_id":"380285093","tag":{"amenity":"recycling","recycling:glass_bottles":"yes","recycling_type":"container"}},"type":"Feature"},
	{"geometry":{"coordinates":[6.405425,51.244888],"type":"Point"},"properties":{"osm_id":"395241999","tag":{"amenity":"recycling","recycling:glass_bottles":"yes","recycling_type":"container"}},"type":"Feature"},
	{"geometry":{"coordinates":[6.376913,51.254097],"type":"Point"},"properties":{"osm_id":"425194153","tag":{"amenity":"recycling","recycling:glass_bottles":"yes","recycling:paper":"yes","recycling_type":"container"}},"type":"Feature"},
	{"geometry":{"coordinates":[6.395243,51.241376],"type":"Point"},"properties":{"osm_id":"428703604","tag":{"amenity":"recycling","recycling:glass_bottles":"yes","recycling_type":"container"}},"type":"Feature"},
	{"geometry":{"coordinates":[6.390769,51.237585],"type":"Point"},"properties":{"osm_id":"428712665","tag":{"amenity":"recycling","recycling:glass_bottles":"yes","recycling_type":"container"}},"type":"Feature"},
	{"geometry":{"coordinates":[6.381844,51.243432],"type":"Point"},"properties":{"osm_id":"436128658","tag":{"amenity":"recycling","recycling:glass_bottles":"yes","recycling_type":"container"}},"type":"Feature"},
	{"geometry":{"coordinates":[6.345222,51.279745],"type":"Point"},"properties":{"osm_id":"439603357","tag":{"amenity":"recycling","recycling:glass_bottles":"yes","recycling_type":"container"}},"type":"Feature"},
	{"geometry":{"coordinates":[6.345426,51.27983],"type":"Point"},"properties":{"osm_id":"439603360","tag":{"amenity":"recycling","recycling:scrap_metal":"yes","recycling_type":"container"}},"type":"Feature"},
	{"geometry":{"coordinates":[6.345535,51.279862],"type":"Point"},"properties":{"osm_id":"439603362","tag":{"amenity":"recycling","recycling:glass":"yes","recycling_type":"container"}},"type":"Feature"},
	{"geometry":{"coordinates":[6.345741,51.27989],"type":"Point"},"properties":{"osm_id":"439603365","tag":{"amenity":"recycling","recycling:paper":"yes","recycling_type":"container"}},"type":"Feature"},
	{"geometry":{"coordinates":[6.339359,51.250698],"type":"Point"},"properties":{"osm_id":"448876127","tag":{"amenity":"recycling","recycling:glass_bottles":"yes","recycling_type":"container"}},"type":"Feature"},
	{"geometry":{"coordinates":[6.347633,51.255527],"type":"Point"},"properties":{"osm_id":"472284998","tag":{"amenity":"recycling","recycling:glass_bottles":"yes","recycling_type":"container"}},"type":"Feature"},
	{"geometry":{"coordinates":[6.37304,51.285447],"type":"Point"},"properties":{"osm_id":"480704975","tag":{"amenity":"recycling","recycling:glass_bottles":"yes","recycling:paper":"yes","recycling_type":"container"}},"type":"Feature"},
	{"geometry":{"coordinates":[6.379563,51.265267],"type":"Point"},"properties":{"osm_id":"603594303","tag":{"amenity":"recycling","recycling:glass_bottles":"yes","recycling_type":"container"}},"type":"Feature"},
	{"geometry":{"coordinates":[6.396616,51.268441],"type":"Point"},"properties":{"osm_id":"728269597","tag":{"amenity":"waste_basket"}},"type":"Feature"},
	{"geometry":{"coordinates":[6.408707,51.260008],"type":"Point"},"properties":{"osm_id":"728888449","tag":{"amenity":"waste_basket"}},"type":"Feature"},
	{"geometry":{"coordinates":[6.379237,51.23855],"type":"Point"},"properties":{"osm_id":"757406726","tag":{"amenity":"recycling","recycling:glass_bottles":"yes","recycling_type":"container"}},"type":"Feature"},
	{"geometry":{"coordinates":[6.331138,51.248421],"type":"Point"},"properties":{"osm_id":"759297721","tag":{"amenity":"recycling","recycling:glass_bottles":"yes","recycling_type":"container"}},"type":"Feature"},
	{"geometry":{"coordinates":[6.35817,51.276422],"type":"Point"},"properties":{"osm_id":"795318953","tag":{"amenity":"waste_basket"}},"type":"Feature"},
	{"geometry":{"coordinates":[6.340274,51.250014],"type":"Point"},"properties":{"osm_id":"800264468","tag":{"amenity":"recycling","recycling:glass_bottles":"yes","recycling_type":"container"}},"type":"Feature"},
	{"geometry":{"coordinates":[6.35816,51.262528],"type":"Point"},"properties":{"osm_id":"828555660","tag":{"amenity":"recycling","recycling:glass_bottles":"yes","recycling_type":"container"}},"type":"Feature"},
	{"geometry":{"coordinates":[6.392757,51.254724],"type":"Point"},"properties":{"osm_id":"932175144","tag":{"amenity":"recycling","recycling:clothes":"yes","recycling:glass_bottles":"yes","recycling_type":"container"}},"type":"Feature"},
	{"geometry":{"coordinates":[6.410424,51.258549],"type":"Point"},"properties":{"osm_id":"942315512","tag":{"amenity":"waste_basket"}},"type":"Feature"},
	{"geometry":{"coordinates":[6.410436,51.258507],"type":"Point"},"properties":{"osm_id":"942315568","tag":{"amenity":"waste_basket"}},"type":"Feature"},
	{"geometry":{"coordinates":[6.35185,51.265503],"type":"Point"},"properties":{"osm_id":"1174971865","tag":{"amenity":"recycling","recycling:glass_bottles":"yes","recycling_type":"container"}},"type":"Feature"},
	{"geometry":{"coordinates":[6.331782,51.253199],"type":"Point"},"properties":{"osm_id":"1286913852","tag":{"amenity":"recycling","recycling:glass_bottles":"yes","recycling_type":"container"}},"type":"Feature"},
	{"geometry":{"coordinates":[6.380368,51.282531],"type":"Point"},"properties":{"osm_id":"1324282175","tag":{"amenity":"recycling","recycling:glass_bottles":"yes","recycling_type":"container"}},"type":"Feature"},
	{"geometry":{"coordinates":[6.398924,51.236812],"type":"Point"},"properties":{"osm_id":"1359845124","tag":{"amenity":"recycling","recycling:glass_bottles":"yes","recycling_type":"container"}},"type":"Feature"},
	{"geometry":{"coordinates":[6.360034,51.284526],"type":"Point"},"properties":{"osm_id":"1364289085","tag":{"amenity":"recycling","recycling:glass_bottles":"yes","recycling_type":"container"}},"type":"Feature"},
	{"geometry":{"coordinates":[6.396216,51.246477],"type":"Point"},"properties":{"osm_id":"1576928123","tag":{"amenity":"recycling","recycling:glass_bottles":"yes","recycling:green_waste":"yes","recycling_type":"container"}},"type":"Feature"},
	{"geometry":{"coordinates":[6.35436,51.287902],"type":"Point"},"properties":{"osm_id":"1582304201","tag":{"amenity":"recycling","recycling:glass_bottles":"yes","recycling_type":"container"}},"type":"Feature"},
	{"geometry":{"coordinates":[6.382445,51.261604],"type":"Point"},"properties":{"osm_id":"1602219796","tag":{"amenity":"recycling","recycling:glass_bottles":"yes","recycling_type":"container"}},"type":"Feature"},
	{"geometry":{"coordinates":[6.383114,51.260134],"type":"Point"},"properties":{"osm_id":"1634603281","tag":{"amenity":"recycling","recycling:clothes":"yes","recycling:glass_bottles":"yes","recycling_type":"container"}},"type":"Feature"},
	{"geometry":{"coordinates":[6.394664,51.267663],"type":"Point"},"properties":{"osm_id":"1634603377","tag":{"amenity":"recycling","recycling:glass_bottles":"yes","recycling_type":"container"}},"type":"Feature"},
	{"geometry":{"coordinates":[6.391969,51.268054],"type":"Point"},"properties":{"osm_id":"1634603384","tag":{"amenity":"recycling","recycling:glass_bottles":"yes","recycling_type":"container"}},"type":"Feature"},
	{"geometry":{"coordinates":[6.332973,51.242349],"type":"Point"},"properties":{"osm_id":"1862836565","tag":{"amenity":"recycling","recycling:glass_bottles":"yes","recycling_type":"container"}},"type":"Feature"},
	{"geometry":{"coordinates":[6.331436,51.252812],"type":"Point"},"properties":{"osm_id":"1862960682","tag":{"amenity":"recycling","recycling:glass_bottles":"yes","recycling_type":"container"}},"type":"Feature"},
	{"geometry":{"coordinates":[6.341088,51.270069],"type":"Point"},"properties":{"osm_id":"2030952213","tag":{"amenity":"recycling","recycling:glass_bottles":"yes","recycling_type":"container"}},"type":"Feature"},
	{"geometry":{"coordinates":[6.404747,51.263962],"type":"Point"},"properties":{"osm_id":"2304122779","tag":{"amenity":"recycling","recycling:glass_bottles":"yes","recycling_type":"container"}},"type":"Feature"},
	{"geometry":{"coordinates":[6.407339,51.246404],"type":"Point"},"properties":{"osm_id":"2688891972","tag":{"amenity":"recycling","recycling:glass_bottles":"yes","recycling_type":"container"}},"type":"Feature"},
	{"geometry":{"coordinates":[6.369441,51.28844],"type":"Point"},"properties":{"osm_id":"2928949137","tag":{"amenity":"recycling","recycling:green_waste":"yes","recycling:plastic":"yes","recycling_type":"container"}},"type":"Feature"},
	{"geometry":{"coordinates":[6.401532,51.254618],"type":"Point"},"properties":{"osm_id":"3462069804","tag":{"amenity":"recycling","recycling:glass_bottles":"yes","recycling_type":"container"}},"type":"Feature"},
	{"geometry":{"coordinates":[6.371998,51.285545],"type":"Point"},"properties":{"osm_id":"3876201581","tag":{"amenity":"waste_basket"}},"type":"Feature"},
	{"geometry":{"coordinates":[6.370093,51.285871],"type":"Point"},"properties":{"osm_id":"3876201587","tag":{"amenity":"waste_basket"}},"type":"Feature"},
	{"geometry":{"coordinates":[6.370237,51.286048],"type":"Point"},"properties":{"osm_id":"3876201590","tag":{"amenity":"waste_basket"}},"type":"Feature"},
	{"geometry":{"coordinates":[6.333119,51.252214],"type":"Point"},"properties":{"osm_id":"3876762922","tag":{"amenity":"waste_basket"}},"type":"Feature"},
	{"geometry":{"coordinates":[6.332785,51.25237],"type":"Point"},"properties":{"osm_id":"3876762925","tag":{"amenity":"waste_basket"}},"type":"Feature"},
	{"geometry":{"coordinates":[6.379345,51.281329],"type":"Point"},"properties":{"osm_id":"3906590526","tag":{"amenity":"waste_basket"}},"type":"Feature"},
	{"geometry":{"coordinates":[6.37942,51.281395],"type":"Point"},"properties":{"osm_id":"3906590531","tag":{"amenity":"waste_basket"}},"type":"Feature"},
	{"geometry":{"coordinates":[6.332459,51.252384],"type":"Point"},"properties":{"osm_id":"3948159405","tag":{"amenity":"waste_basket"}},"type":"Feature"},
	{"geometry":{"coordinates":[6.366884,51.278415],"type":"Point"},"properties":{"osm_id":"3952839553","tag":{"amenity":"waste_basket"}},"type":"Feature"},
	{"geometry":{"coordinates":[6.379634,51.281493],"type":"Point"},"properties":{"osm_id":"3984728690","tag":{"amenity":"waste_basket"}},"type":"Feature"},
	{"geometry":{"coordinates":[6.386249,51.255317],"type":"Point"},"properties":{"osm_id":"3997490420","tag":{"amenity":"waste_basket"}},"type":"Feature"},
	{"geometry":{"coordinates":[6.367837,51.286075],"type":"Point"},"properties":{"osm_id":"4002962878","tag":{"amenity":"waste_basket"}},"type":"Feature"},
	{"geometry":{"coordinates":[6.372374,51.285658],"type":"Point"},"properties":{"osm_id":"4007553166","tag":{"amenity":"waste_basket"}},"type":"Feature"},
	{"geometry":{"coordinates":[6.371934,51.285414],"type":"Point"},"properties":{"osm_id":"4010838787","tag":{"amenity":"waste_basket"}},"type":"Feature"},
	{"geometry":{"coordinates":[6.371374,51.285511],"type":"Point"},"properties":{"osm_id":"4010860900","tag":{"amenity":"waste_basket"}},"type":"Feature"},
	{"geometry":{"coordinates":[6.371629,51.28554],"type":"Point"},"properties":{"osm_id":"4010860904","tag":{"amenity":"waste_basket"}},"type":"Feature"},
	{"geometry":{"coordinates":[6.371659,51.284977],"type":"Point"},"properties":{"osm_id":"4011120306","tag":{"amenity":"waste_basket"}},"type":"Feature"},
	{"geometry":{"coordinates":[6.371484,51.285182],"type":"Point"},"properties":{"osm_id":"4011120314","tag":{"amenity":"waste_basket"}},"type":"Feature"},
	{"geometry":{"coordinates":[6.370769,51.285728],"type":"Point"},"properties":{"osm_id":"4011130852","tag":{"amenity":"waste_basket"}},"type":"Feature"},
	{"geometry":{"coordinates":[6.377698,51.282463],"type":"Point"},"properties":{"osm_id":"4014561193","tag":{"amenity":"waste_basket"}},"type":"Feature"},
	{"geometry":{"coordinates":[6.377523,51.282587],"type":"Point"},"properties":{"osm_id":"4014561201","tag":{"amenity":"waste_basket"}},"type":"Feature"},
	{"geometry":{"coordinates":[6.369475,51.286377],"type":"Point"},"properties":{"osm_id":"4047622054","tag":{"amenity":"waste_basket"}},"type":"Feature"},
	{"geometry":{"coordinates":[6.398288,51.250834],"type":"Point"},"properties":{"osm_id":"4430694069","tag":{"amenity":"waste_basket"}},"type":"Feature"},
	{"geometry":{"coordinates":[6.356698,51.269062],"type":"Point"},"properties":{"osm_id":"4681979752","tag":{"amenity":"waste_basket"}},"type":"Feature"},
	{"geometry":{"coordinates":[6.357388,51.268906],"type":"Point"},"properties":{"osm_id":"4681979755","tag":{"amenity":"waste_basket"}},"type":"Feature"},
	{"geometry":{"coordinates":[6.362274,51.267273],"type":"Point"},"properties":{"osm_id":"4681979756","tag":{"amenity":"waste_basket"}},"type":"Feature"},
	{"geometry":{"coordinates":[6.37738,51.280479],"type":"Point"},"properties":{"osm_id":"4715422271","tag":{"amenity":"waste_basket"}},"type":"Feature"},
	{"geometry":{"coordinates":[6.368931,51.264633],"type":"Point"},"properties":{"osm_id":"4718364811","tag":{"amenity":"waste_basket"}},"type":"Feature"},
	{"geometry":{"coordinates":[6.370523,51.262366],"type":"Point"},"properties":{"osm_id":"4718364824","tag":{"amenity":"waste_basket"}},"type":"Feature"},
	{"geometry":{"coordinates":[6.370332,51.262197],"type":"Point"},"properties":{"osm_id":"4718364825","tag":{"amenity":"waste_basket"}},"type":"Feature"},
	{"geometry":{"coordinates":[6.375929,51.279145],"type":"Point"},"properties":{"osm_id":"4718395530","tag":{"amenity":"waste_basket"}},"type":"Feature"},
	{"geometry":{"coordinates":[6.374798,51.278527],"type":"Point"},"properties":{"osm_id":"4718395531","tag":{"amenity":"waste_basket"}},"type":"Feature"},
	{"geometry":{"coordinates":[6.381674,51.282423],"type":"Point"},"properties":{"osm_id":"4730560494","tag":{"amenity":"waste_basket"}},"type":"Feature"},
	{"geometry":{"coordinates":[6.381086,51.282544],"type":"Point"},"properties":{"osm_id":"4730560495","tag":{"amenity":"waste_basket"}},"type":"Feature"},
	{"geometry":{"coordinates":[6.388424,51.264778],"type":"Point"},"properties":{"osm_id":"4732993365","tag":{"amenity":"waste_basket"}},"type":"Feature"},
	{"geometry":{"coordinates":[6.36987,51.286205],"type":"Point"},"properties":{"osm_id":"4781657383","tag":{"amenity":"waste_basket"}},"type":"Feature"},
	{"geometry":{"coordinates":[6.370442,51.285944],"type":"Point"},"properties":{"osm_id":"4781662309","tag":{"amenity":"waste_basket"}},"type":"Feature"},
	{"geometry":{"coordinates":[6.388483,51.252399],"type":"Point"},"properties":{"osm_id":"4784573040","tag":{"amenity":"waste_basket"}},"type":"Feature"},
	{"geometry":{"coordinates":[6.390996,51.257473],"type":"Point"},"properties":{"osm_id":"4785005201","tag":{"amenity":"waste_basket"}},"type":"Feature"},
	{"geometry":{"coordinates":[6.375771,51.237063],"type":"Point"},"properties":{"osm_id":"4840463733","tag":{"amenity":"waste_basket"}},"type":"Feature"},
	{"geometry":{"coordinates":[6.375745,51.237149],"type":"Point"},"properties":{"osm_id":"4840463734","tag":{"amenity":"waste_basket"}},"type":"Feature"},
	{"geometry":{"coordinates":[6.392956,51.256639],"type":"Point"},"properties":{"osm_id":"4845338977","tag":{"amenity":"waste_basket"}},"type":"Feature"},
	{"geometry":{"coordinates":[6.392923,51.256503],"type":"Point"},"properties":{"osm_id":"4845338978","tag":{"amenity":"waste_basket"}},"type":"Feature"},
	{"geometry":{"coordinates":[6.366242,51.280356],"type":"Point"},"properties":{"osm_id":"5079397034","tag":{"amenity":"waste_basket"}},"type":"Feature"},
	{"geometry":{"coordinates":[6.365341,51.279994],"type":"Point"},"properties":{"osm_id":"5079397035","tag":{"amenity":"waste_basket"}},"type":"Feature"},
	{"geometry":{"coordinates":[6.394424,51.255567],"type":"Point"},"properties":{"osm_id":"5813496767","tag":{"amenity":"waste_basket"}},"type":"Feature"},
	{"geometry":{"coordinates":[6.393562,51.254565],"type":"Point"},"properties":{"osm_id":"5815214916","tag":{"amenity":"waste_basket"}},"type":"Feature"},
	{"geometry":{"coordinates":[6.393784,51.254761],"type":"Point"},"properties":{"osm_id":"5815214918","tag":{"amenity":"waste_basket"}},"type":"Feature"},
	{"geometry":{"coordinates":[6.393946,51.254519],"type":"Point"},"properties":{"osm_id":"5815214920","tag":{"amenity":"waste_basket"}},"type":"Feature"},
	{"geometry":{"coordinates":[6.392638,51.259811],"type":"Point"},"properties":{"osm_id":"5816448604","tag":{"amenity":"waste_basket"}},"type":"Feature"},
	{"geometry":{"coordinates":[6.392882,51.259902],"type":"Point"},"properties":{"osm_id":"5816448605","tag":{"amenity":"waste_basket"}},"type":"Feature"},
	{"geometry":{"coordinates":[6.393164,51.25506],"type":"Point"},"properties":{"osm_id":"5817461432","tag":{"amenity":"waste_basket"}},"type":"Feature"},
	{"geometry":{"coordinates":[6.393459,51.255027],"type":"Point"},"properties":{"osm_id":"5817479023","tag":{"amenity":"waste_basket"}},"type":"Feature"},
	{"geometry":{"coordinates":[6.384922,51.253858],"type":"Point"},"properties":{"osm_id":"5824485687","tag":{"amenity":"waste_basket"}},"type":"Feature"},
	{"geometry":{"coordinates":[6.384209,51.253076],"type":"Point"},"properties":{"osm_id":"5824485688","tag":{"amenity":"waste_basket"}},"type":"Feature"},
	{"geometry":{"coordinates":[6.382914,51.253145],"type":"Point"},"properties":{"osm_id":"5824485690","tag":{"amenity":"waste_basket"}},"type":"Feature"},
	{"geometry":{"coordinates":[6.383185,51.252327],"type":"Point"},"properties":{"osm_id":"5824507207","tag":{"amenity":"waste_basket"}},"type":"Feature"},
	{"geometry":{"coordinates":[6.382374,51.25161],"type":"Point"},"properties":{"osm_id":"5824534244","tag":{"amenity":"recycling","recycling:glass":"no","recycling:glass_bottles":"yes","recycling_type":"container"}},"type":"Feature"},
	{"geometry":{"coordinates":[6.384239,51.251025],"type":"Point"},"properties":{"osm_id":"5824534249","tag":{"amenity":"waste_basket"}},"type":"Feature"},
	{"geometry":{"coordinates":[6.405366,51.257691],"type":"Point"},"properties":{"osm_id":"5826084416","tag":{"amenity":"waste_basket"}},"type":"Feature"},
	{"geometry":{"coordinates":[6.405522,51.257758],"type":"Point"},"properties":{"osm_id":"5826084418","tag":{"amenity":"waste_basket"}},"type":"Feature"},
	{"geometry":{"coordinates":[6.389689,51.252007],"type":"Point"},"properties":{"osm_id":"5826101353","tag":{"amenity":"waste_disposal"}},"type":"Feature"},
	{"geometry":{"coordinates":[6.389383,51.251982],"type":"Point"},"properties":{"osm_id":"5826101354","tag":{"amenity":"waste_disposal"}},"type":"Feature"},
	{"geometry":{"coordinates":[6.388531,51.252277],"type":"Point"},"properties":{"osm_id":"5826104455","tag":{"amenity":"waste_basket"}},"type":"Feature"},
	{"geometry":{"coordinates":[6.389351,51.252476],"type":"Point"},"properties":{"osm_id":"5826107054","tag":{"amenity":"recycling","recycling:glass":"no","recycling:glass_bottles":"yes","recycling_type":"container"}},"type":"Feature"},
	{"geometry":{"coordinates":[6.390136,51.253883],"type":"Point"},"properties":{"osm_id":"5826136701","tag":{"amenity":"waste_disposal"}},"type":"Feature"},
	{"geometry":{"coordinates":[6.390104,51.253917],"type":"Point"},"properties":{"osm_id":"5826136702","tag":{"amenity":"waste_disposal"}},"type":"Feature"},
	{"geometry":{"coordinates":[6.404736,51.254619],"type":"Point"},"properties":{"osm_id":"5827846998","tag":{"amenity":"waste_basket"}},"type":"Feature"},
	{"geometry":{"coordinates":[6.404998,51.254704],"type":"Point"},"properties":{"osm_id":"5827847000","tag":{"amenity":"waste_basket"}},"type":"Feature"},
	{"geometry":{"coordinates":[6.40504,51.254691],"type":"Point"},"properties":{"osm_id":"5827847001","tag":{"amenity":"waste_basket"}},"type":"Feature"},
	{"geometry":{"coordinates":[6.397173,51.255551],"type":"Point"},"properties":{"osm_id":"5827984644","tag":{"amenity":"recycling","recycling:glass":"no","recycling:glass_bottles":"yes","recycling_type":"container"}},"type":"Feature"},
	{"geometry":{"coordinates":[6.397681,51.250623],"type":"Point"},"properties":{"osm_id":"5835159579","tag":{"amenity":"waste_basket"}},"type":"Feature"},
	{"geometry":{"coordinates":[6.397072,51.250613],"type":"Point"},"properties":{"osm_id":"5835159583","tag":{"amenity":"waste_basket"}},"type":"Feature"},
	{"geometry":{"coordinates":[6.39646,51.250446],"type":"Point"},"properties":{"osm_id":"5835167078","tag":{"amenity":"waste_basket"}},"type":"Feature"},
	{"geometry":{"coordinates":[6.395944,51.249327],"type":"Point"},"properties":{"osm_id":"5835196943","tag":{"amenity":"waste_basket"}},"type":"Feature"},
	{"geometry":{"coordinates":[6.394254,51.252768],"type":"Point"},"properties":{"osm_id":"5835281980","tag":{"amenity":"waste_basket"}},"type":"Feature"},
	{"geometry":{"coordinates":[6.407479,51.255022],"type":"Point"},"properties":{"osm_id":"5837062614","tag":{"amenity":"waste_basket"}},"type":"Feature"},
	{"geometry":{"coordinates":[6.406663,51.252119],"type":"Point"},"properties":{"osm_id":"5849714683","tag":{"amenity":"waste_basket"}},"type":"Feature"},
	{"geometry":{"coordinates":[6.407085,51.252124],"type":"Point"},"properties":{"osm_id":"5849717086","tag":{"amenity":"waste_basket"}},"type":"Feature"},
	{"geometry":{"coordinates":[6.407017,51.262588],"type":"Point"},"properties":{"osm_id":"5902862296","tag":{"amenity":"recycling","recycling:glass_bottles":"yes","recycling_type":"container"}},"type":"Feature"},
	{"geometry":{"coordinates":[6.386755,51.250456],"type":"Point"},"properties":{"osm_id":"5980870914","tag":{"amenity":"recycling","recycling:clothes":"yes","recycling:glass_bottles":"yes","recycling_type":"container"}},"type":"Feature"},
	{"geometry":{"coordinates":[6.394683,51.257149],"type":"Point"},"properties":{"osm_id":"6198188058","tag":{"amenity":"waste_basket"}},"type":"Feature"},
	{"geometry":{"coordinates":[6.394227,51.257017],"type":"Point"},"properties":{"osm_id":"6198196659","tag":{"amenity":"waste_basket"}},"type":"Feature"},
	{"geometry":{"coordinates":[6.392837,51.256415],"type":"Point"},"properties":{"osm_id":"6198207331","tag":{"amenity":"waste_basket"}},"type":"Feature"},
	{"geometry":{"coordinates":[6.392538,51.257165],"type":"Point"},"properties":{"osm_id":"6198221112","tag":{"amenity":"waste_basket"}},"type":"Feature"},
	{"geometry":{"coordinates":[6.391221,51.2572],"type":"Point"},"properties":{"osm_id":"6198233129","tag":{"amenity":"waste_basket"}},"type":"Feature"},
	{"geometry":{"coordinates":[6.391355,51.257774],"type":"Point"},"properties":{"osm_id":"6198252695","tag":{"amenity":"waste_basket"}},"type":"Feature"},
	{"geometry":{"coordinates":[6.391139,51.257816],"type":"Point"},"properties":{"osm_id":"6198252696","tag":{"amenity":"waste_basket"}},"type":"Feature"},
	{"geometry":{"coordinates":[6.391024,51.258039],"type":"Point"},"properties":{"osm_id":"6198252698","tag":{"amenity":"waste_basket"}},"type":"Feature"},
	{"geometry":{"coordinates":[6.391882,51.25825],"type":"Point"},"properties":{"osm_id":"6198252704","tag":{"amenity":"waste_basket"}},"type":"Feature"},
	{"geometry":{"coordinates":[6.392009,51.258021],"type":"Point"},"properties":{"osm_id":"6198252706","tag":{"amenity":"waste_basket"}},"type":"Feature"},
	{"geometry":{"coordinates":[6.391989,51.25785],"type":"Point"},"properties":{"osm_id":"6198252708","tag":{"amenity":"waste_basket"}},"type":"Feature"},
	{"geometry":{"coordinates":[6.389058,51.2568],"type":"Point"},"properties":{"osm_id":"6198291731","tag":{"amenity":"waste_basket"}},"type":"Feature"},
	{"geometry":{"coordinates":[6.392952,51.251239],"type":"Point"},"properties":{"osm_id":"6200463805","tag":{"amenity":"waste_basket","material":"wood","waste":"trash"}},"type":"Feature"},
	{"geometry":{"coordinates":[6.392823,51.253624],"type":"Point"},"properties":{"osm_id":"6200850523","tag":{"amenity":"waste_basket","waste":"trash"}},"type":"Feature"},
	{"geometry":{"coordinates":[6.391274,51.256241],"type":"Point"},"properties":{"osm_id":"6201457044","tag":{"amenity":"waste_basket","waste":"trash"}},"type":"Feature"},
	{"geometry":{"coordinates":[6.391232,51.256225],"type":"Point"},"properties":{"osm_id":"6201457045","tag":{"amenity":"waste_basket","waste":"trash"}},"type":"Feature"},
	{"geometry":{"coordinates":[6.391181,51.25621],"type":"Point"},"properties":{"osm_id":"6201457046","tag":{"amenity":"waste_basket","waste":"trash"}},"type":"Feature"},
	{"geometry":{"coordinates":[6.397921,51.252573],"type":"Point"},"properties":{"osm_id":"6203494447","tag":{"access":"private","amenity":"waste_disposal","waste":"trash"}},"type":"Feature"},
	{"geometry":{"coordinates":[6.397439,51.262241],"type":"Point"},"properties":{"osm_id":"6269692006","tag":{"amenity":"recycling","recycling:glass_bottles":"yes","recycling_type":"container"}},"type":"Feature"},
	{"geometry":{"coordinates":[6.398587,51.259156],"type":"Point"},"properties":{"osm_id":"6269748543","tag":{"amenity":"recycling","recycling:glass_bottles":"yes","recycling_type":"container"}},"type":"Feature"},
	{"geometry":{"coordinates":[6.397761,51.260551],"type":"Point"},"properties":{"osm_id":"6269748549","tag":{"amenity":"waste_basket"}},"type":"Feature"},
	{"geometry":{"coordinates":[6.390447,51.255425],"type":"Point"},"properties":{"osm_id":"6271423199","tag":{"amenity":"waste_basket"}},"type":"Feature"},
	{"geometry":{"coordinates":[6.404348,51.247866],"type":"Point"},"properties":{"osm_id":"6271450405","tag":{"amenity":"waste_basket"}},"type":"Feature"},
	{"geometry":{"coordinates":[6.388979,51.250962],"type":"Point"},"properties":{"osm_id":"6271806150","tag":{"amenity":"waste_basket"}},"type":"Feature"},
	{"geometry":{"coordinates":[6.350992,51.257691],"type":"Point"},"properties":{"osm_id":"6690717778","tag":{"amenity":"waste_basket"}},"type":"Feature"},
	{"geometry":{"coordinates":[6.401104,51.268542],"type":"Point"},"properties":{"name":"Prangenberg & Zaun","osm_id":"6851257622","tag":{"amenity":"recycling","recycling:construction_materials":"yes","recycling_type":"centre"}},"type":"Feature"},
	{"geometry":{"coordinates":[6.359458,51.278524],"type":"Point"},"properties":{"osm_id":"7160456292","tag":{"amenity":"waste_basket"}},"type":"Feature"},
	{"geometry":{"coordinates":[6.360317,51.278285],"type":"Point"},"properties":{"osm_id":"7160456293","tag":{"amenity":"waste_basket"}},"type":"Feature"},
	{"geometry":{"coordinates":[6.356259,51.276984],"type":"Point"},"properties":{"osm_id":"7160456295","tag":{"amenity":"waste_basket"}},"type":"Feature"},
	{"geometry":{"coordinates":[6.355331,51.276439],"type":"Point"},"properties":{"osm_id":"7160456296","tag":{"amenity":"waste_basket"}},"type":"Feature"},
	{"geometry":{"coordinates":[6.358414,51.275404],"type":"Point"},"properties":{"osm_id":"7389774468","tag":{"amenity":"waste_basket"}},"type":"Feature"}
]
}
