{
"type": "FeatureCollection",
"features": [
	{"geometry":{"coordinates":[6.362782,51.119317],"type":"Point"},"properties":{"osm_id":"365771038","tag":{"amenity":"recycling","recycling:glass":"yes","recycling:paper":"yes"}},"type":"Feature"},
	{"geometry":{"coordinates":[6.368182,51.104933],"type":"Point"},"properties":{"osm_id":"365771085","tag":{"amenity":"recycling","location":"overground","recycling:glass":"yes","recycling:paper":"yes","recycling_type":"container"}},"type":"Feature"},
	{"geometry":{"coordinates":[6.377616,51.106845],"type":"Point"},"properties":{"osm_id":"365771293","tag":{"amenity":"recycling","recycling:glass":"yes","recycling:paper":"yes"}},"type":"Feature"},
	{"geometry":{"coordinates":[6.386926,51.110178],"type":"Point"},"properties":{"osm_id":"365771369","tag":{"amenity":"recycling","recycling:glass":"yes","recycling:paper":"yes","recycling_type":"container"}},"type":"Feature"},
	{"geometry":{"coordinates":[6.384424,51.123726],"type":"Point"},"properties":{"osm_id":"365771406","tag":{"amenity":"recycling","recycling:glass":"yes","recycling:paper":"yes"}},"type":"Feature"},
	{"geometry":{"coordinates":[6.402923,51.121998],"type":"Point"},"properties":{"osm_id":"365847152","tag":{"amenity":"recycling","recycling:glass":"yes","recycling:paper":"yes"}},"type":"Feature"},
	{"geometry":{"coordinates":[6.405407,51.11484],"type":"Point"},"properties":{"osm_id":"365847865","tag":{"amenity":"recycling","recycling:glass":"yes","recycling:paper":"yes"}},"type":"Feature"},
	{"geometry":{"coordinates":[6.413403,51.114015],"type":"Point"},"properties":{"osm_id":"365847866","tag":{"amenity":"recycling","recycling:glass":"yes","recycling:paper":"yes"}},"type":"Feature"},
	{"geometry":{"coordinates":[6.337519,51.085076],"type":"Point"},"properties":{"name":"Gr\u00c3\u00bcnannahme Erkelenz","osm_id":"450525768","tag":{"amenity":"recycling","recycling:green_waste":"yes","recycling_type":"centre"}},"type":"Feature"},
	{"geometry":{"coordinates":[6.337767,51.084992],"type":"Point"},"properties":{"name":"Wertstoffannahme Erkelenz","osm_id":"2723616882","tag":{"amenity":"recycling","recycling_type":"centre"}},"type":"Feature"},
	{"geometry":{"coordinates":[6.337207,51.089805],"type":"Point"},"properties":{"osm_id":"2822643574","tag":{"amenity":"recycling","recycling:clothes":"yes"}},"type":"Feature"},
	{"geometry":{"coordinates":[6.371037,51.092287],"type":"Point"},"properties":{"osm_id":"4783046517","tag":{"amenity":"waste_basket"}},"type":"Feature"},
	{"geometry":{"coordinates":[6.371308,51.092028],"type":"Point"},"properties":{"osm_id":"4783046519","tag":{"amenity":"waste_basket"}},"type":"Feature"},
	{"geometry":{"coordinates":[6.342192,51.079248],"type":"Point"},"properties":{"osm_id":"6707467141","tag":{"amenity":"waste_basket"}},"type":"Feature"},
	{"geometry":{"coordinates":[6.391641,51.070478],"type":"Point"},"properties":{"osm_id":"7325534387","tag":{"amenity":"waste_basket"}},"type":"Feature"}
]
}
