{
"type": "FeatureCollection",
"features": [
	{"geometry":{"coordinates":[6.337628,50.929936],"type":"Point"},"properties":{"osm_id":"278211912","tag":{"amenity":"recycling"}},"type":"Feature"},
	{"geometry":{"coordinates":[6.411556,50.919637],"type":"Point"},"properties":{"osm_id":"278734721","tag":{"amenity":"recycling","recycling:clothes":"yes","recycling:glass_bottles":"yes"}},"type":"Feature"},
	{"geometry":{"coordinates":[6.402688,50.923084],"type":"Point"},"properties":{"osm_id":"278734754","tag":{"amenity":"recycling","recycling:clothes":"yes"}},"type":"Feature"},
	{"geometry":{"coordinates":[6.405853,50.924723],"type":"Point"},"properties":{"osm_id":"295003037","tag":{"amenity":"recycling","recycling:clothes":"yes"}},"type":"Feature"},
	{"geometry":{"coordinates":[6.37405,50.92204],"type":"Point"},"properties":{"osm_id":"368339879","tag":{"amenity":"recycling","recycling:clothes":"yes","recycling:glass":"yes","recycling_type":"container"}},"type":"Feature"},
	{"geometry":{"coordinates":[6.41197,50.90571],"type":"Point"},"properties":{"osm_id":"378710913","tag":{"amenity":"recycling","recycling:glass":"yes","recycling:paper":"yes"}},"type":"Feature"},
	{"geometry":{"coordinates":[6.363335,50.915063],"type":"Point"},"properties":{"osm_id":"392603653","tag":{"amenity":"recycling","recycling:clothes":"yes","recycling:glass_bottles":"yes","recycling_type":"container"}},"type":"Feature"},
	{"geometry":{"coordinates":[6.3599,50.91877],"type":"Point"},"properties":{"osm_id":"392603660","tag":{"amenity":"recycling","location":"overground","recycling:glass":"yes","recycling:paper":"no","recycling_type":"container"}},"type":"Feature"},
	{"geometry":{"coordinates":[6.362039,50.917643],"type":"Point"},"properties":{"osm_id":"392762287","tag":{"amenity":"recycling","recycling:clothes":"yes","recycling_type":"container"}},"type":"Feature"},
	{"geometry":{"coordinates":[6.3548,50.91911],"type":"Point"},"properties":{"osm_id":"393413313","tag":{"amenity":"recycling","recycling:glass":"yes","recycling_type":"container"}},"type":"Feature"},
	{"geometry":{"coordinates":[6.400613,50.924464],"type":"Point"},"properties":{"osm_id":"401877269","tag":{"amenity":"recycling","recycling:glass_bottles":"yes"}},"type":"Feature"},
	{"geometry":{"coordinates":[6.335623,50.948474],"type":"Point"},"properties":{"osm_id":"427041434","tag":{"amenity":"recycling","recycling:clothes":"yes","recycling:glass":"yes"}},"type":"Feature"},
	{"geometry":{"coordinates":[6.372735,50.935431],"type":"Point"},"properties":{"osm_id":"430239884","tag":{"amenity":"recycling","location":"overground","recycling:glass":"yes","recycling_type":"container"}},"type":"Feature"},
	{"geometry":{"coordinates":[6.374805,50.957833],"type":"Point"},"properties":{"osm_id":"430239888","tag":{"amenity":"recycling","recycling:clothes":"yes","recycling:glass":"yes"}},"type":"Feature"},
	{"geometry":{"coordinates":[6.362593,50.924773],"type":"Point"},"properties":{"osm_id":"484468811","tag":{"amenity":"recycling","location":"overground","recycling:clothes":"yes","recycling:glass":"yes","recycling_type":"container"}},"type":"Feature"},
	{"geometry":{"coordinates":[6.356856,50.928607],"type":"Point"},"properties":{"osm_id":"484468840","tag":{"amenity":"recycling","recycling:clothes":"yes","recycling:glass_bottles":"yes","recycling_type":"container"}},"type":"Feature"},
	{"geometry":{"coordinates":[6.35117,50.924527],"type":"Point"},"properties":{"osm_id":"484468889","tag":{"amenity":"recycling","recycling:glass":"yes","recycling_type":"container"}},"type":"Feature"},
	{"geometry":{"coordinates":[6.356734,50.915666],"type":"Point"},"properties":{"osm_id":"568345101","tag":{"amenity":"recycling","recycling:glass":"yes","recycling_type":"container"}},"type":"Feature"},
	{"geometry":{"coordinates":[6.377435,50.911672],"type":"Point"},"properties":{"osm_id":"568547593","tag":{"amenity":"recycling","recycling:glass":"yes","recycling_type":"container"}},"type":"Feature"},
	{"geometry":{"coordinates":[6.378441,50.914722],"type":"Point"},"properties":{"osm_id":"568547615","tag":{"amenity":"recycling","recycling:clothes":"yes","recycling:glass":"yes","recycling_type":"container"}},"type":"Feature"},
	{"geometry":{"coordinates":[6.36192,50.907723],"type":"Point"},"properties":{"osm_id":"588083760","tag":{"amenity":"recycling","recycling:clothes":"yes","recycling:glass":"yes"}},"type":"Feature"},
	{"geometry":{"coordinates":[6.352634,50.932209],"type":"Point"},"properties":{"osm_id":"616356669","tag":{"amenity":"recycling","recycling:clothes":"yes","recycling_type":"container"}},"type":"Feature"},
	{"geometry":{"coordinates":[6.338569,50.948535],"type":"Point"},"properties":{"osm_id":"616356674","tag":{"amenity":"recycling","recycling:clothes":"yes"}},"type":"Feature"},
	{"geometry":{"coordinates":[6.329654,50.903174],"type":"Point"},"properties":{"osm_id":"954734527","tag":{"amenity":"recycling","recycling:clothes":"yes","recycling:glass":"yes"}},"type":"Feature"},
	{"geometry":{"coordinates":[6.349836,50.91783],"type":"Point"},"properties":{"osm_id":"988794284","tag":{"amenity":"recycling","recycling:clothes":"yes","recycling:glass":"yes"}},"type":"Feature"},
	{"geometry":{"coordinates":[6.340327,50.923454],"type":"Point"},"properties":{"osm_id":"1149796437","tag":{"amenity":"waste_disposal","waste":"grey_water"}},"type":"Feature"},
	{"geometry":{"coordinates":[6.35957,50.930938],"type":"Point"},"properties":{"osm_id":"1893461296","tag":{"amenity":"recycling","recycling:clothes":"yes","recycling_type":"container"}},"type":"Feature"},
	{"geometry":{"coordinates":[6.359454,50.930962],"type":"Point"},"properties":{"osm_id":"1893461299","tag":{"amenity":"recycling","recycling:batteries":"no","recycling:fluorescent_tubes":"no","recycling:glass":"yes","recycling:scrap_metal":"yes","recycling:small_appliances":"yes","recycling:tv_monitor":"no","recycling_type":"container"}},"type":"Feature"},
	{"geometry":{"coordinates":[6.378433,50.933332],"type":"Point"},"properties":{"osm_id":"1951753898","tag":{"amenity":"recycling","recycling:clothes":"yes","recycling_type":"container"}},"type":"Feature"},
	{"geometry":{"coordinates":[6.355491,50.920862],"type":"Point"},"properties":{"osm_id":"2537725961","tag":{"amenity":"recycling","location":"overground","recycling:clothes":"yes","recycling:glass":"yes","recycling_type":"container"}},"type":"Feature"},
	{"geometry":{"coordinates":[6.407685,50.908686],"type":"Point"},"properties":{"osm_id":"2634152056","tag":{"amenity":"recycling","recycling:glass":"yes"}},"type":"Feature"},
	{"geometry":{"coordinates":[6.365633,50.918095],"type":"Point"},"properties":{"osm_id":"2719936203","tag":{"amenity":"recycling","recycling:clothes":"yes","recycling_type":"container"}},"type":"Feature"},
	{"geometry":{"coordinates":[6.376972,50.930599],"type":"Point"},"properties":{"osm_id":"3424240490","tag":{"amenity":"recycling","recycling:glass":"yes","recycling_type":"container"}},"type":"Feature"},
	{"geometry":{"coordinates":[6.368324,50.918256],"type":"Point"},"properties":{"osm_id":"4343553725","tag":{"amenity":"waste_basket"}},"type":"Feature"},
	{"geometry":{"coordinates":[6.368307,50.918432],"type":"Point"},"properties":{"osm_id":"4343553726","tag":{"amenity":"waste_basket"}},"type":"Feature"},
	{"geometry":{"coordinates":[6.373994,50.922038],"type":"Point"},"properties":{"osm_id":"4697420484","tag":{"amenity":"recycling","recycling:glass":"yes","recycling_type":"container"}},"type":"Feature"},
	{"geometry":{"coordinates":[6.360386,50.918934],"type":"Point"},"properties":{"osm_id":"5894956867","tag":{"amenity":"waste_basket"}},"type":"Feature"},
	{"geometry":{"coordinates":[6.365115,50.921731],"type":"Point"},"properties":{"osm_id":"5940249987","tag":{"amenity":"waste_basket"}},"type":"Feature"},
	{"geometry":{"coordinates":[6.360817,50.920452],"type":"Point"},"properties":{"osm_id":"6037318791","tag":{"amenity":"waste_basket"}},"type":"Feature"},
	{"geometry":{"coordinates":[6.344306,50.923102],"type":"Point"},"properties":{"osm_id":"6123485231","tag":{"amenity":"waste_basket"}},"type":"Feature"},
	{"geometry":{"coordinates":[6.344392,50.923104],"type":"Point"},"properties":{"osm_id":"6123485232","tag":{"amenity":"waste_basket"}},"type":"Feature"},
	{"geometry":{"coordinates":[6.388205,50.953986],"type":"Point"},"properties":{"osm_id":"6455297190","tag":{"amenity":"waste_basket"}},"type":"Feature"},
	{"geometry":{"coordinates":[6.396236,50.913116],"type":"Point"},"properties":{"osm_id":"6647759658","tag":{"amenity":"waste_basket"}},"type":"Feature"}
]
}
