{
"type": "FeatureCollection",
"features": [
	{"geometry":{"coordinates":[6.39626,50.797116],"type":"Point"},"properties":{"osm_id":"312495100","tag":{"amenity":"recycling","recycling:clothes":"yes","recycling:glass":"yes","recycling_type":"container"}},"type":"Feature"},
	{"geometry":{"coordinates":[6.396675,50.810108],"type":"Point"},"properties":{"osm_id":"313688279","tag":{"amenity":"recycling","recycling:clothes":"yes","recycling_type":"container"}},"type":"Feature"},
	{"geometry":{"coordinates":[6.371007,50.832601],"type":"Point"},"properties":{"osm_id":"395499191","tag":{"amenity":"recycling","recycling:glass_bottles":"yes","recycling_type":"container"}},"type":"Feature"},
	{"geometry":{"coordinates":[6.396553,50.810186],"type":"Point"},"properties":{"osm_id":"446289797","tag":{"amenity":"recycling","recycling:glass_bottles":"yes","recycling_type":"container"}},"type":"Feature"},
	{"geometry":{"coordinates":[6.344379,50.838775],"type":"Point"},"properties":{"osm_id":"504709843","tag":{"amenity":"recycling","recycling:clothes":"yes","recycling:glass_bottles":"yes","recycling_type":"container"}},"type":"Feature"},
	{"geometry":{"coordinates":[6.390576,50.817477],"type":"Point"},"properties":{"osm_id":"534736646","tag":{"amenity":"recycling","recycling:clothes":"yes","recycling:glass":"yes","recycling:glass_bottles":"yes","recycling_type":"container"}},"type":"Feature"},
	{"geometry":{"coordinates":[6.334203,50.795036],"type":"Point"},"properties":{"osm_id":"549226575","tag":{"amenity":"recycling","recycling:clothes":"yes","recycling:glass_bottles":"yes","recycling_type":"container"}},"type":"Feature"},
	{"geometry":{"coordinates":[6.336271,50.797134],"type":"Point"},"properties":{"osm_id":"549226580","tag":{"amenity":"waste_basket"}},"type":"Feature"},
	{"geometry":{"coordinates":[6.356665,50.817341],"type":"Point"},"properties":{"osm_id":"565385360","tag":{"amenity":"recycling","recycling:clothes":"yes","recycling:electrical_appliances":"yes","recycling:glass":"yes"}},"type":"Feature"},
	{"geometry":{"coordinates":[6.360971,50.846586],"type":"Point"},"properties":{"osm_id":"574335100","tag":{"amenity":"recycling","recycling:glass_bottles":"yes","recycling_type":"container"}},"type":"Feature"},
	{"geometry":{"coordinates":[6.375382,50.809941],"type":"Point"},"properties":{"osm_id":"611288899","tag":{"amenity":"recycling","recycling:glass":"yes","recycling_type":"container"}},"type":"Feature"},
	{"geometry":{"coordinates":[6.375232,50.809948],"type":"Point"},"properties":{"osm_id":"611289540","tag":{"amenity":"recycling","recycling:clothes":"yes","recycling_type":"container"}},"type":"Feature"},
	{"geometry":{"coordinates":[6.388576,50.795206],"type":"Point"},"properties":{"osm_id":"648386170","tag":{"amenity":"recycling","recycling:glass":"yes"}},"type":"Feature"},
	{"geometry":{"coordinates":[6.336232,50.796899],"type":"Point"},"properties":{"osm_id":"746686485","tag":{"amenity":"waste_basket"}},"type":"Feature"},
	{"geometry":{"coordinates":[6.332798,50.821453],"type":"Point"},"properties":{"osm_id":"754082108","tag":{"amenity":"waste_basket"}},"type":"Feature"},
	{"geometry":{"coordinates":[6.344047,50.818468],"type":"Point"},"properties":{"osm_id":"760347583","tag":{"amenity":"waste_basket"}},"type":"Feature"},
	{"geometry":{"coordinates":[6.330167,50.81964],"type":"Point"},"properties":{"osm_id":"760347725","tag":{"amenity":"waste_basket"}},"type":"Feature"},
	{"geometry":{"coordinates":[6.345757,50.817783],"type":"Point"},"properties":{"osm_id":"760347736","tag":{"amenity":"waste_basket"}},"type":"Feature"},
	{"geometry":{"coordinates":[6.391193,50.800409],"type":"Point"},"properties":{"osm_id":"1099544724","tag":{"amenity":"recycling"}},"type":"Feature"},
	{"geometry":{"coordinates":[6.331493,50.824492],"type":"Point"},"properties":{"osm_id":"1492486708","tag":{"amenity":"recycling","recycling:clothes":"yes","recycling:glass":"yes","recycling_type":"container"}},"type":"Feature"},
	{"geometry":{"coordinates":[6.405166,50.798783],"type":"Point"},"properties":{"osm_id":"2130930771","tag":{"amenity":"recycling","recycling:clothes":"yes","recycling:glass_bottles":"yes","recycling_type":"container"}},"type":"Feature"},
	{"geometry":{"coordinates":[6.355199,50.840254],"type":"Point"},"properties":{"osm_id":"2448038996","tag":{"amenity":"recycling","recycling:clothes":"yes","recycling_type":"container"}},"type":"Feature"},
	{"geometry":{"coordinates":[6.355238,50.840231],"type":"Point"},"properties":{"osm_id":"2448038999","tag":{"amenity":"recycling","recycling:glass_bottles":"yes","recycling_type":"container"}},"type":"Feature"},
	{"geometry":{"coordinates":[6.360937,50.846569],"type":"Point"},"properties":{"name":"E-Kleinger\u00c3\u00a4te","osm_id":"2486387817","tag":{"amenity":"waste_basket"}},"type":"Feature"},
	{"geometry":{"coordinates":[6.354146,50.817895],"type":"Point"},"properties":{"osm_id":"4191878221","tag":{"amenity":"waste_basket"}},"type":"Feature"},
	{"geometry":{"coordinates":[6.353597,50.818007],"type":"Point"},"properties":{"osm_id":"4191878225","tag":{"amenity":"waste_basket"}},"type":"Feature"},
	{"geometry":{"coordinates":[6.342957,50.793077],"type":"Point"},"properties":{"osm_id":"4547211291","tag":{"amenity":"waste_basket"}},"type":"Feature"},
	{"geometry":{"coordinates":[6.352037,50.818448],"type":"Point"},"properties":{"osm_id":"4975033380","tag":{"amenity":"recycling","recycling:clothes":"yes","recycling:shoes":"yes","recycling_type":"container"}},"type":"Feature"},
	{"geometry":{"coordinates":[6.353655,50.818076],"type":"Point"},"properties":{"osm_id":"4975504101","tag":{"amenity":"waste_basket"}},"type":"Feature"},
	{"geometry":{"coordinates":[6.353652,50.817997],"type":"Point"},"properties":{"osm_id":"4975504106","tag":{"amenity":"waste_basket"}},"type":"Feature"},
	{"geometry":{"coordinates":[6.368097,50.811064],"type":"Point"},"properties":{"osm_id":"6161606861","tag":{"amenity":"waste_basket"}},"type":"Feature"},
	{"geometry":{"coordinates":[6.371946,50.812428],"type":"Point"},"properties":{"osm_id":"6161607101","tag":{"amenity":"recycling","recycling:clothes":"yes","recycling:glass_bottles":"yes","recycling_type":"container"}},"type":"Feature"},
	{"geometry":{"coordinates":[6.370835,50.808716],"type":"Point"},"properties":{"osm_id":"6161607136","tag":{"amenity":"waste_basket"}},"type":"Feature"},
	{"geometry":{"coordinates":[6.348637,50.811455],"type":"Point"},"properties":{"osm_id":"6163524114","tag":{"amenity":"waste_basket"}},"type":"Feature"},
	{"geometry":{"coordinates":[6.361294,50.817305],"type":"Point"},"properties":{"osm_id":"6302877764","tag":{"amenity":"waste_basket"}},"type":"Feature"},
	{"geometry":{"coordinates":[6.352839,50.818182],"type":"Point"},"properties":{"osm_id":"7238050849","tag":{"amenity":"waste_basket"}},"type":"Feature"},
	{"geometry":{"coordinates":[6.362589,50.816139],"type":"Point"},"properties":{"osm_id":"7743627298","tag":{"amenity":"recycling","recycling:clothes":"yes","recycling:glass_bottles":"yes","recycling_type":"container"}},"type":"Feature"}
]
}
