{
"type": "FeatureCollection",
"features": [
	{"geometry":{"coordinates":[6.410519,50.702127],"type":"Point"},"properties":{"osm_id":"269168674","tag":{"amenity":"recycling"}},"type":"Feature"},
	{"geometry":{"coordinates":[6.358616,50.683499],"type":"Point"},"properties":{"osm_id":"272181005","tag":{"amenity":"recycling","recycling:glass_bottles":"yes","recycling_type":"container"}},"type":"Feature"},
	{"geometry":{"coordinates":[6.380105,50.708991],"type":"Point"},"properties":{"osm_id":"274278594","tag":{"amenity":"recycling","recycling:clothes":"yes","recycling:glass":"yes"}},"type":"Feature"},
	{"geometry":{"coordinates":[6.3799,50.709322],"type":"Point"},"properties":{"name":"Schadstoffmobil","osm_id":"281739987","tag":{"amenity":"recycling"}},"type":"Feature"},
	{"geometry":{"coordinates":[6.395612,50.722408],"type":"Point"},"properties":{"osm_id":"284578619","tag":{"amenity":"recycling","recycling:clothes":"yes","recycling_type":"container"}},"type":"Feature"},
	{"geometry":{"coordinates":[6.412453,50.700827],"type":"Point"},"properties":{"osm_id":"318114081","tag":{"amenity":"waste_basket"}},"type":"Feature"},
	{"geometry":{"coordinates":[6.395589,50.720272],"type":"Point"},"properties":{"osm_id":"321385698","tag":{"amenity":"recycling","recycling:glass":"yes","recycling_type":"container"}},"type":"Feature"},
	{"geometry":{"coordinates":[6.395658,50.720189],"type":"Point"},"properties":{"osm_id":"321385699","tag":{"amenity":"recycling","recycling:paper":"yes","recycling_type":"container"}},"type":"Feature"},
	{"geometry":{"coordinates":[6.356938,50.688342],"type":"Point"},"properties":{"osm_id":"323074091","tag":{"amenity":"waste_basket"}},"type":"Feature"},
	{"geometry":{"coordinates":[6.411852,50.708944],"type":"Point"},"properties":{"osm_id":"323076593","tag":{"amenity":"waste_basket"}},"type":"Feature"},
	{"geometry":{"coordinates":[6.34713,50.68551],"type":"Point"},"properties":{"osm_id":"385101247","tag":{"amenity":"waste_basket"}},"type":"Feature"},
	{"geometry":{"coordinates":[6.35102,50.686169],"type":"Point"},"properties":{"osm_id":"1357504548","tag":{"amenity":"recycling","recycling:glass_bottles":"yes","recycling_type":"container"}},"type":"Feature"},
	{"geometry":{"coordinates":[6.370548,50.68684],"type":"Point"},"properties":{"osm_id":"2431310081","tag":{"amenity":"recycling","recycling:glass":"yes","recycling_type":"container"}},"type":"Feature"},
	{"geometry":{"coordinates":[6.373898,50.684176],"type":"Point"},"properties":{"osm_id":"2950021257","tag":{"amenity":"waste_basket"}},"type":"Feature"},
	{"geometry":{"coordinates":[6.350975,50.686163],"type":"Point"},"properties":{"osm_id":"4092570643","tag":{"amenity":"recycling","recycling:clothes":"yes","recycling_type":"container"}},"type":"Feature"}
]
}
