{
"type": "FeatureCollection",
"features": [
	{"geometry":{"coordinates":[6.381815,50.625845],"type":"Point"},"properties":{"osm_id":"993558446","tag":{"amenity":"recycling","recycling:glass":"yes","recycling_type":"container"}},"type":"Feature"},
	{"geometry":{"coordinates":[6.354104,50.666946],"type":"Point"},"properties":{"osm_id":"1404798327","tag":{"amenity":"waste_basket"}},"type":"Feature"},
	{"geometry":{"coordinates":[6.353733,50.66708],"type":"Point"},"properties":{"osm_id":"1404798331","tag":{"amenity":"waste_basket"}},"type":"Feature"},
	{"geometry":{"coordinates":[6.355241,50.667574],"type":"Point"},"properties":{"osm_id":"1404798336","tag":{"amenity":"waste_disposal","operator":"Landhotel Kallbach"}},"type":"Feature"},
	{"geometry":{"coordinates":[6.411192,50.655777],"type":"Point"},"properties":{"osm_id":"1941851725","tag":{"amenity":"waste_basket"}},"type":"Feature"},
	{"geometry":{"coordinates":[6.398153,50.656112],"type":"Point"},"properties":{"osm_id":"3644919926","tag":{"amenity":"waste_basket"}},"type":"Feature"},
	{"geometry":{"coordinates":[6.400596,50.668624],"type":"Point"},"properties":{"osm_id":"3644971834","tag":{"amenity":"waste_basket"}},"type":"Feature"},
	{"geometry":{"coordinates":[6.394327,50.674444],"type":"Point"},"properties":{"osm_id":"3644971846","tag":{"amenity":"waste_basket"}},"type":"Feature"},
	{"geometry":{"coordinates":[6.384976,50.62812],"type":"Point"},"properties":{"osm_id":"3712386705","tag":{"amenity":"waste_basket"}},"type":"Feature"},
	{"geometry":{"coordinates":[6.386734,50.629496],"type":"Point"},"properties":{"osm_id":"3712398473","tag":{"amenity":"waste_basket"}},"type":"Feature"},
	{"geometry":{"coordinates":[6.387214,50.629784],"type":"Point"},"properties":{"osm_id":"3712398479","tag":{"amenity":"waste_basket"}},"type":"Feature"},
	{"geometry":{"coordinates":[6.393066,50.651842],"type":"Point"},"properties":{"osm_id":"3739481176","tag":{"amenity":"waste_basket"}},"type":"Feature"},
	{"geometry":{"coordinates":[6.392665,50.6516],"type":"Point"},"properties":{"osm_id":"3743083693","tag":{"amenity":"waste_basket"}},"type":"Feature"},
	{"geometry":{"coordinates":[6.37408,50.634482],"type":"Point"},"properties":{"osm_id":"3821984367","tag":{"amenity":"waste_basket"}},"type":"Feature"},
	{"geometry":{"coordinates":[6.382595,50.627417],"type":"Point"},"properties":{"osm_id":"3977001196","tag":{"amenity":"waste_basket"}},"type":"Feature"},
	{"geometry":{"coordinates":[6.391884,50.627324],"type":"Point"},"properties":{"osm_id":"3977127163","tag":{"amenity":"waste_basket"}},"type":"Feature"},
	{"geometry":{"coordinates":[6.391981,50.627893],"type":"Point"},"properties":{"osm_id":"3977127164","tag":{"amenity":"waste_basket"}},"type":"Feature"},
	{"geometry":{"coordinates":[6.389765,50.628274],"type":"Point"},"properties":{"osm_id":"3977127167","tag":{"amenity":"waste_basket"}},"type":"Feature"},
	{"geometry":{"coordinates":[6.391139,50.628519],"type":"Point"},"properties":{"osm_id":"3977127172","tag":{"amenity":"waste_basket"}},"type":"Feature"},
	{"geometry":{"coordinates":[6.413684,50.653919],"type":"Point"},"properties":{"osm_id":"4048559067","tag":{"amenity":"waste_basket"}},"type":"Feature"},
	{"geometry":{"coordinates":[6.409828,50.655828],"type":"Point"},"properties":{"osm_id":"4049032889","tag":{"amenity":"waste_basket"}},"type":"Feature"},
	{"geometry":{"coordinates":[6.399898,50.657382],"type":"Point"},"properties":{"osm_id":"4049032890","tag":{"amenity":"waste_basket"}},"type":"Feature"},
	{"geometry":{"coordinates":[6.398915,50.657931],"type":"Point"},"properties":{"osm_id":"4049177940","tag":{"amenity":"recycling","recycling:clothes":"yes","recycling:glass_bottles":"yes","recycling_type":"container"}},"type":"Feature"},
	{"geometry":{"coordinates":[6.410123,50.659538],"type":"Point"},"properties":{"osm_id":"4049178713","tag":{"amenity":"waste_basket"}},"type":"Feature"},
	{"geometry":{"coordinates":[6.377891,50.659249],"type":"Point"},"properties":{"osm_id":"4195739416","tag":{"amenity":"waste_basket"}},"type":"Feature"},
	{"geometry":{"coordinates":[6.41292,50.646566],"type":"Point"},"properties":{"osm_id":"5781580255","tag":{"amenity":"recycling"}},"type":"Feature"},
	{"geometry":{"coordinates":[6.350866,50.628372],"type":"Point"},"properties":{"osm_id":"7259045094","tag":{"amenity":"recycling","recycling:glass":"yes","recycling:glass_bottles":"yes","recycling_type":"container"}},"type":"Feature"},
	{"geometry":{"coordinates":[6.35084,50.628325],"type":"Point"},"properties":{"osm_id":"7259045095","tag":{"amenity":"recycling","operator":"DRK","recycling:clothes":"yes","recycling:shoes":"yes","recycling_type":"container"}},"type":"Feature"},
	{"geometry":{"coordinates":[6.354451,50.666737],"type":"Point"},"properties":{"osm_id":"7612329224","tag":{"amenity":"recycling","recycling:glass_bottles":"yes","recycling_type":"container"}},"type":"Feature"},
	{"geometry":{"coordinates":[6.383358,50.625759],"type":"Point"},"properties":{"osm_id":"7629709973","tag":{"amenity":"waste_basket"}},"type":"Feature"},
	{"geometry":{"coordinates":[6.389102,50.625675],"type":"Point"},"properties":{"osm_id":"7629878493","tag":{"amenity":"waste_basket"}},"type":"Feature"},
	{"geometry":{"coordinates":[6.388337,50.625572],"type":"Point"},"properties":{"osm_id":"7629878502","tag":{"amenity":"waste_basket"}},"type":"Feature"}
]
}
