{
"type": "FeatureCollection",
"features": [
	{"geometry":{"coordinates":[6.378763,50.582922],"type":"Point"},"properties":{"osm_id":"260254551","tag":{"amenity":"recycling","mapillary":"WlFXcyeD3-Ka8lwsg6yHxA","recycling:batteries":"yes","recycling:glass":"yes","recycling_type":"container","survey:date":"2018-11-03"}},"type":"Feature"},
	{"geometry":{"coordinates":[6.328646,50.607107],"type":"Point"},"properties":{"osm_id":"290707633","tag":{"amenity":"waste_basket"}},"type":"Feature"},
	{"geometry":{"coordinates":[6.328374,50.607339],"type":"Point"},"properties":{"osm_id":"290707664","tag":{"amenity":"recycling","recycling:clothes":"yes"}},"type":"Feature"},
	{"geometry":{"coordinates":[6.37855,50.614395],"type":"Point"},"properties":{"osm_id":"643135109","tag":{"amenity":"recycling","recycling:batteries":"yes","recycling:clothes":"yes","recycling:glass_bottles":"yes","recycling:shoes":"yes","recycling_type":"container"}},"type":"Feature"},
	{"geometry":{"coordinates":[6.343133,50.576419],"type":"Point"},"properties":{"osm_id":"3660920319","tag":{"amenity":"waste_basket"}},"type":"Feature"},
	{"geometry":{"coordinates":[6.35548,50.588805],"type":"Point"},"properties":{"osm_id":"3660925559","tag":{"amenity":"waste_basket"}},"type":"Feature"},
	{"geometry":{"coordinates":[6.352529,50.62409],"type":"Point"},"properties":{"osm_id":"3700154961","tag":{"amenity":"waste_basket"}},"type":"Feature"},
	{"geometry":{"coordinates":[6.331376,50.607652],"type":"Point"},"properties":{"osm_id":"3946571311","tag":{"amenity":"recycling","recycling:batteries":"yes","recycling:glass":"yes","recycling_type":"container"}},"type":"Feature"},
	{"geometry":{"coordinates":[6.331079,50.607749],"type":"Point"},"properties":{"osm_id":"3966536088","tag":{"amenity":"recycling","recycling:clothes":"yes","recycling:shoes":"yes","recycling_type":"container"}},"type":"Feature"},
	{"geometry":{"coordinates":[6.367657,50.616822],"type":"Point"},"properties":{"osm_id":"4177228700","tag":{"amenity":"waste_basket"}},"type":"Feature"},
	{"geometry":{"coordinates":[6.377233,50.579691],"type":"Point"},"properties":{"osm_id":"4239836767","tag":{"amenity":"waste_basket"}},"type":"Feature"},
	{"geometry":{"coordinates":[6.356869,50.583438],"type":"Point"},"properties":{"osm_id":"5251143195","tag":{"amenity":"recycling","recycling:clothes":"yes","recycling_type":"container"}},"type":"Feature"},
	{"geometry":{"coordinates":[6.372426,50.583866],"type":"Point"},"properties":{"osm_id":"5678263383","tag":{"amenity":"waste_basket"}},"type":"Feature"},
	{"geometry":{"coordinates":[6.380612,50.601399],"type":"Point"},"properties":{"osm_id":"5682947315","tag":{"amenity":"waste_basket"}},"type":"Feature"},
	{"geometry":{"coordinates":[6.380769,50.601431],"type":"Point"},"properties":{"osm_id":"5682947319","tag":{"amenity":"waste_basket"}},"type":"Feature"},
	{"geometry":{"coordinates":[6.382238,50.606503],"type":"Point"},"properties":{"osm_id":"5815268737","tag":{"amenity":"waste_basket"}},"type":"Feature"},
	{"geometry":{"coordinates":[6.383045,50.606761],"type":"Point"},"properties":{"osm_id":"5817310700","tag":{"amenity":"waste_basket"}},"type":"Feature"},
	{"geometry":{"coordinates":[6.386273,50.605848],"type":"Point"},"properties":{"osm_id":"5817472197","tag":{"amenity":"waste_basket"}},"type":"Feature"},
	{"geometry":{"coordinates":[6.385593,50.608589],"type":"Point"},"properties":{"osm_id":"5817611309","tag":{"amenity":"waste_basket"}},"type":"Feature"},
	{"geometry":{"coordinates":[6.385653,50.608664],"type":"Point"},"properties":{"osm_id":"5817611310","tag":{"amenity":"waste_basket"}},"type":"Feature"},
	{"geometry":{"coordinates":[6.350665,50.617257],"type":"Point"},"properties":{"osm_id":"6286551069","tag":{"amenity":"waste_basket"}},"type":"Feature"},
	{"geometry":{"coordinates":[6.358889,50.580416],"type":"Point"},"properties":{"osm_id":"6699244990","tag":{"amenity":"waste_basket"}},"type":"Feature"},
	{"geometry":{"coordinates":[6.334703,50.624809],"type":"Point"},"properties":{"osm_id":"7114943276","tag":{"amenity":"recycling","recycling:glass_bottles":"yes","recycling_type":"container"}},"type":"Feature"},
	{"geometry":{"coordinates":[6.352808,50.58152],"type":"Point"},"properties":{"osm_id":"7134010136","tag":{"amenity":"waste_basket"}},"type":"Feature"},
	{"geometry":{"coordinates":[6.381928,50.583944],"type":"Point"},"properties":{"osm_id":"7272524051","tag":{"amenity":"recycling","recycling:clothes":"yes","recycling:shoes":"yes","recycling_type":"container"}},"type":"Feature"},
	{"geometry":{"coordinates":[6.355437,50.583927],"type":"Point"},"properties":{"osm_id":"7507463593","tag":{"amenity":"waste_basket"}},"type":"Feature"},
	{"geometry":{"coordinates":[6.392687,50.614202],"type":"Point"},"properties":{"osm_id":"7538574138","tag":{"amenity":"waste_basket"}},"type":"Feature"},
	{"geometry":{"coordinates":[6.385118,50.604878],"type":"Point"},"properties":{"osm_id":"7792064042","tag":{"amenity":"waste_basket"}},"type":"Feature"},
	{"geometry":{"coordinates":[6.387241,50.606451],"type":"Point"},"properties":{"osm_id":"7792071745","tag":{"amenity":"waste_basket"}},"type":"Feature"},
	{"geometry":{"coordinates":[6.387973,50.607229],"type":"Point"},"properties":{"osm_id":"7792072124","tag":{"amenity":"waste_basket"}},"type":"Feature"},
	{"geometry":{"coordinates":[6.387081,50.606472],"type":"Point"},"properties":{"osm_id":"7792078191","tag":{"amenity":"waste_basket"}},"type":"Feature"},
	{"geometry":{"coordinates":[6.3905,50.606967],"type":"Point"},"properties":{"osm_id":"7792293564","tag":{"amenity":"waste_basket"}},"type":"Feature"},
	{"geometry":{"coordinates":[6.390112,50.607256],"type":"Point"},"properties":{"osm_id":"7792295662","tag":{"amenity":"waste_basket"}},"type":"Feature"},
	{"geometry":{"coordinates":[6.32836,50.609863],"type":"Point"},"properties":{"osm_id":"8612135640","tag":{"amenity":"recycling","recycling:glass_bottles":"yes","recycling_type":"container"}},"type":"Feature"},
	{"geometry":{"coordinates":[6.38115,50.604435],"type":"Point"},"properties":{"osm_id":"8849036912","tag":{"amenity":"waste_basket"}},"type":"Feature"},
	{"geometry":{"coordinates":[6.382204,50.604323],"type":"Point"},"properties":{"osm_id":"8849036913","tag":{"amenity":"waste_basket"}},"type":"Feature"},
	{"geometry":{"coordinates":[6.381074,50.604811],"type":"Point"},"properties":{"osm_id":"8849036914","tag":{"amenity":"waste_basket"}},"type":"Feature"}
]
}
