{
"type": "FeatureCollection",
"features": [
	{"geometry":{"coordinates":[6.342351,49.666342],"type":"Point"},"properties":{"osm_id":"448116081","tag":{"amenity":"recycling","recycling:glass":"yes"}},"type":"Feature"},
	{"geometry":{"coordinates":[6.344038,49.665347],"type":"Point"},"properties":{"osm_id":"1500266815","tag":{"amenity":"waste_basket"}},"type":"Feature"},
	{"geometry":{"coordinates":[6.34276,49.666449],"type":"Point"},"properties":{"osm_id":"1500275867","tag":{"amenity":"waste_basket"}},"type":"Feature"},
	{"geometry":{"coordinates":[6.405979,49.612092],"type":"Point"},"properties":{"osm_id":"1974304924","tag":{"amenity":"waste_basket"}},"type":"Feature"},
	{"geometry":{"coordinates":[6.403806,49.613682],"type":"Point"},"properties":{"osm_id":"1974304993","tag":{"amenity":"waste_basket"}},"type":"Feature"},
	{"geometry":{"coordinates":[6.396642,49.613157],"type":"Point"},"properties":{"osm_id":"2413067854","tag":{"amenity":"waste_basket"}},"type":"Feature"},
	{"geometry":{"coordinates":[6.405938,49.614499],"type":"Point"},"properties":{"osm_id":"4549709273","tag":{"amenity":"waste_basket"}},"type":"Feature"},
	{"geometry":{"coordinates":[6.411576,49.650309],"type":"Point"},"properties":{"osm_id":"4876202974","tag":{"amenity":"waste_basket"}},"type":"Feature"},
	{"geometry":{"coordinates":[6.351492,49.616364],"type":"Point"},"properties":{"osm_id":"5651496606","tag":{"amenity":"waste_basket"}},"type":"Feature"},
	{"geometry":{"coordinates":[6.368476,49.666425],"type":"Point"},"properties":{"name":"SIGRE Muertendall","osm_id":"7310663314","tag":{"amenity":"recycling","recycling_type":"centre","website":"http://www.sigre.lu/"}},"type":"Feature"},
	{"geometry":{"coordinates":[6.337996,49.63357],"type":"Point"},"properties":{"osm_id":"7621910493","tag":{"amenity":"waste_basket"}},"type":"Feature"}
]
}
