{
"type": "FeatureCollection",
"features": [
	{"geometry":{"coordinates":[6.342234,49.453975],"type":"Point"},"properties":{"osm_id":"848595874","tag":{"amenity":"recycling"}},"type":"Feature"},
	{"geometry":{"coordinates":[6.341517,49.447454],"type":"Point"},"properties":{"name":"Dechetterie de Rettel","osm_id":"864586475","tag":{"amenity":"recycling","opening_hours":"Tu,Th-Sa 09:00-11:45, Tu-Sa 13:00-16:45,14:00-17:45","recycling_type":"centre","wheelchair":"yes"}},"type":"Feature"},
	{"geometry":{"coordinates":[6.361707,49.469462],"type":"Point"},"properties":{"osm_id":"1778305694","tag":{"amenity":"waste_basket"}},"type":"Feature"},
	{"geometry":{"coordinates":[6.384892,49.478014],"type":"Point"},"properties":{"osm_id":"2470165278","tag":{"amenity":"recycling","mapillary":"tbSROdYhLEFC-gqXJ26cDg","recycling_type":"container","survey:date":"2018-08-24"}},"type":"Feature"},
	{"geometry":{"coordinates":[6.405006,49.446522],"type":"Point"},"properties":{"osm_id":"3719815170","tag":{"amenity":"recycling"}},"type":"Feature"},
	{"geometry":{"coordinates":[6.371611,49.46681],"type":"Point"},"properties":{"osm_id":"6091541993","tag":{"amenity":"waste_basket"}},"type":"Feature"},
	{"geometry":{"coordinates":[6.366952,49.471395],"type":"Point"},"properties":{"osm_id":"6532827471","tag":{"amenity":"waste_basket"}},"type":"Feature"}
]
}
