{
"type": "FeatureCollection",
"lastupdate": "2020-08-03T00:00:00Z",
"features": [
	{"geometry":{"coordinates":[6.34658,46.921647],"type":"Point"},"properties":{"osm_id":"442366627","tag":{"amenity":"recycling","opening_hours":"24/7","operator":"Communaut\u00e9 de communes du Grand Pontarlier","recycling:glass":"yes","recycling:paper":"yes","recycling:plastic":"yes","recycling_type":"container","wheelchair":"yes"}},"type":"Feature"},
	{"geometry":{"coordinates":[6.347488,46.924674],"type":"Point"},"properties":{"osm_id":"569019926","tag":{"amenity":"recycling","opening_hours":"24/7","operator":"Communaut\u00e9 de communes du Grand Pontarlier","recycling:glass":"yes","recycling:paper":"yes","recycling:plastic":"yes","recycling_type":"container","wheelchair":"yes"}},"type":"Feature"},
	{"geometry":{"coordinates":[6.352288,46.929374],"type":"Point"},"properties":{"osm_id":"690585790","tag":{"amenity":"recycling","recycling:glass":"yes","recycling:paper":"yes","recycling:plastic":"yes","recycling_type":"container"}},"type":"Feature"},
	{"geometry":{"coordinates":[6.346548,46.921624],"type":"Point"},"properties":{"osm_id":"6037739823","tag":{"amenity":"recycling","opening_hours":"24/7","operator":"Communaut\u00e9 de communes du Grand Pontarlier","recycling:glass":"yes","recycling:paper":"yes","recycling:plastic":"yes","recycling_type":"container","wheelchair":"yes"}},"type":"Feature"},
	{"geometry":{"coordinates":[6.346516,46.9216],"type":"Point"},"properties":{"osm_id":"6037739824","tag":{"amenity":"recycling","opening_hours":"24/7","operator":"Communaut\u00e9 de communes du Grand Pontarlier","recycling:glass":"yes","recycling:paper":"yes","recycling:plastic":"yes","recycling_type":"container","wheelchair":"yes"}},"type":"Feature"},
	{"geometry":{"coordinates":[6.347493,46.924654],"type":"Point"},"properties":{"osm_id":"6037739917","tag":{"amenity":"recycling","opening_hours":"24/7","operator":"Communaut\u00e9 de communes du Grand Pontarlier","recycling:glass":"yes","recycling:paper":"yes","recycling:plastic":"yes","recycling_type":"container","wheelchair":"yes"}},"type":"Feature"},
	{"geometry":{"coordinates":[6.347499,46.92463],"type":"Point"},"properties":{"osm_id":"6037739918","tag":{"amenity":"recycling","opening_hours":"24/7","operator":"Communaut\u00e9 de communes du Grand Pontarlier","recycling:glass":"yes","recycling:paper":"yes","recycling:plastic":"yes","recycling_type":"container","wheelchair":"yes"}},"type":"Feature"},
	{"geometry":{"coordinates":[6.347505,46.924605],"type":"Point"},"properties":{"osm_id":"6037739919","tag":{"amenity":"recycling","opening_hours":"24/7","operator":"Communaut\u00e9 de communes du Grand Pontarlier","recycling:glass":"yes","recycling:paper":"yes","recycling:plastic":"yes","recycling_type":"container","wheelchair":"yes"}},"type":"Feature"},
	{"geometry":{"coordinates":[6.352306,46.929354],"type":"Point"},"properties":{"osm_id":"6042706776","tag":{"amenity":"recycling","recycling:glass":"yes","recycling:paper":"yes","recycling:plastic":"yes","recycling_type":"container"}},"type":"Feature"},
	{"geometry":{"coordinates":[6.352322,46.929332],"type":"Point"},"properties":{"osm_id":"6042706777","tag":{"amenity":"recycling","recycling:glass":"yes","recycling:paper":"yes","recycling:plastic":"yes","recycling_type":"container"}},"type":"Feature"},
	{"geometry":{"coordinates":[6.341525,46.976848],"type":"Point"},"properties":{"osm_id":"6285070065","tag":{"amenity":"recycling","opening_hours":"24/7","recycling:cardboard":"yes","recycling:glass":"yes","recycling:paper":"yes","recycling:plastic_bottles":"yes","recycling_type":"container","wheelchair":"yes"}},"type":"Feature"},
	{"geometry":{"coordinates":[6.341544,46.976828],"type":"Point"},"properties":{"osm_id":"6285070066","tag":{"amenity":"recycling","opening_hours":"24/7","recycling:cardboard":"yes","recycling:glass":"yes","recycling:paper":"yes","recycling:plastic_bottles":"yes","recycling_type":"container","wheelchair":"yes"}},"type":"Feature"},
	{"geometry":{"coordinates":[6.341563,46.976808],"type":"Point"},"properties":{"osm_id":"6285070067","tag":{"amenity":"recycling","opening_hours":"24/7","recycling:cardboard":"yes","recycling:glass":"yes","recycling:paper":"yes","recycling:plastic_bottles":"yes","recycling_type":"container","wheelchair":"yes"}},"type":"Feature"},
	{"geometry":{"coordinates":[6.338325,46.92128],"type":"Point"},"properties":{"osm_id":"6285070077","tag":{"amenity":"recycling","opening_hours":"24/7","recycling:cardboard":"yes","recycling:glass":"yes","recycling:glass_bottles":"yes","recycling:plastic_packaging":"yes","recycling_type":"container","wheelchair":"yes"}},"type":"Feature"},
	{"geometry":{"coordinates":[6.338342,46.921299],"type":"Point"},"properties":{"osm_id":"6285070078","tag":{"amenity":"recycling","opening_hours":"24/7","recycling:cardboard":"yes","recycling:glass":"yes","recycling:glass_bottles":"yes","recycling:plastic_packaging":"yes","recycling_type":"container","wheelchair":"yes"}},"type":"Feature"},
	{"geometry":{"coordinates":[6.338358,46.921319],"type":"Point"},"properties":{"osm_id":"6285070079","tag":{"amenity":"recycling","opening_hours":"24/7","recycling:cardboard":"yes","recycling:glass":"yes","recycling:glass_bottles":"yes","recycling:plastic_packaging":"yes","recycling_type":"container","wheelchair":"yes"}},"type":"Feature"},
	{"geometry":{"coordinates":[6.352284,46.929314],"type":"Point"},"properties":{"osm_id":"6297072235","tag":{"amenity":"recycling","recycling:clothes":"yes","recycling:shoes":"yes","recycling_type":"container"}},"type":"Feature"},
	{"geometry":{"coordinates":[6.338309,46.921261],"type":"Point"},"properties":{"osm_id":"6297073023","tag":{"amenity":"recycling","opening_hours":"24/7","recycling:clothes":"yes","recycling:shoes":"yes","recycling_type":"container","wheelchair":"yes"}},"type":"Feature"},
	{"geometry":{"coordinates":[6.339511,46.922446],"type":"Point"},"properties":{"osm_id":"6359435192","tag":{"amenity":"waste_basket"}},"type":"Feature"},
	{"geometry":{"coordinates":[6.343025,46.921527],"type":"Point"},"properties":{"osm_id":"6448605513","tag":{"amenity":"waste_basket"}},"type":"Feature"},
	{"geometry":{"coordinates":[6.342717,46.921555],"type":"Point"},"properties":{"osm_id":"6448605516","tag":{"amenity":"waste_basket"}},"type":"Feature"},
	{"geometry":{"coordinates":[6.342324,46.921837],"type":"Point"},"properties":{"osm_id":"6501017870","tag":{"amenity":"waste_basket"}},"type":"Feature"},
	{"geometry":{"coordinates":[6.342767,46.921281],"type":"Point"},"properties":{"osm_id":"6621297246","tag":{"amenity":"waste_basket"}},"type":"Feature"},
	{"geometry":{"coordinates":[6.386203,46.922314],"type":"Point"},"properties":{"osm_id":"6652178184","tag":{"amenity":"waste_basket","waste":"trash"}},"type":"Feature"},
	{"geometry":{"coordinates":[6.342494,46.925043],"type":"Point"},"properties":{"osm_id":"6841903093","tag":{"amenity":"waste_basket","covered":"yes","waste":"trash"}},"type":"Feature"},
	{"geometry":{"coordinates":[6.342267,46.924929],"type":"Point"},"properties":{"osm_id":"6841903094","tag":{"amenity":"waste_basket","covered":"yes","waste":"trash"}},"type":"Feature"},
	{"geometry":{"coordinates":[6.339585,46.924254],"type":"Point"},"properties":{"osm_id":"6856191449","tag":{"amenity":"waste_basket","waste":"trash"}},"type":"Feature"},
	{"geometry":{"coordinates":[6.339527,46.924221],"type":"Point"},"properties":{"osm_id":"6856191450","tag":{"amenity":"waste_basket","waste":"trash"}},"type":"Feature"},
	{"geometry":{"coordinates":[6.339469,46.9234],"type":"Point"},"properties":{"osm_id":"6856191451","tag":{"amenity":"waste_basket","waste":"trash"}},"type":"Feature"},
	{"geometry":{"coordinates":[6.339199,46.923917],"type":"Point"},"properties":{"osm_id":"6856191452","tag":{"amenity":"waste_basket","waste":"trash"}},"type":"Feature"},
	{"geometry":{"coordinates":[6.34323,46.921078],"type":"Point"},"properties":{"osm_id":"6872162868","tag":{"amenity":"recycling","recycling_type":"container"}},"type":"Feature"},
	{"geometry":{"coordinates":[6.342755,46.925708],"type":"Point"},"properties":{"osm_id":"7027388694","tag":{"amenity":"waste_basket","waste":"trash"}},"type":"Feature"},
	{"geometry":{"coordinates":[6.35998,46.930908],"type":"Point"},"properties":{"osm_id":"7027389840","tag":{"amenity":"waste_basket","waste":"trash"}},"type":"Feature"}
]
}
