{
"type": "FeatureCollection",
"features": [
	{"geometry":{"coordinates":[6.353187,46.903011],"type":"Point"},"properties":{"osm_id":"340341320","tag":{"amenity":"recycling","location":"underground","opening_hours":"24/7","recycling:cardboard":"yes","recycling:paper":"yes","recycling_type":"container","wheelchair":"yes"}},"type":"Feature"},
	{"geometry":{"coordinates":[6.356144,46.901099],"type":"Point"},"properties":{"osm_id":"340342818","tag":{"amenity":"recycling","description":"Verre cass\u00c3\u00a9 dans les ordures m\u00c3\u00a9nag\u00c3\u00a8res (bac vert). Ampoules en d\u00c3\u00a9ch\u00c3\u00a8terie ou dans les points de collecte d\u00c3\u00a9di\u00c3\u00a9s.","location":"underground","opening_hours":"24/7","operator":"Communaut\u00c3\u00a9 de communes du Grand Pontarlier","recycling:glass":"no","recycling:glass_bottles":"yes","recycling_type":"container","website":"https://preval.fr/wp/que-faire-de-mes-dechets/le-verre/","wheelchair":"yes"}},"type":"Feature"},
	{"geometry":{"coordinates":[6.355543,46.905663],"type":"Point"},"properties":{"osm_id":"340342912","tag":{"amenity":"recycling","description":"Cartonnettes seulement (emballages des yaourts, paquet de p\u00c3\u00a2te\u00e2\u0080\u00a6), les cartons (d\u00c3\u00a9m\u00c3\u00a9nagement, achat \u00c3\u00a9l\u00c3\u00a9ctrom\u00c3\u00a9nager, colis\u00e2\u0080\u00a6) en d\u00c3\u00a9ch\u00c3\u00a8terie. Les livres (sauf magazines, revues, dictionnaires, encyclop\u00c3\u00a9dies, manuels scolaires) vont en d\u00c3\u00a9ch\u00c3\u00a8terie.","opening_hours":"24/7","operator":"Communaut\u00c3\u00a9 de communes du Grand Pontarlier","recycling:beverage_carton":"yes","recycling:books":"yes","recycling:cardboard":"no","recycling:magazines":"yes","recycling:newspaper":"yes","recycling:paper":"yes","recycling:paper_packaging":"yes","recycling_type":"container","survey:date":"2020-08-05","website":"https://preval.fr/wp/que-faire-de-mes-dechets/les-emballages-et-les-papiers/"}},"type":"Feature"},
	{"geometry":{"coordinates":[6.351327,46.911527],"type":"Point"},"properties":{"osm_id":"369317805","tag":{"amenity":"recycling","operator":"Communaut\u00c3\u00a9 de communes du Grand Pontarlier","recycling:glass":"yes","recycling:paper":"yes","recycling:plastic":"yes","recycling_type":"container"}},"type":"Feature"},
	{"geometry":{"coordinates":[6.360084,46.902809],"type":"Point"},"properties":{"osm_id":"370294329","tag":{"amenity":"recycling","operator":"Communaut\u00c3\u00a9 de communes du Grand Pontarlier","recycling:paper":"yes","recycling_type":"container"}},"type":"Feature"},
	{"geometry":{"coordinates":[6.360785,46.902191],"type":"Point"},"properties":{"osm_id":"373092054","tag":{"amenity":"recycling","opening_hours":"24/7","operator":"Communaut\u00c3\u00a9 de communes du Grand Pontarlier","recycling:glass":"yes","recycling:paper":"yes","recycling:plastic":"yes","recycling_type":"container"}},"type":"Feature"},
	{"geometry":{"coordinates":[6.362707,46.898724],"type":"Point"},"properties":{"osm_id":"373092120","tag":{"amenity":"recycling","operator":"Communaut\u00c3\u00a9 de communes du Grand Pontarlier","recycling:glass":"yes","recycling:paper":"yes","recycling:plastic":"yes","recycling_type":"container"}},"type":"Feature"},
	{"geometry":{"coordinates":[6.366563,46.894597],"type":"Point"},"properties":{"osm_id":"373092160","tag":{"amenity":"recycling","operator":"Communaut\u00c3\u00a9 de communes du Grand Pontarlier","recycling:glass":"yes","recycling:paper":"yes","recycling:plastic":"yes","recycling_type":"container"}},"type":"Feature"},
	{"geometry":{"coordinates":[6.369211,46.900222],"type":"Point"},"properties":{"osm_id":"373092161","tag":{"amenity":"recycling","operator":"Communaut\u00c3\u00a9 de communes du Grand Pontarlier","recycling:glass":"yes","recycling:paper":"yes","recycling:plastic":"yes","recycling_type":"container"}},"type":"Feature"},
	{"geometry":{"coordinates":[6.370851,46.904423],"type":"Point"},"properties":{"osm_id":"373092313","tag":{"amenity":"recycling","opening_hours":"24/7","operator":"Communaut\u00c3\u00a9 de communes du Grand Pontarlier","recycling:glass":"yes","recycling:paper":"yes","recycling_type":"container","wheelchair":"yes"}},"type":"Feature"},
	{"geometry":{"coordinates":[6.367439,46.903768],"type":"Point"},"properties":{"osm_id":"373092319","tag":{"amenity":"recycling","operator":"Communaut\u00c3\u00a9 de communes du Grand Pontarlier","recycling:glass":"yes","recycling:paper":"yes","recycling:plastic":"yes","recycling_type":"container"}},"type":"Feature"},
	{"geometry":{"coordinates":[6.36721,46.905616],"type":"Point"},"properties":{"osm_id":"373092370","tag":{"amenity":"recycling","opening_hours":"24/7","operator":"Communaut\u00c3\u00a9 de communes du Grand Pontarlier","recycling:glass":"yes","recycling:paper":"yes","recycling:plastic":"yes","recycling_type":"container","wheelchair":"yes"}},"type":"Feature"},
	{"geometry":{"coordinates":[6.365255,46.907302],"type":"Point"},"properties":{"osm_id":"373092371","tag":{"amenity":"recycling","opening_hours":"24/7","operator":"Communaut\u00c3\u00a9 de communes du Grand Pontarlier","recycling:glass":"yes","recycling:paper":"yes","recycling:plastic":"yes","recycling_type":"container","wheelchair":"yes"}},"type":"Feature"},
	{"geometry":{"coordinates":[6.353978,46.904244],"type":"Point"},"properties":{"osm_id":"418158203","tag":{"amenity":"recycling","operator":"Communaut\u00c3\u00a9 de communes du Grand Pontarlier","recycling:glass":"yes","recycling:paper":"yes","recycling:plastic":"yes","recycling_type":"container"}},"type":"Feature"},
	{"geometry":{"coordinates":[6.344663,46.895667],"type":"Point"},"properties":{"osm_id":"419163888","tag":{"amenity":"recycling","description":"Verre cass\u00c3\u00a9 dans les ordures m\u00c3\u00a9nag\u00c3\u00a8res (bac vert). Ampoules en d\u00c3\u00a9ch\u00c3\u00a8terie ou dans les points de collecte d\u00c3\u00a9di\u00c3\u00a9s.","opening_hours":"24/7","operator":"Communaut\u00c3\u00a9 de communes du Grand Pontarlier","recycling:glass":"no","recycling:glass_bottles":"yes","recycling_type":"container","survey:date":"2020-08-10","website":"https://preval.fr/wp/que-faire-de-mes-dechets/le-verre/"}},"type":"Feature"},
	{"geometry":{"coordinates":[6.345996,46.913456],"type":"Point"},"properties":{"osm_id":"432775334","tag":{"amenity":"recycling","operator":"Communaut\u00c3\u00a9 de communes du Grand Pontarlier","recycling:glass":"yes","recycling:paper":"yes","recycling:plastic":"yes","recycling_type":"container"}},"type":"Feature"},
	{"geometry":{"coordinates":[6.348457,46.912006],"type":"Point"},"properties":{"osm_id":"442362634","tag":{"amenity":"recycling","description":"Verre cass\u00c3\u00a9 dans les ordures m\u00c3\u00a9nag\u00c3\u00a8res (bac vert). Ampoules en d\u00c3\u00a9ch\u00c3\u00a8terie ou dans les points de collecte d\u00c3\u00a9di\u00c3\u00a9s.","opening_hours":"24/7","operator":"Communaut\u00c3\u00a9 de communes du Grand Pontarlier","recycling:glass":"no","recycling:glass_bottles":"yes","recycling_type":"container","website":"https://preval.fr/wp/que-faire-de-mes-dechets/le-verre/"}},"type":"Feature"},
	{"geometry":{"coordinates":[6.34167,46.913902],"type":"Point"},"properties":{"osm_id":"455889649","tag":{"amenity":"recycling","opening_hours":"24/7","operator":"Communaut\u00c3\u00a9 de communes du Grand Pontarlier","recycling:glass":"yes","recycling:paper":"yes","recycling:plastic":"yes","recycling_type":"container"}},"type":"Feature"},
	{"geometry":{"coordinates":[6.347421,46.907022],"type":"Point"},"properties":{"osm_id":"470312833","tag":{"amenity":"recycling","operator":"Communaut\u00c3\u00a9 de communes du Grand Pontarlier","recycling:glass":"yes","recycling:paper":"yes","recycling:plastic":"yes","recycling_type":"container"}},"type":"Feature"},
	{"geometry":{"coordinates":[6.343836,46.906781],"type":"Point"},"properties":{"osm_id":"470312841","tag":{"amenity":"recycling","operator":"Communaut\u00c3\u00a9 de communes du Grand Pontarlier","recycling:glass":"yes","recycling:paper":"yes","recycling:plastic":"yes","recycling_type":"container"}},"type":"Feature"},
	{"geometry":{"coordinates":[6.360232,46.914245],"type":"Point"},"properties":{"osm_id":"473477773","tag":{"amenity":"recycling","operator":"Communaut\u00c3\u00a9 de communes du Grand Pontarlier","recycling:glass":"yes","recycling:paper":"yes","recycling:plastic":"yes","recycling_type":"container"}},"type":"Feature"},
	{"geometry":{"coordinates":[6.358017,46.917798],"type":"Point"},"properties":{"osm_id":"473477789","tag":{"amenity":"recycling","opening_hours":"24/7","operator":"Communaut\u00c3\u00a9 de communes du Grand Pontarlier","recycling:glass":"yes","recycling:paper":"yes","recycling:plastic":"yes","recycling_type":"container"}},"type":"Feature"},
	{"geometry":{"coordinates":[6.355232,46.912024],"type":"Point"},"properties":{"osm_id":"473675236","tag":{"amenity":"recycling","operator":"Communaut\u00c3\u00a9 de communes du Grand Pontarlier","recycling:glass":"yes","recycling:paper":"yes","recycling:plastic":"yes","recycling_type":"container"}},"type":"Feature"},
	{"geometry":{"coordinates":[6.352327,46.914712],"type":"Point"},"properties":{"osm_id":"473675248","tag":{"amenity":"recycling","opening_hours":"24/7","operator":"Communaut\u00c3\u00a9 de communes du Grand Pontarlier","recycling:glass":"yes","recycling:paper":"yes","recycling:plastic":"yes","recycling_type":"container"}},"type":"Feature"},
	{"geometry":{"coordinates":[6.349089,46.919228],"type":"Point"},"properties":{"osm_id":"473679705","tag":{"amenity":"recycling","description":"Cartonnettes seulement (emballages des yaourts, paquet de p\u00c3\u00a2te\u00e2\u0080\u00a6), les cartons (d\u00c3\u00a9m\u00c3\u00a9nagement, achat \u00c3\u00a9l\u00c3\u00a9ctrom\u00c3\u00a9nager, colis\u00e2\u0080\u00a6) en d\u00c3\u00a9ch\u00c3\u00a8terie. Les livres (sauf magazines, revues, dictionnaires, encyclop\u00c3\u00a9dies, manuels scolaires) vont en d\u00c3\u00a9ch\u00c3\u00a8terie.","opening_hours":"24/7","operator":"Communaut\u00c3\u00a9 de communes du Grand Pontarlier","recycling:beverage_carton":"yes","recycling:books":"yes","recycling:cardboard":"no","recycling:magazines":"yes","recycling:newspaper":"yes","recycling:paper":"yes","recycling:paper_packaging":"yes","recycling_type":"container","website":"https://preval.fr/wp/que-faire-de-mes-dechets/les-emballages-et-les-papiers/"}},"type":"Feature"},
	{"geometry":{"coordinates":[6.33916,46.907673],"type":"Point"},"properties":{"osm_id":"473690233","tag":{"amenity":"recycling","operator":"Communaut\u00c3\u00a9 de communes du Grand Pontarlier","recycling:glass":"yes","recycling:paper":"yes","recycling:plastic":"yes","recycling_type":"container"}},"type":"Feature"},
	{"geometry":{"coordinates":[6.337605,46.905333],"type":"Point"},"properties":{"osm_id":"474953974","tag":{"amenity":"recycling","operator":"Communaut\u00c3\u00a9 de communes du Grand Pontarlier","recycling:glass":"yes","recycling:paper":"yes","recycling:plastic":"yes","recycling_type":"container"}},"type":"Feature"},
	{"geometry":{"coordinates":[6.346702,46.904093],"type":"Point"},"properties":{"osm_id":"474953975","tag":{"amenity":"recycling","operator":"Communaut\u00c3\u00a9 de communes du Grand Pontarlier","recycling:glass":"yes","recycling:paper":"yes","recycling:plastic":"yes","recycling_type":"container"}},"type":"Feature"},
	{"geometry":{"coordinates":[6.354093,46.907315],"type":"Point"},"properties":{"osm_id":"474954239","tag":{"amenity":"recycling","operator":"Communaut\u00c3\u00a9 de Communes du Grand Pontarlier","recycling:glass_bottles":"yes","recycling:magazines":"yes","recycling:newspaper":"yes","recycling:paper":"yes","recycling:paper_packaging":"yes","recycling:plastic":"yes","recycling:plastic_bottles":"yes","recycling:plastic_packaging":"yes","recycling_type":"container"}},"type":"Feature"},
	{"geometry":{"coordinates":[6.351461,46.902781],"type":"Point"},"properties":{"osm_id":"487209369","tag":{"amenity":"recycling","location":"underground","opening_hours":"24/7","operator":"Communaut\u00c3\u00a9 de communes du Grand Pontarlier","recycling:glass":"yes","recycling:paper":"yes","recycling:plastic":"yes","recycling_type":"container"}},"type":"Feature"},
	{"geometry":{"coordinates":[6.373668,46.900014],"type":"Point"},"properties":{"osm_id":"487219688","tag":{"amenity":"recycling","opening_hours":"24/7","operator":"Communaut\u00c3\u00a9 de communes du Grand Pontarlier","recycling:glass":"yes","recycling:paper":"yes","recycling:plastic":"yes","recycling_type":"container","wheelchair":"yes"}},"type":"Feature"},
	{"geometry":{"coordinates":[6.378575,46.871866],"type":"Point"},"properties":{"osm_id":"719348769","tag":{"amenity":"recycling","recycling:glass":"yes","recycling:paper":"yes","recycling:plastic":"yes","recycling_type":"container"}},"type":"Feature"},
	{"geometry":{"coordinates":[6.354338,46.885821],"type":"Point"},"properties":{"osm_id":"796068856","tag":{"amenity":"waste_basket"}},"type":"Feature"},
	{"geometry":{"coordinates":[6.334,46.900514],"type":"Point"},"properties":{"osm_id":"1245457081","tag":{"amenity":"recycling","operator":"Communaut\u00c3\u00a9 de communes du Grand Pontarlier","recycling:glass":"yes","recycling:glass_bottles":"yes","recycling_type":"container"}},"type":"Feature"},
	{"geometry":{"coordinates":[6.344013,46.902835],"type":"Point"},"properties":{"osm_id":"5741849505","tag":{"amenity":"waste_basket"}},"type":"Feature"},
	{"geometry":{"coordinates":[6.342174,46.902554],"type":"Point"},"properties":{"osm_id":"5741849898","tag":{"amenity":"recycling","operator":"Communaut\u00c3\u00a9 de communes du Grand Pontarlier","recycling_type":"container"}},"type":"Feature"},
	{"geometry":{"coordinates":[6.357138,46.90609],"type":"Point"},"properties":{"osm_id":"5741983109","tag":{"amenity":"waste_basket","waste":"dog_excrement"}},"type":"Feature"},
	{"geometry":{"coordinates":[6.358072,46.906421],"type":"Point"},"properties":{"osm_id":"5741983116","tag":{"amenity":"waste_basket","waste":"trash"}},"type":"Feature"},
	{"geometry":{"coordinates":[6.364443,46.908112],"type":"Point"},"properties":{"osm_id":"5741984837","tag":{"amenity":"recycling","description":"Verre cass\u00c3\u00a9 dans les ordures m\u00c3\u00a9nag\u00c3\u00a8res (bac vert). Ampoules en d\u00c3\u00a9ch\u00c3\u00a8terie ou dans les points de collecte d\u00c3\u00a9di\u00c3\u00a9s.","opening_hours":"24/7","operator":"Communaut\u00c3\u00a9 de communes du Grand Pontarlier","recycling:glass":"no","recycling:glass_bottles":"yes","recycling_type":"container","website":"https://preval.fr/wp/que-faire-de-mes-dechets/le-verre/"}},"type":"Feature"},
	{"geometry":{"coordinates":[6.371134,46.904547],"type":"Point"},"properties":{"osm_id":"5884328669","tag":{"amenity":"waste_basket"}},"type":"Feature"},
	{"geometry":{"coordinates":[6.360262,46.894941],"type":"Point"},"properties":{"osm_id":"6037759718","tag":{"amenity":"waste_basket"}},"type":"Feature"},
	{"geometry":{"coordinates":[6.359989,46.895831],"type":"Point"},"properties":{"osm_id":"6037759720","tag":{"amenity":"waste_basket"}},"type":"Feature"},
	{"geometry":{"coordinates":[6.359038,46.897879],"type":"Point"},"properties":{"osm_id":"6037759722","tag":{"amenity":"waste_basket"}},"type":"Feature"},
	{"geometry":{"coordinates":[6.357718,46.899638],"type":"Point"},"properties":{"osm_id":"6037759723","tag":{"amenity":"waste_basket"}},"type":"Feature"},
	{"geometry":{"coordinates":[6.369206,46.900255],"type":"Point"},"properties":{"osm_id":"6050172315","tag":{"amenity":"recycling","operator":"Communaut\u00c3\u00a9 de communes du Grand Pontarlier","recycling:glass":"yes","recycling:paper":"yes","recycling:plastic":"yes","recycling_type":"container"}},"type":"Feature"},
	{"geometry":{"coordinates":[6.369231,46.900241],"type":"Point"},"properties":{"osm_id":"6050172316","tag":{"amenity":"recycling","operator":"Communaut\u00c3\u00a9 de communes du Grand Pontarlier","recycling:glass":"yes","recycling:paper":"yes","recycling:plastic":"yes","recycling_type":"container"}},"type":"Feature"},
	{"geometry":{"coordinates":[6.353145,46.90304],"type":"Point"},"properties":{"osm_id":"6050172617","tag":{"amenity":"recycling","location":"underground","opening_hours":"24/7","recycling:glass":"yes","recycling:glass_bottles":"yes","recycling_type":"container","wheelchair":"yes"}},"type":"Feature"},
	{"geometry":{"coordinates":[6.353165,46.903026],"type":"Point"},"properties":{"osm_id":"6050172618","tag":{"amenity":"recycling","location":"underground","opening_hours":"24/7","recycling:plastic":"yes","recycling:plastic_bottles":"yes","recycling:plastic_packaging":"yes","recycling_type":"container","wheelchair":"yes"}},"type":"Feature"},
	{"geometry":{"coordinates":[6.354372,46.899733],"type":"Point"},"properties":{"osm_id":"6124267613","tag":{"amenity":"recycling","description":"Aluminium : Emballages uniquement (ne pas mettre en boule les feuilles d'aluminium), les pi\u00c3\u00a8ces vont en d\u00c3\u00a9ch\u00c3\u00a8terie. Polystyr\u00c3\u00a8ne (barquette de viande...) accept\u00c3\u00a9, chips ou polystryr\u00c3\u00a8ne de calage de colis en d\u00c3\u00a9ch\u00c3\u00a8terie.","opening_hours":"24/7","operator":"Communaut\u00c3\u00a9 de communes du Grand Pontarlier","recycling:aluminium":"yes","recycling:beverage_carton":"no","recycling:cans":"yes","recycling:foil":"yes","recycling:plastic_bags":"yes","recycling:plastic_bottles":"yes","recycling:plastic_packaging":"yes","recycling:polyester":"yes","recycling_type":"container","website":"https://preval.fr/wp/que-faire-de-mes-dechets/les-emballages-et-les-papiers/"}},"type":"Feature"},
	{"geometry":{"coordinates":[6.362316,46.879647],"type":"Point"},"properties":{"osm_id":"6199021607","tag":{"amenity":"waste_basket"}},"type":"Feature"},
	{"geometry":{"coordinates":[6.333529,46.897111],"type":"Point"},"properties":{"barrier":"gate","osm_id":"6199627048","tag":{"access":"customers","motorcar":"yes"}},"type":"Feature"},
	{"geometry":{"coordinates":[6.354412,46.899753],"type":"Point"},"properties":{"osm_id":"6199629222","tag":{"amenity":"recycling","description":"Cartonnettes seulement (emballages des yaourts, paquet de p\u00c3\u00a2te\u00e2\u0080\u00a6), les cartons (d\u00c3\u00a9m\u00c3\u00a9nagement, achat \u00c3\u00a9l\u00c3\u00a9ctrom\u00c3\u00a9nager, colis\u00e2\u0080\u00a6) en d\u00c3\u00a9ch\u00c3\u00a8terie. Les livres (sauf magazines, revues, dictionnaires, encyclop\u00c3\u00a9dies, manuels scolaires) vont en d\u00c3\u00a9ch\u00c3\u00a8terie.","opening_hours":"24/7","operator":"Communaut\u00c3\u00a9 de communes du Grand Pontarlier","recycling:beverage_carton":"yes","recycling:books":"yes","recycling:cardboard":"no","recycling:magazines":"yes","recycling:newspaper":"yes","recycling:paper":"yes","recycling:paper_packaging":"yes","recycling_type":"container","website":"https://preval.fr/wp/que-faire-de-mes-dechets/les-emballages-et-les-papiers/"}},"type":"Feature"},
	{"geometry":{"coordinates":[6.354412,46.899733],"type":"Point"},"properties":{"osm_id":"6199629223","tag":{"amenity":"recycling","description":"Cartonnettes seulement (emballages des yaourts, paquet de p\u00c3\u00a2te\u00e2\u0080\u00a6), les cartons (d\u00c3\u00a9m\u00c3\u00a9nagement, achat \u00c3\u00a9l\u00c3\u00a9ctrom\u00c3\u00a9nager, colis\u00e2\u0080\u00a6) en d\u00c3\u00a9ch\u00c3\u00a8terie. Les livres (sauf magazines, revues, dictionnaires, encyclop\u00c3\u00a9dies, manuels scolaires) vont en d\u00c3\u00a9ch\u00c3\u00a8terie.","opening_hours":"24/7","operator":"Communaut\u00c3\u00a9 de communes du Grand Pontarlier","recycling:beverage_carton":"yes","recycling:books":"yes","recycling:cardboard":"no","recycling:magazines":"yes","recycling:newspaper":"yes","recycling:paper":"yes","recycling:paper_packaging":"yes","recycling_type":"container","website":"https://preval.fr/wp/que-faire-de-mes-dechets/les-emballages-et-les-papiers/"}},"type":"Feature"},
	{"geometry":{"coordinates":[6.354332,46.899733],"type":"Point"},"properties":{"osm_id":"6199629224","tag":{"amenity":"recycling","description":"Verre cass\u00c3\u00a9 dans les ordures m\u00c3\u00a9nag\u00c3\u00a8res (bac vert). Ampoules en d\u00c3\u00a9ch\u00c3\u00a8terie ou dans les points de collecte d\u00c3\u00a9di\u00c3\u00a9s.","opening_hours":"24/7","operator":"Communaut\u00c3\u00a9 de communes du Grand Pontarlier","recycling:glass":"no","recycling:glass_bottles":"yes","recycling_type":"container","website":"https://preval.fr/wp/que-faire-de-mes-dechets/le-verre/"}},"type":"Feature"},
	{"geometry":{"coordinates":[6.35437,46.899756],"type":"Point"},"properties":{"osm_id":"6199629225","tag":{"amenity":"recycling","description":"Aluminium : Emballages uniquement (ne pas mettre en boule les feuilles d'aluminium), les pi\u00c3\u00a8ces vont en d\u00c3\u00a9ch\u00c3\u00a8terie. Polystyr\u00c3\u00a8ne (barquette de viande...) accept\u00c3\u00a9, chips ou polystryr\u00c3\u00a8ne de calage de colis en d\u00c3\u00a9ch\u00c3\u00a8terie.","opening_hours":"24/7","operator":"Communaut\u00c3\u00a9 de communes du Grand Pontarlier","recycling:aluminium":"yes","recycling:beverage_carton":"no","recycling:cans":"yes","recycling:foil":"yes","recycling:plastic_bags":"yes","recycling:plastic_bottles":"yes","recycling:plastic_packaging":"yes","recycling:polyester":"yes","recycling_type":"container","website":"https://preval.fr/wp/que-faire-de-mes-dechets/les-emballages-et-les-papiers/"}},"type":"Feature"},
	{"geometry":{"coordinates":[6.346735,46.904098],"type":"Point"},"properties":{"osm_id":"6202292151","tag":{"amenity":"recycling","operator":"Communaut\u00c3\u00a9 de communes du Grand Pontarlier","recycling:glass":"yes","recycling:paper":"yes","recycling:plastic":"yes","recycling_type":"container"}},"type":"Feature"},
	{"geometry":{"coordinates":[6.34667,46.904088],"type":"Point"},"properties":{"osm_id":"6202292152","tag":{"amenity":"recycling","operator":"Communaut\u00c3\u00a9 de communes du Grand Pontarlier","recycling:glass":"yes","recycling:paper":"yes","recycling:plastic":"yes","recycling_type":"container"}},"type":"Feature"},
	{"geometry":{"coordinates":[6.337675,46.905298],"type":"Point"},"properties":{"osm_id":"6202292307","tag":{"amenity":"recycling","operator":"Communaut\u00c3\u00a9 de communes du Grand Pontarlier","recycling:glass":"yes","recycling:paper":"yes","recycling:plastic":"yes","recycling_type":"container"}},"type":"Feature"},
	{"geometry":{"coordinates":[6.337652,46.90531],"type":"Point"},"properties":{"osm_id":"6202292308","tag":{"amenity":"recycling","operator":"Communaut\u00c3\u00a9 de communes du Grand Pontarlier","recycling:glass":"yes","recycling:paper":"yes","recycling:plastic":"yes","recycling_type":"container"}},"type":"Feature"},
	{"geometry":{"coordinates":[6.337628,46.905321],"type":"Point"},"properties":{"osm_id":"6202292309","tag":{"amenity":"recycling","operator":"Communaut\u00c3\u00a9 de communes du Grand Pontarlier","recycling:glass":"yes","recycling:paper":"yes","recycling:plastic":"yes","recycling_type":"container"}},"type":"Feature"},
	{"geometry":{"coordinates":[6.334026,46.900506],"type":"Point"},"properties":{"osm_id":"6202292358","tag":{"amenity":"recycling","operator":"Communaut\u00c3\u00a9 de communes du Grand Pontarlier","recycling:cardboard":"yes","recycling:paper":"yes","recycling_type":"container"}},"type":"Feature"},
	{"geometry":{"coordinates":[6.333975,46.900521],"type":"Point"},"properties":{"osm_id":"6202292359","tag":{"amenity":"recycling","operator":"Communaut\u00c3\u00a9 de communes du Grand Pontarlier","recycling:plastic":"yes","recycling:plastic_bottles":"yes","recycling:plastic_packaging":"yes","recycling_type":"container"}},"type":"Feature"},
	{"geometry":{"coordinates":[6.360262,46.914252],"type":"Point"},"properties":{"osm_id":"6238841535","tag":{"amenity":"recycling","operator":"Communaut\u00c3\u00a9 de communes du Grand Pontarlier","recycling:glass":"yes","recycling:paper":"yes","recycling:plastic":"yes","recycling_type":"container"}},"type":"Feature"},
	{"geometry":{"coordinates":[6.360202,46.914237],"type":"Point"},"properties":{"osm_id":"6238841536","tag":{"amenity":"recycling","operator":"Communaut\u00c3\u00a9 de communes du Grand Pontarlier","recycling:glass":"yes","recycling:paper":"yes","recycling:plastic":"yes","recycling_type":"container"}},"type":"Feature"},
	{"geometry":{"coordinates":[6.348443,46.912055],"type":"Point"},"properties":{"osm_id":"6238842812","tag":{"amenity":"recycling","description":"Cartonnettes seulement (emballages des yaourts, paquet de p\u00c3\u00a2te\u00e2\u0080\u00a6), les cartons (d\u00c3\u00a9m\u00c3\u00a9nagement, achat \u00c3\u00a9l\u00c3\u00a9ctrom\u00c3\u00a9nager, colis\u00e2\u0080\u00a6) en d\u00c3\u00a9ch\u00c3\u00a8terie. Les livres (sauf magazines, revues, dictionnaires, encyclop\u00c3\u00a9dies, manuels scolaires) vont en d\u00c3\u00a9ch\u00c3\u00a8terie.","opening_hours":"24/7","operator":"Communaut\u00c3\u00a9 de communes du Grand Pontarlier","recycling:beverage_carton":"yes","recycling:books":"yes","recycling:cardboard":"no","recycling:magazines":"yes","recycling:newspaper":"yes","recycling:paper":"yes","recycling:paper_packaging":"yes","recycling_type":"container","website":"https://preval.fr/wp/que-faire-de-mes-dechets/les-emballages-et-les-papiers/"}},"type":"Feature"},
	{"geometry":{"coordinates":[6.348454,46.912032],"type":"Point"},"properties":{"osm_id":"6238842813","tag":{"amenity":"recycling","description":"Aluminium : Emballages uniquement (ne pas mettre en boule les feuilles d'aluminium), les pi\u00c3\u00a8ces vont en d\u00c3\u00a9ch\u00c3\u00a8terie. Polystyr\u00c3\u00a8ne (barquette de viande...) accept\u00c3\u00a9, chips ou polystryr\u00c3\u00a8ne de calage de colis en d\u00c3\u00a9ch\u00c3\u00a8terie.","opening_hours":"24/7","operator":"Communaut\u00c3\u00a9 de communes du Grand Pontarlier","recycling:aluminium":"yes","recycling:beverage_carton":"no","recycling:cans":"yes","recycling:foil":"yes","recycling:plastic_bags":"yes","recycling:plastic_bottles":"yes","recycling:plastic_packaging":"yes","recycling:polyester":"yes","recycling_type":"container","website":"https://preval.fr/wp/que-faire-de-mes-dechets/les-emballages-et-les-papiers/"}},"type":"Feature"},
	{"geometry":{"coordinates":[6.360721,46.902164],"type":"Point"},"properties":{"osm_id":"6238842819","tag":{"amenity":"recycling","opening_hours":"24/7","operator":"Communaut\u00c3\u00a9 de communes du Grand Pontarlier","recycling:glass":"yes","recycling:paper":"yes","recycling:plastic":"yes","recycling_type":"container"}},"type":"Feature"},
	{"geometry":{"coordinates":[6.360753,46.902177],"type":"Point"},"properties":{"osm_id":"6238842820","tag":{"amenity":"recycling","opening_hours":"24/7","operator":"Communaut\u00c3\u00a9 de communes du Grand Pontarlier","recycling:glass":"yes","recycling:paper":"yes","recycling:plastic":"yes","recycling_type":"container"}},"type":"Feature"},
	{"geometry":{"coordinates":[6.357956,46.917813],"type":"Point"},"properties":{"osm_id":"6238842854","tag":{"amenity":"recycling","opening_hours":"24/7","operator":"Communaut\u00c3\u00a9 de communes du Grand Pontarlier","recycling:glass":"yes","recycling:paper":"yes","recycling:plastic":"yes","recycling_type":"container"}},"type":"Feature"},
	{"geometry":{"coordinates":[6.357986,46.917806],"type":"Point"},"properties":{"osm_id":"6238842855","tag":{"amenity":"recycling","opening_hours":"24/7","operator":"Communaut\u00c3\u00a9 de communes du Grand Pontarlier","recycling:glass":"yes","recycling:paper":"yes","recycling:plastic":"yes","recycling_type":"container"}},"type":"Feature"},
	{"geometry":{"coordinates":[6.352369,46.914713],"type":"Point"},"properties":{"osm_id":"6238842889","tag":{"amenity":"recycling","opening_hours":"24/7","operator":"Communaut\u00c3\u00a9 de communes du Grand Pontarlier","recycling:glass":"yes","recycling:paper":"yes","recycling:plastic":"yes","recycling_type":"container"}},"type":"Feature"},
	{"geometry":{"coordinates":[6.353995,46.904261],"type":"Point"},"properties":{"osm_id":"6270449883","tag":{"amenity":"recycling","operator":"Communaut\u00c3\u00a9 de communes du Grand Pontarlier","recycling:glass":"yes","recycling:paper":"yes","recycling:plastic":"yes","recycling_type":"container"}},"type":"Feature"},
	{"geometry":{"coordinates":[6.353961,46.904227],"type":"Point"},"properties":{"osm_id":"6270449884","tag":{"amenity":"recycling","operator":"Communaut\u00c3\u00a9 de communes du Grand Pontarlier","recycling:glass":"yes","recycling:paper":"yes","recycling:plastic":"yes","recycling_type":"container"}},"type":"Feature"},
	{"geometry":{"coordinates":[6.356184,46.901073],"type":"Point"},"properties":{"osm_id":"6270451587","tag":{"amenity":"recycling","description":"Cartonnettes seulement (emballages des yaourts, paquet de p\u00c3\u00a2te\u00e2\u0080\u00a6), les cartons (d\u00c3\u00a9m\u00c3\u00a9nagement, achat \u00c3\u00a9l\u00c3\u00a9ctrom\u00c3\u00a9nager, colis\u00e2\u0080\u00a6) en d\u00c3\u00a9ch\u00c3\u00a8terie. Les livres (sauf magazines, revues, dictionnaires, encyclop\u00c3\u00a9dies, manuels scolaires) vont en d\u00c3\u00a9ch\u00c3\u00a8terie.","location":"underground","opening_hours":"24/7","operator":"Communaut\u00c3\u00a9 de communes du Grand Pontarlier","recycling:beverage_carton":"yes","recycling:books":"yes","recycling:cardboard":"no","recycling:magazines":"yes","recycling:newspaper":"yes","recycling:paper":"yes","recycling:paper_packaging":"yes","recycling_type":"container","website":"https://preval.fr/wp/que-faire-de-mes-dechets/les-emballages-et-les-papiers/","wheelchair":"yes"}},"type":"Feature"},
	{"geometry":{"coordinates":[6.356164,46.901086],"type":"Point"},"properties":{"osm_id":"6270451588","tag":{"amenity":"recycling","description":"Aluminium : Emballages uniquement (ne pas mettre en boule les feuilles d'aluminium), les pi\u00c3\u00a8ces vont en d\u00c3\u00a9ch\u00c3\u00a8terie. Polystyr\u00c3\u00a8ne (barquette de viande...) accept\u00c3\u00a9, chips ou polystryr\u00c3\u00a8ne de calage de colis en d\u00c3\u00a9ch\u00c3\u00a8terie.","location":"underground","opening_hours":"24/7","operator":"Communaut\u00c3\u00a9 de communes du Grand Pontarlier","recycling:aluminium":"yes","recycling:beverage_carton":"no","recycling:cans":"yes","recycling:foil":"yes","recycling:plastic_bags":"yes","recycling:plastic_bottles":"yes","recycling:plastic_packaging":"yes","recycling:polyester":"yes","recycling_type":"container","website":"https://preval.fr/wp/que-faire-de-mes-dechets/les-emballages-et-les-papiers/","wheelchair":"yes"}},"type":"Feature"},
	{"geometry":{"coordinates":[6.351473,46.902798],"type":"Point"},"properties":{"osm_id":"6270451786","tag":{"amenity":"recycling","location":"underground","opening_hours":"24/7","operator":"Communaut\u00c3\u00a9 de communes du Grand Pontarlier","recycling:glass":"yes","recycling:paper":"yes","recycling:plastic":"yes","recycling_type":"container"}},"type":"Feature"},
	{"geometry":{"coordinates":[6.351449,46.902765],"type":"Point"},"properties":{"osm_id":"6270451787","tag":{"amenity":"recycling","location":"underground","opening_hours":"24/7","operator":"Communaut\u00c3\u00a9 de communes du Grand Pontarlier","recycling:glass":"yes","recycling:paper":"yes","recycling:plastic":"yes","recycling_type":"container"}},"type":"Feature"},
	{"geometry":{"coordinates":[6.352907,46.892115],"type":"Point"},"properties":{"osm_id":"6270451821","tag":{"amenity":"waste_basket","waste":"trash"}},"type":"Feature"},
	{"geometry":{"coordinates":[6.370218,46.880492],"type":"Point"},"properties":{"osm_id":"6277445696","tag":{"amenity":"waste_basket","waste":"trash"}},"type":"Feature"},
	{"geometry":{"coordinates":[6.370314,46.880614],"type":"Point"},"properties":{"osm_id":"6277445697","tag":{"amenity":"waste_basket","waste":"trash"}},"type":"Feature"},
	{"geometry":{"coordinates":[6.380013,46.895515],"type":"Point"},"properties":{"osm_id":"6277445878","tag":{"amenity":"waste_basket","waste":"trash"}},"type":"Feature"},
	{"geometry":{"coordinates":[6.380028,46.888124],"type":"Point"},"properties":{"osm_id":"6277445980","tag":{"amenity":"waste_basket","waste":"trash"}},"type":"Feature"},
	{"geometry":{"coordinates":[6.354328,46.899759],"type":"Point"},"properties":{"osm_id":"6277446115","tag":{"amenity":"recycling","brand":"Le Relais","charity":"yes","description":"Les v\u00c3\u00aatements doivent \u00c3\u00aatre propres, secs, mais peuvent \u00c3\u00aatre tach\u00c3\u00a9s, trou\u00c3\u00a9s ou us\u00c3\u00a9s. Attacher les chaussures par paires. Mettre dans des sacs de 30 litres maximum.","email":"lerelaisbourgogne@lerelais.org","fax":"+33 3 85 41 27 56","opening_hours":"24/7","operator":"Le Relais Atlantique","phone":"+33 3 85 41 23 49","recycling:clothes":"yes","recycling:shoes":"yes","recycling_type":"container","website":"https://lerelais.org/","wheelchair":"yes"}},"type":"Feature"},
	{"geometry":{"coordinates":[6.356619,46.900398],"type":"Point"},"properties":{"osm_id":"6277446162","tag":{"amenity":"waste_basket","waste":"trash"}},"type":"Feature"},
	{"geometry":{"coordinates":[6.35619,46.900332],"type":"Point"},"properties":{"osm_id":"6277446163","tag":{"amenity":"waste_basket","waste":"trash"}},"type":"Feature"},
	{"geometry":{"coordinates":[6.347428,46.906924],"type":"Point"},"properties":{"osm_id":"6285070170","tag":{"amenity":"recycling","operator":"Communaut\u00c3\u00a9 de communes du Grand Pontarlier","recycling:glass":"yes","recycling:paper":"yes","recycling:plastic":"yes","recycling_type":"container"}},"type":"Feature"},
	{"geometry":{"coordinates":[6.347426,46.906944],"type":"Point"},"properties":{"osm_id":"6285070171","tag":{"amenity":"recycling","operator":"Communaut\u00c3\u00a9 de communes du Grand Pontarlier","recycling:glass":"yes","recycling:paper":"yes","recycling:plastic":"yes","recycling_type":"container"}},"type":"Feature"},
	{"geometry":{"coordinates":[6.347425,46.906963],"type":"Point"},"properties":{"osm_id":"6285070172","tag":{"amenity":"recycling","operator":"Communaut\u00c3\u00a9 de communes du Grand Pontarlier","recycling:glass":"yes","recycling:paper":"yes","recycling:plastic":"yes","recycling_type":"container"}},"type":"Feature"},
	{"geometry":{"coordinates":[6.347424,46.906983],"type":"Point"},"properties":{"osm_id":"6285070173","tag":{"amenity":"recycling","operator":"Communaut\u00c3\u00a9 de communes du Grand Pontarlier","recycling:glass":"yes","recycling:paper":"yes","recycling:plastic":"yes","recycling_type":"container"}},"type":"Feature"},
	{"geometry":{"coordinates":[6.347422,46.907002],"type":"Point"},"properties":{"osm_id":"6285070174","tag":{"amenity":"recycling","operator":"Communaut\u00c3\u00a9 de communes du Grand Pontarlier","recycling:glass":"yes","recycling:paper":"yes","recycling:plastic":"yes","recycling_type":"container"}},"type":"Feature"},
	{"geometry":{"coordinates":[6.342146,46.902552],"type":"Point"},"properties":{"osm_id":"6285070192","tag":{"amenity":"recycling","operator":"Communaut\u00c3\u00a9 de communes du Grand Pontarlier","recycling_type":"container"}},"type":"Feature"},
	{"geometry":{"coordinates":[6.342202,46.902555],"type":"Point"},"properties":{"osm_id":"6285070193","tag":{"amenity":"recycling","operator":"Communaut\u00c3\u00a9 de communes du Grand Pontarlier","recycling_type":"container"}},"type":"Feature"},
	{"geometry":{"coordinates":[6.357926,46.917821],"type":"Point"},"properties":{"osm_id":"6285070208","tag":{"amenity":"recycling","opening_hours":"24/7","operator":"Communaut\u00c3\u00a9 de communes du Grand Pontarlier","recycling_type":"container"}},"type":"Feature"},
	{"geometry":{"coordinates":[6.344658,46.895644],"type":"Point"},"properties":{"osm_id":"6285070335","tag":{"amenity":"recycling","description":"Cartonnettes seulement (emballages des yaourts, paquet de p\u00c3\u00a2te\u00e2\u0080\u00a6), les cartons (d\u00c3\u00a9m\u00c3\u00a9nagement, achat \u00c3\u00a9l\u00c3\u00a9ctrom\u00c3\u00a9nager, colis\u00e2\u0080\u00a6) en d\u00c3\u00a9ch\u00c3\u00a8terie. Les livres (sauf magazines, revues, dictionnaires, encyclop\u00c3\u00a9dies, manuels scolaires) vont en d\u00c3\u00a9ch\u00c3\u00a8terie.","opening_hours":"24/7","operator":"Communaut\u00c3\u00a9 de communes du Grand Pontarlier","recycling:beverage_carton":"yes","recycling:books":"yes","recycling:cardboard":"no","recycling:magazines":"yes","recycling:newspaper":"yes","recycling:paper":"yes","recycling:paper_packaging":"yes","recycling_type":"container","survey:date":"2020-08-10","website":"https://preval.fr/wp/que-faire-de-mes-dechets/les-emballages-et-les-papiers/"}},"type":"Feature"},
	{"geometry":{"coordinates":[6.344688,46.895641],"type":"Point"},"properties":{"osm_id":"6285070336","tag":{"amenity":"recycling","operator":"Communaut\u00c3\u00a9 de communes du Grand Pontarlier","recycling:glass":"yes","recycling:paper":"yes","recycling:plastic":"yes","recycling_type":"container"}},"type":"Feature"},
	{"geometry":{"coordinates":[6.34469,46.895664],"type":"Point"},"properties":{"osm_id":"6285070337","tag":{"amenity":"recycling","operator":"Communaut\u00c3\u00a9 de communes du Grand Pontarlier","recycling:glass":"yes","recycling:paper":"yes","recycling:plastic":"yes","recycling_type":"container"}},"type":"Feature"},
	{"geometry":{"coordinates":[6.354303,46.899761],"type":"Point"},"properties":{"osm_id":"6285070423","tag":{"amenity":"waste_basket"}},"type":"Feature"},
	{"geometry":{"coordinates":[6.355701,46.89979],"type":"Point"},"properties":{"osm_id":"6285070424","tag":{"amenity":"waste_basket"}},"type":"Feature"},
	{"geometry":{"coordinates":[6.362665,46.898775],"type":"Point"},"properties":{"osm_id":"6297072073","tag":{"amenity":"recycling","operator":"Communaut\u00c3\u00a9 de communes du Grand Pontarlier","recycling:clothes":"yes","recycling:shoes":"yes","recycling_type":"container"}},"type":"Feature"},
	{"geometry":{"coordinates":[6.362686,46.898764],"type":"Point"},"properties":{"osm_id":"6297072074","tag":{"amenity":"recycling","operator":"Communaut\u00c3\u00a9 de communes du Grand Pontarlier","recycling:glass":"yes","recycling:paper":"yes","recycling:plastic":"yes","recycling_type":"container"}},"type":"Feature"},
	{"geometry":{"coordinates":[6.362697,46.898744],"type":"Point"},"properties":{"osm_id":"6297072075","tag":{"amenity":"recycling","operator":"Communaut\u00c3\u00a9 de communes du Grand Pontarlier","recycling:glass":"yes","recycling:paper":"yes","recycling:plastic":"yes","recycling_type":"container"}},"type":"Feature"},
	{"geometry":{"coordinates":[6.353151,46.901427],"type":"Point"},"properties":{"osm_id":"6297072082","tag":{"amenity":"waste_basket"}},"type":"Feature"},
	{"geometry":{"coordinates":[6.353979,46.901074],"type":"Point"},"properties":{"osm_id":"6297072084","tag":{"amenity":"waste_basket"}},"type":"Feature"},
	{"geometry":{"coordinates":[6.352078,46.901126],"type":"Point"},"properties":{"osm_id":"6297072185","tag":{"amenity":"waste_basket"}},"type":"Feature"},
	{"geometry":{"coordinates":[6.352303,46.901097],"type":"Point"},"properties":{"osm_id":"6297072186","tag":{"amenity":"waste_basket"}},"type":"Feature"},
	{"geometry":{"coordinates":[6.352523,46.901083],"type":"Point"},"properties":{"osm_id":"6297072187","tag":{"amenity":"waste_basket"}},"type":"Feature"},
	{"geometry":{"coordinates":[6.352754,46.901075],"type":"Point"},"properties":{"osm_id":"6297072188","tag":{"amenity":"waste_basket"}},"type":"Feature"},
	{"geometry":{"coordinates":[6.353273,46.901197],"type":"Point"},"properties":{"osm_id":"6297072189","tag":{"amenity":"waste_basket"}},"type":"Feature"},
	{"geometry":{"coordinates":[6.354084,46.901752],"type":"Point"},"properties":{"osm_id":"6297072190","tag":{"amenity":"waste_basket"}},"type":"Feature"},
	{"geometry":{"coordinates":[6.373361,46.896376],"type":"Point"},"properties":{"osm_id":"6297072255","tag":{"amenity":"waste_basket","waste":"trash"}},"type":"Feature"},
	{"geometry":{"coordinates":[6.347188,46.90163],"type":"Point"},"properties":{"osm_id":"6297072653","tag":{"amenity":"waste_basket","waste":"trash"}},"type":"Feature"},
	{"geometry":{"coordinates":[6.346251,46.902088],"type":"Point"},"properties":{"osm_id":"6297072654","tag":{"amenity":"waste_basket","waste":"trash"}},"type":"Feature"},
	{"geometry":{"coordinates":[6.354414,46.900732],"type":"Point"},"properties":{"osm_id":"6304610271","tag":{"amenity":"waste_basket","waste":"trash"}},"type":"Feature"},
	{"geometry":{"coordinates":[6.353308,46.900954],"type":"Point"},"properties":{"osm_id":"6304610294","tag":{"amenity":"waste_basket","waste":"trash"}},"type":"Feature"},
	{"geometry":{"coordinates":[6.353947,46.901124],"type":"Point"},"properties":{"osm_id":"6304610295","tag":{"amenity":"waste_basket","waste":"trash"}},"type":"Feature"},
	{"geometry":{"coordinates":[6.349113,46.919272],"type":"Point"},"properties":{"osm_id":"6315049899","tag":{"amenity":"recycling","description":"Aluminium : Emballages uniquement (ne pas mettre en boule les feuilles d'aluminium), les pi\u00c3\u00a8ces vont en d\u00c3\u00a9ch\u00c3\u00a8terie. Polystyr\u00c3\u00a8ne (barquette de viande...) accept\u00c3\u00a9, chips ou polystryr\u00c3\u00a8ne de calage de colis en d\u00c3\u00a9ch\u00c3\u00a8terie.","opening_hours":"24/7","operator":"Communaut\u00c3\u00a9 de communes du Grand Pontarlier","recycling:aluminium":"yes","recycling:beverage_carton":"no","recycling:cans":"yes","recycling:foil":"yes","recycling:plastic_bags":"yes","recycling:plastic_bottles":"yes","recycling:plastic_packaging":"yes","recycling:polyester":"yes","recycling_type":"container","website":"https://preval.fr/wp/que-faire-de-mes-dechets/les-emballages-et-les-papiers/"}},"type":"Feature"},
	{"geometry":{"coordinates":[6.349101,46.91925],"type":"Point"},"properties":{"osm_id":"6315049900","tag":{"amenity":"recycling","description":"Verre cass\u00c3\u00a9 dans les ordures m\u00c3\u00a9nag\u00c3\u00a8res (bac vert). Ampoules en d\u00c3\u00a9ch\u00c3\u00a8terie ou dans les points de collecte d\u00c3\u00a9di\u00c3\u00a9s.","opening_hours":"24/7","operator":"Communaut\u00c3\u00a9 de communes du Grand Pontarlier","recycling:glass":"no","recycling:glass_bottles":"yes","recycling_type":"container","website":"https://preval.fr/wp/que-faire-de-mes-dechets/le-verre/"}},"type":"Feature"},
	{"geometry":{"coordinates":[6.353618,46.900857],"type":"Point"},"properties":{"osm_id":"6315050328","tag":{"amenity":"waste_basket","waste":"trash"}},"type":"Feature"},
	{"geometry":{"coordinates":[6.36747,46.90377],"type":"Point"},"properties":{"osm_id":"6317140967","tag":{"amenity":"recycling","operator":"Communaut\u00c3\u00a9 de communes du Grand Pontarlier","recycling:glass":"yes","recycling:paper":"yes","recycling:plastic":"yes","recycling_type":"container"}},"type":"Feature"},
	{"geometry":{"coordinates":[6.367408,46.903766],"type":"Point"},"properties":{"osm_id":"6317140968","tag":{"amenity":"recycling","operator":"Communaut\u00c3\u00a9 de communes du Grand Pontarlier","recycling:glass":"yes","recycling:paper":"yes","recycling:plastic":"yes","recycling_type":"container"}},"type":"Feature"},
	{"geometry":{"coordinates":[6.339167,46.907715],"type":"Point"},"properties":{"osm_id":"6317140983","tag":{"amenity":"recycling","operator":"Communaut\u00c3\u00a9 de communes du Grand Pontarlier","recycling:glass":"yes","recycling:paper":"yes","recycling:plastic":"yes","recycling_type":"container"}},"type":"Feature"},
	{"geometry":{"coordinates":[6.339164,46.907694],"type":"Point"},"properties":{"osm_id":"6317140984","tag":{"amenity":"recycling","operator":"Communaut\u00c3\u00a9 de communes du Grand Pontarlier","recycling:glass":"yes","recycling:paper":"yes","recycling:plastic":"yes","recycling_type":"container"}},"type":"Feature"},
	{"geometry":{"coordinates":[6.347373,46.901802],"type":"Point"},"properties":{"osm_id":"6328064372","tag":{"amenity":"waste_basket","waste":"trash"}},"type":"Feature"},
	{"geometry":{"coordinates":[6.349148,46.901228],"type":"Point"},"properties":{"osm_id":"6328067701","tag":{"amenity":"waste_basket","waste":"trash"}},"type":"Feature"},
	{"geometry":{"coordinates":[6.348315,46.901064],"type":"Point"},"properties":{"osm_id":"6328067702","tag":{"amenity":"waste_basket","waste":"trash"}},"type":"Feature"},
	{"geometry":{"coordinates":[6.345962,46.901924],"type":"Point"},"properties":{"osm_id":"6328067718","tag":{"amenity":"waste_basket","waste":"trash"}},"type":"Feature"},
	{"geometry":{"coordinates":[6.343199,46.914143],"type":"Point"},"properties":{"osm_id":"6329792781","tag":{"amenity":"recycling","opening_hours":"24/7","operator":"Communaut\u00c3\u00a9 de communes du Grand Pontarlier","recycling:glass":"yes","recycling:paper":"yes","recycling:plastic":"yes","recycling_type":"container"}},"type":"Feature"},
	{"geometry":{"coordinates":[6.343213,46.914184],"type":"Point"},"properties":{"osm_id":"6329792782","tag":{"amenity":"recycling","opening_hours":"24/7","operator":"Communaut\u00c3\u00a9 de communes du Grand Pontarlier","recycling:glass":"yes","recycling:paper":"yes","recycling:plastic":"yes","recycling_type":"container"}},"type":"Feature"},
	{"geometry":{"coordinates":[6.343206,46.914163],"type":"Point"},"properties":{"osm_id":"6329792783","tag":{"amenity":"recycling","opening_hours":"24/7","operator":"Communaut\u00c3\u00a9 de communes du Grand Pontarlier","recycling:glass":"yes","recycling:paper":"yes","recycling:plastic":"yes","recycling_type":"container"}},"type":"Feature"},
	{"geometry":{"coordinates":[6.341687,46.913942],"type":"Point"},"properties":{"osm_id":"6329792792","tag":{"amenity":"recycling","opening_hours":"24/7","operator":"Communaut\u00c3\u00a9 de communes du Grand Pontarlier","recycling:glass":"yes","recycling:paper":"yes","recycling:plastic":"yes","recycling_type":"container"}},"type":"Feature"},
	{"geometry":{"coordinates":[6.341678,46.913922],"type":"Point"},"properties":{"osm_id":"6329792793","tag":{"amenity":"recycling","opening_hours":"24/7","operator":"Communaut\u00c3\u00a9 de communes du Grand Pontarlier","recycling:glass":"yes","recycling:paper":"yes","recycling:plastic":"yes","recycling_type":"container"}},"type":"Feature"},
	{"geometry":{"coordinates":[6.339864,46.918591],"type":"Point"},"properties":{"osm_id":"6329792812","tag":{"amenity":"recycling","opening_hours":"24/7","recycling:cardboard":"yes","recycling:glass":"yes","recycling:plastic":"yes","recycling_type":"container"}},"type":"Feature"},
	{"geometry":{"coordinates":[6.339844,46.91857],"type":"Point"},"properties":{"osm_id":"6329792813","tag":{"amenity":"recycling","opening_hours":"24/7","recycling:cardboard":"yes","recycling:glass":"yes","recycling:plastic":"yes","recycling_type":"container"}},"type":"Feature"},
	{"geometry":{"coordinates":[6.339817,46.918542],"type":"Point"},"properties":{"osm_id":"6329792814","tag":{"amenity":"recycling","opening_hours":"24/7","recycling:cardboard":"yes","recycling:glass":"yes","recycling:plastic":"yes","recycling_type":"container"}},"type":"Feature"},
	{"geometry":{"coordinates":[6.356595,46.896004],"type":"Point"},"properties":{"osm_id":"6338737362","tag":{"amenity":"waste_basket","waste":"trash"}},"type":"Feature"},
	{"geometry":{"coordinates":[6.36055,46.893868],"type":"Point"},"properties":{"osm_id":"6338737373","tag":{"amenity":"waste_basket"}},"type":"Feature"},
	{"geometry":{"coordinates":[6.355143,46.909873],"type":"Point"},"properties":{"osm_id":"6359435152","tag":{"amenity":"recycling","opening_hours":"24/7","recycling_type":"container","wheelchair":"yes"}},"type":"Feature"},
	{"geometry":{"coordinates":[6.355124,46.90989],"type":"Point"},"properties":{"osm_id":"6359435153","tag":{"amenity":"recycling","opening_hours":"24/7","recycling_type":"container","wheelchair":"yes"}},"type":"Feature"},
	{"geometry":{"coordinates":[6.355168,46.909907],"type":"Point"},"properties":{"osm_id":"6359435154","tag":{"amenity":"recycling","opening_hours":"24/7","recycling_type":"container","wheelchair":"yes"}},"type":"Feature"},
	{"geometry":{"coordinates":[6.355187,46.909888],"type":"Point"},"properties":{"osm_id":"6359435155","tag":{"amenity":"recycling","opening_hours":"24/7","recycling_type":"container","wheelchair":"yes"}},"type":"Feature"},
	{"geometry":{"coordinates":[6.355204,46.909869],"type":"Point"},"properties":{"osm_id":"6359435156","tag":{"amenity":"recycling","opening_hours":"24/7","recycling_type":"container","wheelchair":"yes"}},"type":"Feature"},
	{"geometry":{"coordinates":[6.355164,46.909854],"type":"Point"},"properties":{"osm_id":"6359435157","tag":{"amenity":"recycling","opening_hours":"24/7","recycling_type":"container","wheelchair":"yes"}},"type":"Feature"},
	{"geometry":{"coordinates":[6.365215,46.907298],"type":"Point"},"properties":{"osm_id":"6359435158","tag":{"amenity":"recycling","opening_hours":"24/7","operator":"Communaut\u00c3\u00a9 de communes du Grand Pontarlier","recycling:glass":"yes","recycling_type":"container","wheelchair":"yes"}},"type":"Feature"},
	{"geometry":{"coordinates":[6.365235,46.9073],"type":"Point"},"properties":{"osm_id":"6359435159","tag":{"amenity":"recycling","opening_hours":"24/7","operator":"Communaut\u00c3\u00a9 de communes du Grand Pontarlier","recycling:glass":"yes","recycling:paper":"yes","recycling:plastic":"yes","recycling_type":"container","wheelchair":"yes"}},"type":"Feature"},
	{"geometry":{"coordinates":[6.367279,46.905618],"type":"Point"},"properties":{"osm_id":"6359435160","tag":{"amenity":"recycling","opening_hours":"24/7","operator":"Communaut\u00c3\u00a9 de communes du Grand Pontarlier","recycling:glass":"yes","recycling:paper":"yes","recycling:plastic":"yes","recycling_type":"container","wheelchair":"yes"}},"type":"Feature"},
	{"geometry":{"coordinates":[6.367245,46.905617],"type":"Point"},"properties":{"osm_id":"6359435161","tag":{"amenity":"recycling","opening_hours":"24/7","operator":"Communaut\u00c3\u00a9 de communes du Grand Pontarlier","recycling:glass":"yes","recycling:paper":"yes","recycling:plastic":"yes","recycling_type":"container","wheelchair":"yes"}},"type":"Feature"},
	{"geometry":{"coordinates":[6.348278,46.901482],"type":"Point"},"properties":{"osm_id":"6359435187","tag":{"amenity":"waste_basket"}},"type":"Feature"},
	{"geometry":{"coordinates":[6.350627,46.904082],"type":"Point"},"properties":{"osm_id":"6401612861","tag":{"amenity":"waste_basket"}},"type":"Feature"},
	{"geometry":{"coordinates":[6.343168,46.904655],"type":"Point"},"properties":{"osm_id":"6401612862","tag":{"amenity":"waste_basket"}},"type":"Feature"},
	{"geometry":{"coordinates":[6.356635,46.900656],"type":"Point"},"properties":{"osm_id":"6401612863","tag":{"amenity":"waste_basket"}},"type":"Feature"},
	{"geometry":{"coordinates":[6.34379,46.906804],"type":"Point"},"properties":{"osm_id":"6401612864","tag":{"amenity":"recycling","operator":"Communaut\u00c3\u00a9 de communes du Grand Pontarlier","recycling:glass":"yes","recycling:paper":"yes","recycling:plastic":"yes","recycling_type":"container"}},"type":"Feature"},
	{"geometry":{"coordinates":[6.343808,46.906781],"type":"Point"},"properties":{"osm_id":"6401612865","tag":{"amenity":"recycling","operator":"Communaut\u00c3\u00a9 de communes du Grand Pontarlier","recycling:glass":"yes","recycling:paper":"yes","recycling:plastic":"yes","recycling_type":"container"}},"type":"Feature"},
	{"geometry":{"coordinates":[6.344103,46.897407],"type":"Point"},"properties":{"osm_id":"6401612955","tag":{"amenity":"recycling","recycling:plastic":"yes","recycling:plastic_bottles":"yes","recycling:plastic_packaging":"yes","recycling_type":"container"}},"type":"Feature"},
	{"geometry":{"coordinates":[6.344084,46.897426],"type":"Point"},"properties":{"osm_id":"6401612956","tag":{"amenity":"recycling","recycling:cardboard":"yes","recycling:paper":"yes","recycling_type":"container"}},"type":"Feature"},
	{"geometry":{"coordinates":[6.339192,46.908058],"type":"Point"},"properties":{"osm_id":"6401612957","tag":{"amenity":"waste_basket","waste":"trash"}},"type":"Feature"},
	{"geometry":{"coordinates":[6.35273,46.903693],"type":"Point"},"properties":{"osm_id":"6448605520","tag":{"amenity":"waste_basket"}},"type":"Feature"},
	{"geometry":{"coordinates":[6.353171,46.903459],"type":"Point"},"properties":{"osm_id":"6448605521","tag":{"amenity":"waste_basket"}},"type":"Feature"},
	{"geometry":{"coordinates":[6.352185,46.903961],"type":"Point"},"properties":{"osm_id":"6448605522","tag":{"amenity":"waste_basket"}},"type":"Feature"},
	{"geometry":{"coordinates":[6.352592,46.903436],"type":"Point"},"properties":{"osm_id":"6448605532","tag":{"amenity":"waste_basket"}},"type":"Feature"},
	{"geometry":{"coordinates":[6.353126,46.903053],"type":"Point"},"properties":{"osm_id":"6448605533","tag":{"amenity":"waste_basket"}},"type":"Feature"},
	{"geometry":{"coordinates":[6.354144,46.902356],"type":"Point"},"properties":{"osm_id":"6448605534","tag":{"amenity":"waste_basket"}},"type":"Feature"},
	{"geometry":{"coordinates":[6.347513,46.901947],"type":"Point"},"properties":{"osm_id":"6448605781","tag":{"amenity":"waste_basket","waste":"trash"}},"type":"Feature"},
	{"geometry":{"coordinates":[6.334063,46.90721],"type":"Point"},"properties":{"osm_id":"6448605782","tag":{"amenity":"waste_basket","waste":"trash"}},"type":"Feature"},
	{"geometry":{"coordinates":[6.333705,46.908053],"type":"Point"},"properties":{"osm_id":"6448605783","tag":{"amenity":"waste_basket","waste":"trash"}},"type":"Feature"},
	{"geometry":{"coordinates":[6.333474,46.90754],"type":"Point"},"properties":{"osm_id":"6448605784","tag":{"amenity":"waste_basket","waste":"trash"}},"type":"Feature"},
	{"geometry":{"coordinates":[6.333562,46.907737],"type":"Point"},"properties":{"osm_id":"6448605785","tag":{"amenity":"waste_basket","waste":"trash"}},"type":"Feature"},
	{"geometry":{"coordinates":[6.345976,46.913462],"type":"Point"},"properties":{"osm_id":"6448605802","tag":{"amenity":"recycling","operator":"Communaut\u00c3\u00a9 de communes du Grand Pontarlier","recycling:glass":"yes","recycling:paper":"yes","recycling:plastic":"yes","recycling_type":"container"}},"type":"Feature"},
	{"geometry":{"coordinates":[6.345955,46.913467],"type":"Point"},"properties":{"osm_id":"6448605803","tag":{"amenity":"recycling","operator":"Communaut\u00c3\u00a9 de communes du Grand Pontarlier","recycling:glass":"yes","recycling:paper":"yes","recycling:plastic":"yes","recycling_type":"container"}},"type":"Feature"},
	{"geometry":{"coordinates":[6.353693,46.901571],"type":"Point"},"properties":{"osm_id":"6453138146","tag":{"amenity":"waste_basket"}},"type":"Feature"},
	{"geometry":{"coordinates":[6.347326,46.906434],"type":"Point"},"properties":{"osm_id":"6453139496","tag":{"amenity":"waste_basket","waste":"trash"}},"type":"Feature"},
	{"geometry":{"coordinates":[6.343732,46.906642],"type":"Point"},"properties":{"osm_id":"6453139509","tag":{"amenity":"waste_basket"}},"type":"Feature"},
	{"geometry":{"coordinates":[6.366547,46.894639],"type":"Point"},"properties":{"osm_id":"6453139551","tag":{"amenity":"recycling","operator":"Communaut\u00c3\u00a9 de communes du Grand Pontarlier","recycling:glass":"yes","recycling:paper":"yes","recycling:plastic":"yes","recycling_type":"container"}},"type":"Feature"},
	{"geometry":{"coordinates":[6.366555,46.894618],"type":"Point"},"properties":{"osm_id":"6453139552","tag":{"amenity":"recycling","operator":"Communaut\u00c3\u00a9 de communes du Grand Pontarlier","recycling:glass":"yes","recycling:paper":"yes","recycling:plastic":"yes","recycling_type":"container"}},"type":"Feature"},
	{"geometry":{"coordinates":[6.350516,46.901614],"type":"Point"},"properties":{"osm_id":"6467088833","tag":{"amenity":"waste_basket","waste":"trash"}},"type":"Feature"},
	{"geometry":{"coordinates":[6.358252,46.904196],"type":"Point"},"properties":{"osm_id":"6467089041","tag":{"amenity":"recycling","recycling:cardboard":"yes","recycling:glass":"yes","recycling:glass_bottles":"yes","recycling:paper":"yes","recycling_type":"container"}},"type":"Feature"},
	{"geometry":{"coordinates":[6.358235,46.90418],"type":"Point"},"properties":{"osm_id":"6467089042","tag":{"amenity":"recycling","recycling:cardboard":"yes","recycling:glass":"yes","recycling:glass_bottles":"yes","recycling:paper":"yes","recycling_type":"container"}},"type":"Feature"},
	{"geometry":{"coordinates":[6.358229,46.904161],"type":"Point"},"properties":{"osm_id":"6467089043","tag":{"amenity":"recycling","recycling:cardboard":"yes","recycling:glass":"yes","recycling:glass_bottles":"yes","recycling:paper":"yes","recycling_type":"container"}},"type":"Feature"},
	{"geometry":{"coordinates":[6.358706,46.904063],"type":"Point"},"properties":{"osm_id":"6467089059","tag":{"amenity":"waste_basket","waste":"trash"}},"type":"Feature"},
	{"geometry":{"coordinates":[6.358507,46.904174],"type":"Point"},"properties":{"osm_id":"6467089060","tag":{"amenity":"waste_basket","waste":"trash"}},"type":"Feature"},
	{"geometry":{"coordinates":[6.358683,46.904352],"type":"Point"},"properties":{"osm_id":"6467089061","tag":{"amenity":"waste_basket","waste":"trash"}},"type":"Feature"},
	{"geometry":{"coordinates":[6.354454,46.904114],"type":"Point"},"properties":{"osm_id":"6467089062","tag":{"amenity":"waste_basket","waste":"trash"}},"type":"Feature"},
	{"geometry":{"coordinates":[6.354299,46.903936],"type":"Point"},"properties":{"osm_id":"6467089063","tag":{"amenity":"waste_basket","waste":"trash"}},"type":"Feature"},
	{"geometry":{"coordinates":[6.354214,46.903832],"type":"Point"},"properties":{"osm_id":"6467089064","tag":{"amenity":"waste_basket","waste":"trash"}},"type":"Feature"},
	{"geometry":{"coordinates":[6.348679,46.906273],"type":"Point"},"properties":{"osm_id":"6467089091","tag":{"amenity":"waste_basket","waste":"trash"}},"type":"Feature"},
	{"geometry":{"coordinates":[6.337112,46.90219],"type":"Point"},"properties":{"osm_id":"6501017613","tag":{"amenity":"recycling","location":"underground","recycling:cardboard":"yes","recycling:glass":"yes","recycling:paper":"yes","recycling_type":"container","wheelchair":"yes"}},"type":"Feature"},
	{"geometry":{"coordinates":[6.337088,46.9022],"type":"Point"},"properties":{"osm_id":"6501017614","tag":{"amenity":"recycling","location":"underground","recycling:cardboard":"yes","recycling:glass":"yes","recycling:paper":"yes","recycling_type":"container","wheelchair":"yes"}},"type":"Feature"},
	{"geometry":{"coordinates":[6.337064,46.902209],"type":"Point"},"properties":{"osm_id":"6501017615","tag":{"amenity":"recycling","location":"underground","recycling:cardboard":"yes","recycling:glass":"yes","recycling:paper":"yes","recycling_type":"container","wheelchair":"yes"}},"type":"Feature"},
	{"geometry":{"coordinates":[6.351527,46.911515],"type":"Point"},"properties":{"osm_id":"6617722948","tag":{"amenity":"recycling","operator":"Communaut\u00c3\u00a9 de communes du Grand Pontarlier","recycling:clothes":"yes","recycling:shoes":"yes","recycling_type":"container"}},"type":"Feature"},
	{"geometry":{"coordinates":[6.351413,46.911515],"type":"Point"},"properties":{"osm_id":"6617722949","tag":{"amenity":"recycling","operator":"Communaut\u00c3\u00a9 de communes du Grand Pontarlier","recycling:glass":"yes","recycling:paper":"yes","recycling:plastic":"yes","recycling_type":"container"}},"type":"Feature"},
	{"geometry":{"coordinates":[6.351361,46.911528],"type":"Point"},"properties":{"osm_id":"6617722950","tag":{"amenity":"recycling","operator":"Communaut\u00c3\u00a9 de communes du Grand Pontarlier","recycling:glass":"yes","recycling:paper":"yes","recycling:plastic":"yes","recycling_type":"container"}},"type":"Feature"},
	{"geometry":{"coordinates":[6.355559,46.904519],"type":"Point"},"properties":{"osm_id":"6617722956","tag":{"amenity":"waste_basket","waste":"trash"}},"type":"Feature"},
	{"geometry":{"coordinates":[6.355605,46.905268],"type":"Point"},"properties":{"osm_id":"6700728353","tag":{"amenity":"waste_basket","waste":"trash"}},"type":"Feature"},
	{"geometry":{"coordinates":[6.355166,46.912012],"type":"Point"},"properties":{"osm_id":"6700728381","tag":{"amenity":"recycling","operator":"Communaut\u00c3\u00a9 de communes du Grand Pontarlier","recycling:glass":"yes","recycling:paper":"yes","recycling:plastic":"yes","recycling_type":"container"}},"type":"Feature"},
	{"geometry":{"coordinates":[6.355195,46.912018],"type":"Point"},"properties":{"osm_id":"6700728382","tag":{"amenity":"recycling","operator":"Communaut\u00c3\u00a9 de communes du Grand Pontarlier","recycling:glass":"yes","recycling:paper":"yes","recycling:plastic":"yes","recycling_type":"container"}},"type":"Feature"},
	{"geometry":{"coordinates":[6.336318,46.908067],"type":"Point"},"properties":{"osm_id":"6740344729","tag":{"amenity":"waste_basket","waste":"trash"}},"type":"Feature"},
	{"geometry":{"coordinates":[6.344699,46.903493],"type":"Point"},"properties":{"osm_id":"6740344736","tag":{"amenity":"waste_basket","waste":"trash"}},"type":"Feature"},
	{"geometry":{"coordinates":[6.337114,46.899291],"type":"Point"},"properties":{"osm_id":"6818356343","tag":{"amenity":"recycling","layer":"1","recycling:cans":"yes","recycling:cardboard":"yes","recycling:glass":"yes","recycling:glass_bottles":"yes","recycling:paper":"yes","recycling:plastic":"yes","recycling:plastic_bottles":"yes","recycling:plastic_packaging":"yes","recycling_type":"container"}},"type":"Feature"},
	{"geometry":{"coordinates":[6.33711,46.899266],"type":"Point"},"properties":{"osm_id":"6818356344","tag":{"amenity":"recycling","layer":"1","recycling:cans":"yes","recycling:cardboard":"yes","recycling:glass":"yes","recycling:glass_bottles":"yes","recycling:paper":"yes","recycling:plastic":"yes","recycling:plastic_bottles":"yes","recycling:plastic_packaging":"yes","recycling_type":"container"}},"type":"Feature"},
	{"geometry":{"coordinates":[6.337105,46.89924],"type":"Point"},"properties":{"osm_id":"6818356345","tag":{"amenity":"recycling","layer":"1","recycling:cans":"yes","recycling:cardboard":"yes","recycling:glass":"yes","recycling:glass_bottles":"yes","recycling:paper":"yes","recycling:plastic":"yes","recycling:plastic_bottles":"yes","recycling:plastic_packaging":"yes","recycling_type":"container"}},"type":"Feature"},
	{"geometry":{"coordinates":[6.353773,46.902948],"type":"Point"},"properties":{"osm_id":"6818393687","tag":{"amenity":"waste_basket","waste":"trash"}},"type":"Feature"},
	{"geometry":{"coordinates":[6.354466,46.902097],"type":"Point"},"properties":{"osm_id":"6818393696","tag":{"amenity":"waste_basket","waste":"trash"}},"type":"Feature"},
	{"geometry":{"coordinates":[6.354441,46.902334],"type":"Point"},"properties":{"osm_id":"6818393703","tag":{"amenity":"waste_basket","waste":"trash"}},"type":"Feature"},
	{"geometry":{"coordinates":[6.354909,46.904028],"type":"Point"},"properties":{"osm_id":"6818393718","tag":{"amenity":"waste_basket","waste":"trash"}},"type":"Feature"},
	{"geometry":{"coordinates":[6.34265,46.90054],"type":"Point"},"properties":{"osm_id":"6818394200","tag":{"amenity":"recycling","recycling_type":"container"}},"type":"Feature"},
	{"geometry":{"coordinates":[6.342607,46.90056],"type":"Point"},"properties":{"osm_id":"6818394201","tag":{"amenity":"recycling","recycling_type":"container"}},"type":"Feature"},
	{"geometry":{"coordinates":[6.342628,46.90055],"type":"Point"},"properties":{"osm_id":"6818394202","tag":{"amenity":"recycling","recycling_type":"container"}},"type":"Feature"},
	{"geometry":{"coordinates":[6.342424,46.899925],"type":"Point"},"properties":{"osm_id":"6818394203","tag":{"amenity":"recycling","location":"underground","recycling_type":"container"}},"type":"Feature"},
	{"geometry":{"coordinates":[6.342412,46.899909],"type":"Point"},"properties":{"osm_id":"6818394204","tag":{"amenity":"recycling","location":"underground","recycling_type":"container"}},"type":"Feature"},
	{"geometry":{"coordinates":[6.342399,46.899893],"type":"Point"},"properties":{"osm_id":"6818394205","tag":{"amenity":"recycling","location":"underground","recycling_type":"container"}},"type":"Feature"},
	{"geometry":{"coordinates":[6.344249,46.917132],"type":"Point"},"properties":{"osm_id":"6841902995","tag":{"amenity":"waste_basket","waste":"trash"}},"type":"Feature"},
	{"geometry":{"coordinates":[6.344291,46.916666],"type":"Point"},"properties":{"osm_id":"6841902996","tag":{"amenity":"waste_basket","waste":"trash"}},"type":"Feature"},
	{"geometry":{"coordinates":[6.344567,46.916136],"type":"Point"},"properties":{"osm_id":"6841902997","tag":{"amenity":"waste_basket","waste":"trash"}},"type":"Feature"},
	{"geometry":{"coordinates":[6.345818,46.914231],"type":"Point"},"properties":{"osm_id":"6841902999","tag":{"amenity":"waste_basket","waste":"trash"}},"type":"Feature"},
	{"geometry":{"coordinates":[6.345759,46.913987],"type":"Point"},"properties":{"osm_id":"6841903016","tag":{"amenity":"waste_basket","waste":"trash"}},"type":"Feature"},
	{"geometry":{"coordinates":[6.345583,46.913966],"type":"Point"},"properties":{"osm_id":"6841903028","tag":{"amenity":"waste_basket","waste":"trash"}},"type":"Feature"},
	{"geometry":{"coordinates":[6.345596,46.914205],"type":"Point"},"properties":{"osm_id":"6841903029","tag":{"amenity":"waste_basket","waste":"trash"}},"type":"Feature"},
	{"geometry":{"coordinates":[6.34572,46.914391],"type":"Point"},"properties":{"osm_id":"6841903033","tag":{"amenity":"waste_basket","waste":"trash"}},"type":"Feature"},
	{"geometry":{"coordinates":[6.345847,46.914463],"type":"Point"},"properties":{"osm_id":"6841903034","tag":{"amenity":"waste_basket","waste":"trash"}},"type":"Feature"},
	{"geometry":{"coordinates":[6.346424,46.913193],"type":"Point"},"properties":{"osm_id":"6841903037","tag":{"amenity":"waste_basket","waste":"trash"}},"type":"Feature"},
	{"geometry":{"coordinates":[6.347178,46.912341],"type":"Point"},"properties":{"osm_id":"6841903038","tag":{"amenity":"waste_basket","waste":"trash"}},"type":"Feature"},
	{"geometry":{"coordinates":[6.34877,46.909363],"type":"Point"},"properties":{"osm_id":"6841903039","tag":{"amenity":"waste_basket","waste":"trash"}},"type":"Feature"},
	{"geometry":{"coordinates":[6.351592,46.904943],"type":"Point"},"properties":{"osm_id":"6841903077","tag":{"amenity":"waste_basket","waste":"trash"}},"type":"Feature"},
	{"geometry":{"coordinates":[6.351975,46.904945],"type":"Point"},"properties":{"osm_id":"6841903084","tag":{"amenity":"waste_basket","waste":"trash"}},"type":"Feature"},
	{"geometry":{"coordinates":[6.351664,46.903756],"type":"Point"},"properties":{"barrier":"bollard","osm_id":"6841903088","tag":{"amenity":"waste_basket","material":"metal","waste":"trash"}},"type":"Feature"},
	{"geometry":{"coordinates":[6.33402,46.907214],"type":"Point"},"properties":{"osm_id":"6841903154","tag":{"amenity":"waste_basket","waste":"trash"}},"type":"Feature"},
	{"geometry":{"coordinates":[6.335427,46.909157],"type":"Point"},"properties":{"osm_id":"6841903158","tag":{"amenity":"waste_basket","waste":"trash"}},"type":"Feature"},
	{"geometry":{"coordinates":[6.377305,46.873143],"type":"Point"},"properties":{"osm_id":"6841903214","tag":{"amenity":"waste_basket","waste":"trash"}},"type":"Feature"},
	{"geometry":{"coordinates":[6.35214,46.904684],"type":"Point"},"properties":{"osm_id":"6841903234","tag":{"amenity":"waste_basket","waste":"trash"}},"type":"Feature"},
	{"geometry":{"coordinates":[6.35275,46.90501],"type":"Point"},"properties":{"osm_id":"6841903245","tag":{"amenity":"waste_basket","waste":"trash"}},"type":"Feature"},
	{"geometry":{"coordinates":[6.353251,46.905289],"type":"Point"},"properties":{"osm_id":"6841903247","tag":{"amenity":"waste_basket","waste":"trash"}},"type":"Feature"},
	{"geometry":{"coordinates":[6.350096,46.901937],"type":"Point"},"properties":{"osm_id":"6841903285","tag":{"amenity":"waste_basket","waste":"trash"}},"type":"Feature"},
	{"geometry":{"coordinates":[6.351443,46.902755],"type":"Point"},"properties":{"osm_id":"6841903286","tag":{"amenity":"waste_basket","waste":"trash"}},"type":"Feature"},
	{"geometry":{"coordinates":[6.351422,46.903013],"type":"Point"},"properties":{"osm_id":"6841903287","tag":{"amenity":"waste_basket","waste":"trash"}},"type":"Feature"},
	{"geometry":{"coordinates":[6.351779,46.903587],"type":"Point"},"properties":{"osm_id":"6841903289","tag":{"amenity":"waste_basket","waste":"trash"}},"type":"Feature"},
	{"geometry":{"coordinates":[6.352051,46.903644],"type":"Point"},"properties":{"osm_id":"6841903290","tag":{"amenity":"waste_basket","waste":"trash"}},"type":"Feature"},
	{"geometry":{"coordinates":[6.352384,46.904318],"type":"Point"},"properties":{"osm_id":"6841903291","tag":{"amenity":"waste_basket","waste":"trash"}},"type":"Feature"},
	{"geometry":{"coordinates":[6.338545,46.908439],"type":"Point"},"properties":{"osm_id":"6856191514","tag":{"amenity":"waste_basket","waste":"trash"}},"type":"Feature"},
	{"geometry":{"coordinates":[6.348014,46.911431],"type":"Point"},"properties":{"osm_id":"6856191559","tag":{"amenity":"waste_basket","waste":"trash"}},"type":"Feature"},
	{"geometry":{"coordinates":[6.354122,46.905663],"type":"Point"},"properties":{"osm_id":"6856191578","tag":{"amenity":"waste_basket","waste":"trash"}},"type":"Feature"},
	{"geometry":{"coordinates":[6.354771,46.905038],"type":"Point"},"properties":{"osm_id":"6856191579","tag":{"amenity":"waste_basket","waste":"trash"}},"type":"Feature"},
	{"geometry":{"coordinates":[6.355393,46.904948],"type":"Point"},"properties":{"osm_id":"6856191580","tag":{"amenity":"waste_basket","waste":"trash"}},"type":"Feature"},
	{"geometry":{"coordinates":[6.356232,46.904642],"type":"Point"},"properties":{"osm_id":"6856191587","tag":{"amenity":"waste_basket","waste":"trash"}},"type":"Feature"},
	{"geometry":{"coordinates":[6.347649,46.914598],"type":"Point"},"properties":{"osm_id":"6872157862","tag":{"amenity":"waste_basket","waste":"trash"}},"type":"Feature"},
	{"geometry":{"coordinates":[6.348219,46.914208],"type":"Point"},"properties":{"osm_id":"6872162791","tag":{"amenity":"waste_basket","waste":"trash"}},"type":"Feature"},
	{"geometry":{"coordinates":[6.358016,46.904503],"type":"Point"},"properties":{"osm_id":"6872162794","tag":{"amenity":"waste_basket","waste":"trash"}},"type":"Feature"},
	{"geometry":{"coordinates":[6.338109,46.903545],"type":"Point"},"properties":{"osm_id":"6872163276","tag":{"amenity":"waste_basket","waste":"trash"}},"type":"Feature"},
	{"geometry":{"coordinates":[6.336323,46.901545],"type":"Point"},"properties":{"osm_id":"6872163355","tag":{"amenity":"waste_basket","waste":"trash"}},"type":"Feature"},
	{"geometry":{"coordinates":[6.354258,46.917703],"type":"Point"},"properties":{"osm_id":"6893922634","tag":{"amenity":"waste_basket","waste":"trash"}},"type":"Feature"},
	{"geometry":{"coordinates":[6.349238,46.906007],"type":"Point"},"properties":{"osm_id":"6893922669","tag":{"amenity":"waste_basket","waste":"trash"}},"type":"Feature"},
	{"geometry":{"coordinates":[6.350963,46.905155],"type":"Point"},"properties":{"osm_id":"6893922670","tag":{"amenity":"waste_basket","waste":"trash"}},"type":"Feature"},
	{"geometry":{"coordinates":[6.351037,46.905251],"type":"Point"},"properties":{"osm_id":"6893922671","tag":{"amenity":"waste_basket","waste":"trash"}},"type":"Feature"},
	{"geometry":{"coordinates":[6.343797,46.906828],"type":"Point"},"properties":{"osm_id":"6893922689","tag":{"amenity":"waste_basket"}},"type":"Feature"},
	{"geometry":{"coordinates":[6.339388,46.90947],"type":"Point"},"properties":{"osm_id":"6893922692","tag":{"amenity":"recycling","description":"Verre cass\u00c3\u00a9 dans les ordures m\u00c3\u00a9nag\u00c3\u00a8res (bac vert). Ampoules en d\u00c3\u00a9ch\u00c3\u00a8terie ou dans les points de collecte d\u00c3\u00a9di\u00c3\u00a9s.","opening_hours":"24/7","operator":"Communaut\u00c3\u00a9 de communes du Grand Pontarlier","recycling:glass":"no","recycling:glass_bottles":"yes","recycling_type":"container","website":"https://preval.fr/wp/que-faire-de-mes-dechets/le-verre/"}},"type":"Feature"},
	{"geometry":{"coordinates":[6.378559,46.871782],"type":"Point"},"properties":{"osm_id":"6896972370","tag":{"amenity":"recycling","recycling:clothes":"yes","recycling_type":"container"}},"type":"Feature"},
	{"geometry":{"coordinates":[6.378567,46.871804],"type":"Point"},"properties":{"osm_id":"6896972371","tag":{"amenity":"recycling","recycling:glass":"yes","recycling:glass_bottles":"yes","recycling:paper":"yes","recycling:plastic":"yes","recycling_type":"container"}},"type":"Feature"},
	{"geometry":{"coordinates":[6.378573,46.871839],"type":"Point"},"properties":{"osm_id":"6896972372","tag":{"amenity":"recycling","recycling:glass":"yes","recycling:glass_bottles":"yes","recycling:paper":"yes","recycling:plastic":"yes","recycling_type":"container"}},"type":"Feature"},
	{"geometry":{"coordinates":[6.350993,46.91703],"type":"Point"},"properties":{"osm_id":"6918958095","tag":{"amenity":"recycling","recycling:glass":"yes","recycling:glass_bottles":"yes","recycling_type":"container"}},"type":"Feature"},
	{"geometry":{"coordinates":[6.351026,46.916987],"type":"Point"},"properties":{"osm_id":"6918958096","tag":{"amenity":"recycling","recycling:glass":"yes","recycling:glass_bottles":"yes","recycling_type":"container"}},"type":"Feature"},
	{"geometry":{"coordinates":[6.351009,46.91701],"type":"Point"},"properties":{"osm_id":"6918958097","tag":{"amenity":"recycling","recycling:glass":"yes","recycling:glass_bottles":"yes","recycling_type":"container"}},"type":"Feature"},
	{"geometry":{"coordinates":[6.353892,46.904105],"type":"Point"},"properties":{"osm_id":"6925711146","tag":{"amenity":"waste_basket","waste":"trash"}},"type":"Feature"},
	{"geometry":{"coordinates":[6.354183,46.903718],"type":"Point"},"properties":{"osm_id":"6925711153","tag":{"amenity":"waste_basket","waste":"trash"}},"type":"Feature"},
	{"geometry":{"coordinates":[6.355219,46.901924],"type":"Point"},"properties":{"osm_id":"6946442222","tag":{"amenity":"waste_basket","waste":"trash"}},"type":"Feature"},
	{"geometry":{"coordinates":[6.357101,46.902659],"type":"Point"},"properties":{"osm_id":"6946442226","tag":{"amenity":"waste_basket","waste":"trash"}},"type":"Feature"},
	{"geometry":{"coordinates":[6.355654,46.903416],"type":"Point"},"properties":{"osm_id":"6946442229","tag":{"amenity":"waste_basket","waste":"trash"}},"type":"Feature"},
	{"geometry":{"coordinates":[6.355991,46.90375],"type":"Point"},"properties":{"osm_id":"6946442230","tag":{"amenity":"waste_basket","waste":"trash"}},"type":"Feature"},
	{"geometry":{"coordinates":[6.356174,46.904054],"type":"Point"},"properties":{"osm_id":"6946442231","tag":{"amenity":"waste_basket","waste":"trash"}},"type":"Feature"},
	{"geometry":{"coordinates":[6.355628,46.908238],"type":"Point"},"properties":{"osm_id":"6946442245","tag":{"amenity":"waste_basket","waste":"trash"}},"type":"Feature"},
	{"geometry":{"coordinates":[6.36247,46.905249],"type":"Point"},"properties":{"osm_id":"6946447523","tag":{"amenity":"waste_basket","waste":"trash"}},"type":"Feature"},
	{"geometry":{"coordinates":[6.359927,46.90167],"type":"Point"},"properties":{"osm_id":"6946447572","tag":{"amenity":"waste_basket","waste":"trash"}},"type":"Feature"},
	{"geometry":{"coordinates":[6.359177,46.90216],"type":"Point"},"properties":{"osm_id":"6946447573","tag":{"amenity":"waste_basket","waste":"trash"}},"type":"Feature"},
	{"geometry":{"coordinates":[6.361111,46.899982],"type":"Point"},"properties":{"osm_id":"6946447578","tag":{"amenity":"waste_basket","waste":"trash"}},"type":"Feature"},
	{"geometry":{"coordinates":[6.343248,46.915142],"type":"Point"},"properties":{"osm_id":"7027388763","tag":{"amenity":"waste_basket","waste":"trash"}},"type":"Feature"},
	{"geometry":{"coordinates":[6.3383,46.905131],"type":"Point"},"properties":{"osm_id":"7113139318","tag":{"amenity":"waste_basket","waste":"trash"}},"type":"Feature"},
	{"geometry":{"coordinates":[6.356446,46.902398],"type":"Point"},"properties":{"osm_id":"7113139367","tag":{"amenity":"waste_basket","waste":"trash"}},"type":"Feature"},
	{"geometry":{"coordinates":[6.351937,46.902376],"type":"Point"},"properties":{"osm_id":"7182735155","tag":{"amenity":"waste_basket","waste":"trash"}},"type":"Feature"},
	{"geometry":{"coordinates":[6.3532,46.897604],"type":"Point"},"properties":{"osm_id":"7198921331","tag":{"amenity":"waste_basket","waste":"trash"}},"type":"Feature"},
	{"geometry":{"coordinates":[6.352549,46.90178],"type":"Point"},"properties":{"osm_id":"7317149259","tag":{"amenity":"waste_basket","waste":"trash"}},"type":"Feature"},
	{"geometry":{"coordinates":[6.351379,46.901328],"type":"Point"},"properties":{"osm_id":"7317206658","tag":{"amenity":"waste_basket","waste":"trash"}},"type":"Feature"},
	{"geometry":{"coordinates":[6.355433,46.90148],"type":"Point"},"properties":{"osm_id":"7330261044","tag":{"amenity":"waste_basket","waste":"trash"}},"type":"Feature"},
	{"geometry":{"coordinates":[6.354644,46.902498],"type":"Point"},"properties":{"osm_id":"7333565860","tag":{"amenity":"waste_basket","waste":"trash"}},"type":"Feature"},
	{"geometry":{"coordinates":[6.352193,46.909746],"type":"Point"},"properties":{"osm_id":"7337394896","tag":{"amenity":"waste_basket","waste":"trash"}},"type":"Feature"},
	{"geometry":{"coordinates":[6.351166,46.9055],"type":"Point"},"properties":{"osm_id":"7373612177","tag":{"amenity":"waste_basket","waste":"trash"}},"type":"Feature"},
	{"geometry":{"coordinates":[6.35539,46.903253],"type":"Point"},"properties":{"osm_id":"7439601676","tag":{"amenity":"waste_basket","waste":"trash"}},"type":"Feature"},
	{"geometry":{"coordinates":[6.350134,46.905493],"type":"Point"},"properties":{"osm_id":"7490582812","tag":{"amenity":"waste_basket","waste":"trash"}},"type":"Feature"},
	{"geometry":{"coordinates":[6.355265,46.902979],"type":"Point"},"properties":{"osm_id":"7490582813","tag":{"amenity":"waste_basket","waste":"trash"}},"type":"Feature"},
	{"geometry":{"coordinates":[6.354973,46.902833],"type":"Point"},"properties":{"osm_id":"7490582815","tag":{"amenity":"waste_basket","waste":"trash"}},"type":"Feature"},
	{"geometry":{"coordinates":[6.356931,46.90464],"type":"Point"},"properties":{"osm_id":"7527266116","tag":{"amenity":"waste_basket","waste":"trash"}},"type":"Feature"},
	{"geometry":{"coordinates":[6.356801,46.904711],"type":"Point"},"properties":{"osm_id":"7527266117","tag":{"amenity":"waste_basket","waste":"trash"}},"type":"Feature"},
	{"geometry":{"coordinates":[6.365288,46.907314],"type":"Point"},"properties":{"osm_id":"7527266136","tag":{"amenity":"waste_basket","waste":"trash"}},"type":"Feature"},
	{"geometry":{"coordinates":[6.370136,46.919233],"type":"Point"},"properties":{"osm_id":"7527266147","tag":{"amenity":"waste_basket","waste":"trash"}},"type":"Feature"},
	{"geometry":{"coordinates":[6.370382,46.91966],"type":"Point"},"properties":{"osm_id":"7527266165","tag":{"amenity":"waste_basket","waste":"trash"}},"type":"Feature"},
	{"geometry":{"coordinates":[6.370712,46.918954],"type":"Point"},"properties":{"osm_id":"7527266168","tag":{"amenity":"waste_basket","waste":"trash"}},"type":"Feature"},
	{"geometry":{"coordinates":[6.370097,46.91873],"type":"Point"},"properties":{"osm_id":"7527266173","tag":{"amenity":"waste_basket","waste":"trash"}},"type":"Feature"},
	{"geometry":{"coordinates":[6.370134,46.91944],"type":"Point"},"properties":{"osm_id":"7527266177","tag":{"amenity":"waste_basket","waste":"trash"}},"type":"Feature"},
	{"geometry":{"coordinates":[6.37024,46.91901],"type":"Point"},"properties":{"osm_id":"7527266178","tag":{"amenity":"waste_basket","waste":"trash"}},"type":"Feature"},
	{"geometry":{"coordinates":[6.344327,46.907226],"type":"Point"},"properties":{"osm_id":"7578963322","tag":{"amenity":"waste_basket","waste":"trash"}},"type":"Feature"},
	{"geometry":{"coordinates":[6.345301,46.906952],"type":"Point"},"properties":{"osm_id":"7578963328","tag":{"amenity":"waste_basket","waste":"trash"}},"type":"Feature"},
	{"geometry":{"coordinates":[6.334257,46.910405],"type":"Point"},"properties":{"osm_id":"7667901598","tag":{"amenity":"waste_basket","waste":"trash"}},"type":"Feature"},
	{"geometry":{"coordinates":[6.334081,46.910292],"type":"Point"},"properties":{"osm_id":"7667901606","tag":{"amenity":"waste_basket","waste":"trash"}},"type":"Feature"},
	{"geometry":{"coordinates":[6.357796,46.903708],"type":"Point"},"properties":{"osm_id":"7681363476","tag":{"amenity":"waste_basket","waste":"trash"}},"type":"Feature"},
	{"geometry":{"coordinates":[6.332374,46.908369],"type":"Point"},"properties":{"osm_id":"7727388751","tag":{"amenity":"recycling","recycling_type":"container"}},"type":"Feature"},
	{"geometry":{"coordinates":[6.332356,46.908372],"type":"Point"},"properties":{"osm_id":"7727388752","tag":{"amenity":"recycling","recycling_type":"container"}},"type":"Feature"},
	{"geometry":{"coordinates":[6.371721,46.870534],"type":"Point"},"properties":{"osm_id":"7727410299","tag":{"amenity":"recycling","recycling_type":"container"}},"type":"Feature"},
	{"geometry":{"coordinates":[6.372318,46.871689],"type":"Point"},"properties":{"osm_id":"7727410301","tag":{"amenity":"waste_basket","waste":"trash"}},"type":"Feature"},
	{"geometry":{"coordinates":[6.356285,46.902993],"type":"Point"},"properties":{"osm_id":"7727410308","tag":{"amenity":"waste_basket","waste":"trash"}},"type":"Feature"},
	{"geometry":{"coordinates":[6.356756,46.9028],"type":"Point"},"properties":{"osm_id":"7727410311","tag":{"amenity":"waste_basket","waste":"trash"}},"type":"Feature"},
	{"geometry":{"coordinates":[6.357104,46.902637],"type":"Point"},"properties":{"osm_id":"7727410312","tag":{"amenity":"waste_basket","covered":"yes","waste":"trash"}},"type":"Feature"},
	{"geometry":{"coordinates":[6.370174,46.918674],"type":"Point"},"properties":{"osm_id":"7727410707","tag":{"amenity":"waste_basket","waste":"trash"}},"type":"Feature"},
	{"geometry":{"coordinates":[6.36976,46.919634],"type":"Point"},"properties":{"osm_id":"7727410714","tag":{"amenity":"waste_basket","waste":"trash"}},"type":"Feature"},
	{"geometry":{"coordinates":[6.362056,46.908107],"type":"Point"},"properties":{"osm_id":"7727410748","tag":{"amenity":"waste_basket","waste":"trash"}},"type":"Feature"},
	{"geometry":{"coordinates":[6.362766,46.906937],"type":"Point"},"properties":{"osm_id":"7727410778","tag":{"amenity":"waste_basket","waste":"trash"}},"type":"Feature"},
	{"geometry":{"coordinates":[6.362673,46.906793],"type":"Point"},"properties":{"osm_id":"7727410779","tag":{"amenity":"waste_basket","waste":"trash"}},"type":"Feature"},
	{"geometry":{"coordinates":[6.362598,46.907518],"type":"Point"},"properties":{"osm_id":"7727410869","tag":{"amenity":"waste_basket","waste":"trash"}},"type":"Feature"},
	{"geometry":{"coordinates":[6.357668,46.907734],"type":"Point"},"properties":{"osm_id":"7727410875","tag":{"amenity":"waste_basket","waste":"trash"}},"type":"Feature"},
	{"geometry":{"coordinates":[6.357561,46.907222],"type":"Point"},"properties":{"osm_id":"7727410892","tag":{"amenity":"waste_basket","waste":"trash"}},"type":"Feature"},
	{"geometry":{"coordinates":[6.358393,46.904556],"type":"Point"},"properties":{"osm_id":"7727410897","tag":{"amenity":"waste_basket","waste":"trash"}},"type":"Feature"},
	{"geometry":{"coordinates":[6.358963,46.903548],"type":"Point"},"properties":{"osm_id":"7727410902","tag":{"amenity":"waste_basket","waste":"trash"}},"type":"Feature"},
	{"geometry":{"coordinates":[6.359126,46.903886],"type":"Point"},"properties":{"osm_id":"7727410903","tag":{"amenity":"waste_basket","waste":"trash"}},"type":"Feature"},
	{"geometry":{"coordinates":[6.358715,46.904534],"type":"Point"},"properties":{"osm_id":"7727410904","tag":{"amenity":"waste_basket","waste":"trash"}},"type":"Feature"},
	{"geometry":{"coordinates":[6.357961,46.905013],"type":"Point"},"properties":{"osm_id":"7727410905","tag":{"amenity":"waste_basket","waste":"trash"}},"type":"Feature"},
	{"geometry":{"coordinates":[6.357778,46.905119],"type":"Point"},"properties":{"osm_id":"7727410906","tag":{"amenity":"waste_basket","waste":"trash"}},"type":"Feature"},
	{"geometry":{"coordinates":[6.35748,46.905133],"type":"Point"},"properties":{"osm_id":"7727410907","tag":{"amenity":"waste_basket","waste":"trash"}},"type":"Feature"},
	{"geometry":{"coordinates":[6.357946,46.904836],"type":"Point"},"properties":{"osm_id":"7727410909","tag":{"amenity":"waste_basket","waste":"trash"}},"type":"Feature"},
	{"geometry":{"coordinates":[6.357262,46.904595],"type":"Point"},"properties":{"osm_id":"7727410913","tag":{"amenity":"waste_basket","waste":"trash"}},"type":"Feature"},
	{"geometry":{"coordinates":[6.35758,46.904784],"type":"Point"},"properties":{"osm_id":"7727410916","tag":{"amenity":"waste_basket","waste":"trash"}},"type":"Feature"},
	{"geometry":{"coordinates":[6.35804,46.917789],"type":"Point"},"properties":{"osm_id":"7797478928","tag":{"amenity":"waste_basket","waste":"trash"}},"type":"Feature"},
	{"geometry":{"coordinates":[6.350738,46.906154],"type":"Point"},"properties":{"osm_id":"7797478943","tag":{"amenity":"waste_basket","waste":"trash"}},"type":"Feature"},
	{"geometry":{"coordinates":[6.348415,46.912066],"type":"Point"},"properties":{"osm_id":"7797478994","tag":{"amenity":"waste_basket","waste":"trash"}},"type":"Feature"},
	{"geometry":{"coordinates":[6.356125,46.901113],"type":"Point"},"properties":{"osm_id":"7876184554","tag":{"amenity":"waste_basket","waste":"trash"}},"type":"Feature"},
	{"geometry":{"coordinates":[6.356098,46.901352],"type":"Point"},"properties":{"osm_id":"7876184555","tag":{"amenity":"waste_basket","waste":"trash"}},"type":"Feature"},
	{"geometry":{"coordinates":[6.3553,46.908424],"type":"Point"},"properties":{"osm_id":"7876190428","tag":{"amenity":"waste_basket","waste":"trash"}},"type":"Feature"},
	{"geometry":{"coordinates":[6.355514,46.905687],"type":"Point"},"properties":{"osm_id":"7876190435","tag":{"amenity":"recycling","description":"Verre cass\u00c3\u00a9 dans les ordures m\u00c3\u00a9nag\u00c3\u00a8res (bac vert). Ampoules en d\u00c3\u00a9ch\u00c3\u00a8terie ou dans les points de collecte d\u00c3\u00a9di\u00c3\u00a9s.","opening_hours":"24/7","operator":"Communaut\u00c3\u00a9 de communes du Grand Pontarlier","recycling:glass":"no","recycling:glass_bottles":"yes","recycling_type":"container","survey:date":"2020-08-05","website":"https://preval.fr/wp/que-faire-de-mes-dechets/le-verre/"}},"type":"Feature"},
	{"geometry":{"coordinates":[6.355529,46.905675],"type":"Point"},"properties":{"osm_id":"7876190436","tag":{"amenity":"recycling","description":"Aluminium : Emballages uniquement (ne pas mettre en boule les feuilles d'aluminium), les pi\u00c3\u00a8ces vont en d\u00c3\u00a9ch\u00c3\u00a8terie. Polystyr\u00c3\u00a8ne (barquette de viande...) accept\u00c3\u00a9, chips ou polystryr\u00c3\u00a8ne de calage de colis en d\u00c3\u00a9ch\u00c3\u00a8terie.","opening_hours":"24/7","operator":"Communaut\u00c3\u00a9 de communes du Grand Pontarlier","recycling:aluminium":"yes","recycling:beverage_carton":"no","recycling:cans":"yes","recycling:foil":"yes","recycling:plastic_bags":"yes","recycling:plastic_bottles":"yes","recycling:plastic_packaging":"yes","recycling:polyester":"yes","recycling_type":"container","survey:date":"2020-08-05","website":"https://preval.fr/wp/que-faire-de-mes-dechets/les-emballages-et-les-papiers/"}},"type":"Feature"},
	{"geometry":{"coordinates":[6.344701,46.895661],"type":"Point"},"properties":{"osm_id":"7876190437","tag":{"amenity":"waste_basket","survey:date":"2020-08-10","waste":"trash"}},"type":"Feature"},
	{"geometry":{"coordinates":[6.351556,46.913781],"type":"Point"},"properties":{"osm_id":"7926356653","tag":{"amenity":"waste_basket","waste":"trash"}},"type":"Feature"},
	{"geometry":{"coordinates":[6.352966,46.901063],"type":"Point"},"properties":{"osm_id":"7929439964","tag":{"amenity":"waste_basket","waste":"trash"}},"type":"Feature"}
]
}
