{
"type": "FeatureCollection",
"features": [
	{"geometry":{"coordinates":[6.371763,46.333683],"type":"Point"},"properties":{"osm_id":"268770341","tag":{"amenity":"recycling","recycling_type":"container"}},"type":"Feature"},
	{"geometry":{"coordinates":[6.357199,46.34603],"type":"Point"},"properties":{"osm_id":"4272920891","tag":{"amenity":"recycling","recycling_type":"container"}},"type":"Feature"},
	{"geometry":{"coordinates":[6.35263,46.355165],"type":"Point"},"properties":{"osm_id":"4276923251","tag":{"amenity":"recycling","location":"underground","recycling_type":"container"}},"type":"Feature"},
	{"geometry":{"coordinates":[6.351588,46.356294],"type":"Point"},"properties":{"osm_id":"4277966838","tag":{"amenity":"waste_basket"}},"type":"Feature"},
	{"geometry":{"coordinates":[6.351373,46.355771],"type":"Point"},"properties":{"osm_id":"4278007586","tag":{"amenity":"waste_basket"}},"type":"Feature"},
	{"geometry":{"coordinates":[6.333808,46.368088],"type":"Point"},"properties":{"osm_id":"4294247698","tag":{"amenity":"waste_basket"}},"type":"Feature"},
	{"geometry":{"coordinates":[6.373709,46.332588],"type":"Point"},"properties":{"osm_id":"4625203796","tag":{"amenity":"recycling","recycling_type":"container"}},"type":"Feature"},
	{"geometry":{"coordinates":[6.372825,46.332609],"type":"Point"},"properties":{"osm_id":"4625203797","tag":{"amenity":"recycling","recycling_type":"container"}},"type":"Feature"},
	{"geometry":{"coordinates":[6.375381,46.331007],"type":"Point"},"properties":{"osm_id":"4628438933","tag":{"amenity":"waste_basket"}},"type":"Feature"},
	{"geometry":{"coordinates":[6.40302,46.350481],"type":"Point"},"properties":{"osm_id":"5763527438","tag":{"amenity":"waste_basket"}},"type":"Feature"},
	{"geometry":{"coordinates":[6.400926,46.349394],"type":"Point"},"properties":{"osm_id":"5763669540","tag":{"amenity":"waste_basket"}},"type":"Feature"},
	{"geometry":{"coordinates":[6.35898,46.349417],"type":"Point"},"properties":{"osm_id":"6002343913","tag":{"amenity":"waste_basket"}},"type":"Feature"},
	{"geometry":{"coordinates":[6.358665,46.349311],"type":"Point"},"properties":{"osm_id":"6002364105","tag":{"amenity":"waste_basket","waste":"trash"}},"type":"Feature"},
	{"geometry":{"coordinates":[6.35907,46.349003],"type":"Point"},"properties":{"osm_id":"6002364107","tag":{"amenity":"waste_basket","waste":"trash"}},"type":"Feature"},
	{"geometry":{"coordinates":[6.357835,46.34484],"type":"Point"},"properties":{"osm_id":"6006642366","tag":{"amenity":"waste_disposal"}},"type":"Feature"},
	{"geometry":{"coordinates":[6.358811,46.349989],"type":"Point"},"properties":{"osm_id":"6015071866","tag":{"amenity":"waste_basket","waste":"trash"}},"type":"Feature"},
	{"geometry":{"coordinates":[6.358249,46.350198],"type":"Point"},"properties":{"osm_id":"6015092582","tag":{"amenity":"waste_basket","waste":"trash"}},"type":"Feature"},
	{"geometry":{"coordinates":[6.357805,46.351117],"type":"Point"},"properties":{"osm_id":"6015092584","tag":{"amenity":"waste_basket","waste":"trash"}},"type":"Feature"},
	{"geometry":{"coordinates":[6.358158,46.350775],"type":"Point"},"properties":{"osm_id":"6015094285","tag":{"amenity":"waste_basket","waste":"trash"}},"type":"Feature"},
	{"geometry":{"coordinates":[6.358336,46.350522],"type":"Point"},"properties":{"osm_id":"6015094290","tag":{"amenity":"waste_basket","waste":"trash"}},"type":"Feature"},
	{"geometry":{"coordinates":[6.356912,46.352044],"type":"Point"},"properties":{"osm_id":"6015094291","tag":{"amenity":"waste_basket","waste":"trash"}},"type":"Feature"},
	{"geometry":{"coordinates":[6.356845,46.353411],"type":"Point"},"properties":{"osm_id":"6015141281","tag":{"amenity":"waste_basket","waste":"trash"}},"type":"Feature"},
	{"geometry":{"coordinates":[6.356233,46.354763],"type":"Point"},"properties":{"osm_id":"6015159613","tag":{"amenity":"waste_basket","waste":"trash"}},"type":"Feature"},
	{"geometry":{"coordinates":[6.35282,46.355946],"type":"Point"},"properties":{"osm_id":"6015209044","tag":{"amenity":"waste_basket","waste":"trash"}},"type":"Feature"},
	{"geometry":{"coordinates":[6.353353,46.355959],"type":"Point"},"properties":{"osm_id":"6015227677","tag":{"amenity":"waste_basket","waste":"trash"}},"type":"Feature"},
	{"geometry":{"coordinates":[6.353846,46.355807],"type":"Point"},"properties":{"osm_id":"6015227684","tag":{"amenity":"waste_basket","waste":"trash"}},"type":"Feature"},
	{"geometry":{"coordinates":[6.353272,46.356026],"type":"Point"},"properties":{"osm_id":"6015227786","tag":{"amenity":"waste_basket","waste":"trash"}},"type":"Feature"},
	{"geometry":{"coordinates":[6.336761,46.352692],"type":"Point"},"properties":{"osm_id":"6037092094","tag":{"amenity":"waste_basket","waste":"trash"}},"type":"Feature"},
	{"geometry":{"coordinates":[6.391142,46.339368],"type":"Point"},"properties":{"osm_id":"6067572770","tag":{"amenity":"recycling","recycling_type":"container"}},"type":"Feature"},
	{"geometry":{"coordinates":[6.391137,46.339405],"type":"Point"},"properties":{"osm_id":"6067572771","tag":{"amenity":"waste_disposal"}},"type":"Feature"},
	{"geometry":{"coordinates":[6.391158,46.339331],"type":"Point"},"properties":{"osm_id":"6067572772","tag":{"amenity":"waste_basket"}},"type":"Feature"},
	{"geometry":{"coordinates":[6.399014,46.336069],"type":"Point"},"properties":{"highway":"crossing","osm_id":"6185798190","tag":{"crossing":"marked","crossing:island":"no","tactile_paving":"no"}},"type":"Feature"},
	{"geometry":{"coordinates":[6.330884,46.317811],"type":"Point"},"properties":{"osm_id":"7019794759","tag":{"amenity":"recycling","location":"underground","recycling_type":"container"}},"type":"Feature"},
	{"geometry":{"coordinates":[6.330213,46.349396],"type":"Point"},"properties":{"osm_id":"7125740883","tag":{"amenity":"waste_basket","waste":"trash"}},"type":"Feature"},
	{"geometry":{"coordinates":[6.374442,46.331662],"type":"Point"},"properties":{"osm_id":"7604942468","tag":{"amenity":"recycling","recycling:glass_bottles":"yes","recycling:paper":"yes","recycling:waste":"yes","recycling_type":"container"}},"type":"Feature"},
	{"geometry":{"coordinates":[6.393969,46.325171],"type":"Point"},"properties":{"osm_id":"7629124477","tag":{"amenity":"waste_disposal","waste":"trash"}},"type":"Feature"},
	{"geometry":{"coordinates":[6.393981,46.325177],"type":"Point"},"properties":{"osm_id":"7629124478","tag":{"amenity":"waste_disposal","waste":"trash"}},"type":"Feature"},
	{"geometry":{"coordinates":[6.399264,46.336111],"type":"Point"},"properties":{"osm_id":"7631650275","tag":{"amenity":"recycling","recycling:waste":"yes","recycling_type":"container"}},"type":"Feature"},
	{"geometry":{"coordinates":[6.399241,46.336096],"type":"Point"},"properties":{"osm_id":"7631650276","tag":{"amenity":"recycling","recycling:waste":"yes","recycling_type":"container"}},"type":"Feature"},
	{"geometry":{"coordinates":[6.399216,46.33608],"type":"Point"},"properties":{"osm_id":"7631650277","tag":{"amenity":"recycling","recycling:waste":"yes","recycling_type":"container"}},"type":"Feature"},
	{"geometry":{"coordinates":[6.399191,46.336063],"type":"Point"},"properties":{"osm_id":"7631650278","tag":{"amenity":"recycling","recycling:beverage_cartons":"yes","recycling:cans":"yes","recycling:plastic_bottles":"yes","recycling_type":"container"}},"type":"Feature"},
	{"geometry":{"coordinates":[6.399167,46.336048],"type":"Point"},"properties":{"osm_id":"7631650279","tag":{"amenity":"recycling","recycling:beverage_cartons":"yes","recycling:cans":"yes","recycling:plastic_bottles":"yes","recycling_type":"container"}},"type":"Feature"},
	{"geometry":{"coordinates":[6.399143,46.336032],"type":"Point"},"properties":{"osm_id":"7631650280","tag":{"amenity":"recycling","recycling:glass_bottles":"yes","recycling_type":"container"}},"type":"Feature"},
	{"geometry":{"coordinates":[6.399118,46.336015],"type":"Point"},"properties":{"osm_id":"7631650281","tag":{"amenity":"recycling","recycling:magazines":"yes","recycling:newspaper":"yes","recycling:paper":"yes","recycling_type":"container"}},"type":"Feature"},
	{"geometry":{"coordinates":[6.383074,46.321524],"type":"Point"},"properties":{"osm_id":"7721086249","tag":{"amenity":"waste_basket"}},"type":"Feature"},
	{"geometry":{"coordinates":[6.358715,46.346333],"type":"Point"},"properties":{"osm_id":"7778299245","tag":{"amenity":"recycling"}},"type":"Feature"},
	{"geometry":{"coordinates":[6.415139,46.344058],"type":"Point"},"properties":{"osm_id":"7838058765","tag":{"amenity":"waste_basket","waste":"trash"}},"type":"Feature"},
	{"geometry":{"coordinates":[6.403919,46.338005],"type":"Point"},"properties":{"osm_id":"7909285628","tag":{"amenity":"recycling","recycling:beverage_cartons":"yes","recycling:cans":"yes","recycling:plastic_bottles":"yes","recycling_type":"container"}},"type":"Feature"},
	{"geometry":{"coordinates":[6.403951,46.338005],"type":"Point"},"properties":{"osm_id":"7909285629","tag":{"amenity":"recycling","recycling:beverage_cartons":"yes","recycling:cans":"yes","recycling:plastic_bottles":"yes","recycling_type":"container"}},"type":"Feature"},
	{"geometry":{"coordinates":[6.403984,46.338004],"type":"Point"},"properties":{"osm_id":"7909285630","tag":{"amenity":"recycling","recycling:magazines":"yes","recycling:newspaper":"yes","recycling:paper":"yes","recycling_type":"container"}},"type":"Feature"},
	{"geometry":{"coordinates":[6.404017,46.338003],"type":"Point"},"properties":{"osm_id":"7909285631","tag":{"amenity":"recycling","recycling:glass_bottles":"yes","recycling_type":"container"}},"type":"Feature"},
	{"geometry":{"coordinates":[6.404049,46.338003],"type":"Point"},"properties":{"osm_id":"7909285632","tag":{"amenity":"recycling","recycling:waste":"yes","recycling_type":"container"}},"type":"Feature"},
	{"geometry":{"coordinates":[6.40408,46.338002],"type":"Point"},"properties":{"osm_id":"7909285633","tag":{"amenity":"recycling","recycling:waste":"yes","recycling_type":"container"}},"type":"Feature"},
	{"geometry":{"coordinates":[6.404114,46.338001],"type":"Point"},"properties":{"osm_id":"7909285634","tag":{"amenity":"recycling","recycling:waste":"yes","recycling_type":"container"}},"type":"Feature"},
	{"geometry":{"coordinates":[6.358015,46.345815],"type":"Point"},"properties":{"osm_id":"7979002942","tag":{"amenity":"waste_basket","waste":"trash"}},"type":"Feature"},
	{"geometry":{"coordinates":[6.389287,46.330992],"type":"Point"},"properties":{"osm_id":"7987645174","tag":{"amenity":"recycling","location":"underground","recycling_type":"container"}},"type":"Feature"}
]
}
