{
"type": "FeatureCollection",
"features": [
	{"geometry":{"coordinates":[6.396417,45.760687],"type":"Point"},"properties":{"osm_id":"1295207347","tag":{"amenity":"recycling"}},"type":"Feature"},
	{"geometry":{"coordinates":[6.40309,45.752124],"type":"Point"},"properties":{"osm_id":"1322656419","tag":{"amenity":"recycling"}},"type":"Feature"},
	{"geometry":{"coordinates":[6.397599,45.760895],"type":"Point"},"properties":{"barrier":"gate","osm_id":"3653436052"},"type":"Feature"},
	{"geometry":{"coordinates":[6.395482,45.731191],"type":"Point"},"properties":{"osm_id":"7873772908","tag":{"amenity":"waste_disposal"}},"type":"Feature"},
	{"geometry":{"coordinates":[6.405069,45.727414],"type":"Point"},"properties":{"osm_id":"7873772909","tag":{"amenity":"waste_disposal"}},"type":"Feature"},
	{"geometry":{"coordinates":[6.413892,45.727157],"type":"Point"},"properties":{"osm_id":"7873772914","tag":{"amenity":"waste_disposal"}},"type":"Feature"},
	{"geometry":{"coordinates":[6.407729,45.719321],"type":"Point"},"properties":{"osm_id":"8081681046","tag":{"amenity":"waste_disposal","operator":"Arlys\u00c3\u00a8re"}},"type":"Feature"}
]
}
