{
"type": "FeatureCollection",
"features": [
	{"geometry":{"coordinates":[6.385458,45.676204],"type":"Point"},"properties":{"osm_id":"824876564","tag":{"amenity":"recycling","recycling:cans":"no","recycling:clothes":"no","recycling:glass":"yes","recycling:paper":"no"}},"type":"Feature"},
	{"geometry":{"coordinates":[6.408624,45.689583],"type":"Point"},"properties":{"osm_id":"1480461594","tag":{"amenity":"recycling","recycling_type":"container"}},"type":"Feature"},
	{"geometry":{"coordinates":[6.403351,45.687177],"type":"Point"},"properties":{"osm_id":"1480474867","tag":{"amenity":"recycling","recycling_type":"container"}},"type":"Feature"},
	{"geometry":{"coordinates":[6.39085,45.676337],"type":"Point"},"properties":{"osm_id":"3721262747","tag":{"amenity":"waste_basket"}},"type":"Feature"},
	{"geometry":{"coordinates":[6.374116,45.667996],"type":"Point"},"properties":{"osm_id":"4247306263","tag":{"amenity":"recycling","recycling:clothes":"yes","recycling_type":"container"}},"type":"Feature"},
	{"geometry":{"coordinates":[6.370176,45.667843],"type":"Point"},"properties":{"osm_id":"7944209585","tag":{"amenity":"waste_basket","survey:date":"2020-09-26"}},"type":"Feature"},
	{"geometry":{"coordinates":[6.370206,45.667852],"type":"Point"},"properties":{"osm_id":"7944209685","tag":{"amenity":"waste_basket","survey:date":"2020-09-26"}},"type":"Feature"},
	{"geometry":{"coordinates":[6.370244,45.667674],"type":"Point"},"properties":{"osm_id":"7944222285","tag":{"amenity":"waste_basket","survey:date":"2020-09-26"}},"type":"Feature"},
	{"geometry":{"coordinates":[6.369394,45.667515],"type":"Point"},"properties":{"osm_id":"7944222288","tag":{"amenity":"recycling","recycling_type":"centre","survey:date":"2020-09-26"}},"type":"Feature"},
	{"geometry":{"coordinates":[6.368635,45.667344],"type":"Point"},"properties":{"osm_id":"7944222385","tag":{"amenity":"recycling","recycling_type":"centre","survey:date":"2020-09-26"}},"type":"Feature"},
	{"geometry":{"coordinates":[6.369688,45.667672],"type":"Point"},"properties":{"osm_id":"7944222485","tag":{"amenity":"waste_basket","survey:date":"2020-09-26"}},"type":"Feature"},
	{"geometry":{"coordinates":[6.369354,45.669103],"type":"Point"},"properties":{"osm_id":"7947218485","tag":{"amenity":"waste_basket","survey:date":"2020-09-27"}},"type":"Feature"},
	{"geometry":{"coordinates":[6.369718,45.66833],"type":"Point"},"properties":{"osm_id":"7947218590","tag":{"amenity":"waste_basket","survey:date":"2020-09-27"}},"type":"Feature"},
	{"geometry":{"coordinates":[6.369654,45.668399],"type":"Point"},"properties":{"osm_id":"7947218591","tag":{"amenity":"waste_basket","survey:date":"2020-09-27"}},"type":"Feature"},
	{"geometry":{"coordinates":[6.369632,45.668475],"type":"Point"},"properties":{"osm_id":"7947218592","tag":{"amenity":"waste_basket","survey:date":"2020-09-27"}},"type":"Feature"},
	{"geometry":{"coordinates":[6.369263,45.669244],"type":"Point"},"properties":{"osm_id":"7947218686","tag":{"amenity":"waste_basket","survey:date":"2020-09-27"}},"type":"Feature"},
	{"geometry":{"coordinates":[6.368892,45.66913],"type":"Point"},"properties":{"osm_id":"7947218687","tag":{"amenity":"waste_basket","survey:date":"2020-09-27"}},"type":"Feature"},
	{"geometry":{"coordinates":[6.367368,45.669487],"type":"Point"},"properties":{"osm_id":"7947218688","tag":{"amenity":"waste_basket","survey:date":"2020-09-27"}},"type":"Feature"},
	{"geometry":{"coordinates":[6.369478,45.668166],"type":"Point"},"properties":{"osm_id":"7947218690","tag":{"amenity":"waste_basket","survey:date":"2020-09-27"}},"type":"Feature"},
	{"geometry":{"coordinates":[6.369751,45.668331],"type":"Point"},"properties":{"osm_id":"7947218691","tag":{"amenity":"waste_basket","survey:date":"2020-09-27"}},"type":"Feature"},
	{"geometry":{"coordinates":[6.369278,45.66921],"type":"Point"},"properties":{"osm_id":"7947218785","tag":{"amenity":"waste_basket","survey:date":"2020-09-27"}},"type":"Feature"},
	{"geometry":{"coordinates":[6.370004,45.66817],"type":"Point"},"properties":{"osm_id":"7947218985","tag":{"amenity":"waste_basket","survey:date":"2020-09-27"}},"type":"Feature"},
	{"geometry":{"coordinates":[6.369738,45.667478],"type":"Point"},"properties":{"osm_id":"7947220385","tag":{"amenity":"waste_basket","survey:date":"2020-09-27"}},"type":"Feature"},
	{"geometry":{"coordinates":[6.373593,45.661474],"type":"Point"},"properties":{"osm_id":"7947227385","tag":{"amenity":"waste_basket","survey:date":"2020-09-27"}},"type":"Feature"}
]
}
