{
"type": "FeatureCollection",
"features": [
	{"geometry":{"coordinates":[6.404657,45.256144],"type":"Point"},"properties":{"osm_id":"288990991","tag":{"amenity":"recycling"}},"type":"Feature"},
	{"geometry":{"coordinates":[6.352941,45.246628],"type":"Point"},"properties":{"osm_id":"605046003","tag":{"amenity":"recycling","recycling:glass_bottles":"yes"}},"type":"Feature"},
	{"geometry":{"coordinates":[6.351246,45.238392],"type":"Point"},"properties":{"osm_id":"605047482","tag":{"amenity":"recycling","recycling:glass_bottles":"yes"}},"type":"Feature"},
	{"geometry":{"coordinates":[6.352687,45.274775],"type":"Point"},"properties":{"osm_id":"1577112928","tag":{"amenity":"waste_disposal"}},"type":"Feature"},
	{"geometry":{"coordinates":[6.353546,45.271612],"type":"Point"},"properties":{"osm_id":"1577124669","tag":{"amenity":"waste_disposal"}},"type":"Feature"},
	{"geometry":{"coordinates":[6.354717,45.272653],"type":"Point"},"properties":{"osm_id":"1577124691","tag":{"amenity":"waste_disposal"}},"type":"Feature"},
	{"geometry":{"coordinates":[6.378997,45.260676],"type":"Point"},"properties":{"osm_id":"1577179391","tag":{"amenity":"waste_disposal"}},"type":"Feature"},
	{"geometry":{"coordinates":[6.372055,45.264363],"type":"Point"},"properties":{"osm_id":"1577179418","tag":{"amenity":"waste_disposal"}},"type":"Feature"},
	{"geometry":{"coordinates":[6.344258,45.272412],"type":"Point"},"properties":{"osm_id":"1790530676","tag":{"amenity":"recycling","recycling_type":"container"}},"type":"Feature"},
	{"geometry":{"coordinates":[6.414157,45.253927],"type":"Point"},"properties":{"osm_id":"3308546199","tag":{"amenity":"recycling","operator":"sirtom-maurienne","recycling_type":"container"}},"type":"Feature"},
	{"geometry":{"coordinates":[6.412124,45.255972],"type":"Point"},"properties":{"osm_id":"3308546200","tag":{"amenity":"recycling","operator":"sirtom-maurienne","recycling_type":"container"}},"type":"Feature"},
	{"geometry":{"coordinates":[6.409074,45.25445],"type":"Point"},"properties":{"osm_id":"3308556162","tag":{"amenity":"recycling","operator":"sirtom-maurienne","recycling_type":"container"}},"type":"Feature"},
	{"geometry":{"coordinates":[6.401897,45.257279],"type":"Point"},"properties":{"osm_id":"3308556163","tag":{"amenity":"recycling","operator":"sirtom-maurienne","recycling_type":"container"}},"type":"Feature"},
	{"geometry":{"coordinates":[6.399659,45.254254],"type":"Point"},"properties":{"osm_id":"3308560561","tag":{"amenity":"recycling","operator":"sirtom-maurienne","recycling_type":"container"}},"type":"Feature"},
	{"geometry":{"coordinates":[6.413934,45.252519],"type":"Point"},"properties":{"osm_id":"3308573827","tag":{"amenity":"recycling","operator":"sirtom-maurienne","recycling_type":"container"}},"type":"Feature"},
	{"geometry":{"coordinates":[6.413141,45.234752],"type":"Point"},"properties":{"osm_id":"7762572239","tag":{"amenity":"waste_basket","waste":"trash"}},"type":"Feature"}
]
}
