{
"type": "FeatureCollection",
"features": [
	{"geometry":{"coordinates":[6.39157,43.612305],"type":"Point"},"properties":{"name":"D\u00c3\u00a9ch\u00c3\u00a8terie communautaire d'Ampus","osm_id":"3239776576","tag":{"amenity":"recycling","recycling:cans":"yes","recycling:glass":"yes","recycling:paper":"yes","recycling_type":"centre"}},"type":"Feature"},
	{"geometry":{"coordinates":[6.356759,43.60441],"type":"Point"},"properties":{"osm_id":"3266127411","tag":{"amenity":"waste_disposal"}},"type":"Feature"},
	{"geometry":{"coordinates":[6.372353,43.606723],"type":"Point"},"properties":{"osm_id":"3266127446","tag":{"amenity":"waste_disposal"}},"type":"Feature"},
	{"geometry":{"coordinates":[6.372387,43.606733],"type":"Point"},"properties":{"osm_id":"3266127447","tag":{"amenity":"recycling","recycling:clothes":"yes","recycling:glass":"yes","recycling:paper":"yes","recycling:shoes":"yes","recycling_type":"container"}},"type":"Feature"},
	{"geometry":{"coordinates":[6.381627,43.607962],"type":"Point"},"properties":{"osm_id":"3266127912","tag":{"amenity":"waste_disposal"}},"type":"Feature"},
	{"geometry":{"coordinates":[6.381444,43.607429],"type":"Point"},"properties":{"osm_id":"3266746835","tag":{"amenity":"waste_basket"}},"type":"Feature"},
	{"geometry":{"coordinates":[6.381251,43.6075],"type":"Point"},"properties":{"osm_id":"3266746836","tag":{"amenity":"waste_basket"}},"type":"Feature"},
	{"geometry":{"coordinates":[6.385063,43.606143],"type":"Point"},"properties":{"osm_id":"8264425491","tag":{"amenity":"waste_basket"}},"type":"Feature"}
]
}
