{
"type": "FeatureCollection",
"lastupdate": "2020-08-05T00:00:00Z",
"features": [
	{"geometry":{"coordinates":[6.363798,43.491441],"type":"Point"},"properties":{"osm_id":"1985462588","tag":{"amenity":"waste_basket"}},"type":"Feature"},
	{"geometry":{"coordinates":[6.365237,43.503774],"type":"Point"},"properties":{"osm_id":"2814343108","tag":{"amenity":"recycling","location":"overground","recycling:glass":"yes","recycling:paper":"yes","recycling_type":"container"}},"type":"Feature"},
	{"geometry":{"coordinates":[6.333844,43.484203],"type":"Point"},"properties":{"osm_id":"3224518012","tag":{"amenity":"recycling"}},"type":"Feature"},
	{"geometry":{"coordinates":[6.393463,43.493714],"type":"Point"},"properties":{"osm_id":"3224518016","tag":{"amenity":"recycling","location":"overground","recycling:glass":"yes","recycling:paper":"yes","recycling_type":"container"}},"type":"Feature"},
	{"geometry":{"coordinates":[6.357664,43.49213],"type":"Point"},"properties":{"osm_id":"3233846711","tag":{"amenity":"recycling","description":"Recyclage d'emballages","recycling:beverage_cartons":"yes","recycling:cans":"yes","recycling:plastic_bottles":"yes","recycling_type":"container"}},"type":"Feature"},
	{"geometry":{"coordinates":[6.357659,43.492138],"type":"Point"},"properties":{"osm_id":"3233846712","tag":{"amenity":"recycling","recycling:paper":"yes","recycling_type":"container"}},"type":"Feature"},
	{"geometry":{"coordinates":[6.357654,43.492144],"type":"Point"},"properties":{"osm_id":"3233846713","tag":{"amenity":"recycling","recycling:glass":"yes","recycling_type":"container"}},"type":"Feature"},
	{"geometry":{"coordinates":[6.35765,43.49215],"type":"Point"},"properties":{"osm_id":"3233846714","tag":{"amenity":"recycling","operator":"KFB","recycling:clothes":"yes","recycling:shoes":"yes","recycling_type":"container","website":"http://kfb-solidaire.com/"}},"type":"Feature"},
	{"geometry":{"coordinates":[6.354293,43.489563],"type":"Point"},"properties":{"osm_id":"3241253134","tag":{"amenity":"recycling","location":"overground","recycling:clothes":"yes","recycling:glass":"yes","recycling:paper":"yes","recycling_type":"container"}},"type":"Feature"}
]
}
