{
"type": "FeatureCollection",
"features": [
	{"geometry":{"coordinates":[-73.666114,45.442202],"type":"Point"},"properties":{"osm_id":"6899044693","tag":{"amenity":"waste_basket"}},"type":"Feature"},
	{"geometry":{"coordinates":[-73.670887,45.44669],"type":"Point"},"properties":{"osm_id":"6899078884","tag":{"amenity":"waste_basket"}},"type":"Feature"},
	{"geometry":{"coordinates":[-73.671089,45.446623],"type":"Point"},"properties":{"osm_id":"6899147185","tag":{"amenity":"waste_basket"}},"type":"Feature"},
	{"geometry":{"coordinates":[-73.671311,45.446739],"type":"Point"},"properties":{"osm_id":"6899147186","tag":{"amenity":"waste_basket"}},"type":"Feature"},
	{"geometry":{"coordinates":[-73.658497,45.459731],"type":"Point"},"properties":{"osm_id":"8033196744","tag":{"amenity":"recycling","recycling:green_waste":"yes","recycling_type":"container"}},"type":"Feature"},
	{"geometry":{"coordinates":[-73.654826,45.441441],"type":"Point"},"properties":{"name":"Matrec","osm_id":"8757689944","tag":{"addr:city":"Montr\u00c3\u00a9al","addr:housenumber":"900","addr:province":"QC","addr:street":"Avenue du Pacifique","amenity":"recycling","operator":"GFL Environmental","recycling_type":"centre"}},"type":"Feature"}
]
}
