{
"type": "FeatureCollection",
"features": [
	{"geometry":{"coordinates":[10.61133,60.726215],"type":"Point"},"properties":{"osm_id":"6942757478","tag":{"amenity":"waste_basket"}},"type":"Feature"},
	{"geometry":{"coordinates":[10.601338,60.724542],"type":"Point"},"properties":{"osm_id":"6942763460","tag":{"amenity":"waste_basket"}},"type":"Feature"},
	{"geometry":{"coordinates":[10.613467,60.722107],"type":"Point"},"properties":{"osm_id":"6956694464","tag":{"amenity":"waste_basket"}},"type":"Feature"},
	{"geometry":{"coordinates":[10.613469,60.722163],"type":"Point"},"properties":{"osm_id":"6956694466","tag":{"amenity":"waste_basket"}},"type":"Feature"},
	{"geometry":{"coordinates":[10.613469,60.722149],"type":"Point"},"properties":{"osm_id":"6956694467","tag":{"amenity":"waste_basket"}},"type":"Feature"},
	{"geometry":{"coordinates":[10.615132,60.725429],"type":"Point"},"properties":{"osm_id":"7340081560","tag":{"amenity":"recycling","recycling:cans":"yes","recycling:glass":"yes","recycling:glass_bottles":"yes","recycling:green_waste":"yes","recycling_type":"container"}},"type":"Feature"},
	{"geometry":{"coordinates":[10.616682,60.729989],"type":"Point"},"properties":{"osm_id":"7340698155","tag":{"amenity":"waste_basket"}},"type":"Feature"},
	{"geometry":{"coordinates":[10.616757,60.729991],"type":"Point"},"properties":{"osm_id":"7340698157","tag":{"amenity":"waste_basket"}},"type":"Feature"},
	{"geometry":{"coordinates":[10.616014,60.728804],"type":"Point"},"properties":{"osm_id":"7340698210","tag":{"amenity":"recycling","operator":"Fretex","recycling:clothes":"yes","recycling_type":"container"}},"type":"Feature"},
	{"geometry":{"coordinates":[10.614385,60.726521],"type":"Point"},"properties":{"osm_id":"7340698220","tag":{"access":"no","amenity":"waste_disposal"}},"type":"Feature"},
	{"geometry":{"coordinates":[10.61432,60.726533],"type":"Point"},"properties":{"osm_id":"7340698221","tag":{"access":"no","amenity":"waste_disposal"}},"type":"Feature"},
	{"geometry":{"coordinates":[10.613332,60.726389],"type":"Point"},"properties":{"osm_id":"7340698281","tag":{"amenity":"waste_basket"}},"type":"Feature"},
	{"geometry":{"coordinates":[10.612319,60.722414],"type":"Point"},"properties":{"osm_id":"7340698446","tag":{"amenity":"recycling","recycling:clothes":"yes","recycling_type":"container"}},"type":"Feature"},
	{"geometry":{"coordinates":[10.612579,60.725958],"type":"Point"},"properties":{"osm_id":"7340698487","tag":{"amenity":"waste_basket"}},"type":"Feature"},
	{"geometry":{"coordinates":[10.599026,60.723712],"type":"Point"},"properties":{"osm_id":"7343576247","tag":{"access":"private","amenity":"recycling","recycling:food_waste":"yes","recycling_type":"container"}},"type":"Feature"},
	{"geometry":{"coordinates":[10.599036,60.723696],"type":"Point"},"properties":{"osm_id":"7343576248","tag":{"access":"private","amenity":"waste_disposal","waste":"trash"}},"type":"Feature"},
	{"geometry":{"coordinates":[10.599047,60.723678],"type":"Point"},"properties":{"osm_id":"7343576249","tag":{"access":"private","amenity":"waste_disposal","waste":"trash"}},"type":"Feature"},
	{"geometry":{"coordinates":[10.607282,60.71716],"type":"Point"},"properties":{"osm_id":"7343576414","tag":{"access":"private","amenity":"recycling","recycling:paper":"yes","recycling_type":"container"}},"type":"Feature"},
	{"geometry":{"coordinates":[10.607256,60.717157],"type":"Point"},"properties":{"osm_id":"7343576415","tag":{"access":"private","amenity":"waste_disposal","waste":"trash"}},"type":"Feature"},
	{"geometry":{"coordinates":[10.607231,60.717153],"type":"Point"},"properties":{"osm_id":"7343576416","tag":{"access":"private","amenity":"waste_disposal","waste":"trash"}},"type":"Feature"},
	{"geometry":{"coordinates":[10.607204,60.717145],"type":"Point"},"properties":{"osm_id":"7343576417","tag":{"access":"private","amenity":"recycling","recycling:food_waste":"yes","recycling_type":"container"}},"type":"Feature"},
	{"geometry":{"coordinates":[10.612237,60.728799],"type":"Point"},"properties":{"osm_id":"7353416412","tag":{"amenity":"waste_basket"}},"type":"Feature"},
	{"geometry":{"coordinates":[10.612287,60.723927],"type":"Point"},"properties":{"osm_id":"7364554433","tag":{"amenity":"waste_basket"}},"type":"Feature"},
	{"geometry":{"coordinates":[10.611801,60.72392],"type":"Point"},"properties":{"osm_id":"7364600289","tag":{"amenity":"waste_basket"}},"type":"Feature"},
	{"geometry":{"coordinates":[10.605766,60.73086],"type":"Point"},"properties":{"osm_id":"7371083965","tag":{"amenity":"recycling","recycling:clothes":"yes","recycling_type":"container"}},"type":"Feature"},
	{"geometry":{"coordinates":[10.613381,60.721659],"type":"Point"},"properties":{"osm_id":"7376443320","tag":{"amenity":"waste_basket"}},"type":"Feature"},
	{"geometry":{"coordinates":[10.599869,60.72381],"type":"Point"},"properties":{"osm_id":"7384498932","tag":{"amenity":"waste_basket"}},"type":"Feature"},
	{"geometry":{"coordinates":[10.630328,60.721637],"type":"Point"},"properties":{"osm_id":"7388219895","tag":{"amenity":"recycling","recycling:clothes":"yes","recycling_type":"container"}},"type":"Feature"},
	{"geometry":{"coordinates":[10.614875,60.724082],"type":"Point"},"properties":{"osm_id":"7392905282","tag":{"amenity":"waste_basket"}},"type":"Feature"},
	{"geometry":{"coordinates":[10.614967,60.723643],"type":"Point"},"properties":{"osm_id":"7392905296","tag":{"amenity":"recycling","recycling:clothes":"yes","recycling_type":"container"}},"type":"Feature"}
]
}
