{
"type": "FeatureCollection",
"features": [
	{"geometry":{"coordinates":[10.602653,60.708127],"type":"Point"},"properties":{"name":"Pr\u00c3\u00b8ven milj\u00c3\u00b8stasjon","osm_id":"5555203237","tag":{"amenity":"recycling","opening_hours":"Tu 09:00-15:00; We 13:00-19:00; Sa 09:00-14:00","phone":"+47 61145580","recycling:batteries":"yes","recycling:clothes":"yes","recycling:electrical_items":"yes","recycling:garden_waste":"yes","recycling:glass_bottles":"yes","recycling:hazardous_waste":"yes","recycling:metal":"yes","recycling:paper":"yes","recycling:plasterboard":"yes","recycling:plastic_packaging":"yes","recycling:polystyrene_foam":"yes","recycling:rubble":"yes","recycling:tyres":"yes","recycling:waste":"yes","recycling:wood":"yes","recycling_type":"centre","ref:sortere":"1331","website":"http://glt-avfall.no/stasjoner/proven/"}},"type":"Feature"},
	{"geometry":{"coordinates":[10.60454,60.714633],"type":"Point"},"properties":{"osm_id":"7343576351","tag":{"amenity":"waste_basket"}},"type":"Feature"},
	{"geometry":{"coordinates":[10.620924,60.683944],"type":"Point"},"properties":{"osm_id":"7364636671","tag":{"amenity":"waste_basket"}},"type":"Feature"},
	{"geometry":{"coordinates":[10.620085,60.683982],"type":"Point"},"properties":{"osm_id":"7364636673","tag":{"amenity":"recycling","recycling:clothes":"yes","recycling_type":"container"}},"type":"Feature"},
	{"geometry":{"coordinates":[10.619882,60.684325],"type":"Point"},"properties":{"osm_id":"7364636674","tag":{"amenity":"waste_basket"}},"type":"Feature"},
	{"geometry":{"coordinates":[10.616566,60.709823],"type":"Point"},"properties":{"osm_id":"7379612651","tag":{"amenity":"recycling","recycling_type":"container"}},"type":"Feature"},
	{"geometry":{"coordinates":[10.625827,60.678175],"type":"Point"},"properties":{"osm_id":"7387292259","tag":{"amenity":"waste_basket"}},"type":"Feature"},
	{"geometry":{"coordinates":[10.621722,60.677334],"type":"Point"},"properties":{"osm_id":"7388185811","tag":{"amenity":"waste_basket"}},"type":"Feature"}
]
}
