{
"type": "FeatureCollection",
"features": [
	{"geometry":{"coordinates":[10.564147,54.189467],"type":"Point"},"properties":{"name":"Funke","osm_id":"982839283","tag":{"addr:city":"Malente","addr:country":"DE","addr:housenumber":"106","addr:postcode":"23714","addr:street":"L\u00c3\u00bctjenburger Stra\u00c3\u009fe","addr:suburb":"Bad Malente-Gremsm\u00c3\u00bchlen","amenity":"recycling","recycling:scrap_metal":"yes","recycling_type":"centre"}},"type":"Feature"},
	{"geometry":{"coordinates":[10.618912,54.183715],"type":"Point"},"properties":{"osm_id":"4519257038","tag":{"amenity":"waste_basket"}},"type":"Feature"},
	{"geometry":{"coordinates":[10.578283,54.204178],"type":"Point"},"properties":{"osm_id":"7680106411","tag":{"amenity":"waste_basket","waste":"trash"}},"type":"Feature"},
	{"geometry":{"coordinates":[10.555511,54.177774],"type":"Point"},"properties":{"osm_id":"9075577275","tag":{"amenity":"recycling","recycling:glass_bottles":"yes","recycling:paper":"yes","recycling_type":"container"}},"type":"Feature"},
	{"geometry":{"coordinates":[10.56974,54.18322],"type":"Point"},"properties":{"osm_id":"9075577277","tag":{"amenity":"recycling","recycling:glass_bottles":"yes","recycling_type":"container"}},"type":"Feature"},
	{"geometry":{"coordinates":[10.562543,54.166419],"type":"Point"},"properties":{"osm_id":"9075577278","tag":{"amenity":"recycling","recycling:glass_bottles":"yes","recycling:paper":"yes","recycling_type":"container"}},"type":"Feature"},
	{"geometry":{"coordinates":[10.548956,54.163187],"type":"Point"},"properties":{"osm_id":"9130495730","tag":{"amenity":"recycling","recycling:glass_bottles":"yes","recycling_type":"container"}},"type":"Feature"}
]
}
