{
"type": "FeatureCollection",
"features": [
	{"geometry":{"coordinates":[10.611404,53.436582],"type":"Point"},"properties":{"osm_id":"278714167","tag":{"amenity":"recycling","recycling:clothes":"yes","recycling:glass_bottles":"yes","recycling:paper":"yes","recycling_type":"container"}},"type":"Feature"},
	{"geometry":{"coordinates":[10.614338,53.480666],"type":"Point"},"properties":{"osm_id":"413488076","tag":{"amenity":"recycling","recycling:clothes":"yes","recycling:glass_bottles":"yes","recycling:paper":"yes","recycling_type":"container"}},"type":"Feature"},
	{"geometry":{"coordinates":[10.613622,53.453418],"type":"Point"},"properties":{"osm_id":"957119874","tag":{"amenity":"recycling","recycling:clothes":"yes","recycling:glass_bottles":"yes","recycling:paper":"yes","recycling_type":"container"}},"type":"Feature"},
	{"geometry":{"coordinates":[10.628552,53.461341],"type":"Point"},"properties":{"osm_id":"1014712185","tag":{"amenity":"recycling","mapillary":"Juujp2PGiHg7mFhEPyNfwA","recycling:glass":"yes","recycling:paper":"yes","recycling_type":"container","survey:date":"2019-02-03"}},"type":"Feature"},
	{"geometry":{"coordinates":[10.615358,53.479457],"type":"Point"},"properties":{"osm_id":"3752162951","tag":{"amenity":"waste_basket"}},"type":"Feature"},
	{"geometry":{"coordinates":[10.566178,53.472662],"type":"Point"},"properties":{"osm_id":"3929663326","tag":{"amenity":"recycling","recycling:clothes":"yes","recycling:glass_bottles":"yes","recycling:paper":"yes","recycling_type":"container"}},"type":"Feature"},
	{"geometry":{"coordinates":[10.60546,53.484379],"type":"Point"},"properties":{"osm_id":"3935739112","tag":{"amenity":"recycling","recycling:clothes":"yes","recycling:glass_bottles":"yes","recycling:paper":"yes","recycling_type":"container"}},"type":"Feature"},
	{"geometry":{"coordinates":[10.624103,53.474711],"type":"Point"},"properties":{"osm_id":"5161913133","tag":{"amenity":"waste_basket"}},"type":"Feature"},
	{"geometry":{"coordinates":[10.626217,53.473515],"type":"Point"},"properties":{"osm_id":"5161917927","tag":{"amenity":"waste_basket"}},"type":"Feature"},
	{"geometry":{"coordinates":[10.623136,53.475219],"type":"Point"},"properties":{"osm_id":"5161927423","tag":{"amenity":"waste_basket"}},"type":"Feature"},
	{"geometry":{"coordinates":[10.623114,53.475234],"type":"Point"},"properties":{"osm_id":"5161927424","tag":{"amenity":"waste_basket"}},"type":"Feature"},
	{"geometry":{"coordinates":[10.624443,53.474477],"type":"Point"},"properties":{"osm_id":"5161939311","tag":{"amenity":"waste_basket"}},"type":"Feature"},
	{"geometry":{"coordinates":[10.625119,53.474136],"type":"Point"},"properties":{"osm_id":"5161940433","tag":{"amenity":"waste_basket"}},"type":"Feature"},
	{"geometry":{"coordinates":[10.621961,53.475596],"type":"Point"},"properties":{"osm_id":"5225459823","tag":{"amenity":"waste_basket"}},"type":"Feature"},
	{"geometry":{"coordinates":[10.62266,53.474242],"type":"Point"},"properties":{"osm_id":"5243493548","tag":{"amenity":"recycling","recycling:glass_bottles":"yes","recycling:paper":"yes","recycling_type":"container"}},"type":"Feature"},
	{"geometry":{"coordinates":[10.622959,53.475042],"type":"Point"},"properties":{"osm_id":"7238545271","tag":{"amenity":"waste_basket"}},"type":"Feature"},
	{"geometry":{"coordinates":[10.623522,53.474003],"type":"Point"},"properties":{"osm_id":"7238545272","tag":{"amenity":"waste_basket"}},"type":"Feature"},
	{"geometry":{"coordinates":[10.623203,53.474476],"type":"Point"},"properties":{"osm_id":"7238545273","tag":{"amenity":"waste_basket"}},"type":"Feature"}
]
}
