{
"type": "FeatureCollection",
"features": [
	{"geometry":{"coordinates":[10.579644,52.959573],"type":"Point"},"properties":{"osm_id":"2190408747","tag":{"amenity":"recycling","recycling:glass":"yes"}},"type":"Feature"},
	{"geometry":{"coordinates":[10.561345,52.957905],"type":"Point"},"properties":{"osm_id":"2301833309","tag":{"amenity":"recycling","recycling:clothes":"yes","recycling:glass":"yes","recycling_type":"container"}},"type":"Feature"},
	{"geometry":{"coordinates":[10.613525,52.910161],"type":"Point"},"properties":{"osm_id":"2383961580","tag":{"amenity":"waste_basket"}},"type":"Feature"},
	{"geometry":{"coordinates":[10.61504,52.912618],"type":"Point"},"properties":{"osm_id":"2384611013","tag":{"amenity":"waste_basket"}},"type":"Feature"},
	{"geometry":{"coordinates":[10.613531,52.915028],"type":"Point"},"properties":{"osm_id":"2384611026","tag":{"amenity":"waste_disposal","type":"container"}},"type":"Feature"},
	{"geometry":{"coordinates":[10.613854,52.910702],"type":"Point"},"properties":{"osm_id":"2573440623","tag":{"amenity":"waste_basket"}},"type":"Feature"},
	{"geometry":{"coordinates":[10.592736,52.95747],"type":"Point"},"properties":{"osm_id":"2579012982","tag":{"amenity":"waste_basket"}},"type":"Feature"},
	{"geometry":{"coordinates":[10.611207,52.915906],"type":"Point"},"properties":{"osm_id":"2638537791","tag":{"amenity":"waste_disposal","type":"container"}},"type":"Feature"},
	{"geometry":{"coordinates":[10.612658,52.916145],"type":"Point"},"properties":{"osm_id":"2733451972","tag":{"amenity":"waste_disposal"}},"type":"Feature"},
	{"geometry":{"coordinates":[10.612478,52.910153],"type":"Point"},"properties":{"osm_id":"2733963300","tag":{"amenity":"waste_basket"}},"type":"Feature"},
	{"geometry":{"coordinates":[10.611582,52.914855],"type":"Point"},"properties":{"osm_id":"2733963340","tag":{"amenity":"waste_disposal"}},"type":"Feature"},
	{"geometry":{"coordinates":[10.613021,52.912326],"type":"Point"},"properties":{"osm_id":"2734010664","tag":{"amenity":"waste_basket"}},"type":"Feature"},
	{"geometry":{"coordinates":[10.591319,52.956746],"type":"Point"},"properties":{"osm_id":"2952883058","tag":{"amenity":"waste_basket"}},"type":"Feature"},
	{"geometry":{"coordinates":[10.613256,52.912019],"type":"Point"},"properties":{"osm_id":"2961467926","tag":{"amenity":"waste_basket"}},"type":"Feature"},
	{"geometry":{"coordinates":[10.612964,52.912323],"type":"Point"},"properties":{"osm_id":"2961487746","tag":{"amenity":"waste_basket"}},"type":"Feature"},
	{"geometry":{"coordinates":[10.611993,52.912738],"type":"Point"},"properties":{"osm_id":"3028106044","tag":{"amenity":"waste_basket"}},"type":"Feature"},
	{"geometry":{"coordinates":[10.594148,52.958345],"type":"Point"},"properties":{"osm_id":"3039605696","tag":{"amenity":"recycling","recycling:clothes":"yes","recycling_type":"container"}},"type":"Feature"},
	{"geometry":{"coordinates":[10.594097,52.958319],"type":"Point"},"properties":{"osm_id":"3039605697","tag":{"amenity":"recycling","opening_hours":"Mo-Sa 07:00-19:00","recycling:glass":"yes","recycling_type":"container"}},"type":"Feature"},
	{"geometry":{"coordinates":[10.593851,52.956398],"type":"Point"},"properties":{"osm_id":"3039634739","tag":{"amenity":"waste_basket"}},"type":"Feature"},
	{"geometry":{"coordinates":[10.598132,52.913012],"type":"Point"},"properties":{"osm_id":"3377659011","tag":{"amenity":"waste_basket"}},"type":"Feature"},
	{"geometry":{"coordinates":[10.593781,52.95751],"type":"Point"},"properties":{"osm_id":"3387476554","tag":{"amenity":"waste_basket"}},"type":"Feature"},
	{"geometry":{"coordinates":[10.593078,52.957773],"type":"Point"},"properties":{"osm_id":"3387476556","tag":{"amenity":"waste_basket"}},"type":"Feature"},
	{"geometry":{"coordinates":[10.61098,52.913709],"type":"Point"},"properties":{"osm_id":"3577946247","tag":{"amenity":"waste_basket"}},"type":"Feature"},
	{"geometry":{"coordinates":[10.578116,52.957362],"type":"Point"},"properties":{"osm_id":"7847653529","tag":{"amenity":"recycling","recycling:clothes":"yes","recycling:glass_bottles":"yes","recycling_type":"container"}},"type":"Feature"}
]
}
