{
"type": "FeatureCollection",
"features": [
	{"geometry":{"coordinates":[10.628976,52.509468],"type":"Point"},"properties":{"osm_id":"859534389","tag":{"amenity":"recycling","recycling:clothes":"yes","recycling:glass":"yes","recycling:glass_bottles":"yes","recycling:shoes":"yes","recycling_type":"container"}},"type":"Feature"},
	{"geometry":{"coordinates":[10.624175,52.505257],"type":"Point"},"properties":{"osm_id":"1462035385","tag":{"amenity":"waste_basket"}},"type":"Feature"},
	{"geometry":{"coordinates":[10.620409,52.509399],"type":"Point"},"properties":{"osm_id":"1472935692","tag":{"amenity":"recycling","opening_hours":"Mo-Sa 07:00-19:00; Su, PH off","recycling:clothes":"yes","recycling:glass":"yes","recycling:shoes":"yes","recycling_type":"container"}},"type":"Feature"},
	{"geometry":{"coordinates":[10.630864,52.512264],"type":"Point"},"properties":{"osm_id":"1481091137","tag":{"amenity":"recycling","recycling:clothes":"yes","recycling:shoes":"yes","recycling_type":"container"}},"type":"Feature"},
	{"geometry":{"coordinates":[10.624115,52.505296],"type":"Point"},"properties":{"osm_id":"1495649591","tag":{"amenity":"waste_basket"}},"type":"Feature"},
	{"geometry":{"coordinates":[10.629305,52.491727],"type":"Point"},"properties":{"osm_id":"1589379975","tag":{"amenity":"waste_basket"}},"type":"Feature"},
	{"geometry":{"coordinates":[10.628898,52.495776],"type":"Point"},"properties":{"osm_id":"1589402788","tag":{"amenity":"waste_basket"}},"type":"Feature"},
	{"geometry":{"coordinates":[10.628651,52.495792],"type":"Point"},"properties":{"osm_id":"1589402791","tag":{"amenity":"waste_basket"}},"type":"Feature"},
	{"geometry":{"coordinates":[10.62856,52.509573],"type":"Point"},"properties":{"osm_id":"1589404739","tag":{"amenity":"waste_basket"}},"type":"Feature"},
	{"geometry":{"coordinates":[10.628946,52.510061],"type":"Point"},"properties":{"osm_id":"1589413720","tag":{"amenity":"waste_basket"}},"type":"Feature"},
	{"geometry":{"coordinates":[10.630497,52.512598],"type":"Point"},"properties":{"osm_id":"1600033545","tag":{"amenity":"waste_basket"}},"type":"Feature"},
	{"geometry":{"coordinates":[10.590486,52.497792],"type":"Point"},"properties":{"osm_id":"1607319652","tag":{"amenity":"waste_basket"}},"type":"Feature"},
	{"geometry":{"coordinates":[10.558597,52.492572],"type":"Point"},"properties":{"osm_id":"1608958719","tag":{"amenity":"waste_basket"}},"type":"Feature"},
	{"geometry":{"coordinates":[10.629393,52.509319],"type":"Point"},"properties":{"osm_id":"1669860868","tag":{"amenity":"waste_basket"}},"type":"Feature"},
	{"geometry":{"coordinates":[10.629162,52.509735],"type":"Point"},"properties":{"osm_id":"1669861986","tag":{"amenity":"waste_basket"}},"type":"Feature"},
	{"geometry":{"coordinates":[10.570922,52.490009],"type":"Point"},"properties":{"osm_id":"1671545844","tag":{"amenity":"waste_basket"}},"type":"Feature"},
	{"geometry":{"coordinates":[10.571052,52.490048],"type":"Point"},"properties":{"osm_id":"1671546352","tag":{"amenity":"waste_basket"}},"type":"Feature"},
	{"geometry":{"coordinates":[10.632796,52.510393],"type":"Point"},"properties":{"osm_id":"1684905165","tag":{"amenity":"waste_basket"}},"type":"Feature"},
	{"geometry":{"coordinates":[10.614674,52.495423],"type":"Point"},"properties":{"osm_id":"1707004335","tag":{"amenity":"waste_basket"}},"type":"Feature"},
	{"geometry":{"coordinates":[10.614819,52.495912],"type":"Point"},"properties":{"osm_id":"1707004342","tag":{"amenity":"waste_basket"}},"type":"Feature"},
	{"geometry":{"coordinates":[10.622772,52.494072],"type":"Point"},"properties":{"osm_id":"1707912866","tag":{"amenity":"recycling","recycling:glass":"yes","recycling_type":"container"}},"type":"Feature"},
	{"geometry":{"coordinates":[10.622733,52.494042],"type":"Point"},"properties":{"osm_id":"1707912873","tag":{"amenity":"recycling","recycling:clothes":"yes","recycling:shoes":"yes","recycling_type":"container"}},"type":"Feature"},
	{"geometry":{"coordinates":[10.627664,52.493846],"type":"Point"},"properties":{"osm_id":"1708756080","tag":{"amenity":"waste_basket"}},"type":"Feature"},
	{"geometry":{"coordinates":[10.626909,52.494131],"type":"Point"},"properties":{"osm_id":"1708764325","tag":{"amenity":"waste_basket"}},"type":"Feature"},
	{"geometry":{"coordinates":[10.631089,52.490907],"type":"Point"},"properties":{"osm_id":"1708811379","tag":{"amenity":"recycling","recycling:clothes":"yes","recycling:glass":"yes","recycling:shoes":"yes","recycling_type":"container"}},"type":"Feature"},
	{"geometry":{"coordinates":[10.622798,52.5075],"type":"Point"},"properties":{"osm_id":"1733983535","tag":{"amenity":"waste_basket"}},"type":"Feature"},
	{"geometry":{"coordinates":[10.614374,52.502379],"type":"Point"},"properties":{"osm_id":"1758334959","tag":{"amenity":"waste_basket"}},"type":"Feature"},
	{"geometry":{"coordinates":[10.63288,52.510487],"type":"Point"},"properties":{"osm_id":"1758433959","tag":{"amenity":"waste_basket"}},"type":"Feature"},
	{"geometry":{"coordinates":[10.614035,52.501932],"type":"Point"},"properties":{"osm_id":"1758504133","tag":{"amenity":"waste_basket"}},"type":"Feature"},
	{"geometry":{"coordinates":[10.613725,52.502217],"type":"Point"},"properties":{"osm_id":"1758504144","tag":{"amenity":"waste_basket"}},"type":"Feature"},
	{"geometry":{"coordinates":[10.614036,52.502341],"type":"Point"},"properties":{"osm_id":"1758504167","tag":{"amenity":"waste_basket"}},"type":"Feature"},
	{"geometry":{"coordinates":[10.624329,52.509261],"type":"Point"},"properties":{"osm_id":"1788398972","tag":{"amenity":"waste_basket"}},"type":"Feature"},
	{"geometry":{"coordinates":[10.580842,52.512578],"type":"Point"},"properties":{"osm_id":"1796737788","tag":{"amenity":"recycling","recycling:clothes":"yes","recycling_type":"container"}},"type":"Feature"},
	{"geometry":{"coordinates":[10.578377,52.509493],"type":"Point"},"properties":{"osm_id":"1805276998","tag":{"amenity":"waste_basket"}},"type":"Feature"},
	{"geometry":{"coordinates":[10.569835,52.496833],"type":"Point"},"properties":{"osm_id":"1819186467","tag":{"amenity":"waste_basket"}},"type":"Feature"},
	{"geometry":{"coordinates":[10.611729,52.501966],"type":"Point"},"properties":{"osm_id":"1852967844","tag":{"amenity":"waste_basket"}},"type":"Feature"},
	{"geometry":{"coordinates":[10.611769,52.502029],"type":"Point"},"properties":{"osm_id":"1852967847","tag":{"amenity":"waste_basket"}},"type":"Feature"},
	{"geometry":{"coordinates":[10.611914,52.502172],"type":"Point"},"properties":{"osm_id":"1852967853","tag":{"amenity":"waste_basket"}},"type":"Feature"},
	{"geometry":{"coordinates":[10.580701,52.511555],"type":"Point"},"properties":{"osm_id":"1908764755","tag":{"amenity":"recycling","recycling:clothes":"yes","recycling:glass":"yes","recycling_type":"container"}},"type":"Feature"},
	{"geometry":{"coordinates":[10.579737,52.505686],"type":"Point"},"properties":{"osm_id":"1927431287","tag":{"amenity":"waste_basket"}},"type":"Feature"},
	{"geometry":{"coordinates":[10.548143,52.496587],"type":"Point"},"properties":{"osm_id":"2168964946","tag":{"amenity":"waste_basket"}},"type":"Feature"},
	{"geometry":{"coordinates":[10.629449,52.50938],"type":"Point"},"properties":{"osm_id":"2183081319","tag":{"amenity":"waste_basket"}},"type":"Feature"},
	{"geometry":{"coordinates":[10.61053,52.502364],"type":"Point"},"properties":{"osm_id":"2203719241","tag":{"amenity":"waste_basket"}},"type":"Feature"},
	{"geometry":{"coordinates":[10.571278,52.489924],"type":"Point"},"properties":{"osm_id":"2230734647","tag":{"amenity":"waste_basket"}},"type":"Feature"},
	{"geometry":{"coordinates":[10.576186,52.50595],"type":"Point"},"properties":{"osm_id":"2284030504","tag":{"amenity":"waste_basket"}},"type":"Feature"},
	{"geometry":{"coordinates":[10.576455,52.506053],"type":"Point"},"properties":{"osm_id":"2284030514","tag":{"amenity":"waste_basket"}},"type":"Feature"},
	{"geometry":{"coordinates":[10.577553,52.507025],"type":"Point"},"properties":{"osm_id":"2284074266","tag":{"amenity":"recycling","recycling:clothes":"yes","recycling:shoes":"yes","recycling_type":"container"}},"type":"Feature"},
	{"geometry":{"coordinates":[10.631507,52.51429],"type":"Point"},"properties":{"osm_id":"2285403010","tag":{"amenity":"waste_basket"}},"type":"Feature"},
	{"geometry":{"coordinates":[10.63156,52.512211],"type":"Point"},"properties":{"osm_id":"2299245677","tag":{"amenity":"waste_basket"}},"type":"Feature"},
	{"geometry":{"coordinates":[10.630553,52.508208],"type":"Point"},"properties":{"osm_id":"2299312134","tag":{"amenity":"waste_basket"}},"type":"Feature"},
	{"geometry":{"coordinates":[10.554956,52.507378],"type":"Point"},"properties":{"osm_id":"2300644109","tag":{"amenity":"waste_basket"}},"type":"Feature"},
	{"geometry":{"coordinates":[10.553116,52.483693],"type":"Point"},"properties":{"osm_id":"2316119398","tag":{"amenity":"waste_basket"}},"type":"Feature"},
	{"geometry":{"coordinates":[10.554532,52.4838],"type":"Point"},"properties":{"osm_id":"2316119411","tag":{"amenity":"waste_basket"}},"type":"Feature"},
	{"geometry":{"coordinates":[10.554369,52.483908],"type":"Point"},"properties":{"osm_id":"2316119422","tag":{"amenity":"waste_basket"}},"type":"Feature"},
	{"geometry":{"coordinates":[10.552443,52.484919],"type":"Point"},"properties":{"osm_id":"2316140088","tag":{"amenity":"waste_basket"}},"type":"Feature"},
	{"geometry":{"coordinates":[10.586927,52.504817],"type":"Point"},"properties":{"osm_id":"2318676427","tag":{"amenity":"recycling","recycling:glass":"yes","recycling_type":"container"}},"type":"Feature"},
	{"geometry":{"coordinates":[10.586931,52.504786],"type":"Point"},"properties":{"osm_id":"2318676428","tag":{"amenity":"recycling","recycling:clothes":"yes","recycling:shoes":"yes","recycling_type":"container"}},"type":"Feature"},
	{"geometry":{"coordinates":[10.553133,52.486255],"type":"Point"},"properties":{"osm_id":"2338925604","tag":{"amenity":"waste_basket"}},"type":"Feature"},
	{"geometry":{"coordinates":[10.553365,52.486269],"type":"Point"},"properties":{"osm_id":"2338925605","tag":{"amenity":"waste_basket"}},"type":"Feature"},
	{"geometry":{"coordinates":[10.547813,52.493917],"type":"Point"},"properties":{"osm_id":"2394137400","tag":{"amenity":"waste_basket"}},"type":"Feature"},
	{"geometry":{"coordinates":[10.552372,52.490555],"type":"Point"},"properties":{"osm_id":"2416346218","tag":{"amenity":"waste_basket"}},"type":"Feature"},
	{"geometry":{"coordinates":[10.553139,52.490606],"type":"Point"},"properties":{"osm_id":"2416346227","tag":{"amenity":"waste_basket"}},"type":"Feature"},
	{"geometry":{"coordinates":[10.583127,52.510401],"type":"Point"},"properties":{"osm_id":"2441356259","tag":{"amenity":"recycling","recycling:clothes":"yes","recycling:shoes":"yes","recycling_type":"container"}},"type":"Feature"},
	{"geometry":{"coordinates":[10.582706,52.511904],"type":"Point"},"properties":{"osm_id":"2441360065","tag":{"amenity":"waste_basket","waste":"trash"}},"type":"Feature"},
	{"geometry":{"coordinates":[10.590981,52.497414],"type":"Point"},"properties":{"osm_id":"2462029068","tag":{"amenity":"waste_basket"}},"type":"Feature"},
	{"geometry":{"coordinates":[10.581597,52.51196],"type":"Point"},"properties":{"osm_id":"2487981217","tag":{"amenity":"waste_basket"}},"type":"Feature"},
	{"geometry":{"coordinates":[10.569972,52.49723],"type":"Point"},"properties":{"osm_id":"2492820004","tag":{"amenity":"waste_basket"}},"type":"Feature"},
	{"geometry":{"coordinates":[10.562611,52.483885],"type":"Point"},"properties":{"osm_id":"2515257746","tag":{"amenity":"recycling","recycling:clothes":"yes","recycling:glass":"yes","recycling:shoes":"yes","recycling_type":"container"}},"type":"Feature"},
	{"geometry":{"coordinates":[10.563329,52.48426],"type":"Point"},"properties":{"osm_id":"2515257747","tag":{"amenity":"recycling","recycling:clothes":"yes","recycling:shoes":"yes","recycling_type":"container"}},"type":"Feature"},
	{"geometry":{"coordinates":[10.552491,52.48651],"type":"Point"},"properties":{"osm_id":"2515279769","tag":{"amenity":"waste_basket"}},"type":"Feature"},
	{"geometry":{"coordinates":[10.551028,52.487034],"type":"Point"},"properties":{"osm_id":"2515279775","tag":{"amenity":"waste_basket"}},"type":"Feature"},
	{"geometry":{"coordinates":[10.587218,52.517774],"type":"Point"},"properties":{"osm_id":"2649610495","tag":{"amenity":"waste_basket"}},"type":"Feature"},
	{"geometry":{"coordinates":[10.586977,52.517754],"type":"Point"},"properties":{"osm_id":"2649610498","tag":{"amenity":"waste_basket"}},"type":"Feature"},
	{"geometry":{"coordinates":[10.613593,52.501693],"type":"Point"},"properties":{"osm_id":"2649631955","tag":{"amenity":"waste_basket"}},"type":"Feature"},
	{"geometry":{"coordinates":[10.583779,52.513844],"type":"Point"},"properties":{"osm_id":"2664647341","tag":{"amenity":"waste_basket"}},"type":"Feature"},
	{"geometry":{"coordinates":[10.613175,52.502524],"type":"Point"},"properties":{"osm_id":"2674898232","tag":{"amenity":"waste_basket"}},"type":"Feature"},
	{"geometry":{"coordinates":[10.606951,52.500104],"type":"Point"},"properties":{"name":"Sammelbeh\u00c3\u00a4lter f\u00c3\u00bcr Unfallwild und Abschnitte/Aufbr\u00c3\u00bcche von Wild","osm_id":"2715324977","tag":{"amenity":"waste_disposal","operator":"Landkreis Gifhorn, Abteilung Veterin\u00c3\u00a4rwesen"}},"type":"Feature"},
	{"geometry":{"coordinates":[10.614057,52.502208],"type":"Point"},"properties":{"osm_id":"2715398502","tag":{"amenity":"waste_basket"}},"type":"Feature"},
	{"geometry":{"coordinates":[10.614032,52.502235],"type":"Point"},"properties":{"osm_id":"2715398503","tag":{"amenity":"waste_basket"}},"type":"Feature"},
	{"geometry":{"coordinates":[10.549217,52.490861],"type":"Point"},"properties":{"osm_id":"2787817345","tag":{"amenity":"waste_basket"}},"type":"Feature"},
	{"geometry":{"coordinates":[10.596707,52.528864],"type":"Point"},"properties":{"osm_id":"2803143978","tag":{"amenity":"waste_basket"}},"type":"Feature"},
	{"geometry":{"coordinates":[10.548348,52.488142],"type":"Point"},"properties":{"osm_id":"2806115438","tag":{"amenity":"waste_basket"}},"type":"Feature"},
	{"geometry":{"coordinates":[10.548517,52.488188],"type":"Point"},"properties":{"osm_id":"2806115439","tag":{"amenity":"waste_basket"}},"type":"Feature"},
	{"geometry":{"coordinates":[10.549572,52.488459],"type":"Point"},"properties":{"osm_id":"2806115446","tag":{"amenity":"waste_basket"}},"type":"Feature"},
	{"geometry":{"coordinates":[10.549662,52.488675],"type":"Point"},"properties":{"osm_id":"2806115460","tag":{"amenity":"waste_basket"}},"type":"Feature"},
	{"geometry":{"coordinates":[10.5471,52.48544],"type":"Point"},"properties":{"osm_id":"2806216969","tag":{"amenity":"waste_basket"}},"type":"Feature"},
	{"geometry":{"coordinates":[10.58901,52.520095],"type":"Point"},"properties":{"osm_id":"2806971362","tag":{"amenity":"waste_basket"}},"type":"Feature"},
	{"geometry":{"coordinates":[10.592385,52.52395],"type":"Point"},"properties":{"osm_id":"2807845548","tag":{"amenity":"waste_basket"}},"type":"Feature"},
	{"geometry":{"coordinates":[10.592689,52.524039],"type":"Point"},"properties":{"osm_id":"2807845553","tag":{"amenity":"waste_basket"}},"type":"Feature"},
	{"geometry":{"coordinates":[10.610557,52.502435],"type":"Point"},"properties":{"osm_id":"2826788296","tag":{"amenity":"waste_basket"}},"type":"Feature"},
	{"geometry":{"coordinates":[10.610679,52.50258],"type":"Point"},"properties":{"osm_id":"2826788298","tag":{"amenity":"waste_basket"}},"type":"Feature"},
	{"geometry":{"coordinates":[10.548107,52.487412],"type":"Point"},"properties":{"osm_id":"2828581747","tag":{"amenity":"waste_basket"}},"type":"Feature"},
	{"geometry":{"coordinates":[10.55047,52.485816],"type":"Point"},"properties":{"osm_id":"2828731654","tag":{"amenity":"waste_basket"}},"type":"Feature"},
	{"geometry":{"coordinates":[10.551164,52.485944],"type":"Point"},"properties":{"osm_id":"2828731658","tag":{"amenity":"waste_basket"}},"type":"Feature"},
	{"geometry":{"coordinates":[10.552994,52.486314],"type":"Point"},"properties":{"osm_id":"2828731674","tag":{"amenity":"waste_basket"}},"type":"Feature"},
	{"geometry":{"coordinates":[10.550321,52.487274],"type":"Point"},"properties":{"osm_id":"2828731700","tag":{"amenity":"waste_basket"}},"type":"Feature"},
	{"geometry":{"coordinates":[10.549907,52.487275],"type":"Point"},"properties":{"osm_id":"2828731801","tag":{"amenity":"waste_basket"}},"type":"Feature"},
	{"geometry":{"coordinates":[10.550078,52.489571],"type":"Point"},"properties":{"osm_id":"2828731811","tag":{"amenity":"waste_basket"}},"type":"Feature"},
	{"geometry":{"coordinates":[10.550015,52.489651],"type":"Point"},"properties":{"osm_id":"2828731815","tag":{"amenity":"waste_basket"}},"type":"Feature"},
	{"geometry":{"coordinates":[10.550536,52.490532],"type":"Point"},"properties":{"osm_id":"2828731823","tag":{"amenity":"waste_basket"}},"type":"Feature"},
	{"geometry":{"coordinates":[10.550574,52.49081],"type":"Point"},"properties":{"osm_id":"2828731828","tag":{"amenity":"waste_basket"}},"type":"Feature"},
	{"geometry":{"coordinates":[10.552607,52.490821],"type":"Point"},"properties":{"osm_id":"2828731831","tag":{"amenity":"waste_basket"}},"type":"Feature"},
	{"geometry":{"coordinates":[10.550845,52.490835],"type":"Point"},"properties":{"osm_id":"2828731835","tag":{"amenity":"waste_basket"}},"type":"Feature"},
	{"geometry":{"coordinates":[10.551099,52.490874],"type":"Point"},"properties":{"osm_id":"2828731838","tag":{"amenity":"waste_basket"}},"type":"Feature"},
	{"geometry":{"coordinates":[10.551647,52.493227],"type":"Point"},"properties":{"osm_id":"2832960833","tag":{"amenity":"waste_basket"}},"type":"Feature"},
	{"geometry":{"coordinates":[10.548077,52.494199],"type":"Point"},"properties":{"osm_id":"2832960849","tag":{"amenity":"waste_basket"}},"type":"Feature"},
	{"geometry":{"coordinates":[10.54775,52.493912],"type":"Point"},"properties":{"osm_id":"2833247211","tag":{"amenity":"waste_basket"}},"type":"Feature"},
	{"geometry":{"coordinates":[10.614224,52.501684],"type":"Point"},"properties":{"osm_id":"2849956845","tag":{"amenity":"waste_basket"}},"type":"Feature"},
	{"geometry":{"coordinates":[10.623628,52.506614],"type":"Point"},"properties":{"osm_id":"2849960249","tag":{"amenity":"waste_basket"}},"type":"Feature"},
	{"geometry":{"coordinates":[10.547603,52.489071],"type":"Point"},"properties":{"osm_id":"2875556744","tag":{"amenity":"waste_basket"}},"type":"Feature"},
	{"geometry":{"coordinates":[10.629502,52.513332],"type":"Point"},"properties":{"osm_id":"2985556063","tag":{"amenity":"waste_basket"}},"type":"Feature"},
	{"geometry":{"coordinates":[10.629528,52.513405],"type":"Point"},"properties":{"osm_id":"2985556065","tag":{"amenity":"waste_basket"}},"type":"Feature"},
	{"geometry":{"coordinates":[10.629834,52.513192],"type":"Point"},"properties":{"osm_id":"2987139458","tag":{"amenity":"waste_basket"}},"type":"Feature"},
	{"geometry":{"coordinates":[10.629535,52.513288],"type":"Point"},"properties":{"osm_id":"2987141387","tag":{"amenity":"waste_basket"}},"type":"Feature"},
	{"geometry":{"coordinates":[10.570023,52.48985],"type":"Point"},"properties":{"osm_id":"3049354942","tag":{"amenity":"waste_basket"}},"type":"Feature"},
	{"geometry":{"coordinates":[10.548037,52.48456],"type":"Point"},"properties":{"osm_id":"3052321370","tag":{"amenity":"waste_basket"}},"type":"Feature"},
	{"geometry":{"coordinates":[10.547878,52.484576],"type":"Point"},"properties":{"osm_id":"3052321373","tag":{"amenity":"waste_basket"}},"type":"Feature"},
	{"geometry":{"coordinates":[10.548003,52.484724],"type":"Point"},"properties":{"osm_id":"3052321374","tag":{"amenity":"waste_basket"}},"type":"Feature"},
	{"geometry":{"coordinates":[10.563366,52.484275],"type":"Point"},"properties":{"osm_id":"3090843315","tag":{"amenity":"recycling","recycling:paper":"yes","recycling:shoes":"yes","recycling_type":"container"}},"type":"Feature"},
	{"geometry":{"coordinates":[10.56807,52.485079],"type":"Point"},"properties":{"osm_id":"3091124677","tag":{"amenity":"recycling","recycling:clothes":"yes","recycling:shoes":"yes","recycling_type":"container"}},"type":"Feature"},
	{"geometry":{"coordinates":[10.612708,52.50202],"type":"Point"},"properties":{"osm_id":"3111441599","tag":{"amenity":"waste_basket"}},"type":"Feature"},
	{"geometry":{"coordinates":[10.612184,52.50206],"type":"Point"},"properties":{"osm_id":"3111441603","tag":{"amenity":"waste_basket"}},"type":"Feature"},
	{"geometry":{"coordinates":[10.612515,52.502231],"type":"Point"},"properties":{"osm_id":"3111441617","tag":{"amenity":"waste_basket"}},"type":"Feature"},
	{"geometry":{"coordinates":[10.59221,52.512123],"type":"Point"},"properties":{"osm_id":"3111441841","tag":{"amenity":"waste_basket"}},"type":"Feature"},
	{"geometry":{"coordinates":[10.592294,52.512269],"type":"Point"},"properties":{"osm_id":"3111441843","tag":{"amenity":"waste_basket"}},"type":"Feature"},
	{"geometry":{"coordinates":[10.613123,52.501872],"type":"Point"},"properties":{"osm_id":"3111452100","tag":{"amenity":"waste_basket"}},"type":"Feature"},
	{"geometry":{"coordinates":[10.613641,52.501951],"type":"Point"},"properties":{"osm_id":"3111452104","tag":{"amenity":"waste_basket"}},"type":"Feature"},
	{"geometry":{"coordinates":[10.613403,52.502229],"type":"Point"},"properties":{"osm_id":"3112526772","tag":{"amenity":"waste_basket"}},"type":"Feature"},
	{"geometry":{"coordinates":[10.613584,52.50239],"type":"Point"},"properties":{"osm_id":"3112526776","tag":{"amenity":"waste_basket"}},"type":"Feature"},
	{"geometry":{"coordinates":[10.580893,52.507892],"type":"Point"},"properties":{"osm_id":"3112865113","tag":{"amenity":"waste_basket"}},"type":"Feature"},
	{"geometry":{"coordinates":[10.596994,52.528949],"type":"Point"},"properties":{"osm_id":"3120682221","tag":{"amenity":"waste_basket"}},"type":"Feature"},
	{"geometry":{"coordinates":[10.600321,52.535325],"type":"Point"},"properties":{"osm_id":"3120744838","tag":{"amenity":"waste_basket"}},"type":"Feature"},
	{"geometry":{"coordinates":[10.549275,52.494224],"type":"Point"},"properties":{"osm_id":"3156252066","tag":{"amenity":"waste_basket"}},"type":"Feature"},
	{"geometry":{"coordinates":[10.548694,52.494274],"type":"Point"},"properties":{"osm_id":"3156301199","tag":{"amenity":"waste_basket"}},"type":"Feature"},
	{"geometry":{"coordinates":[10.592511,52.512568],"type":"Point"},"properties":{"osm_id":"3179617478","tag":{"amenity":"waste_basket"}},"type":"Feature"},
	{"geometry":{"coordinates":[10.592897,52.512765],"type":"Point"},"properties":{"osm_id":"3179617487","tag":{"amenity":"waste_basket"}},"type":"Feature"},
	{"geometry":{"coordinates":[10.555816,52.483972],"type":"Point"},"properties":{"osm_id":"3203402607","tag":{"amenity":"waste_basket"}},"type":"Feature"},
	{"geometry":{"coordinates":[10.556353,52.484411],"type":"Point"},"properties":{"osm_id":"3203402611","tag":{"amenity":"waste_basket"}},"type":"Feature"},
	{"geometry":{"coordinates":[10.547533,52.487943],"type":"Point"},"properties":{"osm_id":"3212650206","tag":{"amenity":"waste_basket"}},"type":"Feature"},
	{"geometry":{"coordinates":[10.547766,52.48799],"type":"Point"},"properties":{"osm_id":"3212650211","tag":{"amenity":"waste_basket"}},"type":"Feature"},
	{"geometry":{"coordinates":[10.547886,52.487997],"type":"Point"},"properties":{"osm_id":"3212650218","tag":{"amenity":"waste_basket"}},"type":"Feature"},
	{"geometry":{"coordinates":[10.547279,52.488025],"type":"Point"},"properties":{"osm_id":"3212650221","tag":{"amenity":"waste_basket"}},"type":"Feature"},
	{"geometry":{"coordinates":[10.564437,52.486815],"type":"Point"},"properties":{"osm_id":"3218955202","tag":{"amenity":"waste_basket"}},"type":"Feature"},
	{"geometry":{"coordinates":[10.547038,52.485079],"type":"Point"},"properties":{"osm_id":"3226988039","tag":{"amenity":"waste_basket"}},"type":"Feature"},
	{"geometry":{"coordinates":[10.54927,52.485396],"type":"Point"},"properties":{"osm_id":"3233817463","tag":{"amenity":"waste_basket"}},"type":"Feature"},
	{"geometry":{"coordinates":[10.593217,52.5126],"type":"Point"},"properties":{"osm_id":"3262755463","tag":{"amenity":"waste_basket"}},"type":"Feature"},
	{"geometry":{"coordinates":[10.576765,52.507456],"type":"Point"},"properties":{"osm_id":"3267635967","tag":{"amenity":"waste_basket"}},"type":"Feature"},
	{"geometry":{"coordinates":[10.585941,52.508869],"type":"Point"},"properties":{"osm_id":"3268514567","tag":{"amenity":"waste_basket"}},"type":"Feature"},
	{"geometry":{"coordinates":[10.585964,52.508989],"type":"Point"},"properties":{"osm_id":"3268514568","tag":{"amenity":"waste_basket"}},"type":"Feature"},
	{"geometry":{"coordinates":[10.614519,52.487838],"type":"Point"},"properties":{"osm_id":"3273474094","tag":{"amenity":"waste_basket"}},"type":"Feature"},
	{"geometry":{"coordinates":[10.586809,52.504268],"type":"Point"},"properties":{"osm_id":"4083177055","tag":{"amenity":"waste_basket"}},"type":"Feature"},
	{"geometry":{"coordinates":[10.628893,52.510109],"type":"Point"},"properties":{"osm_id":"4190076790","tag":{"amenity":"waste_basket"}},"type":"Feature"},
	{"geometry":{"coordinates":[10.628954,52.510146],"type":"Point"},"properties":{"osm_id":"4190076791","tag":{"amenity":"waste_basket"}},"type":"Feature"},
	{"geometry":{"coordinates":[10.61275,52.501735],"type":"Point"},"properties":{"osm_id":"5393544422","tag":{"amenity":"waste_basket"}},"type":"Feature"},
	{"geometry":{"coordinates":[10.588705,52.507882],"type":"Point"},"properties":{"osm_id":"5469668844","tag":{"amenity":"waste_basket"}},"type":"Feature"},
	{"geometry":{"coordinates":[10.628106,52.485433],"type":"Point"},"properties":{"osm_id":"6052927113","tag":{"amenity":"waste_basket","waste":"trash"}},"type":"Feature"},
	{"geometry":{"coordinates":[10.548336,52.48906],"type":"Point"},"properties":{"osm_id":"6111436282","tag":{"amenity":"waste_basket","waste":"trash"}},"type":"Feature"},
	{"geometry":{"coordinates":[10.547374,52.488603],"type":"Point"},"properties":{"osm_id":"6126202013","tag":{"amenity":"waste_basket","waste":"trash"}},"type":"Feature"},
	{"geometry":{"coordinates":[10.548596,52.490112],"type":"Point"},"properties":{"osm_id":"6126202222","tag":{"amenity":"waste_basket","waste":"trash"}},"type":"Feature"},
	{"geometry":{"coordinates":[10.548691,52.489307],"type":"Point"},"properties":{"osm_id":"6126202224","tag":{"amenity":"waste_basket","waste":"trash"}},"type":"Feature"},
	{"geometry":{"coordinates":[10.548479,52.48916],"type":"Point"},"properties":{"osm_id":"6126202226","tag":{"amenity":"waste_basket","waste":"trash"}},"type":"Feature"},
	{"geometry":{"coordinates":[10.60247,52.535497],"type":"Point"},"properties":{"osm_id":"6188027752","tag":{"amenity":"waste_basket","waste":"trash"}},"type":"Feature"},
	{"geometry":{"coordinates":[10.630224,52.50564],"type":"Point"},"properties":{"osm_id":"6188027755","tag":{"amenity":"waste_basket","waste":"trash"}},"type":"Feature"},
	{"geometry":{"coordinates":[10.585543,52.50893],"type":"Point"},"properties":{"osm_id":"6214204715","tag":{"amenity":"waste_basket","waste":"trash"}},"type":"Feature"},
	{"geometry":{"coordinates":[10.631928,52.510874],"type":"Point"},"properties":{"osm_id":"6253461000","tag":{"amenity":"waste_basket","waste":"trash"}},"type":"Feature"}
]
}
