{
"type": "FeatureCollection",
"features": [
	{"geometry":{"coordinates":[10.55036,52.324443],"type":"Point"},"properties":{"osm_id":"97028225","tag":{"amenity":"recycling","operator":"ALBA Braunschweig GmbH","recycling:cans":"no","recycling:clothes":"yes","recycling:glass":"yes","recycling:paper":"yes","recycling_type":"container"}},"type":"Feature"},
	{"geometry":{"coordinates":[10.557705,52.32265],"type":"Point"},"properties":{"osm_id":"97028262","tag":{"amenity":"recycling","operator":"ALBA Braunschweig GmbH","recycling:cans":"no","recycling:clothes":"yes","recycling:glass":"yes","recycling:paper":"yes","recycling:small_electrical_appliances":"yes","recycling_type":"container"}},"type":"Feature"},
	{"geometry":{"coordinates":[10.558356,52.354503],"type":"Point"},"properties":{"osm_id":"276609522","tag":{"amenity":"recycling","recycling:glass":"yes"}},"type":"Feature"},
	{"geometry":{"coordinates":[10.632791,52.369763],"type":"Point"},"properties":{"osm_id":"340363258","tag":{"amenity":"recycling","location":"overground","operator":"Toruntex GmbH Salzgitter","recycling:clothes":"yes","recycling_type":"container"}},"type":"Feature"},
	{"geometry":{"coordinates":[10.551554,52.324069],"type":"Point"},"properties":{"osm_id":"381905754","tag":{"amenity":"waste_basket"}},"type":"Feature"},
	{"geometry":{"coordinates":[10.57936,52.34411],"type":"Point"},"properties":{"osm_id":"655169810","tag":{"amenity":"recycling"}},"type":"Feature"},
	{"geometry":{"coordinates":[10.569887,52.35968],"type":"Point"},"properties":{"osm_id":"1165090656","tag":{"amenity":"waste_basket"}},"type":"Feature"},
	{"geometry":{"coordinates":[10.555044,52.325148],"type":"Point"},"properties":{"osm_id":"1841417919","tag":{"amenity":"waste_basket"}},"type":"Feature"},
	{"geometry":{"coordinates":[10.632805,52.36979],"type":"Point"},"properties":{"osm_id":"3156138830","tag":{"amenity":"recycling","recycling:glass_bottles":"yes","recycling_type":"container"}},"type":"Feature"},
	{"geometry":{"coordinates":[10.582667,52.341685],"type":"Point"},"properties":{"osm_id":"3413420735","tag":{"amenity":"recycling","operator":"ALBA Braunschweig GmbH","recycling:clothes":"yes","recycling:glass":"yes","recycling:paper":"yes","recycling_type":"container"}},"type":"Feature"},
	{"geometry":{"coordinates":[10.628664,52.372394],"type":"Point"},"properties":{"osm_id":"8330735400","tag":{"amenity":"waste_basket","waste":"trash"}},"type":"Feature"},
	{"geometry":{"coordinates":[10.631078,52.372505],"type":"Point"},"properties":{"osm_id":"8345312322","tag":{"amenity":"waste_basket","waste":"trash"}},"type":"Feature"},
	{"geometry":{"coordinates":[10.562083,52.331843],"type":"Point"},"properties":{"osm_id":"9127793239","tag":{"amenity":"waste_basket","waste":"trash"}},"type":"Feature"},
	{"geometry":{"coordinates":[10.564824,52.331613],"type":"Point"},"properties":{"osm_id":"9127793240","tag":{"amenity":"waste_basket","waste":"trash"}},"type":"Feature"}
]
}
