{
"type": "FeatureCollection",
"features": [
	{"geometry":{"coordinates":[10.598613,52.290704],"type":"Point"},"properties":{"osm_id":"60636126","tag":{"amenity":"recycling","recycling_type":"container"}},"type":"Feature"},
	{"geometry":{"coordinates":[10.584929,52.288099],"type":"Point"},"properties":{"osm_id":"60636129","tag":{"amenity":"recycling","recycling:clothes":"yes","recycling:glass_bottles":"yes","recycling:paper":"yes","recycling:shoes":"yes","recycling_type":"container"}},"type":"Feature"},
	{"geometry":{"coordinates":[10.559983,52.297282],"type":"Point"},"properties":{"osm_id":"68685441","tag":{"amenity":"recycling","recycling_type":"container"}},"type":"Feature"},
	{"geometry":{"coordinates":[10.580164,52.284572],"type":"Point"},"properties":{"osm_id":"76838023","tag":{"amenity":"recycling","recycling_type":"container"}},"type":"Feature"},
	{"geometry":{"coordinates":[10.609492,52.275881],"type":"Point"},"properties":{"osm_id":"135556665","tag":{"amenity":"recycling","recycling:cans":"no","recycling:clothes":"yes","recycling:glass":"yes","recycling:paper":"yes","recycling_type":"container"}},"type":"Feature"},
	{"geometry":{"coordinates":[10.612892,52.283052],"type":"Point"},"properties":{"osm_id":"135556887","tag":{"amenity":"recycling","recycling_type":"container"}},"type":"Feature"},
	{"geometry":{"coordinates":[10.594987,52.289964],"type":"Point"},"properties":{"osm_id":"246224197","tag":{"amenity":"recycling","recycling_type":"container"}},"type":"Feature"},
	{"geometry":{"coordinates":[10.564541,52.285213],"type":"Point"},"properties":{"osm_id":"246224203","tag":{"amenity":"recycling","recycling:clothes":"yes","recycling:glass_bottles":"yes","recycling:paper":"yes","recycling_type":"container"}},"type":"Feature"},
	{"geometry":{"coordinates":[10.612579,52.316859],"type":"Point"},"properties":{"osm_id":"247881167","tag":{"amenity":"recycling","recycling_type":"container"}},"type":"Feature"},
	{"geometry":{"coordinates":[10.60509,52.303517],"type":"Point"},"properties":{"osm_id":"248879492","tag":{"amenity":"recycling","operator":"ALBA Braunschweig GmbH","recycling:cans":"no","recycling:clothes":"yes","recycling:glass":"yes","recycling:paper":"yes","recycling_type":"container"}},"type":"Feature"},
	{"geometry":{"coordinates":[10.608312,52.30473],"type":"Point"},"properties":{"osm_id":"248879493","tag":{"amenity":"recycling","recycling_type":"container"}},"type":"Feature"},
	{"geometry":{"coordinates":[10.570259,52.303132],"type":"Point"},"properties":{"osm_id":"255200928","tag":{"amenity":"recycling","recycling_type":"container"}},"type":"Feature"},
	{"geometry":{"coordinates":[10.576717,52.269374],"type":"Point"},"properties":{"osm_id":"259102896","tag":{"amenity":"recycling","recycling:clothes":"yes","recycling:composites":"yes","recycling:glass":"yes","recycling:paper":"yes","recycling_type":"container"}},"type":"Feature"},
	{"geometry":{"coordinates":[10.568544,52.269638],"type":"Point"},"properties":{"osm_id":"267878385","tag":{"amenity":"recycling","recycling:clothes":"yes","recycling:glass_bottles":"yes","recycling_type":"container"}},"type":"Feature"},
	{"geometry":{"coordinates":[10.548098,52.269721],"type":"Point"},"properties":{"osm_id":"268980228","tag":{"amenity":"recycling","operator":"ALBA Braunschweig GmbH","recycling:cartons":"yes","recycling:clothes":"yes","recycling:glass_bottles":"yes","recycling:paper":"yes","recycling:small_electrical_appliances":"yes","recycling_type":"container"}},"type":"Feature"},
	{"geometry":{"coordinates":[10.62872,52.277188],"type":"Point"},"properties":{"osm_id":"269372798","tag":{"amenity":"recycling","recycling:clothes":"yes","recycling:glass":"yes","recycling:paper":"yes","recycling:shoes":"yes","recycling_type":"container"}},"type":"Feature"},
	{"geometry":{"coordinates":[10.558351,52.277147],"type":"Point"},"properties":{"osm_id":"276272652","tag":{"amenity":"recycling","operator":"ALBA Braunschweig GmbH","recycling:cans":"no","recycling:clothes":"yes","recycling:glass":"no","recycling:glass_bottles":"yes","recycling:paper":"yes","recycling_type":"container"}},"type":"Feature"},
	{"geometry":{"coordinates":[10.556236,52.292285],"type":"Point"},"properties":{"osm_id":"276274375","tag":{"amenity":"recycling","recycling:glass_bottles":"yes","recycling_type":"container"}},"type":"Feature"},
	{"geometry":{"coordinates":[10.560625,52.299969],"type":"Point"},"properties":{"osm_id":"276276205","tag":{"amenity":"recycling","recycling:glass_bottles":"yes","recycling_type":"container"}},"type":"Feature"},
	{"geometry":{"coordinates":[10.565187,52.28989],"type":"Point"},"properties":{"osm_id":"298101900","tag":{"amenity":"recycling","recycling:small_electrical_appliances":"yes","recycling_type":"container"}},"type":"Feature"},
	{"geometry":{"coordinates":[10.560079,52.279294],"type":"Point"},"properties":{"osm_id":"322960863","tag":{"amenity":"recycling","recycling:clothes":"yes","recycling:glass_bottles":"yes","recycling:paper":"yes","recycling:shoes":"no","recycling_type":"container"}},"type":"Feature"},
	{"geometry":{"coordinates":[10.549084,52.276705],"type":"Point"},"properties":{"osm_id":"370367586","tag":{"amenity":"recycling","location":"overground","recycling:clothes":"yes","recycling:glass_bottles":"yes","recycling:paper":"yes","recycling:plastic":"yes","recycling_type":"container"}},"type":"Feature"},
	{"geometry":{"coordinates":[10.552502,52.27773],"type":"Point"},"properties":{"osm_id":"545694227","tag":{"amenity":"recycling","operator":"ALBA Braunschweig GmbH","recycling:clothes":"yes","recycling:glass_bottles":"yes","recycling:paper":"yes","recycling_type":"container"}},"type":"Feature"},
	{"geometry":{"coordinates":[10.598433,52.311384],"type":"Point"},"properties":{"osm_id":"554348812","tag":{"amenity":"recycling","recycling:clothes":"yes","recycling:shoes":"yes"}},"type":"Feature"},
	{"geometry":{"coordinates":[10.600606,52.300021],"type":"Point"},"properties":{"osm_id":"554384028","tag":{"amenity":"recycling","recycling:clothes":"yes","recycling:shoes":"yes"}},"type":"Feature"},
	{"geometry":{"coordinates":[10.56864,52.300778],"type":"Point"},"properties":{"osm_id":"602229264","tag":{"amenity":"recycling","operator":"ALBA Braunschweig GmbH","recycling:cans":"no","recycling:clothes":"yes","recycling:glass":"yes","recycling:paper":"yes","recycling_type":"container"}},"type":"Feature"},
	{"geometry":{"coordinates":[10.570193,52.281385],"type":"Point"},"properties":{"osm_id":"660623716","tag":{"amenity":"recycling"}},"type":"Feature"},
	{"geometry":{"coordinates":[10.575944,52.282363],"type":"Point"},"properties":{"osm_id":"660633982","tag":{"amenity":"recycling","location":"overground","recycling_type":"container"}},"type":"Feature"},
	{"geometry":{"coordinates":[10.556382,52.290027],"type":"Point"},"properties":{"osm_id":"856785606","tag":{"amenity":"recycling","location":"overground","recycling:clothes":"yes","recycling:glass_bottles":"yes","recycling:paper":"yes","recycling_type":"container"}},"type":"Feature"},
	{"geometry":{"coordinates":[10.56449,52.281893],"type":"Point"},"properties":{"osm_id":"1129149193","tag":{"amenity":"recycling","recycling:clothes":"yes","recycling:glass_bottles":"yes","recycling:paper":"yes","recycling_type":"container"}},"type":"Feature"},
	{"geometry":{"coordinates":[10.567809,52.290282],"type":"Point"},"properties":{"osm_id":"1230164325","tag":{"amenity":"recycling","recycling_type":"container"}},"type":"Feature"},
	{"geometry":{"coordinates":[10.575584,52.305074],"type":"Point"},"properties":{"osm_id":"1631424525","tag":{"amenity":"recycling","recycling:cans":"yes","recycling:cartons":"yes","recycling:clothes":"yes","recycling:glass":"yes","recycling:glass_bottles":"yes","recycling:magazines":"yes","recycling:newspaper":"yes","recycling:paper":"yes","recycling:paper_packaging":"yes","recycling:plastic":"yes","recycling:plastic_bottles":"yes","recycling:plastic_packaging":"yes","recycling_type":"container"}},"type":"Feature"},
	{"geometry":{"coordinates":[10.558635,52.316507],"type":"Point"},"properties":{"osm_id":"1780638898","tag":{"amenity":"waste_basket"}},"type":"Feature"},
	{"geometry":{"coordinates":[10.555548,52.272552],"type":"Point"},"properties":{"osm_id":"1855702951","tag":{"amenity":"waste_basket"}},"type":"Feature"},
	{"geometry":{"coordinates":[10.552931,52.273787],"type":"Point"},"properties":{"osm_id":"1855702955","tag":{"amenity":"waste_basket"}},"type":"Feature"},
	{"geometry":{"coordinates":[10.551504,52.275613],"type":"Point"},"properties":{"osm_id":"1863274190","tag":{"amenity":"waste_basket"}},"type":"Feature"},
	{"geometry":{"coordinates":[10.551636,52.275876],"type":"Point"},"properties":{"osm_id":"1863274202","tag":{"amenity":"waste_basket"}},"type":"Feature"},
	{"geometry":{"coordinates":[10.551482,52.276141],"type":"Point"},"properties":{"osm_id":"1863274205","tag":{"amenity":"waste_basket"}},"type":"Feature"},
	{"geometry":{"coordinates":[10.548792,52.269232],"type":"Point"},"properties":{"osm_id":"2144688714","tag":{"access":"yes","amenity":"waste_basket","baby":"yes","leisure":"playground","playground":"slide","tourism":"picnic_site"}},"type":"Feature"},
	{"geometry":{"coordinates":[10.601361,52.315881],"type":"Point"},"properties":{"osm_id":"2184455960","tag":{"amenity":"recycling"}},"type":"Feature"},
	{"geometry":{"coordinates":[10.580323,52.290946],"type":"Point"},"properties":{"osm_id":"2508055829","tag":{"amenity":"waste_basket"}},"type":"Feature"},
	{"geometry":{"coordinates":[10.601303,52.287811],"type":"Point"},"properties":{"osm_id":"2656667189","tag":{"amenity":"recycling","recycling:cans":"no","recycling:clothes":"yes","recycling:glass":"yes","recycling:paper":"yes","recycling_type":"container"}},"type":"Feature"},
	{"geometry":{"coordinates":[10.599331,52.29104],"type":"Point"},"properties":{"osm_id":"2656670194","tag":{"amenity":"recycling","recycling:clothes":"yes","recycling:small_electrical_appliances":"yes","recycling_type":"container"}},"type":"Feature"},
	{"geometry":{"coordinates":[10.574271,52.277406],"type":"Point"},"properties":{"osm_id":"3351830232","tag":{"amenity":"recycling","operator":"ALBA Braunschweig GmbH","recycling:clothes":"yes","recycling:glass":"yes","recycling:paper":"yes","recycling_type":"container"}},"type":"Feature"},
	{"geometry":{"coordinates":[10.607608,52.315435],"type":"Point"},"properties":{"osm_id":"3367111382","tag":{"amenity":"recycling","operator":"ALBA Braunschweig GmbH","recycling:clothes":"yes","recycling:glass":"yes","recycling:paper":"yes","recycling_type":"container"}},"type":"Feature"},
	{"geometry":{"coordinates":[10.589491,52.290598],"type":"Point"},"properties":{"osm_id":"6232935739","tag":{"amenity":"waste_basket"}},"type":"Feature"},
	{"geometry":{"coordinates":[10.553427,52.287394],"type":"Point"},"properties":{"osm_id":"6343930805","tag":{"amenity":"recycling","recycling_type":"container"}},"type":"Feature"},
	{"geometry":{"coordinates":[10.5606,52.315852],"type":"Point"},"properties":{"osm_id":"6381206723","tag":{"amenity":"recycling","operator":"Deutsches Zentrum f\u00c3\u00bcr Luft- und Raumfahrt e.V. (DLR)","recycling:batteries":"yes","recycling:car_batteries":"no","recycling_type":"container"}},"type":"Feature"},
	{"geometry":{"coordinates":[10.554886,52.272728],"type":"Point"},"properties":{"osm_id":"6566143861","tag":{"amenity":"waste_basket"}},"type":"Feature"},
	{"geometry":{"coordinates":[10.553327,52.269358],"type":"Point"},"properties":{"osm_id":"6653478739","tag":{"amenity":"waste_basket","colour":"green","material":"steel","operator":"Stadt Braunschweig"}},"type":"Feature"},
	{"geometry":{"coordinates":[10.572004,52.270348],"type":"Point"},"properties":{"osm_id":"6881398488","tag":{"amenity":"waste_basket"}},"type":"Feature"},
	{"geometry":{"coordinates":[10.575184,52.269969],"type":"Point"},"properties":{"osm_id":"6881426285","tag":{"amenity":"waste_basket"}},"type":"Feature"},
	{"geometry":{"coordinates":[10.575981,52.269854],"type":"Point"},"properties":{"osm_id":"6882050430","tag":{"amenity":"waste_basket"}},"type":"Feature"},
	{"geometry":{"coordinates":[10.581244,52.279887],"type":"Point"},"properties":{"osm_id":"6882206515","tag":{"amenity":"waste_basket","wheelchair":"limited"}},"type":"Feature"},
	{"geometry":{"coordinates":[10.575295,52.274444],"type":"Point"},"properties":{"osm_id":"6917916580","tag":{"amenity":"waste_basket"}},"type":"Feature"},
	{"geometry":{"coordinates":[10.574838,52.276597],"type":"Point"},"properties":{"osm_id":"6917929708","tag":{"amenity":"waste_basket"}},"type":"Feature"},
	{"geometry":{"coordinates":[10.553036,52.268491],"type":"Point"},"properties":{"osm_id":"6942777573","tag":{"amenity":"waste_basket"}},"type":"Feature"},
	{"geometry":{"coordinates":[10.552998,52.272592],"type":"Point"},"properties":{"osm_id":"6942878463","tag":{"amenity":"waste_basket"}},"type":"Feature"},
	{"geometry":{"coordinates":[10.553816,52.271808],"type":"Point"},"properties":{"osm_id":"6942912797","tag":{"amenity":"waste_basket"}},"type":"Feature"},
	{"geometry":{"coordinates":[10.555884,52.270817],"type":"Point"},"properties":{"osm_id":"6942928442","tag":{"amenity":"waste_basket"}},"type":"Feature"},
	{"geometry":{"coordinates":[10.556367,52.270453],"type":"Point"},"properties":{"osm_id":"6942950696","tag":{"amenity":"waste_basket"}},"type":"Feature"},
	{"geometry":{"coordinates":[10.55482,52.26959],"type":"Point"},"properties":{"osm_id":"6942964407","tag":{"amenity":"waste_basket"}},"type":"Feature"},
	{"geometry":{"coordinates":[10.548762,52.268158],"type":"Point"},"properties":{"osm_id":"6945277780","tag":{"amenity":"waste_basket"}},"type":"Feature"},
	{"geometry":{"coordinates":[10.554918,52.268848],"type":"Point"},"properties":{"osm_id":"6948560669","tag":{"amenity":"waste_basket"}},"type":"Feature"},
	{"geometry":{"coordinates":[10.576413,52.30271],"type":"Point"},"properties":{"osm_id":"7042209390","tag":{"amenity":"waste_basket","material":"metal","waste":"trash"}},"type":"Feature"}
]
}
