{
"type": "FeatureCollection",
"features": [
	{"geometry":{"coordinates":[10.550776,52.265388],"type":"Point"},"properties":{"osm_id":"258003694","tag":{"amenity":"recycling","recycling_type":"container"}},"type":"Feature"},
	{"geometry":{"coordinates":[10.63374,52.214662],"type":"Point"},"properties":{"osm_id":"258899564","tag":{"amenity":"recycling","recycling:clothes":"yes","recycling_type":"container"}},"type":"Feature"},
	{"geometry":{"coordinates":[10.613696,52.251279],"type":"Point"},"properties":{"osm_id":"259249630","tag":{"amenity":"recycling","recycling:clothes":"yes","recycling:glass_bottles":"yes","recycling:paper":"yes","recycling_type":"container"}},"type":"Feature"},
	{"geometry":{"coordinates":[10.618088,52.223598],"type":"Point"},"properties":{"osm_id":"263916663","tag":{"amenity":"recycling","recycling:glass":"yes","recycling:paper":"yes","recycling_type":"container"}},"type":"Feature"},
	{"geometry":{"coordinates":[10.582463,52.236937],"type":"Point"},"properties":{"osm_id":"267345643","tag":{"amenity":"recycling","recycling:composites":"yes","recycling:glass_bottles":"yes","recycling:paper":"yes","recycling:plastic":"yes","recycling:scrap_metal":"yes","recycling_type":"container"}},"type":"Feature"},
	{"geometry":{"coordinates":[10.558481,52.231213],"type":"Point"},"properties":{"osm_id":"270483808","tag":{"amenity":"recycling","operator":"ALBA Braunschweig GmbH","recycling:cans":"no","recycling:clothes":"yes","recycling:glass":"yes","recycling:paper":"yes","recycling_type":"container"}},"type":"Feature"},
	{"geometry":{"coordinates":[10.548199,52.255376],"type":"Point"},"properties":{"osm_id":"271034913","tag":{"amenity":"recycling","recycling:glass_bottles":"yes","recycling_type":"container"}},"type":"Feature"},
	{"geometry":{"coordinates":[10.550204,52.260141],"type":"Point"},"properties":{"osm_id":"274387939","tag":{"amenity":"recycling","recycling:glass_bottles":"yes","recycling:paper":"yes","recycling_type":"container"}},"type":"Feature"},
	{"geometry":{"coordinates":[10.551972,52.233012],"type":"Point"},"properties":{"osm_id":"311796174","tag":{"amenity":"recycling","location":"overground","recycling:small_electrical_appliances":"yes","recycling_type":"container"}},"type":"Feature"},
	{"geometry":{"coordinates":[10.549241,52.261271],"type":"Point"},"properties":{"osm_id":"320958665","tag":{"amenity":"recycling","recycling:glass":"yes"}},"type":"Feature"},
	{"geometry":{"coordinates":[10.563261,52.236145],"type":"Point"},"properties":{"osm_id":"327042822","tag":{"amenity":"recycling","location":"overground","recycling:clothes":"yes","recycling:glass_bottles":"yes","recycling:paper":"yes","recycling_type":"container"}},"type":"Feature"},
	{"geometry":{"coordinates":[10.561928,52.233885],"type":"Point"},"properties":{"osm_id":"327045574","tag":{"amenity":"recycling","operator":"ALBA Braunschweig GmbH","recycling:cans":"no","recycling:clothes":"no","recycling:glass":"no","recycling:glass_bottles":"yes","recycling:paper":"yes","recycling_type":"container"}},"type":"Feature"},
	{"geometry":{"coordinates":[10.552818,52.262922],"type":"Point"},"properties":{"osm_id":"370503579","tag":{"amenity":"recycling","opening_hours":"24/7","recycling:batteries":"no","recycling:cans":"yes","recycling:cardboard":"yes","recycling:electrical_appliances":"no","recycling:glass":"yes","recycling:glass_bottles":"yes","recycling:green_waste":"no","recycling:paper":"yes","recycling:plastic":"yes","recycling:plastic_bottles":"yes","recycling:plastic_packaging":"yes","recycling:scrap_metal":"no","recycling:small_electrical_appliances":"yes","recycling_type":"container","wheelchair":"yes"}},"type":"Feature"},
	{"geometry":{"coordinates":[10.555831,52.230445],"type":"Point"},"properties":{"osm_id":"388170416","tag":{"amenity":"recycling","location":"overground","recycling_type":"container"}},"type":"Feature"},
	{"geometry":{"coordinates":[10.573638,52.227131],"type":"Point"},"properties":{"osm_id":"590795122","tag":{"amenity":"recycling","opening_hours":"Mo-Sa 09:00-19:00; PH closed","recycling:cardboard":"yes","recycling:glass":"yes","recycling:glass_bottles":"yes","recycling:paper":"yes","recycling_type":"container"}},"type":"Feature"},
	{"geometry":{"coordinates":[10.551267,52.254645],"type":"Point"},"properties":{"osm_id":"596454677","tag":{"amenity":"recycling","location":"overground","recycling:clothes":"yes","recycling:shoes":"yes","recycling_type":"container"}},"type":"Feature"},
	{"geometry":{"coordinates":[10.576976,52.234128],"type":"Point"},"properties":{"osm_id":"616996784","tag":{"amenity":"recycling","operator":"ALBA Braunschweig GmbH","recycling:cans":"no","recycling:clothes":"yes","recycling:composites":"yes","recycling:glass":"yes","recycling:glass_bottles":"yes","recycling:paper":"yes","recycling:plastic":"no","recycling:scrap_metal":"yes","recycling_type":"container"}},"type":"Feature"},
	{"geometry":{"coordinates":[10.581992,52.239756],"type":"Point"},"properties":{"osm_id":"617008471","tag":{"amenity":"recycling","location":"overground","recycling:composites":"yes","recycling:glass":"yes","recycling:glass_bottles":"yes","recycling:paper":"yes","recycling:plastic":"yes","recycling:scrap_metal":"yes","recycling_type":"container"}},"type":"Feature"},
	{"geometry":{"coordinates":[10.568949,52.218004],"type":"Point"},"properties":{"osm_id":"705480204","tag":{"amenity":"recycling","recycling:glass":"yes","recycling:paper":"yes","recycling:plastic":"yes"}},"type":"Feature"},
	{"geometry":{"coordinates":[10.564803,52.222075],"type":"Point"},"properties":{"osm_id":"1196546098","tag":{"amenity":"recycling"}},"type":"Feature"},
	{"geometry":{"coordinates":[10.558868,52.255268],"type":"Point"},"properties":{"osm_id":"1415939831","tag":{"amenity":"waste_basket"}},"type":"Feature"},
	{"geometry":{"coordinates":[10.559775,52.255291],"type":"Point"},"properties":{"osm_id":"1415939832","tag":{"amenity":"waste_basket"}},"type":"Feature"},
	{"geometry":{"coordinates":[10.556668,52.255516],"type":"Point"},"properties":{"osm_id":"1415939840","tag":{"amenity":"waste_basket"}},"type":"Feature"},
	{"geometry":{"coordinates":[10.557837,52.255571],"type":"Point"},"properties":{"osm_id":"1415939847","tag":{"amenity":"waste_basket"}},"type":"Feature"},
	{"geometry":{"coordinates":[10.553784,52.255647],"type":"Point"},"properties":{"osm_id":"1415939849","tag":{"amenity":"waste_basket"}},"type":"Feature"},
	{"geometry":{"coordinates":[10.556491,52.255677],"type":"Point"},"properties":{"osm_id":"1415939857","tag":{"amenity":"waste_basket"}},"type":"Feature"},
	{"geometry":{"coordinates":[10.556758,52.255698],"type":"Point"},"properties":{"osm_id":"1415939861","tag":{"amenity":"waste_basket"}},"type":"Feature"},
	{"geometry":{"coordinates":[10.552716,52.255673],"type":"Point"},"properties":{"osm_id":"1415939864","tag":{"amenity":"waste_basket"}},"type":"Feature"},
	{"geometry":{"coordinates":[10.560366,52.255719],"type":"Point"},"properties":{"osm_id":"1415939866","tag":{"amenity":"waste_basket"}},"type":"Feature"},
	{"geometry":{"coordinates":[10.55515,52.255758],"type":"Point"},"properties":{"osm_id":"1415939878","tag":{"amenity":"waste_basket"}},"type":"Feature"},
	{"geometry":{"coordinates":[10.556231,52.255753],"type":"Point"},"properties":{"osm_id":"1415939891","tag":{"amenity":"waste_basket"}},"type":"Feature"},
	{"geometry":{"coordinates":[10.559719,52.255881],"type":"Point"},"properties":{"osm_id":"1415939901","tag":{"amenity":"waste_basket"}},"type":"Feature"},
	{"geometry":{"coordinates":[10.558803,52.255865],"type":"Point"},"properties":{"osm_id":"1415939908","tag":{"amenity":"waste_basket"}},"type":"Feature"},
	{"geometry":{"coordinates":[10.556594,52.255869],"type":"Point"},"properties":{"osm_id":"1415939909","tag":{"amenity":"waste_basket"}},"type":"Feature"},
	{"geometry":{"coordinates":[10.553265,52.255928],"type":"Point"},"properties":{"osm_id":"1415939914","tag":{"amenity":"waste_basket"}},"type":"Feature"},
	{"geometry":{"coordinates":[10.557267,52.256001],"type":"Point"},"properties":{"osm_id":"1415939923","tag":{"amenity":"waste_basket"}},"type":"Feature"},
	{"geometry":{"coordinates":[10.552181,52.256054],"type":"Point"},"properties":{"osm_id":"1415939929","tag":{"amenity":"waste_basket"}},"type":"Feature"},
	{"geometry":{"coordinates":[10.554449,52.256088],"type":"Point"},"properties":{"osm_id":"1415939932","tag":{"amenity":"waste_basket"}},"type":"Feature"},
	{"geometry":{"coordinates":[10.558183,52.25632],"type":"Point"},"properties":{"osm_id":"1415939944","tag":{"amenity":"waste_basket"}},"type":"Feature"},
	{"geometry":{"coordinates":[10.557382,52.256362],"type":"Point"},"properties":{"osm_id":"1415939946","tag":{"amenity":"waste_basket"}},"type":"Feature"},
	{"geometry":{"coordinates":[10.555887,52.256426],"type":"Point"},"properties":{"osm_id":"1415939953","tag":{"amenity":"waste_basket"}},"type":"Feature"},
	{"geometry":{"coordinates":[10.554639,52.256479],"type":"Point"},"properties":{"osm_id":"1415939958","tag":{"amenity":"waste_basket"}},"type":"Feature"},
	{"geometry":{"coordinates":[10.553215,52.256531],"type":"Point"},"properties":{"osm_id":"1415939960","tag":{"amenity":"waste_basket"}},"type":"Feature"},
	{"geometry":{"coordinates":[10.552113,52.256593],"type":"Point"},"properties":{"osm_id":"1415939963","tag":{"amenity":"waste_basket"}},"type":"Feature"},
	{"geometry":{"coordinates":[10.556623,52.256703],"type":"Point"},"properties":{"osm_id":"1415939967","tag":{"amenity":"waste_basket"}},"type":"Feature"},
	{"geometry":{"coordinates":[10.557447,52.256864],"type":"Point"},"properties":{"osm_id":"1415939971","tag":{"amenity":"waste_basket"}},"type":"Feature"},
	{"geometry":{"coordinates":[10.558099,52.256884],"type":"Point"},"properties":{"osm_id":"1415939975","tag":{"amenity":"waste_basket"}},"type":"Feature"},
	{"geometry":{"coordinates":[10.552542,52.256865],"type":"Point"},"properties":{"osm_id":"1415939976","tag":{"amenity":"waste_basket"}},"type":"Feature"},
	{"geometry":{"coordinates":[10.555156,52.256964],"type":"Point"},"properties":{"osm_id":"1415939985","tag":{"amenity":"waste_basket"}},"type":"Feature"},
	{"geometry":{"coordinates":[10.553909,52.256989],"type":"Point"},"properties":{"osm_id":"1415939987","tag":{"amenity":"waste_basket"}},"type":"Feature"},
	{"geometry":{"coordinates":[10.554252,52.257219],"type":"Point"},"properties":{"osm_id":"1415939991","tag":{"amenity":"waste_basket"}},"type":"Feature"},
	{"geometry":{"coordinates":[10.553316,52.257349],"type":"Point"},"properties":{"osm_id":"1415939996","tag":{"amenity":"waste_basket"}},"type":"Feature"},
	{"geometry":{"coordinates":[10.5523,52.257468],"type":"Point"},"properties":{"osm_id":"1415939999","tag":{"amenity":"waste_basket"}},"type":"Feature"},
	{"geometry":{"coordinates":[10.554536,52.257515],"type":"Point"},"properties":{"osm_id":"1415940002","tag":{"amenity":"waste_basket"}},"type":"Feature"},
	{"geometry":{"coordinates":[10.55767,52.257573],"type":"Point"},"properties":{"osm_id":"1415940004","tag":{"amenity":"waste_basket"}},"type":"Feature"},
	{"geometry":{"coordinates":[10.556871,52.257598],"type":"Point"},"properties":{"osm_id":"1415940006","tag":{"amenity":"waste_basket"}},"type":"Feature"},
	{"geometry":{"coordinates":[10.552476,52.257717],"type":"Point"},"properties":{"osm_id":"1415940012","tag":{"amenity":"waste_basket"}},"type":"Feature"},
	{"geometry":{"coordinates":[10.554951,52.257783],"type":"Point"},"properties":{"osm_id":"1415940014","tag":{"amenity":"waste_basket"}},"type":"Feature"},
	{"geometry":{"coordinates":[10.553984,52.257851],"type":"Point"},"properties":{"osm_id":"1415940016","tag":{"amenity":"waste_basket"}},"type":"Feature"},
	{"geometry":{"coordinates":[10.553949,52.257985],"type":"Point"},"properties":{"osm_id":"1415940022","tag":{"amenity":"waste_basket"}},"type":"Feature"},
	{"geometry":{"coordinates":[10.554587,52.258237],"type":"Point"},"properties":{"osm_id":"1415940030","tag":{"amenity":"waste_basket"}},"type":"Feature"},
	{"geometry":{"coordinates":[10.556535,52.258274],"type":"Point"},"properties":{"osm_id":"1415940034","tag":{"amenity":"waste_basket"}},"type":"Feature"},
	{"geometry":{"coordinates":[10.554235,52.258475],"type":"Point"},"properties":{"osm_id":"1415940039","tag":{"amenity":"waste_basket"}},"type":"Feature"},
	{"geometry":{"coordinates":[10.556016,52.258676],"type":"Point"},"properties":{"osm_id":"1415940040","tag":{"amenity":"waste_basket"}},"type":"Feature"},
	{"geometry":{"coordinates":[10.55507,52.259047],"type":"Point"},"properties":{"osm_id":"1415940048","tag":{"amenity":"waste_basket"}},"type":"Feature"},
	{"geometry":{"coordinates":[10.555977,52.259048],"type":"Point"},"properties":{"osm_id":"1415940049","tag":{"amenity":"waste_basket"}},"type":"Feature"},
	{"geometry":{"coordinates":[10.572245,52.229064],"type":"Point"},"properties":{"osm_id":"1667942299","tag":{"amenity":"recycling","recycling:cans":"yes","recycling:clothes":"yes","recycling:glass":"yes","recycling:paper":"yes","recycling_type":"container"}},"type":"Feature"},
	{"geometry":{"coordinates":[10.584704,52.240226],"type":"Point"},"properties":{"osm_id":"1678958356","tag":{"amenity":"waste_basket"}},"type":"Feature"},
	{"geometry":{"coordinates":[10.550337,52.226944],"type":"Point"},"properties":{"osm_id":"1711481189","tag":{"amenity":"waste_basket"}},"type":"Feature"},
	{"geometry":{"coordinates":[10.56213,52.245515],"type":"Point"},"properties":{"osm_id":"1757215838","tag":{"amenity":"recycling","recycling:clothes":"yes","recycling:glass":"no","recycling:glass_bottles":"yes","recycling:paper":"yes","recycling:small_electrical_appliances":"yes","recycling_type":"container"}},"type":"Feature"},
	{"geometry":{"coordinates":[10.587147,52.23937],"type":"Point"},"properties":{"osm_id":"1798399351","tag":{"amenity":"recycling","location":"overground","recycling:glass":"yes","recycling:paper":"yes","recycling:small_electrical_appliances":"yes","recycling_type":"container"}},"type":"Feature"},
	{"geometry":{"coordinates":[10.574543,52.243541],"type":"Point"},"properties":{"osm_id":"1798969902","tag":{"amenity":"waste_basket"}},"type":"Feature"},
	{"geometry":{"coordinates":[10.579156,52.242564],"type":"Point"},"properties":{"osm_id":"2852471466","tag":{"amenity":"recycling","recycling:cans":"no","recycling:cardboard":"yes","recycling:clothes":"yes","recycling:glass":"yes","recycling:paper":"yes","recycling_type":"container"}},"type":"Feature"},
	{"geometry":{"coordinates":[10.581786,52.241991],"type":"Point"},"properties":{"osm_id":"3273204237","tag":{"amenity":"recycling","recycling:glass":"yes","recycling:paper":"yes","recycling_type":"centre"}},"type":"Feature"},
	{"geometry":{"coordinates":[10.604165,52.223135],"type":"Point"},"properties":{"osm_id":"3276995646","tag":{"amenity":"waste_basket"}},"type":"Feature"},
	{"geometry":{"coordinates":[10.563033,52.254628],"type":"Point"},"properties":{"osm_id":"3323612918","tag":{"amenity":"recycling","operator":"ALBA Braunschweig GmbH","recycling:batteries":"no","recycling:books":"no","recycling:cans":"no","recycling:cardboard":"yes","recycling:cartons":"yes","recycling:clothes":"yes","recycling:electrical_appliances":"no","recycling:glass":"yes","recycling:glass_bottles":"yes","recycling:green_waste":"no","recycling:magazines":"yes","recycling:newspaper":"yes","recycling:paper":"yes","recycling:paper_packaging":"yes","recycling:plastic":"yes","recycling:plastic_bottles":"yes","recycling:plastic_packaging":"yes","recycling_type":"container"}},"type":"Feature"},
	{"geometry":{"coordinates":[10.554342,52.255124],"type":"Point"},"properties":{"osm_id":"3347025115","tag":{"amenity":"recycling","operator":"ALBA Braunschweig GmbH","recycling:cans":"no","recycling:clothes":"yes","recycling:glass":"yes","recycling:paper":"yes","recycling_type":"container"}},"type":"Feature"},
	{"geometry":{"coordinates":[10.58662,52.262127],"type":"Point"},"properties":{"osm_id":"3491344894","tag":{"amenity":"waste_basket"}},"type":"Feature"},
	{"geometry":{"coordinates":[10.586408,52.262783],"type":"Point"},"properties":{"osm_id":"3491344895","tag":{"amenity":"waste_basket","operator":"Stadt Braunschweig"}},"type":"Feature"},
	{"geometry":{"coordinates":[10.56333,52.224816],"type":"Point"},"properties":{"osm_id":"3599079688","tag":{"amenity":"recycling","recycling:clothes":"yes","recycling:glass":"yes","recycling:paper":"yes","recycling:shoes":"yes","recycling:small_electrical_appliances":"yes","recycling_type":"container"}},"type":"Feature"},
	{"geometry":{"coordinates":[10.6185,52.215354],"type":"Point"},"properties":{"osm_id":"3614518659","tag":{"amenity":"waste_basket"}},"type":"Feature"},
	{"geometry":{"coordinates":[10.620815,52.214443],"type":"Point"},"properties":{"osm_id":"3614518660","tag":{"amenity":"waste_basket"}},"type":"Feature"},
	{"geometry":{"coordinates":[10.550002,52.226129],"type":"Point"},"properties":{"osm_id":"5137964976","tag":{"amenity":"waste_basket"}},"type":"Feature"},
	{"geometry":{"coordinates":[10.550814,52.266198],"type":"Point"},"properties":{"osm_id":"6653467573","tag":{"amenity":"waste_basket","colour":"green","material":"steel","operator":"Stadt Braunschweig"}},"type":"Feature"},
	{"geometry":{"coordinates":[10.553832,52.26249],"type":"Point"},"properties":{"osm_id":"6672474005","tag":{"amenity":"waste_basket","colour":"green","material":"steel","operator":"Stadt Braunschweig"}},"type":"Feature"},
	{"geometry":{"coordinates":[10.554258,52.262442],"type":"Point"},"properties":{"osm_id":"6672474006","tag":{"amenity":"waste_basket","colour":"green","material":"steel"}},"type":"Feature"},
	{"geometry":{"coordinates":[10.553903,52.262341],"type":"Point"},"properties":{"osm_id":"6672474007","tag":{"amenity":"waste_basket","colour":"green","material":"steel"}},"type":"Feature"},
	{"geometry":{"coordinates":[10.553984,52.262579],"type":"Point"},"properties":{"osm_id":"6672474008","tag":{"amenity":"waste_basket","colour":"green","material":"steel"}},"type":"Feature"},
	{"geometry":{"coordinates":[10.577355,52.265766],"type":"Point"},"properties":{"osm_id":"6881585198","tag":{"amenity":"waste_basket","operator":"Stadt Braunschweig"}},"type":"Feature"},
	{"geometry":{"coordinates":[10.554503,52.26198],"type":"Point"},"properties":{"osm_id":"6905713115","tag":{"amenity":"waste_basket","wheelchair":"yes"}},"type":"Feature"},
	{"geometry":{"coordinates":[10.557278,52.263917],"type":"Point"},"properties":{"osm_id":"6908389068","tag":{"amenity":"waste_basket"}},"type":"Feature"},
	{"geometry":{"coordinates":[10.555861,52.262953],"type":"Point"},"properties":{"osm_id":"6908411911","tag":{"amenity":"waste_basket"}},"type":"Feature"},
	{"geometry":{"coordinates":[10.557384,52.264281],"type":"Point"},"properties":{"osm_id":"6908415042","tag":{"amenity":"waste_basket"}},"type":"Feature"},
	{"geometry":{"coordinates":[10.555565,52.262873],"type":"Point"},"properties":{"osm_id":"6908423282","tag":{"amenity":"waste_basket","wheelchair":"yes"}},"type":"Feature"},
	{"geometry":{"coordinates":[10.556621,52.263369],"type":"Point"},"properties":{"osm_id":"6908438061","tag":{"amenity":"waste_basket"}},"type":"Feature"},
	{"geometry":{"coordinates":[10.557396,52.264385],"type":"Point"},"properties":{"osm_id":"6908458999","tag":{"amenity":"waste_basket"}},"type":"Feature"},
	{"geometry":{"coordinates":[10.557388,52.264517],"type":"Point"},"properties":{"osm_id":"6908460220","tag":{"amenity":"waste_basket"}},"type":"Feature"},
	{"geometry":{"coordinates":[10.56073,52.265809],"type":"Point"},"properties":{"osm_id":"6908520464","tag":{"amenity":"waste_basket"}},"type":"Feature"},
	{"geometry":{"coordinates":[10.560158,52.264696],"type":"Point"},"properties":{"osm_id":"6908547364","tag":{"amenity":"waste_basket"}},"type":"Feature"},
	{"geometry":{"coordinates":[10.559073,52.264422],"type":"Point"},"properties":{"osm_id":"6908551119","tag":{"amenity":"waste_basket"}},"type":"Feature"},
	{"geometry":{"coordinates":[10.558007,52.26415],"type":"Point"},"properties":{"osm_id":"6908573346","tag":{"amenity":"waste_basket"}},"type":"Feature"},
	{"geometry":{"coordinates":[10.55591,52.262028],"type":"Point"},"properties":{"osm_id":"6908576900","tag":{"amenity":"waste_basket"}},"type":"Feature"},
	{"geometry":{"coordinates":[10.558666,52.262795],"type":"Point"},"properties":{"osm_id":"6908589866","tag":{"amenity":"waste_basket"}},"type":"Feature"},
	{"geometry":{"coordinates":[10.559508,52.263015],"type":"Point"},"properties":{"osm_id":"6908599211","tag":{"amenity":"waste_basket"}},"type":"Feature"},
	{"geometry":{"coordinates":[10.560222,52.263206],"type":"Point"},"properties":{"osm_id":"6908599558","tag":{"amenity":"waste_basket"}},"type":"Feature"},
	{"geometry":{"coordinates":[10.557873,52.262584],"type":"Point"},"properties":{"osm_id":"6908634530","tag":{"amenity":"waste_basket"}},"type":"Feature"},
	{"geometry":{"coordinates":[10.556839,52.262291],"type":"Point"},"properties":{"osm_id":"6908634596","tag":{"amenity":"waste_basket"}},"type":"Feature"},
	{"geometry":{"coordinates":[10.55482,52.261735],"type":"Point"},"properties":{"osm_id":"6908647143","tag":{"amenity":"waste_basket"}},"type":"Feature"},
	{"geometry":{"coordinates":[10.55644,52.262365],"type":"Point"},"properties":{"osm_id":"6908651591","tag":{"amenity":"waste_basket"}},"type":"Feature"},
	{"geometry":{"coordinates":[10.552396,52.264615],"type":"Point"},"properties":{"osm_id":"6917896855","tag":{"amenity":"waste_basket"}},"type":"Feature"},
	{"geometry":{"coordinates":[10.562184,52.265083],"type":"Point"},"properties":{"osm_id":"6920019436","tag":{"amenity":"waste_basket"}},"type":"Feature"},
	{"geometry":{"coordinates":[10.55311,52.26431],"type":"Point"},"properties":{"osm_id":"6926922161","tag":{"amenity":"waste_basket"}},"type":"Feature"},
	{"geometry":{"coordinates":[10.552152,52.267877],"type":"Point"},"properties":{"osm_id":"6942768892","tag":{"amenity":"waste_basket"}},"type":"Feature"},
	{"geometry":{"coordinates":[10.551862,52.267821],"type":"Point"},"properties":{"osm_id":"6942772390","tag":{"amenity":"waste_basket"}},"type":"Feature"},
	{"geometry":{"coordinates":[10.553538,52.265327],"type":"Point"},"properties":{"osm_id":"6954102675","tag":{"amenity":"waste_basket"}},"type":"Feature"},
	{"geometry":{"coordinates":[10.55617,52.267234],"type":"Point"},"properties":{"osm_id":"6954259949","tag":{"amenity":"waste_basket"}},"type":"Feature"},
	{"geometry":{"coordinates":[10.569412,52.247083],"type":"Point"},"properties":{"osm_id":"7124231869","tag":{"amenity":"waste_basket"}},"type":"Feature"},
	{"geometry":{"coordinates":[10.568996,52.247058],"type":"Point"},"properties":{"osm_id":"7124231873","tag":{"amenity":"waste_basket"}},"type":"Feature"},
	{"geometry":{"coordinates":[10.569046,52.246688],"type":"Point"},"properties":{"osm_id":"7124274689","tag":{"amenity":"waste_basket"}},"type":"Feature"},
	{"geometry":{"coordinates":[10.569041,52.246604],"type":"Point"},"properties":{"osm_id":"7124274690","tag":{"amenity":"waste_basket"}},"type":"Feature"},
	{"geometry":{"coordinates":[10.571972,52.246238],"type":"Point"},"properties":{"osm_id":"7312429623","tag":{"amenity":"recycling","recycling:clothes":"yes","recycling:glass":"yes","recycling:paper":"yes","recycling_type":"container"}},"type":"Feature"},
	{"geometry":{"coordinates":[10.560993,52.245315],"type":"Point"},"properties":{"osm_id":"7340945916","tag":{"amenity":"waste_basket"}},"type":"Feature"}
]
}
