{
"type": "FeatureCollection",
"features": [
	{"geometry":{"coordinates":[10.556722,51.867199],"type":"Point"},"properties":{"osm_id":"1393922295","tag":{"amenity":"recycling","recycling:glass_bottles":"yes","recycling_type":"container"}},"type":"Feature"},
	{"geometry":{"coordinates":[10.58485,51.883525],"type":"Point"},"properties":{"osm_id":"1449539620","tag":{"amenity":"recycling","recycling_type":"container"}},"type":"Feature"},
	{"geometry":{"coordinates":[10.576237,51.883289],"type":"Point"},"properties":{"osm_id":"1449539621","tag":{"amenity":"recycling","recycling:glass_bottles":"yes","recycling:paper":"yes","recycling_type":"container"}},"type":"Feature"},
	{"geometry":{"coordinates":[10.55776,51.878777],"type":"Point"},"properties":{"osm_id":"1449541065","tag":{"amenity":"recycling","recycling:gas_bottles":"yes","recycling_type":"container"}},"type":"Feature"},
	{"geometry":{"coordinates":[10.567487,51.871016],"type":"Point"},"properties":{"osm_id":"1853181811","tag":{"amenity":"waste_basket"}},"type":"Feature"},
	{"geometry":{"coordinates":[10.552456,51.880701],"type":"Point"},"properties":{"osm_id":"1964244730","tag":{"amenity":"recycling","recycling:clothes":"yes","recycling:glass_bottles":"yes","recycling:paper":"yes","recycling_type":"container"}},"type":"Feature"},
	{"geometry":{"coordinates":[10.548918,51.88195],"type":"Point"},"properties":{"osm_id":"1964244769","tag":{"amenity":"waste_basket"}},"type":"Feature"},
	{"geometry":{"coordinates":[10.583707,51.842852],"type":"Point"},"properties":{"osm_id":"2351516742","tag":{"amenity":"waste_basket"}},"type":"Feature"},
	{"geometry":{"coordinates":[10.577033,51.881676],"type":"Point"},"properties":{"osm_id":"2418109161","tag":{"amenity":"recycling","recycling:glass_bottles":"yes","recycling:paper":"yes","recycling_type":"container"}},"type":"Feature"},
	{"geometry":{"coordinates":[10.558522,51.86906],"type":"Point"},"properties":{"osm_id":"2498112513","tag":{"amenity":"waste_disposal"}},"type":"Feature"},
	{"geometry":{"coordinates":[10.557508,51.885054],"type":"Point"},"properties":{"osm_id":"3122573449","tag":{"amenity":"waste_basket"}},"type":"Feature"},
	{"geometry":{"coordinates":[10.557491,51.885141],"type":"Point"},"properties":{"osm_id":"3122573451","tag":{"amenity":"waste_basket"}},"type":"Feature"},
	{"geometry":{"coordinates":[10.564984,51.879977],"type":"Point"},"properties":{"osm_id":"3155940010","tag":{"amenity":"recycling","operator":"Deutsches Rotes Kreuz","recycling:clothes":"yes","recycling_type":"container"}},"type":"Feature"},
	{"geometry":{"coordinates":[10.556715,51.867173],"type":"Point"},"properties":{"osm_id":"4081086347","tag":{"amenity":"recycling","recycling:paper":"yes","recycling_type":"container"}},"type":"Feature"},
	{"geometry":{"coordinates":[10.558352,51.872931],"type":"Point"},"properties":{"osm_id":"4214022648","tag":{"amenity":"recycling","operator":"Kreiswirtschaftsbetriebe Goslar","recycling:paper":"yes","recycling_type":"container"}},"type":"Feature"},
	{"geometry":{"coordinates":[10.549699,51.889213],"type":"Point"},"properties":{"osm_id":"4334289054","tag":{"amenity":"recycling","clothes":"yes"}},"type":"Feature"},
	{"geometry":{"coordinates":[10.557783,51.884913],"type":"Point"},"properties":{"osm_id":"4341306653","tag":{"amenity":"waste_basket"}},"type":"Feature"},
	{"geometry":{"coordinates":[10.557228,51.885141],"type":"Point"},"properties":{"name":"Papiertonne","osm_id":"4341306654","tag":{"amenity":"waste_disposal"}},"type":"Feature"},
	{"geometry":{"coordinates":[10.561221,51.874186],"type":"Point"},"properties":{"osm_id":"4540023792","tag":{"amenity":"waste_basket"}},"type":"Feature"},
	{"geometry":{"coordinates":[10.5609,51.877106],"type":"Point"},"properties":{"osm_id":"4792668097","tag":{"amenity":"waste_basket"}},"type":"Feature"},
	{"geometry":{"coordinates":[10.561038,51.875214],"type":"Point"},"properties":{"osm_id":"4794565980","tag":{"amenity":"waste_basket"}},"type":"Feature"},
	{"geometry":{"coordinates":[10.560929,51.875947],"type":"Point"},"properties":{"osm_id":"4797978487","tag":{"amenity":"waste_basket"}},"type":"Feature"},
	{"geometry":{"coordinates":[10.560056,51.879278],"type":"Point"},"properties":{"osm_id":"4797980664","tag":{"amenity":"waste_basket"}},"type":"Feature"},
	{"geometry":{"coordinates":[10.559373,51.878543],"type":"Point"},"properties":{"osm_id":"4797980684","tag":{"amenity":"waste_basket"}},"type":"Feature"},
	{"geometry":{"coordinates":[10.556988,51.867463],"type":"Point"},"properties":{"osm_id":"4818544192","tag":{"amenity":"waste_basket"}},"type":"Feature"},
	{"geometry":{"coordinates":[10.556678,51.867049],"type":"Point"},"properties":{"osm_id":"4818544193","tag":{"amenity":"waste_basket"}},"type":"Feature"},
	{"geometry":{"coordinates":[10.556381,51.866492],"type":"Point"},"properties":{"osm_id":"4818544194","tag":{"amenity":"waste_basket"}},"type":"Feature"},
	{"geometry":{"coordinates":[10.558045,51.86943],"type":"Point"},"properties":{"osm_id":"4850462109","tag":{"amenity":"waste_basket","colour":"blue"}},"type":"Feature"},
	{"geometry":{"coordinates":[10.563441,51.870111],"type":"Point"},"properties":{"osm_id":"4870004336","tag":{"amenity":"waste_basket"}},"type":"Feature"},
	{"geometry":{"coordinates":[10.560015,51.877137],"type":"Point"},"properties":{"osm_id":"4897534946","tag":{"amenity":"waste_basket"}},"type":"Feature"},
	{"geometry":{"coordinates":[10.558903,51.868655],"type":"Point"},"properties":{"osm_id":"6054538921","tag":{"amenity":"waste_basket"}},"type":"Feature"},
	{"geometry":{"coordinates":[10.559597,51.868317],"type":"Point"},"properties":{"osm_id":"6054538922","tag":{"amenity":"waste_basket"}},"type":"Feature"},
	{"geometry":{"coordinates":[10.566272,51.871909],"type":"Point"},"properties":{"osm_id":"6140672502","tag":{"amenity":"waste_basket"}},"type":"Feature"},
	{"geometry":{"coordinates":[10.566465,51.871973],"type":"Point"},"properties":{"osm_id":"6140672503","tag":{"amenity":"waste_basket"}},"type":"Feature"},
	{"geometry":{"coordinates":[10.575475,51.854173],"type":"Point"},"properties":{"osm_id":"6185993058","tag":{"amenity":"waste_basket"}},"type":"Feature"},
	{"geometry":{"coordinates":[10.575963,51.854046],"type":"Point"},"properties":{"osm_id":"6185993059","tag":{"amenity":"waste_basket"}},"type":"Feature"},
	{"geometry":{"coordinates":[10.554747,51.888004],"type":"Point"},"properties":{"osm_id":"6703667898","tag":{"amenity":"waste_basket"}},"type":"Feature"},
	{"geometry":{"coordinates":[10.554041,51.88799],"type":"Point"},"properties":{"osm_id":"6703680950","tag":{"amenity":"waste_basket"}},"type":"Feature"},
	{"geometry":{"coordinates":[10.557679,51.878755],"type":"Point"},"properties":{"osm_id":"6708420484","tag":{"amenity":"recycling","recycling:glass_bottles":"yes","recycling:paper":"yes","recycling_type":"container"}},"type":"Feature"},
	{"geometry":{"coordinates":[10.573708,51.854893],"type":"Point"},"properties":{"osm_id":"6779249357","tag":{"amenity":"waste_basket"}},"type":"Feature"},
	{"geometry":{"coordinates":[10.574503,51.855108],"type":"Point"},"properties":{"osm_id":"6935738447","tag":{"amenity":"waste_basket"}},"type":"Feature"},
	{"geometry":{"coordinates":[10.585633,51.881665],"type":"Point"},"properties":{"osm_id":"7141437255","tag":{"amenity":"waste_basket"}},"type":"Feature"},
	{"geometry":{"coordinates":[10.559832,51.881909],"type":"Point"},"properties":{"osm_id":"7527233222","tag":{"amenity":"waste_basket","waste":"glass;plastic;ash;trash;paper"}},"type":"Feature"}
]
}
