{
"type": "FeatureCollection",
"features": [
	{"geometry":{"coordinates":[10.617501,51.794481],"type":"Point"},"properties":{"osm_id":"1952413275","tag":{"amenity":"waste_basket"}},"type":"Feature"},
	{"geometry":{"coordinates":[10.621769,51.797359],"type":"Point"},"properties":{"osm_id":"1952413276","tag":{"amenity":"waste_basket"}},"type":"Feature"},
	{"geometry":{"coordinates":[10.615454,51.799674],"type":"Point"},"properties":{"osm_id":"5380784267","tag":{"amenity":"waste_basket"}},"type":"Feature"},
	{"geometry":{"coordinates":[10.618374,51.799218],"type":"Point"},"properties":{"osm_id":"7474215574","tag":{"amenity":"waste_basket"}},"type":"Feature"},
	{"geometry":{"coordinates":[10.615746,51.800555],"type":"Point"},"properties":{"osm_id":"7954485260","tag":{"amenity":"waste_basket","description":"No Trash M\u00c3\u00bclltonne","information":"yes","material":"wood","operator":"Nationalpark Harz","website":"https://www.nationalpark-harz.de/de/aktuelles/2020/2020_08_24_NoTrash-Antimuellaktion/"}},"type":"Feature"}
]
}
