{
"type": "FeatureCollection",
"features": [
	{"geometry":{"coordinates":[10.631671,50.170261],"type":"Point"},"properties":{"osm_id":"905838020","tag":{"amenity":"recycling","mapillary":"P6B5rVZ8BzAzp1dXg6hKMQ","recycling_type":"container","survey:date":"2019-04-22"}},"type":"Feature"},
	{"geometry":{"coordinates":[10.633664,50.152137],"type":"Point"},"properties":{"osm_id":"905838071","tag":{"amenity":"recycling"}},"type":"Feature"},
	{"geometry":{"coordinates":[10.617547,50.141576],"type":"Point"},"properties":{"osm_id":"913944602","tag":{"amenity":"recycling","recycling:glass":"yes"}},"type":"Feature"},
	{"geometry":{"coordinates":[10.609198,50.154975],"type":"Point"},"properties":{"osm_id":"913944604","tag":{"amenity":"recycling"}},"type":"Feature"},
	{"geometry":{"coordinates":[10.565193,50.13199],"type":"Point"},"properties":{"osm_id":"1433499391","tag":{"amenity":"recycling","recycling:cans":"yes","recycling:glass":"no","recycling:glass_bottles":"yes","recycling_type":"container"}},"type":"Feature"},
	{"geometry":{"coordinates":[10.567464,50.158189],"type":"Point"},"properties":{"osm_id":"1676866117","tag":{"amenity":"recycling"}},"type":"Feature"}
]
}
