{
"type": "FeatureCollection",
"features": [
	{"geometry":{"coordinates":[10.601469,50.006312],"type":"Point"},"properties":{"osm_id":"1710705401","tag":{"amenity":"recycling","recycling:cans":"yes","recycling:glass":"yes","recycling_type":"container"}},"type":"Feature"},
	{"geometry":{"coordinates":[10.58717,49.991411],"type":"Point"},"properties":{"osm_id":"1807492811","tag":{"amenity":"recycling","recycling:cans":"yes","recycling:glass":"yes","recycling_type":"container"}},"type":"Feature"},
	{"geometry":{"coordinates":[10.564487,49.965996],"type":"Point"},"properties":{"osm_id":"1847006298","tag":{"amenity":"recycling"}},"type":"Feature"},
	{"geometry":{"coordinates":[10.564735,49.967668],"type":"Point"},"properties":{"osm_id":"1851193840","tag":{"amenity":"waste_basket"}},"type":"Feature"},
	{"geometry":{"coordinates":[10.595136,49.984282],"type":"Point"},"properties":{"osm_id":"2326299064","tag":{"amenity":"waste_basket"}},"type":"Feature"},
	{"geometry":{"coordinates":[10.595495,49.984568],"type":"Point"},"properties":{"osm_id":"2326299079","tag":{"amenity":"waste_basket"}},"type":"Feature"},
	{"geometry":{"coordinates":[10.548515,49.994109],"type":"Point"},"properties":{"osm_id":"2444455937","tag":{"amenity":"recycling","recycling:cans":"yes","recycling:glass":"yes","recycling:glass_bottles":"yes","recycling_type":"container"}},"type":"Feature"},
	{"geometry":{"coordinates":[10.578979,49.985913],"type":"Point"},"properties":{"name":"Wertstoffhof","osm_id":"3733491625","tag":{"amenity":"recycling"}},"type":"Feature"},
	{"geometry":{"coordinates":[10.609728,49.974966],"type":"Point"},"properties":{"osm_id":"3916432617","tag":{"amenity":"waste_disposal"}},"type":"Feature"},
	{"geometry":{"coordinates":[10.616162,49.977976],"type":"Point"},"properties":{"osm_id":"3916432632","tag":{"amenity":"waste_disposal"}},"type":"Feature"},
	{"geometry":{"coordinates":[10.614743,50.001202],"type":"Point"},"properties":{"osm_id":"5103726896","tag":{"amenity":"waste_basket"}},"type":"Feature"},
	{"geometry":{"coordinates":[10.617998,49.99928],"type":"Point"},"properties":{"osm_id":"5103726899","tag":{"amenity":"recycling","recycling:cans":"yes","recycling:glass":"yes","recycling:glass_bottles":"yes","recycling_type":"container"}},"type":"Feature"},
	{"geometry":{"coordinates":[10.616431,50.000494],"type":"Point"},"properties":{"osm_id":"5103726901","tag":{"amenity":"waste_basket"}},"type":"Feature"},
	{"geometry":{"coordinates":[10.568695,49.964222],"type":"Point"},"properties":{"osm_id":"5540443688","tag":{"amenity":"waste_basket"}},"type":"Feature"},
	{"geometry":{"coordinates":[10.592616,49.988843],"type":"Point"},"properties":{"osm_id":"5972275227","tag":{"amenity":"waste_basket"}},"type":"Feature"},
	{"geometry":{"coordinates":[10.592928,49.989992],"type":"Point"},"properties":{"osm_id":"5972419497","tag":{"amenity":"waste_basket"}},"type":"Feature"},
	{"geometry":{"coordinates":[10.592321,49.990109],"type":"Point"},"properties":{"osm_id":"5972419498","tag":{"amenity":"waste_basket"}},"type":"Feature"},
	{"geometry":{"coordinates":[10.591291,49.99033],"type":"Point"},"properties":{"osm_id":"5973032303","tag":{"amenity":"waste_basket"}},"type":"Feature"},
	{"geometry":{"coordinates":[10.590551,49.990228],"type":"Point"},"properties":{"osm_id":"5973032304","tag":{"amenity":"waste_basket"}},"type":"Feature"},
	{"geometry":{"coordinates":[10.600722,50.006588],"type":"Point"},"properties":{"osm_id":"5977947596","tag":{"amenity":"waste_basket"}},"type":"Feature"},
	{"geometry":{"coordinates":[10.595436,50.007073],"type":"Point"},"properties":{"osm_id":"5977947600","tag":{"amenity":"waste_basket"}},"type":"Feature"}
]
}
