{
"type": "FeatureCollection",
"features": [
	{"geometry":{"coordinates":[10.60676,49.161583],"type":"Point"},"properties":{"osm_id":"317699367","tag":{"amenity":"recycling"}},"type":"Feature"},
	{"geometry":{"coordinates":[10.58571,49.202134],"type":"Point"},"properties":{"osm_id":"319136810","tag":{"amenity":"recycling","recycling_type":"container"}},"type":"Feature"},
	{"geometry":{"coordinates":[10.549716,49.205096],"type":"Point"},"properties":{"osm_id":"1701224105","tag":{"amenity":"recycling","recycling_type":"container"}},"type":"Feature"},
	{"geometry":{"coordinates":[10.561748,49.161807],"type":"Point"},"properties":{"osm_id":"3450691144","tag":{"amenity":"recycling","recycling:cans":"yes","recycling:glass":"yes","recycling:glass_bottles":"yes","recycling_type":"container"}},"type":"Feature"},
	{"geometry":{"coordinates":[10.550461,49.159021],"type":"Point"},"properties":{"osm_id":"6934390380","tag":{"amenity":"waste_basket","colour":"#800032","material":"steel","waste":"trash"}},"type":"Feature"},
	{"geometry":{"coordinates":[10.553988,49.165041],"type":"Point"},"properties":{"osm_id":"8360956539","tag":{"amenity":"waste_basket","material":"metal","waste":"trash"}},"type":"Feature"},
	{"geometry":{"coordinates":[10.55226,49.164585],"type":"Point"},"properties":{"osm_id":"8360956547","tag":{"amenity":"waste_basket","covered":"no","material":"metal"}},"type":"Feature"},
	{"geometry":{"coordinates":[10.556066,49.164964],"type":"Point"},"properties":{"osm_id":"8360956553","tag":{"amenity":"waste_basket","material":"metal"}},"type":"Feature"},
	{"geometry":{"coordinates":[10.555961,49.165117],"type":"Point"},"properties":{"osm_id":"8360956556","tag":{"amenity":"waste_basket","material":"metal"}},"type":"Feature"},
	{"geometry":{"coordinates":[10.554053,49.162232],"type":"Point"},"properties":{"osm_id":"8909310871","tag":{"amenity":"waste_basket","material":"metal","waste":"trash"}},"type":"Feature"},
	{"geometry":{"coordinates":[10.55406,49.163029],"type":"Point"},"properties":{"osm_id":"8909310873","tag":{"amenity":"waste_basket","material":"metal","waste":"trash"}},"type":"Feature"},
	{"geometry":{"coordinates":[10.554102,49.163781],"type":"Point"},"properties":{"osm_id":"8909310877","tag":{"amenity":"waste_basket","material":"metal","waste":"trash"}},"type":"Feature"},
	{"geometry":{"coordinates":[10.565266,49.172132],"type":"Point"},"properties":{"osm_id":"8930255768","tag":{"amenity":"waste_basket","colour":"brown"}},"type":"Feature"},
	{"geometry":{"coordinates":[10.561429,49.163431],"type":"Point"},"properties":{"osm_id":"8952955597","tag":{"amenity":"waste_basket","covered":"no","material":"metal","waste":"trash"}},"type":"Feature"},
	{"geometry":{"coordinates":[10.550687,49.157721],"type":"Point"},"properties":{"osm_id":"8953773831","tag":{"amenity":"waste_basket","covered":"no","indoor":"no","material":"metal","waste":"trash"}},"type":"Feature"},
	{"geometry":{"coordinates":[10.549628,49.157932],"type":"Point"},"properties":{"osm_id":"8953773836","tag":{"amenity":"waste_basket","covered":"no","indoor":"no","material":"metal","waste":"trash"}},"type":"Feature"},
	{"geometry":{"coordinates":[10.550228,49.157844],"type":"Point"},"properties":{"osm_id":"8953773863","tag":{"amenity":"waste_basket","covered":"no","indoor":"no","material":"metal","waste":"trash"}},"type":"Feature"},
	{"geometry":{"coordinates":[10.549665,49.157952],"type":"Point"},"properties":{"osm_id":"8953773864","tag":{"amenity":"waste_basket","covered":"no","indoor":"no","material":"metal","waste":"trash"}},"type":"Feature"}
]
}
