{
"type": "FeatureCollection",
"features": [
	{"geometry":{"coordinates":[10.577251,47.90869],"type":"Point"},"properties":{"osm_id":"308257734","tag":{"amenity":"recycling","recycling:glass":"yes","recycling_type":"container"}},"type":"Feature"},
	{"geometry":{"coordinates":[10.629418,47.896794],"type":"Point"},"properties":{"highway":"bus_stop","osm_id":"373111264","tag":{"amenity":"waste_basket"}},"type":"Feature"},
	{"geometry":{"coordinates":[10.620267,47.893467],"type":"Point"},"properties":{"osm_id":"373111316","tag":{"amenity":"recycling","recycling:glass_bottles":"yes","recycling:metal":"yes","recycling:paper":"yes","recycling_type":"container"}},"type":"Feature"},
	{"geometry":{"coordinates":[10.625995,47.894838],"type":"Point"},"properties":{"osm_id":"373111562","tag":{"amenity":"recycling","recycling:paper":"yes","recycling_type":"container"}},"type":"Feature"},
	{"geometry":{"coordinates":[10.632408,47.890727],"type":"Point"},"properties":{"osm_id":"373111645","tag":{"amenity":"recycling","recycling:clothes":"yes","recycling:glass":"yes","recycling:metal":"yes","recycling:paper":"yes","recycling_type":"container"}},"type":"Feature"},
	{"geometry":{"coordinates":[10.588435,47.891296],"type":"Point"},"properties":{"osm_id":"408903739","tag":{"amenity":"recycling","recycling:clothes":"yes","recycling:glass":"yes","recycling:metal":"yes","recycling:paper":"yes","recycling_type":"container"}},"type":"Feature"},
	{"geometry":{"coordinates":[10.626724,47.906978],"type":"Point"},"properties":{"osm_id":"430370790","tag":{"amenity":"recycling"}},"type":"Feature"},
	{"geometry":{"coordinates":[10.625736,47.915996],"type":"Point"},"properties":{"osm_id":"430370965","tag":{"amenity":"recycling"}},"type":"Feature"},
	{"geometry":{"coordinates":[10.630153,47.910051],"type":"Point"},"properties":{"osm_id":"430371544","tag":{"amenity":"recycling","recycling_type":"container"}},"type":"Feature"},
	{"geometry":{"coordinates":[10.605253,47.902782],"type":"Point"},"properties":{"name":"Wertstoffhof Kaufbeuren","osm_id":"568273344","tag":{"amenity":"recycling","opening_hours":"Mo-Fr 08:30-12:00,13:00-16:30; Sa 8:30-15:00","recycling_type":"centre"}},"type":"Feature"},
	{"geometry":{"coordinates":[10.629994,47.919277],"type":"Point"},"properties":{"osm_id":"678354124","tag":{"amenity":"recycling"}},"type":"Feature"},
	{"geometry":{"coordinates":[10.61466,47.878963],"type":"Point"},"properties":{"osm_id":"850936863","tag":{"amenity":"recycling","recycling:glass":"yes"}},"type":"Feature"},
	{"geometry":{"coordinates":[10.620982,47.876702],"type":"Point"},"properties":{"osm_id":"871084799","tag":{"amenity":"recycling","location":"overground","recycling_type":"container"}},"type":"Feature"},
	{"geometry":{"coordinates":[10.630394,47.880373],"type":"Point"},"properties":{"osm_id":"871084818","tag":{"amenity":"recycling","recycling:paper":"yes"}},"type":"Feature"},
	{"geometry":{"coordinates":[10.626163,47.894868],"type":"Point"},"properties":{"osm_id":"925534286","tag":{"amenity":"waste_basket"}},"type":"Feature"},
	{"geometry":{"coordinates":[10.619883,47.89324],"type":"Point"},"properties":{"osm_id":"926843372","tag":{"amenity":"waste_basket"}},"type":"Feature"},
	{"geometry":{"coordinates":[10.617884,47.893302],"type":"Point"},"properties":{"osm_id":"961329378","tag":{"amenity":"waste_basket"}},"type":"Feature"},
	{"geometry":{"coordinates":[10.622975,47.888223],"type":"Point"},"properties":{"osm_id":"961655682","tag":{"amenity":"waste_basket"}},"type":"Feature"},
	{"geometry":{"coordinates":[10.622926,47.889494],"type":"Point"},"properties":{"osm_id":"966236680","tag":{"amenity":"waste_basket"}},"type":"Feature"},
	{"geometry":{"coordinates":[10.624383,47.894074],"type":"Point"},"properties":{"osm_id":"968054631","tag":{"amenity":"waste_basket"}},"type":"Feature"},
	{"geometry":{"coordinates":[10.624577,47.894169],"type":"Point"},"properties":{"osm_id":"968054632","tag":{"amenity":"waste_basket"}},"type":"Feature"},
	{"geometry":{"coordinates":[10.631074,47.89763],"type":"Point"},"properties":{"osm_id":"997771251","tag":{"amenity":"waste_basket"}},"type":"Feature"},
	{"geometry":{"coordinates":[10.622279,47.885233],"type":"Point"},"properties":{"osm_id":"1027146253","tag":{"amenity":"waste_basket"}},"type":"Feature"},
	{"geometry":{"coordinates":[10.609898,47.87683],"type":"Point"},"properties":{"osm_id":"1073738150","tag":{"amenity":"recycling","recycling:clothes":"yes","recycling:paper":"yes","recycling:scrap_metal":"yes"}},"type":"Feature"},
	{"geometry":{"coordinates":[10.63141,47.91348],"type":"Point"},"properties":{"osm_id":"1084151074","tag":{"amenity":"recycling","recycling_type":"container"}},"type":"Feature"},
	{"geometry":{"coordinates":[10.626117,47.889704],"type":"Point"},"properties":{"osm_id":"1091839895","tag":{"amenity":"waste_basket"}},"type":"Feature"},
	{"geometry":{"coordinates":[10.617007,47.88702],"type":"Point"},"properties":{"osm_id":"1416433825","tag":{"amenity":"waste_basket"}},"type":"Feature"},
	{"geometry":{"coordinates":[10.577282,47.908706],"type":"Point"},"properties":{"osm_id":"1706023941","tag":{"amenity":"recycling","recycling:clothes":"yes","recycling:shoes":"yes","recycling_type":"container"}},"type":"Feature"},
	{"geometry":{"coordinates":[10.607187,47.894932],"type":"Point"},"properties":{"osm_id":"1736509583","tag":{"amenity":"waste_basket"}},"type":"Feature"},
	{"geometry":{"coordinates":[10.628844,47.883972],"type":"Point"},"properties":{"name":"Hundeklo","osm_id":"2020026734","tag":{"amenity":"waste_basket"}},"type":"Feature"},
	{"geometry":{"coordinates":[10.631034,47.897628],"type":"Point"},"properties":{"name":"Hundeklo","osm_id":"2081036776","tag":{"amenity":"waste_basket"}},"type":"Feature"},
	{"geometry":{"coordinates":[10.622648,47.890459],"type":"Point"},"properties":{"osm_id":"2578033541","tag":{"amenity":"waste_basket"}},"type":"Feature"},
	{"geometry":{"coordinates":[10.633214,47.880301],"type":"Point"},"properties":{"osm_id":"2671365253","tag":{"amenity":"recycling","recycling:cans":"yes","recycling:clothes":"no","recycling:glass":"yes","recycling:paper":"yes","recycling_type":"container"}},"type":"Feature"},
	{"geometry":{"coordinates":[10.626923,47.888773],"type":"Point"},"properties":{"osm_id":"3808217400","tag":{"amenity":"recycling","recycling:clothes":"yes","recycling:glass_bottles":"yes","recycling:metal":"yes","recycling:paper":"yes","recycling_type":"container"}},"type":"Feature"},
	{"geometry":{"coordinates":[10.62247,47.886622],"type":"Point"},"properties":{"osm_id":"3808253145","tag":{"amenity":"waste_basket"}},"type":"Feature"},
	{"geometry":{"coordinates":[10.625448,47.875675],"type":"Point"},"properties":{"osm_id":"3890719422","tag":{"amenity":"recycling","recycling:glass":"yes","recycling:metal":"yes","recycling:paper":"yes","recycling_type":"container"}},"type":"Feature"},
	{"geometry":{"coordinates":[10.628791,47.875621],"type":"Point"},"properties":{"osm_id":"4386973329","tag":{"amenity":"waste_basket"}},"type":"Feature"},
	{"geometry":{"coordinates":[10.629613,47.875709],"type":"Point"},"properties":{"osm_id":"4387029181","tag":{"amenity":"waste_basket"}},"type":"Feature"},
	{"geometry":{"coordinates":[10.619565,47.876604],"type":"Point"},"properties":{"osm_id":"4459201020","tag":{"amenity":"waste_basket"}},"type":"Feature"},
	{"geometry":{"coordinates":[10.616436,47.878785],"type":"Point"},"properties":{"osm_id":"4459201036","tag":{"amenity":"waste_basket"}},"type":"Feature"},
	{"geometry":{"coordinates":[10.616721,47.880561],"type":"Point"},"properties":{"osm_id":"4459201048","tag":{"amenity":"waste_basket","waste":"excrements"}},"type":"Feature"},
	{"geometry":{"coordinates":[10.61672,47.880583],"type":"Point"},"properties":{"osm_id":"4459201050","tag":{"amenity":"waste_basket"}},"type":"Feature"},
	{"geometry":{"coordinates":[10.61663,47.899085],"type":"Point"},"properties":{"osm_id":"4538281864","tag":{"amenity":"waste_basket"}},"type":"Feature"},
	{"geometry":{"coordinates":[10.624978,47.897073],"type":"Point"},"properties":{"osm_id":"4694923270","tag":{"amenity":"recycling","recycling:glass_bottles":"yes","recycling:metal":"yes","recycling:paper":"yes","recycling_type":"container"}},"type":"Feature"},
	{"geometry":{"coordinates":[10.617515,47.889807],"type":"Point"},"properties":{"osm_id":"4705282299","tag":{"amenity":"recycling","recycling:clothes":"yes","recycling:glass":"yes","recycling_type":"container"}},"type":"Feature"},
	{"geometry":{"coordinates":[10.569049,47.902306],"type":"Point"},"properties":{"osm_id":"6025709403","tag":{"amenity":"recycling","recycling_type":"container"}},"type":"Feature"},
	{"geometry":{"coordinates":[10.569083,47.902304],"type":"Point"},"properties":{"osm_id":"6025709405","tag":{"amenity":"recycling","recycling_type":"container"}},"type":"Feature"},
	{"geometry":{"coordinates":[10.631346,47.913464],"type":"Point"},"properties":{"osm_id":"6034032289","tag":{"amenity":"recycling","recycling_type":"container"}},"type":"Feature"},
	{"geometry":{"coordinates":[10.63138,47.913472],"type":"Point"},"properties":{"osm_id":"6034032290","tag":{"amenity":"recycling","recycling_type":"container"}},"type":"Feature"},
	{"geometry":{"coordinates":[10.631466,47.913494],"type":"Point"},"properties":{"osm_id":"6034032291","tag":{"amenity":"recycling","recycling_type":"container"}},"type":"Feature"},
	{"geometry":{"coordinates":[10.63144,47.913488],"type":"Point"},"properties":{"osm_id":"6034032292","tag":{"amenity":"recycling","recycling_type":"container"}},"type":"Feature"},
	{"geometry":{"coordinates":[10.634024,47.902609],"type":"Point"},"properties":{"osm_id":"6219678631","tag":{"amenity":"recycling","location":"overground","recycling_type":"container"}},"type":"Feature"},
	{"geometry":{"coordinates":[10.629372,47.876046],"type":"Point"},"properties":{"osm_id":"6388714197","tag":{"amenity":"waste_basket"}},"type":"Feature"},
	{"geometry":{"coordinates":[10.613492,47.892729],"type":"Point"},"properties":{"osm_id":"6508061946","tag":{"amenity":"recycling","recycling:glass_bottles":"yes","recycling:metal":"yes","recycling:paper":"yes","recycling_type":"container"}},"type":"Feature"},
	{"geometry":{"coordinates":[10.627072,47.89305],"type":"Point"},"properties":{"osm_id":"6510846464","tag":{"amenity":"waste_basket"}},"type":"Feature"},
	{"geometry":{"coordinates":[10.626582,47.893347],"type":"Point"},"properties":{"osm_id":"6510853786","tag":{"amenity":"waste_basket"}},"type":"Feature"},
	{"geometry":{"coordinates":[10.626223,47.8931],"type":"Point"},"properties":{"osm_id":"6510853790","tag":{"amenity":"waste_basket"}},"type":"Feature"},
	{"geometry":{"coordinates":[10.604576,47.902076],"type":"Point"},"properties":{"osm_id":"7905368105","tag":{"amenity":"waste_basket"}},"type":"Feature"},
	{"geometry":{"coordinates":[10.617551,47.879441],"type":"Point"},"properties":{"osm_id":"7932637810","tag":{"amenity":"waste_basket"}},"type":"Feature"},
	{"geometry":{"coordinates":[10.617148,47.881148],"type":"Point"},"properties":{"osm_id":"7932637819","tag":{"amenity":"waste_basket"}},"type":"Feature"},
	{"geometry":{"coordinates":[10.62706,47.875901],"type":"Point"},"properties":{"osm_id":"7932637841","tag":{"amenity":"waste_basket"}},"type":"Feature"},
	{"geometry":{"coordinates":[10.623003,47.878363],"type":"Point"},"properties":{"osm_id":"7939995959","tag":{"amenity":"waste_basket"}},"type":"Feature"},
	{"geometry":{"coordinates":[10.62224,47.878196],"type":"Point"},"properties":{"osm_id":"7939995963","tag":{"amenity":"waste_basket"}},"type":"Feature"}
]
}
