{
"type": "FeatureCollection",
"features": [
	{"geometry":{"coordinates":[10.615506,44.656603],"type":"Point"},"properties":{"name":"Isola ecologica","osm_id":"2688193428","tag":{"amenity":"recycling","recycling_type":"container"}},"type":"Feature"},
	{"geometry":{"coordinates":[10.612489,44.709338],"type":"Point"},"properties":{"osm_id":"4708003079","tag":{"amenity":"waste_disposal"}},"type":"Feature"},
	{"geometry":{"coordinates":[10.633764,44.714505],"type":"Point"},"properties":{"osm_id":"4746746379","tag":{"amenity":"waste_basket"}},"type":"Feature"},
	{"geometry":{"coordinates":[10.623655,44.68046],"type":"Point"},"properties":{"osm_id":"5629460583","tag":{"amenity":"waste_basket","waste":"trash"}},"type":"Feature"},
	{"geometry":{"coordinates":[10.623113,44.681118],"type":"Point"},"properties":{"osm_id":"5629460600","tag":{"amenity":"waste_basket","waste":"trash"}},"type":"Feature"},
	{"geometry":{"coordinates":[10.623008,44.681082],"type":"Point"},"properties":{"osm_id":"5629460603","tag":{"amenity":"waste_basket","waste":"trash"}},"type":"Feature"},
	{"geometry":{"coordinates":[10.622991,44.681144],"type":"Point"},"properties":{"osm_id":"5629460611","tag":{"amenity":"waste_basket","waste":"trash"}},"type":"Feature"},
	{"geometry":{"coordinates":[10.623309,44.680827],"type":"Point"},"properties":{"osm_id":"5629460614","tag":{"amenity":"waste_basket","waste":"trash"}},"type":"Feature"},
	{"geometry":{"coordinates":[10.624775,44.697653],"type":"Point"},"properties":{"osm_id":"6588759711","tag":{"amenity":"waste_basket","waste":"trash"}},"type":"Feature"},
	{"geometry":{"coordinates":[10.629494,44.695516],"type":"Point"},"properties":{"osm_id":"6696898162","tag":{"amenity":"waste_basket","waste":"trash"}},"type":"Feature"},
	{"geometry":{"coordinates":[10.629621,44.695815],"type":"Point"},"properties":{"osm_id":"6696898165","tag":{"amenity":"waste_basket","waste":"trash"}},"type":"Feature"},
	{"geometry":{"coordinates":[10.624654,44.701393],"type":"Point"},"properties":{"osm_id":"6709860310","tag":{"amenity":"waste_basket","waste":"trash"}},"type":"Feature"},
	{"geometry":{"coordinates":[10.625168,44.701609],"type":"Point"},"properties":{"osm_id":"6709860311","tag":{"amenity":"waste_basket","waste":"trash"}},"type":"Feature"},
	{"geometry":{"coordinates":[10.62294,44.700408],"type":"Point"},"properties":{"osm_id":"7325389244","tag":{"amenity":"waste_basket","waste":"trash"}},"type":"Feature"},
	{"geometry":{"coordinates":[10.623188,44.69952],"type":"Point"},"properties":{"osm_id":"7325389245","tag":{"amenity":"waste_basket","waste":"trash"}},"type":"Feature"}
]
}
