{
"type": "FeatureCollection",
"features": [
	{"geometry":{"coordinates":[1.613799,50.724868],"type":"Point"},"properties":{"osm_id":"4269867355","tag":{"amenity":"waste_basket"}},"type":"Feature"},
	{"geometry":{"coordinates":[1.613691,50.724935],"type":"Point"},"properties":{"osm_id":"4269934331","tag":{"amenity":"waste_basket"}},"type":"Feature"},
	{"geometry":{"coordinates":[1.612165,50.72391],"type":"Point"},"properties":{"osm_id":"4269934332","tag":{"amenity":"waste_basket"}},"type":"Feature"},
	{"geometry":{"coordinates":[1.615154,50.72371],"type":"Point"},"properties":{"osm_id":"4271194335","tag":{"amenity":"waste_basket"}},"type":"Feature"},
	{"geometry":{"coordinates":[1.61662,50.724809],"type":"Point"},"properties":{"osm_id":"4271194338","tag":{"amenity":"waste_basket"}},"type":"Feature"},
	{"geometry":{"coordinates":[1.617022,50.725129],"type":"Point"},"properties":{"osm_id":"4271194340","tag":{"amenity":"waste_basket"}},"type":"Feature"},
	{"geometry":{"coordinates":[1.616623,50.725516],"type":"Point"},"properties":{"osm_id":"4271194341","tag":{"amenity":"waste_basket"}},"type":"Feature"},
	{"geometry":{"coordinates":[1.616678,50.725877],"type":"Point"},"properties":{"osm_id":"4271194345","tag":{"amenity":"waste_basket"}},"type":"Feature"},
	{"geometry":{"coordinates":[1.612583,50.724474],"type":"Point"},"properties":{"osm_id":"4271576133","tag":{"amenity":"waste_basket"}},"type":"Feature"},
	{"geometry":{"coordinates":[1.613857,50.711958],"type":"Point"},"properties":{"osm_id":"4540407198","tag":{"amenity":"waste_basket"}},"type":"Feature"},
	{"geometry":{"coordinates":[1.615538,50.719943],"type":"Point"},"properties":{"osm_id":"4611306491","tag":{"amenity":"waste_disposal"}},"type":"Feature"},
	{"geometry":{"coordinates":[1.614928,50.719867],"type":"Point"},"properties":{"osm_id":"4611306492","tag":{"amenity":"waste_basket"}},"type":"Feature"},
	{"geometry":{"coordinates":[1.612665,50.717648],"type":"Point"},"properties":{"osm_id":"4611363394","tag":{"amenity":"waste_basket"}},"type":"Feature"},
	{"geometry":{"coordinates":[1.615435,50.720906],"type":"Point"},"properties":{"osm_id":"4611396989","tag":{"amenity":"waste_basket"}},"type":"Feature"},
	{"geometry":{"coordinates":[1.603777,50.720057],"type":"Point"},"properties":{"osm_id":"4614072010","tag":{"amenity":"waste_basket"}},"type":"Feature"},
	{"geometry":{"coordinates":[1.614148,50.715478],"type":"Point"},"properties":{"osm_id":"4616163829","tag":{"addr:city":"Boulogne-sur-Mer","addr:postcode":"62200","addr:street":"Rue de Brequerecque","amenity":"recycling","recycling:aluminium":"yes","recycling:cartons":"yes","recycling:glass_bottles":"yes","recycling:newspaper":"yes","recycling:paper":"yes","recycling:paper_packaging":"yes","recycling:plastic":"yes","recycling:plastic_bottles":"yes","recycling_type":"container"}},"type":"Feature"},
	{"geometry":{"coordinates":[1.615652,50.719957],"type":"Point"},"properties":{"osm_id":"4616388122","tag":{"amenity":"recycling","recycling:cartons":"yes","recycling:glass_bottles":"yes","recycling:paper":"yes","recycling:plastic":"yes","recycling:plastic_bottles":"yes","recycling_type":"container"}},"type":"Feature"},
	{"geometry":{"coordinates":[1.614023,50.71588],"type":"Point"},"properties":{"osm_id":"4616388123","tag":{"amenity":"recycling","operator":"Croix-Rouge","recycling:clothes":"yes","recycling_type":"container"}},"type":"Feature"},
	{"geometry":{"coordinates":[1.610467,50.718778],"type":"Point"},"properties":{"osm_id":"4618034189","tag":{"addr:city":"Boulogne-sur-Mer","addr:postcode":"62200","addr:street":"Boulevard Daunou","amenity":"recycling","recycling:glass_bottles":"yes","recycling_type":"container"}},"type":"Feature"},
	{"geometry":{"coordinates":[1.604012,50.725357],"type":"Point"},"properties":{"osm_id":"4692243989","tag":{"amenity":"waste_disposal","operator":"Point de recyclage papier, emballages et ordures m\u00c3\u00a9nag\u00c3\u00a8res"}},"type":"Feature"},
	{"geometry":{"coordinates":[1.605957,50.726467],"type":"Point"},"properties":{"osm_id":"4705193494","tag":{"amenity":"waste_basket"}},"type":"Feature"},
	{"geometry":{"coordinates":[1.601786,50.724732],"type":"Point"},"properties":{"osm_id":"4705219566","tag":{"amenity":"waste_basket"}},"type":"Feature"},
	{"geometry":{"coordinates":[1.60331,50.725864],"type":"Point"},"properties":{"osm_id":"4705291625","tag":{"amenity":"waste_basket"}},"type":"Feature"},
	{"geometry":{"coordinates":[1.602908,50.725298],"type":"Point"},"properties":{"osm_id":"4705295419","tag":{"amenity":"waste_basket"}},"type":"Feature"},
	{"geometry":{"coordinates":[1.603496,50.725106],"type":"Point"},"properties":{"osm_id":"4705295420","tag":{"amenity":"waste_basket","recycling:glass":"yes"}},"type":"Feature"},
	{"geometry":{"coordinates":[1.602618,50.725924],"type":"Point"},"properties":{"osm_id":"4705306248","tag":{"amenity":"waste_basket"}},"type":"Feature"},
	{"geometry":{"coordinates":[1.603906,50.72646],"type":"Point"},"properties":{"osm_id":"4705322666","tag":{"amenity":"recycling","recycling:glass_bottles":"yes","recycling:paper":"yes","recycling:plastic":"yes","recycling_type":"container"}},"type":"Feature"},
	{"geometry":{"coordinates":[1.601974,50.725809],"type":"Point"},"properties":{"osm_id":"4705324242","tag":{"amenity":"recycling","recycling:glass_bottles":"yes","recycling_type":"container"}},"type":"Feature"},
	{"geometry":{"coordinates":[1.6014,50.725297],"type":"Point"},"properties":{"osm_id":"4705335761","tag":{"amenity":"waste_basket"}},"type":"Feature"},
	{"geometry":{"coordinates":[1.602135,50.727773],"type":"Point"},"properties":{"osm_id":"4706683454","tag":{"amenity":"recycling","recycling:glass_bottles":"yes","recycling_type":"container"}},"type":"Feature"},
	{"geometry":{"coordinates":[1.604261,50.725633],"type":"Point"},"properties":{"osm_id":"4934061533","tag":{"amenity":"waste_basket"}},"type":"Feature"},
	{"geometry":{"coordinates":[1.607011,50.723137],"type":"Point"},"properties":{"osm_id":"4934293359","tag":{"amenity":"recycling","location":"underground","recycling:glass_bottles":"yes","recycling_type":"container"}},"type":"Feature"},
	{"geometry":{"coordinates":[1.607062,50.723152],"type":"Point"},"properties":{"osm_id":"4934293360","tag":{"amenity":"waste_disposal"}},"type":"Feature"},
	{"geometry":{"coordinates":[1.617268,50.722345],"type":"Point"},"properties":{"osm_id":"4934325370","tag":{"amenity":"recycling","recycling:cans":"yes","recycling:paper":"yes","recycling:plastic_bottles":"yes","recycling:scrap_metal":"yes","recycling_type":"container"}},"type":"Feature"},
	{"geometry":{"coordinates":[1.617829,50.724943],"type":"Point"},"properties":{"osm_id":"4934407939","tag":{"amenity":"recycling","recycling:glass_bottles":"yes","recycling_type":"container"}},"type":"Feature"},
	{"geometry":{"coordinates":[1.606808,50.723433],"type":"Point"},"properties":{"osm_id":"4935902958","tag":{"amenity":"waste_basket"}},"type":"Feature"},
	{"geometry":{"coordinates":[1.60723,50.723578],"type":"Point"},"properties":{"osm_id":"4935902959","tag":{"amenity":"waste_basket"}},"type":"Feature"},
	{"geometry":{"coordinates":[1.60731,50.72298],"type":"Point"},"properties":{"osm_id":"4935902960","tag":{"amenity":"waste_basket"}},"type":"Feature"},
	{"geometry":{"coordinates":[1.609544,50.724404],"type":"Point"},"properties":{"osm_id":"4935916865","tag":{"amenity":"waste_basket"}},"type":"Feature"},
	{"geometry":{"coordinates":[1.607479,50.723703],"type":"Point"},"properties":{"osm_id":"4935916866","tag":{"amenity":"waste_basket"}},"type":"Feature"},
	{"geometry":{"coordinates":[1.620578,50.726415],"type":"Point"},"properties":{"osm_id":"4935984534","tag":{"amenity":"recycling","recycling:glass_bottles":"yes","recycling:waste":"yes","recycling_type":"container"}},"type":"Feature"},
	{"geometry":{"coordinates":[1.620559,50.726395],"type":"Point"},"properties":{"osm_id":"4935984536","tag":{"amenity":"waste_basket"}},"type":"Feature"},
	{"geometry":{"coordinates":[1.620284,50.726037],"type":"Point"},"properties":{"osm_id":"4935984542","tag":{"amenity":"waste_basket"}},"type":"Feature"},
	{"geometry":{"coordinates":[1.621789,50.726342],"type":"Point"},"properties":{"osm_id":"4935984548","tag":{"amenity":"waste_basket"}},"type":"Feature"},
	{"geometry":{"coordinates":[1.619066,50.727235],"type":"Point"},"properties":{"osm_id":"4935984550","tag":{"amenity":"waste_basket"}},"type":"Feature"},
	{"geometry":{"coordinates":[1.618165,50.727391],"type":"Point"},"properties":{"osm_id":"4935984551","tag":{"amenity":"waste_basket"}},"type":"Feature"},
	{"geometry":{"coordinates":[1.617994,50.727695],"type":"Point"},"properties":{"osm_id":"4935984552","tag":{"amenity":"waste_basket"}},"type":"Feature"},
	{"geometry":{"coordinates":[1.61829,50.727913],"type":"Point"},"properties":{"osm_id":"4935984553","tag":{"amenity":"waste_basket"}},"type":"Feature"},
	{"geometry":{"coordinates":[1.617162,50.726965],"type":"Point"},"properties":{"osm_id":"4935984555","tag":{"amenity":"waste_basket"}},"type":"Feature"},
	{"geometry":{"coordinates":[1.617203,50.727199],"type":"Point"},"properties":{"osm_id":"4935984556","tag":{"amenity":"waste_basket"}},"type":"Feature"},
	{"geometry":{"coordinates":[1.61758,50.727385],"type":"Point"},"properties":{"osm_id":"4935984558","tag":{"amenity":"waste_basket"}},"type":"Feature"},
	{"geometry":{"coordinates":[1.616709,50.726588],"type":"Point"},"properties":{"osm_id":"4935984559","tag":{"amenity":"waste_basket"}},"type":"Feature"},
	{"geometry":{"coordinates":[1.616162,50.726981],"type":"Point"},"properties":{"osm_id":"4935984560","tag":{"amenity":"recycling","recycling:waste":"yes","recycling_type":"container"}},"type":"Feature"},
	{"geometry":{"coordinates":[1.616849,50.726702],"type":"Point"},"properties":{"osm_id":"4935984561","tag":{"amenity":"waste_basket"}},"type":"Feature"},
	{"geometry":{"coordinates":[1.619637,50.725185],"type":"Point"},"properties":{"osm_id":"4935984564","tag":{"amenity":"waste_basket"}},"type":"Feature"},
	{"geometry":{"coordinates":[1.618072,50.728136],"type":"Point"},"properties":{"osm_id":"4938402551","tag":{"amenity":"waste_basket"}},"type":"Feature"},
	{"geometry":{"coordinates":[1.617383,50.726154],"type":"Point"},"properties":{"osm_id":"4938402554","tag":{"amenity":"waste_basket"}},"type":"Feature"},
	{"geometry":{"coordinates":[1.619185,50.730053],"type":"Point"},"properties":{"osm_id":"4959544058","tag":{"amenity":"waste_basket"}},"type":"Feature"},
	{"geometry":{"coordinates":[1.619967,50.730639],"type":"Point"},"properties":{"osm_id":"4959544059","tag":{"amenity":"recycling","recycling:glass_bottles":"yes","recycling_type":"container"}},"type":"Feature"},
	{"geometry":{"coordinates":[1.619459,50.731164],"type":"Point"},"properties":{"osm_id":"4959544061","tag":{"amenity":"recycling","recycling:glass_bottles":"yes","recycling:waste":"yes","recycling_type":"container"}},"type":"Feature"},
	{"geometry":{"coordinates":[1.620432,50.730728],"type":"Point"},"properties":{"osm_id":"4959544063","tag":{"amenity":"waste_basket"}},"type":"Feature"},
	{"geometry":{"coordinates":[1.61854,50.724891],"type":"Point"},"properties":{"osm_id":"4960235675","tag":{"amenity":"waste_basket"}},"type":"Feature"},
	{"geometry":{"coordinates":[1.616019,50.72403],"type":"Point"},"properties":{"osm_id":"4960235677","tag":{"amenity":"waste_basket"}},"type":"Feature"},
	{"geometry":{"coordinates":[1.615647,50.723704],"type":"Point"},"properties":{"osm_id":"4960235685","tag":{"amenity":"waste_basket"}},"type":"Feature"},
	{"geometry":{"coordinates":[1.615503,50.723604],"type":"Point"},"properties":{"osm_id":"4960235686","tag":{"amenity":"waste_basket"}},"type":"Feature"},
	{"geometry":{"coordinates":[1.615342,50.723542],"type":"Point"},"properties":{"osm_id":"4960235687","tag":{"amenity":"waste_basket"}},"type":"Feature"},
	{"geometry":{"coordinates":[1.618235,50.7255],"type":"Point"},"properties":{"osm_id":"4960235694","tag":{"amenity":"waste_basket"}},"type":"Feature"},
	{"geometry":{"coordinates":[1.604839,50.735436],"type":"Point"},"properties":{"osm_id":"5126946669","tag":{"amenity":"recycling","location":"underground","recycling:cans":"yes","recycling:cartons":"yes","recycling:magazines":"yes","recycling:newspaper":"yes","recycling:paper":"yes","recycling:plastic":"yes","recycling:waste":"yes","recycling_type":"container"}},"type":"Feature"},
	{"geometry":{"coordinates":[1.60436,50.736204],"type":"Point"},"properties":{"osm_id":"5126946681","tag":{"amenity":"recycling","location":"underground","recycling:cans":"yes","recycling:cartons":"yes","recycling:magazines":"yes","recycling:newspaper":"yes","recycling:paper":"yes","recycling:plastic":"yes","recycling:waste_oil":"yes","recycling_type":"container"}},"type":"Feature"},
	{"geometry":{"coordinates":[1.602307,50.736174],"type":"Point"},"properties":{"osm_id":"5126946683","tag":{"amenity":"recycling","location":"underground","recycling:cans":"yes","recycling:cartons":"yes","recycling:magazines":"yes","recycling:newspaper":"yes","recycling:paper":"yes","recycling:plastic":"yes","recycling:waste_oil":"yes","recycling_type":"container"}},"type":"Feature"},
	{"geometry":{"coordinates":[1.602191,50.73554],"type":"Point"},"properties":{"osm_id":"5126946684","tag":{"amenity":"waste_basket"}},"type":"Feature"},
	{"geometry":{"coordinates":[1.602793,50.734987],"type":"Point"},"properties":{"osm_id":"5127055627","tag":{"amenity":"recycling","location":"underground","recycling:cans":"yes","recycling:cartons":"yes","recycling:glass_bottles":"yes","recycling:magazines":"yes","recycling:newspaper":"yes","recycling:paper":"yes","recycling:plastic":"yes","recycling:waste":"yes","recycling_type":"container"}},"type":"Feature"},
	{"geometry":{"coordinates":[1.600982,50.73486],"type":"Point"},"properties":{"osm_id":"5127055628","tag":{"amenity":"recycling","location":"underground","recycling:cans":"yes","recycling:cartons":"yes","recycling:magazines":"yes","recycling:newspaper":"yes","recycling:paper":"yes","recycling:plastic":"yes","recycling:waste":"yes","recycling_type":"container"}},"type":"Feature"},
	{"geometry":{"coordinates":[1.604043,50.734331],"type":"Point"},"properties":{"osm_id":"5127055629","tag":{"amenity":"recycling","location":"underground","recycling:cans":"yes","recycling:cartons":"yes","recycling:glass_bottles":"yes","recycling:magazines":"yes","recycling:newspaper":"yes","recycling:paper":"yes","recycling:plastic":"yes","recycling:waste":"yes","recycling_type":"container"}},"type":"Feature"},
	{"geometry":{"coordinates":[1.603883,50.735722],"type":"Point"},"properties":{"osm_id":"5127055632","tag":{"amenity":"recycling","location":"underground","recycling:cans":"yes","recycling:cartons":"yes","recycling:glass_bottles":"yes","recycling:magazines":"yes","recycling:newspaper":"yes","recycling:paper":"yes","recycling:plastic":"yes","recycling:waste":"yes","recycling_type":"container"}},"type":"Feature"},
	{"geometry":{"coordinates":[1.609537,50.735783],"type":"Point"},"properties":{"osm_id":"5128350752","tag":{"amenity":"waste_basket"}},"type":"Feature"},
	{"geometry":{"coordinates":[1.608651,50.735584],"type":"Point"},"properties":{"osm_id":"5128350787","tag":{"amenity":"recycling","recycling:glass_bottles":"yes","recycling_type":"container"}},"type":"Feature"},
	{"geometry":{"coordinates":[1.609101,50.715702],"type":"Point"},"properties":{"osm_id":"5812675559","tag":{"amenity":"recycling","recycling:glass_bottles":"yes","recycling_type":"container"}},"type":"Feature"},
	{"geometry":{"coordinates":[1.609384,50.716065],"type":"Point"},"properties":{"osm_id":"5812723853","tag":{"amenity":"recycling","recycling:clothes":"yes","recycling_type":"container"}},"type":"Feature"},
	{"geometry":{"coordinates":[1.606926,50.715237],"type":"Point"},"properties":{"osm_id":"5812733361","tag":{"amenity":"recycling","recycling:glass_bottles":"yes","recycling_type":"container"}},"type":"Feature"},
	{"geometry":{"coordinates":[1.606479,50.716314],"type":"Point"},"properties":{"osm_id":"5812736605","tag":{"amenity":"waste_basket"}},"type":"Feature"},
	{"geometry":{"coordinates":[1.607832,50.715952],"type":"Point"},"properties":{"osm_id":"5812739666","tag":{"amenity":"recycling","container":"yes","recycling:glass_bottles":"yes"}},"type":"Feature"},
	{"geometry":{"coordinates":[1.604484,50.722178],"type":"Point"},"properties":{"osm_id":"7797954366","tag":{"amenity":"waste_basket"}},"type":"Feature"},
	{"geometry":{"coordinates":[1.604304,50.72221],"type":"Point"},"properties":{"osm_id":"7797954367","tag":{"amenity":"waste_basket"}},"type":"Feature"}
]
}
