{
"type": "FeatureCollection",
"features": [
	{"geometry":{"coordinates":[1.590955,50.460064],"type":"Point"},"properties":{"osm_id":"1761862254","tag":{"amenity":"waste_basket"}},"type":"Feature"},
	{"geometry":{"coordinates":[1.587332,50.46064],"type":"Point"},"properties":{"osm_id":"1761862263","tag":{"amenity":"waste_basket"}},"type":"Feature"},
	{"geometry":{"coordinates":[1.582727,50.460762],"type":"Point"},"properties":{"osm_id":"1761862267","tag":{"amenity":"recycling","operator":"Le Relais","recycling:glass_bottles":"yes","recycling_type":"container"}},"type":"Feature"},
	{"geometry":{"coordinates":[1.624939,50.486169],"type":"Point"},"properties":{"osm_id":"1914223645","tag":{"amenity":"recycling","recycling:glass_bottles":"yes","recycling:paper":"yes","recycling_type":"container"}},"type":"Feature"},
	{"geometry":{"coordinates":[1.62523,50.486029],"type":"Point"},"properties":{"osm_id":"1914226515","tag":{"amenity":"waste_basket"}},"type":"Feature"},
	{"geometry":{"coordinates":[1.624302,50.486327],"type":"Point"},"properties":{"osm_id":"1914226516","tag":{"amenity":"waste_basket"}},"type":"Feature"},
	{"geometry":{"coordinates":[1.623477,50.486838],"type":"Point"},"properties":{"osm_id":"1914242983","tag":{"amenity":"waste_basket"}},"type":"Feature"},
	{"geometry":{"coordinates":[1.596004,50.484994],"type":"Point"},"properties":{"osm_id":"1914248913","tag":{"amenity":"waste_basket","check_date":"2021-08-21"}},"type":"Feature"},
	{"geometry":{"coordinates":[1.599704,50.458687],"type":"Point"},"properties":{"osm_id":"4881806882","tag":{"amenity":"waste_basket"}},"type":"Feature"},
	{"geometry":{"coordinates":[1.612209,50.476036],"type":"Point"},"properties":{"osm_id":"4881812295","tag":{"amenity":"waste_basket"}},"type":"Feature"},
	{"geometry":{"coordinates":[1.582256,50.461835],"type":"Point"},"properties":{"osm_id":"4992382436","tag":{"amenity":"recycling","operator":"Communaut\u00c3\u00a9 d'Agglom\u00c3\u00a9ration des 2 Baies en Montreuillois","recycling:cans":"yes","recycling:cardboard":"yes","recycling:paper":"yes","recycling:plastic":"no","recycling:plastic_bottles":"yes","recycling_type":"container"}},"type":"Feature"},
	{"geometry":{"coordinates":[1.58223,50.461828],"type":"Point"},"properties":{"osm_id":"7589354893","tag":{"amenity":"recycling","operator":"Communaut\u00c3\u00a9 d'Agglom\u00c3\u00a9ration des 2 Baies en Montreuillois","recycling:glass_bottles":"yes","recycling_type":"container"}},"type":"Feature"},
	{"geometry":{"coordinates":[1.643357,50.511243],"type":"Point"},"properties":{"osm_id":"8442380496","tag":{"amenity":"waste_basket"}},"type":"Feature"}
]
}
