{
"type": "FeatureCollection",
"features": [
	{"geometry":{"coordinates":[1.608727,49.021246],"type":"Point"},"properties":{"osm_id":"1479237510","tag":{"amenity":"recycling","recycling:glass":"yes","recycling:paper":"yes","recycling_type":"container"}},"type":"Feature"},
	{"geometry":{"coordinates":[1.609077,49.025808],"type":"Point"},"properties":{"osm_id":"1479237566","tag":{"amenity":"recycling","note:fr":"D\u00c3\u00a9p\u00c3\u00b4t interdit de 22h \u00c3\u00a0 7h","opening_hours":"Mo-Su 07:00-22:00","recycling:glass":"yes","recycling_type":"container"}},"type":"Feature"},
	{"geometry":{"coordinates":[1.596496,49.03621],"type":"Point"},"properties":{"osm_id":"1854307947","tag":{"amenity":"waste_basket"}},"type":"Feature"},
	{"geometry":{"coordinates":[1.596689,49.036276],"type":"Point"},"properties":{"osm_id":"1854307992","tag":{"amenity":"waste_basket"}},"type":"Feature"},
	{"geometry":{"coordinates":[1.595277,49.035644],"type":"Point"},"properties":{"osm_id":"1854307995","tag":{"amenity":"waste_basket"}},"type":"Feature"},
	{"geometry":{"coordinates":[1.629707,49.035636],"type":"Point"},"properties":{"osm_id":"2197600352","tag":{"amenity":"recycling","recycling:glass":"yes","recycling:paper":"yes","recycling_type":"container"}},"type":"Feature"},
	{"geometry":{"coordinates":[1.63656,49.000174],"type":"Point"},"properties":{"osm_id":"2914997598","tag":{"amenity":"waste_basket"}},"type":"Feature"},
	{"geometry":{"coordinates":[1.610898,49.019896],"type":"Point"},"properties":{"osm_id":"2915057021","tag":{"amenity":"recycling","recycling:glass":"yes","recycling:paper":"yes","recycling_type":"container"}},"type":"Feature"},
	{"geometry":{"coordinates":[1.638349,48.999717],"type":"Point"},"properties":{"osm_id":"3770662671","tag":{"amenity":"recycling"}},"type":"Feature"},
	{"geometry":{"coordinates":[1.625473,49.033912],"type":"Point"},"properties":{"osm_id":"6683473765","tag":{"amenity":"recycling","recycling_type":"centre"}},"type":"Feature"},
	{"geometry":{"coordinates":[1.633071,49.03669],"type":"Point"},"properties":{"osm_id":"7418567994","tag":{"amenity":"waste_basket"}},"type":"Feature"}
]
}
