{
"type": "FeatureCollection",
"features": [
	{"geometry":{"coordinates":[1.622467,47.78563],"type":"Point"},"properties":{"osm_id":"3058039836","tag":{"amenity":"recycling","recycling:glass_bottles":"yes","recycling:newspaper":"yes","recycling:paper":"yes","recycling_type":"container"}},"type":"Feature"},
	{"geometry":{"coordinates":[1.624587,47.79803],"type":"Point"},"properties":{"osm_id":"3432197579","tag":{"amenity":"recycling","recycling:glass_bottles":"yes","recycling:newspaper":"yes","recycling:paper":"yes","recycling_type":"container"}},"type":"Feature"},
	{"geometry":{"coordinates":[1.620655,47.779531],"type":"Point"},"properties":{"osm_id":"3454549551","tag":{"amenity":"recycling","recycling_type":"container"}},"type":"Feature"},
	{"geometry":{"coordinates":[1.617099,47.781519],"type":"Point"},"properties":{"osm_id":"3454580433","tag":{"amenity":"recycling","recycling:clothes":"yes","recycling:glass_bottles":"yes","recycling:paper":"yes","recycling_type":"container"}},"type":"Feature"},
	{"geometry":{"coordinates":[1.629622,47.785047],"type":"Point"},"properties":{"osm_id":"3588592622","tag":{"amenity":"recycling","recycling:glass_bottles":"yes","recycling:newspaper":"yes","recycling:paper":"yes","recycling_type":"container"}},"type":"Feature"},
	{"geometry":{"coordinates":[1.636526,47.779703],"type":"Point"},"properties":{"osm_id":"3591971268","tag":{"amenity":"recycling","operator":"SMIRTOM de Beaugency","recycling:glass_bottles":"yes","recycling:paper":"yes","recycling_type":"container"}},"type":"Feature"},
	{"geometry":{"coordinates":[1.630457,47.774598],"type":"Point"},"properties":{"osm_id":"3717032466","tag":{"amenity":"recycling","operator":"SIRTOM de Beaugency","recycling:glass_bottles":"yes","recycling:paper":"yes","recycling_type":"container"}},"type":"Feature"},
	{"geometry":{"coordinates":[1.613316,47.766869],"type":"Point"},"properties":{"osm_id":"3996068991","tag":{"amenity":"recycling","operator":"Le Relais","recycling:clothes":"yes","recycling_type":"container"}},"type":"Feature"},
	{"geometry":{"coordinates":[1.63047,47.77461],"type":"Point"},"properties":{"osm_id":"3996087590","tag":{"amenity":"recycling","operator":"Le Relais","recycling:clothes":"yes","recycling_type":"container"}},"type":"Feature"},
	{"geometry":{"coordinates":[1.619544,47.771655],"type":"Point"},"properties":{"osm_id":"3996087591","tag":{"amenity":"recycling","operator":"SIRTOM de Beaugency","recycling:glass_bottles":"yes","recycling:paper":"yes","recycling_type":"container"}},"type":"Feature"},
	{"geometry":{"coordinates":[1.624559,47.771648],"type":"Point"},"properties":{"osm_id":"3996087592","tag":{"amenity":"recycling","operator":"SIRTOM de Beaugency","recycling:glass_bottles":"yes","recycling:paper":"yes","recycling_type":"container"}},"type":"Feature"},
	{"geometry":{"coordinates":[1.618474,47.785957],"type":"Point"},"properties":{"osm_id":"4024046045","tag":{"amenity":"recycling","recycling:glass_bottles":"yes","recycling:newspaper":"yes","recycling:paper":"yes","recycling_type":"container"}},"type":"Feature"},
	{"geometry":{"coordinates":[1.620365,47.781329],"type":"Point"},"properties":{"osm_id":"4024046046","tag":{"amenity":"recycling","operator":"Le Relais","recycling:clothes":"yes","recycling_type":"container"}},"type":"Feature"},
	{"geometry":{"coordinates":[1.603317,47.794427],"type":"Point"},"properties":{"osm_id":"4428047034","tag":{"amenity":"recycling","recycling:books":"yes","recycling:glass_bottles":"yes","recycling:magazines":"yes","recycling:newspaper":"yes","recycling_type":"container"}},"type":"Feature"},
	{"geometry":{"coordinates":[1.624796,47.78094],"type":"Point"},"properties":{"osm_id":"4847227963","tag":{"amenity":"recycling","recycling_type":"container"}},"type":"Feature"},
	{"geometry":{"coordinates":[1.593962,47.7945],"type":"Point"},"properties":{"osm_id":"5812130710","tag":{"amenity":"waste_basket"}},"type":"Feature"},
	{"geometry":{"coordinates":[1.628517,47.789423],"type":"Point"},"properties":{"osm_id":"5812439361","tag":{"amenity":"waste_basket"}},"type":"Feature"},
	{"geometry":{"coordinates":[1.615085,47.755436],"type":"Point"},"properties":{"osm_id":"5814469157","tag":{"amenity":"waste_basket"}},"type":"Feature"},
	{"geometry":{"coordinates":[1.6233,47.772761],"type":"Point"},"properties":{"osm_id":"5815100301","tag":{"amenity":"waste_basket"}},"type":"Feature"},
	{"geometry":{"coordinates":[1.63397,47.776152],"type":"Point"},"properties":{"osm_id":"5815365520","tag":{"amenity":"waste_basket"}},"type":"Feature"},
	{"geometry":{"coordinates":[1.634113,47.776502],"type":"Point"},"properties":{"osm_id":"5815365522","tag":{"amenity":"waste_basket"}},"type":"Feature"},
	{"geometry":{"coordinates":[1.633921,47.776271],"type":"Point"},"properties":{"osm_id":"5815365525","tag":{"amenity":"waste_basket"}},"type":"Feature"},
	{"geometry":{"coordinates":[1.622179,47.782234],"type":"Point"},"properties":{"osm_id":"5820046803","tag":{"amenity":"waste_basket"}},"type":"Feature"},
	{"geometry":{"coordinates":[1.62633,47.778627],"type":"Point"},"properties":{"osm_id":"5822934296","tag":{"amenity":"waste_basket"}},"type":"Feature"},
	{"geometry":{"coordinates":[1.646871,47.803521],"type":"Point"},"properties":{"osm_id":"5823530597","tag":{"amenity":"waste_basket"}},"type":"Feature"},
	{"geometry":{"coordinates":[1.63004,47.777554],"type":"Point"},"properties":{"osm_id":"6196211450","tag":{"amenity":"recycling","recycling_type":"container"}},"type":"Feature"}
]
}
