{
"type": "FeatureCollection",
"features": [
	{"geometry":{"coordinates":[-60.702348,-31.647975],"type":"Point"},"properties":{"osm_id":"4553061972","tag":{"amenity":"waste_basket"}},"type":"Feature"},
	{"geometry":{"coordinates":[-60.701674,-31.648123],"type":"Point"},"properties":{"osm_id":"4553061975","tag":{"amenity":"waste_basket"}},"type":"Feature"},
	{"geometry":{"coordinates":[-60.688978,-31.638612],"type":"Point"},"properties":{"osm_id":"6848874557","tag":{"amenity":"waste_basket","material":"metal"}},"type":"Feature"},
	{"geometry":{"coordinates":[-60.706918,-31.638255],"type":"Point"},"properties":{"osm_id":"6880173236","tag":{"amenity":"waste_disposal"}},"type":"Feature"},
	{"geometry":{"coordinates":[-60.714984,-31.63745],"type":"Point"},"properties":{"name":"Eco Store","osm_id":"6982909897","tag":{"addr:city":"Santa Fe","addr:housenumber":"3105","addr:postcode":"S3000","addr:street":"San Lorenzo","amenity":"recycling","description":"Punto de recolecci\u00c3\u00b3n EcoBotellas","opening_hours":"Mo-Fr 08:30-13:00,16:30-20:00","recycling:plastic":"yes","recycling:plastic_bottles":"yes","recycling:plastic_packaging":"yes","recycling_type":"centre"}},"type":"Feature"}
]
}
