{
"type": "FeatureCollection",
"lastupdate": "2020-08-05T00:00:00Z",
"features": [
	{"geometry":{"coordinates":[-60.712673,-32.927719],"type":"Point"},"properties":{"osm_id":"3495345695","tag":{"amenity":"waste_basket"}},"type":"Feature"},
	{"geometry":{"coordinates":[-60.675199,-32.934225],"type":"Point"},"properties":{"osm_id":"4047096956","tag":{"amenity":"waste_basket"}},"type":"Feature"},
	{"geometry":{"coordinates":[-60.674982,-32.934344],"type":"Point"},"properties":{"osm_id":"4047096963","tag":{"amenity":"waste_basket"}},"type":"Feature"},
	{"geometry":{"coordinates":[-60.712093,-32.940074],"type":"Point"},"properties":{"osm_id":"4453516895","tag":{"amenity":"waste_basket","colour":"black","material":"metal"}},"type":"Feature"},
	{"geometry":{"coordinates":[-60.711884,-32.940105],"type":"Point"},"properties":{"osm_id":"4453516896","tag":{"amenity":"waste_basket","colour":"black","material":"metal"}},"type":"Feature"},
	{"geometry":{"coordinates":[-60.685475,-32.971846],"type":"Point"},"properties":{"osm_id":"6331968141","tag":{"addr:housenumber":"3964","addr:street":"Bulevar Juan Francisco Segu\u00ed","amenity":"recycling","opening_hours":"Mo-Fr 08:00-16:00","recycling:cardboard":"yes","recycling:plastic_bottles":"yes","recycling:plastic_packaging":"yes","recycling_type":"centre"}},"type":"Feature"},
	{"geometry":{"coordinates":[-60.670265,-32.939655],"type":"Point"},"properties":{"osm_id":"7351554515","tag":{"amenity":"recycling","recycling:clothes":"yes","recycling:cooking_oil":"yes","recycling:fluorescent_tubes":"yes","recycling:light_bulbs":"yes","recycling_type":"container"}},"type":"Feature"}
]
}
