{
"type": "FeatureCollection",
"features": [
	{"geometry":{"coordinates":[18.27011,50.665708],"type":"Point"},"properties":{"osm_id":"5502247224","tag":{"amenity":"waste_basket","backrest":"yes","leisure":"picnic_table"}},"type":"Feature"},
	{"geometry":{"coordinates":[18.26829,50.666075],"type":"Point"},"properties":{"osm_id":"5502247225","tag":{"amenity":"waste_basket"}},"type":"Feature"},
	{"geometry":{"coordinates":[18.267552,50.666005],"type":"Point"},"properties":{"osm_id":"5502247226","tag":{"amenity":"waste_basket","leisure":"picnic_table"}},"type":"Feature"},
	{"geometry":{"coordinates":[18.267775,50.664525],"type":"Point"},"properties":{"osm_id":"5502247227","tag":{"amenity":"waste_basket"}},"type":"Feature"},
	{"geometry":{"coordinates":[18.268323,50.66444],"type":"Point"},"properties":{"osm_id":"5502247230","tag":{"amenity":"waste_basket"}},"type":"Feature"},
	{"geometry":{"coordinates":[18.268112,50.664665],"type":"Point"},"properties":{"osm_id":"5502247231","tag":{"amenity":"waste_basket"}},"type":"Feature"},
	{"geometry":{"coordinates":[18.268869,50.664193],"type":"Point"},"properties":{"osm_id":"5502247232","tag":{"amenity":"waste_basket"}},"type":"Feature"},
	{"geometry":{"coordinates":[18.268527,50.663305],"type":"Point"},"properties":{"osm_id":"5502247233","tag":{"amenity":"waste_basket"}},"type":"Feature"},
	{"geometry":{"coordinates":[18.267234,50.661997],"type":"Point"},"properties":{"osm_id":"5502247234","tag":{"amenity":"waste_basket"}},"type":"Feature"},
	{"geometry":{"coordinates":[18.267194,50.661893],"type":"Point"},"properties":{"osm_id":"5502247235","tag":{"amenity":"waste_basket"}},"type":"Feature"},
	{"geometry":{"coordinates":[18.267348,50.660347],"type":"Point"},"properties":{"osm_id":"5502247236","tag":{"amenity":"waste_basket"}},"type":"Feature"},
	{"geometry":{"coordinates":[18.254445,50.651042],"type":"Point"},"properties":{"osm_id":"5502248400","tag":{"amenity":"waste_basket"}},"type":"Feature"},
	{"geometry":{"coordinates":[18.248588,50.670645],"type":"Point"},"properties":{"osm_id":"5913553173","tag":{"amenity":"waste_basket"}},"type":"Feature"},
	{"geometry":{"coordinates":[18.248327,50.671068],"type":"Point"},"properties":{"osm_id":"5913553174","tag":{"amenity":"waste_basket"}},"type":"Feature"},
	{"geometry":{"coordinates":[18.248543,50.669854],"type":"Point"},"properties":{"osm_id":"5915590012","tag":{"amenity":"waste_basket"}},"type":"Feature"},
	{"geometry":{"coordinates":[18.24839,50.670651],"type":"Point"},"properties":{"osm_id":"5915590018","tag":{"amenity":"waste_basket"}},"type":"Feature"},
	{"geometry":{"coordinates":[18.248452,50.668626],"type":"Point"},"properties":{"osm_id":"5915680188","tag":{"amenity":"waste_basket"}},"type":"Feature"}
]
}
