{
"type": "FeatureCollection",
"features": [
	{"geometry":{"coordinates":[18.195569,49.885578],"type":"Point"},"properties":{"name":"Kompost\u00c3\u00a1rna","osm_id":"921102393","tag":{"amenity":"recycling"}},"type":"Feature"},
	{"geometry":{"coordinates":[18.210745,49.844955],"type":"Point"},"properties":{"osm_id":"2904930615","tag":{"amenity":"waste_basket"}},"type":"Feature"},
	{"geometry":{"coordinates":[18.269274,49.867029],"type":"Point"},"properties":{"osm_id":"3182644320","tag":{"amenity":"waste_basket"}},"type":"Feature"},
	{"geometry":{"coordinates":[18.271717,49.868068],"type":"Point"},"properties":{"osm_id":"3182644333","tag":{"amenity":"waste_basket"}},"type":"Feature"},
	{"geometry":{"coordinates":[18.193952,49.89221],"type":"Point"},"properties":{"osm_id":"3469567121","tag":{"amenity":"recycling"}},"type":"Feature"},
	{"geometry":{"coordinates":[18.193996,49.892191],"type":"Point"},"properties":{"osm_id":"3469567122","tag":{"amenity":"waste_basket"}},"type":"Feature"},
	{"geometry":{"coordinates":[18.195072,49.891426],"type":"Point"},"properties":{"osm_id":"3469567123","tag":{"amenity":"waste_basket"}},"type":"Feature"},
	{"geometry":{"coordinates":[18.195282,49.891666],"type":"Point"},"properties":{"osm_id":"3469567136","tag":{"amenity":"recycling"}},"type":"Feature"},
	{"geometry":{"coordinates":[18.195221,49.891615],"type":"Point"},"properties":{"osm_id":"3469567137","tag":{"amenity":"waste_basket"}},"type":"Feature"},
	{"geometry":{"coordinates":[18.19459,49.89106],"type":"Point"},"properties":{"osm_id":"3469603498","tag":{"amenity":"waste_basket"}},"type":"Feature"},
	{"geometry":{"coordinates":[18.194147,49.890795],"type":"Point"},"properties":{"osm_id":"3469603533","tag":{"amenity":"waste_basket"}},"type":"Feature"},
	{"geometry":{"coordinates":[18.194523,49.893868],"type":"Point"},"properties":{"osm_id":"3566420675","tag":{"amenity":"recycling"}},"type":"Feature"},
	{"geometry":{"coordinates":[18.272852,49.867676],"type":"Point"},"properties":{"osm_id":"4239926366","tag":{"amenity":"waste_basket"}},"type":"Feature"},
	{"geometry":{"coordinates":[18.2742,49.868797],"type":"Point"},"properties":{"osm_id":"4239926401","tag":{"amenity":"waste_basket"}},"type":"Feature"},
	{"geometry":{"coordinates":[18.265474,49.870318],"type":"Point"},"properties":{"osm_id":"4239926410","tag":{"amenity":"waste_basket"}},"type":"Feature"},
	{"geometry":{"coordinates":[18.240301,49.891007],"type":"Point"},"properties":{"osm_id":"4800653224","tag":{"amenity":"waste_disposal"}},"type":"Feature"},
	{"geometry":{"coordinates":[18.242164,49.878075],"type":"Point"},"properties":{"osm_id":"4988898530","tag":{"amenity":"waste_disposal"}},"type":"Feature"},
	{"geometry":{"coordinates":[18.245922,49.880226],"type":"Point"},"properties":{"osm_id":"4988915921","tag":{"amenity":"waste_basket"}},"type":"Feature"},
	{"geometry":{"coordinates":[18.249832,49.878947],"type":"Point"},"properties":{"osm_id":"4988916121","tag":{"amenity":"waste_disposal"}},"type":"Feature"},
	{"geometry":{"coordinates":[18.280033,49.869729],"type":"Point"},"properties":{"osm_id":"7663225093","tag":{"amenity":"waste_basket"}},"type":"Feature"}
]
}
