{
"type": "FeatureCollection",
"features": [
	{"geometry":{"coordinates":[18.253,46.091844],"type":"Point"},"properties":{"osm_id":"660114901","tag":{"amenity":"recycling"}},"type":"Feature"},
	{"geometry":{"coordinates":[18.250661,46.081426],"type":"Point"},"properties":{"osm_id":"660114903","tag":{"amenity":"recycling"}},"type":"Feature"},
	{"geometry":{"coordinates":[18.202984,46.075217],"type":"Point"},"properties":{"osm_id":"2525173321","tag":{"amenity":"recycling","recycling_type":"container"}},"type":"Feature"},
	{"geometry":{"coordinates":[18.2054,46.075998],"type":"Point"},"properties":{"osm_id":"2525173565","tag":{"amenity":"waste_basket"}},"type":"Feature"},
	{"geometry":{"coordinates":[18.211412,46.075751],"type":"Point"},"properties":{"name":"szelekt\u00c3\u00adv kuka","osm_id":"3063904336","tag":{"amenity":"recycling","recycling_type":"container"}},"type":"Feature"},
	{"geometry":{"coordinates":[18.269652,46.085682],"type":"Point"},"properties":{"osm_id":"3181902492","tag":{"amenity":"recycling"}},"type":"Feature"},
	{"geometry":{"coordinates":[18.269642,46.085693],"type":"Point"},"properties":{"osm_id":"3181902493","tag":{"amenity":"recycling"}},"type":"Feature"},
	{"geometry":{"coordinates":[18.269647,46.085687],"type":"Point"},"properties":{"osm_id":"3181903962","tag":{"amenity":"recycling"}},"type":"Feature"},
	{"geometry":{"coordinates":[18.24846,46.083771],"type":"Point"},"properties":{"osm_id":"3195927823","tag":{"amenity":"recycling","recycling:glass":"yes","recycling_type":"container"}},"type":"Feature"},
	{"geometry":{"coordinates":[18.237082,46.087976],"type":"Point"},"properties":{"osm_id":"3440860432","tag":{"amenity":"recycling","source:date":"2012-01-19","url":"http://turistautak.hu/poi.php?id=132403"}},"type":"Feature"},
	{"geometry":{"coordinates":[18.203705,46.094093],"type":"Point"},"properties":{"osm_id":"3440860465","tag":{"amenity":"recycling","source:date":"2015-01-12","url":"http://turistautak.hu/poi.php?id=153497"}},"type":"Feature"},
	{"geometry":{"coordinates":[18.26466,46.09541],"type":"Point"},"properties":{"osm_id":"3440860468","tag":{"amenity":"recycling","source:date":"2011-09-08","url":"http://turistautak.hu/poi.php?id=2832"}},"type":"Feature"},
	{"geometry":{"coordinates":[18.2643,46.09805],"type":"Point"},"properties":{"osm_id":"3440860475","tag":{"amenity":"recycling","source:date":"2011-09-08","url":"http://turistautak.hu/poi.php?id=2831"}},"type":"Feature"},
	{"geometry":{"coordinates":[18.26361,46.09981],"type":"Point"},"properties":{"osm_id":"3440860483","tag":{"amenity":"recycling","source:date":"2011-09-08","url":"http://turistautak.hu/poi.php?id=2830"}},"type":"Feature"},
	{"geometry":{"coordinates":[18.209834,46.075233],"type":"Point"},"properties":{"osm_id":"3440860513","tag":{"amenity":"recycling","description":"A Budai Nagy Antal utca OTP fi\u00c3\u00b3khoz k\u00c3\u00b6zelebbi v\u00c3\u00a9ge fel\u00c3\u00a9 tal\u00c3\u00a1lhat\u00c3\u00b3 ez a 3 r\u00c3\u00a9szb\u00c5\u0091l (pap\u00c3\u00adr, m\u00c5\u00b1anyag, \u00c3\u00bcveg) \u00c3\u00a1ll\u00c3\u00b3 gy\u00c5\u00b1jt\u00c5\u0091.","source:date":"2011-09-08","url":"http://turistautak.hu/poi.php?id=6058"}},"type":"Feature"},
	{"geometry":{"coordinates":[18.236383,46.075483],"type":"Point"},"properties":{"osm_id":"3440860515","tag":{"amenity":"recycling","source:date":"2011-09-08","url":"http://turistautak.hu/poi.php?id=8457"}},"type":"Feature"},
	{"geometry":{"coordinates":[18.237217,46.078217],"type":"Point"},"properties":{"osm_id":"3440860527","tag":{"amenity":"recycling","source:date":"2011-09-08","url":"http://turistautak.hu/poi.php?id=8456"}},"type":"Feature"},
	{"geometry":{"coordinates":[18.2194,46.07862],"type":"Point"},"properties":{"osm_id":"3440860529","tag":{"amenity":"recycling","source:date":"2011-09-08","url":"http://turistautak.hu/poi.php?id=23800"}},"type":"Feature"},
	{"geometry":{"coordinates":[18.2407,46.080236],"type":"Point"},"properties":{"osm_id":"3440860535","tag":{"amenity":"recycling","source:date":"2013-03-12","url":"http://turistautak.hu/poi.php?id=151557"}},"type":"Feature"},
	{"geometry":{"coordinates":[18.2179,46.081133],"type":"Point"},"properties":{"osm_id":"3440860536","tag":{"addr:city":"P\u00c3\u00a9cs","addr:housenumber":"19","addr:postcode":"7624","addr:street":"Szegf\u00c5\u00b1 utca","amenity":"recycling","source:date":"2011-09-08","url":"http://turistautak.hu/poi.php?id=76471"}},"type":"Feature"},
	{"geometry":{"coordinates":[18.210545,46.082458],"type":"Point"},"properties":{"osm_id":"3440860537","tag":{"amenity":"recycling","source:date":"2011-09-08","url":"http://turistautak.hu/poi.php?id=4010"}},"type":"Feature"},
	{"geometry":{"coordinates":[18.24684,46.084941],"type":"Point"},"properties":{"osm_id":"3440860541","tag":{"amenity":"recycling","source:date":"2013-10-01","url":"http://turistautak.hu/poi.php?id=160100"}},"type":"Feature"},
	{"geometry":{"coordinates":[18.229947,46.08507],"type":"Point"},"properties":{"osm_id":"3440860542","tag":{"amenity":"recycling","source:date":"2011-09-08","url":"http://turistautak.hu/poi.php?id=19346"}},"type":"Feature"},
	{"geometry":{"coordinates":[18.22574,46.0861],"type":"Point"},"properties":{"osm_id":"3440860544","tag":{"amenity":"recycling","source:date":"2011-09-08","url":"http://turistautak.hu/poi.php?id=19347"}},"type":"Feature"},
	{"geometry":{"coordinates":[18.261814,46.11517],"type":"Point"},"properties":{"osm_id":"3440860619","tag":{"amenity":"recycling","source:date":"2012-12-26","url":"http://turistautak.hu/poi.php?id=148884"}},"type":"Feature"},
	{"geometry":{"coordinates":[18.199622,46.073337],"type":"Point"},"properties":{"osm_id":"3794249879","tag":{"amenity":"recycling","recycling_type":"container"}},"type":"Feature"},
	{"geometry":{"coordinates":[18.210571,46.082188],"type":"Point"},"properties":{"osm_id":"4163942149","tag":{"amenity":"recycling","recycling:glass":"yes","recycling:paper":"yes","recycling:plastic":"yes","recycling_type":"container"}},"type":"Feature"},
	{"geometry":{"coordinates":[18.228317,46.07639],"type":"Point"},"properties":{"osm_id":"4852347548","tag":{"amenity":"waste_basket"}},"type":"Feature"},
	{"geometry":{"coordinates":[18.226506,46.124077],"type":"Point"},"properties":{"osm_id":"4946997722","tag":{"amenity":"waste_basket"}},"type":"Feature"},
	{"geometry":{"coordinates":[18.216317,46.099072],"type":"Point"},"properties":{"osm_id":"5366510037","tag":{"amenity":"waste_basket"}},"type":"Feature"},
	{"geometry":{"coordinates":[18.215852,46.099743],"type":"Point"},"properties":{"osm_id":"5366510041","tag":{"amenity":"waste_basket"}},"type":"Feature"},
	{"geometry":{"coordinates":[18.215691,46.099698],"type":"Point"},"properties":{"osm_id":"5366510042","tag":{"amenity":"waste_basket"}},"type":"Feature"},
	{"geometry":{"coordinates":[18.221454,46.077913],"type":"Point"},"properties":{"osm_id":"5887687523","tag":{"amenity":"waste_basket"}},"type":"Feature"},
	{"geometry":{"coordinates":[18.225848,46.078537],"type":"Point"},"properties":{"osm_id":"5888031971","tag":{"amenity":"waste_basket"}},"type":"Feature"},
	{"geometry":{"coordinates":[18.26157,46.08656],"type":"Point"},"properties":{"osm_id":"5888592143","tag":{"amenity":"recycling","recycling_type":"container"}},"type":"Feature"},
	{"geometry":{"coordinates":[18.237464,46.132942],"type":"Point"},"properties":{"osm_id":"5896081395","tag":{"amenity":"waste_basket"}},"type":"Feature"},
	{"geometry":{"coordinates":[18.215109,46.114486],"type":"Point"},"properties":{"osm_id":"5896081399","tag":{"amenity":"waste_basket"}},"type":"Feature"},
	{"geometry":{"coordinates":[18.21509,46.114537],"type":"Point"},"properties":{"osm_id":"5896082005","tag":{"amenity":"waste_basket"}},"type":"Feature"},
	{"geometry":{"coordinates":[18.220666,46.125143],"type":"Point"},"properties":{"osm_id":"5896082145","tag":{"amenity":"waste_basket"}},"type":"Feature"},
	{"geometry":{"coordinates":[18.202493,46.109291],"type":"Point"},"properties":{"osm_id":"5896264488","tag":{"amenity":"waste_basket"}},"type":"Feature"},
	{"geometry":{"coordinates":[18.202461,46.109309],"type":"Point"},"properties":{"osm_id":"5896264489","tag":{"amenity":"waste_basket"}},"type":"Feature"},
	{"geometry":{"coordinates":[18.202451,46.109293],"type":"Point"},"properties":{"osm_id":"5896265156","tag":{"amenity":"waste_basket"}},"type":"Feature"},
	{"geometry":{"coordinates":[18.198763,46.112288],"type":"Point"},"properties":{"osm_id":"5896265232","tag":{"amenity":"waste_basket"}},"type":"Feature"},
	{"geometry":{"coordinates":[18.215924,46.099289],"type":"Point"},"properties":{"osm_id":"5896508207","tag":{"amenity":"waste_basket"}},"type":"Feature"},
	{"geometry":{"coordinates":[18.216357,46.088497],"type":"Point"},"properties":{"osm_id":"5896508661","tag":{"amenity":"waste_basket"}},"type":"Feature"},
	{"geometry":{"coordinates":[18.227546,46.077051],"type":"Point"},"properties":{"osm_id":"5896508667","tag":{"amenity":"waste_basket"}},"type":"Feature"},
	{"geometry":{"coordinates":[18.232257,46.076792],"type":"Point"},"properties":{"osm_id":"5896642709","tag":{"amenity":"waste_basket"}},"type":"Feature"},
	{"geometry":{"coordinates":[18.242062,46.098381],"type":"Point"},"properties":{"osm_id":"6095992147","tag":{"amenity":"waste_basket","waste":"trash"}},"type":"Feature"},
	{"geometry":{"coordinates":[18.217667,46.10373],"type":"Point"},"properties":{"osm_id":"6150593934","tag":{"amenity":"waste_basket","waste":"trash"}},"type":"Feature"},
	{"geometry":{"coordinates":[18.217462,46.103839],"type":"Point"},"properties":{"osm_id":"6150593938","tag":{"amenity":"waste_basket","waste":"trash"}},"type":"Feature"},
	{"geometry":{"coordinates":[18.217356,46.104194],"type":"Point"},"properties":{"osm_id":"6150593940","tag":{"amenity":"waste_basket","waste":"trash"}},"type":"Feature"},
	{"geometry":{"coordinates":[18.217963,46.104264],"type":"Point"},"properties":{"osm_id":"6150593948","tag":{"amenity":"waste_basket","waste":"trash"}},"type":"Feature"},
	{"geometry":{"coordinates":[18.20998,46.101948],"type":"Point"},"properties":{"osm_id":"6152226541","tag":{"amenity":"waste_basket","waste":"trash"}},"type":"Feature"},
	{"geometry":{"coordinates":[18.205476,46.099188],"type":"Point"},"properties":{"osm_id":"6277915540","tag":{"amenity":"waste_basket","waste":"trash"}},"type":"Feature"},
	{"geometry":{"coordinates":[18.205852,46.099074],"type":"Point"},"properties":{"osm_id":"6277915542","tag":{"amenity":"waste_basket","waste":"trash"}},"type":"Feature"},
	{"geometry":{"coordinates":[18.206935,46.098549],"type":"Point"},"properties":{"osm_id":"6277915545","tag":{"amenity":"waste_basket","waste":"trash"}},"type":"Feature"},
	{"geometry":{"coordinates":[18.207516,46.09826],"type":"Point"},"properties":{"osm_id":"6277915547","tag":{"amenity":"waste_basket","waste":"trash"}},"type":"Feature"},
	{"geometry":{"coordinates":[18.250324,46.079934],"type":"Point"},"properties":{"name":"Szelekt\u00c3\u00adv hullad\u00c3\u00a9kgy\u00c5\u00b1jt\u00c5\u0091","osm_id":"6327957972","tag":{"amenity":"recycling","recycling_type":"container"}},"type":"Feature"},
	{"geometry":{"coordinates":[18.222133,46.079056],"type":"Point"},"properties":{"osm_id":"6370797404","tag":{"amenity":"waste_basket","waste":"trash"}},"type":"Feature"},
	{"geometry":{"coordinates":[18.223644,46.079092],"type":"Point"},"properties":{"osm_id":"6370797464","tag":{"amenity":"waste_basket","waste":"trash"}},"type":"Feature"},
	{"geometry":{"coordinates":[18.239626,46.073841],"type":"Point"},"properties":{"osm_id":"6398578276","tag":{"amenity":"recycling","recycling_type":"container"}},"type":"Feature"},
	{"geometry":{"coordinates":[18.239617,46.073941],"type":"Point"},"properties":{"osm_id":"6398578449","tag":{"amenity":"waste_basket"}},"type":"Feature"},
	{"geometry":{"coordinates":[18.239291,46.074101],"type":"Point"},"properties":{"osm_id":"6398578450","tag":{"amenity":"waste_basket"}},"type":"Feature"},
	{"geometry":{"coordinates":[18.238828,46.074067],"type":"Point"},"properties":{"osm_id":"6398578458","tag":{"amenity":"waste_basket"}},"type":"Feature"},
	{"geometry":{"coordinates":[18.238834,46.074328],"type":"Point"},"properties":{"osm_id":"6398578459","tag":{"amenity":"waste_basket"}},"type":"Feature"},
	{"geometry":{"coordinates":[18.211932,46.073781],"type":"Point"},"properties":{"osm_id":"6420154533","tag":{"amenity":"waste_basket"}},"type":"Feature"},
	{"geometry":{"coordinates":[18.213814,46.075149],"type":"Point"},"properties":{"osm_id":"6420292032","tag":{"amenity":"recycling","recycling_type":"container"}},"type":"Feature"},
	{"geometry":{"coordinates":[18.221261,46.074114],"type":"Point"},"properties":{"osm_id":"6459289563","tag":{"amenity":"waste_basket"}},"type":"Feature"},
	{"geometry":{"coordinates":[18.233951,46.078408],"type":"Point"},"properties":{"osm_id":"6466190302","tag":{"amenity":"waste_basket"}},"type":"Feature"},
	{"geometry":{"coordinates":[18.218929,46.078182],"type":"Point"},"properties":{"osm_id":"6466633903","tag":{"amenity":"recycling","recycling_type":"container"}},"type":"Feature"},
	{"geometry":{"coordinates":[18.217802,46.078024],"type":"Point"},"properties":{"osm_id":"6466633914","tag":{"amenity":"recycling","recycling_type":"container"}},"type":"Feature"},
	{"geometry":{"coordinates":[18.214911,46.076951],"type":"Point"},"properties":{"osm_id":"6466926281","tag":{"amenity":"waste_basket"}},"type":"Feature"},
	{"geometry":{"coordinates":[18.218877,46.078902],"type":"Point"},"properties":{"osm_id":"6469922218","tag":{"amenity":"recycling","recycling_type":"container"}},"type":"Feature"},
	{"geometry":{"coordinates":[18.214486,46.081685],"type":"Point"},"properties":{"osm_id":"6470089126","tag":{"amenity":"recycling","recycling_type":"container"}},"type":"Feature"},
	{"geometry":{"coordinates":[18.214271,46.081681],"type":"Point"},"properties":{"osm_id":"6470089127","tag":{"amenity":"recycling","recycling_type":"container"}},"type":"Feature"},
	{"geometry":{"coordinates":[18.208824,46.073635],"type":"Point"},"properties":{"osm_id":"6476291881","tag":{"amenity":"recycling","recycling_type":"container"}},"type":"Feature"},
	{"geometry":{"coordinates":[18.208393,46.073622],"type":"Point"},"properties":{"osm_id":"6476291889","tag":{"amenity":"recycling","recycling_type":"container"}},"type":"Feature"},
	{"geometry":{"coordinates":[18.215193,46.076905],"type":"Point"},"properties":{"osm_id":"6478247964","tag":{"amenity":"waste_basket"}},"type":"Feature"},
	{"geometry":{"coordinates":[18.213102,46.076443],"type":"Point"},"properties":{"osm_id":"6481601963","tag":{"amenity":"recycling","recycling_type":"container"}},"type":"Feature"},
	{"geometry":{"coordinates":[18.214244,46.076887],"type":"Point"},"properties":{"osm_id":"6481602032","tag":{"amenity":"waste_basket"}},"type":"Feature"},
	{"geometry":{"coordinates":[18.213613,46.08367],"type":"Point"},"properties":{"osm_id":"6490478810","tag":{"amenity":"recycling","recycling_type":"container"}},"type":"Feature"},
	{"geometry":{"coordinates":[18.213198,46.083642],"type":"Point"},"properties":{"osm_id":"6490478811","tag":{"amenity":"recycling","recycling_type":"container"}},"type":"Feature"},
	{"geometry":{"coordinates":[18.212811,46.083647],"type":"Point"},"properties":{"osm_id":"6490478892","tag":{"amenity":"recycling","recycling_type":"container"}},"type":"Feature"},
	{"geometry":{"coordinates":[18.211458,46.083728],"type":"Point"},"properties":{"osm_id":"6490478910","tag":{"amenity":"waste_basket"}},"type":"Feature"},
	{"geometry":{"coordinates":[18.21239,46.082601],"type":"Point"},"properties":{"osm_id":"6490816275","tag":{"amenity":"recycling","recycling_type":"container"}},"type":"Feature"},
	{"geometry":{"coordinates":[18.213408,46.082596],"type":"Point"},"properties":{"osm_id":"6490822186","tag":{"amenity":"recycling","recycling_type":"container"}},"type":"Feature"},
	{"geometry":{"coordinates":[18.21416,46.082726],"type":"Point"},"properties":{"osm_id":"6535761900","tag":{"amenity":"recycling","recycling_type":"container"}},"type":"Feature"},
	{"geometry":{"coordinates":[18.236513,46.087554],"type":"Point"},"properties":{"osm_id":"7252801129","tag":{"amenity":"waste_basket"}},"type":"Feature"},
	{"geometry":{"coordinates":[18.236659,46.087412],"type":"Point"},"properties":{"osm_id":"7252801130","tag":{"amenity":"waste_basket"}},"type":"Feature"},
	{"geometry":{"coordinates":[18.235423,46.086856],"type":"Point"},"properties":{"osm_id":"7252801187","tag":{"amenity":"waste_basket"}},"type":"Feature"},
	{"geometry":{"coordinates":[18.213462,46.073603],"type":"Point"},"properties":{"osm_id":"7288596962","tag":{"amenity":"waste_basket","waste":"trash"}},"type":"Feature"},
	{"geometry":{"coordinates":[18.213149,46.073238],"type":"Point"},"properties":{"osm_id":"7288597315","tag":{"amenity":"waste_basket","waste":"trash"}},"type":"Feature"},
	{"geometry":{"coordinates":[18.212969,46.073498],"type":"Point"},"properties":{"osm_id":"7288597322","tag":{"amenity":"waste_basket","waste":"trash"}},"type":"Feature"},
	{"geometry":{"coordinates":[18.234875,46.089319],"type":"Point"},"properties":{"osm_id":"7453626991","tag":{"amenity":"waste_basket","waste":"trash"}},"type":"Feature"},
	{"geometry":{"coordinates":[18.235096,46.089217],"type":"Point"},"properties":{"osm_id":"7453626998","tag":{"amenity":"waste_basket","waste":"trash"}},"type":"Feature"},
	{"geometry":{"coordinates":[18.235555,46.089228],"type":"Point"},"properties":{"osm_id":"7453626999","tag":{"amenity":"waste_basket","waste":"trash"}},"type":"Feature"},
	{"geometry":{"coordinates":[18.237059,46.088356],"type":"Point"},"properties":{"osm_id":"7463728606","tag":{"amenity":"waste_basket","waste":"dog_excrement"}},"type":"Feature"},
	{"geometry":{"coordinates":[18.237094,46.088375],"type":"Point"},"properties":{"osm_id":"7463728607","tag":{"amenity":"waste_basket"}},"type":"Feature"},
	{"geometry":{"coordinates":[18.226849,46.093697],"type":"Point"},"properties":{"osm_id":"7463962966","tag":{"amenity":"waste_basket","waste":"trash"}},"type":"Feature"},
	{"geometry":{"coordinates":[18.225672,46.09343],"type":"Point"},"properties":{"osm_id":"7463962968","tag":{"amenity":"waste_basket","waste":"trash"}},"type":"Feature"},
	{"geometry":{"coordinates":[18.226469,46.093627],"type":"Point"},"properties":{"osm_id":"7464036002","tag":{"amenity":"waste_basket","waste":"trash"}},"type":"Feature"},
	{"geometry":{"coordinates":[18.227265,46.094009],"type":"Point"},"properties":{"osm_id":"7464036011","tag":{"amenity":"waste_basket","waste":"trash"}},"type":"Feature"},
	{"geometry":{"coordinates":[18.227435,46.094758],"type":"Point"},"properties":{"osm_id":"7464036013","tag":{"amenity":"waste_basket","waste":"trash"}},"type":"Feature"},
	{"geometry":{"coordinates":[18.22831,46.095707],"type":"Point"},"properties":{"osm_id":"7464036024","tag":{"amenity":"waste_basket","waste":"trash"}},"type":"Feature"},
	{"geometry":{"coordinates":[18.230919,46.099621],"type":"Point"},"properties":{"osm_id":"7464036037","tag":{"amenity":"waste_basket"}},"type":"Feature"},
	{"geometry":{"coordinates":[18.224331,46.077962],"type":"Point"},"properties":{"osm_id":"7475881619","tag":{"amenity":"waste_basket"}},"type":"Feature"},
	{"geometry":{"coordinates":[18.22412,46.077981],"type":"Point"},"properties":{"osm_id":"7475881628","tag":{"amenity":"waste_basket"}},"type":"Feature"},
	{"geometry":{"coordinates":[18.237848,46.083909],"type":"Point"},"properties":{"osm_id":"7504709765","tag":{"amenity":"waste_basket","waste":"trash"}},"type":"Feature"},
	{"geometry":{"coordinates":[18.238129,46.083215],"type":"Point"},"properties":{"osm_id":"7504826897","tag":{"amenity":"waste_basket","waste":"trash"}},"type":"Feature"},
	{"geometry":{"coordinates":[18.237787,46.08346],"type":"Point"},"properties":{"osm_id":"7504826905","tag":{"amenity":"waste_basket","waste":"trash"}},"type":"Feature"},
	{"geometry":{"coordinates":[18.238494,46.083271],"type":"Point"},"properties":{"osm_id":"7504826912","tag":{"amenity":"waste_basket","waste":"trash"}},"type":"Feature"},
	{"geometry":{"coordinates":[18.238154,46.08632],"type":"Point"},"properties":{"osm_id":"7504826939","tag":{"amenity":"recycling","recycling:glass":"yes","recycling:paper":"yes","recycling:plastic":"yes","recycling_type":"container"}},"type":"Feature"},
	{"geometry":{"coordinates":[18.245463,46.076295],"type":"Point"},"properties":{"osm_id":"7526504147","tag":{"amenity":"waste_basket","waste":"trash"}},"type":"Feature"},
	{"geometry":{"coordinates":[18.246402,46.076577],"type":"Point"},"properties":{"osm_id":"7526504171","tag":{"amenity":"waste_basket","waste":"trash"}},"type":"Feature"},
	{"geometry":{"coordinates":[18.24734,46.07692],"type":"Point"},"properties":{"osm_id":"7526505514","tag":{"amenity":"waste_basket","waste":"trash"}},"type":"Feature"},
	{"geometry":{"coordinates":[18.246012,46.076605],"type":"Point"},"properties":{"osm_id":"7526505521","tag":{"amenity":"waste_basket","waste":"trash"}},"type":"Feature"},
	{"geometry":{"coordinates":[18.245177,46.07634],"type":"Point"},"properties":{"osm_id":"7526505552","tag":{"amenity":"waste_basket","waste":"trash"}},"type":"Feature"},
	{"geometry":{"coordinates":[18.244708,46.076219],"type":"Point"},"properties":{"osm_id":"7526505571","tag":{"amenity":"waste_basket","waste":"trash"}},"type":"Feature"},
	{"geometry":{"coordinates":[18.244138,46.075873],"type":"Point"},"properties":{"osm_id":"7526505579","tag":{"amenity":"waste_basket","waste":"trash"}},"type":"Feature"},
	{"geometry":{"coordinates":[18.244346,46.075597],"type":"Point"},"properties":{"osm_id":"7526505587","tag":{"amenity":"waste_basket","waste":"trash"}},"type":"Feature"},
	{"geometry":{"coordinates":[18.243945,46.075434],"type":"Point"},"properties":{"osm_id":"7526505590","tag":{"amenity":"waste_basket","waste":"trash"}},"type":"Feature"},
	{"geometry":{"coordinates":[18.244597,46.07485],"type":"Point"},"properties":{"osm_id":"7526505596","tag":{"amenity":"waste_basket","waste":"trash"}},"type":"Feature"},
	{"geometry":{"coordinates":[18.245071,46.075023],"type":"Point"},"properties":{"osm_id":"7526505597","tag":{"amenity":"waste_basket","waste":"trash"}},"type":"Feature"},
	{"geometry":{"coordinates":[18.24523,46.075625],"type":"Point"},"properties":{"osm_id":"7526505604","tag":{"amenity":"waste_basket","waste":"trash"}},"type":"Feature"},
	{"geometry":{"coordinates":[18.245859,46.075418],"type":"Point"},"properties":{"osm_id":"7526568770","tag":{"amenity":"waste_basket","waste":"trash"}},"type":"Feature"},
	{"geometry":{"coordinates":[18.245789,46.075763],"type":"Point"},"properties":{"osm_id":"7526592138","tag":{"amenity":"waste_basket","waste":"trash"}},"type":"Feature"},
	{"geometry":{"coordinates":[18.246086,46.075718],"type":"Point"},"properties":{"osm_id":"7526612604","tag":{"amenity":"waste_basket","waste":"trash"}},"type":"Feature"},
	{"geometry":{"coordinates":[18.246443,46.075881],"type":"Point"},"properties":{"osm_id":"7526612619","tag":{"amenity":"waste_basket","waste":"trash"}},"type":"Feature"},
	{"geometry":{"coordinates":[18.235557,46.087709],"type":"Point"},"properties":{"osm_id":"7548990927","tag":{"amenity":"waste_basket","waste":"dog_excrement"}},"type":"Feature"},
	{"geometry":{"coordinates":[18.211258,46.075722],"type":"Point"},"properties":{"name":"szelekt\u00c3\u00adv kuka","osm_id":"7593048771","tag":{"amenity":"recycling","recycling_type":"container"}},"type":"Feature"},
	{"geometry":{"coordinates":[18.212907,46.075503],"type":"Point"},"properties":{"osm_id":"7593072392","tag":{"amenity":"waste_basket","waste":"trash"}},"type":"Feature"},
	{"geometry":{"coordinates":[18.226615,46.076337],"type":"Point"},"properties":{"osm_id":"7814819927","tag":{"amenity":"waste_basket"}},"type":"Feature"},
	{"geometry":{"coordinates":[18.225835,46.076596],"type":"Point"},"properties":{"osm_id":"7814819928","tag":{"amenity":"waste_basket"}},"type":"Feature"}
]
}
