{
"type": "FeatureCollection",
"features": [
	{"geometry":{"coordinates":[18.213763,46.043035],"type":"Point"},"properties":{"osm_id":"518587077","tag":{"amenity":"recycling"}},"type":"Feature"},
	{"geometry":{"coordinates":[18.213021,46.045145],"type":"Point"},"properties":{"osm_id":"518587590","tag":{"amenity":"recycling"}},"type":"Feature"},
	{"geometry":{"coordinates":[18.216469,46.04342],"type":"Point"},"properties":{"osm_id":"586764750","tag":{"amenity":"recycling","recycling_type":"container"}},"type":"Feature"},
	{"geometry":{"coordinates":[18.215068,46.044579],"type":"Point"},"properties":{"osm_id":"586764947","tag":{"amenity":"recycling"}},"type":"Feature"},
	{"geometry":{"coordinates":[18.218536,46.045073],"type":"Point"},"properties":{"osm_id":"2953937143","tag":{"amenity":"recycling","recycling:glass":"yes","recycling:paper":"yes","recycling:plastic":"yes","recycling_type":"centre"}},"type":"Feature"},
	{"geometry":{"coordinates":[18.212393,46.044117],"type":"Point"},"properties":{"osm_id":"3423817197","tag":{"amenity":"recycling","recycling:cans":"no","recycling:clothes":"no","recycling:glass":"yes","recycling:paper":"yes"}},"type":"Feature"},
	{"geometry":{"coordinates":[18.222798,46.043654],"type":"Point"},"properties":{"osm_id":"3440857654","tag":{"addr:city":"P\u00c3\u00a9cs","addr:housenumber":"78","addr:postcode":"7632","addr:street":"Mal\u00c3\u00a9ter P\u00c3\u00a1l utca","amenity":"recycling","source:date":"2011-09-08","url":"http://turistautak.hu/poi.php?id=93453"}},"type":"Feature"},
	{"geometry":{"coordinates":[18.224427,46.043909],"type":"Point"},"properties":{"osm_id":"3440857655","tag":{"addr:city":"P\u00c3\u00a9cs","addr:housenumber":"106","addr:postcode":"7632","addr:street":"Mal\u00c3\u00a9ter P\u00c3\u00a1l utca","amenity":"recycling","source:date":"2011-09-08","url":"http://turistautak.hu/poi.php?id=93454"}},"type":"Feature"},
	{"geometry":{"coordinates":[18.226583,46.045],"type":"Point"},"properties":{"osm_id":"3440857656","tag":{"amenity":"recycling","description":"Ez a gy\u00c5\u00b1jt\u00c5\u0091hely a Boross I. utca v\u00c3\u00a9g\u00c3\u00a9ben tal\u00c3\u00a1lhat\u00c3\u00b3.","source:date":"2011-09-08","url":"http://turistautak.hu/poi.php?id=11849"}},"type":"Feature"},
	{"geometry":{"coordinates":[18.213782,46.045737],"type":"Point"},"properties":{"osm_id":"3440857657","tag":{"amenity":"recycling","source:date":"2011-09-08","url":"http://turistautak.hu/poi.php?id=85778"}},"type":"Feature"},
	{"geometry":{"coordinates":[18.218656,46.045638],"type":"Point"},"properties":{"osm_id":"3440857658","tag":{"amenity":"recycling","description":"Vars\u00c3\u00a1ny u. \u00c3\u00a9s J\u00c3\u00balia u. keresztez\u00c5\u0091d\u00c3\u00a9s\u00c3\u00a9ben tal\u00c3\u00a1lhat\u00c3\u00b3","source:date":"2011-09-08","url":"http://turistautak.hu/poi.php?id=11743"}},"type":"Feature"},
	{"geometry":{"coordinates":[18.223973,46.046045],"type":"Point"},"properties":{"osm_id":"3440857659","tag":{"amenity":"recycling","description":"Ez a gy\u00c5\u00b1jt\u00c5\u0091sziget az Enyezd utc\u00c3\u00a1ban az \u00c3\u00b3vod\u00c3\u00a1k k\u00c3\u00b6z\u00c3\u00b6tti \u00c3\u00a1tj\u00c3\u00a1r\u00c3\u00b3 elej\u00c3\u00a9n tal\u00c3\u00a1lhat\u00c3\u00b3!","source:date":"2011-09-08","url":"http://turistautak.hu/poi.php?id=11831"}},"type":"Feature"},
	{"geometry":{"coordinates":[18.221,46.04635],"type":"Point"},"properties":{"osm_id":"3440857660","tag":{"amenity":"recycling","description":"Az \u00c3\u0089va utca \u00c3\u00a9s a Karola utca keresztez\u00c5\u0091d\u00c3\u00a9s\u00c3\u00a9n\u00c3\u00a9l, a Diana t\u00c3\u00a9ri piacn\u00c3\u00a1l tal\u00c3\u00a1lhat\u00c3\u00b3!","source:date":"2011-09-08","url":"http://turistautak.hu/poi.php?id=11744"}},"type":"Feature"},
	{"geometry":{"coordinates":[18.217033,46.04665],"type":"Point"},"properties":{"osm_id":"3440857661","tag":{"amenity":"recycling","description":"Kamilla utca \u00c3\u00a9s az Erika utca keresztez\u00c5\u0091d\u00c3\u00a9s\u00c3\u00a9ben tal\u00c3\u00a1lhat\u00c3\u00b3.","source:date":"2011-09-08","url":"http://turistautak.hu/poi.php?id=11742"}},"type":"Feature"},
	{"geometry":{"coordinates":[18.2222,46.047117],"type":"Point"},"properties":{"osm_id":"3440857662","tag":{"addr:city":"P\u00c3\u00a9cs","addr:housenumber":"6-8","addr:postcode":"7632","addr:street":"Diana t\u00c3\u00a9r","amenity":"recycling","description":"A gy\u00c5\u00b1jt\u00c5\u0091sziget a Diana t\u00c3\u00a9r 6-8 sz. t\u00c3\u00adzemeletes el\u00c5\u0091tt tal\u00c3\u00a1lhat\u00c3\u00b3","source:date":"2011-09-08","url":"http://turistautak.hu/poi.php?id=11830"}},"type":"Feature"},
	{"geometry":{"coordinates":[18.22168,46.04783],"type":"Point"},"properties":{"osm_id":"3440857663","tag":{"amenity":"recycling","description":"3 UFO: pap\u00c3\u00adr, \u00c3\u00bcveg, m\u00c5\u00b1anyag.","source:date":"2011-09-08","url":"http://turistautak.hu/poi.php?id=24086"}},"type":"Feature"},
	{"geometry":{"coordinates":[18.275789,46.058789],"type":"Point"},"properties":{"osm_id":"3440857668","tag":{"amenity":"recycling","source:date":"2015-01-12","url":"http://turistautak.hu/poi.php?id=119295"}},"type":"Feature"},
	{"geometry":{"coordinates":[18.228587,46.066163],"type":"Point"},"properties":{"osm_id":"3440857679","tag":{"amenity":"recycling","description":"Szelekt\u00c3\u00adv hullad\u00c3\u00a9kgy\u00c5\u00b1jt\u00c5\u0091 a Verseny utc\u00c3\u00a1ban.","source:date":"2015-01-12","url":"http://turistautak.hu/poi.php?id=26500"}},"type":"Feature"},
	{"geometry":{"coordinates":[18.200967,46.067883],"type":"Point"},"properties":{"osm_id":"3440857684","tag":{"amenity":"recycling","source:date":"2012-03-29","url":"http://turistautak.hu/poi.php?id=136398"}},"type":"Feature"},
	{"geometry":{"coordinates":[18.197169,46.068575],"type":"Point"},"properties":{"osm_id":"3440857687","tag":{"amenity":"recycling","description":"A focip\u00c3\u00a1lya mellett tal\u00c3\u00a1lhat\u00c3\u00b3.","source:date":"2011-09-08","url":"http://turistautak.hu/poi.php?id=4012"}},"type":"Feature"},
	{"geometry":{"coordinates":[18.204407,46.068631],"type":"Point"},"properties":{"osm_id":"3440857688","tag":{"amenity":"recycling","source:date":"2012-03-29","url":"http://turistautak.hu/poi.php?id=136399"}},"type":"Feature"},
	{"geometry":{"coordinates":[18.205686,46.068804],"type":"Point"},"properties":{"osm_id":"3440857689","tag":{"amenity":"recycling","recycling:cans":"no","recycling:clothes":"no","recycling:glass":"yes","recycling:glass_bottles":"yes","recycling:paper":"yes","recycling:plastic":"yes","recycling_type":"centre","source:date":"2012-03-29","url":"http://turistautak.hu/poi.php?id=136368"}},"type":"Feature"},
	{"geometry":{"coordinates":[18.228705,46.069633],"type":"Point"},"properties":{"osm_id":"3440857691","tag":{"amenity":"recycling","source:date":"2011-09-08","url":"http://turistautak.hu/poi.php?id=8293"}},"type":"Feature"},
	{"geometry":{"coordinates":[18.217231,46.029549],"type":"Point"},"properties":{"osm_id":"3440860419","tag":{"amenity":"recycling","source:date":"2011-09-08","url":"http://turistautak.hu/poi.php?id=89739"}},"type":"Feature"},
	{"geometry":{"coordinates":[18.226347,46.036515],"type":"Point"},"properties":{"osm_id":"3440860423","tag":{"amenity":"recycling","description":"\u00c3\u009cveg \u00c3\u00a9s m\u00c5\u00b1anyag fogad\u00c3\u00a1s\u00c3\u00a1ra kialak\u00c3\u00adtott gy\u00c5\u00b1jt\u00c5\u0091ed\u00c3\u00a9nyek tal\u00c3\u00a1lhat\u00c3\u00b3k itt.","source:date":"2011-09-08","url":"http://turistautak.hu/poi.php?id=10295"}},"type":"Feature"},
	{"geometry":{"coordinates":[18.242096,46.03651],"type":"Point"},"properties":{"osm_id":"3440860424","tag":{"amenity":"recycling","source:date":"2015-01-12","url":"http://turistautak.hu/poi.php?id=135288"}},"type":"Feature"},
	{"geometry":{"coordinates":[18.228717,46.038483],"type":"Point"},"properties":{"osm_id":"3440860425","tag":{"amenity":"recycling","description":"PET palackok mell\u00c3\u00a9 be lehet dobni az \u00c3\u00bcd\u00c3\u00adt\u00c5\u0091s, tejes pap\u00c3\u00adrdobozokat is.","source:date":"2011-09-08","url":"http://turistautak.hu/poi.php?id=42900"}},"type":"Feature"},
	{"geometry":{"coordinates":[18.223073,46.069628],"type":"Point"},"properties":{"osm_id":"3440860493","tag":{"addr:street":"R\u00c3\u00a9t utca","amenity":"recycling","source:date":"2011-09-08","url":"http://turistautak.hu/poi.php?id=6213"}},"type":"Feature"},
	{"geometry":{"coordinates":[18.21512,46.07085],"type":"Point"},"properties":{"osm_id":"3440860496","tag":{"amenity":"recycling","description":"Szelekt\u00c3\u00adv hullad\u00c3\u00a9kgy\u00c5\u00b1jt\u00c5\u0091 a 6-os f\u00c5\u0091\u00c3\u00bat ment\u00c3\u00a9n.","source:date":"2011-09-08","url":"http://turistautak.hu/poi.php?id=18509"}},"type":"Feature"},
	{"geometry":{"coordinates":[18.228683,46.07215],"type":"Point"},"properties":{"osm_id":"3440860500","tag":{"amenity":"recycling","source:date":"2011-09-08","url":"http://turistautak.hu/poi.php?id=8294"}},"type":"Feature"},
	{"geometry":{"coordinates":[18.213597,46.072307],"type":"Point"},"properties":{"osm_id":"3440860501","tag":{"amenity":"recycling","description":"Pap\u00c3\u00adr, m\u00c5\u00b1anyag \u00c3\u00a9s \u00c3\u00bcveg.","source:date":"2011-09-08","url":"http://turistautak.hu/poi.php?id=33536"}},"type":"Feature"},
	{"geometry":{"coordinates":[18.226606,46.035985],"type":"Point"},"properties":{"osm_id":"3739018895","tag":{"amenity":"recycling"}},"type":"Feature"},
	{"geometry":{"coordinates":[18.220347,46.028229],"type":"Point"},"properties":{"osm_id":"3740357317","tag":{"amenity":"recycling"}},"type":"Feature"},
	{"geometry":{"coordinates":[18.193481,46.065967],"type":"Point"},"properties":{"osm_id":"3895105424","tag":{"amenity":"recycling","recycling_type":"container"}},"type":"Feature"},
	{"geometry":{"coordinates":[18.19914,46.062708],"type":"Point"},"properties":{"osm_id":"4417543493","tag":{"amenity":"recycling","recycling:glass_bottles":"yes","recycling_type":"container"}},"type":"Feature"},
	{"geometry":{"coordinates":[18.219799,46.048523],"type":"Point"},"properties":{"osm_id":"5133467849","tag":{"amenity":"recycling","recycling:glass":"yes","recycling_type":"container"}},"type":"Feature"},
	{"geometry":{"coordinates":[18.196961,46.06896],"type":"Point"},"properties":{"osm_id":"5888592140","tag":{"amenity":"recycling","recycling_type":"container"}},"type":"Feature"},
	{"geometry":{"coordinates":[18.200739,46.018759],"type":"Point"},"properties":{"osm_id":"6283193412","tag":{"amenity":"waste_basket","waste":"trash"}},"type":"Feature"},
	{"geometry":{"coordinates":[18.200495,46.018823],"type":"Point"},"properties":{"osm_id":"6283193415","tag":{"amenity":"waste_basket","waste":"trash"}},"type":"Feature"},
	{"geometry":{"coordinates":[18.200504,46.018563],"type":"Point"},"properties":{"osm_id":"6283193417","tag":{"amenity":"waste_basket","waste":"trash"}},"type":"Feature"},
	{"geometry":{"coordinates":[18.200635,46.018422],"type":"Point"},"properties":{"osm_id":"6283193420","tag":{"amenity":"waste_basket","waste":"trash"}},"type":"Feature"},
	{"geometry":{"coordinates":[18.20102,46.01813],"type":"Point"},"properties":{"osm_id":"6283193442","tag":{"amenity":"waste_basket","waste":"trash"}},"type":"Feature"},
	{"geometry":{"coordinates":[18.201385,46.017648],"type":"Point"},"properties":{"osm_id":"6283193444","tag":{"amenity":"waste_basket","waste":"trash"}},"type":"Feature"},
	{"geometry":{"coordinates":[18.200545,46.017473],"type":"Point"},"properties":{"osm_id":"6283193456","tag":{"amenity":"waste_basket","waste":"trash"}},"type":"Feature"},
	{"geometry":{"coordinates":[18.200638,46.017099],"type":"Point"},"properties":{"osm_id":"6283193463","tag":{"amenity":"waste_basket","waste":"trash"}},"type":"Feature"},
	{"geometry":{"coordinates":[18.200733,46.016445],"type":"Point"},"properties":{"osm_id":"6283193465","tag":{"amenity":"waste_basket","waste":"trash"}},"type":"Feature"},
	{"geometry":{"coordinates":[18.200515,46.016119],"type":"Point"},"properties":{"osm_id":"6283193466","tag":{"amenity":"waste_basket","waste":"trash"}},"type":"Feature"},
	{"geometry":{"coordinates":[18.200545,46.015811],"type":"Point"},"properties":{"osm_id":"6283193467","tag":{"amenity":"waste_basket","waste":"trash"}},"type":"Feature"},
	{"geometry":{"coordinates":[18.200608,46.015753],"type":"Point"},"properties":{"osm_id":"6283193468","tag":{"amenity":"waste_basket","waste":"trash"}},"type":"Feature"},
	{"geometry":{"coordinates":[18.200795,46.015218],"type":"Point"},"properties":{"osm_id":"6283193471","tag":{"amenity":"waste_basket","waste":"trash"}},"type":"Feature"},
	{"geometry":{"coordinates":[18.200771,46.014905],"type":"Point"},"properties":{"osm_id":"6283193474","tag":{"amenity":"waste_basket","waste":"trash"}},"type":"Feature"},
	{"geometry":{"coordinates":[18.20061,46.014561],"type":"Point"},"properties":{"osm_id":"6283193479","tag":{"amenity":"waste_basket","waste":"trash"}},"type":"Feature"},
	{"geometry":{"coordinates":[18.200576,46.014327],"type":"Point"},"properties":{"osm_id":"6283193480","tag":{"amenity":"waste_basket","waste":"trash"}},"type":"Feature"},
	{"geometry":{"coordinates":[18.200744,46.01406],"type":"Point"},"properties":{"osm_id":"6283193481","tag":{"amenity":"waste_basket","waste":"trash"}},"type":"Feature"},
	{"geometry":{"coordinates":[18.200598,46.01356],"type":"Point"},"properties":{"osm_id":"6283193483","tag":{"amenity":"waste_basket","waste":"trash"}},"type":"Feature"},
	{"geometry":{"coordinates":[18.200513,46.013281],"type":"Point"},"properties":{"osm_id":"6283193484","tag":{"amenity":"waste_basket","waste":"trash"}},"type":"Feature"},
	{"geometry":{"coordinates":[18.200484,46.013087],"type":"Point"},"properties":{"osm_id":"6283194685","tag":{"amenity":"waste_basket","waste":"trash"}},"type":"Feature"},
	{"geometry":{"coordinates":[18.200496,46.012726],"type":"Point"},"properties":{"osm_id":"6283194686","tag":{"amenity":"waste_basket","waste":"trash"}},"type":"Feature"},
	{"geometry":{"coordinates":[18.200456,46.012592],"type":"Point"},"properties":{"osm_id":"6283194688","tag":{"amenity":"waste_basket","waste":"trash"}},"type":"Feature"},
	{"geometry":{"coordinates":[18.198445,46.012732],"type":"Point"},"properties":{"osm_id":"6283195033","tag":{"amenity":"waste_basket","waste":"trash"}},"type":"Feature"},
	{"geometry":{"coordinates":[18.198623,46.012711],"type":"Point"},"properties":{"osm_id":"6283195034","tag":{"amenity":"waste_basket","waste":"trash"}},"type":"Feature"},
	{"geometry":{"coordinates":[18.198717,46.013133],"type":"Point"},"properties":{"osm_id":"6283195036","tag":{"amenity":"waste_basket","waste":"trash"}},"type":"Feature"},
	{"geometry":{"coordinates":[18.198698,46.013579],"type":"Point"},"properties":{"osm_id":"6283195037","tag":{"amenity":"waste_basket","waste":"trash"}},"type":"Feature"},
	{"geometry":{"coordinates":[18.198749,46.013926],"type":"Point"},"properties":{"osm_id":"6283195039","tag":{"amenity":"waste_basket","waste":"trash"}},"type":"Feature"},
	{"geometry":{"coordinates":[18.198752,46.014146],"type":"Point"},"properties":{"osm_id":"6283195041","tag":{"amenity":"waste_basket","waste":"trash"}},"type":"Feature"},
	{"geometry":{"coordinates":[18.198696,46.014421],"type":"Point"},"properties":{"osm_id":"6283195042","tag":{"amenity":"waste_basket","waste":"trash"}},"type":"Feature"},
	{"geometry":{"coordinates":[18.198279,46.014692],"type":"Point"},"properties":{"osm_id":"6283195043","tag":{"amenity":"waste_basket","waste":"trash"}},"type":"Feature"},
	{"geometry":{"coordinates":[18.198256,46.015113],"type":"Point"},"properties":{"osm_id":"6283195046","tag":{"amenity":"waste_basket","waste":"trash"}},"type":"Feature"},
	{"geometry":{"coordinates":[18.198386,46.015514],"type":"Point"},"properties":{"osm_id":"6283195047","tag":{"amenity":"waste_basket","waste":"trash"}},"type":"Feature"},
	{"geometry":{"coordinates":[18.198354,46.016223],"type":"Point"},"properties":{"osm_id":"6283195049","tag":{"amenity":"waste_basket","waste":"trash"}},"type":"Feature"},
	{"geometry":{"coordinates":[18.198218,46.016646],"type":"Point"},"properties":{"osm_id":"6283195051","tag":{"amenity":"waste_basket","waste":"trash"}},"type":"Feature"},
	{"geometry":{"coordinates":[18.198165,46.017072],"type":"Point"},"properties":{"osm_id":"6283195052","tag":{"amenity":"waste_basket","waste":"trash"}},"type":"Feature"},
	{"geometry":{"coordinates":[18.197617,46.018601],"type":"Point"},"properties":{"osm_id":"6283195053","tag":{"amenity":"waste_basket","waste":"trash"}},"type":"Feature"},
	{"geometry":{"coordinates":[18.197455,46.019407],"type":"Point"},"properties":{"osm_id":"6283195060","tag":{"amenity":"waste_basket","waste":"trash"}},"type":"Feature"},
	{"geometry":{"coordinates":[18.197531,46.019669],"type":"Point"},"properties":{"osm_id":"6283195062","tag":{"amenity":"waste_basket","waste":"trash"}},"type":"Feature"},
	{"geometry":{"coordinates":[18.19757,46.020079],"type":"Point"},"properties":{"osm_id":"6283195065","tag":{"amenity":"waste_basket","waste":"trash"}},"type":"Feature"},
	{"geometry":{"coordinates":[18.201208,46.02021],"type":"Point"},"properties":{"osm_id":"6283195069","tag":{"amenity":"waste_basket","waste":"trash"}},"type":"Feature"},
	{"geometry":{"coordinates":[18.201213,46.020371],"type":"Point"},"properties":{"osm_id":"6283195070","tag":{"amenity":"waste_basket","waste":"trash"}},"type":"Feature"},
	{"geometry":{"coordinates":[18.201448,46.020787],"type":"Point"},"properties":{"osm_id":"6283195071","tag":{"amenity":"waste_basket","waste":"trash"}},"type":"Feature"},
	{"geometry":{"coordinates":[18.201407,46.020145],"type":"Point"},"properties":{"osm_id":"6283195073","tag":{"amenity":"waste_basket","waste":"trash"}},"type":"Feature"},
	{"geometry":{"coordinates":[18.201436,46.02157],"type":"Point"},"properties":{"osm_id":"6283195189","tag":{"amenity":"waste_basket","waste":"trash"}},"type":"Feature"},
	{"geometry":{"coordinates":[18.201273,46.021848],"type":"Point"},"properties":{"osm_id":"6283195192","tag":{"amenity":"waste_basket","waste":"trash"}},"type":"Feature"},
	{"geometry":{"coordinates":[18.204383,46.022739],"type":"Point"},"properties":{"osm_id":"6283195203","tag":{"amenity":"waste_basket","waste":"trash"}},"type":"Feature"},
	{"geometry":{"coordinates":[18.201701,46.022157],"type":"Point"},"properties":{"osm_id":"6283195240","tag":{"amenity":"waste_basket","waste":"trash"}},"type":"Feature"},
	{"geometry":{"coordinates":[18.201663,46.01977],"type":"Point"},"properties":{"osm_id":"6283448000","tag":{"amenity":"waste_basket","waste":"trash"}},"type":"Feature"},
	{"geometry":{"coordinates":[18.20203,46.019519],"type":"Point"},"properties":{"osm_id":"6283448003","tag":{"amenity":"waste_basket","waste":"trash"}},"type":"Feature"},
	{"geometry":{"coordinates":[18.201989,46.018907],"type":"Point"},"properties":{"osm_id":"6283448004","tag":{"amenity":"waste_basket","waste":"trash"}},"type":"Feature"},
	{"geometry":{"coordinates":[18.200438,46.021348],"type":"Point"},"properties":{"osm_id":"6292068838","tag":{"amenity":"waste_basket","waste":"trash"}},"type":"Feature"},
	{"geometry":{"coordinates":[18.212782,46.045572],"type":"Point"},"properties":{"osm_id":"6335969459","tag":{"amenity":"waste_basket","waste":"trash"}},"type":"Feature"},
	{"geometry":{"coordinates":[18.212648,46.045597],"type":"Point"},"properties":{"osm_id":"6335969460","tag":{"amenity":"waste_basket","waste":"trash"}},"type":"Feature"},
	{"geometry":{"coordinates":[18.215128,46.037892],"type":"Point"},"properties":{"osm_id":"6370859628","tag":{"amenity":"recycling","recycling:paper":"yes","recycling:plastic":"yes","recycling_type":"container"}},"type":"Feature"},
	{"geometry":{"coordinates":[18.216493,46.037421],"type":"Point"},"properties":{"osm_id":"6370859629","tag":{"amenity":"recycling","recycling:paper":"yes","recycling:plastic":"yes","recycling_type":"container"}},"type":"Feature"},
	{"geometry":{"coordinates":[18.214495,46.033758],"type":"Point"},"properties":{"osm_id":"6370859640","tag":{"amenity":"recycling","recycling:glass":"yes","recycling:paper":"yes","recycling:plastic":"yes","recycling_type":"container"}},"type":"Feature"},
	{"geometry":{"coordinates":[18.225643,46.043474],"type":"Point"},"properties":{"osm_id":"6372452992","tag":{"amenity":"waste_basket","waste":"trash"}},"type":"Feature"},
	{"geometry":{"coordinates":[18.225508,46.043402],"type":"Point"},"properties":{"osm_id":"6372452993","tag":{"amenity":"waste_basket","waste":"trash"}},"type":"Feature"},
	{"geometry":{"coordinates":[18.222514,46.043575],"type":"Point"},"properties":{"osm_id":"6372453076","tag":{"addr:city":"P\u00c3\u00a9cs","addr:housenumber":"78","addr:postcode":"7632","addr:street":"Mal\u00c3\u00a9ter P\u00c3\u00a1l utca","amenity":"recycling","source:date":"2011-09-08","url":"http://turistautak.hu/poi.php?id=93453"}},"type":"Feature"},
	{"geometry":{"coordinates":[18.221673,46.042747],"type":"Point"},"properties":{"osm_id":"6372453099","tag":{"amenity":"waste_basket","waste":"trash"}},"type":"Feature"},
	{"geometry":{"coordinates":[18.224517,46.042644],"type":"Point"},"properties":{"osm_id":"6372453201","tag":{"amenity":"waste_basket","waste":"trash"}},"type":"Feature"},
	{"geometry":{"coordinates":[18.229966,46.041356],"type":"Point"},"properties":{"osm_id":"6374314281","tag":{"amenity":"waste_basket","waste":"trash"}},"type":"Feature"},
	{"geometry":{"coordinates":[18.229387,46.041723],"type":"Point"},"properties":{"osm_id":"6374316193","tag":{"amenity":"waste_basket","waste":"trash"}},"type":"Feature"},
	{"geometry":{"coordinates":[18.229859,46.041882],"type":"Point"},"properties":{"osm_id":"6374316194","tag":{"amenity":"waste_basket","waste":"trash"}},"type":"Feature"},
	{"geometry":{"coordinates":[18.231091,46.04257],"type":"Point"},"properties":{"osm_id":"6374316199","tag":{"amenity":"waste_basket","waste":"trash"}},"type":"Feature"},
	{"geometry":{"coordinates":[18.231129,46.042413],"type":"Point"},"properties":{"osm_id":"6374316200","tag":{"amenity":"waste_basket","waste":"trash"}},"type":"Feature"},
	{"geometry":{"coordinates":[18.229872,46.042467],"type":"Point"},"properties":{"osm_id":"6374316218","tag":{"amenity":"waste_basket","waste":"trash"}},"type":"Feature"},
	{"geometry":{"coordinates":[18.234516,46.037389],"type":"Point"},"properties":{"osm_id":"6374316275","tag":{"amenity":"waste_basket","waste":"trash"}},"type":"Feature"},
	{"geometry":{"coordinates":[18.224903,46.038868],"type":"Point"},"properties":{"osm_id":"6374316449","tag":{"amenity":"waste_basket","waste":"trash"}},"type":"Feature"},
	{"geometry":{"coordinates":[18.225975,46.039794],"type":"Point"},"properties":{"osm_id":"6374316758","tag":{"amenity":"recycling","recycling:glass":"yes","recycling:paper":"yes","recycling:plastic_bottles":"yes","recycling_type":"container"}},"type":"Feature"},
	{"geometry":{"coordinates":[18.223749,46.040274],"type":"Point"},"properties":{"osm_id":"6376211097","tag":{"amenity":"waste_basket","waste":"trash"}},"type":"Feature"},
	{"geometry":{"coordinates":[18.223711,46.040434],"type":"Point"},"properties":{"osm_id":"6376211105","tag":{"amenity":"waste_basket","waste":"trash"}},"type":"Feature"},
	{"geometry":{"coordinates":[18.22112,46.038858],"type":"Point"},"properties":{"osm_id":"6376211107","tag":{"amenity":"recycling","recycling:cardboard":"yes","recycling:paper":"yes","recycling:plastic":"yes","recycling_type":"container"}},"type":"Feature"},
	{"geometry":{"coordinates":[18.221133,46.038926],"type":"Point"},"properties":{"osm_id":"6376211122","tag":{"amenity":"waste_basket","waste":"trash"}},"type":"Feature"},
	{"geometry":{"coordinates":[18.218603,46.04043],"type":"Point"},"properties":{"osm_id":"6376211158","tag":{"amenity":"waste_basket","waste":"trash"}},"type":"Feature"},
	{"geometry":{"coordinates":[18.218291,46.042417],"type":"Point"},"properties":{"osm_id":"6376211347","tag":{"amenity":"recycling","recycling:cardboard":"yes","recycling:paper":"yes","recycling:plastic":"yes","recycling_type":"container"}},"type":"Feature"},
	{"geometry":{"coordinates":[18.218083,46.041704],"type":"Point"},"properties":{"osm_id":"6376211365","tag":{"amenity":"recycling","recycling:cardboard":"yes","recycling:paper":"yes","recycling:plastic":"yes","recycling_type":"container"}},"type":"Feature"},
	{"geometry":{"coordinates":[18.217943,46.041149],"type":"Point"},"properties":{"osm_id":"6376211395","tag":{"amenity":"recycling","recycling:cardboard":"yes","recycling:paper":"yes","recycling:plastic":"yes","recycling_type":"container"}},"type":"Feature"},
	{"geometry":{"coordinates":[18.219597,46.042922],"type":"Point"},"properties":{"osm_id":"6376211431","tag":{"amenity":"recycling","recycling:cardboard":"yes","recycling:paper":"yes","recycling:plastic":"yes","recycling_type":"container"}},"type":"Feature"},
	{"geometry":{"coordinates":[18.217,46.040704],"type":"Point"},"properties":{"osm_id":"6376211441","tag":{"amenity":"recycling","recycling:cardboard":"yes","recycling:paper":"yes","recycling:plastic":"yes","recycling_type":"container"}},"type":"Feature"},
	{"geometry":{"coordinates":[18.219529,46.040497],"type":"Point"},"properties":{"osm_id":"6376211659","tag":{"amenity":"waste_basket","waste":"trash"}},"type":"Feature"},
	{"geometry":{"coordinates":[18.220531,46.041096],"type":"Point"},"properties":{"osm_id":"6376211660","tag":{"amenity":"waste_basket","waste":"trash"}},"type":"Feature"},
	{"geometry":{"coordinates":[18.21963,46.040993],"type":"Point"},"properties":{"osm_id":"6376211890","tag":{"amenity":"waste_basket","waste":"trash"}},"type":"Feature"},
	{"geometry":{"coordinates":[18.221941,46.03886],"type":"Point"},"properties":{"osm_id":"6376211944","tag":{"amenity":"waste_basket","waste":"trash"}},"type":"Feature"},
	{"geometry":{"coordinates":[18.224276,46.039599],"type":"Point"},"properties":{"osm_id":"6376211970","tag":{"amenity":"waste_disposal","waste":"trash"}},"type":"Feature"},
	{"geometry":{"coordinates":[18.223157,46.040023],"type":"Point"},"properties":{"osm_id":"6376212021","tag":{"amenity":"waste_basket","waste":"trash"}},"type":"Feature"},
	{"geometry":{"coordinates":[18.222771,46.03925],"type":"Point"},"properties":{"osm_id":"6376212036","tag":{"amenity":"waste_basket","waste":"trash"}},"type":"Feature"},
	{"geometry":{"coordinates":[18.215283,46.040057],"type":"Point"},"properties":{"osm_id":"6378515285","tag":{"amenity":"waste_basket","waste":"trash"}},"type":"Feature"},
	{"geometry":{"coordinates":[18.215396,46.0399],"type":"Point"},"properties":{"osm_id":"6378515287","tag":{"amenity":"waste_basket","waste":"trash"}},"type":"Feature"},
	{"geometry":{"coordinates":[18.215537,46.039901],"type":"Point"},"properties":{"osm_id":"6378515288","tag":{"amenity":"waste_basket","waste":"trash"}},"type":"Feature"},
	{"geometry":{"coordinates":[18.216076,46.041836],"type":"Point"},"properties":{"osm_id":"6378515304","tag":{"amenity":"waste_basket","waste":"trash"}},"type":"Feature"},
	{"geometry":{"coordinates":[18.21449,46.041272],"type":"Point"},"properties":{"osm_id":"6378515354","tag":{"amenity":"recycling","recycling:paper":"yes","recycling:plastic":"yes","recycling_type":"container"}},"type":"Feature"},
	{"geometry":{"coordinates":[18.213994,46.040089],"type":"Point"},"properties":{"osm_id":"6378515993","tag":{"amenity":"recycling","recycling_type":"container"}},"type":"Feature"},
	{"geometry":{"coordinates":[18.214209,46.038888],"type":"Point"},"properties":{"osm_id":"6378516014","tag":{"amenity":"waste_basket","waste":"trash"}},"type":"Feature"},
	{"geometry":{"coordinates":[18.213029,46.03934],"type":"Point"},"properties":{"osm_id":"6378516053","tag":{"amenity":"recycling","recycling_type":"container"}},"type":"Feature"},
	{"geometry":{"coordinates":[18.212825,46.039732],"type":"Point"},"properties":{"osm_id":"6378516054","tag":{"amenity":"recycling","recycling_type":"container"}},"type":"Feature"},
	{"geometry":{"coordinates":[18.217333,46.038018],"type":"Point"},"properties":{"osm_id":"6378516303","tag":{"amenity":"waste_basket","waste":"trash"}},"type":"Feature"},
	{"geometry":{"coordinates":[18.217641,46.037739],"type":"Point"},"properties":{"osm_id":"6378516304","tag":{"amenity":"waste_basket","waste":"trash"}},"type":"Feature"},
	{"geometry":{"coordinates":[18.217796,46.037584],"type":"Point"},"properties":{"osm_id":"6378516305","tag":{"amenity":"waste_basket","waste":"trash"}},"type":"Feature"},
	{"geometry":{"coordinates":[18.213402,46.039006],"type":"Point"},"properties":{"osm_id":"6378516938","tag":{"amenity":"recycling","recycling_type":"container"}},"type":"Feature"},
	{"geometry":{"coordinates":[18.214574,46.039855],"type":"Point"},"properties":{"osm_id":"6378516944","tag":{"amenity":"recycling","recycling_type":"container"}},"type":"Feature"},
	{"geometry":{"coordinates":[18.213098,46.04024],"type":"Point"},"properties":{"osm_id":"6378516980","tag":{"amenity":"recycling","recycling_type":"container"}},"type":"Feature"},
	{"geometry":{"coordinates":[18.213555,46.039628],"type":"Point"},"properties":{"osm_id":"6378517086","tag":{"amenity":"waste_basket","waste":"trash"}},"type":"Feature"},
	{"geometry":{"coordinates":[18.213359,46.039558],"type":"Point"},"properties":{"osm_id":"6378517104","tag":{"amenity":"waste_basket","waste":"trash"}},"type":"Feature"},
	{"geometry":{"coordinates":[18.213775,46.031681],"type":"Point"},"properties":{"osm_id":"6381120268","tag":{"amenity":"waste_basket","waste":"trash"}},"type":"Feature"},
	{"geometry":{"coordinates":[18.213748,46.0315],"type":"Point"},"properties":{"osm_id":"6381120278","tag":{"amenity":"waste_basket","waste":"trash"}},"type":"Feature"},
	{"geometry":{"coordinates":[18.214085,46.0313],"type":"Point"},"properties":{"osm_id":"6381120279","tag":{"amenity":"waste_basket","waste":"trash"}},"type":"Feature"},
	{"geometry":{"coordinates":[18.213471,46.032285],"type":"Point"},"properties":{"osm_id":"6381120417","tag":{"amenity":"recycling","recycling_type":"container"}},"type":"Feature"},
	{"geometry":{"coordinates":[18.213005,46.031895],"type":"Point"},"properties":{"osm_id":"6381120434","tag":{"amenity":"waste_basket","waste":"trash"}},"type":"Feature"},
	{"geometry":{"coordinates":[18.213715,46.032606],"type":"Point"},"properties":{"osm_id":"6381120452","tag":{"amenity":"waste_basket","waste":"trash"}},"type":"Feature"},
	{"geometry":{"coordinates":[18.214644,46.032898],"type":"Point"},"properties":{"osm_id":"6381120472","tag":{"amenity":"waste_basket","waste":"trash"}},"type":"Feature"},
	{"geometry":{"coordinates":[18.215207,46.033729],"type":"Point"},"properties":{"osm_id":"6381120530","tag":{"amenity":"waste_basket","waste":"trash"}},"type":"Feature"},
	{"geometry":{"coordinates":[18.218466,46.038662],"type":"Point"},"properties":{"osm_id":"6381120703","tag":{"amenity":"waste_basket","waste":"trash"}},"type":"Feature"},
	{"geometry":{"coordinates":[18.217867,46.038275],"type":"Point"},"properties":{"osm_id":"6381120711","tag":{"amenity":"recycling","recycling_type":"container"}},"type":"Feature"},
	{"geometry":{"coordinates":[18.213458,46.031024],"type":"Point"},"properties":{"osm_id":"6381618567","tag":{"amenity":"recycling","recycling_type":"container"}},"type":"Feature"},
	{"geometry":{"coordinates":[18.212135,46.030562],"type":"Point"},"properties":{"osm_id":"6381618568","tag":{"amenity":"waste_basket","waste":"trash"}},"type":"Feature"},
	{"geometry":{"coordinates":[18.212398,46.02947],"type":"Point"},"properties":{"osm_id":"6381618599","tag":{"amenity":"recycling","recycling_type":"container"}},"type":"Feature"},
	{"geometry":{"coordinates":[18.212515,46.031127],"type":"Point"},"properties":{"osm_id":"6381618691","tag":{"amenity":"waste_basket","waste":"trash"}},"type":"Feature"},
	{"geometry":{"coordinates":[18.21535,46.032394],"type":"Point"},"properties":{"osm_id":"6381618711","tag":{"amenity":"waste_basket","waste":"dog_excrement"}},"type":"Feature"},
	{"geometry":{"coordinates":[18.21708,46.032846],"type":"Point"},"properties":{"osm_id":"6381618723","tag":{"amenity":"waste_basket","waste":"trash"}},"type":"Feature"},
	{"geometry":{"coordinates":[18.217124,46.032867],"type":"Point"},"properties":{"osm_id":"6381618724","tag":{"amenity":"waste_basket","waste":"dog_excrement"}},"type":"Feature"},
	{"geometry":{"coordinates":[18.217348,46.031068],"type":"Point"},"properties":{"osm_id":"6381618728","tag":{"amenity":"waste_basket","waste":"trash"}},"type":"Feature"},
	{"geometry":{"coordinates":[18.217273,46.03046],"type":"Point"},"properties":{"osm_id":"6381618731","tag":{"amenity":"waste_basket","waste":"dog_excrement"}},"type":"Feature"},
	{"geometry":{"coordinates":[18.215173,46.030861],"type":"Point"},"properties":{"osm_id":"6381618737","tag":{"amenity":"waste_basket","waste":"dog_excrement"}},"type":"Feature"},
	{"geometry":{"coordinates":[18.214521,46.033836],"type":"Point"},"properties":{"osm_id":"6381618749","tag":{"amenity":"waste_basket","waste":"trash"}},"type":"Feature"},
	{"geometry":{"coordinates":[18.224423,46.039962],"type":"Point"},"properties":{"osm_id":"6383527716","tag":{"amenity":"recycling","recycling_type":"container"}},"type":"Feature"},
	{"geometry":{"coordinates":[18.222434,46.041868],"type":"Point"},"properties":{"osm_id":"6385893373","tag":{"amenity":"waste_basket","waste":"trash"}},"type":"Feature"},
	{"geometry":{"coordinates":[18.222463,46.041732],"type":"Point"},"properties":{"osm_id":"6385893375","tag":{"amenity":"waste_basket","waste":"trash"}},"type":"Feature"},
	{"geometry":{"coordinates":[18.223014,46.040893],"type":"Point"},"properties":{"osm_id":"6385893378","tag":{"amenity":"waste_basket","waste":"trash"}},"type":"Feature"},
	{"geometry":{"coordinates":[18.22245,46.040914],"type":"Point"},"properties":{"osm_id":"6385893379","tag":{"amenity":"waste_basket","waste":"trash"}},"type":"Feature"},
	{"geometry":{"coordinates":[18.222432,46.041251],"type":"Point"},"properties":{"osm_id":"6385893383","tag":{"amenity":"waste_basket","waste":"trash"}},"type":"Feature"},
	{"geometry":{"coordinates":[18.231712,46.041984],"type":"Point"},"properties":{"osm_id":"6385893520","tag":{"amenity":"recycling","recycling_type":"container"}},"type":"Feature"},
	{"geometry":{"coordinates":[18.229068,46.04133],"type":"Point"},"properties":{"osm_id":"6385893602","tag":{"amenity":"waste_basket","waste":"trash"}},"type":"Feature"},
	{"geometry":{"coordinates":[18.229947,46.043442],"type":"Point"},"properties":{"osm_id":"6386355367","tag":{"amenity":"waste_basket","waste":"trash"}},"type":"Feature"},
	{"geometry":{"coordinates":[18.217573,46.040528],"type":"Point"},"properties":{"osm_id":"6386357909","tag":{"amenity":"waste_basket","waste":"trash"}},"type":"Feature"},
	{"geometry":{"coordinates":[18.21711,46.042465],"type":"Point"},"properties":{"osm_id":"6386357947","tag":{"amenity":"recycling","recycling_type":"container"}},"type":"Feature"},
	{"geometry":{"coordinates":[18.219633,46.043469],"type":"Point"},"properties":{"osm_id":"6386358525","tag":{"amenity":"waste_basket","waste":"trash"}},"type":"Feature"},
	{"geometry":{"coordinates":[18.214782,46.045295],"type":"Point"},"properties":{"osm_id":"6387802100","tag":{"amenity":"waste_basket","waste":"trash"}},"type":"Feature"},
	{"geometry":{"coordinates":[18.214365,46.046457],"type":"Point"},"properties":{"osm_id":"6387802117","tag":{"amenity":"waste_basket","waste":"trash"}},"type":"Feature"},
	{"geometry":{"coordinates":[18.214596,46.045887],"type":"Point"},"properties":{"osm_id":"6387802155","tag":{"amenity":"waste_basket","waste":"trash"}},"type":"Feature"},
	{"geometry":{"coordinates":[18.214422,46.042708],"type":"Point"},"properties":{"osm_id":"6387802313","tag":{"amenity":"waste_basket","waste":"trash"}},"type":"Feature"},
	{"geometry":{"coordinates":[18.214031,46.042597],"type":"Point"},"properties":{"osm_id":"6387802317","tag":{"amenity":"waste_basket","waste":"trash"}},"type":"Feature"},
	{"geometry":{"coordinates":[18.212862,46.044303],"type":"Point"},"properties":{"osm_id":"6387802489","tag":{"amenity":"waste_basket","waste":"trash"}},"type":"Feature"},
	{"geometry":{"coordinates":[18.212886,46.044374],"type":"Point"},"properties":{"osm_id":"6387802497","tag":{"amenity":"waste_basket","waste":"trash"}},"type":"Feature"},
	{"geometry":{"coordinates":[18.21102,46.043622],"type":"Point"},"properties":{"osm_id":"6387802529","tag":{"amenity":"waste_basket","waste":"dog_excrement"}},"type":"Feature"},
	{"geometry":{"coordinates":[18.212832,46.045529],"type":"Point"},"properties":{"osm_id":"6388929871","tag":{"amenity":"recycling","recycling:glass":"yes","recycling:paper":"yes","recycling:plastic":"yes","recycling_type":"container"}},"type":"Feature"},
	{"geometry":{"coordinates":[18.215098,46.043921],"type":"Point"},"properties":{"osm_id":"6388931566","tag":{"amenity":"waste_basket","waste":"trash"}},"type":"Feature"},
	{"geometry":{"coordinates":[18.224156,46.051915],"type":"Point"},"properties":{"osm_id":"6389055349","tag":{"amenity":"waste_basket","waste":"trash"}},"type":"Feature"},
	{"geometry":{"coordinates":[18.224056,46.052105],"type":"Point"},"properties":{"osm_id":"6389055361","tag":{"amenity":"waste_basket","waste":"trash"}},"type":"Feature"},
	{"geometry":{"coordinates":[18.223836,46.052312],"type":"Point"},"properties":{"osm_id":"6389055362","tag":{"amenity":"waste_basket","waste":"trash"}},"type":"Feature"},
	{"geometry":{"coordinates":[18.221829,46.051176],"type":"Point"},"properties":{"osm_id":"6389055529","tag":{"amenity":"recycling","recycling_type":"container"}},"type":"Feature"},
	{"geometry":{"coordinates":[18.221551,46.050999],"type":"Point"},"properties":{"osm_id":"6389055530","tag":{"amenity":"waste_basket","waste":"trash"}},"type":"Feature"},
	{"geometry":{"coordinates":[18.227795,46.042887],"type":"Point"},"properties":{"osm_id":"6389322439","tag":{"amenity":"recycling","recycling_type":"container"}},"type":"Feature"},
	{"geometry":{"coordinates":[18.226475,46.044052],"type":"Point"},"properties":{"osm_id":"6389322475","tag":{"amenity":"waste_basket","waste":"trash"}},"type":"Feature"},
	{"geometry":{"coordinates":[18.227533,46.041731],"type":"Point"},"properties":{"osm_id":"6389325809","tag":{"amenity":"waste_basket","waste":"trash"}},"type":"Feature"},
	{"geometry":{"coordinates":[18.221098,46.031706],"type":"Point"},"properties":{"osm_id":"6391663877","tag":{"amenity":"waste_basket","waste":"trash"}},"type":"Feature"},
	{"geometry":{"coordinates":[18.220447,46.030659],"type":"Point"},"properties":{"osm_id":"6391663927","tag":{"amenity":"recycling","recycling_type":"container"}},"type":"Feature"},
	{"geometry":{"coordinates":[18.222128,46.030992],"type":"Point"},"properties":{"osm_id":"6391663947","tag":{"amenity":"waste_basket","waste":"trash"}},"type":"Feature"},
	{"geometry":{"coordinates":[18.221358,46.030282],"type":"Point"},"properties":{"osm_id":"6391663968","tag":{"amenity":"waste_basket","waste":"trash"}},"type":"Feature"},
	{"geometry":{"coordinates":[18.221077,46.029981],"type":"Point"},"properties":{"osm_id":"6391664248","tag":{"amenity":"recycling","recycling_type":"container"}},"type":"Feature"},
	{"geometry":{"coordinates":[18.221603,46.025681],"type":"Point"},"properties":{"osm_id":"6393736673","tag":{"amenity":"waste_basket","waste":"trash"}},"type":"Feature"},
	{"geometry":{"coordinates":[18.221244,46.025172],"type":"Point"},"properties":{"osm_id":"6393736701","tag":{"amenity":"recycling","recycling_type":"container"}},"type":"Feature"},
	{"geometry":{"coordinates":[18.22172,46.027342],"type":"Point"},"properties":{"osm_id":"6393828230","tag":{"amenity":"recycling","recycling_type":"container"}},"type":"Feature"},
	{"geometry":{"coordinates":[18.223151,46.028778],"type":"Point"},"properties":{"osm_id":"6394006011","tag":{"amenity":"waste_basket","waste":"trash"}},"type":"Feature"},
	{"geometry":{"coordinates":[18.223046,46.02892],"type":"Point"},"properties":{"osm_id":"6394006014","tag":{"amenity":"waste_basket","waste":"trash"}},"type":"Feature"},
	{"geometry":{"coordinates":[18.223045,46.029387],"type":"Point"},"properties":{"osm_id":"6394006039","tag":{"amenity":"recycling","recycling_type":"container"}},"type":"Feature"},
	{"geometry":{"coordinates":[18.223758,46.029195],"type":"Point"},"properties":{"osm_id":"6394006050","tag":{"amenity":"recycling","recycling_type":"container"}},"type":"Feature"},
	{"geometry":{"coordinates":[18.223739,46.028467],"type":"Point"},"properties":{"osm_id":"6394006064","tag":{"amenity":"recycling","recycling_type":"container"}},"type":"Feature"},
	{"geometry":{"coordinates":[18.223045,46.027616],"type":"Point"},"properties":{"osm_id":"6394006079","tag":{"amenity":"waste_basket","waste":"trash"}},"type":"Feature"},
	{"geometry":{"coordinates":[18.223484,46.027534],"type":"Point"},"properties":{"osm_id":"6394006392","tag":{"amenity":"recycling","recycling_type":"container"}},"type":"Feature"},
	{"geometry":{"coordinates":[18.223379,46.025707],"type":"Point"},"properties":{"osm_id":"6394006432","tag":{"amenity":"recycling","recycling_type":"container"}},"type":"Feature"},
	{"geometry":{"coordinates":[18.222899,46.025715],"type":"Point"},"properties":{"osm_id":"6394006443","tag":{"amenity":"waste_basket","waste":"trash"}},"type":"Feature"},
	{"geometry":{"coordinates":[18.220637,46.035328],"type":"Point"},"properties":{"osm_id":"6394035489","tag":{"amenity":"waste_basket"}},"type":"Feature"},
	{"geometry":{"coordinates":[18.220592,46.034874],"type":"Point"},"properties":{"osm_id":"6394035494","tag":{"amenity":"recycling","recycling_type":"container"}},"type":"Feature"},
	{"geometry":{"coordinates":[18.220651,46.034597],"type":"Point"},"properties":{"osm_id":"6394035495","tag":{"amenity":"recycling","recycling_type":"container"}},"type":"Feature"},
	{"geometry":{"coordinates":[18.220743,46.034271],"type":"Point"},"properties":{"osm_id":"6394035496","tag":{"amenity":"recycling","recycling_type":"container"}},"type":"Feature"},
	{"geometry":{"coordinates":[18.220817,46.033964],"type":"Point"},"properties":{"osm_id":"6394035498","tag":{"amenity":"recycling","recycling_type":"container"}},"type":"Feature"},
	{"geometry":{"coordinates":[18.220903,46.033673],"type":"Point"},"properties":{"osm_id":"6394035499","tag":{"amenity":"recycling","recycling_type":"container"}},"type":"Feature"},
	{"geometry":{"coordinates":[18.219262,46.038383],"type":"Point"},"properties":{"osm_id":"6394056404","tag":{"amenity":"recycling","recycling_type":"container"}},"type":"Feature"},
	{"geometry":{"coordinates":[18.221413,46.03573],"type":"Point"},"properties":{"osm_id":"6394056442","tag":{"amenity":"waste_basket"}},"type":"Feature"},
	{"geometry":{"coordinates":[18.226271,46.047522],"type":"Point"},"properties":{"osm_id":"6396372194","tag":{"amenity":"recycling","recycling_type":"container"}},"type":"Feature"},
	{"geometry":{"coordinates":[18.226525,46.04634],"type":"Point"},"properties":{"osm_id":"6396372710","tag":{"amenity":"waste_basket","waste":"dog_excrement"}},"type":"Feature"},
	{"geometry":{"coordinates":[18.228657,46.046764],"type":"Point"},"properties":{"osm_id":"6396372711","tag":{"amenity":"waste_basket","waste":"dog_excrement"}},"type":"Feature"},
	{"geometry":{"coordinates":[18.227476,46.046449],"type":"Point"},"properties":{"osm_id":"6396372712","tag":{"amenity":"waste_basket","waste":"dog_excrement"}},"type":"Feature"},
	{"geometry":{"coordinates":[18.226297,46.045492],"type":"Point"},"properties":{"osm_id":"6396372732","tag":{"amenity":"recycling","recycling_type":"container"}},"type":"Feature"},
	{"geometry":{"coordinates":[18.226363,46.0454],"type":"Point"},"properties":{"osm_id":"6396372733","tag":{"amenity":"waste_basket"}},"type":"Feature"},
	{"geometry":{"coordinates":[18.227962,46.044994],"type":"Point"},"properties":{"osm_id":"6396372740","tag":{"amenity":"waste_basket","waste":"trash"}},"type":"Feature"},
	{"geometry":{"coordinates":[18.228498,46.044904],"type":"Point"},"properties":{"osm_id":"6396372746","tag":{"amenity":"waste_basket","waste":"trash"}},"type":"Feature"},
	{"geometry":{"coordinates":[18.226359,46.045275],"type":"Point"},"properties":{"osm_id":"6396373387","tag":{"amenity":"recycling","recycling_type":"container"}},"type":"Feature"},
	{"geometry":{"coordinates":[18.230827,46.046385],"type":"Point"},"properties":{"osm_id":"6396901397","tag":{"amenity":"waste_basket"}},"type":"Feature"},
	{"geometry":{"coordinates":[18.230725,46.046338],"type":"Point"},"properties":{"osm_id":"6396901398","tag":{"amenity":"waste_basket"}},"type":"Feature"},
	{"geometry":{"coordinates":[18.231082,46.047403],"type":"Point"},"properties":{"osm_id":"6396901432","tag":{"amenity":"recycling","recycling_type":"container"}},"type":"Feature"},
	{"geometry":{"coordinates":[18.230964,46.0468],"type":"Point"},"properties":{"osm_id":"6396901442","tag":{"amenity":"waste_basket"}},"type":"Feature"},
	{"geometry":{"coordinates":[18.230194,46.045926],"type":"Point"},"properties":{"osm_id":"6396901597","tag":{"amenity":"recycling","recycling_type":"container"}},"type":"Feature"},
	{"geometry":{"coordinates":[18.228019,46.05051],"type":"Point"},"properties":{"osm_id":"6398407081","tag":{"amenity":"recycling","recycling_type":"container"}},"type":"Feature"},
	{"geometry":{"coordinates":[18.228184,46.051909],"type":"Point"},"properties":{"osm_id":"6398506601","tag":{"amenity":"waste_basket","waste":"trash"}},"type":"Feature"},
	{"geometry":{"coordinates":[18.228356,46.051937],"type":"Point"},"properties":{"osm_id":"6398506603","tag":{"amenity":"waste_basket","waste":"trash"}},"type":"Feature"},
	{"geometry":{"coordinates":[18.222738,46.046492],"type":"Point"},"properties":{"osm_id":"6401082344","tag":{"amenity":"waste_basket","waste":"trash"}},"type":"Feature"},
	{"geometry":{"coordinates":[18.225077,46.048474],"type":"Point"},"properties":{"osm_id":"6402017609","tag":{"amenity":"recycling","recycling_type":"container"}},"type":"Feature"},
	{"geometry":{"coordinates":[18.22531,46.047375],"type":"Point"},"properties":{"osm_id":"6402018270","tag":{"amenity":"waste_basket"}},"type":"Feature"},
	{"geometry":{"coordinates":[18.223868,46.046825],"type":"Point"},"properties":{"osm_id":"6402018303","tag":{"amenity":"recycling","recycling_type":"container"}},"type":"Feature"},
	{"geometry":{"coordinates":[18.223458,46.047066],"type":"Point"},"properties":{"osm_id":"6402018309","tag":{"amenity":"waste_basket"}},"type":"Feature"},
	{"geometry":{"coordinates":[18.220737,46.045508],"type":"Point"},"properties":{"osm_id":"6402018377","tag":{"amenity":"recycling","recycling_type":"container"}},"type":"Feature"},
	{"geometry":{"coordinates":[18.221687,46.044429],"type":"Point"},"properties":{"osm_id":"6402419812","tag":{"amenity":"waste_basket"}},"type":"Feature"},
	{"geometry":{"coordinates":[18.221702,46.044666],"type":"Point"},"properties":{"osm_id":"6402419814","tag":{"amenity":"waste_basket"}},"type":"Feature"},
	{"geometry":{"coordinates":[18.221806,46.047649],"type":"Point"},"properties":{"osm_id":"6402419994","tag":{"amenity":"recycling","recycling_type":"container"}},"type":"Feature"},
	{"geometry":{"coordinates":[18.22192,46.047538],"type":"Point"},"properties":{"osm_id":"6402420019","tag":{"amenity":"recycling","recycling_type":"container"}},"type":"Feature"},
	{"geometry":{"coordinates":[18.221096,46.046456],"type":"Point"},"properties":{"osm_id":"6402420028","tag":{"amenity":"waste_basket"}},"type":"Feature"},
	{"geometry":{"coordinates":[18.221182,46.047466],"type":"Point"},"properties":{"osm_id":"6402420077","tag":{"amenity":"waste_basket"}},"type":"Feature"},
	{"geometry":{"coordinates":[18.221522,46.04672],"type":"Point"},"properties":{"osm_id":"6402420080","tag":{"amenity":"waste_basket"}},"type":"Feature"},
	{"geometry":{"coordinates":[18.221041,46.047133],"type":"Point"},"properties":{"osm_id":"6402420084","tag":{"amenity":"waste_basket"}},"type":"Feature"},
	{"geometry":{"coordinates":[18.225326,46.042811],"type":"Point"},"properties":{"osm_id":"6402757281","tag":{"amenity":"waste_basket"}},"type":"Feature"},
	{"geometry":{"coordinates":[18.222784,46.03598],"type":"Point"},"properties":{"osm_id":"6404666422","tag":{"amenity":"recycling","recycling_type":"container"}},"type":"Feature"},
	{"geometry":{"coordinates":[18.222937,46.036233],"type":"Point"},"properties":{"osm_id":"6404666423","tag":{"amenity":"waste_basket","waste":"dog_excrement"}},"type":"Feature"},
	{"geometry":{"coordinates":[18.223827,46.035306],"type":"Point"},"properties":{"osm_id":"6404666444","tag":{"amenity":"waste_basket"}},"type":"Feature"},
	{"geometry":{"coordinates":[18.221247,46.036182],"type":"Point"},"properties":{"osm_id":"6404666469","tag":{"amenity":"waste_basket"}},"type":"Feature"},
	{"geometry":{"coordinates":[18.221193,46.036362],"type":"Point"},"properties":{"osm_id":"6404666691","tag":{"amenity":"waste_basket"}},"type":"Feature"},
	{"geometry":{"coordinates":[18.222647,46.036177],"type":"Point"},"properties":{"osm_id":"6404666706","tag":{"amenity":"waste_basket","waste":"dog_excrement"}},"type":"Feature"},
	{"geometry":{"coordinates":[18.223227,46.035141],"type":"Point"},"properties":{"osm_id":"6404666707","tag":{"amenity":"recycling","recycling_type":"container"}},"type":"Feature"},
	{"geometry":{"coordinates":[18.221116,46.036631],"type":"Point"},"properties":{"osm_id":"6404667002","tag":{"amenity":"waste_basket"}},"type":"Feature"},
	{"geometry":{"coordinates":[18.222394,46.037618],"type":"Point"},"properties":{"osm_id":"6404667051","tag":{"amenity":"recycling","recycling_type":"container"}},"type":"Feature"},
	{"geometry":{"coordinates":[18.221482,46.038427],"type":"Point"},"properties":{"osm_id":"6404667068","tag":{"amenity":"recycling","recycling_type":"container"}},"type":"Feature"},
	{"geometry":{"coordinates":[18.221402,46.037894],"type":"Point"},"properties":{"osm_id":"6404667104","tag":{"amenity":"waste_basket"}},"type":"Feature"},
	{"geometry":{"coordinates":[18.221151,46.037573],"type":"Point"},"properties":{"osm_id":"6404667110","tag":{"amenity":"waste_basket"}},"type":"Feature"},
	{"geometry":{"coordinates":[18.221258,46.03724],"type":"Point"},"properties":{"osm_id":"6404667117","tag":{"amenity":"waste_basket"}},"type":"Feature"},
	{"geometry":{"coordinates":[18.224069,46.035728],"type":"Point"},"properties":{"osm_id":"6408777361","tag":{"amenity":"waste_basket"}},"type":"Feature"},
	{"geometry":{"coordinates":[18.224025,46.035932],"type":"Point"},"properties":{"osm_id":"6408777365","tag":{"amenity":"waste_basket"}},"type":"Feature"},
	{"geometry":{"coordinates":[18.223966,46.036092],"type":"Point"},"properties":{"osm_id":"6408777388","tag":{"amenity":"waste_basket"}},"type":"Feature"},
	{"geometry":{"coordinates":[18.224601,46.034644],"type":"Point"},"properties":{"osm_id":"6408777413","tag":{"amenity":"recycling","recycling_type":"container"}},"type":"Feature"},
	{"geometry":{"coordinates":[18.225306,46.035527],"type":"Point"},"properties":{"osm_id":"6408777441","tag":{"amenity":"waste_basket"}},"type":"Feature"},
	{"geometry":{"coordinates":[18.225652,46.036556],"type":"Point"},"properties":{"osm_id":"6408777458","tag":{"amenity":"waste_basket"}},"type":"Feature"},
	{"geometry":{"coordinates":[18.225313,46.036361],"type":"Point"},"properties":{"osm_id":"6408777464","tag":{"amenity":"waste_basket"}},"type":"Feature"},
	{"geometry":{"coordinates":[18.225341,46.036091],"type":"Point"},"properties":{"osm_id":"6408777479","tag":{"amenity":"waste_basket"}},"type":"Feature"},
	{"geometry":{"coordinates":[18.226051,46.037117],"type":"Point"},"properties":{"osm_id":"6408777638","tag":{"amenity":"waste_basket"}},"type":"Feature"},
	{"geometry":{"coordinates":[18.225759,46.037059],"type":"Point"},"properties":{"osm_id":"6408777675","tag":{"amenity":"waste_basket"}},"type":"Feature"},
	{"geometry":{"coordinates":[18.223836,46.037608],"type":"Point"},"properties":{"osm_id":"6408777721","tag":{"amenity":"recycling","recycling_type":"container"}},"type":"Feature"},
	{"geometry":{"coordinates":[18.223375,46.037942],"type":"Point"},"properties":{"osm_id":"6408777742","tag":{"amenity":"waste_basket"}},"type":"Feature"},
	{"geometry":{"coordinates":[18.229076,46.039505],"type":"Point"},"properties":{"osm_id":"6409022561","tag":{"amenity":"waste_basket"}},"type":"Feature"},
	{"geometry":{"coordinates":[18.228834,46.038617],"type":"Point"},"properties":{"osm_id":"6409023315","tag":{"amenity":"recycling","recycling_type":"container"}},"type":"Feature"},
	{"geometry":{"coordinates":[18.230873,46.038763],"type":"Point"},"properties":{"osm_id":"6409023377","tag":{"amenity":"waste_basket"}},"type":"Feature"},
	{"geometry":{"coordinates":[18.230967,46.038533],"type":"Point"},"properties":{"osm_id":"6409023499","tag":{"amenity":"recycling","recycling_type":"container"}},"type":"Feature"},
	{"geometry":{"coordinates":[18.227138,46.037606],"type":"Point"},"properties":{"osm_id":"6411095049","tag":{"amenity":"waste_basket"}},"type":"Feature"},
	{"geometry":{"coordinates":[18.228441,46.037142],"type":"Point"},"properties":{"osm_id":"6411096231","tag":{"amenity":"recycling","recycling_type":"container"}},"type":"Feature"},
	{"geometry":{"coordinates":[18.228815,46.036969],"type":"Point"},"properties":{"osm_id":"6411096233","tag":{"amenity":"recycling","recycling_type":"container"}},"type":"Feature"},
	{"geometry":{"coordinates":[18.227468,46.037479],"type":"Point"},"properties":{"osm_id":"6411096278","tag":{"amenity":"waste_basket"}},"type":"Feature"},
	{"geometry":{"coordinates":[18.228036,46.037305],"type":"Point"},"properties":{"osm_id":"6411096279","tag":{"amenity":"recycling","recycling_type":"container"}},"type":"Feature"},
	{"geometry":{"coordinates":[18.226922,46.035822],"type":"Point"},"properties":{"osm_id":"6411096623","tag":{"amenity":"recycling","recycling_type":"container"}},"type":"Feature"},
	{"geometry":{"coordinates":[18.213885,46.051198],"type":"Point"},"properties":{"osm_id":"6411747884","tag":{"amenity":"recycling","recycling:glass":"yes","recycling_type":"container"}},"type":"Feature"},
	{"geometry":{"coordinates":[18.218578,46.04409],"type":"Point"},"properties":{"osm_id":"6412061350","tag":{"amenity":"recycling","recycling_type":"container"}},"type":"Feature"},
	{"geometry":{"coordinates":[18.215966,46.044517],"type":"Point"},"properties":{"osm_id":"6412061411","tag":{"amenity":"waste_basket"}},"type":"Feature"},
	{"geometry":{"coordinates":[18.216133,46.043132],"type":"Point"},"properties":{"osm_id":"6412061433","tag":{"amenity":"waste_basket"}},"type":"Feature"},
	{"geometry":{"coordinates":[18.215926,46.043105],"type":"Point"},"properties":{"osm_id":"6412061434","tag":{"amenity":"waste_basket"}},"type":"Feature"},
	{"geometry":{"coordinates":[18.216673,46.043039],"type":"Point"},"properties":{"osm_id":"6412061440","tag":{"amenity":"recycling","recycling_type":"container"}},"type":"Feature"},
	{"geometry":{"coordinates":[18.216087,46.044167],"type":"Point"},"properties":{"osm_id":"6412061697","tag":{"amenity":"recycling","recycling_type":"container"}},"type":"Feature"},
	{"geometry":{"coordinates":[18.222062,46.045197],"type":"Point"},"properties":{"osm_id":"6414305351","tag":{"amenity":"recycling","recycling_type":"container"}},"type":"Feature"},
	{"geometry":{"coordinates":[18.222543,46.044747],"type":"Point"},"properties":{"osm_id":"6414305357","tag":{"amenity":"waste_basket"}},"type":"Feature"},
	{"geometry":{"coordinates":[18.222578,46.044297],"type":"Point"},"properties":{"osm_id":"6414305362","tag":{"amenity":"recycling","recycling_type":"container"}},"type":"Feature"},
	{"geometry":{"coordinates":[18.223115,46.044587],"type":"Point"},"properties":{"osm_id":"6414305364","tag":{"amenity":"waste_basket"}},"type":"Feature"},
	{"geometry":{"coordinates":[18.222978,46.044785],"type":"Point"},"properties":{"osm_id":"6414305372","tag":{"amenity":"waste_basket"}},"type":"Feature"},
	{"geometry":{"coordinates":[18.216246,46.046549],"type":"Point"},"properties":{"osm_id":"6414856735","tag":{"amenity":"waste_basket"}},"type":"Feature"},
	{"geometry":{"coordinates":[18.216659,46.046686],"type":"Point"},"properties":{"osm_id":"6414856745","tag":{"amenity":"waste_basket"}},"type":"Feature"},
	{"geometry":{"coordinates":[18.216791,46.046604],"type":"Point"},"properties":{"osm_id":"6414856775","tag":{"amenity":"recycling","recycling_type":"container"}},"type":"Feature"},
	{"geometry":{"coordinates":[18.233213,46.055816],"type":"Point"},"properties":{"osm_id":"6416400388","tag":{"amenity":"waste_basket"}},"type":"Feature"},
	{"geometry":{"coordinates":[18.232216,46.056159],"type":"Point"},"properties":{"osm_id":"6416400390","tag":{"amenity":"waste_basket"}},"type":"Feature"},
	{"geometry":{"coordinates":[18.231971,46.056046],"type":"Point"},"properties":{"osm_id":"6416400391","tag":{"amenity":"waste_basket"}},"type":"Feature"},
	{"geometry":{"coordinates":[18.232453,46.056273],"type":"Point"},"properties":{"osm_id":"6416400392","tag":{"amenity":"waste_basket"}},"type":"Feature"},
	{"geometry":{"coordinates":[18.232699,46.056377],"type":"Point"},"properties":{"osm_id":"6416400393","tag":{"amenity":"waste_basket"}},"type":"Feature"},
	{"geometry":{"coordinates":[18.232773,46.056416],"type":"Point"},"properties":{"osm_id":"6416400394","tag":{"amenity":"waste_basket"}},"type":"Feature"},
	{"geometry":{"coordinates":[18.232909,46.056468],"type":"Point"},"properties":{"osm_id":"6416400395","tag":{"amenity":"waste_basket"}},"type":"Feature"},
	{"geometry":{"coordinates":[18.232586,46.056827],"type":"Point"},"properties":{"osm_id":"6416400396","tag":{"amenity":"recycling","recycling_type":"container"}},"type":"Feature"},
	{"geometry":{"coordinates":[18.233204,46.056485],"type":"Point"},"properties":{"osm_id":"6416400397","tag":{"amenity":"waste_basket"}},"type":"Feature"},
	{"geometry":{"coordinates":[18.233357,46.056295],"type":"Point"},"properties":{"osm_id":"6416400398","tag":{"amenity":"waste_basket"}},"type":"Feature"},
	{"geometry":{"coordinates":[18.233521,46.056117],"type":"Point"},"properties":{"osm_id":"6416400405","tag":{"amenity":"waste_basket"}},"type":"Feature"},
	{"geometry":{"coordinates":[18.233729,46.055907],"type":"Point"},"properties":{"osm_id":"6416400407","tag":{"amenity":"waste_basket"}},"type":"Feature"},
	{"geometry":{"coordinates":[18.233776,46.05585],"type":"Point"},"properties":{"osm_id":"6416400408","tag":{"amenity":"waste_basket"}},"type":"Feature"},
	{"geometry":{"coordinates":[18.234067,46.055866],"type":"Point"},"properties":{"osm_id":"6416400409","tag":{"amenity":"waste_basket"}},"type":"Feature"},
	{"geometry":{"coordinates":[18.209266,46.072741],"type":"Point"},"properties":{"osm_id":"6418544752","tag":{"amenity":"waste_basket"}},"type":"Feature"},
	{"geometry":{"coordinates":[18.213652,46.053779],"type":"Point"},"properties":{"osm_id":"6419106567","tag":{"amenity":"waste_basket"}},"type":"Feature"},
	{"geometry":{"coordinates":[18.220484,46.0692],"type":"Point"},"properties":{"osm_id":"6419170048","tag":{"amenity":"waste_basket"}},"type":"Feature"},
	{"geometry":{"coordinates":[18.221662,46.069234],"type":"Point"},"properties":{"osm_id":"6419170075","tag":{"amenity":"waste_basket"}},"type":"Feature"},
	{"geometry":{"coordinates":[18.221381,46.069346],"type":"Point"},"properties":{"osm_id":"6419170078","tag":{"amenity":"waste_basket"}},"type":"Feature"},
	{"geometry":{"coordinates":[18.221685,46.069424],"type":"Point"},"properties":{"osm_id":"6419170080","tag":{"amenity":"waste_basket"}},"type":"Feature"},
	{"geometry":{"coordinates":[18.222029,46.069417],"type":"Point"},"properties":{"osm_id":"6419170084","tag":{"amenity":"waste_basket"}},"type":"Feature"},
	{"geometry":{"coordinates":[18.222289,46.069253],"type":"Point"},"properties":{"osm_id":"6419170194","tag":{"amenity":"waste_basket"}},"type":"Feature"},
	{"geometry":{"coordinates":[18.222921,46.069346],"type":"Point"},"properties":{"osm_id":"6419170204","tag":{"amenity":"waste_basket"}},"type":"Feature"},
	{"geometry":{"coordinates":[18.222885,46.069457],"type":"Point"},"properties":{"osm_id":"6419170205","tag":{"amenity":"waste_basket"}},"type":"Feature"},
	{"geometry":{"coordinates":[18.211793,46.071228],"type":"Point"},"properties":{"osm_id":"6421037815","tag":{"amenity":"recycling","recycling_type":"container"}},"type":"Feature"},
	{"geometry":{"coordinates":[18.212425,46.071081],"type":"Point"},"properties":{"osm_id":"6421037820","tag":{"amenity":"recycling","recycling_type":"container"}},"type":"Feature"},
	{"geometry":{"coordinates":[18.212959,46.071324],"type":"Point"},"properties":{"osm_id":"6421037841","tag":{"amenity":"recycling","recycling_type":"container"}},"type":"Feature"},
	{"geometry":{"coordinates":[18.201862,46.068771],"type":"Point"},"properties":{"osm_id":"6421159588","tag":{"amenity":"recycling","recycling_type":"container"}},"type":"Feature"},
	{"geometry":{"coordinates":[18.205075,46.069605],"type":"Point"},"properties":{"osm_id":"6421159687","tag":{"amenity":"recycling","recycling_type":"container"}},"type":"Feature"},
	{"geometry":{"coordinates":[18.206139,46.069984],"type":"Point"},"properties":{"osm_id":"6421159704","tag":{"amenity":"recycling","recycling_type":"container"}},"type":"Feature"},
	{"geometry":{"coordinates":[18.197481,46.068268],"type":"Point"},"properties":{"osm_id":"6421183899","tag":{"amenity":"recycling","recycling_type":"container"}},"type":"Feature"},
	{"geometry":{"coordinates":[18.195694,46.062916],"type":"Point"},"properties":{"osm_id":"6426244007","tag":{"amenity":"recycling","recycling:glass_bottles":"yes","recycling_type":"container"}},"type":"Feature"},
	{"geometry":{"coordinates":[18.199853,46.062592],"type":"Point"},"properties":{"osm_id":"6428475004","tag":{"amenity":"waste_basket"}},"type":"Feature"},
	{"geometry":{"coordinates":[18.200172,46.063891],"type":"Point"},"properties":{"osm_id":"6428475053","tag":{"amenity":"waste_basket"}},"type":"Feature"},
	{"geometry":{"coordinates":[18.202147,46.063603],"type":"Point"},"properties":{"osm_id":"6428475139","tag":{"amenity":"recycling","recycling:glass_bottles":"yes","recycling_type":"container"}},"type":"Feature"},
	{"geometry":{"coordinates":[18.198212,46.061952],"type":"Point"},"properties":{"osm_id":"6429721523","tag":{"amenity":"waste_basket"}},"type":"Feature"},
	{"geometry":{"coordinates":[18.195188,46.061885],"type":"Point"},"properties":{"osm_id":"6429800748","tag":{"amenity":"recycling","recycling:glass_bottles":"yes","recycling_type":"container"}},"type":"Feature"},
	{"geometry":{"coordinates":[18.198533,46.06368],"type":"Point"},"properties":{"osm_id":"6436145508","tag":{"amenity":"recycling","recycling:glass_bottles":"yes","recycling_type":"container"}},"type":"Feature"},
	{"geometry":{"coordinates":[18.193492,46.063106],"type":"Point"},"properties":{"osm_id":"6436145519","tag":{"amenity":"waste_basket"}},"type":"Feature"},
	{"geometry":{"coordinates":[18.220328,46.031017],"type":"Point"},"properties":{"osm_id":"6439030478","tag":{"amenity":"waste_basket"}},"type":"Feature"},
	{"geometry":{"coordinates":[18.22084,46.032242],"type":"Point"},"properties":{"osm_id":"6439035316","tag":{"amenity":"recycling","recycling_type":"container"}},"type":"Feature"},
	{"geometry":{"coordinates":[18.195996,46.066953],"type":"Point"},"properties":{"osm_id":"6442055157","tag":{"amenity":"waste_basket","waste":"trash"}},"type":"Feature"},
	{"geometry":{"coordinates":[18.195312,46.065705],"type":"Point"},"properties":{"osm_id":"6443258344","tag":{"amenity":"waste_basket"}},"type":"Feature"},
	{"geometry":{"coordinates":[18.194942,46.066544],"type":"Point"},"properties":{"osm_id":"6446711617","tag":{"amenity":"waste_basket"}},"type":"Feature"},
	{"geometry":{"coordinates":[18.20612,46.065559],"type":"Point"},"properties":{"osm_id":"6447095061","tag":{"amenity":"waste_basket"}},"type":"Feature"},
	{"geometry":{"coordinates":[18.206875,46.064523],"type":"Point"},"properties":{"osm_id":"6447105055","tag":{"amenity":"waste_basket"}},"type":"Feature"},
	{"geometry":{"coordinates":[18.206532,46.066559],"type":"Point"},"properties":{"osm_id":"6447570101","tag":{"amenity":"recycling","recycling_type":"container"}},"type":"Feature"},
	{"geometry":{"coordinates":[18.205734,46.064875],"type":"Point"},"properties":{"osm_id":"6447593512","tag":{"amenity":"waste_basket"}},"type":"Feature"},
	{"geometry":{"coordinates":[18.197903,46.064068],"type":"Point"},"properties":{"osm_id":"6447715285","tag":{"amenity":"waste_basket"}},"type":"Feature"},
	{"geometry":{"coordinates":[18.201014,46.065475],"type":"Point"},"properties":{"osm_id":"6448366580","tag":{"amenity":"recycling","recycling_type":"container"}},"type":"Feature"},
	{"geometry":{"coordinates":[18.201277,46.066082],"type":"Point"},"properties":{"osm_id":"6449092436","tag":{"amenity":"recycling","recycling:glass_bottles":"yes","recycling_type":"container"}},"type":"Feature"},
	{"geometry":{"coordinates":[18.202305,46.06592],"type":"Point"},"properties":{"osm_id":"6449119443","tag":{"amenity":"recycling","recycling:glass_bottles":"yes","recycling_type":"container"}},"type":"Feature"},
	{"geometry":{"coordinates":[18.202055,46.066222],"type":"Point"},"properties":{"osm_id":"6449119444","tag":{"amenity":"recycling","recycling:glass_bottles":"yes","recycling_type":"container"}},"type":"Feature"},
	{"geometry":{"coordinates":[18.204943,46.06712],"type":"Point"},"properties":{"osm_id":"6449232108","tag":{"amenity":"recycling","recycling_type":"container"}},"type":"Feature"},
	{"geometry":{"coordinates":[18.204116,46.066921],"type":"Point"},"properties":{"osm_id":"6449263115","tag":{"amenity":"recycling","recycling_type":"container"}},"type":"Feature"},
	{"geometry":{"coordinates":[18.206496,46.072518],"type":"Point"},"properties":{"osm_id":"6454986770","tag":{"amenity":"waste_basket"}},"type":"Feature"},
	{"geometry":{"coordinates":[18.211187,46.072346],"type":"Point"},"properties":{"osm_id":"6459173327","tag":{"amenity":"waste_basket"}},"type":"Feature"},
	{"geometry":{"coordinates":[18.223581,46.04076],"type":"Point"},"properties":{"osm_id":"6470552970","tag":{"amenity":"waste_basket","waste":"trash"}},"type":"Feature"},
	{"geometry":{"coordinates":[18.209531,46.073203],"type":"Point"},"properties":{"osm_id":"6476373623","tag":{"amenity":"waste_basket"}},"type":"Feature"},
	{"geometry":{"coordinates":[18.201673,46.067043],"type":"Point"},"properties":{"osm_id":"6478924247","tag":{"amenity":"recycling","recycling_type":"container"}},"type":"Feature"},
	{"geometry":{"coordinates":[18.201506,46.067315],"type":"Point"},"properties":{"osm_id":"6478924255","tag":{"amenity":"waste_basket"}},"type":"Feature"},
	{"geometry":{"coordinates":[18.201032,46.06747],"type":"Point"},"properties":{"osm_id":"6478924279","tag":{"amenity":"recycling","recycling_type":"container"}},"type":"Feature"},
	{"geometry":{"coordinates":[18.200839,46.067723],"type":"Point"},"properties":{"osm_id":"6478931315","tag":{"amenity":"recycling","recycling_type":"container"}},"type":"Feature"},
	{"geometry":{"coordinates":[18.199993,46.067539],"type":"Point"},"properties":{"osm_id":"6478931319","tag":{"amenity":"recycling","recycling_type":"container"}},"type":"Feature"},
	{"geometry":{"coordinates":[18.199083,46.067148],"type":"Point"},"properties":{"osm_id":"6478931320","tag":{"amenity":"recycling","recycling_type":"container"}},"type":"Feature"},
	{"geometry":{"coordinates":[18.199597,46.067391],"type":"Point"},"properties":{"osm_id":"6478931330","tag":{"amenity":"recycling","recycling_type":"container"}},"type":"Feature"},
	{"geometry":{"coordinates":[18.200662,46.066628],"type":"Point"},"properties":{"osm_id":"6478983511","tag":{"amenity":"recycling","recycling_type":"container"}},"type":"Feature"},
	{"geometry":{"coordinates":[18.199769,46.066829],"type":"Point"},"properties":{"osm_id":"6478983553","tag":{"amenity":"recycling","recycling_type":"container"}},"type":"Feature"},
	{"geometry":{"coordinates":[18.200509,46.067052],"type":"Point"},"properties":{"osm_id":"6478983561","tag":{"amenity":"recycling","recycling_type":"container"}},"type":"Feature"},
	{"geometry":{"coordinates":[18.201504,46.06688],"type":"Point"},"properties":{"osm_id":"6478985203","tag":{"amenity":"recycling","recycling_type":"container"}},"type":"Feature"},
	{"geometry":{"coordinates":[18.211412,46.064782],"type":"Point"},"properties":{"osm_id":"6481238663","tag":{"amenity":"waste_basket"}},"type":"Feature"},
	{"geometry":{"coordinates":[18.211379,46.064715],"type":"Point"},"properties":{"osm_id":"6481238664","tag":{"amenity":"waste_basket"}},"type":"Feature"},
	{"geometry":{"coordinates":[18.211206,46.06509],"type":"Point"},"properties":{"osm_id":"6481238670","tag":{"amenity":"waste_basket"}},"type":"Feature"},
	{"geometry":{"coordinates":[18.198372,46.066591],"type":"Point"},"properties":{"osm_id":"6482364901","tag":{"amenity":"recycling","recycling_type":"container"}},"type":"Feature"},
	{"geometry":{"coordinates":[18.203402,46.068628],"type":"Point"},"properties":{"osm_id":"6484333782","tag":{"amenity":"recycling","recycling_type":"container"}},"type":"Feature"},
	{"geometry":{"coordinates":[18.205895,46.068822],"type":"Point"},"properties":{"osm_id":"6484337317","tag":{"amenity":"recycling","recycling:cans":"no","recycling:clothes":"no","recycling:glass":"yes","recycling:glass_bottles":"yes","recycling:paper":"yes","recycling:plastic":"yes","recycling_type":"centre","source:date":"2012-03-29","url":"http://turistautak.hu/poi.php?id=136368"}},"type":"Feature"},
	{"geometry":{"coordinates":[18.20517,46.069033],"type":"Point"},"properties":{"osm_id":"6484337342","tag":{"amenity":"recycling","recycling_type":"container"}},"type":"Feature"},
	{"geometry":{"coordinates":[18.202541,46.068368],"type":"Point"},"properties":{"osm_id":"6485541668","tag":{"amenity":"recycling","recycling_type":"container"}},"type":"Feature"},
	{"geometry":{"coordinates":[18.19915,46.065177],"type":"Point"},"properties":{"osm_id":"6495314300","tag":{"amenity":"recycling","recycling:glass_bottles":"yes","recycling_type":"container"}},"type":"Feature"},
	{"geometry":{"coordinates":[18.227655,46.070466],"type":"Point"},"properties":{"osm_id":"6495955745","tag":{"amenity":"recycling","recycling_type":"container"}},"type":"Feature"},
	{"geometry":{"coordinates":[18.202926,46.064878],"type":"Point"},"properties":{"osm_id":"6502401845","tag":{"amenity":"recycling","recycling:glass_bottles":"yes","recycling_type":"container"}},"type":"Feature"},
	{"geometry":{"coordinates":[18.223033,46.071295],"type":"Point"},"properties":{"osm_id":"6506272891","tag":{"amenity":"recycling","recycling:glass_bottles":"yes","recycling_type":"container"}},"type":"Feature"},
	{"geometry":{"coordinates":[18.200289,46.06786],"type":"Point"},"properties":{"osm_id":"6506612714","tag":{"amenity":"waste_basket","waste":"dog_excrement"}},"type":"Feature"},
	{"geometry":{"coordinates":[18.200344,46.067877],"type":"Point"},"properties":{"osm_id":"6506612715","tag":{"amenity":"waste_basket","waste":"dog_excrement"}},"type":"Feature"},
	{"geometry":{"coordinates":[18.239012,46.04457],"type":"Point"},"properties":{"osm_id":"6952200837","tag":{"amenity":"recycling","recycling_type":"container"}},"type":"Feature"},
	{"geometry":{"coordinates":[18.237059,46.04426],"type":"Point"},"properties":{"osm_id":"6952209021","tag":{"amenity":"recycling","recycling_type":"container"}},"type":"Feature"},
	{"geometry":{"coordinates":[18.221596,46.03485],"type":"Point"},"properties":{"osm_id":"7019527225","tag":{"amenity":"waste_basket","waste":"dog_excrement"}},"type":"Feature"},
	{"geometry":{"coordinates":[18.213499,46.072946],"type":"Point"},"properties":{"osm_id":"7288596974","tag":{"amenity":"waste_basket","waste":"trash"}},"type":"Feature"},
	{"geometry":{"coordinates":[18.246636,46.054722],"type":"Point"},"properties":{"osm_id":"7368995415","tag":{"amenity":"waste_basket","waste":"trash"}},"type":"Feature"},
	{"geometry":{"coordinates":[18.24416,46.053456],"type":"Point"},"properties":{"osm_id":"7368995443","tag":{"amenity":"waste_basket","waste":"trash"}},"type":"Feature"},
	{"geometry":{"coordinates":[18.244921,46.053024],"type":"Point"},"properties":{"osm_id":"7368995474","tag":{"amenity":"waste_basket","waste":"trash"}},"type":"Feature"},
	{"geometry":{"coordinates":[18.245593,46.052677],"type":"Point"},"properties":{"osm_id":"7369007991","tag":{"amenity":"waste_basket","waste":"trash"}},"type":"Feature"},
	{"geometry":{"coordinates":[18.245595,46.05237],"type":"Point"},"properties":{"osm_id":"7369008007","tag":{"amenity":"waste_basket","waste":"trash"}},"type":"Feature"},
	{"geometry":{"coordinates":[18.245715,46.052445],"type":"Point"},"properties":{"osm_id":"7369008014","tag":{"amenity":"waste_basket","waste":"trash"}},"type":"Feature"},
	{"geometry":{"coordinates":[18.245892,46.052347],"type":"Point"},"properties":{"osm_id":"7369008017","tag":{"amenity":"waste_basket","waste":"trash"}},"type":"Feature"},
	{"geometry":{"coordinates":[18.244451,46.05326],"type":"Point"},"properties":{"osm_id":"7372098227","tag":{"amenity":"waste_basket","waste":"trash"}},"type":"Feature"},
	{"geometry":{"coordinates":[18.20072,46.067981],"type":"Point"},"properties":{"osm_id":"7392139781","tag":{"amenity":"recycling","recycling_type":"container"}},"type":"Feature"},
	{"geometry":{"coordinates":[18.213565,46.039558],"type":"Point"},"properties":{"osm_id":"7399343493","tag":{"amenity":"waste_basket","waste":"trash"}},"type":"Feature"},
	{"geometry":{"coordinates":[18.218977,46.037472],"type":"Point"},"properties":{"osm_id":"7402602742","tag":{"amenity":"waste_basket"}},"type":"Feature"},
	{"geometry":{"coordinates":[18.216429,46.03915],"type":"Point"},"properties":{"osm_id":"7402677461","tag":{"amenity":"waste_basket"}},"type":"Feature"},
	{"geometry":{"coordinates":[18.204971,46.064991],"type":"Point"},"properties":{"osm_id":"7411072341","tag":{"amenity":"waste_basket"}},"type":"Feature"},
	{"geometry":{"coordinates":[18.203315,46.067232],"type":"Point"},"properties":{"osm_id":"7411072364","tag":{"amenity":"waste_basket"}},"type":"Feature"},
	{"geometry":{"coordinates":[18.202706,46.067159],"type":"Point"},"properties":{"osm_id":"7411072365","tag":{"amenity":"waste_basket"}},"type":"Feature"},
	{"geometry":{"coordinates":[18.195042,46.0636],"type":"Point"},"properties":{"osm_id":"7489315220","tag":{"amenity":"waste_basket","waste":"dog_excrement"}},"type":"Feature"},
	{"geometry":{"coordinates":[18.195521,46.063635],"type":"Point"},"properties":{"osm_id":"7489315221","tag":{"amenity":"waste_basket","waste":"trash"}},"type":"Feature"},
	{"geometry":{"coordinates":[18.230718,46.046726],"type":"Point"},"properties":{"osm_id":"7544756053","tag":{"amenity":"waste_basket"}},"type":"Feature"},
	{"geometry":{"coordinates":[18.2253,46.036972],"type":"Point"},"properties":{"osm_id":"7551836999","tag":{"amenity":"waste_basket","waste":"trash"}},"type":"Feature"},
	{"geometry":{"coordinates":[18.225377,46.036664],"type":"Point"},"properties":{"osm_id":"7551837000","tag":{"amenity":"waste_basket","waste":"trash"}},"type":"Feature"},
	{"geometry":{"coordinates":[18.194388,46.065625],"type":"Point"},"properties":{"osm_id":"7559722881","tag":{"amenity":"waste_basket","waste":"trash"}},"type":"Feature"},
	{"geometry":{"coordinates":[18.219726,46.043924],"type":"Point"},"properties":{"osm_id":"7575299376","tag":{"amenity":"waste_basket","waste":"trash"}},"type":"Feature"},
	{"geometry":{"coordinates":[18.19568,46.06782],"type":"Point"},"properties":{"osm_id":"7578364058","tag":{"amenity":"waste_basket","waste":"trash"}},"type":"Feature"},
	{"geometry":{"coordinates":[18.206029,46.065219],"type":"Point"},"properties":{"osm_id":"7589621619","tag":{"amenity":"waste_basket"}},"type":"Feature"},
	{"geometry":{"coordinates":[18.212619,46.072731],"type":"Point"},"properties":{"osm_id":"7593048723","tag":{"amenity":"waste_basket","waste":"trash"}},"type":"Feature"},
	{"geometry":{"coordinates":[18.194211,46.06372],"type":"Point"},"properties":{"osm_id":"7605844902","tag":{"amenity":"waste_basket","waste":"trash"}},"type":"Feature"},
	{"geometry":{"coordinates":[18.224808,46.036941],"type":"Point"},"properties":{"osm_id":"7649544292","tag":{"amenity":"waste_basket","waste":"trash"}},"type":"Feature"},
	{"geometry":{"coordinates":[18.224687,46.036675],"type":"Point"},"properties":{"osm_id":"7649544305","tag":{"amenity":"waste_basket","waste":"trash"}},"type":"Feature"},
	{"geometry":{"coordinates":[18.225048,46.036847],"type":"Point"},"properties":{"osm_id":"7649544307","tag":{"amenity":"waste_basket","waste":"trash"}},"type":"Feature"},
	{"geometry":{"coordinates":[18.225,46.03694],"type":"Point"},"properties":{"osm_id":"7649544312","tag":{"amenity":"waste_basket","waste":"trash"}},"type":"Feature"},
	{"geometry":{"coordinates":[18.22472,46.037112],"type":"Point"},"properties":{"osm_id":"7649544326","tag":{"amenity":"waste_basket","waste":"trash"}},"type":"Feature"},
	{"geometry":{"coordinates":[18.221938,46.04267],"type":"Point"},"properties":{"osm_id":"7674905844","tag":{"amenity":"waste_basket","waste":"trash"}},"type":"Feature"},
	{"geometry":{"coordinates":[18.216803,46.041373],"type":"Point"},"properties":{"osm_id":"7674939304","tag":{"amenity":"waste_disposal","waste":"trash"}},"type":"Feature"},
	{"geometry":{"coordinates":[18.216882,46.041947],"type":"Point"},"properties":{"osm_id":"7674939309","tag":{"amenity":"waste_basket","waste":"trash"}},"type":"Feature"},
	{"geometry":{"coordinates":[18.21741,46.042181],"type":"Point"},"properties":{"osm_id":"7674939312","tag":{"amenity":"waste_basket","waste":"trash"}},"type":"Feature"},
	{"geometry":{"coordinates":[18.230173,46.051326],"type":"Point"},"properties":{"osm_id":"7868152562","tag":{"amenity":"waste_basket","waste":"dog_excrement"}},"type":"Feature"},
	{"geometry":{"coordinates":[18.230194,46.051445],"type":"Point"},"properties":{"osm_id":"7868152564","tag":{"amenity":"waste_basket","waste":"dog_excrement"}},"type":"Feature"},
	{"geometry":{"coordinates":[18.229933,46.05123],"type":"Point"},"properties":{"osm_id":"7868152567","tag":{"amenity":"waste_basket","waste":"dog_excrement"}},"type":"Feature"}
]
}
