{
"type": "FeatureCollection",
"features": [
	{"geometry":{"coordinates":[32.618706,0.303674],"type":"Point"},"properties":{"osm_id":"3328341245","tag":{"amenity":"recycling","recycling:cans":"yes","recycling_type":"centre"}},"type":"Feature"},
	{"geometry":{"coordinates":[32.63654,0.331122],"type":"Point"},"properties":{"osm_id":"5466598354","tag":{"access":"yes","addr:city":"Kampala","addr:suburb":"Nakawa","amenity":"recycling","fee":"no","legal":"no","operator":"private","recycling_type":"container","waste":"trash"}},"type":"Feature"},
	{"geometry":{"coordinates":[32.642355,0.305245],"type":"Point"},"properties":{"osm_id":"5466598367","tag":{"access":"yes","addr:city":"Kampala","addr:suburb":"Nakawa","amenity":"recycling","fee":"no","legal":"no","operator":"private","recycling_type":"container","waste":"trash"}},"type":"Feature"},
	{"geometry":{"coordinates":[32.630038,0.310609],"type":"Point"},"properties":{"osm_id":"5466598371","tag":{"access":"yes","addr:city":"Kampala","addr:suburb":"Nakawa","amenity":"recycling","fee":"no","legal":"no","operator":"private","recycling_type":"container","waste":"trash"}},"type":"Feature"},
	{"geometry":{"coordinates":[32.657268,0.303691],"type":"Point"},"properties":{"osm_id":"5466598382","tag":{"access":"yes","addr:city":"Kampala","addr:suburb":"Nakawa","amenity":"recycling","fee":"no","legal":"yes","operator":"private","recycling_type":"container","waste":"trash"}},"type":"Feature"},
	{"geometry":{"coordinates":[32.638997,0.317237],"type":"Point"},"properties":{"osm_id":"5466598395","tag":{"access":"yes","addr:city":"Kampala","addr:suburb":"Nakawa","amenity":"recycling","fee":"no","legal":"no","operator":"private","recycling:waste":"yes","recycling_type":"container","waste":"trash"}},"type":"Feature"},
	{"geometry":{"coordinates":[32.619267,0.302938],"type":"Point"},"properties":{"osm_id":"5466598400","tag":{"access":"yes","addr:city":"Kampala","addr:place":"kanyogoga","addr:suburb":"Makindye","amenity":"recycling","fee":"no","legal":"yes","operator":"government","operator:type":"KCCA","recycling_type":"container","waste":"trash"}},"type":"Feature"},
	{"geometry":{"coordinates":[32.625468,0.310834],"type":"Point"},"properties":{"osm_id":"5466678063","tag":{"access":"yes","addr:city":"Kampala","addr:suburb":"Nakawa","amenity":"waste_basket","fee":"no","legal":"no","operator":"private","waste":"trash"}},"type":"Feature"},
	{"geometry":{"coordinates":[32.608666,0.345059],"type":"Point"},"properties":{"osm_id":"5466678065","tag":{"access":"yes","addr:city":"Kampala","addr:street":"Ntinda","addr:suburb":"Nakawa","amenity":"waste_basket","fee":"no","legal":"no","operator":"private","waste":"trash"}},"type":"Feature"},
	{"geometry":{"coordinates":[32.612342,0.30727],"type":"Point"},"properties":{"osm_id":"5467041743","tag":{"access":"no","addr:city":"Kampala","addr:place":"Kasanvu slum","addr:suburb":"Makindye","amenity":"waste_disposal","fee":"yes","legal":"no","operator":"private","operator:type":"Home Klin","waste":"trash"}},"type":"Feature"},
	{"geometry":{"coordinates":[32.613443,0.303904],"type":"Point"},"properties":{"osm_id":"5467041757","tag":{"access":"no","addr:city":"Kampala","addr:place":"Namuwonge","addr:street":"Bukasa Road","addr:suburb":"Makindye","amenity":"waste_disposal","fee":"yes","legal":"no","operator":"private","operator:type":"Home Klin","waste":"trash"}},"type":"Feature"},
	{"geometry":{"coordinates":[32.611845,0.309055],"type":"Point"},"properties":{"name":"Kasanvu","osm_id":"5467041768","tag":{"access":"yes","addr:city":"Kampala","addr:place":"Kasanvu","addr:street":"Railway","addr:suburb":"Makindye","amenity":"waste_disposal","fee":"no","legal":"yes","operator":"government","operator:type":"KCCA","waste":"trash"}},"type":"Feature"},
	{"geometry":{"coordinates":[32.618186,0.301898],"type":"Point"},"properties":{"osm_id":"5467041775","tag":{"access":"no","addr:city":"Kampala","addr:place":"Muyenga","addr:street":"Bukasa Road","addr:suburb":"Makindye","amenity":"waste_disposal","fee":"yes","legal":"no","operator":"private","operator:type":"Home Klin","waste":"trash"}},"type":"Feature"},
	{"geometry":{"coordinates":[32.616914,0.302522],"type":"Point"},"properties":{"osm_id":"5467041782","tag":{"access":"no","addr:city":"Kampala","addr:place":"Namuwongo","addr:street":"Bukasa Road","addr:suburb":"Makindye","amenity":"waste_disposal","fee":"yes","legal":"no","operator":"private","operator:type":"Home Klin","waste":"trash"}},"type":"Feature"},
	{"geometry":{"coordinates":[32.628239,0.312897],"type":"Point"},"properties":{"osm_id":"5467041797","tag":{"access":"yes","addr:city":"Kampala","addr:suburb":"Nakawa","amenity":"waste_disposal","fee":"no","legal":"no","operator":"private","waste":"trash"}},"type":"Feature"},
	{"geometry":{"coordinates":[32.612615,0.305888],"type":"Point"},"properties":{"osm_id":"5467041803","tag":{"access":"no","addr:city":"Kampala","addr:place":"Namuwonge","addr:street":"8th Street","addr:suburb":"Makindye","amenity":"waste_disposal","fee":"yes","legal":"no","operator":"private","operator:type":"Home Klin","waste":"trash"}},"type":"Feature"},
	{"geometry":{"coordinates":[32.627313,0.284538],"type":"Point"},"properties":{"osm_id":"5467041811","tag":{"access":"yes","addr:city":"Kampala","addr:place":"Bukasa","addr:suburb":"Makindye","amenity":"waste_disposal","fee":"no","legal":"no","operator":"community","operator:type":"Community","waste":"trash"}},"type":"Feature"},
	{"geometry":{"coordinates":[32.619103,0.303029],"type":"Point"},"properties":{"osm_id":"5467041813","tag":{"access":"yes","addr:city":"Kampala","addr:place":"kanyogoga","addr:suburb":"Makindye","amenity":"waste_disposal","fee":"no","legal":"yes","operator":"government","operator:type":"KCCA","waste":"trash"}},"type":"Feature"},
	{"geometry":{"coordinates":[32.624186,0.285841],"type":"Point"},"properties":{"osm_id":"5467041814","tag":{"access":"no","addr:city":"Kampala","addr:place":"Bukasa","addr:suburb":"Makindye","amenity":"waste_disposal","fee":"yes","legal":"no","operator":"private","operator:type":"Home Klin","waste":"trash"}},"type":"Feature"},
	{"geometry":{"coordinates":[32.628558,0.288089],"type":"Point"},"properties":{"osm_id":"5467043324","tag":{"access":"no","addr:city":"Kampala","addr:place":"Bukasa","addr:suburb":"Makindye","amenity":"waste_disposal","fee":"yes","legal":"no","operator":"private","operator:type":"Home Klin","waste":"trash"}},"type":"Feature"},
	{"geometry":{"coordinates":[32.627261,0.324568],"type":"Point"},"properties":{"osm_id":"5467043326","tag":{"access":"yes","addr:city":"Kampala","addr:suburb":"Nakawa","amenity":"waste_disposal","fee":"no","legal":"no","operator":"private","waste":"trash"}},"type":"Feature"},
	{"geometry":{"coordinates":[32.627982,0.2929],"type":"Point"},"properties":{"osm_id":"5467043334","tag":{"access":"yes","addr:city":"Kampala","addr:place":"Bukasa","addr:street":"Bukasa Road","addr:suburb":"Makindye","amenity":"waste_disposal","fee":"no","legal":"no","operator:type":"Community","waste":"trash"}},"type":"Feature"},
	{"geometry":{"coordinates":[32.620275,0.34773],"type":"Point"},"properties":{"osm_id":"5467043337","tag":{"access":"yes","addr:city":"Kampala","addr:suburb":"Nakawa","amenity":"waste_disposal","fee":"no","legal":"yes","operator":"private","waste":"trash"}},"type":"Feature"},
	{"geometry":{"coordinates":[32.623494,0.306264],"type":"Point"},"properties":{"osm_id":"5467043348","tag":{"access":"yes","addr:city":"Kampala","addr:suburb":"Nakawa","amenity":"waste_disposal","fee":"no","legal":"no","operator":"private","waste":"trash"}},"type":"Feature"},
	{"geometry":{"coordinates":[32.609396,0.347355],"type":"Point"},"properties":{"osm_id":"5467043349","tag":{"access":"yes","addr:city":"Kampala","addr:street":"Lower East Road","addr:suburb":"Nakawa","amenity":"waste_disposal","fee":"no","legal":"yes","operator":"private","waste":"trash"}},"type":"Feature"},
	{"geometry":{"coordinates":[32.612375,0.304755],"type":"Point"},"properties":{"osm_id":"5467043363","tag":{"access":"no","addr:city":"Kampala","addr:place":"kisugu","addr:street":"Kisugu","addr:suburb":"Makindye","amenity":"waste_disposal","fee":"yes","legal":"no","operator":"private","operator:type":"Home Klin","waste":"trash"}},"type":"Feature"},
	{"geometry":{"coordinates":[32.618966,0.301812],"type":"Point"},"properties":{"osm_id":"5467043366","tag":{"access":"no","addr:city":"Kampala","addr:place":"Muyenga","addr:street":"Bukasa Road","addr:suburb":"Makindye","amenity":"waste_disposal","fee":"yes","legal":"no","operator":"private","operator:type":"Home Klin","waste":"trash"}},"type":"Feature"},
	{"geometry":{"coordinates":[32.613108,0.305148],"type":"Point"},"properties":{"osm_id":"5467043374","tag":{"access":"no","addr:city":"Kampala","addr:place":"Namuwonge","addr:street":"8th Street","addr:suburb":"Makindye","amenity":"waste_disposal","fee":"yes","legal":"no","operator":"private","operator:type":"Home Klin","waste":"trash"}},"type":"Feature"},
	{"geometry":{"coordinates":[32.61446,0.302884],"type":"Point"},"properties":{"osm_id":"5467043381","tag":{"access":"no","addr:city":"Kampala","addr:place":"Namuwongo","addr:street":"Bukasa Road","addr:suburb":"Makindye","amenity":"waste_disposal","fee":"yes","legal":"no","operator":"private","operator:type":"Home Klin","waste":"trash"}},"type":"Feature"},
	{"geometry":{"coordinates":[32.612336,0.345584],"type":"Point"},"properties":{"osm_id":"5467043384","tag":{"access":"yes","addr:city":"Kampala","addr:suburb":"Nakawa","amenity":"waste_disposal","fee":"no","legal":"yes","operator":"private","waste":"trash"}},"type":"Feature"},
	{"geometry":{"coordinates":[32.614288,0.302605],"type":"Point"},"properties":{"osm_id":"5467043390","tag":{"access":"no","addr:city":"Kampala","addr:place":"Namuwonge","addr:street":"Bukasa Road","addr:suburb":"Makindye","amenity":"waste_disposal","fee":"yes","legal":"yes","operator":"private","operator:type":"Home Klin","waste":"trash"}},"type":"Feature"},
	{"geometry":{"coordinates":[32.615318,0.303775],"type":"Point"},"properties":{"osm_id":"5467043399","tag":{"access":"no","addr:city":"Kampala","addr:place":"Namuwonge","addr:street":"Bukasa Road","addr:suburb":"Makindye","amenity":"waste_disposal","fee":"yes","legal":"no","operator":"private","operator:type":"Home Klin","waste":"trash"}},"type":"Feature"},
	{"geometry":{"coordinates":[32.617565,0.302129],"type":"Point"},"properties":{"osm_id":"5467043402","tag":{"access":"no","addr:city":"Kampala","addr:place":"Muyenga","addr:street":"Bukasa Road","addr:suburb":"Makindye","amenity":"waste_disposal","fee":"yes","legal":"no","operator":"private","operator:type":"Home Klin","waste":"trash"}},"type":"Feature"},
	{"geometry":{"coordinates":[32.61335,0.305009],"type":"Point"},"properties":{"osm_id":"5467043403","tag":{"access":"no","addr:city":"Kampala","addr:place":"Namuwongo","addr:suburb":"Makindye","amenity":"waste_disposal","fee":"yes","legal":"no","operator":"private","operator:type":"Home Klin","waste":"trash"}},"type":"Feature"},
	{"geometry":{"coordinates":[32.627646,0.288664],"type":"Point"},"properties":{"osm_id":"5467043411","tag":{"access":"yes","addr:city":"Kampala","addr:place":"Bukasa","addr:street":"Bukasa Road","addr:suburb":"Makindye","amenity":"waste_disposal","fee":"yes","legal":"no","operator":"private","operator:type":"Home Klin","waste":"trash"}},"type":"Feature"},
	{"geometry":{"coordinates":[32.612915,0.305231],"type":"Point"},"properties":{"osm_id":"5467043418","tag":{"access":"no","addr:city":"Kampala","addr:place":"Namuwongo","addr:street":"8th Street","addr:suburb":"Makindye","amenity":"waste_disposal","fee":"yes","legal":"no","operator":"private","operator:type":"Home Klin","waste":"trash"}},"type":"Feature"},
	{"geometry":{"coordinates":[32.617606,0.302316],"type":"Point"},"properties":{"osm_id":"5467044024","tag":{"access":"yes","addr:city":"Kampala","addr:place":"Namuwongo","addr:street":"Bukasa Road","addr:suburb":"Makindye","amenity":"waste_disposal","fee":"yes","legal":"no","operator":"Government","operator:type":"KCCA","waste":"trash"}},"type":"Feature"},
	{"geometry":{"coordinates":[32.634019,0.33532],"type":"Point"},"properties":{"osm_id":"5495801226","tag":{"amenity":"recycling","operator":"Consortium","recycling_type":"centre"}},"type":"Feature"},
	{"geometry":{"coordinates":[32.633807,0.335167],"type":"Point"},"properties":{"osm_id":"5495801227","tag":{"amenity":"recycling","operator":"Home Klin","recycling_type":"centre"}},"type":"Feature"},
	{"geometry":{"coordinates":[32.633938,0.335475],"type":"Point"},"properties":{"osm_id":"5495801228","tag":{"amenity":"recycling","operator":"Nabugabo","recycling_type":"centre"}},"type":"Feature"},
	{"geometry":{"coordinates":[32.633748,0.33539],"type":"Point"},"properties":{"osm_id":"5495801229","tag":{"amenity":"recycling","operator":"KCCA","recycling_type":"centre"}},"type":"Feature"},
	{"geometry":{"coordinates":[32.638192,0.346625],"type":"Point"},"properties":{"osm_id":"5514322064","tag":{"access":"yes","addr:city":"Kampala","addr:suburb":"Nakawa Division","amenity":"recycling","fee":"no","legal":"no","operator":"private","recycling_type":"centre","waste":"trash"}},"type":"Feature"},
	{"geometry":{"coordinates":[32.631225,0.263725],"type":"Point"},"properties":{"osm_id":"5527367529","tag":{"access":"yes","addr:city":"Kampala","addr:place":"Bunga","addr:street":"Gaba TTC Road","addr:suburb":"Makindye Division","amenity":"waste_disposal","fee":"no","legal":"no","mapillary":"NkqIsp5SoJAsbMSvYmhtkw","operator":"government","operator:type":"KCCA","survey:date":"2018-02-18","waste":"trash"}},"type":"Feature"},
	{"geometry":{"coordinates":[32.626762,0.270557],"type":"Point"},"properties":{"osm_id":"5527367533","tag":{"access":"no","addr:city":"Kampala","addr:place":"Bunga","addr:street":"Nanjala Road","addr:suburb":"Makindye Division","amenity":"waste_disposal","fee":"yes","legal":"no","operator":"private","operator:type":"Homeklin","waste":"trash"}},"type":"Feature"},
	{"geometry":{"coordinates":[32.614911,0.267973],"type":"Point"},"properties":{"osm_id":"5527367536","tag":{"access":"yes","addr:city":"Kampala","addr:place":"Katosi","addr:street":"Buziga Road","addr:suburb":"Makindye Division","amenity":"waste_disposal","fee":"no","operator":"community","waste":"trash"}},"type":"Feature"},
	{"geometry":{"coordinates":[32.612208,0.277118],"type":"Point"},"properties":{"osm_id":"5527367538","tag":{"access":"no","addr:city":"Kampala","addr:place":"Soya","addr:street":"Gaba Road","addr:suburb":"Makindye Division","amenity":"waste_disposal","fee":"no","legal":"no","operator":"government","operator:type":"KCCA","waste":"trash"}},"type":"Feature"},
	{"geometry":{"coordinates":[32.624246,0.271432],"type":"Point"},"properties":{"osm_id":"5527367543","tag":{"access":"no","addr:city":"Kampala","addr:place":"Bunga hill","addr:suburb":"Makindye Division","amenity":"waste_disposal","fee":"yes","legal":"no","operator":"private","operator:type":"Homeklin","waste":"trash"}},"type":"Feature"},
	{"geometry":{"coordinates":[32.622528,0.276996],"type":"Point"},"properties":{"osm_id":"5527367559","tag":{"access":"no","addr:city":"Kampala","addr:place":"Kalungu","addr:suburb":"Makindye Division","amenity":"waste_disposal","fee":"yes","legal":"no","operator":"private","operator:type":"Homeklin","waste":"trash"}},"type":"Feature"},
	{"geometry":{"coordinates":[32.624838,0.269712],"type":"Point"},"properties":{"osm_id":"5527367576","tag":{"access":"yes","addr:city":"Kampala","addr:place":"Bunga hill","addr:suburb":"Makindye Division","amenity":"waste_disposal","fee":"no","legal":"no","operator":"community","waste":"trash"}},"type":"Feature"},
	{"geometry":{"coordinates":[32.630317,0.264443],"type":"Point"},"properties":{"osm_id":"5527369823","tag":{"access":"yes","addr:city":"Kampala","addr:place":"Bunga","addr:street":"Gaba TTC Road","addr:suburb":"Makindye Division","amenity":"waste_disposal","fee":"no","legal":"no","operator":"community","waste":"trash"}},"type":"Feature"},
	{"geometry":{"coordinates":[32.619249,0.270791],"type":"Point"},"properties":{"osm_id":"5527369825","tag":{"access":"yes","addr:city":"Kampala","addr:place":"Bunga","addr:street":"Gaba Road","addr:suburb":"Makindye Division","amenity":"waste_disposal","fee":"no","legal":"no","operator":"government","operator:type":"KCCA","waste":"trash"}},"type":"Feature"},
	{"geometry":{"coordinates":[32.626887,0.271141],"type":"Point"},"properties":{"osm_id":"5527369839","tag":{"access":"no","addr:city":"Kampala","addr:place":"Kalungu","addr:street":"Nanjala Road","addr:suburb":"Makindye Division","amenity":"waste_disposal","fee":"yes","legal":"no","operator":"private","operator:type":"Homeklin","waste":"trash"}},"type":"Feature"},
	{"geometry":{"coordinates":[32.618483,0.273566],"type":"Point"},"properties":{"osm_id":"5527369855","tag":{"access":"yes","addr:city":"Kampala","addr:place":"Bunga hill","addr:street":"Kibale Road","addr:suburb":"Makindye Division","amenity":"waste_disposal","fee":"no","legal":"no","operator":"community","waste":"trash"}},"type":"Feature"},
	{"geometry":{"coordinates":[32.622618,0.277471],"type":"Point"},"properties":{"osm_id":"5527369858","tag":{"access":"no","addr:city":"Kampala","addr:place":"Kalungu","addr:suburb":"Makindye Division","amenity":"waste_disposal","fee":"no","legal":"no","operator":"community","waste":"trash"}},"type":"Feature"},
	{"geometry":{"coordinates":[32.618237,0.273262],"type":"Point"},"properties":{"osm_id":"5527369865","tag":{"access":"yes","addr:city":"Kampala","addr:place":"Bunga hill","addr:street":"Kibale Road","addr:suburb":"Makindye Division","amenity":"waste_disposal","fee":"no","legal":"no","operator":"community","waste":"trash"}},"type":"Feature"},
	{"geometry":{"coordinates":[32.625725,0.266393],"type":"Point"},"properties":{"osm_id":"5527369893","tag":{"access":"yes","addr:city":"Kampala","addr:place":"Bunga","addr:suburb":"Makindye Division","amenity":"waste_disposal","fee":"no","legal":"no","operator":"community","waste":"trash"}},"type":"Feature"},
	{"geometry":{"coordinates":[32.625755,0.266095],"type":"Point"},"properties":{"osm_id":"5527369897","tag":{"access":"yes","addr:city":"Kampala","addr:place":"Bunga","addr:street":"Gaba TTC Road","addr:suburb":"Makindye Division","amenity":"waste_disposal","fee":"no","legal":"no","operator":"government","operator:type":"KCCA","waste":"trash"}},"type":"Feature"},
	{"geometry":{"coordinates":[32.611209,0.282433],"type":"Point"},"properties":{"osm_id":"5527370650","tag":{"access":"no","addr:city":"Kampala","addr:place":"Kansanga","addr:street":"Gaba Road","addr:suburb":"Makindye Division","amenity":"waste_disposal","fee":"yes","legal":"no","operator":"private","operator:type":"Homeklin","waste":"trash"}},"type":"Feature"},
	{"geometry":{"coordinates":[32.626029,0.28706],"type":"Point"},"properties":{"osm_id":"6105165889","tag":{"access":"no","addr:city":"Kampala","addr:place":"Bukasa","addr:suburb":"Makindye","amenity":"waste_disposal","fee":"yes","legal":"no","operator":"private","operator:type":"Home Klin","waste":"trash"}},"type":"Feature"}
]
}
