{
"type": "FeatureCollection",
"features": [
	{"geometry":{"coordinates":[32.633342,0.254819],"type":"Point"},"properties":{"osm_id":"5467041756","tag":{"access":"yes","addr:city":"Kampala","addr:place":"Ggaba","addr:street":"Ggaba Road","addr:suburb":"Makindye","amenity":"waste_disposal","fee":"yes","legal":"no","operator":"private","operator:type":"Home Klin","waste":"trash"}},"type":"Feature"},
	{"geometry":{"coordinates":[32.633871,0.254949],"type":"Point"},"properties":{"osm_id":"5467041762","tag":{"access":"yes","addr:city":"Kampala","addr:place":"Ggaba","addr:street":"Ggaba Road","addr:suburb":"Makindye","amenity":"waste_disposal","fee":"yes","legal":"no","needs_repair":"yes","operator":"private","operator:type":"Home Klin","survey:date":"2018-02-18","waste":"trash"}},"type":"Feature"},
	{"geometry":{"coordinates":[32.625575,0.251118],"type":"Point"},"properties":{"osm_id":"5527367532","tag":{"access":"yes","addr:city":"Kampala","addr:place":"Munyonyo","addr:street":"Gava Road","addr:suburb":"Makindye Division","amenity":"waste_disposal","fee":"no","legal":"no","operator":"government","operator:type":"KCCA","waste":"trash"}},"type":"Feature"},
	{"geometry":{"coordinates":[32.621047,0.248607],"type":"Point"},"properties":{"osm_id":"5527367545","tag":{"access":"yes","addr:city":"Kampala","addr:place":"Munyonyo","addr:suburb":"Makindye Division","amenity":"waste_disposal","fee":"no","legal":"no","operator":"community","waste":"trash"}},"type":"Feature"},
	{"geometry":{"coordinates":[32.635295,0.257609],"type":"Point"},"properties":{"osm_id":"5527367554","tag":{"access":"yes","addr:city":"Kampala","addr:place":"Gaba","addr:street":"Gaba Bypass Road","addr:suburb":"Makindye Division","amenity":"waste_disposal","fee":"yes","legal":"yes","operator:type":"Homeklin","waste":"trash"}},"type":"Feature"},
	{"geometry":{"coordinates":[32.625124,0.256182],"type":"Point"},"properties":{"osm_id":"5527367561","tag":{"access":"yes","addr:city":"Kampala","addr:place":"Munyonyo","addr:suburb":"Makindye Division","amenity":"waste_disposal","fee":"no","legal":"no","operator":"government","operator:type":"KCCA","waste":"trash"}},"type":"Feature"},
	{"geometry":{"coordinates":[32.61967,0.256622],"type":"Point"},"properties":{"osm_id":"5527367562","tag":{"access":"yes","addr:city":"Kampala","addr:place":"Buziga","addr:street":"Lukuli Road","addr:suburb":"Makindye Division","amenity":"waste_disposal","fee":"no","legal":"no","operator":"community","waste":"trash"}},"type":"Feature"},
	{"geometry":{"coordinates":[32.620554,0.24379],"type":"Point"},"properties":{"osm_id":"5527367584","tag":{"access":"yes","addr:city":"Kampala","addr:place":"Munyonyo","addr:street":"Lukuli Road","addr:suburb":"Makindye Division","amenity":"waste_disposal","fee":"no","legal":"no","operator":"community","waste":"trash"}},"type":"Feature"},
	{"geometry":{"coordinates":[32.634558,0.258902],"type":"Point"},"properties":{"osm_id":"5527367593","tag":{"access":"yes","addr:city":"Kampala","addr:place":"Gaba","addr:street":"Gaba TTC Road","addr:suburb":"Makindye Division","amenity":"waste_disposal","fee":"no","legal":"no","operator:type":"KCCA","waste":"trash"}},"type":"Feature"},
	{"geometry":{"coordinates":[32.635456,0.255829],"type":"Point"},"properties":{"osm_id":"5527367598","tag":{"access":"yes","addr:city":"Kampala","addr:place":"Gaba","addr:street":"Gaba Road","addr:suburb":"Makindye Division","amenity":"waste_disposal","fee":"no","legal":"yes","operator:type":"KCCA","waste":"trash"}},"type":"Feature"},
	{"geometry":{"coordinates":[32.624867,0.259282],"type":"Point"},"properties":{"osm_id":"5527367599","tag":{"access":"yes","addr:city":"Kampala","addr:place":"Gaba","addr:suburb":"Makindye Division","amenity":"waste_disposal","fee":"no","legal":"no","operator":"community","waste":"trash"}},"type":"Feature"},
	{"geometry":{"coordinates":[32.625575,0.260355],"type":"Point"},"properties":{"osm_id":"5527369845","tag":{"access":"yes","addr:city":"Kampala","addr:place":"Gaba","addr:suburb":"Makindye Division","amenity":"waste_disposal","fee":"no","legal":"no","operator":"community","waste":"trash"}},"type":"Feature"},
	{"geometry":{"coordinates":[32.634082,0.259169],"type":"Point"},"properties":{"osm_id":"5527369851","tag":{"access":"yes","addr:city":"Kampala","addr:place":"Bunga","addr:street":"Bunga Road","addr:suburb":"Makindye Division","amenity":"waste_disposal","fee":"no","legal":"no","operator:type":"KCCA","waste":"trash"}},"type":"Feature"},
	{"geometry":{"coordinates":[32.619781,0.245614],"type":"Point"},"properties":{"osm_id":"5527369860","tag":{"access":"yes","addr:city":"Kampala","addr:place":"Munyonyo","addr:street":"Lukuli Road","addr:suburb":"Makindye Division","amenity":"waste_disposal","fee":"no","legal":"yes","operator":"government","operator:type":"KCCA","waste":"trash"}},"type":"Feature"},
	{"geometry":{"coordinates":[32.622249,0.259229],"type":"Point"},"properties":{"osm_id":"5527369862","tag":{"access":"yes","addr:city":"Kampala","addr:place":"Buziga","addr:suburb":"Makindye Division","amenity":"waste_disposal","fee":"no","legal":"no","operator":"government","operator:type":"KCCA","waste":"trash"}},"type":"Feature"},
	{"geometry":{"coordinates":[32.621382,0.247092],"type":"Point"},"properties":{"osm_id":"5527369870","tag":{"access":"yes","addr:city":"Kampala","addr:place":"Munyonyo","addr:suburb":"Makindye Division","amenity":"waste_disposal","fee":"no","legal":"no","operator":"community","waste":"trash"}},"type":"Feature"},
	{"geometry":{"coordinates":[32.619824,0.245432],"type":"Point"},"properties":{"osm_id":"5527369900","tag":{"access":"yes","addr:city":"Kampala","addr:place":"Munyonyo","addr:street":"Lukuli Road","addr:suburb":"Makindye Division","amenity":"waste_disposal","fee":"no","legal":"yes","operator":"government","operator:type":"KCCA","waste":"trash"}},"type":"Feature"},
	{"geometry":{"coordinates":[32.615833,0.256954],"type":"Point"},"properties":{"osm_id":"5527369901","tag":{"access":"yes","addr:city":"Kampala","addr:place":"Upper Buziga","addr:street":"Buziga Rise Road","addr:suburb":"Makindye Division","amenity":"waste_disposal","fee":"no","legal":"no","operator":"community","waste":"trash"}},"type":"Feature"},
	{"geometry":{"coordinates":[32.62566,0.247663],"type":"Point"},"properties":{"osm_id":"5527369916","tag":{"access":"no","addr:city":"Kampala","addr:place":"Munyonyo","addr:street":"UCB Drive","addr:suburb":"Makindye Division","amenity":"waste_disposal","fee":"no","legal":"no","operator":"private","waste":"trash"}},"type":"Feature"},
	{"geometry":{"coordinates":[32.627904,0.257016],"type":"Point"},"properties":{"osm_id":"5911845588","tag":{"addr:city":"Kampala","addr:division":"Makindye","addr:parish":"Ggaba","addr:street":"Wavamuno Road","addr:village":"Katoogo","amenity":"waste_disposal","opening_hours":"24/7"}},"type":"Feature"},
	{"geometry":{"coordinates":[32.627838,0.257102],"type":"Point"},"properties":{"osm_id":"5911845589","tag":{"addr:city":"Kampala","addr:division":"Makindye","addr:parish":"Ggaba","addr:street":"Munyonyo Street","addr:village":"Katoogo","amenity":"waste_disposal","comment":"Needs cleaning"}},"type":"Feature"},
	{"geometry":{"coordinates":[32.630637,0.254341],"type":"Point"},"properties":{"osm_id":"5912110363","tag":{"addr:city":"Kampala","addr:division":"Makindye","addr:parish":"Ggaba","addr:street":"Ggaba Bypass","addr:village":"Katoogo","amenity":"waste_disposal","comment":"likely outbreak of diseases","opening_hours":"24/7"}},"type":"Feature"},
	{"geometry":{"coordinates":[32.629909,0.254723],"type":"Point"},"properties":{"osm_id":"5912110370","tag":{"addr:city":"Kampala","addr:division":"Makindye","addr:parish":"Ggaba","addr:street":"Ggaba Bypass","addr:village":"Katoogo","amenity":"waste_disposal","comment":"it's in a wetland","opening_hours":"24/7"}},"type":"Feature"},
	{"geometry":{"coordinates":[32.630639,0.254437],"type":"Point"},"properties":{"osm_id":"5912110372","tag":{"addr:city":"Kampala","addr:division":"Makindye","addr:parish":"Ggaba","addr:street":"Ggaba Bypass","addr:village":"Katoogo","amenity":"waste_disposal","comment":"open and very dirty.. not managed"}},"type":"Feature"},
	{"geometry":{"coordinates":[32.6318,0.253752],"type":"Point"},"properties":{"osm_id":"5912110374","tag":{"addr:city":"Kampala","addr:division":"Makindye","addr:parish":"Ggaba","addr:street":"Ggaba Bypass","addr:village":"Katoogo","amenity":"waste_disposal"}},"type":"Feature"},
	{"geometry":{"coordinates":[32.630186,0.254629],"type":"Point"},"properties":{"osm_id":"5912110376","tag":{"addr:city":"Kampala","addr:division":"Makindye","addr:parish":"Ggaba","addr:street":"Ggaba Bypass","addr:village":"Katoogo","amenity":"waste_disposal","comment":"it's in a wetland","opening_hours":"24/7"}},"type":"Feature"},
	{"geometry":{"coordinates":[32.630569,0.254552],"type":"Point"},"properties":{"osm_id":"5912110378","tag":{"addr:city":"Kampala","addr:division":"Makindye","addr:parish":"Ggaba","addr:street":"Ggaba Bypass","addr:village":"Katoogo","amenity":"waste_disposal","comment":"likely outbreak of diseases"}},"type":"Feature"},
	{"geometry":{"coordinates":[32.630017,0.254463],"type":"Point"},"properties":{"osm_id":"5912110382","tag":{"addr:city":"Kampala","addr:division":"Makindye","addr:parish":"Ggaba","addr:street":"Ggaba Bypass","addr:village":"Katoogo","amenity":"waste_disposal","comment":"It's very dirty and in a wetland","opening_hours":"24/7"}},"type":"Feature"},
	{"geometry":{"coordinates":[32.633204,0.252179],"type":"Point"},"properties":{"osm_id":"5913470665","tag":{"addr:city":"Kampala","addr:division":"Makindye","addr:parish":"Ggaba","addr:village":"Katoogo","amenity":"waste_disposal","comment":"located in a wetland"}},"type":"Feature"},
	{"geometry":{"coordinates":[32.633213,0.252597],"type":"Point"},"properties":{"osm_id":"5913470681","tag":{"addr:city":"Kampala","addr:division":"Makindye","addr:parish":"Ggaba","addr:village":"Katoogo","amenity":"waste_disposal"}},"type":"Feature"},
	{"geometry":{"coordinates":[32.63459,0.259694],"type":"Point"},"properties":{"osm_id":"5916549969","tag":{"addr:city":"Kampala","addr:division":"Makindye","addr:parish":"Ggaba","addr:village":"Ggaba Trading Center","amenity":"waste_disposal"}},"type":"Feature"},
	{"geometry":{"coordinates":[32.63536,0.257608],"type":"Point"},"properties":{"osm_id":"5916615773","tag":{"addr:city":"Kampala","addr:division":"Makindye","addr:parish":"Ggaba","addr:village":"Ggaba Trading Center","amenity":"waste_disposal"}},"type":"Feature"},
	{"geometry":{"coordinates":[32.635569,0.258118],"type":"Point"},"properties":{"osm_id":"5916615776","tag":{"addr:city":"Kampala","addr:division":"Makindye","addr:parish":"Ggaba","addr:village":"Ggaba Trading Center","amenity":"waste_disposal","opening_hours":"24/7"}},"type":"Feature"},
	{"geometry":{"coordinates":[32.636359,0.254832],"type":"Point"},"properties":{"osm_id":"5916788365","tag":{"addr:city":"Kampala","addr:division":"Makindye","addr:parish":"Ggaba","addr:village":"Ggaba Water","amenity":"waste_disposal"}},"type":"Feature"},
	{"geometry":{"coordinates":[32.63597,0.254705],"type":"Point"},"properties":{"osm_id":"5916788366","tag":{"addr:city":"Kampala","addr:division":"Makindye","addr:parish":"Ggaba","addr:village":"Ggaba Water","amenity":"waste_disposal"}},"type":"Feature"},
	{"geometry":{"coordinates":[32.636007,0.257546],"type":"Point"},"properties":{"osm_id":"5917180328","tag":{"addr:city":"Kampala","addr:division":"Makindye","addr:parish":"Ggaba","addr:village":"Ggaba trading centre","amenity":"waste_disposal","opening_hours":"24/7"}},"type":"Feature"},
	{"geometry":{"coordinates":[32.63238,0.258362],"type":"Point"},"properties":{"osm_id":"5951653069","tag":{"addr:city":"Kampala","addr:division":"Makindye","addr:parish":"Ggaba","addr:street":"Spear Road Street","addr:village":"Ggaba Mission","amenity":"waste_disposal"}},"type":"Feature"},
	{"geometry":{"coordinates":[32.632707,0.257807],"type":"Point"},"properties":{"osm_id":"5951653075","tag":{"addr:city":"Kampala","addr:division":"Makindye","addr:parish":"Ggaba","addr:street":"Spear Road Street","addr:village":"Ggaba Mission","amenity":"waste_disposal","comment":"Requires dumping container","opening_hours":"24/7"}},"type":"Feature"},
	{"geometry":{"coordinates":[32.634439,0.258384],"type":"Point"},"properties":{"man_made":"water_tap","osm_id":"5951653078","tag":{"addr:city":"Kampala","addr:division":"Makindye","addr:parish":"Ggaba","addr:village":"Ggaba Mission","amenity":"waste_disposal"}},"type":"Feature"},
	{"geometry":{"coordinates":[32.633884,0.257592],"type":"Point"},"properties":{"osm_id":"5951653082","tag":{"addr:city":"Kampala","addr:division":"Makindye","addr:parish":"Ggaba","addr:village":"Ggaba Mission","amenity":"waste_disposal"}},"type":"Feature"},
	{"geometry":{"coordinates":[32.632846,0.257822],"type":"Point"},"properties":{"osm_id":"5951653084","tag":{"addr:city":"Kampala","addr:division":"Makindye","addr:parish":"Ggaba","addr:street":"Spear Road Street","addr:village":"Ggaba Mission","amenity":"waste_disposal","comment":"It's at the road side"}},"type":"Feature"},
	{"geometry":{"coordinates":[32.63441,0.258194],"type":"Point"},"properties":{"osm_id":"5951653085","tag":{"addr:city":"Kampala","addr:division":"Makindye","addr:parish":"Ggaba","addr:village":"Ggaba Mission","amenity":"waste_disposal"}},"type":"Feature"},
	{"geometry":{"coordinates":[32.63138,0.25789],"type":"Point"},"properties":{"osm_id":"5951653088","tag":{"addr:city":"Kampala","addr:division":"Makindye","addr:parish":"Ggaba","addr:street":"Spear Road Street","addr:village":"Ggaba Mission","amenity":"waste_disposal"}},"type":"Feature"},
	{"geometry":{"coordinates":[32.632603,0.258238],"type":"Point"},"properties":{"osm_id":"5951653089","tag":{"addr:city":"Kampala","addr:division":"Makindye","addr:parish":"Ggaba","addr:street":"Spear Road Street","addr:village":"Ggaba Mission","amenity":"waste_disposal"}},"type":"Feature"},
	{"geometry":{"coordinates":[32.633732,0.257422],"type":"Point"},"properties":{"man_made":"water_tap","osm_id":"5951653091","tag":{"addr:city":"Kampala","addr:division":"Makindye","addr:parish":"Ggaba","addr:village":"Ggaba Mission","amenity":"waste_disposal"}},"type":"Feature"},
	{"geometry":{"coordinates":[32.636837,0.257717],"type":"Point"},"properties":{"osm_id":"6001033677","tag":{"addr:city":"Kampala","addr:division":"Makindye","addr:parish":"Ggaba","addr:village":"Ggaba trading centre","amenity":"waste_disposal","building":"garbage collectin centre","waste":"Garbage collection centre"}},"type":"Feature"}
]
}
