{
"type": "FeatureCollection",
"lastupdate": "2020-07-31T00:00:00Z",
"features": [
	{"geometry":{"coordinates":[-71.599124,-33.587627],"type":"Point"},"properties":{"osm_id":"2256425733","tag":{"amenity":"recycling"}},"type":"Feature"},
	{"geometry":{"coordinates":[-71.608723,-33.64071],"type":"Point"},"properties":{"osm_id":"5325445467","tag":{"amenity":"recycling","location":"overground","recycling_type":"container"}},"type":"Feature"},
	{"geometry":{"coordinates":[-71.607888,-33.643319],"type":"Point"},"properties":{"osm_id":"6186761988","tag":{"amenity":"recycling"}},"type":"Feature"},
	{"geometry":{"coordinates":[-71.624207,-33.613777],"type":"Point"},"properties":{"name":"COMACO","osm_id":"6617160185","tag":{"amenity":"recycling"}},"type":"Feature"},
	{"geometry":{"coordinates":[-71.61203,-33.643682],"type":"Point"},"properties":{"osm_id":"6668168892","tag":{"addr:city":"Santo Domingo","addr:postcode":"2720000","amenity":"recycling","recycling:batteries":"yes","recycling:cartons":"yes","recycling:glass":"yes","recycling:glass_bottles":"yes","recycling:paper":"yes","recycling:plastic":"yes","recycling:scrap_metal":"yes","recycling_type":"centre"}},"type":"Feature"}
]
}
