{
"type": "FeatureCollection",
"features": [
	{"geometry":{"coordinates":[-121.986567,49.098341],"type":"Point"},"properties":{"osm_id":"399768996","tag":{"amenity":"waste_basket"}},"type":"Feature"},
	{"geometry":{"coordinates":[-121.973718,49.14175],"type":"Point"},"properties":{"osm_id":"519545334","tag":{"amenity":"waste_basket"}},"type":"Feature"},
	{"geometry":{"coordinates":[-121.976102,49.143132],"type":"Point"},"properties":{"osm_id":"519545340","tag":{"amenity":"waste_basket"}},"type":"Feature"},
	{"geometry":{"coordinates":[-121.986136,49.144597],"type":"Point"},"properties":{"name":"Chilliwack New and Used Building Materials Incorporated","osm_id":"539125227","tag":{"amenity":"recycling","phone":"+1-604-792-7322","recycling_type":"centre"}},"type":"Feature"},
	{"geometry":{"coordinates":[-121.919722,49.104452],"type":"Point"},"properties":{"osm_id":"3932970792","tag":{"amenity":"waste_basket"}},"type":"Feature"},
	{"geometry":{"coordinates":[-121.971503,49.099993],"type":"Point"},"properties":{"osm_id":"4388155304","tag":{"amenity":"waste_basket"}},"type":"Feature"},
	{"geometry":{"coordinates":[-121.965182,49.097187],"type":"Point"},"properties":{"osm_id":"6434292034","tag":{"amenity":"waste_basket"}},"type":"Feature"},
	{"geometry":{"coordinates":[-121.966617,49.096913],"type":"Point"},"properties":{"osm_id":"6434292035","tag":{"amenity":"waste_basket"}},"type":"Feature"},
	{"geometry":{"coordinates":[-121.981253,49.09563],"type":"Point"},"properties":{"osm_id":"7487652136","tag":{"amenity":"waste_basket"}},"type":"Feature"}
]
}
