{
"type": "FeatureCollection",
"features": [
	{"geometry":{"coordinates":[-121.957105,37.402813],"type":"Point"},"properties":{"osm_id":"2544002785","tag":{"amenity":"waste_basket"}},"type":"Feature"},
	{"geometry":{"coordinates":[-121.956117,37.403032],"type":"Point"},"properties":{"osm_id":"2544002786","tag":{"amenity":"waste_basket"}},"type":"Feature"},
	{"geometry":{"coordinates":[-121.956567,37.402324],"type":"Point"},"properties":{"osm_id":"2544027493","tag":{"amenity":"waste_basket"}},"type":"Feature"},
	{"geometry":{"coordinates":[-121.961989,37.415425],"type":"Point"},"properties":{"osm_id":"4726930203","tag":{"amenity":"waste_basket","waste":"dog_excrement"}},"type":"Feature"},
	{"geometry":{"coordinates":[-121.962078,37.414905],"type":"Point"},"properties":{"osm_id":"4726930204","tag":{"amenity":"waste_basket"}},"type":"Feature"},
	{"geometry":{"coordinates":[-121.918442,37.40063],"type":"Point"},"properties":{"osm_id":"7005173389","tag":{"amenity":"waste_basket"}},"type":"Feature"},
	{"geometry":{"coordinates":[-121.919361,37.401169],"type":"Point"},"properties":{"osm_id":"7005173420","tag":{"amenity":"waste_basket"}},"type":"Feature"},
	{"geometry":{"coordinates":[-121.977507,37.409689],"type":"Point"},"properties":{"osm_id":"7155325447","tag":{"amenity":"waste_basket","colour":"black","material":"metal","operator":"City of Santa CLara","waste":"trash"}},"type":"Feature"},
	{"geometry":{"coordinates":[-121.979458,37.410582],"type":"Point"},"properties":{"osm_id":"7155342046","tag":{"amenity":"waste_basket","colour":"brown","material":"metal","operator":"City of Santa Clara","waste":"trash"}},"type":"Feature"},
	{"geometry":{"coordinates":[-121.973116,37.403942],"type":"Point"},"properties":{"osm_id":"7155343841","tag":{"amenity":"waste_basket","colour":"black","material":"metal","operator":"City of Santa Clara","waste":"trash"}},"type":"Feature"},
	{"geometry":{"coordinates":[-121.974807,37.403388],"type":"Point"},"properties":{"osm_id":"7155456994","tag":{"amenity":"waste_basket","colour":"black","material":"metal","operator":"VTA","waste":"trash"}},"type":"Feature"},
	{"geometry":{"coordinates":[-121.974821,37.403472],"type":"Point"},"properties":{"osm_id":"7155456995","tag":{"amenity":"waste_basket","colour":"black","material":"metal","operator":"VTA","waste":"trash"}},"type":"Feature"},
	{"geometry":{"coordinates":[-121.97441,37.403525],"type":"Point"},"properties":{"osm_id":"7155456996","tag":{"amenity":"waste_basket","colour":"black","material":"metal","operator":"VTA","waste":"trash"}},"type":"Feature"},
	{"geometry":{"coordinates":[-121.974183,37.403475],"type":"Point"},"properties":{"osm_id":"7155456997","tag":{"amenity":"waste_basket","colour":"black","material":"metal","operator":"VTA","waste":"trash"}},"type":"Feature"},
	{"geometry":{"coordinates":[-121.968645,37.390722],"type":"Point"},"properties":{"osm_id":"7246037703","tag":{"amenity":"waste_basket","colour":"gray","material":"concrete","operator":"City of Santa Clara","waste":"trash;mixed;dog_excrement"}},"type":"Feature"},
	{"geometry":{"coordinates":[-121.945477,37.390278],"type":"Point"},"properties":{"osm_id":"7338879039","tag":{"amenity":"waste_basket","material":"concrete"}},"type":"Feature"},
	{"geometry":{"coordinates":[-121.909468,37.427859],"type":"Point"},"properties":{"osm_id":"8189454487","tag":{"amenity":"waste_disposal"}},"type":"Feature"},
	{"geometry":{"coordinates":[-121.906594,37.433143],"type":"Point"},"properties":{"osm_id":"8197817941","tag":{"amenity":"waste_disposal"}},"type":"Feature"},
	{"geometry":{"coordinates":[-121.946627,37.39599],"type":"Point"},"properties":{"osm_id":"8197820090","tag":{"amenity":"waste_disposal"}},"type":"Feature"},
	{"geometry":{"coordinates":[-121.949277,37.370861],"type":"Point"},"properties":{"name":"Charity Thrift Store","osm_id":"8219032640","tag":{"addr:city":"Santa Clara","addr:housenumber":"2725","addr:postcode":"95050","addr:state":"CA","addr:street":"Lafayette Street","amenity":"recycling","operator":"Charity Cars For Kids","phone":"+1-408-748-0081","recycling:cars":"yes","recycling_type":"centre","second_hand":"yes","shop":"charity","website":"http://www.charitycarsforkids.org/"}},"type":"Feature"},
	{"geometry":{"coordinates":[-121.913316,37.425852],"type":"Point"},"properties":{"osm_id":"8236847961","tag":{"amenity":"waste_disposal"}},"type":"Feature"},
	{"geometry":{"coordinates":[-121.975478,37.419095],"type":"Point"},"properties":{"osm_id":"8370737900","tag":{"amenity":"waste_disposal"}},"type":"Feature"},
	{"geometry":{"coordinates":[-121.911758,37.425593],"type":"Point"},"properties":{"osm_id":"8379671503","tag":{"amenity":"waste_disposal"}},"type":"Feature"},
	{"geometry":{"coordinates":[-121.913665,37.427016],"type":"Point"},"properties":{"osm_id":"8380426802","tag":{"amenity":"waste_disposal"}},"type":"Feature"},
	{"geometry":{"coordinates":[-121.924713,37.372717],"type":"Point"},"properties":{"osm_id":"8396131680","tag":{"amenity":"waste_disposal"}},"type":"Feature"},
	{"geometry":{"coordinates":[-121.961678,37.419683],"type":"Point"},"properties":{"osm_id":"8502548545","tag":{"amenity":"waste_disposal"}},"type":"Feature"},
	{"geometry":{"coordinates":[-121.91448,37.427341],"type":"Point"},"properties":{"osm_id":"8509261682","tag":{"amenity":"waste_disposal"}},"type":"Feature"},
	{"geometry":{"coordinates":[-121.904556,37.405658],"type":"Point"},"properties":{"osm_id":"8515926700","tag":{"amenity":"waste_disposal"}},"type":"Feature"},
	{"geometry":{"coordinates":[-121.954693,37.400015],"type":"Point"},"properties":{"osm_id":"8515973781","tag":{"amenity":"waste_disposal"}},"type":"Feature"},
	{"geometry":{"coordinates":[-121.906555,37.424519],"type":"Point"},"properties":{"osm_id":"8519074731","tag":{"amenity":"waste_disposal"}},"type":"Feature"},
	{"geometry":{"coordinates":[-121.921046,37.378172],"type":"Point"},"properties":{"osm_id":"8559314967","tag":{"amenity":"waste_disposal"}},"type":"Feature"},
	{"geometry":{"coordinates":[-121.912718,37.38255],"type":"Point"},"properties":{"osm_id":"8638498649","tag":{"amenity":"waste_disposal"}},"type":"Feature"},
	{"geometry":{"coordinates":[-121.983794,37.379688],"type":"Point"},"properties":{"osm_id":"8663616994","tag":{"amenity":"waste_disposal"}},"type":"Feature"},
	{"geometry":{"coordinates":[-121.982654,37.378822],"type":"Point"},"properties":{"osm_id":"8663616997","tag":{"amenity":"waste_disposal"}},"type":"Feature"},
	{"geometry":{"coordinates":[-121.982977,37.379452],"type":"Point"},"properties":{"osm_id":"8663617002","tag":{"amenity":"waste_disposal"}},"type":"Feature"},
	{"geometry":{"coordinates":[-121.983792,37.378811],"type":"Point"},"properties":{"osm_id":"8663617004","tag":{"amenity":"waste_disposal"}},"type":"Feature"},
	{"geometry":{"coordinates":[-121.983645,37.378477],"type":"Point"},"properties":{"osm_id":"8663617005","tag":{"amenity":"waste_disposal"}},"type":"Feature"},
	{"geometry":{"coordinates":[-121.984868,37.378514],"type":"Point"},"properties":{"osm_id":"8663617006","tag":{"amenity":"waste_disposal"}},"type":"Feature"},
	{"geometry":{"coordinates":[-121.984867,37.379821],"type":"Point"},"properties":{"osm_id":"8663617007","tag":{"amenity":"waste_disposal"}},"type":"Feature"},
	{"geometry":{"coordinates":[-121.984372,37.37979],"type":"Point"},"properties":{"osm_id":"8663617008","tag":{"amenity":"waste_disposal"}},"type":"Feature"},
	{"geometry":{"coordinates":[-121.986046,37.379182],"type":"Point"},"properties":{"osm_id":"8663617009","tag":{"amenity":"waste_disposal"}},"type":"Feature"},
	{"geometry":{"coordinates":[-121.986043,37.379083],"type":"Point"},"properties":{"osm_id":"8663617010","tag":{"amenity":"waste_disposal"}},"type":"Feature"},
	{"geometry":{"coordinates":[-121.986475,37.379062],"type":"Point"},"properties":{"osm_id":"8663617011","tag":{"amenity":"waste_disposal"}},"type":"Feature"},
	{"geometry":{"coordinates":[-121.984363,37.378551],"type":"Point"},"properties":{"osm_id":"8663617012","tag":{"amenity":"waste_disposal"}},"type":"Feature"},
	{"geometry":{"coordinates":[-121.982925,37.378403],"type":"Point"},"properties":{"osm_id":"8663617013","tag":{"amenity":"waste_disposal"}},"type":"Feature"},
	{"geometry":{"coordinates":[-121.989045,37.37515],"type":"Point"},"properties":{"osm_id":"8678326397","tag":{"amenity":"waste_disposal"}},"type":"Feature"},
	{"geometry":{"coordinates":[-121.960453,37.37506],"type":"Point"},"properties":{"osm_id":"8794257442","tag":{"amenity":"waste_disposal"}},"type":"Feature"},
	{"geometry":{"coordinates":[-121.961709,37.37514],"type":"Point"},"properties":{"osm_id":"8794257447","tag":{"amenity":"waste_disposal"}},"type":"Feature"},
	{"geometry":{"coordinates":[-121.960941,37.376271],"type":"Point"},"properties":{"osm_id":"8794257456","tag":{"amenity":"waste_disposal"}},"type":"Feature"},
	{"geometry":{"coordinates":[-121.961701,37.376287],"type":"Point"},"properties":{"osm_id":"8794257460","tag":{"amenity":"waste_disposal"}},"type":"Feature"}
]
}
