{
"type": "FeatureCollection",
"features": [
	{"geometry":{"coordinates":[-121.962191,36.994376],"type":"Point"},"properties":{"osm_id":"2102374364","tag":{"amenity":"waste_basket"}},"type":"Feature"},
	{"geometry":{"coordinates":[-121.959681,36.994417],"type":"Point"},"properties":{"osm_id":"2102447129","tag":{"amenity":"waste_basket"}},"type":"Feature"},
	{"geometry":{"coordinates":[-121.956661,36.981495],"type":"Point"},"properties":{"name":"NexCycle","osm_id":"2372421662","tag":{"CertID":"RC7075","CertStat":"Operational","addr:city":"Capitola","addr:housenumber":"809","addr:postcode":"95010","addr:street":"Bay Avenue","amenity":"recycling","recycling:aluminium":"yes","recycling:glass_bottles":"yes","recycling:plastic_bottles":"yes"}},"type":"Feature"},
	{"geometry":{"coordinates":[-121.963476,36.986725],"type":"Point"},"properties":{"name":"NexCycle","osm_id":"2372421682","tag":{"CertID":"RC14046","CertStat":"Operational","addr:city":"Soquel","addr:housenumber":"2720","addr:postcode":"95073","addr:street":"41st Ave","amenity":"recycling","recycling:aluminium":"yes","recycling:glass_bottles":"yes","recycling:plastic_bottles":"yes"}},"type":"Feature"},
	{"geometry":{"coordinates":[-121.956507,36.979925],"type":"Point"},"properties":{"name":"TOMRA Pacific Inc","osm_id":"2372421711","tag":{"CertID":"RC143764.002","CertStat":"Certified","addr:city":"CAPITOLA","addr:housenumber":"809","addr:postcode":"95010","addr:street":"Bay Avenue","amenity":"recycling","recycling:aluminium":"yes","recycling:glass_bottles":"yes","recycling:plastic_bottles":"yes"}},"type":"Feature"},
	{"geometry":{"coordinates":[-121.989088,36.96403],"type":"Point"},"properties":{"name":"NDRS recycling","osm_id":"3542124980","tag":{"amenity":"recycling"}},"type":"Feature"},
	{"geometry":{"coordinates":[-121.978461,36.985938],"type":"Point"},"properties":{"name":"Grey Bears Recycling Center","osm_id":"8075800626","tag":{"amenity":"recycling","recycling_type":"centre","website":"https://www.greybears.org/"}},"type":"Feature"},
	{"geometry":{"coordinates":[-121.960903,36.995094],"type":"Point"},"properties":{"osm_id":"8226571590","tag":{"amenity":"waste_basket"}},"type":"Feature"},
	{"geometry":{"coordinates":[-121.987839,36.974439],"type":"Point"},"properties":{"osm_id":"8272250926","tag":{"amenity":"waste_basket"}},"type":"Feature"},
	{"geometry":{"coordinates":[-121.983882,36.966452],"type":"Point"},"properties":{"osm_id":"8279225441","tag":{"amenity":"waste_basket"}},"type":"Feature"},
	{"geometry":{"coordinates":[-121.983877,36.966441],"type":"Point"},"properties":{"osm_id":"8279225442","tag":{"amenity":"recycling","recycling_type":"container"}},"type":"Feature"},
	{"geometry":{"coordinates":[-121.980559,36.979378],"type":"Point"},"properties":{"osm_id":"8279643155","tag":{"amenity":"waste_basket","colour":"brown"}},"type":"Feature"},
	{"geometry":{"coordinates":[-121.980561,36.979367],"type":"Point"},"properties":{"osm_id":"8279643156","tag":{"amenity":"waste_basket","colour":"brown"}},"type":"Feature"},
	{"geometry":{"coordinates":[-121.980325,36.979254],"type":"Point"},"properties":{"osm_id":"8279643185","tag":{"amenity":"waste_basket","colour":"brown"}},"type":"Feature"},
	{"geometry":{"coordinates":[-121.980326,36.979242],"type":"Point"},"properties":{"osm_id":"8279643186","tag":{"amenity":"waste_basket","colour":"brown"}},"type":"Feature"},
	{"geometry":{"coordinates":[-121.980741,36.978612],"type":"Point"},"properties":{"osm_id":"8279643269","tag":{"amenity":"waste_basket","colour":"brown"}},"type":"Feature"},
	{"geometry":{"coordinates":[-121.980743,36.978601],"type":"Point"},"properties":{"osm_id":"8279643270","tag":{"amenity":"waste_basket","colour":"brown"}},"type":"Feature"},
	{"geometry":{"coordinates":[-121.980669,36.97895],"type":"Point"},"properties":{"osm_id":"8279643271","tag":{"amenity":"waste_basket","colour":"brown"}},"type":"Feature"},
	{"geometry":{"coordinates":[-121.980671,36.978941],"type":"Point"},"properties":{"osm_id":"8279643272","tag":{"amenity":"waste_basket","colour":"brown"}},"type":"Feature"},
	{"geometry":{"coordinates":[-121.980194,36.97857],"type":"Point"},"properties":{"osm_id":"8279643284","tag":{"amenity":"waste_basket","colour":"brown"}},"type":"Feature"},
	{"geometry":{"coordinates":[-121.980208,36.978572],"type":"Point"},"properties":{"osm_id":"8279643285","tag":{"amenity":"waste_basket","colour":"brown"}},"type":"Feature"},
	{"geometry":{"coordinates":[-121.97801,36.986491],"type":"Point"},"properties":{"name":"E-Waste Drop-off","osm_id":"8464376912","tag":{"amenity":"recycling","recycling:electrical_items":"yes","recycling_type":"container"}},"type":"Feature"}
]
}
