{
"type": "FeatureCollection",
"features": [
	{"geometry":{"coordinates":[8.545623,44.341774],"type":"Point"},"properties":{"osm_id":"2766653595","tag":{"natural":"tree"}},"type":"Feature"},
	{"geometry":{"coordinates":[8.545762,44.341841],"type":"Point"},"properties":{"osm_id":"2766653602","tag":{"natural":"tree"}},"type":"Feature"},
	{"geometry":{"coordinates":[8.545484,44.341937],"type":"Point"},"properties":{"osm_id":"2766653608","tag":{"natural":"tree"}},"type":"Feature"},
	{"geometry":{"coordinates":[8.545208,44.342325],"type":"Point"},"properties":{"osm_id":"2766653648","tag":{"natural":"tree"}},"type":"Feature"},
	{"geometry":{"coordinates":[8.545314,44.342369],"type":"Point"},"properties":{"osm_id":"2766653653","tag":{"natural":"tree"}},"type":"Feature"},
	{"geometry":{"coordinates":[8.544869,44.342684],"type":"Point"},"properties":{"osm_id":"2766653663","tag":{"natural":"tree"}},"type":"Feature"},
	{"geometry":{"coordinates":[8.546924,44.342788],"type":"Point"},"properties":{"osm_id":"2766653665","tag":{"natural":"tree"}},"type":"Feature"},
	{"geometry":{"coordinates":[8.544005,44.342793],"type":"Point"},"properties":{"osm_id":"2766653666","tag":{"natural":"tree"}},"type":"Feature"},
	{"geometry":{"coordinates":[8.544762,44.342765],"type":"Point"},"properties":{"osm_id":"2766653667","tag":{"natural":"tree"}},"type":"Feature"},
	{"geometry":{"coordinates":[8.546812,44.342801],"type":"Point"},"properties":{"osm_id":"2766653668","tag":{"natural":"tree"}},"type":"Feature"},
	{"geometry":{"coordinates":[8.544647,44.342883],"type":"Point"},"properties":{"osm_id":"2766653669","tag":{"natural":"tree"}},"type":"Feature"},
	{"geometry":{"coordinates":[8.544584,44.342946],"type":"Point"},"properties":{"osm_id":"2766653670","tag":{"natural":"tree"}},"type":"Feature"},
	{"geometry":{"coordinates":[8.54474,44.343024],"type":"Point"},"properties":{"osm_id":"2766653672","tag":{"natural":"tree"}},"type":"Feature"},
	{"geometry":{"coordinates":[8.544636,44.343114],"type":"Point"},"properties":{"osm_id":"2766653673","tag":{"natural":"tree"}},"type":"Feature"},
	{"geometry":{"coordinates":[8.54411,44.343879],"type":"Point"},"properties":{"osm_id":"2766653674","tag":{"natural":"tree"}},"type":"Feature"},
	{"geometry":{"coordinates":[8.543923,44.344127],"type":"Point"},"properties":{"osm_id":"2766653676","tag":{"natural":"tree"}},"type":"Feature"},
	{"geometry":{"coordinates":[8.543893,44.344221],"type":"Point"},"properties":{"osm_id":"2766653677","tag":{"natural":"tree"}},"type":"Feature"},
	{"geometry":{"coordinates":[8.54607,44.342715],"type":"Point"},"properties":{"osm_id":"4281484138","tag":{"natural":"tree"}},"type":"Feature"},
	{"geometry":{"coordinates":[8.57191,44.361057],"type":"Point"},"properties":{"osm_id":"4527801883","tag":{"natural":"tree"}},"type":"Feature"},
	{"geometry":{"coordinates":[8.572095,44.36114],"type":"Point"},"properties":{"osm_id":"4527801884","tag":{"natural":"tree"}},"type":"Feature"},
	{"geometry":{"coordinates":[8.578691,44.359537],"type":"Point"},"properties":{"osm_id":"4875401776","tag":{"natural":"tree"}},"type":"Feature"},
	{"geometry":{"coordinates":[8.555201,44.345147],"type":"Point"},"properties":{"osm_id":"5063887966","tag":{"natural":"tree"}},"type":"Feature"},
	{"geometry":{"coordinates":[8.569553,44.36876],"type":"Point"},"properties":{"osm_id":"5279608607","tag":{"natural":"tree"}},"type":"Feature"},
	{"geometry":{"coordinates":[8.527369,44.36103],"type":"Point"},"properties":{"osm_id":"5406793184","tag":{"natural":"tree"}},"type":"Feature"},
	{"geometry":{"coordinates":[8.527358,44.36107],"type":"Point"},"properties":{"osm_id":"5406793185","tag":{"natural":"tree"}},"type":"Feature"},
	{"geometry":{"coordinates":[8.527358,44.361109],"type":"Point"},"properties":{"osm_id":"5406793186","tag":{"natural":"tree"}},"type":"Feature"},
	{"geometry":{"coordinates":[8.527355,44.361134],"type":"Point"},"properties":{"osm_id":"5406793187","tag":{"natural":"tree"}},"type":"Feature"},
	{"geometry":{"coordinates":[8.527354,44.361172],"type":"Point"},"properties":{"osm_id":"5406793188","tag":{"natural":"tree"}},"type":"Feature"},
	{"geometry":{"coordinates":[8.527357,44.361201],"type":"Point"},"properties":{"osm_id":"5406793189","tag":{"natural":"tree"}},"type":"Feature"},
	{"geometry":{"coordinates":[8.52735,44.361232],"type":"Point"},"properties":{"osm_id":"5406793190","tag":{"natural":"tree"}},"type":"Feature"},
	{"geometry":{"coordinates":[8.527354,44.361273],"type":"Point"},"properties":{"osm_id":"5406793191","tag":{"natural":"tree"}},"type":"Feature"},
	{"geometry":{"coordinates":[8.52742,44.36139],"type":"Point"},"properties":{"osm_id":"5406793200","tag":{"natural":"tree"}},"type":"Feature"},
	{"geometry":{"coordinates":[8.527421,44.361415],"type":"Point"},"properties":{"osm_id":"5406793201","tag":{"natural":"tree"}},"type":"Feature"},
	{"geometry":{"coordinates":[8.576176,44.360108],"type":"Point"},"properties":{"osm_id":"5606351077","tag":{"natural":"tree","species":"Pinus pinea"}},"type":"Feature"},
	{"geometry":{"coordinates":[8.576861,44.360358],"type":"Point"},"properties":{"osm_id":"5606351078","tag":{"natural":"tree","species":"Quercus ilex"}},"type":"Feature"},
	{"geometry":{"coordinates":[8.577007,44.360383],"type":"Point"},"properties":{"osm_id":"5606351079","tag":{"natural":"tree","species":"Quercus ilex"}},"type":"Feature"},
	{"geometry":{"coordinates":[8.577232,44.360406],"type":"Point"},"properties":{"osm_id":"5606351080","tag":{"natural":"tree","species":"Quercus ilex"}},"type":"Feature"},
	{"geometry":{"coordinates":[8.577373,44.360409],"type":"Point"},"properties":{"osm_id":"5606351081","tag":{"natural":"tree","species":"Quercus ilex"}},"type":"Feature"},
	{"geometry":{"coordinates":[8.604299,44.366667],"type":"Point"},"properties":{"name":"Jubaea chilensis","osm_id":"5617730989","tag":{"circumference":"2,98","denotation":"natural_monument","height":"13.0","leaf_cycle":"evergreen","leaf_type":"broadleaved","name:de":"Honigpalme","name:en":"Chilean wine palm","name:es":"Palma chilena","name:fr":"Cocotier du Chili","name:it":"Palma gigante del Cile","natural":"tree","protected":"yes","species":"Jubaea chilensis","species:de":"Honigpalme","species:en":"Chilean wine palm","species:es":"Palma chilena","species:fr":"Cocotier du Chili","species:it":"Palma gigante del Cile"}},"type":"Feature"},
	{"geometry":{"coordinates":[8.529548,44.390792],"type":"Point"},"properties":{"osm_id":"6683191792","tag":{"natural":"tree","species":"Prunus avium"}},"type":"Feature"},
	{"geometry":{"coordinates":[8.579121,44.360336],"type":"Point"},"properties":{"osm_id":"7490407878","tag":{"natural":"tree"}},"type":"Feature"},
	{"geometry":{"coordinates":[8.578852,44.360346],"type":"Point"},"properties":{"osm_id":"7490407880","tag":{"natural":"tree"}},"type":"Feature"},
	{"geometry":{"coordinates":[8.568073,44.356945],"type":"Point"},"properties":{"osm_id":"7655608046","tag":{"denotation":"urban","leaf_cycle":"deciduous","leaf_type":"broadleaved","natural":"tree","species":"Tilia platyphyllos"}},"type":"Feature"},
	{"geometry":{"coordinates":[8.567942,44.357122],"type":"Point"},"properties":{"osm_id":"7655608047","tag":{"denotation":"urban","leaf_cycle":"evergreen","leaf_type":"broadleaved","natural":"tree","species":"Eucalyptus globulus"}},"type":"Feature"},
	{"geometry":{"coordinates":[8.569549,44.358237],"type":"Point"},"properties":{"osm_id":"7814092409","tag":{"natural":"tree"}},"type":"Feature"}
]
}
