{
"type": "FeatureCollection",
"features": [
	{"geometry":{"coordinates":[-6.683368,53.289874],"type":"Point"},"properties":{"osm_id":"769421805","tag":{"amenity":"recycling","recycling:cans":"yes","recycling:clothes":"yes","recycling:glass":"no","recycling:glass_bottles":"yes","recycling_type":"centre"}},"type":"Feature"},
	{"geometry":{"coordinates":[-6.692337,53.288867],"type":"Point"},"properties":{"osm_id":"797360131","tag":{"amenity":"recycling","recycling:cans":"yes","recycling:glass_bottles":"yes","recycling_type":"centre"}},"type":"Feature"},
	{"geometry":{"coordinates":[-6.686726,53.290433],"type":"Point"},"properties":{"osm_id":"1669441385","tag":{"amenity":"recycling","recycling:clothes":"yes","recycling_type":"container"}},"type":"Feature"},
	{"geometry":{"coordinates":[-6.687896,53.290541],"type":"Point"},"properties":{"osm_id":"1669441393","tag":{"amenity":"waste_basket"}},"type":"Feature"},
	{"geometry":{"coordinates":[-6.685987,53.290652],"type":"Point"},"properties":{"osm_id":"1669441396","tag":{"amenity":"waste_basket"}},"type":"Feature"},
	{"geometry":{"coordinates":[-6.68658,53.290803],"type":"Point"},"properties":{"osm_id":"1669441397","tag":{"amenity":"waste_basket"}},"type":"Feature"},
	{"geometry":{"coordinates":[-6.68643,53.291841],"type":"Point"},"properties":{"osm_id":"1669441404","tag":{"amenity":"waste_basket"}},"type":"Feature"},
	{"geometry":{"coordinates":[-6.685643,53.292581],"type":"Point"},"properties":{"osm_id":"1669441408","tag":{"amenity":"recycling","recycling:clothes":"yes","recycling_type":"container"}},"type":"Feature"},
	{"geometry":{"coordinates":[-6.686789,53.293249],"type":"Point"},"properties":{"osm_id":"1669441409","tag":{"amenity":"waste_basket"}},"type":"Feature"},
	{"geometry":{"coordinates":[-6.685901,53.293369],"type":"Point"},"properties":{"osm_id":"1669441410","tag":{"amenity":"waste_basket"}},"type":"Feature"},
	{"geometry":{"coordinates":[-6.686289,53.291038],"type":"Point"},"properties":{"osm_id":"1669449477","tag":{"amenity":"waste_basket"}},"type":"Feature"},
	{"geometry":{"coordinates":[-6.686486,53.29153],"type":"Point"},"properties":{"osm_id":"1669449484","tag":{"amenity":"waste_basket"}},"type":"Feature"},
	{"geometry":{"coordinates":[-6.686715,53.291958],"type":"Point"},"properties":{"osm_id":"1669449504","tag":{"amenity":"waste_basket"}},"type":"Feature"},
	{"geometry":{"coordinates":[-6.68694,53.29229],"type":"Point"},"properties":{"osm_id":"1669449510","tag":{"amenity":"waste_basket"}},"type":"Feature"},
	{"geometry":{"coordinates":[-6.684152,53.289123],"type":"Point"},"properties":{"osm_id":"4018041790","tag":{"amenity":"waste_basket"}},"type":"Feature"},
	{"geometry":{"coordinates":[-6.697079,53.290302],"type":"Point"},"properties":{"osm_id":"4083373099","tag":{"amenity":"waste_basket"}},"type":"Feature"},
	{"geometry":{"coordinates":[-6.685775,53.289737],"type":"Point"},"properties":{"osm_id":"4083440072","tag":{"amenity":"waste_basket"}},"type":"Feature"},
	{"geometry":{"coordinates":[-6.686156,53.289941],"type":"Point"},"properties":{"osm_id":"4083440074","tag":{"amenity":"waste_basket"}},"type":"Feature"},
	{"geometry":{"coordinates":[-6.686477,53.291429],"type":"Point"},"properties":{"osm_id":"4083440075","tag":{"amenity":"waste_basket"}},"type":"Feature"},
	{"geometry":{"coordinates":[-6.687324,53.292821],"type":"Point"},"properties":{"osm_id":"5583283706","tag":{"amenity":"waste_basket"}},"type":"Feature"},
	{"geometry":{"coordinates":[-6.685804,53.293257],"type":"Point"},"properties":{"osm_id":"5583283707","tag":{"amenity":"waste_basket"}},"type":"Feature"},
	{"geometry":{"coordinates":[-6.685424,53.293503],"type":"Point"},"properties":{"osm_id":"5583283708","tag":{"amenity":"waste_basket"}},"type":"Feature"},
	{"geometry":{"coordinates":[-6.680604,53.294166],"type":"Point"},"properties":{"osm_id":"5583283709","tag":{"amenity":"waste_basket"}},"type":"Feature"},
	{"geometry":{"coordinates":[-6.6959,53.302802],"type":"Point"},"properties":{"osm_id":"6003256952","tag":{"amenity":"recycling","operator":"Textile Recycling Limited","recycling:clothes":"yes","recycling_type":"container","website":"http://trl.ie/"}},"type":"Feature"}
]
}
