{
"type": "FeatureCollection",
"features": [
	{"geometry":{"coordinates":[103.63804,1.555528],"type":"Point"},"properties":{"name":"Tong sampah","osm_id":"4715976445","tag":{"amenity":"waste_basket"}},"type":"Feature"},
	{"geometry":{"coordinates":[103.637647,1.554535],"type":"Point"},"properties":{"name":"Tong sampah","osm_id":"4715976455","tag":{"amenity":"waste_basket"}},"type":"Feature"},
	{"geometry":{"coordinates":[103.637586,1.554623],"type":"Point"},"properties":{"name":"Tong sampah","osm_id":"4715977491","tag":{"amenity":"waste_basket"}},"type":"Feature"},
	{"geometry":{"coordinates":[103.637764,1.555853],"type":"Point"},"properties":{"name":"Tong sampah","osm_id":"4715977498","tag":{"amenity":"waste_basket"}},"type":"Feature"},
	{"geometry":{"coordinates":[103.637405,1.556095],"type":"Point"},"properties":{"name":"Tong sampah","osm_id":"4715977511","tag":{"amenity":"waste_basket"}},"type":"Feature"},
	{"geometry":{"coordinates":[103.633047,1.560706],"type":"Point"},"properties":{"osm_id":"4716006120","tag":{"addr:housenumber":"03","addr:place":"ktf","amenity":"waste_disposal"}},"type":"Feature"},
	{"geometry":{"coordinates":[103.62933,1.560313],"type":"Point"},"properties":{"osm_id":"4716006121","tag":{"addr:housenumber":"02","addr:place":"ktf","amenity":"waste_disposal"}},"type":"Feature"},
	{"geometry":{"coordinates":[103.630406,1.561174],"type":"Point"},"properties":{"osm_id":"4716006122","tag":{"addr:housenumber":"04","addr:place":"ktf","amenity":"waste_disposal"}},"type":"Feature"},
	{"geometry":{"coordinates":[103.62946,1.560249],"type":"Point"},"properties":{"osm_id":"4716006123","tag":{"addr:housenumber":"01","addr:place":"ktf","amenity":"waste_disposal"}},"type":"Feature"},
	{"geometry":{"coordinates":[103.627019,1.560164],"type":"Point"},"properties":{"osm_id":"4717783733","tag":{"addr:housenumber":"01","addr:place":"PKU","amenity":"waste_disposal"}},"type":"Feature"},
	{"geometry":{"coordinates":[103.624339,1.56762],"type":"Point"},"properties":{"osm_id":"4717783734","tag":{"addr:housenumber":"3","addr:place":"KDSE","amenity":"waste_disposal"}},"type":"Feature"},
	{"geometry":{"coordinates":[103.629723,1.564436],"type":"Point"},"properties":{"osm_id":"4717783735","tag":{"addr:housenumber":"3","addr:place":"KTHO","amenity":"waste_disposal"}},"type":"Feature"},
	{"geometry":{"coordinates":[103.643808,1.556583],"type":"Point"},"properties":{"osm_id":"4717783736","tag":{"addr:housenumber":"1","addr:place":"KTC","amenity":"waste_disposal"}},"type":"Feature"},
	{"geometry":{"coordinates":[103.633668,1.565523],"type":"Point"},"properties":{"osm_id":"4717783737","tag":{"addr:housenumber":"01","addr:place":"KTDI","amenity":"waste_disposal"}},"type":"Feature"},
	{"geometry":{"coordinates":[103.646534,1.559133],"type":"Point"},"properties":{"osm_id":"4717783739","tag":{"addr:housenumber":"1","addr:place":"KP","amenity":"waste_disposal"}},"type":"Feature"},
	{"geometry":{"coordinates":[103.634285,1.567003],"type":"Point"},"properties":{"osm_id":"4717783740","tag":{"addr:housenumber":"3","addr:place":"KTDI","amenity":"waste_disposal"}},"type":"Feature"},
	{"geometry":{"coordinates":[103.632774,1.56378],"type":"Point"},"properties":{"osm_id":"4717783741","tag":{"addr:housenumber":"02","addr:place":"KTHO","amenity":"waste_disposal"}},"type":"Feature"},
	{"geometry":{"coordinates":[103.625863,1.565795],"type":"Point"},"properties":{"osm_id":"4717783742","tag":{"addr:housenumber":"1","addr:place":"KDSE","amenity":"waste_disposal"}},"type":"Feature"},
	{"geometry":{"coordinates":[103.645073,1.554119],"type":"Point"},"properties":{"osm_id":"4717783743","tag":{"addr:housenumber":"2","addr:place":"KTC","amenity":"waste_disposal"}},"type":"Feature"},
	{"geometry":{"coordinates":[103.635739,1.567791],"type":"Point"},"properties":{"osm_id":"4717783744","tag":{"addr:housenumber":"5","addr:place":"KTDI","amenity":"waste_disposal"}},"type":"Feature"},
	{"geometry":{"coordinates":[103.635922,1.56714],"type":"Point"},"properties":{"osm_id":"4717783746","tag":{"addr:housenumber":"5","addr:place":"KTDI","amenity":"waste_disposal"}},"type":"Feature"},
	{"geometry":{"coordinates":[103.647545,1.559582],"type":"Point"},"properties":{"osm_id":"4717783748","tag":{"addr:housenumber":"2","addr:place":"KP","amenity":"waste_disposal"}},"type":"Feature"},
	{"geometry":{"coordinates":[103.647919,1.557918],"type":"Point"},"properties":{"osm_id":"4717783749","tag":{"addr:housenumber":"5","addr:place":"KP","amenity":"waste_disposal"}},"type":"Feature"},
	{"geometry":{"coordinates":[103.634561,1.567521],"type":"Point"},"properties":{"osm_id":"4717783750","tag":{"addr:housenumber":"4","addr:place":"KTDI","amenity":"waste_disposal"}},"type":"Feature"},
	{"geometry":{"coordinates":[103.646726,1.558318],"type":"Point"},"properties":{"osm_id":"4717783751","tag":{"addr:housenumber":"3","addr:place":"KP","amenity":"waste_disposal"}},"type":"Feature"},
	{"geometry":{"coordinates":[103.628204,1.561287],"type":"Point"},"properties":{"osm_id":"4717783752","tag":{"addr:housenumber":"01","addr:place":"KTR","amenity":"waste_disposal"}},"type":"Feature"},
	{"geometry":{"coordinates":[103.632041,1.565],"type":"Point"},"properties":{"osm_id":"4717783753","tag":{"addr:housenumber":"01","addr:place":"KTHO","amenity":"waste_disposal"}},"type":"Feature"},
	{"geometry":{"coordinates":[103.649766,1.561588],"type":"Point"},"properties":{"osm_id":"4717783754","tag":{"addr:housenumber":"1","addr:place":"K10","amenity":"waste_disposal"}},"type":"Feature"},
	{"geometry":{"coordinates":[103.634152,1.557167],"type":"Point"},"properties":{"osm_id":"4717783755","tag":{"addr:housenumber":"01","addr:place":"KRP","amenity":"waste_disposal"}},"type":"Feature"},
	{"geometry":{"coordinates":[103.633501,1.566627],"type":"Point"},"properties":{"osm_id":"4717783756","tag":{"addr:housenumber":"02","addr:place":"KTDI","amenity":"waste_disposal"}},"type":"Feature"}
]
}
