{
"type": "FeatureCollection",
"features": [
	{"geometry":{"coordinates":[30.848128,2.562886],"type":"Point"},"properties":{"name":"Sipres plantation","osm_id":"9141586015","tag":{"addr:district":"Zombo","addr:parish":"Pagei","addr:street":"landmark","addr:subcounty":"Warr","comment":"It's in a middle of village","gps":"2.5628866 30.8481285 1464.8154461452732 4.662","natural":"tree","village":"Sokusoku"}},"type":"Feature"},
	{"geometry":{"coordinates":[30.780344,2.572006],"type":"Point"},"properties":{"name":"Tree","osm_id":"9147491858","tag":{"addr:district":"Zombo","addr:parish":"Gamba","addr:street":"landmark","addr:subcounty":"Alangi","comment":"Place were community votes","gps":"2.5720065 30.7803442 1570.6159121801295 4.74","natural":"tree","village":"Jobe"}},"type":"Feature"},
	{"geometry":{"coordinates":[30.848128,2.562886],"type":"Point"},"properties":{"name":"Sipres plantation","osm_id":"9147492013","tag":{"addr:district":"Zombo","addr:parish":"Pagei","addr:street":"landmark","addr:subcounty":"Warr","comment":"It's in a middle of village","gps":"2.5628866 30.8481285 1464.8154461452732 4.662","natural":"tree","village":"Sokusoku"}},"type":"Feature"}
]
}
