{
"type": "FeatureCollection",
"features": [
	{"geometry":{"coordinates":[30.787845,2.542453],"type":"Point"},"properties":{"name":"Akworu tree","osm_id":"9147491866","tag":{"addr:district":"Zombo","addr:parish":"Ndara","addr:street":"landmark","addr:subcounty":"Alangi","comment":"Place were this communities vote","gps":"2.5424533 30.787845 1570.7098142646153 2.1","natural":"tree","village":"Jupakopu"}},"type":"Feature"},
	{"geometry":{"coordinates":[30.79197,2.531315],"type":"Point"},"properties":{"name":"Pines tree","osm_id":"9147491868","tag":{"addr:district":"Zombo","addr:parish":"Ndara","addr:street":"landmark","addr:subcounty":"Alangi","comment":"It's in centre ting Kori market ndavula village","gps":"2.531315 30.79197 1548.928447074662 1.833","natural":"tree","village":"Ndavula"}},"type":"Feature"},
	{"geometry":{"coordinates":[30.809986,2.495729],"type":"Point"},"properties":{"name":"Fig tree and ovacado","osm_id":"9147491880","tag":{"addr:district":"Zombo","addr:parish":"Ayaka","addr:street":"landmark","addr:subcounty":"Akaa","comment":"Social place with small business","gps":"2.4957297 30.8099866 1657.6 4.9","natural":"tree","village":"Atheju east"}},"type":"Feature"},
	{"geometry":{"coordinates":[30.819713,2.488498],"type":"Point"},"properties":{"name":"Makore forestry","osm_id":"9147491896","tag":{"addr:district":"Zombo","addr:parish":"Abanga","addr:street":"landmark","addr:subcounty":"Akaa","comment":"It has covered a good hacre of land which can attract very many people and investors.","gps":"2.4884983 30.8197133 1624.6370905519714 2.08","natural":"tree","village":"Ocwanyo"}},"type":"Feature"},
	{"geometry":{"coordinates":[30.806464,2.52263],"type":"Point"},"properties":{"name":"Forest","osm_id":"9147491919","tag":{"addr:district":"Zombo","addr:parish":"Lorr_Central","addr:street":"landmark","addr:subcounty":"Zeu","comment":"He is known of planting trees in large number","gps":"2.5226303 30.8064641 1556.8 5.0","natural":"tree","village":"Ayii west"}},"type":"Feature"}
]
}
