{
"type": "FeatureCollection",
"features": [
	{"geometry":{"coordinates":[-6.952436,41.549475],"type":"Point"},"properties":{"name":"Ecoponto","osm_id":"2717075444","tag":{"amenity":"recycling","recycling_type":"container"}},"type":"Feature"},
	{"geometry":{"coordinates":[-6.958229,41.537484],"type":"Point"},"properties":{"name":"Ecoponto","osm_id":"2934183277","tag":{"amenity":"recycling","recycling_type":"container"}},"type":"Feature"},
	{"geometry":{"coordinates":[-6.953401,41.548961],"type":"Point"},"properties":{"osm_id":"3216045327","tag":{"amenity":"waste_disposal"}},"type":"Feature"},
	{"geometry":{"coordinates":[-6.958524,41.541163],"type":"Point"},"properties":{"osm_id":"3318623543","tag":{"amenity":"recycling"}},"type":"Feature"},
	{"geometry":{"coordinates":[-6.963189,41.535384],"type":"Point"},"properties":{"name":"Ecoponto","osm_id":"3484966403","tag":{"amenity":"recycling"}},"type":"Feature"},
	{"geometry":{"coordinates":[-6.957136,41.53775],"type":"Point"},"properties":{"name":"Euro-Relais","osm_id":"3872800214","tag":{"amenity":"waste_disposal","description":"Sanitary Dump Station","drinking_water":"yes","fee":"yes"}},"type":"Feature"},
	{"geometry":{"coordinates":[-6.957508,41.538912],"type":"Point"},"properties":{"name":"Ecoponto","osm_id":"3872807848","tag":{"amenity":"recycling"}},"type":"Feature"},
	{"geometry":{"coordinates":[-6.95685,41.547837],"type":"Point"},"properties":{"name":"Res\u00c3\u00adduos dom\u00c3\u00a9sticos","osm_id":"4219302177","tag":{"amenity":"waste_disposal"}},"type":"Feature"}
]
}
