{
"type": "FeatureCollection",
"features": [
	{"geometry":{"coordinates":[-6.950121,37.261628],"type":"Point"},"properties":{"osm_id":"797161184","tag":{"amenity":"recycling","recycling:cans":"yes","recycling:glass":"yes","recycling:paper":"yes"}},"type":"Feature"},
	{"geometry":{"coordinates":[-6.956956,37.256026],"type":"Point"},"properties":{"osm_id":"1541640962","tag":{"amenity":"recycling","recycling:batteries":"no","recycling:books":"yes","recycling:cans":"yes","recycling:cardboard":"yes","recycling:cartons":"yes","recycling:clothes":"no","recycling:electrical_appliances":"no","recycling:glass":"yes","recycling:glass_bottles":"yes","recycling:green_waste":"no","recycling:magazines":"yes","recycling:paper":"yes","recycling:paper_packaging":"yes","recycling:plastic":"yes","recycling:plastic_bottles":"yes","recycling:plastic_packaging":"yes","recycling_type":"container"}},"type":"Feature"},
	{"geometry":{"coordinates":[-6.949353,37.241683],"type":"Point"},"properties":{"name":"Punto limpio de Huelva","osm_id":"5808932168","tag":{"addr:city":"Huelva","addr:housenumber":"21","addr:postcode":"21005","addr:street":"Calle Joaqu\u00c3\u00adn Turina","amenity":"recycling","building":"yes","opening_hours":"We-Th 10:00-14:30; Fr-Sa 10:00-14:30,16:00-18:30","recycling_type":"centre"}},"type":"Feature"},
	{"geometry":{"coordinates":[-6.986027,37.268147],"type":"Point"},"properties":{"osm_id":"7161419505","tag":{"amenity":"waste_basket"}},"type":"Feature"},
	{"geometry":{"coordinates":[-6.946024,37.260844],"type":"Point"},"properties":{"osm_id":"7853183692","tag":{"amenity":"recycling","recycling:glass":"yes","recycling:paper":"yes","recycling:plastic_packaging":"yes","recycling_type":"container"}},"type":"Feature"},
	{"geometry":{"coordinates":[-6.943932,37.262965],"type":"Point"},"properties":{"osm_id":"8040369070","tag":{"amenity":"recycling","recycling:clothes":"yes","recycling:cooking_oil":"yes","recycling:shoes":"steps","recycling_type":"container"}},"type":"Feature"},
	{"geometry":{"coordinates":[-6.943957,37.262977],"type":"Point"},"properties":{"osm_id":"8040369071","tag":{"amenity":"recycling","recycling:cans":"yes","recycling:cardboard":"yes","recycling:glass_bottles":"yes","recycling:paper":"yes","recycling:plastic_bottles":"yes","recycling:plastic_packaging":"yes","recycling_type":"container"}},"type":"Feature"},
	{"geometry":{"coordinates":[-6.943975,37.262989],"type":"Point"},"properties":{"osm_id":"8040369072","tag":{"amenity":"waste_disposal"}},"type":"Feature"},
	{"geometry":{"coordinates":[-6.952722,37.263071],"type":"Point"},"properties":{"osm_id":"8042761597","tag":{"amenity":"waste_disposal"}},"type":"Feature"},
	{"geometry":{"coordinates":[-6.95265,37.263421],"type":"Point"},"properties":{"osm_id":"8042761598","tag":{"amenity":"waste_disposal"}},"type":"Feature"},
	{"geometry":{"coordinates":[-6.952576,37.263774],"type":"Point"},"properties":{"osm_id":"8042761599","tag":{"amenity":"waste_disposal"}},"type":"Feature"},
	{"geometry":{"coordinates":[-6.952502,37.264125],"type":"Point"},"properties":{"osm_id":"8042761600","tag":{"amenity":"waste_disposal"}},"type":"Feature"},
	{"geometry":{"coordinates":[-6.952442,37.264388],"type":"Point"},"properties":{"osm_id":"8042761601","tag":{"amenity":"waste_disposal"}},"type":"Feature"},
	{"geometry":{"coordinates":[-6.952317,37.264984],"type":"Point"},"properties":{"osm_id":"8042761602","tag":{"amenity":"waste_disposal"}},"type":"Feature"},
	{"geometry":{"coordinates":[-6.952436,37.265737],"type":"Point"},"properties":{"osm_id":"8042761603","tag":{"amenity":"recycling","recycling:cans":"yes","recycling:cardboard":"yes","recycling:glass_bottles":"yes","recycling:paper":"yes","recycling:plastic_bottles":"yes","recycling:plastic_packaging":"yes","recycling_type":"container"}},"type":"Feature"},
	{"geometry":{"coordinates":[-6.952415,37.265735],"type":"Point"},"properties":{"osm_id":"8042761604","tag":{"amenity":"waste_disposal"}},"type":"Feature"},
	{"geometry":{"coordinates":[-6.952458,37.265739],"type":"Point"},"properties":{"osm_id":"8042761605","tag":{"amenity":"recycling","recycling:clothes":"yes","recycling:cooking_oil":"yes","recycling:shoes":"steps","recycling_type":"container"}},"type":"Feature"},
	{"geometry":{"coordinates":[-6.952139,37.262516],"type":"Point"},"properties":{"osm_id":"8042761606","tag":{"amenity":"recycling","recycling:cans":"yes","recycling:cardboard":"yes","recycling:glass_bottles":"yes","recycling:paper":"yes","recycling:plastic_bottles":"yes","recycling:plastic_packaging":"yes","recycling_type":"container"}},"type":"Feature"}
]
}
