{
"type": "FeatureCollection",
"features": [
	{"geometry":{"coordinates":[19.647709,39.744219],"type":"Point"},"properties":{"osm_id":"4416202677","tag":{"amenity":"waste_basket"}},"type":"Feature"},
	{"geometry":{"coordinates":[19.675584,39.719849],"type":"Point"},"properties":{"osm_id":"6472696688","tag":{"amenity":"recycling","type":"glas"}},"type":"Feature"},
	{"geometry":{"coordinates":[19.677995,39.718424],"type":"Point"},"properties":{"osm_id":"6472696721","tag":{"amenity":"recycling","type":"glas"}},"type":"Feature"},
	{"geometry":{"coordinates":[19.646847,39.745121],"type":"Point"},"properties":{"osm_id":"6475466435","tag":{"amenity":"waste_basket"}},"type":"Feature"},
	{"geometry":{"coordinates":[19.659107,39.730084],"type":"Point"},"properties":{"osm_id":"6475466437","tag":{"amenity":"waste_disposal"}},"type":"Feature"},
	{"geometry":{"coordinates":[19.653422,39.740411],"type":"Point"},"properties":{"osm_id":"6475466451","tag":{"amenity":"waste_disposal"}},"type":"Feature"},
	{"geometry":{"coordinates":[19.658555,39.729475],"type":"Point"},"properties":{"osm_id":"6475466453","tag":{"amenity":"waste_disposal"}},"type":"Feature"},
	{"geometry":{"coordinates":[19.660627,39.726147],"type":"Point"},"properties":{"osm_id":"6478263153","tag":{"amenity":"waste_disposal"}},"type":"Feature"},
	{"geometry":{"coordinates":[19.648368,39.743371],"type":"Point"},"properties":{"osm_id":"6478263176","tag":{"amenity":"waste_basket"}},"type":"Feature"},
	{"geometry":{"coordinates":[19.642668,39.754972],"type":"Point"},"properties":{"osm_id":"6481163293","tag":{"amenity":"waste_disposal"}},"type":"Feature"}
]
}
