{
"type": "FeatureCollection",
"features": [
	{"geometry":{"coordinates":[16.830652,52.432091],"type":"Point"},"properties":{"osm_id":"3240027178","tag":{"amenity":"waste_basket","traffic_sign":"PL:D-6"}},"type":"Feature"},
	{"geometry":{"coordinates":[16.849031,52.42925],"type":"Point"},"properties":{"osm_id":"5203375847","tag":{"amenity":"waste_basket","traffic_sign":"PL:D-35"}},"type":"Feature"},
	{"geometry":{"coordinates":[16.847819,52.429521],"type":"Point"},"properties":{"osm_id":"5203379383","tag":{"amenity":"waste_basket"}},"type":"Feature"},
	{"geometry":{"coordinates":[16.87,52.47058],"type":"Point"},"properties":{"osm_id":"6711712134","tag":{"amenity":"waste_basket","waste":"trash"}},"type":"Feature"},
	{"geometry":{"coordinates":[16.870442,52.470388],"type":"Point"},"properties":{"osm_id":"6711712139","tag":{"amenity":"waste_basket","waste":"dog_excrement"}},"type":"Feature"},
	{"geometry":{"coordinates":[16.870259,52.470461],"type":"Point"},"properties":{"osm_id":"6711712140","tag":{"amenity":"waste_basket","waste":"trash"}},"type":"Feature"},
	{"geometry":{"coordinates":[16.869445,52.469639],"type":"Point"},"properties":{"osm_id":"6711712153","tag":{"amenity":"waste_basket","waste":"trash"}},"type":"Feature"},
	{"geometry":{"coordinates":[16.86927,52.470385],"type":"Point"},"properties":{"osm_id":"6711712154","tag":{"amenity":"waste_basket","waste":"trash"}},"type":"Feature"},
	{"geometry":{"coordinates":[16.869441,52.470225],"type":"Point"},"properties":{"osm_id":"6711712157","tag":{"amenity":"waste_basket","waste":"trash"}},"type":"Feature"},
	{"geometry":{"coordinates":[16.869248,52.470831],"type":"Point"},"properties":{"osm_id":"6711712159","tag":{"amenity":"waste_basket","waste":"dog_excrement"}},"type":"Feature"},
	{"geometry":{"coordinates":[16.86945,52.470838],"type":"Point"},"properties":{"osm_id":"6711712160","tag":{"amenity":"waste_basket","waste":"trash"}},"type":"Feature"},
	{"geometry":{"coordinates":[16.869489,52.469648],"type":"Point"},"properties":{"osm_id":"6711712161","tag":{"amenity":"waste_basket","waste":"dog_excrement"}},"type":"Feature"},
	{"geometry":{"coordinates":[16.869424,52.470738],"type":"Point"},"properties":{"osm_id":"6711712164","tag":{"amenity":"waste_basket","waste":"trash"}},"type":"Feature"},
	{"geometry":{"coordinates":[16.797003,52.441391],"type":"Point"},"properties":{"osm_id":"6917806314","tag":{"amenity":"waste_basket"}},"type":"Feature"},
	{"geometry":{"coordinates":[16.802777,52.444096],"type":"Point"},"properties":{"osm_id":"6917873780","tag":{"access":"private","amenity":"waste_disposal"}},"type":"Feature"},
	{"geometry":{"coordinates":[16.803,52.444053],"type":"Point"},"properties":{"osm_id":"6917912931","tag":{"amenity":"waste_basket"}},"type":"Feature"},
	{"geometry":{"coordinates":[16.802798,52.444384],"type":"Point"},"properties":{"osm_id":"6917912932","tag":{"amenity":"waste_basket"}},"type":"Feature"},
	{"geometry":{"coordinates":[16.802762,52.444534],"type":"Point"},"properties":{"osm_id":"6917912933","tag":{"amenity":"waste_basket"}},"type":"Feature"},
	{"geometry":{"coordinates":[16.802685,52.444718],"type":"Point"},"properties":{"osm_id":"6917912934","tag":{"amenity":"waste_basket"}},"type":"Feature"},
	{"geometry":{"coordinates":[16.802702,52.444872],"type":"Point"},"properties":{"osm_id":"6917912965","tag":{"amenity":"waste_basket"}},"type":"Feature"},
	{"geometry":{"coordinates":[16.802949,52.4442],"type":"Point"},"properties":{"osm_id":"6917913030","tag":{"amenity":"waste_basket"}},"type":"Feature"},
	{"geometry":{"coordinates":[16.802804,52.444634],"type":"Point"},"properties":{"osm_id":"6917913031","tag":{"amenity":"waste_basket"}},"type":"Feature"},
	{"geometry":{"coordinates":[16.802493,52.445157],"type":"Point"},"properties":{"osm_id":"6917913044","tag":{"amenity":"waste_basket"}},"type":"Feature"},
	{"geometry":{"coordinates":[16.826297,52.46204],"type":"Point"},"properties":{"osm_id":"6918618288","tag":{"amenity":"waste_basket"}},"type":"Feature"},
	{"geometry":{"coordinates":[16.826071,52.461958],"type":"Point"},"properties":{"osm_id":"6918618289","tag":{"amenity":"waste_basket"}},"type":"Feature"},
	{"geometry":{"coordinates":[16.826593,52.462498],"type":"Point"},"properties":{"osm_id":"6918618294","tag":{"amenity":"waste_basket"}},"type":"Feature"},
	{"geometry":{"coordinates":[16.826715,52.462401],"type":"Point"},"properties":{"osm_id":"6918618295","tag":{"amenity":"waste_basket"}},"type":"Feature"},
	{"geometry":{"coordinates":[16.826896,52.46225],"type":"Point"},"properties":{"osm_id":"6918618299","tag":{"amenity":"waste_basket"}},"type":"Feature"},
	{"geometry":{"coordinates":[16.826285,52.462814],"type":"Point"},"properties":{"osm_id":"6918618369","tag":{"amenity":"waste_basket"}},"type":"Feature"},
	{"geometry":{"coordinates":[16.826436,52.462632],"type":"Point"},"properties":{"osm_id":"6918618370","tag":{"amenity":"waste_basket"}},"type":"Feature"},
	{"geometry":{"coordinates":[16.826161,52.463042],"type":"Point"},"properties":{"osm_id":"6918618400","tag":{"amenity":"waste_basket"}},"type":"Feature"},
	{"geometry":{"coordinates":[16.826204,52.462977],"type":"Point"},"properties":{"osm_id":"6918618401","tag":{"amenity":"waste_basket"}},"type":"Feature"},
	{"geometry":{"coordinates":[16.827397,52.46117],"type":"Point"},"properties":{"osm_id":"6918737438","tag":{"amenity":"waste_basket"}},"type":"Feature"},
	{"geometry":{"coordinates":[16.827278,52.461118],"type":"Point"},"properties":{"osm_id":"6918737439","tag":{"amenity":"waste_basket"}},"type":"Feature"},
	{"geometry":{"coordinates":[16.827512,52.460852],"type":"Point"},"properties":{"osm_id":"6918737440","tag":{"amenity":"waste_basket"}},"type":"Feature"},
	{"geometry":{"coordinates":[16.827378,52.460956],"type":"Point"},"properties":{"osm_id":"6918737441","tag":{"amenity":"waste_basket"}},"type":"Feature"},
	{"geometry":{"coordinates":[16.827295,52.461049],"type":"Point"},"properties":{"osm_id":"6918737442","tag":{"amenity":"waste_basket"}},"type":"Feature"},
	{"geometry":{"coordinates":[16.826624,52.461608],"type":"Point"},"properties":{"osm_id":"6918737445","tag":{"amenity":"waste_basket"}},"type":"Feature"},
	{"geometry":{"coordinates":[16.826184,52.461627],"type":"Point"},"properties":{"osm_id":"6918737446","tag":{"amenity":"waste_basket"}},"type":"Feature"},
	{"geometry":{"coordinates":[16.82613,52.461011],"type":"Point"},"properties":{"osm_id":"6918737447","tag":{"amenity":"waste_basket"}},"type":"Feature"},
	{"geometry":{"coordinates":[16.826278,52.460936],"type":"Point"},"properties":{"osm_id":"6918737448","tag":{"amenity":"waste_basket"}},"type":"Feature"},
	{"geometry":{"coordinates":[16.826556,52.460856],"type":"Point"},"properties":{"osm_id":"6918737449","tag":{"amenity":"waste_basket"}},"type":"Feature"},
	{"geometry":{"coordinates":[16.82669,52.4607],"type":"Point"},"properties":{"osm_id":"6918737450","tag":{"amenity":"waste_basket"}},"type":"Feature"},
	{"geometry":{"coordinates":[16.827154,52.460922],"type":"Point"},"properties":{"osm_id":"6918737461","tag":{"amenity":"waste_basket"}},"type":"Feature"},
	{"geometry":{"coordinates":[16.827214,52.46088],"type":"Point"},"properties":{"osm_id":"6918737463","tag":{"amenity":"waste_basket"}},"type":"Feature"},
	{"geometry":{"coordinates":[16.827313,52.460719],"type":"Point"},"properties":{"osm_id":"6918737464","tag":{"amenity":"waste_basket"}},"type":"Feature"},
	{"geometry":{"coordinates":[16.827154,52.460557],"type":"Point"},"properties":{"osm_id":"6918737465","tag":{"amenity":"waste_basket"}},"type":"Feature"},
	{"geometry":{"coordinates":[16.826876,52.460437],"type":"Point"},"properties":{"osm_id":"6918737468","tag":{"amenity":"waste_basket"}},"type":"Feature"},
	{"geometry":{"coordinates":[16.826501,52.46034],"type":"Point"},"properties":{"osm_id":"6918737469","tag":{"amenity":"waste_basket"}},"type":"Feature"},
	{"geometry":{"coordinates":[16.826612,52.460309],"type":"Point"},"properties":{"osm_id":"6918737470","tag":{"amenity":"waste_basket"}},"type":"Feature"},
	{"geometry":{"coordinates":[16.826467,52.460206],"type":"Point"},"properties":{"osm_id":"6918737472","tag":{"amenity":"waste_basket"}},"type":"Feature"},
	{"geometry":{"coordinates":[16.82716,52.46201],"type":"Point"},"properties":{"osm_id":"6918737615","tag":{"amenity":"waste_basket"}},"type":"Feature"},
	{"geometry":{"coordinates":[16.82669,52.462129],"type":"Point"},"properties":{"osm_id":"6918737617","tag":{"amenity":"waste_basket"}},"type":"Feature"},
	{"geometry":{"coordinates":[16.830533,52.459505],"type":"Point"},"properties":{"osm_id":"6918770941","tag":{"amenity":"waste_basket"}},"type":"Feature"},
	{"geometry":{"coordinates":[16.830439,52.459558],"type":"Point"},"properties":{"osm_id":"6918770942","tag":{"amenity":"waste_basket"}},"type":"Feature"},
	{"geometry":{"coordinates":[16.830522,52.459621],"type":"Point"},"properties":{"osm_id":"6918770943","tag":{"amenity":"waste_basket"}},"type":"Feature"},
	{"geometry":{"coordinates":[16.827559,52.460224],"type":"Point"},"properties":{"osm_id":"6918770944","tag":{"amenity":"waste_basket"}},"type":"Feature"},
	{"geometry":{"coordinates":[16.827373,52.460341],"type":"Point"},"properties":{"osm_id":"6918770945","tag":{"amenity":"waste_basket"}},"type":"Feature"},
	{"geometry":{"coordinates":[16.82741,52.460514],"type":"Point"},"properties":{"osm_id":"6918770946","tag":{"amenity":"waste_basket"}},"type":"Feature"},
	{"geometry":{"coordinates":[16.827359,52.460613],"type":"Point"},"properties":{"osm_id":"6918770947","tag":{"amenity":"waste_basket"}},"type":"Feature"},
	{"geometry":{"coordinates":[16.828229,52.460701],"type":"Point"},"properties":{"osm_id":"6918786097","tag":{"amenity":"waste_basket"}},"type":"Feature"},
	{"geometry":{"coordinates":[16.828011,52.460639],"type":"Point"},"properties":{"osm_id":"6918786098","tag":{"amenity":"waste_basket"}},"type":"Feature"},
	{"geometry":{"coordinates":[16.828095,52.460507],"type":"Point"},"properties":{"osm_id":"6918786099","tag":{"amenity":"waste_basket"}},"type":"Feature"},
	{"geometry":{"coordinates":[16.828329,52.460335],"type":"Point"},"properties":{"osm_id":"6918786100","tag":{"amenity":"waste_basket"}},"type":"Feature"},
	{"geometry":{"coordinates":[16.828577,52.460539],"type":"Point"},"properties":{"osm_id":"6918786101","tag":{"amenity":"waste_basket"}},"type":"Feature"},
	{"geometry":{"coordinates":[16.828704,52.460753],"type":"Point"},"properties":{"osm_id":"6918786102","tag":{"amenity":"waste_basket"}},"type":"Feature"},
	{"geometry":{"coordinates":[16.828491,52.460754],"type":"Point"},"properties":{"osm_id":"6918786103","tag":{"amenity":"waste_basket"}},"type":"Feature"},
	{"geometry":{"coordinates":[16.828073,52.460895],"type":"Point"},"properties":{"osm_id":"6918786104","tag":{"amenity":"waste_basket"}},"type":"Feature"},
	{"geometry":{"coordinates":[16.827846,52.460755],"type":"Point"},"properties":{"osm_id":"6918786105","tag":{"amenity":"waste_basket"}},"type":"Feature"},
	{"geometry":{"coordinates":[16.828891,52.460134],"type":"Point"},"properties":{"osm_id":"6918786176","tag":{"amenity":"waste_basket"}},"type":"Feature"},
	{"geometry":{"coordinates":[16.829734,52.459984],"type":"Point"},"properties":{"osm_id":"6918786177","tag":{"amenity":"waste_basket"}},"type":"Feature"},
	{"geometry":{"coordinates":[16.800286,52.434042],"type":"Point"},"properties":{"osm_id":"7004875011","tag":{"amenity":"waste_basket"}},"type":"Feature"},
	{"geometry":{"coordinates":[16.800343,52.433957],"type":"Point"},"properties":{"osm_id":"7004875012","tag":{"amenity":"waste_basket"}},"type":"Feature"},
	{"geometry":{"coordinates":[16.800402,52.433867],"type":"Point"},"properties":{"osm_id":"7004875013","tag":{"amenity":"waste_basket"}},"type":"Feature"},
	{"geometry":{"coordinates":[16.795534,52.458685],"type":"Point"},"properties":{"osm_id":"7896109620","tag":{"amenity":"waste_basket"}},"type":"Feature"},
	{"geometry":{"coordinates":[16.795585,52.45885],"type":"Point"},"properties":{"osm_id":"7896109622","tag":{"amenity":"waste_basket"}},"type":"Feature"},
	{"geometry":{"coordinates":[16.795443,52.45886],"type":"Point"},"properties":{"osm_id":"7896109623","tag":{"amenity":"waste_basket"}},"type":"Feature"},
	{"geometry":{"coordinates":[16.795472,52.459028],"type":"Point"},"properties":{"osm_id":"7896109624","tag":{"amenity":"waste_basket"}},"type":"Feature"},
	{"geometry":{"coordinates":[16.795537,52.459357],"type":"Point"},"properties":{"osm_id":"7896109630","tag":{"amenity":"waste_basket"}},"type":"Feature"},
	{"geometry":{"coordinates":[16.795504,52.459174],"type":"Point"},"properties":{"osm_id":"7896109631","tag":{"amenity":"waste_basket"}},"type":"Feature"},
	{"geometry":{"coordinates":[16.8679,52.430455],"type":"Point"},"properties":{"osm_id":"7902379558","tag":{"amenity":"waste_basket"}},"type":"Feature"},
	{"geometry":{"coordinates":[16.874303,52.43262],"type":"Point"},"properties":{"osm_id":"7903260554","tag":{"amenity":"waste_basket"}},"type":"Feature"},
	{"geometry":{"coordinates":[16.874598,52.432657],"type":"Point"},"properties":{"osm_id":"7903260555","tag":{"amenity":"waste_basket"}},"type":"Feature"},
	{"geometry":{"coordinates":[16.869676,52.430553],"type":"Point"},"properties":{"osm_id":"7903260558","tag":{"amenity":"waste_basket"}},"type":"Feature"},
	{"geometry":{"coordinates":[16.873884,52.430215],"type":"Point"},"properties":{"osm_id":"7904795827","tag":{"amenity":"waste_basket"}},"type":"Feature"},
	{"geometry":{"coordinates":[16.872867,52.430267],"type":"Point"},"properties":{"osm_id":"7905139331","tag":{"amenity":"waste_basket"}},"type":"Feature"},
	{"geometry":{"coordinates":[16.872009,52.430231],"type":"Point"},"properties":{"osm_id":"7905139333","tag":{"amenity":"waste_basket"}},"type":"Feature"}
]
}
