{
"type": "FeatureCollection",
"features": [
	{"geometry":{"coordinates":[16.855441,52.398086],"type":"Point"},"properties":{"osm_id":"4623624760","tag":{"amenity":"recycling"}},"type":"Feature"},
	{"geometry":{"coordinates":[16.849425,52.429193],"type":"Point"},"properties":{"osm_id":"5203375846","tag":{"amenity":"waste_basket","traffic_sign":"PL:D-35"}},"type":"Feature"},
	{"geometry":{"coordinates":[16.874803,52.387295],"type":"Point"},"properties":{"osm_id":"5843106021","tag":{"amenity":"waste_disposal"}},"type":"Feature"},
	{"geometry":{"coordinates":[16.855254,52.388402],"type":"Point"},"properties":{"osm_id":"6259847880","tag":{"amenity":"waste_disposal"}},"type":"Feature"},
	{"geometry":{"coordinates":[16.860352,52.398602],"type":"Point"},"properties":{"osm_id":"6430300346","tag":{"amenity":"waste_basket"}},"type":"Feature"},
	{"geometry":{"coordinates":[16.860464,52.398692],"type":"Point"},"properties":{"osm_id":"6430300347","tag":{"amenity":"waste_basket"}},"type":"Feature"},
	{"geometry":{"coordinates":[16.860168,52.398822],"type":"Point"},"properties":{"osm_id":"6430300348","tag":{"amenity":"waste_basket"}},"type":"Feature"},
	{"geometry":{"coordinates":[16.859921,52.398783],"type":"Point"},"properties":{"osm_id":"6430300349","tag":{"amenity":"waste_basket"}},"type":"Feature"},
	{"geometry":{"coordinates":[16.855537,52.398174],"type":"Point"},"properties":{"osm_id":"6430300513","tag":{"amenity":"waste_disposal"}},"type":"Feature"},
	{"geometry":{"coordinates":[16.862259,52.398549],"type":"Point"},"properties":{"osm_id":"6703944188","tag":{"amenity":"waste_basket","waste":"trash"}},"type":"Feature"},
	{"geometry":{"coordinates":[16.859338,52.399739],"type":"Point"},"properties":{"osm_id":"6703944189","tag":{"amenity":"waste_basket","waste":"trash"}},"type":"Feature"},
	{"geometry":{"coordinates":[16.854045,52.401956],"type":"Point"},"properties":{"osm_id":"6703944190","tag":{"amenity":"waste_basket","waste":"trash"}},"type":"Feature"},
	{"geometry":{"coordinates":[16.848113,52.405972],"type":"Point"},"properties":{"osm_id":"6703944192","tag":{"amenity":"waste_basket","waste":"trash"}},"type":"Feature"},
	{"geometry":{"coordinates":[16.844824,52.406096],"type":"Point"},"properties":{"osm_id":"6703944194","tag":{"amenity":"waste_basket","waste":"trash"}},"type":"Feature"},
	{"geometry":{"coordinates":[16.845761,52.406049],"type":"Point"},"properties":{"osm_id":"6703944196","tag":{"amenity":"waste_basket","waste":"trash"}},"type":"Feature"},
	{"geometry":{"coordinates":[16.84609,52.400382],"type":"Point"},"properties":{"osm_id":"6703944198","tag":{"amenity":"waste_basket","waste":"trash"}},"type":"Feature"},
	{"geometry":{"coordinates":[16.85014,52.401708],"type":"Point"},"properties":{"osm_id":"6703944203","tag":{"amenity":"waste_basket","waste":"trash"}},"type":"Feature"},
	{"geometry":{"coordinates":[16.847326,52.402563],"type":"Point"},"properties":{"osm_id":"6703944205","tag":{"amenity":"waste_basket","waste":"trash"}},"type":"Feature"},
	{"geometry":{"coordinates":[16.848283,52.404092],"type":"Point"},"properties":{"osm_id":"6703944207","tag":{"amenity":"waste_basket","waste":"trash"}},"type":"Feature"},
	{"geometry":{"coordinates":[16.849919,52.405913],"type":"Point"},"properties":{"osm_id":"6703944208","tag":{"amenity":"waste_basket","waste":"trash"}},"type":"Feature"},
	{"geometry":{"coordinates":[16.850517,52.405043],"type":"Point"},"properties":{"osm_id":"6703944209","tag":{"amenity":"waste_basket","waste":"trash"}},"type":"Feature"},
	{"geometry":{"coordinates":[16.852205,52.404085],"type":"Point"},"properties":{"osm_id":"6703944210","tag":{"amenity":"waste_basket","waste":"trash"}},"type":"Feature"},
	{"geometry":{"coordinates":[16.852525,52.404291],"type":"Point"},"properties":{"osm_id":"6703944211","tag":{"amenity":"waste_basket","waste":"trash"}},"type":"Feature"},
	{"geometry":{"coordinates":[16.853343,52.403621],"type":"Point"},"properties":{"osm_id":"6703944213","tag":{"amenity":"waste_basket","waste":"trash"}},"type":"Feature"},
	{"geometry":{"coordinates":[16.852575,52.402385],"type":"Point"},"properties":{"osm_id":"6703944215","tag":{"amenity":"waste_basket","waste":"trash"}},"type":"Feature"},
	{"geometry":{"coordinates":[16.851661,52.401372],"type":"Point"},"properties":{"osm_id":"6703944216","tag":{"amenity":"waste_basket","waste":"trash"}},"type":"Feature"},
	{"geometry":{"coordinates":[16.851924,52.401453],"type":"Point"},"properties":{"osm_id":"6703944218","tag":{"amenity":"waste_basket","waste":"trash"}},"type":"Feature"},
	{"geometry":{"coordinates":[16.848799,52.399661],"type":"Point"},"properties":{"osm_id":"6703944219","tag":{"amenity":"waste_basket","waste":"trash"}},"type":"Feature"},
	{"geometry":{"coordinates":[16.843827,52.398009],"type":"Point"},"properties":{"osm_id":"6703944222","tag":{"amenity":"waste_basket","waste":"trash"}},"type":"Feature"},
	{"geometry":{"coordinates":[16.847456,52.399198],"type":"Point"},"properties":{"osm_id":"6703944223","tag":{"amenity":"waste_basket","waste":"trash"}},"type":"Feature"},
	{"geometry":{"coordinates":[16.841978,52.397353],"type":"Point"},"properties":{"osm_id":"6703944228","tag":{"amenity":"waste_basket","waste":"trash"}},"type":"Feature"},
	{"geometry":{"coordinates":[16.838798,52.396349],"type":"Point"},"properties":{"osm_id":"6703944229","tag":{"amenity":"waste_basket","waste":"trash"}},"type":"Feature"},
	{"geometry":{"coordinates":[16.834768,52.398046],"type":"Point"},"properties":{"osm_id":"6703944230","tag":{"amenity":"waste_basket","waste":"trash"}},"type":"Feature"},
	{"geometry":{"coordinates":[16.836502,52.399513],"type":"Point"},"properties":{"osm_id":"6703944231","tag":{"amenity":"waste_basket","waste":"trash"}},"type":"Feature"},
	{"geometry":{"coordinates":[16.836613,52.39724],"type":"Point"},"properties":{"osm_id":"6703944232","tag":{"amenity":"waste_basket","waste":"trash"}},"type":"Feature"},
	{"geometry":{"coordinates":[16.83901,52.401338],"type":"Point"},"properties":{"osm_id":"6703944233","tag":{"amenity":"waste_basket","waste":"trash"}},"type":"Feature"},
	{"geometry":{"coordinates":[16.834813,52.403499],"type":"Point"},"properties":{"osm_id":"6703944234","tag":{"amenity":"waste_basket","waste":"trash"}},"type":"Feature"},
	{"geometry":{"coordinates":[16.834712,52.403493],"type":"Point"},"properties":{"osm_id":"6703944235","tag":{"amenity":"waste_basket","waste":"trash"}},"type":"Feature"},
	{"geometry":{"coordinates":[16.841098,52.4083],"type":"Point"},"properties":{"osm_id":"6703944236","tag":{"amenity":"waste_basket","waste":"trash"}},"type":"Feature"},
	{"geometry":{"coordinates":[16.843901,52.407937],"type":"Point"},"properties":{"osm_id":"6703944237","tag":{"amenity":"waste_basket","waste":"trash"}},"type":"Feature"},
	{"geometry":{"coordinates":[16.84681,52.40922],"type":"Point"},"properties":{"osm_id":"6703944238","tag":{"amenity":"waste_basket","waste":"trash"}},"type":"Feature"},
	{"geometry":{"coordinates":[16.85045,52.411689],"type":"Point"},"properties":{"osm_id":"6703944239","tag":{"amenity":"waste_basket","waste":"trash"}},"type":"Feature"},
	{"geometry":{"coordinates":[16.851812,52.412083],"type":"Point"},"properties":{"osm_id":"6703944240","tag":{"amenity":"waste_basket","waste":"trash"}},"type":"Feature"},
	{"geometry":{"coordinates":[16.851179,52.412098],"type":"Point"},"properties":{"osm_id":"6703944241","tag":{"amenity":"waste_basket","waste":"trash"}},"type":"Feature"},
	{"geometry":{"coordinates":[16.846438,52.412329],"type":"Point"},"properties":{"osm_id":"6703944242","tag":{"amenity":"waste_basket","waste":"trash"}},"type":"Feature"},
	{"geometry":{"coordinates":[16.842679,52.412425],"type":"Point"},"properties":{"osm_id":"6703944243","tag":{"amenity":"waste_basket","waste":"trash"}},"type":"Feature"},
	{"geometry":{"coordinates":[16.83405,52.41083],"type":"Point"},"properties":{"osm_id":"6703944244","tag":{"amenity":"waste_basket","waste":"trash"}},"type":"Feature"},
	{"geometry":{"coordinates":[16.833699,52.410802],"type":"Point"},"properties":{"osm_id":"6703944245","tag":{"amenity":"waste_basket","waste":"trash"}},"type":"Feature"},
	{"geometry":{"coordinates":[16.833434,52.410465],"type":"Point"},"properties":{"osm_id":"6703944246","tag":{"amenity":"waste_basket","waste":"trash"}},"type":"Feature"},
	{"geometry":{"coordinates":[16.836837,52.409491],"type":"Point"},"properties":{"osm_id":"6703944247","tag":{"amenity":"waste_basket","waste":"trash"}},"type":"Feature"},
	{"geometry":{"coordinates":[16.83838,52.408938],"type":"Point"},"properties":{"osm_id":"6703944249","tag":{"amenity":"waste_basket","waste":"trash"}},"type":"Feature"},
	{"geometry":{"coordinates":[16.832507,52.396867],"type":"Point"},"properties":{"osm_id":"6707553082","tag":{"amenity":"waste_basket","waste":"trash"}},"type":"Feature"},
	{"geometry":{"coordinates":[16.831548,52.406181],"type":"Point"},"properties":{"osm_id":"6707589225","tag":{"amenity":"waste_basket","waste":"trash"}},"type":"Feature"},
	{"geometry":{"coordinates":[16.837572,52.394464],"type":"Point"},"properties":{"osm_id":"6707713216","tag":{"amenity":"waste_basket","waste":"trash"}},"type":"Feature"},
	{"geometry":{"coordinates":[16.857923,52.404209],"type":"Point"},"properties":{"osm_id":"6707800862","tag":{"amenity":"waste_basket","waste":"trash"}},"type":"Feature"},
	{"geometry":{"coordinates":[16.855987,52.405051],"type":"Point"},"properties":{"osm_id":"6707800863","tag":{"amenity":"waste_basket","waste":"trash"}},"type":"Feature"},
	{"geometry":{"coordinates":[16.854529,52.405218],"type":"Point"},"properties":{"osm_id":"6707800865","tag":{"amenity":"waste_basket","waste":"trash"}},"type":"Feature"},
	{"geometry":{"coordinates":[16.851716,52.406415],"type":"Point"},"properties":{"osm_id":"6707800866","tag":{"amenity":"waste_basket","waste":"trash"}},"type":"Feature"},
	{"geometry":{"coordinates":[16.845644,52.407484],"type":"Point"},"properties":{"osm_id":"6707800868","tag":{"amenity":"waste_basket","waste":"trash"}},"type":"Feature"},
	{"geometry":{"coordinates":[16.845346,52.407997],"type":"Point"},"properties":{"osm_id":"6707800869","tag":{"amenity":"waste_basket","waste":"trash"}},"type":"Feature"},
	{"geometry":{"coordinates":[16.843949,52.407769],"type":"Point"},"properties":{"osm_id":"6707800870","tag":{"amenity":"waste_basket","waste":"trash"}},"type":"Feature"},
	{"geometry":{"coordinates":[16.840346,52.408639],"type":"Point"},"properties":{"osm_id":"6707800871","tag":{"amenity":"waste_basket","waste":"trash"}},"type":"Feature"},
	{"geometry":{"coordinates":[16.838457,52.408688],"type":"Point"},"properties":{"osm_id":"6707800872","tag":{"amenity":"waste_basket","waste":"trash"}},"type":"Feature"},
	{"geometry":{"coordinates":[16.861406,52.398877],"type":"Point"},"properties":{"osm_id":"6709866629","tag":{"amenity":"waste_basket","waste":"trash"}},"type":"Feature"},
	{"geometry":{"coordinates":[16.856378,52.401025],"type":"Point"},"properties":{"osm_id":"6709866630","tag":{"amenity":"waste_basket","waste":"trash"}},"type":"Feature"},
	{"geometry":{"coordinates":[16.858303,52.400215],"type":"Point"},"properties":{"osm_id":"6709866631","tag":{"amenity":"waste_basket","waste":"trash"}},"type":"Feature"},
	{"geometry":{"coordinates":[16.854269,52.401915],"type":"Point"},"properties":{"osm_id":"6709866632","tag":{"amenity":"waste_basket","waste":"trash"}},"type":"Feature"},
	{"geometry":{"coordinates":[16.848418,52.402265],"type":"Point"},"properties":{"osm_id":"6709866641","tag":{"amenity":"waste_basket","waste":"trash"}},"type":"Feature"},
	{"geometry":{"coordinates":[16.852528,52.402326],"type":"Point"},"properties":{"osm_id":"6709866643","tag":{"amenity":"waste_basket","waste":"trash"}},"type":"Feature"},
	{"geometry":{"coordinates":[16.866785,52.404556],"type":"Point"},"properties":{"osm_id":"6709932453","tag":{"amenity":"waste_basket","waste":"trash"}},"type":"Feature"},
	{"geometry":{"coordinates":[16.862875,52.405109],"type":"Point"},"properties":{"osm_id":"6709932454","tag":{"amenity":"waste_basket","waste":"trash"}},"type":"Feature"},
	{"geometry":{"coordinates":[16.861691,52.405406],"type":"Point"},"properties":{"osm_id":"6709932455","tag":{"amenity":"waste_basket","waste":"trash"}},"type":"Feature"},
	{"geometry":{"coordinates":[16.864313,52.404752],"type":"Point"},"properties":{"osm_id":"6709932456","tag":{"amenity":"waste_basket","waste":"trash"}},"type":"Feature"},
	{"geometry":{"coordinates":[16.860384,52.411726],"type":"Point"},"properties":{"osm_id":"6710226536","tag":{"amenity":"waste_basket","waste":"trash"}},"type":"Feature"},
	{"geometry":{"coordinates":[16.858249,52.411786],"type":"Point"},"properties":{"osm_id":"6710226537","tag":{"amenity":"waste_basket","waste":"trash"}},"type":"Feature"},
	{"geometry":{"coordinates":[16.865189,52.411838],"type":"Point"},"properties":{"osm_id":"6710226538","tag":{"amenity":"waste_basket","waste":"trash"}},"type":"Feature"},
	{"geometry":{"coordinates":[16.864736,52.411721],"type":"Point"},"properties":{"osm_id":"6710226539","tag":{"amenity":"waste_basket","waste":"trash"}},"type":"Feature"},
	{"geometry":{"coordinates":[16.869172,52.41206],"type":"Point"},"properties":{"osm_id":"6710226540","tag":{"amenity":"waste_basket","waste":"trash"}},"type":"Feature"},
	{"geometry":{"coordinates":[16.867772,52.408474],"type":"Point"},"properties":{"osm_id":"6710226541","tag":{"amenity":"waste_basket","waste":"trash"}},"type":"Feature"},
	{"geometry":{"coordinates":[16.833948,52.396333],"type":"Point"},"properties":{"osm_id":"6712158212","tag":{"amenity":"waste_basket","waste":"trash"}},"type":"Feature"},
	{"geometry":{"coordinates":[16.829725,52.394911],"type":"Point"},"properties":{"osm_id":"6712158214","tag":{"amenity":"waste_basket","waste":"trash"}},"type":"Feature"},
	{"geometry":{"coordinates":[16.831575,52.395213],"type":"Point"},"properties":{"osm_id":"6712158216","tag":{"amenity":"waste_basket","waste":"trash"}},"type":"Feature"},
	{"geometry":{"coordinates":[16.828407,52.397274],"type":"Point"},"properties":{"osm_id":"6712158218","tag":{"amenity":"waste_basket","waste":"trash"}},"type":"Feature"},
	{"geometry":{"coordinates":[16.829165,52.396849],"type":"Point"},"properties":{"osm_id":"6712158220","tag":{"amenity":"waste_basket","waste":"trash"}},"type":"Feature"},
	{"geometry":{"coordinates":[16.827897,52.394105],"type":"Point"},"properties":{"osm_id":"6712170686","tag":{"amenity":"waste_basket","waste":"trash"}},"type":"Feature"},
	{"geometry":{"coordinates":[16.831549,52.406106],"type":"Point"},"properties":{"osm_id":"6715897631","tag":{"amenity":"waste_basket","waste":"trash"}},"type":"Feature"},
	{"geometry":{"coordinates":[16.863888,52.409523],"type":"Point"},"properties":{"osm_id":"6720857065","tag":{"amenity":"waste_basket","waste":"trash"}},"type":"Feature"},
	{"geometry":{"coordinates":[16.859753,52.409879],"type":"Point"},"properties":{"osm_id":"6720857066","tag":{"amenity":"waste_basket","waste":"trash"}},"type":"Feature"},
	{"geometry":{"coordinates":[16.833362,52.412816],"type":"Point"},"properties":{"osm_id":"6720857067","tag":{"amenity":"waste_basket","waste":"trash"}},"type":"Feature"},
	{"geometry":{"coordinates":[16.827491,52.410948],"type":"Point"},"properties":{"osm_id":"6720857071","tag":{"amenity":"waste_basket","waste":"trash"}},"type":"Feature"},
	{"geometry":{"coordinates":[16.830015,52.411736],"type":"Point"},"properties":{"osm_id":"6720857072","tag":{"amenity":"waste_basket","waste":"trash"}},"type":"Feature"},
	{"geometry":{"coordinates":[16.829672,52.411639],"type":"Point"},"properties":{"osm_id":"6720857073","tag":{"amenity":"waste_basket","waste":"trash"}},"type":"Feature"},
	{"geometry":{"coordinates":[16.822365,52.409224],"type":"Point"},"properties":{"osm_id":"6720857075","tag":{"amenity":"waste_basket","waste":"trash"}},"type":"Feature"},
	{"geometry":{"coordinates":[16.848124,52.406975],"type":"Point"},"properties":{"osm_id":"6723098902","tag":{"amenity":"waste_basket","waste":"trash"}},"type":"Feature"},
	{"geometry":{"coordinates":[16.844602,52.407544],"type":"Point"},"properties":{"osm_id":"6723098904","tag":{"amenity":"waste_basket","waste":"trash"}},"type":"Feature"},
	{"geometry":{"coordinates":[16.844856,52.406981],"type":"Point"},"properties":{"osm_id":"6723098906","tag":{"amenity":"waste_basket","waste":"trash"}},"type":"Feature"},
	{"geometry":{"coordinates":[16.845113,52.40691],"type":"Point"},"properties":{"osm_id":"6723098908","tag":{"amenity":"waste_basket","waste":"trash"}},"type":"Feature"},
	{"geometry":{"coordinates":[16.845262,52.40681],"type":"Point"},"properties":{"osm_id":"6723098910","tag":{"amenity":"waste_basket","waste":"trash"}},"type":"Feature"},
	{"geometry":{"coordinates":[16.845375,52.406709],"type":"Point"},"properties":{"osm_id":"6723098912","tag":{"amenity":"waste_basket","waste":"trash"}},"type":"Feature"},
	{"geometry":{"coordinates":[16.845417,52.406307],"type":"Point"},"properties":{"osm_id":"6723098914","tag":{"amenity":"waste_basket","waste":"trash"}},"type":"Feature"},
	{"geometry":{"coordinates":[16.850929,52.406551],"type":"Point"},"properties":{"osm_id":"6723098916","tag":{"amenity":"waste_basket","waste":"trash"}},"type":"Feature"},
	{"geometry":{"coordinates":[16.850317,52.405777],"type":"Point"},"properties":{"osm_id":"6723098922","tag":{"amenity":"waste_basket","waste":"trash"}},"type":"Feature"},
	{"geometry":{"coordinates":[16.846316,52.405973],"type":"Point"},"properties":{"osm_id":"6723098925","tag":{"amenity":"waste_basket","waste":"trash"}},"type":"Feature"},
	{"geometry":{"coordinates":[16.852913,52.404534],"type":"Point"},"properties":{"osm_id":"6723098927","tag":{"amenity":"waste_basket","waste":"trash"}},"type":"Feature"},
	{"geometry":{"coordinates":[16.854998,52.403799],"type":"Point"},"properties":{"osm_id":"6726069651","tag":{"amenity":"waste_basket","waste":"trash"}},"type":"Feature"},
	{"geometry":{"coordinates":[16.855163,52.403789],"type":"Point"},"properties":{"osm_id":"6726069652","tag":{"amenity":"waste_basket","waste":"trash"}},"type":"Feature"},
	{"geometry":{"coordinates":[16.854229,52.404923],"type":"Point"},"properties":{"osm_id":"6726069654","tag":{"amenity":"waste_basket","waste":"trash"}},"type":"Feature"},
	{"geometry":{"coordinates":[16.853907,52.404501],"type":"Point"},"properties":{"osm_id":"6726069656","tag":{"amenity":"waste_basket","waste":"trash"}},"type":"Feature"},
	{"geometry":{"coordinates":[16.852622,52.404385],"type":"Point"},"properties":{"osm_id":"6731550458","tag":{"amenity":"waste_basket","waste":"trash"}},"type":"Feature"},
	{"geometry":{"coordinates":[16.852156,52.403995],"type":"Point"},"properties":{"osm_id":"6731550459","tag":{"amenity":"waste_basket","waste":"trash"}},"type":"Feature"},
	{"geometry":{"coordinates":[16.846137,52.401566],"type":"Point"},"properties":{"osm_id":"6731550467","tag":{"amenity":"waste_basket","waste":"trash"}},"type":"Feature"},
	{"geometry":{"coordinates":[16.84239,52.398708],"type":"Point"},"properties":{"osm_id":"6731550469","tag":{"amenity":"waste_basket","waste":"trash"}},"type":"Feature"},
	{"geometry":{"coordinates":[16.844709,52.400459],"type":"Point"},"properties":{"osm_id":"6731550471","tag":{"amenity":"waste_basket","waste":"trash"}},"type":"Feature"},
	{"geometry":{"coordinates":[16.831361,52.393137],"type":"Point"},"properties":{"osm_id":"6734871375","tag":{"amenity":"waste_basket","waste":"trash"}},"type":"Feature"},
	{"geometry":{"coordinates":[16.837,52.39043],"type":"Point"},"properties":{"osm_id":"6734912213","tag":{"amenity":"waste_basket","waste":"dog_excrement"}},"type":"Feature"},
	{"geometry":{"coordinates":[16.836729,52.390438],"type":"Point"},"properties":{"osm_id":"6734912214","tag":{"amenity":"waste_basket","waste":"trash"}},"type":"Feature"},
	{"geometry":{"coordinates":[16.836347,52.390457],"type":"Point"},"properties":{"osm_id":"6734912215","tag":{"amenity":"waste_basket","waste":"trash"}},"type":"Feature"},
	{"geometry":{"coordinates":[16.835915,52.390477],"type":"Point"},"properties":{"osm_id":"6734912216","tag":{"amenity":"waste_basket","waste":"trash"}},"type":"Feature"},
	{"geometry":{"coordinates":[16.836737,52.390262],"type":"Point"},"properties":{"osm_id":"6734912217","tag":{"amenity":"waste_basket","waste":"trash"}},"type":"Feature"},
	{"geometry":{"coordinates":[16.869775,52.40604],"type":"Point"},"properties":{"osm_id":"6754311124","tag":{"amenity":"waste_basket"}},"type":"Feature"},
	{"geometry":{"coordinates":[16.86972,52.405386],"type":"Point"},"properties":{"osm_id":"6754311126","tag":{"amenity":"waste_basket"}},"type":"Feature"},
	{"geometry":{"coordinates":[16.869529,52.405708],"type":"Point"},"properties":{"osm_id":"6754311128","tag":{"amenity":"waste_basket"}},"type":"Feature"},
	{"geometry":{"coordinates":[16.869247,52.405707],"type":"Point"},"properties":{"osm_id":"6754311130","tag":{"amenity":"waste_basket"}},"type":"Feature"},
	{"geometry":{"coordinates":[16.869795,52.405712],"type":"Point"},"properties":{"osm_id":"6754312068","tag":{"amenity":"waste_basket"}},"type":"Feature"},
	{"geometry":{"coordinates":[16.869306,52.405967],"type":"Point"},"properties":{"osm_id":"6754312071","tag":{"amenity":"waste_basket"}},"type":"Feature"},
	{"geometry":{"coordinates":[16.869433,52.405701],"type":"Point"},"properties":{"osm_id":"6754312073","tag":{"amenity":"waste_basket"}},"type":"Feature"},
	{"geometry":{"coordinates":[16.869515,52.406037],"type":"Point"},"properties":{"osm_id":"6754312080","tag":{"amenity":"waste_basket"}},"type":"Feature"},
	{"geometry":{"coordinates":[16.812958,52.3893],"type":"Point"},"properties":{"osm_id":"6755610151","tag":{"amenity":"waste_basket","waste":"trash"}},"type":"Feature"},
	{"geometry":{"coordinates":[16.848481,52.410396],"type":"Point"},"properties":{"osm_id":"6768937108","tag":{"amenity":"waste_basket","waste":"trash"}},"type":"Feature"},
	{"geometry":{"coordinates":[16.847367,52.409448],"type":"Point"},"properties":{"osm_id":"6768937109","tag":{"amenity":"waste_basket","waste":"trash"}},"type":"Feature"},
	{"geometry":{"coordinates":[16.844423,52.412365],"type":"Point"},"properties":{"osm_id":"6768937111","tag":{"amenity":"waste_basket","waste":"trash"}},"type":"Feature"},
	{"geometry":{"coordinates":[16.838308,52.412558],"type":"Point"},"properties":{"osm_id":"6768937112","tag":{"amenity":"waste_basket","waste":"trash"}},"type":"Feature"},
	{"geometry":{"coordinates":[16.835022,52.412703],"type":"Point"},"properties":{"osm_id":"6768937113","tag":{"amenity":"waste_basket","waste":"trash"}},"type":"Feature"},
	{"geometry":{"coordinates":[16.834367,52.412642],"type":"Point"},"properties":{"osm_id":"6768937114","tag":{"amenity":"waste_basket","waste":"trash"}},"type":"Feature"},
	{"geometry":{"coordinates":[16.833755,52.410998],"type":"Point"},"properties":{"osm_id":"6768937115","tag":{"amenity":"waste_basket","waste":"trash"}},"type":"Feature"},
	{"geometry":{"coordinates":[16.845178,52.408392],"type":"Point"},"properties":{"osm_id":"6769028543","tag":{"amenity":"waste_basket","waste":"trash"}},"type":"Feature"},
	{"geometry":{"coordinates":[16.853135,52.409305],"type":"Point"},"properties":{"osm_id":"6771983350","tag":{"amenity":"waste_basket","waste":"trash"}},"type":"Feature"},
	{"geometry":{"coordinates":[16.850484,52.411723],"type":"Point"},"properties":{"osm_id":"6772432045","tag":{"amenity":"waste_basket","waste":"trash"}},"type":"Feature"},
	{"geometry":{"coordinates":[16.840606,52.408576],"type":"Point"},"properties":{"osm_id":"6780846571","tag":{"amenity":"waste_basket","waste":"trash"}},"type":"Feature"},
	{"geometry":{"coordinates":[16.838326,52.409132],"type":"Point"},"properties":{"osm_id":"6780846572","tag":{"amenity":"waste_basket","waste":"trash"}},"type":"Feature"},
	{"geometry":{"coordinates":[16.848024,52.400022],"type":"Point"},"properties":{"osm_id":"6793737083","tag":{"amenity":"waste_basket","waste":"trash"}},"type":"Feature"},
	{"geometry":{"coordinates":[16.845702,52.398603],"type":"Point"},"properties":{"osm_id":"6825841462","tag":{"amenity":"waste_basket","waste":"trash"}},"type":"Feature"},
	{"geometry":{"coordinates":[16.835241,52.386741],"type":"Point"},"properties":{"osm_id":"6893243200","tag":{"amenity":"waste_basket"}},"type":"Feature"},
	{"geometry":{"coordinates":[16.835281,52.386717],"type":"Point"},"properties":{"osm_id":"6893243201","tag":{"amenity":"waste_basket"}},"type":"Feature"},
	{"geometry":{"coordinates":[16.835269,52.38671],"type":"Point"},"properties":{"osm_id":"6893243202","tag":{"amenity":"waste_basket"}},"type":"Feature"},
	{"geometry":{"coordinates":[16.835245,52.386731],"type":"Point"},"properties":{"osm_id":"6893243203","tag":{"amenity":"waste_disposal"}},"type":"Feature"},
	{"geometry":{"coordinates":[16.835264,52.386721],"type":"Point"},"properties":{"osm_id":"6893243204","tag":{"amenity":"waste_disposal"}},"type":"Feature"},
	{"geometry":{"coordinates":[16.836316,52.386204],"type":"Point"},"properties":{"osm_id":"6893243233","tag":{"amenity":"waste_basket"}},"type":"Feature"},
	{"geometry":{"coordinates":[16.836301,52.386201],"type":"Point"},"properties":{"osm_id":"6893243234","tag":{"amenity":"waste_disposal"}},"type":"Feature"},
	{"geometry":{"coordinates":[16.836289,52.38619],"type":"Point"},"properties":{"osm_id":"6893243235","tag":{"amenity":"waste_disposal"}},"type":"Feature"},
	{"geometry":{"coordinates":[16.824225,52.390933],"type":"Point"},"properties":{"osm_id":"6893243305","tag":{"amenity":"waste_basket"}},"type":"Feature"},
	{"geometry":{"coordinates":[16.824177,52.39095],"type":"Point"},"properties":{"osm_id":"6893243306","tag":{"amenity":"waste_basket"}},"type":"Feature"},
	{"geometry":{"coordinates":[16.82421,52.390933],"type":"Point"},"properties":{"osm_id":"6893243307","tag":{"amenity":"waste_disposal"}},"type":"Feature"},
	{"geometry":{"coordinates":[16.824186,52.390941],"type":"Point"},"properties":{"osm_id":"6893243308","tag":{"amenity":"waste_disposal"}},"type":"Feature"},
	{"geometry":{"coordinates":[16.824814,52.390804],"type":"Point"},"properties":{"osm_id":"6893243309","tag":{"amenity":"waste_basket"}},"type":"Feature"},
	{"geometry":{"coordinates":[16.824805,52.390812],"type":"Point"},"properties":{"osm_id":"6893243310","tag":{"amenity":"waste_disposal"}},"type":"Feature"},
	{"geometry":{"coordinates":[16.825457,52.390618],"type":"Point"},"properties":{"osm_id":"6893243311","tag":{"amenity":"waste_basket"}},"type":"Feature"},
	{"geometry":{"coordinates":[16.825448,52.390626],"type":"Point"},"properties":{"osm_id":"6893243312","tag":{"amenity":"waste_disposal"}},"type":"Feature"},
	{"geometry":{"coordinates":[16.835572,52.384513],"type":"Point"},"properties":{"osm_id":"6893243315","tag":{"amenity":"waste_basket"}},"type":"Feature"},
	{"geometry":{"coordinates":[16.835556,52.38451],"type":"Point"},"properties":{"osm_id":"6893243316","tag":{"amenity":"waste_disposal"}},"type":"Feature"},
	{"geometry":{"coordinates":[16.826292,52.390592],"type":"Point"},"properties":{"osm_id":"6893243318","tag":{"amenity":"waste_basket"}},"type":"Feature"},
	{"geometry":{"coordinates":[16.826294,52.39058],"type":"Point"},"properties":{"osm_id":"6893243319","tag":{"amenity":"waste_disposal"}},"type":"Feature"},
	{"geometry":{"coordinates":[16.834902,52.384065],"type":"Point"},"properties":{"osm_id":"6893243326","tag":{"amenity":"waste_disposal"}},"type":"Feature"},
	{"geometry":{"coordinates":[16.838118,52.385401],"type":"Point"},"properties":{"osm_id":"6893243330","tag":{"amenity":"waste_basket"}},"type":"Feature"},
	{"geometry":{"coordinates":[16.830905,52.387223],"type":"Point"},"properties":{"osm_id":"6893243359","tag":{"amenity":"waste_basket"}},"type":"Feature"},
	{"geometry":{"coordinates":[16.830912,52.387213],"type":"Point"},"properties":{"osm_id":"6893243360","tag":{"amenity":"waste_disposal"}},"type":"Feature"},
	{"geometry":{"coordinates":[16.83059,52.387502],"type":"Point"},"properties":{"osm_id":"6893243365","tag":{"amenity":"waste_basket"}},"type":"Feature"},
	{"geometry":{"coordinates":[16.830586,52.387512],"type":"Point"},"properties":{"osm_id":"6893243366","tag":{"amenity":"waste_disposal"}},"type":"Feature"},
	{"geometry":{"coordinates":[16.829705,52.388134],"type":"Point"},"properties":{"osm_id":"6893243376","tag":{"amenity":"waste_basket"}},"type":"Feature"},
	{"geometry":{"coordinates":[16.829691,52.388129],"type":"Point"},"properties":{"osm_id":"6893243377","tag":{"amenity":"waste_disposal"}},"type":"Feature"},
	{"geometry":{"coordinates":[16.827974,52.388545],"type":"Point"},"properties":{"osm_id":"6893243386","tag":{"amenity":"waste_basket"}},"type":"Feature"},
	{"geometry":{"coordinates":[16.824573,52.389584],"type":"Point"},"properties":{"osm_id":"6893243388","tag":{"amenity":"waste_basket"}},"type":"Feature"},
	{"geometry":{"coordinates":[16.824557,52.389583],"type":"Point"},"properties":{"osm_id":"6893243389","tag":{"amenity":"waste_disposal"}},"type":"Feature"},
	{"geometry":{"coordinates":[16.827982,52.388536],"type":"Point"},"properties":{"osm_id":"6893243399","tag":{"amenity":"waste_disposal"}},"type":"Feature"},
	{"geometry":{"coordinates":[16.830484,52.387437],"type":"Point"},"properties":{"osm_id":"6893243400","tag":{"amenity":"waste_basket"}},"type":"Feature"},
	{"geometry":{"coordinates":[16.830136,52.387602],"type":"Point"},"properties":{"osm_id":"6893243402","tag":{"amenity":"waste_disposal"}},"type":"Feature"},
	{"geometry":{"coordinates":[16.829567,52.387932],"type":"Point"},"properties":{"osm_id":"6893243403","tag":{"amenity":"waste_disposal"}},"type":"Feature"},
	{"geometry":{"coordinates":[16.828923,52.389054],"type":"Point"},"properties":{"osm_id":"6893243458","tag":{"amenity":"waste_basket"}},"type":"Feature"},
	{"geometry":{"coordinates":[16.828934,52.389045],"type":"Point"},"properties":{"osm_id":"6893243459","tag":{"amenity":"waste_disposal"}},"type":"Feature"},
	{"geometry":{"coordinates":[16.828052,52.389031],"type":"Point"},"properties":{"osm_id":"6893243494","tag":{"amenity":"waste_basket"}},"type":"Feature"},
	{"geometry":{"coordinates":[16.827963,52.388917],"type":"Point"},"properties":{"osm_id":"6893243495","tag":{"amenity":"waste_basket"}},"type":"Feature"},
	{"geometry":{"coordinates":[16.827826,52.388959],"type":"Point"},"properties":{"osm_id":"6893243496","tag":{"amenity":"waste_basket"}},"type":"Feature"},
	{"geometry":{"coordinates":[16.827919,52.389071],"type":"Point"},"properties":{"osm_id":"6893243497","tag":{"amenity":"waste_basket"}},"type":"Feature"},
	{"geometry":{"coordinates":[16.827428,52.388944],"type":"Point"},"properties":{"osm_id":"6893243512","tag":{"amenity":"waste_basket"}},"type":"Feature"},
	{"geometry":{"coordinates":[16.827307,52.38898],"type":"Point"},"properties":{"osm_id":"6893243513","tag":{"amenity":"waste_basket"}},"type":"Feature"},
	{"geometry":{"coordinates":[16.827903,52.389214],"type":"Point"},"properties":{"osm_id":"6893243522","tag":{"amenity":"waste_basket"}},"type":"Feature"},
	{"geometry":{"coordinates":[16.827662,52.389154],"type":"Point"},"properties":{"osm_id":"6893243523","tag":{"amenity":"waste_basket"}},"type":"Feature"},
	{"geometry":{"coordinates":[16.827739,52.389265],"type":"Point"},"properties":{"osm_id":"6893243524","tag":{"amenity":"waste_basket"}},"type":"Feature"},
	{"geometry":{"coordinates":[16.828292,52.38918],"type":"Point"},"properties":{"osm_id":"6893243525","tag":{"amenity":"waste_basket"}},"type":"Feature"},
	{"geometry":{"coordinates":[16.830466,52.387434],"type":"Point"},"properties":{"osm_id":"6893243542","tag":{"amenity":"waste_disposal"}},"type":"Feature"},
	{"geometry":{"coordinates":[16.838216,52.38543],"type":"Point"},"properties":{"osm_id":"6893243613","tag":{"amenity":"waste_disposal"}},"type":"Feature"},
	{"geometry":{"coordinates":[16.827727,52.387252],"type":"Point"},"properties":{"osm_id":"6893731982","tag":{"amenity":"waste_basket"}},"type":"Feature"},
	{"geometry":{"coordinates":[16.827742,52.387249],"type":"Point"},"properties":{"osm_id":"6893731983","tag":{"amenity":"waste_disposal"}},"type":"Feature"},
	{"geometry":{"coordinates":[16.829728,52.386257],"type":"Point"},"properties":{"osm_id":"6893793726","tag":{"amenity":"waste_basket"}},"type":"Feature"},
	{"geometry":{"coordinates":[16.829723,52.386266],"type":"Point"},"properties":{"osm_id":"6893793727","tag":{"amenity":"waste_disposal"}},"type":"Feature"},
	{"geometry":{"coordinates":[16.831869,52.385088],"type":"Point"},"properties":{"osm_id":"6893793768","tag":{"amenity":"waste_basket"}},"type":"Feature"},
	{"geometry":{"coordinates":[16.831893,52.385086],"type":"Point"},"properties":{"osm_id":"6893793769","tag":{"amenity":"waste_disposal"}},"type":"Feature"},
	{"geometry":{"coordinates":[16.831357,52.385389],"type":"Point"},"properties":{"osm_id":"6893793770","tag":{"amenity":"waste_disposal"}},"type":"Feature"},
	{"geometry":{"coordinates":[16.829234,52.386555],"type":"Point"},"properties":{"osm_id":"6893793771","tag":{"amenity":"waste_basket"}},"type":"Feature"},
	{"geometry":{"coordinates":[16.829236,52.386566],"type":"Point"},"properties":{"osm_id":"6893793772","tag":{"amenity":"waste_disposal"}},"type":"Feature"},
	{"geometry":{"coordinates":[16.828551,52.387011],"type":"Point"},"properties":{"osm_id":"6893793773","tag":{"amenity":"waste_basket"}},"type":"Feature"},
	{"geometry":{"coordinates":[16.828543,52.38702],"type":"Point"},"properties":{"osm_id":"6893793774","tag":{"amenity":"waste_disposal"}},"type":"Feature"},
	{"geometry":{"coordinates":[16.82777,52.38735],"type":"Point"},"properties":{"osm_id":"6893793775","tag":{"amenity":"waste_basket"}},"type":"Feature"},
	{"geometry":{"coordinates":[16.82776,52.387359],"type":"Point"},"properties":{"osm_id":"6893793776","tag":{"amenity":"waste_disposal"}},"type":"Feature"},
	{"geometry":{"coordinates":[16.827318,52.38754],"type":"Point"},"properties":{"osm_id":"6893793777","tag":{"amenity":"waste_basket"}},"type":"Feature"},
	{"geometry":{"coordinates":[16.827311,52.387521],"type":"Point"},"properties":{"osm_id":"6893793778","tag":{"amenity":"waste_basket"}},"type":"Feature"},
	{"geometry":{"coordinates":[16.827323,52.387529],"type":"Point"},"properties":{"osm_id":"6893793779","tag":{"amenity":"waste_disposal"}},"type":"Feature"},
	{"geometry":{"coordinates":[16.827334,52.387542],"type":"Point"},"properties":{"osm_id":"6893793780","tag":{"amenity":"waste_disposal"}},"type":"Feature"},
	{"geometry":{"coordinates":[16.821446,52.389162],"type":"Point"},"properties":{"osm_id":"6893793781","tag":{"amenity":"waste_basket"}},"type":"Feature"},
	{"geometry":{"coordinates":[16.821434,52.389157],"type":"Point"},"properties":{"osm_id":"6893793782","tag":{"amenity":"waste_disposal"}},"type":"Feature"},
	{"geometry":{"coordinates":[16.820257,52.389563],"type":"Point"},"properties":{"osm_id":"6893793784","tag":{"amenity":"waste_basket"}},"type":"Feature"},
	{"geometry":{"coordinates":[16.820243,52.389558],"type":"Point"},"properties":{"osm_id":"6893793785","tag":{"amenity":"waste_disposal"}},"type":"Feature"},
	{"geometry":{"coordinates":[16.829939,52.385643],"type":"Point"},"properties":{"osm_id":"6893793837","tag":{"amenity":"waste_basket"}},"type":"Feature"},
	{"geometry":{"coordinates":[16.829946,52.385635],"type":"Point"},"properties":{"osm_id":"6893793838","tag":{"amenity":"waste_disposal"}},"type":"Feature"},
	{"geometry":{"coordinates":[16.829316,52.385859],"type":"Point"},"properties":{"osm_id":"6893793839","tag":{"amenity":"waste_basket"}},"type":"Feature"},
	{"geometry":{"coordinates":[16.829326,52.38585],"type":"Point"},"properties":{"osm_id":"6893793840","tag":{"amenity":"waste_disposal"}},"type":"Feature"},
	{"geometry":{"coordinates":[16.828577,52.386093],"type":"Point"},"properties":{"osm_id":"6893793841","tag":{"amenity":"waste_basket"}},"type":"Feature"},
	{"geometry":{"coordinates":[16.82856,52.386093],"type":"Point"},"properties":{"osm_id":"6893793842","tag":{"amenity":"waste_disposal"}},"type":"Feature"},
	{"geometry":{"coordinates":[16.82771,52.386372],"type":"Point"},"properties":{"osm_id":"6893793900","tag":{"amenity":"waste_basket"}},"type":"Feature"},
	{"geometry":{"coordinates":[16.827718,52.386364],"type":"Point"},"properties":{"osm_id":"6893793901","tag":{"amenity":"waste_disposal"}},"type":"Feature"},
	{"geometry":{"coordinates":[16.82723,52.386603],"type":"Point"},"properties":{"osm_id":"6893793902","tag":{"amenity":"waste_basket"}},"type":"Feature"},
	{"geometry":{"coordinates":[16.827228,52.386594],"type":"Point"},"properties":{"osm_id":"6893793903","tag":{"amenity":"waste_disposal"}},"type":"Feature"},
	{"geometry":{"coordinates":[16.82515,52.387293],"type":"Point"},"properties":{"osm_id":"6893793904","tag":{"amenity":"waste_basket"}},"type":"Feature"},
	{"geometry":{"coordinates":[16.825149,52.387283],"type":"Point"},"properties":{"osm_id":"6893793905","tag":{"amenity":"waste_disposal"}},"type":"Feature"},
	{"geometry":{"coordinates":[16.824097,52.387419],"type":"Point"},"properties":{"osm_id":"6893793906","tag":{"amenity":"waste_basket"}},"type":"Feature"},
	{"geometry":{"coordinates":[16.824099,52.387428],"type":"Point"},"properties":{"osm_id":"6893793907","tag":{"amenity":"waste_disposal"}},"type":"Feature"},
	{"geometry":{"coordinates":[16.823333,52.387817],"type":"Point"},"properties":{"osm_id":"6893793908","tag":{"amenity":"waste_basket"}},"type":"Feature"},
	{"geometry":{"coordinates":[16.823348,52.38782],"type":"Point"},"properties":{"osm_id":"6893793909","tag":{"amenity":"waste_disposal"}},"type":"Feature"},
	{"geometry":{"coordinates":[16.823044,52.387756],"type":"Point"},"properties":{"osm_id":"6893793910","tag":{"amenity":"waste_basket"}},"type":"Feature"},
	{"geometry":{"coordinates":[16.823027,52.387755],"type":"Point"},"properties":{"osm_id":"6893793911","tag":{"amenity":"waste_disposal"}},"type":"Feature"},
	{"geometry":{"coordinates":[16.822757,52.388013],"type":"Point"},"properties":{"osm_id":"6893793913","tag":{"amenity":"waste_basket"}},"type":"Feature"},
	{"geometry":{"coordinates":[16.822758,52.388001],"type":"Point"},"properties":{"osm_id":"6893793914","tag":{"amenity":"waste_disposal"}},"type":"Feature"},
	{"geometry":{"coordinates":[16.820953,52.38856],"type":"Point"},"properties":{"osm_id":"6893793916","tag":{"amenity":"waste_disposal"}},"type":"Feature"},
	{"geometry":{"coordinates":[16.819645,52.388826],"type":"Point"},"properties":{"osm_id":"6893793917","tag":{"amenity":"waste_basket"}},"type":"Feature"},
	{"geometry":{"coordinates":[16.819644,52.388815],"type":"Point"},"properties":{"osm_id":"6893793918","tag":{"amenity":"waste_disposal"}},"type":"Feature"},
	{"geometry":{"coordinates":[16.826693,52.386673],"type":"Point"},"properties":{"osm_id":"6893793935","tag":{"amenity":"waste_disposal"}},"type":"Feature"},
	{"geometry":{"coordinates":[16.826511,52.386464],"type":"Point"},"properties":{"osm_id":"6893793938","tag":{"amenity":"waste_basket"}},"type":"Feature"},
	{"geometry":{"coordinates":[16.826504,52.386473],"type":"Point"},"properties":{"osm_id":"6893793939","tag":{"amenity":"waste_disposal"}},"type":"Feature"},
	{"geometry":{"coordinates":[16.825315,52.386448],"type":"Point"},"properties":{"osm_id":"6893793955","tag":{"amenity":"waste_basket"}},"type":"Feature"},
	{"geometry":{"coordinates":[16.825364,52.386449],"type":"Point"},"properties":{"osm_id":"6893793956","tag":{"amenity":"waste_basket"}},"type":"Feature"},
	{"geometry":{"coordinates":[16.825349,52.386454],"type":"Point"},"properties":{"osm_id":"6893793957","tag":{"amenity":"waste_disposal"}},"type":"Feature"},
	{"geometry":{"coordinates":[16.82533,52.386454],"type":"Point"},"properties":{"osm_id":"6893793958","tag":{"amenity":"waste_disposal"}},"type":"Feature"},
	{"geometry":{"coordinates":[16.824895,52.386432],"type":"Point"},"properties":{"osm_id":"6893793960","tag":{"amenity":"waste_basket"}},"type":"Feature"},
	{"geometry":{"coordinates":[16.824876,52.386435],"type":"Point"},"properties":{"osm_id":"6893793961","tag":{"amenity":"waste_disposal"}},"type":"Feature"},
	{"geometry":{"coordinates":[16.819356,52.387219],"type":"Point"},"properties":{"osm_id":"6893793971","tag":{"amenity":"waste_basket"}},"type":"Feature"},
	{"geometry":{"coordinates":[16.819354,52.387209],"type":"Point"},"properties":{"osm_id":"6893793972","tag":{"amenity":"waste_disposal"}},"type":"Feature"},
	{"geometry":{"coordinates":[16.81906,52.387181],"type":"Point"},"properties":{"osm_id":"6893793973","tag":{"amenity":"waste_basket"}},"type":"Feature"},
	{"geometry":{"coordinates":[16.819071,52.387172],"type":"Point"},"properties":{"osm_id":"6893793974","tag":{"amenity":"waste_disposal"}},"type":"Feature"},
	{"geometry":{"coordinates":[16.821696,52.387364],"type":"Point"},"properties":{"osm_id":"6893793976","tag":{"amenity":"waste_basket"}},"type":"Feature"},
	{"geometry":{"coordinates":[16.821717,52.387395],"type":"Point"},"properties":{"osm_id":"6893793977","tag":{"amenity":"waste_basket"}},"type":"Feature"},
	{"geometry":{"coordinates":[16.821707,52.387369],"type":"Point"},"properties":{"osm_id":"6893793978","tag":{"amenity":"waste_disposal"}},"type":"Feature"},
	{"geometry":{"coordinates":[16.821717,52.387384],"type":"Point"},"properties":{"osm_id":"6893793979","tag":{"amenity":"waste_disposal"}},"type":"Feature"},
	{"geometry":{"coordinates":[16.822515,52.38704],"type":"Point"},"properties":{"osm_id":"6893793980","tag":{"amenity":"waste_basket"}},"type":"Feature"},
	{"geometry":{"coordinates":[16.822525,52.387033],"type":"Point"},"properties":{"osm_id":"6893793981","tag":{"amenity":"waste_disposal"}},"type":"Feature"},
	{"geometry":{"coordinates":[16.824433,52.386514],"type":"Point"},"properties":{"osm_id":"6893793982","tag":{"amenity":"waste_disposal"}},"type":"Feature"},
	{"geometry":{"coordinates":[16.820689,52.387598],"type":"Point"},"properties":{"osm_id":"6893793984","tag":{"amenity":"waste_basket"}},"type":"Feature"},
	{"geometry":{"coordinates":[16.820664,52.387585],"type":"Point"},"properties":{"osm_id":"6893793985","tag":{"amenity":"waste_disposal"}},"type":"Feature"},
	{"geometry":{"coordinates":[16.820672,52.387598],"type":"Point"},"properties":{"osm_id":"6893793986","tag":{"amenity":"waste_disposal"}},"type":"Feature"},
	{"geometry":{"coordinates":[16.820718,52.387665],"type":"Point"},"properties":{"osm_id":"6893793988","tag":{"amenity":"waste_basket"}},"type":"Feature"},
	{"geometry":{"coordinates":[16.820732,52.38767],"type":"Point"},"properties":{"osm_id":"6893793989","tag":{"amenity":"waste_disposal"}},"type":"Feature"},
	{"geometry":{"coordinates":[16.818476,52.389274],"type":"Point"},"properties":{"osm_id":"6893793996","tag":{"amenity":"waste_basket"}},"type":"Feature"},
	{"geometry":{"coordinates":[16.818506,52.389301],"type":"Point"},"properties":{"osm_id":"6893793997","tag":{"amenity":"waste_basket"}},"type":"Feature"},
	{"geometry":{"coordinates":[16.818492,52.389295],"type":"Point"},"properties":{"osm_id":"6893793998","tag":{"amenity":"waste_disposal"}},"type":"Feature"},
	{"geometry":{"coordinates":[16.818477,52.389283],"type":"Point"},"properties":{"osm_id":"6893793999","tag":{"amenity":"waste_disposal"}},"type":"Feature"},
	{"geometry":{"coordinates":[16.819373,52.389817],"type":"Point"},"properties":{"osm_id":"6893794000","tag":{"amenity":"waste_basket"}},"type":"Feature"},
	{"geometry":{"coordinates":[16.819373,52.389826],"type":"Point"},"properties":{"osm_id":"6893794001","tag":{"amenity":"waste_disposal"}},"type":"Feature"},
	{"geometry":{"coordinates":[16.818328,52.388313],"type":"Point"},"properties":{"osm_id":"6893794014","tag":{"amenity":"waste_basket"}},"type":"Feature"},
	{"geometry":{"coordinates":[16.818322,52.388304],"type":"Point"},"properties":{"osm_id":"6893794015","tag":{"amenity":"waste_disposal"}},"type":"Feature"},
	{"geometry":{"coordinates":[16.819069,52.388143],"type":"Point"},"properties":{"osm_id":"6893794023","tag":{"amenity":"waste_basket"}},"type":"Feature"},
	{"geometry":{"coordinates":[16.819057,52.388149],"type":"Point"},"properties":{"osm_id":"6893794024","tag":{"amenity":"waste_disposal"}},"type":"Feature"},
	{"geometry":{"coordinates":[16.818578,52.38737],"type":"Point"},"properties":{"osm_id":"6893794059","tag":{"amenity":"waste_basket"}},"type":"Feature"},
	{"geometry":{"coordinates":[16.818566,52.387373],"type":"Point"},"properties":{"osm_id":"6893794060","tag":{"amenity":"waste_disposal"}},"type":"Feature"},
	{"geometry":{"coordinates":[16.833659,52.384016],"type":"Point"},"properties":{"osm_id":"6893794088","tag":{"amenity":"waste_basket"}},"type":"Feature"},
	{"geometry":{"coordinates":[16.828002,52.391291],"type":"Point"},"properties":{"osm_id":"6893794200","tag":{"amenity":"waste_basket"}},"type":"Feature"},
	{"geometry":{"coordinates":[16.827997,52.391301],"type":"Point"},"properties":{"osm_id":"6893794201","tag":{"amenity":"waste_disposal"}},"type":"Feature"},
	{"geometry":{"coordinates":[16.829709,52.390245],"type":"Point"},"properties":{"osm_id":"6893794243","tag":{"amenity":"waste_disposal"}},"type":"Feature"},
	{"geometry":{"coordinates":[16.829694,52.390241],"type":"Point"},"properties":{"osm_id":"6893794244","tag":{"amenity":"waste_basket"}},"type":"Feature"},
	{"geometry":{"coordinates":[16.829711,52.390255],"type":"Point"},"properties":{"osm_id":"6893794245","tag":{"amenity":"waste_basket"}},"type":"Feature"},
	{"geometry":{"coordinates":[16.83031,52.390172],"type":"Point"},"properties":{"osm_id":"6893794298","tag":{"amenity":"waste_basket"}},"type":"Feature"},
	{"geometry":{"coordinates":[16.832385,52.389067],"type":"Point"},"properties":{"osm_id":"6893794316","tag":{"amenity":"waste_basket"}},"type":"Feature"},
	{"geometry":{"coordinates":[16.834268,52.388058],"type":"Point"},"properties":{"osm_id":"6893794341","tag":{"amenity":"waste_basket"}},"type":"Feature"},
	{"geometry":{"coordinates":[16.836873,52.38668],"type":"Point"},"properties":{"osm_id":"6893794356","tag":{"amenity":"waste_basket"}},"type":"Feature"},
	{"geometry":{"coordinates":[16.823563,52.390347],"type":"Point"},"properties":{"osm_id":"6895194957","tag":{"amenity":"waste_basket"}},"type":"Feature"},
	{"geometry":{"coordinates":[16.823517,52.390317],"type":"Point"},"properties":{"osm_id":"6895194958","tag":{"amenity":"waste_basket"}},"type":"Feature"},
	{"geometry":{"coordinates":[16.82358,52.390346],"type":"Point"},"properties":{"osm_id":"6895194959","tag":{"amenity":"waste_disposal"}},"type":"Feature"},
	{"geometry":{"coordinates":[16.823503,52.390318],"type":"Point"},"properties":{"osm_id":"6895194960","tag":{"amenity":"waste_disposal"}},"type":"Feature"},
	{"geometry":{"coordinates":[16.825001,52.389917],"type":"Point"},"properties":{"osm_id":"6895194961","tag":{"amenity":"waste_basket"}},"type":"Feature"},
	{"geometry":{"coordinates":[16.825011,52.38991],"type":"Point"},"properties":{"osm_id":"6895194962","tag":{"amenity":"waste_disposal"}},"type":"Feature"},
	{"geometry":{"coordinates":[16.821417,52.391007],"type":"Point"},"properties":{"osm_id":"6895225695","tag":{"amenity":"waste_basket"}},"type":"Feature"},
	{"geometry":{"coordinates":[16.821418,52.391017],"type":"Point"},"properties":{"osm_id":"6895225696","tag":{"amenity":"waste_disposal"}},"type":"Feature"},
	{"geometry":{"coordinates":[16.835027,52.38509],"type":"Point"},"properties":{"osm_id":"6895225792","tag":{"amenity":"waste_basket"}},"type":"Feature"},
	{"geometry":{"coordinates":[16.83504,52.385093],"type":"Point"},"properties":{"osm_id":"6895225793","tag":{"amenity":"waste_disposal"}},"type":"Feature"},
	{"geometry":{"coordinates":[16.834639,52.385343],"type":"Point"},"properties":{"osm_id":"6895225794","tag":{"amenity":"waste_basket"}},"type":"Feature"},
	{"geometry":{"coordinates":[16.834634,52.385333],"type":"Point"},"properties":{"osm_id":"6895225795","tag":{"amenity":"waste_disposal"}},"type":"Feature"},
	{"geometry":{"coordinates":[16.833216,52.385928],"type":"Point"},"properties":{"osm_id":"6895225797","tag":{"amenity":"waste_disposal"}},"type":"Feature"},
	{"geometry":{"coordinates":[16.833375,52.386023],"type":"Point"},"properties":{"osm_id":"6895225798","tag":{"amenity":"waste_basket"}},"type":"Feature"},
	{"geometry":{"coordinates":[16.833374,52.386013],"type":"Point"},"properties":{"osm_id":"6895225799","tag":{"amenity":"waste_disposal"}},"type":"Feature"},
	{"geometry":{"coordinates":[16.832756,52.386175],"type":"Point"},"properties":{"osm_id":"6895225800","tag":{"amenity":"waste_basket"}},"type":"Feature"},
	{"geometry":{"coordinates":[16.832737,52.386174],"type":"Point"},"properties":{"osm_id":"6895225801","tag":{"amenity":"waste_disposal"}},"type":"Feature"},
	{"geometry":{"coordinates":[16.83014,52.38761],"type":"Point"},"properties":{"osm_id":"6895225802","tag":{"amenity":"waste_basket"}},"type":"Feature"},
	{"geometry":{"coordinates":[16.82955,52.387927],"type":"Point"},"properties":{"osm_id":"6895225803","tag":{"amenity":"waste_basket"}},"type":"Feature"},
	{"geometry":{"coordinates":[16.828467,52.388354],"type":"Point"},"properties":{"osm_id":"6895225804","tag":{"amenity":"waste_basket"}},"type":"Feature"},
	{"geometry":{"coordinates":[16.828483,52.388358],"type":"Point"},"properties":{"osm_id":"6895225805","tag":{"amenity":"waste_disposal"}},"type":"Feature"},
	{"geometry":{"coordinates":[16.826824,52.388865],"type":"Point"},"properties":{"osm_id":"6895225806","tag":{"amenity":"waste_basket"}},"type":"Feature"},
	{"geometry":{"coordinates":[16.826839,52.38887],"type":"Point"},"properties":{"osm_id":"6895225807","tag":{"amenity":"waste_disposal"}},"type":"Feature"},
	{"geometry":{"coordinates":[16.826501,52.389074],"type":"Point"},"properties":{"osm_id":"6895225808","tag":{"amenity":"waste_basket"}},"type":"Feature"},
	{"geometry":{"coordinates":[16.826517,52.389074],"type":"Point"},"properties":{"osm_id":"6895225809","tag":{"amenity":"waste_disposal"}},"type":"Feature"},
	{"geometry":{"coordinates":[16.824139,52.389673],"type":"Point"},"properties":{"osm_id":"6895225811","tag":{"amenity":"waste_basket"}},"type":"Feature"},
	{"geometry":{"coordinates":[16.824123,52.389667],"type":"Point"},"properties":{"osm_id":"6895225812","tag":{"amenity":"waste_disposal"}},"type":"Feature"},
	{"geometry":{"coordinates":[16.823238,52.389948],"type":"Point"},"properties":{"osm_id":"6895225813","tag":{"amenity":"waste_basket"}},"type":"Feature"},
	{"geometry":{"coordinates":[16.82324,52.389937],"type":"Point"},"properties":{"osm_id":"6895225814","tag":{"amenity":"waste_disposal"}},"type":"Feature"},
	{"geometry":{"coordinates":[16.822353,52.390209],"type":"Point"},"properties":{"osm_id":"6895225815","tag":{"amenity":"waste_basket"}},"type":"Feature"},
	{"geometry":{"coordinates":[16.822351,52.3902],"type":"Point"},"properties":{"osm_id":"6895225816","tag":{"amenity":"waste_disposal"}},"type":"Feature"},
	{"geometry":{"coordinates":[16.821154,52.390696],"type":"Point"},"properties":{"osm_id":"6895225817","tag":{"amenity":"waste_disposal"}},"type":"Feature"},
	{"geometry":{"coordinates":[16.820732,52.390795],"type":"Point"},"properties":{"osm_id":"6895225818","tag":{"amenity":"waste_basket"}},"type":"Feature"},
	{"geometry":{"coordinates":[16.820717,52.390798],"type":"Point"},"properties":{"osm_id":"6895225819","tag":{"amenity":"waste_disposal"}},"type":"Feature"},
	{"geometry":{"coordinates":[16.821708,52.390522],"type":"Point"},"properties":{"osm_id":"6895225833","tag":{"amenity":"waste_basket"}},"type":"Feature"},
	{"geometry":{"coordinates":[16.8217,52.390531],"type":"Point"},"properties":{"osm_id":"6895225834","tag":{"amenity":"waste_disposal"}},"type":"Feature"},
	{"geometry":{"coordinates":[16.83493,52.384487],"type":"Point"},"properties":{"osm_id":"6895225865","tag":{"amenity":"waste_basket"}},"type":"Feature"},
	{"geometry":{"coordinates":[16.834946,52.384492],"type":"Point"},"properties":{"osm_id":"6895225866","tag":{"amenity":"waste_disposal"}},"type":"Feature"},
	{"geometry":{"coordinates":[16.834892,52.384057],"type":"Point"},"properties":{"osm_id":"6895225900","tag":{"amenity":"waste_basket"}},"type":"Feature"},
	{"geometry":{"coordinates":[16.834551,52.384231],"type":"Point"},"properties":{"osm_id":"6895225901","tag":{"amenity":"waste_basket"}},"type":"Feature"},
	{"geometry":{"coordinates":[16.834566,52.384227],"type":"Point"},"properties":{"osm_id":"6895225902","tag":{"amenity":"waste_disposal"}},"type":"Feature"},
	{"geometry":{"coordinates":[16.83325,52.384984],"type":"Point"},"properties":{"osm_id":"6895225903","tag":{"amenity":"waste_basket"}},"type":"Feature"},
	{"geometry":{"coordinates":[16.833244,52.384993],"type":"Point"},"properties":{"osm_id":"6895225904","tag":{"amenity":"waste_disposal"}},"type":"Feature"},
	{"geometry":{"coordinates":[16.831502,52.385966],"type":"Point"},"properties":{"osm_id":"6895225905","tag":{"amenity":"waste_basket"}},"type":"Feature"},
	{"geometry":{"coordinates":[16.831485,52.385969],"type":"Point"},"properties":{"osm_id":"6895225906","tag":{"amenity":"waste_disposal"}},"type":"Feature"},
	{"geometry":{"coordinates":[16.828739,52.387349],"type":"Point"},"properties":{"osm_id":"6895225907","tag":{"amenity":"waste_basket"}},"type":"Feature"},
	{"geometry":{"coordinates":[16.828723,52.387346],"type":"Point"},"properties":{"osm_id":"6895225908","tag":{"amenity":"waste_disposal"}},"type":"Feature"},
	{"geometry":{"coordinates":[16.828338,52.387625],"type":"Point"},"properties":{"osm_id":"6895225909","tag":{"amenity":"waste_basket"}},"type":"Feature"},
	{"geometry":{"coordinates":[16.828338,52.387636],"type":"Point"},"properties":{"osm_id":"6895225910","tag":{"amenity":"waste_disposal"}},"type":"Feature"},
	{"geometry":{"coordinates":[16.827446,52.387821],"type":"Point"},"properties":{"osm_id":"6895225914","tag":{"amenity":"waste_basket"}},"type":"Feature"},
	{"geometry":{"coordinates":[16.827428,52.387822],"type":"Point"},"properties":{"osm_id":"6895225915","tag":{"amenity":"waste_disposal"}},"type":"Feature"},
	{"geometry":{"coordinates":[16.825341,52.388536],"type":"Point"},"properties":{"osm_id":"6895225916","tag":{"amenity":"waste_basket"}},"type":"Feature"},
	{"geometry":{"coordinates":[16.825358,52.388536],"type":"Point"},"properties":{"osm_id":"6895225917","tag":{"amenity":"waste_disposal"}},"type":"Feature"},
	{"geometry":{"coordinates":[16.822739,52.389343],"type":"Point"},"properties":{"osm_id":"6895225918","tag":{"amenity":"waste_basket"}},"type":"Feature"},
	{"geometry":{"coordinates":[16.822757,52.389343],"type":"Point"},"properties":{"osm_id":"6895225919","tag":{"amenity":"waste_disposal"}},"type":"Feature"},
	{"geometry":{"coordinates":[16.82129,52.38978],"type":"Point"},"properties":{"osm_id":"6895225921","tag":{"amenity":"waste_basket"}},"type":"Feature"},
	{"geometry":{"coordinates":[16.821304,52.389788],"type":"Point"},"properties":{"osm_id":"6895225922","tag":{"amenity":"waste_disposal"}},"type":"Feature"},
	{"geometry":{"coordinates":[16.819727,52.39027],"type":"Point"},"properties":{"osm_id":"6895225923","tag":{"amenity":"waste_basket"}},"type":"Feature"},
	{"geometry":{"coordinates":[16.819727,52.39028],"type":"Point"},"properties":{"osm_id":"6895225924","tag":{"amenity":"waste_disposal"}},"type":"Feature"},
	{"geometry":{"coordinates":[16.827742,52.390791],"type":"Point"},"properties":{"osm_id":"6896854159","tag":{"amenity":"waste_disposal"}},"type":"Feature"},
	{"geometry":{"coordinates":[16.827058,52.390661],"type":"Point"},"properties":{"osm_id":"6896854161","tag":{"amenity":"waste_basket"}},"type":"Feature"},
	{"geometry":{"coordinates":[16.82702,52.390637],"type":"Point"},"properties":{"osm_id":"6896854162","tag":{"amenity":"waste_basket"}},"type":"Feature"},
	{"geometry":{"coordinates":[16.827053,52.390652],"type":"Point"},"properties":{"osm_id":"6896854163","tag":{"amenity":"waste_disposal"}},"type":"Feature"},
	{"geometry":{"coordinates":[16.827037,52.390641],"type":"Point"},"properties":{"osm_id":"6896854164","tag":{"amenity":"waste_disposal"}},"type":"Feature"},
	{"geometry":{"coordinates":[16.828639,52.390948],"type":"Point"},"properties":{"osm_id":"6896854165","tag":{"amenity":"waste_basket"}},"type":"Feature"},
	{"geometry":{"coordinates":[16.828633,52.390957],"type":"Point"},"properties":{"osm_id":"6896854166","tag":{"amenity":"waste_disposal"}},"type":"Feature"},
	{"geometry":{"coordinates":[16.828526,52.389925],"type":"Point"},"properties":{"osm_id":"6896854167","tag":{"amenity":"waste_basket"}},"type":"Feature"},
	{"geometry":{"coordinates":[16.82852,52.389937],"type":"Point"},"properties":{"osm_id":"6896854168","tag":{"amenity":"waste_disposal"}},"type":"Feature"},
	{"geometry":{"coordinates":[16.829063,52.390634],"type":"Point"},"properties":{"osm_id":"6896854169","tag":{"amenity":"waste_basket"}},"type":"Feature"},
	{"geometry":{"coordinates":[16.829065,52.390644],"type":"Point"},"properties":{"osm_id":"6896854170","tag":{"amenity":"waste_disposal"}},"type":"Feature"},
	{"geometry":{"coordinates":[16.829067,52.389645],"type":"Point"},"properties":{"osm_id":"6896854172","tag":{"amenity":"waste_basket"}},"type":"Feature"},
	{"geometry":{"coordinates":[16.829094,52.389645],"type":"Point"},"properties":{"osm_id":"6896854173","tag":{"amenity":"waste_basket"}},"type":"Feature"},
	{"geometry":{"coordinates":[16.829076,52.389636],"type":"Point"},"properties":{"osm_id":"6896854174","tag":{"amenity":"waste_disposal"}},"type":"Feature"},
	{"geometry":{"coordinates":[16.829101,52.389636],"type":"Point"},"properties":{"osm_id":"6896854175","tag":{"amenity":"waste_disposal"}},"type":"Feature"},
	{"geometry":{"coordinates":[16.830605,52.389651],"type":"Point"},"properties":{"osm_id":"6896854176","tag":{"amenity":"waste_basket"}},"type":"Feature"},
	{"geometry":{"coordinates":[16.830621,52.389646],"type":"Point"},"properties":{"osm_id":"6896854177","tag":{"amenity":"waste_disposal"}},"type":"Feature"},
	{"geometry":{"coordinates":[16.830427,52.388972],"type":"Point"},"properties":{"osm_id":"6896854178","tag":{"amenity":"waste_basket"}},"type":"Feature"},
	{"geometry":{"coordinates":[16.830428,52.388982],"type":"Point"},"properties":{"osm_id":"6896854179","tag":{"amenity":"waste_disposal"}},"type":"Feature"},
	{"geometry":{"coordinates":[16.830391,52.38893],"type":"Point"},"properties":{"osm_id":"6896854180","tag":{"amenity":"waste_basket"}},"type":"Feature"},
	{"geometry":{"coordinates":[16.830395,52.388937],"type":"Point"},"properties":{"osm_id":"6896854181","tag":{"amenity":"waste_disposal"}},"type":"Feature"},
	{"geometry":{"coordinates":[16.832221,52.389055],"type":"Point"},"properties":{"osm_id":"6896854182","tag":{"amenity":"waste_basket"}},"type":"Feature"},
	{"geometry":{"coordinates":[16.832236,52.389059],"type":"Point"},"properties":{"osm_id":"6896854183","tag":{"amenity":"waste_disposal"}},"type":"Feature"},
	{"geometry":{"coordinates":[16.834194,52.38795],"type":"Point"},"properties":{"osm_id":"6896854184","tag":{"amenity":"waste_basket"}},"type":"Feature"},
	{"geometry":{"coordinates":[16.834203,52.387941],"type":"Point"},"properties":{"osm_id":"6896861085","tag":{"amenity":"waste_disposal"}},"type":"Feature"},
	{"geometry":{"coordinates":[16.826101,52.392008],"type":"Point"},"properties":{"osm_id":"6896861101","tag":{"amenity":"waste_basket"}},"type":"Feature"},
	{"geometry":{"coordinates":[16.826111,52.392017],"type":"Point"},"properties":{"osm_id":"6896861102","tag":{"amenity":"waste_disposal"}},"type":"Feature"},
	{"geometry":{"coordinates":[16.825808,52.39191],"type":"Point"},"properties":{"osm_id":"6896861103","tag":{"amenity":"waste_basket"}},"type":"Feature"},
	{"geometry":{"coordinates":[16.825817,52.391918],"type":"Point"},"properties":{"osm_id":"6896861104","tag":{"amenity":"waste_disposal"}},"type":"Feature"},
	{"geometry":{"coordinates":[16.826583,52.391045],"type":"Point"},"properties":{"osm_id":"6896861105","tag":{"amenity":"waste_basket"}},"type":"Feature"},
	{"geometry":{"coordinates":[16.82659,52.391054],"type":"Point"},"properties":{"osm_id":"6896861106","tag":{"amenity":"waste_disposal"}},"type":"Feature"},
	{"geometry":{"coordinates":[16.82805,52.390262],"type":"Point"},"properties":{"osm_id":"6896861107","tag":{"amenity":"waste_basket"}},"type":"Feature"},
	{"geometry":{"coordinates":[16.82805,52.390272],"type":"Point"},"properties":{"osm_id":"6896861108","tag":{"amenity":"waste_disposal"}},"type":"Feature"},
	{"geometry":{"coordinates":[16.828437,52.390607],"type":"Point"},"properties":{"osm_id":"6896861109","tag":{"amenity":"waste_basket"}},"type":"Feature"},
	{"geometry":{"coordinates":[16.828438,52.390597],"type":"Point"},"properties":{"osm_id":"6896861110","tag":{"amenity":"waste_disposal"}},"type":"Feature"},
	{"geometry":{"coordinates":[16.825795,52.391049],"type":"Point"},"properties":{"osm_id":"6896861139","tag":{"amenity":"waste_basket"}},"type":"Feature"},
	{"geometry":{"coordinates":[16.825797,52.391039],"type":"Point"},"properties":{"osm_id":"6896861140","tag":{"amenity":"waste_disposal"}},"type":"Feature"},
	{"geometry":{"coordinates":[16.825415,52.391783],"type":"Point"},"properties":{"osm_id":"6896861173","tag":{"amenity":"waste_basket"}},"type":"Feature"},
	{"geometry":{"coordinates":[16.8254,52.391782],"type":"Point"},"properties":{"osm_id":"6896861174","tag":{"amenity":"waste_disposal"}},"type":"Feature"},
	{"geometry":{"coordinates":[16.824835,52.391758],"type":"Point"},"properties":{"osm_id":"6896861181","tag":{"amenity":"waste_basket"}},"type":"Feature"},
	{"geometry":{"coordinates":[16.824859,52.391784],"type":"Point"},"properties":{"osm_id":"6896861182","tag":{"amenity":"waste_basket"}},"type":"Feature"},
	{"geometry":{"coordinates":[16.824844,52.391779],"type":"Point"},"properties":{"osm_id":"6896861183","tag":{"amenity":"waste_disposal"}},"type":"Feature"},
	{"geometry":{"coordinates":[16.824829,52.391768],"type":"Point"},"properties":{"osm_id":"6896861184","tag":{"amenity":"waste_disposal"}},"type":"Feature"},
	{"geometry":{"coordinates":[16.825205,52.391386],"type":"Point"},"properties":{"osm_id":"6896861186","tag":{"amenity":"waste_basket"}},"type":"Feature"},
	{"geometry":{"coordinates":[16.825211,52.391377],"type":"Point"},"properties":{"osm_id":"6896861187","tag":{"amenity":"waste_disposal"}},"type":"Feature"},
	{"geometry":{"coordinates":[16.825007,52.39153],"type":"Point"},"properties":{"osm_id":"6896861188","tag":{"amenity":"waste_basket"}},"type":"Feature"},
	{"geometry":{"coordinates":[16.824991,52.391532],"type":"Point"},"properties":{"osm_id":"6896861189","tag":{"amenity":"waste_disposal"}},"type":"Feature"},
	{"geometry":{"coordinates":[16.826386,52.390268],"type":"Point"},"properties":{"osm_id":"6896861215","tag":{"amenity":"waste_basket"}},"type":"Feature"},
	{"geometry":{"coordinates":[16.826397,52.390261],"type":"Point"},"properties":{"osm_id":"6896861216","tag":{"amenity":"waste_disposal"}},"type":"Feature"},
	{"geometry":{"coordinates":[16.823136,52.391311],"type":"Point"},"properties":{"osm_id":"6896861236","tag":{"amenity":"waste_basket"}},"type":"Feature"},
	{"geometry":{"coordinates":[16.823153,52.391311],"type":"Point"},"properties":{"osm_id":"6896861237","tag":{"amenity":"waste_disposal"}},"type":"Feature"},
	{"geometry":{"coordinates":[16.822693,52.391453],"type":"Point"},"properties":{"osm_id":"6896861238","tag":{"amenity":"waste_basket"}},"type":"Feature"},
	{"geometry":{"coordinates":[16.8227,52.391462],"type":"Point"},"properties":{"osm_id":"6896861239","tag":{"amenity":"waste_disposal"}},"type":"Feature"},
	{"geometry":{"coordinates":[16.826927,52.389733],"type":"Point"},"properties":{"osm_id":"6896861258","tag":{"amenity":"waste_basket"}},"type":"Feature"},
	{"geometry":{"coordinates":[16.826917,52.389741],"type":"Point"},"properties":{"osm_id":"6896861259","tag":{"amenity":"waste_disposal"}},"type":"Feature"},
	{"geometry":{"coordinates":[16.825878,52.389979],"type":"Point"},"properties":{"osm_id":"6896861260","tag":{"amenity":"waste_basket"}},"type":"Feature"},
	{"geometry":{"coordinates":[16.825861,52.389979],"type":"Point"},"properties":{"osm_id":"6896861261","tag":{"amenity":"waste_disposal"}},"type":"Feature"},
	{"geometry":{"coordinates":[16.825193,52.390289],"type":"Point"},"properties":{"osm_id":"6896861262","tag":{"amenity":"waste_basket"}},"type":"Feature"},
	{"geometry":{"coordinates":[16.825182,52.390283],"type":"Point"},"properties":{"osm_id":"6896861263","tag":{"amenity":"waste_disposal"}},"type":"Feature"},
	{"geometry":{"coordinates":[16.822606,52.391065],"type":"Point"},"properties":{"osm_id":"6896861264","tag":{"amenity":"waste_disposal"}},"type":"Feature"},
	{"geometry":{"coordinates":[16.822272,52.391149],"type":"Point"},"properties":{"osm_id":"6896861265","tag":{"amenity":"waste_basket"}},"type":"Feature"},
	{"geometry":{"coordinates":[16.822263,52.391158],"type":"Point"},"properties":{"osm_id":"6896861266","tag":{"amenity":"waste_disposal"}},"type":"Feature"},
	{"geometry":{"coordinates":[16.821747,52.391316],"type":"Point"},"properties":{"osm_id":"6896861267","tag":{"amenity":"waste_basket"}},"type":"Feature"},
	{"geometry":{"coordinates":[16.821737,52.391325],"type":"Point"},"properties":{"osm_id":"6896861268","tag":{"amenity":"waste_disposal"}},"type":"Feature"},
	{"geometry":{"coordinates":[16.8382,52.385426],"type":"Point"},"properties":{"osm_id":"6896861274","tag":{"amenity":"waste_basket"}},"type":"Feature"},
	{"geometry":{"coordinates":[16.838187,52.385418],"type":"Point"},"properties":{"osm_id":"6896861275","tag":{"amenity":"waste_disposal"}},"type":"Feature"},
	{"geometry":{"coordinates":[16.832909,52.387982],"type":"Point"},"properties":{"osm_id":"6896861277","tag":{"amenity":"waste_disposal"}},"type":"Feature"},
	{"geometry":{"coordinates":[16.832898,52.387971],"type":"Point"},"properties":{"osm_id":"6896861278","tag":{"amenity":"waste_disposal"}},"type":"Feature"},
	{"geometry":{"coordinates":[16.834757,52.386726],"type":"Point"},"properties":{"osm_id":"6896861279","tag":{"amenity":"waste_basket"}},"type":"Feature"},
	{"geometry":{"coordinates":[16.83474,52.386728],"type":"Point"},"properties":{"osm_id":"6896861280","tag":{"amenity":"waste_disposal"}},"type":"Feature"},
	{"geometry":{"coordinates":[16.836375,52.385095],"type":"Point"},"properties":{"osm_id":"6896861281","tag":{"amenity":"waste_basket"}},"type":"Feature"},
	{"geometry":{"coordinates":[16.836394,52.385093],"type":"Point"},"properties":{"osm_id":"6896861282","tag":{"amenity":"waste_disposal"}},"type":"Feature"},
	{"geometry":{"coordinates":[16.836859,52.384642],"type":"Point"},"properties":{"osm_id":"6896861283","tag":{"amenity":"waste_basket"}},"type":"Feature"},
	{"geometry":{"coordinates":[16.83683,52.384629],"type":"Point"},"properties":{"osm_id":"6896861284","tag":{"amenity":"waste_basket"}},"type":"Feature"},
	{"geometry":{"coordinates":[16.836838,52.384621],"type":"Point"},"properties":{"osm_id":"6896861285","tag":{"amenity":"waste_disposal"}},"type":"Feature"},
	{"geometry":{"coordinates":[16.836854,52.384632],"type":"Point"},"properties":{"osm_id":"6896861286","tag":{"amenity":"waste_disposal"}},"type":"Feature"},
	{"geometry":{"coordinates":[16.83598,52.384795],"type":"Point"},"properties":{"osm_id":"6896861291","tag":{"amenity":"waste_basket"}},"type":"Feature"},
	{"geometry":{"coordinates":[16.835967,52.384798],"type":"Point"},"properties":{"osm_id":"6896861292","tag":{"amenity":"waste_disposal"}},"type":"Feature"},
	{"geometry":{"coordinates":[16.834231,52.387228],"type":"Point"},"properties":{"osm_id":"6896861293","tag":{"amenity":"waste_basket"}},"type":"Feature"},
	{"geometry":{"coordinates":[16.834246,52.387235],"type":"Point"},"properties":{"osm_id":"6896861294","tag":{"amenity":"waste_disposal"}},"type":"Feature"},
	{"geometry":{"coordinates":[16.836284,52.386179],"type":"Point"},"properties":{"osm_id":"6896861309","tag":{"amenity":"waste_basket"}},"type":"Feature"},
	{"geometry":{"coordinates":[16.835334,52.386447],"type":"Point"},"properties":{"osm_id":"6896861312","tag":{"amenity":"waste_basket"}},"type":"Feature"},
	{"geometry":{"coordinates":[16.835354,52.386444],"type":"Point"},"properties":{"osm_id":"6896861313","tag":{"amenity":"waste_disposal"}},"type":"Feature"},
	{"geometry":{"coordinates":[16.833689,52.386985],"type":"Point"},"properties":{"osm_id":"6896861320","tag":{"amenity":"waste_basket"}},"type":"Feature"},
	{"geometry":{"coordinates":[16.833693,52.386996],"type":"Point"},"properties":{"osm_id":"6896861321","tag":{"amenity":"waste_disposal"}},"type":"Feature"},
	{"geometry":{"coordinates":[16.831845,52.38768],"type":"Point"},"properties":{"osm_id":"6896861322","tag":{"amenity":"waste_basket"}},"type":"Feature"},
	{"geometry":{"coordinates":[16.831829,52.387678],"type":"Point"},"properties":{"osm_id":"6896861323","tag":{"amenity":"waste_disposal"}},"type":"Feature"},
	{"geometry":{"coordinates":[16.829987,52.388304],"type":"Point"},"properties":{"osm_id":"6896861337","tag":{"amenity":"waste_basket"}},"type":"Feature"},
	{"geometry":{"coordinates":[16.829985,52.388295],"type":"Point"},"properties":{"osm_id":"6896861338","tag":{"amenity":"waste_disposal"}},"type":"Feature"},
	{"geometry":{"coordinates":[16.831151,52.38788],"type":"Point"},"properties":{"osm_id":"6896861339","tag":{"amenity":"waste_basket"}},"type":"Feature"},
	{"geometry":{"coordinates":[16.831138,52.387873],"type":"Point"},"properties":{"osm_id":"6896861340","tag":{"amenity":"waste_disposal"}},"type":"Feature"},
	{"geometry":{"coordinates":[16.817425,52.393457],"type":"Point"},"properties":{"osm_id":"6897909907","tag":{"amenity":"waste_basket"}},"type":"Feature"},
	{"geometry":{"coordinates":[16.817431,52.393447],"type":"Point"},"properties":{"osm_id":"6897909908","tag":{"amenity":"waste_disposal"}},"type":"Feature"},
	{"geometry":{"coordinates":[16.816282,52.394698],"type":"Point"},"properties":{"osm_id":"6897909948","tag":{"amenity":"waste_disposal"}},"type":"Feature"},
	{"geometry":{"coordinates":[16.819864,52.395859],"type":"Point"},"properties":{"osm_id":"6897909949","tag":{"amenity":"waste_basket"}},"type":"Feature"},
	{"geometry":{"coordinates":[16.819876,52.395866],"type":"Point"},"properties":{"osm_id":"6897909950","tag":{"amenity":"waste_disposal"}},"type":"Feature"},
	{"geometry":{"coordinates":[16.818729,52.392968],"type":"Point"},"properties":{"osm_id":"6897909952","tag":{"amenity":"waste_basket"}},"type":"Feature"},
	{"geometry":{"coordinates":[16.818728,52.392978],"type":"Point"},"properties":{"osm_id":"6897909953","tag":{"amenity":"waste_disposal"}},"type":"Feature"},
	{"geometry":{"coordinates":[16.8183,52.393435],"type":"Point"},"properties":{"osm_id":"6897909958","tag":{"amenity":"waste_basket"}},"type":"Feature"},
	{"geometry":{"coordinates":[16.818301,52.393445],"type":"Point"},"properties":{"osm_id":"6897909959","tag":{"amenity":"waste_disposal"}},"type":"Feature"},
	{"geometry":{"coordinates":[16.818033,52.393734],"type":"Point"},"properties":{"osm_id":"6897909960","tag":{"amenity":"waste_basket"}},"type":"Feature"},
	{"geometry":{"coordinates":[16.818034,52.393724],"type":"Point"},"properties":{"osm_id":"6897909961","tag":{"amenity":"waste_disposal"}},"type":"Feature"},
	{"geometry":{"coordinates":[16.817533,52.394348],"type":"Point"},"properties":{"osm_id":"6897909965","tag":{"amenity":"waste_basket"}},"type":"Feature"},
	{"geometry":{"coordinates":[16.817533,52.39436],"type":"Point"},"properties":{"osm_id":"6897909966","tag":{"amenity":"waste_disposal"}},"type":"Feature"},
	{"geometry":{"coordinates":[16.817298,52.394653],"type":"Point"},"properties":{"osm_id":"6897909967","tag":{"amenity":"waste_basket"}},"type":"Feature"},
	{"geometry":{"coordinates":[16.81731,52.394661],"type":"Point"},"properties":{"osm_id":"6897909968","tag":{"amenity":"waste_disposal"}},"type":"Feature"},
	{"geometry":{"coordinates":[16.817251,52.394996],"type":"Point"},"properties":{"osm_id":"6897909969","tag":{"amenity":"waste_basket"}},"type":"Feature"},
	{"geometry":{"coordinates":[16.817241,52.394987],"type":"Point"},"properties":{"osm_id":"6897909970","tag":{"amenity":"waste_disposal"}},"type":"Feature"},
	{"geometry":{"coordinates":[16.816712,52.394109],"type":"Point"},"properties":{"osm_id":"6897909971","tag":{"amenity":"waste_disposal"}},"type":"Feature"},
	{"geometry":{"coordinates":[16.816967,52.393767],"type":"Point"},"properties":{"osm_id":"6897909972","tag":{"amenity":"waste_disposal"}},"type":"Feature"},
	{"geometry":{"coordinates":[16.817764,52.394044],"type":"Point"},"properties":{"osm_id":"6897909973","tag":{"amenity":"waste_basket"}},"type":"Feature"},
	{"geometry":{"coordinates":[16.817781,52.394039],"type":"Point"},"properties":{"osm_id":"6897909974","tag":{"amenity":"waste_disposal"}},"type":"Feature"},
	{"geometry":{"coordinates":[16.823711,52.393658],"type":"Point"},"properties":{"osm_id":"6897909975","tag":{"amenity":"waste_basket"}},"type":"Feature"},
	{"geometry":{"coordinates":[16.823712,52.393669],"type":"Point"},"properties":{"osm_id":"6897909976","tag":{"amenity":"waste_disposal"}},"type":"Feature"},
	{"geometry":{"coordinates":[16.820149,52.393038],"type":"Point"},"properties":{"osm_id":"6897909977","tag":{"amenity":"waste_basket"}},"type":"Feature"},
	{"geometry":{"coordinates":[16.820148,52.393027],"type":"Point"},"properties":{"osm_id":"6897909978","tag":{"amenity":"waste_disposal"}},"type":"Feature"},
	{"geometry":{"coordinates":[16.818796,52.392441],"type":"Point"},"properties":{"osm_id":"6897909979","tag":{"amenity":"waste_basket"}},"type":"Feature"},
	{"geometry":{"coordinates":[16.818796,52.392431],"type":"Point"},"properties":{"osm_id":"6897909980","tag":{"amenity":"waste_disposal"}},"type":"Feature"},
	{"geometry":{"coordinates":[16.818415,52.392316],"type":"Point"},"properties":{"osm_id":"6897909981","tag":{"amenity":"waste_basket"}},"type":"Feature"},
	{"geometry":{"coordinates":[16.818414,52.392309],"type":"Point"},"properties":{"osm_id":"6897909982","tag":{"amenity":"waste_disposal"}},"type":"Feature"},
	{"geometry":{"coordinates":[16.825524,52.389584],"type":"Point"},"properties":{"osm_id":"6902338921","tag":{"amenity":"waste_basket"}},"type":"Feature"},
	{"geometry":{"coordinates":[16.825511,52.389578],"type":"Point"},"properties":{"osm_id":"6902338922","tag":{"amenity":"waste_disposal"}},"type":"Feature"},
	{"geometry":{"coordinates":[16.818176,52.387568],"type":"Point"},"properties":{"osm_id":"6902338937","tag":{"amenity":"waste_disposal"}},"type":"Feature"},
	{"geometry":{"coordinates":[16.818173,52.387578],"type":"Point"},"properties":{"osm_id":"6902338938","tag":{"amenity":"waste_basket"}},"type":"Feature"},
	{"geometry":{"coordinates":[16.817848,52.387792],"type":"Point"},"properties":{"osm_id":"6902338939","tag":{"amenity":"waste_basket"}},"type":"Feature"},
	{"geometry":{"coordinates":[16.817851,52.387782],"type":"Point"},"properties":{"osm_id":"6902338940","tag":{"amenity":"waste_disposal"}},"type":"Feature"},
	{"geometry":{"coordinates":[16.817529,52.388012],"type":"Point"},"properties":{"osm_id":"6902338943","tag":{"amenity":"waste_basket"}},"type":"Feature"},
	{"geometry":{"coordinates":[16.817533,52.388001],"type":"Point"},"properties":{"osm_id":"6902338944","tag":{"amenity":"waste_disposal"}},"type":"Feature"},
	{"geometry":{"coordinates":[16.819184,52.394032],"type":"Point"},"properties":{"osm_id":"6902338965","tag":{"amenity":"waste_basket"}},"type":"Feature"},
	{"geometry":{"coordinates":[16.819175,52.394024],"type":"Point"},"properties":{"osm_id":"6902338966","tag":{"amenity":"waste_disposal"}},"type":"Feature"},
	{"geometry":{"coordinates":[16.818876,52.394917],"type":"Point"},"properties":{"osm_id":"6902338977","tag":{"amenity":"waste_basket"}},"type":"Feature"},
	{"geometry":{"coordinates":[16.818859,52.394918],"type":"Point"},"properties":{"osm_id":"6902338978","tag":{"amenity":"waste_disposal"}},"type":"Feature"},
	{"geometry":{"coordinates":[16.818723,52.395153],"type":"Point"},"properties":{"osm_id":"6902338979","tag":{"amenity":"waste_basket"}},"type":"Feature"},
	{"geometry":{"coordinates":[16.818708,52.395152],"type":"Point"},"properties":{"osm_id":"6902338980","tag":{"amenity":"waste_disposal"}},"type":"Feature"},
	{"geometry":{"coordinates":[16.818289,52.394219],"type":"Point"},"properties":{"osm_id":"6902338989","tag":{"amenity":"waste_basket"}},"type":"Feature"},
	{"geometry":{"coordinates":[16.818277,52.394213],"type":"Point"},"properties":{"osm_id":"6902338990","tag":{"amenity":"waste_disposal"}},"type":"Feature"},
	{"geometry":{"coordinates":[16.824648,52.388306],"type":"Point"},"properties":{"osm_id":"6902477368","tag":{"amenity":"waste_basket"}},"type":"Feature"},
	{"geometry":{"coordinates":[16.824648,52.388316],"type":"Point"},"properties":{"osm_id":"6902477369","tag":{"amenity":"waste_disposal"}},"type":"Feature"},
	{"geometry":{"coordinates":[16.824721,52.386876],"type":"Point"},"properties":{"osm_id":"6902477379","tag":{"amenity":"waste_basket"}},"type":"Feature"},
	{"geometry":{"coordinates":[16.824737,52.386877],"type":"Point"},"properties":{"osm_id":"6902477380","tag":{"amenity":"waste_disposal"}},"type":"Feature"},
	{"geometry":{"coordinates":[16.825569,52.390836],"type":"Point"},"properties":{"osm_id":"6902481295","tag":{"amenity":"waste_basket"}},"type":"Feature"},
	{"geometry":{"coordinates":[16.825565,52.390843],"type":"Point"},"properties":{"osm_id":"6902481296","tag":{"amenity":"waste_disposal"}},"type":"Feature"},
	{"geometry":{"coordinates":[16.820567,52.393844],"type":"Point"},"properties":{"osm_id":"6902481297","tag":{"amenity":"waste_basket"}},"type":"Feature"},
	{"geometry":{"coordinates":[16.820588,52.393813],"type":"Point"},"properties":{"osm_id":"6902481298","tag":{"amenity":"waste_basket"}},"type":"Feature"},
	{"geometry":{"coordinates":[16.820589,52.393824],"type":"Point"},"properties":{"osm_id":"6902481299","tag":{"amenity":"waste_disposal"}},"type":"Feature"},
	{"geometry":{"coordinates":[16.820578,52.393839],"type":"Point"},"properties":{"osm_id":"6902481300","tag":{"amenity":"waste_disposal"}},"type":"Feature"},
	{"geometry":{"coordinates":[16.821201,52.386715],"type":"Point"},"properties":{"osm_id":"6902481307","tag":{"amenity":"waste_disposal"}},"type":"Feature"},
	{"geometry":{"coordinates":[16.820836,52.388415],"type":"Point"},"properties":{"osm_id":"6902481364","tag":{"amenity":"waste_basket"}},"type":"Feature"},
	{"geometry":{"coordinates":[16.820825,52.388409],"type":"Point"},"properties":{"osm_id":"6902481365","tag":{"amenity":"waste_disposal"}},"type":"Feature"},
	{"geometry":{"coordinates":[16.832447,52.3877],"type":"Point"},"properties":{"osm_id":"6902486303","tag":{"amenity":"waste_basket"}},"type":"Feature"},
	{"geometry":{"coordinates":[16.832431,52.387701],"type":"Point"},"properties":{"osm_id":"6902486304","tag":{"amenity":"waste_disposal"}},"type":"Feature"},
	{"geometry":{"coordinates":[16.823887,52.387097],"type":"Point"},"properties":{"osm_id":"6902511693","tag":{"amenity":"waste_basket"}},"type":"Feature"},
	{"geometry":{"coordinates":[16.823887,52.387086],"type":"Point"},"properties":{"osm_id":"6902511694","tag":{"amenity":"waste_disposal"}},"type":"Feature"},
	{"geometry":{"coordinates":[16.821269,52.388223],"type":"Point"},"properties":{"osm_id":"6902511699","tag":{"amenity":"waste_basket"}},"type":"Feature"},
	{"geometry":{"coordinates":[16.821256,52.388218],"type":"Point"},"properties":{"osm_id":"6902511700","tag":{"amenity":"waste_disposal"}},"type":"Feature"},
	{"geometry":{"coordinates":[16.832251,52.386416],"type":"Point"},"properties":{"osm_id":"6902868170","tag":{"amenity":"waste_disposal"}},"type":"Feature"},
	{"geometry":{"coordinates":[16.832275,52.386427],"type":"Point"},"properties":{"osm_id":"6902868171","tag":{"amenity":"waste_basket"}},"type":"Feature"},
	{"geometry":{"coordinates":[16.832267,52.386419],"type":"Point"},"properties":{"osm_id":"6902868172","tag":{"amenity":"waste_disposal"}},"type":"Feature"},
	{"geometry":{"coordinates":[16.831507,52.386414],"type":"Point"},"properties":{"osm_id":"6902870903","tag":{"amenity":"waste_basket"}},"type":"Feature"},
	{"geometry":{"coordinates":[16.831503,52.386423],"type":"Point"},"properties":{"osm_id":"6902870904","tag":{"amenity":"waste_disposal"}},"type":"Feature"},
	{"geometry":{"coordinates":[16.830762,52.386812],"type":"Point"},"properties":{"osm_id":"6902870908","tag":{"amenity":"waste_basket"}},"type":"Feature"},
	{"geometry":{"coordinates":[16.830756,52.386822],"type":"Point"},"properties":{"osm_id":"6902870909","tag":{"amenity":"waste_disposal"}},"type":"Feature"},
	{"geometry":{"coordinates":[16.829405,52.387491],"type":"Point"},"properties":{"osm_id":"6902870924","tag":{"amenity":"waste_basket"}},"type":"Feature"},
	{"geometry":{"coordinates":[16.82939,52.387488],"type":"Point"},"properties":{"osm_id":"6902870925","tag":{"amenity":"waste_disposal"}},"type":"Feature"},
	{"geometry":{"coordinates":[16.8301,52.387169],"type":"Point"},"properties":{"osm_id":"6902870951","tag":{"amenity":"waste_basket"}},"type":"Feature"},
	{"geometry":{"coordinates":[16.830095,52.387179],"type":"Point"},"properties":{"osm_id":"6902870952","tag":{"amenity":"waste_disposal"}},"type":"Feature"},
	{"geometry":{"coordinates":[16.823553,52.389105],"type":"Point"},"properties":{"osm_id":"6902871011","tag":{"amenity":"waste_basket"}},"type":"Feature"},
	{"geometry":{"coordinates":[16.823563,52.389096],"type":"Point"},"properties":{"osm_id":"6902871012","tag":{"amenity":"waste_disposal"}},"type":"Feature"},
	{"geometry":{"coordinates":[16.823414,52.389548],"type":"Point"},"properties":{"osm_id":"6902871019","tag":{"amenity":"waste_basket"}},"type":"Feature"},
	{"geometry":{"coordinates":[16.823427,52.389554],"type":"Point"},"properties":{"osm_id":"6902871020","tag":{"amenity":"waste_disposal"}},"type":"Feature"},
	{"geometry":{"coordinates":[16.81989,52.387839],"type":"Point"},"properties":{"osm_id":"6902871096","tag":{"amenity":"waste_basket"}},"type":"Feature"},
	{"geometry":{"coordinates":[16.819901,52.38783],"type":"Point"},"properties":{"osm_id":"6902871097","tag":{"amenity":"waste_disposal"}},"type":"Feature"},
	{"geometry":{"coordinates":[16.823415,52.391875],"type":"Point"},"properties":{"osm_id":"6903104127","tag":{"amenity":"waste_basket"}},"type":"Feature"},
	{"geometry":{"coordinates":[16.823371,52.391858],"type":"Point"},"properties":{"osm_id":"6903104128","tag":{"amenity":"waste_basket"}},"type":"Feature"},
	{"geometry":{"coordinates":[16.823406,52.391867],"type":"Point"},"properties":{"osm_id":"6903104129","tag":{"amenity":"waste_disposal"}},"type":"Feature"},
	{"geometry":{"coordinates":[16.823386,52.39186],"type":"Point"},"properties":{"osm_id":"6903104130","tag":{"amenity":"waste_disposal"}},"type":"Feature"},
	{"geometry":{"coordinates":[16.835847,52.385712],"type":"Point"},"properties":{"osm_id":"6903104191","tag":{"amenity":"waste_basket"}},"type":"Feature"},
	{"geometry":{"coordinates":[16.835853,52.385722],"type":"Point"},"properties":{"osm_id":"6903104192","tag":{"amenity":"waste_disposal"}},"type":"Feature"},
	{"geometry":{"coordinates":[16.834072,52.386522],"type":"Point"},"properties":{"osm_id":"6903104209","tag":{"amenity":"waste_basket"}},"type":"Feature"},
	{"geometry":{"coordinates":[16.834089,52.386521],"type":"Point"},"properties":{"osm_id":"6903104210","tag":{"amenity":"waste_disposal"}},"type":"Feature"},
	{"geometry":{"coordinates":[16.833721,52.386727],"type":"Point"},"properties":{"osm_id":"6903104214","tag":{"amenity":"waste_disposal"}},"type":"Feature"},
	{"geometry":{"coordinates":[16.833736,52.386731],"type":"Point"},"properties":{"osm_id":"6903104215","tag":{"amenity":"waste_basket"}},"type":"Feature"},
	{"geometry":{"coordinates":[16.834093,52.384944],"type":"Point"},"properties":{"osm_id":"6903104380","tag":{"amenity":"waste_basket"}},"type":"Feature"},
	{"geometry":{"coordinates":[16.834098,52.384935],"type":"Point"},"properties":{"osm_id":"6903104381","tag":{"amenity":"waste_disposal"}},"type":"Feature"},
	{"geometry":{"coordinates":[16.832488,52.385909],"type":"Point"},"properties":{"osm_id":"6903104391","tag":{"amenity":"waste_basket"}},"type":"Feature"},
	{"geometry":{"coordinates":[16.832501,52.385914],"type":"Point"},"properties":{"osm_id":"6903104392","tag":{"amenity":"waste_disposal"}},"type":"Feature"},
	{"geometry":{"coordinates":[16.834572,52.38422],"type":"Point"},"properties":{"osm_id":"6937143131","tag":{"amenity":"waste_basket"}},"type":"Feature"},
	{"geometry":{"coordinates":[16.826188,52.378371],"type":"Point"},"properties":{"osm_id":"6988528921","tag":{"amenity":"waste_basket"}},"type":"Feature"},
	{"geometry":{"coordinates":[16.849821,52.425158],"type":"Point"},"properties":{"osm_id":"7011759609","tag":{"amenity":"waste_disposal"}},"type":"Feature"},
	{"geometry":{"coordinates":[16.850401,52.406547],"type":"Point"},"properties":{"osm_id":"7049984027","tag":{"amenity":"waste_basket","waste":"trash"}},"type":"Feature"},
	{"geometry":{"coordinates":[16.849099,52.406933],"type":"Point"},"properties":{"osm_id":"7049986139","tag":{"amenity":"waste_basket","waste":"trash"}},"type":"Feature"},
	{"geometry":{"coordinates":[16.852044,52.406321],"type":"Point"},"properties":{"osm_id":"7049986140","tag":{"amenity":"waste_basket","waste":"trash"}},"type":"Feature"},
	{"geometry":{"coordinates":[16.853532,52.40601],"type":"Point"},"properties":{"osm_id":"7049986141","tag":{"amenity":"waste_basket","waste":"trash"}},"type":"Feature"},
	{"geometry":{"coordinates":[16.854844,52.405737],"type":"Point"},"properties":{"osm_id":"7049986142","tag":{"amenity":"waste_basket","waste":"trash"}},"type":"Feature"},
	{"geometry":{"coordinates":[16.832888,52.412491],"type":"Point"},"properties":{"osm_id":"7053259695","tag":{"amenity":"waste_basket","waste":"trash"}},"type":"Feature"},
	{"geometry":{"coordinates":[16.826076,52.413526],"type":"Point"},"properties":{"osm_id":"7053358142","tag":{"amenity":"waste_basket","waste":"trash"}},"type":"Feature"},
	{"geometry":{"coordinates":[16.832101,52.413275],"type":"Point"},"properties":{"osm_id":"7053358143","tag":{"amenity":"waste_basket","waste":"trash"}},"type":"Feature"},
	{"geometry":{"coordinates":[16.825849,52.413191],"type":"Point"},"properties":{"osm_id":"7053358144","tag":{"amenity":"waste_basket","waste":"trash"}},"type":"Feature"},
	{"geometry":{"coordinates":[16.819057,52.413445],"type":"Point"},"properties":{"osm_id":"7053358145","tag":{"amenity":"waste_basket","waste":"trash"}},"type":"Feature"},
	{"geometry":{"coordinates":[16.818287,52.413379],"type":"Point"},"properties":{"osm_id":"7053358146","tag":{"amenity":"waste_basket","waste":"trash"}},"type":"Feature"},
	{"geometry":{"coordinates":[16.841593,52.410795],"type":"Point"},"properties":{"osm_id":"7057109012","tag":{"amenity":"waste_basket","waste":"trash"}},"type":"Feature"},
	{"geometry":{"coordinates":[16.841562,52.410803],"type":"Point"},"properties":{"osm_id":"7057109013","tag":{"amenity":"waste_basket","waste":"trash"}},"type":"Feature"},
	{"geometry":{"coordinates":[16.867669,52.40826],"type":"Point"},"properties":{"osm_id":"7148555687","tag":{"amenity":"waste_basket","waste":"trash"}},"type":"Feature"},
	{"geometry":{"coordinates":[16.862249,52.395311],"type":"Point"},"properties":{"osm_id":"7172863912","tag":{"amenity":"waste_basket","waste":"trash"}},"type":"Feature"},
	{"geometry":{"coordinates":[16.859812,52.405823],"type":"Point"},"properties":{"osm_id":"7213984467","tag":{"amenity":"recycling"}},"type":"Feature"},
	{"geometry":{"coordinates":[16.859813,52.405081],"type":"Point"},"properties":{"osm_id":"7214444359","tag":{"amenity":"waste_basket"}},"type":"Feature"},
	{"geometry":{"coordinates":[16.860264,52.404934],"type":"Point"},"properties":{"osm_id":"7214444361","tag":{"amenity":"waste_basket"}},"type":"Feature"},
	{"geometry":{"coordinates":[16.860569,52.405069],"type":"Point"},"properties":{"osm_id":"7214444383","tag":{"amenity":"waste_disposal"}},"type":"Feature"},
	{"geometry":{"coordinates":[16.859921,52.405258],"type":"Point"},"properties":{"osm_id":"7214464289","tag":{"amenity":"waste_basket"}},"type":"Feature"},
	{"geometry":{"coordinates":[16.859,52.40504],"type":"Point"},"properties":{"osm_id":"7214464294","tag":{"amenity":"waste_basket"}},"type":"Feature"},
	{"geometry":{"coordinates":[16.859377,52.405285],"type":"Point"},"properties":{"osm_id":"7214464313","tag":{"amenity":"waste_basket"}},"type":"Feature"},
	{"geometry":{"coordinates":[16.861703,52.404179],"type":"Point"},"properties":{"osm_id":"7214809358","tag":{"amenity":"waste_basket"}},"type":"Feature"},
	{"geometry":{"coordinates":[16.860272,52.404627],"type":"Point"},"properties":{"osm_id":"7214809361","tag":{"amenity":"waste_basket"}},"type":"Feature"},
	{"geometry":{"coordinates":[16.861277,52.404304],"type":"Point"},"properties":{"osm_id":"7214809362","tag":{"amenity":"waste_basket"}},"type":"Feature"},
	{"geometry":{"coordinates":[16.860456,52.404307],"type":"Point"},"properties":{"osm_id":"7214809369","tag":{"amenity":"waste_basket"}},"type":"Feature"},
	{"geometry":{"coordinates":[16.861775,52.404301],"type":"Point"},"properties":{"osm_id":"7214809384","tag":{"amenity":"recycling"}},"type":"Feature"},
	{"geometry":{"coordinates":[16.85949,52.404565],"type":"Point"},"properties":{"osm_id":"7214877468","tag":{"amenity":"waste_basket"}},"type":"Feature"},
	{"geometry":{"coordinates":[16.859374,52.404692],"type":"Point"},"properties":{"osm_id":"7214877472","tag":{"amenity":"waste_basket"}},"type":"Feature"},
	{"geometry":{"coordinates":[16.859941,52.404302],"type":"Point"},"properties":{"osm_id":"7214877626","tag":{"amenity":"recycling"}},"type":"Feature"},
	{"geometry":{"coordinates":[16.858518,52.404316],"type":"Point"},"properties":{"osm_id":"7214877731","tag":{"amenity":"recycling"}},"type":"Feature"},
	{"geometry":{"coordinates":[16.861819,52.405007],"type":"Point"},"properties":{"osm_id":"7214877755","tag":{"amenity":"waste_basket"}},"type":"Feature"},
	{"geometry":{"coordinates":[16.86145,52.405042],"type":"Point"},"properties":{"osm_id":"7214877756","tag":{"amenity":"waste_basket"}},"type":"Feature"},
	{"geometry":{"coordinates":[16.861264,52.405156],"type":"Point"},"properties":{"osm_id":"7214877757","tag":{"amenity":"waste_basket"}},"type":"Feature"},
	{"geometry":{"coordinates":[16.862229,52.404753],"type":"Point"},"properties":{"osm_id":"7214877758","tag":{"amenity":"waste_basket"}},"type":"Feature"},
	{"geometry":{"coordinates":[16.861882,52.404722],"type":"Point"},"properties":{"osm_id":"7214877767","tag":{"amenity":"waste_basket"}},"type":"Feature"},
	{"geometry":{"coordinates":[16.861789,52.404674],"type":"Point"},"properties":{"osm_id":"7214877768","tag":{"amenity":"recycling"}},"type":"Feature"},
	{"geometry":{"coordinates":[16.861827,52.405224],"type":"Point"},"properties":{"osm_id":"7214877790","tag":{"amenity":"waste_basket"}},"type":"Feature"},
	{"geometry":{"coordinates":[16.861104,52.405502],"type":"Point"},"properties":{"osm_id":"7214877800","tag":{"amenity":"recycling"}},"type":"Feature"},
	{"geometry":{"coordinates":[16.863962,52.410577],"type":"Point"},"properties":{"osm_id":"7611861407","tag":{"amenity":"waste_basket"}},"type":"Feature"},
	{"geometry":{"coordinates":[16.86338,52.409696],"type":"Point"},"properties":{"osm_id":"7611861408","tag":{"amenity":"waste_basket"}},"type":"Feature"},
	{"geometry":{"coordinates":[16.864301,52.411447],"type":"Point"},"properties":{"osm_id":"7611861409","tag":{"amenity":"waste_basket"}},"type":"Feature"},
	{"geometry":{"coordinates":[16.864239,52.411568],"type":"Point"},"properties":{"osm_id":"7611866097","tag":{"amenity":"waste_basket"}},"type":"Feature"},
	{"geometry":{"coordinates":[16.802656,52.396668],"type":"Point"},"properties":{"osm_id":"7613129546","tag":{"amenity":"waste_basket"}},"type":"Feature"},
	{"geometry":{"coordinates":[16.865556,52.406155],"type":"Point"},"properties":{"osm_id":"7658908033","tag":{"amenity":"recycling"}},"type":"Feature"},
	{"geometry":{"coordinates":[16.858142,52.391309],"type":"Point"},"properties":{"osm_id":"7667140651","tag":{"amenity":"waste_basket"}},"type":"Feature"},
	{"geometry":{"coordinates":[16.851478,52.401812],"type":"Point"},"properties":{"osm_id":"7669517293","tag":{"amenity":"waste_basket","waste":"trash"}},"type":"Feature"},
	{"geometry":{"coordinates":[16.852045,52.402835],"type":"Point"},"properties":{"osm_id":"7669517294","tag":{"amenity":"waste_basket","waste":"trash"}},"type":"Feature"},
	{"geometry":{"coordinates":[16.851711,52.402327],"type":"Point"},"properties":{"osm_id":"7669517296","tag":{"amenity":"waste_basket","waste":"trash"}},"type":"Feature"},
	{"geometry":{"coordinates":[16.851537,52.402684],"type":"Point"},"properties":{"osm_id":"7669517298","tag":{"amenity":"waste_basket","waste":"trash"}},"type":"Feature"},
	{"geometry":{"coordinates":[16.852009,52.402152],"type":"Point"},"properties":{"osm_id":"7669517300","tag":{"amenity":"waste_basket","waste":"trash"}},"type":"Feature"},
	{"geometry":{"coordinates":[16.851206,52.402035],"type":"Point"},"properties":{"osm_id":"7669517302","tag":{"amenity":"waste_basket","waste":"trash"}},"type":"Feature"},
	{"geometry":{"coordinates":[16.827151,52.395009],"type":"Point"},"properties":{"osm_id":"7703322411","tag":{"amenity":"waste_basket","start_date":"wiosna 2020","waste":"trash"}},"type":"Feature"},
	{"geometry":{"coordinates":[16.824787,52.414849],"type":"Point"},"properties":{"osm_id":"7707621318","tag":{"amenity":"waste_disposal"}},"type":"Feature"},
	{"geometry":{"coordinates":[16.852853,52.404387],"type":"Point"},"properties":{"osm_id":"7710578133","tag":{"amenity":"waste_basket","start_date":"kwiecie\u00c5\u0084 2020","waste":"trash"}},"type":"Feature"},
	{"geometry":{"coordinates":[16.852784,52.404325],"type":"Point"},"properties":{"osm_id":"7710578134","tag":{"amenity":"waste_basket","start_date":"kwiecie\u00c5\u0084 2020","waste":"trash"}},"type":"Feature"},
	{"geometry":{"coordinates":[16.85271,52.40426],"type":"Point"},"properties":{"osm_id":"7710578135","tag":{"amenity":"waste_basket","start_date":"kwiecie\u00c5\u0084 2020","waste":"trash"}},"type":"Feature"},
	{"geometry":{"coordinates":[16.825507,52.414767],"type":"Point"},"properties":{"osm_id":"7711398669","tag":{"amenity":"waste_basket"}},"type":"Feature"},
	{"geometry":{"coordinates":[16.826051,52.414776],"type":"Point"},"properties":{"osm_id":"7711398670","tag":{"amenity":"waste_basket"}},"type":"Feature"},
	{"geometry":{"coordinates":[16.826439,52.414733],"type":"Point"},"properties":{"osm_id":"7711398671","tag":{"amenity":"waste_basket"}},"type":"Feature"},
	{"geometry":{"coordinates":[16.826836,52.414721],"type":"Point"},"properties":{"osm_id":"7711398672","tag":{"amenity":"waste_basket"}},"type":"Feature"},
	{"geometry":{"coordinates":[16.827577,52.414813],"type":"Point"},"properties":{"osm_id":"7711398673","tag":{"amenity":"waste_basket"}},"type":"Feature"},
	{"geometry":{"coordinates":[16.828001,52.414514],"type":"Point"},"properties":{"osm_id":"7711398674","tag":{"amenity":"waste_basket"}},"type":"Feature"},
	{"geometry":{"coordinates":[16.837698,52.412965],"type":"Point"},"properties":{"osm_id":"7714575278","tag":{"amenity":"waste_basket"}},"type":"Feature"},
	{"geometry":{"coordinates":[16.829912,52.396003],"type":"Point"},"properties":{"osm_id":"7772445664","tag":{"amenity":"waste_basket","start_date":"25-30.07.2020","waste":"trash"}},"type":"Feature"},
	{"geometry":{"coordinates":[16.852542,52.404258],"type":"Point"},"properties":{"osm_id":"7772445665","tag":{"amenity":"waste_basket","start_date":"25-30.07.2020","waste":"trash"}},"type":"Feature"},
	{"geometry":{"coordinates":[16.852554,52.404253],"type":"Point"},"properties":{"osm_id":"7772445666","tag":{"amenity":"waste_basket","start_date":"25-30.07.2020","waste":"trash"}},"type":"Feature"},
	{"geometry":{"coordinates":[16.852565,52.404249],"type":"Point"},"properties":{"osm_id":"7772445667","tag":{"amenity":"waste_basket","start_date":"25-30.07.2020","waste":"trash"}},"type":"Feature"},
	{"geometry":{"coordinates":[16.852576,52.404244],"type":"Point"},"properties":{"osm_id":"7772445668","tag":{"amenity":"waste_basket","start_date":"25-30.07.2020","waste":"trash"}},"type":"Feature"},
	{"geometry":{"coordinates":[16.8407,52.400839],"type":"Point"},"properties":{"osm_id":"7772445669","tag":{"amenity":"waste_basket","start_date":"25-30.07.2020","waste":"trash"}},"type":"Feature"},
	{"geometry":{"coordinates":[16.836262,52.402068],"type":"Point"},"properties":{"osm_id":"7772445670","tag":{"amenity":"waste_basket","start_date":"25-30.07.2020","waste":"trash"}},"type":"Feature"},
	{"geometry":{"coordinates":[16.839174,52.401325],"type":"Point"},"properties":{"osm_id":"7803609635","tag":{"amenity":"waste_basket","start_date":"25-30.07.2020","waste":"trash"}},"type":"Feature"},
	{"geometry":{"coordinates":[16.804017,52.397761],"type":"Point"},"properties":{"osm_id":"7833024046","tag":{"amenity":"waste_basket","waste":"trash"}},"type":"Feature"},
	{"geometry":{"coordinates":[16.803506,52.396861],"type":"Point"},"properties":{"osm_id":"7833024047","tag":{"amenity":"waste_basket","waste":"trash"}},"type":"Feature"},
	{"geometry":{"coordinates":[16.802339,52.397226],"type":"Point"},"properties":{"osm_id":"7833024048","tag":{"amenity":"waste_basket","waste":"trash"}},"type":"Feature"},
	{"geometry":{"coordinates":[16.801773,52.396985],"type":"Point"},"properties":{"osm_id":"7833024052","tag":{"amenity":"waste_basket","waste":"trash"}},"type":"Feature"},
	{"geometry":{"coordinates":[16.801819,52.396851],"type":"Point"},"properties":{"osm_id":"7833024053","tag":{"amenity":"waste_basket","waste":"trash"}},"type":"Feature"},
	{"geometry":{"coordinates":[16.796908,52.394383],"type":"Point"},"properties":{"osm_id":"7833024054","tag":{"amenity":"waste_basket","waste":"trash"}},"type":"Feature"},
	{"geometry":{"coordinates":[16.795719,52.393738],"type":"Point"},"properties":{"osm_id":"7833024055","tag":{"amenity":"waste_basket","waste":"trash"}},"type":"Feature"},
	{"geometry":{"coordinates":[16.796295,52.393842],"type":"Point"},"properties":{"osm_id":"7833024061","tag":{"amenity":"waste_basket","waste":"trash"}},"type":"Feature"},
	{"geometry":{"coordinates":[16.795335,52.393557],"type":"Point"},"properties":{"osm_id":"7833024067","tag":{"amenity":"waste_basket","waste":"trash"}},"type":"Feature"},
	{"geometry":{"coordinates":[16.793863,52.392564],"type":"Point"},"properties":{"osm_id":"7833024068","tag":{"amenity":"waste_basket","waste":"trash"}},"type":"Feature"},
	{"geometry":{"coordinates":[16.793109,52.39235],"type":"Point"},"properties":{"osm_id":"7833024069","tag":{"amenity":"waste_basket","waste":"trash"}},"type":"Feature"},
	{"geometry":{"coordinates":[16.790811,52.39146],"type":"Point"},"properties":{"osm_id":"7833024073","tag":{"amenity":"waste_basket","waste":"trash"}},"type":"Feature"},
	{"geometry":{"coordinates":[16.790706,52.39112],"type":"Point"},"properties":{"osm_id":"7833024078","tag":{"amenity":"waste_basket","waste":"trash"}},"type":"Feature"},
	{"geometry":{"coordinates":[16.788181,52.389298],"type":"Point"},"properties":{"osm_id":"7833025286","tag":{"amenity":"waste_basket","waste":"trash"}},"type":"Feature"},
	{"geometry":{"coordinates":[16.787686,52.389108],"type":"Point"},"properties":{"osm_id":"7833025288","tag":{"amenity":"waste_basket","waste":"trash"}},"type":"Feature"},
	{"geometry":{"coordinates":[16.831324,52.406189],"type":"Point"},"properties":{"osm_id":"7852849454","tag":{"amenity":"waste_basket","waste":"trash"}},"type":"Feature"},
	{"geometry":{"coordinates":[16.831449,52.406205],"type":"Point"},"properties":{"osm_id":"7852849455","tag":{"amenity":"waste_basket","waste":"trash"}},"type":"Feature"},
	{"geometry":{"coordinates":[16.831442,52.406078],"type":"Point"},"properties":{"osm_id":"7852849456","tag":{"amenity":"waste_basket","waste":"trash"}},"type":"Feature"},
	{"geometry":{"coordinates":[16.788235,52.417008],"type":"Point"},"properties":{"osm_id":"7857227584","tag":{"amenity":"waste_basket","waste":"trash"}},"type":"Feature"},
	{"geometry":{"coordinates":[16.795247,52.392887],"type":"Point"},"properties":{"osm_id":"7873532890","tag":{"amenity":"recycling","recycling_type":"container"}},"type":"Feature"},
	{"geometry":{"coordinates":[16.795333,52.393141],"type":"Point"},"properties":{"osm_id":"7873532927","tag":{"amenity":"waste_basket","waste":"trash"}},"type":"Feature"},
	{"geometry":{"coordinates":[16.795322,52.389496],"type":"Point"},"properties":{"osm_id":"7873533073","tag":{"amenity":"waste_basket","waste":"trash"}},"type":"Feature"},
	{"geometry":{"coordinates":[16.795418,52.393254],"type":"Point"},"properties":{"osm_id":"7873533083","tag":{"amenity":"waste_basket","waste":"trash"}},"type":"Feature"},
	{"geometry":{"coordinates":[16.817957,52.410309],"type":"Point"},"properties":{"osm_id":"7879225954","tag":{"amenity":"recycling","recycling_type":"container"}},"type":"Feature"},
	{"geometry":{"coordinates":[16.819225,52.410417],"type":"Point"},"properties":{"osm_id":"7879360083","tag":{"amenity":"waste_basket","waste":"trash"}},"type":"Feature"},
	{"geometry":{"coordinates":[16.806647,52.393361],"type":"Point"},"properties":{"osm_id":"7879681877","tag":{"amenity":"recycling","recycling:batteries":"free","recycling:car_batteries":"purchase","recycling:paper":"free","recycling:scrap_metal":"purchase","recycling_type":"centre"}},"type":"Feature"},
	{"geometry":{"coordinates":[16.818869,52.406945],"type":"Point"},"properties":{"osm_id":"7881812187","tag":{"amenity":"waste_basket","waste":"trash"}},"type":"Feature"},
	{"geometry":{"coordinates":[16.818234,52.406381],"type":"Point"},"properties":{"osm_id":"7881812193","tag":{"amenity":"waste_basket","waste":"trash"}},"type":"Feature"},
	{"geometry":{"coordinates":[16.810574,52.401635],"type":"Point"},"properties":{"osm_id":"7881812201","tag":{"amenity":"waste_basket","waste":"trash"}},"type":"Feature"},
	{"geometry":{"coordinates":[16.809367,52.401856],"type":"Point"},"properties":{"osm_id":"7881812205","tag":{"amenity":"waste_disposal"}},"type":"Feature"},
	{"geometry":{"coordinates":[16.81868,52.407308],"type":"Point"},"properties":{"osm_id":"7881812206","tag":{"amenity":"waste_disposal"}},"type":"Feature"},
	{"geometry":{"coordinates":[16.80793,52.41379],"type":"Point"},"properties":{"osm_id":"7881812207","tag":{"amenity":"waste_disposal"}},"type":"Feature"},
	{"geometry":{"coordinates":[16.815081,52.412985],"type":"Point"},"properties":{"osm_id":"7881812208","tag":{"amenity":"waste_disposal"}},"type":"Feature"},
	{"geometry":{"coordinates":[16.812057,52.413713],"type":"Point"},"properties":{"osm_id":"7881812209","tag":{"amenity":"waste_disposal"}},"type":"Feature"},
	{"geometry":{"coordinates":[16.809956,52.401421],"type":"Point"},"properties":{"osm_id":"7881812234","tag":{"amenity":"waste_basket","waste":"trash"}},"type":"Feature"},
	{"geometry":{"coordinates":[16.817594,52.401341],"type":"Point"},"properties":{"osm_id":"7883847514","tag":{"amenity":"waste_disposal"}},"type":"Feature"},
	{"geometry":{"coordinates":[16.811955,52.400253],"type":"Point"},"properties":{"osm_id":"7883847578","tag":{"amenity":"waste_disposal"}},"type":"Feature"},
	{"geometry":{"coordinates":[16.839556,52.391054],"type":"Point"},"properties":{"osm_id":"7894369935","tag":{"amenity":"waste_basket","waste":"trash"}},"type":"Feature"},
	{"geometry":{"coordinates":[16.839018,52.39146],"type":"Point"},"properties":{"osm_id":"7894369936","tag":{"amenity":"waste_basket","waste":"trash"}},"type":"Feature"},
	{"geometry":{"coordinates":[16.871005,52.427875],"type":"Point"},"properties":{"osm_id":"7902379645","tag":{"amenity":"waste_basket"}},"type":"Feature"},
	{"geometry":{"coordinates":[16.870842,52.427897],"type":"Point"},"properties":{"osm_id":"7902379647","tag":{"amenity":"waste_basket"}},"type":"Feature"},
	{"geometry":{"coordinates":[16.870569,52.427929],"type":"Point"},"properties":{"osm_id":"7902379648","tag":{"amenity":"waste_basket"}},"type":"Feature"},
	{"geometry":{"coordinates":[16.870275,52.427974],"type":"Point"},"properties":{"osm_id":"7902379653","tag":{"amenity":"waste_basket"}},"type":"Feature"},
	{"geometry":{"coordinates":[16.873409,52.426358],"type":"Point"},"properties":{"osm_id":"7905139363","tag":{"amenity":"waste_basket"}},"type":"Feature"},
	{"geometry":{"coordinates":[16.793573,52.391944],"type":"Point"},"properties":{"osm_id":"7925611954","tag":{"amenity":"waste_basket","waste":"trash"}},"type":"Feature"},
	{"geometry":{"coordinates":[16.796976,52.393127],"type":"Point"},"properties":{"osm_id":"7925701916","tag":{"amenity":"waste_basket"}},"type":"Feature"},
	{"geometry":{"coordinates":[16.796705,52.393239],"type":"Point"},"properties":{"osm_id":"7925701917","tag":{"amenity":"waste_basket","waste":"trash"}},"type":"Feature"},
	{"geometry":{"coordinates":[16.803629,52.388928],"type":"Point"},"properties":{"osm_id":"7932334390","tag":{"amenity":"waste_basket","waste":"dog_excrement"}},"type":"Feature"},
	{"geometry":{"coordinates":[16.803627,52.388954],"type":"Point"},"properties":{"osm_id":"7932334391","tag":{"amenity":"waste_basket","waste":"trash"}},"type":"Feature"},
	{"geometry":{"coordinates":[16.788484,52.393989],"type":"Point"},"properties":{"osm_id":"7947953268","tag":{"amenity":"waste_basket","waste":"trash"}},"type":"Feature"},
	{"geometry":{"coordinates":[16.818965,52.411862],"type":"Point"},"properties":{"osm_id":"7948759018","tag":{"amenity":"waste_basket","waste":"trash"}},"type":"Feature"}
]
}
