{
"type": "FeatureCollection",
"features": [
	{"geometry":{"coordinates":[16.788806,48.987773],"type":"Point"},"properties":{"osm_id":"8191674110","tag":{"amenity":"recycling","recycling:glass":"yes","recycling:plastic":"yes","recycling:scrap_metal":"yes","recycling_type":"container"}},"type":"Feature"},
	{"geometry":{"coordinates":[16.7919,48.988435],"type":"Point"},"properties":{"name":"Div\u00c3\u00a1ky","osm_id":"8191674114","tag":{"amenity":"recycling","phone":"+420 608 623018","recycling_type":"centre"}},"type":"Feature"},
	{"geometry":{"coordinates":[16.79208,48.988711],"type":"Point"},"properties":{"osm_id":"8191674115","tag":{"amenity":"recycling","recycling:glass":"yes","recycling:plastic":"yes","recycling_type":"container"}},"type":"Feature"},
	{"geometry":{"coordinates":[16.867293,48.995178],"type":"Point"},"properties":{"osm_id":"8552702784","tag":{"amenity":"recycling","opening_hours":"24/7","recycling:glass":"yes","recycling:paper":"yes","recycling:plastic":"yes","recycling_type":"container","wheelchair":"yes"}},"type":"Feature"}
]
}
