{
"type": "FeatureCollection",
"lastupdate": "2020-08-04T00:00:00Z",
"features": [
	{"geometry":{"coordinates":[16.791388,47.954893],"type":"Point"},"properties":{"osm_id":"1350224124","tag":{"amenity":"waste_basket"}},"type":"Feature"},
	{"geometry":{"coordinates":[16.831103,47.949462],"type":"Point"},"properties":{"osm_id":"1806426602","tag":{"amenity":"recycling"}},"type":"Feature"},
	{"geometry":{"coordinates":[16.858812,47.986244],"type":"Point"},"properties":{"name":"Bauhof","osm_id":"1930477962","tag":{"amenity":"recycling","recycling_type":"centre"}},"type":"Feature"},
	{"geometry":{"coordinates":[16.842326,47.972614],"type":"Point"},"properties":{"name":"P\u00c3\u00b6ck Umweltservice","osm_id":"1974808101","tag":{"addr:housenumber":"1","addr:street":"Ludwig-Boltzmann-Stra\u00dfe","amenity":"recycling","opening_hours":"Mo-Th 07:00-12:00,13:00-17:00;Fr 07:00-14:00","recycling_type":"centre"}},"type":"Feature"},
	{"geometry":{"coordinates":[16.844771,47.942712],"type":"Point"},"properties":{"osm_id":"3428486810","tag":{"amenity":"waste_basket"}},"type":"Feature"},
	{"geometry":{"coordinates":[16.850137,47.977485],"type":"Point"},"properties":{"osm_id":"6185396117","tag":{"access":"destination","amenity":"recycling","recycling_type":"container"}},"type":"Feature"}
]
}
