{
"type": "FeatureCollection",
"features": [
	{"geometry":{"coordinates":[16.874563,47.922803],"type":"Point"},"properties":{"highway":"bus_stop","name":"Weiden am See Untere Hauptstra\u00c3\u009fe","osm_id":"1653666575","tag":{"amenity":"waste_basket","bus":"yes","departures_board":"timetable","network":"VOR","public_transport":"platform","shelter":"yes"}},"type":"Feature"},
	{"geometry":{"coordinates":[16.868326,47.925997],"type":"Point"},"properties":{"highway":"bus_stop","name":"Weiden am See Raiffeisenplatz","osm_id":"4499056211","tag":{"amenity":"waste_basket","bus":"yes","departures_board":"timetable","network":"VOR","public_transport":"platform","shelter":"yes"}},"type":"Feature"},
	{"geometry":{"coordinates":[16.868731,47.925929],"type":"Point"},"properties":{"osm_id":"7937832561","tag":{"amenity":"waste_basket"}},"type":"Feature"},
	{"geometry":{"coordinates":[16.868665,47.925806],"type":"Point"},"properties":{"osm_id":"7937832563","tag":{"amenity":"waste_basket"}},"type":"Feature"},
	{"geometry":{"coordinates":[16.869256,47.925666],"type":"Point"},"properties":{"osm_id":"7937832565","tag":{"amenity":"waste_basket"}},"type":"Feature"},
	{"geometry":{"coordinates":[16.873782,47.923044],"type":"Point"},"properties":{"osm_id":"7937832577","tag":{"amenity":"waste_basket"}},"type":"Feature"}
]
}
