{
"type": "FeatureCollection",
"features": [
	{"geometry":{"coordinates":[16.828511,46.836881],"type":"Point"},"properties":{"osm_id":"514999662","tag":{"amenity":"recycling"}},"type":"Feature"},
	{"geometry":{"coordinates":[16.827541,46.836487],"type":"Point"},"properties":{"osm_id":"514999670","tag":{"amenity":"recycling"}},"type":"Feature"},
	{"geometry":{"coordinates":[16.832781,46.837135],"type":"Point"},"properties":{"osm_id":"514999728","tag":{"amenity":"recycling"}},"type":"Feature"},
	{"geometry":{"coordinates":[16.849281,46.842439],"type":"Point"},"properties":{"osm_id":"3479941997","tag":{"amenity":"recycling","source:date":"2012-04-26","url":"http://turistautak.hu/poi.php?id=137775"}},"type":"Feature"},
	{"geometry":{"coordinates":[16.851683,46.844933],"type":"Point"},"properties":{"osm_id":"3479942001","tag":{"addr:city":"Zalaegerszeg","addr:housenumber":"1","addr:postcode":"8900","addr:street":"Stadion utca","amenity":"recycling","source:date":"2012-01-20","url":"http://turistautak.hu/poi.php?id=6681"}},"type":"Feature"},
	{"geometry":{"coordinates":[16.79849,46.853894],"type":"Point"},"properties":{"osm_id":"3479942023","tag":{"amenity":"recycling","source:date":"2012-08-26","url":"http://turistautak.hu/poi.php?id=143852"}},"type":"Feature"},
	{"geometry":{"coordinates":[16.795617,46.854257],"type":"Point"},"properties":{"osm_id":"3479942025","tag":{"amenity":"recycling","source:date":"2011-09-19","url":"http://turistautak.hu/poi.php?id=50076"}},"type":"Feature"},
	{"geometry":{"coordinates":[16.848841,46.843793],"type":"Point"},"properties":{"osm_id":"4794763884","tag":{"amenity":"recycling","recycling:cans":"yes","recycling:glass_bottles":"yes","recycling:paper":"yes","recycling:plastic":"yes","recycling_type":"container"}},"type":"Feature"},
	{"geometry":{"coordinates":[16.848761,46.844528],"type":"Point"},"properties":{"osm_id":"4795278237","tag":{"amenity":"recycling"}},"type":"Feature"},
	{"geometry":{"coordinates":[16.854965,46.843509],"type":"Point"},"properties":{"osm_id":"4795278427","tag":{"amenity":"recycling","recycling:cans":"yes","recycling:glass_bottles":"yes","recycling:paper":"yes","recycling:plastic":"yes","recycling_type":"container"}},"type":"Feature"},
	{"geometry":{"coordinates":[16.853077,46.84484],"type":"Point"},"properties":{"osm_id":"5209963086","tag":{"amenity":"recycling","recycling:aluminium":"yes","recycling:paper":"yes","recycling:plastic":"yes"}},"type":"Feature"},
	{"geometry":{"coordinates":[16.827811,46.832906],"type":"Point"},"properties":{"osm_id":"6723107444","tag":{"amenity":"recycling","recycling:glass":"yes","recycling:paper":"yes","recycling:plastic":"yes","recycling_type":"container"}},"type":"Feature"},
	{"geometry":{"coordinates":[16.86367,46.846087],"type":"Point"},"properties":{"osm_id":"6778201340","tag":{"amenity":"waste_basket","colour":"Green","material":"wood"}},"type":"Feature"},
	{"geometry":{"coordinates":[16.829768,46.821575],"type":"Point"},"properties":{"osm_id":"6782201842","tag":{"amenity":"waste_basket","material":"steel"}},"type":"Feature"},
	{"geometry":{"coordinates":[16.828983,46.822251],"type":"Point"},"properties":{"osm_id":"6782205357","tag":{"amenity":"recycling","recycling_type":"container"}},"type":"Feature"},
	{"geometry":{"coordinates":[16.850597,46.844805],"type":"Point"},"properties":{"osm_id":"6985157702","tag":{"amenity":"recycling","recycling_type":"container"}},"type":"Feature"},
	{"geometry":{"coordinates":[16.845943,46.845404],"type":"Point"},"properties":{"osm_id":"7008348143","tag":{"amenity":"waste_basket"}},"type":"Feature"},
	{"geometry":{"coordinates":[16.845747,46.845132],"type":"Point"},"properties":{"osm_id":"7008348144","tag":{"amenity":"waste_basket","material":"metal"}},"type":"Feature"},
	{"geometry":{"coordinates":[16.844205,46.845117],"type":"Point"},"properties":{"osm_id":"7008348147","tag":{"amenity":"waste_basket","waste":"trash"}},"type":"Feature"},
	{"geometry":{"coordinates":[16.846989,46.845497],"type":"Point"},"properties":{"osm_id":"7008348148","tag":{"amenity":"waste_basket","material":"metal"}},"type":"Feature"},
	{"geometry":{"coordinates":[16.847286,46.845473],"type":"Point"},"properties":{"osm_id":"7008348149","tag":{"amenity":"waste_basket"}},"type":"Feature"},
	{"geometry":{"coordinates":[16.84927,46.845493],"type":"Point"},"properties":{"osm_id":"7008348150","tag":{"amenity":"waste_basket"}},"type":"Feature"},
	{"geometry":{"coordinates":[16.849454,46.845462],"type":"Point"},"properties":{"osm_id":"7008348151","tag":{"amenity":"waste_basket"}},"type":"Feature"},
	{"geometry":{"coordinates":[16.851022,46.84557],"type":"Point"},"properties":{"osm_id":"7008348152","tag":{"amenity":"waste_basket"}},"type":"Feature"},
	{"geometry":{"coordinates":[16.851288,46.845583],"type":"Point"},"properties":{"osm_id":"7008348153","tag":{"amenity":"waste_basket"}},"type":"Feature"},
	{"geometry":{"coordinates":[16.851459,46.845654],"type":"Point"},"properties":{"osm_id":"7008348154","tag":{"amenity":"waste_basket"}},"type":"Feature"},
	{"geometry":{"coordinates":[16.861723,46.845728],"type":"Point"},"properties":{"osm_id":"7008348155","tag":{"amenity":"waste_basket","colour":"green","material":"metal"}},"type":"Feature"},
	{"geometry":{"coordinates":[16.847224,46.846334],"type":"Point"},"properties":{"osm_id":"7011429767","tag":{"amenity":"waste_basket"}},"type":"Feature"},
	{"geometry":{"coordinates":[16.84727,46.846641],"type":"Point"},"properties":{"osm_id":"7011429768","tag":{"amenity":"waste_basket"}},"type":"Feature"},
	{"geometry":{"coordinates":[16.846822,46.846106],"type":"Point"},"properties":{"osm_id":"7011429769","tag":{"amenity":"waste_basket"}},"type":"Feature"},
	{"geometry":{"coordinates":[16.846156,46.845787],"type":"Point"},"properties":{"osm_id":"7011429770","tag":{"amenity":"waste_basket"}},"type":"Feature"},
	{"geometry":{"coordinates":[16.860096,46.844723],"type":"Point"},"properties":{"osm_id":"7026175825","tag":{"amenity":"waste_basket"}},"type":"Feature"},
	{"geometry":{"coordinates":[16.8603,46.844688],"type":"Point"},"properties":{"osm_id":"7026175826","tag":{"amenity":"waste_basket"}},"type":"Feature"},
	{"geometry":{"coordinates":[16.847508,46.845216],"type":"Point"},"properties":{"osm_id":"7026178517","tag":{"amenity":"waste_basket"}},"type":"Feature"},
	{"geometry":{"coordinates":[16.848612,46.84485],"type":"Point"},"properties":{"osm_id":"7026178518","tag":{"amenity":"waste_basket"}},"type":"Feature"},
	{"geometry":{"coordinates":[16.851281,46.844369],"type":"Point"},"properties":{"osm_id":"7026178519","tag":{"amenity":"waste_basket"}},"type":"Feature"},
	{"geometry":{"coordinates":[16.851261,46.844721],"type":"Point"},"properties":{"osm_id":"7026178520","tag":{"amenity":"waste_basket"}},"type":"Feature"},
	{"geometry":{"coordinates":[16.851439,46.843948],"type":"Point"},"properties":{"osm_id":"7026178523","tag":{"amenity":"waste_basket"}},"type":"Feature"},
	{"geometry":{"coordinates":[16.851495,46.844289],"type":"Point"},"properties":{"osm_id":"7050144821","tag":{"amenity":"waste_basket"}},"type":"Feature"},
	{"geometry":{"coordinates":[16.851219,46.845266],"type":"Point"},"properties":{"osm_id":"7050144822","tag":{"amenity":"waste_basket"}},"type":"Feature"},
	{"geometry":{"coordinates":[16.848512,46.844844],"type":"Point"},"properties":{"osm_id":"7050144823","tag":{"amenity":"waste_basket"}},"type":"Feature"},
	{"geometry":{"coordinates":[16.853148,46.844054],"type":"Point"},"properties":{"osm_id":"7050144824","tag":{"amenity":"waste_basket"}},"type":"Feature"},
	{"geometry":{"coordinates":[16.85173,46.843991],"type":"Point"},"properties":{"osm_id":"7050144825","tag":{"amenity":"waste_basket"}},"type":"Feature"},
	{"geometry":{"coordinates":[16.859737,46.844889],"type":"Point"},"properties":{"osm_id":"7050144826","tag":{"amenity":"waste_basket"}},"type":"Feature"},
	{"geometry":{"coordinates":[16.843377,46.84517],"type":"Point"},"properties":{"osm_id":"7111693827","tag":{"amenity":"waste_basket"}},"type":"Feature"},
	{"geometry":{"coordinates":[16.843446,46.845364],"type":"Point"},"properties":{"osm_id":"7111693828","tag":{"amenity":"waste_basket"}},"type":"Feature"},
	{"geometry":{"coordinates":[16.842186,46.845486],"type":"Point"},"properties":{"osm_id":"7111693829","tag":{"amenity":"waste_basket"}},"type":"Feature"},
	{"geometry":{"coordinates":[16.841435,46.845655],"type":"Point"},"properties":{"osm_id":"7111693830","tag":{"amenity":"waste_basket"}},"type":"Feature"},
	{"geometry":{"coordinates":[16.840586,46.845791],"type":"Point"},"properties":{"osm_id":"7111693831","tag":{"amenity":"waste_basket"}},"type":"Feature"},
	{"geometry":{"coordinates":[16.846185,46.836701],"type":"Point"},"properties":{"osm_id":"7728269344","tag":{"amenity":"waste_basket"}},"type":"Feature"},
	{"geometry":{"coordinates":[16.847925,46.83701],"type":"Point"},"properties":{"osm_id":"7728269345","tag":{"amenity":"waste_basket"}},"type":"Feature"},
	{"geometry":{"coordinates":[16.823176,46.815086],"type":"Point"},"properties":{"osm_id":"7796267549","tag":{"amenity":"waste_basket"}},"type":"Feature"},
	{"geometry":{"coordinates":[16.861391,46.844595],"type":"Point"},"properties":{"osm_id":"7878060077","tag":{"amenity":"waste_basket"}},"type":"Feature"},
	{"geometry":{"coordinates":[16.861564,46.844493],"type":"Point"},"properties":{"osm_id":"7878060078","tag":{"amenity":"waste_basket"}},"type":"Feature"},
	{"geometry":{"coordinates":[16.843888,46.841956],"type":"Point"},"properties":{"osm_id":"7887693430","tag":{"amenity":"waste_basket","colour":"green","material":"metal","waste":"trash"}},"type":"Feature"}
]
}
