{
"type": "FeatureCollection",
"features": [
	{"geometry":{"coordinates":[16.854536,41.075446],"type":"Point"},"properties":{"osm_id":"624296943","tag":{"amenity":"recycling","recycling_type":"container"}},"type":"Feature"},
	{"geometry":{"coordinates":[16.856399,41.075693],"type":"Point"},"properties":{"osm_id":"624296949","tag":{"amenity":"recycling","recycling_type":"container"}},"type":"Feature"},
	{"geometry":{"coordinates":[16.858038,41.075584],"type":"Point"},"properties":{"osm_id":"624296955","tag":{"amenity":"waste_basket"}},"type":"Feature"},
	{"geometry":{"coordinates":[16.856287,41.077315],"type":"Point"},"properties":{"osm_id":"624296961","tag":{"amenity":"waste_basket"}},"type":"Feature"},
	{"geometry":{"coordinates":[16.857638,41.076596],"type":"Point"},"properties":{"osm_id":"632353718","tag":{"amenity":"waste_basket"}},"type":"Feature"},
	{"geometry":{"coordinates":[16.858231,41.073088],"type":"Point"},"properties":{"osm_id":"632358377","tag":{"amenity":"waste_basket"}},"type":"Feature"},
	{"geometry":{"coordinates":[16.86319,41.067401],"type":"Point"},"properties":{"osm_id":"633010010","tag":{"amenity":"recycling"}},"type":"Feature"},
	{"geometry":{"coordinates":[16.863341,41.083362],"type":"Point"},"properties":{"osm_id":"635969557","tag":{"amenity":"recycling"}},"type":"Feature"},
	{"geometry":{"coordinates":[16.855288,41.073336],"type":"Point"},"properties":{"osm_id":"640091052","tag":{"amenity":"waste_basket"}},"type":"Feature"},
	{"geometry":{"coordinates":[16.855228,41.073931],"type":"Point"},"properties":{"osm_id":"640091064","tag":{"amenity":"waste_basket"}},"type":"Feature"},
	{"geometry":{"coordinates":[16.855934,41.07437],"type":"Point"},"properties":{"osm_id":"640091073","tag":{"amenity":"waste_basket"}},"type":"Feature"},
	{"geometry":{"coordinates":[16.858936,41.073611],"type":"Point"},"properties":{"osm_id":"640091126","tag":{"amenity":"waste_basket"}},"type":"Feature"},
	{"geometry":{"coordinates":[16.856825,41.072905],"type":"Point"},"properties":{"osm_id":"640091131","tag":{"amenity":"waste_basket"}},"type":"Feature"},
	{"geometry":{"coordinates":[16.856099,41.072893],"type":"Point"},"properties":{"osm_id":"640091145","tag":{"amenity":"waste_basket"}},"type":"Feature"},
	{"geometry":{"coordinates":[16.855578,41.072842],"type":"Point"},"properties":{"osm_id":"640091160","tag":{"amenity":"waste_basket"}},"type":"Feature"},
	{"geometry":{"coordinates":[16.871912,41.071315],"type":"Point"},"properties":{"osm_id":"1278234682","tag":{"amenity":"recycling"}},"type":"Feature"},
	{"geometry":{"coordinates":[16.861301,41.075577],"type":"Point"},"properties":{"osm_id":"1498834910","tag":{"amenity":"recycling","recycling_type":"container"}},"type":"Feature"},
	{"geometry":{"coordinates":[16.865636,41.106613],"type":"Point"},"properties":{"osm_id":"1602344062","tag":{"amenity":"recycling","recycling:cartons":"yes","recycling:paper":"yes","recycling_type":"container"}},"type":"Feature"},
	{"geometry":{"coordinates":[16.787239,41.09318],"type":"Point"},"properties":{"name":"Recuperi Pugliesi","osm_id":"1950561340","tag":{"amenity":"recycling","recycling_type":"centre"}},"type":"Feature"},
	{"geometry":{"coordinates":[16.87439,41.10746],"type":"Point"},"properties":{"osm_id":"3873437429","tag":{"amenity":"recycling","recycling_type":"container"}},"type":"Feature"},
	{"geometry":{"coordinates":[16.863272,41.080925],"type":"Point"},"properties":{"osm_id":"3932391657","tag":{"amenity":"recycling","recycling_type":"container"}},"type":"Feature"},
	{"geometry":{"coordinates":[16.85306,41.046469],"type":"Point"},"properties":{"name":"cassonetti","osm_id":"4456279457","tag":{"amenity":"waste_disposal"}},"type":"Feature"},
	{"geometry":{"coordinates":[16.871108,41.073819],"type":"Point"},"properties":{"osm_id":"5171354775","tag":{"amenity":"waste_basket","waste":"dog_excrement"}},"type":"Feature"},
	{"geometry":{"coordinates":[16.869627,41.073785],"type":"Point"},"properties":{"osm_id":"5171377433","tag":{"amenity":"recycling"}},"type":"Feature"},
	{"geometry":{"coordinates":[16.871894,41.074153],"type":"Point"},"properties":{"osm_id":"5927267873","tag":{"amenity":"recycling"}},"type":"Feature"},
	{"geometry":{"coordinates":[16.870861,41.073823],"type":"Point"},"properties":{"osm_id":"5927346394","tag":{"amenity":"waste_basket"}},"type":"Feature"},
	{"geometry":{"coordinates":[16.869692,41.073702],"type":"Point"},"properties":{"osm_id":"5927346395","tag":{"amenity":"waste_basket"}},"type":"Feature"},
	{"geometry":{"coordinates":[16.870183,41.0745],"type":"Point"},"properties":{"osm_id":"5927346396","tag":{"amenity":"recycling"}},"type":"Feature"},
	{"geometry":{"coordinates":[16.871075,41.074202],"type":"Point"},"properties":{"osm_id":"5927346400","tag":{"amenity":"waste_basket"}},"type":"Feature"},
	{"geometry":{"coordinates":[16.870854,41.074275],"type":"Point"},"properties":{"osm_id":"5927346402","tag":{"amenity":"waste_basket"}},"type":"Feature"},
	{"geometry":{"coordinates":[16.870127,41.074458],"type":"Point"},"properties":{"osm_id":"5927346411","tag":{"amenity":"waste_basket"}},"type":"Feature"},
	{"geometry":{"coordinates":[16.870166,41.073985],"type":"Point"},"properties":{"osm_id":"5927346413","tag":{"amenity":"waste_basket"}},"type":"Feature"},
	{"geometry":{"coordinates":[16.870624,41.073655],"type":"Point"},"properties":{"osm_id":"5927346417","tag":{"amenity":"waste_basket"}},"type":"Feature"},
	{"geometry":{"coordinates":[16.870844,41.073495],"type":"Point"},"properties":{"osm_id":"5927346418","tag":{"amenity":"recycling"}},"type":"Feature"},
	{"geometry":{"coordinates":[16.850878,41.047139],"type":"Point"},"properties":{"osm_id":"6337570658","tag":{"amenity":"recycling"}},"type":"Feature"},
	{"geometry":{"coordinates":[16.867297,41.106693],"type":"Point"},"properties":{"osm_id":"7154658070","tag":{"amenity":"recycling"}},"type":"Feature"},
	{"geometry":{"coordinates":[16.863154,41.097083],"type":"Point"},"properties":{"osm_id":"7258948893","tag":{"amenity":"recycling"}},"type":"Feature"},
	{"geometry":{"coordinates":[16.865121,41.100038],"type":"Point"},"properties":{"barrier":"gate","osm_id":"7415293208"},"type":"Feature"},
	{"geometry":{"coordinates":[16.868638,41.072406],"type":"Point"},"properties":{"osm_id":"7728201591","tag":{"amenity":"waste_basket","waste":"dog_excrement"}},"type":"Feature"},
	{"geometry":{"coordinates":[16.869634,41.073843],"type":"Point"},"properties":{"osm_id":"7728201592","tag":{"amenity":"waste_basket","waste":"dog_excrement"}},"type":"Feature"}
]
}
