{
"type": "FeatureCollection",
"features": [
	{"geometry":{"coordinates":[16.8702,41.001796],"type":"Point"},"properties":{"osm_id":"3152601857","tag":{"amenity":"recycling","recycling:cooking_oil":"yes","recycling_type":"container"}},"type":"Feature"},
	{"geometry":{"coordinates":[16.870211,41.001775],"type":"Point"},"properties":{"osm_id":"3311858954","tag":{"amenity":"recycling","recycling:hazardous_waste":"yes","recycling_type":"container"}},"type":"Feature"},
	{"geometry":{"coordinates":[16.86779,41.003656],"type":"Point"},"properties":{"osm_id":"3732558529","tag":{"amenity":"recycling","recycling:batteries":"yes","recycling:hazardous_waste":"yes","recycling_type":"container"}},"type":"Feature"},
	{"geometry":{"coordinates":[16.852577,41.043507],"type":"Point"},"properties":{"name":"cassonetti","osm_id":"4456279448","tag":{"amenity":"waste_disposal"}},"type":"Feature"},
	{"geometry":{"coordinates":[16.85171,41.043256],"type":"Point"},"properties":{"name":"cassonetti","osm_id":"4456279449","tag":{"amenity":"waste_disposal"}},"type":"Feature"},
	{"geometry":{"coordinates":[16.852727,41.041243],"type":"Point"},"properties":{"name":"cassonetti","osm_id":"4456279450","tag":{"amenity":"waste_disposal"}},"type":"Feature"},
	{"geometry":{"coordinates":[16.852571,41.041263],"type":"Point"},"properties":{"name":"cassonetti","osm_id":"4456279451","tag":{"amenity":"waste_disposal"}},"type":"Feature"},
	{"geometry":{"coordinates":[16.851461,41.041674],"type":"Point"},"properties":{"name":"cassonetti","osm_id":"4456279452","tag":{"amenity":"waste_disposal"}},"type":"Feature"},
	{"geometry":{"coordinates":[16.851429,41.042277],"type":"Point"},"properties":{"name":"cassonetti","osm_id":"4456279453","tag":{"amenity":"waste_disposal"}},"type":"Feature"},
	{"geometry":{"coordinates":[16.85038,41.044278],"type":"Point"},"properties":{"name":"cassonetti","osm_id":"4456279454","tag":{"amenity":"waste_disposal"}},"type":"Feature"},
	{"geometry":{"coordinates":[16.851002,41.044759],"type":"Point"},"properties":{"name":"cassonetti","osm_id":"4456279455","tag":{"amenity":"waste_disposal"}},"type":"Feature"},
	{"geometry":{"coordinates":[16.850753,41.045807],"type":"Point"},"properties":{"name":"cassonetti","osm_id":"4456279456","tag":{"amenity":"waste_disposal"}},"type":"Feature"}
]
}
