{
"type": "FeatureCollection",
"features": [
	{"geometry":{"coordinates":[26.073988,52.133806],"type":"Point"},"properties":{"osm_id":"8914082378","tag":{"access":"yes","amenity":"waste_disposal","waste":"recycling;trash;organic;glass;plastic"}},"type":"Feature"},
	{"geometry":{"coordinates":[26.076302,52.134529],"type":"Point"},"properties":{"osm_id":"8914082497","tag":{"amenity":"waste_basket","material":"stone","waste":"mixed"}},"type":"Feature"},
	{"geometry":{"coordinates":[26.073989,52.133747],"type":"Point"},"properties":{"osm_id":"8914577408","tag":{"amenity":"recycling","opening_hours":"24/7","opening_hours:covid19":"open","recycling:glass":"yes","recycling:glass_bottles":"yes","recycling:newspaper":"yes","recycling:paper":"yes","recycling:plastic":"yes","recycling:plastic_bottles":"yes","recycling_type":"container"}},"type":"Feature"},
	{"geometry":{"coordinates":[26.070618,52.1327],"type":"Point"},"properties":{"osm_id":"8914652923","tag":{"amenity":"recycling","opening_hours":"24/7","opening_hours:covid19":"open","recycling:glass":"yes","recycling:glass_bottles":"yes","recycling:newspaper":"yes","recycling:paper":"yes","recycling:plastic":"yes","recycling:plastic_bottles":"yes","recycling_type":"container"}},"type":"Feature"},
	{"geometry":{"coordinates":[26.072792,52.132403],"type":"Point"},"properties":{"osm_id":"8914652971","tag":{"amenity":"waste_basket"}},"type":"Feature"},
	{"geometry":{"coordinates":[26.072362,52.132034],"type":"Point"},"properties":{"osm_id":"8914652972","tag":{"amenity":"waste_basket"}},"type":"Feature"},
	{"geometry":{"coordinates":[26.072343,52.132801],"type":"Point"},"properties":{"osm_id":"8914652978","tag":{"amenity":"waste_disposal"}},"type":"Feature"},
	{"geometry":{"coordinates":[26.070624,52.132653],"type":"Point"},"properties":{"osm_id":"8915550038","tag":{"amenity":"waste_disposal","waste":"mixed"}},"type":"Feature"},
	{"geometry":{"coordinates":[26.072941,52.133687],"type":"Point"},"properties":{"osm_id":"8915766385","tag":{"amenity":"waste_disposal"}},"type":"Feature"},
	{"geometry":{"coordinates":[26.072679,52.133991],"type":"Point"},"properties":{"osm_id":"8915766386","tag":{"amenity":"waste_basket"}},"type":"Feature"},
	{"geometry":{"coordinates":[26.072678,52.134095],"type":"Point"},"properties":{"osm_id":"8915766387","tag":{"amenity":"waste_basket"}},"type":"Feature"},
	{"geometry":{"coordinates":[26.072933,52.134174],"type":"Point"},"properties":{"osm_id":"8915766388","tag":{"amenity":"waste_basket"}},"type":"Feature"},
	{"geometry":{"coordinates":[26.073086,52.134078],"type":"Point"},"properties":{"osm_id":"8915766389","tag":{"amenity":"waste_basket"}},"type":"Feature"},
	{"geometry":{"coordinates":[26.0776,52.13329],"type":"Point"},"properties":{"osm_id":"8916234217","tag":{"amenity":"recycling","recycling:glass":"yes","recycling:glass_bottles":"yes","recycling:paper":"yes","recycling:plastic":"yes","recycling:plastic_packaging":"yes","recycling:scrap_metal":"yes","recycling_type":"container"}},"type":"Feature"},
	{"geometry":{"coordinates":[26.077582,52.13334],"type":"Point"},"properties":{"osm_id":"8916234218","tag":{"amenity":"waste_disposal","waste":"mixed"}},"type":"Feature"},
	{"geometry":{"coordinates":[26.079823,52.13069],"type":"Point"},"properties":{"name":"\u00d0\u009f\u00d1\u0080\u00d0\u00b8\u00d1\u0091\u00d0\u00bc \u00d1\u0081\u00d1\u0082\u00d1\u0080\u00d0\u00b5\u00d0\u00ba\u00d0\u00bb\u00d0\u00b0","osm_id":"8916234322","tag":{"amenity":"recycling","recycling_type":"centre"}},"type":"Feature"},
	{"geometry":{"coordinates":[26.072857,52.134136],"type":"Point"},"properties":{"osm_id":"8916761019","tag":{"amenity":"waste_basket"}},"type":"Feature"},
	{"geometry":{"coordinates":[26.072101,52.134522],"type":"Point"},"properties":{"osm_id":"8916761021","tag":{"amenity":"waste_disposal"}},"type":"Feature"},
	{"geometry":{"coordinates":[26.072177,52.134533],"type":"Point"},"properties":{"osm_id":"8916761022","tag":{"amenity":"recycling","recycling_type":"container"}},"type":"Feature"},
	{"geometry":{"coordinates":[26.072482,52.130257],"type":"Point"},"properties":{"osm_id":"8916761038","tag":{"amenity":"waste_disposal"}},"type":"Feature"},
	{"geometry":{"coordinates":[26.072485,52.13021],"type":"Point"},"properties":{"osm_id":"8916761039","tag":{"amenity":"recycling","recycling_type":"container"}},"type":"Feature"},
	{"geometry":{"coordinates":[26.07078,52.134211],"type":"Point"},"properties":{"osm_id":"8916761061","tag":{"amenity":"recycling","recycling:batteries":"yes","recycling_type":"container"}},"type":"Feature"},
	{"geometry":{"coordinates":[26.074357,52.132222],"type":"Point"},"properties":{"osm_id":"8918575518","tag":{"amenity":"recycling","recycling:books":"yes","recycling:glass":"yes","recycling:glass_bottles":"yes","recycling:newspaper":"yes","recycling:paper":"yes","recycling:plastic":"yes","recycling:plastic_bottles":"yes","recycling_type":"container"}},"type":"Feature"},
	{"geometry":{"coordinates":[26.07435,52.132189],"type":"Point"},"properties":{"osm_id":"8918575519","tag":{"amenity":"waste_disposal","waste":"mixed"}},"type":"Feature"},
	{"geometry":{"coordinates":[26.078139,52.133853],"type":"Point"},"properties":{"osm_id":"8918575568","tag":{"amenity":"recycling","recycling_type":"container"}},"type":"Feature"},
	{"geometry":{"coordinates":[26.078186,52.133861],"type":"Point"},"properties":{"osm_id":"8918575569","tag":{"amenity":"waste_disposal"}},"type":"Feature"},
	{"geometry":{"coordinates":[26.080578,52.133641],"type":"Point"},"properties":{"osm_id":"8919061370","tag":{"amenity":"recycling","recycling_type":"container"}},"type":"Feature"},
	{"geometry":{"coordinates":[26.080667,52.133651],"type":"Point"},"properties":{"osm_id":"8919061371","tag":{"amenity":"waste_disposal"}},"type":"Feature"},
	{"geometry":{"coordinates":[26.074421,52.131492],"type":"Point"},"properties":{"osm_id":"8920128502","tag":{"amenity":"waste_basket"}},"type":"Feature"}
]
}
