{
"type": "FeatureCollection",
"lastupdate": "2020-08-02T00:00:00Z",
"features": [
	{"geometry":{"coordinates":[26.098405,44.533447],"type":"Point"},"properties":{"osm_id":"5401239386","tag":{"amenity":"recycling","recycling_type":"container"}},"type":"Feature"},
	{"geometry":{"coordinates":[26.097557,44.533453],"type":"Point"},"properties":{"osm_id":"5406874568","tag":{"amenity":"recycling","recycling_type":"container"}},"type":"Feature"},
	{"geometry":{"coordinates":[26.096681,44.533376],"type":"Point"},"properties":{"osm_id":"5426461521","tag":{"amenity":"recycling","operator":"REBU","recycling:aluminium":"yes","recycling:cartons":"yes","recycling:glass":"yes","recycling:glass_bottles":"yes","recycling:metal":"yes","recycling:paper":"yes","recycling:plastic":"yes","recycling:plastic_bottles":"yes","recycling_type":"container"}},"type":"Feature"},
	{"geometry":{"coordinates":[26.098759,44.534024],"type":"Point"},"properties":{"osm_id":"5427238789","tag":{"amenity":"waste_basket"}},"type":"Feature"},
	{"geometry":{"coordinates":[26.102258,44.532275],"type":"Point"},"properties":{"osm_id":"5505470299","tag":{"amenity":"recycling","recycling_type":"container"}},"type":"Feature"},
	{"geometry":{"coordinates":[26.101067,44.532829],"type":"Point"},"properties":{"osm_id":"5505470304","tag":{"amenity":"recycling","recycling_type":"container"}},"type":"Feature"},
	{"geometry":{"coordinates":[26.099274,44.532783],"type":"Point"},"properties":{"osm_id":"5505470309","tag":{"amenity":"recycling","recycling_type":"container"}},"type":"Feature"},
	{"geometry":{"coordinates":[26.101944,44.533541],"type":"Point"},"properties":{"osm_id":"5505604807","tag":{"amenity":"recycling","recycling_type":"container"}},"type":"Feature"},
	{"geometry":{"coordinates":[26.094876,44.534097],"type":"Point"},"properties":{"osm_id":"5505605342","tag":{"amenity":"recycling","recycling_type":"container"}},"type":"Feature"},
	{"geometry":{"coordinates":[26.09455,44.534024],"type":"Point"},"properties":{"osm_id":"5505605347","tag":{"amenity":"recycling","recycling_type":"container"}},"type":"Feature"},
	{"geometry":{"coordinates":[26.098465,44.532807],"type":"Point"},"properties":{"osm_id":"5506024333","tag":{"amenity":"recycling","recycling_type":"container"}},"type":"Feature"},
	{"geometry":{"coordinates":[26.10188,44.53064],"type":"Point"},"properties":{"osm_id":"5506024334","tag":{"amenity":"recycling","recycling_type":"container"}},"type":"Feature"},
	{"geometry":{"coordinates":[26.10307,44.530869],"type":"Point"},"properties":{"osm_id":"5506024335","tag":{"amenity":"recycling","recycling_type":"container"}},"type":"Feature"},
	{"geometry":{"coordinates":[26.07567,44.585074],"type":"Point"},"properties":{"osm_id":"5773738458","tag":{"amenity":"waste_basket","level":"0","waste":"trash"}},"type":"Feature"},
	{"geometry":{"coordinates":[26.103357,44.532862],"type":"Point"},"properties":{"osm_id":"6015258322","tag":{"amenity":"recycling","recycling_type":"container"}},"type":"Feature"},
	{"geometry":{"coordinates":[26.096,44.534017],"type":"Point"},"properties":{"osm_id":"6015313499","tag":{"amenity":"recycling","recycling_type":"container"}},"type":"Feature"},
	{"geometry":{"coordinates":[26.094044,44.533403],"type":"Point"},"properties":{"osm_id":"6015313500","tag":{"amenity":"recycling","recycling_type":"container"}},"type":"Feature"},
	{"geometry":{"coordinates":[26.094737,44.534525],"type":"Point"},"properties":{"osm_id":"6745898818","tag":{"amenity":"waste_basket"}},"type":"Feature"},
	{"geometry":{"coordinates":[26.101061,44.533921],"type":"Point"},"properties":{"osm_id":"6745898819","tag":{"amenity":"waste_basket"}},"type":"Feature"},
	{"geometry":{"coordinates":[26.096442,44.532996],"type":"Point"},"properties":{"osm_id":"6745950788","tag":{"amenity":"waste_basket"}},"type":"Feature"},
	{"geometry":{"coordinates":[26.098586,44.533717],"type":"Point"},"properties":{"osm_id":"6937143940","tag":{"amenity":"waste_basket"}},"type":"Feature"},
	{"geometry":{"coordinates":[26.102877,44.533867],"type":"Point"},"properties":{"osm_id":"6949571088","tag":{"amenity":"waste_basket","waste":"dog_excrement"}},"type":"Feature"},
	{"geometry":{"coordinates":[26.100153,44.533833],"type":"Point"},"properties":{"osm_id":"7320208277","tag":{"amenity":"waste_basket"}},"type":"Feature"}
]
}
