{
"type": "FeatureCollection",
"features": [
	{"geometry":{"coordinates":[3.465403,51.509848],"type":"Point"},"properties":{"osm_id":"478782750","tag":{"amenity":"recycling","recycling:batteries":"yes","recycling:glass_bottles":"yes","recycling:paper":"yes","recycling_type":"container"}},"type":"Feature"},
	{"geometry":{"coordinates":[3.461816,51.549825],"type":"Point"},"properties":{"osm_id":"1934123896","tag":{"amenity":"waste_basket"}},"type":"Feature"},
	{"geometry":{"coordinates":[3.498166,51.562262],"type":"Point"},"properties":{"osm_id":"2262047716","tag":{"amenity":"recycling","recycling:glass_bottles":"yes","recycling_type":"container"}},"type":"Feature"},
	{"geometry":{"coordinates":[3.492401,51.56078],"type":"Point"},"properties":{"osm_id":"2262433774","tag":{"amenity":"waste_basket"}},"type":"Feature"},
	{"geometry":{"coordinates":[3.494681,51.559654],"type":"Point"},"properties":{"osm_id":"2262433909","tag":{"amenity":"waste_basket"}},"type":"Feature"},
	{"geometry":{"coordinates":[3.494675,51.559826],"type":"Point"},"properties":{"osm_id":"2262433910","tag":{"amenity":"waste_basket"}},"type":"Feature"},
	{"geometry":{"coordinates":[3.488165,51.558807],"type":"Point"},"properties":{"osm_id":"2262433952","tag":{"amenity":"waste_basket"}},"type":"Feature"},
	{"geometry":{"coordinates":[3.494925,51.559728],"type":"Point"},"properties":{"osm_id":"2262433971","tag":{"amenity":"waste_basket"}},"type":"Feature"},
	{"geometry":{"coordinates":[3.490172,51.559791],"type":"Point"},"properties":{"osm_id":"2262434009","tag":{"amenity":"waste_basket"}},"type":"Feature"},
	{"geometry":{"coordinates":[3.441324,51.527711],"type":"Point"},"properties":{"osm_id":"2399791997","tag":{"amenity":"recycling","recycling:glass_bottles":"yes","recycling_type":"container"}},"type":"Feature"},
	{"geometry":{"coordinates":[3.461979,51.549547],"type":"Point"},"properties":{"osm_id":"4668680007","tag":{"amenity":"waste_basket"}},"type":"Feature"},
	{"geometry":{"coordinates":[3.461953,51.549583],"type":"Point"},"properties":{"osm_id":"4668680008","tag":{"amenity":"waste_basket"}},"type":"Feature"},
	{"geometry":{"coordinates":[3.460468,51.549118],"type":"Point"},"properties":{"osm_id":"4668680009","tag":{"amenity":"waste_basket"}},"type":"Feature"},
	{"geometry":{"coordinates":[3.460411,51.549185],"type":"Point"},"properties":{"osm_id":"4668680020","tag":{"amenity":"waste_basket"}},"type":"Feature"},
	{"geometry":{"coordinates":[3.452052,51.546599],"type":"Point"},"properties":{"osm_id":"4668680024","tag":{"amenity":"waste_basket"}},"type":"Feature"},
	{"geometry":{"coordinates":[3.488304,51.55522],"type":"Point"},"properties":{"osm_id":"4917356841","tag":{"amenity":"recycling","recycling_type":"container"}},"type":"Feature"},
	{"geometry":{"coordinates":[3.490492,51.556121],"type":"Point"},"properties":{"osm_id":"4917356842","tag":{"amenity":"recycling","recycling_type":"container"}},"type":"Feature"},
	{"geometry":{"coordinates":[3.489599,51.555817],"type":"Point"},"properties":{"osm_id":"4917356843","tag":{"amenity":"recycling","recycling_type":"container"}},"type":"Feature"},
	{"geometry":{"coordinates":[3.488611,51.556043],"type":"Point"},"properties":{"osm_id":"4917356844","tag":{"amenity":"recycling","recycling_type":"container"}},"type":"Feature"},
	{"geometry":{"coordinates":[3.49029,51.556869],"type":"Point"},"properties":{"osm_id":"4917356845","tag":{"amenity":"recycling","recycling_type":"container"}},"type":"Feature"},
	{"geometry":{"coordinates":[3.490135,51.554868],"type":"Point"},"properties":{"osm_id":"4917356846","tag":{"amenity":"recycling","recycling_type":"container"}},"type":"Feature"},
	{"geometry":{"coordinates":[3.491965,51.555758],"type":"Point"},"properties":{"osm_id":"4917356847","tag":{"amenity":"recycling","recycling_type":"container"}},"type":"Feature"},
	{"geometry":{"coordinates":[3.496982,51.562119],"type":"Point"},"properties":{"osm_id":"5534471141","tag":{"amenity":"waste_basket"}},"type":"Feature"},
	{"geometry":{"coordinates":[3.436588,51.528407],"type":"Point"},"properties":{"osm_id":"5584390577","tag":{"amenity":"recycling","recycling:glass_bottles":"yes","recycling:plastic_packaging":"yes","recycling_type":"container"}},"type":"Feature"},
	{"geometry":{"coordinates":[3.47148,51.536018],"type":"Point"},"properties":{"osm_id":"6806603343","tag":{"amenity":"waste_disposal"}},"type":"Feature"},
	{"geometry":{"coordinates":[3.511193,51.51492],"type":"Point"},"properties":{"osm_id":"6917944890","tag":{"amenity":"recycling","recycling:glass_bottles":"yes","recycling:plastic":"yes","recycling_type":"container"}},"type":"Feature"},
	{"geometry":{"coordinates":[3.453858,51.517217],"type":"Point"},"properties":{"osm_id":"7030182090","tag":{"amenity":"waste_disposal","waste":"trash"}},"type":"Feature"},
	{"geometry":{"coordinates":[3.508266,51.544913],"type":"Point"},"properties":{"name":"M\u00c3\u00bclleimer","osm_id":"7823279350","tag":{"amenity":"waste_basket"}},"type":"Feature"}
]
}
