{
"type": "FeatureCollection",
"features": [
	{"geometry":{"coordinates":[3.459006,51.108087],"type":"Point"},"properties":{"man_made":"surveillance","osm_id":"4210282602","tag":{"camera:mount":"pole","camera:type":"dome","surveillance":"outdoor","surveillance:type":"camera"}},"type":"Feature"},
	{"geometry":{"coordinates":[3.43132,51.108126],"type":"Point"},"properties":{"osm_id":"4343336679","tag":{"amenity":"recycling","recycling:glass_bottles":"yes","recycling_type":"container"}},"type":"Feature"},
	{"geometry":{"coordinates":[3.491754,51.088102],"type":"Point"},"properties":{"osm_id":"4343339349","tag":{"amenity":"recycling","recycling:glass_bottles":"yes","recycling_type":"container"}},"type":"Feature"},
	{"geometry":{"coordinates":[3.448005,51.083659],"type":"Point"},"properties":{"osm_id":"4605559499","tag":{"amenity":"waste_basket"}},"type":"Feature"},
	{"geometry":{"coordinates":[3.448331,51.083705],"type":"Point"},"properties":{"osm_id":"4605559500","tag":{"amenity":"waste_basket"}},"type":"Feature"},
	{"geometry":{"coordinates":[3.44791,51.083371],"type":"Point"},"properties":{"osm_id":"4605986689","tag":{"amenity":"waste_basket"}},"type":"Feature"},
	{"geometry":{"coordinates":[3.485946,51.093546],"type":"Point"},"properties":{"osm_id":"5208800720","tag":{"amenity":"waste_basket"}},"type":"Feature"},
	{"geometry":{"coordinates":[3.484924,51.092708],"type":"Point"},"properties":{"osm_id":"5208802525","tag":{"amenity":"waste_basket"}},"type":"Feature"},
	{"geometry":{"coordinates":[3.438999,51.082229],"type":"Point"},"properties":{"osm_id":"5403146619","tag":{"amenity":"waste_basket"}},"type":"Feature"},
	{"geometry":{"coordinates":[3.438719,51.082363],"type":"Point"},"properties":{"osm_id":"5433004218","tag":{"amenity":"waste_basket"}},"type":"Feature"},
	{"geometry":{"coordinates":[3.447249,51.092685],"type":"Point"},"properties":{"osm_id":"5447348641","tag":{"amenity":"recycling","recycling:clothes":"yes","recycling_type":"container"}},"type":"Feature"},
	{"geometry":{"coordinates":[3.448895,51.089576],"type":"Point"},"properties":{"osm_id":"5489399950","tag":{"amenity":"waste_basket"}},"type":"Feature"},
	{"geometry":{"coordinates":[3.444899,51.088503],"type":"Point"},"properties":{"osm_id":"5502252448","tag":{"amenity":"recycling","operator":"Wereld Missie Hulp","recycling:clothes":"yes","recycling_type":"container"}},"type":"Feature"},
	{"geometry":{"coordinates":[3.43881,51.082154],"type":"Point"},"properties":{"osm_id":"5517925894","tag":{"amenity":"waste_basket"}},"type":"Feature"},
	{"geometry":{"coordinates":[3.445668,51.085015],"type":"Point"},"properties":{"osm_id":"5520702173","tag":{"amenity":"recycling","recycling:clothes":"yes","recycling_type":"container"}},"type":"Feature"},
	{"geometry":{"coordinates":[3.438788,51.081235],"type":"Point"},"properties":{"osm_id":"5613457176","tag":{"amenity":"waste_basket"}},"type":"Feature"},
	{"geometry":{"coordinates":[3.444848,51.088176],"type":"Point"},"properties":{"osm_id":"5613457277","tag":{"amenity":"waste_basket"}},"type":"Feature"},
	{"geometry":{"coordinates":[3.444637,51.088793],"type":"Point"},"properties":{"osm_id":"5613457278","tag":{"amenity":"waste_basket"}},"type":"Feature"},
	{"geometry":{"coordinates":[3.444662,51.086959],"type":"Point"},"properties":{"osm_id":"5851668447","tag":{"amenity":"waste_basket"}},"type":"Feature"},
	{"geometry":{"coordinates":[3.45576,51.089583],"type":"Point"},"properties":{"osm_id":"6018111861","tag":{"amenity":"recycling","operator":"De Kringwinkel","recycling:clothes":"yes","recycling_type":"container"}},"type":"Feature"},
	{"geometry":{"coordinates":[3.498894,51.100755],"type":"Point"},"properties":{"osm_id":"6037253926","tag":{"amenity":"recycling","operator":"De Kringwinkel","recycling:clothes":"yes","recycling_type":"container"}},"type":"Feature"},
	{"geometry":{"coordinates":[3.498954,51.100739],"type":"Point"},"properties":{"osm_id":"6037253927","tag":{"amenity":"recycling","recycling:glass_bottles":"yes","recycling_type":"container"}},"type":"Feature"},
	{"geometry":{"coordinates":[3.450659,51.080856],"type":"Point"},"properties":{"osm_id":"6126442093","tag":{"amenity":"waste_basket"}},"type":"Feature"},
	{"geometry":{"coordinates":[3.450174,51.079088],"type":"Point"},"properties":{"osm_id":"6126447228","tag":{"amenity":"recycling","recycling:clothes":"yes","recycling_type":"container"}},"type":"Feature"},
	{"geometry":{"coordinates":[3.449829,51.077713],"type":"Point"},"properties":{"osm_id":"6126459839","tag":{"amenity":"recycling","recycling:clothes":"yes","recycling_type":"container"}},"type":"Feature"},
	{"geometry":{"coordinates":[3.489386,51.090125],"type":"Point"},"properties":{"osm_id":"6135585976","tag":{"amenity":"recycling","recycling:clothes":"yes","recycling_type":"container"}},"type":"Feature"},
	{"geometry":{"coordinates":[3.449036,51.092014],"type":"Point"},"properties":{"osm_id":"6151718660","tag":{"amenity":"waste_basket","layer":"-1","operator":"NMBS","waste":"trash"}},"type":"Feature"},
	{"geometry":{"coordinates":[3.488947,51.09234],"type":"Point"},"properties":{"osm_id":"6992193541","tag":{"amenity":"waste_basket"}},"type":"Feature"},
	{"geometry":{"coordinates":[3.490518,51.088339],"type":"Point"},"properties":{"osm_id":"7092882447","tag":{"amenity":"waste_basket"}},"type":"Feature"},
	{"geometry":{"coordinates":[3.448989,51.074935],"type":"Point"},"properties":{"osm_id":"7490381236","tag":{"amenity":"waste_basket"}},"type":"Feature"},
	{"geometry":{"coordinates":[3.438948,51.081021],"type":"Point"},"properties":{"osm_id":"7673811736","tag":{"amenity":"waste_basket"}},"type":"Feature"},
	{"geometry":{"coordinates":[3.444599,51.083064],"type":"Point"},"properties":{"osm_id":"7673811737","tag":{"amenity":"waste_basket"}},"type":"Feature"}
]
}
