{
"type": "FeatureCollection",
"features": [
	{"geometry":{"coordinates":[3.477442,50.89697],"type":"Point"},"properties":{"osm_id":"5922192641","tag":{"amenity":"waste_basket"}},"type":"Feature"},
	{"geometry":{"coordinates":[3.477265,50.896791],"type":"Point"},"properties":{"osm_id":"5922192642","tag":{"amenity":"waste_basket"}},"type":"Feature"},
	{"geometry":{"coordinates":[3.47709,50.896601],"type":"Point"},"properties":{"osm_id":"5922192643","tag":{"amenity":"waste_basket"}},"type":"Feature"},
	{"geometry":{"coordinates":[3.477412,50.897311],"type":"Point"},"properties":{"osm_id":"5922195960","tag":{"amenity":"waste_basket"}},"type":"Feature"},
	{"geometry":{"coordinates":[3.477667,50.897433],"type":"Point"},"properties":{"osm_id":"5922198141","tag":{"amenity":"waste_basket"}},"type":"Feature"},
	{"geometry":{"coordinates":[3.478368,50.897894],"type":"Point"},"properties":{"osm_id":"5922200066","tag":{"amenity":"waste_basket"}},"type":"Feature"},
	{"geometry":{"coordinates":[3.478534,50.898056],"type":"Point"},"properties":{"osm_id":"5922200067","tag":{"amenity":"waste_basket"}},"type":"Feature"},
	{"geometry":{"coordinates":[3.478256,50.897778],"type":"Point"},"properties":{"osm_id":"5922200068","tag":{"amenity":"waste_basket"}},"type":"Feature"},
	{"geometry":{"coordinates":[3.47428,50.895897],"type":"Point"},"properties":{"osm_id":"5922251583","tag":{"amenity":"waste_basket"}},"type":"Feature"},
	{"geometry":{"coordinates":[3.474048,50.895657],"type":"Point"},"properties":{"osm_id":"5922251584","tag":{"amenity":"waste_basket"}},"type":"Feature"},
	{"geometry":{"coordinates":[3.47376,50.895384],"type":"Point"},"properties":{"osm_id":"5922251585","tag":{"amenity":"waste_basket"}},"type":"Feature"},
	{"geometry":{"coordinates":[3.474003,50.8952],"type":"Point"},"properties":{"osm_id":"5922251588","tag":{"amenity":"waste_basket"}},"type":"Feature"},
	{"geometry":{"coordinates":[3.474973,50.896346],"type":"Point"},"properties":{"osm_id":"5922259364","tag":{"amenity":"waste_basket"}},"type":"Feature"},
	{"geometry":{"coordinates":[3.475086,50.896568],"type":"Point"},"properties":{"osm_id":"5922259365","tag":{"amenity":"waste_basket"}},"type":"Feature"},
	{"geometry":{"coordinates":[3.475379,50.897007],"type":"Point"},"properties":{"osm_id":"5922268820","tag":{"amenity":"waste_basket"}},"type":"Feature"},
	{"geometry":{"coordinates":[3.475188,50.896807],"type":"Point"},"properties":{"osm_id":"5922268821","tag":{"amenity":"waste_basket"}},"type":"Feature"},
	{"geometry":{"coordinates":[3.428832,50.88431],"type":"Point"},"properties":{"osm_id":"6913631136","tag":{"amenity":"recycling","location":"underground","recycling:glass_bottles":"green;brown","recycling_type":"container"}},"type":"Feature"},
	{"geometry":{"coordinates":[3.428822,50.884294],"type":"Point"},"properties":{"osm_id":"6913631137","tag":{"amenity":"recycling","location":"underground","recycling:glass_bottles":"white","recycling_type":"container"}},"type":"Feature"},
	{"geometry":{"coordinates":[3.429447,50.884695],"type":"Point"},"properties":{"osm_id":"6913631138","tag":{"amenity":"waste_basket"}},"type":"Feature"},
	{"geometry":{"coordinates":[3.428708,50.884318],"type":"Point"},"properties":{"osm_id":"6913631139","tag":{"amenity":"waste_basket"}},"type":"Feature"},
	{"geometry":{"coordinates":[3.429321,50.884847],"type":"Point"},"properties":{"osm_id":"6913631140","tag":{"amenity":"waste_basket"}},"type":"Feature"},
	{"geometry":{"coordinates":[3.435689,50.879323],"type":"Point"},"properties":{"osm_id":"6913969322","tag":{"amenity":"waste_basket"}},"type":"Feature"},
	{"geometry":{"coordinates":[3.435337,50.879603],"type":"Point"},"properties":{"osm_id":"6913969327","tag":{"amenity":"waste_disposal","waste":"glass"}},"type":"Feature"},
	{"geometry":{"coordinates":[3.432974,50.886528],"type":"Point"},"properties":{"osm_id":"7111016442","tag":{"amenity":"waste_basket","waste":"mixed"}},"type":"Feature"},
	{"geometry":{"coordinates":[3.432697,50.886667],"type":"Point"},"properties":{"osm_id":"7111016443","tag":{"amenity":"waste_basket","waste":"mixed"}},"type":"Feature"},
	{"geometry":{"coordinates":[3.432151,50.886617],"type":"Point"},"properties":{"osm_id":"7111016444","tag":{"amenity":"waste_basket","waste":"mixed"}},"type":"Feature"},
	{"geometry":{"coordinates":[3.43176,50.886558],"type":"Point"},"properties":{"osm_id":"7111016446","tag":{"amenity":"waste_basket","waste":"mixed"}},"type":"Feature"},
	{"geometry":{"coordinates":[3.431487,50.886615],"type":"Point"},"properties":{"osm_id":"7111016451","tag":{"amenity":"waste_basket","waste":"mixed"}},"type":"Feature"},
	{"geometry":{"coordinates":[3.432655,50.887068],"type":"Point"},"properties":{"osm_id":"7111016454","tag":{"amenity":"waste_basket","waste":"mixed"}},"type":"Feature"},
	{"geometry":{"coordinates":[3.432743,50.887061],"type":"Point"},"properties":{"osm_id":"7111016455","tag":{"amenity":"waste_basket","waste":"mixed"}},"type":"Feature"}
]
}
