{
"type": "FeatureCollection",
"features": [
	{"geometry":{"coordinates":[3.458028,46.134226],"type":"Point"},"properties":{"osm_id":"630965093","tag":{"amenity":"waste_basket"}},"type":"Feature"},
	{"geometry":{"coordinates":[3.451655,46.183832],"type":"Point"},"properties":{"osm_id":"1363791167","tag":{"amenity":"recycling"}},"type":"Feature"},
	{"geometry":{"coordinates":[3.450487,46.13473],"type":"Point"},"properties":{"osm_id":"1401541398","tag":{"amenity":"waste_basket"}},"type":"Feature"},
	{"geometry":{"coordinates":[3.509461,46.171321],"type":"Point"},"properties":{"osm_id":"1871632857","tag":{"amenity":"waste_basket"}},"type":"Feature"},
	{"geometry":{"coordinates":[3.454928,46.134405],"type":"Point"},"properties":{"osm_id":"2081432966","tag":{"amenity":"waste_basket"}},"type":"Feature"},
	{"geometry":{"coordinates":[3.455419,46.134549],"type":"Point"},"properties":{"osm_id":"2081433005","tag":{"amenity":"waste_basket"}},"type":"Feature"},
	{"geometry":{"coordinates":[3.456907,46.134557],"type":"Point"},"properties":{"osm_id":"2081433021","tag":{"amenity":"waste_basket"}},"type":"Feature"},
	{"geometry":{"coordinates":[3.455891,46.134667],"type":"Point"},"properties":{"osm_id":"2081433044","tag":{"amenity":"waste_basket"}},"type":"Feature"},
	{"geometry":{"coordinates":[3.455989,46.134303],"type":"Point"},"properties":{"osm_id":"2449862331","tag":{"amenity":"recycling","location":"underground","opening_hours":"07:00-20:00","operator":"Vichy Communaut\u00c3\u00a9","recycling:glass":"yes","recycling_type":"container","survey:date":"2021-04-04","wheelchair":"yes"}},"type":"Feature"},
	{"geometry":{"coordinates":[3.457462,46.134249],"type":"Point"},"properties":{"osm_id":"4200252641","tag":{"amenity":"waste_basket"}},"type":"Feature"},
	{"geometry":{"coordinates":[3.431423,46.136031],"type":"Point"},"properties":{"osm_id":"5204256989","tag":{"amenity":"recycling","location":"underground","opening_hours":"24/7","operator":"Vichy Communaut\u00c3\u00a9","recycling:cardboard":"yes","recycling:magazines":"yes","recycling:newspaper":"yes","recycling:paper":"yes","recycling_type":"container","survey:date":"2021-04-04","wheelchair":"yes"}},"type":"Feature"},
	{"geometry":{"coordinates":[3.433103,46.135785],"type":"Point"},"properties":{"osm_id":"6081666147","tag":{"amenity":"recycling","location":"underground","opening_hours":"07:00-20:00","operator":"Vichy Communaut\u00c3\u00a9","recycling:glass":"yes","recycling:glass_bottles":"yes","recycling_type":"container","survey:date":"2021-05-01","wheelchair":"yes"}},"type":"Feature"},
	{"geometry":{"coordinates":[3.435975,46.139816],"type":"Point"},"properties":{"osm_id":"6081803433","tag":{"amenity":"recycling","colour":"white","location":"overground","material":"metal","recycling:clothes":"designed","recycling_type":"container","survey:date":"2021-04-13"}},"type":"Feature"},
	{"geometry":{"coordinates":[3.433204,46.135133],"type":"Point"},"properties":{"osm_id":"6450204788","tag":{"amenity":"waste_basket","survey:date":"2019-04-20","waste":"trash"}},"type":"Feature"},
	{"geometry":{"coordinates":[3.43162,46.134761],"type":"Point"},"properties":{"osm_id":"6450204789","tag":{"amenity":"waste_basket","survey:date":"2019-04-20","waste":"trash"}},"type":"Feature"},
	{"geometry":{"coordinates":[3.431378,46.136149],"type":"Point"},"properties":{"osm_id":"6450204816","tag":{"amenity":"waste_basket","survey:date":"2019-04-20","waste":"trash"}},"type":"Feature"},
	{"geometry":{"coordinates":[3.432062,46.135732],"type":"Point"},"properties":{"osm_id":"6450204817","tag":{"amenity":"waste_basket","survey:date":"2019-04-20","waste":"trash"}},"type":"Feature"},
	{"geometry":{"coordinates":[3.436945,46.134359],"type":"Point"},"properties":{"osm_id":"6780977034","tag":{"amenity":"recycling","location":"underground","opening_hours":"24/7","operator":"Vichy Communaut\u00c3\u00a9","recycling:waste":"yes","recycling_type":"container","start_date":"2019","survey:date":"2021-05-08","wheelchair":"yes"}},"type":"Feature"},
	{"geometry":{"coordinates":[3.436558,46.134736],"type":"Point"},"properties":{"osm_id":"6780977035","tag":{"amenity":"recycling","location":"underground","opening_hours":"07:00-20:00","operator":"Vichy Communaut\u00c3\u00a9","recycling:glass":"yes","recycling:glass_bottles":"yes","recycling_type":"container","start_date":"2019","survey:date":"2021-05-08","wheelchair":"yes"}},"type":"Feature"},
	{"geometry":{"coordinates":[3.436655,46.134643],"type":"Point"},"properties":{"osm_id":"6780977036","tag":{"amenity":"recycling","location":"underground","opening_hours":"24/7","operator":"Vichy Communaut\u00c3\u00a9","recycling:waste":"yes","recycling_type":"container","start_date":"2019","survey:date":"2021-05-08","wheelchair":"yes"}},"type":"Feature"},
	{"geometry":{"coordinates":[3.441066,46.134993],"type":"Point"},"properties":{"osm_id":"7024421146","tag":{"amenity":"recycling","location":"underground","opening_hours":"24/7","operator":"Vichy Communaut\u00c3\u00a9","recycling:beverage_cartons":"yes","recycling:books":"yes","recycling:cans":"yes","recycling:cardboard":"yes","recycling:magazines":"yes","recycling:newspaper":"yes","recycling:paper":"yes","recycling:paper_packaging":"yes","recycling:plastic":"yes","recycling:plastic_bottles":"yes","recycling:plastic_packaging":"yes","recycling_type":"container","start_date":"2019","survey:date":"2021-04-18","wheelchair":"yes"}},"type":"Feature"},
	{"geometry":{"coordinates":[3.438872,46.134892],"type":"Point"},"properties":{"osm_id":"7024421160","tag":{"amenity":"waste_basket","start_date":"2019","survey:date":"2019-10-26","waste":"trash;cigarettes"}},"type":"Feature"},
	{"geometry":{"coordinates":[3.438715,46.134925],"type":"Point"},"properties":{"osm_id":"7024421161","tag":{"amenity":"waste_basket","start_date":"2019","survey:date":"2019-10-05","waste":"trash;cigarettes"}},"type":"Feature"},
	{"geometry":{"coordinates":[3.438673,46.134911],"type":"Point"},"properties":{"osm_id":"7024421162","tag":{"amenity":"waste_basket","start_date":"2019","survey:date":"2019-10-05","waste":"trash;cigarettes"}},"type":"Feature"},
	{"geometry":{"coordinates":[3.438887,46.135519],"type":"Point"},"properties":{"osm_id":"7024421163","tag":{"amenity":"waste_basket","start_date":"2019","survey:date":"2019-10-05","waste":"trash;cigarettes"}},"type":"Feature"},
	{"geometry":{"coordinates":[3.438769,46.135171],"type":"Point"},"properties":{"osm_id":"7024421164","tag":{"amenity":"waste_basket","start_date":"2019","survey:date":"2019-10-05","waste":"trash;cigarettes"}},"type":"Feature"},
	{"geometry":{"coordinates":[3.438994,46.135774],"type":"Point"},"properties":{"osm_id":"7024421165","tag":{"amenity":"waste_basket","start_date":"2019","survey:date":"2019-10-05","waste":"trash;cigarettes"}},"type":"Feature"},
	{"geometry":{"coordinates":[3.439136,46.136117],"type":"Point"},"properties":{"osm_id":"7024421166","tag":{"amenity":"waste_basket","start_date":"2019","survey:date":"2019-10-05","waste":"trash;cigarettes"}},"type":"Feature"},
	{"geometry":{"coordinates":[3.439348,46.13598],"type":"Point"},"properties":{"osm_id":"7024421167","tag":{"amenity":"recycling","opening_hours":"24/7","operator":"Vichy Communaut\u00c3\u00a9","recycling:paper":"yes","recycling:waste":"yes","recycling_type":"container","start_date":"2019","survey:date":"2019-10-26","wheelchair":"yes"}},"type":"Feature"},
	{"geometry":{"coordinates":[3.435998,46.135302],"type":"Point"},"properties":{"osm_id":"7024421171","tag":{"amenity":"waste_basket","start_date":"2019","survey:date":"2019-10-05","waste":"trash;cigarettes"}},"type":"Feature"},
	{"geometry":{"coordinates":[3.436202,46.135099],"type":"Point"},"properties":{"osm_id":"7024421172","tag":{"amenity":"waste_basket","start_date":"2019","survey:date":"2019-10-05","waste":"trash;cigarettes"}},"type":"Feature"},
	{"geometry":{"coordinates":[3.436733,46.134578],"type":"Point"},"properties":{"osm_id":"7024421173","tag":{"amenity":"waste_basket","start_date":"2019","survey:date":"2019-10-05","waste":"trash;cigarettes"}},"type":"Feature"},
	{"geometry":{"coordinates":[3.460526,46.136413],"type":"Point"},"properties":{"osm_id":"7024429386","tag":{"amenity":"waste_basket","survey:date":"2019-11-01","waste":"trash"}},"type":"Feature"},
	{"geometry":{"coordinates":[3.460545,46.136432],"type":"Point"},"properties":{"osm_id":"7024429387","tag":{"amenity":"waste_basket","survey:date":"2019-11-01","waste":"dog_excrement"}},"type":"Feature"},
	{"geometry":{"coordinates":[3.438967,46.134712],"type":"Point"},"properties":{"osm_id":"7024429408","tag":{"amenity":"waste_basket","survey:date":"2019-10-26","waste":"trash;cigarettes"}},"type":"Feature"},
	{"geometry":{"coordinates":[3.439655,46.135056],"type":"Point"},"properties":{"osm_id":"7024429421","tag":{"amenity":"waste_basket","start_date":"2019","survey:date":"2019-10-26","waste":"trash;cigarettes"}},"type":"Feature"},
	{"geometry":{"coordinates":[3.440226,46.135175],"type":"Point"},"properties":{"osm_id":"7024429426","tag":{"amenity":"waste_basket","start_date":"2019","survey:date":"2019-10-26","waste":"trash;cigarettes"}},"type":"Feature"},
	{"geometry":{"coordinates":[3.438676,46.134567],"type":"Point"},"properties":{"osm_id":"7024429520","tag":{"amenity":"waste_basket","start_date":"2019","survey:date":"2019-10-19","waste":"trash;cigarettes"}},"type":"Feature"},
	{"geometry":{"coordinates":[3.438401,46.13439],"type":"Point"},"properties":{"osm_id":"7024429521","tag":{"amenity":"waste_basket","start_date":"2019","survey:date":"2019-10-19","waste":"trash;cigarettes"}},"type":"Feature"},
	{"geometry":{"coordinates":[3.437756,46.13455],"type":"Point"},"properties":{"osm_id":"7024429523","tag":{"amenity":"waste_basket","start_date":"2019","survey:date":"2019-10-19","waste":"trash;cigarettes"}},"type":"Feature"},
	{"geometry":{"coordinates":[3.436716,46.135385],"type":"Point"},"properties":{"osm_id":"7024429529","tag":{"amenity":"recycling","location":"underground","opening_hours":"24/7","operator":"Vichy Communaut\u00c3\u00a9","recycling:beverage_cartons":"yes","recycling:books":"yes","recycling:cans":"yes","recycling:cardboard":"yes","recycling:magazines":"yes","recycling:newspaper":"yes","recycling:paper":"yes","recycling:paper_packaging":"yes","recycling:plastic":"yes","recycling:plastic_bottles":"yes","recycling:plastic_packaging":"yes","recycling_type":"container","start_date":"2019","survey:date":"2021-05-08","wheelchair":"yes"}},"type":"Feature"},
	{"geometry":{"coordinates":[3.42915,46.135757],"type":"Point"},"properties":{"osm_id":"7024429719","tag":{"amenity":"waste_basket","survey:date":"2019-10-12","waste":"trash"}},"type":"Feature"},
	{"geometry":{"coordinates":[3.430755,46.135954],"type":"Point"},"properties":{"osm_id":"7024429720","tag":{"amenity":"waste_basket","survey:date":"2019-10-12","waste":"trash"}},"type":"Feature"},
	{"geometry":{"coordinates":[3.440348,46.134731],"type":"Point"},"properties":{"osm_id":"7098194828","tag":{"amenity":"waste_basket","start_date":"2019","survey:date":"2019-12-08","waste":"trash;cigarettes"}},"type":"Feature"},
	{"geometry":{"coordinates":[3.443641,46.138189],"type":"Point"},"properties":{"osm_id":"7179911291","tag":{"amenity":"recycling","location":"underground","opening_hours":"24/7","operator":"Vichy Communaut\u00c3\u00a9","recycling:waste":"yes","recycling_type":"container","start_date":"2020","survey:date":"2021-04-04","wheelchair":"yes"}},"type":"Feature"},
	{"geometry":{"coordinates":[3.448182,46.135162],"type":"Point"},"properties":{"osm_id":"7179911311","tag":{"amenity":"recycling","opening_hours":"24/7","recycling:cardboard":"yes","recycling:paper":"yes","recycling:waste":"yes","recycling_type":"container","survey:date":"2020-02-01","wheelchair":"yes"}},"type":"Feature"},
	{"geometry":{"coordinates":[3.449224,46.135115],"type":"Point"},"properties":{"osm_id":"7179911312","tag":{"amenity":"waste_basket","survey:date":"2020-02-01","waste":"trash"}},"type":"Feature"},
	{"geometry":{"coordinates":[3.449505,46.134933],"type":"Point"},"properties":{"osm_id":"7179911313","tag":{"amenity":"recycling","opening_hours":"24/7","recycling:cardboard":"yes","recycling:paper":"yes","recycling:waste":"yes","recycling_type":"container","survey:date":"2020-02-01","wheelchair":"yes"}},"type":"Feature"},
	{"geometry":{"coordinates":[3.455029,46.134184],"type":"Point"},"properties":{"osm_id":"7179911325","tag":{"amenity":"waste_basket","survey:date":"2020-02-01","waste":"trash"}},"type":"Feature"},
	{"geometry":{"coordinates":[3.439674,46.134598],"type":"Point"},"properties":{"osm_id":"7179911606","tag":{"amenity":"recycling","location":"underground","opening_hours":"07:00-20:00","operator":"Vichy Communaut\u00c3\u00a9","recycling:glass":"yes","recycling_type":"container","start_date":"2019","survey:date":"2021-04-18","wheelchair":"yes"}},"type":"Feature"},
	{"geometry":{"coordinates":[3.438185,46.134673],"type":"Point"},"properties":{"osm_id":"7590467961","tag":{"amenity":"waste_basket","start_date":"2019","survey:date":"2020-05-21","waste":"trash;cigarettes"}},"type":"Feature"},
	{"geometry":{"coordinates":[3.433544,46.135431],"type":"Point"},"properties":{"osm_id":"7590467976","tag":{"amenity":"waste_basket","survey:date":"2020-05-21","waste":"trash"}},"type":"Feature"},
	{"geometry":{"coordinates":[3.441503,46.135],"type":"Point"},"properties":{"osm_id":"7684887550","tag":{"amenity":"waste_basket","start_date":"2020","survey:date":"2020-06-27","waste":"trash;cigarettes"}},"type":"Feature"},
	{"geometry":{"coordinates":[3.441376,46.135076],"type":"Point"},"properties":{"osm_id":"7684887551","tag":{"amenity":"waste_basket","start_date":"2020","survey:date":"2020-06-27","waste":"trash;cigarettes"}},"type":"Feature"},
	{"geometry":{"coordinates":[3.509528,46.171356],"type":"Point"},"properties":{"osm_id":"7775255888","tag":{"amenity":"waste_basket"}},"type":"Feature"},
	{"geometry":{"coordinates":[3.441994,46.134436],"type":"Point"},"properties":{"osm_id":"7779371602","tag":{"amenity":"waste_basket","start_date":"2020","survey:date":"2020-07-14","waste":"trash;cigarettes"}},"type":"Feature"},
	{"geometry":{"coordinates":[3.441758,46.134426],"type":"Point"},"properties":{"osm_id":"7779371603","tag":{"amenity":"waste_basket","start_date":"2020","survey:date":"2020-07-14","waste":"trash;cigarettes"}},"type":"Feature"},
	{"geometry":{"coordinates":[3.44043,46.134212],"type":"Point"},"properties":{"osm_id":"7779371604","tag":{"amenity":"waste_basket","start_date":"2020","survey:date":"2020-07-14","waste":"trash;cigarettes"}},"type":"Feature"},
	{"geometry":{"coordinates":[3.438448,46.135625],"type":"Point"},"properties":{"osm_id":"7882037909","tag":{"amenity":"recycling","location":"underground","opening_hours":"24/7","operator":"Vichy Communaut\u00c3\u00a9","recycling:waste":"yes","recycling_type":"container","start_date":"2019","survey:date":"2021-05-08","wheelchair":"yes"}},"type":"Feature"},
	{"geometry":{"coordinates":[3.438693,46.13463],"type":"Point"},"properties":{"osm_id":"7882037934","tag":{"amenity":"waste_basket","start_date":"2020","survey:date":"2020-08-25","waste":"dog_excrement"}},"type":"Feature"},
	{"geometry":{"coordinates":[3.451146,46.135077],"type":"Point"},"properties":{"osm_id":"7973877973","tag":{"amenity":"waste_basket","survey:date":"2020-10-03","waste":"trash"}},"type":"Feature"},
	{"geometry":{"coordinates":[3.440429,46.136699],"type":"Point"},"properties":{"osm_id":"7973905389","tag":{"amenity":"waste_basket","survey:date":"2020-10-03","waste":"dog_excrement"}},"type":"Feature"},
	{"geometry":{"coordinates":[3.431635,46.154983],"type":"Point"},"properties":{"osm_id":"8071855805","tag":{"amenity":"recycling","recycling:glass":"yes","recycling_type":"container","start_date":"2020","survey:date":"2020-10-23","wheelchair":"yes"}},"type":"Feature"},
	{"geometry":{"coordinates":[3.431374,46.154493],"type":"Point"},"properties":{"osm_id":"8071855807","tag":{"amenity":"waste_basket","start_date":"2020","survey:date":"2020-10-23","waste":"trash"}},"type":"Feature"},
	{"geometry":{"coordinates":[3.431718,46.154633],"type":"Point"},"properties":{"osm_id":"8071855813","tag":{"amenity":"waste_basket","start_date":"2020-10","survey:date":"2020-10-23","waste":"trash"}},"type":"Feature"},
	{"geometry":{"coordinates":[3.453304,46.137047],"type":"Point"},"properties":{"osm_id":"8232323709","tag":{"amenity":"waste_basket","survey:date":"2020-12-05","waste":"dog_excrement"}},"type":"Feature"},
	{"geometry":{"coordinates":[3.438931,46.136422],"type":"Point"},"properties":{"osm_id":"8279331678","tag":{"amenity":"waste_basket","start_date":"2020","survey:date":"2020-12-26","waste":"trash;cigarettes"}},"type":"Feature"},
	{"geometry":{"coordinates":[3.429986,46.146656],"type":"Point"},"properties":{"osm_id":"8526218363","tag":{"amenity":"recycling","opening_hours":"24/7","operator":"Vichy Communaut\u00c3\u00a9","recycling:waste":"yes","recycling_type":"container","start_date":"2021-03","survey:date":"2021-03-13","wheelchair":"yes"}},"type":"Feature"},
	{"geometry":{"coordinates":[3.430008,46.146647],"type":"Point"},"properties":{"osm_id":"8526218364","tag":{"amenity":"recycling","opening_hours":"24/7","operator":"Vichy Communaut\u00c3\u00a9","recycling:cardboard":"yes","recycling:magazines":"yes","recycling:newspaper":"yes","recycling:paper":"yes","recycling:paper_packaging":"yes","recycling_type":"container","start_date":"2021-03","survey:date":"2021-03-13","wheelchair":"yes"}},"type":"Feature"},
	{"geometry":{"coordinates":[3.430029,46.146637],"type":"Point"},"properties":{"osm_id":"8526218479","tag":{"amenity":"recycling","opening_hours":"24/7","operator":"Vichy Communaut\u00c3\u00a9","recycling:glass":"yes","recycling_type":"container","start_date":"2021-03","survey:date":"2021-03-13","wheelchair":"yes"}},"type":"Feature"},
	{"geometry":{"coordinates":[3.431389,46.136045],"type":"Point"},"properties":{"osm_id":"8596240516","tag":{"amenity":"recycling","location":"underground","opening_hours":"24/7","operator":"Vichy Communaut\u00c3\u00a9","recycling:waste":"yes","recycling_type":"container","survey:date":"2021-04-04","wheelchair":"yes"}},"type":"Feature"},
	{"geometry":{"coordinates":[3.431415,46.13605],"type":"Point"},"properties":{"osm_id":"8596278317","tag":{"amenity":"recycling","location":"underground","opening_hours":"07:00-20:00","operator":"Vichy Communaut\u00c3\u00a9","recycling:glass":"yes","recycling_type":"container","survey:date":"2021-04-04","wheelchair":"yes"}},"type":"Feature"},
	{"geometry":{"coordinates":[3.456001,46.134299],"type":"Point"},"properties":{"osm_id":"8596278410","tag":{"amenity":"recycling","location":"underground","opening_hours":"24/7","operator":"Vichy Communaut\u00c3\u00a9","recycling:waste":"yes","recycling_type":"container","survey:date":"2021-04-04","wheelchair":"yes"}},"type":"Feature"},
	{"geometry":{"coordinates":[3.456013,46.134295],"type":"Point"},"properties":{"osm_id":"8596278411","tag":{"amenity":"recycling","location":"underground","opening_hours":"24/7","operator":"Vichy Communaut\u00c3\u00a9","recycling:cardboard":"yes","recycling:magazines":"yes","recycling:newspaper":"yes","recycling:paper":"yes","recycling_type":"container","survey:date":"2021-04-04","wheelchair":"yes"}},"type":"Feature"},
	{"geometry":{"coordinates":[3.450112,46.136987],"type":"Point"},"properties":{"osm_id":"8596278424","tag":{"amenity":"waste_basket","survey:date":"2021-04-04","waste":"trash"}},"type":"Feature"},
	{"geometry":{"coordinates":[3.44365,46.138195],"type":"Point"},"properties":{"osm_id":"8596278435","tag":{"amenity":"recycling","location":"underground","opening_hours":"24/7","operator":"Vichy Communaut\u00c3\u00a9","recycling:beverage_cartons":"yes","recycling:books":"yes","recycling:cans":"yes","recycling:cardboard":"yes","recycling:magazines":"yes","recycling:newspaper":"yes","recycling:paper":"yes","recycling:paper_packaging":"yes","recycling:plastic":"yes","recycling:plastic_bottles":"yes","recycling:plastic_packaging":"yes","recycling_type":"container","start_date":"2020","survey:date":"2021-04-18","wheelchair":"yes"}},"type":"Feature"},
	{"geometry":{"coordinates":[3.443659,46.138201],"type":"Point"},"properties":{"osm_id":"8596278436","tag":{"amenity":"recycling","location":"underground","opening_hours":"07:00-20:00","operator":"Vichy Communaut\u00c3\u00a9","recycling:glass":"yes","recycling_type":"container","start_date":"2020","survey:date":"2021-04-04","wheelchair":"yes"}},"type":"Feature"},
	{"geometry":{"coordinates":[3.449589,46.142936],"type":"Point"},"properties":{"osm_id":"8615184488","tag":{"amenity":"recycling","recycling:glass_bottles":"yes","recycling_type":"container","wheelchair":"bad"}},"type":"Feature"},
	{"geometry":{"coordinates":[3.449618,46.142936],"type":"Point"},"properties":{"osm_id":"8615184489","tag":{"amenity":"recycling","recycling:glass_bottles":"yes","recycling_type":"container","wheelchair":"bad"}},"type":"Feature"},
	{"geometry":{"coordinates":[3.449654,46.142941],"type":"Point"},"properties":{"osm_id":"8615184490","tag":{"amenity":"recycling","recycling:tyres":"yes","recycling_type":"container"}},"type":"Feature"},
	{"geometry":{"coordinates":[3.449897,46.142805],"type":"Point"},"properties":{"osm_id":"8615209564","tag":{"amenity":"recycling","recycling:clothes":"yes","recycling_type":"container"}},"type":"Feature"},
	{"geometry":{"coordinates":[3.449919,46.142802],"type":"Point"},"properties":{"osm_id":"8615209565","tag":{"amenity":"recycling","recycling:clothes":"yes","recycling_type":"container"}},"type":"Feature"},
	{"geometry":{"coordinates":[3.449941,46.142799],"type":"Point"},"properties":{"osm_id":"8615209566","tag":{"amenity":"recycling","recycling:clothes":"yes","recycling_type":"container"}},"type":"Feature"},
	{"geometry":{"coordinates":[3.449958,46.142795],"type":"Point"},"properties":{"osm_id":"8615209567","tag":{"amenity":"recycling","recycling:clothes":"yes","recycling_type":"container"}},"type":"Feature"},
	{"geometry":{"coordinates":[3.439651,46.134593],"type":"Point"},"properties":{"osm_id":"8644955377","tag":{"amenity":"recycling","location":"underground","opening_hours":"24/7","operator":"Vichy Communaut\u00c3\u00a9","recycling:beverage_cartons":"yes","recycling:books":"yes","recycling:cans":"yes","recycling:cardboard":"yes","recycling:magazines":"yes","recycling:newspaper":"yes","recycling:paper":"yes","recycling:paper_packaging":"yes","recycling:plastic":"yes","recycling:plastic_bottles":"yes","recycling:plastic_packaging":"yes","recycling_type":"container","start_date":"2019","survey:date":"2021-04-18","wheelchair":"yes"}},"type":"Feature"},
	{"geometry":{"coordinates":[3.439628,46.134588],"type":"Point"},"properties":{"osm_id":"8644955378","tag":{"amenity":"recycling","location":"underground","opening_hours":"24/7","operator":"Vichy Communaut\u00c3\u00a9","recycling:beverage_cartons":"yes","recycling:books":"yes","recycling:cans":"yes","recycling:cardboard":"yes","recycling:magazines":"yes","recycling:newspaper":"yes","recycling:paper":"yes","recycling:paper_packaging":"yes","recycling:plastic":"yes","recycling:plastic_bottles":"yes","recycling:plastic_packaging":"yes","recycling_type":"container","start_date":"2019","survey:date":"2021-04-18","wheelchair":"yes"}},"type":"Feature"},
	{"geometry":{"coordinates":[3.439581,46.134578],"type":"Point"},"properties":{"osm_id":"8644955379","tag":{"amenity":"recycling","location":"underground","opening_hours":"24/7","operator":"Vichy Communaut\u00c3\u00a9","recycling:waste":"yes","recycling_type":"container","start_date":"2019","survey:date":"2021-04-18","wheelchair":"yes"}},"type":"Feature"},
	{"geometry":{"coordinates":[3.439605,46.134583],"type":"Point"},"properties":{"osm_id":"8644955380","tag":{"amenity":"recycling","location":"underground","opening_hours":"24/7","operator":"Vichy Communaut\u00c3\u00a9","recycling:waste":"yes","recycling_type":"container","start_date":"2019","survey:date":"2021-04-18","wheelchair":"yes"}},"type":"Feature"},
	{"geometry":{"coordinates":[3.441145,46.13501],"type":"Point"},"properties":{"osm_id":"8644955381","tag":{"amenity":"recycling","location":"underground","opening_hours":"24/7","operator":"Vichy Communaut\u00c3\u00a9","recycling:waste":"yes","recycling_type":"container","start_date":"2019","survey:date":"2021-04-18","wheelchair":"yes"}},"type":"Feature"},
	{"geometry":{"coordinates":[3.441122,46.135005],"type":"Point"},"properties":{"osm_id":"8644955382","tag":{"amenity":"recycling","location":"underground","opening_hours":"24/7","operator":"Vichy Communaut\u00c3\u00a9","recycling:waste":"yes","recycling_type":"container","start_date":"2019","survey:date":"2021-04-18","wheelchair":"yes"}},"type":"Feature"},
	{"geometry":{"coordinates":[3.441088,46.134998],"type":"Point"},"properties":{"osm_id":"8644955383","tag":{"amenity":"recycling","location":"underground","opening_hours":"24/7","operator":"Vichy Communaut\u00c3\u00a9","recycling:beverage_cartons":"yes","recycling:books":"yes","recycling:cans":"yes","recycling:cardboard":"yes","recycling:magazines":"yes","recycling:newspaper":"yes","recycling:paper":"yes","recycling:paper_packaging":"yes","recycling:plastic":"yes","recycling:plastic_bottles":"yes","recycling:plastic_packaging":"yes","recycling_type":"container","start_date":"2019","survey:date":"2021-04-18","wheelchair":"yes"}},"type":"Feature"},
	{"geometry":{"coordinates":[3.429328,46.142401],"type":"Point"},"properties":{"osm_id":"8809406179","tag":{"amenity":"waste_basket","start_date":"2021","survey:date":"2021-06-05","waste":"trash"}},"type":"Feature"},
	{"geometry":{"coordinates":[3.429144,46.142961],"type":"Point"},"properties":{"osm_id":"8809406184","tag":{"amenity":"waste_basket","start_date":"2021","survey:date":"2021-06-05","waste":"trash"}},"type":"Feature"},
	{"geometry":{"coordinates":[3.429013,46.144612],"type":"Point"},"properties":{"osm_id":"8809406185","tag":{"amenity":"waste_basket","start_date":"2021","survey:date":"2021-06-05","waste":"trash"}},"type":"Feature"},
	{"geometry":{"coordinates":[3.429759,46.146721],"type":"Point"},"properties":{"osm_id":"8809406204","tag":{"amenity":"waste_basket","start_date":"2021","survey:date":"2021-06-05","waste":"trash"}},"type":"Feature"},
	{"geometry":{"coordinates":[3.429868,46.147667],"type":"Point"},"properties":{"osm_id":"8809406205","tag":{"amenity":"waste_basket","start_date":"2021","survey:date":"2021-06-05","waste":"trash"}},"type":"Feature"},
	{"geometry":{"coordinates":[3.438423,46.13562],"type":"Point"},"properties":{"osm_id":"8809419978","tag":{"amenity":"recycling","location":"underground","opening_hours":"24/7","operator":"Vichy Communaut\u00c3\u00a9","recycling:beverage_cartons":"yes","recycling:books":"yes","recycling:cans":"yes","recycling:cardboard":"yes","recycling:magazines":"yes","recycling:newspaper":"yes","recycling:paper":"yes","recycling:paper_packaging":"yes","recycling:plastic":"yes","recycling:plastic_bottles":"yes","recycling:plastic_packaging":"yes","recycling_type":"container","start_date":"2019","survey:date":"2021-05-08","wheelchair":"yes"}},"type":"Feature"},
	{"geometry":{"coordinates":[3.436696,46.135374],"type":"Point"},"properties":{"osm_id":"8809419979","tag":{"amenity":"recycling","location":"underground","opening_hours":"24/7","operator":"Vichy Communaut\u00c3\u00a9","recycling:waste":"yes","recycling_type":"container","start_date":"2019","survey:date":"2021-05-08","wheelchair":"yes"}},"type":"Feature"},
	{"geometry":{"coordinates":[3.436961,46.134344],"type":"Point"},"properties":{"osm_id":"8809419980","tag":{"amenity":"recycling","location":"underground","opening_hours":"24/7","operator":"Vichy Communaut\u00c3\u00a9","recycling:beverage_cartons":"yes","recycling:books":"yes","recycling:cans":"yes","recycling:cardboard":"yes","recycling:magazines":"yes","recycling:newspaper":"yes","recycling:paper":"yes","recycling:paper_packaging":"yes","recycling:plastic":"yes","recycling:plastic_bottles":"yes","recycling:plastic_packaging":"yes","recycling_type":"container","start_date":"2019","survey:date":"2021-05-08","wheelchair":"yes"}},"type":"Feature"},
	{"geometry":{"coordinates":[3.437102,46.134363],"type":"Point"},"properties":{"osm_id":"8809419981","tag":{"amenity":"recycling","location":"underground","opening_hours":"24/7","operator":"Vichy Communaut\u00c3\u00a9","recycling:beverage_cartons":"yes","recycling:books":"yes","recycling:cans":"yes","recycling:cardboard":"yes","recycling:magazines":"yes","recycling:newspaper":"yes","recycling:paper":"yes","recycling:paper_packaging":"yes","recycling:plastic":"yes","recycling:plastic_bottles":"yes","recycling:plastic_packaging":"yes","recycling_type":"container","start_date":"2019","survey:date":"2021-05-08","wheelchair":"yes"}},"type":"Feature"},
	{"geometry":{"coordinates":[3.437086,46.134378],"type":"Point"},"properties":{"osm_id":"8809419982","tag":{"amenity":"recycling","location":"underground","opening_hours":"24/7","operator":"Vichy Communaut\u00c3\u00a9","recycling:waste":"yes","recycling_type":"container","start_date":"2019","survey:date":"2021-05-08","wheelchair":"yes"}},"type":"Feature"},
	{"geometry":{"coordinates":[3.436668,46.134631],"type":"Point"},"properties":{"osm_id":"8809419983","tag":{"amenity":"recycling","location":"underground","opening_hours":"24/7","operator":"Vichy Communaut\u00c3\u00a9","recycling:beverage_cartons":"yes","recycling:books":"yes","recycling:cans":"yes","recycling:cardboard":"yes","recycling:magazines":"yes","recycling:newspaper":"yes","recycling:paper":"yes","recycling:paper_packaging":"yes","recycling:plastic":"yes","recycling:plastic_bottles":"yes","recycling:plastic_packaging":"yes","recycling_type":"container","start_date":"2019","survey:date":"2021-05-08","wheelchair":"yes"}},"type":"Feature"},
	{"geometry":{"coordinates":[3.436583,46.134712],"type":"Point"},"properties":{"osm_id":"8809419984","tag":{"amenity":"recycling","location":"underground","opening_hours":"24/7","operator":"Vichy Communaut\u00c3\u00a9","recycling:waste":"yes","recycling_type":"container","start_date":"2019","survey:date":"2021-05-08","wheelchair":"yes"}},"type":"Feature"},
	{"geometry":{"coordinates":[3.43657,46.134724],"type":"Point"},"properties":{"osm_id":"8809419985","tag":{"amenity":"recycling","location":"underground","opening_hours":"24/7","operator":"Vichy Communaut\u00c3\u00a9","recycling:beverage_cartons":"yes","recycling:books":"yes","recycling:cans":"yes","recycling:cardboard":"yes","recycling:magazines":"yes","recycling:newspaper":"yes","recycling:paper":"yes","recycling:paper_packaging":"yes","recycling:plastic":"yes","recycling:plastic_bottles":"yes","recycling:plastic_packaging":"yes","recycling_type":"container","start_date":"2019","survey:date":"2021-05-08","wheelchair":"yes"}},"type":"Feature"},
	{"geometry":{"coordinates":[3.430656,46.137989],"type":"Point"},"properties":{"osm_id":"8893059051","tag":{"amenity":"waste_basket","start_date":"2021","survey:date":"2021-06-19","waste":"trash"}},"type":"Feature"}
]
}
