{
"type": "FeatureCollection",
"features": [
	{"geometry":{"coordinates":[3.429878,46.126877],"type":"Point"},"properties":{"osm_id":"587027819","tag":{"amenity":"waste_basket"}},"type":"Feature"},
	{"geometry":{"coordinates":[3.429887,46.127394],"type":"Point"},"properties":{"osm_id":"587027831","tag":{"amenity":"recycling","opening_hours":"24/7","operator":"Vichy Communaut\u00c3\u00a9","recycling:glass":"yes","recycling_type":"container","survey:date":"2019-11-23","wheelchair":"yes"}},"type":"Feature"},
	{"geometry":{"coordinates":[3.443318,46.100158],"type":"Point"},"properties":{"osm_id":"610437034","tag":{"amenity":"recycling","recycling:glass":"yes","recycling_type":"container"}},"type":"Feature"},
	{"geometry":{"coordinates":[3.439754,46.108207],"type":"Point"},"properties":{"osm_id":"610437069","tag":{"amenity":"recycling","recycling:glass":"yes","recycling:paper":"yes"}},"type":"Feature"},
	{"geometry":{"coordinates":[3.430407,46.126316],"type":"Point"},"properties":{"osm_id":"617296527","tag":{"amenity":"waste_basket"}},"type":"Feature"},
	{"geometry":{"coordinates":[3.43031,46.126527],"type":"Point"},"properties":{"osm_id":"617296536","tag":{"amenity":"waste_basket"}},"type":"Feature"},
	{"geometry":{"coordinates":[3.430295,46.126897],"type":"Point"},"properties":{"osm_id":"617296540","tag":{"amenity":"waste_basket","waste":"trash"}},"type":"Feature"},
	{"geometry":{"coordinates":[3.430421,46.127113],"type":"Point"},"properties":{"osm_id":"617296551","tag":{"amenity":"waste_basket"}},"type":"Feature"},
	{"geometry":{"coordinates":[3.440891,46.102188],"type":"Point"},"properties":{"osm_id":"630964700","tag":{"amenity":"recycling","recycling:glass":"yes"}},"type":"Feature"},
	{"geometry":{"coordinates":[3.42884,46.120428],"type":"Point"},"properties":{"osm_id":"630964734","tag":{"amenity":"recycling","recycling:glass":"yes","recycling_type":"container","survey:date":"2019-11-02"}},"type":"Feature"},
	{"geometry":{"coordinates":[3.436058,46.13069],"type":"Point"},"properties":{"osm_id":"630964800","tag":{"amenity":"waste_basket"}},"type":"Feature"},
	{"geometry":{"coordinates":[3.445039,46.126111],"type":"Point"},"properties":{"osm_id":"630964997","tag":{"amenity":"waste_basket"}},"type":"Feature"},
	{"geometry":{"coordinates":[3.4564,46.132948],"type":"Point"},"properties":{"osm_id":"630965056","tag":{"amenity":"recycling","opening_hours":"24/7","operator":"Vichy Communaut\u00c3\u00a9","recycling:glass":"yes","recycling_type":"container","wheelchair":"yes"}},"type":"Feature"},
	{"geometry":{"coordinates":[3.458229,46.134052],"type":"Point"},"properties":{"osm_id":"630965088","tag":{"amenity":"waste_basket"}},"type":"Feature"},
	{"geometry":{"coordinates":[3.458389,46.133972],"type":"Point"},"properties":{"osm_id":"630965089","tag":{"amenity":"waste_basket"}},"type":"Feature"},
	{"geometry":{"coordinates":[3.459499,46.133464],"type":"Point"},"properties":{"osm_id":"630965103","tag":{"amenity":"waste_basket"}},"type":"Feature"},
	{"geometry":{"coordinates":[3.430245,46.127023],"type":"Point"},"properties":{"osm_id":"970745277","tag":{"amenity":"waste_basket","waste":"trash"}},"type":"Feature"},
	{"geometry":{"coordinates":[3.457176,46.106931],"type":"Point"},"properties":{"osm_id":"984660034","tag":{"amenity":"recycling","recycling:glass":"yes","recycling:paper":"yes","recycling_type":"container"}},"type":"Feature"},
	{"geometry":{"coordinates":[3.440584,46.129188],"type":"Point"},"properties":{"osm_id":"1055384784","tag":{"amenity":"waste_basket","survey:date":"2020-01-25","waste":"trash"}},"type":"Feature"},
	{"geometry":{"coordinates":[3.445948,46.097384],"type":"Point"},"properties":{"osm_id":"1384960669","tag":{"amenity":"waste_basket"}},"type":"Feature"},
	{"geometry":{"coordinates":[3.445429,46.097936],"type":"Point"},"properties":{"osm_id":"1384960680","tag":{"amenity":"waste_basket"}},"type":"Feature"},
	{"geometry":{"coordinates":[3.444914,46.098427],"type":"Point"},"properties":{"osm_id":"1384960681","tag":{"amenity":"waste_basket","survey:date":"2020-09-05","waste":"trash"}},"type":"Feature"},
	{"geometry":{"coordinates":[3.444844,46.09863],"type":"Point"},"properties":{"osm_id":"1384960683","tag":{"amenity":"waste_basket"}},"type":"Feature"},
	{"geometry":{"coordinates":[3.444922,46.098895],"type":"Point"},"properties":{"osm_id":"1384960685","tag":{"amenity":"waste_basket"}},"type":"Feature"},
	{"geometry":{"coordinates":[3.457211,46.132934],"type":"Point"},"properties":{"osm_id":"1401540886","tag":{"amenity":"waste_basket","waste":"trash"}},"type":"Feature"},
	{"geometry":{"coordinates":[3.457366,46.132989],"type":"Point"},"properties":{"osm_id":"1401540909","tag":{"amenity":"waste_basket","waste":"trash"}},"type":"Feature"},
	{"geometry":{"coordinates":[3.430806,46.124547],"type":"Point"},"properties":{"osm_id":"1406209460","tag":{"amenity":"recycling","recycling:glass":"yes"}},"type":"Feature"},
	{"geometry":{"coordinates":[3.430727,46.124883],"type":"Point"},"properties":{"osm_id":"1406209593","tag":{"amenity":"waste_basket"}},"type":"Feature"},
	{"geometry":{"coordinates":[3.430559,46.125593],"type":"Point"},"properties":{"osm_id":"1406209682","tag":{"amenity":"waste_basket"}},"type":"Feature"},
	{"geometry":{"coordinates":[3.430316,46.126151],"type":"Point"},"properties":{"osm_id":"1406209744","tag":{"amenity":"waste_basket"}},"type":"Feature"},
	{"geometry":{"coordinates":[3.429889,46.12657],"type":"Point"},"properties":{"osm_id":"1406209866","tag":{"amenity":"waste_basket"}},"type":"Feature"},
	{"geometry":{"coordinates":[3.42799,46.126564],"type":"Point"},"properties":{"osm_id":"1406209878","tag":{"amenity":"recycling","opening_hours":"24/7","operator":"Vichy Communaut\u00c3\u00a9","recycling:cardboard":"yes","recycling:glass":"yes","recycling:paper":"yes","recycling:plastic":"yes","recycling:plastic_bottles":"yes","recycling:plastic_packaging":"yes","recycling:waste":"yes","recycling_type":"container","wheelchair":"yes"}},"type":"Feature"},
	{"geometry":{"coordinates":[3.428408,46.126711],"type":"Point"},"properties":{"osm_id":"1406209920","tag":{"amenity":"waste_basket","waste":"trash"}},"type":"Feature"},
	{"geometry":{"coordinates":[3.428453,46.126769],"type":"Point"},"properties":{"osm_id":"1406209942","tag":{"amenity":"waste_basket","waste":"trash"}},"type":"Feature"},
	{"geometry":{"coordinates":[3.429525,46.126906],"type":"Point"},"properties":{"osm_id":"1406209985","tag":{"amenity":"waste_basket"}},"type":"Feature"},
	{"geometry":{"coordinates":[3.429731,46.126978],"type":"Point"},"properties":{"osm_id":"1406210002","tag":{"amenity":"waste_basket","waste":"trash"}},"type":"Feature"},
	{"geometry":{"coordinates":[3.429092,46.127337],"type":"Point"},"properties":{"osm_id":"1406210117","tag":{"amenity":"waste_basket"}},"type":"Feature"},
	{"geometry":{"coordinates":[3.427995,46.12672],"type":"Point"},"properties":{"osm_id":"1560827967","tag":{"amenity":"waste_basket","waste":"trash"}},"type":"Feature"},
	{"geometry":{"coordinates":[3.457233,46.131616],"type":"Point"},"properties":{"osm_id":"1871505036","tag":{"amenity":"waste_basket"}},"type":"Feature"},
	{"geometry":{"coordinates":[3.45697,46.131706],"type":"Point"},"properties":{"osm_id":"1871505050","tag":{"amenity":"waste_basket"}},"type":"Feature"},
	{"geometry":{"coordinates":[3.439816,46.12911],"type":"Point"},"properties":{"osm_id":"1907040921","tag":{"amenity":"waste_basket"}},"type":"Feature"},
	{"geometry":{"coordinates":[3.439485,46.129153],"type":"Point"},"properties":{"osm_id":"1907040922","tag":{"amenity":"waste_basket"}},"type":"Feature"},
	{"geometry":{"coordinates":[3.44021,46.129148],"type":"Point"},"properties":{"osm_id":"1907040924","tag":{"amenity":"waste_basket","survey:date":"2020-01-25","waste":"trash"}},"type":"Feature"},
	{"geometry":{"coordinates":[3.430907,46.125073],"type":"Point"},"properties":{"osm_id":"1973975223","tag":{"amenity":"waste_basket","level":"0"}},"type":"Feature"},
	{"geometry":{"coordinates":[3.430866,46.125242],"type":"Point"},"properties":{"osm_id":"1973975229","tag":{"amenity":"waste_basket","level":"0"}},"type":"Feature"},
	{"geometry":{"coordinates":[3.430823,46.125407],"type":"Point"},"properties":{"osm_id":"1973975235","tag":{"amenity":"waste_basket","level":"0"}},"type":"Feature"},
	{"geometry":{"coordinates":[3.430781,46.125593],"type":"Point"},"properties":{"osm_id":"1973975240","tag":{"amenity":"waste_basket","level":"0"}},"type":"Feature"},
	{"geometry":{"coordinates":[3.458275,46.133184],"type":"Point"},"properties":{"osm_id":"2001342492","tag":{"amenity":"waste_basket","waste":"trash"}},"type":"Feature"},
	{"geometry":{"coordinates":[3.446339,46.099109],"type":"Point"},"properties":{"osm_id":"2081431471","tag":{"amenity":"recycling","recycling:paper":"yes","recycling_type":"container"}},"type":"Feature"},
	{"geometry":{"coordinates":[3.427947,46.126527],"type":"Point"},"properties":{"osm_id":"2081431570","tag":{"amenity":"waste_basket"}},"type":"Feature"},
	{"geometry":{"coordinates":[3.435437,46.131323],"type":"Point"},"properties":{"osm_id":"2218688758","tag":{"amenity":"recycling","recycling:glass":"yes","recycling_type":"container"}},"type":"Feature"},
	{"geometry":{"coordinates":[3.435645,46.129007],"type":"Point"},"properties":{"osm_id":"2449862216","tag":{"amenity":"waste_basket"}},"type":"Feature"},
	{"geometry":{"coordinates":[3.436019,46.129068],"type":"Point"},"properties":{"osm_id":"2449862217","tag":{"amenity":"waste_basket"}},"type":"Feature"},
	{"geometry":{"coordinates":[3.436001,46.129859],"type":"Point"},"properties":{"osm_id":"2449862235","tag":{"amenity":"waste_basket"}},"type":"Feature"},
	{"geometry":{"coordinates":[3.435659,46.130707],"type":"Point"},"properties":{"osm_id":"2449862252","tag":{"amenity":"waste_basket"}},"type":"Feature"},
	{"geometry":{"coordinates":[3.43614,46.131205],"type":"Point"},"properties":{"osm_id":"2449862272","tag":{"amenity":"waste_basket"}},"type":"Feature"},
	{"geometry":{"coordinates":[3.435407,46.131396],"type":"Point"},"properties":{"osm_id":"2449862273","tag":{"amenity":"waste_basket"}},"type":"Feature"},
	{"geometry":{"coordinates":[3.436099,46.131794],"type":"Point"},"properties":{"osm_id":"2449862276","tag":{"amenity":"waste_basket"}},"type":"Feature"},
	{"geometry":{"coordinates":[3.458689,46.133086],"type":"Point"},"properties":{"osm_id":"2449862283","tag":{"amenity":"waste_basket","waste":"trash"}},"type":"Feature"},
	{"geometry":{"coordinates":[3.457523,46.133202],"type":"Point"},"properties":{"osm_id":"2449862285","tag":{"amenity":"waste_basket","waste":"trash"}},"type":"Feature"},
	{"geometry":{"coordinates":[3.436769,46.12615],"type":"Point"},"properties":{"osm_id":"2603676996","tag":{"amenity":"waste_basket","image":"https://lh4.googleusercontent.com/-gSHDDmnIpWM/UrXQmWGpcqI/AAAAAAAAKaY/TZpT8y3y3Aw/s800/131221_B_ChateaudunNord_arret_4532.JPG"}},"type":"Feature"},
	{"geometry":{"coordinates":[3.435927,46.12768],"type":"Point"},"properties":{"osm_id":"2603677350","tag":{"amenity":"waste_basket"}},"type":"Feature"},
	{"geometry":{"coordinates":[3.458553,46.133584],"type":"Point"},"properties":{"osm_id":"2603677586","tag":{"amenity":"waste_basket"}},"type":"Feature"},
	{"geometry":{"coordinates":[3.458862,46.13375],"type":"Point"},"properties":{"osm_id":"2603677607","tag":{"amenity":"waste_basket"}},"type":"Feature"},
	{"geometry":{"coordinates":[3.458552,46.133895],"type":"Point"},"properties":{"osm_id":"2603677640","tag":{"amenity":"waste_basket"}},"type":"Feature"},
	{"geometry":{"coordinates":[3.458258,46.133903],"type":"Point"},"properties":{"osm_id":"2603677645","tag":{"amenity":"waste_basket"}},"type":"Feature"},
	{"geometry":{"coordinates":[3.458171,46.133947],"type":"Point"},"properties":{"osm_id":"2603677653","tag":{"amenity":"waste_basket"}},"type":"Feature"},
	{"geometry":{"coordinates":[3.463311,46.107354],"type":"Point"},"properties":{"osm_id":"4200252422","tag":{"amenity":"waste_basket"}},"type":"Feature"},
	{"geometry":{"coordinates":[3.461242,46.108162],"type":"Point"},"properties":{"osm_id":"4200252457","tag":{"amenity":"waste_basket"}},"type":"Feature"},
	{"geometry":{"coordinates":[3.462707,46.1082],"type":"Point"},"properties":{"osm_id":"4200252460","tag":{"amenity":"waste_basket"}},"type":"Feature"},
	{"geometry":{"coordinates":[3.434756,46.124524],"type":"Point"},"properties":{"osm_id":"6066558994","tag":{"amenity":"recycling","opening_hours":"24/7","recycling:glass":"yes","recycling:glass_bottles":"yes","recycling_type":"container","survey:date":"2020-02-08","wheelchair":"yes"}},"type":"Feature"},
	{"geometry":{"coordinates":[3.456151,46.132323],"type":"Point"},"properties":{"osm_id":"6252238854","tag":{"amenity":"waste_basket","survey:date":"2019-08-15","waste":"trash"}},"type":"Feature"},
	{"geometry":{"coordinates":[3.456969,46.13208],"type":"Point"},"properties":{"osm_id":"6252238860","tag":{"amenity":"waste_basket","start_date":"2018","survey:date":"2019-12-22","waste":"trash;cigarettes"}},"type":"Feature"},
	{"geometry":{"coordinates":[3.45696,46.132227],"type":"Point"},"properties":{"osm_id":"6252238865","tag":{"amenity":"waste_basket","start_date":"2018","survey:date":"2019-12-22","waste":"trash;cigarettes"}},"type":"Feature"},
	{"geometry":{"coordinates":[3.456842,46.132129],"type":"Point"},"properties":{"osm_id":"6252238866","tag":{"amenity":"waste_basket","start_date":"2018","survey:date":"2019-12-22","waste":"trash;cigarettes"}},"type":"Feature"},
	{"geometry":{"coordinates":[3.456524,46.132223],"type":"Point"},"properties":{"osm_id":"6252238867","tag":{"amenity":"waste_basket","start_date":"2018","survey:date":"2019-12-22","waste":"trash;cigarettes"}},"type":"Feature"},
	{"geometry":{"coordinates":[3.434955,46.13215],"type":"Point"},"properties":{"osm_id":"6450204815","tag":{"amenity":"recycling","operator":"Vichy Communaut\u00c3\u00a9","recycling:glass":"yes","recycling:paper":"yes","recycling:waste":"yes","recycling_type":"container","survey:date":"2019-04-20","wheelchair":"yes"}},"type":"Feature"},
	{"geometry":{"coordinates":[3.43303,46.126098],"type":"Point"},"properties":{"osm_id":"6450204949","tag":{"amenity":"waste_basket","survey:date":"2019-03-28","waste":"trash"}},"type":"Feature"},
	{"geometry":{"coordinates":[3.433796,46.127314],"type":"Point"},"properties":{"osm_id":"6450204963","tag":{"amenity":"recycling","recycling:glass":"yes","recycling:paper":"yes","recycling:waste":"yes","recycling_type":"container","survey:date":"2019-03-28","wheelchair":"yes"}},"type":"Feature"},
	{"geometry":{"coordinates":[3.433783,46.127211],"type":"Point"},"properties":{"osm_id":"6450204964","tag":{"amenity":"waste_basket","survey:date":"2019-03-28","waste":"trash"}},"type":"Feature"},
	{"geometry":{"coordinates":[3.456848,46.131507],"type":"Point"},"properties":{"osm_id":"6780999461","tag":{"amenity":"waste_basket","survey:date":"2019-08-15","waste":"trash"}},"type":"Feature"},
	{"geometry":{"coordinates":[3.457306,46.132218],"type":"Point"},"properties":{"osm_id":"6780999468","tag":{"amenity":"waste_basket","survey:date":"2019-08-15","waste":"trash"}},"type":"Feature"},
	{"geometry":{"coordinates":[3.45533,46.132551],"type":"Point"},"properties":{"osm_id":"6780999470","tag":{"amenity":"waste_basket","survey:date":"2019-08-15","waste":"trash"}},"type":"Feature"},
	{"geometry":{"coordinates":[3.454655,46.132892],"type":"Point"},"properties":{"osm_id":"6780999475","tag":{"amenity":"waste_basket","survey:date":"2019-08-15","waste":"trash"}},"type":"Feature"},
	{"geometry":{"coordinates":[3.454941,46.1328],"type":"Point"},"properties":{"osm_id":"6780999478","tag":{"amenity":"waste_basket","survey:date":"2019-08-15","waste":"trash"}},"type":"Feature"},
	{"geometry":{"coordinates":[3.454902,46.132712],"type":"Point"},"properties":{"osm_id":"6780999479","tag":{"amenity":"waste_basket","survey:date":"2019-08-15","waste":"trash"}},"type":"Feature"},
	{"geometry":{"coordinates":[3.433033,46.11177],"type":"Point"},"properties":{"osm_id":"7020674307","tag":{"amenity":"waste_basket","start_date":"2019","survey:date":"2019-11-24","waste":"trash"}},"type":"Feature"},
	{"geometry":{"coordinates":[3.430444,46.110788],"type":"Point"},"properties":{"osm_id":"7020674308","tag":{"amenity":"waste_basket","start_date":"2019","survey:date":"2019-11-24","waste":"trash"}},"type":"Feature"},
	{"geometry":{"coordinates":[3.428573,46.108126],"type":"Point"},"properties":{"osm_id":"7020674310","tag":{"amenity":"waste_basket","start_date":"2019","survey:date":"2019-11-24","waste":"trash"}},"type":"Feature"},
	{"geometry":{"coordinates":[3.433431,46.107593],"type":"Point"},"properties":{"osm_id":"7020674313","tag":{"amenity":"waste_basket","start_date":"2019","survey:date":"2019-11-24","waste":"trash"}},"type":"Feature"},
	{"geometry":{"coordinates":[3.437745,46.105698],"type":"Point"},"properties":{"osm_id":"7020674316","tag":{"amenity":"waste_basket","start_date":"2019","survey:date":"2019-11-24","waste":"trash"}},"type":"Feature"},
	{"geometry":{"coordinates":[3.439395,46.10289],"type":"Point"},"properties":{"osm_id":"7020674317","tag":{"amenity":"waste_basket","start_date":"2019","survey:date":"2019-11-24","waste":"trash"}},"type":"Feature"},
	{"geometry":{"coordinates":[3.428061,46.116303],"type":"Point"},"properties":{"osm_id":"7022291149","tag":{"amenity":"waste_basket","start_date":"2019","survey:date":"2019-10-12","waste":"trash;cigarettes"}},"type":"Feature"},
	{"geometry":{"coordinates":[3.429796,46.11551],"type":"Point"},"properties":{"osm_id":"7022291410","tag":{"amenity":"waste_basket","start_date":"2019","survey:date":"2019-09-28","waste":"trash;cigarettes"}},"type":"Feature"},
	{"geometry":{"coordinates":[3.437413,46.133918],"type":"Point"},"properties":{"osm_id":"7024421177","tag":{"amenity":"waste_basket","start_date":"2019","survey:date":"2019-10-05","waste":"trash;cigarettes"}},"type":"Feature"},
	{"geometry":{"coordinates":[3.438592,46.13358],"type":"Point"},"properties":{"osm_id":"7024421179","tag":{"amenity":"waste_basket","start_date":"2019","survey:date":"2019-10-05","waste":"trash;cigarettes"}},"type":"Feature"},
	{"geometry":{"coordinates":[3.457234,46.133306],"type":"Point"},"properties":{"osm_id":"7024428532","tag":{"amenity":"recycling","opening_hours":"24/7","recycling:cardboard":"yes","recycling:paper":"yes","recycling:plastic":"yes","recycling_type":"container","start_date":"2019-12","survey:date":"2019-11-30","wheelchair":"yes"}},"type":"Feature"},
	{"geometry":{"coordinates":[3.433277,46.126846],"type":"Point"},"properties":{"osm_id":"7024428596","tag":{"amenity":"waste_basket","survey:date":"2019-11-26","waste":"trash"}},"type":"Feature"},
	{"geometry":{"coordinates":[3.431253,46.117918],"type":"Point"},"properties":{"osm_id":"7024428615","tag":{"amenity":"waste_basket","survey:date":"2019-11-24","waste":"trash"}},"type":"Feature"},
	{"geometry":{"coordinates":[3.432496,46.117639],"type":"Point"},"properties":{"osm_id":"7024428620","tag":{"amenity":"waste_basket","survey:date":"2019-11-24","waste":"dog_excrement"}},"type":"Feature"},
	{"geometry":{"coordinates":[3.432253,46.117546],"type":"Point"},"properties":{"osm_id":"7024428621","tag":{"amenity":"waste_basket","survey:date":"2019-11-24","waste":"trash"}},"type":"Feature"},
	{"geometry":{"coordinates":[3.433242,46.116798],"type":"Point"},"properties":{"osm_id":"7024428627","tag":{"amenity":"waste_basket","survey:date":"2019-11-24","waste":"trash"}},"type":"Feature"},
	{"geometry":{"coordinates":[3.427956,46.117383],"type":"Point"},"properties":{"osm_id":"7024428743","tag":{"amenity":"waste_basket","waste":"trash"}},"type":"Feature"},
	{"geometry":{"coordinates":[3.428538,46.117338],"type":"Point"},"properties":{"osm_id":"7024428745","tag":{"amenity":"waste_basket","survey:date":"2019-11-23","waste":"trash"}},"type":"Feature"},
	{"geometry":{"coordinates":[3.428987,46.117303],"type":"Point"},"properties":{"osm_id":"7024428749","tag":{"amenity":"waste_basket","waste":"trash"}},"type":"Feature"},
	{"geometry":{"coordinates":[3.429864,46.117582],"type":"Point"},"properties":{"osm_id":"7024428750","tag":{"amenity":"waste_basket","survey:date":"2019-11-23","waste":"trash"}},"type":"Feature"},
	{"geometry":{"coordinates":[3.429723,46.117279],"type":"Point"},"properties":{"osm_id":"7024428759","tag":{"amenity":"waste_basket","survey:date":"2019-11-23","waste":"trash"}},"type":"Feature"},
	{"geometry":{"coordinates":[3.430411,46.11718],"type":"Point"},"properties":{"osm_id":"7024428762","tag":{"amenity":"waste_basket","survey:date":"2019-11-23","waste":"trash"}},"type":"Feature"},
	{"geometry":{"coordinates":[3.430818,46.117102],"type":"Point"},"properties":{"osm_id":"7024428763","tag":{"amenity":"waste_basket","survey:date":"2019-11-23","waste":"trash"}},"type":"Feature"},
	{"geometry":{"coordinates":[3.43131,46.116996],"type":"Point"},"properties":{"osm_id":"7024428766","tag":{"amenity":"waste_basket","survey:date":"2019-11-23","waste":"trash"}},"type":"Feature"},
	{"geometry":{"coordinates":[3.432023,46.116802],"type":"Point"},"properties":{"osm_id":"7024428768","tag":{"amenity":"waste_basket","survey:date":"2019-11-23","waste":"trash"}},"type":"Feature"},
	{"geometry":{"coordinates":[3.432506,46.116666],"type":"Point"},"properties":{"osm_id":"7024428769","tag":{"amenity":"waste_basket","survey:date":"2019-11-23","waste":"trash"}},"type":"Feature"},
	{"geometry":{"coordinates":[3.432961,46.116521],"type":"Point"},"properties":{"osm_id":"7024428770","tag":{"amenity":"waste_basket","survey:date":"2019-11-23","waste":"trash"}},"type":"Feature"},
	{"geometry":{"coordinates":[3.43675,46.11407],"type":"Point"},"properties":{"osm_id":"7024428780","tag":{"amenity":"waste_basket","survey:date":"2019-11-23","waste":"dog_excrement"}},"type":"Feature"},
	{"geometry":{"coordinates":[3.431968,46.120357],"type":"Point"},"properties":{"osm_id":"7024428970","tag":{"amenity":"waste_basket","survey:date":"2019-11-02","waste":"trash"}},"type":"Feature"},
	{"geometry":{"coordinates":[3.432137,46.120225],"type":"Point"},"properties":{"osm_id":"7024428971","tag":{"amenity":"waste_basket","survey:date":"2019-11-02","waste":"trash"}},"type":"Feature"},
	{"geometry":{"coordinates":[3.432341,46.120079],"type":"Point"},"properties":{"osm_id":"7024428972","tag":{"amenity":"recycling","opening_hours":"24/7","recycling:glass":"yes","recycling:paper":"yes","recycling:waste":"yes","recycling_type":"container","start_date":"2019","survey:date":"2019-11-02","wheelchair":"yes"}},"type":"Feature"},
	{"geometry":{"coordinates":[3.438695,46.115191],"type":"Point"},"properties":{"osm_id":"7024428981","tag":{"amenity":"waste_basket","survey:date":"2019-11-02","waste":"dog_excrement"}},"type":"Feature"},
	{"geometry":{"coordinates":[3.454632,46.132185],"type":"Point"},"properties":{"osm_id":"7024429392","tag":{"amenity":"waste_basket","survey:date":"2019-11-01","waste":"dog_excrement"}},"type":"Feature"},
	{"geometry":{"coordinates":[3.454382,46.132092],"type":"Point"},"properties":{"osm_id":"7024429393","tag":{"amenity":"waste_basket","survey:date":"2019-11-01","waste":"trash;cigarettes"}},"type":"Feature"},
	{"geometry":{"coordinates":[3.438363,46.13331],"type":"Point"},"properties":{"osm_id":"7024429399","tag":{"amenity":"waste_basket","start_date":"2019","survey:date":"2019-10-26","waste":"trash;cigarettes"}},"type":"Feature"},
	{"geometry":{"coordinates":[3.438057,46.133158],"type":"Point"},"properties":{"osm_id":"7024429400","tag":{"amenity":"waste_basket","survey:date":"2019-10-26","waste":"trash;cigarettes"}},"type":"Feature"},
	{"geometry":{"coordinates":[3.43827,46.133428],"type":"Point"},"properties":{"osm_id":"7024429401","tag":{"amenity":"waste_basket","start_date":"2019","survey:date":"2019-10-26","waste":"trash;cigarettes"}},"type":"Feature"},
	{"geometry":{"coordinates":[3.458825,46.129665],"type":"Point"},"properties":{"osm_id":"7024429445","tag":{"amenity":"waste_basket","survey:date":"2019-10-26","waste":"trash"}},"type":"Feature"},
	{"geometry":{"coordinates":[3.438876,46.133891],"type":"Point"},"properties":{"osm_id":"7024429517","tag":{"amenity":"waste_basket","start_date":"2019","survey:date":"2019-10-19","waste":"trash;cigarettes"}},"type":"Feature"},
	{"geometry":{"coordinates":[3.438477,46.133725],"type":"Point"},"properties":{"osm_id":"7024429518","tag":{"amenity":"waste_basket","start_date":"2019","survey:date":"2019-10-19","waste":"trash;cigarettes"}},"type":"Feature"},
	{"geometry":{"coordinates":[3.438186,46.133622],"type":"Point"},"properties":{"osm_id":"7024429519","tag":{"amenity":"waste_basket","start_date":"2019","survey:date":"2019-10-19","waste":"trash;cigarettes"}},"type":"Feature"},
	{"geometry":{"coordinates":[3.437999,46.134129],"type":"Point"},"properties":{"osm_id":"7024429522","tag":{"amenity":"waste_basket","start_date":"2019","survey:date":"2019-10-19","waste":"trash;cigarettes"}},"type":"Feature"},
	{"geometry":{"coordinates":[3.461167,46.134025],"type":"Point"},"properties":{"osm_id":"7024429699","tag":{"amenity":"waste_basket","survey:date":"2019-10-19","waste":"trash"}},"type":"Feature"},
	{"geometry":{"coordinates":[3.442057,46.118721],"type":"Point"},"properties":{"osm_id":"7024430398","tag":{"amenity":"recycling","opening_hours":"24/7","recycling:glass":"yes","recycling:paper":"yes","recycling:waste":"yes","recycling_type":"container","survey:date":"2019-09-21","wheelchair":"yes"}},"type":"Feature"},
	{"geometry":{"coordinates":[3.456669,46.132339],"type":"Point"},"properties":{"osm_id":"7098194747","tag":{"amenity":"waste_basket","start_date":"2018","survey:date":"2019-12-22","waste":"trash;cigarettes"}},"type":"Feature"},
	{"geometry":{"coordinates":[3.432042,46.118344],"type":"Point"},"properties":{"osm_id":"7098194778","tag":{"amenity":"waste_basket","waste":"trash"}},"type":"Feature"},
	{"geometry":{"coordinates":[3.428042,46.126103],"type":"Point"},"properties":{"osm_id":"7098194804","tag":{"amenity":"waste_basket","survey:date":"2019-12-14","waste":"trash"}},"type":"Feature"},
	{"geometry":{"coordinates":[3.431103,46.130928],"type":"Point"},"properties":{"osm_id":"7098194851","tag":{"amenity":"waste_basket","survey:date":"2019-12-08","waste":"trash"}},"type":"Feature"},
	{"geometry":{"coordinates":[3.431171,46.130639],"type":"Point"},"properties":{"osm_id":"7098194852","tag":{"amenity":"waste_basket","survey:date":"2019-12-08","waste":"trash"}},"type":"Feature"},
	{"geometry":{"coordinates":[3.43127,46.13],"type":"Point"},"properties":{"osm_id":"7098194860","tag":{"amenity":"waste_basket","survey:date":"2019-12-08","waste":"trash"}},"type":"Feature"},
	{"geometry":{"coordinates":[3.43126,46.129842],"type":"Point"},"properties":{"osm_id":"7098194862","tag":{"amenity":"waste_basket","survey:date":"2019-12-08","waste":"trash"}},"type":"Feature"},
	{"geometry":{"coordinates":[3.431158,46.129969],"type":"Point"},"properties":{"osm_id":"7098194864","tag":{"amenity":"recycling","opening_hours":"24/7","operator":"Vichy Communaut\u00c3\u00a9","recycling:glass":"yes","recycling_type":"container","survey:date":"2019-12-08","wheelchair":"yes"}},"type":"Feature"},
	{"geometry":{"coordinates":[3.429495,46.129027],"type":"Point"},"properties":{"osm_id":"7098194866","tag":{"amenity":"waste_basket","survey:date":"2019-12-08","waste":"dog_excrement"}},"type":"Feature"},
	{"geometry":{"coordinates":[3.43984,46.117757],"type":"Point"},"properties":{"osm_id":"7098194882","tag":{"amenity":"waste_basket","waste":"trash"}},"type":"Feature"},
	{"geometry":{"coordinates":[3.439745,46.129136],"type":"Point"},"properties":{"osm_id":"7179911450","tag":{"amenity":"waste_basket","survey:date":"2020-01-25","waste":"trash"}},"type":"Feature"},
	{"geometry":{"coordinates":[3.438352,46.129027],"type":"Point"},"properties":{"osm_id":"7179911458","tag":{"amenity":"waste_basket","survey:date":"2020-01-25","waste":"trash"}},"type":"Feature"},
	{"geometry":{"coordinates":[3.437203,46.129036],"type":"Point"},"properties":{"osm_id":"7179911459","tag":{"amenity":"waste_basket","survey:date":"2020-01-25","waste":"trash"}},"type":"Feature"},
	{"geometry":{"coordinates":[3.435356,46.12863],"type":"Point"},"properties":{"osm_id":"7179911467","tag":{"amenity":"waste_basket","survey:date":"2020-01-25","waste":"trash"}},"type":"Feature"},
	{"geometry":{"coordinates":[3.44184,46.113987],"type":"Point"},"properties":{"osm_id":"7179911497","tag":{"amenity":"recycling","opening_hours":"24/7","recycling:cardboard":"yes","recycling:glass":"yes","recycling:paper":"yes","recycling:plastic":"yes","recycling:plastic_bottles":"yes","recycling:waste":"yes","recycling_type":"container","survey:date":"2020-01-18","wheelchair":"yes"}},"type":"Feature"},
	{"geometry":{"coordinates":[3.440312,46.115837],"type":"Point"},"properties":{"osm_id":"7179911503","tag":{"amenity":"waste_basket","survey:date":"2020-01-18","waste":"trash"}},"type":"Feature"},
	{"geometry":{"coordinates":[3.439405,46.119127],"type":"Point"},"properties":{"osm_id":"7179911515","tag":{"amenity":"waste_basket","survey:date":"2020-01-18","waste":"trash"}},"type":"Feature"},
	{"geometry":{"coordinates":[3.439441,46.118921],"type":"Point"},"properties":{"osm_id":"7179911516","tag":{"amenity":"waste_basket","survey:date":"2020-01-18","waste":"trash"}},"type":"Feature"},
	{"geometry":{"coordinates":[3.43966,46.118781],"type":"Point"},"properties":{"osm_id":"7179911517","tag":{"amenity":"waste_basket","survey:date":"2020-01-18","waste":"trash"}},"type":"Feature"},
	{"geometry":{"coordinates":[3.439741,46.11887],"type":"Point"},"properties":{"osm_id":"7179911518","tag":{"amenity":"waste_basket","survey:date":"2020-01-18","waste":"trash"}},"type":"Feature"},
	{"geometry":{"coordinates":[3.439767,46.119297],"type":"Point"},"properties":{"osm_id":"7179911519","tag":{"amenity":"waste_basket","survey:date":"2020-01-18","waste":"trash"}},"type":"Feature"},
	{"geometry":{"coordinates":[3.434065,46.131789],"type":"Point"},"properties":{"osm_id":"7179911550","tag":{"amenity":"waste_basket","survey:date":"2020-01-18","waste":"dog_excrement"}},"type":"Feature"},
	{"geometry":{"coordinates":[3.441709,46.118714],"type":"Point"},"properties":{"osm_id":"7179911590","tag":{"amenity":"waste_basket","survey:date":"2020-01-18","waste":"trash"}},"type":"Feature"},
	{"geometry":{"coordinates":[3.428434,46.126934],"type":"Point"},"properties":{"osm_id":"7179911597","tag":{"amenity":"waste_basket","survey:date":"2020-01-04","waste":"trash"}},"type":"Feature"},
	{"geometry":{"coordinates":[3.448454,46.086719],"type":"Point"},"properties":{"osm_id":"7256056876","tag":{"amenity":"waste_basket","survey:date":"2020-02-29","waste":"trash"}},"type":"Feature"},
	{"geometry":{"coordinates":[3.449224,46.086808],"type":"Point"},"properties":{"osm_id":"7256056877","tag":{"amenity":"waste_basket","survey:date":"2020-02-29","waste":"trash"}},"type":"Feature"},
	{"geometry":{"coordinates":[3.448966,46.08659],"type":"Point"},"properties":{"osm_id":"7256056884","tag":{"amenity":"waste_basket","survey:date":"2020-02-29","waste":"trash"}},"type":"Feature"},
	{"geometry":{"coordinates":[3.448693,46.086509],"type":"Point"},"properties":{"osm_id":"7256094685","tag":{"amenity":"waste_basket","survey:date":"2020-02-29","waste":"trash"}},"type":"Feature"},
	{"geometry":{"coordinates":[3.446969,46.088883],"type":"Point"},"properties":{"osm_id":"7256094691","tag":{"amenity":"waste_basket","survey:date":"2020-02-29","waste":"trash"}},"type":"Feature"},
	{"geometry":{"coordinates":[3.44714,46.089032],"type":"Point"},"properties":{"osm_id":"7256094692","tag":{"amenity":"waste_basket","survey:date":"2020-02-29","waste":"trash"}},"type":"Feature"},
	{"geometry":{"coordinates":[3.446471,46.089922],"type":"Point"},"properties":{"osm_id":"7256094706","tag":{"amenity":"waste_basket","survey:date":"2020-02-29","waste":"trash"}},"type":"Feature"},
	{"geometry":{"coordinates":[3.429011,46.123826],"type":"Point"},"properties":{"osm_id":"7256175989","tag":{"amenity":"waste_basket","survey:date":"2020-02-29","waste":"trash"}},"type":"Feature"},
	{"geometry":{"coordinates":[3.428962,46.123838],"type":"Point"},"properties":{"osm_id":"7256175990","tag":{"amenity":"recycling","opening_hours":"24/7","recycling:cardboard":"yes","recycling:glass":"yes","recycling:paper":"yes","recycling:waste":"yes","recycling_type":"container","survey:date":"2020-02-29","wheelchair":"yes"}},"type":"Feature"},
	{"geometry":{"coordinates":[3.438612,46.115276],"type":"Point"},"properties":{"osm_id":"7256176031","tag":{"amenity":"waste_basket","start_date":"2016","survey:date":"2020-02-22","waste":"trash"}},"type":"Feature"},
	{"geometry":{"coordinates":[3.427822,46.131372],"type":"Point"},"properties":{"osm_id":"7256176143","tag":{"amenity":"waste_basket","survey:date":"2020-02-09","waste":"trash"}},"type":"Feature"},
	{"geometry":{"coordinates":[3.430163,46.132184],"type":"Point"},"properties":{"osm_id":"7256176154","tag":{"amenity":"waste_basket","survey:date":"2020-02-09","waste":"trash"}},"type":"Feature"},
	{"geometry":{"coordinates":[3.432137,46.133977],"type":"Point"},"properties":{"osm_id":"7256176158","tag":{"amenity":"waste_basket","survey:date":"2020-02-09","waste":"trash"}},"type":"Feature"},
	{"geometry":{"coordinates":[3.434807,46.132557],"type":"Point"},"properties":{"osm_id":"7256176171","tag":{"amenity":"waste_basket","start_date":"2017","survey:date":"2020-02-09","waste":"trash"}},"type":"Feature"},
	{"geometry":{"coordinates":[3.434497,46.125369],"type":"Point"},"properties":{"osm_id":"7256176392","tag":{"amenity":"waste_basket","survey:date":"2020-02-08","waste":"trash"}},"type":"Feature"},
	{"geometry":{"coordinates":[3.435008,46.124761],"type":"Point"},"properties":{"osm_id":"7256176402","tag":{"amenity":"waste_basket","survey:date":"2020-02-08","waste":"trash"}},"type":"Feature"},
	{"geometry":{"coordinates":[3.447115,46.125789],"type":"Point"},"properties":{"osm_id":"7590461150","tag":{"amenity":"waste_basket","survey:date":"2020-05-31","waste":"dog_excrement"}},"type":"Feature"},
	{"geometry":{"coordinates":[3.431762,46.132855],"type":"Point"},"properties":{"osm_id":"7590467713","tag":{"amenity":"waste_basket","survey:date":"2020-05-31","waste":"trash"}},"type":"Feature"},
	{"geometry":{"coordinates":[3.429173,46.130918],"type":"Point"},"properties":{"osm_id":"7590467715","tag":{"amenity":"waste_basket","survey:date":"2020-05-31","waste":"trash"}},"type":"Feature"},
	{"geometry":{"coordinates":[3.430344,46.118069],"type":"Point"},"properties":{"osm_id":"7590467725","tag":{"amenity":"waste_basket","survey:date":"2020-05-31","waste":"trash"}},"type":"Feature"},
	{"geometry":{"coordinates":[3.428913,46.134114],"type":"Point"},"properties":{"osm_id":"7590467978","tag":{"amenity":"waste_basket","survey:date":"2020-05-21","waste":"trash"}},"type":"Feature"},
	{"geometry":{"coordinates":[3.433446,46.129577],"type":"Point"},"properties":{"osm_id":"7684887547","tag":{"amenity":"waste_basket","survey:date":"2020-06-27","waste":"trash"}},"type":"Feature"},
	{"geometry":{"coordinates":[3.436856,46.132665],"type":"Point"},"properties":{"osm_id":"7684887548","tag":{"amenity":"waste_basket","start_date":"2020","survey:date":"2020-07-14","waste":"trash;cigarettes"}},"type":"Feature"},
	{"geometry":{"coordinates":[3.439555,46.101588],"type":"Point"},"properties":{"osm_id":"7774165720","tag":{"amenity":"waste_basket","start_date":"2020","survey:date":"2020-07-25","waste":"trash;cigarettes"}},"type":"Feature"},
	{"geometry":{"coordinates":[3.452628,46.075897],"type":"Point"},"properties":{"osm_id":"7774165752","tag":{"amenity":"waste_basket","survey:date":"2020-07-25","waste":"trash;cigarettes"}},"type":"Feature"},
	{"geometry":{"coordinates":[3.461532,46.074263],"type":"Point"},"properties":{"osm_id":"7774190705","tag":{"amenity":"waste_basket","start_date":"2020","survey:date":"2020-07-25","waste":"trash;cigarettes"}},"type":"Feature"},
	{"geometry":{"coordinates":[3.440498,46.100367],"type":"Point"},"properties":{"osm_id":"7774190725","tag":{"amenity":"waste_basket","start_date":"2020","survey:date":"2020-07-25","waste":"trash;cigarettes"}},"type":"Feature"},
	{"geometry":{"coordinates":[3.44464,46.082693],"type":"Point"},"properties":{"osm_id":"7779342042","tag":{"amenity":"waste_basket","survey:date":"2020-05-16","waste":"trash"}},"type":"Feature"},
	{"geometry":{"coordinates":[3.46223,46.133424],"type":"Point"},"properties":{"osm_id":"7779369167","tag":{"amenity":"waste_basket","survey:date":"2020-08-01","waste":"dog_excrement"}},"type":"Feature"},
	{"geometry":{"coordinates":[3.462875,46.129671],"type":"Point"},"properties":{"osm_id":"7779371558","tag":{"amenity":"waste_basket","survey:date":"2020-07-14","waste":"trash"}},"type":"Feature"},
	{"geometry":{"coordinates":[3.439204,46.133809],"type":"Point"},"properties":{"osm_id":"7779371605","tag":{"amenity":"waste_basket","start_date":"2020","survey:date":"2020-07-14","waste":"trash;cigarettes"}},"type":"Feature"}
]
}
