{
"type": "FeatureCollection",
"features": [
	{"geometry":{"coordinates":[3.49397,46.018752],"type":"Point"},"properties":{"osm_id":"567802601","tag":{"amenity":"recycling"}},"type":"Feature"},
	{"geometry":{"coordinates":[3.461777,46.064623],"type":"Point"},"properties":{"osm_id":"2603673624","tag":{"amenity":"waste_basket","waste":"trash"}},"type":"Feature"},
	{"geometry":{"coordinates":[3.461977,46.066225],"type":"Point"},"properties":{"osm_id":"2603673936","tag":{"amenity":"waste_basket","image":"https://lh4.googleusercontent.com/-Wy2VE3vhKeM/Um1N28WTr7I/AAAAAAAAJOI/SjNBZiysS1I/s800/Abri_131027_4170.JPG"}},"type":"Feature"},
	{"geometry":{"coordinates":[3.460304,46.063082],"type":"Point"},"properties":{"osm_id":"3111421927","tag":{"amenity":"waste_basket"}},"type":"Feature"},
	{"geometry":{"coordinates":[3.461262,46.063781],"type":"Point"},"properties":{"osm_id":"3111424040","tag":{"amenity":"waste_basket"}},"type":"Feature"},
	{"geometry":{"coordinates":[3.462933,46.066226],"type":"Point"},"properties":{"osm_id":"6800195909","tag":{"amenity":"waste_basket","survey:date":"2019-09-15","waste":"trash"}},"type":"Feature"},
	{"geometry":{"coordinates":[3.462925,46.066237],"type":"Point"},"properties":{"osm_id":"6800195910","tag":{"amenity":"recycling","opening_hours":"24/7","recycling:glass":"yes","recycling_type":"container","survey:date":"2019-09-15","wheelchair":"yes"}},"type":"Feature"},
	{"geometry":{"coordinates":[3.451248,46.072114],"type":"Point"},"properties":{"osm_id":"7774190686","tag":{"amenity":"waste_basket","start_date":"2020","survey:date":"2020-07-25","waste":"trash;cigarettes"}},"type":"Feature"},
	{"geometry":{"coordinates":[3.461624,46.070617],"type":"Point"},"properties":{"osm_id":"7774190699","tag":{"amenity":"waste_basket","start_date":"2020","survey:date":"2020-07-25","waste":"trash;cigarettes"}},"type":"Feature"},
	{"geometry":{"coordinates":[3.462197,46.072298],"type":"Point"},"properties":{"osm_id":"7774190700","tag":{"amenity":"waste_basket","start_date":"2020","survey:date":"2020-07-25","waste":"trash;cigarettes"}},"type":"Feature"},
	{"geometry":{"coordinates":[3.461643,46.065991],"type":"Point"},"properties":{"osm_id":"8279281570","tag":{"amenity":"waste_basket","survey:date":"2020-12-20","waste":"trash"}},"type":"Feature"},
	{"geometry":{"coordinates":[3.462862,46.065766],"type":"Point"},"properties":{"osm_id":"8279281591","tag":{"amenity":"waste_basket","survey:date":"2020-12-20","waste":"trash"}},"type":"Feature"},
	{"geometry":{"coordinates":[3.462504,46.06552],"type":"Point"},"properties":{"osm_id":"8279281597","tag":{"amenity":"waste_basket","survey:date":"2020-12-20","waste":"trash"}},"type":"Feature"},
	{"geometry":{"coordinates":[3.462784,46.065469],"type":"Point"},"properties":{"osm_id":"8279281598","tag":{"amenity":"waste_basket","survey:date":"2020-12-20","waste":"trash"}},"type":"Feature"},
	{"geometry":{"coordinates":[3.462732,46.065615],"type":"Point"},"properties":{"osm_id":"8279281602","tag":{"amenity":"waste_basket","survey:date":"2020-12-20","waste":"trash"}},"type":"Feature"},
	{"geometry":{"coordinates":[3.463226,46.066492],"type":"Point"},"properties":{"osm_id":"8279281603","tag":{"amenity":"waste_basket","survey:date":"2020-12-20","waste":"trash"}},"type":"Feature"},
	{"geometry":{"coordinates":[3.462253,46.066299],"type":"Point"},"properties":{"osm_id":"8279281605","tag":{"amenity":"waste_basket","survey:date":"2020-12-20","waste":"trash"}},"type":"Feature"},
	{"geometry":{"coordinates":[3.458695,46.059794],"type":"Point"},"properties":{"osm_id":"8699090551","tag":{"amenity":"waste_basket","survey:date":"2021-04-25","waste":"trash"}},"type":"Feature"},
	{"geometry":{"coordinates":[3.458182,46.060393],"type":"Point"},"properties":{"osm_id":"8699090568","tag":{"amenity":"waste_basket","survey:date":"2021-04-25","waste":"trash"}},"type":"Feature"}
]
}
