{
"type": "FeatureCollection",
"features": [
	{"geometry":{"coordinates":[3.446431,43.285974],"type":"Point"},"properties":{"osm_id":"429711416","tag":{"amenity":"recycling","recycling_type":"container"}},"type":"Feature"},
	{"geometry":{"coordinates":[3.449333,43.283148],"type":"Point"},"properties":{"osm_id":"430282087","tag":{"amenity":"recycling","mapillary":"UnW5J2uCSBsSM-YjpWIt5A","recycling:glass":"yes","recycling_type":"container","survey:date":"2018-09-26"}},"type":"Feature"},
	{"geometry":{"coordinates":[3.445463,43.282994],"type":"Point"},"properties":{"osm_id":"431418892","tag":{"amenity":"recycling","location":"underground","mapillary":"-Ct1RAowwzOuCh6X5xblww","recycling:glass":"yes","recycling_type":"container","survey:date":"2018-09-26"}},"type":"Feature"},
	{"geometry":{"coordinates":[3.465306,43.309076],"type":"Point"},"properties":{"osm_id":"432451546","tag":{"amenity":"recycling","mapillary":"0f1r5OexWVoKASsgICeQ2Q","recycling:glass":"yes","recycling:paper":"yes","recycling_type":"centre","survey:date":"2019-09-12"}},"type":"Feature"},
	{"geometry":{"coordinates":[3.513982,43.291133],"type":"Point"},"properties":{"osm_id":"1404992153","tag":{"amenity":"recycling","recycling_type":"container"}},"type":"Feature"},
	{"geometry":{"coordinates":[3.488245,43.276325],"type":"Point"},"properties":{"osm_id":"2518621749","tag":{"amenity":"recycling","recycling:glass":"yes"}},"type":"Feature"},
	{"geometry":{"coordinates":[3.488219,43.276392],"type":"Point"},"properties":{"osm_id":"2518621750","tag":{"amenity":"recycling","recycling:cans":"yes","recycling:paper":"yes","recycling:scrap_metal":"no","recycling_type":"container"}},"type":"Feature"},
	{"geometry":{"coordinates":[3.484711,43.276937],"type":"Point"},"properties":{"osm_id":"2518621752","tag":{"amenity":"recycling","recycling:glass":"yes"}},"type":"Feature"},
	{"geometry":{"coordinates":[3.468335,43.295208],"type":"Point"},"properties":{"barrier":"gate","osm_id":"2965836382"},"type":"Feature"},
	{"geometry":{"coordinates":[3.504596,43.287025],"type":"Point"},"properties":{"osm_id":"4298967265","tag":{"amenity":"recycling","recycling_type":"container"}},"type":"Feature"},
	{"geometry":{"coordinates":[3.509774,43.289897],"type":"Point"},"properties":{"osm_id":"4813229796","tag":{"amenity":"waste_basket"}},"type":"Feature"},
	{"geometry":{"coordinates":[3.508272,43.289767],"type":"Point"},"properties":{"osm_id":"4813229805","tag":{"amenity":"waste_basket"}},"type":"Feature"},
	{"geometry":{"coordinates":[3.508728,43.289748],"type":"Point"},"properties":{"osm_id":"4813229808","tag":{"amenity":"waste_basket"}},"type":"Feature"},
	{"geometry":{"coordinates":[3.508801,43.289977],"type":"Point"},"properties":{"osm_id":"4813229809","tag":{"amenity":"waste_basket"}},"type":"Feature"},
	{"geometry":{"coordinates":[3.508444,43.290344],"type":"Point"},"properties":{"osm_id":"4813229813","tag":{"amenity":"waste_basket"}},"type":"Feature"},
	{"geometry":{"coordinates":[3.507974,43.290362],"type":"Point"},"properties":{"osm_id":"4813229814","tag":{"amenity":"waste_basket"}},"type":"Feature"},
	{"geometry":{"coordinates":[3.507775,43.289891],"type":"Point"},"properties":{"osm_id":"4813229818","tag":{"amenity":"waste_basket"}},"type":"Feature"},
	{"geometry":{"coordinates":[3.507973,43.289958],"type":"Point"},"properties":{"osm_id":"4813229820","tag":{"amenity":"waste_basket"}},"type":"Feature"},
	{"geometry":{"coordinates":[3.509041,43.289967],"type":"Point"},"properties":{"osm_id":"4813236681","tag":{"amenity":"waste_basket"}},"type":"Feature"},
	{"geometry":{"coordinates":[3.509687,43.290393],"type":"Point"},"properties":{"osm_id":"4813236684","tag":{"amenity":"waste_basket"}},"type":"Feature"},
	{"geometry":{"coordinates":[3.509683,43.289942],"type":"Point"},"properties":{"osm_id":"4813236686","tag":{"amenity":"waste_basket"}},"type":"Feature"},
	{"geometry":{"coordinates":[3.509356,43.289667],"type":"Point"},"properties":{"osm_id":"4813236688","tag":{"amenity":"waste_basket"}},"type":"Feature"},
	{"geometry":{"coordinates":[3.509384,43.28974],"type":"Point"},"properties":{"osm_id":"4813236691","tag":{"amenity":"waste_basket"}},"type":"Feature"},
	{"geometry":{"coordinates":[3.494916,43.281234],"type":"Point"},"properties":{"osm_id":"4970923522","tag":{"amenity":"recycling","image":"https://storage12.openstreetcam.org/files/photo/2019/8/31/lth/1954369_23949_5d69d172a9897.jpg","recycling_type":"container","survey:date":"2019-08-31"}},"type":"Feature"},
	{"geometry":{"coordinates":[3.510574,43.28511],"type":"Point"},"properties":{"osm_id":"5071686448","tag":{"amenity":"waste_basket"}},"type":"Feature"},
	{"geometry":{"coordinates":[3.468749,43.295243],"type":"Point"},"properties":{"barrier":"gate","osm_id":"5318414076"},"type":"Feature"},
	{"geometry":{"coordinates":[3.445921,43.284469],"type":"Point"},"properties":{"osm_id":"5473245932","tag":{"amenity":"recycling","recycling_type":"container"}},"type":"Feature"},
	{"geometry":{"coordinates":[3.445958,43.2846],"type":"Point"},"properties":{"osm_id":"5473247845","tag":{"amenity":"recycling","recycling:cardboard":"yes","recycling_type":"container"}},"type":"Feature"},
	{"geometry":{"coordinates":[3.439565,43.307324],"type":"Point"},"properties":{"osm_id":"5531828521","tag":{"amenity":"waste_basket"}},"type":"Feature"},
	{"geometry":{"coordinates":[3.450297,43.287203],"type":"Point"},"properties":{"osm_id":"5670550825","tag":{"amenity":"recycling","mapillary":"NgCegQ2_MT54xwt0hzRlEQ","recycling_type":"container","survey:date":"2018-09-26"}},"type":"Feature"},
	{"geometry":{"coordinates":[3.451554,43.293759],"type":"Point"},"properties":{"osm_id":"5678422223","tag":{"amenity":"recycling","mapillary":"8z-RPS7AMsphF69EB28KGA","operator":"SICTOM","recycling_type":"container","survey:date":"2017-07-11"}},"type":"Feature"},
	{"geometry":{"coordinates":[3.515414,43.281847],"type":"Point"},"properties":{"osm_id":"5700633424","tag":{"amenity":"recycling"}},"type":"Feature"},
	{"geometry":{"coordinates":[3.515017,43.28314],"type":"Point"},"properties":{"osm_id":"5700633425","tag":{"amenity":"recycling"}},"type":"Feature"},
	{"geometry":{"coordinates":[3.458792,43.28096],"type":"Point"},"properties":{"osm_id":"5700633426","tag":{"amenity":"recycling"}},"type":"Feature"},
	{"geometry":{"coordinates":[3.453489,43.284129],"type":"Point"},"properties":{"osm_id":"5700633427","tag":{"amenity":"recycling","mapillary":"62NKmMvlp27qlH2YwaDQuA","recycling_type":"container","survey:date":"2018-09-26"}},"type":"Feature"}
]
}
