{
"type": "FeatureCollection",
"features": [
	{"geometry":{"coordinates":[3.800044,50.648263],"type":"Point"},"properties":{"osm_id":"1366730408","tag":{"amenity":"waste_basket"}},"type":"Feature"},
	{"geometry":{"coordinates":[3.800095,50.648277],"type":"Point"},"properties":{"osm_id":"1366739378","tag":{"amenity":"recycling","recycling:glass_bottles":"yes"}},"type":"Feature"},
	{"geometry":{"coordinates":[3.818843,50.662524],"type":"Point"},"properties":{"osm_id":"1419578961","tag":{"amenity":"recycling","location":"overground","recycling_type":"container"}},"type":"Feature"},
	{"geometry":{"coordinates":[3.789803,50.628485],"type":"Point"},"properties":{"osm_id":"4204132507","tag":{"amenity":"recycling","recycling:glass":"yes"}},"type":"Feature"},
	{"geometry":{"coordinates":[3.789225,50.635216],"type":"Point"},"properties":{"osm_id":"7487481789","tag":{"amenity":"recycling","recycling_type":"container","waste":"glass"}},"type":"Feature"},
	{"geometry":{"coordinates":[3.78925,50.635205],"type":"Point"},"properties":{"osm_id":"7490579627","tag":{"amenity":"recycling","recycling:clothes":"yes","recycling_type":"container"}},"type":"Feature"},
	{"geometry":{"coordinates":[3.787302,50.634174],"type":"Point"},"properties":{"osm_id":"7512377417","tag":{"amenity":"waste_basket"}},"type":"Feature"},
	{"geometry":{"coordinates":[3.785429,50.634502],"type":"Point"},"properties":{"osm_id":"7512377419","tag":{"amenity":"waste_basket"}},"type":"Feature"},
	{"geometry":{"coordinates":[3.787863,50.638102],"type":"Point"},"properties":{"osm_id":"7619564605","tag":{"amenity":"recycling","location":"underground","recycling_type":"container","waste":"glass"}},"type":"Feature"},
	{"geometry":{"coordinates":[3.787893,50.638085],"type":"Point"},"properties":{"osm_id":"7619564606","tag":{"amenity":"recycling","location":"underground","recycling_type":"container","waste":"organic"}},"type":"Feature"},
	{"geometry":{"coordinates":[3.779404,50.632783],"type":"Point"},"properties":{"osm_id":"7628660945","tag":{"amenity":"recycling","recycling_type":"container"}},"type":"Feature"},
	{"geometry":{"coordinates":[3.779432,50.632767],"type":"Point"},"properties":{"osm_id":"7628660946","tag":{"amenity":"waste_basket"}},"type":"Feature"},
	{"geometry":{"coordinates":[3.783412,50.633492],"type":"Point"},"properties":{"osm_id":"7705840651","tag":{"amenity":"waste_basket"}},"type":"Feature"},
	{"geometry":{"coordinates":[3.783494,50.633387],"type":"Point"},"properties":{"osm_id":"7705840652","tag":{"amenity":"waste_basket"}},"type":"Feature"},
	{"geometry":{"coordinates":[3.782906,50.633396],"type":"Point"},"properties":{"osm_id":"7705840653","tag":{"amenity":"waste_basket"}},"type":"Feature"},
	{"geometry":{"coordinates":[3.786515,50.632976],"type":"Point"},"properties":{"osm_id":"7705866850","tag":{"amenity":"waste_basket"}},"type":"Feature"},
	{"geometry":{"coordinates":[3.786672,50.633084],"type":"Point"},"properties":{"osm_id":"7705866851","tag":{"amenity":"waste_basket"}},"type":"Feature"},
	{"geometry":{"coordinates":[3.846869,50.648694],"type":"Point"},"properties":{"osm_id":"7725452928","tag":{"amenity":"recycling","recycling:glass":"yes","recycling_type":"container"}},"type":"Feature"},
	{"geometry":{"coordinates":[3.846837,50.648698],"type":"Point"},"properties":{"osm_id":"7725452929","tag":{"amenity":"recycling","recycling:clothes":"yes","recycling_type":"container"}},"type":"Feature"},
	{"geometry":{"coordinates":[3.78151,50.625473],"type":"Point"},"properties":{"osm_id":"7762597297","tag":{"amenity":"waste_basket"}},"type":"Feature"},
	{"geometry":{"coordinates":[3.782284,50.631351],"type":"Point"},"properties":{"osm_id":"7820487039","tag":{"amenity":"waste_basket"}},"type":"Feature"},
	{"geometry":{"coordinates":[3.782557,50.631499],"type":"Point"},"properties":{"osm_id":"7820487041","tag":{"amenity":"waste_basket"}},"type":"Feature"},
	{"geometry":{"coordinates":[3.782958,50.63169],"type":"Point"},"properties":{"osm_id":"7820487043","tag":{"amenity":"waste_basket"}},"type":"Feature"},
	{"geometry":{"coordinates":[3.783111,50.631708],"type":"Point"},"properties":{"osm_id":"7820487045","tag":{"amenity":"waste_basket"}},"type":"Feature"},
	{"geometry":{"coordinates":[3.783604,50.632039],"type":"Point"},"properties":{"osm_id":"7820487046","tag":{"amenity":"waste_basket"}},"type":"Feature"},
	{"geometry":{"coordinates":[3.783655,50.632015],"type":"Point"},"properties":{"osm_id":"7820487048","tag":{"amenity":"waste_basket"}},"type":"Feature"},
	{"geometry":{"coordinates":[3.783805,50.631698],"type":"Point"},"properties":{"osm_id":"7820487050","tag":{"amenity":"waste_basket"}},"type":"Feature"},
	{"geometry":{"coordinates":[3.783925,50.631598],"type":"Point"},"properties":{"osm_id":"7820487051","tag":{"amenity":"waste_basket"}},"type":"Feature"},
	{"geometry":{"coordinates":[3.78399,50.631297],"type":"Point"},"properties":{"osm_id":"7820487052","tag":{"amenity":"waste_basket"}},"type":"Feature"},
	{"geometry":{"coordinates":[3.784037,50.631172],"type":"Point"},"properties":{"osm_id":"7820487054","tag":{"amenity":"waste_basket"}},"type":"Feature"},
	{"geometry":{"coordinates":[3.78375,50.631098],"type":"Point"},"properties":{"osm_id":"7820487058","tag":{"amenity":"waste_basket"}},"type":"Feature"},
	{"geometry":{"coordinates":[3.783597,50.631114],"type":"Point"},"properties":{"osm_id":"7820487060","tag":{"amenity":"waste_basket"}},"type":"Feature"},
	{"geometry":{"coordinates":[3.783424,50.630964],"type":"Point"},"properties":{"osm_id":"7820487065","tag":{"amenity":"waste_basket"}},"type":"Feature"},
	{"geometry":{"coordinates":[3.78334,50.631228],"type":"Point"},"properties":{"osm_id":"7820487068","tag":{"amenity":"waste_basket"}},"type":"Feature"},
	{"geometry":{"coordinates":[3.78353,50.631303],"type":"Point"},"properties":{"osm_id":"7820487070","tag":{"amenity":"waste_basket"}},"type":"Feature"},
	{"geometry":{"coordinates":[3.783049,50.630949],"type":"Point"},"properties":{"osm_id":"7820487072","tag":{"amenity":"waste_basket"}},"type":"Feature"},
	{"geometry":{"coordinates":[3.78282,50.630949],"type":"Point"},"properties":{"osm_id":"7820487074","tag":{"amenity":"waste_basket"}},"type":"Feature"},
	{"geometry":{"coordinates":[3.782863,50.630841],"type":"Point"},"properties":{"osm_id":"7820487076","tag":{"amenity":"waste_basket"}},"type":"Feature"},
	{"geometry":{"coordinates":[3.78279,50.630758],"type":"Point"},"properties":{"osm_id":"7820487078","tag":{"amenity":"waste_basket"}},"type":"Feature"},
	{"geometry":{"coordinates":[3.782758,50.631079],"type":"Point"},"properties":{"osm_id":"7820487079","tag":{"amenity":"waste_basket"}},"type":"Feature"},
	{"geometry":{"coordinates":[3.782363,50.631194],"type":"Point"},"properties":{"osm_id":"7820487082","tag":{"amenity":"waste_basket"}},"type":"Feature"},
	{"geometry":{"coordinates":[3.782724,50.630557],"type":"Point"},"properties":{"osm_id":"7820487084","tag":{"amenity":"waste_basket"}},"type":"Feature"},
	{"geometry":{"coordinates":[3.782289,50.630895],"type":"Point"},"properties":{"osm_id":"7820489585","tag":{"amenity":"waste_basket"}},"type":"Feature"}
]
}
