{
"type": "FeatureCollection",
"features": [
	{"geometry":{"coordinates":[3.842719,50.61016],"type":"Point"},"properties":{"highway":"bus_stop","name":"Route de M\u00c3\u00a9vergnies","osm_id":"2987325954","tag":{"amenity":"waste_basket","bench":"no","bus":"yes","network":"TECH","operator":"TEC","public_transport":"platform","ref:TECH":"H5ar104a","route_ref:TECH":"12;100","shelter":"no","tactile_paving":"no","zone:TEC":"3127"}},"type":"Feature"},
	{"geometry":{"coordinates":[3.850282,50.607207],"type":"Point"},"properties":{"highway":"bus_stop","name":"Maison Communale","osm_id":"2987326003","tag":{"amenity":"waste_basket","bench":"yes","bus":"yes","network":"TEC Hainaut","operator":"TEC","public_transport":"platform","ref:TECH":"H5me106a","route_ref:TECH":"12;100","shelter":"yes","zone:TEC":"3127"}},"type":"Feature"},
	{"geometry":{"coordinates":[3.852003,50.594435],"type":"Point"},"properties":{"osm_id":"6363334876","tag":{"amenity":"recycling","recycling:clothes":"yes","recycling_type":"container"}},"type":"Feature"},
	{"geometry":{"coordinates":[3.860303,50.576522],"type":"Point"},"properties":{"osm_id":"6388081945","tag":{"amenity":"recycling","recycling:glass":"yes","recycling:glass_bottles":"yes","recycling_type":"container"}},"type":"Feature"},
	{"geometry":{"coordinates":[3.836067,50.611276],"type":"Point"},"properties":{"highway":"bus_stop","name":"Route d'Ath","osm_id":"6478238774","tag":{"amenity":"waste_basket","bench":"no","bus":"yes","public_transport":"platform","shelter":"no"}},"type":"Feature"},
	{"geometry":{"coordinates":[3.8559,50.591862],"type":"Point"},"properties":{"osm_id":"6618687879","tag":{"amenity":"waste_basket"}},"type":"Feature"},
	{"geometry":{"coordinates":[3.856187,50.591924],"type":"Point"},"properties":{"osm_id":"6618687881","tag":{"amenity":"waste_basket"}},"type":"Feature"},
	{"geometry":{"coordinates":[3.854905,50.592019],"type":"Point"},"properties":{"osm_id":"6618687883","tag":{"amenity":"waste_basket"}},"type":"Feature"},
	{"geometry":{"coordinates":[3.858999,50.591286],"type":"Point"},"properties":{"osm_id":"6618692492","tag":{"amenity":"waste_basket"}},"type":"Feature"},
	{"geometry":{"coordinates":[3.85835,50.591044],"type":"Point"},"properties":{"osm_id":"6618692493","tag":{"amenity":"waste_basket"}},"type":"Feature"},
	{"geometry":{"coordinates":[3.857288,50.591071],"type":"Point"},"properties":{"osm_id":"6618692496","tag":{"amenity":"waste_basket"}},"type":"Feature"},
	{"geometry":{"coordinates":[3.85702,50.591357],"type":"Point"},"properties":{"osm_id":"6618692498","tag":{"amenity":"waste_basket"}},"type":"Feature"},
	{"geometry":{"coordinates":[3.850601,50.605349],"type":"Point"},"properties":{"osm_id":"6618714297","tag":{"amenity":"recycling","recycling:glass_bottles":"yes","recycling_type":"container"}},"type":"Feature"},
	{"geometry":{"coordinates":[3.850613,50.605375],"type":"Point"},"properties":{"osm_id":"6618714298","tag":{"amenity":"recycling","material":"compost","recycling:cans":"yes","recycling:glass_bottles":"yes","recycling:plastic":"no","recycling:plastic_packaging":"yes","recycling_type":"container"}},"type":"Feature"},
	{"geometry":{"coordinates":[3.854392,50.599147],"type":"Point"},"properties":{"osm_id":"6627263240","tag":{"amenity":"waste_basket"}},"type":"Feature"},
	{"geometry":{"coordinates":[3.833673,50.60025],"type":"Point"},"properties":{"osm_id":"7236361602","tag":{"amenity":"recycling","recycling_type":"container"}},"type":"Feature"},
	{"geometry":{"coordinates":[3.802212,50.615075],"type":"Point"},"properties":{"osm_id":"7512050856","tag":{"amenity":"recycling","location":"underground","recycling:glass_bottles":"yes","recycling:organic":"yes","recycling_type":"container"}},"type":"Feature"},
	{"geometry":{"coordinates":[3.811863,50.589018],"type":"Point"},"properties":{"osm_id":"7512377415","tag":{"amenity":"waste_basket"}},"type":"Feature"},
	{"geometry":{"coordinates":[3.815264,50.608543],"type":"Point"},"properties":{"osm_id":"7512377416","tag":{"amenity":"waste_basket"}},"type":"Feature"},
	{"geometry":{"coordinates":[3.813725,50.611805],"type":"Point"},"properties":{"osm_id":"7563748337","tag":{"amenity":"recycling","location":"overground","recycling_type":"container","waste":"glass"}},"type":"Feature"},
	{"geometry":{"coordinates":[3.782534,50.618354],"type":"Point"},"properties":{"osm_id":"7628411525","tag":{"amenity":"waste_basket"}},"type":"Feature"},
	{"geometry":{"coordinates":[3.817023,50.614107],"type":"Point"},"properties":{"osm_id":"7740508197","tag":{"amenity":"waste_basket"}},"type":"Feature"},
	{"geometry":{"coordinates":[3.78162,50.623325],"type":"Point"},"properties":{"osm_id":"8167734942","tag":{"amenity":"waste_basket"}},"type":"Feature"},
	{"geometry":{"coordinates":[3.815358,50.58936],"type":"Point"},"properties":{"osm_id":"8933787129","tag":{"amenity":"waste_disposal","recycling_type":"container","waste":"trash"}},"type":"Feature"},
	{"geometry":{"coordinates":[3.809061,50.621503],"type":"Point"},"properties":{"osm_id":"8935810211","tag":{"amenity":"waste_disposal","recycling:green_waste":"yes"}},"type":"Feature"},
	{"geometry":{"coordinates":[3.809067,50.621524],"type":"Point"},"properties":{"osm_id":"8935810212","tag":{"amenity":"waste_disposal","waste":"trash"}},"type":"Feature"},
	{"geometry":{"coordinates":[3.801883,50.611669],"type":"Point"},"properties":{"osm_id":"8941688025","tag":{"amenity":"waste_basket"}},"type":"Feature"},
	{"geometry":{"coordinates":[3.815478,50.589117],"type":"Point"},"properties":{"osm_id":"8988302860","tag":{"amenity":"waste_basket"}},"type":"Feature"},
	{"geometry":{"coordinates":[3.802187,50.615054],"type":"Point"},"properties":{"osm_id":"9183672950","tag":{"amenity":"waste_basket"}},"type":"Feature"},
	{"geometry":{"coordinates":[3.802241,50.615089],"type":"Point"},"properties":{"osm_id":"9183672952","tag":{"amenity":"recycling","location":"underground","recycling:glass_bottles":"yes","recycling:organic":"yes","recycling_type":"container"}},"type":"Feature"}
]
}
