{
"type": "FeatureCollection",
"lastupdate": "2020-08-03T00:00:00Z",
"features": [
	{"geometry":{"coordinates":[3.809392,46.351619],"type":"Point"},"properties":{"osm_id":"1871632885","tag":{"amenity":"waste_basket"}},"type":"Feature"},
	{"geometry":{"coordinates":[3.80916,46.351792],"type":"Point"},"properties":{"osm_id":"1871632888","tag":{"amenity":"waste_basket"}},"type":"Feature"},
	{"geometry":{"coordinates":[3.794568,46.3491],"type":"Point"},"properties":{"name":"Conteneurs de recyclage","osm_id":"4738084524","tag":{"amenity":"recycling","name:fr":"Conteneurs de recyclage"}},"type":"Feature"},
	{"geometry":{"coordinates":[3.792264,46.359015],"type":"Point"},"properties":{"name":"D\u00c3\u00a9ch\u00c3\u00a8terie\u00c2\u00a0de\u00c2\u00a0le\u00c2\u00a0Donjon","osm_id":"6960408958","tag":{"amenity":"recycling","operator":"Suez\u00a0Rv\u00a0Centre\u00a0Est\u00a0(Sita)","phone":"+33 4 70 31 83 82","recycling_type":"centre","ref:FR:SINOE":"94053","start_date":"2009-09-02"}},"type":"Feature"}
]
}
