{
"type": "FeatureCollection",
"features": [
	{"geometry":{"coordinates":[3.792305,43.77064],"type":"Point"},"properties":{"osm_id":"480758798","tag":{"amenity":"recycling","recycling:glass":"yes"}},"type":"Feature"},
	{"geometry":{"coordinates":[3.866237,43.760345],"type":"Point"},"properties":{"osm_id":"1191772940","tag":{"amenity":"recycling","location":"overground","recycling_type":"container"}},"type":"Feature"},
	{"geometry":{"coordinates":[3.858923,43.714464],"type":"Point"},"properties":{"osm_id":"2467567511","tag":{"amenity":"waste_basket"}},"type":"Feature"},
	{"geometry":{"coordinates":[3.833558,43.711042],"type":"Point"},"properties":{"osm_id":"2571953724","tag":{"amenity":"waste_basket"}},"type":"Feature"},
	{"geometry":{"coordinates":[3.8518,43.740052],"type":"Point"},"properties":{"osm_id":"2628354887","tag":{"amenity":"recycling","recycling:glass":"yes","recycling_type":"container"}},"type":"Feature"},
	{"geometry":{"coordinates":[3.85537,43.740214],"type":"Point"},"properties":{"osm_id":"2628354898","tag":{"amenity":"recycling","recycling:glass":"yes","recycling_type":"container"}},"type":"Feature"},
	{"geometry":{"coordinates":[3.811911,43.724485],"type":"Point"},"properties":{"osm_id":"2933118120","tag":{"amenity":"recycling"}},"type":"Feature"},
	{"geometry":{"coordinates":[3.833448,43.710801],"type":"Point"},"properties":{"osm_id":"2938717088","tag":{"amenity":"waste_basket"}},"type":"Feature"},
	{"geometry":{"coordinates":[3.833071,43.710854],"type":"Point"},"properties":{"osm_id":"2938717089","tag":{"amenity":"waste_basket"}},"type":"Feature"},
	{"geometry":{"coordinates":[3.833451,43.710918],"type":"Point"},"properties":{"osm_id":"2938717094","tag":{"amenity":"waste_basket"}},"type":"Feature"},
	{"geometry":{"coordinates":[3.833192,43.710991],"type":"Point"},"properties":{"osm_id":"2938717097","tag":{"amenity":"waste_basket"}},"type":"Feature"},
	{"geometry":{"coordinates":[3.833248,43.711076],"type":"Point"},"properties":{"osm_id":"2938717303","tag":{"amenity":"waste_basket"}},"type":"Feature"},
	{"geometry":{"coordinates":[3.833291,43.71113],"type":"Point"},"properties":{"osm_id":"2938717308","tag":{"amenity":"waste_basket"}},"type":"Feature"},
	{"geometry":{"coordinates":[3.833366,43.711226],"type":"Point"},"properties":{"osm_id":"2938717312","tag":{"amenity":"waste_basket"}},"type":"Feature"},
	{"geometry":{"coordinates":[3.833668,43.711226],"type":"Point"},"properties":{"osm_id":"2938717313","tag":{"amenity":"waste_basket"}},"type":"Feature"},
	{"geometry":{"coordinates":[3.83353,43.713608],"type":"Point"},"properties":{"osm_id":"2938925517","tag":{"amenity":"waste_basket"}},"type":"Feature"},
	{"geometry":{"coordinates":[3.833707,43.713911],"type":"Point"},"properties":{"osm_id":"2938925521","tag":{"amenity":"waste_basket"}},"type":"Feature"},
	{"geometry":{"coordinates":[3.833865,43.714365],"type":"Point"},"properties":{"osm_id":"2938925528","tag":{"amenity":"waste_basket"}},"type":"Feature"},
	{"geometry":{"coordinates":[3.8335,43.714483],"type":"Point"},"properties":{"osm_id":"2938925534","tag":{"amenity":"waste_basket"}},"type":"Feature"},
	{"geometry":{"coordinates":[3.833914,43.714485],"type":"Point"},"properties":{"osm_id":"2938925536","tag":{"amenity":"waste_basket"}},"type":"Feature"},
	{"geometry":{"coordinates":[3.833793,43.714593],"type":"Point"},"properties":{"osm_id":"2938925546","tag":{"amenity":"waste_basket"}},"type":"Feature"},
	{"geometry":{"coordinates":[3.810052,43.731515],"type":"Point"},"properties":{"osm_id":"3037341464","tag":{"amenity":"waste_basket"}},"type":"Feature"},
	{"geometry":{"coordinates":[3.833771,43.741736],"type":"Point"},"properties":{"osm_id":"3091464381","tag":{"amenity":"waste_basket"}},"type":"Feature"},
	{"geometry":{"coordinates":[3.835528,43.746217],"type":"Point"},"properties":{"osm_id":"3091464425","tag":{"amenity":"waste_basket"}},"type":"Feature"},
	{"geometry":{"coordinates":[3.833582,43.711096],"type":"Point"},"properties":{"name":"Point Propret\u00c3\u00a9","osm_id":"4549316305","tag":{"amenity":"recycling","recycling:paper":"yes","recycling_type":"container"}},"type":"Feature"},
	{"geometry":{"coordinates":[3.832738,43.713279],"type":"Point"},"properties":{"osm_id":"4841774947","tag":{"amenity":"waste_basket"}},"type":"Feature"},
	{"geometry":{"coordinates":[3.832845,43.708644],"type":"Point"},"properties":{"name":"Point Propret\u00c3\u00a9","osm_id":"5127078920","tag":{"access":"24/7","amenity":"recycling","recycling:glass":"yes","recycling:paper":"yes","recycling_type":"container"}},"type":"Feature"},
	{"geometry":{"coordinates":[3.834121,43.71154],"type":"Point"},"properties":{"osm_id":"5247508459","tag":{"amenity":"waste_basket"}},"type":"Feature"},
	{"geometry":{"coordinates":[3.809654,43.729801],"type":"Point"},"properties":{"osm_id":"7314788002","tag":{"amenity":"recycling","recycling:glass":"yes","recycling:paper":"yes","recycling_type":"container"}},"type":"Feature"},
	{"geometry":{"coordinates":[3.813684,43.726414],"type":"Point"},"properties":{"osm_id":"7345536166","tag":{"amenity":"recycling","recycling:clothes":"yes","recycling:glass":"yes","recycling:paper":"yes","recycling_type":"container"}},"type":"Feature"},
	{"geometry":{"coordinates":[3.808384,43.726266],"type":"Point"},"properties":{"osm_id":"7345536167","tag":{"amenity":"recycling","recycling_type":"container"}},"type":"Feature"},
	{"geometry":{"coordinates":[3.819294,43.727222],"type":"Point"},"properties":{"osm_id":"7368645796","tag":{"amenity":"recycling","recycling:paper":"yes","recycling_type":"container"}},"type":"Feature"},
	{"geometry":{"coordinates":[3.808984,43.729493],"type":"Point"},"properties":{"osm_id":"7369410458","tag":{"amenity":"waste_basket","waste":"dog_excrement"}},"type":"Feature"},
	{"geometry":{"coordinates":[3.814557,43.729474],"type":"Point"},"properties":{"osm_id":"7372100641","tag":{"amenity":"waste_basket"}},"type":"Feature"},
	{"geometry":{"coordinates":[3.816544,43.728782],"type":"Point"},"properties":{"osm_id":"7372100642","tag":{"amenity":"waste_basket"}},"type":"Feature"},
	{"geometry":{"coordinates":[3.811153,43.725976],"type":"Point"},"properties":{"osm_id":"7374423493","tag":{"amenity":"waste_basket"}},"type":"Feature"},
	{"geometry":{"coordinates":[3.810878,43.726283],"type":"Point"},"properties":{"osm_id":"7374423497","tag":{"amenity":"waste_basket"}},"type":"Feature"},
	{"geometry":{"coordinates":[3.810674,43.726501],"type":"Point"},"properties":{"osm_id":"7374423500","tag":{"amenity":"waste_basket"}},"type":"Feature"},
	{"geometry":{"coordinates":[3.810484,43.726716],"type":"Point"},"properties":{"osm_id":"7374423502","tag":{"amenity":"waste_basket"}},"type":"Feature"},
	{"geometry":{"coordinates":[3.844538,43.717031],"type":"Point"},"properties":{"osm_id":"7900187085","tag":{"amenity":"recycling","recycling:clothes":"no","recycling:glass_bottles":"yes","recycling:paper":"no","recycling:plastic":"no","recycling_type":"container","survey:date":"2020-09-12"}},"type":"Feature"}
]
}
