{
"type": "FeatureCollection",
"features": [
	{"geometry":{"coordinates":[3.866148,43.613621],"type":"Point"},"properties":{"osm_id":"251353918","tag":{"amenity":"recycling","location":"overground","recycling:clothes":"yes","recycling:glass":"yes","recycling:paper":"yes","recycling_type":"container"}},"type":"Feature"},
	{"geometry":{"coordinates":[3.862147,43.611766],"type":"Point"},"properties":{"osm_id":"310242784","tag":{"amenity":"recycling","location":"overground","recycling:glass_bottles":"yes","recycling_type":"container"}},"type":"Feature"},
	{"geometry":{"coordinates":[3.85925,43.585128],"type":"Point"},"properties":{"osm_id":"440971001","tag":{"amenity":"recycling","recycling:cans":"yes","recycling:glass":"yes","recycling:paper":"yes","recycling_type":"container"}},"type":"Feature"},
	{"geometry":{"coordinates":[3.857646,43.586364],"type":"Point"},"properties":{"osm_id":"440971002","tag":{"amenity":"recycling","location":"overground","recycling:glass":"yes","recycling_type":"container"}},"type":"Feature"},
	{"geometry":{"coordinates":[3.84296,43.640202],"type":"Point"},"properties":{"osm_id":"623878803","tag":{"amenity":"recycling","recycling:glass":"yes","recycling_type":"container"}},"type":"Feature"},
	{"geometry":{"coordinates":[3.845424,43.640624],"type":"Point"},"properties":{"osm_id":"623878961","tag":{"amenity":"recycling","recycling:glass":"yes","recycling_type":"container"}},"type":"Feature"},
	{"geometry":{"coordinates":[3.850651,43.639026],"type":"Point"},"properties":{"osm_id":"775116474","tag":{"amenity":"recycling","recycling:glass":"yes"}},"type":"Feature"},
	{"geometry":{"coordinates":[3.833749,43.634062],"type":"Point"},"properties":{"osm_id":"1575980533","tag":{"amenity":"recycling","recycling:glass":"yes","recycling:glass_bottles":"yes","recycling_type":"container"}},"type":"Feature"},
	{"geometry":{"coordinates":[3.859628,43.628257],"type":"Point"},"properties":{"osm_id":"1715352547","tag":{"amenity":"recycling","recycling:glass":"yes","recycling:paper":"yes","recycling_type":"container"}},"type":"Feature"},
	{"geometry":{"coordinates":[3.847047,43.636011],"type":"Point"},"properties":{"osm_id":"1721854910","tag":{"amenity":"recycling","recycling:glass":"yes","recycling_type":"container"}},"type":"Feature"},
	{"geometry":{"coordinates":[3.859888,43.636409],"type":"Point"},"properties":{"osm_id":"1721854911","tag":{"amenity":"recycling","recycling:glass":"yes","recycling_type":"container"}},"type":"Feature"},
	{"geometry":{"coordinates":[3.863441,43.641233],"type":"Point"},"properties":{"osm_id":"1724082201","tag":{"amenity":"recycling","recycling:glass":"yes","recycling:paper":"yes","recycling_type":"container"}},"type":"Feature"},
	{"geometry":{"coordinates":[3.843747,43.629808],"type":"Point"},"properties":{"osm_id":"1931096616","tag":{"amenity":"recycling","recycling:glass":"yes","recycling_type":"container"}},"type":"Feature"},
	{"geometry":{"coordinates":[3.840433,43.626565],"type":"Point"},"properties":{"osm_id":"1999659054","tag":{"amenity":"recycling","recycling:glass":"yes","recycling:paper":"yes","recycling_type":"container"}},"type":"Feature"},
	{"geometry":{"coordinates":[3.860238,43.632282],"type":"Point"},"properties":{"osm_id":"2001029872","tag":{"amenity":"recycling","recycling:clothes":"yes","recycling:glass":"yes","recycling_type":"container"}},"type":"Feature"},
	{"geometry":{"coordinates":[3.855255,43.636227],"type":"Point"},"properties":{"osm_id":"2012332261","tag":{"amenity":"recycling","recycling:glass":"yes"}},"type":"Feature"},
	{"geometry":{"coordinates":[3.841164,43.628993],"type":"Point"},"properties":{"osm_id":"2054107314","tag":{"amenity":"recycling","recycling:glass":"yes","recycling_type":"container"}},"type":"Feature"},
	{"geometry":{"coordinates":[3.843896,43.633304],"type":"Point"},"properties":{"osm_id":"2054118127","tag":{"amenity":"recycling","recycling:glass":"yes","recycling_type":"container"}},"type":"Feature"},
	{"geometry":{"coordinates":[3.849612,43.62601],"type":"Point"},"properties":{"osm_id":"2065602927","tag":{"amenity":"recycling","recycling:glass":"yes","recycling_type":"container"}},"type":"Feature"},
	{"geometry":{"coordinates":[3.846177,43.628157],"type":"Point"},"properties":{"osm_id":"2065603113","tag":{"amenity":"recycling","recycling:glass":"yes","recycling:paper":"yes","recycling_type":"container"}},"type":"Feature"},
	{"geometry":{"coordinates":[3.852478,43.62451],"type":"Point"},"properties":{"osm_id":"2065628838","tag":{"amenity":"recycling","recycling:glass":"yes","recycling:paper":"yes","recycling_type":"container"}},"type":"Feature"},
	{"geometry":{"coordinates":[3.858566,43.6202],"type":"Point"},"properties":{"osm_id":"2065658558","tag":{"amenity":"waste_basket"}},"type":"Feature"},
	{"geometry":{"coordinates":[3.864246,43.618308],"type":"Point"},"properties":{"osm_id":"2065679437","tag":{"amenity":"waste_basket"}},"type":"Feature"},
	{"geometry":{"coordinates":[3.827658,43.611626],"type":"Point"},"properties":{"osm_id":"2078189873","tag":{"amenity":"recycling","recycling:glass":"yes","recycling_type":"container"}},"type":"Feature"},
	{"geometry":{"coordinates":[3.840093,43.639348],"type":"Point"},"properties":{"osm_id":"2104773978","ref":"V276","tag":{"amenity":"recycling","description":"Composteur collectif Croix de Lavit :     1 samedi par mois, information et distribution de bioseaux de 10h \u00c3\u00a0 12h \u00c3\u00a0 la boulangerie juste \u00c3\u00a0 c\u00c3\u00b4t\u00c3\u00a9.","recycling:glass":"yes","recycling:organic":"yes","recycling_type":"container"}},"type":"Feature"},
	{"geometry":{"coordinates":[3.836846,43.637035],"type":"Point"},"properties":{"osm_id":"2104787664","tag":{"amenity":"recycling","recycling:glass":"yes","recycling_type":"container"}},"type":"Feature"},
	{"geometry":{"coordinates":[3.865893,43.632043],"type":"Point"},"properties":{"osm_id":"2268519801","tag":{"amenity":"recycling","recycling:glass":"yes"}},"type":"Feature"},
	{"geometry":{"coordinates":[3.858267,43.631669],"type":"Point"},"properties":{"osm_id":"2268519951","tag":{"amenity":"recycling","recycling:glass":"yes","recycling_type":"container"}},"type":"Feature"},
	{"geometry":{"coordinates":[3.846124,43.63171],"type":"Point"},"properties":{"osm_id":"2341884093","tag":{"amenity":"recycling","recycling:glass_bottles":"yes","recycling:magazines":"yes","recycling:paper":"yes","recycling_type":"container"}},"type":"Feature"},
	{"geometry":{"coordinates":[3.861713,43.626054],"type":"Point"},"properties":{"osm_id":"2362899804","tag":{"amenity":"recycling","recycling:glass":"yes","recycling_type":"container"}},"type":"Feature"},
	{"geometry":{"coordinates":[3.835695,43.63529],"type":"Point"},"properties":{"osm_id":"2385899868","tag":{"amenity":"waste_basket"}},"type":"Feature"},
	{"geometry":{"coordinates":[3.838069,43.635924],"type":"Point"},"properties":{"osm_id":"2404755083","tag":{"amenity":"waste_basket"}},"type":"Feature"},
	{"geometry":{"coordinates":[3.866275,43.61844],"type":"Point"},"properties":{"osm_id":"2481268927","tag":{"amenity":"waste_basket"}},"type":"Feature"},
	{"geometry":{"coordinates":[3.866609,43.626875],"type":"Point"},"properties":{"osm_id":"2612026013","tag":{"amenity":"waste_basket"}},"type":"Feature"},
	{"geometry":{"coordinates":[3.866756,43.626978],"type":"Point"},"properties":{"osm_id":"2612026014","tag":{"amenity":"waste_basket"}},"type":"Feature"},
	{"geometry":{"coordinates":[3.861202,43.629265],"type":"Point"},"properties":{"osm_id":"2642878052","tag":{"amenity":"waste_basket"}},"type":"Feature"},
	{"geometry":{"coordinates":[3.861293,43.629525],"type":"Point"},"properties":{"osm_id":"2642878055","tag":{"amenity":"waste_basket"}},"type":"Feature"},
	{"geometry":{"coordinates":[3.86129,43.629716],"type":"Point"},"properties":{"osm_id":"2642878056","tag":{"amenity":"waste_basket"}},"type":"Feature"},
	{"geometry":{"coordinates":[3.854359,43.611607],"type":"Point"},"properties":{"osm_id":"2869126527","tag":{"amenity":"recycling","recycling:clothes":"yes","recycling_type":"container"}},"type":"Feature"},
	{"geometry":{"coordinates":[3.863827,43.619075],"type":"Point"},"properties":{"osm_id":"2886761714","tag":{"amenity":"recycling","recycling:glass":"yes","recycling_type":"container"}},"type":"Feature"},
	{"geometry":{"coordinates":[3.85429,43.632262],"type":"Point"},"properties":{"osm_id":"2957189797","tag":{"amenity":"recycling","location":"overground","recycling:cans":"no","recycling:clothes":"no","recycling:glass":"yes","recycling:paper":"yes","recycling_type":"container"}},"type":"Feature"},
	{"geometry":{"coordinates":[3.85381,43.6323],"type":"Point"},"properties":{"osm_id":"2957189798","tag":{"amenity":"waste_basket"}},"type":"Feature"},
	{"geometry":{"coordinates":[3.852076,43.58867],"type":"Point"},"properties":{"osm_id":"3186201350","tag":{"amenity":"recycling","location":"underground","recycling:paper":"yes","recycling_type":"container"}},"type":"Feature"},
	{"geometry":{"coordinates":[3.852099,43.588659],"type":"Point"},"properties":{"osm_id":"3186201351","tag":{"amenity":"recycling","location":"underground","recycling:glass":"yes","recycling_type":"container"}},"type":"Feature"},
	{"geometry":{"coordinates":[3.805958,43.59687],"type":"Point"},"properties":{"osm_id":"3293247941","tag":{"amenity":"recycling","recycling:glass":"yes","recycling_type":"container"}},"type":"Feature"},
	{"geometry":{"coordinates":[3.816481,43.630915],"type":"Point"},"properties":{"osm_id":"3344184765","tag":{"amenity":"waste_basket"}},"type":"Feature"},
	{"geometry":{"coordinates":[3.860792,43.58163],"type":"Point"},"properties":{"osm_id":"3422471268","tag":{"amenity":"recycling","recycling:glass":"yes","recycling_type":"container"}},"type":"Feature"},
	{"geometry":{"coordinates":[3.85967,43.581993],"type":"Point"},"properties":{"osm_id":"3422471269","tag":{"amenity":"recycling","recycling:glass":"yes","recycling_type":"container"}},"type":"Feature"},
	{"geometry":{"coordinates":[3.846128,43.596364],"type":"Point"},"properties":{"osm_id":"3426792298","tag":{"amenity":"waste_basket"}},"type":"Feature"},
	{"geometry":{"coordinates":[3.856937,43.620492],"type":"Point"},"properties":{"osm_id":"3590084606","tag":{"amenity":"waste_basket"}},"type":"Feature"},
	{"geometry":{"coordinates":[3.856929,43.620631],"type":"Point"},"properties":{"osm_id":"3590087014","tag":{"amenity":"waste_basket"}},"type":"Feature"},
	{"geometry":{"coordinates":[3.852084,43.620001],"type":"Point"},"properties":{"osm_id":"3590162593","tag":{"amenity":"waste_basket"}},"type":"Feature"},
	{"geometry":{"coordinates":[3.854268,43.620087],"type":"Point"},"properties":{"osm_id":"3590162993","tag":{"amenity":"waste_basket"}},"type":"Feature"},
	{"geometry":{"coordinates":[3.861001,43.623211],"type":"Point"},"properties":{"osm_id":"3590308007","tag":{"amenity":"recycling","recycling:glass":"yes","recycling_type":"container"}},"type":"Feature"},
	{"geometry":{"coordinates":[3.859051,43.583729],"type":"Point"},"properties":{"osm_id":"3647849425","tag":{"amenity":"waste_basket"}},"type":"Feature"},
	{"geometry":{"coordinates":[3.858267,43.583245],"type":"Point"},"properties":{"osm_id":"3647936784","tag":{"amenity":"waste_basket"}},"type":"Feature"},
	{"geometry":{"coordinates":[3.857388,43.582909],"type":"Point"},"properties":{"osm_id":"3647941803","tag":{"amenity":"waste_basket"}},"type":"Feature"},
	{"geometry":{"coordinates":[3.857565,43.582911],"type":"Point"},"properties":{"osm_id":"3647998834","tag":{"amenity":"waste_basket"}},"type":"Feature"},
	{"geometry":{"coordinates":[3.85705,43.582859],"type":"Point"},"properties":{"osm_id":"3648005326","tag":{"amenity":"waste_basket"}},"type":"Feature"},
	{"geometry":{"coordinates":[3.857743,43.582749],"type":"Point"},"properties":{"osm_id":"3648028238","tag":{"amenity":"waste_basket"}},"type":"Feature"},
	{"geometry":{"coordinates":[3.858678,43.583277],"type":"Point"},"properties":{"osm_id":"3648624489","tag":{"amenity":"waste_basket"}},"type":"Feature"},
	{"geometry":{"coordinates":[3.858884,43.58354],"type":"Point"},"properties":{"osm_id":"3648624495","tag":{"amenity":"waste_basket"}},"type":"Feature"},
	{"geometry":{"coordinates":[3.859027,43.583356],"type":"Point"},"properties":{"osm_id":"3648634957","tag":{"amenity":"waste_basket"}},"type":"Feature"},
	{"geometry":{"coordinates":[3.859964,43.582584],"type":"Point"},"properties":{"osm_id":"3648708440","tag":{"amenity":"recycling","opening_hours":"24/7","recycling:glass":"yes","recycling:paper":"yes","recycling_type":"container","wheelchair":"limited"}},"type":"Feature"},
	{"geometry":{"coordinates":[3.860807,43.58207],"type":"Point"},"properties":{"osm_id":"3648717189","tag":{"amenity":"waste_basket"}},"type":"Feature"},
	{"geometry":{"coordinates":[3.859943,43.582274],"type":"Point"},"properties":{"osm_id":"3648719260","tag":{"amenity":"waste_basket"}},"type":"Feature"},
	{"geometry":{"coordinates":[3.859586,43.581786],"type":"Point"},"properties":{"osm_id":"3648726658","tag":{"amenity":"waste_basket"}},"type":"Feature"},
	{"geometry":{"coordinates":[3.860655,43.582247],"type":"Point"},"properties":{"osm_id":"3648736407","tag":{"amenity":"waste_disposal","indoor":"yes"}},"type":"Feature"},
	{"geometry":{"coordinates":[3.860705,43.582288],"type":"Point"},"properties":{"osm_id":"3648736408","tag":{"amenity":"waste_basket"}},"type":"Feature"},
	{"geometry":{"coordinates":[3.85929,43.581846],"type":"Point"},"properties":{"osm_id":"3648744589","tag":{"amenity":"waste_basket"}},"type":"Feature"},
	{"geometry":{"coordinates":[3.858084,43.58244],"type":"Point"},"properties":{"osm_id":"3648744615","tag":{"amenity":"waste_basket"}},"type":"Feature"},
	{"geometry":{"coordinates":[3.860863,43.581933],"type":"Point"},"properties":{"osm_id":"3648748785","tag":{"amenity":"waste_basket"}},"type":"Feature"},
	{"geometry":{"coordinates":[3.861043,43.582621],"type":"Point"},"properties":{"osm_id":"3648748787","tag":{"amenity":"waste_basket"}},"type":"Feature"},
	{"geometry":{"coordinates":[3.860096,43.583963],"type":"Point"},"properties":{"osm_id":"3652839031","tag":{"amenity":"waste_basket"}},"type":"Feature"},
	{"geometry":{"coordinates":[3.859801,43.584287],"type":"Point"},"properties":{"osm_id":"3652848735","tag":{"amenity":"waste_basket"}},"type":"Feature"},
	{"geometry":{"coordinates":[3.859973,43.584097],"type":"Point"},"properties":{"osm_id":"3652864831","tag":{"amenity":"waste_basket"}},"type":"Feature"},
	{"geometry":{"coordinates":[3.859669,43.584225],"type":"Point"},"properties":{"osm_id":"3652865129","tag":{"amenity":"waste_basket"}},"type":"Feature"},
	{"geometry":{"coordinates":[3.859351,43.5836],"type":"Point"},"properties":{"osm_id":"3652865628","tag":{"amenity":"waste_basket"}},"type":"Feature"},
	{"geometry":{"coordinates":[3.859637,43.583902],"type":"Point"},"properties":{"osm_id":"3652865629","tag":{"amenity":"waste_basket"}},"type":"Feature"},
	{"geometry":{"coordinates":[3.859961,43.583901],"type":"Point"},"properties":{"osm_id":"3652865727","tag":{"amenity":"waste_basket"}},"type":"Feature"},
	{"geometry":{"coordinates":[3.859841,43.584034],"type":"Point"},"properties":{"osm_id":"3652865926","tag":{"amenity":"waste_basket"}},"type":"Feature"},
	{"geometry":{"coordinates":[3.858064,43.582981],"type":"Point"},"properties":{"osm_id":"3652866025","tag":{"amenity":"waste_basket"}},"type":"Feature"},
	{"geometry":{"coordinates":[3.857309,43.582616],"type":"Point"},"properties":{"osm_id":"3652925826","tag":{"amenity":"waste_basket"}},"type":"Feature"},
	{"geometry":{"coordinates":[3.860332,43.583697],"type":"Point"},"properties":{"osm_id":"3652926326","tag":{"amenity":"waste_basket"}},"type":"Feature"},
	{"geometry":{"coordinates":[3.860204,43.583635],"type":"Point"},"properties":{"osm_id":"3652926825","tag":{"amenity":"waste_basket"}},"type":"Feature"},
	{"geometry":{"coordinates":[3.860849,43.582365],"type":"Point"},"properties":{"osm_id":"3654030834","tag":{"amenity":"waste_basket"}},"type":"Feature"},
	{"geometry":{"coordinates":[3.860576,43.583626],"type":"Point"},"properties":{"osm_id":"3654030838","tag":{"amenity":"waste_basket"}},"type":"Feature"},
	{"geometry":{"coordinates":[3.860643,43.583526],"type":"Point"},"properties":{"osm_id":"3654031038","tag":{"amenity":"waste_basket"}},"type":"Feature"},
	{"geometry":{"coordinates":[3.861088,43.583899],"type":"Point"},"properties":{"osm_id":"3654031151","tag":{"amenity":"waste_basket"}},"type":"Feature"},
	{"geometry":{"coordinates":[3.858585,43.585537],"type":"Point"},"properties":{"osm_id":"3654099038","tag":{"amenity":"waste_basket"}},"type":"Feature"},
	{"geometry":{"coordinates":[3.85831,43.583013],"type":"Point"},"properties":{"osm_id":"3655635747","tag":{"amenity":"recycling","opening_hours":"24/7","recycling:glass":"yes","recycling:glass_bottles":"yes","recycling_type":"container","wheelchair":"yes"}},"type":"Feature"},
	{"geometry":{"coordinates":[3.858349,43.583031],"type":"Point"},"properties":{"osm_id":"3655635748","tag":{"amenity":"recycling","opening_hours":"24/7","recycling_type":"container","wheelchair":"yes"}},"type":"Feature"},
	{"geometry":{"coordinates":[3.858329,43.583022],"type":"Point"},"properties":{"osm_id":"3655635839","tag":{"amenity":"recycling","opening_hours":"24/7","recycling:paper":"yes","recycling_type":"container","wheelchair":"yes"}},"type":"Feature"},
	{"geometry":{"coordinates":[3.856598,43.583337],"type":"Point"},"properties":{"osm_id":"3655635840","tag":{"amenity":"recycling","opening_hours":"24/7","recycling:paper":"yes","recycling_type":"container","wheelchair":"yes"}},"type":"Feature"},
	{"geometry":{"coordinates":[3.856583,43.58335],"type":"Point"},"properties":{"osm_id":"3655635841","tag":{"amenity":"recycling","opening_hours":"24/7","recycling:paper":"yes","recycling_type":"container","wheelchair":"yes"}},"type":"Feature"},
	{"geometry":{"coordinates":[3.856613,43.583324],"type":"Point"},"properties":{"osm_id":"3655637028","tag":{"amenity":"recycling","opening_hours":"24/7","recycling:glass":"yes","recycling:glass_bottles":"yes","recycling_type":"container","wheelchair":"yes"}},"type":"Feature"},
	{"geometry":{"coordinates":[3.860583,43.581615],"type":"Point"},"properties":{"osm_id":"3655637126","tag":{"amenity":"waste_basket"}},"type":"Feature"},
	{"geometry":{"coordinates":[3.83528,43.598596],"type":"Point"},"properties":{"osm_id":"3678716076","tag":{"amenity":"waste_basket"}},"type":"Feature"},
	{"geometry":{"coordinates":[3.835444,43.598636],"type":"Point"},"properties":{"osm_id":"3678716077","tag":{"amenity":"waste_basket"}},"type":"Feature"},
	{"geometry":{"coordinates":[3.816979,43.614254],"type":"Point"},"properties":{"osm_id":"3787691409","tag":{"amenity":"recycling","recycling:clothes":"yes","recycling:glass":"yes","recycling:paper":"yes","recycling_type":"container"}},"type":"Feature"},
	{"geometry":{"coordinates":[3.815491,43.609776],"type":"Point"},"properties":{"osm_id":"3787691573","tag":{"amenity":"recycling","recycling:glass":"yes","recycling_type":"container"}},"type":"Feature"},
	{"geometry":{"coordinates":[3.807064,43.618173],"type":"Point"},"properties":{"osm_id":"3787700096","tag":{"amenity":"waste_basket"}},"type":"Feature"},
	{"geometry":{"coordinates":[3.812847,43.616832],"type":"Point"},"properties":{"osm_id":"3787744390","tag":{"amenity":"recycling","recycling:glass":"yes","recycling_type":"container","wheelchair":"yes"}},"type":"Feature"},
	{"geometry":{"coordinates":[3.860605,43.581901],"type":"Point"},"properties":{"osm_id":"3789448380","tag":{"amenity":"waste_disposal","indoor":"yes"}},"type":"Feature"},
	{"geometry":{"coordinates":[3.829479,43.611813],"type":"Point"},"properties":{"osm_id":"3803625159","tag":{"amenity":"waste_disposal"}},"type":"Feature"},
	{"geometry":{"coordinates":[3.82121,43.625937],"type":"Point"},"properties":{"osm_id":"3815761681","tag":{"amenity":"waste_disposal"}},"type":"Feature"},
	{"geometry":{"coordinates":[3.820054,43.62596],"type":"Point"},"properties":{"osm_id":"3815761694","tag":{"amenity":"waste_disposal"}},"type":"Feature"},
	{"geometry":{"coordinates":[3.818605,43.62597],"type":"Point"},"properties":{"osm_id":"3815761699","tag":{"amenity":"waste_disposal"}},"type":"Feature"},
	{"geometry":{"coordinates":[3.796392,43.619132],"type":"Point"},"properties":{"osm_id":"3819826546","tag":{"amenity":"recycling","recycling:cardboard":"yes","recycling:clothes":"yes","recycling:glass":"yes","recycling:paper":"yes","recycling:plastic":"yes","recycling_type":"container"}},"type":"Feature"},
	{"geometry":{"coordinates":[3.798983,43.626332],"type":"Point"},"properties":{"osm_id":"3850532214","tag":{"amenity":"waste_basket"}},"type":"Feature"},
	{"geometry":{"coordinates":[3.799019,43.626986],"type":"Point"},"properties":{"osm_id":"3850539357","tag":{"amenity":"waste_basket"}},"type":"Feature"},
	{"geometry":{"coordinates":[3.803746,43.627227],"type":"Point"},"properties":{"osm_id":"3851763791","tag":{"amenity":"waste_basket"}},"type":"Feature"},
	{"geometry":{"coordinates":[3.803746,43.627361],"type":"Point"},"properties":{"osm_id":"3851763806","tag":{"amenity":"waste_basket"}},"type":"Feature"},
	{"geometry":{"coordinates":[3.809808,43.626343],"type":"Point"},"properties":{"osm_id":"3854148468","tag":{"amenity":"recycling","location":"underground","recycling:glass":"yes","recycling:paper":"yes","recycling:plastic":"yes","recycling:waste":"yes","recycling_type":"container"}},"type":"Feature"},
	{"geometry":{"coordinates":[3.810027,43.627859],"type":"Point"},"properties":{"osm_id":"3854148550","tag":{"amenity":"recycling","location":"underground","recycling:glass":"yes","recycling:paper":"yes","recycling:plastic":"yes","recycling:waste":"yes","recycling_type":"container"}},"type":"Feature"},
	{"geometry":{"coordinates":[3.78493,43.623365],"type":"Point"},"properties":{"osm_id":"3862867258","tag":{"amenity":"recycling","recycling:glass":"yes","recycling:paper":"yes","recycling:plastic":"yes","recycling_type":"container"}},"type":"Feature"},
	{"geometry":{"coordinates":[3.794189,43.614687],"type":"Point"},"properties":{"osm_id":"3867755798","tag":{"amenity":"recycling","recycling:glass":"yes","recycling_type":"container"}},"type":"Feature"},
	{"geometry":{"coordinates":[3.80545,43.610509],"type":"Point"},"properties":{"osm_id":"3868769279","tag":{"amenity":"waste_basket"}},"type":"Feature"},
	{"geometry":{"coordinates":[3.813131,43.612516],"type":"Point"},"properties":{"osm_id":"3869149996","tag":{"amenity":"waste_basket"}},"type":"Feature"},
	{"geometry":{"coordinates":[3.817055,43.614109],"type":"Point"},"properties":{"osm_id":"3869150160","tag":{"amenity":"waste_basket"}},"type":"Feature"},
	{"geometry":{"coordinates":[3.866624,43.611498],"type":"Point"},"properties":{"osm_id":"3891498657","tag":{"amenity":"recycling","recycling:glass_bottles":"yes","recycling_type":"container"}},"type":"Feature"},
	{"geometry":{"coordinates":[3.865735,43.611678],"type":"Point"},"properties":{"osm_id":"3891694858","tag":{"amenity":"recycling","recycling_type":"container"}},"type":"Feature"},
	{"geometry":{"coordinates":[3.865124,43.611722],"type":"Point"},"properties":{"osm_id":"3891694957","tag":{"amenity":"waste_disposal"}},"type":"Feature"},
	{"geometry":{"coordinates":[3.864512,43.611767],"type":"Point"},"properties":{"osm_id":"3891695057","tag":{"amenity":"recycling","recycling_type":"container","wheelchair":"yes"}},"type":"Feature"},
	{"geometry":{"coordinates":[3.865603,43.610845],"type":"Point"},"properties":{"osm_id":"3891875047","tag":{"amenity":"recycling","recycling:cans":"no","recycling:clothes":"no","recycling:glass":"no","recycling:glass_bottles":"no","recycling:paper":"no","recycling:plastic":"no","recycling_type":"container"}},"type":"Feature"},
	{"geometry":{"coordinates":[3.848181,43.621465],"type":"Point"},"properties":{"osm_id":"3896791476","tag":{"amenity":"waste_basket"}},"type":"Feature"},
	{"geometry":{"coordinates":[3.854789,43.61664],"type":"Point"},"properties":{"osm_id":"3898077357","tag":{"amenity":"recycling","recycling:glass":"yes","recycling_type":"container"}},"type":"Feature"},
	{"geometry":{"coordinates":[3.85443,43.61681],"type":"Point"},"properties":{"osm_id":"3898077362","tag":{"amenity":"waste_basket"}},"type":"Feature"},
	{"geometry":{"coordinates":[3.832171,43.632372],"type":"Point"},"properties":{"osm_id":"4130884946","tag":{"amenity":"waste_basket"}},"type":"Feature"},
	{"geometry":{"coordinates":[3.831486,43.632845],"type":"Point"},"properties":{"osm_id":"4130891607","tag":{"amenity":"waste_basket"}},"type":"Feature"},
	{"geometry":{"coordinates":[3.780319,43.614444],"type":"Point"},"properties":{"osm_id":"4254608727","tag":{"amenity":"recycling","recycling:glass":"yes","recycling_type":"container"}},"type":"Feature"},
	{"geometry":{"coordinates":[3.780351,43.614449],"type":"Point"},"properties":{"osm_id":"4254608728","tag":{"amenity":"recycling","recycling:clothes":"yes","recycling_type":"container"}},"type":"Feature"},
	{"geometry":{"coordinates":[3.780443,43.614463],"type":"Point"},"properties":{"osm_id":"4254608730","tag":{"amenity":"waste_basket"}},"type":"Feature"},
	{"geometry":{"coordinates":[3.855558,43.602841],"type":"Point"},"properties":{"osm_id":"4319412426","tag":{"amenity":"recycling","recycling:glass":"yes","recycling_type":"container"}},"type":"Feature"},
	{"geometry":{"coordinates":[3.86619,43.606919],"type":"Point"},"properties":{"osm_id":"4325169936","tag":{"amenity":"waste_basket"}},"type":"Feature"},
	{"geometry":{"coordinates":[3.866248,43.606758],"type":"Point"},"properties":{"osm_id":"4325169945","tag":{"amenity":"waste_basket"}},"type":"Feature"},
	{"geometry":{"coordinates":[3.861369,43.630777],"type":"Point"},"properties":{"osm_id":"4437373372","tag":{"amenity":"waste_basket"}},"type":"Feature"},
	{"geometry":{"coordinates":[3.853571,43.618177],"type":"Point"},"properties":{"osm_id":"4543891295","tag":{"amenity":"waste_basket"}},"type":"Feature"},
	{"geometry":{"coordinates":[3.853591,43.61834],"type":"Point"},"properties":{"osm_id":"4543891305","tag":{"amenity":"waste_basket"}},"type":"Feature"},
	{"geometry":{"coordinates":[3.853789,43.618795],"type":"Point"},"properties":{"osm_id":"4543891362","tag":{"amenity":"waste_basket"}},"type":"Feature"},
	{"geometry":{"coordinates":[3.859987,43.620969],"type":"Point"},"properties":{"osm_id":"4732228043","tag":{"amenity":"waste_disposal"}},"type":"Feature"},
	{"geometry":{"coordinates":[3.863362,43.635448],"type":"Point"},"properties":{"osm_id":"4818867016","tag":{"amenity":"waste_basket"}},"type":"Feature"},
	{"geometry":{"coordinates":[3.863372,43.635753],"type":"Point"},"properties":{"osm_id":"4818867020","tag":{"amenity":"waste_basket"}},"type":"Feature"},
	{"geometry":{"coordinates":[3.863851,43.635131],"type":"Point"},"properties":{"osm_id":"4818877441","tag":{"amenity":"waste_basket"}},"type":"Feature"},
	{"geometry":{"coordinates":[3.863876,43.634936],"type":"Point"},"properties":{"osm_id":"4818877443","tag":{"amenity":"waste_basket"}},"type":"Feature"},
	{"geometry":{"coordinates":[3.863352,43.634804],"type":"Point"},"properties":{"osm_id":"4818877459","tag":{"amenity":"waste_basket"}},"type":"Feature"},
	{"geometry":{"coordinates":[3.863229,43.635305],"type":"Point"},"properties":{"osm_id":"4818877474","tag":{"amenity":"waste_basket"}},"type":"Feature"},
	{"geometry":{"coordinates":[3.863565,43.63553],"type":"Point"},"properties":{"osm_id":"4818877478","tag":{"amenity":"waste_basket"}},"type":"Feature"},
	{"geometry":{"coordinates":[3.841584,43.627789],"type":"Point"},"properties":{"osm_id":"5025838116","ref":"V329","tag":{"amenity":"recycling","recycling:glass":"yes","recycling_type":"container"}},"type":"Feature"},
	{"geometry":{"coordinates":[3.835053,43.633815],"type":"Point"},"properties":{"osm_id":"5030832817","tag":{"amenity":"waste_basket"}},"type":"Feature"},
	{"geometry":{"coordinates":[3.834304,43.634103],"type":"Point"},"properties":{"osm_id":"5030832819","tag":{"amenity":"waste_basket"}},"type":"Feature"},
	{"geometry":{"coordinates":[3.861367,43.629117],"type":"Point"},"properties":{"osm_id":"5092422881","tag":{"amenity":"waste_basket"}},"type":"Feature"},
	{"geometry":{"coordinates":[3.866624,43.611513],"type":"Point"},"properties":{"osm_id":"5116814854","tag":{"amenity":"recycling","recycling:clothes":"yes","recycling_type":"container"}},"type":"Feature"},
	{"geometry":{"coordinates":[3.862127,43.611766],"type":"Point"},"properties":{"osm_id":"5116893246","tag":{"amenity":"recycling","location":"overground","recycling:paper":"yes","recycling_type":"container"}},"type":"Feature"},
	{"geometry":{"coordinates":[3.859928,43.588433],"type":"Point"},"properties":{"osm_id":"5136189890","tag":{"amenity":"recycling","recycling:glass_bottles":"yes","recycling_type":"container"}},"type":"Feature"},
	{"geometry":{"coordinates":[3.8244,43.626044],"type":"Point"},"properties":{"osm_id":"5162540877","tag":{"amenity":"waste_basket"}},"type":"Feature"},
	{"geometry":{"coordinates":[3.843594,43.635092],"type":"Point"},"properties":{"osm_id":"5182358644","tag":{"amenity":"recycling","recycling:glass":"yes","recycling_type":"container"}},"type":"Feature"},
	{"geometry":{"coordinates":[3.852156,43.59261],"type":"Point"},"properties":{"osm_id":"5203826567","tag":{"amenity":"waste_basket"}},"type":"Feature"},
	{"geometry":{"coordinates":[3.840981,43.593888],"type":"Point"},"properties":{"osm_id":"5203974905","tag":{"amenity":"waste_disposal"}},"type":"Feature"},
	{"geometry":{"coordinates":[3.841046,43.593876],"type":"Point"},"properties":{"osm_id":"5203974914","tag":{"amenity":"waste_disposal"}},"type":"Feature"},
	{"geometry":{"coordinates":[3.840433,43.594301],"type":"Point"},"properties":{"osm_id":"5203975613","tag":{"amenity":"waste_disposal"}},"type":"Feature"},
	{"geometry":{"coordinates":[3.842418,43.59348],"type":"Point"},"properties":{"osm_id":"5203975959","tag":{"amenity":"waste_disposal"}},"type":"Feature"},
	{"geometry":{"coordinates":[3.842378,43.593486],"type":"Point"},"properties":{"osm_id":"5203975960","tag":{"amenity":"waste_disposal"}},"type":"Feature"},
	{"geometry":{"coordinates":[3.840847,43.593231],"type":"Point"},"properties":{"osm_id":"5203976208","tag":{"amenity":"waste_disposal"}},"type":"Feature"},
	{"geometry":{"coordinates":[3.840826,43.593294],"type":"Point"},"properties":{"osm_id":"5203976362","tag":{"amenity":"waste_disposal"}},"type":"Feature"},
	{"geometry":{"coordinates":[3.837634,43.595123],"type":"Point"},"properties":{"osm_id":"5204280890","tag":{"amenity":"waste_disposal"}},"type":"Feature"},
	{"geometry":{"coordinates":[3.789683,43.608661],"type":"Point"},"properties":{"osm_id":"5369931473","tag":{"amenity":"recycling","recycling:glass":"yes","recycling_type":"container"}},"type":"Feature"},
	{"geometry":{"coordinates":[3.784961,43.605793],"type":"Point"},"properties":{"osm_id":"5369931475","tag":{"amenity":"recycling","recycling:glass":"yes","recycling:paper":"yes","recycling_type":"container"}},"type":"Feature"},
	{"geometry":{"coordinates":[3.783389,43.604469],"type":"Point"},"properties":{"osm_id":"5369931476","tag":{"amenity":"recycling","recycling:glass":"yes","recycling_type":"container"}},"type":"Feature"},
	{"geometry":{"coordinates":[3.780772,43.605563],"type":"Point"},"properties":{"osm_id":"5369931477","tag":{"amenity":"recycling","recycling:glass":"yes","recycling_type":"container"}},"type":"Feature"},
	{"geometry":{"coordinates":[3.780236,43.60753],"type":"Point"},"properties":{"osm_id":"5369932435","tag":{"amenity":"recycling","recycling:glass":"yes","recycling_type":"container"}},"type":"Feature"},
	{"geometry":{"coordinates":[3.782803,43.609546],"type":"Point"},"properties":{"osm_id":"5369932438","tag":{"amenity":"recycling","recycling:glass":"yes","recycling_type":"container"}},"type":"Feature"},
	{"geometry":{"coordinates":[3.783835,43.613529],"type":"Point"},"properties":{"osm_id":"5369932475","tag":{"amenity":"recycling","recycling:glass":"yes","recycling_type":"container"}},"type":"Feature"},
	{"geometry":{"coordinates":[3.783774,43.616025],"type":"Point"},"properties":{"osm_id":"5369932492","tag":{"amenity":"recycling","recycling:clothes":"yes","recycling:glass":"yes","recycling:paper":"yes","recycling_type":"container"}},"type":"Feature"},
	{"geometry":{"coordinates":[3.786392,43.610853],"type":"Point"},"properties":{"osm_id":"5369932493","tag":{"amenity":"recycling","recycling:glass":"yes","recycling_type":"container"}},"type":"Feature"},
	{"geometry":{"coordinates":[3.859119,43.587356],"type":"Point"},"properties":{"osm_id":"5371032221","tag":{"amenity":"recycling","recycling:glass":"yes","recycling_type":"container"}},"type":"Feature"},
	{"geometry":{"coordinates":[3.801458,43.591061],"type":"Point"},"properties":{"osm_id":"5380380369","tag":{"amenity":"recycling","recycling:glass":"yes","recycling_type":"container"}},"type":"Feature"},
	{"geometry":{"coordinates":[3.799477,43.588905],"type":"Point"},"properties":{"osm_id":"5380380370","tag":{"amenity":"recycling","recycling:glass":"yes","recycling_type":"container"}},"type":"Feature"},
	{"geometry":{"coordinates":[3.805694,43.588881],"type":"Point"},"properties":{"osm_id":"5380380371","tag":{"amenity":"recycling","recycling:glass":"yes","recycling_type":"container"}},"type":"Feature"},
	{"geometry":{"coordinates":[3.805346,43.586921],"type":"Point"},"properties":{"osm_id":"5380380372","tag":{"amenity":"recycling","recycling:clothes":"yes","recycling:glass":"yes","recycling:paper":"yes","recycling_type":"container"}},"type":"Feature"},
	{"geometry":{"coordinates":[3.809207,43.586631],"type":"Point"},"properties":{"osm_id":"5380382001","tag":{"amenity":"recycling","recycling:glass":"yes","recycling_type":"container"}},"type":"Feature"},
	{"geometry":{"coordinates":[3.810927,43.586385],"type":"Point"},"properties":{"osm_id":"5380382002","tag":{"amenity":"recycling","recycling:glass":"yes","recycling_type":"container"}},"type":"Feature"},
	{"geometry":{"coordinates":[3.811953,43.584056],"type":"Point"},"properties":{"osm_id":"5380382003","tag":{"amenity":"recycling","recycling:glass":"yes","recycling_type":"container"}},"type":"Feature"},
	{"geometry":{"coordinates":[3.813173,43.584056],"type":"Point"},"properties":{"osm_id":"5380382004","tag":{"amenity":"recycling","recycling:clothes":"yes","recycling:glass":"yes","recycling:paper":"yes","recycling_type":"container"}},"type":"Feature"},
	{"geometry":{"coordinates":[3.806272,43.584176],"type":"Point"},"properties":{"osm_id":"5380382005","tag":{"amenity":"recycling","recycling:glass":"yes","recycling_type":"container"}},"type":"Feature"},
	{"geometry":{"coordinates":[3.801985,43.584227],"type":"Point"},"properties":{"osm_id":"5380382017","tag":{"amenity":"recycling","recycling:clothes":"yes","recycling:glass":"yes","recycling_type":"container"}},"type":"Feature"},
	{"geometry":{"coordinates":[3.800062,43.583075],"type":"Point"},"properties":{"osm_id":"5380382018","tag":{"amenity":"recycling","recycling:glass":"yes","recycling_type":"container"}},"type":"Feature"},
	{"geometry":{"coordinates":[3.80532,43.601086],"type":"Point"},"properties":{"osm_id":"5380382019","tag":{"amenity":"recycling","recycling:glass":"yes","recycling_type":"container"}},"type":"Feature"},
	{"geometry":{"coordinates":[3.829747,43.641701],"type":"Point"},"properties":{"osm_id":"5573637175","tag":{"amenity":"recycling","recycling:glass":"yes","recycling_type":"container"}},"type":"Feature"},
	{"geometry":{"coordinates":[3.831873,43.643511],"type":"Point"},"properties":{"osm_id":"5573637176","tag":{"amenity":"recycling","recycling:glass":"yes","recycling_type":"container"}},"type":"Feature"},
	{"geometry":{"coordinates":[3.820035,43.591934],"type":"Point"},"properties":{"osm_id":"5575408982","tag":{"amenity":"recycling","recycling:glass":"yes","recycling_type":"container"}},"type":"Feature"},
	{"geometry":{"coordinates":[3.823944,43.584819],"type":"Point"},"properties":{"osm_id":"5575531178","tag":{"amenity":"recycling","recycling:glass":"yes","recycling:paper":"yes","recycling_type":"container"}},"type":"Feature"},
	{"geometry":{"coordinates":[3.828933,43.583526],"type":"Point"},"properties":{"osm_id":"5575531179","tag":{"amenity":"recycling","recycling:glass":"yes","recycling_type":"container"}},"type":"Feature"},
	{"geometry":{"coordinates":[3.830556,43.584658],"type":"Point"},"properties":{"osm_id":"5575531180","tag":{"amenity":"recycling","recycling:glass":"yes","recycling_type":"container"}},"type":"Feature"},
	{"geometry":{"coordinates":[3.833506,43.581377],"type":"Point"},"properties":{"osm_id":"5575531181","tag":{"amenity":"recycling","recycling:clothes":"yes","recycling:glass":"yes","recycling:paper":"yes","recycling_type":"container"}},"type":"Feature"},
	{"geometry":{"coordinates":[3.83771,43.581918],"type":"Point"},"properties":{"osm_id":"5575531182","tag":{"amenity":"recycling","recycling:glass":"yes","recycling_type":"container"}},"type":"Feature"},
	{"geometry":{"coordinates":[3.844914,43.581288],"type":"Point"},"properties":{"osm_id":"5575531183","tag":{"amenity":"recycling","recycling:glass":"yes","recycling_type":"container"}},"type":"Feature"},
	{"geometry":{"coordinates":[3.845489,43.583053],"type":"Point"},"properties":{"osm_id":"5575531184","tag":{"amenity":"recycling","recycling:clothes":"yes","recycling:glass":"yes","recycling_type":"container"}},"type":"Feature"},
	{"geometry":{"coordinates":[3.825577,43.58088],"type":"Point"},"properties":{"osm_id":"5576066680","tag":{"amenity":"recycling","recycling:glass":"yes","recycling_type":"container"}},"type":"Feature"},
	{"geometry":{"coordinates":[3.787823,43.62143],"type":"Point"},"properties":{"osm_id":"5576083152","tag":{"amenity":"recycling","location":"undergroundVMk9WcKY","recycling:glass":"yes","recycling:plastic":"yes","recycling:waste":"yes","recycling_type":"container"}},"type":"Feature"},
	{"geometry":{"coordinates":[3.787689,43.621504],"type":"Point"},"properties":{"osm_id":"5576083153","tag":{"amenity":"recycling","location":"undergroundVMk9WcKY","recycling:glass":"yes","recycling:plastic":"yes","recycling:waste":"yes","recycling_type":"container"}},"type":"Feature"},
	{"geometry":{"coordinates":[3.789087,43.621573],"type":"Point"},"properties":{"osm_id":"5576083154","tag":{"amenity":"recycling","location":"undergroundVMk9WcKY","recycling:plastic":"yes","recycling:waste":"yes","recycling_type":"container"}},"type":"Feature"},
	{"geometry":{"coordinates":[3.80361,43.634061],"type":"Point"},"properties":{"osm_id":"5576097108","tag":{"amenity":"recycling","recycling:glass":"yes","recycling_type":"container"}},"type":"Feature"},
	{"geometry":{"coordinates":[3.809733,43.627154],"type":"Point"},"properties":{"osm_id":"5576097109","tag":{"amenity":"recycling","location":"underground","recycling:glass":"yes","recycling:paper":"yes","recycling:plastic":"yes","recycling:waste":"yes","recycling_type":"container"}},"type":"Feature"},
	{"geometry":{"coordinates":[3.80463,43.619715],"type":"Point"},"properties":{"osm_id":"5576097110","tag":{"amenity":"recycling","location":"underground","recycling:glass":"yes","recycling:paper":"yes","recycling:plastic":"yes","recycling:waste":"yes","recycling_type":"container"}},"type":"Feature"},
	{"geometry":{"coordinates":[3.807322,43.618271],"type":"Point"},"properties":{"osm_id":"5576097111","tag":{"amenity":"recycling","location":"underground","recycling:glass":"yes","recycling:paper":"yes","recycling_type":"container"}},"type":"Feature"},
	{"geometry":{"coordinates":[3.808657,43.618819],"type":"Point"},"properties":{"osm_id":"5576097112","tag":{"amenity":"recycling","location":"underground","recycling:glass":"yes","recycling:paper":"yes","recycling:plastic":"yes","recycling_type":"container"}},"type":"Feature"},
	{"geometry":{"coordinates":[3.809861,43.618737],"type":"Point"},"properties":{"osm_id":"5576097113","tag":{"amenity":"recycling","location":"underground","recycling:glass":"yes","recycling:paper":"yes","recycling:plastic":"yes","recycling_type":"container"}},"type":"Feature"},
	{"geometry":{"coordinates":[3.810263,43.617665],"type":"Point"},"properties":{"osm_id":"5576097114","tag":{"amenity":"recycling","location":"underground","recycling:glass":"yes","recycling:paper":"yes","recycling:plastic":"yes","recycling_type":"container"}},"type":"Feature"},
	{"geometry":{"coordinates":[3.811521,43.617775],"type":"Point"},"properties":{"osm_id":"5576097115","tag":{"amenity":"recycling","location":"underground","recycling:glass":"yes","recycling:paper":"yes","recycling:plastic":"yes","recycling_type":"container"}},"type":"Feature"},
	{"geometry":{"coordinates":[3.812509,43.616405],"type":"Point"},"properties":{"osm_id":"5576097116","tag":{"amenity":"recycling","location":"underground","recycling:glass":"yes","recycling:paper":"yes","recycling:plastic":"yes","recycling_type":"container"}},"type":"Feature"},
	{"geometry":{"coordinates":[3.864521,43.625709],"type":"Point"},"properties":{"osm_id":"5664952825","tag":{"amenity":"recycling","recycling:clothes":"yes","recycling:glass":"yes","recycling_type":"container"}},"type":"Feature"},
	{"geometry":{"coordinates":[3.86024,43.632295],"type":"Point"},"properties":{"osm_id":"5669672182","tag":{"amenity":"recycling","recycling:glass":"yes","recycling_type":"container"}},"type":"Feature"},
	{"geometry":{"coordinates":[3.86645,43.588092],"type":"Point"},"properties":{"osm_id":"5876482042","tag":{"amenity":"recycling","location":"underground","recycling_type":"container"}},"type":"Feature"},
	{"geometry":{"coordinates":[3.866385,43.588117],"type":"Point"},"properties":{"osm_id":"5876482043","tag":{"amenity":"recycling","location":"underground","recycling_type":"container"}},"type":"Feature"},
	{"geometry":{"coordinates":[3.866365,43.588122],"type":"Point"},"properties":{"osm_id":"5876482044","tag":{"amenity":"recycling","location":"underground","recycling_type":"container"}},"type":"Feature"},
	{"geometry":{"coordinates":[3.84483,43.608964],"type":"Point"},"properties":{"osm_id":"5904643193","tag":{"amenity":"waste_basket"}},"type":"Feature"},
	{"geometry":{"coordinates":[3.843815,43.608996],"type":"Point"},"properties":{"osm_id":"5904643195","tag":{"amenity":"waste_basket"}},"type":"Feature"},
	{"geometry":{"coordinates":[3.857868,43.640774],"type":"Point"},"properties":{"osm_id":"6019366840","tag":{"amenity":"waste_basket"}},"type":"Feature"},
	{"geometry":{"coordinates":[3.859504,43.642717],"type":"Point"},"properties":{"osm_id":"6019366843","tag":{"amenity":"waste_basket"}},"type":"Feature"},
	{"geometry":{"coordinates":[3.860132,43.643193],"type":"Point"},"properties":{"osm_id":"6019366844","tag":{"amenity":"waste_basket"}},"type":"Feature"},
	{"geometry":{"coordinates":[3.862186,43.585757],"type":"Point"},"properties":{"osm_id":"6299916602","tag":{"amenity":"recycling","recycling:glass":"yes","recycling_type":"container"}},"type":"Feature"},
	{"geometry":{"coordinates":[3.859126,43.587291],"type":"Point"},"properties":{"osm_id":"6300178508","tag":{"amenity":"waste_basket"}},"type":"Feature"},
	{"geometry":{"coordinates":[3.841016,43.600133],"type":"Point"},"properties":{"osm_id":"6356023742","tag":{"addr:housenumber":"950"}},"type":"Feature"},
	{"geometry":{"coordinates":[3.831337,43.63138],"type":"Point"},"properties":{"osm_id":"6449350694","tag":{"amenity":"waste_basket"}},"type":"Feature"},
	{"geometry":{"coordinates":[3.864431,43.627933],"type":"Point"},"properties":{"osm_id":"6548848977","tag":{"amenity":"waste_basket"}},"type":"Feature"},
	{"geometry":{"coordinates":[3.856103,43.631453],"type":"Point"},"properties":{"osm_id":"6600869034","tag":{"amenity":"waste_basket"}},"type":"Feature"},
	{"geometry":{"coordinates":[3.856118,43.631589],"type":"Point"},"properties":{"osm_id":"6600869848","tag":{"amenity":"waste_basket"}},"type":"Feature"},
	{"geometry":{"coordinates":[3.856203,43.630429],"type":"Point"},"properties":{"osm_id":"6601976862","tag":{"access":"private","amenity":"waste_disposal"}},"type":"Feature"},
	{"geometry":{"coordinates":[3.856171,43.630406],"type":"Point"},"properties":{"osm_id":"6601976863","tag":{"amenity":"recycling","recycling:beverage_carton":"yes","recycling:packaging":"yes","recycling_type":"container"}},"type":"Feature"},
	{"geometry":{"coordinates":[3.865765,43.626897],"type":"Point"},"properties":{"osm_id":"6802539777","tag":{"amenity":"waste_basket"}},"type":"Feature"},
	{"geometry":{"coordinates":[3.865728,43.626322],"type":"Point"},"properties":{"osm_id":"6802546722","tag":{"amenity":"waste_basket","material":"metal"}},"type":"Feature"},
	{"geometry":{"coordinates":[3.866552,43.626776],"type":"Point"},"properties":{"osm_id":"6802546725","tag":{"amenity":"waste_basket","material":"metal"}},"type":"Feature"},
	{"geometry":{"coordinates":[3.866525,43.626592],"type":"Point"},"properties":{"osm_id":"6802546726","tag":{"amenity":"recycling","recycling:clothes":"yes","recycling_type":"container"}},"type":"Feature"},
	{"geometry":{"coordinates":[3.866528,43.62658],"type":"Point"},"properties":{"osm_id":"6802546727","tag":{"amenity":"recycling","recycling:glass":"yes","recycling_type":"container"}},"type":"Feature"},
	{"geometry":{"coordinates":[3.866318,43.626849],"type":"Point"},"properties":{"osm_id":"6802546731","tag":{"amenity":"waste_basket"}},"type":"Feature"},
	{"geometry":{"coordinates":[3.84437,43.63997],"type":"Point"},"properties":{"osm_id":"6925520569","tag":{"amenity":"recycling"}},"type":"Feature"},
	{"geometry":{"coordinates":[3.863025,43.594376],"type":"Point"},"properties":{"osm_id":"7223335612","tag":{"amenity":"recycling","contact:email":"compostcroix@gmail.com","recycling:organic":"yes","recycling_type":"container"}},"type":"Feature"},
	{"geometry":{"coordinates":[3.863568,43.592859],"type":"Point"},"properties":{"osm_id":"7223365752","tag":{"amenity":"recycling","contact:email":"compostcroix@gmail.com","description":"Composteur collectif Croix d'argent","operator":"H\u00c3\u00a9rault Habitat","recycling:organic":"yes","recycling_type":"container"}},"type":"Feature"},
	{"geometry":{"coordinates":[3.837705,43.618211],"type":"Point"},"properties":{"osm_id":"7223387510","tag":{"amenity":"recycling","operator":"H\u00c3\u00a9rault Habitat","recycling:organic":"yes","recycling_type":"container"}},"type":"Feature"},
	{"geometry":{"coordinates":[3.81933,43.626404],"type":"Point"},"properties":{"osm_id":"7223595490","tag":{"amenity":"recycling","operator":"H\u00c3\u00a9rault Habitat","recycling:organic":"yes","recycling_type":"container"}},"type":"Feature"},
	{"geometry":{"coordinates":[3.814935,43.626471],"type":"Point"},"properties":{"osm_id":"7223603653","tag":{"amenity":"recycling","operator":"H\u00c3\u00a9rault Habitat","recycling:organic":"yes","recycling_type":"container"}},"type":"Feature"},
	{"geometry":{"coordinates":[3.840108,43.61089],"type":"Point"},"properties":{"osm_id":"7512180577","tag":{"amenity":"recycling","recycling:clothes":"yes","recycling:glass":"yes","recycling:paper_packaging":"yes","recycling_type":"container"}},"type":"Feature"},
	{"geometry":{"coordinates":[3.847072,43.609254],"type":"Point"},"properties":{"osm_id":"7512180578","tag":{"amenity":"recycling","recycling:glass":"yes","recycling_type":"container"}},"type":"Feature"},
	{"geometry":{"coordinates":[3.846678,43.622],"type":"Point"},"properties":{"osm_id":"7591280112","tag":{"amenity":"recycling","recycling:cans":"yes","recycling:glass":"yes","recycling:paper":"yes","recycling:plastic":"yes","recycling_type":"container"}},"type":"Feature"},
	{"geometry":{"coordinates":[3.856758,43.621072],"type":"Point"},"properties":{"osm_id":"7896370686","tag":{"amenity":"waste_basket","survey:date":"2020-09-11","waste":"trash"}},"type":"Feature"},
	{"geometry":{"coordinates":[3.849444,43.624422],"type":"Point"},"properties":{"osm_id":"7896379685","tag":{"amenity":"waste_basket","survey:date":"2020-09-11","waste":"trash"}},"type":"Feature"},
	{"geometry":{"coordinates":[3.85623,43.621551],"type":"Point"},"properties":{"osm_id":"7896379785","tag":{"amenity":"recycling","recycling:clothes":"no","recycling:glass_bottles":"yes","recycling:paper":"no","recycling:plastic":"no","recycling_type":"container","survey:date":"2020-09-11"}},"type":"Feature"},
	{"geometry":{"coordinates":[3.861244,43.61942],"type":"Point"},"properties":{"osm_id":"7896451185","tag":{"amenity":"recycling","recycling:clothes":"no","recycling:glass_bottles":"yes","recycling:paper":"no","recycling:plastic":"no","recycling_type":"container","survey:date":"2020-09-11"}},"type":"Feature"},
	{"geometry":{"coordinates":[3.863183,43.618571],"type":"Point"},"properties":{"osm_id":"7896451285","tag":{"amenity":"waste_basket","survey:date":"2020-09-11","waste":"trash"}},"type":"Feature"},
	{"geometry":{"coordinates":[3.861074,43.612117],"type":"Point"},"properties":{"osm_id":"7899529885","tag":{"amenity":"waste_basket","survey:date":"2020-09-12","waste":"trash"}},"type":"Feature"},
	{"geometry":{"coordinates":[3.861191,43.612163],"type":"Point"},"properties":{"osm_id":"7899530785","tag":{"amenity":"waste_basket","survey:date":"2020-09-12","waste":"trash"}},"type":"Feature"},
	{"geometry":{"coordinates":[3.860836,43.612152],"type":"Point"},"properties":{"osm_id":"7899596685","tag":{"amenity":"recycling","recycling:glass_bottles":"yes","recycling:paper":"no","recycling:plastic":"no","recycling_type":"container","survey:date":"2020-09-12"}},"type":"Feature"}
]
}
