{
"type": "FeatureCollection",
"features": [
	{"geometry":{"coordinates":[16.973915,52.39277],"type":"Point"},"properties":{"osm_id":"364066688","tag":{"amenity":"recycling","recycling_type":"container"}},"type":"Feature"},
	{"geometry":{"coordinates":[16.96957,52.391213],"type":"Point"},"properties":{"osm_id":"706675384","tag":{"amenity":"recycling"}},"type":"Feature"},
	{"geometry":{"coordinates":[16.965291,52.381756],"type":"Point"},"properties":{"osm_id":"1315411459","tag":{"amenity":"recycling"}},"type":"Feature"},
	{"geometry":{"coordinates":[16.964636,52.384501],"type":"Point"},"properties":{"osm_id":"1315411472","tag":{"amenity":"recycling"}},"type":"Feature"},
	{"geometry":{"coordinates":[16.964592,52.384362],"type":"Point"},"properties":{"osm_id":"1315866850","tag":{"amenity":"waste_basket"}},"type":"Feature"},
	{"geometry":{"coordinates":[16.964471,52.38266],"type":"Point"},"properties":{"osm_id":"1315866915","tag":{"amenity":"waste_basket"}},"type":"Feature"},
	{"geometry":{"coordinates":[16.964679,52.381474],"type":"Point"},"properties":{"osm_id":"1315866926","tag":{"amenity":"waste_basket"}},"type":"Feature"},
	{"geometry":{"coordinates":[16.964544,52.384603],"type":"Point"},"properties":{"osm_id":"1315866928","tag":{"amenity":"waste_basket"}},"type":"Feature"},
	{"geometry":{"coordinates":[16.966321,52.383311],"type":"Point"},"properties":{"osm_id":"1315866938","tag":{"amenity":"waste_basket"}},"type":"Feature"},
	{"geometry":{"coordinates":[16.971457,52.376193],"type":"Point"},"properties":{"name":"Z\u00c5\u0082omrex Metal","osm_id":"2405555349","tag":{"amenity":"recycling","email":"poznan@zlomrex.pl","phone":"61-8799543","recycling:scrap_metal":"yes","recycling_type":"centre"}},"type":"Feature"},
	{"geometry":{"coordinates":[16.969072,52.377099],"type":"Point"},"properties":{"osm_id":"3319204417","tag":{"amenity":"waste_basket"}},"type":"Feature"},
	{"geometry":{"coordinates":[16.965669,52.394976],"type":"Point"},"properties":{"osm_id":"3365507605","tag":{"amenity":"waste_disposal"}},"type":"Feature"},
	{"geometry":{"coordinates":[16.975115,52.392677],"type":"Point"},"properties":{"osm_id":"3516819373","tag":{"amenity":"recycling","recycling_type":"container"}},"type":"Feature"},
	{"geometry":{"coordinates":[16.977889,52.395645],"type":"Point"},"properties":{"osm_id":"3516819980","tag":{"amenity":"recycling","recycling_type":"container"}},"type":"Feature"},
	{"geometry":{"coordinates":[16.975936,52.39494],"type":"Point"},"properties":{"osm_id":"3627196214","tag":{"amenity":"recycling","recycling_type":"container"}},"type":"Feature"},
	{"geometry":{"coordinates":[16.981943,52.408949],"type":"Point"},"properties":{"osm_id":"3693619597","tag":{"amenity":"waste_disposal"}},"type":"Feature"},
	{"geometry":{"coordinates":[16.973208,52.40808],"type":"Point"},"properties":{"osm_id":"3892520108","tag":{"amenity":"waste_basket","material":"metal","source:geometry":"geoportal.gov.pl:ortofoto"}},"type":"Feature"},
	{"geometry":{"coordinates":[16.963556,52.402488],"type":"Point"},"properties":{"osm_id":"4303181040","tag":{"amenity":"waste_basket"}},"type":"Feature"},
	{"geometry":{"coordinates":[16.969403,52.384039],"type":"Point"},"properties":{"osm_id":"4393568223","tag":{"amenity":"recycling"}},"type":"Feature"},
	{"geometry":{"coordinates":[16.983811,52.393091],"type":"Point"},"properties":{"osm_id":"4434719080","tag":{"amenity":"waste_disposal"}},"type":"Feature"},
	{"geometry":{"coordinates":[16.985027,52.39437],"type":"Point"},"properties":{"osm_id":"4434802539","tag":{"amenity":"waste_disposal"}},"type":"Feature"},
	{"geometry":{"coordinates":[16.975199,52.406002],"type":"Point"},"properties":{"osm_id":"4457127550","tag":{"amenity":"waste_basket"}},"type":"Feature"},
	{"geometry":{"coordinates":[16.965949,52.383233],"type":"Point"},"properties":{"osm_id":"4570139110","tag":{"amenity":"recycling"}},"type":"Feature"},
	{"geometry":{"coordinates":[16.965838,52.381681],"type":"Point"},"properties":{"osm_id":"4697270712","tag":{"amenity":"recycling"}},"type":"Feature"},
	{"geometry":{"coordinates":[16.967585,52.382299],"type":"Point"},"properties":{"osm_id":"4697270713","tag":{"amenity":"recycling"}},"type":"Feature"},
	{"geometry":{"coordinates":[16.965328,52.385042],"type":"Point"},"properties":{"osm_id":"4697270715","tag":{"amenity":"recycling"}},"type":"Feature"},
	{"geometry":{"coordinates":[16.967806,52.386136],"type":"Point"},"properties":{"osm_id":"4697270716","tag":{"amenity":"recycling"}},"type":"Feature"},
	{"geometry":{"coordinates":[16.968162,52.37819],"type":"Point"},"properties":{"osm_id":"4697270717","tag":{"amenity":"recycling"}},"type":"Feature"},
	{"geometry":{"coordinates":[16.967181,52.37757],"type":"Point"},"properties":{"osm_id":"4697270718","tag":{"amenity":"recycling"}},"type":"Feature"},
	{"geometry":{"coordinates":[16.965948,52.377507],"type":"Point"},"properties":{"osm_id":"4697270719","tag":{"amenity":"recycling"}},"type":"Feature"},
	{"geometry":{"coordinates":[16.96492,52.377041],"type":"Point"},"properties":{"osm_id":"4697270720","tag":{"amenity":"recycling"}},"type":"Feature"},
	{"geometry":{"coordinates":[16.96406,52.376031],"type":"Point"},"properties":{"osm_id":"4697270725","tag":{"amenity":"recycling"}},"type":"Feature"},
	{"geometry":{"coordinates":[16.96446,52.37564],"type":"Point"},"properties":{"osm_id":"4697270726","tag":{"amenity":"recycling"}},"type":"Feature"},
	{"geometry":{"coordinates":[16.963346,52.378579],"type":"Point"},"properties":{"osm_id":"4697270741","tag":{"amenity":"recycling"}},"type":"Feature"},
	{"geometry":{"coordinates":[16.964446,52.378703],"type":"Point"},"properties":{"osm_id":"4697270743","tag":{"amenity":"recycling"}},"type":"Feature"},
	{"geometry":{"coordinates":[16.970389,52.378046],"type":"Point"},"properties":{"osm_id":"4697270744","tag":{"amenity":"recycling"}},"type":"Feature"},
	{"geometry":{"coordinates":[16.971149,52.378687],"type":"Point"},"properties":{"osm_id":"4697270745","tag":{"amenity":"recycling"}},"type":"Feature"},
	{"geometry":{"coordinates":[16.971243,52.379655],"type":"Point"},"properties":{"osm_id":"4697270746","tag":{"amenity":"recycling"}},"type":"Feature"},
	{"geometry":{"coordinates":[16.970987,52.380839],"type":"Point"},"properties":{"osm_id":"4697270747","tag":{"amenity":"recycling"}},"type":"Feature"},
	{"geometry":{"coordinates":[16.968095,52.380975],"type":"Point"},"properties":{"osm_id":"4697270748","tag":{"amenity":"recycling"}},"type":"Feature"},
	{"geometry":{"coordinates":[16.968462,52.381857],"type":"Point"},"properties":{"osm_id":"4697270749","tag":{"amenity":"recycling"}},"type":"Feature"},
	{"geometry":{"coordinates":[16.972552,52.381724],"type":"Point"},"properties":{"osm_id":"4697270750","tag":{"amenity":"recycling"}},"type":"Feature"},
	{"geometry":{"coordinates":[16.971327,52.383025],"type":"Point"},"properties":{"osm_id":"4697270751","tag":{"amenity":"recycling"}},"type":"Feature"},
	{"geometry":{"coordinates":[16.980231,52.379115],"type":"Point"},"properties":{"osm_id":"4697270752","tag":{"amenity":"waste_disposal"}},"type":"Feature"},
	{"geometry":{"coordinates":[16.98026,52.379095],"type":"Point"},"properties":{"osm_id":"4697270753","tag":{"amenity":"recycling"}},"type":"Feature"},
	{"geometry":{"coordinates":[16.98241,52.38313],"type":"Point"},"properties":{"osm_id":"4697270755","tag":{"amenity":"recycling"}},"type":"Feature"},
	{"geometry":{"coordinates":[16.980168,52.382434],"type":"Point"},"properties":{"osm_id":"4697270756","tag":{"amenity":"recycling"}},"type":"Feature"},
	{"geometry":{"coordinates":[16.980898,52.387001],"type":"Point"},"properties":{"osm_id":"4697270757","tag":{"amenity":"recycling"}},"type":"Feature"},
	{"geometry":{"coordinates":[16.979948,52.385706],"type":"Point"},"properties":{"osm_id":"4697270758","tag":{"amenity":"recycling"}},"type":"Feature"},
	{"geometry":{"coordinates":[16.979289,52.383935],"type":"Point"},"properties":{"osm_id":"4697270759","tag":{"amenity":"recycling"}},"type":"Feature"},
	{"geometry":{"coordinates":[16.977282,52.383468],"type":"Point"},"properties":{"osm_id":"4697270760","tag":{"amenity":"recycling"}},"type":"Feature"},
	{"geometry":{"coordinates":[16.975417,52.383793],"type":"Point"},"properties":{"osm_id":"4697270761","tag":{"amenity":"recycling"}},"type":"Feature"},
	{"geometry":{"coordinates":[16.977569,52.38618],"type":"Point"},"properties":{"osm_id":"4697270762","tag":{"amenity":"recycling"}},"type":"Feature"},
	{"geometry":{"coordinates":[16.974486,52.38645],"type":"Point"},"properties":{"osm_id":"4697270763","tag":{"amenity":"recycling"}},"type":"Feature"},
	{"geometry":{"coordinates":[16.97483,52.388058],"type":"Point"},"properties":{"osm_id":"4697270764","tag":{"amenity":"recycling"}},"type":"Feature"},
	{"geometry":{"coordinates":[16.973878,52.387697],"type":"Point"},"properties":{"osm_id":"4697270765","tag":{"amenity":"recycling"}},"type":"Feature"},
	{"geometry":{"coordinates":[16.972015,52.389349],"type":"Point"},"properties":{"osm_id":"4697270766","tag":{"amenity":"recycling"}},"type":"Feature"},
	{"geometry":{"coordinates":[16.970583,52.38893],"type":"Point"},"properties":{"osm_id":"4697270767","tag":{"amenity":"recycling"}},"type":"Feature"},
	{"geometry":{"coordinates":[16.969879,52.389221],"type":"Point"},"properties":{"osm_id":"4697270768","tag":{"amenity":"recycling"}},"type":"Feature"},
	{"geometry":{"coordinates":[16.97365,52.391503],"type":"Point"},"properties":{"osm_id":"4697270769","tag":{"amenity":"recycling"}},"type":"Feature"},
	{"geometry":{"coordinates":[16.972649,52.391718],"type":"Point"},"properties":{"osm_id":"4697270770","tag":{"amenity":"recycling"}},"type":"Feature"},
	{"geometry":{"coordinates":[16.971568,52.3919],"type":"Point"},"properties":{"osm_id":"4697270772","tag":{"amenity":"recycling"}},"type":"Feature"},
	{"geometry":{"coordinates":[16.985643,52.393172],"type":"Point"},"properties":{"osm_id":"4697270773","tag":{"amenity":"recycling","recycling_type":"container"}},"type":"Feature"},
	{"geometry":{"coordinates":[16.985614,52.393208],"type":"Point"},"properties":{"osm_id":"4697270774","tag":{"amenity":"waste_disposal","waste":"trash"}},"type":"Feature"},
	{"geometry":{"coordinates":[16.982961,52.393483],"type":"Point"},"properties":{"osm_id":"4697270775","tag":{"amenity":"recycling","recycling_type":"container"}},"type":"Feature"},
	{"geometry":{"coordinates":[16.982932,52.393509],"type":"Point"},"properties":{"osm_id":"4697270776","tag":{"amenity":"waste_disposal"}},"type":"Feature"},
	{"geometry":{"coordinates":[16.981769,52.393822],"type":"Point"},"properties":{"osm_id":"4697270777","tag":{"amenity":"recycling","recycling_type":"container"}},"type":"Feature"},
	{"geometry":{"coordinates":[16.981827,52.393845],"type":"Point"},"properties":{"osm_id":"4697270778","tag":{"amenity":"waste_disposal"}},"type":"Feature"},
	{"geometry":{"coordinates":[16.987117,52.393824],"type":"Point"},"properties":{"osm_id":"4697270779","tag":{"access":"private","amenity":"recycling","recycling_type":"container"}},"type":"Feature"},
	{"geometry":{"coordinates":[16.985996,52.394351],"type":"Point"},"properties":{"osm_id":"4697270780","tag":{"access":"private","amenity":"recycling"}},"type":"Feature"},
	{"geometry":{"coordinates":[16.985034,52.394385],"type":"Point"},"properties":{"osm_id":"4697270781","tag":{"amenity":"recycling"}},"type":"Feature"},
	{"geometry":{"coordinates":[16.983821,52.394721],"type":"Point"},"properties":{"osm_id":"4697270782","tag":{"amenity":"waste_disposal"}},"type":"Feature"},
	{"geometry":{"coordinates":[16.982566,52.394939],"type":"Point"},"properties":{"osm_id":"4697270783","tag":{"amenity":"waste_disposal"}},"type":"Feature"},
	{"geometry":{"coordinates":[16.980724,52.394404],"type":"Point"},"properties":{"osm_id":"4697270784","tag":{"amenity":"recycling"}},"type":"Feature"},
	{"geometry":{"coordinates":[16.980442,52.393417],"type":"Point"},"properties":{"osm_id":"4697270785","tag":{"amenity":"recycling"}},"type":"Feature"},
	{"geometry":{"coordinates":[16.97525,52.395997],"type":"Point"},"properties":{"osm_id":"4697270786","tag":{"amenity":"recycling"}},"type":"Feature"},
	{"geometry":{"coordinates":[16.974302,52.396172],"type":"Point"},"properties":{"osm_id":"4697270787","tag":{"amenity":"recycling"}},"type":"Feature"},
	{"geometry":{"coordinates":[16.964679,52.37866],"type":"Point"},"properties":{"osm_id":"4844037778","tag":{"amenity":"recycling"}},"type":"Feature"},
	{"geometry":{"coordinates":[16.966759,52.393802],"type":"Point"},"properties":{"osm_id":"4938200880","tag":{"amenity":"recycling"}},"type":"Feature"},
	{"geometry":{"coordinates":[16.965153,52.392115],"type":"Point"},"properties":{"osm_id":"4940263542","tag":{"amenity":"recycling"}},"type":"Feature"},
	{"geometry":{"coordinates":[16.966563,52.392496],"type":"Point"},"properties":{"osm_id":"4940263964","tag":{"amenity":"recycling"}},"type":"Feature"},
	{"geometry":{"coordinates":[16.967413,52.393014],"type":"Point"},"properties":{"osm_id":"4940264314","tag":{"amenity":"recycling"}},"type":"Feature"},
	{"geometry":{"coordinates":[16.964229,52.400926],"type":"Point"},"properties":{"osm_id":"4962044895","tag":{"amenity":"waste_disposal"}},"type":"Feature"},
	{"geometry":{"coordinates":[16.967874,52.39675],"type":"Point"},"properties":{"osm_id":"4975782484","tag":{"amenity":"recycling"}},"type":"Feature"},
	{"geometry":{"coordinates":[16.966537,52.396061],"type":"Point"},"properties":{"osm_id":"4976037179","tag":{"amenity":"recycling"}},"type":"Feature"},
	{"geometry":{"coordinates":[16.979127,52.419052],"type":"Point"},"properties":{"barrier":"gate","osm_id":"4978992358"},"type":"Feature"},
	{"geometry":{"coordinates":[16.979118,52.418929],"type":"Point"},"properties":{"barrier":"gate","osm_id":"4978992359"},"type":"Feature"},
	{"geometry":{"coordinates":[16.966324,52.397398],"type":"Point"},"properties":{"osm_id":"4999599949","tag":{"amenity":"recycling"}},"type":"Feature"},
	{"geometry":{"coordinates":[16.965012,52.397782],"type":"Point"},"properties":{"osm_id":"4999750987","tag":{"amenity":"recycling"}},"type":"Feature"},
	{"geometry":{"coordinates":[16.963824,52.397726],"type":"Point"},"properties":{"osm_id":"5000238175","tag":{"amenity":"recycling"}},"type":"Feature"},
	{"geometry":{"coordinates":[16.963901,52.399546],"type":"Point"},"properties":{"osm_id":"5011337723","tag":{"amenity":"recycling"}},"type":"Feature"},
	{"geometry":{"coordinates":[16.963004,52.399346],"type":"Point"},"properties":{"osm_id":"5011337724","tag":{"amenity":"recycling"}},"type":"Feature"},
	{"geometry":{"coordinates":[16.964925,52.397885],"type":"Point"},"properties":{"osm_id":"5011337811","tag":{"amenity":"recycling"}},"type":"Feature"},
	{"geometry":{"coordinates":[16.964414,52.397854],"type":"Point"},"properties":{"osm_id":"5011337812","tag":{"amenity":"recycling"}},"type":"Feature"},
	{"geometry":{"coordinates":[16.963262,52.397793],"type":"Point"},"properties":{"osm_id":"5011337813","tag":{"amenity":"recycling"}},"type":"Feature"},
	{"geometry":{"coordinates":[16.962997,52.400597],"type":"Point"},"properties":{"osm_id":"5016189259","tag":{"amenity":"recycling"}},"type":"Feature"},
	{"geometry":{"coordinates":[16.963299,52.40209],"type":"Point"},"properties":{"osm_id":"5095253366","tag":{"amenity":"waste_disposal"}},"type":"Feature"},
	{"geometry":{"coordinates":[16.979337,52.402903],"type":"Point"},"properties":{"osm_id":"5141524598","tag":{"amenity":"waste_basket"}},"type":"Feature"},
	{"geometry":{"coordinates":[16.983654,52.402209],"type":"Point"},"properties":{"osm_id":"5141531914","tag":{"amenity":"waste_basket"}},"type":"Feature"},
	{"geometry":{"coordinates":[16.982409,52.402361],"type":"Point"},"properties":{"osm_id":"5141532611","tag":{"amenity":"waste_basket"}},"type":"Feature"},
	{"geometry":{"coordinates":[16.981095,52.402527],"type":"Point"},"properties":{"osm_id":"5141532810","tag":{"amenity":"waste_basket"}},"type":"Feature"},
	{"geometry":{"coordinates":[16.984246,52.402135],"type":"Point"},"properties":{"osm_id":"5141538513","tag":{"amenity":"waste_basket"}},"type":"Feature"},
	{"geometry":{"coordinates":[16.969149,52.383338],"type":"Point"},"properties":{"osm_id":"5517015542","tag":{"amenity":"waste_basket"}},"type":"Feature"},
	{"geometry":{"coordinates":[16.969074,52.383269],"type":"Point"},"properties":{"osm_id":"5517015543","tag":{"amenity":"waste_basket"}},"type":"Feature"},
	{"geometry":{"coordinates":[16.969359,52.383338],"type":"Point"},"properties":{"osm_id":"5517015544","tag":{"amenity":"waste_basket"}},"type":"Feature"},
	{"geometry":{"coordinates":[16.969284,52.383268],"type":"Point"},"properties":{"osm_id":"5517015545","tag":{"amenity":"waste_basket"}},"type":"Feature"},
	{"geometry":{"coordinates":[17.00423,52.392437],"type":"Point"},"properties":{"osm_id":"5567438311","tag":{"amenity":"waste_basket"}},"type":"Feature"},
	{"geometry":{"coordinates":[17.012714,52.394263],"type":"Point"},"properties":{"osm_id":"5567438319","tag":{"amenity":"waste_basket"}},"type":"Feature"},
	{"geometry":{"coordinates":[17.013978,52.395252],"type":"Point"},"properties":{"osm_id":"5567440322","tag":{"amenity":"waste_basket"}},"type":"Feature"},
	{"geometry":{"coordinates":[16.990008,52.393276],"type":"Point"},"properties":{"osm_id":"5711269349","tag":{"entrance":"yes"}},"type":"Feature"},
	{"geometry":{"coordinates":[16.989661,52.393158],"type":"Point"},"properties":{"osm_id":"5740640434","tag":{"amenity":"waste_basket","waste":"trash"}},"type":"Feature"},
	{"geometry":{"coordinates":[16.988727,52.393344],"type":"Point"},"properties":{"osm_id":"5740640435","tag":{"amenity":"waste_basket","waste":"trash"}},"type":"Feature"},
	{"geometry":{"coordinates":[16.998658,52.390105],"type":"Point"},"properties":{"osm_id":"5743030890","tag":{"amenity":"waste_disposal"}},"type":"Feature"},
	{"geometry":{"coordinates":[16.993552,52.388388],"type":"Point"},"properties":{"osm_id":"5743030891","tag":{"amenity":"recycling","recycling_type":"container"}},"type":"Feature"},
	{"geometry":{"coordinates":[16.997242,52.390477],"type":"Point"},"properties":{"osm_id":"5743031384","tag":{"amenity":"recycling","recycling_type":"container"}},"type":"Feature"},
	{"geometry":{"coordinates":[16.99692,52.391643],"type":"Point"},"properties":{"osm_id":"5743101494","tag":{"amenity":"waste_disposal","waste":"trash"}},"type":"Feature"},
	{"geometry":{"coordinates":[16.99694,52.391675],"type":"Point"},"properties":{"osm_id":"5743101495","tag":{"amenity":"recycling","recycling_type":"container"}},"type":"Feature"},
	{"geometry":{"coordinates":[17.004614,52.390321],"type":"Point"},"properties":{"osm_id":"5744849538","tag":{"amenity":"recycling","recycling_type":"container"}},"type":"Feature"},
	{"geometry":{"coordinates":[17.004665,52.390318],"type":"Point"},"properties":{"osm_id":"5744849539","tag":{"amenity":"waste_disposal","waste":"trash"}},"type":"Feature"},
	{"geometry":{"coordinates":[17.000679,52.390692],"type":"Point"},"properties":{"osm_id":"5744849544","tag":{"amenity":"recycling","recycling_type":"container"}},"type":"Feature"},
	{"geometry":{"coordinates":[17.002636,52.389085],"type":"Point"},"properties":{"osm_id":"5744849555","tag":{"amenity":"recycling","recycling_type":"container"}},"type":"Feature"},
	{"geometry":{"coordinates":[17.00286,52.388125],"type":"Point"},"properties":{"osm_id":"5744849560","tag":{"amenity":"recycling","recycling_type":"container"}},"type":"Feature"},
	{"geometry":{"coordinates":[17.001452,52.38852],"type":"Point"},"properties":{"osm_id":"5744849573","tag":{"amenity":"recycling","recycling_type":"container"}},"type":"Feature"},
	{"geometry":{"coordinates":[17.001729,52.389459],"type":"Point"},"properties":{"osm_id":"5744849574","tag":{"amenity":"recycling","recycling_type":"container"}},"type":"Feature"},
	{"geometry":{"coordinates":[17.002917,52.390629],"type":"Point"},"properties":{"osm_id":"5744849740","tag":{"amenity":"recycling","recycling_type":"container"}},"type":"Feature"},
	{"geometry":{"coordinates":[17.003008,52.390695],"type":"Point"},"properties":{"osm_id":"5744849741","tag":{"amenity":"waste_disposal","waste":"trash"}},"type":"Feature"},
	{"geometry":{"coordinates":[16.999102,52.391412],"type":"Point"},"properties":{"osm_id":"5744849745","tag":{"amenity":"waste_disposal","waste":"trash"}},"type":"Feature"},
	{"geometry":{"coordinates":[16.999106,52.391428],"type":"Point"},"properties":{"osm_id":"5744849746","tag":{"amenity":"recycling","recycling_type":"container"}},"type":"Feature"},
	{"geometry":{"coordinates":[16.989119,52.393869],"type":"Point"},"properties":{"osm_id":"5747193081","tag":{"amenity":"waste_basket","waste":"trash"}},"type":"Feature"},
	{"geometry":{"coordinates":[17.004338,52.38856],"type":"Point"},"properties":{"osm_id":"5831730891","tag":{"amenity":"recycling","recycling_type":"container"}},"type":"Feature"},
	{"geometry":{"coordinates":[17.005233,52.389013],"type":"Point"},"properties":{"osm_id":"5831730908","tag":{"amenity":"recycling","recycling_type":"container"}},"type":"Feature"},
	{"geometry":{"coordinates":[17.007521,52.387764],"type":"Point"},"properties":{"osm_id":"5831730909","tag":{"amenity":"recycling","recycling_type":"container"}},"type":"Feature"},
	{"geometry":{"coordinates":[17.007995,52.388884],"type":"Point"},"properties":{"osm_id":"5831731038","tag":{"amenity":"waste_disposal","waste":"trash"}},"type":"Feature"},
	{"geometry":{"coordinates":[17.008093,52.38892],"type":"Point"},"properties":{"osm_id":"5831731039","tag":{"amenity":"recycling","recycling_type":"container"}},"type":"Feature"},
	{"geometry":{"coordinates":[17.006682,52.38986],"type":"Point"},"properties":{"osm_id":"5831731040","tag":{"amenity":"recycling","recycling_type":"container"}},"type":"Feature"},
	{"geometry":{"coordinates":[17.006712,52.389886],"type":"Point"},"properties":{"osm_id":"5831731041","tag":{"amenity":"waste_disposal","waste":"trash"}},"type":"Feature"},
	{"geometry":{"coordinates":[17.005713,52.389568],"type":"Point"},"properties":{"osm_id":"5831731119","tag":{"amenity":"waste_disposal","waste":"trash"}},"type":"Feature"},
	{"geometry":{"coordinates":[17.005676,52.389543],"type":"Point"},"properties":{"osm_id":"5831731120","tag":{"amenity":"recycling","recycling_type":"container"}},"type":"Feature"},
	{"geometry":{"coordinates":[17.015514,52.389145],"type":"Point"},"properties":{"osm_id":"5831828060","tag":{"amenity":"waste_disposal","waste":"trash"}},"type":"Feature"},
	{"geometry":{"coordinates":[17.015521,52.389127],"type":"Point"},"properties":{"osm_id":"5831828061","tag":{"amenity":"recycling","recycling_type":"container"}},"type":"Feature"},
	{"geometry":{"coordinates":[16.993905,52.387401],"type":"Point"},"properties":{"osm_id":"6119960164","tag":{"amenity":"waste_disposal","waste":"trash"}},"type":"Feature"},
	{"geometry":{"coordinates":[16.99392,52.387361],"type":"Point"},"properties":{"osm_id":"6119960165","tag":{"amenity":"recycling","recycling_type":"container"}},"type":"Feature"},
	{"geometry":{"coordinates":[16.973372,52.389915],"type":"Point"},"properties":{"osm_id":"6416828497","tag":{"amenity":"recycling"}},"type":"Feature"},
	{"geometry":{"coordinates":[17.014712,52.392451],"type":"Point"},"properties":{"osm_id":"6417395965","tag":{"amenity":"waste_basket"}},"type":"Feature"},
	{"geometry":{"coordinates":[17.006702,52.395362],"type":"Point"},"properties":{"osm_id":"6417396161","tag":{"amenity":"waste_basket"}},"type":"Feature"},
	{"geometry":{"coordinates":[16.976248,52.40036],"type":"Point"},"properties":{"osm_id":"6417396208","tag":{"amenity":"waste_basket"}},"type":"Feature"},
	{"geometry":{"coordinates":[16.976236,52.400324],"type":"Point"},"properties":{"osm_id":"6417396209","tag":{"amenity":"waste_basket"}},"type":"Feature"},
	{"geometry":{"coordinates":[16.976223,52.400289],"type":"Point"},"properties":{"osm_id":"6417396210","tag":{"amenity":"waste_basket"}},"type":"Feature"},
	{"geometry":{"coordinates":[16.976212,52.400255],"type":"Point"},"properties":{"osm_id":"6417396211","tag":{"amenity":"waste_basket"}},"type":"Feature"},
	{"geometry":{"coordinates":[16.976331,52.391335],"type":"Point"},"properties":{"osm_id":"6417396333","tag":{"amenity":"waste_basket"}},"type":"Feature"},
	{"geometry":{"coordinates":[16.976435,52.391263],"type":"Point"},"properties":{"osm_id":"6417396334","tag":{"amenity":"waste_basket"}},"type":"Feature"},
	{"geometry":{"coordinates":[16.976928,52.39145],"type":"Point"},"properties":{"osm_id":"6417396335","tag":{"amenity":"waste_basket"}},"type":"Feature"},
	{"geometry":{"coordinates":[16.977014,52.391541],"type":"Point"},"properties":{"osm_id":"6417396336","tag":{"amenity":"waste_basket"}},"type":"Feature"},
	{"geometry":{"coordinates":[16.976298,52.391652],"type":"Point"},"properties":{"osm_id":"6417396341","tag":{"amenity":"waste_basket"}},"type":"Feature"},
	{"geometry":{"coordinates":[16.973807,52.392274],"type":"Point"},"properties":{"osm_id":"6417396351","tag":{"amenity":"waste_basket"}},"type":"Feature"},
	{"geometry":{"coordinates":[16.973966,52.392336],"type":"Point"},"properties":{"osm_id":"6417396352","tag":{"amenity":"waste_basket"}},"type":"Feature"},
	{"geometry":{"coordinates":[16.974503,52.392157],"type":"Point"},"properties":{"osm_id":"6417396353","tag":{"amenity":"waste_basket"}},"type":"Feature"},
	{"geometry":{"coordinates":[16.974693,52.392049],"type":"Point"},"properties":{"osm_id":"6417396354","tag":{"amenity":"waste_basket"}},"type":"Feature"},
	{"geometry":{"coordinates":[16.975979,52.391712],"type":"Point"},"properties":{"osm_id":"6417396355","tag":{"amenity":"waste_basket"}},"type":"Feature"},
	{"geometry":{"coordinates":[16.97579,52.391751],"type":"Point"},"properties":{"osm_id":"6417396356","tag":{"amenity":"waste_basket"}},"type":"Feature"},
	{"geometry":{"coordinates":[16.975636,52.391852],"type":"Point"},"properties":{"osm_id":"6417396357","tag":{"amenity":"waste_basket"}},"type":"Feature"},
	{"geometry":{"coordinates":[16.975059,52.392092],"type":"Point"},"properties":{"osm_id":"6417396358","tag":{"amenity":"waste_basket"}},"type":"Feature"},
	{"geometry":{"coordinates":[16.97525,52.392074],"type":"Point"},"properties":{"osm_id":"6417396359","tag":{"amenity":"waste_basket"}},"type":"Feature"},
	{"geometry":{"coordinates":[16.97535,52.392265],"type":"Point"},"properties":{"osm_id":"6417396360","tag":{"amenity":"waste_basket"}},"type":"Feature"},
	{"geometry":{"coordinates":[16.97344,52.392392],"type":"Point"},"properties":{"osm_id":"6417396361","tag":{"amenity":"waste_basket"}},"type":"Feature"},
	{"geometry":{"coordinates":[16.973209,52.392358],"type":"Point"},"properties":{"osm_id":"6417396362","tag":{"amenity":"waste_basket"}},"type":"Feature"},
	{"geometry":{"coordinates":[16.973016,52.392369],"type":"Point"},"properties":{"osm_id":"6417396363","tag":{"amenity":"waste_basket"}},"type":"Feature"},
	{"geometry":{"coordinates":[16.972922,52.392282],"type":"Point"},"properties":{"osm_id":"6417396364","tag":{"amenity":"waste_basket"}},"type":"Feature"},
	{"geometry":{"coordinates":[16.972681,52.392335],"type":"Point"},"properties":{"osm_id":"6417396365","tag":{"amenity":"waste_basket"}},"type":"Feature"},
	{"geometry":{"coordinates":[16.972026,52.392417],"type":"Point"},"properties":{"osm_id":"6417396375","tag":{"amenity":"waste_basket"}},"type":"Feature"},
	{"geometry":{"coordinates":[16.972155,52.392393],"type":"Point"},"properties":{"osm_id":"6417396376","tag":{"amenity":"waste_basket"}},"type":"Feature"},
	{"geometry":{"coordinates":[16.972012,52.392459],"type":"Point"},"properties":{"osm_id":"6417396377","tag":{"amenity":"waste_basket"}},"type":"Feature"},
	{"geometry":{"coordinates":[16.971795,52.392501],"type":"Point"},"properties":{"osm_id":"6417396378","tag":{"amenity":"waste_basket"}},"type":"Feature"},
	{"geometry":{"coordinates":[16.977657,52.391951],"type":"Point"},"properties":{"osm_id":"6417396387","tag":{"amenity":"waste_basket"}},"type":"Feature"},
	{"geometry":{"coordinates":[16.978024,52.391747],"type":"Point"},"properties":{"osm_id":"6417396390","tag":{"amenity":"waste_basket"}},"type":"Feature"},
	{"geometry":{"coordinates":[16.978793,52.390738],"type":"Point"},"properties":{"osm_id":"6417396391","tag":{"amenity":"waste_basket"}},"type":"Feature"},
	{"geometry":{"coordinates":[16.978576,52.390579],"type":"Point"},"properties":{"osm_id":"6417396392","tag":{"amenity":"waste_basket"}},"type":"Feature"},
	{"geometry":{"coordinates":[16.978286,52.390541],"type":"Point"},"properties":{"osm_id":"6417396398","tag":{"amenity":"waste_basket"}},"type":"Feature"},
	{"geometry":{"coordinates":[16.978036,52.390421],"type":"Point"},"properties":{"osm_id":"6417396399","tag":{"amenity":"waste_basket"}},"type":"Feature"},
	{"geometry":{"coordinates":[16.977917,52.390364],"type":"Point"},"properties":{"osm_id":"6417396400","tag":{"amenity":"waste_basket"}},"type":"Feature"},
	{"geometry":{"coordinates":[16.977793,52.390304],"type":"Point"},"properties":{"osm_id":"6417396401","tag":{"amenity":"waste_basket"}},"type":"Feature"},
	{"geometry":{"coordinates":[16.978165,52.390016],"type":"Point"},"properties":{"osm_id":"6417396408","tag":{"amenity":"waste_basket"}},"type":"Feature"},
	{"geometry":{"coordinates":[17.020834,52.397597],"type":"Point"},"properties":{"osm_id":"6417441334","tag":{"amenity":"waste_basket"}},"type":"Feature"},
	{"geometry":{"coordinates":[16.970007,52.407374],"type":"Point"},"properties":{"osm_id":"6419137328","tag":{"amenity":"waste_basket"}},"type":"Feature"},
	{"geometry":{"coordinates":[16.970233,52.407269],"type":"Point"},"properties":{"osm_id":"6419137329","tag":{"amenity":"waste_basket"}},"type":"Feature"},
	{"geometry":{"coordinates":[16.970365,52.407472],"type":"Point"},"properties":{"osm_id":"6419137330","tag":{"amenity":"waste_basket"}},"type":"Feature"},
	{"geometry":{"coordinates":[16.970085,52.407475],"type":"Point"},"properties":{"osm_id":"6419137331","tag":{"amenity":"waste_basket"}},"type":"Feature"},
	{"geometry":{"coordinates":[16.967638,52.387369],"type":"Point"},"properties":{"osm_id":"6457268494","tag":{"access":"private","amenity":"waste_disposal"}},"type":"Feature"},
	{"geometry":{"coordinates":[16.989188,52.393247],"type":"Point"},"properties":{"osm_id":"6473757723","tag":{"amenity":"waste_basket","waste":"trash"}},"type":"Feature"},
	{"geometry":{"coordinates":[16.980011,52.3922],"type":"Point"},"properties":{"osm_id":"6481572043","tag":{"amenity":"waste_basket"}},"type":"Feature"},
	{"geometry":{"coordinates":[16.982951,52.390221],"type":"Point"},"properties":{"osm_id":"6483740682","tag":{"amenity":"waste_basket"}},"type":"Feature"},
	{"geometry":{"coordinates":[16.982849,52.389997],"type":"Point"},"properties":{"osm_id":"6483744202","tag":{"amenity":"waste_basket"}},"type":"Feature"},
	{"geometry":{"coordinates":[16.983064,52.392348],"type":"Point"},"properties":{"osm_id":"6483744205","tag":{"amenity":"waste_basket"}},"type":"Feature"},
	{"geometry":{"coordinates":[16.98343,52.392243],"type":"Point"},"properties":{"osm_id":"6483744207","tag":{"amenity":"waste_basket"}},"type":"Feature"},
	{"geometry":{"coordinates":[16.966699,52.390208],"type":"Point"},"properties":{"osm_id":"6483744258","tag":{"amenity":"waste_basket"}},"type":"Feature"},
	{"geometry":{"coordinates":[16.963284,52.393595],"type":"Point"},"properties":{"osm_id":"6483744259","tag":{"amenity":"waste_basket"}},"type":"Feature"},
	{"geometry":{"coordinates":[16.963788,52.393209],"type":"Point"},"properties":{"osm_id":"6483744264","tag":{"amenity":"waste_basket"}},"type":"Feature"},
	{"geometry":{"coordinates":[16.980963,52.393177],"type":"Point"},"properties":{"osm_id":"6483744273","tag":{"amenity":"waste_basket"}},"type":"Feature"},
	{"geometry":{"coordinates":[16.974383,52.393864],"type":"Point"},"properties":{"osm_id":"6483744280","tag":{"amenity":"waste_basket"}},"type":"Feature"},
	{"geometry":{"coordinates":[16.974288,52.394026],"type":"Point"},"properties":{"osm_id":"6483744283","tag":{"amenity":"waste_basket"}},"type":"Feature"},
	{"geometry":{"coordinates":[16.968105,52.380426],"type":"Point"},"properties":{"osm_id":"6483744369","tag":{"amenity":"waste_basket"}},"type":"Feature"},
	{"geometry":{"coordinates":[16.967704,52.380526],"type":"Point"},"properties":{"osm_id":"6483744404","tag":{"amenity":"recycling"}},"type":"Feature"},
	{"geometry":{"coordinates":[16.976962,52.384676],"type":"Point"},"properties":{"osm_id":"6483744430","tag":{"amenity":"waste_basket"}},"type":"Feature"},
	{"geometry":{"coordinates":[16.976699,52.395109],"type":"Point"},"properties":{"osm_id":"6483794893","tag":{"amenity":"waste_basket"}},"type":"Feature"},
	{"geometry":{"coordinates":[16.97719,52.395208],"type":"Point"},"properties":{"osm_id":"6483794896","tag":{"amenity":"waste_basket"}},"type":"Feature"},
	{"geometry":{"coordinates":[16.977439,52.395058],"type":"Point"},"properties":{"osm_id":"6483794897","tag":{"amenity":"waste_basket"}},"type":"Feature"},
	{"geometry":{"coordinates":[16.977201,52.394811],"type":"Point"},"properties":{"osm_id":"6483794904","tag":{"amenity":"waste_basket"}},"type":"Feature"},
	{"geometry":{"coordinates":[16.977554,52.39477],"type":"Point"},"properties":{"osm_id":"6483794906","tag":{"amenity":"waste_basket"}},"type":"Feature"},
	{"geometry":{"coordinates":[16.974345,52.394733],"type":"Point"},"properties":{"osm_id":"6483834163","tag":{"amenity":"waste_basket"}},"type":"Feature"},
	{"geometry":{"coordinates":[16.96782,52.378627],"type":"Point"},"properties":{"osm_id":"6484185576","tag":{"amenity":"waste_basket"}},"type":"Feature"},
	{"geometry":{"coordinates":[16.968604,52.39133],"type":"Point"},"properties":{"osm_id":"6484351968","tag":{"amenity":"waste_basket"}},"type":"Feature"},
	{"geometry":{"coordinates":[16.966136,52.379216],"type":"Point"},"properties":{"osm_id":"6485117411","tag":{"amenity":"waste_basket"}},"type":"Feature"},
	{"geometry":{"coordinates":[17.00633,52.391221],"type":"Point"},"properties":{"osm_id":"6508572113","tag":{"amenity":"waste_disposal"}},"type":"Feature"},
	{"geometry":{"coordinates":[16.971806,52.408867],"type":"Point"},"properties":{"osm_id":"6508964375","tag":{"amenity":"waste_basket"}},"type":"Feature"},
	{"geometry":{"coordinates":[16.975502,52.410198],"type":"Point"},"properties":{"osm_id":"6509020103","tag":{"amenity":"waste_basket"}},"type":"Feature"},
	{"geometry":{"coordinates":[16.975487,52.410384],"type":"Point"},"properties":{"osm_id":"6509020104","tag":{"amenity":"waste_basket"}},"type":"Feature"},
	{"geometry":{"coordinates":[16.975955,52.410419],"type":"Point"},"properties":{"osm_id":"6509020105","tag":{"amenity":"waste_basket"}},"type":"Feature"},
	{"geometry":{"coordinates":[16.975941,52.410326],"type":"Point"},"properties":{"osm_id":"6509020113","tag":{"amenity":"waste_basket"}},"type":"Feature"},
	{"geometry":{"coordinates":[17.021756,52.393887],"type":"Point"},"properties":{"osm_id":"6509020167","tag":{"amenity":"waste_basket"}},"type":"Feature"},
	{"geometry":{"coordinates":[17.022282,52.393916],"type":"Point"},"properties":{"osm_id":"6509020168","tag":{"amenity":"waste_basket"}},"type":"Feature"},
	{"geometry":{"coordinates":[17.026098,52.407319],"type":"Point"},"properties":{"osm_id":"6516538630","tag":{"amenity":"waste_basket"}},"type":"Feature"},
	{"geometry":{"coordinates":[17.025414,52.407331],"type":"Point"},"properties":{"osm_id":"6516566375","tag":{"amenity":"waste_basket"}},"type":"Feature"},
	{"geometry":{"coordinates":[17.025833,52.407604],"type":"Point"},"properties":{"osm_id":"6516569241","tag":{"amenity":"waste_basket"}},"type":"Feature"},
	{"geometry":{"coordinates":[17.024878,52.407331],"type":"Point"},"properties":{"osm_id":"6516570244","tag":{"amenity":"waste_basket"}},"type":"Feature"},
	{"geometry":{"coordinates":[17.024721,52.407498],"type":"Point"},"properties":{"osm_id":"6516572224","tag":{"amenity":"waste_basket"}},"type":"Feature"},
	{"geometry":{"coordinates":[17.025335,52.406709],"type":"Point"},"properties":{"osm_id":"6516573154","tag":{"amenity":"waste_basket"}},"type":"Feature"},
	{"geometry":{"coordinates":[16.977132,52.383996],"type":"Point"},"properties":{"osm_id":"6557966440","tag":{"amenity":"waste_basket"}},"type":"Feature"},
	{"geometry":{"coordinates":[16.977716,52.383395],"type":"Point"},"properties":{"osm_id":"6557966441","tag":{"amenity":"waste_basket"}},"type":"Feature"},
	{"geometry":{"coordinates":[16.976685,52.38523],"type":"Point"},"properties":{"osm_id":"6557966442","tag":{"amenity":"waste_basket"}},"type":"Feature"},
	{"geometry":{"coordinates":[16.976925,52.385561],"type":"Point"},"properties":{"osm_id":"6557966443","tag":{"amenity":"waste_basket"}},"type":"Feature"},
	{"geometry":{"coordinates":[16.976219,52.38428],"type":"Point"},"properties":{"osm_id":"6557966451","tag":{"amenity":"waste_basket"}},"type":"Feature"},
	{"geometry":{"coordinates":[16.9768,52.383873],"type":"Point"},"properties":{"osm_id":"6557966452","tag":{"amenity":"waste_basket"}},"type":"Feature"},
	{"geometry":{"coordinates":[16.976473,52.384103],"type":"Point"},"properties":{"osm_id":"6557966453","tag":{"amenity":"waste_basket"}},"type":"Feature"},
	{"geometry":{"coordinates":[16.981117,52.38488],"type":"Point"},"properties":{"osm_id":"6557975598","tag":{"amenity":"waste_basket"}},"type":"Feature"},
	{"geometry":{"coordinates":[16.983824,52.383827],"type":"Point"},"properties":{"osm_id":"6557975646","tag":{"amenity":"waste_basket"}},"type":"Feature"},
	{"geometry":{"coordinates":[16.982968,52.384282],"type":"Point"},"properties":{"osm_id":"6557975647","tag":{"amenity":"waste_basket"}},"type":"Feature"},
	{"geometry":{"coordinates":[16.982437,52.38441],"type":"Point"},"properties":{"osm_id":"6557975655","tag":{"amenity":"waste_basket"}},"type":"Feature"},
	{"geometry":{"coordinates":[16.981927,52.384571],"type":"Point"},"properties":{"osm_id":"6557975657","tag":{"amenity":"waste_basket"}},"type":"Feature"},
	{"geometry":{"coordinates":[16.98009,52.384875],"type":"Point"},"properties":{"osm_id":"6557975661","tag":{"amenity":"waste_basket"}},"type":"Feature"},
	{"geometry":{"coordinates":[16.979935,52.384977],"type":"Point"},"properties":{"osm_id":"6557975662","tag":{"amenity":"waste_basket"}},"type":"Feature"},
	{"geometry":{"coordinates":[16.980789,52.385078],"type":"Point"},"properties":{"osm_id":"6557975663","tag":{"amenity":"waste_basket"}},"type":"Feature"},
	{"geometry":{"coordinates":[16.98057,52.384876],"type":"Point"},"properties":{"osm_id":"6557975664","tag":{"amenity":"waste_basket"}},"type":"Feature"},
	{"geometry":{"coordinates":[16.979451,52.385088],"type":"Point"},"properties":{"osm_id":"6557975692","tag":{"amenity":"waste_basket"}},"type":"Feature"},
	{"geometry":{"coordinates":[16.979166,52.385144],"type":"Point"},"properties":{"osm_id":"6557975696","tag":{"amenity":"waste_basket"}},"type":"Feature"},
	{"geometry":{"coordinates":[16.978334,52.385416],"type":"Point"},"properties":{"osm_id":"6557975698","tag":{"amenity":"waste_basket"}},"type":"Feature"},
	{"geometry":{"coordinates":[16.977769,52.38555],"type":"Point"},"properties":{"osm_id":"6557975717","tag":{"amenity":"waste_basket"}},"type":"Feature"},
	{"geometry":{"coordinates":[16.977375,52.38569],"type":"Point"},"properties":{"osm_id":"6557975720","tag":{"amenity":"waste_basket"}},"type":"Feature"},
	{"geometry":{"coordinates":[16.97771,52.425775],"type":"Point"},"properties":{"osm_id":"6735927384","tag":{"amenity":"waste_basket"}},"type":"Feature"},
	{"geometry":{"coordinates":[16.977556,52.425257],"type":"Point"},"properties":{"osm_id":"6735929985","tag":{"amenity":"waste_basket"}},"type":"Feature"},
	{"geometry":{"coordinates":[16.977896,52.42619],"type":"Point"},"properties":{"osm_id":"6859986363","tag":{"amenity":"waste_basket"}},"type":"Feature"},
	{"geometry":{"coordinates":[16.978619,52.426848],"type":"Point"},"properties":{"osm_id":"6860814188","tag":{"amenity":"waste_basket"}},"type":"Feature"},
	{"geometry":{"coordinates":[16.965057,52.378997],"type":"Point"},"properties":{"osm_id":"6982923979","tag":{"amenity":"waste_basket"}},"type":"Feature"},
	{"geometry":{"coordinates":[16.966234,52.377951],"type":"Point"},"properties":{"osm_id":"7006034265","tag":{"amenity":"waste_basket"}},"type":"Feature"},
	{"geometry":{"coordinates":[16.966055,52.37838],"type":"Point"},"properties":{"osm_id":"7006034267","tag":{"amenity":"waste_basket"}},"type":"Feature"},
	{"geometry":{"coordinates":[16.970798,52.381923],"type":"Point"},"properties":{"osm_id":"7006485419","tag":{"access":"private","amenity":"waste_disposal"}},"type":"Feature"},
	{"geometry":{"coordinates":[16.966687,52.378918],"type":"Point"},"properties":{"osm_id":"7006486410","tag":{"access":"private","amenity":"waste_disposal"}},"type":"Feature"},
	{"geometry":{"coordinates":[16.978569,52.393497],"type":"Point"},"properties":{"osm_id":"7006739229","tag":{"amenity":"waste_basket"}},"type":"Feature"},
	{"geometry":{"coordinates":[16.977677,52.392875],"type":"Point"},"properties":{"osm_id":"7006753453","tag":{"access":"private","amenity":"recycling"}},"type":"Feature"},
	{"geometry":{"coordinates":[16.977607,52.392841],"type":"Point"},"properties":{"osm_id":"7006753454","tag":{"access":"private","amenity":"waste_disposal"}},"type":"Feature"},
	{"geometry":{"coordinates":[16.965076,52.378785],"type":"Point"},"properties":{"osm_id":"7012192355","tag":{"amenity":"waste_basket"}},"type":"Feature"},
	{"geometry":{"coordinates":[16.963928,52.378637],"type":"Point"},"properties":{"osm_id":"7012192356","tag":{"amenity":"waste_basket"}},"type":"Feature"},
	{"geometry":{"coordinates":[16.964105,52.378446],"type":"Point"},"properties":{"osm_id":"7012192357","tag":{"amenity":"waste_basket"}},"type":"Feature"},
	{"geometry":{"coordinates":[16.965934,52.380196],"type":"Point"},"properties":{"osm_id":"7012192362","tag":{"amenity":"waste_basket"}},"type":"Feature"},
	{"geometry":{"coordinates":[16.965615,52.380405],"type":"Point"},"properties":{"osm_id":"7012192363","tag":{"amenity":"waste_basket"}},"type":"Feature"},
	{"geometry":{"coordinates":[16.965547,52.380453],"type":"Point"},"properties":{"osm_id":"7012192364","tag":{"amenity":"waste_basket"}},"type":"Feature"},
	{"geometry":{"coordinates":[16.969215,52.383021],"type":"Point"},"properties":{"osm_id":"7012192366","tag":{"amenity":"waste_basket"}},"type":"Feature"},
	{"geometry":{"coordinates":[16.971525,52.384464],"type":"Point"},"properties":{"osm_id":"7012192367","tag":{"amenity":"waste_basket"}},"type":"Feature"},
	{"geometry":{"coordinates":[16.975372,52.38631],"type":"Point"},"properties":{"osm_id":"7012192368","tag":{"amenity":"waste_basket"}},"type":"Feature"},
	{"geometry":{"coordinates":[16.975717,52.386471],"type":"Point"},"properties":{"osm_id":"7012192369","tag":{"amenity":"waste_basket"}},"type":"Feature"},
	{"geometry":{"coordinates":[16.97612,52.386637],"type":"Point"},"properties":{"osm_id":"7012192370","tag":{"amenity":"waste_basket"}},"type":"Feature"},
	{"geometry":{"coordinates":[16.979641,52.389395],"type":"Point"},"properties":{"osm_id":"7012192371","tag":{"amenity":"waste_basket"}},"type":"Feature"},
	{"geometry":{"coordinates":[16.975977,52.391037],"type":"Point"},"properties":{"osm_id":"7012192378","tag":{"amenity":"waste_basket"}},"type":"Feature"},
	{"geometry":{"coordinates":[16.975616,52.391265],"type":"Point"},"properties":{"osm_id":"7012192379","tag":{"amenity":"waste_basket"}},"type":"Feature"},
	{"geometry":{"coordinates":[16.971431,52.392305],"type":"Point"},"properties":{"osm_id":"7012192380","tag":{"amenity":"waste_basket"}},"type":"Feature"},
	{"geometry":{"coordinates":[16.968562,52.3933],"type":"Point"},"properties":{"osm_id":"7012192381","tag":{"amenity":"waste_basket"}},"type":"Feature"},
	{"geometry":{"coordinates":[16.967173,52.393997],"type":"Point"},"properties":{"osm_id":"7012192382","tag":{"amenity":"waste_basket"}},"type":"Feature"},
	{"geometry":{"coordinates":[16.965962,52.394597],"type":"Point"},"properties":{"osm_id":"7012192383","tag":{"amenity":"waste_basket"}},"type":"Feature"},
	{"geometry":{"coordinates":[16.964923,52.39516],"type":"Point"},"properties":{"osm_id":"7012192384","tag":{"amenity":"waste_basket"}},"type":"Feature"},
	{"geometry":{"coordinates":[16.963932,52.395707],"type":"Point"},"properties":{"osm_id":"7012210485","tag":{"amenity":"waste_basket"}},"type":"Feature"},
	{"geometry":{"coordinates":[16.963707,52.396031],"type":"Point"},"properties":{"osm_id":"7012210488","tag":{"amenity":"waste_basket"}},"type":"Feature"},
	{"geometry":{"coordinates":[16.963699,52.396199],"type":"Point"},"properties":{"osm_id":"7012210699","tag":{"amenity":"waste_basket"}},"type":"Feature"},
	{"geometry":{"coordinates":[16.978088,52.389483],"type":"Point"},"properties":{"osm_id":"7012210700","tag":{"amenity":"waste_basket"}},"type":"Feature"},
	{"geometry":{"coordinates":[16.977925,52.389523],"type":"Point"},"properties":{"osm_id":"7012210701","tag":{"amenity":"waste_basket"}},"type":"Feature"},
	{"geometry":{"coordinates":[16.977772,52.38956],"type":"Point"},"properties":{"osm_id":"7012210702","tag":{"amenity":"waste_basket"}},"type":"Feature"},
	{"geometry":{"coordinates":[16.965968,52.379529],"type":"Point"},"properties":{"osm_id":"7015040156","tag":{"amenity":"waste_basket"}},"type":"Feature"},
	{"geometry":{"coordinates":[16.966013,52.379262],"type":"Point"},"properties":{"osm_id":"7015040157","tag":{"amenity":"waste_basket"}},"type":"Feature"},
	{"geometry":{"coordinates":[16.964529,52.395697],"type":"Point"},"properties":{"osm_id":"7018796320","tag":{"amenity":"recycling"}},"type":"Feature"},
	{"geometry":{"coordinates":[16.963857,52.396335],"type":"Point"},"properties":{"osm_id":"7018796341","tag":{"amenity":"waste_basket"}},"type":"Feature"},
	{"geometry":{"coordinates":[16.964612,52.395839],"type":"Point"},"properties":{"osm_id":"7018796342","tag":{"amenity":"waste_basket"}},"type":"Feature"},
	{"geometry":{"coordinates":[16.965362,52.39535],"type":"Point"},"properties":{"osm_id":"7018796343","tag":{"amenity":"waste_basket"}},"type":"Feature"},
	{"geometry":{"coordinates":[16.965811,52.395062],"type":"Point"},"properties":{"osm_id":"7018796344","tag":{"amenity":"waste_basket"}},"type":"Feature"},
	{"geometry":{"coordinates":[16.98859,52.386327],"type":"Point"},"properties":{"osm_id":"7039364042","tag":{"access":"private","amenity":"waste_disposal"}},"type":"Feature"},
	{"geometry":{"coordinates":[16.965475,52.38065],"type":"Point"},"properties":{"osm_id":"7057654285","tag":{"amenity":"waste_basket"}},"type":"Feature"},
	{"geometry":{"coordinates":[16.96526,52.380662],"type":"Point"},"properties":{"osm_id":"7057654286","tag":{"amenity":"waste_basket"}},"type":"Feature"},
	{"geometry":{"coordinates":[16.975958,52.38661],"type":"Point"},"properties":{"osm_id":"7057654287","tag":{"amenity":"waste_basket"}},"type":"Feature"},
	{"geometry":{"coordinates":[16.979131,52.389588],"type":"Point"},"properties":{"osm_id":"7057654288","tag":{"amenity":"waste_basket"}},"type":"Feature"},
	{"geometry":{"coordinates":[16.966094,52.377321],"type":"Point"},"properties":{"osm_id":"7057761661","tag":{"amenity":"waste_basket"}},"type":"Feature"},
	{"geometry":{"coordinates":[16.966682,52.377315],"type":"Point"},"properties":{"osm_id":"7057761662","tag":{"amenity":"waste_basket"}},"type":"Feature"},
	{"geometry":{"coordinates":[16.966517,52.377767],"type":"Point"},"properties":{"osm_id":"7057761663","tag":{"amenity":"waste_basket"}},"type":"Feature"},
	{"geometry":{"coordinates":[16.966765,52.377854],"type":"Point"},"properties":{"osm_id":"7057761664","tag":{"amenity":"waste_basket"}},"type":"Feature"},
	{"geometry":{"coordinates":[16.966896,52.377708],"type":"Point"},"properties":{"osm_id":"7057761665","tag":{"amenity":"waste_basket"}},"type":"Feature"},
	{"geometry":{"coordinates":[16.967002,52.377761],"type":"Point"},"properties":{"osm_id":"7057761674","tag":{"amenity":"waste_basket"}},"type":"Feature"},
	{"geometry":{"coordinates":[16.966663,52.377621],"type":"Point"},"properties":{"osm_id":"7057761675","tag":{"amenity":"waste_basket"}},"type":"Feature"},
	{"geometry":{"coordinates":[16.967064,52.377584],"type":"Point"},"properties":{"osm_id":"7057761676","tag":{"amenity":"waste_basket"}},"type":"Feature"},
	{"geometry":{"coordinates":[16.968156,52.377284],"type":"Point"},"properties":{"osm_id":"7057761677","tag":{"amenity":"waste_basket"}},"type":"Feature"},
	{"geometry":{"coordinates":[16.968444,52.376772],"type":"Point"},"properties":{"osm_id":"7057761678","tag":{"amenity":"waste_basket"}},"type":"Feature"},
	{"geometry":{"coordinates":[16.966454,52.376435],"type":"Point"},"properties":{"osm_id":"7057761684","tag":{"amenity":"waste_basket"}},"type":"Feature"},
	{"geometry":{"coordinates":[16.966701,52.376026],"type":"Point"},"properties":{"osm_id":"7057761786","tag":{"amenity":"waste_basket"}},"type":"Feature"},
	{"geometry":{"coordinates":[16.96658,52.375747],"type":"Point"},"properties":{"osm_id":"7057761795","tag":{"amenity":"waste_basket"}},"type":"Feature"},
	{"geometry":{"coordinates":[16.963226,52.376895],"type":"Point"},"properties":{"osm_id":"7057761803","tag":{"amenity":"waste_basket"}},"type":"Feature"},
	{"geometry":{"coordinates":[16.965142,52.375646],"type":"Point"},"properties":{"osm_id":"7057761836","tag":{"amenity":"waste_basket"}},"type":"Feature"},
	{"geometry":{"coordinates":[16.965453,52.376224],"type":"Point"},"properties":{"osm_id":"7057761837","tag":{"amenity":"waste_basket"}},"type":"Feature"},
	{"geometry":{"coordinates":[16.965736,52.37648],"type":"Point"},"properties":{"osm_id":"7057761838","tag":{"amenity":"waste_basket"}},"type":"Feature"},
	{"geometry":{"coordinates":[16.965699,52.375868],"type":"Point"},"properties":{"osm_id":"7057761844","tag":{"amenity":"waste_basket"}},"type":"Feature"},
	{"geometry":{"coordinates":[16.966037,52.375756],"type":"Point"},"properties":{"osm_id":"7057761845","tag":{"amenity":"waste_basket"}},"type":"Feature"},
	{"geometry":{"coordinates":[16.966141,52.375798],"type":"Point"},"properties":{"osm_id":"7057761846","tag":{"amenity":"waste_basket"}},"type":"Feature"},
	{"geometry":{"coordinates":[16.966251,52.376456],"type":"Point"},"properties":{"osm_id":"7057761848","tag":{"amenity":"waste_basket"}},"type":"Feature"},
	{"geometry":{"coordinates":[16.964887,52.377135],"type":"Point"},"properties":{"osm_id":"7057761850","tag":{"amenity":"waste_basket"}},"type":"Feature"},
	{"geometry":{"coordinates":[16.964168,52.377227],"type":"Point"},"properties":{"osm_id":"7057761854","tag":{"amenity":"waste_basket"}},"type":"Feature"},
	{"geometry":{"coordinates":[16.963692,52.377317],"type":"Point"},"properties":{"osm_id":"7057761855","tag":{"amenity":"waste_basket"}},"type":"Feature"},
	{"geometry":{"coordinates":[16.964307,52.377368],"type":"Point"},"properties":{"osm_id":"7057761857","tag":{"amenity":"waste_basket"}},"type":"Feature"},
	{"geometry":{"coordinates":[16.964551,52.377382],"type":"Point"},"properties":{"osm_id":"7057761858","tag":{"amenity":"waste_basket"}},"type":"Feature"},
	{"geometry":{"coordinates":[16.964782,52.377808],"type":"Point"},"properties":{"osm_id":"7057761862","tag":{"amenity":"waste_basket"}},"type":"Feature"},
	{"geometry":{"coordinates":[16.964377,52.377614],"type":"Point"},"properties":{"osm_id":"7057761863","tag":{"amenity":"waste_basket"}},"type":"Feature"},
	{"geometry":{"coordinates":[16.964104,52.377583],"type":"Point"},"properties":{"osm_id":"7057761864","tag":{"amenity":"waste_basket"}},"type":"Feature"},
	{"geometry":{"coordinates":[16.96353,52.378447],"type":"Point"},"properties":{"osm_id":"7057761935","tag":{"amenity":"waste_basket"}},"type":"Feature"},
	{"geometry":{"coordinates":[16.963018,52.37873],"type":"Point"},"properties":{"osm_id":"7057761936","tag":{"amenity":"waste_basket"}},"type":"Feature"},
	{"geometry":{"coordinates":[16.965106,52.381483],"type":"Point"},"properties":{"osm_id":"7057761940","tag":{"amenity":"waste_basket"}},"type":"Feature"},
	{"geometry":{"coordinates":[16.964562,52.381168],"type":"Point"},"properties":{"osm_id":"7057761946","tag":{"amenity":"waste_basket"}},"type":"Feature"},
	{"geometry":{"coordinates":[17.030297,52.387393],"type":"Point"},"properties":{"osm_id":"7075524146","tag":{"amenity":"waste_basket"}},"type":"Feature"},
	{"geometry":{"coordinates":[16.968915,52.384027],"type":"Point"},"properties":{"osm_id":"7077014326","tag":{"amenity":"waste_basket"}},"type":"Feature"},
	{"geometry":{"coordinates":[16.975315,52.38708],"type":"Point"},"properties":{"osm_id":"7077014328","tag":{"amenity":"waste_basket"}},"type":"Feature"},
	{"geometry":{"coordinates":[16.975611,52.387125],"type":"Point"},"properties":{"osm_id":"7077014329","tag":{"amenity":"waste_basket"}},"type":"Feature"},
	{"geometry":{"coordinates":[16.975824,52.387182],"type":"Point"},"properties":{"osm_id":"7077014330","tag":{"amenity":"waste_basket"}},"type":"Feature"},
	{"geometry":{"coordinates":[16.976551,52.388848],"type":"Point"},"properties":{"osm_id":"7077014331","tag":{"amenity":"waste_basket"}},"type":"Feature"},
	{"geometry":{"coordinates":[16.976544,52.389135],"type":"Point"},"properties":{"osm_id":"7077014332","tag":{"amenity":"waste_basket"}},"type":"Feature"},
	{"geometry":{"coordinates":[16.976038,52.387487],"type":"Point"},"properties":{"osm_id":"7077014333","tag":{"amenity":"waste_basket"}},"type":"Feature"},
	{"geometry":{"coordinates":[16.976553,52.388528],"type":"Point"},"properties":{"osm_id":"7077014334","tag":{"amenity":"waste_basket"}},"type":"Feature"},
	{"geometry":{"coordinates":[16.976437,52.388152],"type":"Point"},"properties":{"osm_id":"7077014335","tag":{"amenity":"waste_basket"}},"type":"Feature"},
	{"geometry":{"coordinates":[16.976267,52.387834],"type":"Point"},"properties":{"osm_id":"7077014341","tag":{"amenity":"waste_basket"}},"type":"Feature"},
	{"geometry":{"coordinates":[16.977532,52.389374],"type":"Point"},"properties":{"osm_id":"7077014342","tag":{"amenity":"waste_basket"}},"type":"Feature"},
	{"geometry":{"coordinates":[16.978056,52.389881],"type":"Point"},"properties":{"osm_id":"7077014343","tag":{"amenity":"waste_basket"}},"type":"Feature"},
	{"geometry":{"coordinates":[16.978138,52.389589],"type":"Point"},"properties":{"osm_id":"7092829716","tag":{"amenity":"waste_basket"}},"type":"Feature"},
	{"geometry":{"coordinates":[16.977789,52.389821],"type":"Point"},"properties":{"osm_id":"7092829717","tag":{"amenity":"waste_basket"}},"type":"Feature"},
	{"geometry":{"coordinates":[16.978315,52.389633],"type":"Point"},"properties":{"osm_id":"7092829718","tag":{"amenity":"waste_basket"}},"type":"Feature"},
	{"geometry":{"coordinates":[16.97825,52.389673],"type":"Point"},"properties":{"osm_id":"7092829719","tag":{"amenity":"waste_basket"}},"type":"Feature"},
	{"geometry":{"coordinates":[16.97811,52.389766],"type":"Point"},"properties":{"osm_id":"7092829720","tag":{"amenity":"waste_basket"}},"type":"Feature"},
	{"geometry":{"coordinates":[16.977962,52.389863],"type":"Point"},"properties":{"osm_id":"7092829721","tag":{"amenity":"waste_basket"}},"type":"Feature"},
	{"geometry":{"coordinates":[16.977778,52.390009],"type":"Point"},"properties":{"osm_id":"7092829722","tag":{"amenity":"waste_basket"}},"type":"Feature"},
	{"geometry":{"coordinates":[16.980241,52.392944],"type":"Point"},"properties":{"osm_id":"7096550794","tag":{"amenity":"waste_basket"}},"type":"Feature"},
	{"geometry":{"coordinates":[16.982514,52.395063],"type":"Point"},"properties":{"osm_id":"7096550795","tag":{"amenity":"waste_basket"}},"type":"Feature"},
	{"geometry":{"coordinates":[16.983084,52.395803],"type":"Point"},"properties":{"osm_id":"7096550796","tag":{"amenity":"waste_basket"}},"type":"Feature"},
	{"geometry":{"coordinates":[16.988596,52.400058],"type":"Point"},"properties":{"osm_id":"7096550801","tag":{"amenity":"waste_basket"}},"type":"Feature"},
	{"geometry":{"coordinates":[16.988123,52.400514],"type":"Point"},"properties":{"osm_id":"7096550802","tag":{"amenity":"waste_basket"}},"type":"Feature"},
	{"geometry":{"coordinates":[16.988208,52.399797],"type":"Point"},"properties":{"osm_id":"7096550810","tag":{"amenity":"waste_basket"}},"type":"Feature"},
	{"geometry":{"coordinates":[16.988173,52.400134],"type":"Point"},"properties":{"osm_id":"7096550811","tag":{"amenity":"waste_basket"}},"type":"Feature"},
	{"geometry":{"coordinates":[16.98401,52.400006],"type":"Point"},"properties":{"osm_id":"7096550813","tag":{"amenity":"waste_basket"}},"type":"Feature"},
	{"geometry":{"coordinates":[16.983487,52.399132],"type":"Point"},"properties":{"osm_id":"7096550834","tag":{"amenity":"waste_basket"}},"type":"Feature"},
	{"geometry":{"coordinates":[16.983428,52.39868],"type":"Point"},"properties":{"osm_id":"7096550835","tag":{"amenity":"waste_basket"}},"type":"Feature"},
	{"geometry":{"coordinates":[16.983399,52.398451],"type":"Point"},"properties":{"osm_id":"7096550836","tag":{"amenity":"waste_basket"}},"type":"Feature"},
	{"geometry":{"coordinates":[16.982661,52.396294],"type":"Point"},"properties":{"osm_id":"7096550837","tag":{"amenity":"waste_basket"}},"type":"Feature"},
	{"geometry":{"coordinates":[16.981546,52.395075],"type":"Point"},"properties":{"osm_id":"7096550846","tag":{"amenity":"waste_basket"}},"type":"Feature"},
	{"geometry":{"coordinates":[16.980803,52.395051],"type":"Point"},"properties":{"osm_id":"7096550847","tag":{"amenity":"waste_basket"}},"type":"Feature"},
	{"geometry":{"coordinates":[16.980088,52.394563],"type":"Point"},"properties":{"osm_id":"7096550851","tag":{"amenity":"waste_basket"}},"type":"Feature"},
	{"geometry":{"coordinates":[16.979682,52.394055],"type":"Point"},"properties":{"osm_id":"7096550853","tag":{"amenity":"waste_basket"}},"type":"Feature"},
	{"geometry":{"coordinates":[16.980048,52.394268],"type":"Point"},"properties":{"osm_id":"7096550855","tag":{"amenity":"waste_basket"}},"type":"Feature"},
	{"geometry":{"coordinates":[16.979794,52.393752],"type":"Point"},"properties":{"osm_id":"7096550863","tag":{"amenity":"waste_basket"}},"type":"Feature"},
	{"geometry":{"coordinates":[16.983635,52.399656],"type":"Point"},"properties":{"osm_id":"7099389041","tag":{"amenity":"waste_basket"}},"type":"Feature"},
	{"geometry":{"coordinates":[16.983538,52.39966],"type":"Point"},"properties":{"osm_id":"7099389042","tag":{"amenity":"waste_basket"}},"type":"Feature"},
	{"geometry":{"coordinates":[16.972048,52.390067],"type":"Point"},"properties":{"osm_id":"7106672551","tag":{"access":"private","amenity":"waste_disposal"}},"type":"Feature"},
	{"geometry":{"coordinates":[16.971246,52.388324],"type":"Point"},"properties":{"osm_id":"7106716289","tag":{"amenity":"recycling"}},"type":"Feature"},
	{"geometry":{"coordinates":[16.978467,52.386437],"type":"Point"},"properties":{"osm_id":"7106743897","tag":{"amenity":"waste_basket"}},"type":"Feature"},
	{"geometry":{"coordinates":[16.978784,52.386811],"type":"Point"},"properties":{"osm_id":"7106743943","tag":{"amenity":"waste_basket"}},"type":"Feature"},
	{"geometry":{"coordinates":[16.980472,52.387405],"type":"Point"},"properties":{"osm_id":"7106771379","tag":{"amenity":"waste_basket"}},"type":"Feature"},
	{"geometry":{"coordinates":[16.980826,52.387766],"type":"Point"},"properties":{"osm_id":"7106771380","tag":{"amenity":"waste_basket"}},"type":"Feature"},
	{"geometry":{"coordinates":[16.979495,52.386966],"type":"Point"},"properties":{"osm_id":"7106793286","tag":{"amenity":"waste_basket"}},"type":"Feature"},
	{"geometry":{"coordinates":[16.979035,52.387143],"type":"Point"},"properties":{"osm_id":"7106793293","tag":{"amenity":"waste_basket"}},"type":"Feature"},
	{"geometry":{"coordinates":[16.97932,52.387028],"type":"Point"},"properties":{"osm_id":"7106793294","tag":{"amenity":"waste_basket"}},"type":"Feature"},
	{"geometry":{"coordinates":[16.979597,52.386688],"type":"Point"},"properties":{"osm_id":"7106793303","tag":{"amenity":"waste_basket"}},"type":"Feature"},
	{"geometry":{"coordinates":[16.978992,52.386108],"type":"Point"},"properties":{"osm_id":"7106793320","tag":{"amenity":"waste_basket"}},"type":"Feature"},
	{"geometry":{"coordinates":[16.978704,52.386256],"type":"Point"},"properties":{"osm_id":"7106793325","tag":{"amenity":"waste_basket"}},"type":"Feature"},
	{"geometry":{"coordinates":[16.978646,52.386265],"type":"Point"},"properties":{"osm_id":"7106793326","tag":{"amenity":"waste_basket"}},"type":"Feature"},
	{"geometry":{"coordinates":[16.976816,52.387621],"type":"Point"},"properties":{"osm_id":"7108099546","tag":{"amenity":"waste_basket"}},"type":"Feature"},
	{"geometry":{"coordinates":[16.980771,52.382774],"type":"Point"},"properties":{"osm_id":"7108099549","tag":{"amenity":"waste_basket"}},"type":"Feature"},
	{"geometry":{"coordinates":[16.980738,52.383879],"type":"Point"},"properties":{"osm_id":"7108099558","tag":{"amenity":"waste_basket"}},"type":"Feature"},
	{"geometry":{"coordinates":[16.980916,52.383494],"type":"Point"},"properties":{"osm_id":"7108099577","tag":{"amenity":"waste_basket"}},"type":"Feature"},
	{"geometry":{"coordinates":[16.980576,52.383684],"type":"Point"},"properties":{"osm_id":"7108099580","tag":{"amenity":"waste_basket"}},"type":"Feature"},
	{"geometry":{"coordinates":[16.980397,52.383288],"type":"Point"},"properties":{"osm_id":"7108099582","tag":{"amenity":"waste_basket"}},"type":"Feature"},
	{"geometry":{"coordinates":[16.984163,52.392979],"type":"Point"},"properties":{"osm_id":"7125104825","tag":{"access":"private","entrance":"main"}},"type":"Feature"},
	{"geometry":{"coordinates":[16.984231,52.393032],"type":"Point"},"properties":{"osm_id":"7125104826","tag":{"access":"private","amenity":"recycling","recycling:green_waste":"yes","recycling_type":"container"}},"type":"Feature"},
	{"geometry":{"coordinates":[16.984219,52.393026],"type":"Point"},"properties":{"osm_id":"7125104827","tag":{"access":"private","amenity":"recycling","recycling:glass_bottles":"yes","recycling_type":"container"}},"type":"Feature"},
	{"geometry":{"coordinates":[16.984192,52.393015],"type":"Point"},"properties":{"osm_id":"7125104828","tag":{"access":"private","amenity":"recycling","recycling:paper":"yes","recycling_type":"container"}},"type":"Feature"},
	{"geometry":{"coordinates":[16.984205,52.393021],"type":"Point"},"properties":{"osm_id":"7125104829","tag":{"access":"private","amenity":"recycling","recycling:metal":"yes","recycling_type":"container"}},"type":"Feature"},
	{"geometry":{"coordinates":[16.979389,52.390533],"type":"Point"},"properties":{"osm_id":"7201693910","tag":{"amenity":"waste_basket"}},"type":"Feature"},
	{"geometry":{"coordinates":[16.979332,52.390639],"type":"Point"},"properties":{"osm_id":"7201693911","tag":{"amenity":"waste_basket"}},"type":"Feature"},
	{"geometry":{"coordinates":[16.98613,52.390872],"type":"Point"},"properties":{"osm_id":"7365836897","tag":{"access":"private","amenity":"recycling","recycling_type":"container"}},"type":"Feature"},
	{"geometry":{"coordinates":[16.976006,52.388729],"type":"Point"},"properties":{"osm_id":"7574566936","tag":{"amenity":"waste_basket"}},"type":"Feature"},
	{"geometry":{"coordinates":[16.97578,52.388556],"type":"Point"},"properties":{"osm_id":"7574566942","tag":{"amenity":"waste_basket"}},"type":"Feature"},
	{"geometry":{"coordinates":[16.9761,52.388571],"type":"Point"},"properties":{"osm_id":"7574566943","tag":{"amenity":"waste_basket"}},"type":"Feature"},
	{"geometry":{"coordinates":[16.976062,52.388317],"type":"Point"},"properties":{"osm_id":"7574566949","tag":{"amenity":"waste_basket"}},"type":"Feature"},
	{"geometry":{"coordinates":[16.975733,52.388386],"type":"Point"},"properties":{"osm_id":"7574566950","tag":{"amenity":"waste_basket"}},"type":"Feature"},
	{"geometry":{"coordinates":[16.975271,52.389083],"type":"Point"},"properties":{"osm_id":"7574566952","tag":{"amenity":"waste_basket"}},"type":"Feature"},
	{"geometry":{"coordinates":[16.97521,52.389693],"type":"Point"},"properties":{"osm_id":"7574566954","tag":{"amenity":"waste_basket"}},"type":"Feature"},
	{"geometry":{"coordinates":[16.975143,52.389796],"type":"Point"},"properties":{"osm_id":"7574566955","tag":{"amenity":"waste_basket"}},"type":"Feature"},
	{"geometry":{"coordinates":[16.979066,52.400003],"type":"Point"},"properties":{"osm_id":"7574566966","tag":{"amenity":"waste_basket"}},"type":"Feature"},
	{"geometry":{"coordinates":[16.978425,52.39997],"type":"Point"},"properties":{"osm_id":"7574566967","tag":{"amenity":"waste_basket"}},"type":"Feature"},
	{"geometry":{"coordinates":[16.978478,52.399916],"type":"Point"},"properties":{"osm_id":"7574566968","tag":{"amenity":"waste_basket"}},"type":"Feature"},
	{"geometry":{"coordinates":[16.978313,52.399883],"type":"Point"},"properties":{"osm_id":"7574566969","tag":{"amenity":"waste_basket"}},"type":"Feature"},
	{"geometry":{"coordinates":[16.978129,52.399845],"type":"Point"},"properties":{"osm_id":"7574566970","tag":{"amenity":"waste_basket"}},"type":"Feature"},
	{"geometry":{"coordinates":[16.977772,52.399772],"type":"Point"},"properties":{"osm_id":"7574566971","tag":{"amenity":"waste_basket"}},"type":"Feature"},
	{"geometry":{"coordinates":[16.976702,52.399637],"type":"Point"},"properties":{"osm_id":"7574566972","tag":{"amenity":"waste_basket"}},"type":"Feature"},
	{"geometry":{"coordinates":[16.973268,52.39581],"type":"Point"},"properties":{"osm_id":"7574566978","tag":{"amenity":"waste_basket"}},"type":"Feature"},
	{"geometry":{"coordinates":[16.974433,52.398517],"type":"Point"},"properties":{"osm_id":"7574566979","tag":{"amenity":"waste_basket"}},"type":"Feature"},
	{"geometry":{"coordinates":[16.974892,52.39866],"type":"Point"},"properties":{"osm_id":"7574566981","tag":{"amenity":"waste_basket"}},"type":"Feature"},
	{"geometry":{"coordinates":[16.975228,52.398852],"type":"Point"},"properties":{"osm_id":"7574592485","tag":{"amenity":"waste_basket"}},"type":"Feature"},
	{"geometry":{"coordinates":[16.975649,52.399007],"type":"Point"},"properties":{"osm_id":"7574592487","tag":{"amenity":"waste_basket"}},"type":"Feature"},
	{"geometry":{"coordinates":[16.989269,52.400818],"type":"Point"},"properties":{"osm_id":"7574592497","tag":{"amenity":"waste_basket"}},"type":"Feature"},
	{"geometry":{"coordinates":[16.989609,52.400936],"type":"Point"},"properties":{"osm_id":"7574592498","tag":{"amenity":"waste_basket"}},"type":"Feature"},
	{"geometry":{"coordinates":[16.989413,52.400966],"type":"Point"},"properties":{"osm_id":"7574592499","tag":{"amenity":"waste_basket"}},"type":"Feature"},
	{"geometry":{"coordinates":[16.992241,52.393244],"type":"Point"},"properties":{"osm_id":"7599398581","tag":{"access":"private","amenity":"recycling","recycling_type":"container"}},"type":"Feature"},
	{"geometry":{"coordinates":[16.975553,52.399755],"type":"Point"},"properties":{"osm_id":"7603559710","tag":{"amenity":"waste_basket"}},"type":"Feature"},
	{"geometry":{"coordinates":[16.973379,52.400119],"type":"Point"},"properties":{"osm_id":"7603559718","tag":{"amenity":"waste_basket"}},"type":"Feature"},
	{"geometry":{"coordinates":[16.972052,52.400349],"type":"Point"},"properties":{"osm_id":"7603559726","tag":{"amenity":"waste_basket"}},"type":"Feature"},
	{"geometry":{"coordinates":[16.970633,52.400646],"type":"Point"},"properties":{"osm_id":"7603559728","tag":{"amenity":"waste_basket"}},"type":"Feature"},
	{"geometry":{"coordinates":[16.969291,52.400991],"type":"Point"},"properties":{"osm_id":"7603559731","tag":{"amenity":"waste_basket"}},"type":"Feature"},
	{"geometry":{"coordinates":[16.968052,52.401318],"type":"Point"},"properties":{"osm_id":"7603559732","tag":{"amenity":"waste_basket"}},"type":"Feature"},
	{"geometry":{"coordinates":[16.966581,52.401702],"type":"Point"},"properties":{"osm_id":"7603559734","tag":{"amenity":"waste_basket"}},"type":"Feature"},
	{"geometry":{"coordinates":[16.965215,52.402062],"type":"Point"},"properties":{"osm_id":"7603559735","tag":{"amenity":"waste_basket"}},"type":"Feature"},
	{"geometry":{"coordinates":[16.963376,52.402534],"type":"Point"},"properties":{"osm_id":"7603559736","tag":{"amenity":"waste_basket"}},"type":"Feature"},
	{"geometry":{"coordinates":[16.963042,52.402613],"type":"Point"},"properties":{"osm_id":"7603559737","tag":{"amenity":"waste_basket"}},"type":"Feature"},
	{"geometry":{"coordinates":[16.986387,52.399885],"type":"Point"},"properties":{"osm_id":"7603610603","tag":{"amenity":"waste_basket"}},"type":"Feature"},
	{"geometry":{"coordinates":[16.982584,52.400007],"type":"Point"},"properties":{"osm_id":"7603610637","tag":{"amenity":"waste_basket"}},"type":"Feature"},
	{"geometry":{"coordinates":[16.982419,52.399933],"type":"Point"},"properties":{"osm_id":"7603610638","tag":{"amenity":"waste_basket"}},"type":"Feature"},
	{"geometry":{"coordinates":[16.98214,52.396489],"type":"Point"},"properties":{"osm_id":"7603610650","tag":{"amenity":"waste_basket"}},"type":"Feature"},
	{"geometry":{"coordinates":[16.980917,52.392784],"type":"Point"},"properties":{"osm_id":"7603610651","tag":{"amenity":"waste_basket"}},"type":"Feature"},
	{"geometry":{"coordinates":[16.981259,52.392439],"type":"Point"},"properties":{"osm_id":"7603610652","tag":{"amenity":"waste_basket"}},"type":"Feature"},
	{"geometry":{"coordinates":[16.983908,52.392073],"type":"Point"},"properties":{"osm_id":"7603610654","tag":{"amenity":"waste_basket"}},"type":"Feature"},
	{"geometry":{"coordinates":[16.9879,52.390396],"type":"Point"},"properties":{"osm_id":"7603610656","tag":{"amenity":"waste_basket"}},"type":"Feature"},
	{"geometry":{"coordinates":[16.98763,52.389389],"type":"Point"},"properties":{"osm_id":"7603610657","tag":{"amenity":"waste_basket"}},"type":"Feature"},
	{"geometry":{"coordinates":[16.987681,52.389708],"type":"Point"},"properties":{"osm_id":"7603610659","tag":{"amenity":"waste_basket"}},"type":"Feature"},
	{"geometry":{"coordinates":[16.987493,52.390258],"type":"Point"},"properties":{"osm_id":"7603610661","tag":{"amenity":"waste_basket"}},"type":"Feature"},
	{"geometry":{"coordinates":[16.987376,52.390289],"type":"Point"},"properties":{"osm_id":"7603610662","tag":{"amenity":"waste_basket"}},"type":"Feature"},
	{"geometry":{"coordinates":[16.987086,52.390219],"type":"Point"},"properties":{"osm_id":"7603610665","tag":{"amenity":"waste_basket"}},"type":"Feature"},
	{"geometry":{"coordinates":[16.987601,52.388923],"type":"Point"},"properties":{"osm_id":"7603610676","tag":{"amenity":"waste_basket"}},"type":"Feature"},
	{"geometry":{"coordinates":[16.987536,52.388442],"type":"Point"},"properties":{"osm_id":"7603610677","tag":{"amenity":"waste_basket"}},"type":"Feature"},
	{"geometry":{"coordinates":[17.003319,52.395837],"type":"Point"},"properties":{"osm_id":"7606549520","tag":{"amenity":"waste_basket"}},"type":"Feature"},
	{"geometry":{"coordinates":[17.007727,52.395508],"type":"Point"},"properties":{"osm_id":"7606549521","tag":{"amenity":"waste_basket"}},"type":"Feature"},
	{"geometry":{"coordinates":[17.010993,52.394859],"type":"Point"},"properties":{"osm_id":"7606549522","tag":{"amenity":"waste_basket"}},"type":"Feature"},
	{"geometry":{"coordinates":[17.012029,52.39475],"type":"Point"},"properties":{"osm_id":"7606549523","tag":{"amenity":"waste_basket"}},"type":"Feature"},
	{"geometry":{"coordinates":[17.014109,52.395158],"type":"Point"},"properties":{"osm_id":"7606549524","tag":{"amenity":"waste_basket"}},"type":"Feature"},
	{"geometry":{"coordinates":[17.007647,52.393176],"type":"Point"},"properties":{"osm_id":"7606549529","tag":{"amenity":"waste_basket"}},"type":"Feature"},
	{"geometry":{"coordinates":[17.006706,52.392964],"type":"Point"},"properties":{"osm_id":"7606549532","tag":{"amenity":"waste_basket"}},"type":"Feature"},
	{"geometry":{"coordinates":[17.006071,52.393046],"type":"Point"},"properties":{"osm_id":"7606549534","tag":{"amenity":"waste_basket"}},"type":"Feature"},
	{"geometry":{"coordinates":[17.005561,52.393428],"type":"Point"},"properties":{"osm_id":"7606549536","tag":{"amenity":"waste_basket"}},"type":"Feature"},
	{"geometry":{"coordinates":[17.003537,52.394145],"type":"Point"},"properties":{"osm_id":"7606549538","tag":{"amenity":"waste_basket"}},"type":"Feature"},
	{"geometry":{"coordinates":[17.00461,52.393951],"type":"Point"},"properties":{"osm_id":"7606549540","tag":{"amenity":"waste_basket"}},"type":"Feature"},
	{"geometry":{"coordinates":[16.990534,52.395492],"type":"Point"},"properties":{"osm_id":"7606549542","tag":{"amenity":"waste_basket"}},"type":"Feature"},
	{"geometry":{"coordinates":[16.994425,52.402763],"type":"Point"},"properties":{"osm_id":"7606549543","tag":{"amenity":"waste_basket"}},"type":"Feature"},
	{"geometry":{"coordinates":[16.989105,52.402735],"type":"Point"},"properties":{"osm_id":"7606549562","tag":{"amenity":"waste_basket"}},"type":"Feature"},
	{"geometry":{"coordinates":[16.989246,52.402691],"type":"Point"},"properties":{"osm_id":"7606549563","tag":{"amenity":"waste_basket"}},"type":"Feature"},
	{"geometry":{"coordinates":[16.989567,52.402858],"type":"Point"},"properties":{"osm_id":"7606549564","tag":{"amenity":"waste_basket"}},"type":"Feature"},
	{"geometry":{"coordinates":[16.988831,52.402093],"type":"Point"},"properties":{"osm_id":"7606549578","tag":{"amenity":"waste_basket"}},"type":"Feature"},
	{"geometry":{"coordinates":[16.9888,52.401738],"type":"Point"},"properties":{"osm_id":"7606549583","tag":{"amenity":"waste_basket"}},"type":"Feature"},
	{"geometry":{"coordinates":[16.988863,52.402],"type":"Point"},"properties":{"osm_id":"7606549584","tag":{"amenity":"waste_basket"}},"type":"Feature"},
	{"geometry":{"coordinates":[16.988642,52.401271],"type":"Point"},"properties":{"osm_id":"7606589787","tag":{"amenity":"waste_basket"}},"type":"Feature"},
	{"geometry":{"coordinates":[16.988557,52.401021],"type":"Point"},"properties":{"osm_id":"7606589789","tag":{"amenity":"waste_basket"}},"type":"Feature"},
	{"geometry":{"coordinates":[16.988535,52.400326],"type":"Point"},"properties":{"osm_id":"7606589791","tag":{"amenity":"waste_basket"}},"type":"Feature"},
	{"geometry":{"coordinates":[16.98845,52.400676],"type":"Point"},"properties":{"osm_id":"7606589792","tag":{"amenity":"waste_basket"}},"type":"Feature"},
	{"geometry":{"coordinates":[16.985024,52.39996],"type":"Point"},"properties":{"osm_id":"7606589793","tag":{"amenity":"waste_basket"}},"type":"Feature"},
	{"geometry":{"coordinates":[16.983366,52.399874],"type":"Point"},"properties":{"osm_id":"7606589803","tag":{"amenity":"waste_basket"}},"type":"Feature"},
	{"geometry":{"coordinates":[16.983248,52.396947],"type":"Point"},"properties":{"osm_id":"7606589806","tag":{"amenity":"waste_basket"}},"type":"Feature"},
	{"geometry":{"coordinates":[16.963627,52.390801],"type":"Point"},"properties":{"osm_id":"7633186895","tag":{"amenity":"waste_basket"}},"type":"Feature"},
	{"geometry":{"coordinates":[16.964283,52.390384],"type":"Point"},"properties":{"osm_id":"7633186897","tag":{"amenity":"waste_basket"}},"type":"Feature"},
	{"geometry":{"coordinates":[16.96725,52.390451],"type":"Point"},"properties":{"osm_id":"7633186898","tag":{"amenity":"waste_basket"}},"type":"Feature"},
	{"geometry":{"coordinates":[16.971218,52.387115],"type":"Point"},"properties":{"osm_id":"7633186899","tag":{"amenity":"waste_basket"}},"type":"Feature"},
	{"geometry":{"coordinates":[16.972636,52.386613],"type":"Point"},"properties":{"osm_id":"7633186900","tag":{"amenity":"waste_basket"}},"type":"Feature"},
	{"geometry":{"coordinates":[16.972149,52.386602],"type":"Point"},"properties":{"osm_id":"7633186905","tag":{"amenity":"waste_basket"}},"type":"Feature"},
	{"geometry":{"coordinates":[16.967729,52.390036],"type":"Point"},"properties":{"osm_id":"7633186906","tag":{"amenity":"waste_basket"}},"type":"Feature"},
	{"geometry":{"coordinates":[16.967116,52.389932],"type":"Point"},"properties":{"osm_id":"7633186907","tag":{"amenity":"waste_basket"}},"type":"Feature"},
	{"geometry":{"coordinates":[16.963497,52.425718],"type":"Point"},"properties":{"osm_id":"7644070902","tag":{"amenity":"waste_basket"}},"type":"Feature"},
	{"geometry":{"coordinates":[16.965654,52.426927],"type":"Point"},"properties":{"osm_id":"7644070913","tag":{"amenity":"waste_basket"}},"type":"Feature"},
	{"geometry":{"coordinates":[16.965677,52.427312],"type":"Point"},"properties":{"osm_id":"7644070914","tag":{"amenity":"waste_basket"}},"type":"Feature"},
	{"geometry":{"coordinates":[16.99672,52.389548],"type":"Point"},"properties":{"osm_id":"7750198635","tag":{"amenity":"waste_basket"}},"type":"Feature"},
	{"geometry":{"coordinates":[16.997103,52.389166],"type":"Point"},"properties":{"osm_id":"7750198647","tag":{"amenity":"waste_basket"}},"type":"Feature"},
	{"geometry":{"coordinates":[16.99719,52.389114],"type":"Point"},"properties":{"osm_id":"7750198648","tag":{"amenity":"waste_basket"}},"type":"Feature"},
	{"geometry":{"coordinates":[16.997224,52.389],"type":"Point"},"properties":{"osm_id":"7750198649","tag":{"amenity":"waste_basket"}},"type":"Feature"},
	{"geometry":{"coordinates":[16.993894,52.389273],"type":"Point"},"properties":{"osm_id":"7750219987","tag":{"amenity":"waste_basket"}},"type":"Feature"},
	{"geometry":{"coordinates":[16.994452,52.390188],"type":"Point"},"properties":{"osm_id":"7750220007","tag":{"amenity":"waste_basket"}},"type":"Feature"},
	{"geometry":{"coordinates":[16.993522,52.390462],"type":"Point"},"properties":{"osm_id":"7750220011","tag":{"amenity":"waste_basket"}},"type":"Feature"},
	{"geometry":{"coordinates":[16.99387,52.390387],"type":"Point"},"properties":{"osm_id":"7750220012","tag":{"amenity":"waste_basket"}},"type":"Feature"},
	{"geometry":{"coordinates":[16.994096,52.390335],"type":"Point"},"properties":{"osm_id":"7750220013","tag":{"amenity":"waste_basket"}},"type":"Feature"},
	{"geometry":{"coordinates":[16.99645,52.390455],"type":"Point"},"properties":{"osm_id":"7752634443","tag":{"amenity":"waste_disposal"}},"type":"Feature"},
	{"geometry":{"coordinates":[16.994523,52.389807],"type":"Point"},"properties":{"osm_id":"7757565636","tag":{"amenity":"waste_basket"}},"type":"Feature"},
	{"geometry":{"coordinates":[16.994581,52.389897],"type":"Point"},"properties":{"osm_id":"7757565637","tag":{"amenity":"waste_basket"}},"type":"Feature"},
	{"geometry":{"coordinates":[16.994748,52.390105],"type":"Point"},"properties":{"osm_id":"7757565639","tag":{"amenity":"waste_basket"}},"type":"Feature"},
	{"geometry":{"coordinates":[16.995638,52.389693],"type":"Point"},"properties":{"osm_id":"7757565640","tag":{"amenity":"waste_basket"}},"type":"Feature"},
	{"geometry":{"coordinates":[16.998555,52.391659],"type":"Point"},"properties":{"osm_id":"7757565657","tag":{"amenity":"waste_basket"}},"type":"Feature"},
	{"geometry":{"coordinates":[16.998417,52.391694],"type":"Point"},"properties":{"osm_id":"7757565658","tag":{"amenity":"waste_basket"}},"type":"Feature"},
	{"geometry":{"coordinates":[16.997324,52.390509],"type":"Point"},"properties":{"osm_id":"7757576562","tag":{"amenity":"waste_disposal"}},"type":"Feature"},
	{"geometry":{"coordinates":[16.984922,52.410922],"type":"Point"},"properties":{"osm_id":"7839619256","tag":{"amenity":"waste_basket"}},"type":"Feature"},
	{"geometry":{"coordinates":[16.984832,52.411218],"type":"Point"},"properties":{"osm_id":"7839619283","tag":{"amenity":"waste_basket"}},"type":"Feature"},
	{"geometry":{"coordinates":[17.018694,52.410271],"type":"Point"},"properties":{"osm_id":"7840161018","tag":{"amenity":"waste_basket","material":"concrete","waste":"trash"}},"type":"Feature"},
	{"geometry":{"coordinates":[17.019565,52.409771],"type":"Point"},"properties":{"osm_id":"7840161019","tag":{"amenity":"waste_basket","material":"concrete","waste":"trash"}},"type":"Feature"},
	{"geometry":{"coordinates":[17.024279,52.396432],"type":"Point"},"properties":{"osm_id":"7846815476","tag":{"amenity":"waste_basket"}},"type":"Feature"},
	{"geometry":{"coordinates":[17.024097,52.39643],"type":"Point"},"properties":{"osm_id":"7846815477","tag":{"amenity":"waste_basket"}},"type":"Feature"},
	{"geometry":{"coordinates":[17.016884,52.394256],"type":"Point"},"properties":{"osm_id":"7846815493","tag":{"amenity":"waste_basket"}},"type":"Feature"},
	{"geometry":{"coordinates":[17.016921,52.394064],"type":"Point"},"properties":{"osm_id":"7846815494","tag":{"amenity":"waste_basket"}},"type":"Feature"},
	{"geometry":{"coordinates":[17.017104,52.393604],"type":"Point"},"properties":{"osm_id":"7846815495","tag":{"amenity":"waste_basket"}},"type":"Feature"},
	{"geometry":{"coordinates":[17.016995,52.393669],"type":"Point"},"properties":{"osm_id":"7846815496","tag":{"amenity":"waste_basket"}},"type":"Feature"},
	{"geometry":{"coordinates":[17.016968,52.393812],"type":"Point"},"properties":{"osm_id":"7846815497","tag":{"amenity":"waste_basket"}},"type":"Feature"},
	{"geometry":{"coordinates":[17.018427,52.395372],"type":"Point"},"properties":{"osm_id":"7846815505","tag":{"amenity":"waste_basket"}},"type":"Feature"},
	{"geometry":{"coordinates":[17.018672,52.395409],"type":"Point"},"properties":{"osm_id":"7846815506","tag":{"amenity":"waste_basket"}},"type":"Feature"},
	{"geometry":{"coordinates":[17.001405,52.392576],"type":"Point"},"properties":{"osm_id":"7857270267","tag":{"amenity":"waste_basket"}},"type":"Feature"},
	{"geometry":{"coordinates":[17.02038,52.403135],"type":"Point"},"properties":{"osm_id":"7858351738","tag":{"amenity":"waste_basket"}},"type":"Feature"},
	{"geometry":{"coordinates":[17.02005,52.403071],"type":"Point"},"properties":{"osm_id":"7858351739","tag":{"amenity":"waste_basket"}},"type":"Feature"},
	{"geometry":{"coordinates":[17.023215,52.405562],"type":"Point"},"properties":{"osm_id":"7858351744","tag":{"amenity":"waste_basket"}},"type":"Feature"},
	{"geometry":{"coordinates":[17.0249,52.404928],"type":"Point"},"properties":{"osm_id":"7859232712","tag":{"amenity":"waste_basket"}},"type":"Feature"},
	{"geometry":{"coordinates":[17.021605,52.400932],"type":"Point"},"properties":{"osm_id":"7859232896","tag":{"amenity":"waste_basket"}},"type":"Feature"},
	{"geometry":{"coordinates":[17.023803,52.402598],"type":"Point"},"properties":{"osm_id":"7859232999","tag":{"amenity":"waste_basket"}},"type":"Feature"},
	{"geometry":{"coordinates":[17.024509,52.403938],"type":"Point"},"properties":{"osm_id":"7859233000","tag":{"amenity":"waste_basket"}},"type":"Feature"},
	{"geometry":{"coordinates":[17.022952,52.397735],"type":"Point"},"properties":{"osm_id":"7859382211","tag":{"amenity":"waste_basket"}},"type":"Feature"},
	{"geometry":{"coordinates":[17.016046,52.395184],"type":"Point"},"properties":{"osm_id":"7860423169","tag":{"amenity":"waste_basket"}},"type":"Feature"},
	{"geometry":{"coordinates":[17.02271,52.396844],"type":"Point"},"properties":{"osm_id":"7860423171","tag":{"amenity":"waste_basket"}},"type":"Feature"},
	{"geometry":{"coordinates":[17.022524,52.39673],"type":"Point"},"properties":{"osm_id":"7860423172","tag":{"amenity":"waste_basket"}},"type":"Feature"},
	{"geometry":{"coordinates":[17.019728,52.400598],"type":"Point"},"properties":{"osm_id":"7860490844","tag":{"amenity":"waste_basket"}},"type":"Feature"},
	{"geometry":{"coordinates":[17.009487,52.392529],"type":"Point"},"properties":{"osm_id":"7861291184","tag":{"amenity":"waste_basket"}},"type":"Feature"},
	{"geometry":{"coordinates":[17.0098,52.392228],"type":"Point"},"properties":{"osm_id":"7861324087","tag":{"amenity":"waste_basket"}},"type":"Feature"}
]
}
