{
"type": "FeatureCollection",
"features": [
	{"geometry":{"coordinates":[17.000547,51.113367],"type":"Point"},"properties":{"osm_id":"1392021565","tag":{"amenity":"recycling","recycling:glass_bottles":"yes","recycling_type":"container"}},"type":"Feature"},
	{"geometry":{"coordinates":[16.996036,51.075011],"type":"Point"},"properties":{"osm_id":"1751763648","tag":{"amenity":"recycling"}},"type":"Feature"},
	{"geometry":{"coordinates":[16.998023,51.123146],"type":"Point"},"properties":{"osm_id":"1822751636","tag":{"amenity":"recycling","location":"overground","recycling_type":"container"}},"type":"Feature"},
	{"geometry":{"coordinates":[16.997969,51.123185],"type":"Point"},"properties":{"osm_id":"1822751639","tag":{"amenity":"waste_disposal"}},"type":"Feature"},
	{"geometry":{"coordinates":[16.99755,51.12344],"type":"Point"},"properties":{"osm_id":"1822751650","tag":{"amenity":"waste_basket"}},"type":"Feature"},
	{"geometry":{"coordinates":[16.996935,51.123559],"type":"Point"},"properties":{"osm_id":"1984033865","tag":{"amenity":"waste_basket"}},"type":"Feature"},
	{"geometry":{"coordinates":[16.995292,51.122758],"type":"Point"},"properties":{"osm_id":"2591526444","tag":{"amenity":"waste_basket"}},"type":"Feature"},
	{"geometry":{"coordinates":[17.023456,51.092105],"type":"Point"},"properties":{"osm_id":"2814742498","tag":{"amenity":"recycling","recycling_type":"container"}},"type":"Feature"},
	{"geometry":{"coordinates":[17.002229,51.093879],"type":"Point"},"properties":{"osm_id":"2826693020","tag":{"amenity":"recycling","recycling:paper":"yes","recycling:plastic":"yes","waste":"paper;plastic"}},"type":"Feature"},
	{"geometry":{"coordinates":[17.02041,51.089834],"type":"Point"},"properties":{"osm_id":"2880981410","tag":{"amenity":"recycling","recycling:cartons":"yes","recycling:glass":"yes","recycling:paper":"yes","recycling:plastic":"yes","recycling:scrap_metal":"yes","recycling_type":"container"}},"type":"Feature"},
	{"geometry":{"coordinates":[17.021945,51.091243],"type":"Point"},"properties":{"osm_id":"2881275983","tag":{"amenity":"waste_disposal"}},"type":"Feature"},
	{"geometry":{"coordinates":[17.022714,51.088428],"type":"Point"},"properties":{"osm_id":"2887831903","tag":{"amenity":"recycling","recycling:cartons":"yes","recycling:paper":"yes","recycling:plastic":"yes","recycling:scrap_metal":"yes","recycling_type":"container"}},"type":"Feature"},
	{"geometry":{"coordinates":[17.020935,51.080055],"type":"Point"},"properties":{"osm_id":"2892018548","tag":{"amenity":"waste_basket"}},"type":"Feature"},
	{"geometry":{"coordinates":[17.0275,51.088706],"type":"Point"},"properties":{"osm_id":"2892018557","tag":{"amenity":"recycling","recycling:cartons":"yes","recycling:paper":"yes","recycling:plastic":"yes","recycling:scrap_metal":"yes","recycling_type":"container"}},"type":"Feature"},
	{"geometry":{"coordinates":[17.045601,51.078199],"type":"Point"},"properties":{"osm_id":"2921083067","tag":{"amenity":"waste_disposal"}},"type":"Feature"},
	{"geometry":{"coordinates":[17.001705,51.11415],"type":"Point"},"properties":{"osm_id":"3051426008","tag":{"amenity":"recycling","location":"overground","recycling_type":"container"}},"type":"Feature"},
	{"geometry":{"coordinates":[17.00497,51.092109],"type":"Point"},"properties":{"osm_id":"3120958667","tag":{"amenity":"recycling","recycling:glass":"yes","waste":"glass"}},"type":"Feature"},
	{"geometry":{"coordinates":[17.002421,51.094082],"type":"Point"},"properties":{"osm_id":"3120969670","tag":{"amenity":"recycling","opening_hours":"Mo-Fr 08:00-16:00","recycling:electrical_items":"yes","recycling:metal":"yes","recycling:paper":"yes"}},"type":"Feature"},
	{"geometry":{"coordinates":[16.993503,51.098816],"type":"Point"},"properties":{"osm_id":"3120972029","tag":{"amenity":"recycling","recycling:metal":"yes"}},"type":"Feature"},
	{"geometry":{"coordinates":[17.040399,51.115234],"type":"Point"},"properties":{"osm_id":"3224667097","tag":{"amenity":"waste_disposal"}},"type":"Feature"},
	{"geometry":{"coordinates":[16.992531,51.096205],"type":"Point"},"properties":{"osm_id":"3444576648","tag":{"amenity":"waste_disposal"}},"type":"Feature"},
	{"geometry":{"coordinates":[16.993663,51.095205],"type":"Point"},"properties":{"osm_id":"3521283348","tag":{"amenity":"waste_disposal"}},"type":"Feature"},
	{"geometry":{"coordinates":[16.994499,51.095888],"type":"Point"},"properties":{"osm_id":"3521283356","tag":{"amenity":"waste_disposal"}},"type":"Feature"},
	{"geometry":{"coordinates":[17.042783,51.117448],"type":"Point"},"properties":{"osm_id":"3551669741","tag":{"amenity":"waste_disposal"}},"type":"Feature"},
	{"geometry":{"coordinates":[17.043673,51.11679],"type":"Point"},"properties":{"osm_id":"3551718154","tag":{"amenity":"waste_disposal"}},"type":"Feature"},
	{"geometry":{"coordinates":[17.008295,51.100994],"type":"Point"},"properties":{"osm_id":"3557752389","tag":{"amenity":"waste_basket"}},"type":"Feature"},
	{"geometry":{"coordinates":[17.034067,51.076498],"type":"Point"},"properties":{"osm_id":"3634611393","tag":{"amenity":"waste_disposal"}},"type":"Feature"},
	{"geometry":{"coordinates":[17.041125,51.122189],"type":"Point"},"properties":{"osm_id":"3651037365","tag":{"amenity":"waste_disposal"}},"type":"Feature"},
	{"geometry":{"coordinates":[17.041649,51.122539],"type":"Point"},"properties":{"osm_id":"3651199577","tag":{"amenity":"waste_disposal"}},"type":"Feature"},
	{"geometry":{"coordinates":[17.000131,51.093781],"type":"Point"},"properties":{"osm_id":"3669023405","tag":{"amenity":"recycling","recycling:glass":"yes","waste":"glass"}},"type":"Feature"},
	{"geometry":{"coordinates":[16.998606,51.093372],"type":"Point"},"properties":{"osm_id":"3669187269","tag":{"amenity":"waste_disposal"}},"type":"Feature"},
	{"geometry":{"coordinates":[16.998553,51.093398],"type":"Point"},"properties":{"osm_id":"3669187270","tag":{"amenity":"waste_disposal"}},"type":"Feature"},
	{"geometry":{"coordinates":[17.005992,51.091424],"type":"Point"},"properties":{"osm_id":"3734666918","tag":{"amenity":"waste_basket"}},"type":"Feature"},
	{"geometry":{"coordinates":[17.034346,51.121752],"type":"Point"},"properties":{"osm_id":"3878490575","tag":{"amenity":"recycling","recycling_type":"container"}},"type":"Feature"},
	{"geometry":{"coordinates":[17.037191,51.073009],"type":"Point"},"properties":{"osm_id":"3994987934","tag":{"amenity":"waste_disposal"}},"type":"Feature"},
	{"geometry":{"coordinates":[17.03702,51.072766],"type":"Point"},"properties":{"osm_id":"3994987935","tag":{"amenity":"waste_disposal"}},"type":"Feature"},
	{"geometry":{"coordinates":[17.03702,51.073145],"type":"Point"},"properties":{"osm_id":"3994987936","tag":{"amenity":"recycling","recycling:glass_bottles":"yes","recycling:paper":"yes","recycling:plastic":"yes","recycling_type":"container"}},"type":"Feature"},
	{"geometry":{"coordinates":[17.03698,51.073397],"type":"Point"},"properties":{"osm_id":"3994987937","tag":{"amenity":"waste_disposal"}},"type":"Feature"},
	{"geometry":{"coordinates":[17.035724,51.072973],"type":"Point"},"properties":{"osm_id":"3994987938","tag":{"amenity":"waste_disposal"}},"type":"Feature"},
	{"geometry":{"coordinates":[17.035674,51.072377],"type":"Point"},"properties":{"osm_id":"3994987939","tag":{"amenity":"waste_disposal"}},"type":"Feature"},
	{"geometry":{"coordinates":[17.03447,51.072332],"type":"Point"},"properties":{"osm_id":"3994987940","tag":{"amenity":"waste_disposal"}},"type":"Feature"},
	{"geometry":{"coordinates":[17.034261,51.072538],"type":"Point"},"properties":{"osm_id":"3994987941","tag":{"amenity":"waste_disposal"}},"type":"Feature"},
	{"geometry":{"coordinates":[17.034547,51.072991],"type":"Point"},"properties":{"osm_id":"3994987942","tag":{"amenity":"waste_disposal"}},"type":"Feature"},
	{"geometry":{"coordinates":[17.034399,51.073559],"type":"Point"},"properties":{"osm_id":"3994987943","tag":{"amenity":"waste_disposal"}},"type":"Feature"},
	{"geometry":{"coordinates":[17.034618,51.073662],"type":"Point"},"properties":{"osm_id":"3994987944","tag":{"amenity":"waste_disposal"}},"type":"Feature"},
	{"geometry":{"coordinates":[17.037164,51.072373],"type":"Point"},"properties":{"osm_id":"3994987945","tag":{"amenity":"waste_disposal"}},"type":"Feature"},
	{"geometry":{"coordinates":[17.036994,51.072152],"type":"Point"},"properties":{"osm_id":"3994987946","tag":{"amenity":"waste_disposal"}},"type":"Feature"},
	{"geometry":{"coordinates":[17.036849,51.071811],"type":"Point"},"properties":{"osm_id":"3994987947","tag":{"amenity":"recycling"}},"type":"Feature"},
	{"geometry":{"coordinates":[17.038771,51.072487],"type":"Point"},"properties":{"osm_id":"3995013712","tag":{"amenity":"waste_disposal"}},"type":"Feature"},
	{"geometry":{"coordinates":[17.03873,51.071878],"type":"Point"},"properties":{"osm_id":"3995013713","tag":{"amenity":"waste_disposal"}},"type":"Feature"},
	{"geometry":{"coordinates":[17.046341,51.120241],"type":"Point"},"properties":{"osm_id":"4197757419","tag":{"amenity":"waste_disposal"}},"type":"Feature"},
	{"geometry":{"coordinates":[16.984788,51.124003],"type":"Point"},"properties":{"osm_id":"4232140706","tag":{"amenity":"waste_basket"}},"type":"Feature"},
	{"geometry":{"coordinates":[16.983437,51.124138],"type":"Point"},"properties":{"osm_id":"4232140707","tag":{"amenity":"waste_basket"}},"type":"Feature"},
	{"geometry":{"coordinates":[17.044839,51.101952],"type":"Point"},"properties":{"osm_id":"4240973971","tag":{"amenity":"waste_disposal"}},"type":"Feature"},
	{"geometry":{"coordinates":[17.040769,51.120087],"type":"Point"},"properties":{"osm_id":"4350622454","tag":{"amenity":"waste_disposal"}},"type":"Feature"},
	{"geometry":{"coordinates":[17.042106,51.120443],"type":"Point"},"properties":{"osm_id":"4350622505","tag":{"amenity":"waste_disposal"}},"type":"Feature"},
	{"geometry":{"coordinates":[17.005889,51.090704],"type":"Point"},"properties":{"osm_id":"4351547110","tag":{"amenity":"waste_basket"}},"type":"Feature"},
	{"geometry":{"coordinates":[16.994532,51.075261],"type":"Point"},"properties":{"osm_id":"4386023934","tag":{"amenity":"recycling","recycling:paper":"yes","recycling:plastic":"yes","recycling_type":"container"}},"type":"Feature"},
	{"geometry":{"coordinates":[16.99432,51.075318],"type":"Point"},"properties":{"osm_id":"4386023935","tag":{"amenity":"recycling","recycling:glass_bottles":"yes","recycling_type":"container"}},"type":"Feature"},
	{"geometry":{"coordinates":[16.999302,51.09327],"type":"Point"},"properties":{"osm_id":"4567737496","tag":{"amenity":"waste_disposal"}},"type":"Feature"},
	{"geometry":{"coordinates":[17.038297,51.122117],"type":"Point"},"properties":{"osm_id":"4780113596","tag":{"OBJECTID_height_lidar":"31077","amenity":"waste_disposal","height":"2.55","source:height":"lidar_ALS-2015_UM_W-w_height-max"}},"type":"Feature"},
	{"geometry":{"coordinates":[16.982041,51.093715],"type":"Point"},"properties":{"osm_id":"4912464022","tag":{"amenity":"waste_basket"}},"type":"Feature"},
	{"geometry":{"coordinates":[17.041519,51.092208],"type":"Point"},"properties":{"osm_id":"4921723948","tag":{"amenity":"waste_disposal"}},"type":"Feature"},
	{"geometry":{"coordinates":[17.042671,51.092214],"type":"Point"},"properties":{"osm_id":"4921762488","tag":{"amenity":"recycling","opening_hours":"24/7","recycling:cardboard":"no","recycling:glass":"no","recycling:glass_bottles":"yes","recycling:paper":"no","recycling:plastic":"no","recycling:plastic_bottles":"yes","recycling:plastic_packaging":"no","recycling:waste":"no","recycling_type":"container"}},"type":"Feature"},
	{"geometry":{"coordinates":[17.041624,51.092733],"type":"Point"},"properties":{"osm_id":"4921764371","tag":{"amenity":"recycling","opening_hours":"24/7","recycling:cardboard":"no","recycling:glass":"no","recycling:glass_bottles":"yes","recycling:paper":"no","recycling:plastic":"no","recycling:plastic_bottles":"yes","recycling:plastic_packaging":"no","recycling:waste":"no","recycling_type":"container"}},"type":"Feature"},
	{"geometry":{"coordinates":[17.041617,51.092592],"type":"Point"},"properties":{"osm_id":"4921764372","tag":{"amenity":"recycling","opening_hours":"24/7","recycling:cardboard":"no","recycling:glass":"no","recycling:glass_bottles":"yes","recycling:paper":"no","recycling:plastic":"no","recycling:plastic_bottles":"yes","recycling:plastic_packaging":"no","recycling:waste":"no","recycling_type":"container"}},"type":"Feature"},
	{"geometry":{"coordinates":[17.04161,51.092236],"type":"Point"},"properties":{"osm_id":"4921764373","tag":{"amenity":"recycling","opening_hours":"24/7","recycling:cardboard":"no","recycling:glass":"no","recycling:glass_bottles":"yes","recycling:paper":"no","recycling:plastic":"no","recycling:plastic_bottles":"yes","recycling:plastic_packaging":"no","recycling:waste":"no","recycling_type":"container"}},"type":"Feature"},
	{"geometry":{"coordinates":[17.042694,51.091998],"type":"Point"},"properties":{"osm_id":"4923578270","tag":{"amenity":"recycling","opening_hours":"24/7","recycling:cardboard":"no","recycling:glass":"no","recycling:glass_bottles":"yes","recycling:paper":"no","recycling:plastic":"no","recycling:plastic_bottles":"yes","recycling:plastic_packaging":"no","recycling:waste":"no","recycling_type":"container"}},"type":"Feature"},
	{"geometry":{"coordinates":[17.042724,51.091611],"type":"Point"},"properties":{"osm_id":"4924369313","tag":{"amenity":"recycling","opening_hours":"24/7","recycling:cardboard":"no","recycling:glass":"no","recycling:glass_bottles":"yes","recycling:paper":"no","recycling:plastic":"no","recycling:plastic_bottles":"yes","recycling:plastic_packaging":"no","recycling:waste":"no","recycling_type":"container"}},"type":"Feature"},
	{"geometry":{"coordinates":[16.994474,51.07304],"type":"Point"},"properties":{"osm_id":"5103696791","tag":{"amenity":"waste_basket"}},"type":"Feature"},
	{"geometry":{"coordinates":[16.995783,51.072389],"type":"Point"},"properties":{"osm_id":"5109935315","tag":{"amenity":"waste_basket"}},"type":"Feature"},
	{"geometry":{"coordinates":[17.037817,51.099178],"type":"Point"},"properties":{"osm_id":"5371143449","tag":{"amenity":"waste_basket"}},"type":"Feature"},
	{"geometry":{"coordinates":[17.037631,51.099423],"type":"Point"},"properties":{"osm_id":"5371143452","tag":{"amenity":"waste_basket"}},"type":"Feature"},
	{"geometry":{"coordinates":[17.036211,51.099495],"type":"Point"},"properties":{"osm_id":"5371143456","tag":{"amenity":"waste_basket"}},"type":"Feature"},
	{"geometry":{"coordinates":[17.035782,51.099686],"type":"Point"},"properties":{"osm_id":"5371143458","tag":{"amenity":"waste_basket"}},"type":"Feature"},
	{"geometry":{"coordinates":[17.033942,51.100434],"type":"Point"},"properties":{"osm_id":"5371143479","tag":{"amenity":"waste_basket"}},"type":"Feature"},
	{"geometry":{"coordinates":[17.034418,51.100884],"type":"Point"},"properties":{"osm_id":"5371143480","tag":{"amenity":"waste_basket"}},"type":"Feature"},
	{"geometry":{"coordinates":[17.034813,51.102004],"type":"Point"},"properties":{"osm_id":"5371143482","tag":{"amenity":"waste_basket"}},"type":"Feature"},
	{"geometry":{"coordinates":[17.036366,51.101943],"type":"Point"},"properties":{"osm_id":"5371143484","tag":{"amenity":"waste_basket"}},"type":"Feature"},
	{"geometry":{"coordinates":[17.036334,51.102188],"type":"Point"},"properties":{"osm_id":"5371143504","tag":{"amenity":"waste_basket"}},"type":"Feature"},
	{"geometry":{"coordinates":[17.036924,51.103618],"type":"Point"},"properties":{"osm_id":"5371143507","tag":{"amenity":"waste_basket"}},"type":"Feature"},
	{"geometry":{"coordinates":[17.037074,51.104093],"type":"Point"},"properties":{"osm_id":"5371143528","tag":{"amenity":"waste_basket"}},"type":"Feature"},
	{"geometry":{"coordinates":[17.037212,51.104147],"type":"Point"},"properties":{"osm_id":"5371143529","tag":{"amenity":"waste_basket"}},"type":"Feature"},
	{"geometry":{"coordinates":[17.037605,51.10405],"type":"Point"},"properties":{"osm_id":"5371143530","tag":{"amenity":"waste_basket"}},"type":"Feature"},
	{"geometry":{"coordinates":[17.037705,51.103944],"type":"Point"},"properties":{"osm_id":"5371143532","tag":{"amenity":"waste_basket"}},"type":"Feature"},
	{"geometry":{"coordinates":[17.037599,51.103804],"type":"Point"},"properties":{"osm_id":"5371143533","tag":{"amenity":"waste_basket"}},"type":"Feature"},
	{"geometry":{"coordinates":[17.037487,51.103746],"type":"Point"},"properties":{"osm_id":"5371143534","tag":{"amenity":"waste_basket"}},"type":"Feature"},
	{"geometry":{"coordinates":[17.036986,51.10196],"type":"Point"},"properties":{"osm_id":"5371143536","tag":{"amenity":"waste_basket"}},"type":"Feature"},
	{"geometry":{"coordinates":[17.036788,51.101849],"type":"Point"},"properties":{"osm_id":"5371143557","tag":{"amenity":"waste_basket"}},"type":"Feature"},
	{"geometry":{"coordinates":[17.036056,51.10057],"type":"Point"},"properties":{"osm_id":"5371221622","tag":{"amenity":"waste_basket"}},"type":"Feature"},
	{"geometry":{"coordinates":[17.04733,51.071843],"type":"Point"},"properties":{"osm_id":"5382604713","tag":{"amenity":"waste_basket","waste":"trash"}},"type":"Feature"},
	{"geometry":{"coordinates":[17.047202,51.071709],"type":"Point"},"properties":{"osm_id":"5382604714","tag":{"amenity":"waste_basket","waste":"trash"}},"type":"Feature"},
	{"geometry":{"coordinates":[17.047226,51.071842],"type":"Point"},"properties":{"osm_id":"5382604715","tag":{"amenity":"waste_basket"}},"type":"Feature"},
	{"geometry":{"coordinates":[17.047828,51.072882],"type":"Point"},"properties":{"osm_id":"5382604716","tag":{"amenity":"waste_basket","waste":"dog_excrement"}},"type":"Feature"},
	{"geometry":{"coordinates":[17.047323,51.071706],"type":"Point"},"properties":{"osm_id":"5382604717","tag":{"amenity":"waste_basket","waste":"trash"}},"type":"Feature"},
	{"geometry":{"coordinates":[17.047761,51.07203],"type":"Point"},"properties":{"osm_id":"5389246719","tag":{"amenity":"waste_basket","waste":"dog_excrement"}},"type":"Feature"},
	{"geometry":{"coordinates":[17.043225,51.073854],"type":"Point"},"properties":{"osm_id":"5433673500","tag":{"amenity":"waste_basket","waste":"trash"}},"type":"Feature"},
	{"geometry":{"coordinates":[17.043796,51.072849],"type":"Point"},"properties":{"osm_id":"5440500097","tag":{"amenity":"waste_basket","waste":"trash"}},"type":"Feature"},
	{"geometry":{"coordinates":[17.037015,51.121074],"type":"Point"},"properties":{"osm_id":"5440693949","tag":{"amenity":"waste_disposal"}},"type":"Feature"},
	{"geometry":{"coordinates":[17.036935,51.122076],"type":"Point"},"properties":{"osm_id":"5440702180","tag":{"amenity":"waste_disposal"}},"type":"Feature"},
	{"geometry":{"coordinates":[17.044909,51.077228],"type":"Point"},"properties":{"osm_id":"5567349408","tag":{"amenity":"waste_basket","waste":"trash"}},"type":"Feature"},
	{"geometry":{"coordinates":[17.047405,51.073253],"type":"Point"},"properties":{"osm_id":"5573025311","tag":{"amenity":"waste_basket"}},"type":"Feature"},
	{"geometry":{"coordinates":[17.047416,51.073364],"type":"Point"},"properties":{"osm_id":"5573025314","tag":{"amenity":"waste_basket"}},"type":"Feature"},
	{"geometry":{"coordinates":[17.037411,51.120257],"type":"Point"},"properties":{"osm_id":"5668653709","tag":{"access":"private","amenity":"waste_disposal"}},"type":"Feature"},
	{"geometry":{"coordinates":[17.027997,51.122715],"type":"Point"},"properties":{"osm_id":"5680205859","tag":{"amenity":"waste_basket","waste":"trash"}},"type":"Feature"},
	{"geometry":{"coordinates":[17.028039,51.122385],"type":"Point"},"properties":{"osm_id":"5680205861","tag":{"amenity":"waste_basket","waste":"trash"}},"type":"Feature"},
	{"geometry":{"coordinates":[17.028331,51.122477],"type":"Point"},"properties":{"osm_id":"5680205864","tag":{"amenity":"waste_basket","waste":"trash"}},"type":"Feature"},
	{"geometry":{"coordinates":[17.027302,51.122737],"type":"Point"},"properties":{"osm_id":"5680486728","tag":{"amenity":"waste_basket","waste":"trash"}},"type":"Feature"},
	{"geometry":{"coordinates":[17.027667,51.122726],"type":"Point"},"properties":{"osm_id":"5680486733","tag":{"amenity":"waste_basket","waste":"trash"}},"type":"Feature"},
	{"geometry":{"coordinates":[17.028321,51.122773],"type":"Point"},"properties":{"osm_id":"5684853768","tag":{"amenity":"waste_basket","waste":"trash"}},"type":"Feature"},
	{"geometry":{"coordinates":[17.029243,51.122663],"type":"Point"},"properties":{"osm_id":"5684853769","tag":{"amenity":"waste_basket","waste":"dog_excrement"}},"type":"Feature"},
	{"geometry":{"coordinates":[17.029183,51.122638],"type":"Point"},"properties":{"osm_id":"5684853775","tag":{"amenity":"waste_basket","waste":"trash"}},"type":"Feature"},
	{"geometry":{"coordinates":[17.028678,51.122306],"type":"Point"},"properties":{"osm_id":"5684887253","tag":{"amenity":"waste_basket","waste":"trash"}},"type":"Feature"},
	{"geometry":{"coordinates":[17.029886,51.122412],"type":"Point"},"properties":{"osm_id":"5686053036","tag":{"amenity":"waste_basket","waste":"trash"}},"type":"Feature"},
	{"geometry":{"coordinates":[17.029902,51.122317],"type":"Point"},"properties":{"osm_id":"5686053041","tag":{"amenity":"waste_basket","waste":"trash"}},"type":"Feature"},
	{"geometry":{"coordinates":[17.029733,51.122327],"type":"Point"},"properties":{"osm_id":"5687425020","tag":{"amenity":"waste_basket","waste":"trash"}},"type":"Feature"},
	{"geometry":{"coordinates":[17.029474,51.122344],"type":"Point"},"properties":{"osm_id":"5687425221","tag":{"amenity":"waste_basket","waste":"trash"}},"type":"Feature"},
	{"geometry":{"coordinates":[17.029542,51.1224],"type":"Point"},"properties":{"osm_id":"5687425222","tag":{"amenity":"waste_basket","waste":"trash"}},"type":"Feature"},
	{"geometry":{"coordinates":[17.029587,51.122268],"type":"Point"},"properties":{"osm_id":"5687425223","tag":{"amenity":"waste_basket","waste":"dog_excrement"}},"type":"Feature"},
	{"geometry":{"coordinates":[17.029162,51.122363],"type":"Point"},"properties":{"osm_id":"5687425229","tag":{"amenity":"waste_basket","waste":"trash"}},"type":"Feature"},
	{"geometry":{"coordinates":[17.027605,51.122354],"type":"Point"},"properties":{"osm_id":"5687425231","tag":{"amenity":"waste_basket","waste":"trash"}},"type":"Feature"},
	{"geometry":{"coordinates":[17.027214,51.122435],"type":"Point"},"properties":{"osm_id":"5687425239","tag":{"amenity":"waste_basket","waste":"trash"}},"type":"Feature"},
	{"geometry":{"coordinates":[17.027092,51.122392],"type":"Point"},"properties":{"osm_id":"5687425240","tag":{"amenity":"waste_basket","waste":"dog_excrement"}},"type":"Feature"},
	{"geometry":{"coordinates":[16.978651,51.092022],"type":"Point"},"properties":{"osm_id":"5703203932","tag":{"amenity":"waste_basket","waste":"trash"}},"type":"Feature"},
	{"geometry":{"coordinates":[17.008876,51.099036],"type":"Point"},"properties":{"osm_id":"5732446650","tag":{"amenity":"waste_basket","waste":"trash"}},"type":"Feature"},
	{"geometry":{"coordinates":[17.008541,51.099129],"type":"Point"},"properties":{"osm_id":"5732446653","tag":{"amenity":"waste_basket","waste":"trash"}},"type":"Feature"},
	{"geometry":{"coordinates":[17.009221,51.098935],"type":"Point"},"properties":{"osm_id":"5732446654","tag":{"amenity":"waste_basket","waste":"trash"}},"type":"Feature"},
	{"geometry":{"coordinates":[17.008748,51.099067],"type":"Point"},"properties":{"osm_id":"5732446658","tag":{"amenity":"waste_basket","waste":"trash"}},"type":"Feature"},
	{"geometry":{"coordinates":[17.006548,51.098691],"type":"Point"},"properties":{"osm_id":"5732514581","tag":{"amenity":"waste_basket","waste":"trash"}},"type":"Feature"},
	{"geometry":{"coordinates":[17.006437,51.098955],"type":"Point"},"properties":{"osm_id":"5732514583","tag":{"amenity":"waste_basket","waste":"trash"}},"type":"Feature"},
	{"geometry":{"coordinates":[17.006601,51.098638],"type":"Point"},"properties":{"osm_id":"5732514590","tag":{"amenity":"waste_basket","waste":"trash"}},"type":"Feature"},
	{"geometry":{"coordinates":[17.007019,51.098876],"type":"Point"},"properties":{"osm_id":"5732514592","tag":{"amenity":"waste_basket","waste":"trash"}},"type":"Feature"},
	{"geometry":{"coordinates":[17.00705,51.098944],"type":"Point"},"properties":{"osm_id":"5732514607","tag":{"amenity":"waste_basket","waste":"trash"}},"type":"Feature"},
	{"geometry":{"coordinates":[17.006864,51.098982],"type":"Point"},"properties":{"osm_id":"5732514852","tag":{"amenity":"waste_basket","waste":"trash"}},"type":"Feature"},
	{"geometry":{"coordinates":[17.006549,51.098966],"type":"Point"},"properties":{"osm_id":"5732514854","tag":{"amenity":"waste_basket","waste":"trash"}},"type":"Feature"},
	{"geometry":{"coordinates":[17.007672,51.099081],"type":"Point"},"properties":{"osm_id":"5732521663","tag":{"amenity":"waste_basket","waste":"trash"}},"type":"Feature"},
	{"geometry":{"coordinates":[17.007148,51.098974],"type":"Point"},"properties":{"osm_id":"5732521664","tag":{"amenity":"waste_basket","waste":"trash"}},"type":"Feature"},
	{"geometry":{"coordinates":[17.009088,51.099484],"type":"Point"},"properties":{"osm_id":"5732553124","tag":{"amenity":"waste_basket","waste":"trash"}},"type":"Feature"},
	{"geometry":{"coordinates":[17.009644,51.099228],"type":"Point"},"properties":{"osm_id":"5732553132","tag":{"amenity":"waste_basket","waste":"trash"}},"type":"Feature"},
	{"geometry":{"coordinates":[17.008833,51.099466],"type":"Point"},"properties":{"osm_id":"5732553139","tag":{"amenity":"waste_basket","waste":"trash"}},"type":"Feature"},
	{"geometry":{"coordinates":[17.006681,51.098038],"type":"Point"},"properties":{"osm_id":"5732660503","tag":{"amenity":"waste_basket","waste":"trash"}},"type":"Feature"},
	{"geometry":{"coordinates":[17.011111,51.099472],"type":"Point"},"properties":{"osm_id":"5732660504","tag":{"amenity":"waste_basket","waste":"trash"}},"type":"Feature"},
	{"geometry":{"coordinates":[17.007243,51.099166],"type":"Point"},"properties":{"osm_id":"5732660505","tag":{"amenity":"waste_basket","waste":"trash"}},"type":"Feature"},
	{"geometry":{"coordinates":[17.006937,51.098219],"type":"Point"},"properties":{"osm_id":"5732660507","tag":{"amenity":"waste_basket","waste":"trash"}},"type":"Feature"},
	{"geometry":{"coordinates":[17.010934,51.099321],"type":"Point"},"properties":{"osm_id":"5732660511","tag":{"amenity":"waste_basket","waste":"trash"}},"type":"Feature"},
	{"geometry":{"coordinates":[17.010713,51.09936],"type":"Point"},"properties":{"osm_id":"5732660513","tag":{"amenity":"waste_basket","waste":"trash"}},"type":"Feature"},
	{"geometry":{"coordinates":[17.006497,51.098173],"type":"Point"},"properties":{"osm_id":"5732661123","tag":{"amenity":"waste_basket","waste":"trash"}},"type":"Feature"},
	{"geometry":{"coordinates":[17.007491,51.098936],"type":"Point"},"properties":{"osm_id":"5732661125","tag":{"amenity":"waste_basket","waste":"trash"}},"type":"Feature"},
	{"geometry":{"coordinates":[17.007968,51.1012],"type":"Point"},"properties":{"osm_id":"5734534727","tag":{"amenity":"waste_basket","waste":"trash"}},"type":"Feature"},
	{"geometry":{"coordinates":[17.007766,51.101069],"type":"Point"},"properties":{"osm_id":"5734534729","tag":{"amenity":"waste_basket","waste":"trash"}},"type":"Feature"},
	{"geometry":{"coordinates":[17.00773,51.101147],"type":"Point"},"properties":{"osm_id":"5734534732","tag":{"amenity":"waste_basket","waste":"trash"}},"type":"Feature"},
	{"geometry":{"coordinates":[17.010069,51.099153],"type":"Point"},"properties":{"osm_id":"5738670084","tag":{"amenity":"waste_basket","waste":"trash"}},"type":"Feature"},
	{"geometry":{"coordinates":[17.046394,51.113813],"type":"Point"},"properties":{"osm_id":"5739863638","tag":{"amenity":"waste_basket","waste":"trash"}},"type":"Feature"},
	{"geometry":{"coordinates":[17.010807,51.099572],"type":"Point"},"properties":{"osm_id":"5740468747","tag":{"amenity":"waste_basket","waste":"trash"}},"type":"Feature"},
	{"geometry":{"coordinates":[17.010176,51.098163],"type":"Point"},"properties":{"osm_id":"5742026642","tag":{"amenity":"waste_basket","waste":"trash"}},"type":"Feature"},
	{"geometry":{"coordinates":[17.010392,51.098099],"type":"Point"},"properties":{"osm_id":"5742026650","tag":{"amenity":"waste_basket","waste":"trash"}},"type":"Feature"},
	{"geometry":{"coordinates":[17.010484,51.098271],"type":"Point"},"properties":{"osm_id":"5742026652","tag":{"amenity":"waste_basket","waste":"trash"}},"type":"Feature"},
	{"geometry":{"coordinates":[17.010224,51.098345],"type":"Point"},"properties":{"osm_id":"5742026653","tag":{"amenity":"waste_basket","waste":"trash"}},"type":"Feature"},
	{"geometry":{"coordinates":[17.008158,51.101021],"type":"Point"},"properties":{"osm_id":"5745839725","tag":{"amenity":"waste_basket","waste":"trash"}},"type":"Feature"},
	{"geometry":{"coordinates":[17.008014,51.101118],"type":"Point"},"properties":{"osm_id":"5745839726","tag":{"amenity":"waste_basket","waste":"trash"}},"type":"Feature"},
	{"geometry":{"coordinates":[16.977428,51.092586],"type":"Point"},"properties":{"osm_id":"5770787586","tag":{"amenity":"waste_basket"}},"type":"Feature"},
	{"geometry":{"coordinates":[17.042048,51.102946],"type":"Point"},"properties":{"osm_id":"5931019848","tag":{"amenity":"waste_disposal"}},"type":"Feature"},
	{"geometry":{"coordinates":[17.045306,51.121574],"type":"Point"},"properties":{"osm_id":"5931096924","tag":{"amenity":"waste_disposal"}},"type":"Feature"},
	{"geometry":{"coordinates":[17.044484,51.121587],"type":"Point"},"properties":{"osm_id":"5931096955","tag":{"amenity":"waste_disposal"}},"type":"Feature"},
	{"geometry":{"coordinates":[17.042751,51.083824],"type":"Point"},"properties":{"osm_id":"5986436698","tag":{"amenity":"recycling","recycling_type":"container"}},"type":"Feature"},
	{"geometry":{"coordinates":[17.042751,51.083808],"type":"Point"},"properties":{"osm_id":"5986436699","tag":{"amenity":"recycling","recycling_type":"container"}},"type":"Feature"},
	{"geometry":{"coordinates":[17.042675,51.083757],"type":"Point"},"properties":{"osm_id":"5986436700","tag":{"amenity":"recycling","recycling_type":"container"}},"type":"Feature"},
	{"geometry":{"coordinates":[17.042674,51.083771],"type":"Point"},"properties":{"osm_id":"5986436702","tag":{"amenity":"recycling","recycling_type":"container"}},"type":"Feature"},
	{"geometry":{"coordinates":[17.027232,51.122738],"type":"Point"},"properties":{"osm_id":"6002339171","tag":{"amenity":"waste_basket","waste":"trash"}},"type":"Feature"},
	{"geometry":{"coordinates":[17.028883,51.122588],"type":"Point"},"properties":{"osm_id":"6002339172","tag":{"amenity":"waste_basket","waste":"trash"}},"type":"Feature"},
	{"geometry":{"coordinates":[17.028578,51.122495],"type":"Point"},"properties":{"osm_id":"6002339173","tag":{"amenity":"waste_basket","waste":"trash"}},"type":"Feature"},
	{"geometry":{"coordinates":[17.021619,51.109098],"type":"Point"},"properties":{"osm_id":"6020424059","tag":{"amenity":"waste_disposal"}},"type":"Feature"},
	{"geometry":{"coordinates":[17.000654,51.081706],"type":"Point"},"properties":{"osm_id":"6079254160","tag":{"amenity":"waste_basket"}},"type":"Feature"},
	{"geometry":{"coordinates":[17.04746,51.123535],"type":"Point"},"properties":{"osm_id":"6096501668","tag":{"amenity":"waste_disposal"}},"type":"Feature"},
	{"geometry":{"coordinates":[17.00095,51.11461],"type":"Point"},"properties":{"osm_id":"6140165379","tag":{"amenity":"waste_disposal"}},"type":"Feature"},
	{"geometry":{"coordinates":[17.010899,51.115477],"type":"Point"},"properties":{"osm_id":"6159005781","tag":{"amenity":"waste_disposal"}},"type":"Feature"},
	{"geometry":{"coordinates":[17.007357,51.115876],"type":"Point"},"properties":{"osm_id":"6159077135","tag":{"amenity":"waste_disposal"}},"type":"Feature"},
	{"geometry":{"coordinates":[16.996471,51.113351],"type":"Point"},"properties":{"osm_id":"6159190108","tag":{"amenity":"waste_disposal"}},"type":"Feature"},
	{"geometry":{"coordinates":[17.003194,51.115778],"type":"Point"},"properties":{"osm_id":"6177428339","tag":{"amenity":"waste_disposal"}},"type":"Feature"},
	{"geometry":{"coordinates":[16.992098,51.090343],"type":"Point"},"properties":{"osm_id":"6199844368","tag":{"amenity":"waste_basket"}},"type":"Feature"},
	{"geometry":{"coordinates":[17.013128,51.076461],"type":"Point"},"properties":{"osm_id":"6368103281","tag":{"amenity":"waste_basket"}},"type":"Feature"},
	{"geometry":{"coordinates":[17.01138,51.077836],"type":"Point"},"properties":{"osm_id":"6368103887","tag":{"amenity":"waste_basket"}},"type":"Feature"},
	{"geometry":{"coordinates":[17.012877,51.076439],"type":"Point"},"properties":{"osm_id":"6368103889","tag":{"amenity":"waste_basket"}},"type":"Feature"},
	{"geometry":{"coordinates":[17.009929,51.078661],"type":"Point"},"properties":{"osm_id":"6368103895","tag":{"amenity":"waste_basket"}},"type":"Feature"},
	{"geometry":{"coordinates":[17.010134,51.078487],"type":"Point"},"properties":{"osm_id":"6368103913","tag":{"amenity":"waste_basket"}},"type":"Feature"},
	{"geometry":{"coordinates":[17.013825,51.07722],"type":"Point"},"properties":{"osm_id":"6368103915","tag":{"amenity":"waste_basket"}},"type":"Feature"},
	{"geometry":{"coordinates":[17.011259,51.072752],"type":"Point"},"properties":{"osm_id":"6368103919","tag":{"amenity":"waste_basket"}},"type":"Feature"},
	{"geometry":{"coordinates":[17.008537,51.078874],"type":"Point"},"properties":{"osm_id":"6368103921","tag":{"amenity":"waste_basket"}},"type":"Feature"},
	{"geometry":{"coordinates":[17.011782,51.073252],"type":"Point"},"properties":{"osm_id":"6368103926","tag":{"amenity":"waste_basket"}},"type":"Feature"},
	{"geometry":{"coordinates":[17.008635,51.078704],"type":"Point"},"properties":{"osm_id":"6368103928","tag":{"amenity":"waste_basket"}},"type":"Feature"},
	{"geometry":{"coordinates":[17.010768,51.078056],"type":"Point"},"properties":{"osm_id":"6368103937","tag":{"amenity":"waste_basket"}},"type":"Feature"},
	{"geometry":{"coordinates":[17.013478,51.076775],"type":"Point"},"properties":{"osm_id":"6368103939","tag":{"amenity":"waste_basket"}},"type":"Feature"},
	{"geometry":{"coordinates":[17.009152,51.078603],"type":"Point"},"properties":{"osm_id":"6368103950","tag":{"amenity":"waste_basket"}},"type":"Feature"},
	{"geometry":{"coordinates":[17.010921,51.077999],"type":"Point"},"properties":{"osm_id":"6368103951","tag":{"amenity":"waste_basket"}},"type":"Feature"},
	{"geometry":{"coordinates":[17.011595,51.072946],"type":"Point"},"properties":{"osm_id":"6368103955","tag":{"amenity":"waste_basket"}},"type":"Feature"},
	{"geometry":{"coordinates":[17.011291,51.0743],"type":"Point"},"properties":{"osm_id":"6370675010","tag":{"amenity":"waste_basket"}},"type":"Feature"},
	{"geometry":{"coordinates":[17.011793,51.073761],"type":"Point"},"properties":{"osm_id":"6370675016","tag":{"amenity":"waste_basket"}},"type":"Feature"},
	{"geometry":{"coordinates":[17.010013,51.075646],"type":"Point"},"properties":{"osm_id":"6370675018","tag":{"amenity":"waste_basket"}},"type":"Feature"},
	{"geometry":{"coordinates":[17.010055,51.075411],"type":"Point"},"properties":{"osm_id":"6370675021","tag":{"amenity":"waste_basket"}},"type":"Feature"},
	{"geometry":{"coordinates":[17.0101,51.075436],"type":"Point"},"properties":{"osm_id":"6370675024","tag":{"amenity":"waste_basket"}},"type":"Feature"},
	{"geometry":{"coordinates":[17.010157,51.075361],"type":"Point"},"properties":{"osm_id":"6370675027","tag":{"amenity":"waste_basket"}},"type":"Feature"},
	{"geometry":{"coordinates":[17.010134,51.075305],"type":"Point"},"properties":{"osm_id":"6370675031","tag":{"amenity":"waste_basket"}},"type":"Feature"},
	{"geometry":{"coordinates":[17.008407,51.079298],"type":"Point"},"properties":{"osm_id":"6370675033","tag":{"amenity":"waste_basket"}},"type":"Feature"},
	{"geometry":{"coordinates":[17.010831,51.074873],"type":"Point"},"properties":{"osm_id":"6370675035","tag":{"amenity":"waste_basket"}},"type":"Feature"},
	{"geometry":{"coordinates":[17.010819,51.074649],"type":"Point"},"properties":{"osm_id":"6370675038","tag":{"amenity":"waste_basket"}},"type":"Feature"},
	{"geometry":{"coordinates":[16.971442,51.079157],"type":"Point"},"properties":{"osm_id":"6388048389","tag":{"amenity":"waste_basket"}},"type":"Feature"},
	{"geometry":{"coordinates":[16.971657,51.07942],"type":"Point"},"properties":{"osm_id":"6388048391","tag":{"amenity":"waste_basket"}},"type":"Feature"},
	{"geometry":{"coordinates":[16.998204,51.093758],"type":"Point"},"properties":{"osm_id":"6399948686","tag":{"amenity":"waste_basket"}},"type":"Feature"},
	{"geometry":{"coordinates":[16.997447,51.093567],"type":"Point"},"properties":{"osm_id":"6399948687","tag":{"amenity":"waste_disposal"}},"type":"Feature"},
	{"geometry":{"coordinates":[17.009553,51.09981],"type":"Point"},"properties":{"osm_id":"6416261186","tag":{"amenity":"waste_basket","waste":"trash"}},"type":"Feature"},
	{"geometry":{"coordinates":[16.994266,51.0973],"type":"Point"},"properties":{"osm_id":"6418407418","tag":{"amenity":"waste_disposal"}},"type":"Feature"},
	{"geometry":{"coordinates":[16.976719,51.092282],"type":"Point"},"properties":{"osm_id":"6419282248","tag":{"amenity":"waste_basket"}},"type":"Feature"},
	{"geometry":{"coordinates":[17.018673,51.101442],"type":"Point"},"properties":{"osm_id":"6456286946","tag":{"amenity":"waste_disposal"}},"type":"Feature"},
	{"geometry":{"coordinates":[17.008302,51.096562],"type":"Point"},"properties":{"osm_id":"6548194169","tag":{"amenity":"waste_basket","start_date":"2019-06"}},"type":"Feature"},
	{"geometry":{"coordinates":[17.007893,51.096685],"type":"Point"},"properties":{"osm_id":"6548194172","tag":{"amenity":"waste_basket","start_date":"2019-06"}},"type":"Feature"},
	{"geometry":{"coordinates":[17.007735,51.096557],"type":"Point"},"properties":{"osm_id":"6548194175","tag":{"amenity":"waste_basket","start_date":"2019-06"}},"type":"Feature"},
	{"geometry":{"coordinates":[17.007855,51.096385],"type":"Point"},"properties":{"osm_id":"6548197495","tag":{"amenity":"waste_basket","start_date":"2019-06"}},"type":"Feature"},
	{"geometry":{"coordinates":[16.991411,51.096203],"type":"Point"},"properties":{"osm_id":"6571901044","tag":{"amenity":"waste_basket"}},"type":"Feature"},
	{"geometry":{"coordinates":[16.991465,51.096355],"type":"Point"},"properties":{"osm_id":"6571901045","tag":{"amenity":"waste_basket"}},"type":"Feature"},
	{"geometry":{"coordinates":[16.991521,51.096518],"type":"Point"},"properties":{"osm_id":"6571901046","tag":{"amenity":"waste_basket"}},"type":"Feature"},
	{"geometry":{"coordinates":[16.991585,51.096675],"type":"Point"},"properties":{"osm_id":"6571901047","tag":{"amenity":"waste_basket"}},"type":"Feature"},
	{"geometry":{"coordinates":[16.991643,51.096822],"type":"Point"},"properties":{"osm_id":"6571901048","tag":{"amenity":"waste_basket"}},"type":"Feature"},
	{"geometry":{"coordinates":[16.99172,51.09697],"type":"Point"},"properties":{"osm_id":"6571901049","tag":{"amenity":"waste_basket"}},"type":"Feature"},
	{"geometry":{"coordinates":[16.991765,51.097152],"type":"Point"},"properties":{"osm_id":"6571901050","tag":{"amenity":"waste_basket"}},"type":"Feature"},
	{"geometry":{"coordinates":[16.992134,51.097093],"type":"Point"},"properties":{"osm_id":"6571901051","tag":{"amenity":"waste_basket"}},"type":"Feature"},
	{"geometry":{"coordinates":[16.992078,51.096934],"type":"Point"},"properties":{"osm_id":"6571901052","tag":{"amenity":"waste_basket"}},"type":"Feature"},
	{"geometry":{"coordinates":[16.992021,51.096776],"type":"Point"},"properties":{"osm_id":"6571901053","tag":{"amenity":"waste_basket"}},"type":"Feature"},
	{"geometry":{"coordinates":[16.991967,51.096617],"type":"Point"},"properties":{"osm_id":"6571901054","tag":{"amenity":"waste_basket"}},"type":"Feature"},
	{"geometry":{"coordinates":[16.991908,51.096461],"type":"Point"},"properties":{"osm_id":"6571901055","tag":{"amenity":"waste_basket"}},"type":"Feature"},
	{"geometry":{"coordinates":[16.991848,51.096294],"type":"Point"},"properties":{"osm_id":"6571901056","tag":{"amenity":"waste_basket"}},"type":"Feature"},
	{"geometry":{"coordinates":[16.99179,51.096142],"type":"Point"},"properties":{"osm_id":"6571901057","tag":{"amenity":"waste_basket"}},"type":"Feature"},
	{"geometry":{"coordinates":[16.992197,51.097251],"type":"Point"},"properties":{"osm_id":"6571901059","tag":{"amenity":"waste_basket"}},"type":"Feature"},
	{"geometry":{"coordinates":[17.005276,51.094179],"type":"Point"},"properties":{"osm_id":"6651707894","tag":{"amenity":"waste_basket","waste":"trash"}},"type":"Feature"},
	{"geometry":{"coordinates":[17.008153,51.117713],"type":"Point"},"properties":{"osm_id":"6690867991","tag":{"amenity":"waste_basket"}},"type":"Feature"},
	{"geometry":{"coordinates":[17.010289,51.118355],"type":"Point"},"properties":{"osm_id":"6690869791","tag":{"amenity":"waste_basket"}},"type":"Feature"},
	{"geometry":{"coordinates":[17.010176,51.118179],"type":"Point"},"properties":{"osm_id":"6690869793","tag":{"amenity":"waste_basket"}},"type":"Feature"},
	{"geometry":{"coordinates":[17.013784,51.097413],"type":"Point"},"properties":{"osm_id":"6710937724","tag":{"amenity":"recycling","recycling_type":"container"}},"type":"Feature"},
	{"geometry":{"coordinates":[17.008824,51.096755],"type":"Point"},"properties":{"osm_id":"6710977378","tag":{"amenity":"recycling","operator":"Fundacja U\u00c5\u009bmiechu","recycling:clothes":"yes","recycling:glass":"yes","recycling:paper":"yes","recycling:plastic":"yes","recycling:waste":"yes","recycling_type":"container"}},"type":"Feature"},
	{"geometry":{"coordinates":[17.006987,51.097357],"type":"Point"},"properties":{"osm_id":"6710986899","tag":{"amenity":"recycling","recycling_type":"container"}},"type":"Feature"},
	{"geometry":{"coordinates":[17.00921,51.097596],"type":"Point"},"properties":{"osm_id":"6710986958","tag":{"amenity":"recycling","recycling_type":"container"}},"type":"Feature"},
	{"geometry":{"coordinates":[17.007846,51.098278],"type":"Point"},"properties":{"osm_id":"6710986959","tag":{"amenity":"recycling","recycling_type":"container"}},"type":"Feature"},
	{"geometry":{"coordinates":[17.011372,51.096782],"type":"Point"},"properties":{"osm_id":"6711004473","tag":{"amenity":"recycling","recycling_type":"container"}},"type":"Feature"},
	{"geometry":{"coordinates":[17.012837,51.096729],"type":"Point"},"properties":{"osm_id":"6721194979","tag":{"amenity":"waste_basket"}},"type":"Feature"},
	{"geometry":{"coordinates":[17.013061,51.096854],"type":"Point"},"properties":{"osm_id":"6721194980","tag":{"amenity":"waste_basket"}},"type":"Feature"},
	{"geometry":{"coordinates":[17.013646,51.096661],"type":"Point"},"properties":{"osm_id":"6721194983","tag":{"amenity":"waste_basket"}},"type":"Feature"},
	{"geometry":{"coordinates":[17.012364,51.095934],"type":"Point"},"properties":{"osm_id":"6721194984","tag":{"amenity":"waste_basket"}},"type":"Feature"},
	{"geometry":{"coordinates":[17.015212,51.096258],"type":"Point"},"properties":{"osm_id":"6721246401","tag":{"amenity":"recycling","recycling_type":"container"}},"type":"Feature"},
	{"geometry":{"coordinates":[17.013423,51.095468],"type":"Point"},"properties":{"osm_id":"6721246426","tag":{"amenity":"recycling","recycling_type":"container"}},"type":"Feature"},
	{"geometry":{"coordinates":[17.009073,51.095318],"type":"Point"},"properties":{"osm_id":"6721398522","tag":{"amenity":"recycling","recycling_type":"container"}},"type":"Feature"},
	{"geometry":{"coordinates":[17.010534,51.09905],"type":"Point"},"properties":{"osm_id":"6794833229","tag":{"amenity":"recycling","operator":"Fundacja U\u00c5\u009bmiechu","recycling:clothes":"yes","recycling:shoes":"yes","recycling:toys":"yes","recycling_type":"container"}},"type":"Feature"},
	{"geometry":{"coordinates":[17.014695,51.098451],"type":"Point"},"properties":{"osm_id":"6796505508","tag":{"amenity":"waste_basket","waste":"trash"}},"type":"Feature"},
	{"geometry":{"coordinates":[17.013839,51.09895],"type":"Point"},"properties":{"osm_id":"6796505510","tag":{"amenity":"waste_basket","waste":"trash"}},"type":"Feature"},
	{"geometry":{"coordinates":[17.013766,51.098874],"type":"Point"},"properties":{"osm_id":"6796505516","tag":{"amenity":"waste_basket","waste":"trash"}},"type":"Feature"},
	{"geometry":{"coordinates":[17.016159,51.099384],"type":"Point"},"properties":{"osm_id":"6796505517","tag":{"amenity":"waste_basket","waste":"trash"}},"type":"Feature"},
	{"geometry":{"coordinates":[17.015042,51.099576],"type":"Point"},"properties":{"osm_id":"6796505518","tag":{"amenity":"waste_basket","waste":"trash"}},"type":"Feature"},
	{"geometry":{"coordinates":[17.014627,51.098768],"type":"Point"},"properties":{"osm_id":"6796505519","tag":{"amenity":"waste_basket","waste":"trash"}},"type":"Feature"},
	{"geometry":{"coordinates":[17.015403,51.099083],"type":"Point"},"properties":{"osm_id":"6796505522","tag":{"amenity":"waste_basket","waste":"trash"}},"type":"Feature"},
	{"geometry":{"coordinates":[17.013879,51.09871],"type":"Point"},"properties":{"osm_id":"6796505527","tag":{"amenity":"waste_basket","waste":"trash"}},"type":"Feature"},
	{"geometry":{"coordinates":[17.028274,51.095288],"type":"Point"},"properties":{"osm_id":"6858686245","tag":{"amenity":"waste_disposal"}},"type":"Feature"},
	{"geometry":{"coordinates":[17.008224,51.100079],"type":"Point"},"properties":{"osm_id":"6906919122","tag":{"amenity":"waste_basket","waste":"trash"}},"type":"Feature"},
	{"geometry":{"coordinates":[17.007813,51.099988],"type":"Point"},"properties":{"osm_id":"6906919123","tag":{"amenity":"waste_basket","waste":"trash"}},"type":"Feature"},
	{"geometry":{"coordinates":[17.006089,51.099073],"type":"Point"},"properties":{"osm_id":"6906919124","tag":{"amenity":"waste_basket","waste":"trash"}},"type":"Feature"},
	{"geometry":{"coordinates":[17.001674,51.09769],"type":"Point"},"properties":{"osm_id":"6906919125","tag":{"amenity":"recycling","operator":"Fundacja U\u00c5\u009bmiechu","recycling:clothes":"yes","recycling:shoes":"yes","recycling:toys":"yes","recycling_type":"container"}},"type":"Feature"},
	{"geometry":{"coordinates":[17.001939,51.098407],"type":"Point"},"properties":{"osm_id":"6906919126","tag":{"amenity":"waste_basket","waste":"trash"}},"type":"Feature"},
	{"geometry":{"coordinates":[17.002438,51.097639],"type":"Point"},"properties":{"osm_id":"6906919127","tag":{"amenity":"waste_basket","waste":"trash"}},"type":"Feature"},
	{"geometry":{"coordinates":[17.004073,51.097167],"type":"Point"},"properties":{"osm_id":"6906919128","tag":{"amenity":"waste_basket","waste":"trash"}},"type":"Feature"},
	{"geometry":{"coordinates":[17.001827,51.098554],"type":"Point"},"properties":{"osm_id":"6906919130","tag":{"amenity":"waste_basket","waste":"trash"}},"type":"Feature"},
	{"geometry":{"coordinates":[17.003585,51.097447],"type":"Point"},"properties":{"osm_id":"6906919131","tag":{"amenity":"waste_basket","waste":"trash"}},"type":"Feature"},
	{"geometry":{"coordinates":[17.004619,51.098524],"type":"Point"},"properties":{"osm_id":"6906919132","tag":{"amenity":"waste_basket","waste":"trash"}},"type":"Feature"},
	{"geometry":{"coordinates":[17.002075,51.097478],"type":"Point"},"properties":{"osm_id":"6906919133","tag":{"amenity":"waste_basket","waste":"trash"}},"type":"Feature"},
	{"geometry":{"coordinates":[17.012911,51.100062],"type":"Point"},"properties":{"osm_id":"6918285563","tag":{"amenity":"waste_basket","waste":"trash"}},"type":"Feature"},
	{"geometry":{"coordinates":[17.001674,51.099112],"type":"Point"},"properties":{"osm_id":"7137165925","tag":{"amenity":"waste_disposal"}},"type":"Feature"},
	{"geometry":{"coordinates":[17.001836,51.098772],"type":"Point"},"properties":{"osm_id":"7137165926","tag":{"amenity":"waste_disposal"}},"type":"Feature"},
	{"geometry":{"coordinates":[17.044178,51.123046],"type":"Point"},"properties":{"osm_id":"7232750191","ref":"1531","tag":{"amenity":"recycling","operator":"Fundacja z Sercem","recycling:clothes":"yes","recycling_type":"container","website":"http://www.fundacjazsercem.com.pl"}},"type":"Feature"},
	{"geometry":{"coordinates":[17.009944,51.099357],"type":"Point"},"properties":{"osm_id":"7467423617","tag":{"amenity":"waste_basket","material":"metal"}},"type":"Feature"},
	{"geometry":{"coordinates":[17.007329,51.098697],"type":"Point"},"properties":{"osm_id":"7592121351","tag":{"amenity":"waste_basket","colour":"white"}},"type":"Feature"},
	{"geometry":{"coordinates":[17.007359,51.098498],"type":"Point"},"properties":{"osm_id":"7592121359","tag":{"amenity":"waste_basket","colour":"white"}},"type":"Feature"},
	{"geometry":{"coordinates":[17.040358,51.119523],"type":"Point"},"properties":{"osm_id":"7750381475","tag":{"amenity":"recycling","opening_hours":"24/7","recycling:glass":"yes","recycling:paper":"yes","recycling:plastic":"yes","recycling:waste":"yes","recycling_type":"container"}},"type":"Feature"},
	{"geometry":{"coordinates":[17.004786,51.094813],"type":"Point"},"properties":{"osm_id":"7850838585","tag":{"amenity":"waste_basket"}},"type":"Feature"},
	{"geometry":{"coordinates":[17.042874,51.074437],"type":"Point"},"properties":{"osm_id":"7934361420","tag":{"amenity":"waste_disposal"}},"type":"Feature"}
]
}
