{
"type": "FeatureCollection",
"features": [
	{"geometry":{"coordinates":[16.993044,49.27671],"type":"Point"},"properties":{"osm_id":"8191840593","tag":{"amenity":"recycling","recycling:paper":"yes","recycling:plastic":"yes","recycling_type":"container"}},"type":"Feature"},
	{"geometry":{"coordinates":[17.001522,49.276709],"type":"Point"},"properties":{"osm_id":"8191844747","tag":{"amenity":"recycling","recycling_type":"container"}},"type":"Feature"},
	{"geometry":{"coordinates":[17.001034,49.279149],"type":"Point"},"properties":{"osm_id":"8191844773","tag":{"amenity":"recycling","recycling:glass":"yes","recycling:paper":"yes","recycling:plastic":"yes","recycling_type":"container"}},"type":"Feature"},
	{"geometry":{"coordinates":[16.967311,49.308153],"type":"Point"},"properties":{"osm_id":"8530927412","tag":{"amenity":"recycling","opening_hours":"24/7","recycling:glass":"yes","recycling:paper":"yes","recycling:plastic":"yes","recycling_type":"container","wheelchair":"yes"}},"type":"Feature"},
	{"geometry":{"coordinates":[16.992325,49.271281],"type":"Point"},"properties":{"osm_id":"8983685134","tag":{"amenity":"recycling","opening_hours":"Tu-Fr 09:00-17:00; We off; Sa 08:00-15:00","operator":"RESPONO a.s.","phone":"+420 517 810 038","recycling:batteries":"yes","recycling:cans":"yes","recycling:cooking_oil":"yes","recycling:electrical_appliances":"yes","recycling:electrical_items":"yes","recycling:fluorescent_tubes":"yes","recycling:green_waste":"yes","recycling:hazardous_waste":"yes","recycling:low_energy_bulbs":"yes","recycling:paper":"yes","recycling:plastic":"yes","recycling:rubble":"yes","recycling:scrap_metal":"yes","recycling:small_appliances":"yes","recycling:tyres":"yes","recycling_type":"centre","website":"https://www.respono.cz/pro-obcany/sberne-dvory/"}},"type":"Feature"}
]
}
