{
"type": "FeatureCollection",
"features": [
	{"geometry":{"coordinates":[17.02148,49.155397],"type":"Point"},"properties":{"osm_id":"2638305224","tag":{"amenity":"waste_basket"}},"type":"Feature"},
	{"geometry":{"coordinates":[17.028441,49.156267],"type":"Point"},"properties":{"osm_id":"2638305248","tag":{"amenity":"waste_basket"}},"type":"Feature"},
	{"geometry":{"coordinates":[16.972896,49.20027],"type":"Point"},"properties":{"osm_id":"5097515172","tag":{"amenity":"waste_basket"}},"type":"Feature"},
	{"geometry":{"coordinates":[17.03077,49.17442],"type":"Point"},"properties":{"osm_id":"8343443283","tag":{"amenity":"recycling","recycling:green_waste":"yes","recycling:paper":"yes","recycling:plastic":"yes","recycling_type":"container"}},"type":"Feature"},
	{"geometry":{"coordinates":[17.029756,49.172283],"type":"Point"},"properties":{"osm_id":"8343443292","tag":{"amenity":"recycling","recycling:clothes":"yes","recycling:glass":"yes","recycling:green_waste":"yes","recycling:paper":"yes","recycling:plastic":"yes","recycling:shoes":"yes","recycling_type":"container"}},"type":"Feature"},
	{"geometry":{"coordinates":[16.964026,49.172377],"type":"Point"},"properties":{"osm_id":"8510573542","tag":{"amenity":"recycling","opening_hours":"24/7","recycling:glass":"yes","recycling:paper":"yes","recycling:plastic":"yes","recycling_type":"container","wheelchair":"yes"}},"type":"Feature"},
	{"geometry":{"coordinates":[17.023024,49.199608],"type":"Point"},"properties":{"osm_id":"8983685133","tag":{"amenity":"recycling","opening_hours":"Mo-Fr 06:00-15:30","operator":"RESPONO a.s.","phone":"+420 517 358 278","recycling:batteries":"yes","recycling:cans":"yes","recycling:cooking_oil":"yes","recycling:electrical_appliances":"yes","recycling:electrical_items":"yes","recycling:fluorescent_tubes":"yes","recycling:green_waste":"yes","recycling:hazardous_waste":"yes","recycling:low_energy_bulbs":"yes","recycling:paper":"yes","recycling:plastic":"yes","recycling:rubble":"yes","recycling:scrap_metal":"yes","recycling:small_appliances":"yes","recycling:tyres":"yes","recycling_type":"centre","website":"https://www.respono.cz/pro-obcany/sberne-dvory/"}},"type":"Feature"}
]
}
