{
"type": "FeatureCollection",
"features": [
	{"geometry":{"coordinates":[17.047267,48.190468],"type":"Point"},"properties":{"osm_id":"2140025662","tag":{"amenity":"recycling","recycling:cans":"yes","recycling:glass":"yes","recycling:paper":"yes","recycling:plastic":"yes","width":"5"}},"type":"Feature"},
	{"geometry":{"coordinates":[17.046834,48.192524],"type":"Point"},"properties":{"osm_id":"2140025669","tag":{"amenity":"recycling","recycling:cans":"yes","recycling:glass":"yes","recycling:paper":"yes","recycling:plastic":"yes"}},"type":"Feature"},
	{"geometry":{"coordinates":[17.020849,48.206087],"type":"Point"},"properties":{"osm_id":"2300401196","tag":{"amenity":"waste_basket"}},"type":"Feature"},
	{"geometry":{"coordinates":[17.020648,48.206122],"type":"Point"},"properties":{"osm_id":"2300401199","tag":{"amenity":"waste_basket"}},"type":"Feature"},
	{"geometry":{"coordinates":[17.020233,48.206185],"type":"Point"},"properties":{"osm_id":"2300401204","tag":{"amenity":"waste_basket"}},"type":"Feature"},
	{"geometry":{"coordinates":[17.02003,48.206216],"type":"Point"},"properties":{"osm_id":"2300401209","tag":{"amenity":"waste_basket"}},"type":"Feature"},
	{"geometry":{"coordinates":[17.042763,48.212066],"type":"Point"},"properties":{"osm_id":"5205098679","tag":{"amenity":"waste_disposal"}},"type":"Feature"},
	{"geometry":{"coordinates":[17.043439,48.167571],"type":"Point"},"properties":{"osm_id":"6374720291","tag":{"amenity":"waste_disposal"}},"type":"Feature"},
	{"geometry":{"coordinates":[17.049971,48.194201],"type":"Point"},"properties":{"osm_id":"6451411291","tag":{"amenity":"waste_disposal"}},"type":"Feature"},
	{"geometry":{"coordinates":[17.050429,48.194135],"type":"Point"},"properties":{"osm_id":"6451411785","tag":{"amenity":"waste_basket"}},"type":"Feature"},
	{"geometry":{"coordinates":[17.035341,48.198422],"type":"Point"},"properties":{"osm_id":"7061440527","tag":{"amenity":"waste_disposal","covered":"yes","waste":"trash"}},"type":"Feature"},
	{"geometry":{"coordinates":[17.034564,48.198292],"type":"Point"},"properties":{"osm_id":"7061440528","tag":{"amenity":"waste_disposal","covered":"yes","waste":"trash"}},"type":"Feature"},
	{"geometry":{"coordinates":[17.046456,48.2008],"type":"Point"},"properties":{"osm_id":"7205317792","tag":{"amenity":"waste_disposal","covered":"yes","waste":"trash"}},"type":"Feature"},
	{"geometry":{"coordinates":[16.979341,48.203012],"type":"Point"},"properties":{"osm_id":"7448667618","tag":{"amenity":"waste_disposal"}},"type":"Feature"}
]
}
