{
"type": "FeatureCollection",
"features": [
	{"geometry":{"coordinates":[17.005784,48.13963],"type":"Point"},"properties":{"osm_id":"1234379550","tag":{"amenity":"waste_basket"}},"type":"Feature"},
	{"geometry":{"coordinates":[16.980975,48.143859],"type":"Point"},"properties":{"osm_id":"1350019864","tag":{"amenity":"recycling","recycling:batteries":"yes","recycling:cans":"yes","recycling:cardboard":"yes","recycling:cartons":"yes","recycling:electrical_appliances":"yes","recycling:glass_bottles":"yes","recycling:green_waste":"yes","recycling:small_appliances":"yes","recycling_type":"centre"}},"type":"Feature"},
	{"geometry":{"coordinates":[17.00646,48.136395],"type":"Point"},"properties":{"osm_id":"4311195048","tag":{"amenity":"waste_basket"}},"type":"Feature"},
	{"geometry":{"coordinates":[17.006828,48.136531],"type":"Point"},"properties":{"osm_id":"4311195065","tag":{"amenity":"waste_basket"}},"type":"Feature"},
	{"geometry":{"coordinates":[17.047211,48.155392],"type":"Point"},"properties":{"osm_id":"5724041866","tag":{"amenity":"waste_basket"}},"type":"Feature"},
	{"geometry":{"coordinates":[17.048097,48.155171],"type":"Point"},"properties":{"osm_id":"5726675367","tag":{"amenity":"waste_basket"}},"type":"Feature"},
	{"geometry":{"coordinates":[17.04991,48.157408],"type":"Point"},"properties":{"osm_id":"5726919792","tag":{"amenity":"waste_basket"}},"type":"Feature"},
	{"geometry":{"coordinates":[17.004239,48.136007],"type":"Point"},"properties":{"osm_id":"7553593059","tag":{"amenity":"waste_basket","colour":"green","material":"plastic"}},"type":"Feature"},
	{"geometry":{"coordinates":[17.000564,48.13751],"type":"Point"},"properties":{"osm_id":"7553593078","tag":{"amenity":"waste_basket","colour":"green","material":"plastic"}},"type":"Feature"},
	{"geometry":{"coordinates":[17.02415,48.11518],"type":"Point"},"properties":{"osm_id":"7692588366","tag":{"amenity":"waste_basket"}},"type":"Feature"},
	{"geometry":{"coordinates":[17.023365,48.114737],"type":"Point"},"properties":{"osm_id":"7692588368","tag":{"amenity":"waste_basket"}},"type":"Feature"}
]
}
