{
"type": "FeatureCollection",
"lastupdate": "2020-07-31T00:00:00Z",
"features": [
	{"geometry":{"coordinates":[17.0261,46.423641],"type":"Point"},"properties":{"osm_id":"2499678806","tag":{"amenity":"recycling","recycling_type":"container"}},"type":"Feature"},
	{"geometry":{"coordinates":[16.985085,46.411513],"type":"Point"},"properties":{"osm_id":"2502692122","tag":{"amenity":"recycling","recycling_type":"container"}},"type":"Feature"},
	{"geometry":{"coordinates":[16.989551,46.412096],"type":"Point"},"properties":{"osm_id":"2502692125","tag":{"amenity":"recycling","recycling_type":"container"}},"type":"Feature"},
	{"geometry":{"coordinates":[16.987167,46.430255],"type":"Point"},"properties":{"osm_id":"2503012067","tag":{"amenity":"recycling","recycling_type":"container"}},"type":"Feature"},
	{"geometry":{"coordinates":[16.9976,46.41835],"type":"Point"},"properties":{"osm_id":"3456438424","tag":{"addr:city":"Nagykanizsa-Mikl\u00f3sfa","addr:street":"Szentendrei utca - G\u00e1rdonyi utca","amenity":"recycling","source:date":"2010-12-01","url":"http://turistautak.hu/poi.php?id=16862"}},"type":"Feature"}
]
}
