{
"type": "FeatureCollection",
"features": [
	{"geometry":{"coordinates":[8.466279,44.673338],"type":"Point"},"properties":{"osm_id":"2933052156","tag":{"natural":"tree"}},"type":"Feature"},
	{"geometry":{"coordinates":[8.466944,44.673566],"type":"Point"},"properties":{"osm_id":"2933052157","tag":{"natural":"tree"}},"type":"Feature"},
	{"geometry":{"coordinates":[8.466321,44.672993],"type":"Point"},"properties":{"osm_id":"2933052158","tag":{"natural":"tree"}},"type":"Feature"},
	{"geometry":{"coordinates":[8.466246,44.673183],"type":"Point"},"properties":{"osm_id":"2933052159","tag":{"natural":"tree"}},"type":"Feature"},
	{"geometry":{"coordinates":[8.466434,44.67294],"type":"Point"},"properties":{"osm_id":"2933052160","tag":{"natural":"tree"}},"type":"Feature"},
	{"geometry":{"coordinates":[8.467051,44.673491],"type":"Point"},"properties":{"osm_id":"2933052161","tag":{"natural":"tree"}},"type":"Feature"},
	{"geometry":{"coordinates":[8.46719,44.673287],"type":"Point"},"properties":{"osm_id":"2933052162","tag":{"natural":"tree"}},"type":"Feature"},
	{"geometry":{"coordinates":[8.467239,44.67319],"type":"Point"},"properties":{"osm_id":"2933052163","tag":{"natural":"tree"}},"type":"Feature"},
	{"geometry":{"coordinates":[8.466163,44.6733],"type":"Point"},"properties":{"osm_id":"2933052168","tag":{"natural":"tree"}},"type":"Feature"},
	{"geometry":{"coordinates":[8.466155,44.673219],"type":"Point"},"properties":{"osm_id":"2933052169","tag":{"natural":"tree"}},"type":"Feature"},
	{"geometry":{"coordinates":[8.466261,44.673286],"type":"Point"},"properties":{"osm_id":"2933052170","tag":{"natural":"tree"}},"type":"Feature"},
	{"geometry":{"coordinates":[8.46625,44.673238],"type":"Point"},"properties":{"osm_id":"2933052171","tag":{"natural":"tree"}},"type":"Feature"},
	{"geometry":{"coordinates":[8.466246,44.673125],"type":"Point"},"properties":{"osm_id":"2933052172","tag":{"natural":"tree"}},"type":"Feature"},
	{"geometry":{"coordinates":[8.473649,44.673485],"type":"Point"},"properties":{"name":"Cedrus altantica","osm_id":"5611024544","tag":{"denotation":"natural_monument","description":"Albero monumentale del Piemonte","leaf_cycle":"evergreen","leaf_type":"needleleaved","name:de":"Atlas-Zeder","name:en":"Atlas cedar","name:fr":"C\u00c3\u00a8dre de l'Atlas","name:it":"Cedro dell' Atlante","natural":"tree"}},"type":"Feature"},
	{"geometry":{"coordinates":[8.463439,44.668715],"type":"Point"},"properties":{"name":"Populus nigra","osm_id":"5611024545","tag":{"denotation":"natural_monument","description":"Albero monumentale del Piemonte","leaf_cycle":"deciduous","leaf_type":"broadleaved","name:de":"Schwarz-Pappel","name:en":"Black poplar","name:fr":"Peuplier noir","name:it":"Pioppo nero","natural":"tree"}},"type":"Feature"}
]
}
