{
"type": "FeatureCollection",
"features": [
	{"geometry":{"coordinates":[7.549537,51.999942],"type":"Point"},"properties":{"osm_id":"293201598","tag":{"amenity":"recycling","recycling:clothes":"yes","recycling:glass_bottles":"yes","recycling_type":"container"}},"type":"Feature"},
	{"geometry":{"coordinates":[7.557933,52.00152],"type":"Point"},"properties":{"osm_id":"392771607","tag":{"amenity":"recycling","recycling_type":"container"}},"type":"Feature"},
	{"geometry":{"coordinates":[7.471069,52.046257],"type":"Point"},"properties":{"osm_id":"526859254","tag":{"amenity":"recycling","location":"overground","recycling:clothes":"yes","recycling_type":"container"}},"type":"Feature"},
	{"geometry":{"coordinates":[7.536634,52.041534],"type":"Point"},"properties":{"osm_id":"903211343","tag":{"amenity":"recycling","mapillary":"4KI3IFuRvynVqAdkqLdSSQ","recycling:cans":"no","recycling:glass_bottles":"yes","recycling_type":"container"}},"type":"Feature"},
	{"geometry":{"coordinates":[7.500941,52.020187],"type":"Point"},"properties":{"osm_id":"937225815","tag":{"amenity":"recycling","recycling:glass_bottles":"yes","recycling_type":"container"}},"type":"Feature"},
	{"geometry":{"coordinates":[7.473983,52.048479],"type":"Point"},"properties":{"osm_id":"2915645698","tag":{"amenity":"recycling","recycling:glass_bottles":"yes","recycling_type":"container"}},"type":"Feature"},
	{"geometry":{"coordinates":[7.482343,52.051032],"type":"Point"},"properties":{"osm_id":"2915645700","tag":{"amenity":"recycling","recycling:clothes":"yes","recycling_type":"container"}},"type":"Feature"},
	{"geometry":{"coordinates":[7.498863,52.021094],"type":"Point"},"properties":{"osm_id":"4112673368","tag":{"amenity":"waste_basket"}},"type":"Feature"},
	{"geometry":{"coordinates":[7.475631,52.052416],"type":"Point"},"properties":{"osm_id":"6845082463","tag":{"amenity":"waste_basket"}},"type":"Feature"},
	{"geometry":{"coordinates":[7.488277,52.039366],"type":"Point"},"properties":{"osm_id":"8405460564","tag":{"amenity":"waste_basket","waste":"trash"}},"type":"Feature"},
	{"geometry":{"coordinates":[7.478394,52.039049],"type":"Point"},"properties":{"osm_id":"8405768202","tag":{"amenity":"waste_basket","waste":"trash"}},"type":"Feature"},
	{"geometry":{"coordinates":[7.482009,52.051406],"type":"Point"},"properties":{"osm_id":"8864424106","tag":{"amenity":"waste_basket","waste":"trash"}},"type":"Feature"},
	{"geometry":{"coordinates":[7.481503,52.051747],"type":"Point"},"properties":{"osm_id":"8864424111","tag":{"amenity":"waste_basket","waste":"trash"}},"type":"Feature"},
	{"geometry":{"coordinates":[7.48173,52.05177],"type":"Point"},"properties":{"osm_id":"8864424118","tag":{"amenity":"waste_basket","waste":"trash"}},"type":"Feature"},
	{"geometry":{"coordinates":[7.481293,52.052022],"type":"Point"},"properties":{"osm_id":"8864424125","tag":{"amenity":"waste_basket","waste":"trash"}},"type":"Feature"},
	{"geometry":{"coordinates":[7.481451,52.052137],"type":"Point"},"properties":{"osm_id":"8864424127","tag":{"amenity":"waste_basket","waste":"trash"}},"type":"Feature"}
]
}
