{
"type": "FeatureCollection",
"features": [
	{"geometry":{"coordinates":[7.556324,51.996705],"type":"Point"},"properties":{"osm_id":"271793938","tag":{"amenity":"recycling","mapillary":"CzcWUTXb7zvpnR2bZIiw7A","recycling:glass_bottles":"yes","recycling:small_appliances":"yes","recycling_type":"container"}},"type":"Feature"},
	{"geometry":{"coordinates":[7.553346,51.995488],"type":"Point"},"properties":{"osm_id":"293201597","tag":{"amenity":"recycling","check_date:recycling":"2021-06-03","mapillary":"ubLFI0FbVxQ6Mt3vNMrWWQ","recycling:glass_bottles":"yes","recycling_type":"container","survey:date":"2017-05-31"}},"type":"Feature"},
	{"geometry":{"coordinates":[7.53059,51.951352],"type":"Point"},"properties":{"osm_id":"418337765","tag":{"amenity":"recycling","location":"overground","recycling:clothes":"yes","recycling:glass_bottles":"yes","recycling:shoes":"yes","recycling_type":"container"}},"type":"Feature"},
	{"geometry":{"coordinates":[7.526468,51.949356],"type":"Point"},"properties":{"osm_id":"710864205","tag":{"amenity":"recycling","mapillary":"2oYKvSEmjxkW0oTPv9gQ9Q","recycling:glass":"yes","recycling_type":"container","survey:date":"2016-10-10"}},"type":"Feature"},
	{"geometry":{"coordinates":[7.535217,51.947147],"type":"Point"},"properties":{"name":"Recyclinghof Roxel","osm_id":"1903905705","tag":{"addr:city":"M\u00c3\u00bcnster","addr:housenumber":"66","addr:postcode":"48161","addr:street":"Nottulner Landweg","amenity":"recycling","opening_hours":"Mo,Th 12:00-19:00","recycling:batteries":"yes","recycling:cans":"yes","recycling:glass":"yes","recycling:paper":"yes","recycling:scrap_metal":"yes","recycling_type":"centre","website":"https://awm.stadt-muenster.de/wohin-mit-dem-abfall/recyclinghoefe.html","wheelchair":"limited"}},"type":"Feature"},
	{"geometry":{"coordinates":[7.547756,51.99396],"type":"Point"},"properties":{"osm_id":"2526397133","tag":{"amenity":"recycling","mapillary":"mdRRd3gIN3003UBatjTPQg","recycling:glass_bottles":"yes","recycling_type":"container"}},"type":"Feature"},
	{"geometry":{"coordinates":[7.547153,51.993939],"type":"Point"},"properties":{"osm_id":"2652454363","tag":{"amenity":"recycling","mapillary":"ZZ5lC4QMpbdkB5HZdCbfdA","recycling:clothes":"yes","recycling_type":"container"}},"type":"Feature"},
	{"geometry":{"coordinates":[7.54309,51.992909],"type":"Point"},"properties":{"barrier":"gate","osm_id":"2960271377"},"type":"Feature"},
	{"geometry":{"coordinates":[7.543406,51.993022],"type":"Point"},"properties":{"barrier":"gate","osm_id":"2960271380"},"type":"Feature"},
	{"geometry":{"coordinates":[7.548094,51.94562],"type":"Point"},"properties":{"osm_id":"4346640984","tag":{"amenity":"recycling","check_date:recycling":"2021-08-17","mapillary":"dMsCko2SFtOVT2p28shVDw","recycling:glass_bottles":"yes","recycling_type":"container"}},"type":"Feature"},
	{"geometry":{"coordinates":[7.541647,51.95473],"type":"Point"},"properties":{"osm_id":"4424287873","tag":{"amenity":"recycling","mapillary":"ljMXqIVxWc_EL0H52c58PA","recycling:glass":"no","recycling:glass_bottles":"yes","recycling_type":"container"}},"type":"Feature"},
	{"geometry":{"coordinates":[7.556307,51.996563],"type":"Point"},"properties":{"osm_id":"4993418864","tag":{"amenity":"waste_basket","mapillary":"a_ip3LcoP5lq5Y-WOvxr-g"}},"type":"Feature"},
	{"geometry":{"coordinates":[7.556244,51.990632],"type":"Point"},"properties":{"osm_id":"5022942266","tag":{"amenity":"waste_basket","mapillary":"lWH0TURENWcUC_YZUQim8w"}},"type":"Feature"},
	{"geometry":{"coordinates":[7.548135,51.94455],"type":"Point"},"properties":{"osm_id":"5045474937","tag":{"amenity":"recycling","mapillary":"oaiY-RlGDfgzGA9n3IsNBg","recycling:glass_bottles":"yes","recycling_type":"container"}},"type":"Feature"},
	{"geometry":{"coordinates":[7.526585,51.946163],"type":"Point"},"properties":{"osm_id":"7529728751","tag":{"amenity":"waste_basket"}},"type":"Feature"},
	{"geometry":{"coordinates":[7.526803,51.946024],"type":"Point"},"properties":{"osm_id":"7529728752","tag":{"amenity":"waste_basket"}},"type":"Feature"},
	{"geometry":{"coordinates":[7.526471,51.946236],"type":"Point"},"properties":{"osm_id":"7529728753","tag":{"amenity":"waste_basket"}},"type":"Feature"},
	{"geometry":{"coordinates":[7.5263,51.946335],"type":"Point"},"properties":{"osm_id":"7529728754","tag":{"amenity":"waste_basket"}},"type":"Feature"},
	{"geometry":{"coordinates":[7.526226,51.946369],"type":"Point"},"properties":{"osm_id":"7529728755","tag":{"amenity":"waste_basket"}},"type":"Feature"},
	{"geometry":{"coordinates":[7.536563,51.95694],"type":"Point"},"properties":{"osm_id":"8701126800","tag":{"amenity":"waste_basket","waste":"trash"}},"type":"Feature"},
	{"geometry":{"coordinates":[7.538365,51.957283],"type":"Point"},"properties":{"osm_id":"8701346981","tag":{"amenity":"waste_basket","waste":"trash"}},"type":"Feature"},
	{"geometry":{"coordinates":[7.53805,51.957348],"type":"Point"},"properties":{"osm_id":"8701346985","tag":{"amenity":"waste_basket","waste":"trash"}},"type":"Feature"},
	{"geometry":{"coordinates":[7.533573,51.953304],"type":"Point"},"properties":{"osm_id":"9026309742","tag":{"amenity":"recycling","recycling:clothes":"yes","recycling:glass_bottles":"yes","recycling:shoes":"yes","recycling:small_appliances":"yes","recycling_type":"container"}},"type":"Feature"},
	{"geometry":{"coordinates":[7.535233,51.953812],"type":"Point"},"properties":{"osm_id":"9026457920","tag":{"amenity":"recycling","recycling:clothes":"yes","recycling_type":"container"}},"type":"Feature"},
	{"geometry":{"coordinates":[7.53811,51.955174],"type":"Point"},"properties":{"osm_id":"9026710788","tag":{"amenity":"recycling","operator":"DRK-Kreisverband M\u00c3\u00bcnster e.V.","recycling:clothes":"yes","recycling_type":"container"}},"type":"Feature"}
]
}
