{
"type": "FeatureCollection",
"features": [
	{"geometry":{"coordinates":[7.482534,51.690606],"type":"Point"},"properties":{"name":"Recycling Station","osm_id":"1398975937","tag":{"amenity":"recycling","recycling_type":"centre"}},"type":"Feature"},
	{"geometry":{"coordinates":[7.496905,51.702583],"type":"Point"},"properties":{"osm_id":"1469912188","tag":{"amenity":"recycling","recycling:glass":"yes"}},"type":"Feature"},
	{"geometry":{"coordinates":[7.481665,51.692472],"type":"Point"},"properties":{"osm_id":"5718241626","tag":{"amenity":"waste_basket"}},"type":"Feature"},
	{"geometry":{"coordinates":[7.473913,51.68271],"type":"Point"},"properties":{"osm_id":"6551556550","tag":{"amenity":"waste_basket"}},"type":"Feature"},
	{"geometry":{"coordinates":[7.549573,51.709765],"type":"Point"},"properties":{"osm_id":"7200474063","tag":{"amenity":"waste_basket","waste":"trash"}},"type":"Feature"},
	{"geometry":{"coordinates":[7.547405,51.719956],"type":"Point"},"properties":{"osm_id":"7614501812","tag":{"amenity":"waste_basket","waste":"trash"}},"type":"Feature"},
	{"geometry":{"coordinates":[7.541595,51.712418],"type":"Point"},"properties":{"osm_id":"8097833289","tag":{"amenity":"recycling","opening_hours":"07:00-20:00","recycling:glass_bottles":"yes","recycling:scrap_metal":"yes","recycling:small_electrical_appliances":"yes","recycling_type":"container"}},"type":"Feature"},
	{"geometry":{"coordinates":[7.536943,51.704288],"type":"Point"},"properties":{"osm_id":"8097857628","tag":{"amenity":"recycling","recycling:glass_bottles":"yes","recycling_type":"container"}},"type":"Feature"}
]
}
