{
"type": "FeatureCollection",
"features": [
	{"geometry":{"coordinates":[7.520165,51.521711],"type":"Point"},"properties":{"osm_id":"299251825","tag":{"amenity":"recycling","location":"overground","recycling:glass_bottles":"yes","recycling_type":"container"}},"type":"Feature"},
	{"geometry":{"coordinates":[7.520208,51.521718],"type":"Point"},"properties":{"osm_id":"299251826","tag":{"amenity":"recycling","location":"overground","recycling:glass_bottles":"yes","recycling_type":"container"}},"type":"Feature"},
	{"geometry":{"coordinates":[7.52564,51.509179],"type":"Point"},"properties":{"osm_id":"351124874","tag":{"amenity":"recycling","location":"overground","recycling:glass_bottles":"yes","recycling:paper":"yes","recycling_type":"container"}},"type":"Feature"},
	{"geometry":{"coordinates":[7.529855,51.510026],"type":"Point"},"properties":{"osm_id":"351124926","tag":{"amenity":"recycling","location":"overground","recycling:glass_bottles":"yes","recycling:paper":"yes","recycling_type":"container"}},"type":"Feature"},
	{"geometry":{"coordinates":[7.519921,51.510576],"type":"Point"},"properties":{"osm_id":"357191886","tag":{"amenity":"recycling","location":"overground","recycling:glass_bottles":"yes","recycling:paper":"yes","recycling_type":"container"}},"type":"Feature"},
	{"geometry":{"coordinates":[7.508084,51.521568],"type":"Point"},"properties":{"osm_id":"385309712","tag":{"amenity":"recycling"}},"type":"Feature"},
	{"geometry":{"coordinates":[7.507138,51.519292],"type":"Point"},"properties":{"osm_id":"392228922","tag":{"amenity":"recycling","location":"overground","recycling:glass_bottles":"yes","recycling_type":"container"}},"type":"Feature"},
	{"geometry":{"coordinates":[7.509045,51.510477],"type":"Point"},"properties":{"osm_id":"413988330","tag":{"amenity":"recycling","location":"overground","recycling:glass":"no","recycling:glass_bottles":"yes","recycling:paper":"yes","recycling_type":"container"}},"type":"Feature"},
	{"geometry":{"coordinates":[7.508034,51.513335],"type":"Point"},"properties":{"osm_id":"413991775","tag":{"amenity":"recycling","location":"overground","recycling:glass":"no","recycling:glass_bottles":"yes","recycling:paper":"yes","recycling_type":"container"}},"type":"Feature"},
	{"geometry":{"coordinates":[7.53679,51.525918],"type":"Point"},"properties":{"osm_id":"427513433","tag":{"amenity":"recycling","recycling:glass_bottles":"yes","recycling:paper":"yes"}},"type":"Feature"},
	{"geometry":{"coordinates":[7.501189,51.510496],"type":"Point"},"properties":{"osm_id":"442885416","tag":{"amenity":"recycling","location":"overground","recycling:glass_bottles":"yes","recycling:paper":"yes","recycling_type":"container"}},"type":"Feature"},
	{"geometry":{"coordinates":[7.500347,51.513613],"type":"Point"},"properties":{"osm_id":"442885419","tag":{"amenity":"recycling","location":"overground","recycling:clothes":"yes","recycling:glass_bottles":"yes","recycling:paper":"yes","recycling:shoes":"yes","recycling_type":"container"}},"type":"Feature"},
	{"geometry":{"coordinates":[7.483989,51.509947],"type":"Point"},"properties":{"osm_id":"453468346","tag":{"amenity":"recycling","location":"overground","recycling:clothes":"yes","recycling:glass_bottles":"yes","recycling:paper":"yes","recycling_type":"container"}},"type":"Feature"},
	{"geometry":{"coordinates":[7.523426,51.520288],"type":"Point"},"properties":{"osm_id":"456315008","tag":{"amenity":"recycling","location":"overground","recycling:glass_bottles":"yes","recycling:paper":"yes","recycling_type":"container"}},"type":"Feature"},
	{"geometry":{"coordinates":[7.526707,51.518967],"type":"Point"},"properties":{"osm_id":"456315009","tag":{"amenity":"recycling","location":"overground","recycling:glass_bottles":"yes","recycling:paper":"yes","recycling_type":"container"}},"type":"Feature"},
	{"geometry":{"coordinates":[7.507272,51.51166],"type":"Point"},"properties":{"osm_id":"462099040","tag":{"amenity":"recycling","location":"overground","recycling:glass":"no","recycling:glass_bottles":"yes","recycling:paper":"yes","recycling_type":"container"}},"type":"Feature"},
	{"geometry":{"coordinates":[7.504498,51.518368],"type":"Point"},"properties":{"osm_id":"465197289","tag":{"amenity":"recycling","location":"overground","recycling:clothes":"yes","recycling:glass_bottles":"yes","recycling:paper":"yes","recycling_type":"container"}},"type":"Feature"},
	{"geometry":{"coordinates":[7.487906,51.515929],"type":"Point"},"properties":{"osm_id":"476294561","tag":{"amenity":"recycling","recycling:glass_bottles":"yes","recycling:paper":"yes","recycling_type":"container"}},"type":"Feature"},
	{"geometry":{"coordinates":[7.473526,51.509233],"type":"Point"},"properties":{"osm_id":"513059659","tag":{"amenity":"recycling"}},"type":"Feature"},
	{"geometry":{"coordinates":[7.486532,51.552596],"type":"Point"},"properties":{"osm_id":"546824123","tag":{"amenity":"recycling"}},"type":"Feature"},
	{"geometry":{"coordinates":[7.472324,51.560425],"type":"Point"},"properties":{"osm_id":"553220924","tag":{"amenity":"waste_basket"}},"type":"Feature"},
	{"geometry":{"coordinates":[7.471972,51.560846],"type":"Point"},"properties":{"osm_id":"553220934","tag":{"amenity":"waste_basket"}},"type":"Feature"},
	{"geometry":{"coordinates":[7.472361,51.563399],"type":"Point"},"properties":{"osm_id":"553410961","tag":{"amenity":"waste_basket"}},"type":"Feature"},
	{"geometry":{"coordinates":[7.523289,51.521137],"type":"Point"},"properties":{"osm_id":"589994435","tag":{"amenity":"recycling","location":"overground","recycling_type":"container"}},"type":"Feature"},
	{"geometry":{"coordinates":[7.538662,51.522798],"type":"Point"},"properties":{"osm_id":"589994443","tag":{"amenity":"recycling"}},"type":"Feature"},
	{"geometry":{"coordinates":[7.495146,51.510971],"type":"Point"},"properties":{"osm_id":"599598124","tag":{"amenity":"recycling","location":"overground","recycling:clothes":"yes","recycling:glass":"no","recycling:glass_bottles":"yes","recycling:paper":"yes","recycling_type":"container"}},"type":"Feature"},
	{"geometry":{"coordinates":[7.503359,51.514524],"type":"Point"},"properties":{"osm_id":"599598132","tag":{"amenity":"recycling","location":"overground","recycling:clothes":"yes","recycling:glass_bottles":"yes","recycling:paper":"yes","recycling:shoes":"yes","recycling_type":"container"}},"type":"Feature"},
	{"geometry":{"coordinates":[7.510664,51.513272],"type":"Point"},"properties":{"osm_id":"599598134","tag":{"amenity":"recycling","location":"overground","recycling:glass_bottles":"yes","recycling:paper":"yes","recycling_type":"container"}},"type":"Feature"},
	{"geometry":{"coordinates":[7.498662,51.514914],"type":"Point"},"properties":{"osm_id":"599598135","tag":{"amenity":"recycling","location":"overground","recycling:clothes":"yes","recycling:glass_bottles":"yes","recycling:paper":"yes","recycling:shoes":"yes","recycling_type":"container"}},"type":"Feature"},
	{"geometry":{"coordinates":[7.544904,51.531432],"type":"Point"},"properties":{"osm_id":"603659621","tag":{"amenity":"recycling"}},"type":"Feature"},
	{"geometry":{"coordinates":[7.543997,51.533146],"type":"Point"},"properties":{"osm_id":"603659625","tag":{"amenity":"recycling"}},"type":"Feature"},
	{"geometry":{"coordinates":[7.550496,51.55052],"type":"Point"},"properties":{"osm_id":"675625868","tag":{"amenity":"recycling"}},"type":"Feature"},
	{"geometry":{"coordinates":[7.550436,51.5506],"type":"Point"},"properties":{"osm_id":"675625904","tag":{"amenity":"recycling"}},"type":"Feature"},
	{"geometry":{"coordinates":[7.523152,51.546908],"type":"Point"},"properties":{"osm_id":"675640760","tag":{"amenity":"recycling","recycling:glass_bottles":"yes","recycling:paper":"yes"}},"type":"Feature"},
	{"geometry":{"coordinates":[7.548888,51.549092],"type":"Point"},"properties":{"osm_id":"675642198","tag":{"amenity":"recycling"}},"type":"Feature"},
	{"geometry":{"coordinates":[7.548676,51.548887],"type":"Point"},"properties":{"osm_id":"675642199","tag":{"amenity":"recycling"}},"type":"Feature"},
	{"geometry":{"coordinates":[7.547828,51.550105],"type":"Point"},"properties":{"osm_id":"675642200","tag":{"amenity":"recycling"}},"type":"Feature"},
	{"geometry":{"coordinates":[7.54959,51.549401],"type":"Point"},"properties":{"osm_id":"675642205","tag":{"amenity":"recycling"}},"type":"Feature"},
	{"geometry":{"coordinates":[7.549578,51.549695],"type":"Point"},"properties":{"osm_id":"675642208","tag":{"amenity":"recycling"}},"type":"Feature"},
	{"geometry":{"coordinates":[7.549244,51.549728],"type":"Point"},"properties":{"osm_id":"675642209","tag":{"amenity":"recycling"}},"type":"Feature"},
	{"geometry":{"coordinates":[7.551539,51.551525],"type":"Point"},"properties":{"osm_id":"675642237","tag":{"amenity":"recycling"}},"type":"Feature"},
	{"geometry":{"coordinates":[7.548059,51.551457],"type":"Point"},"properties":{"osm_id":"675703426","tag":{"amenity":"recycling"}},"type":"Feature"},
	{"geometry":{"coordinates":[7.55612,51.521555],"type":"Point"},"properties":{"osm_id":"676047459","tag":{"amenity":"recycling","location":"overground","recycling:clothes":"yes","recycling:glass_bottles":"yes","recycling:paper":"yes","recycling_type":"container"}},"type":"Feature"},
	{"geometry":{"coordinates":[7.549501,51.552212],"type":"Point"},"properties":{"osm_id":"676258400","tag":{"amenity":"recycling"}},"type":"Feature"},
	{"geometry":{"coordinates":[7.548032,51.554108],"type":"Point"},"properties":{"osm_id":"680013913","tag":{"amenity":"recycling"}},"type":"Feature"},
	{"geometry":{"coordinates":[7.549508,51.554074],"type":"Point"},"properties":{"osm_id":"680013915","tag":{"amenity":"recycling"}},"type":"Feature"},
	{"geometry":{"coordinates":[7.54832,51.555007],"type":"Point"},"properties":{"osm_id":"680013944","tag":{"amenity":"recycling"}},"type":"Feature"},
	{"geometry":{"coordinates":[7.548841,51.555024],"type":"Point"},"properties":{"osm_id":"680013945","tag":{"amenity":"recycling"}},"type":"Feature"},
	{"geometry":{"coordinates":[7.549087,51.55501],"type":"Point"},"properties":{"osm_id":"680013946","tag":{"amenity":"recycling"}},"type":"Feature"},
	{"geometry":{"coordinates":[7.549376,51.555004],"type":"Point"},"properties":{"osm_id":"680013947","tag":{"amenity":"recycling"}},"type":"Feature"},
	{"geometry":{"coordinates":[7.549748,51.555004],"type":"Point"},"properties":{"osm_id":"680054837","tag":{"amenity":"recycling"}},"type":"Feature"},
	{"geometry":{"coordinates":[7.549024,51.55593],"type":"Point"},"properties":{"osm_id":"680054892","tag":{"amenity":"recycling"}},"type":"Feature"},
	{"geometry":{"coordinates":[7.549757,51.553649],"type":"Point"},"properties":{"osm_id":"680061544","tag":{"amenity":"recycling"}},"type":"Feature"},
	{"geometry":{"coordinates":[7.548018,51.555389],"type":"Point"},"properties":{"osm_id":"680061594","tag":{"amenity":"recycling"}},"type":"Feature"},
	{"geometry":{"coordinates":[7.547854,51.555211],"type":"Point"},"properties":{"osm_id":"680061595","tag":{"amenity":"recycling"}},"type":"Feature"},
	{"geometry":{"coordinates":[7.550766,51.553557],"type":"Point"},"properties":{"osm_id":"680061632","tag":{"amenity":"recycling"}},"type":"Feature"},
	{"geometry":{"coordinates":[7.546219,51.557606],"type":"Point"},"properties":{"osm_id":"680116871","tag":{"amenity":"recycling"}},"type":"Feature"},
	{"geometry":{"coordinates":[7.547019,51.556232],"type":"Point"},"properties":{"osm_id":"680157397","tag":{"amenity":"recycling"}},"type":"Feature"},
	{"geometry":{"coordinates":[7.539383,51.55193],"type":"Point"},"properties":{"osm_id":"685774196","tag":{"amenity":"recycling"}},"type":"Feature"},
	{"geometry":{"coordinates":[7.539386,51.551003],"type":"Point"},"properties":{"osm_id":"685786077","tag":{"amenity":"recycling"}},"type":"Feature"},
	{"geometry":{"coordinates":[7.540568,51.55064],"type":"Point"},"properties":{"osm_id":"685786078","tag":{"amenity":"recycling"}},"type":"Feature"},
	{"geometry":{"coordinates":[7.542274,51.551407],"type":"Point"},"properties":{"osm_id":"685786122","tag":{"amenity":"recycling"}},"type":"Feature"},
	{"geometry":{"coordinates":[7.518975,51.519276],"type":"Point"},"properties":{"osm_id":"686602390","tag":{"amenity":"waste_basket"}},"type":"Feature"},
	{"geometry":{"coordinates":[7.48628,51.511666],"type":"Point"},"properties":{"osm_id":"724228565","tag":{"amenity":"recycling","location":"overground","recycling:glass_bottles":"yes","recycling:paper":"yes","recycling_type":"container"}},"type":"Feature"},
	{"geometry":{"coordinates":[7.472834,51.512265],"type":"Point"},"properties":{"osm_id":"729528038","tag":{"amenity":"recycling","recycling:glass_bottles":"yes","recycling:paper":"yes"}},"type":"Feature"},
	{"geometry":{"coordinates":[7.472567,51.515332],"type":"Point"},"properties":{"osm_id":"730863069","tag":{"amenity":"recycling","recycling:glass_bottles":"yes","recycling_type":"container"}},"type":"Feature"},
	{"geometry":{"coordinates":[7.482884,51.558525],"type":"Point"},"properties":{"osm_id":"765755965","tag":{"amenity":"recycling"}},"type":"Feature"},
	{"geometry":{"coordinates":[7.483452,51.513022],"type":"Point"},"properties":{"osm_id":"855013163","tag":{"amenity":"recycling","recycling:glass_bottles":"yes","recycling:paper":"yes","recycling_type":"container"}},"type":"Feature"},
	{"geometry":{"coordinates":[7.486209,51.524156],"type":"Point"},"properties":{"osm_id":"937497025","tag":{"amenity":"recycling","location":"overground","recycling:glass_bottles":"yes","recycling_type":"container"}},"type":"Feature"},
	{"geometry":{"coordinates":[7.494926,51.51776],"type":"Point"},"properties":{"osm_id":"1227615946","tag":{"amenity":"recycling","location":"overground","recycling:clothes":"yes","recycling_type":"container"}},"type":"Feature"},
	{"geometry":{"coordinates":[7.472484,51.5136],"type":"Point"},"properties":{"osm_id":"1245375589","tag":{"amenity":"recycling"}},"type":"Feature"},
	{"geometry":{"coordinates":[7.477785,51.525024],"type":"Point"},"properties":{"osm_id":"1247444056","tag":{"amenity":"recycling","recycling:glass_bottles":"yes","recycling:paper":"yes","recycling_type":"container"}},"type":"Feature"},
	{"geometry":{"coordinates":[7.479232,51.525706],"type":"Point"},"properties":{"osm_id":"1247444069","tag":{"amenity":"recycling","recycling:glass_bottles":"yes","recycling:paper":"yes","recycling_type":"container"}},"type":"Feature"},
	{"geometry":{"coordinates":[7.474748,51.52462],"type":"Point"},"properties":{"osm_id":"1247746352","tag":{"amenity":"recycling","recycling:clothes":"yes","recycling:glass_bottles":"yes","recycling:paper":"yes","recycling_type":"container"}},"type":"Feature"},
	{"geometry":{"coordinates":[7.473473,51.521402],"type":"Point"},"properties":{"osm_id":"1256319437","tag":{"amenity":"recycling","recycling:clothes":"yes","recycling:glass_bottles":"yes","recycling:paper":"yes","recycling_type":"container"}},"type":"Feature"},
	{"geometry":{"coordinates":[7.547672,51.522566],"type":"Point"},"properties":{"osm_id":"1261017665","tag":{"amenity":"recycling","location":"overground","recycling:glass_bottles":"yes","recycling_type":"container"}},"type":"Feature"},
	{"geometry":{"coordinates":[7.473868,51.511594],"type":"Point"},"properties":{"osm_id":"1564218220","tag":{"amenity":"waste_basket"}},"type":"Feature"},
	{"geometry":{"coordinates":[7.554484,51.511791],"type":"Point"},"properties":{"osm_id":"1885291466","tag":{"amenity":"recycling","operator":"Kolpingwerk","recycling:clothes":"yes","recycling_type":"container"}},"type":"Feature"},
	{"geometry":{"coordinates":[7.557577,51.512957],"type":"Point"},"properties":{"osm_id":"2098623816","tag":{"amenity":"recycling","recycling:glass_bottles":"yes","recycling:paper":"yes","recycling_type":"container"}},"type":"Feature"},
	{"geometry":{"coordinates":[7.555668,51.51269],"type":"Point"},"properties":{"osm_id":"2134653661","tag":{"amenity":"recycling","operator":"Kolpingwerk","recycling:clothes":"yes","recycling_type":"container"}},"type":"Feature"},
	{"geometry":{"coordinates":[7.47222,51.510527],"type":"Point"},"properties":{"osm_id":"2151605454","tag":{"amenity":"waste_basket"}},"type":"Feature"},
	{"geometry":{"coordinates":[7.525486,51.528983],"type":"Point"},"properties":{"osm_id":"2262619890","tag":{"amenity":"waste_basket"}},"type":"Feature"},
	{"geometry":{"coordinates":[7.525381,51.529168],"type":"Point"},"properties":{"osm_id":"2262620146","tag":{"amenity":"waste_basket"}},"type":"Feature"},
	{"geometry":{"coordinates":[7.525414,51.529108],"type":"Point"},"properties":{"osm_id":"2264914648","tag":{"amenity":"waste_basket"}},"type":"Feature"},
	{"geometry":{"coordinates":[7.495058,51.528699],"type":"Point"},"properties":{"osm_id":"2476289732","tag":{"amenity":"waste_basket"}},"type":"Feature"},
	{"geometry":{"coordinates":[7.495027,51.528672],"type":"Point"},"properties":{"osm_id":"2476943110","tag":{"amenity":"waste_basket"}},"type":"Feature"},
	{"geometry":{"coordinates":[7.495211,51.528936],"type":"Point"},"properties":{"osm_id":"2476943115","tag":{"amenity":"waste_basket"}},"type":"Feature"},
	{"geometry":{"coordinates":[7.495126,51.528997],"type":"Point"},"properties":{"osm_id":"2476943120","tag":{"amenity":"waste_basket"}},"type":"Feature"},
	{"geometry":{"coordinates":[7.474657,51.553036],"type":"Point"},"properties":{"osm_id":"2699667123","tag":{"amenity":"recycling","recycling:cans":"no","recycling:glass_bottles":"yes","recycling:paper":"yes"}},"type":"Feature"},
	{"geometry":{"coordinates":[7.522058,51.509237],"type":"Point"},"properties":{"osm_id":"3277448428","tag":{"amenity":"waste_basket"}},"type":"Feature"},
	{"geometry":{"coordinates":[7.522244,51.509097],"type":"Point"},"properties":{"osm_id":"3277448429","tag":{"amenity":"waste_basket"}},"type":"Feature"},
	{"geometry":{"coordinates":[7.536543,51.53264],"type":"Point"},"properties":{"osm_id":"3283051190","tag":{"amenity":"waste_basket"}},"type":"Feature"},
	{"geometry":{"coordinates":[7.550551,51.523943],"type":"Point"},"properties":{"osm_id":"3467388064","tag":{"amenity":"recycling"}},"type":"Feature"},
	{"geometry":{"coordinates":[7.511785,51.512758],"type":"Point"},"properties":{"osm_id":"3612604071","tag":{"amenity":"waste_basket"}},"type":"Feature"},
	{"geometry":{"coordinates":[7.473732,51.522679],"type":"Point"},"properties":{"osm_id":"3822460699","tag":{"amenity":"recycling","recycling:clothes":"yes","recycling:glass_bottles":"yes","recycling:paper":"yes","recycling_type":"container"}},"type":"Feature"},
	{"geometry":{"coordinates":[7.501451,51.519576],"type":"Point"},"properties":{"osm_id":"4315387143","tag":{"amenity":"recycling","location":"overground","recycling:glass_bottles":"yes","recycling:paper":"yes","recycling_type":"container"}},"type":"Feature"},
	{"geometry":{"coordinates":[7.474813,51.535453],"type":"Point"},"properties":{"osm_id":"5354749866","tag":{"amenity":"waste_basket"}},"type":"Feature"},
	{"geometry":{"coordinates":[7.474894,51.535762],"type":"Point"},"properties":{"osm_id":"5354773849","tag":{"amenity":"waste_basket"}},"type":"Feature"},
	{"geometry":{"coordinates":[7.474727,51.535777],"type":"Point"},"properties":{"osm_id":"5354773954","tag":{"amenity":"waste_basket"}},"type":"Feature"},
	{"geometry":{"coordinates":[7.474643,51.535464],"type":"Point"},"properties":{"osm_id":"5354774128","tag":{"amenity":"waste_basket"}},"type":"Feature"},
	{"geometry":{"coordinates":[7.529392,51.533098],"type":"Point"},"properties":{"name":"Recyclinghof Wambel","osm_id":"5928296080","tag":{"addr:city":"Dortmund","addr:housenumber":"13","addr:postcode":"44309","addr:street":"Oberste-Wilms-Stra\u00dfe","amenity":"recycling","description":"Gr\u00f6\u00dfere Mengen Kompost als lose Ware erh\u00e4ltlich.","email":"info@edg.de","opening_hours":"Tu 08:30-17:00; We-Fr 09:00-17:00; Sa 08:00-13:30; Su,Mo,PH off","operator":"Entsorgung Dortmund GmbH","payment:cash":"yes","payment:girocard":"yes","payment:maestro":"yes","phone":"+49 231 9111 111","recycling:aluminium":"yes","recycling:batteries":"yes","recycling:cans":"yes","recycling:cardboard":"yes","recycling:cartons":"yes","recycling:clothes":"yes","recycling:electrical_appliances":"yes","recycling:glass":"yes","recycling:green_waste":"yes","recycling:organic":"yes","recycling:paper":"yes","recycling:paper_packaging":"yes","recycling:plastic":"yes","recycling:plastic_packaging":"yes","recycling:scrap_metal":"yes","recycling:shoes":"yes","recycling:small_appliances":"yes","recycling:waste":"yes","recycling:wood":"yes","recycling_type":"centre","website":"https://www.edg.de/de/edg-konzern/betriebe-und-anlagen/recyclinghoefe.htm"}},"type":"Feature"},
	{"geometry":{"coordinates":[7.479324,51.541358],"type":"Point"},"properties":{"osm_id":"6179686157","tag":{"amenity":"recycling","recycling_type":"container"}},"type":"Feature"},
	{"geometry":{"coordinates":[7.474964,51.557559],"type":"Point"},"properties":{"osm_id":"6245528859","tag":{"amenity":"recycling","recycling_type":"container"}},"type":"Feature"},
	{"geometry":{"coordinates":[7.482777,51.55635],"type":"Point"},"properties":{"osm_id":"6245549993","tag":{"amenity":"recycling","recycling_type":"container"}},"type":"Feature"},
	{"geometry":{"coordinates":[7.472299,51.513536],"type":"Point"},"properties":{"osm_id":"6985466886","tag":{"amenity":"waste_basket"}},"type":"Feature"},
	{"geometry":{"coordinates":[7.472122,51.512798],"type":"Point"},"properties":{"osm_id":"6985466887","tag":{"amenity":"waste_basket"}},"type":"Feature"},
	{"geometry":{"coordinates":[7.472235,51.51264],"type":"Point"},"properties":{"osm_id":"6985466888","tag":{"amenity":"waste_basket"}},"type":"Feature"},
	{"geometry":{"coordinates":[7.540434,51.511841],"type":"Point"},"properties":{"osm_id":"6992715620","tag":{"amenity":"waste_basket"}},"type":"Feature"},
	{"geometry":{"coordinates":[7.515902,51.560353],"type":"Point"},"properties":{"osm_id":"7214945084","tag":{"amenity":"recycling","recycling_type":"container"}},"type":"Feature"},
	{"geometry":{"coordinates":[7.519816,51.517906],"type":"Point"},"properties":{"osm_id":"7216784461","tag":{"amenity":"waste_basket","waste":"litter"}},"type":"Feature"},
	{"geometry":{"coordinates":[7.519701,51.517956],"type":"Point"},"properties":{"osm_id":"7216784463","tag":{"amenity":"waste_basket","waste":"litter"}},"type":"Feature"},
	{"geometry":{"coordinates":[7.519552,51.518522],"type":"Point"},"properties":{"osm_id":"7216784465","tag":{"amenity":"waste_basket","waste":"litter"}},"type":"Feature"},
	{"geometry":{"coordinates":[7.519422,51.518979],"type":"Point"},"properties":{"osm_id":"7216784467","tag":{"amenity":"waste_basket","waste":"litter"}},"type":"Feature"},
	{"geometry":{"coordinates":[7.519422,51.518892],"type":"Point"},"properties":{"osm_id":"7216784468","tag":{"amenity":"waste_basket","waste":"litter"}},"type":"Feature"},
	{"geometry":{"coordinates":[7.518536,51.520045],"type":"Point"},"properties":{"osm_id":"7216784471","tag":{"amenity":"waste_basket","waste":"litter"}},"type":"Feature"},
	{"geometry":{"coordinates":[7.484096,51.554945],"type":"Point"},"properties":{"osm_id":"7366997721","tag":{"amenity":"recycling","recycling_type":"container"}},"type":"Feature"},
	{"geometry":{"coordinates":[7.539256,51.556961],"type":"Point"},"properties":{"osm_id":"7402459443","tag":{"amenity":"recycling","recycling_type":"container"}},"type":"Feature"},
	{"geometry":{"coordinates":[7.535979,51.52045],"type":"Point"},"properties":{"osm_id":"7499371696","tag":{"amenity":"recycling","recycling_type":"container"}},"type":"Feature"},
	{"geometry":{"coordinates":[7.538617,51.518754],"type":"Point"},"properties":{"osm_id":"7602010681","tag":{"amenity":"waste_basket","waste":"dog_excrement"}},"type":"Feature"},
	{"geometry":{"coordinates":[7.53809,51.518689],"type":"Point"},"properties":{"osm_id":"7602010682","tag":{"amenity":"waste_basket","waste":"dog_excrement"}},"type":"Feature"},
	{"geometry":{"coordinates":[7.536169,51.518434],"type":"Point"},"properties":{"osm_id":"7602063146","tag":{"amenity":"waste_basket","waste":"trash"}},"type":"Feature"}
]
}
