{
"type": "FeatureCollection",
"features": [
	{"geometry":{"coordinates":[7.495759,51.347776],"type":"Point"},"properties":{"osm_id":"259832716","tag":{"amenity":"recycling"}},"type":"Feature"},
	{"geometry":{"coordinates":[7.507532,51.362668],"type":"Point"},"properties":{"highway":"turning_circle","osm_id":"292621989","tag":{"amenity":"recycling","recycling:clothes":"yes","recycling:glass_bottles":"yes","recycling:paper":"yes"}},"type":"Feature"},
	{"geometry":{"coordinates":[7.49697,51.368388],"type":"Point"},"properties":{"osm_id":"301013180","tag":{"amenity":"recycling","location":"overground","operator":"Deutsches Rotes Kreuz","recycling:clothes":"yes","recycling_type":"container"}},"type":"Feature"},
	{"geometry":{"coordinates":[7.482724,51.397541],"type":"Point"},"properties":{"osm_id":"346316328","tag":{"amenity":"recycling","recycling:paper":"yes","recycling:scrap_metal":"yes","recycling_type":"container"}},"type":"Feature"},
	{"geometry":{"coordinates":[7.481203,51.392493],"type":"Point"},"properties":{"osm_id":"347044877","tag":{"amenity":"recycling","recycling:glass_bottles":"yes","recycling:paper":"yes","recycling:scrap_metal":"no","recycling_type":"container"}},"type":"Feature"},
	{"geometry":{"coordinates":[7.486307,51.393066],"type":"Point"},"properties":{"osm_id":"347045051","tag":{"amenity":"recycling","recycling:clothes":"yes","recycling:glass":"yes","recycling:glass_bottles":"yes","recycling:paper":"yes","recycling:scrap_metal":"no","recycling_type":"container"}},"type":"Feature"},
	{"geometry":{"coordinates":[7.498713,51.388071],"type":"Point"},"properties":{"osm_id":"347045410","tag":{"amenity":"recycling","recycling:clothes":"yes","recycling:glass_bottles":"yes"}},"type":"Feature"},
	{"geometry":{"coordinates":[7.507229,51.356106],"type":"Point"},"properties":{"osm_id":"349245143","tag":{"amenity":"recycling","recycling:glass_bottles":"yes","recycling:paper":"yes"}},"type":"Feature"},
	{"geometry":{"coordinates":[7.494485,51.372875],"type":"Point"},"properties":{"osm_id":"359390672","tag":{"amenity":"recycling","recycling:clothes":"yes","recycling:glass":"no","recycling:glass_bottles":"yes","recycling:paper":"yes","recycling_type":"container"}},"type":"Feature"},
	{"geometry":{"coordinates":[7.479526,51.367804],"type":"Point"},"properties":{"osm_id":"439324452","tag":{"amenity":"recycling"}},"type":"Feature"},
	{"geometry":{"coordinates":[7.491629,51.362323],"type":"Point"},"properties":{"osm_id":"510613002","tag":{"amenity":"recycling","recycling:glass_bottles":"yes","recycling:paper":"yes","recycling_type":"container"}},"type":"Feature"},
	{"geometry":{"coordinates":[7.479017,51.354658],"type":"Point"},"properties":{"osm_id":"543370228","tag":{"amenity":"recycling","recycling:clothes":"yes","recycling:glass_bottles":"yes","recycling:paper":"yes","recycling_type":"container"}},"type":"Feature"},
	{"geometry":{"coordinates":[7.487446,51.377355],"type":"Point"},"properties":{"osm_id":"837616974","tag":{"amenity":"waste_disposal"}},"type":"Feature"},
	{"geometry":{"coordinates":[7.487775,51.378125],"type":"Point"},"properties":{"osm_id":"1014508783","tag":{"amenity":"recycling","recycling:clothes":"yes"}},"type":"Feature"},
	{"geometry":{"coordinates":[7.490618,51.36953],"type":"Point"},"properties":{"osm_id":"1073820186","tag":{"amenity":"recycling","recycling:clothes":"yes","recycling:glass_bottles":"yes"}},"type":"Feature"},
	{"geometry":{"coordinates":[7.471337,51.378568],"type":"Point"},"properties":{"barrier":"gate","osm_id":"1097782508"},"type":"Feature"},
	{"geometry":{"coordinates":[7.471881,51.378946],"type":"Point"},"properties":{"barrier":"gate","osm_id":"1097803800"},"type":"Feature"},
	{"geometry":{"coordinates":[7.497286,51.368268],"type":"Point"},"properties":{"osm_id":"1145306844","tag":{"amenity":"waste_basket"}},"type":"Feature"},
	{"geometry":{"coordinates":[7.490604,51.392622],"type":"Point"},"properties":{"osm_id":"1230834439","tag":{"amenity":"waste_basket"}},"type":"Feature"},
	{"geometry":{"coordinates":[7.484008,51.395436],"type":"Point"},"properties":{"osm_id":"1230834653","tag":{"amenity":"waste_basket"}},"type":"Feature"},
	{"geometry":{"coordinates":[7.490419,51.394599],"type":"Point"},"properties":{"osm_id":"1230834983","tag":{"amenity":"waste_basket"}},"type":"Feature"},
	{"geometry":{"coordinates":[7.484715,51.391198],"type":"Point"},"properties":{"osm_id":"1237301692","tag":{"amenity":"waste_basket"}},"type":"Feature"},
	{"geometry":{"coordinates":[7.481703,51.363829],"type":"Point"},"properties":{"osm_id":"1251020515","tag":{"amenity":"recycling","recycling:glass_bottles":"yes","recycling:paper":"yes","recycling_type":"container"}},"type":"Feature"},
	{"geometry":{"coordinates":[7.486308,51.392135],"type":"Point"},"properties":{"osm_id":"1306153128","tag":{"amenity":"waste_basket"}},"type":"Feature"},
	{"geometry":{"coordinates":[7.483099,51.392229],"type":"Point"},"properties":{"osm_id":"1306153129","tag":{"amenity":"waste_basket"}},"type":"Feature"},
	{"geometry":{"coordinates":[7.484523,51.391944],"type":"Point"},"properties":{"osm_id":"1306153157","tag":{"amenity":"waste_basket"}},"type":"Feature"},
	{"geometry":{"coordinates":[7.472886,51.381157],"type":"Point"},"properties":{"osm_id":"1345206224","tag":{"amenity":"waste_basket"}},"type":"Feature"},
	{"geometry":{"coordinates":[7.471508,51.38041],"type":"Point"},"properties":{"osm_id":"1345206346","tag":{"amenity":"waste_basket"}},"type":"Feature"},
	{"geometry":{"coordinates":[7.472036,51.379805],"type":"Point"},"properties":{"osm_id":"1345206372","tag":{"amenity":"waste_basket"}},"type":"Feature"},
	{"geometry":{"coordinates":[7.471317,51.379982],"type":"Point"},"properties":{"osm_id":"1345206413","tag":{"amenity":"waste_basket"}},"type":"Feature"},
	{"geometry":{"coordinates":[7.475988,51.381156],"type":"Point"},"properties":{"osm_id":"1345206467","tag":{"amenity":"waste_basket"}},"type":"Feature"},
	{"geometry":{"coordinates":[7.471124,51.38382],"type":"Point"},"properties":{"osm_id":"1429308338","tag":{"amenity":"waste_basket"}},"type":"Feature"},
	{"geometry":{"coordinates":[7.472531,51.38454],"type":"Point"},"properties":{"osm_id":"1429308340","tag":{"amenity":"waste_basket"}},"type":"Feature"},
	{"geometry":{"coordinates":[7.483316,51.39169],"type":"Point"},"properties":{"osm_id":"1436695657","tag":{"amenity":"recycling","recycling:waste":"yes","recycling_type":"container"}},"type":"Feature"},
	{"geometry":{"coordinates":[7.479254,51.37724],"type":"Point"},"properties":{"osm_id":"1447951510","tag":{"amenity":"recycling","recycling:clothes":"yes","recycling_type":"container"}},"type":"Feature"},
	{"geometry":{"coordinates":[7.470971,51.38084],"type":"Point"},"properties":{"osm_id":"1700925077","tag":{"amenity":"waste_basket"}},"type":"Feature"},
	{"geometry":{"coordinates":[7.476865,51.381962],"type":"Point"},"properties":{"osm_id":"1700925247","tag":{"amenity":"waste_basket"}},"type":"Feature"},
	{"geometry":{"coordinates":[7.477226,51.381971],"type":"Point"},"properties":{"osm_id":"1700925273","tag":{"amenity":"waste_basket"}},"type":"Feature"},
	{"geometry":{"coordinates":[7.487829,51.39285],"type":"Point"},"properties":{"osm_id":"1715251073","tag":{"amenity":"waste_basket"}},"type":"Feature"},
	{"geometry":{"coordinates":[7.484708,51.392829],"type":"Point"},"properties":{"osm_id":"1731231226","tag":{"access":"private","amenity":"recycling","recycling:glass_bottles":"yes","recycling:paper":"yes","recycling_type":"container"}},"type":"Feature"},
	{"geometry":{"coordinates":[7.486827,51.391661],"type":"Point"},"properties":{"osm_id":"1752630107","tag":{"amenity":"recycling","recycling_type":"container"}},"type":"Feature"},
	{"geometry":{"coordinates":[7.489476,51.394195],"type":"Point"},"properties":{"osm_id":"1757182394","tag":{"amenity":"waste_basket"}},"type":"Feature"},
	{"geometry":{"coordinates":[7.483309,51.393098],"type":"Point"},"properties":{"osm_id":"1763181513","tag":{"access":"private","amenity":"waste_basket"}},"type":"Feature"},
	{"geometry":{"coordinates":[7.488748,51.391952],"type":"Point"},"properties":{"osm_id":"1763677178","tag":{"amenity":"waste_basket"}},"type":"Feature"},
	{"geometry":{"coordinates":[7.491806,51.36436],"type":"Point"},"properties":{"osm_id":"1764461798","tag":{"amenity":"recycling","recycling:clothes":"yes","recycling_type":"container"}},"type":"Feature"},
	{"geometry":{"coordinates":[7.504299,51.354776],"type":"Point"},"properties":{"osm_id":"1772764336","tag":{"amenity":"waste_basket"}},"type":"Feature"},
	{"geometry":{"coordinates":[7.504538,51.35482],"type":"Point"},"properties":{"osm_id":"1772764345","tag":{"amenity":"waste_basket"}},"type":"Feature"},
	{"geometry":{"coordinates":[7.474183,51.353778],"type":"Point"},"properties":{"osm_id":"1790020785","tag":{"amenity":"waste_basket"}},"type":"Feature"},
	{"geometry":{"coordinates":[7.473943,51.353891],"type":"Point"},"properties":{"osm_id":"1790020796","tag":{"amenity":"waste_basket"}},"type":"Feature"},
	{"geometry":{"coordinates":[7.535466,51.384489],"type":"Point"},"properties":{"osm_id":"1800242043","tag":{"amenity":"waste_basket"}},"type":"Feature"},
	{"geometry":{"coordinates":[7.476031,51.360891],"type":"Point"},"properties":{"osm_id":"1843977680","tag":{"amenity":"recycling","recycling:glass_bottles":"yes","recycling:paper":"yes","recycling_type":"container"}},"type":"Feature"},
	{"geometry":{"coordinates":[7.500989,51.364309],"type":"Point"},"properties":{"osm_id":"1862647063","tag":{"amenity":"recycling","operator":"Deutsches Rotes Kreuz","recycling:clothes":"yes","recycling_type":"container"}},"type":"Feature"},
	{"geometry":{"coordinates":[7.512556,51.375366],"type":"Point"},"properties":{"osm_id":"1900249807","tag":{"amenity":"recycling","operator":"Deutsches Rotes Kreuz","recycling:clothes":"yes","recycling_type":"container"}},"type":"Feature"},
	{"geometry":{"coordinates":[7.539704,51.385824],"type":"Point"},"properties":{"osm_id":"1900405602","tag":{"amenity":"recycling","recycling:clothes":"yes","recycling:glass_bottles":"yes","recycling:paper":"no"}},"type":"Feature"},
	{"geometry":{"coordinates":[7.487412,51.375896],"type":"Point"},"properties":{"osm_id":"1979250579","tag":{"amenity":"waste_basket"}},"type":"Feature"},
	{"geometry":{"coordinates":[7.490245,51.377111],"type":"Point"},"properties":{"osm_id":"1979250582","tag":{"amenity":"waste_basket"}},"type":"Feature"},
	{"geometry":{"coordinates":[7.515417,51.380458],"type":"Point"},"properties":{"osm_id":"2038617437","tag":{"amenity":"waste_basket"}},"type":"Feature"},
	{"geometry":{"coordinates":[7.472727,51.372702],"type":"Point"},"properties":{"osm_id":"2077764937","tag":{"amenity":"waste_basket"}},"type":"Feature"},
	{"geometry":{"coordinates":[7.470897,51.372066],"type":"Point"},"properties":{"osm_id":"2078705423","tag":{"amenity":"waste_basket"}},"type":"Feature"},
	{"geometry":{"coordinates":[7.494528,51.355469],"type":"Point"},"properties":{"osm_id":"2136196351","tag":{"amenity":"recycling","recycling:clothes":"yes","recycling:glass_bottles":"yes","recycling:paper":"yes","recycling:shoes":"yes","recycling_type":"container"}},"type":"Feature"},
	{"geometry":{"coordinates":[7.473589,51.366579],"type":"Point"},"properties":{"osm_id":"2136197374","tag":{"amenity":"recycling","recycling:clothes":"yes","recycling:glass":"no","recycling:paper":"no","recycling_type":"container"}},"type":"Feature"},
	{"geometry":{"coordinates":[7.507362,51.362637],"type":"Point"},"properties":{"osm_id":"2190941023","tag":{"amenity":"recycling","recycling:clothes":"yes","recycling:glass_bottles":"yes","recycling:paper":"yes","recycling_type":"container"}},"type":"Feature"},
	{"geometry":{"coordinates":[7.495373,51.351775],"type":"Point"},"properties":{"osm_id":"2206795615","tag":{"amenity":"recycling","recycling:glass_bottles":"yes","recycling_type":"container"}},"type":"Feature"},
	{"geometry":{"coordinates":[7.512676,51.360633],"type":"Point"},"properties":{"osm_id":"2206796927","tag":{"amenity":"waste_basket"}},"type":"Feature"},
	{"geometry":{"coordinates":[7.523751,51.366374],"type":"Point"},"properties":{"osm_id":"2263469124","tag":{"amenity":"recycling","recycling:clothes":"yes","recycling:glass":"yes","recycling_type":"container"}},"type":"Feature"},
	{"geometry":{"coordinates":[7.48078,51.39311],"type":"Point"},"properties":{"osm_id":"2290838395","tag":{"amenity":"recycling","recycling:clothes":"yes","recycling_type":"container"}},"type":"Feature"},
	{"geometry":{"coordinates":[7.507891,51.348004],"type":"Point"},"properties":{"osm_id":"2326752273","tag":{"amenity":"waste_basket"}},"type":"Feature"},
	{"geometry":{"coordinates":[7.507109,51.349582],"type":"Point"},"properties":{"osm_id":"2326752560","tag":{"amenity":"recycling","recycling:clothes":"yes"}},"type":"Feature"},
	{"geometry":{"coordinates":[7.496801,51.360047],"type":"Point"},"properties":{"osm_id":"2354156251","tag":{"amenity":"waste_basket"}},"type":"Feature"},
	{"geometry":{"coordinates":[7.479863,51.350466],"type":"Point"},"properties":{"osm_id":"2426903492","tag":{"amenity":"recycling","recycling:clothes":"yes","recycling:glass_bottles":"yes","recycling:paper":"yes","recycling_type":"container"}},"type":"Feature"},
	{"geometry":{"coordinates":[7.49944,51.360354],"type":"Point"},"properties":{"osm_id":"2460270320","tag":{"amenity":"recycling"}},"type":"Feature"},
	{"geometry":{"coordinates":[7.528456,51.375053],"type":"Point"},"properties":{"osm_id":"2510722483","tag":{"amenity":"waste_basket"}},"type":"Feature"},
	{"geometry":{"coordinates":[7.495542,51.351684],"type":"Point"},"properties":{"osm_id":"2534949532","tag":{"amenity":"recycling","recycling:clothes":"yes","recycling:glass":"no","recycling_type":"container"}},"type":"Feature"},
	{"geometry":{"coordinates":[7.482044,51.347429],"type":"Point"},"properties":{"osm_id":"2682501683","tag":{"amenity":"waste_basket"}},"type":"Feature"},
	{"geometry":{"coordinates":[7.503962,51.37989],"type":"Point"},"properties":{"osm_id":"2711104182","tag":{"amenity":"waste_basket"}},"type":"Feature"},
	{"geometry":{"coordinates":[7.497544,51.375242],"type":"Point"},"properties":{"osm_id":"2711124581","tag":{"amenity":"waste_basket"}},"type":"Feature"},
	{"geometry":{"coordinates":[7.549726,51.356872],"type":"Point"},"properties":{"osm_id":"3104455867","tag":{"amenity":"recycling","recycling:clothes":"yes","recycling:glass":"yes","recycling:paper":"yes","recycling_type":"container"}},"type":"Feature"},
	{"geometry":{"coordinates":[7.474745,51.397711],"type":"Point"},"properties":{"osm_id":"3397172194","tag":{"amenity":"recycling","recycling_type":"container"}},"type":"Feature"},
	{"geometry":{"coordinates":[7.474533,51.361421],"type":"Point"},"properties":{"osm_id":"3409720768","tag":{"amenity":"recycling","recycling_type":"container"}},"type":"Feature"},
	{"geometry":{"coordinates":[7.490312,51.386507],"type":"Point"},"properties":{"osm_id":"3484432900","tag":{"amenity":"waste_basket"}},"type":"Feature"},
	{"geometry":{"coordinates":[7.474168,51.36003],"type":"Point"},"properties":{"osm_id":"3598500526","tag":{"amenity":"waste_basket","bridge":"yes","layer":"1"}},"type":"Feature"},
	{"geometry":{"coordinates":[7.474252,51.360108],"type":"Point"},"properties":{"osm_id":"3598500530","tag":{"amenity":"waste_basket","bridge":"yes","layer":"1"}},"type":"Feature"},
	{"geometry":{"coordinates":[7.474378,51.360183],"type":"Point"},"properties":{"osm_id":"3598500532","tag":{"amenity":"waste_basket","bridge":"yes","layer":"1"}},"type":"Feature"},
	{"geometry":{"coordinates":[7.516582,51.374186],"type":"Point"},"properties":{"osm_id":"3605443525","tag":{"amenity":"waste_basket"}},"type":"Feature"},
	{"geometry":{"coordinates":[7.517015,51.374077],"type":"Point"},"properties":{"osm_id":"3605443526","tag":{"amenity":"waste_basket"}},"type":"Feature"},
	{"geometry":{"coordinates":[7.482596,51.392633],"type":"Point"},"properties":{"osm_id":"3882240292","tag":{"amenity":"waste_basket"}},"type":"Feature"},
	{"geometry":{"coordinates":[7.482123,51.393169],"type":"Point"},"properties":{"osm_id":"3882240294","tag":{"amenity":"waste_basket"}},"type":"Feature"},
	{"geometry":{"coordinates":[7.484479,51.395127],"type":"Point"},"properties":{"osm_id":"3882240317","tag":{"amenity":"recycling","recycling:clothes":"yes","recycling_type":"container"}},"type":"Feature"},
	{"geometry":{"coordinates":[7.477346,51.396466],"type":"Point"},"properties":{"osm_id":"3882240335","tag":{"amenity":"waste_basket"}},"type":"Feature"},
	{"geometry":{"coordinates":[7.476848,51.397585],"type":"Point"},"properties":{"osm_id":"3882240339","tag":{"amenity":"waste_basket"}},"type":"Feature"},
	{"geometry":{"coordinates":[7.475859,51.397764],"type":"Point"},"properties":{"osm_id":"3882240340","tag":{"amenity":"waste_basket"}},"type":"Feature"},
	{"geometry":{"coordinates":[7.47544,51.397937],"type":"Point"},"properties":{"osm_id":"3882240341","tag":{"amenity":"waste_basket"}},"type":"Feature"},
	{"geometry":{"coordinates":[7.482655,51.397587],"type":"Point"},"properties":{"osm_id":"4197015864","tag":{"amenity":"recycling","recycling:clothes":"yes","recycling:shoes":"yes","recycling_type":"container"}},"type":"Feature"},
	{"geometry":{"coordinates":[7.478429,51.354139],"type":"Point"},"properties":{"osm_id":"4461941915","ref":"1001","tag":{"amenity":"waste_basket","description":"HEB Unterflur-M\u00c3\u00bclleimer","operator":"Hagener Entsorgungsbetrieb GmbH","waste_basket:type":"underground"}},"type":"Feature"},
	{"geometry":{"coordinates":[7.478055,51.354264],"type":"Point"},"properties":{"osm_id":"4461941916","ref":"1002","tag":{"amenity":"waste_basket","description":"HEB Unterflur-M\u00c3\u00bclleimer","operator":"Hagener Entsorgungsbetrieb GmbH","waste_basket:type":"underground"}},"type":"Feature"},
	{"geometry":{"coordinates":[7.47744,51.355132],"type":"Point"},"properties":{"osm_id":"4461941917","ref":"1005","tag":{"amenity":"waste_basket","description":"HEB Unterflur-M\u00c3\u00bclleimer","operator":"Hagener Entsorgungsbetrieb GmbH","waste_basket:type":"underground"}},"type":"Feature"},
	{"geometry":{"coordinates":[7.479353,51.355265],"type":"Point"},"properties":{"osm_id":"4461941918","ref":"1011","tag":{"amenity":"waste_basket","description":"HEB Unterflur-M\u00c3\u00bclleimer","operator":"Hagener Entsorgungsbetrieb GmbH","waste_basket:type":"underground"}},"type":"Feature"},
	{"geometry":{"coordinates":[7.479204,51.355358],"type":"Point"},"properties":{"osm_id":"4461941919","ref":"1010","tag":{"amenity":"waste_basket","description":"HEB Unterflur-M\u00c3\u00bclleimer","operator":"Hagener Entsorgungsbetrieb GmbH","waste_basket:type":"underground"}},"type":"Feature"},
	{"geometry":{"coordinates":[7.478169,51.355372],"type":"Point"},"properties":{"osm_id":"4461941920","ref":"1006","tag":{"amenity":"waste_basket","description":"HEB Unterflur-M\u00c3\u00bclleimer","operator":"Hagener Entsorgungsbetrieb GmbH","waste_basket:type":"underground"}},"type":"Feature"},
	{"geometry":{"coordinates":[7.478871,51.35558],"type":"Point"},"properties":{"osm_id":"4461941921","ref":"1009","tag":{"amenity":"waste_basket","description":"HEB Unterflur-M\u00c3\u00bclleimer","operator":"Hagener Entsorgungsbetrieb GmbH","waste_basket:type":"underground"}},"type":"Feature"},
	{"geometry":{"coordinates":[7.47705,51.355626],"type":"Point"},"properties":{"osm_id":"4461941922","ref":"3003","tag":{"amenity":"waste_basket","description":"HEB Unterflur-M\u00c3\u00bclleimer","operator":"Hagener Entsorgungsbetrieb GmbH","waste_basket:type":"underground"}},"type":"Feature"},
	{"geometry":{"coordinates":[7.478641,51.355746],"type":"Point"},"properties":{"osm_id":"4461941923","ref":"1008","tag":{"amenity":"waste_basket","description":"HEB Unterflur-M\u00c3\u00bclleimer","operator":"Hagener Entsorgungsbetrieb GmbH","waste_basket:type":"underground"}},"type":"Feature"},
	{"geometry":{"coordinates":[7.476937,51.355818],"type":"Point"},"properties":{"osm_id":"4461941924","ref":"1004","tag":{"amenity":"waste_basket","description":"HEB Unterflur-M\u00c3\u00bclleimer","operator":"Hagener Entsorgungsbetrieb GmbH","waste_basket:type":"underground"}},"type":"Feature"},
	{"geometry":{"coordinates":[7.47852,51.355846],"type":"Point"},"properties":{"osm_id":"4461941925","ref":"1007","tag":{"amenity":"waste_basket","description":"HEB Unterflur-M\u00c3\u00bclleimer","operator":"Hagener Entsorgungsbetrieb GmbH","waste_basket:type":"underground"}},"type":"Feature"},
	{"geometry":{"coordinates":[7.476242,51.356113],"type":"Point"},"properties":{"osm_id":"4461941926","ref":"1012","tag":{"amenity":"waste_basket","description":"HEB Unterflur-M\u00c3\u00bclleimer","operator":"Hagener Entsorgungsbetrieb GmbH","waste_basket:type":"underground"}},"type":"Feature"},
	{"geometry":{"coordinates":[7.475966,51.35627],"type":"Point"},"properties":{"osm_id":"4461941927","ref":"1014","tag":{"amenity":"waste_basket","description":"HEB Unterflur-M\u00c3\u00bclleimer","operator":"Hagener Entsorgungsbetrieb GmbH","waste_basket:type":"underground"}},"type":"Feature"},
	{"geometry":{"coordinates":[7.476188,51.356284],"type":"Point"},"properties":{"osm_id":"4461941928","ref":"1013","tag":{"amenity":"waste_basket","description":"HEB Unterflur-M\u00c3\u00bclleimer","operator":"Hagener Entsorgungsbetrieb GmbH","waste_basket:type":"underground"}},"type":"Feature"},
	{"geometry":{"coordinates":[7.475917,51.356418],"type":"Point"},"properties":{"osm_id":"4461941929","ref":"1015","tag":{"amenity":"waste_basket","description":"HEB Unterflur-M\u00c3\u00bclleimer","operator":"Hagener Entsorgungsbetrieb GmbH","waste_basket:type":"underground"}},"type":"Feature"},
	{"geometry":{"coordinates":[7.475462,51.356543],"type":"Point"},"properties":{"osm_id":"4461941930","ref":"1016","tag":{"amenity":"waste_basket","description":"HEB Unterflur-M\u00c3\u00bclleimer","operator":"Hagener Entsorgungsbetrieb GmbH","waste_basket:type":"underground"}},"type":"Feature"},
	{"geometry":{"coordinates":[7.475442,51.356644],"type":"Point"},"properties":{"osm_id":"4461941931","ref":"1017","tag":{"amenity":"waste_basket","description":"HEB Unterflur-M\u00c3\u00bclleimer","operator":"Hagener Entsorgungsbetrieb GmbH","waste_basket:type":"underground"}},"type":"Feature"},
	{"geometry":{"coordinates":[7.474967,51.356752],"type":"Point"},"properties":{"osm_id":"4461941932","ref":"1018","tag":{"amenity":"waste_basket","description":"HEB Unterflur-M\u00c3\u00bclleimer","operator":"Hagener Entsorgungsbetrieb GmbH","waste_basket:type":"underground"}},"type":"Feature"},
	{"geometry":{"coordinates":[7.474442,51.35699],"type":"Point"},"properties":{"osm_id":"4461941933","ref":"1019","tag":{"amenity":"waste_basket","description":"HEB Unterflur-M\u00c3\u00bclleimer","operator":"Hagener Entsorgungsbetrieb GmbH","waste_basket:type":"underground"}},"type":"Feature"},
	{"geometry":{"coordinates":[7.47363,51.35717],"type":"Point"},"properties":{"osm_id":"4461942463","ref":"1020","tag":{"amenity":"waste_basket","description":"HEB Unterflur-M\u00c3\u00bclleimer","operator":"Hagener Entsorgungsbetrieb GmbH","waste_basket:type":"underground"}},"type":"Feature"},
	{"geometry":{"coordinates":[7.473712,51.357204],"type":"Point"},"properties":{"osm_id":"4461942464","ref":"1021","tag":{"amenity":"waste_basket","description":"HEB Unterflur-M\u00c3\u00bclleimer","operator":"Hagener Entsorgungsbetrieb GmbH","waste_basket:type":"underground"}},"type":"Feature"},
	{"geometry":{"coordinates":[7.473499,51.357327],"type":"Point"},"properties":{"osm_id":"4461942465","ref":"1022","tag":{"amenity":"waste_basket","description":"HEB Unterflur-M\u00c3\u00bclleimer","operator":"Hagener Entsorgungsbetrieb GmbH","waste_basket:type":"underground"}},"type":"Feature"},
	{"geometry":{"coordinates":[7.472995,51.357379],"type":"Point"},"properties":{"osm_id":"4461942466","ref":"1023","tag":{"amenity":"waste_basket","description":"HEB Unterflur-M\u00c3\u00bclleimer","operator":"Hagener Entsorgungsbetrieb GmbH","waste_basket:type":"underground"}},"type":"Feature"},
	{"geometry":{"coordinates":[7.473051,51.357451],"type":"Point"},"properties":{"osm_id":"4461942467","ref":"1024","tag":{"amenity":"waste_basket","description":"HEB Unterflur-M\u00c3\u00bclleimer","operator":"Hagener Entsorgungsbetrieb GmbH","waste_basket:type":"underground"}},"type":"Feature"},
	{"geometry":{"coordinates":[7.472746,51.35747],"type":"Point"},"properties":{"osm_id":"4461942468","ref":"1025","tag":{"amenity":"waste_basket","description":"HEB Unterflur-M\u00c3\u00bclleimer","operator":"Hagener Entsorgungsbetrieb GmbH","waste_basket:type":"underground"}},"type":"Feature"},
	{"geometry":{"coordinates":[7.472057,51.357704],"type":"Point"},"properties":{"osm_id":"4461942469","ref":"1026","tag":{"amenity":"waste_basket","description":"HEB Unterflur-M\u00c3\u00bclleimer","operator":"Hagener Entsorgungsbetrieb GmbH","waste_basket:type":"underground"}},"type":"Feature"},
	{"geometry":{"coordinates":[7.471773,51.357806],"type":"Point"},"properties":{"osm_id":"4461942470","ref":"1027","tag":{"amenity":"waste_basket","description":"HEB Unterflur-M\u00c3\u00bclleimer","operator":"Hagener Entsorgungsbetrieb GmbH","waste_basket:type":"underground"}},"type":"Feature"},
	{"geometry":{"coordinates":[7.471539,51.357873],"type":"Point"},"properties":{"osm_id":"4461942471","ref":"1028","tag":{"amenity":"waste_basket","description":"HEB Unterflur-M\u00c3\u00bclleimer","operator":"Hagener Entsorgungsbetrieb GmbH","waste_basket:type":"underground"}},"type":"Feature"},
	{"geometry":{"coordinates":[7.472429,51.357936],"type":"Point"},"properties":{"osm_id":"4461942472","ref":"1083","tag":{"amenity":"waste_basket","description":"HEB Unterflur-M\u00c3\u00bclleimer","operator":"Hagener Entsorgungsbetrieb GmbH","waste_basket:type":"underground"}},"type":"Feature"},
	{"geometry":{"coordinates":[7.472593,51.358049],"type":"Point"},"properties":{"osm_id":"4461942473","ref":"1084","tag":{"amenity":"waste_basket","description":"HEB Unterflur-M\u00c3\u00bclleimer","operator":"Hagener Entsorgungsbetrieb GmbH","waste_basket:type":"underground"}},"type":"Feature"},
	{"geometry":{"coordinates":[7.471429,51.358151],"type":"Point"},"properties":{"osm_id":"4461942474","ref":"1079","tag":{"amenity":"waste_basket","description":"HEB Unterflur-M\u00c3\u00bclleimer","operator":"Hagener Entsorgungsbetrieb GmbH","waste_basket:type":"underground"}},"type":"Feature"},
	{"geometry":{"coordinates":[7.473027,51.358182],"type":"Point"},"properties":{"osm_id":"4461942475","ref":"1072","tag":{"amenity":"waste_basket","description":"HEB Unterflur-M\u00c3\u00bclleimer","operator":"Hagener Entsorgungsbetrieb GmbH","waste_basket:type":"underground"}},"type":"Feature"},
	{"geometry":{"coordinates":[7.473734,51.35819],"type":"Point"},"properties":{"osm_id":"4461942476","ref":"1074","tag":{"amenity":"waste_basket","description":"HEB Unterflur-M\u00c3\u00bclleimer","operator":"Hagener Entsorgungsbetrieb GmbH","waste_basket:type":"underground"}},"type":"Feature"},
	{"geometry":{"coordinates":[7.471683,51.35831],"type":"Point"},"properties":{"osm_id":"4461942477","ref":"1080","tag":{"amenity":"waste_basket","description":"HEB Unterflur-M\u00c3\u00bclleimer","operator":"Hagener Entsorgungsbetrieb GmbH","waste_basket:type":"underground"}},"type":"Feature"},
	{"geometry":{"coordinates":[7.473009,51.358344],"type":"Point"},"properties":{"osm_id":"4461942478","ref":"1073","tag":{"amenity":"waste_basket","description":"HEB Unterflur-M\u00c3\u00bclleimer","operator":"Hagener Entsorgungsbetrieb GmbH","waste_basket:type":"underground"}},"type":"Feature"},
	{"geometry":{"coordinates":[7.472105,51.358562],"type":"Point"},"properties":{"osm_id":"4461942479","ref":"1081","tag":{"amenity":"waste_basket","description":"HEB Unterflur-M\u00c3\u00bclleimer","operator":"Hagener Entsorgungsbetrieb GmbH","waste_basket:type":"underground"}},"type":"Feature"},
	{"geometry":{"coordinates":[7.472298,51.358688],"type":"Point"},"properties":{"osm_id":"4461942480","ref":"1082","tag":{"amenity":"waste_basket","description":"HEB Unterflur-M\u00c3\u00bclleimer","operator":"Hagener Entsorgungsbetrieb GmbH","waste_basket:type":"underground"}},"type":"Feature"},
	{"geometry":{"coordinates":[7.472668,51.35884],"type":"Point"},"properties":{"osm_id":"4461942481","ref":"1031","tag":{"amenity":"waste_basket","description":"HEB Unterflur-M\u00c3\u00bclleimer","operator":"Hagener Entsorgungsbetrieb GmbH","waste_basket:type":"underground"}},"type":"Feature"},
	{"geometry":{"coordinates":[7.473071,51.358887],"type":"Point"},"properties":{"osm_id":"4461942482","ref":"1089","tag":{"amenity":"waste_basket","description":"HEB Unterflur-M\u00c3\u00bclleimer","operator":"Hagener Entsorgungsbetrieb GmbH","waste_basket:type":"underground"}},"type":"Feature"},
	{"geometry":{"coordinates":[7.473213,51.358965],"type":"Point"},"properties":{"osm_id":"4461942483","ref":"1075","tag":{"amenity":"waste_basket","description":"HEB Unterflur-M\u00c3\u00bclleimer","operator":"Hagener Entsorgungsbetrieb GmbH","waste_basket:type":"underground"}},"type":"Feature"},
	{"geometry":{"coordinates":[7.47259,51.358979],"type":"Point"},"properties":{"osm_id":"4461942484","ref":"1076","tag":{"amenity":"waste_basket","description":"HEB Unterflur-M\u00c3\u00bclleimer","operator":"Hagener Entsorgungsbetrieb GmbH","waste_basket:type":"underground"}},"type":"Feature"},
	{"geometry":{"coordinates":[7.473373,51.359052],"type":"Point"},"properties":{"osm_id":"4461942485","ref":"1088","tag":{"amenity":"waste_basket","description":"HEB Unterflur-M\u00c3\u00bclleimer","operator":"Hagener Entsorgungsbetrieb GmbH","waste_basket:type":"underground"}},"type":"Feature"},
	{"geometry":{"coordinates":[7.472888,51.359115],"type":"Point"},"properties":{"osm_id":"4461942486","ref":"1032","tag":{"amenity":"waste_basket","description":"HEB Unterflur-M\u00c3\u00bclleimer","operator":"Hagener Entsorgungsbetrieb GmbH","waste_basket:type":"underground"}},"type":"Feature"},
	{"geometry":{"coordinates":[7.472346,51.359133],"type":"Point"},"properties":{"osm_id":"4461942487","ref":"1077","tag":{"amenity":"waste_basket","description":"HEB Unterflur-M\u00c3\u00bclleimer","operator":"Hagener Entsorgungsbetrieb GmbH","waste_basket:type":"underground"}},"type":"Feature"},
	{"geometry":{"coordinates":[7.472707,51.359167],"type":"Point"},"properties":{"osm_id":"4461942488","ref":"1033","tag":{"amenity":"waste_basket","description":"HEB Unterflur-M\u00c3\u00bclleimer","operator":"Hagener Entsorgungsbetrieb GmbH","waste_basket:type":"underground"}},"type":"Feature"},
	{"geometry":{"coordinates":[7.472219,51.359216],"type":"Point"},"properties":{"osm_id":"4461943489","ref":"1078","tag":{"amenity":"waste_basket","description":"HEB Unterflur-M\u00c3\u00bclleimer","operator":"Hagener Entsorgungsbetrieb GmbH","waste_basket:type":"underground"}},"type":"Feature"},
	{"geometry":{"coordinates":[7.473593,51.359225],"type":"Point"},"properties":{"osm_id":"4461943490","ref":"1087","tag":{"amenity":"waste_basket","description":"HEB Unterflur-M\u00c3\u00bclleimer","operator":"Hagener Entsorgungsbetrieb GmbH","waste_basket:type":"underground"}},"type":"Feature"},
	{"geometry":{"coordinates":[7.472389,51.359341],"type":"Point"},"properties":{"osm_id":"4461943491","ref":"1034","tag":{"amenity":"waste_basket","description":"HEB Unterflur-M\u00c3\u00bclleimer","operator":"Hagener Entsorgungsbetrieb GmbH","waste_basket:type":"underground"}},"type":"Feature"},
	{"geometry":{"coordinates":[7.473736,51.359345],"type":"Point"},"properties":{"osm_id":"4461943492","ref":"1086","tag":{"amenity":"waste_basket","description":"HEB Unterflur-M\u00c3\u00bclleimer","operator":"Hagener Entsorgungsbetrieb GmbH","waste_basket:type":"underground"}},"type":"Feature"},
	{"geometry":{"coordinates":[7.472213,51.35943],"type":"Point"},"properties":{"osm_id":"4461943493","ref":"1035","tag":{"amenity":"waste_basket","description":"HEB Unterflur-M\u00c3\u00bclleimer","operator":"Hagener Entsorgungsbetrieb GmbH","waste_basket:type":"underground"}},"type":"Feature"},
	{"geometry":{"coordinates":[7.472076,51.359513],"type":"Point"},"properties":{"osm_id":"4461943494","ref":"1036","tag":{"amenity":"waste_basket","description":"HEB Unterflur-M\u00c3\u00bclleimer","operator":"Hagener Entsorgungsbetrieb GmbH","waste_basket:type":"underground"}},"type":"Feature"},
	{"geometry":{"coordinates":[7.473626,51.359538],"type":"Point"},"properties":{"osm_id":"4461943495","ref":"1085","tag":{"amenity":"waste_basket","description":"HEB Unterflur-M\u00c3\u00bclleimer","operator":"Hagener Entsorgungsbetrieb GmbH","waste_basket:type":"underground"}},"type":"Feature"},
	{"geometry":{"coordinates":[7.471881,51.359648],"type":"Point"},"properties":{"osm_id":"4461943496","ref":"1037","tag":{"amenity":"waste_basket","description":"HEB Unterflur-M\u00c3\u00bclleimer","operator":"Hagener Entsorgungsbetrieb GmbH","waste_basket:type":"underground"}},"type":"Feature"},
	{"geometry":{"coordinates":[7.471734,51.358691],"type":"Point"},"properties":{"osm_id":"4461944497","ref":"1047","tag":{"amenity":"waste_basket","description":"HEB Unterflur-M\u00c3\u00bclleimer","operator":"Hagener Entsorgungsbetrieb GmbH","waste_basket:type":"underground"}},"type":"Feature"},
	{"geometry":{"coordinates":[7.471632,51.358753],"type":"Point"},"properties":{"osm_id":"4461944500","ref":"1046","tag":{"amenity":"waste_basket","description":"HEB Unterflur-M\u00c3\u00bclleimer","operator":"Hagener Entsorgungsbetrieb GmbH","waste_basket:type":"underground"}},"type":"Feature"},
	{"geometry":{"coordinates":[7.47151,51.35883],"type":"Point"},"properties":{"osm_id":"4461944503","ref":"1045","tag":{"amenity":"waste_basket","description":"HEB Unterflur-M\u00c3\u00bclleimer","operator":"Hagener Entsorgungsbetrieb GmbH","waste_basket:type":"underground"}},"type":"Feature"},
	{"geometry":{"coordinates":[7.47115,51.358908],"type":"Point"},"properties":{"osm_id":"4461944504","ref":"1044","tag":{"amenity":"waste_basket","description":"HEB Unterflur-M\u00c3\u00bclleimer","operator":"Hagener Entsorgungsbetrieb GmbH","waste_basket:type":"underground"}},"type":"Feature"},
	{"geometry":{"coordinates":[7.470885,51.359051],"type":"Point"},"properties":{"osm_id":"4461944508","ref":"1043","tag":{"amenity":"waste_basket","description":"HEB Unterflur-M\u00c3\u00bclleimer","operator":"Hagener Entsorgungsbetrieb GmbH","waste_basket:type":"underground"}},"type":"Feature"},
	{"geometry":{"coordinates":[7.471096,51.359061],"type":"Point"},"properties":{"osm_id":"4461944509","ref":"1048","tag":{"amenity":"waste_basket","description":"HEB Unterflur-M\u00c3\u00bclleimer","operator":"Hagener Entsorgungsbetrieb GmbH","waste_basket:type":"underground"}},"type":"Feature"},
	{"geometry":{"coordinates":[7.470808,51.359664],"type":"Point"},"properties":{"osm_id":"4461944527","ref":"1038","tag":{"amenity":"waste_basket","description":"HEB Unterflur-M\u00c3\u00bclleimer","operator":"Hagener Entsorgungsbetrieb GmbH","waste_basket:type":"underground"}},"type":"Feature"},
	{"geometry":{"coordinates":[7.497611,51.365948],"type":"Point"},"properties":{"osm_id":"5103271529","tag":{"amenity":"waste_basket"}},"type":"Feature"},
	{"geometry":{"coordinates":[7.497508,51.366265],"type":"Point"},"properties":{"osm_id":"5113228047","tag":{"amenity":"waste_basket","covered":"yes","indoor":"no","level":"0"}},"type":"Feature"},
	{"geometry":{"coordinates":[7.496309,51.387024],"type":"Point"},"properties":{"osm_id":"5115513618","tag":{"amenity":"recycling"}},"type":"Feature"},
	{"geometry":{"coordinates":[7.510534,51.387948],"type":"Point"},"properties":{"osm_id":"5153847564","tag":{"amenity":"waste_basket"}},"type":"Feature"},
	{"geometry":{"coordinates":[7.515541,51.389972],"type":"Point"},"properties":{"osm_id":"5153847565","tag":{"amenity":"waste_basket"}},"type":"Feature"},
	{"geometry":{"coordinates":[7.480058,51.398857],"type":"Point"},"properties":{"osm_id":"5226898613","tag":{"amenity":"waste_basket"}},"type":"Feature"},
	{"geometry":{"coordinates":[7.475437,51.397319],"type":"Point"},"properties":{"osm_id":"7518698505","tag":{"amenity":"recycling","location":"underground","recycling_type":"container"}},"type":"Feature"}
]
}
