{
"type": "FeatureCollection",
"features": [
	{"geometry":{"coordinates":[7.479481,50.581984],"type":"Point"},"properties":{"osm_id":"361070672","tag":{"amenity":"recycling","recycling:glass":"yes"}},"type":"Feature"},
	{"geometry":{"coordinates":[7.48196,50.614804],"type":"Point"},"properties":{"osm_id":"442918214","tag":{"amenity":"recycling","recycling:batteries":"no","recycling:glass":"no","recycling:glass_bottles":"yes","recycling:paper":"no","recycling:plastic":"no","recycling:plastic_bottles":"no","recycling:waste":"no"}},"type":"Feature"},
	{"geometry":{"coordinates":[7.49708,50.615672],"type":"Point"},"properties":{"osm_id":"445853046","tag":{"amenity":"recycling","recycling:clothes":"yes","recycling:glass":"yes"}},"type":"Feature"},
	{"geometry":{"coordinates":[7.484671,50.613989],"type":"Point"},"properties":{"osm_id":"448426632","tag":{"amenity":"waste_basket"}},"type":"Feature"},
	{"geometry":{"coordinates":[7.478389,50.61415],"type":"Point"},"properties":{"osm_id":"449826877","tag":{"amenity":"waste_basket"}},"type":"Feature"},
	{"geometry":{"coordinates":[7.480199,50.613037],"type":"Point"},"properties":{"osm_id":"452515848","tag":{"amenity":"waste_basket"}},"type":"Feature"},
	{"geometry":{"coordinates":[7.481216,50.613752],"type":"Point"},"properties":{"osm_id":"461690121","tag":{"amenity":"waste_basket"}},"type":"Feature"},
	{"geometry":{"coordinates":[7.482923,50.614047],"type":"Point"},"properties":{"osm_id":"461699696","tag":{"amenity":"waste_basket"}},"type":"Feature"},
	{"geometry":{"coordinates":[7.482662,50.614187],"type":"Point"},"properties":{"osm_id":"462214084","tag":{"amenity":"waste_basket"}},"type":"Feature"},
	{"geometry":{"coordinates":[7.47749,50.613841],"type":"Point"},"properties":{"osm_id":"478915571","tag":{"amenity":"waste_basket"}},"type":"Feature"},
	{"geometry":{"coordinates":[7.49042,50.61426],"type":"Point"},"properties":{"osm_id":"482226602","tag":{"amenity":"recycling","recycling:batteries":"no","recycling:glass":"no","recycling:glass_bottles":"yes","recycling:paper":"no","recycling:plastic":"no","recycling:plastic_bottles":"no","recycling:waste":"no"}},"type":"Feature"},
	{"geometry":{"coordinates":[7.512285,50.623462],"type":"Point"},"properties":{"osm_id":"564874778","tag":{"amenity":"waste_basket"}},"type":"Feature"},
	{"geometry":{"coordinates":[7.557028,50.610534],"type":"Point"},"properties":{"osm_id":"692237577","tag":{"amenity":"recycling","location":"overground","recycling_type":"container"}},"type":"Feature"},
	{"geometry":{"coordinates":[7.496201,50.579107],"type":"Point"},"properties":{"osm_id":"726811043","tag":{"amenity":"recycling","recycling:glass":"yes"}},"type":"Feature"},
	{"geometry":{"coordinates":[7.477487,50.615128],"type":"Point"},"properties":{"osm_id":"761228130","tag":{"amenity":"waste_basket"}},"type":"Feature"},
	{"geometry":{"coordinates":[7.49668,50.617728],"type":"Point"},"properties":{"osm_id":"1106869369","tag":{"amenity":"waste_basket","check_date":"2021-10-18"}},"type":"Feature"},
	{"geometry":{"coordinates":[7.484991,50.614616],"type":"Point"},"properties":{"osm_id":"1116511698","tag":{"amenity":"waste_basket"}},"type":"Feature"},
	{"geometry":{"coordinates":[7.544219,50.601951],"type":"Point"},"properties":{"osm_id":"1131424390","tag":{"amenity":"waste_basket"}},"type":"Feature"},
	{"geometry":{"coordinates":[7.523151,50.571932],"type":"Point"},"properties":{"osm_id":"5514205068","tag":{"amenity":"recycling","recycling:clothes":"yes","recycling_type":"container"}},"type":"Feature"},
	{"geometry":{"coordinates":[7.510812,50.574074],"type":"Point"},"properties":{"osm_id":"5613781395","tag":{"amenity":"recycling","recycling:clothes":"yes","recycling:glass":"yes","recycling:glass_bottles":"yes","recycling:shoes":"yes","recycling_type":"container"}},"type":"Feature"},
	{"geometry":{"coordinates":[7.506872,50.597725],"type":"Point"},"properties":{"osm_id":"5875576214","tag":{"amenity":"waste_basket"}},"type":"Feature"},
	{"geometry":{"coordinates":[7.52362,50.597009],"type":"Point"},"properties":{"osm_id":"5881539249","tag":{"amenity":"recycling","recycling:clothes":"yes","recycling:shoes":"yes","recycling_type":"container"}},"type":"Feature"},
	{"geometry":{"coordinates":[7.526442,50.594373],"type":"Point"},"properties":{"osm_id":"7448715086","tag":{"amenity":"waste_basket"}},"type":"Feature"},
	{"geometry":{"coordinates":[7.526106,50.5839],"type":"Point"},"properties":{"osm_id":"7486398153","tag":{"amenity":"waste_basket"}},"type":"Feature"},
	{"geometry":{"coordinates":[7.494197,50.570813],"type":"Point"},"properties":{"osm_id":"7835416078","tag":{"amenity":"waste_basket"}},"type":"Feature"},
	{"geometry":{"coordinates":[7.483614,50.613034],"type":"Point"},"properties":{"osm_id":"7837628690","tag":{"amenity":"waste_basket"}},"type":"Feature"},
	{"geometry":{"coordinates":[7.49622,50.617526],"type":"Point"},"properties":{"osm_id":"7837628702","tag":{"amenity":"waste_basket"}},"type":"Feature"},
	{"geometry":{"coordinates":[7.482214,50.614747],"type":"Point"},"properties":{"osm_id":"7837628737","tag":{"amenity":"waste_basket"}},"type":"Feature"},
	{"geometry":{"coordinates":[7.552469,50.594066],"type":"Point"},"properties":{"osm_id":"8596092314","tag":{"amenity":"waste_basket","waste":"trash"}},"type":"Feature"},
	{"geometry":{"coordinates":[7.551209,50.593094],"type":"Point"},"properties":{"osm_id":"8596145517","tag":{"amenity":"waste_basket","waste":"trash"}},"type":"Feature"},
	{"geometry":{"coordinates":[7.494595,50.570409],"type":"Point"},"properties":{"osm_id":"8757797146","tag":{"amenity":"recycling","recycling:glass_bottles":"yes","recycling_type":"container"}},"type":"Feature"}
]
}
