{
"type": "FeatureCollection",
"features": [
	{"geometry":{"coordinates":[7.490608,50.20479],"type":"Point"},"properties":{"osm_id":"442676889","tag":{"amenity":"recycling","recycling:glass":"yes"}},"type":"Feature"},
	{"geometry":{"coordinates":[7.483545,50.230485],"type":"Point"},"properties":{"osm_id":"2194278385","tag":{"amenity":"recycling","recycling:glass_bottles":"yes","recycling_type":"container"}},"type":"Feature"},
	{"geometry":{"coordinates":[7.50645,50.218941],"type":"Point"},"properties":{"osm_id":"6835399973","tag":{"amenity":"waste_basket"}},"type":"Feature"},
	{"geometry":{"coordinates":[7.536174,50.21415],"type":"Point"},"properties":{"osm_id":"8764865013","tag":{"amenity":"recycling","recycling:glass":"no","recycling:glass_bottles":"yes","recycling_type":"container"}},"type":"Feature"},
	{"geometry":{"coordinates":[7.535943,50.211445],"type":"Point"},"properties":{"osm_id":"8765946722","tag":{"amenity":"waste_basket","waste":"trash"}},"type":"Feature"},
	{"geometry":{"coordinates":[7.526818,50.20224],"type":"Point"},"properties":{"name":"Gr\u00c3\u00bcnschnittplatz","osm_id":"8768380427","tag":{"amenity":"recycling","recycling:green_waste":"yes","recycling_type":"centre"}},"type":"Feature"},
	{"geometry":{"coordinates":[7.525701,50.206068],"type":"Point"},"properties":{"osm_id":"8777279593","tag":{"amenity":"waste_basket","waste":"trash"}},"type":"Feature"},
	{"geometry":{"coordinates":[7.536115,50.214139],"type":"Point"},"properties":{"osm_id":"8928419101","tag":{"amenity":"recycling","operator":"Baliz Textilwerke","recycling:clothes":"yes","recycling_type":"container"}},"type":"Feature"},
	{"geometry":{"coordinates":[7.53606,50.214113],"type":"Point"},"properties":{"osm_id":"8946965085","tag":{"amenity":"recycling","recycling_type":"container"}},"type":"Feature"}
]
}
