{
"type": "FeatureCollection",
"features": [
	{"geometry":{"coordinates":[7.541847,49.991176],"type":"Point"},"properties":{"osm_id":"975076105","tag":{"amenity":"recycling"}},"type":"Feature"},
	{"geometry":{"coordinates":[7.47644,49.973324],"type":"Point"},"properties":{"osm_id":"981291746","tag":{"amenity":"recycling","recycling:glass":"yes"}},"type":"Feature"},
	{"geometry":{"coordinates":[7.517193,49.975308],"type":"Point"},"properties":{"name":"Gr\u00c3\u00bcnschnittentsorgung","osm_id":"4638576461","tag":{"amenity":"recycling","recycling":"green_waste","recycling_type":"centre"}},"type":"Feature"},
	{"geometry":{"coordinates":[7.53585,49.951999],"type":"Point"},"properties":{"name":"Gr\u00c3\u00bcnschnitt-Entsorgung","osm_id":"4638622999","tag":{"amenity":"recycling","recycling":"green_waste","recycling_type":"centre"}},"type":"Feature"},
	{"geometry":{"coordinates":[7.540772,49.984275],"type":"Point"},"properties":{"name":"Elektroger\u00c3\u00a4te-Entsorgung","osm_id":"4643043311","tag":{"amenity":"recycling","recycling":"electrical","recycling_type":"centre"}},"type":"Feature"},
	{"geometry":{"coordinates":[7.531589,49.955002],"type":"Point"},"properties":{"osm_id":"4645440077","tag":{"amenity":"recycling","recycling:glass_bottles":"yes","recycling_type":"container"}},"type":"Feature"},
	{"geometry":{"coordinates":[7.528767,49.955674],"type":"Point"},"properties":{"osm_id":"4652801473","tag":{"amenity":"recycling","recycling:clothes":"yes","recycling:shoes":"yes","recycling_type":"container"}},"type":"Feature"},
	{"geometry":{"coordinates":[7.484537,49.972903],"type":"Point"},"properties":{"osm_id":"5909374689","tag":{"amenity":"waste_basket"}},"type":"Feature"},
	{"geometry":{"coordinates":[7.505869,49.993242],"type":"Point"},"properties":{"osm_id":"7185001495","tag":{"amenity":"recycling","operator":"REMONDIS","recycling:glass_bottles":"yes","recycling_type":"container"}},"type":"Feature"},
	{"geometry":{"coordinates":[7.505927,49.993247],"type":"Point"},"properties":{"osm_id":"7185001496","tag":{"amenity":"recycling","operator":"BALIZ Textilwerke (gewerblich)","recycling:clothes":"yes","recycling_type":"container"}},"type":"Feature"},
	{"geometry":{"coordinates":[7.516154,49.990185],"type":"Point"},"properties":{"osm_id":"7185135155","tag":{"amenity":"recycling","operator":"REMONDIS","recycling:glass_bottles":"yes","recycling_type":"container"}},"type":"Feature"},
	{"geometry":{"coordinates":[7.516133,49.990216],"type":"Point"},"properties":{"osm_id":"7185135156","tag":{"amenity":"recycling","operator":"Deutsches Rotes Kreuz","recycling:clothes":"yes","recycling:shoes":"yes","recycling_type":"container"}},"type":"Feature"}
]
}
