{
"type": "FeatureCollection",
"features": [
	{"geometry":{"coordinates":[7.553552,49.454329],"type":"Point"},"properties":{"osm_id":"756079739","tag":{"amenity":"waste_basket"}},"type":"Feature"},
	{"geometry":{"coordinates":[7.555463,49.462218],"type":"Point"},"properties":{"osm_id":"756080152","tag":{"amenity":"recycling","recycling:clothes":"yes","recycling:glass":"yes"}},"type":"Feature"},
	{"geometry":{"coordinates":[7.556743,49.456229],"type":"Point"},"properties":{"osm_id":"756080293","tag":{"amenity":"recycling","recycling:clothes":"yes"}},"type":"Feature"},
	{"geometry":{"coordinates":[7.553117,49.454142],"type":"Point"},"properties":{"osm_id":"756080455","tag":{"amenity":"waste_basket"}},"type":"Feature"},
	{"geometry":{"coordinates":[7.502934,49.456333],"type":"Point"},"properties":{"osm_id":"1106927420","tag":{"amenity":"recycling"}},"type":"Feature"},
	{"geometry":{"coordinates":[7.526457,49.454164],"type":"Point"},"properties":{"osm_id":"1106937623","tag":{"amenity":"recycling","recycling_type":"container"}},"type":"Feature"},
	{"geometry":{"coordinates":[7.534891,49.475062],"type":"Point"},"properties":{"name":"Gr\u00c3\u00bcnabfallsammelstelle Kottweiler-Schwanden","osm_id":"3085175535","tag":{"amenity":"recycling","opening_hours":"24/7","operator":"Landkreis Kaiserslautern","recycling:garden_waste":"yes","recycling:green_waste":"yes","recycling_type":"centre"}},"type":"Feature"},
	{"geometry":{"coordinates":[7.484787,49.463083],"type":"Point"},"properties":{"name":"Gr\u00c3\u00bcnabfallsammelstelle Niedermohr","osm_id":"3085175543","tag":{"amenity":"recycling","opening_hours":"We 15:00-20:00; Sa 09:00-14:00","operator":"Landkreis Kaiserslautern","recycling:garden_waste":"yes","recycling:green_waste":"yes","recycling_type":"centre"}},"type":"Feature"},
	{"geometry":{"coordinates":[7.554342,49.453775],"type":"Point"},"properties":{"name":"Gr\u00c3\u00bcnabfallsammelstelle Ramstein","osm_id":"3085175547","tag":{"amenity":"recycling","opening_hours":"Mo-Fr 07:00-16:00; Sa 09:00-12:00","operator":"Landkreis Kaiserslautern","recycling:green_waste":"yes","recycling_type":"centre"}},"type":"Feature"},
	{"geometry":{"coordinates":[7.523726,49.449134],"type":"Point"},"properties":{"name":"Gr\u00c3\u00bcnabfallsammelstelle Steinwenden","osm_id":"3085175554","tag":{"amenity":"recycling","opening_hours":"24/7","operator":"Landkreis Kaiserslautern","recycling:garden_waste":"yes","recycling:green_waste":"yes","recycling_type":"centre"}},"type":"Feature"},
	{"geometry":{"coordinates":[7.518571,49.463434],"type":"Point"},"properties":{"osm_id":"4359031571","tag":{"amenity":"waste_basket"}},"type":"Feature"},
	{"geometry":{"coordinates":[7.476437,49.452791],"type":"Point"},"properties":{"osm_id":"4523915763","tag":{"amenity":"waste_basket"}},"type":"Feature"},
	{"geometry":{"coordinates":[7.476063,49.45288],"type":"Point"},"properties":{"osm_id":"4523915764","tag":{"amenity":"waste_basket"}},"type":"Feature"},
	{"geometry":{"coordinates":[7.475757,49.452956],"type":"Point"},"properties":{"osm_id":"4523915765","tag":{"amenity":"waste_basket"}},"type":"Feature"},
	{"geometry":{"coordinates":[7.475474,49.453037],"type":"Point"},"properties":{"osm_id":"4523915766","tag":{"amenity":"waste_basket"}},"type":"Feature"},
	{"geometry":{"coordinates":[7.47516,49.453138],"type":"Point"},"properties":{"osm_id":"4523915767","tag":{"amenity":"waste_basket"}},"type":"Feature"}
]
}
