{
"type": "FeatureCollection",
"lastupdate": "2020-08-03T00:00:00Z",
"features": [
	{"geometry":{"coordinates":[7.550747,49.371199],"type":"Point"},"properties":{"osm_id":"720635516","tag":{"amenity":"recycling","recycling:glass":"yes","recycling_type":"container"}},"type":"Feature"},
	{"geometry":{"coordinates":[7.504278,49.363681],"type":"Point"},"properties":{"name":"Gr\u00c3\u00bcnabfallsammelstelle Martinsh\u00c3\u00b6he/Gerhardsbrunn","osm_id":"3085175538","tag":{"amenity":"recycling","opening_hours":"Dec-Feb: Sa 11:00-12:00; Mar-Nov: Sa 14:00-18:00; Apr-Oct: Tu,Th 15:00-19:00","operator":"Landkreis Kaiserslautern","recycling:garden_waste":"yes","recycling:green_waste":"yes","recycling_type":"centre"}},"type":"Feature"},
	{"geometry":{"coordinates":[7.549123,49.374899],"type":"Point"},"properties":{"name":"Gr\u00c3\u00bcnabfallsammelstelle Mittelbrunn","osm_id":"3085175541","tag":{"amenity":"recycling","opening_hours":"24/7","operator":"Landkreis Kaiserslautern","recycling:garden_waste":"yes","recycling:green_waste":"yes","recycling_type":"centre"}},"type":"Feature"},
	{"geometry":{"coordinates":[7.511369,49.34581],"type":"Point"},"properties":{"osm_id":"4364214056","tag":{"amenity":"recycling","recycling:clothes":"yes","recycling:glass":"yes","recycling_type":"container"}},"type":"Feature"}
]
}
