{
"type": "FeatureCollection",
"features": [
	{"geometry":{"coordinates":[7.525965,48.79169],"type":"Point"},"properties":{"osm_id":"269330844","tag":{"amenity":"recycling","recycling:glass_bottles":"yes","recycling_type":"container"}},"type":"Feature"},
	{"geometry":{"coordinates":[7.480268,48.790343],"type":"Point"},"properties":{"osm_id":"1411626717","tag":{"amenity":"recycling","recycling:clothes":"yes","recycling:glass_bottles":"yes","recycling:paper":"yes","recycling_type":"container"}},"type":"Feature"},
	{"geometry":{"coordinates":[7.537288,48.80569],"type":"Point"},"properties":{"osm_id":"1726774439","tag":{"amenity":"recycling"}},"type":"Feature"},
	{"geometry":{"coordinates":[7.533361,48.781264],"type":"Point"},"properties":{"osm_id":"1739671783","tag":{"amenity":"recycling","recycling:glass_bottles":"yes","recycling:paper":"yes","recycling:plastic":"yes","recycling_type":"container"}},"type":"Feature"},
	{"geometry":{"coordinates":[7.545936,48.776133],"type":"Point"},"properties":{"osm_id":"1741210326","tag":{"amenity":"recycling","recycling:glass_bottles":"yes","recycling:paper":"yes","recycling:plastic":"yes","recycling_type":"container"}},"type":"Feature"},
	{"geometry":{"coordinates":[7.553215,48.791641],"type":"Point"},"properties":{"osm_id":"2086260324","tag":{"amenity":"recycling","recycling_type":"container"}},"type":"Feature"},
	{"geometry":{"coordinates":[7.512903,48.803864],"type":"Point"},"properties":{"osm_id":"2298687546","tag":{"amenity":"recycling","recycling:glass_bottles":"yes","recycling_type":"container"}},"type":"Feature"},
	{"geometry":{"coordinates":[7.509575,48.805579],"type":"Point"},"properties":{"osm_id":"2298687549","tag":{"amenity":"waste_basket"}},"type":"Feature"},
	{"geometry":{"coordinates":[7.500279,48.749801],"type":"Point"},"properties":{"osm_id":"3331494095","tag":{"addr:city":"Wilwisheim","addr:postcode":"67270","addr:street":"Rue du Stade","amenity":"recycling","recycling:glass_bottles":"yes","recycling_type":"container"}},"type":"Feature"},
	{"geometry":{"coordinates":[7.485973,48.750164],"type":"Point"},"properties":{"osm_id":"3331516000","tag":{"amenity":"waste_basket"}},"type":"Feature"},
	{"geometry":{"coordinates":[7.481567,48.753853],"type":"Point"},"properties":{"osm_id":"3711791524","tag":{"amenity":"waste_basket"}},"type":"Feature"},
	{"geometry":{"coordinates":[7.485898,48.750263],"type":"Point"},"properties":{"osm_id":"3778248353","tag":{"amenity":"waste_basket"}},"type":"Feature"},
	{"geometry":{"coordinates":[7.485493,48.750283],"type":"Point"},"properties":{"osm_id":"3778251041","tag":{"amenity":"waste_basket"}},"type":"Feature"},
	{"geometry":{"coordinates":[7.523841,48.757252],"type":"Point"},"properties":{"osm_id":"4372144906","tag":{"amenity":"waste_basket"}},"type":"Feature"},
	{"geometry":{"coordinates":[7.502122,48.78614],"type":"Point"},"properties":{"osm_id":"5795741521","tag":{"amenity":"recycling","recycling_type":"container"}},"type":"Feature"},
	{"geometry":{"coordinates":[7.481034,48.772741],"type":"Point"},"properties":{"osm_id":"5839419951","tag":{"amenity":"recycling","recycling_type":"container"}},"type":"Feature"},
	{"geometry":{"coordinates":[7.533779,48.766162],"type":"Point"},"properties":{"osm_id":"7523791905","tag":{"amenity":"recycling","recycling_type":"container"}},"type":"Feature"},
	{"geometry":{"coordinates":[7.487339,48.770639],"type":"Point"},"properties":{"osm_id":"7807130456","tag":{"amenity":"waste_basket"}},"type":"Feature"},
	{"geometry":{"coordinates":[7.487216,48.770509],"type":"Point"},"properties":{"osm_id":"7807130457","tag":{"amenity":"waste_basket"}},"type":"Feature"},
	{"geometry":{"coordinates":[7.486531,48.770668],"type":"Point"},"properties":{"osm_id":"7807130461","tag":{"amenity":"waste_basket"}},"type":"Feature"},
	{"geometry":{"coordinates":[7.493597,48.770309],"type":"Point"},"properties":{"osm_id":"7807138258","tag":{"amenity":"waste_basket"}},"type":"Feature"},
	{"geometry":{"coordinates":[7.493664,48.770393],"type":"Point"},"properties":{"osm_id":"7807138259","tag":{"amenity":"waste_basket"}},"type":"Feature"},
	{"geometry":{"coordinates":[7.494265,48.770218],"type":"Point"},"properties":{"osm_id":"7807138260","tag":{"amenity":"waste_basket"}},"type":"Feature"}
]
}
