{
"type": "FeatureCollection",
"features": [
	{"geometry":{"coordinates":[7.558026,47.49941],"type":"Point"},"properties":{"osm_id":"614262843","tag":{"amenity":"recycling"}},"type":"Feature"},
	{"geometry":{"coordinates":[7.542845,47.479773],"type":"Point"},"properties":{"osm_id":"1760062582","tag":{"amenity":"recycling","recycling:cans":"yes","recycling:clothes":"yes","recycling:glass":"yes","recycling:glass_bottles":"yes","recycling_type":"container"}},"type":"Feature"},
	{"geometry":{"coordinates":[7.554456,47.503392],"type":"Point"},"properties":{"osm_id":"2035556221","tag":{"amenity":"recycling","recycling_type":"container"}},"type":"Feature"},
	{"geometry":{"coordinates":[7.551997,47.498906],"type":"Point"},"properties":{"osm_id":"2035556225","tag":{"amenity":"recycling"}},"type":"Feature"},
	{"geometry":{"coordinates":[7.549737,47.499662],"type":"Point"},"properties":{"osm_id":"2137131425","tag":{"amenity":"recycling","recycling_type":"centre"}},"type":"Feature"},
	{"geometry":{"coordinates":[7.489715,47.500424],"type":"Point"},"properties":{"name":"D\u00c3\u00a9ch\u00c3\u00a8terie\u00c2\u00a0de\u00c2\u00a0Leymen","osm_id":"2877263786","tag":{"amenity":"recycling","operator":"Communaut\u00c3\u00a9\u00c2\u00a0d'Agglom\u00c3\u00a9ration\u00c2\u00a0de\u00c2\u00a0Saint-louis\u00c2\u00a0Agglom\u00c3\u00a9ration","phone":"+33 3 89 68 57 33","recycling_type":"centre","ref:FR:SINOE":"29317","start_date":"2002"}},"type":"Feature"},
	{"geometry":{"coordinates":[7.499057,47.488944],"type":"Point"},"properties":{"osm_id":"3844785245","tag":{"amenity":"waste_basket"}},"type":"Feature"},
	{"geometry":{"coordinates":[7.545867,47.483661],"type":"Point"},"properties":{"osm_id":"3846489468","tag":{"amenity":"waste_basket"}},"type":"Feature"},
	{"geometry":{"coordinates":[7.546239,47.483733],"type":"Point"},"properties":{"osm_id":"3846489492","tag":{"amenity":"waste_basket"}},"type":"Feature"},
	{"geometry":{"coordinates":[7.553753,47.50273],"type":"Point"},"properties":{"osm_id":"3854144220","tag":{"amenity":"waste_basket"}},"type":"Feature"},
	{"geometry":{"coordinates":[7.483114,47.4951],"type":"Point"},"properties":{"osm_id":"4413881350","tag":{"amenity":"recycling"}},"type":"Feature"},
	{"geometry":{"coordinates":[7.486011,47.499051],"type":"Point"},"properties":{"osm_id":"4428927281","tag":{"amenity":"recycling","recycling:glass_bottles":"yes","recycling:plastic_bottles":"yes","recycling_type":"container"}},"type":"Feature"},
	{"geometry":{"coordinates":[7.489277,47.49622],"type":"Point"},"properties":{"osm_id":"4428944960","tag":{"amenity":"waste_basket"}},"type":"Feature"},
	{"geometry":{"coordinates":[7.521099,47.512316],"type":"Point"},"properties":{"osm_id":"4868200246","tag":{"amenity":"waste_basket"}},"type":"Feature"},
	{"geometry":{"coordinates":[7.520946,47.512313],"type":"Point"},"properties":{"osm_id":"4868200249","tag":{"amenity":"waste_basket"}},"type":"Feature"},
	{"geometry":{"coordinates":[7.530136,47.509745],"type":"Point"},"properties":{"osm_id":"4977970918","tag":{"amenity":"waste_basket"}},"type":"Feature"},
	{"geometry":{"coordinates":[7.532097,47.515381],"type":"Point"},"properties":{"osm_id":"4988600257","tag":{"amenity":"waste_basket"}},"type":"Feature"},
	{"geometry":{"coordinates":[7.536104,47.515079],"type":"Point"},"properties":{"osm_id":"4988703052","tag":{"amenity":"waste_basket"}},"type":"Feature"},
	{"geometry":{"coordinates":[7.545921,47.516049],"type":"Point"},"properties":{"osm_id":"5503631603","tag":{"amenity":"waste_basket"}},"type":"Feature"},
	{"geometry":{"coordinates":[7.547358,47.516998],"type":"Point"},"properties":{"osm_id":"5503631610","tag":{"amenity":"waste_basket","waste":"dog_excrement"}},"type":"Feature"},
	{"geometry":{"coordinates":[7.491152,47.502442],"type":"Point"},"properties":{"osm_id":"5528829160","tag":{"amenity":"waste_basket","waste":"dog_excrement"}},"type":"Feature"},
	{"geometry":{"coordinates":[7.490842,47.488633],"type":"Point"},"properties":{"osm_id":"5528878313","tag":{"amenity":"waste_basket"}},"type":"Feature"},
	{"geometry":{"coordinates":[7.490588,47.488332],"type":"Point"},"properties":{"osm_id":"5528878923","tag":{"amenity":"waste_basket"}},"type":"Feature"},
	{"geometry":{"coordinates":[7.495998,47.487252],"type":"Point"},"properties":{"osm_id":"5528878933","tag":{"amenity":"waste_basket"}},"type":"Feature"},
	{"geometry":{"coordinates":[7.497844,47.487323],"type":"Point"},"properties":{"osm_id":"5528878937","tag":{"amenity":"waste_basket","waste":"dog_excrement"}},"type":"Feature"},
	{"geometry":{"coordinates":[7.523383,47.46924],"type":"Point"},"properties":{"osm_id":"5618176628","tag":{"amenity":"waste_basket"}},"type":"Feature"},
	{"geometry":{"coordinates":[7.515322,47.469459],"type":"Point"},"properties":{"osm_id":"5618176629","tag":{"amenity":"waste_basket"}},"type":"Feature"},
	{"geometry":{"coordinates":[7.511096,47.469128],"type":"Point"},"properties":{"osm_id":"5618176636","tag":{"amenity":"waste_basket"}},"type":"Feature"},
	{"geometry":{"coordinates":[7.507738,47.46917],"type":"Point"},"properties":{"osm_id":"5618176638","tag":{"amenity":"waste_basket"}},"type":"Feature"},
	{"geometry":{"coordinates":[7.506843,47.469168],"type":"Point"},"properties":{"osm_id":"5618176640","tag":{"amenity":"waste_basket"}},"type":"Feature"},
	{"geometry":{"coordinates":[7.504964,47.469105],"type":"Point"},"properties":{"osm_id":"5618176643","tag":{"amenity":"waste_basket"}},"type":"Feature"},
	{"geometry":{"coordinates":[7.497449,47.465978],"type":"Point"},"properties":{"osm_id":"5618176646","tag":{"amenity":"waste_basket"}},"type":"Feature"},
	{"geometry":{"coordinates":[7.492736,47.465768],"type":"Point"},"properties":{"osm_id":"5618176647","tag":{"amenity":"waste_basket"}},"type":"Feature"},
	{"geometry":{"coordinates":[7.487453,47.468871],"type":"Point"},"properties":{"osm_id":"5618212467","tag":{"amenity":"waste_basket","waste":"dog_excrement"}},"type":"Feature"},
	{"geometry":{"coordinates":[7.490229,47.474044],"type":"Point"},"properties":{"osm_id":"5618212473","tag":{"amenity":"waste_basket"}},"type":"Feature"},
	{"geometry":{"coordinates":[7.489769,47.474783],"type":"Point"},"properties":{"osm_id":"5618212490","tag":{"amenity":"waste_basket"}},"type":"Feature"},
	{"geometry":{"coordinates":[7.489369,47.475368],"type":"Point"},"properties":{"osm_id":"5618212496","tag":{"amenity":"waste_basket"}},"type":"Feature"},
	{"geometry":{"coordinates":[7.493452,47.478377],"type":"Point"},"properties":{"osm_id":"5618212498","tag":{"amenity":"waste_basket"}},"type":"Feature"},
	{"geometry":{"coordinates":[7.494025,47.47879],"type":"Point"},"properties":{"osm_id":"5618212500","tag":{"amenity":"waste_basket"}},"type":"Feature"},
	{"geometry":{"coordinates":[7.494302,47.479152],"type":"Point"},"properties":{"osm_id":"5618212502","tag":{"amenity":"waste_basket"}},"type":"Feature"},
	{"geometry":{"coordinates":[7.494825,47.48002],"type":"Point"},"properties":{"osm_id":"5618212503","tag":{"amenity":"waste_basket","waste":"dog_excrement"}},"type":"Feature"},
	{"geometry":{"coordinates":[7.495475,47.481076],"type":"Point"},"properties":{"osm_id":"5618212506","tag":{"amenity":"waste_basket"}},"type":"Feature"},
	{"geometry":{"coordinates":[7.495387,47.482501],"type":"Point"},"properties":{"osm_id":"5618212510","tag":{"amenity":"waste_basket","waste":"dog_excrement"}},"type":"Feature"},
	{"geometry":{"coordinates":[7.529036,47.503727],"type":"Point"},"properties":{"osm_id":"5718410131","tag":{"amenity":"recycling","recycling:glass":"yes","recycling_type":"container"}},"type":"Feature"},
	{"geometry":{"coordinates":[7.499982,47.491152],"type":"Point"},"properties":{"osm_id":"5810734927","tag":{"amenity":"waste_basket","waste":"dog_excrement"}},"type":"Feature"},
	{"geometry":{"coordinates":[7.512923,47.489005],"type":"Point"},"properties":{"osm_id":"5814693708","tag":{"amenity":"waste_basket","waste":"dog_excrement"}},"type":"Feature"},
	{"geometry":{"coordinates":[7.512143,47.488054],"type":"Point"},"properties":{"osm_id":"5814693709","tag":{"amenity":"waste_basket","waste":"dog_excrement"}},"type":"Feature"},
	{"geometry":{"coordinates":[7.511326,47.489032],"type":"Point"},"properties":{"osm_id":"5814693712","tag":{"amenity":"waste_basket","waste":"dog_excrement"}},"type":"Feature"},
	{"geometry":{"coordinates":[7.510613,47.488978],"type":"Point"},"properties":{"osm_id":"5814693713","tag":{"amenity":"recycling","recycling_type":"container"}},"type":"Feature"},
	{"geometry":{"coordinates":[7.509434,47.488197],"type":"Point"},"properties":{"osm_id":"5814693715","tag":{"amenity":"waste_basket","waste":"dog_excrement"}},"type":"Feature"},
	{"geometry":{"coordinates":[7.507234,47.488451],"type":"Point"},"properties":{"osm_id":"5814693716","tag":{"amenity":"waste_basket","waste":"dog_excrement"}},"type":"Feature"},
	{"geometry":{"coordinates":[7.501989,47.488919],"type":"Point"},"properties":{"osm_id":"5814693718","tag":{"amenity":"waste_basket","waste":"dog_excrement"}},"type":"Feature"},
	{"geometry":{"coordinates":[7.502563,47.488923],"type":"Point"},"properties":{"osm_id":"5814693719","tag":{"amenity":"waste_basket"}},"type":"Feature"},
	{"geometry":{"coordinates":[7.521184,47.486487],"type":"Point"},"properties":{"osm_id":"5821317060","tag":{"amenity":"waste_basket","waste":"dog_excrement"}},"type":"Feature"},
	{"geometry":{"coordinates":[7.531786,47.510384],"type":"Point"},"properties":{"osm_id":"6001346863","tag":{"amenity":"waste_basket","waste":"dog_excrement"}},"type":"Feature"},
	{"geometry":{"coordinates":[7.538285,47.505932],"type":"Point"},"properties":{"osm_id":"6001346864","tag":{"amenity":"waste_basket","waste":"dog_excrement"}},"type":"Feature"},
	{"geometry":{"coordinates":[7.546265,47.505401],"type":"Point"},"properties":{"osm_id":"6001346866","tag":{"amenity":"waste_basket"}},"type":"Feature"},
	{"geometry":{"coordinates":[7.547027,47.50488],"type":"Point"},"properties":{"osm_id":"6001346869","tag":{"amenity":"waste_basket"}},"type":"Feature"},
	{"geometry":{"coordinates":[7.551304,47.506603],"type":"Point"},"properties":{"osm_id":"6001346874","tag":{"amenity":"waste_basket"}},"type":"Feature"},
	{"geometry":{"coordinates":[7.551366,47.508353],"type":"Point"},"properties":{"osm_id":"6001346875","tag":{"amenity":"waste_basket","waste":"dog_excrement"}},"type":"Feature"},
	{"geometry":{"coordinates":[7.551426,47.508428],"type":"Point"},"properties":{"osm_id":"6001346877","tag":{"amenity":"waste_basket"}},"type":"Feature"},
	{"geometry":{"coordinates":[7.552482,47.509924],"type":"Point"},"properties":{"osm_id":"6001346878","tag":{"amenity":"waste_basket","waste":"dog_excrement"}},"type":"Feature"},
	{"geometry":{"coordinates":[7.552603,47.510001],"type":"Point"},"properties":{"osm_id":"6001346880","tag":{"amenity":"waste_basket"}},"type":"Feature"},
	{"geometry":{"coordinates":[7.553487,47.510667],"type":"Point"},"properties":{"osm_id":"6001346881","tag":{"amenity":"waste_basket"}},"type":"Feature"},
	{"geometry":{"coordinates":[7.516809,47.47737],"type":"Point"},"properties":{"osm_id":"6329172691","tag":{"amenity":"waste_basket"}},"type":"Feature"},
	{"geometry":{"coordinates":[7.557243,47.483265],"type":"Point"},"properties":{"osm_id":"6532546472","tag":{"amenity":"waste_basket"}},"type":"Feature"},
	{"geometry":{"coordinates":[7.550436,47.484124],"type":"Point"},"properties":{"osm_id":"6532580414","tag":{"amenity":"waste_basket"}},"type":"Feature"},
	{"geometry":{"coordinates":[7.557946,47.505178],"type":"Point"},"properties":{"name":"Labdoo Annahmestelle f\u00c3\u00bcr Laptops","osm_id":"6543053225","tag":{"addr:city":"Therwil","addr:housenumber":"14","addr:postcode":"4106","addr:street":"Im Wilacker","amenity":"recycling","brand":"Labdoo","charity":"yes","description":"Bitte vorher mit Kuorosh Moezzi, kuorosh.moezzi@labdoo.org einen Termin vereinbaren. Er ist an Werktagen zwischen 11 und 17 Uhr erreichbar.","email":"kuorosh.moezzi@labdoo.org","location":"indoor","operator":"Kuorosh Moezzi","recycling:computers":"yes","recycling:mobile_phones":"yes","recycling_type":"centre","website":"https://www.labdoo.org/de/hub?h=16406"}},"type":"Feature"},
	{"geometry":{"coordinates":[7.545878,47.483608],"type":"Point"},"properties":{"osm_id":"6612196166","tag":{"amenity":"waste_basket"}},"type":"Feature"},
	{"geometry":{"coordinates":[7.544695,47.481861],"type":"Point"},"properties":{"osm_id":"6612196169","tag":{"amenity":"waste_basket"}},"type":"Feature"},
	{"geometry":{"coordinates":[7.543105,47.481481],"type":"Point"},"properties":{"osm_id":"6612196173","tag":{"amenity":"waste_basket"}},"type":"Feature"},
	{"geometry":{"coordinates":[7.543051,47.480338],"type":"Point"},"properties":{"osm_id":"6612196174","tag":{"amenity":"waste_basket"}},"type":"Feature"}
]
}
