{
"type": "FeatureCollection",
"features": [
	{"geometry":{"coordinates":[7.544793,47.410495],"type":"Point"},"properties":{"name":"Labdoo Annahmestelle f\u00c3\u00bcr Laptops","osm_id":"6543316832","tag":{"addr:city":"Breitenbach","addr:housenumber":"16","addr:postcode":"4226","addr:street":"Brislachstrasse","amenity":"recycling","brand":"Labdoo","charity":"yes","description":"Zu Gesch\u00c3\u00a4ftszeiten k\u00c3\u00b6nnen Laptops an der Rezeption mit dem Hinweis Labdoo / Michael Beeler deponiert werden. Bei Fragen und ausserhalb der \u00c3\u0096ffnungszeiten kann Michael Beeler unter +41 79 102 68 68 zur Terminvereinbarung kontaktiert werden.","location":"indoor","operator":"Zahnarztpraxis Dr. med. dent. Sybille Beeler","phone":"+41 79 102 68 68","recycling:computers":"yes","recycling:mobile_phones":"yes","service_times":"Mo-Th 08:00-12:00,13:00-17:00; Fr 08:00-12:00","website":"https://www.labdoo.org/de/hub?h=35678"}},"type":"Feature"},
	{"geometry":{"coordinates":[7.502541,47.422753],"type":"Point"},"properties":{"osm_id":"6867514288","tag":{"amenity":"recycling","recycling_type":"container"}},"type":"Feature"},
	{"geometry":{"coordinates":[7.503068,47.416411],"type":"Point"},"properties":{"osm_id":"7569808264","tag":{"amenity":"waste_basket"}},"type":"Feature"},
	{"geometry":{"coordinates":[7.49918,47.425122],"type":"Point"},"properties":{"osm_id":"9023020125","tag":{"amenity":"waste_basket"}},"type":"Feature"},
	{"geometry":{"coordinates":[7.498002,47.424029],"type":"Point"},"properties":{"osm_id":"9023020997","tag":{"amenity":"waste_basket"}},"type":"Feature"}
]
}
