{
"type": "FeatureCollection",
"features": [
	{"geometry":{"coordinates":[7.509957,47.220979],"type":"Point"},"properties":{"name":"Entsorgungsstelle","osm_id":"4585608072","tag":{"amenity":"recycling","opening_hours":"Mo-Fr 07:00-11:45,13:15-18:00; Sa 08:00-11:45; PH off","recycling_type":"centre"}},"type":"Feature"},
	{"geometry":{"coordinates":[7.514806,47.221465],"type":"Point"},"properties":{"osm_id":"4810003485","tag":{"amenity":"waste_basket"}},"type":"Feature"},
	{"geometry":{"coordinates":[7.535096,47.220247],"type":"Point"},"properties":{"osm_id":"5016367140","tag":{"amenity":"recycling","recycling:cans":"yes","recycling:glass_bottles":"yes","recycling_type":"container"}},"type":"Feature"},
	{"geometry":{"coordinates":[7.541422,47.219804],"type":"Point"},"properties":{"osm_id":"6374525901","tag":{"amenity":"waste_basket"}},"type":"Feature"},
	{"geometry":{"coordinates":[7.557828,47.252862],"type":"Point"},"properties":{"osm_id":"6421776851","tag":{"amenity":"recycling","recycling:aluminium":"underground","recycling:cans":"yes","recycling:glass_bottles":"yes","recycling_type":"container"}},"type":"Feature"},
	{"geometry":{"coordinates":[7.5547,47.219983],"type":"Point"},"properties":{"osm_id":"6484414419","tag":{"amenity":"recycling","recycling:pet":"yes","recycling_type":"container"}},"type":"Feature"},
	{"geometry":{"coordinates":[7.488358,47.22527],"type":"Point"},"properties":{"osm_id":"6595045101","tag":{"amenity":"waste_basket"}},"type":"Feature"},
	{"geometry":{"coordinates":[7.528909,47.22977],"type":"Point"},"properties":{"osm_id":"7312192307","tag":{"addr:city":"R\u00c3\u00bcttenen","addr:postcode":"4522","addr:street":"Hauptstrasse","amenity":"recycling","operator":"Einwohnergemeinde R\u00c3\u00bcttenen","recycling_type":"centre"}},"type":"Feature"},
	{"geometry":{"coordinates":[7.499411,47.223045],"type":"Point"},"properties":{"osm_id":"7581082850","tag":{"amenity":"waste_basket"}},"type":"Feature"},
	{"geometry":{"coordinates":[7.492941,47.223998],"type":"Point"},"properties":{"osm_id":"7581082851","tag":{"amenity":"waste_basket"}},"type":"Feature"},
	{"geometry":{"coordinates":[7.471097,47.221939],"type":"Point"},"properties":{"osm_id":"7581082858","tag":{"amenity":"waste_basket"}},"type":"Feature"},
	{"geometry":{"coordinates":[7.504754,47.233015],"type":"Point"},"properties":{"osm_id":"7589884283","tag":{"amenity":"waste_basket"}},"type":"Feature"}
]
}
